{"version": 0.6, "generator": "Overpass API 0.7.62.7 375dc00a", "osm3s": {"timestamp_osm_base": "2025-06-14T14:53:30Z", "copyright": "The data included in this document is from www.openstreetmap.org. The data is made available under ODbL."}, "elements": [{"type": "node", "id": 3095149942, "lat": 39.3845237, "lon": 27.6538376, "tags": {"amenity": "restaurant"}}, {"type": "node", "id": 7899840192, "lat": 39.1068925, "lon": 27.6741921, "tags": {"addr:city": "Manisa", "addr:district": "K\u0131rka\u011fa\u00e7", "addr:housenumber": "No16,", "addr:neighbourhood": "\u015eair E\u015fref Mahallesi", "addr:postcode": "45700", "addr:street": "70 sokak \u0130stasyon caddesi", "amenity": "restaurant", "cuisine": "pizza;hamburger;salata;makarna;calzone;tavada_tavuk;\u00e7\u0131t\u0131r_tavuk_kovas\u0131;so\u011fuk_i\u00e7ecekler;s\u0131cak_i\u00e7ecekler;aperatifler;tatl\u0131lar", "diet:halal": "yes", "diet:meat": "yes", "diet:vegetarian": "yes", "name": "Pizza Tomato K\u0131rka\u011fa\u00e7", "opening_hours": "Mo-Su 10:00-22:00", "phone": "+902365884444", "website": "https://www.pizzatomato.com.tr/pizza-tomato-kirkagac-menu"}}, {"type": "node", "id": 11572042560, "lat": 39.3481381, "lon": 27.6266644, "tags": {"amenity": "restaurant", "name": "Oksijen 266 - Sava\u015ftepe Dinlenme Tesisleri"}}, {"type": "node", "id": 11572042561, "lat": 39.3488823, "lon": 27.6294065, "tags": {"amenity": "restaurant", "name": "Oksijen 266 - Sava\u015ftepe Dinlenme Tesisleri"}}, {"type": "node", "id": 12828816701, "lat": 39.1809201, "lon": 27.6777992, "tags": {"amenity": "cafe", "name": "Al G\u00f6t\u00fcr"}}, {"type": "node", "id": 12828816801, "lat": 39.1808018, "lon": 27.6778443, "tags": {"amenity": "restaurant"}}, {"type": "node", "id": 12887447680, "lat": 39.4702446, "lon": 27.3645837, "tags": {"amenity": "cafe", "name": "Beyzam Kafe", "phone": "+90 0543 375 53 04"}}]}