{"version": 0.6, "generator": "Overpass API 0.7.62.7 375dc00a", "osm3s": {"timestamp_osm_base": "2025-06-14T15:22:13Z", "copyright": "The data included in this document is from www.openstreetmap.org. The data is made available under ODbL."}, "elements": [{"type": "node", "id": 572540911, "lat": 35.9157734, "lon": 37.5780355, "tags": {"alt_name": "\u062c\u0628\u064a\u0646", "amenity": "restaurant", "int_name": "Joubbaine, Joubba\u00efne, Jubbayn", "is_in": "Syria, \u0627\u0644\u062c\u0645\u0647\u0648\u0631\u064a\u0629 \u0627\u0644\u0639\u0631\u0628\u064a\u0629 \u0627\u0644\u0633\u0648\u0631\u064a\u0629 \u060c \u0633\u0648\u0631\u064a\u0627", "name": "Village Inn", "name:ar": "\u062c\u0628\u064a\u0646", "name:ar1": "\u062c\u0628\u064a\u0646", "name:de": "Jubbayn", "name:en": "Jubbayn", "name:fr": "Jubbayn", "note": "misplaced village geonet names"}}, {"type": "node", "id": 6597580186, "lat": 36.0623407, "lon": 37.3728759, "tags": {"amenity": "restaurant", "name": "\u0627\u0633\u062a\u0631\u0627\u062d\u0629 \u0627\u0644\u0633\u0641\u064a\u0631\u0629", "name:en": "Al-Safiera Resturant"}}]}