{"version": 0.6, "generator": "Overpass API 0.7.62.7 375dc00a", "osm3s": {"timestamp_osm_base": "2025-06-14T15:20:06Z", "copyright": "The data included in this document is from www.openstreetmap.org. The data is made available under ODbL."}, "elements": [{"type": "node", "id": 6697351736, "lat": 37.7959412, "lon": 37.4695897, "tags": {"addr:city": "D\u00fczbag", "addr:district": "Caglayancerit", "addr:postcode": "46720", "addr:street": "G\u00f6ks\u00fc Cd.", "amenity": "cafe", "cuisine": "breakfast;coffee;tea", "name": "Karacay", "outdoor_seating": "yes"}}, {"type": "node", "id": 11140265437, "lat": 37.7974892, "lon": 37.6611125, "tags": {"amenity": "restaurant", "name": "K\u0131y\u0131 Restaurant Alabal\u0131k"}}, {"type": "node", "id": 11140265445, "lat": 37.795346, "lon": 37.6602872, "tags": {"addr:city": "Ad\u0131yaman", "addr:district": "G\u00f6lba\u015f\u0131", "addr:neighbourhood": "Mimar Sinan, Ak\u00e7akaya Caddesi, 02500 G\u00f6lba\u015f\u0131/Ad\u0131yaman, T\u00fcrkiye", "addr:postcode": "02500", "addr:street": "Ak\u00e7akaya Caddesi", "amenity": "cafe", "name": "Satom cafe"}}]}