{"version": 0.6, "generator": "Overpass API 0.7.62.7 375dc00a", "osm3s": {"timestamp_osm_base": "2025-06-14T13:51:30Z", "copyright": "The data included in this document is from www.openstreetmap.org. The data is made available under ODbL."}, "elements": [{"type": "node", "id": 469755850, "lat": 42.7356763, "lon": 12.8355531, "tags": {"amenity": "cafe", "name": "Bar Alberto"}}, {"type": "node", "id": 521356603, "lat": 42.5500251, "lon": 12.7187207, "tags": {"amenity": "restaurant", "cuisine": "italian", "name": "Bar Pizzeria"}}, {"type": "node", "id": 521382778, "lat": 42.5538274, "lon": 12.7134337, "tags": {"amenity": "cafe", "name": "Bottega del Turista"}}, {"type": "node", "id": 568432244, "lat": 42.6753753, "lon": 12.6103402, "tags": {"amenity": "restaurant", "cuisine": "regional", "name": "La Caprareccia"}}, {"type": "node", "id": 596692501, "lat": 42.5632211, "lon": 12.568706, "tags": {"amenity": "restaurant", "name": "La Leccarda"}}, {"type": "node", "id": 610559171, "lat": 42.5919639, "lon": 12.5700324, "tags": {"amenity": "restaurant", "cuisine": "regional", "name": "La Taverna del contadino 3"}}, {"type": "node", "id": 611224535, "lat": 42.6375792, "lon": 12.5586327, "tags": {"amenity": "cafe"}}, {"type": "node", "id": 612403915, "lat": 42.5809046, "lon": 12.6211781, "tags": {"amenity": "restaurant", "name": "Lo Scugnizzo"}}, {"type": "node", "id": 612458117, "lat": 42.551076, "lon": 12.5297005, "tags": {"amenity": "restaurant", "cuisine": "regional", "name": "Italia 61"}}, {"type": "node", "id": 666402402, "lat": 42.6501561, "lon": 12.5496502, "tags": {"amenity": "restaurant", "cuisine": "regional", "name": "L'Arieta"}}, {"type": "node", "id": 672952464, "lat": 42.663545, "lon": 12.5769527, "tags": {"amenity": "restaurant"}}, {"type": "node", "id": 685558253, "lat": 42.5641618, "lon": 12.6440023, "tags": {"amenity": "cafe", "name": "Paggi & Serangeli"}}, {"type": "node", "id": 685792553, "lat": 42.5680903, "lon": 12.6408581, "tags": {"amenity": "cafe", "name": "D'Antonio"}}, {"type": "node", "id": 693543799, "lat": 42.5432389, "lon": 12.6902363, "tags": {"amenity": "restaurant", "cuisine": "regional", "name": "Il Focolare"}}, {"type": "node", "id": 761478568, "lat": 42.5581417, "lon": 12.551732, "tags": {"amenity": "restaurant", "cuisine": "italian", "name": "Al Canto del Gallo"}}, {"type": "node", "id": 861158886, "lat": 42.6123194, "lon": 12.5488178, "tags": {"amenity": "restaurant", "cuisine": "italian"}}, {"type": "node", "id": 909307747, "lat": 42.5759571, "lon": 12.5732176, "tags": {"amenity": "restaurant", "name": "Caff\u00e8 Zero"}}, {"type": "node", "id": 911079811, "lat": 42.5653771, "lon": 12.652115, "tags": {"amenity": "cafe", "name": "Vetturini"}}, {"type": "node", "id": 917045193, "lat": 42.6183447, "lon": 12.797771, "tags": {"amenity": "restaurant", "name": "La mola del Sacramento"}}, {"type": "node", "id": 920579960, "lat": 42.5695356, "lon": 12.6093591}, {"type": "node", "id": 920580185, "lat": 42.5696551, "lon": 12.6093555}, {"type": "node", "id": 920580227, "lat": 42.5695489, "lon": 12.6098459}, {"type": "node", "id": 920580271, "lat": 42.5696763, "lon": 12.6098386}, {"type": "node", "id": 955238263, "lat": 42.557605, "lon": 12.6495056, "tags": {"addr:city": "Terni", "addr:country": "IT", "addr:housenumber": "41", "addr:postcode": "05100", "addr:street": "Via Piave", "amenity": "cafe", "name": "iCaff\u00e9099", "opening_hours": "Mo-Su 07:00-23:00; PH off", "phone": "+39 0744293566"}}, {"type": "node", "id": 955238950, "lat": 42.5592019, "lon": 12.6507726, "tags": {"amenity": "restaurant", "name": "Appizza"}}, {"type": "node", "id": 955403413, "lat": 42.5610462, "lon": 12.6528555, "tags": {"amenity": "restaurant"}}, {"type": "node", "id": 995355907, "lat": 42.5835428, "lon": 12.699497}, {"type": "node", "id": 995356618, "lat": 42.5833443, "lon": 12.699762}, {"type": "node", "id": 995356881, "lat": 42.5833696, "lon": 12.6996858}, {"type": "node", "id": 995357099, "lat": 42.5834331, "lon": 12.6999072}, {"type": "node", "id": 995357205, "lat": 42.5836515, "lon": 12.6996726}, {"type": "node", "id": 995357298, "lat": 42.5833869, "lon": 12.699714}, {"type": "node", "id": 995432296, "lat": 42.6448174, "lon": 12.7321268}, {"type": "node", "id": 995432389, "lat": 42.6449302, "lon": 12.7321986}, {"type": "node", "id": 995432436, "lat": 42.6448914, "lon": 12.7325054}, {"type": "node", "id": 995432497, "lat": 42.6448773, "lon": 12.7323376}, {"type": "node", "id": 995432693, "lat": 42.644627, "lon": 12.7320165}, {"type": "node", "id": 995432785, "lat": 42.6446023, "lon": 12.7320788}, {"type": "node", "id": 995432805, "lat": 42.6446623, "lon": 12.7322609}, {"type": "node", "id": 995432873, "lat": 42.644761, "lon": 12.7322514}, {"type": "node", "id": 995433040, "lat": 42.6449267, "lon": 12.7324047}, {"type": "node", "id": 995433073, "lat": 42.644694, "lon": 12.7321411}, {"type": "node", "id": 995433109, "lat": 42.6448103, "lon": 12.7323808}, {"type": "node", "id": 995433148, "lat": 42.6452686, "lon": 12.7324191}, {"type": "node", "id": 995433170, "lat": 42.6452016, "lon": 12.7326156}, {"type": "node", "id": 995433176, "lat": 42.6447821, "lon": 12.7324718}, {"type": "node", "id": 1002982235, "lat": 42.5594152, "lon": 12.6353917}, {"type": "node", "id": 1023045785, "lat": 42.6728902, "lon": 12.6037154}, {"type": "node", "id": 1023045804, "lat": 42.6727333, "lon": 12.6036707}, {"type": "node", "id": 1023045874, "lat": 42.6730103, "lon": 12.6037734}, {"type": "node", "id": 1023045944, "lat": 42.6727333, "lon": 12.6037934}, {"type": "node", "id": 1023045979, "lat": 42.672772, "lon": 12.6037303, "tags": {"amenity": "cafe"}}, {"type": "node", "id": 1023046003, "lat": 42.6729754, "lon": 12.6037721}, {"type": "node", "id": 1023046104, "lat": 42.6728747, "lon": 12.6037958}, {"type": "node", "id": 1023046236, "lat": 42.6729744, "lon": 12.603722}, {"type": "node", "id": 1023046334, "lat": 42.6728911, "lon": 12.6036746}, {"type": "node", "id": 1023046367, "lat": 42.6728737, "lon": 12.6038775}, {"type": "node", "id": 1023046596, "lat": 42.6730112, "lon": 12.6038801}, {"type": "node", "id": 1080913354, "lat": 42.5464467, "lon": 12.6418136, "tags": {"amenity": "cafe"}}, {"type": "node", "id": 1082816782, "lat": 42.5720271, "lon": 12.6338373, "tags": {"amenity": "cafe"}}, {"type": "node", "id": 1082817229, "lat": 42.5708973, "lon": 12.6343791, "tags": {"amenity": "cafe"}}, {"type": "node", "id": 1082850135, "lat": 42.5902185, "lon": 12.6761575, "tags": {"amenity": "restaurant"}}, {"type": "node", "id": 1100367340, "lat": 42.671865, "lon": 12.5518045}, {"type": "node", "id": 1100368420, "lat": 42.6720467, "lon": 12.5517903}, {"type": "node", "id": 1100368675, "lat": 42.6720387, "lon": 12.551568}, {"type": "node", "id": 1100369006, "lat": 42.6718571, "lon": 12.5515833}, {"type": "node", "id": 1110757740, "lat": 42.6429883, "lon": 12.7306143}, {"type": "node", "id": 1635773766, "lat": 42.5640263, "lon": 12.903032}, {"type": "node", "id": 1635773774, "lat": 42.5640535, "lon": 12.9032152}, {"type": "node", "id": 1635773787, "lat": 42.5641975, "lon": 12.9029852}, {"type": "node", "id": 1635773789, "lat": 42.5642247, "lon": 12.9031685}, {"type": "node", "id": 1765827803, "lat": 42.551513, "lon": 12.6301726, "tags": {"amenity": "cafe", "name": "Veronica Bar"}}, {"type": "node", "id": 1779171305, "lat": 42.5662621, "lon": 12.9622587, "tags": {"amenity": "restaurant", "cuisine": "italian", "name": "Pizzeria"}}, {"type": "node", "id": 1779522009, "lat": 42.5176039, "lon": 12.5159083, "tags": {"amenity": "cafe", "name": "Caff\u00e8 Il Centro d' Italia"}}, {"type": "node", "id": 1779684705, "lat": 42.5176419, "lon": 12.5164115, "tags": {"amenity": "restaurant", "cuisine": "italian", "name": "Pizzeria"}}, {"type": "node", "id": 2129818991, "lat": 42.5340699, "lon": 12.6866669, "tags": {"amenity": "restaurant", "cuisine": "italian"}}, {"type": "node", "id": 2150956616, "lat": 42.7397149, "lon": 12.7374787, "tags": {"addr:city": "Spoleto", "addr:housenumber": "6", "addr:street": "Piazza Giuseppe Garibaldi", "amenity": "cafe", "name": "Bonucci", "opening_hours": "Mo-Sa 07:30-13:15, 16:00-19:30", "phone": "+39 0743 224065", "shop": "bakery"}}, {"type": "node", "id": 2150966711, "lat": 42.7399039, "lon": 12.7367823, "tags": {"addr:housenumber": "24", "addr:street": "Piazza Giuseppe Garibaldi", "amenity": "restaurant", "check_date": "2024-05-19", "name": "Ristorante Il Tartufo"}}, {"type": "node", "id": 2151577078, "lat": 42.7317848, "lon": 12.7356944, "tags": {"amenity": "restaurant", "name": "Ristorante Pizzeria Tre Fontane"}}, {"type": "node", "id": 2151681256, "lat": 42.7341063, "lon": 12.7369495, "tags": {"addr:city": "Spoleto", "addr:street": "Vicolo del Mercato", "amenity": "restaurant", "check_date": "2024-05-19", "cuisine": "regional", "description:it": "Men\u00f9 fisso a sorpresa", "internet_access": "no", "name": "Osteria del Matto", "outdoor_seating": "no", "payment:cash": "yes", "payment:mastercard": "yes", "payment:visa": "yes", "reservation": "yes"}}, {"type": "node", "id": 2151714434, "lat": 42.7283777, "lon": 12.7353088}, {"type": "node", "id": 2151714457, "lat": 42.7284608, "lon": 12.7354986}, {"type": "node", "id": 2151714461, "lat": 42.7283478, "lon": 12.7355714}, {"type": "node", "id": 2159726259, "lat": 42.5834459, "lon": 12.6995999}, {"type": "node", "id": 2159726261, "lat": 42.5834694, "lon": 12.6996361}, {"type": "node", "id": 2251242509, "lat": 42.5618761, "lon": 12.6465668, "tags": {"addr:city": "Terni", "addr:housenumber": "9", "addr:postcode": "05100", "addr:street": "Via Cavour", "amenity": "restaurant", "name": "La Piazzetta"}}, {"type": "node", "id": 2251254002, "lat": 42.5585466, "lon": 12.6056717, "tags": {"addr:city": "Terni", "addr:housenumber": "5", "addr:postcode": "05100", "addr:street": "Via Aldo Bartocci", "amenity": "restaurant", "name": "All Days"}}, {"type": "node", "id": 2252570872, "lat": 42.5526481, "lon": 12.641143, "tags": {"addr:city": "Terni", "addr:housenumber": "109", "addr:postcode": "05100", "addr:street": "Via Giuseppe Di Vittorio", "amenity": "cafe", "name": "Caff\u00e9 Commercio"}}, {"type": "node", "id": 2252602118, "lat": 42.5597048, "lon": 12.6480123, "tags": {"addr:city": "Terni", "addr:housenumber": "2", "addr:postcode": "05100", "addr:street": "Via Cristoforo Colombo", "amenity": "restaurant", "cuisine": "pizza", "name": "Pizzeria Il Tempio"}}, {"type": "node", "id": 2256034296, "lat": 42.5620182, "lon": 12.6461674, "tags": {"addr:city": "Terni", "addr:housenumber": "19", "addr:postcode": "05100", "addr:street": "Via Cavour", "amenity": "restaurant", "cuisine": "italian", "internet_access": "yes", "internet_access:fee": "no", "name": "Benvenuti al sud", "phone": "+39 0744 428424"}}, {"type": "node", "id": 2265583385, "lat": 42.5600097, "lon": 12.6458213, "tags": {"addr:city": "Terni", "addr:housenumber": "99", "addr:postcode": "05100", "addr:street": "Via Roma", "amenity": "restaurant", "name": "L'angolo di vino", "smoking": "no"}}, {"type": "node", "id": 2271551022, "lat": 42.6458633, "lon": 12.824736, "tags": {"addr:city": "Macenano", "addr:housenumber": "29", "addr:postcode": "05034", "addr:street": "Strada Regionale 209 Valnerina", "amenity": "restaurant", "name": "Albergo Ristorante Ai tre Archi", "tourism": "hotel"}}, {"type": "node", "id": 2279062273, "lat": 42.5029868, "lon": 12.5083582, "tags": {"amenity": "restaurant"}}, {"type": "node", "id": 2279062301, "lat": 42.5033308, "lon": 12.509745, "tags": {"amenity": "restaurant", "cuisine": "italian", "name": "Da Palmira"}}, {"type": "node", "id": 2280845720, "lat": 42.551141, "lon": 12.6372346, "tags": {"addr:city": "Terni", "addr:postcode": "05100", "addr:street": "Via Giuseppe Di Vittorio", "amenity": "restaurant", "name": "Bar Ristorante L'insolito"}}, {"type": "node", "id": 2280845725, "lat": 42.5615231, "lon": 12.6480929, "tags": {"addr:city": "Terni", "addr:housenumber": "15", "addr:postcode": "05100", "addr:street": "Piazza dei Bambini e delle Bambine", "amenity": "cafe", "name": "Caff\u00e8 Firenze"}}, {"type": "node", "id": 2280845749, "lat": 42.5632231, "lon": 12.6458422, "tags": {"addr:city": "Terni", "addr:housenumber": "34", "addr:postcode": "05100", "addr:street": "Via Federico Fratini", "amenity": "restaurant", "name": "Crunch"}}, {"type": "node", "id": 2280845783, "lat": 42.5621507, "lon": 12.6457237, "tags": {"addr:city": "Terni", "addr:housenumber": "22", "addr:postcode": "05100", "addr:street": "Via Cavour", "amenity": "restaurant", "name": "Il Vinaio"}}, {"type": "node", "id": 2280845812, "lat": 42.5621902, "lon": 12.6464958, "tags": {"addr:city": "Terni", "addr:housenumber": "24c", "addr:postcode": "05100", "addr:street": "Piazza San Giovanni Decollato", "amenity": "restaurant", "cuisine": "italian", "internet_access": "yes", "internet_access:fee": "no", "name": "Trattoria Turati", "phone": "+39 0744 428424"}}, {"type": "node", "id": 2281941000, "lat": 42.5513708, "lon": 12.7138792, "tags": {"amenity": "cafe", "name": "La Specola Bar", "operator": "Umbria Risorse Srl", "ref:vatin": "IT01539090553"}}, {"type": "node", "id": 2283584004, "lat": 42.6183797, "lon": 12.7977114, "tags": {"amenity": "cafe", "name": "Mola del Sacramento"}}, {"type": "node", "id": 2283584040, "lat": 42.6182688, "lon": 12.7945063, "tags": {"addr:housenumber": "12", "addr:street": "Piazza Vittorio Emanuele", "amenity": "cafe", "name": "Bar Tabacchi", "opening_hours": "Tu-Su 05:45-00:00", "phone": "+39 0744 380022", "smoking": "outside", "tobacco": "yes"}}, {"type": "node", "id": 2288242743, "lat": 42.5520736, "lon": 12.6421617, "tags": {"addr:city": "Terni", "addr:country": "IT", "addr:housenumber": "7", "addr:postcode": "05100", "addr:street": "Via San Valentino", "amenity": "cafe", "name": "Bar Mentana", "operator": "Cuba libre sas"}}, {"type": "node", "id": 2288273025, "lat": 42.5624282, "lon": 12.6473194, "tags": {"addr:city": "Terni", "addr:housenumber": "10", "addr:postcode": "05100", "addr:street": "Corso Cornelio Tacito", "amenity": "cafe", "internet_access": "yes", "internet_access:fee": "customers", "name": "Pasticceria Pazzaglia", "operator": "Icimas srl", "outdoor_seating": "yes", "ref:vatin": "IT15868981000"}}, {"type": "node", "id": 2288392302, "lat": 42.5582725, "lon": 12.6444976, "tags": {"amenity": "cafe"}}, {"type": "node", "id": 2288397093, "lat": 42.5658664, "lon": 12.6492003, "tags": {"amenity": "cafe"}}, {"type": "node", "id": 2296690438, "lat": 42.5674446, "lon": 12.6478121, "tags": {"addr:city": "Terni", "addr:housenumber": "4", "addr:postcode": "05100", "addr:street": "Via Galileo Galilei", "amenity": "restaurant", "cuisine": "regional", "name": "Alfio Trattoria moderna", "phone": "+39 0744 420120"}}, {"type": "node", "id": 2296690455, "lat": 42.5639315, "lon": 12.6512216, "tags": {"addr:city": "Terni", "addr:housenumber": "5", "addr:postcode": "05100", "addr:street": "Via Tre Archi", "amenity": "restaurant", "cuisine": "regional", "name": "Oste della Mal'ora", "phone": "+39 0744 406683", "smoking": "no"}}, {"type": "node", "id": 2311280429, "lat": 42.5506747, "lon": 12.6361403, "tags": {"addr:city": "Terni", "addr:country": "IT", "addr:housenumber": "7", "addr:postcode": "05100", "addr:street": "Piazzale Senio", "amenity": "restaurant", "cuisine": "pizza", "name": "Zanzibar", "phone": "+39 0744 279632", "smoking": "outside"}}, {"type": "node", "id": 2314023709, "lat": 42.5626676, "lon": 12.6461302, "tags": {"addr:city": "Terni", "addr:country": "IT", "addr:housenumber": "12b", "addr:postcode": "05100", "addr:street": "Piazza San Giovanni Decollato", "amenity": "restaurant", "cuisine": "pizza", "name": "Il Cicalino", "operator": "Il Cicalino Terni Srl", "phone": "+39 0744 420014"}}, {"type": "node", "id": 2315637753, "lat": 42.5581961, "lon": 12.6446847, "tags": {"addr:city": "Terni", "addr:country": "IT", "addr:housenumber": "10", "addr:postcode": "05100", "addr:street": "Viale dell'Annunziata", "amenity": "restaurant", "cuisine": "italian", "name": "Loft 05", "operator": "Loyalty Sas", "phone": "+39 0744 59429"}}, {"type": "node", "id": 2319771433, "lat": 42.5638965, "lon": 12.6610474, "tags": {"amenity": "restaurant", "cuisine": "italian", "fax": "+39 0744 433549", "name": "Locanda del Vecchio Maglio", "phone": "+39 0744 433561", "website": "http://www.locandavecchiomaglio.it/"}}, {"type": "node", "id": 2337895678, "lat": 42.5508912, "lon": 12.6277702, "tags": {"addr:city": "Terni", "addr:country": "IT", "addr:housenumber": "29", "addr:postcode": "05100", "addr:street": "Via Alfonsine", "amenity": "restaurant", "cuisine": "pizza", "name": "Pizzeria il Ghiottone"}}, {"type": "node", "id": 2337895679, "lat": 42.5536558, "lon": 12.644707, "tags": {"addr:city": "Terni", "addr:country": "IT", "addr:housenumber": "24c", "addr:postcode": "05100", "addr:street": "Viale Filippo Turati", "amenity": "restaurant", "cuisine": "italian", "name": "Trattoria Turati", "smoking": "no"}}, {"type": "node", "id": 2338910459, "lat": 42.5369519, "lon": 12.754969, "tags": {"amenity": "restaurant", "name": "Trattoria Giosefatta", "phone": "+39 0744 368162"}}, {"type": "node", "id": 2344516384, "lat": 42.5694265, "lon": 12.626153, "tags": {"amenity": "cafe"}}, {"type": "node", "id": 2345455712, "lat": 42.5335462, "lon": 12.7819467, "tags": {"amenity": "restaurant", "name": "La vecchia osteria"}}, {"type": "node", "id": 2353876705, "lat": 42.536677, "lon": 12.7547471, "tags": {"addr:city": "Piediluco", "addr:housenumber": "61", "addr:postcode": "05100", "addr:street": "Corso Raniero Salvati", "amenity": "restaurant", "name": "Le Terrazze Di Piediluco", "phone": "+39 348 828 4691"}}, {"type": "node", "id": 2353876706, "lat": 42.5387866, "lon": 12.7551728, "tags": {"addr:city": "Terni", "addr:country": "IT", "addr:postcode": "05100", "addr:street": "Corso Raniero Salvati", "amenity": "restaurant", "name": "Trattoria Maril\u00f9"}}, {"type": "node", "id": 2354656470, "lat": 42.5354477, "lon": 12.755555, "tags": {"addr:city": "Piediluco", "addr:housenumber": "12", "addr:postcode": "05100", "addr:street": "Corso Quattro Novembre", "amenity": "restaurant", "name": "Trattoria Eco"}}, {"type": "node", "id": 2362850132, "lat": 42.5681333, "lon": 12.6530096, "tags": {"addr:city": "Terni", "addr:housenumber": "2", "addr:postcode": "05100", "addr:street": "Piazzale Antonio Bosco", "amenity": "restaurant", "cuisine": "giapponese;chinese;sushi", "name": "Sakura", "phone": "+39 0744 441502"}}, {"type": "node", "id": 2383180105, "lat": 42.5477704, "lon": 12.713071, "tags": {"addr:city": "Marmore", "addr:country": "IT", "addr:housenumber": "25", "addr:postcode": "05100", "addr:street": "Via Domenico Faggetti", "amenity": "restaurant", "cuisine": "italian;pizza", "email": "federicolupattelli@hotmail.com", "name": "Ristorante Pizzeria La Rocchetta", "opening_hours": "Mo-Su 12:00-24:00; Tu off", "phone": "+39 0744 67661", "ref:vatin": "IT01309780557", "website": "http://www.ristorantelarocchettamarmore.it/"}}, {"type": "node", "id": 2383682935, "lat": 42.5537628, "lon": 12.7075217, "tags": {"addr:city": "Terni", "addr:country": "IT", "addr:housenumber": "23", "addr:postcode": "05100", "addr:street": "Via Ponte del Toro", "amenity": "restaurant", "cuisine": "italian", "email": "info@anticopontedeltoro.it", "fax": "+39 0744 67636", "name": "Villaggio Albergo Ristorante Antico ponte del toro", "phone": "+39 0744 67636;+39 349 5544393", "website": "http://www.anticopontedeltoro.it"}}, {"type": "node", "id": 2384858104, "lat": 42.5803984, "lon": 12.7517624, "tags": {"addr:city": "Arrone", "addr:country": "IT", "addr:housenumber": "7", "addr:postcode": "05031", "addr:street": "Vocabolo Isola", "amenity": "restaurant", "cuisine": "italian", "email": "info@rossihotelristorante.it", "fax": "+39 0744 388305", "name": "Ristorante Rossi", "operator": "Adolfo Rossi & Company s.a.s.", "phone": "+39 0744 388372;+39 0744 388394", "website": "http://www.rossihotelristorante.it"}}, {"type": "node", "id": 2488587996, "lat": 42.7329639, "lon": 12.8353391, "tags": {"amenity": "cafe", "name": "Bar"}}, {"type": "node", "id": 2584246821, "lat": 42.5579752, "lon": 12.638758, "tags": {"amenity": "restaurant", "cuisine": "italian", "name": "Trattoria La Mora"}}, {"type": "node", "id": 2607567753, "lat": 42.7125111, "lon": 12.8315984, "tags": {"amenity": "restaurant", "name": "Osteria Baciafemmine", "wheelchair": "no"}}, {"type": "node", "id": 2607567788, "lat": 42.7124272, "lon": 12.8307096, "tags": {"amenity": "cafe", "name": "Bar"}}, {"type": "node", "id": 2607567790, "lat": 42.7125553, "lon": 12.8307552, "tags": {"amenity": "restaurant", "name": "Del Ponte"}}, {"type": "node", "id": 2607567791, "lat": 42.712034, "lon": 12.8308978, "tags": {"amenity": "restaurant", "name": "Locanda del Viandante"}}, {"type": "node", "id": 2607683763, "lat": 42.7129764, "lon": 12.8297826, "tags": {"amenity": "restaurant", "name": "Re Tart\u00f9"}}, {"type": "node", "id": 2607729103, "lat": 42.7197042, "lon": 12.8316696, "tags": {"amenity": "restaurant", "name": "Casale Urbani"}}, {"type": "node", "id": 2624606651, "lat": 42.7339387, "lon": 12.7370863, "tags": {"addr:street": "Piazza del Mercato", "amenity": "cafe", "name": "Antico Caff\u00e8", "opening_hours": "Mo-Su 07:00-21:00", "outdoor_seating": "yes", "phone": "+39 0743 420223", "smoking": "no"}}, {"type": "node", "id": 2624606652, "lat": 42.7339539, "lon": 12.7374324, "tags": {"amenity": "restaurant", "name": "Del Mercato"}}, {"type": "node", "id": 2683339414, "lat": 42.516697, "lon": 12.5209041, "tags": {"amenity": "cafe", "name": "Bar"}}, {"type": "node", "id": 2770264219, "lat": 42.5705451, "lon": 12.6090202, "tags": {"amenity": "restaurant", "brand": "Autogrill", "brand:wikidata": "Q786790", "cuisine": "italian;regional", "name": "Autogrill"}}, {"type": "node", "id": 2874043313, "lat": 42.7152203, "lon": 13.0118557, "tags": {"amenity": "restaurant", "name": "Il Tartufo"}}, {"type": "node", "id": 2874114260, "lat": 42.7163756, "lon": 13.0149285, "tags": {"amenity": "restaurant", "name": "Locanda Giustini"}}, {"type": "node", "id": 2874248149, "lat": 42.7215342, "lon": 13.0184661, "tags": {"amenity": "cafe"}}, {"type": "node", "id": 2874299430, "lat": 42.7205233, "lon": 13.0210849, "tags": {"amenity": "restaurant", "cuisine": "pizza;regional", "name": "Miramonti pizzeria e ristorante"}}, {"type": "node", "id": 2876048170, "lat": 42.7147711, "lon": 12.963287, "tags": {"amenity": "restaurant", "name": "La Porrina"}}, {"type": "node", "id": 2876048174, "lat": 42.7145381, "lon": 12.9634679, "tags": {"amenity": "cafe", "name": "Bar - Gelati"}}, {"type": "node", "id": 2876061836, "lat": 42.71469, "lon": 12.9629341, "tags": {"amenity": "cafe", "cuisine": "pizza", "name": "Bar - Pizza"}}, {"type": "node", "id": 2876061837, "lat": 42.7146636, "lon": 12.9626784, "tags": {"amenity": "cafe", "name": "La Pergola"}}, {"type": "node", "id": 2876061852, "lat": 42.7148661, "lon": 12.9612016, "tags": {"amenity": "cafe"}}, {"type": "node", "id": 2876061855, "lat": 42.7148282, "lon": 12.9610775, "tags": {"amenity": "restaurant", "cuisine": "regional", "name": "Roccaporena rist."}}, {"type": "node", "id": 2941004784, "lat": 42.7094005, "lon": 12.6111963}, {"type": "node", "id": 2941004785, "lat": 42.7095466, "lon": 12.6112368}, {"type": "node", "id": 2941004786, "lat": 42.7095437, "lon": 12.611256}, {"type": "node", "id": 2941004787, "lat": 42.709587, "lon": 12.611268}, {"type": "node", "id": 2941004788, "lat": 42.7095675, "lon": 12.6113987}, {"type": "node", "id": 2941004789, "lat": 42.7095341, "lon": 12.6113894}, {"type": "node", "id": 2941004790, "lat": 42.7095286, "lon": 12.6114259}, {"type": "node", "id": 2941004791, "lat": 42.7094132, "lon": 12.611394}, {"type": "node", "id": 2941004792, "lat": 42.7094155, "lon": 12.611379}, {"type": "node", "id": 2941004793, "lat": 42.7093947, "lon": 12.6113733}, {"type": "node", "id": 2941004794, "lat": 42.7094012, "lon": 12.6113299}, {"type": "node", "id": 2941004795, "lat": 42.7093813, "lon": 12.6113244}, {"type": "node", "id": 3293028823, "lat": 42.5834842, "lon": 12.6995581}, {"type": "node", "id": 3293028825, "lat": 42.5835041, "lon": 12.699598}, {"type": "node", "id": 3341414960, "lat": 42.5841699, "lon": 12.843727, "tags": {"amenity": "restaurant", "name": "Trattoria della Salute"}}, {"type": "node", "id": 3431819624, "lat": 42.5174719, "lon": 12.5162817}, {"type": "node", "id": 3431819625, "lat": 42.5175221, "lon": 12.516343}, {"type": "node", "id": 3431819626, "lat": 42.5175272, "lon": 12.5161985}, {"type": "node", "id": 3431819627, "lat": 42.5175773, "lon": 12.5162598}, {"type": "node", "id": 3443608670, "lat": 42.7156312, "lon": 13.0113144, "tags": {"addr:city": "Cascia", "addr:street": "Via Roma", "amenity": "restaurant", "capacity": "80", "cuisine": "regional", "delivery": "no", "name": "Ristorante la Brace", "smoking": "no", "takeaway": "yes"}}, {"type": "node", "id": 3455347360, "lat": 42.7254517, "lon": 12.6640844, "tags": {"amenity": "cafe", "name": "Caff\u00e9 Tropicana"}}, {"type": "node", "id": 3543524176, "lat": 42.5640176, "lon": 12.6456639, "tags": {"amenity": "cafe", "name": "Rendez-vous"}}, {"type": "node", "id": 3543529459, "lat": 42.5631675, "lon": 12.6445222, "tags": {"addr:city": "Terni", "addr:housenumber": "54", "addr:postcode": "05100", "addr:street": "Via del Leone", "amenity": "restaurant", "name": "Retro Ristorantino"}}, {"type": "node", "id": 3744652499, "lat": 42.5340965, "lon": 12.5181888, "tags": {"amenity": "cafe", "name": "Bar Rinalducci"}}, {"type": "node", "id": 3744652501, "lat": 42.5366275, "lon": 12.5205336, "tags": {"amenity": "cafe", "name": "Ponte di Augusto"}}, {"type": "node", "id": 3749161661, "lat": 42.5316283, "lon": 12.7563779}, {"type": "node", "id": 3749161662, "lat": 42.5315158, "lon": 12.7567028}, {"type": "node", "id": 3749161663, "lat": 42.5316337, "lon": 12.7566991}, {"type": "node", "id": 3777986051, "lat": 42.7342187, "lon": 12.7371511, "tags": {"amenity": "cafe", "name": "Bar Primavera"}}, {"type": "node", "id": 3800376696, "lat": 42.7276216, "lon": 12.6795388, "tags": {"amenity": "restaurant", "name": "La Fattoria"}}, {"type": "node", "id": 3820563283, "lat": 42.6316122, "lon": 12.7330477, "tags": {"amenity": "restaurant", "name": "Scacco Matto"}}, {"type": "node", "id": 3839779948, "lat": 42.5610426, "lon": 12.6465888, "tags": {"amenity": "cafe", "name": "Caff\u00e9 Morandi"}}, {"type": "node", "id": 3854831606, "lat": 42.5833359, "lon": 12.6097983, "tags": {"addr:housenumber": "23", "addr:street": "Via del Centenario", "amenity": "restaurant", "name": "Salefino Ristocaf\u00e9"}}, {"type": "node", "id": 3854831607, "lat": 42.583326, "lon": 12.6098694, "tags": {"amenity": "cafe"}}, {"type": "node", "id": 3861260578, "lat": 42.5453179, "lon": 12.6503022, "tags": {"amenity": "restaurant", "cuisine": "italian", "name": "Pizzeria Very Good"}}, {"type": "node", "id": 3915263904, "lat": 42.6281659, "lon": 12.7959454, "tags": {"addr:city": "Ferentillo", "addr:postcode": "05034", "addr:street": "Strada Regionale 209 Valnerina", "amenity": "restaurant", "name": "Osteria Del Trap Da Umberto"}}, {"type": "node", "id": 4293469009, "lat": 42.5639842, "lon": 12.6502521, "tags": {"addr:city": "Terni", "addr:housenumber": "8", "addr:postcode": "05100", "addr:street": "Via Anastasio De Filis", "amenity": "restaurant", "cuisine": "regional", "name": "Trattoria Lillero", "phone": "+39 3395914140", "website": "http://www.lillero.it/"}}, {"type": "node", "id": 4311095509, "lat": 42.724921, "lon": 12.7514603}, {"type": "node", "id": 4311095512, "lat": 42.725015, "lon": 12.751134}, {"type": "node", "id": 4311095513, "lat": 42.7250998, "lon": 12.7514921}, {"type": "node", "id": 4311095522, "lat": 42.7251286, "lon": 12.751209}, {"type": "node", "id": 4311095523, "lat": 42.7251436, "lon": 12.7511686}, {"type": "node", "id": 4311095524, "lat": 42.7251969, "lon": 12.7512057}, {"type": "node", "id": 4346873708, "lat": 42.5635687, "lon": 12.6450292, "tags": {"amenity": "restaurant", "name": "Osteria dell'olmo"}}, {"type": "node", "id": 4346903689, "lat": 42.5663061, "lon": 12.6478544, "tags": {"amenity": "restaurant", "name": "Ristorante cinese \"Pechino\""}}, {"type": "node", "id": 4366147027, "lat": 42.7392339, "lon": 12.8367205}, {"type": "node", "id": 4366147028, "lat": 42.7392514, "lon": 12.8366258}, {"type": "node", "id": 4366147029, "lat": 42.739423, "lon": 12.8367854}, {"type": "node", "id": 4366147030, "lat": 42.7394405, "lon": 12.8366907}, {"type": "node", "id": 4380326950, "lat": 42.7134097, "lon": 12.7217888}, {"type": "node", "id": 4380326951, "lat": 42.7132972, "lon": 12.7219492}, {"type": "node", "id": 4380326952, "lat": 42.712974, "lon": 12.7215292}, {"type": "node", "id": 4380326953, "lat": 42.7130865, "lon": 12.7213688}, {"type": "node", "id": 4420563236, "lat": 42.7335576, "lon": 12.7362526, "tags": {"addr:city": "Spoleto", "addr:housenumber": "6", "addr:postcode": "06049", "addr:street": "Via della Trattoria", "amenity": "restaurant", "cuisine": "regional", "name": "Taverna la lanterna", "opening_hours": "We off; Mo, Th-Su 12:30-14:30; Mo, Th-Su 19:30-22:30", "phone": "+39 0743 49815"}}, {"type": "node", "id": 4420563417, "lat": 42.7361118, "lon": 12.7370207, "tags": {"addr:city": "Spoleto", "addr:housenumber": "10a", "addr:postcode": "06049", "addr:street": "Piazzetta San Giovanni e Paolo", "amenity": "restaurant", "cuisine": "regional", "name": "Cantina de' Corvi"}}, {"type": "node", "id": 4420563420, "lat": 42.7331022, "lon": 12.7362918, "tags": {"addr:city": "Spoleto", "addr:postcode": "06049", "addr:street": "Via Filippo Brignone", "amenity": "restaurant", "cuisine": "regional", "name": "Trattoria del festival"}}, {"type": "node", "id": 4558919837, "lat": 42.5723897, "lon": 12.6577838, "tags": {"addr:housenumber": "1", "addr:street": "Via Eclo Piermatti", "amenity": "restaurant", "cuisine": "italian;pizza", "name": "Ristorante Pizzeria Le Macine", "phone": "+39 0744 440092"}}, {"type": "node", "id": 4709873177, "lat": 42.73099, "lon": 12.7339483}, {"type": "node", "id": 4709873178, "lat": 42.7309155, "lon": 12.733877}, {"type": "node", "id": 4709873179, "lat": 42.7308734, "lon": 12.7339656}, {"type": "node", "id": 4709873180, "lat": 42.730949, "lon": 12.7340309}, {"type": "node", "id": 4732040411, "lat": 42.7252082, "lon": 12.7521174}, {"type": "node", "id": 4732040412, "lat": 42.7252472, "lon": 12.7523432}, {"type": "node", "id": 4732040413, "lat": 42.7251497, "lon": 12.7523645}, {"type": "node", "id": 4732040414, "lat": 42.7251126, "lon": 12.752144}, {"type": "node", "id": 4735919173, "lat": 42.5315104, "lon": 12.7563815}, {"type": "node", "id": 4742862826, "lat": 42.7306002, "lon": 12.6814108, "tags": {"addr:city": "Spoleto", "addr:housenumber": "47", "addr:postcode": "06049", "addr:street": "Via Eugenio Curiel", "amenity": "cafe", "name": "Bar Kiss", "operator": "Ludo Srl", "outdoor_seating": "yes", "phone": "+39 0743 228065", "smoking": "outside"}}, {"type": "node", "id": 4743436881, "lat": 42.7311044, "lon": 12.6789619, "tags": {"amenity": "cafe", "name": "Circolo Arci"}}, {"type": "node", "id": 4778243907, "lat": 42.7345678, "lon": 12.7375591, "tags": {"addr:housenumber": "5", "addr:street": "piazza Fratelli Bandiera", "amenity": "restaurant", "cuisine": "italian", "name": "La Barcaccia", "outdoor_seating": "yes"}}, {"type": "node", "id": 4787002867, "lat": 42.5371888, "lon": 12.7499535}, {"type": "node", "id": 4787002868, "lat": 42.5369888, "lon": 12.7496547}, {"type": "node", "id": 4787002869, "lat": 42.5369397, "lon": 12.7495815}, {"type": "node", "id": 4787002870, "lat": 42.5368993, "lon": 12.7496314}, {"type": "node", "id": 4787002871, "lat": 42.5369494, "lon": 12.7497063}, {"type": "node", "id": 4787002872, "lat": 42.5368615, "lon": 12.7498147}, {"type": "node", "id": 4787002874, "lat": 42.537069, "lon": 12.7499239}, {"type": "node", "id": 4787002875, "lat": 42.5371026, "lon": 12.749974}, {"type": "node", "id": 4787002876, "lat": 42.5371218, "lon": 12.7499504}, {"type": "node", "id": 4787002877, "lat": 42.5371533, "lon": 12.7499974}, {"type": "node", "id": 4795436923, "lat": 42.5477356, "lon": 12.71792, "tags": {"addr:housenumber": "197", "addr:street": "Via Pietro Montesi", "amenity": "restaurant", "name": "Trattoria del buongusto", "opening_hours": "Mo-Su 12:00-14:30, 19:00-22:30", "operational_status": "closed", "phone": "+39 0744 67536"}}, {"type": "node", "id": 4816015991, "lat": 42.6136755, "lon": 12.5802093, "tags": {"amenity": "restaurant", "cuisine": "italian", "name": "La Caprareccia"}}, {"type": "node", "id": 4818094122, "lat": 42.5504239, "lon": 12.7172641, "tags": {"amenity": "cafe", "name": "La cascata dei sapori", "name:it": "La cascata dei sapori", "opening_hours": "Mo-Su 08:00-24:00", "phone": "+393491090231"}}, {"type": "node", "id": 4827162923, "lat": 42.7331876, "lon": 12.7369819, "tags": {"addr:housenumber": "11", "addr:street": "Via Arco di Druso", "amenity": "restaurant", "name": "Tempio del Gusto"}}, {"type": "node", "id": 4828001822, "lat": 42.7320615, "lon": 12.7367612, "tags": {"amenity": "restaurant", "name": "L'Angolo antico", "opening_hours": "Tu-Su 12:30-14:30; Tu-Su 19:30-22:00"}}, {"type": "node", "id": 4831471023, "lat": 42.7388835, "lon": 12.7364929, "tags": {"addr:housenumber": "58", "addr:street": "Corso Giuseppe Garibaldi", "amenity": "restaurant", "cuisine": "regional;italian", "name": "9Cento Casual Restaurant", "opening_hours": "Tu-Su 12:15-14:30; Mo-Su 19:00-22:30"}}, {"type": "node", "id": 4840166786, "lat": 42.5186638, "lon": 12.5167286, "tags": {"amenity": "restaurant", "name": "Gallina Liberata"}}, {"type": "node", "id": 4840166791, "lat": 42.5183405, "lon": 12.5164644, "tags": {"amenity": "restaurant", "cuisine": "pizza", "name": "Pizzeria i Ghibellini"}}, {"type": "node", "id": 4862469505, "lat": 42.7284839, "lon": 12.7353107}, {"type": "node", "id": 4862469506, "lat": 42.7284455, "lon": 12.735604}, {"type": "node", "id": 4865153989, "lat": 42.7404073, "lon": 12.7380069}, {"type": "node", "id": 4865161440, "lat": 42.7403195, "lon": 12.7380252}, {"type": "node", "id": 4865161441, "lat": 42.7403317, "lon": 12.7380781}, {"type": "node", "id": 4865161443, "lat": 42.7403824, "lon": 12.7379599}, {"type": "node", "id": 4874454099, "lat": 42.7030911, "lon": 12.6073832, "tags": {"addr:housenumber": "23", "addr:street": "loc. Messenano", "amenity": "restaurant", "internet_access": "yes", "internet_access:fee": "no", "name": "Il Prato", "phone": "+393331441701", "swimming_pool": "outdoor", "tourism": "guest_house", "website": "https://www.ilpratospoleto.com/index.php"}}, {"type": "node", "id": 4914241461, "lat": 42.7374941, "lon": 12.7340187, "tags": {"addr:city": "Spoleto", "addr:postcode": "06049", "addr:street": "Via della Posterna", "amenity": "restaurant", "cuisine": "regional", "name": "Pecchiarda", "outdoor_seating": "yes", "takeaway": "no"}}, {"type": "node", "id": 4919801140, "lat": 42.6159807, "lon": 12.8025942, "tags": {"amenity": "restaurant", "cuisine": "regional", "name": "Ristorante Il Frantoio Monterivoso"}}, {"type": "node", "id": 4920507554, "lat": 42.5631118, "lon": 12.6442063}, {"type": "node", "id": 4920507555, "lat": 42.5630427, "lon": 12.6443535}, {"type": "node", "id": 4920507556, "lat": 42.5628853, "lon": 12.6442173}, {"type": "node", "id": 4920507557, "lat": 42.5629544, "lon": 12.6440701}, {"type": "node", "id": 4936523616, "lat": 42.5255439, "lon": 12.8012792, "tags": {"addr:city": "Labro", "addr:street": "Piazza Nobili Vitelleschi", "amenity": "restaurant", "name": "Bar Ristorante da Ulisse", "phone": "+39 331 411 4245"}}, {"type": "node", "id": 4960539653, "lat": 42.6649799, "lon": 12.7341178}, {"type": "node", "id": 4960539656, "lat": 42.6650222, "lon": 12.7345046}, {"type": "node", "id": 4960539659, "lat": 42.6650108, "lon": 12.7343056}, {"type": "node", "id": 4960539662, "lat": 42.6649489, "lon": 12.7343964}, {"type": "node", "id": 4960539663, "lat": 42.6649365, "lon": 12.7344816}, {"type": "node", "id": 4960539664, "lat": 42.6650199, "lon": 12.734243}, {"type": "node", "id": 4960539665, "lat": 42.6648872, "lon": 12.7340929}, {"type": "node", "id": 4960539666, "lat": 42.6649639, "lon": 12.7342279}, {"type": "node", "id": 4960539674, "lat": 42.6648471, "lon": 12.734369}, {"type": "node", "id": 4960539680, "lat": 42.6650496, "lon": 12.7343161}, {"type": "node", "id": 4986178758, "lat": 42.7339601, "lon": 12.7333555, "tags": {"addr:housenumber": "5", "addr:street": "Piazzetta di Porta San Lorenzo", "amenity": "cafe", "name": "Il Borgaccio", "operator": "Zengoni Vania", "phone": "+39 0743 220506", "shop": "tobacco"}}, {"type": "node", "id": 4986178776, "lat": 42.7335322, "lon": 12.7357432, "tags": {"addr:city": "Spoleto", "addr:housenumber": "83", "addr:postcode": "06049", "addr:street": "Corso Giuseppe Mazzini", "amenity": "restaurant", "name": "Zeppelin", "phone": "+39074344900"}}, {"type": "node", "id": 4986178778, "lat": 42.7335468, "lon": 12.7353332, "tags": {"addr:housenumber": "14", "addr:street": "Via Sant'Agata", "amenity": "restaurant", "name": "Ristorante Apollinare"}}, {"type": "node", "id": 4986178785, "lat": 42.734949, "lon": 12.7346543, "tags": {"amenity": "cafe", "name": "Caff\u00e8 Collicola"}}, {"type": "node", "id": 4986178804, "lat": 42.7343545, "lon": 12.736064, "tags": {"addr:housenumber": "43", "addr:street": "Corso Giuseppe Mazzini", "amenity": "cafe", "cuisine": "pastry", "name": "Art Caf\u00e8", "old_name": "Bar Vincenzo", "operator": "Rendano Gabriele", "outdoor_seating": "yes", "phone": "+390743420324"}}, {"type": "node", "id": 4986178811, "lat": 42.7340389, "lon": 12.7357902, "tags": {"addr:city": "Spoleto", "addr:housenumber": "52", "addr:postcode": "06049", "addr:street": "Corso Giuseppe Mazzini", "amenity": "restaurant", "cuisine": "regional", "name": "Ristorante Il giardino del Corso", "opening_hours": "Tu-Su 12:00-14:30,19:00-22:45", "outdoor_seating": "yes", "phone": "+39 0743 47230"}}, {"type": "node", "id": 4986178814, "lat": 42.735468, "lon": 12.7355581, "tags": {"addr:housenumber": "9", "addr:street": "Via Felice Cavallotti", "amenity": "restaurant", "check_date": "2024-05-19", "name": "Trattoria del Teatro"}}, {"type": "node", "id": 4986178815, "lat": 42.7350805, "lon": 12.7371548, "tags": {"addr:city": "Spoleto", "addr:postcode": "06049", "addr:street": "Via Fontesecca", "amenity": "restaurant", "cuisine": "pizza;regional", "diet:vegetarian": "yes", "name": "Taverna dello Spagna", "opening_hours": "Mo 19:30-22:30; We-Su 12:15-14:30,19:30-22:30", "outdoor_seating": "no", "phone": "+39 0743 420188", "smoking": "no", "website": "https://www.tavernadellospagna.it/", "wheelchair": "yes"}}, {"type": "node", "id": 4986179521, "lat": 42.7347561, "lon": 12.7375829, "tags": {"addr:housenumber": "1", "addr:street": "Via Aurelio Saffi", "amenity": "restaurant", "check_date": "2024-05-19", "name": "Ristorante Taverna dei Duchi", "opening_hours": "Mo-Su 12:00-15:00; Th-Su 19:00-22:00", "phone": "+39 0743 40323"}}, {"type": "node", "id": 4986179522, "lat": 42.7344301, "lon": 12.7389098, "tags": {"addr:housenumber": "22", "addr:street": "Via Aurelio Saffi", "amenity": "restaurant", "cuisine": "regional", "name": "Osteria Ristorante al Bacco Felice"}}, {"type": "node", "id": 4986707561, "lat": 42.7359065, "lon": 12.7375236, "tags": {"addr:housenumber": "43", "addr:street": "Via Filitteria", "amenity": "restaurant", "contact:phone": "+39 0743 44954", "name": "Trattoria La Torretta", "opening_hours": "Mo, We-Sa 12:30-22:00; Su 12:30-15:00", "website": "https://www.trattorialatorretta.com/"}}, {"type": "node", "id": 4986707563, "lat": 42.7335128, "lon": 12.7359109, "tags": {"addr:housenumber": "6", "addr:street": "Via Tommaso Martani", "amenity": "restaurant", "name": "Ristorante Il Pentagramma"}}, {"type": "node", "id": 4986751142, "lat": 42.7375081, "lon": 12.738914, "tags": {"addr:housenumber": "7", "addr:street": "Piazza Fratelli Cairoli", "amenity": "cafe", "name": "Caffetteria Tabaccheria Jolly"}}, {"type": "node", "id": 4986915326, "lat": 42.7399113, "lon": 12.7379195, "tags": {"amenity": "restaurant", "name": "Taverna del pescatore"}}, {"type": "node", "id": 4986915377, "lat": 42.7376666, "lon": 12.735369, "tags": {"addr:housenumber": "41", "addr:street": "Via Porta Fuga", "amenity": "restaurant", "name": "Degustibus"}}, {"type": "node", "id": 4986915382, "lat": 42.7387148, "lon": 12.736394, "tags": {"addr:housenumber": "62", "addr:street": "Corso Giuseppe Garibaldi", "amenity": "cafe"}}, {"type": "node", "id": 4986915389, "lat": 42.7397253, "lon": 12.7371334, "tags": {"addr:city": "Spoleto", "addr:postcode": "06049", "addr:street": "Piazza Giuseppe Garibaldi", "amenity": "cafe", "name": "Caff\u00e9 Garibaldi", "outdoor_seating": "yes"}}, {"type": "node", "id": 4986915394, "lat": 42.7398041, "lon": 12.7362478, "tags": {"addr:city": "Spoleto", "addr:housenumber": "31", "addr:place": "Piazza Giuseppe Garibaldi", "addr:postcode": "06049", "amenity": "restaurant", "cuisine": "burger;pizza", "name": "Il Ganzo", "website": "https://www.ganzo.top"}}, {"type": "node", "id": 5001639812, "lat": 42.737164, "lon": 12.7356084, "tags": {"addr:city": "Spoleto", "addr:housenumber": "6", "addr:postcode": "06049", "addr:street": "Piazza Torre dell'Olio", "amenity": "cafe", "check_date": "2024-05-19", "name": "Bar Duelle"}}, {"type": "node", "id": 5001761460, "lat": 42.7356779, "lon": 12.7378037, "tags": {"amenity": "restaurant", "name": "Hotel il Panciolle", "tourism": "hotel"}}, {"type": "node", "id": 5002962798, "lat": 42.7240155, "lon": 12.7512197}, {"type": "node", "id": 5002962799, "lat": 42.724089, "lon": 12.7512656}, {"type": "node", "id": 5002962800, "lat": 42.7241168, "lon": 12.7511829}, {"type": "node", "id": 5002962801, "lat": 42.7240433, "lon": 12.751137}, {"type": "node", "id": 5048415106, "lat": 42.7352808, "lon": 12.7364171, "tags": {"addr:city": "Spoleto", "addr:housenumber": "11", "addr:postcode": "06049", "addr:street": "Corso Giuseppe Mazzini", "amenity": "cafe", "entrance": "yes"}}, {"type": "node", "id": 5075519480, "lat": 42.7383403, "lon": 12.7362397, "tags": {"amenity": "restaurant", "cuisine": "pizza", "name": "Zeppelin"}}, {"type": "node", "id": 5092115286, "lat": 42.5613587, "lon": 12.647847, "tags": {"addr:city": "Terni", "addr:housenumber": "20", "addr:street": "Piazza Solferino", "amenity": "restaurant", "cuisine": "pizza", "name": "Che Testo", "opening_hours": "19:30 - 24:00", "phone": "+39 0744 424424"}}, {"type": "node", "id": 5105631533, "lat": 42.7327755, "lon": 12.7408788}, {"type": "node", "id": 5105631534, "lat": 42.7327346, "lon": 12.7409245}, {"type": "node", "id": 5105631535, "lat": 42.7327192, "lon": 12.7408991}, {"type": "node", "id": 5105631536, "lat": 42.7327601, "lon": 12.7408533}, {"type": "node", "id": 5121755524, "lat": 42.564121, "lon": 12.6542715, "tags": {"amenity": "restaurant", "cuisine": "chinese;sushi;asian", "name": "Fujiyama"}}, {"type": "node", "id": 5128215263, "lat": 42.7309423, "lon": 12.7339002}, {"type": "node", "id": 5128215264, "lat": 42.7309461, "lon": 12.7338844}, {"type": "node", "id": 5128215265, "lat": 42.7309413, "lon": 12.7338674}, {"type": "node", "id": 5128215266, "lat": 42.7309278, "lon": 12.733865}, {"type": "node", "id": 5128215267, "lat": 42.730902, "lon": 12.7339911}, {"type": "node", "id": 5128215268, "lat": 42.7308782, "lon": 12.7339966}, {"type": "node", "id": 5128215269, "lat": 42.7308905, "lon": 12.7339998}, {"type": "node", "id": 5128215270, "lat": 42.7308725, "lon": 12.7339809}, {"type": "node", "id": 5142809627, "lat": 42.6207276, "lon": 12.7241286, "tags": {"amenity": "restaurant"}}, {"type": "node", "id": 5171458836, "lat": 42.7158548, "lon": 12.7274409}, {"type": "node", "id": 5171458837, "lat": 42.7156671, "lon": 12.7272022}, {"type": "node", "id": 5171458838, "lat": 42.7155958, "lon": 12.7271593}, {"type": "node", "id": 5171458839, "lat": 42.7154862, "lon": 12.7273383}, {"type": "node", "id": 5171458840, "lat": 42.715515, "lon": 12.7273719}, {"type": "node", "id": 5171458841, "lat": 42.7154657, "lon": 12.7275565}, {"type": "node", "id": 5171458842, "lat": 42.7157164, "lon": 12.7278231}, {"type": "node", "id": 5171458843, "lat": 42.7157945, "lon": 12.7276926}, {"type": "node", "id": 5171458844, "lat": 42.7156676, "lon": 12.7273895}, {"type": "node", "id": 5187938138, "lat": 42.7335942, "lon": 12.7370619, "tags": {"amenity": "restaurant", "cuisine": "regional", "name": "Il mio vinaio"}}, {"type": "node", "id": 5210635112, "lat": 42.5369954, "lon": 12.7500147}, {"type": "node", "id": 5313538197, "lat": 42.5840061, "lon": 12.7681561, "tags": {"amenity": "restaurant"}}, {"type": "node", "id": 5368936903, "lat": 42.5599262, "lon": 12.6467845, "tags": {"addr:city": "Terni", "addr:housenumber": "52", "addr:postcode": "05100", "addr:street": "Corso del Popolo", "amenity": "restaurant", "cuisine": "pizza"}}, {"type": "node", "id": 5434785242, "lat": 42.5309208, "lon": 12.5619112}, {"type": "node", "id": 5434785243, "lat": 42.5309753, "lon": 12.5618855}, {"type": "node", "id": 5434785244, "lat": 42.5310972, "lon": 12.5620236}, {"type": "node", "id": 5434785245, "lat": 42.5310768, "lon": 12.5621063}, {"type": "node", "id": 5434785246, "lat": 42.5311157, "lon": 12.5619531}, {"type": "node", "id": 5434785247, "lat": 42.5309632, "lon": 12.5619316}, {"type": "node", "id": 5434785248, "lat": 42.5308798, "lon": 12.5620679}, {"type": "node", "id": 5434785249, "lat": 42.5310637, "lon": 12.5621564}, {"type": "node", "id": 5434785250, "lat": 42.5311718, "lon": 12.5621584}, {"type": "node", "id": 5434785251, "lat": 42.5311959, "lon": 12.5620776}, {"type": "node", "id": 5456538452, "lat": 42.7046033, "lon": 12.715074, "tags": {"addr:city": "Spoleto", "addr:street": "Pompagnano", "amenity": "restaurant", "cuisine": "pizza", "name": "La Ginestra", "phone": "+39 0743 47010"}}, {"type": "node", "id": 5470800586, "lat": 42.5169923, "lon": 12.5164387, "tags": {"addr:street": "Via Venti Settembre", "amenity": "restaurant", "cuisine": "regional", "delivery": "no", "description:it": "In piazza XX settembre anche qui nel cuore del rione bianconero, sorge questa splendida osteria altrettanto antica, medievale e storica quanto le altre cucine mezulane.", "name": "Osteria dell'Aquila Nera", "opening_hours": "unknown", "outdoor_seating": "yes", "smoking": "outside", "takeaway": "no"}}, {"type": "node", "id": 5470811917, "lat": 42.5172559, "lon": 12.5165874, "tags": {"amenity": "restaurant", "cuisine": "regional", "delivery": "no", "description:it": "In piazza Pozzo della Comunit\u00e0 con il suo ingresso caratteristico che si insinua nei meandri della Narni pi\u00f9 medievale, \u00e8 la vera taverna della citt\u00e0 e della Festa in onore del Patrono narnese, San Giovenale.", "name": "La Locanda del Pozzo", "opening_hours": "unknown", "outdoor_seating": "no", "smoking": "no", "takeaway": "no"}}, {"type": "node", "id": 5470816792, "lat": 42.5169279, "lon": 12.5167878, "tags": {"amenity": "restaurant", "cuisine": "regional", "delivery": "no", "description:it": "L'osteria, la pi\u00f9 piccola del terziere Mezule, si divide in due sale, quella Rossa e quella delle armi", "name": "Osteria delle Stranezze", "opening_hours": "unknown", "smoking": "outside", "takeaway": "yes"}}, {"type": "node", "id": 5483005594, "lat": 42.7380825, "lon": 12.7363584, "tags": {"amenity": "cafe"}}, {"type": "node", "id": 5483005597, "lat": 42.7380293, "lon": 12.7364932, "tags": {"addr:city": "Spoleto", "addr:housenumber": "8", "addr:postcode": "06049", "addr:street": "Via dei Gesuiti", "amenity": "restaurant", "cuisine": "regional", "name": "Piazzeta dell'erbe"}}, {"type": "node", "id": 5530947802, "lat": 42.7336757, "lon": 12.7358142, "tags": {"addr:city": "Spoleto", "addr:housenumber": "73", "addr:postcode": "06049", "addr:street": "Corso Giuseppe Mazzini", "amenity": "restaurant", "cuisine": "regional", "name": "Prosciutteria"}}, {"type": "node", "id": 5533853442, "lat": 42.734632, "lon": 12.7359996, "tags": {"addr:city": "Spoleto", "addr:housenumber": "26", "addr:postcode": "06049", "addr:street": "Corso Giuseppe Mazzini", "amenity": "cafe", "name": "Caff\u00e8 Mazzini", "opening_hours": "Mo-Sa 07:30-21:00", "operator": "Costa Isabelle Christine", "shop": "tobacco"}}, {"type": "node", "id": 5553307403, "lat": 42.7250214, "lon": 12.7533237}, {"type": "node", "id": 5553307404, "lat": 42.7249684, "lon": 12.7533599}, {"type": "node", "id": 5553307405, "lat": 42.7249935, "lon": 12.753428}, {"type": "node", "id": 5553307406, "lat": 42.7250465, "lon": 12.7533918}, {"type": "node", "id": 5683231667, "lat": 42.6601344, "lon": 12.7151498, "tags": {"addr:city": "Spoleto", "addr:street": "Montebibico", "amenity": "restaurant", "name": "La Luna piena"}}, {"type": "node", "id": 5690814876, "lat": 42.7347208, "lon": 12.7378573, "tags": {"addr:housenumber": "7", "addr:street": "Via Aurelio Saffi", "amenity": "restaurant", "name": "Enoteca", "outdoor_seating": "no"}}, {"type": "node", "id": 5740480532, "lat": 42.7360865, "lon": 12.7363512, "tags": {"addr:housenumber": "1", "addr:street": "via Minervio", "amenity": "cafe", "name": "Tebro", "opening_hours": "Mo, We-Su 07:30-20:00", "outdoor_seating": "yes", "phone": "+39 0743 45400", "shop": "pastry", "smoking": "no"}}, {"type": "node", "id": 5832062878, "lat": 42.557605, "lon": 12.639902, "tags": {"addr:housenumber": "22", "addr:street": "Viale Aleardi Aleardo", "amenity": "restaurant", "name": "Shizen", "opening_hours": "Mo-Su 12:00-15:00, 19:00-00:00", "phone": "+390744 460597", "website": "https://www.shizenterni.it/"}}, {"type": "node", "id": 5908074626, "lat": 42.7137264, "lon": 12.7212112}, {"type": "node", "id": 5908074627, "lat": 42.7136444, "lon": 12.7213451}, {"type": "node", "id": 5908074628, "lat": 42.7135424, "lon": 12.7212294}, {"type": "node", "id": 5908074629, "lat": 42.7136243, "lon": 12.7210955}, {"type": "node", "id": 5919956856, "lat": 42.5631114, "lon": 12.6452638, "tags": {"addr:city": "Terni", "addr:country": "IT", "addr:housenumber": "74", "addr:postcode": "05100", "addr:street": "Via Federico Fratini", "amenity": "restaurant", "cuisine": "sandwich", "name": "Lu Postacciu"}}, {"type": "node", "id": 5930883876, "lat": 42.5793808, "lon": 12.6247476}, {"type": "node", "id": 5930883877, "lat": 42.5792981, "lon": 12.6249222}, {"type": "node", "id": 5930883878, "lat": 42.5794167, "lon": 12.6250258}, {"type": "node", "id": 5930883879, "lat": 42.5794994, "lon": 12.6248512}, {"type": "node", "id": 5935080739, "lat": 42.5626763, "lon": 12.573296}, {"type": "node", "id": 5935080987, "lat": 42.5627695, "lon": 12.5733302}, {"type": "node", "id": 5935081035, "lat": 42.5628347, "lon": 12.573003}, {"type": "node", "id": 5935081045, "lat": 42.5627415, "lon": 12.5729687}, {"type": "node", "id": 5940815202, "lat": 42.5564757, "lon": 12.6493776}, {"type": "node", "id": 5940815203, "lat": 42.5563281, "lon": 12.6492847}, {"type": "node", "id": 5940815204, "lat": 42.5563247, "lon": 12.6490396}, {"type": "node", "id": 5940815205, "lat": 42.5565321, "lon": 12.6491554}, {"type": "node", "id": 5942923526, "lat": 42.7340247, "lon": 12.7371285, "tags": {"amenity": "restaurant", "name": "La Mangeria", "opening_hours": "Mo off"}}, {"type": "node", "id": 5943342396, "lat": 42.7259728, "lon": 12.7378561}, {"type": "node", "id": 5943342397, "lat": 42.7258763, "lon": 12.7380693}, {"type": "node", "id": 5943342398, "lat": 42.7257768, "lon": 12.7379875}, {"type": "node", "id": 5943342399, "lat": 42.7258763, "lon": 12.7377756}, {"type": "node", "id": 6014878291, "lat": 42.7225669, "lon": 12.641189, "tags": {"amenity": "cafe"}}, {"type": "node", "id": 6036433282, "lat": 42.5479636, "lon": 12.6211439, "tags": {"addr:city": "Terni", "addr:housenumber": "80h", "addr:postcode": "05100", "addr:street": "Via Narni", "amenity": "restaurant", "cuisine": "chinese;japanese;sushi", "email": "alessandroliao@gmail.com", "name": "Ristorante Orientale", "phone": "+39 0744 460460", "website": "http://www.ristoranteorientale.eu/"}}, {"type": "node", "id": 6110023784, "lat": 42.7066069, "lon": 12.7368326, "tags": {"addr:city": "Spoleto", "addr:street": "localit\u00e0 Mustaiole", "amenity": "restaurant", "cuisine": "regional", "email": "marghecava.67@gmail.com", "name": "La rippja", "phone": "+39 0743 223375", "website": "https://www.agriturismospoletolarippja.it/"}}, {"type": "node", "id": 6189594460, "lat": 42.7357007, "lon": 12.7359552, "tags": {"addr:street": "Via Felice Cavallotti", "amenity": "restaurant", "check_date": "2024-05-19", "cuisine": "pizza", "name": "Silver"}}, {"type": "node", "id": 6204492400, "lat": 42.712977, "lon": 12.8327264}, {"type": "node", "id": 6204492401, "lat": 42.7129957, "lon": 12.8329235}, {"type": "node", "id": 6204492402, "lat": 42.7128893, "lon": 12.8329275}, {"type": "node", "id": 6204492403, "lat": 42.7128715, "lon": 12.8327264}, {"type": "node", "id": 6329609305, "lat": 42.7157895, "lon": 12.7275317}, {"type": "node", "id": 6329609306, "lat": 42.7155985, "lon": 12.7274803}, {"type": "node", "id": 6329609307, "lat": 42.7156609, "lon": 12.7275566, "tags": {"denomination": "catholic", "historic": "wayside_shrine", "religion": "christian"}}, {"type": "node", "id": 6436013341, "lat": 42.5716388, "lon": 12.6426362}, {"type": "node", "id": 6436013342, "lat": 42.5716172, "lon": 12.6427848}, {"type": "node", "id": 6436013343, "lat": 42.5714709, "lon": 12.6427456}, {"type": "node", "id": 6436013344, "lat": 42.5714925, "lon": 12.642597}, {"type": "node", "id": 6436013345, "lat": 42.5717079, "lon": 12.6425294}, {"type": "node", "id": 6436013346, "lat": 42.5716973, "lon": 12.6426181}, {"type": "node", "id": 6436013347, "lat": 42.5714641, "lon": 12.6425664}, {"type": "node", "id": 6436013348, "lat": 42.5714748, "lon": 12.6424776}, {"type": "node", "id": 6440804830, "lat": 42.5368165, "lon": 12.6196082, "tags": {"amenity": "cafe", "name": "Centro sociale"}}, {"type": "node", "id": 6498962359, "lat": 42.4989762, "lon": 12.6635617, "tags": {"addr:city": "Stroncone", "addr:housenumber": "2", "addr:postcode": "05039", "addr:street": "Vico del Sacramento", "amenity": "restaurant", "cuisine": "italian;regional", "name": "La Mola", "opening_hours": "Mo-Su 19:00-00:00", "phone": "0744 608100", "website": "https://www.tavernalamola.it/"}}, {"type": "node", "id": 6573299907, "lat": 42.7343598, "lon": 12.7347439, "tags": {"addr:housenumber": "6", "addr:street": "Piazza Giuseppe Sordini", "amenity": "restaurant", "name": "Ristorante San Lorenzo", "phone": "+39 0743 223340", "website": "https://www.ristorantesanlorenzo.com/"}}, {"type": "node", "id": 6830835717, "lat": 42.672681, "lon": 12.7281201, "tags": {"amenity": "restaurant", "name": "La Fontanella", "operator": "Lupacchini"}}, {"type": "node", "id": 6897853606, "lat": 42.7166562, "lon": 13.0142859, "tags": {"amenity": "cafe", "name": "Quadrifoglio", "opening_hours": "07:00-24:00"}}, {"type": "node", "id": 6988407474, "lat": 42.687388, "lon": 12.8132711, "tags": {"addr:city": "Ceselli", "addr:housenumber": "19", "addr:postcode": "06040", "addr:street": "Via Contaglia", "amenity": "restaurant", "name": "Locanda il Ruscello", "phone": "+39 0743618064"}}, {"type": "node", "id": 7015316784, "lat": 42.5812121, "lon": 12.7559102, "tags": {"amenity": "restaurant", "cuisine": "italian;pizza", "name": "Grottino del Nera"}}, {"type": "node", "id": 7016257873, "lat": 42.5791192, "lon": 12.7588908, "tags": {"amenity": "restaurant", "cuisine": "italian", "name": "Osteria dello Sportello"}}, {"type": "node", "id": 7147500687, "lat": 42.5512977, "lon": 12.5297865, "tags": {"amenity": "restaurant", "name": "Trattoria Italia 61", "name:it": "Trattoria Italia 61"}}, {"type": "node", "id": 7147518186, "lat": 42.6085897, "lon": 12.5860285, "tags": {"amenity": "restaurant", "name": "Molino Del Luca Cesi", "name:it": "Molino Del Luca Cesi"}}, {"type": "node", "id": 7465322907, "lat": 42.5841495, "lon": 12.7673575, "tags": {"addr:city": "Arrone", "addr:housenumber": "25", "addr:postcode": "05031", "addr:street": "Piazza Giuseppe Garibaldi", "amenity": "cafe", "name": "Fl\u00f2 Bar"}}, {"type": "node", "id": 7466147532, "lat": 42.582669, "lon": 12.7800502, "tags": {"addr:city": "Arrone", "addr:housenumber": "18", "addr:street": "Via Mola Bella", "amenity": "restaurant", "name": "Ristorante Mola Bella", "phone": "+39 0744 389701"}}, {"type": "node", "id": 7466263136, "lat": 42.5801087, "lon": 12.750416, "tags": {"addr:city": "Arrone", "addr:housenumber": "15a", "addr:postcode": "05031", "addr:street": "Strada Regionale 209 Valnerina", "amenity": "cafe", "name": "All'isola Bar"}}, {"type": "node", "id": 7467419010, "lat": 42.5351664, "lon": 12.7374582, "tags": {"addr:city": "Malzelvetta Seconda", "addr:housenumber": "27", "addr:postcode": "05100", "addr:street": "Strada del Porto", "amenity": "restaurant", "name": "Trattoria Teresa", "phone": "+39 0744 368158"}}, {"type": "node", "id": 7468636189, "lat": 42.5355085, "lon": 12.7545413, "tags": {"addr:city": "Piediluco", "addr:housenumber": "5", "addr:postcode": "05100", "addr:street": "Lungolago Armeno Armeni", "amenity": "restaurant", "cuisine": "pizza", "name": "La Magia del Lago", "phone": "+39 338 413 3902"}}, {"type": "node", "id": 7468636192, "lat": 42.5350646, "lon": 12.7601866, "tags": {"addr:housenumber": "1 A", "addr:street": "Via Vincenzo Noceta", "amenity": "cafe", "name": "Bar Turismo"}}, {"type": "node", "id": 7468636193, "lat": 42.5352089, "lon": 12.7608461, "tags": {"addr:city": "Piediluco", "addr:housenumber": "11", "addr:postcode": "05100", "addr:street": "Via Vincenzo Noceta", "amenity": "restaurant", "name": "Ristorante Osteria Marsilea"}}, {"type": "node", "id": 7468770265, "lat": 42.5216968, "lon": 12.839897, "tags": {"addr:city": "Morro Reatino", "amenity": "restaurant", "name": "Ristorante Maria", "phone": "+39 0746 638074"}}, {"type": "node", "id": 7809049561, "lat": 42.5622357, "lon": 12.549079, "tags": {"addr:city": "Narni", "addr:milestone": "km. 67.740", "addr:postcode": "05035", "addr:street": "Strada Statale 675 Umbro-Laziale", "amenity": "cafe", "name": "On the Run", "operator": "Mc di Cardaioli Jessica e C. SNC", "ref:vatin": "IT01507490553"}}, {"type": "node", "id": 7813960143, "lat": 42.735955, "lon": 12.8345501, "tags": {"addr:city": "Sant'Anatolia di Naro", "addr:housenumber": "3", "addr:postcode": "06040", "addr:street": "Localit\u00e0 Palombara", "amenity": "cafe", "name": "Bar Osteria 2000"}}, {"type": "node", "id": 7830305094, "lat": 42.738142, "lon": 12.7360615, "tags": {"amenity": "restaurant", "name": "C'era una volta l'osteria"}}, {"type": "node", "id": 7959443795, "lat": 42.7199698, "lon": 12.6564783, "tags": {"amenity": "restaurant", "name": "Fontepino", "tourism": "hotel", "website": "https://www.fontepino.com/"}}, {"type": "node", "id": 8059063685, "lat": 42.5604393, "lon": 12.6491358, "tags": {"amenity": "restaurant", "name": "Da Panzerotto", "phone": "0744404423"}}, {"type": "node", "id": 8749882775, "lat": 42.540418, "lon": 13.0417401, "tags": {"amenity": "restaurant", "name": "La Tana del Lupo"}}, {"type": "node", "id": 8793018236, "lat": 42.4987983, "lon": 12.6610031, "tags": {"amenity": "restaurant"}}, {"type": "node", "id": 8956740188, "lat": 42.5564573, "lon": 12.6653514, "tags": {"amenity": "restaurant"}}, {"type": "node", "id": 9192548415, "lat": 42.5514377, "lon": 12.6352331, "tags": {"addr:city": "Terni", "addr:housenumber": "12", "addr:postcode": "05100", "addr:street": "Via Montefiorino", "amenity": "cafe", "bar": "yes", "cuisine": "pizza;italian", "name": "Casa Conad", "opening_hours": "Mo-Sa 08:30-20:30; Su 09:00-15:00,18:00-21:00", "outdoor_seating": "yes", "phone": "+390744206964", "website": "https://www.cospeavillage.it/negozi/pianeta-food/"}}, {"type": "node", "id": 9476873817, "lat": 42.5253439, "lon": 13.0978482, "tags": {"amenity": "restaurant", "name": "Il Pilota"}}, {"type": "node", "id": 9495010740, "lat": 42.5600621, "lon": 12.6530072, "tags": {"addr:housenumber": "8", "addr:street": "Via Antonio Gramsci", "amenity": "restaurant", "name": "Ristorante pizzeria \"Al settimo cielo\""}}, {"type": "node", "id": 9634984832, "lat": 42.5342931, "lon": 12.780611}, {"type": "node", "id": 9634984833, "lat": 42.5340933, "lon": 12.7805744}, {"type": "node", "id": 9634984834, "lat": 42.5341165, "lon": 12.7804865}, {"type": "node", "id": 9634984835, "lat": 42.5341454, "lon": 12.7803978}, {"type": "node", "id": 9634984836, "lat": 42.5341546, "lon": 12.7803348}, {"type": "node", "id": 9634984854, "lat": 42.5343642, "lon": 12.7804491}, {"type": "node", "id": 9634984855, "lat": 42.5343016, "lon": 12.780529}, {"type": "node", "id": 9634984856, "lat": 42.5343544, "lon": 12.7805395}, {"type": "node", "id": 9634984857, "lat": 42.5343142, "lon": 12.7804352}, {"type": "node", "id": 9634984858, "lat": 42.534321, "lon": 12.7803753}, {"type": "node", "id": 9634984859, "lat": 42.5341358, "lon": 12.7803991}, {"type": "node", "id": 9697987017, "lat": 42.5603161, "lon": 12.6493085, "tags": {"amenity": "restaurant", "name": "Osteria Garibaldi"}}, {"type": "node", "id": 9698052817, "lat": 42.5568086, "lon": 12.7182231, "tags": {"amenity": "restaurant", "name": "I Ribelli di Campagna"}}, {"type": "node", "id": 9904813740, "lat": 42.5678388, "lon": 12.6499153, "tags": {"amenity": "cafe", "name": "Maceo"}}, {"type": "node", "id": 9904816569, "lat": 42.5670145, "lon": 12.6492435, "tags": {"amenity": "cafe", "name": "Vibe"}}, {"type": "node", "id": 9904821767, "lat": 42.5652255, "lon": 12.6485874, "tags": {"addr:housenumber": "134", "addr:street": "Corso Cornelio Tacito", "amenity": "cafe", "name": "Nuovo Caff\u00e8 Clapier", "survey:date": "2024-02-14"}}, {"type": "node", "id": 9904825874, "lat": 42.5611195, "lon": 12.6475564, "tags": {"amenity": "restaurant", "diet:vegetarian": "yes", "name": "Carpe diem", "ref:vatin": "IT01637640556", "wheelchair": "yes"}}, {"type": "node", "id": 9904834867, "lat": 42.5687102, "lon": 12.6499866, "tags": {"amenity": "restaurant", "name": "La lumi\u00e8re"}}, {"type": "node", "id": 9906146860, "lat": 42.5640389, "lon": 12.6423692, "tags": {"amenity": "restaurant", "name": "Clessidra"}}, {"type": "node", "id": 9906163387, "lat": 42.5639209, "lon": 12.6427573, "tags": {"amenity": "cafe", "name": "Caff\u00e8 divino"}}, {"type": "node", "id": 9906164044, "lat": 42.5647715, "lon": 12.6515279, "tags": {"amenity": "cafe", "name": "Caruso"}}, {"type": "node", "id": 9906168792, "lat": 42.5644033, "lon": 12.6516333, "tags": {"amenity": "cafe", "name": "Grease Caf\u00e8"}}, {"type": "node", "id": 9906168793, "lat": 42.5588697, "lon": 12.650607, "tags": {"amenity": "cafe", "name": "Gusto"}}, {"type": "node", "id": 9906170771, "lat": 42.5626835, "lon": 12.6493803, "tags": {"amenity": "cafe", "name": "Beccaria"}}, {"type": "node", "id": 9906170772, "lat": 42.5604651, "lon": 12.6489288, "tags": {"amenity": "cafe", "name": "Caff\u00e8 Garibaldi"}}, {"type": "node", "id": 9906172220, "lat": 42.5624044, "lon": 12.6496089, "tags": {"amenity": "restaurant", "name": "Senshi"}}, {"type": "node", "id": 9906252828, "lat": 42.5664513, "lon": 12.6479072, "tags": {"amenity": "cafe", "name": "Le bistro'"}}, {"type": "node", "id": 9906361086, "lat": 42.5584583, "lon": 12.6442707, "tags": {"amenity": "restaurant", "cuisine": "pizza"}}, {"type": "node", "id": 9906361091, "lat": 42.558687, "lon": 12.6456677, "tags": {"amenity": "cafe", "name": "Valentino"}}, {"type": "node", "id": 9908014899, "lat": 42.5649838, "lon": 12.6495027, "tags": {"amenity": "cafe", "name": "Jolly Caff\u00e8"}}, {"type": "node", "id": 9987935401, "lat": 42.5503187, "lon": 12.7159905, "tags": {"addr:housenumber": "9", "addr:postcode": "05100", "addr:street": "Via Conti Menotti", "amenity": "restaurant", "name": "Er Chioschetto", "phone": "+39 3393742664", "website": "https://er-chioschetto.business.site/"}}, {"type": "node", "id": 9988108850, "lat": 42.6306396, "lon": 12.7312685, "tags": {"amenity": "restaurant", "cuisine": "italian", "name": "Trattoria Margherita", "phone": "+39 3928828945", "website": "https://trattoria-pizzeria-margherita.business.site/"}}, {"type": "node", "id": 10040181660, "lat": 42.7398905, "lon": 12.739397, "tags": {"amenity": "cafe", "name": "Tuzi", "shop": "pastry"}}, {"type": "node", "id": 10301444557, "lat": 42.5577002, "lon": 12.6495686, "tags": {"addr:city": "Terni", "addr:country": "IT", "addr:housenumber": "35", "addr:postcode": "05100", "addr:street": "Via Piave", "amenity": "restaurant", "cuisine": "pizza", "name": "Ristorante Pizzeria Cuor di Bufala", "opening_hours": "Su-Mo 18:00-23:00; We-Fr 18:00-23:00; Sa 18:00-23:30; Tu off; PH unknown", "reservation": "yes", "takeaway": "yes"}}, {"type": "node", "id": 10732782267, "lat": 42.6909225, "lon": 12.5462187, "tags": {"addr:city": "Acquasparta", "addr:housenumber": "1/3", "addr:postcode": "05021", "addr:street": "Corso Umberto Primo", "amenity": "cafe", "name": "Bar Loreti"}}, {"type": "node", "id": 10732782268, "lat": 42.6903407, "lon": 12.5462361, "tags": {"addr:city": "Acquasparta", "addr:housenumber": "27/35", "addr:postcode": "05021", "addr:street": "Corso Umberto Primo", "amenity": "restaurant", "name": "Taverna Contrada Del Ghetto"}}, {"type": "node", "id": 10855419175, "lat": 42.5598275, "lon": 12.6349073}, {"type": "node", "id": 10855419176, "lat": 42.5597175, "lon": 12.6347688}, {"type": "node", "id": 10855419177, "lat": 42.5596827, "lon": 12.6351194}, {"type": "node", "id": 10855419178, "lat": 42.5595182, "lon": 12.6350605}, {"type": "node", "id": 10855419179, "lat": 42.5595868, "lon": 12.6351469}, {"type": "node", "id": 10855419180, "lat": 42.5596412, "lon": 12.6350672}, {"type": "node", "id": 10881865697, "lat": 42.4972383, "lon": 12.6615323, "tags": {"addr:street": "Viale Luigi Lanzi", "amenity": "cafe", "brewery": "yes", "internet_access": "no", "name": "Bar Pizzeria Belvedere", "opening_hours": "Mo-Su 07:00-00:00", "outdoor_seating": "yes"}}, {"type": "node", "id": 10945084437, "lat": 42.7403159, "lon": 12.7380443}, {"type": "node", "id": 10945084438, "lat": 42.7403158, "lon": 12.7380386}, {"type": "node", "id": 10945084439, "lat": 42.7403166, "lon": 12.7380317}, {"type": "node", "id": 10945084440, "lat": 42.7403178, "lon": 12.7380523}, {"type": "node", "id": 11005336655, "lat": 42.4990843, "lon": 12.6626128, "tags": {"addr:city": "Stroncone", "addr:housenumber": "6", "addr:postcode": "05039", "addr:street": "Buco del Macello", "amenity": "restaurant", "brewery": "yes", "cuisine": "regional;pizza;italian", "mobile": "+39 331 1920531", "name": "Grotta dello spuntino", "opening_hours": "Tu-Fr 19:00-23:00; Sa-Su 12:30-15:00,19:00-23:00", "takeaway": "yes", "website": "https://lagrottadellospuntino.eatbu.com/?lang=it", "wheelchair": "no"}}, {"type": "node", "id": 11005365095, "lat": 42.5023882, "lon": 12.6609077, "tags": {"amenity": "cafe"}}, {"type": "node", "id": 11010678201, "lat": 42.6375572, "lon": 12.648704}, {"type": "node", "id": 11010678202, "lat": 42.6376229, "lon": 12.6488796}, {"type": "node", "id": 11010678203, "lat": 42.6374983, "lon": 12.6490306}, {"type": "node", "id": 11010678204, "lat": 42.6374416, "lon": 12.6489566}, {"type": "node", "id": 11010694105, "lat": 42.6374847, "lon": 12.6488857}, {"type": "node", "id": 11010694106, "lat": 42.6374394, "lon": 12.6488457}, {"type": "node", "id": 11010694107, "lat": 42.6375413, "lon": 12.6486824}, {"type": "node", "id": 11025336621, "lat": 42.5803389, "lon": 12.6325805}, {"type": "node", "id": 11025336622, "lat": 42.5803627, "lon": 12.63275}, {"type": "node", "id": 11025336623, "lat": 42.5805453, "lon": 12.6326991}, {"type": "node", "id": 11025336624, "lat": 42.5805295, "lon": 12.6326067}, {"type": "node", "id": 11025336625, "lat": 42.5805692, "lon": 12.6325821}, {"type": "node", "id": 11025336626, "lat": 42.5805442, "lon": 12.6324881}, {"type": "node", "id": 11032337318, "lat": 42.5848098, "lon": 12.6768315, "tags": {"amenity": "restaurant", "cuisine": "pizza"}}, {"type": "node", "id": 11034045810, "lat": 42.5802786, "lon": 12.6245698, "tags": {"amenity": "restaurant", "cuisine": "pizza", "name": "Pizzeria La Meridiana"}}, {"type": "node", "id": 11059668864, "lat": 42.5584979, "lon": 12.5754357, "tags": {"amenity": "restaurant", "name": "Ristorante Chico Mendes"}}, {"type": "node", "id": 11091467677, "lat": 42.5834132, "lon": 12.6093687, "tags": {"addr:housenumber": "23", "addr:street": "Via del Centenario", "amenity": "restaurant", "cuisine": "american", "name": "Mc Marin's"}}, {"type": "node", "id": 11137767299, "lat": 42.7338366, "lon": 12.7373223, "tags": {"addr:street": "Piazza del Mercato", "amenity": "cafe", "name": "Caff\u00e8 degli artisti", "outdoor_seating": "yes", "smoking": "no"}}, {"type": "node", "id": 11142335493, "lat": 42.5683569, "lon": 12.6376574}, {"type": "node", "id": 11142335494, "lat": 42.568525, "lon": 12.637773}, {"type": "node", "id": 11142335495, "lat": 42.5685213, "lon": 12.6377827}, {"type": "node", "id": 11142335496, "lat": 42.5685481, "lon": 12.6378015}, {"type": "node", "id": 11142335497, "lat": 42.5685082, "lon": 12.6379059}, {"type": "node", "id": 11142335498, "lat": 42.5684753, "lon": 12.6378827}, {"type": "node", "id": 11142335499, "lat": 42.5683305, "lon": 12.6382602}, {"type": "node", "id": 11142335500, "lat": 42.5682638, "lon": 12.638213}, {"type": "node", "id": 11142335501, "lat": 42.5683118, "lon": 12.6380879}, {"type": "node", "id": 11142335502, "lat": 42.5682911, "lon": 12.6380466}, {"type": "node", "id": 11142335503, "lat": 42.5683032, "lon": 12.6380353}, {"type": "node", "id": 11142335504, "lat": 42.5682515, "lon": 12.638}, {"type": "node", "id": 11142347705, "lat": 42.5683275, "lon": 12.637795}, {"type": "node", "id": 11142347706, "lat": 42.5683101, "lon": 12.6377831}, {"type": "node", "id": 11149074025, "lat": 42.5351837, "lon": 12.7617803}, {"type": "node", "id": 11149074026, "lat": 42.5351327, "lon": 12.7617993}, {"type": "node", "id": 11149074027, "lat": 42.5351884, "lon": 12.7620746}, {"type": "node", "id": 11149074028, "lat": 42.5352394, "lon": 12.7620556}, {"type": "node", "id": 11161303723, "lat": 42.7352734, "lon": 12.7389648, "tags": {"amenity": "restaurant", "name": "Ristorante della Signoria"}}, {"type": "node", "id": 11184427406, "lat": 42.5801106, "lon": 12.6218881, "tags": {"amenity": "restaurant", "cuisine": "sushi", "name": "Ristorante Duomila"}}, {"type": "node", "id": 11203486319, "lat": 42.5815517, "lon": 12.6152513, "tags": {"amenity": "restaurant", "name": "La Romantica"}}, {"type": "node", "id": 11458227574, "lat": 42.5593321, "lon": 12.6353006}, {"type": "node", "id": 11458227575, "lat": 42.5593894, "lon": 12.6352123}, {"type": "node", "id": 11458227576, "lat": 42.5595139, "lon": 12.6353415}, {"type": "node", "id": 11546963945, "lat": 42.6242449, "lon": 12.7813797, "tags": {"amenity": "restaurant", "name": "Ristorante Piermarini"}}, {"type": "node", "id": 11560794188, "lat": 42.5594481, "lon": 12.6354372}, {"type": "node", "id": 11560794189, "lat": 42.5594187, "lon": 12.6352494}, {"type": "node", "id": 11560794190, "lat": 42.5594289, "lon": 12.6352345}, {"type": "node", "id": 11579845977, "lat": 42.7250008, "lon": 12.751455}, {"type": "node", "id": 11579845978, "lat": 42.7250313, "lon": 12.7514751}, {"type": "node", "id": 11579845979, "lat": 42.724985, "lon": 12.7515033}, {"type": "node", "id": 11579845980, "lat": 42.7250599, "lon": 12.7516307}, {"type": "node", "id": 11579845981, "lat": 42.7249929, "lon": 12.7515945}, {"type": "node", "id": 11808291092, "lat": 42.5562951, "lon": 12.64913}, {"type": "node", "id": 11808291093, "lat": 42.5562744, "lon": 12.6492682}, {"type": "node", "id": 11808291094, "lat": 42.5563086, "lon": 12.6494605}, {"type": "node", "id": 11808291095, "lat": 42.5564078, "lon": 12.6494807}, {"type": "node", "id": 11808291096, "lat": 42.5564294, "lon": 12.649357}, {"type": "node", "id": 11808291097, "lat": 42.5564875, "lon": 12.6492957}, {"type": "node", "id": 11808291099, "lat": 42.5564221, "lon": 12.6493987}, {"type": "node", "id": 11827306475, "lat": 42.7310447, "lon": 12.6821508, "tags": {"amenity": "cafe"}}, {"type": "node", "id": 11827306485, "lat": 42.7301821, "lon": 12.6792652, "tags": {"amenity": "cafe"}}, {"type": "node", "id": 11827323600, "lat": 42.730185, "lon": 12.6749991, "tags": {"amenity": "cafe"}}, {"type": "node", "id": 11880711272, "lat": 42.5683977, "lon": 12.6503724, "tags": {"addr:city": "Terni", "addr:postcode": "05100", "addr:street": "Via Annio Floriano", "amenity": "cafe"}}, {"type": "node", "id": 11886420089, "lat": 42.6565601, "lon": 12.5650996}, {"type": "node", "id": 11886420090, "lat": 42.6564863, "lon": 12.5651263}, {"type": "node", "id": 11886420091, "lat": 42.6564996, "lon": 12.5651946}, {"type": "node", "id": 11886420092, "lat": 42.6565735, "lon": 12.5651679}, {"type": "node", "id": 11886420145, "lat": 42.6567384, "lon": 12.5654369, "tags": {"amenity": "restaurant", "name": "Ristorante Pesciaioli"}}, {"type": "node", "id": 11893224678, "lat": 42.5389791, "lon": 12.5414127}, {"type": "node", "id": 11893224679, "lat": 42.5388047, "lon": 12.5414778}, {"type": "node", "id": 11893224680, "lat": 42.5388475, "lon": 12.5416888}, {"type": "node", "id": 11893224681, "lat": 42.5389266, "lon": 12.5416593}, {"type": "node", "id": 11893224682, "lat": 42.5389234, "lon": 12.5416434}, {"type": "node", "id": 11893224683, "lat": 42.5390186, "lon": 12.5416078}, {"type": "node", "id": 11893224684, "lat": 42.5389594, "lon": 12.5413102}, {"type": "node", "id": 11893224685, "lat": 42.5390807, "lon": 12.5412657}, {"type": "node", "id": 11893224686, "lat": 42.5391209, "lon": 12.5414694}, {"type": "node", "id": 11893224687, "lat": 42.5389996, "lon": 12.541514}, {"type": "node", "id": 11893224759, "lat": 42.5389631, "lon": 12.5413296}, {"type": "node", "id": 11917459488, "lat": 42.7382457, "lon": 12.7360334, "tags": {"amenity": "restaurant", "check_date": "2024-05-19", "cuisine": "regional", "name": "C'era una volta L'osteria"}}, {"type": "node", "id": 11938058694, "lat": 42.7378498, "lon": 12.7356515, "tags": {"amenity": "restaurant", "name": "Old pig"}}, {"type": "node", "id": 11947557217, "lat": 42.7326685, "lon": 12.7268635, "tags": {"amenity": "cafe", "name": "Caff\u00e8 Zero", "opening_hours": "Mo-Su 06:00-20:00"}}, {"type": "node", "id": 11989558467, "lat": 42.7347787, "lon": 12.7394285, "tags": {"addr:place": "Piazza del Duomo", "amenity": "cafe", "cuisine": "italian", "name": "Tric Trac", "outdoor_seating": "yes"}}, {"type": "node", "id": 12147873197, "lat": 42.631211, "lon": 12.5537332, "tags": {"amenity": "restaurant", "name": "L'Antica Carsulae"}}, {"type": "node", "id": 12185449201, "lat": 42.6207938, "lon": 12.7322065, "tags": {"addr:housenumber": "76", "addr:street": "Localit\u00e0 Strettura", "amenity": "restaurant", "contact:facebook": "pecoregiallestrettura", "contact:instagram": "lepecoregialle", "guest_house": "agritourism", "name": "Le Pecore Gialle", "outdoor_seating": "no", "tourism": "guest_house"}}, {"type": "node", "id": 12204942722, "lat": 42.5863402, "lon": 12.7617724, "tags": {"addr:city": "Montefranco", "addr:housenumber": "88", "addr:postcode": "05030", "amenity": "restaurant", "name": "Pizzeria Pit Stop", "opening_hours": "Mo-Tu 16:30-23:00; We off; Th-Su 16:30-23:00", "phone": "+393894845899"}}, {"type": "node", "id": 12299393439, "lat": 42.6650232, "lon": 12.7344977}, {"type": "node", "id": 12345991087, "lat": 42.6428794, "lon": 12.7305084}, {"type": "node", "id": 12345991088, "lat": 42.6429004, "lon": 12.7304685}, {"type": "node", "id": 12345991089, "lat": 42.6428409, "lon": 12.7304107}, {"type": "node", "id": 12345991090, "lat": 42.6426676, "lon": 12.73074}, {"type": "node", "id": 12345991091, "lat": 42.6428874, "lon": 12.7309537}, {"type": "node", "id": 12345991092, "lat": 42.642945, "lon": 12.7308444}, {"type": "node", "id": 12345991093, "lat": 42.6428935, "lon": 12.7307943}, {"type": "node", "id": 12367273514, "lat": 42.5618162, "lon": 12.6475308, "tags": {"amenity": "cafe", "name": "Plaza"}}, {"type": "node", "id": 12391551558, "lat": 42.5836049, "lon": 12.6997227}, {"type": "node", "id": 12391551559, "lat": 42.5835223, "lon": 12.6998115}, {"type": "node", "id": 12615886913, "lat": 42.7340988, "lon": 12.7374743, "tags": {"amenity": "restaurant", "cuisine": "regional", "name": "Delizie umbre"}}, {"type": "node", "id": 12615886914, "lat": 42.7340403, "lon": 12.737441, "tags": {"amenity": "restaurant", "name": "Cava"}}, {"type": "node", "id": 12765912562, "lat": 42.5532096, "lon": 12.6459294, "tags": {"amenity": "cafe"}}, {"type": "node", "id": 12765912563, "lat": 42.5532925, "lon": 12.6461822, "tags": {"amenity": "restaurant", "cuisine": "pizza"}}, {"type": "node", "id": 12825509418, "lat": 42.5780122, "lon": 12.6260095, "tags": {"amenity": "restaurant", "cuisine": "argentinian", "name": "Sapori argentini"}}, {"type": "node", "id": 12885937348, "lat": 42.7349259, "lon": 12.7346397, "tags": {"amenity": "restaurant", "name": "Ristorante Collicola"}}, {"type": "way", "id": 78446363, "nodes": [920580185, 920579960, 920580227, 920580271, 920580185], "tags": {"amenity": "restaurant", "brand": "Autogrill", "brand:wikidata": "Q786790", "building": "yes", "cuisine": "italian;regional", "name": "Autogrill"}}, {"type": "way", "id": 85744198, "nodes": [995355907, 995357205, 12391551558, 12391551559, 995357099, 995356618, 995357298, 995356881, 2159726259, 2159726261, 3293028825, 3293028823, 995355907], "tags": {"amenity": "restaurant", "building": "yes", "cuisine": "pizza", "name": "Lu Fossu"}}, {"type": "way", "id": 85753876, "nodes": [995433170, 995433040, 995432436, 995433176, 995433109, 995432805, 995433073, 995432785, 995432693, 995432296, 995432873, 995432497, 995432389, 995433148, 995433170], "tags": {"amenity": "restaurant", "building": "yes", "cuisine": "regional", "name": "Palazzo del Papa"}}, {"type": "way", "id": 88012420, "nodes": [1023046334, 1023045804, 1023045944, 1023046104, 1023046367, 1023046596, 1023045874, 1023046003, 1023046236, 1023045785, 1023046334], "tags": {"amenity": "restaurant", "building": "yes", "cuisine": "regional", "name": "La Fontana"}}, {"type": "way", "id": 94782349, "nodes": [1100368420, 1100367340, 1100369006, 1100368675, 1100368420], "tags": {"amenity": "restaurant", "cuisine": "italian", "name": "La Casina di Furapane"}}, {"type": "way", "id": 150691279, "nodes": [1635773787, 1635773789, 1635773774, 1635773766, 1635773787], "tags": {"amenity": "restaurant", "building": "yes"}}, {"type": "way", "id": 290586353, "nodes": [2941004784, 2941004785, 2941004786, 2941004787, 2941004788, 2941004789, 2941004790, 2941004791, 2941004792, 2941004793, 2941004794, 2941004795, 2941004784], "tags": {"amenity": "restaurant", "building": "yes", "name": "El Paso"}}, {"type": "way", "id": 336103479, "nodes": [3431819627, 3431819626, 3431819624, 3431819625, 3431819627], "tags": {"addr:city": "Narni", "addr:housenumber": "4", "addr:postcode": "05035", "addr:street": "Via Pozzo della Comunit\u00e0", "amenity": "restaurant", "building": "yes", "cuisine": "italian;regional", "email": "gatta_melata@hotmail.it", "name": "Ristorante Il Gattamelata", "payment:cash": "yes", "payment:visa": "yes", "phone": "+39 0744 717245", "website": "https://www.ristoranteilgattamelatanarni.com/"}}, {"type": "way", "id": 371342997, "nodes": [3749161661, 4735919173, 3749161662, 3749161663, 3749161661], "tags": {"amenity": "restaurant", "building": "yes", "name": "Ristorante Bar L'Amaca all'Eco"}}, {"type": "way", "id": 431880083, "nodes": [4311095513, 11579845980, 11579845981, 11579845978, 11579845977, 11579845979, 4311095509, 4311095512, 4311095522, 4311095523, 4311095524, 4311095513], "tags": {"addr:city": "Spoleto", "addr:housenumber": "20", "addr:postcode": "06049", "addr:street": "Strada provinciale di Monteluco", "amenity": "restaurant", "building": "hotel", "contact:facebook": "https://www.facebook.com/pg/albergoristoranteferretti/about/?ref=page_internal", "contact:phone": "+39 0743 49849;+39 0743 222344", "cuisine": "local;casalinga;cottura_a_vista_alla_brace;funghi_e_tartufi;pizza;curata_scelta_di_olii_spoletini_e_vini_pregiati", "description": "E' anche ristorante. Cucina tipica, casalinga, cottura a vista alla brace. Funghi e Tartufi. Pizza. Curata scelta di olii spoletini e vini pregiati", "email": "info@albergoferretti.com", "fax": "+39 0743 222344", "internet_access": "yes", "internet_access:fee": "no", "name": "Albergo Ristorante Ferretti", "opening_hours": "7:30-24:00", "operator": "Ferretti", "outdoor_seating": "yes", "payment:bancomat": "yes", "payment:cash": "yes", "payment:mastercard": "yes", "payment:visa": "yes", "restaurant": "yes", "rooms": "22", "stars": "3", "tourism": "hotel", "website": "https://www.albergoferretti.com/", "wheelchair": "yes"}}, {"type": "way", "id": 438981767, "nodes": [4366147029, 4366147027, 4366147028, 4366147030, 4366147029], "tags": {"addr:city": "Sant'Anatolia di Narco", "addr:postcode": "06040", "addr:street": "Strada Statale 685 delle Tre Valli Umbre", "amenity": "cafe", "building": "yes", "name": "Via vai caff\u00e8"}}, {"type": "way", "id": 440304848, "nodes": [4380326950, 4380326951, 4380326952, 4380326953, 4380326950], "tags": {"amenity": "restaurant", "building": "yes", "name": "Zengoni"}}, {"type": "way", "id": 477680964, "nodes": [4709873177, 5128215263, 5128215264, 5128215265, 5128215266, 4709873178, 4709873179, 5128215270, 5128215268, 5128215269, 5128215267, 4709873180, 4709873177], "tags": {"addr:city": "Spoleto", "addr:postcode": "06049", "addr:street": "Viale Giacomo Matteotti", "amenity": "restaurant", "building": "yes", "historic": "building", "name": "Casina dell'ippocastano", "outdoor_seating": "yes", "wikidata": "Q19595386", "wikipedia": "it:Casina degli ippocastani"}}, {"type": "way", "id": 480191923, "nodes": [4732040411, 4732040412, 4732040413, 4732040414, 4732040411], "tags": {"addr:city": "Monteluco", "addr:housenumber": "19", "addr:postcode": "06049", "addr:street": "Strada provinciale di Monteluco", "amenity": "restaurant", "building": "yes", "name": "Albergo Ristorante Paradiso", "tourism": "hotel"}}, {"type": "way", "id": 485943873, "nodes": [4787002867, 4787002868, 4787002869, 4787002870, 4787002871, 4787002872, 5210635112, 4787002874, 4787002875, 4787002876, 4787002877, 4787002867], "tags": {"addr:street": "Via del Porto", "amenity": "restaurant", "building": "yes", "cuisine": "pizza;regional", "name": "Ai Remi - Societ\u00e0 Canottieri Piediluco", "takeaway": "yes"}}, {"type": "way", "id": 494488142, "nodes": [4862469505, 2151714434, 2151714461, 4862469506, 2151714457, 4862469505], "tags": {"amenity": "cafe", "building": "commercial"}}, {"type": "way", "id": 494770242, "nodes": [4865161440, 10945084439, 10945084438, 10945084437, 10945084440, 4865161441, 4865153989, 4865161443, 4865161440], "tags": {"addr:housenumber": "1", "addr:street": "Piazza della Vittoria", "amenity": "cafe", "building": "yes", "check_date": "2024-05-19", "name": "Il piccolo bar", "outdoor_seating": "yes", "phone": "+39 0743 43733"}}, {"type": "way", "id": 501175397, "nodes": [4920507554, 4920507555, 4920507556, 4920507557, 4920507554], "tags": {"addr:city": "Terni", "addr:housenumber": "91-83", "addr:street": "Viale Domenico Giannelli", "amenity": "restaurant", "building": "yes", "cuisine": "regional", "name": "La Citt\u00e0 Vecchia", "outdoor_seating": "yes"}}, {"type": "way", "id": 506287462, "nodes": [4960539674, 4960539662, 4960539663, 4960539656, 12299393439, 4960539680, 4960539659, 4960539664, 4960539666, 4960539653, 4960539665, 4960539674], "tags": {"addr:city": "Spoleto", "amenity": "restaurant", "building": "yes", "name": "IL Capanno", "phone": "+39 0743 54119;+39 348 8153826", "website": "https://www.ilcapannoristorante.net/"}}, {"type": "way", "id": 511470706, "nodes": [5002962798, 5002962799, 5002962800, 5002962801, 5002962798], "tags": {"addr:city": "Spoleto", "addr:street": "Monteluco", "amenity": "cafe", "building": "yes", "check_date": "2024-09-02", "cuisine": "burger", "internet_access": "no", "name": "Il Chioschetto", "operator": "Pietro Quaglietti", "outdoor_seating": "yes"}}, {"type": "way", "id": 524693940, "nodes": [5105631533, 5105631534, 5105631535, 5105631536, 5105631533], "tags": {"addr:street": "Via giro del Ponte", "amenity": "cafe", "building": "yes", "name": "Bar La portella", "outdoor_seating": "yes"}}, {"type": "way", "id": 532969511, "nodes": [5171458836, 5171458837, 5171458838, 5171458839, 5171458840, 5171458841, 5171458842, 5171458843, 6329609307, 6329609306, 5171458844, 6329609305, 5171458836], "tags": {"amenity": "restaurant", "building": "yes", "cuisine": "regional", "name": "Valle Rosa", "website": "http://www.iluoghidelsilenzio.it/?p=115702"}}, {"type": "way", "id": 564013873, "nodes": [5434785245, 5434785249, 5434785248, 5434785242, 5434785247, 5434785243, 5434785246, 5434785244, 5434785251, 5434785250, 5434785245], "tags": {"addr:city": "Narni", "addr:housenumber": "510", "addr:postcode": "05035", "addr:street": "Via Flaminia Ternana", "amenity": "restaurant", "building": "yes", "cuisine": "italian;pizza;regional", "description": "Steak house, ristorante, pizzeria", "email": "ilparcodeicavalieri@libero.it", "name": "Il Parco dei Cavalieri", "phone": "+39 0744 744399", "website": "https://www.ilparcodeicavalieri.com/"}}, {"type": "way", "id": 579967288, "nodes": [5553307403, 5553307404, 5553307405, 5553307406, 5553307403], "tags": {"addr:city": "Spoleto", "addr:street": "Monteluco", "amenity": "cafe", "building": "hut", "name": "Chiosco Girotondo"}}, {"type": "way", "id": 625760940, "nodes": [5908074626, 5908074627, 5908074628, 5908074629, 5908074626], "tags": {"addr:housenumber": "5", "addr:street": "localit\u00e0 Napoletto", "amenity": "cafe", "building": "yes", "name": "Bar Zengoni", "operator": "Capaldi Maria Teresa"}}, {"type": "way", "id": 628225767, "nodes": [5930883879, 5930883878, 5930883877, 5930883876, 5930883879], "tags": {"amenity": "cafe", "building": "yes", "name": "Bar Nadalini"}}, {"type": "way", "id": 628637561, "nodes": [5935081045, 5935081035, 5935080987, 5935080739, 5935081045], "tags": {"amenity": "restaurant", "building": "retail", "cuisine": "italian", "name": "Ristorante Fiori e Sapori", "website": "https://www.ristorantefioriesapori.com/"}}, {"type": "way", "id": 629230925, "nodes": [5940815205, 11808291097, 5940815202, 11808291096, 11808291099, 11808291095, 11808291094, 5940815203, 11808291093, 11808291092, 5940815204, 5940815205], "tags": {"addr:city": "Terni", "addr:housenumber": "44", "addr:street": "Via Piave", "air_conditioning": "yes", "amenity": "restaurant", "bar": "yes", "breakfast": "yes", "building": "yes", "cuisine": "meat", "delivery": "yes", "dinner": "yes", "internet_access": "wlan", "lunch": "yes", "music": "yes", "name": "Antica Macelleria Pucci", "opening_hours": "Mo-Su 08:00-23:00", "outdoor_seating": "garden", "payment:cash": "yes", "payment:credit_cards": "yes", "reservation": "recommended", "shop": "butcher", "smoking": "no", "takeaway": "yes", "television": "no", "toilets": "yes", "toilets:wheelchair": "yes", "website": "https://macelleriapucci.it/", "wheelchair": "yes"}}, {"type": "way", "id": 629546785, "nodes": [5943342396, 5943342397, 5943342398, 5943342399, 5943342396], "tags": {"amenity": "restaurant", "building": "yes", "cuisine": "pizza", "name": "Pizzeria San Pietro"}}, {"type": "way", "id": 662760392, "nodes": [6204492400, 6204492401, 6204492402, 6204492403, 6204492400], "tags": {"amenity": "restaurant", "building": "yes"}}, {"type": "way", "id": 686632530, "nodes": [6436013341, 6436013342, 6436013343, 6436013344, 6436013341], "tags": {"addr:city": "Terni", "addr:housenumber": "115", "addr:postcode": "05100", "addr:street": "Zona Fiori", "amenity": "restaurant", "building": "yes", "cuisine": "regional", "email": "friozzu@gmail.com", "name": "Trattoria antica osteria Friozzu", "outdoor_seating": "yes", "source": "survey", "website": "https://www.trattoriatipicaternanafriozzu.it/"}}, {"type": "way", "id": 686632531, "nodes": [6436013345, 6436013346, 6436013347, 6436013348, 6436013345], "tags": {"amenity": "restaurant", "building": "yes"}}, {"type": "way", "id": 1047791775, "nodes": [9634984854, 9634984856, 9634984855, 9634984832, 9634984833, 9634984834, 9634984859, 9634984835, 9634984836, 9634984858, 9634984857, 9634984854], "tags": {"addr:city": "Piediluco", "addr:housenumber": "6", "addr:postcode": "05100", "addr:street": "Loc. Valle Spoletina", "amenity": "restaurant", "building": "yes", "cuisine": "regional", "diet:gluten_free": "yes", "name": "Vecchia Osteria", "phone": "+390744369111", "website": "http://www.ristorantepiediluco.tr.it/"}}, {"type": "way", "id": 1167296953, "nodes": [10855419175, 10855419176, 10855419178, 10855419179, 10855419180, 10855419177, 10855419175], "tags": {"amenity": "restaurant", "brand": "Roadhouse", "brand:wikidata": "Q7339591", "building": "yes", "cuisine": "steak_house", "name": "Roadhouse"}}, {"type": "way", "id": 1185328530, "nodes": [11010678201, 11010678202, 11010678203, 11010678204, 11010694105, 11010694106, 11010694107, 11010678201], "tags": {"amenity": "cafe", "building": "yes", "cuisine": "italian", "name": "Parco Valserra Bar"}}, {"type": "way", "id": 1187259046, "nodes": [11025336621, 11025336622, 11025336623, 11025336624, 11025336625, 11025336626, 11025336621], "tags": {"addr:city": "Terni", "addr:housenumber": "13", "addr:street": "Strada del Cerqueto", "amenity": "restaurant", "building": "yes", "name": "Scardone", "phone": "351 751 7859", "website": "https://www.facebook.com/Scardone"}}, {"type": "way", "id": 1201793960, "nodes": [11142335493, 11142335494, 11142335495, 11142335496, 11142335497, 11142335498, 11142335499, 11142335500, 11142335501, 11142335502, 11142335503, 11142335504, 11142347705, 11142347706, 11142335493], "tags": {"amenity": "restaurant", "building": "yes", "cuisine": "regional", "name": "Ristorante Lu Somaru"}}, {"type": "way", "id": 1202640396, "nodes": [11149074025, 11149074026, 11149074027, 11149074028, 11149074025], "tags": {"amenity": "restaurant", "bar": "yes", "building": "yes", "name": "Baraonda"}}, {"type": "way", "id": 1234480939, "nodes": [11458227574, 11458227575, 11560794189, 11560794190, 11458227576, 11560794188, 1002982235, 11458227574], "tags": {"amenity": "restaurant", "building": "yes", "cuisine": "pizza", "name": "Eurofocaccia"}}, {"type": "way", "id": 1280538609, "nodes": [11886420089, 11886420090, 11886420091, 11886420092, 11886420089], "tags": {"amenity": "cafe", "building": "yes", "name": "Caff\u00e8 L'Incontro"}}, {"type": "way", "id": 1281389765, "nodes": [11893224678, 11893224679, 11893224680, 11893224681, 11893224682, 11893224683, 11893224687, 11893224678], "tags": {"amenity": "restaurant", "building": "yes", "name": "Agriturismo Tenuta Filippi"}}, {"type": "way", "id": 1281389766, "nodes": [11893224678, 11893224759, 11893224684, 11893224685, 11893224686, 11893224687, 11893224678], "tags": {"amenity": "restaurant", "building": "yes", "name": "Agriturismo Tenuta Filippi"}}, {"type": "way", "id": 1334509277, "nodes": [1110757740, 12345991087, 12345991088, 12345991089, 12345991090, 12345991091, 12345991092, 12345991093, 1110757740], "tags": {"amenity": "restaurant", "building": "yes", "name": "Il Madrigale"}}]}