{"version": 0.6, "generator": "Overpass API 0.7.62.7 375dc00a", "osm3s": {"timestamp_osm_base": "2025-06-14T14:41:26Z", "copyright": "The data included in this document is from www.openstreetmap.org. The data is made available under ODbL."}, "elements": [{"type": "node", "id": 64821869, "lat": 38.8521643, "lon": 23.0464275}, {"type": "node", "id": 521749346, "lat": 39.1674365, "lon": 22.8888756, "tags": {"amenity": "cafe"}}, {"type": "node", "id": 521749350, "lat": 39.1672244, "lon": 22.8891692, "tags": {"amenity": "restaurant", "cuisine": "fish"}}, {"type": "node", "id": 679935274, "lat": 39.1544559, "lon": 23.0765946, "tags": {"amenity": "restaurant", "cuisine": "greek", "int_name": "Diavlos", "name": "\u0394\u03af\u03b1\u03c5\u03bb\u03bf\u03c2", "wheelchair": "limited"}}, {"type": "node", "id": 866422328, "lat": 38.8039716, "lon": 22.7442069, "tags": {"amenity": "restaurant", "cuisine": "greek", "name": "\u03a6\u03bb\u03bf\u03af\u03c3\u03b2\u03bf\u03c2"}}, {"type": "node", "id": 1725186112, "lat": 38.7784076, "lon": 22.7695272, "tags": {"addr:city": "\u039a\u03b1\u03bc\u03bc\u03ad\u03bd\u03b1 \u0392\u03bf\u03cd\u03c1\u03bb\u03b1", "addr:street": "\u0393\u03b5\u03c1\u03b1\u03c3\u03af\u03bc\u03bf\u03c5 \u0392\u03b1\u03c3\u03b9\u03bb\u03b5\u03b9\u03ac\u03b4\u03b7", "amenity": "cafe", "facebook": "https://el-gr.facebook.com/Prova-Music-Cafe-Kamena-Vourla-172522826136554/", "name": "Prova", "website": "http://www.provacafe.gr"}}, {"type": "node", "id": 1817382397, "lat": 38.864884, "lon": 22.975816, "tags": {"amenity": "restaurant", "name": "\u039f\u03c5\u03b6\u03b5\u03c1\u03af \"\u03a4\u03b1 \u0394\u03cd\u03bf \u0391\u03b4\u03ad\u03c1\u03c6\u03b9\u03b1\""}}, {"type": "node", "id": 1817388483, "lat": 38.8649375, "lon": 22.9757199, "tags": {"amenity": "cafe", "name": "\u0393\u03b5\u03c1\u03bf\u03b4\u03ae\u03bc\u03bf\u03c2"}}, {"type": "node", "id": 1817395819, "lat": 38.864887, "lon": 22.975593, "tags": {"amenity": "cafe", "name": "\u039c\u03c0\u03bf\u03c5\u03c1\u03bf\u03b4\u03ae\u03bc\u03bf\u03c2"}}, {"type": "node", "id": 1817405905, "lat": 38.865096, "lon": 22.975542, "tags": {"amenity": "cafe", "name": "\u03c3\u03b1\u03bd \u03c8\u03ad\u03bc\u03b1"}}, {"type": "node", "id": 1819174650, "lat": 38.850484, "lon": 22.990188, "tags": {"amenity": "restaurant", "name": "\u03a8\u03b1\u03c1\u03bf\u03c4\u03b1\u03b2\u03ad\u03c1\u03bd\u03b1 \"\u0391\u03c1\u03b9\u03c3\u03c4\u03ad\u03b1\""}}, {"type": "node", "id": 1819321536, "lat": 38.85088, "lon": 22.989188, "tags": {"amenity": "cafe", "name": "\u0394\u03ad\u03c3\u03c0\u03bf\u03b9\u03bd\u03b1"}}, {"type": "node", "id": 1854602692, "lat": 38.8524032, "lon": 23.0464836}, {"type": "node", "id": 1865466409, "lat": 39.144044, "lon": 23.0816785, "tags": {"amenity": "restaurant", "cuisine": "fish"}}, {"type": "node", "id": 2026094937, "lat": 38.8997746, "lon": 23.1588637, "tags": {"addr:street": "\u039a\u03b1\u03c3\u03c4\u03b1\u03bd\u03b9\u03ce\u03c4\u03b9\u03c3\u03c3\u03b1", "amenity": "restaurant", "cuisine": "greek", "name": "Kansas"}}, {"type": "node", "id": 2175980922, "lat": 39.180101, "lon": 22.7614134}, {"type": "node", "id": 2630188608, "lat": 39.0627513, "lon": 22.8879771, "tags": {"amenity": "cafe", "name": "Flocafe"}}, {"type": "node", "id": 2630189433, "lat": 39.0632055, "lon": 22.889, "tags": {"amenity": "cafe", "name": "Flocafe"}}, {"type": "node", "id": 2684977510, "lat": 39.1868212, "lon": 22.7581177}, {"type": "node", "id": 2684977511, "lat": 39.1866748, "lon": 22.7581151}, {"type": "node", "id": 2684977512, "lat": 39.1866732, "lon": 22.7582638}, {"type": "node", "id": 2684977513, "lat": 39.1868196, "lon": 22.7582664}, {"type": "node", "id": 2684977515, "lat": 39.180773, "lon": 22.7601238}, {"type": "node", "id": 2684977516, "lat": 39.1806428, "lon": 22.7601248}, {"type": "node", "id": 2684977518, "lat": 39.1804392, "lon": 22.7614707}, {"type": "node", "id": 2684977521, "lat": 39.1806325, "lon": 22.7613978}, {"type": "node", "id": 2684977522, "lat": 39.1806808, "lon": 22.7616216}, {"type": "node", "id": 2684977524, "lat": 39.1808019, "lon": 22.7611992}, {"type": "node", "id": 2684977525, "lat": 39.1806498, "lon": 22.7611982}, {"type": "node", "id": 2684977526, "lat": 39.1806501, "lon": 22.7611052}, {"type": "node", "id": 2684977527, "lat": 39.1808022, "lon": 22.7611061}, {"type": "node", "id": 2684977528, "lat": 39.1812429, "lon": 22.7624644}, {"type": "node", "id": 2684977529, "lat": 39.1812151, "lon": 22.7624373}, {"type": "node", "id": 2684977531, "lat": 39.1806691, "lon": 22.7616226}, {"type": "node", "id": 2684977532, "lat": 39.1807363, "lon": 22.7617624}, {"type": "node", "id": 2684977535, "lat": 39.1810247, "lon": 22.7621152}, {"type": "node", "id": 2684977536, "lat": 39.1809311, "lon": 22.7620023}, {"type": "node", "id": 2684977540, "lat": 39.1809596, "lon": 22.7616265}, {"type": "node", "id": 2684977541, "lat": 39.1810229, "lon": 22.7617251}, {"type": "node", "id": 2684979527, "lat": 39.1810755, "lon": 22.761796}, {"type": "node", "id": 2685576397, "lat": 39.183305, "lon": 22.7407385}, {"type": "node", "id": 2685576398, "lat": 39.1833969, "lon": 22.7407385}, {"type": "node", "id": 2685576399, "lat": 39.1833981, "lon": 22.7406522}, {"type": "node", "id": 2685576400, "lat": 39.1833062, "lon": 22.7406476}, {"type": "node", "id": 2685586385, "lat": 39.1800124, "lon": 22.7612972}, {"type": "node", "id": 2685586386, "lat": 39.1800124, "lon": 22.7614266}, {"type": "node", "id": 2686550323, "lat": 39.1804436, "lon": 22.7612465}, {"type": "node", "id": 2686550324, "lat": 39.1804896, "lon": 22.7614719}, {"type": "node", "id": 2686550325, "lat": 39.1805383, "lon": 22.7614709}, {"type": "node", "id": 2686550327, "lat": 39.1805384, "lon": 22.7612482}, {"type": "node", "id": 2686550338, "lat": 39.1809208, "lon": 22.7616749}, {"type": "node", "id": 2686550339, "lat": 39.180994, "lon": 22.7617651}, {"type": "node", "id": 2686550340, "lat": 39.1810128, "lon": 22.7618896}, {"type": "node", "id": 2686550341, "lat": 39.1810512, "lon": 22.7618351}, {"type": "node", "id": 2686550342, "lat": 39.1811063, "lon": 22.7620026}, {"type": "node", "id": 2729649830, "lat": 38.8889563, "lon": 22.7172052}, {"type": "node", "id": 2729649838, "lat": 38.8889718, "lon": 22.717576}, {"type": "node", "id": 2729649841, "lat": 38.8890655, "lon": 22.7171948}, {"type": "node", "id": 2729649844, "lat": 38.8891256, "lon": 22.7175769}, {"type": "node", "id": 2952258794, "lat": 38.8227059, "lon": 22.8214312, "tags": {"amenity": "cafe", "internet_access": "no"}}, {"type": "node", "id": 2952466188, "lat": 38.8277508, "lon": 22.8312127, "tags": {"amenity": "restaurant"}}, {"type": "node", "id": 2952466195, "lat": 38.8326045, "lon": 22.8325577, "tags": {"amenity": "cafe"}}, {"type": "node", "id": 2952466206, "lat": 38.8354963, "lon": 22.8781604, "tags": {"amenity": "restaurant"}}, {"type": "node", "id": 2952466267, "lat": 38.8347891, "lon": 22.8755297, "tags": {"amenity": "restaurant", "name": "\u0391\u03cd\u03c1\u03b1", "name:el": "\u0391\u03cd\u03c1\u03b1"}}, {"type": "node", "id": 2952466269, "lat": 38.8346579, "lon": 22.8744198, "tags": {"amenity": "cafe", "contact:website": "www.panoramaevia.com", "name": "\u03a0\u03b1\u03bd\u03cc\u03c1\u03b1\u03bc\u03b1", "name:el": "\u03a0\u03b1\u03bd\u03cc\u03c1\u03b1\u03bc\u03b1"}}, {"type": "node", "id": 2954261915, "lat": 38.852185, "lon": 23.0463573}, {"type": "node", "id": 2954261916, "lat": 38.8522111, "lon": 23.046506}, {"type": "node", "id": 2954261917, "lat": 38.8523938, "lon": 23.0463426}, {"type": "node", "id": 3016498033, "lat": 38.8865367, "lon": 22.958557, "tags": {"amenity": "restaurant", "cuisine": "greek", "name": "\u03a8\u03b1\u03c1\u03bf\u03c4\u03b1\u03b2\u03b5\u03c1\u03bd\u03b1 \"\u03a4\u03bf \u03ba\u03b9\u03cc\u03c3\u03ba\u03b9\"", "source": "survey"}}, {"type": "node", "id": 3020637133, "lat": 38.8647663, "lon": 22.9757421, "tags": {"amenity": "cafe", "name": "\u0391\u03c1\u03c7\u03b9\u03c0\u03ad\u03bb\u03b1\u03b3\u03bf\u03c2", "source": "survey"}}, {"type": "node", "id": 3278249914, "lat": 39.1681376, "lon": 22.8882189, "tags": {"amenity": "cafe", "name": "Glezos"}}, {"type": "node", "id": 3479542394, "lat": 38.9761863, "lon": 23.0959305, "tags": {"addr:city": "Oreoi", "addr:postcode": "34012", "addr:street": "tsokaiti", "amenity": "restaurant", "capacity": "300", "cuisine": "regional", "delivery": "yes", "internet_access": "wlan", "name": "lola restaurant", "opening_hours": "24/7", "phone": "00306957501721", "smoking": "outside", "takeaway": "yes"}}, {"type": "node", "id": 3479549940, "lat": 38.9762531, "lon": 23.0961773, "tags": {"addr:city": "Oreoi", "addr:postcode": "34012", "addr:street": "tsokaiti", "amenity": "cafe", "breakfast": "yes", "cuisine": "greek", "internet_access": "yes", "name": "lola cafe", "opening_hours": "24/7", "smoking": "outside"}}, {"type": "node", "id": 3704914164, "lat": 38.9149691, "lon": 23.113276, "tags": {"amenity": "restaurant", "cuisine": "greek", "name": "\u039f \u0391\u03a6\u038a\u039b\u039f\u03a3"}}, {"type": "node", "id": 3704914181, "lat": 38.7824046, "lon": 22.7948358, "tags": {"amenity": "restaurant", "cuisine": "greek"}}, {"type": "node", "id": 3704914631, "lat": 38.9356541, "lon": 23.0744568, "tags": {"amenity": "cafe", "outdoor_seating": "yes"}}, {"type": "node", "id": 3945910133, "lat": 38.8893939, "lon": 22.9616926, "tags": {"amenity": "restaurant", "cuisine": "seafood", "name": "\u039a\u03b1\u03bd\u03c4\u03ac\u03c1\u03b1\u03c2", "source": "note 434001"}}, {"type": "node", "id": 3945910134, "lat": 38.8884626, "lon": 22.9607617, "tags": {"amenity": "restaurant", "name": "\u039a\u03c5\u03c0\u03c1\u03b9\u03b1\u03bd\u03cc\u03c2", "source": "note 434000"}}, {"type": "node", "id": 4034258691, "lat": 38.7913492, "lon": 22.7223215, "tags": {"amenity": "cafe", "internet_access": "wlan", "name": "\u0391\u03c1\u03af\u03c9\u03bd \u039a\u03b1\u03c6\u03ad", "operator": "Paschalis Anestopoulos"}}, {"type": "node", "id": 4109463759, "lat": 38.9476023, "lon": 23.0876203, "tags": {"amenity": "restaurant"}}, {"type": "node", "id": 4109463761, "lat": 38.9487003, "lon": 23.0879038, "tags": {"amenity": "restaurant", "name": "\u03a4\u03bf \u03ba\u03bf\u03c7\u03cd\u03bb\u03b9"}}, {"type": "node", "id": 4109463763, "lat": 38.9493379, "lon": 23.0877383, "tags": {"amenity": "restaurant"}}, {"type": "node", "id": 4109465926, "lat": 38.9480873, "lon": 23.087987, "tags": {"amenity": "cafe"}}, {"type": "node", "id": 4394576619, "lat": 39.0926757, "lon": 23.0691062, "tags": {"amenity": "restaurant", "name": "\u03a4\u03bf \u039c\u03bf\u03c5\u03c1\u03ac\u03b3\u03b9\u03bf"}}, {"type": "node", "id": 4492404441, "lat": 38.84778, "lon": 23.1221616, "tags": {"amenity": "restaurant", "cuisine": "seafood", "name": "Pharos", "name:en": "Pharos", "phone": "+30 2226 060551"}}, {"type": "node", "id": 4895034797, "lat": 38.8959541, "lon": 23.1781842}, {"type": "node", "id": 4895034798, "lat": 38.8959422, "lon": 23.1783833}, {"type": "node", "id": 4895034799, "lat": 38.8958662, "lon": 23.1783759}, {"type": "node", "id": 4895034800, "lat": 38.895878, "lon": 23.1781768}, {"type": "node", "id": 4903671551, "lat": 38.9492233, "lon": 23.0877757, "tags": {"amenity": "restaurant"}}, {"type": "node", "id": 4903671552, "lat": 38.9488762, "lon": 23.0878417, "tags": {"amenity": "restaurant"}}, {"type": "node", "id": 4922019867, "lat": 39.0926833, "lon": 23.0688055, "tags": {"amenity": "restaurant", "name": "\u039c\u03c5\u03bb\u03c9\u03bd\u03ac\u03c2"}}, {"type": "node", "id": 4922020196, "lat": 39.0925492, "lon": 23.068007, "tags": {"amenity": "restaurant", "name": "\u03bf \u03ba\u03ac\u03b2\u03bf\u03c2"}}, {"type": "node", "id": 4922095639, "lat": 39.1710047, "lon": 23.2203225, "tags": {"addr:city": "\u039c\u03b7\u03bb\u03af\u03bd\u03b1", "amenity": "restaurant", "name": "\u03a3\u0391\u039a\u0397\u03a3"}}, {"type": "node", "id": 5045462842, "lat": 39.0336059, "lon": 22.962872}, {"type": "node", "id": 5045462843, "lat": 39.0335434, "lon": 22.9626775}, {"type": "node", "id": 5045462844, "lat": 39.0333757, "lon": 22.9627669}, {"type": "node", "id": 5045462845, "lat": 39.0334382, "lon": 22.9629613}, {"type": "node", "id": 5045462905, "lat": 39.0053339, "lon": 22.9623412}, {"type": "node", "id": 5045462906, "lat": 39.0052902, "lon": 22.9624483}, {"type": "node", "id": 5045462907, "lat": 39.0054563, "lon": 22.9625605}, {"type": "node", "id": 5045462908, "lat": 39.0055, "lon": 22.9624533}, {"type": "node", "id": 5045462945, "lat": 39.006719, "lon": 22.9648103}, {"type": "node", "id": 5045462946, "lat": 39.0067418, "lon": 22.9647923}, {"type": "node", "id": 5045462947, "lat": 39.0067987, "lon": 22.9649118}, {"type": "node", "id": 5045462948, "lat": 39.0065946, "lon": 22.9645488}, {"type": "node", "id": 5045462949, "lat": 39.006515, "lon": 22.9646116}, {"type": "node", "id": 5045462950, "lat": 39.0066964, "lon": 22.9649925}, {"type": "node", "id": 5045462959, "lat": 39.0055208, "lon": 22.9619898}, {"type": "node", "id": 5045462960, "lat": 39.0054627, "lon": 22.9621088}, {"type": "node", "id": 5045462961, "lat": 39.005575, "lon": 22.9621997}, {"type": "node", "id": 5045462962, "lat": 39.0056332, "lon": 22.9620808}, {"type": "node", "id": 5045462963, "lat": 39.0055552, "lon": 22.9618351}, {"type": "node", "id": 5045462964, "lat": 39.0054937, "lon": 22.9619625}, {"type": "node", "id": 5045462965, "lat": 39.005636, "lon": 22.9620762}, {"type": "node", "id": 5045462966, "lat": 39.0056975, "lon": 22.9619488}, {"type": "node", "id": 5045462971, "lat": 39.0063537, "lon": 22.9607619}, {"type": "node", "id": 5045462972, "lat": 39.0063154, "lon": 22.9607221}, {"type": "node", "id": 5045462973, "lat": 39.0062955, "lon": 22.9605528}, {"type": "node", "id": 5045462974, "lat": 39.0061762, "lon": 22.9607431}, {"type": "node", "id": 5045462975, "lat": 39.0062908, "lon": 22.9608621}, {"type": "node", "id": 5045462976, "lat": 39.0063718, "lon": 22.9606321}, {"type": "node", "id": 5045462977, "lat": 39.0069412, "lon": 22.9599504}, {"type": "node", "id": 5045462978, "lat": 39.0068296, "lon": 22.9597296}, {"type": "node", "id": 5045462979, "lat": 39.0069004, "lon": 22.9596704}, {"type": "node", "id": 5045462980, "lat": 39.0070119, "lon": 22.9598912}, {"type": "node", "id": 5045462999, "lat": 39.005242, "lon": 22.963706}, {"type": "node", "id": 5045463000, "lat": 39.0052483, "lon": 22.9635222}, {"type": "node", "id": 5045463001, "lat": 39.0053379, "lon": 22.9635273}, {"type": "node", "id": 5045463002, "lat": 39.0053317, "lon": 22.963711}, {"type": "node", "id": 5048029183, "lat": 39.0528569, "lon": 22.9875682}, {"type": "node", "id": 5048029184, "lat": 39.0528069, "lon": 22.9872356}, {"type": "node", "id": 5048029185, "lat": 39.0528994, "lon": 22.9872125}, {"type": "node", "id": 5048029186, "lat": 39.0529494, "lon": 22.9875451}, {"type": "node", "id": 5048029187, "lat": 39.0525733, "lon": 22.9877443}, {"type": "node", "id": 5048029188, "lat": 39.052556, "lon": 22.9875927}, {"type": "node", "id": 5048029189, "lat": 39.0526416, "lon": 22.9875764}, {"type": "node", "id": 5048029190, "lat": 39.0526589, "lon": 22.987728}, {"type": "node", "id": 5075322497, "lat": 39.0371901, "lon": 22.9793883}, {"type": "node", "id": 5075322498, "lat": 39.0370328, "lon": 22.9789565}, {"type": "node", "id": 5075322499, "lat": 39.0369613, "lon": 22.9789996}, {"type": "node", "id": 5075322500, "lat": 39.0371186, "lon": 22.9794314}, {"type": "node", "id": 5075322523, "lat": 39.0360758, "lon": 22.9915434}, {"type": "node", "id": 5075322524, "lat": 39.0359529, "lon": 22.9916694}, {"type": "node", "id": 5075322525, "lat": 39.0358849, "lon": 22.9915595}, {"type": "node", "id": 5075322526, "lat": 39.0360077, "lon": 22.9914335}, {"type": "node", "id": 5157109624, "lat": 39.1161105, "lon": 23.1013338, "tags": {"amenity": "restaurant", "cuisine": "fish;greek;seafood", "internet_access": "wlan", "name": "\u03a8\u03b1\u03c1\u03bf\u03c4\u03b1\u03b2\u03ad\u03c1\u03bd\u03b1 \u0391\u03b3\u03b3\u03b5\u03bb\u03bf\u03c3", "name:el": "Taverna di Aggelos", "name:en": "Taverna Angelos"}}, {"type": "node", "id": 5297388199, "lat": 38.8354052, "lon": 22.9463946, "tags": {"amenity": "cafe"}}, {"type": "node", "id": 5499260909, "lat": 38.8534745, "lon": 23.0441917, "tags": {"addr:street": "\u03a0\u03bf\u03c3\u03b5\u03b9\u03b4\u03ce\u03bd\u03bf\u03c2", "amenity": "cafe", "internet_access": "wlan", "name": "Apollon music cafe"}}, {"type": "node", "id": 5499260911, "lat": 38.8552284, "lon": 23.0427598, "tags": {"amenity": "restaurant", "name": "\u039d\u03bf\u03cd\u03c6\u03b1\u03c1\u03b1"}}, {"type": "node", "id": 5499260912, "lat": 38.8553189, "lon": 23.0427148, "tags": {"amenity": "restaurant", "name": "\u03a4\u03b1 \u039a\u03bf\u03c7\u03cd\u03bb\u03b9\u03b1"}}, {"type": "node", "id": 5499260919, "lat": 38.8573273, "lon": 23.0419056, "tags": {"amenity": "restaurant", "cuisine": "pizza", "name": "Palatino"}}, {"type": "node", "id": 5499269921, "lat": 38.8574798, "lon": 23.0417232, "tags": {"amenity": "restaurant", "name": "Caterina's"}}, {"type": "node", "id": 5499269922, "lat": 38.8576072, "lon": 23.0416749, "tags": {"amenity": "cafe", "name": "\u0391\u03c1\u03b9\u03ac\u03b4\u03bd\u03b7"}}, {"type": "node", "id": 5499269923, "lat": 38.8578829, "lon": 23.0416052, "tags": {"amenity": "restaurant", "name": "Romana", "toilets:wheelchair": "no", "wheelchair": "no"}}, {"type": "node", "id": 5499269924, "lat": 38.8579748, "lon": 23.041581, "tags": {"amenity": "restaurant", "cuisine": "\u03a8\u03b7\u03c4\u03bf\u03c0\u03c9\u03bb\u03b5\u03af\u03bf", "name": "\u0397 \u039a\u03b1\u03bb\u03ae \u038c\u03c1\u03b5\u03be\u03b7"}}, {"type": "node", "id": 5499269926, "lat": 38.8589064, "lon": 23.0413683, "tags": {"amenity": "cafe", "name": "Porto"}}, {"type": "node", "id": 5501737599, "lat": 38.8578987, "lon": 23.0954094, "tags": {"amenity": "restaurant", "name": "\u039d\u03b1\u03bd\u03ac"}}, {"type": "node", "id": 5623136978, "lat": 39.1681476, "lon": 23.2194894, "tags": {"amenity": "restaurant", "name": "\u0395\u03bd \u03a0\u03bb\u03ce"}}, {"type": "node", "id": 5629439051, "lat": 39.1701162, "lon": 23.2199588, "tags": {"amenity": "restaurant"}}, {"type": "node", "id": 5629439052, "lat": 39.170058, "lon": 23.2199293, "tags": {"amenity": "cafe"}}, {"type": "node", "id": 5629439053, "lat": 39.1702077, "lon": 23.2200124, "tags": {"amenity": "cafe"}}, {"type": "node", "id": 5629439054, "lat": 39.170397, "lon": 23.220058, "tags": {"amenity": "cafe"}}, {"type": "node", "id": 5896452273, "lat": 38.9380111, "lon": 23.0756346, "tags": {"amenity": "cafe", "name": "Olive", "outdoor_seating": "yes"}}, {"type": "node", "id": 5896458253, "lat": 38.9380123, "lon": 23.0734657, "tags": {"amenity": "restaurant", "name": "\u03a4\u03c3\u03b9\u03c0\u03bf\u03c5\u03c1\u03bf\u03bc\u03b1\u03c7\u03af\u03b5\u03c2"}}, {"type": "node", "id": 5896759137, "lat": 38.9379595, "lon": 23.072769, "tags": {"amenity": "restaurant", "name": "Macambo"}}, {"type": "node", "id": 5897187392, "lat": 38.9372897, "lon": 23.0695938, "tags": {"amenity": "cafe", "outdoor_seating": "pedestrian"}}, {"type": "node", "id": 5897187444, "lat": 38.937862, "lon": 23.069007, "tags": {"amenity": "cafe"}}, {"type": "node", "id": 5897499246, "lat": 38.9383299, "lon": 23.067819, "tags": {"amenity": "restaurant", "name": "\u03a6\u03bb\u03bf\u03af\u03c3\u03b2\u03bf\u03c2", "outdoor_seating": "yes"}}, {"type": "node", "id": 5899741679, "lat": 39.0055787, "lon": 23.2085211, "tags": {"amenity": "restaurant", "cuisine": "meat", "name": "\u03a3\u03c4\u03bf\u03c5 \u039a\u03c5\u03c1\u03b9\u03ac\u03ba\u03bf\u03c5"}}, {"type": "node", "id": 5899743809, "lat": 39.0062802, "lon": 23.2091309, "tags": {"amenity": "cafe", "name": "\u039a\u03cd\u03bc\u03b1\u03c4\u03b1"}}, {"type": "node", "id": 5899802554, "lat": 39.0074185, "lon": 23.2098894, "tags": {"amenity": "cafe", "name": "Santis"}}, {"type": "node", "id": 5902436045, "lat": 39.0119615, "lon": 23.2124771, "tags": {"amenity": "restaurant"}}, {"type": "node", "id": 5902439816, "lat": 39.0136585, "lon": 23.2140039, "tags": {"amenity": "restaurant", "name": "\u0397 \u03ac\u03ba\u03c1\u03b7"}}, {"type": "node", "id": 5902439851, "lat": 39.0137162, "lon": 23.2140833, "tags": {"amenity": "restaurant", "name": "\u039f \u03b1\u03c7\u03c4\u03cd\u03c0\u03b7\u03c4\u03bf\u03c2"}}, {"type": "node", "id": 5902485694, "lat": 39.0039117, "lon": 23.197714, "tags": {"amenity": "restaurant", "description": "\u03c8\u03b1\u03c1\u03bf\u03c4\u03b1\u03b2\u03ad\u03c1\u03bd\u03b1", "name": "Seafood XXL", "outdoor_seating": "pedestrian"}}, {"type": "node", "id": 5902485863, "lat": 39.0039059, "lon": 23.1978456, "tags": {"amenity": "restaurant", "description": "\u03bf\u03c5\u03b6\u03b5\u03c1\u03af", "name": "\u039c\u03c0\u03bf\u03c5\u03b3\u03ac\u03b6\u03b9", "outdoor_seating": "pedestrian"}}, {"type": "node", "id": 5902486946, "lat": 39.0039059, "lon": 23.1980287, "tags": {"amenity": "restaurant", "description": "\u03c8\u03b1\u03c1\u03bf\u03c4\u03b1\u03b2\u03ad\u03c1\u03bd\u03b1, \u03c4\u03c3\u03b9\u03c0\u03bf\u03c5\u03c1\u03ac\u03b4\u03b9\u03ba\u03bf", "name": "\u03a4\u03bf \u03ba\u03cd\u03bc\u03b1", "outdoor_seating": "pedestrian"}}, {"type": "node", "id": 5902488511, "lat": 39.0039056, "lon": 23.1981677, "tags": {"amenity": "cafe", "name": "Remezzo", "operator": "\u0392\u03b1\u03ba\u03b1\u03bb\u03cc\u03c0\u03bf\u03c5\u03bb\u03bf\u03c2 \u0391\u03b8\u03b1\u03bd\u03ac\u03c3\u03b9\u03bf\u03c2", "outdoor_seating": "pedestrian", "phone": "+302225041298"}}, {"type": "node", "id": 5905968058, "lat": 38.9477371, "lon": 23.0880813, "tags": {"amenity": "cafe", "name": "\u03a4\u03cc\u03c3\u03c4\u03b9\u03bc\u03bf", "outdoor_seating": "yes"}}, {"type": "node", "id": 5908956615, "lat": 38.953697, "lon": 23.1512178, "tags": {"amenity": "cafe", "name": "Cafe K", "outdoor_seating": "yes"}}, {"type": "node", "id": 5911740228, "lat": 38.9530062, "lon": 23.1516131, "tags": {"amenity": "cafe", "name": "Petit", "outdoor_seating": "yes"}}, {"type": "node", "id": 5933250127, "lat": 38.9486188, "lon": 23.0879173, "tags": {"amenity": "restaurant", "name": "\u039f \u039c\u03c0\u03bf\u03cd\u03ba\u03b1\u03c2"}}, {"type": "node", "id": 5977202419, "lat": 38.8778422, "lon": 23.034425, "tags": {"amenity": "restaurant"}}, {"type": "node", "id": 6032620308, "lat": 39.0053681, "lon": 23.2083266, "tags": {"amenity": "cafe"}}, {"type": "node", "id": 6405099581, "lat": 39.0999169, "lon": 23.0765811, "tags": {"amenity": "restaurant", "cuisine": "greek", "name": "\u0391\u03ba\u03c1\u03cc\u03bd\u03b5\u03b9\u03c1\u03bf", "opening_hours": "Mo-Su 09:00-12:00"}}, {"type": "node", "id": 6631614376, "lat": 38.8335343, "lon": 22.6534075, "tags": {"amenity": "restaurant"}}, {"type": "node", "id": 6712801344, "lat": 39.1801188, "lon": 22.7612912}, {"type": "node", "id": 6712801345, "lat": 39.1801177, "lon": 22.7613731}, {"type": "node", "id": 6712801348, "lat": 39.1807854, "lon": 22.7615313}, {"type": "node", "id": 6712801349, "lat": 39.1807844, "lon": 22.7615326}, {"type": "node", "id": 6712801350, "lat": 39.1807003, "lon": 22.7613916}, {"type": "node", "id": 6712801351, "lat": 39.1808614, "lon": 22.7616522}, {"type": "node", "id": 6712801352, "lat": 39.1813181, "lon": 22.7623358}, {"type": "node", "id": 6712801353, "lat": 39.1812903, "lon": 22.7623087}, {"type": "node", "id": 6712801357, "lat": 39.1807738, "lon": 22.7600127}, {"type": "node", "id": 6712801359, "lat": 39.1806433, "lon": 22.7600131}, {"type": "node", "id": 6753873630, "lat": 38.7802665, "lon": 22.7871452, "tags": {"amenity": "cafe"}}, {"type": "node", "id": 6919101586, "lat": 38.8805117, "lon": 22.7769753, "tags": {"addr:postcode": "35300", "addr:street": "\u03a0\u03b1\u03c1\u03ac\u03c0\u03bb\u03b5\u03c5\u03c1\u03b7 \u039f\u03b4\u03cc\u03c2 \u0391.\u0398.\u0395.", "amenity": "restaurant", "internet_access": "wlan", "name": "\u03a0\u03b9\u03c4\u03c3\u03b1\u03c1\u03af\u03b1", "name:el": "\u03a0\u03b9\u03c4\u03c3\u03b1\u03c1\u03af\u03b1 \"La Piazza\"", "name:en": "pizzeria \"La Piazza\"", "name:ru": "\u041f\u0438\u0446\u0446\u0435\u0440\u0438\u044f", "opening_hours": "Mo-Su 09:00-23:00", "phone": "2238031341"}}, {"type": "node", "id": 7134035974, "lat": 39.1554938, "lon": 23.2118116, "tags": {"amenity": "restaurant", "name": "Gibraltar", "start_date": "~1950"}}, {"type": "node", "id": 7632202985, "lat": 39.0041083, "lon": 23.2051154, "tags": {"amenity": "cafe", "cuisine": "coffee_shop;ice_cream", "email": "info@pefki-artemis.gr", "internet_access": "wlan", "name": "\u0386\u03c1\u03c4\u03b5\u03bc\u03b9\u03c2", "name:el": "\u0386\u03c1\u03c4\u03b5\u03bc\u03b9\u03c2", "name:en": "Artemis Cafe", "opening_hours": "Mo-Su 09:00-01:00", "phone": "+302226040834", "website": "https://pefki-artemis.gr/artemis-cafe/"}}, {"type": "node", "id": 7676400020, "lat": 38.9296226, "lon": 23.17307, "tags": {"amenity": "restaurant", "name": "\u03a3\u03c4\u03b5\u03c6\u03b1\u03bd\u03af\u03b1", "outdoor_seating": "yes"}}, {"type": "node", "id": 7704098384, "lat": 39.1671793, "lon": 22.8892828, "tags": {"amenity": "restaurant", "cuisine": "fish"}}, {"type": "node", "id": 8389898075, "lat": 38.8589852, "lon": 23.0413323, "tags": {"amenity": "restaurant", "cuisine": "pizza;crepe", "diet:vegan": "yes", "name": "\u03a0\u03b1\u03c1\u03ad\u03bd\u03b8\u03b5\u03c3\u03b7", "opening_hours": "Mo-Su 12:00-16:00, 19:00-00:00, 20:00-01:00", "phone": "+302226023040"}}, {"type": "node", "id": 8401828329, "lat": 39.0040666, "lon": 23.2057399, "tags": {"amenity": "restaurant", "cuisine": "greek;italian;pizza", "name": "Pizza Burano"}}, {"type": "node", "id": 8491794720, "lat": 39.0097717, "lon": 23.2113424, "tags": {"addr:postcode": "34200", "amenity": "cafe", "internet_access": "wlan", "name:en": "Cafe-bar Fygias", "phone": "2226041208"}}, {"type": "node", "id": 8747334330, "lat": 38.7751303, "lon": 22.8974155, "tags": {"addr:city": "\u0386\u03b3\u03b9\u03bf\u03c2 \u039a\u03c9\u03bd\u03c3\u03c4\u03b1\u03bd\u03c4\u03af\u03bd\u03bf\u03c2", "addr:postcode": "35006", "addr:street": "\u03a0\u03b1\u03c1\u03b1\u03bb\u03af\u03b1 \u039a\u03b1\u03bb\u03ac\u03bc\u03bf\u03c5", "amenity": "cafe", "bar": "yes", "cuisine": "greek", "name": "\u039a\u03ac\u03bb\u03b1\u03bc\u03bf\u03c2 caf\u00e9", "opening_hours": "Mo-Su 10:00-21:00", "opening_hours:covid19": "closed", "outdoor_seating": "yes", "takeaway": "yes"}}, {"type": "node", "id": 8850969287, "lat": 39.1542737, "lon": 23.0758776, "tags": {"amenity": "restaurant", "cuisine": "regional;seafood", "name": "Issalos"}}, {"type": "node", "id": 8865770217, "lat": 39.0072742, "lon": 23.2098065, "tags": {"amenity": "restaurant", "cuisine": "grill;pasta;pizza", "name": "\"\u0391\u03bd\u03ad\u03c3\u03c4\u03b7\u03c2\"", "phone": "2226041807"}}, {"type": "node", "id": 8923601631, "lat": 38.9984823, "lon": 22.9254104, "tags": {"amenity": "restaurant", "name": "\u039c\u0391\u039b\u039b\u0399\u0391\u03a1\u038c\u03a3 \u039a\u03a9\u03a3\u03a4\u0391\u03a3", "phone": "+306932205334"}}, {"type": "node", "id": 9029012218, "lat": 38.9530803, "lon": 23.1509897, "tags": {"addr:postcode": "34600", "addr:street": "\u03c0\u03bb\u03b1\u03c4\u03b5\u03af\u03b1 \u0399\u03c3\u03c4\u03b9\u03b1\u03af\u03b1\u03c2", "amenity": "cafe", "internet_access": "wlan", "name": "Fonjo", "outdoor_seating": "yes"}}, {"type": "node", "id": 9029029417, "lat": 38.9532823, "lon": 23.1507338, "tags": {"addr:postcode": "34600", "addr:street": "\u03c0\u03bb\u03b1\u03c4\u03b5\u03af\u03b1 \u0399\u03c3\u03c4\u03b9\u03b1\u03af\u03b1\u03c2", "amenity": "cafe", "internet_access": "wlan", "name": "\u0391\u03af\u03b3\u03bb\u03b7", "name:el": "\u0391\u03af\u03b3\u03bb\u03b7", "name:en": "Aigli", "outdoor_seating": "yes"}}, {"type": "node", "id": 9029029617, "lat": 38.9531866, "lon": 23.1508763, "tags": {"addr:street": "\u03c0\u03bb\u03b1\u03c4\u03b5\u03af\u03b1 \u0399\u03c3\u03c4\u03b9\u03b1\u03af\u03b1\u03c2", "amenity": "cafe", "name": "\u0391\u03c1\u03c7\u03bf\u03bd\u03c4\u03b9\u03ba\u03cc", "name:el": "\u0391\u03c1\u03c7\u03bf\u03bd\u03c4\u03b9\u03ba\u03cc", "name:en": "Archontiko est. 1890", "phone": "22260"}}, {"type": "node", "id": 9094412421, "lat": 39.0927532, "lon": 23.0686404, "tags": {"addr:city": "Agia Kyriaki, Trikeri", "amenity": "restaurant", "contact:instagram": "xixikas", "cuisine": "regional;fish", "description": "Call for free space in the harbour and free mooring.", "name": "\u03a4\u03bf \u039a\u03b1\u03c1\u03bd\u03ac\u03b3\u03b9\u03bf - \u0391\u03b3\u03af\u03b1 \u039a\u03c5\u03c1\u03b9\u03b1\u03ba\u03ae \u039d\u03bf\u03c4\u03af\u03bf\u03c5 \u03a0\u03b7\u03bb\u03af\u03bf\u03c5", "outdoor_seating": "yes", "phone": "+306978618199"}}, {"type": "node", "id": 9508956830, "lat": 38.9480492, "lon": 22.8390002, "tags": {"amenity": "restaurant", "name": "\u039a\u03b5\u03bd\u03c4\u03c1\u03b9\u03ba\u03cc\u03bd"}}, {"type": "node", "id": 9508989894, "lat": 38.9266421, "lon": 22.8615515, "tags": {"amenity": "restaurant", "name": "\u0393\u03b1\u03bb\u03ad\u03c1\u03b1"}}, {"type": "node", "id": 9509022216, "lat": 38.9268007, "lon": 22.8562649, "tags": {"amenity": "restaurant", "cuisine": "seafood", "name": "\u039b\u03b9\u03bc\u03b1\u03bd\u03ac\u03ba\u03b9"}}, {"type": "node", "id": 9509738241, "lat": 38.9501423, "lon": 22.8772351, "tags": {"amenity": "cafe"}}, {"type": "node", "id": 9509744514, "lat": 38.9482963, "lon": 22.8402902, "tags": {"amenity": "cafe", "cuisine": "pizza;crepe", "name": "Guzel", "old_name": "Click"}}, {"type": "node", "id": 9511226162, "lat": 38.9476197, "lon": 22.8386844, "tags": {"amenity": "restaurant", "name": "\u03a4\u03bf \u039a\u03bf\u03c5\u03c4\u03bf\u03cd\u03ba\u03b9"}}, {"type": "node", "id": 9511226163, "lat": 38.9475331, "lon": 22.8384497, "tags": {"amenity": "restaurant", "name": "\u03a4\u03b1 \u03a3\u03c5\u03bd\u03b1\u03be\u03ac\u03c1\u03b9\u03b1"}}, {"type": "node", "id": 9574963206, "lat": 38.887819, "lon": 22.7133347}, {"type": "node", "id": 9574963207, "lat": 38.8877112, "lon": 22.7133583}, {"type": "node", "id": 9574963208, "lat": 38.8877606, "lon": 22.7137313}, {"type": "node", "id": 9574963209, "lat": 38.8878684, "lon": 22.7137078}, {"type": "node", "id": 9574963210, "lat": 38.8885767, "lon": 22.7131145}, {"type": "node", "id": 9574963211, "lat": 38.8884154, "lon": 22.7131543}, {"type": "node", "id": 9574963212, "lat": 38.8884486, "lon": 22.7133763}, {"type": "node", "id": 9574963213, "lat": 38.8885616, "lon": 22.7133485}, {"type": "node", "id": 9574963214, "lat": 38.8885497, "lon": 22.7132683}, {"type": "node", "id": 9574963215, "lat": 38.8885979, "lon": 22.7132564}, {"type": "node", "id": 9641293517, "lat": 38.9536142, "lon": 23.1512928, "tags": {"addr:postcode": "34200", "addr:street": "\u03c0\u03bb\u03b1\u03c4\u03b5\u03af\u03b1 \u0399\u03c3\u03c4\u03b9\u03b1\u03af\u03b1\u03c2", "amenity": "restaurant", "cuisine": "pizza", "name": "Il forno", "phone": "2226056383 , 6988642467"}}, {"type": "node", "id": 9954999436, "lat": 38.8572217, "lon": 23.0458017}, {"type": "node", "id": 9954999437, "lat": 38.8571086, "lon": 23.0458813}, {"type": "node", "id": 9954999438, "lat": 38.8570323, "lon": 23.045717}, {"type": "node", "id": 9954999439, "lat": 38.8571334, "lon": 23.0456201}, {"type": "node", "id": 10026385156, "lat": 39.1686919, "lon": 22.8879457, "tags": {"amenity": "restaurant", "cuisine": "fish", "name": "\u03a0\u03c3\u03b1\u03c1\u03bf\u03c4\u03b1\u03b2\u03b5\u03c1\u03bd\u03b1 \u039c\u03b2\u03b1\u03bb\u03ba\u03bf\u03bd\u03ac\u03c4\u03bf\u03b9", "name:el": "\u03a0\u03c3\u03b1\u03c1\u03bf\u03c4\u03b1\u03b2\u03b5\u03c1\u03bd\u03b1 \u039c\u03b2\u03b1\u03bb\u03ba\u03bf\u03bd\u03ac\u03c4\u03bf\u03b9", "name:en": "Fish Tavern Balkonatoi"}}, {"type": "node", "id": 10092042475, "lat": 39.1671167, "lon": 22.8890328}, {"type": "node", "id": 10092042476, "lat": 39.1670549, "lon": 22.8891519}, {"type": "node", "id": 10092042477, "lat": 39.1669402, "lon": 22.889053}, {"type": "node", "id": 10092042478, "lat": 39.167002, "lon": 22.8889339}, {"type": "node", "id": 10092042479, "lat": 39.1670387, "lon": 22.8891378}, {"type": "node", "id": 10092042480, "lat": 39.1669914, "lon": 22.8892408}, {"type": "node", "id": 10092042481, "lat": 39.1669145, "lon": 22.8891747}, {"type": "node", "id": 10092042482, "lat": 39.1669659, "lon": 22.8890753}, {"type": "node", "id": 10092042486, "lat": 39.1670069, "lon": 22.8891996}, {"type": "node", "id": 10092042487, "lat": 39.1669953, "lon": 22.8892216}, {"type": "node", "id": 10873336005, "lat": 38.8562052, "lon": 23.0420956, "tags": {"amenity": "cafe", "name:de": "20 Cafe Bar"}}, {"type": "node", "id": 11025363759, "lat": 39.1671811, "lon": 22.8888005}, {"type": "node", "id": 11025363760, "lat": 39.1671487, "lon": 22.8888534}, {"type": "node", "id": 11025363761, "lat": 39.1671826, "lon": 22.8888879}, {"type": "node", "id": 11025363762, "lat": 39.167215, "lon": 22.888835}, {"type": "node", "id": 11710830017, "lat": 38.776975, "lon": 22.773637, "tags": {"amenity": "cafe", "name": "\u039a\u03b1\u03c6\u03ad \u039b\u03ad\u03c4\u03c4\u03b1"}}, {"type": "node", "id": 11886058524, "lat": 38.8569018, "lon": 23.0517073, "tags": {"amenity": "restaurant", "cuisine": "greek", "name": "\u0391\u03c1\u03af\u03c3\u03c4\u03bf\u03c2 \u039f\u03b9\u03ba\u03bf\u03b3\u03b5\u03bd\u03b5\u03b9\u03b1\u03ba\u03ae \u03a4\u03b1\u03b2\u03ad\u03c1\u03bd\u03b1", "outdoor_seating": "yes", "phone": "+30 2226 301126", "website": "https://aristos.gr"}}, {"type": "node", "id": 11930081494, "lat": 39.0927677, "lon": 23.0695015, "tags": {"amenity": "cafe"}}, {"type": "node", "id": 11988916967, "lat": 39.1670975, "lon": 22.8888014}, {"type": "node", "id": 11988951062, "lat": 39.167099, "lon": 22.8888888}, {"type": "node", "id": 11988951098, "lat": 39.1671314, "lon": 22.8888359}, {"type": "node", "id": 11988951110, "lat": 39.1670651, "lon": 22.8888543}, {"type": "node", "id": 11988951116, "lat": 39.1674393, "lon": 22.8887827, "tags": {"amenity": "restaurant", "cuisine": "greek"}}, {"type": "node", "id": 12734533198, "lat": 38.7767082, "lon": 22.7753089, "tags": {"amenity": "cafe", "name": "Floga"}}, {"type": "node", "id": 12734559473, "lat": 38.7765596, "lon": 22.7770754, "tags": {"amenity": "cafe", "name": "Bekas"}}, {"type": "node", "id": 12734564998, "lat": 38.7777756, "lon": 22.7711452, "tags": {"amenity": "restaurant", "name": "Camino"}}, {"type": "node", "id": 12734570670, "lat": 38.7765269, "lon": 22.7779058, "tags": {"amenity": "restaurant", "name": "\u03a4\u03af\u03bb\u03bf\u03c2"}}, {"type": "node", "id": 12734571855, "lat": 38.7765236, "lon": 22.7783016, "tags": {"amenity": "cafe", "int_name": "Flisvos", "name": "\u03a6\u03bb\u03bf\u03af\u03c3\u03b2\u03bf\u03c2"}}, {"type": "node", "id": 12734577223, "lat": 38.7772664, "lon": 22.7726764, "tags": {"amenity": "restaurant", "name": "\u0394\u03b9\u03cc\u03bd\u03c5\u03c3\u03bf\u03c2"}}, {"type": "node", "id": 12734585361, "lat": 38.7765987, "lon": 22.7766116, "tags": {"amenity": "cafe", "name": "\u0397\u03bc\u03af\u03c9\u03c1\u03bf"}}, {"type": "node", "id": 12734585521, "lat": 38.7765547, "lon": 22.7775702, "tags": {"amenity": "restaurant", "name": "\u0391\u03bb\u03c4\u03b9\u03ac\u03bd\u03b1"}}, {"type": "node", "id": 12734585829, "lat": 38.7766153, "lon": 22.7763318, "tags": {"amenity": "restaurant", "cuisine": "grill", "name": "\u039f \u039a\u03b1\u03ba\u03cc\u03c2 \u03bf \u039b\u03cd\u03ba\u03bf\u03c2"}}, {"type": "node", "id": 12734586020, "lat": 38.7767157, "lon": 22.7752096, "tags": {"amenity": "cafe", "name": "Barossa"}}, {"type": "node", "id": 12734592189, "lat": 38.7766059, "lon": 22.7790566, "tags": {"amenity": "restaurant", "name": "\u039c\u03bf\u03c5\u03c1\u03b9\u03ad\u03c2"}}, {"type": "node", "id": 12734597026, "lat": 38.7767922, "lon": 22.7747275, "tags": {"amenity": "restaurant", "cuisine": "pizza", "name": "A Bona"}}, {"type": "node", "id": 12734613885, "lat": 38.7774062, "lon": 22.7722659, "tags": {"amenity": "restaurant", "name": "\u039f \u0393\u03b9\u03ce\u03c1\u03b3\u03bf\u03c2"}}, {"type": "node", "id": 12734615099, "lat": 38.7766273, "lon": 22.7761988, "tags": {"amenity": "cafe", "name": "\u0391\u03c3\u03c4\u03ad\u03c1\u03b9\u03b1"}}, {"type": "node", "id": 12856042178, "lat": 38.9400047, "lon": 23.1574818, "tags": {"amenity": "restaurant", "name": "\u03a4\u03b1\u03c6\u03c1\u03b1\u03bb\u03b7\u03c2", "outdoor_seating": "yes"}}, {"type": "node", "id": 12857074984, "lat": 38.9515846, "lon": 23.1494617, "tags": {"amenity": "cafe"}}, {"type": "node", "id": 12857245661, "lat": 38.9539398, "lon": 23.1510478, "tags": {"amenity": "cafe", "outdoor_seating": "yes"}}, {"type": "node", "id": 12857245670, "lat": 38.9544845, "lon": 23.1537517, "tags": {"amenity": "cafe", "bar": "no", "name": "Shaya", "outdoor_seating": "yes"}}, {"type": "node", "id": 12857245685, "lat": 38.9527033, "lon": 23.1519217, "tags": {"amenity": "cafe", "name": "\u039a\u03bf\u03c5\u03ba\u03bf\u03c2", "outdoor_seating": "yes"}}, {"type": "node", "id": 12857245688, "lat": 38.9534762, "lon": 23.150577, "tags": {"amenity": "cafe", "name": "Malm\u00f6", "outdoor_seating": "yes"}}, {"type": "node", "id": 12857245689, "lat": 38.9556233, "lon": 23.1495751, "tags": {"amenity": "cafe", "outdoor_seating": "yes"}}, {"type": "node", "id": 12857528166, "lat": 38.9347245, "lon": 23.0351844, "tags": {"amenity": "cafe", "outdoor_seating": "yes"}}, {"type": "node", "id": 12857528169, "lat": 38.9337755, "lon": 23.0354705, "tags": {"amenity": "cafe", "outdoor_seating": "yes"}}, {"type": "node", "id": 12857528177, "lat": 38.9359118, "lon": 23.0347753, "tags": {"amenity": "cafe", "outdoor_seating": "yes"}}, {"type": "node", "id": 12857898082, "lat": 38.9526536, "lon": 22.969135, "tags": {"amenity": "cafe", "outdoor_seating": "yes"}}, {"type": "node", "id": 12860337814, "lat": 38.947681, "lon": 22.880561, "tags": {"amenity": "cafe", "outdoor_seating": "yes"}}, {"type": "node", "id": 12860337817, "lat": 38.8817227, "lon": 22.7764459, "tags": {"amenity": "cafe", "internet_access": "wlan", "name": "\u039c\u03b1\u03c1\u03af\u03b1", "outdoor_seating": "yes", "phone": "2238301400"}}, {"type": "node", "id": 12860630964, "lat": 38.8913704, "lon": 22.7240156, "tags": {"amenity": "cafe", "name": "\u0391\u03c6\u03b9\u03c1\u03b9", "outdoor_seating": "yes"}}, {"type": "node", "id": 12860630966, "lat": 38.8885925, "lon": 22.7061953, "tags": {"amenity": "cafe", "name": "\u03a4\u03bf \u039a\u03b1\u03c6\u03ad \u03c4\u03b7\u03c2 \u039c\u03b1\u03c1\u03af\u03b1\u03c2", "outdoor_seating": "yes"}}, {"type": "node", "id": 12860630987, "lat": 38.8915536, "lon": 22.724751, "tags": {"amenity": "cafe", "outdoor_seating": "yes"}}, {"type": "node", "id": 12860630991, "lat": 38.8826206, "lon": 22.7756339, "tags": {"amenity": "restaurant", "name": "\u039f \u039d\u03af\u03ba\u03bf\u03c2 \u03b7 \u0392\u03b5\u03c1\u03ac\u03bd\u03b5\u03b1", "outdoor_seating": "yes"}}, {"type": "node", "id": 12873368768, "lat": 38.8887783, "lon": 22.707808, "tags": {"amenity": "cafe", "name": "\u03a4\u03bf \u039a\u03bf\u03bd\u1f70\u03ba\u03b9", "outdoor_seating": "yes"}}, {"type": "way", "id": 262843698, "nodes": [2684977510, 2684977511, 2684977512, 2684977513, 2684977510], "tags": {"amenity": "cafe", "brand": "Cafe Coffee Day", "brand:wikidata": "Q5017235", "building": "yes", "cuisine": "coffee_shop", "name": "Cafe Coffee Day", "takeaway": "yes"}}, {"type": "way", "id": 262843700, "nodes": [6712801359, 6712801357, 2684977515, 2684977516, 6712801359], "tags": {"amenity": "cafe", "building": "yes", "name": "Argyris Kyratzis"}}, {"type": "way", "id": 262843703, "nodes": [2686550327, 2686550323, 2684977518, 2686550324, 2686550325, 2686550327], "tags": {"amenity": "cafe", "building": "yes"}}, {"type": "way", "id": 262843706, "nodes": [6712801350, 2684977521, 2684977522, 6712801348, 6712801350], "tags": {"amenity": "cafe", "building": "yes"}}, {"type": "way", "id": 262843709, "nodes": [2684977524, 2684977525, 2684977526, 2684977527, 2684977524], "tags": {"amenity": "cafe", "building": "yes"}}, {"type": "way", "id": 262843712, "nodes": [6712801352, 2684977528, 2684977529, 6712801353, 6712801352], "tags": {"amenity": "restaurant", "building": "yes", "cuisine": "pizza"}}, {"type": "way", "id": 262843714, "nodes": [6712801349, 2684977522, 2684977531, 2684977532, 6712801351, 6712801349], "tags": {"amenity": "cafe", "building": "yes"}}, {"type": "way", "id": 262843717, "nodes": [2686550342, 2684977535, 2684977536, 2686550340, 2686550342], "tags": {"amenity": "cafe", "building": "yes"}}, {"type": "way", "id": 262843720, "nodes": [2686550339, 2686550338, 2684977540, 2684977541, 2686550339], "tags": {"amenity": "cafe", "building": "yes"}}, {"type": "way", "id": 262843900, "nodes": [2686550339, 2686550341, 2684979527, 2684977541, 2686550339], "tags": {"amenity": "cafe", "building": "yes"}}, {"type": "way", "id": 262910222, "nodes": [2685576397, 2685576398, 2685576399, 2685576400, 2685576397], "tags": {"amenity": "cafe", "building": "yes", "cuisine": "fish_and_chips", "name": "Cafeteria"}}, {"type": "way", "id": 262911336, "nodes": [6712801344, 2685586385, 2685586386, 2175980922, 6712801345, 6712801344], "tags": {"amenity": "restaurant", "building": "yes"}}, {"type": "way", "id": 267520560, "nodes": [2729649841, 2729649844, 2729649838, 2729649830, 2729649841], "tags": {"amenity": "restaurant", "building": "yes", "cuisine": "greek", "name": "\u0391\u03c7\u03b9\u03bd\u03cc\u03c2"}}, {"type": "way", "id": 466248518, "nodes": [2954261917, 1854602692, 2954261916, 64821869, 2954261915, 2954261917], "tags": {"amenity": "restaurant", "outdoor_seating": "yes"}}, {"type": "way", "id": 498020102, "nodes": [4895034797, 4895034798, 4895034799, 4895034800, 4895034797], "tags": {"amenity": "restaurant", "building": "yes"}}, {"type": "way", "id": 516912450, "nodes": [5045462845, 5045462844, 5045462843, 5045462842, 5045462845], "tags": {"amenity": "restaurant", "building": "yes", "outdoor_seating": "yes"}}, {"type": "way", "id": 516912457, "nodes": [5045462908, 5045462907, 5045462906, 5045462905, 5045462908], "tags": {"amenity": "restaurant", "building": "yes", "outdoor_seating": "yes"}}, {"type": "way", "id": 516912466, "nodes": [5045462947, 5045462950, 5045462949, 5045462948, 5045462945, 5045462946, 5045462947], "tags": {"amenity": "restaurant", "building": "yes", "outdoor_seating": "yes"}}, {"type": "way", "id": 516912469, "nodes": [5045462962, 5045462961, 5045462960, 5045462959, 5045462962], "tags": {"amenity": "cafe", "building": "yes", "outdoor_seating": "yes"}}, {"type": "way", "id": 516912470, "nodes": [5045462966, 5045462965, 5045462964, 5045462963, 5045462966], "tags": {"amenity": "restaurant", "building": "yes", "outdoor_seating": "yes"}}, {"type": "way", "id": 516912472, "nodes": [5045462976, 5045462972, 5045462971, 5045462975, 5045462974, 5045462973, 5045462976], "tags": {"amenity": "restaurant", "building": "yes", "outdoor_seating": "yes"}}, {"type": "way", "id": 516912473, "nodes": [5045462980, 5045462977, 5045462978, 5045462979, 5045462980], "tags": {"amenity": "restaurant", "building": "yes", "outdoor_seating": "yes"}}, {"type": "way", "id": 516912478, "nodes": [5045463002, 5045462999, 5045463000, 5045463001, 5045463002], "tags": {"amenity": "restaurant", "building": "yes", "cuisine": "greek", "name": "Costa", "outdoor_seating": "yes"}}, {"type": "way", "id": 517263817, "nodes": [5048029186, 5048029183, 5048029184, 5048029185, 5048029186], "tags": {"amenity": "restaurant", "building": "yes", "outdoor_seating": "yes"}}, {"type": "way", "id": 517263818, "nodes": [5048029190, 5048029187, 5048029188, 5048029189, 5048029190], "tags": {"amenity": "restaurant", "building": "yes", "outdoor_seating": "yes"}}, {"type": "way", "id": 520791422, "nodes": [5075322500, 5075322499, 5075322498, 5075322497, 5075322500], "tags": {"amenity": "restaurant", "building": "yes", "outdoor_seating": "yes"}}, {"type": "way", "id": 520791428, "nodes": [5075322526, 5075322523, 5075322524, 5075322525, 5075322526], "tags": {"amenity": "restaurant", "building": "yes", "outdoor_seating": "yes"}}, {"type": "way", "id": 1039866937, "nodes": [9574963206, 9574963207, 9574963208, 9574963209, 9574963206], "tags": {"amenity": "restaurant", "building": "yes"}}, {"type": "way", "id": 1039866938, "nodes": [9574963210, 9574963211, 9574963212, 9574963213, 9574963214, 9574963215, 9574963210], "tags": {"amenity": "restaurant", "building": "yes", "name": "\u0393\u03ba\u03bb\u03b1\u03bd\u03c4\u03b6\u03bf\u03c5\u03bd\u03b7\u03c2", "outdoor_seating": "yes"}}, {"type": "way", "id": 1086456651, "nodes": [9954999436, 9954999437, 9954999438, 9954999439, 9954999436], "tags": {"amenity": "restaurant", "building": "yes", "cuisine": "greek", "source": "bing"}}, {"type": "way", "id": 1102862067, "nodes": [10092042475, 10092042476, 10092042479, 10092042482, 10092042477, 10092042478, 10092042475], "tags": {"amenity": "restaurant", "building": "yes", "cuisine": "greek;seafood"}}, {"type": "way", "id": 1102862068, "nodes": [10092042479, 10092042486, 10092042487, 10092042480, 10092042481, 10092042482, 10092042479], "tags": {"amenity": "restaurant", "building": "yes", "cuisine": "greek;seafood"}}, {"type": "way", "id": 1187262927, "nodes": [11025363759, 11025363760, 11025363761, 11025363762, 11025363759], "tags": {"amenity": "restaurant", "building": "yes", "cuisine": "crepe", "source": "microsoft/BuildingFootprints"}}, {"type": "way", "id": 1293278854, "nodes": [11988916967, 11988951110, 11988951062, 11988951098, 11988916967], "tags": {"amenity": "cafe", "building": "yes", "source": "microsoft/BuildingFootprints"}}]}