{"version": 0.6, "generator": "Overpass API 0.7.62.7 375dc00a", "osm3s": {"timestamp_osm_base": "2025-06-14T13:11:54Z", "copyright": "The data included in this document is from www.openstreetmap.org. The data is made available under ODbL."}, "elements": [{"type": "node", "id": 291549092, "lat": 39.5275744, "lon": 2.4842588, "tags": {"amenity": "restaurant", "name": "sa Masia"}}, {"type": "node", "id": 291557771, "lat": 39.5141667, "lon": 2.481416, "tags": {"addr:city": "Santa Ponsa", "addr:housenumber": "92", "addr:postcode": "07180", "addr:street": "Avinguda Rei Jaume I", "amenity": "restaurant", "capacity": "45", "cuisine": "regional", "name": "Miguel", "source": "local_knowledge", "website": "http://www.restaurantemiguel-santaponsa.com/"}}, {"type": "node", "id": 314660514, "lat": 39.5320268, "lon": 2.5696853, "tags": {"amenity": "restaurant", "cuisine": "italian", "name": "La Concha"}}, {"type": "node", "id": 314660560, "lat": 39.5317636, "lon": 2.5680002, "tags": {"amenity": "cafe", "name": "Cappuccino"}}, {"type": "node", "id": 415291886, "lat": 39.5387867, "lon": 2.4512105, "tags": {"amenity": "restaurant", "cuisine": "chinese", "name": "Nuevo Siglo"}}, {"type": "node", "id": 415291898, "lat": 39.538469, "lon": 2.4525383, "tags": {"amenity": "restaurant", "cuisine": "chinese", "name": "Nuevo Mundo"}}, {"type": "node", "id": 415291899, "lat": 39.5329997, "lon": 2.4592978, "tags": {"amenity": "restaurant", "name": "Sotavento", "opening_hours": "9:00-23:00", "operator": "HAPIMAG", "wheelchair": "yes"}}, {"type": "node", "id": 430938063, "lat": 39.5357062, "lon": 2.4461378, "tags": {"addr:city": "Peguera", "addr:housenumber": "9", "addr:postcode": "07160", "addr:street": "Carrer de l'Espiga", "amenity": "restaurant", "cuisine": "regional", "name": "La Gritta", "phone": "+34 971 68 60 22", "wheelchair": "no"}}, {"type": "node", "id": 430938064, "lat": 39.5350931, "lon": 2.4459682, "tags": {"amenity": "restaurant", "cuisine": "regional", "name": "La Gran Tortuga", "opening_hours": "We-Mo 12:00-22:00", "toilets:wheelchair": "no", "wheelchair": "no"}}, {"type": "node", "id": 561321960, "lat": 39.5279137, "lon": 2.5412655, "tags": {"amenity": "restaurant", "name": "El Cruce"}}, {"type": "node", "id": 566104597, "lat": 39.5234495, "lon": 2.53392, "tags": {"amenity": "cafe", "name": "Bolero", "name:ca": "Bolero"}}, {"type": "node", "id": 566104603, "lat": 39.5253037, "lon": 2.5369081, "tags": {"amenity": "cafe", "name": "Marbella"}}, {"type": "node", "id": 566104605, "lat": 39.5253874, "lon": 2.5370463, "tags": {"amenity": "cafe", "name": "la Cartuja"}}, {"type": "node", "id": 566104611, "lat": 39.5240496, "lon": 2.5390025, "tags": {"amenity": "restaurant", "name": "La Cucaracha"}}, {"type": "node", "id": 566104614, "lat": 39.5245387, "lon": 2.5395719, "tags": {"amenity": "restaurant", "name": "No Stress"}}, {"type": "node", "id": 566104622, "lat": 39.5262801, "lon": 2.5385941, "tags": {"addr:housenumber": "14", "addr:postcode": "07181", "addr:street": "Avinguda de la Platja", "amenity": "cafe", "cuisine": "spanish", "name": "Cayuco", "name:es": "Bar Cayuco", "opening_hours": "Mo-Su 06:00-00:00", "phone": "+34 971 68 25 18"}}, {"type": "node", "id": 566104633, "lat": 39.5261215, "lon": 2.543703, "tags": {"amenity": "cafe", "name": "Penny Lane"}}, {"type": "node", "id": 566104636, "lat": 39.5259886, "lon": 2.5438652, "tags": {"amenity": "cafe", "name": "Olivares"}}, {"type": "node", "id": 598923646, "lat": 39.5370049, "lon": 2.4223528, "tags": {"amenity": "restaurant", "cuisine": "fish", "name": "S'Illeta", "outdoor_seating": "yes", "website": "https://illeta.com/"}}, {"type": "node", "id": 665842268, "lat": 39.5119804, "lon": 2.4676081, "tags": {"addr:city": "Santa Pon\u00e7a", "addr:postcode": "07180", "amenity": "restaurant", "cuisine": "regional", "name": "Club N\u00e0utic", "name:ca": "Club N\u00e0utic"}}, {"type": "node", "id": 666950720, "lat": 39.5376498, "lon": 2.4238646}, {"type": "node", "id": 666950721, "lat": 39.5376868, "lon": 2.4237304}, {"type": "node", "id": 666950724, "lat": 39.5378234, "lon": 2.4238006}, {"type": "node", "id": 666950729, "lat": 39.5377025, "lon": 2.4239355}, {"type": "node", "id": 666950730, "lat": 39.5378012, "lon": 2.4239545}, {"type": "node", "id": 667342340, "lat": 39.5352531, "lon": 2.4546941}, {"type": "node", "id": 667342341, "lat": 39.5353131, "lon": 2.4546459}, {"type": "node", "id": 667342342, "lat": 39.5353936, "lon": 2.4548148}, {"type": "node", "id": 667376472, "lat": 39.5318062, "lon": 2.4594615}, {"type": "node", "id": 667376473, "lat": 39.5317023, "lon": 2.4595344}, {"type": "node", "id": 667376474, "lat": 39.5317556, "lon": 2.4594633}, {"type": "node", "id": 667376479, "lat": 39.531899, "lon": 2.4595736}, {"type": "node", "id": 667376480, "lat": 39.5318137, "lon": 2.4596792}, {"type": "node", "id": 850750329, "lat": 39.5191773, "lon": 2.4812841, "tags": {"amenity": "restaurant", "name": "Mrs Murphy's Kitchen", "opening_hours": "09:30-23:30"}}, {"type": "node", "id": 850750330, "lat": 39.5187056, "lon": 2.4806969, "tags": {"addr:city": "Santa Pon\u00e7a", "addr:postcode": "07180", "amenity": "restaurant", "cuisine": "pizza", "name": "Jackie's"}}, {"type": "node", "id": 850750333, "lat": 39.5199217, "lon": 2.4827771, "tags": {"amenity": "restaurant", "name": "Boston O'Brady's"}}, {"type": "node", "id": 941399880, "lat": 39.5391139, "lon": 2.4202441, "tags": {"amenity": "cafe", "name": "Camp de Mar", "name:ca": "Camp de Mar"}}, {"type": "node", "id": 941399883, "lat": 39.5393558, "lon": 2.4197819, "tags": {"amenity": "restaurant", "name": "Gran Sol", "name:ca": "Gran Sol"}}, {"type": "node", "id": 941399889, "lat": 39.5371718, "lon": 2.4240826, "tags": {"amenity": "restaurant", "name": "Beach Club"}}, {"type": "node", "id": 941399892, "lat": 39.5372772, "lon": 2.4242013, "tags": {"amenity": "restaurant", "name": "Urbano Mar"}}, {"type": "node", "id": 941550388, "lat": 39.5392006, "lon": 2.4251861}, {"type": "node", "id": 941550390, "lat": 39.5388904, "lon": 2.4253252}, {"type": "node", "id": 941550398, "lat": 39.5388773, "lon": 2.4251463}, {"type": "node", "id": 941550405, "lat": 39.5392414, "lon": 2.4254929}, {"type": "node", "id": 941550408, "lat": 39.5388622, "lon": 2.4252991}, {"type": "node", "id": 941550425, "lat": 39.5391297, "lon": 2.4250769}, {"type": "node", "id": 941550431, "lat": 39.5389122, "lon": 2.4254888}, {"type": "node", "id": 941550438, "lat": 39.5390446, "lon": 2.4255466}, {"type": "node", "id": 941550459, "lat": 39.5388478, "lon": 2.4252466}, {"type": "node", "id": 941550467, "lat": 39.5391466, "lon": 2.4252}, {"type": "node", "id": 941550478, "lat": 39.5390329, "lon": 2.4254585}, {"type": "node", "id": 941550481, "lat": 39.5388534, "lon": 2.4251852}, {"type": "node", "id": 1170200465, "lat": 39.6193911, "lon": 2.4937152, "tags": {"amenity": "cafe", "cuisine": "grill"}}, {"type": "node", "id": 1247154542, "lat": 39.5322343, "lon": 2.5727484, "tags": {"addr:city": "Portals Nous", "addr:street": "Passatge a la Mar", "amenity": "restaurant", "capacity": "50", "cuisine": "german_international", "name": "Lila", "smoking": "outside"}}, {"type": "node", "id": 1247154549, "lat": 39.5327798, "lon": 2.5741143, "tags": {"amenity": "restaurant"}}, {"type": "node", "id": 1302053477, "lat": 39.5175635, "lon": 2.4890652, "tags": {"amenity": "restaurant", "cuisine": "japanese", "fixme": "still existing? Did not see it, but only the two other shops which were not yet mapped", "name": "Shiki"}}, {"type": "node", "id": 1302053483, "lat": 39.5166429, "lon": 2.4893294, "tags": {"amenity": "restaurant", "cuisine": "spanish", "name": "Langostinos"}}, {"type": "node", "id": 1304335236, "lat": 39.6543898, "lon": 2.4836814, "tags": {"amenity": "restaurant", "cuisine": "pizza", "name": "Giardini"}}, {"type": "node", "id": 1304341014, "lat": 39.6585509, "lon": 2.4707318, "tags": {"amenity": "cafe", "name": "sa Punteta"}}, {"type": "node", "id": 1319392686, "lat": 39.5366173, "lon": 2.4594654, "tags": {"addr:housenumber": "1", "addr:postcode": "07160", "addr:street": "Carrer de Pau Casals", "amenity": "restaurant", "cuisine": "steak_house", "int_name": "La Hacienda", "name": "La Hacienda"}}, {"type": "node", "id": 1336943071, "lat": 39.4967674, "lon": 2.4749167, "tags": {"addr:housenumber": "5", "addr:street": "Carrer de Chopin", "amenity": "restaurant", "cuisine": "austrian", "internet_access": "wlan", "name": "Las Adelfas", "name:de": "Der \u00d6sterreicher", "opening_hours": "We-Mo 17:00-23:00", "phone": "+34 871774151", "website": "https://www.adelfas-restaurant.com/en/"}}, {"type": "node", "id": 1481273136, "lat": 39.5357328, "lon": 2.4550281, "tags": {"amenity": "restaurant", "information": "board", "name": "Playa5"}}, {"type": "node", "id": 1587270880, "lat": 39.5070454, "lon": 2.5337238, "tags": {"amenity": "restaurant", "brand": "Pizza Hut", "brand:wikidata": "Q191615", "brand:wikipedia": "en:Pizza Hut", "cuisine": "pizza", "name": "Pizza Hut"}}, {"type": "node", "id": 1587270899, "lat": 39.5063066, "lon": 2.5331525, "tags": {"amenity": "restaurant", "cuisine": "spanish", "name": "Pardo's"}}, {"type": "node", "id": 1587352374, "lat": 39.5117015, "lon": 2.5396381, "tags": {"amenity": "cafe", "name": "Nyoka"}}, {"type": "node", "id": 1587352399, "lat": 39.5104019, "lon": 2.5311462, "tags": {"amenity": "restaurant", "cuisine": "spanish", "name": "El Chovale\u00f1o"}}, {"type": "node", "id": 1587352420, "lat": 39.5063976, "lon": 2.5332893, "tags": {"amenity": "restaurant", "cuisine": "mexican", "name": "El Maquito"}}, {"type": "node", "id": 1587352438, "lat": 39.514826, "lon": 2.5368244, "tags": {"amenity": "restaurant", "cuisine": "international", "name": "Mamma Muu"}}, {"type": "node", "id": 1587352439, "lat": 39.5114025, "lon": 2.5416161, "tags": {"amenity": "restaurant", "cuisine": "spanish", "name": "Jakiton"}}, {"type": "node", "id": 1587352464, "lat": 39.5029073, "lon": 2.5304462, "tags": {"amenity": "restaurant", "cuisine": "spanish", "name": "Econ\u00f2mic"}}, {"type": "node", "id": 1587352558, "lat": 39.5124816, "lon": 2.5369076, "tags": {"amenity": "restaurant", "cuisine": "pizza", "name": "Di\u00e1bolo"}}, {"type": "node", "id": 1587352619, "lat": 39.5023869, "lon": 2.5290031, "tags": {"amenity": "restaurant", "name": "Garc\u00eda's"}}, {"type": "node", "id": 1588143846, "lat": 39.5101953, "lon": 2.5322742, "tags": {"amenity": "cafe", "name": "Cupido"}}, {"type": "node", "id": 1596821367, "lat": 39.5354191, "lon": 2.4571334, "tags": {"amenity": "restaurant", "cuisine": "spanish", "name": "Paradise Beach"}}, {"type": "node", "id": 1596821371, "lat": 39.5383535, "lon": 2.4497962, "tags": {"amenity": "restaurant", "name": "la Campana", "name:ca": "la Campana"}}, {"type": "node", "id": 1640380810, "lat": 39.5145594, "lon": 2.4832308, "tags": {"addr:city": "Santa Pon\u00e7a", "addr:housenumber": "1", "addr:postcode": "07180", "addr:street": "Gran Via Puig de Massanella", "amenity": "restaurant", "name": "K\u00f6nig von Mallorca", "toilets:wheelchair": "no", "wheelchair": "yes"}}, {"type": "node", "id": 1838130926, "lat": 39.532974, "lon": 2.4595695, "tags": {"amenity": "restaurant", "name": "Tentaci\u00f3n", "opening_hours": "17:00-23:00", "operator": "HAPIMAG", "wheelchair": "limited"}}, {"type": "node", "id": 1907254153, "lat": 39.5108345, "lon": 2.5383389, "tags": {"amenity": "restaurant", "cuisine": "pizza", "name": "Fantastic"}}, {"type": "node", "id": 1936806600, "lat": 39.493084, "lon": 2.4777952}, {"type": "node", "id": 1936806604, "lat": 39.4930058, "lon": 2.4780696}, {"type": "node", "id": 1936806638, "lat": 39.4929482, "lon": 2.4777302}, {"type": "node", "id": 1936806693, "lat": 39.49287, "lon": 2.4780046}, {"type": "node", "id": 1998409405, "lat": 39.688188, "lon": 2.5143556, "tags": {"amenity": "restaurant", "name": "Can Paco", "name:ca": "Can Paco"}}, {"type": "node", "id": 2014137891, "lat": 39.5747994, "lon": 2.4199533, "tags": {"amenity": "cafe", "name": "Balear"}}, {"type": "node", "id": 2014138038, "lat": 39.5750723, "lon": 2.4198246, "tags": {"addr:housenumber": "16c", "addr:street": "pla\u00e7a d'Espanya", "amenity": "restaurant", "cuisine": "italian_pizza", "internet_access": "wlan", "name": "La Plaza", "opening_hours": "Tu-Su 13:00-15:00,19:00-23:00"}}, {"type": "node", "id": 2014138088, "lat": 39.5751219, "lon": 2.4204254, "tags": {"amenity": "cafe", "name": "Caf\u00e8 Nou", "name:ca": "Caf\u00e8 Nou"}}, {"type": "node", "id": 2147558646, "lat": 39.5229494, "lon": 2.4737355}, {"type": "node", "id": 2147558648, "lat": 39.5230346, "lon": 2.4737987}, {"type": "node", "id": 2147558650, "lat": 39.5230548, "lon": 2.4734973}, {"type": "node", "id": 2147558652, "lat": 39.5231399, "lon": 2.4735605}, {"type": "node", "id": 2190039604, "lat": 39.5257389, "lon": 2.4772257}, {"type": "node", "id": 2190039605, "lat": 39.5257492, "lon": 2.4774712}, {"type": "node", "id": 2190039633, "lat": 39.5259248, "lon": 2.4772126}, {"type": "node", "id": 2190039635, "lat": 39.5259352, "lon": 2.4774581}, {"type": "node", "id": 2195069949, "lat": 39.5311313, "lon": 2.5100094}, {"type": "node", "id": 2195069950, "lat": 39.5311461, "lon": 2.5100357}, {"type": "node", "id": 2195069954, "lat": 39.531272, "lon": 2.5102591}, {"type": "node", "id": 2195069956, "lat": 39.5313152, "lon": 2.5098299}, {"type": "node", "id": 2195069958, "lat": 39.5313466, "lon": 2.5101623}, {"type": "node", "id": 2195069959, "lat": 39.5313607, "lon": 2.5100824}, {"type": "node", "id": 2195069961, "lat": 39.5313801, "lon": 2.5101188}, {"type": "node", "id": 2195069965, "lat": 39.5314212, "lon": 2.5100319}, {"type": "node", "id": 2216630449, "lat": 39.5171121, "lon": 2.4845088, "tags": {"addr:city": "Santa Pon\u00e7a", "addr:housenumber": "8", "addr:postcode": "07180", "addr:street": "Gran Via Puig des Teix", "amenity": "restaurant", "cuisine": "fish", "name": "Reno", "source": "local_knowledge", "website": "https://www.restaurantereno.com/"}}, {"type": "node", "id": 2250930805, "lat": 39.5371545, "lon": 2.4450141, "tags": {"amenity": "restaurant", "name": "Wie bei Muttern", "wheelchair": "limited"}}, {"type": "node", "id": 2250999920, "lat": 39.5307696, "lon": 2.4377148, "tags": {"amenity": "restaurant", "name": "es Viver", "name:ca": "es Viver"}}, {"type": "node", "id": 2262593841, "lat": 39.5373267, "lon": 2.4488585, "tags": {"amenity": "restaurant", "cuisine": "regional", "name": "Rendezvous"}}, {"type": "node", "id": 2262717592, "lat": 39.5361296, "lon": 2.4554696, "tags": {"amenity": "restaurant", "cuisine": "regional", "name": "Ponent", "name:ca": "Ponent"}}, {"type": "node", "id": 2262747781, "lat": 39.535352, "lon": 2.4547816}, {"type": "node", "id": 2262747782, "lat": 39.535375, "lon": 2.4548297}, {"type": "node", "id": 2264177811, "lat": 39.5354795, "lon": 2.4537767, "tags": {"amenity": "restaurant", "name": "Domin", "opening_hours": "We-Mo 10:00-24:00; Tu 10:00-23:00"}}, {"type": "node", "id": 2270519456, "lat": 39.6528395, "lon": 2.4812534}, {"type": "node", "id": 2270519462, "lat": 39.652776, "lon": 2.4812146}, {"type": "node", "id": 2270519463, "lat": 39.6528006, "lon": 2.4811744}, {"type": "node", "id": 2270578590, "lat": 39.5781752, "lon": 2.4284637}, {"type": "node", "id": 2270578594, "lat": 39.5782583, "lon": 2.4286818}, {"type": "node", "id": 2270578596, "lat": 39.5782854, "lon": 2.4286564}, {"type": "node", "id": 2270578600, "lat": 39.5782957, "lon": 2.4287497}, {"type": "node", "id": 2270578602, "lat": 39.5783191, "lon": 2.4287303}, {"type": "node", "id": 2270578606, "lat": 39.5783321, "lon": 2.428757}, {"type": "node", "id": 2270578612, "lat": 39.5784059, "lon": 2.4282564}, {"type": "node", "id": 2270578617, "lat": 39.5784097, "lon": 2.4286831}, {"type": "node", "id": 2270578618, "lat": 39.578419, "lon": 2.4287}, {"type": "node", "id": 2270578619, "lat": 39.5784638, "lon": 2.4282661}, {"type": "node", "id": 2270578621, "lat": 39.5785993, "lon": 2.4285073}, {"type": "node", "id": 2270578622, "lat": 39.5786227, "lon": 2.4284794}, {"type": "node", "id": 2270578623, "lat": 39.5786096, "lon": 2.4285219}, {"type": "node", "id": 2273378957, "lat": 39.5314306, "lon": 2.4376322, "tags": {"amenity": "cafe"}}, {"type": "node", "id": 2273378958, "lat": 39.5317612, "lon": 2.4374296, "tags": {"amenity": "cafe"}}, {"type": "node", "id": 2300098770, "lat": 39.5369274, "lon": 2.4543935, "tags": {"amenity": "restaurant", "cuisine": "international", "name": "Ambassador", "wheelchair": "no"}}, {"type": "node", "id": 2300098772, "lat": 39.5383693, "lon": 2.4482087, "tags": {"addr:city": "Peguera", "addr:housenumber": "6", "addr:postcode": "07160", "addr:street": "Carrer Eucaliptus", "amenity": "cafe", "cuisine": "regional", "internet_access": "wlan", "internet_access:fee": "no", "name": "Eucaliptus", "name:ca": "Eucaliptus"}}, {"type": "node", "id": 2319452952, "lat": 39.5169524, "lon": 2.4813086, "tags": {"amenity": "restaurant", "name": "Barracuda"}}, {"type": "node", "id": 2322816247, "lat": 39.5360437, "lon": 2.4560352, "tags": {"amenity": "cafe", "name": "Strandperle"}}, {"type": "node", "id": 2322816248, "lat": 39.5361161, "lon": 2.4558407, "tags": {"amenity": "cafe", "designation": "Eisdiele", "name": "Eiscafe Schwarzwald"}}, {"type": "node", "id": 2322816257, "lat": 39.5361037, "lon": 2.4559131, "tags": {"amenity": "cafe", "check_date": "2024-07-12", "name": "Schwarzwald"}}, {"type": "node", "id": 2322879574, "lat": 39.537784, "lon": 2.4502157, "tags": {"amenity": "cafe", "name": "Deutsche Metzgerei", "wheelchair": "no"}}, {"type": "node", "id": 2322879579, "lat": 39.5382084, "lon": 2.4499717, "tags": {"addr:city": "Peguera", "addr:housenumber": "4", "addr:postcode": "07160", "addr:street": "Carrer del Malgrat", "amenity": "restaurant", "name": "La Cubita"}}, {"type": "node", "id": 2322879580, "lat": 39.5378299, "lon": 2.4530471, "tags": {"amenity": "restaurant", "name": "La Fontana", "name:ca": "La Fontana", "wheelchair": "limited"}}, {"type": "node", "id": 2322879636, "lat": 39.5376559, "lon": 2.449784, "tags": {"amenity": "restaurant", "name": "Malgrats"}}, {"type": "node", "id": 2322879637, "lat": 39.53796, "lon": 2.4499149, "tags": {"addr:city": "Peguera", "addr:housenumber": "37", "addr:postcode": "07160", "addr:street": "Boulevard de Peguera", "amenity": "restaurant", "name": "Oasis", "name:ca": "Oasis"}}, {"type": "node", "id": 2339275400, "lat": 39.5320249, "lon": 2.5680557, "tags": {"amenity": "restaurant", "cuisine": "sushi", "name": "Tahini", "source": "survey"}}, {"type": "node", "id": 2401697288, "lat": 39.5373954, "lon": 2.4477929, "tags": {"addr:city": "Peguera", "addr:housenumber": "1", "addr:postcode": "07160", "addr:street": "Carrer Roser", "amenity": "restaurant", "cuisine": "spanish", "name": "Casa Enrique", "opening_hours": "Tu-Sa 12:30-22:30; Su 17:30-22:30"}}, {"type": "node", "id": 2401701522, "lat": 39.537571, "lon": 2.4487731, "tags": {"amenity": "restaurant", "cuisine": "regional", "name": "Hawaii"}}, {"type": "node", "id": 2423951439, "lat": 39.6227224, "lon": 2.5274348, "tags": {"amenity": "restaurant", "internet_access": "wlan", "name": "Can Blau", "name:ca": "Can Blau"}}, {"type": "node", "id": 2428873842, "lat": 39.5248372, "lon": 2.4744562, "tags": {"amenity": "cafe", "internet_access": "wlan", "internet_access:fee": "no", "name": "Casa Calma"}}, {"type": "node", "id": 2431243646, "lat": 39.5367021, "lon": 2.4575753, "tags": {"amenity": "restaurant", "name": "Casa Carolina"}}, {"type": "node", "id": 2431243647, "lat": 39.5353941, "lon": 2.4573709, "tags": {"amenity": "restaurant", "name": "La Vida"}}, {"type": "node", "id": 2441164528, "lat": 39.5240796, "lon": 2.4722938}, {"type": "node", "id": 2441164529, "lat": 39.5240886, "lon": 2.4721116}, {"type": "node", "id": 2441164532, "lat": 39.5241388, "lon": 2.4721158}, {"type": "node", "id": 2441164533, "lat": 39.5241416, "lon": 2.4720577}, {"type": "node", "id": 2441164540, "lat": 39.524247, "lon": 2.4723077}, {"type": "node", "id": 2441164541, "lat": 39.5242588, "lon": 2.4720674}, {"type": "node", "id": 2473411030, "lat": 39.5362572, "lon": 2.4551055, "tags": {"amenity": "cafe", "check_date": "2024-07-12", "cuisine": "italian", "designation": "Eisdiele", "name": "Venica"}}, {"type": "node", "id": 2473417485, "lat": 39.5365216, "lon": 2.4566176}, {"type": "node", "id": 2473417486, "lat": 39.5366115, "lon": 2.4566409}, {"type": "node", "id": 2473417487, "lat": 39.5365943, "lon": 2.4567522}, {"type": "node", "id": 2473417488, "lat": 39.5365044, "lon": 2.4567289}, {"type": "node", "id": 2473594801, "lat": 39.5357331, "lon": 2.455124}, {"type": "node", "id": 2473594804, "lat": 39.5359161, "lon": 2.4551228}, {"type": "node", "id": 2473594808, "lat": 39.5359157, "lon": 2.455027}, {"type": "node", "id": 2473599016, "lat": 39.536558, "lon": 2.4566755, "tags": {"addr:city": "Peguera", "addr:housenumber": "71", "addr:postcode": "07160", "addr:street": "Boulevard de Peguera", "amenity": "restaurant", "email": "info@nirador.com", "name": "Nirad'or - Nirador", "opening_hours": "Mo-Su 17:00-22:00", "phone": "+34648406352", "phone:mobile": "+34 648 40 63 52", "website": "https://nirador.com/index.php/de/menue", "wheelchair": "limited"}}, {"type": "node", "id": 2473601532, "lat": 39.5361236, "lon": 2.4557072, "tags": {"amenity": "restaurant"}}, {"type": "node", "id": 2473602215, "lat": 39.5359333, "lon": 2.4554282, "tags": {"addr:housenumber": "4", "addr:postcode": "07160", "addr:street": "Carrer de Sebelli", "amenity": "restaurant", "cuisine": "regional", "name": "Latino"}}, {"type": "node", "id": 2473608540, "lat": 39.5382376, "lon": 2.4513969, "tags": {"addr:city": "Peguera", "addr:housenumber": "6", "addr:postcode": "07160", "addr:street": "Carrer dels Pins", "amenity": "cafe", "cuisine": "spanish", "name": "La Blanca Paloma"}}, {"type": "node", "id": 2535126240, "lat": 39.5346703, "lon": 2.4669676}, {"type": "node", "id": 2541365766, "lat": 39.5374617, "lon": 2.4580839, "tags": {"addr:city": "Pequera", "addr:housename": "Feliciano's", "addr:housenumber": "21", "addr:postcode": "07160", "addr:street": "Carrer de les Gavines", "amenity": "restaurant", "cuisine": "italian", "name": "Feliciano's", "wheelchair": "yes"}}, {"type": "node", "id": 2541415974, "lat": 39.5382453, "lon": 2.4518391, "tags": {"addr:city": "Pequera", "addr:housename": "Restaurant Grill Los Poetas", "addr:housenumber": "3-4", "addr:postcode": "07160", "addr:street": "Calle Naranjos", "amenity": "restaurant", "cuisine": "regional", "name": "Los Poetas"}}, {"type": "node", "id": 2603416470, "lat": 39.537537, "lon": 2.4507144, "tags": {"addr:city": "Calvi\u00e1", "addr:country": "ES", "addr:housenumber": "54", "addr:postcode": "07160", "addr:street": "Boulevard de Peguera", "amenity": "restaurant", "email": "info@beachclub-paguera.es", "name": "BeachClub", "phone": "+34 971 68 51 12", "smoking:outside": "yes"}}, {"type": "node", "id": 2603416471, "lat": 39.5373283, "lon": 2.4521694, "tags": {"amenity": "restaurant", "name": "Beewi", "wheelchair": "yes"}}, {"type": "node", "id": 2620278674, "lat": 39.5347598, "lon": 2.4666986}, {"type": "node", "id": 2620278675, "lat": 39.5347907, "lon": 2.4668579}, {"type": "node", "id": 2766884351, "lat": 39.5363564, "lon": 2.4563777, "tags": {"amenity": "restaurant", "cuisine": "italian", "name": "San Marco"}}, {"type": "node", "id": 2767058227, "lat": 39.5190464, "lon": 2.4734072, "tags": {"amenity": "restaurant", "cuisine": "regional", "name": "Caesar's", "outdoor_seating": "yes", "smoking": "outside"}}, {"type": "node", "id": 2776979780, "lat": 39.5353105, "lon": 2.4548147}, {"type": "node", "id": 2777015733, "lat": 39.5186544, "lon": 2.4795544, "tags": {"amenity": "restaurant", "contact:email": "info@restaurantempatheia.com", "contact:phone": "+34 871 978 222", "name": "Empatheia", "source": "survey", "website": "http://restaurantempatheia.com/"}}, {"type": "node", "id": 2841134210, "lat": 39.5376331, "lon": 2.4490576, "tags": {"addr:city": "Paguera", "addr:street": "Bulevard de Peguera", "amenity": "restaurant", "capacity": "20", "name": "Bar La Ruta", "takeaway": "yes"}}, {"type": "node", "id": 2841134630, "lat": 39.5372332, "lon": 2.4482782, "tags": {"amenity": "restaurant", "name": "La Pampa", "wheelchair": "yes"}}, {"type": "node", "id": 2847512822, "lat": 39.5357651, "lon": 2.4589898, "tags": {"addr:housenumber": "90", "addr:postcode": "07160", "addr:street": "Avenida Peguera", "amenity": "restaurant", "cuisine": "spanish", "name": "La G\u00fcera"}}, {"type": "node", "id": 2854426514, "lat": 39.5355169, "lon": 2.4569304, "tags": {"amenity": "restaurant", "name": "Mar y Mar"}}, {"type": "node", "id": 2865919970, "lat": 39.5369556, "lon": 2.4549955, "tags": {"addr:city": "Peguera", "addr:housenumber": "1", "addr:postcode": "07160", "addr:street": "Carrer de les Gavines", "amenity": "restaurant", "cuisine": "thai", "name": "Horapa"}}, {"type": "node", "id": 2905732104, "lat": 39.5393002, "lon": 2.4179915}, {"type": "node", "id": 2905732105, "lat": 39.5393421, "lon": 2.4180893}, {"type": "node", "id": 2905732106, "lat": 39.5394101, "lon": 2.4179124}, {"type": "node", "id": 2905732107, "lat": 39.5394519, "lon": 2.4180102}, {"type": "node", "id": 2940185010, "lat": 39.6863604, "lon": 2.5126721}, {"type": "node", "id": 2940185011, "lat": 39.6865127, "lon": 2.5127726}, {"type": "node", "id": 2940185012, "lat": 39.686406, "lon": 2.5129291}, {"type": "node", "id": 2940185013, "lat": 39.6862861, "lon": 2.5127915}, {"type": "node", "id": 2959649915, "lat": 39.5367129, "lon": 2.4555567, "tags": {"amenity": "restaurant", "cuisine": "pizza", "name": "Gecko"}}, {"type": "node", "id": 3075420578, "lat": 39.5380041, "lon": 2.444415}, {"type": "node", "id": 3075420579, "lat": 39.537858, "lon": 2.4444941}, {"type": "node", "id": 3075420580, "lat": 39.5380584, "lon": 2.4444}, {"type": "node", "id": 3075420599, "lat": 39.5380055, "lon": 2.4445212}, {"type": "node", "id": 3075420600, "lat": 39.5380222, "lon": 2.4443735}, {"type": "node", "id": 3075420603, "lat": 39.5379786, "lon": 2.4443963}, {"type": "node", "id": 3077839871, "lat": 39.5421255, "lon": 2.452039}, {"type": "node", "id": 3077839944, "lat": 39.5393646, "lon": 2.4535545}, {"type": "node", "id": 3077839954, "lat": 39.5421387, "lon": 2.4521157}, {"type": "node", "id": 3077839990, "lat": 39.5420215, "lon": 2.4519994}, {"type": "node", "id": 3077840006, "lat": 39.5419743, "lon": 2.4521887}, {"type": "node", "id": 3077840028, "lat": 39.542146, "lon": 2.4520425}, {"type": "node", "id": 3077840118, "lat": 39.5421305, "lon": 2.4519884}, {"type": "node", "id": 3077840295, "lat": 39.5392541, "lon": 2.453451}, {"type": "node", "id": 3077840297, "lat": 39.5393088, "lon": 2.4533529}, {"type": "node", "id": 3077840302, "lat": 39.5394193, "lon": 2.4534564}, {"type": "node", "id": 3077840322, "lat": 39.5420244, "lon": 2.4519706}, {"type": "node", "id": 3077840381, "lat": 39.5420201, "lon": 2.4521964}, {"type": "node", "id": 3077840388, "lat": 39.5419937, "lon": 2.4519948}, {"type": "node", "id": 3077840408, "lat": 39.54203, "lon": 2.4520974}, {"type": "node", "id": 3084202534, "lat": 39.5392552, "lon": 2.4463836}, {"type": "node", "id": 3084202767, "lat": 39.5392138, "lon": 2.4463138}, {"type": "node", "id": 3084202805, "lat": 39.5393627, "lon": 2.4461448}, {"type": "node", "id": 3084202825, "lat": 39.539369, "lon": 2.4463219}, {"type": "node", "id": 3084203154, "lat": 39.5394248, "lon": 2.446236}, {"type": "node", "id": 3087134462, "lat": 39.5263312, "lon": 2.5460046, "tags": {"amenity": "restaurant", "cuisine": "italian", "name": "Extremadura"}}, {"type": "node", "id": 3172301682, "lat": 39.5105052, "lon": 2.5307532, "tags": {"amenity": "cafe", "name": "No problem"}}, {"type": "node", "id": 3214175542, "lat": 39.5079264, "lon": 2.5317026, "tags": {"amenity": "cafe", "name": "Alcatraz"}}, {"type": "node", "id": 3214175543, "lat": 39.5079538, "lon": 2.5315622, "tags": {"amenity": "restaurant", "name": "Europe"}}, {"type": "node", "id": 3214198982, "lat": 39.5080011, "lon": 2.531236, "tags": {"amenity": "restaurant", "name": "Moon"}}, {"type": "node", "id": 3368898902, "lat": 39.523753, "lon": 2.4734152}, {"type": "node", "id": 3368899801, "lat": 39.5239141, "lon": 2.4732731}, {"type": "node", "id": 3368900596, "lat": 39.5238476, "lon": 2.4732192}, {"type": "node", "id": 3368900694, "lat": 39.5238196, "lon": 2.4734692}, {"type": "node", "id": 3373787903, "lat": 39.53216, "lon": 2.559831}, {"type": "node", "id": 3373787904, "lat": 39.5321235, "lon": 2.5598038}, {"type": "node", "id": 3373787905, "lat": 39.5320945, "lon": 2.5598115}, {"type": "node", "id": 3373787906, "lat": 39.532067, "lon": 2.5597928}, {"type": "node", "id": 3373787907, "lat": 39.5320329, "lon": 2.5598076}, {"type": "node", "id": 3373787908, "lat": 39.5320251, "lon": 2.5598502}, {"type": "node", "id": 3373787909, "lat": 39.531991, "lon": 2.55987}, {"type": "node", "id": 3373787910, "lat": 39.5319841, "lon": 2.5599185}, {"type": "node", "id": 3373787911, "lat": 39.531948, "lon": 2.5599367}, {"type": "node", "id": 3373787912, "lat": 39.5319244, "lon": 2.5599061}, {"type": "node", "id": 3373787913, "lat": 39.5318828, "lon": 2.5599294}, {"type": "node", "id": 3373787914, "lat": 39.5318705, "lon": 2.5599746}, {"type": "node", "id": 3373787915, "lat": 39.5318446, "lon": 2.5599862}, {"type": "node", "id": 3373787916, "lat": 39.531839, "lon": 2.5600402}, {"type": "node", "id": 3373787917, "lat": 39.5318682, "lon": 2.5600722}, {"type": "node", "id": 3373787918, "lat": 39.5318929, "lon": 2.5600533}, {"type": "node", "id": 3373787919, "lat": 39.5319165, "lon": 2.5600824}, {"type": "node", "id": 3373787920, "lat": 39.5319154, "lon": 2.5601203}, {"type": "node", "id": 3373787921, "lat": 39.5319435, "lon": 2.5601611}, {"type": "node", "id": 3373787922, "lat": 39.5319896, "lon": 2.5601276}, {"type": "node", "id": 3373787923, "lat": 39.5319874, "lon": 2.5600999}, {"type": "node", "id": 3373787924, "lat": 39.5320155, "lon": 2.5600606}, {"type": "node", "id": 3373787925, "lat": 39.5320357, "lon": 2.5600649}, {"type": "node", "id": 3373787926, "lat": 39.5320736, "lon": 2.5600025}, {"type": "node", "id": 3373787927, "lat": 39.53208, "lon": 2.5599611}, {"type": "node", "id": 3373787928, "lat": 39.5321146, "lon": 2.5599505}, {"type": "node", "id": 3373787929, "lat": 39.5321221, "lon": 2.5599018}, {"type": "node", "id": 3373787930, "lat": 39.5321597, "lon": 2.559876}, {"type": "node", "id": 3465653921, "lat": 39.5279722, "lon": 2.5401186}, {"type": "node", "id": 3465653922, "lat": 39.5279021, "lon": 2.5401796}, {"type": "node", "id": 3465653923, "lat": 39.527825, "lon": 2.5400307}, {"type": "node", "id": 3465653924, "lat": 39.5278951, "lon": 2.5399697}, {"type": "node", "id": 3480338410, "lat": 39.5381384, "lon": 2.4475006, "tags": {"addr:city": "Peguera", "addr:postcode": "07160", "addr:street": "Carrer de la Mimosa", "amenity": "restaurant", "name": "Alt Hamburg"}}, {"type": "node", "id": 3480338411, "lat": 39.5380336, "lon": 2.4470977, "tags": {"addr:city": "Peguera", "addr:postcode": "07160", "addr:street": "Carrer de la Mimosa", "amenity": "restaurant", "name": "Alhambra", "name:ca": "Alhambra"}}, {"type": "node", "id": 3483092335, "lat": 39.5374477, "lon": 2.4467323, "tags": {"amenity": "cafe", "name": "Ma\u00f1anas"}}, {"type": "node", "id": 3484092989, "lat": 39.5375116, "lon": 2.4503093, "tags": {"amenity": "restaurant", "name": "Gaby"}}, {"type": "node", "id": 3489573543, "lat": 39.5380603, "lon": 2.4482135, "tags": {"addr:city": "Peguera", "addr:housenumber": "5", "addr:postcode": "07160", "addr:street": "Carrer Eucaliptus", "amenity": "restaurant", "capacity": "100", "name": "Lusia Music & Bar", "opening_hours": "Mo-Su 09:00-24:00", "outdoor_seating": "yes"}}, {"type": "node", "id": 3489573554, "lat": 39.538463, "lon": 2.4477713, "tags": {"addr:city": "Peguera", "addr:housenumber": "9", "addr:postcode": "07160", "addr:street": "Carrer Eucaliptus", "amenity": "restaurant", "cuisine": "ice_cream", "email": "info@eizmallorca.es", "name": "EiZmallorca", "takeaway": "yes", "website": "https://www.eizmallorca.es/"}}, {"type": "node", "id": 3489573556, "lat": 39.5384294, "lon": 2.4477917, "tags": {"addr:city": "Peguera", "addr:housenumber": "9", "addr:postcode": "07160", "addr:street": "Carrer Eucaliptus", "amenity": "restaurant", "name": "El Mejill\u00f3n"}}, {"type": "node", "id": 3491686276, "lat": 39.5135322, "lon": 2.4801402, "tags": {"addr:city": "Santa Pon\u00e7a", "addr:housenumber": "88", "addr:postcode": "07180", "addr:street": "Avinguda Rei Jaume I", "amenity": "restaurant", "cuisine": "pizza", "name": "Mamma Mia", "name:ca": "Mamma Mia"}}, {"type": "node", "id": 3518732353, "lat": 39.5364861, "lon": 2.4551142, "tags": {"amenity": "cafe", "name": "Europa", "name:ca": "Europa"}}, {"type": "node", "id": 3520903435, "lat": 39.5382634, "lon": 2.4506392, "tags": {"addr:city": "Peguera", "addr:housenumber": "4", "addr:postcode": "07160", "addr:street": "Carrer de Palmira", "amenity": "cafe", "name": "La Bachor", "opening_hours": "Su-Fr 17:00-00:30; Sa 15:00-00:30"}}, {"type": "node", "id": 3520903453, "lat": 39.5383837, "lon": 2.4504525, "tags": {"addr:city": "Peguera", "addr:housenumber": "5", "addr:postcode": "07160", "addr:street": "Carrer de Palmira", "amenity": "restaurant", "cuisine": "italian", "internet_access": "wlan", "internet_access:fee": "no", "name": "Giovanni", "outdoor_seating": "yes", "smoking": "yes"}}, {"type": "node", "id": 3520945775, "lat": 39.5383693, "lon": 2.4512724, "tags": {"addr:city": "Peguera", "addr:housenumber": "3", "addr:postcode": "07160", "addr:street": "Carrer dels Pins", "amenity": "restaurant", "cuisine": "italian", "name": "Adriano"}}, {"type": "node", "id": 3534430656, "lat": 39.5137141, "lon": 2.4793288, "tags": {"addr:city": "Santa Pon\u00e7a", "addr:postcode": "07180", "amenity": "restaurant", "name": "Sherezade"}}, {"type": "node", "id": 3537172519, "lat": 39.5110297, "lon": 2.4734949, "tags": {"addr:city": "Santa Pon\u00e7a", "addr:postcode": "07180", "amenity": "cafe", "name": "La Brasa", "name:ca": "La Brasa"}}, {"type": "node", "id": 3537172520, "lat": 39.5111056, "lon": 2.4734049, "tags": {"addr:city": "Santa Pon\u00e7a", "addr:country": "ES", "addr:housenumber": "15", "addr:postcode": "07180", "addr:street": "Via de la Creu", "amenity": "cafe", "name": "Scubar", "website": "https://www.scubar.es/"}}, {"type": "node", "id": 3537172528, "lat": 39.5136275, "lon": 2.4803238, "tags": {"addr:city": "Santa Pon\u00e7a", "addr:postcode": "07180", "amenity": "restaurant", "cuisine": "sandwich", "name": "Baguette Land"}}, {"type": "node", "id": 3537172529, "lat": 39.5136401, "lon": 2.4803727, "tags": {"addr:city": "Santa Pon\u00e7a", "addr:postcode": "07180", "amenity": "restaurant", "name": "Botifarr\u00f3"}}, {"type": "node", "id": 3537172533, "lat": 39.5137733, "lon": 2.4806231, "tags": {"addr:city": "Santa Pon\u00e7a", "addr:postcode": "07180", "amenity": "restaurant", "cuisine": "american", "name": "Fat Sams"}}, {"type": "node", "id": 3537172554, "lat": 39.5139359, "lon": 2.481057}, {"type": "node", "id": 3537172576, "lat": 39.5140459, "lon": 2.4811644}, {"type": "node", "id": 3537172577, "lat": 39.513969, "lon": 2.4810261}, {"type": "node", "id": 3537172578, "lat": 39.51387, "lon": 2.4811186}, {"type": "node", "id": 3537172579, "lat": 39.5139749, "lon": 2.4813071}, {"type": "node", "id": 3537172580, "lat": 39.5140139, "lon": 2.4812706}, {"type": "node", "id": 3537172581, "lat": 39.5139859, "lon": 2.4812204}, {"type": "node", "id": 3537172591, "lat": 39.5143181, "lon": 2.48165, "tags": {"addr:city": "Santa Pon\u00e7a", "addr:postcode": "07180", "amenity": "restaurant", "cuisine": "chinese", "name": "Hang Zhou III"}}, {"type": "node", "id": 3537172592, "lat": 39.5143481, "lon": 2.4817278, "tags": {"amenity": "restaurant", "cuisine": "pizza", "name": "Palermo"}}, {"type": "node", "id": 3537172794, "lat": 39.514438, "lon": 2.4818752, "tags": {"addr:city": "Santa Pon\u00e7a", "addr:postcode": "07180", "amenity": "restaurant", "name": "Gala!"}}, {"type": "node", "id": 3537172795, "lat": 39.5145012, "lon": 2.4819705, "tags": {"amenity": "restaurant", "name": "The Watering Hole"}}, {"type": "node", "id": 3537172797, "lat": 39.5145902, "lon": 2.4821677, "tags": {"addr:city": "Santa Pon\u00e7a", "addr:postcode": "07180", "amenity": "restaurant", "name": "Tony's"}}, {"type": "node", "id": 3537172823, "lat": 39.5163571, "lon": 2.4815219, "tags": {"addr:city": "Santa Pon\u00e7a", "addr:postcode": "07180", "amenity": "restaurant", "cuisine": "pizza", "name": "Bandol"}}, {"type": "node", "id": 3537172838, "lat": 39.5135722, "lon": 2.4793712, "tags": {"addr:city": "Santa Pon\u00e7a", "addr:postcode": "07180", "amenity": "restaurant", "name": "Attitude & Aptitude"}}, {"type": "node", "id": 3537172994, "lat": 39.5144952, "lon": 2.4825481, "tags": {"addr:city": "Santa Pon\u00e7a", "addr:postcode": "07180", "amenity": "restaurant", "cuisine": "pizza", "name": "A casa del padrino"}}, {"type": "node", "id": 3537172998, "lat": 39.5145108, "lon": 2.482831, "tags": {"addr:city": "Santa Pon\u00e7a", "addr:postcode": "07180", "amenity": "restaurant", "name": "Sal\u00f3n de Shora"}}, {"type": "node", "id": 3537173064, "lat": 39.5179742, "lon": 2.4809592, "tags": {"amenity": "restaurant", "cuisine": "pizza", "name": "Barbacoa Pizzeria"}}, {"type": "node", "id": 3538876209, "lat": 39.5298875, "lon": 2.5027371, "tags": {"amenity": "restaurant", "name": "Pol\u00edgono"}}, {"type": "node", "id": 3538922453, "lat": 39.5251138, "lon": 2.5418005}, {"type": "node", "id": 3538922455, "lat": 39.5251221, "lon": 2.5418695}, {"type": "node", "id": 3538922457, "lat": 39.5251266, "lon": 2.5417326}, {"type": "node", "id": 3538922459, "lat": 39.5251501, "lon": 2.5419291}, {"type": "node", "id": 3538922461, "lat": 39.5251583, "lon": 2.5416762}, {"type": "node", "id": 3538922463, "lat": 39.5251936, "lon": 2.5419703}, {"type": "node", "id": 3538922466, "lat": 39.5252043, "lon": 2.5416399}, {"type": "node", "id": 3538922473, "lat": 39.525246, "lon": 2.5419868}, {"type": "node", "id": 3538922477, "lat": 39.5252576, "lon": 2.5416292}, {"type": "node", "id": 3538922479, "lat": 39.5252992, "lon": 2.5419761}, {"type": "node", "id": 3538922480, "lat": 39.5253099, "lon": 2.5416457}, {"type": "node", "id": 3538922482, "lat": 39.5253452, "lon": 2.5419398}, {"type": "node", "id": 3538922484, "lat": 39.5253534, "lon": 2.5416869}, {"type": "node", "id": 3538922488, "lat": 39.525377, "lon": 2.5418834}, {"type": "node", "id": 3538922489, "lat": 39.5253814, "lon": 2.5417465}, {"type": "node", "id": 3538922491, "lat": 39.5253897, "lon": 2.5418155}, {"type": "node", "id": 3540255014, "lat": 39.5188007, "lon": 2.4804936, "tags": {"addr:city": "Santa Pon\u00e7a", "addr:postcode": "07180", "amenity": "restaurant", "name": "Le Pilar"}}, {"type": "node", "id": 3540255015, "lat": 39.5189228, "lon": 2.4804185, "tags": {"addr:city": "Santa Pon\u00e7a", "addr:postcode": "07180", "amenity": "restaurant", "name": "Xos\u00e9's"}}, {"type": "node", "id": 3540255025, "lat": 39.5194614, "lon": 2.4802982, "tags": {"amenity": "restaurant", "cuisine": "pizza", "name": "Dutchie"}}, {"type": "node", "id": 3540255026, "lat": 39.5194913, "lon": 2.4805392, "tags": {"addr:city": "Santa Pon\u00e7a", "addr:postcode": "07180", "amenity": "cafe", "name": "Okay"}}, {"type": "node", "id": 3540255031, "lat": 39.512804, "lon": 2.4830316, "tags": {"addr:city": "Santa Pon\u00e7a", "addr:postcode": "07180", "amenity": "restaurant", "name": "Tauro"}}, {"type": "node", "id": 3540255043, "lat": 39.5160982, "lon": 2.4821994, "tags": {"addr:city": "Santa Pon\u00e7a", "addr:postcode": "07180", "amenity": "cafe", "name": "Nepenta"}}, {"type": "node", "id": 3540255045, "lat": 39.5162855, "lon": 2.4825186, "tags": {"addr:city": "Santa Pon\u00e7a", "addr:postcode": "07180", "amenity": "cafe", "name": "Z\u00farich"}}, {"type": "node", "id": 3540255055, "lat": 39.5168927, "lon": 2.4839657, "tags": {"amenity": "restaurant", "name": "Ca'n Ribas", "source": "survey"}}, {"type": "node", "id": 3540255062, "lat": 39.5172466, "lon": 2.4850117, "tags": {"addr:city": "Santa Pon\u00e7a", "addr:postcode": "07180", "amenity": "cafe", "name": "Alhambra", "name:ca": "Alhambra"}}, {"type": "node", "id": 3540255063, "lat": 39.5173093, "lon": 2.4851103, "tags": {"addr:city": "Santa Pon\u00e7a", "addr:postcode": "07180", "amenity": "cafe", "name": "Al-\u00c1ndalus"}}, {"type": "node", "id": 3540255070, "lat": 39.5176873, "lon": 2.4857118, "tags": {"addr:city": "Santa Pon\u00e7a", "addr:postcode": "07180", "amenity": "cafe", "name": "El Roc\u00edo"}}, {"type": "node", "id": 3540255072, "lat": 39.5175445, "lon": 2.4858432, "tags": {"addr:city": "Santa Pon\u00e7a", "addr:postcode": "07180", "amenity": "restaurant", "name": "Come como en casa"}}, {"type": "node", "id": 3540255346, "lat": 39.5166962, "lon": 2.4852236, "tags": {"addr:city": "Santa Pon\u00e7a", "addr:postcode": "07180", "amenity": "cafe", "name": "Antica Roma"}}, {"type": "node", "id": 3540255438, "lat": 39.5158313, "lon": 2.4837484, "tags": {"addr:city": "Santa Pon\u00e7a", "addr:postcode": "07180", "addr:street": "Avinguda del Rei Jaume I", "amenity": "restaurant", "cuisine": "chinese", "name": "Sakuma"}}, {"type": "node", "id": 3540255445, "lat": 39.515465, "lon": 2.4831999, "tags": {"addr:city": "Santa Pon\u00e7a", "addr:postcode": "07180", "amenity": "restaurant", "cuisine": "chinese", "name": "Gran Mundo 2"}}, {"type": "node", "id": 3544578029, "lat": 39.51553, "lon": 2.4828243, "tags": {"addr:city": "Santa Pon\u00e7a", "addr:housenumber": "17", "addr:postcode": "07180", "addr:street": "Avinguda del Rei Jaume I", "amenity": "cafe", "name": "Mozart"}}, {"type": "node", "id": 3544578032, "lat": 39.5155191, "lon": 2.4825561, "tags": {"addr:city": "Santa Pon\u00e7a", "addr:postcode": "07180", "amenity": "cafe", "name": "Alt Wien"}}, {"type": "node", "id": 3544578048, "lat": 39.517781, "lon": 2.488237, "tags": {"addr:city": "Santa Pon\u00e7a", "addr:postcode": "07180", "amenity": "cafe", "name": "Los Pasos"}}, {"type": "node", "id": 3544580729, "lat": 39.515374, "lon": 2.4835921, "tags": {"addr:city": "Santa Pon\u00e7a", "addr:postcode": "07180", "amenity": "restaurant", "name": "Vivo!"}}, {"type": "node", "id": 3596012568, "lat": 39.5352774, "lon": 2.5739428}, {"type": "node", "id": 3596012569, "lat": 39.535282, "lon": 2.5740857}, {"type": "node", "id": 3596012570, "lat": 39.5351181, "lon": 2.5740947}, {"type": "node", "id": 3596012571, "lat": 39.5351123, "lon": 2.5739154}, {"type": "node", "id": 3669825684, "lat": 39.5274734, "lon": 2.5459407, "tags": {"amenity": "restaurant", "name": "Churchill's"}}, {"type": "node", "id": 3669825685, "lat": 39.5275308, "lon": 2.546315, "tags": {"amenity": "restaurant", "name": "Tomeu"}}, {"type": "node", "id": 3688125969, "lat": 39.5206631, "lon": 2.4721828, "tags": {"addr:housenumber": "2", "addr:street": "Carrer Huguet des Far", "addr:unit": "Local 15", "amenity": "restaurant", "cuisine": "chinese", "name": "Maravillas", "name:zh": "\u9ec4\u5c71\u996d\u5e97"}}, {"type": "node", "id": 3688125970, "lat": 39.5207145, "lon": 2.4721849, "tags": {"amenity": "restaurant", "level": "0", "name": "Miami 1988", "operator": "M\u00aa del Carmen Arredondo Sola", "outdoor_seating": "yes", "phone": "+34 971 693570", "smoking": "outside", "toilets": "yes", "wheelchair": "yes"}}, {"type": "node", "id": 3721928953, "lat": 39.5794976, "lon": 2.4700017}, {"type": "node", "id": 3728551667, "lat": 39.5370924, "lon": 2.4458993, "tags": {"addr:city": "Peguera", "addr:housenumber": "28", "addr:postcode": "07160", "addr:street": "Boulevard de Peguera", "amenity": "restaurant", "name": "Miguel", "outdoor_seating": "yes"}}, {"type": "node", "id": 3741461641, "lat": 39.6453762, "lon": 2.4505207}, {"type": "node", "id": 3741461642, "lat": 39.6452597, "lon": 2.4506719}, {"type": "node", "id": 3741461643, "lat": 39.6450384, "lon": 2.4503844}, {"type": "node", "id": 3741461644, "lat": 39.6451548, "lon": 2.4502332}, {"type": "node", "id": 3776199668, "lat": 39.5353106, "lon": 2.4457201, "tags": {"amenity": "restaurant", "name": "Casa Luis", "opening_hours": "Mo, Tu, Th-Su 12:30-23:00", "phone": "+34 971 686035", "website": "https://restaurante-casa-luis.ueniweb.com/"}}, {"type": "node", "id": 3776279600, "lat": 39.5246742, "lon": 2.5397665, "tags": {"amenity": "restaurant", "cuisine": "thai", "name": "My Thai"}}, {"type": "node", "id": 3807147383, "lat": 39.5684349, "lon": 2.4240843, "tags": {"amenity": "cafe", "name": "Avenida"}}, {"type": "node", "id": 3838850413, "lat": 39.5269842, "lon": 2.5363846}, {"type": "node", "id": 3838850414, "lat": 39.527156, "lon": 2.5366677}, {"type": "node", "id": 3838850415, "lat": 39.5267883, "lon": 2.5370428}, {"type": "node", "id": 3838850416, "lat": 39.5267274, "lon": 2.5369425}, {"type": "node", "id": 3838850417, "lat": 39.5268153, "lon": 2.5368528}, {"type": "node", "id": 3838850418, "lat": 39.5266726, "lon": 2.5366176}, {"type": "node", "id": 3838850419, "lat": 39.5267635, "lon": 2.5365248}, {"type": "node", "id": 3838850420, "lat": 39.5267954, "lon": 2.5365773}, {"type": "node", "id": 3860639736, "lat": 39.5924146, "lon": 2.4794891, "tags": {"amenity": "restaurant", "name": "Zaranda", "outdoor_seating": "yes"}}, {"type": "node", "id": 3941087937, "lat": 39.5316198, "lon": 2.5662575, "tags": {"amenity": "restaurant", "name": "Flanigan"}}, {"type": "node", "id": 4032149077, "lat": 39.5638298, "lon": 2.5042561}, {"type": "node", "id": 4032149078, "lat": 39.5636965, "lon": 2.5043283}, {"type": "node", "id": 4032149079, "lat": 39.5637391, "lon": 2.504446}, {"type": "node", "id": 4032149080, "lat": 39.5638893, "lon": 2.5044114}, {"type": "node", "id": 4043640689, "lat": 39.533163, "lon": 2.5667867, "tags": {"amenity": "restaurant", "name": "Malbec"}}, {"type": "node", "id": 4043762702, "lat": 39.5349529, "lon": 2.5729001}, {"type": "node", "id": 4043762703, "lat": 39.5349307, "lon": 2.5730194}, {"type": "node", "id": 4043762704, "lat": 39.5348259, "lon": 2.5729866}, {"type": "node", "id": 4043762705, "lat": 39.5348434, "lon": 2.5728928}, {"type": "node", "id": 4043762706, "lat": 39.5348884, "lon": 2.5728798}, {"type": "node", "id": 4043805387, "lat": 39.534848, "lon": 2.5726985}, {"type": "node", "id": 4043805388, "lat": 39.5347357, "lon": 2.5727513}, {"type": "node", "id": 4043806689, "lat": 39.5346975, "lon": 2.5726147}, {"type": "node", "id": 4043806690, "lat": 39.5348098, "lon": 2.5725619}, {"type": "node", "id": 4110126489, "lat": 39.5245802, "lon": 2.5396541, "tags": {"addr:street": "passeig del Mar", "amenity": "restaurant", "cuisine": "spanish;regional;indian", "name": "Mocubar"}}, {"type": "node", "id": 4170795559, "lat": 39.5032134, "lon": 2.527392, "tags": {"amenity": "cafe", "name": "La Cantina", "name:ca": "La Cantina"}}, {"type": "node", "id": 4211129989, "lat": 39.5364251, "lon": 2.4548571, "tags": {"amenity": "restaurant", "cuisine": "italian_pizza", "name": "+39 Pi\u00f9trentanove"}}, {"type": "node", "id": 4213073728, "lat": 39.5372414, "lon": 2.4460633, "tags": {"addr:city": "Paguera", "addr:housenumber": "5", "addr:postcode": "07160", "addr:street": "Bulevard de Peguera", "amenity": "restaurant", "description": "Tapas Restaurant", "name": "Senor Tapas", "opening_hours": "Tu-Sa 12:00-15:00, 18:00-22:00; Su 17:00-22:00"}}, {"type": "node", "id": 4222499913, "lat": 39.5756743, "lon": 2.4225348, "tags": {"amenity": "cafe", "name": "Can Toniet"}}, {"type": "node", "id": 4229816620, "lat": 39.5395617, "lon": 2.4524351, "tags": {"amenity": "restaurant", "name": "NYC"}}, {"type": "node", "id": 4271781298, "lat": 39.5299645, "lon": 2.5064858, "tags": {"amenity": "cafe"}}, {"type": "node", "id": 4281938122, "lat": 39.5150773, "lon": 2.5368666, "tags": {"amenity": "cafe", "name": "El Mecca"}}, {"type": "node", "id": 4281938184, "lat": 39.5140542, "lon": 2.5374462}, {"type": "node", "id": 4281938185, "lat": 39.5141321, "lon": 2.5377049}, {"type": "node", "id": 4281938186, "lat": 39.5140541, "lon": 2.5377443}, {"type": "node", "id": 4281938187, "lat": 39.5139763, "lon": 2.5374856}, {"type": "node", "id": 4281941648, "lat": 39.5122759, "lon": 2.5383987, "tags": {"amenity": "cafe", "name": "Cutty Sark Torrenova"}}, {"type": "node", "id": 4281941649, "lat": 39.5122102, "lon": 2.5387024, "tags": {"amenity": "restaurant", "name": "Be Max"}}, {"type": "node", "id": 4357210599, "lat": 39.5314743, "lon": 2.5679638, "tags": {"amenity": "restaurant", "name": "Ritzi"}}, {"type": "node", "id": 4422234998, "lat": 39.5368335, "lon": 2.4484547, "tags": {"amenity": "restaurant", "cuisine": "regional", "name": "Niza", "outdoor_seating": "yes"}}, {"type": "node", "id": 4422546490, "lat": 39.5296565, "lon": 2.5398258, "tags": {"addr:housenumber": "5", "addr:street": "Carrer de C\u00f2rdova", "amenity": "cafe", "internet_access": "wlan", "name": "centro", "name:ca": "centre"}}, {"type": "node", "id": 4424606188, "lat": 39.5363897, "lon": 2.4586743, "tags": {"amenity": "cafe", "name": "Nina"}}, {"type": "node", "id": 4424612305, "lat": 39.5366667, "lon": 2.4558225, "tags": {"amenity": "restaurant", "cuisine": "spanish", "name": "Sa Finca"}}, {"type": "node", "id": 4426175919, "lat": 39.5118768, "lon": 2.5379863, "tags": {"amenity": "restaurant", "name": "El Mundo", "name:es": "El Mundo"}}, {"type": "node", "id": 4427889743, "lat": 39.5236243, "lon": 2.538481, "tags": {"amenity": "restaurant", "name": "Le Petit Bistrot"}}, {"type": "node", "id": 4428640752, "lat": 39.5209151, "lon": 2.4721895, "tags": {"addr:city": "Santa Pon\u00e7a", "addr:housenumber": "34", "addr:postcode": "07180", "addr:street": "Carrer de Huguet des Far", "amenity": "restaurant", "contact:facebook": "https://www.facebook.com/ilvivoitalianurbanstyle/#_=_", "cuisine": "italian", "name": "Il Vivo"}}, {"type": "node", "id": 4437996270, "lat": 39.5284149, "lon": 2.5514336, "tags": {"amenity": "restaurant", "name": "es Fum"}}, {"type": "node", "id": 4438181577, "lat": 39.5190675, "lon": 2.4787836, "tags": {"addr:housenumber": "24", "addr:street": "Carrer de Ramon de Montcada", "amenity": "restaurant", "cuisine": "steak_house", "name": "el Ceibo"}}, {"type": "node", "id": 4438215641, "lat": 39.5179325, "lon": 2.4849617}, {"type": "node", "id": 4438215642, "lat": 39.5180151, "lon": 2.4851214}, {"type": "node", "id": 4438215643, "lat": 39.5177867, "lon": 2.4853202}, {"type": "node", "id": 4438215644, "lat": 39.517704, "lon": 2.4851606}, {"type": "node", "id": 4444730581, "lat": 39.5314807, "lon": 2.5654081, "tags": {"amenity": "restaurant", "name": "Baiben"}}, {"type": "node", "id": 4448456303, "lat": 39.5414889, "lon": 2.4478968}, {"type": "node", "id": 4448456307, "lat": 39.5414951, "lon": 2.4478529}, {"type": "node", "id": 4448456310, "lat": 39.5415884, "lon": 2.4478953}, {"type": "node", "id": 4448456315, "lat": 39.5415882, "lon": 2.4478748}, {"type": "node", "id": 4448456319, "lat": 39.5414891, "lon": 2.4478741}, {"type": "node", "id": 4448456326, "lat": 39.5415837, "lon": 2.4479148}, {"type": "node", "id": 4466425219, "lat": 39.5415746, "lon": 2.4479315}, {"type": "node", "id": 4466425220, "lat": 39.541562, "lon": 2.4479437}, {"type": "node", "id": 4466425221, "lat": 39.5415471, "lon": 2.4479502}, {"type": "node", "id": 4466425222, "lat": 39.5415313, "lon": 2.4479505}, {"type": "node", "id": 4466425223, "lat": 39.5415162, "lon": 2.4479444}, {"type": "node", "id": 4466425224, "lat": 39.5415034, "lon": 2.4479326}, {"type": "node", "id": 4466425225, "lat": 39.541494, "lon": 2.4479162}, {"type": "node", "id": 4466425226, "lat": 39.5415064, "lon": 2.4478356}, {"type": "node", "id": 4466425227, "lat": 39.5415216, "lon": 2.4478244}, {"type": "node", "id": 4466425228, "lat": 39.5415389, "lon": 2.4478206}, {"type": "node", "id": 4466425229, "lat": 39.541556, "lon": 2.4478246}, {"type": "node", "id": 4466425230, "lat": 39.5415711, "lon": 2.4478361}, {"type": "node", "id": 4466425231, "lat": 39.5415823, "lon": 2.4478535}, {"type": "node", "id": 4538598651, "lat": 39.6088558, "lon": 2.5053226}, {"type": "node", "id": 4538598662, "lat": 39.6088254, "lon": 2.5053588}, {"type": "node", "id": 4540840462, "lat": 39.5347173, "lon": 2.4668819}, {"type": "node", "id": 4549858526, "lat": 39.4960583, "lon": 2.4699618}, {"type": "node", "id": 4549858527, "lat": 39.4961577, "lon": 2.4702917}, {"type": "node", "id": 4549858528, "lat": 39.4960273, "lon": 2.4703615}, {"type": "node", "id": 4549858529, "lat": 39.4959569, "lon": 2.470163}, {"type": "node", "id": 4549858530, "lat": 39.4959155, "lon": 2.4701898}, {"type": "node", "id": 4549858531, "lat": 39.495872, "lon": 2.470053}, {"type": "node", "id": 4557195435, "lat": 39.509548, "lon": 2.5352428}, {"type": "node", "id": 4557195436, "lat": 39.5095953, "lon": 2.5354434}, {"type": "node", "id": 4557195437, "lat": 39.5095494, "lon": 2.5356649}, {"type": "node", "id": 4557195438, "lat": 39.509462, "lon": 2.535265}, {"type": "node", "id": 4557338802, "lat": 39.5054151, "lon": 2.5325316}, {"type": "node", "id": 4557338803, "lat": 39.5052963, "lon": 2.5328447}, {"type": "node", "id": 4557338804, "lat": 39.5052201, "lon": 2.5327986}, {"type": "node", "id": 4557338805, "lat": 39.5053408, "lon": 2.5324822}, {"type": "node", "id": 4573332392, "lat": 39.5088294, "lon": 2.5361255}, {"type": "node", "id": 4573332393, "lat": 39.5088097, "lon": 2.5362288}, {"type": "node", "id": 4573332394, "lat": 39.508818, "lon": 2.5362436}, {"type": "node", "id": 4573332395, "lat": 39.5088004, "lon": 2.5362985}, {"type": "node", "id": 4573332396, "lat": 39.5087704, "lon": 2.5362999}, {"type": "node", "id": 4573332397, "lat": 39.5087735, "lon": 2.5363146}, {"type": "node", "id": 4573332398, "lat": 39.5088025, "lon": 2.5363374}, {"type": "node", "id": 4573332399, "lat": 39.5088056, "lon": 2.5363602}, {"type": "node", "id": 4573332400, "lat": 39.5086266, "lon": 2.5364286}, {"type": "node", "id": 4573332401, "lat": 39.5086204, "lon": 2.5364058}, {"type": "node", "id": 4573332402, "lat": 39.5085904, "lon": 2.5364166}, {"type": "node", "id": 4573332403, "lat": 39.5084993, "lon": 2.5362999}, {"type": "node", "id": 4573332404, "lat": 39.5088444, "lon": 2.5361517}, {"type": "node", "id": 4714454492, "lat": 39.5123857, "lon": 2.5396431, "tags": {"amenity": "restaurant", "name:en": "Zen"}}, {"type": "node", "id": 4714489296, "lat": 39.5140645, "lon": 2.5377783, "tags": {"amenity": "cafe", "brand": "Costa", "brand:wikidata": "Q608845", "brand:wikipedia": "en:Costa Coffee", "cuisine": "coffee_shop", "internet_access": "wlan", "name": "Costa", "name:ca": "Costa", "name:ru": "\u041a\u043e\u0441\u0442\u0430 \u043a\u043e\u0444\u0435", "takeaway": "yes"}}, {"type": "node", "id": 4752542194, "lat": 39.5007837, "lon": 2.5053836, "tags": {"amenity": "cafe", "name": "T\u00fa y yo"}}, {"type": "node", "id": 4852035168, "lat": 39.5359306, "lon": 2.455321, "tags": {"addr:city": "Peguera", "addr:housenumber": "4", "addr:postcode": "07160", "addr:street": "Carrer de Sebelli", "amenity": "restaurant", "capacity": "50", "cuisine": "german", "name": "Essbar", "opening_hours": "Mo-Su 10:00-19:00", "outdoor_seating": "yes", "takeaway": "yes"}}, {"type": "node", "id": 4867707626, "lat": 39.5194893, "lon": 2.4775502, "tags": {"addr:housenumber": "18", "addr:street": "Carrer de Ramon de Montcada", "amenity": "cafe", "internet_access": "wlan", "name": "Dama", "name:en": "Mark Antony's Bistro"}}, {"type": "node", "id": 4879148921, "lat": 39.621976, "lon": 2.5273584, "tags": {"addr:housenumber": "3", "addr:street": "Calle Ciutat", "amenity": "restaurant", "name": "Ca sa Nina", "operational_status": "closed"}}, {"type": "node", "id": 4905194288, "lat": 39.5066954, "lon": 2.5313475, "tags": {"amenity": "cafe", "name": "Rinc\u00f3n"}}, {"type": "node", "id": 4913628809, "lat": 39.5092523, "lon": 2.5324315, "tags": {"amenity": "cafe", "name": "Panama Jack"}}, {"type": "node", "id": 4913628810, "lat": 39.5088301, "lon": 2.5323082, "tags": {"amenity": "restaurant", "name": "JB"}}, {"type": "node", "id": 4913635640, "lat": 39.5025895, "lon": 2.5289835, "tags": {"amenity": "cafe", "name": "La Uni\u00f3n"}}, {"type": "node", "id": 4984745022, "lat": 39.53605, "lon": 2.5708827, "tags": {"amenity": "restaurant", "name": "Bottega Bay Rocks", "name:es": "Bottega Bay Rocks"}}, {"type": "node", "id": 5057053322, "lat": 39.5126436, "lon": 2.5370465, "tags": {"amenity": "restaurant", "cuisine": "mexican", "internet_access": "wlan", "name": "Buffalo", "name:en": "Tex-Mex"}}, {"type": "node", "id": 5068878890, "lat": 39.5351486, "lon": 2.5717031, "tags": {"amenity": "cafe", "name": "Bake-Coff"}}, {"type": "node", "id": 5068901905, "lat": 39.518599, "lon": 2.4875511, "tags": {"amenity": "cafe", "name": "Sol", "name:ca": "Sol"}}, {"type": "node", "id": 5132572633, "lat": 39.5373, "lon": 2.4479448, "tags": {"addr:city": "Paguera", "addr:housenumber": "19", "addr:postcode": "07160", "addr:street": "Bulevard de Peguera", "amenity": "restaurant", "cuisine": "international", "name": "Rom\u00e1ntico"}}, {"type": "node", "id": 5132595531, "lat": 39.5375275, "lon": 2.444372, "tags": {"addr:city": "Paguera", "addr:housenumber": "2", "addr:postcode": "07160", "addr:street": "Carrer de la Savina", "amenity": "restaurant", "cuisine": "pizza", "name": "Poppins"}}, {"type": "node", "id": 5132595532, "lat": 39.5375152, "lon": 2.444473, "tags": {"addr:city": "Paguera", "addr:housenumber": "2", "addr:postcode": "07160", "addr:street": "Carrer de la Savina", "amenity": "cafe", "name": "El Caf\u00e9"}}, {"type": "node", "id": 5149282128, "lat": 39.5278484, "lon": 2.5056657, "tags": {"amenity": "cafe", "name": "Los Linde"}}, {"type": "node", "id": 5210974066, "lat": 39.5375857, "lon": 2.441028, "tags": {"amenity": "restaurant", "name": "Mes\u00f3n del Algarrobo"}}, {"type": "node", "id": 5318203418, "lat": 39.4981332, "lon": 2.5046699, "tags": {"amenity": "cafe", "name": "el Arroyo"}}, {"type": "node", "id": 5318203419, "lat": 39.4981373, "lon": 2.504155, "tags": {"amenity": "cafe", "name": "Pavell\u00f3", "name:ca": "Pavell\u00f3"}}, {"type": "node", "id": 5375658006, "lat": 39.5745702, "lon": 2.4138746, "tags": {"amenity": "cafe", "name": "Can Puertas"}}, {"type": "node", "id": 5427516582, "lat": 39.5216089, "lon": 2.4690598, "tags": {"amenity": "cafe", "name": "Neptuno"}}, {"type": "node", "id": 5465555313, "lat": 39.4969754, "lon": 2.5073302, "tags": {"amenity": "restaurant", "name": "El Capricho"}}, {"type": "node", "id": 5466146647, "lat": 39.5134597, "lon": 2.4779594, "tags": {"amenity": "restaurant", "name": "El Balc\u00f3n de Mar\u00eda"}}, {"type": "node", "id": 5466146648, "lat": 39.5132129, "lon": 2.4777072, "tags": {"amenity": "cafe", "name": "Rumba"}}, {"type": "node", "id": 5466146649, "lat": 39.5131643, "lon": 2.4773593, "tags": {"amenity": "restaurant", "name": "Rhein"}}, {"type": "node", "id": 5499922412, "lat": 39.6220071, "lon": 2.5271778, "tags": {"amenity": "cafe", "name": "es Pont", "name:ca": "es Pont"}}, {"type": "node", "id": 5499922413, "lat": 39.6216976, "lon": 2.5269702, "tags": {"amenity": "cafe", "name": "la Vila", "name:ca": "la Vila", "operational_status": "closed"}}, {"type": "node", "id": 5502795931, "lat": 39.51455, "lon": 2.5371952, "tags": {"amenity": "restaurant", "name": "The Grillhouse"}}, {"type": "node", "id": 5518859527, "lat": 39.5173558, "lon": 2.5358864, "tags": {"amenity": "cafe", "name": "Monroe's"}}, {"type": "node", "id": 5583186666, "lat": 39.5190166, "lon": 2.5349826, "tags": {"amenity": "cafe", "name": "Castaways"}}, {"type": "node", "id": 5583186667, "lat": 39.5201705, "lon": 2.53413, "tags": {"amenity": "cafe", "name": "Scandia"}}, {"type": "node", "id": 5601998321, "lat": 39.6530113, "lon": 2.4811712, "tags": {"addr:housenumber": "6", "addr:street": "carrer de n'Eusebi Pascual", "amenity": "cafe", "cuisine": "regional;sandwich;cake;local;coffee_shop", "internet_access": "wlan", "name": "Vall-Herm\u00f3s", "opening_hours": "Th-Tu 10:00-23:00", "phone": "+34 971618610", "website": "https://www.vallhermos.com/"}}, {"type": "node", "id": 5751285809, "lat": 39.5235286, "lon": 2.5384028, "tags": {"amenity": "restaurant", "cuisine": "pizza", "name": "Il Chiringo"}}, {"type": "node", "id": 5755148881, "lat": 39.5107889, "lon": 2.5385831, "tags": {"amenity": "cafe", "name": "Mr. Bean"}}, {"type": "node", "id": 5772483928, "lat": 39.5098952, "lon": 2.5331349, "tags": {"amenity": "cafe", "name": "Lord Nelson"}}, {"type": "node", "id": 5772483929, "lat": 39.5099203, "lon": 2.5328874, "tags": {"amenity": "cafe", "name": "Captain's Arms"}}, {"type": "node", "id": 5772483932, "lat": 39.5100345, "lon": 2.5320237, "tags": {"amenity": "restaurant", "name": "Can Miguel"}}, {"type": "node", "id": 5772483933, "lat": 39.5102883, "lon": 2.5320758, "tags": {"amenity": "cafe", "name": "Gale\u00f3n"}}, {"type": "node", "id": 5772483934, "lat": 39.5103486, "lon": 2.5317241, "tags": {"amenity": "cafe", "name": "Cheeky Monkey"}}, {"type": "node", "id": 5801075732, "lat": 39.5101149, "lon": 2.5387381, "tags": {"amenity": "cafe", "name": "Le Caf\u00e9"}}, {"type": "node", "id": 5801078996, "lat": 39.5100483, "lon": 2.5385785, "tags": {"amenity": "restaurant", "cuisine": "pizza", "name": "La Cr\u00eaperie"}}, {"type": "node", "id": 5801139265, "lat": 39.5102951, "lon": 2.538054, "tags": {"amenity": "restaurant", "name": "Casablanca", "name:ca": "Casablanca"}}, {"type": "node", "id": 5801467138, "lat": 39.5109091, "lon": 2.5397951, "tags": {"amenity": "restaurant", "name": "Portofino", "name:ca": "Portofino"}}, {"type": "node", "id": 5835076139, "lat": 39.5789906, "lon": 2.4297482, "tags": {"amenity": "cafe", "name": "Son Curt", "name:ca": "Son Curt"}}, {"type": "node", "id": 5835076140, "lat": 39.5787356, "lon": 2.42851, "tags": {"amenity": "cafe", "name": "Sa Coma", "name:ca": "Sa Coma"}}, {"type": "node", "id": 5847151135, "lat": 39.5280348, "lon": 2.543914, "tags": {"amenity": "cafe", "name": "La Taberna"}}, {"type": "node", "id": 5878665666, "lat": 39.5150621, "lon": 2.5363813, "tags": {"amenity": "restaurant", "name": "Mes\u00f3n Palmanova"}}, {"type": "node", "id": 5878665667, "lat": 39.5151717, "lon": 2.5361962, "tags": {"amenity": "cafe", "name": "Bayti"}}, {"type": "node", "id": 5878857979, "lat": 39.5150269, "lon": 2.5364885, "tags": {"amenity": "restaurant", "name": "Saigon"}}, {"type": "node", "id": 5931142686, "lat": 39.5317148, "lon": 2.5691819, "tags": {"addr:postcode": "07181", "addr:street": "Passeig del Port", "amenity": "restaurant", "cuisine": "mediterranean", "internet_access": "wlan", "name": "Spoon", "opening_hours": "Mo-Su 13:00-01:00", "phone": "+34971677225", "website": "http://www.spoon-Mallorca.com"}}, {"type": "node", "id": 6000580398, "lat": 39.5333489, "lon": 2.5650327, "tags": {"amenity": "restaurant", "name": "Delfino's"}}, {"type": "node", "id": 6000580399, "lat": 39.5332889, "lon": 2.5649334, "tags": {"amenity": "restaurant", "name": "Ona", "name:ca": "Ona"}}, {"type": "node", "id": 6023597631, "lat": 39.5161796, "lon": 2.4850968, "tags": {"amenity": "cafe", "name": "Avenida"}}, {"type": "node", "id": 6031600292, "lat": 39.5771312, "lon": 2.4210728, "tags": {"amenity": "cafe", "name": "Bar Cubano"}}, {"type": "node", "id": 6037506634, "lat": 39.5754919, "lon": 2.4217111, "tags": {"amenity": "cafe", "name": "Reichel's"}}, {"type": "node", "id": 6037506635, "lat": 39.5753637, "lon": 2.4217057, "tags": {"amenity": "cafe", "name": "Can Miquel", "name:ca": "Can Miquel"}}, {"type": "node", "id": 6044136856, "lat": 39.5118124, "lon": 2.5363063, "tags": {"amenity": "restaurant", "name": "Venezia"}}, {"type": "node", "id": 6049850522, "lat": 39.5347283, "lon": 2.4669387}, {"type": "node", "id": 6049850523, "lat": 39.5346755, "lon": 2.4666996}, {"type": "node", "id": 6049850524, "lat": 39.5344976, "lon": 2.4668323}, {"type": "node", "id": 6049850566, "lat": 39.5130752, "lon": 2.4781727, "tags": {"amenity": "restaurant", "note": "not sure if it is really a restaurant, could also be a bar", "note:name": "\"Krishanai\" or similar"}}, {"type": "node", "id": 6049850570, "lat": 39.5131368, "lon": 2.4783886, "tags": {"amenity": "restaurant", "level": "0", "name": "Astro"}}, {"type": "node", "id": 6051710807, "lat": 39.5047831, "lon": 2.5305552, "tags": {"amenity": "cafe", "name": "Los Troncos"}}, {"type": "node", "id": 6051752740, "lat": 39.5036589, "lon": 2.5311329, "tags": {"amenity": "restaurant", "name": "Can Rosario", "name:ca": "Can Rosario"}}, {"type": "node", "id": 6058661704, "lat": 39.5368472, "lon": 2.4576026, "tags": {"amenity": "restaurant", "cuisine": "spanish", "name": "Eri & Nhoa"}}, {"type": "node", "id": 6153311404, "lat": 39.505417, "lon": 2.533456, "tags": {"amenity": "restaurant", "name": "Ancla verde"}}, {"type": "node", "id": 6161073286, "lat": 39.5129136, "lon": 2.5373493, "tags": {"addr:housenumber": "1", "addr:street": "avinguda de Son Maties", "amenity": "cafe", "cuisine": "spanish", "internet_access": "wlan", "name": "Goya Viana", "opening_hours": "Mo-Su 09:00-18:00"}}, {"type": "node", "id": 6182175651, "lat": 39.6864772, "lon": 2.5127346}, {"type": "node", "id": 6231105142, "lat": 39.5195028, "lon": 2.4745186, "tags": {"amenity": "cafe", "name": "Granada", "name:ca": "Granada"}}, {"type": "node", "id": 6240567296, "lat": 39.521541, "lon": 2.473025, "tags": {"amenity": "cafe", "name": "Matcha"}}, {"type": "node", "id": 6240567298, "lat": 39.5217107, "lon": 2.4732047, "tags": {"amenity": "restaurant", "cuisine": "indian", "name": "Khaan's"}}, {"type": "node", "id": 6240567299, "lat": 39.5221328, "lon": 2.4734273, "tags": {"amenity": "restaurant", "name": "800\u00ba Celsius"}}, {"type": "node", "id": 6279829783, "lat": 39.6233371, "lon": 2.527624, "tags": {"amenity": "cafe", "name": "Can Jordi", "name:ca": "Can Jordi"}}, {"type": "node", "id": 6367124809, "lat": 39.5071113, "lon": 2.5323804, "tags": {"amenity": "restaurant", "name": "Tast"}}, {"type": "node", "id": 6367124810, "lat": 39.5067549, "lon": 2.5322516, "tags": {"amenity": "cafe", "brand": "Starbucks", "brand:wikidata": "Q37158", "brand:wikipedia": "en:Starbucks", "cuisine": "coffee_shop", "name": "Starbucks", "name:ca": "Starbucks", "official_name": "Starbucks Coffee", "takeaway": "yes"}}, {"type": "node", "id": 6367124811, "lat": 39.5062168, "lon": 2.5323053, "tags": {"amenity": "restaurant", "cuisine": "pizza", "name": "Italian loft"}}, {"type": "node", "id": 6367124812, "lat": 39.50661, "lon": 2.5323857, "tags": {"amenity": "restaurant", "cuisine": "steak_house", "name": "Ch\u00e9"}}, {"type": "node", "id": 6367129571, "lat": 39.506662, "lon": 2.5324139, "tags": {"amenity": "restaurant", "brand": "UDON", "brand:wikidata": "Q115679798", "cuisine": "japanese", "name": "UDON"}}, {"type": "node", "id": 6387596309, "lat": 39.5395647, "lon": 2.449438, "tags": {"amenity": "restaurant", "name": "Villa Rosa"}}, {"type": "node", "id": 6416216043, "lat": 39.5035163, "lon": 2.531014, "tags": {"amenity": "restaurant", "name": "Tan a gustito"}}, {"type": "node", "id": 6419542082, "lat": 39.5765513, "lon": 2.4669593}, {"type": "node", "id": 6419542083, "lat": 39.576502, "lon": 2.4670544}, {"type": "node", "id": 6419542084, "lat": 39.5764073, "lon": 2.4669716}, {"type": "node", "id": 6419550285, "lat": 39.5764567, "lon": 2.4668766}, {"type": "node", "id": 6423435750, "lat": 39.5133551, "lon": 2.5373617, "tags": {"amenity": "restaurant", "name": "Florida", "name:ca": "Florida"}}, {"type": "node", "id": 6447099971, "lat": 39.537334, "lon": 2.4491949, "tags": {"amenity": "restaurant", "name": "Carabela"}}, {"type": "node", "id": 6447099973, "lat": 39.5374029, "lon": 2.4494428, "tags": {"amenity": "restaurant", "name": "Atalaya"}}, {"type": "node", "id": 6447099975, "lat": 39.5375925, "lon": 2.4493497, "tags": {"amenity": "restaurant", "name": "Atalaya"}}, {"type": "node", "id": 6447099977, "lat": 39.5374211, "lon": 2.449527, "tags": {"amenity": "restaurant", "name": "Robinson", "toilets:wheelchair": "yes", "wheelchair": "yes"}}, {"type": "node", "id": 6447099978, "lat": 39.5374875, "lon": 2.4497879, "tags": {"amenity": "restaurant", "name": "Malgrats"}}, {"type": "node", "id": 6447099979, "lat": 39.537821, "lon": 2.4501401, "tags": {"amenity": "restaurant", "name": "Cafe el Bulevard"}}, {"type": "node", "id": 6447146313, "lat": 39.5375299, "lon": 2.4497421, "tags": {"amenity": "restaurant", "name": "Riva"}}, {"type": "node", "id": 6447146314, "lat": 39.5377103, "lon": 2.4496418, "tags": {"amenity": "restaurant", "name": "Riva"}}, {"type": "node", "id": 6449249503, "lat": 39.5377168, "lon": 2.4493034, "tags": {"amenity": "restaurant", "name": "Paguera Treff"}}, {"type": "node", "id": 6453981140, "lat": 39.537254, "lon": 2.4474865, "tags": {"addr:city": "Paguera", "addr:housenumber": "17", "addr:postcode": "07160", "addr:street": "Bulevard de Peguera", "amenity": "restaurant", "cuisine": "pizza;pasta", "name": "Dolce Vita", "website": "https://www.dolcevita-paguera-menu.com"}}, {"type": "node", "id": 6502514557, "lat": 39.5105306, "lon": 2.5350874, "tags": {"amenity": "restaurant", "cuisine": "indian", "name": "Welcome"}}, {"type": "node", "id": 6641172064, "lat": 39.5061749, "lon": 2.5331272, "tags": {"amenity": "restaurant", "name": "Mes\u00f3n Espa\u00f1ol"}}, {"type": "node", "id": 6652467751, "lat": 39.5101159, "lon": 2.5361263, "tags": {"amenity": "cafe", "name": "Lucas"}}, {"type": "node", "id": 6687944186, "lat": 39.5152547, "lon": 2.4833998, "tags": {"addr:housenumber": "94", "addr:postcode": "07183", "addr:street": "Avinguda del Rei Jaume I", "amenity": "restaurant", "cuisine": "sandwich;coffee_shop;breakfast", "diet:vegan": "yes", "diet:vegetarian": "yes", "name": "Vamos"}}, {"type": "node", "id": 6718358743, "lat": 39.5196932, "lon": 2.476448, "tags": {"amenity": "restaurant", "cuisine": "chinese", "name": "Hong Kong"}}, {"type": "node", "id": 6718358748, "lat": 39.5196193, "lon": 2.4754792, "tags": {"amenity": "cafe", "name": "Paco's"}}, {"type": "node", "id": 6718360992, "lat": 39.5195448, "lon": 2.4750475, "tags": {"amenity": "restaurant", "cuisine": "greek", "name": "Zorbas"}}, {"type": "node", "id": 6718360993, "lat": 39.5195262, "lon": 2.474782, "tags": {"amenity": "restaurant", "cuisine": "pizza", "name": "Tur\u00edn"}}, {"type": "node", "id": 6721631622, "lat": 39.509588, "lon": 2.5367048, "tags": {"amenity": "restaurant", "cuisine": "chinese", "name": "Lotus"}}, {"type": "node", "id": 6734683973, "lat": 39.527297, "lon": 2.5381556}, {"type": "node", "id": 6734683974, "lat": 39.527261, "lon": 2.5381004}, {"type": "node", "id": 6734683975, "lat": 39.5273358, "lon": 2.5380184}, {"type": "node", "id": 6734683976, "lat": 39.5274098, "lon": 2.5381318}, {"type": "node", "id": 6734683977, "lat": 39.5273625, "lon": 2.5381838}, {"type": "node", "id": 6734683978, "lat": 39.5273244, "lon": 2.5381255}, {"type": "node", "id": 6768376572, "lat": 39.5062493, "lon": 2.5331971, "tags": {"amenity": "restaurant", "cuisine": "pizza", "name": "Maxim's"}}, {"type": "node", "id": 6768539606, "lat": 39.5072004, "lon": 2.5338268, "tags": {"amenity": "restaurant", "name": "Alexandra"}}, {"type": "node", "id": 6768539608, "lat": 39.5079188, "lon": 2.5340596, "tags": {"amenity": "restaurant", "name": "Azul"}}, {"type": "node", "id": 6806158452, "lat": 39.5184903, "lon": 2.4810517, "tags": {"amenity": "cafe", "cuisine": "ice_cream", "name": "Milano", "takeaway": "yes"}}, {"type": "node", "id": 6806158453, "lat": 39.5185347, "lon": 2.4811664, "tags": {"amenity": "restaurant", "cuisine": "pizza", "name": "Pino", "outdoor_seating": "yes", "takeaway": "yes"}}, {"type": "node", "id": 6807679353, "lat": 39.5203066, "lon": 2.4731753, "tags": {"amenity": "restaurant", "cuisine": "barbecue", "level": "0", "name": "Manolo's", "outdoor_seating": "yes", "smoking": "outside"}}, {"type": "node", "id": 6807692888, "lat": 39.519073, "lon": 2.476742, "tags": {"amenity": "restaurant", "cuisine": "regional;international", "name": "Perseverantia", "outdoor_seating": "yes", "smoking": "outside", "wheelchair": "yes"}}, {"type": "node", "id": 6809396540, "lat": 39.5199946, "lon": 2.4715436, "tags": {"amenity": "cafe", "name": "Lucinda"}}, {"type": "node", "id": 6813724046, "lat": 39.5118896, "lon": 2.4675231, "tags": {"amenity": "restaurant", "name": "7 Fuegos", "outdoor_seating": "yes"}}, {"type": "node", "id": 6813810549, "lat": 39.51451, "lon": 2.482975, "tags": {"addr:housenumber": "4", "addr:street": "Pla\u00e7a de Santa Pon\u00e7a", "amenity": "restaurant", "cuisine": "pizza", "name": "A casa del Padrino", "outdoor_seating": "yes", "takeaway": "yes"}}, {"type": "node", "id": 6813922179, "lat": 39.5150056, "lon": 2.4833349, "tags": {"amenity": "restaurant", "name": "Quinta Esencia"}}, {"type": "node", "id": 6816035450, "lat": 39.5201523, "lon": 2.471904, "tags": {"amenity": "restaurant", "name": "La Solana", "name:ca": "La Solana", "opening_hours": "Th-Tu 12:30-14:30, 18:30-23:00", "outdoor_seating": "yes", "wheelchair": "yes"}}, {"type": "node", "id": 6816035451, "lat": 39.5211498, "lon": 2.4721402, "tags": {"amenity": "restaurant", "cuisine": "mexican;pizza", "level": "0", "name": "Frida Tako", "operator": "Il Vivo", "outdoor_seating": "yes", "wheelchair": "yes"}}, {"type": "node", "id": 6818323090, "lat": 39.5141542, "lon": 2.4833178, "tags": {"addr:housenumber": "4", "addr:street": "Gran Via del Puig de Massanella", "amenity": "restaurant", "brand": "BLOCK HOUSE", "brand:wikidata": "Q320430", "brand:wikipedia": "de:Block House", "changing_table": "yes", "changing_table:count": "1", "changing_table:fee": "no", "changing_table:location": "wheelchair_toilet", "cuisine": "steak_house", "level": "0", "name": "BLOCK HOUSE", "outdoor_seating": "yes", "phone": "+34 971594500", "smoking": "outside", "toilets": "yes", "toilets:access": "customers", "toilets:wheelchair": "yes", "wheelchair": "yes"}}, {"type": "node", "id": 6819441614, "lat": 39.519432, "lon": 2.4801779, "tags": {"amenity": "restaurant", "name": "Bloody Mary"}}, {"type": "node", "id": 6819445953, "lat": 39.5189636, "lon": 2.4771746, "tags": {"amenity": "restaurant", "name": "Las Olas"}}, {"type": "node", "id": 6820919073, "lat": 39.5213541, "lon": 2.4729233, "tags": {"amenity": "restaurant", "name": "Tapas Maniman"}}, {"type": "node", "id": 6831189832, "lat": 39.5209646, "lon": 2.4729056, "tags": {"amenity": "restaurant", "cuisine": "pizza;regional;barbecue;mediterranean;steak_house", "name": "Royal Garden", "outdoor_seating": "yes", "takeaway": "yes"}}, {"type": "node", "id": 6831196906, "lat": 39.5208123, "lon": 2.4721908, "tags": {"amenity": "restaurant", "cuisine": "pizza;ice_cream;burger;regional", "level": "0", "name": "Gino Ginelli II", "outdoor_seating": "yes", "takeaway": "yes"}}, {"type": "node", "id": 6835142838, "lat": 39.5195307, "lon": 2.46898, "tags": {"amenity": "restaurant", "cuisine": "regional;international", "delivery": "no", "level": "4", "name": "La Calma", "name:ca": "La Calma", "opening_hours": "07:30-10:30, 13:00-15:00, 18:30-21:30", "operator": "Iberostar", "outdoor_seating": "yes", "reservation": "no", "self_service": "yes", "toilets": "yes", "toilets:access": "yes", "toilets:wheelchair": "designated", "wheelchair": "yes"}}, {"type": "node", "id": 6835142839, "lat": 39.5195671, "lon": 2.4687114, "tags": {"amenity": "restaurant", "cuisine": "japanese", "internet_access": "wlan", "internet_access:fee": "no", "level": "4", "name": "Teppanyaki", "opening_hours": "Tu-Su 19:00-21:00", "operator": "Iberostar", "reservation": "required", "smoking": "no", "toilets:access": "customers", "toilets:wheelchair": "designated", "wheelchair": "yes"}}, {"type": "node", "id": 6840024784, "lat": 39.5192562, "lon": 2.4870992, "tags": {"amenity": "cafe", "name": "Puig Major", "name:ca": "Puig Major"}}, {"type": "node", "id": 6840115027, "lat": 39.5141984, "lon": 2.5371343, "tags": {"amenity": "restaurant", "cuisine": "chinese", "name": "Gran Muralla"}}, {"type": "node", "id": 6961489701, "lat": 39.5353288, "lon": 2.5717469, "tags": {"amenity": "restaurant", "name": "La Perla", "name:ca": "La Perla"}}, {"type": "node", "id": 7021250344, "lat": 39.5235115, "lon": 2.4739111, "tags": {"amenity": "restaurant", "name": "Can Cornut", "name:ca": "Can Cornut"}}, {"type": "node", "id": 7041783136, "lat": 39.5639927, "lon": 2.5050802, "tags": {"amenity": "cafe", "name": "Can Pau", "name:ca": "Can Pau"}}, {"type": "node", "id": 7130802612, "lat": 39.5281847, "lon": 2.5446057}, {"type": "node", "id": 7130802613, "lat": 39.5282043, "lon": 2.5450036}, {"type": "node", "id": 7130802614, "lat": 39.5280353, "lon": 2.5450176}, {"type": "node", "id": 7130802615, "lat": 39.5280157, "lon": 2.5446197}, {"type": "node", "id": 7130802618, "lat": 39.5273761, "lon": 2.5454453, "tags": {"amenity": "cafe", "name": "Paco y Mona"}}, {"type": "node", "id": 7130802619, "lat": 39.5273917, "lon": 2.5455262, "tags": {"amenity": "cafe", "name": "Rafalillos"}}, {"type": "node", "id": 7130802620, "lat": 39.5274142, "lon": 2.5456138, "tags": {"amenity": "restaurant", "cuisine": "pizza", "name": "Donato"}}, {"type": "node", "id": 7261803791, "lat": 39.6538687, "lon": 2.4809117, "tags": {"addr:city": "Estellencs", "addr:housenumber": "1", "addr:postcode": "07192", "addr:street": "carrer Vaquet", "amenity": "cafe", "name": "Sa Tanca", "name:ca": "Sa Tanca", "opening_hours": "Fr-Su 19:00-16:00+", "outdoor_seating": "yes", "phone": "+34971149123"}}, {"type": "node", "id": 7281001680, "lat": 39.5331858, "lon": 2.5667275, "tags": {"amenity": "restaurant", "name": "Ramshackle"}}, {"type": "node", "id": 7291202828, "lat": 39.5298346, "lon": 2.5096997, "tags": {"amenity": "cafe", "name": "Noray"}}, {"type": "node", "id": 7292362782, "lat": 39.5348836, "lon": 2.5729054}, {"type": "node", "id": 7362732199, "lat": 39.5222682, "lon": 2.5382585}, {"type": "node", "id": 7362732200, "lat": 39.52228, "lon": 2.5383909}, {"type": "node", "id": 7362732201, "lat": 39.5224155, "lon": 2.5383654}, {"type": "node", "id": 7362732202, "lat": 39.5224116, "lon": 2.538312}, {"type": "node", "id": 7362732203, "lat": 39.5225529, "lon": 2.5382827}, {"type": "node", "id": 7362732204, "lat": 39.5225436, "lon": 2.5382079}, {"type": "node", "id": 7362732205, "lat": 39.5225048, "lon": 2.5381592}, {"type": "node", "id": 7362732206, "lat": 39.5225058, "lon": 2.5381363}, {"type": "node", "id": 7362732207, "lat": 39.5224695, "lon": 2.5381402}, {"type": "node", "id": 7362732208, "lat": 39.5224655, "lon": 2.5381211}, {"type": "node", "id": 7362732209, "lat": 39.5224273, "lon": 2.5381249}, {"type": "node", "id": 7362732210, "lat": 39.5224253, "lon": 2.5380943}, {"type": "node", "id": 7362732211, "lat": 39.5223743, "lon": 2.5380994}, {"type": "node", "id": 7362732212, "lat": 39.5223595, "lon": 2.5381338}, {"type": "node", "id": 7362732213, "lat": 39.522281, "lon": 2.5382432}, {"type": "node", "id": 7362732214, "lat": 39.52255, "lon": 2.5381548}, {"type": "node", "id": 7362732215, "lat": 39.5225538, "lon": 2.5382067}, {"type": "node", "id": 7364526662, "lat": 39.5654419, "lon": 2.5047368}, {"type": "node", "id": 7364526663, "lat": 39.5654717, "lon": 2.504805}, {"type": "node", "id": 7364526664, "lat": 39.5654931, "lon": 2.5048805}, {"type": "node", "id": 7364526665, "lat": 39.5655704, "lon": 2.5048467}, {"type": "node", "id": 7364526666, "lat": 39.5656518, "lon": 2.5048328}, {"type": "node", "id": 7364526667, "lat": 39.5656244, "lon": 2.5047356}, {"type": "node", "id": 7364526668, "lat": 39.5655792, "lon": 2.5047585}, {"type": "node", "id": 7364526669, "lat": 39.5655578, "lon": 2.5046909}, {"type": "node", "id": 7364602911, "lat": 39.5662377, "lon": 2.5063644}, {"type": "node", "id": 7364602912, "lat": 39.5661719, "lon": 2.5065408}, {"type": "node", "id": 7364602913, "lat": 39.5661294, "lon": 2.5064329}, {"type": "node", "id": 7364602914, "lat": 39.5661823, "lon": 2.5063205}, {"type": "node", "id": 7364602918, "lat": 39.5661468, "lon": 2.505944}, {"type": "node", "id": 7364602919, "lat": 39.5660428, "lon": 2.5061182}, {"type": "node", "id": 7364602920, "lat": 39.5660021, "lon": 2.5059991}, {"type": "node", "id": 7364602921, "lat": 39.5661078, "lon": 2.5058429}, {"type": "node", "id": 7364602922, "lat": 39.5661693, "lon": 2.5059024}, {"type": "node", "id": 7364602925, "lat": 39.5660816, "lon": 2.5058816}, {"type": "node", "id": 7364602932, "lat": 39.5659137, "lon": 2.505572}, {"type": "node", "id": 7364602934, "lat": 39.5658612, "lon": 2.5056513}, {"type": "node", "id": 7364602935, "lat": 39.5657508, "lon": 2.5054866}, {"type": "node", "id": 7364602936, "lat": 39.5658704, "lon": 2.505381}, {"type": "node", "id": 7364602937, "lat": 39.5659527, "lon": 2.5055147}, {"type": "node", "id": 7364602938, "lat": 39.565813, "lon": 2.5055903}, {"type": "node", "id": 7385930047, "lat": 39.5634522, "lon": 2.5055178, "tags": {"amenity": "restaurant", "name": "Aromes"}}, {"type": "node", "id": 7399677260, "lat": 39.6531903, "lon": 2.481663}, {"type": "node", "id": 7399677261, "lat": 39.6531505, "lon": 2.4817066}, {"type": "node", "id": 7399677262, "lat": 39.6530614, "lon": 2.4815834}, {"type": "node", "id": 7399677263, "lat": 39.6530961, "lon": 2.4815338}, {"type": "node", "id": 7414302279, "lat": 39.5790505, "lon": 2.4696724}, {"type": "node", "id": 7414302280, "lat": 39.5791391, "lon": 2.4697554}, {"type": "node", "id": 7414302281, "lat": 39.5790801, "lon": 2.4698632}, {"type": "node", "id": 7414302282, "lat": 39.5789761, "lon": 2.4697678}, {"type": "node", "id": 7452509838, "lat": 39.5247019, "lon": 2.4745399, "tags": {"amenity": "restaurant", "cuisine": "pizza"}}, {"type": "node", "id": 7452692913, "lat": 39.5195723, "lon": 2.4848666}, {"type": "node", "id": 7452692914, "lat": 39.5197072, "lon": 2.4851166}, {"type": "node", "id": 7452692915, "lat": 39.5196187, "lon": 2.485197}, {"type": "node", "id": 7452692916, "lat": 39.5195008, "lon": 2.4849786}, {"type": "node", "id": 7452692917, "lat": 39.5195222, "lon": 2.4849592}, {"type": "node", "id": 7452692918, "lat": 39.5195051, "lon": 2.4849276}, {"type": "node", "id": 7473590453, "lat": 39.5106462, "lon": 2.5325047, "tags": {"amenity": "cafe", "name": "Carmelo"}}, {"type": "node", "id": 7553005730, "lat": 39.5359476, "lon": 2.4552233, "tags": {"amenity": "cafe", "cuisine": "ice_cream", "name": "Playa5"}}, {"type": "node", "id": 7600580147, "lat": 39.5357328, "lon": 2.4550281}, {"type": "node", "id": 7612221921, "lat": 39.5372071, "lon": 2.4475125, "tags": {"addr:city": "Paguera", "addr:housenumber": "17", "addr:postcode": "07160", "addr:street": "Bulevard de Peguera", "amenity": "restaurant", "contact:phone": "+34 971 685 673", "contact:website": "https://www.dolcevita-paguera-menu.com/", "cuisine": "seafood;pasta;pizza", "delivery": "yes", "name": "Pizzeria Dolce Vita", "opening_hours": "Mo-Su 11:00-15:00,18:00-24:00", "takeaway": "yes"}}, {"type": "node", "id": 7685135689, "lat": 39.5148979, "lon": 2.4803906, "tags": {"amenity": "restaurant", "name": "Beewi beach"}}, {"type": "node", "id": 7687553975, "lat": 39.5379943, "lon": 2.4445131}, {"type": "node", "id": 7687553976, "lat": 39.5379676, "lon": 2.4445745}, {"type": "node", "id": 7687553977, "lat": 39.5379377, "lon": 2.4443112}, {"type": "node", "id": 7687553978, "lat": 39.5379968, "lon": 2.4443546}, {"type": "node", "id": 7719766446, "lat": 39.6089087, "lon": 2.5054007}, {"type": "node", "id": 7719766447, "lat": 39.608551, "lon": 2.5053829}, {"type": "node", "id": 7719766448, "lat": 39.6087326, "lon": 2.5055574}, {"type": "node", "id": 7719766449, "lat": 39.6086862, "lon": 2.5055813}, {"type": "node", "id": 7719766450, "lat": 39.6086424, "lon": 2.5054384}, {"type": "node", "id": 7719766451, "lat": 39.6085781, "lon": 2.5054715}, {"type": "node", "id": 7719766452, "lat": 39.6090484, "lon": 2.5055954}, {"type": "node", "id": 7719766453, "lat": 39.6090066, "lon": 2.5056497}, {"type": "node", "id": 7719766454, "lat": 39.6089465, "lon": 2.5055621}, {"type": "node", "id": 7719766455, "lat": 39.6089039, "lon": 2.5056103}, {"type": "node", "id": 7719766456, "lat": 39.60886, "lon": 2.5055533}, {"type": "node", "id": 7719766457, "lat": 39.6088411, "lon": 2.5055726}, {"type": "node", "id": 7719766458, "lat": 39.6087533, "lon": 2.5054428}, {"type": "node", "id": 7719766459, "lat": 39.6086617, "lon": 2.5053258}, {"type": "node", "id": 7719766460, "lat": 39.6087165, "lon": 2.5055049}, {"type": "node", "id": 7782049685, "lat": 39.521283, "lon": 2.4729042, "tags": {"amenity": "restaurant", "name": "Maniman"}}, {"type": "node", "id": 7792510288, "lat": 39.5117708, "lon": 2.4741479, "tags": {"amenity": "restaurant", "name": "La Caleta", "name:ca": "La Caleta"}}, {"type": "node", "id": 7839606527, "lat": 39.6871019, "lon": 2.5142403}, {"type": "node", "id": 7839606528, "lat": 39.6870475, "lon": 2.5142544}, {"type": "node", "id": 7839606529, "lat": 39.6870775, "lon": 2.5144066}, {"type": "node", "id": 7839606530, "lat": 39.687116, "lon": 2.5143992}, {"type": "node", "id": 7839606531, "lat": 39.6871102, "lon": 2.5143459}, {"type": "node", "id": 7839606532, "lat": 39.6871211, "lon": 2.5143418}, {"type": "node", "id": 7839606533, "lat": 39.6871313, "lon": 2.5143967}, {"type": "node", "id": 7839606534, "lat": 39.6871614, "lon": 2.5143908}, {"type": "node", "id": 7839606535, "lat": 39.6871281, "lon": 2.5142835}, {"type": "node", "id": 7839606536, "lat": 39.6871025, "lon": 2.5142844}, {"type": "node", "id": 7839627961, "lat": 39.6876847, "lon": 2.5150164, "tags": {"amenity": "restaurant", "cuisine": "pizza", "name": "Din\u00e0mics"}}, {"type": "node", "id": 7840105929, "lat": 39.6864468, "lon": 2.512886}, {"type": "node", "id": 8049985352, "lat": 39.5320458, "lon": 2.5600165}, {"type": "node", "id": 8074281590, "lat": 39.5193095, "lon": 2.4793555, "tags": {"amenity": "cafe", "name": "Carlos III"}}, {"type": "node", "id": 8074363289, "lat": 39.519314, "lon": 2.4784354, "tags": {"amenity": "cafe", "name": "South Wind"}}, {"type": "node", "id": 8074363315, "lat": 39.5190778, "lon": 2.4782825, "tags": {"amenity": "cafe", "name": "The Rising sun"}}, {"type": "node", "id": 8106191207, "lat": 39.5358977, "lon": 2.5709235, "tags": {"amenity": "restaurant", "cuisine": "steak_house", "name": "Moo Moo's"}}, {"type": "node", "id": 8221722035, "lat": 39.5339048, "lon": 2.5664714, "tags": {"amenity": "restaurant"}}, {"type": "node", "id": 8268641600, "lat": 39.5135076, "lon": 2.5373645, "tags": {"amenity": "cafe", "name": "Pablo"}}, {"type": "node", "id": 8408028063, "lat": 39.5604762, "lon": 2.4014527}, {"type": "node", "id": 8408028064, "lat": 39.5605873, "lon": 2.4015637}, {"type": "node", "id": 8408028065, "lat": 39.5605951, "lon": 2.4015565}, {"type": "node", "id": 8408028066, "lat": 39.5606495, "lon": 2.4016069}, {"type": "node", "id": 8408028067, "lat": 39.5606285, "lon": 2.4016446}, {"type": "node", "id": 8408028068, "lat": 39.5606085, "lon": 2.4016303}, {"type": "node", "id": 8408028069, "lat": 39.5605244, "lon": 2.4017549}, {"type": "node", "id": 8408028070, "lat": 39.5604133, "lon": 2.4016497}, {"type": "node", "id": 8408028071, "lat": 39.5604092, "lon": 2.4015627}, {"type": "node", "id": 8514426887, "lat": 39.5114436, "lon": 2.5305107, "tags": {"amenity": "cafe"}}, {"type": "node", "id": 8637661789, "lat": 39.5651962, "lon": 2.5043339, "tags": {"amenity": "cafe", "name": "Sa Societat"}}, {"type": "node", "id": 8675632960, "lat": 39.687722, "lon": 2.5148354, "tags": {"amenity": "cafe", "name": "Bellavista", "name:ca": "Bellavista"}}, {"type": "node", "id": 8675997727, "lat": 39.6874936, "lon": 2.5145948, "tags": {"amenity": "restaurant", "name": "Es Trast"}}, {"type": "node", "id": 8778952805, "lat": 39.5638122, "lon": 2.5042657}, {"type": "node", "id": 8815900183, "lat": 39.5118297, "lon": 2.5391241, "tags": {"amenity": "restaurant", "name": "El Salm\u00f3n"}}, {"type": "node", "id": 8815982739, "lat": 39.5120699, "lon": 2.538973, "tags": {"amenity": "restaurant", "cuisine": "indian", "name": "Haweli"}}, {"type": "node", "id": 8882234155, "lat": 39.5232517, "lon": 2.5381667, "tags": {"amenity": "cafe", "name": "Miramar", "name:ca": "Miramar"}}, {"type": "node", "id": 8882234157, "lat": 39.523396, "lon": 2.538257, "tags": {"amenity": "restaurant", "name": "La Colmena"}}, {"type": "node", "id": 8882248731, "lat": 39.5229388, "lon": 2.5379607}, {"type": "node", "id": 8882248732, "lat": 39.5229155, "lon": 2.5380679}, {"type": "node", "id": 8882248733, "lat": 39.5226922, "lon": 2.5379865}, {"type": "node", "id": 8882248734, "lat": 39.5227155, "lon": 2.5378793}, {"type": "node", "id": 8936529717, "lat": 39.5315433, "lon": 2.5685053, "tags": {"amenity": "restaurant", "name": "diablito"}}, {"type": "node", "id": 8955197182, "lat": 39.6082746, "lon": 2.5037535}, {"type": "node", "id": 8955197183, "lat": 39.6082125, "lon": 2.5038108}, {"type": "node", "id": 8955197184, "lat": 39.608189, "lon": 2.503768}, {"type": "node", "id": 8955197185, "lat": 39.6082129, "lon": 2.503746}, {"type": "node", "id": 8955197186, "lat": 39.6081304, "lon": 2.5035955}, {"type": "node", "id": 8955197187, "lat": 39.6082029, "lon": 2.5035286}, {"type": "node", "id": 8955197188, "lat": 39.6082389, "lon": 2.5035942}, {"type": "node", "id": 8955197189, "lat": 39.6082249, "lon": 2.5036072}, {"type": "node", "id": 8955197190, "lat": 39.6082724, "lon": 2.5036938}, {"type": "node", "id": 8955197191, "lat": 39.6082521, "lon": 2.5037125}, {"type": "node", "id": 9033278417, "lat": 39.5204369, "lon": 2.4729922, "tags": {"amenity": "restaurant", "name:en": "El Jardin"}}, {"type": "node", "id": 9225561553, "lat": 39.6873471, "lon": 2.5138797, "tags": {"amenity": "restaurant", "contact:facebook": "https://www.facebook.com/Pegas%C3%B3n-Restaurante-Bar-101119742235875/", "name": "Pegas\u00f3n Restaurante Bar", "phone": "+34 688 63 78 08"}}, {"type": "node", "id": 9418015914, "lat": 39.5036279, "lon": 2.5175389}, {"type": "node", "id": 9418015915, "lat": 39.5035419, "lon": 2.5174439}, {"type": "node", "id": 9418015916, "lat": 39.5034333, "lon": 2.5176396}, {"type": "node", "id": 9418052317, "lat": 39.503505, "lon": 2.5177169}, {"type": "node", "id": 9433554872, "lat": 39.5034851, "lon": 2.5175392}, {"type": "node", "id": 9433554876, "lat": 39.5034563, "lon": 2.5175949}, {"type": "node", "id": 9585456011, "lat": 39.5350176, "lon": 2.5717373, "tags": {"amenity": "restaurant", "cuisine": "italian", "name": "La Veranda"}}, {"type": "node", "id": 9602347923, "lat": 39.5135896, "lon": 2.4789516, "tags": {"amenity": "restaurant", "name": "Mercader del Mar"}}, {"type": "node", "id": 9635324213, "lat": 39.5062301, "lon": 2.5337065, "tags": {"amenity": "restaurant", "name": "El Balc\u00f3n"}}, {"type": "node", "id": 9635384787, "lat": 39.5054911, "lon": 2.5332089, "tags": {"amenity": "restaurant", "name": "Titanic"}}, {"type": "node", "id": 9635458651, "lat": 39.5091759, "lon": 2.5374281, "tags": {"amenity": "restaurant", "name": "Oceans"}}, {"type": "node", "id": 9635481560, "lat": 39.5096261, "lon": 2.5356455}, {"type": "node", "id": 9635481561, "lat": 39.5095863, "lon": 2.5354445}, {"type": "node", "id": 9635491935, "lat": 39.5249249, "lon": 2.5396113, "tags": {"amenity": "restaurant", "cuisine": "noodle", "name": "Sakana"}}, {"type": "node", "id": 9635509739, "lat": 39.5172926, "lon": 2.5365453, "tags": {"amenity": "restaurant", "name": "Barbuda"}}, {"type": "node", "id": 9635537808, "lat": 39.5218272, "lon": 2.5372877, "tags": {"amenity": "restaurant", "name": "Natur Poke"}}, {"type": "node", "id": 9756432417, "lat": 39.5178358, "lon": 2.4860572, "tags": {"amenity": "restaurant", "cuisine": "spanish", "name": "Can perico"}}, {"type": "node", "id": 9828266792, "lat": 39.5382102, "lon": 2.450641, "tags": {"amenity": "cafe", "cuisine": "german", "name": "Alpenstube", "opening_hours": "Mo-Su 11:00-22:00"}}, {"type": "node", "id": 10018079138, "lat": 39.5027758, "lon": 2.5301325, "tags": {"amenity": "cafe", "name": "Happy Garden"}}, {"type": "node", "id": 10094749118, "lat": 39.6528593, "lon": 2.4812314}, {"type": "node", "id": 10094749119, "lat": 39.6528441, "lon": 2.4812562}, {"type": "node", "id": 10120565511, "lat": 39.5090719, "lon": 2.5348143, "tags": {"amenity": "restaurant", "name": "Emporiyum"}}, {"type": "node", "id": 10147934538, "lat": 39.5320052, "lon": 2.5724822, "tags": {"amenity": "cafe"}}, {"type": "node", "id": 10220255225, "lat": 39.5351001, "lon": 2.5729937}, {"type": "node", "id": 10220255226, "lat": 39.5352052, "lon": 2.5730215}, {"type": "node", "id": 10220255227, "lat": 39.5351987, "lon": 2.5730641}, {"type": "node", "id": 10220255228, "lat": 39.5350935, "lon": 2.5730341}, {"type": "node", "id": 10220255229, "lat": 39.5351922, "lon": 2.5731056}, {"type": "node", "id": 10220255230, "lat": 39.5350869, "lon": 2.5730751}, {"type": "node", "id": 10220255231, "lat": 39.5351866, "lon": 2.5731434}, {"type": "node", "id": 10220255232, "lat": 39.5350796, "lon": 2.5731134}, {"type": "node", "id": 10594407700, "lat": 39.566102, "lon": 2.50635}, {"type": "node", "id": 10594407701, "lat": 39.5661886, "lon": 2.506159}, {"type": "node", "id": 10594407702, "lat": 39.5661518, "lon": 2.5061267}, {"type": "node", "id": 10594407703, "lat": 39.5661453, "lon": 2.5061408}, {"type": "node", "id": 10594407704, "lat": 39.5661323, "lon": 2.5061323}, {"type": "node", "id": 10594439805, "lat": 39.5660652, "lon": 2.5062503}, {"type": "node", "id": 10899486388, "lat": 39.5319638, "lon": 2.5631695}, {"type": "node", "id": 10963387718, "lat": 39.5318832, "lon": 2.4374732, "tags": {"amenity": "restaurant", "name": "Na Sarnada"}}, {"type": "node", "id": 11141863531, "lat": 39.5330581, "lon": 2.5624369}, {"type": "node", "id": 11141863532, "lat": 39.5331076, "lon": 2.5624455}, {"type": "node", "id": 11141863533, "lat": 39.5331006, "lon": 2.5625131}, {"type": "node", "id": 11141863534, "lat": 39.5330511, "lon": 2.5625045}, {"type": "node", "id": 11141863535, "lat": 39.5322643, "lon": 2.5629675}, {"type": "node", "id": 11141863536, "lat": 39.5322296, "lon": 2.5631064}, {"type": "node", "id": 11141863537, "lat": 39.5322898, "lon": 2.5631315}, {"type": "node", "id": 11141863538, "lat": 39.53225, "lon": 2.5632743}, {"type": "node", "id": 11141863539, "lat": 39.5319746, "lon": 2.5631421}, {"type": "node", "id": 11141863540, "lat": 39.5320613, "lon": 2.5631394}, {"type": "node", "id": 11141863541, "lat": 39.5321317, "lon": 2.5631011}, {"type": "node", "id": 11141863542, "lat": 39.5321786, "lon": 2.5629304}, {"type": "node", "id": 11195201514, "lat": 39.5112156, "lon": 2.5434266, "tags": {"amenity": "cafe", "name": "Bristol"}}, {"type": "node", "id": 11352278457, "lat": 39.5290072, "lon": 2.545713, "tags": {"amenity": "cafe"}}, {"type": "node", "id": 11523846503, "lat": 39.5357308, "lon": 2.5710039, "tags": {"amenity": "restaurant", "cuisine": "indian", "name": "Taj Mahal"}}, {"type": "node", "id": 11523846510, "lat": 39.5356756, "lon": 2.5710812, "tags": {"amenity": "restaurant", "cuisine": "pizza", "name": "Vivaldi"}}, {"type": "node", "id": 11523846512, "lat": 39.5354286, "lon": 2.5709428, "tags": {"amenity": "cafe", "name": "The Ship"}}, {"type": "node", "id": 11523846513, "lat": 39.5355628, "lon": 2.5712257, "tags": {"amenity": "restaurant", "cuisine": "pizza", "name": "Il Tano"}}, {"type": "node", "id": 11523846517, "lat": 39.5354383, "lon": 2.5714707, "tags": {"amenity": "cafe", "name": "La R\u00faa"}}, {"type": "node", "id": 11523846518, "lat": 39.5354631, "lon": 2.571419, "tags": {"amenity": "cafe", "name": "Cocos"}}, {"type": "node", "id": 11523846522, "lat": 39.5352933, "lon": 2.5722608, "tags": {"amenity": "cafe", "name": "Med bar"}}, {"type": "node", "id": 11523846524, "lat": 39.5349782, "lon": 2.5726282, "tags": {"amenity": "cafe", "name": "Rude"}}, {"type": "node", "id": 11540128491, "lat": 39.535238, "lon": 2.573945}, {"type": "node", "id": 11540128492, "lat": 39.5352368, "lon": 2.5739086}, {"type": "node", "id": 11543824889, "lat": 39.5354663, "lon": 2.5730044, "tags": {"amenity": "restaurant", "name": "Peras & Pears"}}, {"type": "node", "id": 11767426454, "lat": 39.5795202, "lon": 2.4700256}, {"type": "node", "id": 11767426455, "lat": 39.5793442, "lon": 2.4703307}, {"type": "node", "id": 11767426456, "lat": 39.579288, "lon": 2.4702647}, {"type": "node", "id": 11767426457, "lat": 39.5793827, "lon": 2.4701317}, {"type": "node", "id": 11767426458, "lat": 39.5793954, "lon": 2.4701412}, {"type": "node", "id": 11767426459, "lat": 39.5794365, "lon": 2.4700716}, {"type": "node", "id": 11897074269, "lat": 39.5171266, "lon": 2.4845344, "tags": {"addr:housenumber": "6", "addr:postcode": "07180", "addr:street": "gran via del Puig des Teix", "amenity": "restaurant", "contact:facebook": "asadorpurofuego", "cuisine": "fish;grill;seafood;steak_house", "email": "asadorpurofuego@gmail.com", "name": "Asador Marisquer\u00eda Puro Fuego", "phone": "+34674676222"}}, {"type": "node", "id": 11954651909, "lat": 39.4967813, "lon": 2.4749658, "tags": {"addr:city": "Santa Pon\u00e7a", "addr:housenumber": "5", "addr:postcode": "07180", "addr:street": "Carrer de Chopin", "addr:unit": "2", "amenity": "restaurant", "cuisine": "smoothies;bowls;pancake;sandwich;tapas", "name": "Donna Vegana", "phone": "+34871177065", "website": "https://www.donnavegana.com/"}}, {"type": "node", "id": 12072450568, "lat": 39.5757383, "lon": 2.4212534, "tags": {"amenity": "restaurant", "cuisine": "chinese", "name": "Hong Kong"}}, {"type": "node", "id": 12260800915, "lat": 39.6874814, "lon": 2.514258, "tags": {"addr:city": "Banyalbufar", "addr:postcode": "07191", "amenity": "restaurant", "contact:instagram": "https://instagram.com/el_bodegondeluis", "name": "El Bodegon de Luis", "phone": "+34602648924"}}, {"type": "node", "id": 12351414032, "lat": 39.5062357, "lon": 2.5338921, "tags": {"amenity": "restaurant", "bar": "yes", "check_date": "2024-10-28", "cuisine": "british", "diet:vegan": "yes", "name": "Tom Browns"}}, {"type": "node", "id": 12363544061, "lat": 39.5190799, "lon": 2.5350701, "tags": {"amenity": "restaurant", "cuisine": "pizza", "name": "Il Tano"}}, {"type": "node", "id": 12368957876, "lat": 39.5752013, "lon": 2.4197914}, {"type": "node", "id": 12368957877, "lat": 39.5753212, "lon": 2.4197418}, {"type": "node", "id": 12368957878, "lat": 39.5753496, "lon": 2.4198533}, {"type": "node", "id": 12368957879, "lat": 39.5752289, "lon": 2.4199051}, {"type": "node", "id": 12368957880, "lat": 39.575173, "lon": 2.4196814}, {"type": "node", "id": 12368957881, "lat": 39.5752533, "lon": 2.4196466}, {"type": "node", "id": 12368957882, "lat": 39.5752646, "lon": 2.4196902}, {"type": "node", "id": 12368957883, "lat": 39.5752313, "lon": 2.4197046}, {"type": "node", "id": 12368957884, "lat": 39.5752484, "lon": 2.419771}, {"type": "node", "id": 12533688512, "lat": 39.5244296, "lon": 2.539411, "tags": {"addr:city": "Palmanova", "addr:housenumber": "12", "addr:postcode": "07181", "addr:street": "Passeig de la Mar", "addr:unit": "Local 7", "amenity": "restaurant", "contact:facebook": "https://www.facebook.com/people/Oceana-Restaurant-Bar-Palma-Nova/61557305501219/", "cuisine": "american;fish_and_chips;italian;mexican;mediterranean", "name": "Oceana restaurant and bar", "opening_hours": "Tu-Su 10:00-01:00", "phone": "+34 971 41 77 23"}}, {"type": "node", "id": 12714016101, "lat": 39.6218965, "lon": 2.5277399, "tags": {"amenity": "restaurant", "name": "Mercat Tramuntana"}}, {"type": "node", "id": 12750081308, "lat": 39.5394453, "lon": 2.4225717, "tags": {"amenity": "restaurant", "name": "El Quijote"}}, {"type": "node", "id": 12753675565, "lat": 39.5378255, "lon": 2.4235951, "tags": {"amenity": "restaurant", "cuisine": "sushi", "name": "Maria 5 Beach"}}, {"type": "node", "id": 12758742074, "lat": 39.5231098, "lon": 2.4737914, "tags": {"amenity": "cafe"}}, {"type": "node", "id": 12850653925, "lat": 39.5357098, "lon": 2.4591351, "tags": {"addr:housenumber": "5", "addr:street": "Carrer d'Isaac Alb\u00e9niz", "amenity": "restaurant", "name": "El Galeon Taberna", "phone": "+34 971 59 64 13", "website": "https://www.facebook.com/tabernaelgaleon/"}}, {"type": "way", "id": 52459983, "nodes": [666950724, 666950730, 666950729, 666950720, 666950721, 666950724], "tags": {"addr:housenumber": "1", "addr:postcode": "07160", "addr:street": "Passeig de la Platja Gran", "amenity": "restaurant", "building": "yes", "cuisine": "regional", "name": "Petit Ambassador", "website": "www.petitambassador.cm"}}, {"type": "way", "id": 52509672, "nodes": [667342341, 667342342, 2262747782, 2262747781, 2776979780, 667342340, 667342341], "tags": {"addr:housenumber": "10", "addr:postcode": "07160", "addr:street": "Carrer del Mar", "amenity": "restaurant", "building": "yes", "cuisine": "regional", "name": "Tor\u00e0", "name:ca": "Tor\u00e0"}}, {"type": "way", "id": 52513189, "nodes": [667376472, 667376479, 667376480, 667376473, 667376474, 667376472], "tags": {"amenity": "restaurant", "building": "yes", "check_date": "2024-07-12", "cuisine": "regional", "name": "Luna 81", "wheelchair": "limited"}}, {"type": "way", "id": 80735378, "nodes": [941550431, 941550390, 941550408, 941550459, 941550481, 941550398, 941550425, 941550467, 941550388, 941550405, 941550438, 941550478, 941550431], "tags": {"amenity": "restaurant", "building": "yes", "name": "Campino"}}, {"type": "way", "id": 183313560, "nodes": [1936806600, 1936806604, 1936806693, 1936806638, 1936806600], "tags": {"amenity": "restaurant", "building": "yes", "name": "Platja d'El Toro"}}, {"type": "way", "id": 204780493, "nodes": [2147558652, 2147558648, 2147558646, 2147558650, 2147558652], "tags": {"amenity": "restaurant", "building": "yes", "name": "el Olivo"}}, {"type": "way", "id": 208744478, "nodes": [2190039633, 2190039635, 2190039605, 2190039604, 2190039633], "tags": {"addr:city": "Costa de la Calma", "addr:country": "ES", "addr:housenumber": "57", "addr:street": "Avenida del Mar", "amenity": "restaurant", "building": "yes", "name": "Can Tom\u00e0s", "name:ca": "Can Tom\u00e0s"}}, {"type": "way", "id": 209285607, "nodes": [2195069965, 2195069959, 2195069961, 2195069958, 2195069954, 2195069950, 2195069949, 2195069956, 2195069965], "tags": {"amenity": "restaurant", "building": "yes", "name": "Siglo XXI"}}, {"type": "way", "id": 217757978, "nodes": [2270578623, 2270578618, 2270578617, 2270578606, 2270578602, 2270578600, 2270578594, 2270578596, 2270578590, 2270578612, 2270578619, 2270578622, 2270578621, 2270578623], "tags": {"amenity": "restaurant", "building": "yes", "name": "Can Paco", "name:ca": "Can Paco"}}, {"type": "way", "id": 236041010, "nodes": [2441164541, 2441164533, 2441164532, 2441164529, 2441164528, 2441164540, 2441164541], "tags": {"addr:city": "Costa de la Calma", "addr:country": "ES", "addr:housenumber": "30", "addr:postcode": "07183", "addr:street": "Avinguda del Mar", "amenity": "restaurant", "building": "yes", "name": "El Ma\u00f1o"}}, {"type": "way", "id": 239564372, "nodes": [2473417486, 2473417487, 2473417488, 2473417485, 2473417486], "tags": {"amenity": "restaurant", "building": "terrace"}}, {"type": "way", "id": 239579657, "nodes": [2473594808, 2473594804, 2473594801, 7600580147, 2473594808], "tags": {"addr:housenumber": "5", "addr:postcode": "07160", "addr:street": "Carrer del Mar", "amenity": "restaurant", "building": "yes", "cuisine": "international", "name": "Playa5"}}, {"type": "way", "id": 286896715, "nodes": [2905732106, 2905732107, 2905732105, 2905732104, 2905732106], "tags": {"amenity": "restaurant", "building": "yes", "name": "Flor de Sal", "name:ca": "Flor de Sal", "opening_hours": "Mo-Su,PH 13:00-22:00"}}, {"type": "way", "id": 290487287, "nodes": [2940185010, 6182175651, 2940185011, 7840105929, 2940185012, 2940185013, 2940185010], "tags": {"amenity": "restaurant", "building": "yes", "name": "Son Tom\u00e0s"}}, {"type": "way", "id": 303201928, "nodes": [3075420580, 3075420599, 7687553975, 7687553976, 3075420579, 7687553977, 7687553978, 3075420603, 3075420578, 3075420600, 3075420580], "tags": {"addr:city": "Paguera", "addr:housenumber": "5", "addr:postcode": "07160", "addr:street": "Carrer Olivera", "amenity": "restaurant", "building": "yes", "name": "Casa R\u00fastica", "opening_hours": "Mo-Sa 13:30-15:30,18:30-23:00"}}, {"type": "way", "id": 303424083, "nodes": [3077840118, 3077839871, 3077840028, 3077839954, 3077840408, 3077840381, 3077840006, 3077840388, 3077839990, 3077840322, 3077840118], "tags": {"amenity": "restaurant", "building": "yes", "name": "el Moncayo"}}, {"type": "way", "id": 303424090, "nodes": [3077840302, 3077840297, 3077840295, 3077839944, 3077840302], "tags": {"addr:city": "Peguera", "addr:housenumber": "4", "addr:postcode": "07160", "addr:street": "Carrer de Mallorca", "amenity": "restaurant", "building": "yes", "cuisine": "international", "name": "Le Plaza", "opening_hours": "13:00-16:30,18:30-23:00"}}, {"type": "way", "id": 303911095, "nodes": [3084203154, 3084202825, 3084202534, 3084202767, 3084202805, 3084203154], "tags": {"addr:city": "Peguera", "addr:housenumber": "16", "addr:postcode": "07160", "addr:street": "Carrer de la Talaia", "amenity": "restaurant", "building": "yes", "name": "El Para\u00edso", "opening_hours": "PH,Fr-We 18:00+"}}, {"type": "way", "id": 329939145, "nodes": [3368900596, 3368899801, 3368900694, 3368898902, 3368900596], "tags": {"addr:city": "Costa de la Calma", "addr:country": "ES", "addr:housenumber": "4", "addr:postcode": "07183", "addr:street": "Carrer Santa Pon\u00e7a", "amenity": "restaurant", "building": "yes", "cuisine": "barbecue;argentinian", "level": "0", "name": "La Porte\u00f1a", "opening_hours": "Mo-Sa 18:00-24:00; Su 13:00-16:00, 18:00-24:00", "outdoor_seating": "yes", "phone": "+34 971 074 156; +34 609 839040; + 34 627 620949", "website": "www.laportenia.net"}}, {"type": "way", "id": 330419442, "nodes": [3373787903, 3373787904, 3373787905, 3373787906, 3373787907, 3373787908, 3373787909, 3373787910, 3373787911, 3373787912, 3373787913, 3373787914, 3373787915, 3373787916, 3373787917, 3373787918, 3373787919, 3373787920, 3373787921, 3373787922, 3373787923, 3373787924, 3373787925, 8049985352, 3373787926, 3373787927, 3373787928, 3373787929, 3373787930, 3373787903], "tags": {"amenity": "restaurant", "building": "yes", "name": "UM BEACH HOUSE"}}, {"type": "way", "id": 339379765, "nodes": [3465653921, 3465653922, 3465653923, 3465653924, 3465653921], "tags": {"amenity": "restaurant", "building": "yes", "name": "Can Caliu", "name:ca": "Can Caliu"}}, {"type": "way", "id": 347384240, "nodes": [3537172576, 3537172577, 3537172554, 3537172578, 3537172579, 3537172580, 3537172581, 3537172576], "tags": {"addr:city": "Santa Pon\u00e7a", "addr:housenumber": "92", "addr:postcode": "07180", "addr:street": "Avinguda Rei Jaume I", "amenity": "restaurant", "building": "yes", "name": "Sargantana"}}, {"type": "way", "id": 347648670, "nodes": [3538922461, 3538922457, 3538922453, 3538922455, 3538922459, 3538922463, 3538922473, 3538922479, 3538922482, 3538922488, 3538922491, 3538922489, 3538922484, 3538922480, 3538922477, 3538922466, 3538922461], "tags": {"amenity": "restaurant", "building": "yes", "cuisine": "italian", "internet_access": "no", "name": "Modigliani", "outdoor_seating": "yes"}}, {"type": "way", "id": 353795042, "nodes": [3596012568, 3596012569, 3596012570, 3596012571, 11540128492, 11540128491, 3596012568], "tags": {"amenity": "restaurant", "building": "yes", "cuisine": "pizza", "name": "La \u00d3pera"}}, {"type": "way", "id": 370447501, "nodes": [3741461641, 3741461642, 3741461643, 3741461644, 3741461641], "tags": {"amenity": "restaurant", "building": "yes", "name": "Es Grau", "name:ca": "Es Grau", "opening_hours": "10:00-18:00; Th off", "phone": "+34 971 183769"}}, {"type": "way", "id": 380564058, "nodes": [3838850413, 3838850414, 3838850415, 3838850416, 3838850417, 3838850418, 3838850419, 3838850420, 3838850413], "tags": {"amenity": "restaurant", "building": "yes", "internet_access": "wlan", "name": "Amadip Esment", "name:en": "Esment Caf\u00e9 Palmanova", "name:es": "Esment Caf\u00e9 Palmanova", "opening_hours": "Mo-Fr 08:30-17:30; Sa-Su 09:00-17:30", "phone": "+34 971 59 73 00", "website": "https://esment.org"}}, {"type": "way", "id": 400679254, "nodes": [4032149077, 8778952805, 4032149078, 4032149079, 4032149080, 4032149077], "tags": {"amenity": "restaurant", "building": "yes", "name": "Ca na Cuc\u00f3"}}, {"type": "way", "id": 401968035, "nodes": [4043762702, 4043762703, 4043762704, 4043762705, 7292362782, 4043762706, 4043762702], "tags": {"amenity": "restaurant", "building": "yes", "name": "Chameli's"}}, {"type": "way", "id": 401971812, "nodes": [4043805387, 4043805388, 4043806689, 4043806690, 4043805387], "tags": {"amenity": "restaurant", "building": "yes", "name": "H\u00e9roes"}}, {"type": "way", "id": 429070145, "nodes": [4281938184, 4281938185, 4281938186, 4281938187, 4281938184], "tags": {"amenity": "restaurant", "building": "yes", "cuisine": "pizza", "name": "Viceroy's"}}, {"type": "way", "id": 446578203, "nodes": [4438215641, 4438215642, 4438215643, 4438215644, 4438215641], "tags": {"amenity": "restaurant", "building": "yes", "name": "Mes\u00f3n del Rey"}}, {"type": "way", "id": 447780473, "nodes": [4466425226, 4466425227, 4466425228, 4466425229, 4466425230, 4466425231, 4448456315, 4448456310, 4448456326, 4466425219, 4466425220, 4466425221, 4466425222, 4466425223, 4466425224, 4466425225, 4448456303, 4448456319, 4448456307, 4466425226], "tags": {"amenity": "cafe", "building": "yes", "building:levels": "1"}}, {"type": "way", "id": 459069874, "nodes": [4549858526, 4549858527, 4549858528, 4549858529, 4549858530, 4549858531, 4549858526], "tags": {"amenity": "restaurant", "building": "yes", "name": "Birdie"}}, {"type": "way", "id": 460031292, "nodes": [4557195435, 4557195436, 9635481561, 9635481560, 4557195437, 4557195438, 4557195435], "tags": {"amenity": "restaurant", "building": "yes", "cuisine": "chinese", "name": "Magaluf"}}, {"type": "way", "id": 460046638, "nodes": [4557338802, 4557338803, 4557338804, 4557338805, 4557338802], "tags": {"amenity": "restaurant", "building": "yes", "name": "las Palmeras"}}, {"type": "way", "id": 461896105, "nodes": [4573332392, 4573332404, 4573332393, 4573332394, 4573332395, 4573332396, 4573332397, 4573332398, 4573332399, 4573332400, 4573332401, 4573332402, 4573332403, 4573332392], "tags": {"amenity": "restaurant", "building": "yes", "name": "Blackbeard\u00b4s"}}, {"type": "way", "id": 642701371, "nodes": [2535126240, 6049850524, 6049850523, 2620278674, 2620278675, 4540840462, 6049850522, 2535126240], "tags": {"amenity": "restaurant", "cuisine": "regional", "name": "La Romana", "name:ca": "La Romana", "opening_hours": "10:00-15:00,18:00-22:00; Mo off", "opening_hours:kitchen": "11:00-15:00,18:30-21:30; Mo off", "outdoor_seating": "yes", "phone": "+34 971 687751", "website": "https://www.la-romana.es/"}}, {"type": "way", "id": 685111254, "nodes": [6419542082, 6419542083, 6419542084, 6419550285, 6419542082], "tags": {"addr:city": "es Capdell\u00e0", "addr:housenumber": "53", "addr:postcode": "07196", "addr:street": "Carrer de les Platges", "amenity": "restaurant", "building": "yes", "name": "es Mol\u00ed", "name:ca": "es Mol\u00ed", "opening_hours": "Tu-Su 07:30-23:00", "outdoor_seating": "yes", "phone": "+34 971 23 31 65"}}, {"type": "way", "id": 717063034, "nodes": [6734683973, 6734683974, 6734683975, 6734683976, 6734683977, 6734683978, 6734683973], "tags": {"amenity": "restaurant", "building": "yes"}}, {"type": "way", "id": 763093287, "nodes": [7130802612, 7130802613, 7130802614, 7130802615, 7130802612], "tags": {"amenity": "restaurant", "building": "yes", "name": "Son Caliu", "name:ca": "Son Caliu"}}, {"type": "way", "id": 787480919, "nodes": [7362732199, 7362732200, 7362732201, 7362732202, 7362732203, 7362732204, 7362732215, 7362732214, 7362732205, 7362732206, 7362732207, 7362732208, 7362732209, 7362732210, 7362732211, 7362732212, 7362732213, 7362732199], "tags": {"addr:city": "Calvi\u00e0", "addr:housenumber": "3", "addr:street": "Passeig de la Mar", "amenity": "restaurant", "building": "yes", "name": "Ciro's", "phone": "+34 971 68 10 52"}}, {"type": "way", "id": 787667556, "nodes": [7364526662, 7364526663, 7364526664, 7364526665, 7364526666, 7364526667, 7364526668, 7364526669, 7364526662], "tags": {"amenity": "cafe", "building": "yes", "name": "Sportiu"}}, {"type": "way", "id": 787679828, "nodes": [7364602911, 7364602912, 7364602913, 7364602914, 7364602911], "tags": {"amenity": "cafe", "building": "yes", "name": "es Trinxet"}}, {"type": "way", "id": 787679830, "nodes": [7364602919, 7364602920, 7364602925, 7364602921, 7364602922, 7364602918, 7364602919], "tags": {"amenity": "cafe", "building": "yes", "name": "Rosita"}}, {"type": "way", "id": 787679833, "nodes": [7364602934, 7364602938, 7364602935, 7364602936, 7364602937, 7364602932, 7364602934], "tags": {"amenity": "restaurant", "building": "yes", "name": "Mes\u00f3n Ca'n Torrat", "name:ca": "Can Torrat", "phone": "+34 971 67 06 82"}}, {"type": "way", "id": 791535506, "nodes": [7399677260, 7399677261, 7399677262, 7399677263, 7399677260], "tags": {"amenity": "restaurant", "building": "yes", "name": "Montimar"}}, {"type": "way", "id": 792884127, "nodes": [7414302279, 7414302280, 7414302281, 7414302282, 7414302279], "tags": {"addr:housenumber": "7", "addr:street": "carrer Mayor", "amenity": "cafe", "building": "yes", "name": "Bar Nou", "name:ca": "Bar Nou", "phone": "+34971233170"}}, {"type": "way", "id": 796889137, "nodes": [7452692913, 7452692914, 7452692915, 7452692916, 7452692917, 7452692918, 7452692913], "tags": {"amenity": "cafe", "building": "yes"}}, {"type": "way", "id": 826879676, "nodes": [7719766447, 7719766459, 7719766460, 7719766448, 7719766449, 7719766450, 7719766451, 7719766447], "tags": {"amenity": "cafe", "building": "yes", "name": "sa Pla\u00e7a", "name:ca": "sa Pla\u00e7a"}}, {"type": "way", "id": 826879677, "nodes": [7719766446, 7719766452, 7719766453, 7719766454, 7719766455, 7719766456, 7719766457, 7719766458, 4538598662, 4538598651, 7719766446], "tags": {"amenity": "restaurant", "building": "yes", "name": "Ca n'Andreu"}}, {"type": "way", "id": 840128098, "nodes": [7839606527, 7839606528, 7839606529, 7839606530, 7839606531, 7839606532, 7839606533, 7839606534, 7839606535, 7839606536, 7839606527], "tags": {"addr:housenumber": "13", "addr:street": "Carrer de L'Esperit Sant", "amenity": "cafe", "building": "yes", "name": "Ca's Batle Negre", "name:ca": "Ca's Batle Negre", "wikidata": "Q43141342"}}, {"type": "way", "id": 905400498, "nodes": [8408028063, 8408028064, 8408028065, 8408028066, 8408028067, 8408028068, 8408028069, 8408028070, 8408028071, 8408028063], "tags": {"amenity": "restaurant", "building": "yes", "name": "Oliu"}}, {"type": "way", "id": 960013303, "nodes": [8882248731, 8882248732, 8882248733, 8882248734, 8882248731], "tags": {"amenity": "restaurant", "building": "yes", "name": "Brisas"}}, {"type": "way", "id": 967970679, "nodes": [8955197182, 8955197183, 8955197184, 8955197185, 8955197186, 8955197187, 8955197188, 8955197189, 8955197190, 8955197191, 8955197182], "tags": {"amenity": "restaurant", "building": "yes", "cuisine": "pizza", "name": "Galilea", "name:ca": "Galilea", "wikidata": "Q8963363", "wikipedia": "ca:Galilea (Mallorca)"}}, {"type": "way", "id": 1021126767, "nodes": [9418015914, 9418015915, 9433554872, 9433554876, 9418015916, 9418052317, 9418015914], "tags": {"amenity": "restaurant", "building": "yes", "cuisine": "regional", "name": "Peculiar", "opening_hours": "Mo-Sa 08:00-17:00"}}, {"type": "way", "id": 1103113872, "nodes": [2270519463, 10094749118, 10094749119, 2270519456, 2270519462, 2270519463], "tags": {"amenity": "cafe", "building": "yes", "name": "Estellencs"}}, {"type": "way", "id": 1117454851, "nodes": [10220255226, 10220255227, 10220255228, 10220255225, 10220255226], "tags": {"amenity": "cafe", "building": "commercial"}}, {"type": "way", "id": 1117454853, "nodes": [10220255229, 10220255231, 10220255232, 10220255230, 10220255229], "tags": {"amenity": "cafe", "building": "commercial", "name": "Gusto Ib\u00e9rico"}}, {"type": "way", "id": 1136493080, "nodes": [10594407700, 10594407701, 10594407702, 10594407703, 10594407704, 10594439805, 10594407700], "tags": {"amenity": "cafe", "building": "yes", "name": "Can Garrit"}}, {"type": "way", "id": 1201739352, "nodes": [11141863531, 11141863532, 11141863533, 11141863534, 11141863531], "tags": {"amenity": "cafe", "building": "yes"}}, {"type": "way", "id": 1201739353, "nodes": [11141863535, 11141863536, 11141863537, 11141863538, 10899486388, 11141863539, 11141863540, 11141863541, 11141863542, 11141863535], "tags": {"amenity": "cafe", "building": "yes"}}, {"type": "way", "id": 1266939652, "nodes": [11767426454, 11767426455, 11767426456, 11767426457, 11767426458, 11767426459, 3721928953, 11767426454], "tags": {"amenity": "cafe", "building": "yes", "name": "Sa Vinya"}}, {"type": "way", "id": 1337291786, "nodes": [12368957876, 12368957884, 12368957877, 12368957878, 12368957879, 12368957876], "tags": {"amenity": "cafe", "building": "yes", "name": "Cas Pobil"}}, {"type": "way", "id": 1337291787, "nodes": [12368957876, 12368957880, 12368957881, 12368957882, 12368957883, 12368957884, 12368957876], "tags": {"amenity": "cafe", "building": "yes", "name": "Segle"}}]}