{"version": 0.6, "generator": "Overpass API 0.7.62.7 375dc00a", "osm3s": {"timestamp_osm_base": "2025-06-14T13:48:30Z", "copyright": "The data included in this document is from www.openstreetmap.org. The data is made available under ODbL."}, "elements": [{"type": "node", "id": 486657856, "lat": 42.409232, "lon": 11.2095841, "tags": {"addr:city": "Monte Argentario", "addr:street": "Strada comunale Feniglia", "amenity": "restaurant", "name": "Mamma Licia"}}, {"type": "node", "id": 486753084, "lat": 42.438056, "lon": 11.1674787, "tags": {"addr:city": "Orbetello", "addr:housenumber": "16", "addr:street": "Strada Provinciale Giannella", "amenity": "restaurant", "contact:phone": "+39 0564 820034", "cuisine": "italian", "name": "La Goletta", "phone": "+39 0564 820072"}}, {"type": "node", "id": 486795612, "lat": 42.5644479, "lon": 11.167983, "tags": {"addr:city": "Fonteblanda", "addr:housenumber": "17", "addr:street": "Piazza Uccellina", "amenity": "restaurant", "cuisine": "italian", "name": "Luna Morena", "phone": "+39 0564 885354"}}, {"type": "node", "id": 848723516, "lat": 42.3599682, "lon": 10.9196698}, {"type": "node", "id": 848723517, "lat": 42.3600027, "lon": 10.9197452}, {"type": "node", "id": 848723519, "lat": 42.3600897, "lon": 10.9195719}, {"type": "node", "id": 848723520, "lat": 42.3601249, "lon": 10.9196461}, {"type": "node", "id": 848725924, "lat": 42.3598775, "lon": 10.9196588, "tags": {"amenity": "restaurant", "cuisine": "pizza", "name": "Pizzeria l'angolo di Napoli da Mim\u00ec"}}, {"type": "node", "id": 848818368, "lat": 42.365121, "lon": 10.8778776, "tags": {"amenity": "restaurant", "cuisine": "pizza", "email": "lamarinadibrizzi_b@libero.it", "name": "La marina di Brizzi", "phone": "+39 0564 804023", "website": "http://www.lamarinadibrizzi.it/"}}, {"type": "node", "id": 874514731, "lat": 42.4086758, "lon": 11.2963657, "tags": {"amenity": "restaurant", "name": "La Strega"}}, {"type": "node", "id": 888510360, "lat": 42.406181, "lon": 11.3155639, "tags": {"amenity": "restaurant", "name": "Frigidaire"}}, {"type": "node", "id": 1064562549, "lat": 42.4493756, "lon": 11.251144, "tags": {"amenity": "restaurant", "name": "Ristorante il Cavaliere"}}, {"type": "node", "id": 1282714613, "lat": 42.4417129, "lon": 11.1155044, "tags": {"addr:housenumber": "48", "addr:street": "Via del Molo", "amenity": "restaurant", "contact:facebook": "https://www.facebook.com/profile.php?id=100057533825622", "cuisine": "seafood", "name": "Ristorante Il Piropo"}}, {"type": "node", "id": 1413567506, "lat": 42.4419968, "lon": 11.1157347, "tags": {"addr:postcode": "58019", "addr:street": "Molo della Sanit\u00e0", "amenity": "restaurant", "name": "il moletto", "phone": "+39 0564 813636"}}, {"type": "node", "id": 1413567508, "lat": 42.4400061, "lon": 11.1153628, "tags": {"amenity": "restaurant", "name": "pizzeria vincenti luigi"}}, {"type": "node", "id": 1413574732, "lat": 42.4356008, "lon": 11.1206928, "tags": {"amenity": "restaurant", "cuisine": "italian;seafood", "name": "Ristorante del Sub"}}, {"type": "node", "id": 1413588690, "lat": 42.4071879, "lon": 11.2890938, "tags": {"amenity": "restaurant", "name": "vinicio"}}, {"type": "node", "id": 1445143494, "lat": 42.4372434, "lon": 11.1298913, "tags": {"amenity": "restaurant"}}, {"type": "node", "id": 1460728700, "lat": 42.3932091, "lon": 11.2048689, "tags": {"amenity": "cafe", "name": "Gelato"}}, {"type": "node", "id": 1596085891, "lat": 42.359077, "lon": 10.9208279}, {"type": "node", "id": 1596085900, "lat": 42.3590984, "lon": 10.9208153}, {"type": "node", "id": 1596085933, "lat": 42.3590671, "lon": 10.9208566}, {"type": "node", "id": 1596085943, "lat": 42.3591287, "lon": 10.9208814}, {"type": "node", "id": 1792663428, "lat": 42.368418, "lon": 10.882128, "tags": {"addr:housenumber": "13", "addr:street": "Via della Torre", "amenity": "restaurant", "name": "Da Tony"}}, {"type": "node", "id": 1792667181, "lat": 42.366573, "lon": 10.8998306, "tags": {"addr:housenumber": "20", "addr:street": "Via Marconi", "amenity": "restaurant", "cuisine": "pizza", "name": "Pizzeria Giglio", "source": "personal visit"}}, {"type": "node", "id": 1792669611, "lat": 42.3658318, "lon": 10.9015526, "tags": {"amenity": "restaurant"}}, {"type": "node", "id": 1792669614, "lat": 42.3656614, "lon": 10.9016679, "tags": {"amenity": "restaurant"}}, {"type": "node", "id": 1792669620, "lat": 42.3657089, "lon": 10.9012334, "tags": {"amenity": "restaurant"}}, {"type": "node", "id": 1792669631, "lat": 42.365481, "lon": 10.9018423, "tags": {"amenity": "cafe"}}, {"type": "node", "id": 1804281993, "lat": 42.4095948, "lon": 11.2108488, "tags": {"amenity": "restaurant"}}, {"type": "node", "id": 1857854425, "lat": 42.3977143, "lon": 11.2003966}, {"type": "node", "id": 1857854427, "lat": 42.3977132, "lon": 11.2004909}, {"type": "node", "id": 1857854429, "lat": 42.3977309, "lon": 11.2004849}, {"type": "node", "id": 1857854431, "lat": 42.3977314, "lon": 11.2005935}, {"type": "node", "id": 1857854435, "lat": 42.3977723, "lon": 11.2004407}, {"type": "node", "id": 1857854437, "lat": 42.3977862, "lon": 11.2003741}, {"type": "node", "id": 1857854440, "lat": 42.3977967, "lon": 11.2004317}, {"type": "node", "id": 1857854442, "lat": 42.397795, "lon": 11.200571}, {"type": "node", "id": 1936371487, "lat": 42.4138292, "lon": 11.1595813, "tags": {"amenity": "restaurant", "name": "Sorgente ristoro"}}, {"type": "node", "id": 1936465476, "lat": 42.5014322, "lon": 11.2059715, "tags": {"amenity": "restaurant", "cuisine": "italian", "name": "Il Pirata"}}, {"type": "node", "id": 1936479764, "lat": 42.5145402, "lon": 11.2427188, "tags": {"amenity": "restaurant", "cuisine": "seafood", "name": "A Paranza"}}, {"type": "node", "id": 2493002403, "lat": 42.4377094, "lon": 11.2102943, "tags": {"addr:housenumber": "103b", "addr:street": "Corso Italia", "amenity": "cafe", "name": "Bar del Corso"}}, {"type": "node", "id": 2493002487, "lat": 42.4387408, "lon": 11.2112544, "tags": {"amenity": "restaurant", "name": "Trattoria La Taverna", "note": "chiuso il Marted\u00ec", "phone": "+39 0564 867969"}}, {"type": "node", "id": 2974354415, "lat": 42.3969161, "lon": 11.200246, "tags": {"amenity": "cafe"}}, {"type": "node", "id": 3065188014, "lat": 42.3877909, "lon": 11.2072628}, {"type": "node", "id": 3065188015, "lat": 42.3877621, "lon": 11.2073231}, {"type": "node", "id": 3065188016, "lat": 42.3879919, "lon": 11.2075028}, {"type": "node", "id": 3065188017, "lat": 42.3880246, "lon": 11.2074532}, {"type": "node", "id": 3065785806, "lat": 42.4031413, "lon": 11.2094873, "tags": {"amenity": "restaurant"}}, {"type": "node", "id": 3102449688, "lat": 42.4505146, "lon": 11.2489177, "tags": {"amenity": "cafe", "name": "Bar Ban\u00e8ra"}}, {"type": "node", "id": 3102449689, "lat": 42.3942514, "lon": 11.2037217, "tags": {"amenity": "cafe", "name": "Bar Centrale"}}, {"type": "node", "id": 3102449690, "lat": 42.393373, "lon": 11.2042319, "tags": {"amenity": "cafe", "name": "Bar Sport"}}, {"type": "node", "id": 3102449691, "lat": 42.3943025, "lon": 11.2047639, "tags": {"addr:city": "Porto Ercole", "addr:postcode": "58018", "addr:street": "Via Della Marina", "amenity": "cafe", "name": "Bar del Porto", "outdoor_seating": "yes"}}, {"type": "node", "id": 3102449692, "lat": 42.3921208, "lon": 11.2060138, "tags": {"amenity": "cafe", "name": "Baretto"}}, {"type": "node", "id": 3102449693, "lat": 42.3937138, "lon": 11.2048035, "tags": {"addr:city": "Porto Ercole", "addr:housenumber": "5", "addr:postcode": "58018", "addr:street": "Lungomare Andrea Doria", "amenity": "restaurant", "contact:facebook": "https://www.facebook.com/IsolaFelicePortoErcole/", "contact:instagram": "https://www.instagram.com/isola_felice_porto_ercole/", "cuisine": "steak_house;breakfast;aperivif", "description": "Sul lungomare di Porto Ercole, l'Isola Felice BeefStr\u00f2 ti offre:\n- Prodotti della tradizione abruzzese\n(bistecche, arrosticini, taglieri)\n- Colazioni e aperitivi di fronte al mare\n-Serate in musica, anche d'inverno nella nostra terrazza riscaldata.", "name": "L'Isola Felice", "opening_hours": "Th-Tu 08:00-01:00", "outdoor_seating": "yes", "phone": "+390564649045"}}, {"type": "node", "id": 3102449697, "lat": 42.44226, "lon": 11.2214978, "tags": {"amenity": "cafe", "name": "La Buriana"}}, {"type": "node", "id": 3102449703, "lat": 42.3903518, "lon": 11.2082904, "tags": {"amenity": "cafe", "name": "caff\u00e8 degli Artisti"}}, {"type": "node", "id": 3102616316, "lat": 42.3946524, "lon": 11.2045958, "tags": {"addr:city": "Porto Ercole", "addr:housenumber": "54", "addr:street": "Via San Sebastiano", "amenity": "restaurant", "name": "Alicina Hosteria", "phone": "+39 0564 832630"}}, {"type": "node", "id": 3102616320, "lat": 42.3941211, "lon": 11.2040092, "tags": {"amenity": "cafe", "name": "Bar Roma"}}, {"type": "node", "id": 3102616328, "lat": 42.3930865, "lon": 11.2048831, "tags": {"addr:city": "Porto Ercole", "addr:housenumber": "27", "addr:postcode": "58018", "addr:street": "Lungomare Andrea Doria", "amenity": "restaurant", "contact:facebook": "https://www.facebook.com/el.portoercole/?_rdr", "cuisine": "pizza;fish;tradicional", "description": "Trattoria a conduzione familiare con piatti tipici di pesce, carne e pizza fatta a mano e cotta in forno a legna tradizionale.", "email": "elpirata.portoercole@gmail.com", "internet_access": "yes", "name": "El Pirata", "opening_hours": "12:00-15:00 18:30-23:30", "outdoor_seating": "yes", "phone": "+390564831178", "wheelchair": "yes"}}, {"type": "node", "id": 3102617029, "lat": 42.3940774, "lon": 11.2037473, "tags": {"amenity": "restaurant", "name": "El merendero"}}, {"type": "node", "id": 3102617033, "lat": 42.3933443, "lon": 11.2046203, "tags": {"amenity": "restaurant", "name": "I Bucanieri"}}, {"type": "node", "id": 3102617038, "lat": 42.3935972, "lon": 11.203617, "tags": {"amenity": "restaurant", "name": "La Locanda del Caravaggio"}}, {"type": "node", "id": 3102617039, "lat": 42.3949186, "lon": 11.2053148, "tags": {"amenity": "restaurant", "name": "La Pinta"}}, {"type": "node", "id": 3102617040, "lat": 42.3947265, "lon": 11.2036522, "tags": {"addr:city": "Porto Ercole", "addr:housenumber": "89", "addr:postcode": "58018", "addr:street": "Viale Caravaggio", "amenity": "restaurant", "contact:facebook": "https://www.facebook.com/profile.php?id=100054340248953cont", "contact:instagram": "https://www.instagram.com/lasirenaportoercole/", "cuisine": "regional;italian", "description": "Ristorante La Sirena \u00e8 un locale storico. La cucina proposta \u00e8 tipicamente mediterranea, con un forte accento sui piatti di mare e della tradizione toscana. Il men\u00f9 varia quotidianamente in base al pescato locale e alla stagionalit\u00e0 degli ingredienti.", "diet:mediterranean": "yes", "internet_access": "wlan", "name": "La Sirena", "opening_hours": "12:00-14:30 19:00-23:00", "phone": "+39 0564 835032", "website": "https://restaurantguru.it/La-Sirena-Porto-Ercole", "wheelchair": "yes"}}, {"type": "node", "id": 3102657175, "lat": 42.3914887, "lon": 11.2065858, "tags": {"addr:city": "Porto Ercole", "addr:housenumber": "62", "addr:postcode": "58018", "addr:street": "Lungomare Andrea Doria", "amenity": "restaurant", "contact:facebook": "https://www.facebook.com/GamberoRossoPortoErcole/", "contact:instagram": "https://www.instagram.com/ilgamberorossoportoercole/", "cuisine": "fish", "description": "Ristorante Il Gambero Rosso,\nil tuo punto di riferimento per la cucina di pesce a\nPorto Ercole. Eredi di un ristorante storico, la nostra brigata propone piatti innovativi stile gourmet, sempre con utilizzo di prodotti e filiera locali.", "email": "Info@ilgamberorosso.restaurant", "internet_access": "yes", "name": "Il Gambero Rosso", "opening_hours": "Th-Tu 12:00-14:30 18:00-23:00", "outdoor_seating": "yes", "phone": "+390564832650", "website": "https://www.ilgamberorosso.restaurant/"}}, {"type": "node", "id": 3102657177, "lat": 42.3913893, "lon": 11.2067036, "tags": {"amenity": "restaurant", "cuisine": "italian", "name": "La Lampara"}}, {"type": "node", "id": 3102657178, "lat": 42.3951429, "lon": 11.2034635, "tags": {"addr:city": "Porto Ercole", "addr:housenumber": "113", "addr:postcode": "58018", "addr:street": "Viale Caravaggio", "amenity": "restaurant", "cuisine": "fish;meat;tradicional", "email": "tizianapoeta@gmail.com", "name": "La Parannanza", "opening_hours": "10:00-15:00 18:00-23:00", "phone": "+3905641724569"}}, {"type": "node", "id": 3497136630, "lat": 42.4350936, "lon": 11.292634, "tags": {"addr:city": "Orbetello", "addr:postcode": "58015", "addr:street": "Via Aurelia Km 140,100 (376,92)", "amenity": "restaurant", "name": "Agriturismo Tenuta Grazia", "opening_hours": "Mo-Su 08:00-22:00", "phone": "+39 0564 881182"}}, {"type": "node", "id": 3937926576, "lat": 42.4480881, "lon": 11.2466801, "tags": {"amenity": "cafe", "name": "Plaza Caf\u00e8"}}, {"type": "node", "id": 4396269168, "lat": 42.418413, "lon": 11.2817315}, {"type": "node", "id": 4396269169, "lat": 42.4183405, "lon": 11.2817332}, {"type": "node", "id": 4396269170, "lat": 42.4183425, "lon": 11.2818962}, {"type": "node", "id": 4396269171, "lat": 42.418415, "lon": 11.2818946}, {"type": "node", "id": 4407219904, "lat": 42.4486644, "lon": 11.2483931, "tags": {"amenity": "cafe", "food": "yes", "name": "Bar Italia"}}, {"type": "node", "id": 4585592747, "lat": 42.366396, "lon": 10.88106, "tags": {"amenity": "restaurant", "name": "Zio Meino", "name:it": "Zio Meino"}}, {"type": "node", "id": 5058863023, "lat": 42.4488432, "lon": 11.2501248, "tags": {"amenity": "cafe", "name": "il Binarietto"}}, {"type": "node", "id": 5213882287, "lat": 42.5637526, "lon": 11.1458517, "tags": {"amenity": "restaurant", "name": "Sunset", "website": "http://www.sunsetristorante.com/"}}, {"type": "node", "id": 5713317633, "lat": 42.4403076, "lon": 11.1155353, "tags": {"addr:city": "Porto Santo Stefano", "addr:housenumber": "17", "addr:postcode": "58019", "addr:street": "Via del Molo", "amenity": "cafe", "contact:facebook": "https://www.facebook.com/share/18HeUngcv5/?mibextid=wwXIfr", "contact:instagram": "https://www.instagram.com/bar.giulia?igsh=YjZsdXg1NGowdnIy&utm_source=qr", "contact:tiktok": "https://www.tiktok.com/@bar.giulia?_t=ZN-8tpHfcKXYHu&_r=1", "cuisine": "italian;sandwich;ice_cream;coffee_shop;cocktails;winery;salad;pasta;tea;juice;pastry", "description": "lungo la passeggiata pi\u00f9 antica di Porto S. Stefano, in riva al mare ,tra i grandi Yacht e i piccoli natanti, il Bar Giulia ha da sempre trasformato il caff\u00e8, l\u2019aperitivo , un piatto caldo o la coppa di gelato in un\u2019esperienza unica per chi la vive.", "email": "bargiulia@hotmail.it", "internet_access": "wlan", "name": "Bar Giulia", "opening_hours": "07:00-03:00", "outdoor_seating": "yes", "outdoor_seating:comfort": "yes", "phone": "+390564813913", "website": "https://www.bargiulia.it/", "website:menu": "https://menu.menumal.com/bargiulia", "wheelchair": "yes"}}, {"type": "node", "id": 5713323865, "lat": 42.5535916, "lon": 11.134394, "tags": {"addr:city": "Talamone", "addr:housenumber": "1", "addr:postcode": "58010", "addr:street": "Piazza IV Novembre", "amenity": "restaurant", "name": "Locanda dei Mille"}}, {"type": "node", "id": 5736684273, "lat": 42.4092403, "lon": 11.2100319, "tags": {"amenity": "restaurant", "name": "Braccio"}}, {"type": "node", "id": 6139436791, "lat": 42.4071535, "lon": 11.2878822, "tags": {"amenity": "restaurant", "name": "Ristorante Vincio"}}, {"type": "node", "id": 6467034535, "lat": 42.4176572, "lon": 11.277209}, {"type": "node", "id": 6467034536, "lat": 42.4175894, "lon": 11.2771621}, {"type": "node", "id": 6467034537, "lat": 42.417554, "lon": 11.2772559}, {"type": "node", "id": 6467034538, "lat": 42.4176218, "lon": 11.2773029}, {"type": "node", "id": 6611732185, "lat": 42.562372, "lon": 11.1596978, "tags": {"amenity": "restaurant", "internet_access": "wlan", "name": "Il faro"}}, {"type": "node", "id": 6727597175, "lat": 42.35914, "lon": 10.9208277}, {"type": "node", "id": 6732615347, "lat": 42.4433327, "lon": 11.1146026}, {"type": "node", "id": 6732615348, "lat": 42.4433599, "lon": 11.1147136}, {"type": "node", "id": 6732615572, "lat": 42.443426, "lon": 11.1145646}, {"type": "node", "id": 6732615573, "lat": 42.4434531, "lon": 11.1146763}, {"type": "node", "id": 6732627304, "lat": 42.3948511, "lon": 11.2049333}, {"type": "node", "id": 6732627305, "lat": 42.3948935, "lon": 11.2050055}, {"type": "node", "id": 6732627306, "lat": 42.3949757, "lon": 11.2049216}, {"type": "node", "id": 6732627307, "lat": 42.394931, "lon": 11.2048536}, {"type": "node", "id": 6732627308, "lat": 42.394905, "lon": 11.2048781}, {"type": "node", "id": 6734180792, "lat": 42.4164931, "lon": 11.2793715, "tags": {"amenity": "restaurant", "name": "Al Cartello", "outdoor_seating": "yes"}}, {"type": "node", "id": 6734180810, "lat": 42.4415588, "lon": 11.2125788}, {"type": "node", "id": 6734196390, "lat": 42.4414172, "lon": 11.2127017}, {"type": "node", "id": 6734196391, "lat": 42.4414845, "lon": 11.2128388}, {"type": "node", "id": 6734196392, "lat": 42.4417342, "lon": 11.2126187}, {"type": "node", "id": 6734196393, "lat": 42.4416693, "lon": 11.2124842}, {"type": "node", "id": 6734199576, "lat": 42.441517, "lon": 11.217738}, {"type": "node", "id": 6734199577, "lat": 42.4415249, "lon": 11.217757}, {"type": "node", "id": 6734199578, "lat": 42.4415463, "lon": 11.2178084}, {"type": "node", "id": 6734199579, "lat": 42.4415687, "lon": 11.2177919}, {"type": "node", "id": 6734199580, "lat": 42.4415668, "lon": 11.2177686}, {"type": "node", "id": 6734199581, "lat": 42.4415449, "lon": 11.2177177}, {"type": "node", "id": 6734515527, "lat": 42.4986093, "lon": 11.2045849}, {"type": "node", "id": 6734515528, "lat": 42.4984538, "lon": 11.2044195}, {"type": "node", "id": 6734515529, "lat": 42.4983326, "lon": 11.2046291}, {"type": "node", "id": 6734515532, "lat": 42.4984881, "lon": 11.2047945}, {"type": "node", "id": 6766189585, "lat": 42.3663313, "lon": 10.880649, "tags": {"amenity": "restaurant", "cuisine": "local;sandwich;diner", "name": "Lo Scoglio"}}, {"type": "node", "id": 6766189586, "lat": 42.3660641, "lon": 10.8824333, "tags": {"amenity": "restaurant", "cuisine": "local;fish", "name": "Trattoria del Golfo"}}, {"type": "node", "id": 6770532185, "lat": 42.3592013, "lon": 10.9211325, "tags": {"addr:city": "Giglio Porto", "addr:housenumber": "45", "addr:postcode": "58012", "addr:street": "Via Umberto I", "amenity": "restaurant", "cuisine": "local;fish", "name": "Trattoria da Ruggero"}}, {"type": "node", "id": 6799714507, "lat": 42.5808767, "lon": 11.1878517}, {"type": "node", "id": 6799714508, "lat": 42.58075, "lon": 11.1878734}, {"type": "node", "id": 6799714509, "lat": 42.5807622, "lon": 11.1880052}, {"type": "node", "id": 6799714510, "lat": 42.5807863, "lon": 11.188001}, {"type": "node", "id": 6799714511, "lat": 42.5807998, "lon": 11.1881452}, {"type": "node", "id": 6799714512, "lat": 42.5809025, "lon": 11.1881276}, {"type": "node", "id": 6799714513, "lat": 42.5808995, "lon": 11.1880952}, {"type": "node", "id": 6802335817, "lat": 42.420978, "lon": 11.1826542, "tags": {"addr:city": "Monte Argentario", "addr:housenumber": "1", "addr:street": "Strada Vicinale delle Piane", "amenity": "restaurant", "email": "prenotazioni@lavivienda.it", "name": "La Vivienda", "phone": "+39 334 387 2727", "website": "https://www.lavivienda.it/"}}, {"type": "node", "id": 6806086420, "lat": 42.5471147, "lon": 11.1749023}, {"type": "node", "id": 6806086421, "lat": 42.5470295, "lon": 11.1747276}, {"type": "node", "id": 6806086422, "lat": 42.5468583, "lon": 11.1748814}, {"type": "node", "id": 6806086423, "lat": 42.5469434, "lon": 11.1750561}, {"type": "node", "id": 6950704656, "lat": 42.3906011, "lon": 11.2096338, "tags": {"addr:city": "Porto Ercole", "addr:housenumber": "8", "addr:postcode": "58018", "addr:street": "Piazza Ricasoli", "amenity": "cafe", "contact:instagram": "https://www.instagram.com/antico_borgo_?igsh=OHFkbG43NGxiY3k5", "cuisine": "bistro;italian;vino;birra;caff\u00e8", "description": "Bar che offre: colazioni ,pranzi, ottimi aperitivi e possibilit\u00e0 di cenare, con prodotti tipici di alta qualit\u00e0, ed una fornitissima cantina di vini.\nSituato nel borgo del paese vecchio con una piazza con vista mozzafiato del porto e del mare !", "email": "farma1995@icloud.com", "internet_access": "yes", "name": "Antico Borgo", "opening_hours": "08:00-24:00", "outdoor_seating": "yes", "phone": "+393801376404", "wheelchair": "yes"}}, {"type": "node", "id": 6951261827, "lat": 42.3968494, "lon": 11.2003075, "tags": {"addr:city": "Porto Ercole", "addr:housenumber": "24", "addr:postcode": "58018", "addr:street": "Via Campagnatico", "amenity": "cafe", "name": "Bar Giardino", "outdoor_seating": "yes"}}, {"type": "node", "id": 7731460376, "lat": 42.3820296, "lon": 11.1376381}, {"type": "node", "id": 7731460377, "lat": 42.3819781, "lon": 11.1376354}, {"type": "node", "id": 7731460378, "lat": 42.3819761, "lon": 11.1377454}, {"type": "node", "id": 7731460379, "lat": 42.3820256, "lon": 11.1377427}, {"type": "node", "id": 7731460380, "lat": 42.381977, "lon": 11.1376971}, {"type": "node", "id": 7756739700, "lat": 42.4046718, "lon": 11.0927731, "tags": {"addr:city": "Monte Argentario", "addr:place": "Cala Piccola", "addr:postcode": "58019", "amenity": "restaurant", "contact:facebook": "https://www.facebook.com/HotelTorreDiCalaPiccola", "contact:instagram": "https://www.instagram.com/hotel_torredicalapiccola/", "contact:tripadvisor": "https://www.tripadvisor.it/Restaurant_Review-g1969073-d5534226-Reviews-Torre_d_Argento-Cala_Piccola_Monte_Argentario_Province_of_Grosseto_Tuscany.html", "cuisine": "mediterranean", "description": "Intraprendi un viaggio gastronomico che coinvolge tutti i sensi. Il Ristorante Torre d\u2019Argento ti invita sulla sua splendida terrazza affacciata sul mare, dove puoi gustare le creazioni squisite dello chef mentre ammiri l'infinito blu.", "email": "info@boutiquehoteltorrecalapiccola.com", "internet_access": "wlan", "name": "Torre d'argento", "opening_hours": "19:30-22:30", "outdoor_seating": "yes", "phone": "+390564825111", "website": "https://www.torredicalapiccola.com/ristorante-torre-d-argento?gad_source=1", "wheelchair": "yes"}}, {"type": "node", "id": 7756790717, "lat": 42.4030002, "lon": 11.0939096, "tags": {"amenity": "restaurant", "name": "Club La Vela"}}, {"type": "node", "id": 7756790718, "lat": 42.4019046, "lon": 11.0959447, "tags": {"amenity": "restaurant", "name": "Cala Piatti"}}, {"type": "node", "id": 7778916048, "lat": 42.4384091, "lon": 11.2101466, "tags": {"addr:housenumber": "2", "addr:street": "Via Roma", "amenity": "restaurant", "cuisine": "mexican;grill", "description": "Cantina and Grill", "name": "Mexicali", "outdoor_seating": "yes", "phone": "+39 0564 154 0017", "website": "https://www.mexicali.it/"}}, {"type": "node", "id": 7778960092, "lat": 42.438416, "lon": 11.2107138, "tags": {"addr:housenumber": "75", "addr:street": "Via Roma", "amenity": "restaurant", "cuisine": "fish", "name": "Per Piacere", "opening_hours": "Tu-Su 12:00-15:00, 19:30-22:00", "outdoor_seating": "yes", "phone": "+39 0564 867597"}}, {"type": "node", "id": 7862592590, "lat": 42.5534751, "lon": 11.134105, "tags": {"amenity": "restaurant", "name:en": "Joker Pizza"}}, {"type": "node", "id": 7894715285, "lat": 42.4391076, "lon": 11.1171114, "tags": {"amenity": "restaurant", "cuisine": "pizza", "name": "Pizz & Core"}}, {"type": "node", "id": 7921964454, "lat": 42.3781641, "lon": 11.1410346, "tags": {"amenity": "restaurant", "name": "La Tartaruga"}}, {"type": "node", "id": 8852325750, "lat": 42.4377006, "lon": 11.2100241, "tags": {"addr:city": "Orbetello", "addr:country": "IT", "addr:housenumber": "108", "addr:postcode": "58015", "addr:street": "Corso Italia", "amenity": "restaurant", "cuisine": "friture;seafood;pizza;regional;noodle", "name": "da Gennaro", "outdoor_seating": "yes", "phone": "+39 0564 860210"}}, {"type": "node", "id": 8853289861, "lat": 42.5012349, "lon": 11.2055025, "tags": {"amenity": "restaurant"}}, {"type": "node", "id": 8881193002, "lat": 42.519597, "lon": 11.1918279, "tags": {"amenity": "restaurant", "opening_hours": "Mo-Su 07:30-23:30", "takeaway": "yes"}}, {"type": "node", "id": 9106367966, "lat": 42.5786386, "lon": 11.1645555, "tags": {"amenity": "cafe", "food": "yes", "toilets": "yes"}}, {"type": "node", "id": 9138871210, "lat": 42.5144186, "lon": 11.2424012, "tags": {"amenity": "cafe", "name": "Girabombo", "tobacco": "yes"}}, {"type": "node", "id": 9181236183, "lat": 42.4380812, "lon": 11.1196535, "tags": {"addr:city": "Porto Santo Stefano", "addr:housenumber": "100", "addr:postcode": "58019", "addr:street": "Corso Umberto I", "amenity": "restaurant", "cuisine": "italian;seafood", "name": "Lo Sfizio 2.0", "opening_hours": "Lunch - Dinner . Tuesday OFF", "outdoor_seating": "yes"}}, {"type": "node", "id": 9181255747, "lat": 42.4393483, "lon": 11.1174352, "tags": {"addr:housenumber": "22", "addr:postcode": "58019", "addr:street": "Corso Umberto I", "amenity": "restaurant", "cuisine": "fish;fine_dining", "name": "Il Turchese Ristorante Contemporaneo"}}, {"type": "node", "id": 9190102780, "lat": 42.4374864, "lon": 11.2160359, "tags": {"alt_name": "EraOra", "amenity": "restaurant", "bar": "yes", "cocktails": "yes", "name": "Era Ora"}}, {"type": "node", "id": 9674268317, "lat": 42.4369817, "lon": 11.2091927, "tags": {"addr:city": "Orbetello", "addr:country": "IT", "addr:housenumber": "14", "addr:postcode": "58015", "addr:street": "Via Palestro", "alt_name": "Rugantino", "amenity": "restaurant", "check_date": "2022-03-19", "name": "Trattoria da Rugantino"}}, {"type": "node", "id": 9674268417, "lat": 42.4379279, "lon": 11.2112484, "tags": {"amenity": "restaurant", "name": "L'Osteria"}}, {"type": "node", "id": 9674268717, "lat": 42.4377717, "lon": 11.2088555, "tags": {"amenity": "restaurant", "name": "Il Cantuccio"}}, {"type": "node", "id": 9674292017, "lat": 42.4370219, "lon": 11.2083946, "tags": {"amenity": "restaurant", "name": "Pizzeria 2000"}}, {"type": "node", "id": 9674292117, "lat": 42.4370661, "lon": 11.2082586, "tags": {"amenity": "restaurant", "name": "Ristorante Pizzeria Dalla Zia"}}, {"type": "node", "id": 9691326117, "lat": 42.4374589, "lon": 11.2111269, "tags": {"amenity": "restaurant", "name": "La Micasa"}}, {"type": "node", "id": 9694295917, "lat": 42.4390969, "lon": 11.2125572, "tags": {"amenity": "restaurant", "name": "Pizzeria Trattoria La Bersagliera"}}, {"type": "node", "id": 9696088817, "lat": 42.4377712, "lon": 11.2112548, "tags": {"amenity": "restaurant", "name": "Ristorante Pizzeria Da Nicco"}}, {"type": "node", "id": 9883781948, "lat": 42.3640973, "lon": 10.9016902, "tags": {"amenity": "restaurant", "name": "Da Santi", "outdoor_seating": "yes"}}, {"type": "node", "id": 9890394480, "lat": 42.3514045, "lon": 10.9202731, "tags": {"amenity": "restaurant", "name": "Cannelle on the beach"}}, {"type": "node", "id": 9993284326, "lat": 42.553176, "lon": 11.1339379, "tags": {"amenity": "restaurant", "cuisine": "fish", "name": "il Vicoletto"}}, {"type": "node", "id": 9993319166, "lat": 42.5535347, "lon": 11.1347178, "tags": {"amenity": "restaurant", "cuisine": "fish;pizza", "name": "La Scesa"}}, {"type": "node", "id": 11812551761, "lat": 42.4386289, "lon": 11.2121872, "tags": {"amenity": "cafe"}}, {"type": "node", "id": 11840733844, "lat": 42.5080881, "lon": 11.1931304, "tags": {"addr:city": "Orbetello", "addr:postcode": "58015", "amenity": "restaurant", "contact:instagram": "https://www.instagram.com/ai_delfini/", "cuisine": "fish;italian;mediterranean;sandwich;salad", "email": "info@aidelfini.it", "facebook": "https://www.facebook.com/aidelfini", "name": "Ai Delfini", "opening_hours": "Mo-Su 08:00-23:30", "outdoor_seating": "yes", "phone": "+39 0564 870351", "website": "https://www.aidelfini.it/ristorante-e-bar"}}, {"type": "node", "id": 12168061686, "lat": 42.4565702, "lon": 11.1835035, "tags": {"amenity": "restaurant"}}, {"type": "node", "id": 12168061687, "lat": 42.4565542, "lon": 11.1835158, "tags": {"amenity": "cafe"}}, {"type": "node", "id": 12168143232, "lat": 42.5004715, "lon": 11.1938039, "tags": {"amenity": "restaurant"}}, {"type": "node", "id": 12168173591, "lat": 42.5323991, "lon": 11.1854453, "tags": {"amenity": "restaurant", "cuisine": "italian;pizza"}}, {"type": "node", "id": 12168219648, "lat": 42.534886, "lon": 11.1835268, "tags": {"amenity": "restaurant"}}, {"type": "node", "id": 12168219649, "lat": 42.5348756, "lon": 11.1835716, "tags": {"amenity": "cafe"}}, {"type": "node", "id": 12168246591, "lat": 42.5661358, "lon": 11.1414331, "tags": {"amenity": "restaurant"}}, {"type": "node", "id": 12192784091, "lat": 42.4395208, "lon": 11.1176894, "tags": {"addr:city": "Porto Santo Stefano", "addr:housenumber": "1", "addr:postcode": "58019", "addr:street": "Piazza Anselmi", "amenity": "restaurant", "cuisine": "international;seafood;tartufo", "name": "Osteria Enoteca La pace", "opening_hours": "lunch and dinner . Wed Off", "outdoor_seating": "yes", "website": "https://www.instagram.com/osterialapaceofficial/"}}, {"type": "node", "id": 12194070201, "lat": 42.4392301, "lon": 11.1185504, "tags": {"addr:housenumber": "26", "addr:postcode": "58019", "addr:street": "Lungomare dei Navigatori", "amenity": "restaurant", "contact:facebook": "https://facebook.com/share/GW9RfVxeU3bcAuC5", "cuisine": "mediterranean", "internet_access": "wlan", "name": "Lo Sfizio da Leo", "opening_hours": "Th-Tu 12:00-15:00, 18:00-22:00"}}, {"type": "node", "id": 12194301895, "lat": 42.4363586, "lon": 11.1202392, "tags": {"addr:housenumber": "40", "addr:street": "Viale Barellai", "amenity": "restaurant", "contact:facebook": "https://www.facebook.com/share/1EgX1BMkbW/?mibextid=wwXIfr", "contact:instagram": "https://www.instagram.com/osterialaterrazza?igsh=eHY5Z3ZwczV6eGxy&utm_source=qr", "cuisine": "regional;mediterranean;traditional", "description": "Trattoria di pesce a conduzione familiare.\nCucina espressa casereccia, con piatti tipici della tradizione paesana e toscana. \n\nProdotti freschi e locali, per dar vita ad un men\u00f9 alla carta semplice ma che rispecchia i sapori decisi della tradizione.", "email": "riccardo.mataloni@live.it", "internet_access": "wlan", "name": "Osteria La Terrazza", "opening_hours": "12:30-15:00 19:30-22:00", "outdoor_seating": "yes", "phone": "+390564810103", "takeaway": "yes", "toilets": "yes", "toilets:wheelchair": "yes"}}, {"type": "node", "id": 12194335601, "lat": 42.4368033, "lon": 11.1200615, "tags": {"amenity": "restaurant", "cuisine": "mediterranean", "name": "Piranha"}}, {"type": "node", "id": 12214817811, "lat": 42.4394298, "lon": 11.1686764, "tags": {"addr:housenumber": "113", "addr:street": "Strada Provinciale di Giannella", "amenity": "restaurant", "cuisine": "seafood", "name": "L'Oste Dispensa", "opening_hours": "Mo-Tu 19:30-22:00; Th 19:30-22:00; Fr-Su 12:30-14:30,19:30-22:00", "phone": "+39 0564 820085"}}, {"type": "node", "id": 12254982901, "lat": 42.4350814, "lon": 11.1212154, "tags": {"addr:city": "Porto Santo Stefano", "addr:postcode": "58019", "addr:street": "Via della Vittoria", "amenity": "cafe", "cuisine": "sandwich", "description": "A due passi dal porto dei traghetti, il bar perfetto per una pausa sfiziosa a qualsiasi ora della giornata, perfetto anche per le famiglie grazie all\u2019area giochi per bambini. Live Music e Djset, Tv per match, aperitivi.", "email": "margheritascarpellini@gmail.com", "internet_access": "wlan", "internet_access:fee": "no", "name": "Bar Il Chiosco", "opening_hours": "06:00-00:00", "outdoor_seating": "yes", "phone": "+39 3278126290", "wheelchair": "yes"}}, {"type": "node", "id": 12471537704, "lat": 42.3594488, "lon": 10.9201248, "tags": {"addr:city": "Giglio Porto", "addr:postcode": "58012", "addr:street": "Via Umberto I", "amenity": "restaurant", "name": "L\u2019Archetto"}}, {"type": "node", "id": 12565803390, "lat": 42.4307368, "lon": 11.1397879, "tags": {"addr:housenumber": "33", "addr:postcode": "58019", "addr:street": "Via Cristoforo Colombo", "amenity": "cafe", "contact:facebook": "https://www.facebook.com/profile.php?id=100066924686447", "description": "Bar: da noi oltre ad una buonissima colazione, puoi trovare tramezzini, cornetti salati, focacce ripiene, pizza e il nostro pezzo forte la pizza acciuga e cipolla.", "internet_access": "wlan", "name": "Bar Lolita", "opening_hours": "AM 06:00-13:00 PM 16:00-20:00", "phone": "+390564812330", "wheelchair": "yes"}}, {"type": "node", "id": 12565891914, "lat": 42.4409659, "lon": 11.1154914, "tags": {"addr:city": "Porto Santo Stefano", "addr:housenumber": "36/40", "addr:postcode": "58019", "addr:street": "Via del Molo", "amenity": "restaurant", "contact:facebook": "https://www.facebook.com/profile.php?id=100015140645473&mibextid=wwXIfr&rdid=DD2I9JdhdplWlPPQ&share_url=https%3A%2F%2Fwww.facebook.com%2Fshare%2F1DLB8d52Sm%2F%3Fmibextid%3DwwXIfr#", "contact:instagram": "https://www.instagram.com/tonyalleegee?igsh=dTk3d2xlY2N0YnVh&utm_source=qr", "cuisine": "pizza;italian", "description": "La nostra cucina propone piatti sia di mare che di terra e il locale \u00e8 situato davanti al mare con splendida vista yhact in estate.", "email": "passaniti.eleonora@virgilio.it", "internet_access": "wlan", "name": "All\u00e8\u00e8g\u00e9\u00e9 da Tony", "opening_hours": "AM 12:00-14:30 PM 19:00-23:00", "phone": "+3905641930738", "wheelchair": "yes"}}, {"type": "node", "id": 12565995843, "lat": 42.4342956, "lon": 11.122604, "tags": {"addr:city": "Porto Santo Stefano", "addr:housenumber": "8", "addr:postcode": "58019", "addr:street": "PIazzale del Valle", "amenity": "cafe", "contact:facebook": "https://www.facebook.com/biquadropss?locale=it_IT", "cuisine": "sandwich", "description": "Bar, Tavola fredda, Colazioni, Aperitivi, Yogurteria", "email": "b.quadro21@gmail.com", "internet_access": "wlan", "name": "bquadro Bar & Bistro", "opening_hours": "6:30-21:00", "phone": "+393341428281", "wheelchair": "yes"}}, {"type": "node", "id": 12567445185, "lat": 42.4280391, "lon": 11.1378017, "tags": {"amenity": "restaurant", "cuisine": "pizza;mediterranean", "name": "La Rosa"}}, {"type": "node", "id": 12567713786, "lat": 42.4405156, "lon": 11.115458, "tags": {"addr:city": "Porto Santo Stefano", "addr:housenumber": "25/26/27", "addr:postcode": "58019", "addr:street": "Via del Molo", "amenity": "restaurant", "contact:instagram": "https://www.instagram.com/ristorantemolo26?igsh=MWZkZG94bzRnN3IweA%3D%3D&utm_source=qr", "cuisine": "fish;mediterranean", "description": "Ristorante di pesce.\nCucina del territorio in chiave moderna con legami alla cucina Mediterranea.\nLocale con spazio esterno vista mare.\nCantina con etichette del territorio, nazionali ed estere.", "email": "ristorantemolo26@gmail.com", "internet_access": "wlan", "name": "Ristorante Molo26", "opening_hours": "Wed-Mo 12:30-14:30 19:00-21:30 Sun only lunch Winter", "outdoor_seating": "yes", "payment:cards": "yes", "payment:cash": "yes", "phone": "+393319850437", "website": "https://www.molo26.it/", "wheelchair": "yes"}}, {"type": "node", "id": 12573804089, "lat": 42.4389317, "lon": 11.1169447, "tags": {"addr:housenumber": "13", "addr:street": "Piazza Vittorio Emanuele", "amenity": "restaurant", "contact:instagram": "https://www.instagram.com/phermento/", "contact:tripadvisor": "https://www.tripadvisor.it/Restaurant_Review-g194860-d23474728-Reviews-Phermento-Porto_Santo_Stefano_Monte_Argentario_Province_of_Grosseto_Tuscany.html", "cuisine": "pizza", "description": "Dai frammenti della tradizione ai sapori di terre lontane con una selezione di prodotti artigianali e sostenibili, biologici e km zero.", "email": "info@phermento.it", "internet_access": "wlan", "name": "PHERMENTO!", "opening_hours": "12:00-23:30", "outdoor_seating": "yes", "phone": "+390564647178", "website": "https://www.phermento.it/", "website:menu": "https://www.leggimenu.it/menu/phermento?fbclid=PAY2xjawIRYKxleHRuA2FlbQIxMQABpmrLkbgI2cI0otkBPTmS5vFaj_vSxhlykSjcEhMvDgv3pM4xy_LgYWhxKA_aem_F9T01vWGhivfWrNFbp_2Ew", "wheelchair": "yes"}}, {"type": "node", "id": 12574352445, "lat": 42.4406187, "lon": 11.1154859, "tags": {"addr:city": "Porto Santo Stefano", "addr:housenumber": "30", "addr:postcode": "58019", "addr:street": "Via del Molo", "amenity": "restaurant", "contact:facebook": "https://www.facebook.com/share/18brR2756W/", "contact:instagram": "https://www.instagram.com/explore/locations/1024413410/grottino-bistrot-and-fish-bar/", "cuisine": "seafood;fish;cocktails;dinks;international_breakfast;brunch;pancake;breakfast", "description": "Bistrot internazionale , Situato sulla passeggiata turistica al molo della Pilarella , dalle colazioni Americane alle crudit\u00e8 di mare, cucina aperta a tutte le ore!! Aperitivi e dopocena!", "email": "ilgrottinococktail@gmail.com", "internet_access": "wlan", "name": "Grottino Seafood & Drink", "opening_hours": "Fr-We 08:30-02:00", "outdoor_seating": "yes", "payment:cards": "yes", "payment:cash": "yes", "phone": "+393347653408", "website:menu": "https://www.leggimenu.it/menu/grottinofishandbistrot", "wheelchair": "yes"}}, {"type": "node", "id": 12582405626, "lat": 42.3933365, "lon": 11.2046884, "tags": {"addr:city": "Porto Ercole", "addr:housenumber": "9,11,13", "addr:postcode": "58018", "addr:street": "Via Fosso delle Buche", "amenity": "restaurant", "cuisine": "fish;mediterranean;pasta;meat", "description": "Siamo un ristorante a pochi passi dal Lungomare A.Doria con cucina prevalentemente di pesce, ma abbiamo una carta anche per piatti di terra. Il piatto forte \u00e8 la nostra pasta fatta a mano cucinata con diverse alternative di pesce o carne.", "email": "ristorantinope@gmail.com", "internet_access": "yes", "name": "Il Ristorantino", "opening_hours": "Th-Tu 12:30-15:00 19:30-22:30", "phone": "+390564835352", "wheelchair": "yes"}}, {"type": "node", "id": 12584949973, "lat": 42.3897309, "lon": 11.2090867, "tags": {"addr:city": "Porto Ercole", "addr:housenumber": "7", "addr:postcode": "58018", "addr:street": "Strada Provinciale Panoramica di Porto Ercole", "amenity": "restaurant", "bar": "yes", "contact:facebook": "https://www.facebook.com/profile.php?id=61561154456353&locale=it_IT", "contact:instagram": "https://www.instagram.com/scirocco.ristorante/", "contact:tripadvisor": "https://www.tripadvisor.com/Restaurant_Review-g194857-d27489723-Reviews-Scirocco_Rooftop_Bar-Porto_Ercole_Monte_Argentario_Province_of_Grosseto_Tuscany.html", "cuisine": "italian;breakfast;regional", "description": "Iniziate la giornata con una sana colazione a buffet e opzioni \u00e0 la carte. Al mezzod\u00ec, potrete pranzare nel Mezzanino, situato a un piano sopra la hall. Rooftop per una cena di cucina toscana, che combina gli ingredienti pi\u00f9 freschi e prodotti locali.", "email": "sciroccorooftop@laroqqa.com", "name": "Scirocco Rooftop  - Ristorante & Lounge Bar", "opening_hours": "Breakfast: 07:00-11:00 Lunch: 12:00-17:00 Dinner 19:00-22:30", "phone": "+393783062356", "website": "https://www.laroqqa.com/it/eat-drink"}}, {"type": "node", "id": 12587643319, "lat": 42.3949675, "lon": 11.2048804, "tags": {"addr:city": "Porto Ercole", "addr:postcode": "58018", "addr:street": "Via delle Fonti", "amenity": "restaurant", "cuisine": "fish", "email": "ivode70@gmail.com", "name": "La grotta del pescatore", "opening_hours": "Fr-Sat-Sun 14:30-14:30 19:30-22:00", "phone": "+393332149881"}}, {"type": "node", "id": 12587673204, "lat": 42.4283912, "lon": 11.1806325, "tags": {"addr:city": "Monte Argentario", "addr:street": "Strada Vicinale delle Piane", "amenity": "restaurant", "description": "Ristorante aperto la sera con men\u00f9 alla carta, proponiamo piatti basati sulla cucina maremmana locale di carne, verdure del nostro orto, con olio e vino della nostra azienda, disponibile anche per cerimonie ed eventi.", "email": "info@agriturismomonteargentario.it", "internet_access": "yes", "name": "Ristorante Agriturismo  Monte Argentario", "opening_hours": "19:30 - 22:00", "phone": "+393928589879", "website": "https://www.agriturismomonteargentario.it/", "wheelchair": "yes"}}, {"type": "node", "id": 12632646558, "lat": 42.4398943, "lon": 11.1152975, "tags": {"addr:city": "Porto Santo Stefano", "addr:housenumber": "12", "addr:postcode": "58019", "addr:street": "Via del Molo", "amenity": "restaurant", "contact:instagram": "https://www.instagram.com/zirio_pizzeria?igsh=MTRqbG16Z2pkNjMwZA==", "cuisine": "pizza;mediterranean", "description": "Nellla splendida cornice di Via del Molo, sul mare, Zirio, aperto dal 1974, \u00e8 la  garanzia per una pizza di qualit\u00e0 cotta a con forno a legna. Offre inoltre piatti tradizionali  della cucina locale.  No prenotazioni", "internet_access": "no", "name": "Zirio", "opening_hours": "19:00-24:00", "outdoor_seating": "yes", "phone": "+390564812897", "wheelchair": "yes"}}, {"type": "node", "id": 12632955281, "lat": 42.4312037, "lon": 11.1236673, "tags": {"addr:city": "Monte Argentario", "addr:housenumber": "6", "addr:place": "Piazza Primo Wongher", "addr:postcode": "58019", "amenity": "cafe", "description": "Accogliente e moderno, un\u2019atmosfera vivace al mattino e rilassata nel pomeriggio. Colazione con caff\u00e8 di qualit\u00e0 e croissant. A pranzo offre piatti freschi, insalate, panini e primi espressi. L\u2019aperitivo si anima con cocktail, vini e stuzzichini sfiziosi.", "email": "valeriacostagliola80@gmail.com", "internet_access": "yes", "name": "Bar \"A\"", "opening_hours": "06:30-21-00", "outdoor_seating": "yes", "phone": "+393395223306", "wheelchair": "yes"}}, {"type": "node", "id": 12633494111, "lat": 42.4352395, "lon": 11.1250273, "tags": {"addr:city": "Porto Santo Stefano", "addr:postcode": "58019", "addr:street": "Banchina Toscana", "amenity": "restaurant", "contact:facebook": "https://www.facebook.com/p/Ristorante-Pizzeria-Il-Foro-100063546100506/?locale=it_IT", "contact:instagram": "https://www.instagram.com/explore/locations/426868858/ristorante-pizzeria-il-foro/", "cuisine": "pizza;italian;seafood;pasta", "description": "Un locale che si affaccia sul mare dove la sera si pu\u00f2 degustare la cucina tradizionale toscana e la pizza cotta nel forno a legna.", "email": "info@fattoriadellasabatina.com", "internet_access": "no", "name": "Ristorante Pizzeria Il Foro", "opening_hours": "19:30-23:00+390564814138", "wheelchair": "yes"}}, {"type": "node", "id": 12761816631, "lat": 42.4381984, "lon": 11.1197122, "tags": {"addr:city": "Porto Santo Stefano", "addr:housenumber": "42", "addr:postcode": "58019", "addr:street": "Lungomare dei Navigatori", "amenity": "cafe", "cuisine": "sandwich;italian;cake;cafe", "description": "Piccola attivit\u00e0 che guard lo spettacolare golfo dell' Argentario.\nDalla caffetteria, alla cocktaileria, agli snack e piccola ristorazione, siamo con voi tutto il giorno", "email": "ivancerulli78@hotmail.it", "facebook": "https://www.facebook.com/share/1AE9CLpEze/", "instagram": "https://www.instagram.com/barilgaleone?igsh=MWZzMGl2cmc3dHZ1YQ==", "internet_access": "yes", "internet_access:fee": "no", "name": "Galeone", "opening_hours": "6:30 - 24:00", "outdoor_seating": "yes", "phone": "+393470765179", "wheelchair": "yes"}}, {"type": "node", "id": 12765742725, "lat": 42.4262973, "lon": 11.1201484, "tags": {"addr:city": "Porto Santo Stefano", "addr:housenumber": "66", "addr:postcode": "58019", "addr:street": "Via del Campone", "amenity": "cafe", "cuisine": "snackbar", "description": "Bar, tavola fredda al servizio del polo sportivo", "email": "ctargentario@gmail.com", "name": "Bar del Tennis", "opening_hours": "07:00 - 20:00", "outdoor_seating": "yes", "phone": "+390564383377"}}, {"type": "node", "id": 12774682557, "lat": 42.436735, "lon": 11.1201344, "tags": {"addr:city": "Porto Santo Stefano", "addr:housenumber": "21", "addr:postcode": "58019", "addr:street": "Via Scalo Colombo", "amenity": "cafe", "contact:facebook": "https://www.facebook.com/miele2621", "contact:instagram": "https://www.instagram.com/baritorno?igsh=YTcyZzljYzNtOHVx", "cuisine": "coffee_shop;italian;dessert;pasta;salad;seafood", "description": "Qua potete gustare colazioni, aperitivi, light lunch, tutto con vista mare", "email": "elenaloffredo7@gmail.com", "internet_access": "yes", "name": "BARITORNO", "opening_hours": "07:00-24:00", "outdoor_seating": "yes", "phone": "+393383933585", "wheelchair": "yes"}}, {"type": "node", "id": 12774814655, "lat": 42.4347427, "lon": 11.1550083, "tags": {"addr:city": "Porto Santo Stefano", "addr:housenumber": "40", "addr:postcode": "58019", "addr:street": "SP161", "amenity": "restaurant", "contact:facebook": "https://www.facebook.com/ristorantedomizia/", "cuisine": "italian;mediterranean", "description": "Ristorante Domizia affaccia sullo splendido panorama del Tombolo della Giannella e della Baia Domiziana , vi far\u00e0 scoprire la magia della Maremma toscana attraverso una cucina raffinata, vini di classe e un ambiente che regala una vista mozzafiato sul mar", "email": "info@ristorantedomizia.com", "internet_access": "yes", "name": "Ristorante Domizia", "opening_hours": "12:30-14:30 19:30-22:00", "phone": "+393274361782", "website": "https://villadomizia.it/ristorante", "wheelchair": "yes"}}, {"type": "node", "id": 12864209207, "lat": 42.3591958, "lon": 10.92125, "tags": {"addr:city": "Giglio Porto", "addr:postcode": "58012", "addr:street": "Via Umberto I", "amenity": "restaurant", "cuisine": "fish", "name": "Porta via"}}, {"type": "node", "id": 12864209211, "lat": 42.3591976, "lon": 10.9213485, "tags": {"addr:city": "Giglio Porto", "addr:postcode": "58012", "addr:street": "Via Umberto I", "amenity": "cafe", "cuisine": "local;fish", "name": "Ferrero"}}, {"type": "node", "id": 12864209215, "lat": 42.3592958, "lon": 10.9217206, "tags": {"addr:city": "Giglio Porto", "addr:housenumber": "48", "addr:postcode": "58012", "addr:street": "Via Umberto I", "amenity": "restaurant", "cuisine": "local;fish", "name": "Sopravvento"}}, {"type": "node", "id": 12864298820, "lat": 42.3594047, "lon": 10.9203002, "tags": {"addr:city": "Giglio Porto", "addr:postcode": "58013", "addr:street": "Via Umberto I", "amenity": "restaurant", "name": "Sarchettu"}}, {"type": "node", "id": 12864298821, "lat": 42.3594187, "lon": 10.9202261, "tags": {"addr:city": "Giglio Porto", "addr:postcode": "58013", "addr:street": "Via Umberto I", "amenity": "restaurant", "name": "Da Meino"}}, {"type": "node", "id": 12864298828, "lat": 42.3596947, "lon": 10.9198015, "tags": {"addr:city": "Giglio Porto", "addr:postcode": "58012", "addr:street": "Via Umberto I", "amenity": "restaurant", "name": "La Marghertita"}}, {"type": "node", "id": 12880593222, "lat": 42.4340351, "lon": 11.1469984, "tags": {"addr:city": "Monte Argentario", "addr:housenumber": "22", "addr:postcode": "58019", "addr:street": "Soda", "amenity": "restaurant", "cuisine": "italian;mediterranean;pasta", "email": "fabrizio.schiano.pantarei@gmail.com", "name": "I due Pini", "opening_hours": "12:30-14:00 20:00-22:00", "phone": "+390564814012"}}, {"type": "way", "id": 71320358, "nodes": [848723520, 848723519, 848723516, 848723517, 848723520], "tags": {"amenity": "restaurant", "name": "Doria"}}, {"type": "way", "id": 146345415, "nodes": [1596085900, 6727597175, 1596085943, 1596085933, 1596085891, 1596085900], "tags": {"amenity": "cafe", "name": "Ice Cream Parlor"}}, {"type": "way", "id": 175144826, "nodes": [1857854437, 1857854440, 1857854435, 1857854442, 1857854431, 1857854427, 1857854429, 1857854425, 1857854437], "tags": {"amenity": "cafe", "building": "yes"}}, {"type": "way", "id": 302264325, "nodes": [3065188014, 3065188015, 3065188016, 3065188017, 3065188014], "tags": {"amenity": "cafe"}}, {"type": "way", "id": 441938937, "nodes": [4396269168, 4396269169, 4396269170, 4396269171, 4396269168], "tags": {"amenity": "restaurant"}}, {"type": "way", "id": 689373672, "nodes": [6467034538, 6467034537, 6467034536, 6467034535, 6467034538], "tags": {"amenity": "restaurant", "name": "La Capannuccia"}}, {"type": "way", "id": 716790894, "nodes": [6732615572, 6732615573, 6732615348, 6732615347, 6732615572], "tags": {"addr:city": "Porto santo stefano", "addr:housenumber": "6", "addr:postcode": "58019", "addr:street": "Via Guelfo Civinini", "amenity": "restaurant", "building": "yes", "contact:facebook": "https://facebook.com/share/12Fcv5hA76G", "contact:instagram": "ristoranteceleste", "cuisine": "meditareene", "description": "Ristorante con terrazza a picco sul mare, sala interna panoramica con vetrate a tutt'altezza. Cucina con piatti della tradizione di mare e Maremma.", "email": "info@hotelcaletta.it", "height": "10.5", "internet_access": "yes", "name": "Ristorante Celeste", "phone": "+39 0564 818133", "website": "http://hotelcaletta.it", "wheelchair": "yes"}}, {"type": "way", "id": 716792925, "nodes": [6732627308, 6732627307, 6732627306, 6732627305, 6732627304, 6732627308], "tags": {"addr:city": "Porto Ercole", "addr:housenumber": "9", "addr:postcode": "58018", "addr:street": "Via delle Fonti", "amenity": "restaurant", "building": "yes", "height": "8.15", "phone": "+39 333 2149881"}}, {"type": "way", "id": 717007657, "nodes": [6734196393, 6734196392, 6734196391, 6734196390, 6734180810, 6734196393], "tags": {"addr:city": "Orbetello", "addr:housenumber": "9", "addr:postcode": "58015", "addr:street": "Via Giacomo Leopardi", "amenity": "restaurant", "building": "yes", "cuisine": "fish", "height": "4.86", "indoor_seating": "yes", "name": "I pescatori - Centro degustazione", "outdoor_seating": "yes", "website": "https://ipescatoriorbetello-centrodegustazione.it/"}}, {"type": "way", "id": 717008356, "nodes": [6734199581, 6734199580, 6734199579, 6734199578, 6734199577, 6734199576, 6734199581], "tags": {"addr:city": "Orbetello", "addr:housenumber": "4", "addr:postcode": "58015", "addr:street": "Via dei Donatori del Sangue", "air_conditioning": "yes", "amenity": "cafe", "building": "residential", "height": "2.32", "internet_access": "yes", "name": "Minibar", "phone": "05641940154", "toilets": "yes"}}, {"type": "way", "id": 717040893, "nodes": [6734515532, 6734515529, 6734515528, 6734515527, 6734515532], "tags": {"amenity": "restaurant", "building": "residential", "cuisine": "pizza;italian", "height": "7.83", "name": "Attimi", "opening_hours": "closed"}}, {"type": "way", "id": 725114097, "nodes": [6799714513, 6799714512, 6799714511, 6799714510, 6799714509, 6799714508, 6799714507, 6799714513], "tags": {"addr:city": "Orbetello", "addr:country": "IT", "addr:housenumber": "44", "addr:postcode": "58015", "addr:street": "Via Talamone Est", "amenity": "restaurant", "building": "yes", "cuisine": "regional", "height": "9.27", "name": "Il Bracconiere", "website": "https://ilbracconiere.it"}}, {"type": "way", "id": 725912137, "nodes": [6806086423, 6806086422, 6806086421, 6806086420, 6806086423], "tags": {"amenity": "cafe", "building": "yes", "cuisine": "sandwich", "food": "yes", "height": "3.75", "name": "Km. 156", "outdoor_seating": "yes", "toilets": "yes"}}, {"type": "way", "id": 828168963, "nodes": [7731460376, 7731460377, 7731460380, 7731460378, 7731460379, 7731460376], "tags": {"amenity": "cafe", "building": "yes"}}]}