{"version": 0.6, "generator": "Overpass API 0.7.62.7 375dc00a", "osm3s": {"timestamp_osm_base": "2025-06-14T13:20:59Z", "copyright": "The data included in this document is from www.openstreetmap.org. The data is made available under ODbL."}, "elements": [{"type": "node", "id": 3219669605, "lat": 35.7975391, "lon": 7.3887063, "tags": {"addr:country": "DZ", "amenity": "cafe", "name": "Caf\u00e9 Infinity"}}, {"type": "node", "id": 3219669840, "lat": 35.7973921, "lon": 7.3887373, "tags": {"addr:country": "DZ", "amenity": "restaurant", "cuisine": "regional", "name": "\u0645\u0637\u0639\u0645 \u0623\u062d\u0645\u062f", "name:ar": "\u0645\u0637\u0639\u0645 \u0623\u062d\u0645\u062f", "name:fr": "Ahmed"}}, {"type": "node", "id": 3219669841, "lat": 35.7974103, "lon": 7.3886838, "tags": {"addr:country": "DZ", "amenity": "restaurant", "cuisine": "regional", "name": "\u0627\u0644\u062c\u0645\u0628\u0631\u064a \u0627\u0644\u0630\u0647\u0628\u064a", "name:ar": "\u0627\u0644\u062c\u0645\u0628\u0631\u064a \u0627\u0644\u0630\u0647\u0628\u064a", "name:fr": "Crevettes dor\u00e9es"}}, {"type": "node", "id": 3219682417, "lat": 35.7973263, "lon": 7.3889099, "tags": {"addr:country": "DZ", "amenity": "restaurant", "cuisine": "regional", "name": "\u0645\u0637\u0639\u0645 \u0628\u0648\u0644\u0639\u0631\u0627\u0633", "name:ar": "\u0645\u0637\u0639\u0645 \u0628\u0648\u0644\u0639\u0631\u0627\u0633", "name:fr": "Boulaares"}}, {"type": "node", "id": 3219684038, "lat": 35.7969277, "lon": 7.3871245, "tags": {"addr:city": "A\u00efn Be\u00efda", "addr:country": "DZ", "amenity": "restaurant", "cuisine": "regional", "name": "\u0627\u0644\u0645\u0637\u0639\u0645 \u0627\u0644\u0633\u0648\u0631\u064a", "name:ar": "\u0627\u0644\u0645\u0637\u0639\u0645 \u0627\u0644\u0633\u0648\u0631\u064a", "name:en": "Syrian restaurant", "name:fr": "Restaurant Syrien"}}, {"type": "node", "id": 4261924990, "lat": 35.799525, "lon": 7.3669421, "tags": {"addr:country": "DZ", "amenity": "cafe", "cuisine": "pancake;ice_cream;savory_pancakes;crepe;tea;cake;coffee_shop", "internet_access": "wlan", "name": "Club Versace salon de th\u00e9 et chicha", "name:fr": "Club Versace"}}, {"type": "node", "id": 4353227579, "lat": 35.7973925, "lon": 7.3807673, "tags": {"addr:country": "DZ", "amenity": "cafe", "name": "Zinet"}}, {"type": "node", "id": 4353229342, "lat": 35.7925475, "lon": 7.3779403, "tags": {"addr:country": "DZ", "amenity": "cafe"}}, {"type": "node", "id": 4353229343, "lat": 35.7930653, "lon": 7.3782568, "tags": {"addr:country": "DZ", "amenity": "cafe"}}, {"type": "node", "id": 4353229345, "lat": 35.7938583, "lon": 7.3811804, "tags": {"addr:country": "DZ", "amenity": "cafe", "name": "\u0645\u0642\u0647\u0649 \u0645\u0627\u0631\u064a\u0627\u0646 \u062d\u0644\u064a\u0645", "name:ar": "\u0645\u0642\u0647\u0649 \u0645\u0627\u0631\u064a\u0627\u0646 (\u062d\u0644\u064a\u0645)", "name:en": "( Halim ) Marian Cafe", "name:fr": "Caf\u00e9 Marian Halim"}}, {"type": "node", "id": 4353229346, "lat": 35.7943489, "lon": 7.3784338, "tags": {"addr:country": "DZ", "amenity": "cafe"}}, {"type": "node", "id": 4353229347, "lat": 35.7952583, "lon": 7.3786859, "tags": {"addr:country": "DZ", "amenity": "cafe"}}, {"type": "node", "id": 4353229349, "lat": 35.7984422, "lon": 7.3719026, "tags": {"addr:country": "DZ", "amenity": "cafe"}}, {"type": "node", "id": 4361682198, "lat": 36.1360717, "lon": 7.5364399, "tags": {"addr:country": "DZ", "amenity": "cafe", "name": "\u0645\u0642\u0647\u0649", "name:ar": "\u0645\u0642\u0647\u0649", "name:fr": "Cafeteria"}}, {"type": "node", "id": 4361682205, "lat": 36.1276371, "lon": 7.5339168, "tags": {"addr:country": "DZ", "amenity": "cafe", "name": "\u0645\u0642\u0647\u0649", "name:ar": "\u0645\u0642\u0647\u0649", "name:fr": "Cafeteria"}}, {"type": "node", "id": 4361682207, "lat": 36.1298598, "lon": 7.5335986, "tags": {"addr:country": "DZ", "amenity": "restaurant", "name": "\u0645\u0637\u0639\u0645 \u0627\u0644\u062e\u064a\u0645\u0629", "name:ar": "\u0645\u0637\u0639\u0645 \u0627\u0644\u062e\u064a\u0645\u0629", "name:fr": "Restaurant EL KHAIMA"}}, {"type": "node", "id": 4361813301, "lat": 36.1313165, "lon": 7.5366155}, {"type": "node", "id": 4361816098, "lat": 36.1310573, "lon": 7.5334661, "tags": {"addr:country": "DZ", "amenity": "restaurant", "name": "\u0645\u0637\u0639\u0645", "name:ar": "\u0645\u0637\u0639\u0645", "name:fr": "Resto"}}, {"type": "node", "id": 4361817490, "lat": 36.1337698, "lon": 7.5350065, "tags": {"addr:country": "DZ", "amenity": "restaurant", "cuisine": "pizza", "name": "Pizz\u00e9ria", "name:fr": "Pizz\u00e9ria"}}, {"type": "node", "id": 4362045690, "lat": 36.1349222, "lon": 7.5269836, "tags": {"addr:country": "DZ", "amenity": "cafe", "name": "\u0645\u0642\u0647\u0649", "name:ar": "\u0645\u0642\u0647\u0649", "name:fr": "Cafeteria"}}, {"type": "node", "id": 4362065290, "lat": 36.1285458, "lon": 7.5332673, "tags": {"addr:country": "DZ", "amenity": "cafe", "name": "\u0645\u0642\u0647\u0649", "name:ar": "\u0645\u0642\u0647\u0649", "name:fr": "Cafeteria"}}, {"type": "node", "id": 4364639991, "lat": 36.134057, "lon": 7.5383183, "tags": {"addr:country": "DZ", "amenity": "cafe", "name": "\u0645\u0642\u0647\u0649 \u0639\u0645\u0627\u062f \u0634\u0648\u0641\u0629", "name:ar": "\u0645\u0642\u0647\u0649 \u0639\u0645\u0627\u062f \u0634\u0648\u0641\u0629", "name:fr": "Caf\u00e9 Imad Choufa"}}, {"type": "node", "id": 4445401090, "lat": 36.1404108, "lon": 7.5296803, "tags": {"addr:country": "DZ", "amenity": "cafe", "name": "\u0645\u0642\u0647\u0649", "name:ar": "\u0645\u0642\u0647\u0649", "name:en": "Cafe", "name:fr": "Cafeteria"}}, {"type": "node", "id": 4445401190, "lat": 36.1370798, "lon": 7.5266139, "tags": {"addr:country": "DZ", "amenity": "cafe", "name:en": "Cafe", "name:fr": "Caf\u00e9t\u00e9ria", "opening_hours": "24/7"}}, {"type": "node", "id": 4486842494, "lat": 35.7908359, "lon": 7.3943023, "tags": {"addr:country": "DZ", "amenity": "cafe", "name": "\u0645\u0642\u0647\u0649 \u0634\u0641\u064a\u0642", "name:ar": "\u0645\u0642\u0647\u0649 \u0634\u0641\u064a\u0642", "name:en": "Cafe", "name:fr": "Caf\u00e9 ChafiK"}}, {"type": "node", "id": 4486842495, "lat": 35.7908563, "lon": 7.3945519, "tags": {"addr:country": "DZ", "amenity": "cafe", "name": "\u0645\u0642\u0647\u0649 \u0645\u0635\u0637\u0641\u0649", "name:ar": "\u0645\u0642\u0647\u0649 \u0645\u0635\u0637\u0641\u0649", "name:en": "Cafe", "name:fr": "Caf\u00e9 Mustapha"}}, {"type": "node", "id": 4486862689, "lat": 35.7904652, "lon": 7.3944461, "tags": {"addr:country": "DZ", "amenity": "cafe", "name": "\u0645\u0642\u0647\u0649 \u0627\u0644\u0631\u0628\u064a\u0639\u064a", "name:ar": "\u0645\u0642\u0647\u0649 \u062d\u0645\u0648\u062f\u0629 \u0635\u0627\u0644\u062d", "name:en": "Cafe", "name:fr": "Caf\u00e9 Hamouda Saleh"}}, {"type": "node", "id": 4534852893, "lat": 35.7919737, "lon": 7.3839053, "tags": {"addr:country": "DZ", "amenity": "cafe", "name": "\u0645\u0642\u0647\u0649 \u0645\u062d\u0631\u0632", "name:ar": "\u0645\u0642\u0647\u0649 \u0645\u062d\u0631\u0632", "name:en": "mehrez coffee", "name:fr": "caf\u00e9 mahrez"}}, {"type": "node", "id": 4534948898, "lat": 35.7925888, "lon": 7.3812914, "tags": {"addr:country": "DZ", "amenity": "restaurant", "name": "\u0643\u0645\u0627\u0644 \u0643\u0633\u0631\u0629 \u0627\u0644\u0634\u062d\u0645\u0629", "name:ar": "\u0643\u0645\u0627\u0644", "name:fr": "Kamal"}}, {"type": "node", "id": 4538979989, "lat": 35.8829939, "lon": 7.5973442, "tags": {"addr:country": "DZ", "amenity": "cafe", "name": "\u0645\u0642\u0647\u0649 \u0641\u0644\u0648\u0633", "name:ar": "\u0645\u0642\u0647\u0649 \u0641\u0644\u0648\u0633", "name:en": "Fallos Cafe", "name:fr": "Caf\u00e9 Floss"}}, {"type": "node", "id": 4770648529, "lat": 36.1364941, "lon": 7.5262924}, {"type": "node", "id": 4770648530, "lat": 36.1362926, "lon": 7.5269113, "tags": {"addr:country": "DZ", "amenity": "cafe"}}, {"type": "node", "id": 4770664427, "lat": 36.137626, "lon": 7.5270143, "tags": {"addr:country": "DZ", "amenity": "cafe"}}, {"type": "node", "id": 4770664428, "lat": 36.1350677, "lon": 7.5270297}, {"type": "node", "id": 4782893221, "lat": 36.1364877, "lon": 7.526418, "tags": {"addr:country": "DZ", "amenity": "cafe"}}, {"type": "node", "id": 5058293525, "lat": 36.1353818, "lon": 7.5325662, "tags": {"addr:country": "DZ", "amenity": "cafe", "name": "\u0645\u0642\u0647\u0649 \u0631\u0636\u0627", "name:ar": "\u0645\u0642\u0647\u0649 \u0631\u0636\u0627", "name:fr": "Caf\u00e9 Rid\u00e2"}}, {"type": "node", "id": 5105598538, "lat": 35.812716, "lon": 7.3848948}, {"type": "node", "id": 5105598539, "lat": 35.8127138, "lon": 7.3852555}, {"type": "node", "id": 5105598542, "lat": 35.812218, "lon": 7.3852261}, {"type": "node", "id": 5105598543, "lat": 35.8122222, "lon": 7.3849283}, {"type": "node", "id": 5105598544, "lat": 35.8124191, "lon": 7.3847339}, {"type": "node", "id": 5105598545, "lat": 35.8125333, "lon": 7.3847366}, {"type": "node", "id": 5105712644, "lat": 35.8122157, "lon": 7.3851811}, {"type": "node", "id": 5105712645, "lat": 35.8121869, "lon": 7.3851824}, {"type": "node", "id": 5105712646, "lat": 35.8121893, "lon": 7.3849743}, {"type": "node", "id": 5105712647, "lat": 35.8122199, "lon": 7.3849741}, {"type": "node", "id": 5105712648, "lat": 35.8125402, "lon": 7.385075}, {"type": "node", "id": 5105712649, "lat": 35.8125378, "lon": 7.3850989}, {"type": "node", "id": 5105712650, "lat": 35.812529, "lon": 7.3851204}, {"type": "node", "id": 5105712651, "lat": 35.8125257, "lon": 7.3854674}, {"type": "node", "id": 5105712652, "lat": 35.8124261, "lon": 7.3850857}, {"type": "node", "id": 5105712653, "lat": 35.8124271, "lon": 7.3850632}, {"type": "node", "id": 5105712654, "lat": 35.8124337, "lon": 7.3850422}, {"type": "node", "id": 5105712655, "lat": 35.8124454, "lon": 7.3850249}, {"type": "node", "id": 5105712656, "lat": 35.8124609, "lon": 7.385013}, {"type": "node", "id": 5105712657, "lat": 35.8124787, "lon": 7.3850078}, {"type": "node", "id": 5105712658, "lat": 35.8124275, "lon": 7.3854637}, {"type": "node", "id": 5105712659, "lat": 35.8124314, "lon": 7.3851088}, {"type": "node", "id": 5105712660, "lat": 35.8124969, "lon": 7.3850097}, {"type": "node", "id": 5105712661, "lat": 35.8125137, "lon": 7.3850186}, {"type": "node", "id": 5105712662, "lat": 35.8125274, "lon": 7.3850335}, {"type": "node", "id": 5105712663, "lat": 35.8125365, "lon": 7.385053}, {"type": "node", "id": 5675399321, "lat": 35.8005627, "lon": 7.4008295, "tags": {"addr:country": "DZ", "amenity": "cafe", "name": "\u0645\u0642\u0647\u0649 \u0643\u0648\u0627\u0634\u064a \u0646\u0639\u0645\u0627\u0646", "name:fr": "Caf\u00e9t\u00e9ria nouamen"}}, {"type": "node", "id": 5754951936, "lat": 36.0832343, "lon": 7.2609631}, {"type": "node", "id": 5754951937, "lat": 36.0832375, "lon": 7.2611176}, {"type": "node", "id": 5754951938, "lat": 36.0830568, "lon": 7.2611176}, {"type": "node", "id": 5754951939, "lat": 36.0830536, "lon": 7.2609509}, {"type": "node", "id": 6182281887, "lat": 35.7893069, "lon": 7.3944381, "tags": {"amenity": "cafe", "name": "\u0645\u0642\u0647\u0649 \u0639\u0645\u0627\u0631", "name:en": "Cafe", "name:fr": "Caf\u00e9 Ammar"}}, {"type": "node", "id": 6183906485, "lat": 35.7909124, "lon": 7.3951875, "tags": {"amenity": "cafe", "name": "\u0645\u0642\u0647\u0649", "name:en": "Cafe", "name:fr": "Cafeteria"}}, {"type": "node", "id": 7599288885, "lat": 35.7901789, "lon": 7.3791107, "tags": {"amenity": "cafe", "name:fr": "Caf\u00e9 CHIOUA"}}, {"type": "node", "id": 7798078985, "lat": 35.7903554, "lon": 7.3790005, "tags": {"amenity": "cafe", "name": "\u0645\u0642\u0647\u0649 \u0634\u064a\u0648\u0627", "name:fr": "Caf\u00e9 Chewa"}}, {"type": "node", "id": 9664606823, "lat": 35.8131825, "lon": 7.3917423, "tags": {"amenity": "cafe"}}, {"type": "node", "id": 10971194057, "lat": 36.1348592, "lon": 7.5269434}, {"type": "node", "id": 10971214126, "lat": 36.1372973, "lon": 7.5267716}, {"type": "node", "id": 10971214296, "lat": 36.1312151, "lon": 7.5368587}, {"type": "node", "id": 10971214589, "lat": 36.1313019, "lon": 7.5368801}, {"type": "node", "id": 10971215117, "lat": 36.1351703, "lon": 7.5266499}, {"type": "node", "id": 10971216459, "lat": 36.1371729, "lon": 7.5265759}, {"type": "node", "id": 10971217092, "lat": 36.1373093, "lon": 7.526738}, {"type": "node", "id": 10971217098, "lat": 36.1315405, "lon": 7.536695}, {"type": "node", "id": 10971217267, "lat": 36.1312971, "lon": 7.5369096}, {"type": "node", "id": 10971217486, "lat": 36.131502, "lon": 7.5369603}, {"type": "node", "id": 10971218093, "lat": 36.1349626, "lon": 7.5265639}, {"type": "node", "id": 10971218105, "lat": 36.1375555, "lon": 7.526785}, {"type": "node", "id": 10971218502, "lat": 36.1312345, "lon": 7.5367388}, {"type": "node", "id": 10971218765, "lat": 36.1349286, "lon": 7.5267617}, {"type": "node", "id": 10971220103, "lat": 36.1375174, "lon": 7.5268919}, {"type": "node", "id": 10971220766, "lat": 36.131535, "lon": 7.5367561}, {"type": "node", "id": 10971221212, "lat": 36.1313613, "lon": 7.5365462}, {"type": "node", "id": 10971221276, "lat": 36.1312637, "lon": 7.5366937}, {"type": "node", "id": 10971221301, "lat": 36.1371988, "lon": 7.5265032}, {"type": "node", "id": 10971221592, "lat": 36.1349111, "lon": 7.5267545}, {"type": "node", "id": 10971221687, "lat": 36.1371209, "lon": 7.5264606}, {"type": "node", "id": 10971222319, "lat": 36.1365386, "lon": 7.5261676}, {"type": "node", "id": 10971222629, "lat": 36.1348912, "lon": 7.5268252}, {"type": "node", "id": 10971222729, "lat": 36.1312892, "lon": 7.5366088}, {"type": "node", "id": 10971222782, "lat": 36.1371134, "lon": 7.5264817}, {"type": "node", "id": 10971223421, "lat": 36.1315016, "lon": 7.5366854}, {"type": "node", "id": 10971225410, "lat": 36.1314116, "lon": 7.5367302}, {"type": "node", "id": 10971225811, "lat": 36.1315312, "lon": 7.5367524}, {"type": "node", "id": 10971226805, "lat": 36.1349094, "lon": 7.5268328}, {"type": "node", "id": 11860836325, "lat": 35.792064, "lon": 7.393012}, {"type": "node", "id": 11860836326, "lat": 35.792102, "lon": 7.3927187}, {"type": "node", "id": 11860836327, "lat": 35.7917213, "lon": 7.3927099}, {"type": "node", "id": 11860836328, "lat": 35.7918784, "lon": 7.3930296}, {"type": "way", "id": 524690051, "nodes": [5105598538, 5105598539, 5105712651, 5105712658, 5105598542, 5105712644, 5105712645, 5105712646, 5105712647, 5105598543, 5105598544, 5105598545, 5105598538], "tags": {"amenity": "restaurant", "building": "yes", "cuisine": "african;pasta;international;french;arab", "name": "Caf\u00e9t\u00e9ria de l'universit\u00e9", "name:en": "university's cafeteria", "name:fr": "Caf\u00e9t\u00e9ria de l'universit\u00e9", "opening_hours": "12:00-13:30"}}, {"type": "way", "id": 524702818, "nodes": [5105712660, 5105712661, 5105712662, 5105712663, 5105712648, 5105712649, 5105712650, 5105712651, 5105712658, 5105712659, 5105712652, 5105712653, 5105712654, 5105712655, 5105712656, 5105712657, 5105712660], "tags": {"amenity": "cafe", "building": "yes", "name": "Caf\u00e9"}}, {"type": "way", "id": 607178568, "nodes": [5754951936, 5754951937, 5754951938, 5754951939, 5754951936], "tags": {"addr:city": "Ksar Sbahi", "addr:postcode": "04018", "amenity": "restaurant", "building": "yes", "name": "Restaurant scolaire", "name:ar": "\u0645\u0637\u0639\u0645 \u0645\u062f\u0631\u0633\u064a", "name:ber": "Tneccit n u\u0263erbaz", "name:en": "school canteen", "name:fr": "Cantine scolaire"}}, {"type": "way", "id": 1181381609, "nodes": [10971217092, 10971214126, 10971220103, 10971218105, 10971216459, 10971221301, 10971221687, 10971222782, 10971222319, 4770648529, 10971217092], "tags": {"addr:country": "DZ", "amenity": "cafe", "building": "yes", "source": "FB: Algerie Mapper Team"}}, {"type": "way", "id": 1181381923, "nodes": [4770664428, 10971215117, 10971218093, 10971221592, 10971218765, 10971226805, 10971222629, 10971194057, 4770664428], "tags": {"addr:country": "DZ", "amenity": "cafe", "building": "yes", "source": "FB: Algerie Mapper Team"}}, {"type": "way", "id": 1181382310, "nodes": [10971217486, 10971220766, 10971225811, 10971217098, 10971223421, 10971221212, 4361813301, 10971222729, 10971225410, 10971221276, 10971218502, 10971214296, 10971214589, 10971217267, 10971217486], "tags": {"addr:country": "DZ", "amenity": "cafe", "building": "yes", "name": "chicha club", "source": "FB: Algerie Mapper Team"}}, {"type": "way", "id": 1277665754, "nodes": [11860836325, 11860836326, 11860836327, 11860836328, 11860836325], "tags": {"amenity": "restaurant", "building": "yes", "name": "Rsetaurant"}}]}