{"version": 0.6, "generator": "Overpass API 0.7.62.7 375dc00a", "osm3s": {"timestamp_osm_base": "2025-06-14T13:53:29Z", "copyright": "The data included in this document is from www.openstreetmap.org. The data is made available under ODbL."}, "elements": [{"type": "node", "id": 535899531, "lat": 42.7066364, "lon": 13.8233563, "tags": {"amenity": "restaurant", "name": "Agriservice Bellante"}}, {"type": "node", "id": 1010441552, "lat": 42.7510397, "lon": 13.9583542, "tags": {"addr:street": "Corso Giuseppe Garibaldi", "amenity": "cafe", "name": "Caff\u00e9 Marcozzi", "outdoor_seating": "yes"}}, {"type": "node", "id": 1010441618, "lat": 42.7509499, "lon": 13.9582815, "tags": {"addr:city": "Giulianova", "addr:housenumber": "5", "addr:postcode": "64021", "addr:street": "Corso Giuseppe Garibaldi", "amenity": "restaurant", "contact:phone": "+39 085 800 6181", "cuisine": "seafood", "name": "Orologio"}}, {"type": "node", "id": 1092382929, "lat": 42.6558795, "lon": 14.035797}, {"type": "node", "id": 1092382933, "lat": 42.6560789, "lon": 14.0357111}, {"type": "node", "id": 1092382963, "lat": 42.6561186, "lon": 14.0358812}, {"type": "node", "id": 1092382983, "lat": 42.6559192, "lon": 14.0359672}, {"type": "node", "id": 1102215095, "lat": 42.6598567, "lon": 13.7036023, "tags": {"amenity": "cafe", "name": "Caff\u00e9 Latino"}}, {"type": "node", "id": 1270080476, "lat": 42.6672876, "lon": 14.0247493, "tags": {"addr:housenumber": "3", "addr:street": "Via Marcantonio", "amenity": "restaurant", "cuisine": "regional", "email": "info@hotellatartaruga.it", "fax": "+39 085 8996166", "name": "La Tartaruga", "phone": "+39 085 8996166", "stars": "3", "tourism": "hotel", "website": "https://hotellatartaruga.it/"}}, {"type": "node", "id": 1271159034, "lat": 42.6481764, "lon": 13.866566, "tags": {"agritourism": "yes", "amenity": "restaurant", "name": "Agriturismo Colle Cimone"}}, {"type": "node", "id": 1298561986, "lat": 42.662054, "lon": 13.6995172, "tags": {"amenity": "cafe", "name": "Perbacco"}}, {"type": "node", "id": 1298742509, "lat": 42.6703612, "lon": 14.0225527}, {"type": "node", "id": 1298742510, "lat": 42.6701622, "lon": 14.02273}, {"type": "node", "id": 1298742511, "lat": 42.6702945, "lon": 14.0224143}, {"type": "node", "id": 1298742512, "lat": 42.6700955, "lon": 14.0225916}, {"type": "node", "id": 1357500378, "lat": 42.8052302, "lon": 13.9271744}, {"type": "node", "id": 1359121040, "lat": 42.674702, "lon": 13.7547691, "tags": {"addr:city": "Teramo", "addr:milestone": "1.822", "addr:postcode": "64100", "addr:street": "Strada Statale 80 racc di Teramo", "amenity": "restaurant", "email": "consiglireclami@sarniristorazione.it", "name": "Sarni Terrabianca", "ref": "94", "website": "https://www.sarniristorazione.it/item/ads-terrabianca-2/"}}, {"type": "node", "id": 1363064790, "lat": 42.6604378, "lon": 13.6995125, "tags": {"amenity": "cafe", "check_date": "2025-05-24", "name": "San Matteo"}}, {"type": "node", "id": 1482090968, "lat": 42.6638068, "lon": 14.0253698, "tags": {"amenity": "cafe", "name": "Eni Caf\u00e9 e Shop"}}, {"type": "node", "id": 1546292168, "lat": 42.7011177, "lon": 13.9151793}, {"type": "node", "id": 1546292173, "lat": 42.7011594, "lon": 13.9153622}, {"type": "node", "id": 1546292177, "lat": 42.7012102, "lon": 13.9150666}, {"type": "node", "id": 1546292180, "lat": 42.7012672, "lon": 13.9153168}, {"type": "node", "id": 1552823594, "lat": 42.7135391, "lon": 13.9160066}, {"type": "node", "id": 1552823611, "lat": 42.7136171, "lon": 13.9162218}, {"type": "node", "id": 1552823621, "lat": 42.7136591, "lon": 13.9159261}, {"type": "node", "id": 1552823623, "lat": 42.7136749, "lon": 13.916183}, {"type": "node", "id": 1552823635, "lat": 42.7137193, "lon": 13.9163055}, {"type": "node", "id": 1552823640, "lat": 42.7137815, "lon": 13.9162638}, {"type": "node", "id": 1560437847, "lat": 42.7537534, "lon": 13.9573236}, {"type": "node", "id": 1560437864, "lat": 42.7537322, "lon": 13.9570964}, {"type": "node", "id": 1560437912, "lat": 42.7539983, "lon": 13.9572976}, {"type": "node", "id": 1560438012, "lat": 42.7539735, "lon": 13.957058}, {"type": "node", "id": 1647513482, "lat": 42.7587909, "lon": 13.9654593}, {"type": "node", "id": 1647513491, "lat": 42.7589008, "lon": 13.9657663}, {"type": "node", "id": 1647513493, "lat": 42.7588833, "lon": 13.9653979}, {"type": "node", "id": 1647513497, "lat": 42.7589932, "lon": 13.9657049}, {"type": "node", "id": 1656012730, "lat": 42.8142187, "lon": 13.8465785, "tags": {"addr:city": "Corropoli", "addr:street": "Viale gran sasso", "amenity": "restaurant", "cuisine": "seafood", "description": "bed and brekfast/ristorante specialit\u00e0 pesce", "name": "Ristorante da Luigi", "website": "https://www.acasadiluigi.it/"}}, {"type": "node", "id": 1657398826, "lat": 42.8174202, "lon": 13.8610468, "tags": {"addr:city": "Corropoli", "addr:housenumber": "91", "addr:postcode": "64013", "addr:street": "Viale Adriatico", "amenity": "restaurant", "contact:facebook": "https://www.facebook.com/lalocandadellatradizione", "contact:instagram": "https://www.instagram.com/lalocanda_official", "cuisine": "regional", "email": "info@lalocandadellatradizione.it", "mobile": "+39 329 735 4764", "name": "La Locanda della Tradizione Abruzzese", "opening_hours": "Tu-Sa 12:15-14:15,19:15-22:15; Su 12:15-14:30", "phone": "+39 0861 810 129", "ref:vatin": "IT01471320679", "website": "https://www.lalocandadellatradizione.it/"}}, {"type": "node", "id": 1667744153, "lat": 42.6689266, "lon": 13.7136286, "tags": {"addr:city": "Teramo", "addr:housenumber": "23", "addr:postcode": "64100", "addr:street": "Viale della Resistenza", "amenity": "restaurant", "cuisine": "regional", "name": "Trattoria della Resistenza"}}, {"type": "node", "id": 1933684390, "lat": 42.6848763, "lon": 13.7925614, "tags": {"amenity": "restaurant", "name": "Bar 3000 Arrosticini"}}, {"type": "node", "id": 2088257300, "lat": 42.7468583, "lon": 13.9753869, "tags": {"addr:city": "Giulianova", "addr:postcode": "64021", "addr:street": "Lungomare Spalato", "amenity": "restaurant", "name": "Ristorante Lido Serenella"}}, {"type": "node", "id": 2088267992, "lat": 42.7448338, "lon": 13.9764103, "tags": {"addr:city": "Giulianova", "addr:postcode": "64021", "addr:street": "Lungomare Rodi", "amenity": "restaurant", "check_date": "2022-09-02", "name": "Spinnaker Beach", "wheelchair": "yes"}}, {"type": "node", "id": 2088380605, "lat": 42.7598033, "lon": 13.9661217, "tags": {"addr:city": "Giulianova", "addr:street": "Lungomare Zara", "amenity": "restaurant", "name": "Caprice"}}, {"type": "node", "id": 2149172294, "lat": 42.8166752, "lon": 13.9384324}, {"type": "node", "id": 2149172303, "lat": 42.8166099, "lon": 13.9380507}, {"type": "node", "id": 2149172323, "lat": 42.8164232, "lon": 13.9385322}, {"type": "node", "id": 2149172332, "lat": 42.8163541, "lon": 13.9381473}, {"type": "node", "id": 2152334662, "lat": 42.7246937, "lon": 13.9812155, "tags": {"amenity": "restaurant", "cuisine": "pizza", "name": "Pizzeria Walden"}}, {"type": "node", "id": 2303481725, "lat": 42.6970711, "lon": 13.7938846, "tags": {"amenity": "restaurant", "cuisine": "kebab"}}, {"type": "node", "id": 2335370633, "lat": 42.6106531, "lon": 13.9260935, "tags": {"amenity": "restaurant", "cuisine": "pizza", "name": "La taverna di Gianna"}}, {"type": "node", "id": 2335563949, "lat": 42.6133722, "lon": 13.8959214, "tags": {"addr:hamlet": "Stampalone", "addr:street": "Strada Provinciale 23a", "amenity": "restaurant", "bar": "yes", "contact:email": "info@ilparcodeipoeti.it", "contact:mobile": "+39 351 984 3006", "cuisine": "italian", "mobile": "+39 320 673 7567", "name": "Parco dei Poeti", "outdoor_seating": "yes", "url": "https://www.bbilparcodeipoeti.it/", "website": "https://www.ilparcodeipoeti.it/"}}, {"type": "node", "id": 2383716766, "lat": 42.6699334, "lon": 13.7007909, "tags": {"amenity": "cafe"}}, {"type": "node", "id": 2414402323, "lat": 42.5810603, "lon": 13.9789396, "tags": {"air_conditioning": "yes", "amenity": "restaurant", "contact:facebook": "https://facebook.com/www.zedi.it", "cuisine": "italian;regional", "indoor_seating": "yes", "level": "0", "name": "Hostaria Zedi", "outdoor_seating": "yes", "phone": "+39 329 535 1806", "wheelchair": "yes"}}, {"type": "node", "id": 2414488830, "lat": 42.5800718, "lon": 13.9786046, "tags": {"addr:city": "Atri", "addr:housenumber": "23", "addr:street": "Piazza Duomo", "amenity": "restaurant", "check_date": "2022-08-31", "cuisine": "italian;pizza;regional", "name": "La campana d'oro", "payment:bancomat": "yes", "payment:debit_cards": "yes", "payment:maestro": "yes", "payment:mastercard": "yes", "payment:visa": "yes", "payment:visa_debit": "yes", "payment:visa_electron": "yes", "phone": "+39 085 8798207", "wheelchair": "limited"}}, {"type": "node", "id": 2414782168, "lat": 42.581126, "lon": 13.9865452, "tags": {"addr:city": "Atri", "addr:housenumber": "1", "addr:postcode": "64032", "addr:street": "Viale Umberto Primo", "amenity": "cafe", "name": "Bar San Francesco", "old_name": "Eden Garden 2.0", "operator": "Pasquale Matricciani", "ref:vatin": "IT01529420679", "was:facebook": "https://www.facebook.com/ilbarrettodiatri/", "was:operator": "S. Seconetti", "was:phone": "+39 389 697 7194"}}, {"type": "node", "id": 2445075471, "lat": 42.6563754, "lon": 13.7067023}, {"type": "node", "id": 2445075472, "lat": 42.6563634, "lon": 13.7068802}, {"type": "node", "id": 2445075473, "lat": 42.6562222, "lon": 13.7068626}, {"type": "node", "id": 2445075474, "lat": 42.6562342, "lon": 13.7066847}, {"type": "node", "id": 2446479234, "lat": 42.6587404, "lon": 13.702447, "tags": {"addr:postcode": "64100", "addr:street": "Piazza Martiri della Libert\u00e0", "amenity": "cafe", "cuisine": "italian", "name": "Caff\u00e8 dell'Olmo", "opening_hours": "Mo-Su 06:00-01:00", "outdoor_seating": "yes", "phone": "+39 0861 244496", "smoking": "outside"}}, {"type": "node", "id": 2465691141, "lat": 42.7600657, "lon": 13.9647859, "tags": {"addr:city": "Giulianova", "addr:street": "Lungomare Zara", "amenity": "restaurant", "cuisine": "italian", "name": "Pane e vino"}}, {"type": "node", "id": 2474178764, "lat": 42.6615973, "lon": 13.6979954}, {"type": "node", "id": 2474178767, "lat": 42.6616786, "lon": 13.6980766}, {"type": "node", "id": 2474178770, "lat": 42.6617386, "lon": 13.6979653}, {"type": "node", "id": 2474178773, "lat": 42.6616405, "lon": 13.6978673}, {"type": "node", "id": 2474178776, "lat": 42.6615975, "lon": 13.697947}, {"type": "node", "id": 2474200344, "lat": 42.6594148, "lon": 13.703089, "tags": {"amenity": "cafe", "name": "Bar Calipso", "outdoor_seating": "yes", "smoking": "outside"}}, {"type": "node", "id": 2474210109, "lat": 42.6556588, "lon": 13.6946496}, {"type": "node", "id": 2474210110, "lat": 42.6555354, "lon": 13.6947229}, {"type": "node", "id": 2474210111, "lat": 42.6556612, "lon": 13.6952586}, {"type": "node", "id": 2474210112, "lat": 42.655763, "lon": 13.6952082}, {"type": "node", "id": 2474210113, "lat": 42.655745, "lon": 13.6950258}, {"type": "node", "id": 2474210114, "lat": 42.6557738, "lon": 13.6949965}, {"type": "node", "id": 2474210115, "lat": 42.6557127, "lon": 13.6948662}, {"type": "node", "id": 2474227026, "lat": 42.650327, "lon": 13.7230495}, {"type": "node", "id": 2474227031, "lat": 42.6503051, "lon": 13.722969}, {"type": "node", "id": 2474227034, "lat": 42.6502674, "lon": 13.722988}, {"type": "node", "id": 2474227037, "lat": 42.6502057, "lon": 13.7227608}, {"type": "node", "id": 2474227040, "lat": 42.6500363, "lon": 13.7228459}, {"type": "node", "id": 2474227043, "lat": 42.6501199, "lon": 13.7231535}, {"type": "node", "id": 2477521674, "lat": 42.6599133, "lon": 13.6961771, "tags": {"amenity": "cafe", "name": "Bar Grillo verde"}}, {"type": "node", "id": 2477523007, "lat": 42.6598502, "lon": 13.6958552, "tags": {"amenity": "cafe", "name": "Caff\u00e8 Poyel"}}, {"type": "node", "id": 2477540750, "lat": 42.6586269, "lon": 13.6934008, "tags": {"amenity": "cafe", "name": "Bar Ateneo"}}, {"type": "node", "id": 2503708849, "lat": 42.6577781, "lon": 13.7054282, "tags": {"amenity": "restaurant", "cuisine": "pizza", "name": "La cantinetta"}}, {"type": "node", "id": 2503709312, "lat": 42.6594464, "lon": 13.7039459, "tags": {"amenity": "restaurant", "cuisine": "pizza", "name": "El gato"}}, {"type": "node", "id": 2513479822, "lat": 42.6625807, "lon": 13.7155481, "tags": {"amenity": "restaurant", "cuisine": "pizza", "name": "Il caminetto rosso"}}, {"type": "node", "id": 2514416360, "lat": 42.6601402, "lon": 13.7008519, "tags": {"amenity": "cafe", "check_date": "2025-05-24", "name": "New York"}}, {"type": "node", "id": 2514417644, "lat": 42.6602649, "lon": 13.7010742, "tags": {"amenity": "restaurant", "cuisine": "pizza", "name": "Pizzeria Da Mario"}}, {"type": "node", "id": 2516059267, "lat": 42.6609641, "lon": 13.6970811, "tags": {"amenity": "cafe", "name": "Monblanc"}}, {"type": "node", "id": 2516059997, "lat": 42.658528, "lon": 13.6992238, "tags": {"amenity": "cafe", "name": "Caff\u00e8 Boromei"}}, {"type": "node", "id": 2516060377, "lat": 42.6583784, "lon": 13.7038181, "tags": {"amenity": "cafe", "name": "Caff\u00e8 Al Duomo"}}, {"type": "node", "id": 2516062284, "lat": 42.6601534, "lon": 13.7144374, "tags": {"amenity": "cafe", "check_date": "2025-05-24", "name": "Gran Caff\u00e8 Crispi"}}, {"type": "node", "id": 2516063737, "lat": 42.6630281, "lon": 13.7139213, "tags": {"amenity": "cafe", "name": "Apollo 11"}}, {"type": "node", "id": 2516063869, "lat": 42.6638151, "lon": 13.7136557, "tags": {"amenity": "cafe", "name": "Caff\u00e8 Del principe"}}, {"type": "node", "id": 2516066666, "lat": 42.6745922, "lon": 13.7383937, "tags": {"amenity": "cafe", "name": "White Bar"}}, {"type": "node", "id": 2527826356, "lat": 42.7974917, "lon": 13.7810008, "tags": {"addr:city": "Sant'Omero", "addr:housename": "via Metella Nuova", "addr:housenumber": "37", "addr:postcode": "64027", "addr:street": "Strada Provinciale 259 della Val Vibrata", "amenity": "restaurant", "cuisine": "italian", "name": "Villa Corallo"}}, {"type": "node", "id": 2555871781, "lat": 42.6585275, "lon": 13.6905615, "tags": {"amenity": "cafe", "name": "Nuovo Bar Tabacchi", "shop": "tobacco"}}, {"type": "node", "id": 2562267468, "lat": 42.662282, "lon": 13.7110953, "tags": {"amenity": "restaurant", "cuisine": "chinese", "name": "Il giardino della felicit\u00e0", "outdoor_seating": "no"}}, {"type": "node", "id": 2652570328, "lat": 42.6785386, "lon": 13.9887679}, {"type": "node", "id": 2652570330, "lat": 42.6783825, "lon": 13.9887642}, {"type": "node", "id": 2652570331, "lat": 42.6783773, "lon": 13.9891584}, {"type": "node", "id": 2652570333, "lat": 42.6785335, "lon": 13.9891622}, {"type": "node", "id": 2653879468, "lat": 42.6616196, "lon": 13.702115, "tags": {"amenity": "cafe"}}, {"type": "node", "id": 3215563947, "lat": 42.6600106, "lon": 13.6982376, "tags": {"addr:city": "Teramo", "addr:housenumber": "11", "addr:postcode": "64100", "addr:street": "Viale Giuseppe Mazzini", "amenity": "cafe", "name": "Chicco Verde", "phone": "+39 349 1235800"}}, {"type": "node", "id": 3215578453, "lat": 42.6629676, "lon": 13.7223387}, {"type": "node", "id": 3215578454, "lat": 42.6628599, "lon": 13.7224716}, {"type": "node", "id": 3215578455, "lat": 42.6630135, "lon": 13.7227019}, {"type": "node", "id": 3215578456, "lat": 42.6631212, "lon": 13.722569}, {"type": "node", "id": 3215590611, "lat": 42.6591989, "lon": 13.7056374, "tags": {"addr:city": "Teramo", "addr:housenumber": "37", "addr:postcode": "64100", "addr:street": "Via Torre Bruciata", "amenity": "restaurant", "cuisine": "pizza", "name": "Pizzeria Teramo", "phone": "+39 0861 252725"}}, {"type": "node", "id": 3760992668, "lat": 42.6930549, "lon": 13.7854668, "tags": {"amenity": "restaurant", "cuisine": "pizza", "smoking": "outside"}}, {"type": "node", "id": 3760993816, "lat": 42.6944999, "lon": 13.789314, "tags": {"amenity": "restaurant", "cuisine": "pizza", "name": "Pizzeria", "takeaway": "yes"}}, {"type": "node", "id": 3761053867, "lat": 42.7071334, "lon": 13.8244775, "tags": {"amenity": "restaurant", "cuisine": "pizza"}}, {"type": "node", "id": 3761814479, "lat": 42.6935147, "lon": 13.7825375, "tags": {"amenity": "restaurant", "name": "Acquamarina"}}, {"type": "node", "id": 3763642397, "lat": 42.6580116, "lon": 13.7063838, "tags": {"amenity": "cafe", "check_date": "2025-05-24", "name": "Bar del Corso"}}, {"type": "node", "id": 3763646824, "lat": 42.6953174, "lon": 13.7888924, "tags": {"amenity": "cafe"}}, {"type": "node", "id": 3763662281, "lat": 42.657339, "lon": 13.7020842, "tags": {"amenity": "cafe", "name": "Bar Sor Paolo"}}, {"type": "node", "id": 3763662283, "lat": 42.6583134, "lon": 13.7020198, "tags": {"amenity": "cafe", "cuisine": "italian", "name": "Novecento"}}, {"type": "node", "id": 3763662284, "lat": 42.6582424, "lon": 13.7014955, "tags": {"amenity": "cafe", "name": "Bar Donna Francesca", "opening_hours": "Mo-Sa 06:00-22:00", "phone": "+39 371 311 4978"}}, {"type": "node", "id": 3763662286, "lat": 42.6594398, "lon": 13.7004443, "tags": {"amenity": "cafe"}}, {"type": "node", "id": 3928706026, "lat": 42.7069393, "lon": 13.8732923, "tags": {"addr:city": "Mosciano Sant'Angelo", "addr:housenumber": "1", "addr:postcode": "64023", "addr:street": "Via Garibaldi", "amenity": "cafe", "name": "Bar Olimpus 2", "opening_hours": "06:00-21:00", "smoking": "isolated"}}, {"type": "node", "id": 4102525682, "lat": 42.6602615, "lon": 13.7185457, "tags": {"amenity": "restaurant", "name": "La Stazione", "smoking": "outside"}}, {"type": "node", "id": 4103635404, "lat": 42.6607745, "lon": 13.7158475, "tags": {"amenity": "restaurant", "check_date": "2025-05-24", "name": "Capolinea"}}, {"type": "node", "id": 4216199950, "lat": 42.7896759, "lon": 13.9483874, "tags": {"amenity": "restaurant", "check_date:opening_hours": "2023-11-16", "name": "Playa Sirena", "opening_hours:signed": "no", "wheelchair": "yes"}}, {"type": "node", "id": 4309408058, "lat": 42.6989338, "lon": 13.83966, "tags": {"amenity": "restaurant", "name": "Il Cavallino Rosso"}}, {"type": "node", "id": 4309408072, "lat": 42.7067256, "lon": 13.8350825, "tags": {"amenity": "cafe", "name": "Grande Italia"}}, {"type": "node", "id": 4336654665, "lat": 42.7136298, "lon": 13.9165457, "tags": {"amenity": "restaurant", "name": "Podere Marcant\u00f2 Agriturimo"}}, {"type": "node", "id": 4367037037, "lat": 42.591263, "lon": 14.0659068, "tags": {"addr:city": "Pineto", "addr:housenumber": "1", "addr:postcode": "64025", "addr:street": "Contrada Santa Maria a Valle", "amenity": "restaurant", "cuisine": "regional;italian", "name": "Agriturismo Fattoria di Leopoldo", "phone": "+39 085 949 3330"}}, {"type": "node", "id": 4367037038, "lat": 42.5856118, "lon": 14.0531862, "tags": {"addr:city": "Mutignano / Pineto", "addr:postcode": "64025", "addr:street": "Via Fonte Antica", "amenity": "restaurant", "cuisine": "regional;italian", "name": "Il Contadino - Agriturismo", "phone": "+39 085 936319"}}, {"type": "node", "id": 4370242939, "lat": 42.7542291, "lon": 13.9687306, "tags": {"addr:city": "Giulianova", "addr:street": "Lungomare Zara", "amenity": "cafe", "ice_cream": "artisanal", "name": "Marechiaro", "outdoor_seating": "yes", "takeaway": "yes"}}, {"type": "node", "id": 4370242942, "lat": 42.7570207, "lon": 13.9670528, "tags": {"addr:city": "Giulianova", "addr:housenumber": "35", "addr:postcode": "64021", "addr:street": "Lungomare Zara", "amenity": "cafe", "cuisine": "ice_cream", "name": "Oasi", "outdoor_seating": "yes"}}, {"type": "node", "id": 4370270589, "lat": 42.7590581, "lon": 13.9639975, "tags": {"amenity": "restaurant", "cuisine": "piadina;crepe", "name": "La gradisca"}}, {"type": "node", "id": 4480247938, "lat": 42.6654428, "lon": 13.690318}, {"type": "node", "id": 4480247939, "lat": 42.6655155, "lon": 13.6901702}, {"type": "node", "id": 4480247940, "lat": 42.6653952, "lon": 13.6900607}, {"type": "node", "id": 4480247941, "lat": 42.6653225, "lon": 13.6902086}, {"type": "node", "id": 4507379481, "lat": 42.7102761, "lon": 13.9113866, "tags": {"addr:city": "Mosciano Sant'Angelo", "addr:housenumber": "1", "addr:postcode": "64023", "addr:street": "Strada Statale 80 racc di Teramo", "amenity": "cafe", "contact:phone": "+39 085 421 0743", "cuisine": "italian", "description": "Mosciano Stazione SuperStrada Uscita A 14, 64023, Mosciano Sant'Angelo Italia", "internet_access": "yes", "name": "Bar 101", "opening_hours": "24/7", "smoking": "isolated"}}, {"type": "node", "id": 4510921678, "lat": 42.6581004, "lon": 13.7008466, "tags": {"amenity": "restaurant", "cuisine": "italian", "delivery": "no", "name": "Le arcate", "outdoor_seating": "no", "smoking": "no"}}, {"type": "node", "id": 4562600887, "lat": 42.7989802, "lon": 13.7313392, "tags": {"amenity": "restaurant", "name": "Ristorante Pizzeria Santa Croce"}}, {"type": "node", "id": 4741801283, "lat": 42.7704472, "lon": 13.6795262, "tags": {"amenity": "restaurant", "cuisine": "italian", "name": "Ristorante Colle Santamaria"}}, {"type": "node", "id": 4741838250, "lat": 42.7974312, "lon": 13.7121249, "tags": {"amenity": "restaurant", "cuisine": "italian", "name": "Ristorante Al Feudo"}}, {"type": "node", "id": 4834332308, "lat": 42.7497051, "lon": 13.8886119, "tags": {"addr:city": "Mosciano Sant'Angelo", "addr:housenumber": "19", "addr:postcode": "64023", "addr:street": "Via Settimio Passamonti", "amenity": "cafe", "name": "Gran Noblesse", "outdoor_seating": "yes"}}, {"type": "node", "id": 4836470663, "lat": 42.7089589, "lon": 13.9201337, "tags": {"addr:city": "Mosciano Sant'Angelo", "addr:housenumber": "18", "addr:postcode": "64023", "addr:street": "Via Filetto", "addr:suburb": "Contrada Mulinetto", "amenity": "restaurant", "name": "Lago Paradise"}}, {"type": "node", "id": 4903905453, "lat": 42.6562615, "lon": 13.6952128, "tags": {"addr:city": "Teramo", "addr:postcode": "64100", "addr:street": "Via Conte Contin", "amenity": "restaurant", "cuisine": "argentinian", "name": "Ristorante argentino \"Bel\u00e9n\""}}, {"type": "node", "id": 4979609008, "lat": 42.6854925, "lon": 13.7668414, "tags": {"amenity": "restaurant", "cuisine": "asian", "name": "Sushi Wok"}}, {"type": "node", "id": 5232583082, "lat": 42.8108464, "lon": 13.7287672}, {"type": "node", "id": 5232583086, "lat": 42.8106988, "lon": 13.7289521}, {"type": "node", "id": 5232583156, "lat": 42.8123619, "lon": 13.729316}, {"type": "node", "id": 5232583157, "lat": 42.8123068, "lon": 13.7292838}, {"type": "node", "id": 5232583158, "lat": 42.8123541, "lon": 13.7291363}, {"type": "node", "id": 5232583159, "lat": 42.8124092, "lon": 13.7291685}, {"type": "node", "id": 5232583211, "lat": 42.8116532, "lon": 13.7281646}, {"type": "node", "id": 5232583212, "lat": 42.8114949, "lon": 13.7280825}, {"type": "node", "id": 5232583213, "lat": 42.8115319, "lon": 13.7279499}, {"type": "node", "id": 5232583214, "lat": 42.8116902, "lon": 13.7280319}, {"type": "node", "id": 5232583227, "lat": 42.8106501, "lon": 13.7286133}, {"type": "node", "id": 5232583228, "lat": 42.8106225, "lon": 13.7289432}, {"type": "node", "id": 5232583229, "lat": 42.8108291, "lon": 13.7289673}, {"type": "node", "id": 5232583230, "lat": 42.8108567, "lon": 13.7286481}, {"type": "node", "id": 5352133822, "lat": 42.657248, "lon": 13.701178, "tags": {"addr:housenumber": "105", "addr:postcode": "64100", "addr:street": "Corso Porta Romana", "amenity": "restaurant", "cuisine": "regional", "name": "La Cantina di Porta Romana", "phone": "+39 0861 252257", "website": "https://www.lacantinadiportaromana.it/"}}, {"type": "node", "id": 5413717065, "lat": 42.677594, "lon": 13.9877925, "tags": {"amenity": "restaurant", "capacity": "50", "check_date": "2024-06-12", "cuisine": "pizza;regional", "name": "Il Grottino", "opening_hours": "Mo-Su 12:30-15:00,19:30-23:00"}}, {"type": "node", "id": 5422783548, "lat": 42.6910571, "lon": 14.0037951, "tags": {"amenity": "restaurant", "cuisine": "pizza", "delivery": "no", "name": "Da Rocco", "outdoor_seating": "yes", "takeaway": "yes", "wheelchair": "yes"}}, {"type": "node", "id": 5422793414, "lat": 42.6787746, "lon": 14.0140729, "tags": {"addr:street": "Via Giovanni Thaulero", "amenity": "restaurant", "cuisine": "sushi", "name": "Sushita", "outdoor_seating": "yes"}}, {"type": "node", "id": 5431435163, "lat": 42.5880212, "lon": 14.0344143}, {"type": "node", "id": 5431435164, "lat": 42.5879733, "lon": 14.0344264}, {"type": "node", "id": 5431435165, "lat": 42.5879852, "lon": 14.034514}, {"type": "node", "id": 5431435166, "lat": 42.587939, "lon": 14.0345256}, {"type": "node", "id": 5431435167, "lat": 42.587957, "lon": 14.0346576}, {"type": "node", "id": 5431435168, "lat": 42.5880511, "lon": 14.034634}, {"type": "node", "id": 5431437321, "lat": 42.587976, "lon": 14.0344467}, {"type": "node", "id": 5431437324, "lat": 42.5879523, "lon": 14.0346228}, {"type": "node", "id": 5512005521, "lat": 42.8026443, "lon": 13.9438761, "tags": {"addr:postcode": "64018", "addr:street": "Lungomare Sirena", "amenity": "restaurant", "cuisine": "italian_pizza;italian", "internet_access": "wlan", "name": "Chalet Murena", "website": "https://www.chaletmurenatortoreto.it/"}}, {"type": "node", "id": 5639795520, "lat": 42.7268662, "lon": 13.6870808, "tags": {"addr:housenumber": "29", "amenity": "cafe", "name": "Bar dello Sport"}}, {"type": "node", "id": 5639797697, "lat": 42.7262117, "lon": 13.6865145, "tags": {"addr:housenumber": "18", "amenity": "cafe", "name": "Caffe Farnese"}}, {"type": "node", "id": 5639856472, "lat": 42.7265249, "lon": 13.6861703, "tags": {"addr:housenumber": "4", "amenity": "restaurant", "name": "Tunnel", "note": "Pizzeria"}}, {"type": "node", "id": 5712020837, "lat": 42.7310309, "lon": 13.9473768, "tags": {"amenity": "restaurant", "description": "Nota discoteca della zona con disponibilit\u00e0 a prenotazioni per eventi vari.", "name": "Molik\u00e9"}}, {"type": "node", "id": 6311106512, "lat": 42.6937605, "lon": 14.0011697, "tags": {"amenity": "restaurant", "name": "Villa Paris"}}, {"type": "node", "id": 6391811832, "lat": 42.7539963, "lon": 13.957279}, {"type": "node", "id": 6391811833, "lat": 42.7539875, "lon": 13.9571938}, {"type": "node", "id": 6515110086, "lat": 42.6783526, "lon": 14.0158019, "tags": {"addr:street": "Via L'Aquila", "amenity": "cafe", "indoor_seating": "yes", "name": "Ambrosia Cafeter\u00eda Pasticceria Gelateria", "outdoor_seating": "yes"}}, {"type": "node", "id": 6602230828, "lat": 42.6693702, "lon": 13.9423092}, {"type": "node", "id": 6602230829, "lat": 42.6690296, "lon": 13.9427728}, {"type": "node", "id": 6602230831, "lat": 42.6691766, "lon": 13.9426138}, {"type": "node", "id": 6602230832, "lat": 42.6689766, "lon": 13.9426424}, {"type": "node", "id": 6602230833, "lat": 42.6693325, "lon": 13.9423375}, {"type": "node", "id": 6602230834, "lat": 42.6693302, "lon": 13.9423392}, {"type": "node", "id": 6602230837, "lat": 42.6694197, "lon": 13.9424309}, {"type": "node", "id": 6602230839, "lat": 42.6690691, "lon": 13.9425728}, {"type": "node", "id": 6602230840, "lat": 42.6691917, "lon": 13.9426509}, {"type": "node", "id": 6602230841, "lat": 42.6693418, "lon": 13.9423677}, {"type": "node", "id": 6602230844, "lat": 42.6691262, "lon": 13.9425298}, {"type": "node", "id": 6715487751, "lat": 42.6790338, "lon": 14.0150342, "tags": {"amenity": "restaurant", "name": "Bolla"}}, {"type": "node", "id": 6715528046, "lat": 42.6707041, "lon": 14.0218202, "tags": {"amenity": "restaurant", "name": "Nonno Chit\u00f2"}}, {"type": "node", "id": 6718174198, "lat": 42.675363, "lon": 14.0164645, "tags": {"amenity": "restaurant", "name": "Arena 4 Palme"}}, {"type": "node", "id": 6823756269, "lat": 42.8175307, "lon": 13.814452, "tags": {"amenity": "restaurant", "cuisine": "pizza"}}, {"type": "node", "id": 6833213485, "lat": 42.6106344, "lon": 14.0635377, "tags": {"amenity": "restaurant", "name": "Locanda D\u2019Annunzio"}}, {"type": "node", "id": 7247012483, "lat": 42.6664478, "lon": 13.7128944, "tags": {"amenity": "cafe", "name": "Bar Ristoro"}}, {"type": "node", "id": 7332939749, "lat": 42.8277785, "lon": 13.9316227, "tags": {"addr:city": "Alba Adriatica", "addr:housenumber": "23", "addr:postcode": "64011", "addr:street": "Via Trieste", "air_conditioning": "yes", "amenity": "cafe", "bar": "yes", "cuisine": "italian", "internet_access": "yes", "internet_access:fee": "no", "name": "Mado lounge bar", "opening_hours": "7:00-2:00", "outdoor_seating": "yes", "takeaway": "yes", "wheelchair": "yes"}}, {"type": "node", "id": 7383148694, "lat": 42.6398138, "lon": 13.8785902, "tags": {"addr:city": "Guardia Vomano", "addr:postcode": "64024", "addr:street": "Via Magnanella", "amenity": "restaurant", "name": "La Locanda Del Bastiano", "opening_hours": "Fr,Sa 19:30-24:00; Su 12:30-16:30", "phone": "+393283164422"}}, {"type": "node", "id": 7622820337, "lat": 42.6076092, "lon": 14.0659496, "tags": {"addr:city": "Pineto", "addr:housenumber": "18", "addr:postcode": "64025", "addr:street": "Via Giuseppe Garibaldi", "amenity": "cafe", "cuisine": "ice_cream;coffee_shop", "facebook": "https://www.facebook.com/pages/Bar-Centrale/550797165379645", "indoor_seating": "yes", "name": "Bar Gelateria Centrale", "outdoor_seating": "yes", "phone": "+39 085 949 2441"}}, {"type": "node", "id": 7726037609, "lat": 42.6004173, "lon": 14.0730231, "tags": {"addr:housenumber": "180", "addr:street": "Via Gabriele D'Annunzio", "amenity": "restaurant", "contact:facebook": "https://it-it.facebook.com/TrattoriaSaraceni/", "cuisine": "italian;regional", "name": "Trattoria SaraCeni", "phone": "+39 085 949 1069"}}, {"type": "node", "id": 7798782521, "lat": 42.6082785, "lon": 14.0676767, "tags": {"addr:city": "Pineto", "addr:postcode": "64025", "amenity": "restaurant", "contact:email": "info@ristoranteresilienza.it", "contact:phone": "+393314584273", "contact:website": "https://www.ristoranteresilienza.it", "cuisine": "italian;regional", "name": "Resilienza", "opening_hours": "Mo-Su 19:30-22:30"}}, {"type": "node", "id": 7806792567, "lat": 42.8035149, "lon": 13.9147881, "tags": {"addr:city": "Tortoreto", "addr:country": "IT", "addr:housenumber": "94", "addr:postcode": "64018", "addr:street": "Via Venti Settembre", "amenity": "restaurant", "cuisine": "italian;pizza", "name": "L'Antico Portone", "operator": "De Angelis D. & Di Eusebio F. snc", "outdoor_seating": "yes", "phone": "+39 0861 788979"}}, {"type": "node", "id": 7984938150, "lat": 42.7224413, "lon": 13.9882432}, {"type": "node", "id": 7984938151, "lat": 42.7223399, "lon": 13.9878238}, {"type": "node", "id": 7984938152, "lat": 42.7220178, "lon": 13.9879526}, {"type": "node", "id": 7984938153, "lat": 42.7221366, "lon": 13.9884022}, {"type": "node", "id": 8109834603, "lat": 42.6620422, "lon": 13.6989894, "tags": {"amenity": "restaurant", "cuisine": "pizza", "name": "Chez Roberto"}}, {"type": "node", "id": 8156218244, "lat": 42.6309667, "lon": 13.8826076}, {"type": "node", "id": 8156218245, "lat": 42.6306353, "lon": 13.8826637}, {"type": "node", "id": 8156218246, "lat": 42.6306845, "lon": 13.8836919}, {"type": "node", "id": 8156218247, "lat": 42.6308083, "lon": 13.8836711}, {"type": "node", "id": 8357870110, "lat": 42.7501265, "lon": 13.9713327, "tags": {"addr:city": "Giulianova", "addr:postcode": "64021", "addr:street": "Lungomare Spalato", "amenity": "restaurant", "cuisine": "pizza", "name": "Smile", "survey:date": "2023-10-31"}}, {"type": "node", "id": 8487518379, "lat": 42.6306544, "lon": 13.8833231}, {"type": "node", "id": 8487518380, "lat": 42.6306031, "lon": 13.8827645}, {"type": "node", "id": 8487518381, "lat": 42.6306095, "lon": 13.8827115}, {"type": "node", "id": 8494294552, "lat": 42.7451273, "lon": 13.9634716, "tags": {"addr:housenumber": "83", "addr:street": "Via Antonio Gramsci", "amenity": "cafe", "name": "Planet Bar"}}, {"type": "node", "id": 8494495040, "lat": 42.753545, "lon": 13.9675561, "tags": {"amenity": "restaurant", "cuisine": "italian", "name": "Sapori del Corso", "outdoor_seating": "yes"}}, {"type": "node", "id": 8500049587, "lat": 42.6709788, "lon": 14.022004, "tags": {"addr:city": "Roseto degli Abruzzi", "addr:postcode": "64026", "addr:street": "Lungomare Trieste", "amenity": "restaurant", "cuisine": "pizza;meat;regional", "name": "Nonno Chit\u00f2"}}, {"type": "node", "id": 8696375353, "lat": 42.6890672, "lon": 14.0082072}, {"type": "node", "id": 8696375354, "lat": 42.6891022, "lon": 14.0083129}, {"type": "node", "id": 8696375355, "lat": 42.689014, "lon": 14.008367}, {"type": "node", "id": 8696375356, "lat": 42.688979, "lon": 14.0082613}, {"type": "node", "id": 9044668371, "lat": 42.6853508, "lon": 14.0112302}, {"type": "node", "id": 9044668372, "lat": 42.6853067, "lon": 14.011296}, {"type": "node", "id": 9044668373, "lat": 42.685452, "lon": 14.0114215}, {"type": "node", "id": 9044668375, "lat": 42.6852964, "lon": 14.0112699}, {"type": "node", "id": 9044668376, "lat": 42.6853929, "lon": 14.0113221}, {"type": "node", "id": 9044668378, "lat": 42.6853706, "lon": 14.0112499}, {"type": "node", "id": 9044668379, "lat": 42.6853445, "lon": 14.011459}, {"type": "node", "id": 9044668380, "lat": 42.6853112, "lon": 14.0113826}, {"type": "node", "id": 9044668381, "lat": 42.6854241, "lon": 14.0113958}, {"type": "node", "id": 9044668382, "lat": 42.6852833, "lon": 14.0113185}, {"type": "node", "id": 9044668383, "lat": 42.6853079, "lon": 14.0112988}, {"type": "node", "id": 9044668384, "lat": 42.6854369, "lon": 14.0113858}, {"type": "node", "id": 9044668385, "lat": 42.6853613, "lon": 14.0112567}, {"type": "node", "id": 9044668388, "lat": 42.6853593, "lon": 14.0114941}, {"type": "node", "id": 9044668389, "lat": 42.6853991, "lon": 14.0113173}, {"type": "node", "id": 9048801358, "lat": 42.6934274, "lon": 14.0038747, "tags": {"addr:city": "Roseto degli Abruzzi", "addr:street": "Via Makarska", "amenity": "restaurant", "level": "0", "name": "L'arrosticino da Fiorella", "outdoor_seating": "yes", "phone:mobile": "+39 333 910 4802", "ref:vatin": "IT01829590676", "reservation": "recommended", "smoking": "outside", "takeaway": "yes", "wheelchair": "yes"}}, {"type": "node", "id": 9054652882, "lat": 42.7013291, "lon": 14.0002126, "tags": {"amenity": "cafe", "level": "0", "outdoor_seating": "yes", "smoking": "outside", "takeaway": "yes", "toilets": "no", "wheelchair": "designated"}}, {"type": "node", "id": 9077678008, "lat": 42.5876999, "lon": 13.9478798, "tags": {"addr:city": "Atri", "addr:postcode": "64032", "addr:street": "Contrada Santa Lucia", "amenity": "restaurant", "cuisine": "italian;pizza;regional;barbecue", "name": "L'Oasi dei Calanchi", "phone": "+39 085 4224306"}}, {"type": "node", "id": 9077699126, "lat": 42.5758486, "lon": 13.9137351, "tags": {"addr:city": "Montefino", "addr:postcode": "64030", "addr:street": "Contrada Manzitti", "amenity": "restaurant", "cuisine": "italian;regional;barbecue", "name": "sott'a la Cerqua", "phone": "+39 0861 996449;+39 331 8157910"}}, {"type": "node", "id": 9484166230, "lat": 42.5863645, "lon": 13.959427, "tags": {"amenity": "restaurant", "name": "I Custodi del Gusto", "phone:mobile": "+39 328 053 5635"}}, {"type": "node", "id": 9620442367, "lat": 42.6122821, "lon": 14.045403, "tags": {"amenity": "restaurant", "name": "Ristorante Pier delle Vigne"}}, {"type": "node", "id": 9790197652, "lat": 42.6776971, "lon": 13.9890723, "tags": {"addr:city": "Montepagano", "addr:postcode": "64026", "addr:street": "Piazza del Municipio", "amenity": "cafe", "check_date": "2024-06-12", "cuisine": "no", "name": "Vicus", "opening_hours": "Mo-Su,PH 07:00-13:00,16:00-24:00", "operator": "Emiliano Simula", "outdoor_seating": "yes", "payment:cash": "yes", "payment:credit_cards": "yes", "payment:debit_cards": "yes", "phone": "+39 085 894 1885", "ref:vatin": "IT01724430671"}}, {"type": "node", "id": 9790197664, "lat": 42.6774666, "lon": 13.9887958, "tags": {"addr:city": "Montepagano", "addr:postcode": "64026", "addr:street": "Via del Borgo", "amenity": "restaurant", "cuisine": "regional;italian", "name": "D One"}}, {"type": "node", "id": 9805426776, "lat": 42.5881858, "lon": 14.0367113, "tags": {"addr:city": "Mutignano", "addr:postcode": "64025", "addr:street": "Via Madonna", "amenity": "cafe", "facebook": "https://www.facebook.com/CaffeDelCorsoMutignano/", "gambling": "lottery", "name": "Caff\u00e8 del Corso", "opening_hours": "Tu-Su 07:00-01:00; Mo off", "operator": "Daniele Torrieri", "outdoor_seating": "yes", "ref:vatin": "IT01843140672", "shop": "tobacco"}}, {"type": "node", "id": 9807999872, "lat": 42.5807239, "lon": 13.9775167, "tags": {"addr:city": "Atri", "addr:housenumber": "4", "addr:postcode": "64032", "addr:street": "Largo Forcella", "amenity": "restaurant", "cuisine": "pizza", "facebook": "https://it-it.facebook.com/pages/category/Pizza-Place/Pizzeria-la-Piazzetta-Atri-1511397302480469/", "name": "La Piazzetta", "phone": "+39 085 879 8207"}}, {"type": "node", "id": 9834216381, "lat": 42.6644847, "lon": 13.9186936, "tags": {"amenity": "restaurant", "note": "Once upon a time.... Bar-Ristorante La Quercia", "outdoor_seating": "yes"}}, {"type": "node", "id": 9853650422, "lat": 42.6060255, "lon": 14.0690459, "tags": {"addr:city": "Pineto", "addr:housenumber": "197", "addr:postcode": "64025", "addr:street": "Via Gabriele D'Annunzio", "amenity": "restaurant", "contact:facebook": "https://www.facebook.com/BonAssibistrobottega/", "contact:phone": "+393283327402", "cuisine": "italian;regional", "name": "Bonass\u00ec"}}, {"type": "node", "id": 9899816677, "lat": 42.6482855, "lon": 14.0392696, "tags": {"amenity": "restaurant", "name": "Restaurant Mare & Monti"}}, {"type": "node", "id": 9949582600, "lat": 42.6025338, "lon": 14.0684259, "tags": {"amenity": "cafe", "indoor_seating": "yes;bar_table", "level": "0", "name": "Area 21", "outdoor_seating": "yes"}}, {"type": "node", "id": 9970093923, "lat": 42.7370054, "lon": 13.9811867}, {"type": "node", "id": 9970093924, "lat": 42.7370423, "lon": 13.9812839}, {"type": "node", "id": 9970093925, "lat": 42.7371087, "lon": 13.9812371}, {"type": "node", "id": 9970093926, "lat": 42.7370718, "lon": 13.9811399}, {"type": "node", "id": 9970972254, "lat": 42.7367504, "lon": 13.9797059, "tags": {"amenity": "cafe", "check_date": "2022-08-28", "cuisine": "italian;regional", "internet_access": "wlan", "internet_access:fee": "customers", "internet_access:ssid": "Club del Sole", "opening_hours": "07:00-24:00", "outdoor_seating": "yes", "wheelchair": "yes"}}, {"type": "node", "id": 9970972257, "lat": 42.7391113, "lon": 13.980352, "tags": {"addr:street": "Via del Mare", "air_conditioning": "no", "amenity": "restaurant", "check_date": "2022-09-02", "contact:phone": "+39 338 810 7523; +39 347 618 1556; +39 085 893 7828; +39 085 893 7105", "cuisine": "fish;regional;friture;italian", "delivery": "no", "internet_access": "no", "name": "Fernando's Pesce", "payment:mastercard": "yes", "payment:visa": "yes", "payment:visa_debit": "yes", "payment:visa_electron": "yes", "reservation": "yes", "wheelchair": "no"}}, {"type": "node", "id": 9972964130, "lat": 42.7330736, "lon": 13.9758696, "tags": {"addr:city": "Roseto degli Abruzzi", "addr:housenumber": "10", "addr:place": "Cologna Spiaggia", "addr:postcode": "64026", "addr:street": "Via Nazionale Adriatica", "amenity": "restaurant", "check_date": "2022-08-23", "contact:email": "dmercolini@gmail.com", "contact:phone": "+39 3351502478", "cuisine": "regional", "name": "3 punto 0", "operator": "Mercolini Davide"}}, {"type": "node", "id": 9978583237, "lat": 42.7415463, "lon": 13.9781964, "tags": {"amenity": "restaurant", "check_date": "2022-08-25", "cuisine": "pizza", "name": "Spicchi D'autore"}}, {"type": "node", "id": 9978583238, "lat": 42.7389214, "lon": 13.9750312, "tags": {"amenity": "restaurant", "brewery": "no", "check_date": "2022-09-02", "cuisine": "italian;pizza", "internet_access": "no", "name": "New Greenpoint", "outdoor_seating": "yes", "payment:mastercard": "yes", "payment:visa": "yes", "payment:visa_debit": "yes", "payment:visa_electron": "yes", "reservation": "yes", "wheelchair": "limited"}}, {"type": "node", "id": 9984038958, "lat": 42.7524019, "lon": 13.9577348, "tags": {"addr:city": "Giulianova", "addr:housenumber": "25", "addr:postcode": "64021", "addr:street": "Piazza Bruno Buozzi", "amenity": "restaurant", "check_date": "2022-08-29", "name": "Cantine San Flaviano", "outdoor_seating": "yes", "payment:bancomat": "yes", "payment:debit_cards": "yes", "payment:maestro": "yes", "payment:mastercard": "yes", "payment:visa": "yes", "payment:visa_debit": "yes", "payment:visa_electron": "yes"}}, {"type": "node", "id": 9990031667, "lat": 42.7344682, "lon": 13.9814656, "tags": {"amenity": "restaurant", "check_date": "2022-08-29", "contact:phone": "+39 085 893 7029", "name": "Il Triangolo"}}, {"type": "node", "id": 9993146129, "lat": 42.7306467, "lon": 13.9774175, "tags": {"addr:place": "Cologna Spiaggia", "addr:street": "Strada Statale 16 Adriatica", "amenity": "cafe", "check_date": "2022-09-01"}}, {"type": "node", "id": 9994606887, "lat": 42.7490407, "lon": 13.9723428, "tags": {"addr:city": "Giulianova", "addr:street": "Lungomare Spalato", "amenity": "cafe", "check_date": "2022-09-02"}}, {"type": "node", "id": 9994606890, "lat": 42.7492535, "lon": 13.9722147, "tags": {"addr:city": "Giulianova", "addr:street": "Lungomare Spalato", "amenity": "cafe", "check_date": "2022-09-02", "name": "Fruiterie"}}, {"type": "node", "id": 9994606896, "lat": 42.752115, "lon": 13.9704272, "tags": {"addr:city": "Giulianova", "addr:postcode": "64021", "addr:street": "Lungomare Spalato", "amenity": "cafe", "check_date": "2025-05-24", "name": "Giro di Boa", "outdoor_seating": "yes", "wheelchair": "limited"}}, {"type": "node", "id": 9995052277, "lat": 42.7485937, "lon": 13.9720629, "tags": {"addr:city": "Giulianova", "addr:housenumber": "32", "addr:postcode": "64021", "addr:street": "Via Sardegna", "amenity": "restaurant", "check_date": "2022-09-02", "cuisine": "seafood", "name": "Bora Bora"}}, {"type": "node", "id": 9995052278, "lat": 42.748139, "lon": 13.9732979, "tags": {"addr:city": "Giulianova", "addr:housenumber": "74", "addr:postcode": "64021", "addr:street": "Lungomare Spalato", "amenity": "restaurant", "bar": "no", "check_date": "2025-05-24", "contact:phone": "+39 085 800 4973", "cuisine": "seafood;italian;regional", "internet_access": "no", "microbrewery": "no", "name": "Osteria Dal Moro", "opening_hours": "13:00-18:00,20:00-24:00", "outdoor_seating": "yes", "payment:bancomat": "yes", "payment:maestro": "yes", "payment:mastercard": "yes", "payment:visa": "yes", "payment:visa_debit": "yes", "payment:visa_electron": "yes", "reservation": "yes", "wheelchair": "limited"}}, {"type": "node", "id": 9995052280, "lat": 42.746864, "lon": 13.9741572, "tags": {"addr:city": "Giulianova", "addr:postcode": "64021", "addr:street": "Lungomare Spalato", "amenity": "restaurant", "check_date": "2022-09-02", "name": "ArtRock"}}, {"type": "node", "id": 9995052282, "lat": 42.7457925, "lon": 13.9749593, "tags": {"addr:city": "Giulianova", "addr:postcode": "64021", "addr:street": "Lungomare Spalato", "amenity": "cafe", "check_date": "2022-09-02", "name": "Bar l'Angolo", "outdoor_seating": "yes"}}, {"type": "node", "id": 9995052283, "lat": 42.7455529, "lon": 13.9752957, "tags": {"addr:city": "Giulianova", "addr:housenumber": "4", "addr:postcode": "64021", "addr:street": "Lungomare Rodi", "amenity": "restaurant", "check_date": "2022-09-02", "cuisine": "seafood;regional", "indoor_seating": "yes", "name": "GustoBeach", "outdoor_seating": "yes", "wheelchair": "yes"}}, {"type": "node", "id": 9995570561, "lat": 42.7368614, "lon": 13.9795933, "tags": {"amenity": "restaurant", "check_date": "2022-09-02", "cuisine": "pizza;italian;regional", "delivery": "no", "internet_access": "wlan", "internet_access:fee": "customers", "internet_access:ssid": "Club del Sole", "name": "Central Restaurant", "operator": "Stork Camping Village", "outdoor_seating": "yes", "payment:bancomat": "yes", "payment:debit_cards": "yes", "payment:maestro": "yes", "payment:mastercard": "yes", "payment:visa": "yes", "payment:visa_debit": "yes", "payment:visa_electron": "yes", "reservation": "yes", "wheelchair": "yes"}}, {"type": "node", "id": 10674343560, "lat": 42.6971028, "lon": 13.7824019}, {"type": "node", "id": 10674343561, "lat": 42.6970173, "lon": 13.7824821}, {"type": "node", "id": 10674343562, "lat": 42.6970856, "lon": 13.7826169}, {"type": "node", "id": 10674343563, "lat": 42.6970779, "lon": 13.7826241}, {"type": "node", "id": 10674343564, "lat": 42.697142, "lon": 13.7827505}, {"type": "node", "id": 10674343565, "lat": 42.6971287, "lon": 13.7827629}, {"type": "node", "id": 10674343566, "lat": 42.6971987, "lon": 13.782901}, {"type": "node", "id": 10674343567, "lat": 42.6972615, "lon": 13.782842}, {"type": "node", "id": 10674343568, "lat": 42.6972504, "lon": 13.78282}, {"type": "node", "id": 10674343569, "lat": 42.6972939, "lon": 13.7827791}, {"type": "node", "id": 10678852283, "lat": 42.693975, "lon": 13.9910419, "tags": {"addr:city": "Roseto degli Abruzzi", "addr:country": "IT", "addr:housenumber": "18", "addr:postcode": "64026", "addr:street": "Via Solagna", "amenity": "restaurant", "contact:phone": "+39 085 292 5496", "name": "Villa Sofia", "old_name": "Al Focolare di Bacco", "outdoor_seating": "yes"}}, {"type": "node", "id": 10801477028, "lat": 42.5700545, "lon": 13.7177503, "tags": {"amenity": "cafe", "name": "Caff\u00e9 Diem"}}, {"type": "node", "id": 10839888847, "lat": 42.5980444, "lon": 13.9094585, "tags": {"agritourism": "yes", "amenity": "restaurant", "contact:street": "Contrada Colle Saracco", "facebook": "https://www.facebook.com/agriturismopretula.atri.teramo.abruzzo.italy", "name": "Agriturismo Braceria \"La Pretula\"", "website": "https://agriturismo-braceria-la-pretula-san-giacomo-di-atri.business.site"}}, {"type": "node", "id": 11112647705, "lat": 42.6813818, "lon": 14.0103679, "tags": {"addr:housenumber": "5", "addr:postcode": "64026", "addr:street": "Via Adriatica", "amenity": "restaurant", "cuisine": "italian;pizza", "name": "Ristorante Pizzeria Cassiopea", "name:it": "Ristorante Pizzeria Cassiopea"}}, {"type": "node", "id": 11125942205, "lat": 42.7493435, "lon": 13.9705934, "tags": {"addr:housenumber": "35", "addr:street": "Via Monfalcone", "amenity": "restaurant", "cuisine": "italian;italian_pizza;pasta;pizza", "name": "Carpe Diem", "website": "http://ristorantecarpediem.net"}}, {"type": "node", "id": 11135160751, "lat": 42.8049456, "lon": 13.92738}, {"type": "node", "id": 11136156932, "lat": 42.8040526, "lon": 13.9291881}, {"type": "node", "id": 11136156933, "lat": 42.8041069, "lon": 13.9291895}, {"type": "node", "id": 11136156934, "lat": 42.8041075, "lon": 13.9291416}, {"type": "node", "id": 11136156935, "lat": 42.8043697, "lon": 13.9291483}, {"type": "node", "id": 11136156936, "lat": 42.8043691, "lon": 13.9291878}, {"type": "node", "id": 11136156937, "lat": 42.804453, "lon": 13.9291899}, {"type": "node", "id": 11136156938, "lat": 42.8044512, "lon": 13.9293203}, {"type": "node", "id": 11136156939, "lat": 42.8043675, "lon": 13.9293182}, {"type": "node", "id": 11136156940, "lat": 42.8043664, "lon": 13.9293983}, {"type": "node", "id": 11136156941, "lat": 42.8043482, "lon": 13.9293978}, {"type": "node", "id": 11136156965, "lat": 42.8049141, "lon": 13.9272841}, {"type": "node", "id": 11136156966, "lat": 42.804948, "lon": 13.9272635}, {"type": "node", "id": 11136156967, "lat": 42.8049322, "lon": 13.9272156}, {"type": "node", "id": 11136156968, "lat": 42.8052553, "lon": 13.9270188}, {"type": "node", "id": 11136156969, "lat": 42.8052891, "lon": 13.9271219}, {"type": "node", "id": 11136156970, "lat": 42.8052257, "lon": 13.9271605}, {"type": "node", "id": 11136156971, "lat": 42.8052622, "lon": 13.9272721}, {"type": "node", "id": 11136156972, "lat": 42.8049688, "lon": 13.9274508}, {"type": "node", "id": 11136157003, "lat": 42.8043464, "lon": 13.929524}, {"type": "node", "id": 11136157004, "lat": 42.8040506, "lon": 13.9293303}, {"type": "node", "id": 11136165407, "lat": 42.8040496, "lon": 13.9294073}, {"type": "node", "id": 11136165408, "lat": 42.8039904, "lon": 13.9294057}, {"type": "node", "id": 11136165410, "lat": 42.8039889, "lon": 13.9295148}, {"type": "node", "id": 11139980246, "lat": 42.6939955, "lon": 13.8059222}, {"type": "node", "id": 11139980247, "lat": 42.6939461, "lon": 13.8058542}, {"type": "node", "id": 11139980248, "lat": 42.6940452, "lon": 13.8057211}, {"type": "node", "id": 11139980249, "lat": 42.6940978, "lon": 13.8057936}, {"type": "node", "id": 11207291831, "lat": 42.7245407, "lon": 13.9431662, "tags": {"addr:city": "Giulianova", "addr:housenumber": "149", "addr:postcode": "64021", "addr:street": "Via Nazionale per Teramo", "amenity": "cafe", "name": "Caff\u00e8 Centrale"}}, {"type": "node", "id": 11309858172, "lat": 42.7011668, "lon": 13.9151155}, {"type": "node", "id": 11309858173, "lat": 42.7011758, "lon": 13.9151548}, {"type": "node", "id": 11358060709, "lat": 42.7527923, "lon": 13.9697948, "tags": {"addr:city": "Giulianova", "addr:postcode": "64021", "addr:street": "Lungomare Spalato", "amenity": "restaurant", "name": "Columbus"}}, {"type": "node", "id": 11358295698, "lat": 42.6769175, "lon": 14.0176523, "tags": {"amenity": "restaurant"}}, {"type": "node", "id": 11358298296, "lat": 42.6776405, "lon": 14.0171068, "tags": {"amenity": "restaurant", "name": "Costa Est"}}, {"type": "node", "id": 11358299184, "lat": 42.6844575, "lon": 14.011543, "tags": {"amenity": "restaurant", "name": "Marechiaro"}}, {"type": "node", "id": 11358301359, "lat": 42.6757115, "lon": 14.0185419, "tags": {"amenity": "cafe"}}, {"type": "node", "id": 11358306722, "lat": 42.6784587, "lon": 14.015722, "tags": {"amenity": "restaurant", "indoor_seating": "yes", "name": "Peppinella", "outdoor_seating": "yes"}}, {"type": "node", "id": 11358316192, "lat": 42.6784366, "lon": 14.0166052, "tags": {"amenity": "restaurant", "name": "La Lucciola"}}, {"type": "node", "id": 11358322194, "lat": 42.6763253, "lon": 14.0180325, "tags": {"amenity": "cafe", "name": "Lido Luigi"}}, {"type": "node", "id": 11358333755, "lat": 42.6732068, "lon": 14.020201, "tags": {"amenity": "restaurant", "name": "La Rotonda"}}, {"type": "node", "id": 11358347422, "lat": 42.6679572, "lon": 14.0253477, "tags": {"amenity": "restaurant", "name": "Lido Altamira"}}, {"type": "node", "id": 11358407600, "lat": 42.6094721, "lon": 14.0660942, "tags": {"amenity": "cafe"}}, {"type": "node", "id": 11358501416, "lat": 42.6120098, "lon": 14.0631821, "tags": {"amenity": "cafe", "indoor_seating": "yes", "name": "Caffetteria Lincrocio", "opening_hours": "Mo-Sa 06:00-13:00,15:00-20:00; Su 07:00-13:00", "outdoor_seating": "yes"}}, {"type": "node", "id": 11358548695, "lat": 42.6102006, "lon": 14.0638211, "tags": {"amenity": "cafe", "indoor_seating": "yes", "outdoor_seating": "yes"}}, {"type": "node", "id": 11358628135, "lat": 42.6094342, "lon": 14.0647672, "tags": {"amenity": "restaurant", "indoor_seating": "yes", "name": "L'angolo dei sapori", "outdoor_seating": "yes", "wheelchair": "yes"}}, {"type": "node", "id": 11359689282, "lat": 42.6076025, "lon": 14.0683082, "tags": {"amenity": "restaurant", "indoor_seating": "yes", "outdoor_seating": "no"}}, {"type": "node", "id": 11582698978, "lat": 42.7505024, "lon": 13.9588376, "tags": {"addr:city": "Giulianova", "addr:housenumber": "1", "addr:postcode": "64021", "addr:street": "Via Antonio Gramsci", "amenity": "cafe", "name": "Gran Caff\u00e9 Dei Baroni", "outdoor_seating": "yes"}}, {"type": "node", "id": 11833009406, "lat": 42.5837069, "lon": 13.8501114}, {"type": "node", "id": 11833009407, "lat": 42.5836295, "lon": 13.8503135}, {"type": "node", "id": 11833009408, "lat": 42.5834635, "lon": 13.8501962}, {"type": "node", "id": 11833009409, "lat": 42.5835408, "lon": 13.8499941}, {"type": "node", "id": 11950614390, "lat": 42.7740778, "lon": 13.9580498, "tags": {"addr:city": "Giulianova", "addr:postcode": "64021", "addr:street": "Lungomare Zara", "amenity": "restaurant", "name": "Dino's", "website": "https://www.tripadvisor.it/Restaurant_Review-g194775-d21012373-Reviews-Dino_s-Giulianova_Province_of_Teramo_Abruzzo.html"}}, {"type": "node", "id": 11956152554, "lat": 42.5862263, "lon": 13.9892703, "tags": {"amenity": "restaurant", "name": "La Terrazza Motta", "tourism": "guest_house"}}, {"type": "node", "id": 12138239077, "lat": 42.7310674, "lon": 13.9585906, "tags": {"amenity": "cafe", "brand": "McCaf\u00e9", "brand:wikidata": "Q3114287", "cuisine": "coffee_shop", "name": "McCaf\u00e9", "takeaway": "yes", "website": "https://www.mcdonalds.it/ristorante/abruzzo/teramo/giulianova"}}, {"type": "node", "id": 12139948102, "lat": 42.7276123, "lon": 13.9704856}, {"type": "node", "id": 12139948237, "lat": 42.7274681, "lon": 13.9710369}, {"type": "node", "id": 12139948249, "lat": 42.7276647, "lon": 13.9698836}, {"type": "node", "id": 12139948250, "lat": 42.7277347, "lon": 13.9700174}, {"type": "node", "id": 12139948251, "lat": 42.7274342, "lon": 13.9711668}, {"type": "node", "id": 12139948252, "lat": 42.7273081, "lon": 13.9710796}, {"type": "node", "id": 12139948253, "lat": 42.7273179, "lon": 13.9710326}, {"type": "node", "id": 12139948259, "lat": 42.727713, "lon": 13.9699651}, {"type": "node", "id": 12139948260, "lat": 42.7273883, "lon": 13.9694174}, {"type": "node", "id": 12139948525, "lat": 42.7272529, "lon": 13.9709857}, {"type": "node", "id": 12139948526, "lat": 42.7272608, "lon": 13.9709079}, {"type": "node", "id": 12139948527, "lat": 42.7272194, "lon": 13.9707363}, {"type": "node", "id": 12139948528, "lat": 42.7269495, "lon": 13.9699745}, {"type": "node", "id": 12139948529, "lat": 42.7273081, "lon": 13.96954}, {"type": "node", "id": 12146231812, "lat": 42.7223127, "lon": 13.9883103}, {"type": "node", "id": 12146231815, "lat": 42.7221707, "lon": 13.9883844}, {"type": "node", "id": 12146231820, "lat": 42.722296, "lon": 13.988319}, {"type": "node", "id": 12146231822, "lat": 42.7223865, "lon": 13.9882718}, {"type": "node", "id": 12146231823, "lat": 42.722284, "lon": 13.9883253}, {"type": "node", "id": 12146231824, "lat": 42.7220694, "lon": 13.9881817}, {"type": "node", "id": 12146231826, "lat": 42.7221156, "lon": 13.9883865}, {"type": "node", "id": 12146231947, "lat": 42.7223673, "lon": 13.9879373}, {"type": "node", "id": 12146231948, "lat": 42.7224306, "lon": 13.9881991}, {"type": "node", "id": 12150125949, "lat": 42.7018054, "lon": 13.9150992}, {"type": "node", "id": 12150125950, "lat": 42.7018042, "lon": 13.9151545}, {"type": "node", "id": 12150125951, "lat": 42.7017742, "lon": 13.9151772}, {"type": "node", "id": 12150125952, "lat": 42.7017402, "lon": 13.9151506}, {"type": "node", "id": 12150125953, "lat": 42.70174, "lon": 13.915099}, {"type": "node", "id": 12150125954, "lat": 42.7017718, "lon": 13.9150727}, {"type": "node", "id": 12194096208, "lat": 42.6582834, "lon": 14.0347272, "tags": {"amenity": "cafe", "name": "PuraVida"}}, {"type": "node", "id": 12205397357, "lat": 42.6586959, "lon": 14.027986, "tags": {"amenity": "cafe", "brand": "McCaf\u00e9", "brand:wikidata": "Q3114287", "check_date": "2024-10-10", "cuisine": "coffee_shop", "name": "McCaf\u00e9", "opening_hours": "Mo-Su 07:30-01:00", "outdoor_seating": "yes", "payment:cash": "yes", "payment:credit_cards": "yes", "payment:debit_cards": "yes", "takeaway": "yes", "wheelchair": "yes"}}, {"type": "node", "id": 12206452592, "lat": 42.7519741, "lon": 13.9579817, "tags": {"addr:street": "Piazza Bruno Buozzi", "amenity": "restaurant", "contact:instagram": "https://www.instagram.com/langoletto_mare_e_vino/", "name": "L'Angoletto", "phone": "+393466484938"}}, {"type": "node", "id": 12206452595, "lat": 42.7517595, "lon": 13.9580227, "tags": {"addr:housenumber": "20", "addr:street": "Piazza Bruno Buozzi", "amenity": "cafe", "bar": "yes", "name": "BuOzzi20", "shop": "tobacco"}}, {"type": "node", "id": 12206493219, "lat": 42.7525134, "lon": 13.95755, "tags": {"addr:city": "Giulianova", "addr:housenumber": "13", "addr:postcode": "64021", "addr:street": "Via Tito Acerbo", "amenity": "restaurant", "name": "Terrazza Madia", "phone": "+393773306599"}}, {"type": "node", "id": 12207084526, "lat": 42.7539856, "lon": 13.9571748}, {"type": "node", "id": 12207084527, "lat": 42.753983, "lon": 13.9571503}, {"type": "node", "id": 12207703240, "lat": 42.7509533, "lon": 13.9608588, "tags": {"addr:street": "Via Giacomo Matteotti", "amenity": "restaurant", "name": "Il Parco degli Arrosticini", "phone": "+393289022453", "website": "https://web.popup.lol/ilparcodegliarrosticini/Menu"}}, {"type": "node", "id": 12213371622, "lat": 42.7141091, "lon": 13.9090647, "tags": {"amenity": "cafe", "check_date": "2024-10-01", "name": "Moka Rica"}}, {"type": "node", "id": 12213387934, "lat": 42.7108701, "lon": 13.908509, "tags": {"amenity": "cafe", "name": "Fuori Binario"}}, {"type": "node", "id": 12257897376, "lat": 42.779382, "lon": 13.9550333, "tags": {"amenity": "restaurant"}}, {"type": "node", "id": 12257907378, "lat": 42.7818804, "lon": 13.9506354, "tags": {"amenity": "cafe"}}, {"type": "node", "id": 12257907379, "lat": 42.782994, "lon": 13.9513513, "tags": {"amenity": "restaurant"}}, {"type": "node", "id": 12269258405, "lat": 42.624341, "lon": 14.0561314, "tags": {"amenity": "restaurant"}}, {"type": "node", "id": 12292592811, "lat": 42.7453588, "lon": 13.9741414, "tags": {"addr:city": "Giulianova", "addr:housenumber": "60", "addr:postcode": "64021", "addr:street": "Via Lepanto", "amenity": "restaurant", "name": "Il Fondaco", "phone": "+39 333 460 1096"}}, {"type": "node", "id": 12405257775, "lat": 42.6623878, "lon": 13.6958009, "tags": {"addr:city": "Teramo", "addr:housenumber": "43", "addr:postcode": "64100", "addr:street": "Viale Giovanni Bovio", "amenity": "cafe", "name": "Mokha", "phone": "+39 0861 243 130"}}, {"type": "node", "id": 12452670988, "lat": 42.7496644, "lon": 13.9548284, "tags": {"addr:city": "Giulianova", "addr:housenumber": "46", "addr:postcode": "64021", "addr:street": "Via Luigi Migliori", "amenity": "restaurant", "contact:phone": "+39 085 800 2258", "diet:vegan": "yes", "diet:vegetarian": "yes", "name": "Lu Svecciatore"}}, {"type": "node", "id": 12470921502, "lat": 42.7522213, "lon": 13.9573487, "tags": {"addr:city": "Giulianova", "addr:housenumber": "7", "addr:postcode": "64021", "addr:street": "Via Giovanni Rossi", "amenity": "cafe", "contact:phone": "+39 085 203 2915", "name": "La Cupola", "outdoor_seating": "yes"}}, {"type": "node", "id": 12470921504, "lat": 42.7524217, "lon": 13.957491, "tags": {"addr:city": "Giulianova", "addr:housenumber": "17", "addr:postcode": "64021", "addr:street": "Piazza Bruno Buozzi", "amenity": "restaurant", "cuisine": "sushi", "mobile": "+39 388 873 7486", "name": "Asahi", "website:menu": "https://uqrmecdn.s3.us-east-2.amazonaws.com/u/610873/1030243-2599699e1bfce361fe486e7a84a59af2c137a47.pdf"}}, {"type": "node", "id": 12470921508, "lat": 42.7522842, "lon": 13.9572957, "tags": {"addr:street": "Via Giovanni Rossi", "amenity": "restaurant", "name": "Franz", "phone": "+393494902363"}}, {"type": "node", "id": 12473186606, "lat": 42.7507702, "lon": 13.9578944, "tags": {"addr:city": "Giulianova", "addr:housenumber": "12", "addr:postcode": "64021", "addr:street": "Piazza della Libert\u00e0", "amenity": "restaurant", "mobile": "+39 333 852 5024", "name": "Osteria Vivizia"}}, {"type": "node", "id": 12473797079, "lat": 42.6828932, "lon": 14.0127123, "tags": {"amenity": "restaurant", "name": "Vecchia Marina"}}, {"type": "node", "id": 12478161661, "lat": 42.7466017, "lon": 13.957159, "tags": {"amenity": "cafe", "name": "Pedro's Caf\u00e8"}}, {"type": "node", "id": 12492114986, "lat": 42.7405688, "lon": 13.9671665, "tags": {"addr:street": "Via Antonio Gramsci", "amenity": "cafe", "name": "Bar Lazio", "phone": "+390858001822"}}, {"type": "node", "id": 12495926038, "lat": 42.8056825, "lon": 13.9403446, "tags": {"addr:city": "Tortoreto Lido", "addr:housenumber": "125", "addr:postcode": "64018", "addr:street": "Via Giosu\u00e8 Carducci", "amenity": "cafe", "mobile": "+39 348 128 8192", "name": "Caff\u00e8 Italia"}}, {"type": "node", "id": 12506799411, "lat": 42.7496782, "lon": 13.9569513, "tags": {"addr:city": "Giulianova", "addr:housenumber": "13", "addr:postcode": "64021", "addr:street": "Via Guglielmo Oberdan", "amenity": "restaurant", "contact:phone": "+39 085 800 0659", "cuisine": "pizza", "name": "Pizzeria Del Paese"}}, {"type": "node", "id": 12520363274, "lat": 42.7542638, "lon": 13.9625985, "tags": {"addr:housenumber": "18d", "addr:street": "Via Riccardo Cerulli", "amenity": "restaurant", "cuisine": "pizza", "name": "Pizzar\u00f2", "phone": "+393475978132"}}, {"type": "node", "id": 12528967781, "lat": 42.7523666, "lon": 13.9636425, "tags": {"addr:street": "Via Giacomo Matteotti", "amenity": "cafe", "name": "Planet Cafe"}}, {"type": "node", "id": 12535812853, "lat": 42.6137647, "lon": 14.0628177, "tags": {"amenity": "restaurant", "contact:instagram": "https://www.instagram.com/pandasushi.pineto/", "cuisine": "sushi", "internet_access": "wlan", "internet_access:fee": "customers", "internet_access:ssid": "PointsMe", "mobile": "+39 377 887 5476", "name": "Panda Sushi", "website": "https://portal.pointsme.it/s/ViOBFi9A#/v1/manner"}}, {"type": "node", "id": 12538737862, "lat": 42.8037644, "lon": 13.9133105, "tags": {"amenity": "cafe", "shop": "tobacco"}}, {"type": "node", "id": 12541228974, "lat": 42.7609826, "lon": 13.9598549, "tags": {"amenity": "cafe"}}, {"type": "node", "id": 12544150636, "lat": 42.7485067, "lon": 13.9665998, "tags": {"addr:city": "Giulianova", "addr:housenumber": "88", "addr:postcode": "64021", "addr:street": "Viale Filippo Turati", "amenity": "cafe", "name": "Chocogel", "phone": "+390858004997"}}, {"type": "node", "id": 12548676763, "lat": 42.7477405, "lon": 13.9674295, "tags": {"addr:city": "Giulianova", "addr:housenumber": "125", "addr:postcode": "64021", "addr:street": "Viale Filippo Turati", "amenity": "restaurant", "cuisine": "sushi", "name": "Eko Sushi", "phone": "+39 085 800 4664"}}, {"type": "node", "id": 12548746464, "lat": 42.7448355, "lon": 13.9686676, "tags": {"addr:city": "Giulianova", "addr:housenumber": "142", "addr:postcode": "64021", "addr:street": "Viale Filippo Turati", "amenity": "restaurant", "cuisine": "seafood", "name": "L'Ancora", "phone": "+39 085 800 5321", "website": "https://www.ristorantelancoragiulianova.it/"}}, {"type": "node", "id": 12553496934, "lat": 42.7338573, "lon": 13.9630008, "tags": {"addr:city": "Giulianova", "addr:housenumber": "96", "addr:postcode": "64021", "addr:street": "Via Nazionale per Teramo", "amenity": "cafe", "name": "Bar Luna"}}, {"type": "node", "id": 12592807274, "lat": 42.6940314, "lon": 13.8058828}, {"type": "node", "id": 12592807275, "lat": 42.6940281, "lon": 13.8058784}, {"type": "node", "id": 12604348773, "lat": 42.710458, "lon": 13.9085402, "tags": {"addr:city": "Mosciano Sant'Angelo", "addr:housenumber": "3", "addr:postcode": "64023", "addr:street": "Strada Statale 80 del Gran Sasso d'Italia", "amenity": "restaurant", "contact:phone": "+39 085 807 1082", "name": "La Vecchia Stazione", "opening_hours:url": "https://www.tripadvisor.it/Restaurant_Review-g2275192-d10685916-Reviews-Osteria_La_Vecchia_Stazione-Mosciano_Sant_Angelo_Province_of_Teramo_Abruzzo.html", "url": "https://www.tripadvisor.it/Restaurant_Review-g2275192-d10685916-Reviews-Osteria_La_Vecchia_Stazione-Mosciano_Sant_Angelo_Province_of_Teramo_Abruzzo.html"}}, {"type": "node", "id": 12615300377, "lat": 42.7495004, "lon": 13.9694188, "tags": {"addr:city": "Giulianova", "addr:housenumber": "133", "addr:postcode": "64021", "addr:street": "Via Trieste", "amenity": "restaurant", "cuisine": "pizza", "name": "Fratelli Di Giovannantonio", "phone": "+39 380 649 6823", "website:menu": "https://www.menudigitale.io/kuebg"}}, {"type": "node", "id": 12615304888, "lat": 42.7488512, "lon": 13.9722434, "tags": {"addr:city": "Giulianova", "addr:postcode": "64021", "addr:street": "Via Sardegna", "amenity": "restaurant", "check_date": "2025-05-24", "cuisine": "regional", "internet_access": "no", "name": "Ristorantino Il Ritrovo", "reservation": "yes"}}, {"type": "node", "id": 12620197417, "lat": 42.7502689, "lon": 13.9689012, "tags": {"addr:city": "Giulianova", "addr:housenumber": "107", "addr:postcode": "64021", "addr:street": "Via Trieste", "amenity": "cafe", "name": "Pasticceria Bar Pierrot"}}, {"type": "node", "id": 12623612176, "lat": 42.6636331, "lon": 13.7975601, "tags": {"amenity": "restaurant", "name": "Momenti Di Gusto"}}, {"type": "node", "id": 12623815563, "lat": 42.6653157, "lon": 13.7971881, "tags": {"amenity": "restaurant", "cuisine": "pizza", "name": "Pizzeria La Casetta"}}, {"type": "node", "id": 12624185501, "lat": 42.6501669, "lon": 13.9760897, "tags": {"addr:postcode": "64026", "addr:street": "Bivio Casale", "amenity": "restaurant", "contact:phone": "+39 085 809 0194", "cuisine": "italian", "internet_access": "wlan", "name": "La Fattoria della Nonna", "opening_hours": "Tu-Sa 12:00-14:30, 19:30-22:30", "website": "https://fattoriadellanonna.com/"}}, {"type": "node", "id": 12624402117, "lat": 42.6467502, "lon": 13.8028813}, {"type": "node", "id": 12624402118, "lat": 42.646728, "lon": 13.8029356}, {"type": "node", "id": 12624402119, "lat": 42.6466392, "lon": 13.8028558}, {"type": "node", "id": 12624402120, "lat": 42.6466214, "lon": 13.8028217}, {"type": "node", "id": 12624402121, "lat": 42.6466362, "lon": 13.8027821}, {"type": "node", "id": 12624402123, "lat": 42.6466887, "lon": 13.8028278}, {"type": "node", "id": 12625180380, "lat": 42.7533918, "lon": 13.967685, "tags": {"amenity": "restaurant", "cuisine": "italian", "name": "Sapori del Corso"}}, {"type": "node", "id": 12632960487, "lat": 42.7509479, "lon": 13.9696029, "tags": {"addr:city": "Giulianova", "addr:housenumber": "20", "addr:postcode": "64021", "addr:street": "Via Marsala", "amenity": "restaurant", "name": "Il Gabbiano", "phone": "+39 085 800 4930"}}, {"type": "node", "id": 12635235782, "lat": 42.7541642, "lon": 13.9682052, "tags": {"addr:city": "Giulianova", "addr:postcode": "64021", "addr:street": "Via Dalmazia", "amenity": "restaurant", "cuisine": "pizza", "name": "Urban", "phone": "+39 353 388 4602"}}, {"type": "node", "id": 12635252340, "lat": 42.7535028, "lon": 13.9663217, "tags": {"addr:city": "Giulianova", "addr:postcode": "64021", "addr:street": "Piazza Fosse Ardeatine", "amenity": "restaurant"}}, {"type": "node", "id": 12645042574, "lat": 42.6191869, "lon": 13.7782569, "tags": {"amenity": "cafe", "name": "Galaxy Bar", "shop": "tobacco"}}, {"type": "node", "id": 12651799929, "lat": 42.7554107, "lon": 13.9654644, "tags": {"addr:city": "Giulianova", "addr:housenumber": "53", "addr:postcode": "64021", "addr:street": "Viale Ercole Vincenzo Orsini", "amenity": "restaurant", "cuisine": "pizza", "name": "Panarea", "phone": "+39 085 294 317", "website": "https://pizzeriapanarea.it/"}}, {"type": "node", "id": 12656956792, "lat": 42.6438801, "lon": 13.8033275, "tags": {"amenity": "cafe", "name": "Bar Moderno", "outdoor_seating": "yes", "shop": "tobacco"}}, {"type": "node", "id": 12666314826, "lat": 42.7577529, "lon": 13.9638195, "tags": {"addr:city": "Giulianova", "addr:postcode": "64021", "addr:street": "Via Amerigo Vespucci", "amenity": "restaurant", "name": "L'Osteria Cinque", "phone": "+39 388 425 5652"}}, {"type": "node", "id": 12679531138, "lat": 42.7622685, "lon": 13.960553, "tags": {"addr:city": "Giulianova", "addr:housenumber": "9", "addr:postcode": "64021", "addr:street": "Via Giuseppe Verdi", "amenity": "restaurant", "name": "Dal Cilentano", "phone": "+39 0859 040 110"}}, {"type": "node", "id": 12686460876, "lat": 42.7644916, "lon": 13.9572959, "tags": {"addr:city": "Giulianova", "addr:postcode": "64021", "addr:street": "Via Galileo Galilei", "amenity": "cafe", "shop": "tobacco"}}, {"type": "node", "id": 12698194297, "lat": 42.7758087, "lon": 13.9530597, "tags": {"addr:city": "Giulianova", "addr:housenumber": "7", "addr:postcode": "64021", "addr:street": "Via Mantova", "amenity": "restaurant", "name": "Il Ragno"}}, {"type": "node", "id": 12699022102, "lat": 42.7614447, "lon": 13.9651853, "tags": {"addr:city": "Giulianova", "addr:postcode": "64021", "addr:street": "Lungomare Zara", "amenity": "restaurant", "name": "Jamming & Peperoncino Rosso"}}, {"type": "node", "id": 12704300658, "lat": 42.7553323, "lon": 13.9680625, "tags": {"addr:city": "Giulianova", "addr:housenumber": "13b", "addr:postcode": "64021", "addr:street": "Lungomare Zara", "amenity": "restaurant", "name": "Giallo Pasta", "phone": "+39 085 800 5859"}}, {"type": "node", "id": 12704364737, "lat": 42.7530437, "lon": 13.9696972, "tags": {"addr:city": "Giulianova", "addr:housenumber": "8", "addr:postcode": "64021", "addr:street": "Lungomare Spalato", "amenity": "restaurant", "name": "Braci & Grani", "website": "https://www.braciegrani.it/"}}, {"type": "node", "id": 12704457799, "lat": 42.7737623, "lon": 13.9518842, "tags": {"amenity": "cafe"}}, {"type": "node", "id": 12712718769, "lat": 42.7254556, "lon": 13.9446481, "tags": {"addr:city": "Giulianova", "addr:housenumber": "184", "addr:postcode": "64021", "addr:street": "Via Nazionale per Teramo", "amenity": "restaurant", "cuisine": "pizza", "name": "Mato Mato", "phone": "+39 085 800 2795"}}, {"type": "node", "id": 12860756461, "lat": 42.7514704, "lon": 13.9655958, "tags": {"amenity": "cafe", "check_date": "2025-05-24"}}, {"type": "node", "id": 12860900147, "lat": 42.6576327, "lon": 13.7063539, "tags": {"amenity": "cafe", "check_date": "2025-05-24"}}, {"type": "node", "id": 12864090601, "lat": 42.7551227, "lon": 13.9717406}, {"type": "node", "id": 12864090602, "lat": 42.7550806, "lon": 13.9717682}, {"type": "node", "id": 12864090603, "lat": 42.7549272, "lon": 13.9713342}, {"type": "node", "id": 12864090604, "lat": 42.7549693, "lon": 13.9713066}, {"type": "node", "id": 12905406650, "lat": 42.6574875, "lon": 14.0348079, "tags": {"amenity": "restaurant"}}, {"type": "way", "id": 93967256, "nodes": [1092382929, 1092382983, 1092382963, 1092382933, 1092382929], "tags": {"amenity": "restaurant", "building": "yes", "capacity": "50", "cuisine": "regional", "ele": "0", "name": "Portorose"}}, {"type": "way", "id": 114716696, "nodes": [1298742511, 1298742509, 1298742510, 1298742512, 1298742511], "tags": {"amenity": "restaurant", "building": "yes", "cuisine": "italian;pizza", "name": "Al solito posto", "wheelchair": "yes"}}, {"type": "way", "id": 141255634, "nodes": [1546292177, 1546292180, 1546292173, 1546292168, 11309858173, 11309858172, 1546292177], "tags": {"addr:city": "Notaresco", "addr:postcode": "64024", "addr:street": "Strada Provinciale 22/A di Grasciano", "amenity": "restaurant", "bar": "yes", "building": "retail", "mobile": "+39 379 179 5900", "name": "Ai Firscoli, Antico Frantoio", "outdoor_seating": "yes", "shop": "tobacco", "smoking": "outside"}}, {"type": "way", "id": 141871642, "nodes": [1552823621, 1552823640, 1552823635, 1552823623, 1552823611, 1552823594, 1552823621], "tags": {"addr:city": "Mosciano Sant'Angelo", "addr:housenumber": "26", "addr:postcode": "64023", "addr:street": "Strada Statale 80 del Gran Sasso d'Italia", "amenity": "restaurant", "building": "yes", "cuisine": "regional;italian", "name": "Podere Marcanto'", "opening_hours": "Mo 07:45-22:00; We-Th 07:45-22:00; Fr 08:00-22:00; Sa 12:45-14:00,20:00-22:00", "phone": "+39 085 807 2191", "website": "https://www.ristorantepoderemarcanto.com/"}}, {"type": "way", "id": 142586952, "nodes": [1560438012, 12207084527, 12207084526, 6391811833, 6391811832, 1560437912, 1560437847, 1560437864, 1560438012], "tags": {"addr:street": "Via Montello", "amenity": "restaurant", "building": "yes", "cuisine": "pizza;italian", "name": "Ristorante Pizzeria Bellavista"}}, {"type": "way", "id": 151910441, "nodes": [1647513493, 1647513497, 1647513491, 1647513482, 1647513493], "tags": {"amenity": "restaurant", "building": "yes", "name": "London Pub"}}, {"type": "way", "id": 204938125, "nodes": [2149172303, 2149172332, 2149172323, 2149172294, 2149172303], "tags": {"amenity": "restaurant", "building": "yes", "name": "Copacabana"}}, {"type": "way", "id": 236482037, "nodes": [2445075471, 2445075472, 2445075473, 2445075474, 2445075471], "tags": {"amenity": "restaurant", "building": "yes", "cuisine": "regional", "name": "Strabacco"}}, {"type": "way", "id": 239634497, "nodes": [2474178764, 2474178767, 2474178770, 2474178773, 2474178776, 2474178764], "tags": {"amenity": "restaurant", "building": "yes", "cuisine": "pizza", "name": "Don Miguel"}}, {"type": "way", "id": 239639110, "nodes": [2474210109, 2474210110, 2474210111, 2474210112, 2474210113, 2474210114, 2474210115, 2474210109], "tags": {"amenity": "restaurant", "building": "yes", "name": "Il Mulino"}}, {"type": "way", "id": 239640963, "nodes": [2474227026, 2474227031, 2474227034, 2474227037, 2474227040, 2474227043, 2474227026], "tags": {"amenity": "restaurant", "building": "yes", "cuisine": "italian", "name": "Il fortino"}}, {"type": "way", "id": 259801748, "nodes": [2652570328, 2652570330, 2652570331, 2652570333, 2652570328], "tags": {"amenity": "restaurant", "building": "yes", "email": "MAIL@PAGUSMONTEPAGANO.IT", "facebook": "https://www.facebook.com/pagusmontepagano/", "name": "Pagus", "phone": "+39  085 894 4508", "website": "https://www.pagusmontepagano.it"}}, {"type": "way", "id": 315441270, "nodes": [3215578453, 3215578454, 3215578455, 3215578456, 3215578453], "tags": {"amenity": "restaurant", "building": "yes", "cuisine": "regional", "name": "Il Maggese", "phone": "+39 348 2903090"}}, {"type": "way", "id": 451189661, "nodes": [4480247938, 4480247939, 4480247940, 4480247941, 4480247938], "tags": {"amenity": "cafe", "building": "yes", "internet_access": "no", "name": "Caf\u00e8 des artistes", "smoking": "outside"}}, {"type": "way", "id": 541022655, "nodes": [5232583159, 5232583158, 5232583157, 5232583156, 5232583159], "tags": {"amenity": "cafe", "name": "Bar Centrale"}}, {"type": "way", "id": 541022669, "nodes": [5232583214, 5232583213, 5232583212, 5232583211, 5232583214], "tags": {"amenity": "restaurant", "cuisine": "italian", "name": "Ristorante Pizzeria Oblad\u00ec Oblad\u00e0"}}, {"type": "way", "id": 541022674, "nodes": [5232583230, 5232583082, 5232583229, 5232583086, 5232583228, 5232583227, 5232583230], "tags": {"amenity": "restaurant", "building": "yes", "cuisine": "italian", "name": "Ristorante Pizzeria Don Casorello"}}, {"type": "way", "id": 563650035, "nodes": [5431435163, 5431435164, 5431437321, 5431435165, 5431435166, 5431437324, 5431435167, 5431435168, 5431435163], "tags": {"addr:city": "Mutignano", "addr:postcode": "64025", "addr:street": "Via del Pozzo", "amenity": "restaurant", "building": "yes", "name": "Baccuco D'Oro", "opening_hours": "We off", "phone": "+39 085 936 227"}}, {"type": "way", "id": 703029324, "nodes": [6602230829, 6602230832, 6602230839, 6602230844, 6602230841, 6602230834, 6602230833, 6602230828, 6602230837, 6602230831, 6602230840, 6602230829], "tags": {"amenity": "restaurant", "brand": "Autogrill", "brand:wikidata": "Q786790", "brand:wikipedia": "en:Autogrill", "building": "yes", "building:levels": "1", "cuisine": "italian;regional", "height": "3.5", "name": "Autogrill"}}, {"type": "way", "id": 856374028, "nodes": [7984938150, 12146231948, 12146231947, 7984938151, 7984938152, 12146231824, 12146231826, 7984938153, 12146231815, 12146231823, 12146231820, 12146231812, 12146231822, 7984938150], "tags": {"addr:city": "Cologna Spiaggia", "addr:housenumber": "31", "addr:postcode": "64026", "addr:street": "Via Della Stazione", "amenity": "restaurant", "contact:phone": "+39 085 893 7364", "cuisine": "fast_food;pizza", "landuse": "retail", "name": "Lo Squalo"}}, {"type": "way", "id": 876359471, "nodes": [8156218244, 8156218245, 8487518381, 8487518380, 8487518379, 8156218246, 8156218247, 8156218244], "tags": {"amenity": "restaurant", "building": "yes", "name": "ristorante tre archi"}}, {"type": "way", "id": 938733876, "nodes": [8696375353, 8696375354, 8696375355, 8696375356, 8696375353], "tags": {"amenity": "restaurant", "building": "yes", "indoor_seating": "yes", "name": "Lo Spuntino", "outdoor_seating": "yes"}}, {"type": "way", "id": 977479229, "nodes": [9044668378, 9044668385, 9044668371, 9044668375, 9044668372, 9044668383, 9044668382, 9044668380, 9044668379, 9044668388, 9044668373, 9044668384, 9044668381, 9044668376, 9044668389, 9044668378], "tags": {"amenity": "restaurant", "level": "0", "name": "Bagno Oltremare", "outdoor_seating": "yes"}}, {"type": "way", "id": 1088178551, "nodes": [9970093926, 9970093925, 9970093924, 9970093923, 9970093926], "tags": {"addr:housenumber": "11", "addr:street": "Via del Mare", "amenity": "cafe", "building": "yes", "check_date": "2022-08-29", "cuisine": "regional", "internet_access": "wlan", "internet_access:fee": "customers", "internet_access:ssid": "Club del Sole", "name": "Bar Spiaggia", "opening_hours": "07:00-23:30", "operator": "Club del Sole", "outdoor_seating": "yes", "payment:bancomat": "yes", "payment:cash": "yes", "payment:coins": "yes", "wheelchair": "yes"}}, {"type": "way", "id": 1147124768, "nodes": [10674343569, 10674343568, 10674343567, 10674343566, 10674343565, 10674343564, 10674343563, 10674343562, 10674343561, 10674343560, 10674343569], "tags": {"amenity": "restaurant", "building": "retail", "name": "The Green Park"}}, {"type": "way", "id": 1201073848, "nodes": [11136157003, 11136156941, 11136156940, 11136156939, 11136156938, 11136156937, 11136156936, 11136156935, 11136156934, 11136156933, 11136156932, 11136157004, 11136165407, 11136165408, 11136165410, 11136157003], "tags": {"addr:city": "Tortoreto", "addr:postcode": "64018", "amenity": "restaurant", "branch": "Tortoreto Est", "brand": "Sarni", "building": "yes", "name": "Sarni", "ref": "96"}}, {"type": "way", "id": 1201073854, "nodes": [11136156972, 11136156971, 1357500378, 11136156970, 11136156969, 11136156968, 11136156967, 11136156966, 11136156965, 11135160751, 11136156972], "tags": {"addr:city": "Tortoreto", "addr:postcode": "64018", "amenity": "restaurant", "branch": "Tortoreto Ovest", "brand": "Autogrill", "brand:wikidata": "Q786790", "building": "retail", "cuisine": "italian;regional", "name": "Autogrill"}}, {"type": "way", "id": 1201554068, "nodes": [11139980248, 11139980247, 11139980246, 12592807275, 12592807274, 11139980249, 11139980248], "tags": {"amenity": "cafe", "building": "yes"}}, {"type": "way", "id": 1274415292, "nodes": [11833009406, 11833009407, 11833009408, 11833009409, 11833009406], "tags": {"amenity": "restaurant", "building": "yes", "cuisine": "pizza"}}, {"type": "way", "id": 1311512158, "nodes": [12139948525, 12139948253, 12139948252, 12139948251, 12139948237, 12139948102, 12139948250, 12139948259, 12139948249, 12139948260, 12139948529, 12139948528, 12139948527, 12139948526, 12139948525], "tags": {"amenity": "restaurant", "bar": "yes", "fenced": "yes", "landuse": "retail", "name": "Villa Fernando", "outdoor_seating": "yes"}}, {"type": "way", "id": 1312641886, "nodes": [12150125949, 12150125950, 12150125951, 12150125952, 12150125953, 12150125954, 12150125949], "tags": {"addr:city": "Notaresco", "addr:postcode": "64024", "addr:street": "Strada Provinciale 22/A di Grasciano", "amenity": "restaurant", "building": "yes", "cuisine": "regional", "diet:meat": "yes", "name": "Lo Chalet Dell'Arrosticino", "phone": "+393385430651"}}, {"type": "way", "id": 1363442924, "nodes": [12624402117, 12624402118, 12624402119, 12624402120, 12624402121, 12624402123, 12624402117], "tags": {"amenity": "restaurant", "building": "yes", "cuisine": "pizza", "name": "Pizzeria Canzanese"}}, {"type": "way", "id": 1389730710, "nodes": [12864090601, 12864090602, 12864090603, 12864090604, 12864090601], "tags": {"amenity": "restaurant", "building": "yes", "cuisine": "mediterranean", "diet:fish": "yes"}}]}