{"version": 0.6, "generator": "Overpass API 0.7.62.7 375dc00a", "osm3s": {"timestamp_osm_base": "2025-06-14T14:49:31Z", "copyright": "The data included in this document is from www.openstreetmap.org. The data is made available under ODbL."}, "elements": [{"type": "node", "id": 3165321833, "lat": 39.211701, "lon": 25.8516283, "tags": {"amenity": "cafe"}}, {"type": "node", "id": 3560909093, "lat": 39.1341926, "lon": 25.9321501, "tags": {"amenity": "restaurant", "cuisine": "sandwich", "name": "margaritari Viennese Coffee Shop"}}, {"type": "node", "id": 3930913861, "lat": 39.1090564, "lon": 25.9917829, "tags": {"amenity": "restaurant", "name": "\u03a0\u03b1\u03bd\u03c4\u03b5\u03bb\u03ae\u03c2", "name:de": "Pantelis", "name:el": "\u03a0\u03b1\u03bd\u03c4\u03b5\u03bb\u03ae\u03c2"}}, {"type": "node", "id": 4198088389, "lat": 39.1374542, "lon": 25.9241663, "tags": {"amenity": "cafe", "internet_access": "no", "name": "daluz", "opening_hours": "09:00-21:00", "smoking": "outside"}}, {"type": "node", "id": 4497976389, "lat": 39.2096859, "lon": 25.8540103, "tags": {"amenity": "cafe", "internet_access": "wlan", "name": "Veranta"}}, {"type": "node", "id": 4504230671, "lat": 39.2116697, "lon": 25.8513745}, {"type": "node", "id": 4504230672, "lat": 39.2115748, "lon": 25.8514329}, {"type": "node", "id": 4504230679, "lat": 39.2118322, "lon": 25.8509989}, {"type": "node", "id": 4504230680, "lat": 39.2118844, "lon": 25.8511618}, {"type": "node", "id": 4504230681, "lat": 39.2118261, "lon": 25.8511929}, {"type": "node", "id": 4504230682, "lat": 39.2117739, "lon": 25.85103}, {"type": "node", "id": 4504230686, "lat": 39.2116112, "lon": 25.851409}, {"type": "node", "id": 4899229121, "lat": 39.267554, "lon": 25.9660621, "tags": {"amenity": "restaurant"}}, {"type": "node", "id": 4962244821, "lat": 39.1335895, "lon": 25.9332618, "tags": {"amenity": "restaurant", "name:tr": "Aegean rest"}}, {"type": "node", "id": 5752140368, "lat": 39.1121944, "lon": 25.9597173, "tags": {"amenity": "restaurant"}}, {"type": "node", "id": 6784791988, "lat": 39.2038776, "lon": 26.0248319, "tags": {"amenity": "cafe"}}, {"type": "node", "id": 6976102318, "lat": 39.1338629, "lon": 25.9325219}, {"type": "node", "id": 6976102319, "lat": 39.1338161, "lon": 25.9325907}, {"type": "node", "id": 6976102320, "lat": 39.1338732, "lon": 25.932655}, {"type": "node", "id": 6976102321, "lat": 39.1339203, "lon": 25.9325845}, {"type": "node", "id": 6988992993, "lat": 39.211552, "lon": 25.8513682}, {"type": "node", "id": 6988992995, "lat": 39.2116483, "lon": 25.8513139}, {"type": "node", "id": 8005471682, "lat": 39.1358665, "lon": 25.9284141, "tags": {"amenity": "cafe"}}, {"type": "node", "id": 8770195984, "lat": 39.1347571, "lon": 25.9313894, "tags": {"amenity": "restaurant", "check_date": "2024-08-11", "name": "\u039c\u03c0\u03b1\u03bc\u03c0\u03ac\u03c2 \u039c\u03b1\u03bc"}}, {"type": "node", "id": 8770199586, "lat": 39.1339805, "lon": 25.9324338, "tags": {"amenity": "restaurant", "name": "\u0393\u03bf\u03c1\u03b3\u03cc\u03bd\u03b1"}}, {"type": "node", "id": 8770209293, "lat": 39.1347774, "lon": 25.9305009, "tags": {"amenity": "restaurant"}}, {"type": "node", "id": 8770216882, "lat": 39.1346605, "lon": 25.9308973, "tags": {"amenity": "restaurant", "name": "\u0391\u03b9\u03b3\u03b1\u03af\u03bf"}}, {"type": "node", "id": 8770216883, "lat": 39.1343927, "lon": 25.9317811, "tags": {"amenity": "restaurant", "name": "\u039f\u03cd\u03c1\u03b9\u03bf\u03c2 \u03ac\u03bd\u03b5\u03bc\u03bf\u03c2"}}, {"type": "node", "id": 8770224900, "lat": 39.1351477, "lon": 25.9296206, "tags": {"amenity": "restaurant", "name": "\u0386\u03b4\u03c9\u03bd\u03b9\u03c2"}}, {"type": "node", "id": 8770253962, "lat": 39.1352566, "lon": 25.9293182, "tags": {"amenity": "restaurant", "name": "\u039a\u03c5\u03b1\u03bd\u03ae \u03a3\u03b1\u03c1\u03b4\u03af\u03bd\u03b7", "outdoor_seating": "yes"}}, {"type": "node", "id": 8770264767, "lat": 39.1344773, "lon": 25.9312731, "tags": {"amenity": "restaurant", "name": "\u0391\u03bd\u03c4\u03ce\u03bd\u03b7\u03c2"}}, {"type": "node", "id": 8770277237, "lat": 39.1340557, "lon": 25.9322605, "tags": {"addr:street": "\u03a0\u03b1\u03c0\u03b1\u03bd\u03b9\u03ba\u03bf\u03bb\u03ae", "amenity": "restaurant", "name": "\u0391\u03bb\u03b5\u03c0\u03bf\u03cd"}}, {"type": "node", "id": 8770279067, "lat": 39.1350459, "lon": 25.9298215, "tags": {"amenity": "restaurant", "name": "\u039f \u039a\u03b1\u03c1\u03b1\u03b2\u03cc\u03b3\u03b9\u03b1\u03bd\u03bd\u03bf\u03c2"}}, {"type": "node", "id": 8770283933, "lat": 39.1337365, "lon": 25.9327387, "tags": {"amenity": "restaurant", "name": "\u00c9toile"}}, {"type": "node", "id": 8770287865, "lat": 39.1351169, "lon": 25.9311655, "tags": {"amenity": "cafe", "check_date": "2024-08-11", "name": "Los Amigos"}}, {"type": "node", "id": 8923653923, "lat": 39.2596347, "lon": 26.0708418, "tags": {"amenity": "restaurant", "name": "\u03a0\u03b1\u03bd\u03cc\u03c1\u03b1\u03bc\u03b1"}}, {"type": "node", "id": 9292868435, "lat": 39.2090792, "lon": 25.8549073, "tags": {"amenity": "restaurant", "cuisine": "regional", "name": "\u039a\u03b1\u03c6\u03b5\u03c3\u03c4\u03b9\u03b1\u03c4\u03bf\u03c1\u03b9\u03bf Plaza", "opening_hours": "PH,Mo-Su 08:00-24:00"}}, {"type": "node", "id": 9744961566, "lat": 39.209919, "lon": 25.8536173, "tags": {"amenity": "restaurant", "name": "\u03a4\u03bf \u03c7\u03c1\u03c5\u03c3\u03cc \u03ba\u03bb\u03b5\u03b9\u03b4\u03af"}}, {"type": "node", "id": 9921115613, "lat": 39.1705687, "lon": 25.9344281, "tags": {"amenity": "cafe", "name": "\u039a\u03b1\u03c6\u03b5\u03bd\u03ad"}}, {"type": "node", "id": 9921115616, "lat": 39.1704001, "lon": 25.9344309, "tags": {"amenity": "cafe", "name": "Sam"}}, {"type": "node", "id": 9921212023, "lat": 39.1705779, "lon": 25.9344678, "tags": {"amenity": "cafe", "name": "\u0399\u03c3\u03bf\u03c1\u03c1\u03bf\u03c0\u03af\u03b1"}}, {"type": "node", "id": 9923389105, "lat": 39.1347382, "lon": 25.9311389, "tags": {"amenity": "cafe", "name": "Yalos"}}, {"type": "node", "id": 9923389112, "lat": 39.1352891, "lon": 25.9298066, "tags": {"amenity": "cafe", "check_date": "2024-08-11", "name": "Healthy Bar by Pure"}}, {"type": "node", "id": 9923444119, "lat": 39.1347293, "lon": 25.9309455, "tags": {"amenity": "cafe", "name": "Eresos"}}, {"type": "node", "id": 9923444121, "lat": 39.1349368, "lon": 25.930693, "tags": {"amenity": "restaurant", "check_date": "2024-08-11", "cuisine": "greek", "name": "Masa Bouka", "takeaway": "yes"}}, {"type": "node", "id": 9923444129, "lat": 39.1349618, "lon": 25.9308638, "tags": {"amenity": "restaurant", "check_date": "2024-08-11", "name": "Stenaki"}}, {"type": "node", "id": 9926461879, "lat": 39.1340851, "lon": 25.9326357, "tags": {"amenity": "restaurant", "name": "Passioni", "wheelchair": "limited"}}, {"type": "node", "id": 10816625309, "lat": 39.288934, "lon": 26.0155002}, {"type": "node", "id": 10816625310, "lat": 39.2889928, "lon": 26.0156866}, {"type": "node", "id": 10816625311, "lat": 39.2890813, "lon": 26.01564}, {"type": "node", "id": 10816625312, "lat": 39.2890225, "lon": 26.0154535}, {"type": "node", "id": 11348518831, "lat": 39.2933377, "lon": 26.0420435}, {"type": "node", "id": 11348518832, "lat": 39.2933313, "lon": 26.0421068}, {"type": "node", "id": 11348518833, "lat": 39.293447, "lon": 26.0421263}, {"type": "node", "id": 11348518834, "lat": 39.2934534, "lon": 26.0420631}, {"type": "node", "id": 11925423069, "lat": 39.210905, "lon": 25.8516712, "tags": {"amenity": "restaurant", "name:en": "Remezzo"}}, {"type": "node", "id": 11925553070, "lat": 39.2111587, "lon": 25.8520578, "tags": {"amenity": "cafe", "name:en": "calma"}}, {"type": "node", "id": 12097008020, "lat": 39.4780816, "lon": 26.0649261}, {"type": "node", "id": 12097008022, "lat": 39.4780008, "lon": 26.0647161}, {"type": "node", "id": 12097008025, "lat": 39.4781213, "lon": 26.0647664}, {"type": "node", "id": 12097008028, "lat": 39.4779611, "lon": 26.0648758}, {"type": "node", "id": 12097019067, "lat": 39.4789416, "lon": 26.065688, "tags": {"amenity": "cafe", "indoor_seating": "yes", "name": "Babakale Kaleder", "outdoor_seating": "yes", "takeaway": "yes"}}, {"type": "node", "id": 12155166421, "lat": 39.1316746, "lon": 26.0032824, "tags": {"amenity": "cafe"}}, {"type": "way", "id": 453726987, "nodes": [6988992995, 4504230671, 4504230686, 4504230672, 6988992993, 6988992995], "tags": {"amenity": "cafe", "building": "yes", "name": "\u03a4\u03bf \u03ba\u03ad\u03bd\u03c4\u03c1\u03bf\u03bd", "name:el": "\u03a4\u03bf \u03ba\u03ad\u03bd\u03c4\u03c1\u03bf\u03bd", "name:en": "Kentron", "outdoor_seating": "yes"}}, {"type": "way", "id": 453726989, "nodes": [4504230679, 4504230680, 4504230681, 4504230682, 4504230679], "tags": {"amenity": "restaurant", "building": "yes", "name": "Cavo Doro", "outdoor_seating": "yes"}}, {"type": "way", "id": 745244673, "nodes": [6976102321, 6976102320, 6976102319, 6976102318, 6976102321], "tags": {"amenity": "restaurant", "building": "yes", "name": "Marmita Meze"}}, {"type": "way", "id": 1163064595, "nodes": [10816625309, 10816625310, 10816625311, 10816625312, 10816625309], "tags": {"amenity": "restaurant", "building": "yes", "cuisine": "greek", "name": "\u0391\u03c1\u03c7\u03b1\u03af\u03b1 \u0386\u03bd\u03c4\u03b9\u03c3\u03c3\u03b1"}}, {"type": "way", "id": 1223454216, "nodes": [11348518831, 11348518832, 11348518833, 11348518834, 11348518831], "tags": {"amenity": "restaurant", "building": "yes", "cuisine": "greek", "name": "\u039a\u03b1\u03bb\u03cc \u039b\u03b9\u03bc\u03ac\u03bd\u03b9"}}, {"type": "way", "id": 1306147251, "nodes": [12097008025, 12097008020, 12097008028, 12097008022, 12097008025], "tags": {"amenity": "restaurant", "building": "yes", "internet_access": "yes", "name": "Babakale Liman Bal\u0131k Evi", "outdoor_seating": "yes", "toilets": "yes"}}]}