{"version": 0.6, "generator": "Overpass API 0.7.62.7 375dc00a", "osm3s": {"timestamp_osm_base": "2025-06-14T15:00:45Z", "copyright": "The data included in this document is from www.openstreetmap.org. The data is made available under ODbL."}, "elements": [{"type": "node", "id": 270247515, "lat": 36.6128658, "lon": 29.3583461, "tags": {"amenity": "cafe", "check_date": "2023-03-01", "name": "La Lorraine"}}, {"type": "node", "id": 270386401, "lat": 36.565658, "lon": 29.3896631, "tags": {"amenity": "cafe"}}, {"type": "node", "id": 270440902, "lat": 36.5543095, "lon": 29.4209033, "tags": {"amenity": "cafe"}}, {"type": "node", "id": 270440903, "lat": 36.5530274, "lon": 29.4368702, "tags": {"amenity": "restaurant", "name": "Restaurant"}}, {"type": "node", "id": 270441268, "lat": 36.341037, "lon": 29.3871556, "tags": {"amenity": "cafe"}}, {"type": "node", "id": 270442942, "lat": 36.2629624, "lon": 29.3967694, "tags": {"amenity": "cafe", "name": "Kalamar Beach Club"}}, {"type": "node", "id": 310578553, "lat": 36.312211, "lon": 29.4232859, "tags": {"amenity": "restaurant", "name": "Asmaalt\u0131", "opening_hours": "Mo-Su 08:00-24:00"}}, {"type": "node", "id": 310786313, "lat": 36.4723117, "lon": 29.403147, "tags": {"amenity": "restaurant"}}, {"type": "node", "id": 379330686, "lat": 36.2629152, "lon": 29.4146151, "tags": {"amenity": "restaurant", "name": "Trio"}}, {"type": "node", "id": 379330689, "lat": 36.2627729, "lon": 29.4147202, "tags": {"amenity": "restaurant", "internet_access": "wlan", "name": "Aubergine"}}, {"type": "node", "id": 379330701, "lat": 36.2623442, "lon": 29.4128547, "tags": {"amenity": "restaurant", "name": "Indigo"}}, {"type": "node", "id": 379330719, "lat": 36.2620756, "lon": 29.4156932, "tags": {"amenity": "restaurant", "name": "Sunset Restaraunt"}}, {"type": "node", "id": 379330722, "lat": 36.2621954, "lon": 29.4157459, "tags": {"amenity": "restaurant", "name": "Korsan"}}, {"type": "node", "id": 379330740, "lat": 36.2680027, "lon": 29.4125336, "tags": {"amenity": "cafe", "name": "Omar's Kitchen"}}, {"type": "node", "id": 379330799, "lat": 36.26611, "lon": 29.4129461, "tags": {"amenity": "restaurant", "name": "Atlantis"}}, {"type": "node", "id": 379330804, "lat": 36.2643745, "lon": 29.4155297, "tags": {"amenity": "restaurant", "name": "Alternatif"}}, {"type": "node", "id": 379330896, "lat": 36.2678181, "lon": 29.4127242, "tags": {"amenity": "cafe", "name": "Nur Pastaneleri"}}, {"type": "node", "id": 379330913, "lat": 36.2660801, "lon": 29.4126652, "tags": {"amenity": "cafe", "name": "Dunya Ice Cream"}}, {"type": "node", "id": 379330928, "lat": 36.2644817, "lon": 29.417413, "tags": {"amenity": "restaurant", "name": "Luka"}}, {"type": "node", "id": 379330937, "lat": 36.2651387, "lon": 29.4149137, "tags": {"amenity": "restaurant", "cuisine": "international", "name": "Mussakka", "not:name": "Formerly site of Odak;Mussakka moved here in approximately 2017 from Harbour"}}, {"type": "node", "id": 379330945, "lat": 36.2649071, "lon": 29.41509, "tags": {"amenity": "restaurant", "name": "Tomato Flower"}}, {"type": "node", "id": 379330947, "lat": 36.2648467, "lon": 29.4151593, "tags": {"amenity": "restaurant", "name": "Doyum Restaurant"}}, {"type": "node", "id": 379330949, "lat": 36.2650171, "lon": 29.4146093, "tags": {"amenity": "restaurant", "name": "Akdeniz"}}, {"type": "node", "id": 379330960, "lat": 36.2645293, "lon": 29.4154733, "tags": {"amenity": "restaurant", "name": "Point"}}, {"type": "node", "id": 379330965, "lat": 36.2642309, "lon": 29.4156421, "tags": {"amenity": "restaurant", "name": "Angels"}}, {"type": "node", "id": 379330972, "lat": 36.2637265, "lon": 29.4148226, "tags": {"amenity": "restaurant", "name": "Daphne"}}, {"type": "node", "id": 379330974, "lat": 36.2638832, "lon": 29.4152743, "tags": {"amenity": "restaurant", "name": "Sun Terrace"}}, {"type": "node", "id": 697087644, "lat": 36.2751134, "lon": 29.3184046, "tags": {"amenity": "restaurant", "name": "Aspendos Restaurant & Lokanta"}}, {"type": "node", "id": 726860425, "lat": 36.6482991, "lon": 29.3621326, "tags": {"amenity": "restaurant", "name": "Konak yemek evi"}}, {"type": "node", "id": 804067462, "lat": 36.6504914, "lon": 29.3592662, "tags": {"amenity": "restaurant", "name": "Teras"}}, {"type": "node", "id": 1373006886, "lat": 36.2267413, "lon": 29.6591729, "tags": {"amenity": "cafe", "name": "Eflatun", "tourism": "guest_house"}}, {"type": "node", "id": 1373007472, "lat": 36.2393539, "lon": 29.6700474}, {"type": "node", "id": 1373007473, "lat": 36.2394081, "lon": 29.6699824}, {"type": "node", "id": 1373007475, "lat": 36.2394159, "lon": 29.6701267}, {"type": "node", "id": 1373007489, "lat": 36.23947, "lon": 29.6700616}, {"type": "node", "id": 1373007492, "lat": 36.239533, "lon": 29.6703106}, {"type": "node", "id": 1373007495, "lat": 36.2395711, "lon": 29.6702851}, {"type": "node", "id": 1373007497, "lat": 36.2395748, "lon": 29.6704065}, {"type": "node", "id": 1373007500, "lat": 36.2395786, "lon": 29.6703024}, {"type": "node", "id": 1373007501, "lat": 36.2396098, "lon": 29.6703831}, {"type": "node", "id": 1373007503, "lat": 36.2396121, "lon": 29.6702799}, {"type": "node", "id": 1373007505, "lat": 36.2396178, "lon": 29.6704016}, {"type": "node", "id": 1373007522, "lat": 36.2396544, "lon": 29.670377}, {"type": "node", "id": 1373008123, "lat": 36.1988202, "lon": 29.639896, "tags": {"amenity": "restaurant", "internet_access": "wlan", "internet_access:fee": "no", "name": "Smiley's Cafe & Bar", "toilets:wheelchair": "no", "wheelchair": "yes"}}, {"type": "node", "id": 1373953654, "lat": 36.2627054, "lon": 29.4149952, "tags": {"amenity": "restaurant", "internet_access": "wlan", "name": "Doy Doy"}}, {"type": "node", "id": 1373953657, "lat": 36.2639524, "lon": 29.4156169, "tags": {"amenity": "cafe", "name": "Mussakka Brasserie"}}, {"type": "node", "id": 1537279128, "lat": 36.2222259, "lon": 29.4559143, "tags": {"amenity": "restaurant", "cuisine": "regional", "name": "Ada Restaurant", "name:ru": "\u0420\u044b\u0431\u043d\u044b\u0439 \u0440\u0435\u0441\u0442\u043e\u0440\u0430\u043d, \u043f\u043e\u0434\u0430\u044e\u0442 \u0440\u044b\u0431\u0443, \u043a\u0430\u043b\u044c\u043c\u0430\u0440\u043e\u0432, \u0441\u0430\u043b\u0430\u0442. \u0422\u043e\u043b\u044c\u043a\u043e \u043d\u0430\u043b\u0438\u0447\u043d\u044b\u0435"}}, {"type": "node", "id": 1537279249, "lat": 36.4716693, "lon": 29.4014201, "tags": {"amenity": "restaurant", "name": "Hidden Paradies"}}, {"type": "node", "id": 1537279252, "lat": 36.4732398, "lon": 29.4030669, "tags": {"amenity": "restaurant", "name": "Kanyon Restaurant"}}, {"type": "node", "id": 1537279682, "lat": 36.1991935, "lon": 29.6417323, "tags": {"amenity": "restaurant", "check_date": "2023-03-01", "name": "Lola Restaurant", "opening_hours": "PH,Mo-Su 09:00-01:00"}}, {"type": "node", "id": 1537279708, "lat": 36.1993265, "lon": 29.6416765, "tags": {"amenity": "restaurant", "check_date": "2023-03-01"}}, {"type": "node", "id": 1537279731, "lat": 36.1995109, "lon": 29.6413121, "tags": {"amenity": "restaurant", "name": "Ka\u015f\u0131k Mant\u0131", "outdoor_seating": "yes", "wheelchair": "yes"}}, {"type": "node", "id": 1790336892, "lat": 36.2059797, "lon": 29.6289937, "tags": {"amenity": "restaurant"}}, {"type": "node", "id": 1790336894, "lat": 36.2059613, "lon": 29.6292766, "tags": {"amenity": "restaurant"}}, {"type": "node", "id": 1818076064, "lat": 36.2740852, "lon": 29.3197856, "tags": {"amenity": "cafe"}}, {"type": "node", "id": 2082705953, "lat": 36.1990013, "lon": 29.6380127, "tags": {"addr:postcode": "07580", "amenity": "restaurant", "internet_access": "wlan", "name": "Sardunya Beach Restaurant"}}, {"type": "node", "id": 2483159497, "lat": 36.5509764, "lon": 29.4396126, "tags": {"amenity": "restaurant", "name": "Yakapark", "name:en": "Yakapark Restaurant", "name:ru": "\u042f\u043a\u0430\u043f\u0430\u0440\u043a \u0420\u0435\u0441\u0442\u043e\u0440\u0430\u043d"}}, {"type": "node", "id": 2617199680, "lat": 36.2730187, "lon": 29.4115133, "tags": {"addr:city": "Kalkan", "addr:housename": "Antalya-Fethiye Yolu \u00dczeri Kalkan Kav\u015fa\u011f\u0131", "addr:housenumber": "10", "addr:postcode": "07960", "addr:street": "Kadife Sokak", "amenity": "restaurant", "capacity": "50", "cuisine": "regional", "ele": "150", "name": "Ac\u0131kt\u0131m K\u00f6fte Kalkan", "phone": "+90 533 694 08 02", "website": "http://www.kalkandayaztatili.com"}}, {"type": "node", "id": 2752361251, "lat": 36.1986539, "lon": 29.6424994, "tags": {"amenity": "restaurant", "cuisine": "turkish", "name": "bi lokma \"Mama's Kitchen\"", "toilets:wheelchair": "no", "website": "https://www.bilokma.com.tr/", "wheelchair": "no"}}, {"type": "node", "id": 2754598842, "lat": 36.1992955, "lon": 29.6418232, "tags": {"amenity": "restaurant", "check_date": "2023-03-01", "cuisine": "turkish", "name": "Natur-el Turkish Kitchen", "website": "www.natur-el.com"}}, {"type": "node", "id": 2962599935, "lat": 36.1986669, "lon": 29.6419305, "tags": {"addr:city": "Ka\u015f", "amenity": "restaurant", "cuisine": "fish", "name": "Mercan"}}, {"type": "node", "id": 2962599956, "lat": 36.1982216, "lon": 29.6434696, "tags": {"addr:city": "Antalya", "addr:district": "Ka\u015f", "addr:housenumber": "13", "addr:neighbourhood": "Andifli Mahallesi", "addr:postcode": "07580", "addr:street": "H\u00fck\u00fcmet Caddesi", "amenity": "cafe", "cuisine": "turkish", "internet_access": "wlan", "name": "Ziyade", "outdoor_seating": "yes", "phone": "05319720189"}}, {"type": "node", "id": 2962599958, "lat": 36.2001848, "lon": 29.6401883, "tags": {"addr:housenumber": "1B", "addr:street": "Bah\u00e7e Sokak", "amenity": "restaurant", "check_date": "2024-10-26", "cuisine": "turkish", "level": "0", "name": "Emre Restaurant", "opening_hours": "Mo-Su 10:00-22:00", "payment:cash": "yes", "payment:credit_cards": "yes", "payment:debit_cards": "yes"}}, {"type": "node", "id": 2964404924, "lat": 36.1989202, "lon": 29.6419506, "tags": {"amenity": "restaurant"}}, {"type": "node", "id": 2964404951, "lat": 36.198925, "lon": 29.642311}, {"type": "node", "id": 2964404952, "lat": 36.1988079, "lon": 29.6422911}, {"type": "node", "id": 2964404953, "lat": 36.1987987, "lon": 29.6423738}, {"type": "node", "id": 2964404954, "lat": 36.1989158, "lon": 29.6423938}, {"type": "node", "id": 2969874528, "lat": 36.2005478, "lon": 29.6416322, "tags": {"amenity": "restaurant", "cuisine": "regional", "name": "Fichi"}}, {"type": "node", "id": 2969874529, "lat": 36.2004698, "lon": 29.6416644, "tags": {"addr:housenumber": "16", "addr:postcode": "07580", "addr:street": "Ibrahim Serin Caddesi", "amenity": "restaurant", "check_date": "2024-10-27", "cuisine": "turkish", "level": "0", "name": "Corner", "name:en": "Corner", "opening_hours": "Mo-Su 09:30-01:00", "phone": "05367399075"}}, {"type": "node", "id": 2984774688, "lat": 36.2771798, "lon": 29.3205191, "tags": {"amenity": "restaurant", "name": "Akay Pension", "tourism": "guest_house", "website": "https://www.pataraakaypension.com/"}}, {"type": "node", "id": 2984866730, "lat": 36.2689618, "lon": 29.4121667, "tags": {"amenity": "restaurant", "name": "Cafe Ev"}}, {"type": "node", "id": 3065393194, "lat": 36.235055, "lon": 29.4247753, "tags": {"amenity": "restaurant", "cuisine": "regional"}}, {"type": "node", "id": 3065393197, "lat": 36.2656574, "lon": 29.4147404, "tags": {"amenity": "restaurant", "cuisine": "regional"}}, {"type": "node", "id": 3785150733, "lat": 36.2752673, "lon": 29.32009, "tags": {"amenity": "restaurant", "name": "Alibaba"}}, {"type": "node", "id": 3785161315, "lat": 36.2753304, "lon": 29.3194096, "tags": {"amenity": "restaurant", "capacity": "50", "cuisine": "regional", "name": "Ayse Pancake House", "takeaway": "yes"}}, {"type": "node", "id": 3785161316, "lat": 36.2752197, "lon": 29.3193505, "tags": {"amenity": "restaurant", "capacity": "150", "cuisine": "regional", "name": "Tlos"}}, {"type": "node", "id": 3785162054, "lat": 36.2743463, "lon": 29.3763564, "tags": {"amenity": "restaurant"}}, {"type": "node", "id": 3789270662, "lat": 36.1971807, "lon": 29.6437704, "tags": {"amenity": "restaurant", "cuisine": "pizza", "internet_access": "wlan", "name": "Derya Beach"}}, {"type": "node", "id": 4513846390, "lat": 36.1989662, "lon": 29.6418503, "tags": {"addr:housenumber": "1", "addr:street": "Cumhuriyet Meydan\u0131", "amenity": "restaurant", "cuisine": "seafood", "name:en": "Efendi Restaurant"}}, {"type": "node", "id": 4937523721, "lat": 36.1999658, "lon": 29.6420684, "tags": {"amenity": "restaurant", "cuisine": "turkish", "name": "Hayta"}}, {"type": "node", "id": 4937971521, "lat": 36.1997515, "lon": 29.64201, "tags": {"amenity": "restaurant", "name": "Maya steak house", "name:tr": "Maya steak house"}}, {"type": "node", "id": 4941994321, "lat": 36.2008463, "lon": 29.6410566, "tags": {"amenity": "restaurant", "cuisine": "turkish", "name": "Birlik Yufka"}}, {"type": "node", "id": 5009364321, "lat": 36.24459, "lon": 29.37009, "tags": {"addr:street": "Guesthouse Camelion car road", "amenity": "cafe", "cuisine": "regional;grill;fish_and_chips;chicken;friture", "name": "Pinark\u00fcr\u00fc Restorant", "name:en": "Pinarkuru Restorant", "name:tr": "Pinark\u00fcr\u00fc Restorant", "opening_hours": "Mo-Su 09:00-20:00", "phone": "+905352876998"}}, {"type": "node", "id": 5026461936, "lat": 36.2005545, "lon": 29.6407724, "tags": {"amenity": "restaurant", "cuisine": "regional", "name": "H\u00fcnkar"}}, {"type": "node", "id": 5026470594, "lat": 36.1994972, "lon": 29.642623, "tags": {"amenity": "restaurant", "cuisine": "regional", "name": "Bah\u00e7e"}}, {"type": "node", "id": 5026471303, "lat": 36.1991464, "lon": 29.6426304, "tags": {"amenity": "restaurant", "cuisine": "regional;seafood", "name": "Bah\u00e7e Bal\u0131k"}}, {"type": "node", "id": 5026473376, "lat": 36.1997875, "lon": 29.6408598, "tags": {"amenity": "cafe", "check_date": "2023-03-01", "internet_access": "yes", "name": "Aile \u00c7ay Bah\u00e7esi"}}, {"type": "node", "id": 5026473971, "lat": 36.1989593, "lon": 29.6424015, "tags": {"amenity": "restaurant", "cuisine": "regional;steak_house", "name": "Dolphin"}}, {"type": "node", "id": 5026475647, "lat": 36.1995366, "lon": 29.6411013, "tags": {"amenity": "cafe", "check_date": "2023-01-06", "level": "0", "name": "Noel Baba"}}, {"type": "node", "id": 5068871664, "lat": 36.2412944, "lon": 29.4273208, "tags": {"amenity": "cafe"}}, {"type": "node", "id": 5289547622, "lat": 36.2008827, "lon": 29.6386559, "tags": {"amenity": "restaurant", "cuisine": "kebab;turkish", "name": "Kervan - pide ve kebap salonu"}}, {"type": "node", "id": 5533478816, "lat": 36.2002384, "lon": 29.6421953}, {"type": "node", "id": 5533478817, "lat": 36.2001172, "lon": 29.6421833}, {"type": "node", "id": 5533478818, "lat": 36.2001247, "lon": 29.6420668}, {"type": "node", "id": 5533478819, "lat": 36.2002459, "lon": 29.6420789}, {"type": "node", "id": 5619160148, "lat": 36.2676384, "lon": 29.4131582, "tags": {"amenity": "restaurant"}}, {"type": "node", "id": 5647614121, "lat": 36.2615469, "lon": 29.4166127, "tags": {"amenity": "cafe", "cuisine": "turkish", "internet_access": "wlan", "name": "Muar Cafe & Plaj Isletmesi", "name:en": "Muar Cafe"}}, {"type": "node", "id": 5649048221, "lat": 36.2686967, "lon": 29.4123448, "tags": {"amenity": "restaurant", "cuisine": "turkish", "internet_access": "wlan", "name": "Sultan", "name:ru": "\u0421\u0443\u043b\u0442\u0430\u043d"}}, {"type": "node", "id": 5651205621, "lat": 36.1985125, "lon": 29.6174881, "tags": {"amenity": "restaurant", "name:ru": "\u0420\u0435\u0441\u0442\u043e\u0440\u0430\u043d"}}, {"type": "node", "id": 5803353853, "lat": 36.2479069, "lon": 29.4261439, "tags": {"amenity": "restaurant", "cuisine": "turkish", "name": "Lykia G\u00f6zleme evi"}}, {"type": "node", "id": 5895985185, "lat": 36.1995381, "lon": 29.6410536, "tags": {"amenity": "restaurant", "check_date": "2023-01-06", "cuisine": "italian;italian_pizza;diner;pasta;pizza", "level": "1", "name": "Bella Vita", "opening_hours": "Mo-Su 12:00-23:00"}}, {"type": "node", "id": 5969572786, "lat": 36.2751238, "lon": 29.3187937, "tags": {"amenity": "restaurant", "internet_access": "wlan", "name:en": "Cafe Inn", "website": "https://cafeinnpatara.dijital.menu/"}}, {"type": "node", "id": 6012454785, "lat": 36.4827346, "lon": 29.3963737}, {"type": "node", "id": 6022812889, "lat": 36.2032784, "lon": 29.5857175, "tags": {"amenity": "cafe"}}, {"type": "node", "id": 6051508487, "lat": 36.2711949, "lon": 29.4133783, "tags": {"amenity": "cafe", "internet_access": "wlan", "name": "Aye's Kitchen", "name:uk": "\u041a\u0430\u0444\u0435 Aye's Kitchen"}}, {"type": "node", "id": 6069184138, "lat": 36.2347354, "lon": 29.4255966}, {"type": "node", "id": 6069184139, "lat": 36.2348837, "lon": 29.4257182}, {"type": "node", "id": 6069184140, "lat": 36.2349063, "lon": 29.4258054}, {"type": "node", "id": 6069184141, "lat": 36.2346575, "lon": 29.4259021}, {"type": "node", "id": 6069184142, "lat": 36.2346373, "lon": 29.4257462}, {"type": "node", "id": 6244979085, "lat": 36.19837, "lon": 29.642481, "tags": {"amenity": "restaurant", "check_date": "2023-03-01", "internet_access": "wlan", "name": "Panorama"}}, {"type": "node", "id": 6286835517, "lat": 36.2000166, "lon": 29.6399547, "tags": {"amenity": "cafe", "name": "Akay \u00c7ay Bah\u00e7esi"}}, {"type": "node", "id": 6343091986, "lat": 36.2663927, "lon": 29.4133836, "tags": {"amenity": "cafe", "name": "IXIR shop", "name:en": "Hunkar Ocakbasi"}}, {"type": "node", "id": 6483408187, "lat": 36.2619386, "lon": 29.4151929, "tags": {"amenity": "cafe", "internet_access": "wlan", "name": "Seaport", "name:en": "\u0410hi ocakbasi"}}, {"type": "node", "id": 6694789786, "lat": 36.2003659, "lon": 29.6409921, "tags": {"amenity": "restaurant", "cuisine": "seafood;friture;steak_house;fish", "name": "Havana Bal\u0131kevi"}}, {"type": "node", "id": 6721156985, "lat": 36.1993175, "lon": 29.6379835, "tags": {"amenity": "cafe", "diet:vegan": "yes", "internet_access": "wlan", "name": "Oborus Momus"}}, {"type": "node", "id": 6766678142, "lat": 36.1992514, "lon": 29.6424772, "tags": {"amenity": "restaurant", "internet_access": "wlan", "name": "Salkim Meyhane"}}, {"type": "node", "id": 6782988985, "lat": 36.1991636, "lon": 29.642285, "tags": {"amenity": "restaurant", "name": "\u00dcz\u00fcm Kizi"}}, {"type": "node", "id": 6783575685, "lat": 36.2002084, "lon": 29.6419859, "tags": {"amenity": "restaurant", "name": "Zulada Yim"}}, {"type": "node", "id": 6784316785, "lat": 36.2056823, "lon": 29.630308, "tags": {"amenity": "restaurant", "name:en": "PASSARELLA"}}, {"type": "node", "id": 6812595875, "lat": 36.3127695, "lon": 29.4252002}, {"type": "node", "id": 6812595876, "lat": 36.3126676, "lon": 29.4253625}, {"type": "node", "id": 6812595877, "lat": 36.3127337, "lon": 29.4254292}, {"type": "node", "id": 6812595878, "lat": 36.3127612, "lon": 29.4253865}, {"type": "node", "id": 6812595879, "lat": 36.3127846, "lon": 29.4254104}, {"type": "node", "id": 6812595880, "lat": 36.3128149, "lon": 29.4253677}, {"type": "node", "id": 6812595881, "lat": 36.3127943, "lon": 29.4253455}, {"type": "node", "id": 6812595883, "lat": 36.3128274, "lon": 29.425267}, {"type": "node", "id": 6814316792, "lat": 36.1967402, "lon": 29.6450049, "tags": {"amenity": "restaurant", "name": "Medusa Hotel Restaurant"}}, {"type": "node", "id": 6815720685, "lat": 36.1982674, "lon": 29.6426748, "tags": {"amenity": "restaurant", "name": "Kasim Ev Yemekleri"}}, {"type": "node", "id": 6861251885, "lat": 36.2637101, "lon": 29.4156358, "tags": {"amenity": "restaurant", "internet_access": "wlan", "name": "Chata Restaurant"}}, {"type": "node", "id": 6905390665, "lat": 36.2005631, "lon": 29.6411098, "tags": {"amenity": "restaurant", "cuisine": "turkish", "name": "Adana Kebap"}}, {"type": "node", "id": 6910444386, "lat": 36.2000349, "lon": 29.6420056, "tags": {"amenity": "restaurant", "cuisine": "mediterranean;persian", "name": "Zaika"}}, {"type": "node", "id": 7131637685, "lat": 36.1996605, "lon": 29.6395967, "tags": {"amenity": "restaurant", "check_date": "2023-03-01", "cuisine": "turkish;kebab;chicken;local", "name:en": "2000 Restaurant"}}, {"type": "node", "id": 7133836185, "lat": 36.1984772, "lon": 29.6423378, "tags": {"amenity": "cafe", "check_date": "2023-03-01", "cuisine": "coffee_shop;tea;sandwich", "name": "Bilisstt", "name:en": "Biiisstt Coffee & Sandwiches", "name:tr": "Biiisstt", "opening_hours": "Mo-Su 09:00-01:00", "phone": "+90 242 836 11 16"}}, {"type": "node", "id": 7139851185, "lat": 36.2003078, "lon": 29.6396402, "tags": {"amenity": "restaurant", "cuisine": "local;turkish;italian", "name": "K\u00fc\u00e7\u00fck Ev Restaurant", "name:en": "Small House Restaurant Ka\u015f", "name:tr": "K\u00fc\u00e7\u00fck Ev Restaurant Ka\u015f", "opening_hours": "Mo-Su 09:00-23:00"}}, {"type": "node", "id": 7154672085, "lat": 36.2002204, "lon": 29.6391191, "tags": {"amenity": "restaurant", "cuisine": "turkish;local;kebab", "diet:vegetarian": "yes", "name": "Ye\u015fil Restaurant"}}, {"type": "node", "id": 7166223885, "lat": 36.2016319, "lon": 29.6382211, "tags": {"amenity": "restaurant", "cuisine": "turkish;local;kebab", "name": "Lezzet Dura\u011f\u0131 Restaurant"}}, {"type": "node", "id": 7674874202, "lat": 36.2001036, "lon": 29.6410747, "tags": {"addr:housenumber": "15/2", "addr:street": "\u00d6zt\u00fcrk sokak", "amenity": "cafe", "cuisine": "turkish;international", "email": "butkakas@gmail.com", "internet_access": "wlan", "internet_access:fee": "no", "name": "Butka", "name:en": "Butka", "name:tr": "Butka Sokak Lezzetleri", "opening_hours": "Mo-Fr 10:00-00:00; Sa-Su 10:00-20:00", "outdoor_seating": "yes", "phone": "02428363212"}}, {"type": "node", "id": 7674874208, "lat": 36.1987141, "lon": 29.6384996, "tags": {"amenity": "restaurant"}}, {"type": "node", "id": 7677929458, "lat": 36.1997607, "lon": 29.6414832, "tags": {"amenity": "restaurant", "building": "yes", "cuisine": "pizza;kebab", "name": "\u00c7\u0131narlar", "outdoor_seating": "yes"}}, {"type": "node", "id": 7677929464, "lat": 36.1999747, "lon": 29.6404062, "tags": {"amenity": "cafe", "name": "T\u00fcrk Kahvesi"}}, {"type": "node", "id": 7681242804, "lat": 36.2293926, "lon": 29.4488263}, {"type": "node", "id": 7681242808, "lat": 36.2293155, "lon": 29.4487843}, {"type": "node", "id": 7681242814, "lat": 36.2292665, "lon": 29.4490088}, {"type": "node", "id": 7681242822, "lat": 36.2293249, "lon": 29.4490088}, {"type": "node", "id": 7681242833, "lat": 36.2295083, "lon": 29.4489725}, {"type": "node", "id": 7681242839, "lat": 36.229527, "lon": 29.4488567}, {"type": "node", "id": 7781246572, "lat": 36.1993066, "lon": 29.6393739, "tags": {"amenity": "cafe", "check_date": "2023-03-01", "cuisine": "burger", "name": "k\u00f6fteci Yusuf"}}, {"type": "node", "id": 7913882985, "lat": 36.2753628, "lon": 29.3193082, "tags": {"amenity": "cafe", "name": "Patara G\u00f6zleme Evi"}}, {"type": "node", "id": 7947281185, "lat": 36.319709, "lon": 29.3999879, "tags": {"amenity": "restaurant", "name": "\u00c7arda", "name:en": "\u00c7ardak", "name:tr": "\u00c7ardak"}}, {"type": "node", "id": 7947281186, "lat": 36.3169194, "lon": 29.4019051, "tags": {"amenity": "restaurant", "name": "G\u00fcrsoy Cafe Restauran"}}, {"type": "node", "id": 7947281285, "lat": 36.3227924, "lon": 29.4005601, "tags": {"amenity": "restaurant", "name": "Hamam Cafe Bistro"}}, {"type": "node", "id": 7947281385, "lat": 36.3177289, "lon": 29.4003859, "tags": {"amenity": "restaurant", "name": "Ustalar Pide"}}, {"type": "node", "id": 7983901397, "lat": 36.2763775, "lon": 29.3992628, "tags": {"amenity": "restaurant", "cuisine": "turkish", "internet_access": "wlan", "name:en": "Needdin"}}, {"type": "node", "id": 7996688485, "lat": 36.199353, "lon": 29.640936, "tags": {"amenity": "cafe"}}, {"type": "node", "id": 8000437587, "lat": 36.2021998, "lon": 29.637654, "tags": {"amenity": "cafe", "name": "Tost\u00e7u mesut"}}, {"type": "node", "id": 8019444788, "lat": 36.1995766, "lon": 29.6422573, "tags": {"addr:housenumber": "16", "addr:postcode": "07580", "addr:street": "Top\u00e7u Sokak", "amenity": "restaurant", "cuisine": "mediterranean", "name:en": "Bijout Boutique cafe", "opening_hours": "Mo-Su 19:30-23:30", "phone": "0539 233 95 00"}}, {"type": "node", "id": 8019448785, "lat": 36.1993316, "lon": 29.6419792, "tags": {"addr:housenumber": "13", "addr:postcode": "07580", "addr:street": "Cumhuriyet Meydan\u0131", "amenity": "restaurant", "check_date": "2023-03-01", "cuisine": "turkish", "name": "Ally Restaurant", "opening_hours": "Mo-Su 12:00-00:00", "phone": "0242 836 10 57"}}, {"type": "node", "id": 8019448886, "lat": 36.2006447, "lon": 29.6387859, "tags": {"addr:postcode": "07580", "addr:street": "Atat\u00fcrk Bulvar\u0131", "air_conditioning": "yes", "amenity": "restaurant", "cuisine": "turkish", "indoor_seating": "yes", "name": "\u00d6z Nazilli Restoran", "name:en": "Oz Nazilli Restaurant", "opening_hours": "Mo-Su 08:00-05:00", "outdoor_seating": "yes", "phone": "0242 836 36 68"}}, {"type": "node", "id": 8019448986, "lat": 36.2006987, "lon": 29.6416556, "tags": {"addr:housenumber": "4", "addr:postcode": "07580", "addr:street": "Cukurba\u011fl\u0131lar Caddesi", "amenity": "cafe", "cuisine": "coffee_shop", "name:en": "Mama Africa Coffee Co.", "opening_hours": "Mo-Sa 09:00-00:00", "phone": "0533 812 13 46"}}, {"type": "node", "id": 8041663086, "lat": 36.3581567, "lon": 29.3443246, "tags": {"amenity": "restaurant", "name": "Likya Restaurant"}}, {"type": "node", "id": 8044151980, "lat": 36.3129006, "lon": 29.4251946}, {"type": "node", "id": 8044151981, "lat": 36.3128943, "lon": 29.4251789}, {"type": "node", "id": 8074370717, "lat": 36.3586902, "lon": 29.34154, "tags": {"amenity": "restaurant", "name": "Adams"}}, {"type": "node", "id": 8305263518, "lat": 36.1997549, "lon": 29.6415481, "tags": {"amenity": "cafe", "name:en": "Cinarlar pizza & pide house", "opening_hours": "Mo-Su 09:00-20:00"}}, {"type": "node", "id": 8325379418, "lat": 36.1985186, "lon": 29.6422222, "tags": {"amenity": "restaurant", "name": "Keyf-i Dem Meyhane"}}, {"type": "node", "id": 8325379419, "lat": 36.1982678, "lon": 29.6423484, "tags": {"amenity": "restaurant", "diet:vegan": "yes", "diet:vegetarian": "yes", "name": "Oburus Momus", "opening_hours": "Mo-Su 14:00-23:30", "phone": "+905077042032", "website": "http://oburusmomus.com"}}, {"type": "node", "id": 8325379519, "lat": 36.1995239, "lon": 29.6428392, "tags": {"amenity": "restaurant", "check_date": "2023-03-01", "name": "Bi u\u011fra Meyhane"}}, {"type": "node", "id": 8325379520, "lat": 36.1984177, "lon": 29.6422436, "tags": {"amenity": "restaurant", "check_date": "2023-03-01", "name": "Masuk Devr-i Meyhane"}}, {"type": "node", "id": 8325395017, "lat": 36.1993923, "lon": 29.6419448, "tags": {"amenity": "restaurant", "check_date": "2023-03-01", "name": "Sempati"}}, {"type": "node", "id": 8325419117, "lat": 36.2664856, "lon": 29.4142806, "tags": {"amenity": "restaurant", "name": "Rose restuarant"}}, {"type": "node", "id": 8325451918, "lat": 36.2638338, "lon": 29.4156818, "tags": {"amenity": "restaurant", "name": "Kucuk Ev", "name:en": "Small House"}}, {"type": "node", "id": 8325458817, "lat": 36.2632992, "lon": 29.4137248, "tags": {"amenity": "restaurant", "name": "Blue  Marlin Fish and Meze"}}, {"type": "node", "id": 8325461317, "lat": 36.2642104, "lon": 29.4155245, "tags": {"amenity": "restaurant", "name": "Alternative Terrace Restaurant"}}, {"type": "node", "id": 8556257517, "lat": 36.1985474, "lon": 29.6525607, "tags": {"amenity": "cafe", "cuisine": "turkish", "name": "Co\u015fdum", "phone": "+905448364501"}}, {"type": "node", "id": 8577990417, "lat": 36.2019751, "lon": 29.6395459, "tags": {"amenity": "cafe", "cuisine": "mediterranean", "name": "ku\u015fhane tencere", "name:en": "kushane", "opening_hours": "Mo-Su 08:00-19:00"}}, {"type": "node", "id": 8690074110, "lat": 36.4828545, "lon": 29.3964387}, {"type": "node", "id": 8690074111, "lat": 36.4827215, "lon": 29.3966164}, {"type": "node", "id": 8690074112, "lat": 36.4828749, "lon": 29.3967942}, {"type": "node", "id": 8690074113, "lat": 36.483008, "lon": 29.3966164}, {"type": "node", "id": 8690103232, "lat": 36.4826664, "lon": 29.3965048}, {"type": "node", "id": 8690103233, "lat": 36.4825435, "lon": 29.396406}, {"type": "node", "id": 8690103234, "lat": 36.4826117, "lon": 29.3962748}, {"type": "node", "id": 8725157222, "lat": 36.3289992, "lon": 29.2269744, "tags": {"amenity": "restaurant", "cuisine": "turkish", "description": "\u041f\u043b\u043e\u0445\u043e, \u043e\u0447\u0435\u043d\u044c \u0434\u043e\u043b\u0433\u043e \u0438 \u0434\u043e\u0440\u043e\u0433\u043e. \u041e\u0442\u0432\u0440\u0430\u0442\u0438\u0442\u0435\u043b\u044c\u043d\u043e\u0435 \u043c\u0435\u0441\u0442\u043e", "internet_access": "wlan", "name": "Patara Green Park", "name:ru": "\u0420\u0435\u0441\u0442\u043e\u0440\u0430\u043d \u0437\u0430\u043a\u0440\u044b\u0442(\u0442\u0443\u0430\u043b\u0435\u0442, \u0432\u043e\u0434\u0430, \u0440\u043e\u0437\u0435\u0442\u043a\u0438 - \u0432 \u0441\u0432\u043e\u0431\u043e\u0434\u043d\u043e\u043c \u0434\u043e\u0441\u0442\u0443\u043f\u0435)", "opening_hours": "Mo-Su 09:00-21:00", "website": "http://pataragreenpark.com"}}, {"type": "node", "id": 8847739417, "lat": 36.1986981, "lon": 29.6423444, "tags": {"amenity": "cafe", "name": "Dudu Mutfak"}}, {"type": "node", "id": 8847740917, "lat": 36.1993859, "lon": 29.6427003, "tags": {"amenity": "cafe", "name": "Demeti Kas"}}, {"type": "node", "id": 8857303718, "lat": 36.1993105, "lon": 29.6375425, "tags": {"amenity": "cafe", "contact:phone": "+90 507 252 43 45", "contact:website": "https://pisekarveganfood.com/", "diet:vegan": "only", "internet_access": "wlan", "name": "Pisek\u00e2r", "name:en": "Pisekar", "opening_hours": "Mo-Su 12:00-21:00"}}, {"type": "node", "id": 8863277317, "lat": 36.1997125, "lon": 29.6423137, "tags": {"amenity": "cafe", "cuisine": "breakfast;burger;coffee_shop;international;local;turkish", "diet:vegetarian": "yes", "internet_access": "wlan", "name": "Fika Garden"}}, {"type": "node", "id": 8866183217, "lat": 36.1995097, "lon": 29.6429229, "tags": {"amenity": "cafe", "check_date": "2023-03-01", "cuisine": "cake;coffee_shop", "internet_access": "wlan", "name": "Godo Coffee", "name:en": "Godo Coffee and More", "name:tr": "Godo Coffee and More", "opening_hours": "Mo-Su 08:30-22:00", "payment:mastercard": "yes", "payment:visa": "yes", "phone": "+90 555 728 02 08", "website": "https://godocoffeeandmore.com/"}}, {"type": "node", "id": 9062378319, "lat": 36.4803062, "lon": 29.4013981, "tags": {"amenity": "cafe", "cuisine": "turkish", "name:en": "Village cafe", "name:ru": "\u0428\u0438\u043a\u0430\u0440\u043d\u043e\u0435 \u0434\u0435\u0440\u0435\u0432\u0435\u043d\u0441\u043a\u043e\u0435 \u043a\u0430\u0444\u0435", "opening_hours": "Mo-Su 09:00-20:00"}}, {"type": "node", "id": 9166017717, "lat": 36.1986217, "lon": 29.6394574, "tags": {"amenity": "restaurant", "cuisine": "greek", "internet_access": "wlan", "name:ru": "\u0433\u0440\u0435\u0447\u0435\u0441\u043a\u0438\u0439 \u0440\u0435\u0441\u0442\u043e\u0440\u0430\u043d"}}, {"type": "node", "id": 9169076117, "lat": 36.265995, "lon": 29.4022548, "tags": {"amenity": "restaurant", "cuisine": "breakfast;burger;chicken;coffee_shop;international;local;mediterranean", "name:en": "Cafe VITA", "opening_hours": "Mo-Su 09:00-01:00"}}, {"type": "node", "id": 9207490523, "lat": 36.2811198, "lon": 29.4080027, "tags": {"amenity": "cafe"}}, {"type": "node", "id": 9237316326, "lat": 36.1972722, "lon": 29.6444884, "tags": {"amenity": "cafe", "indoor_seating": "no", "name": "Spoon Cafe", "name:en": "Spoon Coffee", "outdoor_seating": "yes"}}, {"type": "node", "id": 9246395531, "lat": 36.2401854, "lon": 29.4918023, "tags": {"amenity": "cafe", "name": "H\u00fcseyinin evi", "name:en": "Huseyin's House", "phone": "+90-555-792-9007"}}, {"type": "node", "id": 9251045618, "lat": 36.2670685, "lon": 29.4131967, "tags": {"amenity": "cafe", "name:en": "Kushane Pide & Kebab"}}, {"type": "node", "id": 9370205417, "lat": 36.1995354, "lon": 29.6415884, "tags": {"amenity": "cafe", "check_date": "2023-03-01", "name": "\u00c7\u0131naralt\u0131", "outdoor_seating": "yes", "survey:date": "2021-12-27"}}, {"type": "node", "id": 9448366109, "lat": 36.331806, "lon": 29.226581}, {"type": "node", "id": 9448366110, "lat": 36.3317761, "lon": 29.2266464}, {"type": "node", "id": 9448366111, "lat": 36.3318734, "lon": 29.226715}, {"type": "node", "id": 9448366112, "lat": 36.3319033, "lon": 29.2266496}, {"type": "node", "id": 9563538857, "lat": 36.2639393, "lon": 29.415888, "tags": {"amenity": "restaurant", "name": "Salonika 1881"}}, {"type": "node", "id": 9563555755, "lat": 36.1990675, "lon": 29.6382914, "tags": {"amenity": "cafe", "name": "Kas Lounge"}}, {"type": "node", "id": 9569126080, "lat": 36.1998625, "lon": 29.6517305, "tags": {"amenity": "cafe"}}, {"type": "node", "id": 9580718758, "lat": 36.2022431, "lon": 29.6412561}, {"type": "node", "id": 9580718759, "lat": 36.2022431, "lon": 29.6412461}, {"type": "node", "id": 9580718760, "lat": 36.2022407, "lon": 29.6412365}, {"type": "node", "id": 9580718761, "lat": 36.202236, "lon": 29.6412284}, {"type": "node", "id": 9580718762, "lat": 36.2021947, "lon": 29.6412364}, {"type": "node", "id": 9580718763, "lat": 36.2021921, "lon": 29.6412469}, {"type": "node", "id": 9580718764, "lat": 36.2021926, "lon": 29.6412578}, {"type": "node", "id": 9580718765, "lat": 36.2021959, "lon": 29.6412679}, {"type": "node", "id": 9580718766, "lat": 36.2022295, "lon": 29.6412224}, {"type": "node", "id": 9580718767, "lat": 36.2022218, "lon": 29.6412193}, {"type": "node", "id": 9580718768, "lat": 36.2022137, "lon": 29.6412193}, {"type": "node", "id": 9580718769, "lat": 36.202206, "lon": 29.6412224}, {"type": "node", "id": 9580718770, "lat": 36.2021994, "lon": 29.6412283}, {"type": "node", "id": 9580718771, "lat": 36.2022019, "lon": 29.641276}, {"type": "node", "id": 9580718772, "lat": 36.2022096, "lon": 29.6412811}, {"type": "node", "id": 9580718773, "lat": 36.2022184, "lon": 29.6412827}, {"type": "node", "id": 9580718774, "lat": 36.202227, "lon": 29.6412805}, {"type": "node", "id": 9580718775, "lat": 36.2022345, "lon": 29.6412749}, {"type": "node", "id": 9580718776, "lat": 36.2022401, "lon": 29.6412664}, {"type": "node", "id": 9592819656, "lat": 36.2014882, "lon": 29.638466, "tags": {"amenity": "cafe", "name": "EGE"}}, {"type": "node", "id": 9592819660, "lat": 36.1987548, "lon": 29.6527951, "tags": {"amenity": "cafe"}}, {"type": "node", "id": 9621672382, "lat": 36.1999109, "lon": 29.6601337, "tags": {"amenity": "cafe", "diet:vegan": "yes", "internet_access": "wlan", "internet_access:fee": "customers", "name": "life BOXtr", "outdoor_seating": "yes"}}, {"type": "node", "id": 9621672396, "lat": 36.1993382, "lon": 29.6546575, "tags": {"amenity": "cafe", "name": "gayuk"}}, {"type": "node", "id": 9621681929, "lat": 36.204248, "lon": 29.6371569, "tags": {"amenity": "cafe", "name": "decatria"}}, {"type": "node", "id": 9621681964, "lat": 36.2000166, "lon": 29.6392572, "tags": {"amenity": "cafe", "name": "Nur"}}, {"type": "node", "id": 9643677317, "lat": 36.355988, "lon": 29.3142815, "tags": {"amenity": "cafe", "name:en": "Eltim doner"}}, {"type": "node", "id": 9655369217, "lat": 36.2592775, "lon": 29.4684249, "tags": {"amenity": "cafe", "name:en": "Cafe & Restaurant"}}, {"type": "node", "id": 9695696619, "lat": 36.2004458, "lon": 29.6389475, "tags": {"addr:street": "Atat\u00fcrk Bulvar\u0131", "amenity": "cafe", "cuisine": "cake;coffee_shop;tea", "internet_access": "wlan", "name": "Tatli D\u00fckkani Dessert Shop", "opening_hours": "Mo-Su 08:30-01:00"}}, {"type": "node", "id": 9722361917, "lat": 36.1994253, "lon": 29.6428882, "tags": {"addr:housenumber": "1", "addr:postcode": "07580", "addr:street": "Do\u011fruyol Caddesi", "amenity": "restaurant", "cuisine": "french;mediterranean", "diet:vegetarian": "yes", "email": "laperobarkas@gmail.com", "internet_access": "wlan", "name": "l\u2019apero ka\u015f", "name:en": "l\u2019apero kas", "opening_hours": "Mo-Su 16:00-00:00", "phone": "0 (242) 836 20 85"}}, {"type": "node", "id": 9722479217, "lat": 36.2020481, "lon": 29.6369502, "tags": {"amenity": "restaurant", "name": "Bi Lokma"}}, {"type": "node", "id": 9724399631, "lat": 36.1967778, "lon": 29.611876, "tags": {"amenity": "restaurant"}}, {"type": "node", "id": 9776942217, "lat": 36.5169011, "lon": 29.3889928, "tags": {"amenity": "restaurant", "cuisine": "turkish", "name": "Cinar", "name:en": "Cinar", "name:ru": "\u0427\u0438\u043d\u0430\u0440"}}, {"type": "node", "id": 9828498617, "lat": 36.26955, "lon": 29.4137771, "tags": {"addr:street": "3 sk.", "amenity": "cafe", "cuisine": "cake;coffee_shop", "description": "Great coffee and desserts, comfortable seats and hospitable owner, away from crowded downtown.", "internet_access": "wlan", "name:en": "Keske cafe", "phone": "05322468483"}}, {"type": "node", "id": 9874447690, "lat": 36.2633873, "lon": 29.4141419, "tags": {"amenity": "restaurant", "name": "Marina"}}, {"type": "node", "id": 9874564194, "lat": 36.2657765, "lon": 29.4040736, "tags": {"amenity": "restaurant", "name": "The Brothers"}}, {"type": "node", "id": 9874782302, "lat": 36.263598, "lon": 29.4152916, "tags": {"addr:street": "1 Sokak", "amenity": "restaurant", "name": "Zula Fish and Mezze"}}, {"type": "node", "id": 9874806699, "lat": 36.2631704, "lon": 29.4158692, "tags": {"amenity": "restaurant", "name": "Gironda Restaurant"}}, {"type": "node", "id": 9874826709, "lat": 36.2634759, "lon": 29.4152611, "tags": {"addr:street": "1 Sokak", "amenity": "restaurant", "name": "Tempus"}}, {"type": "node", "id": 9874830312, "lat": 36.2636261, "lon": 29.4152284, "tags": {"addr:street": "1 Sokak", "amenity": "restaurant", "name": "Nova"}}, {"type": "node", "id": 9874839843, "lat": 36.2630837, "lon": 29.4153387, "tags": {"addr:street": "2 Nolu Sokak", "amenity": "restaurant", "name": "Old Trading House"}}, {"type": "node", "id": 9874842763, "lat": 36.2636568, "lon": 29.4157317, "tags": {"addr:street": "Hasan Altan Sokak", "amenity": "restaurant", "name": "Merkez Cafe"}}, {"type": "node", "id": 9874852525, "lat": 36.2636129, "lon": 29.4157513, "tags": {"addr:street": "Hasan Altan Sokak", "amenity": "restaurant", "brand": "Olive Garden", "cuisine": "regional", "name": "Olive Garden", "not:brand:wikidata": "Q3045312"}}, {"type": "node", "id": 9874853604, "lat": 36.2634777, "lon": 29.4155933, "tags": {"amenity": "restaurant", "name": "Kosk Restaurant"}}, {"type": "node", "id": 9874858350, "lat": 36.2630148, "lon": 29.4154002, "tags": {"addr:street": "1 Nolu Sokak", "amenity": "restaurant", "name": "Ventito Restaurant"}}, {"type": "node", "id": 9874916826, "lat": 36.2629321, "lon": 29.4152788, "tags": {"amenity": "restaurant", "name": "The View Restaurant"}}, {"type": "node", "id": 9945308517, "lat": 36.2700008, "lon": 29.4120433, "tags": {"amenity": "cafe", "name": "Kofteci Suleyman", "phone": "+905425821577"}}, {"type": "node", "id": 9948813792, "lat": 36.275494, "lon": 29.3189701, "tags": {"amenity": "restaurant", "name": "Durak"}}, {"type": "node", "id": 10040314913, "lat": 36.2008168, "lon": 29.6415281, "tags": {"amenity": "restaurant", "name": "mint."}}, {"type": "node", "id": 10096040517, "lat": 36.2004039, "lon": 29.6408682, "tags": {"addr:street": "Bah\u00e7e Sk. 4 07580 Ka\u015f Antalya T\u00fcrkiye", "amenity": "cafe", "cuisine": "turkish", "internet_access": "wlan", "name:en": "Dilan cafe", "name:ru": "\u041b\u0443\u0447\u0448\u0438\u0435 \u0433\u0451\u0437\u043b\u0435\u043c\u0435", "phone": "+90 (242) 836 11 42"}}, {"type": "node", "id": 10115314834, "lat": 36.2565, "lon": 29.4340153}, {"type": "node", "id": 10115314835, "lat": 36.2564209, "lon": 29.4340944}, {"type": "node", "id": 10115314836, "lat": 36.2564943, "lon": 29.4342074}, {"type": "node", "id": 10115314837, "lat": 36.2565735, "lon": 29.4341283}, {"type": "node", "id": 10289536591, "lat": 36.2006021, "lon": 29.6407629, "tags": {"amenity": "restaurant", "check_date": "2023-01-04", "cuisine": "sushi", "level": "0", "name": "Hashi Noodle And Sushi", "opening_hours": "14:00-21:30", "wheelchair": "limited"}}, {"type": "node", "id": 10290819484, "lat": 36.2020072, "lon": 29.6404512, "tags": {"amenity": "cafe", "name": "Nazilli Cafe"}}, {"type": "node", "id": 10296492229, "lat": 36.1996155, "lon": 29.6402966, "tags": {"amenity": "cafe", "check_date": "2023-01-06", "level": "0", "name": "Yemen Kahvesi", "outdoor_seating": "yes"}}, {"type": "node", "id": 10296492230, "lat": 36.1996082, "lon": 29.640208, "tags": {"amenity": "cafe", "brand": "Gloria Jean's", "brand:wikidata": "Q2666365", "check_date": "2023-01-06", "cuisine": "coffee_shop", "level": "0", "name": "Gloria Jean's", "official_name": "Gloria Jean's Coffees", "outdoor_seating": "yes", "takeaway": "yes"}}, {"type": "node", "id": 10315434660, "lat": 36.5927337, "lon": 29.3786105}, {"type": "node", "id": 10315434661, "lat": 36.5926323, "lon": 29.378668}, {"type": "node", "id": 10315434662, "lat": 36.5926691, "lon": 29.3787685}, {"type": "node", "id": 10315434663, "lat": 36.5927705, "lon": 29.3787109}, {"type": "node", "id": 10315442402, "lat": 36.5519913, "lon": 29.3456024}, {"type": "node", "id": 10315442403, "lat": 36.5517457, "lon": 29.3455294}, {"type": "node", "id": 10315442404, "lat": 36.5517099, "lon": 29.3457157}, {"type": "node", "id": 10315442405, "lat": 36.5519555, "lon": 29.3457887}, {"type": "node", "id": 10316517803, "lat": 36.4731855, "lon": 29.4061363, "tags": {"amenity": "cafe"}}, {"type": "node", "id": 10678143820, "lat": 36.3111448, "lon": 29.3302026}, {"type": "node", "id": 10678143821, "lat": 36.3109992, "lon": 29.330161}, {"type": "node", "id": 10678143822, "lat": 36.3109725, "lon": 29.3303049}, {"type": "node", "id": 10678143823, "lat": 36.3111181, "lon": 29.3303465}, {"type": "node", "id": 10697330337, "lat": 36.4735672, "lon": 29.4022321, "tags": {"amenity": "cafe"}}, {"type": "node", "id": 10697330338, "lat": 36.473478, "lon": 29.4024816, "tags": {"amenity": "cafe"}}, {"type": "node", "id": 10702051095, "lat": 36.1992539, "lon": 29.6396682, "tags": {"amenity": "restaurant", "check_date": "2023-03-01", "description": "Kebap restaurant garden", "name": "Ora"}}, {"type": "node", "id": 10721664076, "lat": 36.2008405, "lon": 29.6410229, "tags": {"amenity": "restaurant", "bar": "no", "check_date": "2023-03-08", "cuisine": "greek", "name": "Manos Greek Tavern", "outdoor_seating": "yes", "payment:american_express": "yes", "payment:credit_cards": "yes", "payment:maestro": "yes", "payment:mastercard": "yes", "payment:visa": "yes", "payment:visa_electron": "yes", "phone": "+90 536 371 48 23", "reservation": "yes", "wheelchair": "limited"}}, {"type": "node", "id": 10789787937, "lat": 36.2756712, "lon": 29.4609509, "tags": {"amenity": "restaurant", "name": "\u015eahika Restaurant"}}, {"type": "node", "id": 10917040386, "lat": 36.2005742, "lon": 29.6244117, "tags": {"amenity": "cafe"}}, {"type": "node", "id": 10917051629, "lat": 36.1992103, "lon": 29.6369416}, {"type": "node", "id": 10917051630, "lat": 36.1989123, "lon": 29.6369586}, {"type": "node", "id": 10917051631, "lat": 36.198895, "lon": 29.6370044}, {"type": "node", "id": 10917051632, "lat": 36.1988779, "lon": 29.6373241}, {"type": "node", "id": 10917051633, "lat": 36.1992149, "lon": 29.6372654}, {"type": "node", "id": 10917051643, "lat": 36.2001182, "lon": 29.6421683}, {"type": "node", "id": 10917051652, "lat": 36.2025388, "lon": 29.6368389}, {"type": "node", "id": 10917051653, "lat": 36.2024601, "lon": 29.6367795}, {"type": "node", "id": 10917051654, "lat": 36.2024174, "lon": 29.6368662}, {"type": "node", "id": 10917051655, "lat": 36.2024961, "lon": 29.6369256}, {"type": "node", "id": 10917051692, "lat": 36.2061655, "lon": 29.6284375}, {"type": "node", "id": 10917051693, "lat": 36.206086, "lon": 29.6284203}, {"type": "node", "id": 10917051694, "lat": 36.2060349, "lon": 29.6287837}, {"type": "node", "id": 10917051695, "lat": 36.2061145, "lon": 29.6288009}, {"type": "node", "id": 10917051696, "lat": 36.2060712, "lon": 29.6288344}, {"type": "node", "id": 10917051697, "lat": 36.2060037, "lon": 29.6288067}, {"type": "node", "id": 10917051698, "lat": 36.2059437, "lon": 29.6290449}, {"type": "node", "id": 10917051699, "lat": 36.2060126, "lon": 29.6290702}, {"type": "node", "id": 10917051700, "lat": 36.2060535, "lon": 29.6291717}, {"type": "node", "id": 10917051701, "lat": 36.205985, "lon": 29.6291449}, {"type": "node", "id": 10917051702, "lat": 36.2058837, "lon": 29.6295442}, {"type": "node", "id": 10917051703, "lat": 36.2059508, "lon": 29.6295689}, {"type": "node", "id": 10917051704, "lat": 36.2058293, "lon": 29.6299151}, {"type": "node", "id": 10917051705, "lat": 36.2057578, "lon": 29.6298881}, {"type": "node", "id": 10917051706, "lat": 36.2058336, "lon": 29.6295797}, {"type": "node", "id": 10917051707, "lat": 36.2059051, "lon": 29.6296067}, {"type": "node", "id": 10917051712, "lat": 36.205845, "lon": 29.6299846}, {"type": "node", "id": 10917051713, "lat": 36.2057627, "lon": 29.6299532}, {"type": "node", "id": 10917051714, "lat": 36.2056613, "lon": 29.6303393}, {"type": "node", "id": 10917051715, "lat": 36.2057468, "lon": 29.630372}, {"type": "node", "id": 10917051721, "lat": 36.2060496, "lon": 29.628679}, {"type": "node", "id": 10917051728, "lat": 36.2059416, "lon": 29.6293159}, {"type": "node", "id": 10917051730, "lat": 36.205783, "lon": 29.6297857}, {"type": "node", "id": 10971385005, "lat": 36.3289808, "lon": 29.3333022, "tags": {"amenity": "cafe", "name": "GIRGIR Cafe & Restaurant"}}, {"type": "node", "id": 10979667205, "lat": 36.1990626, "lon": 29.6425921, "tags": {"addr:housenumber": "6", "addr:street": "Kaymakamlik \u00c7ikmazi", "amenity": "restaurant", "cuisine": "turkish", "internet_access": "wlan", "name": "Ruhi Bey Meyhanesi"}}, {"type": "node", "id": 11003447105, "lat": 36.198204, "lon": 29.6434718, "tags": {"addr:housenumber": "13", "addr:postcode": "07580", "addr:street": "H\u00fck\u00fcmet Caddesi", "amenity": "cafe", "name": "Pika"}}, {"type": "node", "id": 11059309101, "lat": 36.1998103, "lon": 29.6404157, "tags": {"addr:city": "Antalya", "addr:district": "Ka\u015f", "addr:housenumber": "3 / A", "addr:neighbourhood": "Andifli Mahallesi", "addr:postcode": "07580", "addr:street": "Ortaokul Sokak", "amenity": "cafe", "brand": "Charms Coffee", "capacity": "40", "contact:email": "charmscoffeekas@gmail.com", "contact:mobile": "+90 532 478 28 16", "contact:website": "https://charmscoffee.com/menu/menu.pdf", "cuisine": "coffee_shop", "delivery": "yes", "description": "Charms Coffee. World wide coffee beans. Colombia, India... Espresso, Americano, Latte, Ice Americano, Cold Brew, Latte, Turkish Coffee, Cocktails, Cheesecake, Cake. And some silver charms for bracelets. Some coffee beans & some silver charms you can gift", "diet:halal": "yes", "diet:lactose_free": "yes", "diet:local": "yes", "diet:sugar_free": "yes", "diet:vegan": "yes", "diet:vegetarian": "yes", "internet_access": "wlan", "internet_access:fee": "customers", "internet_access:ssid": "charmscoffee", "name": "Charms Coffee", "name:tr": "Charms Coffee", "not:name": "\u015fans;\u00e7arms", "note": "On Ortaokul Street which opens to the Ka\u015f Center.", "opening_hours": "Mo-Su 09:00-23:00", "outdoor_seating": "yes", "payment:cash": "yes", "payment:mastercard": "yes", "payment:troy": "yes", "payment:visa": "yes", "ref:vatin": "1080425010", "start_date": "14/04/2023", "website:menu": "https://charmscoffee.com/menu/menu.pdf", "wheelchair": "yes"}}, {"type": "node", "id": 11133828306, "lat": 36.2361303, "lon": 29.6946205, "tags": {"amenity": "restaurant", "cuisine": "turkish", "name": "Anna", "name:ru": "\u0420\u0435\u0441\u0442\u043e\u0440\u0430\u043d Anne Eli. \u041f\u0440\u0435\u0432\u043e\u0441\u0445\u043e\u0434\u043d\u0430\u044f \u0442\u0443\u0440\u0435\u0446\u043a\u0430\u044f \u043a\u0443\u0445\u043d\u044f", "name:tr": "Dogal Ann Eli Kas", "website": "https://dogalanneeli.com/"}}, {"type": "node", "id": 11169425242, "lat": 36.3090615, "lon": 29.420263, "tags": {"amenity": "restaurant", "indoor_seating": "yes", "name": "Bodamya Tepe", "opening_hours": "Mo-Su 7:00-24:00", "outdoor_seating": "yes", "phone": "+905366060046", "website": "http://bodamyatepe.com/"}}, {"type": "node", "id": 11169425244, "lat": 36.3120562, "lon": 29.4237038, "tags": {"amenity": "restaurant", "name": "Zeytin Dal\u0131", "opening_hours": "Mo-Su 08:30-24:00", "phone": "+905363392302", "website": "http://zeytindalirestaurant.com/"}}, {"type": "node", "id": 11169425246, "lat": 36.3123616, "lon": 29.4243352, "tags": {"amenity": "restaurant", "name": "H\u00fcseyinin Yeri", "opening_hours": "Mo-Su 09:00-23:00", "phone": "+905418574695", "website": "http://www.ucuzvillam.com/"}}, {"type": "node", "id": 11190577937, "lat": 36.239475, "lon": 29.5452002, "tags": {"amenity": "cafe", "cuisine": "turkish", "internet_access": "wlan"}}, {"type": "node", "id": 11252865137, "lat": 36.2762863, "lon": 29.4626528, "tags": {"amenity": "cafe", "internet_access": "wlan", "name": "Pirha", "name:en": "Pivho", "name:ru": "Pivho \u0432\u043a\u0443\u0441\u043d\u043e \u0438 \u043d\u0435\u0434\u043e\u0440\u043e\u0433\u043e"}}, {"type": "node", "id": 11262965638, "lat": 36.2004022, "lon": 29.6416499, "tags": {"amenity": "cafe", "name:en": "CAFE CORNER"}}, {"type": "node", "id": 11452151069, "lat": 36.2758026, "lon": 29.4574731, "tags": {"amenity": "cafe", "name": "iva"}}, {"type": "node", "id": 11452306069, "lat": 36.2621426, "lon": 29.4152098, "tags": {"amenity": "restaurant", "name": "Pasha"}}, {"type": "node", "id": 11663464769, "lat": 36.2621801, "lon": 29.4106921, "tags": {"addr:housenumber": "16", "addr:postcode": "07580", "addr:street": "Cumhuriyet Cad. Kalamar Yolu", "amenity": "restaurant", "cuisine": "indian", "name:fr": "Taj Mahal Kalkan"}}, {"type": "node", "id": 11666034169, "lat": 36.2676484, "lon": 29.4130003, "tags": {"amenity": "restaurant", "cuisine": "turkish", "name:fr": "Zeugma Restaurant"}}, {"type": "node", "id": 11770105371, "lat": 36.2058949, "lon": 29.6014139}, {"type": "node", "id": 11770105372, "lat": 36.2058473, "lon": 29.6014166}, {"type": "node", "id": 11770105373, "lat": 36.2057867, "lon": 29.6014273}, {"type": "node", "id": 11770105374, "lat": 36.2057499, "lon": 29.6015024}, {"type": "node", "id": 11770105375, "lat": 36.2057499, "lon": 29.6015722}, {"type": "node", "id": 11770105376, "lat": 36.205804, "lon": 29.6016043}, {"type": "node", "id": 11770105377, "lat": 36.2058624, "lon": 29.6016017}, {"type": "node", "id": 11770105378, "lat": 36.2059144, "lon": 29.6014649}, {"type": "node", "id": 11792866337, "lat": 36.2090805, "lon": 29.5843095}, {"type": "node", "id": 11792866338, "lat": 36.208955, "lon": 29.5842545}, {"type": "node", "id": 11792866339, "lat": 36.2089993, "lon": 29.5840993}, {"type": "node", "id": 11792866340, "lat": 36.2091248, "lon": 29.5841543}, {"type": "node", "id": 11874636569, "lat": 36.1981468, "lon": 29.6423701, "tags": {"amenity": "restaurant", "name:en": "Mey\u2019la"}}, {"type": "node", "id": 11877316270, "lat": 36.2017061, "lon": 29.6378867, "tags": {"amenity": "cafe", "name:en": "Kaptan Pide", "phone": "+902428364505"}}, {"type": "node", "id": 11907401770, "lat": 36.2651877, "lon": 29.4148572, "tags": {"amenity": "restaurant", "name": "Zircus"}}, {"type": "node", "id": 11907401969, "lat": 36.2632825, "lon": 29.4166027, "tags": {"amenity": "restaurant", "name:en": "Dragon chinese"}}, {"type": "node", "id": 11910019069, "lat": 36.4715847, "lon": 29.402169, "tags": {"amenity": "restaurant", "internet_access": "wlan", "name": "Kay\u0131p Cennet Restaurant Sakl\u0131kent / Muhtar\u0131n Yeri", "opening_hours": "Mo-Su 08:30-21:00", "phone": "+90 536 842 84 76"}}, {"type": "node", "id": 11913686469, "lat": 36.1994486, "lon": 29.6416165, "tags": {"amenity": "cafe", "cuisine": "cake;ice_cream;pancake;tea", "internet_access": "wlan", "name:en": "Mia Dolce Vita", "opening_hours": "Mo-Su 08:00-03:00"}}, {"type": "node", "id": 11914019169, "lat": 36.1994574, "lon": 29.642212, "tags": {"amenity": "cafe", "cuisine": "cake;coffee_shop;tea", "internet_access": "wlan", "name:en": "Nokta cafe"}}, {"type": "node", "id": 11942239070, "lat": 36.260733, "lon": 29.4709369, "tags": {"amenity": "restaurant", "name": "Kekikli Bah\u00e7e Sar\u0131belen"}}, {"type": "node", "id": 11956077069, "lat": 36.2007069, "lon": 29.6404065, "tags": {"addr:postcode": "07580", "amenity": "cafe", "cuisine": "kebab;local;turkish", "name": "D\u00fcr\u00fcm Evi Mehmet Usta"}}, {"type": "node", "id": 12076731765, "lat": 36.2620148, "lon": 29.4149869, "tags": {"amenity": "restaurant", "cuisine": "pasta", "name": "Lighthouse"}}, {"type": "node", "id": 12076766380, "lat": 36.2729313, "lon": 29.4132147, "tags": {"amenity": "restaurant", "cuisine": "pizza", "name": "Tosoro Pizza & Ristorante Kalkan"}}, {"type": "node", "id": 12291357463, "lat": 36.2010371, "lon": 29.6414127, "tags": {"amenity": "cafe", "check_date": "2024-10-27", "cuisine": "international", "level": "0", "name": "Giant Stride", "name:en": "Giant Stride", "outdoor_seating": "yes", "website": "https://qr.adisyo.com/905e9082-9431-48bc-8822-229a2191b892?202204150633"}}, {"type": "node", "id": 12291378758, "lat": 36.201037, "lon": 29.6414127, "tags": {"amenity": "cafe", "check_date": "2024-10-27", "cuisine": "international", "level": "0", "name": "Giant Stride", "name:en": "Giant Stride", "outdoor_seating": "yes", "phone": "+90 530 285 84 68", "website": "https://qr.adisyo.com/905e9082-9431-48bc-8822-229a2191b892?202204150633"}}, {"type": "node", "id": 12306978587, "lat": 36.24101, "lon": 29.4275529, "tags": {"amenity": "cafe"}}, {"type": "node", "id": 12308985482, "lat": 36.3388364, "lon": 29.1997097, "tags": {"amenity": "cafe", "description": "free campsite, lunch, dinner, , hot&cold drinks, shower, wc", "name": "Zeynep", "phone": "+905438653574", "website": "zeyneperkan731"}}, {"type": "node", "id": 12328574802, "lat": 36.4231471, "lon": 29.2580804, "tags": {"amenity": "cafe", "name:en": "Cafe (no food)"}}, {"type": "node", "id": 12330300401, "lat": 36.2552338, "lon": 29.434915, "tags": {"amenity": "cafe"}}, {"type": "node", "id": 12438651601, "lat": 36.3531462, "lon": 29.3599959, "tags": {"amenity": "restaurant", "name": "Umut ET"}}, {"type": "node", "id": 12617692033, "lat": 36.6397083, "lon": 29.337841, "tags": {"amenity": "restaurant", "brand": "K\u00f6fteci Yusuf", "brand:wikidata": "Q126125081", "cuisine": "turkish", "name": "K\u00f6fteci Yusuf"}}, {"type": "node", "id": 12623850101, "lat": 36.2654761, "lon": 29.4132334, "tags": {"amenity": "cafe", "name": "Kalkan Suites Coffee House"}}, {"type": "node", "id": 12623850301, "lat": 36.3076178, "lon": 29.3283818, "tags": {"amenity": "restaurant", "name": "Lokantasi"}}, {"type": "node", "id": 12881178501, "lat": 36.2012109, "lon": 29.6388739, "tags": {"amenity": "restaurant", "cuisine": "chicken;greek;kebab;local", "name:en": "Kas Gulsen"}}, {"type": "node", "id": 12882994801, "lat": 36.265745, "lon": 29.4144438, "tags": {"amenity": "cafe", "cuisine": "burger;chicken;kebab;sandwich;turkish", "name": "Coffee Break", "name:en": "Coffee Break", "opening_hours": "Mo-Su 08:00-02:00", "phone": "(0242) 844 13 50"}}, {"type": "way", "id": 123009116, "nodes": [1373007500, 1373007503, 1373007522, 1373007505, 1373007501, 1373007497, 1373007492, 1373007495, 1373007500], "tags": {"amenity": "cafe", "building": "yes", "description": "closed", "name": "Cafe Dede", "tourism": "guest_house"}}, {"type": "way", "id": 123009149, "nodes": [1373007489, 1373007475, 1373007472, 1373007473, 1373007489], "tags": {"addr:neighbourhood": "ortakuyu mahallesi", "amenity": "restaurant", "building": "yes", "cuisine": "burger;k\u00f6fte;breakfast;pizza;coffee_shop;cay;regional;chicken;sandwich", "description": "closed", "name": "maaide Bahce", "phone": "+90 554 583 6611"}}, {"type": "way", "id": 292883210, "nodes": [2964404951, 2964404952, 2964404953, 2964404954, 2964404951], "tags": {"addr:city": "Ka\u015f", "addr:housenumber": "3", "addr:street": "Suleyman Sandikci Sokak", "amenity": "restaurant", "building": "yes", "capacity": "100", "cuisine": "seafood", "internet_access": "wlan", "name": "Sako", "phone": "02428363055", "smoking": "outside"}}, {"type": "way", "id": 577131977, "nodes": [5533478819, 5533478816, 5533478817, 10917051643, 5533478818, 5533478819], "tags": {"amenity": "restaurant", "building": "yes", "name": "Pell's"}}, {"type": "way", "id": 645728445, "nodes": [6069184138, 6069184139, 6069184140, 6069184141, 6069184142, 6069184138], "tags": {"amenity": "restaurant", "building": "yes", "building:levels": "2", "name": "Adam's Restaurant"}}, {"type": "way", "id": 726907558, "nodes": [8044151980, 8044151981, 6812595883, 6812595875, 6812595876, 6812595877, 6812595878, 6812595879, 6812595880, 6812595881, 8044151980], "tags": {"addr:city": "Ka\u015f", "addr:district": "Kalkan", "addr:neighbourhood": "\u0130slamlar", "addr:postcode": "07960", "addr:street": "\u0130slamlar Sokak", "amenity": "restaurant", "building": "yes", "cuisine": "Turkish;Fish", "name": "De\u011firmen Restoran", "phone": "+90 242 838 62 95"}}, {"type": "way", "id": 822675244, "nodes": [7681242814, 7681242822, 7681242833, 7681242839, 7681242804, 7681242808, 7681242814], "tags": {"amenity": "cafe", "building": "yes", "cuisine": "sandwich;tea"}}, {"type": "way", "id": 937998596, "nodes": [8690074110, 8690074111, 8690074112, 8690074113, 8690074110], "tags": {"amenity": "cafe", "building": "yes"}}, {"type": "way", "id": 937998602, "nodes": [6012454785, 8690103232, 8690103233, 8690103234, 6012454785], "tags": {"amenity": "restaurant"}}, {"type": "way", "id": 1024656394, "nodes": [9448366109, 9448366110, 9448366111, 9448366112, 9448366109], "tags": {"amenity": "cafe", "building": "yes", "internet_access": "wlan", "name": "Likya Garden Life"}}, {"type": "way", "id": 1040535712, "nodes": [9580718771, 9580718772, 9580718773, 9580718774, 9580718775, 9580718776, 9580718758, 9580718759, 9580718760, 9580718761, 9580718766, 9580718767, 9580718768, 9580718769, 9580718770, 9580718762, 9580718763, 9580718764, 9580718765, 9580718771], "tags": {"amenity": "cafe", "building": "yes"}}, {"type": "way", "id": 1105375440, "nodes": [10115314834, 10115314835, 10115314836, 10115314837, 10115314834], "tags": {"addr:street": "Likya Yolu 5.01", "amenity": "cafe", "building": "yes", "description": "Turkish cafe, tea, ayran, pide, water", "source": "microsoft/BuildingFootprints"}}, {"type": "way", "id": 1128301493, "nodes": [10315434660, 10315434661, 10315434662, 10315434663, 10315434660], "tags": {"amenity": "restaurant", "building": "yes", "cuisine": "turkish"}}, {"type": "way", "id": 1128301511, "nodes": [10315442402, 10315442403, 10315442404, 10315442405, 10315442402], "tags": {"amenity": "restaurant", "building": "yes", "cuisine": "turkish", "name": "Saray"}}, {"type": "way", "id": 1147592891, "nodes": [10678143820, 10678143821, 10678143822, 10678143823, 10678143820], "tags": {"addr:city": "Antalya", "addr:neighbourhood": "Ova", "amenity": "restaurant", "building": "yes", "cuisine": "turkish;hatay;regional", "name": "\u00d6z Hatay Ocak Ba\u015f\u0131 Restoran"}}, {"type": "way", "id": 1174896191, "nodes": [10917051629, 10917051630, 10917051631, 10917051632, 10917051633, 10917051629], "tags": {"amenity": "restaurant", "internet_access": "wlan", "leisure": "beach_resort", "name": "Leymona Beach & Cafe", "smoking": "yes", "wheelchair": "no"}}, {"type": "way", "id": 1174896197, "nodes": [10917051652, 10917051653, 10917051654, 10917051655, 10917051652], "tags": {"amenity": "cafe", "building": "yes"}}, {"type": "way", "id": 1174896211, "nodes": [10917051692, 10917051693, 10917051721, 10917051694, 10917051695, 10917051692], "tags": {"amenity": "restaurant", "building": "yes"}}, {"type": "way", "id": 1174896212, "nodes": [10917051696, 10917051697, 10917051698, 10917051699, 10917051696], "tags": {"amenity": "restaurant", "building": "yes"}}, {"type": "way", "id": 1174896213, "nodes": [10917051700, 10917051701, 10917051728, 10917051702, 10917051703, 10917051700], "tags": {"amenity": "restaurant", "building": "yes"}}, {"type": "way", "id": 1174896214, "nodes": [10917051704, 10917051705, 10917051730, 10917051706, 10917051707, 10917051704], "tags": {"amenity": "restaurant", "building": "yes"}}, {"type": "way", "id": 1174896216, "nodes": [10917051712, 10917051713, 10917051714, 10917051715, 10917051712], "tags": {"amenity": "restaurant", "building": "yes"}}, {"type": "way", "id": 1267254044, "nodes": [11770105378, 11770105377, 11770105376, 11770105375, 11770105374, 11770105373, 11770105372, 11770105371, 11770105378], "tags": {"amenity": "restaurant"}}, {"type": "way", "id": 1270057085, "nodes": [11792866340, 11792866337, 11792866338, 11792866339, 11792866340], "tags": {"amenity": "cafe", "building": "yes", "outdoor_seating": "yes", "takeaway": "yes"}}]}