{"version": 0.6, "generator": "Overpass API 0.7.62.7 375dc00a", "osm3s": {"timestamp_osm_base": "2025-06-14T13:55:30Z", "copyright": "The data included in this document is from www.openstreetmap.org. The data is made available under ODbL."}, "elements": [{"type": "node", "id": 475866999, "lat": 36.7420004, "lon": 15.1197677, "tags": {"amenity": "restaurant", "cuisine": "regional", "name": "Trattoria La Cialoma", "outdoor_seating": "yes"}}, {"type": "node", "id": 475867003, "lat": 36.7411441, "lon": 15.1191212, "tags": {"amenity": "restaurant", "cuisine": "regional", "name": "La Muciara"}}, {"type": "node", "id": 601692690, "lat": 36.7173408, "lon": 15.0889001, "tags": {"amenity": "cafe", "name": "New Sporting Bar"}}, {"type": "node", "id": 1843771174, "lat": 36.7416638, "lon": 15.119889, "tags": {"amenity": "restaurant", "name": "Cortile Arabo", "outdoor_seating": "yes"}}, {"type": "node", "id": 1843771176, "lat": 36.7424251, "lon": 15.1183307, "tags": {"amenity": "restaurant", "name": "Il Veliero"}}, {"type": "node", "id": 1843771177, "lat": 36.7425411, "lon": 15.1189137, "tags": {"amenity": "restaurant", "contact:mobile": "+39 338 4300332", "contact:phone": "+39 347 3695102", "name": "La Conchiglietta", "phone": "+39 0931 841007", "tourism": "hotel"}}, {"type": "node", "id": 1904325005, "lat": 36.7289381, "lon": 14.8513378, "tags": {"amenity": "restaurant", "cuisine": "italian", "name": "La Tegola"}}, {"type": "node", "id": 1904325015, "lat": 36.7294391, "lon": 14.8510854, "tags": {"amenity": "restaurant", "cuisine": "pizza", "name": "La Conchiglia"}}, {"type": "node", "id": 1904325019, "lat": 36.7299602, "lon": 14.8535345, "tags": {"amenity": "cafe", "name": "Bar Mattioli"}}, {"type": "node", "id": 1913759535, "lat": 36.7295379, "lon": 14.8979655, "tags": {"amenity": "restaurant", "cuisine": "regional", "name": "Il Braciere"}}, {"type": "node", "id": 1930189841, "lat": 36.6813516, "lon": 15.1343773, "tags": {"amenity": "restaurant", "name": "Scala"}}, {"type": "node", "id": 1932103455, "lat": 36.7284103, "lon": 14.8494955}, {"type": "node", "id": 1932103456, "lat": 36.7281675, "lon": 14.8495837}, {"type": "node", "id": 1932103457, "lat": 36.728281, "lon": 14.8496925}, {"type": "node", "id": 1932103458, "lat": 36.7282968, "lon": 14.8493782}, {"type": "node", "id": 1962825072, "lat": 36.7293884, "lon": 14.8497102, "tags": {"amenity": "cafe", "name": "Woody Caf\u00e8"}}, {"type": "node", "id": 2054444118, "lat": 36.6807859, "lon": 15.1333821, "tags": {"amenity": "cafe", "check_date": "2024-01-25", "name": "Bar dello Sport"}}, {"type": "node", "id": 2054444144, "lat": 36.6816162, "lon": 15.1341868, "tags": {"amenity": "cafe", "check_date": "2024-01-25", "name": "Koala Bar"}}, {"type": "node", "id": 2054444181, "lat": 36.6798631, "lon": 15.1344966, "tags": {"amenity": "restaurant", "name": "Maurizio"}}, {"type": "node", "id": 2072015275, "lat": 36.7596071, "lon": 14.8863881, "tags": {"amenity": "restaurant", "name": "La Moresca"}}, {"type": "node", "id": 2079651894, "lat": 36.7862323, "lon": 14.9068003, "tags": {"amenity": "cafe", "name": "Royal Bar"}}, {"type": "node", "id": 2079651896, "lat": 36.7862452, "lon": 14.9080448, "tags": {"amenity": "restaurant", "name": "Il Mercato"}}, {"type": "node", "id": 2079651921, "lat": 36.7894544, "lon": 14.9005641, "tags": {"amenity": "restaurant", "name": "Il Giardino dei Sapori"}}, {"type": "node", "id": 2183911966, "lat": 36.7256581, "lon": 14.846156}, {"type": "node", "id": 2209739877, "lat": 36.7424889, "lon": 15.1189551, "tags": {"amenity": "restaurant", "internet_access": "wlan", "internet_access:fee": "no", "name": "Al Boccone", "outdoor_seating": "yes"}}, {"type": "node", "id": 2276829227, "lat": 36.7586524, "lon": 14.8836548}, {"type": "node", "id": 2276829229, "lat": 36.7587359, "lon": 14.8835504}, {"type": "node", "id": 2276829230, "lat": 36.7588362, "lon": 14.8839631}, {"type": "node", "id": 2276829232, "lat": 36.7589515, "lon": 14.8838189}, {"type": "node", "id": 2282203969, "lat": 36.7310847, "lon": 14.8642818}, {"type": "node", "id": 2282203970, "lat": 36.7311293, "lon": 14.8644208}, {"type": "node", "id": 2282203973, "lat": 36.7312144, "lon": 14.864217}, {"type": "node", "id": 2282203974, "lat": 36.731259, "lon": 14.8643559}, {"type": "node", "id": 2343026742, "lat": 36.7749715, "lon": 14.8718265}, {"type": "node", "id": 2343026743, "lat": 36.7749733, "lon": 14.8720387}, {"type": "node", "id": 2343026745, "lat": 36.77505, "lon": 14.8719758}, {"type": "node", "id": 2343026746, "lat": 36.7750585, "lon": 14.8719863}, {"type": "node", "id": 2343026747, "lat": 36.775065, "lon": 14.8722131}, {"type": "node", "id": 2343026748, "lat": 36.7751312, "lon": 14.8713911}, {"type": "node", "id": 2343026749, "lat": 36.7751438, "lon": 14.8721485}, {"type": "node", "id": 2343026750, "lat": 36.7751843, "lon": 14.8713476}, {"type": "node", "id": 2343026751, "lat": 36.7752431, "lon": 14.8716039}, {"type": "node", "id": 2343026753, "lat": 36.7753812, "lon": 14.8717219}, {"type": "node", "id": 3420510203, "lat": 36.7425985, "lon": 15.1185889, "tags": {"amenity": "cafe", "authorization": "4", "name": "Barzamemi", "tobacco": "yes"}}, {"type": "node", "id": 3420510204, "lat": 36.7412445, "lon": 15.1167991, "tags": {"amenity": "restaurant", "cuisine": "italian", "name": "La Nassa"}}, {"type": "node", "id": 3438449493, "lat": 36.7160766, "lon": 15.0748741}, {"type": "node", "id": 3438449494, "lat": 36.7160944, "lon": 15.0748021}, {"type": "node", "id": 3438449495, "lat": 36.7161069, "lon": 15.0747891}, {"type": "node", "id": 3438449496, "lat": 36.7161316, "lon": 15.074877}, {"type": "node", "id": 3438449497, "lat": 36.7161412, "lon": 15.0747945}, {"type": "node", "id": 3647500704, "lat": 36.7809206, "lon": 14.9146259, "tags": {"amenity": "cafe", "name": "Bar Milana"}}, {"type": "node", "id": 3648677212, "lat": 36.790289, "lon": 14.8980454, "tags": {"amenity": "cafe"}}, {"type": "node", "id": 3683548712, "lat": 36.7254611, "lon": 14.8459727}, {"type": "node", "id": 3683548713, "lat": 36.7254722, "lon": 14.8460337}, {"type": "node", "id": 3683548714, "lat": 36.7255207, "lon": 14.8459091}, {"type": "node", "id": 3683548715, "lat": 36.72549, "lon": 14.8460148}, {"type": "node", "id": 3683548718, "lat": 36.7256101, "lon": 14.8462348}, {"type": "node", "id": 3683548719, "lat": 36.7256484, "lon": 14.8461419}, {"type": "node", "id": 3683548720, "lat": 36.7256668, "lon": 14.8461222}, {"type": "node", "id": 3683548721, "lat": 36.725669, "lon": 14.8461719}, {"type": "node", "id": 3720334764, "lat": 36.7273766, "lon": 14.8480321, "tags": {"amenity": "restaurant", "name": "Ballar\u00f2"}}, {"type": "node", "id": 3721747714, "lat": 36.7360433, "lon": 14.8983878, "tags": {"amenity": "restaurant", "cuisine": "regional", "name": "Poseidon", "outdoor_seating": "yes"}}, {"type": "node", "id": 3723666199, "lat": 36.7306583, "lon": 14.8962204, "tags": {"amenity": "restaurant", "name": "La Tegola"}}, {"type": "node", "id": 3777337226, "lat": 36.7587079, "lon": 14.8837239}, {"type": "node", "id": 3777337227, "lat": 36.7587369, "lon": 14.8836876}, {"type": "node", "id": 3777337228, "lat": 36.7587491, "lon": 14.8838546}, {"type": "node", "id": 3777337229, "lat": 36.7588099, "lon": 14.8837786}, {"type": "node", "id": 4303169657, "lat": 36.7329462, "lon": 14.8498574, "tags": {"amenity": "restaurant", "name": "Sicilia e Sapori", "phone": "+39 3311754757"}}, {"type": "node", "id": 4336743203, "lat": 36.7292564, "lon": 14.8481027, "tags": {"amenity": "restaurant", "name": "Orient Kebab"}}, {"type": "node", "id": 4482509905, "lat": 36.7324683, "lon": 14.8556921, "tags": {"amenity": "restaurant", "name": "Ristorante D'Autore"}}, {"type": "node", "id": 4488605727, "lat": 36.7355137, "lon": 14.8983386, "tags": {"amenity": "restaurant", "name": "Trattoria GBM"}}, {"type": "node", "id": 4835927554, "lat": 36.7294765, "lon": 14.8504485, "tags": {"amenity": "cafe", "name": "Amuri Non Solo Caff\u00e8"}}, {"type": "node", "id": 4920485071, "lat": 36.7413583, "lon": 15.1191813, "tags": {"amenity": "restaurant", "name": "Rais", "outdoor_seating": "yes"}}, {"type": "node", "id": 4920485073, "lat": 36.7418666, "lon": 15.1192249, "tags": {"amenity": "restaurant", "check_date": "2023-04-27", "cuisine": "regional", "description": "boutique & book bar con cucina", "email": "info@liccamuciula.it", "internet_access": "wlan", "name": "Liccamucula", "note": "the opening hours are different off-season (Dec-Apr): 10:00-02:00 during weekend and feasts, 10:00-22:00 during week days, closed on Tuesdays. Also, closed 6 November - 2 December 2016, 9 January - 18 February 2017", "opening_hours": "Mo-Su 10:00-03:00", "outdoor_seating": "yes", "phone": "+39 320 264 9181", "website": "http://www.liccamuciula.it"}}, {"type": "node", "id": 4941552936, "lat": 36.7292304, "lon": 14.8971552, "tags": {"amenity": "restaurant", "name": "Soda Thanks", "outdoor_seating": "yes"}}, {"type": "node", "id": 4941552939, "lat": 36.7257951, "lon": 14.9077311, "tags": {"amenity": "restaurant", "internet_access": "wlan", "internet_access:fee": "no", "name": "Borgo Rio Favara Beach", "outdoor_seating": "yes"}}, {"type": "node", "id": 5001061156, "lat": 36.7277781, "lon": 14.8487837, "tags": {"amenity": "restaurant", "name": "I Cabrera"}}, {"type": "node", "id": 5022194293, "lat": 36.7413947, "lon": 15.119511, "tags": {"amenity": "restaurant", "name": "Il Borgo", "outdoor_seating": "yes"}}, {"type": "node", "id": 5022194294, "lat": 36.7416025, "lon": 15.1195673, "tags": {"amenity": "restaurant", "name": "Principino", "outdoor_seating": "yes"}}, {"type": "node", "id": 5022194297, "lat": 36.7422286, "lon": 15.1182845, "tags": {"amenity": "restaurant", "name": "Camparia", "outdoor_seating": "yes"}}, {"type": "node", "id": 5023352262, "lat": 36.7439802, "lon": 15.114968, "tags": {"amenity": "restaurant", "cuisine": "pizza", "name": "Il Canneto", "outdoor_seating": "yes"}}, {"type": "node", "id": 5071978718, "lat": 36.7185591, "lon": 15.0874575, "tags": {"amenity": "cafe", "authorization": "11", "name": "Caff\u00e8 Gozzo", "tobacco": "yes"}}, {"type": "node", "id": 5175158329, "lat": 36.7291671, "lon": 14.902238, "tags": {"amenity": "restaurant", "name": "Il Veliero"}}, {"type": "node", "id": 5265204864, "lat": 36.7311395, "lon": 14.8823709}, {"type": "node", "id": 5265204865, "lat": 36.7311287, "lon": 14.8825211}, {"type": "node", "id": 5265204866, "lat": 36.7313328, "lon": 14.8825438}, {"type": "node", "id": 5265204867, "lat": 36.7313435, "lon": 14.8823936}, {"type": "node", "id": 5267343789, "lat": 36.7152855, "lon": 15.0769097, "tags": {"amenity": "cafe", "name": "Quadrifoglio"}}, {"type": "node", "id": 5267428362, "lat": 36.7387315, "lon": 15.1152456, "tags": {"amenity": "restaurant", "cuisine": "italian", "name": "Al Defino Bianco"}}, {"type": "node", "id": 5267428365, "lat": 36.7233625, "lon": 15.1032735, "tags": {"amenity": "cafe", "name": "Smile"}}, {"type": "node", "id": 5269119088, "lat": 36.7480047, "lon": 15.1094024, "tags": {"amenity": "cafe", "outdoor_seating": "yes"}}, {"type": "node", "id": 5649081022, "lat": 36.7335119, "lon": 15.1171144, "tags": {"amenity": "restaurant", "name": "L'Approdo"}}, {"type": "node", "id": 5649081026, "lat": 36.7379656, "lon": 15.1171017, "tags": {"amenity": "cafe", "name": "Blas\u00e9"}}, {"type": "node", "id": 5920087619, "lat": 36.7150776, "lon": 15.0776124, "tags": {"amenity": "cafe", "name": "Il Ritorno del Bar Furore"}}, {"type": "node", "id": 6043820293, "lat": 36.785693, "lon": 14.9047823, "tags": {"amenity": "restaurant", "cuisine": "italian_pizza;pizza", "name": "Pizzaria Forno", "name:it": "Pizzaria Forno a Legna"}}, {"type": "node", "id": 6112924086, "lat": 36.7268115, "lon": 14.8466703, "tags": {"amenity": "cafe", "name": "Caff\u00e8 La Villa"}}, {"type": "node", "id": 6138367044, "lat": 36.7427242, "lon": 15.1187682, "tags": {"amenity": "cafe", "name": "N'ta Zia Lea", "opening_hours": "24/7"}}, {"type": "node", "id": 6140715288, "lat": 36.7431786, "lon": 15.117268, "tags": {"amenity": "restaurant", "name": "Il Nodo del Pescatore", "outdoor_seating": "yes"}}, {"type": "node", "id": 6140715862, "lat": 36.7424942, "lon": 15.118572, "tags": {"amenity": "restaurant", "diet:vegan": "no", "diet:vegetarian": "yes", "name": "Fritti in un Coppo", "opening_hours": "12:00-01:00", "wheelchair": "no"}}, {"type": "node", "id": 6140715941, "lat": 36.7412968, "lon": 15.1168509, "tags": {"amenity": "restaurant", "name": "Moviti Fermu"}}, {"type": "node", "id": 6140715942, "lat": 36.7415537, "lon": 15.1172157, "tags": {"amenity": "restaurant", "name": "Scialata ri Mare"}}, {"type": "node", "id": 6140715997, "lat": 36.7423892, "lon": 15.1191837, "tags": {"amenity": "restaurant", "name": "Spizzuliu"}}, {"type": "node", "id": 6140716079, "lat": 36.7413608, "lon": 15.1191314, "tags": {"amenity": "cafe", "name": "Calamar\u00f2"}}, {"type": "node", "id": 6148605455, "lat": 36.7377567, "lon": 15.1162541, "tags": {"amenity": "restaurant", "name": "La Marinella"}}, {"type": "node", "id": 6148605676, "lat": 36.7388411, "lon": 15.1154467, "tags": {"amenity": "restaurant", "name": "La Mattanza"}}, {"type": "node", "id": 6148605736, "lat": 36.7396848, "lon": 15.1158799, "tags": {"amenity": "restaurant", "name": "Acquamadre"}}, {"type": "node", "id": 6148605749, "lat": 36.7399212, "lon": 15.1158893, "tags": {"amenity": "restaurant", "name": "La Cambusa"}}, {"type": "node", "id": 6148605796, "lat": 36.7405671, "lon": 15.1165317, "tags": {"amenity": "restaurant", "name": "La Pagoda"}}, {"type": "node", "id": 6148605812, "lat": 36.7404521, "lon": 15.1160395, "tags": {"amenity": "cafe", "name": "Caff\u00e8 al Ciclope 2"}}, {"type": "node", "id": 6148605813, "lat": 36.7405311, "lon": 15.1160858, "tags": {"amenity": "restaurant", "name": "I Pupi Bistr\u00f2"}}, {"type": "node", "id": 6148605819, "lat": 36.7412076, "lon": 15.1164043, "tags": {"amenity": "restaurant", "name": "Street Food Marzamemi"}}, {"type": "node", "id": 6148605821, "lat": 36.740867, "lon": 15.1162856, "tags": {"amenity": "restaurant", "name": "Bay Watch"}}, {"type": "node", "id": 6701110516, "lat": 36.6707562, "lon": 15.1272234}, {"type": "node", "id": 6701110517, "lat": 36.6706834, "lon": 15.1273102}, {"type": "node", "id": 6701110518, "lat": 36.6705253, "lon": 15.127104}, {"type": "node", "id": 6701110519, "lat": 36.6705981, "lon": 15.1270172}, {"type": "node", "id": 6701110602, "lat": 36.6724753, "lon": 15.1274814}, {"type": "node", "id": 6701110603, "lat": 36.6723329, "lon": 15.1275786}, {"type": "node", "id": 6701110604, "lat": 36.6724244, "lon": 15.1278588}, {"type": "node", "id": 6701110605, "lat": 36.6726072, "lon": 15.1277486}, {"type": "node", "id": 6701110606, "lat": 36.672348, "lon": 15.1276447}, {"type": "node", "id": 6701110609, "lat": 36.6724172, "lon": 15.127828}, {"type": "node", "id": 6701110635, "lat": 36.6725562, "lon": 15.1276454}, {"type": "node", "id": 6994895785, "lat": 36.7297695, "lon": 14.8522885, "tags": {"amenity": "restaurant", "name": "Riva Baglieri"}}, {"type": "node", "id": 7014976441, "lat": 36.7298142, "lon": 14.8478029, "tags": {"amenity": "restaurant", "name": "Antichi Sapori"}}, {"type": "node", "id": 7156229179, "lat": 36.7855832, "lon": 14.9104441, "tags": {"amenity": "restaurant", "cuisine": "pizza", "name": "Tre Stelle", "opening_hours": "Tu-Su 10:00-14:30,17:00-24:00"}}, {"type": "node", "id": 7256858108, "lat": 36.6736424, "lon": 15.1273048, "tags": {"amenity": "restaurant", "name": "La Caverna del Cico"}}, {"type": "node", "id": 7256858138, "lat": 36.6862187, "lon": 15.1354614, "tags": {"amenity": "restaurant", "name": "U' Saracenu"}}, {"type": "node", "id": 7385958223, "lat": 36.7155435, "lon": 15.0910576, "tags": {"amenity": "cafe", "name": "Caff\u00e8 al Ciclope"}}, {"type": "node", "id": 7636220637, "lat": 36.7614177, "lon": 14.9146619, "tags": {"amenity": "restaurant", "name": "Rondon's Grill"}}, {"type": "node", "id": 7791849489, "lat": 36.7276976, "lon": 14.8485388, "tags": {"amenity": "restaurant", "name": "Cala Brigantina"}}, {"type": "node", "id": 7791849490, "lat": 36.7278674, "lon": 14.8485844, "tags": {"amenity": "cafe", "name": "Bar Cornetteria da Salvo"}}, {"type": "node", "id": 7791849491, "lat": 36.7278406, "lon": 14.8486447, "tags": {"amenity": "restaurant", "name": "Sabbenerica"}}, {"type": "node", "id": 7791849492, "lat": 36.7277933, "lon": 14.8491584, "tags": {"amenity": "restaurant", "name": "A Calata o Ponti", "outdoor_seating": "yes", "takeaway": "yes", "wheelchair": "yes"}}, {"type": "node", "id": 7791849505, "lat": 36.727179, "lon": 14.8482332, "tags": {"amenity": "restaurant", "name": "Demetra"}}, {"type": "node", "id": 7791849544, "lat": 36.7271076, "lon": 14.8475582, "tags": {"amenity": "cafe", "name": "Chill Out"}}, {"type": "node", "id": 7799442752, "lat": 36.7102014, "lon": 14.9418612, "tags": {"amenity": "restaurant", "name": "Pizzeria Kennedy"}}, {"type": "node", "id": 7799461229, "lat": 36.729082, "lon": 14.9010766, "tags": {"amenity": "restaurant", "name": "Verde Basilico"}}, {"type": "node", "id": 7888306597, "lat": 36.6783772, "lon": 15.1135504, "tags": {"amenity": "restaurant", "name": "Donna Maria"}}, {"type": "node", "id": 7900897171, "lat": 36.8036388, "lon": 14.9902131, "tags": {"amenity": "restaurant", "name": "Ristorante Codarossa"}}, {"type": "node", "id": 7903443354, "lat": 36.7476637, "lon": 15.0993161, "tags": {"amenity": "restaurant", "name": "Sciabb\u00e8"}}, {"type": "node", "id": 7936875672, "lat": 36.7317935, "lon": 14.8570579, "tags": {"amenity": "restaurant", "cuisine": "pizza", "name": "I Due Re"}}, {"type": "node", "id": 8066505732, "lat": 36.7303345, "lon": 14.8509427, "tags": {"amenity": "restaurant", "cuisine": "pizza", "name": "Go Pizza"}}, {"type": "node", "id": 8288095843, "lat": 36.731623, "lon": 14.8788196, "tags": {"amenity": "restaurant", "name": "A Lampara"}}, {"type": "node", "id": 8464000285, "lat": 36.6895101, "lon": 15.1340774, "tags": {"amenity": "restaurant", "name": "Vidi"}}, {"type": "node", "id": 8464000302, "lat": 36.6861341, "lon": 15.1373277, "tags": {"addr:housenumber": "6", "addr:street": "Piazza Terrazza dei Due Mari"}}, {"type": "node", "id": 8464000303, "lat": 36.686112, "lon": 15.1372559, "tags": {"addr:housenumber": "4", "addr:street": "Piazza Terrazza dei Due Mari"}}, {"type": "node", "id": 8464000304, "lat": 36.6861085, "lon": 15.1372451}, {"type": "node", "id": 8464000305, "lat": 36.6860681, "lon": 15.1371228}, {"type": "node", "id": 8464000306, "lat": 36.6860911, "lon": 15.1371878, "tags": {"addr:housenumber": "2", "addr:street": "Piazza Terrazza dei Due Mari"}}, {"type": "node", "id": 8464000322, "lat": 36.6861906, "lon": 15.1373279}, {"type": "node", "id": 8464000328, "lat": 36.6862597, "lon": 15.1372954}, {"type": "node", "id": 8464000329, "lat": 36.6861412, "lon": 15.1373512}, {"type": "node", "id": 8464000330, "lat": 36.6861158, "lon": 15.1372675}, {"type": "node", "id": 8464000331, "lat": 36.6862343, "lon": 15.1372117}, {"type": "node", "id": 8464000332, "lat": 36.686221, "lon": 15.1371839}, {"type": "node", "id": 8464000333, "lat": 36.6861807, "lon": 15.137042}, {"type": "node", "id": 8944114181, "lat": 36.7415552, "lon": 15.1191002, "tags": {"amenity": "restaurant", "contact:mobile": "+39 389 7889125", "name": "Friggitoria M\u2019Appititta", "ref:vatin": "IT01704210895"}}, {"type": "node", "id": 8974166717, "lat": 36.790895, "lon": 14.9118912, "tags": {"amenity": "restaurant", "name": "caveau"}}, {"type": "node", "id": 9165771973, "lat": 36.7171363, "lon": 15.0976335, "tags": {"amenity": "cafe", "authorization": "14", "name": "Bar Arangio", "tobacco": "yes"}}, {"type": "node", "id": 9165771984, "lat": 36.6824226, "lon": 15.1347397, "tags": {"amenity": "cafe", "check_date": "2024-01-25", "name": "Bar Furn\u00f2"}}, {"type": "node", "id": 9299740284, "lat": 36.7345324, "lon": 14.8557455, "tags": {"amenity": "cafe", "name": "Caff\u00e8 Italia"}}, {"type": "node", "id": 9322383122, "lat": 36.788824, "lon": 14.9266074}, {"type": "node", "id": 9322383123, "lat": 36.7887765, "lon": 14.9266864}, {"type": "node", "id": 9322383124, "lat": 36.7886852, "lon": 14.9266009}, {"type": "node", "id": 9322383125, "lat": 36.7887326, "lon": 14.9265218}, {"type": "node", "id": 9686734174, "lat": 36.7154592, "lon": 15.0775203, "tags": {"amenity": "cafe"}}, {"type": "node", "id": 9686734179, "lat": 36.7208116, "lon": 15.0881606, "tags": {"amenity": "cafe", "name": "Caff\u00e8 al Volo"}}, {"type": "node", "id": 10702147220, "lat": 36.6796243, "lon": 15.128474}, {"type": "node", "id": 10779165221, "lat": 36.7151041, "lon": 15.0908097, "tags": {"amenity": "cafe", "internet_access": "yes", "internet_access:fee": "no", "internet_access:password": "milleluci33", "internet_access:type": "wlan", "name": "Cafe Milleluci"}}, {"type": "node", "id": 11255385436, "lat": 36.7410626, "lon": 15.1163104, "tags": {"amenity": "cafe", "name": "Meeting Point"}}, {"type": "node", "id": 11268038151, "lat": 36.7782002, "lon": 15.0740388, "tags": {"amenity": "restaurant", "name": "Ristorante Datterino"}}, {"type": "node", "id": 11497517955, "lat": 36.72906, "lon": 14.8504522}, {"type": "node", "id": 11497517956, "lat": 36.7290497, "lon": 14.8504732}, {"type": "node", "id": 11497517957, "lat": 36.7290304, "lon": 14.850479}, {"type": "node", "id": 11497517958, "lat": 36.7290136, "lon": 14.8504661}, {"type": "node", "id": 11497517959, "lat": 36.729009, "lon": 14.8504421}, {"type": "node", "id": 11497517960, "lat": 36.7290193, "lon": 14.850421}, {"type": "node", "id": 11497517961, "lat": 36.7290385, "lon": 14.8504153}, {"type": "node", "id": 11497517962, "lat": 36.7290554, "lon": 14.8504282}, {"type": "node", "id": 11508931598, "lat": 36.6796323, "lon": 15.1283}, {"type": "node", "id": 11508931599, "lat": 36.679747, "lon": 15.1284828}, {"type": "node", "id": 11508931600, "lat": 36.6797509, "lon": 15.1283988}, {"type": "node", "id": 11508931601, "lat": 36.6797228, "lon": 15.1283968}, {"type": "node", "id": 11508931602, "lat": 36.6797248, "lon": 15.1283516}, {"type": "node", "id": 11508931603, "lat": 36.6796867, "lon": 15.1283489}, {"type": "node", "id": 11508931604, "lat": 36.6796887, "lon": 15.1283041}, {"type": "node", "id": 11778917668, "lat": 36.7418664, "lon": 15.1198174, "tags": {"amenity": "restaurant", "name": "Suruq", "outdoor_seating": "yes"}}, {"type": "node", "id": 11934352344, "lat": 36.7848746, "lon": 14.9052139, "tags": {"amenity": "cafe", "name": "Bar La Gondola"}}, {"type": "node", "id": 12033852407, "lat": 36.7408408, "lon": 15.116724}, {"type": "node", "id": 12033852408, "lat": 36.740808, "lon": 15.1167476}, {"type": "node", "id": 12033852409, "lat": 36.740808, "lon": 15.1167949}, {"type": "node", "id": 12033852410, "lat": 36.7408408, "lon": 15.1168185}, {"type": "node", "id": 12033852411, "lat": 36.7408736, "lon": 15.1167949}, {"type": "node", "id": 12033852412, "lat": 36.7408736, "lon": 15.1167477}, {"type": "node", "id": 12633848367, "lat": 36.6832708, "lon": 15.1351932, "tags": {"amenity": "cafe", "name": "Nicholas"}}, {"type": "node", "id": 12723738764, "lat": 36.7147426, "lon": 15.0898676, "tags": {"amenity": "restaurant", "name": "Fishlab"}}, {"type": "way", "id": 182845577, "nodes": [1932103455, 1932103458, 1932103456, 1932103457, 1932103455], "tags": {"amenity": "restaurant", "building": "yes"}}, {"type": "way", "id": 218432782, "nodes": [2276829229, 2276829232, 2276829230, 3777337228, 3777337229, 3777337227, 3777337226, 2276829227, 2276829229], "tags": {"amenity": "restaurant", "building": "yes"}}, {"type": "way", "id": 219015510, "nodes": [2282203973, 2282203974, 2282203970, 2282203969, 2282203973], "tags": {"amenity": "restaurant", "building": "yes", "name": "Primo Scivolo"}}, {"type": "way", "id": 225531332, "nodes": [2343026750, 2343026753, 2343026746, 2343026749, 2343026747, 2343026743, 2343026745, 2343026742, 2343026751, 2343026748, 2343026750], "tags": {"amenity": "restaurant", "building": "yes", "historic": "manor", "name": "Villa Modica", "old_name": "Casa Giarratana"}}, {"type": "way", "id": 336763030, "nodes": [3438449493, 3438449494, 3438449495, 3438449497, 3438449496, 3438449493], "tags": {"amenity": "cafe", "authorization": "13", "building": "yes", "name": "Bar Nucifora & Galota", "tobacco": "yes"}}, {"type": "way", "id": 364311396, "nodes": [3683548714, 3683548720, 3683548719, 2183911966, 3683548721, 3683548718, 3683548713, 3683548715, 3683548712, 3683548714], "tags": {"amenity": "restaurant", "building": "yes", "cuisine": "italian", "name": "Il Delfino"}}, {"type": "way", "id": 544699402, "nodes": [5265204867, 5265204866, 5265204865, 5265204864, 5265204867], "tags": {"amenity": "restaurant", "building": "yes", "cuisine": "italian", "name": "Cianciuolo", "old_name": "Ippocampo"}}, {"type": "way", "id": 712730279, "nodes": [6701110516, 6701110517, 6701110518, 6701110519, 6701110516], "tags": {"amenity": "restaurant", "building": "yes", "name": "La Giara"}}, {"type": "way", "id": 712730300, "nodes": [6701110602, 6701110603, 6701110606, 6701110609, 6701110604, 6701110605, 6701110635, 6701110602], "tags": {"amenity": "restaurant", "building": "yes", "name": "Il Moro"}}, {"type": "way", "id": 911555816, "nodes": [8464000333, 8464000332, 8464000331, 8464000328, 8464000322, 8464000329, 8464000302, 8464000330, 8464000303, 8464000304, 8464000306, 8464000305, 8464000333], "tags": {"amenity": "restaurant", "name": "Popeye"}}, {"type": "way", "id": 1010371532, "nodes": [9322383125, 9322383124, 9322383123, 9322383122, 9322383125], "tags": {"amenity": "cafe", "building": "yes", "name": "Blu Caf\u00e8"}}, {"type": "way", "id": 1237810775, "nodes": [11497517962, 11497517961, 11497517960, 11497517959, 11497517958, 11497517957, 11497517956, 11497517955, 11497517962], "tags": {"amenity": "cafe", "building": "kiosk", "name": "Kiosco Rialto"}}, {"type": "way", "id": 1238891745, "nodes": [11508931604, 11508931603, 11508931602, 11508931601, 11508931600, 11508931599, 10702147220, 11508931598, 11508931604], "tags": {"amenity": "cafe", "building": "yes"}}, {"type": "way", "id": 1299094743, "nodes": [12033852412, 12033852411, 12033852410, 12033852409, 12033852408, 12033852407, 12033852412], "tags": {"amenity": "restaurant", "building": "kiosk", "cuisine": "italian;traditional", "name": "Ristorante Campisi", "website": "https://www.campisiconserve.it"}}]}