{"version": 0.6, "generator": "Overpass API 0.7.62.7 375dc00a", "osm3s": {"timestamp_osm_base": "2025-06-14T15:16:01Z", "copyright": "The data included in this document is from www.openstreetmap.org. The data is made available under ODbL."}, "elements": [{"type": "node", "id": 267236088, "lat": 32.4760945, "lon": 34.8936874, "tags": {"amenity": "restaurant", "cuisine": "italian;asian;sushi", "name": "\u05d0\u05d2\u05f3\u05e0\u05d3\u05d4", "name:en": "Agenda", "name:he": "\u05d0\u05d2\u05f3\u05e0\u05d3\u05d4", "opening_hours": "Su-Th 00:00-24:00; Fr 06:30-(sunset-02:00); PH off", "phone": "+972-4-6262092", "takeaway": "yes", "website": "https://agendarest.co.il/"}}, {"type": "node", "id": 290609021, "lat": 32.1754869, "lon": 34.8011123, "tags": {"amenity": "restaurant", "cuisine": "coffee_shop", "name": "Beach Cafe", "name:en": "Beach Cafe"}}, {"type": "node", "id": 290609024, "lat": 32.1765072, "lon": 34.802163, "tags": {"amenity": "restaurant", "name": "Rocco", "name:en": "Rocco"}}, {"type": "node", "id": 290609025, "lat": 32.1604519, "lon": 34.8075746, "tags": {"amenity": "restaurant", "contact:phone": "+97299548355", "contact:website": "http://www.giraffe.co.il/", "internet_access": "wlan", "name": "\u05d2'\u05d9\u05e8\u05e3", "name:en": "Giraffe", "name:he": "\u05d2'\u05d9\u05e8\u05e3", "operator": "\u05d2\u05f3\u05d9\u05e8\u05e3", "operator:en": "Giraffe", "outdoor_seating": "yes", "payment:10bis": "yes", "payment:cibus": "yes", "smoking": "separated", "survey:date": "2022-05-25"}}, {"type": "node", "id": 290609029, "lat": 32.159892, "lon": 34.8073755, "tags": {"amenity": "cafe", "name": "\u05de\u05e7\u05e1 \u05d1\u05e8\u05e0\u05e8", "name:en": "Max Brenner", "name:he": "\u05de\u05e7\u05e1 \u05d1\u05e8\u05e0\u05e8", "payment:10bis": "yes", "payment:cibus": "yes"}}, {"type": "node", "id": 290609031, "lat": 32.1590384, "lon": 34.8092085, "tags": {"amenity": "restaurant", "cuisine": "japanese;sushi;asian", "name": "Kyoto", "name:en": "Kyoto", "payment:10bis": "yes", "payment:cibus": "yes"}}, {"type": "node", "id": 345554663, "lat": 32.1804885, "lon": 34.8895927, "tags": {"amenity": "cafe", "cuisine": "coffee_shop", "name": "Buy The Way", "name:en": "Buy The Way", "wheelchair": "no"}}, {"type": "node", "id": 352903956, "lat": 32.1795772, "lon": 34.805383, "tags": {"amenity": "cafe", "cuisine": "coffee_shop", "name": "\u05e7\u05e4\u05d4 \u05d1\u05db\u05d9\u05db\u05e8", "name:en": "Caf\u00e9@Sqare", "name:he": "\u05e7\u05e4\u05d4 \u05d1\u05db\u05d9\u05db\u05e8"}}, {"type": "node", "id": 365736469, "lat": 32.3281667, "lon": 34.8895276, "tags": {"amenity": "restaurant", "name:en": "Hanamaru"}}, {"type": "node", "id": 365744418, "lat": 32.2814382, "lon": 34.8615084, "tags": {"addr:housenumber": "17", "addr:street": "\u05e9\u05d3\u05e8\u05d5\u05ea \u05d2\u05d9\u05d1\u05d5\u05e8\u05d9 \u05d9\u05e9\u05e8\u05d0\u05dc", "amenity": "restaurant", "name": "\u05de\u05e7\u05e1 \u05d1\u05e8\u05e0\u05e8", "name:en": "Max Brenner", "name:he": "\u05de\u05e7\u05e1 \u05d1\u05e8\u05e0\u05e8", "wheelchair": "yes"}}, {"type": "node", "id": 388199544, "lat": 32.3283612, "lon": 34.8490741, "tags": {"amenity": "cafe", "cuisine": "israeli", "name": "Cafe Del Mar", "name:en": "Cafe Del Mar", "wheelchair": "yes"}}, {"type": "node", "id": 392788885, "lat": 32.3104113, "lon": 34.9011388, "tags": {"amenity": "restaurant"}}, {"type": "node", "id": 392818207, "lat": 32.2874637, "lon": 34.8980832, "tags": {"amenity": "restaurant", "cuisine": "burger", "name": "Burger Saloon", "survey:date": "2021-11-07"}}, {"type": "node", "id": 399672535, "lat": 32.3175687, "lon": 34.8462472, "tags": {"amenity": "restaurant", "name": "El Gaucho", "name:en": "El Gaucho", "opening_hours": "Su-Th 12:00-00:00; Fr 00:00-15:00; Sa 20:30-00:00", "payment:credit_cards": "yes", "payment:debit_cards": "yes"}}, {"type": "node", "id": 400915991, "lat": 32.4358791, "lon": 34.9095871, "tags": {"amenity": "cafe", "name": "\u05d0\u05e8\u05d5\u05de\u05d4", "name:en": "Aroma", "name:he": "\u05d0\u05e8\u05d5\u05de\u05d4"}}, {"type": "node", "id": 400916123, "lat": 32.4358066, "lon": 34.909115, "tags": {"amenity": "cafe", "name": "\u05e7\u05e4\u05d4\u05e7\u05e4\u05d4", "name:en": "Cafe Cafe", "name:en1": "cafecafe", "name:he": "\u05e7\u05e4\u05d4\u05e7\u05e4\u05d4", "name:it": "Cafe Cafe"}}, {"type": "node", "id": 404556220, "lat": 32.344959, "lon": 34.9085408, "tags": {"amenity": "cafe", "brand": "\u05d0\u05e8\u05d5\u05de\u05d4", "brand:en": "Aroma Espresso Bar", "brand:he": "\u05d0\u05e8\u05d5\u05de\u05d4", "brand:wikidata": "Q2909872", "brand:wikipedia": "en:Aroma Espresso Bar", "cuisine": "coffee_shop", "internet_access": "yes", "name": "\u05d0\u05e8\u05d5\u05de\u05d4", "name:en": "Aroma", "name:en1": "Aroma Espresso Bar", "name:he": "\u05d0\u05e8\u05d5\u05de\u05d4", "operator": "Aroma", "takeaway": "yes"}}, {"type": "node", "id": 408739753, "lat": 32.28802, "lon": 34.8636934, "tags": {"amenity": "cafe"}}, {"type": "node", "id": 415557463, "lat": 32.2784385, "lon": 34.8608567, "tags": {"amenity": "restaurant", "name": "Kitcken Bar", "name:en": "Kitcken Bar"}}, {"type": "node", "id": 415557526, "lat": 32.2782736, "lon": 34.860814, "tags": {"amenity": "restaurant", "name": "\u05e7\u05e4\u05d4 \u05db\u05e8\u05de\u05dc", "name:en": "Cremel Cafe", "name:he": "\u05e7\u05e4\u05d4 \u05db\u05e8\u05de\u05dc", "smoking": "no"}}, {"type": "node", "id": 415557871, "lat": 32.2757959, "lon": 34.8608101, "tags": {"amenity": "restaurant", "cuisine": "asian", "name": "Lemon Gras", "name:en": "Lemon Gras", "wheelchair": "yes"}}, {"type": "node", "id": 432316370, "lat": 32.1654154, "lon": 34.9781198, "tags": {"amenity": "cafe", "name": "The Handsome Man Coffe Shop", "name:ar": "\u0645\u0642\u0647\u0649 \u0627\u0644\u0631\u062c\u0644 \u0627\u0644\u0627\u0646\u064a\u0642", "name:en": "The Handsome Man Coffe Shop"}}, {"type": "node", "id": 432325041, "lat": 32.1726123, "lon": 35.0346809, "tags": {"amenity": "restaurant", "name": "'Abbi", "name:en": "'Abbi"}}, {"type": "node", "id": 432334706, "lat": 32.1905437, "lon": 34.9660787, "tags": {"amenity": "restaurant", "name": "Mr.Bekar Restaurant", "name:ar": "\u0645\u0633\u062a\u0631 \u0628\u064a\u0643\u0631 \u0642\u0644\u0642\u064a\u0644\u064a\u0629", "name:en": "Mr.Bekar Restaurant"}}, {"type": "node", "id": 432334737, "lat": 32.1935326, "lon": 34.9679799, "tags": {"amenity": "restaurant", "name": "Kentucky Halwan", "name:ar": "\u0643\u0646\u062a\u0627\u0643\u064a \u062d\u0644\u0648\u0627\u0646", "name:en": "Kentucky Halwan"}}, {"type": "node", "id": 432334745, "lat": 32.1914385, "lon": 34.9663772, "tags": {"amenity": "restaurant", "name": "Halwan Restaurant", "name:ar": "\u0645\u0637\u0639\u0645 \u0648\u062c\u0627\u062a\u0648\u0647 \u062d\u0644\u0648\u0627\u0646", "name:en": "Halwan Restaurant"}}, {"type": "node", "id": 432334828, "lat": 32.1896565, "lon": 34.9866567, "tags": {"amenity": "restaurant", "name": "Tal Al-Qamar Restaurant", "name:ar": "\u0645\u0637\u0639\u0645 \u0648\u0625\u0633\u062a\u0631\u0627\u062d\u0629 \u0637\u0644 \u0627\u0644\u0642\u0645\u0631", "name:en": "Tal Al-Qamar Restaurant"}}, {"type": "node", "id": 432355238, "lat": 32.326061, "lon": 35.0531851, "tags": {"amenity": "cafe", "name": "Melody Cafe", "name:ar": "\u0645\u064a\u0644\u0648\u062f\u064a \u0643\u0627\u0641\u064a\u0629"}}, {"type": "node", "id": 432356740, "lat": 32.3754306, "lon": 35.0648615, "tags": {"amenity": "restaurant", "name": "Zamzam", "name:ar": "\u0645\u0637\u0639\u0645 \u0632\u0645\u0632\u0645"}}, {"type": "node", "id": 432358656, "lat": 32.3190777, "lon": 35.0471234, "tags": {"amenity": "restaurant", "name": "Abu Salem", "name:ar": "\u0645\u0637\u0639\u0645 \u0627\u0628\u0648 \u0633\u0644\u064a\u0645"}}, {"type": "node", "id": 432359239, "lat": 32.3114477, "lon": 35.0344064, "tags": {"amenity": "restaurant", "name": "Abu Yousif", "name:ar": "\u0645\u0637\u0639\u0645 \u0627\u0628\u0648 \u064a\u0648\u0633\u0641"}}, {"type": "node", "id": 432366472, "lat": 32.3196339, "lon": 35.0292377, "tags": {"amenity": "restaurant"}}, {"type": "node", "id": 432368493, "lat": 32.3154747, "lon": 35.0292691, "tags": {"amenity": "restaurant", "name": "Best Prost", "name:ar": "\u0628\u064a\u0633\u062a \u0628\u0631\u0648\u0633\u062a"}}, {"type": "node", "id": 432370375, "lat": 32.4118554, "lon": 35.0652681, "tags": {"amenity": "restaurant", "name": "Al Sultan", "name:ar": "\u0645\u0637\u0639\u0645 \u0627\u0644\u0633\u0644\u0637\u0627\u0646"}}, {"type": "node", "id": 432372714, "lat": 32.3235443, "lon": 35.0292445, "tags": {"amenity": "cafe", "name": "Al Nakhleh", "name:ar": "\u0627\u0633\u062a\u0631\u0627\u062d\u0629 \u0645\u064a\u062c\u0627\u0644\u0627\u0646\u062f"}}, {"type": "node", "id": 432375030, "lat": 32.3091259, "lon": 35.026538, "tags": {"amenity": "restaurant", "name": "Palestine", "name:ar": "\u0645\u0637\u0639\u0645 \u0641\u0644\u0633\u0637\u064a\u0646"}}, {"type": "node", "id": 432375689, "lat": 32.3034172, "lon": 35.0363518, "tags": {"amenity": "restaurant", "name": "Al Sha'b", "name:ar": "\u0645\u0637\u0639\u0645 \u0627\u0644\u0634\u0639\u0628"}}, {"type": "node", "id": 432377513, "lat": 32.3025366, "lon": 35.0300208, "tags": {"amenity": "restaurant", "name": "Al Rozana", "name:ar": "\u0645\u0637\u0639\u0645 \u0627\u0644\u0631\u0648\u0632\u0646\u0627"}}, {"type": "node", "id": 432390397, "lat": 32.4012187, "lon": 35.06747, "tags": {"amenity": "cafe", "name": "\u0627\u0633\u062a\u0631\u0627\u062d\u0629 \u0627\u0644\u0648\u0627\u062f\u064a", "name:ar": "\u0627\u0633\u062a\u0631\u0627\u062d\u0629 \u0627\u0644\u0648\u0627\u062f\u064a", "name:en": "Al Wadi"}}, {"type": "node", "id": 432395697, "lat": 32.3172854, "lon": 35.0323398, "tags": {"amenity": "restaurant", "name": "Al Jmaher", "name:ar": "\u0645\u0637\u0639\u0645 \u0627\u0644\u062c\u0645\u0627\u0647\u064a\u0631"}}, {"type": "node", "id": 432404021, "lat": 32.2779089, "lon": 34.8582731, "tags": {"amenity": "restaurant", "cuisine": "israeli", "name": "Rimonim", "name:en": "Rimonim", "smoking": "no"}}, {"type": "node", "id": 432410392, "lat": 32.3069485, "lon": 35.0283895, "tags": {"addr:housename": "\u0634\u0627\u0631\u0639 \u0641\u0631\u0639\u0648\u0646", "amenity": "cafe", "name": "\u0627\u0644\u0645\u062e\u0628\u0632 \u0627\u0644\u0641\u0631\u0646\u0633\u064a", "note": "\u062a\u0645\u062a \u0627\u0644\u0627\u0636\u0627\u0641\u0629 \u0628\u0648\u0627\u0633\u0637\u0629 \u062f\u0644\u064a\u0644 \u0637\u0648\u0644\u0643\u0631\u0645 \u0627\u0644\u0637\u0628\u064a \u0627\u0644\u0627\u0644\u0643\u062a\u0631\u0648\u0646\u064a"}}, {"type": "node", "id": 432410939, "lat": 32.3191469, "lon": 35.0592403, "tags": {"amenity": "restaurant", "name": "Al Taibat", "name:ar": "\u0645\u0637\u0639\u0645 \u0627\u0644\u0637\u064a\u0628\u0627\u062a"}}, {"type": "node", "id": 432536823, "lat": 32.3091529, "lon": 35.0270329, "tags": {"amenity": "restaurant", "name": "Abu Firas", "name:ar": "\u0645\u0637\u0639\u0645 \u0627\u0628\u0648 \u0641\u0631\u0627\u0633"}}, {"type": "node", "id": 438196748, "lat": 32.2749443, "lon": 34.8630501, "tags": {"amenity": "cafe", "name": "\u05d0\u05e8\u05e7\u05e4\u05d4", "name:en": "Arcaffe", "name:he": "\u05d0\u05e8\u05e7\u05e4\u05d4", "smoking": "no"}}, {"type": "node", "id": 440645930, "lat": 32.2812453, "lon": 34.8614395, "tags": {"amenity": "restaurant", "name": "Rubenstein", "name:en": "Rubenstein"}}, {"type": "node", "id": 440646273, "lat": 32.3293882, "lon": 34.8495402, "tags": {"amenity": "restaurant", "name": "\u05d4\u05d9\u05e7\u05d1 \u05d1\u05e8.\u05de\u05e1\u05e2\u05d3\u05d4", "name:en": "Hayekev Restaurant / Cafe", "name:he": "\u05d4\u05d9\u05e7\u05d1 \u05d1\u05e8.\u05de\u05e1\u05e2\u05d3\u05d4"}}, {"type": "node", "id": 441282373, "lat": 32.3831307, "lon": 34.8675289, "tags": {"amenity": "cafe", "name": "\u05e7\u05e4\u05d4 \u05d2'\u05d5", "name:en": "Cafe Joe", "name:he": "\u05e7\u05e4\u05d4 \u05d2'\u05d5"}}, {"type": "node", "id": 441282382, "lat": 32.3840823, "lon": 34.8668984, "tags": {"amenity": "cafe"}}, {"type": "node", "id": 442117705, "lat": 32.3301453, "lon": 34.8527992, "tags": {"amenity": "restaurant", "diet:kosher": "no", "name": "London", "name:en": "London", "wheelchair": "yes"}}, {"type": "node", "id": 442117713, "lat": 32.3291117, "lon": 34.8499747, "tags": {"amenity": "restaurant", "diet:kosher": "meat", "diet:kosher:certification": "lemehadrin", "name": "Miriam's Grill", "name:en": "Miriam's Grill", "wheelchair": "yes"}}, {"type": "node", "id": 442117715, "lat": 32.3312099, "lon": 34.8499592}, {"type": "node", "id": 442640504, "lat": 32.3272646, "lon": 34.8478007, "tags": {"amenity": "restaurant", "internet_access": "service", "name": "L'etoile de Mer", "name:en": "L'etoile de Mer", "name:fr": "L'etoile de Mer"}}, {"type": "node", "id": 442640590, "lat": 32.3270035, "lon": 34.8472428, "tags": {"amenity": "restaurant", "cuisine": "pizza", "name": "Pizza West Site", "name:en": "Pizza West Site"}}, {"type": "node", "id": 442642615, "lat": 32.326469, "lon": 34.8477096, "tags": {"amenity": "restaurant"}}, {"type": "node", "id": 443072707, "lat": 32.3311318, "lon": 34.8496547}, {"type": "node", "id": 443072708, "lat": 32.3311101, "lon": 34.8499552}, {"type": "node", "id": 443072709, "lat": 32.3313204, "lon": 34.8499637}, {"type": "node", "id": 443072711, "lat": 32.3313567, "lon": 34.8497062}, {"type": "node", "id": 443081779, "lat": 32.179682, "lon": 34.8025576, "tags": {"amenity": "restaurant"}}, {"type": "node", "id": 450183654, "lat": 32.2785103, "lon": 34.860116, "tags": {"amenity": "restaurant", "cuisine": "burger", "name": "Burgus Burger Bar", "name:en": "Burgus Burger Bar", "smoking": "no"}}, {"type": "node", "id": 450188462, "lat": 32.2804747, "lon": 34.8600719, "tags": {"amenity": "restaurant", "smoking": "no"}}, {"type": "node", "id": 450188599, "lat": 32.2832675, "lon": 34.8616161, "tags": {"amenity": "restaurant", "cuisine": "kebab", "name": "\u05d1\u05d9\u05ea \u05e8\u05e6\u05d5\u05df", "name:en": "Beit Ratzon", "name:en1": "Ratzon House", "name:he": "\u05d1\u05d9\u05ea \u05e8\u05e6\u05d5\u05df"}}, {"type": "node", "id": 450189442, "lat": 32.2759974, "lon": 34.8609998, "tags": {"amenity": "cafe"}}, {"type": "node", "id": 450648758, "lat": 32.3253659, "lon": 34.8495868, "tags": {"amenity": "restaurant", "cuisine": "chinese"}}, {"type": "node", "id": 450656587, "lat": 32.3610757, "lon": 34.8659326, "tags": {"amenity": "cafe"}}, {"type": "node", "id": 453337496, "lat": 32.3272377, "lon": 34.8486308, "tags": {"amenity": "restaurant", "note": "cafe, bar, restaurant"}}, {"type": "node", "id": 457041967, "lat": 32.2484888, "lon": 34.8359916, "tags": {"amenity": "cafe", "name": "\u05e7\u05e4\u05d4 \u05d0\u05e8\u05e7\u05e4\u05d4", "name:en": "Arcaffe", "name:he": "\u05e7\u05e4\u05d4"}}, {"type": "node", "id": 487084125, "lat": 32.1596649, "lon": 34.8093486, "tags": {"amenity": "cafe", "check_date": "2024-05-08", "contact:website": "http://www.arcaffe.co.il/", "internet_access": "wlan", "name": "\u05d0\u05e8\u05e7\u05e4\u05d4 \u05d2\u05d1-\u05d9\u05dd", "name:en": "Arcaffe Gav-Yam", "name:he": "\u05d0\u05e8\u05e7\u05e4\u05d4 \u05d2\u05d1-\u05d9\u05dd", "opening_hours": "Mo-Su 07:00-23:00; Fr,Sa 07:00-24:00", "operator": "\u05d0\u05e8\u05e7\u05e4\u05d4", "operator:en": "Arcaffe", "operator:he": "\u05d0\u05e8\u05e7\u05e4\u05d4", "payment:10bis": "yes", "payment:cibus": "yes", "smoking": "separated", "toilets:wheelchair": "yes", "wheelchair": "yes"}}, {"type": "node", "id": 487084216, "lat": 32.1588105, "lon": 34.8088352, "tags": {"amenity": "restaurant", "name": "\u05d8\u05e4\u05d0\u05d5", "name:en": "Tapeo", "name:he": "\u05d8\u05e4\u05d0\u05d5", "survey:date": "2022-03-16"}}, {"type": "node", "id": 552266627, "lat": 32.3211233, "lon": 34.8675511, "tags": {"amenity": "cafe", "cuisine": "coffee_shop", "name": "\u05e7\u05e4\u05d4 \u05e7\u05e4\u05d4", "name:en": "Cafe Cafe", "name:he": "\u05e7\u05e4\u05d4 \u05e7\u05e4\u05d4"}}, {"type": "node", "id": 555018282, "lat": 32.2811444, "lon": 34.8626508, "tags": {"amenity": "restaurant", "contact:website": "http://www.blackbarburger.co.il", "cuisine": "burger", "name": "Black Bar 'n' Burger", "name:en": "Black Bar 'n' Burger", "operator": "Black", "smoking": "no"}}, {"type": "node", "id": 555085202, "lat": 32.2776643, "lon": 34.8603568, "tags": {"amenity": "restaurant", "cuisine": "japanese", "name": "Japanica", "name:en": "Japanica"}}, {"type": "node", "id": 555085204, "lat": 32.2785055, "lon": 34.8612831, "tags": {"addr:housenumber": "7", "addr:street": "\u05e9\u05d3\u05e8\u05d5\u05ea \u05d2\u05d9\u05d1\u05d5\u05e8\u05d9 \u05d9\u05e9\u05e8\u05d0\u05dc", "amenity": "restaurant", "cuisine": "fish_and_chips", "name": "\u05d2'\u05e7\u05d5", "name:en": "Jacko", "name:he": "\u05d2'\u05e7\u05d5", "phone": "+97298652878"}}, {"type": "node", "id": 559167792, "lat": 32.3278605, "lon": 34.8548162, "tags": {"amenity": "cafe", "name": "Caf\u00e9 Soda", "name:en": "Cafe Soda"}}, {"type": "node", "id": 559167794, "lat": 32.3280055, "lon": 34.8546617, "tags": {"amenity": "cafe"}}, {"type": "node", "id": 559172825, "lat": 32.3290335, "lon": 34.8547706, "tags": {"amenity": "cafe", "name": "\u05d1\u05e8\u05d3\u05d5", "name:en": "Bredo", "name:he": "\u05d1\u05e8\u05d3\u05d5"}}, {"type": "node", "id": 559178987, "lat": 32.3295866, "lon": 34.8538033, "tags": {"amenity": "restaurant", "cuisine": "chinese", "diet:kosher": "no", "name": "Chung Shing", "name:en": "Chung Shing"}}, {"type": "node", "id": 559180964, "lat": 32.3295575, "lon": 34.8539751, "tags": {"amenity": "restaurant", "cuisine": "pizza", "diet:kosher": "no", "name": "Casa Mia Pizza", "name:en": "Casa Mia Pizza"}}, {"type": "node", "id": 559204087, "lat": 32.3300074, "lon": 34.8533226, "tags": {"addr:housenumber": "5", "addr:street": "\u05d4\u05e8\u05e6\u05dc", "amenity": "cafe", "cuisine": "ice_cream", "diet:kosher": "dairy", "name": "Tony Ice", "name:en": "Tony Ice", "opening_hours": "Su-Th 09:00-22:00, Fr 09:00-15:00"}}, {"type": "node", "id": 559658798, "lat": 32.3303264, "lon": 34.8529422, "tags": {"amenity": "restaurant", "cuisine": "Grill & Fish", "diet:kosher": "no", "name": "\u05e4\u05d5\u05e0\u05d3\u05e7 \u05d4\u05d9\u05dd", "name:en": "Pundak Hayam", "name:he": "\u05e4\u05d5\u05e0\u05d3\u05e7 \u05d4\u05d9\u05dd"}}, {"type": "node", "id": 559663656, "lat": 32.3304083, "lon": 34.8521446, "tags": {"amenity": "cafe", "name": "\u05e7\u05e4\u05d4 \u05d8\u05dc\u05e2\u05d3", "name:en": "Cafe Telad", "name:he": "\u05e7\u05e4\u05d4 \u05d8\u05dc\u05e2\u05d3"}}, {"type": "node", "id": 559664662, "lat": 32.3298912, "lon": 34.8514144, "tags": {"amenity": "restaurant", "name": "Le Bistro", "name:en": "Le Bistro"}}, {"type": "node", "id": 559665539, "lat": 32.3301305, "lon": 34.8517577, "tags": {"amenity": "restaurant", "wheelchair": "yes"}}, {"type": "node", "id": 559999808, "lat": 32.3613797, "lon": 34.867978, "tags": {"amenity": "cafe"}}, {"type": "node", "id": 569663797, "lat": 32.2801293, "lon": 34.8624999, "tags": {"amenity": "restaurant", "name": "Poleg", "name:en": "Poleg"}}, {"type": "node", "id": 576962051, "lat": 32.1594395, "lon": 34.8092278, "tags": {"addr:housenumber": "7", "addr:street": "\u05d0\u05e8\u05d9\u05d4 \u05e9\u05e0\u05e7\u05e8", "amenity": "restaurant", "check_date": "2024-05-08", "contact:phone": "+97299577077", "contact:website": "http://www.zozobra.co.il", "internet_access": "wlan", "name": "\u05d6\u05d5\u05d6\u05d5\u05d1\u05e8\u05d4 \u05d4\u05e8\u05e6\u05dc\u05d9\u05d4", "name:en": "Zozobra Herzliya", "name:he": "\u05d6\u05d5\u05d6\u05d5\u05d1\u05e8\u05d4 \u05d4\u05e8\u05e6\u05dc\u05d9\u05d4", "opening_hours": "Mo-Su 12:00-24:00", "operator": "\u05d6\u05d5\u05d6\u05d5\u05d1\u05e8\u05d4", "operator:en": "Zozobra", "operator:he": "\u05d6\u05d5\u05d6\u05d5\u05d1\u05e8\u05d4", "payment:10bis": "yes", "payment:cibus": "yes", "smoking": "no"}}, {"type": "node", "id": 673375105, "lat": 32.1621371, "lon": 34.8094389, "tags": {"addr:housenumber": "32", "addr:street": "\u05de\u05e9\u05db\u05d9\u05ea", "amenity": "cafe", "brand": "Arcaffe", "brand:en": "Arcaffe", "brand:he": "\u05d0\u05e8\u05e7\u05e4\u05d4", "brand:wikidata": "Q2897147", "construction": "cafe", "cuisine": "coffee_shop", "name": "Arcaffe", "name:en": "Arcaffe", "name:he": "\u05d0\u05e8\u05e7\u05e4\u05d4", "operator:en": "Arcaffe", "operator:he": "\u05d0\u05e8\u05e7\u05e4\u05d4", "payment:10bis": "yes", "payment:cibus": "yes", "survey:date": "2021-12-02", "takeaway": "yes"}}, {"type": "node", "id": 696738484, "lat": 32.2801086, "lon": 34.8542543, "tags": {"addr:city": "\u05e0\u05ea\u05e0\u05d9\u05d4", "addr:housenumber": "12", "addr:street": "\u05e8\u05d5\u05d8\u05e0\u05d1\u05e8\u05d2", "amenity": "restaurant", "cuisine": "italian;pizza", "name": "\u05e8\u05e4\u05d0\u05dc", "name:en": "Rafael", "name:he": "\u05e8\u05e4\u05d0\u05dc", "takeaway": "yes"}}, {"type": "node", "id": 697011437, "lat": 32.2832733, "lon": 34.8530436, "tags": {"addr:city": "\u05e0\u05ea\u05e0\u05d9\u05d4", "addr:housenumber": "7", "addr:street": "\u05d5\u05d9\u05d9\u05e1\u05dc\u05d1\u05e8\u05d2\u05e8 \u05d8\u05d9\u05d5\u05d3\u05d5\u05e8", "amenity": "cafe", "bar": "no", "cuisine": "coffee_shop;regional;moroccan_cuisine", "name": "\u05e2\u05d5\u05d2\u05d9\u05d5\u05ea \u05de\u05e8\u05d5\u05e7\u05d0\u05d9\u05d5\u05ea", "name:he": "\u05e2\u05d5\u05d2\u05d9\u05d5\u05ea \u05de\u05e8\u05d5\u05e7\u05d0\u05d9\u05d5\u05ea", "outdoor_seating": "yes", "website": "https://www.mcookie.co.il/"}}, {"type": "node", "id": 703514901, "lat": 32.1633653, "lon": 34.8106362, "tags": {"addr:housenumber": "27", "addr:street": "\u05de\u05e9\u05db\u05d9\u05ea", "amenity": "restaurant", "name": "\u05d0\u05d1\u05d5 \u05d7\u05d0\u05e1\u05df", "name:en": "Abu Hassan", "name:he": "\u05d0\u05d1\u05d5 \u05d7\u05d0\u05e1\u05df", "payment:10bis": "yes", "payment:cibus": "yes"}}, {"type": "node", "id": 739100233, "lat": 32.1802133, "lon": 34.8193037, "tags": {"amenity": "restaurant"}}, {"type": "node", "id": 767403663, "lat": 32.1717121, "lon": 34.9284592, "tags": {"amenity": "cafe", "brand": "Arcaffe", "brand:en": "Arcaffe", "brand:he": "\u05d0\u05e8\u05e7\u05e4\u05d4", "brand:wikidata": "Q2897147", "cuisine": "coffee_shop", "name": "Arcaffe", "name:en": "Arcaffe", "name:he": "\u05d0\u05e8\u05e7\u05e4\u05d4", "takeaway": "yes"}}, {"type": "node", "id": 767403708, "lat": 32.1707381, "lon": 34.9280059, "tags": {"amenity": "cafe", "brand": "\u05d0\u05e8\u05d5\u05de\u05d4", "brand:en": "Aroma Espresso Bar", "brand:he": "\u05d0\u05e8\u05d5\u05de\u05d4", "brand:wikidata": "Q2909872", "brand:wikipedia": "en:Aroma Espresso Bar", "cuisine": "coffee_shop", "internet_access": "yes", "name": "\u05d0\u05e8\u05d5\u05de\u05d4", "name:en": "Aroma Espresso Bar", "name:en1": "Aroma Espresso Bar", "name:he": "\u05d0\u05e8\u05d5\u05de\u05d4", "takeaway": "yes"}}, {"type": "node", "id": 824064652, "lat": 32.329071, "lon": 34.8571658, "tags": {"amenity": "cafe", "diet:kosher": "dairy", "name": "King", "name:en": "King"}}, {"type": "node", "id": 824066783, "lat": 32.3305249, "lon": 34.8591459, "tags": {"amenity": "cafe", "name": "\u05d4\u05e6'\u05e4\u05d5\u05e8\u05d9", "name:he": "\u05d4\u05e6'\u05e4\u05d5\u05e8\u05d9"}}, {"type": "node", "id": 824066785, "lat": 32.3308168, "lon": 34.8564412, "tags": {"amenity": "cafe"}}, {"type": "node", "id": 847875802, "lat": 32.1608332, "lon": 34.89395, "tags": {"amenity": "cafe", "brand": "\u05e7\u05e4\u05d4 \u05dc\u05e0\u05d3\u05d5\u05d5\u05e8", "brand:en": "Landwer Coffee", "brand:he": "\u05e7\u05e4\u05d4 \u05dc\u05e0\u05d3\u05d5\u05d5\u05e8", "brand:wikidata": "Q6485288", "cuisine": "coffee_shop", "name": "\u05dc\u05e0\u05d3\u05d5\u05d5\u05e8", "name:en": "Landwer", "name:he": "\u05dc\u05e0\u05d3\u05d5\u05d5\u05e8", "takeaway": "yes"}}, {"type": "node", "id": 872045636, "lat": 32.4983973, "lon": 35.0644947, "tags": {"addr:city": "\u0643\u0641\u0631 \u0642\u0631\u0639", "amenity": "cafe", "name": "\u0623\u0631\u0648\u0645\u0627", "name:ar": "\u0623\u0631\u0648\u0645\u0627", "name:en": "Aroma", "name:he": "\u05d0\u05e8\u05d5\u05de\u05d4"}}, {"type": "node", "id": 874209820, "lat": 32.3278476, "lon": 34.856894, "tags": {"amenity": "cafe", "cuisine": "coffee_shop"}}, {"type": "node", "id": 888061551, "lat": 32.2850045, "lon": 34.8523856, "tags": {"addr:city": "\u05e0\u05ea\u05e0\u05d9\u05d4", "addr:housenumber": "24", "addr:street": "\u05e7\u05e6\u05e0\u05dc\u05e1\u05d5\u05df \u05d9\u05e6\u05d7\u05e7", "amenity": "restaurant", "name": "\u05e9\u05e0\u05d9\u05e6\u05dc \u05db\u05d5\u05e9\u05d9", "name:he": "\u05e9\u05e0\u05d9\u05e6\u05dc \u05db\u05d5\u05e9\u05d9", "wheelchair": "yes"}}, {"type": "node", "id": 889068637, "lat": 32.1622146, "lon": 34.796554, "tags": {"amenity": "restaurant", "cuisine": "fish", "name": "\u05d3\u05e8\u05d1\u05d9 \u05d1\u05e8 \u05d3\u05d2\u05d9\u05dd", "name:en": "Derby fish bar", "name:he": "\u05d3\u05e8\u05d1\u05d9 \u05d1\u05e8 \u05d3\u05d2\u05d9\u05dd", "phone": "+972-9-9511818", "website": "https://www.derbybar.co.il/"}}, {"type": "node", "id": 889810577, "lat": 32.1637222, "lon": 34.7962143, "tags": {"amenity": "restaurant", "contact:website": "http://www.papagaio.co.il/", "cuisine": "burger", "diet:kosher": "yes", "name": "\u05e4\u05d0\u05e4\u05d0\u05d2\u05d0\u05d9\u05d5", "name:en": "Papagaio", "name:he": "\u05e4\u05d0\u05e4\u05d0\u05d2\u05d0\u05d9\u05d5", "opening_hours": "Mo-Su 12:00+;Fr 12:00-16:30;Sa off", "operator": "\u05e4\u05d0\u05e4\u05d0\u05d2\u05d0\u05d9\u05d5", "operator:en": "Papagaio", "operator:he": "\u05e4\u05d0\u05e4\u05d0\u05d2\u05d0\u05d9\u05d5"}}, {"type": "node", "id": 889973703, "lat": 32.3022252, "lon": 34.8414874, "tags": {"amenity": "cafe"}}, {"type": "node", "id": 899484986, "lat": 32.3383132, "lon": 34.8513615, "tags": {"amenity": "restaurant", "name": "\u05d7\u05d5\u05e3 \u05ea\u05de\u05e0\u05d5\u05df", "name:en": "Tamnun beach", "name:he": "\u05d7\u05d5\u05e3 \u05ea\u05de\u05e0\u05d5\u05df", "name:ru": "\u0422\u0430\u043c\u043d\u0443\u043d", "opening_hours": "24/7"}}, {"type": "node", "id": 941372470, "lat": 32.202579, "lon": 34.8248949, "tags": {"addr:housenumber": "12", "addr:street": "\u05d4\u05e4\u05e8\u05d7\u05d9\u05dd", "amenity": "cafe", "name": "\u05d2\u05d5\u05e4\u05e8\u05de\u05df", "name:en": "Goferman", "name:he": "\u05d2\u05d5\u05e4\u05e8\u05de\u05df"}}, {"type": "node", "id": 1012306413, "lat": 32.2200666, "lon": 34.9826051, "tags": {"amenity": "cafe", "name": "\u05d0\u05e8\u05d5\u05de\u05d4", "name:en": "Aroma", "name:he": "\u05d0\u05e8\u05d5\u05de\u05d4"}}, {"type": "node", "id": 1083484148, "lat": 32.4406051, "lon": 34.9115011, "tags": {"amenity": "restaurant", "name": "\u05e1\u05de\u05d9 \u05d1\u05db\u05d9\u05db\u05e8", "name:en": "Sami BaKikar", "name:he": "\u05e1\u05de\u05d9 \u05d1\u05db\u05d9\u05db\u05e8"}}, {"type": "node", "id": 1113039011, "lat": 32.5024101, "lon": 34.8913278, "tags": {"amenity": "restaurant", "name": "\u05d4\u05e6\u05dc\u05d1\u05e0\u05d9\u05dd", "name:en": "Crusaders", "name:he": "\u05d4\u05e6\u05dc\u05d1\u05e0\u05d9\u05dd"}}, {"type": "node", "id": 1113039048, "lat": 32.5019306, "lon": 34.8917355, "tags": {"amenity": "restaurant", "name": "Aresto", "name:en": "Aresto"}}, {"type": "node", "id": 1113039302, "lat": 32.5017185, "lon": 34.890622, "tags": {"amenity": "restaurant", "name": "\u05d4\u05dc\u05e0\u05d4", "name:en": "Helena", "name:he": "\u05d4\u05dc\u05e0\u05d4"}}, {"type": "node", "id": 1113039312, "lat": 32.5018243, "lon": 34.8909579, "tags": {"amenity": "restaurant", "name": "Port", "name:en": "Port"}}, {"type": "node", "id": 1167743806, "lat": 32.1574496, "lon": 34.8100457, "tags": {"amenity": "restaurant", "cuisine": "pancakes;diner;american", "name": "\u05d1\u05d9\u05ea \u05d4\u05e4\u05e0\u05e7\u05d9\u05d9\u05e7 \u05d4\u05de\u05e7\u05d5\u05e8\u05d9", "name:en": "Original Pancake House", "name:he": "\u05d1\u05d9\u05ea \u05d4\u05e4\u05e0\u05e7\u05d9\u05d9\u05e7 \u05d4\u05de\u05e7\u05d5\u05e8\u05d9", "opening_hours": "24/7", "website": "https://pancake.co.il"}}, {"type": "node", "id": 1170430772, "lat": 32.1617757, "lon": 34.8081374, "tags": {"addr:housenumber": "12", "addr:street": "\u05e9\u05d3\u05e8\u05d5\u05ea \u05d0\u05d1\u05d0 \u05d0\u05d1\u05df", "amenity": "restaurant", "contact:fax": "+97299503443", "contact:phone": "+97299503444", "contact:website": "http://www.gutefood.com/", "diet:vegetarian": "yes", "name": "\u05d2\u05d5\u05d8\u05d4 \u05d1\u05e8\u05d9\u05d0 \u05d5\u05de\u05d4\u05d9\u05e8", "name:en": "Gute", "name:he": "\u05d2\u05d5\u05d8\u05d4 \u05d1\u05e8\u05d9\u05d0 \u05d5\u05de\u05d4\u05d9\u05e8", "opening_hours": "Mo-Su 12:00-16:00; Fr off; Sa off", "payment:10bis": "yes", "payment:cibus": "yes"}}, {"type": "node", "id": 1193560562, "lat": 32.3803833, "lon": 35.0178384, "tags": {"amenity": "cafe"}}, {"type": "node", "id": 1193560565, "lat": 32.3814796, "lon": 35.0173449, "tags": {"amenity": "cafe"}}, {"type": "node", "id": 1201435242, "lat": 32.1609723, "lon": 34.806075, "tags": {"addr:housenumber": "10", "addr:street": "\u05d4\u05e1\u05d3\u05e0\u05d0\u05d5\u05ea", "amenity": "restaurant", "name": "Japanika", "name:en": "Japanika", "name:he": "\u05d2'\u05e4\u05e0\u05d9\u05e7\u05d4", "name:he1": "\u05d2\u05e4\u05e0\u05d9\u05e7\u05d4", "payment:10bis": "yes", "payment:cibus": "yes"}}, {"type": "node", "id": 1203107318, "lat": 32.1619011, "lon": 34.8097018, "tags": {"amenity": "cafe", "brand": "\u05e8\u05d5\u05dc\u05d3\u05d9\u05df", "brand:en": "Roladin", "brand:he": "\u05e8\u05d5\u05dc\u05d3\u05d9\u05df", "brand:wikidata": "Q18390972", "brand:wikipedia": "he:\u05e8\u05d5\u05dc\u05d3\u05d9\u05df", "cuisine": "coffee_shop", "name": "\u05e8\u05d5\u05dc\u05d3\u05d9\u05df", "name:en": "Roladin", "name:he": "\u05e8\u05d5\u05dc\u05d3\u05d9\u05df", "takeaway": "yes"}}, {"type": "node", "id": 1213162833, "lat": 32.1621621, "lon": 34.8067893, "tags": {"addr:housenumber": "4", "addr:street": "\u05d4\u05e1\u05d3\u05e0\u05d0\u05d5\u05ea", "amenity": "restaurant", "name": "Meat bar", "name:en": "Meat bar", "payment:10bis": "yes", "payment:cibus": "yes"}}, {"type": "node", "id": 1213663001, "lat": 32.322336, "lon": 34.848642, "tags": {"amenity": "restaurant", "cuisine": "chinese", "name": "Taipei", "name:en": "Taipei"}}, {"type": "node", "id": 1225956208, "lat": 32.1665208, "lon": 34.810098, "tags": {"amenity": "cafe", "cuisine": "coffee_shop", "name:he": "\u05d0\u05ea\u05e0\u05d7\u05ea\u05d0"}}, {"type": "node", "id": 1234353806, "lat": 32.1593638, "lon": 34.89413, "tags": {"amenity": "cafe", "cuisine": "coffee_shop", "name": "\u05e7\u05e4\u05d4\u05e0\u05d8\u05d5", "name:en": "Cafeneto", "name:he": "\u05e7\u05e4\u05d4\u05e0\u05d8\u05d5", "toilets:wheelchair": "yes", "wheelchair": "yes"}}, {"type": "node", "id": 1289120453, "lat": 32.1805219, "lon": 34.8115327, "tags": {"amenity": "restaurant", "name": "\u05d8\u05d1\u05d5\u05dc\u05d4", "name:en": "Tavola", "name:he": "\u05d8\u05d1\u05d5\u05dc\u05d4"}}, {"type": "node", "id": 1289513009, "lat": 32.3427129, "lon": 34.8909162, "tags": {"amenity": "restaurant", "diet:vegan": "yes", "diet:vegetarian": "yes", "name": "Turkise", "name:en": "Turkise", "opening_hours": "Su-Th 09:00-22:00; Fr 09:00-15:00"}}, {"type": "node", "id": 1305560935, "lat": 32.1795799, "lon": 34.8781253, "tags": {"amenity": "restaurant", "cuisine": "regional", "name": "\u05db\u05d9\u05e4\u05d4 \u05d0\u05d3\u05d5\u05de\u05d4", "name:en": "Kipa Aduma", "name:en1": "Red Hood", "name:he": "\u05db\u05d9\u05e4\u05d4 \u05d0\u05d3\u05d5\u05de\u05d4", "wheelchair": "yes"}}, {"type": "node", "id": 1305565152, "lat": 32.1878076, "lon": 34.8472073, "tags": {"amenity": "restaurant", "name": "\u05e7\u05e4\u05d4 \u05de\u05e0\u05d3\u05e8\u05d9\u05df", "name:en": "Mandarin", "name:he": "\u05e7\u05e4\u05d4 \u05de\u05e0\u05d3\u05e8\u05d9\u05df"}}, {"type": "node", "id": 1305814841, "lat": 32.1623794, "lon": 34.8073371, "tags": {"addr:housenumber": "1", "addr:street": "\u05d4\u05e1\u05d3\u05e0\u05d0\u05d5\u05ea", "amenity": "cafe", "cuisine": "ice_cream", "internet_access": "wlan", "internet_access:fee": "no", "name": "\u05d9\u05d5\u05d2\u05d5\u05e8\u05d8 \u05e4\u05dc\u05d5\u05e1", "name:en": "Yogurt Plus", "name:he": "\u05d9\u05d5\u05d2\u05d5\u05e8\u05d8 \u05e4\u05dc\u05d5\u05e1"}}, {"type": "node", "id": 1307944859, "lat": 32.3313015, "lon": 34.8513197, "tags": {"addr:housenumber": "4", "addr:street": "\u05d3\u05d5\u05d3 \u05d4\u05de\u05dc\u05da", "amenity": "cafe", "cuisine": "international;pizza", "name": "Rhythm", "name:en": "Rhythm"}}, {"type": "node", "id": 1312335769, "lat": 32.3581366, "lon": 34.9079307, "tags": {"amenity": "restaurant", "brand": "Moses", "brand:en": "Moses", "brand:he": "\u05de\u05d5\u05d6\u05e1", "brand:wikidata": "Q64760150", "cuisine": "burger", "name": "Moses", "name:en": "Moses", "name:he": "\u05de\u05d5\u05d6\u05e1"}}, {"type": "node", "id": 1314880165, "lat": 32.273173, "lon": 34.833805, "tags": {"amenity": "restaurant", "name": "Bamboo Village", "name:en": "Bamboo Village", "wheelchair": "limited"}}, {"type": "node", "id": 1334312820, "lat": 32.1895042, "lon": 34.8546684, "tags": {"amenity": "restaurant", "cuisine": "kebab", "name": "\u05d4\u05d1\u05d9\u05ea \u05e9\u05dc \u05e9\u05e8\u05d4 \u05d5\u05d9\u05e4\u05ea", "name:en": "Sara & Yefet", "name:he": "\u05d4\u05d1\u05d9\u05ea \u05e9\u05dc \u05e9\u05e8\u05d4 \u05d5\u05d9\u05e4\u05ea"}}, {"type": "node", "id": 1336725672, "lat": 32.1817216, "lon": 34.8702065, "tags": {"amenity": "cafe", "name": "Holy Bagel", "name:en": "Holy Bagel"}}, {"type": "node", "id": 1336725674, "lat": 32.1809355, "lon": 34.8733569, "tags": {"amenity": "restaurant", "cuisine": "burger", "name": "\u05d4\u05d8\u05d0\u05d1\u05d5\u05df \u05d5\u05d4\u05de\u05e0\u05d2\u05dc", "name:en": "Ha'Tabun ve Ha'Mangal", "name:he": "\u05d4\u05d8\u05d0\u05d1\u05d5\u05df \u05d5\u05d4\u05de\u05e0\u05d2\u05dc"}}, {"type": "node", "id": 1348430842, "lat": 32.1730207, "lon": 34.8019346, "tags": {"amenity": "cafe", "name": "\u05d1\u05e0\u05d3\u05d9\u05e7\u05d8", "name:en": "Benedict", "name:he": "\u05d1\u05e0\u05d3\u05d9\u05e7\u05d8", "opening_hours": "24/7", "operator": "\u05d1\u05e0\u05d3\u05d9\u05e7\u05d8", "operator:en": "Benedict", "operator:he": "\u05d1\u05e0\u05d3\u05d9\u05e7\u05d8"}}, {"type": "node", "id": 1350040084, "lat": 32.1853951, "lon": 34.8544977, "tags": {"addr:city": "\u05e8\u05e2\u05e0\u05e0\u05d4", "addr:housenumber": "34", "addr:street": "\u05d9\u05e8\u05d5\u05e9\u05dc\u05d9\u05dd", "amenity": "cafe", "cuisine": "coffee_shop", "internet_access": "yes", "internet_access:fee": "no", "name": "\u05d0\u05e8\u05e7\u05e4\u05d4", "name:en": "Arcaffe", "name:he": "\u05d0\u05e8\u05e7\u05e4\u05d4", "opening_hours": "Mo-Su", "operator": "\u05d0\u05e8\u05e7\u05e4\u05d4", "operator:en": "Arcaff\u00e8; Arcaffe", "operator:he": "\u05d0\u05e8\u05e7\u05e4\u05d4", "outdoor_seating": "yes", "smoking": "outside", "website": "https://www.arcaffe.co.il/"}}, {"type": "node", "id": 1388873896, "lat": 32.1807855, "lon": 34.8722327, "tags": {"amenity": "cafe", "cuisine": "coffee_shop", "name": "\u05d0\u05d9\u05dc\u05df'\u05e1", "name:en": "Ilan's", "name:he": "\u05d0\u05d9\u05dc\u05df'\u05e1", "operator": "\u05d0\u05d9\u05dc\u05df'\u05e1", "operator:en": "Ilan's", "operator:he": "\u05d0\u05d9\u05dc\u05df'\u05e1"}}, {"type": "node", "id": 1400650458, "lat": 32.1797763, "lon": 34.877391, "tags": {"amenity": "restaurant", "cuisine": "sushi", "name": "\u05d2'\u05e4\u05e0\u05d9\u05e7\u05d4", "name:en": "Japanika", "name:he": "\u05d2'\u05e4\u05e0\u05d9\u05e7\u05d4", "operator": "\u05d2'\u05e4\u05e0\u05d9\u05e7\u05d4", "operator:en": "Japanika", "operator:he": "\u05d2'\u05e4\u05e0\u05d9\u05e7\u05d4"}}, {"type": "node", "id": 1400661142, "lat": 32.1809325, "lon": 34.8968858, "tags": {"amenity": "cafe", "brand": "\u05d0\u05e8\u05d5\u05de\u05d4", "brand:en": "Aroma Espresso Bar", "brand:he": "\u05d0\u05e8\u05d5\u05de\u05d4", "brand:wikidata": "Q2909872", "brand:wikipedia": "en:Aroma Espresso Bar", "cuisine": "coffee_shop", "name": "\u05d0\u05e8\u05d5\u05de\u05d4", "name:en": "Aroma", "name:en1": "Aroma Espresso Bar", "name:he": "\u05d0\u05e8\u05d5\u05de\u05d4", "operator": "\u05d0\u05e8\u05d5\u05de\u05d4", "operator:en": "Aroma", "operator:he": "\u05d0\u05e8\u05d5\u05de\u05d4", "outdoor_seating": "yes", "takeaway": "yes"}}, {"type": "node", "id": 1407036344, "lat": 32.162304, "lon": 34.8095463, "tags": {"amenity": "cafe", "contact:phone": "+972774301880", "contact:website": "http://www.elis.co.il", "internet_access": "wlan", "name": "\u05d0\u05dc\u05d9\u05e1 \u05d4\u05e8\u05e6\u05dc\u05d9\u05d4", "name:en": "Elis Herzliya", "name:he": "\u05d0\u05dc\u05d9\u05e1 \u05d4\u05e8\u05e6\u05dc\u05d9\u05d4", "opening_hours": "Mo-Su 06:30-21:00; Fr 06:30-15:00; Sa off", "payment:10bis": "yes", "payment:cibus": "yes", "shop": "bakery"}}, {"type": "node", "id": 1449481255, "lat": 32.1614405, "lon": 34.8427505, "tags": {"addr:city": "\u05d4\u05e8\u05e6\u05dc\u05d9\u05d4", "addr:housenumber": "33", "addr:street": "\u05d1\u05df \u05d2\u05d5\u05e8\u05d9\u05d5\u05df", "amenity": "restaurant", "cuisine": "chinese", "name": "\u05e6\u05f3\u05d9\u05d9\u05e0\u05d4 \u05e7\u05dc\u05d0\u05e1", "name:en": "China Class", "name:he": "\u05e6\u05f3\u05d9\u05d9\u05e0\u05d4 \u05e7\u05dc\u05d0\u05e1", "website": "https://chinaclass.co.il"}}, {"type": "node", "id": 1453684706, "lat": 32.1633818, "lon": 34.8107238, "tags": {"amenity": "restaurant", "name": "\u05e6\u05d9\u05de\u05e2\u05e1", "name:he": "\u05e6\u05d9\u05de\u05e2\u05e1", "payment:10bis": "yes", "payment:cibus": "yes"}}, {"type": "node", "id": 1454007132, "lat": 32.1725003, "lon": 34.8722185}, {"type": "node", "id": 1454007133, "lat": 32.1724438, "lon": 34.8714702}, {"type": "node", "id": 1454007134, "lat": 32.1729687, "lon": 34.8715661}, {"type": "node", "id": 1454007135, "lat": 32.1729005, "lon": 34.8722876}, {"type": "node", "id": 1455237461, "lat": 32.2833729, "lon": 34.8614955, "tags": {"addr:city": "\u05e0\u05ea\u05e0\u05d9\u05d4", "addr:street": "\u05e9\u05d3\u05e8\u05d5\u05ea \u05d2\u05d9\u05d1\u05d5\u05e8\u05d9 \u05d9\u05e9\u05e8\u05d0\u05dc", "amenity": "restaurant", "cuisine": "burger", "name": "Beerloga", "name:en": "Beerloga", "phone": "09-743-1411"}}, {"type": "node", "id": 1461950305, "lat": 32.1622946, "lon": 34.8104316, "tags": {"amenity": "restaurant", "name": "Sebastian", "name:en": "Sebastian", "payment:10bis": "yes", "payment:cibus": "yes"}}, {"type": "node", "id": 1473295698, "lat": 32.1679893, "lon": 34.8002544, "tags": {"amenity": "cafe", "brand": "\u05e7\u05e4\u05d4 \u05e7\u05e4\u05d4", "brand:en": "Cafe Cafe", "brand:he": "\u05e7\u05e4\u05d4 \u05e7\u05e4\u05d4", "brand:wikidata": "Q5017233", "brand:wikipedia": "he:\u05e7\u05e4\u05d4 \u05e7\u05e4\u05d4", "cuisine": "coffee_shop", "name": "\u05e7\u05e4\u05d4 \u05e7\u05e4\u05d4", "name:en": "Cafe Cafe", "name:he": "\u05e7\u05e4\u05d4 \u05e7\u05e4\u05d4", "takeaway": "yes"}}, {"type": "node", "id": 1495185038, "lat": 32.1798436, "lon": 34.8185882, "tags": {"amenity": "cafe", "name": "\u05e7\u05e4\u05d4\u05e7\u05e4\u05d4", "name:en": "Cafe Cafe", "name:en1": "Caf\u00e9Caf\u00e9", "name:he": "\u05e7\u05e4\u05d4\u05e7\u05e4\u05d4", "operator": "\u05e7\u05e4\u05d4\u05e7\u05e4\u05d4", "operator:he": "\u05e7\u05e4\u05d4\u05e7\u05e4\u05d4"}}, {"type": "node", "id": 1519116940, "lat": 32.3652866, "lon": 34.873145}, {"type": "node", "id": 1519116949, "lat": 32.3655184, "lon": 34.872645}, {"type": "node", "id": 1519116953, "lat": 32.3657172, "lon": 34.8726744}, {"type": "node", "id": 1519116957, "lat": 32.3658083, "lon": 34.8732136}, {"type": "node", "id": 1523060238, "lat": 32.3929379, "lon": 34.915095}, {"type": "node", "id": 1523060242, "lat": 32.3930405, "lon": 34.9154042}, {"type": "node", "id": 1523060243, "lat": 32.393199, "lon": 34.9148521}, {"type": "node", "id": 1523060245, "lat": 32.3933482, "lon": 34.9151392}, {"type": "node", "id": 1523918838, "lat": 32.1561124, "lon": 34.8080436, "tags": {"amenity": "restaurant", "cuisine": "regional", "name": "\u05d0\u05d7\u05de\u05d3 \u05d0\u05ea \u05e1\u05dc\u05d9\u05dd", "name:en": "Ahmad at Salim", "name:he": "\u05d0\u05d7\u05de\u05d3 \u05d0\u05ea \u05e1\u05dc\u05d9\u05dd"}}, {"type": "node", "id": 1528879606, "lat": 32.281227, "lon": 34.8617756, "tags": {"amenity": "cafe", "internet_access": "yes", "name": "\u05d0\u05e8\u05d5\u05de\u05d4", "name:en": "Aroma", "name:he": "\u05d0\u05e8\u05d5\u05de\u05d4"}}, {"type": "node", "id": 1554786153, "lat": 32.3522144, "lon": 35.0159459, "tags": {"amenity": "cafe"}}, {"type": "node", "id": 1583601333, "lat": 32.1589166, "lon": 34.8088984, "tags": {"addr:housenumber": "9", "addr:street": "\u05d0\u05e8\u05d9\u05d4 \u05e9\u05e0\u05e7\u05e8", "amenity": "restaurant", "cuisine": "italian", "internet_access": "wlan", "name": "Nova joya", "name:en": "Nova joya", "operator": "Joya", "payment:10bis": "yes", "payment:cibus": "yes", "survey:date": "2022-03-16", "website": "https://joya.co.il/"}}, {"type": "node", "id": 1631199303, "lat": 32.1623556, "lon": 34.8095794, "tags": {"amenity": "restaurant", "cuisine": "indian", "name": "\u05d8\u05e0\u05d3\u05d5\u05e8\u05d9", "name:en": "Tandoori", "name:he": "\u05d8\u05e0\u05d3\u05d5\u05e8\u05d9", "payment:10bis": "yes", "payment:cibus": "yes"}}, {"type": "node", "id": 1643352285, "lat": 32.3320626, "lon": 34.8509781, "tags": {"amenity": "restaurant", "cuisine": "moroccan", "diet:kosher": "yes", "name": "\u05de\u05e8\u05e7\u05e9", "name:en": "Marakesh", "name:he": "\u05de\u05e8\u05e7\u05e9"}}, {"type": "node", "id": 1674327306, "lat": 32.1616833, "lon": 34.8081159, "tags": {"amenity": "restaurant", "name": "Poke bowl", "name:en": "Urban Food Co", "survey:date": "2021-12-02"}}, {"type": "node", "id": 1683133897, "lat": 32.1598333, "lon": 34.8071106, "tags": {"addr:housenumber": "8", "addr:street": "\u05d4\u05de\u05e0\u05d5\u05e4\u05d9\u05dd", "amenity": "restaurant", "contact:email": "contact@minato.co.il", "contact:phone": "+97297731703", "contact:website": "www.minato.co.il", "cuisine": "sushi", "name": "\u05de\u05d9\u05e0\u05d0\u05d8\u05d5 \u05d4\u05e8\u05e6\u05dc\u05d9\u05d4", "name:en": "Minato Herzliya", "name:he": "\u05de\u05d9\u05e0\u05d0\u05d8\u05d5 \u05d4\u05e8\u05e6\u05dc\u05d9\u05d4", "operator": "\u05de\u05d9\u05e0\u05d0\u05d8\u05d5"}}, {"type": "node", "id": 1753285811, "lat": 32.1632735, "lon": 34.7966052, "tags": {"addr:city": "\u05d4\u05e8\u05e6\u05dc\u05d9\u05d4", "addr:housenumber": "2", "addr:street": "\u05d4\u05e9\u05d5\u05e0\u05d9\u05ea", "alt_name": "\u05d1\u05d9\u05e1\u05d8\u05e8\u05d5 \u05d7\u05de\u05d9\u05e9\u05d9\u05dd \u05d5\u05e9\u05e9", "alt_name:en": "Bistro Fifty Six", "amenity": "restaurant", "contact:facebook": "Bistro56", "cuisine": "steak_house", "diet:kosher": "yes", "email": "wagnercorp100@gmail.com", "name": "Bistro 56", "name:en": "Bistro 56", "name:he": "\u05d1\u05d9\u05e1\u05d8\u05e8\u05d5 56", "outdoor_seating": "yes", "phone": "+972 9 956 5181;+972 72 393 9464", "reservation": "yes", "start_date": "2004", "toilets": "yes", "website": "https://bistro56.co.il/", "wikidata": "Q67170818"}}, {"type": "node", "id": 1753285812, "lat": 32.1634783, "lon": 34.7964654, "tags": {"amenity": "cafe", "brand": "\u05e7\u05e4\u05d4 \u05d2\u05e8\u05d2", "brand:en": "Greg Cafe", "brand:he": "\u05e7\u05e4\u05d4 \u05d2\u05e8\u05d2", "brand:wikidata": "Q43295499", "brand:wikipedia": "he:\u05e7\u05e4\u05d4 \u05d2\u05e8\u05d2", "contact:website": "www.gregcafe.co.il", "cuisine": "coffee_shop", "name": "\u05e7\u05e4\u05d4 \u05d2\u05e8\u05d2", "name:en": "Cafe Greg", "name:he": "\u05e7\u05e4\u05d4 \u05d2\u05e8\u05d2", "operator": "\u05e7\u05e4\u05d4 \u05d2\u05e8\u05d2", "operator:en": "Cafe Greg", "operator:he": "\u05e7\u05e4\u05d4 \u05d2\u05e8\u05d2", "takeaway": "yes"}}, {"type": "node", "id": 1753285815, "lat": 32.1636868, "lon": 34.7959813, "tags": {"amenity": "cafe", "name": "Cafeneto", "name:en": "Cafeneto"}}, {"type": "node", "id": 1753285817, "lat": 32.1635631, "lon": 34.7963887, "tags": {"alt_name": "\u05e7\u05e4\u05d4 Joe", "alt_name:en": "Cup 'o' Joe", "amenity": "cafe", "brand": "\u05e7\u05e4\u05d4 \u05d2'\u05d5", "brand:en": "Cafe Joe", "brand:he": "\u05e7\u05e4\u05d4 \u05d2'\u05d5", "brand:wikidata": "Q6774425", "brand:wikipedia": "he:\u05e7\u05e4\u05d4 \u05d2'\u05d5", "contact:website": "http://www.joe.co.il/", "cuisine": "coffee_shop", "name": "\u05e7\u05e4\u05d4 \u05d2'\u05d5", "name:en": "Cafe Joe", "name:he": "\u05e7\u05e4\u05d4 \u05d2'\u05d5", "operator": "\u05e7\u05e4\u05d4 \u05d2'\u05d5", "operator:en": "Cup 'o' Joe", "operator:he": "\u05e7\u05e4\u05d4 \u05d2'\u05d5", "takeaway": "yes"}}, {"type": "node", "id": 1753285823, "lat": 32.1627995, "lon": 34.7966003, "tags": {"amenity": "cafe", "contact:phone": "1599555535", "contact:website": "http://www.kakao.co.il/", "internet_access": "wlan", "name": "\u05e7\u05e7\u05d0\u05d5", "name:en": "Kakao", "name:he": "\u05e7\u05e7\u05d0\u05d5", "opening_hours": "Mo-Su 08:00+", "operator": "\u05e7\u05e7\u05d0\u05d5", "operator:en": "Kakao", "operator:he": "\u05e7\u05e7\u05d0\u05d5", "wheelchair": "yes"}}, {"type": "node", "id": 1753285831, "lat": 32.1637832, "lon": 34.7958755, "tags": {"amenity": "restaurant", "contact:phone": "+972772345881", "contact:website": "http://www.shipud.co.il/", "cuisine": "burger", "name": "\u05e9\u05d9\u05e4\u05d5\u05d3\u05d9 \u05d4\u05ea\u05e7\u05d5\u05d4 - \u05d0\u05e8\u05e0\u05d4", "name:en": "Shipudey HaTikva - Arena", "name:he": "\u05e9\u05d9\u05e4\u05d5\u05d3\u05d9 \u05d4\u05ea\u05e7\u05d5\u05d4 - \u05d0\u05e8\u05e0\u05d4", "operator": "\u05e9\u05d9\u05e4\u05d5\u05d3\u05d9 \u05d4\u05ea\u05e7\u05d5\u05d4", "operator:en": "Shipudey HaTikva", "operator:he": "\u05e9\u05d9\u05e4\u05d5\u05d3\u05d9 \u05d4\u05ea\u05e7\u05d5\u05d4"}}, {"type": "node", "id": 1787206910, "lat": 32.4340129, "lon": 34.9093097, "tags": {"amenity": "restaurant"}}, {"type": "node", "id": 1820017020, "lat": 32.1648325, "lon": 34.8124429, "tags": {"addr:housenumber": "5", "addr:street": "\u05d1\u05e8\u05e7\u05ea", "amenity": "restaurant", "contact:email": "tarabin@actcom.co.il", "contact:phone": "+97299562117", "contact:website": "http://www.2eat.co.il/sites/tarabinh/", "diet:kosher": "yes", "name": "\u05d8\u05e8\u05d1\u05d9\u05df", "name:en": "Tarabin", "name:he": "\u05d8\u05e8\u05d1\u05d9\u05df"}}, {"type": "node", "id": 1829577158, "lat": 32.1630816, "lon": 34.8085994, "tags": {"amenity": "restaurant", "contact:website": "http://www.rest.co.il/sites/default.asp?txtrestid=1385", "cuisine": "chinese", "internet_access": "wlan", "name": "\u05e4\u05ea-\u05e7\u05d5\u05d0\u05d4", "name:en": "Pat-Qua", "name:he": "\u05e4\u05ea-\u05e7\u05d5\u05d0\u05d4", "payment:10bis": "yes", "payment:cibus": "yes"}}, {"type": "node", "id": 1854109442, "lat": 32.1710877, "lon": 34.9272511, "tags": {"addr:housenumber": "207", "addr:street": "\u05d5\u05d9\u05e6\u05de\u05df", "amenity": "restaurant", "contact:phone": "+97297655005", "contact:website": "http://www.zozobra.co.il", "fixme": "inaccurate position", "internet_access": "wlan", "name": "\u05d6\u05d5\u05d6\u05d5\u05d1\u05e8\u05d4 \u05db\u05e4\u05e8 \u05e1\u05d1\u05d0", "name:en": "Zozobra Kfar Saba", "name:he": "\u05d6\u05d5\u05d6\u05d5\u05d1\u05e8\u05d4 \u05db\u05e4\u05e8 \u05e1\u05d1\u05d0", "opening_hours": "Mo-Su 12:00-24:00", "operator": "\u05d6\u05d5\u05d6\u05d5\u05d1\u05e8\u05d4", "operator:en": "Zozobra", "operator:he": "\u05d6\u05d5\u05d6\u05d5\u05d1\u05e8\u05d4", "smoking": "no"}}, {"type": "node", "id": 1923373894, "lat": 32.2695312, "lon": 34.9171284, "tags": {"amenity": "restaurant", "name": "\u05e8\u05d9\u05d0\u05de\u05d4", "name:en": "Riama", "name:he": "\u05e8\u05d9\u05d0\u05de\u05d4"}}, {"type": "node", "id": 1923390570, "lat": 32.2748192, "lon": 34.9197553, "tags": {"amenity": "cafe", "name": "\u05e0\u05d9\u05e9\u05d4 \u05d1\u05e8", "name:en": "Nisha Bar", "name:he": "\u05e0\u05d9\u05e9\u05d4 \u05d1\u05e8"}}, {"type": "node", "id": 1923393754, "lat": 32.2763937, "lon": 34.9192474, "tags": {"amenity": "cafe", "cuisine": "coffee_shop", "name": "\u05e8\u05d5\u05dc\u05d3\u05d9\u05df", "name:en": "Roladin", "name:he": "\u05e8\u05d5\u05dc\u05d3\u05d9\u05df"}}, {"type": "node", "id": 1925835879, "lat": 32.1704416, "lon": 34.8398377, "tags": {"amenity": "cafe", "check_date": "2023-11-10", "cuisine": "coffee_shop", "name": "\u05e0\u05d7\u05dc\u05ea \u05d1\u05e0\u05d9\u05de\u05d9\u05df", "name:en": "Nachalat Binyamin", "name:he": "\u05e0\u05d7\u05dc\u05ea \u05d1\u05e0\u05d9\u05de\u05d9\u05df"}}, {"type": "node", "id": 1976543821, "lat": 32.43878, "lon": 34.910331, "tags": {"amenity": "cafe", "name:it": "Caff\u00e9"}}, {"type": "node", "id": 2003534070, "lat": 32.266924, "lon": 34.8511238, "tags": {"amenity": "cafe", "cuisine": "coffee_shop", "name": "\u05e7\u05e4\u05d4 \u05de\u05d5\u05e1\u05e7\u05d8", "name:en": "Muscat", "name:he": "\u05e7\u05e4\u05d4 \u05de\u05d5\u05e1\u05e7\u05d8"}}, {"type": "node", "id": 2007201443, "lat": 32.5531558, "lon": 34.9447393, "tags": {"amenity": "restaurant", "cuisine": "italian", "name": "\u05de\u05e1\u05e2\u05d3\u05ea \u05de\u05d8\u05e2\u05d9\u05dd", "name:en": "Mata'im restaurant", "name:he": "\u05de\u05e1\u05e2\u05d3\u05ea \u05de\u05d8\u05e2\u05d9\u05dd"}}, {"type": "node", "id": 2010252768, "lat": 32.2811099, "lon": 34.8622773, "tags": {"amenity": "restaurant", "name": "\u05e1\u05e4\u05d2\u05d8\u05d9\u05dd", "name:en": "Spaghettim", "name:he": "\u05e1\u05e4\u05d2\u05d8\u05d9\u05dd"}}, {"type": "node", "id": 2010252769, "lat": 32.2810618, "lon": 34.8624723, "tags": {"amenity": "restaurant", "cuisine": "asian", "name": "Mojo", "name:en": "Mojo", "phone": "09-8850716", "website": "https://www.mojorest.co.il/"}}, {"type": "node", "id": 2022634187, "lat": 32.2810694, "lon": 34.8616088, "tags": {"amenity": "restaurant", "name": "\u05d1\u05e8\u05d3\u05d5", "name:en": "Bredo", "name:he": "\u05d1\u05e8\u05d3\u05d5"}}, {"type": "node", "id": 2022640028, "lat": 32.2484085, "lon": 34.8364669, "tags": {"amenity": "restaurant", "name": "\u05d0\u05e1\u05d0\u05d3\u05d5 \u05d9\u05e7\u05d5\u05dd", "name:en": "Asado Yaqum", "name:he": "\u05d0\u05e1\u05d0\u05d3\u05d5 \u05d9\u05e7\u05d5\u05dd"}}, {"type": "node", "id": 2025634216, "lat": 32.1642876, "lon": 34.8729175, "tags": {"amenity": "restaurant", "contact:phone": "+97297603647", "contact:website": "https://www.hendale.co.il/", "name": "\u05d7\u05e0\u05d3\u05dc'\u05d4", "name:en": "Hendalle", "name:he": "\u05d7\u05e0\u05d3\u05dc'\u05d4", "opening_hours": "Mo 09:00-15:00,19:00+; Tu-Su 09:00-15:00; Fr 08:30+; Sa 09:00+"}}, {"type": "node", "id": 2063652932, "lat": 32.1974791, "lon": 34.8822134, "tags": {"amenity": "cafe", "cuisine": "coffee_shop", "name": "\u05d0\u05e8\u05e7\u05e4\u05d4", "name:en": "Arcaffe", "name:he": "\u05d0\u05e8\u05e7\u05e4\u05d4"}}, {"type": "node", "id": 2063652938, "lat": 32.1974735, "lon": 34.8820473, "tags": {"amenity": "restaurant", "cuisine": "japanese", "name": "\u05e7\u05d9\u05d5\u05d8\u05d5 \u05d0\u05e7\u05e1\u05e4\u05e8\u05e1", "name:en": "Kyoto Express", "name:he": "\u05e7\u05d9\u05d5\u05d8\u05d5 \u05d0\u05e7\u05e1\u05e4\u05e8\u05e1"}}, {"type": "node", "id": 2076067689, "lat": 32.4807841, "lon": 34.9877214, "tags": {"amenity": "cafe", "name": "\u05e7\u05e4\u05d4 \u05d9\u05d5\u05d1\u05dc\u05d9\u05dd", "name:en": "Cafe Yuvalim", "name:he": "\u05e7\u05e4\u05d4 \u05d9\u05d5\u05d1\u05dc\u05d9\u05dd"}}, {"type": "node", "id": 2086338115, "lat": 32.1816989, "lon": 34.8702606, "tags": {"amenity": "cafe", "cuisine": "coffee_shop", "name": "\u05e9\u05d5\u05d2\u05e8", "name:en": "Sugar", "name:he": "\u05e9\u05d5\u05d2\u05e8", "shop": "bakery"}}, {"type": "node", "id": 2086358246, "lat": 32.1916396, "lon": 34.8923442, "tags": {"amenity": "cafe", "cuisine": "coffee_shop", "internet_access": "wlan", "name": "Buy The Way", "name:en": "Buy The Way", "smoking": "isolated"}}, {"type": "node", "id": 2130363365, "lat": 32.2762167, "lon": 34.8598218, "tags": {"amenity": "restaurant", "cuisine": "regional", "name": "\u05e1\u05d5\u05d3\u05d5\u05da", "name:en": "Suduch", "name:he": "\u05e1\u05d5\u05d3\u05d5\u05da"}}, {"type": "node", "id": 2130364034, "lat": 32.1766656, "lon": 34.8933438, "tags": {"amenity": "restaurant", "cuisine": "burger", "name": "Meat&Roll", "name:en": "Meat&Roll", "website": "http://www.meatnroll.co.il/"}}, {"type": "node", "id": 2130364039, "lat": 32.1766132, "lon": 34.8934115, "tags": {"amenity": "restaurant", "cuisine": "regional", "name": "\u05ea\u05e0\u05e2\u05de\u05d9", "name:en": "Tan'ami", "name:he": "\u05ea\u05e0\u05e2\u05de\u05d9"}}, {"type": "node", "id": 2145114841, "lat": 32.2697527, "lon": 34.8878555, "tags": {"amenity": "cafe", "cuisine": "coffee_shop", "name": "Belo", "name:en": "Belo"}}, {"type": "node", "id": 2145114947, "lat": 32.2696348, "lon": 34.8898565, "tags": {"amenity": "cafe", "cuisine": "coffee_shop", "name": "Gutale", "name:en": "Gutale"}}, {"type": "node", "id": 2145115174, "lat": 32.269535, "lon": 34.8880916, "tags": {"amenity": "restaurant", "cuisine": "sushi", "name": "Ishimoto", "name:en": "Ishimoto"}}, {"type": "node", "id": 2145134208, "lat": 32.2561171, "lon": 34.8775417, "tags": {"amenity": "restaurant", "cuisine": "kebab", "name": "\u05d9\u05d5\u05e0\u05e1", "name:en": "Yunes", "name:he": "\u05d9\u05d5\u05e0\u05e1"}}, {"type": "node", "id": 2145137449, "lat": 32.2812959, "lon": 34.8918164, "tags": {"amenity": "restaurant", "cuisine": "pizza", "name": "Shabtai", "name:en": "Shabtai"}}, {"type": "node", "id": 2145139913, "lat": 32.2619373, "lon": 34.9174368, "tags": {"amenity": "restaurant", "name": "Porterhouse", "name:en": "Porterhouse"}}, {"type": "node", "id": 2185114113, "lat": 32.1767212, "lon": 34.8930315, "tags": {"amenity": "cafe", "cuisine": "coffee_shop", "name": "\u05e7\u05e4\u05d4 \u05e7\u05d8\u05df", "name:en": "Cafe Katan", "name:he": "\u05e7\u05e4\u05d4 \u05e7\u05d8\u05df"}}, {"type": "node", "id": 2189506588, "lat": 32.1629858, "lon": 34.8106363, "tags": {"amenity": "restaurant", "contact:phone": "+972 9-885-8308", "diet:kosher": "yes", "name": "\u05e4\u05d9\u05dc\u05d0\u05e3 \u05e4\u05d5\u05d3 \u05d1\u05e8", "name:en": "Pilaf Food Bar", "name:he": "\u05e4\u05d9\u05dc\u05d0\u05e3 \u05e4\u05d5\u05d3 \u05d1\u05e8", "payment:10bis": "yes", "payment:cibus": "yes", "payment:contactless": "yes", "payment:meal_voucher": "yes"}}, {"type": "node", "id": 2192281822, "lat": 32.1976496, "lon": 34.8802346, "tags": {"amenity": "cafe", "cuisine": "coffee_shop", "name": "\u05e9\u05d5\u05d2\u05e8", "name:en": "Sugar", "name:he": "\u05e9\u05d5\u05d2\u05e8", "shop": "bakery"}}, {"type": "node", "id": 2296563369, "lat": 32.1686209, "lon": 34.8426919, "tags": {"amenity": "cafe", "brand": "\u05d0\u05e8\u05d5\u05de\u05d4", "brand:en": "Aroma Espresso Bar", "brand:he": "\u05d0\u05e8\u05d5\u05de\u05d4", "brand:wikidata": "Q2909872", "brand:wikipedia": "en:Aroma Espresso Bar", "cuisine": "coffee_shop", "internet_access": "yes", "name": "\u05d0\u05e8\u05d5\u05de\u05d4", "name:en": "Aroma Espresso Bar", "name:en1": "Aroma Espresso Bar", "name:he": "\u05d0\u05e8\u05d5\u05de\u05d4", "takeaway": "yes"}}, {"type": "node", "id": 2296907250, "lat": 32.283422, "lon": 34.861664, "tags": {"amenity": "restaurant", "cuisine": "regional", "name": "\u05dc\u05d0\u05d1\u05dc\u05d1\u05d9", "name:en": "Lablabi", "name:he": "\u05dc\u05d0\u05d1\u05dc\u05d1\u05d9", "opening_hours": "Su-Th 09:00-17:00;Fr 09:00-15:00", "phone": "09-8650865", "website": "https://www.lablabi.co.il/"}}, {"type": "node", "id": 2324417916, "lat": 32.1924419, "lon": 34.8812881, "tags": {"amenity": "restaurant", "cuisine": "regional", "food": "prepared_meals", "name": "\u05d4\u05ea\u05d9\u05de\u05e0\u05d9\u05d4", "name:en": "Hataymania", "name:he": "\u05d4\u05ea\u05d9\u05de\u05e0\u05d9\u05d4", "shop": "food", "survey:date": "2024-12-18"}}, {"type": "node", "id": 2385127509, "lat": 32.1970805, "lon": 34.8778001, "tags": {"amenity": "cafe", "level": "1", "name": "\u05e7\u05e4\u05d4\u05e7\u05e4\u05d4", "name:en": "Cafe Cafe", "name:en1": "cafecafe", "name:he": "\u05e7\u05e4\u05d4\u05e7\u05e4\u05d4", "operator": "cafecafe"}}, {"type": "node", "id": 2385138299, "lat": 32.1972616, "lon": 34.8783966, "tags": {"amenity": "cafe", "level": "1", "name": "\u05d2\u05e8\u05d2", "name:en": "Greg", "name:he": "\u05d2\u05e8\u05d2", "operator": "Greg"}}, {"type": "node", "id": 2430149001, "lat": 32.4724257, "lon": 34.9915408, "tags": {"amenity": "cafe", "cuisine": "coffee_shop", "name": "Tevalo", "name:en": "Tevalo", "name:he": "\u05d8\u05d1\u05e2-\u05dc\u05d5"}}, {"type": "node", "id": 2430149002, "lat": 32.4736385, "lon": 34.9930579, "tags": {"amenity": "cafe", "cuisine": "coffee_shop", "name": "\u05dc\u05d0\u05d5\u05d5\u05df", "name:en": "Leaven", "name:he": "\u05dc\u05d0\u05d5\u05d5\u05df"}}, {"type": "node", "id": 2462049776, "lat": 32.5372086, "lon": 34.902092, "tags": {"addr:city": "\u062c\u0633\u0631 \u0627\u0644\u0632\u0631\u0642\u0627\u0621", "amenity": "restaurant", "cuisine": "regional", "description": "\u05de\u05e1\u05e4\u05e8 \u05de\u05e1\u05e2\u05d3\u05d5\u05ea \u05d3\u05d2\u05d9\u05dd \u05d5\u05e1\u05dc\u05d8\u05d9\u05dd \u05e2\u05dd \u05e0\u05d5\u05e3 \u05dc\u05e0\u05de\u05dc.", "description:he": "\u05de\u05e1\u05e4\u05e8 \u05de\u05e1\u05e2\u05d3\u05d5\u05ea \u05d3\u05d2\u05d9\u05dd \u05d5\u05e1\u05dc\u05d8\u05d9\u05dd \u05e2\u05dd \u05e0\u05d5\u05e3 \u05dc\u05e0\u05de\u05dc.", "image": "https://upload.wikimedia.org/wikipedia/commons/0/09/IHM_\u05de\u05e1\u05e2\u05d3\u05d5\u05ea_\u05d3\u05d2\u05d9\u05dd.jpeg", "name": "\u0645\u0637\u0639\u0645 \u0623\u0633\u0645\u0627\u0643 \u0645\u0648\u0633\u0649", "name:ar": "\u0645\u0637\u0639\u0645 \u0623\u0633\u0645\u0627\u0643 \u0645\u0648\u0633\u0649", "name:en": "Musa's cabin", "name:he": "\u05de\u05e1\u05e2\u05d3\u05d5\u05ea \u05d3\u05d2\u05d9\u05dd", "tourism": "attraction"}}, {"type": "node", "id": 2550892199, "lat": 32.1775079, "lon": 34.9033786, "tags": {"amenity": "cafe", "name": "\u05d0\u05e8\u05e7\u05e4\u05d4", "name:en": "Arcaffe", "name:he": "\u05d0\u05e8\u05e7\u05e4\u05d4"}}, {"type": "node", "id": 2550892203, "lat": 32.1786724, "lon": 34.9041055, "tags": {"amenity": "cafe", "brand": "\u05d0\u05e8\u05d5\u05de\u05d4", "brand:en": "Aroma Espresso Bar", "brand:he": "\u05d0\u05e8\u05d5\u05de\u05d4", "brand:wikidata": "Q2909872", "brand:wikipedia": "en:Aroma Espresso Bar", "cuisine": "coffee_shop", "internet_access": "yes", "name": "\u05d0\u05e8\u05d5\u05de\u05d4", "name:en": "Aroma", "name:en1": "Aroma Espresso Bar", "name:he": "\u05d0\u05e8\u05d5\u05de\u05d4", "takeaway": "yes"}}, {"type": "node", "id": 2550892221, "lat": 32.1786271, "lon": 34.9047538, "tags": {"amenity": "restaurant", "cuisine": "italian", "name": "\u05d8\u05e8\u05e0\u05d8\u05d9\u05e0\u05d5", "name:en": "Tarantino", "name:he": "\u05d8\u05e8\u05e0\u05d8\u05d9\u05e0\u05d5"}}, {"type": "node", "id": 2550892224, "lat": 32.1771707, "lon": 34.9032968, "tags": {"amenity": "cafe", "cuisine": "ice_cream", "name": "\u05e7\u05e0\u05d9\u05d5\u05df \u05e2\u05e8\u05d9\u05dd"}}, {"type": "node", "id": 2555508476, "lat": 32.1771721, "lon": 34.8996635, "tags": {"amenity": "restaurant", "name": "Coffee Tree", "name:en": "Coffee Tree"}}, {"type": "node", "id": 2572116401, "lat": 32.178768, "lon": 34.9037726, "tags": {"alt_name": "\u05e7\u05e4\u05d4 Joe", "amenity": "cafe", "brand": "\u05e7\u05e4\u05d4 \u05d2'\u05d5", "brand:en": "Cafe Joe", "brand:he": "\u05e7\u05e4\u05d4 \u05d2'\u05d5", "brand:wikidata": "Q6774425", "brand:wikipedia": "he:\u05e7\u05e4\u05d4 \u05d2'\u05d5", "cuisine": "coffee_shop", "name": "\u05e7\u05e4\u05d4 \u05d2'\u05d5", "name:en": "Cafe Joe", "name:en1": "Cafe Joe", "name:he": "\u05e7\u05e4\u05d4 \u05d2'\u05d5", "takeaway": "yes"}}, {"type": "node", "id": 2572116402, "lat": 32.1768974, "lon": 34.9006549, "tags": {"amenity": "cafe", "cuisine": "ice_cream", "name": "\u05d3\u05dc\u05d9 \u05e7\u05e8\u05d9\u05dd", "name:en": "Deli Cream", "name:he": "\u05d3\u05dc\u05d9 \u05e7\u05e8\u05d9\u05dd"}}, {"type": "node", "id": 2572116403, "lat": 32.1771499, "lon": 34.9010788, "tags": {"amenity": "restaurant", "brand": "Pizza Hut", "brand:wikidata": "Q191615", "brand:wikipedia": "en:Pizza Hut", "cuisine": "pizza", "name": "Pizza Hut", "name:en": "Pizza Hut", "name:he": "\u05e4\u05d9\u05e6\u05d4 \u05d4\u05d0\u05d8"}}, {"type": "node", "id": 2581100010, "lat": 32.2835324, "lon": 34.8616925, "tags": {"amenity": "restaurant", "fixme": "name, name:he mismatch. Flagged by SafwatHalaby_bot-nameCopy. name, name:he mismatch. Flagged by SafwatHalaby_bot-nameCopy", "name": "\u05d1\u05e9\u05e8 Bar", "name:en": "Bar Basar", "name:he": "\u05d1\u05e8 \u05d1\u05e9\u05e8"}}, {"type": "node", "id": 2587910024, "lat": 32.1586758, "lon": 34.8079276, "tags": {"amenity": "restaurant", "name": "\u05e9\u05d2\u05d1", "name:en": "Segev", "name:he": "\u05e9\u05d2\u05d1", "phone": "057-9443318", "website": "https://www.segevchef.com/"}}, {"type": "node", "id": 2596601776, "lat": 32.1768026, "lon": 34.9031637, "tags": {"amenity": "restaurant", "cuisine": "burger", "name": "\u05de\u05d5\u05d6\u05e1", "name:en": "Moses", "name:he": "\u05de\u05d5\u05d6\u05e1"}}, {"type": "node", "id": 2619533166, "lat": 32.1475295, "lon": 34.8041635, "tags": {"amenity": "restaurant", "capacity": "15", "cuisine": "regional", "name": "\u05d1\u05d5\u05e8\u05e7\u05e1 \u05d8\u05d5\u05e8\u05e7\u05d9", "name:en": "Turkish Burekass", "name:he": "\u05d1\u05d5\u05e8\u05e7\u05e1 \u05d8\u05d5\u05e8\u05e7\u05d9"}}, {"type": "node", "id": 2656593008, "lat": 32.5567167, "lon": 34.9548617}, {"type": "node", "id": 2656593009, "lat": 32.556773, "lon": 34.9544291}, {"type": "node", "id": 2656593016, "lat": 32.5567883, "lon": 34.9546812}, {"type": "node", "id": 2656593017, "lat": 32.5566939, "lon": 34.9546283}, {"type": "node", "id": 2656593018, "lat": 32.5569519, "lon": 34.9545291}, {"type": "node", "id": 2656593020, "lat": 32.5568011, "lon": 34.9549089}, {"type": "node", "id": 2701869274, "lat": 32.1646389, "lon": 34.8114328, "tags": {"amenity": "restaurant", "contact:phone": "+97299558207", "description": "\u05d0\u05d5\u05db\u05dc \u05d1\u05d9\u05ea\u05d9 \u05d8\u05e8\u05d9\u05e4\u05d5\u05dc\u05d8\u05d0\u05d9", "diet:kosher": "yes", "name": "\u05de\u05e1\u05e2\u05d3\u05ea \u05e2\u05d9\u05e0\u05d9-\u05e8\u05d7\u05dc", "name:en": "Einay Rachel", "name:he": "\u05de\u05e1\u05e2\u05d3\u05ea \u05e2\u05d9\u05e0\u05d9-\u05e8\u05d7\u05dc"}}, {"type": "node", "id": 2701869276, "lat": 32.1647576, "lon": 34.811505, "tags": {"amenity": "cafe", "check_date:diet:kosher": "2021-08-10", "contact:phone": "+972747013545", "cuisine": "coffee_shop", "diet:kosher": "yes", "name": "\u05e7\u05e4\u05d4 \u05d3\u05d4 \u05e4\u05e8\u05d9\u05d6", "name:en": "Cafe De Friz", "name:he": "\u05e7\u05e4\u05d4 \u05d3\u05d4 \u05e4\u05e8\u05d9\u05d6"}}, {"type": "node", "id": 2725400134, "lat": 32.1758343, "lon": 34.9057348, "tags": {"amenity": "restaurant", "cuisine": "kebab", "name": "\u05de\u05d9\u05ea\u05d5\u05e1", "name:en": "meatos", "name:he": "\u05de\u05d9\u05ea\u05d5\u05e1"}}, {"type": "node", "id": 2794949828, "lat": 32.5176714, "lon": 34.9405381, "tags": {"addr:city": "\u05d1\u05e0\u05d9\u05de\u05d9\u05e0\u05d4", "addr:housenumber": "2", "addr:postcode": "3056502", "addr:street": "\u05d4\u05e9\u05e8\u05d9\u05d2", "amenity": "cafe", "brand": "\u05e7\u05e4\u05d4 \u05dc\u05e0\u05d3\u05d5\u05d5\u05e8", "brand:en": "Landwer Coffee", "brand:he": "\u05e7\u05e4\u05d4 \u05dc\u05e0\u05d3\u05d5\u05d5\u05e8", "brand:wikidata": "Q6485288", "brand:wikipedia": "he:\u05e7\u05e4\u05d4 \u05dc\u05e0\u05d3\u05d5\u05d5\u05e8", "cuisine": "coffee_shop", "internet_access": "wlan", "name": "\u05dc\u05e0\u05d3\u05d5\u05d5\u05e8", "name:en": "Landwer", "name:he": "\u05dc\u05e0\u05d3\u05d5\u05d5\u05e8", "opening_hours": "Su-Fr 8:00-23:00, Saturday 9:30-23:00", "outdoor_seating": "yes", "phone": "+972 4-6772585", "takeaway": "yes", "website": "https://www.landwercafe.co.il/branch/binyamina/"}}, {"type": "node", "id": 2794949829, "lat": 32.5018887, "lon": 34.9267802, "tags": {"amenity": "cafe", "cuisine": "coffee_shop", "name": "\u05e7\u05e4\u05d4 \u05d2\u05e8\u05d2", "name:en": "Cafe Greg", "name:he": "\u05e7\u05e4\u05d4 \u05d2\u05e8\u05d2"}}, {"type": "node", "id": 2794949830, "lat": 32.5021085, "lon": 34.9273944, "tags": {"amenity": "cafe", "cuisine": "coffee_shop", "internet_access": "yes", "name": "\u05d0\u05e8\u05d5\u05de\u05d4", "name:en": "Aroma", "name:he": "\u05d0\u05e8\u05d5\u05de\u05d4"}}, {"type": "node", "id": 2815708184, "lat": 32.481686, "lon": 34.9480297, "tags": {"amenity": "restaurant", "cuisine": "burger", "name": "\u05e7\u05d5\u05d9\u05d4", "name:en": "Koya", "name:he": "\u05e7\u05d5\u05d9\u05d4"}}, {"type": "node", "id": 2882883279, "lat": 32.5741278, "lon": 34.9549746}, {"type": "node", "id": 2882883280, "lat": 32.5741274, "lon": 34.9548485}, {"type": "node", "id": 2882883281, "lat": 32.5740366, "lon": 34.9548489}, {"type": "node", "id": 2882883282, "lat": 32.5740369, "lon": 34.9549749}, {"type": "node", "id": 2883513302, "lat": 32.1769445, "lon": 34.9062928, "tags": {"amenity": "restaurant", "name": "\u05d1\u05dc\u05d9\u05e7\u05e8 \u05e1\u05d8\u05e8\u05d9\u05d8", "name:en": "Bleeker Street", "name:he": "\u05d1\u05dc\u05d9\u05e7\u05e8 \u05e1\u05d8\u05e8\u05d9\u05d8"}}, {"type": "node", "id": 2883527201, "lat": 32.177523, "lon": 34.90646, "tags": {"amenity": "cafe", "cuisine": "coffee_shop", "name": "\u05e7\u05e7\u05d0\u05d5", "name:en": "Kakao", "name:he": "\u05e7\u05e7\u05d0\u05d5", "website": "http://www.kakao.co.il"}}, {"type": "node", "id": 2908122435, "lat": 32.2176834, "lon": 34.82395, "tags": {"amenity": "restaurant", "cuisine": "\u05e7\u05d9\u05d1\u05d5\u05e6\u05d9", "name": "\u05d7\u05d3\u05e8 \u05d0\u05d5\u05db\u05dc", "name:he": "\u05d7\u05d3\u05e8 \u05d0\u05d5\u05db\u05dc"}}, {"type": "node", "id": 2910323810, "lat": 32.5695155, "lon": 34.9342901, "tags": {"amenity": "cafe", "brand": "\u05d0\u05e8\u05d5\u05de\u05d4", "brand:en": "Aroma Espresso Bar", "brand:he": "\u05d0\u05e8\u05d5\u05de\u05d4", "brand:wikidata": "Q2909872", "brand:wikipedia": "en:Aroma Espresso Bar", "cuisine": "coffee_shop", "internet_access": "yes", "internet_access:fee": "no", "name": "\u05d0\u05e8\u05d5\u05de\u05d4", "name:en": "Aroma", "name:en1": "Aroma Espresso Bar", "name:he": "\u05d0\u05e8\u05d5\u05de\u05d4", "outdoor_seating": "yes", "takeaway": "yes"}}, {"type": "node", "id": 2910323811, "lat": 32.5694262, "lon": 34.9341651, "tags": {"amenity": "cafe", "brand": "\u05e7\u05e4\u05d4 \u05d2\u05e8\u05d2", "brand:en": "Greg Cafe", "brand:he": "\u05e7\u05e4\u05d4 \u05d2\u05e8\u05d2", "brand:wikidata": "Q43295499", "brand:wikipedia": "he:\u05e7\u05e4\u05d4 \u05d2\u05e8\u05d2", "cuisine": "coffee_shop", "internet_access": "yes", "name": "\u05e7\u05e4\u05d4 \u05d2\u05e8\u05d2", "name:en": "Cafe Greg", "name:he": "\u05e7\u05e4\u05d4 \u05d2\u05e8\u05d2", "takeaway": "yes"}}, {"type": "node", "id": 2918499197, "lat": 32.57329, "lon": 34.9541536, "tags": {"amenity": "restaurant", "cuisine": "coffee_shop", "name": "\u05d4\u05d3\u05d5\u05d1\u05d9\u05dd", "name:en": "The Bears", "name:he": "\u05d4\u05d3\u05d5\u05d1\u05d9\u05dd"}}, {"type": "node", "id": 2923726392, "lat": 32.443475, "lon": 34.9402053, "tags": {"amenity": "cafe", "name": "\u05d6\u05d9\u05e0\u05d2\u05e8\u05e1", "name:en": "Zinger's", "name:he": "\u05d6\u05d9\u05e0\u05d2\u05e8\u05e1"}}, {"type": "node", "id": 2924385335, "lat": 32.5727878, "lon": 34.9541115, "tags": {"amenity": "cafe", "name": "\u05d4\u05e0\u05d3\u05d9\u05d1", "name:en": "HaNadiv", "name:he": "\u05d4\u05e0\u05d3\u05d9\u05d1"}}, {"type": "node", "id": 2924385336, "lat": 32.5701909, "lon": 34.954183, "tags": {"amenity": "restaurant", "cuisine": "steak_house", "name": "16 \u05d4\u05de\u05d9\u05d9\u05e1\u05d3\u05d9\u05dd", "name:en": "16 Hameyasdim", "name:he": "16 \u05d4\u05de\u05d9\u05d9\u05e1\u05d3\u05d9\u05dd"}}, {"type": "node", "id": 2926991423, "lat": 32.573016, "lon": 34.9538299, "tags": {"amenity": "restaurant", "cuisine": "coffee_shop;italian", "name": "\u05e0\u05d9\u05dc\u05d9", "name:en": "Nili", "name:he": "\u05e0\u05d9\u05dc\u05d9", "website": "https://nili-rest.co.il/"}}, {"type": "node", "id": 2969804564, "lat": 32.5159216, "lon": 34.9205592}, {"type": "node", "id": 2969804565, "lat": 32.5156765, "lon": 34.9203773}, {"type": "node", "id": 2969804566, "lat": 32.5158833, "lon": 34.9203289}, {"type": "node", "id": 2969804567, "lat": 32.5157148, "lon": 34.9206076}, {"type": "node", "id": 3014632109, "lat": 32.2795365, "lon": 34.8603725, "tags": {"amenity": "restaurant", "cuisine": "pizza", "name": "\u05e4\u05d9\u05e6\u05d4 \u05d4\u05d0\u05d8", "name:en": "Pizza Hut", "name:he": "\u05e4\u05d9\u05e6\u05d4 \u05d4\u05d0\u05d8"}}, {"type": "node", "id": 3017825705, "lat": 32.1801884, "lon": 34.8752443, "tags": {"amenity": "cafe", "check_date": "2025-06-10", "cuisine": "coffee_shop", "internet_access": "no", "name": "\u05e7\u05d5\u05e4\u05d9\u05e7\u05e1", "name:en": "cofix", "name:he": "\u05e7\u05d5\u05e4\u05d9\u05e7\u05e1", "smoking": "no"}}, {"type": "node", "id": 3069770550, "lat": 32.5657016, "lon": 34.9430142, "tags": {"addr:city": "\u05d6\u05db\u05e8\u05d5\u05df \u05d9\u05e2\u05e7\u05d1", "addr:housenumber": "2", "addr:street": "\u05d4\u05e9\u05de\u05d5\u05e8\u05d4", "amenity": "cafe", "cuisine": "coffee_shop", "fixme": "name, name:en mismatch. Flagged by SafwatHalaby_bot-nameCopy. name, name:en mismatch. Flagged by SafwatHalaby_bot-nameCopy", "internet_access": "yes", "name": "IZ Cafe", "name:en": "IZ Cafe", "outdoor_seating": "yes", "smoking": "no", "toilets:wheelchair": "no", "wheelchair": "yes"}}, {"type": "node", "id": 3077944924, "lat": 32.4743209, "lon": 34.9903021, "tags": {"amenity": "cafe", "cuisine": "coffee_shop", "name": "\u05e7\u05e4\u05d4 \u05db\u05e8\u05db\u05d5\u05e8", "name:en": "Karkur Cafe", "name:he": "\u05e7\u05e4\u05d4 \u05db\u05e8\u05db\u05d5\u05e8"}}, {"type": "node", "id": 3080635021, "lat": 32.5210966, "lon": 34.9460349, "tags": {"amenity": "restaurant", "cuisine": "italian", "name": "\u05d3\u05d5\u05df \u05d2'\u05d5\u05d1\u05d0\u05e0\u05d9", "name:en": "Don Giovani", "name:he": "\u05d3\u05d5\u05df \u05d2'\u05d5\u05d1\u05d0\u05e0\u05d9"}}, {"type": "node", "id": 3081263905, "lat": 32.1482712, "lon": 34.8391635, "tags": {"amenity": "cafe", "name": "\u05e7\u05e4\u05d4 \u05d2'\u05d5", "name:en": "Cafe Joe", "name:he": "\u05e7\u05e4\u05d4 \u05d2'\u05d5"}}, {"type": "node", "id": 3081263906, "lat": 32.1515952, "lon": 34.8415667, "tags": {"amenity": "cafe", "name": "\u05e7\u05e4\u05d4 111", "name:en": "Cafe 111", "name:he": "\u05e7\u05e4\u05d4 111"}}, {"type": "node", "id": 3083251700, "lat": 32.3285379, "lon": 34.8545516, "tags": {"amenity": "restaurant", "cuisine": "international;sushi", "name": "\u05e9\u05d8\u05de\u05e4\u05e4\u05e8", "name:en": "Shtamper", "name:he": "\u05e9\u05d8\u05de\u05e4\u05e4\u05e8"}}, {"type": "node", "id": 3120321829, "lat": 32.1557999, "lon": 34.9204032, "tags": {"amenity": "restaurant", "name": "\u05dc\u05d5\u05dc\u05d4 \u05d5\u05e7\u05d5\u05d1\u05d4", "name:en": "Lola and Kuba", "name:he": "\u05dc\u05d5\u05dc\u05d4 \u05d5\u05e7\u05d5\u05d1\u05d4", "website": "https://www.lolakuba.rest.co.il/"}}, {"type": "node", "id": 3121654879, "lat": 32.5742729, "lon": 34.9538398, "tags": {"amenity": "restaurant", "cuisine": "american", "name": "\u05e9\u05e0\u05d9\u05e5", "name:en": "Snitz", "name:he": "\u05e9\u05e0\u05d9\u05e5"}}, {"type": "node", "id": 3155829861, "lat": 32.1706052, "lon": 34.8315351, "tags": {"amenity": "restaurant", "name": "\u05dc\u05d7\u05dd \u05d0\u05e8\u05d6", "name:en": "Erez Bread", "name:he": "\u05dc\u05d7\u05dd \u05d0\u05e8\u05d6"}}, {"type": "node", "id": 3162440422, "lat": 32.4647872, "lon": 34.9946972, "tags": {"amenity": "restaurant", "cuisine": "burger", "name": "\u05d0\u05d5\u05e8\u05d9\u05d9\u05ea\u05d0", "name:en": "Oraita", "name:he": "\u05d0\u05d5\u05e8\u05d9\u05d9\u05ea\u05d0"}}, {"type": "node", "id": 3162440431, "lat": 32.4389517, "lon": 34.9298532, "tags": {"amenity": "restaurant", "cuisine": "burger", "name": "\u05e9\u05d9\u05e4\u05d5\u05d3\u05d9 \u05d3\u05d5\u05d3\u05d5", "name:en": "Shipuday Dudu", "name:he": "\u05e9\u05d9\u05e4\u05d5\u05d3\u05d9 \u05d3\u05d5\u05d3\u05d5"}}, {"type": "node", "id": 3183745988, "lat": 32.1962412, "lon": 34.87907}, {"type": "node", "id": 3183745989, "lat": 32.1962541, "lon": 34.879233}, {"type": "node", "id": 3183745990, "lat": 32.1960056, "lon": 34.8792604}, {"type": "node", "id": 3183745992, "lat": 32.1960775, "lon": 34.8787854}, {"type": "node", "id": 3183745998, "lat": 32.1959691, "lon": 34.8787973}, {"type": "node", "id": 3183750904, "lat": 32.1962175, "lon": 34.8787699}, {"type": "node", "id": 3190057871, "lat": 32.5175913, "lon": 34.9405607, "tags": {"amenity": "restaurant", "cuisine": "burger", "name": "\u05d4\u05ea\u05e8\u05e0\u05d2\u05d5\u05dc\u05d9\u05dd", "name:en": "Hatarnegolim", "name:he": "\u05d4\u05ea\u05e8\u05e0\u05d2\u05d5\u05dc\u05d9\u05dd"}}, {"type": "node", "id": 3195707097, "lat": 32.1796869, "lon": 34.8777051, "tags": {"amenity": "restaurant", "cuisine": "thai", "name": "\u05d5\u05d5\u05e7 \u05d8\u05d5 \u05d5\u05d5\u05e7", "name:en": "Wok to Walk", "name:he": "\u05d5\u05d5\u05e7 \u05d8\u05d5 \u05d5\u05d5\u05e7", "opening_hours": "Su-We 11:00-23:00; Th 11:00-24:00; Fr 11:30-15:00; Sa off"}}, {"type": "node", "id": 3195707098, "lat": 32.1805363, "lon": 34.8757734, "tags": {"amenity": "restaurant", "brand": "Pizza Hut", "brand:wikidata": "Q191615", "brand:wikipedia": "en:Pizza Hut", "cuisine": "pizza", "name": "Pizza Hut", "name:en": "Pizza Hut", "name:he": "\u05e4\u05d9\u05e6\u05d4 \u05d4\u05d0\u05d8", "opening_hours": "Su-Th 11:00-23:55", "wheelchair": "yes"}}, {"type": "node", "id": 3280711071, "lat": 32.3296612, "lon": 34.8553725, "tags": {"amenity": "restaurant", "cuisine": "international", "name": "Natalya", "name:en": "Natalya"}}, {"type": "node", "id": 3302063158, "lat": 32.4595407, "lon": 34.9651984, "tags": {"amenity": "restaurant", "cuisine": "regional", "name": "\u05ea\u05d8\u05d0", "name:en": "Teta", "name:he": "\u05ea\u05d8\u05d0"}}, {"type": "node", "id": 3302063160, "lat": 32.4726367, "lon": 34.9904918, "tags": {"amenity": "restaurant", "cuisine": "indian", "name": "\u05e7\u05e4\u05d4 \u05d1\u05d5\u05de\u05d1\u05d9\u05d9", "name:en": "Bombay Coffee", "name:he": "\u05e7\u05e4\u05d4 \u05d1\u05d5\u05de\u05d1\u05d9\u05d9"}}, {"type": "node", "id": 3302068962, "lat": 32.473621, "lon": 34.9934314, "tags": {"amenity": "restaurant", "cuisine": "sandwich;\u05d1\u05e9\u05e8", "name": "\u05d4\u05de\u05d6\u05d5\u05d5\u05d4", "name:en": "Hamesavve", "name:he": "\u05d4\u05de\u05d6\u05d5\u05d5\u05d4", "wheelchair": "yes"}}, {"type": "node", "id": 3302068963, "lat": 32.4722476, "lon": 34.974833, "tags": {"amenity": "restaurant", "cuisine": "italian", "name": "\u05e4\u05e0\u05d0\u05d8\u05d5\u05e0\u05d9", "name:en": "Panatony", "name:he": "\u05e4\u05e0\u05d0\u05d8\u05d5\u05e0\u05d9"}}, {"type": "node", "id": 3320513455, "lat": 32.4889268, "lon": 34.9694429, "tags": {"amenity": "cafe", "cuisine": "coffee_shop", "internet_access": "yes", "name": "\u05d0\u05e8\u05d5\u05de\u05d4", "name:en": "Aroma", "name:he": "\u05d0\u05e8\u05d5\u05de\u05d4"}}, {"type": "node", "id": 3393034858, "lat": 32.28039, "lon": 34.8616678, "tags": {"amenity": "restaurant", "name": "\u05d1\u05e8\u05d3\u05d5", "name:en": "Bredo", "name:he": "\u05d1\u05e8\u05d3\u05d5", "website": "https://www.bredo.co.il/"}}, {"type": "node", "id": 3393076163, "lat": 32.2801246, "lon": 34.8624261, "tags": {"amenity": "restaurant", "name": "\u05e8\u05d5\u05d9\u05d0\u05dc", "name:en": "Royal", "name:he": "\u05e8\u05d5\u05d9\u05d0\u05dc", "website": "http://www.royalevents.co.il/"}}, {"type": "node", "id": 3410439893, "lat": 32.1727917, "lon": 34.9288879, "tags": {"addr:city": "\u05db\u05e4\u05e8 \u05e1\u05d1\u05d0", "amenity": "restaurant", "contact:facebook": "https://www.facebook.com/king.g.ksaba", "delivery": "yes", "email": "kingsaba2013@gmail.com", "microbrewery": "no", "name": "\u05e7\u05d9\u05e0\u05d2 \u05d2'\u05d5\u05e8\u05d2'", "name:en": "King George", "name:he": "\u05e7\u05d9\u05e0\u05d2 \u05d2'\u05d5\u05e8\u05d2'", "phone": "+972 1 700 504 040", "website": "https://kinggeorge.co.il/"}}, {"type": "node", "id": 3410440093, "lat": 32.1733942, "lon": 34.9284152, "tags": {"amenity": "restaurant", "name": "\u05e7\u05e8\u05d9\u05e1\u05e4\u05d9", "name:en": "crispy", "name:he": "\u05e7\u05e8\u05d9\u05e1\u05e4\u05d9"}}, {"type": "node", "id": 3455713793, "lat": 32.1757286, "lon": 34.9086087, "tags": {"amenity": "restaurant", "name": "\u05dc\u05d7\u05dd \u05d0\u05e8\u05d6", "name:en": "Lehem Erez", "name:he": "\u05dc\u05d7\u05dd \u05d0\u05e8\u05d6"}}, {"type": "node", "id": 3465330985, "lat": 32.2216297, "lon": 34.8283746, "tags": {"amenity": "cafe", "cuisine": "coffee_shop", "internet_access": "yes", "name": "\u05d0\u05e8\u05d5\u05de\u05d4", "name:en": "Aroma", "name:he": "\u05d0\u05e8\u05d5\u05de\u05d4"}}, {"type": "node", "id": 3507231228, "lat": 32.192475, "lon": 34.8917595, "tags": {"amenity": "cafe", "name": "\u05dc\u05e0\u05d3\u05d5\u05d5\u05e8", "name:en": "Landwer", "name:he": "\u05dc\u05e0\u05d3\u05d5\u05d5\u05e8"}}, {"type": "node", "id": 3523102681, "lat": 32.5732478, "lon": 34.9544181, "tags": {"amenity": "restaurant", "cuisine": "regional", "name": "\u05d4\u05ea\u05d9\u05de\u05e0\u05d9\u05d4 \u05e9\u05dc \u05e1\u05e0\u05d8\u05d5", "name:en": "Santo", "name:he": "\u05d4\u05ea\u05d9\u05de\u05e0\u05d9\u05d4 \u05e9\u05dc \u05e1\u05e0\u05d8\u05d5"}}, {"type": "node", "id": 3621375948, "lat": 32.3302761, "lon": 34.8523466, "tags": {"amenity": "restaurant", "cuisine": "international", "email": "guigolan@bezeqint.net", "name": "The Scotsman", "name:en": "The Scotsman", "name:ru": "\u0414\u0430\u0440\u044b \u043c\u043e\u0440\u044f", "opening_hours": "Mo-Su 08:00-24:00", "phone": "+972 09 8624546", "smoking": "yes"}}, {"type": "node", "id": 3628675867, "lat": 32.5222271, "lon": 34.9477145, "tags": {"amenity": "cafe", "cuisine": "coffee_shop", "name": "\u05e7\u05d5\u05e4\u05d9\u05e7\u05e1", "name:en": "Cofix", "name:he": "\u05e7\u05d5\u05e4\u05d9\u05e7\u05e1"}}, {"type": "node", "id": 3628675877, "lat": 32.488015, "lon": 34.9705358, "tags": {"amenity": "cafe", "cuisine": "coffee_shop", "name": "\u05d2\u05e8\u05d2", "name:en": "Greg", "name:he": "\u05d2\u05e8\u05d2"}}, {"type": "node", "id": 3628675878, "lat": 32.4877589, "lon": 34.9700655, "tags": {"amenity": "restaurant", "name": "\u05e4\u05e8\u05e0\u05d2'\u05dc\u05d9\u05e7\u05d5", "name:en": "Frangeliko", "name:he": "\u05e4\u05e8\u05e0\u05d2'\u05dc\u05d9\u05e7\u05d5"}}, {"type": "node", "id": 3646813271, "lat": 32.2811858, "lon": 34.8619521, "tags": {"amenity": "restaurant", "cuisine": "kebab", "name": "\u05d2\u05d7\u05dc\u05d9\u05dd", "name:en": "Gehalim", "name:he": "\u05d2\u05d7\u05dc\u05d9\u05dd"}}, {"type": "node", "id": 3646813272, "lat": 32.2812074, "lon": 34.8618467, "tags": {"amenity": "restaurant", "cuisine": "regional", "name": "\u05d1\u05d9\u05ea \u05d4\u05d2\u05e8\u05d9\u05dc", "name:en": "The Grill House", "name:en1": "Beit HaGrill", "name:he": "\u05d1\u05d9\u05ea \u05d4\u05d2\u05e8\u05d9\u05dc"}}, {"type": "node", "id": 3646815806, "lat": 32.2809986, "lon": 34.8625891, "tags": {"amenity": "restaurant", "cuisine": "regional", "name": "\u05e6'\u05e6\u05d5", "name:en": "Chacho", "name:he": "\u05e6'\u05e6\u05d5"}}, {"type": "node", "id": 3646818523, "lat": 32.2829663, "lon": 34.8637836, "tags": {"amenity": "restaurant", "cuisine": "italian", "name": "\u05de\u05d0\u05de\u05d0\u05e8\u05d5\u05e0\u05d9", "name:en": "Mamaroni", "name:he": "\u05de\u05d0\u05de\u05d0\u05e8\u05d5\u05e0\u05d9"}}, {"type": "node", "id": 3679087627, "lat": 32.1620234, "lon": 34.8093658, "tags": {"amenity": "restaurant", "name": "\u05dc\u05d9\u05d1", "name:en": "Liv", "name:he": "\u05dc\u05d9\u05d1", "website": "https://www.liv-foodmakers.co.il/"}}, {"type": "node", "id": 3729244472, "lat": 32.1444167, "lon": 34.8938908, "tags": {"amenity": "restaurant", "cuisine": "italian", "name": "NONO", "name:en": "NONO"}}, {"type": "node", "id": 3731829942, "lat": 32.4431495, "lon": 34.8781108}, {"type": "node", "id": 3731829943, "lat": 32.4431522, "lon": 34.878249}, {"type": "node", "id": 3731829947, "lat": 32.4433131, "lon": 34.8781064}, {"type": "node", "id": 3731829948, "lat": 32.4433153, "lon": 34.8782181}, {"type": "node", "id": 3731829949, "lat": 32.4433158, "lon": 34.8782445}, {"type": "node", "id": 3731829965, "lat": 32.4435155, "lon": 34.8786007}, {"type": "node", "id": 3731829966, "lat": 32.4435216, "lon": 34.8787145}, {"type": "node", "id": 3731829974, "lat": 32.4436194, "lon": 34.8785028}, {"type": "node", "id": 3731829978, "lat": 32.4436401, "lon": 34.878759}, {"type": "node", "id": 3731829983, "lat": 32.4437435, "lon": 34.8785607}, {"type": "node", "id": 3731829984, "lat": 32.4437435, "lon": 34.8786699}, {"type": "node", "id": 3734869708, "lat": 32.3062884, "lon": 34.8689816, "tags": {"amenity": "cafe", "cuisine": "coffee_shop", "name": "\u05dc\u05e0\u05d3\u05d5\u05d5\u05e8", "name:en": "Landwer", "name:he": "\u05dc\u05e0\u05d3\u05d5\u05d5\u05e8"}}, {"type": "node", "id": 3735433855, "lat": 32.573743, "lon": 34.9541377, "tags": {"amenity": "restaurant", "cuisine": "italian", "name": "\u05d3\u05d5\u05e0\u05d4 \u05d2\u05e8\u05d0\u05e6\u05d9\u05d4", "name:en": "Donna Gracia", "name:he": "\u05d3\u05d5\u05e0\u05d4 \u05d2\u05e8\u05d0\u05e6\u05d9\u05d4"}}, {"type": "node", "id": 3758649796, "lat": 32.5198162, "lon": 35.0024726, "tags": {"amenity": "restaurant"}}, {"type": "node", "id": 3893101964, "lat": 32.5707458, "lon": 34.9319882, "tags": {"amenity": "cafe", "name": "\u05d4\u05ea\u05d7\u05e0\u05d4 \u05d4\u05d9\u05e9\u05e0\u05d4", "name:en": "The old station", "name:he": "\u05d4\u05ea\u05d7\u05e0\u05d4 \u05d4\u05d9\u05e9\u05e0\u05d4"}}, {"type": "node", "id": 4100001396, "lat": 32.3276979, "lon": 34.8583232, "tags": {"amenity": "cafe", "name": "\u05e7\u05d5\u05e4\u05d9\u05e7\u05e1", "name:en": "Cofix", "name:he": "\u05e7\u05d5\u05e4\u05d9\u05e7\u05e1"}}, {"type": "node", "id": 4100026990, "lat": 32.3280446, "lon": 34.8542844, "tags": {"amenity": "cafe", "name": "Cofix", "name:en": "Cofix"}}, {"type": "node", "id": 4100027290, "lat": 32.3286059, "lon": 34.8562025, "tags": {"amenity": "cafe", "name": "Juice Bar", "name:en": "juice bar"}}, {"type": "node", "id": 4113925758, "lat": 32.3846047, "lon": 35.0377052, "tags": {"addr:city": "\u05de\u05d2\u05dc", "addr:postcode": "3884500", "amenity": "restaurant", "capacity": "250", "delivery": "yes", "name": "\u05d7\u05d3\u05e8 \u05d0\u05d5\u05db\u05dc (\u05e4\u05ea\u05d5\u05d7)", "name:he": "\u05d7\u05d3\u05e8 \u05d0\u05d5\u05db\u05dc (\u05e4\u05ea\u05d5\u05d7)", "opening_hours": "12:00 - 15:00", "smoking": "no", "takeaway": "yes"}}, {"type": "node", "id": 4118545634, "lat": 32.1440495, "lon": 34.8375325, "tags": {"amenity": "cafe", "cuisine": "coffee_shop", "name": "\u05e7\u05e4\u05d4 \u05dc\u05d5\u05e8\u05df", "name:en": "Lorren cafe", "name:he": "\u05e7\u05e4\u05d4 \u05dc\u05d5\u05e8\u05df"}}, {"type": "node", "id": 4118545639, "lat": 32.1473515, "lon": 34.8389219, "tags": {"amenity": "restaurant", "name": "XO", "name:en": "XO"}}, {"type": "node", "id": 4136127089, "lat": 32.1853413, "lon": 34.8546716, "tags": {"addr:city": "\u05e8\u05e2\u05e0\u05e0\u05d4", "addr:housenumber": "282", "addr:street": "\u05d0\u05d7\u05d5\u05d6\u05d4", "amenity": "restaurant", "cuisine": "italian", "delivery": "yes", "name": "\u05d2'\u05d5\u05d9\u05d4", "name:en": "Joya", "name:he": "\u05d2'\u05d5\u05d9\u05d4", "outdoor_seating": "yes", "takeaway": "yes"}}, {"type": "node", "id": 4144727189, "lat": 32.433994, "lon": 34.9094674, "tags": {"amenity": "restaurant", "name": "\u05e1\u05de\u05d9 \u05d1\u05db\u05d9\u05db\u05e8", "name:en": "Sami Bakikar", "name:he": "\u05e1\u05de\u05d9 \u05d1\u05db\u05d9\u05db\u05e8"}}, {"type": "node", "id": 4196782637, "lat": 32.5735995, "lon": 34.9537064, "tags": {"amenity": "restaurant", "name": "\u05e6'\u05d9\u05e4 \u05e6'\u05e7", "name:en": "Chip Chuck", "name:he": "\u05e6'\u05d9\u05e4 \u05e6'\u05e7"}}, {"type": "node", "id": 4196782641, "lat": 32.5720335, "lon": 34.9541688, "tags": {"amenity": "cafe", "cuisine": "coffee_shop", "name": "\u05e7\u05dc\u05d9\u05de\u05e0\u05d2'\u05d0\u05e8\u05d5", "name:en": "Klimanjaro", "name:he": "\u05e7\u05dc\u05d9\u05de\u05e0\u05d2'\u05d0\u05e8\u05d5"}}, {"type": "node", "id": 4232085389, "lat": 32.3274777, "lon": 34.8575977, "tags": {"addr:housenumber": "7", "addr:street": "\u05e9\u05e2\u05e8 \u05d4\u05d2\u05d9\u05d0", "amenity": "restaurant", "cuisine": "georgian", "internet_access": "wlan", "name": "Batumi Georgian Restaurant", "name:en": "Batumi Georgian Restaurant", "name:ru": "\u0420\u0435\u0441\u0442\u043e\u0440\u0430\u043d \u0433\u0440\u0443\u0437\u0438\u043d\u0441\u043a\u043e\u0439 \u043a\u0443\u0445\u043d\u0438 \"\u0411\u0430\u0442\u0443\u043c\u0438\"", "operator": "\u042e\u0440\u0438\u0439 \u0413\u0440\u0438\u043d\u0431\u0435\u0440\u0433", "phone": "054-461-6051", "website": "https://www.batumicity.co.il"}}, {"type": "node", "id": 4257621973, "lat": 32.1464743, "lon": 34.8858429}, {"type": "node", "id": 4257621974, "lat": 32.1464788, "lon": 34.8860146}, {"type": "node", "id": 4257621985, "lat": 32.1465784, "lon": 34.8858391}, {"type": "node", "id": 4257621986, "lat": 32.146583, "lon": 34.8860108}, {"type": "node", "id": 4294278190, "lat": 32.4111767, "lon": 35.0625117, "tags": {"amenity": "cafe", "name": "\u0644\u064a\u0627\u0644\u064a \u0628\u0644\u062f\u0646\u0627"}}, {"type": "node", "id": 4303076489, "lat": 32.3308468, "lon": 34.8516353, "tags": {"amenity": "restaurant", "cuisine": "pizza", "name": "Pizza Hut", "name:en": "Pizza Hut"}}, {"type": "node", "id": 4329919690, "lat": 32.4071923, "lon": 34.8684558, "tags": {"amenity": "restaurant", "name": "Mikhmoret", "name:en": "Mikhmoret"}}, {"type": "node", "id": 4362814197, "lat": 32.151498, "lon": 34.8413646, "tags": {"amenity": "restaurant", "contact:phone": "+972779972420", "cuisine": "sushi", "name": "\u05e1\u05d5\u05e9\u05d9 \u05d1\u05e8", "name:en": "Sushi Bar", "name:he": "\u05e1\u05d5\u05e9\u05d9 \u05d1\u05e8", "survey:date": "2023-01-25"}}, {"type": "node", "id": 4363446773, "lat": 32.5020265, "lon": 34.927204, "tags": {"amenity": "restaurant", "cuisine": "pizza", "name": "Pizza Hut", "name:en": "Pizza Hut"}}, {"type": "node", "id": 4363446779, "lat": 32.5020385, "lon": 34.9266796, "tags": {"amenity": "restaurant", "cuisine": "chinese", "name": "Wok & Roll", "name:en": "Wok & Roll"}}, {"type": "node", "id": 4375364692, "lat": 32.5740736, "lon": 34.9544022, "tags": {"amenity": "restaurant", "name": "\u05d3\u05e8\u05da \u05d4\u05d9\u05d9\u05df", "name:en": "Derech Hayain", "name:he": "\u05d3\u05e8\u05da \u05d4\u05d9\u05d9\u05df"}}, {"type": "node", "id": 4376848007, "lat": 32.1646818, "lon": 34.9278585, "tags": {"amenity": "restaurant", "cuisine": "italian", "name": "Goomba", "name:en": "Goomba"}}, {"type": "node", "id": 4376848008, "lat": 32.1645979, "lon": 34.9284474, "tags": {"amenity": "restaurant", "cuisine": "italian", "name": "\u05e7\u05de\u05e4\u05e0\u05d9\u05d4 \u05d1\u05e8 \u05d0\u05d5\u05db\u05dc \u05d0\u05d9\u05d8\u05dc\u05e7\u05d9", "name:he": "\u05e7\u05de\u05e4\u05e0\u05d9\u05d4 \u05d1\u05e8 \u05d0\u05d5\u05db\u05dc \u05d0\u05d9\u05d8\u05dc\u05e7\u05d9"}}, {"type": "node", "id": 4389544083, "lat": 32.4379937, "lon": 34.9152272, "tags": {"amenity": "restaurant", "cuisine": "pizza", "name": "Pizza Hut", "name:en": "Pizza Hut"}}, {"type": "node", "id": 4389544085, "lat": 32.4369249, "lon": 34.9168386, "tags": {"amenity": "restaurant", "name": "\u05e4\u05e1\u05d8\u05d4 \u05dc\u05d5\u05e7\u05d5", "name:en": "Pasta Luco", "name:he": "\u05e4\u05e1\u05d8\u05d4 \u05dc\u05d5\u05e7\u05d5"}}, {"type": "node", "id": 4409268982, "lat": 32.5488117, "lon": 34.9573404, "tags": {"amenity": "restaurant", "name": "\u05ea\u05e9\u05d1\u05d9", "name:en": "Tishbi", "name:he": "\u05ea\u05e9\u05d1\u05d9"}}, {"type": "node", "id": 4409268983, "lat": 32.5559189, "lon": 34.95783, "tags": {"amenity": "restaurant", "cuisine": "burger", "name": "\u05d1\u05d5\u05e8\u05d2\u05e8 \u05e1\u05dc\u05d5\u05df", "name:en": "Burger Salon", "name:he": "\u05d1\u05d5\u05e8\u05d2\u05e8 \u05e1\u05dc\u05d5\u05df", "outdoor_seating": "no"}}, {"type": "node", "id": 4409268984, "lat": 32.526338, "lon": 34.9349848, "tags": {"addr:housenumber": "74", "addr:street": "\u05d4\u05e2\u05e6\u05de\u05d0\u05d5\u05ea", "amenity": "restaurant", "cuisine": "japanese", "diet:vegan": "only", "name": "\u05d8\u05d5\u05e4\u05d5 \u05d0\u05df", "name:en": "Tofu An", "name:he": "\u05d8\u05d5\u05e4\u05d5 \u05d0\u05df", "opening_hours": "Mo-Th 12:00-21:00; Fr 12:00-16:30", "phone": "+972 4 844 4140"}}, {"type": "node", "id": 4417182978, "lat": 32.5250839, "lon": 34.9454934, "tags": {"amenity": "restaurant", "cuisine": "regional", "name": "\u05e4\u05d0\u05dc\u05d5\u05d2\u05d9", "name:en": "Palogi", "name:he": "\u05e4\u05d0\u05dc\u05d5\u05d2\u05d9"}}, {"type": "node", "id": 4447091891, "lat": 32.3125162, "lon": 35.0253837, "tags": {"addr:street": "Al Nozha Street", "amenity": "cafe", "name": "\u0645\u0642\u0647\u0649 \u0641\u0637\u0648\u0645", "name:ar": "\u0645\u0642\u0647\u0649 \u0641\u0637\u0648\u0645"}}, {"type": "node", "id": 4474606917, "lat": 32.5075289, "lon": 34.9196395, "tags": {"amenity": "restaurant", "cuisine": "regional", "name": "\u05d1\u05df \u05d7\u05de\u05d5", "name:en": "Ben Chemmo", "name:he": "\u05d1\u05df \u05d7\u05de\u05d5"}}, {"type": "node", "id": 4479030495, "lat": 32.3124604, "lon": 35.0255664, "tags": {"amenity": "cafe", "internet_access": "wlan", "name": "\u0642\u0647\u0648\u0629 \u0627\u0644\u0645\u0644\u0643", "name:en": "Al Malik"}}, {"type": "node", "id": 4480010876, "lat": 32.260044, "lon": 34.8938778, "tags": {"amenity": "restaurant", "name": "\u05e7\u05e4\u05d4 \u05dc\u05d5\u05d0\u05d9\u05d6", "name:en": "Cafe Louise", "name:he": "\u05e7\u05e4\u05d4 \u05dc\u05d5\u05d0\u05d9\u05d6"}}, {"type": "node", "id": 4480010877, "lat": 32.2595231, "lon": 34.8943082, "tags": {"amenity": "cafe", "brand": "\u05d0\u05e8\u05d5\u05de\u05d4", "brand:en": "Aroma Espresso Bar", "brand:he": "\u05d0\u05e8\u05d5\u05de\u05d4", "brand:wikidata": "Q2909872", "brand:wikipedia": "en:Aroma Espresso Bar", "cuisine": "coffee_shop", "name": "\u05d0\u05e8\u05d5\u05de\u05d4", "name:en": "Aroma", "name:en1": "Aroma Espresso Bar", "name:he": "\u05d0\u05e8\u05d5\u05de\u05d4", "takeaway": "yes"}}, {"type": "node", "id": 4485480595, "lat": 32.1647546, "lon": 34.8235375, "tags": {"amenity": "cafe", "brand": "\u05d0\u05e8\u05d5\u05de\u05d4", "brand:en": "Aroma Espresso Bar", "brand:he": "\u05d0\u05e8\u05d5\u05de\u05d4", "brand:wikidata": "Q2909872", "cuisine": "coffee_shop", "internet_access": "yes", "name": "\u05d0\u05e8\u05d5\u05de\u05d4", "name:en": "Aroma Espresso Bar", "name:he": "\u05d0\u05e8\u05d5\u05de\u05d4", "takeaway": "yes"}}, {"type": "node", "id": 4485480599, "lat": 32.1652211, "lon": 34.8242427, "tags": {"amenity": "cafe", "brand": "Arcaffe", "brand:en": "Arcaffe", "brand:he": "\u05d0\u05e8\u05e7\u05e4\u05d4", "brand:wikidata": "Q2897147", "cuisine": "coffee_shop", "internet_access": "yes", "name": "Arcaffe", "name:en": "Arcaffe", "name:he": "\u05d0\u05e8\u05e7\u05e4\u05d4", "takeaway": "yes"}}, {"type": "node", "id": 4488634669, "lat": 32.2632622, "lon": 34.928012, "tags": {"amenity": "restaurant", "name": "\u05e9\u05e8\u05d9\u05e0\u05d4 \u05e9\u05d5\u05e7\u05d5\u05dc\u05d3", "name:en": "Sarina Chocolate", "name:he": "\u05e9\u05e8\u05d9\u05e0\u05d4 \u05e9\u05d5\u05e7\u05d5\u05dc\u05d3"}}, {"type": "node", "id": 4515612189, "lat": 32.4355583, "lon": 34.9001833, "tags": {"amenity": "restaurant", "name": "\u05d1\u05d9\u05e2\u05e8", "name:en": "Bayaar", "name:he": "\u05d1\u05d9\u05e2\u05e8"}}, {"type": "node", "id": 4517800590, "lat": 32.1964708, "lon": 34.9698026, "tags": {"addr:street": "AlSabe' St", "amenity": "cafe", "cuisine": "asian", "internet_access": "wlan", "name": "\u0627\u0633\u062a\u0631\u0627\u062d\u0647 \u062d\u0644\u0648\u0627\u0646", "name:ar": "\u0627\u0633\u062a\u0631\u0627\u062d\u0647 \u062d\u0644\u0648\u0627\u0646", "name:en": "Helwan cafe", "opening_hours": "24/7", "operator": "Helwan"}}, {"type": "node", "id": 4520425989, "lat": 32.3298842, "lon": 34.8527309, "tags": {"amenity": "restaurant", "name": "\u05e4\u05e8\u05d5\u05d2\u05d9\u05e0\u05d5", "name:en": "Perugino", "name:he": "\u05e4\u05e8\u05d5\u05d2\u05d9\u05e0\u05d5"}}, {"type": "node", "id": 4520426289, "lat": 32.3299421, "lon": 34.8517422, "tags": {"amenity": "cafe", "name:en": "Brioche"}}, {"type": "node", "id": 4559468235, "lat": 32.4507285, "lon": 34.9096365, "tags": {"amenity": "restaurant", "cuisine": "burger", "name": "\u05e8\u05e4\u05d9 \u05d1\u05e6\u05d5\u05de\u05ea", "name:en": "Rafi Batzomet", "name:he": "\u05e8\u05e4\u05d9 \u05d1\u05e6\u05d5\u05de\u05ea"}}, {"type": "node", "id": 4610796689, "lat": 32.1879234, "lon": 34.9652952, "tags": {"addr:postcode": "00972", "amenity": "restaurant", "name": "\u0645\u0637\u0639\u0645 \u0648\u064a\u0646\u0631\u0632 \u0644\u0644\u0634\u0627\u0648\u0631\u0645\u0627", "name:ar": "\u0645\u0637\u0639\u0645 \u0648\u064a\u0646\u0631\u0632 \u0644\u0644\u0634\u0627\u0648\u0631\u0645\u0627", "name:en": "Winners Restaurant", "opening_hours": "Mo-Su 09:00-22:00", "phone": "092947947", "website": "http://www.Facebook.com/Winners.Restaurant"}}, {"type": "node", "id": 4611517060, "lat": 32.1577515, "lon": 34.8941877, "tags": {"addr:city": "\u05d4\u05d5\u05d3 \u05d4\u05e9\u05e8\u05d5\u05df", "addr:housenumber": "48", "addr:postcode": "4532504", "addr:street": "\u05d3\u05e8\u05da \u05e8\u05de\u05ea\u05d9\u05d9\u05dd", "amenity": "cafe", "cuisine": "bakery_cafe", "name": "\u05d5\u05d9\u05dc\u05d4\u05d9\u05d9\u05dd", "name:en": "Wilheim", "name:he": "\u05d5\u05d9\u05dc\u05d4\u05d9\u05d9\u05dd", "opening_hours": "Su-Th 05:30-19:30; Fr 05:30-15:00", "phone": "+972-09-743-43-50", "website": "https://www.wilheim-bakery.co.il/"}}, {"type": "node", "id": 4616625768, "lat": 32.5724212, "lon": 34.943632, "tags": {"amenity": "restaurant", "name": "\u05e7\u05d0\u05d6\u05d4 \u05d1\u05e8\u05d5\u05e0\u05d4", "name:en": "Kaza Barone", "name:he": "\u05e7\u05d0\u05d6\u05d4 \u05d1\u05e8\u05d5\u05e0\u05d4"}}, {"type": "node", "id": 4625046175, "lat": 32.5722475, "lon": 34.9537686}, {"type": "node", "id": 4625046176, "lat": 32.572247, "lon": 34.9539374}, {"type": "node", "id": 4625046177, "lat": 32.5721177, "lon": 34.9539369}, {"type": "node", "id": 4625046178, "lat": 32.5721182, "lon": 34.9537681}, {"type": "node", "id": 4628582220, "lat": 32.1694327, "lon": 34.8225051}, {"type": "node", "id": 4628582221, "lat": 32.1694021, "lon": 34.8225602}, {"type": "node", "id": 4628582222, "lat": 32.1692943, "lon": 34.8226594}, {"type": "node", "id": 4628582223, "lat": 32.1692733, "lon": 34.8226324}, {"type": "node", "id": 4628582224, "lat": 32.1693385, "lon": 34.8225589}, {"type": "node", "id": 4628582225, "lat": 32.169376, "lon": 34.8224717}, {"type": "node", "id": 4628582272, "lat": 32.1737363, "lon": 34.8282244, "tags": {"amenity": "cafe", "name": "\u05e4\u05d0\u05e8\u05e7\u05e8", "name:en": "Parker", "name:he": "\u05e4\u05d0\u05e8\u05e7\u05e8"}}, {"type": "node", "id": 4650920889, "lat": 32.193511, "lon": 34.9677439, "tags": {"amenity": "restaurant", "name": "\u0645\u0637\u0639\u0645 \u0627\u0628\u0648 \u0647\u064a\u062b\u0645", "name:ar": "\u0645\u0637\u0639\u0645 \u0627\u0628\u0648 \u0647\u064a\u062b\u0645", "name:en": "Abo Haytham restaurant", "opening_hours": "Sa-Th 09:00-12:00"}}, {"type": "node", "id": 4665644315, "lat": 32.1634204, "lon": 34.8302108, "tags": {"amenity": "restaurant", "cuisine": "arab"}}, {"type": "node", "id": 4684139263, "lat": 32.5211895, "lon": 34.9491888, "tags": {"amenity": "cafe", "name": "Aviva La Petit Patisserie", "name:en": "Aviva La Petit Patisserie"}}, {"type": "node", "id": 4684139267, "lat": 32.5171908, "lon": 34.9502837, "tags": {"addr:housenumber": "5", "addr:street": "\u05e9\u05e9\u05ea \u05d4\u05d9\u05de\u05d9\u05dd", "amenity": "restaurant", "cuisine": "burger", "name": "Meat & Eat", "name:en": "Meat & Eat"}}, {"type": "node", "id": 4693253351, "lat": 32.522964, "lon": 34.9469039, "tags": {"amenity": "cafe", "name": "\u05e7\u05e4\u05d4 \u05dc\u05d5\u05d0\u05d9\u05d6", "name:en": "Cafe Louise", "name:he": "\u05e7\u05e4\u05d4 \u05dc\u05d5\u05d0\u05d9\u05d6"}}, {"type": "node", "id": 4693253359, "lat": 32.5174882, "lon": 34.9402764, "tags": {"amenity": "restaurant", "cuisine": "italian", "name": "\u05e4\u05e1\u05d8\u05dc'\u05d4", "name:en": "Pastalle", "name:he": "\u05e4\u05e1\u05d8\u05dc'\u05d4"}}, {"type": "node", "id": 4703496889, "lat": 32.2827018, "lon": 35.0534483, "tags": {"amenity": "restaurant", "fixme": "name, name:en mismatch. Flagged by SafwatHalaby_bot-nameCopy. name, name:en mismatch. Flagged by SafwatHalaby_bot-nameCopy", "name": "Ma'ozoz Restaurant", "name:ar": "\u0627\u0633\u062a\u0631\u0627\u062d\u0629 \u0632\u0631\u0628 \u0648\u0645\u0634\u0627\u0648\u064a \u0645\u0639\u0632\u0648\u0632", "name:en": "\u0632\u0631\u0628 \u0648\u0645\u0634\u0627\u0648\u064a \u0645\u0639\u0632\u0648\u0632"}}, {"type": "node", "id": 4705386692, "lat": 32.3164664, "lon": 35.0305349, "tags": {"addr:street": "Nablus Street", "amenity": "restaurant", "name": "Ce la vie", "name:ar": "Ce la vie"}}, {"type": "node", "id": 4705556590, "lat": 32.3171273, "lon": 35.0288813, "tags": {"amenity": "cafe", "name:en": "Barqaue Nuts"}}, {"type": "node", "id": 4741608322, "lat": 32.337066, "lon": 35.023587, "tags": {"amenity": "cafe", "name": "\u0641\u0648\u0632\u064a \u0639\u064a\u0633\u0649 \u0645\u0647\u062f\u0627\u0648\u064a", "name:ar": "\u0641\u0648\u0632\u064a \u0639\u064a\u0633\u0649 \u0645\u0647\u062f\u0627\u0648\u064a"}}, {"type": "node", "id": 4751182121, "lat": 32.3139409, "lon": 35.0275039, "tags": {"amenity": "restaurant", "name": "\u0647\u0646\u064a \u0647\u0646\u064a", "name:ar": "\u0647\u0646\u064a \u0647\u0646\u064a"}}, {"type": "node", "id": 4752299821, "lat": 32.1686133, "lon": 34.8424519, "tags": {"amenity": "restaurant", "brand": "Pizza Hut", "brand:wikidata": "Q191615", "check_date": "2023-10-28", "cuisine": "pizza", "name": "Pizza Hut", "name:en": "Pizza Hut"}}, {"type": "node", "id": 4752923929, "lat": 32.3269886, "lon": 35.0297682, "tags": {"amenity": "cafe", "name:en": "Razi cafe"}}, {"type": "node", "id": 4752923930, "lat": 32.3220591, "lon": 35.0289463, "tags": {"amenity": "cafe", "name:en": "H. Dabboor cafe"}}, {"type": "node", "id": 4752981722, "lat": 32.3181732, "lon": 35.0291213, "tags": {"amenity": "restaurant", "name": "\u0645\u0637\u0639\u0645 \u062a\u0646\u0648\u0631\u064a\u0646"}}, {"type": "node", "id": 4752981723, "lat": 32.3139257, "lon": 35.0267146, "tags": {"amenity": "restaurant", "name": "\u0634\u0627\u0648\u0631\u0645\u0627 \u0627\u0628\u0648 \u062d\u0628\u0644\u0629", "name:ar": "\u0634\u0627\u0648\u0631\u0645\u0627 \u0627\u0628\u0648 \u062d\u0628\u0644\u0629"}}, {"type": "node", "id": 4772315489, "lat": 32.1767457, "lon": 34.8937169, "tags": {"addr:city": "\u05db\u05e4\u05e8 \u05e1\u05d1\u05d0", "amenity": "restaurant", "cuisine": "regional", "delivery": "yes", "name": "\u05e9\u05d5\u05d5\u05d0\u05e8\u05de\u05d4 \u05e0\u05d5\u05e0\u05d4", "name:en": "Nona", "name:he": "\u05e9\u05d5\u05d5\u05d0\u05e8\u05de\u05d4 \u05e0\u05d5\u05e0\u05d4", "takeaway": "yes"}}, {"type": "node", "id": 4783333744, "lat": 32.4870665, "lon": 34.9102894, "tags": {"amenity": "cafe", "name": "\u05d0\u05e8\u05e7\u05e4\u05d4", "name:en": "Arcaffe", "name:he": "\u05d0\u05e8\u05e7\u05e4\u05d4"}}, {"type": "node", "id": 4791845721, "lat": 32.3837484, "lon": 34.8667465, "tags": {"amenity": "restaurant", "name": "\u05d1\u05d9\u05ea \u05d4\u05e4\u05e0\u05e7\u05d9\u05d9\u05e7", "name:en": "Pancake house", "name:he": "\u05d1\u05d9\u05ea \u05d4\u05e4\u05e0\u05e7\u05d9\u05d9\u05e7", "operator": "\u05db\u05e4\u05e8 \u05d5\u05d9\u05ea\u05e7\u05d9\u05df"}}, {"type": "node", "id": 4793164923, "lat": 32.331053, "lon": 34.8512025, "tags": {"amenity": "restaurant", "cuisine": "russian", "name:en": "Golden Lane", "name:ru": "\u0417\u043e\u043b\u043e\u0442\u0430\u044f \u0442\u0440\u043e\u043f\u0438\u043d\u043a\u0430"}}, {"type": "node", "id": 4831544321, "lat": 32.1486298, "lon": 34.830424, "tags": {"addr:city": "\u05e8\u05de\u05ea \u05d4\u05e9\u05e8\u05d5\u05df", "addr:housenumber": "5", "addr:street": "\u05d9\u05e6\u05d7\u05e7 \u05d0\u05dc\u05d7\u05e0\u05df", "alt_name:en": "Crema Cafe;Crema Cafe", "amenity": "restaurant", "cuisine": "coffee_shop", "internet_access": "wlan", "name": "\u05e7\u05e4\u05d4 \u05e7\u05e8\u05de\u05d4", "name:en": "Crema Cafe", "name:he": "\u05e7\u05e4\u05d4 \u05e7\u05e8\u05de\u05d4", "outdoor_seating": "yes", "phone": "+97235409430", "website": "https://www.cremacafe.co.il/"}}, {"type": "node", "id": 4832027921, "lat": 32.1786468, "lon": 34.905993, "tags": {"amenity": "restaurant", "name": "\u05d4\u05de\u05d3\u05e8\u05d7\u05d5\u05d1", "name:en": "The pedestrian mall", "name:he": "\u05d4\u05de\u05d3\u05e8\u05d7\u05d5\u05d1"}}, {"type": "node", "id": 4854267522, "lat": 32.3299003, "lon": 34.8499073, "tags": {"amenity": "restaurant", "name": "\u05e8\u05d3 \u05d1\u05e8 \u05d1\u05d5\u05e8\u05d2\u05e8", "name:en": "Red Bar Burger", "name:he": "\u05e8\u05d3 \u05d1\u05e8 \u05d1\u05d5\u05e8\u05d2\u05e8", "website": "http://redbar.co.il/"}}, {"type": "node", "id": 4862265721, "lat": 32.420609, "lon": 35.0418974, "tags": {"addr:city": "\u0628\u0627\u0642\u0629 \u0627\u0644\u063a\u0631\u0628\u064a\u0629", "amenity": "restaurant", "name": "\u0634\u0648\u0627\u0631\u0645\u0627 \u0623\u0628\u0648 \u0634\u0642\u064a\u0631", "name:ar": "\u0634\u0648\u0627\u0631\u0645\u0627 \u0623\u0628\u0648 \u0634\u0642\u064a\u0631"}}, {"type": "node", "id": 4872877863, "lat": 32.3826949, "lon": 34.867437, "tags": {"amenity": "restaurant", "cuisine": "asian", "name": "\u05d2'\u05d0\u05e4\u05e0\u05d9\u05e7\u05d4", "name:en": "Japanika", "name:he": "\u05d2'\u05d0\u05e4\u05e0\u05d9\u05e7\u05d4", "opening_hours": "Su-Fr 12:00-24:00", "website": "https://japanika.net/"}}, {"type": "node", "id": 4906521523, "lat": 32.165818, "lon": 34.821522}, {"type": "node", "id": 4906521524, "lat": 32.1655613, "lon": 34.8216336}, {"type": "node", "id": 4906521525, "lat": 32.1655217, "lon": 34.8215067}, {"type": "node", "id": 4906521526, "lat": 32.1657785, "lon": 34.821395}, {"type": "node", "id": 4934543289, "lat": 32.4647657, "lon": 34.919946, "tags": {"amenity": "cafe"}}, {"type": "node", "id": 4934543290, "lat": 32.4647725, "lon": 34.9197489, "tags": {"amenity": "restaurant"}}, {"type": "node", "id": 4946874639, "lat": 32.2885536, "lon": 35.0280666, "tags": {"addr:city": "Tulkarm", "addr:street": "Faroun \u0641\u0631\u0639\u0648\u0646", "amenity": "restaurant", "name": "\u0645\u0637\u0639\u0645 \u0639\u0637\u0627\u0641 \u0644\u0644\u0641\u0644\u0627\u0641\u0644"}}, {"type": "node", "id": 4953722822, "lat": 32.1930969, "lon": 34.9803698, "tags": {"addr:street": "Nablus St", "amenity": "restaurant", "cuisine": "burger;sandwich;breakfast;fish_and_chips;diner;tea", "name": "\u0645\u0637\u0639\u0645 \u062f\u0631\u0648\u064a\u0634 \u0646\u0632\u0627\u0644", "name:ar": "\u0645\u0637\u0639\u0645 \u062f\u0631\u0648\u064a\u0634 \u0646\u0632\u0627\u0644", "name:en": "Darwish Nazal Restaurant"}}, {"type": "node", "id": 4962532212, "lat": 32.24839, "lon": 34.8363832, "tags": {"amenity": "restaurant", "cuisine": "mediterranean", "name": "\u05d4\u05e4\u05e8\u05dc\u05de\u05e0\u05d8", "name:en": "The Parliament", "name:he": "\u05d4\u05e4\u05e8\u05dc\u05de\u05e0\u05d8", "outdoor_seating": "yes"}}, {"type": "node", "id": 4962532213, "lat": 32.2484603, "lon": 34.836292, "tags": {"amenity": "restaurant", "cuisine": "burger", "name": "\u05d1\u05d5\u05e8\u05d2\u05e8 \u05e1\u05dc\u05d5\u05df", "name:en": "Burger Saloon", "name:he": "\u05d1\u05d5\u05e8\u05d2\u05e8 \u05e1\u05dc\u05d5\u05df", "outdoor_seating": "yes", "takeaway": "yes"}}, {"type": "node", "id": 4983224851, "lat": 32.2203483, "lon": 34.8283989, "tags": {"amenity": "restaurant", "level": "1", "name": "Abu Gosh Lebanese", "name:en": "Abu Gosh Lebanese", "name:he": "\u05d4\u05dc\u05d1\u05e0\u05d5\u05e0\u05d9\u05ea \u05d0\u05d1\u05d5 \u05d2\u05d5\u05e9"}}, {"type": "node", "id": 5022694522, "lat": 32.3072583, "lon": 35.0282394, "tags": {"amenity": "restaurant", "name": "\u0641\u0644\u0627\u0641\u0644 \u0627\u0644\u0633\u0644\u0645\u0627\u0646", "name:ar": "\u0641\u0644\u0627\u0641\u0644 \u0627\u0644\u0633\u0644\u0645\u0627\u0646"}}, {"type": "node", "id": 5038899421, "lat": 32.314676, "lon": 35.0285819, "tags": {"amenity": "cafe", "name": "\u0645\u0642\u0647\u0649 \u0627\u0644\u062e\u0641\u0634", "name:ar": "\u0645\u0642\u0647\u0649 \u0627\u0644\u062e\u0641\u0634", "name:en": "Al-khwfash caf\u00e9"}}, {"type": "node", "id": 5103862127, "lat": 32.319027, "lon": 35.0244684, "tags": {"addr:street": "Al-Awda Street", "amenity": "cafe", "cuisine": "arab", "internet_access": "wlan", "name": "\u0633\u0641\u0646 \u0646\u064a\u0631\u0648 \u062c\u064a\u0644\u0627\u062a\u0648", "name:en": "7Nero cafe & Gelato", "opening_hours": "Sa-Th 10:00-23:59; Fr 16:00-01:00"}}, {"type": "node", "id": 5180352222, "lat": 32.1560471, "lon": 34.8914935, "tags": {"addr:housenumber": "14", "addr:street": "\u05d4\u05d1\u05e0\u05d9\u05dd", "amenity": "restaurant", "cuisine": "seafood;french", "diet:kosher": "no", "internet_access": "wlan", "name": "\u05d0\u05e0\u05d2'\u05dc\u05d9\u05e0\u05d4", "name:en": "Angelina", "name:he": "\u05d0\u05e0\u05d2'\u05dc\u05d9\u05e0\u05d4", "name:ru": "\u0410\u043d\u0433\u0435\u043b\u0438\u043d\u0430", "opening_hours": "Su-Fr 07:30-00:00; Sa 10:00-00:00", "phone": "097441444", "toilets:wheelchair": "yes", "website": "http://angelinabistro.co.il", "wheelchair": "yes"}}, {"type": "node", "id": 5186668791, "lat": 32.3836762, "lon": 34.8666288, "tags": {"amenity": "cafe", "name": "\u05d0\u05e8\u05d5\u05de\u05d4", "name:en": "Aroma", "name:he": "\u05d0\u05e8\u05d5\u05de\u05d4"}}, {"type": "node", "id": 5220296520, "lat": 32.4375841, "lon": 34.921679, "tags": {"amenity": "cafe", "cuisine": "coffee_shop", "name": "\u05d2\u05e8\u05d2 \u05e7\u05e4\u05d4", "name:en": "Gregg Cafe", "name:he": "\u05d2\u05e8\u05d2 \u05e7\u05e4\u05d4"}}, {"type": "node", "id": 5221052475, "lat": 32.569542, "lon": 34.9331424, "tags": {"amenity": "restaurant", "cuisine": "burger", "name": "\u05d1\u05dc\u05d0\u05e7", "name:en": "Black", "name:he": "\u05d1\u05dc\u05d0\u05e7", "outdoor_seating": "yes", "phone": "+97246671719", "website": "https://blackbarburger.co.il/portfolio/\u05d6\u05db\u05e8\u05d5\u05df-\u05d9\u05e2\u05e7\u05d1/"}}, {"type": "node", "id": 5237135822, "lat": 32.3028581, "lon": 35.0298845, "tags": {"addr:street": "Al Salam", "amenity": "restaurant", "cuisine": "coffee_shop", "internet_access": "wlan", "name": "\u0645\u0627\u0643\u064a\u062a\u0648 \u0643\u0627\u0641\u064a\u0647", "name:en": "Makito Cafe", "opening_hours": "Mo-Su 09:00-00:00"}}, {"type": "node", "id": 5284522121, "lat": 32.1576219, "lon": 34.8421409, "tags": {"amenity": "cafe", "cuisine": "italian", "internet_access": "wlan", "name": "\u05d1\u05dc\u05d9\u05e7\u05e8 \u05e1\u05d8\u05e8\u05d9\u05d8", "name:en": "Bleecker Street", "name:he": "\u05d1\u05dc\u05d9\u05e7\u05e8 \u05e1\u05d8\u05e8\u05d9\u05d8", "opening_hours": "Su-Fr 08:00-00:00; Sa 09:00-00:00", "website": "https://bleeckerstreet.co.il/"}}, {"type": "node", "id": 5286792922, "lat": 32.3177, "lon": 34.8575832, "tags": {"amenity": "restaurant"}}, {"type": "node", "id": 5297825982, "lat": 32.1491469, "lon": 34.8397755, "tags": {"amenity": "cafe"}}, {"type": "node", "id": 5313160423, "lat": 32.3794267, "lon": 35.065435, "tags": {"amenity": "cafe", "name": "Taj caffee"}}, {"type": "node", "id": 5320254647, "lat": 32.5696889, "lon": 34.9334246, "tags": {"amenity": "restaurant", "cuisine": "italian", "name": "\u05d5\u05d5\u05d9\u05d5\u05d9\u05e0\u05d5", "name:en": "Vivino", "name:he": "\u05d5\u05d5\u05d9\u05d5\u05d9\u05e0\u05d5"}}, {"type": "node", "id": 5338856590, "lat": 32.2776196, "lon": 34.8474028, "tags": {"addr:city": "\u05e0\u05ea\u05e0\u05d9\u05d4", "addr:housenumber": "2", "addr:street": "\u05d1\u05e0\u05d9 \u05d1\u05e8\u05de\u05df", "amenity": "restaurant", "brand": "Black Bar Burger", "brand:en": "Black Bar Burger", "brand:he": "\u05d1\u05dc\u05d0\u05e7 \u05d1\u05d5\u05e8\u05d2\u05e8", "brand:wikidata": "Q64760158", "cuisine": "burger", "name": "Black", "name:en": "Black", "name:he": "\u05d1\u05dc\u05d0\u05e7", "website": "https://blackbarburger.co.il/"}}, {"type": "node", "id": 5338856901, "lat": 32.2780075, "lon": 34.847291, "tags": {"addr:city": "\u05e0\u05ea\u05e0\u05d9\u05d4", "addr:housenumber": "2", "addr:street": "\u05d1\u05e0\u05d9 \u05d1\u05e8\u05de\u05df", "amenity": "cafe", "brand": "\u05d0\u05e8\u05d5\u05de\u05d4", "brand:en": "Aroma Espresso Bar", "brand:he": "\u05d0\u05e8\u05d5\u05de\u05d4", "brand:wikidata": "Q2909872", "brand:wikipedia": "en:Aroma Espresso Bar", "cuisine": "coffee_shop", "name": "\u05d0\u05e8\u05d5\u05de\u05d4", "name:en": "Aroma", "name:en1": "Aroma Espresso Bar", "name:he": "\u05d0\u05e8\u05d5\u05de\u05d4", "outdoor_seating": "yes", "takeaway": "yes", "website": "https://www.aroma.co.il/"}}, {"type": "node", "id": 5433647723, "lat": 32.3116984, "lon": 35.0268425, "tags": {"addr:street": "Al Nozha Street", "amenity": "restaurant", "name": "Palace"}}, {"type": "node", "id": 5438185457, "lat": 32.573542, "lon": 34.9541161, "tags": {"amenity": "restaurant", "cuisine": "burger", "name": "\u05d2\u05e8\u05d9\u05e0\u05d2\u05d5\u05e1 \u05d2\u05e8\u05d9\u05dc \u05d1\u05e8", "name:en": "Gringos Grill Bar", "name:he": "\u05d2\u05e8\u05d9\u05e0\u05d2\u05d5\u05e1 \u05d2\u05e8\u05d9\u05dc \u05d1\u05e8"}}, {"type": "node", "id": 5438185458, "lat": 32.5727023, "lon": 34.9536664, "tags": {"addr:housenumber": "37", "addr:street": "\u05d4\u05de\u05d9\u05d9\u05e1\u05d3\u05d9\u05dd", "amenity": "restaurant", "name": "\u05d4\u05e0\u05e9\u05d9\u05e7\u05d4", "name:en": "The Kiss", "name:he": "\u05d4\u05e0\u05e9\u05d9\u05e7\u05d4"}}, {"type": "node", "id": 5460213991, "lat": 32.5728503, "lon": 34.9537603, "tags": {"amenity": "restaurant", "name": "\u05e7\u05d5\u05e6'\u05d9\u05e0\u05d4", "name:en": "Manuela", "name:he": "\u05de\u05e0\u05d5\u05d0\u05dc\u05d4"}}, {"type": "node", "id": 5587609423, "lat": 32.5018757, "lon": 34.8898189, "tags": {"amenity": "restaurant", "name:en": "Limani Bistro"}}, {"type": "node", "id": 5619737757, "lat": 32.5350839, "lon": 34.9883753, "tags": {"amenity": "cafe", "cuisine": "coffee_shop", "description": "\u05e4\u05e2\u05d9\u05dc\u05d5\u05ea \u05e2\u05d5\u05e0\u05ea\u05d9\u05ea", "internet_access": "yes", "internet_access:fee": "yes", "name": "Zman Le Coffee", "name:en": "Zman Le Coffee", "opening_hours": "07:00 - 18:00", "outdoor_seating": "yes"}}, {"type": "node", "id": 5636046521, "lat": 32.3180043, "lon": 35.0337234, "tags": {"amenity": "cafe", "name:en": "Bowling"}}, {"type": "node", "id": 5690760183, "lat": 32.1675466, "lon": 34.8424911, "tags": {"amenity": "cafe", "name": "Lounge Bar"}}, {"type": "node", "id": 5705860121, "lat": 32.4805057, "lon": 34.9686, "tags": {"amenity": "restaurant", "name:en": "Blue Bus"}}, {"type": "node", "id": 5711484722, "lat": 32.1722598, "lon": 34.9329859, "tags": {"addr:housenumber": "3", "addr:street": "\u05d4\u05d2\u05e4\u05df", "amenity": "cafe", "fixme": "name, name:he mismatch. Flagged by SafwatHalaby_bot-nameCopy", "name": "\u05d4\u05d2\u05dc\u05e8\u05d9\u05d4 \u05e9\u05dc \u05d0\u05dc\u05de\u05d5\u05d2 - \u05d1\u05d9\u05ea \u05e7\u05e4\u05d4", "name:en": "Almog's gallery - cafe", "name:he": "\u05d4\u05d2\u05dc\u05e8\u05d9\u05d4 \u05e9\u05dc \u05d0\u05dc\u05de\u05d5\u05d2", "phone": "0778838890", "website": "https://agaleriashelalmog.rest.co.il/"}}, {"type": "node", "id": 5755950472, "lat": 32.4304388, "lon": 34.8843022, "tags": {"addr:city": "\u05d7\u05d3\u05e8\u05d4", "addr:housenumber": "1", "addr:street": "\u05d4\u05d3\u05d5\u05d3\u05d0\u05d9\u05dd", "amenity": "restaurant", "capacity": "0", "cuisine": "pizza;regional;sandwich;coffee_shop;ice_cream", "name": "Stationary food truck", "name:en": "Stationary food truck", "opening_hours": "Mo-Sa 08:00-18:00", "outdoor_seating": "yes", "smoking": "outside", "takeaway": "no"}}, {"type": "node", "id": 5861295692, "lat": 32.5659426, "lon": 34.9555163, "tags": {"amenity": "cafe", "cuisine": "coffee_shop", "outdoor_seating": "yes"}}, {"type": "node", "id": 5919098385, "lat": 32.3297967, "lon": 34.8526749, "tags": {"addr:street": "HaRav Kuk", "amenity": "restaurant", "cuisine": "french", "name:en": "Rafaeli arti-cafe", "name:fr": "Rafaeli arti-cafe"}}, {"type": "node", "id": 5974295864, "lat": 32.5176978, "lon": 34.940457, "tags": {"amenity": "restaurant", "cuisine": "burger", "name": "\u05d1\u05d5\u05e8\u05d2\u05e8\u05d9\u05dd", "name:en": "Burgerim", "name:he": "\u05d1\u05d5\u05e8\u05d2\u05e8\u05d9\u05dd"}}, {"type": "node", "id": 5981004616, "lat": 32.4384776, "lon": 34.8906089, "tags": {"amenity": "cafe", "name": "\u05de\u05e4\u05d2\u05e9 \u05d4\u05e0\u05d4\u05d2\u05d9\u05dd", "name:he": "\u05de\u05e4\u05d2\u05e9 \u05d4\u05e0\u05d4\u05d2\u05d9\u05dd", "outdoor_seating": "yes"}}, {"type": "node", "id": 5989968983, "lat": 32.2875036, "lon": 34.9459519, "tags": {"amenity": "restaurant", "cuisine": "pizza", "delivery": "yes", "name": "Pizza Rom", "name:en": "Pizza Rom", "outdoor_seating": "yes", "takeaway": "yes"}}, {"type": "node", "id": 5997890343, "lat": 32.3203995, "lon": 34.8660194, "tags": {"amenity": "cafe", "brand:wikidata": "Q2909872", "brand:wikipedia": "en:Aroma Espresso Bar", "contact:facebook": "https://www.facebook.com/Israel.Aroma", "contact:instagram": "https://www.instagram.com/aromaisrael/", "contact:youtube": "https://www.youtube.com/user/IsraelAroma", "cuisine": "coffee_shop", "name": "\u05d0\u05e8\u05d5\u05de\u05d4 \u05d0\u05e1\u05e4\u05e8\u05e1\u05d5 \u05d1\u05e8", "name:en": "Aroma Espresso Bar", "name:he": "\u05d0\u05e8\u05d5\u05de\u05d4 \u05d0\u05e1\u05e4\u05e8\u05e1\u05d5 \u05d1\u05e8", "website": "https://www.aroma.co.il/"}}, {"type": "node", "id": 6021874435, "lat": 32.5726142, "lon": 34.9536673, "tags": {"amenity": "restaurant", "name": "\u05e0\u05d7\u05de\u05df", "name:en": "Nachman", "name:he": "\u05e0\u05d7\u05de\u05df"}}, {"type": "node", "id": 6027209685, "lat": 32.4112674, "lon": 35.0720262, "tags": {"addr:street": "\u0628\u0627\u0642\u0629 \u0627\u0644\u0634\u0631\u0642\u064a\u0629 \u0627\u0644\u0631\u0626\u064a\u0633\u064a", "amenity": "restaurant", "name": "\u0645\u0637\u0639\u0645 \u0648\u0628\u064a\u062a\u0632\u0627 \u0627\u0644\u0627\u0645\u064a\u0631", "opening_hours": "Mo-Su 08:00-13:00"}}, {"type": "node", "id": 6027209686, "lat": 32.411828, "lon": 35.0665318, "tags": {"addr:street": "\u0628\u0627\u0642\u0629 \u0627\u0644\u0634\u0631\u0642\u064a\u0629. \u0627\u0644\u0634\u0627\u0631\u0639 \u0627\u0644\u0631\u0626\u064a\u0633\u064a. \u0642\u0631\u0628. \u0645\u062d\u0637\u0629. \u062d\u0633\u0646\u064a \u064a\u0648\u0646\u0633 \u0644\u0644\u0648\u0642\u0648\u062f", "amenity": "cafe", "name": "\u0645\u0642\u0647\u0649 \u062a\u0627\u0645\u0631"}}, {"type": "node", "id": 6124456386, "lat": 32.1883658, "lon": 34.9652505, "tags": {"addr:street": "AlSabe' St", "amenity": "restaurant", "name": "\u0645\u0637\u0639\u0645 \u0641\u0631\u0627\u0633"}}, {"type": "node", "id": 6124456387, "lat": 32.1879686, "lon": 34.9652027, "tags": {"addr:street": "AlSabe' St", "amenity": "restaurant", "name": "\u0645\u0637\u0639\u0645 \u0627\u0644\u0639\u0637\u0627\u0631"}}, {"type": "node", "id": 6125055281, "lat": 32.1573557, "lon": 34.8326498, "tags": {"addr:city": "\u05d2\u05dc\u05d9\u05dc \u05d9\u05dd", "amenity": "restaurant", "contact:facebook": "https://www.facebook.com/Micasaglilyam/", "cuisine": "coffee_shop", "diet:kosher": "no", "internet_access": "wlan", "name": "\u05de\u05d9 \u05e7\u05d0\u05e1\u05d4", "name:en": "Mi Casa", "name:he": "\u05de\u05d9 \u05e7\u05d0\u05e1\u05d4", "opening_hours": "Su-Sa 08:00-16:00", "outdoor_seating": "yes", "phone": "+972 9 957 6721", "takeaway": "yes", "website": "https://micasa.rest.co.il/", "wheelchair": "yes"}}, {"type": "node", "id": 6144972685, "lat": 32.3136066, "lon": 35.028372, "tags": {"addr:street": "Paris Street \u0634\u0627\u0631\u0639 \u0628\u0627\u0631\u064a\u0633", "amenity": "restaurant", "name": "\u0645\u0637\u0639\u0645 \u0627\u0644\u062c\u0632\u0627\u0626\u0631", "name:en": "Algeria Restaurant"}}, {"type": "node", "id": 6166977534, "lat": 32.1623422, "lon": 34.8085572, "tags": {"amenity": "restaurant"}}, {"type": "node", "id": 6176770995, "lat": 32.2985832, "lon": 34.9130801}, {"type": "node", "id": 6176770996, "lat": 32.2984835, "lon": 34.9130739}, {"type": "node", "id": 6176770997, "lat": 32.298474, "lon": 34.9132872}, {"type": "node", "id": 6176770998, "lat": 32.2985737, "lon": 34.9132934}, {"type": "node", "id": 6179097911, "lat": 32.1463109, "lon": 34.838336, "tags": {"addr:city": "\u05e8\u05de\u05ea \u05d4\u05e9\u05e8\u05d5\u05df", "addr:housenumber": "4", "addr:street": "\u05e9\u05d3\u05e8\u05d5\u05ea \u05d5\u05d9\u05e6\u05de\u05df", "alt_name": "\u05e1\u05d5\u05d6\u05d5 \u05d0\u05e0\u05d3 \u05e1\u05d5\u05e0\u05e1;\u05e1\u05d5\u05e1\u05d5 \u05d0\u05e0\u05d3 \u05e1\u05d5\u05e0\u05e1;\u05e1\u05d5\u05d6\u05d5 \u05d5\u05d1\u05e0\u05d9\u05d5", "alt_name:en": "SUSU and Sons", "alt_name:he": "\u05e1\u05d5\u05d6\u05d5 \u05d0\u05e0\u05d3 \u05e1\u05d5\u05e0\u05e1;\u05e1\u05d5\u05e1\u05d5 \u05d0\u05e0\u05d3 \u05e1\u05d5\u05e0\u05e1;\u05e1\u05d5\u05d6\u05d5 \u05d5\u05d1\u05e0\u05d9\u05d5", "amenity": "restaurant", "contact:instagram": "https://www.instagram.com/susuandsons/", "cuisine": "burger", "email": "info@susu.co.il", "name": "\u05e1\u05d5\u05e1\u05d5 \u05d5\u05d1\u05e0\u05d9\u05d5", "name:en": "SUSU & Sons", "name:he": "\u05e1\u05d5\u05e1\u05d5 \u05d5\u05d1\u05e0\u05d9\u05d5", "opening_hours": "Su-Sa 12:00+", "website": "https://susu.co.il/"}}, {"type": "node", "id": 6317621785, "lat": 32.317536, "lon": 35.0291809, "tags": {"amenity": "restaurant", "name": "\u0645\u0637\u0639\u0645 \u0648\u0628\u0631\u0648\u0633\u062a \u0627\u0644\u0646\u062c\u0645\u0629"}}, {"type": "node", "id": 6317621786, "lat": 32.3175367, "lon": 35.0289726, "tags": {"addr:street": "Shwaikah", "amenity": "cafe", "name": "\u0645\u0642\u0647\u0649 (\u0642\u0647\u0648\u0629 \u0627\u0644\u0643\u0631\u0627\u062c\u0627\u062a)"}}, {"type": "node", "id": 6317621787, "lat": 32.3165552, "lon": 35.0240768, "tags": {"amenity": "restaurant", "name": "\u0645\u0637\u0639\u0645 \u0643\u064a\u062a\u0627\u0631\u0648"}}, {"type": "node", "id": 6317621885, "lat": 32.3175693, "lon": 35.0291806, "tags": {"addr:street": "\u0634\u0627\u0631\u0639 \u0634\u0648\u064a\u0643\u0629", "amenity": "restaurant", "name": "\u0645\u0639\u062c\u0646\u0627\u062a \u062d\u064a\u0641\u0627"}}, {"type": "node", "id": 6329323366, "lat": 32.1517749, "lon": 34.8427722, "tags": {"amenity": "cafe", "name": "\u05d1\u05d9\u05ea\u05d0", "name:he": "\u05d1\u05d9\u05ea\u05d0"}}, {"type": "node", "id": 6367818125, "lat": 32.1680443, "lon": 34.8429363, "tags": {"addr:city": "\u05d4\u05e8\u05e6\u05dc\u05d9\u05d4", "addr:housenumber": "8", "addr:street": "\u05e9\u05d3\u05e8\u05d5\u05ea \u05d7\"\u05df", "amenity": "cafe", "brand": "\u05e7\u05e4\u05d4 \u05dc\u05e0\u05d3\u05d5\u05d5\u05e8", "brand:en": "Landwer Coffee", "brand:he": "\u05e7\u05e4\u05d4 \u05dc\u05e0\u05d3\u05d5\u05d5\u05e8", "brand:wikidata": "Q6485288", "brand:wikipedia": "he:\u05e7\u05e4\u05d4 \u05dc\u05e0\u05d3\u05d5\u05d5\u05e8", "cuisine": "coffee_shop", "name": "\u05dc\u05e0\u05d3\u05d5\u05d5\u05e8", "name:en": "Landwer", "name:he": "\u05dc\u05e0\u05d3\u05d5\u05d5\u05e8", "outdoor_seating": "yes", "phone": "+972 09748884", "takeaway": "yes", "website": "https://www.landwercafe.co.il/branch/sderot-hen-herzliya/?lang=en"}}, {"type": "node", "id": 6375571385, "lat": 32.3132814, "lon": 35.0292056, "tags": {"addr:street": "Paris Street \u0634\u0627\u0631\u0639 \u0628\u0627\u0631\u064a\u0633", "amenity": "cafe", "name": "\u0645\u0624\u0633\u0633\u0629 \u0639\u0645\u0631 \u0628\u0631\u064a\u0643 \u0627\u0644\u062a\u062c\u0627\u0631\u064a\u0629", "name:en": "Omar Brik Trading Est", "opening_hours": "Sa-Th 07:30-21:00", "phone": "092685974"}}, {"type": "node", "id": 6377471686, "lat": 32.3141753, "lon": 35.0218915, "tags": {"amenity": "restaurant", "name": "\u062c\u0627\u0645\u0639\u0629 \u0627\u0644\u0646\u062c\u0627\u062d \u0643\u0644\u064a\u0629 \u0627\u0644\u0632\u0631\u0627\u0639\u0629"}}, {"type": "node", "id": 6416456697, "lat": 32.1554397, "lon": 34.8891508, "tags": {"addr:street": "\u05d4\u05d1\u05e0\u05d9\u05dd", "amenity": "restaurant", "cuisine": "mediterranean", "name": "\u05d4\u05d1\u05d9\u05ea \u05e9\u05dc \u05d4\u05d7\u05d5\u05de\u05d5\u05e1", "name:he": "\u05d4\u05d1\u05d9\u05ea \u05e9\u05dc \u05d4\u05d7\u05d5\u05de\u05d5\u05e1"}}, {"type": "node", "id": 6464321241, "lat": 32.1513975, "lon": 34.8413036, "tags": {"addr:city": "\u05e8\u05de\u05ea \u05d4\u05e9\u05e8\u05d5\u05df", "addr:housenumber": "111", "addr:street": "\u05e1\u05d5\u05e7\u05d5\u05dc\u05d5\u05d1", "amenity": "restaurant", "brand": "\u05d1\u05d5\u05e8\u05d2\u05e8 \u05e1\u05d0\u05dc\u05d5\u05df", "brand:en": "Burger Saloon", "brand:he": "\u05d1\u05d5\u05e8\u05d2\u05e8 \u05e1\u05d0\u05dc\u05d5\u05df", "brand:website": "https://burgersaloon.co.il/", "brand:wikidata": "Q64760057", "cuisine": "burger", "delivery": "yes", "name": "\u05d1\u05d5\u05e8\u05d2\u05e8 \u05e1\u05d0\u05dc\u05d5\u05df", "name:en": "Burger Saloon", "name:he": "\u05d1\u05d5\u05e8\u05d2\u05e8 \u05e1\u05d0\u05dc\u05d5\u05df", "opening_hours": "Su-Sa 11:00-23:00", "outdoor_seating": "yes", "phone": "+9721700705715", "toilets": "yes", "wheelchair": "limited"}}, {"type": "node", "id": 6468049524, "lat": 32.4319854, "lon": 34.9218079, "tags": {"addr:city": "\u05d7\u05d3\u05e8\u05d4", "addr:housenumber": "34", "addr:street": "\u05d6'\u05d1\u05d5\u05d8\u05d9\u05e0\u05e1\u05e7\u05d9", "amenity": "restaurant", "name": "\u05e7\u05e4\u05d4 \u05e4\u05d9\u05d9\u05e0\u05d1\u05e8\u05d2", "name:he": "\u05e7\u05e4\u05d4 \u05e4\u05d9\u05d9\u05e0\u05d1\u05e8\u05d2", "note": "\u05db\u05e9\u05e8"}}, {"type": "node", "id": 6480427186, "lat": 32.4399814, "lon": 34.9320368, "tags": {"addr:housenumber": "44", "addr:street": "\u05e6\u05d4\"\u05dc", "amenity": "restaurant", "name:en": "Valentin", "name:ru": "\u0412\u0430\u043b\u0435\u043d\u0442\u0438\u043d", "opening_hours": "Mo-Su 11:00-23:00", "phone": "046323542", "website": "http://www.valentin-rest.do.am"}}, {"type": "node", "id": 6595178492, "lat": 32.1761785, "lon": 34.9799917, "tags": {"amenity": "restaurant", "cuisine": "regional", "diet:kosher": "yes", "diet:vegan": "yes", "name": "\u05d7\u05d5\u05de\u05d5\u05e1 55", "name:he": "\u05d7\u05d5\u05de\u05d5\u05e1 55", "phone": "+972 52-308-3823"}}, {"type": "node", "id": 6597644591, "lat": 32.2808566, "lon": 34.8445961, "tags": {"air_conditioning": "yes", "amenity": "cafe", "cuisine": "coffee_shop", "delivery": "no", "name": "\u05e7\u05e4\u05d4 \u05de\u05e7\u05d9\u05d0\u05d8\u05d5", "name:he": "\u05e7\u05e4\u05d4 \u05de\u05e7\u05d9\u05d0\u05d8\u05d5", "outdoor_seating": "yes", "payment:cash": "yes", "payment:coins": "yes", "payment:credit_cards": "yes", "smoking": "outside"}}, {"type": "node", "id": 6602838486, "lat": 32.1695256, "lon": 34.7994889, "tags": {"amenity": "restaurant"}}, {"type": "node", "id": 6605540988, "lat": 32.1937595, "lon": 34.9525244, "tags": {"amenity": "restaurant", "diet:vegan": "yes", "name": "\u05e7\u05de\u05dc\u05d9\u05d4", "name:en": "Camellia", "name:he": "\u05e7\u05de\u05dc\u05d9\u05d4", "outdoor_seating": "yes", "toilets": "yes", "website": "https://kamelia.rest.co.il/"}}, {"type": "node", "id": 6644460539, "lat": 32.1440867, "lon": 34.8436289, "tags": {"amenity": "restaurant", "name": "\u05db\u05e1\u05e4\u05d9", "name:he": "\u05db\u05e1\u05e4\u05d9"}}, {"type": "node", "id": 6759092332, "lat": 32.166149, "lon": 34.8092663, "tags": {"addr:city": "\u05d4\u05e8\u05e6\u05dc\u05d9\u05d4", "addr:housenumber": "60", "addr:street": "\u05de\u05d3\u05d9\u05e0\u05ea \u05d4\u05d9\u05d4\u05d5\u05d3\u05d9\u05dd", "air_conditioning": "yes", "amenity": "restaurant", "contact:facebook": "Medinat.Hayehudim60", "cuisine": "steak_house", "diet:gluten_free": "yes", "diet:kosher": "no", "diet:vegetarian": "yes", "name": "La Vaca Loca", "name:en": "La Vaca Loca", "opening_hours": "Su-Sa 12:00-23:00", "outdoor_seating": "yes", "phone": "+972 9-955-5037", "reservation": "yes", "reservation:website": "https://ontopo.com/en/il/page/50921843", "takeaway": "yes", "website": "https://lavacaloca.co.il/", "wikidata": "Q66827446"}}, {"type": "node", "id": 6780347646, "lat": 32.2832984, "lon": 34.8577071, "tags": {"amenity": "restaurant", "name": "\u05d6\u05d5\u05d9\u05d4 \u05d2\u05e8\u05d9\u05dc \u05d1\u05e8", "name:he": "\u05d6\u05d5\u05d9\u05d4 \u05d2\u05e8\u05d9\u05dc \u05d1\u05e8"}}, {"type": "node", "id": 6781648585, "lat": 32.3751969, "lon": 35.0686845, "tags": {"addr:street": "attil", "amenity": "cafe", "internet_access": "wlan", "name": "\u0639\u062a\u064a\u0644", "name:en": "attil"}}, {"type": "node", "id": 6781648685, "lat": 32.3751181, "lon": 35.0682747, "tags": {"amenity": "cafe", "name": "\u0645\u0642\u0647\u0649 \u0648\u0645\u0633\u0628\u062d \u0627\u0644\u0634\u0644\u0627\u0644"}}, {"type": "node", "id": 6905272785, "lat": 32.1838379, "lon": 34.9836923, "tags": {"amenity": "restaurant", "name": "\u0645\u0637\u0639\u0645 \u0648\u0643\u0627\u0641\u064a \u0627\u0631\u0648\u0645\u0627", "name:ar": "\u0645\u0637\u0639\u0645 \u0648\u0643\u0627\u0641\u064a \u0627\u0631\u0648\u0645\u0627"}}, {"type": "node", "id": 6959481347, "lat": 32.2794845, "lon": 34.8469657, "tags": {"addr:city": "\u05e0\u05ea\u05e0\u05d9\u05d4", "addr:housenumber": "2", "addr:street": "\u05d1\u05e0\u05d9 \u05d1\u05e8\u05de\u05df", "amenity": "restaurant", "brand:wikidata": "Q43295499", "brand:wikipedia": "he:\u05e7\u05e4\u05d4 \u05d2\u05e8\u05d2", "name": "Greg Cafe", "name:en": "Greg Cafe", "phone": "+972-3-6950567", "website": "https://gregcafe.co.il/"}}, {"type": "node", "id": 6961324715, "lat": 32.3172307, "lon": 35.0319059, "tags": {"addr:city": "Tulkarem", "addr:postcode": "00972", "addr:street": "Al-Awda Street", "amenity": "cafe", "cuisine": "ice_cream;frozen_yogurt;waffle", "name": "Gala Palestine Gelato Boutique - Tulkarem"}}, {"type": "node", "id": 7008704559, "lat": 32.2812322, "lon": 34.8518979, "tags": {"addr:city": "\u05e0\u05ea\u05e0\u05d9\u05d4", "addr:housenumber": "2", "addr:street": "\u05e9\"\u05d9 \u05e2\u05d2\u05e0\u05d5\u05df", "amenity": "cafe", "internet_access": "yes", "name": "Nati Cafe", "name:en": "Nati Cafe", "outdoor_seating": "no"}}, {"type": "node", "id": 7036830872, "lat": 32.2812186, "lon": 34.8525169, "tags": {"addr:city": "\u05e0\u05ea\u05e0\u05d9\u05d4", "addr:housenumber": "30", "addr:street": "\u05e4\u05e0\u05d7\u05e1 \u05dc\u05d1\u05d5\u05df", "amenity": "restaurant", "cuisine": "regional", "name": "\u05e4\u05d5\u05e0\u05d3\u05e7 \u05d4\u05d9\u05dd", "name:he": "\u05e4\u05d5\u05e0\u05d3\u05e7 \u05d4\u05d9\u05dd", "phone": "09-885-3535"}}, {"type": "node", "id": 7037067968, "lat": 32.280394, "lon": 34.8536351, "tags": {"addr:city": "\u05e0\u05ea\u05e0\u05d9\u05d4", "addr:housenumber": "9", "addr:street": "\u05e8\u05d5\u05d8\u05e0\u05d1\u05e8\u05d2", "amenity": "restaurant", "cuisine": "pizza", "name": "\u05e4\u05d9\u05e6\u05d4 \u05e1\u05dc\u05d4\u05d5\u05d1", "name:he": "\u05e4\u05d9\u05e6\u05d4 \u05e1\u05dc\u05d4\u05d5\u05d1"}}, {"type": "node", "id": 7037112125, "lat": 32.2840661, "lon": 34.8545944, "tags": {"addr:city": "\u05e0\u05ea\u05e0\u05d9\u05d4", "addr:housenumber": "27", "addr:street": "\u05e4\u05e0\u05d7\u05e1 \u05dc\u05d1\u05d5\u05df", "amenity": "cafe", "name": "\u05d9\u05d5\u05e1\u05e3 \u05d0\u05dc\u05d1\u05d6", "name:he": "\u05d9\u05d5\u05e1\u05e3 \u05d0\u05dc\u05d1\u05d6", "outdoor_seating": "yes"}}, {"type": "node", "id": 7049568170, "lat": 32.277974, "lon": 34.8526843, "tags": {"addr:city": "\u05e0\u05ea\u05e0\u05d9\u05d4", "addr:housenumber": "37", "addr:street": "\u05d2\u05d5\u05dc\u05d3\u05d4 \u05de\u05d0\u05d9\u05e8", "amenity": "restaurant", "name": "\u05d4\u05d1\u05d0\u05d2\u05d8 \u05e9\u05dc \u05e8\u05e4\u05d9", "name:he": "\u05d4\u05d1\u05d0\u05d2\u05d8 \u05e9\u05dc \u05e8\u05e4\u05d9"}}, {"type": "node", "id": 7058204302, "lat": 32.2793683, "lon": 34.8603272, "tags": {"addr:city": "\u05e0\u05ea\u05e0\u05d9\u05d4", "addr:housenumber": "22", "addr:street": "\u05e9\u05d3\u05e8\u05d5\u05ea \u05d2\u05d9\u05d1\u05d5\u05e8\u05d9 \u05d9\u05e9\u05e8\u05d0\u05dc", "amenity": "restaurant", "cuisine": "ice_cream", "name": "Oasis", "name:en": "Oasis"}}, {"type": "node", "id": 7120412865, "lat": 32.2833981, "lon": 34.8537363, "tags": {"addr:city": "\u05e0\u05ea\u05e0\u05d9\u05d4", "addr:housenumber": "18", "addr:street": "\u05e4\u05e0\u05d7\u05e1 \u05dc\u05d1\u05d5\u05df", "amenity": "restaurant", "cuisine": "regional", "name": "\u05d4\u05e9\u05e0\u05d9\u05e6\u05dc \u05e9\u05dc \u05db\u05d5\u05e9\u05d9", "name:he": "\u05d4\u05e9\u05e0\u05d9\u05e6\u05dc \u05e9\u05dc \u05db\u05d5\u05e9\u05d9"}}, {"type": "node", "id": 7142917331, "lat": 32.1641231, "lon": 34.7946329, "tags": {"amenity": "restaurant", "cuisine": "japanese", "name": "\u05e0\u05d0\u05de\u05d5\u05e1", "name:en": "Nammos", "name:he": "\u05e0\u05d0\u05de\u05d5\u05e1", "website": "https://www.nammos.co.il/"}}, {"type": "node", "id": 7198342292, "lat": 32.1649783, "lon": 34.9279525, "tags": {"addr:city": "\u05db\u05e4\u05e8 \u05e1\u05d1\u05d0", "addr:housenumber": "8", "addr:street": "\u05e2\u05ea\u05d9\u05e8 \u05d9\u05d3\u05e2", "amenity": "cafe", "brand": "\u05e7\u05e4\u05d4 \u05d2\u05e8\u05d2", "brand:en": "Greg Cafe", "brand:he": "\u05e7\u05e4\u05d4 \u05d2\u05e8\u05d2", "brand:wikidata": "Q43295499", "brand:wikipedia": "he:\u05e7\u05e4\u05d4 \u05d2\u05e8\u05d2", "cuisine": "coffee_shop", "name": "\u05e7\u05e4\u05d4 \u05d2\u05e8\u05d2", "name:en": "Cafe Greg", "name:he": "\u05e7\u05e4\u05d4 \u05d2\u05e8\u05d2", "opening_hours": "Su-Sa 08:00-23:00", "phone": "+972 9-740-7759", "takeaway": "yes", "website": "https://gregcafe.co.il"}}, {"type": "node", "id": 7198381162, "lat": 32.2800922, "lon": 34.8631252, "tags": {"addr:city": "\u05e0\u05ea\u05e0\u05d9\u05d4", "addr:housenumber": "24", "addr:street": "\u05d4\u05d1\u05d5\u05e0\u05d9\u05dd", "amenity": "restaurant", "name": "\u05de\u05df \u05d4\u05d0\u05d3\u05de\u05d4", "name:he": "\u05de\u05df \u05d4\u05d0\u05d3\u05de\u05d4", "opening_hours": "Su-Th 10:00-20:00; Fr 08:00-15:00", "phone": "+972 9-792-6699", "website": "https://manhaadama.co.il"}}, {"type": "node", "id": 7198404149, "lat": 32.1924121, "lon": 34.8915456, "tags": {"addr:city": "\u05db\u05e4\u05e8 \u05e1\u05d1\u05d0", "addr:housenumber": "3", "addr:street": "\u05e8\u05e4\u05e4\u05d5\u05e8\u05d8", "amenity": "restaurant", "name": "\u05d1\u05d9\u05d2\u05d4", "name:en": "Biga", "name:he": "\u05d1\u05d9\u05d2\u05d4", "opening_hours": "Su 00:00-23:00; Mo-Th 08:00-23:00; Fr 07:30-14:00; Sa 18:00-23:00", "phone": "+972 9-899-6221"}}, {"type": "node", "id": 7213632085, "lat": 32.1607529, "lon": 34.9027247, "tags": {"addr:city": "\u05d4\u05d5\u05d3 \u05d4\u05e9\u05e8\u05d5\u05df", "addr:housenumber": "9", "addr:street": "\u05d4\u05d9\u05d3\u05d9\u05d3\u05d5\u05ea", "amenity": "restaurant", "cuisine": "coffee_shop;breakfast", "name": "\u05e7\u05e4\u05d4 \u05de\u05ea\u05ea\u05d9\u05d4\u05d5", "name:en": "Cafe Matityahu", "name:he": "\u05e7\u05e4\u05d4 \u05de\u05ea\u05ea\u05d9\u05d4\u05d5", "opening_hours": "Mo-Su 08:00-23:00", "phone": "+97297737515", "website": "https://cafematityahu.co.il/"}}, {"type": "node", "id": 7783804234, "lat": 32.1662768, "lon": 34.8107149, "tags": {"amenity": "restaurant", "cuisine": "italian", "name": "Calata 15", "name:en": "Calata 15"}}, {"type": "node", "id": 7832129531, "lat": 32.2537071, "lon": 34.9185185, "tags": {"addr:city": "\u05ea\u05dc \u05de\u05d5\u05e0\u05d3", "addr:housenumber": "56", "addr:postcode": "4060056", "addr:street": "\u05d4\u05d3\u05e7\u05dc", "amenity": "restaurant", "cuisine": "local;regional", "delivery": "yes", "diet:gluten_free": "yes", "diet:kosher": "yes", "diet:vegan": "yes", "diet:vegetarian": "yes", "internet_access": "wlan", "name": "\u05d4\u05e7\u05d5\u05e1\u05e7\u05d5\u05e1 \u05e9\u05dc \u05d2\u05dc\u05d9\u05d4", "name:he": "\u05d4\u05e7\u05d5\u05e1\u05e7\u05d5\u05e1 \u05e9\u05dc \u05d2\u05dc\u05d9\u05d4", "opening_hours": "Su-Th 09:00-20:00; Fr 7:30-15:00", "outdoor_seating": "yes", "phone": "+972 98859900", "reservation": "yes", "takeaway": "yes", "website": "https://kuskus-galia.co.il", "wheelchair": "yes"}}, {"type": "node", "id": 7899808751, "lat": 32.2783601, "lon": 34.8608325, "tags": {"amenity": "restaurant", "diet:kosher": "yes", "name": "\u05de\u05e1\u05e2\u05d3\u05ea \u05d4\u05d1\u05d9\u05ea", "name:he": "\u05de\u05e1\u05e2\u05d3\u05ea \u05d4\u05d1\u05d9\u05ea"}}, {"type": "node", "id": 7987318359, "lat": 32.1679627, "lon": 34.8575907, "tags": {"addr:city": "\u05d4\u05e8\u05e6\u05dc\u05d9\u05d4", "addr:housenumber": "25", "addr:street": "\u05d1\u05e8\u05dc \u05db\u05e6\u05e0\u05dc\u05e1\u05d5\u05df", "amenity": "restaurant", "cuisine": "middle_eastern", "name": "\u05e6\u05d0\u05e8\u05d5\u05dd", "name:en": "Tzarum", "name:he": "\u05e6\u05d0\u05e8\u05d5\u05dd", "phone": "09-9558431", "website": "https://tzarum.co.il"}}, {"type": "node", "id": 8019628473, "lat": 32.3165256, "lon": 35.0309175, "tags": {"addr:city": "Tulkarem", "addr:street": "Nablus Street", "amenity": "restaurant", "name": "Level 7 Restaurant and Cafe"}}, {"type": "node", "id": 8076094514, "lat": 32.1611436, "lon": 34.8213762}, {"type": "node", "id": 8076094515, "lat": 32.1612519, "lon": 34.8213856}, {"type": "node", "id": 8081429039, "lat": 32.1612866, "lon": 34.8212407}, {"type": "node", "id": 8081429040, "lat": 32.1613248, "lon": 34.8212296}, {"type": "node", "id": 8081429041, "lat": 32.1613604, "lon": 34.8212118}, {"type": "node", "id": 8081429042, "lat": 32.1613929, "lon": 34.821188}, {"type": "node", "id": 8081429043, "lat": 32.1614219, "lon": 34.8211587}, {"type": "node", "id": 8081429044, "lat": 32.1614467, "lon": 34.8211245}, {"type": "node", "id": 8081429045, "lat": 32.1614669, "lon": 34.8210861}, {"type": "node", "id": 8081429046, "lat": 32.1614819, "lon": 34.821044}, {"type": "node", "id": 8195890517, "lat": 32.164312, "lon": 34.9024421, "tags": {"addr:city": "\u05d4\u05d5\u05d3 \u05d4\u05e9\u05e8\u05d5\u05df", "addr:housenumber": "30", "addr:street": "\u05e1\u05d5\u05e7\u05d5\u05dc\u05d5\u05d1", "amenity": "cafe", "name": "\u05e7\u05e8\u05d5\u05dc\u05d9\u05e0\u05d4", "name:he": "\u05e7\u05e8\u05d5\u05dc\u05d9\u05e0\u05d4"}}, {"type": "node", "id": 8201626480, "lat": 32.179715, "lon": 34.8771495, "tags": {"amenity": "restaurant", "name": "\u05e1\u05d1\u05d9\u05d7 \u05d4\u05e9\u05e8\u05d5\u05df", "name:en": "Sabich HaSharon", "name:he": "\u05e1\u05d1\u05d9\u05d7 \u05d4\u05e9\u05e8\u05d5\u05df", "opening_hours": "Su-Th 09:00-20:00; Fr 09:00-14:30; PH,Sa off"}}, {"type": "node", "id": 8201626483, "lat": 32.1793808, "lon": 34.8771071, "tags": {"amenity": "restaurant", "name": "\u05e1\u05dc\u05d8\u05d4", "name:he": "\u05e1\u05dc\u05d8\u05d4", "opening_hours": "Su-Th 11:30-23:00; Fr 08:30-14:30"}}, {"type": "node", "id": 8201680036, "lat": 32.1803634, "lon": 34.8764228, "tags": {"amenity": "restaurant", "cuisine": "pizza", "name": "\u05e4\u05d9\u05e6\u05d4 \u05e4\u05e6\u05e5", "name:he": "\u05e4\u05d9\u05e6\u05d4 \u05e4\u05e6\u05e5"}}, {"type": "node", "id": 8201680038, "lat": 32.1803884, "lon": 34.8763195, "tags": {"amenity": "cafe", "name": "The Coffee World", "survey:date": "2025-06-10"}}, {"type": "node", "id": 8201746146, "lat": 32.1793853, "lon": 34.8809581, "tags": {"amenity": "restaurant", "cuisine": "pizza", "name": "\u05e4\u05d9\u05e6\u05d4 \u05e8\u05d5\u05e0\u05d3\u05d5", "name:he": "\u05e4\u05d9\u05e6\u05d4 \u05e8\u05d5\u05e0\u05d3\u05d5"}}, {"type": "node", "id": 8227532417, "lat": 32.3617542, "lon": 34.9245748, "tags": {"amenity": "cafe", "diet:vegan": "no", "diet:vegetarian": "yes", "name": "\u05d2\u05e8\u05e6\u05d9\u05d4 \u05e7\u05e4\u05d4", "name:en": "Gracia coffee and homemade", "name:he": "\u05d2\u05e8\u05e6\u05d9\u05d4 \u05e7\u05e4\u05d4", "name:ru": "\u0413\u0440\u0430\u0446\u0438\u044f", "opening_hours": "Mo-Su 08:30-23:00"}}, {"type": "node", "id": 8279478246, "lat": 32.458715, "lon": 34.9412618}, {"type": "node", "id": 8279478247, "lat": 32.4586526, "lon": 34.9412772}, {"type": "node", "id": 8279478249, "lat": 32.4587607, "lon": 34.9415224}, {"type": "node", "id": 8297078117, "lat": 32.3095354, "lon": 35.0343766, "tags": {"amenity": "restaurant", "name": "\u0627\u0644\u0639\u062a\u064a\u0644\u064a"}}, {"type": "node", "id": 8297078321, "lat": 32.3173603, "lon": 35.0289195, "tags": {"amenity": "restaurant", "name": "\u0627\u0644\u0646\u062c\u0645\u0629"}}, {"type": "node", "id": 8306105218, "lat": 32.1820517, "lon": 34.925454}, {"type": "node", "id": 8306105219, "lat": 32.1820074, "lon": 34.9254299}, {"type": "node", "id": 8306105220, "lat": 32.181953, "lon": 34.9254192}, {"type": "node", "id": 8306105221, "lat": 32.1819496, "lon": 34.9254969}, {"type": "node", "id": 8306105222, "lat": 32.1819348, "lon": 34.9255278}, {"type": "node", "id": 8306105223, "lat": 32.1819178, "lon": 34.9255399}, {"type": "node", "id": 8306105224, "lat": 32.1819098, "lon": 34.9256297}, {"type": "node", "id": 8306105225, "lat": 32.1820483, "lon": 34.925631}, {"type": "node", "id": 8306105226, "lat": 32.1820608, "lon": 34.9257142}, {"type": "node", "id": 8306105227, "lat": 32.1820903, "lon": 34.9257088}, {"type": "node", "id": 8306105228, "lat": 32.1820914, "lon": 34.9255385}, {"type": "node", "id": 8306105229, "lat": 32.1820665, "lon": 34.9255318}, {"type": "node", "id": 8306105230, "lat": 32.1821028, "lon": 34.9255171}, {"type": "node", "id": 8306105231, "lat": 32.182088, "lon": 34.9254782}, {"type": "node", "id": 8357017979, "lat": 32.1913047, "lon": 34.8448159, "tags": {"amenity": "restaurant", "name": "\u05d1\u05e9\u05e8 PITA", "name:he": "\u05d1\u05e9\u05e8 PITA"}}, {"type": "node", "id": 8357017980, "lat": 32.191025, "lon": 34.8446616, "tags": {"amenity": "restaurant", "name": "Kami", "name:en": "Kami", "name:he": "\u05e7\u05d0\u05de\u05d9"}}, {"type": "node", "id": 8405160309, "lat": 32.1483835, "lon": 34.8043541}, {"type": "node", "id": 8405160310, "lat": 32.148398, "lon": 34.8043783}, {"type": "node", "id": 8405160311, "lat": 32.1483708, "lon": 34.8044239}, {"type": "node", "id": 8405160312, "lat": 32.148364, "lon": 34.8044249}, {"type": "node", "id": 8405160313, "lat": 32.1483417, "lon": 34.8044625}, {"type": "node", "id": 8405160314, "lat": 32.1483285, "lon": 34.8045043}, {"type": "node", "id": 8405160315, "lat": 32.1483363, "lon": 34.8045108}, {"type": "node", "id": 8405160316, "lat": 32.1483213, "lon": 34.8045505}, {"type": "node", "id": 8405160317, "lat": 32.1482763, "lon": 34.8045312}, {"type": "node", "id": 8405160318, "lat": 32.1482854, "lon": 34.8044958}, {"type": "node", "id": 8405160319, "lat": 32.1482795, "lon": 34.8044764}, {"type": "node", "id": 8405160320, "lat": 32.1482795, "lon": 34.8044518}, {"type": "node", "id": 8405160321, "lat": 32.1482572, "lon": 34.8044249}, {"type": "node", "id": 8405160322, "lat": 32.1482759, "lon": 34.8043885}, {"type": "node", "id": 8405160323, "lat": 32.1482868, "lon": 34.8043777}, {"type": "node", "id": 8405160324, "lat": 32.1483017, "lon": 34.8043643}, {"type": "node", "id": 8405160325, "lat": 32.1483326, "lon": 34.8043547}, {"type": "node", "id": 8414389344, "lat": 32.1805045, "lon": 34.8723093, "tags": {"amenity": "restaurant", "cuisine": "pizza", "name": "\u05e4\u05d9\u05e6\u05d4 \u05de\u05d9\u05dc\u05d0\u05e0\u05d5", "name:he": "\u05e4\u05d9\u05e6\u05d4 \u05de\u05d9\u05dc\u05d0\u05e0\u05d5"}}, {"type": "node", "id": 8450249154, "lat": 32.170916, "lon": 34.9273796, "tags": {"amenity": "restaurant", "brand": "Moses", "brand:en": "Moses", "brand:he": "\u05de\u05d5\u05d6\u05e1", "brand:wikidata": "Q64760150", "cuisine": "burger", "name": "Moses", "name:en": "Moses", "name:he": "\u05de\u05d5\u05d6\u05e1"}}, {"type": "node", "id": 8450300855, "lat": 32.1970333, "lon": 34.8772002, "tags": {"amenity": "restaurant", "name": "\u05d0\u05d5\u05dc\u05d3\u05d9\u05e1 \u05e4\u05e0\u05e7\u05d9\u05d9\u05e7 \u05d1\u05e8", "name:he": "\u05d0\u05d5\u05dc\u05d3\u05d9\u05e1 \u05e4\u05e0\u05e7\u05d9\u05d9\u05e7 \u05d1\u05e8"}}, {"type": "node", "id": 8450300858, "lat": 32.1968061, "lon": 34.8796191, "tags": {"alt_name": "Burgus Burger Bar", "alt_name:en": "Burgus Burger Bar", "amenity": "restaurant", "brand": "Burgus Burger Bar", "brand:en": "Burgus Burger Bar", "brand:wikidata": "Q64760094", "cuisine": "burger", "name": "BBB", "name:en": "BBB"}}, {"type": "node", "id": 8450300870, "lat": 32.1972863, "lon": 34.8787724, "tags": {"amenity": "restaurant", "cuisine": "chinese", "level": "0", "name": "chooka", "name:en": "chooka", "name:he": "\u05e6'\u05d5\u05e7\u05d4", "survey:date": "2024-08-08"}}, {"type": "node", "id": 8480328355, "lat": 32.1828003, "lon": 34.8655373, "tags": {"amenity": "cafe", "cuisine": "coffee_shop", "name": "\u05e7\u05e4\u05d4 \u05e0\u05d8\u05d5", "name:he": "\u05e7\u05e4\u05d4 \u05e0\u05d8\u05d5"}}, {"type": "node", "id": 8490110130, "lat": 32.3499428, "lon": 34.85427}, {"type": "node", "id": 8490110131, "lat": 32.3500326, "lon": 34.8542664}, {"type": "node", "id": 8490110132, "lat": 32.3500359, "lon": 34.8543812}, {"type": "node", "id": 8490110133, "lat": 32.3499461, "lon": 34.8543848}, {"type": "node", "id": 8543934096, "lat": 32.1462785, "lon": 34.8385243, "tags": {"amenity": "cafe", "name": "reBar"}}, {"type": "node", "id": 8679277517, "lat": 32.1669051, "lon": 34.8129412, "tags": {"amenity": "restaurant", "diet:kosher": "yes", "name": "Costa del Rum", "name:he": "\u05e7\u05d5\u05e1\u05d8\u05d4 \u05d3\u05dc \u05e8\u05d5\u05dd", "survey:date": "2021-04-29"}}, {"type": "node", "id": 8791661317, "lat": 32.3176565, "lon": 35.0291262, "tags": {"addr:street": "Shwaikah", "amenity": "restaurant", "internet_access": "wlan", "name": "\u0645\u0637\u0639\u0645 \u0639\u0644\u064a \u0628\u0627\u0628\u0627", "name:en": "Ali baba restaurant", "opening_hours": "Mo-Su 08:00-12:00", "phone": "092674235"}}, {"type": "node", "id": 8860328593, "lat": 32.1669803, "lon": 34.8126523, "tags": {"amenity": "restaurant", "name": "\u05e0\u05d0\u05e4\u05d9\u05e1", "name:he": "\u05e0\u05d0\u05e4\u05d9\u05e1"}}, {"type": "node", "id": 8874204519, "lat": 32.3172526, "lon": 35.0290479, "tags": {"amenity": "cafe", "name": "\u0634\u0631\u0643\u0629 \u0645\u062d\u0627\u0645\u0635 \u0627\u0644\u0628\u0631\u0642\u0627\u0648\u064a", "opening_hours": "24/7"}}, {"type": "node", "id": 9017237268, "lat": 32.2482241, "lon": 34.8419229, "tags": {"amenity": "restaurant", "name": "\u05d7\u05d3\u05e8 \u05d4\u05d0\u05d5\u05db\u05dc", "name:he": "\u05d7\u05d3\u05e8 \u05d4\u05d0\u05d5\u05db\u05dc"}}, {"type": "node", "id": 9075638018, "lat": 32.305445, "lon": 34.9508098, "tags": {"addr:city": "\u05d9\u05e0\u05d5\u05d1", "addr:street": "\u05de\u05d1\u05d5\u05d0 \u05d4\u05d2\u05e4\u05df", "amenity": "cafe", "name": "\u05e4\u05d6\u05d9\u05e7\u05e4\u05d4 - \u05e2\u05d2\u05dc\u05ea \u05e7\u05e4\u05d4", "name:he": "\u05e4\u05d6\u05d9\u05e7\u05e4\u05d4 - \u05e2\u05d2\u05dc\u05ea \u05e7\u05e4\u05d4", "outdoor_seating": "yes"}}, {"type": "node", "id": 9083613506, "lat": 32.2588758, "lon": 34.8656714, "tags": {"amenity": "cafe", "name": "\u05e6'\u05d5\u05e4\u05e6'\u05d9\u05e7", "name:he": "\u05e6'\u05d5\u05e4\u05e6'\u05d9\u05e7"}}, {"type": "node", "id": 9161179819, "lat": 32.4586983, "lon": 34.9415378}, {"type": "node", "id": 9167223017, "lat": 32.3118393, "lon": 35.0297067, "tags": {"amenity": "restaurant", "name": "\u0645\u0633\u062a\u0631 \u0634\u0627\u0648\u0631\u0645\u0627"}}, {"type": "node", "id": 9178417916, "lat": 32.178914, "lon": 34.879296, "tags": {"amenity": "restaurant", "cuisine": "pizza", "name": "\u05e4\u05d9\u05e6\u05d4 \u05de\u05d0\u05e1\u05d8\u05e8\u05d5", "name:he": "\u05e4\u05d9\u05e6\u05d4 \u05de\u05d0\u05e1\u05d8\u05e8\u05d5"}}, {"type": "node", "id": 9205534132, "lat": 32.1799819, "lon": 34.8781828, "tags": {"amenity": "restaurant", "name": "Sara's Place"}}, {"type": "node", "id": 9231734017, "lat": 32.2877687, "lon": 34.8981816, "tags": {"amenity": "restaurant", "survey:date": "2021-11-07"}}, {"type": "node", "id": 9387002541, "lat": 32.1636268, "lon": 34.811597}, {"type": "node", "id": 9426958295, "lat": 32.1619665, "lon": 34.7958813, "tags": {"amenity": "restaurant", "name": "Medzzo", "website": "http://medzzo.com"}}, {"type": "node", "id": 9544777790, "lat": 32.2271098, "lon": 34.8652928, "tags": {"amenity": "cafe", "cuisine": "coffee_shop", "name": "\u05d3\u05e0\u05d3\u05d9", "name:en": "Dandi", "name:he": "\u05d3\u05e0\u05d3\u05d9"}}, {"type": "node", "id": 9549404976, "lat": 32.2015253, "lon": 34.8253448}, {"type": "node", "id": 9549404977, "lat": 32.2014813, "lon": 34.8255354}, {"type": "node", "id": 9549404978, "lat": 32.2014199, "lon": 34.8255156}, {"type": "node", "id": 9549404979, "lat": 32.2014639, "lon": 34.825325}, {"type": "node", "id": 9587309168, "lat": 32.1538612, "lon": 34.8414918, "tags": {"amenity": "cafe", "name": "\u05e7\u05e4\u05d4 \u05d9\u05d5\u05e8\u05dd", "name:he": "\u05e7\u05e4\u05d4 \u05d9\u05d5\u05e8\u05dd"}}, {"type": "node", "id": 9587310144, "lat": 32.1462289, "lon": 34.8388811, "tags": {"alt_name:en": "fouronesix", "amenity": "restaurant", "contact:facebook": "416TLV", "diet:vegan": "yes", "name": "416", "website": "https://www.416tlv.com/"}}, {"type": "node", "id": 9591694663, "lat": 32.1975209, "lon": 34.9157622, "tags": {"amenity": "cafe", "cuisine": "coffee_shop", "image": "https://upload.wikimedia.org/wikipedia/commons/2/26/IHM_\u05e7\u05e4\u05d4_\u05e9\u05d5\u05e9\u05d4_1.jpeg", "name": "\u05e9\u05d5\u05e9\u05d4 \u05e2\u05d2\u05dc\u05ea \u05e7\u05e4\u05d4", "name:he": "\u05e9\u05d5\u05e9\u05d4 \u05e2\u05d2\u05dc\u05ea \u05e7\u05e4\u05d4"}}, {"type": "node", "id": 9591698781, "lat": 32.1929216, "lon": 34.8624749, "tags": {"amenity": "cafe", "cuisine": "coffee_shop", "name": "\u05e7\u05e4\u05d4 \u05e1\u05d2\u05d5\u05e8", "name:he": "\u05e7\u05e4\u05d4 \u05e1\u05d2\u05d5\u05e8"}}, {"type": "node", "id": 9642836912, "lat": 32.16352, "lon": 34.8118759}, {"type": "node", "id": 9642836913, "lat": 32.1634454, "lon": 34.811836}, {"type": "node", "id": 9642836914, "lat": 32.1635522, "lon": 34.8115571}, {"type": "node", "id": 9646619141, "lat": 32.2235325, "lon": 34.9809768, "tags": {"addr:city": "\u05db\u05d5\u05db\u05d1 \u05d9\u05d0\u05d9\u05e8", "addr:street": "444", "amenity": "restaurant", "name": "\u05de\u05e1\u05e2\u05d3\u05ea \u05d4\u05de\u05e0\u05d2\u05dc \u05d5\u05d4\u05d8\u05d1\u05d5\u05df", "name:he": "\u05de\u05e1\u05e2\u05d3\u05ea \u05d4\u05de\u05e0\u05d2\u05dc \u05d5\u05d4\u05d8\u05d1\u05d5\u05df"}}, {"type": "node", "id": 9659554029, "lat": 32.1693216, "lon": 34.8226436}, {"type": "node", "id": 9659554030, "lat": 32.1693676, "lon": 34.8226092}, {"type": "node", "id": 9917595995, "lat": 32.4734408, "lon": 35.084903, "tags": {"amenity": "restaurant", "facebook": "https://www.facebook.com/%D9%85%D8%B7%D8%A8%D8%AE-%D9%88%D9%85%D8%B7%D8%B9%D9%85-%D8%A7%D9%84%D8%B9%D8%B1%D9%8A%D8%B4%D8%A9-101980009043236", "name": "\u0645\u0637\u0628\u062e \u0648\u0645\u0637\u0639\u0645 \u0627\u0644\u0639\u0631\u064a\u0634\u0629", "phone": "04-874-7733", "takeaway": "yes"}}, {"type": "node", "id": 9919429068, "lat": 32.4788095, "lon": 35.085462, "tags": {"amenity": "cafe", "cuisine": "coffee_shop", "name": "coffe +", "name:ar": "\u0642\u0647\u0648\u0629 +", "name:en": "coffe +", "name:he": "\u05e7\u05e4\u05d4 +"}}, {"type": "node", "id": 9937806148, "lat": 32.1542415, "lon": 34.842046, "tags": {"amenity": "restaurant", "name": "\u05de\u05e1\u05e2\u05d3\u05ea \u05d0\u05d1\u05d5 \u05e1\u05e2\u05d9\u05d3", "name:he": "\u05de\u05e1\u05e2\u05d3\u05ea \u05d0\u05d1\u05d5 \u05e1\u05e2\u05d9\u05d3"}}, {"type": "node", "id": 9937817516, "lat": 32.1668702, "lon": 34.8391082, "tags": {"addr:city": "\u05d4\u05e8\u05e6\u05dc\u05d9\u05d4", "addr:street": "\u05e1\u05d5\u05e7\u05d5\u05dc\u05d5\u05d1", "amenity": "cafe", "name": "\u05e7\u05d5\u05e4 \u05e7\u05e4\u05d4", "name:he": "\u05e7\u05d5\u05e4 \u05e7\u05e4\u05d4", "outdoor_seating": "yes"}}, {"type": "node", "id": 10011524283, "lat": 32.1298377, "lon": 34.9953249, "tags": {"amenity": "restaurant", "cuisine": "burger", "name": "Manhattan Bar Burger", "name:he": "\u05de\u05e0\u05d4\u05d8\u05df \u05d1\u05d5\u05e8\u05d2\u05e8 \u05d1\u05e8", "website": "https://bite.co.il/%D7%90%D7%99%D7%A0%D7%93%D7%A7%D7%A1-%D7%94%D7%96%D7%9E%D7%A0%D7%AA-%D7%9E%D7%A9%D7%9C%D7%95%D7%97%D7%99-%D7%90%D7%95%D7%9B%D7%9C/%D7%9E%D7%A0%D7%94%D7%98%D7%9F-%D7%91%D7%95%D7%A8%D7%92%D7%A8-%D7%91%D7%A8/"}}, {"type": "node", "id": 10022158592, "lat": 32.1669611, "lon": 34.8746551, "tags": {"amenity": "cafe", "name": "\u05e7\u05e4\u05d4 \u05e2\u05dd", "name:he": "\u05e7\u05e4\u05d4 \u05e2\u05dd"}}, {"type": "node", "id": 10237456672, "lat": 32.3431716, "lon": 34.890349, "tags": {"addr:city": "\u05d1\u05d9\u05ea \u05d9\u05e6\u05d7\u05e7 - \u05e9\u05e2\u05e8 \u05d7\u05e4\u05e8", "addr:housenumber": "15", "addr:postcode": "4292000", "addr:street": "\u05d3\u05e8\u05da \u05d7\u05e4\u05e8", "amenity": "restaurant", "diet:local": "yes", "name": "Alexander Winery", "name:he": "\u05d9\u05e7\u05d1 \u05d0\u05dc\u05db\u05e1\u05e0\u05d3\u05e8", "phone": "+972723927621", "website": "https://www.alexander-winery.com/", "wikidata": "Q6712354"}}, {"type": "node", "id": 10260869336, "lat": 32.2231087, "lon": 34.8669169, "tags": {"amenity": "restaurant", "name": "\u05d2\u05d5\u05d6' \u05d5\u05d3\u05e0\u05d9\u05d0\u05dc", "name:en": "Gouje and Daniel", "name:he": "\u05d2'\u05d5\u05d6 \u05d5\u05d3\u05e0\u05d9\u05d0\u05dc", "opening_hours": "Su-Fr 09:00-23:00, Sa 12:00-23:00", "phone": "09-7714122", "website": "https://goujeanddaniel.co.il/"}}, {"type": "node", "id": 10267900740, "lat": 32.2151274, "lon": 34.9853293}, {"type": "node", "id": 10267900741, "lat": 32.2150937, "lon": 34.9852798}, {"type": "node", "id": 10267900742, "lat": 32.215045, "lon": 34.9852957}, {"type": "node", "id": 10267900743, "lat": 32.2150345, "lon": 34.9853417}, {"type": "node", "id": 10267900744, "lat": 32.2150465, "lon": 34.9853612}, {"type": "node", "id": 10748792519, "lat": 32.1659983, "lon": 34.8300779, "tags": {"amenity": "restaurant", "cuisine": "pizza;pasta", "name": "Pizza Regev"}}, {"type": "node", "id": 10748792520, "lat": 32.1661527, "lon": 34.8300967, "tags": {"amenity": "restaurant", "cuisine": "burger", "name": "Burger Station"}}, {"type": "node", "id": 10872143305, "lat": 32.1903565, "lon": 34.9850949, "tags": {"amenity": "restaurant", "name": "Kfc"}}, {"type": "node", "id": 10872143405, "lat": 32.1903466, "lon": 34.9850108, "tags": {"amenity": "restaurant", "name": "\u0628\u064a\u062a\u0632\u0627 \u0647\u062a", "name:en": "Pizza hut"}}, {"type": "node", "id": 10988324141, "lat": 32.5647918, "lon": 35.0203337, "tags": {"amenity": "cafe", "cuisine": "coffee_shop;sandwich", "name": "\u05d4\u05d1\u05d5\u05d8\u05e7\u05d4", "name:he": "\u05d4\u05d1\u05d5\u05d8\u05e7\u05d4", "outdoor_seating": "yes"}}, {"type": "node", "id": 11124729872, "lat": 32.19847, "lon": 34.8908427, "tags": {"addr:city": "\u05db\u05e4\u05e8 \u05e1\u05d1\u05d0", "addr:housenumber": "78", "addr:street": "\u05e9\u05dc\u05de\u05d4 \u05d5\u05d7\u05d9\u05d4 \u05d0\u05e0\u05d2\u05dc", "amenity": "cafe", "brand": "\u05d0\u05e8\u05d5\u05de\u05d4", "brand:en": "Aroma Espresso Bar", "brand:he": "\u05d0\u05e8\u05d5\u05de\u05d4", "brand:wikidata": "Q2909872", "cuisine": "coffee_shop", "internet_access": "yes", "internet_access:fee": "no", "name": "\u05d0\u05e8\u05d5\u05de\u05d4", "name:en": "Aroma Espresso Bar", "name:he": "\u05d0\u05e8\u05d5\u05de\u05d4", "outdoor_seating": "yes", "takeaway": "yes"}}, {"type": "node", "id": 11173998428, "lat": 32.4746594, "lon": 34.9730595, "tags": {"amenity": "restaurant", "name": "\u05d0\u05d1\u05d5\u05dc\u05e2\u05e4\u05d9\u05d4", "name:en": "Abulafia", "name:he": "\u05d0\u05d1\u05d5\u05dc\u05e2\u05e4\u05d9\u05d4"}}, {"type": "node", "id": 11388602969, "lat": 32.3197405, "lon": 35.0253857, "tags": {"amenity": "cafe", "internet_access": "wlan", "name": "\u0643\u064a\u0646\u0627 \u0643\u0648\u0641\u064a", "opening_hours": "Mo-Su 09:00-18:00"}}, {"type": "node", "id": 11392469903, "lat": 32.3800112, "lon": 34.8815224, "tags": {"amenity": "cafe", "cuisine": "coffee_shop", "name": "\u05e2\u05d2\u05dc\u05ea \u05e7\u05e4\u05d4 \u05de\u05dc\u05d5", "name:en": "Mellow Coffee Cart", "outdoor_seating": "yes"}}, {"type": "node", "id": 11434839480, "lat": 32.1610706, "lon": 34.821382}, {"type": "node", "id": 11434839481, "lat": 32.161162, "lon": 34.8216465}, {"type": "node", "id": 11434839483, "lat": 32.1613229, "lon": 34.8215835}, {"type": "node", "id": 11434839484, "lat": 32.1612677, "lon": 34.8213866}, {"type": "node", "id": 11434839485, "lat": 32.1610993, "lon": 34.8213776}, {"type": "node", "id": 11435304071, "lat": 32.1611465, "lon": 34.8216526}, {"type": "node", "id": 11435304072, "lat": 32.1612915, "lon": 34.8213851}, {"type": "node", "id": 11435304073, "lat": 32.1613299, "lon": 34.8213746}, {"type": "node", "id": 11435304074, "lat": 32.1613788, "lon": 34.8213531}, {"type": "node", "id": 11435304075, "lat": 32.1614174, "lon": 34.8213355}, {"type": "node", "id": 11435304076, "lat": 32.161493, "lon": 34.8212849}, {"type": "node", "id": 11435304077, "lat": 32.1615245, "lon": 34.8212498}, {"type": "node", "id": 11435304078, "lat": 32.1615609, "lon": 34.8211912}, {"type": "node", "id": 11435304079, "lat": 32.1615962, "lon": 34.8211203}, {"type": "node", "id": 11435304080, "lat": 32.1616096, "lon": 34.8210689}, {"type": "node", "id": 11435304081, "lat": 32.1614857, "lon": 34.8210256}, {"type": "node", "id": 11435304082, "lat": 32.1612628, "lon": 34.821243}, {"type": "node", "id": 11435304093, "lat": 32.1614581, "lon": 34.8213129}, {"type": "node", "id": 11439280480, "lat": 32.1586668, "lon": 34.8330684, "tags": {"amenity": "cafe", "cuisine": "coffee_shop", "name": "Caf\u00e9 de Paris", "phone": "+972549900401", "survey:date": "2023-12-21"}}, {"type": "node", "id": 11442435731, "lat": 32.1615397, "lon": 34.8210445}, {"type": "node", "id": 11519044235, "lat": 32.1632773, "lon": 34.8109599, "tags": {"amenity": "restaurant", "name": "\u05e4\u05d5\u05e7\u05d9\u05e9\u05d5\u05e3", "survey:date": "2024-01-15"}}, {"type": "node", "id": 11539205269, "lat": 32.3739923, "lon": 34.8956586, "tags": {"amenity": "cafe", "description": "\u05e2\u05d2\u05dc\u05ea \u05e7\u05e4\u05d4", "description:he": "\u05e2\u05d2\u05dc\u05ea \u05e7\u05e4\u05d4", "name": "\u05d0\u05d7\u05d5\u05e7\u05e4\u05d4", "name:he": "\u05d0\u05d7\u05d5\u05e7\u05e4\u05d4", "street_vendor": "yes", "website": "https://www.facebook.com/profile.php?id=100083309464054&mibextid=ZbWKwL"}}, {"type": "node", "id": 11659514688, "lat": 32.1631007, "lon": 34.9089333, "tags": {"amenity": "restaurant", "name": "\u05d0\u05e8\u05e7\u05e4\u05d4"}}, {"type": "node", "id": 11673701410, "lat": 32.1855558, "lon": 34.8544552, "tags": {"amenity": "restaurant", "cuisine": "asian", "name": "\u05e7\u05d9\u05e0\u05d2 \u05e7\u05d5\u05e0\u05d2", "name:en": "King Kong", "name:he": "\u05e7\u05d9\u05e0\u05d2 \u05e7\u05d5\u05e0\u05d2", "website": "https://www.kingkong.co.il"}}, {"type": "node", "id": 11960054058, "lat": 32.1613075, "lon": 34.8083968, "tags": {"amenity": "restaurant", "cuisine": "fish", "name": "Lola Martin", "survey:date": "2024-06-06"}}, {"type": "node", "id": 11998910529, "lat": 32.4717054, "lon": 34.9960196, "tags": {"addr:housenumber": "43", "addr:street": "\u05e0\u05e2\u05d5\u05e8\u05d9\u05dd", "amenity": "cafe", "name": "\u05e7\u05e4\u05d4 \u05e0\u05e2\u05d5\u05e8\u05d9\u05dd"}}, {"type": "node", "id": 11998923414, "lat": 32.4714837, "lon": 34.9960506, "tags": {"addr:housenumber": "41", "addr:street": "\u05e0\u05e2\u05d5\u05e8\u05d9\u05dd", "amenity": "restaurant", "name": "\u05d1\u05e8 \u05d9\u05d9\u05df \u05d1\u05db\u05e8\u05db\u05d5\u05e8"}}, {"type": "node", "id": 12016420500, "lat": 32.1803796, "lon": 35.0347139, "tags": {"amenity": "cafe", "cuisine": "arab;syrian", "name": "Shunat al-Tabib / \u0634\u0648\u0646\u0629 \u0627\u0644\u0637\u0628\u064a\u0628"}}, {"type": "node", "id": 12086618152, "lat": 32.2747462, "lon": 34.8617027, "tags": {"addr:city": "\u05e0\u05ea\u05e0\u05d9\u05d4", "addr:housenumber": "9", "addr:street": "\u05de\u05e4\u05d9", "amenity": "cafe", "brand": "\u05e7\u05e4\u05d4 \u05dc\u05e0\u05d3\u05d5\u05d5\u05e8", "brand:en": "Landwer Coffee", "brand:he": "\u05e7\u05e4\u05d4 \u05dc\u05e0\u05d3\u05d5\u05d5\u05e8", "brand:wikidata": "Q6485288", "cuisine": "coffee_shop", "diet:kosher": "only", "name": "\u05dc\u05e0\u05d3\u05d5\u05d5\u05e8", "name:en": "Landwer", "name:he": "\u05dc\u05e0\u05d3\u05d5\u05d5\u05e8", "opening_hours": "Su-Th 08:30-22:00; Fr 08:30-14:00; Sa 18:30-23:30", "phone": "+972 9 878 6556", "takeaway": "yes"}}, {"type": "node", "id": 12096026693, "lat": 32.1693595, "lon": 34.822518}, {"type": "node", "id": 12123296501, "lat": 32.1293052, "lon": 34.9956635, "tags": {"addr:city": "\u05d0\u05d5\u05e8\u05e0\u05d9\u05ea", "addr:housenumber": "1", "addr:postcode": "4481300", "addr:street": "\u05d4\u05e2\u05e8\u05d1\u05d4", "amenity": "restaurant", "cuisine": "middle_eastern", "name": "Hummus Shop", "opening_hours": "su-th 10:00-21:00; fr 09:00-15:00"}}, {"type": "node", "id": 12123296503, "lat": 32.1292462, "lon": 34.9956427, "tags": {"amenity": "cafe", "name": "Josepe", "outdoor_seating": "yes", "website": "https://www.veecard.co.il/cafe-josepe/"}}, {"type": "node", "id": 12208675708, "lat": 32.4612792, "lon": 35.0059793, "tags": {"amenity": "cafe"}}, {"type": "node", "id": 12208676433, "lat": 32.325367, "lon": 34.9630791, "tags": {"amenity": "cafe"}}, {"type": "node", "id": 12430631703, "lat": 32.1963729, "lon": 34.8819147, "tags": {"amenity": "restaurant", "check_date": "2024-12-18", "name": "Lunchbox India"}}, {"type": "node", "id": 12430631704, "lat": 32.1964558, "lon": 34.8819267, "tags": {"amenity": "restaurant", "check_date": "2024-12-18", "name": "Slow And Bro"}}, {"type": "node", "id": 12435680587, "lat": 32.4812108, "lon": 34.9877349, "tags": {"amenity": "restaurant", "cuisine": "pizza", "name": "\u05e4\u05d9\u05e6\u05d4 \u05e8\u05d5\u05dd", "name:en": "Pizza Rom", "name:he": "\u05e4\u05d9\u05e6\u05d4 \u05e8\u05d5\u05dd", "phone": "04-8207799", "website": "https://pizzarom.co.il/"}}, {"type": "node", "id": 12438628803, "lat": 32.4720812, "lon": 35.0003097}, {"type": "node", "id": 12438628804, "lat": 32.4720233, "lon": 35.0003917}, {"type": "node", "id": 12438628805, "lat": 32.471971, "lon": 35.0003452}, {"type": "node", "id": 12438628806, "lat": 32.4720289, "lon": 35.0002588}, {"type": "node", "id": 12443737207, "lat": 32.197071, "lon": 34.8803452, "tags": {"amenity": "cafe", "name": "illy", "survey:date": "2024-12-23"}}, {"type": "node", "id": 12453192934, "lat": 32.1640133, "lon": 34.8110391, "tags": {"amenity": "cafe", "name": "\u05dc\u05d7\u05de\u05e0\u05d9\u05e0\u05d4", "survey:date": "2024-12-26"}}, {"type": "node", "id": 12469045148, "lat": 32.1807659, "lon": 34.8764297, "tags": {"amenity": "cafe", "name": "\u05e0\u05e0\u05d4"}}, {"type": "node", "id": 12496840417, "lat": 32.3114623, "lon": 35.0254944, "tags": {"addr:city": "\u0637\u0648\u0644\u0643\u0631\u0645", "addr:street": "\u0634\u0627\u0631\u0639 \u0627\u0644\u0646\u0632\u0647\u0629", "amenity": "restaurant", "cuisine": "middle_eastern", "description": "Hummus, Falafel, Ful", "diet:vegetarian": "yes", "name": "Abu Nidal", "opening_hours": "Mo-Su 07:00-19:00"}}, {"type": "node", "id": 12500889159, "lat": 32.4841534, "lon": 34.9476754, "tags": {"addr:housenumber": "9", "addr:street": "\u05ea\u05e8\u05e9\u05d9\u05e9", "amenity": "restaurant", "check_date": "2025-01-14", "contact:instagram": "https://www.instagram.com/shabtai.pizza", "cuisine": "pizza;salad", "level": "0", "name": "\u05e9\u05d1\u05ea\u05d0\u05d9 \u05e4\u05d9\u05e6\u05d4 \u05d5\u05d1\u05d9\u05e8\u05d4", "opening_hours": "12:00-23:00", "payment:cash": "yes", "payment:credit_cards": "yes", "payment:debit_cards": "yes", "phone": "+972737682547", "wheelchair": "yes"}}, {"type": "node", "id": 12500889160, "lat": 32.4843326, "lon": 34.947874, "tags": {"addr:housenumber": "14", "addr:street": "\u05d7\u05dc\u05de\u05d9\u05e9", "amenity": "restaurant", "check_date": "2025-01-14", "cuisine": "burger", "email": "office@patricks-caesarea.co.il", "level": "0", "name": "\u05e4\u05d8\u05e8\u05d9\u05e7\u05e1 \u05d1\u05e8", "opening_hours": "Mo-We,Su 12:00-01:00; Th 12:00-02:00; Sa 19:00-01:00", "payment:cash": "yes", "payment:credit_cards": "yes", "payment:debit_cards": "yes", "phone": "+972 46222093", "website": "https://www.patricks-caesarea.co.il", "wheelchair": "yes"}}, {"type": "node", "id": 12520101871, "lat": 32.1931748, "lon": 34.8650169, "tags": {"amenity": "cafe", "level": "1", "name": "HAveDA", "outdoor_seating": "yes", "survey:date": "2025-01-21"}}, {"type": "node", "id": 12533531726, "lat": 32.2514779, "lon": 34.8706969, "tags": {"amenity": "restaurant", "cuisine": "pizza", "name": "\u05e4\u05d9\u05e6\u05d4 \u05d5\u05e0\u05d5\u05e3"}}, {"type": "node", "id": 12670619533, "lat": 32.1755421, "lon": 34.8318415, "tags": {"amenity": "cafe", "name": "\u05d0\u05dc\u05ea\u05e8\u05de\u05df", "survey:date": "2025-03-16"}}, {"type": "node", "id": 12672994437, "lat": 32.1587534, "lon": 34.8076005, "tags": {"amenity": "restaurant", "cuisine": "sushi", "name": "Ginza", "survey:date": "2025-03-17"}}, {"type": "node", "id": 12772700658, "lat": 32.181979, "lon": 34.8709914, "tags": {"amenity": "restaurant", "cuisine": "pizza", "name": "\u05e4\u05d9\u05e6\u05d4 \u05d3\u05d5\u05de\u05d9\u05e0\u05d5"}}, {"type": "node", "id": 12840680501, "lat": 32.1461964, "lon": 34.8383831, "tags": {"addr:street": "\u05e9\u05d3\u05e8\u05d5\u05ea \u05d5\u05d9\u05e6\u05de\u05df", "amenity": "restaurant", "cuisine": "burger;friture;grill;hotdog", "name": "Port 19"}}, {"type": "way", "id": 37771222, "nodes": [443072707, 443072708, 442117715, 443072709, 443072711, 443072707], "tags": {"amenity": "restaurant", "building": "yes", "building:levels": "1", "cuisine": "italian", "diet:kosher": "yes", "diet:kosher:certification": "lemehadrin", "name": "\u05de\u05d5\u05dc \u05d4\u05d9\u05dd", "name:en": "Mool Hayam", "name:he": "\u05de\u05d5\u05dc \u05d4\u05d9\u05dd", "opening_hours": "Su-Fr 09:00-24:00; Sa 09:00-15:00"}}, {"type": "way", "id": 132119172, "nodes": [1454007132, 1454007135, 1454007134, 1454007133, 1454007132], "tags": {"amenity": "restaurant", "name": "\u05de\u05e7\u05d5\u05dd \u05d1\u05dc\u05d1", "name:en": "Makom Ba'Lev", "name:he": "\u05de\u05e7\u05d5\u05dd \u05d1\u05dc\u05d1"}}, {"type": "way", "id": 138534181, "nodes": [1519116953, 1519116957, 1519116940, 1519116949, 1519116953], "tags": {"amenity": "restaurant", "name": "MC\u00b2"}}, {"type": "way", "id": 138929897, "nodes": [1523060238, 1523060242, 1523060245, 1523060243, 1523060238], "tags": {"amenity": "restaurant", "name": "\u05d4\u05e8\u05d5\u05d0\u05d4 \u05d1\u05e7\u05e4\u05d4", "name:en": "Haroe'h Bakafe", "name:he": "\u05d4\u05e8\u05d5\u05d0\u05d4 \u05d1\u05e7\u05e4\u05d4"}}, {"type": "way", "id": 260173971, "nodes": [2656593009, 2656593018, 2656593020, 2656593008, 2656593016, 2656593017, 2656593009], "tags": {"amenity": "restaurant", "building": "yes", "cuisine": "burger", "name": "\u05d3\u05d5\u05e8\u05d9\u05e1 \u05e7\u05e6\u05d1\u05d9\u05dd - \u05e1\u05e0\u05d9\u05e3 \u05d6\u05db\u05e8\u05d5\u05df \u05d9\u05e2\u05e7\u05d1", "name:en": "Doris Butchers", "name:he": "\u05d3\u05d5\u05e8\u05d9\u05e1 \u05e7\u05e6\u05d1\u05d9\u05dd - \u05e1\u05e0\u05d9\u05e3 \u05d6\u05db\u05e8\u05d5\u05df \u05d9\u05e2\u05e7\u05d1", "outdoor_seating": "yes"}}, {"type": "way", "id": 284563918, "nodes": [2882883279, 2882883280, 2882883281, 2882883282, 2882883279], "tags": {"addr:housenumber": "26", "addr:street": "\u05d4\u05e0\u05d3\u05d9\u05d1", "amenity": "restaurant", "brand": "Pizza Hut", "brand:wikidata": "Q191615", "brand:wikipedia": "en:Pizza Hut", "building": "yes", "cuisine": "pizza", "delivery": "yes", "name": "Pizza Hut", "name:en": "Pizza Hut", "name:he": "\u05e4\u05d9\u05e6\u05d4 \u05d4\u05d0\u05d8", "takeaway": "yes"}}, {"type": "way", "id": 293388627, "nodes": [2969804566, 2969804565, 2969804567, 2969804564, 2969804566], "tags": {"addr:city": "\u05d0\u05d5\u05e8 \u05e2\u05e7\u05d9\u05d1\u05d0", "addr:country": "IL", "addr:housenumber": "2", "addr:street": "\u05d4\u05d6\u05d9\u05ea", "amenity": "restaurant", "building": "yes", "cuisine": "caucasian", "name": "\u05e2\u05d3\u05df", "name:en": "Eden", "name:he": "\u05e2\u05d3\u05df", "name:ru": "\u042d\u0434\u0435\u043d"}}, {"type": "way", "id": 312516686, "nodes": [3183750904, 3183745992, 3183745998, 3183745990, 3183745989, 3183745988, 3183750904], "tags": {"amenity": "restaurant", "building": "yes", "name": "\u05de\u05d9\u05d2\u05d5", "name:en": "Miggo", "name:he": "\u05de\u05d9\u05d2\u05d5"}}, {"type": "way", "id": 369389179, "nodes": [3731829949, 3731829943, 3731829942, 3731829947, 3731829948, 3731829949], "tags": {"amenity": "restaurant", "building": "yes"}}, {"type": "way", "id": 369389180, "nodes": [3731829983, 3731829974, 3731829965, 3731829966, 3731829978, 3731829984, 3731829983], "tags": {"amenity": "restaurant", "building": "yes"}}, {"type": "way", "id": 426439891, "nodes": [4257621985, 4257621986, 4257621974, 4257621973, 4257621985], "tags": {"addr:housenumber": "7", "addr:street": "\u05d4\u05e6\u05d9\u05d5\u05e0\u05d5\u05ea", "amenity": "cafe", "building": "yes", "building:levels": "1", "diet:kosher": "only", "name": "\u05e7\u05e4\u05d4 \u05d2\u05df \u05e1\u05d9\u05e4\u05d5\u05e8", "name:he": "\u05e7\u05e4\u05d4 \u05d2\u05df \u05e1\u05d9\u05e4\u05d5\u05e8", "payment:credit_cards": "yes", "payment:debit_cards": "yes"}}, {"type": "way", "id": 467930193, "nodes": [4625046175, 4625046176, 4625046177, 4625046178, 4625046175], "tags": {"addr:housenumber": "33", "addr:street": "\u05d4\u05de\u05d9\u05d9\u05e1\u05d3\u05d9\u05dd", "amenity": "cafe", "building": "yes", "name": "\u05d4\u05de\u05e8\u05ea\u05e3 \u05e9\u05dc \u05ea\u05e9\u05d1\u05d9", "name:en": "Tishbi's cellar", "name:he": "\u05d4\u05de\u05e8\u05ea\u05e3 \u05e9\u05dc \u05ea\u05e9\u05d1\u05d9"}}, {"type": "way", "id": 468324968, "nodes": [4628582220, 4628582221, 9659554030, 9659554029, 4628582222, 4628582223, 4628582224, 12096026693, 4628582225, 4628582220], "tags": {"amenity": "cafe", "building": "yes", "building:levels": "1"}}, {"type": "way", "id": 499372711, "nodes": [4906521526, 4906521523, 4906521524, 4906521525, 4906521526], "tags": {"amenity": "cafe", "building": "yes", "internet_access": "wlan", "internet_access:fee": "no", "name": "\u05e7\u05e4\u05d4 \u05d2\u05df \u05e1\u05d9\u05e4\u05d5\u05e8 \u05d4\u05e8\u05e6\u05dc\u05d9\u05d4", "name:en": "Gan Sippoor", "name:he": "\u05e7\u05e4\u05d4 \u05d2\u05df \u05e1\u05d9\u05e4\u05d5\u05e8 \u05d4\u05e8\u05e6\u05dc\u05d9\u05d4", "opening_hours": "Mo-Su 08:00-24:00", "outdoor_seating": "yes"}}, {"type": "way", "id": 659726798, "nodes": [6176770995, 6176770996, 6176770997, 6176770998, 6176770995], "tags": {"amenity": "restaurant", "building": "yes", "diet:vegan": "yes", "diet:vegetarian": "yes", "name": "Kofinas", "name:en": "Kofinas", "opening_hours": "Mo,Tu 18:00-23:00; We-Sa 12:00-23:00"}}, {"type": "way", "id": 890831174, "nodes": [8279478246, 8279478247, 9161179819, 8279478249, 8279478246], "tags": {"amenity": "cafe", "building": "yes"}}, {"type": "way", "id": 893689881, "nodes": [8306105218, 8306105219, 8306105220, 8306105221, 8306105222, 8306105223, 8306105224, 8306105225, 8306105226, 8306105227, 8306105228, 8306105229, 8306105230, 8306105231, 8306105218], "tags": {"amenity": "cafe", "building": "yes", "name": "\u05e6\u05d1\u05e2\u05d9\u05dd \u05d1\u05e4\u05d0\u05e8\u05e7", "name:he": "\u05e6\u05d1\u05e2\u05d9\u05dd \u05d1\u05e4\u05d0\u05e8\u05e7"}}, {"type": "way", "id": 905064908, "nodes": [8405160309, 8405160310, 8405160311, 8405160312, 8405160313, 8405160314, 8405160315, 8405160316, 8405160317, 8405160318, 8405160319, 8405160320, 8405160321, 8405160322, 8405160323, 8405160324, 8405160325, 8405160309], "tags": {"amenity": "restaurant", "building": "yes"}}, {"type": "way", "id": 913973593, "nodes": [8490110130, 8490110131, 8490110132, 8490110133, 8490110130], "tags": {"amenity": "restaurant", "building": "yes", "cuisine": "greek", "name": "Fish And Meat Taverna", "name:en": "Fish And Meat Taverna"}}, {"type": "way", "id": 1036515025, "nodes": [9549404976, 9549404977, 9549404978, 9549404979, 9549404976], "tags": {"amenity": "cafe", "building": "yes", "cuisine": "coffee_shop"}}, {"type": "way", "id": 1049269959, "nodes": [9642836912, 9642836913, 9642836914, 9387002541, 9642836912], "tags": {"amenity": "restaurant", "building": "yes", "building:levels": "1", "cuisine": "sushi", "diet:kosher": "yes", "name": "River", "survey:date": "2024-01-15"}}, {"type": "way", "id": 1122687963, "nodes": [10267900740, 10267900741, 10267900742, 10267900743, 10267900744, 10267900740], "tags": {"amenity": "cafe", "building": "yes", "cuisine": "coffee_shop"}}, {"type": "way", "id": 1232717462, "nodes": [11434839480, 11435304071, 11434839481, 11434839483, 11434839484, 11435304072, 11435304073, 11435304074, 11435304075, 11435304093, 11435304076, 11435304077, 11435304078, 11435304079, 11435304080, 11442435731, 11435304081, 8081429046, 8081429045, 8081429044, 8081429043, 8081429042, 8081429041, 8081429040, 8081429039, 11435304082, 8076094515, 8076094514, 11434839485, 11434839480], "tags": {"amenity": "cafe", "building": "yes", "building:levels": "1", "website": "https://h-d-c.co.il/project/\u05d1\u05d9\u05ea-\u05e7\u05e4\u05d4-\u05d1\u05e4\u05d0\u05e8\u05e7-\u05d2\u05dc\u05d9\u05dc-\u05d9\u05dd/"}}, {"type": "way", "id": 1344537271, "nodes": [12438628803, 12438628804, 12438628805, 12438628806, 12438628803], "tags": {"addr:city": "\u05e4\u05e8\u05d3\u05e1 \u05d7\u05e0\u05d4-\u05db\u05e8\u05db\u05d5\u05e8", "addr:housenumber": "28", "addr:street": "\u05e0\u05d1\u05d8\u05d9\u05dd", "amenity": "restaurant", "building": "yes", "diet:vegan": "yes", "name": "\u05d1\u05d8\u05d1\u05e2 \u05e9\u05dc \u05d1\u05e0\u05d9 - \u05d1\u05e6\u05dc \u05d4\u05ea\u05d0\u05e0\u05d4"}}]}