{"version": 0.6, "generator": "Overpass API 0.7.62.7 375dc00a", "osm3s": {"timestamp_osm_base": "2025-06-14T13:59:38Z", "copyright": "The data included in this document is from www.openstreetmap.org. The data is made available under ODbL."}, "elements": [{"type": "node", "id": 473871119, "lat": 40.3510645, "lon": 17.367194, "tags": {"amenity": "restaurant", "name": "Girasole"}}, {"type": "node", "id": 1719436362, "lat": 40.332861, "lon": 17.4191069}, {"type": "node", "id": 1719436448, "lat": 40.3330461, "lon": 17.4191088}, {"type": "node", "id": 1819343596, "lat": 40.4771985, "lon": 17.2296069, "tags": {"amenity": "restaurant", "cuisine": "pizza", "description": "Una pizzeria situata in uno splendido panorama,dove c'\u00e8 solo una regola:essere tifosi del taranto calcio(rosso e blu sono i colori appunto del taranto)", "name": "Pizzeria Rossoblu"}}, {"type": "node", "id": 2090726861, "lat": 40.4082475, "lon": 17.2809497, "tags": {"amenity": "cafe"}}, {"type": "node", "id": 2601143203, "lat": 40.4704204, "lon": 17.2482729, "tags": {"addr:city": "Taranto", "addr:postcode": "74123", "amenity": "cafe", "check_date": "2023-08-08", "internet_access": "no", "name": "Kaos Bar (Kaos Cafe)"}}, {"type": "node", "id": 3870081322, "lat": 40.4756443, "lon": 17.2332642}, {"type": "node", "id": 3870081327, "lat": 40.4756494, "lon": 17.233288}, {"type": "node", "id": 3870081338, "lat": 40.4756623, "lon": 17.233214}, {"type": "node", "id": 3870081344, "lat": 40.4756711, "lon": 17.2332994}, {"type": "node", "id": 3870081350, "lat": 40.4756807, "lon": 17.2332029}, {"type": "node", "id": 3870081351, "lat": 40.4756848, "lon": 17.2332888}, {"type": "node", "id": 3870081356, "lat": 40.4756948, "lon": 17.2332128}, {"type": "node", "id": 3870081363, "lat": 40.475703, "lon": 17.233233}, {"type": "node", "id": 3881629066, "lat": 40.4700648, "lon": 17.2429276, "tags": {"amenity": "cafe", "name": "Antico Caff\u00e8 dal 1900"}}, {"type": "node", "id": 3881632229, "lat": 40.4713311, "lon": 17.2437189}, {"type": "node", "id": 3881632250, "lat": 40.4713558, "lon": 17.2437563}, {"type": "node", "id": 3881632265, "lat": 40.4713754, "lon": 17.2436688}, {"type": "node", "id": 3881632281, "lat": 40.4714001, "lon": 17.2437061}, {"type": "node", "id": 4004857076, "lat": 40.4605739, "lon": 17.2497086, "tags": {"amenity": "cafe", "internet_access": "wlan", "internet_access:fee": "no", "name": "Royal Bar"}}, {"type": "node", "id": 4224867469, "lat": 40.4256427, "lon": 16.8843142}, {"type": "node", "id": 4224867521, "lat": 40.4256882, "lon": 16.8842588}, {"type": "node", "id": 4224867532, "lat": 40.4257052, "lon": 16.8844021}, {"type": "node", "id": 4224867579, "lat": 40.4257507, "lon": 16.8843467}, {"type": "node", "id": 4233417950, "lat": 40.4677156, "lon": 16.9306024}, {"type": "node", "id": 4233418005, "lat": 40.4677677, "lon": 16.9307475}, {"type": "node", "id": 4233418044, "lat": 40.467797, "lon": 16.9305522}, {"type": "node", "id": 4233418126, "lat": 40.4678491, "lon": 16.9306973}, {"type": "node", "id": 4233429634, "lat": 40.4732228, "lon": 16.9343489}, {"type": "node", "id": 4233429652, "lat": 40.473236, "lon": 16.9343841}, {"type": "node", "id": 4233429698, "lat": 40.4732742, "lon": 16.9343159}, {"type": "node", "id": 4233429719, "lat": 40.4732874, "lon": 16.9343509}, {"type": "node", "id": 4234397640, "lat": 40.3525778, "lon": 17.3649901}, {"type": "node", "id": 4234397641, "lat": 40.3525782, "lon": 17.3650694}, {"type": "node", "id": 4234405511, "lat": 40.3525448, "lon": 17.3649904}, {"type": "node", "id": 4234405512, "lat": 40.3525453, "lon": 17.3650698}, {"type": "node", "id": 4234413357, "lat": 40.3561495, "lon": 17.3574801}, {"type": "node", "id": 4234413527, "lat": 40.3562294, "lon": 17.3575625}, {"type": "node", "id": 4234413797, "lat": 40.3563239, "lon": 17.3571913}, {"type": "node", "id": 4234413917, "lat": 40.3564038, "lon": 17.3572737}, {"type": "node", "id": 4238465835, "lat": 40.3329939, "lon": 17.4169986}, {"type": "node", "id": 4238465838, "lat": 40.3329961, "lon": 17.4172526}, {"type": "node", "id": 4239669820, "lat": 40.4227763, "lon": 17.2154463}, {"type": "node", "id": 4239669832, "lat": 40.422783, "lon": 17.2154892}, {"type": "node", "id": 4239669849, "lat": 40.4228004, "lon": 17.2156011}, {"type": "node", "id": 4239670006, "lat": 40.4228409, "lon": 17.2162035}, {"type": "node", "id": 4239670019, "lat": 40.4228516, "lon": 17.2155849}, {"type": "node", "id": 4239670022, "lat": 40.4228521, "lon": 17.2155873}, {"type": "node", "id": 4239670042, "lat": 40.4228669, "lon": 17.2163443}, {"type": "node", "id": 4239670058, "lat": 40.4228783, "lon": 17.215419}, {"type": "node", "id": 4239670066, "lat": 40.4228828, "lon": 17.2154884}, {"type": "node", "id": 4239670075, "lat": 40.4228889, "lon": 17.2154868}, {"type": "node", "id": 4239670078, "lat": 40.4228924, "lon": 17.2161871}, {"type": "node", "id": 4239670083, "lat": 40.422896, "lon": 17.215573}, {"type": "node", "id": 4239670096, "lat": 40.4229185, "lon": 17.216328}, {"type": "node", "id": 4332512095, "lat": 40.4471811, "lon": 17.2720571, "tags": {"addr:housenumber": "7", "addr:street": "Via Golfo di Taranto", "amenity": "restaurant", "contact:facebook": "https://www.facebook.com/zenzerotaranto", "diet:vegan": "yes", "diet:vegetarian": "yes", "name": "Zenzero", "website": "https://zenzerotaranto.it"}}, {"type": "node", "id": 4490511003, "lat": 40.4676984, "lon": 17.2540522, "tags": {"addr:housenumber": "263", "addr:street": "Via Principe Amedeo", "amenity": "cafe", "name": "Bar Pandora"}}, {"type": "node", "id": 4619608185, "lat": 40.4675405, "lon": 17.259933, "tags": {"amenity": "cafe", "level": "0", "name": "Oro Nero", "shop": "tobacco"}}, {"type": "node", "id": 4814054203, "lat": 40.474799, "lon": 17.2316473, "tags": {"addr:housenumber": "29", "addr:street": "Via Duomo", "amenity": "restaurant", "cuisine": "italian", "name": "Caff\u00e9 Letterario", "outdoor_seating": "yes"}}, {"type": "node", "id": 4897992925, "lat": 40.4709354, "lon": 17.2405072, "tags": {"addr:housenumber": "46", "addr:street": "Via De Cesare", "amenity": "restaurant", "check_date": "2023-11-10", "cuisine": "regional", "name": "Giando", "outdoor_seating": "yes"}}, {"type": "node", "id": 4909244999, "lat": 40.4549533, "lon": 17.2547368, "tags": {"addr:city": "Taranto", "addr:housenumber": "115", "addr:postcode": "74100", "addr:street": "Viale Virgilio", "amenity": "cafe", "name": "Baraonda", "operator": "Fuggetti Erasmo", "ref:vatin": "IT02853940738"}}, {"type": "node", "id": 4982500517, "lat": 40.332552, "lon": 17.4190861}, {"type": "node", "id": 4982500518, "lat": 40.3326563, "lon": 17.4179381}, {"type": "node", "id": 4982500519, "lat": 40.3327401, "lon": 17.417509}, {"type": "node", "id": 4982500520, "lat": 40.332781, "lon": 17.4167794}, {"type": "node", "id": 4982500721, "lat": 40.3327789, "lon": 17.416019}, {"type": "node", "id": 4982500722, "lat": 40.3329935, "lon": 17.4160136}, {"type": "node", "id": 5087152942, "lat": 40.4731502, "lon": 17.237195, "tags": {"addr:city": "Taranto", "addr:housenumber": "24", "addr:postcode": "74123", "addr:street": "Via Regina Margherita", "amenity": "restaurant", "cuisine": "pizza;burger", "delivery": "yes", "name": "Pizzeria W La Patata", "outdoor_seating": "no", "phone:mobile": "+39 327 5518500", "takeaway": "yes", "website": "http://yellow.guide/en/w-la-patata-taranto-italy-1564252617229932"}}, {"type": "node", "id": 5094470022, "lat": 40.430706, "lon": 16.887581, "tags": {"addr:city": "Marina di Ginosa", "addr:postcode": "74025", "addr:province": "Taranto", "addr:street": "Viale Pitagora", "amenity": "restaurant", "contact:phone": "+39 099 8270168", "name": "Le Vele"}}, {"type": "node", "id": 5105428480, "lat": 40.3800915, "lon": 17.3550048, "tags": {"addr:city": "Pulsano", "addr:housenumber": "29", "addr:postcode": "74026", "addr:street": "Via Giovanni Paisiello", "amenity": "restaurant", "cuisine": "italian;pizza;regional", "name": "Trattoria Le Arcate", "phone": "+39 099 5338265"}}, {"type": "node", "id": 5212099585, "lat": 40.4710117, "lon": 17.2439338, "tags": {"addr:housenumber": "11", "addr:street": "Via Di Palma", "amenity": "cafe", "check_date": "2023-09-24", "cuisine": "coffee_shop", "name": "ZTL", "outdoor_seating": "yes", "wheelchair": "no"}}, {"type": "node", "id": 5214477064, "lat": 40.4595993, "lon": 17.261464, "tags": {"addr:city": "Taranto", "addr:country": "IT", "addr:housenumber": "28", "addr:postcode": "74121", "addr:street": "Via Sannio", "amenity": "cafe", "internet_access": "yes", "name": "La Perla nera", "outdoor_seating": "no", "smoking": "no"}}, {"type": "node", "id": 5214564122, "lat": 40.470158, "lon": 17.2489485, "tags": {"addr:housenumber": "150", "amenity": "cafe", "check_date": "2023-08-08", "cuisine": "coffee_shop", "internet_access": "no", "name": "Pash\u00e0 Bar", "opening_hours": "Mo-Sa 06:00-22:00; Su off", "outdoor_seating": "yes", "phone": "+39 099 4005902", "smoking": "no"}}, {"type": "node", "id": 5216312799, "lat": 40.4181622, "lon": 17.2185868, "tags": {"addr:city": "Taranto", "addr:country": "IT", "addr:housenumber": "410", "addr:street": "Viale Jonio", "amenity": "cafe", "cuisine": "ice_cream", "internet_access:fee": "no", "level": "0", "name": "Lady White", "outdoor_seating": "yes"}}, {"type": "node", "id": 5220087552, "lat": 40.4684078, "lon": 17.2455477, "tags": {"addr:housenumber": "97", "addr:street": "Via Felice Cavallotti", "amenity": "cafe"}}, {"type": "node", "id": 5224292490, "lat": 40.468784, "lon": 17.2402986, "tags": {"addr:2:housenumber": "14", "addr:housenumber": "13", "addr:street": "Viale Virgilio", "amenity": "cafe", "cuisine": "ice_cream", "internet_access": "no", "internet_access:fee": "no", "level": "0", "name": "Alex Cafe", "outdoor_seating": "yes"}}, {"type": "node", "id": 5224315363, "lat": 40.4705472, "lon": 17.2410342, "tags": {"addr:2:housenumber": "97", "addr:housenumber": "99", "addr:street": "Via Anfiteatro", "amenity": "cafe", "check_date": "2023-11-10", "cuisine": "coffee_shop;pasticceria", "internet_access": "no", "level": "0", "name": "Tarentum", "outdoor_seating": "no", "payment:bancomat": "yes", "payment:cash": "yes", "payment:mastercard": "yes", "payment:visa": "yes", "smoking": "no"}}, {"type": "node", "id": 5224347102, "lat": 40.4675169, "lon": 17.2444449, "tags": {"addr:2:street": "Via Cataldo Nitti", "addr:housenumber": "11", "addr:street": "Via Oberdan", "amenity": "cafe", "check_date": "2023-11-26", "name": "Da Giovanni", "phone": "+39 099 453 4196"}}, {"type": "node", "id": 5224350511, "lat": 40.4694576, "lon": 17.2458327, "tags": {"addr:housenumber": "65", "addr:street": "Via Felice Cavallotti", "amenity": "cafe", "name": "Cream Caramel"}}, {"type": "node", "id": 5237931170, "lat": 40.4674127, "lon": 17.2417155, "tags": {"amenity": "cafe", "internet_access": "no", "level": "0", "name": "Chalet Rosa dei Venti", "outdoor_seating": "yes", "smoking": "isolated", "takeaway": "no", "wheelchair": "limited"}}, {"type": "node", "id": 5292000903, "lat": 40.4192725, "lon": 16.8731149}, {"type": "node", "id": 5292527150, "lat": 40.4192248, "lon": 16.8731735}, {"type": "node", "id": 5292527151, "lat": 40.4191922, "lon": 16.8731277}, {"type": "node", "id": 5292527152, "lat": 40.41924, "lon": 16.8730691}, {"type": "node", "id": 5302944774, "lat": 40.4714283, "lon": 17.2453974, "tags": {"addr:housenumber": "16 c", "amenity": "restaurant", "check_date": "2023-08-14", "name": "Burger Bar"}}, {"type": "node", "id": 5305222791, "lat": 40.4707204, "lon": 17.2465795, "tags": {"amenity": "cafe", "name": "The First", "outdoor_seating": "yes", "phone": "+39 099 4525343", "shop": "pastry"}}, {"type": "node", "id": 5305255808, "lat": 40.4716632, "lon": 17.247144, "tags": {"addr:housenumber": "128", "amenity": "cafe", "check_date": "2023-11-12", "name": "Bar del Corso", "outdoor_seating": "yes"}}, {"type": "node", "id": 5312218137, "lat": 40.4723794, "lon": 17.2450833, "tags": {"amenity": "cafe", "name": "Caff\u00e8 Ninfole 1921"}}, {"type": "node", "id": 5312218139, "lat": 40.4724061, "lon": 17.2450914, "tags": {"amenity": "restaurant", "cuisine": "pizza", "name": "Tarentum", "takeaway": "yes"}}, {"type": "node", "id": 5314686624, "lat": 40.3587163, "lon": 17.3500987, "tags": {"amenity": "restaurant", "capacity": "60", "cuisine": "seafood;italian;regional", "name": "Casa Mita", "outdoor_seating": "yes"}}, {"type": "node", "id": 5372869976, "lat": 40.4087619, "lon": 17.2409431, "tags": {"amenity": "cafe", "name": "Bar Melucci"}}, {"type": "node", "id": 5653515623, "lat": 40.4826762, "lon": 17.2248155, "tags": {"amenity": "restaurant", "name": "Trattoria l'Orologio"}}, {"type": "node", "id": 5800699257, "lat": 40.4665633, "lon": 17.2601292, "tags": {"addr:city": "Taranto", "addr:housenumber": "81", "addr:postcode": "74121", "addr:street": "Via Cesare Battisti", "amenity": "restaurant", "cuisine": "pizza;italian", "name": "Dreher", "outdoor_seating": "yes", "phone": "+39 099 6525918", "smoking": "outside", "website": "https://www.pizzeriadreher.com"}}, {"type": "node", "id": 5808591254, "lat": 40.3476089, "lon": 17.3761236}, {"type": "node", "id": 5808591255, "lat": 40.3475931, "lon": 17.3760116}, {"type": "node", "id": 5808591256, "lat": 40.3477273, "lon": 17.3760078}, {"type": "node", "id": 5808591257, "lat": 40.3479402, "lon": 17.3760064}, {"type": "node", "id": 5808591617, "lat": 40.3477693, "lon": 17.3761823}, {"type": "node", "id": 5808591618, "lat": 40.3479466, "lon": 17.3760813}, {"type": "node", "id": 5873343586, "lat": 40.4743248, "lon": 17.2322569, "tags": {"addr:city": "Taranto", "addr:housenumber": "254", "addr:postcode": "74123", "addr:street": "Via Duomo", "amenity": "restaurant", "cuisine": "pizza;regional", "name": "Pizzeria Picce De Fame", "outdoor_seating": "yes", "phone": "+39 099 4707924"}}, {"type": "node", "id": 6063420014, "lat": 40.4566108, "lon": 17.2551246, "tags": {"addr:housenumber": "96;98;100", "addr:street": "Via Medaglie d'oro", "amenity": "cafe", "name": "Milk & Coffee", "outdoor_seating": "yes", "phone": "+39 099 375 982", "website": "https://bar-pasticceria-milk-coffee-flli-andriani.business.site/"}}, {"type": "node", "id": 6204303389, "lat": 40.4743152, "lon": 17.2389351, "tags": {"addr:housenumber": "2", "addr:street": "Via Cavour", "amenity": "restaurant", "entrance": "yes", "name": "Il Gatto Rosso", "phone:mobile": "+393405337800", "website": "http://www.ristorantegattorosso.com/"}}, {"type": "node", "id": 6233566204, "lat": 40.4599067, "lon": 17.2506189, "tags": {"addr:city": "Taranto", "addr:housenumber": "65", "addr:postcode": "74121", "addr:street": "Viale Virgilio", "addr:unit": "B", "amenity": "restaurant", "cuisine": "pizza", "name": "Osteria due mari", "outdoor_seating": "yes", "phone": "333-6402227", "website": "https://www.facebook.com/Osteria-DUE-MARI-339197666923111/"}}, {"type": "node", "id": 6282958285, "lat": 40.4620603, "lon": 17.2811345, "tags": {"amenity": "cafe", "name": "Pinamar caffe"}}, {"type": "node", "id": 6370744809, "lat": 40.4735131, "lon": 17.2407681, "tags": {"amenity": "restaurant", "cuisine": "italian", "name": "Ristoro Basile Luzzi", "outdoor_seating": "yes"}}, {"type": "node", "id": 6446098689, "lat": 40.4819866, "lon": 17.2236376, "tags": {"addr:housenumber": "47,49", "addr:postcode": "74100", "addr:street": "Via Costantinopoli", "amenity": "restaurant", "name": "Apollo", "self_service": "only", "website": "https://www.panificioapollo.it/"}}, {"type": "node", "id": 6475140176, "lat": 40.4680825, "lon": 17.2423436, "tags": {"addr:city": "Taranto", "addr:country": "IT", "addr:housenumber": "7b", "addr:postcode": "74123", "addr:street": "Piazza Ebalia", "amenity": "restaurant", "check_date": "2023-11-04", "cuisine": "steak_house", "name": "Barbecue Beef Grill", "outdoor_seating": "yes", "payment:bancomat": "yes", "payment:cash": "yes", "payment:mastercard": "yes", "payment:visa": "yes", "wheelchair": "yes"}}, {"type": "node", "id": 6475162339, "lat": 40.4683335, "lon": 17.2444927, "tags": {"addr:street": "Via Nitti", "amenity": "restaurant", "cuisine": "pizza", "name": "Pizzeria La Puccia", "outdoor_seating": "yes"}}, {"type": "node", "id": 6475166597, "lat": 40.4699128, "lon": 17.2446966, "tags": {"addr:housenumber": "205", "addr:street": "Via Anfiteatro", "amenity": "cafe", "cuisine": "coffee_shop", "name": "Caffe 84", "outdoor_seating": "yes"}}, {"type": "node", "id": 6475233123, "lat": 40.4716508, "lon": 17.2417428, "tags": {"addr:housenumber": "89", "addr:street": "Via D'Aquino", "amenity": "cafe", "check_date": "2023-11-08", "cuisine": "coffee_shop;Gelato", "name": "Sandrino", "outdoor_seating": "yes", "wheelchair": "limited"}}, {"type": "node", "id": 6475255962, "lat": 40.4715997, "lon": 17.2406496, "tags": {"addr:housenumber": "122", "addr:street": "Via D'Aquino", "amenity": "cafe", "cuisine": "gelato;crepe", "name": "Cremeria Vienna", "outdoor_seating": "yes", "wheelchair": "no"}}, {"type": "node", "id": 6475257877, "lat": 40.4716405, "lon": 17.2403599, "tags": {"addr:housenumber": "108", "addr:street": "Via Tommaso Nicol\u00f2 D'Aquino", "amenity": "cafe", "cuisine": "coffee_shop;gelato", "name": "Gelateria Del Ponte", "opening_hours": "Mo-Su 10:00-01:00", "outdoor_seating": "yes", "phone": "+39 347 967 3879", "wheelchair": "no"}}, {"type": "node", "id": 6475272808, "lat": 40.47185, "lon": 17.2390501, "tags": {"addr:housenumber": "80", "addr:street": "Via D'Aquino", "amenity": "cafe", "check_date": "2022-08-30", "cuisine": "coffee_shop;pasticcero", "name": "Caffe Constantino", "phone": "+39 351 622 5983"}}, {"type": "node", "id": 6475277282, "lat": 40.4722125, "lon": 17.2371658, "tags": {"addr:housenumber": "30", "addr:street": "Via Tommaso D'Aquino", "amenity": "cafe", "check_date": "2023-11-12", "cuisine": "coffee_shop;pasticceria", "name": "Garibaldi Caff\u00e9", "outdoor_seating": "yes", "wheelchair": "yes"}}, {"type": "node", "id": 6475323697, "lat": 40.4734783, "lon": 17.2363705, "tags": {"addr:housenumber": "22", "addr:street": "Corso Due Mari", "amenity": "restaurant", "cuisine": "japanese", "name": "TOYO"}}, {"type": "node", "id": 6475327277, "lat": 40.4741047, "lon": 17.236561, "tags": {"addr:housenumber": "13", "addr:street": "Corso Due Mari", "amenity": "restaurant", "check_date": "2023-09-30", "cuisine": "pizza", "name": "Corso 13", "outdoor_seating": "yes"}}, {"type": "node", "id": 6475332273, "lat": 40.4742414, "lon": 17.2366468, "tags": {"addr:housenumber": "11", "addr:street": "Corso Due Mari", "amenity": "restaurant", "check_date": "2023-09-30", "cuisine": "asian", "name": "Asian Fusion Restaurant", "payment:bancomat": "yes", "payment:mastercard": "yes", "payment:visa": "yes"}}, {"type": "node", "id": 6475348142, "lat": 40.470351, "lon": 17.2387259, "tags": {"addr:street": "Via Principe Amedeo", "amenity": "restaurant", "check_date": "2023-09-27", "cuisine": "seafood;bar", "name": "Barbin Sea & Wine", "outdoor_seating": "yes", "payment:bancomat": "yes", "payment:mastercard": "yes", "payment:visa": "yes", "website": "https://barbintaranto.it/"}}, {"type": "node", "id": 6475355897, "lat": 40.4698057, "lon": 17.2395137, "tags": {"addr:housenumber": "91", "addr:street": "Via Ciro Giovinazzi", "amenity": "restaurant", "cuisine": "italian;steak_house", "name": "La Locanda Del Macelliao Braceria", "outdoor_seating": "yes"}}, {"type": "node", "id": 6475359542, "lat": 40.4683774, "lon": 17.2409192, "tags": {"addr:housenumber": "29", "addr:street": "Lungomare Vittorio Emanuele III", "amenity": "restaurant", "check_date": "2023-11-26", "cuisine": "regional", "name": "Gi\u00f2", "outdoor_seating": "yes"}}, {"type": "node", "id": 6475367726, "lat": 40.4655899, "lon": 17.2441593, "tags": {"addr:street": "Lungomare Vittorio Emanuele III", "amenity": "restaurant", "cuisine": "seafood;regional", "fixme": "corretto", "name": "Natilus"}}, {"type": "node", "id": 6475373342, "lat": 40.466247, "lon": 17.2441539, "tags": {"addr:housenumber": "165", "addr:street": "Via Nitti", "amenity": "restaurant", "cuisine": "burger;american", "name": "Bennett Urban Bistro"}}, {"type": "node", "id": 6476399340, "lat": 40.4755759, "lon": 17.2315723, "tags": {"amenity": "restaurant", "cuisine": "regional;italian;seafood", "indoor_seating": "yes", "name": "Locanda San Guiseppe", "outdoor_seating": "yes", "survey:date": "2023-12-09"}}, {"type": "node", "id": 6486007540, "lat": 40.4741742, "lon": 17.232101, "tags": {"addr:housenumber": "10", "addr:street": "Piazza San Francesco", "amenity": "cafe", "check_date": "2023-08-19", "cuisine": "coffee_shop;regional;ice_cream", "name": "La Piazzetta Caff\u00e8", "outdoor_seating": "yes", "payment:mastercard": "yes", "payment:visa": "yes"}}, {"type": "node", "id": 6486347755, "lat": 40.4780312, "lon": 17.2290062, "tags": {"amenity": "restaurant", "indoor_seating": "yes", "outdoor_seating": "yes"}}, {"type": "node", "id": 6694396785, "lat": 40.476949, "lon": 17.2283456, "tags": {"amenity": "restaurant", "name": "Cchiu\u2019 mange e cchiu\u2019 iesse pace"}}, {"type": "node", "id": 6972554520, "lat": 40.4669642, "lon": 17.2481308, "tags": {"addr:housenumber": "86", "addr:street": "Via Crispi", "amenity": "cafe", "internet_access": "no", "name": "Woodstock", "outdoor_seating": "no", "phone": "+39 099 459 6004"}}, {"type": "node", "id": 6989155466, "lat": 40.4578794, "lon": 17.2558322, "tags": {"amenity": "cafe", "name": "Bar Aretusa"}}, {"type": "node", "id": 6989159649, "lat": 40.4574011, "lon": 17.2556289, "tags": {"amenity": "restaurant", "name": "Villa Mare 2"}}, {"type": "node", "id": 6989183905, "lat": 40.4587818, "lon": 17.2540599, "tags": {"amenity": "cafe", "name": "Grand Caf\u00e9 J&N"}}, {"type": "node", "id": 7049157408, "lat": 40.4755042, "lon": 17.2339665}, {"type": "node", "id": 7049157409, "lat": 40.4754703, "lon": 17.2339485}, {"type": "node", "id": 7049157410, "lat": 40.4754864, "lon": 17.2338898}, {"type": "node", "id": 7049157411, "lat": 40.4755245, "lon": 17.233913}, {"type": "node", "id": 7243215964, "lat": 40.4705944, "lon": 17.239752, "tags": {"addr:city": "Taranto", "addr:housenumber": "34", "addr:postcode": "74123", "addr:street": "Via Anfiteatro", "amenity": "cafe", "bar": "yes", "check_date": "2024-05-02", "cuisine": "coffee_shop;pasticceria", "name": "Caf\u00e8 del Mar", "opening_hours": "Mo-Sa 07:00-21:00", "outdoor_seating": "yes", "phone": "+39 099 946 0217", "source": "local knowledge;survey", "toilets": "yes", "toilets:wheelchair": "yes"}}, {"type": "node", "id": 7598379667, "lat": 40.4726881, "lon": 17.236126, "tags": {"amenity": "cafe", "check_date": "2023-11-12", "cuisine": "pizza;coffee_shop;bar", "name": "Baron\u00e9", "opening_hours": "Mo, We-Su 07:00-02:00", "outdoor_seating": "yes", "smoking": "outside"}}, {"type": "node", "id": 7656084511, "lat": 40.4271274, "lon": 16.8910011, "tags": {"amenity": "restaurant", "description": "ristorante, pizzeria, bar, gelateria", "name": "Della Nonna"}}, {"type": "node", "id": 8261871348, "lat": 40.4658776, "lon": 17.2758969, "tags": {"addr:city": "Taranto", "addr:housenumber": "331", "addr:postcode": "74121", "addr:street": "Via Cesare Battisti", "amenity": "restaurant", "cuisine": "pizza", "name": "Basilico", "phone": "+390992311052", "website": "https://it-it.facebook.com/login/?next=https%3A%2F%2Fit-it.facebook.com%2FBasilicoTaranto"}}, {"type": "node", "id": 8280846294, "lat": 40.4659634, "lon": 17.2728629, "tags": {"addr:city": "Taranto", "addr:housenumber": "269", "addr:postcode": "74121", "addr:street": "Via Cesare Battisti", "amenity": "restaurant", "cuisine": "pizza;italian;sandwich", "name": "Company/dreher  pizzeria d'asporto"}}, {"type": "node", "id": 8933029880, "lat": 40.4431106, "lon": 17.2612197, "tags": {"addr:city": "Taranto", "addr:housenumber": "18/20", "addr:postcode": "74121", "addr:street": "Via Lago D'Averno / Piazzale F. Lorusso", "amenity": "restaurant", "cuisine": "pizza", "name": "Pizzeria Santa Rita", "phone": "+390997724361"}}, {"type": "node", "id": 9037610537, "lat": 40.4737613, "lon": 16.934669, "tags": {"addr:country": "IT", "addr:place": "Castellaneta Marina", "addr:postcode": "74011", "addr:street": "Viale dei Pini", "amenity": "cafe", "name": "BarCotto", "outdoor_seating": "yes", "takeaway": "yes", "wheelchair": "yes"}}, {"type": "node", "id": 9040151190, "lat": 40.4642985, "lon": 16.9399642, "tags": {"addr:housenumber": "7", "addr:place": "Castellaneta Marina", "addr:postcode": "74010", "addr:street": "Lungomare Eroi del Mare", "amenity": "cafe", "cuisine": "ice_cream", "name": "Moncaf\u00e8", "operator": "Hotel Villa Giusy s.r.l.", "outdoor_seating": "yes", "takeaway": "yes", "toilets:access": "customers", "wheelchair": "designated"}}, {"type": "node", "id": 9041230513, "lat": 40.4678092, "lon": 16.9378486, "tags": {"amenity": "cafe", "cuisine": "ice_cream", "name": "Lucarelli", "opening_hours": "Mo-Su 07:00-24:00; PH closed", "outdoor_seating": "yes", "takeaway": "yes", "wheelchair": "yes"}}, {"type": "node", "id": 9041281649, "lat": 40.4690379, "lon": 16.9393317, "tags": {"addr:street": "Via Mare dei Vapori", "amenity": "restaurant", "cuisine": "pizza;italian;mediterranean;regional", "name": "El Cortigo", "outdoor_seating": "yes", "reservation": "recommended", "takeaway": "yes"}}, {"type": "node", "id": 9041281650, "lat": 40.4667341, "lon": 16.9366273, "tags": {"amenity": "restaurant", "cuisine": "pizza", "name": "Dolcevita"}}, {"type": "node", "id": 9045701353, "lat": 40.4687502, "lon": 16.9436593, "tags": {"amenity": "restaurant", "cuisine": "pizza;italian;mediterranean;regional;pasta", "name": "Il Portico"}}, {"type": "node", "id": 9053926058, "lat": 40.4673962, "lon": 16.9377247, "tags": {"amenity": "restaurant"}}, {"type": "node", "id": 9064755527, "lat": 40.4737552, "lon": 17.2336012, "tags": {"addr:postcode": "74123", "addr:street": "Via Duomo", "amenity": "cafe", "name": "L'Aurora", "operator": "Turbato Antonio", "outdoor_seating": "yes", "phone": "+39 0994706989", "takeaway": "yes", "tobacco": "yes", "wheelchair": "limited"}}, {"type": "node", "id": 9066017788, "lat": 40.4710062, "lon": 17.2428006, "tags": {"addr:city": "Taranto", "addr:country": "IT", "addr:housenumber": "28", "addr:postcode": "74123", "addr:street": "Piazza M. Immacolata", "amenity": "cafe", "name": "Le Premiere Caf\u00e8", "operator": "Le Premier s.r.l.", "outdoor_seating": "yes", "phone": "+39 0994595403", "takeaway": "yes", "wheelchair": "limited"}}, {"type": "node", "id": 9118327416, "lat": 40.4741996, "lon": 17.2324988, "tags": {"addr:housenumber": "266", "addr:street": "Via Duomo", "amenity": "restaurant", "name": "La locanda dei Briganti"}}, {"type": "node", "id": 9397831469, "lat": 40.4568317, "lon": 17.260458, "tags": {"addr:housenumber": "46", "addr:street": "Via Veneto", "amenity": "cafe", "cuisine": "pastry;cafe", "name": "Bar Veneto", "phone": "+39 349 779 6905", "website": "https://barveneto.business.site/"}}, {"type": "node", "id": 9762339088, "lat": 40.4561058, "lon": 17.2583159, "tags": {"addr:city": "Taranto", "addr:housenumber": "218-224", "addr:postcode": "74121", "addr:street": "Corso Italia", "amenity": "restaurant", "cuisine": "japanese", "name": "Miyuki", "takeaway": "no"}}, {"type": "node", "id": 9810933418, "lat": 40.4790215, "lon": 17.2269743, "tags": {"amenity": "restaurant", "name": "Pescheria Trattoria del Pescatore da Murianni"}}, {"type": "node", "id": 9822563747, "lat": 40.4710295, "lon": 17.2426192, "tags": {"amenity": "restaurant", "check_date": "2023-09-27", "name": "Cipponi e Baroni"}}, {"type": "node", "id": 9822563760, "lat": 40.4716676, "lon": 17.2423068, "tags": {"amenity": "restaurant", "cuisine": "pizza", "name": "Santa Caterina"}}, {"type": "node", "id": 9826417017, "lat": 40.3586304, "lon": 17.3446315, "tags": {"addr:postcode": "74010", "addr:street": "SP122", "amenity": "restaurant", "name": "Ristorante La Barca"}}, {"type": "node", "id": 9860173629, "lat": 40.460647, "lon": 17.3001342, "tags": {"amenity": "cafe", "name": "Gran Caff\u00e8", "phone": "+39 099 231 1174"}}, {"type": "node", "id": 9860173633, "lat": 40.4612296, "lon": 17.2998747, "tags": {"amenity": "restaurant", "cuisine": "pizza", "name": "Biga", "phone": "+39 388 129 3296"}}, {"type": "node", "id": 10785240207, "lat": 40.4728359, "lon": 17.2367254, "tags": {"addr:housenumber": "17", "addr:postcode": "74123", "addr:street": "Via Matteotti", "amenity": "restaurant", "name:en": "Due Mari"}}, {"type": "node", "id": 11020837296, "lat": 40.4606573, "lon": 17.3516038, "tags": {"amenity": "cafe", "name": "Menga caff\u00e8"}}, {"type": "node", "id": 11035554839, "lat": 40.464794, "lon": 17.2916598, "tags": {"amenity": "cafe"}}, {"type": "node", "id": 11099859666, "lat": 40.4691849, "lon": 17.247878, "tags": {"amenity": "cafe", "check_date": "2023-11-13", "cuisine": "coffee_shop", "name": "Zerobar"}}, {"type": "node", "id": 11099859670, "lat": 40.4703533, "lon": 17.2486505, "tags": {"amenity": "restaurant", "check_date": "2023-08-08", "cuisine": "pizza;regional", "name": "Dipa", "payment:mastercard": "yes", "payment:visa": "yes"}}, {"type": "node", "id": 11099859671, "lat": 40.4703247, "lon": 17.2488604, "tags": {"air_conditioning": "yes", "amenity": "restaurant", "check_date": "2023-08-08", "cuisine": "regional", "indoor_seating": "yes", "name": "Cibo Nostrum", "outdoor_seating": "seasonal;parklet;patio", "payment:bancomat": "yes", "payment:mastercard": "yes", "payment:visa": "yes", "takeaway": "yes"}}, {"type": "node", "id": 11101427498, "lat": 40.4721058, "lon": 17.2424098, "tags": {"amenity": "restaurant", "check_date": "2023-08-09", "cuisine": "seafood", "name": "Pescheria del Centro", "payment:bancomat": "yes", "payment:mastercard": "yes", "payment:visa": "yes", "takeaway": "yes", "website": "https://pescheriadelcentro.com/"}}, {"type": "node", "id": 11102182470, "lat": 40.3399213, "lon": 17.3858539, "tags": {"amenity": "cafe", "check_date": "2023-08-09", "name": "Tropico", "payment:mastercard": "yes", "payment:visa": "yes"}}, {"type": "node", "id": 11102182471, "lat": 40.3400646, "lon": 17.3855185, "tags": {"amenity": "restaurant", "check_date": "2023-08-09", "cuisine": "pizza", "name": "La Pergola"}}, {"type": "node", "id": 11112048784, "lat": 40.470695, "lon": 17.2467601, "tags": {"addr:housenumber": "69", "addr:street": "Via Di Palma", "amenity": "cafe", "check_date": "2023-08-13", "name": "Il Route Bistrot Hausbrandt Trieste 1892", "payment:mastercard": "yes", "payment:visa": "yes"}}, {"type": "node", "id": 11112826861, "lat": 40.469865, "lon": 17.2457189, "tags": {"amenity": "restaurant", "check_date": "2023-08-13", "cuisine": "pizza", "name": "Lo Stivale"}}, {"type": "node", "id": 11114525872, "lat": 40.4710299, "lon": 17.2460786, "tags": {"addr:housenumber": "36", "addr:street": "Via Cavallotti", "amenity": "restaurant", "check_date": "2023-08-14", "name": "La Gastronomia del Borgo", "outdoor_seating": "no", "source": "local knowledge", "takeaway": "yes"}}, {"type": "node", "id": 11114525873, "lat": 40.4710825, "lon": 17.2460956, "tags": {"addr:housenumber": "34b", "addr:street": "Via Cavallotti", "amenity": "restaurant", "check_date": "2023-08-14", "cuisine": "italian", "name": "Pasta fresca fatta a mano"}}, {"type": "node", "id": 11114612930, "lat": 40.4704769, "lon": 17.2451053, "tags": {"amenity": "cafe", "check_date": "2023-08-14", "name": "Coffee' One"}}, {"type": "node", "id": 11114612933, "lat": 40.4703104, "lon": 17.2453138, "tags": {"amenity": "restaurant", "check_date": "2023-08-14", "cuisine": "steak_house", "name": "Mancrasso", "shop": "butcher"}}, {"type": "node", "id": 11114620419, "lat": 40.4696642, "lon": 17.2451366, "tags": {"amenity": "cafe", "check_date": "2023-08-14", "cuisine": "coffee_shop", "name": "Manuali...1941"}}, {"type": "node", "id": 11114622657, "lat": 40.4700848, "lon": 17.2449903, "tags": {"addr:housenumber": "42", "addr:street": "Via Nitti", "amenity": "restaurant", "check_date": "2023-08-14", "name": "Ristopizza Armida Gastronomia (panificio)", "outdoor_seating": "yes", "phone": "+39 099 452 8521", "takeaway": "yes"}}, {"type": "node", "id": 11125465355, "lat": 40.4707965, "lon": 17.2407613, "tags": {"addr:housenumber": "45", "addr:postcode": "74123", "addr:street": "Via De Cesare", "amenity": "restaurant", "check_date": "2023-11-10", "cuisine": "kebab", "name": "Kebabberia Group", "outdoor_seating": "yes", "phone": "+393501277271"}}, {"type": "node", "id": 11128715334, "lat": 40.474113, "lon": 17.2323066, "tags": {"amenity": "restaurant", "check_date": "2023-08-19", "cuisine": "regional", "name": "Trattoria del Marinaio"}}, {"type": "node", "id": 11134029696, "lat": 40.4396192, "lon": 17.2603773, "tags": {"amenity": "cafe", "check_date": "2023-08-21", "name": "Zacapa"}}, {"type": "node", "id": 11146679134, "lat": 40.4701332, "lon": 17.2433978, "tags": {"amenity": "restaurant", "check_date": "2023-08-26", "cuisine": "halal;kebab", "name": "Alibaba Kebabberia"}}, {"type": "node", "id": 11153677254, "lat": 40.3323214, "lon": 17.4064685, "tags": {"amenity": "cafe", "bar": "yes", "check_date": "2023-08-29", "cuisine": "coffee_shop;regional", "drive_through": "no", "name": "Jamaica", "payment:bancomat": "yes", "payment:mastercard": "yes", "payment:visa": "yes", "source": "local knowledge"}}, {"type": "node", "id": 11190551237, "lat": 40.4822516, "lon": 17.2250299, "tags": {"addr:housenumber": "21A", "addr:postcode": "74123", "addr:street": "Viale Duca D'Aosta", "amenity": "restaurant", "name": "Stella Maris", "website": "https://www.stellamaris.taranto.it"}}, {"type": "node", "id": 11190608641, "lat": 40.4745897, "lon": 17.2324227, "tags": {"amenity": "cafe"}}, {"type": "node", "id": 11190608642, "lat": 40.4741248, "lon": 17.2322681, "tags": {"amenity": "restaurant", "name": "Trattoria del Marinaio"}}, {"type": "node", "id": 11190620137, "lat": 40.4744199, "lon": 17.2320717, "tags": {"amenity": "cafe", "name": "Bar Falanco", "outdoor_seating": "yes"}}, {"type": "node", "id": 11215969426, "lat": 40.4714809, "lon": 17.2407287, "tags": {"amenity": "restaurant", "check_date": "2023-09-24", "cuisine": "regional", "name": "A Casa Vistra"}}, {"type": "node", "id": 11222936098, "lat": 40.472526, "lon": 17.2363104, "tags": {"amenity": "restaurant", "check_date": "2023-09-27", "cuisine": "pizza;regional", "name": "Pizzeria Da Michele", "outdoor_seating": "yes", "payment:bancomat": "yes", "payment:mastercard": "yes", "payment:visa": "yes", "website": "https://www.damicheletaranto.it/"}}, {"type": "node", "id": 11222936099, "lat": 40.4724939, "lon": 17.2365166, "tags": {"amenity": "restaurant", "bar": "yes", "brewery": "yes", "check_date": "2023-09-27", "cuisine": "regional", "name": "Patties", "outdoor_seating": "yes", "payment:mastercard": "yes", "payment:visa": "yes", "website": "https://www.patties.restaurant/"}}, {"type": "node", "id": 11222936100, "lat": 40.4723368, "lon": 17.2365288, "tags": {"amenity": "restaurant", "bar": "yes", "brewery": "yes", "check_date": "2023-09-27", "cuisine": "regional", "name": "Core", "outdoor_seating": "yes", "payment:mastercard": "yes", "payment:visa": "yes"}}, {"type": "node", "id": 11222936101, "lat": 40.4723589, "lon": 17.2364251, "tags": {"amenity": "restaurant", "bar": "yes", "brewery": "yes", "check_date": "2023-09-27", "cuisine": "regional;sandwich", "name": "Lele", "outdoor_seating": "yes", "payment:bancomat": "yes", "payment:bancontact": "yes", "payment:mastercard": "yes", "payment:visa": "yes"}}, {"type": "node", "id": 11223033539, "lat": 40.4720877, "lon": 17.2401562, "tags": {"amenity": "restaurant", "bar": "yes", "brewery": "yes", "check_date": "2023-09-27", "cuisine": "pizza;regional", "name": "400 gradi", "outdoor_seating": "yes", "payment:bancomat": "yes", "payment:mastercard": "yes", "payment:visa": "yes"}}, {"type": "node", "id": 11223033540, "lat": 40.4720364, "lon": 17.2401413, "tags": {"amenity": "restaurant", "check_date": "2023-09-27", "cuisine": "steak_house", "name": "Kong", "outdoor_seating": "yes", "payment:bancomat": "yes", "payment:mastercard": "yes", "payment:visa": "yes"}}, {"type": "node", "id": 11223054894, "lat": 40.4709584, "lon": 17.2432236, "tags": {"amenity": "restaurant", "check_date": "2023-09-27", "cuisine": "pizza;steak_house", "name": "Ricci", "outdoor_seating": "yes", "payment:bancomat": "yes", "payment:mastercard": "yes", "payment:visa": "yes"}}, {"type": "node", "id": 11223085682, "lat": 40.4720773, "lon": 17.2433105, "tags": {"amenity": "restaurant", "check_date": "2023-09-27", "cuisine": "kebab", "name": "Turkia Kebab"}}, {"type": "node", "id": 11223085685, "lat": 40.4715451, "lon": 17.2431508, "tags": {"amenity": "cafe", "check_date": "2023-09-27", "name": "Cristallo"}}, {"type": "node", "id": 11225409651, "lat": 40.458077, "lon": 17.2538988, "tags": {"amenity": "restaurant", "check_date": "2023-09-28", "cuisine": "pizza", "name": "Pizzeria"}}, {"type": "node", "id": 11229663542, "lat": 40.4693952, "lon": 17.243291, "tags": {"amenity": "restaurant", "check_date": "2023-09-30", "cuisine": "spanish", "facebook": "https://www.facebook.com/LaRicaComidaTaranto/", "name": "La Rica Comida", "payment:bancomat": "yes", "payment:mastercard": "yes", "payment:visa": "yes", "wheelchair": "no"}}, {"type": "node", "id": 11229666871, "lat": 40.4738834, "lon": 17.2364761, "tags": {"amenity": "restaurant", "check_date": "2023-09-30", "cuisine": "regional;pizza", "name": "Miseria e Nobilt\u00e0", "payment:bancomat": "yes", "payment:mastercard": "yes", "payment:visa": "yes"}}, {"type": "node", "id": 11229692615, "lat": 40.4740684, "lon": 17.2334475, "tags": {"amenity": "restaurant", "check_date": "2023-09-30", "cuisine": "pizza;regional", "name": "Vico", "payment:mastercard": "yes", "payment:visa": "yes"}}, {"type": "node", "id": 11229731816, "lat": 40.4765164, "lon": 17.2283055, "tags": {"amenity": "cafe", "check_date": "2023-09-30", "cuisine": "coffee_shop", "name": "San Cataldo Caffetteria"}}, {"type": "node", "id": 11229778259, "lat": 40.4738496, "lon": 17.2333145, "tags": {"amenity": "restaurant", "check_date": "2024-11-03", "cuisine": "regional;seafood", "name": "TAGii", "outdoor_seating": "yes", "payment:bancomat": "yes", "payment:mastercard": "yes", "payment:visa": "yes"}}, {"type": "node", "id": 11229787437, "lat": 40.4750609, "lon": 17.2305071, "tags": {"amenity": "restaurant", "check_date": "2023-09-30", "name": "Fichi e Barbera", "payment:bancomat": "yes", "payment:mastercard": "yes", "payment:visa": "yes"}}, {"type": "node", "id": 11243986512, "lat": 40.4662273, "lon": 17.2511959, "tags": {"amenity": "cafe", "check_date": "2023-10-06", "name": "Caffetteria Giada"}}, {"type": "node", "id": 11277857185, "lat": 40.4227627, "lon": 16.8835701, "tags": {"amenity": "restaurant", "check_date": "2023-12-02", "cuisine": "pizza;regional", "name": "La Brace", "outdoor_seating": "no", "phone": "+39 099 827 7270", "survey:date": "2023-10-20", "takeaway": "yes"}}, {"type": "node", "id": 11289313526, "lat": 40.4729336, "lon": 17.2364667, "tags": {"amenity": "restaurant", "check_date": "2023-10-25", "name": "Passione In Pasta", "outdoor_seating": "yes"}}, {"type": "node", "id": 11289313527, "lat": 40.4728861, "lon": 17.2367158, "tags": {"amenity": "restaurant", "check_date": "2023-10-25", "name": "Fabul\u00e0", "outdoor_seating": "yes"}}, {"type": "node", "id": 11289313528, "lat": 40.4728802, "lon": 17.2367676, "tags": {"amenity": "restaurant", "check_date": "2023-10-25", "cuisine": "pizza", "name": "Rosso Piccante", "outdoor_seating": "yes"}}, {"type": "node", "id": 11289313531, "lat": 40.4730632, "lon": 17.2367685, "tags": {"addr:housenumber": "21", "addr:street": "Via Matteotti", "amenity": "restaurant", "check_date": "2023-11-12", "cuisine": "pizza;burger", "name": "Carpe Diem", "outdoor_seating": "yes"}}, {"type": "node", "id": 11314639651, "lat": 40.4697023, "lon": 17.2425773, "tags": {"amenity": "cafe", "check_date": "2023-11-04", "cuisine": "coffee_shop", "name": "Caffe Gallitelli", "outdoor_seating": "yes", "payment:bancomat": "yes", "payment:cash": "yes", "payment:mastercard": "yes", "payment:visa": "yes"}}, {"type": "node", "id": 11314835689, "lat": 40.4685597, "lon": 17.2422378, "tags": {"addr:housenumber": "64", "addr:street": "Via Berardi", "amenity": "restaurant", "check_date": "2023-11-04", "cuisine": "chinese;japanese", "name": "TGanbar\u00e8", "outdoor_seating": "no", "payment:bancomat": "yes", "payment:cash": "yes", "payment:mastercard": "yes", "payment:visa": "yes"}}, {"type": "node", "id": 11314840641, "lat": 40.4682037, "lon": 17.2423742, "tags": {"amenity": "restaurant", "check_date": "2023-11-04", "cuisine": "steak_house;burger", "name": "Vai Vai"}}, {"type": "node", "id": 11314863775, "lat": 40.4688672, "lon": 17.2425802, "tags": {"amenity": "restaurant", "check_date": "2023-11-04", "cuisine": "pizza", "name": "L'angolo"}}, {"type": "node", "id": 11314863776, "lat": 40.4689753, "lon": 17.2425997, "tags": {"amenity": "cafe", "check_date": "2023-11-04", "cuisine": "coffee_shop", "name": "Berardi Caff\u00e8 & Bistrot"}}, {"type": "node", "id": 11332577292, "lat": 40.4687131, "lon": 17.2471157, "tags": {"addr:housenumber": "172", "addr:postcode": "74123", "addr:street": "Via Principe Amedeo", "amenity": "cafe", "name": "Cofee Time", "outdoor_seating": "no", "phone": "+39 099 452 84 15"}}, {"type": "node", "id": 11332701926, "lat": 40.4735943, "lon": 17.2389525, "tags": {"addr:housenumber": "17", "addr:postcode": "74123", "addr:street": "Via Cavour", "amenity": "restaurant", "cuisine": "pizza;regional", "name": "Marcaurelio", "phone": "+39 099 4527893"}}, {"type": "node", "id": 11339265953, "lat": 40.4703004, "lon": 17.2424435, "tags": {"amenity": "cafe", "check_date": "2023-11-10", "cuisine": "coffee_shop;bar", "name": "B\u00e5timent", "outdoor_seating": "yes"}}, {"type": "node", "id": 11339266388, "lat": 40.4707255, "lon": 17.2407237, "tags": {"amenity": "cafe", "check_date": "2023-11-10", "name": "Bar New Amadeus"}}, {"type": "node", "id": 11339269621, "lat": 40.4702979, "lon": 17.2416124, "tags": {"amenity": "restaurant", "check_date": "2023-11-13", "name": "Le Due Fontane", "outdoor_seating": "yes", "phone": "+393381046170", "website": "https://www.leduefontanepastore.it/"}}, {"type": "node", "id": 11339292534, "lat": 40.4704724, "lon": 17.2404139, "tags": {"amenity": "restaurant", "check_date": "2024-11-03", "cuisine": "regional;seafood", "name": "Pastore", "outdoor_seating": "no", "toilets": "yes", "toilets:access": "customers"}}, {"type": "node", "id": 11339294052, "lat": 40.4707176, "lon": 17.2401089, "tags": {"amenity": "restaurant", "check_date": "2023-11-10", "cuisine": "pizza", "name": "La Volta", "outdoor_seating": "yes"}}, {"type": "node", "id": 11339311100, "lat": 40.470677, "lon": 17.2392665, "tags": {"amenity": "cafe", "check_date": "2023-11-10", "cuisine": "coffee_shop", "name": "Trento"}}, {"type": "node", "id": 11339378029, "lat": 40.4693421, "lon": 17.2435032, "tags": {"addr:housenumber": "76", "addr:street": "Via Principe Amedeo", "amenity": "restaurant", "check_date": "2023-11-10", "cuisine": "pizza;seafood", "name": "Al Picod\u00ec", "outdoor_seating": "no"}}, {"type": "node", "id": 11341731412, "lat": 40.4680766, "lon": 17.2507063, "tags": {"amenity": "restaurant", "bar": "no", "check_date": "2023-11-11", "cuisine": "pizza;regional", "name": "Trattoria Da Zia Anna", "outdoor_seating": "no"}}, {"type": "node", "id": 11341731413, "lat": 40.4680763, "lon": 17.2507788, "tags": {"amenity": "cafe", "check_date": "2023-11-11", "cuisine": "coffee_shop", "name": "Bar", "outdoor_seating": "yes"}}, {"type": "node", "id": 11342881165, "lat": 40.474171, "lon": 17.2380489, "tags": {"amenity": "restaurant", "check_date": "2023-11-12", "cuisine": "pizza", "name": "Il Pasticcione", "phone": "+39 099 994 3327; +39 348 005 9958"}}, {"type": "node", "id": 11342893425, "lat": 40.4739086, "lon": 17.237632, "tags": {"amenity": "restaurant", "check_date": "2023-11-12", "cuisine": "pizza", "name": "Pizzav\u00e0", "outdoor_seating": "yes", "phone": "+39 328 128 3877"}}, {"type": "node", "id": 11342963039, "lat": 40.4735964, "lon": 17.2370476, "tags": {"addr:housenumber": "9", "addr:street": "Corso Umberto", "amenity": "restaurant", "check_date": "2023-11-12", "cuisine": "sushi", "email": "info@ristorantesushiautunno.it", "name": "Sushi Autunno", "outdoor_seating": "no", "website": "https://www.ristorantesushiautunno.it"}}, {"type": "node", "id": 11342963818, "lat": 40.472678, "lon": 17.2370642, "tags": {"amenity": "cafe", "check_date": "2023-11-12", "name": "piccolo"}}, {"type": "node", "id": 11342968603, "lat": 40.4736361, "lon": 17.236818, "tags": {"addr:housenumber": "5", "addr:street": "Corso Umberto", "amenity": "restaurant", "check_date": "2023-11-12", "cuisine": "regional;fish", "name": "Miseria & Nobilt\u00e0", "phone": "+39 099 946 7653; +39 346 129 6636; +39 347 500 5354"}}, {"type": "node", "id": 11342998593, "lat": 40.473023, "lon": 17.2371645, "tags": {"amenity": "cafe", "check_date": "2023-11-12", "name": "Effetto Trilogy"}}, {"type": "node", "id": 11343007825, "lat": 40.4729734, "lon": 17.2406405, "tags": {"addr:housenumber": "79a", "addr:street": "Corso Umberto I", "amenity": "restaurant", "check_date": "2023-11-12", "name": "Desco"}}, {"type": "node", "id": 11343019991, "lat": 40.473252, "lon": 17.2392303, "tags": {"addr:housenumber": "51", "addr:street": "Corso Umberto I", "amenity": "restaurant", "check_date": "2023-11-12", "cuisine": "pizza;regional", "name": "La Piccola Cantina"}}, {"type": "node", "id": 11343022767, "lat": 40.4731075, "lon": 17.2424919, "tags": {"amenity": "restaurant", "check_date": "2023-11-12", "cuisine": "pizza;regional", "name": "Guernica", "outdoor_seating": "yes"}}, {"type": "node", "id": 11343025633, "lat": 40.4737523, "lon": 17.2404306, "tags": {"amenity": "cafe", "check_date": "2023-11-12", "name": "Caffe Del Teatro", "outdoor_seating": "yes"}}, {"type": "node", "id": 11343057207, "lat": 40.4733985, "lon": 17.2403093, "tags": {"addr:housenumber": "22", "addr:street": "Via Ciro Giovinazzi", "amenity": "cafe", "check_date": "2023-11-12", "name": "Fantasy", "outdoor_seating": "yes"}}, {"type": "node", "id": 11343060935, "lat": 40.4730052, "lon": 17.2404536, "tags": {"amenity": "restaurant", "check_date": "2023-11-12", "name": "Puglieria"}}, {"type": "node", "id": 11346406414, "lat": 40.472141, "lon": 17.2408926, "tags": {"amenity": "cafe", "check_date": "2023-11-13", "cuisine": "coffee_shop;pastry", "name": "Queen 2.0", "outdoor_seating": "yes"}}, {"type": "node", "id": 11346408391, "lat": 40.4722804, "lon": 17.2402254, "tags": {"amenity": "cafe", "check_date": "2023-11-13", "cuisine": "coffee_shop;pastry", "name": "Bar", "outdoor_seating": "yes"}}, {"type": "node", "id": 11346816579, "lat": 40.4707246, "lon": 17.2443853, "tags": {"amenity": "restaurant", "check_date": "2023-11-13", "cuisine": "sushi;poke", "name": "Poker Sushi", "outdoor_seating": "yes"}}, {"type": "node", "id": 11347964372, "lat": 40.4639946, "lon": 17.2465753, "tags": {"addr:housenumber": "103", "addr:street": "Via Crispi", "amenity": "cafe", "cuisine": "coffee;regional", "name": "Caffetteria Carlos", "outdoor_seating": "no", "phone": "+39 324 152 5588", "website:menu": "https://www.menudigitale.io/hwcsb"}}, {"type": "node", "id": 11347965001, "lat": 40.4657701, "lon": 17.247743, "tags": {"addr:housenumber": "96", "addr:street": "Via Crispi", "amenity": "cafe", "name": "Bar Mignon", "outdoor_seating": "no", "phone": "+39 099 4526400"}}, {"type": "node", "id": 11349055038, "lat": 40.438286, "lon": 17.2613633, "tags": {"amenity": "restaurant", "check_date": "2023-11-14", "cuisine": "pizza", "name": "Dna", "phone": "+39 099 772 3080"}}, {"type": "node", "id": 11377421802, "lat": 40.4668698, "lon": 17.2483062, "tags": {"amenity": "restaurant", "check_date": "2023-11-26", "cuisine": "regional;pizza", "delivery": "yes", "name": "Antichi Sapori", "outdoor_seating": "no", "phone": "+39 333 199 6183", "takeaway": "only"}}, {"type": "node", "id": 11377424639, "lat": 40.4677177, "lon": 17.2430054, "tags": {"amenity": "cafe", "check_date": "2023-11-26", "cuisine": "coffee_shop", "name": "Dolce Italia"}}, {"type": "node", "id": 11377429849, "lat": 40.4671815, "lon": 17.2459383, "tags": {"addr:housenumber": "33a", "addr:street": "Via Oberdan", "amenity": "cafe", "check_date": "2023-11-26", "name": "Caffe 78"}}, {"type": "node", "id": 11377436108, "lat": 40.4679233, "lon": 17.2414582, "tags": {"amenity": "restaurant", "check_date": "2023-11-26", "cuisine": "asian", "name": "Sakura", "outdoor_seating": "yes"}}, {"type": "node", "id": 11377443581, "lat": 40.4685716, "lon": 17.2405702, "tags": {"amenity": "restaurant", "check_date": "2023-11-26", "name": "Lievito 21"}}, {"type": "node", "id": 11377451021, "lat": 40.4670768, "lon": 17.2466137, "tags": {"amenity": "restaurant", "check_date": "2023-11-26", "cuisine": "regional", "delivery": "yes", "name": "Mare & Terra", "outdoor_seating": "no", "phone": "+39 375 787 2652", "takeaway": "only"}}, {"type": "node", "id": 11377453565, "lat": 40.4673765, "lon": 17.248239, "tags": {"amenity": "restaurant", "check_date": "2023-11-26", "cuisine": "pizza", "delivery": "yes", "name": "De Gustibus", "outdoor_seating": "no", "takeaway": "yes"}}, {"type": "node", "id": 11377458450, "lat": 40.4670968, "lon": 17.2464915, "tags": {"amenity": "restaurant", "check_date": "2023-11-26", "cuisine": "pizza;kebab", "name": "Da Maria", "phone": "+39 340 505 4013"}}, {"type": "node", "id": 11382142066, "lat": 40.3838254, "lon": 17.3324976, "tags": {"amenity": "restaurant"}}, {"type": "node", "id": 11392374820, "lat": 40.4628215, "lon": 17.2502013, "tags": {"amenity": "cafe", "bar": "yes", "check_date": "2023-12-03", "cuisine": "coffee_shop;regional", "drive_through": "no", "name": "Le Tre Caravelle", "outdoor_seating": "yes"}}, {"type": "node", "id": 11392658874, "lat": 40.4675176, "lon": 17.2499128, "tags": {"amenity": "restaurant", "check_date": "2023-12-03", "cuisine": "pizza;regional", "name": "Messinese", "outdoor_seating": "yes"}}, {"type": "node", "id": 11392668441, "lat": 40.4673498, "lon": 17.2500437, "tags": {"amenity": "restaurant", "check_date": "2023-12-03", "cuisine": "pizza", "name": "Havana", "outdoor_seating": "no", "takeaway": "only"}}, {"type": "node", "id": 11392688598, "lat": 40.4676107, "lon": 17.2485742, "tags": {"amenity": "cafe", "check_date": "2023-12-03", "cuisine": "coffee_shop", "name": "K2"}}, {"type": "node", "id": 11397929136, "lat": 40.3324014, "lon": 17.4030933, "tags": {"amenity": "cafe", "indoor_seating": "no", "name": "Marina Piccola", "outdoor_seating": "yes"}}, {"type": "node", "id": 11397930911, "lat": 40.3329126, "lon": 17.4028831, "tags": {"amenity": "cafe", "check_date:opening_hours": "2023-12-06", "indoor_seating": "no", "name": "Surf Caf\u00e8", "opening_hours:signed": "no", "outdoor_seating": "yes", "wheelchair": "yes"}}, {"type": "node", "id": 11399780250, "lat": 40.3797671, "lon": 17.3078481, "tags": {"amenity": "restaurant"}}, {"type": "node", "id": 11399796280, "lat": 40.3472725, "lon": 17.3803618, "tags": {"amenity": "cafe"}}, {"type": "node", "id": 11399805442, "lat": 40.3539521, "lon": 17.3626546, "tags": {"amenity": "restaurant", "indoor_seating": "yes", "outdoor_seating": "yes"}}, {"type": "node", "id": 11399823536, "lat": 40.3541219, "lon": 17.3621282, "tags": {"amenity": "restaurant"}}, {"type": "node", "id": 11399827541, "lat": 40.3496879, "lon": 17.371118, "tags": {"amenity": "cafe", "indoor_seating": "no", "outdoor_seating": "yes"}}, {"type": "node", "id": 11399847760, "lat": 40.3572392, "lon": 17.356531, "tags": {"amenity": "restaurant", "indoor_seating": "yes", "outdoor_seating": "yes"}}, {"type": "node", "id": 11399865958, "lat": 40.3636179, "lon": 17.3303699, "tags": {"amenity": "restaurant"}}, {"type": "node", "id": 11399881959, "lat": 40.3625607, "lon": 17.3325343, "tags": {"amenity": "restaurant"}}, {"type": "node", "id": 11399931489, "lat": 40.3798293, "lon": 17.3076663, "tags": {"amenity": "cafe"}}, {"type": "node", "id": 11399939536, "lat": 40.3841428, "lon": 17.2985338, "tags": {"amenity": "cafe"}}, {"type": "node", "id": 11399941592, "lat": 40.383636, "lon": 17.3032012, "tags": {"amenity": "cafe"}}, {"type": "node", "id": 11399949545, "lat": 40.3834361, "lon": 17.3015612, "tags": {"amenity": "cafe", "indoor_seating": "yes", "outdoor_seating": "yes"}}, {"type": "node", "id": 11399953312, "lat": 40.3836602, "lon": 17.2968822, "tags": {"amenity": "restaurant", "name": "Villa Mare"}}, {"type": "node", "id": 11399963636, "lat": 40.38401, "lon": 17.293699, "tags": {"amenity": "restaurant", "indoor_seating": "yes", "outdoor_seating": "yes"}}, {"type": "node", "id": 11399980917, "lat": 40.3897303, "lon": 17.2793721, "tags": {"amenity": "restaurant"}}, {"type": "node", "id": 11400024813, "lat": 40.4105744, "lon": 17.2651785, "tags": {"amenity": "cafe"}}, {"type": "node", "id": 11400815814, "lat": 40.4795536, "lon": 17.2269976, "tags": {"amenity": "restaurant"}}, {"type": "node", "id": 11405287254, "lat": 40.477901, "lon": 17.2291292, "tags": {"amenity": "restaurant", "indoor_seating": "yes", "outdoor_seating": "yes"}}, {"type": "node", "id": 11405344635, "lat": 40.4751126, "lon": 17.2330426, "tags": {"amenity": "restaurant", "indoor_seating": "yes", "name": "La Sirenetta", "outdoor_seating": "yes"}}, {"type": "node", "id": 11405352859, "lat": 40.4754113, "lon": 17.2329305, "tags": {"amenity": "restaurant", "indoor_seating": "yes", "name": "Il Veliero", "outdoor_seating": "yes"}}, {"type": "node", "id": 11405354259, "lat": 40.477404, "lon": 17.2293196, "tags": {"amenity": "restaurant"}}, {"type": "node", "id": 11405356853, "lat": 40.4792438, "lon": 17.22803, "tags": {"addr:postcode": "74123", "addr:street": "Via Cariati", "amenity": "restaurant", "check_date": "2024-11-03", "name": "Dal Nonno - Il Mare in Tavola"}}, {"type": "node", "id": 11405376576, "lat": 40.4752075, "lon": 17.2335567, "tags": {"amenity": "restaurant", "indoor_seating": "yes", "name": "Gente di Mare", "outdoor_seating": "yes"}}, {"type": "node", "id": 11405670975, "lat": 40.475465, "lon": 17.2338676}, {"type": "node", "id": 11405670979, "lat": 40.4754485, "lon": 17.2338834}, {"type": "node", "id": 11405670980, "lat": 40.4754815, "lon": 17.2338762}, {"type": "node", "id": 11405670981, "lat": 40.4754568, "lon": 17.2339536}, {"type": "node", "id": 11405670987, "lat": 40.4754534, "lon": 17.2338718}, {"type": "node", "id": 11405670998, "lat": 40.4754396, "lon": 17.2339491}, {"type": "node", "id": 11405671003, "lat": 40.475435, "lon": 17.2339315}, {"type": "node", "id": 11405671007, "lat": 40.475447, "lon": 17.2339013}, {"type": "node", "id": 11702200305, "lat": 40.4679381, "lon": 17.2477614, "tags": {"addr:housenumber": "148", "addr:street": "Via Mazzini", "amenity": "restaurant", "check_date": "2024-03-07", "cuisine": "pizza", "name": "La Livornese", "payment:bancomat": "yes", "payment:cash": "yes", "payment:mastercard": "yes", "payment:visa": "yes"}}, {"type": "node", "id": 11731020830, "lat": 40.4625915, "lon": 16.9376433, "tags": {"addr:city": "Castellaneta Marina", "addr:postcode": "74011", "addr:street": "Lungomare Eroi del Mare", "air_conditioning": "yes", "amenity": "restaurant", "bar": "yes", "cuisine": "burger;pizza;seafood;breakfast;steak_house;italian_pizza;sandwich", "name": "Paradiso Beach Bar", "opening_hours": "24/7", "outdoor_seating": "yes", "reservation": "yes", "takeaway": "yes", "website": "https://musicaeparole.it/", "wheelchair": "yes"}}, {"type": "node", "id": 12063776441, "lat": 40.4624665, "lon": 17.2489185, "tags": {"addr:housenumber": "148", "addr:street": "Via Tito Minniti", "amenity": "cafe", "name": "New Il Bar Ghibbio"}}, {"type": "node", "id": 12194565484, "lat": 40.3700886, "lon": 17.311015, "tags": {"amenity": "restaurant"}}, {"type": "node", "id": 12310097372, "lat": 40.4795103, "lon": 17.2274135, "tags": {"addr:street": "Piazza Fontana", "amenity": "restaurant", "name": "Frisc' e Mmange"}}, {"type": "node", "id": 12319165801, "lat": 40.4612468, "lon": 17.2489027, "tags": {"addr:housenumber": "49", "addr:postcode": "74121", "addr:street": "Viale Virgilio", "amenity": "restaurant", "name": "Pizza Da Pazzi", "outdoor_seating": "no"}}, {"type": "node", "id": 12319165901, "lat": 40.4548321, "lon": 17.2566025, "tags": {"addr:housenumber": "169", "addr:postcode": "74123", "addr:street": "Via Campania", "amenity": "restaurant", "name": "Conte La Gastronomia"}}, {"type": "way", "id": 383707881, "nodes": [3870081327, 3870081322, 3870081338, 3870081350, 3870081356, 3870081363, 3870081351, 3870081344, 3870081327], "tags": {"amenity": "cafe", "building": "yes", "check_date:opening_hours": "2023-12-09", "indoor_seating": "no", "name": "Al Molo", "opening_hours:signed": "no", "outdoor_seating": "yes", "smoking": "yes", "wheelchair": "yes"}}, {"type": "way", "id": 384808198, "nodes": [3881632250, 3881632229, 3881632265, 3881632281, 3881632250], "tags": {"amenity": "cafe", "building": "kiosk", "wheelchair": "yes"}}, {"type": "way", "id": 422756999, "nodes": [4224867532, 4224867469, 4224867521, 4224867579, 4224867532], "tags": {"amenity": "cafe", "building": "yes", "name": "Chioschetto"}}, {"type": "way", "id": 423810123, "nodes": [4233429652, 4233429634, 4233429698, 4233429719, 4233429652], "tags": {"addr:country": "IT", "addr:place": "Castellaneta Marina", "addr:postcode": "74010", "addr:street": "Viale dei Pini", "amenity": "cafe", "building": "shed", "name": "Pequeno Bar", "outdoor_seating": "yes"}}, {"type": "way", "id": 423814850, "nodes": [4233418005, 4233417950, 4233418044, 4233418126, 4233418005], "tags": {"addr:housenumber": "74", "addr:street": "Via Valentina Tereskova", "amenity": "restaurant", "building": "yes", "cuisine": "pizza", "name": "Re Mida", "outdoor_seating": "yes", "payment:cash": "yes", "payment:credit_cards": "yes", "payment:debit_cards": "yes", "reservation": "yes", "takeaway": "yes", "wheelchair": "yes"}}, {"type": "way", "id": 423937540, "nodes": [4234405512, 4234405511, 4234397640, 4234397641, 4234405512], "tags": {"amenity": "restaurant", "building": "yes", "cuisine": "pizza", "name": "Il Turista", "outdoor_seating": "yes", "takeaway": "yes"}}, {"type": "way", "id": 423937652, "nodes": [4234413527, 4234413357, 4234413797, 4234413917, 4234413527], "tags": {"amenity": "restaurant", "building": "shed", "name": "El Cohiba 59"}}, {"type": "way", "id": 424548320, "nodes": [4239670042, 4239670006, 4239670078, 4239670096, 4239670042], "tags": {"addr:street": "Viale del Tramonto", "amenity": "cafe", "building": "kiosk", "internet_access": "no", "name": "Calm Beach", "seasonal": "summer"}}, {"type": "way", "id": 424548323, "nodes": [4239670083, 4239670019, 4239670022, 4239669849, 4239669832, 4239669820, 4239670058, 4239670075, 4239670066, 4239670083], "tags": {"addr:housenumber": "8", "addr:street": "Viale del Tramonto", "amenity": "restaurant", "building": "yes", "name": "La Baracca di Zio Peppe"}}, {"type": "way", "id": 508953448, "nodes": [4982500722, 4982500721, 4982500520, 4982500519, 4982500518, 4982500517, 1719436362, 1719436448, 4238465838, 4238465835, 4982500722], "tags": {"amenity": "restaurant", "fee": "yes", "leisure": "beach_resort", "name": "Onda Blu Lido", "phone": "+39 099 531 4802"}}, {"type": "way", "id": 547769792, "nodes": [5292527152, 5292527151, 5292527150, 5292000903, 5292527152], "tags": {"amenity": "cafe", "building": "kiosk", "check_date:opening_hours": "2024-07-20", "internet_access": "no", "internet_access:fee": "yes", "name": "White Bar", "opening_hours:signed": "no", "outdoor_seating": "yes"}}, {"type": "way", "id": 614006182, "nodes": [5808591617, 5808591618, 5808591257, 5808591256, 5808591255, 5808591254, 5808591617], "tags": {"amenity": "restaurant", "name": "Baia Serrone"}}, {"type": "way", "id": 754556894, "nodes": [7049157411, 7049157410, 11405670980, 11405670975, 11405670987, 11405670979, 11405671007, 11405671003, 11405670998, 11405670981, 7049157409, 7049157408, 7049157411], "tags": {"amenity": "restaurant", "building": "yes", "check_date:opening_hours": "2023-12-09", "cuisine": "pizza", "indoor_seating": "no", "name": "Al Molo 2", "opening_hours:signed": "no", "outdoor_seating": "yes", "phone": "+39 388 566 6498", "smoking": "yes", "wheelchair": "yes"}}]}