{"version": 0.6, "generator": "Overpass API 0.7.62.7 375dc00a", "osm3s": {"timestamp_osm_base": "2025-06-14T15:13:00Z", "copyright": "The data included in this document is from www.openstreetmap.org. The data is made available under ODbL."}, "elements": [{"type": "node", "id": 5587557202, "lat": 3.66618, "lon": 31.2902367, "tags": {"addr:county": "Aringa", "addr:district": "Yumbe", "addr:parish": "Osubira", "addr:subcounty": "Kerwa", "addr:village": "Wangoro", "amenity": "restaurant", "name": "Abue Justin Enterprise", "opening_hours": "Mo-Fr 08:30-15:30", "source": "HOT-Uganda", "source:form": "CBI;v3.0.2", "start_date": "01/02/2010"}}, {"type": "node", "id": 5588343238, "lat": 3.6867606, "lon": 31.3229293, "tags": {"addr:county": "Aringa", "addr:district": "Yumbe", "addr:parish": "Kopionga", "addr:subcounty": "Kerwa", "addr:village": "Dolobo", "amenity": "restaurant", "name": "Betty", "opening_hours": "Mo-Su 09:00-17:00", "source": "HOT-Uganda", "source:form": "CBI;v3.0.2", "start_date": "8/1/2012"}}, {"type": "node", "id": 5588343267, "lat": 3.5799897, "lon": 31.1999928, "tags": {"addr:county": "Aringa", "addr:district": "Yumbe", "addr:parish": "Mulumbe", "addr:subcounty": "Midigo", "addr:village": "Laina", "amenity": "restaurant", "name": "Omba", "source": "HOT-Uganda", "source:form": "CBI;v3.0.3", "start_date": "4/1/2014"}}, {"type": "node", "id": 5588343270, "lat": 3.6047302, "lon": 31.233354, "tags": {"addr:county": "Aringa", "addr:district": "Yumbe", "addr:parish": "Medenga", "addr:subcounty": "Midigo", "addr:village": "Logole", "amenity": "restaurant", "name": "Ajobe's Shop", "opening_hours": "Mo-Su 09:00-17:00", "source": "HOT-Uganda", "source:form": "CBI;v3.0.2", "start_date": "10/1/2016"}}, {"type": "node", "id": 5588343286, "lat": 3.7379007, "lon": 31.3074152, "tags": {"addr:county": "Aringa", "addr:district": "Yumbe", "addr:parish": "Kerwa", "addr:subcounty": "Kerwa", "addr:village": "Tire", "amenity": "restaurant", "name": "Sadia Janes", "source": "HOT-Uganda", "source:form": "CBI;v3.0.2", "start_date": "3/1/2014"}}, {"type": "node", "id": 5589889491, "lat": 3.7167308, "lon": 31.2418632, "tags": {"addr:county": "Aringa", "addr:district": "Yumbe", "addr:parish": "Mijikita", "addr:subcounty": "Kerwa", "addr:village": "Kupia", "amenity": "restaurant", "name": "Dina's Restaurant", "source": "HOT-Uganda", "source:form": "CBI;v3.0.2", "start_date": "01/03/2018"}}, {"type": "node", "id": 5589889497, "lat": 3.7109329, "lon": 31.3079554, "tags": {"addr:county": "Aringa", "addr:district": "Yumbe", "addr:parish": "Mijikita", "addr:subcounty": "Kerwa", "addr:village": "Letimeko", "amenity": "restaurant", "name": "Joan Jessys Restaurant", "source": "HOT-Uganda", "source:form": "CBI;v3.0.2", "start_date": "01/04/2018"}}, {"type": "node", "id": 5589889498, "lat": 3.7113048, "lon": 31.3080028, "tags": {"addr:county": "Aringa", "addr:district": "Yumbe", "addr:parish": "Mijikita", "addr:subcounty": "Kerwa", "addr:village": "Letimeko", "amenity": "restaurant", "name": "Sadia Loyces Restaurant", "opening_hours": "Mo-Su 09:00-17:00", "source": "HOT-Uganda", "source:form": "CBI;v3.0.2", "start_date": "01/03/2018"}}, {"type": "node", "id": 5594282274, "lat": 3.6872833, "lon": 31.2927217, "tags": {"addr:county": "Aringa", "addr:district": "Yumbe", "addr:parish": "Rodo", "addr:subcounty": "Kerwa", "addr:village": "Mijali", "amenity": "restaurant", "name": "Betty's Hotel", "opening_hours": "Mo-Su 09:00-17:00", "source": "HOT-Uganda", "source:form": "CBI;v3.0.2", "start_date": "01/03/2014"}}, {"type": "node", "id": 5594282281, "lat": 3.6877221, "lon": 31.292948, "tags": {"addr:county": "Aringa", "addr:district": "Yumbe", "addr:parish": "Rodo", "addr:subcounty": "Kerwa", "addr:village": "Mijali", "amenity": "restaurant", "name": "Poni Hotel", "opening_hours": "Mo-Su 09:00-17:00", "source": "HOT-Uganda", "source:form": "CBI;v3.0.2", "start_date": "01/12/2014"}}, {"type": "node", "id": 5594282287, "lat": 3.6868467, "lon": 31.292505, "tags": {"addr:county": "Aringa", "addr:district": "Yumbe", "addr:parish": "Rodo", "addr:subcounty": "Kerwa", "addr:village": "Mijali", "amenity": "restaurant", "name": "Mijali Hotel", "opening_hours": "Mo-Su 09:00-17:00", "source": "HOT-Uganda", "source:form": "CBI;v3.0.2", "start_date": "01/09/2015"}}, {"type": "node", "id": 5594282290, "lat": 3.5786733, "lon": 31.5153489, "tags": {"addr:county": "Aringa", "addr:district": "Yumbe", "addr:parish": "Lombe", "addr:subcounty": "Kochi", "addr:village": "Aliodraanyosi", "amenity": "restaurant", "name": "Faimas Restaurant", "source": "HOT-Uganda", "source:form": "CBI;v3.0.2", "start_date": "01/05/2017"}}, {"type": "node", "id": 5594282295, "lat": 3.5789893, "lon": 31.5158042, "tags": {"addr:county": "Aringa", "addr:district": "Yumbe", "addr:parish": "Lombe", "addr:subcounty": "Kochi", "addr:village": "Aliodraanyosi", "amenity": "restaurant", "name": "Sherifas Restaurant", "source": "HOT-Uganda", "source:form": "CBI;v3.0.2", "start_date": "01/07/2017"}}, {"type": "node", "id": 5594282310, "lat": 3.5787822, "lon": 31.5149071, "tags": {"addr:county": "Aringa", "addr:district": "Yumbe", "addr:parish": "Lombe", "addr:subcounty": "Kochi", "addr:village": "Aliodraanusi", "amenity": "restaurant", "name": "Aminas Restaurant", "opening_hours": "Mo-Fr 09:00-17:00", "source": "HOT-Uganda", "source:form": "CBI;v3.0.2", "start_date": "01/04/2017"}}, {"type": "node", "id": 5594282313, "lat": 3.5789932, "lon": 31.5153627, "tags": {"addr:county": "Aringa", "addr:district": "Yumbe", "addr:parish": "Lombe", "addr:subcounty": "Kochi", "addr:village": "Aliodraanusi", "amenity": "restaurant", "name": "Samias Restaurant", "source": "HOT-Uganda", "source:form": "CBI;v3.0.2", "start_date": "01/04/2016"}}, {"type": "node", "id": 5594282434, "lat": 3.7246267, "lon": 31.2665883, "tags": {"addr:county": "Aringa", "addr:district": "Yumbe", "addr:parish": "Rodo", "addr:subcounty": "Kerwa", "addr:village": "Kilaji", "amenity": "restaurant", "name": "Mama Mary", "opening_hours": "Mo-Su 09:00-17:00", "source": "HOT-Uganda", "source:form": "CBI;v3.0.2", "start_date": "01/12/2016"}}, {"type": "node", "id": 5594282440, "lat": 3.7242667, "lon": 31.2666117, "tags": {"addr:county": "Aringa", "addr:district": "Yumbe", "addr:parish": "Rodo", "addr:subcounty": "Kerwa", "addr:village": "Kilaji", "amenity": "restaurant", "name": "Kilaji Hotel", "opening_hours": "Mo-Su 09:00-17:00", "source": "HOT-Uganda", "source:form": "CBI;v3.0.2", "start_date": "01/08/2016"}}]}