{"version": 0.6, "generator": "Overpass API 0.7.62.7 375dc00a", "osm3s": {"timestamp_osm_base": "2025-06-14T15:15:01Z", "copyright": "The data included in this document is from www.openstreetmap.org. The data is made available under ODbL."}, "elements": [{"type": "node", "id": 478198888, "lat": 28.5422518, "lon": 33.9833197, "tags": {"amenity": "cafe", "cuisine": "bistro"}}, {"type": "node", "id": 478198891, "lat": 28.5431255, "lon": 33.9827044, "tags": {"amenity": "cafe", "cuisine": "bistro"}}, {"type": "node", "id": 478198910, "lat": 28.5408137, "lon": 33.9811795, "tags": {"amenity": "cafe", "cuisine": "bistro"}}, {"type": "node", "id": 478198911, "lat": 28.5399752, "lon": 33.9791854, "tags": {"amenity": "cafe", "cuisine": "bistro"}}, {"type": "node", "id": 478198914, "lat": 28.5384111, "lon": 33.9790128, "tags": {"amenity": "cafe", "cuisine": "bistro"}}, {"type": "node", "id": 478198918, "lat": 28.5409959, "lon": 33.976433, "tags": {"amenity": "cafe", "cuisine": "bistro"}}, {"type": "node", "id": 478198920, "lat": 28.5420116, "lon": 33.9763007, "tags": {"amenity": "cafe", "cuisine": "bistro"}}, {"type": "node", "id": 478198924, "lat": 28.5425093, "lon": 33.9758029, "tags": {"amenity": "cafe", "cuisine": "bistro"}}, {"type": "node", "id": 478198935, "lat": 28.539601, "lon": 33.9755925, "tags": {"amenity": "cafe", "cuisine": "bistro"}}, {"type": "node", "id": 478198936, "lat": 28.5398108, "lon": 33.9753194, "tags": {"amenity": "cafe", "cuisine": "bistro"}}, {"type": "node", "id": 2314656795, "lat": 28.519846, "lon": 33.9941109}, {"type": "node", "id": 2314656798, "lat": 28.519883, "lon": 33.9941222}, {"type": "node", "id": 2314656801, "lat": 28.5199101, "lon": 33.994153}, {"type": "node", "id": 2314656803, "lat": 28.51992, "lon": 33.9941951}, {"type": "node", "id": 2314656805, "lat": 28.519846, "lon": 33.9942793}, {"type": "node", "id": 2314656807, "lat": 28.519809, "lon": 33.9942681}, {"type": "node", "id": 2314656810, "lat": 28.5197819, "lon": 33.9942372}, {"type": "node", "id": 2314656812, "lat": 28.519772, "lon": 33.9941951}, {"type": "node", "id": 2314656814, "lat": 28.5197819, "lon": 33.994153}, {"type": "node", "id": 2314656816, "lat": 28.519809, "lon": 33.9941222}, {"type": "node", "id": 2314656818, "lat": 28.5199101, "lon": 33.9942372}, {"type": "node", "id": 2314656820, "lat": 28.519883, "lon": 33.9942681}, {"type": "node", "id": 2314656822, "lat": 28.5197975, "lon": 33.994051}, {"type": "node", "id": 2314656824, "lat": 28.5197812, "lon": 33.9940682}, {"type": "node", "id": 2314656826, "lat": 28.5197769, "lon": 33.9941139}, {"type": "node", "id": 2314656828, "lat": 28.5197531, "lon": 33.9941497}, {"type": "node", "id": 2314656830, "lat": 28.5197118, "lon": 33.9941188}, {"type": "node", "id": 2314656832, "lat": 28.5197249, "lon": 33.9940843}, {"type": "node", "id": 2314656834, "lat": 28.5197357, "lon": 33.9940855}, {"type": "node", "id": 2314656836, "lat": 28.519739, "lon": 33.9940744}, {"type": "node", "id": 2314656837, "lat": 28.5197303, "lon": 33.9940559}, {"type": "node", "id": 2314656839, "lat": 28.5197823, "lon": 33.9940152}, {"type": "node", "id": 2691230550, "lat": 28.6498139, "lon": 33.8970461}, {"type": "node", "id": 2691230551, "lat": 28.6497822, "lon": 33.8970676}, {"type": "node", "id": 2691230552, "lat": 28.649821, "lon": 33.8971642}, {"type": "node", "id": 2691230553, "lat": 28.6498716, "lon": 33.8972446}, {"type": "node", "id": 2691230554, "lat": 28.6498999, "lon": 33.8972165}, {"type": "node", "id": 2691230555, "lat": 28.6498504, "lon": 33.8971293}, {"type": "node", "id": 2692355213, "lat": 28.570536, "lon": 33.9565393}, {"type": "node", "id": 2692355214, "lat": 28.5705663, "lon": 33.9565795}, {"type": "node", "id": 2692355215, "lat": 28.5705832, "lon": 33.9566287}, {"type": "node", "id": 2692355216, "lat": 28.5704208, "lon": 33.9570219}, {"type": "node", "id": 2692355217, "lat": 28.5703383, "lon": 33.9567611}, {"type": "node", "id": 2692355218, "lat": 28.5703159, "lon": 33.9567161}, {"type": "node", "id": 2692355219, "lat": 28.5705851, "lon": 33.9566815}, {"type": "node", "id": 2692355220, "lat": 28.5705716, "lon": 33.9567321}, {"type": "node", "id": 2692355221, "lat": 28.5705442, "lon": 33.9567748}, {"type": "node", "id": 2692355222, "lat": 28.5705061, "lon": 33.956805}, {"type": "node", "id": 2692355223, "lat": 28.5704638, "lon": 33.9568748}, {"type": "node", "id": 2692355224, "lat": 28.5704146, "lon": 33.9569261}, {"type": "node", "id": 2692355225, "lat": 28.5703073, "lon": 33.9566653}, {"type": "node", "id": 2692355226, "lat": 28.5703136, "lon": 33.9566141}, {"type": "node", "id": 2692355227, "lat": 28.570334, "lon": 33.9565678}, {"type": "node", "id": 2692355228, "lat": 28.5703664, "lon": 33.9565315}, {"type": "node", "id": 2692355229, "lat": 28.5704073, "lon": 33.956509}, {"type": "node", "id": 2692355230, "lat": 28.5704524, "lon": 33.9565026}, {"type": "node", "id": 2692355231, "lat": 28.5704969, "lon": 33.9565131}, {"type": "node", "id": 2692355232, "lat": 28.5703387, "lon": 33.9570172}, {"type": "node", "id": 2692355233, "lat": 28.5703121, "lon": 33.9569145}, {"type": "node", "id": 2692355234, "lat": 28.5702485, "lon": 33.9568024}, {"type": "node", "id": 2721523304, "lat": 28.559819, "lon": 33.9469419}, {"type": "node", "id": 2721523306, "lat": 28.5599359, "lon": 33.9469839}, {"type": "node", "id": 2721523307, "lat": 28.5599647, "lon": 33.9468812}, {"type": "node", "id": 2721523308, "lat": 28.5600077, "lon": 33.9468859}, {"type": "node", "id": 2721523309, "lat": 28.5600323, "lon": 33.9468312}, {"type": "node", "id": 2721531361, "lat": 28.5598651, "lon": 33.9467215}, {"type": "node", "id": 2722984699, "lat": 28.560013, "lon": 33.9468185}, {"type": "node", "id": 5243836521, "lat": 28.534376, "lon": 33.9653084, "tags": {"amenity": "restaurant"}}, {"type": "node", "id": 9084293717, "lat": 28.5625843, "lon": 33.9497464, "tags": {"amenity": "restaurant", "cuisine": "arab", "name": "\u0643\u0644\u064a\u0648\u0628\u0627\u062a\u0631\u0627", "name:ar": "\u0643\u0644\u064a\u0648\u0628\u0627\u062a\u0631\u0627", "name:azb": "\u06a9\u0644\u0626\u0648\u067e\u0627\u062a\u0631\u0627", "name:de": "Kleopatra", "name:el": "\u039a\u03bb\u03b5\u03bf\u03c0\u03ac\u03c4\u03c1\u03b1", "name:es": "Cleopatra", "name:fr": "Cl\u00e9op\u00e2tra", "name:grc": "\u039a\u03bb\u03b5\u03bf\u03c0\u03ac\u03c4\u03c1\u03b1", "name:hy": "\u053f\u056c\u0565\u0578\u057a\u0561\u057f\u0580\u0561", "name:pnt": "\u039a\u03bb\u03b5\u03bf\u03c0\u03ac\u03c4\u03c1\u03b1", "name:ur": "\u0642\u0644\u0648\u067e\u0637\u0631\u06c1"}}, {"type": "way", "id": 222505429, "nodes": [2314656805, 2314656807, 2314656810, 2314656812, 2314656814, 2314656816, 2314656795, 2314656798, 2314656801, 2314656803, 2314656818, 2314656820, 2314656805], "tags": {"amenity": "restaurant", "building": "yes", "name": "\u0645\u0637\u0639\u0645 \u0648\u0645\u0644\u062a\u0642\u0649", "name:ar": "\u0645\u0637\u0639\u0645 \u0648\u0645\u0644\u062a\u0642\u0649", "name:en": "Restaurant and Community Area"}}, {"type": "way", "id": 222505430, "nodes": [2314656822, 2314656824, 2314656826, 2314656828, 2314656830, 2314656832, 2314656834, 2314656836, 2314656837, 2314656839, 2314656822], "tags": {"amenity": "restaurant", "building": "yes", "name": "\u0627\u0633\u062a\u0642\u0628\u0627\u0644 \u0648\u0645\u0637\u0628\u062e", "name:ar": "\u0627\u0633\u062a\u0642\u0628\u0627\u0644 \u0648\u0645\u0637\u0628\u062e", "name:en": "Reception and Kitchen"}}, {"type": "way", "id": 263506683, "nodes": [2691230550, 2691230551, 2691230552, 2691230553, 2691230554, 2691230555, 2691230550], "tags": {"amenity": "restaurant", "building": "yes"}}, {"type": "way", "id": 263612530, "nodes": [2692355225, 2692355226, 2692355227, 2692355228, 2692355229, 2692355230, 2692355231, 2692355213, 2692355214, 2692355215, 2692355219, 2692355220, 2692355221, 2692355222, 2692355223, 2692355224, 2692355216, 2692355232, 2692355233, 2692355234, 2692355217, 2692355218, 2692355225], "tags": {"addr:city": "\u0633\u0627\u0646\u062a \u0643\u0627\u062a\u0631\u064a\u0646", "addr:city:ar": "\u0633\u0627\u0646\u062a \u0643\u0627\u062a\u0631\u064a\u0646", "amenity": "restaurant", "building": "yes"}}, {"type": "way", "id": 266620645, "nodes": [2721531361, 2721523304, 2721523306, 2721523307, 2721523308, 2721523309, 2722984699, 2721531361], "tags": {"amenity": "restaurant", "building": "yes", "name": "\u0645\u0637\u0639\u0645 \u0645\u062d\u0645\u062f \u0633\u0627\u0644\u0645", "name:ar": "\u0645\u0637\u0639\u0645 \u0645\u062d\u0645\u062f \u0633\u0627\u0644\u0645", "name:en": "Restaurant Mohamed Salem"}}]}