{"version": 0.6, "generator": "Overpass API 0.7.62.7 375dc00a", "osm3s": {"timestamp_osm_base": "2025-06-14T13:52:30Z", "copyright": "The data included in this document is from www.openstreetmap.org. The data is made available under ODbL."}, "elements": [{"type": "node", "id": 1417101242, "lat": 41.1956907, "lon": 13.8074178, "tags": {"amenity": "restaurant", "name": "La Cubana"}}, {"type": "node", "id": 1417104038, "lat": 41.1928537, "lon": 13.8064765, "tags": {"amenity": "restaurant", "name": "Da Dominique"}}, {"type": "node", "id": 1465400521, "lat": 41.1879161, "lon": 13.8290379, "tags": {"amenity": "restaurant", "cuisine": "italian"}}, {"type": "node", "id": 1465400552, "lat": 41.2090044, "lon": 13.7909063, "tags": {"amenity": "restaurant", "cuisine": "italian"}}, {"type": "node", "id": 2291984954, "lat": 41.2086937, "lon": 13.5878785, "tags": {"amenity": "restaurant", "name": "Le Sale della Regina"}}, {"type": "node", "id": 3057261081, "lat": 40.796122, "lon": 13.432088, "tags": {"addr:housenumber": "19", "addr:street": "Piazza Castello", "amenity": "restaurant", "ice_cream:type": "industrial", "name": "Ristorante Bar Da Verde", "operator": "Rosa dei Venti Srl.", "phone": "+39 0771 85235", "ref:vatin": "IT02523710594", "restaurant:type:it": "bar;ristorante", "sells:ice_cream": "yes"}}, {"type": "node", "id": 3057261474, "lat": 40.7962216, "lon": 13.4344426, "tags": {"amenity": "restaurant", "cuisine": "italian;pizza;burger;regional"}}, {"type": "node", "id": 3057276077, "lat": 40.7968059, "lon": 13.4334712, "tags": {"amenity": "restaurant", "cuisine": "italian", "name": "Benito"}}, {"type": "node", "id": 3058198713, "lat": 40.7955942, "lon": 13.4316035, "tags": {"amenity": "restaurant", "cuisine": "italian;pizza;regional", "name": "Pizzeria Mast'Aniello"}}, {"type": "node", "id": 3058198755, "lat": 40.7951049, "lon": 13.4317382, "tags": {"amenity": "restaurant", "cuisine": "italian;pizza;regional"}}, {"type": "node", "id": 3058198762, "lat": 40.7959254, "lon": 13.4325774, "tags": {"amenity": "restaurant", "cuisine": "italian;pizza;regional", "name": "La Terrazza di Mim\u00ec", "website": "http://www.mezzatorreventotene.com/ita/risto/risto.html"}}, {"type": "node", "id": 3059311363, "lat": 40.7977076, "lon": 13.4334884, "tags": {"addr:street": "Piazza Alcide de Gasperi", "amenity": "restaurant", "cuisine": "italian;pizza", "name": "Afrodite", "phone": "+39 0771 85208"}}, {"type": "node", "id": 3734163736, "lat": 41.1994261, "lon": 13.796189}, {"type": "node", "id": 3734163737, "lat": 41.1992327, "lon": 13.7963994}, {"type": "node", "id": 3734163738, "lat": 41.1990934, "lon": 13.7962221}, {"type": "node", "id": 3734163739, "lat": 41.1992005, "lon": 13.7960734}, {"type": "node", "id": 3734163740, "lat": 41.1992862, "lon": 13.7961824}, {"type": "node", "id": 3734163741, "lat": 41.1993507, "lon": 13.7960929}, {"type": "node", "id": 5420248950, "lat": 41.2028311, "lon": 13.7958125}, {"type": "node", "id": 5420248951, "lat": 41.2027712, "lon": 13.7958867}, {"type": "node", "id": 5420248952, "lat": 41.2026883, "lon": 13.7957686}, {"type": "node", "id": 5420248953, "lat": 41.2027482, "lon": 13.7956943}, {"type": "node", "id": 5420248977, "lat": 41.2026159, "lon": 13.7958889, "tags": {"amenity": "restaurant", "cuisine": "italian", "source": "memory"}}, {"type": "node", "id": 5813116363, "lat": 40.7988216, "lon": 13.4303788, "tags": {"addr:city": "Ventotene", "addr:housenumber": "2", "addr:postcode": "04020", "addr:street": "Via Colarossano", "amenity": "restaurant", "cuisine": "regional", "name": "Marisqueria", "ref:vatin": "IT01706620596", "restaurant:type:it": "pensione;ristorante", "website": "https://www.marisqueria.it/"}}, {"type": "node", "id": 5815791679, "lat": 40.7969824, "lon": 13.4311942, "tags": {"amenity": "restaurant", "name": "Il Giardino"}}, {"type": "node", "id": 7278355189, "lat": 41.20034, "lon": 13.8513719, "tags": {"addr:city": "Cellole", "addr:housenumber": "8", "addr:postcode": "81030", "addr:street": "VIa Antonio Gramsci", "amenity": "restaurant", "name": "Il Pinguino Da Giovanni e Teresa"}}, {"type": "node", "id": 7278369741, "lat": 41.2051007, "lon": 13.8537416, "tags": {"addr:city": "Cellole", "addr:housenumber": "47", "addr:postcode": "81030", "addr:street": "Piazza Franco Compasso", "amenity": "restaurant", "cuisine": "steak_house", "name": "Theos Platz Hohle"}}, {"type": "node", "id": 7278369745, "lat": 41.2011554, "lon": 13.8525154, "tags": {"addr:city": "Cellole", "addr:housenumber": "14", "addr:postcode": "81030", "addr:street": "Via Milano", "amenity": "restaurant", "name": "La Tavernetta - Ristorante Pizzeria"}}, {"type": "node", "id": 7281086793, "lat": 41.199327, "lon": 13.7962685}, {"type": "node", "id": 7281086794, "lat": 41.1993488, "lon": 13.7962962}, {"type": "node", "id": 12539342301, "lat": 41.2067244, "lon": 13.5719291, "tags": {"amenity": "restaurant", "name": "La Garitta"}}, {"type": "node", "id": 12539342501, "lat": 41.206197, "lon": 13.5713534, "tags": {"amenity": "cafe", "name": "Caff\u00e8 del Professore"}}, {"type": "node", "id": 12645045520, "lat": 41.2037597, "lon": 13.825349, "tags": {"amenity": "cafe", "level": "0", "outdoor_seating": "yes"}}, {"type": "node", "id": 12645045521, "lat": 41.1973622, "lon": 13.8341585, "tags": {"amenity": "cafe", "level": "0", "name": "Codice a barre"}}, {"type": "node", "id": 12645045522, "lat": 41.1974264, "lon": 13.8340613, "tags": {"amenity": "restaurant", "cuisine": "pizza", "level": "0"}}, {"type": "node", "id": 12645045523, "lat": 41.1775448, "lon": 13.8537759, "tags": {"amenity": "cafe", "level": "0"}}, {"type": "node", "id": 12645059631, "lat": 41.1621333, "lon": 13.8539781, "tags": {"amenity": "cafe", "level": "0", "sells:tobacco": "yes"}}, {"type": "node", "id": 12645066776, "lat": 41.1404094, "lon": 13.8551782, "tags": {"amenity": "restaurant", "cuisine": "pizza", "level": "0"}}, {"type": "node", "id": 12645066777, "lat": 41.1396176, "lon": 13.8563554, "tags": {"amenity": "cafe", "level": "0"}}, {"type": "way", "id": 369638245, "nodes": [3734163736, 7281086794, 7281086793, 3734163737, 3734163738, 3734163739, 3734163740, 3734163741, 3734163736], "tags": {"amenity": "cafe", "building": "hut"}}, {"type": "way", "id": 562235401, "nodes": [5420248950, 5420248951, 5420248952, 5420248953, 5420248950], "tags": {"amenity": "cafe", "building": "yes", "cuisine": "bistro", "source": "Bing"}}]}