{"version": 0.6, "generator": "Overpass API 0.7.62.7 375dc00a", "osm3s": {"timestamp_osm_base": "2025-06-14T15:13:00Z", "copyright": "The data included in this document is from www.openstreetmap.org. The data is made available under ODbL."}, "elements": [{"type": "node", "id": 5317941421, "lat": 3.1269726, "lon": 31.3779242, "tags": {"addr:county": "Madi Okollo", "addr:district": "Arua", "addr:parish": "Ododu", "addr:subcounty": "Rigbo", "addr:village": "Amangunga", "amenity": "restaurant", "opening_hours": "Mo-Su 09:00-17:00", "start_date": "2015-08-01"}}, {"type": "node", "id": 5317941427, "lat": 3.0035383, "lon": 31.4011967, "tags": {"addr:county": "Madi Okollo", "addr:district": "Arua", "addr:parish": "Luba", "addr:subcounty": "Rigbo", "addr:village": "Kololo", "amenity": "restaurant", "name": "Kololo Youth Livehood", "opening_hours": "24/7", "start_date": "2017-09-01"}}, {"type": "node", "id": 5317941445, "lat": 3.0454005, "lon": 31.4263381, "tags": {"addr:county": "Madi Okollo", "addr:district": "Arua", "addr:parish": "Aliba", "addr:subcounty": "Rigbo", "addr:village": "Eradriru", "alt_name": "Kamu kamu", "amenity": "restaurant", "name": "Mr Kizito Shop", "opening_hours": "24/7", "start_date": "2014-09-01"}}, {"type": "node", "id": 5318263876, "lat": 3.0139117, "lon": 31.2080309, "tags": {"addr:county": "Madi Okollo", "addr:district": "Arua", "addr:parish": "Gbulukuatuni", "addr:subcounty": "Rhino Camp", "addr:village": "Oyoa", "amenity": "restaurant", "name": "M C Shop", "opening_hours": "24/7", "start_date": "2013-08-01"}}, {"type": "node", "id": 5349267216, "lat": 2.7964933, "lon": 31.3346717, "tags": {"addr:county": "Madi Okollo", "addr:district": "Arua", "addr:parish": "Parabok", "addr:subcounty": "Pawor", "addr:village": "Lower parabok", "amenity": "restaurant", "name": "Prossy/Sunrise Hotel", "opening_hours": "Mo-Su 09:00-17:00", "start_date": "2017-06-01"}}, {"type": "node", "id": 5350681499, "lat": 2.8146783, "lon": 31.3319233, "tags": {"addr:county": "Madi Okollo", "addr:district": "Arua", "addr:parish": "Panduku", "addr:subcounty": "Pawor", "addr:village": "Ondeko", "amenity": "restaurant", "name": "Muko Enterprises", "start_date": "2017-12-01"}}, {"type": "node", "id": 8453954222, "lat": 3.0584432, "lon": 31.3165057, "tags": {"addr:street": "Eden III;Eden IV", "amenity": "restaurant", "name": "Restaurant"}}]}