{"version": 0.6, "generator": "Overpass API 0.7.62.7 375dc00a", "osm3s": {"timestamp_osm_base": "2025-06-14T13:20:02Z", "copyright": "The data included in this document is from www.openstreetmap.org. The data is made available under ODbL."}, "elements": [{"type": "node", "id": 2887716560, "lat": 11.7195379, "lon": 9.359968, "tags": {"amenity": "restaurant", "cuisine": "regional", "name": "Hadiza Nakowa Restaurant", "source": "http://www.openstreetmap.org/note/176085"}}, {"type": "node", "id": 6274493685, "lat": 11.7207268, "lon": 9.3587462, "tags": {"addr:street": "Kiyawo road, Investment Shopping Complex,  Dutse", "amenity": "restaurant", "name": "Salman Restaurant"}}, {"type": "node", "id": 9897390252, "lat": 11.5592822, "lon": 9.4570927, "tags": {"amenity": "cafe", "source": "nigeriase4all.gov.ng", "source:date": "2022"}}, {"type": "node", "id": 9897390256, "lat": 11.5592947, "lon": 9.4562323, "tags": {"amenity": "cafe", "source": "nigeriase4all.gov.ng", "source:date": "2022"}}, {"type": "node", "id": 9897390257, "lat": 11.5593305, "lon": 9.4567072, "tags": {"amenity": "cafe", "source": "nigeriase4all.gov.ng", "source:date": "2022"}}, {"type": "node", "id": 9897390258, "lat": 11.5594699, "lon": 9.4567757, "tags": {"amenity": "cafe", "source": "nigeriase4all.gov.ng", "source:date": "2022"}}, {"type": "node", "id": 9897644703, "lat": 11.9176726, "lon": 9.3929954, "tags": {"amenity": "cafe", "source": "nigeriase4all.gov.ng", "source:date": "2022"}}, {"type": "node", "id": 9897644706, "lat": 11.9151478, "lon": 9.3883461, "tags": {"amenity": "cafe", "source": "nigeriase4all.gov.ng", "source:date": "2022"}}, {"type": "node", "id": 9897644707, "lat": 11.916978, "lon": 9.394032, "tags": {"amenity": "cafe", "source": "nigeriase4all.gov.ng", "source:date": "2022"}}, {"type": "node", "id": 9897644709, "lat": 11.9149927, "lon": 9.3884978, "tags": {"amenity": "cafe", "source": "nigeriase4all.gov.ng", "source:date": "2022"}}, {"type": "node", "id": 9897644711, "lat": 11.9181972, "lon": 9.3919051, "tags": {"amenity": "cafe", "source": "nigeriase4all.gov.ng", "source:date": "2022"}}, {"type": "node", "id": 9897652592, "lat": 11.9094633, "lon": 9.3500841, "tags": {"amenity": "cafe", "source": "nigeriase4all.gov.ng", "source:date": "2022"}}, {"type": "node", "id": 9897652594, "lat": 11.9104953, "lon": 9.3508989, "tags": {"amenity": "cafe", "source": "nigeriase4all.gov.ng", "source:date": "2022"}}, {"type": "node", "id": 10042303867, "lat": 11.653004, "lon": 9.5462528, "tags": {"amenity": "cafe", "source": "nigeriase4all.gov.ng", "source:date": "2022"}}, {"type": "node", "id": 10042309536, "lat": 11.6747903, "lon": 9.5620124, "tags": {"amenity": "cafe", "source": "nigeriase4all.gov.ng", "source:date": "2022"}}, {"type": "node", "id": 10042312428, "lat": 11.6525244, "lon": 9.5457717, "tags": {"amenity": "cafe", "source": "nigeriase4all.gov.ng", "source:date": "2022"}}, {"type": "node", "id": 10042314953, "lat": 11.6743897, "lon": 9.6429329, "tags": {"amenity": "cafe", "source": "nigeriase4all.gov.ng", "source:date": "2022"}}, {"type": "node", "id": 10042314966, "lat": 11.6748289, "lon": 9.6455542, "tags": {"amenity": "cafe", "source": "nigeriase4all.gov.ng", "source:date": "2022"}}, {"type": "node", "id": 10076454983, "lat": 11.6825631, "lon": 9.5829639, "tags": {"amenity": "cafe", "source": "nigeriase4all.gov.ng", "source:date": "2022"}}, {"type": "node", "id": 10173506500, "lat": 11.8433888, "lon": 9.5461114, "tags": {"amenity": "cafe", "source": "nigeriase4all.gov.ng", "source:date": "2022"}}, {"type": "node", "id": 10173507724, "lat": 11.9144695, "lon": 9.4782766, "tags": {"amenity": "cafe", "source": "nigeriase4all.gov.ng", "source:date": "2022"}}, {"type": "node", "id": 10173507730, "lat": 11.9143853, "lon": 9.4774491, "tags": {"amenity": "cafe", "source": "nigeriase4all.gov.ng", "source:date": "2022"}}, {"type": "node", "id": 10173507732, "lat": 11.9137496, "lon": 9.4755905, "tags": {"amenity": "cafe", "source": "nigeriase4all.gov.ng", "source:date": "2022"}}, {"type": "node", "id": 10173507733, "lat": 11.9144043, "lon": 9.478144, "tags": {"amenity": "cafe", "source": "nigeriase4all.gov.ng", "source:date": "2022"}}, {"type": "node", "id": 10173507738, "lat": 11.9144848, "lon": 9.4783004, "tags": {"amenity": "cafe", "source": "nigeriase4all.gov.ng", "source:date": "2022"}}, {"type": "node", "id": 10173510629, "lat": 11.8432623, "lon": 9.5457211, "tags": {"amenity": "cafe", "source": "nigeriase4all.gov.ng", "source:date": "2022"}}]}