{"version": 0.6, "generator": "Overpass API 0.7.62.7 375dc00a", "osm3s": {"timestamp_osm_base": "2025-06-14T14:34:11Z", "copyright": "The data included in this document is from www.openstreetmap.org. The data is made available under ODbL."}, "elements": [{"type": "node", "id": 528996470, "lat": 40.9615847, "lon": 20.7819982, "tags": {"amenity": "restaurant", "name": "\u0421\u0435\u043d \u0422\u0440\u043e\u043f\u0435"}}, {"type": "node", "id": 1248191561, "lat": 40.7645656, "lon": 20.9106575, "tags": {"amenity": "restaurant", "internet_access": "no", "name": "Bar Restaurant Hotel Ilo", "phone": "+355682604383", "smoking": "yes", "tourism": "hotel", "wheelchair": "no"}}, {"type": "node", "id": 1896338800, "lat": 40.9140837, "lon": 20.742638}, {"type": "node", "id": 1896338960, "lat": 40.9141195, "lon": 20.7425834}, {"type": "node", "id": 1896339058, "lat": 40.9142136, "lon": 20.7426907}, {"type": "node", "id": 2289085809, "lat": 40.9142608, "lon": 20.7426186}, {"type": "node", "id": 2289085814, "lat": 40.9141776, "lon": 20.7427457}, {"type": "node", "id": 2289085817, "lat": 40.914167, "lon": 20.742511}, {"type": "node", "id": 2504175760, "lat": 40.633978, "lon": 20.5904534, "tags": {"addr:street": "Rruga Shen Maria", "amenity": "restaurant", "cuisine": "albanian", "internet_access": "wlan", "name": "Voskopoja", "name:en": "Taverna Voskopoja", "name:sq": "Taverna Voskopoja", "phone": "+355 69 243 6090", "website": "http://www.voskopoja.com/"}}, {"type": "node", "id": 2504185085, "lat": 40.6332577, "lon": 20.5908355, "tags": {"amenity": "restaurant", "name": "Vellezrit Bardhi", "name:sq": "Vellezrit Bardhi"}}, {"type": "node", "id": 3018702971, "lat": 40.7204313, "lon": 20.8863944, "tags": {"amenity": "cafe", "cuisine": "Raki,_Kafe_,", "internet_access": "wlan", "name": "Bar Geska"}}, {"type": "node", "id": 3057679740, "lat": 40.8992544, "lon": 20.7125277}, {"type": "node", "id": 3057679746, "lat": 40.8992636, "lon": 20.7127426}, {"type": "node", "id": 3057679771, "lat": 40.8993249, "lon": 20.7125224}, {"type": "node", "id": 3057679776, "lat": 40.8993292, "lon": 20.7126225}, {"type": "node", "id": 3057679794, "lat": 40.8993634, "lon": 20.7127351}, {"type": "node", "id": 3057679797, "lat": 40.8993661, "lon": 20.7127996}, {"type": "node", "id": 3057679950, "lat": 40.8994943, "lon": 20.7126101}, {"type": "node", "id": 3057679951, "lat": 40.8994957, "lon": 20.7126434}, {"type": "node", "id": 3057679982, "lat": 40.8995737, "lon": 20.7126376}, {"type": "node", "id": 3057679986, "lat": 40.8995799, "lon": 20.7127836}, {"type": "node", "id": 3057718948, "lat": 40.9017153, "lon": 20.6674764}, {"type": "node", "id": 3057718955, "lat": 40.9017301, "lon": 20.6672975}, {"type": "node", "id": 3057718956, "lat": 40.9017474, "lon": 20.667481}, {"type": "node", "id": 3057718957, "lat": 40.9017508, "lon": 20.6674395}, {"type": "node", "id": 3057718958, "lat": 40.9017591, "lon": 20.6673396}, {"type": "node", "id": 3057718959, "lat": 40.9017622, "lon": 20.6673022}, {"type": "node", "id": 3057718960, "lat": 40.9017796, "lon": 20.6674437}, {"type": "node", "id": 3057718961, "lat": 40.9017879, "lon": 20.6673437}, {"type": "node", "id": 3057822398, "lat": 40.9017016, "lon": 20.6674744}, {"type": "node", "id": 3057822399, "lat": 40.9017164, "lon": 20.6672955}, {"type": "node", "id": 3058661474, "lat": 40.9012571, "lon": 20.711015, "tags": {"amenity": "restaurant", "name": "Restaurant New Titanic"}}, {"type": "node", "id": 3075760723, "lat": 40.7002115, "lon": 20.8904073, "tags": {"amenity": "restaurant", "cuisine": "seafood;regional", "name": "Jon", "outdoor_seating": "yes"}}, {"type": "node", "id": 3076840024, "lat": 40.6173168, "lon": 20.7735293, "tags": {"amenity": "cafe", "name": "Franc & Klejda", "outdoor_seating": "yes"}}, {"type": "node", "id": 3076974523, "lat": 40.859894, "lon": 20.6939352, "tags": {"amenity": "restaurant", "name": "Qaf\u00eb Pllo\u00e7\u00eb", "tourism": "hotel"}}, {"type": "node", "id": 3076974721, "lat": 40.9033797, "lon": 20.6589722, "tags": {"amenity": "restaurant", "cuisine": "pizza", "toilets:wheelchair": "no", "wheelchair": "yes"}}, {"type": "node", "id": 3076974736, "lat": 40.9181457, "lon": 20.7715853, "tags": {"amenity": "cafe", "shop": "convenience"}}, {"type": "node", "id": 3325568141, "lat": 40.7588505, "lon": 20.4342985}, {"type": "node", "id": 3325568142, "lat": 40.7588883, "lon": 20.4343956}, {"type": "node", "id": 3325568144, "lat": 40.7589678, "lon": 20.4342189}, {"type": "node", "id": 3325568145, "lat": 40.7590055, "lon": 20.434316}, {"type": "node", "id": 3545112222, "lat": 40.623509, "lon": 20.782313}, {"type": "node", "id": 3545112223, "lat": 40.623369, "lon": 20.7825172}, {"type": "node", "id": 3545112224, "lat": 40.6233849, "lon": 20.7826853}, {"type": "node", "id": 3545112225, "lat": 40.6236434, "lon": 20.7826107}, {"type": "node", "id": 3545112226, "lat": 40.6235965, "lon": 20.7823961}, {"type": "node", "id": 3713067440, "lat": 40.9255638, "lon": 20.7733609, "tags": {"amenity": "cafe", "cuisine": "regional;burger", "internet_access": "no", "smoking": "separated"}}, {"type": "node", "id": 3725959075, "lat": 40.9154158, "lon": 20.7458417, "tags": {"amenity": "restaurant"}}, {"type": "node", "id": 3746090726, "lat": 40.9013086, "lon": 20.7112356}, {"type": "node", "id": 3746090727, "lat": 40.9013094, "lon": 20.7111944}, {"type": "node", "id": 3746090728, "lat": 40.9013718, "lon": 20.7111963}, {"type": "node", "id": 3746090729, "lat": 40.9013728, "lon": 20.7111382}, {"type": "node", "id": 3746090730, "lat": 40.9014213, "lon": 20.7112391}, {"type": "node", "id": 3746090731, "lat": 40.9014217, "lon": 20.7112192}, {"type": "node", "id": 3746090732, "lat": 40.9014321, "lon": 20.7112196}, {"type": "node", "id": 3746090733, "lat": 40.9014324, "lon": 20.7112007}, {"type": "node", "id": 3746090734, "lat": 40.9014335, "lon": 20.71114}, {"type": "node", "id": 3920512640, "lat": 40.9444559, "lon": 20.9012553}, {"type": "node", "id": 3920512641, "lat": 40.9444748, "lon": 20.9013711}, {"type": "node", "id": 3920512643, "lat": 40.9445741, "lon": 20.9012215}, {"type": "node", "id": 3920512644, "lat": 40.944593, "lon": 20.9013373}, {"type": "node", "id": 4324925089, "lat": 40.9188685, "lon": 20.772034, "tags": {"amenity": "cafe", "internet_access": "wlan"}}, {"type": "node", "id": 4349784836, "lat": 40.633321, "lon": 20.5912752, "tags": {"amenity": "restaurant", "name": "Restaurant Becelli"}}, {"type": "node", "id": 4349784837, "lat": 40.6318127, "lon": 20.5858938, "tags": {"amenity": "restaurant", "name": "Restaurant Moskopoli"}}, {"type": "node", "id": 4394721598, "lat": 40.9006516, "lon": 20.656177, "tags": {"addr:city": "Pogradec", "amenity": "restaurant", "cuisine": "pizza", "name": "Benvenuto", "wheelchair": "no"}}, {"type": "node", "id": 4394721599, "lat": 40.9024427, "lon": 20.6566095, "tags": {"amenity": "restaurant", "cuisine": "pizza", "name": "Dante"}}, {"type": "node", "id": 4394721600, "lat": 40.9017073, "lon": 20.6595284, "tags": {"amenity": "restaurant", "name": "Endri"}}, {"type": "node", "id": 4394721603, "lat": 40.9021056, "lon": 20.6605866, "tags": {"amenity": "cafe", "name": "Ledio", "toilets:wheelchair": "no", "wheelchair": "limited"}}, {"type": "node", "id": 4394721606, "lat": 40.9014803, "lon": 20.6579037, "tags": {"amenity": "restaurant", "cuisine": "pizza", "name": "Oaz", "wheelchair": "no"}}, {"type": "node", "id": 4394721610, "lat": 40.9012258, "lon": 20.6579567, "tags": {"amenity": "restaurant", "cuisine": "pizza", "name": "Rusi Grill", "wheelchair": "no"}}, {"type": "node", "id": 4394721613, "lat": 40.9022577, "lon": 20.6597806, "tags": {"amenity": "restaurant", "name": "Te Roni"}}, {"type": "node", "id": 4567014126, "lat": 40.6057667, "lon": 20.7858697, "tags": {"amenity": "restaurant", "name": "Brilant"}}, {"type": "node", "id": 4568822452, "lat": 40.6175405, "lon": 20.782435, "tags": {"amenity": "restaurant", "cuisine": "pizza", "name": "Le Blanc", "wheelchair": "no"}}, {"type": "node", "id": 4568841340, "lat": 40.6168869, "lon": 20.7831966, "tags": {"amenity": "cafe", "name": "Bujtina Liceu", "outdoor_seating": "yes"}}, {"type": "node", "id": 4642412989, "lat": 40.9391426, "lon": 20.9142257, "tags": {"abandoned": "yes", "amenity": "restaurant", "name": "Beach Bar Mystic", "outdoor_seating": "yes"}}, {"type": "node", "id": 4878614927, "lat": 40.899249, "lon": 20.7141154, "tags": {"amenity": "restaurant", "name": "Mjelma", "name:mk": "\u041c\u0458\u0435\u043b\u043c\u0430", "name:sq": "Mjelma"}}, {"type": "node", "id": 4880482424, "lat": 40.9009646, "lon": 20.7198991, "tags": {"amenity": "restaurant", "cuisine": "regional", "name": "Lokali", "name:mk": "\u041b\u043e\u043a\u0430\u043b\u0438", "name:sq": "Lokali"}}, {"type": "node", "id": 4884870821, "lat": 40.9146267, "lon": 20.7430881, "tags": {"amenity": "restaurant"}}, {"type": "node", "id": 4884908023, "lat": 40.9141308, "lon": 20.7410279, "tags": {"amenity": "restaurant", "indoor_seating": "yes", "name": "\u0421\u0432\u0435\u0442\u0438 \u041d\u0430\u0443\u043c", "name:en": "St. Nahum", "outdoor_seating": "yes"}}, {"type": "node", "id": 4917567077, "lat": 40.6128242, "lon": 20.7852878, "tags": {"addr:housenumber": "39", "addr:street": "Rruga Avni Rustemi", "amenity": "restaurant", "name": "Vila Cofiel", "outdoor_seating": "yes", "phone": "+355 82 247 505", "wheelchair": "no"}}, {"type": "node", "id": 4987090921, "lat": 40.7770996, "lon": 20.908407, "tags": {"amenity": "restaurant", "check_date": "2023-10-01", "cuisine": "regional", "name": "Park Aleksander"}}, {"type": "node", "id": 4990830295, "lat": 40.9031754, "lon": 20.7212838, "tags": {"amenity": "restaurant", "name": "Sirena", "name:mk": "\u0421\u0438\u0440\u0435\u043d\u0430"}}, {"type": "node", "id": 4990830297, "lat": 40.9032596, "lon": 20.7208149, "tags": {"amenity": "restaurant", "name": "Dallga", "name:mk": "\u0414\u0430\u043b\u0433\u0430"}}, {"type": "node", "id": 4990830299, "lat": 40.9029678, "lon": 20.7206843, "tags": {"amenity": "restaurant", "name": "Kashta", "name:mk": "\u041a\u0443\u045c\u0430"}}, {"type": "node", "id": 4990831351, "lat": 40.9020794, "lon": 20.7179182, "tags": {"amenity": "restaurant", "name": "Miresevini", "name:en": "Vila 31", "name:mk": "\u041c\u0438\u0440\u0435\u0441\u0435\u0432\u0438\u043d\u0438"}}, {"type": "node", "id": 4990831356, "lat": 40.9016249, "lon": 20.7141398, "tags": {"amenity": "restaurant", "internet_access": "yes", "name": "Dante", "name:mk": "\u0414\u0430\u043d\u0442\u0435"}}, {"type": "node", "id": 4990831358, "lat": 40.9015746, "lon": 20.7137963, "tags": {"amenity": "restaurant", "name": "Xhili", "name:mk": "\u040f\u0438\u043b\u0438"}}, {"type": "node", "id": 5024482978, "lat": 40.8831747, "lon": 20.9215793, "tags": {"amenity": "restaurant", "name": "Vasili"}}, {"type": "node", "id": 5351138591, "lat": 40.9010543, "lon": 20.6692024, "tags": {"amenity": "cafe", "name": "Bar Eleven", "wheelchair": "no"}}, {"type": "node", "id": 5375417015, "lat": 40.9010896, "lon": 20.6685148, "tags": {"addr:city": "Pogradec", "amenity": "restaurant", "name": "Pica te Babo", "outdoor_seating": "yes", "wheelchair": "no"}}, {"type": "node", "id": 5375472803, "lat": 40.9010786, "lon": 20.6688011, "tags": {"amenity": "cafe", "name": "People", "wheelchair": "no"}}, {"type": "node", "id": 5375472804, "lat": 40.9010717, "lon": 20.6689798, "tags": {"amenity": "cafe", "name": "Fenix", "wheelchair": "no"}}, {"type": "node", "id": 5375472806, "lat": 40.9013267, "lon": 20.6743414, "tags": {"amenity": "cafe", "wheelchair": "no"}}, {"type": "node", "id": 5375472808, "lat": 40.9009316, "lon": 20.6687759, "tags": {"addr:street": "Mihal Ballkameno", "amenity": "cafe", "name": "Ambient per femije", "wheelchair": "no"}}, {"type": "node", "id": 5484447537, "lat": 40.9005105, "lon": 20.6843029, "tags": {"amenity": "restaurant", "name": "ermano 2016", "name:mk": "\u0415\u0440\u043c\u0430\u043d\u043e 2016"}}, {"type": "node", "id": 5584484520, "lat": 40.6181349, "lon": 20.7787107}, {"type": "node", "id": 5584485521, "lat": 40.6182192, "lon": 20.7787989}, {"type": "node", "id": 5584485522, "lat": 40.6180578, "lon": 20.7790669}, {"type": "node", "id": 5584485523, "lat": 40.6179734, "lon": 20.7789787}, {"type": "node", "id": 5598385021, "lat": 40.5707933, "lon": 20.7501441, "tags": {"amenity": "restaurant", "name": "Taverna"}}, {"type": "node", "id": 5598385022, "lat": 40.5995272, "lon": 20.7765139, "tags": {"amenity": "cafe", "name": "Versus"}}, {"type": "node", "id": 5598415421, "lat": 40.618094, "lon": 20.7746494, "tags": {"amenity": "cafe", "name": "Fix Grill"}}, {"type": "node", "id": 5598659721, "lat": 40.6172048, "lon": 20.7813638, "tags": {"amenity": "cafe", "cuisine": "pizza", "name": "Pizza Romea", "outdoor_seating": "yes", "phone": "+355 82 243 383", "takeaway": "yes"}}, {"type": "node", "id": 5598659726, "lat": 40.616359, "lon": 20.7802544, "tags": {"amenity": "cafe", "internet_access": "wlan", "name": "City Caf\u00eb", "outdoor_seating": "yes", "wheelchair": "no"}}, {"type": "node", "id": 5598906923, "lat": 40.6171888, "lon": 20.7791845, "tags": {"amenity": "cafe", "name": "Luna", "outdoor_seating": "yes"}}, {"type": "node", "id": 5598907121, "lat": 40.6169081, "lon": 20.779519, "tags": {"amenity": "cafe", "brand": "Coffee Time", "cuisine": "coffee_shop;pizza;crepe", "name": "Coffee Time", "outdoor_seating": "yes", "takeaway": "yes"}}, {"type": "node", "id": 5598954221, "lat": 40.6197052, "lon": 20.7830099, "tags": {"amenity": "restaurant", "name": "FindFour", "wheelchair": "no"}}, {"type": "node", "id": 5599746428, "lat": 40.7923376, "lon": 20.7172886, "tags": {"amenity": "restaurant"}}, {"type": "node", "id": 5599746434, "lat": 40.8680255, "lon": 20.6968958, "tags": {"amenity": "restaurant", "name": "Joni"}}, {"type": "node", "id": 5599757134, "lat": 40.8672156, "lon": 20.6990649, "tags": {"amenity": "cafe"}}, {"type": "node", "id": 5599757622, "lat": 40.7036129, "lon": 20.7165757, "tags": {"addr:street": "SH3", "amenity": "restaurant", "internet_access": "wlan", "name": "Taverna Panorama"}}, {"type": "node", "id": 5599757626, "lat": 40.8989855, "lon": 20.6650678, "tags": {"amenity": "cafe"}}, {"type": "node", "id": 5599758121, "lat": 40.7846956, "lon": 20.7167417, "tags": {"amenity": "cafe"}}, {"type": "node", "id": 5599777921, "lat": 40.8997168, "lon": 20.6616321, "tags": {"amenity": "cafe", "name": "Bossi"}}, {"type": "node", "id": 5599787123, "lat": 40.9019383, "lon": 20.716313, "tags": {"amenity": "restaurant"}}, {"type": "node", "id": 5599804022, "lat": 40.8977723, "lon": 20.6845493, "tags": {"amenity": "cafe"}}, {"type": "node", "id": 5599804025, "lat": 40.9003634, "lon": 20.7109487, "tags": {"amenity": "restaurant", "name": "Lezha"}}, {"type": "node", "id": 5599804027, "lat": 40.9028369, "lon": 20.7187671, "tags": {"amenity": "restaurant", "name": "Sunset", "name:mk": "\u0421\u0430\u043d\u0441\u0435\u0442"}}, {"type": "node", "id": 5599976521, "lat": 40.9159059, "lon": 20.7697903, "tags": {"amenity": "cafe"}}, {"type": "node", "id": 5599976622, "lat": 40.9617356, "lon": 20.7824024, "tags": {"amenity": "restaurant", "name": "Mermaid Terrace", "name:mk": "\u041c\u0435\u0440\u043c\u0435\u0458\u0434 \u0442\u0435\u0440\u0430\u0441"}}, {"type": "node", "id": 5720921825, "lat": 40.9147002, "lon": 20.742799, "tags": {"amenity": "restaurant"}}, {"type": "node", "id": 5840484290, "lat": 40.8124695, "lon": 20.7969608, "tags": {"amenity": "cafe", "name": "Rusi"}}, {"type": "node", "id": 5894677145, "lat": 40.9011103, "lon": 20.6682228, "tags": {"addr:city": "Pogradec", "amenity": "restaurant", "cuisine": "regional", "name": "The Change", "outdoor_seating": "yes", "wheelchair": "yes"}}, {"type": "node", "id": 5908102689, "lat": 40.9327465, "lon": 20.6410085, "tags": {"amenity": "restaurant", "name": "Restaurant Hotel Victoria", "outdoor_seating": "yes", "wheelchair": "limited"}}, {"type": "node", "id": 5908102693, "lat": 40.9342503, "lon": 20.6379504, "tags": {"amenity": "restaurant", "name": "Goni Korca"}}, {"type": "node", "id": 5909906038, "lat": 40.9010985, "lon": 20.6683585, "tags": {"amenity": "restaurant", "name": "Vadeha", "outdoor_seating": "yes", "wheelchair": "no"}}, {"type": "node", "id": 5909907566, "lat": 40.9984482, "lon": 20.6365771, "tags": {"amenity": "restaurant", "cuisine": "regional", "name": "Rei", "outdoor_seating": "yes"}}, {"type": "node", "id": 5909908087, "lat": 40.9019188, "lon": 20.6621462, "tags": {"amenity": "restaurant"}}, {"type": "node", "id": 5916226488, "lat": 40.9017554, "lon": 20.6623796, "tags": {"addr:city": "Pogradec", "addr:street": "D\u00ebshmor\u00ebt e Pojsk\u00ebs", "amenity": "restaurant", "cuisine": "regional;italian", "internet_access": "no", "name": "Smoked Duck", "wheelchair": "limited"}}, {"type": "node", "id": 5954078185, "lat": 40.900543, "lon": 20.6735202, "tags": {"addr:city": "Pogradec", "amenity": "cafe", "name": "Kafe Ani", "name:mk": "\u041a\u0430\u0444\u0435 \u0410\u043d\u0438", "wheelchair": "no"}}, {"type": "node", "id": 5954130405, "lat": 40.9016905, "lon": 20.6637337, "tags": {"addr:city": "Pogradec", "addr:street": "D\u00ebshmor\u00ebt e Pojsk\u00ebs", "amenity": "cafe", "name": "Max Lloto", "smoking": "outside", "wheelchair": "no"}}, {"type": "node", "id": 5954132794, "lat": 40.9016906, "lon": 20.6638061, "tags": {"addr:city": "Pogradec", "addr:street": "D\u00ebshmor\u00ebt e Pojsk\u00ebs", "amenity": "cafe", "name": "Eccobet", "wheelchair": "no"}}, {"type": "node", "id": 5954137810, "lat": 40.9016905, "lon": 20.6638356, "tags": {"addr:city": "Pogradec", "addr:street": "D\u00ebshmor\u00ebt e Pojsk\u00ebs", "amenity": "cafe", "name": "De Paris", "toilets:wheelchair": "no", "wheelchair": "yes"}}, {"type": "node", "id": 5954138734, "lat": 40.9016804, "lon": 20.6639081, "tags": {"addr:city": "Pogradec", "amenity": "restaurant", "name": "Pizeri Kupa", "toilets:wheelchair": "no", "wheelchair": "yes"}}, {"type": "node", "id": 5954142884, "lat": 40.9016399, "lon": 20.6643426, "tags": {"addr:city": "Pogradec", "amenity": "cafe", "name": "Select", "toilets:wheelchair": "no", "wheelchair": "limited"}}, {"type": "node", "id": 5954144928, "lat": 40.9016318, "lon": 20.6644015, "tags": {"addr:city": "Pogradec", "amenity": "restaurant", "name": "Prodhime Zgare", "toilets:wheelchair": "no", "wheelchair": "limited"}}, {"type": "node", "id": 5954146746, "lat": 40.9015648, "lon": 20.6645706, "tags": {"addr:city": "Pogradec", "amenity": "restaurant", "cuisine": "pizza", "name": "Cavos Bar Restaurant", "toilets:wheelchair": "no", "wheelchair": "limited"}}, {"type": "node", "id": 5954149541, "lat": 40.9018242, "lon": 20.6627703, "tags": {"addr:city": "Pogradec", "addr:street": "D\u00ebshmor\u00ebt e Pojsk\u00ebs", "amenity": "restaurant", "name": "Fresh Grill Restaurant", "wheelchair": "yes"}}, {"type": "node", "id": 5954162643, "lat": 40.9018296, "lon": 20.665645}, {"type": "node", "id": 5954162644, "lat": 40.9018103, "lon": 20.6658302}, {"type": "node", "id": 5954162645, "lat": 40.9017293, "lon": 20.6658155}, {"type": "node", "id": 5954162646, "lat": 40.9017486, "lon": 20.6656303}, {"type": "node", "id": 5954167671, "lat": 40.9014715, "lon": 20.6656126, "tags": {"addr:city": "Pogradec", "amenity": "restaurant", "name": "Restorant Konaku", "name:mk": "\u0420\u0435\u0441\u0442\u043e\u0440\u0430\u043d \u201e\u041a\u043e\u043d\u0430\u043a\u201c", "wheelchair": "no"}}, {"type": "node", "id": 5954169706, "lat": 40.9021647, "lon": 20.6599533, "tags": {"addr:city": "Pogradec", "addr:street": "D\u00ebshmor\u00ebt e Pojsk\u00ebs", "amenity": "restaurant", "name": "Taverna Ladi"}}, {"type": "node", "id": 5954176992, "lat": 40.9012039, "lon": 20.6675063, "tags": {"addr:city": "Pogradec", "amenity": "restaurant", "name": "Zgara Te Glenti", "wheelchair": "yes"}}, {"type": "node", "id": 5954179240, "lat": 40.9011463, "lon": 20.6679466, "tags": {"addr:city": "Pogradec", "amenity": "cafe", "name": "Bulevardi", "wheelchair": "no"}}, {"type": "node", "id": 5954310814, "lat": 40.9006785, "lon": 20.6575685, "tags": {"addr:city": "Pogradec", "addr:street": "Rruga Rinia", "amenity": "restaurant", "cuisine": "pizza", "name": "Rinia"}}, {"type": "node", "id": 6054062010, "lat": 40.6278785, "lon": 20.6127217, "tags": {"amenity": "restaurant"}}, {"type": "node", "id": 6054090088, "lat": 40.6242842, "lon": 20.7426757, "tags": {"amenity": "restaurant"}}, {"type": "node", "id": 6054090089, "lat": 40.6239262, "lon": 20.7425949, "tags": {"amenity": "restaurant"}}, {"type": "node", "id": 6329817154, "lat": 40.6154456, "lon": 20.7804549}, {"type": "node", "id": 6329817155, "lat": 40.6155013, "lon": 20.780532}, {"type": "node", "id": 6329821469, "lat": 40.9323509, "lon": 20.4347407, "tags": {"amenity": "restaurant"}}, {"type": "node", "id": 6370673089, "lat": 40.6192164, "lon": 20.7826228, "tags": {"amenity": "cafe", "name": "Vila Kor\u00e7a", "outdoor_seating": "yes", "phone": "+355 69 292 6296", "wheelchair": "limited"}}, {"type": "node", "id": 6370673126, "lat": 40.6199112, "lon": 20.7827532, "tags": {"amenity": "restaurant", "cuisine": "pizza", "level": "1", "name": "Secret", "outdoor_seating": "yes", "wheelchair": "no"}}, {"type": "node", "id": 6370716675, "lat": 40.6164159, "lon": 20.7801212, "tags": {"amenity": "cafe", "name": "Pascucci", "outdoor_seating": "yes"}}, {"type": "node", "id": 6372228329, "lat": 40.6151605, "lon": 20.7746814, "tags": {"amenity": "cafe", "bar": "yes", "name": "Helzag"}}, {"type": "node", "id": 6372228332, "lat": 40.61544, "lon": 20.7758171, "tags": {"amenity": "cafe", "name": "Eresti", "outdoor_seating": "yes"}}, {"type": "node", "id": 6372228353, "lat": 40.6155486, "lon": 20.7766621, "tags": {"amenity": "cafe", "bar": "yes", "name": "Etvini", "wheelchair": "no"}}, {"type": "node", "id": 6372303996, "lat": 40.6202887, "lon": 20.7827747, "tags": {"amenity": "restaurant", "cuisine": "pizza", "delivery": "yes", "internet_access": "wlan", "name": "Proper Pizza", "outdoor_seating": "yes", "wheelchair": "no"}}, {"type": "node", "id": 6372944541, "lat": 40.6211882, "lon": 20.7830825, "tags": {"amenity": "restaurant", "level": "1", "name": "Zeus", "opening_hours": "Mo-Su 16:00-23:00", "wheelchair": "no"}}, {"type": "node", "id": 6373859618, "lat": 40.6224908, "lon": 20.7772078, "tags": {"amenity": "cafe", "cuisine": "ice_cream;coffeeshop", "name": "Cegora"}}, {"type": "node", "id": 6374051750, "lat": 40.6173813, "lon": 20.7791796, "tags": {"amenity": "restaurant", "cuisine": "pizza", "internet_access": "wlan", "name": "Premier", "outdoor_seating": "yes"}}, {"type": "node", "id": 6374086484, "lat": 40.619345, "lon": 20.7862408, "tags": {"amenity": "restaurant", "name": "Bujtina Oxhaku", "outdoor_seating": "yes"}}, {"type": "node", "id": 6374109828, "lat": 40.6234003, "lon": 20.7849722, "tags": {"amenity": "restaurant", "name": "Sh\u00ebnd\u00ebllia"}}, {"type": "node", "id": 6374129444, "lat": 40.6227878, "lon": 20.7829967, "tags": {"amenity": "cafe", "name": "Amerika"}}, {"type": "node", "id": 6374129445, "lat": 40.6236271, "lon": 20.7826154, "tags": {"entrance": "main"}}, {"type": "node", "id": 6374266421, "lat": 40.6155237, "lon": 20.7806848}, {"type": "node", "id": 6375675340, "lat": 40.6243153, "lon": 20.7829007, "tags": {"amenity": "cafe", "outdoor_seating": "yes"}}, {"type": "node", "id": 6376147361, "lat": 40.6272168, "lon": 20.786146, "tags": {"amenity": "cafe", "name": "Rinia", "outdoor_seating": "yes", "wheelchair": "limited"}}, {"type": "node", "id": 6376233885, "lat": 40.621143, "lon": 20.7787442, "tags": {"amenity": "cafe", "name": "Mambo", "outdoor_seating": "yes", "wheelchair": "no"}}, {"type": "node", "id": 6376233894, "lat": 40.6205756, "lon": 20.7783263, "tags": {"amenity": "restaurant", "cuisine": "pizza;crepe", "name": "Versace", "outdoor_seating": "yes", "phone": "+355 69 210 9760"}}, {"type": "node", "id": 6376485104, "lat": 40.617276, "lon": 20.7786141, "tags": {"amenity": "cafe", "internet_access": "wlan", "name": "Krimea", "opening_hours": "Mo-Su 08:00-22:00", "outdoor_seating": "yes", "wheelchair": "yes"}}, {"type": "node", "id": 6377963685, "lat": 40.6118691, "lon": 20.7877332}, {"type": "node", "id": 6377963686, "lat": 40.6117246, "lon": 20.787721}, {"type": "node", "id": 6377963687, "lat": 40.6117319, "lon": 20.787573}, {"type": "node", "id": 6377963688, "lat": 40.6118764, "lon": 20.7875853}, {"type": "node", "id": 6380804278, "lat": 40.612644, "lon": 20.7855985, "tags": {"amenity": "cafe", "name": "Chris House"}}, {"type": "node", "id": 6380804279, "lat": 40.6129266, "lon": 20.7914206, "tags": {"amenity": "restaurant", "cuisine": "pizza;regional", "name": "Calma"}}, {"type": "node", "id": 6380808122, "lat": 40.6118343, "lon": 20.7884615, "tags": {"amenity": "cafe", "name": "Fantazia"}}, {"type": "node", "id": 6381452323, "lat": 40.6198842, "lon": 20.7830005, "tags": {"entrance": "main"}}, {"type": "node", "id": 6381452326, "lat": 40.6198391, "lon": 20.7829917}, {"type": "node", "id": 6381452327, "lat": 40.6199056, "lon": 20.7830047}, {"type": "node", "id": 6381452330, "lat": 40.61983, "lon": 20.7830722}, {"type": "node", "id": 6381452331, "lat": 40.6198966, "lon": 20.7830852}, {"type": "node", "id": 6389309112, "lat": 40.6454485, "lon": 20.7536962, "tags": {"amenity": "restaurant", "cuisine": "regional", "name": "Stela"}}, {"type": "node", "id": 6395887512, "lat": 40.6138196, "lon": 20.7763427, "tags": {"amenity": "cafe", "name": "Xh & M", "outdoor_seating": "yes"}}, {"type": "node", "id": 6396774902, "lat": 40.6148044, "lon": 20.779744, "tags": {"amenity": "restaurant", "name": "SkyView", "phone": "+355 82 244 200"}}, {"type": "node", "id": 6400635975, "lat": 40.6237502, "lon": 20.7816382, "tags": {"amenity": "cafe", "name": "Dory's", "outdoor_seating": "yes"}}, {"type": "node", "id": 6402192672, "lat": 40.61475, "lon": 20.7857537, "tags": {"amenity": "restaurant", "name": "\u00c7ezmat Reja"}}, {"type": "node", "id": 6407482049, "lat": 40.615085, "lon": 20.7779194, "tags": {"amenity": "cafe", "brand": "Coffee Time", "cuisine": "coffee_shop", "name": "Coffee Time", "takeaway": "yes", "wheelchair": "limited"}}, {"type": "node", "id": 6416400609, "lat": 40.612299, "lon": 20.7833834, "tags": {"amenity": "restaurant", "name": "Sht\u00ebpia Magjike"}}, {"type": "node", "id": 6418247647, "lat": 40.6166679, "lon": 20.7758119, "tags": {"amenity": "restaurant", "cuisine": "regional;chicken", "kids_area": "yes", "name": "Pazari", "outdoor_seating": "yes"}}, {"type": "node", "id": 6419399936, "lat": 40.6210405, "lon": 20.7750359, "tags": {"amenity": "cafe", "name": "Oxy", "outdoor_seating": "yes", "wheelchair": "yes"}}, {"type": "node", "id": 6419408527, "lat": 40.6226776, "lon": 20.7830207, "tags": {"amenity": "cafe", "name": "Elysee", "outdoor_seating": "yes"}}, {"type": "node", "id": 6426112640, "lat": 40.6218995, "lon": 20.790016, "tags": {"amenity": "cafe", "name": "Hotel Kristal", "outdoor_seating": "yes"}}, {"type": "node", "id": 6429181287, "lat": 40.6140577, "lon": 20.8157562}, {"type": "node", "id": 6429181288, "lat": 40.6140672, "lon": 20.8157173}, {"type": "node", "id": 6429181289, "lat": 40.6139188, "lon": 20.8158708}, {"type": "node", "id": 6429181290, "lat": 40.6140959, "lon": 20.8159459}, {"type": "node", "id": 6429181291, "lat": 40.6141343, "lon": 20.8157887}, {"type": "node", "id": 6429181292, "lat": 40.6139667, "lon": 20.8156747}, {"type": "node", "id": 6434138735, "lat": 40.6188899, "lon": 20.7705014, "tags": {"amenity": "cafe"}}, {"type": "node", "id": 6439114156, "lat": 40.6747506, "lon": 20.8289067, "tags": {"amenity": "restaurant", "name": "Galini"}}, {"type": "node", "id": 6439203602, "lat": 40.6528451, "lon": 20.8100707, "tags": {"amenity": "restaurant", "name": "Vll. Bregu"}}, {"type": "node", "id": 6439203610, "lat": 40.6627207, "lon": 20.8181756, "tags": {"amenity": "restaurant", "name": "L'Art de Vivre"}}, {"type": "node", "id": 6439203621, "lat": 40.6644671, "lon": 20.8211691, "tags": {"amenity": "restaurant", "name": "Fataj", "phone": "+355694685874"}}, {"type": "node", "id": 6439387425, "lat": 40.617709, "lon": 20.776437, "tags": {"amenity": "restaurant", "name": "Feedra"}}, {"type": "node", "id": 6576491107, "lat": 40.632401, "lon": 20.7915499, "tags": {"addr:city": "Kor\u00e7\u00eb", "addr:postcode": "7001", "addr:street": "Bulevard Rilindasit", "air_conditioning": "yes", "amenity": "restaurant", "bar": "yes", "cuisine": "regional;local;steak_house", "name": "Pirro", "opening_hours": "Mo-Su 06:00-16:30", "outdoor_seating": "yes"}}, {"type": "node", "id": 6625083019, "lat": 40.8997053, "lon": 20.6566212, "tags": {"amenity": "restaurant", "cuisine": "coffee_shop", "name": "Bar Restorant Ylberi"}}, {"type": "node", "id": 6632050763, "lat": 40.5586604, "lon": 20.7737237, "tags": {"amenity": "restaurant", "name": "Xhufka", "phone": "+355692394269"}}, {"type": "node", "id": 6771569977, "lat": 40.6155701, "lon": 20.7806252}, {"type": "node", "id": 6771569980, "lat": 40.6153979, "lon": 20.7805155}, {"type": "node", "id": 6783001786, "lat": 40.7997301, "lon": 20.7202807, "tags": {"amenity": "cafe", "name": "Eri"}}, {"type": "node", "id": 7132081485, "lat": 40.5564478, "lon": 20.7674585, "tags": {"amenity": "restaurant", "name": "Antoneta", "phone": "+355 69 688 0584", "start_date": "2000"}}, {"type": "node", "id": 7202847881, "lat": 40.9030132, "lon": 20.7207996, "tags": {"amenity": "restaurant", "name": "Taverna KO\u00c7O"}}, {"type": "node", "id": 7202847883, "lat": 40.9026617, "lon": 20.7214904, "tags": {"amenity": "restaurant", "name": "Restorant Peshku"}}, {"type": "node", "id": 7202847884, "lat": 40.9031788, "lon": 20.722207, "tags": {"amenity": "restaurant", "name": "Korca Restorant"}}, {"type": "node", "id": 7202896392, "lat": 40.9017912, "lon": 20.7215953, "tags": {"amenity": "restaurant", "name": "Rritja e Koranit"}}, {"type": "node", "id": 7202896418, "lat": 40.9016352, "lon": 20.7200543, "tags": {"amenity": "restaurant", "name": "Bujtina Alpine"}}, {"type": "node", "id": 7202896421, "lat": 40.9017893, "lon": 20.7198274, "tags": {"amenity": "restaurant", "name": "Sht\u00ebpia e Vjeter"}}, {"type": "node", "id": 7202896422, "lat": 40.9024686, "lon": 20.7191071, "tags": {"amenity": "restaurant", "name": "Restaurant Elvis"}}, {"type": "node", "id": 7202896433, "lat": 40.9016184, "lon": 20.7196672, "tags": {"amenity": "restaurant", "name": "Duart e Arta", "name:en": "Golden Hands", "website": "https://duartearta.business.site/"}}, {"type": "node", "id": 7202976115, "lat": 40.900901, "lon": 20.7132777, "tags": {"amenity": "restaurant", "name": "Vila ART"}}, {"type": "node", "id": 7202979772, "lat": 40.9026603, "lon": 20.7199401, "tags": {"amenity": "restaurant", "name": "Tushemisht Bar Restorant"}}, {"type": "node", "id": 7202979782, "lat": 40.902713, "lon": 20.7203555, "tags": {"amenity": "restaurant", "name": "Ja Marena"}}, {"type": "node", "id": 7203042412, "lat": 40.9002958, "lon": 20.7121419, "tags": {"amenity": "restaurant", "name": "Egnis"}}, {"type": "node", "id": 7203042418, "lat": 40.9011851, "lon": 20.709912, "tags": {"amenity": "restaurant", "name": "Arbi"}}, {"type": "node", "id": 7803599397, "lat": 40.9035839, "lon": 20.65599, "tags": {"amenity": "cafe", "name": "Llakmani"}}, {"type": "node", "id": 7839153945, "lat": 40.6336325, "lon": 20.5884983}, {"type": "node", "id": 7839153946, "lat": 40.6338564, "lon": 20.5889824}, {"type": "node", "id": 7839153947, "lat": 40.6337943, "lon": 20.589036}, {"type": "node", "id": 7839153948, "lat": 40.6336661, "lon": 20.5890481}, {"type": "node", "id": 7839153949, "lat": 40.633659, "lon": 20.5889878}, {"type": "node", "id": 7839153950, "lat": 40.6335185, "lon": 20.5890159}, {"type": "node", "id": 7839153951, "lat": 40.6334768, "lon": 20.588914}, {"type": "node", "id": 7839153952, "lat": 40.6333333, "lon": 20.5889274}, {"type": "node", "id": 7839153953, "lat": 40.6333028, "lon": 20.588509}, {"type": "node", "id": 7839154251, "lat": 40.63223, "lon": 20.5900154}, {"type": "node", "id": 7839154252, "lat": 40.632343, "lon": 20.5901964}, {"type": "node", "id": 7839154253, "lat": 40.6324163, "lon": 20.590117}, {"type": "node", "id": 7839154254, "lat": 40.6323033, "lon": 20.5899359}, {"type": "node", "id": 8587820117, "lat": 40.9045077, "lon": 20.6544259, "tags": {"amenity": "restaurant", "name:en": "ARTIST PIZZA"}}, {"type": "node", "id": 8883861577, "lat": 40.6228041, "lon": 20.7896059, "tags": {"amenity": "restaurant", "food": "pizza", "name": "Vila beba", "phone": "+355694659757"}}, {"type": "node", "id": 9161308028, "lat": 40.8994575, "lon": 20.6575896, "tags": {"amenity": "restaurant"}}, {"type": "node", "id": 9161308029, "lat": 40.8987176, "lon": 20.6587653, "tags": {"amenity": "cafe"}}, {"type": "node", "id": 9161308031, "lat": 40.8985224, "lon": 20.6590327, "tags": {"amenity": "cafe"}}, {"type": "node", "id": 9161308236, "lat": 40.9011726, "lon": 20.6555848, "tags": {"amenity": "cafe", "indoor_seating": "yes", "outdoor_seating": "yes"}}, {"type": "node", "id": 9161308422, "lat": 40.8966104, "lon": 20.6673706, "tags": {"amenity": "cafe"}}, {"type": "node", "id": 9161308530, "lat": 40.9001469, "lon": 20.674121, "tags": {"amenity": "restaurant"}}, {"type": "node", "id": 9161308531, "lat": 40.9006152, "lon": 20.6728544, "tags": {"amenity": "cafe"}}, {"type": "node", "id": 9161308532, "lat": 40.9006286, "lon": 20.6722031, "tags": {"amenity": "cafe"}}, {"type": "node", "id": 9161308548, "lat": 40.8983409, "lon": 20.6594309, "tags": {"amenity": "cafe"}}, {"type": "node", "id": 9200216117, "lat": 40.6194044, "lon": 20.7768981, "tags": {"amenity": "cafe", "name": "Banka", "outdoor_seating": "yes"}}, {"type": "node", "id": 9200216122, "lat": 40.610262, "lon": 20.7781368, "tags": {"amenity": "restaurant"}}, {"type": "node", "id": 9200216132, "lat": 40.6214858, "lon": 20.7785169, "tags": {"amenity": "cafe"}}, {"type": "node", "id": 9200216133, "lat": 40.6227403, "lon": 20.7798498, "tags": {"amenity": "cafe"}}, {"type": "node", "id": 9200216137, "lat": 40.6165685, "lon": 20.7805095, "tags": {"amenity": "restaurant", "name": "IN", "outdoor_seating": "yes", "website": "https://www.ingalleryhotel.com/"}}, {"type": "node", "id": 9200216320, "lat": 40.6161144, "lon": 20.7748826, "tags": {"amenity": "restaurant", "name": "Sahati", "wheelchair": "no"}}, {"type": "node", "id": 9200216525, "lat": 40.6210038, "lon": 20.7781048, "tags": {"amenity": "cafe"}}, {"type": "node", "id": 9312216759, "lat": 40.6429716, "lon": 20.8021386}, {"type": "node", "id": 9312216760, "lat": 40.6431279, "lon": 20.8023371}, {"type": "node", "id": 9312216761, "lat": 40.6430482, "lon": 20.802446}, {"type": "node", "id": 9312216762, "lat": 40.6428919, "lon": 20.8022476}, {"type": "node", "id": 9804103755, "lat": 40.6858619, "lon": 20.7272298, "tags": {"amenity": "restaurant", "name": "Arena"}}, {"type": "node", "id": 9804119430, "lat": 40.9942046, "lon": 20.6374486, "tags": {"amenity": "restaurant"}}, {"type": "node", "id": 9819843243, "lat": 40.5714741, "lon": 20.7526562, "tags": {"amenity": "restaurant"}}, {"type": "node", "id": 9822402411, "lat": 40.6169731, "lon": 20.7794583, "tags": {"amenity": "cafe", "internet_access": "wlan", "name": "D'Espresso Pedonale", "outdoor_seating": "yes", "wheelchair": "no"}}, {"type": "node", "id": 9822410423, "lat": 40.6168072, "lon": 20.7796506, "tags": {"amenity": "cafe", "name": "Helzag", "outdoor_seating": "yes"}}, {"type": "node", "id": 9822410452, "lat": 40.6182485, "lon": 20.7823162, "tags": {"amenity": "restaurant", "name": "Park Plaza", "outdoor_seating": "yes", "wheelchair": "no"}}, {"type": "node", "id": 9822410454, "lat": 40.6160986, "lon": 20.7799517, "tags": {"amenity": "cafe", "cuisine": "coffee_shop", "indoor_seating": "yes", "name": "Mon Ch\u00e9ri", "outdoor_seating": "yes", "wheelchair": "no"}}, {"type": "node", "id": 9822410457, "lat": 40.6170353, "lon": 20.7816356, "tags": {"amenity": "cafe", "internet_access": "wlan", "name": "Join", "outdoor_seating": "yes", "takeaway": "yes", "wheelchair": "no"}}, {"type": "node", "id": 9822673954, "lat": 40.6224362, "lon": 20.7830957, "tags": {"amenity": "cafe", "name": "Amor"}}, {"type": "node", "id": 9822673956, "lat": 40.6202612, "lon": 20.7826969, "tags": {"amenity": "restaurant", "cuisine": "seafood", "level": "1", "name": "Poseidon", "wheelchair": "no"}}, {"type": "node", "id": 9822673962, "lat": 40.6246019, "lon": 20.7833729, "tags": {"amenity": "cafe", "name": "People", "outdoor_seating": "yes"}}, {"type": "node", "id": 9822673964, "lat": 40.6218837, "lon": 20.7828041, "tags": {"amenity": "cafe", "cuisine": "ice_cream", "name": "Yummy"}}, {"type": "node", "id": 9822673972, "lat": 40.6164423, "lon": 20.7793141, "tags": {"amenity": "cafe", "bar": "yes", "name": "Vila Themistokli", "outdoor_seating": "yes"}}, {"type": "node", "id": 9822673973, "lat": 40.6246347, "lon": 20.783407, "tags": {"amenity": "cafe", "name": "Duplex", "outdoor_seating": "yes"}}, {"type": "node", "id": 9822673974, "lat": 40.623088, "lon": 20.7827374, "tags": {"amenity": "cafe"}}, {"type": "node", "id": 9825055515, "lat": 40.6153058, "lon": 20.7783444, "tags": {"amenity": "cafe", "outdoor_seating": "yes"}}, {"type": "node", "id": 9825055516, "lat": 40.6156199, "lon": 20.7787069, "tags": {"amenity": "restaurant", "cuisine": "barbecue;kebab", "internet_access": "wlan", "name": "Venezia", "outdoor_seating": "yes", "phone": "+355 69 309 8557", "wheelchair": "limited"}}, {"type": "node", "id": 9825061717, "lat": 40.6128908, "lon": 20.7774448, "tags": {"amenity": "restaurant", "cuisine": "italian", "level": "-1", "name": "Benvenuti in Calabria", "phone": "+355 69 551 5020", "start_date": "2021", "wheelchair": "no"}}, {"type": "node", "id": 9825061718, "lat": 40.6157198, "lon": 20.778795, "tags": {"amenity": "cafe", "internet_access": "wlan", "name": "Singer", "outdoor_seating": "yes", "wheelchair": "no"}}, {"type": "node", "id": 9825988493, "lat": 40.6177876, "lon": 20.7750148, "tags": {"amenity": "restaurant", "check_date": "2024-06-19", "cuisine": "pizza;pasta;regional", "name": "Bistro 1760", "outdoor_seating": "yes"}}, {"type": "node", "id": 9825988499, "lat": 40.6177468, "lon": 20.774764, "tags": {"amenity": "restaurant", "internet_access": "wlan", "name": "Pazari i Vjet\u00ebr", "outdoor_seating": "yes", "wheelchair": "limited"}}, {"type": "node", "id": 9825988502, "lat": 40.6143987, "lon": 20.7801126, "tags": {"amenity": "cafe", "cuisine": "ice_cream", "name": "Aida", "wheelchair": "no"}}, {"type": "node", "id": 9825988505, "lat": 40.6175389, "lon": 20.7749628, "tags": {"amenity": "cafe", "name": "Sophie Caffee", "outdoor_seating": "yes", "wheelchair": "limited"}}, {"type": "node", "id": 9826051430, "lat": 40.6176864, "lon": 20.7747535, "tags": {"amenity": "cafe", "name": "Komiteti", "outdoor_seating": "yes"}}, {"type": "node", "id": 9826051431, "lat": 40.616677, "lon": 20.7749016, "tags": {"amenity": "restaurant", "name": "Villa Domenico"}}, {"type": "node", "id": 9826120627, "lat": 40.6170968, "lon": 20.778867, "tags": {"amenity": "cafe", "name": "Earth", "outdoor_seating": "yes"}}, {"type": "node", "id": 9830961522, "lat": 40.6169562, "lon": 20.7807682, "tags": {"amenity": "restaurant", "name": "Bocca", "wheelchair": "no"}}, {"type": "node", "id": 9832809069, "lat": 40.6154288, "lon": 20.7759893, "tags": {"amenity": "cafe", "name": "Radio Box"}}, {"type": "node", "id": 9832809103, "lat": 40.6195585, "lon": 20.7767465, "tags": {"amenity": "cafe", "outdoor_seating": "yes"}}, {"type": "node", "id": 9832822425, "lat": 40.6226802, "lon": 20.774687, "tags": {"amenity": "cafe", "outdoor_seating": "yes"}}, {"type": "node", "id": 9832822429, "lat": 40.6228869, "lon": 20.7765952, "tags": {"amenity": "cafe", "outdoor_seating": "yes"}}, {"type": "node", "id": 9836461293, "lat": 40.6187613, "lon": 20.7832264, "tags": {"amenity": "restaurant", "name": "Republika", "outdoor_seating": "yes"}}, {"type": "node", "id": 9838305287, "lat": 40.6173414, "lon": 20.7744401, "tags": {"amenity": "restaurant", "name": "Tradita", "outdoor_seating": "yes", "wheelchair": "limited"}}, {"type": "node", "id": 9838305294, "lat": 40.6162972, "lon": 20.7726522, "tags": {"amenity": "cafe", "name": "Vila Livi", "outdoor_seating": "yes"}}, {"type": "node", "id": 9839269322, "lat": 40.6195323, "lon": 20.7834325, "tags": {"amenity": "restaurant", "internet_access": "wlan", "name": "Vila 95", "outdoor_seating": "yes"}}, {"type": "node", "id": 9839269323, "lat": 40.6248323, "lon": 20.7835878, "tags": {"amenity": "cafe", "outdoor_seating": "yes"}}, {"type": "node", "id": 9839269326, "lat": 40.6240866, "lon": 20.7822139, "tags": {"amenity": "cafe", "name": "Te P\u00e0ola", "outdoor_seating": "yes"}}, {"type": "node", "id": 9839269327, "lat": 40.6249286, "lon": 20.7846155, "tags": {"amenity": "cafe", "outdoor_seating": "yes"}}, {"type": "node", "id": 9844736997, "lat": 40.610429, "lon": 20.7845491, "tags": {"amenity": "cafe", "outdoor_seating": "yes"}}, {"type": "node", "id": 9844737003, "lat": 40.611446, "lon": 20.7764337, "tags": {"amenity": "cafe", "outdoor_seating": "yes"}}, {"type": "node", "id": 9844769337, "lat": 40.6122395, "lon": 20.7840241, "tags": {"amenity": "cafe", "outdoor_seating": "yes"}}, {"type": "node", "id": 9848092424, "lat": 40.6166444, "lon": 20.7778373, "tags": {"amenity": "cafe", "name": "Piccolo", "outdoor_seating": "yes"}}, {"type": "node", "id": 9853731945, "lat": 40.5565361, "lon": 20.7659702, "tags": {"amenity": "restaurant", "internet_access": "wlan", "name": "Manat", "outdoor_seating": "yes"}}, {"type": "node", "id": 9853731950, "lat": 40.5580091, "lon": 20.7657446, "tags": {"amenity": "restaurant", "name": "Vila Melko", "outdoor_seating": "yes", "phone": "+355 69 231 6832"}}, {"type": "node", "id": 9855122965, "lat": 40.55509, "lon": 20.7656276, "tags": {"amenity": "restaurant", "name": "Rosicat", "outdoor_seating": "yes", "phone": "+355 69 229 5446"}}, {"type": "node", "id": 9862397579, "lat": 40.6173625, "lon": 20.7742061, "tags": {"amenity": "restaurant", "cuisine": "kebab;pizza", "internet_access": "wlan", "name": "Mangalli", "outdoor_seating": "yes"}}, {"type": "node", "id": 9862397580, "lat": 40.6173895, "lon": 20.774273, "tags": {"amenity": "cafe", "name": "Vatra", "outdoor_seating": "yes"}}, {"type": "node", "id": 9870000501, "lat": 40.6164486, "lon": 20.7800547, "tags": {"amenity": "cafe", "cuisine": "breakfast", "name": "M\u00ebsonj\u00ebtorja 1887", "opening_hours": "Mo-Su 08:00-22:00", "outdoor_seating": "yes"}}, {"type": "node", "id": 9879518659, "lat": 40.6327932, "lon": 20.7885181, "tags": {"amenity": "cafe", "name": "Amor", "outdoor_seating": "yes", "wheelchair": "limited"}}, {"type": "node", "id": 9879518679, "lat": 40.6203706, "lon": 20.7827947, "tags": {"amenity": "cafe", "name": "Rrugica", "outdoor_seating": "yes"}}, {"type": "node", "id": 9880656742, "lat": 40.6331645, "lon": 20.591604, "tags": {"amenity": "cafe"}}, {"type": "node", "id": 9890018058, "lat": 40.6133552, "lon": 20.7825947, "tags": {"amenity": "cafe", "internet_access": "wlan", "name": "Dea", "outdoor_seating": "yes", "wheelchair": "no"}}, {"type": "node", "id": 9905742521, "lat": 40.725466, "lon": 20.8383554, "tags": {"amenity": "cafe", "outdoor_seating": "yes"}}, {"type": "node", "id": 9905742523, "lat": 40.6593787, "lon": 20.8163238, "tags": {"amenity": "restaurant", "name": "Shanolli 1"}}, {"type": "node", "id": 9905758439, "lat": 40.8833833, "lon": 20.9219089, "tags": {"amenity": "cafe", "name": "Xhona", "name:mk": "\u040f\u043e\u043d\u0430", "name:sq": "Xhona"}}, {"type": "node", "id": 9905841611, "lat": 40.9390885, "lon": 20.9134685, "tags": {"amenity": "restaurant", "internet_access": "wlan", "name": "\u0420\u0438\u0432\u0430", "name:en": "Riva", "name:mk": "\u0420\u0438\u0432\u0430", "outdoor_seating": "yes"}}, {"type": "node", "id": 9943105476, "lat": 40.6235353, "lon": 20.773036, "tags": {"amenity": "cafe", "level": "0;1", "outdoor_seating": "yes"}}, {"type": "node", "id": 9945566618, "lat": 40.5723078, "lon": 20.7683027, "tags": {"amenity": "restaurant", "cuisine": "balkan;barbecue;breakfast;coffee_shop;fish;grill;local", "name": "Sht\u00ebpia e Tradit\u00ebs - Taverna", "name:en": "Incredible great food, atmosphere and kind service", "website": "https://shtepiaetradites.com"}}, {"type": "node", "id": 10046682423, "lat": 40.9982584, "lon": 20.6356412, "tags": {"amenity": "restaurant", "cuisine": "regional", "name": "Rei"}}, {"type": "node", "id": 10065257784, "lat": 40.6442695, "lon": 20.8038102, "tags": {"amenity": "cafe"}}, {"type": "node", "id": 10092434982, "lat": 40.6167034, "lon": 20.7816752, "tags": {"amenity": "restaurant", "name": "Vila Borgjeze", "outdoor_seating": "yes"}}, {"type": "node", "id": 10093632877, "lat": 40.6182601, "lon": 20.7750112, "tags": {"amenity": "restaurant", "name": "Serenata", "operator": "Hani i Pazarit"}}, {"type": "node", "id": 10102745094, "lat": 40.6119254, "lon": 20.7881475, "tags": {"amenity": "restaurant", "name": "O2 Boutique", "outdoor_seating": "yes", "wheelchair": "no"}}, {"type": "node", "id": 10102846810, "lat": 40.6105207, "lon": 20.7903958, "tags": {"amenity": "cafe"}}, {"type": "node", "id": 10102846814, "lat": 40.6043196, "lon": 20.8019144, "tags": {"amenity": "cafe", "name": "Xhatja", "outdoor_seating": "yes"}}, {"type": "node", "id": 10102846815, "lat": 40.6118602, "lon": 20.7888177, "tags": {"amenity": "restaurant", "name": "Gjergi Milo", "phone": "+355 69 239 8529"}}, {"type": "node", "id": 10118570751, "lat": 40.6229104, "lon": 20.7782049, "tags": {"amenity": "restaurant", "name": "Frogs"}}, {"type": "node", "id": 10118570757, "lat": 40.6231993, "lon": 20.7780583, "tags": {"amenity": "cafe", "name": "Coffee Corner", "wheelchair": "no"}}, {"type": "node", "id": 10124157425, "lat": 40.6191306, "lon": 20.782934, "tags": {"amenity": "restaurant", "cuisine": "pizza", "level": "1", "name": "Down Town", "wheelchair": "no"}}, {"type": "node", "id": 10182066717, "lat": 40.6180142, "lon": 20.7773319, "tags": {"amenity": "cafe", "internet_access": "wlan", "name": "Grand Hotel Palace Veranda"}}, {"type": "node", "id": 10197283520, "lat": 40.6280126, "lon": 20.7790708, "tags": {"amenity": "cafe"}}, {"type": "node", "id": 10197283522, "lat": 40.6246208, "lon": 20.7876731, "tags": {"amenity": "restaurant", "cuisine": "seafood", "delivery": "yes", "name": "Spasa", "phone": "+355 82 243 422"}}, {"type": "node", "id": 10197283527, "lat": 40.6226769, "lon": 20.7818746, "tags": {"amenity": "restaurant", "cuisine": "steak_house", "name": "Vasili", "outdoor_seating": "yes"}}, {"type": "node", "id": 10202045845, "lat": 40.8998414, "lon": 20.6617486, "tags": {"amenity": "restaurant", "cuisine": "regional", "outdoor_seating": "yes"}}, {"type": "node", "id": 10720086961, "lat": 40.9017416, "lon": 20.6673884, "tags": {"amenity": "cafe"}}, {"type": "node", "id": 10837737953, "lat": 40.6154548, "lon": 20.7805916}, {"type": "node", "id": 11099767101, "lat": 40.9007841, "lon": 20.7030014, "tags": {"amenity": "restaurant"}}, {"type": "node", "id": 11099910912, "lat": 40.9019133, "lon": 20.6624736, "tags": {"amenity": "restaurant", "name": "Rosa e Tymosur"}}, {"type": "node", "id": 11753222469, "lat": 40.903632, "lon": 20.6558855, "tags": {"amenity": "cafe", "name:en": "Square Lounge"}}, {"type": "node", "id": 11824756842, "lat": 40.9615436, "lon": 20.7824183, "tags": {"addr:city": "\u0422\u0440\u043f\u0435\u0458\u0446\u0430", "amenity": "restaurant", "cuisine": "seafood;fish;barbecue;mediterranean", "name": "Ribar", "name:mk": "\u0420\u0438\u0431\u0430\u0440", "opening_hours": "Mo-Su 10:00-22:00", "phone": "+38946284472"}}, {"type": "node", "id": 12120862855, "lat": 40.6091913, "lon": 20.7806971, "tags": {"amenity": "cafe", "outdoor_seating": "no"}}, {"type": "node", "id": 12120872903, "lat": 40.6130646, "lon": 20.7813156, "tags": {"amenity": "cafe", "outdoor_seating": "no"}}, {"type": "node", "id": 12120873203, "lat": 40.6120472, "lon": 20.7817964, "tags": {"amenity": "cafe", "outdoor_seating": "no"}}, {"type": "node", "id": 12141508122, "lat": 40.8984747, "lon": 20.7120145, "tags": {"amenity": "restaurant", "name": "Bar Restaurant Drilon", "opening_hours": "Mo-Su 08:00-22:00", "phone": "+355692566545"}}, {"type": "node", "id": 12204949911, "lat": 40.9333226, "lon": 20.6378905}, {"type": "node", "id": 12204949912, "lat": 40.9331937, "lon": 20.6378699}, {"type": "node", "id": 12204949913, "lat": 40.9331772, "lon": 20.6380505}, {"type": "node", "id": 12204949914, "lat": 40.9333061, "lon": 20.6380711}, {"type": "node", "id": 12238584801, "lat": 40.6178661, "lon": 20.7742782, "tags": {"amenity": "cafe", "name": "Bakalli"}}, {"type": "node", "id": 12271230801, "lat": 40.9883017, "lon": 20.6381389, "tags": {"amenity": "cafe"}}, {"type": "node", "id": 12281369501, "lat": 40.7212465, "lon": 20.6686645, "tags": {"amenity": "restaurant", "name": "Muliri"}}, {"type": "node", "id": 12281369502, "lat": 40.7267328, "lon": 20.6442902, "tags": {"amenity": "restaurant"}}, {"type": "node", "id": 12281369503, "lat": 40.7283954, "lon": 20.601355, "tags": {"amenity": "restaurant"}}, {"type": "node", "id": 12281369601, "lat": 40.7340862, "lon": 20.5681382, "tags": {"amenity": "cafe"}}, {"type": "node", "id": 12281413328, "lat": 40.7341565, "lon": 20.5677771, "tags": {"amenity": "cafe", "name": "Bar Buege Salianji"}}, {"type": "node", "id": 12294685696, "lat": 40.9140475, "lon": 20.7421097}, {"type": "node", "id": 12294685697, "lat": 40.9139268, "lon": 20.7422357}, {"type": "node", "id": 12294685698, "lat": 40.9140181, "lon": 20.7423887}, {"type": "node", "id": 12294685699, "lat": 40.9141387, "lon": 20.7422628}, {"type": "node", "id": 12615329234, "lat": 40.9249469, "lon": 20.7735385, "tags": {"amenity": "restaurant", "name": "Restaurant Camp Ljubanista", "phone": "+389 70 239 249"}}, {"type": "node", "id": 12626441329, "lat": 40.7857747, "lon": 20.7380584, "tags": {"addr:city": "Zvirin\u00eb", "amenity": "restaurant", "name": "Bar Restaurant JONI", "name:sq": "Bar Restorant Joni", "phone": "+355 69 202 2706"}}, {"type": "node", "id": 12769669158, "lat": 40.6180767, "lon": 20.7751653, "tags": {"amenity": "cafe", "operator": "Hani i Pazarit", "outdoor_seating": "yes"}}, {"type": "node", "id": 12782165572, "lat": 40.6178784, "lon": 20.7747871, "tags": {"amenity": "cafe", "name": "Kooperativa", "outdoor_seating": "yes"}}, {"type": "node", "id": 12895503076, "lat": 40.6170389, "lon": 20.7789412, "tags": {"amenity": "cafe", "name": "De'Al", "outdoor_seating": "yes"}}, {"type": "node", "id": 12895634353, "lat": 40.6125062, "lon": 20.7771213, "tags": {"amenity": "cafe", "name": "Thomas Enkelana", "outdoor_seating": "yes"}}, {"type": "node", "id": 12901987162, "lat": 40.6188411, "lon": 20.7770635, "tags": {"amenity": "cafe", "outdoor_seating": "yes"}}, {"type": "node", "id": 12912331380, "lat": 40.6133514, "lon": 20.781281, "tags": {"amenity": "cafe", "bar": "yes", "name": "Icon", "outdoor_seating": "yes", "wheelchair": "no"}}, {"type": "node", "id": 12914842658, "lat": 40.6183773, "lon": 20.7758179, "tags": {"amenity": "cafe", "name": "Mon Cheri", "outdoor_seating": "yes"}}, {"type": "way", "id": 219773148, "nodes": [1896339058, 2289085809, 2289085817, 1896338960, 1896338800, 2289085814, 1896339058], "tags": {"amenity": "restaurant", "building": "yes", "int_name": "Ostrovo", "name": "\u041e\u0441\u0442\u0440\u043e\u0432\u043e", "name:en": "Ostrovo"}}, {"type": "way", "id": 301676488, "nodes": [3057679776, 3057679950, 3057679951, 3057679982, 3057679986, 3057679797, 3057679794, 3057679746, 3057679740, 3057679771, 3057679776], "tags": {"amenity": "restaurant", "building": "yes", "cuisine": "regional", "internet_access": "wlan"}}, {"type": "way", "id": 301687884, "nodes": [3057718955, 3057718959, 3057718958, 3057718961, 3057718960, 3057718957, 3057718956, 3057718948, 3057822398, 3057822399, 3057718955], "tags": {"addr:city": "Pogradec", "amenity": "cafe", "building": "yes", "internet_access": "yes", "name": "Bar Konti", "name:mk": "\u0411\u0430\u0440 \u041a\u043e\u043d\u0442\u0438"}}, {"type": "way", "id": 325933886, "nodes": [3325568144, 3325568145, 3325568142, 3325568141, 3325568144], "tags": {"amenity": "restaurant", "building": "yes", "material": "stone"}}, {"type": "way", "id": 348383599, "nodes": [3545112222, 3545112223, 3545112224, 6374129445, 3545112225, 3545112226, 3545112222], "tags": {"addr:city": "Kor\u00e7\u00eb", "amenity": "cafe", "building": "yes", "cuisine": "coffeeshop", "name": "Vog Bar", "outdoor_seating": "yes", "smoking": "isolated", "wheelchair": "limited"}}, {"type": "way", "id": 370949857, "nodes": [3746090730, 3746090726, 3746090727, 3746090728, 3746090729, 3746090734, 3746090733, 3746090732, 3746090731, 3746090730], "tags": {"amenity": "restaurant", "building": "yes", "cuisine": "regional", "name": "Restorant Dashnorja E Fundit", "operator": "Nazif", "outdoor_seating": "yes"}}, {"type": "way", "id": 388864897, "nodes": [3920512643, 3920512644, 3920512641, 3920512640, 3920512643], "tags": {"amenity": "restaurant", "building": "yes", "cuisine": "regional", "name": "\u043c\u0430\u043b\u0438 \u0440\u0430\u0458", "opening_hours": "10:00-01:00", "outdoor_seating": "yes"}}, {"type": "way", "id": 584190939, "nodes": [5584484520, 5584485521, 5584485522, 5584485523, 5584484520], "tags": {"amenity": "restaurant", "building": "yes", "cuisine": "regional", "name": "Shen Gjergji", "opening_hours": "Mo-Su 07:00-22:00", "outdoor_seating": "yes", "phone": "+355 82 244 384", "wheelchair": "limited"}}, {"type": "way", "id": 630622405, "nodes": [5954162643, 5954162644, 5954162645, 5954162646, 5954162643], "tags": {"addr:city": "Pogradec", "amenity": "cafe", "building": "yes", "name": "Vila Guci"}}, {"type": "way", "id": 681092967, "nodes": [6377963688, 6377963687, 6377963686, 6377963685, 6377963688], "tags": {"amenity": "restaurant", "building": "retail", "cuisine": "pizza", "delivery": "yes", "name": "Panda", "phone": "+355 82 253 775", "wheelchair": "no"}}, {"type": "way", "id": 681439971, "nodes": [6381452331, 6381452327, 6381452323, 6381452326, 6381452330, 6381452331], "tags": {"amenity": "restaurant", "building": "yes", "cuisine": "pizza;italian", "internet_access": "wlan", "name": "Antik", "outdoor_seating": "yes"}}, {"type": "way", "id": 685965745, "nodes": [6429181292, 6429181288, 6429181287, 6429181291, 6429181290, 6429181289, 6429181292], "tags": {"amenity": "restaurant", "building": "yes", "name": "La Montagna"}}, {"type": "way", "id": 840069653, "nodes": [7839153953, 7839153952, 7839153951, 7839153950, 7839153949, 7839153948, 7839153947, 7839153946, 7839153945, 7839153953], "tags": {"amenity": "restaurant", "barrier": "fence", "cuisine": "regional", "delivery": "no", "fence_type": "wire", "internet_access": "wlan", "internet_access:fee": "no", "microbrewery": "no", "name": "Vila Fala", "opening_hours": "Mo-Su 08:00-24:00", "outdoor_seating": "yes", "phone": "+355694481367", "reservation": "recommended", "smoking": "outside", "takeaway": "yes", "tourism": "hotel", "wheelchair": "limited"}}, {"type": "way", "id": 840069694, "nodes": [7839154254, 7839154253, 7839154252, 7839154251, 7839154254], "tags": {"amenity": "restaurant", "building": "yes", "cuisine": "regional", "delivery": "no", "internet_access": "wlan", "internet_access:fee": "no", "name": "Ambassador", "opening_hours": "Mo-Su 07:00-22:00", "outdoor_seating": "yes", "payment:cash": "yes", "payment:coins": "yes", "payment:credit_cards": "no", "payment:cryptocurrencies": "no", "payment:debit_cards": "no", "payment:electronic_purses": "no", "payment:notes": "yes", "reservation": "recommended", "smoking": "outside", "takeaway": "yes", "wheelchair": "limited"}}, {"type": "way", "id": 1009276960, "nodes": [9312216759, 9312216760, 9312216761, 9312216762, 9312216759], "tags": {"amenity": "cafe", "building": "yes", "name": "AR snack & coffee"}}, {"type": "way", "id": 1165161083, "nodes": [6329817154, 6329817155, 10837737953, 6771569980, 6329817154], "tags": {"amenity": "cafe", "building": "yes", "name": "Vila 1821", "outdoor_seating": "yes"}}, {"type": "way", "id": 1165161084, "nodes": [6329817155, 10837737953, 6374266421, 6771569977, 6329817155], "tags": {"amenity": "cafe", "building": "yes", "name": "Fusion", "outdoor_seating": "yes"}}, {"type": "way", "id": 1318782201, "nodes": [12204949911, 12204949912, 12204949913, 12204949914, 12204949911], "tags": {"amenity": "restaurant", "building": "yes", "name": "Restorant Binjak\u00ebt", "phone": "+355697433921"}}, {"type": "way", "id": 1328893025, "nodes": [12294685696, 12294685697, 12294685698, 12294685699, 12294685696], "tags": {"amenity": "restaurant", "building": "yes"}}]}