{"version": 0.6, "generator": "Overpass API 0.7.62.7 375dc00a", "osm3s": {"timestamp_osm_base": "2025-06-14T15:17:02Z", "copyright": "The data included in this document is from www.openstreetmap.org. The data is made available under ODbL."}, "elements": [{"type": "node", "id": 4195496246, "lat": 41.2067841, "lon": 36.9740573, "tags": {"addr:city": "Terme", "addr:housenumber": "10/D", "addr:postcode": "55600", "addr:street": "\u00dcnye Caddesi", "amenity": "cafe", "cuisine": "ice_cream;tea", "name": "Halil \u0130brahim Dondurma (H\u0130DOL\u0130M)"}}, {"type": "node", "id": 4197007215, "lat": 41.2069925, "lon": 36.9731567, "tags": {"addr:city": "Terme/Samsun", "addr:district": "Terme", "addr:housenumber": "4", "addr:postcode": "55600", "addr:street": "Kocaman Caddesi", "amenity": "cafe", "cuisine": "ice_cream;tea", "name": "Hilal Dondurma"}}, {"type": "node", "id": 4200642406, "lat": 41.209256, "lon": 36.9722805, "tags": {"addr:city": "Terme/Samsun", "addr:district": "Terme", "addr:housenumber": "1", "addr:postcode": "55600", "addr:street": "Lise Sokak", "amenity": "cafe", "cuisine": "turkish;cake;tea;coffee_shop", "name": "Mart\u0131 Kafe", "opening_hours": "Mo-Su 09:00-23:30"}}, {"type": "node", "id": 4205221789, "lat": 41.2102817, "lon": 36.9723048, "tags": {"addr:street": "Atat\u00fcrk Caddesi ", "amenity": "restaurant", "name": "Mekselina"}}, {"type": "node", "id": 4206609092, "lat": 41.2086073, "lon": 36.9723546, "tags": {"addr:postcode": "55600", "addr:street": "\u00dcnye Caddesi", "amenity": "restaurant", "cuisine": "turkish;kebab", "name": "Bizler Pide"}}, {"type": "node", "id": 4220258089, "lat": 41.2069113, "lon": 36.9733742, "tags": {"addr:postcode": "55600", "addr:street": "Kocaman Caddesi", "amenity": "restaurant", "cuisine": "turkish", "name": "Karadeniz Pide"}}, {"type": "node", "id": 4239721610, "lat": 41.1141725, "lon": 37.0087837}, {"type": "node", "id": 4239721611, "lat": 41.1139457, "lon": 37.0088851}, {"type": "node", "id": 4239721612, "lat": 41.1140232, "lon": 37.0090059}, {"type": "node", "id": 4239721613, "lat": 41.1140969, "lon": 37.0090407}, {"type": "node", "id": 4239721614, "lat": 41.1141511, "lon": 37.0089878}, {"type": "node", "id": 4239721615, "lat": 41.1142029, "lon": 37.0088759}, {"type": "node", "id": 4330753395, "lat": 41.2086434, "lon": 36.9723437, "tags": {"addr:postcode": "55600", "addr:street": "Beyo\u011flu Caddesi", "amenity": "restaurant", "cuisine": "turkish", "name": "\u00c7i\u011fk\u00f6fteci"}}, {"type": "node", "id": 4343209736, "lat": 41.2089582, "lon": 36.971642, "tags": {"amenity": "cafe"}}, {"type": "node", "id": 4725580236, "lat": 41.1183167, "lon": 37.2656712, "tags": {"amenity": "restaurant", "cuisine": "turkish", "name": "Esnaf Lokantas\u0131"}}, {"type": "node", "id": 4730643902, "lat": 41.1183724, "lon": 37.2666438, "tags": {"amenity": "restaurant", "cuisine": "turkish", "name": "Y\u0131ld\u0131z Lokantas\u0131"}}, {"type": "node", "id": 4730659809, "lat": 41.1176666, "lon": 37.26628, "tags": {"amenity": "cafe"}}, {"type": "node", "id": 4893226822, "lat": 41.2079827, "lon": 36.9727296, "tags": {"addr:postcode": "55600", "addr:street": "\u00c7a\u011flayan Caddesi", "amenity": "restaurant", "cuisine": "turkish", "name": "K\u00f6pr\u00fcba\u015f\u0131 Pide"}}, {"type": "node", "id": 4897498656, "lat": 41.2086767, "lon": 36.9717543, "tags": {"amenity": "cafe"}}, {"type": "node", "id": 5333358874, "lat": 41.1877315, "lon": 37.0295794, "tags": {"amenity": "cafe", "name": "Yakamoz Kafe"}}, {"type": "node", "id": 5341405385, "lat": 41.1140188, "lon": 37.008811}, {"type": "node", "id": 5341405386, "lat": 41.1140549, "lon": 37.0088705}, {"type": "node", "id": 5341405387, "lat": 41.1141348, "lon": 37.008925}, {"type": "node", "id": 5359626876, "lat": 41.1491824, "lon": 37.1231287, "tags": {"amenity": "restaurant", "name": "Ak\u00e7aabat K\u00f6fte"}}, {"type": "node", "id": 6621221553, "lat": 41.1422803, "lon": 37.2453926, "tags": {"amenity": "restaurant", "name": "\u00c7iftlik cafee"}}, {"type": "node", "id": 6621221554, "lat": 41.1423221, "lon": 37.2452498}, {"type": "node", "id": 6621221555, "lat": 41.142279, "lon": 37.2452576}, {"type": "node", "id": 6621221556, "lat": 41.1422774, "lon": 37.2452421}, {"type": "node", "id": 6621221557, "lat": 41.1422271, "lon": 37.2452511}, {"type": "node", "id": 6621221558, "lat": 41.1422363, "lon": 37.2453413}, {"type": "node", "id": 6621221559, "lat": 41.1421897, "lon": 37.2453497}, {"type": "node", "id": 6621221560, "lat": 41.142201, "lon": 37.2454607}, {"type": "node", "id": 6621221561, "lat": 41.1422441, "lon": 37.245453}, {"type": "node", "id": 6621221562, "lat": 41.1422536, "lon": 37.2455458}, {"type": "node", "id": 6621221563, "lat": 41.142356, "lon": 37.2455274}, {"type": "node", "id": 6621221564, "lat": 41.1423449, "lon": 37.2454182}, {"type": "node", "id": 6621221565, "lat": 41.1423552, "lon": 37.2454163}, {"type": "node", "id": 6621221566, "lat": 41.1423469, "lon": 37.2453344}, {"type": "node", "id": 6621221567, "lat": 41.142331, "lon": 37.2453373}, {"type": "node", "id": 7021902380, "lat": 41.143227, "lon": 37.1480523, "tags": {"amenity": "restaurant"}}, {"type": "node", "id": 8039117777, "lat": 41.132402, "lon": 37.2869655, "tags": {"amenity": "restaurant", "name": "Restoran Motto"}}, {"type": "node", "id": 8130801813, "lat": 41.1316345, "lon": 37.2855862}, {"type": "node", "id": 8130801814, "lat": 41.1316299, "lon": 37.285509}, {"type": "node", "id": 8130801815, "lat": 41.1316098, "lon": 37.2855111}, {"type": "node", "id": 8130801816, "lat": 41.1316009, "lon": 37.2853608}, {"type": "node", "id": 8130801821, "lat": 41.1315366, "lon": 37.2856039}, {"type": "node", "id": 8130801822, "lat": 41.1315174, "lon": 37.2853612}, {"type": "node", "id": 8130801825, "lat": 41.1315214, "lon": 37.2853559}, {"type": "node", "id": 8131841864, "lat": 41.1202219, "lon": 37.2453098}, {"type": "node", "id": 8131841865, "lat": 41.1201124, "lon": 37.2451529}, {"type": "node", "id": 8131841866, "lat": 41.1200259, "lon": 37.2452511}, {"type": "node", "id": 8131841867, "lat": 41.1200556, "lon": 37.2453098}, {"type": "node", "id": 8131841868, "lat": 41.1200268, "lon": 37.2453392}, {"type": "node", "id": 8131841869, "lat": 41.120096, "lon": 37.2454642}, {"type": "node", "id": 8131841870, "lat": 41.1202539, "lon": 37.2453817}, {"type": "node", "id": 8131841871, "lat": 41.1201506, "lon": 37.2454632}, {"type": "node", "id": 8131841872, "lat": 41.1202966, "lon": 37.2457894}, {"type": "node", "id": 8131841873, "lat": 41.1204469, "lon": 37.2456708}, {"type": "node", "id": 8131841874, "lat": 41.1203948, "lon": 37.2455544}, {"type": "node", "id": 8131841875, "lat": 41.1203478, "lon": 37.2455914}, {"type": "node", "id": 8146988732, "lat": 41.126498, "lon": 37.290179}, {"type": "node", "id": 8146988733, "lat": 41.1264797, "lon": 37.2901521}, {"type": "node", "id": 8146988734, "lat": 41.126456, "lon": 37.2901342}, {"type": "node", "id": 8146988735, "lat": 41.1263437, "lon": 37.2902752}, {"type": "node", "id": 8146988736, "lat": 41.126357, "lon": 37.2903097}, {"type": "node", "id": 8146988737, "lat": 41.1263783, "lon": 37.2903364}, {"type": "node", "id": 8146988738, "lat": 41.1264051, "lon": 37.290352}, {"type": "node", "id": 8146988739, "lat": 41.1264292, "lon": 37.290127}, {"type": "node", "id": 8146988740, "lat": 41.1264021, "lon": 37.2901314}, {"type": "node", "id": 8146988741, "lat": 41.1263774, "lon": 37.2901468}, {"type": "node", "id": 8146988742, "lat": 41.1263575, "lon": 37.2901717}, {"type": "node", "id": 8146988743, "lat": 41.1263446, "lon": 37.2902036}, {"type": "node", "id": 8146988744, "lat": 41.1263398, "lon": 37.2902393}, {"type": "node", "id": 8146988745, "lat": 41.1264342, "lon": 37.2903548}, {"type": "node", "id": 8146988746, "lat": 41.1264624, "lon": 37.2903446}, {"type": "node", "id": 8146988747, "lat": 41.1264864, "lon": 37.2903223}, {"type": "node", "id": 8146988748, "lat": 41.1265034, "lon": 37.2902907}, {"type": "node", "id": 8146988749, "lat": 41.1265114, "lon": 37.2902534}, {"type": "node", "id": 8146988750, "lat": 41.1265096, "lon": 37.2902147}, {"type": "node", "id": 8146988777, "lat": 41.1280172, "lon": 37.2897198}, {"type": "node", "id": 8146988778, "lat": 41.1279845, "lon": 37.2896675}, {"type": "node", "id": 8146988779, "lat": 41.1279406, "lon": 37.2896326}, {"type": "node", "id": 8146988780, "lat": 41.127748, "lon": 37.2899046}, {"type": "node", "id": 8146988781, "lat": 41.1277753, "lon": 37.2899583}, {"type": "node", "id": 8146988782, "lat": 41.127814, "lon": 37.2899978}, {"type": "node", "id": 8146988783, "lat": 41.1278905, "lon": 37.2896191}, {"type": "node", "id": 8146988784, "lat": 41.1278398, "lon": 37.2896284}, {"type": "node", "id": 8146988785, "lat": 41.1277944, "lon": 37.2896596}, {"type": "node", "id": 8146988786, "lat": 41.1277593, "lon": 37.2897091}, {"type": "node", "id": 8146988787, "lat": 41.1277386, "lon": 37.2897713}, {"type": "node", "id": 8146988788, "lat": 41.1277347, "lon": 37.289839}, {"type": "node", "id": 8146988789, "lat": 41.1278602, "lon": 37.2900188}, {"type": "node", "id": 8146988790, "lat": 41.127909, "lon": 37.2900193}, {"type": "node", "id": 8146988791, "lat": 41.1279554, "lon": 37.2899992}, {"type": "node", "id": 8146988792, "lat": 41.1279946, "lon": 37.2899605}, {"type": "node", "id": 8146988793, "lat": 41.1280225, "lon": 37.2899074}, {"type": "node", "id": 8146988794, "lat": 41.1280363, "lon": 37.2898452}, {"type": "node", "id": 8146988795, "lat": 41.1280344, "lon": 37.2897804}, {"type": "node", "id": 8149863131, "lat": 41.1325713, "lon": 37.286846}, {"type": "node", "id": 8149863132, "lat": 41.1325748, "lon": 37.28709}, {"type": "node", "id": 8149863133, "lat": 41.1321554, "lon": 37.2871006}, {"type": "node", "id": 8149863134, "lat": 41.1321519, "lon": 37.2868565}, {"type": "node", "id": 8174632761, "lat": 41.1264148, "lon": 37.283775, "tags": {"addr:city": "Ordu", "addr:district": "\u00dcnye", "addr:housenumber": "50", "addr:neighbourhood": "Kaledere Mahallesi", "addr:street": "Akku\u015f Niksar Caddesi", "amenity": "restaurant", "branch": "Ordu \u00dcnye", "brand": "K\u00f6fteci Yusuf", "brand:wikidata": "Q126125081", "cuisine": "turkish", "name": "K\u00f6fteci Yusuf", "opening_hours": "Mo-Su 08:00-23:00"}}, {"type": "node", "id": 8176152063, "lat": 41.1286372, "lon": 37.2887543}, {"type": "node", "id": 8176152064, "lat": 41.1286873, "lon": 37.28878}, {"type": "node", "id": 8176152065, "lat": 41.1287244, "lon": 37.2888519}, {"type": "node", "id": 8176152066, "lat": 41.1287826, "lon": 37.2890869}, {"type": "node", "id": 8176152067, "lat": 41.1287608, "lon": 37.2891985}, {"type": "node", "id": 8176152068, "lat": 41.1287471, "lon": 37.2892231}, {"type": "node", "id": 8176152069, "lat": 41.1286848, "lon": 37.2892092}, {"type": "node", "id": 8176152070, "lat": 41.1286372, "lon": 37.2891867}, {"type": "node", "id": 8270311287, "lat": 41.1387008, "lon": 37.2876002}, {"type": "node", "id": 8270311288, "lat": 41.1388334, "lon": 37.2881488}, {"type": "node", "id": 8270311289, "lat": 41.1389445, "lon": 37.288466}, {"type": "node", "id": 8270311290, "lat": 41.1388034, "lon": 37.2885531}, {"type": "node", "id": 8270311291, "lat": 41.1386614, "lon": 37.288148}, {"type": "node", "id": 8270311292, "lat": 41.1387758, "lon": 37.2880774}, {"type": "node", "id": 8270311297, "lat": 41.1392043, "lon": 37.2877609}, {"type": "node", "id": 8270311298, "lat": 41.138968, "lon": 37.2880081}, {"type": "node", "id": 8270311302, "lat": 41.1396423, "lon": 37.286137}, {"type": "node", "id": 8270311303, "lat": 41.1397131, "lon": 37.2861412}, {"type": "node", "id": 8270311304, "lat": 41.1397063, "lon": 37.2863417}, {"type": "node", "id": 8270311305, "lat": 41.1395475, "lon": 37.2863322}, {"type": "node", "id": 8270311306, "lat": 41.1395524, "lon": 37.286189}, {"type": "node", "id": 8270311307, "lat": 41.1396403, "lon": 37.2861943}, {"type": "node", "id": 8270311308, "lat": 41.1395641, "lon": 37.2867749}, {"type": "node", "id": 8270311309, "lat": 41.1397407, "lon": 37.2867424}, {"type": "node", "id": 8270311310, "lat": 41.1397516, "lon": 37.2868705}, {"type": "node", "id": 8270311311, "lat": 41.1395777, "lon": 37.2869066}, {"type": "node", "id": 8270311312, "lat": 41.1395575, "lon": 37.2863798}, {"type": "node", "id": 8270311313, "lat": 41.1396403, "lon": 37.2863832}, {"type": "node", "id": 8270311314, "lat": 41.1396361, "lon": 37.2865671}, {"type": "node", "id": 8270311315, "lat": 41.1395532, "lon": 37.2865638}, {"type": "node", "id": 8334874303, "lat": 41.1313792, "lon": 37.2873031}, {"type": "node", "id": 8334874304, "lat": 41.1315321, "lon": 37.2872095}, {"type": "node", "id": 8334874305, "lat": 41.1316284, "lon": 37.2874865}, {"type": "node", "id": 8334874306, "lat": 41.1314755, "lon": 37.2875801}, {"type": "node", "id": 8334874308, "lat": 41.1286103, "lon": 37.2887421}, {"type": "node", "id": 8334874309, "lat": 41.1285639, "lon": 37.2888448}, {"type": "node", "id": 8334874310, "lat": 41.1285568, "lon": 37.2888805}, {"type": "node", "id": 8334874311, "lat": 41.1285531, "lon": 37.2889196}, {"type": "node", "id": 8334874312, "lat": 41.1285563, "lon": 37.2889585}, {"type": "node", "id": 8334874313, "lat": 41.1285664, "lon": 37.2890018}, {"type": "node", "id": 8334874314, "lat": 41.1286097, "lon": 37.2891226}, {"type": "node", "id": 8334874315, "lat": 41.1279481, "lon": 37.2902335}, {"type": "node", "id": 8334874316, "lat": 41.128188, "lon": 37.290039}, {"type": "node", "id": 8334874317, "lat": 41.1282408, "lon": 37.2901538}, {"type": "node", "id": 8334874318, "lat": 41.128001, "lon": 37.2903484}, {"type": "node", "id": 8334874480, "lat": 41.1434984, "lon": 37.2921249}, {"type": "node", "id": 8334874481, "lat": 41.143504, "lon": 37.2921295}, {"type": "node", "id": 8334874482, "lat": 41.1436935, "lon": 37.2925315}, {"type": "node", "id": 8334874483, "lat": 41.143463, "lon": 37.2927586}, {"type": "node", "id": 8334874484, "lat": 41.1434332, "lon": 37.2929474}, {"type": "node", "id": 8334874485, "lat": 41.1433822, "lon": 37.2929921}, {"type": "node", "id": 8334874486, "lat": 41.1433505, "lon": 37.2927981}, {"type": "node", "id": 8334874487, "lat": 41.1432352, "lon": 37.2925047}, {"type": "node", "id": 8334874488, "lat": 41.1432227, "lon": 37.2923962}, {"type": "node", "id": 8334874489, "lat": 41.1432194, "lon": 37.292325}, {"type": "node", "id": 8493984146, "lat": 41.1276212, "lon": 37.2885991, "tags": {"amenity": "cafe", "brand": "Gloria Jean's", "brand:wikidata": "Q2666365", "brand:wikipedia": "en:Gloria Jean's Coffees", "cuisine": "coffee_shop", "name": "Gloria Jean's", "official_name": "Gloria Jean's Coffees", "takeaway": "yes"}}, {"type": "node", "id": 8493984153, "lat": 41.1282804, "lon": 37.2881848, "tags": {"amenity": "restaurant", "cuisine": "turkish", "name": "Usta D\u00f6nerci"}}, {"type": "node", "id": 8493984154, "lat": 41.1282141, "lon": 37.2881312, "tags": {"amenity": "restaurant", "cuisine": "pizza", "name": "Crakers Pizza"}}, {"type": "node", "id": 8557333477, "lat": 41.1449814, "lon": 37.2581711}, {"type": "node", "id": 8557333478, "lat": 41.1451406, "lon": 37.2582504}, {"type": "node", "id": 8557333479, "lat": 41.14515, "lon": 37.2582172}, {"type": "node", "id": 8557333480, "lat": 41.1452273, "lon": 37.2582557}, {"type": "node", "id": 8557333481, "lat": 41.1451949, "lon": 37.2583703}, {"type": "node", "id": 8557333482, "lat": 41.1449584, "lon": 37.2582524}, {"type": "node", "id": 8580005939, "lat": 41.1809422, "lon": 37.0417718, "tags": {"amenity": "cafe"}}, {"type": "node", "id": 10087657066, "lat": 41.1146617, "lon": 37.2720103, "tags": {"amenity": "restaurant", "name": "Keyf Restoran"}}, {"type": "node", "id": 10087657086, "lat": 41.1154428, "lon": 37.2681603, "tags": {"amenity": "restaurant", "name": "Dagli Restoran"}}, {"type": "node", "id": 10087830458, "lat": 41.1169435, "lon": 37.3109641, "tags": {"amenity": "cafe", "internet_access": "yes", "internet_access:fee": "no", "name": "Ora Manyetik Kum Kafe", "outdoor_seating": "yes"}}, {"type": "node", "id": 10087843481, "lat": 41.1276519, "lon": 37.2883259, "tags": {"amenity": "cafe", "name": "K\u00f6\u015fem Ocakba\u015f\u0131"}}, {"type": "node", "id": 10087843504, "lat": 41.1234696, "lon": 37.2911963, "tags": {"amenity": "restaurant", "name": "Keskinler Unlu Mamulleri"}}, {"type": "node", "id": 10087843548, "lat": 41.1148355, "lon": 37.3227603, "tags": {"amenity": "cafe", "name": "Asado Steak Restoran \u00dcnye"}}, {"type": "node", "id": 10087843746, "lat": 41.1091843, "lon": 37.347734, "tags": {"amenity": "cafe"}}, {"type": "node", "id": 10087843748, "lat": 41.1090959, "lon": 37.3513765, "tags": {"amenity": "restaurant", "name": "Ali Neozat"}}, {"type": "node", "id": 10087843783, "lat": 41.1083103, "lon": 37.3558155, "tags": {"amenity": "restaurant"}}, {"type": "node", "id": 10727473512, "lat": 41.1266078, "lon": 37.2844152, "tags": {"addr:city": "\u00dcnye", "addr:housenumber": "52/207", "addr:neighbourhood": "15 Temmuz \u00c7ar\u015f\u0131s\u0131", "addr:postcode": "52300", "addr:street": "Akku\u015f Niksar Caddesi", "amenity": "cafe", "internet_access": "wlan", "internet_access:fee": "no", "name": "Ensar Vakf\u0131 Gen\u00e7lere \u00c7a\u011fr\u0131 Geli\u015fim Merkezi", "name:tr": "Ensar Vakf\u0131 Gen\u00e7lere \u00c7a\u011fr\u0131 Geli\u015fim Merkezi", "opening_hours": "11:00 - 18:30", "outdoor_seating": "yes", "phone": "+90 505 220 37 31", "website": "https://ensar.org/"}}, {"type": "node", "id": 11680865869, "lat": 41.2086879, "lon": 36.972999, "tags": {"amenity": "cafe", "name": "Fantasia Kafe"}}, {"type": "node", "id": 11680865876, "lat": 41.2100954, "lon": 36.9705333, "tags": {"addr:city": "Terme/Samsun", "addr:postcode": "55600", "addr:street": "\u00c7ar\u015famba Caddesi", "amenity": "restaurant", "cuisine": "turkish", "name": "Deniz Pide"}}, {"type": "node", "id": 11680874902, "lat": 41.2099104, "lon": 36.9730074, "tags": {"addr:city": "Terme/Samsun", "addr:postcode": "55600", "addr:street": "Oval\u0131 Sokak", "amenity": "restaurant", "name": "\u00d6zler Pide"}}, {"type": "node", "id": 11680874903, "lat": 41.209945, "lon": 36.9728602, "tags": {"amenity": "restaurant", "name": "\u00d6zler Pide D\u0131\u015far\u0131 Yemek Alan\u0131"}}, {"type": "node", "id": 12016449223, "lat": 41.1700828, "lon": 37.0566023, "tags": {"amenity": "cafe", "check_date": "2024-06-28", "name": "Amazon"}}, {"type": "node", "id": 12745401175, "lat": 41.0750445, "lon": 36.8257323}, {"type": "node", "id": 12745401176, "lat": 41.0748614, "lon": 36.8261059}, {"type": "node", "id": 12745401177, "lat": 41.0752287, "lon": 36.8264032}, {"type": "node", "id": 12745401178, "lat": 41.0753238, "lon": 36.8264608}, {"type": "node", "id": 12745401179, "lat": 41.0753695, "lon": 36.8264577}, {"type": "node", "id": 12745401180, "lat": 41.0756629, "lon": 36.8263238}, {"type": "node", "id": 12745401181, "lat": 41.0756829, "lon": 36.8262444}, {"type": "node", "id": 12745401182, "lat": 41.0751771, "lon": 36.8258397}, {"type": "way", "id": 424569945, "nodes": [4239721610, 5341405386, 5341405385, 4239721611, 4239721612, 4239721613, 4239721614, 5341405387, 4239721615, 4239721610], "tags": {"amenity": "restaurant", "building": "yes", "name": "Y\u00fcksekyayla Alabal\u0131k Tesisleri"}}, {"type": "way", "id": 704976212, "nodes": [6621221554, 6621221555, 6621221556, 6621221557, 6621221558, 6621221559, 6621221560, 6621221561, 6621221562, 6621221563, 6621221564, 6621221565, 6621221566, 6621221567, 6621221554], "tags": {"amenity": "restaurant", "building": "yes"}}, {"type": "way", "id": 873161263, "nodes": [8130801813, 8130801821, 8130801822, 8130801825, 8130801816, 8130801815, 8130801814, 8130801813], "tags": {"amenity": "cafe", "building": "yes"}}, {"type": "way", "id": 873203160, "nodes": [8131841864, 8131841865, 8131841866, 8131841867, 8131841868, 8131841869, 8131841864], "tags": {"amenity": "cafe", "building": "yes"}}, {"type": "way", "id": 873203161, "nodes": [8131841870, 8131841871, 8131841872, 8131841873, 8131841874, 8131841875, 8131841870], "tags": {"amenity": "cafe", "building": "yes"}}, {"type": "way", "id": 875261202, "nodes": [8146988745, 8146988746, 8146988747, 8146988748, 8146988749, 8146988750, 8146988732, 8146988733, 8146988734, 8146988739, 8146988740, 8146988741, 8146988742, 8146988743, 8146988744, 8146988735, 8146988736, 8146988737, 8146988738, 8146988745], "tags": {"amenity": "cafe", "building": "yes", "name": "Atat\u00fcrk Park\u0131 Kafeteryas\u0131"}}, {"type": "way", "id": 875261208, "nodes": [8146988789, 8146988790, 8146988791, 8146988792, 8146988793, 8146988794, 8146988795, 8146988777, 8146988778, 8146988779, 8146988783, 8146988784, 8146988785, 8146988786, 8146988787, 8146988788, 8146988780, 8146988781, 8146988782, 8146988789], "tags": {"amenity": "restaurant", "building": "yes", "name": "\u00dcnye Belediyesi Atat\u00fcrk Park\u0131 Sosyal Tesisleri"}}, {"type": "way", "id": 875601875, "nodes": [8149863131, 8149863132, 8149863133, 8149863134, 8149863131], "tags": {"amenity": "restaurant", "building": "yes", "name": "Restoran Motto"}}, {"type": "way", "id": 878869560, "nodes": [8334874308, 8176152063, 8176152064, 8176152065, 8176152066, 8176152067, 8176152068, 8176152069, 8176152070, 8334874314, 8334874313, 8334874312, 8334874311, 8334874310, 8334874309, 8334874308], "tags": {"amenity": "restaurant", "building": "yes", "cuisine": "seafood", "name": "Taka Bal\u0131k Lokantas\u0131"}}, {"type": "way", "id": 889583210, "nodes": [8270311287, 8270311297, 8270311298, 8270311288, 8270311289, 8270311290, 8270311291, 8270311292, 8270311287], "tags": {"amenity": "restaurant", "building": "yes", "cuisine": "turkish", "name": "ATAKALE CAFE & RESTAURANT - KIR D\u00dc\u011e\u00dcN SALONU"}}, {"type": "way", "id": 889583214, "nodes": [8270311302, 8270311303, 8270311304, 8270311305, 8270311306, 8270311307, 8270311302], "tags": {"amenity": "restaurant", "building": "yes", "cuisine": "turkish", "name": "\u00c7ak\u0131rtepe Pelitpark"}}, {"type": "way", "id": 889583215, "nodes": [8270311308, 8270311309, 8270311310, 8270311311, 8270311308], "tags": {"amenity": "restaurant", "building": "yes", "cuisine": "turkish"}}, {"type": "way", "id": 889583216, "nodes": [8270311312, 8270311313, 8270311314, 8270311315, 8270311312], "tags": {"amenity": "restaurant", "building": "yes", "cuisine": "turkish"}}, {"type": "way", "id": 896638027, "nodes": [8334874303, 8334874304, 8334874305, 8334874306, 8334874303], "tags": {"amenity": "restaurant", "building": "yes"}}, {"type": "way", "id": 896638029, "nodes": [8334874315, 8334874316, 8334874317, 8334874318, 8334874315], "tags": {"amenity": "restaurant", "building": "yes"}}, {"type": "way", "id": 896638069, "nodes": [8334874481, 8334874482, 8334874483, 8334874484, 8334874485, 8334874486, 8334874487, 8334874488, 8334874489, 8334874480, 8334874481], "tags": {"amenity": "restaurant", "building": "yes"}}, {"type": "way", "id": 921728538, "nodes": [8557333477, 8557333478, 8557333479, 8557333480, 8557333481, 8557333482, 8557333477], "tags": {"amenity": "cafe", "building": "yes", "name": "Cooker P Love"}}, {"type": "way", "id": 1376558282, "nodes": [12745401175, 12745401176, 12745401177, 12745401178, 12745401179, 12745401180, 12745401181, 12745401182, 12745401175], "tags": {"amenity": "restaurant", "building": "yes", "cuisine": "turkish"}}]}