{"version": 0.6, "generator": "Overpass API 0.7.62.7 375dc00a", "osm3s": {"timestamp_osm_base": "2025-06-14T13:24:02Z", "copyright": "The data included in this document is from www.openstreetmap.org. The data is made available under ODbL."}, "elements": [{"type": "node", "id": 5233525274, "lat": 35.0499235, "lon": 9.2782032, "tags": {"amenity": "cafe", "name": "Caf\u00e9 Allagui"}}, {"type": "node", "id": 9039880684, "lat": 35.4310128, "lon": 9.1812746, "tags": {"amenity": "cafe", "name": "\u0645\u0642\u0647\u0649 \u0634\u0639\u0628\u0627\u0646"}}, {"type": "node", "id": 9424761387, "lat": 35.1469467, "lon": 9.3625403, "tags": {"amenity": "cafe", "name": "Caf\u00e9 Ouled Asker"}}, {"type": "node", "id": 10006741336, "lat": 35.0847138, "lon": 9.3717843, "tags": {"amenity": "cafe", "name": "Caf\u00e9 Hmida", "name:fr": "Caf\u00e9 Hmida"}}, {"type": "node", "id": 10006741338, "lat": 35.0838748, "lon": 9.3717758, "tags": {"amenity": "cafe", "name": "Caf\u00e9 Le Coin Bleu", "name:fr": "Caf\u00e9 Le Coin Bleu"}}, {"type": "node", "id": 10006882218, "lat": 35.0736247, "lon": 9.1648611, "tags": {"amenity": "cafe", "name": "Caf\u00e9 Le Bon Coin", "name:fr": "Caf\u00e9 Le Bon Coin"}}, {"type": "node", "id": 10006882219, "lat": 35.0734451, "lon": 9.164785, "tags": {"amenity": "cafe", "name": "Caf\u00e9 Mondial", "name:fr": "Caf\u00e9 Mondial"}}, {"type": "node", "id": 10295589409, "lat": 35.2317433, "lon": 9.1273323, "tags": {"amenity": "restaurant", "name": "Relais Erridha"}}, {"type": "node", "id": 12738682702, "lat": 35.2947437, "lon": 9.4165594, "tags": {"amenity": "restaurant", "name": "L'oasis Parc"}}]}