{"version": 0.6, "generator": "Overpass API 0.7.62.7 375dc00a", "osm3s": {"timestamp_osm_base": "2025-06-14T13:26:15Z", "copyright": "The data included in this document is from www.openstreetmap.org. The data is made available under ODbL."}, "elements": [{"type": "node", "id": 1396142242, "lat": 33.8320281, "lon": 11.0080006, "tags": {"amenity": "restaurant", "name": "Hotel Djerba Plaza"}}, {"type": "node", "id": 1396142398, "lat": 33.8344697, "lon": 11.0115579, "tags": {"amenity": "restaurant", "internet_access": "no", "operator": "Hotel Djerba Plaza", "smoking": "yes", "stars": "4", "wheelchair": "yes"}}, {"type": "node", "id": 1854803278, "lat": 33.8188627, "lon": 10.9687409, "tags": {"amenity": "cafe", "name": "\u0627\u0644\u0634\u064a\u0634\u062e\u0627\u0646", "name:ar": "\u0627\u0644\u0634\u064a\u0634\u062e\u0627\u0646", "name:fr": "Chichkhan", "phone": "+216 75 765 793"}}, {"type": "node", "id": 2143191525, "lat": 33.8439197, "lon": 10.9889, "tags": {"amenity": "restaurant", "name": "Whispering Palms & Caf\u00e9 Arabe"}}, {"type": "node", "id": 2173391288, "lat": 33.8312217, "lon": 11.0367256, "tags": {"amenity": "restaurant", "name": "La Plage"}}, {"type": "node", "id": 2314657084, "lat": 33.5098834, "lon": 11.1070179}, {"type": "node", "id": 2314657085, "lat": 33.5099371, "lon": 11.1071896}, {"type": "node", "id": 2314657086, "lat": 33.5098342, "lon": 11.1072432}, {"type": "node", "id": 2314657087, "lat": 33.5097671, "lon": 11.1070876}, {"type": "node", "id": 2314657093, "lat": 33.5029312, "lon": 11.1173251}, {"type": "node", "id": 2314657094, "lat": 33.502759, "lon": 11.1170515}, {"type": "node", "id": 2314657095, "lat": 33.5026584, "lon": 11.1170596}, {"type": "node", "id": 2314657096, "lat": 33.5026718, "lon": 11.1173814}, {"type": "node", "id": 3012219728, "lat": 33.8283055, "lon": 11.0163166, "tags": {"amenity": "restaurant"}}, {"type": "node", "id": 3012219801, "lat": 33.8289987, "lon": 11.0166654, "tags": {"amenity": "restaurant"}}, {"type": "node", "id": 3060794882, "lat": 33.5887948, "lon": 11.0771425, "tags": {"amenity": "restaurant", "name": "La Dorade"}}, {"type": "node", "id": 3060873363, "lat": 33.5868391, "lon": 11.0832364, "tags": {"amenity": "restaurant", "name": "Lampedusa"}}, {"type": "node", "id": 3061023085, "lat": 33.5861984, "lon": 11.0837099, "tags": {"amenity": "restaurant", "name": "R\u00e9sidence les Berb\u00e8res"}}, {"type": "node", "id": 3277421457, "lat": 33.850293, "lon": 10.9909754}, {"type": "node", "id": 3277421459, "lat": 33.8502952, "lon": 10.990872}, {"type": "node", "id": 3277421460, "lat": 33.8503062, "lon": 10.9910421}, {"type": "node", "id": 3277421561, "lat": 33.8503075, "lon": 10.9909519}, {"type": "node", "id": 3277421562, "lat": 33.8503082, "lon": 10.9908249}, {"type": "node", "id": 3277421564, "lat": 33.8503193, "lon": 10.9909025}, {"type": "node", "id": 3277421565, "lat": 33.8503199, "lon": 10.9910311}, {"type": "node", "id": 3277421566, "lat": 33.8503466, "lon": 10.9908085}, {"type": "node", "id": 3277421567, "lat": 33.8503485, "lon": 10.9907936}, {"type": "node", "id": 3277421568, "lat": 33.8503359, "lon": 10.9911093}, {"type": "node", "id": 3277421570, "lat": 33.8503648, "lon": 10.9907881}, {"type": "node", "id": 3277421581, "lat": 33.8504104, "lon": 10.9907583}, {"type": "node", "id": 3277421582, "lat": 33.8504136, "lon": 10.9907756}, {"type": "node", "id": 3277421590, "lat": 33.8504423, "lon": 10.9909895}, {"type": "node", "id": 3277421596, "lat": 33.8504547, "lon": 10.9909488}, {"type": "node", "id": 3277421598, "lat": 33.8504664, "lon": 10.9907465}, {"type": "node", "id": 3277421600, "lat": 33.8504716, "lon": 10.9907724}, {"type": "node", "id": 3277421603, "lat": 33.8504911, "lon": 10.9907701}, {"type": "node", "id": 3277421606, "lat": 33.850495, "lon": 10.9909433}, {"type": "node", "id": 3277421607, "lat": 33.8504957, "lon": 10.9908782}, {"type": "node", "id": 3277421611, "lat": 33.8505067, "lon": 10.9909017}, {"type": "node", "id": 3277421619, "lat": 33.8505328, "lon": 10.990843}, {"type": "node", "id": 3277461928, "lat": 33.8503725, "lon": 10.9911792}, {"type": "node", "id": 3277461931, "lat": 33.8504356, "lon": 10.991019}, {"type": "node", "id": 3277461933, "lat": 33.8504683, "lon": 10.9910806}, {"type": "node", "id": 3277675889, "lat": 33.8066726, "lon": 10.9881292, "tags": {"addr:city": "\u0645\u064a\u062f\u0648\u0646", "amenity": "cafe", "name": "\u0645\u0642\u0647\u0649", "name:ar": "\u0645\u0642\u0647\u0649"}}, {"type": "node", "id": 3381379685, "lat": 33.8208314, "lon": 11.0470401, "tags": {"amenity": "cafe", "wheelchair": "yes"}}, {"type": "node", "id": 3419359515, "lat": 33.8195297, "lon": 11.0442349, "tags": {"amenity": "cafe"}}, {"type": "node", "id": 3610836842, "lat": 33.7323376, "lon": 10.8656958, "tags": {"amenity": "cafe"}}, {"type": "node", "id": 3737502881, "lat": 33.8386821, "lon": 10.9925912, "tags": {"amenity": "cafe"}}, {"type": "node", "id": 3777822572, "lat": 33.7661452, "lon": 11.0218737, "tags": {"addr:city": "\u0623\u063a\u064a\u0631", "amenity": "cafe"}}, {"type": "node", "id": 3777980082, "lat": 33.8095151, "lon": 10.9905285, "tags": {"addr:city": "\u0645\u064a\u062f\u0648\u0646", "amenity": "restaurant", "name": "\u0627\u0644\u0644\u0648\u062a\u0648\u0641\u0627\u062c", "name:ar": "\u0627\u0644\u0644\u0648\u062a\u0648\u0641\u0627\u062c", "name:en": "Le Lotophage", "name:fr": "Le Lotophage"}}, {"type": "node", "id": 3834454958, "lat": 33.8387137, "lon": 10.9942407, "tags": {"amenity": "cafe"}}, {"type": "node", "id": 3834454959, "lat": 33.8389092, "lon": 10.9937597, "tags": {"amenity": "restaurant"}}, {"type": "node", "id": 3834466669, "lat": 33.8026706, "lon": 11.0459835, "tags": {"amenity": "cafe", "contact:website": "http://www.touareg-djerba.com/", "name": "Touareg - Salon de Th\u00e8"}}, {"type": "node", "id": 3834528075, "lat": 33.8368618, "lon": 10.992443, "tags": {"addr:city": "Midoun", "addr:street": "Zone Touristique, Midoun", "amenity": "restaurant", "cuisine": "regional;mediterranean", "diet:chicken": "yes", "diet:halal": "yes", "diet:healthy": "yes", "diet:local": "yes", "diet:mediterranean": "yes", "diet:seafood": "yes", "name": "\u0628\u0627\u0634 \u062d\u0627\u0645\u0628\u0647", "name:ar": "\u0628\u0627\u0634 \u062d\u0627\u0645\u0628\u0647", "name:fr": "Bach Hamba", "phone": "+216 22 280 999", "website": "https://www.facebook.com/profile.php?id=100071036262622"}}, {"type": "node", "id": 3834528076, "lat": 33.8361448, "lon": 11.0004486, "tags": {"amenity": "cafe", "contact:website": "https://www.facebook.com/elmajles/", "name": "El Majless - Oriental Lounge"}}, {"type": "node", "id": 3861910997, "lat": 33.8302889, "lon": 11.0414485}, {"type": "node", "id": 3861910998, "lat": 33.8303028, "lon": 11.0412729}, {"type": "node", "id": 3861911003, "lat": 33.8304036, "lon": 11.0414616}, {"type": "node", "id": 3861911004, "lat": 33.8304175, "lon": 11.0412861}, {"type": "node", "id": 3872545336, "lat": 33.8281237, "lon": 11.0181222}, {"type": "node", "id": 3872545339, "lat": 33.828134, "lon": 11.0181704}, {"type": "node", "id": 3872545341, "lat": 33.828137, "lon": 11.0180634}, {"type": "node", "id": 3872545343, "lat": 33.8281459, "lon": 11.0181008}, {"type": "node", "id": 3872545345, "lat": 33.82816, "lon": 11.018174}, {"type": "node", "id": 3872545346, "lat": 33.8281615, "lon": 11.0180321}, {"type": "node", "id": 3872545349, "lat": 33.8281644, "lon": 11.0182159}, {"type": "node", "id": 3872545354, "lat": 33.8281911, "lon": 11.0180464}, {"type": "node", "id": 3872545355, "lat": 33.8281978, "lon": 11.0182284}, {"type": "node", "id": 3872545358, "lat": 33.8282119, "lon": 11.0180161}, {"type": "node", "id": 3872545361, "lat": 33.8282176, "lon": 11.0182021}, {"type": "node", "id": 3872545372, "lat": 33.8282489, "lon": 11.0182132}, {"type": "node", "id": 3872545373, "lat": 33.8282498, "lon": 11.0180254}, {"type": "node", "id": 3872545374, "lat": 33.8282569, "lon": 11.0180691}, {"type": "node", "id": 3872545376, "lat": 33.8282778, "lon": 11.0181445}, {"type": "node", "id": 3872545379, "lat": 33.8282852, "lon": 11.0181802}, {"type": "node", "id": 3872545380, "lat": 33.8282861, "lon": 11.0180677}, {"type": "node", "id": 3872545384, "lat": 33.8282986, "lon": 11.0181228}, {"type": "node", "id": 3896348062, "lat": 33.7294796, "lon": 10.8709004, "tags": {"amenity": "restaurant"}}, {"type": "node", "id": 3970206024, "lat": 33.6278322, "lon": 10.9464681, "tags": {"amenity": "restaurant"}}, {"type": "node", "id": 4340029889, "lat": 33.8087775, "lon": 10.993888, "tags": {"addr:city": "\u0645\u064a\u062f\u0648\u0646", "amenity": "restaurant", "name": "\u0627\u0644\u0631\u0643\u0646", "name:ar": "\u0627\u0644\u0631\u0643\u0646", "name:en": "Le Coin", "name:fr": "Le Coin", "operator": "Eddy"}}, {"type": "node", "id": 4512641190, "lat": 33.50036, "lon": 11.1070733, "tags": {"amenity": "cafe", "name": "Sidi Bou Said"}}, {"type": "node", "id": 4512685397, "lat": 33.5019314, "lon": 11.1060918, "tags": {"amenity": "cafe", "name:fr": "Chichkhan"}}, {"type": "node", "id": 4512685400, "lat": 33.5006044, "lon": 11.1069091, "tags": {"amenity": "restaurant", "name": "Le p\u00eacheur"}}, {"type": "node", "id": 4512685401, "lat": 33.4996108, "lon": 11.1080427, "tags": {"amenity": "cafe", "name": "Cactus"}}, {"type": "node", "id": 4512685403, "lat": 33.5088048, "lon": 11.1075054, "tags": {"amenity": "cafe", "name": "omrani"}}, {"type": "node", "id": 4512701891, "lat": 33.5089718, "lon": 11.1075601, "tags": {"amenity": "cafe", "name": "Mazar"}}, {"type": "node", "id": 4515199294, "lat": 33.4995007, "lon": 11.1140664, "tags": {"amenity": "cafe"}}, {"type": "node", "id": 4515217692, "lat": 33.5141554, "lon": 11.1166928, "tags": {"amenity": "cafe", "name": "Caf\u00e9 Riadh"}}, {"type": "node", "id": 4515276289, "lat": 33.5040041, "lon": 11.1097736, "tags": {"amenity": "cafe", "name": "Caf\u00e9 Gourmand"}}, {"type": "node", "id": 4519445891, "lat": 33.5033482, "lon": 11.1099308, "tags": {"amenity": "cafe", "name:en": "Le Relait"}}, {"type": "node", "id": 5012649121, "lat": 33.577673, "lon": 10.9436924, "tags": {"amenity": "restaurant", "name:fr": "Bab Al Shamas"}}, {"type": "node", "id": 5063613023, "lat": 33.8094726, "lon": 10.9965386, "tags": {"addr:city": "\u0645\u064a\u062f\u0648\u0646", "addr:street": "\u0627\u0644\u0637\u0631\u064a\u0642 \u0627\u0644\u062c\u0647\u0648\u064a\u0629 \u0631\u0642\u0645 209", "amenity": "restaurant", "name": "\u0625\u064a\u0644 \u0628\u0627\u0628\u0627\u063a\u0627\u0644\u0648", "name:ar": "\u0625\u064a\u0644 \u0628\u0627\u0628\u0627\u063a\u0627\u0644\u0648", "name:en": "Il Papagallo", "name:fr": "Il Papagallo"}}, {"type": "node", "id": 5636226321, "lat": 33.8142879, "lon": 11.0093065, "tags": {"amenity": "cafe", "name": "\u0645\u0642\u0647\u0649 \u063a\u0631\u0645\u0627\u0632\u064a", "name:ar": "\u0645\u0642\u0647\u0649 \u063a\u0631\u0645\u0627\u0632\u064a", "name:fr": "Caf\u00e9 Guermesi"}}, {"type": "node", "id": 5644815122, "lat": 33.8089909, "lon": 10.9898353, "tags": {"addr:street": "\u0634\u0627\u0631\u0639 \u0635\u0644\u0627\u062d \u0628\u0646 \u064a\u0648\u0633\u0641", "amenity": "cafe", "name": "\u0645\u0642\u0647\u0649 \u0627\u0644\u0628\u0643\u0648\u0634", "name:ar": "\u0645\u0642\u0647\u0649 \u0627\u0644\u0628\u0643\u0648\u0634", "name:fr": "caf\u00e9 baccouche"}}, {"type": "node", "id": 5745434621, "lat": 33.8396933, "lon": 10.9917052, "tags": {"amenity": "cafe", "name": "\u0645\u0642\u0647\u0649 \u0627\u0644\u0623\u0647\u0631\u0627\u0645", "name:ar": "\u0645\u0642\u0647\u0649 \u0627\u0644\u0623\u0647\u0631\u0627\u0645", "name:fr": "caf\u00e9 pyramide"}}, {"type": "node", "id": 5758695222, "lat": 33.8159182, "lon": 10.9801928, "tags": {"amenity": "cafe", "name": "\u0645\u0642\u0647\u0649 \u0627\u0644\u0633\u0644\u0637\u0627\u0646", "name:ar": "\u0645\u0642\u0647\u0649 \u0627\u0644\u0633\u0644\u0637\u0627\u0646", "name:fr": "caf\u00e9 sultan"}}, {"type": "node", "id": 5829377585, "lat": 33.8480162, "lon": 10.9861988, "tags": {"amenity": "cafe", "name": "\u0645\u0642\u0647\u0649 \u0627\u0644\u0631\u0627\u0626\u062f", "name:ar": "\u0645\u0642\u0647\u0649 \u0627\u0644\u0631\u0627\u0626\u062f", "name:fr": "caf\u00e9 raeid"}}, {"type": "node", "id": 5868454185, "lat": 33.8161168, "lon": 10.9829037, "tags": {"addr:street": "\u0634\u0627\u0631\u0639 \u0627\u0644\u0628\u064a\u0626\u0629", "amenity": "cafe", "name": "\u0645\u0642\u0647\u0649 \u062d\u0646\u0628\u0639\u0644", "name:ar": "\u0645\u0642\u0647\u0649 \u062d\u0646\u0628\u0639\u0644", "name:en": "Caf\u00e9 Hannibal", "name:fr": "caf\u00e9 hannibal"}}, {"type": "node", "id": 5885986091, "lat": 33.8480222, "lon": 10.9861881, "tags": {"amenity": "cafe", "name": "\u0645\u0642\u0647\u0649 \u0627\u0644\u0631\u0627\u0626\u062f", "name:fr": "caf\u00e9 raied"}}, {"type": "node", "id": 5894215685, "lat": 33.80874, "lon": 10.9911809, "tags": {"addr:city": "\u0645\u064a\u062f\u0648\u0646", "amenity": "cafe", "name": "\u0645\u0642\u0647\u0649 \u0628\u0646 \u064a\u062f\u0631", "name:ar": "\u0645\u0642\u0647\u0649 \u0628\u0646 \u064a\u062f\u0631", "name:en": "Cafe Ben Yedder", "name:fr": "Caf\u00e9 Ben Yedder"}}, {"type": "node", "id": 5908363188, "lat": 33.8073352, "lon": 10.993984, "tags": {"amenity": "cafe", "name": "\u0645\u0642\u0647\u0649 \u0645\u0648\u0632\u0627\u064a\u064a\u0643", "name:ar": "\u0645\u0642\u0647\u0649 \u0645\u0648\u0632\u0627\u064a\u064a\u0643", "name:fr": "caf\u00e9 mosa\u00efque"}}, {"type": "node", "id": 5916059188, "lat": 33.8301333, "lon": 10.9862812, "tags": {"amenity": "cafe", "name": "\u0645\u0642\u0647\u0649 \u0645\u0627\u0644\u0648\u0641", "name:ar": "\u0645\u0642\u0647\u0649 \u0645\u0627\u0644\u0648\u0641", "name:fr": "caf\u00e9 melouf"}}, {"type": "node", "id": 5935129285, "lat": 33.8160858, "lon": 10.9829509, "tags": {"amenity": "cafe", "name": "\u0645\u0642\u0647\u0649 \u062d\u0646\u0628\u0639\u0644", "name:ar": "\u0645\u0642\u0647\u0649 \u062d\u0646\u0628\u0639\u0644", "name:fr": "caf\u00e9 Hannbal"}}, {"type": "node", "id": 5967171689, "lat": 33.8169517, "lon": 10.9893955, "tags": {"amenity": "cafe", "name": "\u0645\u0642\u0647\u0649 \u0642\u0631\u0637\u0627\u062c", "name:ar": "\u0645\u0642\u0647\u0649 \u0642\u0631\u0637\u0627\u062c", "name:fr": "caf\u00e9 carthage"}}, {"type": "node", "id": 5967196388, "lat": 33.8365912, "lon": 10.9746022, "tags": {"amenity": "cafe", "name": "\u0645\u0642\u0647\u0649 \u0627\u0644\u0646\u0648\u0631", "name:ar": "\u0645\u0642\u0647\u0649 \u0627\u0644\u0646\u0648\u0631", "name:fr": "caf\u00e9 nour"}}, {"type": "node", "id": 5967196389, "lat": 33.8309075, "lon": 10.987115, "tags": {"amenity": "cafe", "name": "\u0645\u0642\u0647\u0649 \u0628\u0633\u0627\u062a\u064a\u0646", "name:ar": "\u0645\u0642\u0647\u0649 \u0628\u0633\u0627\u062a\u064a\u0646", "name:fr": "caf\u00e9 besetin"}}, {"type": "node", "id": 5970627985, "lat": 33.8488972, "lon": 10.985907, "tags": {"amenity": "cafe", "name": "\u0645\u0642\u0647\u0649 \u0645\u0631\u0627\u0643\u0634", "name:ar": "\u0645\u0642\u0647\u0649 \u0645\u0631\u0627\u0643\u0634", "name:fr": "caf\u00e9 Marrakech"}}, {"type": "node", "id": 5979926685, "lat": 33.8088264, "lon": 10.9889061, "tags": {"addr:street": "\u0634\u0627\u0631\u0639 \u0635\u0644\u0627\u062d \u0628\u0646 \u064a\u0648\u0633\u0641", "amenity": "cafe", "cuisine": "tea", "internet_access": "wlan", "name": "\u0645\u0642\u0647\u0649 \u062c\u0645\u0639\u0629", "name:ar": "\u0645\u0642\u0647\u0649 \u0627\u0644\u0646\u062e\u064a\u0644", "name:en": "\u0645\u0642\u0647\u0649 \u0627\u0644\u0646\u062e\u064a\u0644", "name:fr": "caf\u00e9 elnakhil"}}, {"type": "node", "id": 5994000887, "lat": 33.8164871, "lon": 10.9830141, "tags": {"addr:street": "\u0634\u0627\u0631\u0639 \u0627\u0644\u0628\u064a\u0626\u0629", "amenity": "cafe", "name": "\u0645\u0642\u0647\u0649 \u0639\u0644\u064a\u0633\u0629", "name:ar": "\u0645\u0642\u0647\u0649 \u0639\u0644\u064a\u0633\u0629", "name:en": "Caf\u00e9 Ulysse", "name:fr": "salon de th\u00e9 elyssa"}}, {"type": "node", "id": 6003322886, "lat": 33.8121574, "lon": 10.986604, "tags": {"addr:street": "2011 \u0634\u0627\u0631\u0639 14 \u062c\u0627\u0646\u0641\u064a", "addr:street:ar": "\u0634\u0627\u0631\u0639 14 \u062c\u0627\u0646\u0641\u064a 2011", "addr:street:fr": "Avenue du 14 Janvier 2011", "amenity": "cafe", "name": "\u0645\u0642\u0647\u0649 \u0643\u0627\u0628\u064a\u062a\u0648\u0644", "name:ar": "\u0645\u0642\u0647\u0649 \u0643\u0627\u0628\u064a\u062a\u0648\u0644", "name:fr": "caf\u00e9 capitole"}}, {"type": "node", "id": 6037762685, "lat": 33.8293602, "lon": 10.9867288, "tags": {"amenity": "cafe", "name": "\u0645\u0642\u0647\u0649 \u0645\u0635\u0644\u062d", "name:ar": "\u0645\u0642\u0647\u0649 \u0645\u0635\u0644\u062d", "name:fr": "caf\u00e9 mosleh"}}, {"type": "node", "id": 6401060389, "lat": 33.8189674, "lon": 10.9837843, "tags": {"addr:street": "\u0634\u0627\u0631\u0639 \u0627\u0644\u0628\u064a\u0626\u0629", "amenity": "cafe", "name": "\u0645\u0642\u0647\u0649 \u0641\u064a\u0631\u0648\u0646\u0627", "name:ar": "\u0645\u0642\u0647\u0649 \u0641\u064a\u0631\u0648\u0646\u0627", "name:en": "Caf\u00e9 Virona", "name:fr": "caf\u00e9 verona", "opening_hours": "Mo-Su 06:00-02:00"}}, {"type": "node", "id": 6417011786, "lat": 33.8220872, "lon": 10.9845128, "tags": {"addr:street": "\u0634\u0627\u0631\u0639 \u0627\u0644\u0628\u064a\u0626\u0629", "amenity": "cafe", "name": "\u0645\u0642\u0647\u0649 \u0627\u0644\u0623\u0645\u0644", "name:ar": "\u0645\u0642\u0647\u0649 \u0627\u0644\u0623\u0645\u0644", "name:fr": "caf\u00e9 espoir"}}, {"type": "node", "id": 6436600988, "lat": 33.7968887, "lon": 10.9638545, "tags": {"amenity": "cafe", "name": "\u0645\u0642\u0647\u0649 \u0627\u0644\u0645\u062d\u0628\u0648\u0628\u064a\u0646", "name:ar": "\u0645\u0642\u0647\u0649 \u0627\u0644\u0645\u062d\u0628\u0648\u0628\u064a\u0646", "name:fr": "caf\u00e9 mahboubin"}}, {"type": "node", "id": 6633334385, "lat": 33.8068263, "lon": 10.9908745, "tags": {"addr:street": "\u0634\u0627\u0631\u0639 \u0627\u0644\u062d\u0628\u064a\u0628 \u0628\u0648\u0631\u0642\u064a\u0628\u0629", "addr:street:ar": "\u0634\u0627\u0631\u0639 \u0627\u0644\u062d\u0628\u064a\u0628 \u0628\u0648\u0631\u0642\u064a\u0628\u0629", "amenity": "cafe", "name:fr": "Palais Royal"}}, {"type": "node", "id": 6655664485, "lat": 33.8059686, "lon": 10.989544, "tags": {"addr:street": "\u0634\u0627\u0631\u0639 \u0628\u0634\u064a\u0631 \u0637\u0644\u064a\u0644", "amenity": "cafe", "name": "\u0645\u0642\u0647\u0649 \u0627\u0644\u0645\u062f\u064a\u0646\u0629", "name:ar": "\u0645\u0642\u0647\u0649 \u0627\u0644\u0645\u062f\u064a\u0646\u0629", "name:fr": "caf\u00e9 madina"}}, {"type": "node", "id": 7740399433, "lat": 33.8086003, "lon": 10.9926506, "tags": {"addr:housenumber": "20", "amenity": "cafe", "name": "Caf\u00e9 les Arcades"}}, {"type": "node", "id": 7968132092, "lat": 33.807656, "lon": 10.9886841, "tags": {"amenity": "cafe", "name": "\u0645\u0642\u0647\u0649 \u0627\u0631\u0627\u0628\u064a\u0633\u0643", "name:ar": "\u0645\u0642\u0647\u0649 \u0627\u0631\u0627\u0628\u064a\u0633\u0643", "name:en": "caf\u00e9 arabesque", "name:fr": "caf\u00e9 arabesque"}}, {"type": "node", "id": 9151491169, "lat": 33.8300617, "lon": 10.9500906}, {"type": "node", "id": 9151563950, "lat": 33.7976551, "lon": 10.9578756}, {"type": "node", "id": 9151625835, "lat": 33.7975717, "lon": 10.9577265}, {"type": "node", "id": 9151688351, "lat": 33.7974786, "lon": 10.957758}, {"type": "node", "id": 9151784026, "lat": 33.8300509, "lon": 10.9499596}, {"type": "node", "id": 9151852266, "lat": 33.7976151, "lon": 10.9577113}, {"type": "node", "id": 9151914934, "lat": 33.7975715, "lon": 10.9577255}, {"type": "node", "id": 9151979619, "lat": 33.7975189, "lon": 10.9579232}, {"type": "node", "id": 9219863417, "lat": 33.8419849, "lon": 10.9896851, "tags": {"amenity": "cafe", "name:en": "cafe 203"}}, {"type": "node", "id": 9579298515, "lat": 33.7885827, "lon": 11.0584721, "tags": {"amenity": "restaurant", "cuisine": "seafood;fish_and_chips;regional;coffee_shop", "name": "La Lagune", "name:aeb": "Seguia", "name:fr": "La Lagune", "payment:cash": "yes", "payment:credit_cards": "yes"}}, {"type": "node", "id": 9785493054, "lat": 33.5117308, "lon": 11.10543, "tags": {"amenity": "cafe", "name": "Caf\u00e9 El Margoum"}}, {"type": "node", "id": 10057763817, "lat": 33.8053715, "lon": 10.9907795, "tags": {"addr:postcode": "4116", "addr:street": "\u0634\u0627\u0631\u0639 \u0628\u0634\u064a\u0631 \u0627\u0644\u062a\u0644\u064a\u0644\u064a", "amenity": "cafe", "cuisine": "coffee_shop;crepe;pancake;savory_pancakes;tea", "internet_access": "wlan", "name:en": "Moods Coffee Shop", "opening_hours": "Mo-Su 04:30-22:00", "phone": "+216 55 896 485"}}, {"type": "node", "id": 10301359433, "lat": 33.5260475, "lon": 11.1143584}, {"type": "node", "id": 10301359434, "lat": 33.5257614, "lon": 11.1144005}, {"type": "node", "id": 10301359435, "lat": 33.5256972, "lon": 11.1138564}, {"type": "node", "id": 10301359436, "lat": 33.5259483, "lon": 11.1137887}, {"type": "node", "id": 10861962355, "lat": 33.5784051, "lon": 11.0332502, "tags": {"amenity": "cafe", "check_date": "2023-05-02", "outdoor_seating": "yes"}}, {"type": "node", "id": 10865456819, "lat": 33.585684, "lon": 11.0810937, "tags": {"amenity": "cafe", "check_date": "2023-05-03"}}, {"type": "node", "id": 10975875787, "lat": 33.7877123, "lon": 11.0197504}, {"type": "node", "id": 10975875789, "lat": 33.7874827, "lon": 11.0191762}, {"type": "node", "id": 10975875794, "lat": 33.7878583, "lon": 11.0189878}, {"type": "node", "id": 10975875795, "lat": 33.7879074, "lon": 11.019049}, {"type": "node", "id": 10975875796, "lat": 33.7879496, "lon": 11.019191}, {"type": "node", "id": 10975875797, "lat": 33.78802, "lon": 11.0193385}, {"type": "node", "id": 10975875798, "lat": 33.788063, "lon": 11.0194388}, {"type": "node", "id": 10975875799, "lat": 33.7881019, "lon": 11.019504}, {"type": "node", "id": 10975875800, "lat": 33.7879668, "lon": 11.0195875}, {"type": "node", "id": 11240109351, "lat": 33.8300493, "lon": 10.9499199}, {"type": "node", "id": 11240109352, "lat": 33.8300799, "lon": 10.9497505}, {"type": "node", "id": 11240109353, "lat": 33.8298362, "lon": 10.9498088}, {"type": "node", "id": 11240109356, "lat": 33.8300936, "lon": 10.9503999}, {"type": "node", "id": 11240109357, "lat": 33.8297403, "lon": 10.9504547}, {"type": "node", "id": 11240109358, "lat": 33.8297119, "lon": 10.9504531}, {"type": "node", "id": 11240109360, "lat": 33.8301087, "lon": 10.9499049}, {"type": "node", "id": 11240109369, "lat": 33.8297282, "lon": 10.9498428}, {"type": "node", "id": 11240109370, "lat": 33.8297028, "lon": 10.9501591}, {"type": "node", "id": 11240109371, "lat": 33.8296993, "lon": 10.9502575}, {"type": "node", "id": 11240109372, "lat": 33.829704, "lon": 10.9504445}, {"type": "node", "id": 11242653832, "lat": 33.8296956, "lon": 10.950109}, {"type": "node", "id": 11291246849, "lat": 33.8378399, "lon": 10.9923927, "tags": {"amenity": "restaurant", "name": "\u0645\u0637\u0639\u0645 \u0639\u0645 \u0635\u0627\u0644\u062d"}}, {"type": "node", "id": 11396244170, "lat": 33.8075572, "lon": 10.9903063, "tags": {"addr:street": "\u0634\u0627\u0631\u0639 \u0639\u0644\u064a \u0627\u0644\u0628\u0644\u0647\u0648\u0627\u0646", "amenity": "cafe"}}, {"type": "node", "id": 11929362169, "lat": 33.8195006, "lon": 10.8537537, "tags": {"amenity": "restaurant", "internet_access": "wlan", "name:en": "Mamie Fatima", "name:fr": "Mamie Fatima"}}, {"type": "node", "id": 11980099470, "lat": 33.8257508, "lon": 10.9581845}, {"type": "node", "id": 11980099471, "lat": 33.8256773, "lon": 10.9581378}, {"type": "node", "id": 11980099472, "lat": 33.8257383, "lon": 10.9579899}, {"type": "node", "id": 11980099473, "lat": 33.825849, "lon": 10.9579233}, {"type": "node", "id": 11980099474, "lat": 33.8258714, "lon": 10.9579772}, {"type": "node", "id": 11980099475, "lat": 33.8257824, "lon": 10.9580307}, {"type": "node", "id": 11980099476, "lat": 33.8258143, "lon": 10.9580524}, {"type": "node", "id": 11980099477, "lat": 33.8257422, "lon": 10.9579994}, {"type": "node", "id": 12099656101, "lat": 33.8054749, "lon": 10.9896873, "tags": {"amenity": "restaurant", "cuisine": "regional", "name": "\u0645\u0637\u0639\u0645 \u0627\u0644\u0645\u062e\u062a\u0627\u0631", "name:fr": "Restaurant chez Moktar"}}, {"type": "node", "id": 12195556702, "lat": 33.8285213, "lon": 11.0404035, "tags": {"amenity": "restaurant", "name": "Buffet Restaurant"}}, {"type": "node", "id": 12195556832, "lat": 33.8283331, "lon": 11.0404575, "tags": {"amenity": "restaurant", "cuisine": "arab", "name": "Tunisian Restaurant"}}, {"type": "node", "id": 12195556851, "lat": 33.8306596, "lon": 11.0414117, "tags": {"amenity": "cafe"}}, {"type": "node", "id": 12207343721, "lat": 33.830663, "lon": 10.9870238, "tags": {"amenity": "restaurant", "cuisine": "regional;fast_food", "delivery": "no", "diet:halal": "yes", "name": "Restaurant Maraheb", "takeaway": "yes", "toilets": "yes"}}, {"type": "node", "id": 12735419630, "lat": 33.8092758, "lon": 10.9896838, "tags": {"addr:city": "Midoun", "amenity": "restaurant", "cuisine": "regional;pizza;kebab", "name": "Restaurant El Houch", "name:aeb": "\u0645\u0637\u0639\u0645 \u0627\u0644\u062d\u0648\u0634", "phone": "+216 99115013"}}, {"type": "node", "id": 12750350508, "lat": 33.8005183, "lon": 11.0386458, "tags": {"amenity": "cafe"}}, {"type": "node", "id": 12750350515, "lat": 33.8003217, "lon": 11.0384244, "tags": {"amenity": "cafe"}}, {"type": "node", "id": 12809337149, "lat": 33.8275403, "lon": 11.0176236, "tags": {"amenity": "restaurant", "outdoor_seating": "yes"}}, {"type": "node", "id": 12843138108, "lat": 33.8113266, "lon": 10.9903166, "tags": {"addr:city": "Midoun", "amenity": "cafe"}}, {"type": "node", "id": 12856546252, "lat": 33.7613262, "lon": 10.9546772}, {"type": "node", "id": 12856546253, "lat": 33.7612619, "lon": 10.9547362}, {"type": "node", "id": 12856546254, "lat": 33.7613715, "lon": 10.9549091}, {"type": "node", "id": 12856546255, "lat": 33.7614358, "lon": 10.9548501}, {"type": "node", "id": 12908935527, "lat": 33.8091929, "lon": 10.9940852, "tags": {"addr:city": "Midoun", "amenity": "cafe", "name": "Caf\u00e9 De l'Avenir", "name:aeb": "\u0645\u0642\u0647\u0649 \u0627\u0644\u0645\u0633\u062a\u0642\u0628\u0644"}}, {"type": "node", "id": 12908935535, "lat": 33.8094632, "lon": 10.9941537, "tags": {"addr:city": "Midoun", "amenity": "cafe", "name": "Caf\u00e9 De l'Avenir", "name:aeb": "\u0645\u0642\u0647\u0649 \u0627\u0644\u0645\u0633\u062a\u0642\u0628\u0644"}}, {"type": "way", "id": 222505665, "nodes": [2314657084, 2314657085, 2314657086, 2314657087, 2314657084], "tags": {"amenity": "cafe", "building": "yes", "name": "Caf\u00e9 Rbat El Halfawin"}}, {"type": "way", "id": 222505668, "nodes": [2314657093, 2314657094, 2314657095, 2314657096, 2314657093], "tags": {"amenity": "restaurant", "building": "yes", "cuisine": "poisson_grill\u00e9", "name": "Restaurant Le petite vague"}}, {"type": "way", "id": 321027317, "nodes": [3277421570, 3277421582, 3277421581, 3277421598, 3277421600, 3277421603, 3277421619, 3277421607, 3277421611, 3277421606, 3277421596, 3277421590, 3277461931, 3277461933, 3277461928, 3277421568, 3277421460, 3277421565, 3277421457, 3277421561, 3277421564, 3277421459, 3277421562, 3277421566, 3277421567, 3277421570], "tags": {"amenity": "restaurant", "building": "yes", "cuisine": "italian", "name": "Da Mario"}}, {"type": "way", "id": 382988519, "nodes": [3861911004, 3861910998, 3861910997, 3861911003, 3861911004], "tags": {"amenity": "restaurant", "building": "yes", "name": "Beach Restaurant"}}, {"type": "way", "id": 383952159, "nodes": [3872545373, 3872545358, 3872545354, 3872545346, 3872545341, 3872545343, 3872545336, 3872545339, 3872545345, 3872545349, 3872545355, 3872545361, 3872545372, 3872545379, 3872545376, 3872545384, 3872545380, 3872545374, 3872545373], "tags": {"amenity": "restaurant", "building": "yes", "delivery": "no", "outdoor_seating": "yes", "takeaway": "yes", "wheelchair": "yes"}}, {"type": "way", "id": 990412766, "nodes": [9151979619, 9151688351, 9151914934, 9151625835, 9151852266, 9151563950, 9151979619], "tags": {"amenity": "cafe", "building": "yes", "cuisine": "coffee_shop", "internet_access": "wlan", "name": "Cafe Virage"}}, {"type": "way", "id": 1126568727, "nodes": [10301359433, 10301359434, 10301359435, 10301359436, 10301359433], "tags": {"amenity": "cafe", "building": "yes", "cuisine": "burger;pizza;chicken;american", "internet_access": "yes", "internet_access:fee": "yes", "name": "Marina", "outdoor_seating": "yes"}}, {"type": "way", "id": 1181919275, "nodes": [10975875787, 10975875789, 10975875794, 10975875795, 10975875796, 10975875797, 10975875798, 10975875799, 10975875800, 10975875787], "tags": {"addr:city": "Arkou", "amenity": "cafe", "building": "no", "cuisine": "regional", "name": "Maasrat Jdoud", "name:aeb": "\u0645\u0639\u0635\u0631\u0629 \u0627\u0644\u062c\u062f\u0648\u062f", "opening_hours": "09:00-00:00", "outdoor_seating": "yes", "phone": "+216 53 321 774", "toilets": "yes", "website": "https://fr.restaurantguru.com/Maasret-Jdoud-Arkou", "wheelchair": "limited"}}, {"type": "way", "id": 1213171538, "nodes": [11240109353, 11240109369, 11242653832, 11240109370, 11240109371, 11240109372, 11240109358, 11240109357, 11240109356, 9151491169, 9151784026, 11240109351, 11240109360, 11240109352, 11240109353], "tags": {"amenity": "restaurant", "name": "Espace La Gargoulette"}}, {"type": "way", "id": 1292275023, "nodes": [11980099470, 11980099471, 11980099477, 11980099472, 11980099473, 11980099474, 11980099475, 11980099476, 11980099470], "tags": {"amenity": "cafe", "building": "yes", "name": "MM COFFEE", "opening_hours": "-23:00"}}, {"type": "way", "id": 1388892184, "nodes": [12856546252, 12856546253, 12856546254, 12856546255, 12856546252], "tags": {"amenity": "cafe", "building": "yes"}}]}