{"version": 0.6, "generator": "Overpass API 0.7.62.7 375dc00a", "osm3s": {"timestamp_osm_base": "2025-06-14T14:43:30Z", "copyright": "The data included in this document is from www.openstreetmap.org. The data is made available under ODbL."}, "elements": [{"type": "node", "id": 365763658, "lat": 39.9254076, "lon": 23.5884031, "tags": {"amenity": "restaurant", "cuisine": "fish", "name": "Villa Stasa"}}, {"type": "node", "id": 431015724, "lat": 39.9917123, "lon": 23.6107171, "tags": {"amenity": "restaurant", "cuisine": "regional", "name": "Liogerma"}}, {"type": "node", "id": 431015727, "lat": 39.9918181, "lon": 23.608824, "tags": {"amenity": "restaurant", "cuisine": "greek", "name": "RESTAURANT STEFANOS"}}, {"type": "node", "id": 987871784, "lat": 39.9714726, "lon": 23.4006525, "tags": {"addr:city": "\u039a\u03b1\u03bb\u03ac\u03bd\u03b4\u03c1\u03b1", "addr:postcode": "63077", "amenity": "restaurant", "check_date": "2025-05-14", "contact:tripadvisor": "https://www.tripadvisor.com/Restaurant_Review-g190383-d15055603-Reviews", "cuisine": "greek", "level": "0", "name": "Stou Thanasi", "name:el": "\u03a3\u03c4\u03bf\u03c5 \u0398\u03b1\u03bd\u03ac\u03c3\u03b7", "name:en": "Stou Thanasi", "outdoor_seating": "yes", "payment:cards": "yes", "payment:cash": "yes", "payment:contactless": "yes", "toilets": "yes"}}, {"type": "node", "id": 1328790812, "lat": 39.9470881, "lon": 23.5289722, "tags": {"amenity": "restaurant", "cuisine": "greek"}}, {"type": "node", "id": 1406887051, "lat": 40.0282017, "lon": 23.8142227, "tags": {"amenity": "restaurant", "name": "Psarotaverna: O Panos", "tourism": "camp_site"}}, {"type": "node", "id": 1407245534, "lat": 39.997539, "lon": 23.3841158, "tags": {"amenity": "restaurant", "cuisine": "greek"}}, {"type": "node", "id": 1449627969, "lat": 39.9888523, "lon": 23.6123257, "tags": {"amenity": "restaurant", "cuisine": "greek", "name": "\u03a4\u03bf \u03ba\u03bf\u03c4\u03ad\u03c4\u03c3\u03b9", "wheelchair": "yes"}}, {"type": "node", "id": 1449628574, "lat": 39.9904459, "lon": 23.6134479, "tags": {"amenity": "cafe"}}, {"type": "node", "id": 1449628685, "lat": 39.9887941, "lon": 23.6136725, "tags": {"amenity": "cafe", "name": "Mamos", "wheelchair": "yes"}}, {"type": "node", "id": 1449628687, "lat": 39.988575, "lon": 23.6131245, "tags": {"amenity": "restaurant", "name": "Eliza"}}, {"type": "node", "id": 1449628698, "lat": 39.988271, "lon": 23.6129359, "tags": {"amenity": "cafe", "name": "One Time"}}, {"type": "node", "id": 1449628942, "lat": 39.9890694, "lon": 23.6182, "tags": {"amenity": "restaurant", "name": "Aeollos Restaurant"}}, {"type": "node", "id": 1449628944, "lat": 39.9891244, "lon": 23.6179844, "tags": {"amenity": "restaurant", "name": "\u039f \u0392\u039b\u0391\u03a7\u039f\u03a3", "wheelchair": "yes"}}, {"type": "node", "id": 1449628956, "lat": 39.9893034, "lon": 23.6155051, "tags": {"addr:postcode": "63085", "addr:street": "Pizza Rialto Pefkochori", "amenity": "restaurant", "cuisine": "italian", "name": "Pizza Rialto", "wheelchair": "yes"}}, {"type": "node", "id": 1449628961, "lat": 39.9880875, "lon": 23.6144796, "tags": {"amenity": "restaurant", "cuisine": "italian", "name": "Roma Pizza"}}, {"type": "node", "id": 1449628991, "lat": 39.990556, "lon": 23.6074831, "tags": {"amenity": "cafe", "name": "\u039c\u03a0\u039f\u03a5\u0393\u0391\u03a4\u03a3\u0391"}}, {"type": "node", "id": 1449629194, "lat": 39.988389, "lon": 23.6137781, "tags": {"amenity": "cafe", "name": "Crescendo", "wheelchair": "yes"}}, {"type": "node", "id": 1449629246, "lat": 39.9876103, "lon": 23.61449, "tags": {"amenity": "cafe", "cuisine": "greek", "internet_access": "wlan", "name": "\u039f \u03a4\u03c3\u03b1\u03c0\u03b1\u03c1\u03aes", "name:el": "\u039f \u03a4\u03c3\u03b1\u03c0\u03b1\u03c1\u03aes", "name:en": "Tsaparis Fish Tavern"}}, {"type": "node", "id": 1449629306, "lat": 39.9880301, "lon": 23.6154422, "tags": {"amenity": "cafe", "name": "Lobby"}}, {"type": "node", "id": 1449630095, "lat": 39.9900398, "lon": 23.6144091, "tags": {"amenity": "restaurant", "name": "\u03a6\u03c5\u03c3\u03b1\u03bb\u03af\u03b4\u03b1"}}, {"type": "node", "id": 1449630103, "lat": 39.9887872, "lon": 23.6131964, "tags": {"amenity": "restaurant", "cuisine": "greek", "name": "IL FUNGO", "note": "Name corrected 2015-01"}}, {"type": "node", "id": 1773699412, "lat": 40.0120793, "lon": 23.4471506, "tags": {"amenity": "restaurant", "note": "Sp\u00e9cialit\u00e9 \u03a0\u03b9\u03c0\u03b5\u03c1\u03ac\u03c4\u03bf (\u03c4\u03c5\u03c1\u03af \u03bc\u03b5 \u03bc\u03c0\u03b1\u03c7\u03b1\u03c1\u03b9\u03ba\u03ac)"}}, {"type": "node", "id": 1947661058, "lat": 39.9888224, "lon": 23.619536, "tags": {"amenity": "restaurant", "cuisine": "greek", "name": "Amos Restaurant"}}, {"type": "node", "id": 1947661078, "lat": 39.9887666, "lon": 23.619808, "tags": {"amenity": "restaurant", "cuisine": "greek", "name": "PINK restaurant", "wheelchair": "yes"}}, {"type": "node", "id": 1947661082, "lat": 39.9887459, "lon": 23.6199607, "tags": {"amenity": "restaurant", "name": "Tsapari", "wheelchair": "yes"}}, {"type": "node", "id": 1947661084, "lat": 39.9887184, "lon": 23.6201224, "tags": {"amenity": "restaurant", "name": "Bakalis", "wheelchair": "yes"}}, {"type": "node", "id": 2308586448, "lat": 40.0364703, "lon": 23.3621336, "tags": {"amenity": "cafe", "internet_access": "yes", "internet_access:fee": "yes", "name": "\u0391\u03c7\u03b9\u03bb\u03bb\u03b5\u03b9\u03bf\u03bd"}}, {"type": "node", "id": 2457954852, "lat": 40.0339548, "lon": 23.8129258, "tags": {"amenity": "restaurant", "cuisine": "greek", "name": "Tabepna Simon"}}, {"type": "node", "id": 2461944721, "lat": 39.947611, "lon": 23.5281293, "tags": {"amenity": "cafe", "name": "Alter Ego"}}, {"type": "node", "id": 2461944725, "lat": 39.9457355, "lon": 23.530759, "tags": {"amenity": "restaurant", "cuisine": "pizza", "name": "ipida"}}, {"type": "node", "id": 2478618717, "lat": 39.9992838, "lon": 23.5831553, "tags": {"amenity": "cafe"}}, {"type": "node", "id": 2498343719, "lat": 40.0355354, "lon": 23.3600141, "tags": {"amenity": "restaurant", "cuisine": "seafood", "name": "Diamantis", "note:de": "Gute Fischgerichte!", "wheelchair": "limited"}}, {"type": "node", "id": 2498344186, "lat": 40.0506373, "lon": 23.348495, "tags": {"amenity": "restaurant", "contact:facebook": "https://www.facebook.com/Elani-Taverna-101862494947872/", "name": "Elani Taverna"}}, {"type": "node", "id": 2500570045, "lat": 39.9902556, "lon": 23.6140767, "tags": {"amenity": "restaurant", "cuisine": "regional", "internet_access": "wlan", "name": "Taverna Odyssea"}}, {"type": "node", "id": 2500578900, "lat": 39.9870716, "lon": 23.6123955, "tags": {"amenity": "restaurant", "cuisine": "regional", "name": "Taverna Makis", "wheelchair": "yes"}}, {"type": "node", "id": 2503829033, "lat": 39.9537148, "lon": 23.6066134, "tags": {"amenity": "restaurant", "cuisine": "regional", "name": "Taverna Arhontiko"}}, {"type": "node", "id": 2505534815, "lat": 40.0177968, "lon": 23.5289567, "tags": {"amenity": "restaurant", "cuisine": "regional", "name": "Taverna Flegra", "opening_hours": "Oct-Mar off; Apr 01-20 off"}}, {"type": "node", "id": 2511461138, "lat": 40.0379444, "lon": 23.3591754, "tags": {"addr:city": "\u03a3\u03af\u03b2\u03b7\u03c1\u03b7", "addr:postcode": "63077", "addr:street": "\u03a0\u03b1\u03c1\u03b1\u03bb\u03b9\u03b1\u03ba\u03cc\u03c2 \u03a0\u03b5\u03b6\u03cc\u03b4\u03c1\u03bf\u03bc\u03bf\u03c2", "amenity": "restaurant", "check_date": "2024-08-09", "email": "info@alkionibythesea.gr", "name": "Alkioni By The Sea - Restaurant & Pizzeria", "phone": "+30 2374022938", "website": "https://www.alkionibythesea.gr/restaurant"}}, {"type": "node", "id": 2513580161, "lat": 40.0001721, "lon": 23.574315, "tags": {"amenity": "restaurant", "cuisine": "italian", "name:en": "Gusto", "wheelchair": "yes"}}, {"type": "node", "id": 2513580173, "lat": 40.0006789, "lon": 23.5752159, "tags": {"amenity": "restaurant", "cuisine": "regional", "name": "Taverna O Kipos"}}, {"type": "node", "id": 2521855146, "lat": 40.0124695, "lon": 23.4469842, "tags": {"amenity": "restaurant"}}, {"type": "node", "id": 2709401375, "lat": 40.0171896, "lon": 23.524923, "tags": {"amenity": "restaurant", "name": "\u03a8\u03b7\u03c4\u03bf\u03c0\u03c9\u03bb\u03b5\u03af\u03bf Doctor of Hunger", "name:el": "\u03a8\u03b7\u03c4\u03bf\u03c0\u03c9\u03bb\u03b5\u03af\u03bf Doctor of Hunger", "name:en": "Steakhouse Doctor of Hunger", "source": "Survey Sep 2014"}}, {"type": "node", "id": 2817744023, "lat": 40.0180908, "lon": 23.5281367, "tags": {"amenity": "restaurant", "name": "Enplo"}}, {"type": "node", "id": 2817744030, "lat": 40.0174868, "lon": 23.5297296, "tags": {"amenity": "restaurant", "cuisine": "greek", "name": "\u03a5\u03c0\u03bf\u03b2\u03c1\u03cd\u03c7\u03b9\u03bf Cafe", "name:el": "\u03a5\u03c0\u03bf\u03b2\u03c1\u03cd\u03c7\u03b9\u03bf Cafe", "name:en": "Submarine Cafe", "source": "Survey Sep 2014"}}, {"type": "node", "id": 2827103293, "lat": 40.0126068, "lon": 23.446931, "tags": {"amenity": "cafe"}}, {"type": "node", "id": 2833164380, "lat": 40.0360458, "lon": 23.4735427, "tags": {"amenity": "cafe", "name": "Cafe Bar OSTRIA"}}, {"type": "node", "id": 2833164381, "lat": 40.0749902, "lon": 23.4486775, "tags": {"amenity": "cafe", "name": "Cafe-Bar BLU"}}, {"type": "node", "id": 2833164383, "lat": 40.0354456, "lon": 23.4738893, "tags": {"amenity": "restaurant", "name": "Grill box"}}, {"type": "node", "id": 2833164386, "lat": 40.0345524, "lon": 23.4742228, "tags": {"amenity": "restaurant", "name": "Taverna Adonis"}}, {"type": "node", "id": 2833164387, "lat": 40.0359215, "lon": 23.4735956, "tags": {"amenity": "restaurant", "name": "Taverna NIKOS"}}, {"type": "node", "id": 2833164388, "lat": 40.0349169, "lon": 23.4738877, "tags": {"amenity": "restaurant", "name": "Taverna \u039a\u03a9\u03a3\u03a4\u0391\u03a3"}}, {"type": "node", "id": 2850024670, "lat": 39.987504, "lon": 23.6159898, "tags": {"amenity": "cafe", "name": "Jimmy's corner", "note": "Exact position is unknown yet"}}, {"type": "node", "id": 2850024674, "lat": 39.988322, "lon": 23.6140196, "tags": {"amenity": "cafe", "name": "\u0395\u03a3\u03a4\u0399\u0391\u03a4\u039f\u03a1\u0399\u039f", "wheelchair": "yes"}}, {"type": "node", "id": 2877280440, "lat": 39.9715174, "lon": 23.6690554, "tags": {"amenity": "restaurant", "cuisine": "greek", "name": "\u03a8\u03b1\u03c1\u03bf\u03c4\u03b1\u03b2\u03b5\u03c1\u03bd\u03b1 \u03a4\u0391 \u03a4\u03a1\u0399\u0391 \u0391\u0394\u0395\u039b\u03a6\u0399\u0391"}}, {"type": "node", "id": 2930641001, "lat": 40.0728012, "lon": 23.338027, "tags": {"amenity": "restaurant", "name": "main restaurant"}}, {"type": "node", "id": 2930661875, "lat": 40.0710887, "lon": 23.3367247, "tags": {"amenity": "restaurant"}}, {"type": "node", "id": 3102035251, "lat": 40.017242, "lon": 23.5251359, "tags": {"amenity": "cafe", "name": "Cafe Cafe"}}, {"type": "node", "id": 3102035257, "lat": 40.0172263, "lon": 23.5304594, "tags": {"amenity": "cafe", "name": "Meat point", "source": "Survey Sep 2014"}}, {"type": "node", "id": 3102035258, "lat": 40.0174823, "lon": 23.5295547, "tags": {"amenity": "restaurant", "cuisine": "seafood", "fax": "+30 6993 394 555", "name": "MourMoura", "phone": "+30 6971 838 235"}}, {"type": "node", "id": 3102035262, "lat": 40.0187723, "lon": 23.5261282, "tags": {"amenity": "restaurant", "description": "Cafe Pizza Restaurant", "name": "Neapolis", "source": "Survey Sep 2014"}}, {"type": "node", "id": 3102035263, "lat": 40.0185508, "lon": 23.5272556, "tags": {"amenity": "restaurant", "description": "Nefeli Garden Restaurant", "name": "Nefeli", "source": "Survey Sep 2014"}}, {"type": "node", "id": 3102035265, "lat": 40.0173462, "lon": 23.5300891, "tags": {"amenity": "cafe", "name": "Miracle", "source": "Survey Sep 2014"}}, {"type": "node", "id": 3102035267, "lat": 40.0167988, "lon": 23.5322915, "tags": {"amenity": "restaurant", "name": "Polyhrono Beach Bar Restaurant", "source": "Survey Sep 2014"}}, {"type": "node", "id": 3102035274, "lat": 40.0184337, "lon": 23.5274714, "tags": {"amenity": "restaurant", "cuisine": "greek", "name": "\u03a8\u03b1\u03c1\u03bf\u03c4\u03b1\u03b2\u03b5\u03c1\u03bd\u03b1 \u0391\u03b3\u03c1\u03b1", "name:el": "\u03a8\u03b1\u03c1\u03bf\u03c4\u03b1\u03b2\u03b5\u03c1\u03bd\u03b1 \u0391\u03b3\u03c1\u03b1", "name:en": "Tavern Agra", "opening_hours": "Jan-Dec"}}, {"type": "node", "id": 3102035311, "lat": 40.017682, "lon": 23.5290568, "tags": {"amenity": "cafe", "name": "\u03af\u03c3\u03b1\u03bb\u03bf\u03c2", "name:el": "\u03af\u03c3\u03b1\u03bb\u03bf\u03c2", "name:en": "Waterline", "source": "Survey Sep 2014"}}, {"type": "node", "id": 3105343246, "lat": 40.0416006, "lon": 23.4826228}, {"type": "node", "id": 3105343247, "lat": 40.0416161, "lon": 23.4825665}, {"type": "node", "id": 3105343248, "lat": 40.0416302, "lon": 23.4826685}, {"type": "node", "id": 3105343249, "lat": 40.0416612, "lon": 23.4825559}, {"type": "node", "id": 3105343250, "lat": 40.0416752, "lon": 23.4826579}, {"type": "node", "id": 3105343252, "lat": 40.0416907, "lon": 23.4826016}, {"type": "node", "id": 3109372285, "lat": 40.0350491, "lon": 23.4737178, "tags": {"amenity": "restaurant", "description": "Cafe Pizza Grill Restaurant", "name": "Akropolis"}}, {"type": "node", "id": 3109372286, "lat": 40.0332834, "lon": 23.4766057, "tags": {"amenity": "restaurant", "internet_access": "wlan", "name": "Taverna Trizoni"}}, {"type": "node", "id": 3109400657, "lat": 40.0746617, "lon": 23.4475734, "tags": {"amenity": "cafe", "name": "\u0394\u03c9\u03b4\u03ce\u03bd\u03b7", "name:el": "\u0394\u03c9\u03b4\u03ce\u03bd\u03b7", "name:en": "Dodoni"}}, {"type": "node", "id": 3323984469, "lat": 40.0336787, "lon": 23.4763551, "tags": {"amenity": "cafe", "internet_access": "yes", "name": "Click"}}, {"type": "node", "id": 3323984472, "lat": 40.034243, "lon": 23.4751324, "tags": {"amenity": "cafe", "name": "\u0391\u03c1\u03c4\u03bf\u03c0\u03b7\u03b3\u03ae"}}, {"type": "node", "id": 3324059033, "lat": 40.0741842, "lon": 23.4472298, "tags": {"amenity": "restaurant", "name": "Perfetto grill"}}, {"type": "node", "id": 3324059038, "lat": 40.0740286, "lon": 23.4469728, "tags": {"amenity": "cafe", "name": "\u039c\u03c0\u03bf\u03c5\u03b3\u03ac\u03c4\u03c3\u03b1"}}, {"type": "node", "id": 3324059046, "lat": 40.0739714, "lon": 23.4468423, "tags": {"amenity": "cafe", "name": "To meraki"}}, {"type": "node", "id": 3670547937, "lat": 39.9631143, "lon": 23.379004, "tags": {"amenity": "restaurant", "name": "\u03a7\u03c1\u03b9\u03c3\u03c4\u03cc\u03c6\u03bf\u03c1\u03bf\u03c2", "name:el": "\u03a7\u03c1\u03b9\u03c3\u03c4\u03cc\u03c6\u03bf\u03c1\u03bf\u03c2", "name:en": "Christopher"}}, {"type": "node", "id": 3670561874, "lat": 39.965407, "lon": 23.3851, "tags": {"amenity": "restaurant", "cuisine": "fish,_greek", "name": "Poseidon"}}, {"type": "node", "id": 3671937842, "lat": 40.0336241, "lon": 23.4766318, "tags": {"amenity": "restaurant", "name": "Taverna Galanos"}}, {"type": "node", "id": 3674500325, "lat": 40.0348015, "lon": 23.4744355, "tags": {"addr:city": "\u039a\u03c1\u03c5\u03bf\u03c0\u03b7\u03b3\u03ae", "amenity": "restaurant", "cuisine": "greek", "facebook": "https://www.facebook.com/pages/Bistro-Kriopigi/630466327030988", "name": "Bistro Kriopigi", "phone": "+30 2374 053332"}}, {"type": "node", "id": 3700347430, "lat": 40.0349658, "lon": 23.4734864, "tags": {"amenity": "restaurant", "name": "Balatsos"}}, {"type": "node", "id": 3751410552, "lat": 40.0374266, "lon": 23.4730132, "tags": {"amenity": "cafe", "cuisine": "cake;coffee_shop;crepe;ice_cream;sandwich", "name": "\u03a0\u03b1\u03c1\u03c6\u03b5", "name:el": "\u03a0\u03b1\u03c1\u03c6\u03b5", "name:en": "Parfait"}}, {"type": "node", "id": 3754335797, "lat": 40.0500159, "lon": 23.4715615, "tags": {"addr:city": "Kriopigi", "addr:postcode": "63075", "addr:street": "\u039d\u03ad\u03b1\u03c2 \u03a0\u03bf\u03c4\u03af\u03b4\u03b1\u03b9\u03b1\u03c2 - \u03a0\u03b5\u03c5\u03ba\u03bf\u03c7\u03c9\u03c1\u03af\u03bf\u03c5", "amenity": "restaurant", "bar": "yes", "cuisine": "greek;grill;seafood;mediterranean", "delivery": "yes", "description": "A BEACH PARADISE   with amazing Greek Food Spend an amazing summer day on our little beach paradise.  \u200b Swim in crystal clear water and sip on your summer cocktail at our wooden beach beds. Summer chilled vibes at their best.   Let our beach service staff", "diet:healthy": "yes", "diet:lactose_free": "yes", "diet:meat": "yes", "diet:mediterranean": "yes", "diet:organic": "yes", "diet:vegetarian": "yes", "email": "agorahalkidiki@gmail.com", "internet_access": "wlan", "microbrewery": "yes", "name": "Agora Beach - Greek kouzina & Beach bar", "opening_hours": "Mo-Su 09:00-23:00", "outdoor_seating": "yes", "phone": "+306986988651", "ref:vatin": "EL800669477", "reservation": "yes", "takeaway": "yes", "website": "https://www.agorabeach.gr/"}}, {"type": "node", "id": 4234068730, "lat": 39.9352548, "lon": 23.5547294, "tags": {"amenity": "cafe", "name": "Aelia Beach Bar"}}, {"type": "node", "id": 4280184490, "lat": 40.0138339, "lon": 23.3745945}, {"type": "node", "id": 4280184491, "lat": 40.013855, "lon": 23.3747301}, {"type": "node", "id": 4280184492, "lat": 40.013977, "lon": 23.3746977}, {"type": "node", "id": 4280184493, "lat": 40.0139826, "lon": 23.3747342}, {"type": "node", "id": 4280184494, "lat": 40.014114, "lon": 23.3746993}, {"type": "node", "id": 4280184495, "lat": 40.0141001, "lon": 23.3746099}, {"type": "node", "id": 4280184496, "lat": 40.0141831, "lon": 23.3745878}, {"type": "node", "id": 4280184497, "lat": 40.0141716, "lon": 23.3745136}, {"type": "node", "id": 4280184498, "lat": 40.0141573, "lon": 23.3745173}, {"type": "node", "id": 4280184499, "lat": 40.0141535, "lon": 23.3744927}, {"type": "node", "id": 4280184500, "lat": 40.0140858, "lon": 23.3745106}, {"type": "node", "id": 4280184501, "lat": 40.0140827, "lon": 23.3744911}, {"type": "node", "id": 4280184502, "lat": 40.0139509, "lon": 23.374526}, {"type": "node", "id": 4280184503, "lat": 40.0139565, "lon": 23.374562}, {"type": "node", "id": 4310530930, "lat": 39.986985, "lon": 23.6124188, "tags": {"amenity": "restaurant", "name": "Paul\u00b4s Place"}}, {"type": "node", "id": 4364181089, "lat": 40.0440009, "lon": 23.8139013, "tags": {"amenity": "restaurant", "cuisine": "greek;balkan", "internet_access": "wlan", "name:en": "Taverna Tonis"}}, {"type": "node", "id": 4364908095, "lat": 40.0357973, "lon": 23.3598348, "tags": {"amenity": "restaurant", "name": "\u03a0\u03b5\u03b6\u03cc\u03b4\u03c1\u03bf\u03bc\u03bf\u03c2 \u03a3\u03af\u03b2\u03b7\u03c1\u03b7"}}, {"type": "node", "id": 4366660989, "lat": 39.9880652, "lon": 23.62327, "tags": {"amenity": "restaurant", "name": "asterias"}}, {"type": "node", "id": 4388861647, "lat": 39.9420611, "lon": 23.6624144, "tags": {"amenity": "restaurant", "name": "\u039f \u039b\u03b5\u03bc\u03bf\u03bd\u03ae\u03c2", "outdoor_seating": "yes"}}, {"type": "node", "id": 4390144291, "lat": 39.9990981, "lon": 23.5793714, "tags": {"amenity": "restaurant", "cuisine": "greek", "internet_access": "wlan", "name:en": "Nick's", "opening_hours": "Mo-Su 09:30-01:00"}}, {"type": "node", "id": 4390169491, "lat": 39.9992208, "lon": 23.5778479, "tags": {"amenity": "restaurant", "cuisine": "greek", "name:en": "Angelo's"}}, {"type": "node", "id": 4395763323, "lat": 39.9415344, "lon": 23.662556, "tags": {"amenity": "restaurant"}}, {"type": "node", "id": 4395763324, "lat": 39.9416974, "lon": 23.6626321, "tags": {"amenity": "restaurant", "name": "Taverna Giannikos", "name:el": "\u03a4\u03b1\u03b2\u03ad\u03c1\u03bd\u03b1 \u0393\u03b9\u03b1\u03bd\u03bd\u03af\u03ba\u03bf\u03c2"}}, {"type": "node", "id": 4395763325, "lat": 39.9416858, "lon": 23.6624503, "tags": {"amenity": "restaurant"}}, {"type": "node", "id": 4395763327, "lat": 39.9417591, "lon": 23.6628756, "tags": {"amenity": "restaurant"}}, {"type": "node", "id": 4396459599, "lat": 39.9963382, "lon": 23.3820224, "tags": {"amenity": "restaurant", "name": "Anassa"}}, {"type": "node", "id": 4396671190, "lat": 39.945793, "lon": 23.530672, "tags": {"addr:street": "Nea Skioni 630 85, \u0413\u0440\u0435\u0446\u0438\u044f", "amenity": "restaurant", "cuisine": "fish;greek", "name:en": "Angirovolis"}}, {"type": "node", "id": 4397917994, "lat": 39.9890508, "lon": 23.6183439, "tags": {"amenity": "restaurant", "cuisine": "greek;seafood;fish", "name:en": "Paralio"}}, {"type": "node", "id": 4443324735, "lat": 39.9277989, "lon": 23.5851225, "tags": {"amenity": "restaurant", "check_date": "2023-07-11", "name": "Remezzo Pizza & Grill", "payment:mastercard": "yes", "payment:visa": "yes", "source": "Survey Sep 2016", "wheelchair": "yes"}}, {"type": "node", "id": 4443324739, "lat": 39.928126, "lon": 23.5856053, "tags": {"amenity": "restaurant", "name": "\u0395\u03c3\u03c4\u03b9\u03b1\u03c4\u03cc\u03c1\u03b9\u03bf \u039a\u03b1\u03c0\u03b5\u03c4\u03ac\u03bd\u03b9\u03bf\u03c2", "source": "Survey Sep 2016"}}, {"type": "node", "id": 4443324740, "lat": 39.927875, "lon": 23.585887, "tags": {"amenity": "restaurant", "check_date": "2023-07-09", "name": "Tavern \u0392\u03cc\u03c4\u03c3\u03b1\u03bb\u03bf", "name:el": "Tavern \u0392\u03cc\u03c4\u03c3\u03b1\u03bb\u03bf", "name:en": "Taverna Votsalo", "name:ru": "\u0422\u0430\u0432\u0435\u0440\u043d\u0430 \u0412\u043e\u0442\u0441\u0430\u043b\u043e (\u0413\u0430\u043b\u044c\u043a\u0430)", "payment:mastercard": "yes", "payment:visa": "yes", "source": "Survey Sep 2016", "wheelchair": "no"}}, {"type": "node", "id": 4446326378, "lat": 40.0038435, "lon": 23.4143085, "tags": {"amenity": "cafe"}}, {"type": "node", "id": 4463753207, "lat": 40.0155562, "lon": 23.5275918, "tags": {"amenity": "restaurant", "cuisine": "greek", "name": "Taste of Greece"}}, {"type": "node", "id": 4463755622, "lat": 40.0158228, "lon": 23.528831, "tags": {"amenity": "restaurant", "name": "El Gato Negro"}}, {"type": "node", "id": 4465018355, "lat": 40.030248, "lon": 23.5002145, "tags": {"amenity": "cafe"}}, {"type": "node", "id": 4472636393, "lat": 39.999591, "lon": 23.574166, "tags": {"amenity": "restaurant", "cuisine": "fish;seafood;mediterranean", "name": "\u0424\u0430\u0440\u043e\u0441", "name:el": "\u0424\u0430\u0440\u043e\u0441"}}, {"type": "node", "id": 4472636394, "lat": 39.9997989, "lon": 23.5726292, "tags": {"amenity": "cafe", "cuisine": "bagel;donut;coffee_shop", "name": "Dramis Cafe Patisserie", "name:el": "Dramis Cafe Patisserie"}}, {"type": "node", "id": 4472636395, "lat": 40.0016303, "lon": 23.574444, "tags": {"amenity": "restaurant", "cuisine": "fish;mediterranean", "internet_access": "wlan", "name": "To Ellinikon", "name:el": "To Ellinikon", "name:ru": "\u042d\u043b\u043b\u0438\u043d\u0438\u043a\u043e\u043d"}}, {"type": "node", "id": 4846554021, "lat": 40.0017958, "lon": 23.5740925, "tags": {"amenity": "restaurant", "cuisine": "greek;italian;fish;fish_and_chips;pasta;local", "internet_access": "wlan", "name:en": "Colibri\u00a0greek\u00a0taverna"}}, {"type": "node", "id": 4931222325, "lat": 40.0342433, "lon": 23.4730656, "tags": {"amenity": "restaurant", "name": "Anthoula"}}, {"type": "node", "id": 4989205921, "lat": 39.9995606, "lon": 23.5739105, "tags": {"amenity": "cafe", "internet_access": "wlan", "name:ru": "\u041a\u0430\u0441\u0441\u0430\u043d\u0434\u0440\u0430"}}, {"type": "node", "id": 4994685122, "lat": 39.9994108, "lon": 23.5738911, "tags": {"amenity": "cafe", "cuisine": "greek", "internet_access": "wlan", "name:en": "pallini"}}, {"type": "node", "id": 5079622726, "lat": 39.9635424, "lon": 23.3828044, "tags": {"amenity": "cafe", "name": "\u039c\u03c0\u03bf\u03c5\u03b3\u03ac\u03c4\u03c3\u03b1", "name:el": "\u039c\u03c0\u03bf\u03c5\u03b3\u03ac\u03c4\u03c3\u03b1", "name:en": "Pie"}}, {"type": "node", "id": 5079622730, "lat": 39.9632352, "lon": 23.3825846, "tags": {"amenity": "restaurant", "name": "\u03a4\u03bf \u03c3\u03c4\u03ad\u03ba\u03b9 \u03c4\u03bf\u03c5 \u0392\u03b1\u03c3\u03af\u03bb\u03b1", "name:el": "\u0392\u03b1\u03c3\u03af\u03bb\u03b1\u03c2", "name:en": "Vasilas"}}, {"type": "node", "id": 5079649321, "lat": 39.9632969, "lon": 23.3816267, "tags": {"amenity": "restaurant", "check_date": "2024-08-24", "contact:phone": "+30 2374 041911", "cuisine": "fish", "internet_access": "wlan", "internet_access:fee": "customers", "name": "\u03a3\u03c4\u03b1\u03bc\u03ac\u03c4\u03b7\u03c2", "name:el": "\u03a3\u03c4\u03b1\u03bc\u03ac\u03c4\u03b7\u03c2", "name:en": "Stamatis", "opening_hours": "12:30-23:00", "payment:mastercard": "yes", "payment:visa": "yes", "wheelchair": "yes"}}, {"type": "node", "id": 5115692129, "lat": 40.0696565, "lon": 23.4539096, "tags": {"amenity": "restaurant", "cuisine": "greek;seafood;pizza", "internet_access": "wlan", "name:en": "Dias Taverna", "name:ru": "\u0414\u0438\u0430\u0441", "name:uk": "\u0414\u0456\u0430\u0441 \u0442\u0430\u0432\u0435\u0440\u043d\u0430"}}, {"type": "node", "id": 5660487221, "lat": 39.9467125, "lon": 23.5293707, "tags": {"addr:street": "Nea Skioni", "amenity": "restaurant", "cuisine": "greek;georgian", "internet_access": "wlan", "name:en": "SOFIA U SOFII", "name:ru": "\u0423 \u0421\u043e\u0444\u0438\u0438", "operator": "\u0421\u043e\u0444\u0438\u044f"}}, {"type": "node", "id": 5679572621, "lat": 40.0000431, "lon": 23.5734634, "tags": {"amenity": "restaurant", "cuisine": "pizza;grill", "name:en": "Gour Meat"}}, {"type": "node", "id": 5681972123, "lat": 40.000891, "lon": 23.5754591, "tags": {"amenity": "restaurant", "cuisine": "fish;grill;seafood;georgian;coffee_shop;local;steak_house;greek;pasta;buschenschank;russian;fish_and_chips", "internet_access": "wlan", "name:en": "Stork restaurant", "name:ru": "\u0421\u0442\u043e\u0440\u043a"}}, {"type": "node", "id": 5681972124, "lat": 40.0005807, "lon": 23.5739403, "tags": {"amenity": "cafe", "cuisine": "greek;breakfast;grill;kebab;local", "internet_access": "wlan", "name:en": "Garry's The king of gyros"}}, {"type": "node", "id": 5752201228, "lat": 40.0531898, "lon": 23.8201692, "tags": {"amenity": "cafe", "name:en": "Meliton"}}, {"type": "node", "id": 5775290659, "lat": 39.9980041, "lon": 23.5793486, "tags": {"addr:postcode": "63085", "amenity": "restaurant", "cuisine": "barbecue;pancake;grill;coffee_shop;seafood;russian;fish_and_chips;fish;mediterranean;greek", "diet:vegetarian": "yes", "internet_access": "wlan", "name": "RESTAURANT \"GIA MAS\"", "name:el": "\u0393\u03b5\u03b9\u03b1 \u03bc\u03b1\u03c2", "name:en": "RESTAURANT \"GIA MAS\"", "opening_hours": "Mo-Su 10:00-01:00", "operator": "\u0410\u043b\u0435\u043a\u0441\u0435\u0439", "phone": "+306947047219"}}, {"type": "node", "id": 5839042385, "lat": 39.942073, "lon": 23.6693843, "tags": {"amenity": "cafe", "internet_access": "wlan", "name:en": "Kalosorisma", "opening_hours": "Mo-Su 10:00-23:00"}}, {"type": "node", "id": 5857168085, "lat": 39.9992443, "lon": 23.5745964, "tags": {"amenity": "restaurant", "cuisine": "greek", "internet_access": "wlan", "name:en": "Elia", "name:ru": "\u042d\u043b\u0438\u044f"}}, {"type": "node", "id": 5966218910, "lat": 39.9922061, "lon": 23.606821, "tags": {"amenity": "restaurant", "name": "GIALOS restaurant"}}, {"type": "node", "id": 5966303765, "lat": 39.9905738, "lon": 23.6118721, "tags": {"amenity": "restaurant", "name": "\u039a\u03bb\u03b7\u03bc\u03b1\u03c4\u03b1\u03c1\u03b9\u03ac"}}, {"type": "node", "id": 5966311947, "lat": 39.9898804, "lon": 23.6149464, "tags": {"amenity": "restaurant", "name": "\u03a0\u03b1\u03c1\u03b1 \u0398\u03b9\u03bd '\u0391\u03bb\u03bf\u03c2 (Para Thin Alos)"}}, {"type": "node", "id": 5966451096, "lat": 39.9444384, "lon": 23.6644218, "tags": {"amenity": "restaurant", "name": "Kordelas Restaurant", "name:el": "\u03a8\u03b1\u03c1\u03bf\u03c4\u03b1\u03b2\u03ad\u03c1\u03bd\u03b1 \u039a\u03bf\u03c1\u03b4\u03ad\u03bb\u03b1\u03c2"}}, {"type": "node", "id": 6568419616, "lat": 39.988171, "lon": 23.6142817, "tags": {"amenity": "cafe", "name": "Cafe Breakfast"}}, {"type": "node", "id": 6581438086, "lat": 39.9983426, "lon": 23.3826803, "tags": {"addr:postcode": "630 77", "amenity": "restaurant", "cuisine": "mediterranean;fish", "name": "\u03a4\u03ac\u03ba\u03b7\u03c2", "name:el": "\u03a4\u03ac\u03ba\u03b7\u03c2", "name:en": "Fish Tavern Takis"}}, {"type": "node", "id": 6651182612, "lat": 39.971, "lon": 23.4562, "tags": {"amenity": "restaurant", "name": "Ta Mam"}}, {"type": "node", "id": 6657225838, "lat": 39.9708, "lon": 23.4523, "tags": {"amenity": "restaurant", "name": "Villa Maria"}}, {"type": "node", "id": 6658423309, "lat": 39.9711, "lon": 23.4549, "tags": {"amenity": "restaurant", "name": "Taverna Mosxo... nostimies"}}, {"type": "node", "id": 6846169698, "lat": 40.0318334, "lon": 23.497021, "tags": {"amenity": "restaurant", "diet:vegan": "no", "name": "Ammos Tavern", "organic": "no"}}, {"type": "node", "id": 9050736358, "lat": 39.9977052, "lon": 23.3838784, "tags": {"amenity": "cafe", "cuisine": "crepe;ice_cream", "name": "\u039b\u03b9\u03c7\u03bf\u03c5\u03b4\u03af\u03c4\u03c3\u03b5\u03c2", "name:el": "\u039b\u03b9\u03c7\u03bf\u03c5\u03b4\u03af\u03c4\u03c3\u03b5\u03c2", "name:en": "Lihouditses"}}, {"type": "node", "id": 9050736359, "lat": 39.9980282, "lon": 23.3849647, "tags": {"amenity": "cafe", "cuisine": "ice_cream;waffle;coffee", "name": "Bombolo"}}, {"type": "node", "id": 9087383851, "lat": 39.9969889, "lon": 23.3843128}, {"type": "node", "id": 9087383852, "lat": 39.9968344, "lon": 23.3842679}, {"type": "node", "id": 9087383853, "lat": 39.9968551, "lon": 23.3841462}, {"type": "node", "id": 9087383854, "lat": 39.9970096, "lon": 23.384191}, {"type": "node", "id": 9087383864, "lat": 39.9984058, "lon": 23.3837854}, {"type": "node", "id": 9087383865, "lat": 39.9982943, "lon": 23.3838193}, {"type": "node", "id": 9087383866, "lat": 39.998316, "lon": 23.3840211}, {"type": "node", "id": 9087383867, "lat": 39.9984384, "lon": 23.3840031}, {"type": "node", "id": 9087383868, "lat": 39.9987394, "lon": 23.3831814}, {"type": "node", "id": 9087383869, "lat": 39.9985851, "lon": 23.3833641}, {"type": "node", "id": 9087383870, "lat": 39.9985237, "lon": 23.3833641}, {"type": "node", "id": 9087383871, "lat": 39.9984902, "lon": 23.3832164}, {"type": "node", "id": 9087383872, "lat": 39.9985851, "lon": 23.3830913}, {"type": "node", "id": 9094178692, "lat": 40.037753, "lon": 23.3592771, "tags": {"addr:city": "\u03a3\u03af\u03b2\u03b7\u03c1\u03b7", "addr:postcode": "63077", "addr:street": "\u03a0\u03b1\u03c1\u03b1\u03bb\u03b9\u03b1\u03ba\u03cc\u03c2 \u03a0\u03b5\u03b6\u03cc\u03b4\u03c1\u03bf\u03bc\u03bf\u03c2", "amenity": "restaurant", "email": "jimammos@hotmail.com", "fax": "+30 23740 27033", "level": "0", "name": "Peinammos", "outdoor_seating": "yes", "phone": "+30 23740 23933", "website": "https://www.zefyroshotel.gr/facilities-2/ammos-peinammos/", "wheelchair": "yes"}}, {"type": "node", "id": 9105056108, "lat": 40.0009817, "lon": 23.3837234}, {"type": "node", "id": 9105056109, "lat": 40.0009391, "lon": 23.3837555}, {"type": "node", "id": 9105056110, "lat": 40.0009703, "lon": 23.383821}, {"type": "node", "id": 9105056111, "lat": 40.0010123, "lon": 23.3837927}, {"type": "node", "id": 9237821355, "lat": 40.0520217, "lon": 23.4690424, "tags": {"addr:city": "Kriopigi", "addr:street": "Alexander the Great Beach", "amenity": "restaurant", "cuisine": "greek;mediterranean", "diet:meat": "yes", "diet:seasonal": "yes", "diet:vegetarian": "yes", "name": "Antonis Greek Tavern", "opening_hours": "Mo-Su 11:00-23:00", "phone": "+302374020210", "website": "https://alexanderthegreat.reserve-online.net"}}, {"type": "node", "id": 9828965734, "lat": 39.9528698, "lon": 23.6078696, "tags": {"amenity": "restaurant"}}, {"type": "node", "id": 10868848459, "lat": 39.9929832, "lon": 23.5976759, "tags": {"addr:city": "\u0394\u03b7\u03bc\u03bf\u03c4\u03b9\u03ba\u03ae \u0395\u03bd\u03cc\u03c4\u03b7\u03c4\u03b1 \u03a0\u03b1\u03bb\u03bb\u03ae\u03bd\u03b7\u03c2", "addr:postcode": "630 85", "addr:street": "\u039d\u03ad\u03b1\u03c2 \u03a0\u03bf\u03c4\u03af\u03b4\u03b1\u03b9\u03b1\u03c2 - \u03a0\u03b5\u03c5\u03ba\u03bf\u03c7\u03c9\u03c1\u03af\u03bf\u03c5", "amenity": "restaurant", "contact:facebook": "https://www.facebook.com/profile.php?id=100092377816997", "cuisine": "mediterranean", "name": "Girea Elia", "phone": "+30 697 4521299"}}, {"type": "node", "id": 10923649270, "lat": 39.9334378, "lon": 23.6885491}, {"type": "node", "id": 10923649271, "lat": 39.9333704, "lon": 23.6885479}, {"type": "node", "id": 10923649272, "lat": 39.933371, "lon": 23.6884969}, {"type": "node", "id": 10923649273, "lat": 39.9334384, "lon": 23.6884982}, {"type": "node", "id": 11037800094, "lat": 39.9634433, "lon": 23.3810526, "tags": {"amenity": "restaurant", "check_date": "2024-08-24", "name": "Sofis"}}, {"type": "node", "id": 11038734110, "lat": 39.9280472, "lon": 23.5850187, "tags": {"amenity": "restaurant", "check_date": "2023-07-11", "name": "Opa Greek Cuisine", "payment:mastercard": "yes", "payment:visa": "yes", "wheelchair": "yes"}}, {"type": "node", "id": 11042049729, "lat": 40.0155035, "lon": 23.5302963, "tags": {"amenity": "cafe", "check_date": "2023-07-12", "contact:phone": "+30 2374 052427", "internet_access": "wlan", "internet_access:fee": "customers", "name": "The Coffee Box", "opening_hours": "07:00-23:00", "outdoor_seating": "yes", "payment:jcb": "yes", "payment:mastercard": "yes", "payment:mastercard_contactless": "yes", "payment:visa": "yes", "wheelchair": "limited"}}, {"type": "node", "id": 11064528857, "lat": 40.0161033, "lon": 23.526669, "tags": {"amenity": "restaurant", "name": "Canteen kebab"}}, {"type": "node", "id": 11064573872, "lat": 40.0158014, "lon": 23.5269754, "tags": {"amenity": "cafe", "name": "CoffeeTime"}}, {"type": "node", "id": 11064574644, "lat": 40.0169828, "lon": 23.5254109, "tags": {"amenity": "restaurant", "name": "Polichrono"}}, {"type": "node", "id": 11069977068, "lat": 40.0185357, "lon": 23.5272822, "tags": {"amenity": "restaurant", "name": "Nefeli"}}, {"type": "node", "id": 11069977544, "lat": 40.0168263, "lon": 23.5305208, "tags": {"amenity": "cafe", "name": "Lomps Volms"}}, {"type": "node", "id": 11069996195, "lat": 40.0188558, "lon": 23.5261265, "tags": {"amenity": "restaurant", "name": "Amfora"}}, {"type": "node", "id": 11071455390, "lat": 39.9730974, "lon": 23.6756888, "tags": {"amenity": "restaurant", "name": "Lago"}}, {"type": "node", "id": 11071487056, "lat": 39.9526856, "lon": 23.6748448, "tags": {"amenity": "restaurant", "name": "Happy Grill Haus"}}, {"type": "node", "id": 11118854193, "lat": 39.9993816, "lon": 23.3853876}, {"type": "node", "id": 11118854194, "lat": 39.9994463, "lon": 23.3853844}, {"type": "node", "id": 11118854195, "lat": 39.9992868, "lon": 23.3853922}, {"type": "node", "id": 11118854196, "lat": 39.9992869, "lon": 23.3855647}, {"type": "node", "id": 11118854197, "lat": 39.9994447, "lon": 23.3855496}, {"type": "node", "id": 11149418072, "lat": 39.9640377, "lon": 23.3836628}, {"type": "node", "id": 11149418073, "lat": 39.9640865, "lon": 23.3837994}, {"type": "node", "id": 11149418074, "lat": 39.9640001, "lon": 23.383852}, {"type": "node", "id": 11149418075, "lat": 39.9639512, "lon": 23.3837154}, {"type": "node", "id": 11940185269, "lat": 39.9578413, "lon": 23.6793762, "tags": {"amenity": "cafe", "name": "\u039a\u03bf\u03c5\u03c1\u03c3\u03ac\u03c1\u03bf\u03c2", "name:el": "\u039a\u03bf\u03c5\u03c1\u03c3\u03ac\u03c1\u03bf\u03c2", "name:en": "Koursaros Beach Bar"}}, {"type": "node", "id": 12099575011, "lat": 40.036301, "lon": 23.3616311, "tags": {"amenity": "restaurant", "cuisine": "greek"}}, {"type": "node", "id": 12099586801, "lat": 40.0382104, "lon": 23.3590197, "tags": {"amenity": "restaurant", "name": "Siviris Restaurant"}}, {"type": "node", "id": 12100136518, "lat": 40.0388454, "lon": 23.3598425, "tags": {"amenity": "cafe", "name": "\u039b\u03b1\u03c4\u03af\u03bd\u03bf", "wheelchair": "no"}}, {"type": "node", "id": 12100609637, "lat": 40.0353935, "lon": 23.3600574, "tags": {"amenity": "restaurant", "cuisine": "greek", "name": "\u03a8\u03b1\u03c1\u03bf\u03c4\u03b1\u03b2\u03ad\u03c1\u03bd\u03b1 \u03a3\u03c4\u03bf \u039a\u03cd\u03bc\u03b1", "wheelchair": "limited"}}, {"type": "node", "id": 12100610725, "lat": 40.0359443, "lon": 23.3597813, "tags": {"amenity": "restaurant", "cuisine": "greek", "name": "\u03a8\u03b1\u03c1\u03bf\u03c4\u03b1\u03b2\u03ad\u03c1\u03bd\u03b1 \u0394\u03b9\u03b1\u03bc\u03ac\u03bd\u03c4\u03b9\u03c3", "wheelchair": "yes"}}, {"type": "node", "id": 12100645360, "lat": 40.0366923, "lon": 23.3596931, "tags": {"amenity": "restaurant", "cuisine": "greek", "name": "Tristan", "wheelchair": "limited"}}, {"type": "node", "id": 12107724874, "lat": 40.0501819, "lon": 23.4138868, "tags": {"amenity": "restaurant"}}, {"type": "node", "id": 12107735938, "lat": 40.0503963, "lon": 23.4139688, "tags": {"amenity": "cafe"}}, {"type": "node", "id": 12107751327, "lat": 40.0496484, "lon": 23.4139403, "tags": {"amenity": "cafe"}}, {"type": "node", "id": 12107782691, "lat": 40.0512395, "lon": 23.4129043, "tags": {"amenity": "cafe"}}, {"type": "node", "id": 12107793509, "lat": 40.0510759, "lon": 23.4120111, "tags": {"amenity": "cafe"}}, {"type": "node", "id": 12131003706, "lat": 39.9984402, "lon": 23.3828685, "tags": {"amenity": "cafe", "name": "Enigma", "outdoor_seating": "yes"}}, {"type": "node", "id": 12132360101, "lat": 40.0034205, "lon": 23.3826503, "tags": {"amenity": "cafe", "name": "\u03b3\u03c1\u03b1\u03bd\u03af\u03c4\u03b1 \u03c3\u03bf\u03ba\u03bf\u03bb\u03ac\u03c4\u03b1", "outdoor_seating": "no"}}, {"type": "node", "id": 12133872401, "lat": 39.9969648, "lon": 23.3892965, "tags": {"amenity": "restaurant", "cuisine": "fish", "name": "Fish market & Grill KLADAS", "outdoor_seating": "yes"}}, {"type": "node", "id": 12133872501, "lat": 39.998684, "lon": 23.3833677, "tags": {"amenity": "restaurant", "cuisine": "greek", "name": "\u039f \u0393\u03cd\u03c1\u03bf\u03c2 \u03a4\u03b7\u03c2 \u039c\u03b1\u03af\u03c1\u03b7\u03c2", "outdoor_seating": "yes"}}, {"type": "node", "id": 12238895289, "lat": 39.9983574, "lon": 23.384066, "tags": {"amenity": "restaurant", "name": "Sifis Taverna", "phone": "+302374044256", "website:menu": "https://dmpmenu.gr/sifis-menu"}}, {"type": "node", "id": 12828140869, "lat": 39.9632143, "lon": 23.3808826, "tags": {"addr:city": "\u0394\u03b7\u03bc\u03bf\u03c4\u03b9\u03ba\u03ae \u0395\u03bd\u03cc\u03c4\u03b7\u03c4\u03b1 \u039a\u03b1\u03c3\u03c3\u03ac\u03bd\u03b4\u03c1\u03b1\u03c2", "addr:postcode": "63077", "amenity": "restaurant", "contact:tripadvisor": "https://www.tripadvisor.com/Restaurant_Review-g667130-d7032436", "name": "Sidera"}}, {"type": "node", "id": 12847698555, "lat": 39.9780581, "lon": 23.4005706, "tags": {"addr:city": "\u039a\u03b1\u03bb\u03ac\u03bd\u03b4\u03c1\u03b1", "addr:postcode": "63077", "amenity": "restaurant", "check_date": "2025-05-14", "contact:tripadvisor": "https://www.tripadvisor.com/Restaurant_Review-g663145-d33096635-Reviews", "cuisine": "greek", "name": "The Black Sheep Kitchen", "name:en": "The Black Sheep Kitchen", "outdoor_seating": "yes", "payment:cards": "yes", "payment:cash": "yes", "payment:contactless": "yes", "phone": "+30 2374 041759"}}, {"type": "node", "id": 12847698556, "lat": 39.9778371, "lon": 23.4005252, "tags": {"addr:city": "\u039a\u03b1\u03bb\u03ac\u03bd\u03b4\u03c1\u03b1", "addr:postcode": "63077", "amenity": "restaurant", "check_date": "2025-05-14", "contact:tripadvisor": "https://www.tripadvisor.com/Restaurant_Review-g189468-d12865666-Reviews", "cuisine": "greek", "name": "O Kraniotis Tavern", "name:en": "O Kraniotis Tavern", "phone": "+30 2374 043660", "start_date": "2005"}}, {"type": "node", "id": 12912323342, "lat": 40.0751752, "lon": 23.447826, "tags": {"amenity": "cafe", "check_date": "2025-06-13", "name": "Fregio"}}, {"type": "way", "id": 305847648, "nodes": [3105343252, 3105343250, 3105343248, 3105343246, 3105343247, 3105343249, 3105343252], "tags": {"amenity": "cafe", "name": "Akt\u00e9on Seaside Bar", "outdoor_seating": "yes"}}, {"type": "way", "id": 428902671, "nodes": [4280184490, 4280184491, 4280184492, 4280184493, 4280184494, 4280184495, 4280184496, 4280184497, 4280184498, 4280184499, 4280184500, 4280184501, 4280184502, 4280184503, 4280184490], "tags": {"addr:city": "\u03a6\u03bf\u03cd\u03c1\u03ba\u03b1", "addr:postcode": "63077", "amenity": "cafe", "building": "yes", "delivery": "no", "internet_access": "wlan", "opening_hours": "10:00-01:00", "phone": "+30 2374 04 32 53", "smoking": "outside", "takeaway": "no"}}, {"type": "way", "id": 982712081, "nodes": [9087383854, 9087383851, 9087383852, 9087383853, 9087383854], "tags": {"amenity": "cafe", "building": "yes", "cuisine": "ice_cream;crepe", "name": "\u03a4\u03cc\u03bd\u03c5", "name:el": "\u03a4\u03cc\u03bd\u03c5", "name:en": "Tony's", "phone": "+30 2374 042029"}}, {"type": "way", "id": 982712084, "nodes": [9087383864, 9087383865, 9087383866, 9087383867, 9087383864], "tags": {"amenity": "restaurant", "building": "yes", "cuisine": "pizza", "name": "Il fuoco"}}, {"type": "way", "id": 982712085, "nodes": [9087383868, 9087383869, 9087383870, 9087383871, 9087383872, 9087383868], "tags": {"amenity": "restaurant", "building": "yes", "cuisine": "pizza", "name": "La Plaza"}}, {"type": "way", "id": 984841521, "nodes": [9105056108, 9105056109, 9105056110, 9105056111, 9105056108], "tags": {"amenity": "cafe", "building": "yes", "cuisine": "waffles;crepes", "name": "The Globe Creperie", "outdoor_seating": "no"}}, {"type": "way", "id": 1175553171, "nodes": [10923649273, 10923649272, 10923649271, 10923649270, 10923649273], "tags": {"amenity": "cafe", "building": "yes"}}, {"type": "way", "id": 1198624917, "nodes": [11118854194, 11118854193, 11118854195, 11118854196, 11118854197, 11118854194], "tags": {"amenity": "cafe", "building": "yes"}}, {"type": "way", "id": 1202686253, "nodes": [11149418072, 11149418073, 11149418074, 11149418075, 11149418072], "tags": {"amenity": "restaurant", "building": "yes", "cuisine": "crepe;pasta;pizza;sandwich", "name": "Food Therapy"}}]}