{"version": 0.6, "generator": "Overpass API 0.7.62.7 375dc00a", "osm3s": {"timestamp_osm_base": "2025-06-14T15:06:54Z", "copyright": "The data included in this document is from www.openstreetmap.org. The data is made available under ODbL."}, "elements": [{"type": "node", "id": 310597771, "lat": 37.3558836, "lon": 31.8850346, "tags": {"amenity": "restaurant", "name": "G\u00fcler Et Mangal"}}, {"type": "node", "id": 1837694749, "lat": 37.4518508, "lon": 31.863251}, {"type": "node", "id": 1837694758, "lat": 37.4519863, "lon": 31.8629237}, {"type": "node", "id": 1837694770, "lat": 37.452348, "lon": 31.8635776}, {"type": "node", "id": 1837694772, "lat": 37.4524835, "lon": 31.8632503}, {"type": "node", "id": 3285374618, "lat": 37.7509197, "lon": 32.1015559, "tags": {"amenity": "restaurant"}}, {"type": "node", "id": 3285459087, "lat": 37.3510152, "lon": 31.8845018, "tags": {"amenity": "restaurant"}}, {"type": "node", "id": 4305538689, "lat": 37.5421429, "lon": 31.6056384, "tags": {"amenity": "cafe", "name": "Ali kaynak"}}, {"type": "node", "id": 4390763691, "lat": 37.679733, "lon": 31.721575, "tags": {"amenity": "cafe", "name": "Antik Kafe", "name:tr": "Antik Kafe"}}, {"type": "node", "id": 4390800889, "lat": 37.6799602, "lon": 31.7227517, "tags": {"amenity": "restaurant", "name": "\u0130kizler Restaurant", "name:tr": "\u0130kizler Restaurant"}}, {"type": "node", "id": 4390814389, "lat": 37.6801037, "lon": 31.7231107, "tags": {"amenity": "cafe", "name": "Bey Edem Pastanesi", "name:tr": "Bey Edem Pastanesi"}}, {"type": "node", "id": 4443413990, "lat": 37.6707536, "lon": 31.9972685, "tags": {"addr:street": "Konya Seydi\u015fehri Yolu", "amenity": "restaurant", "name": "G\u00f6n\u00fclalan Dinlenme Tesisi"}}, {"type": "node", "id": 4679377490, "lat": 37.4195299, "lon": 31.8447896, "tags": {"addr:postcode": "42360", "addr:street": "1502. Sk.", "amenity": "restaurant", "cuisine": "turkish", "name": "Seydi\u015fehir G\u00f6zleme Evi", "name:en": "Seydi\u015fehir G\u00f6zleme Evi", "opening_hours": "Mo-Sa 11:00-19:00", "phone": "+903325820050"}}, {"type": "node", "id": 6090301685, "lat": 37.3965059, "lon": 31.8630109, "tags": {"amenity": "restaurant", "name": "Reha Et Mangal"}}, {"type": "node", "id": 6090301985, "lat": 37.4099064, "lon": 31.8731084, "tags": {"amenity": "restaurant", "name": "Defne Et Mangal"}}, {"type": "node", "id": 6090302185, "lat": 37.4152456, "lon": 31.8774376, "tags": {"amenity": "restaurant", "name": "Dumlup\u0131nar Tesisleri"}}, {"type": "node", "id": 6579744613, "lat": 37.6739692, "lon": 31.7167864, "tags": {"amenity": "restaurant", "name": "Emin Usta et Mangal & Balikpapan"}}, {"type": "node", "id": 7947493325, "lat": 37.6793917, "lon": 31.7226143, "tags": {"amenity": "restaurant", "name": "Damak Lokantas\u0131"}}, {"type": "node", "id": 7947503886, "lat": 37.675452, "lon": 31.719477, "tags": {"amenity": "restaurant", "name": "Efsane Bal\u0131k & Et Lokantas\u0131"}}, {"type": "node", "id": 9280079822, "lat": 37.425922, "lon": 31.8473611, "tags": {"amenity": "cafe", "name": "Grande Cafe"}}, {"type": "node", "id": 11612987037, "lat": 37.4249288, "lon": 31.8448778}, {"type": "node", "id": 11612987038, "lat": 37.4248095, "lon": 31.8448885}, {"type": "node", "id": 11612987039, "lat": 37.4248232, "lon": 31.8452597}, {"type": "node", "id": 11612987040, "lat": 37.4249459, "lon": 31.845249}, {"type": "node", "id": 11618062643, "lat": 37.4248186, "lon": 31.8464802, "tags": {"amenity": "cafe", "check_date": "2024-02-13", "internet_access": "wlan", "internet_access:fee": "customers", "name": "Zeydice Kafe", "outdoor_seating": "yes"}}, {"type": "node", "id": 12710137139, "lat": 37.4051588, "lon": 31.8707679, "tags": {"amenity": "restaurant", "brand": "K\u00f6fteci Yusuf", "brand:wikidata": "Q126125081", "cuisine": "turkish", "name": "K\u00f6fteci Yusuf"}}, {"type": "node", "id": 12836836598, "lat": 37.6981532, "lon": 31.9436578, "tags": {"amenity": "cafe", "indoor_seating": "yes", "name": "K\u00fcng\u00fcl H\u00fcseyin Kahvehanesi", "opening_hours": "Mo-Su,PH 09:00-23:00", "outdoor_seating": "yes", "takeaway": "yes", "wheelchair": "limited"}}, {"type": "way", "id": 172934551, "nodes": [1837694749, 1837694758, 1837694772, 1837694770, 1837694749], "tags": {"amenity": "restaurant", "building": "yes", "name": "G\u00fcnayd\u0131n Dinleme Tesisleri", "source": "bing"}}, {"type": "way", "id": 1249435371, "nodes": [11612987037, 11612987038, 11612987039, 11612987040, 11612987037], "tags": {"addr:city": "Konya", "addr:district": "Seydi\u015fehir", "addr:housenumber": "NO:50", "addr:neighbourhood": "Alaylar \u0130ki", "addr:postcode": "42370", "addr:street": "Atat\u00fcrk Blv.", "amenity": "cafe", "building": "yes", "internet_access": "wlan", "name": "Sel\u00e7uklu Kafe"}}]}