{"version": 0.6, "generator": "Overpass API 0.7.62.7 375dc00a", "osm3s": {"timestamp_osm_base": "2025-06-14T13:56:34Z", "copyright": "The data included in this document is from www.openstreetmap.org. The data is made available under ODbL."}, "elements": [{"type": "node", "id": 290536446, "lat": 41.0170526, "lon": 15.3743363, "tags": {"amenity": "restaurant", "name": "Al Grillo d'Oro"}}, {"type": "node", "id": 301220594, "lat": 40.9012247, "lon": 15.4329388, "tags": {"amenity": "cafe", "name": "Bar Jolly"}}, {"type": "node", "id": 301222083, "lat": 40.8989331, "lon": 15.438696, "tags": {"amenity": "cafe", "name": "Bar Cetta"}}, {"type": "node", "id": 301360556, "lat": 40.9013899, "lon": 15.436531, "tags": {"addr:housenumber": "1", "addr:street": "Via XXIII Novembre", "amenity": "cafe", "cuisine": "italian", "internet_access": "no", "name": "Ciak si gira", "opening_hours": "Mo-Sa 08:00-20:00"}}, {"type": "node", "id": 301361752, "lat": 40.9009064, "lon": 15.4360773, "tags": {"amenity": "cafe", "name": "Gulliver"}}, {"type": "node", "id": 361511823, "lat": 41.1622481, "lon": 15.2584659, "tags": {"amenity": "restaurant", "cuisine": "regional", "name": "Agritur Lu Stallier", "phone": "+39 0881 983266"}}, {"type": "node", "id": 469242252, "lat": 40.9008621, "lon": 15.4348065, "tags": {"amenity": "cafe", "name": "New Poldo's"}}, {"type": "node", "id": 469242253, "lat": 40.9007026, "lon": 15.435112, "tags": {"amenity": "cafe", "name": "Idee Golose"}}, {"type": "node", "id": 469628722, "lat": 40.9102896, "lon": 15.4211056, "tags": {"amenity": "cafe", "name": "Caff\u00e9 Europa", "opening_hours": "\"non in piena attivita\""}}, {"type": "node", "id": 470504326, "lat": 40.9046829, "lon": 15.4223382, "tags": {"amenity": "restaurant", "cuisine": "italian", "name": "Gagliano"}}, {"type": "node", "id": 470504328, "lat": 40.9046646, "lon": 15.4230749, "tags": {"amenity": "restaurant", "cuisine": "pizza", "name": "Peccati di Cola"}}, {"type": "node", "id": 508502753, "lat": 40.9516101, "lon": 15.5838969, "tags": {"amenity": "restaurant"}}, {"type": "node", "id": 512527683, "lat": 40.9506245, "lon": 15.5692847, "tags": {"amenity": "restaurant"}}, {"type": "node", "id": 534569509, "lat": 41.0937461, "lon": 15.5937068, "tags": {"amenity": "restaurant", "cuisine": "italian", "name": "Autogrill"}}, {"type": "node", "id": 534609786, "lat": 41.2060069, "lon": 15.5594087, "tags": {"addr:street": "Via Alessandro Manzoni", "amenity": "restaurant", "cuisine": "regional", "name": "Medievalis", "phone": "+39 0885 651665"}}, {"type": "node", "id": 622051177, "lat": 41.2745551, "lon": 15.3693735, "tags": {"amenity": "restaurant", "cuisine": "regional", "name": "Trattoria del Ponte", "opening_hours": "Tu-Su 12:30-15:00", "operator": "Adele Leone"}}, {"type": "node", "id": 702962704, "lat": 41.1405228, "lon": 15.5177987, "tags": {"amenity": "restaurant", "cuisine": "pizza", "name": "La Rosa dei Venti"}}, {"type": "node", "id": 703488670, "lat": 41.1446268, "lon": 15.5270122, "tags": {"amenity": "restaurant", "cuisine": "regional", "name": "L'Orecchietta"}}, {"type": "node", "id": 815475060, "lat": 40.892657, "lon": 15.4904297, "tags": {"amenity": "restaurant", "name": "Agriturismo Valle Ofanto"}}, {"type": "node", "id": 1236283889, "lat": 40.9880794, "lon": 15.4706568, "tags": {"amenity": "restaurant", "cuisine": "italian", "name": "Lo Smeraldo"}}, {"type": "node", "id": 1333828756, "lat": 40.964355, "lon": 15.224399, "tags": {"amenity": "restaurant", "cuisine": "italian", "name": "Sapori d'Italia"}}, {"type": "node", "id": 1362722248, "lat": 41.066839, "lon": 15.3161201, "tags": {"addr:postcode": "83059", "addr:street": "Autostrada dei Due Mari", "amenity": "restaurant", "brand": "Autogrill", "brand:wikidata": "Q786790", "cuisine": "italian;regional", "name": "Autogrill", "operator": "Nuova Sidap srl", "phone": "+39 800 069 069"}}, {"type": "node", "id": 1459785693, "lat": 40.8634169, "lon": 15.3198104, "tags": {"amenity": "cafe", "name": "Bar Diga"}}, {"type": "node", "id": 1459785746, "lat": 40.8866428, "lon": 15.2616375, "tags": {"amenity": "restaurant", "name": "Ma Mo Re"}}, {"type": "node", "id": 1474904310, "lat": 41.0665324, "lon": 15.0589222}, {"type": "node", "id": 1501590716, "lat": 40.8994542, "lon": 15.439167, "tags": {"amenity": "restaurant", "cuisine": "italian", "name": "Locanda dell'Arco"}}, {"type": "node", "id": 1503453676, "lat": 40.9006385, "lon": 15.4339185, "tags": {"amenity": "cafe", "name": "Pasticceria Zabatta"}}, {"type": "node", "id": 1542248449, "lat": 41.0609959, "lon": 15.047622, "tags": {"addr:city": "Grottaminarda", "addr:country": "IT", "addr:street": "Via Pioppi S.S. 90", "amenity": "cafe", "name": "Stazione di servizio Q8", "phone": "+39 0825 429116"}}, {"type": "node", "id": 1556146954, "lat": 40.9000756, "lon": 15.4399674, "tags": {"amenity": "restaurant", "cuisine": "italian", "name": "La Gatta Cenerentola"}}, {"type": "node", "id": 1608992603, "lat": 40.9875321, "lon": 15.4728621, "tags": {"amenity": "cafe", "name": "Bar Centrale"}}, {"type": "node", "id": 1726579146, "lat": 40.9342562, "lon": 15.325798, "tags": {"amenity": "cafe"}}, {"type": "node", "id": 1942836982, "lat": 41.2233683, "lon": 15.3869059, "tags": {"amenity": "cafe", "name": "Pasticceria"}}, {"type": "node", "id": 2123106232, "lat": 41.0660663, "lon": 15.0941634}, {"type": "node", "id": 2123106235, "lat": 41.06641, "lon": 15.0940079}, {"type": "node", "id": 2123106236, "lat": 41.0690793, "lon": 15.0941956}, {"type": "node", "id": 2123106237, "lat": 41.066773, "lon": 15.0951703}, {"type": "node", "id": 2123106240, "lat": 41.0670329, "lon": 15.096497}, {"type": "node", "id": 2123106244, "lat": 41.0691764, "lon": 15.0946891}, {"type": "node", "id": 2126619402, "lat": 41.0317316, "lon": 15.1097227}, {"type": "node", "id": 2126619412, "lat": 41.0315454, "lon": 15.1092589}, {"type": "node", "id": 2126619426, "lat": 41.0315535, "lon": 15.1087975}, {"type": "node", "id": 2126619432, "lat": 41.0311327, "lon": 15.10876}, {"type": "node", "id": 2126619439, "lat": 41.0307442, "lon": 15.1087331}, {"type": "node", "id": 2126619447, "lat": 41.0305216, "lon": 15.1087385}, {"type": "node", "id": 2126619448, "lat": 41.0305338, "lon": 15.1094627}, {"type": "node", "id": 2126619449, "lat": 41.0303274, "lon": 15.1096129}, {"type": "node", "id": 2126619453, "lat": 41.0302574, "lon": 15.1097763}, {"type": "node", "id": 2126619458, "lat": 41.0307927, "lon": 15.10957}, {"type": "node", "id": 2126619467, "lat": 41.031239, "lon": 15.10957}, {"type": "node", "id": 2128011358, "lat": 41.054874, "lon": 15.1084868}, {"type": "node", "id": 2128011363, "lat": 41.0547433, "lon": 15.1097501}, {"type": "node", "id": 2128011383, "lat": 41.0543562, "lon": 15.1091836}, {"type": "node", "id": 2128011385, "lat": 41.0552623, "lon": 15.1090227}, {"type": "node", "id": 2129370525, "lat": 41.0469703, "lon": 15.06798}, {"type": "node", "id": 2129370529, "lat": 41.0463682, "lon": 15.0670315}, {"type": "node", "id": 2129370532, "lat": 41.0453074, "lon": 15.0682154}, {"type": "node", "id": 2129370535, "lat": 41.0459095, "lon": 15.0691639}, {"type": "node", "id": 2133596797, "lat": 41.0016452, "lon": 15.1188172, "tags": {"amenity": "cafe"}}, {"type": "node", "id": 2133596804, "lat": 41.0044993, "lon": 15.1072702, "tags": {"amenity": "cafe"}}, {"type": "node", "id": 2133854956, "lat": 41.1350945, "lon": 15.0826035, "tags": {"amenity": "cafe"}}, {"type": "node", "id": 2133855111, "lat": 41.128759, "lon": 15.0808333, "tags": {"amenity": "cafe"}}, {"type": "node", "id": 2133862552, "lat": 41.1168889, "lon": 15.0824768}, {"type": "node", "id": 2133862559, "lat": 41.1168012, "lon": 15.0811334}, {"type": "node", "id": 2133862563, "lat": 41.1165246, "lon": 15.0819971}, {"type": "node", "id": 2133862566, "lat": 41.1172676, "lon": 15.0820451}, {"type": "node", "id": 2133862569, "lat": 41.1173341, "lon": 15.0812891}, {"type": "node", "id": 2133862570, "lat": 41.1172301, "lon": 15.0822811}, {"type": "node", "id": 2133872418, "lat": 41.1039447, "lon": 15.1398794, "tags": {"amenity": "restaurant"}}, {"type": "node", "id": 2133877497, "lat": 41.0759749, "lon": 15.1095109, "tags": {"amenity": "cafe", "name": "Le Delizie"}}, {"type": "node", "id": 2146739795, "lat": 41.045269, "lon": 15.1018685, "tags": {"amenity": "restaurant", "name": "Stanco"}}, {"type": "node", "id": 2152023958, "lat": 41.0397594, "lon": 15.1054243}, {"type": "node", "id": 2152023961, "lat": 41.0398424, "lon": 15.1056331}, {"type": "node", "id": 2152023963, "lat": 41.0398483, "lon": 15.1053621}, {"type": "node", "id": 2152023965, "lat": 41.0399313, "lon": 15.105571}, {"type": "node", "id": 2152023967, "lat": 41.0402613, "lon": 15.1061045}, {"type": "node", "id": 2152023971, "lat": 41.04035, "lon": 15.1062945}, {"type": "node", "id": 2152023974, "lat": 41.0405854, "lon": 15.1058384}, {"type": "node", "id": 2152023975, "lat": 41.0406741, "lon": 15.1060284}, {"type": "node", "id": 2152354361, "lat": 41.0305329, "lon": 15.1096334}, {"type": "node", "id": 2152354362, "lat": 41.0309987, "lon": 15.1095337}, {"type": "node", "id": 2154332298, "lat": 41.0179201, "lon": 15.1107642, "tags": {"amenity": "cafe"}}, {"type": "node", "id": 2177079894, "lat": 40.8999034, "lon": 15.442127, "tags": {"amenity": "restaurant", "cuisine": "pizza", "name": "Golden Mill"}}, {"type": "node", "id": 2281212769, "lat": 41.2231371, "lon": 15.3864469, "tags": {"amenity": "cafe", "name": "Bar Centrale"}}, {"type": "node", "id": 2281212780, "lat": 41.2231155, "lon": 15.3867929, "tags": {"amenity": "cafe", "name": "Bar"}}, {"type": "node", "id": 2284728601, "lat": 41.2258537, "lon": 15.3846325, "tags": {"amenity": "restaurant", "name": "Marcello"}}, {"type": "node", "id": 2312964925, "lat": 41.1349352, "lon": 15.5140643, "tags": {"amenity": "restaurant", "cuisine": "pizza", "name": "Pizzeria la Rotonda"}}, {"type": "node", "id": 2312984079, "lat": 41.137542, "lon": 15.5158525, "tags": {"amenity": "restaurant", "cuisine": "pizza", "name": "Calzature il Futuro", "shop": "shoes"}}, {"type": "node", "id": 2312984082, "lat": 41.1369563, "lon": 15.5155615, "tags": {"amenity": "restaurant", "cuisine": "pizza", "name": "Pizzeria Nap'licchie"}}, {"type": "node", "id": 2314748570, "lat": 41.15054, "lon": 15.380305}, {"type": "node", "id": 2387369415, "lat": 41.0199131, "lon": 15.1111224, "tags": {"amenity": "cafe", "check_date": "2024-12-25", "name": "Bar Vera"}}, {"type": "node", "id": 2387369416, "lat": 41.0206913, "lon": 15.1097537, "tags": {"amenity": "cafe", "name": "Bar Vera"}}, {"type": "node", "id": 2387369417, "lat": 41.0205051, "lon": 15.1103934, "tags": {"amenity": "cafe"}}, {"type": "node", "id": 2399777622, "lat": 41.1128729, "lon": 15.1597839, "tags": {"amenity": "restaurant", "name": "Belvedere"}}, {"type": "node", "id": 2496273728, "lat": 41.0172113, "lon": 15.3751314, "tags": {"amenity": "cafe"}}, {"type": "node", "id": 2602230665, "lat": 40.9049996, "lon": 15.4284815, "tags": {"amenity": "restaurant", "cuisine": "italian", "name": "Osteria Tre Rose"}}, {"type": "node", "id": 2654711343, "lat": 41.2050004, "lon": 15.5610348, "tags": {"amenity": "cafe", "name": "Bar Franco"}}, {"type": "node", "id": 2654711348, "lat": 41.204747, "lon": 15.5611428, "tags": {"amenity": "restaurant", "cuisine": "italian;pizza", "name": "Fuori Men\u00f9"}}, {"type": "node", "id": 2654711414, "lat": 41.2047066, "lon": 15.5609529, "tags": {"amenity": "restaurant", "cuisine": "italian;pizza"}}, {"type": "node", "id": 2655504761, "lat": 41.2010684, "lon": 15.5631326, "tags": {"amenity": "cafe", "name": "Bar Victor", "operator": "Leccese, Potito", "phone": "+39 0885 651904", "ref:vatin": "IT02062600719"}}, {"type": "node", "id": 2655506483, "lat": 41.206094, "lon": 15.5616971, "tags": {"amenity": "cafe", "name": "Bar Caffe'", "operator": "Antolino, Barbara", "phone": "+39 0885 651005", "ref:vatin": "IT03203960715"}}, {"type": "node", "id": 2666015574, "lat": 40.934477, "lon": 15.32772}, {"type": "node", "id": 2666015577, "lat": 40.9345017, "lon": 15.3274055}, {"type": "node", "id": 2666015586, "lat": 40.9345632, "lon": 15.3277319}, {"type": "node", "id": 2666015592, "lat": 40.934588, "lon": 15.3274174}, {"type": "node", "id": 2728695649, "lat": 41.1166938, "lon": 15.0815462}, {"type": "node", "id": 2755858941, "lat": 40.8881579, "lon": 15.4294149, "tags": {"amenity": "restaurant", "name": "Pizzeria Pinto"}}, {"type": "node", "id": 2777070874, "lat": 40.8994932, "lon": 15.4409504, "tags": {"amenity": "cafe", "internet_access": "no", "name": "Internet C@f\u00e9", "outdoor_seating": "yes"}}, {"type": "node", "id": 3086141306, "lat": 40.8773863, "lon": 15.1875696, "tags": {"amenity": "restaurant", "cuisine": "italian", "name": "Taverna di Via Ricca"}}, {"type": "node", "id": 3086141307, "lat": 40.8755018, "lon": 15.1868208, "tags": {"amenity": "restaurant", "cuisine": "italian", "name": "Zia Alfonsina"}}, {"type": "node", "id": 3370696639, "lat": 41.063313, "lon": 15.251966, "tags": {"addr:city": "Vallesaccarda", "addr:housenumber": "8/10", "addr:postcode": "83050", "addr:street": "Via Provinciale", "amenity": "restaurant", "cuisine": "regional", "name": "Oasis Sapori Antichi", "source": "Michele Eduardo Cioria"}}, {"type": "node", "id": 3483960502, "lat": 41.0056417, "lon": 15.6190355, "tags": {"amenity": "restaurant", "name": "Pizzeria Big Dream", "wheelchair": "yes"}}, {"type": "node", "id": 3486070074, "lat": 41.0196012, "lon": 15.6121309, "tags": {"amenity": "restaurant", "name": "Agriturismo \u2013 Tratturo Regio", "wheelchair": "yes"}}, {"type": "node", "id": 3695456262, "lat": 40.8729135, "lon": 15.3660851, "tags": {"amenity": "restaurant", "name": "Agriturismo Caperroni"}}, {"type": "node", "id": 3731013374, "lat": 41.2986474, "lon": 15.2645953, "tags": {"amenity": "restaurant", "name": "Villa Jamele", "operator": "Peppe Zullo", "website": "http://www.villajamele.it/"}}, {"type": "node", "id": 4067156470, "lat": 41.1504881, "lon": 15.3803396}, {"type": "node", "id": 4067156593, "lat": 41.1505064, "lon": 15.380254}, {"type": "node", "id": 4067156597, "lat": 41.1505085, "lon": 15.3802552}, {"type": "node", "id": 4067156618, "lat": 41.1505214, "lon": 15.3803569}, {"type": "node", "id": 4067156661, "lat": 41.1505458, "lon": 15.3803695}, {"type": "node", "id": 4067156670, "lat": 41.1505476, "lon": 15.3802762}, {"type": "node", "id": 4067156687, "lat": 41.1505589, "lon": 15.3803325}, {"type": "node", "id": 4067156696, "lat": 41.1505627, "lon": 15.3803132}, {"type": "node", "id": 4080703227, "lat": 41.1055226, "lon": 15.4578938}, {"type": "node", "id": 4080703258, "lat": 41.1055817, "lon": 15.4579579}, {"type": "node", "id": 4080703263, "lat": 41.1056004, "lon": 15.4577497}, {"type": "node", "id": 4080703272, "lat": 41.1056533, "lon": 15.4578286}, {"type": "node", "id": 4109362267, "lat": 41.2778611, "lon": 15.2666206, "tags": {"addr:city": "Orsara di Puglia", "addr:housenumber": "133", "addr:postcode": "71027", "addr:street": "corso della Vittoria", "amenity": "restaurant", "cuisine": "pizza", "name": "Pizzeria da Paolo"}}, {"type": "node", "id": 4109362274, "lat": 41.2775253, "lon": 15.266412, "tags": {"addr:city": "Orsara di Puglia", "addr:housenumber": "155", "addr:postcode": "71027", "addr:street": "corso della Vittoria", "amenity": "restaurant", "name": "Carpe Diem"}}, {"type": "node", "id": 4185607986, "lat": 41.158508, "lon": 15.4106631, "tags": {"addr:district": "Contrada Cesine", "addr:place": "Sant'Agata di Puglia", "addr:province": "FG", "addr:street": "SP 137", "amenity": "restaurant", "cuisine": "italian", "name": "Piper", "operator": "So. Cli. srl", "ref:vatin": "IT03465300717", "tourism": "hotel"}}, {"type": "node", "id": 4219532497, "lat": 41.302098, "lon": 15.4725282, "tags": {"amenity": "restaurant", "cuisine": "pizza;pasta", "smoking": "outside", "takeaway": "yes"}}, {"type": "node", "id": 4226441802, "lat": 41.1033396, "lon": 15.4597944, "tags": {"addr:city": "Rocchetta Sant'Antonio", "addr:district": "Contrada Cesine", "addr:housenumber": "48", "addr:province": "FG", "addr:street": "Corso Principe Umberto", "amenity": "cafe", "level": "0", "name": "Bar Fennino", "operator": "Fennino,Marcello", "phone": "+39-0885-654108", "ref:vatin": "IT04027520719", "wheelchair": "no"}}, {"type": "node", "id": 4744992779, "lat": 41.2499507, "lon": 15.2478515, "tags": {"amenity": "restaurant", "name": "Ristorante Pub Pizzeria Del Monte"}}, {"type": "node", "id": 4929217524, "lat": 41.3050646, "lon": 15.479455, "tags": {"amenity": "restaurant", "cuisine": "italian_pizza", "name": "Moonlight Pub", "name:en": "Moonlight Pub", "name:it": "Moonlight Pub"}}, {"type": "node", "id": 4941965821, "lat": 41.0648168, "lon": 15.3148263, "tags": {"addr:postcode": "85059", "addr:street": "A16", "amenity": "restaurant", "name": "sarni"}}, {"type": "node", "id": 5002274605, "lat": 41.160718, "lon": 15.3382421, "tags": {"amenity": "restaurant", "name": "Sala Serafina"}}, {"type": "node", "id": 5002275964, "lat": 41.2789225, "lon": 15.2606467, "tags": {"amenity": "restaurant", "name": "Peppe Zullo", "website": "https://www.peppezullo.it/"}}, {"type": "node", "id": 5044639290, "lat": 41.3041589, "lon": 15.4746877, "tags": {"amenity": "cafe"}}, {"type": "node", "id": 5044639291, "lat": 41.3047232, "lon": 15.476521, "tags": {"amenity": "restaurant"}}, {"type": "node", "id": 5343810693, "lat": 40.8572004, "lon": 15.1003674}, {"type": "node", "id": 5343810694, "lat": 40.856957, "lon": 15.1006785}, {"type": "node", "id": 5343810695, "lat": 40.8568697, "lon": 15.1005524}, {"type": "node", "id": 5343810696, "lat": 40.8571213, "lon": 15.1002359}, {"type": "node", "id": 5451380536, "lat": 40.9247136, "lon": 15.5773447, "tags": {"amenity": "restaurant", "diet:gluten_free": "yes", "name": "Il Cantuccio del Vulture"}}, {"type": "node", "id": 5562030106, "lat": 40.9358575, "lon": 15.6087857, "tags": {"amenity": "restaurant", "contact:phone": "+39 0972 731302", "cuisine": "regional", "name": "Ristorante Bramea", "website": "https://www.borgovillamaria.com/il-borgo/ristorante-bramea/"}}, {"type": "node", "id": 5586534487, "lat": 40.9310189, "lon": 15.6115455, "tags": {"amenity": "cafe", "name": "La Perla del Lago"}}, {"type": "node", "id": 5589977633, "lat": 40.9331069, "lon": 15.6156704}, {"type": "node", "id": 5589977635, "lat": 40.9330467, "lon": 15.615155}, {"type": "node", "id": 5589977636, "lat": 40.9329015, "lon": 15.6152275}, {"type": "node", "id": 5589977639, "lat": 40.9330353, "lon": 15.6157769}, {"type": "node", "id": 5589977642, "lat": 40.9331229, "lon": 15.6158379}, {"type": "node", "id": 5589977644, "lat": 40.9333395, "lon": 15.6157354}, {"type": "node", "id": 5589977646, "lat": 40.9331813, "lon": 15.6157686}, {"type": "node", "id": 5589977650, "lat": 40.9333212, "lon": 15.6156209}, {"type": "node", "id": 5589977653, "lat": 40.9333133, "lon": 15.6155375}, {"type": "node", "id": 5589977656, "lat": 40.9331077, "lon": 15.6155968}, {"type": "node", "id": 5589980502, "lat": 40.933293, "lon": 15.6157327}, {"type": "node", "id": 5589980508, "lat": 40.9332596, "lon": 15.6155515}, {"type": "node", "id": 5589980784, "lat": 40.9331128, "lon": 15.6158028}, {"type": "node", "id": 5589980786, "lat": 40.9330882, "lon": 15.6156648}, {"type": "node", "id": 5589980790, "lat": 40.9330413, "lon": 15.6158345}, {"type": "node", "id": 5589980792, "lat": 40.9331898, "lon": 15.6158157}, {"type": "node", "id": 5589980797, "lat": 40.9333284, "lon": 15.6156171}, {"type": "node", "id": 5589980810, "lat": 40.9330412, "lon": 15.6151312}, {"type": "node", "id": 5589980811, "lat": 40.9328712, "lon": 15.6150967}, {"type": "node", "id": 5589980813, "lat": 40.9328789, "lon": 15.6157965}, {"type": "node", "id": 5589981145, "lat": 40.9330231, "lon": 15.6151785}, {"type": "node", "id": 5589981146, "lat": 40.9330909, "lon": 15.6151371}, {"type": "node", "id": 5589981149, "lat": 40.932874, "lon": 15.6156703}, {"type": "node", "id": 5589981150, "lat": 40.9330862, "lon": 15.6158253}, {"type": "node", "id": 5589981233, "lat": 40.9332968, "lon": 15.6157492}, {"type": "node", "id": 5589981239, "lat": 40.9332579, "lon": 15.6155465}, {"type": "node", "id": 5589981248, "lat": 40.9330146, "lon": 15.6151419}, {"type": "node", "id": 5589981249, "lat": 40.9330635, "lon": 15.615019}, {"type": "node", "id": 5589981253, "lat": 40.9330844, "lon": 15.6158082}, {"type": "node", "id": 5600209506, "lat": 40.930592, "lon": 15.6120102, "tags": {"addr:city": "Rionero in Vulture", "addr:postcode": "85028", "addr:street": "Strada dei Laghi di Monticchio", "amenity": "restaurant", "capacity": "100", "cuisine": "regional;burger;sandwich;coffee_shop;chicken", "name": "Mapalu' Pub di Maura Internoscia", "opening_hours": "Mo-Su 9:00-22:00", "outdoor_seating": "yes", "phone": "+39 348 444 0811", "smoking": "outside", "takeaway": "no", "website": "https://mapalu-pub-di-enzo-mecca.business.site/"}}, {"type": "node", "id": 5600220272, "lat": 40.9374176, "lon": 15.6066908, "tags": {"addr:city": "Rionero in Vulture", "addr:postcode": "85028", "addr:street": "Frazione Monticchio laghi", "amenity": "restaurant", "capacity": "100", "cuisine": "regional;pizza;italian", "email": "info@pizzerialagogrande.it", "name": "Lago Grande", "outdoor_seating": "yes", "phone": "+39 0972 731181", "smoking": "outside", "takeaway": "no", "website": "http://www.pizzerialagogrande.it/"}}, {"type": "node", "id": 5600227042, "lat": 40.94151, "lon": 15.5693536, "tags": {"addr:city": "Rionero in Vulture", "addr:postcode": "85028", "addr:street": "Strada Monticchio Sgarroni s/n", "amenity": "restaurant", "capacity": "200", "cuisine": "regional;italian", "name": "IL casale dell'Acqua Rossa", "opening_hours": "Tu-Sa 10:00-23:00", "phone": "+39 0972 731072", "smoking": "outside", "takeaway": "no", "website": "https://www.casaleacquarossa.it/"}}, {"type": "node", "id": 5600230829, "lat": 40.9399736, "lon": 15.5835243, "tags": {"addr:city": "Rionero in Vulture", "addr:postcode": "85028", "addr:street": "Strada provinciale 167", "amenity": "restaurant", "capacity": "100", "cuisine": "regional;italian", "name": "Agriturismo Il Riccio", "opening_hours": "Tu-Su 9:00-23:00", "outdoor_seating": "yes", "phone": "+39 348 386 7677", "smoking": "outside", "takeaway": "no", "website": "https://agriturismo-il-riccio.business.site/"}}, {"type": "node", "id": 5894012670, "lat": 41.1357728, "lon": 15.5160747, "tags": {"addr:city": "Candela", "addr:street": "Corso Vittorio Emanuele", "amenity": "restaurant", "name": "L'Orecchietta"}}, {"type": "node", "id": 5936974198, "lat": 41.2502541, "lon": 15.3402913, "tags": {"amenity": "restaurant", "name": "Osteria N\u2019do Saverie Conte"}}, {"type": "node", "id": 5952311719, "lat": 40.8718374, "lon": 15.3316189, "tags": {"amenity": "restaurant", "name": "Pizzeria Angelos"}}, {"type": "node", "id": 6019298001, "lat": 40.9699793, "lon": 15.1504925, "tags": {"amenity": "restaurant"}}, {"type": "node", "id": 6440470757, "lat": 41.1616005, "lon": 15.1070123, "tags": {"addr:city": "Ariano Irpino", "amenity": "restaurant", "cuisine": "pizza;italian", "name": "Ristorante Le Rose"}}, {"type": "node", "id": 6486134298, "lat": 41.0203351, "lon": 15.0851052, "tags": {"addr:city": "Frigento", "addr:postcode": "83040", "addr:street": "Via Fontana Madonna", "agritourism": "yes", "amenity": "restaurant", "cuisine": "italian;regional", "name": "Agriturismo Fontana Madonna", "phone": "+39 0825 444647", "website": "https://www.fontanamadonna.it/"}}, {"type": "node", "id": 7329633744, "lat": 41.1293058, "lon": 15.203606, "tags": {"amenity": "restaurant", "cuisine": "regional;pizza;italian", "name": "Bar trattoria pizzeria Rosa"}}, {"type": "node", "id": 7416551591, "lat": 40.9494868, "lon": 15.3196851, "tags": {"amenity": "restaurant", "name": "Bar - Ristorante Roma"}}, {"type": "node", "id": 7416551593, "lat": 40.9480168, "lon": 15.32236, "tags": {"amenity": "restaurant", "cuisine": "pizza", "name": "Da Gianluca e Giammaria"}}, {"type": "node", "id": 7769548489, "lat": 41.0666506, "lon": 15.0590358}, {"type": "node", "id": 7769548490, "lat": 41.0666468, "lon": 15.0589159}, {"type": "node", "id": 7769548491, "lat": 41.0665363, "lon": 15.0590422}, {"type": "node", "id": 7770550171, "lat": 41.0670933, "lon": 15.0628735, "tags": {"amenity": "cafe"}}, {"type": "node", "id": 7770550209, "lat": 41.0685287, "lon": 15.062393, "tags": {"addr:city": "Grottaminarda", "addr:housenumber": "101", "addr:postcode": "83035", "addr:street": "Via Valle", "amenity": "cafe", "name": "Roxy Bar", "phone": "+39 0825 441121"}}, {"type": "node", "id": 7783163287, "lat": 41.0667771, "lon": 15.063197, "tags": {"addr:city": "Grottaminarda", "addr:housenumber": "221", "addr:postcode": "83035", "addr:street": "Via Valle", "amenity": "cafe", "name": "Donna Rosa", "operator": "Daniela D'Avanzo", "phone": "+39 0825 811520"}}, {"type": "node", "id": 7787602307, "lat": 41.0667231, "lon": 15.0636433, "tags": {"addr:city": "Grottaminarda", "addr:housenumber": "177", "addr:postcode": "83035", "addr:street": "Via Valle", "amenity": "restaurant", "cuisine": "regional;pizza;italian", "email": "info@lacarina.it", "name": "La carina", "operator": "Pasquale Penta", "phone": "+39 0825 458109", "ref:vatin": "IT01731310643", "website": "https://www.lacarina.it/"}}, {"type": "node", "id": 7878852346, "lat": 40.9471345, "lon": 15.3221713, "tags": {"amenity": "restaurant", "cuisine": "pizza", "name": "Da noi altri"}}, {"type": "node", "id": 7959083047, "lat": 40.9515931, "lon": 15.164016, "tags": {"amenity": "cafe"}}, {"type": "node", "id": 8946615886, "lat": 40.9358333, "lon": 15.6084404, "tags": {"addr:city": "Rionero in Vulture", "addr:postcode": "85028", "addr:street": "Localit\u00e0 Monticcio Laghi", "amenity": "restaurant", "contact:facebook": "https://www.facebook.com/ottantunomonticchio/", "contact:instagram": "https://www.instagram.com/ottantunomonticchio/", "cuisine": "regional;sandwich", "name": "Ottantuno Ristobottega Lucana", "phone": "+393773412481", "website": "https://www.ottantunomonticchio.it/"}}, {"type": "node", "id": 8946615887, "lat": 40.932445, "lon": 15.6095981, "tags": {"amenity": "restaurant", "cuisine": "fish;italian", "name": "Il Pescatore"}}, {"type": "node", "id": 9310051317, "lat": 41.1513229, "lon": 15.3805325, "tags": {"amenity": "restaurant", "cuisine": "pizza", "name": "Agaton", "name:it": "Agatone"}}, {"type": "node", "id": 9688087998, "lat": 40.9482483, "lon": 15.1651964, "tags": {"amenity": "cafe", "name": "Phoenix"}}, {"type": "node", "id": 9782773360, "lat": 41.0062018, "lon": 15.071857, "tags": {"amenity": "cafe", "name": "Bar Corso"}}, {"type": "node", "id": 10749337680, "lat": 40.9286509, "lon": 15.2560658}, {"type": "node", "id": 10749337681, "lat": 40.928703, "lon": 15.2562574}, {"type": "node", "id": 10749337682, "lat": 40.9286643, "lon": 15.2562758}, {"type": "node", "id": 10749337683, "lat": 40.9286545, "lon": 15.2562396}, {"type": "node", "id": 10749337684, "lat": 40.9286103, "lon": 15.2562607}, {"type": "node", "id": 10749337685, "lat": 40.9285681, "lon": 15.2561052}, {"type": "node", "id": 10914335178, "lat": 40.9516409, "lon": 15.1627324, "tags": {"amenity": "restaurant", "name": "La Ripa"}}, {"type": "node", "id": 11218517527, "lat": 40.8867915, "lon": 15.0979988, "tags": {"addr:city": "Nusco", "addr:housenumber": "6", "addr:postcode": "83051", "addr:street": "Contrada Sparanielli", "amenity": "restaurant", "cuisine": "regional", "mobile": "+39 3273328004", "mobile_phone:repair": "+39 3279777811", "name": "Da Rosa Ristorante", "phone": "+39 0827 64379"}}, {"type": "node", "id": 11847964582, "lat": 41.0433398, "lon": 15.1134758, "tags": {"addr:city": "Frigento", "addr:housenumber": "47", "addr:street": "Via Vado dell'Occhiano", "air_conditioning": "yes", "amenity": "restaurant", "capacity": "50", "cuisine": "traditional;brazilian;local;coffee_shop", "internet_access": "wlan", "name": "Mary D Bar Trattoria", "opening_hours": "Mo-Fr 09:00-17:00", "phone": "08251440866", "takeaway": "yes", "wheelchair": "yes"}}, {"type": "node", "id": 12465355386, "lat": 41.0049696, "lon": 15.1068498, "tags": {"amenity": "restaurant", "name": "da Bal\u00fa"}}, {"type": "node", "id": 12466972341, "lat": 40.8958387, "lon": 15.3665853, "tags": {"amenity": "restaurant", "name": "Voria"}}, {"type": "node", "id": 12509466901, "lat": 41.1662835, "lon": 15.2604038, "tags": {"amenity": "cafe", "name": "Zetaquadro Bar"}}, {"type": "node", "id": 12512493903, "lat": 41.1506083, "lon": 15.0830891, "tags": {"amenity": "restaurant", "cuisine": "italian_pizza;pizza", "name": "Vecchio Borgo"}}, {"type": "node", "id": 12512563001, "lat": 41.1520033, "lon": 15.080574, "tags": {"amenity": "restaurant", "cuisine": "italian_pizza;pizza", "name": "Makeda"}}, {"type": "node", "id": 12707949183, "lat": 40.9324607, "lon": 15.2439516}, {"type": "node", "id": 12707949184, "lat": 40.93248, "lon": 15.2440587}, {"type": "node", "id": 12707949185, "lat": 40.9324426, "lon": 15.2440569}, {"type": "node", "id": 12707949186, "lat": 40.9323584, "lon": 15.2440861}, {"type": "node", "id": 12707949187, "lat": 40.9323524, "lon": 15.2440888}, {"type": "node", "id": 12707949188, "lat": 40.9323123, "lon": 15.2440127}, {"type": "node", "id": 12707949189, "lat": 40.9323484, "lon": 15.2439764}, {"type": "node", "id": 12707949190, "lat": 40.9323811, "lon": 15.2439534}, {"type": "node", "id": 12707953323, "lat": 40.9267676, "lon": 15.242495, "tags": {"amenity": "cafe", "name": "Acoustic Caf\u00e8"}}, {"type": "node", "id": 12707953510, "lat": 40.8948796, "lon": 15.2487952}, {"type": "node", "id": 12707953511, "lat": 40.8947275, "lon": 15.2486285}, {"type": "node", "id": 12707953512, "lat": 40.8947091, "lon": 15.2486895}, {"type": "node", "id": 12707953513, "lat": 40.8947782, "lon": 15.2487546}, {"type": "node", "id": 12707953514, "lat": 40.8947336, "lon": 15.2488989}, {"type": "node", "id": 12707953515, "lat": 40.894663, "lon": 15.2488745}, {"type": "node", "id": 12707953516, "lat": 40.8946245, "lon": 15.2491347}, {"type": "node", "id": 12707953517, "lat": 40.8945078, "lon": 15.2491672}, {"type": "node", "id": 12707953518, "lat": 40.8945078, "lon": 15.2492262}, {"type": "node", "id": 12707953519, "lat": 40.8946476, "lon": 15.2492241}, {"type": "node", "id": 12707953520, "lat": 40.8947521, "lon": 15.2492831}, {"type": "node", "id": 12707953521, "lat": 40.8948381, "lon": 15.2489741}, {"type": "node", "id": 12707953522, "lat": 40.8947206, "lon": 15.2486513}, {"type": "node", "id": 12828162208, "lat": 40.9474774, "lon": 15.3220052, "tags": {"amenity": "restaurant", "name": "Z\u00cd Rocco"}}, {"type": "way", "id": 202343912, "nodes": [2123106236, 2123106244, 2123106240, 2123106232, 2123106235, 2123106237, 2123106236], "tags": {"amenity": "restaurant", "cuisine": "italian", "name": "Villa Regina"}}, {"type": "way", "id": 202709972, "nodes": [2126619412, 2126619426, 2126619432, 2126619439, 2126619447, 2126619448, 2126619449, 2126619453, 2152354361, 2126619458, 2152354362, 2126619467, 2126619402, 2126619412], "tags": {"amenity": "restaurant", "cuisine": "italian", "name": "Casa Reale", "tourism": "hotel"}}, {"type": "way", "id": 202859269, "nodes": [2128011385, 2128011358, 2128011383, 2128011363, 2128011385], "tags": {"amenity": "restaurant", "cuisine": "italian", "name": "Laguna bl\u00f9"}}, {"type": "way", "id": 202975467, "nodes": [2129370525, 2129370529, 2129370532, 2129370535, 2129370525], "tags": {"amenity": "restaurant", "cuisine": "italian", "name": "Villa S.Andrea", "tourism": "hotel"}}, {"type": "way", "id": 203375233, "nodes": [2133862570, 2133862566, 2133862569, 2133862559, 2728695649, 2133862563, 2133862552, 2133862570], "tags": {"amenity": "restaurant", "name": "Incontro", "tourism": "hotel"}}, {"type": "way", "id": 205228960, "nodes": [2152023963, 2152023965, 2152023961, 2152023958, 2152023963], "tags": {"amenity": "cafe", "name": "Pila ai piani"}}, {"type": "way", "id": 205228966, "nodes": [2152023974, 2152023967, 2152023971, 2152023975, 2152023974], "tags": {"amenity": "restaurant", "cuisine": "italian"}}, {"type": "way", "id": 260995344, "nodes": [2666015592, 2666015586, 2666015574, 2666015577, 2666015592], "tags": {"addr:city": "Andretta", "addr:housenumber": "35", "addr:postcode": "83040", "addr:street": "Via Tenente Giovanni Solomine", "amenity": "restaurant", "building": "yes", "cuisine": "pizza;regional", "name": "Pizzeria Planet", "phone": "340 343 4903"}}, {"type": "way", "id": 405938513, "nodes": [4080703258, 4080703227, 4080703263, 4080703272, 4080703258], "tags": {"amenity": "restaurant", "building": "yes", "cuisine": "pasticceria;pastry;caff\u00e8", "name": "Vanit\u00e0 Bakery", "phone": "+39 3317576309"}}, {"type": "way", "id": 553637660, "nodes": [5343810696, 5343810695, 5343810694, 5343810693, 5343810696], "tags": {"amenity": "restaurant", "building": "yes", "cuisine": "italian", "name": "Conte"}}, {"type": "way", "id": 584867097, "nodes": [5589977635, 5589980810, 5589981248, 5589981145, 5589977636, 5589980811, 5589981249, 5589981146, 5589977635], "tags": {"addr:city": "Atella", "addr:postcode": "85020", "addr:street": "Via Monticchio", "amenity": "restaurant", "building": "yes", "contact:email": "michelemecca@yahoo.it", "contact:facebook": "https://www.facebook.com/ilristorantinomecca/", "contact:instagram": "https://www.instagram.com/ilristorantinomecca/", "cuisine": "regional;italian;pizza", "name": "Il Ristorantino Mecca", "phone": "+390972731130"}}, {"type": "way", "id": 584867103, "nodes": [5589977644, 5589981233, 5589980502, 5589977646, 5589980792, 5589977642, 5589980784, 5589981253, 5589981150, 5589980790, 5589977639, 5589980813, 5589981149, 5589980786, 5589977633, 5589977656, 5589981239, 5589980508, 5589977653, 5589980797, 5589977650, 5589977644], "tags": {"amenity": "restaurant", "building": "yes", "name": "Bar Ristorante Casetta Alpina"}}, {"type": "way", "id": 704167301, "nodes": [4067156593, 4067156597, 4067156670, 2314748570, 4067156696, 4067156687, 4067156661, 4067156618, 4067156470, 4067156593], "tags": {"amenity": "restaurant", "building": "yes", "name": "Pizzeria Al Brigante"}}, {"type": "way", "id": 832180784, "nodes": [7769548490, 1474904310, 7769548491, 7769548489, 7769548490], "tags": {"addr:city": "Grottaminarda", "addr:country": "IT", "addr:housename": "Agip", "addr:housenumber": "85", "addr:postcode": "83035", "addr:street": "Via Carpignano", "amenity": "cafe", "building": "yes", "name": "Agip Bar", "operator": "Spera, Gerardo Agostino", "ref:vatin": "IT00523700649"}}, {"type": "way", "id": 1155891363, "nodes": [10749337680, 10749337681, 10749337682, 10749337683, 10749337684, 10749337685, 10749337680], "tags": {"addr:city": "Morra De Sanctis", "addr:street": "Via Varnicola", "amenity": "restaurant", "building": "yes", "name": "Ristorante La Playa"}}, {"type": "way", "id": 1372449154, "nodes": [12707949183, 12707949184, 12707949185, 12707949186, 12707949187, 12707949188, 12707949189, 12707949190, 12707949183], "tags": {"amenity": "restaurant", "building": "yes", "cuisine": "pizza", "name": "Pizzeria Bar Sport \"Mastututto\""}}, {"type": "way", "id": 1372449182, "nodes": [12707953510, 12707953511, 12707953522, 12707953512, 12707953513, 12707953514, 12707953515, 12707953516, 12707953517, 12707953518, 12707953519, 12707953520, 12707953521, 12707953510], "tags": {"amenity": "restaurant", "building": "yes", "name": "Il Cigno Blu"}}]}