{"version": 0.6, "generator": "Overpass API 0.7.62.7 375dc00a", "osm3s": {"timestamp_osm_base": "2025-06-14T13:51:30Z", "copyright": "The data included in this document is from www.openstreetmap.org. The data is made available under ODbL."}, "elements": [{"type": "node", "id": 410449821, "lat": 42.4046512, "lon": 12.8598984, "tags": {"amenity": "restaurant", "name": "L'osteria"}}, {"type": "node", "id": 430461679, "lat": 42.1350966, "lon": 12.6019674}, {"type": "node", "id": 430461689, "lat": 42.1349123, "lon": 12.6018613}, {"type": "node", "id": 430461692, "lat": 42.1346311, "lon": 12.6027498}, {"type": "node", "id": 430461694, "lat": 42.1348153, "lon": 12.6028558}, {"type": "node", "id": 500103050, "lat": 42.2453775, "lon": 12.6342721, "tags": {"amenity": "cafe"}}, {"type": "node", "id": 506804757, "lat": 42.2366264, "lon": 12.617015, "tags": {"amenity": "cafe", "name": "Bar del'Orso", "outdoor_seating": "yes"}}, {"type": "node", "id": 506804761, "lat": 42.2369918, "lon": 12.6177843, "tags": {"amenity": "cafe", "name": "Bar Centrale", "outdoor_seating": "yes", "tobacco": "yes"}}, {"type": "node", "id": 551941657, "lat": 42.2297355, "lon": 12.5975197, "tags": {"amenity": "cafe"}}, {"type": "node", "id": 551941662, "lat": 42.2321823, "lon": 12.5944728, "tags": {"amenity": "restaurant"}}, {"type": "node", "id": 551941693, "lat": 42.2321632, "lon": 12.5946616, "tags": {"amenity": "cafe"}}, {"type": "node", "id": 686728690, "lat": 42.1364355, "lon": 12.8069885, "tags": {"addr:city": "Montorio Romano", "addr:housenumber": "76/A", "addr:street": "Via 4 Novembre", "amenity": "cafe", "name": "Bar Lucarelli"}}, {"type": "node", "id": 686994510, "lat": 42.4609654, "lon": 12.9372443}, {"type": "node", "id": 686994512, "lat": 42.4607346, "lon": 12.9372368}, {"type": "node", "id": 686994515, "lat": 42.460733, "lon": 12.9374592}, {"type": "node", "id": 686994518, "lat": 42.4609755, "lon": 12.9374624}, {"type": "node", "id": 687000895, "lat": 42.4571511, "lon": 12.9776836, "tags": {"addr:city": "Terminillo", "addr:housenumber": "18", "addr:street": "Piazza Pian de Valli", "amenity": "cafe", "name": "Bar Roma"}}, {"type": "node", "id": 772599889, "lat": 42.4936126, "lon": 12.8307362}, {"type": "node", "id": 772600132, "lat": 42.4936527, "lon": 12.8306955}, {"type": "node", "id": 772600307, "lat": 42.4936391, "lon": 12.830784}, {"type": "node", "id": 772600399, "lat": 42.4936791, "lon": 12.8307433}, {"type": "node", "id": 784038748, "lat": 42.3695786, "lon": 12.8093399}, {"type": "node", "id": 784039142, "lat": 42.3694845, "lon": 12.8097544}, {"type": "node", "id": 784039471, "lat": 42.3695857, "lon": 12.8096306}, {"type": "node", "id": 784039736, "lat": 42.3694156, "lon": 12.8096798}, {"type": "node", "id": 784039775, "lat": 42.3694889, "lon": 12.8095557}, {"type": "node", "id": 784040173, "lat": 42.3696877, "lon": 12.809458}, {"type": "node", "id": 784040182, "lat": 42.3695686, "lon": 12.8096121}, {"type": "node", "id": 784041870, "lat": 42.3694658, "lon": 12.8095307}, {"type": "node", "id": 789365539, "lat": 42.2501919, "lon": 13.0960954, "tags": {"amenity": "cafe", "name": "Bar Giglio"}}, {"type": "node", "id": 797213112, "lat": 42.0866992, "lon": 12.6072275}, {"type": "node", "id": 797213116, "lat": 42.0866224, "lon": 12.607205}, {"type": "node", "id": 797213118, "lat": 42.0867271, "lon": 12.6071614}, {"type": "node", "id": 797213119, "lat": 42.0867327, "lon": 12.6073236}, {"type": "node", "id": 797213121, "lat": 42.0866435, "lon": 12.6073521}, {"type": "node", "id": 797213124, "lat": 42.0867077, "lon": 12.6072821}, {"type": "node", "id": 797213125, "lat": 42.0867256, "lon": 12.6072769}, {"type": "node", "id": 797213126, "lat": 42.0867371, "lon": 12.607211}, {"type": "node", "id": 797325093, "lat": 42.0866393, "lon": 12.6073128}, {"type": "node", "id": 797325109, "lat": 42.0866316, "lon": 12.6072542}, {"type": "node", "id": 797325110, "lat": 42.0866344, "lon": 12.6072}, {"type": "node", "id": 797325127, "lat": 42.0866608, "lon": 12.6073054}, {"type": "node", "id": 797325129, "lat": 42.0866479, "lon": 12.6072478}, {"type": "node", "id": 802394873, "lat": 42.4611964, "lon": 12.7493149, "tags": {"amenity": "cafe", "contact:email": "greccio2000@libero.it", "contact:mobile": "+39 347 6691129", "name": "Bar Ristoro Greccio 2000", "payment:debit_cards": "yes"}}, {"type": "node", "id": 803583571, "lat": 42.4092315, "lon": 12.7659147, "tags": {"addr:city": "Contigliano", "addr:country": "IT", "addr:housename": "Palazzo Quintiliano", "addr:housenumber": "9", "amenity": "restaurant", "cuisine": "italian", "name": "Ristorante Enoteca Palazzo Quintiliano"}}, {"type": "node", "id": 804321834, "lat": 42.0661503, "lon": 12.9043839, "tags": {"amenity": "restaurant", "name": "Luisella"}}, {"type": "node", "id": 804684491, "lat": 42.0907699, "lon": 12.7749466, "tags": {"amenity": "cafe"}}, {"type": "node", "id": 804953816, "lat": 42.4661394, "lon": 12.7780891, "tags": {"addr:city": "Contigliano", "addr:country": "IT", "addr:housenumber": "9", "addr:street": "Via Montisola", "amenity": "restaurant", "cuisine": "italian", "name": "Trattoria Pizzeria La Contadina", "url": "www.trattorialacontadina.com"}}, {"type": "node", "id": 804997760, "lat": 42.3882082, "lon": 12.85726, "tags": {"addr:city": "Rieti", "addr:country": "IT", "addr:housenumber": "7", "addr:street": "Via Pistignano", "amenity": "restaurant", "name": "La Rocchetta", "phone": "+39 0746 482694"}}, {"type": "node", "id": 807175970, "lat": 42.1424521, "lon": 12.9412614, "tags": {"amenity": "restaurant"}}, {"type": "node", "id": 919770581, "lat": 42.3868044, "lon": 12.948792, "tags": {"amenity": "cafe", "name": "Distratto Caffe"}}, {"type": "node", "id": 919770879, "lat": 42.3871052, "lon": 12.9492372, "tags": {"amenity": "cafe", "name": "Bar Angioino"}}, {"type": "node", "id": 950563249, "lat": 42.3180194, "lon": 12.8530535}, {"type": "node", "id": 950563312, "lat": 42.3182984, "lon": 12.8531862}, {"type": "node", "id": 950563368, "lat": 42.3183352, "lon": 12.8530448}, {"type": "node", "id": 950563392, "lat": 42.3180561, "lon": 12.852912}, {"type": "node", "id": 950624710, "lat": 42.3418268, "lon": 12.8451644}, {"type": "node", "id": 950624814, "lat": 42.3418613, "lon": 12.8452431}, {"type": "node", "id": 950624834, "lat": 42.3413103, "lon": 12.8451915}, {"type": "node", "id": 950624857, "lat": 42.3417886, "lon": 12.8455581}, {"type": "node", "id": 950624897, "lat": 42.3413121, "lon": 12.8453735}, {"type": "node", "id": 993512258, "lat": 42.1312771, "lon": 12.9375598, "tags": {"amenity": "cafe"}}, {"type": "node", "id": 999642425, "lat": 42.2736703, "lon": 12.6397988, "tags": {"amenity": "cafe", "name": "Da Alessio"}}, {"type": "node", "id": 1139558330, "lat": 42.1711143, "lon": 12.5889344, "tags": {"addr:housenumber": "24", "addr:street": "Via Luigi Giustiniani", "amenity": "cafe", "name": "Piercaff\u00e8", "opening_hours": "Mo-Sa 06:30-20:00", "phone": "+39 0765 480989"}}, {"type": "node", "id": 1188454826, "lat": 42.1033061, "lon": 12.6382753, "tags": {"amenity": "restaurant", "name": "Mensa"}}, {"type": "node", "id": 1298321730, "lat": 42.4044199, "lon": 12.8624152, "tags": {"amenity": "cafe", "name": "Un Attimo"}}, {"type": "node", "id": 1298374401, "lat": 42.4025159, "lon": 12.8596151, "tags": {"addr:housenumber": "154", "addr:street": "Via Cintia", "amenity": "restaurant", "check_date": "2024-01-23", "description:it": "ristorante, pizzeria, tavola calda", "name": "CINTIA Ristorante Pizzeria", "opening_hours": "Tu-Fr 18:30-22:30; Sa 18:30-23:30; Su 10:00-14:30"}}, {"type": "node", "id": 1307012886, "lat": 42.3987681, "lon": 12.8605849, "tags": {"addr:city": "Rieti", "addr:country": "IT", "addr:housenumber": "53", "addr:street": "Via Porta Romana", "amenity": "restaurant", "name": "Pizzeria Mancini Rita"}}, {"type": "node", "id": 1307012895, "lat": 42.3981904, "lon": 12.8599334, "tags": {"addr:city": "Rieti", "addr:country": "IT", "addr:housenumber": "3b", "addr:street": "Via Fara Sabina", "amenity": "cafe", "cuisine": "ice_cream", "description:it": "Caffetteria;Pasticceria;Gelateria", "email": "catering.group@tiscali.it", "name": "Giada", "operator": "Catering Group srl", "phone": "+39 0746 483209", "smoking": "no"}}, {"type": "node", "id": 1488281265, "lat": 42.3769266, "lon": 13.0030769, "tags": {"amenity": "restaurant", "cuisine": "italian", "name": "Albergo Ristorante i tre Orsacchiotti", "source": "journey"}}, {"type": "node", "id": 1588819798, "lat": 42.2579453, "lon": 12.7450931, "tags": {"amenity": "restaurant", "cuisine": "regional", "name": "Ristorante Pizzeria"}}, {"type": "node", "id": 1691243775, "lat": 42.1680609, "lon": 12.6725422}, {"type": "node", "id": 1691243788, "lat": 42.1681084, "lon": 12.6723999}, {"type": "node", "id": 1691243813, "lat": 42.1682811, "lon": 12.6726759}, {"type": "node", "id": 1691243823, "lat": 42.1683285, "lon": 12.6725337}, {"type": "node", "id": 1707475805, "lat": 42.0657494, "lon": 12.7673236, "tags": {"amenity": "restaurant", "name": "Annamaria"}}, {"type": "node", "id": 1707727515, "lat": 42.4000207, "lon": 12.8609741, "tags": {"amenity": "cafe", "name": "Bar Marinelli", "wifi": "no"}}, {"type": "node", "id": 1708195832, "lat": 42.0694554, "lon": 12.7642539, "tags": {"addr:postcode": "00018", "addr:street": "Viale Risorgimento", "amenity": "restaurant", "cuisine": "sushi", "name": "Marube sushi", "website": "https://www.marubesushi.com/"}}, {"type": "node", "id": 1729693765, "lat": 42.0950137, "lon": 12.9073262}, {"type": "node", "id": 1729693776, "lat": 42.0951601, "lon": 12.9074749}, {"type": "node", "id": 1729693840, "lat": 42.0949773, "lon": 12.9073968}, {"type": "node", "id": 1729693853, "lat": 42.0951237, "lon": 12.907542}, {"type": "node", "id": 1750111124, "lat": 42.2560057, "lon": 12.6383819}, {"type": "node", "id": 1750111138, "lat": 42.2561391, "lon": 12.6379966}, {"type": "node", "id": 1750111140, "lat": 42.2558585, "lon": 12.6382888}, {"type": "node", "id": 1750111141, "lat": 42.2559919, "lon": 12.6379036}, {"type": "node", "id": 1773572692, "lat": 42.4594873, "lon": 12.9759047}, {"type": "node", "id": 1773572693, "lat": 42.4595111, "lon": 12.975798}, {"type": "node", "id": 1773572699, "lat": 42.4598272, "lon": 12.9760437}, {"type": "node", "id": 1773572701, "lat": 42.4598509, "lon": 12.975937}, {"type": "node", "id": 1914115432, "lat": 42.1282397, "lon": 12.93539, "tags": {"amenity": "restaurant"}}, {"type": "node", "id": 1914115433, "lat": 42.1315036, "lon": 12.9378176, "tags": {"amenity": "restaurant"}}, {"type": "node", "id": 1959056238, "lat": 42.07406, "lon": 12.5971839}, {"type": "node", "id": 1959056242, "lat": 42.0741255, "lon": 12.5970852}, {"type": "node", "id": 1959056246, "lat": 42.0741332, "lon": 12.5972722}, {"type": "node", "id": 1959056248, "lat": 42.0741988, "lon": 12.5971839}, {"type": "node", "id": 1983481160, "lat": 42.0550129, "lon": 12.620549, "tags": {"amenity": "restaurant", "cuisine": "pizza", "name": "Pizza Rotondo"}}, {"type": "node", "id": 1987633621, "lat": 42.0575095, "lon": 12.6217084, "tags": {"amenity": "cafe", "name": "Toninho"}}, {"type": "node", "id": 1987634153, "lat": 42.0575708, "lon": 12.6215232, "tags": {"amenity": "restaurant", "cuisine": "italian"}}, {"type": "node", "id": 1987634171, "lat": 42.0576343, "lon": 12.6215576, "tags": {"amenity": "cafe"}}, {"type": "node", "id": 1987640599, "lat": 42.0570382, "lon": 12.6243494, "tags": {"amenity": "cafe"}}, {"type": "node", "id": 1988838559, "lat": 42.0532892, "lon": 12.6204237, "tags": {"amenity": "cafe"}}, {"type": "node", "id": 1990134311, "lat": 42.0632501, "lon": 12.6166764, "tags": {"amenity": "restaurant", "cuisine": "chinese;japanese", "name": "Kotuki"}}, {"type": "node", "id": 1996921008, "lat": 42.0529366, "lon": 12.6149477, "tags": {"amenity": "cafe"}}, {"type": "node", "id": 1996943527, "lat": 42.0528132, "lon": 12.6170871, "tags": {"amenity": "cafe"}}, {"type": "node", "id": 1996943534, "lat": 42.0529126, "lon": 12.6163845, "tags": {"amenity": "cafe"}}, {"type": "node", "id": 2122846948, "lat": 42.3039805, "lon": 12.7393143, "tags": {"amenity": "restaurant", "name": "Agriturismo Monte Tancia"}}, {"type": "node", "id": 2125263323, "lat": 42.1587452, "lon": 12.9640386, "tags": {"amenity": "cafe"}}, {"type": "node", "id": 2311901833, "lat": 42.3981906, "lon": 12.8643466, "tags": {"amenity": "restaurant", "check_date": "2024-01-24", "cuisine": "italian", "diet:Carne": "yes", "name": "Cava18", "phone": "+39 0746 481848", "wheelchair": "yes"}}, {"type": "node", "id": 2431868543, "lat": 42.1558102, "lon": 12.5730264}, {"type": "node", "id": 2431868562, "lat": 42.1556392, "lon": 12.5731713}, {"type": "node", "id": 2431868614, "lat": 42.1559196, "lon": 12.5732517}, {"type": "node", "id": 2431868620, "lat": 42.1557466, "lon": 12.5734019}, {"type": "node", "id": 2504133625, "lat": 42.3148039, "lon": 12.6185641}, {"type": "node", "id": 2504134133, "lat": 42.3148889, "lon": 12.6186293}, {"type": "node", "id": 2504252015, "lat": 42.2234652, "lon": 12.7159935}, {"type": "node", "id": 2504252018, "lat": 42.223352, "lon": 12.7158112}, {"type": "node", "id": 2504252020, "lat": 42.2234546, "lon": 12.7156985}, {"type": "node", "id": 2504252022, "lat": 42.2235605, "lon": 12.7158755}, {"type": "node", "id": 2532674159, "lat": 42.3882546, "lon": 12.9521403, "tags": {"amenity": "restaurant", "cuisine": "italian", "name": "La Torre"}}, {"type": "node", "id": 2532674160, "lat": 42.3878388, "lon": 12.9508475, "tags": {"amenity": "restaurant", "cuisine": "italian", "name": "Pasta da Leoni", "website": "http://www.pastadaleoni.it/"}}, {"type": "node", "id": 2533522439, "lat": 42.3875624, "lon": 12.9501362, "tags": {"amenity": "cafe"}}, {"type": "node", "id": 2533523440, "lat": 42.3886391, "lon": 12.9533308, "tags": {"amenity": "cafe"}}, {"type": "node", "id": 2533523493, "lat": 42.3881959, "lon": 12.9535231, "tags": {"addr:city": "Cittaducale", "addr:housenumber": "1", "addr:postcode": "02015", "addr:street": "Viale degli Abruzzi", "amenity": "cafe", "name": "Bar Ducale", "outdoor_seating": "yes", "phone": "+39 0746 605023"}}, {"type": "node", "id": 2533526986, "lat": 42.3822951, "lon": 12.9588748, "tags": {"amenity": "restaurant", "name": "La Tagliata"}}, {"type": "node", "id": 2656080333, "lat": 42.2268095, "lon": 12.7231642, "tags": {"amenity": "restaurant", "cuisine": "cucina_sabina", "name": "Azienda agricola Zucchegni"}}, {"type": "node", "id": 2763593211, "lat": 42.4057083, "lon": 12.8565776, "tags": {"amenity": "restaurant", "cuisine": "pizza", "name": "Pizzeria Il Viale", "phone": "+39 0746 271790"}}, {"type": "node", "id": 2763661395, "lat": 42.4396441, "lon": 12.8060689, "tags": {"amenity": "restaurant", "name": "Colle Aluffi"}}, {"type": "node", "id": 3010363848, "lat": 42.2734235, "lon": 12.925404, "tags": {"addr:city": "Rocca Sinibalda", "addr:housenumber": "7", "addr:postcode": "02026", "addr:street": "via Roma", "amenity": "cafe", "cuisine": "breakfast", "name": "L'incontro", "outdoor_seating": "yes", "owner": "Margherita Scipioni", "phone": "+39 0765 1893326"}}, {"type": "node", "id": 3010363849, "lat": 42.2747145, "lon": 12.9254899, "tags": {"addr:city": "Rocca Sinibalda", "addr:housenumber": "4", "addr:postcode": "02026", "addr:street": "via Roma", "amenity": "cafe", "name": "Bar La nuvola"}}, {"type": "node", "id": 3010363851, "lat": 42.2742382, "lon": 12.9257205, "tags": {"amenity": "restaurant"}}, {"type": "node", "id": 3101187573, "lat": 42.1094202, "lon": 12.5658265, "tags": {"addr:city": "Castelnuovo di Porto", "addr:housenumber": "20", "addr:postcode": "00060", "addr:street": "Via dei Bersaglieri", "amenity": "restaurant", "name": "Dai Nobili"}}, {"type": "node", "id": 3134657039, "lat": 42.1604383, "lon": 12.8420093}, {"type": "node", "id": 3134657040, "lat": 42.1602475, "lon": 12.8417878}, {"type": "node", "id": 3134657041, "lat": 42.1601582, "lon": 12.8419116}, {"type": "node", "id": 3134657042, "lat": 42.1603574, "lon": 12.8421412}, {"type": "node", "id": 3179756682, "lat": 42.2558338, "lon": 12.6828042}, {"type": "node", "id": 3179756683, "lat": 42.2558579, "lon": 12.6828556}, {"type": "node", "id": 3179756684, "lat": 42.2558879, "lon": 12.6828368}, {"type": "node", "id": 3179756685, "lat": 42.2560101, "lon": 12.6831107}, {"type": "node", "id": 3179756687, "lat": 42.2558564, "lon": 12.6832412}, {"type": "node", "id": 3179756688, "lat": 42.2556991, "lon": 12.6829159}, {"type": "node", "id": 3179756689, "lat": 42.2559311, "lon": 12.6831789}, {"type": "node", "id": 3180490862, "lat": 42.242471, "lon": 12.6333493}, {"type": "node", "id": 3180490863, "lat": 42.2424584, "lon": 12.6335286}, {"type": "node", "id": 3180490865, "lat": 42.2423252, "lon": 12.6333289}, {"type": "node", "id": 3180490945, "lat": 42.2404132, "lon": 12.6339117}, {"type": "node", "id": 3180490946, "lat": 42.2404241, "lon": 12.6341307}, {"type": "node", "id": 3180490947, "lat": 42.2403807, "lon": 12.6341364}, {"type": "node", "id": 3180490948, "lat": 42.2403294, "lon": 12.6340932}, {"type": "node", "id": 3180490949, "lat": 42.240324, "lon": 12.6339564}, {"type": "node", "id": 3180490950, "lat": 42.240327, "lon": 12.6339353}, {"type": "node", "id": 3180490951, "lat": 42.2403373, "lon": 12.6339239}, {"type": "node", "id": 3180491074, "lat": 42.2404154, "lon": 12.6341318}, {"type": "node", "id": 3186330969, "lat": 42.2423247, "lon": 12.6333362}, {"type": "node", "id": 3186330972, "lat": 42.2423129, "lon": 12.6335404}, {"type": "node", "id": 3186429038, "lat": 42.2754847, "lon": 12.6412864, "tags": {"addr:city": "Poggio Catino", "addr:postcode": "02040", "addr:street": "SS 313 Ternana", "amenity": "restaurant", "name": "Ristorante La Casina nel Parco"}}, {"type": "node", "id": 3187636746, "lat": 42.2956582, "lon": 12.690663, "tags": {"addr:city": "Poggio Catino", "addr:housenumber": "1", "addr:postcode": "02040", "addr:street": "piazza Indipendenza", "amenity": "cafe", "cuisine": "italian", "internet_access": "yes", "name": "Friend's Bar", "phone": "+39 0765 411256"}}, {"type": "node", "id": 3207989345, "lat": 42.2327884, "lon": 12.6475114, "tags": {"amenity": "restaurant", "name": "Ristorante Poggio degli Ulivi"}}, {"type": "node", "id": 3211601279, "lat": 42.2579047, "lon": 12.6850734, "tags": {"amenity": "cafe", "name": "Cafeteria"}}, {"type": "node", "id": 3211601294, "lat": 42.2585194, "lon": 12.6862992, "tags": {"amenity": "cafe", "name": "Cafeteria"}}, {"type": "node", "id": 3247438306, "lat": 42.4019012, "lon": 12.566795, "tags": {"amenity": "restaurant"}}, {"type": "node", "id": 3299884861, "lat": 42.1147692, "lon": 12.5868956, "tags": {"amenity": "restaurant", "name": "Agor\u00e0"}}, {"type": "node", "id": 3371434693, "lat": 42.0636884, "lon": 12.5958166, "tags": {"amenity": "cafe", "name": "Snack Bar", "tobacco": "yes"}}, {"type": "node", "id": 3491951321, "lat": 42.1294668, "lon": 12.9370811, "tags": {"amenity": "cafe"}}, {"type": "node", "id": 3669051325, "lat": 42.4421257, "lon": 13.0763205, "tags": {"amenity": "restaurant"}}, {"type": "node", "id": 3672480025, "lat": 42.1233032, "lon": 12.5880956, "tags": {"amenity": "restaurant", "name": "Trattoria Paoletto"}}, {"type": "node", "id": 3672480125, "lat": 42.1214968, "lon": 12.5904036, "tags": {"addr:city": "Capena", "addr:housenumber": "km 17", "addr:postcode": "00060", "addr:street": "Via Tiberina", "amenity": "restaurant", "name": "Duecento grammi", "phone": "+39 06 9074094", "website": "http://www.duecentogrammi.it"}}, {"type": "node", "id": 3691131222, "lat": 42.2600171, "lon": 12.640758, "tags": {"addr:city": "Poggio mirteto", "addr:postcode": "02047", "addr:street": "Via Santa Lucia", "amenity": "restaurant", "cuisine": "italian", "name": "Terra Sabina", "source": "GPS", "website": "www.terrasabina.it"}}, {"type": "node", "id": 3736432142, "lat": 42.4985417, "lon": 12.8492768}, {"type": "node", "id": 3736432143, "lat": 42.4985889, "lon": 12.8494301}, {"type": "node", "id": 3736432144, "lat": 42.4984806, "lon": 12.8494915}, {"type": "node", "id": 3736432145, "lat": 42.4984334, "lon": 12.8493382}, {"type": "node", "id": 3880527194, "lat": 42.403286, "lon": 12.856265, "tags": {"amenity": "restaurant", "cuisine": "pizza", "name": "La Taverna dei Fabbri"}}, {"type": "node", "id": 3880527195, "lat": 42.404006, "lon": 12.8568861, "tags": {"amenity": "restaurant", "name": "Pizzeria Il nuovo secolo"}}, {"type": "node", "id": 3880527197, "lat": 42.4025395, "lon": 12.856487, "tags": {"amenity": "restaurant", "name": "Mab\u00ec"}}, {"type": "node", "id": 3880778710, "lat": 42.4047281, "lon": 12.8709599, "tags": {"amenity": "cafe", "name": "Alexius Cafe"}}, {"type": "node", "id": 3880999975, "lat": 42.4015643, "lon": 12.8635598, "tags": {"amenity": "cafe", "name": "Caff\u00e8 Letterario"}}, {"type": "node", "id": 3880999998, "lat": 42.4023144, "lon": 12.8622973, "tags": {"amenity": "restaurant", "name": "Il carro", "opening_hours": "PH,We-Mo 12:30-16:30,19:30-22:00"}}, {"type": "node", "id": 3880999999, "lat": 42.403376, "lon": 12.863491, "tags": {"amenity": "restaurant", "name": "La Piazzetta di Felice"}}, {"type": "node", "id": 3881000000, "lat": 42.4032899, "lon": 12.861704, "tags": {"amenity": "restaurant", "name": "Da Checco al Calice D'Oro"}}, {"type": "node", "id": 3881000001, "lat": 42.4025652, "lon": 12.8612158, "tags": {"amenity": "cafe", "name": "Gengarelli"}}, {"type": "node", "id": 3881000002, "lat": 42.4024009, "lon": 12.8601975, "tags": {"amenity": "cafe", "name": "Quattro Stagioni"}}, {"type": "node", "id": 3881000008, "lat": 42.4005575, "lon": 12.8615394, "tags": {"amenity": "restaurant", "cuisine": "pizza", "name": "Pizza al taglio"}}, {"type": "node", "id": 3882125560, "lat": 42.4029108, "lon": 12.8587435, "tags": {"amenity": "restaurant", "name": "Le Lumiere"}}, {"type": "node", "id": 3882125566, "lat": 42.404666, "lon": 12.8564082, "tags": {"amenity": "restaurant", "name": "Il Rugantino"}}, {"type": "node", "id": 3882125602, "lat": 42.3968119, "lon": 12.8591208, "tags": {"amenity": "restaurant", "name": "Pizzeria Lu Bermontese"}}, {"type": "node", "id": 3883449641, "lat": 42.4152238, "lon": 12.8561614, "tags": {"amenity": "restaurant", "cuisine": "pizza", "name": "Trattoria Pizzeria da Ciccio"}}, {"type": "node", "id": 3889006218, "lat": 42.4036767, "lon": 12.8633744, "tags": {"amenity": "restaurant", "name": "Baccus"}}, {"type": "node", "id": 3889133225, "lat": 42.4038294, "lon": 12.8659824, "tags": {"amenity": "cafe", "name": "Bar del Campione"}}, {"type": "node", "id": 3889133279, "lat": 42.4051239, "lon": 12.8704875, "tags": {"amenity": "restaurant", "name": "Gelateria Pizzeria Giacomelli"}}, {"type": "node", "id": 3908323579, "lat": 42.4045271, "lon": 12.8620719, "tags": {"amenity": "restaurant", "name": "Pizzeria"}}, {"type": "node", "id": 3915106807, "lat": 42.2510545, "lon": 12.763648, "tags": {"addr:city": "Mompeo", "addr:postcode": "02040", "addr:street": "Voc. Madonna del Mattone", "amenity": "restaurant", "capacity": "200", "cuisine": "regional;pizza", "name": "Ristorante Pizzeria \"da Ciccio\"", "opening_hours": "sempre aperto", "smoking": "outside", "takeaway": "yes"}}, {"type": "node", "id": 3930320056, "lat": 42.4009262, "lon": 12.856447, "tags": {"amenity": "restaurant", "name": "Il Coccio"}}, {"type": "node", "id": 3950514496, "lat": 42.2484273, "lon": 12.7532956, "tags": {"amenity": "cafe", "name": "I Dardanelli"}}, {"type": "node", "id": 3955196310, "lat": 42.164984, "lon": 12.8423403, "tags": {"addr:city": "Scandriglia", "addr:postcode": "02038", "amenity": "cafe", "internet_access": "wlan", "smoking": "no"}}, {"type": "node", "id": 3955223562, "lat": 42.1642012, "lon": 12.8437753, "tags": {"amenity": "cafe"}}, {"type": "node", "id": 3955225572, "lat": 42.1613192, "lon": 12.8431526, "tags": {"amenity": "cafe", "name": "Bar Moderno"}}, {"type": "node", "id": 4166486732, "lat": 42.3977684, "lon": 12.8598638, "tags": {"amenity": "restaurant", "cuisine": "italian", "name": "Nostrale"}}, {"type": "node", "id": 4166487538, "lat": 42.40199, "lon": 12.8621273, "tags": {"amenity": "restaurant", "cuisine": "regional", "name": "Cantina Centro Italia"}}, {"type": "node", "id": 4204356389, "lat": 42.2086587, "lon": 12.7191103}, {"type": "node", "id": 4204356390, "lat": 42.2087014, "lon": 12.7189815}, {"type": "node", "id": 4204356391, "lat": 42.2087253, "lon": 12.7190794}, {"type": "node", "id": 4204356392, "lat": 42.208763, "lon": 12.7194885}, {"type": "node", "id": 4204356393, "lat": 42.20877, "lon": 12.7189721}, {"type": "node", "id": 4204356394, "lat": 42.2087849, "lon": 12.7190459}, {"type": "node", "id": 4204356395, "lat": 42.2088067, "lon": 12.7190821}, {"type": "node", "id": 4204356396, "lat": 42.2088345, "lon": 12.7190821}, {"type": "node", "id": 4204356397, "lat": 42.2088445, "lon": 12.7190942}, {"type": "node", "id": 4204356398, "lat": 42.2089279, "lon": 12.7193932}, {"type": "node", "id": 4318137540, "lat": 42.5009472, "lon": 12.8529407, "tags": {"addr:city": "Rivodutri", "addr:housenumber": "21", "addr:postcode": "02010", "addr:street": "Via Santa Susanna", "amenity": "restaurant", "cuisine": "italian", "name": "Parco Alle Noci", "tourism": "hotel", "website": "http://www.parcoallenoci.it/"}}, {"type": "node", "id": 4323228291, "lat": 42.1325612, "lon": 13.0505733, "tags": {"addr:postcode": "02022", "addr:street": "Via Roma", "amenity": "restaurant", "name": "Trattoria Pizzeria La Campagnola", "phone": "+39 0765 98083"}}, {"type": "node", "id": 4323241791, "lat": 42.1340516, "lon": 13.0489731, "tags": {"addr:postcode": "02022", "addr:street": "Via Santa Maria", "amenity": "restaurant", "name": "Trattoria Pizzeria La Quercia", "phone": "+39 0765 98165"}}, {"type": "node", "id": 4323244290, "lat": 42.1364877, "lon": 13.0474746, "tags": {"addr:postcode": "02022", "addr:street": "Via IV Novembre", "amenity": "restaurant", "name": "Ristorante Belvedere"}}, {"type": "node", "id": 4408388740, "lat": 42.1211595, "lon": 12.5914821, "tags": {"addr:city": "Capena", "addr:postcode": "00060", "addr:street": "Via Tiberina", "amenity": "restaurant", "brand": "Old Wild West", "brand:wikidata": "Q25402475", "contact:email": "capena@oldwildwest.it", "contact:phone": "+39 06 90380781", "cuisine": "american", "name": "Old Wild West"}}, {"type": "node", "id": 4408410113, "lat": 42.1000983, "lon": 12.5811617, "tags": {"addr:street": "Via Tiberina", "amenity": "cafe", "contact:phone": "+39 339 869 1999", "name": "Lo Chalet"}}, {"type": "node", "id": 4408428550, "lat": 42.1181971, "lon": 12.5887302, "tags": {"amenity": "cafe"}}, {"type": "node", "id": 4453114417, "lat": 42.1017795, "lon": 12.5824577, "tags": {"amenity": "cafe"}}, {"type": "node", "id": 4504939726, "lat": 42.0478844, "lon": 12.639261, "tags": {"addr:housenumber": "50", "addr:street": "Via Cannetacci", "amenity": "restaurant", "name": "New Life"}}, {"type": "node", "id": 4510852862, "lat": 42.0471128, "lon": 12.6453358, "tags": {"addr:street": "Via Giacomo Manz\u00f9", "amenity": "restaurant", "name": "La Taverna Dei Ghiottoni", "phone": "+39 06 909 3603"}}, {"type": "node", "id": 4510918346, "lat": 42.0488624, "lon": 12.6460904, "tags": {"amenity": "cafe"}}, {"type": "node", "id": 4547688230, "lat": 42.05144, "lon": 12.6148495, "tags": {"addr:housenumber": "21", "addr:street": "Via Enrico Vitali", "amenity": "restaurant", "cuisine": "greek", "name": "Kalap\u00e0 Specialit\u00e0 greche", "phone": "+39 06 8937 6044"}}, {"type": "node", "id": 4554543910, "lat": 42.0550992, "lon": 12.5783795, "tags": {"addr:housenumber": "264", "addr:street": "Via Salaria", "amenity": "restaurant", "contact:phone": "+39 06 9006 9340", "cuisine": "barbecue;pizza", "name": "Il Gatto ai Sette Archi"}}, {"type": "node", "id": 4554553405, "lat": 42.0524624, "lon": 12.5738171, "tags": {"amenity": "cafe"}}, {"type": "node", "id": 4555798007, "lat": 42.0538516, "lon": 12.5805552, "tags": {"addr:housenumber": "31", "addr:street": "Via San Domenico", "amenity": "restaurant", "name": "La Villetta", "phone": "+39 06 906 9149", "website": "ristorante-lavilletta.com"}}, {"type": "node", "id": 4555798030, "lat": 42.055658, "lon": 12.5800322, "tags": {"amenity": "cafe"}}, {"type": "node", "id": 4560074390, "lat": 42.0622414, "lon": 12.5894346, "tags": {"amenity": "cafe"}}, {"type": "node", "id": 4678527267, "lat": 42.4642085, "lon": 12.9018115, "tags": {"amenity": "cafe", "name": "Bar mp3"}}, {"type": "node", "id": 4679409574, "lat": 42.1586978, "lon": 12.5896919}, {"type": "node", "id": 4679409575, "lat": 42.1587736, "lon": 12.5896784}, {"type": "node", "id": 4679409576, "lat": 42.1586724, "lon": 12.5895461}, {"type": "node", "id": 4679409577, "lat": 42.1587482, "lon": 12.5895325}, {"type": "node", "id": 4679409578, "lat": 42.1587402, "lon": 12.5894723}, {"type": "node", "id": 4679409579, "lat": 42.1587822, "lon": 12.5897436}, {"type": "node", "id": 4679409580, "lat": 42.1587071, "lon": 12.5897618}, {"type": "node", "id": 4679409581, "lat": 42.158665, "lon": 12.5894905}, {"type": "node", "id": 4679409582, "lat": 42.1584589, "lon": 12.5897498}, {"type": "node", "id": 4679409583, "lat": 42.1588124, "lon": 12.589669}, {"type": "node", "id": 4679409584, "lat": 42.1587928, "lon": 12.5895217}, {"type": "node", "id": 4679409585, "lat": 42.1584393, "lon": 12.5896025}, {"type": "node", "id": 4723236574, "lat": 42.4053888, "lon": 12.8124848, "tags": {"addr:housenumber": "18", "addr:street": "Via Criano", "amenity": "restaurant", "cuisine": "pizza", "name": "Pizzeria Il Picchio Allegro", "website": "http://www.picchioallegro.com"}}, {"type": "node", "id": 4755913074, "lat": 42.3311056, "lon": 12.6045312, "tags": {"amenity": "cafe"}}, {"type": "node", "id": 4755914080, "lat": 42.3228264, "lon": 12.5903603}, {"type": "node", "id": 4755914081, "lat": 42.3228175, "lon": 12.5905337}, {"type": "node", "id": 4755914082, "lat": 42.3227039, "lon": 12.5905555}, {"type": "node", "id": 4755914083, "lat": 42.3226631, "lon": 12.5904307}, {"type": "node", "id": 4755916085, "lat": 42.3196429, "lon": 12.6225651, "tags": {"addr:city": "Selci", "addr:housenumber": "7", "addr:postcode": "02040", "addr:street": "Via Roma", "amenity": "cafe", "cuisine": "italian", "name": "Art Caff\u00e8", "phone": "+3907651935621"}}, {"type": "node", "id": 4780740920, "lat": 42.5016442, "lon": 12.8878598, "tags": {"addr:city": "Poggio Bustone", "addr:housenumber": "2", "addr:postcode": "02018", "addr:street": "Via Umberto 1", "amenity": "restaurant", "name": "L'Antico Arco", "phone": "+3903356199169", "website": "http://www.osterialanticoarco.it"}}, {"type": "node", "id": 4798578421, "lat": 42.4104647, "lon": 12.6655339, "tags": {"addr:city": "Rieti", "addr:housenumber": "33", "addr:postcode": "02040", "addr:street": "Via Collelungo Cottanello", "amenity": "restaurant", "cuisine": "grill;local", "internet_access": "wlan", "name": "La Locanda di Frandino", "name:it": "La Locanda di Frandino", "phone": "+39 3277095353"}}, {"type": "node", "id": 4808487046, "lat": 42.4012051, "lon": 12.8573704, "tags": {"amenity": "restaurant", "cuisine": "pizza", "name": "La Mattera"}}, {"type": "node", "id": 4856602734, "lat": 42.405746, "lon": 12.8628357, "tags": {"amenity": "cafe", "name": "Snack bar", "opening_hours": "Mo-Sa 07:00-20:00"}}, {"type": "node", "id": 4879492749, "lat": 42.3892254, "lon": 12.8550809, "tags": {"amenity": "restaurant", "name": "Trattoria Pizzeria Lo Scoiattolo"}}, {"type": "node", "id": 4880781411, "lat": 42.4347951, "lon": 12.8877803, "tags": {"addr:housenumber": "51", "addr:street": "Via Foresta", "amenity": "restaurant", "name": "La Foresta"}}, {"type": "node", "id": 4880781420, "lat": 42.4322385, "lon": 12.8850082, "tags": {"amenity": "restaurant", "name": "Papilla"}}, {"type": "node", "id": 4920430496, "lat": 42.4040193, "lon": 12.862712}, {"type": "node", "id": 4920430497, "lat": 42.4040466, "lon": 12.8629489}, {"type": "node", "id": 4920430498, "lat": 42.4041786, "lon": 12.8629206}, {"type": "node", "id": 4920430499, "lat": 42.4041538, "lon": 12.8626853}, {"type": "node", "id": 4920474559, "lat": 42.435853, "lon": 12.7708563}, {"type": "node", "id": 4920474560, "lat": 42.4359132, "lon": 12.7709311}, {"type": "node", "id": 4920474561, "lat": 42.4359056, "lon": 12.770941}, {"type": "node", "id": 4920474562, "lat": 42.4359351, "lon": 12.7709737}, {"type": "node", "id": 4920474563, "lat": 42.4358896, "lon": 12.7710452}, {"type": "node", "id": 4920474564, "lat": 42.4359275, "lon": 12.7710896}, {"type": "node", "id": 4920474565, "lat": 42.4358756, "lon": 12.7711712}, {"type": "node", "id": 4920474566, "lat": 42.4357533, "lon": 12.7710281}, {"type": "node", "id": 4920485229, "lat": 42.4819423, "lon": 12.7148862}, {"type": "node", "id": 4920485230, "lat": 42.4819039, "lon": 12.7150171}, {"type": "node", "id": 4920485231, "lat": 42.4818316, "lon": 12.7150046}, {"type": "node", "id": 4920485232, "lat": 42.4819382, "lon": 12.7148241}, {"type": "node", "id": 5016938846, "lat": 42.2956005, "lon": 12.8590135, "tags": {"amenity": "restaurant", "name": "Ristorante Regina"}}, {"type": "node", "id": 5055737215, "lat": 42.1495438, "lon": 12.5925565, "tags": {"addr:city": "Fiano Romano", "addr:housenumber": "47", "addr:postcode": "00065", "addr:street": "Via Tiberina", "amenity": "restaurant", "contact:phone": "+39 0765 481133", "name": "La Fiorentina"}}, {"type": "node", "id": 5055758970, "lat": 42.1670167, "lon": 12.5876895, "tags": {"addr:city": "Fiano Romano", "addr:housenumber": "126", "addr:postcode": "00065", "addr:street": "Via Tiberina", "amenity": "restaurant", "contact:phone": "+39 333 592 5279", "name": "Primi della Classe"}}, {"type": "node", "id": 5062908950, "lat": 42.4218111, "lon": 12.9070435, "tags": {"amenity": "cafe"}}, {"type": "node", "id": 5067627665, "lat": 42.0554137, "lon": 12.6312388, "tags": {"amenity": "restaurant", "cuisine": "pizza;italian", "name": "IL Maculato"}}, {"type": "node", "id": 5067695659, "lat": 42.0525144, "lon": 12.6142491, "tags": {"addr:city": "Monterotondo", "addr:postcode": "00015", "addr:street": "Piazza del Popolo", "amenity": "restaurant", "cuisine": "pizza;italian", "name": "Dei Leoni"}}, {"type": "node", "id": 5089653226, "lat": 42.123554, "lon": 12.6165993, "tags": {"amenity": "restaurant", "name": "Sarni"}}, {"type": "node", "id": 5125040121, "lat": 42.0652834, "lon": 12.5952587, "tags": {"amenity": "restaurant", "name": "La Forchetta Matta", "name:it": "La Forchetta Matta"}}, {"type": "node", "id": 5158767804, "lat": 42.408217, "lon": 12.8498363, "tags": {"addr:street": "Via Molino della Salce", "amenity": "restaurant", "check_date:opening_hours": "2024-09-03", "cuisine": "pizza", "diet:halal": "no", "diet:kosher": "no", "diet:vegan": "yes", "diet:vegetarian": "yes", "name": "Pizzeria La Parmigiana", "opening_hours": "Mo-Sa 10:00-20:00", "takeaway": "only", "wheelchair": "yes"}}, {"type": "node", "id": 5189625670, "lat": 42.117118, "lon": 12.77048}, {"type": "node", "id": 5189751834, "lat": 42.1235704, "lon": 12.6184389, "tags": {"amenity": "restaurant", "name": "Sarni", "opening_hours": "Mo-Su 00:00-24:00"}}, {"type": "node", "id": 5330290881, "lat": 42.4758059, "lon": 12.7631288, "tags": {"amenity": "restaurant", "cuisine": "regional;italian", "name": "Agriturismo Le Chiuse di Reopasto"}}, {"type": "node", "id": 5484682421, "lat": 42.2209903, "lon": 12.7185088, "tags": {"addr:city": "Farfa in Sabina", "addr:housenumber": "8", "addr:postcode": "02032", "addr:street": "Via di Prta Montopoli", "amenity": "restaurant", "cuisine": "regional", "name": "Lupi Luigi & Figli"}}, {"type": "node", "id": 5484682422, "lat": 42.2211373, "lon": 12.7183063, "tags": {"addr:city": "Farfa in Sabina", "addr:housenumber": "12", "addr:postcode": "02032", "addr:street": "Via di Prta Montopoli", "amenity": "restaurant", "cuisine": "regional", "name": "Da Lupi"}}, {"type": "node", "id": 5573654642, "lat": 42.4167604, "lon": 12.9025876}, {"type": "node", "id": 5573654643, "lat": 42.4167228, "lon": 12.9029524}, {"type": "node", "id": 5573654644, "lat": 42.4168035, "lon": 12.9029676}, {"type": "node", "id": 5573654645, "lat": 42.4168412, "lon": 12.9026028}, {"type": "node", "id": 5584259379, "lat": 42.1425863, "lon": 12.7335504, "tags": {"addr:city": "Montelibretti", "addr:housenumber": "5", "addr:street": "Piazza Giacomo Matteotti", "amenity": "restaurant", "name": "Osteria del Castello"}}, {"type": "node", "id": 5584406409, "lat": 42.136104, "lon": 12.7375362}, {"type": "node", "id": 5584406410, "lat": 42.1359804, "lon": 12.7376134}, {"type": "node", "id": 5584406411, "lat": 42.1360301, "lon": 12.73777}, {"type": "node", "id": 5584406412, "lat": 42.1361538, "lon": 12.7376866}, {"type": "node", "id": 5598000848, "lat": 42.4668751, "lon": 12.9009741, "tags": {"addr:city": "Cantalice", "addr:housenumber": "123", "addr:postcode": "02014", "addr:street": "Via Costa", "amenity": "restaurant", "name": "Ristorante Pizzeria la Pannocchia", "website": "https://www.ristorantepizzerialapannocchia.it/"}}, {"type": "node", "id": 5633377516, "lat": 42.4813023, "lon": 12.8309158, "tags": {"amenity": "restaurant", "cuisine": "italian", "name": "Tenuta i due Laghi", "tourism": "guest_house"}}, {"type": "node", "id": 5633377520, "lat": 42.4840949, "lon": 12.8351735, "tags": {"amenity": "restaurant", "name": "Hostaria \"TRIO s.n.c.\""}}, {"type": "node", "id": 5633377721, "lat": 42.4778807, "lon": 12.8634369, "tags": {"amenity": "restaurant", "name": "Agriturismo La Collina", "tourism": "guest_house"}}, {"type": "node", "id": 5645368304, "lat": 42.2075917, "lon": 12.9473918, "tags": {"addr:city": "Colle di Tora", "addr:country": "IT", "addr:housenumber": "3", "addr:postcode": "02020", "addr:street": "via dello Sport", "amenity": "restaurant", "name": "Il Grottino", "opening_hours": "Mo, We-Su 11:00-15:00, 18:00-23:00", "phone": "+393494932740"}}, {"type": "node", "id": 5646035760, "lat": 42.2079455, "lon": 12.9477221}, {"type": "node", "id": 5646035761, "lat": 42.2080178, "lon": 12.9477215}, {"type": "node", "id": 5646035762, "lat": 42.2080174, "lon": 12.9476353}, {"type": "node", "id": 5646035763, "lat": 42.2079702, "lon": 12.9476357}, {"type": "node", "id": 5646035764, "lat": 42.20797, "lon": 12.9475922}, {"type": "node", "id": 5646035765, "lat": 42.2078143, "lon": 12.9475936}, {"type": "node", "id": 5646035766, "lat": 42.2078156, "lon": 12.9478659}, {"type": "node", "id": 5646035767, "lat": 42.2079462, "lon": 12.9478647}, {"type": "node", "id": 5783238361, "lat": 42.2719145, "lon": 13.0612421, "tags": {"amenity": "restaurant", "name": "Il Pescatore"}}, {"type": "node", "id": 5784778169, "lat": 42.198998, "lon": 12.652211, "tags": {"addr:city": "Montopoli di Sabina", "addr:housenumber": "101", "addr:postcode": "02034", "addr:street": "Strada statale 313 Ternana", "amenity": "restaurant", "name": "Ristorante Casale del Farfa", "restaurant": "restaurant"}}, {"type": "node", "id": 5834307585, "lat": 42.0880371, "lon": 12.7169174}, {"type": "node", "id": 5834307586, "lat": 42.0881979, "lon": 12.7168463}, {"type": "node", "id": 5834307587, "lat": 42.0881243, "lon": 12.7167727}, {"type": "node", "id": 5834307588, "lat": 42.0881235, "lon": 12.7170123}, {"type": "node", "id": 5863380432, "lat": 42.3751626, "lon": 12.6247034, "tags": {"amenity": "cafe"}}, {"type": "node", "id": 5863395886, "lat": 42.3314227, "lon": 12.6043163, "tags": {"amenity": "restaurant", "cuisine": "italian", "name": "L'Oasi"}}, {"type": "node", "id": 5863398136, "lat": 42.3275456, "lon": 12.6064499, "tags": {"amenity": "restaurant", "cuisine": "regional", "name": "La Pineta"}}, {"type": "node", "id": 5863500084, "lat": 42.384943, "lon": 12.5682927, "tags": {"amenity": "restaurant", "cuisine": "regional", "name": "IL boschetto", "outdoor_seating": "yes"}}, {"type": "node", "id": 5863719795, "lat": 42.3318822, "lon": 12.9660317, "tags": {"addr:street": "Via dell'Immagine", "amenity": "cafe", "name": "Roxy Bar", "opening_hours": "Mo-Sa 08:00-20:00", "outdoor_seating": "yes"}}, {"type": "node", "id": 5867788211, "lat": 42.3448792, "lon": 12.5980328, "tags": {"amenity": "restaurant", "name": "I due melograni"}}, {"type": "node", "id": 5868251092, "lat": 42.3236352, "lon": 12.9503918}, {"type": "node", "id": 5868251093, "lat": 42.3236669, "lon": 12.950609}, {"type": "node", "id": 5868251094, "lat": 42.3238018, "lon": 12.9505607}, {"type": "node", "id": 5868251095, "lat": 42.3237819, "lon": 12.9504696}, {"type": "node", "id": 5868251096, "lat": 42.3238077, "lon": 12.9504615}, {"type": "node", "id": 5868251097, "lat": 42.3237799, "lon": 12.9503381}, {"type": "node", "id": 5889300229, "lat": 42.3889616, "lon": 12.8626194, "tags": {"amenity": "restaurant", "cuisine": "italian;pizza;regional", "name": "Ristorante pizzeria Fonte Cottorella"}}, {"type": "node", "id": 5908210510, "lat": 42.3994692, "lon": 12.8621674, "tags": {"amenity": "cafe", "name": "Caff\u00e8 Vecchi Tempi"}}, {"type": "node", "id": 5908210514, "lat": 42.3994133, "lon": 12.8606177, "tags": {"amenity": "cafe", "name": "Gran Caff\u00e8 La Lira"}}, {"type": "node", "id": 5908210787, "lat": 42.3991987, "lon": 12.861054, "tags": {"amenity": "restaurant", "name": "Pizzeria da Poldo"}}, {"type": "node", "id": 5949604085, "lat": 42.4076139, "lon": 12.8653138, "tags": {"addr:city": "Rieti", "addr:housenumber": "42", "addr:postcode": "02100", "addr:street": "Via Angelo Maria Ricci", "amenity": "cafe", "name": "Bar Lume Caf\u00e8", "opening_hours": "Mo-Su 07:00-21:00", "phone": "+390746218591", "website": "https://barlumecafe.business.site/"}}, {"type": "node", "id": 6029637486, "lat": 42.4026603, "lon": 12.8603014, "tags": {"addr:housenumber": "15", "addr:street": "Piazza Vittorio Emanuele II", "amenity": "cafe", "name": "Caff\u00e8 Cleri"}}, {"type": "node", "id": 6038867285, "lat": 42.3996592, "lon": 12.8621427, "tags": {"amenity": "cafe", "name": "Bonobo"}}, {"type": "node", "id": 6163940609, "lat": 42.4818656, "lon": 12.7147892}, {"type": "node", "id": 6163940610, "lat": 42.4817639, "lon": 12.7147549}, {"type": "node", "id": 6163940611, "lat": 42.4818445, "lon": 12.714764}, {"type": "node", "id": 6163940635, "lat": 42.4817151, "lon": 12.7149611}, {"type": "node", "id": 6326882212, "lat": 42.1206002, "lon": 12.5903073, "tags": {"amenity": "cafe", "name": "Irma Bar"}}, {"type": "node", "id": 6385302336, "lat": 42.1089601, "lon": 12.8320851, "tags": {"amenity": "restaurant", "cuisine": "pizza;regional;italian;seafood", "name": "Ristorante da Zi Peppe"}}, {"type": "node", "id": 6385302337, "lat": 42.1112186, "lon": 12.8345098, "tags": {"amenity": "restaurant", "cuisine": "pizza;regional;italian", "name": "Ristorante Da Federico"}}, {"type": "node", "id": 6385302338, "lat": 42.1071294, "lon": 12.8248941, "tags": {"amenity": "restaurant", "cuisine": "pizza;regional;italian", "name": "Ristorante da Lorenzo allo scapicollo"}}, {"type": "node", "id": 6385373750, "lat": 42.140084, "lon": 12.8062872, "tags": {"amenity": "restaurant", "cuisine": "pizza;regional;italian", "name": "A corte"}}, {"type": "node", "id": 6385373751, "lat": 42.1403226, "lon": 12.8048093, "tags": {"amenity": "restaurant", "name": "I tre monti"}}, {"type": "node", "id": 6404699447, "lat": 42.4000299, "lon": 12.8598915, "tags": {"amenity": "restaurant", "name": "Le Tre Porte"}}, {"type": "node", "id": 6427585153, "lat": 42.1283679, "lon": 12.5769335, "tags": {"amenity": "cafe", "name": "Caff\u00e8 Mola 51"}}, {"type": "node", "id": 6427587746, "lat": 42.1347319, "lon": 12.5801949, "tags": {"amenity": "cafe", "name": "Pit Stop"}}, {"type": "node", "id": 6427595918, "lat": 42.1440158, "lon": 12.5945415, "tags": {"amenity": "cafe", "name": "Fieni"}}, {"type": "node", "id": 6427604266, "lat": 42.1398622, "lon": 12.5966783, "tags": {"addr:housenumber": "2", "addr:street": "Via Milano", "amenity": "cafe", "contact:email": "info@caffecristallo.com", "contact:phone": "+39 0765 460942", "contact:website": "http://www.caffecristallo.com/", "name": "Caff\u00e8 Cristallo"}}, {"type": "node", "id": 6483905705, "lat": 42.2041632, "lon": 12.7097328}, {"type": "node", "id": 6483905706, "lat": 42.2041707, "lon": 12.7093004}, {"type": "node", "id": 6483905707, "lat": 42.2040024, "lon": 12.7094772}, {"type": "node", "id": 6483905708, "lat": 42.204299, "lon": 12.7095565}, {"type": "node", "id": 6501810475, "lat": 42.3065589, "lon": 12.6213137, "tags": {"amenity": "restaurant", "name": "Angoletto"}}, {"type": "node", "id": 6549378567, "lat": 42.0745608, "lon": 12.7038485, "tags": {"addr:city": "Cretone", "addr:postcode": "00018", "addr:street": "Viale Roma", "amenity": "cafe", "cuisine": "coffee_shop;ice_cream", "internet_access": "no", "name": "Serrecchia", "outdoor_seating": "yes", "phone": "+39 0774 615739"}}, {"type": "node", "id": 6557072286, "lat": 42.063422, "lon": 12.5906245, "tags": {"addr:housenumber": "156", "addr:postcode": "00015", "addr:street": "Via Salaria", "amenity": "restaurant", "name": "MondoPizza"}}, {"type": "node", "id": 6715393820, "lat": 42.3563776, "lon": 12.6745909, "tags": {"amenity": "cafe", "name": "Bar Tabacchi Santa Maria", "tobacco": "yes"}}, {"type": "node", "id": 6723127705, "lat": 42.2363044, "lon": 12.6187929, "tags": {"addr:housenumber": "1", "addr:street": "Piazza Giacomo Matteotti", "amenity": "restaurant", "cuisine": "italian", "name": "Castello Torrita"}}, {"type": "node", "id": 6800081518, "lat": 42.2549463, "lon": 13.0335743}, {"type": "node", "id": 6800081519, "lat": 42.2549225, "lon": 13.0337191}, {"type": "node", "id": 6800081520, "lat": 42.2545929, "lon": 13.0336118}, {"type": "node", "id": 6800081521, "lat": 42.2545651, "lon": 13.0336816}, {"type": "node", "id": 6800081522, "lat": 42.2544976, "lon": 13.0336386}, {"type": "node", "id": 6800081523, "lat": 42.2545334, "lon": 13.0334509}, {"type": "node", "id": 6970205234, "lat": 42.1196738, "lon": 12.7023983, "tags": {"amenity": "restaurant", "name": "Ristorante La Muraccia"}}, {"type": "node", "id": 7116496672, "lat": 42.1719068, "lon": 12.5917729}, {"type": "node", "id": 7116496673, "lat": 42.1719261, "lon": 12.5918558}, {"type": "node", "id": 7116496674, "lat": 42.1718827, "lon": 12.5918743}, {"type": "node", "id": 7116496675, "lat": 42.1718634, "lon": 12.5917913}, {"type": "node", "id": 7128865168, "lat": 42.3808176, "lon": 12.6469561, "tags": {"amenity": "restaurant", "name": "Solo per Due"}}, {"type": "node", "id": 7147500686, "lat": 42.4533649, "lon": 12.5250423, "tags": {"amenity": "restaurant", "name": "Trattoria Bar Da Sara Di Cianchini Raviso", "name:it": "Trattoria Bar Da Sara Di Cianchini Raviso", "opening_hours": "Th-Tu 07:00-00:00"}}, {"type": "node", "id": 7169828617, "lat": 42.4572673, "lon": 12.9772051, "tags": {"amenity": "restaurant", "name": "Paninoteca Panillo"}}, {"type": "node", "id": 7469485976, "lat": 42.2795871, "lon": 12.8487947, "tags": {"addr:city": "Ornaro Alto", "amenity": "restaurant", "name": "Ristorante Le Coste", "phone": "+39 0765 703014"}}, {"type": "node", "id": 7469548426, "lat": 42.2521708, "lon": 12.8435758, "tags": {"addr:city": "Poggio San Lorenzo", "amenity": "restaurant", "name": "Bar Trattoria da Alvero"}}, {"type": "node", "id": 7472593962, "lat": 42.2048733, "lon": 12.8790677, "tags": {"addr:city": "Poggio Moiano", "addr:housenumber": "13", "addr:postcode": "02037", "addr:street": "Viale Alessandro Manzoni", "amenity": "restaurant", "name": "Ristorante Maria Fontana", "phone": "+39 3331233524"}}, {"type": "node", "id": 7472593964, "lat": 42.2026784, "lon": 12.8780669, "tags": {"addr:city": "Poggio Moiano", "addr:housenumber": "42", "addr:postcode": "02037", "addr:street": "Viale Umberto I", "amenity": "restaurant", "cuisine": "pizza", "name": "L'incontro", "phone": "+39 0765876739"}}, {"type": "node", "id": 7472593967, "lat": 42.2023321, "lon": 12.8778141, "tags": {"addr:city": "Poggio Moiano", "addr:street": "Viale Umberto I", "amenity": "cafe", "name": "Bar"}}, {"type": "node", "id": 7472593968, "lat": 42.2015849, "lon": 12.8774629, "tags": {"addr:city": "Poggio Moiano", "addr:housenumber": "2", "addr:postcode": "02037", "addr:street": "Via Giuseppe Garibaldi", "amenity": "restaurant", "cuisine": "pizza", "name": "Il Palazzaccio", "phone": "+39 340 843 0863"}}, {"type": "node", "id": 7472657016, "lat": 42.1741063, "lon": 12.8129912, "tags": {"addr:city": "Ponticelli Sabino", "addr:postcode": "02038", "addr:street": "Piazza Madonna delle Grazie", "amenity": "restaurant", "cuisine": "pizza", "name": "Bar Pizzeria La Torre", "phone": "+39 0765 681093"}}, {"type": "node", "id": 7472818559, "lat": 42.1644003, "lon": 12.7695636, "tags": {"addr:city": "Nerola", "addr:housenumber": "3", "addr:street": "Via Fonte Calamaro", "amenity": "restaurant", "name": "Agriturismo Del Sole"}}, {"type": "node", "id": 7472881400, "lat": 42.1651037, "lon": 12.7474828, "tags": {"addr:city": "Acqaviva", "addr:housenumber": "74", "addr:postcode": "00017", "addr:street": "Via Salaria Vecchia", "amenity": "cafe", "name": "Caffe' Giulio Cesare"}}, {"type": "node", "id": 7472881402, "lat": 42.1638174, "lon": 12.7429585, "tags": {"addr:city": "Acquaviva", "addr:housenumber": "109", "addr:postcode": "00017", "addr:street": "Via Salaria Vecchia", "amenity": "restaurant", "name": "Il Giardino", "phone": "+39 0774 640140"}}, {"type": "node", "id": 7472994512, "lat": 42.1330204, "lon": 12.7224208, "tags": {"addr:city": "vigna grande", "amenity": "restaurant", "name": "Torres Enoteca"}}, {"type": "node", "id": 7472994513, "lat": 42.1330958, "lon": 12.7223264, "tags": {"addr:city": "Montelibretti", "addr:street": "strada provinciale 26 a", "amenity": "restaurant", "name": "Uniko"}}, {"type": "node", "id": 7474588227, "lat": 42.0505839, "lon": 12.6223004, "tags": {"addr:city": "Monterotondo", "addr:postcode": "00015", "addr:street": "Viale Bruno Buozzi", "amenity": "cafe", "name": "Vittoria Palace"}}, {"type": "node", "id": 7474588229, "lat": 42.0520644, "lon": 12.6195322, "tags": {"addr:city": "Monterotondo", "addr:housenumber": "12", "addr:postcode": "00015", "addr:street": "Piazza Roma", "amenity": "restaurant", "name": "L'Officina"}}, {"type": "node", "id": 7490506940, "lat": 42.4009694, "lon": 12.8634584, "tags": {"amenity": "cafe", "cuisine": "pizza", "name": "Da Pasquina"}}, {"type": "node", "id": 7684536245, "lat": 42.2205623, "lon": 12.9699558, "tags": {"addr:street": "Via Rio", "amenity": "restaurant", "name": "Agriturismo Ristorante La Posta"}}, {"type": "node", "id": 7684682684, "lat": 42.2155698, "lon": 12.9646851, "tags": {"amenity": "restaurant", "name": "I Sapori del Borgo"}}, {"type": "node", "id": 8109664047, "lat": 42.1411585, "lon": 12.6023619, "tags": {"addr:city": "Fiano Romano", "addr:housenumber": "17", "addr:postcode": "00065", "addr:street": "Via Milano", "addr:unit": "U", "amenity": "cafe", "cuisine": "coffee_shop", "internet_access": "wlan", "internet_access:fee": "customers", "name": "Bean Machine Coffee", "outdoor_seating": "yes"}}, {"type": "node", "id": 8127548828, "lat": 42.1647859, "lon": 12.5870605, "tags": {"addr:city": "Fiano Romano", "addr:housenumber": "22", "addr:postcode": "00065", "addr:street": "Via Guido Rossa", "amenity": "cafe", "outdoor_seating": "yes"}}, {"type": "node", "id": 8191164651, "lat": 42.1643427, "lon": 12.5872064, "tags": {"addr:city": "Fiano Romano", "addr:housenumber": "36", "addr:postcode": "00065", "addr:street": "Via Guido Rossa", "amenity": "restaurant", "cuisine": "pizza", "name": "Bar Pizza Paradiso"}}, {"type": "node", "id": 8195092985, "lat": 42.1352602, "lon": 13.1292254, "tags": {"addr:city": "Pietrasecca", "addr:housenumber": "8", "addr:postcode": "76061", "addr:street": "Piazza Grande", "amenity": "restaurant", "contact:facebook": "Terraemadre2015", "cuisine": "local;regional", "name": "Terrae Madre", "opening_hours": "Fr-Sa 11:00-00:00; Su 11:00-15:00", "phone": "+39 086 31858185;+39 338 587 7167", "website": "https://terrae-madre.business.site"}}, {"type": "node", "id": 8195106404, "lat": 42.1343834, "lon": 13.1291521, "tags": {"addr:city": "Pietrasecca", "addr:housenumber": "20", "addr:postcode": "76061", "addr:street": "Via Alessandro Volta", "amenity": "restaurant", "name": "Pinseria il terzo posto", "phone": "+393457852846"}}, {"type": "node", "id": 8293924062, "lat": 42.3203881, "lon": 12.6922951, "tags": {"amenity": "cafe", "name": "La Tana del Branco"}}, {"type": "node", "id": 8293924063, "lat": 42.3200687, "lon": 12.6955945, "tags": {"amenity": "restaurant", "name": "Trattoria del Compare"}}, {"type": "node", "id": 8411536578, "lat": 42.099698, "lon": 12.6463126, "tags": {"amenity": "cafe"}}, {"type": "node", "id": 8411920947, "lat": 42.1416673, "lon": 12.735097, "tags": {"amenity": "cafe"}}, {"type": "node", "id": 8411921142, "lat": 42.1381947, "lon": 12.7352448, "tags": {"amenity": "cafe", "name": "Il Chiosco"}}, {"type": "node", "id": 8411921178, "lat": 42.1372413, "lon": 12.7372408, "tags": {"amenity": "cafe"}}, {"type": "node", "id": 8412087282, "lat": 42.1293629, "lon": 12.7346724, "tags": {"amenity": "cafe"}}, {"type": "node", "id": 8412087297, "lat": 42.1326345, "lon": 12.7233147, "tags": {"amenity": "cafe"}}, {"type": "node", "id": 8418002141, "lat": 42.1571002, "lon": 12.6634873, "tags": {"addr:city": "Passo Corese", "addr:street": "Via Maestri del Lavoro", "amenity": "restaurant", "cuisine": "pizza", "name": "Puro Pizza and Food"}}, {"type": "node", "id": 8422563727, "lat": 42.2211133, "lon": 12.6555014, "tags": {"amenity": "cafe"}}, {"type": "node", "id": 8446810085, "lat": 42.1717586, "lon": 12.5926818, "tags": {"amenity": "cafe"}}, {"type": "node", "id": 8446939122, "lat": 42.1649521, "lon": 12.5875244, "tags": {"addr:city": "Fiano Romano", "addr:postcode": "00065", "addr:street": "Via Vittorio Bachelet", "amenity": "cafe", "name": "Eden Bar"}}, {"type": "node", "id": 8447031294, "lat": 42.166998, "lon": 12.5873729, "tags": {"addr:city": "Fiano Romano", "addr:postcode": "00065", "amenity": "restaurant", "cuisine": "pizza", "name": "Pizzeria Ferilli"}}, {"type": "node", "id": 8447031295, "lat": 42.167341, "lon": 12.5872737, "tags": {"amenity": "cafe"}}, {"type": "node", "id": 8447031296, "lat": 42.1679344, "lon": 12.587275, "tags": {"amenity": "cafe"}}, {"type": "node", "id": 8447157489, "lat": 42.169098, "lon": 12.5939666, "tags": {"addr:city": "Fiano Romano", "addr:postcode": "00065", "amenity": "restaurant", "cuisine": "pizza"}}, {"type": "node", "id": 8454804064, "lat": 42.1746207, "lon": 12.6213756, "tags": {"addr:city": "Fiano Romano", "amenity": "restaurant", "cuisine": "pizza;italian;steak_house", "name": "Beef"}}, {"type": "node", "id": 8459302473, "lat": 42.1589273, "lon": 12.6566226, "tags": {"addr:city": "Passo Corese", "amenity": "cafe"}}, {"type": "node", "id": 8476337940, "lat": 42.1605242, "lon": 12.590201, "tags": {"amenity": "cafe"}}, {"type": "node", "id": 8480299271, "lat": 42.1558545, "lon": 12.6475007, "tags": {"addr:city": "Passo Corese", "amenity": "cafe"}}, {"type": "node", "id": 8513051339, "lat": 42.1560181, "lon": 12.6532448, "tags": {"amenity": "cafe"}}, {"type": "node", "id": 8620527397, "lat": 42.1715831, "lon": 12.5909434, "tags": {"addr:city": "Fiano Romano", "addr:postcode": "00065", "amenity": "cafe", "name": "Bar Paciotti"}}, {"type": "node", "id": 8676938238, "lat": 42.195931, "lon": 12.5815106, "tags": {"amenity": "cafe"}}, {"type": "node", "id": 8749890925, "lat": 42.5161035, "lon": 13.0946827, "tags": {"amenity": "restaurant", "name": "Cento 11"}}, {"type": "node", "id": 8874576374, "lat": 42.0958153, "lon": 12.9118337, "tags": {"addr:street": "Via Roma", "amenity": "cafe", "brand": "Portioli", "name": "Il Chiosco", "opening_hours": "Mo-Su 08:00-22:00", "outdoor_seating": "yes", "sells:ice_cream": "yes", "toilets": "yes"}}, {"type": "node", "id": 8898702030, "lat": 42.0947631, "lon": 12.9092644, "tags": {"addr:city": "Percile", "addr:housenumber": "6", "addr:postcode": "00020", "addr:street": "Piazza Garibaldi", "amenity": "cafe", "name": "Caf\u00e8 della Piazza", "operator": "Leonilde Luttazi", "outdoor_seating": "yes", "ref:vatin": "IT13941371000"}}, {"type": "node", "id": 9062045917, "lat": 42.1625268, "lon": 12.7352557, "tags": {"amenity": "restaurant", "name": "Agriturismo e frantoio Palmieri", "website": "agriturismoefrantoiopalmieri.it/"}}, {"type": "node", "id": 9348642904, "lat": 42.1527755, "lon": 12.6528738, "tags": {"amenity": "restaurant", "cuisine": "pizza", "name": "Pizza Etoile"}}, {"type": "node", "id": 9352323404, "lat": 42.4148102, "lon": 12.8957354, "tags": {"amenity": "cafe"}}, {"type": "node", "id": 9352323406, "lat": 42.4143827, "lon": 12.8936613, "tags": {"amenity": "restaurant", "cuisine": "pizza", "name": "Ristorante \"Il pappamondo\"", "outdoor_seating": "yes", "reservation": "recommended", "takeaway": "yes"}}, {"type": "node", "id": 9487234245, "lat": 42.1384179, "lon": 12.5985971, "tags": {"amenity": "cafe", "cuisine": "coffee_shop;pizza", "name": "Il traguardo"}}, {"type": "node", "id": 9498589048, "lat": 42.4000843, "lon": 12.855246, "tags": {"amenity": "cafe", "name": "Pasticceria Pierantoni"}}, {"type": "node", "id": 9597559721, "lat": 42.4050529, "lon": 12.860293, "tags": {"amenity": "restaurant", "cuisine": "italian", "name": "Cuor di bufala", "shop": "department_store"}}, {"type": "node", "id": 9603882823, "lat": 42.4125775, "lon": 12.8953, "tags": {"amenity": "restaurant", "cuisine": "italian", "name": "Pizzeria - La sosta", "reservation": "recommended", "takeaway": "yes"}}, {"type": "node", "id": 9603882826, "lat": 42.4160273, "lon": 12.8968509, "tags": {"amenity": "restaurant", "name": "Classio - Restaurant"}}, {"type": "node", "id": 9604000724, "lat": 42.265496, "lon": 12.6888751, "tags": {"amenity": "cafe", "name": "OM"}}, {"type": "node", "id": 9613579561, "lat": 42.4091359, "lon": 12.8827773, "tags": {"amenity": "restaurant", "name": "Ristorante bevilacqua"}}, {"type": "node", "id": 9624199377, "lat": 42.4084193, "lon": 12.8791049}, {"type": "node", "id": 9624199378, "lat": 42.4083291, "lon": 12.8791165}, {"type": "node", "id": 9624199379, "lat": 42.4083191, "lon": 12.8789727}, {"type": "node", "id": 9624199380, "lat": 42.4084093, "lon": 12.8789612}, {"type": "node", "id": 9641380844, "lat": 42.2644661, "lon": 12.6836986, "tags": {"amenity": "cafe", "name": "Red Bar"}}, {"type": "node", "id": 9641380862, "lat": 42.2661925, "lon": 12.6853242, "tags": {"amenity": "restaurant", "name": "Osteria La Chianina"}}, {"type": "node", "id": 9641380875, "lat": 42.2660578, "lon": 12.6854116, "tags": {"amenity": "cafe", "name": "Caff\u00e8 Marinozzi"}}, {"type": "node", "id": 9682079328, "lat": 42.2550442, "lon": 12.5980398, "tags": {"amenity": "cafe", "name": "Bar"}}, {"type": "node", "id": 9709025338, "lat": 42.3898247, "lon": 12.8326116, "tags": {"addr:city": "Rieti", "addr:housenumber": "17", "addr:street": "via Piani", "amenity": "restaurant", "name": "Cammino Francesco", "website": "https://www.comprimangibevi.it"}}, {"type": "node", "id": 9768866769, "lat": 42.4313338, "lon": 12.8285404}, {"type": "node", "id": 9768866771, "lat": 42.4313166, "lon": 12.8287046}, {"type": "node", "id": 9768866772, "lat": 42.4312517, "lon": 12.828692}, {"type": "node", "id": 9768866773, "lat": 42.4312604, "lon": 12.828609}, {"type": "node", "id": 9768866774, "lat": 42.4312155, "lon": 12.8286003}, {"type": "node", "id": 9768866775, "lat": 42.431224, "lon": 12.8285192}, {"type": "node", "id": 9781714094, "lat": 42.4080044, "lon": 12.7707343, "tags": {"addr:city": "Contigliano", "addr:housenumber": "14/a", "addr:postcode": "02043", "addr:street": "Via della Repubblica", "amenity": "restaurant", "name": "Ristorante Le Vigne", "phone": "+39 0746 706213"}}, {"type": "node", "id": 9861745810, "lat": 42.0657903, "lon": 12.5930969, "tags": {"amenity": "cafe", "name": "De La Vall\u00e9", "outdoor_seating": "yes"}}, {"type": "node", "id": 9961462182, "lat": 42.2619324, "lon": 12.8517819, "tags": {"amenity": "restaurant", "name": "Agriturismo Santa Giusta"}}, {"type": "node", "id": 9961488790, "lat": 42.2528391, "lon": 12.8448532, "tags": {"addr:housenumber": "126", "addr:street": "Via Quinzia", "amenity": "restaurant", "name": "Azienda Agricola Capofarfa", "opening_hours": "\"nach Vereinbarung\"", "phone": "0039765884485", "website": "https://www.capofarfa.it/"}}, {"type": "node", "id": 9968076439, "lat": 42.4119837, "lon": 12.8856835, "tags": {"amenity": "restaurant", "name": "Il Pirata"}}, {"type": "node", "id": 9989087083, "lat": 42.3834107, "lon": 12.6838533, "tags": {"amenity": "restaurant", "cuisine": "pizza;italian", "name": "Mascalzone Sabino"}}, {"type": "node", "id": 9999379817, "lat": 42.2143903, "lon": 12.6008738, "tags": {"addr:housenumber": "Km30", "addr:postcode": "00060", "addr:street": "Via Tiberina", "amenity": "restaurant", "cuisine": "italian;pizza", "email": "ristorante-piccoloparadiso@hotmail.it", "name": "Piccolo Paradiso", "name:en": "Piccolo Paradiso", "name:it": "Piccolo Paradiso", "opening_hours": "Tu-Th 18:00-22:00; Fr-Sa 11:00-23:30; Su 10:00-22:00", "phone": "3804719000", "website": "https://www.ristorantepiccoloparadiso.it/"}}, {"type": "node", "id": 10166732841, "lat": 42.2575676, "lon": 12.7457941, "tags": {"amenity": "restaurant", "name": "Ristorante"}}, {"type": "node", "id": 10180274194, "lat": 42.2314276, "lon": 12.6299049}, {"type": "node", "id": 10180274195, "lat": 42.2312436, "lon": 12.6299469}, {"type": "node", "id": 10180274196, "lat": 42.2312597, "lon": 12.6300751}, {"type": "node", "id": 10180274197, "lat": 42.2314437, "lon": 12.6300331}, {"type": "node", "id": 10536707833, "lat": 42.2401616, "lon": 12.931817, "tags": {"amenity": "restaurant", "cuisine": "italian", "name": "Trattoria da Elena", "phone": "+393470929703"}}, {"type": "node", "id": 10671125770, "lat": 42.169437, "lon": 12.5884018, "tags": {"addr:city": "Fiano Romano", "addr:housenumber": "101", "addr:postcode": "00065", "addr:street": "Via Aldo Moro", "amenity": "cafe", "cuisine": "coffee_shop", "name": "L'angolo del caff\u00e8", "outdoor_seating": "yes"}}, {"type": "node", "id": 10723472838, "lat": 42.1718396, "lon": 12.592034, "tags": {"addr:city": "Fiano Romano", "addr:housenumber": "3", "addr:postcode": "00065", "addr:street": "Via Roma", "amenity": "cafe", "name": "Jeko"}}, {"type": "node", "id": 10845764597, "lat": 42.1867161, "lon": 12.7912348, "tags": {"amenity": "restaurant", "name": "La Grigliata"}}, {"type": "node", "id": 10956947405, "lat": 42.3022652, "lon": 12.7046493, "tags": {"amenity": "restaurant", "name": "La Cisterna (da Marcello)"}}, {"type": "node", "id": 11089088591, "lat": 42.3949541, "lon": 13.0302486, "tags": {"amenity": "restaurant", "name": "da Maria - Bar Pizzeria Trattoria"}}, {"type": "node", "id": 11225204428, "lat": 42.5010757, "lon": 12.8529723}, {"type": "node", "id": 11225204429, "lat": 42.500908, "lon": 12.8531655}, {"type": "node", "id": 11225204430, "lat": 42.5009934, "lon": 12.8532942}, {"type": "node", "id": 11225204431, "lat": 42.5010947, "lon": 12.8532513}, {"type": "node", "id": 11225204432, "lat": 42.5011738, "lon": 12.8531526}, {"type": "node", "id": 11225204433, "lat": 42.5011719, "lon": 12.8529532}, {"type": "node", "id": 11225204434, "lat": 42.5011527, "lon": 12.8529166}, {"type": "node", "id": 11225204435, "lat": 42.5010947, "lon": 12.852938}, {"type": "node", "id": 11260004238, "lat": 42.155247, "lon": 12.6506418, "tags": {"amenity": "cafe"}}, {"type": "node", "id": 11303218680, "lat": 42.2135625, "lon": 12.9623918, "tags": {"amenity": "restaurant", "name": "L'Angoletto"}}, {"type": "node", "id": 11303218684, "lat": 42.2135767, "lon": 12.9667092, "tags": {"amenity": "restaurant", "cuisine": "regional;pizza;italian", "name": "Trattoria Castellani"}}, {"type": "node", "id": 11303218692, "lat": 42.213845, "lon": 12.9718485, "tags": {"amenity": "restaurant", "cuisine": "regional;pizza;italian", "name": "Trattoria Del Tasso"}}, {"type": "node", "id": 11303218697, "lat": 42.213565, "lon": 12.9745464, "tags": {"amenity": "restaurant"}}, {"type": "node", "id": 11407753413, "lat": 42.3147837, "lon": 12.6186164}, {"type": "node", "id": 11407753414, "lat": 42.3147939, "lon": 12.6186236}, {"type": "node", "id": 11407753415, "lat": 42.3147677, "lon": 12.6187065}, {"type": "node", "id": 11407753416, "lat": 42.3147558, "lon": 12.6187427}, {"type": "node", "id": 11407753417, "lat": 42.3146459, "lon": 12.6186207}, {"type": "node", "id": 11407753418, "lat": 42.3146264, "lon": 12.6186529}, {"type": "node", "id": 11407753419, "lat": 42.3147461, "lon": 12.6187858}, {"type": "node", "id": 11407753420, "lat": 42.314811, "lon": 12.6188289}, {"type": "node", "id": 11407753421, "lat": 42.3148446, "lon": 12.6187373}, {"type": "node", "id": 11466687888, "lat": 42.0532774, "lon": 12.6150946, "tags": {"amenity": "restaurant", "cuisine": "pizza"}}, {"type": "node", "id": 11503853136, "lat": 42.1577886, "lon": 12.5895747, "tags": {"amenity": "cafe", "name": "SaM\u00e0"}}, {"type": "node", "id": 11530332659, "lat": 42.0564194, "lon": 12.6173558, "tags": {"addr:city": "Monterotondo", "addr:postcode": "00015", "addr:street": "Via Edmondo Riva", "amenity": "cafe", "name": "Bar Santa Maria"}}, {"type": "node", "id": 11565099365, "lat": 42.1548723, "lon": 12.591935, "tags": {"addr:city": "Fiano Romano", "addr:street": "Via Tiberina", "amenity": "restaurant", "cuisine": "chinese", "name": "Wasabi Go"}}, {"type": "node", "id": 11598514306, "lat": 42.1499783, "lon": 12.5935571, "tags": {"addr:city": "Fiano Romano", "addr:postcode": "00065", "addr:street": "Via Tiberina", "amenity": "restaurant", "name": "Colt de Romania"}}, {"type": "node", "id": 11784772653, "lat": 42.1474151, "lon": 12.6121079, "tags": {"amenity": "cafe"}}, {"type": "node", "id": 11901928506, "lat": 42.3228459, "lon": 12.9586718}, {"type": "node", "id": 11901928507, "lat": 42.3228479, "lon": 12.9588086}, {"type": "node", "id": 11901928508, "lat": 42.3226734, "lon": 12.9588113}, {"type": "node", "id": 11901928509, "lat": 42.3226734, "lon": 12.9586879}, {"type": "node", "id": 11941494171, "lat": 42.2656964, "lon": 12.6887986, "tags": {"addr:city": "Poggio Mirteto", "addr:housenumber": "51", "addr:postcode": "02047", "addr:street": "Viale Giuseppe De Vito", "amenity": "restaurant", "cuisine": "italian", "email": "lapizzeriamimosa@gmail.com", "name": "Pizzeria tavola calda la mimosa", "opening_hours": "Tu-We 10:00-16:00, Th-Sa 10:00-15:00,17:00-22:00", "phone": "+39 0765441274", "website": "https://pizzerialamimosa.eatbu.com"}}, {"type": "node", "id": 11941495327, "lat": 42.2659217, "lon": 12.685507, "tags": {"addr:city": "Poggio Mirteto", "addr:housenumber": "23", "addr:postcode": "02047", "addr:street": "Via Giacomo Matteotti", "amenity": "restaurant", "name": "Osteria La Chianina", "opening_hours": "Mo-Sa 12:00-15:00", "phone": "+39 076522197"}}, {"type": "node", "id": 11941495334, "lat": 42.2648375, "lon": 12.6841876, "tags": {"addr:city": "Poggio Mirteto", "addr:housenumber": "47", "addr:postcode": "02047", "addr:street": "Via Diego Eusebi", "amenity": "restaurant", "name": "Ristorante La Tavernetta", "opening_hours": "Tu-Su,PH 11:00-14:30, 19:30-22:00", "phone": "+39 3394960457", "website": "https://www.menudigitale.io/nafyw"}}, {"type": "node", "id": 11950376622, "lat": 42.0530019, "lon": 12.6217423, "tags": {"addr:city": "Monterotondo", "addr:housenumber": "9/11", "addr:postcode": "00015", "addr:street": "Via della Costituzione", "amenity": "cafe", "name": "Michelangelo Caff\u00e8"}}, {"type": "node", "id": 12002749880, "lat": 42.228572, "lon": 12.6813027, "tags": {"addr:city": "Montopoli di Sabina", "addr:housenumber": "49", "addr:postcode": "02034", "addr:street": "Via Case NuoveGranariMirtense", "amenity": "restaurant", "cuisine": "italian;seafood", "name": "I Granari", "opening_hours": "We-Sa 12:00-15:30, 19:30-22:30; Su 12:00-15:30", "phone": "0765 279490"}}, {"type": "node", "id": 12002752556, "lat": 42.2449557, "lon": 12.6929793, "tags": {"addr:city": "Montopoli di Sabina", "addr:housenumber": "10", "addr:postcode": "02034", "addr:street": "Piazza Vitorio Veneto", "amenity": "restaurant", "name": "La Taverna Dei Corsari", "opening_hours": "Sa, Su 12:30-14:30, 19:00-22:30; Th, Fr 19:00-22:30"}}, {"type": "node", "id": 12015872638, "lat": 42.3798745, "lon": 13.0080003, "tags": {"amenity": "restaurant", "cuisine": "italian", "name": "Ristorante Pizzeria Lago Argentato"}}, {"type": "node", "id": 12020079472, "lat": 42.2489136, "lon": 13.0996299, "tags": {"amenity": "restaurant", "name": "Oasi di Bianca"}}, {"type": "node", "id": 12029083160, "lat": 42.0572378, "lon": 12.6975994, "tags": {"addr:city": "Mentana", "addr:housenumber": "2", "addr:postcode": "00013", "addr:street": "Piazza Giacomo Matteotti", "amenity": "cafe", "contact:facebook": "https://www.facebook.com/p/Bar-Centrale-100063465196110/", "contact:instagram": "https://www.instagram.com/barcentrale_bc/", "email": "felicedomenico@gmail.com", "name": "Bar Centrale", "phone": "+39 06 86661811"}}, {"type": "node", "id": 12029086471, "lat": 42.0574394, "lon": 12.6968986, "tags": {"addr:city": "Mentana", "addr:country": "IT", "addr:housenumber": "15", "addr:postcode": "00013", "addr:street": "Piazza Giacomo Matteotti", "amenity": "cafe", "name": "Bar Follia"}}, {"type": "node", "id": 12037056969, "lat": 42.4069045, "lon": 12.8834679, "tags": {"addr:housenumber": "2", "addr:postcode": "02100", "addr:street": "Via Villa Mari", "amenity": "restaurant", "contact:facebook": "AnticaPentola", "cuisine": "italian;italian_pizza", "name": "L'Antica Pentola", "opening_hours": "Tu-Su 11:00-23:00", "phone": "+393479162639"}}, {"type": "node", "id": 12104528670, "lat": 42.5022545, "lon": 12.8858824, "tags": {"addr:city": "Poggio Bustone", "addr:housenumber": "13", "addr:postcode": "02018", "addr:street": "Via Francescana", "amenity": "restaurant", "name": "La locanda francescana", "operator": "La Locanda Francescana Sas", "ref:vatin": "IT00890980576", "stars": "3"}}, {"type": "node", "id": 12104620788, "lat": 42.1658027, "lon": 12.5886491, "tags": {"amenity": "cafe", "cuisine": "ice_cream", "outdoor_seating": "yes"}}, {"type": "node", "id": 12134108787, "lat": 42.0628797, "lon": 12.5925578, "tags": {"amenity": "cafe", "name": "Caff\u00e8 Moak"}}, {"type": "node", "id": 12134108793, "lat": 42.0633743, "lon": 12.5915295, "tags": {"amenity": "restaurant", "cuisine": "sushi"}}, {"type": "node", "id": 12160829588, "lat": 42.2093705, "lon": 12.7273752, "tags": {"amenity": "cafe", "check_date:opening_hours": "2025-04-20", "name": "Bellvedere Caff\u00e8", "opening_hours:signed": "no"}}, {"type": "node", "id": 12188071501, "lat": 42.2707056, "lon": 13.0611902, "tags": {"addr:housenumber": "13", "addr:postcode": "02025", "addr:street": "Via Francesco Silvi", "amenity": "restaurant", "cuisine": "fish;italian;regional", "email": "miralago@inwind.it", "name": "Miralago", "outdoor_seating": "no", "phone": "+39 0746558062", "website": "http://www.ristorantemiralago.com/"}}, {"type": "node", "id": 12189604958, "lat": 42.1170931, "lon": 12.7705968}, {"type": "node", "id": 12189604959, "lat": 42.1170074, "lon": 12.7705799}, {"type": "node", "id": 12189604960, "lat": 42.1170401, "lon": 12.7703996}, {"type": "node", "id": 12472728760, "lat": 42.1503034, "lon": 12.5926512, "tags": {"amenity": "cafe", "name": "Cov\u00e0 Bar"}}, {"type": "node", "id": 12486820438, "lat": 42.4446478, "lon": 12.753015, "tags": {"amenity": "restaurant", "contact:website": "https://www.ilnidodelcorvo.com/", "name": "Il Nido del Corvo"}}, {"type": "node", "id": 12622843603, "lat": 42.1309762, "lon": 13.0245595, "tags": {"addr:postcode": "02020", "amenity": "restaurant", "contact:facebook": "agriferramosca", "contact:instagram": "agriturismoferramosca", "email": "agriferramosca2000@yahoo.it", "name": "Agriturismo Ferramosca", "phone": "+39 076 5935032;+39 335 520 5087", "tourism": "guest_house", "website": "http://www.agriferramosca.com"}}, {"type": "node", "id": 12630322796, "lat": 42.1651688, "lon": 12.6698329, "tags": {"addr:city": "Fara in Sabina", "addr:country": "IT", "addr:housenumber": "22", "addr:postcode": "02032", "addr:street": "Via dell'Arci", "amenity": "restaurant", "cuisine": "regional", "guest_house": "agritourism", "name": "La Raja", "phone": "+39 0765487036", "website": "https://www.laurafagiolo.it/page-ristorante.php"}}, {"type": "node", "id": 12713519884, "lat": 42.1722519, "lon": 12.6665567, "tags": {"addr:city": "Fara in Sabina", "addr:country": "IT", "addr:housenumber": "28", "addr:postcode": "02032", "addr:street": "Via Farense", "amenity": "cafe", "name": "Cri.Si. Bar"}}, {"type": "node", "id": 12771595684, "lat": 42.4229903, "lon": 12.8628221, "tags": {"addr:city": "Rieti", "addr:housenumber": "107", "addr:postcode": "02100", "addr:street": "Via Angelo Maria Ricci", "amenity": "restaurant", "cuisine": "regional", "email": "trattorialapalazzina1910@gmail.com", "name": "Trattoria La Palazzina", "phone": "+39 074627111", "phone:mobile": "+393714172769"}}, {"type": "way", "id": 37013545, "nodes": [430461679, 430461689, 430461692, 430461694, 430461679], "tags": {"addr:city": "Fiano Romano", "addr:postcode": "00066", "addr:street": "Diramazione Roma Nord", "amenity": "restaurant", "building": "yes", "cuisine": "italian;sandwich", "delivery": "no", "name": "Chef Express Feronia", "outdoor_seating": "no", "takeaway": "yes"}}, {"type": "way", "id": 54546044, "nodes": [686994510, 686994512, 686994515, 686994518, 686994510], "tags": {"amenity": "restaurant", "building": "yes", "name": "Rosce Caffe"}}, {"type": "way", "id": 61972304, "nodes": [772600132, 772600399, 772600307, 772599889, 772600132], "tags": {"amenity": "restaurant", "building": "yes", "cuisine": "regional;burger;sandwich;steak_house", "diet:meat": "yes", "diet:organic": "yes", "name": "Michela Onofri", "phone": "+393288635716"}}, {"type": "way", "id": 63113412, "nodes": [784040173, 784038748, 784041870, 784039775, 784039736, 784039142, 784040182, 784039471, 784040173], "tags": {"amenity": "restaurant", "building": "retail", "contact:email": "ristorante_albersagliere@virgilio.it", "contact:facebook": "ristorantealbersagliere", "contact:mobile": "+39 339 732 7812", "contact:phone": "+39 0746 210051", "contact:website": "http://www.ristorantealbersagliere-rieti.eu/", "cuisine": "regional", "name": "Ristorante Al Bersagliere", "operator": "We-Mo 12:00-22:00;PH closed"}}, {"type": "way", "id": 65157425, "nodes": [797213118, 797213126, 797213112, 797213124, 797213125, 797213119, 797213121, 797325093, 797325127, 797325129, 797325109, 797213116, 797325110, 797213118], "tags": {"amenity": "restaurant", "building": "yes", "cuisine": "italian", "name": "Peppe e Graziella"}}, {"type": "way", "id": 81542494, "nodes": [950563249, 950563392, 950563368, 950563312, 950563249], "tags": {"amenity": "restaurant", "building": "yes", "name": "Trattoria da Maria"}}, {"type": "way", "id": 81545198, "nodes": [950624814, 950624857, 950624897, 950624834, 950624710, 950624814], "tags": {"amenity": "restaurant", "name": "Fontellisola"}}, {"type": "way", "id": 156884513, "nodes": [1691243823, 1691243788, 1691243775, 1691243813, 1691243823], "tags": {"addr:city": "Fara in Sabina", "addr:country": "IT", "addr:housenumber": "30", "addr:postcode": "02032", "addr:street": "Via dell'Arci", "amenity": "restaurant", "building": "house", "building:levels": "1", "contact:facebook": "https://www.facebook.com/martini.eventi/", "fax": "+39 0765 484541", "mobile": "+39 338 2162776", "name": "Villaggio Martini", "phone": "+39 0765 488245", "ref:vatin": "IT09595141004", "website": "http://www.martinieventi.com/villaggio-martini/"}}, {"type": "way", "id": 160998686, "nodes": [1729693840, 1729693853, 1729693776, 1729693765, 1729693840], "tags": {"amenity": "restaurant", "building": "yes", "cuisine": "regional;italian", "name": "Trattoria Carlini", "phone": "+39 339 3724970"}}, {"type": "way", "id": 163274443, "nodes": [1750111124, 1750111138, 1750111141, 1750111140, 1750111124], "tags": {"amenity": "restaurant", "building": "yes"}}, {"type": "way", "id": 165829325, "nodes": [1773572693, 1773572701, 1773572699, 1773572692, 1773572693], "tags": {"amenity": "restaurant", "building": "yes", "name": "Ristorante Sella del Vento"}}, {"type": "way", "id": 185328583, "nodes": [1959056248, 1959056246, 1959056238, 1959056242, 1959056248], "tags": {"amenity": "cafe", "building": "yes", "height": "6", "name": "Bar Tiziana & Paolo"}}, {"type": "way", "id": 235089402, "nodes": [2431868614, 2431868543, 2431868562, 2431868620, 2431868614], "tags": {"amenity": "restaurant", "building": "yes"}}, {"type": "way", "id": 242989338, "nodes": [2504252020, 2504252022, 2504252015, 2504252018, 2504252020], "tags": {"addr:city": "Farfa", "amenity": "restaurant", "cuisine": "regional", "name": "La Badiola"}}, {"type": "way", "id": 308175072, "nodes": [3134657039, 3134657040, 3134657041, 3134657042, 3134657039], "tags": {"amenity": "restaurant", "building": "yes", "cuisine": "pizza", "name": "La fonte", "takeaway": "yes"}}, {"type": "way", "id": 312140265, "nodes": [3179756682, 3179756683, 3179756684, 3179756685, 3179756689, 3179756687, 3179756688, 3179756682], "tags": {"addr:city": "Poggio Mirteto", "addr:housenumber": "2", "addr:postcode": "02047", "addr:street": "Via Provinciale Stazione", "amenity": "restaurant", "building": "yes", "name": "Ristorante Zi' Filippo"}}, {"type": "way", "id": 312204405, "nodes": [3180490862, 3180490863, 3186330972, 3186330969, 3180490865, 3180490862], "tags": {"addr:street": "via Ternana", "amenity": "cafe", "building": "yes", "name": "Bar Cedro del Libano"}}, {"type": "way", "id": 312204419, "nodes": [3180490945, 3180490946, 3180491074, 3180490947, 3180490948, 3180490949, 3180490950, 3180490951, 3180490945], "tags": {"amenity": "cafe", "building": "yes", "name": "Bar dello Sport"}}, {"type": "way", "id": 369905308, "nodes": [3736432142, 3736432143, 3736432144, 3736432145, 3736432142], "tags": {"addr:city": "Rivodutri", "addr:housenumber": "33", "addr:postcode": "02010", "addr:street": "Via S. Susanna", "amenity": "restaurant", "building": "yes", "cuisine": "fish_and_wine", "name": "La Trota", "takeaway": "no", "website": "https://www.latrota.com/"}}, {"type": "way", "id": 420500805, "nodes": [4204356397, 4204356398, 4204356392, 4204356389, 4204356391, 4204356390, 4204356393, 4204356394, 4204356395, 4204356396, 4204356397], "tags": {"amenity": "restaurant", "name": "La Caravella da Positano", "phone": "+39 0765 386016", "website": "https://ristorantelacaravella.net/"}}, {"type": "way", "id": 473909827, "nodes": [4679409581, 4679409578, 4679409577, 4679409584, 4679409583, 4679409575, 4679409579, 4679409580, 4679409574, 4679409582, 4679409585, 4679409576, 4679409581], "tags": {"addr:city": "Fiano Romano", "addr:postcode": "00065", "addr:street": "Via Pier Paolo Pasolini", "amenity": "restaurant", "building": "yes", "cuisine": "italian", "diet:gluten_free": "yes", "diet:vegetarian": "yes", "name": "Mater"}}, {"type": "way", "id": 482798721, "nodes": [4755914080, 4755914081, 4755914082, 4755914083, 4755914080], "tags": {"amenity": "cafe", "building": "yes", "name": "La Mola"}}, {"type": "way", "id": 501163454, "nodes": [4920430496, 4920430497, 4920430498, 4920430499, 4920430496], "tags": {"addr:city": "Rieti", "addr:housenumber": "75", "addr:postcode": "02100", "addr:street": "Piazza Guglielmo Oberdan", "amenity": "cafe", "building": "yes", "name": "Cioccolateria Napoleone", "outdoor_seating": "no", "website": "http://www.CioccolatoNapoleone.it"}}, {"type": "way", "id": 501170398, "nodes": [4920474562, 4920474563, 4920474564, 4920474565, 4920474566]}, {"type": "way", "id": 501170400, "nodes": [4920474566, 4920474559, 4920474560, 4920474561, 4920474562]}, {"type": "way", "id": 501171993, "nodes": [4920485229, 4920485230, 4920485231, 6163940635, 6163940610, 6163940611, 6163940609, 4920485232, 4920485229], "tags": {"amenity": "restaurant", "bar": "yes", "building": "yes", "cuisine": "regional;pizza;coffee_shop;ice_cream;italian", "image": "https://www.google.com/search?tbs=lrf:!1m4!1u2!2m2!2m1!1e1!2m1!1e2!3sIAE,lf:1,lf_ui:9&tbm=lcl&sxsrf=APwXEdcpiyVf3K9a05hsHJG6i_Z7hopoCQ:1687672582668&q=crema%20e%20cioccolato%20stroncone&rflfq=1&num=10&rldimm=11302458773949198634&ved=2ahUKEwjw0aWm3t3_AhXR2", "name": "Crema e cioccolato", "opening_hours": "\"Chiuso tutti i Marted\u00ec di Agosto\"", "takeaway": "yes", "wheelchair": "yes"}}, {"type": "way", "id": 582917519, "nodes": [5573654645, 5573654644, 5573654643, 5573654642, 5573654645], "tags": {"amenity": "cafe", "building": "yes"}}, {"type": "way", "id": 584183341, "nodes": [5584406409, 5584406410, 5584406411, 5584406412, 5584406409], "tags": {"addr:city": "Montelibretti", "addr:housenumber": "33", "addr:street": "Via Giuseppe Garibaldi", "amenity": "restaurant", "building": "yes", "name": "Pizzeria Daniela", "opening_hours": "12:30-17:00, 19:00-24:00", "outdoor_seating": "no", "smoking": "no"}}, {"type": "way", "id": 591386772, "nodes": [5646035767, 5646035766, 5646035765, 5646035764, 5646035763, 5646035762, 5646035761, 5646035760, 5646035767], "tags": {"addr:city": "Colle di Tora", "addr:country": "IT", "addr:housenumber": "4", "addr:postcode": "02020", "addr:street": "Via Turanense", "amenity": "restaurant", "building": "yes", "cuisine": "italian", "email": "silvestriassunta1101@gmail.com", "name": "Trattoria Il Vigneto", "operator": "Maria Assunta Silvestri", "phone": "+39 0765716214", "website": "https://www.trattoriailvigneto.com/"}}, {"type": "way", "id": 617172716, "nodes": [5834307587, 5834307585, 5834307588, 5834307586, 5834307587], "tags": {"amenity": "restaurant", "cuisine": "italian", "name": "Agriturismo La Matta Fattoria", "outdoor_seating": "yes", "takeaway": "no", "toilets": "yes", "toilets:wheelchair": "no"}}, {"type": "way", "id": 621194443, "nodes": [5868251097, 5868251096, 5868251095, 5868251094, 5868251093, 5868251092, 5868251097], "tags": {"amenity": "restaurant", "name": "Valli Rose"}}, {"type": "way", "id": 691042950, "nodes": [6483905706, 6483905707, 6483905705, 6483905708, 6483905706], "tags": {"addr:place": "Coltodino", "addr:postcode": "02030", "amenity": "restaurant", "building": "yes", "name": "Santo Pietro"}}, {"type": "way", "id": 725156891, "nodes": [6800081518, 6800081519, 6800081520, 6800081521, 6800081522, 6800081523, 6800081518], "tags": {"amenity": "restaurant", "building": "yes", "name": "Agriturismo Tenuta del Varco"}}, {"type": "way", "id": 761685855, "nodes": [7116496672, 7116496673, 7116496674, 7116496675, 7116496672], "tags": {"addr:city": "Fiano Romano", "addr:postcode": "00065", "amenity": "cafe", "building": "yes"}}, {"type": "way", "id": 1046563293, "nodes": [9624199380, 9624199379, 9624199378, 9624199377, 9624199380], "tags": {"amenity": "cafe"}}, {"type": "way", "id": 1063503578, "nodes": [9768866769, 9768866771, 9768866772, 9768866773, 9768866774, 9768866775, 9768866769], "tags": {"addr:city": "Rieti", "addr:housenumber": "124", "addr:postcode": "02100", "addr:street": "via Chiesa Nuova", "amenity": "restaurant", "building": "yes", "cuisine": "italian", "name": "Da Serva"}}, {"type": "way", "id": 1112665774, "nodes": [10180274194, 10180274195, 10180274196, 10180274197, 10180274194], "tags": {"amenity": "restaurant", "building": "yes", "name": "Agriturismo La Terrazza Sul Tevere"}}, {"type": "way", "id": 1211614097, "nodes": [11225204428, 11225204429, 11225204430, 11225204431, 11225204432, 11225204433, 11225204434, 11225204435, 11225204428], "tags": {"addr:street": "ingresso all'albergo ristorante  Parco alle noci e il Gambero di  fiume", "amenity": "restaurant", "bar": "yes", "building": "yes", "capacity": "300", "contact:facebook": "https://www.facebook.com/ParcoalleNoci", "cuisine": "regional", "highchair": "yes", "name": "Parco Peppe alle noci - il gambero di fiume", "outdoor_seating": "yes", "payment:cash": "yes", "payment:credit_cards": "yes", "phone": "0746685486", "reservation": "required", "smoking": "outside", "takeaway": "yes", "toilets": "yes", "website": "https://www.parcoallenoci.it/il-gambero-di-fiume", "wheelchair": "yes"}}, {"type": "way", "id": 1230130786, "nodes": [11407753419, 11407753420, 11407753421, 2504134133, 2504133625, 11407753413, 11407753414, 11407753415, 11407753416, 11407753417, 11407753418, 11407753419], "tags": {"addr:city": "Selci", "addr:housenumber": "13", "addr:postcode": "02040", "addr:street": "Via Tenerello", "air_conditioning": "yes", "amenity": "restaurant", "building": "commercial", "contact:facebook": "https://www.facebook.com/ristorantelavecchiaquercia", "cuisine": "regional;pizza", "description": "Il nostro lavoro \u00e8 quello di offrire il perfetto connubio tra ambiente accogliente e familiare, cucina genuina e tradizionale curata in ogni suo dettaglio dalla signora Anna, insieme a relax e natura.", "diet:local": "yes", "diet:meat": "yes", "diet:mediterranean": "yes", "email": "info@lavecchiaquercia.net", "name": "Ristorante La Vecchia Quercia", "opening_hours": "Fr-Sa 12:30-14:30,19:30-22:00; Su, PH 12:30-14:30; Mo-Th off", "outdoor_seating": "yes", "phone": "+39 0765 519207", "ref:vatin": "IT01071390577", "reservation": "recommended", "toilets": "yes", "website": "https://www.lavecchiaquercia.net", "website:menu": "https://www.lavecchiaquercia.net/wp-content/uploads/2022/11/MENU-RISTORANTE-E-PIZZERIA.pdf", "wheelchair": "yes"}}, {"type": "way", "id": 1282571695, "nodes": [11901928506, 11901928507, 11901928508, 11901928509, 11901928506], "tags": {"amenity": "restaurant", "building": "yes", "guest_house": "agritourism", "name": "Azienda Agricola Longhi Eleonora", "operator": "Eleonora Longhi"}}, {"type": "way", "id": 1317080255, "nodes": [5189625670, 12189604958, 12189604959, 12189604960, 5189625670], "tags": {"amenity": "restaurant", "building": "yes"}}, {"type": "relation", "id": 7338319, "members": [{"type": "way", "ref": 501170398, "role": "outer"}, {"type": "way", "ref": 501170400, "role": "outer"}], "tags": {"addr:city": "Spinacceto di Greccio", "amenity": "restaurant", "building": "yes", "cuisine": "regional", "name": "Hosteria di Nonna Gilda", "type": "multipolygon", "website": "http://www.HosteriaDiNonnaGilda.it"}}]}