{"version": 0.6, "generator": "Overpass API 0.7.62.7 375dc00a", "osm3s": {"timestamp_osm_base": "2025-06-14T13:07:51Z", "copyright": "The data included in this document is from www.openstreetmap.org. The data is made available under ODbL."}, "elements": [{"type": "node", "id": 4795600115, "lat": 7.8326281, "lon": 3.924871, "tags": {"addr:street": "Owode-Oyo", "amenity": "restaurant", "name": "Taste and Bite"}}, {"type": "node", "id": 6781683544, "lat": 7.8423151, "lon": 3.9489196}, {"type": "node", "id": 6781683545, "lat": 7.8423392, "lon": 3.949023}, {"type": "node", "id": 6781683546, "lat": 7.8422987, "lon": 3.9490326}, {"type": "node", "id": 6781683547, "lat": 7.8422746, "lon": 3.9489292}, {"type": "node", "id": 6781683581, "lat": 7.8421886, "lon": 3.9492207}, {"type": "node", "id": 6781683582, "lat": 7.8422024, "lon": 3.9492529}, {"type": "node", "id": 6781683583, "lat": 7.8421448, "lon": 3.9492782}, {"type": "node", "id": 6781683584, "lat": 7.842131, "lon": 3.949246}, {"type": "node", "id": 6781697013, "lat": 7.8426128, "lon": 3.9490531, "tags": {"amenity": "restaurant", "cuisine": "african", "name": "Canteens", "opening_hours": "Mo-Fr 08:00-17:00"}}, {"type": "node", "id": 7191630903, "lat": 7.8429529, "lon": 3.9510621, "tags": {"amenity": "cafe", "name": "Lecture Theater"}}, {"type": "node", "id": 7197920600, "lat": 7.843302, "lon": 3.9462586, "tags": {"amenity": "restaurant", "name": "Mama Put"}}, {"type": "node", "id": 7261717563, "lat": 7.8427787, "lon": 3.9472815, "tags": {"amenity": "restaurant", "cuisine": "traditional", "name": "Iya Bode Amala Joint"}}, {"type": "node", "id": 9899570000, "lat": 8.1618955, "lon": 4.0656597, "tags": {"amenity": "restaurant", "source": "nigeriase4all.gov.ng", "source:date": "2022"}}, {"type": "node", "id": 9899591712, "lat": 8.1932474, "lon": 4.0151647, "tags": {"amenity": "restaurant", "source": "nigeriase4all.gov.ng", "source:date": "2022"}}, {"type": "node", "id": 9899591716, "lat": 8.1937732, "lon": 4.0146359, "tags": {"amenity": "restaurant", "source": "nigeriase4all.gov.ng", "source:date": "2022"}}, {"type": "node", "id": 9899606225, "lat": 8.1640682, "lon": 4.0673742, "tags": {"amenity": "restaurant", "source": "nigeriase4all.gov.ng", "source:date": "2022"}}, {"type": "node", "id": 9899606227, "lat": 8.1636011, "lon": 4.067075, "tags": {"amenity": "restaurant", "source": "nigeriase4all.gov.ng", "source:date": "2022"}}, {"type": "node", "id": 9899607439, "lat": 8.1937014, "lon": 4.01312, "tags": {"amenity": "restaurant", "source": "nigeriase4all.gov.ng", "source:date": "2022"}}, {"type": "node", "id": 9899607442, "lat": 8.1940981, "lon": 4.0115893, "tags": {"amenity": "restaurant", "source": "nigeriase4all.gov.ng", "source:date": "2022"}}, {"type": "node", "id": 9899608353, "lat": 8.1554449, "lon": 4.0051053, "tags": {"amenity": "restaurant", "source": "nigeriase4all.gov.ng", "source:date": "2022"}}, {"type": "way", "id": 723007022, "nodes": [6781683544, 6781683545, 6781683546, 6781683547, 6781683544], "tags": {"amenity": "restaurant", "building": "yes", "name": "Mama Ekas Spot", "opening_hours": "Suspended Operation"}}, {"type": "way", "id": 723007025, "nodes": [6781683581, 6781683582, 6781683583, 6781683584, 6781683581], "tags": {"amenity": "restaurant", "building": "yes", "cuisine": "continental", "name": "Iya Mujeeb's Place", "opening_hours": "Mo-Fr 07:00-13:00"}}]}