{"version": 0.6, "generator": "Overpass API 0.7.62.7 375dc00a", "osm3s": {"timestamp_osm_base": "2025-06-14T14:38:18Z", "copyright": "The data included in this document is from www.openstreetmap.org. The data is made available under ODbL."}, "elements": [{"type": "node", "id": 1001073067, "lat": 40.7659312, "lon": 21.6151038, "tags": {"amenity": "cafe"}}, {"type": "node", "id": 1001073071, "lat": 40.7686046, "lon": 21.6171691, "tags": {"amenity": "cafe", "int_name": "Mimis", "name": "\u039c\u03af\u03bc\u03b7\u03c2", "source": "local_knowledge"}}, {"type": "node", "id": 1554237980, "lat": 40.9720601, "lon": 21.9130344, "tags": {"amenity": "cafe"}}, {"type": "node", "id": 1813647047, "lat": 40.720404, "lon": 21.7483351, "tags": {"amenity": "restaurant", "name": "Naoumidis"}}, {"type": "node", "id": 1815388920, "lat": 40.7264536, "lon": 21.7516249, "tags": {"amenity": "restaurant"}}, {"type": "node", "id": 1832786395, "lat": 40.8010606, "lon": 22.0508613}, {"type": "node", "id": 1832786402, "lat": 40.8010017, "lon": 22.0508399}, {"type": "node", "id": 1832786416, "lat": 40.8012211, "lon": 22.05056}, {"type": "node", "id": 1832786422, "lat": 40.8009489, "lon": 22.0504322}, {"type": "node", "id": 1832786441, "lat": 40.8013125, "lon": 22.0506368}, {"type": "node", "id": 1832786476, "lat": 40.8012971, "lon": 22.0506576}, {"type": "node", "id": 1832786496, "lat": 40.801022, "lon": 22.050856}, {"type": "node", "id": 1832786535, "lat": 40.8009996, "lon": 22.0504241}, {"type": "node", "id": 1832786657, "lat": 40.801091, "lon": 22.0508479}, {"type": "node", "id": 1832786675, "lat": 40.8010403, "lon": 22.0508613}, {"type": "node", "id": 1832786782, "lat": 40.8009773, "lon": 22.0504241}, {"type": "node", "id": 1832786831, "lat": 40.8009144, "lon": 22.0505261}, {"type": "node", "id": 1832786889, "lat": 40.8013045, "lon": 22.0506131}, {"type": "node", "id": 1832786933, "lat": 40.8009184, "lon": 22.0504831}, {"type": "node", "id": 1832786982, "lat": 40.8010321, "lon": 22.0504349}, {"type": "node", "id": 1832787033, "lat": 40.8009286, "lon": 22.0504536}, {"type": "node", "id": 2239949664, "lat": 40.9712582, "lon": 21.9146169, "tags": {"amenity": "restaurant"}}, {"type": "node", "id": 2239959615, "lat": 40.9719835, "lon": 21.9131447}, {"type": "node", "id": 2239959617, "lat": 40.9719393, "lon": 21.9130865}, {"type": "node", "id": 2239959618, "lat": 40.9718685, "lon": 21.9132978}, {"type": "node", "id": 2239959619, "lat": 40.9718243, "lon": 21.9132396}, {"type": "node", "id": 2241179614, "lat": 40.9654667, "lon": 21.923922}, {"type": "node", "id": 2241179629, "lat": 40.965454, "lon": 21.9238267}, {"type": "node", "id": 2241179635, "lat": 40.9653276, "lon": 21.9241053}, {"type": "node", "id": 2241179640, "lat": 40.9652354, "lon": 21.9240732}, {"type": "node", "id": 2241179643, "lat": 40.9654142, "lon": 21.9240588}, {"type": "node", "id": 2241179647, "lat": 40.9651798, "lon": 21.9239848}, {"type": "node", "id": 2241179648, "lat": 40.9651976, "lon": 21.924026}, {"type": "node", "id": 2241179655, "lat": 40.965454, "lon": 21.9239887}, {"type": "node", "id": 2241179711, "lat": 40.9651718, "lon": 21.923863}, {"type": "node", "id": 2241179714, "lat": 40.9652077, "lon": 21.9237732}, {"type": "node", "id": 2241179718, "lat": 40.9653113, "lon": 21.923745}, {"type": "node", "id": 2241179722, "lat": 40.9653693, "lon": 21.9240935}, {"type": "node", "id": 2241179726, "lat": 40.9652759, "lon": 21.9240979}, {"type": "node", "id": 2241179729, "lat": 40.9651682, "lon": 21.9239178}, {"type": "node", "id": 2241179733, "lat": 40.9653755, "lon": 21.9237559}, {"type": "node", "id": 2241179736, "lat": 40.9652817, "lon": 21.9237856}, {"type": "node", "id": 2241179740, "lat": 40.9653989, "lon": 21.9238138}, {"type": "node", "id": 2241179787, "lat": 40.9544286, "lon": 21.9267299, "tags": {"amenity": "restaurant"}}, {"type": "node", "id": 2241200672, "lat": 40.9689738, "lon": 21.9231892, "tags": {"addr:postcode": "58400", "amenity": "restaurant", "cuisine": "greek", "name": "\u03a4\u03bf \u03a7\u03c9\u03c1\u03b9\u03ac\u03c4\u03b9\u03ba\u03bf", "phone": "+302384091390"}}, {"type": "node", "id": 2241200726, "lat": 40.9715094, "lon": 21.9445718, "tags": {"amenity": "restaurant", "cuisine": "greek", "name": "\u03a4\u03bf \u03a0\u03b1\u03c1\u03b1\u03b4\u03bf\u03c3\u03b9\u03b1\u03ba\u03cc"}}, {"type": "node", "id": 2241200735, "lat": 40.9705494, "lon": 21.9433541, "tags": {"amenity": "restaurant", "cuisine": "international", "name": "\u03a5\u03b4\u03c1\u03cc\u03bb\u03b9\u03b8\u03bf\u03c2"}}, {"type": "node", "id": 3081382716, "lat": 40.8027966, "lon": 22.0552644}, {"type": "node", "id": 3081382718, "lat": 40.8028283, "lon": 22.0549588}, {"type": "node", "id": 3081382719, "lat": 40.8027207, "lon": 22.0550163}, {"type": "node", "id": 3081416308, "lat": 40.8039339, "lon": 22.0549125, "tags": {"amenity": "restaurant", "indoor_seating": "yes", "outdoor_seating": "yes"}}, {"type": "node", "id": 3300059899, "lat": 40.9718463, "lon": 21.9132689}, {"type": "node", "id": 3300059900, "lat": 40.9719577, "lon": 21.9131099}, {"type": "node", "id": 3300849051, "lat": 40.9673393, "lon": 21.9394837}, {"type": "node", "id": 3300849052, "lat": 40.9673596, "lon": 21.9396288}, {"type": "node", "id": 3300849055, "lat": 40.9673868, "lon": 21.9393912}, {"type": "node", "id": 3300849058, "lat": 40.9673957, "lon": 21.9396184}, {"type": "node", "id": 3300849059, "lat": 40.9674034, "lon": 21.939666}, {"type": "node", "id": 3300849262, "lat": 40.9674577, "lon": 21.9393764}, {"type": "node", "id": 3300849264, "lat": 40.9675038, "lon": 21.9395887}, {"type": "node", "id": 3300849265, "lat": 40.9675114, "lon": 21.9396352}, {"type": "node", "id": 3300849266, "lat": 40.9675275, "lon": 21.9394448}, {"type": "node", "id": 3300849267, "lat": 40.9675449, "lon": 21.939577}, {"type": "node", "id": 4016217219, "lat": 40.6136891, "lon": 22.0483411, "tags": {"amenity": "restaurant", "name": "\u0393\u03b5\u03c1\u03ac\u03bd\u03b9\u03b1"}}, {"type": "node", "id": 4451966302, "lat": 40.8030733, "lon": 22.0448211, "tags": {"amenity": "cafe", "name": "\u039a\u03b9\u03bf\u03c5\u03c0\u03c1\u03b9", "opening_hours": "Mo-Su 09:00-03:00"}}, {"type": "node", "id": 4587106911, "lat": 40.9749942, "lon": 22.0622886, "tags": {"amenity": "restaurant", "name": "\u0394\u03b9\u03b1\u03c7\u03c1\u03bf\u03bd\u03b9\u03ba\u03cc\u03bd", "name:el": "\u0394\u03b9\u03b1\u03c7\u03c1\u03bf\u03bd\u03b9\u03ba\u03cc\u03bd"}}, {"type": "node", "id": 4587121599, "lat": 40.9514887, "lon": 21.9267073, "tags": {"amenity": "restaurant", "name": "\u0394\u03b9\u03cc\u03bd\u03c5\u03c3\u03bf\u03c2", "name:el": "\u0394\u03b9\u03cc\u03bd\u03c5\u03c3\u03bf\u03c2"}}, {"type": "node", "id": 4699963590, "lat": 40.9747703, "lon": 22.0618717, "tags": {"addr:housenumber": "2", "addr:postcode": "58400", "addr:street": "\u038a\u03c9\u03bd\u03bf\u03c2 \u0394\u03c1\u03b1\u03b3\u03bf\u03cd\u03bc\u03b7", "amenity": "cafe", "cuisine": "coffee_shop", "email": "mits87@windowslive.com", "internet_access": "wlan", "name": "Vibe Cafe-Bar", "opening_hours": "24/7", "operator": "\u0394\u03b5\u03c1\u03bc\u03b5\u03c4\u03b6\u03cc\u03b3\u03bb\u03bf\u03c5 \u03a7\u03c1\u03ae\u03c3\u03c4\u03bf\u03c2", "website": "https://m.facebook.com/Vibecoffeebar/"}}, {"type": "node", "id": 5074216521, "lat": 40.9740225, "lon": 22.0622593, "tags": {"amenity": "cafe", "name": "Coup", "name:el": "Coup", "name:en": "Coup wine bar\u039a\u03cd\u03c0\u03c1\u03bf\u03c5"}}, {"type": "node", "id": 5626526725, "lat": 40.725893, "lon": 21.7519342, "tags": {"amenity": "restaurant", "cuisine": "greek", "name:en": "Ammos Beach Bar", "opening_hours": "Mo-Su 10:00-00:00", "phone": "+30 2386 061200"}}, {"type": "node", "id": 5628633821, "lat": 40.725907, "lon": 21.7518668, "tags": {"amenity": "restaurant", "cuisine": "greek", "name:en": "Naoumidis Restaurant"}}, {"type": "node", "id": 5745293875, "lat": 40.8099121, "lon": 21.9806349, "tags": {"amenity": "restaurant"}}, {"type": "node", "id": 6102663588, "lat": 40.5484941, "lon": 21.669163, "tags": {"amenity": "restaurant", "name": "Ioannou Resort"}}, {"type": "node", "id": 6650064436, "lat": 40.7929252, "lon": 21.834946, "tags": {"addr:city": "\u0386\u03c1\u03bd\u03b9\u03c3\u03c3\u03b1", "addr:postcode": "58002", "amenity": "restaurant", "name": "\u03a4\u0391\u0392\u0395\u03a1\u039d\u0391 '\u0397 \u039b\u0399\u039c\u039d\u0397'", "name:el": "\u03a4\u0391\u0392\u0395\u03a1\u039d\u0391 '\u0397 \u039b\u0399\u039c\u039d\u0397'", "name:en": "TAVERN 'LAKE'", "phone": "+302381031326"}}, {"type": "node", "id": 6653488421, "lat": 40.7939777, "lon": 21.8349406, "tags": {"amenity": "cafe", "name": "Status"}}, {"type": "node", "id": 6653488531, "lat": 40.7237728, "lon": 21.750473, "tags": {"amenity": "cafe", "name": "Cool Water"}}, {"type": "node", "id": 6653492931, "lat": 40.7240481, "lon": 21.7506247, "tags": {"amenity": "restaurant"}}, {"type": "node", "id": 6653509062, "lat": 40.7937568, "lon": 21.8345616, "tags": {"amenity": "cafe", "name": "Gogos"}}, {"type": "node", "id": 6910401140, "lat": 40.9159259, "lon": 21.9560923}, {"type": "node", "id": 6910401141, "lat": 40.9158341, "lon": 21.9559755}, {"type": "node", "id": 6910401142, "lat": 40.9157441, "lon": 21.9561126}, {"type": "node", "id": 6910401143, "lat": 40.9158375, "lon": 21.9562272}, {"type": "node", "id": 7446957345, "lat": 40.6305407, "lon": 22.0701589, "tags": {"amenity": "restaurant"}}, {"type": "node", "id": 7446957346, "lat": 40.6303209, "lon": 22.0698612, "tags": {"amenity": "restaurant"}}, {"type": "node", "id": 7446957347, "lat": 40.6302883, "lon": 22.0689948, "tags": {"amenity": "cafe"}}, {"type": "node", "id": 7446969059, "lat": 40.6309621, "lon": 22.0697405, "tags": {"amenity": "restaurant", "cuisine": "greek", "name": "\u03a3\u03c0\u03bf\u03bd\u03b4\u03ae", "phone": "2332 022233"}}, {"type": "node", "id": 7859186885, "lat": 40.8036056, "lon": 22.0517488, "tags": {"amenity": "restaurant", "name": "\u039f\u03c5\u03c3\u03af\u03b5\u03c2", "name:el": "\u039f\u03c5\u03c3\u03af\u03b5\u03c2", "name:en": "Ous\u00edes", "opening_hours": "Mo-Su 12:00-24:00"}}, {"type": "node", "id": 8234706165, "lat": 40.691328, "lon": 21.6253374, "tags": {"amenity": "restaurant", "cuisine": "pizza", "name": "Grigio Pizza"}}, {"type": "node", "id": 8890619101, "lat": 40.9546307, "lon": 22.0377408, "tags": {"amenity": "cafe", "internet_access": "yes", "name": "\u039a\u039b\u0397\u039c\u0391\u03a4\u0391\u03a1\u0399\u0391 \u039a\u0391\u03a6\u0395 - \u039c\u0395\u0396\u0395\u0394\u039f\u03a0\u03a9\u039b\u0395\u0399\u039f", "outdoor_seating": "yes"}}, {"type": "node", "id": 8907676378, "lat": 40.9688895, "lon": 21.9393634, "tags": {"amenity": "restaurant", "name": "\u039a\u03b1\u03c1\u03b1\u03c4\u03b6\u03bf\u03b2\u03af\u03c4\u03b9\u03c3\u03c3\u03b1"}}, {"type": "node", "id": 8946802717, "lat": 40.8029043, "lon": 22.0552069}, {"type": "node", "id": 9358719917, "lat": 40.7399048, "lon": 21.8196263, "tags": {"amenity": "restaurant", "name": "\u0392\u03b5\u03c7\u03bf\u03b5\u03b9\u03c4\u03b9\u03b4\u03b1"}}, {"type": "node", "id": 9453956173, "lat": 40.8669076, "lon": 21.8397004, "tags": {"amenity": "cafe", "name": "\u0395\u03b2\u03cc\u03c1\u03b1", "name:el": "\u0395\u03b2\u03cc\u03c1\u03b1", "name:en": "Evora"}}, {"type": "node", "id": 10649794698, "lat": 40.9780701, "lon": 22.0587949}, {"type": "node", "id": 10649794699, "lat": 40.9781027, "lon": 22.0589705}, {"type": "node", "id": 10649821769, "lat": 40.9782165, "lon": 22.0587215}, {"type": "node", "id": 10649821770, "lat": 40.9782465, "lon": 22.0589106}, {"type": "node", "id": 10649821771, "lat": 40.9782077, "lon": 22.0592539}, {"type": "node", "id": 10649821772, "lat": 40.9783046, "lon": 22.059436}, {"type": "node", "id": 10649821773, "lat": 40.9784509, "lon": 22.0593543}, {"type": "node", "id": 10649821774, "lat": 40.9783751, "lon": 22.059053}, {"type": "node", "id": 10982359908, "lat": 40.5910449, "lon": 22.0733083, "tags": {"amenity": "cafe"}}, {"type": "node", "id": 11019916405, "lat": 40.6902134, "lon": 21.6795383, "tags": {"amenity": "cafe", "name:en": "Social Cafe Bar"}}, {"type": "node", "id": 11225122637, "lat": 40.8411243, "lon": 21.7692845, "tags": {"amenity": "restaurant", "name:en": "Peri Anemon kai Ladokolas"}}, {"type": "node", "id": 11378542257, "lat": 40.9720919, "lon": 21.9592976}, {"type": "node", "id": 11378542258, "lat": 40.9719917, "lon": 21.9593155}, {"type": "node", "id": 11378542259, "lat": 40.971999, "lon": 21.9593876}, {"type": "node", "id": 11378542260, "lat": 40.9718772, "lon": 21.9594093}, {"type": "node", "id": 11378542261, "lat": 40.9718994, "lon": 21.9596278}, {"type": "node", "id": 11378542262, "lat": 40.9719624, "lon": 21.9596165}, {"type": "node", "id": 11378542263, "lat": 40.97197, "lon": 21.9596909}, {"type": "node", "id": 11378542264, "lat": 40.9720797, "lon": 21.9596714}, {"type": "node", "id": 11378542265, "lat": 40.9720593, "lon": 21.95947}, {"type": "node", "id": 11378542266, "lat": 40.9721086, "lon": 21.9594613}, {"type": "node", "id": 11420755162, "lat": 40.8408482, "lon": 21.7691784}, {"type": "node", "id": 11420755163, "lat": 40.8407788, "lon": 21.7691779}, {"type": "node", "id": 11420755164, "lat": 40.8407784, "lon": 21.7692814}, {"type": "node", "id": 11420755165, "lat": 40.8408478, "lon": 21.7692819}, {"type": "node", "id": 11420776556, "lat": 40.8411831, "lon": 21.7692174}, {"type": "node", "id": 11420776557, "lat": 40.841053, "lon": 21.7692097}, {"type": "node", "id": 11420776558, "lat": 40.8410475, "lon": 21.7693713}, {"type": "node", "id": 11420776559, "lat": 40.8411776, "lon": 21.769379}, {"type": "node", "id": 11420776595, "lat": 40.8406444, "lon": 21.7693415, "tags": {"amenity": "restaurant", "cuisine": "italian", "name": "Kitchen Laf"}}, {"type": "node", "id": 11591424992, "lat": 40.8055827, "lon": 22.0505781, "tags": {"addr:housenumber": "20", "addr:street": "18\u03b7\u03c2 \u039f\u03ba\u03c4\u03c9\u03b2\u03c1\u03b9\u03bf\u03c5", "amenity": "cafe", "description": "Patisserie and Cafe", "indoor_seating": "no", "name": "Katsikaris Patisserie", "outdoor_seating": "yes", "phone": "2381022555"}}, {"type": "node", "id": 11773780224, "lat": 40.9697651, "lon": 21.9458571, "tags": {"amenity": "cafe"}}, {"type": "node", "id": 11781461040, "lat": 40.9695298, "lon": 21.9459611, "tags": {"amenity": "restaurant", "cuisine": "greek", "name": "\u039c\u03b5\u03b6\u03b5\u03b4\u03bf\u03c0\u03c9\u03bb\u03b5\u03af\u03bf \u03c4\u03bf\u03c5 \u039c\u03c0\u03bb\u03b1 \u039c\u03c0\u03bb\u03b1"}}, {"type": "node", "id": 11886853240, "lat": 40.7906889, "lon": 21.5423994, "tags": {"amenity": "cafe", "check_date": "2024-05-07", "wheelchair": "no"}}, {"type": "node", "id": 12133470492, "lat": 40.7994899, "lon": 22.0529761, "tags": {"amenity": "cafe", "name": "\u03a8\u03b7\u03bb\u03cc\u03c2 \u0392\u03c1\u03ac\u03c7\u03bf\u03c2"}}, {"type": "node", "id": 12204908329, "lat": 40.8356948, "lon": 21.5851702, "tags": {"addr:city": "\u039c\u03b5\u03bb\u03af\u03c4\u03b7", "addr:postcode": "53071", "amenity": "restaurant", "name": "\u039a\u03b1\u03c6\u03ad \u03c8\u03b7\u03c3\u03c4\u03b1\u03c1\u03b9\u03ac \u0392\u03b1\u03c3\u03bf\u03cd\u03bb\u03b1", "name:el": "\u039a\u03b1\u03c6\u03ad \u03c8\u03b7\u03c3\u03c4\u03b1\u03c1\u03b9\u03ac \u0392\u03b1\u03c3\u03bf\u03cd\u03bb\u03b1", "name:en": "Kafe Psistaria Vasoula", "opening_hours": "Mo-Su 09:00-24:00", "phone": "+302385037107"}}, {"type": "node", "id": 12204928863, "lat": 40.8352209, "lon": 21.5856283, "tags": {"addr:city": "\u039c\u03b5\u03bb\u03af\u03c4\u03b7", "addr:postcode": "53071", "amenity": "restaurant", "name": "\u039f \u039c\u03c0\u03bf\u03c1\u03bc\u03c0\u03cc\u03ba\u03b7\u03c2", "name:el": "\u039f \u039c\u03c0\u03bf\u03c1\u03bc\u03c0\u03cc\u03ba\u03b7\u03c2", "name:en": "O Mpormpokis", "opening_hours": "Mo-Su 08:00-23:55", "phone": "+302385037087"}}, {"type": "node", "id": 12204930045, "lat": 40.8351214, "lon": 21.5849376, "tags": {"addr:city": "\u039c\u03b5\u03bb\u03af\u03c4\u03b7", "addr:postcode": "53071", "amenity": "restaurant", "name": "McDodos", "opening_hours": "Mo-Su 00:00-13:00,18:00-24:00"}}, {"type": "node", "id": 12480406799, "lat": 40.5503318, "lon": 22.026822, "tags": {"amenity": "restaurant", "name": "\u03a4\u03bf \u039c\u03b1\u03b3\u03b1\u03b6\u03ac\u03ba\u03b9", "phone": "2331049373"}}, {"type": "node", "id": 12480437782, "lat": 40.5507568, "lon": 22.026774, "tags": {"amenity": "restaurant", "name": "\u039a\u03b1\u03c1\u03b1\u03c6\u03ce\u03bb\u03b1\u03c2", "phone": "6942868932"}}, {"type": "node", "id": 12480437784, "lat": 40.5494392, "lon": 22.0255302, "tags": {"amenity": "cafe", "name": "\u0391\u0393\u0395\u03a1\u0399", "phone": "6909459858"}}, {"type": "node", "id": 12600336976, "lat": 40.6131204, "lon": 22.0456742, "tags": {"amenity": "restaurant", "name": "4 \u0395\u03c0\u03bf\u03c7\u03ad\u03c2"}}, {"type": "node", "id": 12600336977, "lat": 40.6130268, "lon": 22.0461278, "tags": {"amenity": "restaurant", "name": "\u0397 \u03a0\u03ad\u03c3\u03c4\u03c1\u03bf\u03c6\u03b1"}}, {"type": "node", "id": 12600412237, "lat": 40.6134668, "lon": 22.047659, "tags": {"amenity": "restaurant", "name": "\u03a4\u03bf \u03bd\u03b7\u03c3\u03af \u03c4\u03b7\u03c2 \u039c\u03b1\u03c1\u03b3\u03b1\u03c1\u03af\u03c4\u03b1\u03c2"}}, {"type": "node", "id": 12600438017, "lat": 40.6124533, "lon": 22.0486483, "tags": {"amenity": "cafe", "name": "Bella Garden"}}, {"type": "way", "id": 214453206, "nodes": [2239959617, 3300059900, 2239959615, 2239959618, 3300059899, 2239959619, 2239959617], "tags": {"amenity": "cafe", "building": "roof"}}, {"type": "way", "id": 214612504, "nodes": [2241179629, 2241179614, 2241179655, 2241179643, 2241179722, 2241179635, 2241179726, 2241179640, 2241179648, 2241179647, 2241179729, 2241179711, 2241179714, 2241179736, 2241179718, 2241179733, 2241179740, 2241179629], "tags": {"amenity": "restaurant", "building": "yes", "name": "\u039a\u03cc\u03ba\u03ba\u03b9\u03bd\u03bf \u03a0\u03b9\u03c0\u03ad\u03c1\u03b9", "name:el": "\u039a\u03cc\u03ba\u03ba\u03b9\u03bd\u03bf \u03a0\u03b9\u03c0\u03ad\u03c1\u03b9", "name:en": "Kokkino Piperi"}}, {"type": "way", "id": 303738710, "nodes": [8946802717, 3081382718, 3081382719, 3081382716, 8946802717], "tags": {"amenity": "restaurant", "building": "yes", "name:en": "The Mill"}}, {"type": "way", "id": 323285783, "nodes": [3300849267, 3300849264, 3300849265, 3300849059, 3300849058, 3300849052, 3300849051, 3300849055, 3300849262, 3300849266, 3300849267], "tags": {"amenity": "restaurant", "building": "yes", "name": "\u03a4\u03a3\u039f\u039b\u0399\u0391\u03a3"}}, {"type": "way", "id": 738028810, "nodes": [6910401140, 6910401141, 6910401142, 6910401143, 6910401140], "tags": {"amenity": "restaurant", "building": "yes", "cuisine": "greek;salad;fries;souflaki;\u03b2\u03b9\u03c6\u03c4\u03ad\u03ba\u03b9;steak;tzatziki", "internet_access": "wlan", "name": "\u03a0\u03b1\u03c1\u03b1\u03b4\u03bf\u03c3\u03b9\u03b1\u03ba\u03b7 \u03a4\u03b1\u03b2\u03b5\u03c1n\u03b1", "name:de": "Traditionelle Taverne", "name:el": "\u03a0\u03b1\u03c1\u03b1\u03b4\u03bf\u03c3\u03b9\u03b1\u03ba\u03b7 \u03a4\u03b1\u03b2\u03b5\u03c1n\u03b1", "name:en": "Traditional tavern", "phone": "2384094549", "phone_1": "6976413449"}}, {"type": "way", "id": 797529392, "nodes": [1832786831, 1832786402, 1832786496, 1832786675, 1832786395, 1832786657, 1832786476, 1832786441, 1832786889, 1832786416, 1832786982, 1832786535, 1832786782, 1832786422, 1832787033, 1832786933, 1832786831], "tags": {"addr:city": "\u0388\u03b4\u03b5\u03c3\u03c3\u03b1", "addr:postcode": "58200", "addr:street": "\u03a0\u039b\u0391\u03a4\u0395\u0399\u0391 \u03a4\u0397\u039c\u0395\u039d\u0399\u0394\u03a9\u039d", "amenity": "cafe", "building": "yes", "name": "\u03a4\u0397\u039c\u0395\u039d\u0399\u0394\u03a9\u039d", "opening_hours": "Mo-Su 07:00-23:00", "outdoor_seating": "yes"}}, {"type": "way", "id": 1144086328, "nodes": [10649821769, 10649794698, 10649794699, 10649821770, 10649821769], "tags": {"addr:city": "\u0391\u03c1\u03b9\u03b4\u03b1\u03af\u03b1", "addr:postcode": "58400", "addr:street": "\u039a\u03cd\u03c0\u03c1\u03bf\u03c5", "amenity": "restaurant", "building": "yes", "cuisine": "pizza", "name": "Ravenna"}}, {"type": "way", "id": 1144086329, "nodes": [10649821771, 10649821772, 10649821773, 10649821774, 10649821771], "tags": {"addr:city": "\u0391\u03c1\u03b9\u03b4\u03b1\u03af\u03b1", "addr:postcode": "58400", "addr:street": "\u0391\u03b3\u03af\u03bf\u03c5 \u0394\u03b7\u03bc\u03b7\u03c4\u03c1\u03af\u03bf\u03c5", "amenity": "restaurant", "building": "yes", "cuisine": "regional;chicken;burger;seafood;kebab;fish;greek", "name": "\u039c\u03b5\u03c4\u03b1\u03be\u03cd \u03bc\u03b1\u03c2"}}, {"type": "way", "id": 1227035679, "nodes": [11378542257, 11378542258, 11378542259, 11378542260, 11378542261, 11378542262, 11378542263, 11378542264, 11378542265, 11378542266, 11378542257], "tags": {"amenity": "restaurant", "building": "yes"}}, {"type": "way", "id": 1231435834, "nodes": [11420755162, 11420755163, 11420755164, 11420755165, 11420755162], "tags": {"addr:city": "\u0386\u03b3\u03b9\u03bf\u03c2 \u0391\u03b8\u03b1\u03bd\u03ac\u03c3\u03b9\u03bf\u03c2", "addr:place": "\u0386\u03b3\u03b9\u03bf\u03c2 \u0391\u03b8\u03b1\u03bd\u03ac\u03c3\u03b9\u03bf\u03c2", "addr:postcode": "58002", "amenity": "restaurant", "building": "yes", "cuisine": "regional;chicken;\u03bc\u03c0\u03ac\u03c1\u03bc\u03c0\u03b5\u03ba\u03b9\u03bf\u03c5\u03c8\u03b7\u03c4\u03ac;burger", "name": "\u039a\u03c1\u03b5\u03b1\u03c4\u03bf\u03c6\u03c9\u03bb\u03b9\u03ac", "phone": "00302381039839"}}, {"type": "way", "id": 1231435849, "nodes": [11420776556, 11420776557, 11420776558, 11420776559, 11420776556], "tags": {"amenity": "restaurant", "building": "yes"}}]}