{"version": 0.6, "generator": "Overpass API 0.7.62.7 375dc00a", "osm3s": {"timestamp_osm_base": "2025-06-14T15:37:30Z", "copyright": "The data included in this document is from www.openstreetmap.org. The data is made available under ODbL."}, "elements": [{"type": "node", "id": 3370892594, "lat": 7.6445384, "lon": 37.9234435, "tags": {"amenity": "cafe"}}, {"type": "node", "id": 6003840885, "lat": 7.5445686, "lon": 37.8517808, "tags": {"addr:street": "Col. Bezabih Petros Square", "amenity": "restaurant", "cuisine": "international", "internet_access": "wlan", "name": "\u1243\u1293 \u122c\u1235\u1276\u122b\u1295\u1275", "name:en": "Kana Restaurant", "opening_hours": "Mo-Su 08:00-21:00", "operator": "Yosef Fantaye"}}, {"type": "node", "id": 6807131373, "lat": 7.5449373, "lon": 37.8517915, "tags": {"amenity": "restaurant", "name": "\u1243\u1293", "name:en": "Kana"}}, {"type": "node", "id": 6807136194, "lat": 7.5443299, "lon": 37.852853, "tags": {"amenity": "cafe", "name:en": "Handa Cafe"}}, {"type": "node", "id": 6857270290, "lat": 7.553148, "lon": 37.8837557, "tags": {"amenity": "cafe", "name:en": "Student Lounge"}}, {"type": "node", "id": 6857313901, "lat": 7.5492624, "lon": 37.8521574, "tags": {"amenity": "restaurant", "name": "\u1200\u1295\u12f3", "name:en": "Handa Restaurant"}}, {"type": "node", "id": 6937428185, "lat": 7.5473573, "lon": 37.8499445, "tags": {"amenity": "restaurant", "name:en": "\u1206\u1233\u12d5\u1293 \u12a0\u122b\u122b\u1275 \u122c\u1235\u1276\u122b\u1295\u1275"}}, {"type": "node", "id": 7605376186, "lat": 7.5533896, "lon": 37.8567885, "tags": {"amenity": "cafe", "name": "\u12ae\u134a \u12f0\u12ed\u1235", "name:en": "Coffee Days"}}, {"type": "node", "id": 7605382889, "lat": 7.5509756, "lon": 37.8544865, "tags": {"amenity": "cafe", "name": "\u1230\u1208\u121c \u12ab\u134c", "name:en": "Seleme Cafe"}}, {"type": "node", "id": 12744640231, "lat": 7.5558312, "lon": 37.8834832}, {"type": "node", "id": 12744640232, "lat": 7.5558675, "lon": 37.8834981}, {"type": "node", "id": 12744640233, "lat": 7.5558972, "lon": 37.8835239}, {"type": "node", "id": 12744640234, "lat": 7.5559172, "lon": 37.8835579}, {"type": "node", "id": 12744640235, "lat": 7.5559253, "lon": 37.8835966}, {"type": "node", "id": 12744640236, "lat": 7.5559207, "lon": 37.8836358}, {"type": "node", "id": 12744640237, "lat": 7.5557645, "lon": 37.8837172}, {"type": "node", "id": 12744640238, "lat": 7.5557292, "lon": 37.8836974}, {"type": "node", "id": 12744640239, "lat": 7.5557022, "lon": 37.883667}, {"type": "node", "id": 12744640240, "lat": 7.5556867, "lon": 37.8836293}, {"type": "node", "id": 12744640241, "lat": 7.5556844, "lon": 37.8835885}, {"type": "node", "id": 12744640242, "lat": 7.5556956, "lon": 37.8835493}, {"type": "node", "id": 12744640243, "lat": 7.5559039, "lon": 37.8836715}, {"type": "node", "id": 12744640244, "lat": 7.5558767, "lon": 37.8837}, {"type": "node", "id": 12744640245, "lat": 7.5558419, "lon": 37.8837181}, {"type": "node", "id": 12744640246, "lat": 7.5558031, "lon": 37.8837241}, {"type": "node", "id": 12744640247, "lat": 7.555719, "lon": 37.883516}, {"type": "node", "id": 12744640248, "lat": 7.555752, "lon": 37.8834924}, {"type": "node", "id": 12744640249, "lat": 7.5557908, "lon": 37.883481}, {"type": "way", "id": 1376468485, "nodes": [12744640247, 12744640248, 12744640249, 12744640231, 12744640232, 12744640233, 12744640234, 12744640235, 12744640236, 12744640243, 12744640244, 12744640245, 12744640246, 12744640237, 12744640238, 12744640239, 12744640240, 12744640241, 12744640242, 12744640247], "tags": {"amenity": "cafe", "building": "yes", "name": "A-plus Lounge", "opening_hours": "Mo-Su 07:00-22:00"}}]}