{"version": 0.6, "generator": "Overpass API 0.7.62.7 375dc00a", "osm3s": {"timestamp_osm_base": "2025-06-14T15:03:48Z", "copyright": "The data included in this document is from www.openstreetmap.org. The data is made available under ODbL."}, "elements": [{"type": "node", "id": 29268846, "lat": 40.7584484, "lon": 31.350973, "tags": {"amenity": "restaurant", "created_by": "JOSM"}}, {"type": "node", "id": 29268894, "lat": 40.7535521, "lon": 31.3634657, "tags": {"amenity": "restaurant", "created_by": "JOSM"}}, {"type": "node", "id": 29268997, "lat": 40.7504478, "lon": 31.3743156, "tags": {"amenity": "restaurant"}}, {"type": "node", "id": 29269016, "lat": 40.7471313, "lon": 31.3825675, "tags": {"amenity": "restaurant"}}, {"type": "node", "id": 29269591, "lat": 40.7480959, "lon": 31.4023512, "tags": {"amenity": "restaurant"}}, {"type": "node", "id": 1847962951, "lat": 40.7917015, "lon": 31.2404962}, {"type": "node", "id": 1847962953, "lat": 40.7917114, "lon": 31.2401273}, {"type": "node", "id": 1847962959, "lat": 40.7917369, "lon": 31.2415683}, {"type": "node", "id": 1847962961, "lat": 40.7917564, "lon": 31.240695}, {"type": "node", "id": 1847962967, "lat": 40.7919745, "lon": 31.2420627}, {"type": "node", "id": 2388985783, "lat": 40.7290892, "lon": 31.433075, "tags": {"amenity": "restaurant", "name": "Ulusoy"}}, {"type": "node", "id": 2678867011, "lat": 40.8413729, "lon": 31.1585124, "tags": {"amenity": "cafe", "internet_access": "wlan", "name": "Cihat Hamburger"}}, {"type": "node", "id": 2793163189, "lat": 40.9059964, "lon": 31.1791949, "tags": {"amenity": "restaurant", "name": "D\u00fczce \u00dcniversitesi Yemekhanesi"}}, {"type": "node", "id": 2794867918, "lat": 40.7904915, "lon": 31.2407847, "tags": {"amenity": "restaurant", "name": "K\u00f6pr\u00fc Restoran", "smoking": "outside"}}, {"type": "node", "id": 2794869957, "lat": 40.7913931, "lon": 31.2398162, "tags": {"amenity": "restaurant", "cuisine": "regional", "name": "T\u00fcrsan Et Mangal"}}, {"type": "node", "id": 2794872596, "lat": 40.7896436, "lon": 31.2419483, "tags": {"amenity": "restaurant", "cuisine": "regional", "name": "Tursan Et Mangal"}}, {"type": "node", "id": 2794873741, "lat": 40.7913325, "lon": 31.2397114, "tags": {"amenity": "restaurant", "cuisine": "regional", "name": "Do\u011fal \u00dcr\u00fcnler"}}, {"type": "node", "id": 2794874769, "lat": 40.7896156, "lon": 31.2417942, "tags": {"amenity": "restaurant", "cuisine": "regional", "name": "Do\u011fal \u00dcr\u00fcnler", "name:tr": "Konako\u011flu Y\u00f6resel Market"}}, {"type": "node", "id": 2796072640, "lat": 40.8735395, "lon": 30.951151, "tags": {"amenity": "cafe", "cuisine": "regional", "name": "Merkez \u00c7ay Oca\u011f\u0131"}}, {"type": "node", "id": 2796074740, "lat": 40.8739309, "lon": 30.9516378, "tags": {"amenity": "cafe", "cuisine": "regional", "name": "\u00c7ay Oca\u011f\u0131"}}, {"type": "node", "id": 2796088103, "lat": 40.8766147, "lon": 30.9502575, "tags": {"amenity": "cafe", "name": "\u00c7ay Oca\u011f\u0131"}}, {"type": "node", "id": 2796091515, "lat": 40.8767684, "lon": 30.9508491, "tags": {"amenity": "cafe", "cuisine": "regional", "internet_access": "no", "name": "\u00c7ay Oca\u011f\u0131"}}, {"type": "node", "id": 2796111088, "lat": 40.8729477, "lon": 30.9497522, "tags": {"amenity": "cafe", "cuisine": "regional", "name": "\u00c7ay Oca\u011f\u0131"}}, {"type": "node", "id": 2796112629, "lat": 40.8731387, "lon": 30.9494318, "tags": {"amenity": "restaurant", "name": "Metin Lokantas\u0131"}}, {"type": "node", "id": 2796127872, "lat": 40.8550386, "lon": 30.9631425, "tags": {"amenity": "cafe", "cuisine": "regional", "name": "Selamlar Atat\u00fcrk Kahvehanesi"}}, {"type": "node", "id": 2796206207, "lat": 40.8924819, "lon": 31.0479529, "tags": {"amenity": "cafe", "cuisine": "regional", "name": "\u00c7ay Bah\u00e7esi"}}, {"type": "node", "id": 2804133202, "lat": 40.9081116, "lon": 30.9495737, "tags": {"amenity": "restaurant", "cuisine": "regional", "name": "Rafting Tesisleri"}}, {"type": "node", "id": 2804156704, "lat": 40.9085048, "lon": 30.9507968, "tags": {"amenity": "cafe", "name": "\u00c7ay Oca\u011f\u0131"}}, {"type": "node", "id": 2804159116, "lat": 40.9081927, "lon": 30.9499867, "tags": {"amenity": "cafe", "name": "\u00c7ay Oca\u011f\u0131"}}, {"type": "node", "id": 2804159119, "lat": 40.9084846, "lon": 30.9505339, "tags": {"amenity": "cafe", "name": "\u00c7ay Oca\u011f\u0131"}}, {"type": "node", "id": 2816083551, "lat": 40.7732728, "lon": 31.319223, "tags": {"amenity": "restaurant", "cuisine": "regional", "name": "Merkez Lokantas\u0131", "smoking": "outside"}}, {"type": "node", "id": 2817454211, "lat": 40.8274939, "lon": 31.189472, "tags": {"amenity": "restaurant", "cuisine": "regional", "name": "Urfa Sofras\u0131", "smoking": "outside"}}, {"type": "node", "id": 2860397942, "lat": 40.8386032, "lon": 31.1603717, "tags": {"amenity": "restaurant", "capacity": "100", "cuisine": "regional", "name": "K\u00f6zde K\u00f6fte", "smoking": "outside", "website": "http://www.kozdekofte.com", "wheelchair": "yes"}}, {"type": "node", "id": 2860400350, "lat": 40.8383562, "lon": 31.1628377, "tags": {"amenity": "cafe", "cuisine": "regional", "name": "Cedidiye \u00c7ay Bah\u00e7esi", "smoking": "outside", "wheelchair": "yes"}}, {"type": "node", "id": 2865722922, "lat": 40.8738579, "lon": 31.1914283, "tags": {"amenity": "restaurant", "cuisine": "regional", "name": "D\u00fczce Kasr\u0131", "smoking": "outside", "website": "http://www.duzcekasri.com", "wheelchair": "yes"}}, {"type": "node", "id": 2867202253, "lat": 40.8136817, "lon": 31.241151}, {"type": "node", "id": 2867202254, "lat": 40.8136046, "lon": 31.2412315}, {"type": "node", "id": 2867202255, "lat": 40.8132554, "lon": 31.2415212}, {"type": "node", "id": 2867202256, "lat": 40.8132189, "lon": 31.2414488}, {"type": "node", "id": 2867202257, "lat": 40.8131194, "lon": 31.2411564}, {"type": "node", "id": 2867202258, "lat": 40.8132067, "lon": 31.2410759}, {"type": "node", "id": 2867202259, "lat": 40.8133082, "lon": 31.2411269}, {"type": "node", "id": 2867202260, "lat": 40.8133366, "lon": 31.2412476}, {"type": "node", "id": 2867202261, "lat": 40.8136817, "lon": 31.2411054}, {"type": "node", "id": 2867978617, "lat": 40.8704796, "lon": 31.1417548, "tags": {"amenity": "restaurant", "cuisine": "turkish", "name": "Beyaz Bah\u00e7e", "website": "https://www.beyazbahce.com/"}}, {"type": "node", "id": 2876738260, "lat": 40.8433674, "lon": 31.1828854, "tags": {"addr:city": "D\u00fczce", "addr:district": "D\u00fczce", "addr:postcode": "81100", "addr:street": "Zahid Kevseri Bulvar\u0131", "amenity": "restaurant", "contact:mobile": "+905365971825", "cuisine": "turkish", "delivery": "yes", "name": "Konyal\u0131 Etli Ekmek", "phone": "+903805121621", "reg_name": "U\u011fur Ustan\u0131n Yeri", "smoking": "isolated", "website": "http://www.konyalietliekmekkebap.com"}}, {"type": "node", "id": 2877358053, "lat": 40.8720461, "lon": 31.169276, "tags": {"addr:street": "Aka\u00e7akoca Yolu \u00dczeri", "amenity": "restaurant", "cuisine": "turkish", "name": "\u00c7oban Et D\u00fcr\u00fcm", "old_name": "\u00c7oban Mangal"}}, {"type": "node", "id": 2877374598, "lat": 40.8472202, "lon": 31.1654511, "tags": {"addr:housenumber": "10", "addr:postcode": "81100", "addr:street": "Ak\u00e7akoca Yolu", "amenity": "restaurant", "cuisine": "turkish", "name": "Hac\u0131 Baba Lezzet Lokantas\u0131", "phone": "+903805141661"}}, {"type": "node", "id": 2877375806, "lat": 40.8471633, "lon": 31.1654779, "tags": {"addr:street": "Ak\u00e7akoca Yolu", "amenity": "cafe", "cuisine": "turkish", "name": "Saray \u00c7ay Oca\u011f\u0131", "wifi": "no"}}, {"type": "node", "id": 2885481080, "lat": 40.8498766, "lon": 31.1823529, "tags": {"amenity": "cafe", "internet_access": "yes", "internet_access:fee": "yes", "name": "Alemdar Cafe", "opening_hours": "sunrise-sunset", "smoking": "isolated", "wheelchair": "yes"}}, {"type": "node", "id": 2893572665, "lat": 40.8406931, "lon": 31.1528738, "tags": {"addr:housenumber": "Kat 1", "addr:street": "\u0130stanbul Caddesi", "amenity": "restaurant", "cuisine": "regional", "name": "Ad\u0131yaman \u00c7i\u011f K\u00f6ftecisi", "smoking": "no", "wheelchair": "yes"}}, {"type": "node", "id": 2893821823, "lat": 40.8408875, "lon": 31.1527451, "tags": {"addr:street": "\u0130stanbul Caddesi", "amenity": "restaurant", "cuisine": "regional", "name": "Lala Pide", "smoking": "outside", "wheelchair": "yes"}}, {"type": "node", "id": 2893821824, "lat": 40.8406156, "lon": 31.1529382, "tags": {"addr:street": "\u0130stanbul Caddesi", "amenity": "restaurant", "cuisine": "ice_cream", "name": "\u00d6zS\u00fct", "wheelchair": "yes"}}, {"type": "node", "id": 2902347866, "lat": 40.903356, "lon": 31.1738238, "tags": {"amenity": "restaurant", "name": "Fast Food Restoran", "smoking": "outside"}}, {"type": "node", "id": 2915520202, "lat": 40.8751203, "lon": 31.1392422, "tags": {"amenity": "cafe", "name": "Gen\u00e7ler Odas\u0131"}}, {"type": "node", "id": 2915659763, "lat": 40.8719584, "lon": 31.1448668, "tags": {"amenity": "cafe", "cuisine": "regional", "name": "Kafkas K\u00fclt\u00fcr Derne\u011fi", "smoking": "outside"}}, {"type": "node", "id": 2928894603, "lat": 40.8407749, "lon": 31.1528379, "tags": {"amenity": "cafe", "cuisine": "turkish", "name": "Makara Tatl\u0131s\u0131"}}, {"type": "node", "id": 2928895525, "lat": 40.8408419, "lon": 31.1525, "tags": {"amenity": "cafe", "name": "Chocolate Brown"}}, {"type": "node", "id": 2928950822, "lat": 40.840639, "lon": 31.1531115, "tags": {"amenity": "cafe", "name": "Cafeem"}}, {"type": "node", "id": 2930681528, "lat": 40.9049542, "lon": 31.1777194, "tags": {"addr:city": "D\u00fczce", "addr:postcode": "81620", "addr:street": "D\u00fczce \u00dcniversitesi \u0130\u00e7 Yolu", "amenity": "cafe", "cuisine": "regional", "name": "Kamp\u00fcs Kafe"}}, {"type": "node", "id": 2934039745, "lat": 40.8995519, "lon": 31.163477}, {"type": "node", "id": 2934039746, "lat": 40.8991955, "lon": 31.1635542}, {"type": "node", "id": 2934039747, "lat": 40.8990172, "lon": 31.1635745}, {"type": "node", "id": 2934039748, "lat": 40.8990234, "lon": 31.1636843}, {"type": "node", "id": 2934039749, "lat": 40.8991033, "lon": 31.1638266}, {"type": "node", "id": 2934039750, "lat": 40.8992846, "lon": 31.1639892}, {"type": "node", "id": 2934039751, "lat": 40.8995181, "lon": 31.1640868}, {"type": "node", "id": 2934041081, "lat": 40.9011253, "lon": 31.1557244}, {"type": "node", "id": 2934041082, "lat": 40.9009969, "lon": 31.1554979}, {"type": "node", "id": 2934041083, "lat": 40.9008738, "lon": 31.155282}, {"type": "node", "id": 2934041084, "lat": 40.9007293, "lon": 31.1549458}, {"type": "node", "id": 2934041085, "lat": 40.9005902, "lon": 31.1549458}, {"type": "node", "id": 2934041086, "lat": 40.9005795, "lon": 31.1557952}, {"type": "node", "id": 2934041087, "lat": 40.9011065, "lon": 31.1558235}, {"type": "node", "id": 2946359379, "lat": 40.8431014, "lon": 31.1555414, "tags": {"addr:city": "D\u00fczce", "addr:housenumber": "25", "addr:postcode": "81010", "addr:street": "Mehmet Akif Cadde", "amenity": "restaurant", "capacity": "150", "cuisine": "turkish", "delivery": "no", "ele": "1", "name": "Beyzade Gurme", "phone": "+903805242211", "website": "http://beyzadegurme.com.tr", "wheelchair": "yes"}}, {"type": "node", "id": 2955759701, "lat": 40.8405499, "lon": 31.1531943, "tags": {"addr:city": "D\u00fczce", "addr:housename": "Krempark AVM", "addr:street": "\u0130stanbul Caddesi", "amenity": "restaurant", "cuisine": "pizza", "name": "Pizza House", "operator": "Pizza House"}}, {"type": "node", "id": 2955759702, "lat": 40.8400721, "lon": 31.1529024, "tags": {"addr:city": "D\u00fczce", "addr:housenumber": "59", "addr:street": "\u0130stanbul Caddesi", "addr:unit": "2", "amenity": "restaurant", "cuisine": "pizza", "name": "Pizza Mizza", "phone": "+903805242455"}}, {"type": "node", "id": 2990685349, "lat": 40.8402375, "lon": 31.1496081, "tags": {"alt_name": "Pastac\u0131 Pastaneleri", "amenity": "cafe", "name": "Pastac\u0131"}}, {"type": "node", "id": 3017471440, "lat": 40.8558552, "lon": 31.1547447, "tags": {"addr:street": "1405. Cadde", "amenity": "cafe", "cuisine": "regional", "name": "Koruk\u00f6y Cafe", "smoking": "outside"}}, {"type": "node", "id": 3020439457, "lat": 40.8695648, "lon": 31.2327175, "tags": {"amenity": "cafe", "name": "Cafeteria"}}, {"type": "node", "id": 3020554206, "lat": 40.8562857, "lon": 31.1564624, "tags": {"amenity": "cafe", "name": "\u00c7ay Oca\u011f\u0131"}}, {"type": "node", "id": 3034025805, "lat": 40.8564044, "lon": 31.1547378, "tags": {"addr:city": "D\u00fczce", "addr:street": "1405. Cadde", "amenity": "restaurant", "cuisine": "turkish", "name": "Koruk\u00f6y Restaurant", "smoking": "outside"}}, {"type": "node", "id": 3058607585, "lat": 40.8445817, "lon": 31.1326749, "tags": {"amenity": "cafe", "name": "Aziziye Spor Kl\u00fcb\u00fc Lokali"}}, {"type": "node", "id": 3060792487, "lat": 40.8406764, "lon": 31.1434009, "tags": {"amenity": "restaurant", "name": "Fatma Bac\u0131 Mant\u0131"}}, {"type": "node", "id": 3062530313, "lat": 40.845999, "lon": 31.1296731, "tags": {"amenity": "cafe", "name": "Keskin \u00c7ay Evi"}}, {"type": "node", "id": 3062534603, "lat": 40.8453929, "lon": 31.1302074, "tags": {"amenity": "restaurant", "name": "Tu\u011fra \u0130zgara Kebap"}}, {"type": "node", "id": 3088892178, "lat": 40.8401762, "lon": 31.1523321, "tags": {"addr:street": "\u0130stanbul Caddesi", "amenity": "cafe", "cuisine": "regional", "internet_access": "yes", "name": "K\u00f6\u015fk-\u00fc Kahve", "smoking": "outside"}}, {"type": "node", "id": 3088896865, "lat": 40.8402431, "lon": 31.1491929, "tags": {"addr:street": "\u0130stanbul Caddesi", "alt_name": "Faruk Uzun", "amenity": "restaurant", "cuisine": "regional", "name": "Petek Unlu Mamuller", "smoking": "outside"}}, {"type": "node", "id": 3088906661, "lat": 40.8402699, "lon": 31.1515482, "tags": {"addr:street": "\u0130stanbul Caddesi", "amenity": "cafe", "name": "\u00c7ay Oca\u011f\u0131"}}, {"type": "node", "id": 3101819584, "lat": 40.8459195, "lon": 31.1476318}, {"type": "node", "id": 3101819585, "lat": 40.845911, "lon": 31.1479932}, {"type": "node", "id": 3101819586, "lat": 40.8457614, "lon": 31.1479786}, {"type": "node", "id": 3101819588, "lat": 40.8457694, "lon": 31.1476279}, {"type": "node", "id": 3109437977, "lat": 40.8441828, "lon": 31.1656517, "tags": {"amenity": "restaurant", "name": "Garaj Lokantas\u0131"}}, {"type": "node", "id": 3114522006, "lat": 40.8771166, "lon": 31.1759329, "tags": {"amenity": "restaurant", "smoking": "outside"}}, {"type": "node", "id": 3166154121, "lat": 40.840429, "lon": 31.1630547, "tags": {"amenity": "restaurant", "cuisine": "breakfast", "name": "Mezem \u015eark\u00fcteri"}}, {"type": "node", "id": 3166169712, "lat": 40.8405934, "lon": 31.1631084, "tags": {"addr:street": "Atat\u00fcrk Bulvar\u0131", "amenity": "restaurant", "name": "Tatl\u0131m Pastanesi"}}, {"type": "node", "id": 3249098055, "lat": 40.8413275, "lon": 31.1556162, "tags": {"amenity": "cafe", "name": "Gani Bistro Cafe"}}, {"type": "node", "id": 3325090412, "lat": 40.9045882, "lon": 31.1474602, "tags": {"amenity": "cafe", "name": "Tu\u011fra Restorant Cafe"}}, {"type": "node", "id": 3325094898, "lat": 40.9050344, "lon": 31.1464916, "tags": {"amenity": "cafe", "cuisine": "regional", "name": "Bu\u011fra Pastanesi"}}, {"type": "node", "id": 3330995806, "lat": 40.8400844, "lon": 31.1579688, "tags": {"addr:city": "D\u00fczce", "addr:street": "Mansur Bayram Cadde", "amenity": "restaurant", "cuisine": "soup", "name": "\u00c7orbac\u0131zade", "phone": "+90 380 523 9050", "smoking": "no"}}, {"type": "node", "id": 3330995807, "lat": 40.8397301, "lon": 31.1576668, "tags": {"addr:city": "D\u00fczce", "addr:street": "\u0130stanbul Caddesi", "amenity": "restaurant", "cuisine": "kebab", "name": "\u0130stanbul K\u0131r Pidesi"}}, {"type": "node", "id": 3330995808, "lat": 40.8396935, "lon": 31.1577471, "tags": {"addr:city": "D\u00fczce", "addr:street": "\u0130stanbul Caddesi", "amenity": "restaurant", "cuisine": "kebab", "name": "Usta D\u00f6nerci"}}, {"type": "node", "id": 3330995814, "lat": 40.840364, "lon": 31.1582974, "tags": {"addr:city": "D\u00fczce", "addr:street": "Spor Sokak", "amenity": "restaurant", "cuisine": "kebab", "name": "Sofram Kebap"}}, {"type": "node", "id": 3330995816, "lat": 40.8409223, "lon": 31.1568729, "tags": {"amenity": "cafe", "cuisine": "coffee_shop", "internet_access": "yes", "name": "Kahve Diyar\u0131"}}, {"type": "node", "id": 3330995817, "lat": 40.8412262, "lon": 31.1570392, "tags": {"addr:city": "D\u00fczce", "addr:street": "Konak Sokak", "amenity": "cafe", "internet_access": "yes", "name": "Case Cake Pastaevi"}}, {"type": "node", "id": 3565412193, "lat": 40.7722706, "lon": 31.3185039, "tags": {"amenity": "restaurant", "name": "Yaman Lokantas\u0131"}}, {"type": "node", "id": 3567965449, "lat": 40.7493239, "lon": 31.3830749, "tags": {"amenity": "restaurant", "cuisine": "kebab;mangal", "internet_access": "wlan", "name": "Muhtar\u0131n Yeri"}}, {"type": "node", "id": 3617546184, "lat": 40.8417588, "lon": 31.1543496, "tags": {"addr:city": "D\u00fczce", "addr:housenumber": "38", "addr:postcode": "81010", "addr:street": "Spor Sokak", "amenity": "cafe", "ele": "1", "internet_access": "yes", "name": "Lovely Cafe", "phone": "+903805146262", "smoking": "separated"}}, {"type": "node", "id": 3617546185, "lat": 40.8413712, "lon": 31.1545132, "tags": {"addr:city": "D\u00fczce", "addr:housenumber": "29", "addr:postcode": "81010", "addr:street": "Spor Sokak", "amenity": "restaurant", "cuisine": "fish_and_chips", "name": "\u0130nci Bal\u0131k", "phone": "+903805143888"}}, {"type": "node", "id": 3617546186, "lat": 40.8409126, "lon": 31.154599, "tags": {"addr:city": "D\u00fczce", "addr:street": "Mehmet Akif Cadde", "amenity": "restaurant", "cuisine": "american", "name": "hill brasserie & cafe", "phone": "+903805243658"}}, {"type": "node", "id": 3617546187, "lat": 40.8411886, "lon": 31.1547385, "tags": {"addr:city": "D\u00fczce", "addr:street": "Mehmet Akif Cadde", "amenity": "cafe", "cuisine": "coffee_shop", "internet_access": "yes", "name": "Kahve Deryas\u0131"}}, {"type": "node", "id": 3617546188, "lat": 40.8407097, "lon": 31.153848, "tags": {"addr:city": "D\u00fczce", "amenity": "cafe", "cuisine": "coffee_shop", "name": "NoN Cafe"}}, {"type": "node", "id": 3617546189, "lat": 40.840523, "lon": 31.1537863, "tags": {"addr:city": "D\u00fczce", "amenity": "cafe", "cuisine": "coffee_shop", "name": "Kahve D\u00fckkan\u0131"}}, {"type": "node", "id": 3656490179, "lat": 40.7600875, "lon": 31.1058481, "tags": {"addr:city": "D\u00fczce", "addr:street": "Ayd\u0131np\u0131nar K\u00f6y\u00fc", "amenity": "restaurant", "cuisine": "fish_and_chips", "name": "Kaplano\u011flu Alabal\u0131k", "phone": "+90 (380) 531 34 99", "smoking": "outside", "website": "http://www.kaplanoglualabalik.com/"}}, {"type": "node", "id": 3656499310, "lat": 40.7578024, "lon": 31.1103039, "tags": {"amenity": "cafe", "name": "Cafeteria"}}, {"type": "node", "id": 3656506032, "lat": 40.7689287, "lon": 31.1122148, "tags": {"amenity": "cafe", "name": "Cafe Piknik Yeri"}}, {"type": "node", "id": 3729420928, "lat": 40.925646, "lon": 31.1446691, "tags": {"addr:city": "Konuralp D\u00fczce", "addr:street": "Ak\u00e7akoca Yolu \u00dczeri", "amenity": "restaurant", "cuisine": "turkish", "name": "Eser Bah\u00e7e Et Mangal"}}, {"type": "node", "id": 3740940629, "lat": 40.8558972, "lon": 31.1516082, "tags": {"amenity": "cafe", "cuisine": "regional", "internet_access": "no", "name": "Dobra Cafe"}}, {"type": "node", "id": 3740940630, "lat": 40.8558726, "lon": 31.1515512, "tags": {"addr:street": "Memur Sen Evleri", "amenity": "restaurant", "cuisine": "regional", "name": "Dobra Kebap"}}, {"type": "node", "id": 3782142528, "lat": 40.7805571, "lon": 31.2797343, "tags": {"amenity": "restaurant", "cuisine": "regional", "name": "\u0130nciler Petrol"}}, {"type": "node", "id": 3784879652, "lat": 40.8264981, "lon": 31.1634665}, {"type": "node", "id": 3784879653, "lat": 40.8265793, "lon": 31.1628734}, {"type": "node", "id": 3784879654, "lat": 40.8261765, "lon": 31.1628081}, {"type": "node", "id": 3784879655, "lat": 40.8261447, "lon": 31.1629622}, {"type": "node", "id": 3784879656, "lat": 40.8261871, "lon": 31.1632284}, {"type": "node", "id": 3784889157, "lat": 40.8262578, "lon": 31.1634805}, {"type": "node", "id": 4069709652, "lat": 40.8212943, "lon": 30.9968826}, {"type": "node", "id": 4069709653, "lat": 40.8212113, "lon": 30.9967464}, {"type": "node", "id": 4069709654, "lat": 40.821147, "lon": 30.9968083}, {"type": "node", "id": 4069709655, "lat": 40.8212421, "lon": 30.9969481}, {"type": "node", "id": 4080650728, "lat": 40.7705754, "lon": 31.0709987}, {"type": "node", "id": 4080650729, "lat": 40.770594, "lon": 31.0712004}, {"type": "node", "id": 4080650730, "lat": 40.7705109, "lon": 31.0712142}, {"type": "node", "id": 4080650731, "lat": 40.7704942, "lon": 31.0710067}, {"type": "node", "id": 4108578655, "lat": 40.7243657, "lon": 31.0507172}, {"type": "node", "id": 4108578656, "lat": 40.7242896, "lon": 31.050556}, {"type": "node", "id": 4108578657, "lat": 40.724217, "lon": 31.0506191}, {"type": "node", "id": 4108578658, "lat": 40.7243002, "lon": 31.0507849}, {"type": "node", "id": 4108578659, "lat": 40.7241779, "lon": 31.050571}, {"type": "node", "id": 4108578660, "lat": 40.7241864, "lon": 31.0505984}, {"type": "node", "id": 4108578661, "lat": 40.7241825, "lon": 31.050634}, {"type": "node", "id": 4108578662, "lat": 40.7241625, "lon": 31.0506645}, {"type": "node", "id": 4108578663, "lat": 40.7241394, "lon": 31.0506807}, {"type": "node", "id": 4108578664, "lat": 40.7240993, "lon": 31.0506685}, {"type": "node", "id": 4108578665, "lat": 40.7240739, "lon": 31.050635}, {"type": "node", "id": 4108578666, "lat": 40.7240716, "lon": 31.0505923}, {"type": "node", "id": 4108578667, "lat": 40.7240916, "lon": 31.0505517}, {"type": "node", "id": 4108578668, "lat": 40.724134, "lon": 31.0505425}, {"type": "node", "id": 4108578669, "lat": 40.7241594, "lon": 31.0505466}, {"type": "node", "id": 4122790303, "lat": 40.8484374, "lon": 31.1516743, "tags": {"addr:street": "Adapazar\u0131-Bolu yolu", "amenity": "restaurant", "name": "K\u00f6fteci 1978"}}, {"type": "node", "id": 4323344284, "lat": 40.8551134, "lon": 31.1637136, "tags": {"amenity": "cafe", "name": "D\u00fczce Tenis Kl\u00fcb\u00fc", "smoking": "outside"}}, {"type": "node", "id": 4357416492, "lat": 40.9047018, "lon": 30.9512567, "tags": {"amenity": "restaurant", "internet_access": "wlan", "name": "Melencirafting"}}, {"type": "node", "id": 4360209201, "lat": 40.8389152, "lon": 31.1405333, "tags": {"amenity": "restaurant", "name": "Pide Efssanee", "name:tr": "Pide Efssanee", "phone": "03805262529"}}, {"type": "node", "id": 4397022095, "lat": 40.849514, "lon": 31.0472851, "tags": {"amenity": "cafe", "internet_access": "no", "name": "Asmaalt\u0131 K\u0131raathanesi", "smoking": "outside"}}, {"type": "node", "id": 4397022096, "lat": 40.8494693, "lon": 31.0470437, "tags": {"addr:street": "Adapazar\u0131-Bolu yolu", "amenity": "restaurant", "cuisine": "meat", "delivery": "yes", "name": "Korkmazlar Pide ve Izgara Salonu", "phone": "+903805364488", "smoking": "outside", "takeaway": "yes"}}, {"type": "node", "id": 4426488826, "lat": 40.7724915, "lon": 31.3156156, "tags": {"amenity": "restaurant"}}, {"type": "node", "id": 4426488827, "lat": 40.7724712, "lon": 31.3157202, "tags": {"amenity": "cafe", "name": "Internet Cafe"}}, {"type": "node", "id": 4426488840, "lat": 40.7738439, "lon": 31.2839671, "tags": {"amenity": "cafe", "cuisine": "regional", "name": "Konutlar \u00c7ay Bah\u00e7esi"}}, {"type": "node", "id": 4454033632, "lat": 40.9603105, "lon": 31.4436148, "tags": {"amenity": "restaurant", "name": "Huzur Kebap"}}, {"type": "node", "id": 4454033633, "lat": 40.959476, "lon": 31.4453958, "tags": {"amenity": "restaurant", "cuisine": "turkish", "name": "Ayd\u0131n Ustan\u0131n Yeri"}}, {"type": "node", "id": 4454033635, "lat": 40.9606589, "lon": 31.4447467, "tags": {"amenity": "cafe", "name": "Merkez Cay oca\u011f\u0131"}}, {"type": "node", "id": 4454487366, "lat": 40.9039582, "lon": 31.1533177, "tags": {"addr:street": "Cumhuriyet Caddesi", "amenity": "cafe", "name": "Aile \u00c7ay Bah\u00e7esi"}}, {"type": "node", "id": 4456029101, "lat": 40.8812799, "lon": 31.170025, "tags": {"amenity": "cafe", "name": "K\u0131raathane"}}, {"type": "node", "id": 4456066205, "lat": 40.8486891, "lon": 31.1496698, "tags": {"amenity": "cafe", "name": "K\u0131raathane"}}, {"type": "node", "id": 4456066216, "lat": 40.8446206, "lon": 31.1327539, "tags": {"amenity": "cafe", "name": "K\u0131raathane"}}, {"type": "node", "id": 4456066217, "lat": 40.8451065, "lon": 31.1326291, "tags": {"amenity": "cafe", "name": "\u00c7ay Oca\u011f\u0131"}}, {"type": "node", "id": 4456137858, "lat": 40.8426861, "lon": 31.1717457, "tags": {"amenity": "cafe", "name": "\u00c7ay Oca\u011f\u0131"}}, {"type": "node", "id": 4457140302, "lat": 40.9007717, "lon": 31.0909224, "tags": {"amenity": "cafe", "name": "K\u0131raathane"}}, {"type": "node", "id": 4460268857, "lat": 40.7813035, "lon": 31.278411, "tags": {"amenity": "cafe", "name": "K\u0131raathane"}}, {"type": "node", "id": 4460268859, "lat": 40.7809968, "lon": 31.2777538, "tags": {"amenity": "cafe", "name": "K\u0131raathane"}}, {"type": "node", "id": 4461856029, "lat": 40.9032758, "lon": 31.1820069, "tags": {"amenity": "restaurant", "name": "Kantin"}}, {"type": "node", "id": 4480870483, "lat": 40.8741065, "lon": 30.9510439, "tags": {"amenity": "restaurant", "name": "Neyzen Pide"}}, {"type": "node", "id": 4513211729, "lat": 40.9132575, "lon": 31.2363239, "tags": {"addr:city": "G\u00fcrc\u00fc\u00e7iflik", "addr:housenumber": "20", "addr:street": "D\u00fczce - Y\u0131\u011f\u0131lca Yolu", "amenity": "restaurant", "cuisine": "regional", "name": "Evcek"}}, {"type": "node", "id": 4609562397, "lat": 40.843679, "lon": 31.1833361, "tags": {"addr:housenumber": "45", "addr:street": "Zaid Kevseri Bulvar\u0131", "amenity": "restaurant", "cuisine": "turkish", "delivery": "yes", "name": "Ho\u015fg\u00f6r Ocakba\u015f\u0131", "outdoor_seating": "yes", "phone": "+903805233737", "smoking": "outside", "takeaway": "yes"}}, {"type": "node", "id": 4704762824, "lat": 40.8413762, "lon": 31.1475866, "tags": {"amenity": "cafe", "name": "Cafe \u00c7a\u011f"}}, {"type": "node", "id": 4756071227, "lat": 40.8528758, "lon": 31.164738, "tags": {"amenity": "cafe"}}, {"type": "node", "id": 4761702589, "lat": 40.8554517, "lon": 31.1549356, "tags": {"amenity": "restaurant", "cuisine": "turkish", "name": "\u015e\u00fck\u00fcr Sofras\u0131"}}, {"type": "node", "id": 4761702590, "lat": 40.8552812, "lon": 31.1550371, "tags": {"addr:street": "H\u00fcrriyet Caddesi", "amenity": "restaurant", "cuisine": "turkish", "name": "\u00c7orbac\u0131m"}}, {"type": "node", "id": 4828655450, "lat": 40.853619, "lon": 31.1646102, "tags": {"addr:housename": "\u00d6zdilek AVM", "amenity": "restaurant", "name": "Safahat Lokantas\u0131"}}, {"type": "node", "id": 4828675988, "lat": 40.8534254, "lon": 31.1647912, "tags": {"addr:housename": "\u00d6zdilek AVM", "amenity": "cafe", "name": "Cafe Safahat"}}, {"type": "node", "id": 4927859593, "lat": 40.8279025, "lon": 31.1679534, "tags": {"amenity": "restaurant"}}, {"type": "node", "id": 4927859594, "lat": 40.8278903, "lon": 31.1675886, "tags": {"amenity": "cafe"}}, {"type": "node", "id": 4996883822, "lat": 40.7727609, "lon": 31.3186632, "tags": {"amenity": "restaurant", "capacity": "70", "cuisine": "turkish", "name": "Meydan Lokantas\u0131", "outdoor_seating": "yes", "smoking": "outside"}}, {"type": "node", "id": 4996913512, "lat": 40.7475859, "lon": 31.3801103, "tags": {"amenity": "restaurant", "cuisine": "kebab;turkish", "name": "Cafer Usta"}}, {"type": "node", "id": 5081777210, "lat": 40.8407966, "lon": 31.1444089, "tags": {"addr:street": "\u0130stanbul Caddesi", "amenity": "cafe", "cuisine": "regional", "name": "Kusursuz Kafe"}}, {"type": "node", "id": 5470896016, "lat": 40.8314642, "lon": 31.060114, "tags": {"amenity": "cafe", "name": "Cami Alt\u0131 Kahvehanesi"}}, {"type": "node", "id": 5470900265, "lat": 40.8325461, "lon": 31.0601989, "tags": {"amenity": "cafe", "name": "R\u0131dvan BOZ'un KAFES\u0130"}}, {"type": "node", "id": 5518583766, "lat": 40.8497729, "lon": 31.0553541, "tags": {"amenity": "restaurant"}}, {"type": "node", "id": 6498547986, "lat": 40.8448651, "lon": 31.1128888, "tags": {"amenity": "cafe"}}, {"type": "node", "id": 6499368634, "lat": 40.8441521, "lon": 31.117349}, {"type": "node", "id": 6499368635, "lat": 40.844036, "lon": 31.1181323}, {"type": "node", "id": 6499368636, "lat": 40.8437917, "lon": 31.1180112}, {"type": "node", "id": 6499368637, "lat": 40.8439444, "lon": 31.1172441}, {"type": "node", "id": 6547533912, "lat": 40.8097004, "lon": 31.1978758, "tags": {"amenity": "restaurant", "cuisine": "turkish", "name": "K\u00fc\u00e7\u00fck G\u00f6l K\u0131r Bah\u00e7esi"}}, {"type": "node", "id": 6547533913, "lat": 40.8096679, "lon": 31.1974681, "tags": {"amenity": "restaurant", "cuisine": "turkish", "name": "Royal Park K\u0131r Bah\u00e7esi"}}, {"type": "node", "id": 6833442921, "lat": 40.7468778, "lon": 31.1023032}, {"type": "node", "id": 6833442922, "lat": 40.7467773, "lon": 31.1021845}, {"type": "node", "id": 6833442923, "lat": 40.7465976, "lon": 31.1024078}, {"type": "node", "id": 6833442924, "lat": 40.7466822, "lon": 31.1025334}, {"type": "node", "id": 7296212618, "lat": 40.840838, "lon": 31.1613555, "tags": {"addr:neighbourhood": "\u015eerefiye Mahallesi", "addr:street": "\u015eehit Ruhsar Caddesi", "amenity": "restaurant", "cuisine": "turkish", "name": "Marmara Kebap"}}, {"type": "node", "id": 7296212619, "lat": 40.8417917, "lon": 31.1622781, "tags": {"addr:housenumber": "8", "addr:neighbourhood": "\u015eerefiye Mahallesi", "addr:street": "Necatibey Sokak", "amenity": "restaurant", "cuisine": "turkish", "name": "\u00d6zhac\u0131o\u011flu Kebap", "opening_hours": "Mo-Su 09:00-20:00"}}, {"type": "node", "id": 7648451464, "lat": 40.8410387, "lon": 31.14242, "tags": {"addr:city": "D\u00fczce", "addr:district": "D\u00fczce", "addr:neighbourhood": "Kiremitoca\u011f\u0131 Mahallesi", "addr:street": "Migros Otopark", "amenity": "cafe", "name": "Kocatepe 1949 Cafe"}}, {"type": "node", "id": 7648477248, "lat": 40.840492, "lon": 31.1488841, "tags": {"addr:city": "D\u00fczce", "addr:district": "D\u00fczce", "addr:street": "\u0130stanbul Caddesi", "amenity": "restaurant", "cuisine": "turkish", "name": "Gurme \u0130smet Usta"}}, {"type": "node", "id": 7677824188, "lat": 40.8481881, "lon": 31.1505669, "tags": {"amenity": "cafe", "name": "Lokanta"}}, {"type": "node", "id": 8006965655, "lat": 40.8760139, "lon": 31.1692457, "tags": {"amenity": "restaurant", "cuisine": "turkish", "diet:meat": "yes", "name": "Kanat\u00e7\u0131 Suat Usta"}}, {"type": "node", "id": 8329465932, "lat": 40.5920219, "lon": 31.2782758, "tags": {"amenity": "restaurant", "name": "Restaurant"}}, {"type": "node", "id": 8476035353, "lat": 40.8434389, "lon": 31.1367394}, {"type": "node", "id": 8492115703, "lat": 40.8487327, "lon": 31.1422293, "tags": {"amenity": "cafe", "brand": "Starbucks", "brand:wikidata": "Q37158", "brand:wikipedia": "en:Starbucks", "cuisine": "coffee_shop", "name": "Starbucks", "official_name": "Starbucks Coffee", "takeaway": "yes"}}, {"type": "node", "id": 8558425029, "lat": 40.7573179, "lon": 31.2843881, "tags": {"amenity": "restaurant", "cuisine": "turkish", "name": "Orya Restaurant", "source:name": "Ahmet Bozdemir"}}, {"type": "node", "id": 8871405787, "lat": 40.852055, "lon": 31.0218261, "tags": {"amenity": "cafe", "name": "KANAL KAFE"}}, {"type": "node", "id": 9321292124, "lat": 40.8995369, "lon": 31.1704267, "tags": {"addr:city": "D\u00fczce", "addr:district": "Merkez", "addr:housenumber": "5/B", "addr:neighbourhood": "\u015eehit Murat Demir Mah.", "addr:postcode": "81620", "addr:street": "Orhangazi Caddesi", "amenity": "cafe", "name": "Mera Chocolate", "opening_hours": "13:00 - 01:00", "outdoor_seating": "yes", "phone": "+905373116372", "website": "https://meracikolata.com/"}}, {"type": "node", "id": 9355694223, "lat": 40.7749882, "lon": 31.2057059}, {"type": "node", "id": 9355694224, "lat": 40.7749196, "lon": 31.2058003}, {"type": "node", "id": 9355694225, "lat": 40.7749515, "lon": 31.2058462}, {"type": "node", "id": 9355694226, "lat": 40.7749379, "lon": 31.2058666}, {"type": "node", "id": 9355694227, "lat": 40.7749688, "lon": 31.2058934}, {"type": "node", "id": 9355694228, "lat": 40.7749727, "lon": 31.2058488}, {"type": "node", "id": 9355694229, "lat": 40.775079, "lon": 31.2058335}, {"type": "node", "id": 9355694230, "lat": 40.7750104, "lon": 31.2059291}, {"type": "node", "id": 9355694231, "lat": 40.7749829, "lon": 31.2058864}, {"type": "node", "id": 9958398917, "lat": 40.8754329, "lon": 31.1389685, "tags": {"amenity": "cafe", "cuisine": "regional", "name": "\u00c7ay Oca\u011f\u0131"}}, {"type": "node", "id": 10091955360, "lat": 40.8436046, "lon": 31.1363854}, {"type": "node", "id": 10091955362, "lat": 40.8433822, "lon": 31.1366881}, {"type": "node", "id": 10091955363, "lat": 40.8435494, "lon": 31.1363461}, {"type": "node", "id": 10744989191, "lat": 40.8415155, "lon": 31.1563179, "tags": {"addr:city": "D\u00fczce", "addr:district": "Merkez", "addr:housenumber": "4A", "addr:neighbourhood": "K\u00fclt\u00fcr Mahallesi", "addr:postcode": "81010", "addr:street": "Bankalar Sokak", "amenity": "cafe", "cuisine": "coffee_shop;dessert;chocolate", "name": "Quechi Coffee Bakery", "opening_hours": "Mo-Su 09:00-01:00", "outdoor_seating": "yes", "website": "quechicoffee.com"}}, {"type": "node", "id": 11347252573, "lat": 40.5764192, "lon": 30.8923322}, {"type": "node", "id": 11347252574, "lat": 40.5764068, "lon": 30.8922603}, {"type": "node", "id": 11347252575, "lat": 40.5765294, "lon": 30.8921955}, {"type": "node", "id": 11347252576, "lat": 40.5763228, "lon": 30.8922886}, {"type": "node", "id": 11347252577, "lat": 40.5764253, "lon": 30.8923638}, {"type": "node", "id": 11347252578, "lat": 40.5765537, "lon": 30.8923206}, {"type": "node", "id": 11347252579, "lat": 40.5764025, "lon": 30.8922381}, {"type": "node", "id": 11347252580, "lat": 40.5763367, "lon": 30.89236}, {"type": "node", "id": 11639982460, "lat": 40.7552129, "lon": 31.3622277, "tags": {"amenity": "restaurant"}}, {"type": "node", "id": 12014776990, "lat": 40.7891971, "lon": 31.2397804, "tags": {"amenity": "cafe", "check_date": "2024-06-27"}}, {"type": "node", "id": 12014776991, "lat": 40.7891962, "lon": 31.239583, "tags": {"amenity": "cafe", "check_date": "2024-06-27", "cuisine": "coffee_shop"}}, {"type": "node", "id": 12014776992, "lat": 40.7891461, "lon": 31.2410685, "tags": {"amenity": "cafe", "check_date": "2024-06-27", "name": "Bolu T\u00fcrk Mutfa\u011f\u0131"}}, {"type": "node", "id": 12208720681, "lat": 40.8969176, "lon": 31.1688949, "tags": {"addr:city": "D\u00fczce", "addr:district": "Konuralp", "addr:housenumber": "27/A", "addr:neighbourhood": "\u015eehit Murat Demir Mahallesi", "addr:postcode": "81620", "addr:street": "Necmi Ho\u015fver Caddesi", "amenity": "cafe", "bar": "yes", "branch": "D\u00fczce Garden", "brand": "Arabica Coffee House", "coffee": "yes", "cuisine": "coffee_shop;pasta;coffee", "diet:fresh": "yes", "internet_access": "yes", "internet_access:fee": "no", "name": "Arabica Coffee House D\u00fczce Garden", "not:brand:wikidata": "Q107639197", "opening_hours": "Mo-Su 10:00-02:00", "outdoor_seating": "yes", "phone": "05373009599", "takeaway": "yes", "website": "https://www.arabicacoffee.com.tr/"}}, {"type": "node", "id": 12559979087, "lat": 40.7920315, "lon": 31.2396746}, {"type": "node", "id": 12559979088, "lat": 40.7920035, "lon": 31.2396734}, {"type": "node", "id": 12559979089, "lat": 40.7918268, "lon": 31.2401328}, {"type": "node", "id": 12559979090, "lat": 40.791842, "lon": 31.2395666}, {"type": "node", "id": 12559979091, "lat": 40.7919345, "lon": 31.2395709}, {"type": "node", "id": 12559979092, "lat": 40.7919328, "lon": 31.2396359}, {"type": "node", "id": 12559979093, "lat": 40.7920043, "lon": 31.2396391}, {"type": "node", "id": 12559979094, "lat": 40.7916774, "lon": 31.2405305}, {"type": "node", "id": 12559979095, "lat": 40.7916623, "lon": 31.240625}, {"type": "node", "id": 12559979096, "lat": 40.7916947, "lon": 31.2406722}, {"type": "node", "id": 12559979097, "lat": 40.7917023, "lon": 31.2420514}, {"type": "node", "id": 12559979098, "lat": 40.7917138, "lon": 31.2415674}, {"type": "node", "id": 12743805777, "lat": 40.856495, "lon": 31.0220344, "tags": {"addr:city": "D\u00fczce", "addr:district": "G\u00fcm\u00fc\u015fova", "addr:neighbourhood": "Hac\u0131 Kadirler Yolu", "amenity": "cafe", "cuisine": "tea;coffee_shop;toast", "internet_access": "yes", "internet_access:fee": "customers", "name": "Hollandal\u0131'n\u0131n Yeri", "opening_hours": "Mo-Su 10:00-24:00", "outdoor_seating": "yes"}}, {"type": "node", "id": 12790217467, "lat": 40.9009521, "lon": 31.1701496, "tags": {"addr:housenumber": "No: 110A", "addr:neighbourhood": "\u015eehit Murat Demir Mah.", "addr:street": "Necmettin Erbakan caddesi", "amenity": "cafe", "cuisine": "coffee_shop;kahve;coffee;sandwich;pasta", "internet_access": "wlan", "internet_access:fee": "no", "name": "Microlot Coffee & Roaster D\u00fczce", "opening_hours": "Mo-Su 08:00-01:00", "outdoor_seating": "yes", "phone": "444 2 339", "website": "https://microlot.com.tr/"}}, {"type": "way", "id": 174043078, "nodes": [1847962959, 1847962961, 12559979096, 12559979095, 12559979094, 1847962951, 1847962953, 12559979089, 12559979090, 12559979091, 12559979092, 12559979093, 12559979088, 12559979087, 1847962967, 12559979097, 12559979098, 1847962959], "tags": {"amenity": "restaurant", "building": "yes", "source": "bing"}}, {"type": "way", "id": 282779996, "nodes": [2867202253, 2867202254, 2867202255, 2867202256, 2867202257, 2867202258, 2867202259, 2867202260, 2867202261, 2867202253], "tags": {"amenity": "restaurant", "building": "yes", "cuisine": "regional", "name": "Do\u011fa Restorant", "smoking": "outside"}}, {"type": "way", "id": 289865890, "nodes": [2934039745, 2934039746, 2934039747, 2934039748, 2934039749, 2934039750, 2934039751, 2934039745], "tags": {"amenity": "restaurant", "capacity": "100", "cuisine": "regional", "name": "Neris Cafe Restorant", "smoking": "outside"}}, {"type": "way", "id": 289866144, "nodes": [2934041081, 2934041082, 2934041083, 2934041084, 2934041085, 2934041086, 2934041087, 2934041081], "tags": {"amenity": "restaurant", "capacity": "200", "cuisine": "regional", "name": "\u00c7\u0131naralt\u0131 Restorant", "smoking": "outside"}}, {"type": "way", "id": 305541458, "nodes": [3101819584, 3101819585, 3101819586, 3101819588, 3101819584], "tags": {"addr:street": "Uzunmustafa Caddesi", "amenity": "restaurant", "building": "yes", "name": "Konak D\u00fc\u011f\u00fcn Salonu", "social_facility:for": "abused"}}, {"type": "way", "id": 375099390, "nodes": [3784879652, 3784879653, 3784879654, 3784879655, 3784879656, 3784889157, 3784879652], "tags": {"amenity": "cafe", "building": "yes", "name": "Dar\u0131c\u0131 Aile \u00c7ay Bah\u00e7esi"}}, {"type": "way", "id": 404699127, "nodes": [4069709652, 4069709653, 4069709654, 4069709655, 4069709652], "tags": {"amenity": "cafe", "building": "yes", "cuisine": "coffee_shop", "name": "Kahvehane", "smoking": "no"}}, {"type": "way", "id": 405933761, "nodes": [4080650728, 4080650729, 4080650730, 4080650731, 4080650728], "tags": {"amenity": "restaurant", "building": "yes", "name": "Ta\u00e7 Tar\u0131m", "source": "Ahmet Bozdemir"}}, {"type": "way", "id": 408958691, "nodes": [4108578655, 4108578656, 4108578657, 4108578658, 4108578655], "tags": {"amenity": "restaurant", "building": "yes", "name": "Tesis", "source": "survey"}}, {"type": "way", "id": 408958692, "nodes": [4108578659, 4108578660, 4108578661, 4108578662, 4108578663, 4108578664, 4108578665, 4108578666, 4108578667, 4108578668, 4108578669, 4108578659], "tags": {"amenity": "cafe", "building": "yes", "name": "Kahvehane", "source": "survey"}}, {"type": "way", "id": 692383229, "nodes": [6499368634, 6499368635, 6499368636, 6499368637, 6499368634], "tags": {"amenity": "restaurant", "building": "yes", "cuisine": "turkish", "name": "\u0130spir Ekmek Tesisleri"}}, {"type": "way", "id": 729405557, "nodes": [6833442921, 6833442922, 6833442923, 6833442924, 6833442921], "tags": {"amenity": "restaurant", "building": "yes", "cuisine": "turkish", "name": "D\u00fczce Belediye \u0130\u015fletmesi", "source": "survey"}}, {"type": "way", "id": 1014055550, "nodes": [9355694223, 9355694224, 9355694225, 9355694226, 9355694227, 9355694228, 9355694231, 9355694230, 9355694229, 9355694223], "tags": {"amenity": "cafe", "building": "yes"}}, {"type": "way", "id": 1102852619, "nodes": [10091955360, 8476035353, 10091955362, 10091955363, 10091955360], "tags": {"amenity": "cafe", "building": "yes", "name": "Hatane Kafeleri"}}, {"type": "way", "id": 1223317358, "nodes": [11347252580, 11347252576, 11347252574, 11347252579, 11347252575, 11347252578, 11347252577, 11347252573, 11347252580], "tags": {"amenity": "restaurant", "building": "yes", "contact:phone": "+90 531 810 96 39", "name": "Dokurcun Dere kenar\u0131", "opening_hours": "Mo-Su 08:00-22:00"}}]}