{"version": 0.6, "generator": "Overpass API 0.7.62.7 375dc00a", "osm3s": {"timestamp_osm_base": "2025-06-14T13:27:14Z", "copyright": "The data included in this document is from www.openstreetmap.org. The data is made available under ODbL."}, "elements": [{"type": "node", "id": 1659512179, "lat": 36.8381597, "lon": 11.116379, "tags": {"amenity": "cafe", "name": "Au Fort"}}, {"type": "node", "id": 2182258326, "lat": 36.8493408, "lon": 11.1259088}, {"type": "node", "id": 2182258335, "lat": 36.8491777, "lon": 11.1252328}, {"type": "node", "id": 2182297720, "lat": 36.8493421, "lon": 11.1259852}, {"type": "node", "id": 2182364832, "lat": 36.8329709, "lon": 11.1151076}, {"type": "node", "id": 2182364836, "lat": 36.8332242, "lon": 11.1151881}, {"type": "node", "id": 2182364839, "lat": 36.8331169, "lon": 11.1153088}, {"type": "node", "id": 2182364860, "lat": 36.8330525, "lon": 11.1150218}, {"type": "node", "id": 2182364868, "lat": 36.8331299, "lon": 11.1150378}, {"type": "node", "id": 2185160331, "lat": 36.8489953, "lon": 11.1257548}, {"type": "node", "id": 2185160332, "lat": 36.8490054, "lon": 11.1258251}, {"type": "node", "id": 2185160337, "lat": 36.8490285, "lon": 11.1258804}, {"type": "node", "id": 2185160340, "lat": 36.8490395, "lon": 11.1256682}, {"type": "node", "id": 2185160341, "lat": 36.8490415, "lon": 11.1257548}, {"type": "node", "id": 2185160347, "lat": 36.8490757, "lon": 11.1259205}, {"type": "node", "id": 2185160349, "lat": 36.8490898, "lon": 11.1255552}, {"type": "node", "id": 2185160351, "lat": 36.8491159, "lon": 11.1256443}, {"type": "node", "id": 2185160355, "lat": 36.8491279, "lon": 11.1259406}, {"type": "node", "id": 2185160356, "lat": 36.849136, "lon": 11.1258703}, {"type": "node", "id": 2185160360, "lat": 36.8491711, "lon": 11.1258665}, {"type": "node", "id": 2185160362, "lat": 36.8491993, "lon": 11.125849}, {"type": "node", "id": 2185160365, "lat": 36.8492093, "lon": 11.1258226}, {"type": "node", "id": 2185160366, "lat": 36.8492163, "lon": 11.1254899}, {"type": "node", "id": 2185160376, "lat": 36.8492917, "lon": 11.1257937}, {"type": "node", "id": 2185310771, "lat": 36.8396672, "lon": 11.1055112}, {"type": "node", "id": 2185310788, "lat": 36.8392007, "lon": 11.1050627}, {"type": "node", "id": 2186306219, "lat": 36.8395049, "lon": 11.1045355}, {"type": "node", "id": 2186306221, "lat": 36.839691, "lon": 11.1046875}, {"type": "node", "id": 2186306223, "lat": 36.8398022, "lon": 11.1047919}, {"type": "node", "id": 2186306229, "lat": 36.8399875, "lon": 11.1049428}, {"type": "node", "id": 2570808230, "lat": 36.8557901, "lon": 11.1291929, "tags": {"amenity": "restaurant", "name": "Le Marin", "phone": "+216 72 208 072"}}, {"type": "node", "id": 2570824443, "lat": 36.8389881, "lon": 11.1172303, "tags": {"amenity": "cafe", "name": "Caf\u00e9 du Fort"}}, {"type": "node", "id": 2570824530, "lat": 36.8335655, "lon": 11.1157551, "tags": {"amenity": "cafe", "name": "sidi el bahri"}}, {"type": "node", "id": 2570824796, "lat": 36.8333766, "lon": 11.1155619, "tags": {"amenity": "restaurant", "name": "Le Go\u00e9land"}}, {"type": "node", "id": 2570826858, "lat": 36.8321429, "lon": 11.1122286, "tags": {"amenity": "cafe", "name": "Cafeteria Agil"}}, {"type": "node", "id": 2570828684, "lat": 36.835453, "lon": 11.1124821, "tags": {"amenity": "restaurant", "cuisine": "italian", "internet_access": "wlan", "name": "La Siciliana", "phone": "+216 72 277 088"}}, {"type": "node", "id": 2570830738, "lat": 36.8372923, "lon": 11.1096772, "tags": {"amenity": "cafe", "name": "Club des Sports Nautiques de K\u00e9libia (CSNK)"}}, {"type": "node", "id": 2570838120, "lat": 36.8419001, "lon": 11.1017061, "tags": {"amenity": "cafe", "name": "Caf\u00e9 Eddokena \u0627\u0644\u062f\u0643\u0651\u0627\u0646\u0629"}}, {"type": "node", "id": 2570850760, "lat": 36.8467865, "lon": 11.0912987, "tags": {"amenity": "cafe", "name": "Cafeteria C.O.K"}}, {"type": "node", "id": 2570850764, "lat": 36.8465718, "lon": 11.0913148, "tags": {"amenity": "cafe", "name": "\u0645\u0642\u0647\u0649 \u062f\u0627\u0631 \u0627\u0644\u0634\u0639\u0628", "name:ar": "\u0645\u0642\u0647\u0649 \u062f\u0627\u0631 \u0627\u0644\u0634\u0639\u0628", "name:fr": "dar echa3b"}}, {"type": "node", "id": 3466391279, "lat": 36.8483943, "lon": 11.0898255, "tags": {"addr:city": "\u0642\u0644\u064a\u0628\u064a\u0629", "addr:housenumber": "70", "addr:postcode": "8090", "addr:street": "\u0634\u0627\u0631\u0639 \u0627\u0628\u0646 \u062e\u0644\u062f\u0648\u0646", "addr:street:ar": "\u0634\u0627\u0631\u0639 \u0627\u0628\u0646 \u062e\u0644\u062f\u0648\u0646", "amenity": "cafe", "cuisine": "coffee_shop", "ele": "50", "internet_access": "no", "name": "\u0645\u0642\u0647\u0649 \u0639\u0644\u0627\u0621 \u0627\u0644\u062f\u064a\u0646", "name:ar": "\u0645\u0642\u0647\u0649 \u0639\u0644\u0627\u0621 \u0627\u0644\u062f\u064a\u0646", "operator": "\u0639\u0628\u062f \u0627\u0644\u062d\u0645\u064a\u062f \u0627\u0644\u0634\u0643\u064a\u0644\u064a", "smoking": "yes", "takeaway": "yes"}}, {"type": "node", "id": 3710022645, "lat": 36.8493738, "lon": 11.1261236}, {"type": "node", "id": 3710027597, "lat": 36.8493287, "lon": 11.1261406}, {"type": "node", "id": 3710027598, "lat": 36.8492794, "lon": 11.1261958}, {"type": "node", "id": 3710027599, "lat": 36.8491699, "lon": 11.1262511}, {"type": "node", "id": 3710027600, "lat": 36.8491207, "lon": 11.1263163}, {"type": "node", "id": 3710027601, "lat": 36.8490584, "lon": 11.1263163}, {"type": "node", "id": 3710027602, "lat": 36.8490202, "lon": 11.1263214}, {"type": "node", "id": 3710046195, "lat": 36.8489439, "lon": 11.1264268}, {"type": "node", "id": 3710046196, "lat": 36.8488677, "lon": 11.1264648}, {"type": "node", "id": 3710046197, "lat": 36.8488403, "lon": 11.1264189}, {"type": "node", "id": 3710046198, "lat": 36.848845, "lon": 11.1263562}, {"type": "node", "id": 3710046199, "lat": 36.8488577, "lon": 11.126316}, {"type": "node", "id": 3710046200, "lat": 36.8488085, "lon": 11.1262871}, {"type": "node", "id": 3710046201, "lat": 36.8487946, "lon": 11.1262662}, {"type": "node", "id": 3710046202, "lat": 36.8488436, "lon": 11.1262043}, {"type": "node", "id": 3710046203, "lat": 36.848918, "lon": 11.1261139}, {"type": "node", "id": 3710046204, "lat": 36.848924, "lon": 11.1260812}, {"type": "node", "id": 3710046205, "lat": 36.8489049, "lon": 11.1260649}, {"type": "node", "id": 3710046206, "lat": 36.8488255, "lon": 11.1261289}, {"type": "node", "id": 3710046207, "lat": 36.8487944, "lon": 11.126144}, {"type": "node", "id": 3710046208, "lat": 36.8487864, "lon": 11.1261151}, {"type": "node", "id": 3710046209, "lat": 36.8488155, "lon": 11.12608}, {"type": "node", "id": 3710046210, "lat": 36.8488034, "lon": 11.1260523}, {"type": "node", "id": 3710049180, "lat": 36.8488095, "lon": 11.1260222}, {"type": "node", "id": 3710049181, "lat": 36.8488527, "lon": 11.126026}, {"type": "node", "id": 3710049182, "lat": 36.848969, "lon": 11.1259243}, {"type": "node", "id": 3710049183, "lat": 36.8489565, "lon": 11.125876}, {"type": "node", "id": 3710049184, "lat": 36.8489115, "lon": 11.1258551}, {"type": "node", "id": 3710049185, "lat": 36.8488865, "lon": 11.1258117}, {"type": "node", "id": 3710049186, "lat": 36.848915, "lon": 11.1257385}, {"type": "node", "id": 3710049187, "lat": 36.8488718, "lon": 11.1257059}, {"type": "node", "id": 3710049188, "lat": 36.8487854, "lon": 11.1256971}, {"type": "node", "id": 3710049189, "lat": 36.848713, "lon": 11.125613}, {"type": "node", "id": 3710049190, "lat": 36.8486649, "lon": 11.1255029}, {"type": "node", "id": 3813057927, "lat": 36.8474986, "lon": 11.0863196, "tags": {"amenity": "cafe", "internet_access": "no", "name": "\u0643\u0627\u0641\u064a\u062a\u064a\u0631\u064a\u0627 \u0627\u0644\u0632\u0642\u0644\u064a", "name:ar": "\u0643\u0627\u0641\u064a\u062a\u064a\u0631\u064a\u0627 \u0627\u0644\u0632\u0642\u0644\u064a", "name:fr": "Pause Caf\u00e9 Ezgoli", "smoking": "yes"}}, {"type": "node", "id": 4136479160, "lat": 36.8472272, "lon": 11.0908294, "tags": {"addr:city": "\u0642\u0644\u064a\u0628\u064a\u0629", "addr:postcode": "8090", "addr:street": "\u0634\u0627\u0631\u0639 \u0627\u0628\u0646 \u062e\u0644\u062f\u0648\u0646", "amenity": "restaurant", "delivery": "no", "name": "Pizzeria La Reine", "takeaway": "yes"}}, {"type": "node", "id": 4348632875, "lat": 36.7758629, "lon": 11.0126701}, {"type": "node", "id": 4348632876, "lat": 36.7757272, "lon": 11.0129135}, {"type": "node", "id": 4348632877, "lat": 36.7761911, "lon": 11.0133263}, {"type": "node", "id": 4348632878, "lat": 36.776317, "lon": 11.0130891}, {"type": "node", "id": 4348632879, "lat": 36.7759912, "lon": 11.012781}, {"type": "node", "id": 5987425785, "lat": 36.7758145, "lon": 11.0129649, "tags": {"amenity": "cafe", "name": "la siren"}}, {"type": "node", "id": 6318392559, "lat": 36.8407426, "lon": 11.1041557, "tags": {"amenity": "cafe", "name": "Caf\u00e9 Del Mondo"}}, {"type": "node", "id": 6318392560, "lat": 36.8410273, "lon": 11.1037409, "tags": {"amenity": "restaurant", "name": "Doctor Pizza"}}, {"type": "node", "id": 6318392561, "lat": 36.8412367, "lon": 11.1031914, "tags": {"amenity": "restaurant", "name": "Clandestino"}}, {"type": "node", "id": 6318392563, "lat": 36.8403485, "lon": 11.1027847, "tags": {"amenity": "cafe", "name": "l'Aquarium"}}, {"type": "node", "id": 6321849209, "lat": 36.8491662, "lon": 11.0977744, "tags": {"amenity": "cafe", "name": "\u0633\u064a\u062f\u064a \u0628\u0646 \u0639\u064a\u0633", "name:ar": "\u0633\u064a\u062f\u064a \u0628\u0646 \u0639\u064a\u0633"}}, {"type": "node", "id": 6321849210, "lat": 36.838285, "lon": 11.0984636, "tags": {"amenity": "restaurant", "name": "Casa Del Forno"}}, {"type": "node", "id": 6321849216, "lat": 36.8425708, "lon": 11.119028, "tags": {"amenity": "restaurant", "name": "Caf\u00e9 Cap K\u00e9libia"}}, {"type": "node", "id": 6321849219, "lat": 36.8450254, "lon": 11.1210081, "tags": {"amenity": "cafe", "name": "Cafe Fatha"}}, {"type": "node", "id": 6321849223, "lat": 36.8482524, "lon": 11.1241015, "tags": {"amenity": "restaurant", "name": "Restaurant Jammoulti"}}, {"type": "node", "id": 6321849224, "lat": 36.8487729, "lon": 11.1244884, "tags": {"amenity": "restaurant", "name": "Restaurant Bar Monaco Bay"}}, {"type": "node", "id": 6321849225, "lat": 36.8501908, "lon": 11.1249089, "tags": {"amenity": "restaurant", "name": "L'Op\u00e9ra"}}, {"type": "node", "id": 6321849226, "lat": 36.850128, "lon": 11.1242697, "tags": {"amenity": "restaurant", "name": "La Sir\u00e8ne"}}, {"type": "node", "id": 6321849227, "lat": 36.8505094, "lon": 11.124993, "tags": {"amenity": "restaurant", "name": "Palm Beach Kelibia"}}, {"type": "node", "id": 6321849228, "lat": 36.8498556, "lon": 11.1233911, "tags": {"amenity": "cafe", "name": "Caf\u00e9 Cap K\u00e9libia"}}, {"type": "node", "id": 6321849229, "lat": 36.8343927, "lon": 11.1165942, "tags": {"amenity": "restaurant", "name": "Salle des Mariages Mosa\u00efque"}}, {"type": "node", "id": 6321849247, "lat": 36.8353916, "lon": 11.1117377, "tags": {"amenity": "restaurant", "name": "Le Vieux Port"}}, {"type": "node", "id": 6321849248, "lat": 36.8361627, "lon": 11.1118022, "tags": {"amenity": "cafe", "name": "El Barraka"}}, {"type": "node", "id": 6321849249, "lat": 36.8357316, "lon": 11.112587, "tags": {"amenity": "restaurant", "name": "Le Petit P\u00eacheur"}}, {"type": "node", "id": 6321849251, "lat": 36.8357324, "lon": 11.1114935, "tags": {"amenity": "restaurant", "name": "La Casa"}}, {"type": "node", "id": 6321849252, "lat": 36.8368021, "lon": 11.1105422, "tags": {"amenity": "restaurant", "name": "Bavarois"}}, {"type": "node", "id": 6321849253, "lat": 36.8370769, "lon": 11.1107185, "tags": {"amenity": "restaurant", "name": "La Grinta"}}, {"type": "node", "id": 6321849254, "lat": 36.837466, "lon": 11.1100268, "tags": {"amenity": "restaurant", "name": "Toro Fish"}}, {"type": "node", "id": 6321849255, "lat": 36.8375913, "lon": 11.1089144, "tags": {"amenity": "cafe", "name": "Caf\u00e9 Ommi Zohra"}}, {"type": "node", "id": 6321849257, "lat": 36.8379614, "lon": 11.1082195, "tags": {"amenity": "cafe", "name": "Caf\u00e9 El Malouf"}}, {"type": "node", "id": 6321849258, "lat": 36.8379937, "lon": 11.1066954, "tags": {"amenity": "cafe", "name": "Flamingo coffee"}}, {"type": "node", "id": 6321849259, "lat": 36.837912, "lon": 11.1057115, "tags": {"amenity": "cafe", "name": "Caf\u00e9 Charbabbou-Chez Jhonny"}}, {"type": "node", "id": 6321849260, "lat": 36.8370614, "lon": 11.1021754, "tags": {"amenity": "cafe", "name": "Caf\u00e9 Ennasim"}}, {"type": "node", "id": 6321849262, "lat": 36.8398666, "lon": 11.1017858, "tags": {"amenity": "cafe", "name": "Salon de Th\u00e9 Thalassa"}}, {"type": "node", "id": 6321849263, "lat": 36.839675, "lon": 11.1014026, "tags": {"amenity": "cafe", "name": "Caf\u00e9 Gara"}}, {"type": "node", "id": 6321849264, "lat": 36.8417588, "lon": 11.1020466, "tags": {"amenity": "cafe", "name": "Big Ben"}}, {"type": "node", "id": 6321849265, "lat": 36.8414911, "lon": 11.1016543, "tags": {"amenity": "restaurant", "name": "Baba Habib"}}, {"type": "node", "id": 6321849267, "lat": 36.841808, "lon": 11.1008967, "tags": {"amenity": "restaurant", "name": "El Kolla"}}, {"type": "node", "id": 6321849268, "lat": 36.8421228, "lon": 11.0997263, "tags": {"amenity": "cafe", "name": "Lampara Caf\u00e9"}}, {"type": "node", "id": 6321849269, "lat": 36.8430299, "lon": 11.1018327, "tags": {"amenity": "cafe", "name": "El Garage 8090"}}, {"type": "node", "id": 6321849270, "lat": 36.8428505, "lon": 11.1023659, "tags": {"amenity": "cafe", "name": "Caf\u00e9 Mondiale"}}, {"type": "node", "id": 6321849271, "lat": 36.8443213, "lon": 11.1003973, "tags": {"amenity": "cafe", "name": "Caf\u00e9 Pergola"}}, {"type": "node", "id": 6321849272, "lat": 36.8443699, "lon": 11.1012284, "tags": {"amenity": "cafe", "name": "Caf\u00e9 Hamma"}}, {"type": "node", "id": 6321849274, "lat": 36.8434431, "lon": 11.0956014, "tags": {"amenity": "restaurant", "name": "Paparazzi"}}, {"type": "node", "id": 6321849275, "lat": 36.8432677, "lon": 11.0952399, "tags": {"amenity": "cafe", "name": "Loft"}}, {"type": "node", "id": 6321849276, "lat": 36.8440348, "lon": 11.0975119, "tags": {"amenity": "cafe", "name": "Caf\u00e9 Del Mondo"}}, {"type": "node", "id": 6321849277, "lat": 36.8443019, "lon": 11.0969026, "tags": {"amenity": "restaurant", "name": "Steaky Chez Hersen"}}, {"type": "node", "id": 6321849278, "lat": 36.8440581, "lon": 11.0965954, "tags": {"amenity": "restaurant", "name": "La Luna"}}, {"type": "node", "id": 6321849279, "lat": 36.8444591, "lon": 11.0963738, "tags": {"amenity": "cafe", "name": "Caf\u00e9 Omar"}}, {"type": "node", "id": 6321849281, "lat": 36.8447526, "lon": 11.0957727, "tags": {"amenity": "cafe", "name": "Caf\u00e9 Bachtambour"}}, {"type": "node", "id": 6321849282, "lat": 36.8445542, "lon": 11.0944481, "tags": {"amenity": "restaurant", "name": "La Perla"}}, {"type": "node", "id": 6321849283, "lat": 36.8450706, "lon": 11.0953617, "tags": {"amenity": "cafe", "name": "Caf\u00e9 Jeune"}}, {"type": "node", "id": 6321849284, "lat": 36.8461741, "lon": 11.0922236, "tags": {"amenity": "cafe", "name": "La Palma"}}, {"type": "node", "id": 6321850290, "lat": 36.8459942, "lon": 11.0846155, "tags": {"amenity": "restaurant", "name": "Pizzaria Nino's"}}, {"type": "node", "id": 6321850304, "lat": 36.8395973, "lon": 11.1009836, "tags": {"amenity": "restaurant", "name": "Workshop Bistro"}}, {"type": "node", "id": 6348408776, "lat": 36.7789581, "lon": 10.9964659, "tags": {"amenity": "restaurant", "name": "MT"}}, {"type": "node", "id": 6348411326, "lat": 36.7733711, "lon": 10.9815886, "tags": {"amenity": "cafe", "name": "Caf\u00e9 Becha"}}, {"type": "node", "id": 6348411328, "lat": 36.7806858, "lon": 10.9861414, "tags": {"amenity": "restaurant", "name": "La Reine"}}, {"type": "node", "id": 6348411346, "lat": 36.7812507, "lon": 10.9882513, "tags": {"amenity": "cafe", "name": "Mandila"}}, {"type": "node", "id": 6348411356, "lat": 36.7814863, "lon": 10.9887369, "tags": {"amenity": "cafe", "name": "Caf\u00e9 Zhioua"}}, {"type": "node", "id": 6348411373, "lat": 36.783343, "lon": 11.0016075, "tags": {"amenity": "cafe", "name": "MC27"}}, {"type": "node", "id": 8536833461, "lat": 36.8445969, "lon": 11.0893192, "tags": {"amenity": "cafe", "description": "this is the place where i live", "name": "My house"}}, {"type": "node", "id": 11238512928, "lat": 36.7823196, "lon": 10.9988629, "tags": {"amenity": "cafe", "internet_access": "wlan", "internet_access:fee": "no", "name": "Instant caf\u00e9", "opening_hours": "Mo-Su 06:00-00:00"}}, {"type": "way", "id": 207972444, "nodes": [2182364832, 2182364860, 2182364868, 2182364836, 2182364839, 2182364832], "tags": {"amenity": "restaurant", "building": "yes", "name": "\u0645\u0642\u0647\u0649 \u0633\u064a\u062f\u064a \u0627\u0644\u0628\u062d\u0631\u064a", "name:ar": "\u0645\u0642\u0647\u0649 \u0633\u064a\u062f\u064a \u0627\u0644\u0628\u062d\u0631\u064a"}}, {"type": "way", "id": 208190134, "nodes": [2182258335, 3710049190, 3710049189, 3710049188, 3710049187, 3710049186, 3710049185, 3710049184, 3710049183, 3710049182, 3710049181, 3710049180, 3710046210, 3710046209, 3710046208, 3710046207, 3710046206, 3710046205, 3710046204, 3710046203, 3710046202, 3710046201, 3710046200, 3710046199, 3710046198, 3710046197, 3710046196, 3710046195, 3710027602, 3710027601, 3710027600, 3710027599, 3710027598, 3710027597, 3710022645, 2182297720, 2182258326, 2182258335], "tags": {"amenity": "restaurant", "cuisine": "regional", "email": "restomansourah@gnet.tn", "fax": "+216 72 273 206", "name": "Restaurant El Mansourah", "phone": "+216 72 295 169", "website": "http://www.restomansourah.com.tn/"}}, {"type": "way", "id": 208190135, "nodes": [2185160366, 2185160376, 2185160365, 2185160362, 2185160360, 2185160356, 2185160355, 2185160347, 2185160337, 2185160332, 2185160331, 2185160341, 2185160340, 2185160351, 2185160349, 2185160366], "tags": {"amenity": "restaurant", "building": "yes", "name": "El Mansourah"}}, {"type": "way", "id": 208316630, "nodes": [2186306229, 2185310771, 2185310788, 2186306219, 2186306221, 2186306223, 2186306229], "tags": {"amenity": "restaurant", "building": "yes", "cuisine": "italian", "name": "La Bologn\u00e8se"}}, {"type": "way", "id": 437030187, "nodes": [4348632875, 4348632876, 4348632877, 4348632878, 4348632879, 4348632875], "tags": {"amenity": "cafe", "building": "yes", "internet_access": "wlan", "name": "La sir\u00e8ne", "smoking": "yes"}}]}