{"version": 0.6, "generator": "Overpass API 0.7.62.7 375dc00a", "osm3s": {"timestamp_osm_base": "2025-06-14T13:07:51Z", "copyright": "The data included in this document is from www.openstreetmap.org. The data is made available under ODbL."}, "elements": [{"type": "node", "id": 2178399723, "lat": 6.5967261, "lon": 3.3401159, "tags": {"amenity": "restaurant"}}, {"type": "node", "id": 3013698730, "lat": 6.5825385, "lon": 3.3599404, "tags": {"amenity": "restaurant", "name": "New China Restaurant"}}, {"type": "node", "id": 5230078832, "lat": 6.5844933, "lon": 3.357566, "tags": {"addr:city": "Ikeja", "addr:country": "NG", "addr:housenumber": "53", "addr:street": "Isaac John Street", "amenity": "restaurant", "brand": "Spur", "brand:wikidata": "Q7581546", "cuisine": "steak_house", "email": "goldeneaglespur2016@gmail.com", "name": "Golden Eagle Spur", "opening_hours": "Mo-Su 08:00-22:00", "phone": "+234 14 531 270", "website": "https://www.spursteakranches.com/ng/restaurant/international/lagos/ikeja-gra/golden-eagles-spur"}}, {"type": "node", "id": 5231558257, "lat": 6.5836458, "lon": 3.3602938, "tags": {"amenity": "restaurant", "name": "La Giara Restaurant"}}, {"type": "node", "id": 5231558375, "lat": 6.5819338, "lon": 3.3589115, "tags": {"amenity": "restaurant", "name": "CUT Steakhouse", "opening_hours": "24/7"}}, {"type": "node", "id": 5238498831, "lat": 6.5819262, "lon": 3.3587888, "tags": {"amenity": "restaurant", "name": "Iyeru Okin", "opening_hours": "24/7"}}, {"type": "node", "id": 5238498832, "lat": 6.5819077, "lon": 3.3586042, "tags": {"amenity": "cafe", "name": "Choco-Latte", "opening_hours": "24/7"}}, {"type": "node", "id": 5241138913, "lat": 6.5494966, "lon": 3.3875082, "tags": {"amenity": "restaurant", "name": "Bonjour Bakery"}}, {"type": "node", "id": 5257055421, "lat": 6.5735642, "lon": 3.3478242, "tags": {"addr:street": "Oduduwa Cresent", "amenity": "restaurant", "name": "Harzoyka Restaurant"}}, {"type": "node", "id": 5325724291, "lat": 6.5855643, "lon": 3.3570993}, {"type": "node", "id": 5325724292, "lat": 6.5853937, "lon": 3.3571673}, {"type": "node", "id": 5325724293, "lat": 6.5855369, "lon": 3.3575335}, {"type": "node", "id": 5325724294, "lat": 6.5857077, "lon": 3.3574658}, {"type": "node", "id": 5325724295, "lat": 6.5855048, "lon": 3.357123}, {"type": "node", "id": 5325724298, "lat": 6.5854442, "lon": 3.3571473}, {"type": "node", "id": 5325724303, "lat": 6.5856393, "lon": 3.3570602, "tags": {"addr:city": "Lagos", "addr:housenumber": "62", "addr:street": "Isaac John Street", "alt_name": "Sweet Sensation Gra", "amenity": "restaurant", "name": "Sweet Sensation", "phone": "+234 805 209 0028", "website": "https://sweetsensation.ng/"}}, {"type": "node", "id": 5649291418, "lat": 6.614455, "lon": 3.3579236, "tags": {"amenity": "cafe", "name": "Krispy Kreme"}}, {"type": "node", "id": 5649292326, "lat": 6.6141859, "lon": 3.3578727, "tags": {"amenity": "cafe", "name": "Mugg & Bean"}}, {"type": "node", "id": 5649292330, "lat": 6.6139328, "lon": 3.357127, "tags": {"amenity": "restaurant", "name": "Casper & Gambini's"}}, {"type": "node", "id": 5781683230, "lat": 6.5063862, "lon": 3.3742223, "tags": {"addr:city": "Lagos", "addr:housenumber": "11", "addr:place": "Sabo Yaba", "addr:street": "Commercial Avenue", "amenity": "cafe", "cuisine": "coffee_shop", "internet_access": "wlan", "name": "Cafe Neo"}}, {"type": "node", "id": 5902076636, "lat": 6.5963769, "lon": 3.3544361}, {"type": "node", "id": 5902076637, "lat": 6.5964755, "lon": 3.3546024}, {"type": "node", "id": 5902076638, "lat": 6.5965555, "lon": 3.3545543}, {"type": "node", "id": 5902076639, "lat": 6.5964569, "lon": 3.354388}, {"type": "node", "id": 5912282957, "lat": 6.597941, "lon": 3.3536679, "tags": {"addr:city": "Ikeja", "addr:country": "NG", "addr:housenumber": "17-19", "addr:postcode": "100281", "addr:state": "Lagos", "addr:street": "Allen Avenue", "amenity": "cafe", "contact:facebook": "https://www.facebook.com/dreamfieldsaladandjuicebar/", "cuisine": "juice;salad", "delivery": "yes", "internet_access": "wlan", "internet_access:fee": "no", "name": "Dreamfield Juice & Salad Bar", "opening_hours": "Mo-Th 06:30-20:30;Fr 06:30-22:00;Sa 09:00-22:00;Su 13:00-20:30", "phone": "+234 906 000 7683", "takeaway": "yes"}}, {"type": "node", "id": 6146218716, "lat": 6.5768547, "lon": 3.3561221}, {"type": "node", "id": 6146218727, "lat": 6.5833899, "lon": 3.3606242, "tags": {"amenity": "restaurant", "name": "Pumpkin Leaf"}}, {"type": "node", "id": 7286930391, "lat": 6.5999667, "lon": 3.3811097, "tags": {"amenity": "restaurant", "name": "Food House"}}, {"type": "node", "id": 7500803765, "lat": 6.4998047, "lon": 3.5846367, "tags": {"amenity": "restaurant", "name": "Chicken King"}}, {"type": "node", "id": 8365601503, "lat": 6.650969, "lon": 3.3689526, "tags": {"amenity": "cafe"}}, {"type": "node", "id": 9975990506, "lat": 6.6693948, "lon": 3.6714873}, {"type": "node", "id": 9975990507, "lat": 6.6694285, "lon": 3.6715151}, {"type": "node", "id": 9975990508, "lat": 6.6693728, "lon": 3.6715837}, {"type": "node", "id": 9975990509, "lat": 6.6693391, "lon": 3.671556}, {"type": "node", "id": 10155526830, "lat": 6.5658642, "lon": 3.3678312, "tags": {"amenity": "cafe"}}, {"type": "node", "id": 11235625032, "lat": 6.551661, "lon": 3.3599815, "tags": {"addr:city": "Ilupeju, Lagos", "addr:housenumber": "1", "addr:street": "Olabisi Street", "amenity": "restaurant", "name": "Spice And Grill", "phone": "08036395555"}}, {"type": "node", "id": 11581809531, "lat": 6.5768055, "lon": 3.3562465}, {"type": "node", "id": 11581809904, "lat": 6.5767698, "lon": 3.3561595}, {"type": "node", "id": 11581810410, "lat": 6.5768928, "lon": 3.3562068}, {"type": "node", "id": 12281469938, "lat": 6.6055202, "lon": 3.4251273, "tags": {"amenity": "restaurant", "facility_manager": "private/Individual", "name": "Sumptuous eatery & mini restaurant", "operator": "private/individual", "source:position": "gps", "status": "functional"}}, {"type": "node", "id": 12281469939, "lat": 6.6089011, "lon": 3.4321427, "tags": {"amenity": "restaurant", "facility_manager": "private/Individual", "name": "Mama T food canteen", "operator": "private/individual", "source:position": "gps", "status": "functional"}}, {"type": "node", "id": 12281469940, "lat": 6.6075023, "lon": 3.4223958, "tags": {"amenity": "restaurant", "facility_manager": "private/Individual", "name": "D,dots", "operator": "private/individual", "source:position": "gps", "status": "functional"}}, {"type": "node", "id": 12281469941, "lat": 6.6075364, "lon": 3.4224214, "tags": {"amenity": "restaurant", "facility_manager": "private/Individual", "name": "Olori enny", "operator": "private/individual", "source:position": "gps", "status": "needs repair"}}, {"type": "node", "id": 12281469942, "lat": 6.6082313, "lon": 3.4146461, "tags": {"amenity": "restaurant", "facility_manager": "private/Individual", "name": "mini delight", "operator": "private/individual", "source:position": "gps", "status": "functional"}}, {"type": "node", "id": 12281469943, "lat": 6.6078717, "lon": 3.4279333, "tags": {"amenity": "restaurant", "facility_manager": "private/Individual", "name": "Naina Food Canteen", "operator": "private/individual", "source:position": "gps", "status": "functional"}}, {"type": "node", "id": 12281469944, "lat": 6.6030957, "lon": 3.4190523, "tags": {"amenity": "restaurant", "facility_manager": "private/Individual", "name": "Temptation fast_food", "operator": "private/individual", "source:position": "gps", "status": "others"}}, {"type": "node", "id": 12281469945, "lat": 6.601074, "lon": 3.4202406, "tags": {"amenity": "restaurant", "facility_manager": "private/Individual", "name": "Spog", "operator": "private/individual", "source:position": "gps", "status": "functional"}}, {"type": "node", "id": 12281469946, "lat": 6.6064107, "lon": 3.4089877, "tags": {"amenity": "restaurant", "facility_manager": "private/Individual", "name": "delite cravings", "operator": "private/individual", "source:position": "gps", "status": "functional"}}, {"type": "node", "id": 12281469947, "lat": 6.6109999, "lon": 3.413962, "tags": {"amenity": "restaurant", "facility_manager": "private/Individual", "name": "Manna kitchen", "operator": "private/individual", "source:position": "gps", "status": "functional"}}, {"type": "way", "id": 551464847, "nodes": [5325724291, 5325724295, 5325724298, 5325724292, 5325724293, 5325724294, 5325724291], "tags": {"addr:city": "Ikeja", "addr:housenumber": "60", "addr:street": "Isaac John Street", "amenity": "restaurant", "building": "yes", "height": "7", "name": "Zen Garden"}}, {"type": "way", "id": 625093263, "nodes": [5902076639, 5902076638, 5902076637, 5902076636, 5902076639], "tags": {"addr:city": "Ikeja", "addr:country": "NG", "addr:housenumber": "5", "addr:postcode": "100281", "addr:state": "Lagos", "addr:street": "Allen Avenue", "amenity": "restaurant", "building": "commercial", "building:levels": "6", "cuisine": "nigerian", "name": "Mama Cass", "website": "https://mamacassng.com/"}}, {"type": "way", "id": 1088946157, "nodes": [9975990506, 9975990507, 9975990508, 9975990509, 9975990506], "tags": {"amenity": "restaurant", "building": "retail", "name": "Iya Adura"}}, {"type": "way", "id": 1245818419, "nodes": [11581809531, 11581810410, 6146218716, 11581809904, 11581809531], "tags": {"addr:city": "Lagos", "addr:housenumber": "45c", "addr:postcode": "100271", "addr:street": "Sobo Arobiodu Street", "alt_name": "Hua Han Garden", "amenity": "restaurant", "building": "yes", "cuisine": "korean;chinese", "name": "Hua Han", "name:en": "Hua Han Korean Restaurant", "name:ko": "\ud654\ud55c\uc2dd\ub2f9", "name:zh-Hans": "\u534e\u97e9\u9910\u5385", "name:zh-Hant": "\u83ef\u97d3\u9910\u5ef3", "name:zh-Latn-pinyin": "hu\u00e1 h\u00e1n c\u0101nt\u012bng", "phone": "+234 909 867 7777", "source": "microsoft/BuildingFootprints"}}]}