{"version": 0.6, "generator": "Overpass API 0.7.62.7 375dc00a", "osm3s": {"timestamp_osm_base": "2025-06-14T15:14:02Z", "copyright": "The data included in this document is from www.openstreetmap.org. The data is made available under ODbL."}, "elements": [{"type": "node", "id": 2788232228, "lat": 41.6696744, "lon": 36.0354673}, {"type": "node", "id": 2788232230, "lat": 41.6697017, "lon": 36.0355345}, {"type": "node", "id": 2788232231, "lat": 41.6696317, "lon": 36.0355856}, {"type": "node", "id": 2788232232, "lat": 41.6696043, "lon": 36.0355183}, {"type": "node", "id": 3168868846, "lat": 41.394842, "lon": 36.2017589, "tags": {"amenity": "cafe", "name": "Mert B\u00fcfe", "outdoor_seating": "yes"}}, {"type": "node", "id": 3390881219, "lat": 41.3609258, "lon": 36.2344026}, {"type": "node", "id": 3390881220, "lat": 41.3609638, "lon": 36.2343653}, {"type": "node", "id": 3390881221, "lat": 41.3609685, "lon": 36.2344797}, {"type": "node", "id": 3390881222, "lat": 41.3610065, "lon": 36.2344424}, {"type": "node", "id": 3848588538, "lat": 41.3967343, "lon": 36.1934702, "tags": {"amenity": "restaurant"}}, {"type": "node", "id": 3883806584, "lat": 41.4201919, "lon": 36.1764052, "tags": {"amenity": "cafe"}}, {"type": "node", "id": 3883834343, "lat": 41.4324216, "lon": 36.1642275, "tags": {"amenity": "cafe", "name": "K\u00f6p\u00fck", "outdoor_seating": "yes"}}, {"type": "node", "id": 3883845004, "lat": 41.4400865, "lon": 36.1544728, "tags": {"amenity": "cafe"}}, {"type": "node", "id": 4157036252, "lat": 41.3815648, "lon": 36.2110661, "tags": {"amenity": "restaurant", "name": "Ba\u015fba\u015fa Cafe & Restaurant"}}, {"type": "node", "id": 4230757945, "lat": 41.3525536, "lon": 36.242682, "tags": {"addr:street": "Ali Gaffer Okan Caddesi", "amenity": "restaurant", "cuisine": "turkish", "internet_access": "wlan", "name": "Nefes", "opening_hours": "Mo-Su 10:00-01:00"}}, {"type": "node", "id": 4598203593, "lat": 41.335593, "lon": 36.272311, "tags": {"amenity": "restaurant", "name": "\u00c7al\u0131ku\u015fu", "name:tr": "\u00c7al\u0131ku\u015fu"}}, {"type": "node", "id": 4796675098, "lat": 41.5732104, "lon": 36.1129216, "tags": {"amenity": "cafe", "name": "\u00c7ad\u0131r Kafe"}}, {"type": "node", "id": 4830934384, "lat": 41.34537, "lon": 36.2492959, "tags": {"amenity": "restaurant", "name": "\u00c7al\u0131ku\u015fu"}}, {"type": "node", "id": 4844410142, "lat": 41.3325781, "lon": 36.2710113, "tags": {"amenity": "restaurant", "name": "Bursa iskender"}}, {"type": "node", "id": 4856014249, "lat": 41.3344842, "lon": 36.2720552, "tags": {"amenity": "restaurant", "name": "Hat\u0131r kahvesi"}}, {"type": "node", "id": 4900386568, "lat": 41.3449981, "lon": 36.2478489, "tags": {"amenity": "restaurant", "name": "Lava\u015f Center"}}, {"type": "node", "id": 4919131680, "lat": 41.3370466, "lon": 36.2666514, "tags": {"amenity": "cafe", "name": "Banda Aceh Park\u0131 B\u00fcfesi"}}, {"type": "node", "id": 4964589193, "lat": 41.3345869, "lon": 36.2567358, "tags": {"amenity": "restaurant", "name": "Tutkun karde\u015fler", "name:en": "Tutkun Karde\u015fler", "name:tr": "Tutkun Karde\u015fler"}}, {"type": "node", "id": 5003639121, "lat": 41.3404209, "lon": 36.2615992, "tags": {"amenity": "restaurant", "name": "Damak tas\u0131 d\u00fcr\u00fcm evi"}}, {"type": "node", "id": 5007904889, "lat": 41.3426153, "lon": 36.2595999, "tags": {"amenity": "restaurant", "name": "Diyarbak\u0131r Ocakba\u015f\u0131"}}, {"type": "node", "id": 5034570552, "lat": 41.3342003, "lon": 36.271845, "tags": {"amenity": "restaurant", "name": "Lava\u015f Center", "phone": "05536735100"}}, {"type": "node", "id": 5107985846, "lat": 41.3389634, "lon": 36.2641213, "tags": {"amenity": "cafe", "name": "Bakkucafe"}}, {"type": "node", "id": 5273207058, "lat": 41.3392714, "lon": 36.258359, "tags": {"amenity": "restaurant", "name": "Bafra pidecisi", "phone": "05355022849"}}, {"type": "node", "id": 5289334133, "lat": 41.3415489, "lon": 36.262653, "tags": {"amenity": "cafe", "brand": "Starbucks", "brand:wikidata": "Q37158", "brand:wikipedia": "en:Starbucks", "cuisine": "coffee_shop", "name": "Starbucks", "official_name": "Starbucks Coffee", "takeaway": "yes"}}, {"type": "node", "id": 5372547970, "lat": 41.3340737, "lon": 36.2717154, "tags": {"amenity": "restaurant", "name": "\u00d6nc\u00fc "}}, {"type": "node", "id": 5470739847, "lat": 41.3447668, "lon": 36.2407749, "tags": {"amenity": "restaurant", "name": "Diyarbak\u0131r kebab\u00e7\u0131s\u0131"}}, {"type": "node", "id": 5470762583, "lat": 41.3474719, "lon": 36.2382019, "tags": {"amenity": "restaurant", "name": "Tavuk market"}}, {"type": "node", "id": 5514380027, "lat": 41.3422334, "lon": 36.2426464, "tags": {"amenity": "restaurant", "name": "Cihangir"}}, {"type": "node", "id": 6159316202, "lat": 41.3860468, "lon": 36.2120417, "tags": {"amenity": "cafe", "name": "Incesu Kafe", "opening_hours": "only open in summer", "outdoor_seating": "yes"}}, {"type": "node", "id": 6260085908, "lat": 41.3655678, "lon": 36.2303499}, {"type": "node", "id": 6260085909, "lat": 41.3654197, "lon": 36.230426}, {"type": "node", "id": 6260085910, "lat": 41.3654854, "lon": 36.2306525}, {"type": "node", "id": 6260085911, "lat": 41.3656334, "lon": 36.2305764}, {"type": "node", "id": 6271847645, "lat": 41.3690713, "lon": 36.2296226, "tags": {"amenity": "cafe", "name": "Kervansaray Kahvecisi"}}, {"type": "node", "id": 6286565928, "lat": 41.3713429, "lon": 36.2294678, "tags": {"amenity": "cafe"}}, {"type": "node", "id": 6331204068, "lat": 41.4247477, "lon": 36.1720694, "tags": {"amenity": "cafe", "name": "BO&T Cafe", "opening_hours": "summer only"}}, {"type": "node", "id": 6331205828, "lat": 41.4235028, "lon": 36.1731101, "tags": {"amenity": "restaurant", "name": "Melafi Cafe and Restaurant", "opening_hours": "summer only"}}, {"type": "node", "id": 6331246437, "lat": 41.4198503, "lon": 36.176597, "tags": {"amenity": "cafe", "name": "G\u00fcl Bah\u00e7esi"}}, {"type": "node", "id": 6331255088, "lat": 41.4137034, "lon": 36.18253, "tags": {"amenity": "cafe", "name": "Fatih Abi B\u00fcfe"}}, {"type": "node", "id": 6331286330, "lat": 41.4110272, "lon": 36.1855121, "tags": {"amenity": "cafe", "name": "\u00c7ak\u0131rlar Yal\u0131 Kafe", "opening_hours": "summer", "toilets": "outside"}}, {"type": "node", "id": 6331298713, "lat": 41.4015679, "lon": 36.1949106, "tags": {"amenity": "cafe", "name": "\u00c7ak\u0131lar Kafe", "opening_hours": "summer"}}, {"type": "node", "id": 6362740049, "lat": 41.5249327, "lon": 36.0873416}, {"type": "node", "id": 6362740050, "lat": 41.5251877, "lon": 36.0868213}, {"type": "node", "id": 6362740051, "lat": 41.5250793, "lon": 36.0867167}, {"type": "node", "id": 6362740052, "lat": 41.5247901, "lon": 36.0872317}, {"type": "node", "id": 6417489138, "lat": 41.5245109, "lon": 36.0875191, "tags": {"amenity": "restaurant", "name": "Salep evi"}}, {"type": "node", "id": 6438917186, "lat": 41.3472463, "lon": 36.2513662, "tags": {"amenity": "cafe", "name:en": "kafe restoran ORGIN"}}, {"type": "node", "id": 6533326441, "lat": 41.4162054, "lon": 36.171115, "tags": {"amenity": "restaurant", "name": "Necati Usta"}}, {"type": "node", "id": 6650973985, "lat": 41.3399455, "lon": 36.2664239, "tags": {"addr:street": "Adnan Menderes Bulvar\u0131 1. K\u0131s\u0131m", "amenity": "cafe", "cuisine": "turkish", "internet_access": "wlan", "name": "Yemen Kahvesi"}}, {"type": "node", "id": 7253654015, "lat": 41.333506, "lon": 36.2716195, "tags": {"amenity": "cafe", "name": "Cafe VM"}}, {"type": "node", "id": 8581827295, "lat": 41.468652, "lon": 36.1265122, "tags": {"amenity": "cafe", "name": "Payc\u0131'n\u0131n Yeri"}}, {"type": "node", "id": 8605541974, "lat": 41.3441367, "lon": 36.2469354, "tags": {"amenity": "restaurant", "name": "Burger Center"}}, {"type": "node", "id": 8605541975, "lat": 41.3444891, "lon": 36.2468791, "tags": {"amenity": "restaurant", "name": "Ahmet Uslu D\u00f6ner"}}, {"type": "node", "id": 8605541978, "lat": 41.3443753, "lon": 36.2472814, "tags": {"amenity": "restaurant", "name": "Adem Usta D\u00f6ner"}}, {"type": "node", "id": 8605541985, "lat": 41.3448646, "lon": 36.2476824, "tags": {"amenity": "restaurant", "name": "Ad\u0131y\u00f6rem \u00c7i\u011f K\u00f6fte"}}, {"type": "node", "id": 8605541987, "lat": 41.3447307, "lon": 36.2479413, "tags": {"amenity": "restaurant", "name": "\u00d6ztat D\u00f6ner"}}, {"type": "node", "id": 8605541990, "lat": 41.3448073, "lon": 36.2480915, "tags": {"amenity": "restaurant", "cuisine": "turkish", "delivery": "yes", "name": "Atakent D\u00f6nercisi", "outdoor_seating": "yes", "reservation": "no", "smoking": "outside", "takeaway": "yes"}}, {"type": "node", "id": 8730696770, "lat": 41.3462963, "lon": 36.2617077, "tags": {"amenity": "cafe", "name": "\u0130skele Kafe", "operator": "Samsun B\u00fcy\u00fck\u015fehir Belediyesi", "outdoor_seating": "yes", "smoking": "yes", "takeaway": "yes", "wheelchair": "yes"}}, {"type": "node", "id": 9092765617, "lat": 41.3350574, "lon": 36.2686948, "tags": {"amenity": "restaurant", "cuisine": "kebab;turkish", "delivery": "yes", "diet:halal": "yes", "diet:vegetarian": "yes", "internet_access": "wlan", "internet_access:fee": "no", "name": "Komagene \u00c7i\u011f K\u00f6fte", "opening_hours": "24/7", "payment:cash": "yes", "payment:contactless": "yes", "payment:maestro": "yes", "payment:mastercard": "yes", "payment:notes": "yes", "payment:visa": "yes", "payment:visa_debit": "yes", "payment:visa_electron": "yes", "phone": "+903624084363", "reservation": "no", "smoking": "outside", "takeaway": "yes", "website": "https://www.komagene.com.tr/", "wheelchair": "yes"}}, {"type": "node", "id": 9155372617, "lat": 41.3586542, "lon": 36.2367294, "tags": {"addr:street": "Adnan Menderes Bulvar\u0131 3. K\u0131s\u0131m", "amenity": "restaurant", "name": "Jampo k\u00fcnefe"}}, {"type": "node", "id": 9350895417, "lat": 41.3432978, "lon": 36.2450825, "tags": {"amenity": "cafe", "internet_access": "wlan", "name": "Osmanl\u0131"}}, {"type": "node", "id": 9404104817, "lat": 41.3626309, "lon": 36.2325196, "tags": {"amenity": "restaurant", "name": "Pe\u00e7ko"}}, {"type": "node", "id": 9418171817, "lat": 41.3630529, "lon": 36.2312161, "tags": {"amenity": "restaurant", "name": "\u00c7orbac\u0131"}}, {"type": "node", "id": 9460355517, "lat": 41.3533751, "lon": 36.2410861, "tags": {"amenity": "restaurant", "name": "Saray K\u00f6fte Bal\u0131k Atakum"}}, {"type": "node", "id": 9542776017, "lat": 41.346863, "lon": 36.2519047, "tags": {"amenity": "restaurant", "name": "Ci\u011ferci Baba"}}, {"type": "node", "id": 9828896017, "lat": 41.4018933, "lon": 36.1941802, "tags": {"amenity": "cafe", "name": "Yakamoz Cafe"}}, {"type": "node", "id": 9861449096, "lat": 41.3397789, "lon": 36.2600407, "tags": {"amenity": "cafe", "name": "Down Kafe", "operator": "Atakum Belediyesi"}}, {"type": "node", "id": 9861449357, "lat": 41.3432597, "lon": 36.2598462, "tags": {"amenity": "cafe", "name": "Deniz K\u0131z\u0131 Kafe", "operator": "Samsun B\u00fcy\u00fck\u015fehir Belediyesi"}}, {"type": "node", "id": 9881522179, "lat": 41.3414121, "lon": 36.2636241, "tags": {"amenity": "cafe", "name": "Palmiye Kafe", "operator": "Samsun B\u00fcy\u00fck\u015fehir Belediyesi"}}, {"type": "node", "id": 11332806107, "lat": 41.3554555, "lon": 36.2386672, "tags": {"amenity": "cafe", "name": "\u00d6zs\u00fct"}}, {"type": "node", "id": 11805129969, "lat": 41.3516074, "lon": 36.2439342, "tags": {"amenity": "restaurant", "name": "Yeni nesil millet"}}, {"type": "way", "id": 274044962, "nodes": [2788232228, 2788232230, 2788232231, 2788232232, 2788232228], "tags": {"amenity": "cafe", "building": "yes"}}, {"type": "way", "id": 331984559, "nodes": [3390881219, 3390881220, 3390881222, 3390881221, 3390881219], "tags": {"amenity": "cafe", "name": "Renne Bah\u00e7e Cafe"}}, {"type": "way", "id": 668484316, "nodes": [6260085908, 6260085909, 6260085910, 6260085911, 6260085908], "tags": {"amenity": "cafe", "building": "yes", "name": "Cafe Mares"}}, {"type": "way", "id": 679504521, "nodes": [6362740051, 6362740052, 6362740049, 6362740050, 6362740051], "tags": {"amenity": "cafe", "building": "yes", "name": "Y\u00f6r\u00fckler"}}]}