{"version": 0.6, "generator": "Overpass API 0.7.62.7 375dc00a", "osm3s": {"timestamp_osm_base": "2025-06-14T14:51:30Z", "copyright": "The data included in this document is from www.openstreetmap.org. The data is made available under ODbL."}, "elements": [{"type": "node", "id": 2590647784, "lat": 41.7648566, "lon": 26.9157028}, {"type": "node", "id": 2590647785, "lat": 41.7648413, "lon": 26.9158867}, {"type": "node", "id": 2590647786, "lat": 41.76472, "lon": 26.9158686}, {"type": "node", "id": 2590647787, "lat": 41.7647353, "lon": 26.9156847}, {"type": "node", "id": 4553964463, "lat": 41.7313456, "lon": 27.2142714, "tags": {"amenity": "cafe", "name": "Dostluk Evi", "wheelchair": "limited"}}, {"type": "node", "id": 4554626294, "lat": 41.7314704, "lon": 27.2150003, "tags": {"amenity": "cafe", "name": "The Trafik Cafe"}}, {"type": "node", "id": 4554626297, "lat": 41.733269, "lon": 27.218851, "tags": {"amenity": "cafe", "name": "Scala Kafe"}}, {"type": "node", "id": 4554626298, "lat": 41.7333403, "lon": 27.2184369, "tags": {"amenity": "cafe", "name": "Vilayet"}}, {"type": "node", "id": 5585066599, "lat": 41.7363999, "lon": 27.2205363, "tags": {"amenity": "restaurant", "cuisine": "thai", "name": "Mostar Bo\u015fnak B\u00f6rek\u00e7isi"}}, {"type": "node", "id": 5585069861, "lat": 41.7392305, "lon": 27.2222194, "tags": {"amenity": "restaurant", "name": "At\u0131\u015ft\u0131rmal\u0131klar"}}, {"type": "node", "id": 5585069872, "lat": 41.7395847, "lon": 27.2225513, "tags": {"amenity": "cafe", "name": "Yayla Kahvesi"}}, {"type": "node", "id": 5999983506, "lat": 41.7368007, "lon": 27.4010041, "tags": {"amenity": "restaurant"}}, {"type": "node", "id": 6602743316, "lat": 42.0453071, "lon": 27.4284625, "tags": {"amenity": "cafe", "name": "\u041a\u0430\u0444\u0435-\u0420\u0435\u0441\u0442\u043e\u0440\u0430\u043d\u0442"}}, {"type": "node", "id": 6955860422, "lat": 41.7393092, "lon": 27.1994475, "tags": {"amenity": "restaurant", "name": "Ceyness Et Ve Bal\u0131k Restaurant"}}, {"type": "node", "id": 7645799391, "lat": 42.0776348, "lon": 27.4307175, "tags": {"amenity": "restaurant", "description": "Fish Restaurant and hotel", "name": "\u0420\u0438\u0431\u0430\u0440\u043d\u0438\u043a\u044a", "opening_hours": "Mo-Su 08:00-23:00", "phone": "+359 89 369 9261", "website": "https://www.ribarnika.net/"}}, {"type": "node", "id": 8997560666, "lat": 41.7369498, "lon": 27.2194889, "tags": {"amenity": "restaurant", "name": "Agam 3 B\u00f6rek Salonu"}}, {"type": "node", "id": 8997560716, "lat": 41.7344554, "lon": 27.2195694, "tags": {"amenity": "cafe", "name": "Atat\u00fcrk Park\u0131 Aile \u00c7ay Bah\u00e7esi"}}, {"type": "node", "id": 8997560770, "lat": 41.7359436, "lon": 27.2248627, "tags": {"amenity": "restaurant", "name": "Durak Lokantas\u0131"}}, {"type": "node", "id": 8997560771, "lat": 41.735867, "lon": 27.2247608, "tags": {"amenity": "restaurant", "name": "\u0130kizler Restaurant"}}, {"type": "node", "id": 9929889997, "lat": 42.0820677, "lon": 27.4307833}, {"type": "node", "id": 9929889998, "lat": 42.0821204, "lon": 27.4308865}, {"type": "node", "id": 9929889999, "lat": 42.0820641, "lon": 27.4309372}, {"type": "node", "id": 9929890000, "lat": 42.0820114, "lon": 27.4308314}, {"type": "node", "id": 9935358077, "lat": 42.1513327, "lon": 27.365248, "tags": {"amenity": "cafe", "changing_table": "no", "contact:phone": "+359 88 948 1712", "name": "\u0412\u0438\u0440\u044a\u0442", "opening_hours": "Sa-Su 09:00-19:00", "outdoor_seating": "yes", "payment:coins": "yes", "payment:notes": "yes", "smoking": "yes", "wheelchair": "limited"}}, {"type": "node", "id": 9935779391, "lat": 42.1542502, "lon": 27.3705505, "tags": {"amenity": "restaurant", "changing_table": "no", "cuisine": "balkan", "internet_access": "yes", "name": "\u0418\u0437\u0432\u043e\u0440\u0438\u0442\u0435", "opening_hours": "Mo-Su 08:00-23:15", "outdoor_seating": "yes", "reservation": "no", "smoking": "outside", "takeaway": "no", "toilets:access": "customers", "wheelchair": "limited"}}, {"type": "node", "id": 10023855824, "lat": 41.7375263, "lon": 27.2231687, "tags": {"amenity": "cafe", "name": "Papaz\u0131n Evi Bistro&Cafe"}}, {"type": "node", "id": 10023855825, "lat": 41.7382781, "lon": 27.2227589, "tags": {"amenity": "restaurant", "cuisine": "turkish", "name": "Gusto Celepo\u011flu Kona\u011f\u0131"}}, {"type": "node", "id": 10023855827, "lat": 41.7369368, "lon": 27.2218199, "tags": {"amenity": "cafe", "name": "Cafer Kafe"}}, {"type": "node", "id": 10162065286, "lat": 41.7537164, "lon": 27.2275066, "tags": {"amenity": "cafe", "name": "Kahvehane"}}, {"type": "node", "id": 11335215220, "lat": 41.7309878, "lon": 27.2233066, "tags": {"amenity": "restaurant", "name": "Karadeniz Pide Salonu"}}, {"type": "node", "id": 11335215227, "lat": 41.7347144, "lon": 27.2230894, "tags": {"amenity": "cafe", "cuisine": "coffee_shop", "name": "Nordwind Coffee"}}, {"type": "node", "id": 11335215231, "lat": 41.7364069, "lon": 27.220461, "tags": {"amenity": "restaurant", "diet:halal": "yes", "diet:meat": "yes", "name": "Atakan K\u00f6ftecisi"}}, {"type": "node", "id": 11335288697, "lat": 41.7358428, "lon": 27.2242019, "tags": {"amenity": "restaurant", "diet:halal": "yes", "diet:meat": "yes", "name": "Ayan Karde\u015fler K\u00f6ftecisi"}}, {"type": "node", "id": 11335288698, "lat": 41.7350369, "lon": 27.2237743, "tags": {"amenity": "restaurant", "cuisine": "turkish", "diet:halal": "yes", "name": "Kanar Lokantas\u0131"}}, {"type": "node", "id": 11335288718, "lat": 41.7335867, "lon": 27.2201897, "tags": {"amenity": "restaurant", "name": "Green Chef"}}, {"type": "node", "id": 11337051851, "lat": 41.7335322, "lon": 27.2228242, "tags": {"amenity": "restaurant", "name": "Zafer K\u00f6ftecisi"}}, {"type": "node", "id": 11601267976, "lat": 41.7350261, "lon": 27.223898, "tags": {"amenity": "restaurant", "name": "mercan balik"}}, {"type": "node", "id": 11733815827, "lat": 41.7318781, "lon": 27.2169384}, {"type": "node", "id": 11733815828, "lat": 41.7320147, "lon": 27.2171641}, {"type": "node", "id": 11733815829, "lat": 41.732103, "lon": 27.2170505}, {"type": "node", "id": 11733815830, "lat": 41.7319708, "lon": 27.216837}, {"type": "node", "id": 11733815847, "lat": 41.7307753, "lon": 27.2172633}, {"type": "node", "id": 11733815848, "lat": 41.7307212, "lon": 27.2176668}, {"type": "node", "id": 11733815849, "lat": 41.7306353, "lon": 27.2176456}, {"type": "node", "id": 11733815850, "lat": 41.730638, "lon": 27.2175996}, {"type": "node", "id": 11733815851, "lat": 41.730498, "lon": 27.2175713}, {"type": "node", "id": 11733815852, "lat": 41.7305495, "lon": 27.2172103}, {"type": "node", "id": 11733873145, "lat": 41.7349669, "lon": 27.2181209}, {"type": "node", "id": 11733873146, "lat": 41.735026, "lon": 27.2182632}, {"type": "node", "id": 11733873147, "lat": 41.7349229, "lon": 27.2183343}, {"type": "node", "id": 11733873148, "lat": 41.7348607, "lon": 27.218192}, {"type": "node", "id": 11733873149, "lat": 41.7347985, "lon": 27.217877}, {"type": "node", "id": 11733873150, "lat": 41.7346832, "lon": 27.2179786}, {"type": "node", "id": 11733873151, "lat": 41.7345543, "lon": 27.21769}, {"type": "node", "id": 11733873152, "lat": 41.7346756, "lon": 27.2175904}, {"type": "way", "id": 253087313, "nodes": [2590647784, 2590647785, 2590647786, 2590647787, 2590647784], "tags": {"amenity": "restaurant", "building": "yes"}}, {"type": "way", "id": 1083555469, "nodes": [9929889997, 9929889998, 9929889999, 9929890000, 9929889997], "tags": {"addr:city": "Malko Turnovo", "addr:housenumber": "1", "addr:postcode": "8360", "addr:street": "\u043c\u0435\u0441\u0442\u043d\u043e\u0441\u0442 \u041a\u043e\u0432\u0430\u0447", "amenity": "restaurant", "building": "yes", "cuisine": "balkan", "name": "\u0421\u0442\u0440\u0430\u043d\u043d\u043e\u043f\u0440\u0438\u0435\u043c\u043d\u0438\u0446\u0430 \u041a\u043e\u0432\u0430\u0447", "name:en": "Kovach Inn", "phone": "+359 87 831 3841", "website": "https://www.facebook.com/StrannopriemnicaKovach/"}}, {"type": "way", "id": 1262899027, "nodes": [11733815827, 11733815828, 11733815829, 11733815830, 11733815827], "tags": {"amenity": "cafe", "building": "yes", "name": "La Luna"}}, {"type": "way", "id": 1262899031, "nodes": [11733815847, 11733815848, 11733815849, 11733815850, 11733815851, 11733815852, 11733815847], "tags": {"amenity": "restaurant", "building": "yes", "cuisine": "turkish", "name": "288 Restoran & Kafe"}}, {"type": "way", "id": 1262899050, "nodes": [11733873145, 11733873146, 11733873147, 11733873148, 11733873145], "tags": {"amenity": "cafe", "building": "yes", "name": "Bolton & Watt Kafe"}}, {"type": "way", "id": 1262899051, "nodes": [11733873149, 11733873150, 11733873151, 11733873152, 11733873149], "tags": {"amenity": "restaurant", "building": "yes", "cuisine": "turkish", "name": "Halil \u0130brahim Sofras\u0131"}}]}