{"version": 0.6, "generator": "Overpass API 0.7.62.7 375dc00a", "osm3s": {"timestamp_osm_base": "2025-06-14T14:46:28Z", "copyright": "The data included in this document is from www.openstreetmap.org. The data is made available under ODbL."}, "elements": [{"type": "node", "id": 1118391397, "lat": 41.6424991, "lon": 24.6898931, "tags": {"amenity": "restaurant", "cuisine": "sandwich", "name": "Spider"}}, {"type": "node", "id": 1139721231, "lat": 41.6371032, "lon": 24.6896081, "tags": {"amenity": "restaurant", "building": "yes"}}, {"type": "node", "id": 1154110940, "lat": 41.6533661, "lon": 24.6856257, "tags": {"amenity": "restaurant", "name": "\u041c\u0430\u043b\u0438\u043d\u0430", "stars": "2"}}, {"type": "node", "id": 1221977680, "lat": 41.5702499, "lon": 24.7275621, "tags": {"amenity": "cafe", "cuisine": "coffee_shop", "name": "Bianchi coffee", "tea": "yes", "website": "https://bianchi.bg/"}}, {"type": "node", "id": 1364077105, "lat": 41.6185223, "lon": 24.6745473, "tags": {"amenity": "restaurant", "name": "\u041e\u0440\u0444\u0435\u0435\u0432\u0438 \u0441\u043a\u0430\u043b\u0438"}}, {"type": "node", "id": 1410301783, "lat": 41.7205154, "lon": 24.9932558, "tags": {"amenity": "cafe", "name": "\u0410\u043f\u0435\u0440\u0438\u0442\u0438\u0432", "name:en": "Aperitiv"}}, {"type": "node", "id": 1410301790, "lat": 41.7193948, "lon": 24.9952037, "tags": {"amenity": "cafe", "name": "Galina"}}, {"type": "node", "id": 1410454566, "lat": 41.6174382, "lon": 24.9310636, "tags": {"amenity": "cafe", "name": "\u041c\u0430\u043b\u043a\u0430 \u0410\u0440\u0434\u0430", "shop": "convenience"}}, {"type": "node", "id": 1410454585, "lat": 41.6238934, "lon": 24.8870944, "tags": {"amenity": "cafe", "name": "\u041f\u0435\u0442\u043a\u043e\u0432\u043e"}}, {"type": "node", "id": 1490710256, "lat": 41.6793229, "lon": 24.5821494, "tags": {"amenity": "restaurant", "name": "\u041f\u0440\u0438 \u0421\u043b\u0430\u0432\u0447\u0435\u0432", "opening_hours": "Mo-Su 07:00-24:00"}}, {"type": "node", "id": 1927906516, "lat": 41.5805028, "lon": 24.6590603, "tags": {"amenity": "cafe"}}, {"type": "node", "id": 1939442203, "lat": 41.5801333, "lon": 24.6845395, "tags": {"amenity": "cafe"}}, {"type": "node", "id": 1939470761, "lat": 41.5768656, "lon": 24.6914121, "tags": {"amenity": "cafe", "shop": "convenience"}}, {"type": "node", "id": 2405430370, "lat": 41.5893091, "lon": 24.8380089, "tags": {"amenity": "restaurant", "cuisine": "regional", "microbrewery": "no", "name": "\u041c\u043e\u043c\u0447\u0438\u043b\u043e\u0432\u0430 \u043a\u0440\u0435\u043f\u043e\u0441\u0442", "smoking": "separated"}}, {"type": "node", "id": 2422279582, "lat": 41.5050705, "lon": 24.7330762, "tags": {"addr:city": "\u0421\u043c\u0438\u043b\u044f\u043d", "addr:country": "BG", "addr:housenumber": "16", "addr:street": "\u0411\u0440\u0435\u0437\u0430", "amenity": "restaurant", "cuisine": "bulgarian", "name": "\u041c\u0435\u0445\u0430\u043d\u0430 \u0410\u0438\u0434\u0430", "opening_hours": "Mo-Sa 07:00-24:00", "stars": "2", "wheelchair": "no"}}, {"type": "node", "id": 2422279597, "lat": 41.5064954, "lon": 24.7269299, "tags": {"addr:city": "\u0421\u043c\u0438\u043b\u044f\u043d", "addr:country": "BG", "addr:housenumber": "1", "addr:street": "\u0410\u043d\u0433\u0435\u043b \u0422\u0443\u043d\u0435\u0432", "amenity": "restaurant", "name": "\u0421\u043c\u043e\u043b\u0435\u043d\u0430"}}, {"type": "node", "id": 2561915255, "lat": 41.566462, "lon": 24.7404841, "tags": {"amenity": "restaurant"}}, {"type": "node", "id": 2564317395, "lat": 41.5756794, "lon": 24.7067281, "tags": {"amenity": "restaurant", "name": "\u0420\u043e\u0434\u043e\u043f\u0447\u0430\u043d\u043a\u0430"}}, {"type": "node", "id": 2573021581, "lat": 41.5685182, "lon": 24.7299935, "tags": {"amenity": "restaurant"}}, {"type": "node", "id": 3057601237, "lat": 41.5808619, "lon": 24.686233, "tags": {"amenity": "restaurant"}}, {"type": "node", "id": 3081475994, "lat": 41.6357712, "lon": 24.6791631}, {"type": "node", "id": 3081475995, "lat": 41.6358164, "lon": 24.6788713}, {"type": "node", "id": 3081475996, "lat": 41.6360149, "lon": 24.6792308}, {"type": "node", "id": 3081475997, "lat": 41.6360602, "lon": 24.678939}, {"type": "node", "id": 3721344843, "lat": 41.5793876, "lon": 24.6907585, "tags": {"amenity": "restaurant", "name": "\u0411\u044a\u043b\u0433\u0430\u0440\u0447\u0435", "outdoor_seating": "yes"}}, {"type": "node", "id": 3741080096, "lat": 41.7203878, "lon": 24.9975041, "tags": {"amenity": "cafe"}}, {"type": "node", "id": 3741106999, "lat": 41.552438, "lon": 25.0657559, "tags": {"amenity": "restaurant"}}, {"type": "node", "id": 3917350883, "lat": 41.5731491, "lon": 24.7816485, "tags": {"addr:city": "\u0421\u043c\u043e\u043b\u044f\u043d", "addr:housenumber": "53", "addr:postcode": "4700", "addr:street": "\u0422\u0440\u0430\u043a\u0438\u044f", "amenity": "cafe", "cuisine": "coffee_shop,_cookies", "internet_access": "no", "name": "\u041a\u0430\u0444\u0435 - \u0410\u043d\u0434\u0440\u0438\u0430\u043d\u0430 \u041d\u0435\u0434\u044f\u043b\u043a\u043e\u0432\u0430", "name:en": "Coffee Shop - Andriana Nedyalkova", "opening_hours": "Mo-Sa 08:00-19:00; Su 08:00-14:00", "smoking": "outside"}}, {"type": "node", "id": 4336169731, "lat": 41.5769034, "lon": 24.7010325, "tags": {"amenity": "restaurant", "name": "\u041e\u0442\u043c\u043e\u0440\u0430", "name:en": "Otmora", "outdoor_seating": "yes"}}, {"type": "node", "id": 4340768050, "lat": 41.6002004, "lon": 24.6723351, "tags": {"amenity": "restaurant", "name": "\u0411\u0430\u0440\u0431\u0435\u043a\u044e \u0421\u0435\u0430\u043d"}}, {"type": "node", "id": 4343401673, "lat": 41.5788921, "lon": 24.6942465, "tags": {"amenity": "cafe", "int_name": "Kasa Mia", "layer": "5"}}, {"type": "node", "id": 4347317138, "lat": 41.5761775, "lon": 24.7047899, "tags": {"amenity": "cafe", "name": "\u041d\u0438\u043a\u043e", "website": "https://tortiniko.com/"}}, {"type": "node", "id": 4829383533, "lat": 41.483582, "lon": 24.8494529, "tags": {"amenity": "restaurant"}}, {"type": "node", "id": 4829400229, "lat": 41.449815, "lon": 24.977061, "tags": {"amenity": "restaurant", "name": "\u041f\u0435\u0447\u0438\u043d\u0441\u043a\u0438"}}, {"type": "node", "id": 4946861327, "lat": 41.8328952, "lon": 24.8311744, "tags": {"amenity": "restaurant"}}, {"type": "node", "id": 5060531991, "lat": 41.7267268, "lon": 24.6860018, "tags": {"amenity": "restaurant", "name": "\u0412\u0438\u0435\u043d\u0441\u043a\u0438 \u0421\u0430\u043b\u043e\u043d", "outdoor_seating": "yes", "smoking": "outside"}}, {"type": "node", "id": 5060531993, "lat": 41.7262574, "lon": 24.6859874, "tags": {"amenity": "cafe", "name": "\u041c\u0430\u043a\u0441", "opening_hours": "Mo-Su 07:00-23:00", "outdoor_seating": "yes", "smoking": "outside"}}, {"type": "node", "id": 5111701758, "lat": 41.5929122, "lon": 24.6846671, "tags": {"amenity": "restaurant"}}, {"type": "node", "id": 5313578450, "lat": 41.725967, "lon": 24.685712}, {"type": "node", "id": 5313578453, "lat": 41.7258479, "lon": 24.6857275}, {"type": "node", "id": 5313578454, "lat": 41.7259443, "lon": 24.6854362}, {"type": "node", "id": 5313578455, "lat": 41.7258269, "lon": 24.685454}, {"type": "node", "id": 5313578487, "lat": 41.724634, "lon": 24.6861756, "tags": {"amenity": "cafe"}}, {"type": "node", "id": 5314681265, "lat": 41.6493041, "lon": 24.6939927, "tags": {"amenity": "restaurant", "cuisine": "regional;bulgarian", "name": "Chevermeto", "name:bg": "\u0427\u0435\u0432\u0435\u0440\u043c\u0435\u0442\u043e"}}, {"type": "node", "id": 5314681284, "lat": 41.6513015, "lon": 24.6943684, "tags": {"amenity": "restaurant", "cuisine": "regional;bulgarian", "name:bg": "\u0420\u043e\u0434\u043e\u043f\u0441\u043a\u0438 \u0441\u043f\u0435\u0446\u0438\u0430\u043b\u0438\u0442\u0435\u0442\u0438"}}, {"type": "node", "id": 5314681290, "lat": 41.6518267, "lon": 24.6944709, "tags": {"amenity": "restaurant", "name:bg": "\u0411\u044f\u043b\u0430\u0442\u0430 \u043a\u044a\u0449\u0430"}}, {"type": "node", "id": 5314681291, "lat": 41.6518796, "lon": 24.6942072, "tags": {"amenity": "restaurant", "cuisine": "regional;bulgarian", "name:bg": "\u0411\u044a\u043b\u0433\u0430\u0440\u0441\u043a\u0438 \u0440\u0435\u0441\u0442\u043e\u0440\u0430\u043d\u0442"}}, {"type": "node", "id": 5314734168, "lat": 41.6428245, "lon": 24.6897246, "tags": {"amenity": "restaurant", "name": "FIS"}}, {"type": "node", "id": 5314734169, "lat": 41.6429708, "lon": 24.6897098, "tags": {"amenity": "restaurant", "name": "Panorama"}}, {"type": "node", "id": 5315293189, "lat": 41.658102, "lon": 24.69813, "tags": {"amenity": "restaurant", "name": "Gloria Mar"}}, {"type": "node", "id": 5377763320, "lat": 41.6475122, "lon": 24.653943, "tags": {"amenity": "restaurant", "cuisine": "burger;chicken;italian;kebab;pizza;regional;sandwich", "level": "0", "name": "Tea Room TEDI", "outdoor_seating": "yes", "smoking": "no", "takeaway": "no", "toilets": "yes"}}, {"type": "node", "id": 5398187500, "lat": 41.5462246, "lon": 25.0721762, "tags": {"amenity": "restaurant"}}, {"type": "node", "id": 5776383902, "lat": 41.6565691, "lon": 24.6949436, "tags": {"addr:city": "\u041f\u0430\u043c\u043f\u043e\u0440\u043e\u0432\u043e", "amenity": "restaurant", "description": "\u0415\u0434\u0438\u043d \u0440\u0430\u0437\u043b\u0438\u0447\u0435\u043d \u0440\u0435\u0441\u0442\u043e\u0440\u0430\u043d\u0442 \u0432 \u0441\u044a\u0440\u0446\u0435\u0442\u043e \u043d\u0430 \u0420\u043e\u0434\u043e\u043f\u0438\u0442\u0435. \u041d\u0435\u043e\u0431\u0438\u0447\u0430\u0439\u043d\u043e\u0442\u043e \u0437\u0430 \u0442\u043e\u0437\u0438 \u0440\u0430\u0439\u043e\u043d \u0438\u043c\u0435 \u043d\u043e\u0441\u0438 \u0440\u0430\u0437\u043b\u0438\u0447\u043d\u0438 \u043f\u043e\u0441\u043b\u0430\u043d\u0438\u044f.", "name": "Neptun winter home", "phone": "+359 87 732 6565", "website": "https://www.neptun-winter.com/"}}, {"type": "node", "id": 5841266156, "lat": 41.5788864, "lon": 24.694601, "tags": {"amenity": "cafe", "name": "\u041f\u043b\u0430\u043d\u0435\u0442 \u043a\u0430\u0444\u0435"}}, {"type": "node", "id": 6179205182, "lat": 41.5744947, "lon": 24.7092833, "tags": {"amenity": "cafe", "internet_access": "wlan", "outdoor_seating": "yes"}}, {"type": "node", "id": 6227890727, "lat": 41.8329777, "lon": 24.8306253, "tags": {"amenity": "cafe", "cuisine": "regional", "outdoor_seating": "yes"}}, {"type": "node", "id": 6255703495, "lat": 41.5776368, "lon": 24.6994367, "tags": {"addr:city": "\u0421\u043c\u043e\u043b\u044f\u043d", "addr:housenumber": "2", "addr:street": "\u0421\u0442\u0443\u0434\u0435\u043d\u0442\u0441\u043a\u0430", "amenity": "restaurant", "description": "\u0420\u0435\u0441\u0442\u043e\u0440\u0430\u043d\u0442\u0430 \u0441\u0435\u0440\u0432\u0438\u0440\u0430 \u0437\u0430\u043a\u0443\u0441\u043a\u0430, \u043e\u0431\u044f\u0434, \u0432\u0435\u0447\u0435\u0440\u044f, \u043d\u0430\u043f\u0438\u0442\u043a\u0438 \u0438 \u043a\u0430\u0444\u0435. \u041f\u0440\u0435\u0434\u043b\u0430\u0433\u0430 \u043c\u0435\u0441\u0442\u0430 \u043d\u0430 \u043e\u0442\u043a\u0440\u0438\u0442\u043e.", "name": "\u041f\u0430\u043c\u043f\u043e\u0440\u043e\u0432\u0430\u0442\u0430 \u041a\u044a\u0449\u0430", "phone": "+359 87 847 8891", "website": "https://bulgarian-restaurant-48.business.site/"}}, {"type": "node", "id": 6312928586, "lat": 41.729022, "lon": 24.6833355, "tags": {"amenity": "restaurant", "name": "\u041f\u0435\u043f\u0435\u043b\u0430\u043d\u0435\u0432\u0441\u043a\u0438 \u0445\u0430\u043d - \u0440\u043e\u0434\u043e\u043f\u0441\u043a\u0430 \u043c\u0435\u0445\u0430\u043d\u0430"}}, {"type": "node", "id": 6343485384, "lat": 41.5300576, "lon": 24.9098347, "tags": {"amenity": "cafe"}}, {"type": "node", "id": 6707611054, "lat": 41.5817405, "lon": 24.6840138, "tags": {"amenity": "restaurant", "name": "\u0427\u0438\u043d\u0430\u0440\u0430", "outdoor_seating": "yes"}}, {"type": "node", "id": 6720466931, "lat": 41.7260935, "lon": 24.6792454, "tags": {"amenity": "restaurant", "name": "\u041f\u0440\u0438 \u0414\u0440\u0435\u043d\u0447\u0435\u0432 (\u0420-\u0442 \u0427\u0435\u043f\u0435\u043b\u0430\u0440\u0435)", "opening_hours": "09:00-01:00"}}, {"type": "node", "id": 6721517056, "lat": 41.6700448, "lon": 24.965842, "tags": {"amenity": "cafe", "shop": "supermarket"}}, {"type": "node", "id": 7106440967, "lat": 41.6534546, "lon": 24.6937733}, {"type": "node", "id": 7106440968, "lat": 41.6532723, "lon": 24.6937814}, {"type": "node", "id": 7106440969, "lat": 41.6532707, "lon": 24.6937171}, {"type": "node", "id": 7106440970, "lat": 41.6534531, "lon": 24.693709}, {"type": "node", "id": 7862205944, "lat": 41.7245062, "lon": 24.8571878, "tags": {"amenity": "cafe"}}, {"type": "node", "id": 7865936463, "lat": 41.6323475, "lon": 24.8635527, "tags": {"amenity": "cafe"}}, {"type": "node", "id": 7865936465, "lat": 41.6320276, "lon": 24.8635832, "tags": {"amenity": "restaurant"}}, {"type": "node", "id": 7869197077, "lat": 41.6589783, "lon": 24.8297172, "tags": {"amenity": "restaurant", "cuisine": "regional"}}, {"type": "node", "id": 8832732394, "lat": 41.5289792, "lon": 24.9126328, "tags": {"amenity": "restaurant", "name": "IZVORA"}}, {"type": "node", "id": 9019637318, "lat": 41.6788746, "lon": 24.582692, "tags": {"amenity": "restaurant", "name": "\u0413\u0430\u0439\u0434\u0430\u0442\u0430"}}, {"type": "node", "id": 9019637319, "lat": 41.6791573, "lon": 24.5827803, "tags": {"amenity": "cafe", "name": "\u0414\u044e\u043a\u044f\u043d\u044a"}}, {"type": "node", "id": 9019659017, "lat": 41.6789325, "lon": 24.5825177, "tags": {"amenity": "restaurant", "name": "\u041f\u0440\u0438 \u0427\u0438\u0447\u043e \u0414\u0436\u0430\u043a"}}, {"type": "node", "id": 9019659019, "lat": 41.6793337, "lon": 24.5818839, "tags": {"amenity": "restaurant", "name": "\u0412\u043e\u0439\u0432\u043e\u0434\u0430\u0442\u0430"}}, {"type": "node", "id": 9019727217, "lat": 41.6786854, "lon": 24.5831932, "tags": {"amenity": "cafe", "name": "\u042f\u043d\u0430", "name:en": "Yana", "phone": "+359 88 971 4552"}}, {"type": "node", "id": 9776779052, "lat": 41.5789219, "lon": 24.6921651}, {"type": "node", "id": 9776779053, "lat": 41.5788918, "lon": 24.6922955}, {"type": "node", "id": 9776779054, "lat": 41.5789557, "lon": 24.6923219}, {"type": "node", "id": 9776779055, "lat": 41.5789859, "lon": 24.6921916}, {"type": "node", "id": 9972104994, "lat": 41.6154282, "lon": 25.0060386, "tags": {"amenity": "cafe", "name": "\u0412\u0438\u043e\u043b\u0435\u0442\u043a\u0430"}}, {"type": "node", "id": 10055167914, "lat": 41.6287747, "lon": 25.0745274, "tags": {"amenity": "cafe"}}, {"type": "node", "id": 10080161313, "lat": 41.6705, "lon": 24.9636008, "tags": {"amenity": "cafe", "outdoor_seating": "yes"}}, {"type": "node", "id": 10080161314, "lat": 41.6706579, "lon": 24.9634319, "tags": {"amenity": "cafe", "outdoor_seating": "yes"}}, {"type": "node", "id": 10741095251, "lat": 41.5129887, "lon": 24.7700421, "tags": {"amenity": "restaurant"}}, {"type": "node", "id": 10768225946, "lat": 41.7846967, "lon": 24.5907785, "tags": {"amenity": "restaurant", "name": "\u041b\u043e\u0432\u043d\u0430 \u0441\u0440\u0435\u0449\u0430"}}, {"type": "node", "id": 11006024388, "lat": 41.4625946, "lon": 24.6385464, "tags": {"amenity": "restaurant"}}, {"type": "node", "id": 11127368612, "lat": 41.6149138, "lon": 25.005178, "tags": {"amenity": "cafe"}}, {"type": "node", "id": 11414461951, "lat": 41.7291963, "lon": 24.6832461}, {"type": "node", "id": 11414461952, "lat": 41.7290821, "lon": 24.683469}, {"type": "node", "id": 11414461953, "lat": 41.7289929, "lon": 24.6833938}, {"type": "node", "id": 11414461954, "lat": 41.729068, "lon": 24.6832327}, {"type": "node", "id": 11414461955, "lat": 41.7291412, "lon": 24.6831884}, {"type": "node", "id": 11587798590, "lat": 41.6928551, "lon": 24.6648985, "tags": {"amenity": "restaurant", "name": "\u041f\u0440\u0438 \u0412\u0430\u0441\u043a\u043e \u0438 \u041c\u0438\u043c\u0438"}}, {"type": "node", "id": 11587798591, "lat": 41.6930618, "lon": 24.6678468, "tags": {"amenity": "restaurant", "name": "\u041f\u0440\u0438 \u0421\u0442\u0430\u0440\u0430\u0442\u0430 \u043c\u0435\u0447\u043a\u0430"}}, {"type": "node", "id": 11753660269, "lat": 41.5041677, "lon": 24.7323824, "tags": {"addr:postcode": "4770", "addr:street": "\u0411\u0440\u0435\u0437\u0430", "amenity": "restaurant", "name": "\u041c\u0435\u0445\u0430\u043d\u0430 \u0422\u0430\u0431\u0438\u0435\u0442", "opening_hours": "Mo-Su 10:00-23:00", "phone": "+359887566744"}}, {"type": "node", "id": 11998597573, "lat": 41.652028, "lon": 24.6357218, "tags": {"addr:city": "Stoykite", "addr:housenumber": "6", "addr:postcode": "4715", "addr:street": "\u0423\u043b \u041f\u0435\u0440\u0435\u043b\u0438\u043a", "amenity": "restaurant", "name": "\u0420\u0435\u0442\u0440\u043e \u0420\u0435\u0441\u0442\u043e\u0440\u0430\u043d\u0442 \u0411\u043e\u0440\u0438\u043a\u0430", "name:en": "Retro Restaurant Borika", "opening_hours": "Mo-Sa 08:00-13:30,19:30-22:30; Su off", "phone": "+359884310334"}}, {"type": "node", "id": 12020592949, "lat": 41.7003737, "lon": 24.8056242, "tags": {"amenity": "cafe", "name": "Old Pine"}}, {"type": "node", "id": 12337705674, "lat": 41.6991819, "lon": 24.5671935, "tags": {"amenity": "restaurant", "contact:instagram": "https://www.instagram.com/silivriyak/", "name": "Silivriyak"}}, {"type": "node", "id": 12475465348, "lat": 41.6788421, "lon": 24.5824921, "tags": {"amenity": "restaurant", "name": "\u0420\u043e\u0434\u043e\u043f\u0447\u0430\u043d\u0438"}}, {"type": "node", "id": 12478586617, "lat": 41.5790354, "lon": 24.6927203, "tags": {"amenity": "restaurant", "name": "ALEA Caf\u00e9 Lounge Bar", "phone": "+359 877313161"}}, {"type": "node", "id": 12582002875, "lat": 41.5793157, "lon": 24.6926826, "tags": {"amenity": "restaurant", "name": "\u041e\u043b\u0438\u043c\u043f"}}, {"type": "node", "id": 12802088000, "lat": 41.5759994, "lon": 24.7093549, "tags": {"addr:city": "\u0421\u043c\u043e\u043b\u044f\u043d", "addr:housenumber": "20A", "addr:postcode": "4700", "addr:street": "\u0431\u0443\u043b. \u0411\u044a\u043b\u0433\u0430\u0440\u0438\u044f", "air_conditioning": "yes", "amenity": "cafe", "bar": "yes", "contact:facebook": "https://www.facebook.com/profile.php?id=61575415167271", "cuisine": "coffee_shop;sandwich;burger;cake;donut;brunch;salad;dessert", "internet_access": "yes", "internet_access:fee": "no", "name": "Coffee Capital", "opening_hours": "Mo-Su 08:00-21:00", "outdoor_seating": "yes", "phone": "+359887869083", "toilets": "yes"}}, {"type": "way", "id": 303748577, "nodes": [3081475997, 3081475996, 3081475994, 3081475995, 3081475997], "tags": {"amenity": "restaurant", "building": "yes", "name": "Golden Eagle"}}, {"type": "way", "id": 550120191, "nodes": [5313578454, 5313578450, 5313578453, 5313578455, 5313578454], "tags": {"amenity": "cafe", "building": "yes"}}, {"type": "way", "id": 760714024, "nodes": [7106440970, 7106440967, 7106440968, 7106440969, 7106440970], "tags": {"amenity": "restaurant", "building": "yes", "cuisine": "regional", "name": "Danmar"}}, {"type": "way", "id": 1064545308, "nodes": [9776779052, 9776779053, 9776779054, 9776779055, 9776779052], "tags": {"amenity": "cafe", "building": "yes", "cuisine": "coffee_shop", "name": "\u041a\u0430\u0444\u0435, \u0430\u043b\u043a\u043e\u0445\u043e\u043b, \u0446\u0438\u0433\u0430\u0440\u0438, \u0437\u0430\u0445\u0430\u0440\u043d\u0438 \u0438\u0437\u0434\u0435\u043b\u0438\u044f, \u044f\u0434\u043a\u0438 \u0438 \u0434\u0440."}}, {"type": "way", "id": 1230813550, "nodes": [11414461951, 11414461952, 11414461953, 11414461954, 11414461955, 11414461951], "tags": {"amenity": "restaurant", "building": "yes"}}]}