{"version": 0.6, "generator": "Overpass API 0.7.62.7 375dc00a", "osm3s": {"timestamp_osm_base": "2025-06-14T15:17:02Z", "copyright": "The data included in this document is from www.openstreetmap.org. The data is made available under ODbL."}, "elements": [{"type": "node", "id": 1283933451, "lat": 36.5930677, "lon": 36.1683551, "tags": {"amenity": "cafe", "cuisine": "italian", "internet_access": "wlan", "name": "Mapido Cafe"}}, {"type": "node", "id": 1283933466, "lat": 36.5906062, "lon": 36.1703198, "tags": {"amenity": "restaurant", "cuisine": "international", "name": "Emir Pizza"}}, {"type": "node", "id": 3050736713, "lat": 36.5898483, "lon": 36.1692162, "tags": {"amenity": "restaurant", "name": "Sirdan & Kokorec"}}, {"type": "node", "id": 3109148808, "lat": 36.5639463, "lon": 36.2123039}, {"type": "node", "id": 3109148809, "lat": 36.5639245, "lon": 36.2124697}, {"type": "node", "id": 3109148810, "lat": 36.5638291, "lon": 36.2124824}, {"type": "node", "id": 3109148811, "lat": 36.563855, "lon": 36.2122853}, {"type": "node", "id": 3109276123, "lat": 36.5932871, "lon": 36.170304}, {"type": "node", "id": 3109276124, "lat": 36.5933283, "lon": 36.1703938}, {"type": "node", "id": 3109276125, "lat": 36.5933077, "lon": 36.1707976}, {"type": "node", "id": 3109276126, "lat": 36.5930079, "lon": 36.1707434}, {"type": "node", "id": 3109276127, "lat": 36.593119, "lon": 36.1702741}, {"type": "node", "id": 3111812374, "lat": 36.5749256, "lon": 36.1615289, "tags": {"amenity": "cafe"}}, {"type": "node", "id": 3174766289, "lat": 36.5899409, "lon": 36.1692723, "tags": {"amenity": "restaurant", "name": "Belgin Abla Mutfa\u011f\u0131", "source": "survey"}}, {"type": "node", "id": 7928443569, "lat": 36.5906792, "lon": 36.1651993, "tags": {"amenity": "restaurant", "name": "M\u0131s\u0131rl\u0131 Lahmacun Salonu"}}, {"type": "node", "id": 7928453806, "lat": 36.5902772, "lon": 36.1740219, "tags": {"amenity": "cafe", "brand": "Starbucks", "brand:wikidata": "Q37158", "brand:wikipedia": "en:Starbucks", "cuisine": "coffee_shop", "name": "Starbucks", "official_name": "Starbucks Coffee", "takeaway": "yes"}}, {"type": "node", "id": 8948711610, "lat": 36.4866467, "lon": 36.2235732}, {"type": "node", "id": 8948711611, "lat": 36.4865188, "lon": 36.2236674}, {"type": "node", "id": 8948711612, "lat": 36.4864386, "lon": 36.2234984}, {"type": "node", "id": 8948711613, "lat": 36.4865742, "lon": 36.223421}, {"type": "node", "id": 8948711742, "lat": 36.488068, "lon": 36.2229527, "tags": {"amenity": "cafe", "bus": "yes", "highway": "bus_stop", "public_transport": "platform"}}, {"type": "node", "id": 9825408689, "lat": 36.5469626, "lon": 36.156371}, {"type": "node", "id": 9825408690, "lat": 36.5469996, "lon": 36.156452}, {"type": "node", "id": 9825408691, "lat": 36.5468263, "lon": 36.156575}, {"type": "node", "id": 9825408692, "lat": 36.5467893, "lon": 36.1564941}, {"type": "node", "id": 9873138575, "lat": 36.5609349, "lon": 36.1088443, "tags": {"addr:city": "Hatay", "addr:district": "Arsuz", "addr:housenumber": "15", "addr:neighbourhood": "Karaa\u011fa\u00e7 \u015earkonak Mahallesi", "addr:street": "537 Sokak", "amenity": "cafe", "cuisine": "coffee_shop", "internet_access": "yes", "internet_access:fee": "no", "name": "Ed Coffee Station", "opening_hours": "11:00-01:00", "outdoor_seating": "yes", "phone": "05373590681", "website": "www.instagtam.com/edcoffeestation"}}, {"type": "node", "id": 9981715863, "lat": 36.5931874, "lon": 36.1683156}, {"type": "node", "id": 9981715864, "lat": 36.5931311, "lon": 36.1684923}, {"type": "node", "id": 9981715865, "lat": 36.5929595, "lon": 36.1684074}, {"type": "node", "id": 9981715866, "lat": 36.5930158, "lon": 36.1682307}, {"type": "node", "id": 9981761208, "lat": 36.5746661, "lon": 36.1254625}, {"type": "node", "id": 9981761209, "lat": 36.5744312, "lon": 36.125533}, {"type": "node", "id": 9981761210, "lat": 36.5744754, "lon": 36.1257615}, {"type": "node", "id": 9981761211, "lat": 36.5747103, "lon": 36.125691}, {"type": "node", "id": 10115101273, "lat": 36.4983184, "lon": 36.1881148, "tags": {"amenity": "restaurant", "name": "Seyir Tepesi"}}, {"type": "node", "id": 10115101274, "lat": 36.4992662, "lon": 36.190748, "tags": {"amenity": "restaurant"}}, {"type": "node", "id": 10137369124, "lat": 36.5888589, "lon": 36.1645536}, {"type": "node", "id": 10137369125, "lat": 36.5887333, "lon": 36.1647749}, {"type": "node", "id": 10137369126, "lat": 36.5888372, "lon": 36.1648655}, {"type": "node", "id": 10137369127, "lat": 36.5889614, "lon": 36.1646435}, {"type": "node", "id": 10164938954, "lat": 36.4891887, "lon": 36.2000081, "tags": {"amenity": "restaurant", "cuisine": "kebab;turkish"}}, {"type": "node", "id": 10259557528, "lat": 36.595464, "lon": 36.1635886}, {"type": "node", "id": 10259557529, "lat": 36.5953433, "lon": 36.163514}, {"type": "node", "id": 10259557530, "lat": 36.5952634, "lon": 36.1637157}, {"type": "node", "id": 10259557531, "lat": 36.5953844, "lon": 36.1637897}, {"type": "node", "id": 10294883966, "lat": 36.5904802, "lon": 36.1831039, "tags": {"addr:city": "Hatay", "addr:district": "\u0130skenderun", "addr:street": "5 Temmuz Caddesi", "amenity": "restaurant", "cuisine": "kebab", "name": "Liman Kebap"}}, {"type": "node", "id": 10314699977, "lat": 36.5932158, "lon": 36.1595462, "tags": {"addr:city": "Hatay", "addr:district": "\u0130skenderun", "addr:neighbourhood": "S\u00fcleymaniye", "addr:postcode": "31200", "addr:street": "Atat\u00fcrk Bulvar\u0131", "amenity": "cafe", "brand": "Starbucks", "brand:wikidata": "Q37158", "cuisine": "coffee_shop", "name": "Starbucks", "official_name": "Starbucks Coffee", "outdoor_seating": "yes", "phone": "+90 326 502 2818", "takeaway": "yes", "toilets": "yes", "wheelchair": "yes"}}, {"type": "node", "id": 10314699978, "lat": 36.5931382, "lon": 36.1593987, "tags": {"addr:city": "Hatay", "addr:district": "\u0130skenderun", "addr:housenumber": "97", "addr:neighbourhood": "S\u00fcleymaniye", "addr:postcode": "31200", "addr:street": "Atat\u00fcrk Bulvar\u0131", "amenity": "cafe", "name": "326 Plus", "outdoor_seating": "yes", "phone": "+90 326 613 2690", "website": "https://www.326pluscafe.com/"}}, {"type": "node", "id": 10314699980, "lat": 36.5934117, "lon": 36.1599217, "tags": {"addr:city": "Hatay", "addr:district": "\u0130skenderun", "addr:neighbourhood": "S\u00fcleymaniye", "addr:postcode": "31200", "addr:street": "Atat\u00fcrk Bulvar\u0131", "amenity": "restaurant", "name": "BigChefs", "phone": "+90 326 502 2838", "website": "https://www.bigchefs.com.tr/"}}, {"type": "node", "id": 10638327414, "lat": 36.5903174, "lon": 36.1831436}, {"type": "node", "id": 10638327415, "lat": 36.5903178, "lon": 36.1831608}, {"type": "node", "id": 10638327416, "lat": 36.5905222, "lon": 36.1831533}, {"type": "node", "id": 10638327417, "lat": 36.5905202, "lon": 36.1830692}, {"type": "node", "id": 10638327418, "lat": 36.590333, "lon": 36.183076}, {"type": "node", "id": 10638327419, "lat": 36.5903346, "lon": 36.183143}, {"type": "node", "id": 10652504041, "lat": 36.5639349, "lon": 36.2123904}, {"type": "node", "id": 10676922247, "lat": 36.5468093, "lon": 36.1565378}, {"type": "node", "id": 10696238778, "lat": 36.5638986, "lon": 36.2124965}, {"type": "node", "id": 10696238779, "lat": 36.5639027, "lon": 36.2124653}, {"type": "node", "id": 10873358026, "lat": 36.4865396, "lon": 36.2234464}, {"type": "node", "id": 10873358027, "lat": 36.4865318, "lon": 36.2234299}, {"type": "node", "id": 11137646357, "lat": 36.5656169, "lon": 36.1117559, "tags": {"addr:city": "Hatay", "addr:district": "Arsuz", "addr:neighbourhood": "Karaa\u011fa\u00e7", "addr:postcode": "31290", "addr:street": "K\u00f6y\u00fc Yolu", "amenity": "cafe", "name": "Navi Alem Cafe Bar Butik Restaurant", "source": "microsoft/BuildingFootprints"}}, {"type": "node", "id": 12059874274, "lat": 36.5652243, "lon": 36.1079316, "tags": {"addr:city": "Hatay", "addr:district": "\u0130skenderun", "addr:neighbourhood": "Karaa\u011fa\u00e7", "amenity": "restaurant", "cuisine": "fish;kebab", "name": "\u015eirinyer Restaurant", "name:tr": "\u015eirinyer Bal\u0131k Restoran"}}, {"type": "node", "id": 12359365067, "lat": 36.7628255, "lon": 36.2042246, "tags": {"addr:city": "hatay", "addr:district": "payas", "addr:neighbourhood": "gazi mustafa kemal caddesi yeni \u015fehir mah.", "amenity": "cafe", "internet_access": "yes", "internet_access:fee": "no", "name": "Seyri Deniz Cafe Restorant D\u00fc\u011f\u00fcn Salonu", "opening_hours": "Mo-Su 09:00-21:00", "phone": "+905422202080"}}, {"type": "node", "id": 12359527608, "lat": 36.7631984, "lon": 36.2046616}, {"type": "node", "id": 12359527609, "lat": 36.7629916, "lon": 36.205123}, {"type": "node", "id": 12359527610, "lat": 36.7627522, "lon": 36.2049543}, {"type": "node", "id": 12359527611, "lat": 36.762858, "lon": 36.2047531}, {"type": "node", "id": 12359527612, "lat": 36.7627945, "lon": 36.2047043}, {"type": "node", "id": 12359527613, "lat": 36.7629134, "lon": 36.2044624}, {"type": "node", "id": 12359527614, "lat": 36.7629769, "lon": 36.2048039, "tags": {"amenity": "cafe", "name": "seyri deniz a\u00e7\u0131k d\u00fc\u011f\u00fcn alan\u0131"}}, {"type": "way", "id": 306099978, "nodes": [3109148808, 10652504041, 3109148809, 10696238779, 10696238778, 3109148810, 3109148811, 3109148808], "tags": {"amenity": "restaurant", "building": "yes", "capacity": "100", "cuisine": "\u00e7ay_ve_K\u00fcneffe", "name": "Calayan Alabalik Lokanta", "smoking": "outside", "wheelchair": "limited"}}, {"type": "way", "id": 306110198, "nodes": [3109276123, 3109276124, 3109276125, 3109276126, 3109276127, 3109276123], "tags": {"amenity": "cafe", "building": "yes"}}, {"type": "way", "id": 967260967, "nodes": [8948711610, 8948711611, 8948711612, 10873358027, 10873358026, 8948711613, 8948711610], "tags": {"amenity": "restaurant", "building": "yes"}}, {"type": "way", "id": 1070634062, "nodes": [9825408689, 9825408690, 9825408691, 10676922247, 9825408692, 9825408689], "tags": {"amenity": "cafe", "building": "yes", "name": "Mavi K\u00f6\u015fe Pastanesi"}}, {"type": "way", "id": 1089693741, "nodes": [9981715863, 9981715864, 9981715865, 9981715866, 9981715863], "tags": {"amenity": "cafe", "building": "yes"}}, {"type": "way", "id": 1089693774, "nodes": [9981761208, 9981761209, 9981761210, 9981761211, 9981761208], "tags": {"amenity": "restaurant", "building": "yes", "name": "Kumsal Restoran"}}, {"type": "way", "id": 1107924790, "nodes": [10137369124, 10137369125, 10137369126, 10137369127, 10137369124], "tags": {"amenity": "cafe", "building": "yes", "building:levels": "1"}}, {"type": "way", "id": 1121705914, "nodes": [10259557528, 10259557529, 10259557530, 10259557531, 10259557528], "tags": {"addr:city": "Hatay", "addr:district": "\u0130skenderun", "addr:postcode": "31200", "addr:street": "Atat\u00fcrk Bulvar\u0131", "amenity": "cafe", "building": "yes", "name": "Petek Cafe", "outdoor_seating": "yes", "website": "https://www.peteksiparis.com/"}}, {"type": "way", "id": 1142350361, "nodes": [10638327414, 10638327415, 10638327416, 10638327417, 10638327418, 10638327419, 10638327414], "tags": {"addr:city": "Hatay", "addr:district": "\u0130skenderun", "amenity": "restaurant", "building": "yes", "name": "Liman Kebap", "source": "microsoft/BuildingFootprints"}}, {"type": "way", "id": 1336202540, "nodes": [12359527608, 12359527609, 12359527610, 12359527611, 12359527612, 12359527613, 12359527608], "tags": {"amenity": "cafe", "building": "yes", "name": "seyri deniz k\u0131r d\u00fc\u011f\u00fcn salonu"}}]}