{"version": 0.6, "generator": "Overpass API 0.7.62.7 375dc00a", "osm3s": {"timestamp_osm_base": "2025-06-14T15:02:46Z", "copyright": "The data included in this document is from www.openstreetmap.org. The data is made available under ODbL."}, "elements": [{"type": "node", "id": 310987894, "lat": 36.1898291, "lon": 29.861211, "tags": {"amenity": "restaurant", "name": "Simena Restaurant"}}, {"type": "node", "id": 310987897, "lat": 36.190178, "lon": 29.8615359, "tags": {"amenity": "restaurant", "name": "Palmiye Restaurant"}}, {"type": "node", "id": 310987899, "lat": 36.1902548, "lon": 29.8616202, "tags": {"amenity": "restaurant", "name": "Likya Restaurant"}}, {"type": "node", "id": 310987911, "lat": 36.1900039, "lon": 29.8608726, "tags": {"amenity": "restaurant", "internet_access:fee": "no", "name": "Hassan Deniz Restaurant"}}, {"type": "node", "id": 310987913, "lat": 36.1899601, "lon": 29.8606124, "tags": {"amenity": "restaurant", "name": "Roma Restaurant"}}, {"type": "node", "id": 1374174007, "lat": 36.1967348, "lon": 29.8461916, "tags": {"amenity": "restaurant", "name": "Kekova Fish House", "tourism": "guest_house"}}, {"type": "node", "id": 1374174012, "lat": 36.1973184, "lon": 29.8478613, "tags": {"amenity": "cafe", "name": "Palm Tree Cafe"}}, {"type": "node", "id": 1637423073, "lat": 36.2255794, "lon": 29.9460444, "tags": {"amenity": "restaurant"}}, {"type": "node", "id": 1713240515, "lat": 36.2914176, "lon": 30.1489586}, {"type": "node", "id": 1713240516, "lat": 36.2915049, "lon": 30.149083}, {"type": "node", "id": 1713240519, "lat": 36.2915147, "lon": 30.1488541}, {"type": "node", "id": 1713240520, "lat": 36.2915988, "lon": 30.1489677}, {"type": "node", "id": 2322080421, "lat": 36.5128786, "lon": 30.054956, "tags": {"amenity": "restaurant", "name": "Arykanda Pansiyon", "tourism": "guest_house"}}, {"type": "node", "id": 2322080436, "lat": 36.2991141, "lon": 30.1431973, "tags": {"addr:city": "Antalya", "addr:district": "Finike", "addr:neighbourhood": "Eski Mahalle", "amenity": "cafe", "name": "Zirve Kafe"}}, {"type": "node", "id": 2322080644, "lat": 36.5166156, "lon": 30.049581, "tags": {"amenity": "restaurant"}}, {"type": "node", "id": 2700629359, "lat": 36.2424714, "lon": 29.9859113, "tags": {"amenity": "restaurant", "cuisine": "regional", "name": "Kismet Restaurant"}}, {"type": "node", "id": 2820191978, "lat": 36.1899477, "lon": 29.862684, "tags": {"amenity": "cafe", "name": "Ankh"}}, {"type": "node", "id": 3786428748, "lat": 36.1900728, "lon": 29.8600707, "tags": {"amenity": "restaurant", "name": "Teras Paradise", "wifi": "yes"}}, {"type": "node", "id": 3786432159, "lat": 36.1965887, "lon": 29.8497422, "tags": {"amenity": "cafe", "name": "Cafe & Pension"}}, {"type": "node", "id": 5091211821, "lat": 36.2241081, "lon": 29.9456242, "tags": {"amenity": "cafe", "name:en": "Andriake Cafe", "name:uk": "\u0414\u0443\u0436\u0435 \u0441\u043c\u0430\u0447\u043d\u043e", "phone": "+90-242-871-3130/535-226-4936"}}, {"type": "node", "id": 5099919724, "lat": 36.3311911, "lon": 30.1711541, "tags": {"amenity": "cafe", "name:en": "Turkuaz koy"}}, {"type": "node", "id": 5099920522, "lat": 36.298503, "lon": 30.1468412, "tags": {"amenity": "cafe", "name": "Klass pastanesi"}}, {"type": "node", "id": 5323834140, "lat": 36.3680673, "lon": 30.2864471}, {"type": "node", "id": 5323834149, "lat": 36.3679794, "lon": 30.2864975}, {"type": "node", "id": 5323834154, "lat": 36.3679482, "lon": 30.286678}, {"type": "node", "id": 5325508378, "lat": 36.3650977, "lon": 30.2857859}, {"type": "node", "id": 5347187724, "lat": 36.1905589, "lon": 29.8623773, "tags": {"addr:street": "\u00dccagaz Mahallesi Kale Sokak No 134", "amenity": "cafe", "internet_access": "wlan", "name": "Caf\u00e9 Mola 1", "name:de": "Caf\u00e9 Mola 1", "opening_hours": "24/7", "phone": "00905384633584"}}, {"type": "node", "id": 5353059660, "lat": 36.309238, "lon": 30.1656278}, {"type": "node", "id": 5353059661, "lat": 36.3092955, "lon": 30.1657964}, {"type": "node", "id": 5353059662, "lat": 36.3093781, "lon": 30.1657531}, {"type": "node", "id": 5353059663, "lat": 36.3093206, "lon": 30.1655844}, {"type": "node", "id": 5357433758, "lat": 36.2428732, "lon": 29.9858509}, {"type": "node", "id": 5357433759, "lat": 36.2429065, "lon": 29.9863888}, {"type": "node", "id": 5357433760, "lat": 36.2430492, "lon": 29.9863752}, {"type": "node", "id": 5357433761, "lat": 36.2430158, "lon": 29.9858373}, {"type": "node", "id": 5358715599, "lat": 36.2410657, "lon": 29.9857661, "tags": {"amenity": "cafe", "name": "Yemen Kahvesi"}}, {"type": "node", "id": 5521094592, "lat": 36.2428476, "lon": 29.9855344, "tags": {"amenity": "restaurant", "name": "Gaziantep restaurant"}}, {"type": "node", "id": 5521094926, "lat": 36.3435458, "lon": 30.1663434, "tags": {"amenity": "cafe", "source": "survey"}}, {"type": "node", "id": 5692920493, "lat": 36.2993248, "lon": 30.1448938, "tags": {"amenity": "restaurant", "name": "Mavi Lezzet Sofrasi"}}, {"type": "node", "id": 5808389721, "lat": 36.3064608, "lon": 30.1593018, "tags": {"amenity": "cafe", "name": "Okyanus Beach Cafe"}}, {"type": "node", "id": 5817768746, "lat": 36.3018327, "lon": 30.1490424, "tags": {"amenity": "restaurant", "cuisine": "turkish", "name": "Hot D\u00f6ner"}}, {"type": "node", "id": 6050718788, "lat": 36.2441388, "lon": 29.9863033, "tags": {"addr:housenumber": "25c", "addr:street": "Gokyazi Mh. Muze Cd.", "amenity": "cafe", "internet_access": "wlan", "name": "Cafe \"Kabak\"", "name:uk": "\u041a\u0430\u0444\u0435 \"Kabak\"", "opening_hours": "Mo-Su 10:00-00:00", "operator": "Bulent Demir", "phone": "+905387987800"}}, {"type": "node", "id": 6051508486, "lat": 36.2437024, "lon": 29.9863968, "tags": {"amenity": "restaurant", "cuisine": "turkish", "name": "Ipek restaurant", "name:uk": "\u0420\u0435\u0441\u0442\u043e\u0440\u0430\u043d \"Ipek\""}}, {"type": "node", "id": 6482424265, "lat": 36.2291861, "lon": 29.8971764, "tags": {"amenity": "cafe", "cuisine": "regional;turkish"}}, {"type": "node", "id": 6562123286, "lat": 36.2879696, "lon": 30.1513696, "tags": {"amenity": "cafe"}}, {"type": "node", "id": 6769288685, "lat": 36.2881119, "lon": 30.1512485, "tags": {"amenity": "restaurant", "name": "Mavi Ay Bal", "name:tr": "Mavi Ay Bal\u0131kevi"}}, {"type": "node", "id": 7072498685, "lat": 36.3009108, "lon": 30.1473539, "tags": {"addr:housenumber": "504", "addr:postcode": "07740", "addr:street": "Fatih Bulvar\u0131", "amenity": "cafe", "cuisine": "coffee_shop;tea", "name": "Yemen Coffee", "name:tr": "Yemen Kahvesi", "opening_hours": "Mo-Su 09:00-01:00", "phone": "+90 850 304 0707", "website": "https://yemenkahvesi.com.tr/"}}, {"type": "node", "id": 7094895086, "lat": 36.2971015, "lon": 30.1442534, "tags": {"amenity": "restaurant", "cuisine": "fish;turkish;burger;mediterranean;mexican", "name": "Ne\u015feli Bal\u0131k", "name:en": "Happy Fish Restaurant"}}, {"type": "node", "id": 7122207687, "lat": 36.2986172, "lon": 30.1457333, "tags": {"amenity": "restaurant", "cuisine": "turkish", "name": "\u015ei\u015f\u00e7i M\u00fcjdat"}}, {"type": "node", "id": 7122237985, "lat": 36.2997979, "lon": 30.1475423, "tags": {"amenity": "cafe", "cuisine": "coffee_shop;tea;cake;local;turkish;baklava;cookies", "name": "Klass Pastanesi"}}, {"type": "node", "id": 7122866286, "lat": 36.301978, "lon": 30.149559, "tags": {"amenity": "cafe", "cuisine": "coffee_shop;tea", "fixme": "position", "name:en": "Coffee X", "opening_hours": "Mo-Su 08:00-01:30", "phone": "+90 242 503 73 83"}}, {"type": "node", "id": 7128260585, "lat": 36.2947798, "lon": 30.1474904, "tags": {"amenity": "restaurant", "cuisine": "fish;turkish", "name": "Petek"}}, {"type": "node", "id": 7128422085, "lat": 36.2958045, "lon": 30.1491148, "tags": {"amenity": "cafe", "cuisine": "tea;local"}}, {"type": "node", "id": 7673948629, "lat": 36.2705433, "lon": 30.058964}, {"type": "node", "id": 7673948632, "lat": 36.2705181, "lon": 30.0589001}, {"type": "node", "id": 7673948635, "lat": 36.2707852, "lon": 30.058738}, {"type": "node", "id": 7673948639, "lat": 36.2708104, "lon": 30.0588018}, {"type": "node", "id": 7682740264, "lat": 36.2283093, "lon": 29.9598798, "tags": {"amenity": "cafe"}}, {"type": "node", "id": 7995161343, "lat": 36.252493, "lon": 29.8463613, "tags": {"amenity": "cafe", "name": "Authentic village restaraunt", "name:en": "Authentic village restaraunt, local food"}}, {"type": "node", "id": 8051679185, "lat": 36.1969118, "lon": 29.8468486, "tags": {"addr:postcode": "07573", "amenity": "restaurant", "cuisine": "mediterranean;seafood;turkish", "internet_access": "wlan", "name": "Hassan", "opening_hours": "Mo-Su 09:00-22:00"}}, {"type": "node", "id": 8219638630, "lat": 36.309348, "lon": 30.165665}, {"type": "node", "id": 8219638633, "lat": 36.3093566, "lon": 30.1656901}, {"type": "node", "id": 8219638676, "lat": 36.3092685, "lon": 30.1657171}, {"type": "node", "id": 8221261965, "lat": 36.3108138, "lon": 30.1698592}, {"type": "node", "id": 8221261966, "lat": 36.3108922, "lon": 30.1698414}, {"type": "node", "id": 8221261967, "lat": 36.3109001, "lon": 30.169895}, {"type": "node", "id": 8221261968, "lat": 36.3109309, "lon": 30.1698881}, {"type": "node", "id": 8221261969, "lat": 36.3109456, "lon": 30.1699876}, {"type": "node", "id": 8221261970, "lat": 36.3109248, "lon": 30.1700074}, {"type": "node", "id": 8221261971, "lat": 36.3109098, "lon": 30.1699832}, {"type": "node", "id": 8221261972, "lat": 36.3108346, "lon": 30.1700003}, {"type": "node", "id": 8325479917, "lat": 36.2321073, "lon": 30.008028, "tags": {"amenity": "restaurant", "name": "Likya Cafe"}}, {"type": "node", "id": 8325480017, "lat": 36.2252482, "lon": 29.9680928, "tags": {"amenity": "restaurant", "name": "Kumsal Restuarant Bar"}}, {"type": "node", "id": 8325480217, "lat": 36.2427581, "lon": 29.9857539, "tags": {"amenity": "restaurant", "name": "Etibol Ocakbasi"}}, {"type": "node", "id": 8326802117, "lat": 36.1968941, "lon": 29.8466239, "tags": {"amenity": "restaurant", "name": "Kordon Restaurant"}}, {"type": "node", "id": 8326802118, "lat": 36.1969019, "lon": 29.8467841, "tags": {"amenity": "restaurant", "name": "Ibrahim Restaurant"}}, {"type": "node", "id": 8329475823, "lat": 36.3077533, "lon": 30.1620637, "tags": {"amenity": "restaurant", "name": "Deniz beach cafe"}}, {"type": "node", "id": 8390669083, "lat": 36.2422817, "lon": 29.9867101, "tags": {"amenity": "cafe", "name": "Ertepe Cafe"}}, {"type": "node", "id": 8401598120, "lat": 36.2311736, "lon": 29.959238, "tags": {"amenity": "cafe"}}, {"type": "node", "id": 8513014418, "lat": 36.2251108, "lon": 29.9458407, "tags": {"amenity": "restaurant", "name": "Kaptan restaurant"}}, {"type": "node", "id": 8785084528, "lat": 36.3082285, "lon": 30.1459027, "tags": {"amenity": "cafe", "name": "Cafe Zorlu"}}, {"type": "node", "id": 9166017817, "lat": 36.2508446, "lon": 29.9874614, "tags": {"amenity": "cafe", "check_date": "2024-09-20", "name:ru": "\u0421\u0430\u043d\u0442\u0430 \u041a\u043b\u0430\u0443\u0441 130\u043b\u0438\u0440 \u0448\u0432\u0435\u0434\u0441\u043a\u0438\u0439 \u0441\u0442\u043e\u043b", "toilets": "yes"}}, {"type": "node", "id": 9193366217, "lat": 36.2401479, "lon": 29.9882595, "tags": {"amenity": "restaurant", "name": "Xl burger", "name:ru": "\u0411\u0443\u0440\u0433\u0435\u0440+\u043d\u0430\u043f\u0438\u0442\u043e\u043a \u043d\u0435\u0434\u043e\u0440\u043e\u0433\u043e"}}, {"type": "node", "id": 9563537000, "lat": 36.1907223, "lon": 29.8624872, "tags": {"amenity": "cafe"}}, {"type": "node", "id": 9563543960, "lat": 36.1903862, "lon": 29.8610388, "tags": {"amenity": "cafe", "name": "Ne\u015feli cafe"}}, {"type": "node", "id": 9563555279, "lat": 36.1906242, "lon": 29.8623501, "tags": {"amenity": "cafe"}}, {"type": "node", "id": 9781516092, "lat": 36.2939261, "lon": 30.1477179, "tags": {"amenity": "cafe", "name": "\u00c7orbachim"}}, {"type": "node", "id": 9781530060, "lat": 36.2934794, "lon": 30.147893, "tags": {"amenity": "cafe"}}, {"type": "node", "id": 9811993911, "lat": 36.2416304, "lon": 29.9856396, "tags": {"amenity": "cafe", "indoor_seating": "yes", "name": "Kofteci necati", "opening_hours": "Mo-Su 09:00-00:00", "outdoor_seating": "yes"}}, {"type": "node", "id": 10038846002, "lat": 36.2432056, "lon": 29.9866694, "tags": {"amenity": "restaurant", "name": "\u0130pek"}}, {"type": "node", "id": 10038857241, "lat": 36.2573003, "lon": 29.9862406, "tags": {"amenity": "cafe", "name": "Botanix"}}, {"type": "node", "id": 10103302417, "lat": 36.2432048, "lon": 29.9862443, "tags": {"amenity": "restaurant", "internet_access": "wlan", "name:en": "Gaziantep", "name:ru": "\u0428\u0438\u043a\u0430\u0440\u043d\u044b\u0435 \u043a\u0435\u0431\u0430\u0431\u044b", "phone": "02428712812"}}, {"type": "node", "id": 10177681117, "lat": 36.2476751, "lon": 30.1147325, "tags": {"amenity": "cafe"}}, {"type": "node", "id": 10177681118, "lat": 36.2230358, "lon": 29.9886798, "tags": {"amenity": "restaurant"}}, {"type": "node", "id": 10177681218, "lat": 36.2208159, "lon": 29.9775137, "tags": {"amenity": "cafe"}}, {"type": "node", "id": 10214391094, "lat": 36.3282993, "lon": 30.1611929, "tags": {"amenity": "restaurant", "check_date": "2022-11-23", "name": "K\u00f6fteci Mehmet"}}, {"type": "node", "id": 10216759235, "lat": 36.3034916, "lon": 30.1534427, "tags": {"amenity": "restaurant", "name": "Finike Belediyesi Sosyal Tesisleri"}}, {"type": "node", "id": 10223815017, "lat": 36.241482, "lon": 30.0255583, "tags": {"amenity": "restaurant"}}, {"type": "node", "id": 10223815117, "lat": 36.2450425, "lon": 30.0316355, "tags": {"amenity": "restaurant"}}, {"type": "node", "id": 10233288317, "lat": 36.2971201, "lon": 30.1444276, "tags": {"amenity": "cafe", "name:en": "With vegetarian food! . Very delicious, not so expensive, fast serving, cute place, warm inside, good melodic music .", "name:ru": "\u0412\u0435\u0433\u0435\u0442\u0430\u0440\u0438\u0430\u043d\u0441\u043a\u043e\u0435 \u043c\u0435\u043d\u044e \u0435\u0441\u0442\u044c. \u0422\u0435\u043f\u043b\u043e, \u0440\u043e\u0437\u0435\u0442\u043a\u0438 \u0434\u043b\u044f \u0437\u0430\u0440\u044f\u0434\u043a\u0438, \u0445\u043e\u0440\u043e\u0448\u0430\u044f \u043c\u0443\u0437\u044b\u043a\u0430, \u0431\u044b\u0441\u0442\u0440\u043e\u0435 \u043e\u0431\u0441\u043b\u0443\u0436\u0438\u0432\u0430\u043d\u0438\u0435."}}, {"type": "node", "id": 10233288517, "lat": 36.2977439, "lon": 30.1443721, "tags": {"amenity": "cafe", "name:en": "With vegetarian food. Socket", "name:ru": "\u0412\u0435\u0433\u0435\u0442\u0430\u0440\u0438\u0430\u043d\u0441\u043a\u043e\u0435 \u0435\u0441\u0442\u044c! \u0422\u0443\u0440\u0435\u0446\u043a\u0438\u0435 \u043b\u0435\u043f\u0435\u0448\u043a\u0438 \u0441 \u0441\u044b\u0440\u043e\u043c, \u0442\u0432\u043e\u0440\u043e\u0433\u043e\u043c. \u0420\u043e\u0437\u0435\u0442\u043a\u0438"}}, {"type": "node", "id": 10242351309, "lat": 36.2301133, "lon": 29.9917733, "tags": {"amenity": "cafe", "contact:instagram": "kahverengimutfak", "cuisine": "burger"}}, {"type": "node", "id": 10253324428, "lat": 36.2445712, "lon": 29.9872406, "tags": {"amenity": "restaurant", "cuisine": "regional;turkish", "name": "Maras'im"}}, {"type": "node", "id": 10537544183, "lat": 36.315453, "lon": 30.2254523, "tags": {"addr:city": "Antalya", "addr:district": "Finike", "addr:street": "Akdeniz Bulvar\u0131", "amenity": "restaurant", "cuisine": "turkish", "diet:meat": "yes", "name": "K\u00f6fteci Yusuf"}}, {"type": "node", "id": 10595754813, "lat": 36.2280076, "lon": 29.9983095, "tags": {"amenity": "cafe", "name": "Kum Kafe"}}, {"type": "node", "id": 10769103105, "lat": 36.2311501, "lon": 29.9592896, "tags": {"amenity": "cafe", "name": "D\u00e9girmen cafe"}}, {"type": "node", "id": 10789838866, "lat": 36.257233, "lon": 29.9862163, "tags": {"amenity": "cafe", "name": "Botanix Cafe & Pub"}}, {"type": "node", "id": 10961930805, "lat": 36.2293667, "lon": 29.8992875, "tags": {"amenity": "restaurant", "internet_access": "wlan", "name:ru": "\u0440\u0435\u0441\u0442\u043e\u0440\u0430\u043d"}}, {"type": "node", "id": 10969394105, "lat": 36.301334, "lon": 30.1482444, "tags": {"amenity": "cafe", "name": "Hatay D\u00f6ner"}}, {"type": "node", "id": 11054547779, "lat": 36.3430122, "lon": 30.1926781, "tags": {"amenity": "cafe"}}, {"type": "node", "id": 11054547854, "lat": 36.4805273, "lon": 30.0932822, "tags": {"amenity": "restaurant", "name": "Altinas", "phone": "+90 861 2252", "phone:mobile": "+90 534 51 33 29"}}, {"type": "node", "id": 11309664343, "lat": 36.2625658, "lon": 29.8928939, "tags": {"amenity": "restaurant", "email": "tiesto_1258@hotmail.com", "name": "Trysa Restaurant Camping", "phone": "+90 5555721569", "website": "https://ilksayfareklamlari.com/Firma/trysa-restaurant-camping-demre-antalya.html"}}, {"type": "node", "id": 11813185111, "lat": 36.3704908, "lon": 30.2859955}, {"type": "node", "id": 11847209907, "lat": 36.3680211, "lon": 30.2865252}, {"type": "node", "id": 11847209908, "lat": 36.3679935, "lon": 30.2866908}, {"type": "node", "id": 11862150674, "lat": 36.3656181, "lon": 30.292398, "tags": {"amenity": "cafe", "internet_access": "wlan", "name": "Hat\u0131r Kahvesi"}}, {"type": "node", "id": 11862654306, "lat": 36.3679905, "lon": 30.2864287}, {"type": "node", "id": 11862654307, "lat": 36.368053, "lon": 30.2865334}, {"type": "node", "id": 11863297988, "lat": 36.3686658, "lon": 30.2852497, "tags": {"amenity": "restaurant", "name": "Leziz Kokore\u00e7"}}, {"type": "node", "id": 11866700072, "lat": 36.367762, "lon": 30.2843301, "tags": {"amenity": "restaurant", "name": "Nar \u00c7i\u00e7e\u011fi Ev Yemekleri"}}, {"type": "node", "id": 11866700108, "lat": 36.3703832, "lon": 30.2857325}, {"type": "node", "id": 11866700109, "lat": 36.3705277, "lon": 30.2857688}, {"type": "node", "id": 11866700112, "lat": 36.3703462, "lon": 30.2859591}, {"type": "node", "id": 11867160358, "lat": 36.3666841, "lon": 30.2859891}, {"type": "node", "id": 11867160359, "lat": 36.3666878, "lon": 30.2860025}, {"type": "node", "id": 11867160360, "lat": 36.3666877, "lon": 30.2860167}, {"type": "node", "id": 11867160361, "lat": 36.3666837, "lon": 30.28603}, {"type": "node", "id": 11867160362, "lat": 36.3666264, "lon": 30.286031}, {"type": "node", "id": 11867160363, "lat": 36.3666223, "lon": 30.2860188}, {"type": "node", "id": 11867160364, "lat": 36.3666215, "lon": 30.2860056}, {"type": "node", "id": 11867160365, "lat": 36.366624, "lon": 30.2859928}, {"type": "node", "id": 11867160366, "lat": 36.3666297, "lon": 30.2859816}, {"type": "node", "id": 11867160367, "lat": 36.3666764, "lon": 30.2860408}, {"type": "node", "id": 11867160368, "lat": 36.3666665, "lon": 30.286048}, {"type": "node", "id": 11867171869, "lat": 36.3666553, "lon": 30.2860506}, {"type": "node", "id": 11867171870, "lat": 36.366644, "lon": 30.2860484}, {"type": "node", "id": 11867171871, "lat": 36.366634, "lon": 30.2860416}, {"type": "node", "id": 11867171872, "lat": 36.3666379, "lon": 30.2859732}, {"type": "node", "id": 11867171873, "lat": 36.3666478, "lon": 30.2859685}, {"type": "node", "id": 11867171874, "lat": 36.3666585, "lon": 30.2859678}, {"type": "node", "id": 11867171875, "lat": 36.3666687, "lon": 30.2859713}, {"type": "node", "id": 11867171876, "lat": 36.3666776, "lon": 30.2859787}, {"type": "node", "id": 11919755269, "lat": 36.2573178, "lon": 29.9864765, "tags": {"amenity": "cafe", "name": "Kivrak"}}, {"type": "node", "id": 11951682594, "lat": 36.2965448, "lon": 30.1450593, "tags": {"amenity": "cafe", "name": "Neselie cafe"}}, {"type": "node", "id": 12051456135, "lat": 36.2946355, "lon": 30.1472129, "tags": {"amenity": "cafe", "cuisine": "coffee_shop", "name": "Cafe de Christina"}}, {"type": "node", "id": 12703074200, "lat": 36.3673157, "lon": 30.2815222, "tags": {"amenity": "cafe", "name": "Mavi Karadeniz", "shop": "bakery"}}, {"type": "node", "id": 12703110806, "lat": 36.3673263, "lon": 30.2817391, "tags": {"amenity": "restaurant", "name": "\u00c7ar\u015f\u0131 Pide"}}, {"type": "node", "id": 12704351845, "lat": 36.3661086, "lon": 30.2885238}, {"type": "node", "id": 12704351846, "lat": 36.3661944, "lon": 30.2885578}, {"type": "node", "id": 12704351847, "lat": 36.366181, "lon": 30.2886102}, {"type": "node", "id": 12704351848, "lat": 36.3660951, "lon": 30.2885762}, {"type": "node", "id": 12704476259, "lat": 36.3652221, "lon": 30.2858073}, {"type": "node", "id": 12704476260, "lat": 36.3652298, "lon": 30.2857425}, {"type": "node", "id": 12704476261, "lat": 36.3651054, "lon": 30.2857199}, {"type": "node", "id": 12705552397, "lat": 36.3674306, "lon": 30.287472, "tags": {"amenity": "restaurant", "name": "Nur Pide"}}, {"type": "node", "id": 12705558602, "lat": 36.3660679, "lon": 30.2864663, "tags": {"amenity": "restaurant", "name": "Kebap\u00e7\u0131 Erhan Ustan\u0131n Yeri"}}, {"type": "node", "id": 12705569080, "lat": 36.3677191, "lon": 30.287695, "tags": {"amenity": "restaurant", "name": "B\u00f6reksan"}}, {"type": "node", "id": 12710603937, "lat": 36.3588879, "lon": 30.2844015, "tags": {"amenity": "restaurant", "cuisine": "fish", "name": "Ne\u015feli Bal\u0131k"}}, {"type": "node", "id": 12723295164, "lat": 36.3665733, "lon": 30.2852882, "tags": {"amenity": "restaurant", "name": "\u015ei\u015f\u00e7i Tevfik"}}, {"type": "node", "id": 12723299977, "lat": 36.360315, "lon": 30.2838499, "tags": {"amenity": "restaurant", "name": "B\u00f6reksan"}}, {"type": "node", "id": 12723302199, "lat": 36.3613709, "lon": 30.2846317, "tags": {"amenity": "restaurant", "name": "Konyal\u0131lar Etli Ekmek"}}, {"type": "node", "id": 12723305096, "lat": 36.366963, "lon": 30.2847727, "tags": {"amenity": "restaurant", "cuisine": "chicken", "name": "Emin Tavuk\u00e7uluk"}}, {"type": "node", "id": 12723306958, "lat": 36.3645654, "lon": 30.285062, "tags": {"amenity": "restaurant", "cuisine": "soup", "name": "Kumluca \u00c7orbac\u0131s\u0131"}}, {"type": "node", "id": 12723313686, "lat": 36.3585906, "lon": 30.2842259, "tags": {"amenity": "cafe", "name": "Monte Bianco Coffee"}}, {"type": "node", "id": 12723317636, "lat": 36.3667609, "lon": 30.284976, "tags": {"amenity": "restaurant", "name": "\u015ei\u015f\u00e7i Veysi"}}, {"type": "node", "id": 12725137627, "lat": 36.3574896, "lon": 30.2835986}, {"type": "node", "id": 12725137628, "lat": 36.3574266, "lon": 30.283943}, {"type": "node", "id": 12725137629, "lat": 36.3571177, "lon": 30.2837147}, {"type": "node", "id": 12725137630, "lat": 36.3569812, "lon": 30.2836078}, {"type": "node", "id": 12725137631, "lat": 36.3569192, "lon": 30.2835269}, {"type": "node", "id": 12725137632, "lat": 36.3569108, "lon": 30.2834851}, {"type": "node", "id": 12725137633, "lat": 36.3569255, "lon": 30.2834564}, {"type": "node", "id": 12725137690, "lat": 36.3664468, "lon": 30.284047, "tags": {"amenity": "restaurant"}}, {"type": "node", "id": 12725718285, "lat": 36.3599168, "lon": 30.284572}, {"type": "node", "id": 12725718286, "lat": 36.3596743, "lon": 30.2841872}, {"type": "node", "id": 12725718287, "lat": 36.359472, "lon": 30.2841174}, {"type": "node", "id": 12725718288, "lat": 36.3594207, "lon": 30.2844883}, {"type": "node", "id": 12750332092, "lat": 36.3624351, "lon": 30.2869363, "tags": {"amenity": "cafe", "name": "White Angel"}}, {"type": "node", "id": 12750375239, "lat": 36.3677647, "lon": 30.2894089, "tags": {"amenity": "cafe"}}, {"type": "node", "id": 12750375240, "lat": 36.3699423, "lon": 30.2895049, "tags": {"amenity": "cafe", "name": "Antalyaspor Taraftar Cafe & Oyun Salonu"}}, {"type": "node", "id": 12750443369, "lat": 36.3688779, "lon": 30.2883255, "tags": {"amenity": "restaurant", "name": "\u00c7ar\u015f\u0131 Pide"}}, {"type": "node", "id": 12778130713, "lat": 36.3671848, "lon": 30.2915242, "tags": {"amenity": "cafe"}}, {"type": "way", "id": 159229878, "nodes": [1713240519, 1713240520, 1713240516, 1713240515, 1713240519], "tags": {"amenity": "restaurant", "building": "yes", "name": "Finike 2000", "tourism": "hotel", "website": "http://www.hotelfinike2000.com/"}}, {"type": "way", "id": 554700328, "nodes": [5353059663, 8219638630, 8219638633, 5353059662, 5353059661, 8219638676, 5353059660, 5353059663], "tags": {"amenity": "cafe", "building": "yes", "building:levels": "1"}}, {"type": "way", "id": 555260855, "nodes": [5357433761, 5357433760, 5357433759, 5357433758, 5357433761], "tags": {"amenity": "restaurant"}}, {"type": "way", "id": 821866851, "nodes": [7673948639, 7673948629, 7673948632, 7673948635, 7673948639], "tags": {"air_conditioning": "no", "amenity": "cafe", "building": "yes", "capacity": "50", "cuisine": "regional", "name": "Mavi Yenge\u00e7", "name:ru": "\u0421\u0438\u043d\u0438\u0439 \u043a\u0440\u0430\u0431 (\u043a\u0440\u0430\u0431\u044b)", "outdoor_seating": "yes", "phone": "+905325986930"}}, {"type": "way", "id": 883994872, "nodes": [8221261965, 8221261966, 8221261967, 8221261968, 8221261969, 8221261970, 8221261971, 8221261972, 8221261965], "tags": {"amenity": "cafe", "building": "yes"}}, {"type": "way", "id": 1272148335, "nodes": [11813185111, 11866700112, 11866700108, 11866700109, 11813185111], "tags": {"amenity": "cafe", "building": "yes", "name": "H\u00fcseyin G\u00fcrkan Park Kafe", "outdoor_seating": "yes"}}, {"type": "way", "id": 1276073940, "nodes": [11862654306, 5323834140, 11862654307, 11847209907, 11847209908, 5323834154, 5323834149, 11862654306], "tags": {"amenity": "cafe", "building": "yes", "name": "Has\u0131rl\u0131 Kahve"}}, {"type": "way", "id": 1278285323, "nodes": [11867171872, 11867171873, 11867171874, 11867171875, 11867171876, 11867160358, 11867160359, 11867160360, 11867160361, 11867160367, 11867160368, 11867171869, 11867171870, 11867171871, 11867160362, 11867160363, 11867160364, 11867160365, 11867160366, 11867171872], "tags": {"amenity": "cafe", "building": "yes", "internet_access": "wlan", "name": "Cafe Meydan", "outdoor_seating": "yes"}}, {"type": "way", "id": 1371999335, "nodes": [12704351845, 12704351846, 12704351847, 12704351848, 12704351845], "tags": {"amenity": "restaurant", "building": "yes", "building:levels": "2", "name": "Bizim \u00c7orbac\u0131"}}, {"type": "way", "id": 1372014810, "nodes": [12704476259, 12704476260, 12704476261, 5325508378, 12704476259], "tags": {"amenity": "cafe", "building": "yes"}}, {"type": "way", "id": 1374361216, "nodes": [12725137627, 12725137628, 12725137629, 12725137630, 12725137631, 12725137632, 12725137633, 12725137627], "tags": {"amenity": "cafe", "building": "yes", "name": "Kumluca Aile \u00c7ay Bah\u00e7esi", "outdoor_seating": "yes"}}, {"type": "way", "id": 1374421107, "nodes": [12725718285, 12725718286, 12725718287, 12725718288, 12725718285], "tags": {"amenity": "cafe", "building": "yes", "fixme": "name;borders", "outdoor_seating": "yes"}}]}