{"version": 0.6, "generator": "Overpass API 0.7.62.7 375dc00a", "osm3s": {"timestamp_osm_base": "2025-06-14T13:10:55Z", "copyright": "The data included in this document is from www.openstreetmap.org. The data is made available under ODbL."}, "elements": [{"type": "node", "id": 2614294497, "lat": 35.4506553, "lon": 2.9035033, "tags": {"addr:country": "DZ", "amenity": "cafe"}}, {"type": "node", "id": 2614294502, "lat": 35.4503013, "lon": 2.9070653, "tags": {"addr:city": "A\u00efn Oussara", "addr:country": "DZ", "amenity": "cafe"}}, {"type": "node", "id": 2614294507, "lat": 35.4508539, "lon": 2.9071148, "tags": {"addr:city": "A\u00efn Oussara", "addr:country": "DZ", "amenity": "restaurant", "cuisine": "chicken", "name": "Alouane"}}, {"type": "node", "id": 2614294510, "lat": 35.4507094, "lon": 2.9071031, "tags": {"addr:city": "A\u00efn Oussara", "addr:country": "DZ", "amenity": "restaurant", "name": "Resto", "name:fr": "Resto"}}, {"type": "node", "id": 2617919900, "lat": 35.4522375, "lon": 2.8739629, "tags": {"addr:country": "DZ", "amenity": "cafe", "name": "Gherbi"}}, {"type": "node", "id": 2618856153, "lat": 35.448922, "lon": 2.9057028, "tags": {"addr:country": "DZ", "amenity": "cafe", "name": "Caf\u00e9 Laihar", "name:ar": "\u0645\u0642\u0647\u0649 \u0627\u0644\u0639\u064a\u0647\u0627\u0631", "name:fr": "Caf\u00e9 Laihar"}}, {"type": "node", "id": 2623791805, "lat": 35.4543359, "lon": 2.9040097, "tags": {"addr:country": "DZ", "amenity": "restaurant", "name": "Chez Bahi"}}, {"type": "node", "id": 2624844077, "lat": 35.4495785, "lon": 2.9014873, "tags": {"addr:country": "DZ", "amenity": "cafe"}}, {"type": "node", "id": 2624844085, "lat": 35.4558954, "lon": 2.8936503, "tags": {"addr:country": "DZ", "amenity": "cafe", "name": "Caf\u00e9 Cherif & Djelloul", "name:ar": "\u0645\u0642\u0647\u0649 \u0634\u0631\u064a\u0641 \u0648 \u062c\u0644\u0648\u0644", "name:en": "cafeteria Cherif & Djelloul", "name:fr": "caf\u00e9t\u00e9ria Cherif & Djelloul", "opening_hours": "Mo-Su 06:00-20:00", "phone": "0782 92 34 94"}}, {"type": "node", "id": 2624844100, "lat": 35.448594, "lon": 2.9067923, "tags": {"addr:country": "DZ", "addr:postcode": "17200", "amenity": "cafe", "cuisine": "coffee_shop;cake;breakfast;tea", "name": "Caf\u00e9t\u00e9ria Benchelef Abdelhafid", "name:ar": "\u0645\u0642\u0647\u0649 \u0628\u0646 \u0634\u0644\u0641 \u0639\u0628\u062f \u0627\u0644\u062d\u0641\u064a\u0638", "name:fr": "Caf\u00e9t\u00e9ria Benchelef Abdelhafid"}}, {"type": "node", "id": 2624848702, "lat": 35.4606814, "lon": 2.9000158, "tags": {"addr:country": "DZ", "amenity": "cafe", "name": "El Madina", "name:ar": "\u0645\u0642\u0647\u0649 \u0627\u0644\u0645\u062f\u064a\u0646\u0629", "name:en": "Caf\u00e9 El Madina", "name:fr": "Caf\u00e9 El Madina"}}, {"type": "node", "id": 2625843600, "lat": 35.454543, "lon": 2.903646, "tags": {"addr:country": "DZ", "amenity": "cafe"}}, {"type": "node", "id": 2625843629, "lat": 35.45102, "lon": 2.907112, "tags": {"addr:city": "A\u00efn Oussara", "addr:country": "DZ", "amenity": "restaurant", "cuisine": "algerian", "name": "Paul Cazelles"}}, {"type": "node", "id": 2625843633, "lat": 35.452709, "lon": 2.9071737, "tags": {"addr:country": "DZ", "amenity": "restaurant", "name": "Resto", "name:fr": "Resto"}}, {"type": "node", "id": 2628606841, "lat": 35.4576041, "lon": 2.8998435, "tags": {"addr:country": "DZ", "amenity": "cafe"}}, {"type": "node", "id": 2628944360, "lat": 35.4546646, "lon": 2.907098, "tags": {"addr:country": "DZ", "amenity": "restaurant", "name": "Resto", "name:fr": "Resto"}}, {"type": "node", "id": 2633423711, "lat": 35.486176, "lon": 3.0099437, "tags": {"addr:country": "DZ", "amenity": "cafe", "name": "El Amel"}}, {"type": "node", "id": 2656020404, "lat": 35.4541299, "lon": 2.9073707, "tags": {"addr:country": "DZ", "amenity": "cafe", "name": "Cafeteria"}}, {"type": "node", "id": 4105818155, "lat": 35.4586291, "lon": 2.8908424, "tags": {"addr:country": "DZ", "amenity": "cafe", "name": "\u0645\u0642\u0647\u0649", "name:ar": "\u0645\u0642\u0647\u0649", "name:en": "Caf\u00e9t\u00e9ria", "name:fr": "Caf\u00e9t\u00e9ria"}}, {"type": "node", "id": 4106666991, "lat": 35.4549159, "lon": 2.9038877, "tags": {"addr:country": "DZ", "amenity": "cafe"}}, {"type": "node", "id": 4106678090, "lat": 35.4548344, "lon": 2.9038817, "tags": {"addr:country": "DZ", "amenity": "cafe", "brand": "Oppo", "brand:fr": "Oppo", "brand:wikidata": "Q2084900", "brand:wikipedia": "fr:Oppo", "name": "Oppo", "name:fr": "Oppo", "shop": "mobile_phone"}}, {"type": "node", "id": 4107920689, "lat": 35.4577308, "lon": 2.9013448, "tags": {"addr:country": "DZ", "amenity": "restaurant", "name": "Resto", "name:fr": "Resto"}}, {"type": "node", "id": 4108480429, "lat": 35.4487819, "lon": 2.8949903, "tags": {"addr:country": "DZ", "amenity": "cafe", "name": "Caf\u00e9 Nadour", "name:ar": "\u0645\u0642\u0647\u0649 \u0646\u0627\u0636\u0648\u0631", "name:fr": "Caf\u00e9 Nadour"}}, {"type": "node", "id": 4108490591, "lat": 35.4627978, "lon": 2.8988676, "tags": {"addr:country": "DZ", "amenity": "cafe"}}, {"type": "node", "id": 4108494753, "lat": 35.4513671, "lon": 2.8715493, "tags": {"addr:country": "DZ", "amenity": "cafe", "name": "Rahou"}}, {"type": "node", "id": 4108559990, "lat": 35.462969, "lon": 2.898712, "tags": {"addr:country": "DZ", "amenity": "cafe"}}, {"type": "node", "id": 4108560558, "lat": 35.4536184, "lon": 2.8941741, "tags": {"addr:country": "DZ", "amenity": "restaurant", "name": "Resto", "name:fr": "Resto"}}, {"type": "node", "id": 4108633789, "lat": 35.458925, "lon": 2.8998789, "tags": {"addr:country": "DZ", "amenity": "cafe", "name": "Caf\u00e9 laarouche", "name:ar": "\u0645\u0642\u0647\u0649 \u0627\u0644\u0639\u0631\u0648\u0634", "name:fr": "Caf\u00e9 laarouche"}}, {"type": "node", "id": 4108646710, "lat": 35.4521951, "lon": 2.8938448, "tags": {"addr:country": "DZ", "amenity": "cafe"}}, {"type": "node", "id": 4108722492, "lat": 35.4561231, "lon": 2.9062465, "tags": {"addr:country": "DZ", "amenity": "cafe", "name": "\u0645\u0642\u0647\u0649 \u0628\u0648\u062e\u0627\u0631\u064a", "name:ar": "\u0645\u0642\u0647\u0649 \u0628\u0648\u062e\u0627\u0631\u064a", "name:fr": "Caf\u00e9 Boukhari"}}, {"type": "node", "id": 4108854051, "lat": 35.4631341, "lon": 2.8986159, "tags": {"addr:country": "DZ", "amenity": "cafe"}}, {"type": "node", "id": 4108859225, "lat": 35.4486568, "lon": 2.9052522, "tags": {"addr:country": "DZ", "amenity": "cafe"}}, {"type": "node", "id": 4108924291, "lat": 35.461302, "lon": 2.9071217, "tags": {"addr:country": "DZ", "amenity": "cafe"}}, {"type": "node", "id": 4108924292, "lat": 35.461433, "lon": 2.9071345, "tags": {"addr:country": "DZ", "amenity": "restaurant", "name": "Resto", "name:fr": "Resto"}}, {"type": "node", "id": 4108924294, "lat": 35.4563168, "lon": 2.9039929, "tags": {"addr:country": "DZ", "amenity": "cafe"}}, {"type": "node", "id": 4108924308, "lat": 35.4592379, "lon": 2.9005115, "tags": {"addr:country": "DZ", "amenity": "restaurant", "name": "Resto", "name:fr": "Resto"}}, {"type": "node", "id": 4108924314, "lat": 35.4588969, "lon": 2.900913, "tags": {"addr:country": "DZ", "amenity": "cafe", "name": "Bassine Mokhtar", "name:ar": "\u064a\u0627\u0633\u064a\u0646 \u0645\u062e\u062a\u0627\u0631", "name:fr": "Bassine Mokhtar"}}, {"type": "node", "id": 4274877289, "lat": 35.4550031, "lon": 2.8981035, "tags": {"addr:country": "DZ", "addr:postcode": "17200", "addr:street": "Rue ziroud youcef", "amenity": "cafe", "cuisine": "coffee_shop;cake;breakfast;tea", "name": "Caf\u00e9t\u00e9ria Benchelef", "name:ar": "\u0645\u0642\u0647\u0649 \u0628\u0646 \u0634\u0644\u0641", "name:fr": "Caf\u00e9t\u00e9ria Benchelef", "opening_hours": "Mo-Su 05:00-22:00"}}, {"type": "node", "id": 4567359990, "lat": 35.4537079, "lon": 2.9040032, "tags": {"addr:country": "DZ", "amenity": "restaurant", "name": "Restauration rapide", "name:ar": "Restauration rapide"}}, {"type": "node", "id": 4612242289, "lat": 35.4558279, "lon": 2.9039497, "tags": {"addr:country": "DZ", "amenity": "restaurant", "name": "Pizz\u00e9ria Mahdi", "name:fr": "Pizz\u00e9ria Mahdi", "phone": "0550 03 48 97"}}, {"type": "node", "id": 4620395993, "lat": 35.4505899, "lon": 2.9071048, "tags": {"addr:city": "A\u00efn Oussara", "addr:country": "DZ", "amenity": "restaurant", "name": "Resto", "name:fr": "Resto"}}, {"type": "node", "id": 4681037993, "lat": 35.4477308, "lon": 2.907646, "tags": {"addr:country": "DZ", "amenity": "cafe", "name": "\u0645\u0642\u0647\u0649 \u0628\u0646 \u0634\u0644\u0641", "name:ar": "\u0645\u0642\u0647\u0649 \u0628\u0646 \u0634\u0644\u0641", "name:en": "Cafeteria Benchlef", "name:fr": "Caf\u00e9t\u00e9ria Benchlef"}}, {"type": "node", "id": 4681043890, "lat": 35.4526289, "lon": 2.9072225, "tags": {"addr:country": "DZ", "amenity": "cafe", "name": "\u0645\u0642\u0647\u0649 \u0628\u0648\u062f\u064a\u0629", "name:ar": "\u0645\u0642\u0647\u0649 \u0628\u0648\u062f\u064a\u0629", "name:en": "Cafeteria Boudia", "name:fr": "Caf\u00e9t\u00e9ria Boudia"}}, {"type": "node", "id": 4681044089, "lat": 35.4503748, "lon": 2.9020515, "tags": {"addr:country": "DZ", "amenity": "cafe", "name": "\u0643\u0627\u0641\u064a\u062a\u064a\u0631\u064a\u0627 \u0645\u0627\u0643\u0648", "name:ar": "\u0643\u0627\u0641\u064a\u062a\u064a\u0631\u064a\u0627 \u0645\u0627\u0643\u0648", "name:en": "Cafeteria Macko", "name:fr": "Caf\u00e9t\u00e9ria Macko"}}, {"type": "node", "id": 4714100289, "lat": 35.4493659, "lon": 2.9045805, "tags": {"addr:city": "A\u00efn Oussara", "addr:country": "DZ", "amenity": "cafe", "name": "\u0645\u0642\u0647\u0649 \u0628\u0646 \u0639\u0644\u0649", "name:ar": "\u0645\u0642\u0647\u0649 \u0628\u0646 \u0639\u0644\u0649", "name:fr": "Caf\u00e9 Ben Ali"}}, {"type": "node", "id": 4724132689, "lat": 35.4504219, "lon": 2.907086, "tags": {"addr:country": "DZ", "amenity": "restaurant", "name": "Resto", "name:fr": "Resto"}}, {"type": "node", "id": 4781723742, "lat": 35.4542624, "lon": 2.9040285, "tags": {"addr:country": "DZ", "amenity": "cafe", "name": "\u0634\u0627\u064a \u0623\u062f\u0631\u0627\u0631", "name:ar": "\u0634\u0627\u064a \u0623\u062f\u0631\u0627\u0631", "name:en": "Tea Adrar", "name:fr": "Th\u00e9 Adrar"}}, {"type": "node", "id": 4816113124, "lat": 35.4484913, "lon": 2.9041882, "tags": {"addr:country": "DZ", "amenity": "cafe"}}, {"type": "node", "id": 5015476421, "lat": 35.4536836, "lon": 2.9037548, "tags": {"addr:country": "DZ", "amenity": "cafe", "name": "\u0645\u0642\u0647\u0649 \u0633\u0639\u064a\u062f\u064a", "name:ar": "\u0645\u0642\u0647\u0649 \u0633\u0639\u064a\u062f\u064a", "name:en": "Caf\u00e9t\u00e9ria saidi", "name:fr": "Caf\u00e9t\u00e9ria saidi"}}, {"type": "node", "id": 5277586621, "lat": 35.4555234, "lon": 2.9052741, "tags": {"addr:country": "DZ", "amenity": "restaurant", "name": "\u0645\u0637\u0639\u0645 \u0627\u0644\u0645\u0633\u062a\u0634\u0641\u0649", "name:ar": "\u0645\u0637\u0639\u0645 \u0627\u0644\u0645\u0633\u062a\u0634\u0641\u0649", "name:fr": "Restaurant l'h\u00f4pital"}}, {"type": "node", "id": 5422601622, "lat": 35.3653302, "lon": 2.9476439, "tags": {"addr:country": "DZ", "amenity": "restaurant", "name": "\u064a\u0648\u0646\u0642\u0627", "name:ar": "\u064a\u0648\u0646\u0642\u0627", "name:en": "Younga", "name:fr": "Younga"}}, {"type": "node", "id": 5600338121, "lat": 35.3652998, "lon": 2.9475228, "tags": {"addr:country": "DZ", "amenity": "cafe"}}, {"type": "node", "id": 6244843585, "lat": 35.4516858, "lon": 2.907114, "tags": {"amenity": "restaurant", "name:fr": "charara"}}, {"type": "node", "id": 6912615486, "lat": 35.4488965, "lon": 2.9064052, "tags": {"amenity": "cafe", "name": "\u0645\u0642\u0647\u0649", "name:ar": "\u0645\u0642\u0647\u0649", "name:en": "Caf\u00e9t\u00e9ria", "name:fr": "Caf\u00e9t\u00e9ria"}}]}