{"version": 0.6, "generator": "Overpass API 0.7.62.7 375dc00a", "osm3s": {"timestamp_osm_base": "2025-06-14T15:13:00Z", "copyright": "The data included in this document is from www.openstreetmap.org. The data is made available under ODbL."}, "elements": [{"type": "node", "id": 1091075789, "lat": 35.6179531, "lon": 34.4668075, "tags": {"amenity": "restaurant", "name": "Sea Front Beach"}}, {"type": "node", "id": 1127550537, "lat": 35.5985907, "lon": 34.3807333, "tags": {"amenity": "cafe", "indoor_seating": "yes", "name": "Ay\u0131os Sinesis", "name:en": "Agios Synesios", "name:tr": "Ay\u0131os Sinesis", "outdoor_seating": "yes"}}, {"type": "node", "id": 1127558179, "lat": 35.598884, "lon": 34.3808338, "tags": {"amenity": "cafe"}}, {"type": "node", "id": 1127562127, "lat": 35.6042611, "lon": 34.3809184, "tags": {"amenity": "restaurant", "name": "Magnolyam"}}, {"type": "node", "id": 1127564285, "lat": 35.6303833, "lon": 34.373787, "tags": {"amenity": "restaurant", "indoor_seating": "yes", "name": "Oasis", "outdoor_seating": "yes", "tourism": "hotel"}}, {"type": "node", "id": 2079152038, "lat": 35.4272107, "lon": 34.1302501, "tags": {"amenity": "cafe", "name": "Kumyal\u0131 K\u00f6y Kahvesi"}}, {"type": "node", "id": 2080553179, "lat": 35.5699527, "lon": 34.2610144, "tags": {"amenity": "restaurant", "name": "Alevkayali Restaurant"}}, {"type": "node", "id": 2080553180, "lat": 35.5700493, "lon": 34.2566836, "tags": {"amenity": "restaurant", "name": "Deks"}}, {"type": "node", "id": 2080553186, "lat": 35.5699999, "lon": 34.2613019, "tags": {"amenity": "restaurant", "name": "Theresa Restaurant"}}, {"type": "node", "id": 2080554369, "lat": 35.5686275, "lon": 34.2516688}, {"type": "node", "id": 2080554370, "lat": 35.5687165, "lon": 34.2516013}, {"type": "node", "id": 2080554371, "lat": 35.5688173, "lon": 34.2520468}, {"type": "node", "id": 2080554373, "lat": 35.5689063, "lon": 34.2519793}, {"type": "node", "id": 2080971522, "lat": 35.5984228, "lon": 34.3795025, "tags": {"amenity": "cafe", "name": "Terrace Cafe"}}, {"type": "node", "id": 2083226916, "lat": 35.600055, "lon": 34.4351198, "tags": {"amenity": "restaurant", "name": "Livana Hotel", "tourism": "hotel"}}, {"type": "node", "id": 2288587773, "lat": 35.5577324, "lon": 34.2315188, "tags": {"amenity": "restaurant", "name": "Hemingways", "source": "visit"}}, {"type": "node", "id": 3428920197, "lat": 35.4111624, "lon": 33.9975163, "tags": {"amenity": "restaurant", "cuisine": "cypriot", "name": "Kemeralt\u0131", "website": "https://www.facebook.com/pages/Kemeralt%C4%B1-a%C5%9Fevi-b%C3%BCy%C3%BCkkonuk/497832003604379?sk=info&tab=overview"}}, {"type": "node", "id": 3428920201, "lat": 35.4109179, "lon": 33.9975176, "tags": {"amenity": "cafe"}}, {"type": "node", "id": 4102802353, "lat": 35.4302197, "lon": 34.1285762, "tags": {"amenity": "restaurant", "name": "Tepe"}}, {"type": "node", "id": 4137009412, "lat": 35.4216112, "lon": 34.0725874, "tags": {"amenity": "restaurant"}}, {"type": "node", "id": 4209409293, "lat": 35.5998218, "lon": 34.4355132, "tags": {"amenity": "restaurant", "cuisine": "fish;seafood;turkish;barbecue", "internet_access": "wlan", "name": "Livano"}}, {"type": "node", "id": 4988684533, "lat": 35.6227653, "lon": 34.4949024, "tags": {"amenity": "restaurant", "name": "Paradise Karpaz", "name:en": "Paradise Karpaz"}}, {"type": "node", "id": 5268137593, "lat": 35.5913894, "lon": 34.3907645, "tags": {"amenity": "cafe", "name": "\u00c7atom Koop", "shop": "convenience"}}, {"type": "node", "id": 5524345821, "lat": 35.5036245, "lon": 34.1613333, "tags": {"amenity": "restaurant", "cuisine": "kebab", "name": "KADI RESTAURANT", "outdoor_seating": "yes"}}, {"type": "node", "id": 5524379696, "lat": 35.5030867, "lon": 34.1615915, "tags": {"amenity": "cafe", "name": "YE\u015e\u0130LK\u00d6Y KAHVEHANES\u0130 (KADI KAHVEHANES\u0130)"}}, {"type": "node", "id": 5571990738, "lat": 35.5340403, "lon": 34.1881019, "tags": {"amenity": "cafe", "name": "Ekor Un Mam\u00fclleri"}}, {"type": "node", "id": 5701368414, "lat": 35.3666366, "lon": 34.0787086}, {"type": "node", "id": 5701368415, "lat": 35.366394, "lon": 34.0787275}, {"type": "node", "id": 5701368416, "lat": 35.3663874, "lon": 34.0791422}, {"type": "node", "id": 5701368417, "lat": 35.3666327, "lon": 34.0791422}, {"type": "node", "id": 5731202409, "lat": 35.3651108, "lon": 34.0207181, "tags": {"amenity": "cafe", "name": "Livadya cafe"}}, {"type": "node", "id": 5731202411, "lat": 35.3678242, "lon": 34.0250665, "tags": {"amenity": "cafe", "cuisine": "kebab", "name": "Asil"}}, {"type": "node", "id": 5731202417, "lat": 35.3708408, "lon": 34.0366071, "tags": {"amenity": "cafe", "name": "Palmiye"}}, {"type": "node", "id": 5731316956, "lat": 35.4013894, "lon": 34.0800768}, {"type": "node", "id": 5731316957, "lat": 35.4013262, "lon": 34.0802436}, {"type": "node", "id": 5731316958, "lat": 35.4014311, "lon": 34.0803035}, {"type": "node", "id": 5731316959, "lat": 35.4014944, "lon": 34.0801367}, {"type": "node", "id": 5731316960, "lat": 35.4015329, "lon": 34.0802574}, {"type": "node", "id": 5731316982, "lat": 35.3721324, "lon": 34.0716778, "tags": {"amenity": "restaurant", "name": "Ayaz"}}, {"type": "node", "id": 5731323156, "lat": 35.4448094, "lon": 34.1363011, "tags": {"amenity": "cafe", "name": "\u00c7amalt\u0131 B\u00fcfe"}}, {"type": "node", "id": 5731326870, "lat": 35.4702038, "lon": 34.1452304, "tags": {"amenity": "cafe"}}, {"type": "node", "id": 5731326873, "lat": 35.4717745, "lon": 34.1484076, "tags": {"amenity": "cafe", "name": "Nurgin Cafe"}}, {"type": "node", "id": 5906683793, "lat": 35.3635341, "lon": 34.0737125}, {"type": "node", "id": 5906683794, "lat": 35.3635613, "lon": 34.0737702}, {"type": "node", "id": 5906683795, "lat": 35.3635987, "lon": 34.0737437}, {"type": "node", "id": 5906683796, "lat": 35.3636248, "lon": 34.073799}, {"type": "node", "id": 5906683797, "lat": 35.3635879, "lon": 34.0738252}, {"type": "node", "id": 5906683798, "lat": 35.3636095, "lon": 34.0738709}, {"type": "node", "id": 5906683799, "lat": 35.363552, "lon": 34.0739117}, {"type": "node", "id": 5906683800, "lat": 35.3634771, "lon": 34.0737529}, {"type": "node", "id": 5976079485, "lat": 35.5914256, "lon": 34.3889191, "tags": {"addr:street": "Karpaz Anayolu", "amenity": "restaurant", "cuisine": "grill;seafood;local;buschenschank;fish_and_chips;chicken;kebab;turkish", "internet_access": "wlan", "name": "IRINI RESTAURANT", "name:en": "IRINI RESTAURANT"}}, {"type": "node", "id": 6360119888, "lat": 35.3968435, "lon": 34.0731421, "tags": {"amenity": "cafe", "name": "Cavitin Yeri", "name:tr": "Yayla yemek evi"}}, {"type": "node", "id": 6545229585, "lat": 35.5029252, "lon": 34.1613008, "tags": {"amenity": "restaurant", "name": "Mill restaurant"}}, {"type": "node", "id": 6545300585, "lat": 35.3700711, "lon": 34.0317751, "tags": {"amenity": "restaurant", "name": "Palmye Cafe restaurant"}}, {"type": "node", "id": 8743623154, "lat": 35.5701831, "lon": 34.2567119}, {"type": "node", "id": 8743623155, "lat": 35.5701249, "lon": 34.2567165}, {"type": "node", "id": 8743623156, "lat": 35.5701186, "lon": 34.2566218}, {"type": "node", "id": 8743623157, "lat": 35.5700064, "lon": 34.2566287}, {"type": "node", "id": 8743623158, "lat": 35.5700064, "lon": 34.2567959}, {"type": "node", "id": 8743623159, "lat": 35.5700992, "lon": 34.2568005}, {"type": "node", "id": 8743623160, "lat": 35.5700979, "lon": 34.2567843}, {"type": "node", "id": 8743623161, "lat": 35.5701869, "lon": 34.2567843}, {"type": "node", "id": 8743713317, "lat": 35.5701429, "lon": 34.2610075}, {"type": "node", "id": 8743713318, "lat": 35.5700938, "lon": 34.2610195}, {"type": "node", "id": 8743713319, "lat": 35.5701025, "lon": 34.2610611}, {"type": "node", "id": 8743713320, "lat": 35.5701232, "lon": 34.2610598}, {"type": "node", "id": 8743713321, "lat": 35.5701298, "lon": 34.2611054}, {"type": "node", "id": 8743713322, "lat": 35.5700796, "lon": 34.2611201}, {"type": "node", "id": 8743713323, "lat": 35.5700414, "lon": 34.2611349}, {"type": "node", "id": 8743713324, "lat": 35.570037, "lon": 34.2611094}, {"type": "node", "id": 8743713325, "lat": 35.5699432, "lon": 34.2611309}, {"type": "node", "id": 8743713326, "lat": 35.5699334, "lon": 34.2611161}, {"type": "node", "id": 8743713327, "lat": 35.5698963, "lon": 34.2611242}, {"type": "node", "id": 8743713328, "lat": 35.5698647, "lon": 34.2608988}, {"type": "node", "id": 8743713329, "lat": 35.5699454, "lon": 34.2608707}, {"type": "node", "id": 8743713330, "lat": 35.5699367, "lon": 34.2608492}, {"type": "node", "id": 8743713331, "lat": 35.5699323, "lon": 34.2608103}, {"type": "node", "id": 8743713332, "lat": 35.5699345, "lon": 34.2607594}, {"type": "node", "id": 8743713333, "lat": 35.5699541, "lon": 34.2607473}, {"type": "node", "id": 8743713334, "lat": 35.5699825, "lon": 34.2607419}, {"type": "node", "id": 8743713335, "lat": 35.5700032, "lon": 34.2607594}, {"type": "node", "id": 8743713336, "lat": 35.5700207, "lon": 34.2607755}, {"type": "node", "id": 8743713337, "lat": 35.5700349, "lon": 34.2608063}, {"type": "node", "id": 8743713338, "lat": 35.5700272, "lon": 34.2608291}, {"type": "node", "id": 8743713339, "lat": 35.5700872, "lon": 34.2608787}, {"type": "node", "id": 8743713340, "lat": 35.5701167, "lon": 34.260923}, {"type": "node", "id": 8743713341, "lat": 35.5701298, "lon": 34.2609619}, {"type": "node", "id": 8743713342, "lat": 35.5699665, "lon": 34.2613415}, {"type": "node", "id": 8743713343, "lat": 35.5699648, "lon": 34.2612419}, {"type": "node", "id": 8743713344, "lat": 35.5699946, "lon": 34.2612409}, {"type": "node", "id": 8743713345, "lat": 35.5699971, "lon": 34.261183}, {"type": "node", "id": 8743713346, "lat": 35.5700905, "lon": 34.2611789}, {"type": "node", "id": 8743713347, "lat": 35.570083, "lon": 34.2612582}, {"type": "node", "id": 8743713348, "lat": 35.5701169, "lon": 34.2612562}, {"type": "node", "id": 8743713349, "lat": 35.5701045, "lon": 34.2614452}, {"type": "node", "id": 8743713350, "lat": 35.5700285, "lon": 34.261434}, {"type": "node", "id": 8743713351, "lat": 35.5700334, "lon": 34.261373}, {"type": "node", "id": 8743713352, "lat": 35.5700136, "lon": 34.261371}, {"type": "node", "id": 8743713353, "lat": 35.5700169, "lon": 34.2613385}, {"type": "node", "id": 9077029017, "lat": 35.5567749, "lon": 34.1952387, "tags": {"addr:street": "Erenk\u00f6y Halk Plaj\u0131 Yolu", "amenity": "restaurant", "name": "Halk Plaj\u0131"}}, {"type": "node", "id": 9694336019, "lat": 35.4832076, "lon": 34.1870754, "tags": {"amenity": "cafe"}}, {"type": "node", "id": 12142356991, "lat": 35.3633244, "lon": 34.0778091}, {"type": "node", "id": 12142356992, "lat": 35.3633287, "lon": 34.0776514}, {"type": "node", "id": 12142356993, "lat": 35.3633163, "lon": 34.0776114}, {"type": "node", "id": 12142356994, "lat": 35.3632701, "lon": 34.0776116}, {"type": "node", "id": 12142356995, "lat": 35.3632563, "lon": 34.0776514}, {"type": "node", "id": 12142356996, "lat": 35.3632473, "lon": 34.077805}, {"type": "node", "id": 12142356997, "lat": 35.3632701, "lon": 34.0778324}, {"type": "node", "id": 12142356998, "lat": 35.3633011, "lon": 34.0778301}, {"type": "node", "id": 12142357019, "lat": 35.3635429, "lon": 34.0779316}, {"type": "node", "id": 12142357020, "lat": 35.3634877, "lon": 34.0779001}, {"type": "node", "id": 12142357021, "lat": 35.3634486, "lon": 34.0778931}, {"type": "node", "id": 12142357022, "lat": 35.3634296, "lon": 34.0779439}, {"type": "node", "id": 12142357023, "lat": 35.3634434, "lon": 34.0780332}, {"type": "node", "id": 12142357024, "lat": 35.3635081, "lon": 34.0780723}, {"type": "node", "id": 12142357025, "lat": 35.3635557, "lon": 34.0780793}, {"type": "node", "id": 12142357026, "lat": 35.3635605, "lon": 34.0780081}, {"type": "node", "id": 12717957675, "lat": 35.6284169, "lon": 34.3714785, "tags": {"amenity": "restaurant", "indoor_seating": "no", "name": "Ayfilon", "outdoor_seating": "yes"}}, {"type": "way", "id": 197857341, "nodes": [2080554370, 2080554373, 2080554371, 2080554369, 2080554370], "tags": {"amenity": "restaurant", "building": "yes", "name": "Mansura Restaurant"}}, {"type": "way", "id": 599171426, "nodes": [5701368414, 5701368415, 5701368416, 5701368417, 5701368414], "tags": {"amenity": "restaurant", "building": "yes", "name": "Mehmetcik Belediye Plaj Restorant"}}, {"type": "way", "id": 603893606, "nodes": [5731316956, 5731316957, 5731316958, 5731316960, 5731316959, 5731316956], "tags": {"amenity": "cafe", "building": "yes", "name": "G\u00fclyaz"}}, {"type": "way", "id": 625594793, "nodes": [5906683793, 5906683794, 5906683795, 5906683796, 5906683797, 5906683798, 5906683799, 5906683800, 5906683793], "tags": {"amenity": "restaurant", "building": "yes"}}, {"type": "way", "id": 944412853, "nodes": [8743623154, 8743623155, 8743623156, 8743623157, 8743623158, 8743623159, 8743623160, 8743623161, 8743623154], "tags": {"amenity": "restaurant", "building": "yes"}}, {"type": "way", "id": 944412861, "nodes": [8743713317, 8743713318, 8743713319, 8743713320, 8743713321, 8743713322, 8743713323, 8743713324, 8743713325, 8743713326, 8743713327, 8743713328, 8743713329, 8743713330, 8743713331, 8743713332, 8743713333, 8743713334, 8743713335, 8743713336, 8743713337, 8743713338, 8743713339, 8743713340, 8743713341, 8743713317], "tags": {"amenity": "restaurant", "building": "yes"}}, {"type": "way", "id": 944412862, "nodes": [8743713342, 8743713343, 8743713344, 8743713345, 8743713346, 8743713347, 8743713348, 8743713349, 8743713350, 8743713351, 8743713352, 8743713353, 8743713342], "tags": {"amenity": "restaurant", "building": "yes"}}, {"type": "way", "id": 1311808160, "nodes": [12142356991, 12142356992, 12142356993, 12142356994, 12142356995, 12142356996, 12142356997, 12142356998, 12142356991], "tags": {"amenity": "restaurant", "building": "yes"}}, {"type": "way", "id": 1311808167, "nodes": [12142357019, 12142357020, 12142357021, 12142357022, 12142357023, 12142357024, 12142357025, 12142357026, 12142357019], "tags": {"amenity": "cafe", "building": "yes", "cuisine": "coffee_shop"}}]}