{"version": 0.6, "generator": "Overpass API 0.7.62.7 375dc00a", "osm3s": {"timestamp_osm_base": "2025-06-14T13:52:30Z", "copyright": "The data included in this document is from www.openstreetmap.org. The data is made available under ODbL."}, "elements": [{"type": "node", "id": 3339292993, "lat": 27.0418876, "lon": 14.4241802, "tags": {"addr:street": "\u0634\u0627\u0631\u0639 \u062c\u0645\u0627\u0644 \u0639\u0628\u062f \u0627\u0644\u0646\u0627\u0635\u0631", "amenity": "cafe", "name": "\u0642\u0647\u0648\u0629 \u0627\u0644\u0645\u0635\u0631\u064a\u064a\u0646", "name:ar": "\u0642\u0647\u0648\u0629 \u0627\u0644\u0645\u0635\u0631\u064a\u064a\u0646", "name:en": "Egyptian coffee"}}, {"type": "node", "id": 4359881291, "lat": 27.0427003, "lon": 14.4259884, "tags": {"addr:street": "\u0634\u0627\u0631\u0639 \u0627\u0642\u0639\u064a\u062f \u0627\u0644\u0634\u0627\u0631\u0639 \u0627\u0644\u0648\u0627\u0633\u0639", "amenity": "cafe", "name": "\u0643\u0627\u0641\u064a\u0647 \u0645\u0647\u062f\u064a \u0627\u0644\u0628\u0648\u0628", "name:ar": "\u0643\u0627\u0641\u064a\u0647 \u0645\u0647\u062f\u064a \u0627\u0644\u0628\u0648\u0628", "name:en": "Mahdi Pup Caf\u00e9"}}, {"type": "node", "id": 4447681390, "lat": 27.0289755, "lon": 14.433951, "tags": {"amenity": "restaurant", "name": "\u0643\u0648\u062e \u0627\u0644\u0628\u064a\u062a\u0632\u0627", "name:ar": "\u0643\u0648\u062e \u0627\u0644\u0628\u064a\u062a\u0632\u0627", "name:en": "Pizza"}}, {"type": "node", "id": 4607456316, "lat": 27.0278925, "lon": 14.433854, "tags": {"addr:city": "\u0633\u0628\u0647\u0627", "addr:street": "\u0634\u0627\u0631\u0639 \u0627\u0644\u0645\u062f\u0627\u0631\u0633", "amenity": "restaurant", "cuisine": "burger;pizza;chicken", "name": "\u0645\u0637\u0639\u0645 \u0631\u0647\u064a\u0628", "name:ar": "\u0645\u0637\u0639\u0645 \u0631\u0647\u064a\u0628", "name:en": "restaurant raheb", "opening_hours": "Sa-Th 10:00-22:00; Fr", "phone": "00218913399590"}}, {"type": "node", "id": 4607465605, "lat": 27.0285381, "lon": 14.4339416, "tags": {"addr:street": "\u0634\u0627\u0631\u0639 \u0627\u0644\u0645\u062f\u0627\u0631\u0633", "amenity": "cafe", "internet_access": "wlan", "name": "Costa coffee", "name:ar": "\u0643\u0648\u0633\u062a\u0627 \u0643\u0627\u0641\u064a\u0629", "name:en": "Costa Cafe"}}, {"type": "node", "id": 4697274494, "lat": 27.0461651, "lon": 14.4140523, "tags": {"amenity": "restaurant"}}, {"type": "node", "id": 4712365889, "lat": 27.0299091, "lon": 14.428974, "tags": {"addr:street": "\u0637\u0631\u064a\u0642 \u0627\u0644\u062f\u0627\u0626\u0631\u064a \u0627\u0644\u062b\u0627\u0646\u064a", "amenity": "cafe", "name": "\u0644\u0627\u0641\u0627\u0632\u0627", "name:ar": "\u0644\u0627\u0641\u0627\u0632\u0627"}}, {"type": "node", "id": 4713706694, "lat": 27.0266243, "lon": 14.4337228, "tags": {"amenity": "cafe", "name": "\u0642\u0647\u0648\u0629 \u0627\u0644\u0628\u0646\u064a \u0639\u0644\u064a \u0627\u0644\u0623\u062e\u0636\u0631", "name:ar": "\u0642\u0647\u0648\u0629 \u0627\u0644\u0628\u0646\u064a \u0639\u0644\u064a \u0627\u0644\u0623\u062e\u0636\u0631"}}, {"type": "node", "id": 5039353221, "lat": 27.053102, "lon": 14.4227974, "tags": {"addr:street": "\u0634\u0627\u0631\u0639 \u0639\u0645\u0631 \u0627\u0644\u0645\u062e\u062a\u0627\u0631", "amenity": "restaurant", "name": "\u0627\u0644\u0645\u062d\u062a\u0631\u0641", "name:ar": "\u0645\u0637\u0639\u0645"}}, {"type": "node", "id": 5248536131, "lat": 27.0357797, "lon": 14.4419329, "tags": {"amenity": "restaurant", "name": "\u0645\u0637\u0639\u0645 \u0627\u0644\u0642\u0645\u0648\u062f\u064a", "name:ar": "\u0645\u0637\u0639\u0645 \u0627\u0644\u0642\u0645\u0648\u062f\u064a", "name:en": "Restaurant"}}, {"type": "node", "id": 5559957723, "lat": 27.0554693, "lon": 14.4175419, "tags": {"addr:street": "\u062c\u0632\u064a\u0631\u0647 \u0639\u0628\u062f\u0627\u0644\u0643\u0627\u0641\u064a", "amenity": "cafe", "name": "Lavaza coffe"}}, {"type": "node", "id": 5664579783, "lat": 27.0257858, "lon": 14.4286237, "tags": {"addr:city": "\u0633\u0628\u0647\u0627", "amenity": "restaurant", "name": "\u0645\u062d\u0644 \u0627\u0644\u0645\u0630\u0627\u0642", "name:ar": "\u0645\u062d\u0644 \u0627\u0644\u0645\u0630\u0627\u0642"}}, {"type": "node", "id": 5678515822, "lat": 27.0373474, "lon": 14.428547, "tags": {"addr:street": "\u0634\u0627\u0631\u0639 \u062c\u0645\u0627\u0644 \u0639\u0628\u062f \u0627\u0644\u0646\u0627\u0635\u0631", "amenity": "restaurant", "name": "\u0627\u0644\u0628\u0627\u0634\u0627", "name:ar": "\u0627\u0644\u0628\u0627\u0634\u0627", "opening_hours": "Sa-Th 10:00-22:00"}}, {"type": "node", "id": 5678540221, "lat": 27.0328499, "lon": 14.4316795, "tags": {"amenity": "cafe", "name": "\u0644\u0627\u0641\u0627\u0632\u0627", "name:ar": "\u0644\u0627\u0641\u0627\u0632\u0627", "name:en": "La Vazza", "opening_hours": "Mo-Su 09:00-01:30"}}, {"type": "node", "id": 6141869686, "lat": 27.039212, "lon": 14.4291372, "tags": {"amenity": "cafe", "name": "\u0645\u0642\u0647\u0649 \u0627\u0643\u0627\u0643\u0648\u0633 \u0627\u0644\u0633\u064a\u0627\u062d\u064a", "name:ar": "\u0645\u0642\u0647\u0649 \u0627\u0643\u0627\u0643\u0648\u0633 \u0627\u0644\u0633\u064a\u0627\u062d\u064a", "name:en": "ACACOS Cafe"}}, {"type": "node", "id": 6864801987, "lat": 27.0396839, "lon": 14.424355, "tags": {"addr:street": "\u0627\u0644\u0645\u0646\u0634\u064a\u0647", "amenity": "cafe", "name": "\u0634\u0627\u064a \u0623\u062e\u0636\u0631", "name:ar": "\u0639\u0635\u0645\u0627\u0646 \u0644\u0644\u0634\u0627\u064a \u0623\u062e\u0636\u0631"}}, {"type": "node", "id": 7366716685, "lat": 27.0357348, "lon": 14.4295611, "tags": {"addr:street": "\u0634\u0627\u0631\u0639 \u062c\u0645\u0627\u0644 \u0639\u0628\u062f \u0627\u0644\u0646\u0627\u0635\u0631", "amenity": "cafe", "name": "\u0628\u064a\u062a \u0627\u0644\u062b\u0642\u0627\u0641\u0641\u0629", "name:ar": "\u0628\u064a\u062a \u0627\u0644\u062b\u0642\u0627\u0641\u0641\u0629"}}]}