{"version": 0.6, "generator": "Overpass API 0.7.62.7 375dc00a", "osm3s": {"timestamp_osm_base": "2025-06-14T14:46:28Z", "copyright": "The data included in this document is from www.openstreetmap.org. The data is made available under ODbL."}, "elements": [{"type": "node", "id": 331131119, "lat": 42.1265098, "lon": 24.7466258}, {"type": "node", "id": 515011866, "lat": 42.1567728, "lon": 24.7566028, "tags": {"amenity": "restaurant"}}, {"type": "node", "id": 567370194, "lat": 41.943822, "lon": 24.8559571, "tags": {"amenity": "restaurant", "cuisine": "regional", "ele": "368.31", "name": "\u0412\u043e\u0434\u043e\u043f\u0430\u0434\u0430", "name:en": "Vodopada"}}, {"type": "node", "id": 567448752, "lat": 41.911515, "lon": 24.8025067, "tags": {"amenity": "restaurant", "cuisine": "balkan", "name": "\u042e\u0433\u043e\u0432\u0441\u043a\u043e \u0445\u0430\u043d\u0447\u0435", "name:en": "Yugovsko hanche"}}, {"type": "node", "id": 671179487, "lat": 41.841553, "lon": 24.6795064, "tags": {"amenity": "restaurant", "name": "\u0421\u0438\u043d\u0438\u044f \u0425\u0430\u043d\u044a"}}, {"type": "node", "id": 1067932823, "lat": 42.1266514, "lon": 24.7467469}, {"type": "node", "id": 1067932828, "lat": 42.126767, "lon": 24.7467533}, {"type": "node", "id": 1067932867, "lat": 42.1266448, "lon": 24.7469649}, {"type": "node", "id": 1067932874, "lat": 42.1264998, "lon": 24.7469569}, {"type": "node", "id": 1067932879, "lat": 42.1267704, "lon": 24.7466402}, {"type": "node", "id": 1187195463, "lat": 42.1604039, "lon": 24.7497833}, {"type": "node", "id": 1187195483, "lat": 42.1604011, "lon": 24.7496426}, {"type": "node", "id": 1187195554, "lat": 42.1602638, "lon": 24.7497884}, {"type": "node", "id": 1187195561, "lat": 42.160261, "lon": 24.7496477}, {"type": "node", "id": 1350379778, "lat": 42.1450293, "lon": 24.7571741, "tags": {"amenity": "cafe", "name": "\u0410\u0432\u0435\u043d\u044e"}}, {"type": "node", "id": 1350379779, "lat": 42.1410627, "lon": 24.7622194, "tags": {"amenity": "restaurant", "name": "\u041c\u0435\u043d\u0434\u0435\u043b\u0441\u043e\u043d"}}, {"type": "node", "id": 1350379787, "lat": 42.1407766, "lon": 24.7616626, "tags": {"amenity": "cafe", "name": "\u041d\u043e\u0440\u0438\u0441", "name:en": "Noris"}}, {"type": "node", "id": 1350379829, "lat": 42.1450281, "lon": 24.756636, "tags": {"amenity": "cafe", "name": "Damask Bar"}}, {"type": "node", "id": 1350379859, "lat": 42.1472886, "lon": 24.7625495, "tags": {"amenity": "cafe"}}, {"type": "node", "id": 1350379939, "lat": 42.1416749, "lon": 24.7593989, "tags": {"amenity": "cafe", "name": "\u0424\u0430\u043d\u0442\u0430\u0442\u0430"}}, {"type": "node", "id": 1381604865, "lat": 42.1297345, "lon": 24.7689431, "tags": {"amenity": "restaurant", "brand": "Happy Bar & Grill", "brand:wikidata": "Q112056203", "contact:facebook": "https://www.facebook.com/HappyBarAndGrill/", "contact:instagram": "https://www.instagram.com/happybarandgrill", "contact:phone": "+359 700 20888", "contact:website": "https://happy.bg/", "cuisine": "international", "name": "Happy Bar & Grill", "name:en": "Happy Bar & Grill", "opening_hours": "Mo-Sa 11:30-23:00; Su 12:00-23:00", "operator": "\"\u0425\u0415\u041f\u0418 2\" \u0415\u041e\u041e\u0414"}}, {"type": "node", "id": 1381797565, "lat": 42.1390116, "lon": 24.7499824, "tags": {"amenity": "cafe", "internet_access": "wlan", "internet_access:fee": "no", "name": "\u041f\u0430\u0440\u0430\u0433\u0440\u0430\u0444 22", "opening_hours": "Mo-Su 08:00-23:00"}}, {"type": "node", "id": 1391113136, "lat": 42.1585895, "lon": 24.7424028, "tags": {"amenity": "cafe", "name": "Escape"}}, {"type": "node", "id": 1411450024, "lat": 42.1436618, "lon": 24.7478529, "tags": {"addr:city": "\u041f\u043b\u043e\u0432\u0434\u0438\u0432", "addr:housenumber": "19", "addr:postcode": "4000", "addr:street": "\u041d\u0430\u0439\u0434\u0435\u043d \u0413\u0435\u0440\u043e\u0432", "air_conditioning": "yes", "amenity": "restaurant", "cuisine": "pizza;pasta", "delivery": "yes", "internet_access": "wlan", "name": "Casa Petraglia", "outdoor_seating": "yes", "payment:cash": "yes", "payment:credit_cards": "yes", "payment:debit_cards": "yes", "phone": "+359 88 899 7751", "reservation": "yes", "takeaway": "yes", "toilets": "yes"}}, {"type": "node", "id": 1448419328, "lat": 42.1243604, "lon": 24.7405143, "tags": {"amenity": "restaurant", "capacity": "50", "cuisine": "regional", "name": "\u0422\u0440\u043e\u043c\u043f\u0435\u0442\u0430", "name:en": "The Trumpet", "outdoor_seating": "no", "smoking": "outside", "takeaway": "yes"}}, {"type": "node", "id": 1479577011, "lat": 42.1315382, "lon": 24.7970501, "tags": {"addr:street": "Bratan", "amenity": "restaurant", "cuisine": "regional", "fixme": "probably closed down?", "name": "\u0427\u0438\u043b\u0438", "phone": "+359 87 952 2292", "website": "https://chili.bg/"}}, {"type": "node", "id": 1479582003, "lat": 42.1339053, "lon": 24.7957224, "tags": {"amenity": "restaurant", "name": "\u0410rbanasi"}}, {"type": "node", "id": 1481405079, "lat": 42.1301045, "lon": 24.7892274}, {"type": "node", "id": 1481405119, "lat": 42.1302035, "lon": 24.7894358}, {"type": "node", "id": 1481405171, "lat": 42.1302666, "lon": 24.7890875}, {"type": "node", "id": 1481405201, "lat": 42.1303655, "lon": 24.789296}, {"type": "node", "id": 1481405624, "lat": 42.1331242, "lon": 24.7750106}, {"type": "node", "id": 1481405631, "lat": 42.133208, "lon": 24.7752427}, {"type": "node", "id": 1481405638, "lat": 42.1334306, "lon": 24.7748103}, {"type": "node", "id": 1481405639, "lat": 42.1335139, "lon": 24.7750427}, {"type": "node", "id": 1496406571, "lat": 42.1441009, "lon": 24.7558805, "tags": {"amenity": "cafe"}}, {"type": "node", "id": 1497346466, "lat": 42.1432327, "lon": 24.7646478, "tags": {"amenity": "cafe", "name": "Park Cafe"}}, {"type": "node", "id": 1547590724, "lat": 42.1262246, "lon": 24.7332631, "tags": {"amenity": "cafe", "description": "free wifi", "name": "CAMEO"}}, {"type": "node", "id": 1548502420, "lat": 42.1230332, "lon": 24.7316113, "tags": {"amenity": "restaurant", "name": "\u042e\u0436\u0435\u043d \u043f\u043e\u043b\u044a\u0445"}}, {"type": "node", "id": 1548502480, "lat": 42.1236171, "lon": 24.7320666, "tags": {"amenity": "restaurant", "cuisine": "chinese"}}, {"type": "node", "id": 1585432383, "lat": 42.1582712, "lon": 24.7376187, "tags": {"amenity": "restaurant", "name": "\u0410\u043b\u0438\u0430\u043d\u0441"}}, {"type": "node", "id": 1591221804, "lat": 42.144744, "lon": 24.7540647, "tags": {"amenity": "cafe", "name": "Jazz Cafe"}}, {"type": "node", "id": 1597980306, "lat": 42.1373691, "lon": 24.7482489, "tags": {"amenity": "restaurant", "cuisine": "regional", "name": "\u0421\u0442\u0430\u0440\u043e\u0442\u043e \u0412\u0440\u0435\u043c\u0435"}}, {"type": "node", "id": 1598005470, "lat": 42.1448721, "lon": 24.7499493, "tags": {"amenity": "restaurant", "brand": "Happy Bar & Grill", "brand:wikidata": "Q112056203", "contact:facebook": "https://www.facebook.com/HappyBarAndGrill/", "contact:instagram": "https://www.instagram.com/happybarandgrill", "contact:phone": "+359 700 20888", "contact:website": "https://happy.bg/", "cuisine": "international", "indoor_seating": "yes", "name": "Happy Bar & Grill", "name:en": "Happy Bar & Grill", "opening_hours": "Fr-Sa 10:00-23:00; Mo-Th,Su 10:00-22:30", "operator": "\"\u0425\u0415\u0421\u0422\u0418\u042f-77\" \u0415\u041e\u041e\u0414", "outdoor_seating": "yes"}}, {"type": "node", "id": 1598005535, "lat": 42.1456848, "lon": 24.7498385, "tags": {"amenity": "restaurant", "cuisine": "regional", "name": "\u0411\u0435\u043b\u0438\u044f \u043f\u0430\u044f\u043a"}}, {"type": "node", "id": 1600439891, "lat": 42.1582615, "lon": 24.7576185, "tags": {"amenity": "restaurant"}}, {"type": "node", "id": 1615820532, "lat": 42.1284135, "lon": 24.7813954, "tags": {"amenity": "cafe", "name": "Everyday"}}, {"type": "node", "id": 1615864289, "lat": 42.1307436, "lon": 24.7801135, "tags": {"amenity": "cafe", "name": "Chill Out"}}, {"type": "node", "id": 1615898777, "lat": 42.1286655, "lon": 24.7802331, "tags": {"amenity": "cafe"}}, {"type": "node", "id": 1619313038, "lat": 42.1394364, "lon": 24.7421201, "tags": {"amenity": "restaurant", "cuisine": "chinese", "name": "\u0420\u0435\u0441\u0442\u043e\u0440\u0430\u043d\u0442 \"\u0427\u0435\u0440\u0432\u0435\u043d\u0438\u044f \u0434\u0440\u0430\u043a\u043e\u043d\""}}, {"type": "node", "id": 1745484369, "lat": 42.1376299, "lon": 24.7403003}, {"type": "node", "id": 1745484445, "lat": 42.1377281, "lon": 24.7404465}, {"type": "node", "id": 1745484557, "lat": 42.1376976, "lon": 24.7402176}, {"type": "node", "id": 1745484733, "lat": 42.1377959, "lon": 24.7403637}, {"type": "node", "id": 1746420234, "lat": 42.1424288, "lon": 24.7645649, "tags": {"addr:city": "\u041f\u043b\u043e\u0432\u0434\u0438\u0432", "addr:housenumber": "4", "addr:street": "\u0417\u0435\u0444\u0438\u0440", "amenity": "restaurant", "cuisine": "regional", "internet_access": "yes", "internet_access:fee": "no", "name": "Riviera", "opening_hours": "Mo-Fr 08:30-23:00", "smoking": "yes", "wheelchair": "yes"}}, {"type": "node", "id": 1759619425, "lat": 42.1461144, "lon": 24.7146059, "tags": {"amenity": "restaurant", "name": "\u0413\u0440\u0435\u0431\u0435\u0446\u0430", "name:en": "Grebetsa"}}, {"type": "node", "id": 1795500188, "lat": 42.124365, "lon": 24.739154, "tags": {"amenity": "cafe", "name": "HOT"}}, {"type": "node", "id": 1798420540, "lat": 42.1441386, "lon": 24.7539503, "tags": {"amenity": "cafe", "level": "2", "name": "Amadeus", "wheelchair": "limited"}}, {"type": "node", "id": 1798420594, "lat": 42.1252013, "lon": 24.7391262}, {"type": "node", "id": 1798420599, "lat": 42.1252341, "lon": 24.7390179}, {"type": "node", "id": 1798420621, "lat": 42.1253534, "lon": 24.7392099}, {"type": "node", "id": 1798420623, "lat": 42.1253861, "lon": 24.7391015}, {"type": "node", "id": 1798420709, "lat": 42.127499, "lon": 24.7405092, "tags": {"amenity": "cafe"}}, {"type": "node", "id": 1798420729, "lat": 42.1300042, "lon": 24.7436649}, {"type": "node", "id": 1798420730, "lat": 42.1300221, "lon": 24.7436344}, {"type": "node", "id": 1798420731, "lat": 42.130045, "lon": 24.7437086}, {"type": "node", "id": 1798420732, "lat": 42.130063, "lon": 24.7436781}, {"type": "node", "id": 1798420736, "lat": 42.1306086, "lon": 24.7440086, "tags": {"amenity": "cafe", "name": "Extreme club", "outdoor_seating": "yes", "smoking": "dedicated"}}, {"type": "node", "id": 1798420750, "lat": 42.1395421, "lon": 24.7477626, "tags": {"amenity": "cafe"}}, {"type": "node", "id": 1798420753, "lat": 42.1402283, "lon": 24.7478405, "tags": {"amenity": "cafe"}}, {"type": "node", "id": 1798420760, "lat": 42.1299897, "lon": 24.7426721, "tags": {"amenity": "cafe", "name": "\u0411\u044f\u043b\u043e \u043c\u043e\u0440\u0435"}}, {"type": "node", "id": 1799277000, "lat": 41.994867, "lon": 24.8703713, "tags": {"amenity": "restaurant", "cuisine": "balkan", "name": "\u0421\u0430\u043b\u0430\u0448\u0430"}}, {"type": "node", "id": 1853112387, "lat": 42.1631647, "lon": 24.7170219, "tags": {"amenity": "cafe", "cuisine": "sandwich"}}, {"type": "node", "id": 1873169763, "lat": 42.0044794, "lon": 24.6989767, "tags": {"amenity": "restaurant", "name": "\u0421\u043f\u043e\u0440\u0442\u043d\u0430 \u0441\u0440\u0435\u0449\u0430"}}, {"type": "node", "id": 1873265586, "lat": 42.0032566, "lon": 24.7007648, "tags": {"amenity": "restaurant", "name": "\u0411\u0430\u043b\u043a\u0430\u043d", "tourism": "hotel"}}, {"type": "node", "id": 1881119189, "lat": 42.0764915, "lon": 24.6657534}, {"type": "node", "id": 1881119192, "lat": 42.0762343, "lon": 24.6653901}, {"type": "node", "id": 1881119193, "lat": 42.0759132, "lon": 24.665587}, {"type": "node", "id": 1881119194, "lat": 42.0761108, "lon": 24.6662359}, {"type": "node", "id": 1889980034, "lat": 42.1989772, "lon": 24.6375579}, {"type": "node", "id": 1889980036, "lat": 42.1988617, "lon": 24.6378302}, {"type": "node", "id": 1889980039, "lat": 42.1989793, "lon": 24.6376748}, {"type": "node", "id": 1889980041, "lat": 42.198859, "lon": 24.6376787}, {"type": "node", "id": 1889980042, "lat": 42.1987788, "lon": 24.6378329}, {"type": "node", "id": 1889980043, "lat": 42.1988545, "lon": 24.6374321}, {"type": "node", "id": 1889980044, "lat": 42.1988568, "lon": 24.6375618}, {"type": "node", "id": 1889980045, "lat": 42.1987717, "lon": 24.6374348}, {"type": "node", "id": 1899063404, "lat": 42.1356908, "lon": 24.7546217, "tags": {"addr:housename": "\u0420\u0438\u043b\u043e\u043d \u0426\u0435\u043d\u0442\u044a\u0440", "addr:housenumber": "2", "addr:postcode": "4000", "addr:street": "\u0431\u0443\u043b. \u041a\u043e\u043d\u0441\u0442\u0430\u043d\u0442\u0438\u043d \u0412\u0435\u043b\u0438\u0447\u043a\u043e\u0432", "amenity": "restaurant", "cuisine": "pizza", "int_name": "Pizza \"The golden pear\"", "name": "\u041f\u0438\u0446\u0430\u0440\u0438\u044f \"\u0417\u043b\u0430\u0442\u043d\u0430\u0442\u0430 \u041a\u0440\u0443\u0448\u0430\""}}, {"type": "node", "id": 1908300050, "lat": 42.1511161, "lon": 24.7467143, "tags": {"amenity": "cafe", "name": "Chocolate"}}, {"type": "node", "id": 1933969756, "lat": 42.2871187, "lon": 24.63425}, {"type": "node", "id": 1933969759, "lat": 42.287327, "lon": 24.6344331}, {"type": "node", "id": 1933969760, "lat": 42.287308, "lon": 24.6342193}, {"type": "node", "id": 1933969765, "lat": 42.2871381, "lon": 24.6344682}, {"type": "node", "id": 1936371506, "lat": 42.12894, "lon": 24.7814576, "tags": {"amenity": "restaurant", "cuisine": "barbecue", "name": "\u0411\u0430\u0440\u0431\u0435\u043a\u044e\u0442\u043e"}}, {"type": "node", "id": 1950469062, "lat": 42.0766736, "lon": 24.595648, "tags": {"amenity": "restaurant", "name": "\u041a\u0430\u043c\u0438\u043d\u0430\u0442\u0430"}}, {"type": "node", "id": 1984302168, "lat": 42.1182814, "lon": 24.7359749}, {"type": "node", "id": 1984302175, "lat": 42.1186271, "lon": 24.7362156}, {"type": "node", "id": 1984302185, "lat": 42.1184919, "lon": 24.7354401}, {"type": "node", "id": 1984302208, "lat": 42.1189352, "lon": 24.7358106}, {"type": "node", "id": 1984302213, "lat": 42.1188628, "lon": 24.7355955}, {"type": "node", "id": 2027921519, "lat": 42.1564324, "lon": 24.7474788, "tags": {"addr:housenumber": "22", "addr:street": "\u0418\u0431\u044a\u0440", "amenity": "cafe", "name": "\u0418\u0442\u0430\u043b\u0438\u044f"}}, {"type": "node", "id": 2031631246, "lat": 42.1595065, "lon": 24.744392, "tags": {"amenity": "cafe", "internet_access": "wlan", "name": "\u041c\u0430\u0442\u0438\u043d\u0435 +", "name:sr": "\u041c\u0430\u0442\u0438\u043d\u0435 \u043f\u043b\u0443\u0441", "name:sr-Latn": "Matine plus"}}, {"type": "node", "id": 2031664802, "lat": 42.1616561, "lon": 24.7424431, "tags": {"addr:street": "\u0411\u0440\u0430\u0442\u044f \u0422\u044a\u0440\u043d\u0435\u0432\u0438", "amenity": "restaurant", "name": "\u0427\u0438\u043b\u0438", "takeaway": "yes"}}, {"type": "node", "id": 2031665884, "lat": 42.1620717, "lon": 24.7378323, "tags": {"amenity": "restaurant", "name": "\u0414\u0436\u043e\u0430\u043d\u0430"}}, {"type": "node", "id": 2031666038, "lat": 42.1628984, "lon": 24.7423552, "tags": {"addr:housenumber": "29", "addr:street": "\u0431\u0443\u043b. \u0414\u0443\u043d\u0430\u0432", "amenity": "restaurant", "name": "Porky's BBQ", "name:bg": "Porky's BBQ", "name:en": "Porky's BBQ"}}, {"type": "node", "id": 2111049079, "lat": 42.1284147, "lon": 24.7339871, "tags": {"amenity": "cafe", "name": "Ti Amo"}}, {"type": "node", "id": 2111049177, "lat": 42.1246215, "lon": 24.7288005, "tags": {"amenity": "restaurant", "name": "\u041f\u0440\u0438\u044f\u0442\u0435\u043b\u0438"}}, {"type": "node", "id": 2149458255, "lat": 42.1462666, "lon": 24.7398835}, {"type": "node", "id": 2149458256, "lat": 42.1462629, "lon": 24.7397442}, {"type": "node", "id": 2149458261, "lat": 42.1465419, "lon": 24.7398705}, {"type": "node", "id": 2149458262, "lat": 42.1465383, "lon": 24.7397312}, {"type": "node", "id": 2152915775, "lat": 42.1442875, "lon": 24.747479}, {"type": "node", "id": 2152915776, "lat": 42.1442935, "lon": 24.7467842}, {"type": "node", "id": 2152915777, "lat": 42.1443655, "lon": 24.7464726}, {"type": "node", "id": 2152915780, "lat": 42.1444839, "lon": 24.7474805}, {"type": "node", "id": 2152915781, "lat": 42.144498, "lon": 24.7464798}, {"type": "node", "id": 2152915804, "lat": 42.146568, "lon": 24.7544259}, {"type": "node", "id": 2152915805, "lat": 42.1465739, "lon": 24.7543557}, {"type": "node", "id": 2152915806, "lat": 42.1465879, "lon": 24.7543639}, {"type": "node", "id": 2152915807, "lat": 42.1465981, "lon": 24.7542802}, {"type": "node", "id": 2152915811, "lat": 42.1466238, "lon": 24.7544584}, {"type": "node", "id": 2152915814, "lat": 42.1466679, "lon": 24.7543208}, {"type": "node", "id": 2152915844, "lat": 42.1478035, "lon": 24.7531715}, {"type": "node", "id": 2152915845, "lat": 42.1478318, "lon": 24.7530119}, {"type": "node", "id": 2152915847, "lat": 42.1478718, "lon": 24.7532322}, {"type": "node", "id": 2152915849, "lat": 42.1479102, "lon": 24.753149}, {"type": "node", "id": 2152915850, "lat": 42.1479268, "lon": 24.7530321}, {"type": "node", "id": 2152915852, "lat": 42.1479642, "lon": 24.7526694}, {"type": "node", "id": 2152915854, "lat": 42.1480067, "lon": 24.7532967}, {"type": "node", "id": 2152915855, "lat": 42.1480367, "lon": 24.7531398}, {"type": "node", "id": 2152915858, "lat": 42.148155, "lon": 24.7537101}, {"type": "node", "id": 2152915859, "lat": 42.1482025, "lon": 24.7538414}, {"type": "node", "id": 2152915861, "lat": 42.148243, "lon": 24.7536522}, {"type": "node", "id": 2152915863, "lat": 42.1482905, "lon": 24.7537835}, {"type": "node", "id": 2152915864, "lat": 42.1482977, "lon": 24.7527562}, {"type": "node", "id": 2152915865, "lat": 42.1482977, "lon": 24.7528897}, {"type": "node", "id": 2152915870, "lat": 42.1483484, "lon": 24.7527578}, {"type": "node", "id": 2152915871, "lat": 42.1483484, "lon": 24.7527769}, {"type": "node", "id": 2152915883, "lat": 42.1484709, "lon": 24.7526593}, {"type": "node", "id": 2152915884, "lat": 42.1484721, "lon": 24.7527674}, {"type": "node", "id": 2152915887, "lat": 42.148531, "lon": 24.7525798}, {"type": "node", "id": 2152915889, "lat": 42.1485334, "lon": 24.7528802}, {"type": "node", "id": 2152915890, "lat": 42.1485357, "lon": 24.7529756}, {"type": "node", "id": 2152915893, "lat": 42.1485428, "lon": 24.7527133}, {"type": "node", "id": 2152915895, "lat": 42.1485452, "lon": 24.7527674}, {"type": "node", "id": 2152915898, "lat": 42.1485899, "lon": 24.7526529}, {"type": "node", "id": 2152915905, "lat": 42.1486689, "lon": 24.7527578}, {"type": "node", "id": 2152915906, "lat": 42.1486713, "lon": 24.7529676}, {"type": "node", "id": 2152916079, "lat": 42.1507714, "lon": 24.7506698}, {"type": "node", "id": 2152916089, "lat": 42.1508754, "lon": 24.7507965}, {"type": "node", "id": 2152916091, "lat": 42.150838, "lon": 24.7529154}, {"type": "node", "id": 2152916092, "lat": 42.150852, "lon": 24.7505498}, {"type": "node", "id": 2152916095, "lat": 42.150923, "lon": 24.7507532}, {"type": "node", "id": 2152916100, "lat": 42.1509784, "lon": 24.7528912}, {"type": "node", "id": 2154781755, "lat": 41.9988745, "lon": 24.7223713, "tags": {"amenity": "cafe"}}, {"type": "node", "id": 2245184916, "lat": 42.1345731, "lon": 24.7662391, "tags": {"amenity": "cafe", "internet_access": "yes", "name": "66"}}, {"type": "node", "id": 2316853806, "lat": 42.1506374, "lon": 24.7618586, "tags": {"amenity": "restaurant", "name": "\u0412\u0435\u0441\u0435\u043b\u0438\u043d\u0430"}}, {"type": "node", "id": 2385136287, "lat": 42.1373935, "lon": 24.7563464, "tags": {"amenity": "restaurant"}}, {"type": "node", "id": 2385136288, "lat": 42.137431, "lon": 24.756671, "tags": {"amenity": "cafe"}}, {"type": "node", "id": 2397436926, "lat": 42.1502755, "lon": 24.7468333, "tags": {"amenity": "cafe", "indoor_seating": "yes", "name": "caffe moda", "outdoor_seating": "pedestrian_zone"}}, {"type": "node", "id": 2428455278, "lat": 42.1281936, "lon": 24.7483515, "tags": {"amenity": "restaurant", "cuisine": "chinese"}}, {"type": "node", "id": 2460991947, "lat": 42.1437544, "lon": 24.7508085, "tags": {"addr:housenumber": "38", "addr:street": "\u041e\u0442\u0435\u0446 \u041f\u0430\u0438\u0441\u0438\u0439", "amenity": "cafe", "internet_access": "yes", "name": "Art News Cafe", "phone": "+359 32 623 895", "website": "https://artnewscafe.com/", "wheelchair": "limited"}}, {"type": "node", "id": 2470528228, "lat": 42.1352128, "lon": 24.7653522}, {"type": "node", "id": 2470528229, "lat": 42.1352639, "lon": 24.7653213}, {"type": "node", "id": 2470528230, "lat": 42.1352418, "lon": 24.7652549}, {"type": "node", "id": 2470528231, "lat": 42.1351907, "lon": 24.7652859}, {"type": "node", "id": 2471517243, "lat": 41.9601678, "lon": 24.8612007, "tags": {"addr:city": "\u0411\u0430\u0447\u043a\u043e\u0432\u043e", "addr:housenumber": "92", "addr:street": "86", "amenity": "restaurant", "cuisine": "regional", "diet:meat": "yes", "name": "\u0420\u0435\u0441\u0442\u043e\u0440\u0430\u043d\u0442 \"\u0422\u0443\u043d\u0435\u043b\u0430 2\"", "name:en": "Restaurant Tunnel 2", "opening_hours": "Mo-Su 10:30-20:00", "phone": "+359 87 992 6222"}}, {"type": "node", "id": 2572104634, "lat": 42.2161392, "lon": 24.7826223}, {"type": "node", "id": 2572104635, "lat": 42.2161917, "lon": 24.7824666}, {"type": "node", "id": 2572104637, "lat": 42.2163137, "lon": 24.7827241}, {"type": "node", "id": 2572104639, "lat": 42.2163685, "lon": 24.7825684}, {"type": "node", "id": 2673079849, "lat": 42.0661849, "lon": 24.6561943, "tags": {"amenity": "restaurant", "name": "\u042f\u0432\u043e\u0440"}}, {"type": "node", "id": 2700934076, "lat": 42.1977293, "lon": 24.6337988, "tags": {"amenity": "restaurant", "brand": "Happy Bar & Grill", "brand:wikidata": "Q112056203", "contact:facebook": "https://www.facebook.com/HappyBarAndGrill/", "contact:instagram": "https://www.instagram.com/happybarandgrill", "contact:phone": "+359 700 20888", "contact:website": "https://happy.bg/", "cuisine": "international", "internet_access": "yes", "internet_access:fee": "no", "name": "Happy Bar & Grill", "name:en": "Happy Bar & Grill", "opening_hours": "Mo-Su 08:00-22:45", "operator": "\"\u0411\u0410\u0420\" \u0415\u041e\u041e\u0414", "wheelchair": "yes"}}, {"type": "node", "id": 2788331700, "lat": 42.1631988, "lon": 24.7530928, "tags": {"amenity": "cafe"}}, {"type": "node", "id": 2844563871, "lat": 41.9924932, "lon": 24.8739339, "tags": {"amenity": "restaurant", "cuisine": "balkan"}}, {"type": "node", "id": 2858905970, "lat": 41.8521154, "lon": 24.9568027, "tags": {"amenity": "restaurant", "capacity": "80", "cuisine": "regional", "name": "\u0421\u0442\u0430\u0440\u0438\u0442\u0435 \u041a\u044a\u0449\u0438", "opening_hours": "Mo-Su 08:00-23:00"}}, {"type": "node", "id": 2868868749, "lat": 41.969826, "lon": 24.8648629, "tags": {"amenity": "restaurant", "name": "\u0422\u0443\u043d\u0435\u043b\u0430"}}, {"type": "node", "id": 2987929703, "lat": 42.1284874, "lon": 24.70362, "tags": {"amenity": "cafe", "cuisine": "coffee_shop", "name": "Cofein"}}, {"type": "node", "id": 2995827677, "lat": 42.1308732, "lon": 24.7095739, "tags": {"amenity": "cafe"}}, {"type": "node", "id": 2995882466, "lat": 42.1340479, "lon": 24.7095101, "tags": {"addr:housenumber": "82", "addr:postcode": "4001", "addr:street": "\u0431\u0443\u043b. \u041f\u0435\u0449\u0435\u0440\u0441\u043a\u043e \u0448\u043e\u0441\u0435", "amenity": "restaurant", "name": "\u041a\u0430\u0444\u0435-\u0420\u0435\u0441\u0442\u043e\u0440\u0430\u043d\u0442 \"Finno\""}}, {"type": "node", "id": 3005693087, "lat": 42.1328677, "lon": 24.7126471, "tags": {"amenity": "cafe"}}, {"type": "node", "id": 3089130922, "lat": 42.1417707, "lon": 24.7893209}, {"type": "node", "id": 3089130923, "lat": 42.1415128, "lon": 24.7897286}, {"type": "node", "id": 3089130924, "lat": 42.1416395, "lon": 24.7898743}, {"type": "node", "id": 3089130925, "lat": 42.1418741, "lon": 24.7894398}, {"type": "node", "id": 3174618400, "lat": 42.1481657, "lon": 24.7531246}, {"type": "node", "id": 3174618401, "lat": 42.1481896, "lon": 24.753181}, {"type": "node", "id": 3174618402, "lat": 42.1482164, "lon": 24.7529677}, {"type": "node", "id": 3174618403, "lat": 42.1482358, "lon": 24.7527222}, {"type": "node", "id": 3174618404, "lat": 42.148291, "lon": 24.7529798}, {"type": "node", "id": 3174618405, "lat": 42.1482925, "lon": 24.753179}, {"type": "node", "id": 3224477178, "lat": 42.1262868, "lon": 24.7497424}, {"type": "node", "id": 3224477179, "lat": 42.1262971, "lon": 24.749555}, {"type": "node", "id": 3224477180, "lat": 42.1264071, "lon": 24.7497544}, {"type": "node", "id": 3224477181, "lat": 42.1264174, "lon": 24.749567}, {"type": "node", "id": 3236188698, "lat": 42.1262882, "lon": 24.7509403, "tags": {"amenity": "cafe"}}, {"type": "node", "id": 3266714861, "lat": 42.2347415, "lon": 24.6150842}, {"type": "node", "id": 3266714862, "lat": 42.2345833, "lon": 24.6150696}, {"type": "node", "id": 3266714863, "lat": 42.2345782, "lon": 24.6151698}, {"type": "node", "id": 3266714864, "lat": 42.2347364, "lon": 24.6151844}, {"type": "node", "id": 3289737982, "lat": 42.1474779, "lon": 24.74835, "tags": {"amenity": "restaurant", "cuisine": "regional", "name": "\u0410\u0440\u0435\u043d\u0430", "name:en": "Arena"}}, {"type": "node", "id": 3289737991, "lat": 42.1475252, "lon": 24.7474684}, {"type": "node", "id": 3289737992, "lat": 42.1475659, "lon": 24.7472867}, {"type": "node", "id": 3289737993, "lat": 42.1476242, "lon": 24.7475087}, {"type": "node", "id": 3289737994, "lat": 42.1476649, "lon": 24.7473271}, {"type": "node", "id": 3313996422, "lat": 42.1403658, "lon": 24.737257, "tags": {"amenity": "restaurant", "name": "Solo Qui"}}, {"type": "node", "id": 3313996438, "lat": 42.1415702, "lon": 24.7319626, "tags": {"amenity": "restaurant", "name": "\u041d\u043e\u043b\u0438\u0442\u0430"}}, {"type": "node", "id": 3313996439, "lat": 42.147116, "lon": 24.765934, "tags": {"amenity": "restaurant", "name": "\u041f\u0440\u0438 \u0427\u0438\u0447\u043e"}}, {"type": "node", "id": 3313996441, "lat": 42.141572, "lon": 24.7359894, "tags": {"addr:housenumber": "20", "addr:street": "\u042f\u043d\u0435 \u0421\u0430\u043d\u0434\u0430\u043d\u0441\u043a\u0438", "amenity": "restaurant", "name": "\u0422\u0435\u0440\u0430\u0441\u0430\u0442\u0430"}}, {"type": "node", "id": 3335630418, "lat": 42.1396276, "lon": 24.755965, "tags": {"addr:postcode": "4000", "amenity": "cafe", "internet_access": "wlan", "name": "Zona"}}, {"type": "node", "id": 3335648205, "lat": 42.1385416, "lon": 24.7463447, "tags": {"amenity": "cafe", "cuisine": "burger", "internet_access": "no", "name": "\u041a\u0430\u0440\u0430\u0432\u0430\u043d\u0430", "opening_hours": "08:00-20:00", "smoking": "isolated"}}, {"type": "node", "id": 3343356845, "lat": 42.1486182, "lon": 24.7920565, "tags": {"amenity": "restaurant", "name": "\u0410\u043d\u0438\u043b\u0438\u0442\u0438", "opening_hours": "Mo-Su 8:00-0:00", "phone": "+359 89 850 5393"}}, {"type": "node", "id": 3408560191, "lat": 42.1309154, "lon": 24.7926633}, {"type": "node", "id": 3408560192, "lat": 42.1306957, "lon": 24.7928483}, {"type": "node", "id": 3408560693, "lat": 42.1305676, "lon": 24.7925695}, {"type": "node", "id": 3408560694, "lat": 42.1307878, "lon": 24.7923914}, {"type": "node", "id": 3454773325, "lat": 42.1417052, "lon": 24.7897068}, {"type": "node", "id": 3454773326, "lat": 42.1417285, "lon": 24.7897336}, {"type": "node", "id": 3487011139, "lat": 42.1478133, "lon": 24.7703794, "tags": {"amenity": "restaurant", "cuisine": "regional", "name": "\u0411\u0443\u0435\u043d\u043e"}}, {"type": "node", "id": 3618315402, "lat": 42.1335975, "lon": 24.749296}, {"type": "node", "id": 3618315403, "lat": 42.1333654, "lon": 24.7493646}, {"type": "node", "id": 3618315404, "lat": 42.133405, "lon": 24.7496081}, {"type": "node", "id": 3618315405, "lat": 42.1336371, "lon": 24.7495395}, {"type": "node", "id": 3672323331, "lat": 42.1439283, "lon": 24.7496562, "tags": {"addr:housenumber": "13", "addr:street": "\u0433\u0435\u043d. \u0413\u0443\u0440\u043a\u043e", "amenity": "cafe", "brand": "Costa", "brand:wikidata": "Q608845", "check_date": "2023-05-21", "cuisine": "coffee_shop", "internet_access": "yes", "name": "Costa", "name:bg": "\u041a\u043e\u0441\u0442\u0430", "opening_hours": "08:00-20:00", "operator": "\u041a\u043e\u0444\u0438 \u041b\u0430\u0439\u0444 \u0415\u041e\u041e\u0414", "payment:credit_cards": "yes", "payment:debit_cards": "yes", "takeaway": "yes", "wheelchair": "limited"}}, {"type": "node", "id": 3716119436, "lat": 41.9747223, "lon": 24.8664068, "tags": {"amenity": "restaurant", "cuisine": "balkan"}}, {"type": "node", "id": 3736234298, "lat": 42.2162127, "lon": 25.0623073, "tags": {"amenity": "cafe", "cuisine": "ice_cream", "opening_hours": "24/7", "stars": "1", "toilets": "yes", "toilets:access": "yes"}}, {"type": "node", "id": 3736234301, "lat": 42.2154918, "lon": 25.0605442, "tags": {"amenity": "cafe", "opening_hours": "24/7"}}, {"type": "node", "id": 3780630714, "lat": 42.1254491, "lon": 24.7568612}, {"type": "node", "id": 3780630715, "lat": 42.1254845, "lon": 24.7571958}, {"type": "node", "id": 3780630719, "lat": 42.1256091, "lon": 24.7568304}, {"type": "node", "id": 3780630722, "lat": 42.1256446, "lon": 24.757165}, {"type": "node", "id": 3781864284, "lat": 42.1473658, "lon": 24.7500892}, {"type": "node", "id": 3781864286, "lat": 42.1474391, "lon": 24.7503248}, {"type": "node", "id": 3781864287, "lat": 42.1474594, "lon": 24.7500362}, {"type": "node", "id": 3781864289, "lat": 42.1475328, "lon": 24.7502718}, {"type": "node", "id": 3808292350, "lat": 42.1400387, "lon": 24.7292365, "tags": {"amenity": "restaurant", "cuisine": "italian", "name": "Osteria \"Rosmarino\""}}, {"type": "node", "id": 3808366101, "lat": 42.1566814, "lon": 24.7441747, "tags": {"amenity": "restaurant", "brand": "Happy Bar & Grill", "brand:wikidata": "Q112056203", "contact:facebook": "https://www.facebook.com/HappyBarAndGrill/", "contact:instagram": "https://www.instagram.com/happybarandgrill", "contact:phone": "+359 700 20888", "contact:website": "https://happy.bg/", "cuisine": "international", "name": "Happy Bar & Grill", "name:en": "Happy Bar & Grill", "opening_hours": "Mo-Su 11:00-23:00", "operator": "\"\u0425\u0415\u0421\u0422\u0418\u042f-77\" \u0415\u041e\u041e\u0414"}}, {"type": "node", "id": 3808366102, "lat": 42.1556481, "lon": 24.7498074, "tags": {"amenity": "restaurant", "cuisine": "fish_and_chips;balkan", "name": "\u041c\u0430\u043b\u043a\u0430\u0442\u0430 \u041c\u0430\u0440\u0438\u0446\u0430"}}, {"type": "node", "id": 3808366105, "lat": 42.1564568, "lon": 24.7449495, "tags": {"amenity": "cafe"}}, {"type": "node", "id": 3808366108, "lat": 42.1565618, "lon": 24.7457903, "tags": {"amenity": "cafe"}}, {"type": "node", "id": 3808366110, "lat": 42.1546652, "lon": 24.7383299, "tags": {"amenity": "restaurant", "cuisine": "chinese", "name": "\u0413\u0435\u0440\u0434\u0436\u0438\u043a\u0430"}}, {"type": "node", "id": 3812290035, "lat": 41.9489469, "lon": 24.9572648, "tags": {"amenity": "restaurant", "name": "History"}}, {"type": "node", "id": 3812759747, "lat": 42.2806958, "lon": 24.7326398, "tags": {"amenity": "restaurant", "name": "\u0410\u0432\u0438\u0430\u043d\u043e"}}, {"type": "node", "id": 3815129355, "lat": 42.1403872, "lon": 24.7334898, "tags": {"amenity": "restaurant"}}, {"type": "node", "id": 3815147112, "lat": 42.1414452, "lon": 24.7341095, "tags": {"amenity": "cafe"}}, {"type": "node", "id": 3816609199, "lat": 42.1438972, "lon": 24.7542069, "tags": {"amenity": "restaurant", "name": "Sempra Lucia"}}, {"type": "node", "id": 3816615459, "lat": 42.1433124, "lon": 24.766561, "tags": {"amenity": "cafe"}}, {"type": "node", "id": 3816615464, "lat": 42.1445145, "lon": 24.766369, "tags": {"amenity": "cafe"}}, {"type": "node", "id": 3816615479, "lat": 42.145785, "lon": 24.7592046, "tags": {"amenity": "cafe", "name": "\u0417\u043e\u043d\u0430 51"}}, {"type": "node", "id": 3816615537, "lat": 42.1446271, "lon": 24.7647767, "tags": {"amenity": "cafe", "name": "\u0411\u043e\u0435\u043c\u0430"}}, {"type": "node", "id": 3816615539, "lat": 42.1402065, "lon": 24.7561986, "tags": {"amenity": "restaurant", "cuisine": "pizza", "name": "\u0412\u0435\u0440\u0434\u0438"}}, {"type": "node", "id": 3816615540, "lat": 42.1444581, "lon": 24.7667807, "tags": {"amenity": "cafe", "name": "\u0412\u0435\u0440\u0435\u044f"}}, {"type": "node", "id": 3816615544, "lat": 42.1424291, "lon": 24.7641519, "tags": {"amenity": "restaurant", "name": "\u0415\u043b\u0438\u0442 \u041a\u043b\u0443\u0431"}}, {"type": "node", "id": 3816770559, "lat": 42.1493911, "lon": 24.761838, "tags": {"amenity": "cafe"}}, {"type": "node", "id": 3816770621, "lat": 42.1525715, "lon": 24.7589402, "tags": {"amenity": "restaurant", "name": "\u0410\u043d\u0442\u0438\u043a"}}, {"type": "node", "id": 3816912358, "lat": 42.1415941, "lon": 24.7343221, "tags": {"amenity": "cafe", "name": "Free Bar"}}, {"type": "node", "id": 3816912415, "lat": 42.1400584, "lon": 24.7299375, "tags": {"amenity": "cafe", "name": "\u041f\u043e\u0434 \u0442\u0435\u043f\u0435\u0442\u043e"}}, {"type": "node", "id": 3817108199, "lat": 42.1401449, "lon": 24.7450155, "tags": {"amenity": "cafe", "indoor_seating": "yes", "name": "\u041c\u043e\u0440\u0430\u0434\u043e", "outdoor_seating": "yes"}}, {"type": "node", "id": 3817108203, "lat": 42.1380058, "lon": 24.7469352, "tags": {"addr:housenumber": "38", "addr:street": "\u0410\u0432\u043a\u0441\u0435\u043d\u0442\u0438\u0439 \u0412\u0435\u043b\u0435\u0448\u043a\u0438", "amenity": "restaurant", "cuisine": "regional", "internet_access": "no", "internet_access:fee": "no", "name": "\u0427\u0438\u043b\u0438", "opening_hours": "Mo-Sa 08:30-20:00", "operator": "\u0427\u0438\u043b\u0438", "phone": "+359 87 887 8724", "smoking": "no", "website": "https://chili.bg/", "wheelchair": "no"}}, {"type": "node", "id": 3820290274, "lat": 42.150463, "lon": 24.7615257, "tags": {"amenity": "restaurant"}}, {"type": "node", "id": 3820379307, "lat": 42.1481101, "lon": 24.7482894, "tags": {"amenity": "cafe", "cuisine": "turkish", "name": "\u0414\u0436\u0443\u043c\u0430\u044f", "outdoor_seating": "yes"}}, {"type": "node", "id": 3821331337, "lat": 42.142242, "lon": 24.75778, "tags": {"amenity": "cafe"}}, {"type": "node", "id": 3824691965, "lat": 41.8748556, "lon": 24.6917454, "tags": {"amenity": "restaurant", "name": "\u0421\u0432. \u0415\u043b\u0435\u043d\u0430"}}, {"type": "node", "id": 3829334661, "lat": 42.1479901, "lon": 24.7549745, "tags": {"amenity": "restaurant", "cuisine": "pizza", "name": "Pizza Originale"}}, {"type": "node", "id": 3829334667, "lat": 42.1456156, "lon": 24.7545473, "tags": {"amenity": "cafe"}}, {"type": "node", "id": 3829334699, "lat": 42.149413, "lon": 24.7559404, "tags": {"amenity": "cafe"}}, {"type": "node", "id": 3829334711, "lat": 42.150074, "lon": 24.7551753, "tags": {"addr:city": "Plovdiv", "addr:housenumber": "7", "addr:street": "Tsar Ivan Shishman", "amenity": "restaurant", "cuisine": "italian;pizza", "currency:XBT": "yes", "name": "Partenope in tavola", "payment:lightning": "yes", "payment:onchain": "yes", "phone": "+359894413852"}}, {"type": "node", "id": 3832668768, "lat": 42.1454874, "lon": 24.8804339, "tags": {"amenity": "restaurant"}}, {"type": "node", "id": 3841520896, "lat": 42.1448128, "lon": 24.7502588, "tags": {"addr:city": "\u041f\u043b\u043e\u0432\u0434\u0438\u0432", "addr:country": "BG", "addr:housenumber": "26", "addr:postcode": "4000", "addr:street": "\u041e\u0442\u0435\u0446 \u041f\u0430\u0438\u0441\u0438\u0439", "amenity": "restaurant", "check_date": "2023-05-20", "contact:facebook": "https://www.facebook.com/gustoplovdiv/", "contact:phone": "+359 88 842 9738", "contact:website": "http://www.gustobg.com/", "cuisine": "mediterranean", "description": "\u0418\u0437\u0446\u044f\u043b\u043e \u043e\u0431\u043d\u043e\u0432\u0435\u043d, \u0440\u0435\u0441\u0442\u043e\u0440\u0430\u043d\u0442 \u0438 \u043f\u0438\u0446\u0430\u0440\u0438\u044f \"\u0413\u0443\u0441\u0442\u043e\" \u0435 \u0437\u0430\u0432\u0435\u0434\u0435\u043d\u0438\u0435 \u0441 15 \u0433\u043e\u0434\u0438\u0448\u043d\u0430 \u0442\u0440\u0430\u0434\u0438\u0446\u0438\u044f. \u0418\u043c\u0430 \u0438 \u0441\u0442\u0438\u043b\u043d\u0430 \u043f\u043e\u0434\u0437\u0435\u043c\u043d\u0430 \u0437\u0430\u043b\u0430, \u0441\u0442\u0435\u043d\u043e\u043f\u0438\u0441\u0430\u043d\u0430 \u043e\u0442 \u0438\u0437\u0432\u0435\u0441\u0442\u043d\u0438\u044f \u0431\u044a\u043b\u0433\u0430\u0440\u0441\u043a\u0438 \u0445\u0443\u0434\u043e\u0436\u043d\u0438\u043a \u0421\u0432\u0438\u043b\u0435\u043d \u0411\u043b\u0430\u0436\u0435\u0432, \u043f\u043e\u0434\u0445\u043e\u0434\u044f\u0449\u0430 \u0437\u0430 \u0447\u0430\u0441\u0442\u043d\u0438 \u043f\u0430\u0440\u0442\u0438\u0442\u0430 \u0434\u043e 45 \u0447\u043e\u0432\u0435\u043a\u0430. \u0417\u0430 \u0442\u043e\u043f\u043b\u0438\u0442\u0435 \u043c\u0435\u0441\u0435\u0446\u0438 \u0435 \u043f\u0440\u0435\u0434\u0432\u0438\u0434\u0435\u043d\u0430 \u0433\u0440\u0430\u0434\u0438\u043d\u0430.", "int_name": "Gusto", "internet_access": "wlan", "internet_access:fee": "customers", "name": "\u0413\u0443\u0441\u0442\u043e", "name:en": "Gusto", "opening_hours": "Mo-Su 11:00-24:00", "operator": "\u041f\u0435\u0440\u0444\u0435\u043a\u0442 - 2000 \u0415\u041e\u041e\u0414", "payment:credit_cards": "yes", "payment:debit_cards": "yes", "reservation": "recommended", "wheelchair": "yes"}}, {"type": "node", "id": 3841521059, "lat": 42.1432461, "lon": 24.7484777, "tags": {"amenity": "cafe"}}, {"type": "node", "id": 3841521061, "lat": 42.1433604, "lon": 24.7481643, "tags": {"amenity": "cafe"}}, {"type": "node", "id": 3841521079, "lat": 42.1422985, "lon": 24.7420313, "tags": {"amenity": "restaurant", "name": "\u0412\u0435\u0440\u043e\u043d\u0430\u0442\u0430"}}, {"type": "node", "id": 3841521088, "lat": 42.143972, "lon": 24.7502724, "tags": {"amenity": "restaurant", "cuisine": "regional", "name": "\u041e\u043f\u0435\u0440\u0430"}}, {"type": "node", "id": 3841521089, "lat": 42.1423949, "lon": 24.7428696, "tags": {"addr:street": "\u0413\u043b\u0430\u0434\u0441\u0442\u043e\u043d", "amenity": "restaurant", "cuisine": "chinese", "delivery": "yes", "name": "\u0420\u0435\u0441\u0442\u043e\u0440\u0430\u043d\u0442 \u201e\u0410\u0437\u0438\u044f\u201c", "smoking": "no", "takeaway": "yes"}}, {"type": "node", "id": 3841521103, "lat": 42.1428911, "lon": 24.7453597, "tags": {"amenity": "restaurant", "cuisine": "soup", "name": "\u0421\u0443\u043f\u0430 \u0411\u0430\u0440", "opening_hours": "Mo-Su 09:00-23:00", "phone": "+359 87 729 0030", "website": "https://supabar.com/"}}, {"type": "node", "id": 3842147861, "lat": 42.1424103, "lon": 24.7425627, "tags": {"amenity": "cafe", "name": "Be Fresh!"}}, {"type": "node", "id": 3842147870, "lat": 42.1451417, "lon": 24.7457304, "tags": {"amenity": "cafe", "wheelchair": "no"}}, {"type": "node", "id": 3842147876, "lat": 42.1441486, "lon": 24.7476261, "tags": {"addr:city": "\u041f\u043b\u043e\u0432\u0434\u0438\u0432", "addr:country": "BG", "addr:housenumber": "8A", "addr:postcode": "4000", "addr:street": "\u041d\u0430\u0439\u0434\u0435\u043d \u0413\u0435\u0440\u043e\u0432", "amenity": "restaurant", "name": "\u0415\u043b\u0435\u0430", "name:en": "Elea"}}, {"type": "node", "id": 3843037035, "lat": 42.1419098, "lon": 24.7388026, "tags": {"amenity": "cafe", "name": "\u0415\u0432\u043c\u043e\u043b\u043f\u0438\u0430\u0434\u0430"}}, {"type": "node", "id": 3843037044, "lat": 42.1419138, "lon": 24.7390387, "tags": {"amenity": "cafe", "name": "\u0421\u0442\u0435\u043d\u0430\u0442\u0430"}}, {"type": "node", "id": 3844174987, "lat": 42.1421528, "lon": 24.7432326, "tags": {"amenity": "cafe", "name": "Vintage House"}}, {"type": "node", "id": 3844174988, "lat": 42.1422899, "lon": 24.743582, "tags": {"amenity": "restaurant", "name": "\u0422\u0440\u0438\u0442\u0435 \u043b\u0438\u043f\u0438"}}, {"type": "node", "id": 3852196880, "lat": 42.1439034, "lon": 24.749928, "tags": {"amenity": "cafe", "name": "Dolce Fellini"}}, {"type": "node", "id": 3852196881, "lat": 42.1437951, "lon": 24.7500216, "tags": {"amenity": "restaurant", "internet_access": "wlan", "name": "Hemingway"}}, {"type": "node", "id": 3852196883, "lat": 42.1440646, "lon": 24.7508428, "tags": {"amenity": "restaurant", "name": "Unico"}}, {"type": "node", "id": 3852196888, "lat": 42.144704, "lon": 24.7508389, "tags": {"amenity": "cafe", "indoor_seating": "yes", "name": "\u041d\u0430\u0442\u0430\u043b\u0438", "outdoor_seating": "yes"}}, {"type": "node", "id": 3857076959, "lat": 42.1500939, "lon": 24.744464, "tags": {"amenity": "cafe", "name": "\u0412\u0438\u043f \u043a\u0430\u0444\u0435"}}, {"type": "node", "id": 3857076960, "lat": 42.1454902, "lon": 24.7493409, "tags": {"amenity": "restaurant", "name": "\u0413\u043e\u0434\u0437\u0438\u043b\u0430"}}, {"type": "node", "id": 3857076963, "lat": 42.1454218, "lon": 24.750187, "tags": {"amenity": "cafe", "cuisine": "coffee_shop", "name": "\u041a\u0430\u043d\u0435\u043b\u0430", "name:en": "Kanela"}}, {"type": "node", "id": 3857076965, "lat": 42.1501129, "lon": 24.7441507, "tags": {"amenity": "cafe", "name": "\u041b\u0435\u0433\u0430\u043b"}}, {"type": "node", "id": 3867573027, "lat": 41.9441021, "lon": 24.8542035, "tags": {"amenity": "restaurant", "name": "\u0414\u0436\u0430\u043c\u0443\u0440\u0430 2"}}, {"type": "node", "id": 3868715059, "lat": 42.0746852, "lon": 24.6631724, "tags": {"amenity": "cafe", "name": "\u041a\u0430\u0444\u0435"}}, {"type": "node", "id": 3868848762, "lat": 42.0667472, "lon": 24.6554243, "tags": {"amenity": "restaurant"}}, {"type": "node", "id": 3868848763, "lat": 42.0673553, "lon": 24.6571443, "tags": {"amenity": "restaurant", "name": "\u041c\u0430\u043b\u043a\u0438\u044f \u042f\u0432\u043e\u0440"}}, {"type": "node", "id": 4004620058, "lat": 42.0101904, "lon": 24.8784039, "tags": {"amenity": "restaurant", "cuisine": "regional", "name": "\u0421\u043d\u0435\u0436\u0430\u043d\u043a\u0430", "outdoor_seating": "yes"}}, {"type": "node", "id": 4004634925, "lat": 42.006107, "lon": 24.8759944, "tags": {"amenity": "restaurant", "cuisine": "regional", "name": "\u0421\u0442\u0430\u0440\u0430\u0442\u0430 \u041b\u043e\u0437\u0430", "outdoor_seating": "yes"}}, {"type": "node", "id": 4010001122, "lat": 42.0136469, "lon": 24.8690585, "tags": {"amenity": "restaurant", "cuisine": "italian", "internet_access": "wlan", "internet_access:fee": "no", "name": "Pizza Roma", "smoking": "no"}}, {"type": "node", "id": 4012835426, "lat": 42.0335079, "lon": 24.7861727, "tags": {"addr:city": "\u041a\u0443\u043a\u043b\u0435\u043d", "addr:housenumber": "26", "addr:postcode": "4101", "addr:street": "\u0421\u043b\u0430\u0432\u044f\u043d\u0441\u043a\u0430", "amenity": "restaurant", "name": "\u0420\u0435\u0441\u0442\u043e\u0440\u0430\u043d\u0442 \u0428\u0430\u043d\u0441", "phone": "+359 88 345 8660"}}, {"type": "node", "id": 4012876234, "lat": 42.0002832, "lon": 24.8755835}, {"type": "node", "id": 4012876235, "lat": 42.0004278, "lon": 24.8754283}, {"type": "node", "id": 4012876236, "lat": 42.0004933, "lon": 24.8759272}, {"type": "node", "id": 4023865027, "lat": 42.1397173, "lon": 24.7396783, "tags": {"amenity": "cafe"}}, {"type": "node", "id": 4025221070, "lat": 42.1489035, "lon": 24.7533646}, {"type": "node", "id": 4025221072, "lat": 42.1489072, "lon": 24.7534305}, {"type": "node", "id": 4025221073, "lat": 42.1489163, "lon": 24.7534295}, {"type": "node", "id": 4025221075, "lat": 42.1489202, "lon": 24.7534844}, {"type": "node", "id": 4025221083, "lat": 42.1490113, "lon": 24.7533536}, {"type": "node", "id": 4025221084, "lat": 42.1490188, "lon": 24.7535206}, {"type": "node", "id": 4025225448, "lat": 42.150857, "lon": 24.7527679}, {"type": "node", "id": 4080433518, "lat": 42.1308944, "lon": 24.7375688, "tags": {"amenity": "restaurant", "name": "\u0420\u0438\u043e"}}, {"type": "node", "id": 4097759155, "lat": 42.147487, "lon": 24.7405234, "tags": {"amenity": "cafe"}}, {"type": "node", "id": 4097759172, "lat": 42.1511236, "lon": 24.7482133, "tags": {"amenity": "cafe", "name": "\u041c\u0430\u043b\u043a\u0438\u044f \u0414\u0432\u043e\u0440"}}, {"type": "node", "id": 4100096900, "lat": 42.1473481, "lon": 24.751672, "tags": {"amenity": "cafe", "name": "\u041a\u0440\u0438\u043f\u0442\u0430\u0442\u0430"}}, {"type": "node", "id": 4105253091, "lat": 42.1639272, "lon": 24.7409538, "tags": {"amenity": "cafe", "name": "Zahir lounge & dinner"}}, {"type": "node", "id": 4105335589, "lat": 42.1633175, "lon": 24.7423558, "tags": {"amenity": "restaurant", "cuisine": "turkish", "name": "Brazillia"}}, {"type": "node", "id": 4105523116, "lat": 42.1486624, "lon": 24.7382629, "tags": {"amenity": "cafe", "name": "Sunset"}}, {"type": "node", "id": 4105523146, "lat": 42.1461059, "lon": 24.731426, "tags": {"amenity": "cafe"}}, {"type": "node", "id": 4105523158, "lat": 42.1480489, "lon": 24.7335369, "tags": {"amenity": "cafe"}}, {"type": "node", "id": 4105523181, "lat": 42.1489517, "lon": 24.7374113, "tags": {"amenity": "cafe"}}, {"type": "node", "id": 4105523182, "lat": 42.1490671, "lon": 24.7384789, "tags": {"amenity": "cafe", "name": "Vision"}}, {"type": "node", "id": 4105536903, "lat": 42.152022, "lon": 24.7550127, "tags": {"amenity": "cafe"}}, {"type": "node", "id": 4105536918, "lat": 42.144169, "lon": 24.7310652, "tags": {"amenity": "cafe", "name": "\u0413\u0430\u043b\u0435\u0440\u0438\u044f"}}, {"type": "node", "id": 4105536934, "lat": 42.1493365, "lon": 24.7395893, "tags": {"air_conditioning": "yes", "amenity": "cafe", "outdoor_seating": "yes", "website": "https://nedelya.com"}}, {"type": "node", "id": 4143011533, "lat": 42.0056294, "lon": 24.8700431, "tags": {"addr:street": "6-\u0442\u0438 \u044f\u043d\u0443\u0430\u0440\u0438", "amenity": "restaurant", "cuisine": "regional", "name": "\u0420\u0435\u0441\u0442\u043e\u0440\u0430\u043d\u0442 \u0427\u0438\u043d\u0430\u0440\u0430", "opening_hours": "Tu-Su 10:00-24:00", "outdoor_seating": "yes"}}, {"type": "node", "id": 4148647335, "lat": 42.0007022, "lon": 24.8754123}, {"type": "node", "id": 4151610302, "lat": 42.1385894, "lon": 24.7591444, "tags": {"amenity": "cafe", "name": "Touch and Go"}}, {"type": "node", "id": 4171384134, "lat": 42.1481942, "lon": 24.7538185}, {"type": "node", "id": 4171384466, "lat": 42.1508858, "lon": 24.752775}, {"type": "node", "id": 4171384469, "lat": 42.1508963, "lon": 24.7529125}, {"type": "node", "id": 4187450134, "lat": 42.0402992, "lon": 24.5208009, "tags": {"amenity": "cafe"}}, {"type": "node", "id": 4187461255, "lat": 42.0562343, "lon": 24.5450198, "tags": {"amenity": "restaurant", "name": "\u0411\u0435\u0441\u0435\u0434\u043a\u0430\u0442\u0430"}}, {"type": "node", "id": 4187461256, "lat": 42.0560152, "lon": 24.5448133, "tags": {"amenity": "restaurant", "name": "\u0411\u0438\u0441\u0442\u0440\u043e"}}, {"type": "node", "id": 4194931646, "lat": 42.1470074, "lon": 24.7653239, "tags": {"amenity": "restaurant", "name": "Mirena"}}, {"type": "node", "id": 4202104205, "lat": 42.1419204, "lon": 24.7459284}, {"type": "node", "id": 4202104206, "lat": 42.1419782, "lon": 24.7461218}, {"type": "node", "id": 4202104215, "lat": 42.1420661, "lon": 24.7458542}, {"type": "node", "id": 4202104229, "lat": 42.1421193, "lon": 24.7460411}, {"type": "node", "id": 4207682005, "lat": 42.1396969, "lon": 24.7913288, "tags": {"addr:housenumber": "bl. 15", "addr:postcode": "4023", "addr:street": "\u0431\u0443\u043b. \u041e\u0441\u0432\u043e\u0431\u043e\u0436\u0434\u0435\u043d\u0438\u0435", "amenity": "restaurant", "cuisine": "mediterranean", "internet_access": "wlan", "name": "Style", "opening_hours": "Mo-Su 08:30-00:00", "phone": "+359 89 502 0200", "website": "http://restaurantstyle.bg/"}}, {"type": "node", "id": 4208739692, "lat": 42.236804, "lon": 24.6881762, "tags": {"amenity": "cafe", "internet_access": "wlan", "name": "\u0411\u0440\u0430\u0442\u044f \u0414\u0438\u043d\u0433\u0438\u043b\u0435\u0432\u0438"}}, {"type": "node", "id": 4208763090, "lat": 42.1583933, "lon": 24.7423865, "tags": {"amenity": "cafe", "internet_access": "wlan", "name": "E'memento"}}, {"type": "node", "id": 4209390391, "lat": 42.1626284, "lon": 24.7359016, "tags": {"amenity": "cafe", "name": "Planet club"}}, {"type": "node", "id": 4299030646, "lat": 42.0546656, "lon": 24.7683821}, {"type": "node", "id": 4299030647, "lat": 42.0546396, "lon": 24.7684554}, {"type": "node", "id": 4299030648, "lat": 42.0545926, "lon": 24.7684252}, {"type": "node", "id": 4299030649, "lat": 42.0545664, "lon": 24.768499}, {"type": "node", "id": 4299030650, "lat": 42.0544988, "lon": 24.7684554}, {"type": "node", "id": 4299030651, "lat": 42.0545511, "lon": 24.7683082}, {"type": "node", "id": 4313841934, "lat": 42.1427072, "lon": 24.7586988, "tags": {"addr:housenumber": "73A", "addr:street": "\u041a\u0430\u043f\u0438\u0442\u0430\u043d \u0420\u0430\u0439\u0447\u043e", "amenity": "restaurant", "cuisine": "regional", "internet_access": "no", "internet_access:fee": "no", "name": "\u0427\u0438\u043b\u0438", "opening_hours": "Mo-Sa 08:30-20:00", "operator": "\u0427\u0438\u043b\u0438", "smoking": "yes", "website": "https://chili.bg/", "wheelchair": "no"}}, {"type": "node", "id": 4327089889, "lat": 42.1186638, "lon": 24.7357887, "tags": {"addr:housenumber": "87", "addr:postcode": "4004", "addr:street": "\u0414\u0438\u043c\u0438\u0442\u044a\u0440 \u0422\u0430\u043b\u0435\u0432", "amenity": "restaurant", "cuisine": "italian_pizza;mediterranean", "email": "gladiatori2003@abv.bg", "internet_access": "wlan", "name": "Note Di Vino", "name:bg": "\u041d\u043e\u0442\u0435 \u0434\u0438 \u0432\u0438\u043d\u043e", "opening_hours": "24/7", "phone": "+359 89 910 1087", "website": "https://notedivino.bg/"}}, {"type": "node", "id": 4336502817, "lat": 42.1196471, "lon": 24.7472379, "tags": {"amenity": "restaurant", "name": "\u0421\u043e\u043b\u0435\u0439", "phone": "+359 88 594 0158"}}, {"type": "node", "id": 4338830989, "lat": 41.9443182, "lon": 24.8531826, "tags": {"amenity": "restaurant", "name": "\u0414\u0436\u0430\u043c\u0443\u0440\u0430", "phone": "+359 89 329 2705"}}, {"type": "node", "id": 4379731583, "lat": 42.1473758, "lon": 24.7695959, "tags": {"amenity": "restaurant", "cuisine": "regional", "name": "\u042e\u0436\u0435\u043d \u041f\u043e\u043b\u044a\u0445 2", "opening_hours": "10:00 - 1:00", "outdoor_seating": "yes", "smoking": "isolated", "website": "https://www.ujen-polah.com/", "wheelchair": "yes"}}, {"type": "node", "id": 4420041019, "lat": 42.137668, "lon": 24.7397702, "tags": {"amenity": "restaurant", "name": "\u041a\u043e\u043f\u0447\u0435\u0442\u043e"}}, {"type": "node", "id": 4447862789, "lat": 42.1509272, "lon": 24.7435642, "tags": {"amenity": "restaurant", "contact:website": "https://memorybg.net/", "email": "office@memorybg.net", "name:en": "memory", "phone": "+359 894 490 637"}}, {"type": "node", "id": 4461502051, "lat": 42.1359724, "lon": 24.7448219, "tags": {"amenity": "restaurant", "cuisine": "regional", "name": "\u041c\u0435\u0433\u0434\u0430\u043d\u0430", "opening_hours": "Mo-Sa 18:00-00:30", "website": "https://megdanabg.com/"}}, {"type": "node", "id": 4470235890, "lat": 42.1470834, "lon": 24.7516761, "tags": {"amenity": "cafe", "internet_access": "wlan", "name": "\u0410\u0440\u0435\u043d\u0430", "name:de": "Arena", "name:en": "Arena"}}, {"type": "node", "id": 4483830835, "lat": 42.1509101, "lon": 24.7531578}, {"type": "node", "id": 4483830836, "lat": 42.1509991, "lon": 24.7530194}, {"type": "node", "id": 4483830837, "lat": 42.1510215, "lon": 24.7531134}, {"type": "node", "id": 4489331831, "lat": 42.0105647, "lon": 24.8696995, "tags": {"amenity": "cafe", "name": "Molinari", "outdoor_seating": "yes"}}, {"type": "node", "id": 4489331832, "lat": 42.0087073, "lon": 24.872725, "tags": {"amenity": "cafe", "outdoor_seating": "yes"}}, {"type": "node", "id": 4489331851, "lat": 42.0047241, "lon": 24.8740983, "tags": {"amenity": "restaurant", "name": "\u0412\u0438\u0442\u043e", "name:en": "Vito"}}, {"type": "node", "id": 4489331852, "lat": 42.0050709, "lon": 24.8740929, "tags": {"amenity": "cafe"}}, {"type": "node", "id": 4489331855, "lat": 42.0064751, "lon": 24.875139, "tags": {"amenity": "cafe", "name": "\u0424\u043b\u0430\u043c\u0438\u043d\u0433\u043e", "outdoor_seating": "yes"}}, {"type": "node", "id": 4489331857, "lat": 42.0059907, "lon": 24.8744121, "tags": {"air_conditioning": "yes", "amenity": "cafe", "indoor_seating": "yes", "name": "\u041a\u044c\u043e\u0448\u0435\u0442\u043e", "outdoor_seating": "yes", "smoking": "outside", "wheelchair": "yes"}}, {"type": "node", "id": 4490917976, "lat": 42.0102543, "lon": 24.8735243, "tags": {"amenity": "cafe", "name": "\u0420\u0430\u044f"}}, {"type": "node", "id": 4490917977, "lat": 42.0099753, "lon": 24.8733848, "tags": {"amenity": "cafe", "name": "\u0410\u0434\u0430"}}, {"type": "node", "id": 4490917978, "lat": 42.0091841, "lon": 24.8729315, "tags": {"amenity": "cafe", "name": "\u0421\u0442\u0430\u0439\u043a"}}, {"type": "node", "id": 4490917979, "lat": 42.0091841, "lon": 24.8731783, "tags": {"amenity": "restaurant", "name": "\u041e\u043c\u043e\u043d\u0438\u044f"}}, {"type": "node", "id": 4515060189, "lat": 42.1491633, "lon": 24.7270698, "tags": {"addr:city": "\u041f\u043b\u043e\u0432\u0434\u0438\u0432", "addr:housenumber": "23", "addr:postcode": "4000", "addr:street": "\u041c\u043b\u0430\u0434\u0435\u0436\u043a\u0430", "amenity": "cafe", "name": "\u041f\u043e\u0440\u0442\u043e\u043a\u0430\u043b\u0438", "phone": "+359 89 856 1625", "wheelchair": "yes"}}, {"type": "node", "id": 4516198991, "lat": 42.1359838, "lon": 24.7448008, "tags": {"amenity": "restaurant", "cuisine": "balkan", "name:en": "Megdana", "phone": "+359 32 624 694", "website": "http://www.megdana-bg.com"}}, {"type": "node", "id": 4535507991, "lat": 42.1309737, "lon": 24.7848405, "tags": {"amenity": "restaurant", "name": "\u041f\u0438\u0446\u0430\u0440\u0438\u044f \u0410\u043c\u043e\u0440\u0435", "name:bg": "\u041f\u0438\u0446\u0430\u0440\u0438\u044f \u0410\u043c\u043e\u0440\u0435", "name:en": "Pizza Amore", "outdoor_seating": "yes", "website": "https://pizza-amore.bg"}}, {"type": "node", "id": 4551085290, "lat": 42.1293622, "lon": 24.7637434, "tags": {"addr:housenumber": "1", "addr:street": "\u0421\u0442\u0430\u0434\u0438\u043e\u043d", "amenity": "cafe", "name": "\u0413\u0440\u0430\u043c\u0438", "name:bg": "\u0413\u0440\u0430\u043c\u0438", "name:en": "Gramy"}}, {"type": "node", "id": 4556990233, "lat": 42.1426618, "lon": 24.7204995, "tags": {"addr:housenumber": "65A", "addr:street": "\u0431\u0443\u043b. \u0421\u0432\u043e\u0431\u043e\u0434\u0430", "amenity": "restaurant", "cuisine": "mexican", "name": "Sombrero", "opening_hours": "10:00-23:00", "website": "https://www.sombrero-bg.com/"}}, {"type": "node", "id": 4559093104, "lat": 42.0080067, "lon": 24.8706034, "tags": {"amenity": "restaurant", "name": "\u0427\u043e\u0440\u0431\u0430\u0434\u0436\u0438\u0439\u0441\u043a\u0430 \u0441\u043e\u0444\u0440\u0430", "name:bg": "\u0427\u043e\u0440\u0431\u0430\u0434\u0436\u0438\u0439\u0441\u043a\u0430 \u0441\u043e\u0444\u0440\u0430", "name:en": "Chorbadzhiiska sofra"}}, {"type": "node", "id": 4571566087, "lat": 42.1481367, "lon": 24.7518293}, {"type": "node", "id": 4571566088, "lat": 42.1480114, "lon": 24.7517622}, {"type": "node", "id": 4571566189, "lat": 42.1480491, "lon": 24.751634}, {"type": "node", "id": 4571566190, "lat": 42.1481744, "lon": 24.751701}, {"type": "node", "id": 4583871796, "lat": 42.1337177, "lon": 24.7075997, "tags": {"amenity": "restaurant", "name": "\u041f\u0438\u0442\u0438\u0435\u0442\u043e \u043d\u0430 \u041e\u0440\u0444\u0435\u0439"}}, {"type": "node", "id": 4616429904, "lat": 42.1612463, "lon": 24.7428176, "tags": {"amenity": "restaurant", "name": "\u041c\u0430\u0435\u0441\u0442\u0440\u043e"}}, {"type": "node", "id": 4659408377, "lat": 42.1389363, "lon": 24.7507983, "tags": {"amenity": "cafe", "name": "\u0415\u043d\u0444\u0438\u0435"}}, {"type": "node", "id": 4659408385, "lat": 42.1374525, "lon": 24.7492104, "tags": {"amenity": "cafe", "name": "Cafe de Paris"}}, {"type": "node", "id": 4659408386, "lat": 42.137363, "lon": 24.749079, "tags": {"amenity": "restaurant", "cuisine": "turkish", "name": "Mekan Zarif \u00c7i\u011f K\u00f6fte", "opening_hours": "Mo-Sa 09:00-21:00", "phone": "+359 89 596 6266"}}, {"type": "node", "id": 4659408387, "lat": 42.1369294, "lon": 24.7478666, "tags": {"amenity": "cafe", "name": "\u041a\u0430\u0439\u043d\u0435 \u041f\u0440\u043e\u0431\u043b\u0435\u043c\u0435"}}, {"type": "node", "id": 4659409590, "lat": 42.13647, "lon": 24.747357, "tags": {"addr:housenumber": "32", "addr:street": "\u0411\u0443\u043b\u0430\u0438\u0440", "amenity": "restaurant", "name": "\u042e\u0436\u0435\u043d \u041f\u043e\u043b\u044a\u0445 2", "opening_hours": "10:00-01:00", "phone": "+359 32 660 585", "website": "https://www.ujen-polah.com/"}}, {"type": "node", "id": 4664922197, "lat": 42.285098, "lon": 24.7344884, "tags": {"amenity": "restaurant", "name": "\u0413\u0440\u0430\u0444\u0438\u043d\u0438\u0442\u0435"}}, {"type": "node", "id": 4664922198, "lat": 42.2846119, "lon": 24.7342792, "tags": {"amenity": "cafe", "name": "\u041f\u0430\u043d\u043e\u0440\u0430\u043c\u0430"}}, {"type": "node", "id": 4664922199, "lat": 42.28434, "lon": 24.7337186, "tags": {"amenity": "restaurant"}}, {"type": "node", "id": 4664922207, "lat": 42.2839709, "lon": 24.7334826, "tags": {"amenity": "restaurant", "name": "\u0410\u0440\u0431\u0430\u043d\u0430\u0441\u0438"}}, {"type": "node", "id": 4664922230, "lat": 42.2843366, "lon": 24.7341866, "tags": {"amenity": "restaurant", "name": "\u0410\u0432\u0438\u0430\u043d\u043e"}}, {"type": "node", "id": 4680640354, "lat": 42.1470338, "lon": 24.7487728, "tags": {"addr:city": "\u041f\u043b\u043e\u0432\u0434\u0438\u0432", "addr:housenumber": "12", "addr:postcode": "4000", "addr:street": "\u041e\u0442\u0435\u0446 \u041f\u0430\u0438\u0441\u0438\u0439", "amenity": "restaurant", "capacity": "1000", "check_date": "2023-02-19", "cuisine": "regional", "description": "The new adventurous restaurant in Plovdiv Explore a palette of tastes, which will take you on an exciting journey around the world. Our understanding that improvement is a process, motivates us to find new challenges, to experiment and to develop the ta", "name": "Smokini", "opening_hours": "11:00 - 23:59", "outdoor_seating": "yes", "phone": "+359 99 900 0996", "smoking": "outside", "takeaway": "yes", "website": "https://smokini.bg"}}, {"type": "node", "id": 4697971101, "lat": 42.1479513, "lon": 24.7709829, "tags": {"amenity": "restaurant", "name": "\u041b\u0443\u043a\u0441\u043e\u0440"}}, {"type": "node", "id": 4714668172, "lat": 42.1446719, "lon": 24.7503483, "tags": {"addr:city": "\u041f\u043b\u043e\u0432\u0434\u0438\u0432", "addr:country": "BG", "addr:housenumber": "30", "addr:postcode": "4000", "addr:street": "\u041e\u0442\u0435\u0446 \u041f\u0430\u0438\u0441\u0438\u0439", "alt_name": "Zlatna Krusha", "amenity": "restaurant", "contact:phone": "+359 32 650 505", "cuisine": "balkan;international;mediterranean;pizza", "diet:vegetarian": "yes", "int_name": "Golden Pear", "name": "\u0417\u043b\u0430\u0442\u043d\u0430 \u041a\u0440\u0443\u0448\u0430", "name:bg": "\u0417\u043b\u0430\u0442\u043d\u0430 \u043a\u0440\u0443\u0448\u0430", "opening_hours": "Mo-Fr 10:00-23:30"}}, {"type": "node", "id": 4715381390, "lat": 42.1444745, "lon": 24.7488271, "tags": {"amenity": "restaurant", "internet_access": "wlan", "name": "\u0420\u0430\u0444\u0438 \u0411\u0430\u0440 \u0438 \u0414\u0436\u0435\u043b\u0430\u0442\u043e", "name:bg": "\u0420\u0430\u0444\u0438 \u0411\u0430\u0440 \u0438 \u0414\u0436\u0435\u043b\u0430\u0442\u043e", "name:en": "Raffi Bar & Gelato"}}, {"type": "node", "id": 4730499235, "lat": 42.1448693, "lon": 24.7510499, "tags": {"amenity": "restaurant", "name": "\u0420\u0443\u0441\u0438\u044f"}}, {"type": "node", "id": 4730499238, "lat": 42.1455286, "lon": 24.748416, "tags": {"amenity": "restaurant", "name": "La Veranda"}}, {"type": "node", "id": 4730499274, "lat": 42.1515203, "lon": 24.7591207, "tags": {"amenity": "restaurant", "name": "\u0411\u0438\u0433\u0430"}}, {"type": "node", "id": 4755800733, "lat": 41.9095485, "lon": 24.9678907}, {"type": "node", "id": 4755800734, "lat": 41.9094028, "lon": 24.9679602}, {"type": "node", "id": 4755800735, "lat": 41.9093466, "lon": 24.9677474}, {"type": "node", "id": 4755800736, "lat": 41.9094924, "lon": 24.9676779}, {"type": "node", "id": 4762068137, "lat": 42.010508, "lon": 24.8742841}, {"type": "node", "id": 4781540077, "lat": 42.1519197, "lon": 24.7493995, "tags": {"amenity": "restaurant", "name": "\u0427\u0438\u0444\u0442\u0435 \u0431\u0430\u043d\u044f"}}, {"type": "node", "id": 4815230652, "lat": 42.1482548, "lon": 24.7504004, "tags": {"amenity": "restaurant", "diet:vegetarian": "yes", "name": "Philippopolis", "name:en": "Philippopolis", "opening_hours": "Tu-Su 11:00-24:00"}}, {"type": "node", "id": 4820276222, "lat": 42.130961, "lon": 24.7506702}, {"type": "node", "id": 4820276223, "lat": 42.1308158, "lon": 24.7506648}, {"type": "node", "id": 4820276224, "lat": 42.1308134, "lon": 24.750783}, {"type": "node", "id": 4820276225, "lat": 42.1309586, "lon": 24.7507884}, {"type": "node", "id": 4820276792, "lat": 42.1323261, "lon": 24.7503552}, {"type": "node", "id": 4820276793, "lat": 42.1323475, "lon": 24.7505255}, {"type": "node", "id": 4820276794, "lat": 42.1324519, "lon": 24.7505564}, {"type": "node", "id": 4820276795, "lat": 42.1324375, "lon": 24.7506858}, {"type": "node", "id": 4820276796, "lat": 42.1325191, "lon": 24.7507066}, {"type": "node", "id": 4820276797, "lat": 42.1325459, "lon": 24.7505329}, {"type": "node", "id": 4820276798, "lat": 42.1324673, "lon": 24.7505088}, {"type": "node", "id": 4820276799, "lat": 42.1324867, "lon": 24.7504169}, {"type": "node", "id": 4820276800, "lat": 42.1324032, "lon": 24.7503465}, {"type": "node", "id": 4820276801, "lat": 42.1324052, "lon": 24.7502908}, {"type": "node", "id": 4820276802, "lat": 42.1323042, "lon": 24.7502674}, {"type": "node", "id": 4820276803, "lat": 42.1322933, "lon": 24.7503438}, {"type": "node", "id": 4822295880, "lat": 42.1302296, "lon": 24.7488969, "tags": {"amenity": "cafe"}}, {"type": "node", "id": 4825265880, "lat": 42.1259241, "lon": 24.7522826}, {"type": "node", "id": 4825265881, "lat": 42.1259331, "lon": 24.7524677}, {"type": "node", "id": 4825265882, "lat": 42.1258169, "lon": 24.7524779}, {"type": "node", "id": 4825265883, "lat": 42.125808, "lon": 24.7522928}, {"type": "node", "id": 4859749525, "lat": 42.0725429, "lon": 24.6688715, "tags": {"addr:city": "\u041f\u043b\u043e\u0432\u0434\u0438\u0432", "addr:housenumber": "8", "addr:street": "\u041e\u0431\u043e\u0440\u0438\u0449\u0435", "amenity": "cafe", "name": "\u041a\u0440\u0438\u0441\u043f\u0438"}}, {"type": "node", "id": 4868045361, "lat": 42.1340213, "lon": 24.7279695}, {"type": "node", "id": 4868045362, "lat": 42.1340561, "lon": 24.7280084}, {"type": "node", "id": 4868045363, "lat": 42.1340581, "lon": 24.7280554}, {"type": "node", "id": 4868045364, "lat": 42.1340506, "lon": 24.7280695}, {"type": "node", "id": 4868045365, "lat": 42.1340665, "lon": 24.7280788}, {"type": "node", "id": 4868045366, "lat": 42.134067, "lon": 24.7281848}, {"type": "node", "id": 4868045367, "lat": 42.1340352, "lon": 24.7281875}, {"type": "node", "id": 4868045368, "lat": 42.1340352, "lon": 24.7282465}, {"type": "node", "id": 4868045369, "lat": 42.1339218, "lon": 24.7282445}, {"type": "node", "id": 4868045370, "lat": 42.133887, "lon": 24.7281184}, {"type": "node", "id": 4868045371, "lat": 42.1339184, "lon": 24.7280078}, {"type": "node", "id": 4868045372, "lat": 42.1339164, "lon": 24.7279186}, {"type": "node", "id": 4868045373, "lat": 42.1340089, "lon": 24.7278978}, {"type": "node", "id": 4869288701, "lat": 42.1542587, "lon": 24.7131343}, {"type": "node", "id": 4869288702, "lat": 42.1541176, "lon": 24.7131729}, {"type": "node", "id": 4869288704, "lat": 42.1542894, "lon": 24.7133218}, {"type": "node", "id": 4869288705, "lat": 42.1544366, "lon": 24.7130405}, {"type": "node", "id": 4869288706, "lat": 42.1541095, "lon": 24.7131232}, {"type": "node", "id": 4869288707, "lat": 42.1544713, "lon": 24.7132694}, {"type": "node", "id": 4878751594, "lat": 42.1309058, "lon": 24.7672029}, {"type": "node", "id": 4878751595, "lat": 42.1308064, "lon": 24.7672029}, {"type": "node", "id": 4878751596, "lat": 42.1308064, "lon": 24.7670795}, {"type": "node", "id": 4878751597, "lat": 42.1309058, "lon": 24.7670795}, {"type": "node", "id": 4889449682, "lat": 42.0069703, "lon": 24.8756593, "tags": {"amenity": "restaurant", "cuisine": "regional", "name": "\u0410\u043c\u0431\u0435\u043b\u0438\u043d\u043e", "outdoor_seating": "yes"}}, {"type": "node", "id": 4908860598, "lat": 42.2540964, "lon": 24.5261663, "tags": {"amenity": "cafe"}}, {"type": "node", "id": 4933951792, "lat": 42.1509306, "lon": 24.7529107}, {"type": "node", "id": 4933951795, "lat": 42.1508729, "lon": 24.7531528}, {"type": "node", "id": 4933951796, "lat": 42.1508306, "lon": 24.7529758}, {"type": "node", "id": 4935544323, "lat": 42.149135, "lon": 24.7487873, "tags": {"addr:housenumber": "7", "addr:postcode": "4000", "addr:street": "\u0417\u043b\u0430\u0442\u0430\u0440\u0441\u043a\u0430", "amenity": "restaurant", "check_date": "2025-06-10", "cuisine": "beef_bowl;barbecue;breakfast", "diet:vegetarian": "yes", "email": "pavaj.plovdiv@gmail.com", "indoor_seating": "yes", "int_name": "Pavazh", "name": "\u041f\u0430\u0432\u0430\u0436", "name:bg": "\u041f\u0430\u0432\u0430\u0436", "name:en": "Pavazh", "opening_hours": "Mo-Su 10:00-23:00", "outdoor_seating": "pedestrian_zone", "payment:cash": "yes", "payment:credit_cards": "yes", "payment:debit_cards": "yes", "phone": "+359 87 811 1876", "smoking": "outside", "toilets": "yes"}}, {"type": "node", "id": 4946644397, "lat": 42.1390023, "lon": 24.7461238}, {"type": "node", "id": 4946644398, "lat": 42.1390411, "lon": 24.7461734}, {"type": "node", "id": 4946644399, "lat": 42.1390669, "lon": 24.7461368}, {"type": "node", "id": 4946644400, "lat": 42.1390281, "lon": 24.7460872}, {"type": "node", "id": 4952573472, "lat": 42.149815, "lon": 24.748524, "tags": {"addr:housenumber": "6A", "addr:street": "\u0424\u0440\u0435\u0434\u0435\u0440\u0438\u043a \u0416\u043e\u043b\u0438\u043e \u041a\u044e\u0440\u0438", "amenity": "restaurant", "check_date": "2024-11-30", "name": "\u0421\u0442\u0430\u0440\u0438\u044f \u041f\u043b\u043e\u0432\u0434\u0438\u0432", "phone": "+359 32 629 133", "website": "https://oldplovdivbg.com/", "wheelchair": "limited"}}, {"type": "node", "id": 4968049572, "lat": 42.1486099, "lon": 24.7440192, "tags": {"amenity": "cafe", "name": "\u041e\u0442\u0441\u0440\u0435\u0449\u0430"}}, {"type": "node", "id": 4968049573, "lat": 42.1489848, "lon": 24.7443612, "tags": {"amenity": "cafe", "name": "\u041a\u043e\u043d\u0442\u0438\u043d\u0435\u043d\u0442\u0430\u043b"}}, {"type": "node", "id": 4968049574, "lat": 42.1499671, "lon": 24.7440889, "tags": {"amenity": "restaurant", "name": "Famous House"}}, {"type": "node", "id": 4968049577, "lat": 42.1515768, "lon": 24.7462052, "tags": {"amenity": "cafe", "name": "\u0414\u0430 \u0437\u0430 \u0442\u0435\u0431", "name:en": "Yes For You"}}, {"type": "node", "id": 4968049578, "lat": 42.1517121, "lon": 24.7461314, "tags": {"amenity": "restaurant", "cuisine": "pizza", "name": "\u041f\u0430\u043b\u0430\u0434\u0438\u0443\u043c"}}, {"type": "node", "id": 4968049582, "lat": 42.1519049, "lon": 24.7467698, "tags": {"amenity": "cafe", "name": "\u0414\u0435 \u042e\u0440\u0435"}}, {"type": "node", "id": 4968049583, "lat": 42.1520531, "lon": 24.746751, "tags": {"amenity": "cafe", "name": "Sezoni"}}, {"type": "node", "id": 4968049586, "lat": 42.1523782, "lon": 24.7456983, "tags": {"amenity": "restaurant", "name": "\u0411\u0438\u0441\u0442\u0440\u043e \"\u041d\u0438\u044f\""}}, {"type": "node", "id": 4979672254, "lat": 42.149132, "lon": 24.7473915, "tags": {"amenity": "cafe", "name": "City Chef's"}}, {"type": "node", "id": 5022211166, "lat": 42.1520616, "lon": 24.7453651, "tags": {"amenity": "restaurant", "cuisine": "indian", "name": "India"}}, {"type": "node", "id": 5026153034, "lat": 42.15482, "lon": 24.7411868, "tags": {"amenity": "cafe"}}, {"type": "node", "id": 5026157320, "lat": 42.1549045, "lon": 24.7451068, "tags": {"amenity": "restaurant", "cuisine": "fish", "name": "\u041d\u0430 \u0420\u0435\u043a\u0430\u0442\u0430"}}, {"type": "node", "id": 5045271922, "lat": 42.1486364, "lon": 24.7485169, "tags": {"amenity": "restaurant", "cuisine": "turkish", "name:en": "Pasa Restaurant", "website": "https://www.pasa.bg/"}}, {"type": "node", "id": 5115594896, "lat": 42.1575521, "lon": 24.741675, "tags": {"amenity": "restaurant", "name": "\u0413\u043e\u0442\u043e\u0432\u0430 \u0445\u0440\u0430\u043d\u0430"}}, {"type": "node", "id": 5117748906, "lat": 42.1489967, "lon": 24.7519813, "tags": {"amenity": "restaurant"}}, {"type": "node", "id": 5117748909, "lat": 42.1481058, "lon": 24.7504283, "tags": {"amenity": "restaurant", "brewery": "various", "check_date": "2025-06-09", "cuisine": "italian_pizza;italian", "diet:vegetarian": "yes", "name": "Antico", "opening_hours": "Mo-Su 10:00-24:00", "outdoor_seating": "yes", "payment:cash": "yes", "payment:credit_cards": "yes", "payment:debit_cards": "yes", "toilets": "yes", "wheelchair": "no"}}, {"type": "node", "id": 5117749521, "lat": 42.148864, "lon": 24.7487285, "tags": {"amenity": "cafe", "internet_access": "wlan", "name": "Mandrey House", "name:bg": "Monkey House", "name:en": "Monkey House"}}, {"type": "node", "id": 5117749527, "lat": 42.149294, "lon": 24.7486125, "tags": {"amenity": "cafe", "name:en": "1890"}}, {"type": "node", "id": 5117749531, "lat": 42.1495237, "lon": 24.7477448, "tags": {"amenity": "restaurant", "name": "Havana Club", "opening_hours": "Mo-Su 08:00-00:00"}}, {"type": "node", "id": 5117749535, "lat": 42.1521436, "lon": 24.745194, "tags": {"amenity": "restaurant", "name": "\u0421\u043e\u043b \u0438 \u041f\u0438\u043f\u0435\u0440"}}, {"type": "node", "id": 5117749539, "lat": 42.1565569, "lon": 24.7450277, "tags": {"amenity": "restaurant", "cuisine": "italian", "name": "Verdi"}}, {"type": "node", "id": 5126984328, "lat": 41.8607267, "lon": 24.6498688, "tags": {"addr:city": "\u041c\u0430\u043b\u0435\u0432\u043e", "amenity": "restaurant", "capacity": "50", "cuisine": "regional", "delivery": "no", "name": "\u0422\u0435\u043f\u0430\u0432\u0438\u0446\u0430\u0442\u0430", "outdoor_seating": "yes", "takeaway": "no"}}, {"type": "node", "id": 5224769281, "lat": 42.2336949, "lon": 24.7246778, "tags": {"amenity": "restaurant", "name": "\u0414\u0438\u044f\u043d\u0430"}}, {"type": "node", "id": 5249021317, "lat": 42.1409096, "lon": 24.699524, "tags": {"amenity": "restaurant", "name": "\u041e\u0441\u0442\u0440\u043e\u0432\u0430", "tourism": "hotel"}}, {"type": "node", "id": 5280031703, "lat": 42.153097, "lon": 24.7446549, "tags": {"addr:city": "\u041f\u043b\u043e\u0432\u0434\u0438\u0432", "addr:country": "BG", "addr:district": "\u0426\u0435\u043d\u0442\u044a\u0440", "addr:housenumber": "90", "addr:postcode": "4000", "addr:state": "\u041f\u043b\u043e\u0432\u0434\u0438\u0432", "addr:street": "\u0431\u0443\u043b. \u041c\u0430\u0440\u0438\u0446\u0430", "amenity": "restaurant", "check_date:currency:XBT": "2023-05-26", "contact:facebook": "https://www.facebook.com/Chichovci", "name": "\u0427\u0438\u0447\u043e\u0432\u0446\u0438", "name:en": "Chichovsti", "opening_hours": "Mo-Fr 10:00-00:00; Sa 16:00-00:00", "phone": "+359895111277", "survey:date": "2023-08-31"}}, {"type": "node", "id": 5282118352, "lat": 42.1477657, "lon": 24.7418627, "tags": {"addr:housenumber": "15", "addr:street": "\u0410\u043b\u0435\u043a\u0441\u0430\u043d\u0434\u044a\u0440 \u0415\u043a\u0437\u0430\u0440\u0445", "amenity": "restaurant", "name": "\u0413\u043b\u0443\u0445\u0430\u0440\u0447\u0435\u0442\u043e", "opening_hours": "09:00-24:00", "phone": "+359 89 367 7748"}}, {"type": "node", "id": 5284057080, "lat": 42.1479109, "lon": 24.7471064, "tags": {"amenity": "cafe", "internet_access": "wlan", "name:en": "Monroe cafe bar & restaurant"}}, {"type": "node", "id": 5305452236, "lat": 42.1412636, "lon": 24.7532991, "tags": {"addr:city": "\u041f\u043b\u043e\u0432\u0434\u0438\u0432", "addr:housenumber": "34", "addr:street": "\u041a\u0430\u043f\u0438\u0442\u0430\u043d \u0420\u0430\u0439\u0447\u043e", "amenity": "restaurant", "delivery": "no", "name": "\u0420\u0430\u0439\u0430", "opening_hours": "Mo-Su 10:00-24:00", "outdoor_seating": "yes", "phone": "+359 32 621 906", "smoking": "outside", "takeaway": "yes"}}, {"type": "node", "id": 5305513492, "lat": 42.1430162, "lon": 24.7521099}, {"type": "node", "id": 5305513493, "lat": 42.1430683, "lon": 24.7522325}, {"type": "node", "id": 5305513494, "lat": 42.1432852, "lon": 24.7520856}, {"type": "node", "id": 5305513495, "lat": 42.1431517, "lon": 24.7517241}, {"type": "node", "id": 5305513496, "lat": 42.1430683, "lon": 24.7517343}, {"type": "node", "id": 5305513497, "lat": 42.1430854, "lon": 24.7520588}, {"type": "node", "id": 5305513498, "lat": 42.1430996, "lon": 24.7517305, "tags": {"access": "yes", "addr:city": "\u041f\u043b\u043e\u0432\u0434\u0438\u0432", "addr:housenumber": "2", "addr:street": "\u0421\u0432\u0435\u0442\u0430 \u041f\u0435\u0442\u043a\u0430", "entrance": "main"}}, {"type": "node", "id": 5305513500, "lat": 42.1431923, "lon": 24.7521486}, {"type": "node", "id": 5460295322, "lat": 42.1268177, "lon": 24.7736845, "tags": {"amenity": "restaurant", "name:en": "Romantic"}}, {"type": "node", "id": 5477582370, "lat": 42.1322956, "lon": 24.7515303}, {"type": "node", "id": 5477582371, "lat": 42.1323883, "lon": 24.751636}, {"type": "node", "id": 5477582372, "lat": 42.1323876, "lon": 24.7516868}, {"type": "node", "id": 5477582373, "lat": 42.1323446, "lon": 24.7517519}, {"type": "node", "id": 5477582374, "lat": 42.1322873, "lon": 24.7517021}, {"type": "node", "id": 5477582375, "lat": 42.1322986, "lon": 24.7516767}, {"type": "node", "id": 5477582376, "lat": 42.1322572, "lon": 24.751633}, {"type": "node", "id": 5477582377, "lat": 42.132273, "lon": 24.7516035}, {"type": "node", "id": 5477582378, "lat": 42.1322564, "lon": 24.7515872}, {"type": "node", "id": 5515389849, "lat": 42.1284343, "lon": 24.723743}, {"type": "node", "id": 5515389850, "lat": 42.1283438, "lon": 24.7239503}, {"type": "node", "id": 5515389851, "lat": 42.1285579, "lon": 24.724056}, {"type": "node", "id": 5515389852, "lat": 42.1285941, "lon": 24.7238609}, {"type": "node", "id": 5533481796, "lat": 42.0047152, "lon": 24.9401743}, {"type": "node", "id": 5533482865, "lat": 42.0047273, "lon": 24.9406793}, {"type": "node", "id": 5533482868, "lat": 42.0045638, "lon": 24.9404703}, {"type": "node", "id": 5533482870, "lat": 42.0045925, "lon": 24.940469}, {"type": "node", "id": 5533482911, "lat": 42.0044131, "lon": 24.9403891}, {"type": "node", "id": 5533482976, "lat": 42.0044082, "lon": 24.9401877}, {"type": "node", "id": 5533483028, "lat": 42.0045904, "lon": 24.9403814}, {"type": "node", "id": 5533483081, "lat": 42.004569, "lon": 24.9406862}, {"type": "node", "id": 5561238287, "lat": 42.1242607, "lon": 24.7284812, "tags": {"amenity": "cafe"}}, {"type": "node", "id": 5561252037, "lat": 42.1222713, "lon": 24.7513658, "tags": {"amenity": "restaurant", "name": "\u0427\u043e\u0440\u0431\u0430\u0434\u0436\u0438\u0438"}}, {"type": "node", "id": 5563504618, "lat": 42.1415579, "lon": 24.7181989, "tags": {"amenity": "cafe"}}, {"type": "node", "id": 5563657921, "lat": 42.1461309, "lon": 24.7485768, "tags": {"amenity": "restaurant", "name:en": "Parrilla and Asador"}}, {"type": "node", "id": 5564542122, "lat": 42.1486833, "lon": 24.7490129, "tags": {"amenity": "restaurant", "check_date": "2023-02-19", "name": "Sofra Turkish restaurant", "name:bg": "\u0421\u043e\u0444\u0440\u0430 \u0442\u0443\u0440\u0441\u043a\u0438 \u0440\u0435\u0441\u0442\u043e\u0440\u0430\u043d\u0442", "name:en": "Sofra Turkish restaurant", "opening_hours": "09:00-23:00", "phone": "+359 88 834 3459"}}, {"type": "node", "id": 5598144708, "lat": 41.8998, "lon": 24.7487211, "tags": {"amenity": "restaurant", "name": "\u0422\u0440\u0438\u0442\u0435 \u0411\u043e\u0440\u0430", "outdoor_seating": "yes"}}, {"type": "node", "id": 5620020021, "lat": 42.1509918, "lon": 24.7387183, "tags": {"addr:housenumber": "14", "addr:postcode": "4000", "addr:street": "\u042f\u043d\u043a\u043e \u0421\u0430\u043a\u044a\u0437\u043e\u0432", "amenity": "cafe", "internet_access": "wlan", "name": "\u0413\u0440\u0430\u0434\u0438\u043d\u0430\u0442\u0430", "name:en": "The Garden", "opening_hours": "Mo-Sa 07:00-22:00; Su 08:00-22:00"}}, {"type": "node", "id": 5642337622, "lat": 42.1492643, "lon": 24.7491854, "tags": {"amenity": "cafe", "name:en": "Central Perk"}}, {"type": "node", "id": 5646001550, "lat": 42.1480415, "lon": 24.7481102, "tags": {"addr:housenumber": "2", "addr:street": "\u0416\u0435\u043b\u0435\u0437\u0430\u0440\u0441\u043a\u0430", "amenity": "cafe", "bar": "no", "check_date": "2025-06-10", "cuisine": "cake;turkish", "diet:vegetarian": "yes", "internet_access": "wlan", "name": "Djumaia", "name:en": "Djumaia", "opening_hours": "Mo-Su 08:00-23:00", "outdoor_seating": "yes", "takeaway": "yes"}}, {"type": "node", "id": 5661651531, "lat": 41.8997636, "lon": 24.7407402, "tags": {"amenity": "restaurant", "cuisine": "regional", "name": "\u0421\u043e\u043b\u0435\u043d\u043e\u0442\u043e \u0438\u0437\u0432\u043e\u0440\u0447\u0435"}}, {"type": "node", "id": 5848411085, "lat": 42.1501198, "lon": 24.7480593, "tags": {"amenity": "restaurant", "cuisine": "burger", "internet_access": "wlan", "name:en": "Skaptobara", "opening_hours": "Mo-Su 10:00-23:00", "phone": "+359 87 966 9666"}}, {"type": "node", "id": 5856868304, "lat": 42.1498498, "lon": 24.7416826, "tags": {"amenity": "restaurant", "name": "\u0420\u0435\u0441\u0442\u043e\u0440\u0430\u043d\u0442 \u0413\u0440\u0430\u0434\u0438\u043d\u0430 XIX \u0412\u0435\u043a", "name:en": "Restaurant Garden XIX Century", "name:nl": "Restaurant Garden XIX Century"}}, {"type": "node", "id": 5888056417, "lat": 41.8958765, "lon": 24.7496223, "tags": {"amenity": "cafe", "name": "\u0414\u0432\u0430\u0442\u0430 \u0447\u0443\u0447\u0443\u0440\u0430"}}, {"type": "node", "id": 5894956024, "lat": 42.1415194, "lon": 24.7192322, "tags": {"amenity": "cafe", "brand": "Starbucks", "brand:wikidata": "Q37158", "cuisine": "coffee_shop", "internet_access": "wlan", "name": "Starbucks", "official_name": "Starbucks Coffee", "smoking": "outside", "takeaway": "yes"}}, {"type": "node", "id": 5907170955, "lat": 42.1297432, "lon": 24.7810498, "tags": {"amenity": "restaurant", "cuisine": "chinese", "name": "Asia", "opening_hours": "11:00-23:30", "website": "http://asia.zona.bg/"}}, {"type": "node", "id": 5907170956, "lat": 42.1296119, "lon": 24.78109, "tags": {"amenity": "restaurant", "cuisine": "regional", "name": "\u042e\u0436\u0435\u043d \u041f\u043e\u043b\u044a\u0445", "opening_hours": "10:00-00:00", "phone": "+359 87 767 7721", "website": "https://www.ujen-polah.com/trakia/"}}, {"type": "node", "id": 5989515463, "lat": 41.9437661, "lon": 24.8558968}, {"type": "node", "id": 5989515467, "lat": 41.9437689, "lon": 24.8561505}, {"type": "node", "id": 6047168688, "lat": 42.1482096, "lon": 24.7481892, "tags": {"amenity": "restaurant", "cuisine": "cake"}}, {"type": "node", "id": 6047168689, "lat": 42.1229191, "lon": 24.7359636, "tags": {"amenity": "restaurant", "cuisine": "balkan;french", "name": "\u0420\u0435\u043b\u0430\u043a\u0441", "name:en": "Relax"}}, {"type": "node", "id": 6146943685, "lat": 42.1474781, "lon": 24.7544103, "tags": {"access": "guests", "access:note": "The Wine Bar is open for Guests of the Hotel only", "access:source": "note/3485372", "air_conditioning": "yes", "amenity": "restaurant", "bar": "yes", "cuisine": "regional;international;italian;mediterranean;tapas;local", "email": "gustomitko@abv.bg", "internet_access": "wlan", "name": "\u0412\u0438\u043d\u0435\u043d\u0431\u0430\u0440 \u041a\u043e\u0440\u0435\u043d\u0438", "name:en": "Roots Wine Bar", "operator": "Mitko", "phone": "+359 87 884 0086", "website": "http://www.rootsbg.com"}}, {"type": "node", "id": 6201595104, "lat": 42.1415161, "lon": 24.7341415, "tags": {"amenity": "cafe", "name": "Mikel"}}, {"type": "node", "id": 6201595106, "lat": 42.1399708, "lon": 24.7290015, "tags": {"amenity": "restaurant", "name": "\u0420\u0435\u0442\u0440\u043e"}}, {"type": "node", "id": 6203423608, "lat": 42.0102628, "lon": 24.8420781, "tags": {"amenity": "cafe"}}, {"type": "node", "id": 6205364630, "lat": 42.1438152, "lon": 24.7496773, "tags": {"amenity": "restaurant", "check_date": "2023-05-20", "name": "\u0420\u0430\u0444\u0438", "opening_hours": "10:00-22:00", "operator": "\u0414\u043e\u043b\u0447\u0435 \u0412\u0438\u0442\u0430 2004 \u0415\u041e\u041e\u0414", "payment:credit_cards": "yes", "payment:debit_cards": "yes", "wheelchair": "no"}}, {"type": "node", "id": 6205364636, "lat": 42.1417747, "lon": 24.7535799, "tags": {"amenity": "restaurant", "cuisine": "pizza", "name": "Prego Pizza & Wine"}}, {"type": "node", "id": 6231873289, "lat": 42.2595483, "lon": 24.5411089, "tags": {"amenity": "cafe"}}, {"type": "node", "id": 6231873295, "lat": 42.2595974, "lon": 24.541059}, {"type": "node", "id": 6231873296, "lat": 42.2595199, "lon": 24.5409973}, {"type": "node", "id": 6231873297, "lat": 42.2594167, "lon": 24.5412065}, {"type": "node", "id": 6231873298, "lat": 42.2594922, "lon": 24.5412736}, {"type": "node", "id": 6293188340, "lat": 42.1261327, "lon": 24.7912744, "tags": {"amenity": "restaurant", "cuisine": "fish", "name": "\u0420\u0438\u0431\u0430\u0440\u043d\u0438\u043a\u0430", "phone": "+359 87 953 4140", "website": "https://ribarnikabg.com/"}}, {"type": "node", "id": 6293188369, "lat": 42.1298367, "lon": 24.7810712, "tags": {"amenity": "cafe", "name": "\u0412\u043e\u0434\u043e\u043b\u0435\u0439"}}, {"type": "node", "id": 6402590373, "lat": 42.1307039, "lon": 24.7778647, "tags": {"amenity": "restaurant", "name": "Chef's House"}}, {"type": "node", "id": 6402590380, "lat": 42.1314211, "lon": 24.7842635, "tags": {"amenity": "cafe", "name": "Destiny", "outdoor_seating": "yes"}}, {"type": "node", "id": 6402593750, "lat": 42.1329676, "lon": 24.7130357, "tags": {"amenity": "restaurant"}}, {"type": "node", "id": 6402593751, "lat": 42.1332411, "lon": 24.7129096, "tags": {"amenity": "restaurant", "cuisine": "fish", "name": "\u0421\u0438\u043d\u044c\u043e\u0442\u043e"}}, {"type": "node", "id": 6402602955, "lat": 42.1187002, "lon": 24.5609316, "tags": {"amenity": "restaurant", "name": "\u0412\u044a\u0447\u0430"}}, {"type": "node", "id": 6402602956, "lat": 42.1186245, "lon": 24.5633697, "tags": {"amenity": "restaurant", "name": "\u0416\u0430\u0440\u0430\u0432\u0430"}}, {"type": "node", "id": 6419793742, "lat": 42.1593036, "lon": 24.731172}, {"type": "node", "id": 6419793743, "lat": 42.1591524, "lon": 24.7312202}, {"type": "node", "id": 6419793744, "lat": 42.1591074, "lon": 24.7309632}, {"type": "node", "id": 6419793745, "lat": 42.1592585, "lon": 24.7309151}, {"type": "node", "id": 6431502785, "lat": 42.1491812, "lon": 24.7488049, "tags": {"addr:housenumber": "11", "addr:street": "\u0417\u043b\u0430\u0442\u0430\u0440\u0441\u043a\u0430", "amenity": "restaurant", "diet:vegan": "yes", "diet:vegetarian": "yes", "indoor_seating": "yes", "name": "Veggic", "outdoor_seating": "no", "phone": "+359 87 958 8988", "website": "https://veggic.bg", "website:menu": "https://menu.veggic.bg/en/"}}, {"type": "node", "id": 6514987784, "lat": 41.9428515, "lon": 24.8528123, "tags": {"amenity": "restaurant", "name": "\u041d\u0438\u0447\u0438\u043d\u043a\u043e\u0432", "name:en": "Bistro Nichinkov"}}, {"type": "node", "id": 6516415724, "lat": 42.1508455, "lon": 24.7391309, "tags": {"addr:housenumber": "10", "addr:street": "\u0431\u0443\u043b. \u0420\u0443\u0441\u043a\u0438", "amenity": "restaurant", "cuisine": "italian_pizza;pizza", "description": "\u0420\u0435\u0441\u0442\u043e\u0440\u0430\u043d\u0442-\u043f\u0438\u0446\u0430\u0440\u0438\u044f", "name": "Da Pietro", "phone": "+359 89 368 6733"}}, {"type": "node", "id": 6551198835, "lat": 42.0104504, "lon": 24.8742521}, {"type": "node", "id": 6551198836, "lat": 42.0104705, "lon": 24.8744064}, {"type": "node", "id": 6551198837, "lat": 42.0104128, "lon": 24.8743744}, {"type": "node", "id": 6594378685, "lat": 42.1437081, "lon": 24.7627194, "tags": {"addr:housenumber": "69", "addr:postcode": "4000", "addr:street": "\u0431\u0443\u043b. \u0418\u0437\u0442\u043e\u0447\u0435\u043d", "amenity": "restaurant", "bar": "yes", "brewery": "yes", "check_date": "2024-02-06", "cuisine": "international", "email": "pivovarnitzakamenitza@gmail.com", "internet_access": "wlan", "microbrewery": "yes", "name": "\u041f\u0438\u0432\u043e\u0432\u0430\u0440\u043d\u0438\u0446\u0430 FRIK&S", "name:en": "Brewhouse FRIK&S", "opening_hours": "Mo-Su 11:00-00:00", "operator": "Kamenitza", "phone": "+359 89 919 1881", "smoking": "outside", "website": "https://pivovarnitzakamenitza.bg/", "wikidata": "Q12282497"}}, {"type": "node", "id": 6594571681, "lat": 42.1467177, "lon": 24.7262147, "tags": {"amenity": "restaurant", "cuisine": "pizza", "name": "Pizza Chef"}}, {"type": "node", "id": 6594581785, "lat": 42.1468162, "lon": 24.7251686, "tags": {"amenity": "cafe"}}, {"type": "node", "id": 6594581787, "lat": 42.1467406, "lon": 24.7249071, "tags": {"amenity": "cafe", "name": "Angel & Tico"}}, {"type": "node", "id": 6594581790, "lat": 42.1461062, "lon": 24.723857, "tags": {"amenity": "cafe", "name": "Roxbury"}}, {"type": "node", "id": 6594581791, "lat": 42.1459093, "lon": 24.7238168, "tags": {"amenity": "restaurant", "name": "Moritz Classic"}}, {"type": "node", "id": 6594581797, "lat": 42.1460804, "lon": 24.7208583, "tags": {"amenity": "restaurant", "cuisine": "greek", "name": "\u041c\u0438\u043a\u043e\u043d\u043e\u0441", "name:bg": "\u041c\u0438\u043a\u043e\u043d\u043e\u0441", "name:en": "Mykonos"}}, {"type": "node", "id": 6594581799, "lat": 42.1456428, "lon": 24.7192906, "tags": {"amenity": "cafe", "name": "\u0421\u0430\u043d\u0442\u0435"}}, {"type": "node", "id": 6594581817, "lat": 42.1482897, "lon": 24.7159284, "tags": {"amenity": "restaurant", "name": "\u041c\u0435\u0442\u0435\u043e\u0440\u0430", "name:en": "Meteora"}}, {"type": "node", "id": 6594581818, "lat": 42.1478542, "lon": 24.7154537, "tags": {"amenity": "cafe", "name": "Escobar"}}, {"type": "node", "id": 6594581823, "lat": 42.147367, "lon": 24.7160464, "tags": {"amenity": "restaurant", "name": "\u0421\u043f\u043e\u0440\u0442 \u0425\u0430\u0443\u0441"}}, {"type": "node", "id": 6594581833, "lat": 42.147904, "lon": 24.7168404, "tags": {"amenity": "cafe"}}, {"type": "node", "id": 6594581838, "lat": 42.1478055, "lon": 24.7205204, "tags": {"amenity": "cafe", "name": "Nettuno"}}, {"type": "node", "id": 6633682489, "lat": 42.1631098, "lon": 24.7423866, "tags": {"amenity": "restaurant", "cuisine": "local", "name": "\u0417\u043b\u0430\u0442\u043d\u0430\u0442\u0430 \u0440\u0438\u0431\u043a\u0430"}}, {"type": "node", "id": 6703448892, "lat": 42.1486346, "lon": 24.7498132, "tags": {"amenity": "cafe", "contact:website": "http://www.coffeecraftex.com", "name": "\u0414\u044e\u043a\u044f\u043d\u044a", "outdoor_seating": "pedestrian_zone"}}, {"type": "node", "id": 6703543186, "lat": 42.149285, "lon": 24.7495627, "tags": {"addr:street": "\u0425\u0440\u0438\u0441\u0442\u043e \u0414\u044e\u043a\u043c\u0435\u0434\u0436\u0438\u0435\u0432", "amenity": "cafe", "check_date": "2025-06-09", "name:en": "Cu29", "outdoor_seating": "yes", "payment:cards": "no", "payment:cash": "only", "payment:credit_cards": "no", "payment:debit_cards": "no", "wheelchair": "no"}}, {"type": "node", "id": 6716135937, "lat": 41.9435837, "lon": 24.8555877}, {"type": "node", "id": 6716135938, "lat": 41.9435959, "lon": 24.8562384}, {"type": "node", "id": 6716135942, "lat": 41.9437456, "lon": 24.8562444}, {"type": "node", "id": 6716135943, "lat": 41.9437005, "lon": 24.8555866}, {"type": "node", "id": 6716135944, "lat": 41.9440229, "lon": 24.8550896, "tags": {"amenity": "restaurant", "cuisine": "regional", "name": "\u0427\u0430\u044f"}}, {"type": "node", "id": 6716135945, "lat": 41.9440532, "lon": 24.854492, "tags": {"amenity": "restaurant", "cuisine": "regional", "name": "\u0427\u0438\u043d\u0430\u0440\u0438\u0442\u0435"}}, {"type": "node", "id": 6781092009, "lat": 41.9451797, "lon": 24.9619916, "tags": {"addr:postcode": "4252", "amenity": "restaurant", "name": "\u041a\u043e\u043d\u0430\u043a\u0430", "phone": "+359877401164"}}, {"type": "node", "id": 6820631826, "lat": 42.1423644, "lon": 24.707399, "tags": {"amenity": "cafe", "name": "La Buena Mesa"}}, {"type": "node", "id": 6821972213, "lat": 42.0743789, "lon": 24.6632703, "tags": {"amenity": "cafe"}}, {"type": "node", "id": 6840258705, "lat": 42.1401183, "lon": 24.7943601, "tags": {"amenity": "restaurant", "cuisine": "regional", "name": "\u0425\u0435\u043f\u0438 \u0414\u0436\u043e"}}, {"type": "node", "id": 6858300757, "lat": 42.1422799, "lon": 24.758184, "tags": {"addr:city": "\u041f\u043b\u043e\u0432\u0434\u0438\u0432", "addr:housenumber": "66", "addr:street": "\u041a\u0430\u043f\u0438\u0442\u0430\u043d \u0420\u0430\u0439\u0447\u043e", "amenity": "restaurant", "name": "Torro Grande", "opening_hours": "07:00-02:00", "phone": "+359 88 539 9939", "website": "https://www.torrogrande.com/"}}, {"type": "node", "id": 6918356653, "lat": 42.0019456, "lon": 24.6197525, "tags": {"amenity": "restaurant", "name": "\u0411\u043e\u0439\u043a\u043e\u0432\u043e"}}, {"type": "node", "id": 6926372086, "lat": 42.1573895, "lon": 24.7378208, "tags": {"amenity": "cafe", "name": "Espresso&co"}}, {"type": "node", "id": 6926372595, "lat": 42.1509406, "lon": 24.7392316, "tags": {"amenity": "restaurant"}}, {"type": "node", "id": 6926372598, "lat": 42.1480216, "lon": 24.7372551, "tags": {"amenity": "cafe", "name": "Offline", "opening_hours": "Mo-Su 14:00-23:00"}}, {"type": "node", "id": 6926372685, "lat": 42.1508539, "lon": 24.7395006, "tags": {"amenity": "cafe", "name": "Bella Italia"}}, {"type": "node", "id": 6926372688, "lat": 42.1456745, "lon": 24.7304244, "tags": {"amenity": "cafe"}}, {"type": "node", "id": 6926372887, "lat": 42.1454142, "lon": 24.7298029, "tags": {"amenity": "cafe", "name": "Passione", "name:en": "Malvini"}}, {"type": "node", "id": 6927327488, "lat": 42.149488, "lon": 24.7499426, "tags": {"amenity": "cafe"}}, {"type": "node", "id": 6927329087, "lat": 42.1365447, "lon": 24.7385856, "tags": {"amenity": "cafe"}}, {"type": "node", "id": 6928060485, "lat": 42.1386523, "lon": 24.7223448, "tags": {"amenity": "cafe", "name": "West"}}, {"type": "node", "id": 6929952588, "lat": 42.1524283, "lon": 24.7462549, "tags": {"amenity": "restaurant"}}, {"type": "node", "id": 6932081888, "lat": 42.1603554, "lon": 24.7392689, "tags": {"amenity": "restaurant", "name": "\u0420\u043e\u0437\u043e\u0432\u043e\u0442\u043e"}}, {"type": "node", "id": 6932081890, "lat": 42.1597446, "lon": 24.7390421, "tags": {"amenity": "cafe", "name": "My place"}}, {"type": "node", "id": 6939291485, "lat": 42.1496146, "lon": 24.7500785, "tags": {"addr:housenumber": "78", "addr:postcode": "4000", "addr:street": "\u0413\u0435\u043e\u0440\u0433\u0438 \u0411\u0435\u043d\u043a\u043e\u0432\u0441\u043a\u0438", "amenity": "restaurant", "cuisine": "balkan;deli", "diet:vegan": "yes", "name": "Soup Pause", "phone": "+359 87 896 3490"}}, {"type": "node", "id": 6949412697, "lat": 42.2327694, "lon": 24.7240582, "tags": {"amenity": "cafe", "name": "\u0422\u043e\u0440\u043d\u0430\u0434\u043e"}}, {"type": "node", "id": 6949412712, "lat": 42.2408796, "lon": 24.7237283, "tags": {"amenity": "restaurant"}}, {"type": "node", "id": 7052019986, "lat": 42.1491871, "lon": 24.7471461, "tags": {"amenity": "restaurant", "name": "\u0427\u0435\u0440\u043f\u0430\u043a\u044a"}}, {"type": "node", "id": 7185004201, "lat": 42.0207617, "lon": 24.8561007, "tags": {"amenity": "cafe", "name": "\u0415\u043b\u0438\u0442"}}, {"type": "node", "id": 7220634428, "lat": 42.1492948, "lon": 24.749357, "tags": {"amenity": "restaurant", "cuisine": "regional", "name": "Bistro Retro"}}, {"type": "node", "id": 7236472849, "lat": 42.1369516, "lon": 24.7701305, "tags": {"amenity": "restaurant", "name": "Yassa Tepe"}}, {"type": "node", "id": 7236472861, "lat": 42.1429799, "lon": 24.7638555, "tags": {"amenity": "restaurant", "name": "Two Brothers"}}, {"type": "node", "id": 7243437186, "lat": 42.1370094, "lon": 24.7483095, "tags": {"amenity": "restaurant", "name": "\u041c\u0435\u043d\u044e 2"}}, {"type": "node", "id": 7243443785, "lat": 42.137492, "lon": 24.749264, "tags": {"amenity": "cafe", "name": "\u0417\u0435\u043b\u0435\u043d\u0430 \u0440\u0430\u0431\u043e\u0442\u0438\u043b\u043d\u043d\u0446\u0430"}}, {"type": "node", "id": 7508488524, "lat": 42.1409971, "lon": 24.7548446, "tags": {"amenity": "cafe"}}, {"type": "node", "id": 7508488525, "lat": 42.1399629, "lon": 24.7597343, "tags": {"amenity": "restaurant", "cuisine": "italian", "name": "\u041f\u0438\u043a\u0430\u043d\u0442\u0438\u043d\u043e", "website": "http://www.picantino-bg.com/"}}, {"type": "node", "id": 7525588653, "lat": 42.0621021, "lon": 24.7032496, "tags": {"amenity": "restaurant", "name": "\u0414\u0432\u0430\u0442\u0430 \u043e\u0440\u0435\u0445\u0430"}}, {"type": "node", "id": 7647174847, "lat": 42.1362575, "lon": 24.7501762, "tags": {"amenity": "restaurant", "name": "\u0413\u043e\u0441\u0442\u0438\u043b\u043d\u0438\u0446\u0430 \u0414\u0430\u043d\u0438", "takeaway": "only"}}, {"type": "node", "id": 7647174884, "lat": 42.1242905, "lon": 24.7476187, "tags": {"amenity": "restaurant", "name": "\u0424\u0438\u0435\u0441\u0442\u0430"}}, {"type": "node", "id": 7690771601, "lat": 42.1417474, "lon": 24.7896401, "tags": {"entrance": "yes"}}, {"type": "node", "id": 7690771602, "lat": 42.1418224, "lon": 24.7893804, "tags": {"entrance": "yes"}}, {"type": "node", "id": 7702423985, "lat": 42.1494506, "lon": 24.7495093, "tags": {"amenity": "cafe", "name:en": "SNACK Specialty Coffee"}}, {"type": "node", "id": 7702429086, "lat": 42.1476402, "lon": 24.7468303, "tags": {"amenity": "cafe", "name:en": "Dwell Coffee House"}}, {"type": "node", "id": 7702454687, "lat": 42.1484353, "lon": 24.7443295, "tags": {"amenity": "restaurant", "name:en": "Supa Bar"}}, {"type": "node", "id": 7702824686, "lat": 42.1518184, "lon": 24.7467883, "tags": {"amenity": "cafe", "check_date": "2023-10-23", "email": "roastery@thefamilycoffee.com", "internet_access": "wlan", "internet_access:fee": "customers", "name": "The Family Coffee Roasters", "name:en": "The Family Coffee Roasters", "opening_hours": "Mo-Fr 08:00-19:00; Sa 09:00-18:00; Su 10:00-18:00", "payment:cash": "yes", "payment:mastercard": "yes", "payment:visa": "yes", "phone": "+359 89 983 8348", "website": "https://thefamilycoffee.com/"}}, {"type": "node", "id": 7702845885, "lat": 42.1494332, "lon": 24.7476594, "tags": {"amenity": "restaurant", "name:en": "Pappa Yozzi"}}, {"type": "node", "id": 7704552186, "lat": 42.1483045, "lon": 24.7440234, "tags": {"amenity": "restaurant", "name:en": "Chili"}}, {"type": "node", "id": 7704700186, "lat": 42.1423751, "lon": 24.7454558, "tags": {"amenity": "cafe", "name:en": "Bee Bop Coffee"}}, {"type": "node", "id": 7704730286, "lat": 42.1501585, "lon": 24.7451622, "tags": {"addr:housenumber": "13", "addr:street": "\u041e\u043f\u044a\u043b\u0447\u0435\u043d\u0441\u043a\u0430", "amenity": "restaurant", "check_date": "2025-06-09", "check_date:opening_hours": "2025-06-09", "contact:phone": "+359 87 787 7658", "cuisine": "salad;pasta", "diet:gluten_free": "yes", "diet:healthy": "yes", "diet:vegan": "yes", "diet:vegetarian": "yes", "internet_access": "no", "name": "\u041f\u0440\u044f\u0441\u043d\u0430 \u043f\u0430\u0441\u0442\u0430", "name:en": "Fresh Pasta", "opening_hours": "Su 12:00-20:00,11:30-20:30", "operator": "\u0421\u0442\u0430\u0434\u0438 2008 \u0415\u041e\u041e\u0414", "payment:mastercard": "yes", "payment:visa": "yes", "wheelchair": "no"}}, {"type": "node", "id": 7705670185, "lat": 42.1516362, "lon": 24.7473663, "tags": {"amenity": "restaurant", "name:en": "Tomato"}}, {"type": "node", "id": 7706924685, "lat": 42.1494449, "lon": 24.7513443, "tags": {"amenity": "cafe", "name": "Satori magic cafe"}}, {"type": "node", "id": 7711404885, "lat": 42.1488301, "lon": 24.749062, "tags": {"amenity": "restaurant", "indoor_seating": "yes", "name": "\u0410\u0439\u043b\u044f\u043a\u0440\u0438\u044f", "name:en": "Aylyakria", "opening_hours": "Mo-Fr 12:00-23:00; Sa,Su 12:00-24:00", "outdoor_seating": "pedestrian_zone"}}, {"type": "node", "id": 7713611785, "lat": 41.9433074, "lon": 24.8550755, "tags": {"amenity": "restaurant", "name": "\u0410\u0431\u0434\u0435\u0440\u0430"}}, {"type": "node", "id": 7713611885, "lat": 41.9434784, "lon": 24.8552203, "tags": {"amenity": "restaurant", "name": "Blanco's"}}, {"type": "node", "id": 7714060791, "lat": 42.1425192, "lon": 24.7424862, "tags": {"amenity": "cafe", "name:en": "Coffee & Sweet"}}, {"type": "node", "id": 7762313402, "lat": 42.1486795, "lon": 24.7742638, "tags": {"amenity": "cafe", "name": "\u041b\u0438\u043b\u0438\u044f"}}, {"type": "node", "id": 7762313412, "lat": 42.147713, "lon": 24.7766033, "tags": {"amenity": "restaurant"}}, {"type": "node", "id": 7762313424, "lat": 42.1474505, "lon": 24.7777708, "tags": {"amenity": "cafe", "name": "\u0427\u0438\u043d\u0430\u0440\u0438\u0442\u0435"}}, {"type": "node", "id": 7910010073, "lat": 42.0552038, "lon": 24.5451629, "tags": {"amenity": "restaurant", "cuisine": "balkan", "name": "\u0420\u0435\u0441\u0442\u043e\u0440\u0430\u043d\u0442 \u043f\u0438\u0446\u0430 \u041f\u0435\u0440\u0443\u0449\u0438\u0446\u0430", "outdoor_seating": "yes"}}, {"type": "node", "id": 8014625201, "lat": 42.1223415, "lon": 24.7325717}, {"type": "node", "id": 8014625202, "lat": 42.122343, "lon": 24.7326347}, {"type": "node", "id": 8014625203, "lat": 42.1222993, "lon": 24.7327302}, {"type": "node", "id": 8014625204, "lat": 42.1221636, "lon": 24.7326489}, {"type": "node", "id": 8014625205, "lat": 42.1222035, "lon": 24.7325341}, {"type": "node", "id": 8014625206, "lat": 42.1221779, "lon": 24.7325097}, {"type": "node", "id": 8014625207, "lat": 42.1222035, "lon": 24.7324406}, {"type": "node", "id": 8014625208, "lat": 42.1223332, "lon": 24.732529}, {"type": "node", "id": 8164886718, "lat": 42.1168548, "lon": 24.7494487}, {"type": "node", "id": 8164886719, "lat": 42.116815, "lon": 24.7494207}, {"type": "node", "id": 8164886720, "lat": 42.1168314, "lon": 24.7495152}, {"type": "node", "id": 8164886721, "lat": 42.1167946, "lon": 24.7494907}, {"type": "node", "id": 8173797388, "lat": 42.1559122, "lon": 24.7440387, "tags": {"addr:city": "\u041f\u043b\u043e\u0432\u0434\u0438\u0432", "addr:housenumber": "11", "addr:postcode": "4003", "addr:street": "\u041d\u0435\u043e\u0444\u0438\u0442 \u0420\u0438\u043b\u0441\u043a\u0438", "amenity": "restaurant", "contact:facebook": "https://www.facebook.com/thegreenlemon.bg", "diet:vegan": "yes", "diet:vegetarian": "yes", "name": "\u0417\u0435\u043b\u0435\u043d\u0438\u044f\u0442 \u043b\u0438\u043c\u043e\u043d", "name:en": "The green lemon", "phone": "+359 87 965 5777"}}, {"type": "node", "id": 8359673875, "lat": 41.9108795, "lon": 24.7023976}, {"type": "node", "id": 8359673876, "lat": 41.9108849, "lon": 24.7024964}, {"type": "node", "id": 8359673877, "lat": 41.9107875, "lon": 24.702506}, {"type": "node", "id": 8359673878, "lat": 41.9107821, "lon": 24.7024072}, {"type": "node", "id": 8359673879, "lat": 41.9108834, "lon": 24.7024692}, {"type": "node", "id": 8399156621, "lat": 42.1589657, "lon": 24.7484583, "tags": {"amenity": "restaurant", "name": "\u041a\u043e\u043b\u0435\u043b\u043e\u0442\u043e"}}, {"type": "node", "id": 8622469158, "lat": 42.273538, "lon": 24.5435335, "tags": {"amenity": "cafe"}}, {"type": "node", "id": 8622469159, "lat": 42.2739091, "lon": 24.5437253, "tags": {"amenity": "cafe"}}, {"type": "node", "id": 8622469165, "lat": 42.272632, "lon": 24.5412603, "tags": {"amenity": "cafe"}}, {"type": "node", "id": 8622469187, "lat": 42.2738496, "lon": 24.545517, "tags": {"amenity": "restaurant", "name": "\u042e\u043d\u0430\u0439\u0442"}}, {"type": "node", "id": 8644237497, "lat": 42.1596716, "lon": 24.7412351, "tags": {"addr:housenumber": "140", "addr:street": "\u0431\u0443\u043b. \u0411\u044a\u043b\u0433\u0430\u0440\u0438\u044f", "amenity": "restaurant", "check_date:currency:XBT": "2025-05-15", "currency:XBT": "yes", "name": "Ememento", "opening_hours": "8:00 - 24:00", "payment:lightning": "yes", "payment:onchain": "yes", "phone": "+359893556945", "website": "https://ememento.bg/"}}, {"type": "node", "id": 8644237498, "lat": 42.1597173, "lon": 24.7418305, "tags": {"amenity": "cafe", "name": "Estrella"}}, {"type": "node", "id": 8644237499, "lat": 42.1609033, "lon": 24.7414899, "tags": {"amenity": "restaurant", "cuisine": "italian", "name": "Poco Loco"}}, {"type": "node", "id": 8655326417, "lat": 41.9508817, "lon": 24.8590381, "tags": {"amenity": "restaurant", "name": "\u041c\u0435\u0433\u0434\u0430\u043d\u0430"}}, {"type": "node", "id": 8837758211, "lat": 42.1004009, "lon": 24.7030642, "tags": {"amenity": "cafe"}}, {"type": "node", "id": 8837787778, "lat": 42.1025546, "lon": 24.7037897, "tags": {"amenity": "cafe"}}, {"type": "node", "id": 8873465975, "lat": 41.9107961, "lon": 24.5869345, "tags": {"amenity": "restaurant", "name": "\u041a\u0440\u044a\u0447\u043c\u0430 \u0429\u0430\u0439\u043d\u0435\u0440"}}, {"type": "node", "id": 8962912427, "lat": 42.1586546, "lon": 24.7337235, "tags": {"amenity": "restaurant", "name": "\u041f\u0438\u043b\u0435\u0442\u043e"}}, {"type": "node", "id": 8962912436, "lat": 42.1567189, "lon": 24.7395332, "tags": {"amenity": "restaurant"}}, {"type": "node", "id": 8995981862, "lat": 42.1348092, "lon": 25.0639354}, {"type": "node", "id": 8995981863, "lat": 42.134698, "lon": 25.0640737}, {"type": "node", "id": 8995981864, "lat": 42.1346467, "lon": 25.0640737}, {"type": "node", "id": 8995981865, "lat": 42.1346125, "lon": 25.0639959}, {"type": "node", "id": 8995981866, "lat": 42.1347643, "lon": 25.0638431}, {"type": "node", "id": 9026110614, "lat": 42.136609, "lon": 24.9787764}, {"type": "node", "id": 9026110615, "lat": 42.1366267, "lon": 24.9788236}, {"type": "node", "id": 9033881753, "lat": 42.1365985, "lon": 24.9788915}, {"type": "node", "id": 9033881754, "lat": 42.1367228, "lon": 24.9788067}, {"type": "node", "id": 9033881755, "lat": 42.1367083, "lon": 24.978768}, {"type": "node", "id": 9073617906, "lat": 42.1839296, "lon": 24.7384616, "tags": {"amenity": "restaurant", "name": "\u0413\u044a\u043b\u044a\u0431\u0430"}}, {"type": "node", "id": 9097098193, "lat": 42.1538218, "lon": 24.7708346, "tags": {"amenity": "cafe"}}, {"type": "node", "id": 9097098194, "lat": 42.1538546, "lon": 24.7709258, "tags": {"amenity": "restaurant", "name": "\u041a\u044e\u0444\u0442\u0435"}}, {"type": "node", "id": 9124357152, "lat": 42.1629422, "lon": 24.7623146, "tags": {"amenity": "restaurant"}}, {"type": "node", "id": 9124357160, "lat": 42.1616717, "lon": 24.7598818, "tags": {"amenity": "restaurant", "cuisine": "pizza", "name": "\u0412\u0435\u0440\u0434\u0438"}}, {"type": "node", "id": 9127762192, "lat": 41.9736011, "lon": 25.0527305}, {"type": "node", "id": 9127762193, "lat": 41.973675, "lon": 25.0527745}, {"type": "node", "id": 9127762194, "lat": 41.9736727, "lon": 25.0528805}, {"type": "node", "id": 9127762195, "lat": 41.9734591, "lon": 25.052725}, {"type": "node", "id": 9127762196, "lat": 41.9736002, "lon": 25.0527716}, {"type": "node", "id": 9127762197, "lat": 41.973458, "lon": 25.0527751}, {"type": "node", "id": 9127762198, "lat": 41.9735259, "lon": 25.0528747}, {"type": "node", "id": 9127762199, "lat": 41.973528, "lon": 25.0527778}, {"type": "node", "id": 9129905610, "lat": 42.1526785, "lon": 24.7117415, "tags": {"amenity": "cafe", "name": "\u0421\u044a\u0441\u0435\u0434\u0438\u0442\u0435"}}, {"type": "node", "id": 9129916243, "lat": 42.1609052, "lon": 24.7360745, "tags": {"amenity": "restaurant", "name": "\u0421\u043e\u0444\u0440\u0430\u0442\u0430"}}, {"type": "node", "id": 9129916244, "lat": 42.1601965, "lon": 24.7345617, "tags": {"amenity": "restaurant", "name": "\u0411\u043b\u0438\u0437\u043d\u0430\u0446\u0438\u0442\u0435"}}, {"type": "node", "id": 9136940943, "lat": 42.1399489, "lon": 24.7941457, "tags": {"amenity": "cafe", "opening_hours": "24/7"}}, {"type": "node", "id": 9136990569, "lat": 42.1338328, "lon": 24.7956303, "tags": {"amenity": "cafe"}}, {"type": "node", "id": 9136990570, "lat": 42.1347299, "lon": 24.796215, "tags": {"amenity": "restaurant", "name": "\u041a\u0430\u0442\u0430\u043b\u0435\u044f"}}, {"type": "node", "id": 9137177756, "lat": 42.1361322, "lon": 24.7662842, "tags": {"amenity": "cafe"}}, {"type": "node", "id": 9141461823, "lat": 42.1474843, "lon": 24.7783354, "tags": {"amenity": "restaurant", "takeaway": "only"}}, {"type": "node", "id": 9141541458, "lat": 42.1352759, "lon": 24.7944756, "tags": {"amenity": "cafe", "name": "\u0410\u0439\u043b\u044f\u043a"}}, {"type": "node", "id": 9192305770, "lat": 42.1557586, "lon": 24.7324119, "tags": {"amenity": "cafe", "opening_hours": "24/7"}}, {"type": "node", "id": 9192456493, "lat": 42.1237017, "lon": 24.7416133, "tags": {"amenity": "cafe", "name": "\u041a\u0430\u043f\u0430\u043d\u0447\u0435\u0442\u043e", "opening_hours": "24/7"}}, {"type": "node", "id": 9192456505, "lat": 42.1290362, "lon": 24.7266284, "tags": {"amenity": "restaurant", "name": "\u0412\u0430\u043b\u0434\u0435\u0441"}}, {"type": "node", "id": 9201821352, "lat": 42.1416027, "lon": 24.7943804, "tags": {"amenity": "restaurant", "name": "\u041a\u0430\u0432\u0430\u043a\u0430"}}, {"type": "node", "id": 9204514957, "lat": 42.156371, "lon": 24.7202347, "tags": {"amenity": "cafe", "name": "\u041a\u043b\u0443\u0431 1921"}}, {"type": "node", "id": 9204573605, "lat": 42.140643, "lon": 24.722811, "tags": {"amenity": "restaurant", "cuisine": "pizza", "name": "Speciale"}}, {"type": "node", "id": 9204573612, "lat": 42.1407485, "lon": 24.7232965, "tags": {"amenity": "restaurant", "cuisine": "fish", "name": "Musoni"}}, {"type": "node", "id": 9204573613, "lat": 42.1415042, "lon": 24.7241011, "tags": {"amenity": "cafe"}}, {"type": "node", "id": 9241151693, "lat": 42.1498389, "lon": 24.7262362, "tags": {"amenity": "restaurant", "name": "Le Petit Paris"}}, {"type": "node", "id": 9241164320, "lat": 42.1516355, "lon": 24.7255187, "tags": {"amenity": "cafe"}}, {"type": "node", "id": 9241164345, "lat": 42.1502495, "lon": 24.7285603, "tags": {"amenity": "restaurant", "name": "Tower"}}, {"type": "node", "id": 9242904802, "lat": 42.1227229, "lon": 24.7881818, "tags": {"amenity": "restaurant"}}, {"type": "node", "id": 9394453915, "lat": 42.1664581, "lon": 24.7367343, "tags": {"amenity": "restaurant", "name": "\u0424\u0438\u043b\u0438\u043f\u043e\u0432\u043e"}}, {"type": "node", "id": 9394458997, "lat": 42.1601319, "lon": 24.7296077, "tags": {"amenity": "restaurant", "cuisine": "turkish", "name": "\u041c\u0443\u0437\u0438"}}, {"type": "node", "id": 9404540984, "lat": 42.1428845, "lon": 24.7609225, "tags": {"amenity": "restaurant", "cuisine": "regional", "internet_access": "yes", "internet_access:fee": "no", "name": "\u0414\u043e\u043d \u041a\u0430\u043c\u0438\u043d\u043e", "name:en": "Don Camino", "smoking": "no", "wheelchair": "yes"}}, {"type": "node", "id": 9502795378, "lat": 42.1487759, "lon": 24.7498277, "tags": {"addr:city": "\u041f\u043b\u043e\u0432\u0434\u0438\u0432", "addr:housenumber": "6\u0410", "addr:postcode": "4000", "addr:street": "\u0410\u0431\u0430\u0434\u0436\u0438\u0439\u0441\u043a\u0430", "air_conditioning": "yes", "amenity": "cafe", "bar": "yes", "cuisine": "mixed international", "internet_access": "yes", "internet_access:fee": "facebook.com/MultiCultiPlovdiv", "level": "0", "name": "Multi Culti", "opening_hours": "Mo-Su 10:00-23:00", "outdoor_seating": "yes", "payment:cash": "yes", "payment:contactless": "yes", "payment:credit_cards": "yes", "payment:debit_cards": "yes", "payment:mastercard": "yes", "payment:visa": "yes", "phone": "+359 88 688 7859"}}, {"type": "node", "id": 9534092302, "lat": 42.137956, "lon": 24.7188923, "tags": {"amenity": "restaurant"}}, {"type": "node", "id": 9554158290, "lat": 42.1601865, "lon": 24.7392596, "tags": {"amenity": "cafe"}}, {"type": "node", "id": 9702986295, "lat": 42.1355613, "lon": 24.741392, "tags": {"amenity": "restaurant", "cuisine": "chinese", "name": "\u0424\u044a\u043d-\u0418", "opening_hours": "10:30-22:30"}}, {"type": "node", "id": 9703047351, "lat": 42.1471085, "lon": 24.7298786, "tags": {"amenity": "cafe", "name": "\u0414\u0435\u0441\u0438"}}, {"type": "node", "id": 9722881332, "lat": 42.1923561, "lon": 24.6978959, "tags": {"amenity": "restaurant", "name": "Frigopan", "website": "https://www.hotelfrigopan-plovdiv.com/#Restaurant"}}, {"type": "node", "id": 9724268152, "lat": 42.1437337, "lon": 24.727242, "tags": {"amenity": "restaurant", "cuisine": "italian", "name": "\u042e\u0436\u0435\u043d \u041f\u043e\u043b\u044a\u0445"}}, {"type": "node", "id": 9738202728, "lat": 42.1487722, "lon": 24.7487043, "tags": {"amenity": "restaurant", "cuisine": "burger;steak_house", "internet_access": "wlan", "name": "Street Chef"}}, {"type": "node", "id": 9767523560, "lat": 42.1257089, "lon": 24.7192678, "tags": {"amenity": "cafe", "name": "The Modar"}}, {"type": "node", "id": 9767523561, "lat": 42.1254593, "lon": 24.7196111, "tags": {"amenity": "restaurant", "name": "Modar Food & Drinks", "website": "https://www.modarplovdiv.com/"}}, {"type": "node", "id": 9767595322, "lat": 42.1231616, "lon": 24.6880469, "tags": {"amenity": "cafe"}}, {"type": "node", "id": 9777683443, "lat": 42.0204028, "lon": 24.9934206, "tags": {"amenity": "cafe", "bar": "yes", "food": "yes"}}, {"type": "node", "id": 9891379551, "lat": 42.0238964, "lon": 24.7609801, "tags": {"amenity": "restaurant"}}, {"type": "node", "id": 9891379552, "lat": 42.0238418, "lon": 24.7611955, "tags": {"amenity": "restaurant"}}, {"type": "node", "id": 9917387884, "lat": 42.1618686, "lon": 24.7560006, "tags": {"amenity": "cafe"}}, {"type": "node", "id": 9931886412, "lat": 42.1651381, "lon": 24.7493286, "tags": {"amenity": "restaurant"}}, {"type": "node", "id": 9950989763, "lat": 42.1581177, "lon": 24.7175914, "tags": {"amenity": "cafe"}}, {"type": "node", "id": 9972628065, "lat": 42.135976, "lon": 24.706758, "tags": {"amenity": "cafe"}}, {"type": "node", "id": 9972628131, "lat": 42.134339, "lon": 24.7075747, "tags": {"addr:city": "\u041f\u043b\u043e\u0432\u0434\u0438\u0432", "addr:housenumber": "3", "addr:postcode": "4000", "addr:street": "\u0420\u0430\u044f", "amenity": "cafe", "check_date:currency:XBT": "2023-02-07", "currency:XBT": "yes", "name": "Coffeemade", "payment:lightning": "yes", "payment:lightning_contactless": "no", "payment:onchain": "yes", "website": "https://coffeemadebg.com/"}}, {"type": "node", "id": 9972628135, "lat": 42.1339363, "lon": 24.7079918, "tags": {"amenity": "cafe", "name": "\u0420\u0430\u044f \u041a\u0430\u0444\u0435"}}, {"type": "node", "id": 9972628141, "lat": 42.13344, "lon": 24.7081809, "tags": {"amenity": "cafe", "name": "Vianor"}}, {"type": "node", "id": 10121025421, "lat": 42.0767924, "lon": 24.5966291, "tags": {"amenity": "cafe"}}, {"type": "node", "id": 10140133159, "lat": 42.1245392, "lon": 24.7215356, "tags": {"amenity": "restaurant", "name": "Organica"}}, {"type": "node", "id": 10140133163, "lat": 42.1245432, "lon": 24.7210018, "tags": {"amenity": "restaurant", "cuisine": "pizza", "name": "Pizza Amerigo"}}, {"type": "node", "id": 10159062395, "lat": 42.0347135, "lon": 24.7859917, "tags": {"amenity": "cafe"}}, {"type": "node", "id": 10203960592, "lat": 42.1345827, "lon": 25.0660653, "tags": {"amenity": "restaurant", "name": "Elias"}}, {"type": "node", "id": 10279322118, "lat": 42.0205026, "lon": 24.8953415}, {"type": "node", "id": 10279322119, "lat": 42.020406, "lon": 24.8954241}, {"type": "node", "id": 10279322120, "lat": 42.0203638, "lon": 24.8953347}, {"type": "node", "id": 10279322121, "lat": 42.0203337, "lon": 24.8953604}, {"type": "node", "id": 10279322122, "lat": 42.0202768, "lon": 24.8952399}, {"type": "node", "id": 10279322123, "lat": 42.0204307, "lon": 24.8951084}, {"type": "node", "id": 10279322124, "lat": 42.0204569, "lon": 24.8951639}, {"type": "node", "id": 10279322125, "lat": 42.0204298, "lon": 24.8951871}, {"type": "node", "id": 10280297798, "lat": 41.9603313, "lon": 24.8612511}, {"type": "node", "id": 10280297799, "lat": 41.9601564, "lon": 24.8612595}, {"type": "node", "id": 10280297800, "lat": 41.9601603, "lon": 24.8614054}, {"type": "node", "id": 10280297801, "lat": 41.9601192, "lon": 24.8614074}, {"type": "node", "id": 10280297802, "lat": 41.9601062, "lon": 24.860925}, {"type": "node", "id": 10280297803, "lat": 41.960179, "lon": 24.8609215}, {"type": "node", "id": 10280297804, "lat": 41.9603278, "lon": 24.8611201}, {"type": "node", "id": 10280297805, "lat": 41.9601845, "lon": 24.861127}, {"type": "node", "id": 10280297806, "lat": 41.9601935, "lon": 24.8611266}, {"type": "node", "id": 10314705959, "lat": 42.1411393, "lon": 24.7738065, "tags": {"amenity": "restaurant", "name": "Elidas"}}, {"type": "node", "id": 10314705986, "lat": 42.1402731, "lon": 24.7692762, "tags": {"amenity": "restaurant", "name": "\u041c\u0435\u0445\u0430\u043d\u0430 \"\u0427\u0443\u0448\u043b\u0435\u0442\u043e\""}}, {"type": "node", "id": 10314706059, "lat": 42.141713, "lon": 24.7801231, "tags": {"amenity": "restaurant", "cuisine": "pizza", "name": "7"}}, {"type": "node", "id": 10314706062, "lat": 42.1421635, "lon": 24.7799326, "tags": {"amenity": "restaurant", "cuisine": "steak_house", "name": "Djanam"}}, {"type": "node", "id": 10588640347, "lat": 42.1478236, "lon": 24.7177302}, {"type": "node", "id": 10588640348, "lat": 42.1478427, "lon": 24.7178381}, {"type": "node", "id": 10588640349, "lat": 42.1477732, "lon": 24.7178604}, {"type": "node", "id": 10588640350, "lat": 42.1477339, "lon": 24.7176379}, {"type": "node", "id": 10588640351, "lat": 42.1476808, "lon": 24.717655}, {"type": "node", "id": 10588640352, "lat": 42.1476549, "lon": 24.7175084}, {"type": "node", "id": 10588640353, "lat": 42.1477893, "lon": 24.7174652}, {"type": "node", "id": 10588640354, "lat": 42.1478355, "lon": 24.7177264}, {"type": "node", "id": 10588640371, "lat": 42.1454192, "lon": 24.7135044}, {"type": "node", "id": 10588640372, "lat": 42.1453806, "lon": 24.7133879}, {"type": "node", "id": 10588640373, "lat": 42.1453974, "lon": 24.7133778}, {"type": "node", "id": 10588640374, "lat": 42.1453817, "lon": 24.7133304}, {"type": "node", "id": 10588640375, "lat": 42.1453687, "lon": 24.7133382}, {"type": "node", "id": 10588640376, "lat": 42.1453406, "lon": 24.7132532}, {"type": "node", "id": 10588640377, "lat": 42.1452332, "lon": 24.7133178}, {"type": "node", "id": 10588640378, "lat": 42.1452703, "lon": 24.7134297}, {"type": "node", "id": 10588640379, "lat": 42.1452932, "lon": 24.7134159}, {"type": "node", "id": 10588640380, "lat": 42.1453454, "lon": 24.7135736}, {"type": "node", "id": 10588640381, "lat": 42.1453771, "lon": 24.7135545}, {"type": "node", "id": 10588640382, "lat": 42.1453976, "lon": 24.7136165}, {"type": "node", "id": 10588640383, "lat": 42.1453587, "lon": 24.71364}, {"type": "node", "id": 10588640384, "lat": 42.1454194, "lon": 24.7138231}, {"type": "node", "id": 10588640385, "lat": 42.1456007, "lon": 24.7137139}, {"type": "node", "id": 10588640386, "lat": 42.145545, "lon": 24.7135455}, {"type": "node", "id": 10588640387, "lat": 42.1454622, "lon": 24.7135954}, {"type": "node", "id": 10588640388, "lat": 42.1454299, "lon": 24.7134979}, {"type": "node", "id": 10610787947, "lat": 42.1416951, "lon": 24.7535789, "tags": {"addr:city": "\u041f\u043b\u043e\u0432\u0434\u0438\u0432", "addr:housenumber": "50", "addr:postcode": "4000", "addr:street": "\u041a\u0430\u043f\u0438\u0442\u0430\u043d \u0420\u0430\u0439\u0447\u043e", "air_conditioning": "yes", "amenity": "cafe", "bar": "yes", "internet_access": "wlan", "internet_access:fee": "customers", "name": "Scarab Lounge", "opening_hours": "Mo-Su 11:00-24:00", "outdoor_seating": "yes", "toilets": "yes"}}, {"type": "node", "id": 10611587528, "lat": 42.1425999, "lon": 24.7452039, "tags": {"air_conditioning": "yes", "amenity": "cafe", "internet_access": "wlan", "internet_access:fee": "no", "name": "Cooldown", "outdoor_seating": "no"}}, {"type": "node", "id": 10737763036, "lat": 42.135444, "lon": 24.7160706, "tags": {"amenity": "cafe"}}, {"type": "node", "id": 10737763037, "lat": 42.1352073, "lon": 24.7161122, "tags": {"amenity": "cafe"}}, {"type": "node", "id": 10737763049, "lat": 42.1348542, "lon": 24.7180957, "tags": {"amenity": "cafe", "name": "Nikano"}}, {"type": "node", "id": 10745036738, "lat": 42.1576031, "lon": 24.7291975, "tags": {"amenity": "restaurant", "cuisine": "barbecue", "name": "GO Grill"}}, {"type": "node", "id": 10747755725, "lat": 42.1724811, "lon": 24.7415145, "tags": {"amenity": "cafe", "name": "The Family"}}, {"type": "node", "id": 10747763071, "lat": 42.1750568, "lon": 24.7424488, "tags": {"amenity": "cafe"}}, {"type": "node", "id": 10747763098, "lat": 42.1655993, "lon": 24.7437604, "tags": {"amenity": "cafe"}}, {"type": "node", "id": 10761689521, "lat": 42.1693735, "lon": 24.7525392, "tags": {"amenity": "restaurant", "name": "Kervan Saray"}}, {"type": "node", "id": 10761769436, "lat": 42.1631221, "lon": 24.7616293, "tags": {"amenity": "cafe", "name": "Live Cafe"}}, {"type": "node", "id": 10787641532, "lat": 42.147197, "lon": 24.7349037, "tags": {"amenity": "cafe"}}, {"type": "node", "id": 10788123206, "lat": 42.1440698, "lon": 24.7220948, "tags": {"amenity": "restaurant", "name": "\u041b\u0430\u0433\u0443\u043d\u0430"}}, {"type": "node", "id": 10809880137, "lat": 42.149512, "lon": 24.7487401, "tags": {"amenity": "cafe", "contact:instagram": "@bobata_bubbleteas", "name": "BOBATA Bubble Tea", "opening_hours": "Tu-Su 12:00-18:00"}}, {"type": "node", "id": 10937833439, "lat": 42.2325015, "lon": 24.7268325}, {"type": "node", "id": 10937833440, "lat": 42.232174, "lon": 24.72678}, {"type": "node", "id": 10937833441, "lat": 42.2321814, "lon": 24.7269516}, {"type": "node", "id": 10937833442, "lat": 42.2324364, "lon": 24.7270919}, {"type": "node", "id": 10969217205, "lat": 42.1488068, "lon": 24.7488819, "tags": {"addr:housenumber": "2", "addr:postcode": "4000", "addr:street": "\u041f\u0430\u0432\u0435\u043b \u041a\u0443\u0440\u0442\u0435\u0432\u0438\u0447", "amenity": "restaurant", "cuisine": "balkan;international", "indoor_seating": "yes", "name": "\u0424\u0435\u0441\u0442\u0438\u0432\u0430\u043b", "name:en": "Festival", "opening_hours": "Mo-Su 11:00-23:00", "outdoor_seating": "pedestrian_zone"}}, {"type": "node", "id": 10979116906, "lat": 42.1473201, "lon": 24.7482729, "tags": {"addr:housenumber": "1", "addr:postcode": "4000", "addr:street": "\u041a\u043d\u044f\u0437 \u0410\u043b\u0435\u043a\u0441\u0430\u043d\u0434\u044a\u0440 I \u0411\u0430\u0442\u0435\u043d\u0431\u0435\u0440\u0433", "amenity": "cafe", "internet_access": "wlan", "name:en": "Mekitsa & Coffee", "opening_hours": "Mo-Su 09:00-19:00"}}, {"type": "node", "id": 11005460119, "lat": 41.9013461, "lon": 24.7488086, "tags": {"addr:city": "\u041d\u0430\u0440\u0435\u0447\u0435\u043d\u0438 \u0431\u0430\u043d\u0438", "addr:place": "\u043f\u043b. \u0417\u0430\u0440\u0435\u043d\u0438\u0446\u0430", "amenity": "restaurant", "check_date": "2023-06-25", "contact:phone": "+35989542225", "internet_access": "no", "name": "\u041c\u0435\u0445\u0430\u043d\u0430 \"\u0420\u0430\u0439\"", "opening_hours": "07:30-22:30", "payment:mastercard": "yes", "payment:visa": "yes", "wheelchair": "no"}}, {"type": "node", "id": 11007184340, "lat": 42.2372198, "lon": 24.6879745, "tags": {"amenity": "cafe", "name": "\u041d\u0430\u0441\u0438"}}, {"type": "node", "id": 11024168730, "lat": 42.0771254, "lon": 24.5959451, "tags": {"amenity": "restaurant", "name": "\u041a\u043e\u0442\u0430\u0440\u043e\u0432\u0438"}}, {"type": "node", "id": 11098987350, "lat": 42.1269697, "lon": 24.7747701, "tags": {"amenity": "restaurant", "name": "Domenic"}}, {"type": "node", "id": 11098987388, "lat": 42.1355036, "lon": 24.7960621, "tags": {"amenity": "restaurant", "name": "Soup Soul"}}, {"type": "node", "id": 11098987394, "lat": 42.1328999, "lon": 24.7951247, "tags": {"amenity": "restaurant", "name": "La Cucina"}}, {"type": "node", "id": 11118261008, "lat": 42.13695, "lon": 24.7000929, "tags": {"amenity": "cafe", "name": "Regatta stop", "outdoor_seating": "yes"}}, {"type": "node", "id": 11146803807, "lat": 42.1623548, "lon": 24.7345985, "tags": {"addr:city": "\u041f\u043b\u043e\u0432\u0434\u0438\u0432", "addr:housenumber": "5", "addr:postcode": "4000", "addr:street": "\u0431\u0443\u043b. \u0414\u0443\u043d\u0430\u0432", "amenity": "restaurant", "cuisine": "mexican", "diet:vegan": "yes", "diet:vegetarian": "yes", "name": "\u0421\u043e\u043c\u0431\u0440\u0435\u0440\u043e", "name:en": "Sombrero", "opening_hours": "Mo-Su 11:00-23:00", "phone": "+359 32 336 179", "website": "https://sombrero.bg/"}}, {"type": "node", "id": 11242940106, "lat": 42.1287734, "lon": 24.7040382, "tags": {"amenity": "cafe"}}, {"type": "node", "id": 11242951737, "lat": 42.1255438, "lon": 24.6879825, "tags": {"amenity": "cafe", "name": "Absolut"}}, {"type": "node", "id": 11242987350, "lat": 42.1304165, "lon": 24.7021607, "tags": {"amenity": "cafe"}}, {"type": "node", "id": 11245632288, "lat": 42.1487812, "lon": 24.7496692, "tags": {"amenity": "restaurant", "indoor_seating": "yes", "name": "Bulgar", "outdoor_seating": "yes"}}, {"type": "node", "id": 11245688526, "lat": 42.1476777, "lon": 24.7477767, "tags": {"amenity": "cafe", "cuisine": "bubble_tea", "indoor_seating": "yes", "name": "Bubble House", "opening_hours": "Mo-Su 12:00-23:00", "outdoor_seating": "no", "wheelchair": "no"}}, {"type": "node", "id": 11245688527, "lat": 42.1487677, "lon": 24.7500304, "tags": {"amenity": "restaurant", "indoor_seating": "yes", "name": "Triologie", "outdoor_seating": "yes"}}, {"type": "node", "id": 11245703337, "lat": 42.1441747, "lon": 24.7497076, "tags": {"amenity": "restaurant", "bar": "yes", "brewery": "various", "check_date": "2025-06-09", "diet:vegetarian": "yes", "indoor_seating": "yes", "name": "Atlas", "outdoor_seating": "pedestrian_zone", "payment:cash": "yes", "payment:credit_cards": "yes", "payment:debit_cards": "yes", "takeaway": "yes", "toilets": "yes"}}, {"type": "node", "id": 11250606000, "lat": 42.1493991, "lon": 24.7487161, "tags": {"amenity": "cafe", "cuisine": "italian", "indoor_seating": "yes", "name": "Divino", "opening_hours": "Tu-Su 09:00-23:00", "outdoor_seating": "yes", "phone": "+359897777840"}}, {"type": "node", "id": 11264986838, "lat": 42.1473546, "lon": 24.7485335, "tags": {"addr:housenumber": "1", "addr:street": "\u041e\u0442\u0435\u0446 \u041f\u0430\u0438\u0441\u0438\u0439", "amenity": "restaurant", "cuisine": "pizza", "name": "Piacere"}}, {"type": "node", "id": 11359039026, "lat": 42.1520831, "lon": 24.792804}, {"type": "node", "id": 11359039027, "lat": 42.1520772, "lon": 24.7929475}, {"type": "node", "id": 11359039028, "lat": 42.1519074, "lon": 24.7929347}, {"type": "node", "id": 11359039029, "lat": 42.1519134, "lon": 24.7927912}, {"type": "node", "id": 11359663708, "lat": 42.1530016, "lon": 24.7924961}, {"type": "node", "id": 11359663709, "lat": 42.1530682, "lon": 24.792594}, {"type": "node", "id": 11359663710, "lat": 42.1529956, "lon": 24.7925873}, {"type": "node", "id": 11359663711, "lat": 42.153189, "lon": 24.792517}, {"type": "node", "id": 11359663712, "lat": 42.1530732, "lon": 24.7925048}, {"type": "node", "id": 11359663713, "lat": 42.1530697, "lon": 24.7926772}, {"type": "node", "id": 11359663714, "lat": 42.1532661, "lon": 24.7926852}, {"type": "node", "id": 11359663715, "lat": 42.1532715, "lon": 24.7926208}, {"type": "node", "id": 11359663716, "lat": 42.1532725, "lon": 24.792529}, {"type": "node", "id": 11359663717, "lat": 42.153189, "lon": 24.7925229}, {"type": "node", "id": 11370727788, "lat": 42.0082756, "lon": 24.8768995}, {"type": "node", "id": 11370727815, "lat": 42.0082676, "lon": 24.8768804}, {"type": "node", "id": 11370727816, "lat": 42.0083454, "lon": 24.8767669}, {"type": "node", "id": 11370727818, "lat": 42.0084276, "lon": 24.8767542}, {"type": "node", "id": 11370727819, "lat": 42.0084364, "lon": 24.8768027}, {"type": "node", "id": 11370727820, "lat": 42.0084535, "lon": 24.8768299}, {"type": "node", "id": 11370727821, "lat": 42.0083518, "lon": 24.8769875}, {"type": "node", "id": 11370727822, "lat": 42.0083403, "lon": 24.8767118}, {"type": "node", "id": 11370727824, "lat": 42.0083884, "lon": 24.8769308, "tags": {"entrance": "yes"}}, {"type": "node", "id": 11389440356, "lat": 42.2115496, "lon": 24.8035021, "tags": {"air_conditioning": "yes", "amenity": "cafe", "indoor_seating": "yes", "outdoor_seating": "no"}}, {"type": "node", "id": 11402805069, "lat": 41.8850537, "lon": 24.9418741, "tags": {"addr:postcode": "4255", "amenity": "restaurant", "name": "\u0413\u043e\u0441\u0442\u0438\u043b\u043d\u0438\u0446\u0430 \u043f\u0440\u0438 \u043c\u0430\u043c\u0430 \u0421\u043e\u043d\u0447\u0435", "phone": "+359893416965"}}, {"type": "node", "id": 11559490270, "lat": 42.1340733, "lon": 24.7984983, "tags": {"amenity": "cafe", "cuisine": "cake;coffee_shop", "name": "\u0422\u043e\u0440\u0442\u0438 \u0410\u043b\u0438\u0441", "name:en": "Alice Cakes & Coffee"}}, {"type": "node", "id": 11728383735, "lat": 42.1448227, "lon": 24.7812871, "tags": {"amenity": "cafe", "brand": "Starbucks", "brand:wikidata": "Q37158", "cuisine": "coffee_shop", "name": "Starbucks", "official_name": "Starbucks Coffee", "takeaway": "yes"}}, {"type": "node", "id": 11736992033, "lat": 42.1066465, "lon": 24.8498603, "tags": {"addr:city": "Yagodovo", "addr:housenumber": "15", "addr:postcode": "4113", "addr:street": "\u0425\u0430\u043d \u0410\u0441\u043f\u0430\u0440\u0443\u0445", "air_conditioning": "no", "amenity": "cafe", "capacity": "50", "contact:facebook": "https://facebook.com/lfmap", "cuisine": "coffee;salad;sandwich;drinks;beer;breakfast;snacks;cake;fresh_drinks", "internet_access": "yes", "internet_access:fee": "no", "name": "La Familia", "opening_hours": "Mo-Fr 07:00-22:00", "phone": "+359896775303"}}, {"type": "node", "id": 11748808941, "lat": 42.1268592, "lon": 24.7763906}, {"type": "node", "id": 11748808942, "lat": 42.1266986, "lon": 24.7764724}, {"type": "node", "id": 11748808943, "lat": 42.1267754, "lon": 24.7767469}, {"type": "node", "id": 11748808944, "lat": 42.1269361, "lon": 24.7766651}, {"type": "node", "id": 11749017093, "lat": 42.1367869, "lon": 24.7680513}, {"type": "node", "id": 11749017094, "lat": 42.1364877, "lon": 24.7682432}, {"type": "node", "id": 11749017095, "lat": 42.1365761, "lon": 24.7684938}, {"type": "node", "id": 11749017096, "lat": 42.1368753, "lon": 24.7683018}, {"type": "node", "id": 11749017107, "lat": 42.1486872, "lon": 24.7743424, "tags": {"amenity": "restaurant", "cuisine": "seafood", "name": "Fish & Grill La Playa"}}, {"type": "node", "id": 11799215474, "lat": 42.1474305, "lon": 24.7484273, "tags": {"amenity": "restaurant", "name": "Kalimera"}}, {"type": "node", "id": 11854212669, "lat": 42.1212495, "lon": 24.7304206, "tags": {"amenity": "cafe", "name": "Delicious coffee & food", "outdoor_seating": "yes"}}, {"type": "node", "id": 11869043266, "lat": 42.0174016, "lon": 24.8235702}, {"type": "node", "id": 11869043267, "lat": 42.017336, "lon": 24.8235355}, {"type": "node", "id": 11869043268, "lat": 42.0173021, "lon": 24.8236512}, {"type": "node", "id": 11869056869, "lat": 42.0173656, "lon": 24.8236849}, {"type": "node", "id": 11869056870, "lat": 42.017386, "lon": 24.8236232}, {"type": "node", "id": 11869056871, "lat": 42.0174135, "lon": 24.8236378}, {"type": "node", "id": 11869056872, "lat": 42.0174003, "lon": 24.8236828}, {"type": "node", "id": 11869056873, "lat": 42.0173708, "lon": 24.8236672}, {"type": "node", "id": 11888281378, "lat": 42.1483243, "lon": 24.7492419, "tags": {"amenity": "restaurant", "cuisine": "lebanese", "diet:vegan": "yes", "name": "Mayriges", "outdoor_seating": "yes", "website": "https://mayriges.com/"}}, {"type": "node", "id": 11953233069, "lat": 42.1377108, "lon": 24.7371911, "tags": {"amenity": "cafe", "name": "\u041a\u0430\u0444\u0435"}}, {"type": "node", "id": 12037493637, "lat": 42.1276301, "lon": 24.7943093, "tags": {"amenity": "restaurant", "cuisine": "pizza", "name": "Odeon"}}, {"type": "node", "id": 12038158307, "lat": 42.1268593, "lon": 24.7872397, "tags": {"amenity": "cafe"}}, {"type": "node", "id": 12039948156, "lat": 42.1268467, "lon": 24.7767106}, {"type": "node", "id": 12039948157, "lat": 42.1269341, "lon": 24.7766661}, {"type": "node", "id": 12039948158, "lat": 42.1269549, "lon": 24.7767348}, {"type": "node", "id": 12039948159, "lat": 42.1268685, "lon": 24.7767824}, {"type": "node", "id": 12040173317, "lat": 42.1308897, "lon": 24.7843937, "tags": {"amenity": "cafe"}}, {"type": "node", "id": 12278758530, "lat": 42.1377298, "lon": 24.7443478, "tags": {"amenity": "cafe", "name": "\u0421\u0442\u0430\u043d\u0446\u0438\u043e\u043d\u043d\u0430"}}, {"type": "node", "id": 12282311319, "lat": 42.1365036, "lon": 24.7380937, "tags": {"amenity": "cafe"}}, {"type": "node", "id": 12282311320, "lat": 42.1364081, "lon": 24.7379448, "tags": {"amenity": "restaurant", "name": "\u0423\u0441\u043c\u0438\u0432\u043a\u0430\u0442\u0430"}}, {"type": "node", "id": 12329420923, "lat": 42.1554246, "lon": 24.7446907, "tags": {"addr:city": "\u041f\u043b\u043e\u0432\u0434\u0438\u0432", "addr:postcode": "4003", "amenity": "restaurant", "branch": "Grand Hotel Plovdiv", "brand": "Happy Bar & Grill", "brand:wikidata": "Q112056203", "cuisine": "international", "name": "Happy Bar & Grill", "opening_hours": "Mo-Su 11:00-23:00", "phone": "+35970020888", "website": "https://happy.bg/"}}, {"type": "node", "id": 12355468779, "lat": 42.1432924, "lon": 24.7494961, "tags": {"addr:city": "\u041f\u043b\u043e\u0432\u0434\u0438\u0432", "addr:housenumber": "52", "addr:postcode": "4000", "addr:street": "\u041a\u043d\u044f\u0437 \u0410\u043b\u0435\u043a\u0441\u0430\u043d\u0434\u044a\u0440 I \u0411\u0430\u0442\u0435\u043d\u0431\u0435\u0440\u0433", "amenity": "restaurant", "cuisine": "pizza", "name": "Pizza 52", "phone": "+359 88 780 9085"}}, {"type": "node", "id": 12367016550, "lat": 42.1429743, "lon": 24.7634614, "tags": {"addr:city": "\u041f\u043b\u043e\u0432\u0434\u0438\u0432", "addr:housenumber": "22", "addr:postcode": "4000", "addr:street": "\u0431\u0443\u043b. \u0418\u0437\u0442\u043e\u0447\u0435\u043d", "amenity": "restaurant", "cuisine": "italian;pizza;pasta", "currency:XBT": "yes", "name": "I'll Classico Italian Restaurant", "opening_hours": "10:00 - 23:00", "payment:lightning": "yes", "payment:onchain": "yes", "phone": "+359892610710", "website": "https://plovdiv.zavedenia.com/1723/Restorant-Klasik"}}, {"type": "node", "id": 12827765908, "lat": 42.1416423, "lon": 24.7880748, "tags": {"addr:city": "\u041f\u043b\u043e\u0432\u0434\u0438\u0432", "addr:housenumber": "31", "addr:postcode": "4023", "addr:street": "\u0431\u0443\u043b. \u041e\u0441\u0432\u043e\u0431\u043e\u0436\u0434\u0435\u043d\u0438\u0435", "amenity": "cafe", "cuisine": "coffee_shop;cake", "name": "THE FAMILY Coffee Roasters", "website": "https://thefamilycoffee.com"}}, {"type": "node", "id": 12857309701, "lat": 42.1400391, "lon": 24.7504494, "tags": {"addr:street": "\u0425\u0435\u043d\u0440\u0438\u0445 \u0425\u0435\u0440\u0448\u043a\u043e\u0432\u0438\u0447", "amenity": "restaurant", "cuisine": "balkan", "name": "\u0410\u0440\u043e\u043c\u0430\u0442\u043d\u043e"}}, {"type": "node", "id": 12900377269, "lat": 42.1483538, "lon": 24.7494119, "tags": {"amenity": "cafe", "check_date": "2025-06-09", "name": "The Reading Room", "outdoor_seating": "yes", "payment:cards": "no", "payment:cash": "only", "payment:credit_cards": "no", "payment:debit_cards": "no"}}, {"type": "node", "id": 12906142908, "lat": 42.1497735, "lon": 24.741342, "tags": {"amenity": "restaurant", "cuisine": "balkan", "name": "\u0425IX \u0412\u0435\u043a", "outdoor_seating": "yes", "phone": "+359 88 497 7242"}}, {"type": "way", "id": 91910090, "nodes": [1067932879, 331131119, 1067932874, 1067932867, 1067932823, 1067932828, 1067932879], "tags": {"amenity": "restaurant", "building": "yes", "cuisine": "regional", "name": "\u0428\u0430\u0440\u043c\u0430\u043d\u0442"}}, {"type": "way", "id": 102799078, "nodes": [1187195483, 1187195463, 1187195554, 1187195561, 1187195483], "tags": {"amenity": "restaurant", "building": "yes", "name": "\u0422\u043e\u043d\u0438 2000"}}, {"type": "way", "id": 134794774, "nodes": [1481405638, 1481405624, 1481405631, 1481405639, 1481405638], "tags": {"addr:city": "\u041f\u043b\u043e\u0432\u0434\u0438\u0432", "addr:housenumber": "1", "addr:postcode": "4023", "addr:street": "\u041f\u0440\u043e\u0444\u0435\u0441\u043e\u0440 \u0426\u0432\u0435\u0442\u0430\u043d \u041b\u0430\u0437\u0430\u0440\u043e\u0432", "amenity": "restaurant", "building": "yes", "cuisine": "regional", "name": "\u041a\u0430\u043c\u0435\u043d\u0433\u0440\u0430\u0434", "name:en": "Kamengrad"}}, {"type": "way", "id": 134794786, "nodes": [1481405171, 1481405201, 1481405119, 1481405079, 1481405171], "tags": {"amenity": "restaurant", "building": "yes", "name": "\u042e\u0436\u0435\u043d \u041f\u043e\u043b\u044a\u0445"}}, {"type": "way", "id": 162698419, "nodes": [1745484733, 1745484445, 1745484369, 1745484557, 1745484733], "tags": {"amenity": "restaurant", "building": "yes", "cuisine": "regional", "internet_access": "no", "internet_access:fee": "no", "name": "\u0422\u0443\u0438\u043d\u043f\u0438\u0439\u043a\u0441", "opening_hours": "Mo-Fr 08:30-23:00", "smoking": "yes", "wheelchair": "yes"}}, {"type": "way", "id": 168607761, "nodes": [1798420730, 1798420732, 1798420731, 1798420729, 1798420730], "tags": {"amenity": "cafe", "building": "yes"}}, {"type": "way", "id": 168607770, "nodes": [1798420623, 1798420621, 1798420594, 1798420599, 1798420623], "tags": {"amenity": "restaurant", "building": "yes", "name": "\u0414\u0430\u043b\u0438\u044f"}}, {"type": "way", "id": 177689416, "nodes": [1881119189, 1881119194, 1881119193, 1881119192, 1881119189], "tags": {"amenity": "restaurant", "cuisine": "regional", "internet_access": "no", "internet_access:fee": "no", "name": "\u0410\u0442\u043b\u0430\u043d\u0442\u0438\u043a - \u0440\u0435\u0441\u0442\u043e\u0440\u0430\u043d\u0442 \u0433\u0440\u0430\u0434\u0438\u043d\u0430", "smoking": "yes", "wheelchair": "yes"}}, {"type": "way", "id": 178646790, "nodes": [1889980045, 1889980042, 1889980036, 1889980041, 1889980039, 1889980034, 1889980044, 1889980043, 1889980045], "tags": {"amenity": "restaurant", "brand": "Happy Bar & Grill", "brand:wikidata": "Q112056203", "building": "yes", "contact:facebook": "https://www.facebook.com/HappyBarAndGrill/", "contact:instagram": "https://www.instagram.com/happybarandgrill", "contact:phone": "+359 700 20888", "contact:website": "https://happy.bg/", "cuisine": "international", "name": "Happy Bar & Grill", "name:en": "Happy Bar & Grill", "opening_hours": "Mo-Su 08:00-22:45", "operator": "\"\u0411\u0410\u0420\" \u0415\u041e\u041e\u0414"}}, {"type": "way", "id": 183036300, "nodes": [1933969760, 1933969756, 1933969765, 1933969759, 1933969760], "tags": {"amenity": "restaurant", "building": "yes", "cuisine": "french", "name": "\u0411\u0438\u0441\u0442\u0440\u043e \u041f\u0435\u0442\u0435\u043b\u0430", "name:en": "Bistro Petela", "name:fr": "Bistro Le Coq"}}, {"type": "way", "id": 187790074, "nodes": [1984302213, 1984302208, 1984302175, 1984302168, 1984302185, 1984302213], "tags": {"amenity": "restaurant", "cuisine": "regional", "internet_access": "no", "internet_access:fee": "no", "name": "\u0413\u043b\u0430\u0434\u0438\u0430\u0442\u043e\u0440\u0438", "opening_hours": "Mo-Fr 08:30-23:00", "smoking": "yes", "stars": "3", "website": "http://gladiatoriplovdiv.com/", "wheelchair": "yes"}}, {"type": "way", "id": 204968700, "nodes": [2149458261, 2149458255, 2149458256, 2149458262, 2149458261], "tags": {"amenity": "restaurant", "name": "\u041c\u0430\u043b\u044a\u043a \u0411\u0443\u043d\u0430\u0440\u0434\u0436\u0438\u043a"}}, {"type": "way", "id": 205315215, "nodes": [2152915861, 2152915858, 4171384134, 2152915859, 2152915863, 2152915861], "tags": {"amenity": "cafe", "building": "yes", "check_date": "2023-10-15", "name": "\u0411\u0430\u043b\u0430\u0431\u0430\u043d \u043a\u0430\u0444\u0435"}}, {"type": "way", "id": 205315218, "nodes": [2152915780, 2152915775, 2152915776, 2152915777, 2152915781, 2152915780], "tags": {"addr:housenumber": "2", "addr:postcode": "4000", "addr:street": "\u0414\u043e\u043d\u0434\u0443\u043a\u043e\u0432-\u041a\u043e\u0440\u0441\u0430\u043a\u043e\u0432", "amenity": "restaurant", "cuisine": "regional", "int_name": "Dayana 1", "name": "\u0414\u0430\u044f\u043d\u0430 1", "website": "http://dayanabg.com"}}, {"type": "way", "id": 205315227, "nodes": [2152915852, 2152915850, 2152915849, 2152915855, 3174618400, 3174618401, 3174618405, 3174618404, 3174618402, 3174618403, 2152915852], "tags": {"amenity": "restaurant", "building": "yes", "name": "\u041f\u0435\u0442\u0440 I"}}, {"type": "way", "id": 205315228, "nodes": [2152915906, 2152915890, 2152915889, 2152915865, 2152915864, 2152915870, 2152915871, 2152915884, 2152915883, 2152915887, 2152915898, 2152915893, 2152915895, 2152915905, 2152915906], "tags": {"amenity": "restaurant", "building": "yes", "name": "\u041f\u044a\u043b\u0434\u0438\u043d"}}, {"type": "way", "id": 205315233, "nodes": [2152915814, 2152915807, 2152915805, 2152915806, 2152915804, 2152915811, 2152915814], "tags": {"addr:city": "\u041f\u043b\u043e\u0432\u0434\u0438\u0432", "addr:housenumber": "1", "addr:postcode": "4000", "addr:street": "\u041c\u0438\u0442\u0440\u043e\u043f\u043e\u043b\u0438\u0442 \u041f\u0430\u043d\u0430\u0440\u0435\u0442", "amenity": "cafe", "building": "yes", "name": "\u041a\u0430\u0444\u0435-\u043a\u043b\u0443\u0431 \u0421\u0442\u0430\u0440\u0438\u043d\u043d\u043e", "name:bg": "\u041a\u0430\u0444\u0435-\u043a\u043b\u0443\u0431 \u0421\u0442\u0430\u0440\u0438\u043d\u043d\u043e", "name:en": "Cafe-club Starinno", "outdoor_seating": "yes", "website": "https://starinno.business.site"}}, {"type": "way", "id": 205315235, "nodes": [2152915855, 2152915849, 2152915850, 2152915845, 2152915844, 2152915847, 2152915854, 2152915855], "tags": {"amenity": "restaurant", "building": "yes", "cuisine": "regional", "name": "\u0422\u0440\u0430\u043a\u0438\u0439\u0441\u043a\u0438 \u0441\u0442\u0430\u043d"}}, {"type": "way", "id": 205315263, "nodes": [2152916092, 2152916079, 2152916089, 2152916095, 2152916092], "tags": {"amenity": "restaurant", "building": "yes", "name": "\u0423\u043b\u043f\u0438\u044f", "wheelchair": "no"}}, {"type": "way", "id": 239250239, "nodes": [2470528228, 2470528229, 2470528230, 2470528231, 2470528228], "tags": {"amenity": "cafe", "building": "yes", "internet_access": "no", "name": "\u0410\u0433\u0440\u043e\u043d\u043e\u043c\u0430"}}, {"type": "way", "id": 250855317, "nodes": [2572104639, 2572104637, 2572104634, 2572104635, 2572104639], "tags": {"amenity": "cafe", "building": "yes"}}, {"type": "way", "id": 304384582, "nodes": [3089130922, 3089130923, 3089130924, 3454773326, 3454773325, 7690771601, 3089130925, 7690771602, 3089130922], "tags": {"addr:housenumber": "4", "addr:postcode": "4023", "addr:street": "\u0421\u044a\u0435\u0434\u0438\u043d\u0435\u043d\u0438\u0435", "air_conditioning": "yes", "amenity": "restaurant", "bar": "yes", "brewery": "yes", "building": "yes", "building:levels": "3", "cuisine": "german;bavarian", "email": "office@jagerhof.bg", "internet_access": "wlan", "microbrewery": "yes", "name": "\u0411\u0438\u0440\u0430\u0440\u0438\u044f J\u00e4gerhof", "name:bg": "\u0411\u0438\u0440\u0430\u0440\u0438\u044f \u0419\u0435\u0433\u0435\u0440\u0445\u043e\u0444", "name:en": "Jagerhof Alehouse", "opening_hours": "Mo-Su 10:00-01:00", "outdoor_seating": "yes", "phone": "+359 88 520 6666", "smoking": "outside", "website": "https://www.jagerhof.bg/"}}, {"type": "way", "id": 316336125, "nodes": [3224477181, 3224477179, 3224477178, 3224477180, 3224477181], "tags": {"amenity": "restaurant", "building": "yes", "cuisine": "regional", "name": "\u041c\u0430\u0440\u0430\u044f"}}, {"type": "way", "id": 320172601, "nodes": [3266714861, 3266714862, 3266714863, 3266714864, 3266714861], "tags": {"amenity": "restaurant", "building": "yes", "cuisine": "fish", "name": "\u0421\u043a\u0430\u043b\u0430\u0440"}}, {"type": "way", "id": 322204189, "nodes": [3289737994, 3289737992, 3289737991, 3289737993, 3289737994], "tags": {"amenity": "restaurant", "building": "yes", "cuisine": "regional", "name": "K2"}}, {"type": "way", "id": 333796070, "nodes": [3408560191, 3408560192, 3408560693, 3408560694, 3408560191], "tags": {"amenity": "restaurant", "building": "yes", "name": "Raffy"}}, {"type": "way", "id": 356370004, "nodes": [3618315402, 3618315403, 3618315404, 3618315405, 3618315402], "tags": {"addr:city": "\u041f\u043b\u043e\u0432\u0434\u0438\u0432", "addr:housenumber": "10", "addr:postcode": "4013", "addr:street": "\u041a\u0443\u043a\u0443\u0448", "amenity": "restaurant", "building": "residential", "capacity": "150", "cuisine": "regional", "delivery": "yes", "name": "\u0410\u0433\u043b\u0435\u0430", "opening_hours": "Mo-Su 10:00-24:00", "outdoor_seating": "yes", "smoking": "isolated", "takeaway": "yes"}}, {"type": "way", "id": 374680721, "nodes": [3780630719, 3780630714, 3780630715, 3780630722, 3780630719], "tags": {"amenity": "cafe", "name": "Graphite"}}, {"type": "way", "id": 374807002, "nodes": [3781864287, 3781864284, 3781864286, 3781864289, 3781864287], "tags": {"amenity": "restaurant", "building": "yes", "cuisine": "regional", "name": "\u041f\u043e\u0442\u043e\u043c\u0446\u0438"}}, {"type": "way", "id": 398538167, "nodes": [4012876236, 4012876234, 4012876235, 4148647335, 4012876236], "tags": {"amenity": "restaurant", "cuisine": "regional", "name": "\u0414\u043e\u043c \u043d\u0430 \u043c\u0435\u0442\u0430\u043b\u0443\u0440\u0433\u0430", "outdoor_seating": "yes"}}, {"type": "way", "id": 399844400, "nodes": [4025221083, 4025221070, 4025221072, 4025221073, 4025221075, 4025221084, 4025221083], "tags": {"amenity": "restaurant", "building": "yes", "name": "\u0410\u043b\u0430\u0444\u0440\u0430\u043d\u0433\u0438\u0442\u0435"}}, {"type": "way", "id": 420264651, "nodes": [4202104215, 4202104205, 4202104206, 4202104229, 4202104215], "tags": {"amenity": "restaurant", "level": "0", "name": "Central Park", "opening_hours": "Mo-Su 11:00-23:00", "outdoor_seating": "yes", "reservation": "recommended", "smoking": "outside", "toilets": "yes", "toilets:access": "customers"}}, {"type": "way", "id": 430640465, "nodes": [4299030646, 4299030647, 4299030648, 4299030649, 4299030650, 4299030651, 4299030646], "tags": {"amenity": "restaurant", "building": "yes", "cuisine": "regional", "delivery": "no", "name": "\u041f\u043e\u0437\u0438\u0442\u0430\u043d\u043e 20", "opening_hours": "10:00-00:00", "outdoor_seating": "yes", "phone": "+359 88 243 4101", "takeaway": "no"}}, {"type": "way", "id": 461685815, "nodes": [4571566190, 4571566087, 4571566088, 4571566189, 4571566190], "tags": {"addr:housenumber": "1", "addr:street": "\u0421\u0442\u043e\u044f\u043d \u0427\u0430\u043b\u044a\u043a\u043e\u0432", "amenity": "restaurant", "building": "yes", "name": "\u0413\u0440\u0430\u0436\u0434\u0430\u043d\u0441\u043a\u0438 \u043a\u043b\u0443\u0431", "name:en": "Citizens' Club Restaurant"}}, {"type": "way", "id": 482785821, "nodes": [4755800736, 4755800733, 4755800734, 4755800735, 4755800736], "tags": {"amenity": "restaurant", "building": "yes", "name": "Wild city"}}, {"type": "way", "id": 489819689, "nodes": [4820276225, 4820276224, 4820276223, 4820276222, 4820276225], "tags": {"amenity": "cafe", "building": "yes"}}, {"type": "way", "id": 489819787, "nodes": [4820276803, 4820276802, 4820276801, 4820276800, 4820276799, 4820276798, 4820276797, 4820276796, 4820276795, 4820276794, 4820276793, 4820276792, 4820276803], "tags": {"amenity": "restaurant", "building": "yes", "name": "\u0420\u0430\u043d\u0434\u0435\u0432\u0443", "name:en": "Rendezvous"}}, {"type": "way", "id": 490346510, "nodes": [4825265883, 4825265880, 4825265881, 4825265882, 4825265883], "tags": {"amenity": "restaurant", "building": "yes", "cuisine": "barbecue"}}, {"type": "way", "id": 495022444, "nodes": [4868045373, 4868045372, 4868045371, 4868045370, 4868045369, 4868045368, 4868045367, 4868045366, 4868045365, 4868045364, 4868045363, 4868045362, 4868045361, 4868045373], "tags": {"amenity": "restaurant", "building": "yes", "name": "Central Park", "wheelchair": "no"}}, {"type": "way", "id": 495144853, "nodes": [4869288705, 4869288706, 4869288702, 4869288701, 4869288704, 4869288707, 4869288705], "tags": {"addr:city": "\u041f\u043b\u043e\u0432\u0434\u0438\u0432", "addr:housenumber": "125A", "addr:street": "\u0431\u0443\u043b. \u0411\u044a\u043b\u0433\u0430\u0440\u0438\u044f", "amenity": "restaurant", "building": "yes", "capacity": "120", "check_date:currency:XBT": "2025-04-27", "cuisine": "regional;pizza;chicken;sandwich;international;barbecue", "currency:XBT": "yes", "name": "Avocado Bar & Dinner", "opening_hours": "Mo-Su 07:00-23:00", "outdoor_seating": "yes", "payment:lightning": "yes", "payment:onchain": "yes", "phone": "+359 89 604 6622", "smoking": "outside", "takeaway": "no", "website": "https://avocado-bg.com/menu"}}, {"type": "way", "id": 496146708, "nodes": [4878751597, 4878751594, 4878751595, 4878751596, 4878751597], "tags": {"amenity": "cafe", "building": "yes"}}, {"type": "way", "id": 503041591, "nodes": [4025225448, 4171384466, 4171384469, 4933951792, 2152916100, 4483830836, 4483830837, 4483830835, 4933951795, 4933951796, 2152916091, 4025225448], "tags": {"addr:housenumber": "20", "addr:street": "\u0414-\u0440 \u0421\u0442\u043e\u044f\u043d \u0427\u043e\u043c\u0430\u043a\u043e\u0432", "amenity": "restaurant", "cuisine": "regional", "diet:vegetarian": "yes", "email": "info@rahat-tepe.com", "indoor_seating": "yes", "name": "\u0420\u0430\u0445\u0430\u0442 \u0442\u0435\u043f\u0435", "opening_hours": "09:00-24:00", "outdoor_seating": "terrace", "phone": "+359 87 845 0259"}}, {"type": "way", "id": 504515689, "nodes": [4946644400, 4946644399, 4946644398, 4946644397, 4946644400], "tags": {"amenity": "cafe", "building": "yes"}}, {"type": "way", "id": 549231877, "nodes": [5305513492, 5305513493, 5305513500, 5305513494, 5305513495, 5305513498, 5305513496, 5305513497, 5305513492], "tags": {"addr:city": "\u041f\u043b\u043e\u0432\u0434\u0438\u0432", "addr:housenumber": "2", "addr:street": "\u0421\u0432\u0435\u0442\u0430 \u041f\u0435\u0442\u043a\u0430", "amenity": "restaurant", "building": "yes", "cuisine": "regional", "delivery": "no", "internet_access": "wlan", "name": "\u0414\u0430\u044f\u043d\u0430 2", "name:bg": "\u0414\u0430\u044f\u043d\u0430 2", "name:en": "Dayana 2", "opening_hours": "24/7", "outdoor_seating": "yes", "phone": "+359 32 633 059", "smoking": "outside", "takeaway": "yes"}}, {"type": "way", "id": 569596101, "nodes": [5477582370, 5477582371, 5477582372, 5477582373, 5477582374, 5477582375, 5477582376, 5477582377, 5477582378, 5477582370], "tags": {"addr:city": "\u041f\u043b\u043e\u0432\u0434\u0438\u0432", "addr:postcode": "4000", "addr:street": "\u0422\u043e\u0434\u043e\u0440 \u0410\u043b\u0435\u043a\u0441\u0430\u043d\u0434\u0440\u043e\u0432", "amenity": "restaurant", "building": "yes", "delivery": "no", "name": "Martina", "smoking": "yes", "takeaway": "no"}}, {"type": "way", "id": 574636924, "nodes": [5515389849, 5515389850, 5515389851, 5515389852, 5515389849], "tags": {"amenity": "restaurant", "building": "yes"}}, {"type": "way", "id": 577132540, "nodes": [5533482865, 5533483081, 5533482868, 5533482870, 5533483028, 5533482911, 5533482976, 5533481796, 5533482865], "tags": {"amenity": "restaurant", "building": "yes"}}, {"type": "way", "id": 665771012, "nodes": [6231873295, 6231873296, 6231873297, 6231873298, 6231873295], "tags": {"amenity": "cafe", "building": "yes"}}, {"type": "way", "id": 685137731, "nodes": [6419793742, 6419793743, 6419793744, 6419793745, 6419793742], "tags": {"amenity": "restaurant", "building": "yes", "name": "\u0425\u0438\u0442\u044a\u0440 \u041f\u0435\u0442\u044a\u0440"}}, {"type": "way", "id": 697584522, "nodes": [6551198835, 4762068137, 6551198836, 6551198837, 6551198835], "tags": {"amenity": "cafe", "building": "yes", "name": "\u041b\u044f\u0442\u043d\u043e\u0442\u043e \u043a\u0438\u043d\u043e"}}, {"type": "way", "id": 714482428, "nodes": [6716135942, 5989515467, 5989515463, 6716135943, 6716135937, 6716135938, 6716135942], "tags": {"amenity": "restaurant", "cuisine": "regional", "name": "\u0412\u043e\u0434\u043e\u043f\u0430\u0434\u0430", "name:en": "Vodopada", "phone": "+359 89 384 4212"}}, {"type": "way", "id": 859880787, "nodes": [8014625201, 8014625202, 8014625203, 8014625204, 8014625205, 8014625206, 8014625207, 8014625208, 8014625201], "tags": {"addr:city": "\u041f\u043b\u043e\u0432\u0434\u0438\u0432", "addr:housenumber": "16", "addr:postcode": "4300", "addr:street": "\u041f\u0430\u0432\u0435\u043b \u041a\u0430\u043b\u043f\u0430\u043a\u0447\u0438\u0435\u0432", "amenity": "restaurant", "building": "yes", "cuisine": "regional;bulgarian", "name": "\u0410\u0442\u0430\u043b\u0438", "name:en": "Atali", "opening_hours": "Mo-Su 09:00-24:00", "phone": "+359 32 671 555", "website": "https://restorantatali.com/"}}, {"type": "way", "id": 877545521, "nodes": [8164886718, 8164886719, 8164886721, 8164886720, 8164886718], "tags": {"amenity": "restaurant", "building": "yes", "name": "Restorant", "opening_hours": "Mo-Fr 09:00-17:00"}}, {"type": "way", "id": 899736300, "nodes": [8359673875, 8359673879, 8359673876, 8359673877, 8359673878, 8359673875], "tags": {"amenity": "restaurant", "building": "yes", "name": "\u0411\u0435\u0437\u0433\u0440\u0438\u0436\u0435\u043d \u0436\u0438\u0432\u043e\u0442"}}, {"type": "way", "id": 971968875, "nodes": [8995981862, 8995981863, 8995981864, 8995981865, 8995981866, 8995981862], "tags": {"amenity": "restaurant", "building": "yes", "cuisine": "regional"}}, {"type": "way", "id": 976188475, "nodes": [9026110614, 9033881753, 9033881754, 9033881755, 9026110615, 9026110614], "tags": {"amenity": "restaurant", "building": "yes", "name": "ViK 2000", "opening_hours": "08:00-16:00"}}, {"type": "way", "id": 987507308, "nodes": [9127762192, 9127762196, 9127762193, 9127762194, 9127762198, 9127762199, 9127762197, 9127762195, 9127762192], "tags": {"amenity": "cafe", "building": "yes", "name": "\u041a\u0440\u044a\u0447\u043c\u0430"}}, {"type": "way", "id": 1124051308, "nodes": [10279322118, 10279322119, 10279322120, 10279322121, 10279322122, 10279322123, 10279322124, 10279322125, 10279322118], "tags": {"amenity": "restaurant", "building": "yes"}}, {"type": "way", "id": 1124160273, "nodes": [10280297798, 10280297799, 10280297800, 10280297801, 10280297802, 10280297803, 10280297805, 10280297806, 10280297804, 10280297798], "tags": {"amenity": "restaurant", "building": "yes"}}, {"type": "way", "id": 1135882822, "nodes": [10588640347, 10588640348, 10588640349, 10588640350, 10588640351, 10588640352, 10588640353, 10588640354, 10588640347], "tags": {"amenity": "restaurant", "building": "yes"}}, {"type": "way", "id": 1135882827, "nodes": [10588640371, 10588640372, 10588640373, 10588640374, 10588640375, 10588640376, 10588640377, 10588640378, 10588640379, 10588640380, 10588640381, 10588640382, 10588640383, 10588640384, 10588640385, 10588640386, 10588640387, 10588640388, 10588640371], "tags": {"amenity": "restaurant", "building": "yes", "name": "\u041b\u043e\u0432\u0435\u043d \u043f\u0430\u0440\u043a"}}, {"type": "way", "id": 1177325701, "nodes": [10937833439, 10937833440, 10937833441, 10937833442, 10937833439], "tags": {"amenity": "cafe", "outdoor_seating": "yes"}}, {"type": "way", "id": 1224870730, "nodes": [11359039029, 11359039026, 11359039027, 11359039028, 11359039029], "tags": {"amenity": "restaurant", "bar": "yes", "building": "yes", "facebook": "https://www.facebook.com/mikona007", "kids_area": "yes", "name": "\u0420\u0435\u0441\u0442\u043e\u0440\u0430\u043d\u0442 \u041c\u0438\u043a\u043e\u043d\u0430", "phone": "+359 88 786 8178", "toilets": "yes"}}, {"type": "way", "id": 1224944278, "nodes": [11359663717, 11359663716, 11359663715, 11359663714, 11359663713, 11359663709, 11359663710, 11359663708, 11359663712, 11359663711, 11359663717], "tags": {"amenity": "restaurant", "building": "yes", "name": "\u0424\u0438\u043d\u0438\u043a\u0441"}}, {"type": "way", "id": 1226161786, "nodes": [11370727818, 11370727819, 11370727820, 11370727824, 11370727821, 11370727788, 11370727815, 11370727816, 11370727822, 11370727818], "tags": {"addr:city": "\u0410\u0441\u0435\u043d\u043e\u0432\u0433\u0440\u0430\u0434", "addr:housenumber": "13", "addr:postcode": "4230", "addr:street": "\u0426\u0430\u0440 \u0418\u0432\u0430\u043d \u0410\u0441\u0435\u043d II", "amenity": "restaurant", "building": "yes", "cuisine": "regional", "name": "\u0421\u0442\u0430\u043d\u0438\u043c\u0430\u043a\u0430", "name:bg": "\u0421\u0442\u0430\u043d\u0438\u043c\u0430\u043a\u0430", "opening_hours": "Mo-Su 11:30-23:30", "outdoor_seating": "no", "phone": "+359895601674"}}, {"type": "way", "id": 1264611014, "nodes": [12039948156, 11748808943, 11748808942, 11748808941, 11748808944, 12039948157, 12039948158, 12039948159, 12039948156], "tags": {"addr:street": "\u041f\u043e\u043f \u0410\u043d\u0433\u0435\u043b \u0427\u043e\u043b\u0430\u043a\u043e\u0432", "amenity": "restaurant", "building": "yes", "name": "\u041f\u0440\u0438 \u0420\u0443\u043c\u0435\u043d"}}, {"type": "way", "id": 1264640171, "nodes": [11749017093, 11749017094, 11749017095, 11749017096, 11749017093], "tags": {"amenity": "restaurant", "building": "yes", "name": "Porto Greco"}}, {"type": "way", "id": 1278503468, "nodes": [11869043266, 11869043267, 11869043268, 11869056869, 11869056873, 11869056872, 11869056871, 11869056870, 11869043266], "tags": {"amenity": "restaurant", "building": "yes"}}]}