{"version": 0.6, "generator": "Overpass API 0.7.62.7 375dc00a", "osm3s": {"timestamp_osm_base": "2025-06-14T15:17:02Z", "copyright": "The data included in this document is from www.openstreetmap.org. The data is made available under ODbL."}, "elements": [{"type": "node", "id": 3274911674, "lat": 36.2087604, "lon": 36.1631926, "tags": {"addr:city": "Antakya", "addr:housenumber": "80", "addr:postcode": "31040", "addr:street": "Haraparas\u0131 Mah.", "amenity": "restaurant", "capacity": "200", "cuisine": "Kumpir_Salata_Waffle", "name": "Otantik Kumpir Palladium Antakya", "name:ar": "\u0623\u0635\u064a\u0644\u0629 \u0643\u0645\u0628\u064a\u0631 \u0627\u0644\u0628\u0644\u0627\u062f\u064a\u0648\u0645 \u0623\u0646\u0637\u0627\u0643\u064a\u0627", "opening_hours": "10:00-10:00", "phone": "+90 326 280 00 88", "smoking": "no"}}, {"type": "node", "id": 4100764817, "lat": 36.1994663, "lon": 36.1636236, "tags": {"addr:street": "Kurtulu\u015f Caddesi", "amenity": "restaurant", "name": "Sveyka Restaurant"}}, {"type": "node", "id": 4577880510, "lat": 36.198116, "lon": 36.1578865, "tags": {"amenity": "cafe", "name": "vivaldi cafe", "name:ar": "\u0645\u0642\u0647\u0649 \u0641\u064a\u0641\u0627\u0644\u062f\u064a", "wheelchair": "no"}}, {"type": "node", "id": 4577915323, "lat": 36.1972756, "lon": 36.1582556, "tags": {"amenity": "cafe", "name": "kahve diyar\u0131"}}, {"type": "node", "id": 4577915324, "lat": 36.1974516, "lon": 36.1582225, "tags": {"amenity": "cafe", "name": "cric crac"}}, {"type": "node", "id": 4577915346, "lat": 36.1964194, "lon": 36.1583688, "tags": {"amenity": "cafe", "name": "karadeniz petek pastanesi"}}, {"type": "node", "id": 4577960080, "lat": 36.2059244, "lon": 36.1601757, "tags": {"amenity": "cafe"}}, {"type": "node", "id": 4581987438, "lat": 36.0880573, "lon": 35.9424325}, {"type": "node", "id": 4581987439, "lat": 36.0878556, "lon": 35.9425465}, {"type": "node", "id": 4581987440, "lat": 36.087888, "lon": 35.9426236}, {"type": "node", "id": 4581987441, "lat": 36.0878705, "lon": 35.9427622}, {"type": "node", "id": 4581987442, "lat": 36.0879602, "lon": 35.9428423}, {"type": "node", "id": 4581987443, "lat": 36.088132, "lon": 35.9427406}, {"type": "node", "id": 4581987444, "lat": 36.0880971, "lon": 35.9425527}, {"type": "node", "id": 4581987445, "lat": 36.088127, "lon": 35.9425373}, {"type": "node", "id": 4581987446, "lat": 36.088117, "lon": 35.9425003}, {"type": "node", "id": 4581987447, "lat": 36.0880896, "lon": 35.9425096}, {"type": "node", "id": 4581989289, "lat": 36.1350662, "lon": 36.0419664}, {"type": "node", "id": 4581989290, "lat": 36.1348413, "lon": 36.0417861}, {"type": "node", "id": 4581989291, "lat": 36.1347704, "lon": 36.0419217}, {"type": "node", "id": 4581989292, "lat": 36.1349952, "lon": 36.042102}, {"type": "node", "id": 4604242626, "lat": 36.0823145, "lon": 35.945107}, {"type": "node", "id": 4678305521, "lat": 36.2292706, "lon": 36.1362921, "tags": {"amenity": "cafe", "brand": "Starbucks", "brand:wikidata": "Q37158", "brand:wikipedia": "en:Starbucks", "cuisine": "coffee_shop", "name": "Starbucks", "official_name": "Starbucks Coffee", "takeaway": "yes"}}, {"type": "node", "id": 4831605346, "lat": 36.0845583, "lon": 35.9794038}, {"type": "node", "id": 4831605347, "lat": 36.0844733, "lon": 35.9794666}, {"type": "node", "id": 4831605348, "lat": 36.0844942, "lon": 35.9795257}, {"type": "node", "id": 4831605349, "lat": 36.0845877, "lon": 35.9794588}, {"type": "node", "id": 4831605360, "lat": 36.0845584, "lon": 35.9794798}, {"type": "node", "id": 4836692076, "lat": 36.0890415, "lon": 35.978719}, {"type": "node", "id": 4836692079, "lat": 36.0890623, "lon": 35.9788233}, {"type": "node", "id": 4836728744, "lat": 36.1235216, "lon": 35.9205341}, {"type": "node", "id": 4836728745, "lat": 36.1233791, "lon": 35.9206318}, {"type": "node", "id": 4836728746, "lat": 36.1232329, "lon": 35.9204443}, {"type": "node", "id": 4836773535, "lat": 36.1131648, "lon": 35.9764919}, {"type": "node", "id": 4836773536, "lat": 36.1131023, "lon": 35.9764765}, {"type": "node", "id": 4836773537, "lat": 36.1130845, "lon": 35.9765868}, {"type": "node", "id": 4836773538, "lat": 36.113147, "lon": 35.9766023}, {"type": "node", "id": 4864605622, "lat": 36.3566946, "lon": 35.8172744, "tags": {"amenity": "restaurant", "cuisine": "turkish", "name": "\u00f6z bal\u0131k"}}, {"type": "node", "id": 4865428856, "lat": 36.0819796, "lon": 35.9491082, "tags": {"amenity": "restaurant"}}, {"type": "node", "id": 4865432263, "lat": 36.0847751, "lon": 35.9766522, "tags": {"amenity": "restaurant", "name": "Kebap Evi"}}, {"type": "node", "id": 4872887954, "lat": 36.0852127, "lon": 35.9436509}, {"type": "node", "id": 4872887955, "lat": 36.0852846, "lon": 35.9438269}, {"type": "node", "id": 4872887956, "lat": 36.0851476, "lon": 35.9439127}, {"type": "node", "id": 4872887957, "lat": 36.0850757, "lon": 35.9437367}, {"type": "node", "id": 4872887958, "lat": 36.0870097, "lon": 35.9425419}, {"type": "node", "id": 4872887959, "lat": 36.0871124, "lon": 35.9427816}, {"type": "node", "id": 4872887960, "lat": 36.0869773, "lon": 35.9428703}, {"type": "node", "id": 4872887961, "lat": 36.0868745, "lon": 35.9426306}, {"type": "node", "id": 5853558986, "lat": 36.4127733, "lon": 35.8865932, "tags": {"amenity": "restaurant", "name": "Roza Ev Yemekleri"}}, {"type": "node", "id": 6485220335, "lat": 36.082283, "lon": 35.9450201}, {"type": "node", "id": 6485220336, "lat": 36.0820627, "lon": 35.9451594}, {"type": "node", "id": 6485220339, "lat": 36.0820959, "lon": 35.9452472}, {"type": "node", "id": 6508257796, "lat": 36.0889801, "lon": 35.9787409}, {"type": "node", "id": 6508257797, "lat": 36.0890037, "lon": 35.9788461}, {"type": "node", "id": 6508525227, "lat": 36.1234255, "lon": 35.9203331}, {"type": "node", "id": 6563580385, "lat": 36.2041748, "lon": 36.1622353, "tags": {"amenity": "restaurant", "name": "Hatay Sultan Sofras", "name:en": "Hatay Sultan Sofras\u0131", "name:tr": "Hatay Sultan Sofras\u0131"}}, {"type": "node", "id": 6790358638, "lat": 36.255104, "lon": 36.1709144, "tags": {"addr:city": "Hatay", "addr:district": "Antakya", "addr:housenumber": "52", "addr:neighbourhood": "Kuzeytepe Mah", "addr:postcode": "31100", "addr:street": "\u00c7evre Yolu \u00dczeri", "amenity": "cafe", "bar": "yes", "cuisine": "pizza;burger;coffee_shop;kebab;turkish;ice_cream;steak_house", "internet_access": "yes", "internet_access:fee": "yes", "name": "Northstar Hookah", "outdoor_seating": "yes", "phone": "+905355885793", "reservation": "yes", "wheelchair": "yes"}}, {"type": "node", "id": 6790370624, "lat": 36.1982272, "lon": 36.1604688, "tags": {"addr:city": "Hatay", "addr:district": "Antakya", "addr:housenumber": "3", "addr:neighbourhood": "K\u0131\u015flasaray", "addr:postcode": "31070", "addr:street": "Saray Caddesi", "amenity": "restaurant", "brewery": "yes", "cuisine": "turkish", "delivery": "yes", "name": "M\u00fcdavim Meyhane", "phone": "+90 539 499 99 70", "reservation": "yes"}}, {"type": "node", "id": 6798954414, "lat": 36.1790328, "lon": 36.1475063, "tags": {"addr:city": "Hatay", "addr:district": "Antakya", "addr:housenumber": "1", "addr:neighbourhood": "Yunus Emre 1 Caddesi", "addr:postcode": "31070", "addr:street": "Harbiye Bulvar\u0131", "air_conditioning": "yes", "amenity": "restaurant", "cuisine": "turkish", "internet_access": "wlan", "name": "Mualla Antakya", "opening_hours": "Mo-Su 10:00-24:00", "outdoor_seating": "yes", "phone": "+90 535 642 75 80", "smoking": "outside"}}, {"type": "node", "id": 6876555523, "lat": 36.1933838, "lon": 36.1564786, "tags": {"addr:city": "Hatay", "addr:district": "Defne", "addr:housenumber": "26/A", "addr:neighbourhood": "S\u00fcmerler", "addr:postcode": "31070", "addr:street": "Harbiye Caddesi", "amenity": "cafe", "cuisine": "kebab;pasta", "internet_access": "yes", "name": "Mydonese S\u0131cak Simit", "outdoor_seating": "yes", "phone": "+903262123022"}}, {"type": "node", "id": 7041273902, "lat": 36.1817436, "lon": 36.1234992, "tags": {"addr:city": "Hatay", "addr:district": "Defne", "addr:neighbourhood": "Suba\u015f\u0131", "addr:postcode": "31158", "addr:street": "Bilgin Sokak", "air_conditioning": "yes", "amenity": "restaurant", "bar": "yes", "cuisine": "sushi;burger;turkish;mexican;italian;pasta", "diet:halal": "yes", "diet:organic": "yes", "diet:vegetarian": "yes", "internet_access": "yes", "name": "Carnaval Brunch & Bistro", "outdoor_seating": "yes", "phone": "+90 5321322629", "reservation": "yes", "website": "https://www.carnavalgida.com", "wheelchair": "yes"}}, {"type": "node", "id": 7760267657, "lat": 36.1941871, "lon": 36.1491681, "tags": {"addr:city": "Hatay", "addr:district": "Antakya", "addr:housenumber": "28", "addr:neighbourhood": "Armutlu Mahallesi", "addr:postcode": "31070", "addr:street": "\u015e\u00fckr\u00fc G\u00fc\u00e7l\u00fc Bulvar\u0131", "amenity": "cafe", "cuisine": "coffee_shop;coffee;chocolate", "internet_access": "yes", "internet_access:fee": "no", "name": "Aya Coffee", "opening_hours": "Mo-Su 09:00-21:00", "outdoor_seating": "yes"}}, {"type": "node", "id": 8065497086, "lat": 36.1984918, "lon": 36.1607229, "tags": {"amenity": "restaurant", "name": "Donerci Tacettin"}}, {"type": "node", "id": 8065737886, "lat": 36.2030921, "lon": 36.1655938, "tags": {"amenity": "restaurant", "name": "Poc Kasabi"}}, {"type": "node", "id": 8065816385, "lat": 36.2033883, "lon": 36.163373, "tags": {"amenity": "restaurant", "name": "\u00c7\u0131naralt\u0131 K\u00fcnefe"}}, {"type": "node", "id": 8996282510, "lat": 36.199617, "lon": 36.1622433, "tags": {"addr:city": "Hatay", "addr:district": "Antakya", "addr:housenumber": "3", "addr:neighbourhood": "Zenginler Mah.", "addr:postcode": "31070", "addr:street": "G\u00fcnl\u00fc Soka\u011f\u0131", "amenity": "restaurant", "cuisine": "regional;kebab", "diet:halal": "yes", "diet:organic": "yes", "diet:vegan": "yes", "diet:vegetarian": "yes", "name": "Atilla Restaurant", "opening_hours": "24/7", "outdoor_seating": "yes", "phone": "+90 535 227 12 11"}}, {"type": "node", "id": 9158973618, "lat": 36.2004501, "lon": 36.1625845, "tags": {"amenity": "restaurant", "name:en": "Hatay Gastronomi Evi"}}, {"type": "node", "id": 9162042118, "lat": 36.2083901, "lon": 36.1635151, "tags": {"amenity": "cafe", "brand": "Starbucks", "brand:wikidata": "Q37158", "cuisine": "coffee_shop", "name": "Starbucks", "name:en": "Starbucks", "official_name": "Starbucks Coffee", "takeaway": "yes"}}, {"type": "node", "id": 9242450443, "lat": 36.1979368, "lon": 36.1622956, "tags": {"amenity": "cafe", "name": "affan kahvesi"}}, {"type": "node", "id": 9242450471, "lat": 36.1857819, "lon": 36.1482229, "tags": {"addr:city": "Hatay", "addr:district": "Defne", "addr:neighbourhood": "S\u00fcmerler Mahallesi", "addr:street": "16", "amenity": "cafe", "cuisine": "burger", "internet_access": "wlan", "internet_access:fee": "no", "name": "Antik \u00c7ay Bah\u00e7esi", "opening_hours": "08:00-15:00", "outdoor_seating": "yes", "smoking": "separated"}}, {"type": "node", "id": 9662870486, "lat": 36.2011448, "lon": 36.1627314, "tags": {"addr:city": "Hatay", "addr:district": "Antakya", "addr:housenumber": "31", "addr:neighbourhood": "Zenginler Mah.", "addr:postcode": "31070", "addr:street": "K\u0131rk As\u0131rl\u0131k T\u00fcrk Yurdu Caddesi", "amenity": "restaurant", "cuisine": "regional;italian;mexican;japanese;kebab;asian;coffee_shop;burger;seafood", "internet_access": "yes", "internet_access:fee": "no", "name": "Cahidem Antakya", "opening_hours": "24/7", "outdoor_seating": "yes", "phone": "+905456618160"}}, {"type": "node", "id": 10226434218, "lat": 36.0090531, "lon": 35.9809925, "tags": {"amenity": "cafe", "description:ru": "\u041a\u0430\u0444\u0435 \u0441 \u0432\u0438\u0434\u043e\u043c. \u0411\u0435\u0441\u0435\u0434\u043a\u0438 \u0443 \u0441\u043a\u0430\u043b\u044b"}}, {"type": "node", "id": 10230368320, "lat": 36.1985876, "lon": 36.160283, "tags": {"addr:city": "Hatay", "addr:district": "Antakya", "addr:neighbourhood": "K\u0131\u015flasaray", "addr:postcode": "31070", "addr:street": "Saray Caddesi", "amenity": "restaurant", "cuisine": "regional;kebab;chicken;international", "internet_access": "wlan", "name": "Rota Leban", "opening_hours": "Mo-Su 11:00-23:00", "outdoor_seating": "yes", "payment:cash": "yes", "payment:credit_cards": "yes", "payment:mastercard": "yes", "payment:visa": "yes", "phone": "+905356643131"}}, {"type": "node", "id": 10270766112, "lat": 36.241243, "lon": 36.1048443, "tags": {"addr:city": "Hatay", "addr:district": "Antakya", "addr:housenumber": "1", "addr:neighbourhood": "Kisecik Mah. Expo Alan\u0131 D Kap\u0131s\u0131", "addr:postcode": "31100", "addr:street": "2022 Sok.", "air_conditioning": "yes", "amenity": "restaurant", "bar": "yes", "cuisine": "international;regional;lebanese;burger;coffee_shop;seafood;sandwich;chicken;turkish;salad", "diet:gluten_free": "yes", "diet:halal": "yes", "internet_access": "yes", "name": "Tinyan Gastro", "opening_hours": "24/7", "outdoor_seating": "yes", "payment:american_express": "yes", "payment:cash": "yes", "payment:credit_cards": "yes", "payment:debit_cards": "yes", "payment:diners_club": "yes", "payment:maestro": "yes", "payment:mastercard": "yes", "payment:visa": "yes", "phone": "+905315715504", "smoking": "isolated", "toilets": "yes", "website": "https://www.tinyan.com.tr/", "wheelchair": "yes"}}, {"type": "node", "id": 10561904523, "lat": 36.2235147, "lon": 36.1280683, "tags": {"addr:city": "Hatay", "addr:district": "Antakya", "addr:neighbourhood": "Akasya Mah.", "addr:postcode": "31100", "addr:street": "\u00c7evre Yolu A Plaza", "amenity": "restaurant", "cuisine": "regional", "diet:halal": "yes", "internet_access": "yes", "name": "Sahne Antakya", "opening_hours": "Mo-Su 11:00-23:00", "payment:cash": "yes", "payment:credit_cards": "yes", "payment:visa": "yes", "phone": "+905161663131"}}, {"type": "node", "id": 10618779255, "lat": 36.0880297, "lon": 35.9428012}, {"type": "node", "id": 10621244452, "lat": 36.1232948, "lon": 35.9205504}, {"type": "node", "id": 10621244453, "lat": 36.1232588, "lon": 35.920502}, {"type": "node", "id": 10621244454, "lat": 36.1232905, "lon": 35.92048}, {"type": "node", "id": 10621244455, "lat": 36.12332, "lon": 35.9205367}, {"type": "node", "id": 10621977206, "lat": 36.4109629, "lon": 35.8854991}, {"type": "node", "id": 10621977207, "lat": 36.4109329, "lon": 35.8855868}, {"type": "node", "id": 10621977208, "lat": 36.4109703, "lon": 35.8856066}, {"type": "node", "id": 10621977209, "lat": 36.4110003, "lon": 35.8855189}, {"type": "node", "id": 10623446692, "lat": 36.4139403, "lon": 35.8929336}, {"type": "node", "id": 10623446693, "lat": 36.4137628, "lon": 35.8930689}, {"type": "node", "id": 10623446694, "lat": 36.4137212, "lon": 35.892958}, {"type": "node", "id": 10623446695, "lat": 36.4139082, "lon": 35.8928365}, {"type": "node", "id": 10628133221, "lat": 36.361798, "lon": 36.212436}, {"type": "node", "id": 10628133222, "lat": 36.3618878, "lon": 36.2125366}, {"type": "node", "id": 10628133223, "lat": 36.3619383, "lon": 36.212467}, {"type": "node", "id": 10628133224, "lat": 36.3618485, "lon": 36.2123665}, {"type": "node", "id": 10628504150, "lat": 36.3514718, "lon": 36.2321159}, {"type": "node", "id": 10628504151, "lat": 36.3515728, "lon": 36.2319462}, {"type": "node", "id": 10628504152, "lat": 36.3514561, "lon": 36.2318392}, {"type": "node", "id": 10628504153, "lat": 36.3513551, "lon": 36.2320089}, {"type": "node", "id": 10632558680, "lat": 36.1666317, "lon": 36.1403153}, {"type": "node", "id": 10632558681, "lat": 36.1665282, "lon": 36.1402543}, {"type": "node", "id": 10632558682, "lat": 36.1664806, "lon": 36.140352}, {"type": "node", "id": 10632558683, "lat": 36.1665791, "lon": 36.1404252}, {"type": "node", "id": 10633878701, "lat": 36.1172156, "lon": 35.9722102, "tags": {"amenity": "restaurant", "name": "Musa Da\u011f\u0131 Restaurant"}}, {"type": "node", "id": 11052744442, "lat": 36.1249044, "lon": 35.920423, "tags": {"addr:city": "Hatay", "addr:district": "Samanda\u011f", "addr:housenumber": "1", "addr:neighbourhood": "Kap\u0131suyu Mahallesi", "addr:postcode": "31100", "addr:street": "\u0130smet G\u00fcrb\u00fcz Cad.", "amenity": "restaurant", "cuisine": "regional;seafood;chicken;fish;fish_and_chips;turkish", "name": "Truva Restaurant", "phone": "+90 534 360 67 27", "smoking": "outside"}}, {"type": "node", "id": 11145877464, "lat": 36.199674, "lon": 36.1608801, "tags": {"addr:city": "Antakya", "amenity": "restaurant", "cuisine": "regional", "name": "Lebanon"}}, {"type": "node", "id": 11145877468, "lat": 36.2047392, "lon": 36.154372, "tags": {"amenity": "cafe", "name": "Kafe", "source": "microsoft/BuildingFootprints"}}, {"type": "node", "id": 11290138569, "lat": 36.023975, "lon": 35.9767842, "tags": {"amenity": "restaurant", "cuisine": "fish;turkish", "name": "Marina Konaklama"}}, {"type": "node", "id": 11293528173, "lat": 36.0856923, "lon": 35.9452521, "tags": {"amenity": "restaurant", "cuisine": "turkish", "name": "Meydan k\u00fcnefe"}}, {"type": "node", "id": 11293540471, "lat": 36.0854347, "lon": 35.9453244, "tags": {"amenity": "restaurant", "cuisine": "turkish", "name": "Meydan Restaurant"}}, {"type": "node", "id": 11295783770, "lat": 36.078234, "lon": 35.9538166, "tags": {"amenity": "restaurant", "cuisine": "turkish", "name": "Dervisan kir bah\u00e7esi"}}, {"type": "node", "id": 11303714335, "lat": 36.1968228, "lon": 36.158007, "tags": {"addr:city": "Hatay", "addr:district": "Antakya", "addr:housenumber": "1", "addr:neighbourhood": "K\u0131\u015flasaray", "addr:postcode": "31070", "addr:street": "\u0130n\u00f6n\u00fc Caddesi", "air_conditioning": "yes", "amenity": "restaurant", "bar": "yes", "capacity": "30", "cuisine": "regional;turkish", "internet_access": "wlan", "name": "7 Masa Antakya", "opening_hours": "Mo-Su 10:00-23:00", "outdoor_seating": "yes", "payment:cash": "yes", "payment:credit_cards": "yes", "phone": "+905367768078", "toilets": "yes", "website": "https://www.instagram.com/7masaantakya/", "wheelchair": "yes"}}, {"type": "node", "id": 11366797026, "lat": 36.1593079, "lon": 36.1401609, "tags": {"amenity": "restaurant", "food": "dessert", "name": "Onur K\u00fcnefe"}}, {"type": "node", "id": 11368565558, "lat": 36.3333542, "lon": 36.1997961, "tags": {"addr:city": "Hatay", "addr:district": "Antakya", "addr:neighbourhood": "Z\u00fcl\u00fcfl\u00fchan", "amenity": "cafe", "cuisine": "coffee_shop", "name": "Coffee Clock"}}, {"type": "node", "id": 11368581432, "lat": 36.3312959, "lon": 36.1996273, "tags": {"addr:city": "Hatay", "addr:district": "Antakya", "addr:neighbourhood": "Serinyol", "amenity": "cafe", "cuisine": "coffee_shop;pasta", "internet_access": "wlan", "internet_access:fee": "no", "name": "Mackbear"}}, {"type": "node", "id": 11368832487, "lat": 36.1404357, "lon": 36.1420575, "tags": {"addr:housenumber": "281", "addr:street": "Atat\u00fcrk Bulvar\u0131", "amenity": "restaurant", "food": "kebab", "name": "Kule Restaurant", "phone": "+905349792922", "website": "https://www.kulerestaurant.com"}}, {"type": "node", "id": 11370578991, "lat": 36.3314127, "lon": 36.1996343, "tags": {"addr:city": "Hatay", "addr:district": "Antakya", "addr:neighbourhood": "Z\u00fcl\u00fcfl\u00fchan", "amenity": "cafe", "cuisine": "coffee_shop", "name": "Yemen Kahvesi"}}, {"type": "node", "id": 11370655483, "lat": 36.3382204, "lon": 36.2006342, "tags": {"addr:city": "Hatay", "addr:district": "Antakya", "amenity": "restaurant", "cuisine": "turkish", "name": "Dilara Restorant"}}, {"type": "node", "id": 11370952916, "lat": 36.3344998, "lon": 36.2009094, "tags": {"addr:city": "Hatay", "addr:district": "Antakya", "addr:neighbourhood": "Serinyol", "addr:postcode": "31000", "addr:street": "K\u00fclt\u00fcr Sokak", "amenity": "cafe", "name": "Big Boss Cafe"}}, {"type": "node", "id": 11370969725, "lat": 36.3344874, "lon": 36.2011909, "tags": {"addr:city": "Hatay", "addr:district": "Antakya", "addr:neighbourhood": "Serinyol", "addr:postcode": "31000", "addr:street": "K\u00fclt\u00fcr Sokak", "amenity": "cafe", "name": "Mor Cafe & Oyun Say\u0131s\u0131"}}, {"type": "node", "id": 11371005809, "lat": 36.361828, "lon": 36.2124696, "tags": {"addr:city": "Hatay", "addr:district": "Antakya", "addr:neighbourhood": "Serinyol", "addr:postcode": "31000", "addr:street": "Hatay 2 Caddesi", "amenity": "restaurant", "name": "Nisan Tavuk\u00e7uluk"}}, {"type": "node", "id": 11371005810, "lat": 36.3617315, "lon": 36.2124144, "tags": {"addr:city": "Hatay", "addr:district": "Antakya", "addr:neighbourhood": "Serinyol", "addr:postcode": "31000", "addr:street": "Hatay 2 Caddesi", "amenity": "restaurant", "cuisine": "d\u00f6ner", "name": "Mavi\u015f D\u00f6ner"}}, {"type": "node", "id": 11371095746, "lat": 36.3421602, "lon": 36.201218, "tags": {"addr:city": "Hatay", "addr:district": "Antakya", "addr:neighbourhood": "Serinyol Mahallesi", "addr:postcode": "31000", "addr:street": "Hatay 2 Caddesi", "amenity": "cafe", "name": "A\u00c7ELYA CAFE"}}, {"type": "node", "id": 11371160355, "lat": 36.3386932, "lon": 36.2084465, "tags": {"addr:city": "Hatay", "addr:district": "Antakya", "addr:neighbourhood": "Serinyol Mahallesi", "addr:postcode": "31115", "addr:street": "E5 Karayolu Caddesi", "amenity": "restaurant", "name": "ZEYT\u0130NALTI RESTAURANT", "opening_hours": "24/7", "phone": "05327831287"}}, {"type": "node", "id": 11371173509, "lat": 36.32859, "lon": 36.1991822, "tags": {"addr:city": "Antakya", "addr:district": "Antakya", "addr:neighbourhood": "Z\u00fcl\u00fcfl\u00fchan", "addr:postcode": "31000", "addr:street": "Eski \u0130skenderun Yolu Caddesi", "amenity": "cafe", "name": "Asi Kafe Restorant"}}, {"type": "node", "id": 11371173512, "lat": 36.3349061, "lon": 36.2002666, "tags": {"addr:city": "Hatay", "addr:district": "Antakya", "addr:neighbourhood": "Serinyol", "addr:postcode": "31000", "addr:street": "\u015eefik Seyfettin Bulvar\u0131", "amenity": "restaurant", "cuisine": "turkish;\u00e7i\u011fk\u00f6fte", "name": "\u00c7i\u011fk\u00f6fteci \u00d6mer Usta"}}, {"type": "node", "id": 11371173513, "lat": 36.3349042, "lon": 36.200304, "tags": {"addr:city": "Hatay", "addr:district": "Antakya", "addr:neighbourhood": "Serinyol", "addr:postcode": "31000", "addr:street": "\u015eefik Seyfettin Bulvar\u0131", "amenity": "restaurant", "cuisine": "turkish", "name": "Niran Pide"}}, {"type": "node", "id": 11371173514, "lat": 36.3348859, "lon": 36.2004531, "tags": {"addr:city": "Hatay", "addr:district": "Antakya", "addr:neighbourhood": "Serinyol", "addr:postcode": "31000", "addr:street": "\u015eefik Seyfettin Bulvar\u0131", "amenity": "restaurant", "cuisine": "turkish", "name": "Kul\u00fcbeci K\u00fcnefe"}}, {"type": "node", "id": 11371173516, "lat": 36.3348784, "lon": 36.2005886, "tags": {"addr:city": "Hatay", "addr:district": "Antakya", "addr:neighbourhood": "Serinyol", "addr:postcode": "31000", "addr:street": "\u015eefik Seyfettin Bulvar\u0131", "amenity": "restaurant", "cuisine": "turkish", "name": "Pilavc\u0131 D\u00f6ner"}}, {"type": "node", "id": 11371173517, "lat": 36.3348747, "lon": 36.2007004, "tags": {"addr:city": "Hatay", "addr:district": "Antakya", "addr:neighbourhood": "Serinyol", "addr:postcode": "31000", "addr:street": "\u015eefik Seyfettin Bulvar\u0131", "amenity": "restaurant", "cuisine": "turkish", "name": "\u00dcmit Izgara Kebap Ev Yemekleri"}}, {"type": "node", "id": 11371173519, "lat": 36.3348644, "lon": 36.2008376, "tags": {"addr:city": "Hatay", "addr:district": "Antakya", "addr:neighbourhood": "Serinyol", "addr:postcode": "31000", "addr:street": "\u015eefik Seyfettin Bulvar\u0131", "amenity": "restaurant", "cuisine": "turkish", "name": "Hatay K\u00f6fte"}}, {"type": "node", "id": 11371173523, "lat": 36.3348097, "lon": 36.2013034, "tags": {"addr:city": "Hatay", "addr:district": "Antakya", "addr:neighbourhood": "Serinyol", "addr:postcode": "31000", "addr:street": "\u015eefik Seyfettin Bulvar\u0131", "amenity": "restaurant", "cuisine": "turkish", "name": "\u0130nci Park Kebap"}}, {"type": "node", "id": 11371235831, "lat": 36.3510008, "lon": 36.2140201}, {"type": "node", "id": 11371235832, "lat": 36.3513522, "lon": 36.2144948}, {"type": "node", "id": 11371235833, "lat": 36.3508437, "lon": 36.2150752}, {"type": "node", "id": 11371235834, "lat": 36.3504922, "lon": 36.2146004}, {"type": "node", "id": 11371254700, "lat": 36.3347923, "lon": 36.2014012, "tags": {"addr:city": "Hatay", "addr:district": "Antakya", "addr:neighbourhood": "Serinyol", "addr:postcode": "31000", "addr:street": "\u015eefik Seyfettin Bulvar\u0131", "amenity": "restaurant", "cuisine": "turkish", "name": "K\u00fc\u00e7\u00fck Ev Cafe & Resturant"}}, {"type": "node", "id": 11371254702, "lat": 36.3347661, "lon": 36.2016317, "tags": {"addr:city": "Hatay", "addr:district": "Antakya", "addr:neighbourhood": "Serinyol", "addr:postcode": "31000", "addr:street": "\u015eefik Seyfettin Bulvar\u0131", "amenity": "cafe", "name": "Ye\u015fil\u00e7am Waffle"}}, {"type": "node", "id": 11371254703, "lat": 36.3347358, "lon": 36.2019402, "tags": {"addr:city": "Hatay", "addr:district": "Antakya", "addr:neighbourhood": "Serinyol", "addr:postcode": "31000", "addr:street": "\u015eefik Seyfettin Bulvar\u0131", "amenity": "restaurant", "cuisine": "turkish", "name": "Komagene \u00c7i\u011fk\u00f6fte", "not:brand:wikidata": "Q108919263"}}, {"type": "node", "id": 11371254704, "lat": 36.3347171, "lon": 36.2021711, "tags": {"addr:city": "Hatay", "addr:district": "Antakya", "addr:neighbourhood": "Serinyol", "addr:postcode": "31000", "addr:street": "K\u00fclt\u00fcr Sokak", "amenity": "restaurant", "cuisine": "pizza"}}, {"type": "node", "id": 11371254712, "lat": 36.3348384, "lon": 36.2034154, "tags": {"addr:city": "Hatay", "addr:district": "Antakya", "addr:neighbourhood": "Serinyol", "addr:postcode": "31000", "addr:street": "\u015eefik Seyfettin Bulvar\u0131", "amenity": "restaurant", "cuisine": "turkish", "name": "Deniz Restaurant Cafe"}}, {"type": "node", "id": 11371254714, "lat": 36.3350526, "lon": 36.2005481, "tags": {"addr:city": "Hatay", "addr:district": "Antakya", "addr:neighbourhood": "Serinyol", "addr:postcode": "31000", "addr:street": "\u015eefik Seyfettin Bulvar\u0131", "amenity": "restaurant", "cuisine": "turkish;katmer", "name": "Katmerci Hasan"}}, {"type": "node", "id": 11372664907, "lat": 36.1906642, "lon": 36.1553977, "tags": {"addr:city": "Hatay", "addr:district": "Antakya", "amenity": "restaurant", "cuisine": "turkish", "name": "Harbiye Meze"}}, {"type": "node", "id": 11372687103, "lat": 36.1968597, "lon": 36.1613884, "tags": {"amenity": "restaurant", "cuisine": "turkish", "name": "Yavuz K\u00f6fte"}}, {"type": "node", "id": 11373073935, "lat": 36.2299671, "lon": 36.1311292, "tags": {"addr:street": "183. Sokak", "amenity": "restaurant", "name": "Ali M\u00fcrd\u00fcn", "phone": "+905322185000"}}, {"type": "node", "id": 11373141395, "lat": 36.2579474, "lon": 36.1778094, "tags": {"addr:city": "Hatay", "addr:district": "Antakya", "addr:neighbourhood": "Honda Kav\u015fa\u011f\u0131", "amenity": "restaurant", "cuisine": "turkish", "diet:halal": "yes", "diet:vegan": "yes", "diet:vegetarian": "yes", "name": "Nuri Restaurant"}}, {"type": "node", "id": 11373144363, "lat": 36.2579798, "lon": 36.1776663, "tags": {"addr:city": "Hatay", "addr:district": "Antakya", "addr:neighbourhood": "Honda Kav\u015fa\u011f\u0131", "amenity": "restaurant", "cuisine": "turkish", "name": "Wise K\u00f6fte"}}, {"type": "node", "id": 11373171490, "lat": 36.2579997, "lon": 36.177958, "tags": {"addr:city": "Hatay", "addr:district": "Antakya", "addr:neighbourhood": "Honda Kav\u015fa\u011f\u0131", "amenity": "restaurant", "cuisine": "turkish", "name": "K\u00fcnefeci \u0130smail"}}, {"type": "node", "id": 11373177940, "lat": 36.2579937, "lon": 36.1782372, "tags": {"addr:city": "Hatay", "addr:district": "Antakya", "addr:neighbourhood": "Honda Kav\u015fa\u011f\u0131", "amenity": "restaurant", "cuisine": "turkish", "name": "Antik Han"}}, {"type": "node", "id": 11373191925, "lat": 36.2580609, "lon": 36.1784158, "tags": {"amenity": "cafe", "cuisine": "coffee_shop", "name": "Esmresso Coffee Co."}}, {"type": "node", "id": 11381936748, "lat": 36.2140257, "lon": 36.1239709, "tags": {"addr:city": "Hatay", "amenity": "restaurant", "cuisine": "turkish", "name": "\u00d6zlem Restaurant Cafe"}}, {"type": "node", "id": 11381963222, "lat": 36.2455074, "lon": 36.1537956, "tags": {"addr:city": "Hatay", "amenity": "restaurant", "cuisine": "turkish", "name": "Lava\u015f D\u00f6ner"}}, {"type": "node", "id": 11381980357, "lat": 36.2452627, "lon": 36.1538671, "tags": {"amenity": "restaurant", "cuisine": "turkish", "name": "Yonca Sokak Lezzetleri"}}, {"type": "node", "id": 11382004603, "lat": 36.246358, "lon": 36.1548158, "tags": {"addr:city": "Hatay", "amenity": "restaurant", "cuisine": "turkish", "name": "Kanarya K\u00f6fte"}}, {"type": "node", "id": 11382040207, "lat": 36.2105157, "lon": 36.1594653, "tags": {"addr:city": "Hatay", "addr:district": "Antakya", "amenity": "restaurant", "cuisine": "turkish", "name": "Tad\u0131n Tost K\u00f6fte"}}, {"type": "node", "id": 11390475393, "lat": 36.2528108, "lon": 36.1775403, "tags": {"addr:city": "Hatay", "amenity": "restaurant", "cuisine": "turkish;kokore\u00e7;midye;sucuk", "name": "Ma\u00e7onun Yeri"}}, {"type": "node", "id": 11391438797, "lat": 36.234079, "lon": 36.2035704, "tags": {"addr:city": "Hatay", "amenity": "restaurant", "cuisine": "turkish", "name": "Hatay Tatl\u0131lar\u0131"}}, {"type": "node", "id": 11391484151, "lat": 36.2340926, "lon": 36.2036104, "tags": {"addr:city": "Hatay", "amenity": "restaurant", "cuisine": "turkish", "name": "Pa\u015fazade D\u00f6ner Salonu"}}, {"type": "node", "id": 11391497014, "lat": 36.2373031, "lon": 36.2091191, "tags": {"addr:city": "Hatay", "amenity": "restaurant", "cuisine": "turkish", "name": "Baklava Market"}}, {"type": "node", "id": 11391505222, "lat": 36.2340942, "lon": 36.2036257, "tags": {"amenity": "restaurant", "cuisine": "turkish", "name": "Emin Tatl\u0131"}}, {"type": "node", "id": 11392191503, "lat": 36.2399817, "lon": 36.2151347, "tags": {"amenity": "restaurant", "cuisine": "turkish", "name": "Tatl\u0131c\u0131 Murat Usta"}}, {"type": "node", "id": 11392252400, "lat": 36.1368502, "lon": 36.143052, "tags": {"amenity": "restaurant", "cuisine": "turkish;\u00e7i\u011fk\u00f6fte", "name": "\u00c7i\u011fk\u00f6fteci \u00d6mer Usta"}}, {"type": "node", "id": 11392393545, "lat": 36.1625105, "lon": 36.1393908, "tags": {"amenity": "restaurant", "cuisine": "turkish", "name": "Emmo\u011flu Baklava"}}, {"type": "node", "id": 11392399362, "lat": 36.1632054, "lon": 36.1393004, "tags": {"addr:city": "Hatay", "amenity": "restaurant", "cuisine": "turkish", "name": "D\u00f6nerci Tacettin Usta"}}, {"type": "node", "id": 11403666590, "lat": 36.3620332, "lon": 36.2133334, "tags": {"addr:city": "Hatay", "addr:district": "Antakya", "addr:neighbourhood": "Serinyol", "addr:postcode": "31000", "addr:street": "Atat\u00fcrk Caddesi", "amenity": "restaurant", "cuisine": "turkish;kebab;chicken", "delivery": "yes", "diet:halal": "yes", "name": "D\u00f6nerium Serinyol", "payment:cash": "yes", "phone": "+90 534 295 10 25"}}, {"type": "node", "id": 11591166973, "lat": 36.3626184, "lon": 36.2119891, "tags": {"addr:city": "Hatay", "addr:district": "Antakya", "addr:neighbourhood": "Serinyol", "addr:postcode": "31000", "amenity": "restaurant", "cuisine": "turkish", "name": "Kemal'im Tavuk\u00e7uluk & Pi\u015firme", "phone": "+90 536 680 35 99"}}, {"type": "node", "id": 11748168462, "lat": 36.4152607, "lon": 35.8963592, "tags": {"addr:city": "Hatay", "addr:district": "Arsuz", "addr:housenumber": "11", "addr:neighbourhood": "\u00c7etillik", "addr:postcode": "31270", "addr:street": "G\u00f6zc\u00fcler Mahallesi Cumhuriyet 3 Caddesi", "amenity": "cafe", "cuisine": "dessert;pasta", "diet:healthy": "yes", "diet:lactose_free": "yes", "diet:organic": "yes", "diet:vegan": "yes", "name": "NUT HUNTER", "opening_hours": "Mo-Su 09:00-21:00", "outdoor_seating": "yes", "phone": "+90 507 916 95 55", "website": "https://www.trendyol.com/magaza/ol-ka-gida-m-428091?sst=0"}}, {"type": "node", "id": 11812164169, "lat": 36.2383163, "lon": 36.0734416, "tags": {"addr:city": "hatay", "addr:district": "defne", "addr:housenumber": "16", "addr:neighbourhood": "ball\u0131\u00f6z mahallesi", "addr:postcode": "31100", "amenity": "restaurant", "cuisine": "turkish", "name": "Henna Restaurant", "opening_hours": "08:00-22:00", "outdoor_seating": "yes", "phone": "05373099676"}}, {"type": "node", "id": 12080252166, "lat": 36.2678762, "lon": 36.2293895, "tags": {"addr:city": "Hatay", "addr:district": "Antakya", "amenity": "restaurant", "cuisine": "turkish", "name": "K\u00fcnefeci"}}, {"type": "node", "id": 12080252167, "lat": 36.2679632, "lon": 36.2294388, "tags": {"amenity": "restaurant", "cuisine": "turkish", "name": "D\u00f6nerci"}}, {"type": "node", "id": 12080263751, "lat": 36.2692144, "lon": 36.2307589, "tags": {"addr:city": "Hatay", "addr:district": "Antakya", "amenity": "restaurant", "cuisine": "turkish;patso;kumru", "name": "Dutdibi Kumru", "phone": "+905412756739"}}, {"type": "node", "id": 12080287430, "lat": 36.2681867, "lon": 36.2295458, "tags": {"amenity": "restaurant", "cuisine": "turkish", "name": "Yesem K\u00f6fte"}}, {"type": "node", "id": 12094876484, "lat": 36.2683469, "lon": 36.2296466, "tags": {"addr:city": "Hatay", "addr:district": "Antakya", "addr:neighbourhood": "Alaattin", "amenity": "restaurant", "cuisine": "turkish", "name": "Kartopu D\u00f6ner&Hamburger", "phone": "+905396513015"}}, {"type": "node", "id": 12128162129, "lat": 36.1195774, "lon": 35.9698777, "tags": {"amenity": "restaurant", "diet:vegetarian": "yes", "indoor_seating": "yes", "name": "G\u00fcm\u00fcs", "outdoor_seating": "yes"}}, {"type": "node", "id": 12179491278, "lat": 36.229481, "lon": 36.1677706, "tags": {"addr:city": "Hatay", "addr:district": "Antakya", "addr:housenumber": "No:6", "addr:neighbourhood": "Odaba\u015f\u0131 Mah.", "addr:postcode": "31100", "addr:street": "Akasya Sok.", "air_conditioning": "yes", "amenity": "restaurant", "bar": "yes", "cuisine": "turkish;kebab;meze;regional", "email": "info@altikapi.com.tr", "internet_access": "wlan", "name": "Alt\u0131kap\u0131 Antakya", "opening_hours": "Mo-Su 09:00-23:00", "outdoor_seating": "yes", "payment:american_express": "yes", "payment:cash": "yes", "payment:credit_cards": "yes", "payment:debit_cards": "yes", "payment:maestro": "yes", "payment:mastercard": "yes", "phone": "+90 533 515 6666", "reservation": "required", "toilets": "yes", "website": "https://www.altikapi.com.tr/", "wheelchair": "yes"}}, {"type": "node", "id": 12236316771, "lat": 36.2525466, "lon": 36.1598736, "tags": {"addr:city": "Hatay", "addr:district": "Antakya", "addr:housenumber": "5", "addr:neighbourhood": "Kuzeytepe Mahallesi", "addr:postcode": "31027", "addr:street": "2711. Sokak", "amenity": "cafe", "cuisine": "coffee_shop;burger;sandwich;breakfast;chicken;ice_cream;steak_house", "internet_access": "yes", "internet_access:fee": "customers", "name": "The Gold Lounge & Restaurant", "opening_hours": "Mo-Su 09:00-00:00", "outdoor_seating": "yes", "phone": "0536 474 50 00", "website": "www.instagram.com/thegoldloungerestaurant"}}, {"type": "node", "id": 12567656148, "lat": 36.2296385, "lon": 36.1678516, "tags": {"addr:city": "Hatay", "addr:district": "Antakya", "addr:neighbourhood": "Odaba\u015f\u0131 Mah.", "addr:postcode": "31100", "addr:street": "Akasya Sok.", "amenity": "restaurant", "name": "Sveyka Gurme"}}, {"type": "node", "id": 12567656149, "lat": 36.2296738, "lon": 36.1677243, "tags": {"addr:city": "Hatay", "addr:district": "Antakya", "addr:neighbourhood": "Odaba\u015f\u0131 Mah.", "addr:postcode": "31100", "addr:street": "Akasya Sok.", "amenity": "restaurant", "name": "G\u00f6zde \u0130skender & Pa\u00e7a"}}, {"type": "node", "id": 12567656151, "lat": 36.2295849, "lon": 36.167504, "tags": {"addr:city": "Hatay", "addr:district": "Antakya", "addr:neighbourhood": "Odaba\u015f\u0131 Mah.", "addr:postcode": "31100", "addr:street": "Akasya Sok.", "amenity": "restaurant", "name": "\u00c7\u0131naralt\u0131 K\u00fcnefe"}}, {"type": "node", "id": 12567656152, "lat": 36.2297253, "lon": 36.1675841, "tags": {"addr:city": "Hatay", "addr:district": "Antakya", "addr:neighbourhood": "Odaba\u015f\u0131 Mah.", "addr:postcode": "31100", "addr:street": "Akasya Sok.", "amenity": "cafe", "name": "Kafe 1939"}}, {"type": "node", "id": 12567656153, "lat": 36.2296296, "lon": 36.1673577, "tags": {"addr:city": "Hatay", "addr:district": "Antakya", "addr:neighbourhood": "Odaba\u015f\u0131 Mah.", "addr:postcode": "31100", "addr:street": "Akasya Sok.", "amenity": "restaurant", "name": "Bucaklar F\u0131r\u0131n"}}, {"type": "node", "id": 12567656154, "lat": 36.2297514, "lon": 36.1669695, "tags": {"addr:city": "Hatay", "addr:district": "Antakya", "addr:neighbourhood": "Odaba\u015f\u0131 Mah.", "addr:postcode": "31100", "addr:street": "Akasya Sok.", "amenity": "restaurant", "name": "Salah Ocakba\u015f\u0131"}}, {"type": "node", "id": 12567656155, "lat": 36.2298334, "lon": 36.1672098, "tags": {"addr:city": "Hatay", "addr:district": "Antakya", "addr:neighbourhood": "Odaba\u015f\u0131 Mah.", "addr:postcode": "31100", "addr:street": "Akasya Sok.", "amenity": "restaurant", "name": "La Mistik"}}, {"type": "node", "id": 12567656156, "lat": 36.2297937, "lon": 36.1668262, "tags": {"addr:city": "Hatay", "addr:district": "Antakya", "addr:neighbourhood": "Odaba\u015f\u0131 Mah.", "addr:postcode": "31100", "addr:street": "Akasya Sok.", "amenity": "restaurant", "name": "Humus\u00e7u Nedim Usta"}}, {"type": "node", "id": 12567656157, "lat": 36.2298807, "lon": 36.1670604, "tags": {"addr:city": "Hatay", "addr:district": "Antakya", "addr:neighbourhood": "Odaba\u015f\u0131 Mah.", "addr:postcode": "31100", "addr:street": "Akasya Sok.", "amenity": "restaurant", "name": "G\u00fcven D\u00f6ner"}}, {"type": "node", "id": 12567656158, "lat": 36.2298372, "lon": 36.1666645, "tags": {"addr:city": "Hatay", "addr:district": "Antakya", "addr:neighbourhood": "Odaba\u015f\u0131 Mah.", "addr:postcode": "31100", "addr:street": "Akasya Sok.", "amenity": "restaurant", "name": "Han D\u00f6ner & iSKENDER"}}, {"type": "node", "id": 12567656159, "lat": 36.2299353, "lon": 36.1669263, "tags": {"addr:city": "Hatay", "addr:district": "Antakya", "addr:neighbourhood": "Odaba\u015f\u0131 Mah.", "addr:postcode": "31100", "addr:street": "Akasya Sok.", "amenity": "restaurant", "name": "Tarihi Bizim K\u00fcnefeci"}}, {"type": "node", "id": 12567656160, "lat": 36.229995, "lon": 36.1667569, "tags": {"addr:city": "Hatay", "addr:district": "Antakya", "addr:neighbourhood": "Odaba\u015f\u0131 Mah.", "addr:postcode": "31100", "addr:street": "Akasya Sok.", "amenity": "restaurant", "name": "Hac\u0131 Fuat"}}, {"type": "node", "id": 12567656161, "lat": 36.2297036, "lon": 36.1671235, "tags": {"addr:city": "Hatay", "addr:district": "Antakya", "addr:neighbourhood": "Odaba\u015f\u0131 Mah.", "addr:postcode": "31100", "addr:street": "Akasya Sok.", "amenity": "restaurant", "name": "P\u00f6\u00e7 Kasab\u0131"}}, {"type": "way", "id": 462871781, "nodes": [4581987438, 4581987439, 4581987440, 4581987441, 4581987442, 10618779255, 4581987443, 4581987444, 4581987445, 4581987446, 4581987447, 4581987438], "tags": {"amenity": "restaurant", "building": "yes", "name": "Truva Restorant"}}, {"type": "way", "id": 462871789, "nodes": [4581989289, 4581989290, 4581989291, 4581989292, 4581989289], "tags": {"amenity": "restaurant", "building": "yes", "name": "R\u0131dvano\u011flu Kasab\u0131"}}, {"type": "way", "id": 465462179, "nodes": [6485220335, 4604242626, 6485220339, 6485220336, 6485220335], "tags": {"amenity": "restaurant", "building": "yes"}}, {"type": "way", "id": 490994624, "nodes": [4831605346, 4831605347, 4831605348, 4831605360, 4831605349, 4831605346], "tags": {"amenity": "cafe", "building": "yes", "name": "opera pastanesi"}}, {"type": "way", "id": 491587983, "nodes": [4836692076, 6508257796, 6508257797, 4836692079, 4836692076], "tags": {"amenity": "restaurant", "building": "yes", "name": "bizim ev yemejleri"}}, {"type": "way", "id": 491592154, "nodes": [6508525227, 4836728744, 4836728745, 10621244452, 10621244455, 10621244454, 10621244453, 4836728746, 6508525227], "tags": {"amenity": "cafe", "building": "yes", "name": "AKDEN\u0130Z KAFE"}}, {"type": "way", "id": 491597408, "nodes": [4836773535, 4836773536, 4836773537, 4836773538, 4836773535], "tags": {"amenity": "cafe", "building": "yes"}}, {"type": "way", "id": 495548713, "nodes": [4872887954, 4872887955, 4872887956, 4872887957, 4872887954], "tags": {"amenity": "cafe", "building": "yes"}}, {"type": "way", "id": 495548714, "nodes": [4872887958, 4872887959, 4872887960, 4872887961, 4872887958], "tags": {"amenity": "cafe", "building": "yes"}}, {"type": "way", "id": 1139808225, "nodes": [10621977206, 10621977207, 10621977208, 10621977209, 10621977206], "tags": {"addr:city": "Hatay", "addr:district": "Arsuz", "addr:housenumber": "N0:20/1", "addr:neighbourhood": "Ulu\u00e7\u0131nar Mah.", "addr:postcode": "31285", "addr:street": "Akdeniz 6 Caddesi", "amenity": "restaurant", "building": "yes", "cuisine": "regional;seafood;turkish", "name": "Sarf Arsuz", "opening_hours": "sunrise-sunset", "payment:american_express": "yes", "payment:cash": "yes", "payment:credit_cards": "yes", "payment:mastercard": "yes", "payment:visa": "yes", "phone": "+905302619830", "smoking": "outside", "source": "microsoft/BuildingFootprints", "toilets": "yes", "website": "https://www.instagram.com/sarfarsuz/"}}, {"type": "way", "id": 1140079672, "nodes": [10623446692, 10623446693, 10623446694, 10623446695, 10623446692], "tags": {"amenity": "cafe", "building": "yes", "cuisine": "coffee_shop;dessert", "name": "PLEPO CO. cafe", "outdoor_seating": "yes"}}, {"type": "way", "id": 1140674678, "nodes": [10628133221, 11371005809, 10628133222, 10628133223, 10628133224, 10628133221], "tags": {"addr:city": "Hatay", "addr:district": "Antakya", "addr:neighbourhood": "Serinyol", "addr:postcode": "31000", "addr:street": "Hatay 2 Caddesi", "amenity": "restaurant", "building": "yes", "opening_hours": "Mo-Su 07:00-23:00", "source": "microsoft/BuildingFootprints"}}, {"type": "way", "id": 1140708838, "nodes": [10628504150, 10628504151, 10628504152, 10628504153, 10628504150], "tags": {"addr:city": "Hatay", "addr:district": "Antakya", "addr:street": "Atat\u00fcrk (Ye\u015filova) Caddesi", "amenity": "restaurant", "building": "yes", "name": "Akdeniz F\u0131r\u0131nl\u0131 Restaurant", "source": "microsoft/BuildingFootprints"}}, {"type": "way", "id": 1141329594, "nodes": [10632558680, 10632558681, 10632558682, 10632558683, 10632558680], "tags": {"addr:city": "Hatay", "addr:district": "Defne", "addr:housenumber": "24", "addr:neighbourhood": "Egemenlik Cad.", "addr:postcode": "31160", "addr:street": "Harbiye Bulvar\u0131", "amenity": "cafe", "bar": "yes", "building": "yes", "cuisine": "burger;pizza;chicken;coffee_shop;sandwich;kebab;ice_cream", "internet_access": "wlan", "internet_access:fee": "no", "name": "Oasis Garden", "opening_hours": "24/7", "outdoor_seating": "yes", "payment:cash": "yes", "payment:credit_cards": "yes", "payment:debit_cards": "yes", "payment:mastercard": "yes", "payment:visa": "yes", "phone": "+905358242400", "smoking": "yes"}}, {"type": "way", "id": 1226205834, "nodes": [11371235831, 11371235832, 11371235833, 11371235834, 11371235831], "tags": {"addr:city": "Hatay", "addr:district": "Antakya", "addr:postcode": "31000", "addr:street": "E5 Karayolu Caddesi", "amenity": "cafe", "building": "yes", "cuisine": "burger;pizza;ice_cream;baklava", "name": "Emmo\u011flu Cafe"}}]}