{"version": 0.6, "generator": "Overpass API 0.7.62.7 375dc00a", "osm3s": {"timestamp_osm_base": "2025-06-14T15:11:57Z", "copyright": "The data included in this document is from www.openstreetmap.org. The data is made available under ODbL."}, "elements": [{"type": "node", "id": 365242511, "lat": 38.3859945, "lon": 33.9939611, "tags": {"addr:city": "Aksaray", "amenity": "restaurant", "name": "A\u011fa\u00e7l\u0131 Turistik Tesisleri"}}, {"type": "node", "id": 1757256976, "lat": 38.2564873, "lon": 34.295996, "tags": {"amenity": "restaurant", "cuisine": "regional", "delivery": "no", "name": "Diker \u00c7ay Bah\u00e7esi", "smoking": "yes"}}, {"type": "node", "id": 1757257151, "lat": 38.2669984, "lon": 34.2887667, "tags": {"amenity": "restaurant"}}, {"type": "node", "id": 1829367420, "lat": 38.2668238, "lon": 34.2887861, "tags": {"amenity": "restaurant", "cuisine": "turkish", "internet_access:fee": "no", "name": "Asian restaurant", "name:en": "Aslan restaurant", "name:fr": "Aslan restaurant", "name:tr": "Aslan restaurant"}}, {"type": "node", "id": 2941781762, "lat": 38.4037713, "lon": 33.9812617, "tags": {"amenity": "restaurant"}}, {"type": "node", "id": 3241699456, "lat": 38.3542917, "lon": 33.9707614}, {"type": "node", "id": 3241699457, "lat": 38.3540961, "lon": 33.9707641}, {"type": "node", "id": 3241699458, "lat": 38.3541003, "lon": 33.9705388}, {"type": "node", "id": 3241699459, "lat": 38.3542959, "lon": 33.9705361}, {"type": "node", "id": 3251639528, "lat": 38.3262115, "lon": 33.9884279}, {"type": "node", "id": 3251639529, "lat": 38.3261365, "lon": 33.988527}, {"type": "node", "id": 3251639530, "lat": 38.3261754, "lon": 33.9885695}, {"type": "node", "id": 3251639531, "lat": 38.3261976, "lon": 33.9886757}, {"type": "node", "id": 3251639532, "lat": 38.3261865, "lon": 33.9887464}, {"type": "node", "id": 3251639533, "lat": 38.3262865, "lon": 33.9887889}, {"type": "node", "id": 3251639534, "lat": 38.3262976, "lon": 33.9887004}, {"type": "node", "id": 3251639535, "lat": 38.326367, "lon": 33.9886297}, {"type": "node", "id": 3251639536, "lat": 38.3263448, "lon": 33.9885058}, {"type": "node", "id": 3251639537, "lat": 38.3262504, "lon": 33.9884845}, {"type": "node", "id": 3625043394, "lat": 38.3676911, "lon": 34.0090268, "tags": {"addr:city": "Aksaray", "amenity": "cafe", "brand": "Mado", "brand:wikidata": "Q17116336", "brand:wikipedia": "en:Mado (food company)", "cuisine": "coffee_shop", "name": "Mado", "takeaway": "yes"}}, {"type": "node", "id": 3625048974, "lat": 38.3668636, "lon": 34.0145338, "tags": {"addr:city": "Aksaray", "amenity": "cafe", "internet_access": "yes", "name": "G\u00f6n\u00fcl Kahvesi"}}, {"type": "node", "id": 3625053740, "lat": 38.3689287, "lon": 34.0187802, "tags": {"addr:city": "Aksaray", "amenity": "cafe"}}, {"type": "node", "id": 3625055525, "lat": 38.368478, "lon": 34.0181289, "tags": {"amenity": "cafe"}}, {"type": "node", "id": 4071880551, "lat": 38.2986533, "lon": 34.2627926, "tags": {"amenity": "restaurant", "cuisine": "regional", "name": "Catlagin Yeri", "smoking": "outside"}}, {"type": "node", "id": 4119248993, "lat": 38.2652259, "lon": 34.2906868, "tags": {"amenity": "restaurant", "cuisine": "turkish", "internet_access": "wlan", "name": "Belisirma Restaurant"}}, {"type": "node", "id": 5331756021, "lat": 38.3843337, "lon": 33.9950017, "tags": {"amenity": "restaurant", "name": "Bolu Et Magal"}}, {"type": "node", "id": 5895905157, "lat": 38.1800869, "lon": 34.3965672, "tags": {"amenity": "cafe", "name": "Mahmutlu Kahvehanesi"}}, {"type": "node", "id": 6176772386, "lat": 38.2397731, "lon": 34.3072913, "tags": {"amenity": "cafe"}}, {"type": "node", "id": 6176824085, "lat": 38.2391804, "lon": 34.3068909, "tags": {"amenity": "restaurant"}}, {"type": "node", "id": 6176824385, "lat": 38.239151, "lon": 34.3070255, "tags": {"amenity": "cafe"}}, {"type": "node", "id": 6176824585, "lat": 38.2397325, "lon": 34.3071035, "tags": {"amenity": "restaurant", "name": "Baba Kebab"}}, {"type": "node", "id": 6373407497, "lat": 38.3776901, "lon": 34.0442314}, {"type": "node", "id": 6373407498, "lat": 38.3776327, "lon": 34.0441338}, {"type": "node", "id": 6373407499, "lat": 38.3775154, "lon": 34.0441399}, {"type": "node", "id": 6373407500, "lat": 38.3774748, "lon": 34.0442497}, {"type": "node", "id": 6373407501, "lat": 38.3774987, "lon": 34.0443626}, {"type": "node", "id": 6373407502, "lat": 38.3775681, "lon": 34.0444115}, {"type": "node", "id": 6373407503, "lat": 38.3776733, "lon": 34.0443535}, {"type": "node", "id": 6373407504, "lat": 38.3775657, "lon": 34.0442589, "tags": {"amenity": "restaurant", "name": "ksaray Belediyesi K\u0131l\u0131\u00e7arslan Sosyal Tesisleri"}}, {"type": "node", "id": 6373722585, "lat": 38.3764776, "lon": 34.03289, "tags": {"amenity": "restaurant", "name:en": "Pita restaurant"}}, {"type": "node", "id": 6374130386, "lat": 38.3748095, "lon": 34.0323364, "tags": {"amenity": "restaurant", "name:en": "Serince, cig k\u00f6fte"}}, {"type": "node", "id": 6681012285, "lat": 38.3563029, "lon": 33.9724611, "tags": {"amenity": "restaurant", "name": "Tapan Dinlenme Tesisleri", "name:ar": "\u0645\u0637\u0639\u0645", "name:en": "restaurant", "name:tr": "taban tesisleri & et mangal market"}}, {"type": "node", "id": 6758714385, "lat": 38.2669849, "lon": 34.2893044, "tags": {"amenity": "restaurant", "cuisine": "local", "name": "Gregorius"}}, {"type": "node", "id": 7135280076, "lat": 38.3678624, "lon": 34.0177321, "tags": {"amenity": "restaurant", "cuisine": "turkish", "name": "Karde\u015fler Restaurant"}}, {"type": "node", "id": 7879145420, "lat": 38.3597015, "lon": 34.0388173, "tags": {"amenity": "restaurant", "name": "Aksaray Lahmacun"}}, {"type": "node", "id": 8009383885, "lat": 38.3567599, "lon": 33.9701697, "tags": {"amenity": "cafe"}}, {"type": "node", "id": 8041896526, "lat": 38.3682137, "lon": 34.0205234, "tags": {"amenity": "cafe", "cuisine": "coffee_shop", "internet_access": "yes", "internet_access:fee": "customers", "name": "Cio Borad Game Cafe", "outdoor_seating": "yes"}}, {"type": "node", "id": 8289604301, "lat": 38.3480484, "lon": 33.9569493, "tags": {"amenity": "restaurant", "cuisine": "turkish", "name": "Da\u011f\u0131stan Et Mangal"}}, {"type": "node", "id": 8289604302, "lat": 38.3480099, "lon": 33.9567181}, {"type": "node", "id": 8289604303, "lat": 38.3482296, "lon": 33.957125}, {"type": "node", "id": 8289604304, "lat": 38.3481136, "lon": 33.9572269}, {"type": "node", "id": 8289604305, "lat": 38.3478938, "lon": 33.95682}, {"type": "node", "id": 8480915581, "lat": 38.3681418, "lon": 34.0175377, "tags": {"amenity": "restaurant", "name": "Hot D\u00f6ner"}}, {"type": "node", "id": 8480919593, "lat": 38.3680795, "lon": 34.0174342, "tags": {"amenity": "restaurant", "name": "Kaos D\u00f6ner"}}, {"type": "node", "id": 8842530021, "lat": 38.4068223, "lon": 33.9774543, "tags": {"amenity": "restaurant", "name": "HAS D\u00f6ner"}}, {"type": "node", "id": 8944234919, "lat": 38.3806353, "lon": 34.0462138}, {"type": "node", "id": 8944234920, "lat": 38.3806283, "lon": 34.0463541}, {"type": "node", "id": 8944234921, "lat": 38.3807107, "lon": 34.0463608}, {"type": "node", "id": 8944234922, "lat": 38.3807163, "lon": 34.0462505}, {"type": "node", "id": 8944234923, "lat": 38.3806752, "lon": 34.0462471}, {"type": "node", "id": 8944234924, "lat": 38.3806767, "lon": 34.0462171}, {"type": "node", "id": 8951380222, "lat": 38.3667299, "lon": 34.0121482, "tags": {"amenity": "cafe", "name": "At\u00f6lye"}}, {"type": "node", "id": 8954265925, "lat": 38.3675323, "lon": 34.0299236}, {"type": "node", "id": 8954265926, "lat": 38.3674694, "lon": 34.0299744}, {"type": "node", "id": 8954265927, "lat": 38.3675264, "lon": 34.0300892}, {"type": "node", "id": 8954265928, "lat": 38.3675893, "lon": 34.0300384}, {"type": "node", "id": 8973734638, "lat": 38.3048291, "lon": 34.2537578}, {"type": "node", "id": 8973734639, "lat": 38.3048161, "lon": 34.2539635}, {"type": "node", "id": 8973734640, "lat": 38.304763, "lon": 34.2539581}, {"type": "node", "id": 8973734641, "lat": 38.3047671, "lon": 34.2538933}, {"type": "node", "id": 8973734642, "lat": 38.3046734, "lon": 34.2538838}, {"type": "node", "id": 8973734643, "lat": 38.3046796, "lon": 34.2537846}, {"type": "node", "id": 8973734644, "lat": 38.3047782, "lon": 34.2537947}, {"type": "node", "id": 8973734645, "lat": 38.3047808, "lon": 34.2537528}, {"type": "node", "id": 8973852058, "lat": 38.3680206, "lon": 34.0010027}, {"type": "node", "id": 8973852059, "lat": 38.3679647, "lon": 34.0010322}, {"type": "node", "id": 8973852060, "lat": 38.3679975, "lon": 34.0011336}, {"type": "node", "id": 8973852061, "lat": 38.3680535, "lon": 34.0011041}, {"type": "node", "id": 8973852062, "lat": 38.3681668, "lon": 34.0015684}, {"type": "node", "id": 8973852063, "lat": 38.3681109, "lon": 34.0015979}, {"type": "node", "id": 8973852064, "lat": 38.3681437, "lon": 34.0016993}, {"type": "node", "id": 8973852065, "lat": 38.3681996, "lon": 34.0016698}, {"type": "node", "id": 9017648040, "lat": 38.3711483, "lon": 34.0245233, "tags": {"amenity": "restaurant", "name": "Tost food"}}, {"type": "node", "id": 9017651094, "lat": 38.3710262, "lon": 34.0247666, "tags": {"amenity": "restaurant", "name": "Aksaray D\u00f6ner"}}, {"type": "node", "id": 9357418977, "lat": 38.367502, "lon": 34.0170315}, {"type": "node", "id": 9357418978, "lat": 38.367621, "lon": 34.0172296}, {"type": "node", "id": 9357418979, "lat": 38.3673706, "lon": 34.0174742}, {"type": "node", "id": 9357418980, "lat": 38.3672516, "lon": 34.0172761}, {"type": "node", "id": 9357474871, "lat": 38.3705126, "lon": 34.0226046, "tags": {"amenity": "cafe", "cuisine": "coffee_shop;ice_cream", "name": "\u00d6zs\u00fct"}}, {"type": "node", "id": 9375560469, "lat": 38.3229506, "lon": 34.0522229}, {"type": "node", "id": 9375560470, "lat": 38.3229575, "lon": 34.0524709}, {"type": "node", "id": 9375560471, "lat": 38.3227499, "lon": 34.0524802}, {"type": "node", "id": 9375560472, "lat": 38.3227431, "lon": 34.0522322}, {"type": "node", "id": 9391562305, "lat": 38.3696976, "lon": 34.009942, "tags": {"amenity": "restaurant", "cuisine": "turkish", "name": "\u00c7avu\u015f Pide & Kebap"}}, {"type": "node", "id": 9409625499, "lat": 38.2777927, "lon": 34.3721355, "tags": {"amenity": "cafe"}}, {"type": "node", "id": 9413737294, "lat": 38.3667751, "lon": 34.0060292, "tags": {"amenity": "cafe", "name": "Simit Cafe"}}, {"type": "node", "id": 9417687216, "lat": 38.3680554, "lon": 34.0107313}, {"type": "node", "id": 9417725117, "lat": 38.3680304, "lon": 34.0109237}, {"type": "node", "id": 9417725118, "lat": 38.3677917, "lon": 34.0108734}, {"type": "node", "id": 9417725119, "lat": 38.3678046, "lon": 34.0107737}, {"type": "node", "id": 9417725120, "lat": 38.3677489, "lon": 34.0107619}, {"type": "node", "id": 9417725121, "lat": 38.367761, "lon": 34.0106692}, {"type": "node", "id": 9417725126, "lat": 38.3680751, "lon": 34.0115534}, {"type": "node", "id": 9417725127, "lat": 38.3680802, "lon": 34.0119231}, {"type": "node", "id": 9417725128, "lat": 38.368168, "lon": 34.0119212}, {"type": "node", "id": 9417725129, "lat": 38.3681629, "lon": 34.0115514}, {"type": "node", "id": 9418341693, "lat": 38.3692278, "lon": 34.0200473, "tags": {"amenity": "restaurant", "cuisine": "turkish", "name": "Ci\u011ferci Bahattin"}}, {"type": "node", "id": 9418341694, "lat": 38.3694494, "lon": 34.0204676, "tags": {"amenity": "restaurant", "cuisine": "turkish", "name": "\u015eehzade"}}, {"type": "node", "id": 9418341695, "lat": 38.3697888, "lon": 34.0213478, "tags": {"amenity": "restaurant", "cuisine": "turkish", "name": "K\u00fcnefeland"}}, {"type": "node", "id": 9418341696, "lat": 38.3696364, "lon": 34.0208549, "tags": {"amenity": "restaurant", "cuisine": "turkish", "name": "HAS D\u00f6ner"}}, {"type": "node", "id": 9418341697, "lat": 38.3687576, "lon": 34.0191611, "tags": {"amenity": "restaurant", "cuisine": "turkish", "name": "Blanca"}}, {"type": "node", "id": 9418341703, "lat": 38.3691143, "lon": 34.0190774, "tags": {"amenity": "restaurant", "name": "El\u00e7ibey Cafe & Restaurant"}}, {"type": "node", "id": 9752616103, "lat": 38.3822914, "lon": 34.043223, "tags": {"amenity": "cafe"}}, {"type": "node", "id": 9798211612, "lat": 38.2396718, "lon": 34.3078028, "tags": {"amenity": "restaurant", "name": "Star Restaurant"}}, {"type": "node", "id": 9798212060, "lat": 38.2395485, "lon": 34.3073552, "tags": {"amenity": "cafe"}}, {"type": "node", "id": 9833662317, "lat": 38.2776658, "lon": 34.3710249, "tags": {"amenity": "restaurant", "name": "Ailem"}}, {"type": "node", "id": 9916409517, "lat": 38.3066238, "lon": 34.2548408, "tags": {"amenity": "cafe", "name:en": "Star Wars coffee"}}, {"type": "node", "id": 9994158287, "lat": 38.3660528, "lon": 34.0242879, "tags": {"amenity": "restaurant", "name": "Mustafa Chef"}}, {"type": "node", "id": 10106626911, "lat": 38.3874413, "lon": 33.9927539, "tags": {"amenity": "restaurant", "brand": "K\u00f6fteci Yusuf", "brand:wikidata": "Q126125081", "cuisine": "turkish", "name": "K\u00f6fteci Yusuf", "website": "https://kofteciyusuf.com/"}}, {"type": "node", "id": 10106663269, "lat": 38.3863276, "lon": 33.9937967, "tags": {"amenity": "cafe", "branch": "A\u011fa\u00e7l\u0131", "brand": "Mado", "brand:wikidata": "Q17116336", "brand:wikipedia": "en:Mado (food company)", "cuisine": "coffee_shop", "name": "Mado", "takeaway": "yes"}}, {"type": "node", "id": 10106691364, "lat": 38.3858861, "lon": 33.9944163, "tags": {"amenity": "restaurant", "name": "A\u011fa\u00e7l\u0131 Restaurant"}}, {"type": "node", "id": 10107206676, "lat": 38.4012152, "lon": 34.1231275, "tags": {"amenity": "restaurant", "name": "K\u00f6sem restaurant"}}, {"type": "node", "id": 10214299917, "lat": 38.3644264, "lon": 34.0127147, "tags": {"amenity": "restaurant", "name": "KMU Karde\u015fler Mehmet Usta"}}, {"type": "node", "id": 10650623342, "lat": 38.3689863, "lon": 34.0109265}, {"type": "node", "id": 10650623343, "lat": 38.3686842, "lon": 34.0109599}, {"type": "node", "id": 10650623344, "lat": 38.3687436, "lon": 34.0116533}, {"type": "node", "id": 10650623345, "lat": 38.3687734, "lon": 34.0116487}, {"type": "node", "id": 10732837839, "lat": 38.239107, "lon": 34.3062733, "tags": {"amenity": "restaurant", "cuisine": "turkish"}}, {"type": "node", "id": 10732837852, "lat": 38.2646009, "lon": 34.2907571, "tags": {"amenity": "restaurant", "cuisine": "turkish"}}, {"type": "node", "id": 10732837854, "lat": 38.2643327, "lon": 34.291107, "tags": {"amenity": "restaurant", "cuisine": "turkish"}}, {"type": "node", "id": 10862136422, "lat": 38.368878, "lon": 34.0294043, "tags": {"amenity": "restaurant", "cuisine": "regional", "name": "Kent locantas\u0131"}}, {"type": "node", "id": 10862136423, "lat": 38.3630321, "lon": 34.0074056}, {"type": "node", "id": 10862136424, "lat": 38.3627153, "lon": 34.0074756}, {"type": "node", "id": 10862136425, "lat": 38.3627428, "lon": 34.0077161}, {"type": "node", "id": 10862136426, "lat": 38.3630614, "lon": 34.0076951}, {"type": "node", "id": 11199334042, "lat": 38.2636774, "lon": 33.9911703, "tags": {"amenity": "restaurant", "source": "bing"}}, {"type": "node", "id": 11199334053, "lat": 38.3295516, "lon": 33.9761055, "tags": {"amenity": "restaurant", "name": "Kamp\u00fcs Et Mangal"}}, {"type": "node", "id": 11578189525, "lat": 38.246033, "lon": 34.1562495, "tags": {"amenity": "cafe"}}, {"type": "node", "id": 11578189526, "lat": 38.2461132, "lon": 34.1564066, "tags": {"amenity": "cafe"}}, {"type": "node", "id": 11578189527, "lat": 38.2462443, "lon": 34.1567562, "tags": {"amenity": "cafe"}}, {"type": "node", "id": 12020113198, "lat": 38.3652005, "lon": 34.0120526, "tags": {"amenity": "cafe", "brand": "Starbucks", "brand:wikidata": "Q37158", "cuisine": "coffee_shop", "name": "Starbucks", "official_name": "Starbucks Coffee", "takeaway": "yes"}}, {"type": "node", "id": 12020123115, "lat": 38.4012435, "lon": 34.0283544, "tags": {"amenity": "restaurant", "cuisine": "turkish", "name": "Esentepe Restaurant"}}, {"type": "node", "id": 12030784373, "lat": 38.364682, "lon": 34.0210321, "tags": {"amenity": "restaurant", "cuisine": "turkish;d\u00f6ner", "name": "Has D\u00f6ner"}}, {"type": "node", "id": 12813362235, "lat": 38.2699072, "lon": 34.2890357, "tags": {"amenity": "restaurant", "name": "Birolun Yeri", "phone": "+905428998182"}}, {"type": "node", "id": 12813410560, "lat": 38.2699072, "lon": 34.2890357, "tags": {"amenity": "restaurant", "name": "Birolun Yeri", "phone": "+905428998182"}}, {"type": "way", "id": 317856246, "nodes": [3241699456, 3241699457, 3241699458, 3241699459, 3241699456], "tags": {"addr:city": "Aksaray", "amenity": "cafe", "area": "yes", "building": "yes", "internet_access": "yes", "name": "\u0130cemar"}}, {"type": "way", "id": 318785551, "nodes": [3251639528, 3251639529, 3251639530, 3251639531, 3251639532, 3251639533, 3251639534, 3251639535, 3251639536, 3251639537, 3251639528], "tags": {"addr:city": "Aksaray", "addr:housenumber": "Aksaray \u00dcniversitesi", "amenity": "cafe", "area": "yes", "building": "yes", "name": "As\u00fc Cafe"}}, {"type": "way", "id": 680649711, "nodes": [6373407497, 6373407498, 6373407499, 6373407500, 6373407501, 6373407502, 6373407503, 6373407497], "tags": {"amenity": "restaurant", "building": "yes"}}, {"type": "way", "id": 891897011, "nodes": [8289604302, 8289604303, 8289604304, 8289604305, 8289604302], "tags": {"amenity": "restaurant", "building": "yes", "cuisine": "turkish", "name": "Da\u011f\u0131stan Et Mangal"}}, {"type": "way", "id": 966746266, "nodes": [8944234919, 8944234920, 8944234921, 8944234922, 8944234923, 8944234924, 8944234919], "tags": {"amenity": "restaurant", "building": "yes"}}, {"type": "way", "id": 967875744, "nodes": [8954265925, 8954265926, 8954265927, 8954265928, 8954265925], "tags": {"amenity": "cafe", "building": "yes", "name": "Sel\u00e7uklu Cafe"}}, {"type": "way", "id": 969723657, "nodes": [8973734638, 8973734639, 8973734640, 8973734641, 8973734642, 8973734643, 8973734644, 8973734645, 8973734638], "tags": {"amenity": "cafe", "building": "yes", "name": "Efeo\u011flu Piknik Kebab"}}, {"type": "way", "id": 969734695, "nodes": [8973852058, 8973852059, 8973852060, 8973852061, 8973852058], "tags": {"amenity": "cafe", "building": "yes", "name": "Tacin Kafe"}}, {"type": "way", "id": 969734696, "nodes": [8973852062, 8973852063, 8973852064, 8973852065, 8973852062], "tags": {"amenity": "cafe", "building": "yes"}}, {"type": "way", "id": 1014258635, "nodes": [9357418977, 9357418978, 9357418979, 9357418980, 9357418977], "tags": {"amenity": "restaurant", "building": "yes", "name": "The Hunger"}}, {"type": "way", "id": 1016493324, "nodes": [9375560469, 9375560470, 9375560471, 9375560472, 9375560469], "tags": {"amenity": "restaurant", "building": "yes", "name": "Meva Park"}}, {"type": "way", "id": 1021090092, "nodes": [9417687216, 9417725117, 9417725118, 9417725119, 9417725120, 9417725121, 9417687216], "tags": {"amenity": "cafe", "building": "yes"}}, {"type": "way", "id": 1021090094, "nodes": [9417725126, 9417725127, 9417725128, 9417725129, 9417725126], "tags": {"amenity": "cafe", "building": "yes"}}, {"type": "way", "id": 1144213201, "nodes": [10650623342, 10650623343, 10650623344, 10650623345, 10650623342], "tags": {"amenity": "cafe", "building": "yes"}}, {"type": "way", "id": 1167938049, "nodes": [10862136423, 10862136424, 10862136425, 10862136426, 10862136423], "tags": {"amenity": "restaurant", "building": "yes", "name": "Kebap\u00e7\u0131 Bayram Usta"}}]}