{"version": 0.6, "generator": "Overpass API 0.7.62.7 375dc00a", "osm3s": {"timestamp_osm_base": "2025-06-14T15:39:30Z", "copyright": "The data included in this document is from www.openstreetmap.org. The data is made available under ODbL."}, "elements": [{"type": "node", "id": 460344333, "lat": 13.4935593, "lon": 39.4730112, "tags": {"amenity": "restaurant", "cuisine": "regional", "name": "Yordanos Blue"}}, {"type": "node", "id": 471336949, "lat": 13.4964097, "lon": 39.4772874, "tags": {"amenity": "cafe", "name": "\u1209\u1232 \u1218\u1293\u1348\u123b", "name:en": "Lucy Recreational Center"}}, {"type": "node", "id": 471336963, "lat": 13.4951902, "lon": 39.4735871, "tags": {"amenity": "cafe", "name": "Bitsuan Cafe"}}, {"type": "node", "id": 471336984, "lat": 13.4891983, "lon": 39.4696656, "tags": {"amenity": "cafe", "name": "Dinu's Corner", "name:en": "Danus cafe #1"}}, {"type": "node", "id": 471336986, "lat": 13.4868869, "lon": 39.468039, "tags": {"amenity": "cafe", "name": "Bonanza Cafe"}}, {"type": "node", "id": 471336990, "lat": 13.4885647, "lon": 39.4680718, "tags": {"amenity": "restaurant", "cuisine": "pizza", "name": "Yordanos White"}}, {"type": "node", "id": 472548192, "lat": 13.4896469, "lon": 39.4700606, "tags": {"amenity": "restaurant", "cuisine": "regional", "name": "Hakfen Restaurant"}}, {"type": "node", "id": 608960352, "lat": 13.4855426, "lon": 39.4734512, "tags": {"amenity": "restaurant", "cuisine": "regional", "name": "Habasha 2000"}}, {"type": "node", "id": 611549656, "lat": 13.485397, "lon": 39.4508398, "tags": {"amenity": "cafe"}}, {"type": "node", "id": 611549665, "lat": 13.484876, "lon": 39.4527139, "tags": {"amenity": "cafe", "name": "Starbacks"}}, {"type": "node", "id": 611549746, "lat": 13.4885769, "lon": 39.4684412, "tags": {"amenity": "restaurant", "cuisine": "regional"}}, {"type": "node", "id": 611549797, "lat": 13.4934798, "lon": 39.4726593, "tags": {"amenity": "cafe", "name": "Sweet Juice Cafe"}}, {"type": "node", "id": 978180908, "lat": 13.4892956, "lon": 39.4620582, "tags": {"amenity": "restaurant", "cuisine": "pizza", "name": "Karibou Restaurant"}}, {"type": "node", "id": 1460470730, "lat": 13.4749499, "lon": 39.5419522, "tags": {"amenity": "restaurant", "name": "Yoha"}}, {"type": "node", "id": 2441424697, "lat": 13.4906219, "lon": 39.4702273, "tags": {"amenity": "cafe", "cuisine": "regional,_juice", "internet_access": "no", "name": "Classic Caf\u00e9"}}, {"type": "node", "id": 3367612630, "lat": 13.5018843, "lon": 39.4866072, "tags": {"amenity": "restaurant"}}, {"type": "node", "id": 4265492993, "lat": 13.4906016, "lon": 39.4728709, "tags": {"amenity": "restaurant", "name": "Food, Cafes, Bars everywhere"}}, {"type": "node", "id": 4375929189, "lat": 13.4917864, "lon": 39.4700614, "tags": {"amenity": "restaurant", "name:en": "Segenet bar and restaurant"}}, {"type": "node", "id": 4395899893, "lat": 13.4964845, "lon": 39.4765314, "tags": {"amenity": "restaurant", "name:en": "Axumawit"}}, {"type": "node", "id": 4396284989, "lat": 13.4970066, "lon": 39.4777352, "tags": {"amenity": "restaurant", "name:en": "Dejen Amusement Park Restaurant"}}, {"type": "node", "id": 4526545290, "lat": 13.489782, "lon": 39.477386, "tags": {"amenity": "restaurant", "name:en": "Karibu Kitchen"}}, {"type": "node", "id": 4528538693, "lat": 13.4895871, "lon": 39.4705361, "tags": {"amenity": "restaurant", "cuisine": "ethiopian", "name:en": "Yummy Pizza(\u12eb\u121a)"}}, {"type": "node", "id": 4528538694, "lat": 13.4912683, "lon": 39.4737525, "tags": {"amenity": "cafe", "cuisine": "coffee_shop", "name:en": "Coffee Shop"}}, {"type": "node", "id": 4558121691, "lat": 13.4902875, "lon": 39.4743537, "tags": {"amenity": "restaurant", "name:en": "Geza Gerzales"}}, {"type": "node", "id": 4559883401, "lat": 13.5195592, "lon": 39.4528217, "tags": {"addr:housenumber": "323", "amenity": "cafe", "cuisine": "ethiopian", "name": "\u1245\u12f1\u1235", "name:am": "\u1245\u12f1\u1235", "name:en": "kdus", "phone": "+251914702856"}}, {"type": "node", "id": 4577492090, "lat": 13.4916963, "lon": 39.472102, "tags": {"amenity": "cafe", "email": "tedrosassefa@gmail.com", "name:en": "Mid-city cafe", "website": "https://www.infomekelle.com"}}, {"type": "node", "id": 4674795489, "lat": 13.4887323, "lon": 39.4711761, "tags": {"amenity": "restaurant", "cuisine": "ethiopian", "internet_access": "wlan", "name:en": "Nice Plus"}}, {"type": "node", "id": 4683208899, "lat": 13.4896858, "lon": 39.4708898, "tags": {"amenity": "restaurant", "name:en": "Canal Pizza Cafe"}}, {"type": "node", "id": 4829289821, "lat": 13.4853511, "lon": 39.4735435, "tags": {"amenity": "cafe", "internet_access": "no", "name": "Sndu Cafe", "outdoor_seating": "yes", "smoking": "yes", "takeaway": "yes"}}, {"type": "node", "id": 4832594821, "lat": 13.4964789, "lon": 39.475259, "tags": {"amenity": "restaurant", "name:en": "Huzit Juice"}}, {"type": "node", "id": 4832594921, "lat": 13.495993, "lon": 39.4742451, "tags": {"amenity": "restaurant", "name:en": "restaurant"}}, {"type": "node", "id": 4832756021, "lat": 13.4946306, "lon": 39.4806352, "tags": {"amenity": "cafe", "name:en": "Zufan Juice House"}}, {"type": "node", "id": 4833139821, "lat": 13.4917334, "lon": 39.4728088, "tags": {"amenity": "restaurant", "name:en": "Lazoreea Lounge Cafe & Restaurant"}}, {"type": "node", "id": 5005728921, "lat": 13.4925139, "lon": 39.4751207, "tags": {"amenity": "restaurant", "name:en": "Fitsum Restaurant"}}, {"type": "node", "id": 5070214922, "lat": 13.49567, "lon": 39.475755, "tags": {"amenity": "cafe", "cuisine": "breakfast;pancake;savory_pancakes;tea;coffee_shop", "name": "Green Valley Caf\u00e9"}}, {"type": "node", "id": 5200368523, "lat": 13.4957386, "lon": 39.4757841, "tags": {"amenity": "restaurant", "name:en": "Green Valley Cafe and Restaurant"}}, {"type": "node", "id": 5266197224, "lat": 13.4858443, "lon": 39.4730565, "tags": {"amenity": "restaurant", "cuisine": "fish;african;breakfast;local;ethiopian;coffee_shop", "diet:vegetarian": "yes", "name:en": "Smile Cafe and Restaurant"}}, {"type": "node", "id": 5266205521, "lat": 13.4866057, "lon": 39.4724159, "tags": {"amenity": "cafe", "name:en": "Arada Coffee and Juice Cafe"}}, {"type": "node", "id": 5276287932, "lat": 13.4892107, "lon": 39.472842, "tags": {"amenity": "restaurant", "cuisine": "burger;pizza", "name:en": "Sweet restaurant"}}, {"type": "node", "id": 5276287933, "lat": 13.4866619, "lon": 39.4709869, "tags": {"amenity": "restaurant", "cuisine": "ethiopian", "name:en": "Bete Abrham Traditional restaurant"}}, {"type": "node", "id": 5276287935, "lat": 13.4869734, "lon": 39.4707661, "tags": {"amenity": "cafe", "cuisine": "tea;breakfast;local;ethiopian", "internet_access": "wlan", "name:en": "Morning caf\u00e9"}}, {"type": "node", "id": 5276287936, "lat": 13.4891903, "lon": 39.4727123, "tags": {"amenity": "restaurant", "name:en": "Camillos restaurant"}}, {"type": "node", "id": 5321394980, "lat": 13.4906558, "lon": 39.4689285, "tags": {"amenity": "restaurant", "description": "pizzeria", "name": "Sapphire Kitchen"}}, {"type": "node", "id": 5321394981, "lat": 13.4910481, "lon": 39.4730623, "tags": {"amenity": "cafe", "name": "Millenium Juice House"}}, {"type": "node", "id": 5321396121, "lat": 13.4910267, "lon": 39.47272, "tags": {"amenity": "cafe", "name": "Melu's cafe"}}, {"type": "node", "id": 5470232221, "lat": 13.4863343, "lon": 39.4730582, "tags": {"amenity": "restaurant", "name:en": "Japu Cafe and Breakfast"}}, {"type": "node", "id": 5470232230, "lat": 13.4857963, "lon": 39.4732184, "tags": {"amenity": "restaurant", "name:en": "Yaye Restaurant"}}, {"type": "node", "id": 5470232231, "lat": 13.486209, "lon": 39.4730229, "tags": {"amenity": "cafe", "name:en": "Grace's Breakfast Cafe"}}, {"type": "node", "id": 5553115522, "lat": 13.4890097, "lon": 39.462088, "tags": {"amenity": "cafe", "name:en": "buetiful cafe"}}, {"type": "node", "id": 5658496122, "lat": 13.4885895, "lon": 39.4711681, "tags": {"amenity": "restaurant", "name:en": "Chapati Bar and BBQ"}}, {"type": "node", "id": 5662574622, "lat": 13.4880437, "lon": 39.470977, "tags": {"amenity": "cafe", "name:en": "Balageru Juice House"}}, {"type": "node", "id": 5676929924, "lat": 13.4883823, "lon": 39.4715159, "tags": {"amenity": "restaurant", "name:en": "Joyful Cultural Restaurant"}}, {"type": "node", "id": 5676929925, "lat": 13.4899662, "lon": 39.4704936, "tags": {"amenity": "restaurant", "name:en": "Lideta Cultural Restaurant"}}, {"type": "node", "id": 5676929926, "lat": 13.488901, "lon": 39.4679897, "tags": {"amenity": "restaurant", "name:en": "Heaven Burger"}}, {"type": "node", "id": 5676935521, "lat": 13.4874702, "lon": 39.4714775, "tags": {"amenity": "cafe", "name:en": "Elaz cafe"}}, {"type": "node", "id": 5964825097, "lat": 13.6487606, "lon": 39.7170037, "tags": {"amenity": "cafe", "name:en": "Kelisha Buna Bet"}}, {"type": "node", "id": 5964833387, "lat": 13.6459193, "lon": 39.7238892, "tags": {"amenity": "restaurant", "name:en": "Hishe migbi bet"}}, {"type": "node", "id": 5964833390, "lat": 13.6965904, "lon": 39.5865045, "tags": {"amenity": "cafe", "name:en": "Juice bar"}}, {"type": "node", "id": 5964833694, "lat": 13.4866619, "lon": 39.4720777, "tags": {"amenity": "restaurant", "name:en": "Nice", "opening_hours": "Mo-Su 09:00-22:00"}}, {"type": "node", "id": 6036880019, "lat": 13.4958039, "lon": 39.4732581, "tags": {"amenity": "restaurant", "name": "\u1208\u12da\u12dd \u12e8\u1219\u1235\u120a\u121d \u121d\u130d\u1265 \u1264\u1275 / Leziz Muzlim Restaurant", "name:am": "\u1208\u12da\u12dd \u12e8\u1219\u1235\u120a\u121d \u121d\u130d\u1265 \u1264\u1275", "name:en": "Leziz Muslim Restaurant"}}, {"type": "node", "id": 6048853887, "lat": 13.4966379, "lon": 39.4708936, "tags": {"amenity": "restaurant", "name": "\u1291\u122d \u12e8\u1219\u1235\u120a\u121d \u121d\u130d\u1265 \u1264\u1275", "name:en": "Nur Muslim Restaurant( \u1291\u122d \u12e8\u1219\u1235\u120a\u121d \u121d\u130d\u1265 \u1264\u1275)"}}, {"type": "node", "id": 6070605589, "lat": 13.4926834, "lon": 39.4733593, "tags": {"amenity": "restaurant", "name": "Mother kitchen"}}, {"type": "node", "id": 6094757285, "lat": 13.4942896, "lon": 39.4739294, "tags": {"amenity": "restaurant", "name": "\u12f0\u120a\u1293 \u1230\u120b\u1323 \u1264\u1275 / Delina Selata", "name:am": "\u12f0\u120a\u1293 \u1230\u120b\u1323 \u1264\u1275", "name:en": "Delina Selata"}}, {"type": "node", "id": 6114879288, "lat": 13.4945418, "lon": 39.4729638, "tags": {"amenity": "cafe", "name": "\u12d8\u1218\u1293\u12ca \u12ab\u134c / Zemenawi Cafe", "name:am": "\u12d8\u1218\u1293\u12ca \u12ab\u134c", "name:en": "Zemenawi Cafe"}}, {"type": "node", "id": 6127775696, "lat": 13.4978614, "lon": 39.4717354, "tags": {"amenity": "cafe", "name": "Best Coffee"}}, {"type": "node", "id": 6150231485, "lat": 13.4898518, "lon": 39.4737349, "tags": {"amenity": "restaurant", "name": "\u1308\u12db \u1308\u122d\u120b\u1230", "name:en": "Geza Gerlase", "name:ti": "\u1308\u12db \u1308\u122d\u120b\u1230"}}, {"type": "node", "id": 6237657285, "lat": 13.4909427, "lon": 39.4694267, "tags": {"amenity": "restaurant", "name": "Tangerines (formerly Boswelia)"}}, {"type": "node", "id": 6247541687, "lat": 13.4941959, "lon": 39.4694975, "tags": {"amenity": "restaurant", "name": "Roza shiro"}}, {"type": "node", "id": 6247541688, "lat": 13.4904433, "lon": 39.4768695, "tags": {"amenity": "restaurant", "name:en": "Rahel Art Gallery"}}, {"type": "node", "id": 6247548385, "lat": 13.4939599, "lon": 39.4699736, "tags": {"amenity": "cafe", "name": "Jui", "name:am": "Juice bar and cafe"}}, {"type": "node", "id": 6249771786, "lat": 13.4918061, "lon": 39.471146, "tags": {"amenity": "restaurant", "name": "Merait", "name:am": "Ashenda", "name:en": "Ashenda"}}, {"type": "node", "id": 6297042585, "lat": 13.4889965, "lon": 39.4716047, "tags": {"amenity": "restaurant", "name": "\u12a3\u120d\u121a", "name:en": "Almi Restaurant"}}, {"type": "node", "id": 6372207786, "lat": 13.4850684, "lon": 39.4717317, "tags": {"amenity": "restaurant", "name": "\u1233\u122c\u121d \u1264\u1275 \u12ad\u1275\u134e", "name:en": "Sarem Bet Kitfo"}}, {"type": "node", "id": 6373536521, "lat": 13.4872758, "lon": 39.4716172, "tags": {"amenity": "restaurant", "name": "IQ Corner"}}, {"type": "node", "id": 6373536522, "lat": 13.4874395, "lon": 39.4714066, "tags": {"addr:street": "2nd floor", "amenity": "restaurant", "name": "Nebo Cafe"}}, {"type": "node", "id": 6499000388, "lat": 13.4937437, "lon": 39.4749847, "tags": {"amenity": "restaurant", "name:en": "Fire\u2019s restaurant"}}, {"type": "node", "id": 6499000389, "lat": 13.4935039, "lon": 39.4748374, "tags": {"amenity": "cafe", "name": "\u1263\u120e\u1292 \u1261\u1295 / Baloni Coffee", "name:am": "\u1263\u120e\u1292 \u1261\u1295", "name:en": "Baloni Coffee"}}, {"type": "node", "id": 6501417938, "lat": 13.485412, "lon": 39.4730093}, {"type": "node", "id": 6501417939, "lat": 13.4856415, "lon": 39.4732641}, {"type": "node", "id": 6501417940, "lat": 13.485472, "lon": 39.4734519}, {"type": "node", "id": 6501417941, "lat": 13.4852085, "lon": 39.4732051}, {"type": "node", "id": 6501417942, "lat": 13.485305, "lon": 39.4731112}, {"type": "node", "id": 6510282485, "lat": 13.4934158, "lon": 39.4742767, "tags": {"amenity": "restaurant", "name:en": "Abay Snack Bar"}}, {"type": "node", "id": 6578422186, "lat": 13.4940024, "lon": 39.4732059, "tags": {"amenity": "restaurant", "name:en": "Local restaurant btsieti"}}, {"type": "node", "id": 6578820026, "lat": 13.4872684, "lon": 39.4714683, "tags": {"amenity": "restaurant", "name:en": "Elaz Food Zone"}}, {"type": "node", "id": 6627524485, "lat": 13.4853355, "lon": 39.4726709, "tags": {"amenity": "restaurant", "name": "\u12ed\u122d\u130d\u123d", "name:en": "Yrgsh Restaurant"}}, {"type": "node", "id": 6749673685, "lat": 13.3571446, "lon": 39.7501932, "tags": {"amenity": "restaurant", "name:en": "Hyab"}}, {"type": "node", "id": 6773990772, "lat": 13.486982, "lon": 39.4703609}, {"type": "node", "id": 6773990773, "lat": 13.48692, "lon": 39.4704204}, {"type": "node", "id": 6773990774, "lat": 13.4868332, "lon": 39.4703248}, {"type": "node", "id": 6773990775, "lat": 13.4868952, "lon": 39.4702653}, {"type": "node", "id": 6859939399, "lat": 13.4810647, "lon": 39.4678091}, {"type": "node", "id": 6859939400, "lat": 13.4809324, "lon": 39.4677334}, {"type": "node", "id": 6859939401, "lat": 13.4810228, "lon": 39.4678868}, {"type": "node", "id": 6859939402, "lat": 13.4808904, "lon": 39.4678108}, {"type": "node", "id": 6860589098, "lat": 13.4842892, "lon": 39.4709479}, {"type": "node", "id": 6860589099, "lat": 13.4844794, "lon": 39.471142}, {"type": "node", "id": 6860589100, "lat": 13.4842952, "lon": 39.4713222}, {"type": "node", "id": 6860589101, "lat": 13.4840974, "lon": 39.4711497}, {"type": "node", "id": 6872304586, "lat": 13.4819872, "lon": 39.4842211, "tags": {"amenity": "cafe", "name:en": "Fresh cafe"}}, {"type": "node", "id": 6872304587, "lat": 13.4818927, "lon": 39.4829719, "tags": {"amenity": "cafe", "name:en": "Heddasse cafe"}}, {"type": "node", "id": 6888351741, "lat": 13.4870037, "lon": 39.468754}, {"type": "node", "id": 6888351742, "lat": 13.4870163, "lon": 39.4687839}, {"type": "node", "id": 6888351743, "lat": 13.4870381, "lon": 39.4688075}, {"type": "node", "id": 6888351744, "lat": 13.4870665, "lon": 39.4688221}, {"type": "node", "id": 6888351745, "lat": 13.4870979, "lon": 39.4688258}, {"type": "node", "id": 6888351746, "lat": 13.4871287, "lon": 39.4688183}, {"type": "node", "id": 6888351747, "lat": 13.4871552, "lon": 39.4688004}, {"type": "node", "id": 6888351748, "lat": 13.4871814, "lon": 39.4687105}, {"type": "node", "id": 6888351749, "lat": 13.4871705, "lon": 39.4686833}, {"type": "node", "id": 6888351750, "lat": 13.487152, "lon": 39.4686609}, {"type": "node", "id": 6888351751, "lat": 13.4871277, "lon": 39.4686455}, {"type": "node", "id": 6888351752, "lat": 13.4870999, "lon": 39.4686385}, {"type": "node", "id": 6888351753, "lat": 13.4870714, "lon": 39.4686408}, {"type": "node", "id": 6888351754, "lat": 13.487045, "lon": 39.468652}, {"type": "node", "id": 6888351755, "lat": 13.4871741, "lon": 39.4687742}, {"type": "node", "id": 6888351756, "lat": 13.4871832, "lon": 39.468743}, {"type": "node", "id": 6888351757, "lat": 13.4870232, "lon": 39.468671}, {"type": "node", "id": 6888351758, "lat": 13.4870082, "lon": 39.4686961}, {"type": "node", "id": 6888351759, "lat": 13.4870015, "lon": 39.4687247}, {"type": "node", "id": 6899654085, "lat": 13.4903134, "lon": 39.4730606, "tags": {"amenity": "restaurant", "name:fr": "Food Zone Elaz"}}, {"type": "node", "id": 6928405684, "lat": 13.5369716, "lon": 39.5053487, "tags": {"amenity": "restaurant", "name": "Storage house?"}}, {"type": "node", "id": 6942512785, "lat": 13.4915679, "lon": 39.4735538, "tags": {"amenity": "cafe", "name": "\u12a3\u12d9 \u1261\u1293", "name:en": "Azu coffee house"}}, {"type": "node", "id": 6950225385, "lat": 13.4906859, "lon": 39.4734083, "tags": {"amenity": "restaurant", "name": "Laza restourant \u120b\u12db"}}, {"type": "node", "id": 7007601785, "lat": 13.4859366, "lon": 39.4768606, "tags": {"amenity": "cafe", "name": "Sematic snack bar"}}, {"type": "node", "id": 7111681525, "lat": 13.482042, "lon": 39.4832873, "tags": {"amenity": "cafe", "cuisine": "regional", "internet_access": "no", "name": "Heddasse cafe", "outdoor_seating": "yes"}}, {"type": "node", "id": 7111681526, "lat": 13.4818269, "lon": 39.4840235, "tags": {"amenity": "cafe", "cuisine": "regional", "internet_access": "no", "name": "Fresh cafe"}}, {"type": "node", "id": 7111688748, "lat": 13.478678, "lon": 39.483741, "tags": {"amenity": "cafe", "cuisine": "regional", "internet_access": "no", "name": "Hedassi cafe"}}, {"type": "node", "id": 7608756285, "lat": 13.5176538, "lon": 39.4870867, "tags": {"addr:housenumber": "06", "addr:street": "Around Mekelle Dry Port", "amenity": "restaurant", "cuisine": "ethiopian", "email": "kidus.birhane777@gmail.com", "name": "\u12a0\u1208\u121d\u1338\u1203\u12ed \u121d\u130d\u1265 \u1264\u1275", "name:en": "Alemtsehay Restuarant", "opening_hours": "Mo-Su 06:00-22:00", "operator": "Alemtsehay Tadele", "phone": "+251914133958"}}, {"type": "node", "id": 7816872485, "lat": 13.4819888, "lon": 39.4690399, "tags": {"amenity": "cafe", "name": "\u121a\u120d\u12ab\u1293", "name:en": "Milkana cafe"}}, {"type": "node", "id": 7816872585, "lat": 13.4904076, "lon": 39.474266, "tags": {"amenity": "cafe", "name": "Milkana cafe"}}, {"type": "node", "id": 8516262518, "lat": 13.4966452, "lon": 39.4706216, "tags": {"addr:street": "Godena Eyassu Street", "amenity": "restaurant", "cuisine": "african;chicken;ethiopian;kebab", "name:en": "Queen\u2019s Kitchen", "opening_hours": "Mo-Su 09:00-18:00"}}, {"type": "node", "id": 8605754017, "lat": 13.5175943, "lon": 39.4869033, "tags": {"amenity": "restaurant", "email": "tedrosassefa@gmail.com", "name:en": "Assefa G.hiwet", "website": "https://infomekelle.com/"}}, {"type": "node", "id": 8634636919, "lat": 13.4913479, "lon": 39.4733842, "tags": {"amenity": "restaurant", "email": "tedrosassefa@gmail.com", "name:en": "Matador bar and restaurant", "website": "https://www.infomekelle.com"}}, {"type": "node", "id": 8697044217, "lat": 13.5168468, "lon": 39.4866637, "tags": {"amenity": "cafe", "cuisine": "coffee_shop", "email": "tedrosassefa@gmail.com", "name:en": "\u12a5\u1295\u12f3 \u134d\u1228 \u1261\u1295 - Fre coffee house", "website": "https://www.infomekelle.com"}}, {"type": "node", "id": 8736315718, "lat": 13.4924884, "lon": 39.4728054, "tags": {"amenity": "cafe", "email": "tedrosassefa@gmail.com", "name:en": "\u1345\u130c\u1228\u12f3 \u1264\u1275 \u1241\u122d\u1232 - tsigereda snack", "website": "https://www.infomekelle.com"}}, {"type": "node", "id": 8736326018, "lat": 13.4930097, "lon": 39.473629, "tags": {"amenity": "cafe", "email": "tedrosassefa@gmail.com", "name:en": "Sara coffee - \u1233\u122b \u1261\u1295", "website": "https://www.infomekelle.com"}}, {"type": "node", "id": 8736326019, "lat": 13.4923443, "lon": 39.4727757, "tags": {"amenity": "cafe", "email": "tedrosassefa@gmail.com", "name:en": "\u134d\u1228 \u1261\u1295 - Fre Coffe house", "website": "https://www.infomekelle.com"}}, {"type": "node", "id": 8752874333, "lat": 13.4953474, "lon": 39.4740965, "tags": {"amenity": "cafe", "email": "tedrosassefa@gmail.com", "name:en": "Maf cafe & kitchen  - \u121b\u134d \u12ab\u134c", "website": "https://www.infomekelle.com"}}, {"type": "node", "id": 9685522517, "lat": 13.4923044, "lon": 39.4724695, "tags": {"amenity": "restaurant", "email": "tedrosassefa@gmail.com", "name:en": "Alem restaurant - \u1264\u1275 \u121d\u130d\u1262 \u12a3\u1208\u121d", "website": "https://www.infomekelle.com"}}, {"type": "node", "id": 9685523417, "lat": 13.4925385, "lon": 39.4741965, "tags": {"amenity": "restaurant", "email": "tedrosassefa@gmail.com", "name:en": "Mihz et Restaurant - \u1264\u1275 \u121d\u130d\u1262 \u121d\u1215\u12dd\u1290\u1275", "website": "https://www.infomekelle.com"}}, {"type": "node", "id": 9685523617, "lat": 13.4855566, "lon": 39.4749653, "tags": {"amenity": "cafe", "email": "tedrosassefa@gmail.com", "name:en": "Samri coffee house - '\u12f3 \u1233\u121d\u122a \u1261\u1295", "website": "https://www.infomekelle.com"}}, {"type": "node", "id": 10604449009, "lat": 13.4868754, "lon": 39.4719477, "tags": {"amenity": "cafe", "name:en": "Danus cafe #3"}}, {"type": "node", "id": 10604449011, "lat": 13.4873636, "lon": 39.4715889, "tags": {"amenity": "cafe", "name:en": "IQ corner"}}, {"type": "node", "id": 10604449206, "lat": 13.4864461, "lon": 39.4727703, "tags": {"amenity": "cafe", "name:en": "Java cafe"}}, {"type": "node", "id": 10604458105, "lat": 13.4912185, "lon": 39.470285, "tags": {"amenity": "cafe", "name": "Helam cafe"}}, {"type": "node", "id": 10775084705, "lat": 13.4921379, "lon": 39.4728339, "tags": {"amenity": "restaurant", "name": "Land mark Restaurant Mekelle"}}, {"type": "node", "id": 10937080805, "lat": 13.4922661, "lon": 39.473584, "tags": {"addr:street": "Romanat Square", "amenity": "cafe", "name": "Jerry's coffee", "opening_hours": "24/7", "phone": "915515565"}}, {"type": "node", "id": 10942593505, "lat": 13.4866088, "lon": 39.4718035, "tags": {"amenity": "restaurant", "name:en": "Hashenge Fish Food"}}, {"type": "node", "id": 11135846605, "lat": 13.4824664, "lon": 39.4531857, "tags": {"amenity": "cafe", "name:en": "Sara Coffee House"}}, {"type": "node", "id": 11135848305, "lat": 13.4738955, "lon": 39.4608696, "tags": {"amenity": "restaurant", "name:en": "Gold Label Restaurant"}}, {"type": "node", "id": 11385065569, "lat": 13.4983817, "lon": 39.4602734, "tags": {"amenity": "cafe"}}, {"type": "node", "id": 11476131369, "lat": 13.4868162, "lon": 39.4711492, "tags": {"addr:street": "Godena Guna", "amenity": "restaurant", "contact:instagram": "shege_burger", "cuisine": "burger;friture", "name": "\u1238\u1308 \u1260\u122d\u1308\u122d", "name:en": "Shege Burger"}}, {"type": "node", "id": 11889136569, "lat": 13.525552, "lon": 39.4494175, "tags": {"addr:housenumber": "3432", "addr:postcode": "7000", "addr:street": "musie", "amenity": "cafe", "cuisine": "ethiopian", "email": "mussietewold364@gmail.com", "name": "Cafe", "name:en": "muie", "phone": "0904863636"}}, {"type": "node", "id": 12294039248, "lat": 13.4583213, "lon": 39.4881103}, {"type": "node", "id": 12294039249, "lat": 13.4582776, "lon": 39.48812}, {"type": "node", "id": 12294039250, "lat": 13.4582876, "lon": 39.4881568}, {"type": "node", "id": 12294039251, "lat": 13.4583294, "lon": 39.4881486}, {"type": "node", "id": 12294039252, "lat": 13.4583242, "lon": 39.4881862}, {"type": "node", "id": 12294039253, "lat": 13.458301, "lon": 39.4881913}, {"type": "node", "id": 12294039254, "lat": 13.45831, "lon": 39.4882348}, {"type": "node", "id": 12294039255, "lat": 13.4583332, "lon": 39.4882298}, {"type": "node", "id": 12294039256, "lat": 13.458339, "lon": 39.4882739}, {"type": "node", "id": 12294039257, "lat": 13.4583122, "lon": 39.4882788}, {"type": "node", "id": 12294039258, "lat": 13.4583209, "lon": 39.4883304}, {"type": "node", "id": 12294039259, "lat": 13.4583478, "lon": 39.4883256}, {"type": "node", "id": 12294039260, "lat": 13.45835, "lon": 39.4883861}, {"type": "node", "id": 12294039261, "lat": 13.4583259, "lon": 39.4883923}, {"type": "node", "id": 12294039262, "lat": 13.4583383, "lon": 39.4884434}, {"type": "node", "id": 12294039263, "lat": 13.4583642, "lon": 39.4884444}, {"type": "node", "id": 12294039268, "lat": 13.458226, "lon": 39.4886212}, {"type": "node", "id": 12294039269, "lat": 13.4582022, "lon": 39.4886329}, {"type": "node", "id": 12294039270, "lat": 13.458233, "lon": 39.4886997}, {"type": "node", "id": 12294039271, "lat": 13.4582569, "lon": 39.4886881}, {"type": "way", "id": 692518049, "nodes": [6501417938, 6501417939, 6501417940, 6501417941, 6501417942, 6501417938], "tags": {"amenity": "restaurant", "building": "yes"}}, {"type": "way", "id": 722153132, "nodes": [6773990772, 6773990773, 6773990774, 6773990775, 6773990772], "tags": {"amenity": "cafe", "building": "yes", "name": "Awash"}}, {"type": "way", "id": 732571617, "nodes": [6859939399, 6859939401, 6859939402, 6859939400, 6859939399], "tags": {"amenity": "restaurant", "building": "yes"}}, {"type": "way", "id": 732645258, "nodes": [6860589098, 6860589099, 6860589100, 6860589101, 6860589098], "tags": {"amenity": "restaurant", "building": "yes", "name": "Enda Henery Cultural Resturant"}}, {"type": "way", "id": 735433482, "nodes": [6888351757, 6888351758, 6888351759, 6888351741, 6888351742, 6888351743, 6888351744, 6888351745, 6888351746, 6888351747, 6888351755, 6888351756, 6888351748, 6888351749, 6888351750, 6888351751, 6888351752, 6888351753, 6888351754, 6888351757], "tags": {"amenity": "restaurant", "building": "yes", "name": "Abreha Castel Resturant"}}, {"type": "way", "id": 1328815952, "nodes": [12294039248, 12294039249, 12294039250, 12294039251, 12294039248], "tags": {"amenity": "cafe", "building": "yes", "cuisine": "coffee_shop"}}, {"type": "way", "id": 1328815953, "nodes": [12294039252, 12294039253, 12294039254, 12294039255, 12294039252], "tags": {"amenity": "cafe", "building": "yes", "cuisine": "coffee_shop"}}, {"type": "way", "id": 1328815954, "nodes": [12294039256, 12294039257, 12294039258, 12294039259, 12294039256], "tags": {"amenity": "cafe", "building": "yes", "cuisine": "coffee_shop"}}, {"type": "way", "id": 1328815955, "nodes": [12294039260, 12294039261, 12294039262, 12294039263, 12294039260], "tags": {"amenity": "cafe", "building": "yes", "cuisine": "coffee_shop"}}, {"type": "way", "id": 1328815957, "nodes": [12294039268, 12294039269, 12294039270, 12294039271, 12294039268], "tags": {"amenity": "cafe", "building": "yes", "cuisine": "coffee_shop"}}]}