{"version": 0.6, "generator": "Overpass API 0.7.62.7 375dc00a", "osm3s": {"timestamp_osm_base": "2025-06-14T15:15:01Z", "copyright": "The data included in this document is from www.openstreetmap.org. The data is made available under ODbL."}, "elements": [{"type": "node", "id": 639283893, "lat": 37.0577176, "lon": 35.3515432, "tags": {"amenity": "cafe", "name": "Tura\u00e7 Cafe", "name:en": "Tura\u00e7 Cafe"}}, {"type": "node", "id": 642354581, "lat": 37.0616286, "lon": 35.3518999, "tags": {"amenity": "restaurant", "name": "Turkuaz"}}, {"type": "node", "id": 675370717, "lat": 37.0606632, "lon": 35.3520593, "tags": {"amenity": "restaurant", "name": "Karadeniz Kafe"}}, {"type": "node", "id": 1291822511, "lat": 37.029346, "lon": 35.2037005}, {"type": "node", "id": 1291822528, "lat": 37.0301472, "lon": 35.2037532}, {"type": "node", "id": 1291822537, "lat": 37.029339, "lon": 35.2038663}, {"type": "node", "id": 1291822546, "lat": 37.0301403, "lon": 35.203919}, {"type": "node", "id": 1889481666, "lat": 36.9912042, "lon": 35.3398078, "tags": {"addr:housename": "Optimum Outlet", "addr:street": "Optimum Outlet", "amenity": "cafe", "brand": "Starbucks", "brand:wikidata": "Q37158", "brand:wikipedia": "en:Starbucks", "cuisine": "coffee_shop", "name": "Starbucks", "official_name": "Starbucks Coffee", "takeaway": "yes", "website": "https://www.starbucks.com.tr", "wifi": "no"}}, {"type": "node", "id": 1900014931, "lat": 37.0485224, "lon": 35.2983092, "tags": {"addr:city": "Adana", "addr:district": "\u00c7ukurova", "addr:housenumber": "102", "addr:neighbourhood": "G\u00fczelyal\u0131 Mahallesi", "addr:postcode": "01170", "addr:street": "Turgut \u00d6zal Bulvar\u0131", "amenity": "cafe", "brand": "Kahve D\u00fcnyas\u0131", "brand:wikidata": "Q28008050", "cuisine": "coffee_shop", "highchair": "yes", "name": "Kahve D\u00fcnyas\u0131", "opening_hours": "Mo-Su 07:00-00:30", "outdoor_seating": "yes", "phone": "+903224604224", "self_service": "only", "takeaway": "yes", "website": "https://www.kahvedunyasi.com/", "wheelchair": "yes", "wifi": "no"}}, {"type": "node", "id": 3726108337, "lat": 36.9948477, "lon": 35.3147845, "tags": {"addr:city": "Seyhan/Adana", "addr:street": "Cumhuriyet Caddesi", "amenity": "restaurant", "name": "Kebap\u00e7\u0131 Ey\u00fcp Usta"}}, {"type": "node", "id": 3726108349, "lat": 36.9948872, "lon": 35.3157593, "tags": {"addr:city": "Seyhan/Adana", "addr:street": "Cumhuriyet Caddesi", "amenity": "restaurant", "name": "G\u00fcnay Kebap"}}, {"type": "node", "id": 3727307402, "lat": 36.994141, "lon": 35.3212819, "tags": {"amenity": "restaurant", "name": "Han\u0131meli Sofras\u0131"}}, {"type": "node", "id": 3727395777, "lat": 37.0236707, "lon": 35.2814427, "tags": {"amenity": "restaurant", "name": "K\u00f6fte Hor"}}, {"type": "node", "id": 3727527087, "lat": 37.0345554, "lon": 35.3075262, "tags": {"addr:city": "\u00c7ukurova/Adana", "amenity": "restaurant", "name": "Kebap\u00e7\u0131 O\u011fuz"}}, {"type": "node", "id": 4255512989, "lat": 36.9952002, "lon": 35.3308664, "tags": {"addr:housenumber": "36/A", "addr:postcode": "01120", "addr:street": "Ordu caddesi", "amenity": "restaurant", "name": "Cigerci Mahmut 'vidoco'", "opening_hours": "Mo-Su 07:00-21:00", "phone": "00903224588595"}}, {"type": "node", "id": 4261350492, "lat": 37.0695877, "lon": 35.2715093, "tags": {"amenity": "restaurant", "cuisine": "burger;grill;friture;breakfast;fish_and_chips;fish;pasta;tea;coffee_shop;turkish;curry;pancake;chicken;sausage;steak_house;sandwich;seafood;mediterranean;hot_dog;kebab;ice_cream", "email": "baris@hugoss.com", "name": "Hugo'ss Cafe Restaurant", "opening_hours": "24/7", "phone": "05416757276", "website": "https://www.huggoss.com"}}, {"type": "node", "id": 4303173987, "lat": 37.0573334, "lon": 35.303136, "tags": {"amenity": "restaurant", "cuisine": "turkish", "name": "Emirgan S\u00fcti\u015f - Park Zirve", "smoking": "outside", "takeaway": "no"}}, {"type": "node", "id": 4396333767, "lat": 36.9943468, "lon": 35.3264356, "tags": {"amenity": "cafe", "name": "Sanat Kahvesi"}}, {"type": "node", "id": 4446042391, "lat": 37.0573249, "lon": 35.3028756, "tags": {"addr:housenumber": "03222150000", "addr:street": "82046 Sokak", "amenity": "restaurant", "cuisine": "turkish", "name:tr": "Onba\u015f\u0131lar Kebap", "website": "http://onbasilar.com.tr"}}, {"type": "node", "id": 4567420034, "lat": 36.9956191, "lon": 35.3238812, "tags": {"amenity": "cafe", "name": "Cafe Ekinoks"}}, {"type": "node", "id": 4567423345, "lat": 36.995061, "lon": 35.3235315, "tags": {"amenity": "restaurant", "name": "Halis Ev Yemekleri"}}, {"type": "node", "id": 4567441624, "lat": 36.9991205, "lon": 35.32366, "tags": {"amenity": "restaurant", "name": "Kahvalt\u0131 D\u00fcnyas\u0131"}}, {"type": "node", "id": 4567459879, "lat": 36.9916328, "lon": 35.3257079, "tags": {"amenity": "cafe", "name": "G\u00f6k\u00e7eli Cafe"}}, {"type": "node", "id": 4567517440, "lat": 36.9902493, "lon": 35.3258477, "tags": {"amenity": "cafe", "name": "Simit Saray\u0131"}}, {"type": "node", "id": 4567528419, "lat": 36.9897768, "lon": 35.326767, "tags": {"amenity": "restaurant", "name": "Kebap\u00e7\u0131 \u015eeyhmus"}}, {"type": "node", "id": 4567552014, "lat": 36.989138, "lon": 35.3255326, "tags": {"amenity": "cafe", "name": "Seren Cafe"}}, {"type": "node", "id": 4567566069, "lat": 36.9889751, "lon": 35.3242136, "tags": {"amenity": "cafe", "name": "Nargile Cafe"}}, {"type": "node", "id": 4567571197, "lat": 36.9889284, "lon": 35.3242277, "tags": {"amenity": "restaurant", "name": "Lider Kebap"}}, {"type": "node", "id": 4570893725, "lat": 36.9972845, "lon": 35.3246059, "tags": {"amenity": "restaurant", "cuisine": "turkish", "name": "Kolcuo\u011flu Kebap"}}, {"type": "node", "id": 4570930253, "lat": 36.9997688, "lon": 35.3225136, "tags": {"amenity": "restaurant", "name": "Metin Usta D\u00f6ner"}}, {"type": "node", "id": 4575469301, "lat": 37.0342607, "lon": 35.3124336, "tags": {"amenity": "restaurant", "name": "7/C Ocakba\u015f\u0131", "name:tr": "7/C Ocakba\u015f\u0131"}}, {"type": "node", "id": 4582027492, "lat": 37.4338613, "lon": 34.8765294, "tags": {"amenity": "cafe"}}, {"type": "node", "id": 4591785672, "lat": 37.0188729, "lon": 35.3326245, "tags": {"amenity": "restaurant", "leisure": "swimming_pool", "level": "0", "sport": "swimming"}}, {"type": "node", "id": 4591785673, "lat": 37.0197751, "lon": 35.3317718, "tags": {"amenity": "restaurant", "leisure": "swimming_pool", "level": "0", "sport": "swimming"}}, {"type": "node", "id": 4927100554, "lat": 37.0438953, "lon": 34.8474151, "tags": {"amenity": "cafe"}}, {"type": "node", "id": 4927100555, "lat": 37.076314, "lon": 34.840664, "tags": {"amenity": "cafe"}}, {"type": "node", "id": 4927100840, "lat": 37.4314507, "lon": 34.8733325, "tags": {"amenity": "cafe"}}, {"type": "node", "id": 4972592123, "lat": 36.9840537, "lon": 35.3216178, "tags": {"amenity": "restaurant"}}, {"type": "node", "id": 4972610621, "lat": 36.9869805, "lon": 35.3217717, "tags": {"amenity": "restaurant"}}, {"type": "node", "id": 4972610821, "lat": 36.9840517, "lon": 35.3216975, "tags": {"amenity": "restaurant", "name": "bedo", "name:ar": "\u0628\u062f\u0648 \u067e\u0627\u0686\u0629", "name:tr": "bedo"}}, {"type": "node", "id": 4977885325, "lat": 37.0578556, "lon": 35.3023987, "tags": {"amenity": "restaurant"}}, {"type": "node", "id": 4997949822, "lat": 37.0360709, "lon": 35.2941229, "tags": {"amenity": "cafe", "name": "Tatl\u0131c\u0131 K\u00f6se"}}, {"type": "node", "id": 5001008235, "lat": 37.021232, "lon": 35.3228117, "tags": {"amenity": "restaurant", "internet_access": "wlan", "name": "\u00c7apa Restoran"}}, {"type": "node", "id": 5001008236, "lat": 37.0220803, "lon": 35.3203259, "tags": {"amenity": "restaurant", "name": "Ege Bal\u0131k Restoran", "name:en": "Ege Bal\u0131k Restoran", "name:tr": "Ege Bal\u0131k Restoran"}}, {"type": "node", "id": 5001009130, "lat": 37.024308, "lon": 35.3232874, "tags": {"amenity": "cafe", "name": "Dilber Cafe", "name:tr": "Dilber Cafe"}}, {"type": "node", "id": 5063773521, "lat": 37.0290133, "lon": 35.3132315, "tags": {"amenity": "cafe", "name": "Duygu Kafe"}}, {"type": "node", "id": 5132640532, "lat": 36.988943, "lon": 35.3238428, "tags": {"amenity": "restaurant", "name": "Bayram Kebap"}}, {"type": "node", "id": 5254201923, "lat": 37.0627266, "lon": 35.290403, "tags": {"amenity": "restaurant", "name": "Tarihi Atmaca Mangal Keyfi"}}, {"type": "node", "id": 5254244858, "lat": 37.0521164, "lon": 35.2984744, "tags": {"amenity": "restaurant", "cuisine": "japanese", "name": "Maki", "name:ja": "\u307e\u304d"}}, {"type": "node", "id": 5254245453, "lat": 37.0442148, "lon": 35.3098861, "tags": {"amenity": "cafe", "name": "Van Kahvalt\u0131 Saray\u0131 & Cafe"}}, {"type": "node", "id": 5254277726, "lat": 37.0227093, "lon": 35.2789005, "tags": {"amenity": "restaurant", "name": "M. B. \u015eirvan Et Restaurant &  B\u00fcryan Evi"}}, {"type": "node", "id": 5254278524, "lat": 37.0473268, "lon": 35.3435002, "tags": {"amenity": "restaurant", "name": "Kay\u0131khane"}}, {"type": "node", "id": 5275348821, "lat": 36.9980398, "lon": 35.31946, "tags": {"amenity": "restaurant", "cuisine": "kebab;turkish", "name": "Asya Kebap", "name:en": "Asia Kebab", "opening_hours": "Mo-Su 10:00-23:00"}}, {"type": "node", "id": 5278865123, "lat": 36.9986201, "lon": 35.3196923, "tags": {"amenity": "restaurant", "internet_access": "wlan", "name": "Ziyapa\u015fa Kebap", "opening_hours": "Mo-Sa 10:00-23:00"}}, {"type": "node", "id": 5398040721, "lat": 37.0567866, "lon": 35.2748828, "tags": {"amenity": "restaurant", "name": "ali baba kebab"}}, {"type": "node", "id": 5635212266, "lat": 36.9872036, "lon": 35.3049037, "tags": {"amenity": "restaurant", "cuisine": "kebab", "name": "D\u00f6nerci \u0130bo"}}, {"type": "node", "id": 5846637785, "lat": 37.0267526, "lon": 35.2992884}, {"type": "node", "id": 5846637786, "lat": 37.0267265, "lon": 35.2992892}, {"type": "node", "id": 5846637787, "lat": 37.0267244, "lon": 35.2992671}, {"type": "node", "id": 5846637788, "lat": 37.0266474, "lon": 35.2992751}, {"type": "node", "id": 5846637789, "lat": 37.0266495, "lon": 35.2993016}, {"type": "node", "id": 5846637790, "lat": 37.0266191, "lon": 35.2993016}, {"type": "node", "id": 5846637791, "lat": 37.0266227, "lon": 35.2993751}, {"type": "node", "id": 5846637792, "lat": 37.0266425, "lon": 35.2993739}, {"type": "node", "id": 5846637793, "lat": 37.0266439, "lon": 35.2993883}, {"type": "node", "id": 5846637794, "lat": 37.0267265, "lon": 35.2993839}, {"type": "node", "id": 5846637795, "lat": 37.0267265, "lon": 35.2993636}, {"type": "node", "id": 5846637796, "lat": 37.0267569, "lon": 35.2993627}, {"type": "node", "id": 5857266387, "lat": 37.0355811, "lon": 35.3141224, "tags": {"amenity": "cafe", "name": "Venedik Pastanesi"}}, {"type": "node", "id": 5906131285, "lat": 37.0002776, "lon": 35.31976, "tags": {"addr:street": "Ziyapa\u015fa Bulvar\u0131", "amenity": "restaurant", "internet_access": "wlan", "name": "y\u00fczevler", "opening_hours": "Mo-Su 07:00-23:00"}}, {"type": "node", "id": 5931289385, "lat": 37.0547173, "lon": 35.2879682, "tags": {"amenity": "restaurant", "internet_access": "wlan", "name": "Sercan Kebap"}}, {"type": "node", "id": 6090910886, "lat": 37.4339418, "lon": 34.8761666, "tags": {"amenity": "restaurant", "name": "Ta\u015fp\u0131nar Dinlenme Tesisleri"}}, {"type": "node", "id": 6342899916, "lat": 37.0460945, "lon": 35.3065884, "tags": {"amenity": "restaurant", "name": "ci\u011ferci ula\u015f"}}, {"type": "node", "id": 6352884073, "lat": 37.4370159, "lon": 34.8752671}, {"type": "node", "id": 6352884074, "lat": 37.4370244, "lon": 34.8753342}, {"type": "node", "id": 6352884075, "lat": 37.4370223, "lon": 34.8753986}, {"type": "node", "id": 6352884076, "lat": 37.4370649, "lon": 34.8754173}, {"type": "node", "id": 6352884077, "lat": 37.4370883, "lon": 34.8754683}, {"type": "node", "id": 6352884078, "lat": 37.4370905, "lon": 34.8755568}, {"type": "node", "id": 6352884079, "lat": 37.4370436, "lon": 34.8756319}, {"type": "node", "id": 6352884080, "lat": 37.4369733, "lon": 34.8756346}, {"type": "node", "id": 6352884081, "lat": 37.4369158, "lon": 34.875581}, {"type": "node", "id": 6352884082, "lat": 37.4368775, "lon": 34.8754361}, {"type": "node", "id": 6352884083, "lat": 37.4368817, "lon": 34.8753288}, {"type": "node", "id": 6352884084, "lat": 37.4368988, "lon": 34.8752162}, {"type": "node", "id": 6352885285, "lat": 37.4369712, "lon": 34.8752028}, {"type": "node", "id": 6358124785, "lat": 37.0448274, "lon": 35.3089572, "tags": {"amenity": "restaurant", "cuisine": "turkish;grill", "internet_access": "wlan", "name": "Adana Beyzade Kebap"}}, {"type": "node", "id": 6359997285, "lat": 37.0016995, "lon": 35.3271656, "tags": {"amenity": "cafe", "cuisine": "turkish;breakfast;coffee_shop", "internet_access": "wlan", "name:en": "Coffee Vienna - Dark Coffee"}}, {"type": "node", "id": 6563312186, "lat": 36.9884585, "lon": 35.3256502, "tags": {"amenity": "restaurant", "cuisine": "turkish", "name": "Kebapci Mallun", "name:en": "Mallun Kebab"}}, {"type": "node", "id": 6571064131, "lat": 37.0298739, "lon": 35.2039015}, {"type": "node", "id": 6643488846, "lat": 37.0423825, "lon": 35.2595517, "tags": {"addr:city": "Adana", "addr:district": "\u00c7ukurova", "addr:housenumber": "1", "addr:neighbourhood": "Belediye Evleri Mahallesi", "addr:postcode": "01170", "addr:street": "84206 Sokak", "amenity": "restaurant", "name": "Beyza Pili\u00e7 \u015eubesi"}}, {"type": "node", "id": 6643488847, "lat": 37.0424309, "lon": 35.2595248, "tags": {"addr:city": "Adana", "addr:district": "\u00c7ukurova", "addr:housenumber": "22", "addr:neighbourhood": "Belediye Evleri Mahallesi", "addr:postcode": "01170", "addr:street": "84206 Sokak", "amenity": "restaurant", "cuisine": "doner", "name": "Tad\u0131m Cafe", "opening_hours": "Mo-Sa 09:00-20:00", "phone": "0539 598 50 10"}}, {"type": "node", "id": 6643517085, "lat": 37.0425212, "lon": 35.2593846, "tags": {"addr:city": "Adana", "addr:district": "\u00c7ukurova", "addr:housenumber": "11/A", "addr:neighbourhood": "Belediye Evleri Mahallesi", "addr:postcode": "01170", "addr:street": "84206 Sokak", "amenity": "restaurant", "name": "T\u00fcrkmen Mangal Keyfi", "phone": "0538 646 65 45"}}, {"type": "node", "id": 6768625688, "lat": 37.0457922, "lon": 35.3158106, "tags": {"amenity": "cafe", "name": "Hadirli Restaurant"}}, {"type": "node", "id": 6768625885, "lat": 37.0523663, "lon": 35.3058723, "tags": {"amenity": "cafe", "name": "Korku Evi"}}, {"type": "node", "id": 6813458549, "lat": 37.0347944, "lon": 35.2605824, "tags": {"amenity": "restaurant", "cuisine": "turkish", "name": "\u015e\u0131rdanc\u0131 Cumali"}}, {"type": "node", "id": 6835225561, "lat": 37.0346614, "lon": 35.2613609, "tags": {"amenity": "cafe", "name": "Tat B\u00f6rek"}}, {"type": "node", "id": 6854626975, "lat": 37.0520845, "lon": 35.2539999, "tags": {"amenity": "cafe", "name": "Bilge Vitamin B\u00fcfe"}}, {"type": "node", "id": 6858596217, "lat": 37.0505051, "lon": 35.2618036, "tags": {"amenity": "cafe", "name": "Karde\u015fler"}}, {"type": "node", "id": 7083752987, "lat": 36.9959943, "lon": 35.331135, "tags": {"addr:housenumber": "36/A", "addr:postcode": "01120", "addr:street": "Ordu Caddesi", "amenity": "restaurant", "cuisine": "turkish", "name": "Ci\u011ferci Mahmut", "opening_hours": "Mo-Su 07:00-21:00", "phone": "(0322) 458 85 95"}}, {"type": "node", "id": 7234325284, "lat": 37.0144506, "lon": 35.3386571, "tags": {"addr:city": "Adana", "addr:district": "Y\u00fcre\u011fir", "addr:housenumber": "7", "addr:neighbourhood": "K\u0131\u015fla Mh.", "addr:street": "4334 Sokak", "amenity": "restaurant", "name": "Perhan Abla Ev Yemekleri"}}, {"type": "node", "id": 7417421785, "lat": 37.0488435, "lon": 35.2826977, "tags": {"amenity": "cafe", "name": "Kat\u0131k d\u00f6ner"}}, {"type": "node", "id": 7418471300, "lat": 37.0284667, "lon": 35.3134448, "tags": {"amenity": "cafe", "name": "Yemen Kahvesi", "phone": "0534 202 60 63"}}, {"type": "node", "id": 7418471301, "lat": 37.0283832, "lon": 35.3138578, "tags": {"amenity": "cafe", "name": "K\u00f6zz Cafe"}}, {"type": "node", "id": 7418471302, "lat": 37.028456, "lon": 35.3138471, "tags": {"amenity": "cafe", "name": "Garfield Cafe & Nargile"}}, {"type": "node", "id": 7418471303, "lat": 37.0285395, "lon": 35.3139383, "tags": {"amenity": "cafe", "name": "Cafe ORA"}}, {"type": "node", "id": 7418471304, "lat": 37.0286722, "lon": 35.3139785, "tags": {"amenity": "cafe", "name": "Taksim Beyo\u011flu Cafe"}}, {"type": "node", "id": 7418533991, "lat": 37.0299484, "lon": 35.3140536, "tags": {"addr:city": "Adana", "addr:district": "\u00c7ukurova", "addr:housenumber": "2", "addr:neighbourhood": "Beyazevler Mahallesi", "addr:postcode": "01170", "addr:street": "Beyazevler Caddesi", "air_conditioning": "yes", "amenity": "cafe", "bar": "yes", "cuisine": "burger;pizza;chicken;cake", "internet_access": "wlan", "internet_access:fee": "customers", "name": "Z\u0131kk\u0131m Nargile Cafe", "opening_hours": "Mo,Tu 08:00-02:00, We,Fr,Sa 08:00-03:00, Th,Su 08:00-00:00", "outdoor_seating": "no", "website": "https://instagram.com/zikkimcheff?igshid=vyyaaufvodfj"}}, {"type": "node", "id": 7418533992, "lat": 37.0295876, "lon": 35.3142977, "tags": {"amenity": "cafe", "name": "Karde\u015fler Simit"}}, {"type": "node", "id": 7418533994, "lat": 37.029942, "lon": 35.3147765, "tags": {"amenity": "cafe", "name": "Nazcaa Cafe"}}, {"type": "node", "id": 7427725501, "lat": 37.049343, "lon": 35.2807963}, {"type": "node", "id": 7427725502, "lat": 37.0492121, "lon": 35.280519}, {"type": "node", "id": 7427725503, "lat": 37.0491874, "lon": 35.280519}, {"type": "node", "id": 7427725504, "lat": 37.0491735, "lon": 35.2805029}, {"type": "node", "id": 7427725505, "lat": 37.0490608, "lon": 35.2805863}, {"type": "node", "id": 7427725506, "lat": 37.0490723, "lon": 35.2806107}, {"type": "node", "id": 7427725507, "lat": 37.0490449, "lon": 35.280631}, {"type": "node", "id": 7427725508, "lat": 37.0491799, "lon": 35.2809171}, {"type": "node", "id": 7473577319, "lat": 37.0305164, "lon": 35.3167173, "tags": {"amenity": "cafe", "name": "Do\u011fal Cafe 01"}}, {"type": "node", "id": 7473577320, "lat": 37.0306294, "lon": 35.3157243, "tags": {"amenity": "cafe", "name": "Soulmate Coffee & Bakery"}}, {"type": "node", "id": 7473590256, "lat": 37.0310962, "lon": 35.3151778, "tags": {"amenity": "cafe", "name": "Mekan Cafe"}}, {"type": "node", "id": 7695202677, "lat": 37.000876, "lon": 35.3201917, "tags": {"amenity": "cafe", "branch": "Ziya Pasa Bulvari No:15", "brand": "Starbucks", "brand:wikidata": "Q37158", "cuisine": "coffee_shop", "drive_through": "no", "internet_access": "no", "name": "Starbucks", "official_name": "Starbucks Coffee", "payment:app": "no", "phone": "+90 322 457 94 95", "takeaway": "yes"}}, {"type": "node", "id": 8295856017, "lat": 36.997732, "lon": 35.3208592, "tags": {"amenity": "restaurant", "name": "PIZZA", "name:en": "PIZZA"}}, {"type": "node", "id": 8295856117, "lat": 36.9980654, "lon": 35.321203, "tags": {"air_conditioning": "yes", "amenity": "cafe", "brand": "Kahve D\u00fcnyas\u0131", "brand:wikidata": "Q28008050", "cuisine": "coffee_shop", "internet_access": "wlan", "internet_access:fee": "no", "name": "Kahve D\u00fcnyas\u0131", "name:en": "KAHVE DUNYASI", "outdoor_seating": "yes", "takeaway": "yes"}}, {"type": "node", "id": 8917661485, "lat": 37.2456046, "lon": 34.978525, "tags": {"amenity": "cafe", "name": "Varda \u00c7ardak Cafe"}}, {"type": "node", "id": 8957915919, "lat": 36.9836283, "lon": 35.2973955, "tags": {"amenity": "cafe", "name:en": "Mart"}}, {"type": "node", "id": 9280539866, "lat": 37.3444286, "lon": 34.9127536, "tags": {"amenity": "restaurant", "cuisine": "kebab"}}, {"type": "node", "id": 9295984398, "lat": 37.0008054, "lon": 35.3222203, "tags": {"amenity": "restaurant", "name": "Big Chefs"}}, {"type": "node", "id": 9812161177, "lat": 37.0285454, "lon": 35.2733933, "tags": {"addr:city": "Adana", "addr:district": "Seyhan", "addr:neighbourhood": "2000 Evleri, Botanik Evler", "addr:postcode": "01200", "addr:street": "B\u00fclent Ecevit Bulvari", "air_conditioning": "yes", "amenity": "cafe", "internet_access": "wlan", "internet_access:fee": "customers", "name": "Roadsstar Coffee & Store", "opening_hours": "Mo-Sa 10:00-20:00", "payment:cards": "yes", "payment:cash": "yes", "payment:contactless": "yes", "phone": "+90 542 334 34 43", "smoking": "outside"}}, {"type": "node", "id": 9883439788, "lat": 37.0146658, "lon": 35.2876821, "tags": {"addr:city": "Adana", "addr:district": "Seyhan", "addr:housenumber": "16/A", "addr:neighbourhood": "P\u0131nar Mahallesi", "addr:postcode": "01160", "addr:street": "AL\u0130 BOZDO\u011eANO\u011eLU Blv.", "amenity": "cafe", "name": "Mandalin Plus Cafe", "opening_hours": "08:30-00:00", "phone": "+90 507 970 01 06"}}, {"type": "node", "id": 9923699222, "lat": 37.4712142, "lon": 34.8860773, "tags": {"amenity": "restaurant", "name:en": "Kardelen Restaurant (family run)"}}, {"type": "node", "id": 9963521346, "lat": 37.064788, "lon": 35.2993851}, {"type": "node", "id": 9963521347, "lat": 37.0646134, "lon": 35.2993937}, {"type": "node", "id": 9963521348, "lat": 37.0646241, "lon": 35.2997333}, {"type": "node", "id": 9963521349, "lat": 37.0647987, "lon": 35.2997246}, {"type": "node", "id": 9963525586, "lat": 37.0354651, "lon": 35.2503977, "tags": {"amenity": "restaurant", "cuisine": "turkish", "name": "Babao\u011flu D\u00f6ner ve Pide F\u0131r\u0131n\u0131"}}, {"type": "node", "id": 10226436417, "lat": 36.9974023, "lon": 35.336834, "tags": {"amenity": "cafe", "name": "Komshu Restoran\u0131", "name:en": "Komshu Restaurant"}}, {"type": "node", "id": 10310159309, "lat": 36.9853157, "lon": 35.3249781, "tags": {"amenity": "restaurant", "name": "Tarihi Nuri Has Kebap\u00e7\u0131s\u0131"}}, {"type": "node", "id": 10310258409, "lat": 36.9849607, "lon": 35.3265881, "tags": {"amenity": "restaurant", "name": "\u0130\u015ftah Kebap"}}, {"type": "node", "id": 10310262009, "lat": 36.9847506, "lon": 35.3386395, "tags": {"amenity": "restaurant", "name": "Ci\u011ferci Kel Mahmut"}}, {"type": "node", "id": 10310264109, "lat": 36.9879054, "lon": 35.3197541, "tags": {"amenity": "restaurant", "name": "Erciyes Kebap"}}, {"type": "node", "id": 10600729107, "lat": 36.9846016, "lon": 35.3381238}, {"type": "node", "id": 10600729108, "lat": 36.9846, "lon": 35.3381767}, {"type": "node", "id": 10600729109, "lat": 36.9845302, "lon": 35.3381848}, {"type": "node", "id": 10600729110, "lat": 36.9845075, "lon": 35.3380486}, {"type": "node", "id": 10600729111, "lat": 36.9845886, "lon": 35.3380324}, {"type": "node", "id": 10600729112, "lat": 36.9845968, "lon": 35.338075}, {"type": "node", "id": 10676761136, "lat": 37.0008017, "lon": 35.3207416, "tags": {"amenity": "cafe", "name": "\u00d6zs\u00fct", "wheelchair": "limited"}}, {"type": "node", "id": 10703755541, "lat": 36.9932639, "lon": 35.3195149, "tags": {"amenity": "cafe", "name": "shop = bakery  name = Dinciogullar\u0131 F\u0131r\u0131n  phone = +903225154569  addr:district = Adana  note = \u015eevkiye Mah. Remzi Ar\u0131k Bulv.  source = SafeGraph  check_date = 2023-02-07"}}, {"type": "node", "id": 10703769046, "lat": 37.0212698, "lon": 35.3140671, "tags": {"amenity": "restaurant", "name": "REGS CAFE"}}, {"type": "node", "id": 10703783338, "lat": 37.0205265, "lon": 35.3133636, "tags": {"amenity": "restaurant"}}, {"type": "node", "id": 10703783339, "lat": 37.0211753, "lon": 35.3123829, "tags": {"amenity": "cafe"}}, {"type": "node", "id": 10956012534, "lat": 37.0460613, "lon": 35.2986601, "tags": {"addr:city": "Adana", "addr:district": "\u00c7ukurova", "addr:neighbourhood": "Toros Mahallesi", "addr:postcode": "01170", "addr:street": "78142. Sokak", "amenity": "cafe", "name": "6A - Ders Cafe", "outdoor_seating": "yes"}}, {"type": "node", "id": 11141080623, "lat": 37.040117, "lon": 35.3074137, "tags": {"amenity": "restaurant", "cuisine": "seafood", "name": "Yelkoma Bal\u0131k", "operator": "BALIK\u00c7I 1"}}, {"type": "node", "id": 11141080624, "lat": 37.0401079, "lon": 35.3072545, "tags": {"amenity": "restaurant", "cuisine": "seafood", "name": "Yelkoma Bal\u0131k", "operator": "BALIK\u00c7I 1"}}, {"type": "node", "id": 11141080625, "lat": 37.040206, "lon": 35.307404, "tags": {"amenity": "restaurant", "cuisine": "seafood", "name": "Afilli Bal\u0131k"}}, {"type": "node", "id": 11141080626, "lat": 37.0402406, "lon": 35.3070182, "tags": {"amenity": "restaurant", "cuisine": "turkish", "name": "Ya\u011flar Kebap"}}, {"type": "node", "id": 11161749594, "lat": 37.0014374, "lon": 35.3262117, "tags": {"amenity": "restaurant", "cuisine": "turkish;kokore\u00e7", "diet:halal": "yes", "diet:meat": "yes", "name": "\u0130MPARATOR KOKORE\u00c7"}}, {"type": "node", "id": 11205476957, "lat": 37.0474081, "lon": 35.2903913, "tags": {"amenity": "restaurant", "cuisine": "turkish;\u015f\u0131rdan;kokore\u00e7", "diet:halal": "yes", "diet:meat": "yes", "diet:non-vegetarian": "yes", "name": "\u015e\u0131rdanc\u0131 Kemal"}}, {"type": "node", "id": 11287178952, "lat": 37.1042179, "lon": 35.2991874, "tags": {"air_conditioning": "no", "amenity": "restaurant", "cuisine": "turkish;barbecue", "diet:vegetarian": "no", "name": "Keyf", "outdoor_seating": "yes"}}, {"type": "node", "id": 11288650027, "lat": 36.98702, "lon": 35.3334417, "tags": {"amenity": "cafe", "street_vendor": "yes"}}, {"type": "node", "id": 11288873969, "lat": 36.9901603, "lon": 35.321608, "tags": {"amenity": "cafe", "name": "Ozgelinkaya"}}, {"type": "node", "id": 11289231911, "lat": 36.9896234, "lon": 35.3198416, "tags": {"air_conditioning": "yes", "amenity": "restaurant", "cuisine": "kebab", "diet:vegan": "no", "diet:vegetarian": "limited", "name": "Kaya Kebap", "outdoor_seating": "yes", "parking": "yes"}}, {"type": "node", "id": 11330858400, "lat": 37.0307968, "lon": 35.2061813}, {"type": "node", "id": 11330858401, "lat": 37.0305063, "lon": 35.2061833}, {"type": "node", "id": 11330858402, "lat": 37.0305014, "lon": 35.206783}, {"type": "node", "id": 11330858403, "lat": 37.0308227, "lon": 35.206783}, {"type": "node", "id": 11330858404, "lat": 37.0308211, "lon": 35.2066285}, {"type": "node", "id": 11330858405, "lat": 37.0309591, "lon": 35.2066285}, {"type": "node", "id": 11330858406, "lat": 37.0309526, "lon": 35.2064252}, {"type": "node", "id": 11330858407, "lat": 37.0307968, "lon": 35.2064293}, {"type": "node", "id": 11330858516, "lat": 37.0289898, "lon": 35.2017121}, {"type": "node", "id": 11330858517, "lat": 37.0288242, "lon": 35.2017046}, {"type": "node", "id": 11330858518, "lat": 37.0288222, "lon": 35.2017744}, {"type": "node", "id": 11330858519, "lat": 37.0287509, "lon": 35.2017712}, {"type": "node", "id": 11330858520, "lat": 37.0287458, "lon": 35.201947}, {"type": "node", "id": 11330858521, "lat": 37.0286188, "lon": 35.2019412}, {"type": "node", "id": 11330858522, "lat": 37.0286134, "lon": 35.2021261}, {"type": "node", "id": 11330858523, "lat": 37.0288272, "lon": 35.2021358}, {"type": "node", "id": 11330858524, "lat": 37.0288203, "lon": 35.202378}, {"type": "node", "id": 11330858525, "lat": 37.0289148, "lon": 35.2023823}, {"type": "node", "id": 11330858526, "lat": 37.0289096, "lon": 35.2025626}, {"type": "node", "id": 11330858527, "lat": 37.029034, "lon": 35.2025682}, {"type": "node", "id": 11330858528, "lat": 37.0290567, "lon": 35.2017767}, {"type": "node", "id": 11330858529, "lat": 37.0289881, "lon": 35.2017736}, {"type": "node", "id": 11330858595, "lat": 37.0296262, "lon": 35.2037189}, {"type": "node", "id": 11330858596, "lat": 37.0296188, "lon": 35.2038847}, {"type": "node", "id": 11330858597, "lat": 37.0298781, "lon": 35.2037355}, {"type": "node", "id": 11379856420, "lat": 37.0463744, "lon": 35.2748133, "tags": {"amenity": "restaurant", "cuisine": "turkish;d\u00f6ner;doner", "diet:carnivore": "yes", "name": "Ergen D\u00f6ner"}}, {"type": "node", "id": 11394661811, "lat": 37.0530726, "lon": 35.2975589, "tags": {"amenity": "cafe", "name": "Rootraft Coffee"}}, {"type": "node", "id": 11395060432, "lat": 37.0219419, "lon": 35.2612525, "tags": {"addr:city": "Adana", "addr:district": "Seyhan", "addr:housenumber": "27", "addr:neighbourhood": "aliye izzet begovi\u00e7 bulvar\u0131 \u00fc\u00e7g\u00fcl cadde i\u00e7i c blok", "addr:postcode": "01200", "addr:street": "Aliya \u0130zzet Begovi\u00e7 Bulvar\u0131", "amenity": "restaurant", "cuisine": "turkish", "name": "Mant\u0131mania", "opening_hours": "Mo-Su 10:00-22:00", "website": "https://instagram.com/mantimania_adana?igshid=OGQ5ZDc2ODk2ZA=="}}, {"type": "node", "id": 11422509467, "lat": 37.0389157, "lon": 35.3154868, "tags": {"amenity": "restaurant", "changing_table:fee": "no", "cuisine": "seafood", "name": "Midyeci Ahmet", "outdoor_seating": "yes", "payment:app": "no", "payment:cash": "yes", "payment:coins": "yes", "payment:contactless": "yes", "payment:credit_cards": "yes", "payment:cryptocurrencies": "no", "payment:debit_cards": "yes", "payment:electronic_purses": "no", "payment:qr_code": "no", "self_service": "yes", "takeaway": "yes", "toilets": "no", "wheelchair": "no"}}, {"type": "node", "id": 11422509468, "lat": 37.0421511, "lon": 35.3140315, "tags": {"amenity": "restaurant", "cuisine": "turkish", "kids_area:outdoor": "yes", "name": "Eyvan Kebap", "outdoor_seating": "yes", "smoking": "yes", "toilets": "yes", "toilets:access": "yes"}}, {"type": "node", "id": 11422511369, "lat": 37.0409744, "lon": 35.3146054, "tags": {"amenity": "restaurant", "cuisine": "turkish", "name": "Piton D\u00f6ner", "takeaway": "yes"}}, {"type": "node", "id": 11422511371, "lat": 37.039211, "lon": 35.3154442, "tags": {"amenity": "cafe", "brand": "Mado", "brand:wikidata": "Q17116336", "cuisine": "coffee_shop", "internet_access:fee": "no", "name": "Mado", "outdoor_seating": "yes", "payment:app": "no", "payment:cash": "yes", "payment:coins": "yes", "payment:contactless": "yes", "payment:credit_cards": "yes", "payment:cryptocurrencies": "no", "payment:debit_cards": "yes", "payment:electronic_purses": "no", "payment:qr_code": "no", "self_service": "yes", "takeaway": "yes", "toilets": "yes", "toilets:access": "yes", "toilets:wheelchair": "yes"}}, {"type": "node", "id": 11510751094, "lat": 37.0456549, "lon": 35.2969754, "tags": {"addr:city": "Adana", "addr:district": "\u00c7ukurova", "addr:neighbourhood": "Toros Mahallesi", "addr:postcode": "01170", "addr:street": "78142. Sokak", "amenity": "cafe", "name": "11E - E. Emin K\u0131raathanesi"}}, {"type": "node", "id": 11510751096, "lat": 37.0455775, "lon": 35.2968729, "tags": {"amenity": "restaurant", "cuisine": "turkish", "name": "56E - \u015eenol Usta Kebap"}}, {"type": "node", "id": 11554074094, "lat": 37.0410183, "lon": 35.3022743, "tags": {"amenity": "restaurant", "cuisine": "pizza", "name": "Pizza Taksi"}}, {"type": "node", "id": 11556490937, "lat": 37.047423, "lon": 35.2904354, "tags": {"amenity": "restaurant", "cuisine": "s\u0131kma", "name": "S. S. \u00c7ukurova G\u00fclen Y\u00fczler Kad\u0131n T\u00fcketim Kooperatifi"}}, {"type": "node", "id": 11556490940, "lat": 37.04756, "lon": 35.2906318, "tags": {"amenity": "restaurant", "cuisine": "turkish;ci\u011fer", "name": "Baba Onba\u015f\u0131lar Ci\u011fer"}}, {"type": "node", "id": 11556490942, "lat": 37.0476907, "lon": 35.2904504, "tags": {"amenity": "restaurant", "cuisine": "turkish;home_food;adana_cuisine"}}, {"type": "node", "id": 11556497169, "lat": 37.0423182, "lon": 35.3139124}, {"type": "node", "id": 11556497170, "lat": 37.0421283, "lon": 35.313846}, {"type": "node", "id": 11556497171, "lat": 37.0421297, "lon": 35.3140823}, {"type": "node", "id": 11556497172, "lat": 37.0422427, "lon": 35.3140832}, {"type": "node", "id": 11556497173, "lat": 37.0422427, "lon": 35.3140292}, {"type": "node", "id": 11556497174, "lat": 37.0423175, "lon": 35.3140274}, {"type": "node", "id": 11607543166, "lat": 37.0178311, "lon": 35.2417746, "tags": {"amenity": "cafe", "branch": "M1 Avm Adana", "brand": "Starbucks", "brand:wikidata": "Q37158", "cuisine": "coffee_shop", "drive_through": "no", "internet_access": "no", "name": "Starbucks", "official_name": "Starbucks Coffee", "payment:app": "no", "phone": "+90 322 271 04 57", "takeaway": "yes"}}, {"type": "node", "id": 11607559786, "lat": 37.0457748, "lon": 35.3077125, "tags": {"amenity": "cafe", "branch": "Turgut Ozal Bulvari No:70", "brand": "Starbucks", "brand:wikidata": "Q37158", "cuisine": "coffee_shop", "drive_through": "no", "internet_access": "no", "name": "Starbucks", "official_name": "Starbucks Coffee", "payment:app": "no", "takeaway": "yes"}}, {"type": "node", "id": 11607565016, "lat": 37.0487941, "lon": 35.2880395, "tags": {"amenity": "cafe", "branch": "Kurttepe", "brand": "Starbucks", "brand:wikidata": "Q37158", "cuisine": "coffee_shop", "drive_through": "no", "internet_access": "no", "name": "Starbucks", "official_name": "Starbucks Coffee", "payment:app": "no", "takeaway": "yes"}}, {"type": "node", "id": 11607571681, "lat": 36.9935063, "lon": 35.3073681, "tags": {"amenity": "cafe", "branch": "01 Burda Avm", "brand": "Starbucks", "brand:wikidata": "Q37158", "cuisine": "coffee_shop", "drive_through": "no", "internet_access": "no", "name": "Starbucks", "official_name": "Starbucks Coffee", "payment:app": "no", "takeaway": "yes"}}, {"type": "node", "id": 11607572161, "lat": 37.0276476, "lon": 35.3465321, "tags": {"amenity": "cafe", "branch": "Adana Sehir Hastanesi", "brand": "Starbucks", "brand:wikidata": "Q37158", "cuisine": "coffee_shop", "drive_through": "no", "internet_access": "no", "name": "Starbucks", "official_name": "Starbucks Coffee", "payment:app": "no", "takeaway": "yes"}}, {"type": "node", "id": 11607575212, "lat": 37.0231502, "lon": 35.2792513, "tags": {"amenity": "cafe", "branch": "Turkmenbasi", "brand": "Starbucks", "brand:wikidata": "Q37158", "cuisine": "coffee_shop", "drive_through": "no", "internet_access": "no", "name": "Starbucks", "official_name": "Starbucks Coffee", "payment:app": "no", "takeaway": "yes"}}, {"type": "node", "id": 11607582249, "lat": 37.0520416, "lon": 35.2525829, "tags": {"amenity": "cafe", "branch": "Dr Sadik Ahmet Bulvari No 91", "brand": "Starbucks", "brand:wikidata": "Q37158", "cuisine": "coffee_shop", "drive_through": "no", "internet_access": "no", "name": "Starbucks", "official_name": "Starbucks Coffee", "payment:app": "no", "takeaway": "yes"}}, {"type": "node", "id": 11607603520, "lat": 37.0435065, "lon": 35.3020039, "tags": {"amenity": "cafe", "branch": "Sehitler Bulvari No 70", "brand": "Starbucks", "brand:wikidata": "Q37158", "cuisine": "coffee_shop", "drive_through": "no", "internet_access": "no", "name": "Starbucks", "official_name": "Starbucks Coffee", "payment:app": "no", "takeaway": "yes"}}, {"type": "node", "id": 11607623901, "lat": 36.9909135, "lon": 35.3402989, "tags": {"amenity": "cafe", "branch": "Optimum Adana", "brand": "Starbucks", "brand:wikidata": "Q37158", "cuisine": "coffee_shop", "drive_through": "no", "internet_access": "no", "name": "Starbucks", "official_name": "Starbucks Coffee", "payment:app": "no", "phone": "+90 312 281 07 87", "takeaway": "yes"}}, {"type": "node", "id": 11607639705, "lat": 37.0017044, "lon": 35.3272009, "tags": {"amenity": "cafe", "branch": "Toros Caddesi No:35", "brand": "Starbucks", "brand:wikidata": "Q37158", "cuisine": "coffee_shop", "drive_through": "no", "internet_access": "no", "name": "Starbucks", "official_name": "Starbucks Coffee", "payment:app": "no", "takeaway": "yes", "toilets:wheelchair": "yes", "wheelchair": "yes"}}, {"type": "node", "id": 11607640663, "lat": 37.0012781, "lon": 35.3245712, "tags": {"amenity": "cafe", "branch": "Gazipasa", "brand": "Starbucks", "brand:wikidata": "Q37158", "cuisine": "coffee_shop", "drive_through": "no", "internet_access": "no", "name": "Starbucks", "official_name": "Starbucks Coffee", "payment:app": "no", "takeaway": "yes"}}, {"type": "node", "id": 11607641102, "lat": 37.048482, "lon": 35.2954977, "tags": {"amenity": "cafe", "branch": "Turgut Ozal No 44", "brand": "Starbucks", "brand:wikidata": "Q37158", "cuisine": "coffee_shop", "drive_through": "no", "internet_access": "no", "name": "Starbucks", "official_name": "Starbucks Coffee", "payment:app": "no", "takeaway": "yes"}}, {"type": "node", "id": 11607641306, "lat": 37.0216585, "lon": 35.2612314, "tags": {"amenity": "cafe", "branch": "Aliya Izzetbegovic Bulvari No:25", "brand": "Starbucks", "brand:wikidata": "Q37158", "cuisine": "coffee_shop", "drive_through": "no", "internet_access": "no", "name": "Starbucks", "official_name": "Starbucks Coffee", "payment:app": "no", "takeaway": "yes"}}, {"type": "node", "id": 11607641307, "lat": 37.0167702, "lon": 35.2422296, "tags": {"amenity": "cafe", "branch": "M1 Avm Outdoor Adana", "brand": "Starbucks", "brand:wikidata": "Q37158", "cuisine": "coffee_shop", "drive_through": "no", "internet_access": "no", "name": "Starbucks", "official_name": "Starbucks Coffee", "payment:app": "no", "takeaway": "yes"}}, {"type": "node", "id": 11607653981, "lat": 37.0478325, "lon": 35.299778, "tags": {"amenity": "cafe", "branch": "Turgut Ozal Bulvari No98", "brand": "Starbucks", "brand:wikidata": "Q37158", "cuisine": "coffee_shop", "drive_through": "no", "internet_access": "no", "name": "Starbucks", "official_name": "Starbucks Coffee", "payment:app": "no", "takeaway": "yes"}}, {"type": "node", "id": 11970129454, "lat": 37.0492292, "lon": 35.2898561, "tags": {"amenity": "restaurant", "name": "Prag Cake"}}, {"type": "node", "id": 11970162104, "lat": 37.0492789, "lon": 35.2895474, "tags": {"amenity": "restaurant", "name": "Mezzevari"}}, {"type": "node", "id": 12098355041, "lat": 37.0329021, "lon": 35.3180758}, {"type": "node", "id": 12098355042, "lat": 37.033056, "lon": 35.3183053}, {"type": "node", "id": 12098355043, "lat": 37.0329552, "lon": 35.3184106}, {"type": "node", "id": 12098355044, "lat": 37.0327815, "lon": 35.3182}, {"type": "node", "id": 12098355045, "lat": 37.0328094, "lon": 35.3181712}, {"type": "node", "id": 12125431284, "lat": 37.0456155, "lon": 35.2960884}, {"type": "node", "id": 12125431285, "lat": 37.0454878, "lon": 35.2961737}, {"type": "node", "id": 12125431286, "lat": 37.0455484, "lon": 35.2963266}, {"type": "node", "id": 12125431287, "lat": 37.0456714, "lon": 35.2962274}, {"type": "node", "id": 12125431288, "lat": 37.0456099, "lon": 35.296277, "tags": {"addr:city": "Adana", "addr:district": "\u00c7ukurova", "addr:neighbourhood": "Toros Mahallesi", "addr:postcode": "01170", "addr:street": "Ali Sepici Caddesi", "entrance": "yes", "ref": "65A"}}, {"type": "node", "id": 12151747780, "lat": 36.9841834, "lon": 35.3238428, "tags": {"amenity": "restaurant", "name": "Many fish restaurants"}}, {"type": "node", "id": 12340820901, "lat": 37.0319795, "lon": 35.3130036, "tags": {"addr:postcode": "01170", "addr:street": "Adnan Kahveci Bulvar\u0131", "amenity": "restaurant", "cuisine": "turkish", "name": "Katmerci Day\u0131", "opening_hours": "Mo-Su 10:00-02:00", "phone": "0552 800 50 01"}}, {"type": "node", "id": 12346502401, "lat": 37.0336332, "lon": 35.3185615, "tags": {"addr:city": "Adana", "addr:district": "\u00c7ukurova", "addr:housenumber": "2", "addr:neighbourhood": "G\u00fczelyal\u0131 Mahallesi", "addr:postcode": "01170", "addr:street": "81012", "amenity": "cafe", "cuisine": "bagel;breakfast;cake;coffee_shop;tea", "name": "Sekiz Pasta & Caf\u00e9", "opening_hours": "Mo-Su 06:00-00:00", "phone": "(0322) 233 24 44"}}, {"type": "node", "id": 12453001569, "lat": 37.0006141, "lon": 35.3253003, "tags": {"addr:city": "Adana", "addr:district": "Seyhan", "addr:housenumber": "4", "addr:neighbourhood": "Cemalpa\u015fa", "addr:postcode": "01120", "addr:street": "63005. Sokak", "amenity": "restaurant", "cuisine": "fish", "name": "\u0130stanbul Bal\u0131k\u00e7\u0131s\u0131", "phone": "+90 322 453 16 17", "website": "https://www.instagram.com/balkcibo/"}}, {"type": "node", "id": 12569206201, "lat": 37.0456812, "lon": 35.3059891, "tags": {"addr:housenumber": "111", "addr:street": "Turgut \u00d6zal Bulvar\u0131 (Merkezi)", "amenity": "restaurant", "contact:instagram": "ortakoyadana", "cuisine": "turkish", "name": "Ortak\u00f6y \u00c7orbac\u0131s\u0131", "opening_hours": "Mo-Su 06:00-02:00"}}, {"type": "node", "id": 12579272402, "lat": 37.0447554, "lon": 35.2976263, "tags": {"amenity": "restaurant", "cuisine": "italian", "name": "50D - Pasta Di Parma", "opening_hours": "Mo-Su 12:00-21:00"}}, {"type": "node", "id": 12579291458, "lat": 37.0454103, "lon": 35.2970385, "tags": {"amenity": "restaurant", "name": "56B - Tayyar'\u0131n Yeri"}}, {"type": "node", "id": 12620987993, "lat": 37.0340108, "lon": 35.31918, "tags": {"addr:city": "Adana", "addr:district": "\u00c7ukurova", "addr:neighbourhood": "G\u00fczelyal\u0131 Mahallesi", "addr:postcode": "01170", "addr:street": "81015 Sokak", "amenity": "restaurant", "cuisine": "turkish", "name": "Cihangir Kebap Kaburga", "opening_hours": "Mo-Su 10:00-02:00", "phone": "+903222336060", "website": "https://www.cihangirkebap.com.tr/"}}, {"type": "node", "id": 12621210163, "lat": 37.031907, "lon": 35.3139217, "tags": {"addr:city": "Adana", "addr:district": "\u00c7ukurova", "addr:neighbourhood": "Beyazevler Mahallesi", "addr:postcode": "01170", "addr:street": "Adnan Kahveci Bulvar\u0131", "amenity": "restaurant", "cuisine": "turkish", "diet:vegan": "yes", "diet:vegetarian": "yes", "name": "\u00c7i\u011fK\u00f6fte D\u00fcnyas\u0131", "opening_hours": "Mo-Su 10:00-04:00", "phone": "+903229995252"}}, {"type": "node", "id": 12621210169, "lat": 37.0432508, "lon": 35.302214, "tags": {"addr:city": "Adana", "addr:district": "\u00c7ukurova", "addr:housenumber": "70/A", "addr:neighbourhood": "Mahfes\u0131\u011fmaz Mahallesi", "addr:postcode": "01170", "addr:street": "\u015eehitler Bulvar\u0131", "amenity": "restaurant", "cuisine": "turkish", "diet:meat": "yes", "name": "Dafne Kebap D\u00f6ner", "opening_hours": "Mo-Su 08:00-22:00", "phone": "+903222347070", "website": "https://www.dafnedonerkebap.com/", "website:menu": "https://www.instagram.com/dafnekebapdoner/"}}, {"type": "node", "id": 12621210170, "lat": 37.0433032, "lon": 35.302324, "tags": {"addr:city": "Adana", "addr:district": "\u00c7ukurova", "addr:neighbourhood": "Mahfes\u0131\u011fmaz Mahallesi", "addr:postcode": "01170", "addr:street": "79154. Sokak", "amenity": "restaurant", "cuisine": "turkish", "diet:meat": "yes", "name": "Antakya Zahter D\u00f6ner", "opening_hours": "Mo-Su 10:00-22:00", "phone": "+903222347070"}}, {"type": "node", "id": 12621286693, "lat": 37.0527808, "lon": 35.2959924, "tags": {"addr:city": "Adana", "addr:district": "\u00c7ukurova", "addr:housenumber": "4/A", "addr:neighbourhood": "Karsl\u0131lar Mahallesi", "addr:postcode": "01170", "addr:street": "S\u00fcleyman Demirel Bulvar\u0131", "amenity": "restaurant", "cuisine": "seafood;fish", "delivery": "yes", "diet:pescetarian": "yes", "highchair": "yes", "internet_access": "wlan", "name": "Lagos Bal\u0131k Restaurant", "opening_hours": "Mo-Su 11:00-01:30", "outdoor_seating": "yes", "phone": "+905301001212", "website": "http://www.lagosbalik.com/", "wheelchair": "yes"}}, {"type": "node", "id": 12623943713, "lat": 37.0417695, "lon": 35.3139586, "tags": {"addr:city": "Adana", "addr:district": "\u00c7ukurova", "addr:housenumber": "46/D", "addr:neighbourhood": "G\u00fczelyal\u0131 Mahallesi", "addr:postcode": "01170", "addr:street": "Turgut \u00d6zal Bulvar\u0131", "amenity": "restaurant", "cuisine": "turkish", "diet:meat_free": "yes", "name": "Garlic D\u00f6ner", "opening_hours": "Mo-Su 11:00-10:00", "phone": "+903222311010"}}, {"type": "node", "id": 12624046629, "lat": 37.0336678, "lon": 35.2403726, "tags": {"addr:city": "Adana", "addr:district": "\u00c7ukurova", "addr:housenumber": "88", "addr:neighbourhood": "Y\u00fcz\u00fcnc\u00fcy\u0131l Mahallesi", "addr:postcode": "01170", "addr:street": "Fazl\u0131 Meto Caddesi", "amenity": "restaurant", "cuisine": "turkish", "diet:meat": "yes", "name": "Suma\u00e7 D\u00f6ner"}}, {"type": "node", "id": 12624303092, "lat": 37.008493, "lon": 35.2777895, "tags": {"addr:city": "Adana", "addr:district": "Seyhan", "addr:neighbourhood": "\u0130smetpa\u015fa Mahallesi", "addr:postcode": "01180", "addr:street": "51173 Sokak", "amenity": "restaurant", "contact:facebook": "https://www.facebook.com/tr.pizzapan", "cuisine": "pizza", "delivery": "yes", "diet:meat": "yes", "diet:vegan": "yes", "diet:vegetarian": "yes", "drive_through": "yes", "email": "adana.pizzapan@gmail.com", "internet_access": "yes", "name": "Pizza Pan", "opening_hours": "We-Mo 11:00-04:00", "opening_hours:drive_through": "24/7", "operator": "Pizza Pan", "outdoor_seating": "yes", "payment:account_cards": "yes", "payment:credit_cards": "yes", "phone": "+90 322 234 0404", "takeaway": "yes", "website": "https://www.instagram.com/tr.pizzapan", "website:menu": "https://www.yemeksepeti.com/restaurant/drme/pizza-pan-drme"}}, {"type": "node", "id": 12638536837, "lat": 37.0449066, "lon": 35.3004205, "tags": {"addr:city": "Adana", "addr:district": "\u00c7ukurova", "addr:housenumber": "87", "addr:neighbourhood": "Toros Mahallesi", "addr:postcode": "01170", "addr:street": "\u015eehitler Bulvar\u0131", "amenity": "restaurant", "cuisine": "turkish", "diet:halal": "yes", "diet:meat": "yes", "name": "Mersin Et Tantuni", "phone": "+903222311199"}}, {"type": "node", "id": 12802356601, "lat": 36.995564, "lon": 35.3135853, "tags": {"amenity": "cafe"}}, {"type": "node", "id": 12802711501, "lat": 36.9860655, "lon": 35.331227, "tags": {"amenity": "cafe", "cuisine": "kebab;turkish", "name": "Kebap\u00e7i Aziz", "outdoor_seating": "yes"}}, {"type": "node", "id": 12832223281, "lat": 36.9952699, "lon": 35.3135668, "tags": {"amenity": "cafe"}}, {"type": "way", "id": 113988393, "nodes": [1291822511, 11330858595, 11330858597, 1291822528, 1291822546, 6571064131, 11330858596, 1291822537, 1291822511], "tags": {"amenity": "restaurant", "building": "yes", "layer": "1", "name": "MOLA"}}, {"type": "way", "id": 618581403, "nodes": [5846637785, 5846637786, 5846637787, 5846637788, 5846637789, 5846637790, 5846637791, 5846637792, 5846637793, 5846637794, 5846637795, 5846637796, 5846637785], "tags": {"amenity": "cafe", "building": "yes"}}, {"type": "way", "id": 678475075, "nodes": [6352885285, 6352884084, 6352884083, 6352884082, 6352884081, 6352884080, 6352884079, 6352884078, 6352884077, 6352884076, 6352884075, 6352884074, 6352884073, 6352885285], "tags": {"amenity": "restaurant", "cuisine": "kebab", "name": "K\u00f6se Lokantas\u0131"}}, {"type": "way", "id": 794173079, "nodes": [7427725501, 7427725502, 7427725503, 7427725504, 7427725505, 7427725506, 7427725507, 7427725508, 7427725501], "tags": {"addr:full": "Kurttepe Caddesi 4 01170 \u00c7ukurova Adana Turkey", "amenity": "restaurant", "building": "yes", "cuisine": "turkish", "diet:carnivore": "yes", "diet:halal": "yes", "name": "Hasan Usta Kebap", "name:en": "Master Hasan Kebap", "name:ja": "\u30cf\u30b5\u30f3\u30de\u30b9\u30bf\u30fc\u306e\u30b1\u30d0\u30c3\u30d7\u3084", "opening_hours": "Mo-Sa 08:00-3:00", "phone": "+90 (322) 247 00 00"}}, {"type": "way", "id": 1087445874, "nodes": [9963521346, 9963521347, 9963521348, 9963521349, 9963521346], "tags": {"amenity": "restaurant", "building": "yes", "cuisine": "turkish", "name": "G\u00fcney Marina"}}, {"type": "way", "id": 1137188646, "nodes": [10600729107, 10600729108, 10600729109, 10600729110, 10600729111, 10600729112, 10600729107], "tags": {"addr:city": "Cumhuriyet Mahallesi", "addr:district": "Y\u00fcre\u011fir", "addr:housenumber": "33/1", "addr:neighbourhood": "Cumhuriyet, Karata\u015f Bulvar\u0131 no: 33/1", "addr:postcode": "01280", "addr:street": "Karata\u015f Bulvar\u0131", "amenity": "restaurant", "building": "yes", "cuisine": "pizza;fast_food;i\u00e7li k\u00f6fte", "diet:halal": "yes", "name": "Pizza Taxi Cumhuriyet", "opening_hours": "Mo-Su 10:00-22:00", "phone": "+90 322 323 39 39", "website": "https://www.pizzataxi.com.tr/"}}, {"type": "way", "id": 1221727025, "nodes": [11330858400, 11330858401, 11330858402, 11330858403, 11330858404, 11330858405, 11330858406, 11330858407, 11330858400], "tags": {"amenity": "restaurant", "building": "yes", "cuisine": "turkish;kebab", "diet:carnivore": "yes", "diet:omnivore": "yes", "name": "\u0130pekyolu Tesisleri Kebap"}}, {"type": "way", "id": 1221727041, "nodes": [11330858516, 11330858517, 11330858518, 11330858519, 11330858520, 11330858521, 11330858522, 11330858523, 11330858524, 11330858525, 11330858526, 11330858527, 11330858528, 11330858529, 11330858516], "tags": {"amenity": "restaurant", "building": "yes", "cuisine": "turkish;kebab", "diet:carnivore": "yes", "diet:omnivore": "yes", "name": "\u0130pekyolu Tesisleri Kebap"}}, {"type": "way", "id": 1243434448, "nodes": [11556497169, 11556497170, 11556497171, 11556497172, 11556497173, 11556497174, 11556497169], "tags": {"addr:housenumber": "4", "amenity": "restaurant", "building": "yes", "cuisine": "turkish;kebab"}}, {"type": "way", "id": 1306303713, "nodes": [12098355041, 12098355042, 12098355043, 12098355044, 12098355045, 12098355041], "tags": {"addr:city": "G\u00fczelyal\u0131 Mahallesi", "addr:district": "Adana", "addr:postcode": "01170", "addr:street": "Adnan Kahveci Bulvar\u0131", "amenity": "restaurant", "building": "commercial", "name": "Rovers Gastropub & Live Music", "opening_hours": "Mo-Su 09:00-03:00", "phone": "+905405077777", "website": "https://www.rovers.com.tr/"}}, {"type": "way", "id": 1309482170, "nodes": [12125431284, 12125431285, 12125431286, 12125431288, 12125431287, 12125431284], "tags": {"addr:city": "Adana", "addr:district": "\u00c7ukurova", "addr:housenumber": "65A", "addr:neighbourhood": "Toros Mahallesi", "addr:postcode": "01170", "addr:street": "Ali Sepici Caddesi", "amenity": "restaurant", "building": "commercial", "building:levels": "2", "cuisine": "turkish;kebab", "diet:halal": "yes", "height": "6", "name": "65A Ya\u011flar Kasap/Lokanta", "short_name": "Ya\u011flar", "smoking": "outside"}}]}