{"version": 0.6, "generator": "Overpass API 0.7.62.7 375dc00a", "osm3s": {"timestamp_osm_base": "2025-06-14T14:43:30Z", "copyright": "The data included in this document is from www.openstreetmap.org. The data is made available under ODbL."}, "elements": [{"type": "node", "id": 287979216, "lat": 35.4987555, "lon": 23.6538999, "tags": {"addr:city": "Teloneio beach Kissamos", "addr:city:en": "Kissamos", "addr:city:it": "Kissamos", "addr:country": "GR", "addr:postcode": "73400", "addr:street": "Paraliaki", "amenity": "restaurant", "contact:facebook": "https://www.facebook.com/fishtavern1960/", "contact:phone": "+30 28220 22340", "cuisine": "greek", "name": "Fish Tavern 1960", "name:de": "Fish Tavern 1960", "name:el": "Fish Tavern 1960", "name:en": "Fish Tavern 1960"}}, {"type": "node", "id": 301825986, "lat": 35.4815439, "lon": 23.589392, "tags": {"amenity": "restaurant", "cuisine": "greek", "name": "Spilios", "name:de": "Spilios Restaurant"}}, {"type": "node", "id": 301840522, "lat": 35.4898515, "lon": 23.5807643, "tags": {"amenity": "restaurant"}}, {"type": "node", "id": 304074836, "lat": 35.4922613, "lon": 23.5810718}, {"type": "node", "id": 304075061, "lat": 35.4950389, "lon": 23.5808558, "tags": {"amenity": "restaurant", "name:en": "To Kyma"}}, {"type": "node", "id": 304587662, "lat": 35.5051201, "lon": 23.6404855}, {"type": "node", "id": 304587664, "lat": 35.5050178, "lon": 23.6403723}, {"type": "node", "id": 304587665, "lat": 35.5048766, "lon": 23.6404997}, {"type": "node", "id": 304587667, "lat": 35.5050049, "lon": 23.6406377}, {"type": "node", "id": 304587773, "lat": 35.5053937, "lon": 23.6402324, "tags": {"amenity": "restaurant", "cuisine": "seafood", "name": "Fish Tavern O Tsero Tsegas"}}, {"type": "node", "id": 304637756, "lat": 35.4977809, "lon": 23.6568405, "tags": {"amenity": "restaurant", "name": "Taverna Korakas"}}, {"type": "node", "id": 305268750, "lat": 35.3707419, "lon": 23.6319047, "tags": {"amenity": "restaurant", "created_by": "Potlatch 0.10e", "ele": "556.0039063", "name": "Taverna Antartisa"}}, {"type": "node", "id": 313816248, "lat": 35.4953393, "lon": 23.6539478, "tags": {"amenity": "restaurant", "created_by": "Potlatch 0.10f", "name": "Castello"}}, {"type": "node", "id": 488454173, "lat": 35.2349784, "lon": 23.6321355, "tags": {"amenity": "restaurant", "cuisine": "greek", "name": "Taverna Grameno", "source": "survey", "source:name": "local knowledge"}}, {"type": "node", "id": 542589076, "lat": 35.2762243, "lon": 23.5449068, "tags": {"amenity": "restaurant", "cuisine": "regional", "name": "Elafonisi Kalomirakis"}}, {"type": "node", "id": 773828904, "lat": 35.3100927, "lon": 23.5373799, "tags": {"amenity": "restaurant", "cuisine": "regional", "diet:vegan": "no", "diet:vegetarian": "no", "internet_access": "wlan", "internet_access:fee": "no", "name": "Kochilas"}}, {"type": "node", "id": 773864087, "lat": 35.3623197, "lon": 23.6371866, "tags": {"air_conditioning": "no", "amenity": "restaurant", "cuisine": "regional", "indoor_seating": "yes", "name": "Kamares", "outdoor_seating": "yes", "smoking": "outside", "wheelchair": "no"}}, {"type": "node", "id": 1297517346, "lat": 35.3618937, "lon": 23.6371121, "tags": {"amenity": "restaurant", "cuisine": "regional", "int_name": "Filoxenia", "name": "\u03a6\u03b9\u03bb\u03bf\u03be\u03b5\u03bd\u03af\u03b1", "opening_hours": "Mo-Su 11:00-24:00"}}, {"type": "node", "id": 1381924913, "lat": 35.4565779, "lon": 23.6503031}, {"type": "node", "id": 1381924922, "lat": 35.4566685, "lon": 23.6503868}, {"type": "node", "id": 1381924937, "lat": 35.4564997, "lon": 23.6504306}, {"type": "node", "id": 1381924943, "lat": 35.4565903, "lon": 23.6505143}, {"type": "node", "id": 1918292398, "lat": 35.2749324, "lon": 23.5445274}, {"type": "node", "id": 1918292416, "lat": 35.2750034, "lon": 23.5446175}, {"type": "node", "id": 1918292423, "lat": 35.2750029, "lon": 23.5445269}, {"type": "node", "id": 1918292425, "lat": 35.2749328, "lon": 23.5446181}, {"type": "node", "id": 2505085872, "lat": 35.498033, "lon": 23.6560545, "tags": {"addr:city": "\u039a\u03af\u03c3\u03c3\u03b1\u03bc\u03bf\u03c2", "addr:city:en": "Kissamos", "addr:city:it": "Kissamos", "addr:country": "GR", "amenity": "restaurant", "contact:email": "cellartaverna@outlook.com", "name": "\u03a4\u039f \u039a\u0395\u039b\u0391\u03a1\u0399", "name:el": "\u03a4\u039f \u039a\u0395\u039b\u0391\u03a1\u0399", "name:en": "The Cellar"}}, {"type": "node", "id": 2685684803, "lat": 35.2972144, "lon": 23.6114171, "tags": {"amenity": "restaurant"}}, {"type": "node", "id": 2821450352, "lat": 35.5120589, "lon": 23.608102, "tags": {"addr:city": "\u039a\u03b1\u03bb\u03c5\u03b2\u03b9\u03b1\u03bd\u03ae", "addr:housenumber": "1", "addr:postcode": "73400", "addr:street": "Stylianou Koutsaftaki", "amenity": "restaurant", "capacity": "50", "cuisine": "greek", "name": "Mama's Dinner Restaurant - Fine Cretan Gastronomy", "opening_hours": "18:30 - 23:45", "outdoor_seating": "yes", "phone": "00302822023204", "smoking": "outside", "website": "https://www.kaliviani.com/restaurant", "wheelchair": "yes"}}, {"type": "node", "id": 2918790128, "lat": 35.358064, "lon": 23.5623267, "tags": {"amenity": "restaurant", "cuisine": "greek", "name": "\u039c\u0395\u039b\u03a4\u0395\u039c\u0399", "name:el": "\u039c\u0395\u039b\u03a4\u0395\u039c\u0399", "name:en": "Meltemi", "opening_hours": "Mo-Su 09:00-21:00", "outdoor_seating": "yes"}}, {"type": "node", "id": 2918790129, "lat": 35.3635401, "lon": 23.557835, "tags": {"amenity": "cafe", "name": "Petroula's Bar", "outdoor_seating": "yes"}}, {"type": "node", "id": 2918790130, "lat": 35.417792, "lon": 23.569227, "tags": {"amenity": "cafe", "check_date:opening_hours": "2025-04-25", "name": "Cati Alo", "opening_hours:signed": "no"}}, {"type": "node", "id": 2918790131, "lat": 35.4178578, "lon": 23.5690954, "tags": {"amenity": "restaurant", "name": "Cati Alo"}}, {"type": "node", "id": 2947521643, "lat": 35.5031244, "lon": 23.5783776}, {"type": "node", "id": 2947521647, "lat": 35.5031701, "lon": 23.5782688}, {"type": "node", "id": 2947521650, "lat": 35.5032307, "lon": 23.5784449}, {"type": "node", "id": 2947521654, "lat": 35.5032648, "lon": 23.5783634}, {"type": "node", "id": 2965309579, "lat": 35.4781251, "lon": 23.5792513, "tags": {"amenity": "restaurant", "cuisine": "greek", "name": "Taverna Vassilis", "phone": "+30 2822041529"}}, {"type": "node", "id": 2965334070, "lat": 35.3133707, "lon": 23.5416161, "tags": {"amenity": "restaurant", "cuisine": "greek", "name": "Glykeria", "website": "https://www.glykeria.com/"}}, {"type": "node", "id": 2981211210, "lat": 35.4997543, "lon": 23.6496875}, {"type": "node", "id": 2981211211, "lat": 35.4997612, "lon": 23.6499415}, {"type": "node", "id": 2981211215, "lat": 35.4998114, "lon": 23.6496851}, {"type": "node", "id": 2981211216, "lat": 35.4998183, "lon": 23.6499391}, {"type": "node", "id": 2981448738, "lat": 35.4981791, "lon": 23.6546982, "tags": {"addr:city": "\u039a\u03af\u03c3\u03c3\u03b1\u03bc\u03bf\u03c2", "addr:city:en": "Kissamos", "addr:city:it": "Kissamos", "addr:country": "GR", "amenity": "restaurant", "cuisine": "fish;greek;local", "name": "Pixida", "name:de": "Pixida", "name:en": "Pixida"}}, {"type": "node", "id": 2981448739, "lat": 35.498918, "lon": 23.653144, "tags": {"addr:city": "\u039a\u03af\u03c3\u03c3\u03b1\u03bc\u03bf\u03c2", "addr:city:en": "Kissamos", "addr:city:it": "Kissamos", "addr:country": "GR", "amenity": "restaurant", "name": "Sun Set"}}, {"type": "node", "id": 2981449945, "lat": 35.4980228, "lon": 23.6556357, "tags": {"addr:city": "\u039a\u03af\u03c3\u03c3\u03b1\u03bc\u03bf\u03c2", "addr:city:en": "Kissamos", "addr:city:it": "Kissamos", "addr:country": "GR", "amenity": "restaurant"}}, {"type": "node", "id": 2981450217, "lat": 35.4985032, "lon": 23.6540745, "tags": {"addr:city": "\u039a\u03af\u03c3\u03c3\u03b1\u03bc\u03bf\u03c2", "addr:city:en": "Kissamos", "addr:city:it": "Kissamos", "addr:country": "GR", "amenity": "cafe", "name": "\u0391\u03c1\u03b3\u03ce", "name:de": "Argo", "name:el": "\u0391\u03c1\u03b3\u03ce", "name:en": "Argo"}}, {"type": "node", "id": 2992144969, "lat": 35.5049227, "lon": 23.6404271}, {"type": "node", "id": 2992144970, "lat": 35.5049559, "lon": 23.6404625}, {"type": "node", "id": 2999363870, "lat": 35.4935452, "lon": 23.6574511, "tags": {"amenity": "restaurant", "cuisine": "greek", "name": "Skasiarhio"}}, {"type": "node", "id": 3020286635, "lat": 35.2344197, "lon": 23.634862, "tags": {"amenity": "restaurant", "name": "Deilino"}}, {"type": "node", "id": 3020297367, "lat": 35.2334817, "lon": 23.6365095, "tags": {"amenity": "restaurant", "cuisine": "regional", "internet_access": "wlan", "name": "Grammeno Camping Bar and Restaurant", "opening_hours": "Mo-Su 08:30-01:00", "outdoor_seating": "yes", "website": "https://grammenocampingbarandrestaurant.business.site", "wheelchair": "yes"}}, {"type": "node", "id": 3581156995, "lat": 35.50081, "lon": 23.5803321, "tags": {"amenity": "restaurant", "cuisine": "greek", "name:en": "Petalida Fish Tavern", "outdoor_seating": "yes"}}, {"type": "node", "id": 3581165995, "lat": 35.5022392, "lon": 23.5782394, "tags": {"amenity": "restaurant", "name:en": "Alea"}}, {"type": "node", "id": 3581169878, "lat": 35.5022914, "lon": 23.5796527, "tags": {"amenity": "restaurant", "cuisine": "greek", "name:en": "Taverna Falasarna"}}, {"type": "node", "id": 3583982144, "lat": 35.4755967, "lon": 23.5926494, "tags": {"amenity": "restaurant", "cuisine": "regional;greek;steak_house;seafood", "diet:vegetarian": "yes", "name": "Taverna Mouraki", "outdoor_seating": "yes"}}, {"type": "node", "id": 3583982145, "lat": 35.4813514, "lon": 23.5904735}, {"type": "node", "id": 3583982146, "lat": 35.4813944, "lon": 23.5902933}, {"type": "node", "id": 3583982147, "lat": 35.4814589, "lon": 23.5905121}, {"type": "node", "id": 3583982148, "lat": 35.4815019, "lon": 23.5903319}, {"type": "node", "id": 3603515068, "lat": 35.4160247, "lon": 23.5622948, "tags": {"addr:city": "Sfinari", "amenity": "restaurant", "cuisine": "regional,_greek,_fish", "name": "Thalami", "phone": "+302822041632", "smoking": "outside", "website": "http://www.thalami-kissamos.gr/index.php/en/"}}, {"type": "node", "id": 3645165599, "lat": 35.310287, "lon": 23.535705, "tags": {"amenity": "restaurant", "name": "Stellas"}}, {"type": "node", "id": 3645165600, "lat": 35.311025, "lon": 23.535861, "tags": {"amenity": "restaurant", "name": "Taverna sun set"}}, {"type": "node", "id": 3645165608, "lat": 35.27201, "lon": 23.542932, "tags": {"amenity": "restaurant", "name": "Elafonisi coffee snacks salads", "name:en": "mini market", "name:ru": "\u0422\u0430\u0432\u0435\u0440\u043d\u0430 \u043d\u0435\u0431\u043e\u043b\u044c\u0448\u043e\u0433\u043e \u0440\u0430\u0437\u043c\u0435\u0440\u0430"}}, {"type": "node", "id": 3645165612, "lat": 35.311928, "lon": 23.538875, "tags": {"amenity": "restaurant"}}, {"type": "node", "id": 3645165618, "lat": 35.361937, "lon": 23.636696, "tags": {"amenity": "restaurant"}}, {"type": "node", "id": 3645165621, "lat": 35.370914, "lon": 23.648337, "tags": {"amenity": "restaurant"}}, {"type": "node", "id": 3645165654, "lat": 35.517925, "lon": 23.637314, "tags": {"amenity": "cafe", "cuisine": "greek", "internet_access": "wlan", "name": "Limani"}}, {"type": "node", "id": 3651231267, "lat": 35.5133656, "lon": 23.6081947}, {"type": "node", "id": 3651231268, "lat": 35.5134, "lon": 23.6082938}, {"type": "node", "id": 3651231269, "lat": 35.5133748, "lon": 23.608307}, {"type": "node", "id": 3651231270, "lat": 35.5133884, "lon": 23.6083462}, {"type": "node", "id": 3651231271, "lat": 35.5133294, "lon": 23.6083772}, {"type": "node", "id": 3651231272, "lat": 35.5132813, "lon": 23.6082388}, {"type": "node", "id": 3676501855, "lat": 35.4949283, "lon": 23.5838358}, {"type": "node", "id": 3676501856, "lat": 35.4949337, "lon": 23.5840048}, {"type": "node", "id": 3676501857, "lat": 35.4948293, "lon": 23.5840098}, {"type": "node", "id": 3676501858, "lat": 35.4948239, "lon": 23.5838408}, {"type": "node", "id": 3741392190, "lat": 35.5019988, "lon": 23.5788497, "tags": {"amenity": "restaurant", "cuisine": "greek", "name": "Sunset Restaurant"}}, {"type": "node", "id": 3741392191, "lat": 35.4154497, "lon": 23.5620262, "tags": {"amenity": "restaurant", "cuisine": "greek", "name": "Sunset Taverna", "opening_hours": "Mo-Su,PH 12:00-21:00"}}, {"type": "node", "id": 4224125868, "lat": 35.3305037, "lon": 23.5596821}, {"type": "node", "id": 4224125869, "lat": 35.3303986, "lon": 23.5596475}, {"type": "node", "id": 4224125870, "lat": 35.3303864, "lon": 23.559703}, {"type": "node", "id": 4224125871, "lat": 35.3303268, "lon": 23.5596834}, {"type": "node", "id": 4224125872, "lat": 35.3303166, "lon": 23.5597299}, {"type": "node", "id": 4224125873, "lat": 35.3304813, "lon": 23.5597841}, {"type": "node", "id": 4296757990, "lat": 35.3117096, "lon": 23.5379564, "tags": {"amenity": "restaurant", "name": "Antigone"}}, {"type": "node", "id": 4339643594, "lat": 35.3636083, "lon": 23.5980803, "tags": {"amenity": "restaurant", "internet_access": "wlan", "name": "Lefteris taverna"}}, {"type": "node", "id": 4384455289, "lat": 35.471324, "lon": 23.5964502, "tags": {"amenity": "restaurant", "cuisine": "greek", "email": "fotiosvol@yahoo.gr", "internet_access": "wlan", "name": "Zaharias Taverne", "name:de": "Zaharias Taverne", "name:el": "Zaharias Taverne", "opening_hours": "24/7", "operator": "O Zaharias", "phone": "+302822041765"}}, {"type": "node", "id": 4387394789, "lat": 35.4982201, "lon": 23.6545613, "tags": {"amenity": "cafe", "cuisine": "burger;sandwich;ice_cream;savory_pancakes;crepe;coffee_shop;pancake;pizza", "name": "\u0395\u03bb \u0394\u03b9\u03b2\u03bf\u03bd\u03bf", "name:de": "El Divino", "name:el": "\u0395\u03bb \u0394\u03b9\u03b2\u03bf\u03bd\u03bf", "website": "https://m.facebook.com/pages/El-Divino-Kastelli/457645304258094"}}, {"type": "node", "id": 4415105985, "lat": 35.2366291, "lon": 23.5945664}, {"type": "node", "id": 4415105986, "lat": 35.2366376, "lon": 23.5946824}, {"type": "node", "id": 4415105987, "lat": 35.2366901, "lon": 23.5945597}, {"type": "node", "id": 4415106089, "lat": 35.2366986, "lon": 23.5946757}, {"type": "node", "id": 4444208377, "lat": 35.4983449, "lon": 23.579814, "tags": {"amenity": "restaurant", "contact:facebook": "https://www.facebook.com/galasia-thea%CE%B3%CE%B1%CE%BB%CE%B1%CE%B6%CE%B9%CE%B1-%CE%B8%CE%B5%CE%B1-147605108643076/", "contact:phone": "+30 2822 041421", "name": "Galasia Thea", "name:el": "\u0393\u03b1\u03bb\u03b1\u03b6\u03b9\u03b1 \u03b8\u03b5\u03b1", "name:en": "Blue View"}}, {"type": "node", "id": 4449467390, "lat": 35.4778931, "lon": 23.5690326, "tags": {"amenity": "restaurant", "name": "Kapetan Nikolas", "name:en": "Captain Nicholas", "name:es": "Capitan Nicolas"}}, {"type": "node", "id": 4459417298, "lat": 35.5134058, "lon": 23.6080992, "tags": {"amenity": "restaurant", "cuisine": "greek", "name:en": "Agkarathos"}}, {"type": "node", "id": 4952311813, "lat": 35.4998176, "lon": 23.6452448, "tags": {"addr:city": "Kissamos", "addr:postcode": "73400", "amenity": "restaurant", "cuisine": "greek", "name": "Stelios & Katina"}}, {"type": "node", "id": 5018111325, "lat": 35.3600724, "lon": 23.5313614, "tags": {"amenity": "restaurant", "cuisine": "greek", "name": "Traditional Taverna", "name:en": "Traditional Taverna", "name:ru": "\u0422\u0430\u0432\u0435\u0440\u043d\u0430", "outdoor_seating": "yes"}}, {"type": "node", "id": 5212350691, "lat": 35.2749806, "lon": 23.5445271}, {"type": "node", "id": 5212350700, "lat": 35.275003, "lon": 23.5445447}, {"type": "node", "id": 5844071156, "lat": 35.5012399, "lon": 23.6158384, "tags": {"amenity": "cafe"}}, {"type": "node", "id": 5844071158, "lat": 35.5063022, "lon": 23.6108022, "tags": {"amenity": "restaurant", "name": "Erofili", "outdoor_seating": "yes", "takeaway": "yes"}}, {"type": "node", "id": 5918601582, "lat": 35.3102429, "lon": 23.5371777}, {"type": "node", "id": 5918601583, "lat": 35.3103789, "lon": 23.5372576}, {"type": "node", "id": 5918601584, "lat": 35.3104215, "lon": 23.5371488}, {"type": "node", "id": 5918603485, "lat": 35.3102854, "lon": 23.5370688}, {"type": "node", "id": 5918603499, "lat": 35.3102389, "lon": 23.5375688}, {"type": "node", "id": 5918603500, "lat": 35.3101669, "lon": 23.5375268}, {"type": "node", "id": 5918603501, "lat": 35.3101798, "lon": 23.5374938}, {"type": "node", "id": 5918603502, "lat": 35.3101618, "lon": 23.5374833}, {"type": "node", "id": 5918603503, "lat": 35.310205, "lon": 23.5373724}, {"type": "node", "id": 5918603504, "lat": 35.3102949, "lon": 23.537425}, {"type": "node", "id": 5987183983, "lat": 35.3908176, "lon": 23.5734732}, {"type": "node", "id": 5987183984, "lat": 35.3907467, "lon": 23.5734678}, {"type": "node", "id": 5987184785, "lat": 35.3907419, "lon": 23.5735628}, {"type": "node", "id": 5987184786, "lat": 35.3908129, "lon": 23.5735681}, {"type": "node", "id": 6000870756, "lat": 35.493997, "lon": 23.6558741, "tags": {"amenity": "restaurant", "cuisine": "regional", "description": "Home Cretan Cuisine", "name": "\u039a\u03bf\u03ba\u03ba\u03b9\u03bd\u03bf\u03bc\u03b1\u03b3\u03b5\u03b9\u03c1\u03ad\u03bc\u03b1\u03c4\u03b1 - Kokkinomageiremata", "outdoor_seating": "yes", "takeaway": "yes"}}, {"type": "node", "id": 6462841416, "lat": 35.5131558, "lon": 23.6081971, "tags": {"addr:city": "\u039a\u03b1\u03bb\u03c5\u03b2\u03b9\u03b1\u03bd\u03ae", "addr:postcode": "73400", "addr:street": "Kaliviani", "amenity": "restaurant", "cuisine": "greek;regional;seafood", "name": "Kaliviani Fish and Meat"}}, {"type": "node", "id": 6637519985, "lat": 35.4672541, "lon": 23.6005605, "tags": {"addr:street": "\u03a0\u03bb\u03ac\u03c4\u03b1\u03bd\u03bf\u03c2 - \u03a3\u03c6\u03b7\u03bd\u03ac\u03c1\u03b9", "amenity": "restaurant", "cuisine": "greek", "internet_access": "wlan", "name": "Motakis", "opening_hours": "Mo-Su 09:00-00:00"}}, {"type": "node", "id": 6669711031, "lat": 35.2343623, "lon": 23.6330735, "tags": {"amenity": "restaurant", "cuisine": "regional", "name": "Houmas"}}, {"type": "node", "id": 6669711032, "lat": 35.2331662, "lon": 23.6369843, "tags": {"amenity": "cafe", "internet_access": "wlan", "name": "Ammos Beach Bar and Caf\u00e9", "outdoor_seating": "yes"}}, {"type": "node", "id": 6697083085, "lat": 35.3637732, "lon": 23.597748, "tags": {"amenity": "restaurant", "cuisine": "greek;grill;breakfast;pizza", "internet_access": "wlan", "name": "Taverna Panorama", "name:en": "Panorama", "name:fr": "Taverne Panorama"}}, {"type": "node", "id": 9107657048, "lat": 35.3643655, "lon": 23.5367753, "tags": {"addr:housenumber": "730 11", "addr:street": "Livadia", "amenity": "restaurant", "description": "greek tavern", "name": "Taverna Gialites"}}, {"type": "node", "id": 9668011917, "lat": 35.3620061, "lon": 23.6373306, "tags": {"amenity": "restaurant", "name": "\u039a\u0391\u03a3\u03a4\u0391\u039d\u039f\u0398\u03a9\u039b\u0399\u0391", "opening_hours": "Mo-Su 08:00-23:00"}}, {"type": "node", "id": 9809005618, "lat": 35.4951581, "lon": 23.6542035, "tags": {"amenity": "restaurant", "name:es": "Aer\u00e1s"}}, {"type": "node", "id": 9851301508, "lat": 35.4951348, "lon": 23.5851614, "tags": {"amenity": "cafe", "name": "Caf\u00e9"}}, {"type": "node", "id": 10895903381, "lat": 35.4982988, "lon": 23.6543204, "tags": {"amenity": "cafe", "name": "Amarena ice & desert"}}, {"type": "node", "id": 10895906102, "lat": 35.4954307, "lon": 23.6543646, "tags": {"amenity": "cafe", "name": "Sweet House"}}, {"type": "node", "id": 11037135505, "lat": 35.4943644, "lon": 23.6525101, "tags": {"amenity": "cafe", "name": "MyCoffee"}}, {"type": "node", "id": 11415233458, "lat": 35.5031738, "lon": 23.5784089}, {"type": "node", "id": 11415233463, "lat": 35.5031924, "lon": 23.5782829}, {"type": "node", "id": 11415233464, "lat": 35.5031442, "lon": 23.5783901}, {"type": "node", "id": 11415233465, "lat": 35.5032355, "lon": 23.5783102}, {"type": "node", "id": 11415233466, "lat": 35.5032241, "lon": 23.5783376}, {"type": "node", "id": 12134034031, "lat": 35.2742193, "lon": 23.5590901}, {"type": "node", "id": 12134034032, "lat": 35.2742917, "lon": 23.5591671}, {"type": "node", "id": 12134034033, "lat": 35.2742726, "lon": 23.559193}, {"type": "node", "id": 12134034034, "lat": 35.2742027, "lon": 23.5591209}, {"type": "node", "id": 12169891271, "lat": 35.4922621, "lon": 23.5811596}, {"type": "node", "id": 12169891272, "lat": 35.4921363, "lon": 23.5811611}, {"type": "node", "id": 12169891273, "lat": 35.4921355, "lon": 23.5810733}, {"type": "node", "id": 12199330801, "lat": 35.4951302, "lon": 23.5808578, "tags": {"amenity": "restaurant", "name": "Cafe Tavern"}}, {"type": "node", "id": 12199385201, "lat": 35.4898594, "lon": 23.5806924, "tags": {"amenity": "restaurant", "name": "Liokalyvo", "website": "https://liokalyvo.gr/"}}, {"type": "node", "id": 12246039641, "lat": 35.4931418, "lon": 23.6604043, "tags": {"amenity": "restaurant", "name": "Iro\u00f3n 42"}}, {"type": "way", "id": 27737573, "nodes": [304587662, 304587664, 2992144970, 2992144969, 304587665, 304587667, 304587662], "tags": {"amenity": "restaurant", "building": "yes", "cuisine": "seafood", "name": "Fish Tavern Captain"}}, {"type": "way", "id": 124081670, "nodes": [1381924922, 1381924913, 1381924937, 1381924943, 1381924922], "tags": {"amenity": "restaurant", "building": "yes", "cuisine": "greek", "ele": "300.78", "name": "Taverna Acropolis", "wpt_description": "06-OKT-06 13:42:19"}}, {"type": "way", "id": 181395732, "nodes": [1918292423, 5212350700, 1918292416, 1918292425, 1918292398, 5212350691, 1918292423], "tags": {"amenity": "restaurant", "building": "yes", "check_date": "2025-05-10", "cuisine": "greek", "internet_access": "wlan", "internet_access:fee": "customers", "name": "Panorama", "opening_hours": "08:30-23:00"}}, {"type": "way", "id": 291305848, "nodes": [2947521654, 2947521650, 11415233458, 11415233464, 2947521643, 2947521647, 11415233463, 11415233465, 11415233466, 2947521654], "tags": {"amenity": "restaurant", "name": "Falassarna Orange Blue Bar", "website": "http://www.facebook.com/orangebluebar"}}, {"type": "way", "id": 294522105, "nodes": [2981211215, 2981211210, 2981211211, 2981211216, 2981211215], "tags": {"addr:city": "\u039a\u03af\u03c3\u03c3\u03b1\u03bc\u03bf\u03c2", "addr:city:en": "Kissamos", "addr:city:it": "Kissamos", "addr:country": "GR", "addr:place": "Plaka Beach", "addr:postcode": "73400", "amenity": "restaurant", "building": "yes", "name": "Plaka"}}, {"type": "way", "id": 352641201, "nodes": [3583982148, 3583982146, 3583982145, 3583982147, 3583982148], "tags": {"amenity": "restaurant", "building": "yes"}}, {"type": "way", "id": 360607585, "nodes": [3651231267, 3651231268, 3651231269, 3651231270, 3651231271, 3651231272, 3651231267], "tags": {"alt_name": "Grambousa Restaurant; Gramboussa Restaurant", "amenity": "restaurant", "building": "yes", "contact:facebook": "gramvousarestaurant", "contact:instagram": "gramvousarestaurant", "contact:linkedin": "https://linkedin.com/company/73931379/admin/", "contact:phone": "+30 28220 22707", "contact:website": "http://gramvousarestaurant.com", "contact:youtube": "https://youtube.com/channel/UCy61xls3KYKyeYpCPtwiwTQ", "cuisine": "greek", "int_name": "Gramvousa Restaurant", "name": "\u03a4\u03b1\u03b2\u03ad\u03c1\u03bd\u03b1 \u0393\u03c1\u03b1\u03bc\u03c0\u03bf\u03cd\u03c3\u03b1", "name:el": "\u03a4\u03b1\u03b2\u03ad\u03c1\u03bd\u03b1 \u0393\u03c1\u03b1\u03bc\u03c0\u03bf\u03cd\u03c3\u03b1"}}, {"type": "way", "id": 363489617, "nodes": [3676501855, 3676501856, 3676501857, 3676501858, 3676501855], "tags": {"amenity": "restaurant", "building": "yes", "contact:mobile": "+30 69836 69817", "cuisine": "greek", "name": "Adam Taverna", "outdoor_seating": "yes", "phone": "+30 28220 41551", "tourism": "guest_house", "website": "http://adam-apartments.gr/en/"}}, {"type": "way", "id": 422675080, "nodes": [4224125868, 4224125869, 4224125870, 4224125871, 4224125872, 4224125873, 4224125868], "tags": {"addr:street": "Kephale - Khrusoskalitsa, Chrisoskalitissa", "amenity": "restaurant", "building": "yes", "name": "Taverna Stomio\nStomio"}}, {"type": "way", "id": 444005263, "nodes": [4415105987, 4415106089, 4415105986, 4415105985, 4415105987], "tags": {"amenity": "cafe", "building": "yes"}}, {"type": "way", "id": 626946341, "nodes": [5918603485, 5918601584, 5918601583, 5918601582, 5918603485], "tags": {"amenity": "restaurant", "building": "yes", "diet:vegan": "yes", "diet:vegetarian": "yes", "name:en": "Kosmos Fish Tavern", "source": "bing"}}, {"type": "way", "id": 626946346, "nodes": [5918603504, 5918603503, 5918603502, 5918603501, 5918603500, 5918603499, 5918603504], "tags": {"alt_name": "Stavroulaki", "amenity": "restaurant", "building": "yes", "cuisine": "regional", "name": "Isichi Gonia", "source": "bing"}}, {"type": "way", "id": 634421744, "nodes": [5987183983, 5987183984, 5987184785, 5987184786, 5987183983], "tags": {"amenity": "restaurant", "building": "yes", "cuisine": "regional;traditional_taverna", "name": "The West", "name:en": "The West"}}, {"type": "way", "id": 1310868130, "nodes": [12134034031, 12134034032, 12134034033, 12134034034, 12134034031], "tags": {"amenity": "cafe", "building": "commercial", "cuisine": "sandwich;coffee_shop;ice_cream;greek;bistro", "outdoor_seating": "yes"}}, {"type": "way", "id": 1314840365, "nodes": [304074836, 12169891271, 12169891272, 12169891273, 304074836], "tags": {"amenity": "restaurant", "building": "yes", "cuisine": "mediterranean;greek", "internet_access": "wlan", "internet_access:fee": "yes", "level": "0", "name:en": "Playa Paraiso", "outdoor_seating": "yes", "phone": "+30 2822 041160", "reservation": "no", "smoking": "outside", "takeaway": "yes", "toilets": "yes", "toilets:access": "yes", "wheelchair": "yes"}}]}