{"version": 0.6, "generator": "Overpass API 0.7.62.7 375dc00a", "osm3s": {"timestamp_osm_base": "2025-06-14T15:38:25Z", "copyright": "The data included in this document is from www.openstreetmap.org. The data is made available under ODbL."}, "elements": [{"type": "node", "id": 1235476471, "lat": 8.1174685, "lon": 38.3771325, "tags": {"amenity": "restaurant", "name": "Total Fish"}}, {"type": "node", "id": 3371007461, "lat": 8.1192955, "lon": 38.3785605, "tags": {"amenity": "restaurant"}}, {"type": "node", "id": 6312368485, "lat": 8.118897, "lon": 38.3787862, "tags": {"amenity": "restaurant", "name:en": "Lamrot Bar & Restaurant"}}, {"type": "node", "id": 6517886486, "lat": 8.1210827, "lon": 38.3783647, "tags": {"amenity": "restaurant", "name:en": "Hop Resturant", "name:he": "\u05d4\u05de\u05e7\u05d5\u05dd \u05e9\u05dc \u05e8\u05d5\u05ea \u05d5\u05e9\u05e7\u05d3"}}, {"type": "node", "id": 6902858785, "lat": 8.1199815, "lon": 38.3774088, "tags": {"amenity": "restaurant", "name:en": "TinkTank", "opening_hours": "Mo-Su 10:00-18:00"}}, {"type": "node", "id": 6902858787, "lat": 8.1201805, "lon": 38.3782579, "tags": {"amenity": "restaurant", "name:en": "Salata & Juice"}}, {"type": "node", "id": 6917454291, "lat": 8.120767, "lon": 38.3788819, "tags": {"amenity": "restaurant", "cuisine": "african", "name:en": "Best Injira", "opening_hours": "Mo-Sa 09:00-17:00"}}, {"type": "node", "id": 6939488285, "lat": 8.1196153, "lon": 38.3782308, "tags": {"amenity": "cafe", "name:en": "Comet Cafe"}}]}