{"version": 0.6, "generator": "Overpass API 0.7.62.7 375dc00a", "osm3s": {"timestamp_osm_base": "2025-06-14T13:14:00Z", "copyright": "The data included in this document is from www.openstreetmap.org. The data is made available under ODbL."}, "elements": [{"type": "node", "id": 3366302146, "lat": 35.7067074, "lon": 4.5386314}, {"type": "node", "id": 3366302147, "lat": 35.7067239, "lon": 4.5386818}, {"type": "node", "id": 3366302148, "lat": 35.7066966, "lon": 4.5387238}, {"type": "node", "id": 3366302149, "lat": 35.7066537, "lon": 4.5387334}, {"type": "node", "id": 3366302150, "lat": 35.7066372, "lon": 4.5385821}, {"type": "node", "id": 3366302151, "lat": 35.7066576, "lon": 4.5385509}, {"type": "node", "id": 3863869030, "lat": 35.4540078, "lon": 4.14498, "tags": {"addr:country": "DZ", "amenity": "cafe", "name": "Caf\u00e9 ain khermam"}}, {"type": "node", "id": 3863869032, "lat": 35.3167325, "lon": 4.1887895}, {"type": "node", "id": 4235296499, "lat": 35.7078935, "lon": 4.5261161, "tags": {"addr:country": "DZ", "amenity": "cafe"}}, {"type": "node", "id": 4235296500, "lat": 35.7082571, "lon": 4.5283703}, {"type": "node", "id": 4235357396, "lat": 35.7296105, "lon": 4.5109465, "tags": {"addr:country": "DZ", "amenity": "cafe"}}, {"type": "node", "id": 4475492809, "lat": 35.721068, "lon": 4.5334231, "tags": {"addr:country": "DZ", "amenity": "cafe", "name": "\u0645\u0642\u0647\u0649 \u0627\u0644\u0645\u0644\u062a\u0642\u0649", "name:ar": "\u0645\u0642\u0647\u0649 \u0627\u0644\u0645\u0644\u062a\u0642\u0649", "name:fr": "Caf\u00e9 Al Multaqa"}}, {"type": "node", "id": 4475492812, "lat": 35.7037445, "lon": 4.5355491, "tags": {"addr:country": "DZ", "amenity": "restaurant", "name": "Resto", "name:fr": "Resto"}}, {"type": "node", "id": 4475628707, "lat": 35.7094296, "lon": 4.5310728, "tags": {"addr:country": "DZ", "amenity": "cafe", "name": "Cafe BeIN"}}, {"type": "node", "id": 4475628709, "lat": 35.7085413, "lon": 4.5259449, "tags": {"addr:country": "DZ", "amenity": "cafe"}}, {"type": "node", "id": 4475628710, "lat": 35.7102975, "lon": 4.5264469, "tags": {"addr:country": "DZ", "amenity": "cafe"}}, {"type": "node", "id": 4475628711, "lat": 35.7220184, "lon": 4.5341313, "tags": {"addr:country": "DZ", "amenity": "cafe", "name": "Cofe lotus", "name:ar": "\u0645\u0642\u0647\u0649 \u0644\u0648\u062a\u064a\u0633", "name:fr": "Caf\u00e9 lotus"}}, {"type": "node", "id": 4475628712, "lat": 35.7158287, "lon": 4.5486994, "tags": {"addr:country": "DZ", "amenity": "cafe"}}, {"type": "node", "id": 4475628713, "lat": 35.7030669, "lon": 4.5464209, "tags": {"addr:country": "DZ", "amenity": "cafe"}}, {"type": "node", "id": 4475628717, "lat": 35.7219939, "lon": 4.5407255, "tags": {"addr:country": "DZ", "amenity": "cafe"}}, {"type": "node", "id": 4475707296, "lat": 35.7125353, "lon": 4.5396542, "tags": {"addr:country": "DZ", "amenity": "cafe"}}, {"type": "node", "id": 4756320897, "lat": 35.7002306, "lon": 4.5516407}, {"type": "node", "id": 4756320898, "lat": 35.7012611, "lon": 4.5507462, "tags": {"addr:country": "DZ", "amenity": "cafe", "cuisine": "coffee_shop", "name": "\u0639\u064a\u0646 \u0634\u062a\u0627\u0648\u0629", "name:ar": "\u0639\u064a\u0646 \u0634\u062a\u0627\u0648\u0629", "name:en": "Ain Chtawa", "name:fr": "Ain Chtawa"}}, {"type": "node", "id": 4822533906, "lat": 35.6849561, "lon": 4.5658144, "tags": {"addr:country": "DZ", "amenity": "cafe", "name": "\u0627\u0644\u0623\u0634\u0642\u0627\u0621", "name:ar": "\u0627\u0644\u0623\u0634\u0642\u0627\u0621", "name:fr": "Caf\u00e9 de la Fratrie"}}, {"type": "node", "id": 4822535326, "lat": 35.6977393, "lon": 4.5625471}, {"type": "node", "id": 4835420218, "lat": 35.7057276, "lon": 4.5352222, "tags": {"addr:country": "DZ", "amenity": "cafe", "name": "La Liga", "name:fr": "La Liga"}}, {"type": "node", "id": 4848497904, "lat": 35.7023103, "lon": 4.5467902, "tags": {"addr:country": "DZ", "amenity": "cafe"}}, {"type": "node", "id": 4850759372, "lat": 35.7040725, "lon": 4.5405061, "tags": {"addr:city": "\u0627\u0644\u0645\u0633\u064a\u0644\u0629", "amenity": "cafe"}}, {"type": "node", "id": 4850759374, "lat": 35.7026354, "lon": 4.5462615, "tags": {"amenity": "cafe", "name": "Cafeteria Belhadja", "name:ar": "\u0645\u0642\u0647\u0649 \u0628\u0646 \u0627\u0644\u062d\u0627\u062c\u0629"}}, {"type": "node", "id": 4852575982, "lat": 35.7001219, "lon": 4.5514713, "tags": {"addr:country": "DZ", "amenity": "cafe", "name": "Caf\u00e9 Kouka"}}, {"type": "node", "id": 4860105594, "lat": 35.7052764, "lon": 4.5417162, "tags": {"addr:country": "DZ", "amenity": "cafe"}}, {"type": "node", "id": 4860105596, "lat": 35.7187571, "lon": 4.5457737}, {"type": "node", "id": 4860105597, "lat": 35.7186798, "lon": 4.5457281}, {"type": "node", "id": 4860105598, "lat": 35.7187203, "lon": 4.5456241}, {"type": "node", "id": 4860105599, "lat": 35.7187976, "lon": 4.5456697}, {"type": "node", "id": 4874287442, "lat": 35.70148, "lon": 4.5496353, "tags": {"amenity": "cafe", "drink:tea": "yes", "name": "\u0634\u0627\u064a \u062a\u064a\u0645\u064a\u0645\u0648\u0646", "name:ar": "\u0634\u0627\u064a \u062a\u064a\u0645\u064a\u0645\u0648\u0646", "name:fr": "Th\u00e9 Timimoun"}}, {"type": "node", "id": 4875728321, "lat": 35.721784, "lon": 4.540616, "tags": {"addr:country": "DZ", "addr:street": "Route Hydraulique", "amenity": "cafe", "cuisine": "arab", "name": "\u0645\u0642\u0647\u0649 \u0627\u0644\u0628\u0631\u0643\u0629", "name:ar": "\u0645\u0642\u0647\u0649 \u0627\u0644\u0628\u0631\u0643\u0629", "name:en": "Baraka coffe", "name:fr": "Caf\u00e9 Baraka"}}, {"type": "node", "id": 4876031159, "lat": 35.7191964, "lon": 4.5375896, "tags": {"addr:country": "DZ", "amenity": "cafe", "name": "\u0645\u0642\u0647\u0649 \u0627\u0644\u0646\u0627\u0642\u0629", "name:ar": "\u0645\u0642\u0647\u0649 \u0627\u0644\u0646\u0627\u0642\u0629", "name:fr": "Caf\u00e9 al Naaqa"}}, {"type": "node", "id": 4876085985, "lat": 35.7260022, "lon": 4.5370411, "tags": {"addr:country": "DZ", "amenity": "cafe"}}, {"type": "node", "id": 4879045337, "lat": 35.7131849, "lon": 4.5401595, "tags": {"addr:country": "DZ", "amenity": "cafe"}}, {"type": "node", "id": 4879164566, "lat": 35.7257855, "lon": 4.5480832, "tags": {"addr:country": "DZ", "amenity": "cafe"}}, {"type": "node", "id": 4879164586, "lat": 35.7238328, "lon": 4.5385391, "tags": {"addr:country": "DZ", "amenity": "cafe"}}, {"type": "node", "id": 4879164731, "lat": 35.7297094, "lon": 4.5469304, "tags": {"addr:country": "DZ", "amenity": "cafe"}}, {"type": "node", "id": 4905027873, "lat": 35.7040301, "lon": 4.5389631, "tags": {"addr:city": "\u0627\u0644\u0645\u0633\u064a\u0644\u0629", "amenity": "cafe", "name": "\u0645\u0642\u0647\u0649 \u0627\u0644\u0648\u0644\u0627\u064a\u0629", "name:ar": "\u0645\u0642\u0647\u0649 \u0627\u0644\u0648\u0644\u0627\u064a\u0629", "name:fr": "Caf\u00e9 de la wilaya"}}, {"type": "node", "id": 4905027874, "lat": 35.7040351, "lon": 4.5388939, "tags": {"addr:country": "DZ", "amenity": "cafe", "name": "\u0645\u0642\u0647\u0649 \u0628\u0646 \u0639\u064a\u0633\u0649", "name:ar": "\u0645\u0642\u0647\u0649 \u0628\u0646 \u0639\u064a\u0633\u0649", "name:fr": "Caf\u00e9 Ben Aissa"}}, {"type": "node", "id": 5088861942, "lat": 35.7038175, "lon": 4.5359012, "tags": {"addr:country": "DZ", "amenity": "cafe", "name": "Cafe Monaco"}}, {"type": "node", "id": 5104172627, "lat": 35.7114019, "lon": 4.5339377, "tags": {"addr:country": "DZ", "amenity": "cafe", "name": "\u0645\u0642\u0647\u0649 \u0627\u0644\u0623\u0646\u062f\u0644\u0633", "name:ar": "\u0645\u0642\u0647\u0649 \u0627\u0644\u0623\u0646\u062f\u0644\u0633", "name:fr": "Caf\u00e9 Al Andalus"}}, {"type": "node", "id": 5116184481, "lat": 35.7350033, "lon": 4.515635, "tags": {"addr:country": "DZ", "amenity": "cafe", "name": "Caf\u00e9"}}, {"type": "node", "id": 5137353711, "lat": 35.7065604, "lon": 4.5314902, "tags": {"addr:country": "DZ", "amenity": "cafe", "name": "Caf\u00e9 La Jeunesse"}}, {"type": "node", "id": 5138149418, "lat": 35.6966482, "lon": 4.5827921}, {"type": "node", "id": 5341455939, "lat": 35.7177425, "lon": 4.5450085, "tags": {"addr:country": "DZ", "amenity": "cafe"}}, {"type": "node", "id": 5597243079, "lat": 35.7040654, "lon": 4.5402262, "tags": {"addr:city": "\u0627\u0644\u0645\u0633\u064a\u0644\u0629", "amenity": "cafe", "name": "\u0645\u0642\u0647\u0649 \u0628\u0646 \u062a\u0648\u0645\u064a", "name:fr": "Caf\u00e9 Ben toumi"}}, {"type": "node", "id": 5597243080, "lat": 35.703797, "lon": 4.5360533, "tags": {"addr:country": "DZ", "amenity": "cafe", "name": "Cafe au bon coin"}}, {"type": "node", "id": 5975667171, "lat": 35.6972287, "lon": 4.5632984, "tags": {"amenity": "cafe", "name": "\u0645\u0642\u0647\u0649 \u0627\u0644\u0631\u0648\u0636\u0629", "name:ar": "\u0645\u0642\u0647\u0649 \u0627\u0644\u0631\u0648\u0636\u0629", "name:fr": "Caf\u00e9 Al Rawda"}}, {"type": "node", "id": 6397034002, "lat": 35.7112331, "lon": 4.5178767, "tags": {"amenity": "cafe", "name": "Cafe 608"}}, {"type": "node", "id": 6620620300, "lat": 35.6884084, "lon": 4.4606925, "tags": {"amenity": "cafe"}}, {"type": "node", "id": 6620620301, "lat": 35.6884106, "lon": 4.4608481, "tags": {"amenity": "restaurant", "name": "Resto", "name:fr": "Resto"}}, {"type": "node", "id": 7235636903, "lat": 35.7045058, "lon": 4.5356566, "tags": {"amenity": "cafe", "name": "Caf\u00e9 ROMANZA"}}, {"type": "node", "id": 7235636904, "lat": 35.7045701, "lon": 4.5356445, "tags": {"amenity": "restaurant", "name": "Restaurant ROMANZA"}}, {"type": "node", "id": 7891463812, "lat": 35.7174804, "lon": 4.5300378, "tags": {"amenity": "restaurant", "cuisine": "pizza", "name": "Pizza Hut"}}, {"type": "node", "id": 7978754076, "lat": 35.7211102, "lon": 4.5330271, "tags": {"amenity": "restaurant", "contact:facebook": "https://www.fb.com/Tacos-2-Lyon-Msila-110276574159784/", "cuisine": "pizza;tacos;sandwich;shawarma", "microbrewery": "no", "name": "Tacos2Lyon", "outdoor_seating": "no", "phone": "+213 667937168;+213 671114429", "takeaway": "yes"}}, {"type": "node", "id": 7978754077, "lat": 35.7025223, "lon": 4.5306922, "tags": {"amenity": "restaurant", "cuisine": "pizza", "microbrewery": "no", "name": "Trattoria Viva Pizza", "outdoor_seating": "no", "takeaway": "yes"}}, {"type": "node", "id": 7983099644, "lat": 35.7014713, "lon": 4.5491271, "tags": {"amenity": "cafe", "name": "5 \u062c\u0648\u064a\u0644\u064a\u0629", "name:ar": "5 \u062c\u0648\u064a\u0644\u064a\u0629", "name:fr": "5 Juillet"}}, {"type": "node", "id": 7990103557, "lat": 35.7207294, "lon": 4.5330321, "tags": {"amenity": "restaurant", "contact:mobile": "+213 7 74810077", "cuisine": "pizza;tacos;shawarma;sandwich", "microbrewery": "no", "name": "Bassem", "outdoor_seating": "yes", "takeaway": "yes"}}, {"type": "node", "id": 8241562749, "lat": 35.7034654, "lon": 4.5317504, "tags": {"amenity": "restaurant", "name": "Rendez-vous", "name:ar": "\u0645\u0637\u0639\u0645 \u0627\u0644\u0645\u0648\u0639\u062f"}}, {"type": "node", "id": 8241562753, "lat": 35.7040589, "lon": 4.5399445, "tags": {"amenity": "cafe", "name": "\u0645\u0642\u0647\u0649 \u0627\u0644\u062d\u064a \u0627\u0644\u0632\u0627\u0647\u0631", "name:fr": "Caf\u00e9 du quartier Al Zahir"}}, {"type": "node", "id": 8413326980, "lat": 35.701893, "lon": 4.5324239, "tags": {"amenity": "restaurant", "cuisine": "local", "name": "\u062e\u064a\u0645\u0629 \u0627\u0644\u0646\u0627\u0642\u0629 \u0644\u0644\u0645\u0623\u0643\u0648\u0644\u0627\u062a \u0627\u0644\u062a\u0642\u0644\u064a\u062f\u064a\u0629 \u0648 \u0645\u0634\u0648\u064a\u0627\u062a"}}, {"type": "node", "id": 8501740491, "lat": 35.6983445, "lon": 4.5588125, "tags": {"amenity": "cafe", "name": "\u0645\u0642\u0647\u0649 \u0627\u0644\u0623\u0642\u0648\u0627\u0633"}}, {"type": "node", "id": 8584545277, "lat": 35.7080163, "lon": 4.5257838, "tags": {"amenity": "restaurant"}}, {"type": "node", "id": 8596942398, "lat": 35.7204297, "lon": 4.5327897, "tags": {"amenity": "cafe", "name": "Caf\u00e9 Club", "name:fr": "Caf\u00e9 Club"}}, {"type": "node", "id": 8939450149, "lat": 35.7278072, "lon": 4.5484887, "tags": {"amenity": "restaurant", "name": "\u0645\u0637\u0639\u0645 \u0627\u0644\u0646\u062e\u064a\u0644"}}, {"type": "node", "id": 8986633338, "lat": 35.710607, "lon": 4.5308505, "tags": {"amenity": "cafe", "name": "Caf\u00e9 le boulevard"}}, {"type": "node", "id": 9054226977, "lat": 35.6973044, "lon": 4.5619534, "tags": {"amenity": "cafe", "name": "Caf\u00e9 BENKALED"}}, {"type": "node", "id": 9054226982, "lat": 35.6978294, "lon": 4.5618676, "tags": {"amenity": "cafe", "name": "\u0645\u0642\u0647\u0649 \u0627\u0644\u0637\u0627\u0633\u064a\u0644\u064a"}}, {"type": "node", "id": 9084912670, "lat": 35.7136734, "lon": 4.5393786, "tags": {"amenity": "cafe", "name": "Caf\u00e9 L'aroma"}}, {"type": "node", "id": 9215047636, "lat": 35.7023545, "lon": 4.5465159, "tags": {"amenity": "cafe", "name": "Cafe de pont"}}, {"type": "node", "id": 9618639497, "lat": 35.7387926, "lon": 4.5353848, "tags": {"amenity": "cafe", "name": "\u0645\u0642\u0647\u0649 \u0623\u0646\u064a\u0633", "name:fr": "Caf\u00e9 Anis"}}, {"type": "node", "id": 10010056400, "lat": 35.7054038, "lon": 4.5270713, "tags": {"amenity": "cafe", "name": "\u0645\u0642\u0647\u0649 \u0639\u0627\u0645\u0631"}}, {"type": "node", "id": 10717770894, "lat": 35.7093569, "lon": 4.5310839, "tags": {"amenity": "cafe", "name": "\u062e\u064a\u0645\u0629 \u0645\u0633\u0643 \u0627\u0644\u0644\u064a\u0644"}}, {"type": "node", "id": 10984762381, "lat": 35.6977982, "lon": 4.5625668}, {"type": "node", "id": 10984811042, "lat": 35.7080345, "lon": 4.5274644}, {"type": "node", "id": 10984814629, "lat": 35.7080439, "lon": 4.5274631}, {"type": "node", "id": 10984815269, "lat": 35.7083604, "lon": 4.5283562}, {"type": "node", "id": 10984815286, "lat": 35.708374, "lon": 4.5285073}, {"type": "node", "id": 10984815908, "lat": 35.7081501, "lon": 4.5271739}, {"type": "node", "id": 10984818804, "lat": 35.7081403, "lon": 4.528539}, {"type": "node", "id": 10984819119, "lat": 35.7080102, "lon": 4.5271929}, {"type": "node", "id": 10984851418, "lat": 35.6977488, "lon": 4.5627555}, {"type": "node", "id": 10984851571, "lat": 35.6977708, "lon": 4.5617275}, {"type": "node", "id": 10984851752, "lat": 35.6976616, "lon": 4.5630871}, {"type": "node", "id": 10984851870, "lat": 35.6977033, "lon": 4.5627403}, {"type": "node", "id": 10984852278, "lat": 35.6977247, "lon": 4.5626133}, {"type": "node", "id": 10984852947, "lat": 35.697484, "lon": 4.5630277}, {"type": "node", "id": 10984853016, "lat": 35.6978028, "lon": 4.5622639}, {"type": "node", "id": 10984853132, "lat": 35.6978769, "lon": 4.5622888}, {"type": "node", "id": 10984853185, "lat": 35.6977951, "lon": 4.5622989}, {"type": "node", "id": 10984853955, "lat": 35.697853, "lon": 4.5623183}, {"type": "node", "id": 10984854072, "lat": 35.697985, "lon": 4.5617992}, {"type": "node", "id": 10984855069, "lat": 35.6977258, "lon": 4.5627961}, {"type": "node", "id": 10984855189, "lat": 35.6977763, "lon": 4.5626306}, {"type": "node", "id": 10984855443, "lat": 35.6976933, "lon": 4.5627852}, {"type": "node", "id": 10984860261, "lat": 35.6967118, "lon": 4.5830783}, {"type": "node", "id": 10984862486, "lat": 35.6965611, "lon": 4.5829594}, {"type": "node", "id": 10984863156, "lat": 35.6967989, "lon": 4.5829111}, {"type": "node", "id": 10984935570, "lat": 35.700375, "lon": 4.5514412}, {"type": "node", "id": 10984935947, "lat": 35.7003604, "lon": 4.5516543}, {"type": "node", "id": 10984937705, "lat": 35.7002453, "lon": 4.5514277}, {"type": "node", "id": 11016945044, "lat": 35.3166942, "lon": 4.1887579}, {"type": "node", "id": 11016948683, "lat": 35.3167224, "lon": 4.1887476}, {"type": "node", "id": 11016949076, "lat": 35.3167043, "lon": 4.1887998}, {"type": "way", "id": 329704280, "nodes": [3366302146, 3366302147, 3366302148, 3366302149, 3366302150, 3366302151, 3366302146], "tags": {"addr:city": "\u0627\u0644\u0645\u0633\u064a\u0644\u0629", "amenity": "restaurant", "building": "yes", "name": "\u062f\u0627\u0631 \u062c\u062f\u064a", "name:ar": "\u062f\u0627\u0631 \u062c\u062f\u064a", "name:fr": "Dar Djedi"}}, {"type": "way", "id": 494222025, "nodes": [4860105599, 4860105596, 4860105597, 4860105598, 4860105599], "tags": {"amenity": "cafe", "building": "yes", "name": "Cafe Hortix"}}, {"type": "way", "id": 1182978400, "nodes": [10984815908, 10984819119, 10984811042, 10984814629, 10984818804, 10984815286, 10984815269, 4235296500, 10984815908], "tags": {"addr:country": "DZ", "amenity": "cafe", "building": "yes", "source": "FB: Algerie Mapper Team"}}, {"type": "way", "id": 1182983864, "nodes": [10984851571, 10984852947, 10984851752, 10984855069, 10984855443, 10984851870, 10984851418, 10984855189, 10984852278, 4822535326, 10984762381, 10984853955, 10984853185, 10984853016, 10984853132, 10984854072, 10984851571], "tags": {"addr:country": "DZ", "amenity": "cafe", "building": "yes", "name": "\u063a\u0631\u0628\u0627\u0648\u064a", "name:ar": "\u063a\u0631\u0628\u0627\u0648\u064a", "name:fr": "Gharbaoui", "source": "FB: Algerie Mapper Team"}}, {"type": "way", "id": 1182985040, "nodes": [10984860261, 10984863156, 5138149418, 10984862486, 10984860261], "tags": {"addr:country": "DZ", "amenity": "cafe", "building": "yes", "source": "FB: Algerie Mapper Team"}}, {"type": "way", "id": 1182995530, "nodes": [10984935947, 10984935570, 10984937705, 4756320897, 10984935947], "tags": {"addr:country": "DZ", "amenity": "cafe", "building": "yes", "cuisine": "coffee_shop", "name": "Caf\u00e9 Hadj Hafsi", "source": "FB: Algerie Mapper Team"}}, {"type": "way", "id": 1186100548, "nodes": [11016949076, 3863869032, 11016948683, 11016945044, 11016949076], "tags": {"addr:country": "DZ", "amenity": "restaurant", "building": "yes", "name": "Restaurant Traditionnel de Boussada", "source": "microsoft/BuildingFootprints"}}]}