{"version": 0.6, "generator": "Overpass API 0.7.62.7 375dc00a", "osm3s": {"timestamp_osm_base": "2025-06-14T13:19:00Z", "copyright": "The data included in this document is from www.openstreetmap.org. The data is made available under ODbL."}, "elements": [{"type": "node", "id": 3248988904, "lat": 35.2960737, "lon": 7.3510529, "tags": {"addr:country": "DZ", "amenity": "cafe", "name": "\u0645\u0642\u0647\u0649 \u0635\u062d\u0631\u0627\u0648\u064a", "name:ar": "\u0645\u0642\u0647\u0649 \u0635\u062d\u0631\u0627\u0648\u064a", "name:fr": "Caf\u00e9 Sahraoui"}}, {"type": "node", "id": 3248993478, "lat": 35.297768, "lon": 7.3494618, "tags": {"addr:country": "DZ", "amenity": "cafe", "name": "\u0645\u0642\u0647\u0649 \u0642\u0628\u0644\u0627\u0648\u064a", "name:ar": "\u0645\u0642\u0647\u0649 \u0642\u0628\u0644\u0627\u0648\u064a", "name:fr": "Caf\u00e9 Kablaoui"}}, {"type": "node", "id": 3248996074, "lat": 35.2976387, "lon": 7.3504951, "tags": {"addr:country": "DZ", "amenity": "cafe", "name": "\u0642\u0627\u0639\u0629 \u0634\u0627\u064a", "name:ar": "\u0642\u0627\u0639\u0629 \u0634\u0627\u064a", "name:fr": "Salon de th\u00e9"}}, {"type": "node", "id": 3249105305, "lat": 35.2983622, "lon": 7.3489671, "tags": {"addr:country": "DZ", "amenity": "cafe", "name": "\u0645\u0642\u0647\u0649 \u0633\u0639\u0648\u062f\u064a", "name:ar": "\u0645\u0642\u0647\u0649 \u0633\u0639\u0648\u062f\u064a", "name:fr": "Caf\u00e9 saoudi"}}, {"type": "node", "id": 3249108461, "lat": 35.2981724, "lon": 7.3497819, "tags": {"addr:country": "DZ", "amenity": "restaurant", "name": "\u0645\u0637\u0639\u0645 \u0635\u062d\u0631\u0627\u0648\u064a", "name:ar": "\u0645\u0637\u0639\u0645 \u0635\u062d\u0631\u0627\u0648\u064a", "name:fr": "Restaurant Sahraoui"}}, {"type": "node", "id": 3249108462, "lat": 35.2988509, "lon": 7.3489152, "tags": {"addr:country": "DZ", "amenity": "restaurant", "name": "\u0645\u0637\u0639\u0645 \u0633\u0639\u0648\u062f\u064a", "name:ar": "\u0645\u0637\u0639\u0645 \u0633\u0639\u0648\u062f\u064a", "name:fr": "Restaurant Saoudi"}}, {"type": "node", "id": 3250000257, "lat": 35.2945773, "lon": 7.3541327, "tags": {"addr:country": "DZ", "amenity": "cafe"}}, {"type": "node", "id": 3921152995, "lat": 35.4611073, "lon": 7.0882722}, {"type": "node", "id": 4326799594, "lat": 35.2971839, "lon": 7.3510276, "tags": {"addr:country": "DZ", "amenity": "cafe", "name": "\u0634\u0627\u064a", "name:ar": "\u0634\u0627\u064a", "name:fr": "Th\u00e9"}}, {"type": "node", "id": 4326853292, "lat": 35.2986548, "lon": 7.3489519, "tags": {"addr:country": "DZ", "addr:postcode": "40013", "addr:street": "Rue Aissaoui Youcef", "amenity": "cafe", "internet_access": "wlan", "name": "bosso", "opening_hours": "Mo-Su 05:00-00:00"}}, {"type": "node", "id": 4328122378, "lat": 35.3013401, "lon": 7.3507018, "tags": {"addr:country": "DZ", "amenity": "cafe"}}, {"type": "node", "id": 4328122822, "lat": 35.3032973, "lon": 7.3408924, "tags": {"addr:country": "DZ", "amenity": "cafe"}}, {"type": "node", "id": 4328232093, "lat": 35.2961942, "lon": 7.3522224, "tags": {"addr:country": "DZ", "amenity": "restaurant", "name": "\u0645\u0637\u0639\u0645 \u0628\u0648\u062e\u0645\u064a\u0633", "name:ar": "\u0645\u0637\u0639\u0645 \u0628\u0648\u062e\u0645\u064a\u0633", "name:fr": "Boukhmis"}}, {"type": "node", "id": 4328291094, "lat": 35.2973776, "lon": 7.3524141, "tags": {"addr:country": "DZ", "amenity": "cafe"}}, {"type": "node", "id": 4328317093, "lat": 35.2922094, "lon": 7.358621, "tags": {"addr:country": "DZ", "amenity": "cafe", "name": "\u0645\u0642\u0647\u0649", "name:ar": "\u0645\u0642\u0647\u0649", "name:fr": "Cafeteria"}}, {"type": "node", "id": 4328344190, "lat": 35.2976488, "lon": 7.3501376, "tags": {"addr:country": "DZ", "amenity": "restaurant", "name": "Resto", "name:fr": "Resto"}}, {"type": "node", "id": 4329099808, "lat": 35.2969722, "lon": 7.3511013, "tags": {"addr:country": "DZ", "amenity": "cafe", "name": "\u0645\u0642\u0647\u0649", "name:ar": "\u0645\u0642\u0647\u0649", "name:fr": "Cafeteria"}}, {"type": "node", "id": 4369409094, "lat": 35.4979227, "lon": 6.9123075, "tags": {"addr:country": "DZ", "amenity": "cafe", "name": "caf\u00e9t\u00e9ria Omar", "name:fr": "caf\u00e9t\u00e9ria Omar"}}, {"type": "node", "id": 4369430492, "lat": 35.4922716, "lon": 6.9250397, "tags": {"addr:country": "DZ", "amenity": "cafe", "name": "Caf\u00e9 l'Aquarium", "name:fr": "Caf\u00e9 l'Aquarium"}}, {"type": "node", "id": 4369430689, "lat": 35.4971304, "lon": 6.9120341, "tags": {"addr:country": "DZ", "amenity": "cafe", "name": "Caf\u00e9t\u00e9ria Atallah"}}, {"type": "node", "id": 4369444989, "lat": 35.4958126, "lon": 6.9206468, "tags": {"addr:country": "DZ", "amenity": "cafe", "name": "Caf\u00e9t\u00e9ria Mlayeh", "name:fr": "Caf\u00e9t\u00e9ria Mlayeh"}}, {"type": "node", "id": 4422681498, "lat": 35.4156015, "lon": 7.1411376, "tags": {"addr:country": "DZ", "amenity": "cafe", "name": "Zoo", "name:ar": "Zoo"}}, {"type": "node", "id": 4422681893, "lat": 35.4217269, "lon": 7.1397774, "tags": {"addr:city": "Khenchela", "addr:country": "DZ", "amenity": "cafe", "name": "\u0642\u0647\u0648\u0629 \u0641\u0627\u0644\u0642", "name:ar": "\u0642\u0647\u0648\u0629 \u0641\u0627\u0644\u0642", "name:fr": "Caf\u00e9 Falek"}}, {"type": "node", "id": 4422682192, "lat": 35.4107341, "lon": 7.1337193, "tags": {"addr:country": "DZ", "amenity": "cafe", "name": "boucharb", "name:ar": "boucharb"}}, {"type": "node", "id": 4422733892, "lat": 35.4230095, "lon": 7.1422608, "tags": {"addr:city": "\u062e\u0646\u0634\u0644\u0629", "addr:city:ar": "\u062e\u0646\u0634\u0644\u0629", "addr:postcode": "40000", "amenity": "cafe", "name": "\u0645\u0642\u0647\u0649 \u0627\u0644\u062d\u0627\u062c \u0639\u0645\u0627\u0631\u0629", "name:ar": "\u0645\u0642\u0647\u0649 \u0627\u0644\u062d\u0627\u062c \u0639\u0645\u0627\u0631\u0629", "name:fr": "Caf\u00e9 El Hadj Amara"}}, {"type": "node", "id": 4422733893, "lat": 35.4242522, "lon": 7.1370292, "tags": {"addr:country": "DZ", "amenity": "cafe"}}, {"type": "node", "id": 4422736991, "lat": 35.4241734, "lon": 7.1368514, "tags": {"addr:country": "DZ", "amenity": "cafe", "name": "haftari", "name:ar": "haftari"}}, {"type": "node", "id": 4422737091, "lat": 35.4248395, "lon": 7.1427182, "tags": {"addr:country": "DZ", "amenity": "cafe", "name": "\u0631\u064a\u0645\u064a", "name:ar": "\u0631\u064a\u0645\u064a", "name:fr": "Caf\u00e9 Remy"}}, {"type": "node", "id": 4425039489, "lat": 35.4907905, "lon": 6.9296294}, {"type": "node", "id": 4509097758, "lat": 35.4390181, "lon": 7.1328798, "tags": {"addr:country": "DZ", "amenity": "cafe", "name": "\u0645\u0642\u0647\u0649 \u062d\u0648\u062a", "name:ar": "\u0645\u0642\u0647\u0649 \u062d\u0648\u062a", "name:fr": "Caf\u00e9 Hoot"}}, {"type": "node", "id": 4510746789, "lat": 35.4951755, "lon": 6.9223197, "tags": {"addr:country": "DZ", "amenity": "cafe", "name": "Caf\u00e9 Rito", "name:fr": "Caf\u00e9 Rito"}}, {"type": "node", "id": 4510824189, "lat": 35.4953188, "lon": 6.9219971, "tags": {"addr:country": "DZ", "amenity": "cafe"}}, {"type": "node", "id": 4510890390, "lat": 35.494506, "lon": 6.9250104, "tags": {"addr:country": "DZ", "amenity": "restaurant", "name": "Resto", "name:fr": "Resto"}}, {"type": "node", "id": 4638217992, "lat": 35.4175489, "lon": 7.1400577, "tags": {"addr:country": "DZ", "amenity": "cafe", "name": "Toufa House", "name:fr": "Toufa House"}}, {"type": "node", "id": 4638237394, "lat": 35.4310328, "lon": 7.1472463, "tags": {"addr:country": "DZ", "amenity": "cafe", "name": "\u0645\u0642\u0647\u0649 \u0628\u0648\u0642\u0641\u0629", "name:fr": "Bouguefa"}}, {"type": "node", "id": 4638265790, "lat": 35.4299428, "lon": 7.1461676, "tags": {"addr:city": "\u062e\u0646\u0634\u0644\u0629", "addr:city:ar": "\u062e\u0646\u0634\u0644\u0629", "addr:postcode": "40000", "amenity": "cafe", "name": "\u0634\u064a\u062a\u0648\u0631", "name:ar": "\u0634\u064a\u062a\u0648\u0631", "name:fr": "Chitour"}}, {"type": "node", "id": 4660174291, "lat": 35.4341325, "lon": 7.1447062, "tags": {"addr:country": "DZ", "amenity": "cafe", "name": "\u0645\u0642\u0647\u0649 \u0627\u0644\u062c\u0632\u0627\u0626\u0631", "name:ar": "\u0645\u0642\u0647\u0649 \u0627\u0644\u062c\u0632\u0627\u0626\u0631", "name:fr": "Caf\u00e9 d'Alger"}}, {"type": "node", "id": 4711740190, "lat": 35.4318994, "lon": 7.1473253, "tags": {"addr:country": "DZ", "amenity": "restaurant", "name": "\u0639\u0645\u064a \u0627\u0644\u0645\u0646\u0648\u0631", "name:ar": "\u0639\u0645\u064a \u0627\u0644\u0645\u0646\u0648\u0631", "name:fr": "Almunur"}}, {"type": "node", "id": 4747650826, "lat": 35.416901, "lon": 7.149106, "tags": {"addr:country": "DZ", "amenity": "cafe"}}, {"type": "node", "id": 5015254621, "lat": 35.434417, "lon": 7.1465924, "tags": {"addr:country": "DZ", "amenity": "cafe", "name": "\u062a\u0627\u064a \u0639\u0645\u064a \u0645\u0633\u0639\u0648\u062f", "name:ar": "\u062a\u0627\u064a \u0639\u0645\u064a \u0645\u0633\u0639\u0648\u062f", "name:fr": "Th\u00e9 mess3oud"}}, {"type": "node", "id": 5037815421, "lat": 35.4319533, "lon": 7.1463545, "tags": {"addr:country": "DZ", "amenity": "cafe", "name": "\u0642\u0647\u0648\u0629 \u0645\u0648\u0645\u0646\u064a", "name:ar": "\u0642\u0647\u0648\u0629 \u0645\u0648\u0645\u0646\u064a", "name:fr": "Caf\u00e9 Moumni"}}, {"type": "node", "id": 5304393022, "lat": 35.4296634, "lon": 7.1556876, "tags": {"addr:city": "\u062e\u0646\u0634\u0644\u0629", "addr:city:ar": "\u062e\u0646\u0634\u0644\u0629", "addr:postcode": "40000", "addr:street": "\u0634\u0627\u0631\u0639 \u0634\u064a\u0628\u0627\u0646\u064a \u0628\u0634\u064a\u0631", "addr:street:ar": "\u0634\u0627\u0631\u0639 \u0634\u064a\u0628\u0627\u0646\u064a \u0628\u0634\u064a\u0631", "amenity": "cafe", "name": "\u0645\u0642\u0647\u0649 \u0627\u0644\u0641\u0631\u0627\u062f\u064a", "name:ar": "\u0645\u0642\u0647\u0649 \u0627\u0644\u0641\u0631\u0627\u062f\u064a", "name:fr": "caf\u00e9 feradi"}}, {"type": "node", "id": 5304393024, "lat": 35.4285548, "lon": 7.1609792, "tags": {"addr:country": "DZ", "amenity": "cafe", "name": "\u0645\u0642\u0647\u0649 \u0627\u0644\u0627\u0645\u0627\u0631\u0627\u062a", "name:ar": "\u0645\u0642\u0647\u0649 \u0627\u0644\u0627\u0645\u0627\u0631\u0627\u062a", "name:fr": "Caf\u00e9 Emirates"}}, {"type": "node", "id": 5304393036, "lat": 35.43077, "lon": 7.1485857, "tags": {"addr:country": "DZ", "amenity": "restaurant", "name": "Resto", "name:fr": "Resto"}}, {"type": "node", "id": 5304393037, "lat": 35.4308389, "lon": 7.1482592, "tags": {"addr:country": "DZ", "amenity": "restaurant", "name": "Resto", "name:fr": "Resto"}}, {"type": "node", "id": 5304393126, "lat": 35.4301722, "lon": 7.1541407, "tags": {"addr:city": "\u062e\u0646\u0634\u0644\u0629", "addr:city:ar": "\u062e\u0646\u0634\u0644\u0629", "addr:postcode": "40000", "addr:street": "\u0634\u0627\u0631\u0639 \u0634\u064a\u0628\u0627\u0646\u064a \u0628\u0634\u064a\u0631", "addr:street:ar": "\u0634\u0627\u0631\u0639 \u0634\u064a\u0628\u0627\u0646\u064a \u0628\u0634\u064a\u0631", "amenity": "cafe"}}, {"type": "node", "id": 5304393128, "lat": 35.4300565, "lon": 7.1545476, "tags": {"addr:city": "\u062e\u0646\u0634\u0644\u0629", "addr:city:ar": "\u062e\u0646\u0634\u0644\u0629", "addr:postcode": "40000", "addr:street": "\u0634\u0627\u0631\u0639 \u0634\u064a\u0628\u0627\u0646\u064a \u0628\u0634\u064a\u0631", "addr:street:ar": "\u0634\u0627\u0631\u0639 \u0634\u064a\u0628\u0627\u0646\u064a \u0628\u0634\u064a\u0631", "amenity": "cafe", "name": "\u0645\u0642\u0647\u0649 \u062c\u0645\u0627\u0644", "name:ar": "\u0645\u0642\u0647\u0649 \u062c\u0645\u0627\u0644", "name:fr": "caf\u00e9 djmel"}}, {"type": "node", "id": 5304393131, "lat": 35.4284943, "lon": 7.1619357, "tags": {"addr:country": "DZ", "amenity": "cafe"}}, {"type": "node", "id": 5304393138, "lat": 35.4309125, "lon": 7.1481349, "tags": {"addr:country": "DZ", "amenity": "restaurant", "name": "Resto", "name:fr": "Resto"}}, {"type": "node", "id": 5304393325, "lat": 35.4311137, "lon": 7.1516602, "tags": {"addr:country": "DZ", "amenity": "cafe"}}, {"type": "node", "id": 5304393326, "lat": 35.4298891, "lon": 7.1549562, "tags": {"addr:city": "\u062e\u0646\u0634\u0644\u0629", "addr:city:ar": "\u062e\u0646\u0634\u0644\u0629", "addr:postcode": "40000", "addr:street": "\u0634\u0627\u0631\u0639 \u0634\u064a\u0628\u0627\u0646\u064a \u0628\u0634\u064a\u0631", "addr:street:ar": "\u0634\u0627\u0631\u0639 \u0634\u064a\u0628\u0627\u0646\u064a \u0628\u0634\u064a\u0631", "amenity": "cafe", "name": "\u0645\u0642\u0647\u0649 \u0645\u0627\u0636\u064a", "name:ar": "\u0645\u0642\u0647\u0649 \u0645\u0627\u0636\u064a", "name:fr": "caf\u00e9 madhi"}}, {"type": "node", "id": 5304393339, "lat": 35.4293038, "lon": 7.1487415, "tags": {"addr:city": "\u062e\u0646\u0634\u0644\u0629", "addr:city:ar": "\u062e\u0646\u0634\u0644\u0629", "addr:postcode": "40000", "amenity": "cafe", "name": "\u0645\u0642\u0647\u0649 \u0623\u0645 \u062f\u0631\u0645\u0627\u0646", "name:ar": "\u0645\u0642\u0647\u0649 \u0623\u0645 \u062f\u0631\u0645\u0627\u0646", "name:en": "Caf\u00e9 oum derman", "name:fr": "Caf\u00e9 Oum Derman", "sorting_name": "\u0623\u0645 \u062f\u0631\u0645\u0627\u0646", "sorting_name:ar": "\u0623\u0645 \u062f\u0631\u0645\u0627\u0646"}}, {"type": "node", "id": 5304393356, "lat": 35.4292297, "lon": 7.1346703, "tags": {"addr:city": "\u062e\u0646\u0634\u0644\u0629", "addr:city:ar": "\u062e\u0646\u0634\u0644\u0629", "addr:place": "\u062d\u064a 1 \u0646\u0648\u0641\u0645\u0628\u0631", "addr:place:ar": "\u062d\u064a 1 \u0646\u0648\u0641\u0645\u0628\u0631", "addr:postcode": "40000", "amenity": "cafe", "cuisine": "fish;sandwich;crepe;coffee_shop;bagel;pancake;buschenschank;deli;barbecue", "description": "\u0645\u0631\u062d\u0628\u0627 \u0628\u0643\u0645", "internet_access": "wlan", "name": "\u0645\u0642\u0647\u0649 \u0625\u0644\u064a\u0627\u0633 \u0628\u0648\u063a\u0642\u0627\u0644", "name:ar": "\u0645\u0642\u0647\u0649 \u0625\u0644\u064a\u0627\u0633 \u0628\u0648\u063a\u0642\u0627\u0644", "name:en": "caf\u00e9 ilyas boughgal", "name:fr": "caf\u00e9 ilyas boughgal", "opening_hours": "Sa-Th 05:00-22:00", "operator": "\u0625\u0644\u064a\u0627\u0633 \u0628\u0648\u063a\u0642\u0627\u0644", "operator:ar": "\u0625\u0644\u064a\u0627\u0633 \u0628\u0648\u063a\u0642\u0627\u0644"}}, {"type": "node", "id": 5304393361, "lat": 35.4310911, "lon": 7.1480926, "tags": {"addr:country": "DZ", "amenity": "restaurant", "name": "Resto", "name:fr": "Resto"}}, {"type": "node", "id": 5304393364, "lat": 35.4299546, "lon": 7.1481046, "tags": {"addr:country": "DZ", "amenity": "cafe"}}, {"type": "node", "id": 5304393424, "lat": 35.430039, "lon": 7.1464277, "tags": {"addr:city": "\u062e\u0646\u0634\u0644\u0629", "addr:city:ar": "\u062e\u0646\u0634\u0644\u0629", "addr:postcode": "40000", "addr:street": "\u0634\u0627\u0631\u0639 \u0641\u0644\u0633\u0637\u064a\u0646", "addr:street:ar": "\u0634\u0627\u0631\u0639 \u0641\u0644\u0633\u0637\u064a\u0646", "amenity": "cafe", "name": "\u0645\u0642\u0647\u0649 \u0631\u0641\u064a\u0642 \u2615", "name:ar": "\u0645\u0642\u0647\u0649 \u0631\u0641\u064a\u0642 \u2615", "name:en": "cafitirya rafik", "name:fr": "cafitirya rafik", "sorting_name": "\u0645\u0642\u0647\u0649 \u0631\u0641\u064a\u0642", "sorting_name:ar": "\u0645\u0642\u0647\u0649 \u0631\u0641\u064a\u0642"}}, {"type": "node", "id": 5304393425, "lat": 35.4306823, "lon": 7.1470202, "tags": {"addr:country": "DZ", "amenity": "restaurant", "name": "\u0645\u0637\u0639\u0645 \u0628\u0648\u0639\u0637\u064a\u0644", "name:ar": "\u0645\u0637\u0639\u0645 \u0628\u0648\u0639\u0637\u064a\u0644", "name:fr": "Restaurant bouaatiel"}}, {"type": "node", "id": 5304393427, "lat": 35.4311686, "lon": 7.1479608, "tags": {"addr:country": "DZ", "amenity": "restaurant", "name": "Resto", "name:fr": "Resto"}}, {"type": "node", "id": 5304393428, "lat": 35.4299944, "lon": 7.1474314, "tags": {"addr:country": "DZ", "addr:street": "Rue de la Palestine", "amenity": "cafe", "name": "\u0645\u0642\u0647\u0649 \u0639\u0648\u062f\u0629", "name:ar": "\u0645\u0642\u0647\u0649 \u0639\u0648\u062f\u0629", "name:en": "Caf\u00e9 aouda", "name:fr": "Caf\u00e9 aouda"}}, {"type": "node", "id": 5304393921, "lat": 35.4112669, "lon": 7.1332513, "tags": {"addr:country": "DZ", "addr:street": "Route d'Elaizar", "amenity": "cafe", "cuisine": "fish;ice_cream;deli;fish_and_chips;cake;coffee_shop", "internet_access": "wlan", "name": "\u0645\u0642\u0647\u0649 \u0627\u0644\u0643\u0644\u0627\u0633\u064a\u0643\u0648", "name:ar": "\u0645\u0642\u0647\u0649 \u0627\u0644\u0643\u0644\u0627\u0633\u064a\u0643\u0648", "name:en": "caf\u00e9 el klasicou", "name:fr": "caf\u00e9 el klasicou", "opening_hours": "Sa-Th 05:00-19:30"}}, {"type": "node", "id": 5304393923, "lat": 35.4308517, "lon": 7.1472001, "tags": {"addr:country": "DZ", "amenity": "restaurant", "name": "Resto", "name:fr": "Resto"}}, {"type": "node", "id": 5474069621, "lat": 35.4342547, "lon": 7.1469891, "tags": {"addr:country": "DZ", "amenity": "cafe", "name:fr": "Th\u00e9 Messoud"}}, {"type": "node", "id": 5531426421, "lat": 35.4209935, "lon": 7.1444827, "tags": {"addr:country": "DZ", "addr:postcode": "40000", "amenity": "cafe", "name": "Caf\u00e9 le diamant"}}, {"type": "node", "id": 5598487022, "lat": 35.4330166, "lon": 7.1392104, "tags": {"addr:city": "\u062e\u0646\u0634\u0644\u0629", "addr:city:ar": "\u062e\u0646\u0634\u0644\u0629", "amenity": "cafe", "name": "\u0641\u0648\u0641\u064a", "name:ar": "\u0641\u0648\u0641\u064a", "name:fr": "Fofi"}}, {"type": "node", "id": 6124939182, "lat": 35.4623191, "lon": 7.0860102}, {"type": "node", "id": 6124939183, "lat": 35.4622275, "lon": 7.0859532}, {"type": "node", "id": 6124939184, "lat": 35.462182, "lon": 7.0860634}, {"type": "node", "id": 6124940885, "lat": 35.4622736, "lon": 7.0861204}, {"type": "node", "id": 6243082785, "lat": 35.4949722, "lon": 6.9245155, "tags": {"amenity": "restaurant", "name": "\u062f\u0648\u0628\u0627\u0631\u0629 \u0628\u0633\u0643\u0631\u064a\u0629", "name:ar": "\u062f\u0648\u0628\u0627\u0631\u0629 \u0628\u0633\u0643\u0631\u064a\u0629", "name:fr": "Doubara Biskria", "opening_hours": "Mo-Su 06:00-13:00"}}, {"type": "node", "id": 6280416590, "lat": 35.4387783, "lon": 7.1482544, "tags": {"amenity": "cafe", "name": "\u064e\u0645\u0646\u064a\u0631 \u0628\u0648\u0632\u064a\u062f\u064a", "name:ar": "\u064e\u0645\u0646\u064a\u0631 \u0628\u0648\u0632\u064a\u062f\u064a", "name:fr": "Mounir bouzidi"}}, {"type": "node", "id": 6291320885, "lat": 35.4318498, "lon": 7.1465693, "tags": {"amenity": "cafe", "name": "\u0642\u0647\u0648\u0629 \u0645\u0648\u0645\u0646\u064a", "name:ar": "\u0642\u0647\u0648\u0629 \u0645\u0648\u0645\u0646\u064a", "name:fr": "Caf\u00e9 Moumni"}}, {"type": "node", "id": 7499905913, "lat": 35.5224923, "lon": 7.1131619, "tags": {"addr:city": "\u0628\u063a\u0627\u064a", "addr:city:ar": "\u0628\u063a\u0627\u064a", "amenity": "cafe", "name": "\u0645\u0642\u0647\u0649 \u0628\u0648\u0644\u0648", "name:ar": "\u0645\u0642\u0647\u0649 \u0628\u0648\u0644\u0648", "name:fr": "Caf\u00e9 Polo", "opening_hours": "07:00-21:00; Fr,Sa off"}}, {"type": "node", "id": 7499905917, "lat": 35.5214387, "lon": 7.1148864, "tags": {"addr:city": "\u0628\u063a\u0627\u064a", "addr:city:ar": "\u0628\u063a\u0627\u064a", "amenity": "cafe", "name": "\u0645\u0642\u0647\u0649 \u0645\u0646\u0627\u0639", "name:ar": "\u0645\u0642\u0647\u0649 \u0645\u0646\u0627\u0639", "name:fr": "Caf\u00e9 Manna"}}, {"type": "node", "id": 7499905918, "lat": 35.5212687, "lon": 7.1148785, "tags": {"addr:city": "\u0628\u063a\u0627\u064a", "addr:city:ar": "\u0628\u063a\u0627\u064a", "amenity": "restaurant", "name": "\u0645\u0637\u0639\u0645 \u0627\u0644\u062f\u0627\u0648\u064a", "name:ar": "\u0645\u0637\u0639\u0645 \u0627\u0644\u062f\u0627\u0648\u064a", "name:fr": "Daoui"}}, {"type": "node", "id": 7499905919, "lat": 35.5211699, "lon": 7.1155967, "tags": {"amenity": "cafe", "name": "\u0645\u0642\u0647\u0649 \u0627\u0644\u0623\u0646\u062f\u0644\u0633", "name:ar": "\u0645\u0642\u0647\u0649 \u0627\u0644\u0623\u0646\u062f\u0644\u0633", "name:etymology": "\u0627\u0644\u0623\u0646\u062f\u0644\u0633", "name:etymology:wikidata": "Q123559", "name:etymology:wikipedia": "ar:\u0627\u0644\u0623\u0646\u062f\u0644\u0633", "name:fr": "Caf\u00e9 Al Andalus", "opening_hours": "24/7", "phone": "+213 661 69 34 70"}}, {"type": "node", "id": 7499905920, "lat": 35.5238109, "lon": 7.1134353, "tags": {"addr:city": "\u0628\u063a\u0627\u064a", "addr:city:ar": "\u0628\u063a\u0627\u064a", "amenity": "cafe", "name": "\u0645\u0642\u0647\u0649 \u0628\u0627\u0628\u0627\u064a", "name:ar": "\u0645\u0642\u0647\u0649 \u0628\u0627\u0628\u0627\u064a", "name:fr": "Caf\u00e9 Babay"}}, {"type": "node", "id": 7907455485, "lat": 35.2956161, "lon": 7.3518234, "tags": {"amenity": "cafe", "name": "\u0645\u0642\u0647\u0649", "name:ar": "\u0645\u0642\u0647\u0649", "name:fr": "Cafeteria"}}, {"type": "node", "id": 11021043009, "lat": 35.4907159, "lon": 6.9294642}, {"type": "node", "id": 11021043043, "lat": 35.4904186, "lon": 6.9295728}, {"type": "node", "id": 11021043422, "lat": 35.4906751, "lon": 6.9297268}, {"type": "node", "id": 11021043811, "lat": 35.4905315, "lon": 6.9298005}, {"type": "node", "id": 11021043931, "lat": 35.4905236, "lon": 6.9296166}, {"type": "node", "id": 11021044216, "lat": 35.490462, "lon": 6.9296467}, {"type": "node", "id": 11021044534, "lat": 35.4907252, "lon": 6.9296926}, {"type": "node", "id": 11021044986, "lat": 35.4907149, "lon": 6.9294648}, {"type": "node", "id": 11021045029, "lat": 35.4904349, "lon": 6.9296088}, {"type": "node", "id": 11021045157, "lat": 35.4906594, "lon": 6.9295229}, {"type": "node", "id": 11021045713, "lat": 35.4906744, "lon": 6.9295126}, {"type": "node", "id": 11021045785, "lat": 35.4904076, "lon": 6.9296837}, {"type": "node", "id": 11021045909, "lat": 35.4906598, "lon": 6.9295238}, {"type": "node", "id": 11021046224, "lat": 35.4907187, "lon": 6.9296783}, {"type": "node", "id": 11021046667, "lat": 35.4906667, "lon": 6.9297083}, {"type": "node", "id": 11021046711, "lat": 35.4906281, "lon": 6.9294101}, {"type": "node", "id": 11021047191, "lat": 35.4904838, "lon": 6.9295284}, {"type": "node", "id": 11021047240, "lat": 35.4903881, "lon": 6.9296406}, {"type": "node", "id": 11021047380, "lat": 35.4906756, "lon": 6.9293777}, {"type": "node", "id": 11021832279, "lat": 35.46116, "lon": 7.0884441}, {"type": "node", "id": 11021868334, "lat": 35.4612033, "lon": 7.0883245}, {"type": "node", "id": 11021882046, "lat": 35.4610641, "lon": 7.0883917}, {"type": "node", "id": 12373920901, "lat": 35.4205626, "lon": 7.138367, "tags": {"addr:housenumber": "0773693404", "amenity": "cafe", "name:fr": "\u0647\u0634\u0627\u0645 \u0639\u0637\u064a\u0644"}}, {"type": "node", "id": 12373920902, "lat": 35.4166843, "lon": 7.1362248, "tags": {"addr:housenumber": "1", "amenity": "cafe", "name:fr": "\u0628\u062e\u0648\u0634 \u0643\u0645\u0627\u0644", "phone": "0671138966"}}, {"type": "node", "id": 12373920903, "lat": 35.4145311, "lon": 7.1410362, "tags": {"addr:housenumber": "1", "amenity": "cafe", "name:fr": "\u0645\u0642\u0647\u0649 \u062e\u0627\u0644\u062f", "phone": "0699864146"}}, {"type": "node", "id": 12373920904, "lat": 35.4146639, "lon": 7.1374178, "tags": {"amenity": "cafe", "name:fr": "\u0645\u0642\u0647\u0649 \u0627\u0644\u0645\u0631\u062c\u0627\u0646"}}, {"type": "node", "id": 12373920906, "lat": 35.4079361, "lon": 7.1413441, "tags": {"amenity": "cafe", "name:fr": "\u0642\u0647\u0648\u0629 \u0639\u0644\u064a \u0628\u062e\u0648\u0634", "phone": "0675204463"}}, {"type": "node", "id": 12373920907, "lat": 35.4074877, "lon": 7.1396809, "tags": {"amenity": "cafe", "name:fr": "\u0642\u0647\u0648\u0629 \u0628\u0648\u062c\u0645\u0639\u0629", "phone": "0668065201"}}, {"type": "node", "id": 12373920908, "lat": 35.4195999, "lon": 7.12576, "tags": {"amenity": "cafe", "name:fr": "\u0642\u0647\u0648\u0629"}}, {"type": "node", "id": 12373920909, "lat": 35.4267361, "lon": 7.1326019, "tags": {"amenity": "cafe", "name:fr": "\u0642\u0647\u0648\u0629 \u0631\u064a\u0643"}}, {"type": "node", "id": 12373920910, "lat": 35.4278306, "lon": 7.1364642, "tags": {"amenity": "cafe", "name:fr": "\u0642\u0647\u0648\u0629 \u0644\u0627\u0643\u0648\u0628\u0648\u0644"}}, {"type": "node", "id": 12373920911, "lat": 35.4272354, "lon": 7.149325, "tags": {"amenity": "cafe", "name:fr": "\u0642\u0647\u0648\u0629 \u0628\u0631\u064a\u0643"}}, {"type": "node", "id": 12373920912, "lat": 35.4104737, "lon": 7.1454144, "tags": {"amenity": "cafe", "name:fr": "\u0642\u0647\u0648\u0629 \u0635\u0644\u0627\u062d", "phone": "0676143178"}}, {"type": "node", "id": 12373921001, "lat": 35.4183451, "lon": 7.1411078, "tags": {"addr:housenumber": "0696078439", "amenity": "cafe", "name:fr": "\u062d\u0641\u064a\u0638 \u0627\u0644\u062c\u0631\u064a\u062f\u064a"}}, {"type": "node", "id": 12373921002, "lat": 35.4020537, "lon": 7.1286452, "tags": {"addr:housenumber": "1", "amenity": "cafe", "name:fr": "\u0642\u0647\u0648\u0629 \u0633\u0639\u064a\u062f\u064a", "phone": "0662937118"}}, {"type": "node", "id": 12373921003, "lat": 35.4299362, "lon": 7.1373529, "tags": {"amenity": "cafe", "name:fr": "\u0642\u0647\u0648\u0629 \u0633\u0648\u0646\u0644\u063a\u0627\u0632"}}, {"type": "node", "id": 12373921201, "lat": 35.4165691, "lon": 7.1409695, "tags": {"amenity": "cafe", "name:fr": "\u0642\u0647\u0648\u0629 \u0627\u0644\u0623\u062e\u0648\u0629 \u0628\u0631\u0643\u0627\u0646"}}, {"type": "node", "id": 12373921202, "lat": 35.4133312, "lon": 7.1338622, "tags": {"amenity": "cafe", "name:fr": "\u0645\u0642\u0647\u0649"}}, {"type": "node", "id": 12373921203, "lat": 35.4005903, "lon": 7.1279116, "tags": {"amenity": "cafe", "name:fr": "\u0645\u0642\u0647\u0649 \u0639\u0645\u064a \u062d\u0633\u064a\u0646"}}, {"type": "node", "id": 12373921204, "lat": 35.4021121, "lon": 7.1376341, "tags": {"amenity": "cafe", "name:fr": "\u0642\u0647\u0648\u0629"}}, {"type": "node", "id": 12373921205, "lat": 35.4182268, "lon": 7.1316675, "tags": {"amenity": "cafe", "name:fr": "\u0642\u0647\u0648\u0629"}}, {"type": "node", "id": 12373921206, "lat": 35.4292243, "lon": 7.1345683, "tags": {"amenity": "cafe", "name:fr": "\u0642\u0647\u0648\u0629 \u0627\u0628\u0631\u0627\u0647\u064a\u0645", "phone": "0671386672"}}, {"type": "node", "id": 12373921207, "lat": 35.4209599, "lon": 7.1410565, "tags": {"amenity": "cafe", "name:fr": "\u0642\u0647\u0648\u0629 \u0627\u0644\u0628\u0644\u062f\u064a\u0629"}}, {"type": "node", "id": 12373921208, "lat": 35.4216785, "lon": 7.1419101, "tags": {"amenity": "cafe", "name:fr": "\u0642\u0647\u0648\u0629 \u0627\u0644\u0628\u0644\u062f\u064a\u0629", "phone": "0671463763"}}, {"type": "node", "id": 12373921209, "lat": 35.4230888, "lon": 7.1509272, "tags": {"amenity": "cafe", "name:fr": "\u0642\u0647\u0648\u0629 \u062d\u0643\u064a\u0645", "phone": "0697159491"}}, {"type": "node", "id": 12373921210, "lat": 35.4107556, "lon": 7.1429852, "tags": {"amenity": "cafe", "name:fr": "\u0642\u0647\u0648\u0629"}}, {"type": "node", "id": 12373921301, "lat": 35.4152916, "lon": 7.1417039, "tags": {"amenity": "cafe", "name:fr": "\u0645\u0642\u0647\u0649 \u0645\u0632\u062f\u0627\u0648\u062a", "phone": "0667393695"}}, {"type": "node", "id": 12373921302, "lat": 35.415197, "lon": 7.1522054, "tags": {"amenity": "cafe", "name:fr": "\u0645\u0642\u0647\u0649 \u0627\u0644\u0643\u0648\u0633\u064a\u062f\u0627\u0631"}}, {"type": "node", "id": 12373921401, "lat": 35.4093201, "lon": 7.1319729, "tags": {"amenity": "cafe", "name:fr": "\u0642\u0647\u0648\u0629 \u0628\u0648\u062f\u0648\u062d\u0629", "phone": "0660606997"}}, {"type": "node", "id": 12373921402, "lat": 35.4011153, "lon": 7.1284054, "tags": {"amenity": "cafe", "name:fr": "\u0645\u0642\u0647\u0649"}}, {"type": "node", "id": 12373921403, "lat": 35.3996736, "lon": 7.1328563, "tags": {"amenity": "cafe", "name:fr": "\u0642\u0647\u0648\u0629 \u0628\u0646 \u062c\u062f\u0648", "phone": "0659219866"}}, {"type": "node", "id": 12373921404, "lat": 35.415778, "lon": 7.1365711, "tags": {"amenity": "cafe", "name:fr": "\u0642\u0647\u0648\u0629 \u0646\u0628\u064a\u0644", "phone": "0798843204"}}, {"type": "node", "id": 12373921405, "lat": 35.4302952, "lon": 7.1374576, "tags": {"amenity": "cafe", "name:fr": "\u0642\u0647\u0648\u0629"}}, {"type": "node", "id": 12373921406, "lat": 35.4249165, "lon": 7.1430829, "tags": {"amenity": "cafe", "name:fr": "\u0642\u0647\u0648\u0629 700", "phone": "0698803014"}}, {"type": "node", "id": 12373921407, "lat": 35.4248127, "lon": 7.1507727, "tags": {"amenity": "cafe", "name:fr": "\u0642\u0647\u0648\u0629 \u0645\u062f\u0631\u064a\u0629 \u0627\u0644\u0635\u062d\u0629"}}, {"type": "node", "id": 12373921408, "lat": 35.4204718, "lon": 7.1451138, "tags": {"amenity": "cafe", "name:fr": "\u0642\u0647\u0648\u0629 \u0627\u0644\u0645\u062c\u0627\u0647\u062f\u064a\u0646"}}, {"type": "node", "id": 12373921701, "lat": 35.4020151, "lon": 7.132036, "tags": {"amenity": "cafe", "name:fr": "\u0642\u0647\u0648\u0629 \u0631\u0627\u0645\u064a"}}, {"type": "node", "id": 12373921702, "lat": 35.41278, "lon": 7.1339277, "tags": {"amenity": "cafe", "name:fr": "\u0642\u0647\u0648\u0629 \u0641\u0648\u0632\u064a"}}, {"type": "node", "id": 12373921703, "lat": 35.4252081, "lon": 7.1306749, "tags": {"amenity": "cafe", "name:fr": "\u0642\u0647\u0648\u0629"}}, {"type": "node", "id": 12373921704, "lat": 35.4232137, "lon": 7.1420643, "tags": {"amenity": "cafe", "name:fr": "\u0642\u0647\u0648\u0629 \u0627\u0644\u0645\u062d\u0627\u0631\u0632"}}, {"type": "node", "id": 12373921705, "lat": 35.4243602, "lon": 7.1522284, "tags": {"amenity": "cafe", "name:fr": "chicha"}}, {"type": "node", "id": 12373921706, "lat": 35.4163898, "lon": 7.1455477, "tags": {"amenity": "cafe", "name:fr": "\u0642\u0647\u0648\u0629 \u0627\u0644\u0645\u0639\u0647\u062f"}}, {"type": "node", "id": 12373921707, "lat": 35.4108237, "lon": 7.1416108, "tags": {"amenity": "cafe", "name:fr": "\u0642\u0647\u0648\u0629 \u0627\u0634\u0628\u064a\u0644\u064a\u0627", "phone": "0698474068"}}, {"type": "node", "id": 12373921708, "lat": 35.4139845, "lon": 7.1471974, "tags": {"amenity": "cafe", "name:fr": "\u0642\u0647\u0648\u0629"}}, {"type": "node", "id": 12373921709, "lat": 35.4113447, "lon": 7.1514047, "tags": {"amenity": "cafe", "phone": "0667342013"}}, {"type": "node", "id": 12373943001, "lat": 35.4137176, "lon": 7.1493738, "tags": {"amenity": "cafe", "name:fr": "\u0642\u0647\u0648\u0629"}}, {"type": "node", "id": 12374005201, "lat": 35.4181617, "lon": 7.1490971, "tags": {"amenity": "cafe", "name:fr": "\u0634\u064a\u0634\u0629"}}, {"type": "node", "id": 12374015501, "lat": 35.4203376, "lon": 7.1482582, "tags": {"amenity": "cafe", "name:fr": "\u0642\u0647\u0648\u0629 NMR"}}, {"type": "node", "id": 12374017701, "lat": 35.4213353, "lon": 7.1507991, "tags": {"amenity": "cafe", "name:fr": "\u0642\u0647\u0648\u0629"}}, {"type": "node", "id": 12374039701, "lat": 35.4199145, "lon": 7.1603264, "tags": {"amenity": "cafe", "name:fr": "\u0642\u0647\u0648\u0629"}}, {"type": "node", "id": 12374045001, "lat": 35.4202755, "lon": 7.1593875, "tags": {"amenity": "cafe", "name:fr": "\u0642\u0647\u0648\u0629 \u0631\u0627\u0645\u064a", "phone": "0660505391"}}, {"type": "node", "id": 12374064201, "lat": 35.4242709, "lon": 7.1567714, "tags": {"amenity": "cafe", "name:fr": "\u0642\u0647\u0648\u0629 \u0639\u064a\u0627\u062f\u064a"}}, {"type": "node", "id": 12374065701, "lat": 35.4259757, "lon": 7.1562613, "tags": {"amenity": "cafe", "name:fr": "\u0642\u0647\u0648\u0629 \u063a\u062f\u064a\u0631"}}, {"type": "node", "id": 12374072601, "lat": 35.4290962, "lon": 7.1501534, "tags": {"amenity": "cafe", "name:fr": "\u0642\u0647\u0648\u0629 \u0627\u0644\u0634\u064a\u0646\u0648\u064a"}}, {"type": "node", "id": 12374072602, "lat": 35.4290871, "lon": 7.1501561, "tags": {"amenity": "cafe", "name": "\u0642\u0647\u0648\u0629 \u0627\u0644\u0634\u064a\u0646\u0648\u064a", "phone": "0696899087"}}, {"type": "node", "id": 12374072603, "lat": 35.4299904, "lon": 7.1496409, "tags": {"amenity": "cafe", "name:fr": "\u0642\u0647\u0648\u0629 \u062f\u0627\u0631 \u0627\u0644\u062b\u0642\u0627\u0641\u0629"}}, {"type": "node", "id": 12374116801, "lat": 35.4293922, "lon": 7.1487211, "tags": {"amenity": "cafe", "name:fr": "\u0642\u0647\u0648\u0629 \u0627\u0645 \u062f\u0631\u0645\u0627\u0646"}}, {"type": "node", "id": 12374116901, "lat": 35.4276562, "lon": 7.1470841, "tags": {"amenity": "cafe", "name:fr": "\u0642\u0647\u0648\u0629 \u0627\u0644\u0646\u0627\u0641\u0648\u0631\u0629"}}, {"type": "node", "id": 12374117001, "lat": 35.4301054, "lon": 7.1430151, "tags": {"amenity": "cafe", "name:fr": "\u0642\u0647\u0648\u0629 \u0631\u0628\u064a\u0639 \u0633\u0644\u0637\u0627\u0646\u064a", "phone": "0659 45 85 49"}}, {"type": "node", "id": 12375672601, "lat": 35.4246891, "lon": 7.1525427, "tags": {"amenity": "cafe"}}, {"type": "node", "id": 12375731501, "lat": 35.4306026, "lon": 7.1445547, "tags": {"amenity": "cafe", "name:fr": "\u0642\u0647\u0648\u0629 \u062d\u0633\u064a\u0646 \u0644\u0627\u0642\u0648\u0634\u064a"}}, {"type": "node", "id": 12375734702, "lat": 35.4283333, "lon": 7.1415645, "tags": {"amenity": "cafe", "name:fr": "\u0642\u0647\u0648\u0629 \u0647\u0646\u064a", "phone": "0771403791"}}, {"type": "node", "id": 12375735801, "lat": 35.4312059, "lon": 7.1436833, "tags": {"amenity": "cafe", "name:fr": "\u0642\u0647\u0648\u0629 \u0646\u0648\u0631 \u0627\u0644\u0647\u062f\u0649"}}, {"type": "node", "id": 12375737801, "lat": 35.4289257, "lon": 7.1409675, "tags": {"amenity": "cafe", "name:fr": "\u0642\u0647\u0648\u0629 \u0627\u0644\u0623\u0645\u0644"}}, {"type": "node", "id": 12375757001, "lat": 35.4299702, "lon": 7.1451531, "tags": {"amenity": "cafe", "name:fr": "\u0642\u0647\u0648\u0629 \u0645\u0646\u0635\u0648\u0631\u064a", "phone": "0550592328"}}, {"type": "node", "id": 12375757002, "lat": 35.4298421, "lon": 7.1466049, "tags": {"amenity": "cafe", "name:fr": "\u0642\u0647\u0648\u0629 \u0639\u0648\u062f\u0627", "phone": "0658433608"}}, {"type": "node", "id": 12375765602, "lat": 35.431942, "lon": 7.146589, "tags": {"amenity": "cafe", "name:fr": "\u0642\u0647\u0648\u0629 \u0645\u0648\u0645\u0646\u064a"}}, {"type": "node", "id": 12375770101, "lat": 35.4308376, "lon": 7.146692, "tags": {"amenity": "cafe", "name:fr": "\u0642\u0647\u0648\u0629 \u0628\u0648\u0639\u0637\u064a\u0644"}}, {"type": "node", "id": 12375777901, "lat": 35.4318657, "lon": 7.1481524, "tags": {"amenity": "cafe", "name:fr": "\u0642\u0647\u0648\u0629 \u0627\u0644\u0635\u0628\u0627\u062d"}}, {"type": "node", "id": 12375784401, "lat": 35.4322974, "lon": 7.1461917, "tags": {"amenity": "cafe", "name:fr": "\u0642\u0647\u0648\u0629 \u062a\u0627\u0642\u064a", "phone": "0654 21 66 97"}}, {"type": "node", "id": 12375785701, "lat": 35.4327639, "lon": 7.145434, "tags": {"addr:housenumber": "0796765153", "amenity": "cafe", "name:fr": "\u0642\u0647\u0648\u0629 \u062d\u0627\u062c\u064a"}}, {"type": "node", "id": 12375787701, "lat": 35.4330917, "lon": 7.1451013, "tags": {"amenity": "cafe", "name:fr": "\u0642\u0647\u0648\u0629 \u0632\u0642\u0627\u0642 \u0627\u0644\u0633\u0648\u0627\u0641\u0629"}}, {"type": "node", "id": 12375792901, "lat": 35.4335606, "lon": 7.1442604, "tags": {"amenity": "cafe", "name:fr": "\u0642\u0647\u0648\u0629 \u0623\u0634\u0631\u0641"}}, {"type": "node", "id": 12375793701, "lat": 35.4327031, "lon": 7.1437733, "tags": {"amenity": "cafe", "name:fr": "\u0642\u0647\u0648\u0629 \u0627\u0644\u0628\u0631\u064a\u062f"}}, {"type": "node", "id": 12375924902, "lat": 35.4329732, "lon": 7.1474163, "tags": {"amenity": "cafe", "name:fr": "\u0642\u0647\u0648\u0629 \u0645\u064a\u0632\u0627\u0646"}}, {"type": "node", "id": 12375925101, "lat": 35.4335415, "lon": 7.1466349, "tags": {"amenity": "cafe", "name:fr": "\u0642\u0647\u0648\u0629 \u0628\u0644\u0627\u0644"}}, {"type": "node", "id": 12375925102, "lat": 35.4336281, "lon": 7.1454048, "tags": {"amenity": "cafe", "name:fr": "\u0642\u0647\u0648\u0629"}}, {"type": "node", "id": 12375926601, "lat": 35.4339045, "lon": 7.146686, "tags": {"amenity": "cafe", "name:fr": "\u0642\u0647\u0648\u0629"}}, {"type": "node", "id": 12375933501, "lat": 35.4332789, "lon": 7.1499447, "tags": {"amenity": "cafe", "name:fr": "\u0642\u0647\u0648\u0629 \u0628\u0648\u0631\u0648\u0628\u0629", "phone": "0665572216"}}, {"type": "node", "id": 12375941901, "lat": 35.4328177, "lon": 7.1496605, "tags": {"amenity": "cafe", "name:fr": "\u0642\u0647\u0648\u0629 \u0628\u0648\u0631\u0648\u0628\u0629"}}, {"type": "node", "id": 12375962101, "lat": 35.4288692, "lon": 7.1599323, "tags": {"amenity": "cafe", "name:fr": "\u0642\u0647\u0648\u0629 \u0623\u0645\u064a\u0646"}}, {"type": "node", "id": 12375962102, "lat": 35.4281966, "lon": 7.1593128, "tags": {"amenity": "cafe", "name:fr": "\u0642\u0647\u0648\u0629 \u0627\u0644\u0648\u062f\u0627\u062f"}}, {"type": "node", "id": 12375962402, "lat": 35.4283456, "lon": 7.1629062, "tags": {"amenity": "cafe", "name:fr": "\u0642\u0647\u0648\u0629 \u0627\u0644\u0645\u062d\u0637\u0629", "phone": "0664199876"}}, {"type": "node", "id": 12376000201, "lat": 35.4347316, "lon": 7.1504892, "tags": {"amenity": "cafe", "name:fr": "\u0642\u0647\u0648\u0629"}}, {"type": "node", "id": 12376001801, "lat": 35.4344425, "lon": 7.1503223, "tags": {"amenity": "cafe", "name:fr": "\u0642\u0647\u0648\u0629"}}, {"type": "node", "id": 12376205901, "lat": 35.4592757, "lon": 7.0998165, "tags": {"amenity": "cafe", "name:fr": "chamsou", "phone": "05459456"}}, {"type": "node", "id": 12378402801, "lat": 35.4373779, "lon": 7.139645, "tags": {"amenity": "cafe"}}, {"type": "node", "id": 12378410901, "lat": 35.4386781, "lon": 7.1358359, "tags": {"amenity": "cafe", "name:fr": "\u0642\u0647\u0648\u0629 \u062d\u0642\u0627\u0635 \u0631\u0641\u064a\u0642", "phone": "0778340215"}}, {"type": "node", "id": 12378420802, "lat": 35.4384395, "lon": 7.1413612, "tags": {"amenity": "cafe", "name:fr": "\u0642\u0647\u0648\u0629"}}, {"type": "node", "id": 12378442201, "lat": 35.445059, "lon": 7.1437501, "tags": {"amenity": "cafe", "name:fr": "\u0642\u0647\u0648\u0629 \u0639\u064a\u0645\u0634", "phone": "0657509148"}}, {"type": "node", "id": 12378446001, "lat": 35.4456249, "lon": 7.1442136, "tags": {"amenity": "cafe", "name:fr": "\u0642\u0647\u0648\u0629"}}, {"type": "node", "id": 12378446002, "lat": 35.4462578, "lon": 7.1444636, "tags": {"amenity": "cafe", "name:fr": "\u0642\u0647\u0648\u0629 \u062d\u0648\u062a \u0635\u0627\u0644\u062d"}}, {"type": "node", "id": 12378465101, "lat": 35.4451979, "lon": 7.1505797, "tags": {"amenity": "cafe", "name:fr": "\u0642\u0647\u0648\u0629 \u0627\u0644\u0637\u0627\u0647\u0631"}}, {"type": "node", "id": 12378474201, "lat": 35.4377983, "lon": 7.1462253, "tags": {"amenity": "cafe", "name:fr": "\u0642\u0647\u0648\u0629 \u0634\u0639\u0628\u0627\u0646"}}, {"type": "node", "id": 12378478301, "lat": 35.4389732, "lon": 7.1482403, "tags": {"amenity": "cafe", "name:fr": "\u0642\u0647\u0648\u0629"}}, {"type": "node", "id": 12378501401, "lat": 35.4390118, "lon": 7.1590742, "tags": {"amenity": "cafe", "name:fr": "\u0642\u0647\u0648\u0629"}}, {"type": "node", "id": 12378501402, "lat": 35.4335176, "lon": 7.1622219, "tags": {"amenity": "cafe", "phone": "0698718587"}}, {"type": "node", "id": 12378651401, "lat": 35.396079, "lon": 7.143786, "tags": {"amenity": "cafe", "name:fr": "\u0642\u0647\u0648\u0629"}}, {"type": "node", "id": 12378664301, "lat": 35.3963681, "lon": 7.143736, "tags": {"amenity": "cafe", "name:fr": "\u0642\u0647\u0648\u0629 \u0627\u0644\u0623\u062e\u0648\u0629 \u0628\u0648\u062c\u0647\u064a\u0646"}}, {"type": "node", "id": 12378667401, "lat": 35.3975149, "lon": 7.1435919, "tags": {"amenity": "cafe", "name:fr": "\u0642\u0647\u0648\u0629"}}, {"type": "node", "id": 12378677501, "lat": 35.3995148, "lon": 7.1428808, "tags": {"amenity": "cafe", "name": "\u0642\u0647\u0648\u0629 \u064a\u0633\u064a\u0646", "name:fr": "\u0642\u0647\u0648\u0629"}}, {"type": "node", "id": 12378690001, "lat": 35.4001409, "lon": 7.1426041, "tags": {"amenity": "cafe", "name:fr": "\u0642\u0647\u0648\u0629"}}, {"type": "node", "id": 12378690002, "lat": 35.4004752, "lon": 7.1425524, "tags": {"amenity": "cafe", "name:fr": "\u0642\u0647\u0648\u0629"}}, {"type": "node", "id": 12378696601, "lat": 35.4025958, "lon": 7.1414664, "tags": {"amenity": "cafe", "name:fr": "\u0645\u0642\u0647\u0649"}}, {"type": "node", "id": 12378696602, "lat": 35.4037627, "lon": 7.1419197, "tags": {"amenity": "cafe", "name:fr": "\u0642\u0647\u0648\u0629"}}, {"type": "node", "id": 12378703501, "lat": 35.4051052, "lon": 7.1418133, "tags": {"amenity": "cafe", "name:fr": "\u0645\u0642\u0647\u0649"}}, {"type": "node", "id": 12378707901, "lat": 35.4061251, "lon": 7.1413881, "tags": {"amenity": "cafe", "name:fr": "\u0642\u0647\u0648\u0629 \u0644\u0627\u0645\u0627\u0646\u062c\u064a\u0631\u0627"}}, {"type": "node", "id": 12378793901, "lat": 35.4347403, "lon": 7.1401775, "tags": {"amenity": "cafe", "name:fr": "\u0642\u0647\u0648\u0629"}}, {"type": "node", "id": 12378806801, "lat": 35.4509543, "lon": 7.1399894, "tags": {"amenity": "cafe", "name:fr": "\u0642\u0647\u0648\u0649"}}, {"type": "node", "id": 12378812301, "lat": 35.4514151, "lon": 7.1403742, "tags": {"amenity": "cafe", "name:fr": "\u0642\u0647\u0648\u0629 \u062d\u0645\u0632\u0629"}}, {"type": "node", "id": 12378812302, "lat": 35.4539655, "lon": 7.1412386, "tags": {"amenity": "cafe", "name:fr": "\u0642\u0647\u0648\u0629"}}, {"type": "node", "id": 12378816002, "lat": 35.4521416, "lon": 7.1232538, "tags": {"amenity": "cafe", "name:fr": "\u0642\u0647\u0648\u0629"}}, {"type": "node", "id": 12378818001, "lat": 35.4583857, "lon": 7.1397695, "tags": {"amenity": "cafe", "name:fr": "\u0642\u0647\u0648\u0629 \u0632\u064a\u0646\u0648"}}, {"type": "node", "id": 12378841401, "lat": 35.4538215, "lon": 7.1208187, "tags": {"amenity": "cafe", "name:fr": "\u0642\u0647\u0648\u0629"}}, {"type": "node", "id": 12378850601, "lat": 35.4493269, "lon": 7.1228744, "tags": {"amenity": "cafe", "name:fr": "\u0645\u0642\u0647\u0649 \u0627\u0644\u0627\u062e\u0648\u0629 \u0628\u0648\u0637\u0628\u0629"}}, {"type": "node", "id": 12378864701, "lat": 35.4491257, "lon": 7.1221796, "tags": {"amenity": "cafe", "name:fr": "\u0642\u0647\u0648\u0629"}}, {"type": "node", "id": 12378885201, "lat": 35.4411204, "lon": 7.1269889, "tags": {"amenity": "cafe", "name:fr": "\u0642\u0647\u0648\u0629 \u0633\u0639\u064a\u062f", "phone": "0671565561"}}, {"type": "node", "id": 12378918601, "lat": 35.4403333, "lon": 7.1258021, "tags": {"amenity": "cafe", "name:fr": "\u0642\u0647\u0648\u0629 \u0643\u0627\u0631\u0644"}}, {"type": "node", "id": 12378952701, "lat": 35.4436626, "lon": 7.125332, "tags": {"amenity": "cafe", "name:fr": "\u0642\u0647\u0648\u0629 \u062d\u0642\u0627\u0635"}}, {"type": "node", "id": 12539388501, "lat": 35.4892648, "lon": 6.93099, "tags": {"amenity": "cafe", "name:fr": "\u0634\u0627\u064a \u0645\u0631\u0632\u0648\u0642\u064a"}}, {"type": "way", "id": 653564111, "nodes": [6124939182, 6124939183, 6124939184, 6124940885, 6124939182], "tags": {"amenity": "restaurant", "building": "yes", "name": "Resto populaire"}}, {"type": "way", "id": 1186602910, "nodes": [11021043931, 11021047191, 11021043043, 11021045029, 11021047240, 11021045785, 11021044216, 11021043811, 11021046667, 11021043422, 11021044534, 11021046224, 4425039489, 11021043009, 11021044986, 11021047380, 11021046711, 11021045713, 11021045157, 11021045909, 11021043931], "tags": {"addr:country": "DZ", "amenity": "cafe", "building": "yes", "name": "Caf\u00e9 Laatar bachir", "name:ar": "Caf\u00e9 Laatar bachir", "source": "microsoft/BuildingFootprints"}}, {"type": "way", "id": 1186719126, "nodes": [11021832279, 11021868334, 3921152995, 11021882046, 11021832279], "tags": {"addr:country": "DZ", "amenity": "restaurant", "building": "yes", "name": "Resto", "name:fr": "Resto", "source": "microsoft/BuildingFootprints"}}]}