{"version": 0.6, "generator": "Overpass API 0.7.62.7 375dc00a", "osm3s": {"timestamp_osm_base": "2025-06-14T15:24:15Z", "copyright": "The data included in this document is from www.openstreetmap.org. The data is made available under ODbL."}, "elements": [{"type": "node", "id": 9391740985, "lat": 31.3237974, "lon": 37.3362488, "tags": {"amenity": "cafe", "name": "LT Caf\u00e9", "phone": "0591208779"}}, {"type": "node", "id": 11099389072, "lat": 31.3251621, "lon": 37.3413471, "tags": {"addr:city": "\u0627\u0644\u0642\u0631\u064a\u0627\u062a", "addr:street": "\u0637\u0631\u064a\u0642 \u0627\u0644\u0645\u0644\u0643 \u062e\u0627\u0644\u062f", "amenity": "restaurant", "description": "\u062d\u0644\u0648\u064a\u0627\u062a_\u0634\u0631\u0642\u064a\u0629;\u062c\u0627\u062a\u0648\u0647;\u0643\u0646\u0627\u0641\u0629_\u0646\u0627\u0628\u0644\u0633\u064a\u0647", "name": "\u062d\u0644\u0648\u064a\u0627\u062a \u0628\u0644\u0648\u062f\u0627\u0646\u0647", "opening_hours": "Mo-Su 09:00-23:30", "phone": "+966551431983", "website": "https://bluedanah.menuspages.com/"}}]}