{"version": 0.6, "generator": "Overpass API 0.7.62.7 375dc00a", "osm3s": {"timestamp_osm_base": "2025-06-14T14:36:09Z", "copyright": "The data included in this document is from www.openstreetmap.org. The data is made available under ODbL."}, "elements": [{"type": "node", "id": 1396312524, "lat": 40.2169735, "lon": 21.0486706, "tags": {"amenity": "restaurant"}}, {"type": "node", "id": 1450527329, "lat": 40.1942895, "lon": 21.1409721, "tags": {"amenity": "cafe"}}, {"type": "node", "id": 2329319102, "lat": 40.5239698, "lon": 21.1196731, "tags": {"amenity": "cafe", "cuisine": "greek", "name": "\u0393\u03c9\u03bd\u03b9\u03b1", "outdoor_seating": "yes", "phone": "+30 2467 500037"}}, {"type": "node", "id": 2613763924, "lat": 40.5171737, "lon": 21.2825833}, {"type": "node", "id": 2613763931, "lat": 40.5172478, "lon": 21.2823846}, {"type": "node", "id": 2613763942, "lat": 40.5173384, "lon": 21.282657}, {"type": "node", "id": 2613763949, "lat": 40.5173961, "lon": 21.2824637}, {"type": "node", "id": 2661679182, "lat": 40.4838051, "lon": 21.2928187}, {"type": "node", "id": 2661679183, "lat": 40.4840496, "lon": 21.2929963}, {"type": "node", "id": 2682477880, "lat": 40.5113341, "lon": 21.3167324}, {"type": "node", "id": 2682477881, "lat": 40.5113202, "lon": 21.3167146}, {"type": "node", "id": 2682477882, "lat": 40.5113452, "lon": 21.3166737}, {"type": "node", "id": 2682477883, "lat": 40.5113243, "lon": 21.3166476}, {"type": "node", "id": 2682477885, "lat": 40.511335, "lon": 21.3166294}, {"type": "node", "id": 2682477886, "lat": 40.5112968, "lon": 21.3165859}, {"type": "node", "id": 2682477887, "lat": 40.511283, "lon": 21.316602}, {"type": "node", "id": 2682477888, "lat": 40.5112626, "lon": 21.3165738}, {"type": "node", "id": 2682477889, "lat": 40.5112407, "lon": 21.316606}, {"type": "node", "id": 3024696380, "lat": 40.5349246, "lon": 21.18159}, {"type": "node", "id": 3024696381, "lat": 40.5347535, "lon": 21.1816333}, {"type": "node", "id": 3024696382, "lat": 40.5347831, "lon": 21.1817459}, {"type": "node", "id": 3024696383, "lat": 40.5349509, "lon": 21.1816679}, {"type": "node", "id": 3238693718, "lat": 40.4500857, "lon": 21.259668, "tags": {"addr:city": "ARGOS ORESTIKO", "addr:housenumber": "14", "addr:postcode": "52200", "addr:street": "\u0394\u03b9\u03bf\u03b9\u03ba\u03b7\u03c4\u03b7\u03c1\u03af\u03bf\u03c5", "amenity": "cafe", "internet_access": "wlan", "name": "Daily Corner", "opening_hours": "08:30-01:00", "website": "www.daily-corner.blogspot.gr"}}, {"type": "node", "id": 3281932257, "lat": 40.349451, "lon": 21.0808868, "tags": {"amenity": "cafe", "cuisine": "regional", "internet_access": "no", "name": "\u039a\u03b1\u03c6\u03b5\u03bd\u03b5\u03af\u03bf \u039b\u03ac\u03b3\u03b3\u03b1\u03c2"}}, {"type": "node", "id": 3391565773, "lat": 40.405743, "lon": 21.0580687, "tags": {"amenity": "restaurant", "name": "\u0395\u03c3\u03c4\u03b9\u03b1\u03c4\u03cc\u03c1\u03b9\u03bf River Party"}}, {"type": "node", "id": 3391568107, "lat": 40.4054251, "lon": 21.0593417, "tags": {"amenity": "restaurant"}}, {"type": "node", "id": 3780508957, "lat": 40.515283, "lon": 21.2724387}, {"type": "node", "id": 3780508958, "lat": 40.5153344, "lon": 21.2725873}, {"type": "node", "id": 3780508959, "lat": 40.5152769, "lon": 21.2726277}, {"type": "node", "id": 3780508960, "lat": 40.5151662, "lon": 21.2725008}, {"type": "node", "id": 3816335453, "lat": 40.1689164, "lon": 21.2209409}, {"type": "node", "id": 3816335454, "lat": 40.1688988, "lon": 21.2210666}, {"type": "node", "id": 3816335455, "lat": 40.1689201, "lon": 21.2210717}, {"type": "node", "id": 3816335456, "lat": 40.1689062, "lon": 21.2211707}, {"type": "node", "id": 3816335457, "lat": 40.1688281, "lon": 21.2211519}, {"type": "node", "id": 3816335458, "lat": 40.1688596, "lon": 21.2209272}, {"type": "node", "id": 3844610041, "lat": 40.5190586, "lon": 21.2645418}, {"type": "node", "id": 3844610042, "lat": 40.5191952, "lon": 21.264731}, {"type": "node", "id": 3844610043, "lat": 40.519131, "lon": 21.2648087}, {"type": "node", "id": 3844610044, "lat": 40.5189974, "lon": 21.2646223}, {"type": "node", "id": 3882540888, "lat": 40.5176107, "lon": 21.2661393}, {"type": "node", "id": 3882540889, "lat": 40.5176879, "lon": 21.2662794}, {"type": "node", "id": 3882540890, "lat": 40.5176231, "lon": 21.2663459}, {"type": "node", "id": 3882540891, "lat": 40.5175503, "lon": 21.2662035}, {"type": "node", "id": 4368073907, "lat": 40.5164746, "lon": 21.2665402, "tags": {"amenity": "restaurant", "cuisine": "greek;grill", "name": "Prestige"}}, {"type": "node", "id": 4519155161, "lat": 40.1930635, "lon": 21.2312035}, {"type": "node", "id": 4519155162, "lat": 40.1929748, "lon": 21.2314114}, {"type": "node", "id": 4519155163, "lat": 40.1928977, "lon": 21.231355}, {"type": "node", "id": 4519155164, "lat": 40.1929864, "lon": 21.2311472}, {"type": "node", "id": 5810569231, "lat": 40.2220261, "lon": 21.0214056, "tags": {"amenity": "cafe", "name": "Kafeneio"}}, {"type": "node", "id": 6431080185, "lat": 40.5346638, "lon": 21.1834655, "tags": {"amenity": "cafe"}}, {"type": "node", "id": 6436554683, "lat": 40.5050756, "lon": 21.2421718, "tags": {"addr:city": "\u039c\u03b1\u03bd\u03b9\u03ac\u03ba\u03bf\u03b9", "addr:housenumber": "112", "addr:postcode": "52100", "addr:street": "\u0395\u03b3\u03bd\u03b1\u03c4\u03af\u03b1\u03c2", "amenity": "restaurant", "cuisine": "pizza;crepe", "internet_access": "wlan", "internet_access:fee": "no", "name": "\u0395\u03b3\u03bd\u03b1\u03c4\u03af\u03b1 Food Stories", "outdoor_seating": "yes", "phone": "+30 2467 306971", "wheelchair": "limited"}}, {"type": "node", "id": 6436735748, "lat": 40.5202791, "lon": 21.2575017, "tags": {"amenity": "restaurant", "cuisine": "pizza", "delivery": "yes", "internet_access": "wlan", "name": "Senior pizza al metro", "outdoor_seating": "yes", "payment:american_express": "yes", "payment:visa": "yes", "phone": "+30 2467 025200", "website": "https://m.facebook.com/pages/Senior-Pizza-Al-Metrokastoria/468999993121666"}}, {"type": "node", "id": 6436735768, "lat": 40.5218655, "lon": 21.2613659, "tags": {"amenity": "cafe", "brand": "Mikel", "brand:wikidata": "Q16952021", "brand:wikipedia": "el:Mikel", "cuisine": "coffee_shop", "name": "Mikel", "outdoor_seating": "yes", "takeaway": "yes", "wheelchair": "no"}}, {"type": "node", "id": 6436735775, "lat": 40.5200327, "lon": 21.2570164, "tags": {"amenity": "cafe", "name": "Plaza", "outdoor_seating": "yes"}}, {"type": "node", "id": 7254948682, "lat": 40.475224, "lon": 21.288577, "tags": {"amenity": "restaurant", "name": "\u0393\u03b1\u03ca\u03c4\u03ac\u03bd\u03b7\u03c2"}}, {"type": "node", "id": 7262882290, "lat": 40.522051, "lon": 21.263966, "tags": {"addr:housenumber": "2", "addr:street": "\u03a3\u03ba\u03b1\u03c0\u03ad\u03b4\u03b5\u03b9\u03bf\u03c2 \u0391\u03b3\u03bf\u03c1\u03ac", "amenity": "restaurant", "name": "\u0393\u03c1\u03b1\u03bc\u03bc\u03cc\u03c6\u03c9\u03bd\u03bf", "phone": "+302467301336"}}, {"type": "node", "id": 7262920909, "lat": 40.5169961, "lon": 21.2711164, "tags": {"amenity": "restaurant", "cuisine": "greek", "name": "\u039d\u03c4\u03bf\u03bb\u03c4\u03c3\u03cc \u0395\u03c3\u03c4\u03b9\u03b1\u03c4\u03cc\u03c1\u03b9\u03bf", "phone": "+302467023377", "smoking": "no", "website": "http://www.ntoltso.gr"}}, {"type": "node", "id": 8164847480, "lat": 40.5112438, "lon": 21.3168463}, {"type": "node", "id": 8164847481, "lat": 40.5112062, "lon": 21.3167982}, {"type": "node", "id": 8164847482, "lat": 40.5112243, "lon": 21.316777}, {"type": "node", "id": 8164847483, "lat": 40.511133, "lon": 21.3166639}, {"type": "node", "id": 8164847484, "lat": 40.5111728, "lon": 21.3166113}, {"type": "node", "id": 8164847485, "lat": 40.5111873, "lon": 21.3166303}, {"type": "node", "id": 8164847486, "lat": 40.5112195, "lon": 21.3165817}, {"type": "node", "id": 8986440428, "lat": 40.4771521, "lon": 21.0155147, "tags": {"amenity": "cafe", "name": "\u03a0\u03b1\u03c1\u03b1\u03b4\u03bf\u03c3\u03b9\u03b1\u03ba\u03cc \u039a\u03b1\u03c6\u03b5\u03bd\u03b5\u03af\u03bf \"\u03c4\u03bf \u03a7\u03b9\u03bf\u03bd\u03ac\u03c4\u03bf\"", "name:el": "\u03a0\u03b1\u03c1\u03b1\u03b4\u03bf\u03c3\u03b9\u03b1\u03ba\u03cc \u039a\u03b1\u03c6\u03b5\u03bd\u03b5\u03af\u03bf \"\u03c4\u03bf \u03a7\u03b9\u03bf\u03bd\u03ac\u03c4\u03bf\"", "name:en": "Traditional Coffee Shop \"the Chionato\"", "opening_hours": "Mo-Su 08:00-22:00", "outdoor_seating": "yes", "website": "http://0807.syzefxis.gov.gr/%CF%84%CE%BF%CF%85%CF%81%CE%B9%CF%83%CE%BC%CF%8C%CF%82/%CE%B5%CE%BD%CE%B1%CE%BB%CE%BB%CE%B1%CE%BA%CF%84%CE%B9%CE%BA%CF%8C%CF%82-%CF%84%CE%BF%CF%85%CF%81%CE%B9%CF%83%CE%BC%CF%8C%CF%82/"}}, {"type": "node", "id": 9003330895, "lat": 40.1391068, "lon": 21.2025323}, {"type": "node", "id": 9003330898, "lat": 40.1391226, "lon": 21.202452}, {"type": "node", "id": 9003330899, "lat": 40.1390864, "lon": 21.2024091}, {"type": "node", "id": 9003330903, "lat": 40.1390849, "lon": 21.2025064}, {"type": "node", "id": 9003330908, "lat": 40.1390785, "lon": 21.202573}, {"type": "node", "id": 9003330911, "lat": 40.1390205, "lon": 21.2025043}, {"type": "node", "id": 9003358134, "lat": 40.1391158, "lon": 21.201717}, {"type": "node", "id": 9003358135, "lat": 40.1391639, "lon": 21.2018224}, {"type": "node", "id": 9003358136, "lat": 40.1392135, "lon": 21.2017836}, {"type": "node", "id": 9003358139, "lat": 40.1391653, "lon": 21.2016783}, {"type": "node", "id": 9010200775, "lat": 40.1732252, "lon": 21.2825533}, {"type": "node", "id": 9010200791, "lat": 40.173142, "lon": 21.2827728}, {"type": "node", "id": 9010238224, "lat": 40.1732309, "lon": 21.2827687}, {"type": "node", "id": 9010238235, "lat": 40.1731363, "lon": 21.2825573}, {"type": "node", "id": 9010608351, "lat": 40.1513301, "lon": 21.2501971}, {"type": "node", "id": 9010608352, "lat": 40.1512462, "lon": 21.2504083}, {"type": "node", "id": 9010608357, "lat": 40.1513791, "lon": 21.2503049}, {"type": "node", "id": 9010608360, "lat": 40.1511972, "lon": 21.2503004}, {"type": "node", "id": 9015218173, "lat": 40.1270952, "lon": 21.1373974}, {"type": "node", "id": 9015218176, "lat": 40.1270399, "lon": 21.1370565}, {"type": "node", "id": 9015218183, "lat": 40.1272276, "lon": 21.1376396}, {"type": "node", "id": 9015218186, "lat": 40.1271031, "lon": 21.1371813}, {"type": "node", "id": 9015218191, "lat": 40.1270705, "lon": 21.1375689}, {"type": "node", "id": 9015218193, "lat": 40.1271485, "lon": 21.1375881}, {"type": "node", "id": 9015218204, "lat": 40.1271882, "lon": 21.1374217}, {"type": "node", "id": 9015218210, "lat": 40.1272652, "lon": 21.1374474}, {"type": "node", "id": 9015218230, "lat": 40.1271506, "lon": 21.1376139}, {"type": "node", "id": 9015218241, "lat": 40.1271538, "lon": 21.1371375}, {"type": "node", "id": 9015218254, "lat": 40.1270906, "lon": 21.1370126}, {"type": "node", "id": 9015218260, "lat": 40.1271732, "lon": 21.1374166}, {"type": "node", "id": 9016005466, "lat": 40.1132293, "lon": 21.1508696}, {"type": "node", "id": 9016005471, "lat": 40.1130952, "lon": 21.1507228}, {"type": "node", "id": 9016005474, "lat": 40.1131438, "lon": 21.150908}, {"type": "node", "id": 9016005497, "lat": 40.1131807, "lon": 21.1506844}, {"type": "node", "id": 9017820549, "lat": 40.2129327, "lon": 21.2820874}, {"type": "node", "id": 9017820550, "lat": 40.2130018, "lon": 21.2819501}, {"type": "node", "id": 9017820552, "lat": 40.2129045, "lon": 21.2820198}, {"type": "node", "id": 9017820553, "lat": 40.21303, "lon": 21.2820177}, {"type": "node", "id": 9022176833, "lat": 40.202672, "lon": 21.1869351}, {"type": "node", "id": 9022176837, "lat": 40.2027226, "lon": 21.1870435}, {"type": "node", "id": 9022176838, "lat": 40.2027217, "lon": 21.1869344}, {"type": "node", "id": 9022176841, "lat": 40.2026728, "lon": 21.1870441}, {"type": "node", "id": 9022191020, "lat": 40.2104433, "lon": 21.2070546}, {"type": "node", "id": 9022191021, "lat": 40.2103676, "lon": 21.2070715}, {"type": "node", "id": 9022191023, "lat": 40.2104213, "lon": 21.2068855}, {"type": "node", "id": 9022191028, "lat": 40.2103456, "lon": 21.2069025}, {"type": "node", "id": 9031030993, "lat": 40.1644578, "lon": 21.1814623}, {"type": "node", "id": 9031030997, "lat": 40.1643816, "lon": 21.1814052}, {"type": "node", "id": 9031030998, "lat": 40.1644362, "lon": 21.1813805}, {"type": "node", "id": 9031030999, "lat": 40.1644031, "lon": 21.1814869}, {"type": "node", "id": 9131301225, "lat": 40.5226231, "lon": 21.2759231}, {"type": "node", "id": 9131301226, "lat": 40.5226268, "lon": 21.2760106}, {"type": "node", "id": 9131301227, "lat": 40.5225979, "lon": 21.2760128}, {"type": "node", "id": 9131301228, "lat": 40.5225998, "lon": 21.2760566}, {"type": "node", "id": 9131301229, "lat": 40.5225545, "lon": 21.27606}, {"type": "node", "id": 9131301230, "lat": 40.5225529, "lon": 21.2760232}, {"type": "node", "id": 9131301231, "lat": 40.5224837, "lon": 21.2760283}, {"type": "node", "id": 9131301232, "lat": 40.5224797, "lon": 21.2759336}, {"type": "node", "id": 9131836316, "lat": 40.5255288, "lon": 21.2635037, "tags": {"addr:city": "\u039a\u03b1\u03c3\u03c4\u03bf\u03c1\u03b9\u03ac", "addr:postcode": "52100", "addr:street": "\u039f\u03c1\u03b5\u03c3\u03c4\u03b5\u03af\u03c9\u03bd", "amenity": "restaurant", "cuisine": "pizza", "name": "\u0397 \u03a0\u0391\u03a0\u0399\u0391", "outdoor_seating": "yes", "phone": "2467504804", "website": "https://www.papia.gr/"}}, {"type": "node", "id": 9197075870, "lat": 40.2073291, "lon": 21.4828863, "tags": {"amenity": "restaurant", "cuisine": "regional", "name": "Oi Akakies"}}, {"type": "node", "id": 9221714497, "lat": 40.4981663, "lon": 21.1677065, "tags": {"addr:postcode": "52050", "amenity": "cafe", "name": "Friends Internet Cafe", "name:en": "Friends Internet Cafe", "opening_hours": "Mo-Su 08:00-24:00", "phone": "+30 2467021876"}}, {"type": "node", "id": 9730059737, "lat": 40.2051199, "lon": 21.444168, "tags": {"amenity": "cafe"}}, {"type": "node", "id": 9914777743, "lat": 40.519195, "lon": 21.2643935, "tags": {"amenity": "cafe", "name": "Stardust", "outdoor_seating": "yes"}}, {"type": "node", "id": 9914777749, "lat": 40.5191316, "lon": 21.2645261, "tags": {"amenity": "cafe", "name": "Zaza", "wheelchair": "no"}}, {"type": "node", "id": 9914777752, "lat": 40.517966, "lon": 21.2657006, "tags": {"amenity": "cafe", "int_name": "Idiston", "name": "\u0397\u03b4\u03b9\u03c3\u03c4\u03bf\u03bd", "phone": "+30 694 439 7909"}}, {"type": "node", "id": 9914777758, "lat": 40.5222734, "lon": 21.2622898, "tags": {"amenity": "cafe", "delivery": "yes", "name": "El grano de cafe", "outdoor_seating": "yes", "phone": "+30 2467 022333"}}, {"type": "node", "id": 9914777759, "lat": 40.519374, "lon": 21.2641784, "tags": {"amenity": "cafe", "name": "State", "outdoor_seating": "yes"}}, {"type": "node", "id": 9914777761, "lat": 40.5202476, "lon": 21.2631105, "tags": {"amenity": "cafe", "bar": "yes", "name": "The Passenger", "outdoor_seating": "yes", "phone": "+30 2467 022222", "website": "https://m.facebook.com/The-Passenger-Kastoria-515715945276444/"}}, {"type": "node", "id": 9914777763, "lat": 40.5152826, "lon": 21.2660815, "tags": {"amenity": "cafe", "cuisine": "greek;regional", "internet_access": "wlan", "name": "\u0395\u03bd \u039a\u03b1\u03b9\u03c1\u03ce", "outdoor_seating": "yes", "phone": "2467027247", "toilets": "yes", "toilets:access": "customers", "toilets:wheelchair": "no", "wheelchair": "limited"}}, {"type": "node", "id": 9914777766, "lat": 40.522421, "lon": 21.2626992, "tags": {"amenity": "cafe", "name": "Brown Coffee", "wheelchair": "limited"}}, {"type": "node", "id": 9915327204, "lat": 40.5228913, "lon": 21.2637306, "tags": {"addr:street": "\u03a3\u03c4\u03c1\u03b1\u03c4\u03b7\u03b3\u03bf\u03cd I. \u0386\u03c1\u03c4\u03b7", "amenity": "cafe", "bar": "yes", "name": "\u0391\u03c3\u03c0\u03c1\u03bf \u03a0\u03b1\u03c4\u03bf", "outdoor_seating": "yes"}}, {"type": "node", "id": 9915337229, "lat": 40.5217221, "lon": 21.260663, "tags": {"amenity": "cafe", "outdoor_seating": "yes"}}, {"type": "node", "id": 9915337239, "lat": 40.5229736, "lon": 21.2638869, "tags": {"amenity": "cafe", "name": "\u03a0\u03bb\u03b1\u03c4\u03b5\u03b9\u03b1", "outdoor_seating": "yes"}}, {"type": "node", "id": 9915337248, "lat": 40.5217302, "lon": 21.2599182, "tags": {"amenity": "cafe", "bar": "yes", "outdoor_seating": "yes"}}, {"type": "node", "id": 9920491886, "lat": 40.2632337, "lon": 21.3267562, "tags": {"amenity": "restaurant", "name": "\u039c\u03b1\u03ba\u03b5\u03b4\u03bf\u03bd\u03b9\u03b1"}}, {"type": "node", "id": 9920491888, "lat": 40.2635188, "lon": 21.3263055, "tags": {"amenity": "cafe", "internet_access": "wlan", "name": "\u0391\u03c1\u03c9\u03bc\u03b1", "outdoor_seating": "yes"}}, {"type": "node", "id": 9920554755, "lat": 40.5012695, "lon": 21.2453645, "tags": {"amenity": "cafe", "outdoor_seating": "yes"}}, {"type": "node", "id": 9920608163, "lat": 40.4506749, "lon": 21.2586107, "tags": {"amenity": "cafe", "outdoor_seating": "yes"}}, {"type": "node", "id": 9920608168, "lat": 40.4540469, "lon": 21.2584081, "tags": {"amenity": "cafe", "name": "Coffee Power"}}, {"type": "node", "id": 9920608175, "lat": 40.4543151, "lon": 21.2579713, "tags": {"amenity": "cafe", "outdoor_seating": "yes"}}, {"type": "node", "id": 9920608195, "lat": 40.4484228, "lon": 21.2620613, "tags": {"amenity": "cafe", "outdoor_seating": "yes"}}, {"type": "node", "id": 9920896466, "lat": 40.2635862, "lon": 21.3251026, "tags": {"amenity": "cafe", "outdoor_seating": "yes"}}, {"type": "node", "id": 9920927070, "lat": 40.2630363, "lon": 21.3266935, "tags": {"amenity": "restaurant", "name": "\u039b\u03b1\u03b4\u03b1\u03c2", "outdoor_seating": "yes"}}, {"type": "node", "id": 9920927072, "lat": 40.2633354, "lon": 21.325671, "tags": {"amenity": "cafe", "name": "Coffee House", "outdoor_seating": "yes"}}, {"type": "node", "id": 9920927073, "lat": 40.2626174, "lon": 21.3265178, "tags": {"amenity": "cafe", "outdoor_seating": "yes"}}, {"type": "node", "id": 9920927074, "lat": 40.2629184, "lon": 21.3262936, "tags": {"amenity": "cafe", "outdoor_seating": "yes"}}, {"type": "node", "id": 9920927075, "lat": 40.2629118, "lon": 21.3266457, "tags": {"amenity": "cafe", "outdoor_seating": "yes"}}, {"type": "node", "id": 9920927076, "lat": 40.2627081, "lon": 21.3262097, "tags": {"amenity": "cafe", "name": "Mirror", "outdoor_seating": "yes"}}, {"type": "node", "id": 9920927077, "lat": 40.26261, "lon": 21.3254443, "tags": {"amenity": "cafe", "outdoor_seating": "yes"}}, {"type": "node", "id": 9920927081, "lat": 40.2624227, "lon": 21.3257282, "tags": {"amenity": "cafe", "name": "Gordon's", "outdoor_seating": "yes"}}, {"type": "node", "id": 9921138164, "lat": 40.2622594, "lon": 21.3263178, "tags": {"amenity": "cafe", "int_name": "Odoma", "name": "\u039f\u03b4\u03bf\u03bc\u03b1", "outdoor_seating": "yes"}}, {"type": "node", "id": 9921879349, "lat": 40.1127851, "lon": 21.2645867, "tags": {"amenity": "cafe", "internet_access": "wlan", "name": "\u039a\u03c9\u03c3\u03c4\u03b7\u03c2", "outdoor_seating": "yes"}}, {"type": "node", "id": 9921879359, "lat": 40.1478917, "lon": 21.2640929, "tags": {"amenity": "cafe", "name": "\u0397 \u03a4\u03c3\u03b9\u03bf\u03c5\u03bc\u03b1", "outdoor_seating": "yes"}}, {"type": "node", "id": 9922361125, "lat": 40.1128549, "lon": 21.2653196, "tags": {"amenity": "cafe", "internet_access": "wlan", "name": "\u0391\u03c7\u03b9\u03bb\u03bb\u03ad\u03b1\u03c2", "outdoor_seating": "yes"}}, {"type": "node", "id": 9922361127, "lat": 40.1125562, "lon": 21.2646358, "tags": {"amenity": "cafe", "outdoor_seating": "yes"}}, {"type": "node", "id": 10130518523, "lat": 40.4840791, "lon": 21.2929301}, {"type": "node", "id": 10130518524, "lat": 40.483958, "lon": 21.292926}, {"type": "node", "id": 10130518525, "lat": 40.4839437, "lon": 21.2929582}, {"type": "node", "id": 10130518526, "lat": 40.4838694, "lon": 21.2929011}, {"type": "node", "id": 10130518527, "lat": 40.4838803, "lon": 21.2928765}, {"type": "node", "id": 10130518528, "lat": 40.4838384, "lon": 21.2927436}, {"type": "node", "id": 10130518529, "lat": 40.4838691, "lon": 21.2927672}, {"type": "node", "id": 10130518530, "lat": 40.4838861, "lon": 21.292729}, {"type": "node", "id": 10130518531, "lat": 40.4839403, "lon": 21.2927707}, {"type": "node", "id": 10130518532, "lat": 40.4839271, "lon": 21.2928004}, {"type": "node", "id": 10130518533, "lat": 40.4839412, "lon": 21.2928113}, {"type": "node", "id": 10130518534, "lat": 40.483937, "lon": 21.2928209}, {"type": "node", "id": 10130518538, "lat": 40.4838992, "lon": 21.292924, "tags": {"entrance": "yes"}}, {"type": "node", "id": 10829974005, "lat": 40.49777, "lon": 21.1681122}, {"type": "node", "id": 10829974006, "lat": 40.4977193, "lon": 21.1679363}, {"type": "node", "id": 10829974007, "lat": 40.4976614, "lon": 21.1679652}, {"type": "node", "id": 10829974008, "lat": 40.4976739, "lon": 21.1680083}, {"type": "node", "id": 10829974009, "lat": 40.4976043, "lon": 21.168043}, {"type": "node", "id": 10829974010, "lat": 40.4976426, "lon": 21.1681757}, {"type": "node", "id": 11357600369, "lat": 40.5215623, "lon": 21.2708002, "tags": {"amenity": "restaurant", "cuisine": "regional;greek", "name": "\u0392\u03bf\u03c1\u039f\u03b9\u03bd\u03cc", "name:el": "\u0392\u03bf\u03c1\u039f\u03b9\u03bd\u03cc", "name:en": "Vorin\u00f3", "opening_hours": "Mo-Su 10:00-24:00", "phone": "+30 2467022440"}}, {"type": "node", "id": 11357950369, "lat": 40.5170351, "lon": 21.2713371, "tags": {"amenity": "cafe", "email": "ideesartcafe@gmail.com", "name": "Idees Art Cafe-Wine bar-Food & Shop", "outdoor_seating": "yes", "phone": "6932477374", "website": "https://www.facebook.com/ideesartcafe"}}, {"type": "node", "id": 12192533776, "lat": 40.4983602, "lon": 21.1680631, "tags": {"amenity": "restaurant", "cuisine": "pizza", "name": "TOSCANA PIZZA & BBQ", "opening_hours": "Mo-Su 16:00-24:00", "phone": "+30 6938324864", "website": "https://www.facebook.com/pizzaTOSCANAbbq", "website:menu": "https://toscanapdp3859.workadu.com/"}}, {"type": "node", "id": 12192551659, "lat": 40.5199985, "lon": 21.2577267, "tags": {"amenity": "cafe", "name": "Maestro caffe", "outdoor_seating": "yes"}}, {"type": "node", "id": 12192551660, "lat": 40.5197499, "lon": 21.2572185, "tags": {"amenity": "cafe", "name": "The Mall", "opening_hours": "24/7", "outdoor_seating": "yes"}}, {"type": "node", "id": 12192631538, "lat": 40.4151294, "lon": 21.0604547, "tags": {"amenity": "cafe", "cuisine": "coffee_shop", "name": "Cafe bar YIEBO", "outdoor_seating": "yes"}}, {"type": "node", "id": 12194867583, "lat": 40.5226133, "lon": 21.2652237, "tags": {"amenity": "cafe", "name": "#PORTO#"}}, {"type": "node", "id": 12194930134, "lat": 40.5182453, "lon": 20.9981325, "tags": {"amenity": "restaurant", "name": "\u039b\u03b5\u03bc\u03cc\u03bd\u03b9\u03b1"}}, {"type": "node", "id": 12194976063, "lat": 40.5242544, "lon": 21.4113372, "tags": {"amenity": "restaurant", "cuisine": "greek", "name": "\u0391\u03b3\u03ba\u03ac\u03bb\u03b7", "opening_hours": "Fr-Su 11:30-22:00", "phone": "6983770640"}}, {"type": "node", "id": 12198547868, "lat": 40.5163586, "lon": 21.0848117, "tags": {"amenity": "cafe", "name": "Booca cafe snack bar", "opening_hours": "Mo-Su 08:30-14:00", "outdoor_seating": "yes", "phone": "+30 6934057554"}}, {"type": "node", "id": 12198590788, "lat": 40.5199107, "lon": 21.2658983, "tags": {"amenity": "restaurant", "cuisine": "pizza", "name": "PIZZA BOX \u039a\u03b1\u03c3\u03c4\u03bf\u03c1\u03b9\u03ac", "phone": "2467027889", "website": "https://www.facebook.com/Pizza-Box-114435708577024/"}}, {"type": "node", "id": 12198590796, "lat": 40.5196896, "lon": 21.2667525, "tags": {"amenity": "cafe", "name": "\u039a\u03b1\u03c6\u03ad+"}}, {"type": "node", "id": 12204818835, "lat": 40.516014, "lon": 21.2662754, "tags": {"amenity": "restaurant", "cuisine": "greek", "name": "Miltos Restaurant"}}, {"type": "node", "id": 12204818836, "lat": 40.5168642, "lon": 21.266482, "tags": {"amenity": "restaurant", "cuisine": "pizza", "name": "Roma Pizza", "outdoor_seating": "yes", "phone": "+30 2467 022235", "website": "https://romapizza.gr/"}}, {"type": "node", "id": 12204818837, "lat": 40.5179296, "lon": 21.2657927, "tags": {"amenity": "cafe", "cuisine": "coffee_shop;sandwich;juice;tea;pizza", "name": "Estrella Kastoria", "opening_hours": "Mo-Su 09:00-23:00", "outdoor_seating": "yes", "phone": "2467029600", "website": "https://estrella.gr/el/"}}, {"type": "node", "id": 12204941077, "lat": 40.5323751, "lon": 21.2584846, "tags": {"amenity": "cafe", "cuisine": "coffee_shop", "name": "\u0396\u0391\u03a7\u0391\u03a1\u039f\u03a0\u039b\u0391\u03a3\u03a4\u0395\u0399\u039f - \u03a0\u0391\u03a0\u0391\u039d\u0394\u03a1\u0395\u039f\u03a5", "outdoor_seating": "yes", "phone": "2467022988"}}, {"type": "node", "id": 12204941094, "lat": 40.5347378, "lon": 21.2581761}, {"type": "node", "id": 12204941095, "lat": 40.5347095, "lon": 21.2582844}, {"type": "node", "id": 12204941096, "lat": 40.534659, "lon": 21.2582616}, {"type": "node", "id": 12204941097, "lat": 40.5346873, "lon": 21.2581533}, {"type": "node", "id": 12205076233, "lat": 40.4345539, "lon": 21.3317256, "tags": {"amenity": "cafe", "name": "\u039a\u03b1\u03c6\u03b5\u03bd\u03b5\u03af\u03bf \"\u03a4\u03bf \u03c0\u03b1\u03c1\u03b1\u03b4\u03bf\u03c3\u03b9\u03b1\u03ba\u03cc\"", "phone": "2467501822"}}, {"type": "node", "id": 12205076237, "lat": 40.4353297, "lon": 21.3313179, "tags": {"amenity": "restaurant", "cuisine": "pizza", "name": "Pizza Valentino", "phone": "2467073153"}}, {"type": "node", "id": 12205076238, "lat": 40.435938, "lon": 21.3316398, "tags": {"amenity": "restaurant", "cuisine": "greek", "name": "Tavern \u201cZisis\u201d"}}, {"type": "node", "id": 12208875271, "lat": 40.5152517, "lon": 21.2725517}, {"type": "node", "id": 12208875272, "lat": 40.5151909, "lon": 21.272582}, {"type": "node", "id": 12208875281, "lat": 40.5155267, "lon": 21.2716918}, {"type": "node", "id": 12208875282, "lat": 40.5154161, "lon": 21.2717705}, {"type": "node", "id": 12208875283, "lat": 40.5154773, "lon": 21.2719297}, {"type": "node", "id": 12208875284, "lat": 40.5155723, "lon": 21.2718202}, {"type": "node", "id": 12208875296, "lat": 40.5154269, "lon": 21.2750327, "tags": {"amenity": "cafe", "cuisine": "sandwich", "name": "\u03a4\u03b1\u03be\u03b5\u03b9\u03b4\u03b9\u03ac\u03c1\u03b7\u03c2 \u03b3\u03ac\u03c4\u03bf\u03c2", "outdoor_seating": "yes"}}, {"type": "node", "id": 12208966806, "lat": 40.5165785, "lon": 21.271154, "tags": {"amenity": "restaurant", "name": "\u039a\u03b1\u03bb\u03bd\u03c4\u03b5\u03c1\u03af\u03bc\u03b9"}}, {"type": "node", "id": 12208966807, "lat": 40.5166701, "lon": 21.2716107, "tags": {"amenity": "cafe", "name": "\u039c\u03c0\u03b9\u03b6 \u03bc\u03c0\u03b9\u03b6\u03ad", "outdoor_seating": "yes"}}, {"type": "node", "id": 12208966814, "lat": 40.5171962, "lon": 21.2687424, "tags": {"amenity": "restaurant", "name": "\u039c\u03ac\u03bd\u03c4\u03b6\u03b9\u03b1\u03c1\u03b7\u03c2", "phone": "2467025066", "website": "https://www.vrisko.gr/details/725b24cg7_db24b_cf_2b61113_003bf"}}, {"type": "node", "id": 12208966841, "lat": 40.5174912, "lon": 21.268198, "tags": {"amenity": "cafe", "name": "CAFE 108 \u03a1\u03cc\u03bd\u03c4\u03c3\u03b7\u03c2 \u039a\u03c5\u03c1\u03b9\u03ac\u03ba\u03bf\u03c2"}}, {"type": "node", "id": 12208966846, "lat": 40.5205774, "lon": 21.2678655, "tags": {"amenity": "cafe", "name": "Oasis"}}, {"type": "node", "id": 12208966875, "lat": 40.5223922, "lon": 21.2647998, "tags": {"amenity": "restaurant", "name": "\u039a\u03b1\u03c4\u03c3\u03b1\u03c1\u03cc\u03bb\u03b1", "phone": "2467021450"}}, {"type": "node", "id": 12208966876, "lat": 40.5227013, "lon": 21.2651395, "tags": {"amenity": "restaurant", "cuisine": "pizza", "name": "pizza zorbas"}}, {"type": "node", "id": 12208966881, "lat": 40.5234094, "lon": 21.2646973, "tags": {"amenity": "cafe", "cuisine": "coffee_shop", "name": "\u03a3\u03bf\u03c5\u03bb\u03ac\u03c4\u03c3\u03bf", "phone": "2467025030", "website:menu": "https://drive.google.com/file/d/1wHH_ecXE1p5eIgW-Zuf0HdKciZz8XT0E/view"}}, {"type": "node", "id": 12208966882, "lat": 40.5234809, "lon": 21.2646776, "tags": {"amenity": "restaurant", "name": "12 \u039c\u03ae\u03bd\u03b5\u03c2 \u03c3\u03c4\u03b7\u03bd \u03ba\u03bf\u03c5\u03b6\u03af\u03bd\u03b1"}}, {"type": "node", "id": 12208966884, "lat": 40.5247541, "lon": 21.2637241}, {"type": "node", "id": 12208966885, "lat": 40.5247707, "lon": 21.2638124}, {"type": "node", "id": 12208966886, "lat": 40.5246944, "lon": 21.2638383}, {"type": "node", "id": 12208966887, "lat": 40.5246729, "lon": 21.2637468}, {"type": "node", "id": 12209004033, "lat": 40.5072406, "lon": 21.2424796}, {"type": "node", "id": 12209004034, "lat": 40.5072168, "lon": 21.2426188}, {"type": "node", "id": 12209004035, "lat": 40.5074112, "lon": 21.2426824}, {"type": "node", "id": 12209004036, "lat": 40.5074295, "lon": 21.2425372}, {"type": "node", "id": 12209587231, "lat": 40.5225467, "lon": 21.2631541, "tags": {"amenity": "cafe", "bar": "yes", "name": "Abraam's Wines & Tales", "outdoor_seating": "yes"}}, {"type": "node", "id": 12209587232, "lat": 40.5226187, "lon": 21.2631192, "tags": {"amenity": "cafe", "name": "\u03a4\u03c1\u03b9\u03ce\u03bd \u039c\u03b7\u03bd\u03ce\u03bd \u039c\u03b1\u03bc\u03bf\u03cd\u03b8", "phone": "+30 2467021267", "website": "https://www.facebook.com/TrionMinonMamouth/"}}, {"type": "node", "id": 12209587235, "lat": 40.5223239, "lon": 21.2632439, "tags": {"amenity": "cafe", "cuisine": "coffee_shop", "name": "MOSAICO social house", "phone": "+30 2467 100002"}}, {"type": "node", "id": 12215935044, "lat": 40.5055076, "lon": 21.2852685}, {"type": "node", "id": 12215935045, "lat": 40.5054578, "lon": 21.2852731}, {"type": "node", "id": 12215935046, "lat": 40.5054683, "lon": 21.2854614}, {"type": "node", "id": 12215935047, "lat": 40.5055198, "lon": 21.2854672}, {"type": "node", "id": 12216054441, "lat": 40.5186191, "lon": 21.2547243, "tags": {"amenity": "restaurant", "cuisine": "steak_house", "name": "\u03a8\u03b7\u03c3\u03c4\u03ae\u03c1\u03b9", "phone": "+30 2467080595", "website": "https://www.thelosouvlakia.gr/delivery_%CE%9A%CE%B1%CF%83%CF%84%CE%BF%CF%81%CE%B9%CE%AC_%CE%9A%CE%B1%CF%83%CF%84%CE%BF%CF%81%CE%B9%CE%AC_%CE%A8%CE%97%CE%A3%CE%A4%CE%97%CE%A1%CE%99_v-2948-1,392.aspx"}}, {"type": "node", "id": 12216054460, "lat": 40.52168, "lon": 21.259132, "tags": {"amenity": "restaurant", "cuisine": "fish_and_chips", "email": "fishalidafnc@gmail.com", "name": "Fisha\u03bb\u03af\u03b4\u03b1 Fish&Chips", "phone": "+30 2467028255", "website": "https://www.facebook.com/FishalidaFnC/"}}, {"type": "node", "id": 12218392915, "lat": 40.5153413, "lon": 21.2526705, "tags": {"amenity": "restaurant", "cuisine": "steak_house", "name": "Koketa Fine Grill", "phone": "+30 2467306828", "website:menu": "https://drive.google.com/file/d/1iN5yxCwCPoNv50MGyuuhy2DnRE5pfYXN/view?usp=drive_link"}}, {"type": "node", "id": 12218975889, "lat": 40.5099609, "lon": 21.2530322, "tags": {"amenity": "restaurant", "cuisine": "greek", "name": "\u03a4\u03bf \u03a3\u03c4\u03ad\u03ba\u03b9 \u03c4\u03b7\u03c2 \u03a0\u03b1\u03c1\u03ad\u03b1\u03c2", "phone": "+30 2467082397"}}, {"type": "node", "id": 12218975890, "lat": 40.5119909, "lon": 21.2526712, "tags": {"amenity": "cafe", "contact:facebook": "https://m.facebook.com/100042398516206/", "cuisine": "coffee_shop", "name": "Sunday", "phone": "+30 2467505920"}}, {"type": "node", "id": 12218975895, "lat": 40.5169362, "lon": 21.2551466, "tags": {"addr:city": "\u039a\u03b1\u03c3\u03c4\u03bf\u03c1\u03b9\u03ac", "addr:housenumber": "30", "addr:postcode": "52100", "addr:street": "\u039a\u03cd\u03ba\u03bd\u03c9\u03bd", "amenity": "restaurant", "contact:facebook": "https://www.facebook.com/AllotinoKastoria/", "contact:instagram": "https://www.instagram.com/allotino_restaurant/", "email": "allotino@yahoo.gr", "name": "\u0391\u03bb\u03bb\u03bf\u03c4\u03b9\u03bd\u03cc", "phone": "+30 2467504404"}}, {"type": "node", "id": 12231733471, "lat": 40.5215101, "lon": 21.2639562, "tags": {"addr:city": "\u039a\u03b1\u03c3\u03c4\u03bf\u03c1\u03b9\u03ac", "addr:housenumber": "6", "addr:postcode": "52100", "addr:street": "\u0391\u03b3\u03af\u03bf\u03c5 \u0391\u03b8\u03b1\u03bd\u03b1\u03c3\u03af\u03bf\u03c5", "amenity": "cafe", "name": "\u039f \u0391\u03bd\u03b8\u03cc\u03c2", "outdoor_seating": "yes", "phone": "+30 2467 502971"}}, {"type": "node", "id": 12231733496, "lat": 40.5182763, "lon": 21.2653376, "tags": {"amenity": "cafe", "name": "\u039a\u03b1\u03c6\u03ad \u0391\u03bb\u03ad\u03b1", "phone": "+30 2467028401"}}, {"type": "node", "id": 12231733500, "lat": 40.5165921, "lon": 21.2665177, "tags": {"addr:city": "\u039a\u03b1\u03c3\u03c4\u03bf\u03c1\u03b9\u03ac", "addr:housenumber": "117", "addr:postcode": "52100", "addr:street": "\u039c\u03b5\u03b3\u03ac\u03bb\u03bf\u03c5 \u0391\u03bb\u03b5\u03be\u03ac\u03bd\u03b4\u03c1\u03bf\u03c5", "amenity": "cafe", "mobile": "+30 6940777177", "name": "Valeur Coffee & More", "opening_hours": "Mo-Su 10:00-24:00", "website": "https://www.e-food.gr/delivery/kastoria/valeur-coffee-kai-more-6499413"}}, {"type": "node", "id": 12231796823, "lat": 40.5153951, "lon": 21.2720927, "tags": {"addr:city": "\u039a\u03b1\u03c3\u03c4\u03bf\u03c1\u03b9\u03ac", "addr:housenumber": "53", "addr:postcode": "52100", "addr:street": "\u039f\u03c1\u03b5\u03c3\u03c4\u03b9\u03ac\u03b4\u03bf\u03c2", "amenity": "restaurant", "cuisine": "barbecue", "mobile": "+30 6980645426", "name": "\u039f \u039a\u03ac\u03c3\u03c4\u03bf\u03c1\u03b1\u03c2", "opening_hours": "Mo-Su 11:00-24:00"}}, {"type": "node", "id": 12231796826, "lat": 40.515805, "lon": 21.2738978}, {"type": "node", "id": 12231796827, "lat": 40.5157887, "lon": 21.2740118}, {"type": "node", "id": 12231796828, "lat": 40.5158764, "lon": 21.2740226}, {"type": "node", "id": 12231796829, "lat": 40.5158927, "lon": 21.2739287}, {"type": "node", "id": 12231796834, "lat": 40.5130736, "lon": 21.2498344, "tags": {"addr:city": "\u039a\u03b1\u03c3\u03c4\u03bf\u03c1\u03b9\u03ac", "addr:housenumber": "49", "addr:postcode": "52100", "addr:street": "\u039a\u03b1\u03c1\u03b1\u03bf\u03bb\u03ae", "amenity": "restaurant", "contact:facebook": "https://www.facebook.com/people/%CE%9F%CE%B9-%CE%BB%CE%B9%CF%87%CE%BF%CF%85%CE%B4%CE%B9%CE%AD%CF%82-%CF%84%CE%B7%CF%82-%CE%9F%CE%BB%CE%B3%CE%B1%CF%82/100057582304580/", "cuisine": "greek", "email": "olgakastoria1@gmail.com", "name": "\u039f\u03b9 \u03bb\u03b9\u03c7\u03bf\u03c5\u03b4\u03b9\u03ad\u03c2 \u03c4\u03b7\u03c2 \u038c\u03bb\u03b3\u03b1\u03c2", "opening_hours": "Mo-Sa 12:30-17:30", "phone": "+30 2467082843"}}, {"type": "node", "id": 12232659497, "lat": 40.5016778, "lon": 21.2465024, "tags": {"addr:city": "\u039c\u03b1\u03bd\u03b9\u03ac\u03ba\u03bf\u03b9", "addr:housenumber": "24", "addr:postcode": "52100", "addr:street": "\u03a6\u03b9\u03bb\u03af\u03c0\u03c0\u03bf\u03c5", "amenity": "restaurant", "cuisine": "coffee_shop", "name": "\u039a\u03b1\u03c6\u03b5\u03bd\u03b5\u03af\u03bf-\u039f\u03b2\u03b5\u03bb\u03b9\u03c3\u03c4\u03ae\u03c1\u03b9\u03bf \u03a4\u03b1 \u0396\u03b1\u03c7\u03bf\u03cd\u03bb\u03b9\u03b1", "opening_hours": "Mo-Su 12:00-24:00", "phone": "+30 2467080636"}}, {"type": "node", "id": 12232659498, "lat": 40.5016296, "lon": 21.2450886, "tags": {"addr:city": "\u039c\u03b1\u03bd\u03b9\u03ac\u03ba\u03bf\u03b9", "addr:housenumber": "3", "addr:postcode": "52100", "addr:street": "28\u03b7\u03c2 \u039f\u03ba\u03c4\u03c9\u03b2\u03c1\u03af\u03bf\u03c5", "amenity": "restaurant", "cuisine": "greek", "name": "\u0393\u03c5\u03c1\u03bf\u03bc\u03ac\u03bd\u03b9\u03b1", "phone": "+30 2467086698"}}, {"type": "node", "id": 12232659499, "lat": 40.5003515, "lon": 21.2441797, "tags": {"addr:city": "\u039c\u03b1\u03bd\u03b9\u03ac\u03ba\u03bf\u03b9", "addr:housenumber": "3", "addr:postcode": "52100", "addr:street": "\u03a6\u03b9\u03bb\u03af\u03c0\u03c0\u03bf\u03c5", "amenity": "restaurant", "cuisine": "pizza", "name": "\u03a0\u03af\u03c4\u03c3\u03b1 \u0391\u03c0\u03cc\u03bb\u03b1\u03c5\u03c3\u03b7", "opening_hours": "Mo-Su 12:00-24:00", "phone": "+30 2467083502"}}, {"type": "node", "id": 12232680405, "lat": 40.5011679, "lon": 21.2470864, "tags": {"addr:city": "\u039c\u03b1\u03bd\u03b9\u03ac\u03ba\u03bf\u03b9", "addr:housenumber": "21", "addr:postcode": "52100", "addr:street": "\u039c\u03b5\u03b3\u03ac\u03bb\u03bf\u03c5 \u0391\u03bb\u03b5\u03be\u03ac\u03bd\u03b4\u03c1\u03bf\u03c5", "amenity": "cafe", "name": "KAFE SNACK BILLIS"}}, {"type": "node", "id": 12232680407, "lat": 40.5008654, "lon": 21.2489216, "tags": {"addr:city": "\u039c\u03b1\u03bd\u03b9\u03ac\u03ba\u03bf\u03b9", "addr:housenumber": "10", "addr:postcode": "52100", "addr:street": "\u03a4\u03c3\u03b1\u03ba\u03ac\u03bb\u03c9\u03c6", "amenity": "restaurant", "cuisine": "seafood", "name": "\u0391\u03bd\u03c4\u03c9\u03bd\u03af\u03bf\u03c5 \u03a8\u03b1\u03c1\u03bf\u03c4\u03b1\u03b2\u03ad\u03c1\u03bd\u03b1", "phone": "+30 2467080022"}}, {"type": "node", "id": 12232680408, "lat": 40.5018435, "lon": 21.2480663, "tags": {"addr:city": "\u039c\u03b1\u03bd\u03b9\u03ac\u03ba\u03bf\u03b9", "addr:housenumber": "5", "addr:postcode": "52100", "addr:street": "\u0391\u03c6\u03c9\u03bd \u0395\u03bc\u03bc\u03b1\u03bd\u03bf\u03c5\u03ae\u03bb", "amenity": "cafe", "cuisine": "coffee_shop", "name": "GaLLERY - All Day Cafe + Bar", "phone": "+30 2467082221", "website": "https://www.cafegallery.gr/"}}, {"type": "node", "id": 12232680414, "lat": 40.4973584, "lon": 21.2423011, "tags": {"addr:city": "\u039c\u03b1\u03bd\u03b9\u03ac\u03ba\u03bf\u03b9", "addr:housenumber": "8", "addr:postcode": "52100", "addr:street": "\u0391\u03bd\u03c4\u03b9\u03b3\u03cc\u03bd\u03bf\u03c5", "amenity": "restaurant", "name": "\u039a\u03a5\u03a1\u0399\u0391\u039a\u039f\u03a0\u039f\u03a5\u039b\u039f\u03a3 \u0399\u03a9\u0391\u039d\u039d\u0397\u03a3", "opening_hours": "Mo-Su 10:00-24:00", "phone": "+30 2467086934"}}, {"type": "node", "id": 12237751074, "lat": 40.519971, "lon": 21.2576447, "tags": {"amenity": "cafe", "bar": "yes", "name": "Envy", "outdoor_seating": "yes"}}, {"type": "node", "id": 12237751099, "lat": 40.4812061, "lon": 21.2884149}, {"type": "node", "id": 12237751100, "lat": 40.4811446, "lon": 21.2885099}, {"type": "node", "id": 12237751101, "lat": 40.481064, "lon": 21.288405}, {"type": "node", "id": 12237751102, "lat": 40.481128, "lon": 21.2883111}, {"type": "node", "id": 12237751103, "lat": 40.4812643, "lon": 21.2887666, "tags": {"amenity": "cafe", "cuisine": "coffee_shop", "name": "Cafe-take away"}}, {"type": "node", "id": 12237751104, "lat": 40.4811571, "lon": 21.2890801, "tags": {"amenity": "cafe", "contact:facebook": "https://www.facebook.com/equal.bakery/", "email": "equal.bkr@gmail.com", "name": "EQUAL COFFEE - BAKERY", "phone": "+30 2467085400"}}, {"type": "node", "id": 12254856763, "lat": 40.5002064, "lon": 21.1644358, "tags": {"amenity": "restaurant", "cuisine": "regional", "name": "\u039b\u03b9\u03c7\u03bf\u03c5\u03b4\u03b9\u03ad\u03c2 \u039d\u03b9\u03ba\u03ac\u03ba\u03b7\u03c2", "outdoor_seating": "yes", "phone": "+30 2467 061111"}}, {"type": "node", "id": 12254856790, "lat": 40.5020196, "lon": 21.1614609, "tags": {"amenity": "cafe", "cuisine": "coffee_shop", "name": "CoffeeLand", "opening_hours": "Mo-Su 05:30-23:30", "outdoor_seating": "yes", "phone": "+30 2467 062131"}}, {"type": "node", "id": 12254856791, "lat": 40.5030225, "lon": 21.1612959, "tags": {"amenity": "restaurant", "contact:facebook": "https://www.facebook.com/people/Mr-Gyros/100063543363488/", "cuisine": "greek", "name": "Mr Gyros", "phone": "+30 2467061198"}}, {"type": "node", "id": 12254856792, "lat": 40.502927, "lon": 21.1606336, "tags": {"amenity": "cafe", "contact:facebook": "https://www.facebook.com/coffee.power.mesopotamia", "cuisine": "coffee_shop", "name": "Coffee Power", "opening_hours": "Mo-Su 06:00-22:00", "outdoor_seating": "yes", "phone": "+30 2467 061100"}}, {"type": "node", "id": 12254881903, "lat": 40.5031358, "lon": 21.1607361, "tags": {"amenity": "restaurant", "contact:facebook": "https://www.facebook.com/groups/206714909980?_rdr", "cuisine": "pizza", "name": "Elite", "opening_hours": "Mo-Su 16:00-24:00", "phone": "+30 2467 061203"}}, {"type": "node", "id": 12270462909, "lat": 40.4862628, "lon": 21.1335436}, {"type": "node", "id": 12270462910, "lat": 40.4862525, "lon": 21.1336917}, {"type": "node", "id": 12270462911, "lat": 40.486178, "lon": 21.1336829}, {"type": "node", "id": 12270462912, "lat": 40.4861877, "lon": 21.1335364}, {"type": "node", "id": 12466618877, "lat": 40.1087347, "lon": 21.4591205, "tags": {"amenity": "cafe", "highway": "services", "name": "\u03a0\u03af\u03bd\u03b4\u03bf\u03c2 \u03ba\u03b1\u03c6\u03ad \u03c3\u03bd\u03b1\u03ba", "name:el": "\u03a0\u03af\u03bd\u03b4\u03bf\u03c2 \u03ba\u03b1\u03c6\u03ad \u03c3\u03bd\u03b1\u03ba", "name:en": "Pindos cafe snack", "outdoor_seating": "yes", "phone": "2462081511", "takeaway": "yes", "toilets": "yes"}}, {"type": "node", "id": 12635215177, "lat": 40.5236569, "lon": 21.2645833, "tags": {"addr:city": "\u039a\u03b1\u03c3\u03c4\u03bf\u03c1\u03b9\u03ac", "addr:postcode": "52100", "addr:street": "\u0398\u03c9\u03bc\u03b1\u0390\u03b4\u03bf\u03c2 \u039b\u03b9\u03bc\u03c0\u03ac\u03bd\u03b9\u03b1\u03c2 - \u039c\u03ac\u03bd\u03bf\u03c5", "amenity": "cafe", "internet_access": "yes", "internet_access:fee": "no", "name": "\u039b\u03b5 \u039a\u03b1\u03c6\u03b5\u03bd\u03b5", "outdoor_seating": "yes"}}, {"type": "node", "id": 12801739781, "lat": 40.1790949, "lon": 21.4773451, "tags": {"amenity": "cafe"}}, {"type": "node", "id": 12818895854, "lat": 40.3125208, "lon": 21.3876891, "tags": {"amenity": "cafe"}}, {"type": "node", "id": 12882733159, "lat": 40.5043161, "lon": 21.2379019, "tags": {"amenity": "restaurant", "contact:facebook": "https://www.facebook.com/ousieski/", "email": "I.totonidis@gmail.com", "name": "\u039f\u03c5\u03c3\u03af\u03b5\u03c2 \u03ba\u03b9...", "operator": "\u03a4\u03bf\u03c4\u03bf\u03bd\u03af\u03b4\u03b7 \u03a1\u03ad\u03bd\u03b1", "phone": "+30 2467080743"}}, {"type": "node", "id": 12883865593, "lat": 40.434053, "lon": 21.4987874, "tags": {"amenity": "cafe", "outdoor_seating": "yes"}}, {"type": "node", "id": 12887026778, "lat": 40.458917, "lon": 21.2630657, "tags": {"amenity": "cafe", "name": "Cr\u00e9ma", "outdoor_seating": "yes"}}, {"type": "node", "id": 12887026786, "lat": 40.5352237, "lon": 21.4694198, "tags": {"amenity": "restaurant", "outdoor_seating": "yes"}}, {"type": "node", "id": 12887026787, "lat": 40.5354458, "lon": 21.4682689, "tags": {"amenity": "cafe", "bar": "no", "name": "La Cali", "outdoor_seating": "yes"}}, {"type": "node", "id": 12887073333, "lat": 40.5354613, "lon": 21.4684458, "tags": {"amenity": "cafe", "outdoor_seating": "yes"}}, {"type": "node", "id": 12887073335, "lat": 40.534904, "lon": 21.4692259, "tags": {"amenity": "cafe", "outdoor_seating": "yes"}}, {"type": "node", "id": 12888241863, "lat": 40.5053378, "lon": 21.1572236, "tags": {"amenity": "cafe", "outdoor_seating": "yes"}}, {"type": "node", "id": 12888241898, "lat": 40.4878593, "lon": 21.190338, "tags": {"amenity": "cafe", "bar": "yes", "outdoor_seating": "yes"}}, {"type": "node", "id": 12888241899, "lat": 40.5048465, "lon": 21.1572997, "tags": {"amenity": "cafe", "name": "\u03a4\u03bf \u03a0\u03b1\u03bd\u03b5\u03c0\u03b9\u03c3\u03c4\u03b7\u03bc\u03b9\u03bf", "outdoor_seating": "yes"}}, {"type": "node", "id": 12888253313, "lat": 40.5034288, "lon": 21.1598825, "tags": {"amenity": "cafe", "name": "\u0388\u03bb\u03b1 \u0391\u03b4\u03b1\u03ba\u03b1", "outdoor_seating": "yes"}}, {"type": "node", "id": 12888280473, "lat": 40.5252987, "lon": 21.1203659, "tags": {"amenity": "cafe", "bar": "yes", "outdoor_seating": "yes"}}, {"type": "node", "id": 12905234020, "lat": 40.5048698, "lon": 21.2410016, "tags": {"amenity": "cafe", "internet_access": "wlan", "name": "Delice", "outdoor_seating": "yes", "wheelchair": "no"}}, {"type": "node", "id": 12905342709, "lat": 40.5166359, "lon": 21.2550188, "tags": {"amenity": "cafe", "name": "Bruno", "outdoor_seating": "yes"}}, {"type": "node", "id": 12905342711, "lat": 40.5049787, "lon": 21.2425815, "tags": {"amenity": "cafe", "bar": "yes", "name": "\u0397 \u0386\u03bd\u03bd\u03b1", "wheelchair": "no"}}, {"type": "node", "id": 12905342712, "lat": 40.5179266, "lon": 21.2556664, "tags": {"amenity": "cafe", "name": "De-Tox", "outdoor_seating": "yes"}}, {"type": "node", "id": 12907900369, "lat": 40.5170524, "lon": 21.2534925, "tags": {"amenity": "cafe", "name": "I Love Cafe", "takeaway": "only"}}, {"type": "node", "id": 12907900396, "lat": 40.5212652, "lon": 21.2591411, "tags": {"amenity": "restaurant", "name": "\u03a4\u03b5\u03c6\u03b1\u03c1\u03af\u03ba\u03b9", "outdoor_seating": "yes"}}, {"type": "way", "id": 255706301, "nodes": [2613763931, 2613763949, 2613763942, 2613763924, 2613763931], "tags": {"amenity": "restaurant", "building": "yes", "cuisine": "greek", "name": "\u0393\u03b1\u03ca\u03c4\u03ac\u03bd\u03b7\u03c2 Meat House", "opening_hours": "Mo-Su 13:00-23:00", "phone": "6989882500", "website": "https://www.facebook.com/gaitanismeat/"}}, {"type": "way", "id": 262593654, "nodes": [8164847486, 2682477889, 2682477888, 2682477887, 2682477886, 2682477885, 2682477883, 2682477882, 2682477881, 2682477880, 8164847480, 8164847481, 8164847482, 8164847483, 8164847484, 8164847485, 8164847486], "tags": {"amenity": "restaurant", "building": "yes"}}, {"type": "way", "id": 298579649, "nodes": [3024696380, 3024696381, 3024696382, 3024696383, 3024696380], "tags": {"addr:city": "\u039a\u03bf\u03c1\u03bf\u03bc\u03b7\u03bb\u03b9\u03ac \u039a\u03b1\u03c3\u03c4\u03bf\u03c1\u03b9\u03ac\u03c2", "amenity": "cafe", "building": "yes", "internet_access": "no", "name": "\u039a\u03b1\u03c6\u03ad \u039b\u03b5\u03bf\u03cd"}}, {"type": "way", "id": 374658476, "nodes": [3780508957, 3780508958, 3780508959, 12208875271, 12208875272, 3780508960, 3780508957], "tags": {"amenity": "cafe", "building": "yes", "cuisine": "ice_cream", "name": "\u0394\u03b7\u03bc\u03bf\u03c4\u03b9\u03ba\u03cc \u0391\u03bd\u03b1\u03c8\u03c5\u03ba\u03c4\u03ae\u03c1\u03b9\u03bf"}}, {"type": "way", "id": 378228593, "nodes": [3816335453, 3816335454, 3816335455, 3816335456, 3816335457, 3816335458, 3816335453], "tags": {"amenity": "cafe", "building": "yes", "name": "\u039a\u03b1\u03c6\u03b5\u03bd\u03b5\u03af\u03bf"}}, {"type": "way", "id": 381225051, "nodes": [3844610041, 3844610042, 3844610043, 3844610044, 3844610041], "tags": {"addr:city": "\u039a\u03b1\u03c3\u03c4\u03bf\u03c1\u03b9\u03ac", "addr:housenumber": "63", "addr:postcode": "52100", "addr:street": "\u039c\u03b5\u03b3\u03ac\u03bb\u03bf\u03c5 \u0391\u03bb\u03b5\u03be\u03ac\u03bd\u03b4\u03c1\u03bf\u03c5", "amenity": "cafe", "bar": "yes", "building": "house", "building:levels": "2", "name": "63", "opening_hours": "Mo-Su 10:00-24:00", "outdoor_seating": "yes", "phone": "+30 697 400 9032", "website": "https://www.facebook.com/63-cafe-bar-226320407735673/"}}, {"type": "way", "id": 384898095, "nodes": [3882540888, 3882540889, 3882540890, 3882540891, 3882540888], "tags": {"addr:city": "\u039a\u03b1\u03c3\u03c4\u03bf\u03c1\u03b9\u03ac", "addr:housenumber": "101", "addr:postcode": "52100", "addr:street": "\u039c\u03b5\u03b3\u03ac\u03bb\u03bf\u03c5 \u0391\u03bb\u03b5\u03be\u03ac\u03bd\u03b4\u03c1\u03bf\u03c5", "amenity": "restaurant", "building": "retail", "building:levels": "2", "cuisine": "greek;seafood", "name": "\u0391\u03b3\u03ba\u03af\u03c3\u03c4\u03c1\u03b9", "phone": "2467029747"}}, {"type": "way", "id": 455517574, "nodes": [4519155161, 4519155162, 4519155163, 4519155164, 4519155161], "tags": {"amenity": "restaurant", "building": "yes", "name": "\u0397 \u039a\u03bf\u03c1\u03c5\u03c6\u03ae"}}, {"type": "way", "id": 972785585, "nodes": [9003330911, 9003330908, 9003330895, 9003330903, 9003330898, 9003330899, 9003330911], "tags": {"amenity": "cafe", "building": "yes", "name": "\u03a0\u03ad\u03c1\u03b1\u03c3\u03bc\u03b1"}}, {"type": "way", "id": 972787089, "nodes": [9003358134, 9003358135, 9003358136, 9003358139, 9003358134], "tags": {"amenity": "cafe", "building": "yes"}}, {"type": "way", "id": 973532232, "nodes": [9010200775, 9010238224, 9010200791, 9010238235, 9010200775], "tags": {"amenity": "restaurant", "building": "yes", "internet_access": "wlan", "outdoor_seating": "yes"}}, {"type": "way", "id": 973577033, "nodes": [9010608351, 9010608360, 9010608352, 9010608357, 9010608351], "tags": {"amenity": "restaurant"}}, {"type": "way", "id": 974116764, "nodes": [9015218176, 9015218186, 9015218241, 9015218254, 9015218176], "tags": {"amenity": "cafe", "name": "\u03a4\u03c3\u03cc\u03c4\u03c3\u03b1\u03c2"}}, {"type": "way", "id": 974116767, "nodes": [9015218204, 9015218230, 9015218183, 9015218210, 9015218204], "tags": {"amenity": "restaurant", "name": "\u03a4\u03bf \u03c9\u03c1\u03b1\u03af\u03bf \u0394\u03bf\u03c4\u03c3\u03b9\u03ba\u03cc"}}, {"type": "way", "id": 974116774, "nodes": [9015218260, 9015218193, 9015218191, 9015218173, 9015218260], "tags": {"amenity": "cafe", "name": "\u03a0\u03bb\u03ac\u03c4\u03b1\u03bd\u03bf\u03c2"}}, {"type": "way", "id": 974201313, "nodes": [9016005497, 9016005466, 9016005474, 9016005471, 9016005497], "tags": {"amenity": "restaurant"}}, {"type": "way", "id": 974404223, "nodes": [9017820550, 9017820553, 9017820549, 9017820552, 9017820550], "tags": {"amenity": "restaurant", "name": "\u039c\u03b9\u03ba\u03c1\u03cc \u03a0\u03b1\u03c1\u03af\u03c3\u03b9"}}, {"type": "way", "id": 974925416, "nodes": [9022191020, 9022191023, 9022191028, 9022191021, 9022191020], "tags": {"amenity": "cafe", "name": "\u039a\u03b1\u03c6\u03b5\u03bd\u03b5\u03af\u03bf \u039c\u03cc\u03c1\u03c6\u03b7\u03c2"}}, {"type": "way", "id": 974926140, "nodes": [9022176838, 9022176833, 9022176841, 9022176837, 9022176838], "tags": {"amenity": "cafe", "name": "\u039a\u03b1\u03c6\u03b5\u03bd\u03b5\u03af\u03bf"}}, {"type": "way", "id": 975884902, "nodes": [9031030997, 9031030999, 9031030993, 9031030998, 9031030997], "tags": {"amenity": "cafe"}}, {"type": "way", "id": 987901408, "nodes": [9131301225, 9131301226, 9131301227, 9131301228, 9131301229, 9131301230, 9131301231, 9131301232, 9131301225], "tags": {"amenity": "cafe", "building": "yes", "name": "\u03a0\u03c1\u03bf\u03c6\u03ae\u03c4\u03b7\u03c2 \u0397\u03bb\u03af\u03b1\u03c2 Lounge Cafe"}}, {"type": "way", "id": 1107118828, "nodes": [10130518523, 2661679183, 10130518524, 10130518525, 10130518538, 10130518526, 10130518527, 2661679182, 10130518528, 10130518529, 10130518530, 10130518531, 10130518532, 10130518533, 10130518534, 10130518523], "tags": {"amenity": "restaurant", "building": "yes", "contact:facebook": "https://el-gr.facebook.com/people/Milopetra-Limneos-Oikismos-Dispilio/100054404953639/", "cuisine": "greek", "name": "\u039c\u03c5\u03bb\u03cc\u03c0\u03b5\u03c4\u03c1\u03b1", "phone": "+30 2467085404"}}, {"type": "way", "id": 1164475531, "nodes": [10829974005, 10829974006, 10829974007, 10829974008, 10829974009, 10829974010, 10829974005], "tags": {"amenity": "cafe", "building": "yes", "name": "Velvet Coffee Bar", "outdoor_seating": "yes", "source": "microsoft/BuildingFootprints"}}, {"type": "way", "id": 1318782696, "nodes": [12204941094, 12204941095, 12204941096, 12204941097, 12204941094], "tags": {"amenity": "cafe", "bar": "no", "building": "yes", "cuisine": "coffee_shop", "indoor_seating": "no", "name": "De-Tox Cafe", "outdoor_seating": "yes", "phone": "+30 2467 022056", "takeaway": "only", "wheelchair": "yes"}}, {"type": "way", "id": 1319251087, "nodes": [12208875281, 12208875282, 12208875283, 12208875284, 12208875281], "tags": {"amenity": "restaurant", "building": "yes", "cuisine": "greek", "name": "\u03a0\u03b1\u03bb\u03b9\u03ac \u03a0\u03cc\u03bb\u03b7 (\u03a0\u03b1\u03c1\u03b1\u03b4\u03bf\u03c3\u03b9\u03b1\u03ba\u03cc \u03b5\u03c3\u03c4\u03b9\u03b1\u03c4\u03cc\u03c1\u03b9\u03bf)", "phone": "2467021401", "website": "https://paliapoli.webnode.gr/"}}, {"type": "way", "id": 1319251096, "nodes": [12208966884, 12208966885, 12208966886, 12208966887, 12208966884], "tags": {"amenity": "restaurant", "building": "yes", "name": "\u039a\u03c1\u03ac\u03c4\u03b5\u03c1\u03b3\u03bf", "phone": "2467029981"}}, {"type": "way", "id": 1319257603, "nodes": [12209004033, 12209004034, 12209004035, 12209004036, 12209004033], "tags": {"amenity": "restaurant", "building": "yes", "cuisine": "greek", "name": "\u0395\u03c3\u03c4\u03b9\u03b1\u03c4\u03cc\u03c1\u03b9\u03bf \u03a0\u03b1\u03bd\u03b5\u03c0\u03b9\u03c3\u03c4\u03b7\u03bc\u03af\u03bf\u03c5 \u039a\u03b1\u03c3\u03c4\u03bf\u03c1\u03b9\u03ac\u03c2"}}, {"type": "way", "id": 1320083145, "nodes": [12215935044, 12215935045, 12215935046, 12215935047, 12215935044], "tags": {"amenity": "cafe", "building": "yes", "name": "Revel Coffee & More", "opening_hours": "Mo-Su 09:00-24:00", "outdoor_seating": "yes", "phone": "+30 6986249453", "website": "https://revel.gr/"}}, {"type": "way", "id": 1321839636, "nodes": [12231796826, 12231796827, 12231796828, 12231796829, 12231796826], "tags": {"addr:city": "\u039a\u03b1\u03c3\u03c4\u03bf\u03c1\u03b9\u03ac", "addr:housenumber": "79", "addr:postcode": "52100", "addr:street": "\u039f\u03c1\u03b5\u03c3\u03c4\u03b9\u03ac\u03b4\u03bf\u03c2", "amenity": "restaurant", "building": "yes", "name": "\u03a7\u03bf\u03c5\u03c3\u03bc\u03ad\u03c4\u03b9", "phone": "+30 2467022933"}}, {"type": "way", "id": 1322511556, "nodes": [12237751099, 12237751100, 12237751101, 12237751102, 12237751099], "tags": {"amenity": "restaurant", "building": "yes", "cuisine": "steak_house", "name": "\u03a7\u03bf\u03b9\u03c1\u03cc\u03c6\u03c1\u03b5\u03bd\u03bf", "phone": "+30 2467085665"}}, {"type": "way", "id": 1326193000, "nodes": [12270462909, 12270462910, 12270462911, 12270462912, 12270462909], "tags": {"amenity": "cafe", "building": "yes", "name": "\u039a\u03b1\u03c6\u03b5\u03bd\u03b5\u03af\u03bf"}}]}