{"version": 0.6, "generator": "Overpass API 0.7.62.7 375dc00a", "osm3s": {"timestamp_osm_base": "2025-06-14T14:43:30Z", "copyright": "The data included in this document is from www.openstreetmap.org. The data is made available under ODbL."}, "elements": [{"type": "node", "id": 331580981, "lat": 41.6843987, "lon": 23.826466, "tags": {"amenity": "restaurant", "cuisine": "regional", "name": "\u041c\u0435\u0445\u0430\u043d\u0430 \"\u0421\u0438\u043d\u0438\u044f\u0442 \u0432\u0438\u0440\""}}, {"type": "node", "id": 331852719, "lat": 41.4463736, "lon": 23.4351997, "tags": {"amenity": "restaurant", "cuisine": "regional"}}, {"type": "node", "id": 331853308, "lat": 41.4442237, "lon": 23.4290751, "tags": {"amenity": "restaurant", "cuisine": "regional", "tourism": "hotel"}}, {"type": "node", "id": 338862337, "lat": 41.8370795, "lon": 23.4882432, "tags": {"amenity": "restaurant", "cuisine": "regional", "name": "\u041a\u0430\u043d\u0447\u0435\u0442\u043e", "name:en": "Kancheto", "wheelchair": "no"}}, {"type": "node", "id": 913448086, "lat": 41.7842598, "lon": 23.5556962, "tags": {"amenity": "restaurant", "cuisine": "fish_and_chips", "name": "\u0420\u0438\u0431\u0430\u0440\u043d\u0438\u043a\u0430"}}, {"type": "node", "id": 1314545012, "lat": 41.8381474, "lon": 23.4891148, "tags": {"addr:city": "\u0411\u0430\u043d\u0441\u043a\u043e", "addr:postcode": "2770", "addr:street": "\u041f\u043b\u043e\u0449\u0430\u0434 \u0414\u0435\u043c\u043e\u043a\u0440\u0430\u0446\u0438\u044f", "amenity": "cafe", "name": "Eliz", "wheelchair": "no"}}, {"type": "node", "id": 1314635048, "lat": 41.8377517, "lon": 23.4895771, "tags": {"amenity": "cafe"}}, {"type": "node", "id": 1314635050, "lat": 41.8379891, "lon": 23.4893246, "tags": {"amenity": "cafe", "indoor_seating": "yes", "name": "\u0414\u0435\u0434\u043e \u041a\u043e\u0446\u0435", "outdoor_seating": "yes"}}, {"type": "node", "id": 1314635076, "lat": 41.8368426, "lon": 23.490793, "tags": {"amenity": "cafe", "name": "\u041d\u041e\u0412\u0410"}}, {"type": "node", "id": 1933573313, "lat": 41.5769108, "lon": 23.7714422, "tags": {"amenity": "restaurant"}}, {"type": "node", "id": 2126912990, "lat": 41.5233613, "lon": 23.3970625, "tags": {"amenity": "restaurant", "wheelchair": "no"}}, {"type": "node", "id": 2134271271, "lat": 41.835274, "lon": 23.4875019, "tags": {"amenity": "restaurant", "name": "Dedo Pene", "tourism": "hotel"}}, {"type": "node", "id": 2134311539, "lat": 41.8212227, "lon": 23.5666576, "tags": {"amenity": "cafe"}}, {"type": "node", "id": 2775119929, "lat": 41.819402, "lon": 23.5648003, "tags": {"addr:city": "\u0414\u043e\u0431\u0440\u0438\u043d\u0438\u0449\u0435", "addr:housenumber": "9", "addr:street": "\u041f\u0438\u0440\u0438\u043d", "amenity": "restaurant", "capacity": "20", "name": "\u041c\u0435\u0445\u0430\u043d\u0430 \u041f\u0438\u0440\u0438\u043d", "smoking": "outside"}}, {"type": "node", "id": 2812916016, "lat": 41.6310271, "lon": 23.4961775, "tags": {"amenity": "restaurant"}}, {"type": "node", "id": 2812929176, "lat": 41.6147539, "lon": 23.5380933, "tags": {"amenity": "restaurant"}}, {"type": "node", "id": 2840120497, "lat": 41.8219669, "lon": 23.5660311, "tags": {"amenity": "restaurant", "name": "\u041c\u0435\u0445\u0430\u043d\u0430 \"\u041c\u0430\u043a\u0435\u0434\u043e\u043d\u0441\u043a\u0430 \u043a\u0440\u044a\u0447\u043c\u0430\"", "name:en": "Makedonska krachma", "outdoor_seating": "yes"}}, {"type": "node", "id": 2842883734, "lat": 41.6370406, "lon": 23.8286359}, {"type": "node", "id": 2842883747, "lat": 41.6371011, "lon": 23.8287277}, {"type": "node", "id": 2842883756, "lat": 41.6371437, "lon": 23.8285144}, {"type": "node", "id": 2842883772, "lat": 41.6372042, "lon": 23.8286062}, {"type": "node", "id": 3021913113, "lat": 41.5786236, "lon": 23.7606271}, {"type": "node", "id": 3021913114, "lat": 41.5786124, "lon": 23.7609527}, {"type": "node", "id": 3021913115, "lat": 41.5784957, "lon": 23.7609455}, {"type": "node", "id": 3021913116, "lat": 41.5785019, "lon": 23.7607679}, {"type": "node", "id": 3021913117, "lat": 41.5783513, "lon": 23.7607586}, {"type": "node", "id": 3021913118, "lat": 41.5783531, "lon": 23.7607054}, {"type": "node", "id": 3021913119, "lat": 41.5782867, "lon": 23.7607013}, {"type": "node", "id": 3021913120, "lat": 41.5782899, "lon": 23.7606065}, {"type": "node", "id": 3100698616, "lat": 41.8310459, "lon": 23.4816154, "tags": {"amenity": "restaurant", "cuisine": "regional", "name": "\u0414\u0435\u0434\u043e \u0419\u043e\u043d\u043a\u0430\u0442\u0430"}}, {"type": "node", "id": 3100703974, "lat": 41.8316044, "lon": 23.4807538, "tags": {"amenity": "restaurant", "indoor_seating": "yes", "name": "\u0412\u0430\u043b\u0435\u0432\u0438\u0446\u0430\u0442\u0430", "outdoor_seating": "garden"}}, {"type": "node", "id": 3506385237, "lat": 41.6174009, "lon": 23.7952407, "tags": {"amenity": "restaurant", "cuisine": "regional", "name": "\u041f\u0435\u0442\u0440\u0430\u043b\u0438\u0439\u0441\u043a\u0438"}}, {"type": "node", "id": 3506385238, "lat": 41.6175664, "lon": 23.7952196, "tags": {"amenity": "restaurant", "cuisine": "regional", "name": "\u0412\u0438\u043b\u0430 \u0440\u0430\u0439", "opening_hours": "09:00-24:00", "wheelchair": "limited"}}, {"type": "node", "id": 3506848917, "lat": 41.6852557, "lon": 23.8271712, "tags": {"amenity": "restaurant", "cuisine": "regional", "name": "\u0411\u0440\u0430\u0442\u044f\u0442\u0430"}}, {"type": "node", "id": 3506948154, "lat": 41.6128771, "lon": 23.794754}, {"type": "node", "id": 3506948155, "lat": 41.6128872, "lon": 23.7946992}, {"type": "node", "id": 3506948156, "lat": 41.6128868, "lon": 23.7947866}, {"type": "node", "id": 3506948157, "lat": 41.6129075, "lon": 23.7948098}, {"type": "node", "id": 3506948158, "lat": 41.6129294, "lon": 23.7946686}, {"type": "node", "id": 3506948159, "lat": 41.6129524, "lon": 23.7946786}, {"type": "node", "id": 3506948160, "lat": 41.6129344, "lon": 23.7948097}, {"type": "node", "id": 3506948161, "lat": 41.6129712, "lon": 23.7947493}, {"type": "node", "id": 3508029075, "lat": 41.6143258, "lon": 23.790719, "tags": {"amenity": "restaurant", "cuisine": "regional", "name": "\u0410\u043b\u0435\u043a\u0441\u043e\u0432\u0430 \u043a\u044a\u0449\u0430"}}, {"type": "node", "id": 3508937388, "lat": 41.572719, "lon": 23.7291692, "tags": {"amenity": "restaurant", "cuisine": "regional", "name": "Ctapo Bype"}}, {"type": "node", "id": 3508977483, "lat": 41.6128244, "lon": 23.7947281}, {"type": "node", "id": 3508977484, "lat": 41.6128307, "lon": 23.794694}, {"type": "node", "id": 3508977485, "lat": 41.6128679, "lon": 23.7947404}, {"type": "node", "id": 3508977486, "lat": 41.6128743, "lon": 23.7947068}, {"type": "node", "id": 3508977487, "lat": 41.6129032, "lon": 23.7946803}, {"type": "node", "id": 3508977489, "lat": 41.6129679, "lon": 23.7947114}, {"type": "node", "id": 3514811111, "lat": 41.6126196, "lon": 23.7918145, "tags": {"addr:city": "\u041e\u0433\u043d\u044f\u043d\u043e\u0432\u043e", "addr:housenumber": "35", "addr:postcode": "2947", "addr:street": "\u0418\u0432\u0430\u043d \u0412\u0430\u0437\u043e\u0432", "amenity": "restaurant", "capacity": "100", "cuisine": "regional", "delivery": "no", "name": "Sharkov's Restaurant", "opening_hours": "07:30-24:00", "smoking": "outside", "takeaway": "yes"}}, {"type": "node", "id": 3700995548, "lat": 41.8295103, "lon": 23.4834001, "tags": {"amenity": "restaurant", "name": "El Torito"}}, {"type": "node", "id": 4022150512, "lat": 41.5736976, "lon": 23.7361473, "tags": {"amenity": "restaurant", "name": "\u0420\u0435\u0441\u0442\u043e\u0440\u0430\u043d\u0442 \u041e\u0440\u0431\u0435\u043b"}}, {"type": "node", "id": 4022216324, "lat": 41.5694505, "lon": 23.729278, "tags": {"amenity": "restaurant"}}, {"type": "node", "id": 4048161116, "lat": 41.5702774, "lon": 23.7263987, "tags": {"addr:city": "\u0413\u043e\u0446\u0435 \u0414\u0435\u043b\u0447\u0435\u0432", "addr:housenumber": "13", "addr:street": "\u0410\u043b\u0435\u043a\u0441\u0430\u043d\u0434\u044a\u0440 \u0421\u0442\u0430\u043c\u0431\u043e\u043b\u0438\u0439\u0441\u043a\u0438", "amenity": "restaurant", "name": "\u0411\u0430\u0440-\u0420\u0435\u0441\u0442\u043e\u0440\u0430\u043d\u0442 \u0424\u043b\u0430\u043c\u0438\u043d\u0433\u043e"}}, {"type": "node", "id": 4287482789, "lat": 41.8284311, "lon": 23.4795816, "tags": {"amenity": "cafe", "internet_access": "wlan", "name": "BBQ The Blvd"}}, {"type": "node", "id": 4287482889, "lat": 41.8357567, "lon": 23.4874337, "tags": {"addr:housenumber": "1", "addr:street": "\u043f\u043b. \u0412\u044a\u0437\u0440\u0430\u0436\u0434\u0430\u043d\u0435", "amenity": "restaurant", "cuisine": "regional;balkan", "name": "\u041e\u0431\u0435\u0446\u0430\u043d\u043e\u0432\u0430 \u041a\u044a\u0449\u0430", "outdoor_seating": "yes", "phone": "+359 87 855 5611", "website": "http://obecanova-mehana.com"}}, {"type": "node", "id": 4306587089, "lat": 41.8260729, "lon": 23.4830381}, {"type": "node", "id": 4306587090, "lat": 41.8260966, "lon": 23.482966}, {"type": "node", "id": 4306587091, "lat": 41.8261525, "lon": 23.4829487}, {"type": "node", "id": 4306587092, "lat": 41.8261783, "lon": 23.4829977}, {"type": "node", "id": 4306587093, "lat": 41.8262106, "lon": 23.482992}, {"type": "node", "id": 4306587094, "lat": 41.8262106, "lon": 23.4830555}, {"type": "node", "id": 4306587095, "lat": 41.8261869, "lon": 23.4831247}, {"type": "node", "id": 4306587096, "lat": 41.826131, "lon": 23.4831478}, {"type": "node", "id": 4306587097, "lat": 41.8260923, "lon": 23.4831219}, {"type": "node", "id": 4306587098, "lat": 41.8260579, "lon": 23.483067}, {"type": "node", "id": 4306587099, "lat": 41.8260492, "lon": 23.4830468}, {"type": "node", "id": 4306911377, "lat": 41.8212104, "lon": 23.4755156}, {"type": "node", "id": 4306911378, "lat": 41.8210661, "lon": 23.4754113}, {"type": "node", "id": 4306911379, "lat": 41.8211638, "lon": 23.4751282}, {"type": "node", "id": 4306911380, "lat": 41.8213192, "lon": 23.4752533}, {"type": "node", "id": 4308323939, "lat": 41.8275231, "lon": 23.4795741}, {"type": "node", "id": 4308323940, "lat": 41.8274308, "lon": 23.4797795}, {"type": "node", "id": 4308323941, "lat": 41.8275919, "lon": 23.4798858}, {"type": "node", "id": 4308323942, "lat": 41.8276547, "lon": 23.4797144}, {"type": "node", "id": 4360193965, "lat": 41.8213596, "lon": 23.5665992, "tags": {"amenity": "restaurant", "name": "\u0411\u0430\u0431\u0443\u0447"}}, {"type": "node", "id": 4467724790, "lat": 41.828672, "lon": 23.486427, "tags": {"amenity": "cafe", "operator": "\u0420\u0430\u0439\u043d\u0430"}}, {"type": "node", "id": 4605247591, "lat": 41.5732367, "lon": 23.7294806, "tags": {"addr:housenumber": "1\u0410", "addr:postcode": "2900", "addr:street": "\u0426\u0430\u0440\u0438\u0446\u0430 \u0419\u043e\u0430\u043d\u043d\u0430", "amenity": "restaurant", "email": "info@olive-bg.com", "internet_access": "wlan", "name": "\u0425\u043e\u0442\u0435\u043b \u0440\u0435\u0441\u0442\u043e\u0440\u0430\u043d\u0442 \u041e\u043b\u0438\u0432", "name:bg": "\u0425\u043e\u0442\u0435\u043b \u0440\u0435\u0441\u0442\u043e\u0440\u0430\u043d\u0442 \u041e\u043b\u0438\u0432", "name:en": "Hotel restaurant Olive", "opening_hours": "Mo-Sa 08:00-24:00", "operator": "Grigorov", "phone": "+359 751 61 515", "website": "http://www.olive-bg.com"}}, {"type": "node", "id": 4623861789, "lat": 41.8274883, "lon": 23.4841482, "tags": {"amenity": "restaurant", "cuisine": "balkan", "internet_access": "wlan", "name:en": "Tanne"}}, {"type": "node", "id": 4665039911, "lat": 41.8283337, "lon": 23.4786492, "tags": {"amenity": "restaurant", "name": "Euphoria Bar & Grill"}}, {"type": "node", "id": 4666669998, "lat": 41.8424992, "lon": 23.4843349, "tags": {"addr:city": "\u0411\u0430\u043d\u0441\u043a\u043e", "addr:housenumber": "11", "addr:postcode": "2770", "addr:street": "\u041a\u0438\u0440 \u0411\u043b\u0430\u0433\u043e \u0422\u043e\u0434\u0435\u0432", "amenity": "restaurant", "cuisine": "italian", "name": "Restaurant Leonardo Bansko", "opening_hours": "24/7", "website": "https://leonardobansko.com/"}}, {"type": "node", "id": 4672061984, "lat": 41.8282777, "lon": 23.477986, "tags": {"amenity": "restaurant", "name": "Red Hot"}}, {"type": "node", "id": 4675315399, "lat": 41.837572, "lon": 23.4880507, "tags": {"amenity": "restaurant", "cuisine": "regional", "name": "\u041c\u0435\u0445\u0430\u043d\u0430 \u041c\u043e\u043c\u0438\u043d\u0438 \u0414\u0432\u043e\u0440\u0438", "name:en": "Mehana Momini Dvori"}}, {"type": "node", "id": 4678168565, "lat": 41.7809367, "lon": 23.4384244, "tags": {"amenity": "cafe"}}, {"type": "node", "id": 4800092777, "lat": 41.8348695, "lon": 23.4862002, "tags": {"amenity": "cafe", "name": "Le Retro"}}, {"type": "node", "id": 4801953121, "lat": 41.5343145, "lon": 23.4335679, "tags": {"amenity": "restaurant", "name": "\u0425\u0430\u043d\u0447\u0435 \u0420\u043e\u0436\u0435\u043d", "name:de": "Hanche Rojen", "name:en": "Hanche Rojen", "opening_hours": "Mo-Su 10:00-22:00", "operator": "\u0425\u0430\u0434\u0436\u0438 \u0411\u043b\u0430\u0433\u043e", "phone": "+359 88 535 6058"}}, {"type": "node", "id": 4902154225, "lat": 41.6818067, "lon": 23.8249442, "tags": {"amenity": "restaurant", "name": "\u041f\u0440\u0438 \u0412\u0435\u0441\u043a\u043e \u0438 \u0421\u0443\u0437\u0438", "tourism": "hotel"}}, {"type": "node", "id": 4902154262, "lat": 41.6674143, "lon": 23.8249696, "tags": {"amenity": "restaurant", "name": "\u0412\u043e\u0434\u043e\u043f\u0430\u0434\u0430"}}, {"type": "node", "id": 4937397919, "lat": 41.8361265, "lon": 23.4921137, "tags": {"amenity": "cafe"}}, {"type": "node", "id": 4937397920, "lat": 41.8350536, "lon": 23.4940079, "tags": {"amenity": "cafe"}}, {"type": "node", "id": 4978859825, "lat": 41.8311601, "lon": 23.4765526}, {"type": "node", "id": 4978859826, "lat": 41.8308978, "lon": 23.4764845}, {"type": "node", "id": 4978859827, "lat": 41.8309215, "lon": 23.4767593}, {"type": "node", "id": 4978859828, "lat": 41.8311499, "lon": 23.476807}, {"type": "node", "id": 5018176094, "lat": 41.781097, "lon": 23.4385318, "tags": {"amenity": "restaurant", "cuisine": "international", "delivery": "no", "name": "The Barrels", "name:en": "The Barrels"}}, {"type": "node", "id": 5041778821, "lat": 41.5231246, "lon": 23.393351, "tags": {"amenity": "restaurant", "cuisine": "local", "name:en": "Bistro Melnik", "phone": "+359 88 925 2430"}}, {"type": "node", "id": 5045285421, "lat": 41.8356209, "lon": 23.487894, "tags": {"amenity": "restaurant", "cuisine": "regional", "floor": "0-1", "name": "\u0411\u0430\u0440\u044f\u043a\u043e\u0432\u0430 \u043c\u0435\u0445\u0430\u043d\u0430", "name:en": "Baryakova Tavern", "outdoor_seating": "yes"}}, {"type": "node", "id": 5045285422, "lat": 41.8265813, "lon": 23.4809578, "tags": {"amenity": "restaurant", "name:en": "Smokey Mountain Bar and Grill"}}, {"type": "node", "id": 5045285521, "lat": 41.825837, "lon": 23.4784646, "tags": {"amenity": "restaurant", "name:en": "Victoria"}}, {"type": "node", "id": 5052261758, "lat": 41.8232698, "lon": 23.4937583}, {"type": "node", "id": 5052261759, "lat": 41.8232275, "lon": 23.4938423}, {"type": "node", "id": 5052261760, "lat": 41.8233728, "lon": 23.493975}, {"type": "node", "id": 5052261761, "lat": 41.8234454, "lon": 23.4938396}, {"type": "node", "id": 5054440388, "lat": 41.8330721, "lon": 23.4946066}, {"type": "node", "id": 5054440389, "lat": 41.8330612, "lon": 23.494687}, {"type": "node", "id": 5054440390, "lat": 41.8331212, "lon": 23.4947017}, {"type": "node", "id": 5054440391, "lat": 41.8331321, "lon": 23.4946212}, {"type": "node", "id": 5114978865, "lat": 41.8277124, "lon": 23.4796406}, {"type": "node", "id": 5114978866, "lat": 41.8275441, "lon": 23.4795205}, {"type": "node", "id": 5114978867, "lat": 41.827618, "lon": 23.4793341}, {"type": "node", "id": 5114978868, "lat": 41.8277863, "lon": 23.4794542}, {"type": "node", "id": 5174661655, "lat": 41.8396297, "lon": 23.4879512, "tags": {"addr:city": "\u0411\u0430\u043d\u0441\u043a\u043e", "addr:housenumber": "2", "addr:postcode": "2770", "addr:street": "\u0422\u043e\u043c\u0430 \u0412\u0438\u0448\u0430\u043d\u043e\u0432", "amenity": "cafe", "internet_access": "wlan", "internet_access:fee": "no", "internet_access:ssid": "Family Bansko", "name:en": "Family Bansko Coffee & Kids Club", "opening_hours": "Mo-Su 09:00-21:00", "outdoor_seating": "no", "smoking": "no"}}, {"type": "node", "id": 5200282315, "lat": 41.82748, "lon": 23.4825864}, {"type": "node", "id": 5200282316, "lat": 41.8276655, "lon": 23.4827735}, {"type": "node", "id": 5200282317, "lat": 41.8276682, "lon": 23.4828098}, {"type": "node", "id": 5200282318, "lat": 41.827602, "lon": 23.4829282}, {"type": "node", "id": 5200282319, "lat": 41.8274017, "lon": 23.4827266}, {"type": "node", "id": 5314252303, "lat": 41.8259689, "lon": 23.4808011, "tags": {"amenity": "restaurant", "name": "Tomahawk"}}, {"type": "node", "id": 5334642477, "lat": 41.5230063, "lon": 23.3928646, "tags": {"amenity": "restaurant", "name": "\u041c\u0435\u043b\u043d\u0438\u0448\u043a\u0438 \u0420\u0443\u0431\u0438\u043d 3"}}, {"type": "node", "id": 5337393308, "lat": 41.8310603, "lon": 23.4861758, "tags": {"amenity": "restaurant", "source": "gps"}}, {"type": "node", "id": 5337393309, "lat": 41.8309744, "lon": 23.4860605, "tags": {"amenity": "restaurant", "source": "gps"}}, {"type": "node", "id": 5370408043, "lat": 41.8333689, "lon": 23.4831504, "tags": {"amenity": "cafe", "name": "Coconut"}}, {"type": "node", "id": 5407744775, "lat": 41.8208689, "lon": 23.5633403, "tags": {"amenity": "restaurant", "name": "\u041c\u0435\u0445\u0430\u043d\u0430 \"\u0414\u043e\u0431\u0440\u0438\u043d\u0438\u0449\u0435\""}}, {"type": "node", "id": 5745354345, "lat": 41.8335258, "lon": 23.4837759, "tags": {"amenity": "cafe", "internet_access": "wlan", "internet_access:fee": "no", "name": "Sapid"}}, {"type": "node", "id": 5801627555, "lat": 41.8370018, "lon": 23.4839624, "tags": {"amenity": "restaurant", "name": "Molerite"}}, {"type": "node", "id": 5859090605, "lat": 41.8378324, "lon": 23.4894381, "tags": {"amenity": "cafe", "internet_access": "wlan", "name": "Cafe-Bar Emar", "outdoor_seating": "yes"}}, {"type": "node", "id": 5926981585, "lat": 41.605993, "lon": 23.795603, "tags": {"addr:city": "\u041c\u0430\u0440\u0447\u0435\u0432\u043e", "amenity": "restaurant", "cuisine": "regional;balkan;pizza", "email": "ofice@einstein-house.bg", "internet_access": "wlan", "name": "Einstein", "outdoor_seating": "yes", "phone": "+359 87 769 9499", "website": "https://www.einstein-house.bg/"}}, {"type": "node", "id": 6296838895, "lat": 41.8093418, "lon": 23.4646929}, {"type": "node", "id": 6296838896, "lat": 41.8093324, "lon": 23.4647141}, {"type": "node", "id": 6296838897, "lat": 41.8093184, "lon": 23.4647301}, {"type": "node", "id": 6296838898, "lat": 41.8092368, "lon": 23.4646486}, {"type": "node", "id": 6296838899, "lat": 41.8092439, "lon": 23.4646266}, {"type": "node", "id": 6296838900, "lat": 41.8092558, "lon": 23.4646087}, {"type": "node", "id": 6296838901, "lat": 41.8092715, "lon": 23.4645969}, {"type": "node", "id": 6296838902, "lat": 41.8093012, "lon": 23.4647389}, {"type": "node", "id": 6296838903, "lat": 41.8092828, "lon": 23.4647397}, {"type": "node", "id": 6296838904, "lat": 41.8092652, "lon": 23.4647323}, {"type": "node", "id": 6296838905, "lat": 41.8092505, "lon": 23.4647176}, {"type": "node", "id": 6296838906, "lat": 41.8092401, "lon": 23.4646971}, {"type": "node", "id": 6296838907, "lat": 41.8092354, "lon": 23.4646733}, {"type": "node", "id": 6296838908, "lat": 41.8092891, "lon": 23.4645925}, {"type": "node", "id": 6296838909, "lat": 41.8093068, "lon": 23.4645959}, {"type": "node", "id": 6296838910, "lat": 41.8093228, "lon": 23.4646067}, {"type": "node", "id": 6296838911, "lat": 41.8093354, "lon": 23.4646239}, {"type": "node", "id": 6296838912, "lat": 41.8093432, "lon": 23.4646455}, {"type": "node", "id": 6296838913, "lat": 41.8093454, "lon": 23.4646693}, {"type": "node", "id": 6296838914, "lat": 41.7620193, "lon": 23.4489035}, {"type": "node", "id": 6296838915, "lat": 41.761835, "lon": 23.4488076}, {"type": "node", "id": 6296838916, "lat": 41.7619388, "lon": 23.4484494}, {"type": "node", "id": 6296838917, "lat": 41.762123, "lon": 23.4485453}, {"type": "node", "id": 6360216826, "lat": 41.8209555, "lon": 23.5677754, "tags": {"amenity": "cafe", "outdoor_seating": "yes"}}, {"type": "node", "id": 6360216827, "lat": 41.8214635, "lon": 23.5648563, "tags": {"amenity": "cafe"}}, {"type": "node", "id": 6728816550, "lat": 41.6204696, "lon": 23.8030037, "tags": {"amenity": "restaurant", "name": "\u0411\u043e\u0445\u0435\u043c\u0430", "opening_hours": "08:30-23:30", "stars": "3", "wheelchair": "yes"}}, {"type": "node", "id": 6743431481, "lat": 41.5552563, "lon": 23.6952967, "tags": {"amenity": "restaurant"}}, {"type": "node", "id": 6749625285, "lat": 41.8388101, "lon": 23.4871531, "tags": {"amenity": "cafe", "name": "\u0428\u0430\u043b\u0435 \u042f\u043d\u0438\u0446\u0430", "name:en": "Chalet Yanitza"}}, {"type": "node", "id": 7003245785, "lat": 41.835877, "lon": 23.4876893, "tags": {"amenity": "restaurant", "name": "\u043c\u0435\u0445\u0430\u043d\u0430 \"\u0411\u0430\u0439 \u041a\u043e\u0446\u0435\""}}, {"type": "node", "id": 7200266386, "lat": 41.8397846, "lon": 23.487085, "tags": {"amenity": "restaurant", "name:en": "Cat Ballou", "phone": "+359 89 863 3669"}}, {"type": "node", "id": 7208716485, "lat": 41.8279234, "lon": 23.4795222, "tags": {"amenity": "restaurant", "name:en": "Ginger"}}, {"type": "node", "id": 7208716585, "lat": 41.8281099, "lon": 23.4792232, "tags": {"amenity": "restaurant", "name:en": "The Corner"}}, {"type": "node", "id": 7208760885, "lat": 41.8304098, "lon": 23.4812161, "tags": {"amenity": "restaurant", "name": "Veranda"}}, {"type": "node", "id": 7208811886, "lat": 41.836282, "lon": 23.4871185, "tags": {"amenity": "cafe", "name": "Lido", "name:en": "Lido"}}, {"type": "node", "id": 7208812885, "lat": 41.8370828, "lon": 23.4875109, "tags": {"amenity": "cafe", "name:en": "Cafe Retro"}}, {"type": "node", "id": 7640562936, "lat": 41.6718015, "lon": 23.3934578, "tags": {"amenity": "restaurant"}}, {"type": "node", "id": 7803909185, "lat": 41.5708618, "lon": 23.7245196, "tags": {"amenity": "restaurant", "name": "\u0412\u0430\u043d\u0438\u0442\u0430"}}, {"type": "node", "id": 7804884639, "lat": 41.6136115, "lon": 23.7956732, "tags": {"amenity": "restaurant"}}, {"type": "node", "id": 7859598006, "lat": 41.6517963, "lon": 23.3631398}, {"type": "node", "id": 7859598007, "lat": 41.6517593, "lon": 23.3628386}, {"type": "node", "id": 7859598008, "lat": 41.6516485, "lon": 23.3628521}, {"type": "node", "id": 7859598009, "lat": 41.6516989, "lon": 23.3631623}, {"type": "node", "id": 7940048246, "lat": 41.836672, "lon": 23.4878147, "tags": {"amenity": "restaurant", "cuisine": "balkan;regional", "diet:vegetarian": "yes", "indoor_seating": "yes", "int_name": "Chevermeto", "name": "\u0427\u0435\u0432\u0435\u0440\u043c\u0435\u0442\u043e", "outdoor_seating": "yes"}}, {"type": "node", "id": 8337351346, "lat": 41.6722106, "lon": 23.6585104, "tags": {"amenity": "cafe"}}, {"type": "node", "id": 8337351347, "lat": 41.6719842, "lon": 23.6588994, "tags": {"amenity": "cafe"}}, {"type": "node", "id": 8337351348, "lat": 41.6720754, "lon": 23.6595418, "tags": {"amenity": "cafe"}}, {"type": "node", "id": 8337351349, "lat": 41.671846, "lon": 23.6603665, "tags": {"amenity": "cafe"}}, {"type": "node", "id": 8337351360, "lat": 41.6717899, "lon": 23.6648539, "tags": {"amenity": "cafe"}}, {"type": "node", "id": 8746409428, "lat": 41.8135556, "lon": 23.4640051}, {"type": "node", "id": 8746409429, "lat": 41.8134041, "lon": 23.4639553}, {"type": "node", "id": 8746409430, "lat": 41.8133663, "lon": 23.4641621}, {"type": "node", "id": 8746409431, "lat": 41.8135178, "lon": 23.464212}, {"type": "node", "id": 8755976282, "lat": 41.810394, "lon": 23.4612453}, {"type": "node", "id": 8755976283, "lat": 41.8102215, "lon": 23.4612303}, {"type": "node", "id": 8755976284, "lat": 41.8102151, "lon": 23.4613628}, {"type": "node", "id": 8755976285, "lat": 41.8103876, "lon": 23.4613778}, {"type": "node", "id": 8948527031, "lat": 41.5497243, "lon": 23.646475, "tags": {"amenity": "restaurant"}}, {"type": "node", "id": 9064150443, "lat": 41.7596211, "lon": 23.5463294}, {"type": "node", "id": 9064150444, "lat": 41.7595239, "lon": 23.546417}, {"type": "node", "id": 9064150445, "lat": 41.7594695, "lon": 23.5463087}, {"type": "node", "id": 9064150446, "lat": 41.7595668, "lon": 23.546221}, {"type": "node", "id": 9257719603, "lat": 41.8277184, "lon": 23.4807406}, {"type": "node", "id": 9257719604, "lat": 41.8276724, "lon": 23.480754}, {"type": "node", "id": 9257719605, "lat": 41.8276305, "lon": 23.4808774}, {"type": "node", "id": 9257719606, "lat": 41.8276465, "lon": 23.4809498}, {"type": "node", "id": 9257719607, "lat": 41.8278162, "lon": 23.4810357}, {"type": "node", "id": 9257719608, "lat": 41.8278463, "lon": 23.4809283}, {"type": "node", "id": 9729652502, "lat": 41.575459, "lon": 23.7427113, "tags": {"amenity": "cafe", "name": "Bella Cafe"}}, {"type": "node", "id": 9909474022, "lat": 41.5328556, "lon": 23.4338298, "tags": {"amenity": "restaurant", "name": "\u0417\u043b\u0430\u0442\u0435\u043d \u0420\u043e\u0436\u0435\u043d"}}, {"type": "node", "id": 9995135317, "lat": 41.8324983, "lon": 23.4836248, "tags": {"amenity": "restaurant", "indoor_seating": "yes", "name": "The Voivodes", "outdoor_seating": "yes"}}, {"type": "node", "id": 9999915104, "lat": 41.8292759, "lon": 23.4776251, "tags": {"amenity": "restaurant", "check_date": "2025-03-01", "name": "Symphony", "name:bg": "\u0421\u0438\u043c\u0444\u043e\u043d\u0438\u044f"}}, {"type": "node", "id": 10001960415, "lat": 41.5746691, "lon": 23.82855, "tags": {"amenity": "restaurant", "leisure": "outdoor_seating", "operator": "\u0417\u043e\u043e\u043f\u0430\u0440\u043a \u041a\u044a\u0442\u043d\u0438\u0446\u0430"}}, {"type": "node", "id": 10122902839, "lat": 41.5727758, "lon": 23.7295123, "tags": {"amenity": "restaurant", "name": "\u041c\u0435\u0445\u0430\u043d\u0430 \u0412\u0430\u043d\u0438\u0442\u0430"}}, {"type": "node", "id": 10600786823, "lat": 41.8283463, "lon": 23.4856545}, {"type": "node", "id": 10600786824, "lat": 41.8282763, "lon": 23.4858197}, {"type": "node", "id": 10600786825, "lat": 41.828283, "lon": 23.4858864}, {"type": "node", "id": 10600786826, "lat": 41.8283158, "lon": 23.4859167}, {"type": "node", "id": 10600786827, "lat": 41.8284321, "lon": 23.4857742}, {"type": "node", "id": 10600786828, "lat": 41.8283948, "lon": 23.4857364}, {"type": "node", "id": 10600786829, "lat": 41.8284106, "lon": 23.4857061}, {"type": "node", "id": 10631044284, "lat": 41.8356623, "lon": 23.4878455}, {"type": "node", "id": 10631044285, "lat": 41.8355638, "lon": 23.487916}, {"type": "node", "id": 10631044286, "lat": 41.835626, "lon": 23.4880727}, {"type": "node", "id": 10631044287, "lat": 41.8356544, "lon": 23.4880524}, {"type": "node", "id": 10631044288, "lat": 41.8356653, "lon": 23.4880799}, {"type": "node", "id": 10631044289, "lat": 41.8357354, "lon": 23.4880297}, {"type": "node", "id": 10631044290, "lat": 41.8359751, "lon": 23.4879757}, {"type": "node", "id": 10631044291, "lat": 41.8359229, "lon": 23.4881183}, {"type": "node", "id": 10631044292, "lat": 41.8360313, "lon": 23.4881898}, {"type": "node", "id": 10631044293, "lat": 41.8360835, "lon": 23.4880472}, {"type": "node", "id": 10631044294, "lat": 41.8357323, "lon": 23.4875176}, {"type": "node", "id": 10631044295, "lat": 41.8356329, "lon": 23.4875896}, {"type": "node", "id": 10631044296, "lat": 41.8356783, "lon": 23.4877026}, {"type": "node", "id": 10631044297, "lat": 41.8357777, "lon": 23.4876306}, {"type": "node", "id": 10631123106, "lat": 41.8351663, "lon": 23.4876016}, {"type": "node", "id": 10631123107, "lat": 41.835314, "lon": 23.4877647}, {"type": "node", "id": 10631123108, "lat": 41.8354312, "lon": 23.4875735}, {"type": "node", "id": 10631123109, "lat": 41.8353394, "lon": 23.4874721}, {"type": "node", "id": 10631123110, "lat": 41.8353176, "lon": 23.4875077}, {"type": "node", "id": 10631123111, "lat": 41.8352491, "lon": 23.4874666}, {"type": "node", "id": 10631144902, "lat": 41.8341898, "lon": 23.4851953}, {"type": "node", "id": 10631144903, "lat": 41.8342406, "lon": 23.4853256}, {"type": "node", "id": 10631144904, "lat": 41.8342373, "lon": 23.4854923}, {"type": "node", "id": 10631179005, "lat": 41.8341142, "lon": 23.485462}, {"type": "node", "id": 10631179006, "lat": 41.83413, "lon": 23.4853726}, {"type": "node", "id": 10631179007, "lat": 41.8340939, "lon": 23.4852817}, {"type": "node", "id": 10670111769, "lat": 41.8283345, "lon": 23.4775978}, {"type": "node", "id": 10670111770, "lat": 41.8283822, "lon": 23.477468}, {"type": "node", "id": 10670111771, "lat": 41.8284732, "lon": 23.4775283}, {"type": "node", "id": 10670111772, "lat": 41.8284255, "lon": 23.4776581}, {"type": "node", "id": 10671795388, "lat": 41.6675081, "lon": 23.8250407}, {"type": "node", "id": 10671795389, "lat": 41.6675274, "lon": 23.8249579}, {"type": "node", "id": 10671795390, "lat": 41.6676434, "lon": 23.8250063}, {"type": "node", "id": 10671795391, "lat": 41.6676241, "lon": 23.8250891}, {"type": "node", "id": 10715810452, "lat": 41.8318225, "lon": 23.4800448}, {"type": "node", "id": 10715810453, "lat": 41.8317316, "lon": 23.4802401}, {"type": "node", "id": 10715810454, "lat": 41.8317553, "lon": 23.4803704}, {"type": "node", "id": 10715810455, "lat": 41.8318735, "lon": 23.4803303}, {"type": "node", "id": 10715810456, "lat": 41.8318473, "lon": 23.4802051}, {"type": "node", "id": 10715810457, "lat": 41.8318847, "lon": 23.4800982}, {"type": "node", "id": 10916932711, "lat": 41.8284259, "lon": 23.4759495, "tags": {"amenity": "restaurant", "name": "Casa di papi"}}, {"type": "node", "id": 10961044402, "lat": 41.8335094, "lon": 23.4839995}, {"type": "node", "id": 10961044403, "lat": 41.8335393, "lon": 23.4838393}, {"type": "node", "id": 10961044404, "lat": 41.8334795, "lon": 23.4838259}, {"type": "node", "id": 10961063905, "lat": 41.8335082, "lon": 23.4837875}, {"type": "node", "id": 10961063906, "lat": 41.8334099, "lon": 23.4836489}, {"type": "node", "id": 10961063907, "lat": 41.8333614, "lon": 23.4837224}, {"type": "node", "id": 10961063908, "lat": 41.8333813, "lon": 23.4837591}, {"type": "node", "id": 10961063909, "lat": 41.8333216, "lon": 23.4837909}, {"type": "node", "id": 10961063910, "lat": 41.8333091, "lon": 23.4839044}, {"type": "node", "id": 10961063911, "lat": 41.8334124, "lon": 23.4839294}, {"type": "node", "id": 10961063912, "lat": 41.8334124, "lon": 23.4839712}, {"type": "node", "id": 11111647019, "lat": 41.6129598, "lon": 23.7947848}, {"type": "node", "id": 11236641137, "lat": 41.8383323, "lon": 23.4889122, "tags": {"addr:city": "\u0411\u0430\u043d\u0441\u043a\u043e", "amenity": "restaurant", "name": "\u041e\u0440\u043b\u043e\u0432\u043e \u0433\u043d\u0435\u0437\u0434\u043e", "name:en": "Eagle\u2019s nest", "phone": "+359895909993"}}, {"type": "node", "id": 11238905885, "lat": 41.833595, "lon": 23.4844731, "tags": {"amenity": "restaurant"}}, {"type": "node", "id": 11241982715, "lat": 41.8271995, "lon": 23.4819957, "tags": {"amenity": "restaurant", "name": "4 Directions"}}, {"type": "node", "id": 11242062309, "lat": 41.8326089, "lon": 23.4841399, "tags": {"amenity": "restaurant", "name": "Five M"}}, {"type": "node", "id": 11242068457, "lat": 41.8339963, "lon": 23.484769, "tags": {"amenity": "cafe", "indoor_seating": "yes", "name": "Franco", "outdoor_seating": "pedestrian_zone"}}, {"type": "node", "id": 11242071751, "lat": 41.8324039, "lon": 23.4802446, "tags": {"amenity": "cafe"}}, {"type": "node", "id": 11998997753, "lat": 41.8275379, "lon": 23.4827513, "tags": {"addr:city": "\u0411\u0430\u043d\u0441\u043a\u043e", "addr:housenumber": "1", "addr:postcode": "2770", "addr:street": "\u0410\u043d\u0433\u0435\u043b \u041a\u044a\u043d\u0447\u0435\u0432", "amenity": "restaurant", "check_date": "2024-06-21", "check_date:currency:XBT": "2025-02-18", "contact:facebook": "https://www.facebook.com/CastelloBanskoBG", "cuisine": "greek;bulgarian", "currency:XBT": "yes", "email": "castellobansko@gmail.com", "name": "Castello", "payment:lightning": "yes", "payment:lightning_contactless": "yes", "payment:onchain": "yes", "phone": "+359897717199"}}, {"type": "node", "id": 12165524486, "lat": 41.8672499, "lon": 23.62264}, {"type": "node", "id": 12165524487, "lat": 41.8673085, "lon": 23.6226031}, {"type": "node", "id": 12165524488, "lat": 41.8673583, "lon": 23.6226308}, {"type": "node", "id": 12165524489, "lat": 41.867413, "lon": 23.6225703}, {"type": "node", "id": 12165524490, "lat": 41.8673825, "lon": 23.6225051}, {"type": "node", "id": 12165524491, "lat": 41.8672887, "lon": 23.622467}, {"type": "node", "id": 12165524492, "lat": 41.8671905, "lon": 23.6225397}, {"type": "node", "id": 12189934334, "lat": 41.8556138, "lon": 23.4175102, "tags": {"air_conditioning": "yes", "amenity": "restaurant", "bar": "yes", "opening_hours": "08:00-23:00", "payment:cards": "yes", "payment:cash": "yes", "payment:diners_club": "yes", "payment:discover_card": "yes", "payment:maestro": "yes", "payment:mastercard": "yes", "payment:v_pay": "yes", "payment:visa_electron": "yes"}}, {"type": "node", "id": 12513690433, "lat": 41.8308474, "lon": 23.4816379, "tags": {"addr:city": "Bansko", "addr:housenumber": "73", "addr:street": "Pirin", "amenity": "cafe", "cuisine": "coffee_shop", "currency:XBT": "yes", "internet_access": "yes", "internet_access:fee": "no", "name": "Black Honey Specialty Coffee Shop", "opening_hours": "\u041c\u043e-Su 09:00-18:30", "payment:lightning": "yes", "phone": "+359877277355"}}, {"type": "node", "id": 12626558856, "lat": 41.8288018, "lon": 23.4773435, "tags": {"amenity": "cafe", "check_date": "2025-03-01", "name": "sCheers", "opening_hours": "08:00-21:00", "wheelchair": "limited"}}, {"type": "node", "id": 12628218378, "lat": 41.8382274, "lon": 23.4877697, "tags": {"addr:housenumber": "1", "addr:street": "\u0425\u0440\u0438\u0441\u0442\u043e \u0411\u043e\u0442\u0435\u0432", "amenity": "restaurant", "check_date": "2025-03-01", "name": "\u0412\u043e\u0434\u0435\u043d\u0438\u0446\u0430\u0442\u0430", "opening_hours": "12:00-24:00", "operator": "\u0412\u043e\u0434\u0435\u043d\u0438\u0446\u0430\u0442\u0430 \u0411\u0430\u043d\u0441\u043a\u043e \u041e\u041e\u0414", "phone": "+359 88 855 1110", "wheelchair": "no"}}, {"type": "node", "id": 12677543296, "lat": 41.8276537, "lon": 23.4797854}, {"type": "node", "id": 12677543297, "lat": 41.8276328, "lon": 23.4798422}, {"type": "node", "id": 12677543298, "lat": 41.8275374, "lon": 23.4798665}, {"type": "node", "id": 12677543299, "lat": 41.8274852, "lon": 23.4798321}, {"type": "node", "id": 12677543300, "lat": 41.8275423, "lon": 23.4798531}, {"type": "node", "id": 12677579601, "lat": 41.8274902, "lon": 23.4798187}, {"type": "node", "id": 12677579602, "lat": 41.8276127, "lon": 23.4798289}, {"type": "node", "id": 12677579603, "lat": 41.8276336, "lon": 23.4797721}, {"type": "node", "id": 12677579604, "lat": 41.8274628, "lon": 23.4796923}, {"type": "node", "id": 12677579605, "lat": 41.8276054, "lon": 23.4796818}, {"type": "node", "id": 12677579606, "lat": 41.8276103, "lon": 23.4796687}, {"type": "node", "id": 12677579607, "lat": 41.8275599, "lon": 23.4796354}, {"type": "node", "id": 12677579608, "lat": 41.8275709, "lon": 23.4796056}, {"type": "node", "id": 12677579609, "lat": 41.8274722, "lon": 23.4796985}, {"type": "node", "id": 12677579610, "lat": 41.8275028, "lon": 23.4796149}, {"type": "node", "id": 12677579611, "lat": 41.8275071, "lon": 23.4796177}, {"type": "node", "id": 12677579612, "lat": 41.8277488, "lon": 23.479989}, {"type": "node", "id": 12677579613, "lat": 41.8278418, "lon": 23.480058}, {"type": "node", "id": 12677579614, "lat": 41.8277786, "lon": 23.4802112}, {"type": "node", "id": 12677579615, "lat": 41.8276857, "lon": 23.4801422}, {"type": "node", "id": 12677579638, "lat": 41.8289753, "lon": 23.4799897}, {"type": "node", "id": 12677579639, "lat": 41.8290837, "lon": 23.4797238}, {"type": "node", "id": 12677579640, "lat": 41.8290352, "lon": 23.4796889}, {"type": "node", "id": 12677579641, "lat": 41.8289263, "lon": 23.479654}, {"type": "node", "id": 12677579642, "lat": 41.8288319, "lon": 23.4798854}, {"type": "node", "id": 12862231201, "lat": 41.7582814, "lon": 23.672858, "tags": {"amenity": "restaurant", "name": "Fish restaurant"}}, {"type": "node", "id": 12871766436, "lat": 41.827206, "lon": 23.4823213, "tags": {"addr:city": "Bansko", "addr:housenumber": "20", "addr:postcode": "2770", "addr:street": "ul. Nayden Gerov", "amenity": "restaurant", "cuisine": "bulgarian;steak_house;pasta;pizza;burger", "currency:XBT": "yes", "name": "The Chefs House", "opening_hours": "We-Su 12:00-23:30", "payment:lightning": "yes", "phone": "+359899792120", "website": "https://chefshousefusion.com/"}}, {"type": "node", "id": 12895175142, "lat": 41.8237599, "lon": 23.4774129, "tags": {"amenity": "cafe", "name": "The Snug Bansko", "website": "https://www.facebook.com/people/The-Snug-Bansko/100088830438510/"}}, {"type": "way", "id": 280122769, "nodes": [2842883772, 2842883747, 2842883734, 2842883756, 2842883772], "tags": {"amenity": "restaurant", "building": "yes", "cuisine": "balkan", "name": "\u041c\u0435\u0445\u0430\u043d\u0430", "name:en": "Mehana"}}, {"type": "way", "id": 298282320, "nodes": [3021913113, 3021913114, 3021913115, 3021913116, 3021913117, 3021913118, 3021913119, 3021913120, 3021913113], "tags": {"amenity": "restaurant", "building": "yes", "cuisine": "regional", "name": "Uva Nestum"}}, {"type": "way", "id": 343908868, "nodes": [3506948158, 3508977487, 3506948155, 3508977486, 3508977484, 3508977483, 3508977485, 3506948154, 3506948156, 3506948157, 3506948160, 11111647019, 3506948161, 3508977489, 3506948159, 3506948158], "tags": {"amenity": "cafe", "building": "houseboat", "layer": "1"}}, {"type": "way", "id": 431461326, "nodes": [4306587089, 4306587090, 4306587091, 4306587092, 4306587093, 4306587094, 4306587095, 4306587096, 4306587097, 4306587098, 4306587099, 4306587089], "tags": {"amenity": "restaurant", "building": "yes", "name": "Outback Steakhouse"}}, {"type": "way", "id": 431481587, "nodes": [4306911377, 4306911378, 4306911379, 4306911380, 4306911377], "tags": {"amenity": "restaurant", "building": "yes", "cuisine": "regional"}}, {"type": "way", "id": 431598965, "nodes": [4308323939, 12677579611, 12677579610, 12677579609, 12677579604, 4308323940, 12677579601, 12677543299, 12677543298, 12677543300, 4308323941, 12677579602, 12677543297, 12677543296, 12677579603, 4308323942, 12677579605, 12677579606, 12677579607, 12677579608, 4308323939], "tags": {"amenity": "restaurant", "building": "yes"}}, {"type": "way", "id": 508609452, "nodes": [4978859825, 4978859826, 4978859827, 4978859828, 4978859825], "tags": {"addr:city": "\u0411\u0430\u043d\u0441\u043a\u043e", "addr:postcode": "2770", "addr:street": "\u042f\u0432\u043e\u0440", "amenity": "restaurant", "building": "yes", "name": "\u0421\u0443\u0432\u043e\u0440\u043e\u0432"}}, {"type": "way", "id": 517789651, "nodes": [5052261758, 5052261759, 5052261760, 5052261761, 5052261758], "tags": {"amenity": "restaurant", "building": "yes", "name": "\u041a\u0440\u0438\u043d\u0435\u0446", "name:en": "Krinetz"}}, {"type": "way", "id": 518069080, "nodes": [5054440388, 5054440389, 5054440390, 5054440391, 5054440388], "tags": {"amenity": "restaurant", "building": "yes", "name": "\u0411\u044a\u0440\u0437\u0430 \u0437\u0430\u043a\u0443\u0441\u043a\u0430", "name:en": "Fast food"}}, {"type": "way", "id": 525870757, "nodes": [5114978865, 5114978866, 5114978867, 5114978868, 5114978865], "tags": {"addr:city": "\u0411\u0430\u043d\u0441\u043a\u043e", "addr:housenumber": "8", "addr:postcode": "2770", "addr:street": "\u041d\u0430\u0439\u0434\u0435\u043d \u0413\u0435\u0440\u043e\u0432", "amenity": "restaurant", "building": "yes", "name": "\u0412\u0435\u0441\u0435\u043b\u043e\u0442\u043e \u0441\u0435\u043b\u043e"}}, {"type": "way", "id": 536930678, "nodes": [5200282315, 5200282316, 5200282317, 5200282318, 5200282319, 5200282315], "tags": {"amenity": "restaurant", "building": "yes"}}, {"type": "way", "id": 672426906, "nodes": [6296838908, 6296838909, 6296838910, 6296838911, 6296838912, 6296838913, 6296838895, 6296838896, 6296838897, 6296838902, 6296838903, 6296838904, 6296838905, 6296838906, 6296838907, 6296838898, 6296838899, 6296838900, 6296838901, 6296838908], "tags": {"amenity": "cafe", "building": "yes"}}, {"type": "way", "id": 672426907, "nodes": [6296838914, 6296838915, 6296838916, 6296838917, 6296838914], "tags": {"amenity": "restaurant", "building": "yes"}}, {"type": "way", "id": 842489485, "nodes": [7859598006, 7859598007, 7859598008, 7859598009, 7859598006], "tags": {"amenity": "restaurant", "building": "yes", "name": "\u0410\u043f\u043e\u0441\u0442\u043e\u043b\u0438\u0442\u0435", "name:en": "Apostolite", "phone": "+359 88 700 3030", "website": "https://hotelapostolite.com/"}}, {"type": "way", "id": 944734061, "nodes": [8746409428, 8746409429, 8746409430, 8746409431, 8746409428], "tags": {"amenity": "restaurant", "building": "yes", "cuisine": "bulgarian", "internet_access": "wlan", "internet_access:fee": "no", "name": "\u041a\u043e\u043b\u0438\u0431\u0430\u0442\u0430"}}, {"type": "way", "id": 945812605, "nodes": [8755976282, 8755976283, 8755976284, 8755976285, 8755976282], "tags": {"amenity": "restaurant", "building": "yes"}}, {"type": "way", "id": 979823329, "nodes": [9064150443, 9064150444, 9064150445, 9064150446, 9064150443], "tags": {"amenity": "restaurant", "building": "yes"}}, {"type": "way", "id": 1003175830, "nodes": [9257719603, 9257719604, 9257719605, 9257719606, 9257719607, 9257719608, 9257719603], "tags": {"amenity": "restaurant", "building": "yes", "check_date:currency:XBT": "2024-05-06", "currency:XBT": "yes", "indoor_seating": "yes", "name": "The House", "outdoor_seating": "yes", "payment:lightning": "yes", "payment:lightning_contactless": "yes", "payment:onchain": "no", "phone": "+359 88 707 0708", "survey:date": "2022-12-28", "website": "https://www.facebook.com/thehousebansko/"}}, {"type": "way", "id": 1137195004, "nodes": [10600786823, 10600786824, 10600786825, 10600786826, 10600786827, 10600786828, 10600786829, 10600786823], "tags": {"amenity": "restaurant", "building": "yes", "cuisine": "regional", "diet:local": "yes", "diet:meat": "yes", "diet:non-vegetarian": "yes", "name": "\u0411\u0430\u0439 \u041c\u0438\u043b\u0435"}}, {"type": "way", "id": 1141067648, "nodes": [10631044284, 10631044285, 10631044286, 10631044287, 10631044288, 10631044289, 10631044284], "tags": {"amenity": "restaurant", "building": "house", "name": "\u0411\u0430\u0440\u044f\u043a\u043e\u0432\u0430 \u043c\u0435\u0445\u0430\u043d\u0430"}}, {"type": "way", "id": 1141067649, "nodes": [10631044290, 10631044291, 10631044292, 10631044293, 10631044290], "tags": {"amenity": "restaurant", "building": "house", "indoor_seating": "yes", "name": "\u041a\u0430\u0441\u0430\u043f\u0438\u043d\u043e\u0432\u0430", "outdoor_seating": "yes"}}, {"type": "way", "id": 1141067650, "nodes": [10631044294, 10631044295, 10631044296, 10631044297, 10631044294], "tags": {"amenity": "restaurant", "building": "yes"}}, {"type": "way", "id": 1141067654, "nodes": [10631123106, 10631123107, 10631123108, 10631123109, 10631123110, 10631123111, 10631123106], "tags": {"amenity": "restaurant", "building": "yes", "name": "\u0414\u0435\u0434\u043e \u041f\u0435\u043d\u0435"}}, {"type": "way", "id": 1141075783, "nodes": [10631144902, 10631144903, 10631144904, 10631179005, 10631179006, 10631179007, 10631144902], "tags": {"addr:housenumber": "29", "addr:street": "\u041f\u0438\u0440\u0438\u043d", "amenity": "restaurant", "building": "yes", "cuisine": "regional", "indoor_seating": "yes", "name": "\u041b\u043e\u0432\u043d\u0430 \u0441\u0440\u0435\u0449\u0430", "outdoor_seating": "yes"}}, {"type": "way", "id": 1146550243, "nodes": [10670111769, 10670111770, 10670111771, 10670111772, 10670111769], "tags": {"addr:city": "\u0411\u0430\u043d\u0441\u043a\u043e", "addr:housenumber": "2", "addr:postcode": "2770", "addr:street": "\u041d\u0430\u0439\u0434\u0435\u043d \u0413\u0435\u0440\u043e\u0432", "amenity": "restaurant", "building": "yes", "building:levels": "1", "name": "The Log House", "roof:shape": "half-hipped"}}, {"type": "way", "id": 1146827671, "nodes": [10671795388, 10671795389, 10671795390, 10671795391, 10671795388], "tags": {"amenity": "restaurant", "building": "yes"}}, {"type": "way", "id": 1151909186, "nodes": [10715810452, 10715810453, 10715810454, 10715810455, 10715810456, 10715810457, 10715810452], "tags": {"addr:city": "\u0411\u0430\u043d\u0441\u043a\u043e", "addr:housenumber": "14\u0412", "addr:postcode": "2770", "addr:street": "\u0413\u043b\u0430\u0437\u043d\u0435", "amenity": "restaurant", "building": "yes", "name": "George&Mary"}}, {"type": "way", "id": 1180149302, "nodes": [10961044402, 10961044403, 10961044404, 10961063905, 10961063906, 10961063907, 10961063908, 10961063909, 10961063910, 10961063911, 10961063912, 10961044402], "tags": {"amenity": "cafe", "building": "yes", "name": "\u0421\u0430\u043f\u0438\u0434"}}, {"type": "way", "id": 1314367223, "nodes": [12165524486, 12165524487, 12165524488, 12165524489, 12165524490, 12165524491, 12165524492, 12165524486], "tags": {"amenity": "cafe", "building": "yes", "name": "\u0414\u044a\u0440\u0432\u0435\u043d\u043e\u0442\u043e"}}, {"type": "way", "id": 1368843639, "nodes": [12677579615, 12677579612, 12677579613, 12677579614, 12677579615], "tags": {"amenity": "restaurant", "building": "yes", "building:levels": "1", "name": "The Bears"}}, {"type": "way", "id": 1368843640, "nodes": [12677579642, 12677579641, 12677579640, 12677579639, 12677579638, 12677579642], "tags": {"addr:city": "\u0411\u0430\u043d\u0441\u043a\u043e", "addr:postcode": "2770", "addr:street": "\u041f\u0438\u0440\u0438\u043d", "amenity": "restaurant", "building": "yes", "building:levels": "2", "name": "At Home"}}]}