{"version": 0.6, "generator": "Overpass API 0.7.62.7 375dc00a", "osm3s": {"timestamp_osm_base": "2025-06-14T13:25:11Z", "copyright": "The data included in this document is from www.openstreetmap.org. The data is made available under ODbL."}, "elements": [{"type": "node", "id": 470284865, "lat": 39.6940896, "lon": 9.6550448, "tags": {"amenity": "restaurant", "cuisine": "pizza", "diet:vegetarian": "yes", "ele": "8.056641", "indoor_seating": "yes", "name": "La Grotta", "opening_hours": "Tu-Su,PH 07:00-22:30; Mo off", "outdoor_seating": "yes", "wpt_symbol": "Residence"}}, {"type": "node", "id": 590038254, "lat": 39.9921067, "lon": 9.6876717, "tags": {"addr:city": "Santa Maria Navarrese", "addr:postcode": "08040", "addr:street": "Viale Plammas", "amenity": "restaurant", "cuisine": "pizza", "name": "Ristorante Pizzeria Bar Il Pozzo", "phone": "+39 0782 615039", "website": "https://ristorante-il-pozzo-italian-restaurant.business.site/"}}, {"type": "node", "id": 761139934, "lat": 39.9433788, "lon": 9.4959745, "tags": {"amenity": "restaurant", "name": "Santa Barbara"}}, {"type": "node", "id": 761150457, "lat": 39.8421954, "lon": 9.6426082, "tags": {"amenity": "restaurant", "cuisine": "italian", "name": "Il Portico"}}, {"type": "node", "id": 761252808, "lat": 39.6957717, "lon": 9.578831, "tags": {"amenity": "cafe", "indoor_seating": "yes", "outdoor_seating": "yes"}}, {"type": "node", "id": 786893348, "lat": 39.8365941, "lon": 9.6476588, "tags": {"amenity": "cafe"}}, {"type": "node", "id": 788546826, "lat": 39.8504182, "lon": 9.6428741, "tags": {"addr:city": "Bar\u00ec/Bari Sardo", "addr:city:it": "Bari Sardo", "addr:city:sc": "Bar\u00ec", "addr:country": "IT", "addr:housenumber": "83a", "addr:postcode": "08042", "addr:street": "Via Tortoli", "amenity": "restaurant", "cuisine": "regional", "name": "L'Impero", "operator": "Chiai Maria Giovanna", "phone": "+39 782 29120"}}, {"type": "node", "id": 789367620, "lat": 39.793106, "lon": 9.6549521, "tags": {"amenity": "restaurant", "name": "La Vela", "tourism": "hotel"}}, {"type": "node", "id": 789403986, "lat": 39.832107, "lon": 9.6799337, "tags": {"amenity": "restaurant", "name": "Domus de Janas", "tourism": "hotel"}}, {"type": "node", "id": 789403996, "lat": 39.8310689, "lon": 9.6806203, "tags": {"amenity": "restaurant", "name": "La Torre", "stars": "4", "tourism": "hotel"}}, {"type": "node", "id": 794586419, "lat": 39.9310814, "lon": 9.6920717, "tags": {"amenity": "restaurant", "cuisine": "italian", "email": "hotel@sacontonera.it", "name": "Sa Contonera", "phone": "+39 0782 665011;+39 0782 665022", "tourism": "hotel", "website": "https://www.sacontonera.it/"}}, {"type": "node", "id": 796666582, "lat": 39.9269306, "lon": 9.7043681, "tags": {"addr:city": "Tortol\u00ec", "addr:housenumber": "37", "addr:postcode": "08048", "addr:street": "Via dei Portoghesi", "amenity": "restaurant", "name": "La Baia", "opening_hours": "Mo-Su 19:00-00:00", "phone": "+39 0782 667808"}}, {"type": "node", "id": 1353806881, "lat": 39.970197, "lon": 9.6623308, "tags": {"amenity": "cafe", "name": "Bar La Piazza"}}, {"type": "node", "id": 1353809306, "lat": 39.9702249, "lon": 9.6613287, "tags": {"amenity": "cafe", "check_date": "2024-05-18", "name": "Bar Giardini"}}, {"type": "node", "id": 1353810141, "lat": 39.9700326, "lon": 9.6616245, "tags": {"amenity": "cafe", "check_date": "2024-05-28", "name": "Bar Arzu"}}, {"type": "node", "id": 1413725380, "lat": 39.8628375, "lon": 9.414289}, {"type": "node", "id": 1496337970, "lat": 39.8627178, "lon": 9.4141571}, {"type": "node", "id": 1496337972, "lat": 39.8627292, "lon": 9.4143037}, {"type": "node", "id": 1496337973, "lat": 39.8628268, "lon": 9.4141482}, {"type": "node", "id": 1716453089, "lat": 39.9703367, "lon": 9.6635566, "tags": {"amenity": "cafe", "name": "Bar da Gigi"}}, {"type": "node", "id": 1722369113, "lat": 39.9707237, "lon": 9.6711887, "tags": {"addr:city": "Lotzorai", "addr:housenumber": "102", "addr:postcode": "08040", "addr:street": "Via Dante Alighieri", "amenity": "cafe", "name": "Is Domus artas"}}, {"type": "node", "id": 1722900080, "lat": 39.924215, "lon": 9.7037978, "tags": {"amenity": "restaurant", "cuisine": "italian", "name": "Il Faro"}}, {"type": "node", "id": 1823253279, "lat": 39.8152847, "lon": 9.4879855}, {"type": "node", "id": 1823253281, "lat": 39.8153145, "lon": 9.4878669}, {"type": "node", "id": 1823253285, "lat": 39.8154317, "lon": 9.487908}, {"type": "node", "id": 1823253286, "lat": 39.8154689, "lon": 9.4883221}, {"type": "node", "id": 1823253287, "lat": 39.8154912, "lon": 9.4879686}, {"type": "node", "id": 1823253290, "lat": 39.8155656, "lon": 9.4882834}, {"type": "node", "id": 2315014165, "lat": 39.926513, "lon": 9.663657, "tags": {"amenity": "restaurant", "name": "Lo Stuzzichino"}}, {"type": "node", "id": 2315014166, "lat": 39.9267717, "lon": 9.6653507, "tags": {"amenity": "restaurant", "cuisine": "pizza", "name": "Sa Buttega", "opening_hours": "19:00-24:00"}}, {"type": "node", "id": 2315014167, "lat": 39.926821, "lon": 9.6575778, "tags": {"amenity": "cafe", "name": "Caffe Italiano"}}, {"type": "node", "id": 2315014168, "lat": 39.9264813, "lon": 9.6599158, "tags": {"amenity": "restaurant", "name": "Pizzeria Il Drago Rosso"}}, {"type": "node", "id": 2337012204, "lat": 39.9401759, "lon": 9.4795508, "tags": {"amenity": "cafe"}}, {"type": "node", "id": 2352581904, "lat": 39.839411, "lon": 9.6462107, "tags": {"amenity": "cafe", "name": "Bar La Fontana"}}, {"type": "node", "id": 2352589786, "lat": 39.8400721, "lon": 9.645788, "tags": {"amenity": "cafe", "name": "Baricentro (Ice Cream & Breakfast)"}}, {"type": "node", "id": 2352589789, "lat": 39.8413222, "lon": 9.6444941, "tags": {"amenity": "cafe"}}, {"type": "node", "id": 2352589790, "lat": 39.8415858, "lon": 9.6442366, "tags": {"amenity": "cafe"}}, {"type": "node", "id": 2352589791, "lat": 39.8403584, "lon": 9.6471548, "tags": {"amenity": "restaurant", "name": "Pizzeria San Giorgio (Deutsche menu)"}}, {"type": "node", "id": 2378815143, "lat": 39.7001234, "lon": 9.5774762, "tags": {"amenity": "cafe"}}, {"type": "node", "id": 2378820584, "lat": 39.6894569, "lon": 9.5802898, "tags": {"amenity": "restaurant"}}, {"type": "node", "id": 2461614525, "lat": 39.9368093, "lon": 9.706521}, {"type": "node", "id": 2461614526, "lat": 39.9368538, "lon": 9.7065835}, {"type": "node", "id": 2461614527, "lat": 39.9368666, "lon": 9.7064517}, {"type": "node", "id": 2461614529, "lat": 39.936911, "lon": 9.7065142}, {"type": "node", "id": 2461710793, "lat": 39.9272479, "lon": 9.6893717}, {"type": "node", "id": 2461710795, "lat": 39.9272676, "lon": 9.6894877, "tags": {"entrance": "yes"}}, {"type": "node", "id": 2461710798, "lat": 39.9272905, "lon": 9.6896217}, {"type": "node", "id": 2461710800, "lat": 39.9273666, "lon": 9.6893373}, {"type": "node", "id": 2461710802, "lat": 39.9273922, "lon": 9.6893054}, {"type": "node", "id": 2461710804, "lat": 39.927392, "lon": 9.6895922}, {"type": "node", "id": 2461710806, "lat": 39.9274048, "lon": 9.6896674}, {"type": "node", "id": 2461710808, "lat": 39.9274596, "lon": 9.6894312}, {"type": "node", "id": 2461710810, "lat": 39.9274625, "lon": 9.6894479}, {"type": "node", "id": 2461710812, "lat": 39.9274792, "lon": 9.6892803}, {"type": "node", "id": 2461710814, "lat": 39.9275027, "lon": 9.6894187}, {"type": "node", "id": 2461710816, "lat": 39.9275132, "lon": 9.6894332}, {"type": "node", "id": 2461710818, "lat": 39.9275461, "lon": 9.6896264}, {"type": "node", "id": 2519809028, "lat": 39.9185358, "lon": 9.5271769, "tags": {"amenity": "cafe"}}, {"type": "node", "id": 2519809361, "lat": 39.9185886, "lon": 9.5272167, "tags": {"amenity": "restaurant", "cuisine": "italian"}}, {"type": "node", "id": 2542160857, "lat": 39.7603475, "lon": 9.6715521}, {"type": "node", "id": 2542160859, "lat": 39.7603513, "lon": 9.6714486}, {"type": "node", "id": 2542160869, "lat": 39.7604994, "lon": 9.6715614}, {"type": "node", "id": 2542160871, "lat": 39.7605031, "lon": 9.6714579}, {"type": "node", "id": 2785734514, "lat": 39.9196652, "lon": 9.4749692}, {"type": "node", "id": 2785734532, "lat": 39.9197144, "lon": 9.47484}, {"type": "node", "id": 2785734533, "lat": 39.9197156, "lon": 9.4749153}, {"type": "node", "id": 2785734540, "lat": 39.9197215, "lon": 9.475065}, {"type": "node", "id": 2785734566, "lat": 39.9197641, "lon": 9.475033}, {"type": "node", "id": 2785734583, "lat": 39.9197818, "lon": 9.4750614}, {"type": "node", "id": 2785734592, "lat": 39.9197965, "lon": 9.4748594}, {"type": "node", "id": 2785734609, "lat": 39.9198217, "lon": 9.4749791}, {"type": "node", "id": 2785734619, "lat": 39.9198306, "lon": 9.4750667}, {"type": "node", "id": 2785734620, "lat": 39.9198324, "lon": 9.4748283}, {"type": "node", "id": 2785734634, "lat": 39.9198503, "lon": 9.4750259}, {"type": "node", "id": 2785734669, "lat": 39.9198819, "lon": 9.4749292}, {"type": "node", "id": 2850106156, "lat": 39.9287711, "lon": 9.6817355, "tags": {"amenity": "restaurant", "cuisine": "regional", "disused": "yes", "name": "Lo spiedo d'Ogliastra", "smoking": "outside"}}, {"type": "node", "id": 2915720387, "lat": 39.693853, "lon": 9.6501898}, {"type": "node", "id": 2915720388, "lat": 39.6937754, "lon": 9.6502162}, {"type": "node", "id": 2915720389, "lat": 39.6933524, "lon": 9.6505691}, {"type": "node", "id": 2915720390, "lat": 39.693587, "lon": 9.6510492}, {"type": "node", "id": 2915720391, "lat": 39.6940525, "lon": 9.6505691}, {"type": "node", "id": 2928102165, "lat": 39.9889103, "lon": 9.6902739, "tags": {"amenity": "restaurant", "cuisine": "italian", "name": "La Fontana", "phone": "+39 0782 615266"}}, {"type": "node", "id": 2928102169, "lat": 39.9893013, "lon": 9.6896751, "tags": {"addr:city": "Santa Maria Navarrese", "addr:street": "Piazza Principe Di Navarra", "amenity": "restaurant", "name": "okay", "phone": "+39 0782 615195"}}, {"type": "node", "id": 2928134625, "lat": 39.989648, "lon": 9.6831338, "tags": {"amenity": "restaurant", "cuisine": "italian", "name": "Scoine"}}, {"type": "node", "id": 2928159300, "lat": 39.9906823, "lon": 9.6911685, "tags": {"amenity": "restaurant", "cuisine": "italian", "name": "Tom\u00e0"}}, {"type": "node", "id": 2928162804, "lat": 39.9904113, "lon": 9.6905579, "tags": {"addr:city": "Santa Maria Navarrese", "addr:country": "IT", "addr:housenumber": "10", "addr:postcode": "08040", "addr:street": "Via Turru", "amenity": "restaurant", "cuisine": "italian", "name": "Lungomare", "phone": "+39 0782 614041", "website": "https://www.ristorantelungomare.com/"}}, {"type": "node", "id": 2931613453, "lat": 39.9831063, "lon": 9.6859466, "tags": {"addr:street": "Via del Mare", "amenity": "restaurant", "cuisine": "italian", "name": "Il Gabbiano"}}, {"type": "node", "id": 2931622015, "lat": 39.9827898, "lon": 9.6858125, "tags": {"amenity": "restaurant", "cuisine": "italian"}}, {"type": "node", "id": 2931764172, "lat": 39.9016352, "lon": 9.6813212}, {"type": "node", "id": 2931764173, "lat": 39.9016415, "lon": 9.6811849}, {"type": "node", "id": 2931764174, "lat": 39.9017605, "lon": 9.681331}, {"type": "node", "id": 2931764175, "lat": 39.9017669, "lon": 9.6811947}, {"type": "node", "id": 2931774793, "lat": 39.924773, "lon": 9.6639777}, {"type": "node", "id": 2931775356, "lat": 39.9248176, "lon": 9.6637866}, {"type": "node", "id": 2931775836, "lat": 39.9248759, "lon": 9.6640182}, {"type": "node", "id": 2931775880, "lat": 39.9248917, "lon": 9.6639503}, {"type": "node", "id": 2931776892, "lat": 39.9250352, "lon": 9.6641044}, {"type": "node", "id": 2931776962, "lat": 39.9250545, "lon": 9.6638989}, {"type": "node", "id": 2931776969, "lat": 39.9250561, "lon": 9.664015}, {"type": "node", "id": 2931776973, "lat": 39.9250586, "lon": 9.6638814}, {"type": "node", "id": 2931777218, "lat": 39.925099, "lon": 9.6639164}, {"type": "node", "id": 2931777232, "lat": 39.9251041, "lon": 9.6638948}, {"type": "node", "id": 2931777402, "lat": 39.9251281, "lon": 9.6640713}, {"type": "node", "id": 2931777503, "lat": 39.9251593, "lon": 9.6641544}, {"type": "node", "id": 2931777524, "lat": 39.9251637, "lon": 9.6639182}, {"type": "node", "id": 2931777560, "lat": 39.9251734, "lon": 9.6640886}, {"type": "node", "id": 2955564394, "lat": 39.8153902, "lon": 9.4881065}, {"type": "node", "id": 3017536081, "lat": 39.9704472, "lon": 9.663323, "tags": {"amenity": "restaurant", "check_date": "2024-05-18", "cuisine": "pizza", "name": "Bar Pizzeria Rosticceria F.lli Fadda"}}, {"type": "node", "id": 3017541493, "lat": 39.9904174, "lon": 9.6886427}, {"type": "node", "id": 3017541513, "lat": 39.9904441, "lon": 9.6887099}, {"type": "node", "id": 3017541526, "lat": 39.9904657, "lon": 9.68861}, {"type": "node", "id": 3017541544, "lat": 39.9904924, "lon": 9.6886772}, {"type": "node", "id": 3019760326, "lat": 39.6617789, "lon": 9.5760468}, {"type": "node", "id": 3019760330, "lat": 39.6617749, "lon": 9.5761551}, {"type": "node", "id": 3019760547, "lat": 39.6619059, "lon": 9.5762109}, {"type": "node", "id": 3019760548, "lat": 39.6619828, "lon": 9.5760593}, {"type": "node", "id": 3019760560, "lat": 39.6620712, "lon": 9.5762233}, {"type": "node", "id": 3019760561, "lat": 39.6621025, "lon": 9.5761212}, {"type": "node", "id": 3019829099, "lat": 39.7777621, "lon": 9.6677506}, {"type": "node", "id": 3019829103, "lat": 39.7777836, "lon": 9.667364}, {"type": "node", "id": 3019829109, "lat": 39.7778703, "lon": 9.6673722}, {"type": "node", "id": 3019829110, "lat": 39.7778747, "lon": 9.6672948}, {"type": "node", "id": 3019829116, "lat": 39.7779164, "lon": 9.6672987}, {"type": "node", "id": 3019829117, "lat": 39.7779195, "lon": 9.6672442}, {"type": "node", "id": 3019829128, "lat": 39.777996, "lon": 9.6677726}, {"type": "node", "id": 3019829131, "lat": 39.7780245, "lon": 9.6672538}, {"type": "node", "id": 3019871804, "lat": 39.5744773, "lon": 9.5881009}, {"type": "node", "id": 3019871805, "lat": 39.5745339, "lon": 9.5881892}, {"type": "node", "id": 3019992100, "lat": 39.8153378, "lon": 9.4880352}, {"type": "node", "id": 3351978096, "lat": 39.9126889, "lon": 9.6792896, "tags": {"amenity": "restaurant", "cuisine": "italian;sardinian", "name": "Locanda Su Pasu"}}, {"type": "node", "id": 3587725394, "lat": 39.6790996, "lon": 9.4412971, "tags": {"amenity": "cafe", "name": "Oasi"}}, {"type": "node", "id": 3587786994, "lat": 39.6819766, "lon": 9.4410153, "tags": {"amenity": "restaurant", "name": "Mura"}}, {"type": "node", "id": 3587787194, "lat": 39.6791963, "lon": 9.4411686, "tags": {"amenity": "cafe", "name": "Il Capriccio"}}, {"type": "node", "id": 3607768764, "lat": 39.9896463, "lon": 9.6885926, "tags": {"amenity": "restaurant", "cuisine": "regional", "name": "MeC Puddu's", "opening_hours": "08:00-15:00,19:00-24:00", "phone": "+39 339 32026669", "website": "https://www.mecpuddus.it/"}}, {"type": "node", "id": 3607849975, "lat": 39.6806759, "lon": 9.6438717, "tags": {"amenity": "restaurant", "cuisine": "italian", "name": "Ristorante Janas"}}, {"type": "node", "id": 3609010685, "lat": 39.7530392, "lon": 9.6727331, "tags": {"amenity": "cafe", "name": "Chiosco Bar"}}, {"type": "node", "id": 3666743425, "lat": 39.9691913, "lon": 9.6645344, "tags": {"addr:city": "Lotzorai", "addr:housenumber": "7", "addr:postcode": "08040", "addr:street": "Via Olimpia", "amenity": "restaurant", "name": "Il Castello"}}, {"type": "node", "id": 3683933725, "lat": 39.902395, "lon": 9.682109, "tags": {"amenity": "restaurant", "cuisine": "pizza", "name": "Su Stancu"}}, {"type": "node", "id": 3684574925, "lat": 39.941972, "lon": 9.661231, "tags": {"amenity": "restaurant", "contact:facebook": "https://www.facebook.com/pizzeriapintadera/", "contact:phone": "+39 329 206 8807", "cuisine": "pizza", "name": "La Pintadera", "opening_hours": "Tu-Su 19:30-24:00"}}, {"type": "node", "id": 4038371095, "lat": 39.9379669, "lon": 9.707803, "tags": {"addr:housenumber": "19", "addr:street": "Via Lungomare", "amenity": "cafe", "check_date": "2024-10-01", "name": "Star 1", "outdoor_seating": "yes"}}, {"type": "node", "id": 4076444503, "lat": 39.9411697, "lon": 9.7064905, "tags": {"amenity": "cafe", "name": "Rosa dei Venti"}}, {"type": "node", "id": 4097355112, "lat": 39.9217062, "lon": 9.6983385, "tags": {"amenity": "cafe", "name": "Babilonia"}}, {"type": "node", "id": 4097753682, "lat": 39.9322228, "lon": 9.6728366, "tags": {"amenity": "cafe"}}, {"type": "node", "id": 4181522633, "lat": 39.9356628, "lon": 9.7065381, "tags": {"addr:city": "Tortol\u00ec", "addr:housenumber": "56", "addr:postcode": "08048", "addr:street": "Via Lungomare", "amenity": "restaurant", "cuisine": "steak_house;burger", "name": "Il Macellaio", "source": "Regione Autonoma della Sardegna (www.sardegnageoportale.it)", "website": "https://il-macellaio.com"}}, {"type": "node", "id": 4181544299, "lat": 39.9248832, "lon": 9.6638124, "tags": {"addr:city": "Tortol\u00ec", "addr:housenumber": "9a", "addr:postcode": "08048", "addr:street": "Via Coghinas", "amenity": "cafe", "source": "Regione Autonoma della Sardegna (www.sardegnageoportale.it)"}}, {"type": "node", "id": 4193565915, "lat": 39.8448711, "lon": 9.6444259, "tags": {"addr:city": "Barisardo", "addr:housenumber": "66", "addr:postcode": "08042", "addr:street": "Via Tortoli", "amenity": "restaurant", "cuisine": "regional;pizza;seafood;steak_house", "name": "Orchidea Blu", "source": "Regione Autonoma della Sardegna (www.sardegnageoportale.it);local knowledge"}}, {"type": "node", "id": 4324448403, "lat": 39.6619076, "lon": 9.5761633}, {"type": "node", "id": 4324448405, "lat": 39.6620305, "lon": 9.5762753}, {"type": "node", "id": 4324448407, "lat": 39.6620498, "lon": 9.5762122}, {"type": "node", "id": 4326294066, "lat": 39.8155288, "lon": 9.6750364}, {"type": "node", "id": 4326294067, "lat": 39.8155576, "lon": 9.6748996}, {"type": "node", "id": 4326294068, "lat": 39.815603, "lon": 9.6751142}, {"type": "node", "id": 4326294069, "lat": 39.8156256, "lon": 9.6748701}, {"type": "node", "id": 4326294070, "lat": 39.815708, "lon": 9.6748996}, {"type": "node", "id": 4326294071, "lat": 39.8157178, "lon": 9.6750947}, {"type": "node", "id": 4326294072, "lat": 39.8157422, "lon": 9.6749816}, {"type": "node", "id": 4361516489, "lat": 39.9307905, "lon": 9.659553, "tags": {"addr:postcode": "08048", "addr:street": "Via Generale Tosciri", "amenity": "restaurant", "cuisine": "pizza", "name": "Pizzeria D'Asporto Giovanni", "name:it": "Pizzeria D'Asporto Giovanni", "opening_hours": "Mo-Su 18:30-23:00", "takeaway": "yes"}}, {"type": "node", "id": 4377348315, "lat": 39.9373031, "lon": 9.7077288, "tags": {"amenity": "restaurant", "cuisine": "italian", "email": "star2.arbatax@hotmail.it", "name": "Star 2", "opening_hours": "12:00-23:00", "phone": "+39 0782 667503"}}, {"type": "node", "id": 4377349089, "lat": 39.9346585, "lon": 9.7067826, "tags": {"amenity": "restaurant", "cuisine": "fish", "name": "Osteria Bepi da Guia", "opening_hours": "13:00-14:30; 20:00-23:30", "phone": "+39 333 5006278"}}, {"type": "node", "id": 4393205487, "lat": 39.9198238, "lon": 9.6936066, "tags": {"amenity": "cafe"}}, {"type": "node", "id": 4393205488, "lat": 39.9208442, "lon": 9.6916808, "tags": {"amenity": "restaurant"}}, {"type": "node", "id": 4393205489, "lat": 39.9209799, "lon": 9.6917585, "tags": {"amenity": "restaurant", "cuisine": "pizza"}}, {"type": "node", "id": 4393273535, "lat": 39.9287248, "lon": 9.6784897, "tags": {"amenity": "cafe", "name": "Green bar"}}, {"type": "node", "id": 4393273537, "lat": 39.9278046, "lon": 9.6719508, "tags": {"amenity": "cafe", "name": "India Caf\u00e8"}}, {"type": "node", "id": 4393273538, "lat": 39.9275601, "lon": 9.6700452, "tags": {"amenity": "restaurant", "cuisine": "pizza", "delivery": "yes", "name": "Il Buongustaio", "takeaway": "yes"}}, {"type": "node", "id": 4393273552, "lat": 39.9268011, "lon": 9.6670343, "tags": {"amenity": "cafe", "name": "Skipper"}}, {"type": "node", "id": 4393586988, "lat": 39.9271848, "lon": 9.6658753, "tags": {"amenity": "cafe", "name": "Bar Europa", "smoking": "outside"}}, {"type": "node", "id": 4393588801, "lat": 39.9270258, "lon": 9.6648865, "tags": {"amenity": "cafe", "name": "Carpe Diem"}}, {"type": "node", "id": 4394929481, "lat": 39.9262342, "lon": 9.6621102, "tags": {"amenity": "cafe", "name": "Caff\u00e8 & Caff\u00e8"}}, {"type": "node", "id": 4394929484, "lat": 39.9265221, "lon": 9.6619863, "tags": {"amenity": "restaurant", "cuisine": "pizza;italian_pizza", "name": "Geppos"}}, {"type": "node", "id": 4394929487, "lat": 39.9263364, "lon": 9.6625628, "tags": {"amenity": "cafe", "name": "Caf\u00e8 Noir", "smoking": "outside"}}, {"type": "node", "id": 4394929591, "lat": 39.9263367, "lon": 9.6579143, "tags": {"addr:postcode": "08048", "addr:street": "Corso Umberto", "amenity": "cafe", "cuisine": "ice_cream", "name": "La Piazzetta", "opening_hours": "Th-Tu 07:00-00:00"}}, {"type": "node", "id": 4394929592, "lat": 39.9262899, "lon": 9.6584855, "tags": {"amenity": "cafe", "name": "Ofelleria"}}, {"type": "node", "id": 4397284881, "lat": 39.9266874, "lon": 9.6648441, "tags": {"amenity": "cafe", "name": "Punto di Incontro"}}, {"type": "node", "id": 4397284885, "lat": 39.9266649, "lon": 9.664579, "tags": {"amenity": "restaurant", "cuisine": "pizza", "name": "Pizzeria da Scattu", "takeaway": "yes"}}, {"type": "node", "id": 4397284886, "lat": 39.9267327, "lon": 9.6650191, "tags": {"amenity": "restaurant", "name": "Sapori d'Ogliastra"}}, {"type": "node", "id": 4397334114, "lat": 39.9261278, "lon": 9.6662583, "tags": {"amenity": "restaurant", "cuisine": "italian", "email": "trattoriadaangelo@tiscali.it", "name": "Trattoria Da Angelo", "phone": "+39 0782 623533", "tourism": "hotel", "website": "http://www.trattoriadaangelo.it/"}}, {"type": "node", "id": 4400725152, "lat": 39.9314337, "lon": 9.6943997, "tags": {"amenity": "restaurant", "cuisine": "italian", "delivery": "no", "name": "Le Terrazze"}}, {"type": "node", "id": 4400725153, "lat": 39.9256499, "lon": 9.7033983, "tags": {"amenity": "restaurant", "cuisine": "italian", "name": "ThoLoi", "opening_hours": "Tu-Su 12:00-15:00, 19:00-23:00", "phone": "+39 0782 664095", "phone_1": "3478563356"}}, {"type": "node", "id": 4400725154, "lat": 39.9238843, "lon": 9.7035753, "tags": {"abandoned": "yes", "amenity": "cafe", "name": "Mai-Tai", "smoking": "outside"}}, {"type": "node", "id": 4400725155, "lat": 39.9257529, "lon": 9.7053464, "tags": {"amenity": "cafe", "name": "Bouganville", "shop": "tobacco", "smoking": "outside"}}, {"type": "node", "id": 4400725156, "lat": 39.9252314, "lon": 9.7071374, "tags": {"amenity": "cafe", "name": "Symposion Lounge Bar", "opening_hours": "18:00-01:00", "phone": "+39 0782 667080", "smoking": "outside"}}, {"type": "node", "id": 4400725206, "lat": 39.9278979, "lon": 9.7062817, "tags": {"addr:city": "Arbatax", "addr:housenumber": "38", "addr:postcode": "08048", "addr:street": "Via Porto Frailis", "amenity": "restaurant", "cuisine": "italian;wine", "name": "Incontro Di Vino di Carpe Diem", "opening_hours": "18:30-01:00", "outdoor_seating": "yes", "phone": "+390782667408", "smoking": "outside", "website": "https://incontro-di-vino-di-carpe-diem.jimdosite.com/", "wheelchair": "yes"}}, {"type": "node", "id": 4400783361, "lat": 39.9309311, "lon": 9.6978626, "tags": {"addr:city": "Tortol\u00ec", "addr:housenumber": "5", "addr:postcode": "08048", "addr:street": "Piazza Porr\u00e0", "amenity": "restaurant", "cuisine": "italian", "name": "Sa Serbidora", "phone": "+39 328 3374338"}}, {"type": "node", "id": 4400783362, "lat": 39.9363163, "lon": 9.7079489, "tags": {"addr:city": "Arbatax", "addr:housenumber": "14", "addr:postcode": "08048", "addr:street": "Via Faro Bellavista", "amenity": "restaurant", "cuisine": "italian", "delivery": "yes", "name": "Del Porto", "opening_hours": "18:30-23:00", "phone": "+39 0782 667901", "phone_1": "3291383189", "takeaway": "yes"}}, {"type": "node", "id": 4400783363, "lat": 39.9278783, "lon": 9.6894056, "tags": {"amenity": "restaurant", "cuisine": "italian", "name": "Da Capo", "opening_hours": "Tu-Su 12:00-14:30, 19:00-22:30", "phone": "+39 0782 620127", "phone_1": "3381454707", "smoking": "outside", "website": "https://www.ristorantedacapo.com/"}}, {"type": "node", "id": 4400790566, "lat": 39.926445, "lon": 9.6579986, "tags": {"addr:postcode": "08048", "addr:street": "Corso Umberto", "amenity": "restaurant", "contact:facebook": "pappaefui", "contact:instagram": "pappaefui", "cuisine": "italian;italian_pizza;pizza", "name": "Pappa e Fui", "opening_hours": "Mo-Sa 12:00-15:00, 19:00-23:30; Su 19:00-23:30", "phone": "+39 0782 620116", "takeaway": "yes"}}, {"type": "node", "id": 4400792237, "lat": 39.9264927, "lon": 9.6559154, "tags": {"amenity": "cafe", "disused": "yes", "name": "Bar Boi", "smoking": "outside"}}, {"type": "node", "id": 4400843750, "lat": 39.9263948, "lon": 9.6576671, "tags": {"amenity": "cafe", "name": "La Corte", "tourism": "hotel"}}, {"type": "node", "id": 4400872916, "lat": 39.9265307, "lon": 9.6513816, "tags": {"amenity": "cafe", "name": "Bar dello Studente"}}, {"type": "node", "id": 4401061713, "lat": 39.927509, "lon": 9.663566, "tags": {"amenity": "cafe", "name": "Da Franco"}}, {"type": "node", "id": 4401092843, "lat": 39.9311298, "lon": 9.6599381, "tags": {"amenity": "cafe", "name": "Bar Gennargentu"}}, {"type": "node", "id": 4404142036, "lat": 39.9278155, "lon": 9.6697909, "tags": {"amenity": "cafe"}}, {"type": "node", "id": 4406539637, "lat": 39.9246019, "lon": 9.6682592, "tags": {"amenity": "cafe", "name": "Lo Sport \u00e8 Vita", "phone": "+39 0782 624827", "smoking": "outside"}}, {"type": "node", "id": 4414996090, "lat": 39.7938785, "lon": 9.5164314, "tags": {"addr:city": "Jerzu", "addr:postcode": "08044", "addr:street": "Via Umberto I", "amenity": "cafe", "cuisine": "ice_cream;breakfast;coffee_shop;cake", "name": "Pasticceria Belvedere", "name:it": "Pasticceria Belvedere"}}, {"type": "node", "id": 4614259390, "lat": 39.8936954, "lon": 9.5440307, "tags": {"amenity": "cafe", "name": "Special One Caff\u00e8", "name:it": "Special One Caff\u00e8"}}, {"type": "node", "id": 4880218009, "lat": 39.8388935, "lon": 9.683081, "tags": {"amenity": "restaurant", "indoor_seating": "yes", "name": "Sard Cafe", "opening_hours": "08:00-05:00", "outdoor_seating": "yes"}}, {"type": "node", "id": 5036859404, "lat": 39.9576858, "lon": 9.4406354, "tags": {"amenity": "restaurant", "name": "Ristorante il Nido dell'Acquila", "website": "http://www.ilnidodellaquila.it/"}}, {"type": "node", "id": 5098136223, "lat": 39.9259395, "lon": 9.6578494, "tags": {"addr:housenumber": "12", "addr:postcode": "08048", "addr:street": "Via Roma", "amenity": "restaurant", "name": "Viaggi e Sapori", "name:it": "Viaggi e Sapori", "phone": "+39 0782 624928", "website": "https://www.viaggiesapori.com/"}}, {"type": "node", "id": 5119703321, "lat": 39.92682, "lon": 9.6549235, "tags": {"amenity": "cafe", "name": "Boomerang"}}, {"type": "node", "id": 5124842177, "lat": 39.6666099, "lon": 9.5844756, "tags": {"alt_name": "Agriturismo Donnolu", "amenity": "restaurant", "contact:email": "sandralara2010@libero.it", "contact:facebook": "https://www.facebook.com/Agriturismo-donnol\u00f9-935553686524497/", "contact:phone": "+39 347 8857926;+39 333 7393113", "cuisine": "regional;sardinian", "name": "Agriturismo Donnol\u00f9"}}, {"type": "node", "id": 5126124146, "lat": 39.5746447, "lon": 9.5880708}, {"type": "node", "id": 5126124147, "lat": 39.5745891, "lon": 9.5879813}, {"type": "node", "id": 5247158574, "lat": 39.8468362, "lon": 9.6107183, "tags": {"amenity": "restaurant", "contact:email": "info@agriturismogliastra.it", "contact:phone": "+39 368 327 2583", "contact:website": "http://www.agriturismogliastra.it", "cuisine": "regional;sardinian", "name": "Agriturismo Ogliastra"}}, {"type": "node", "id": 5247158869, "lat": 39.8708835, "lon": 9.603467, "tags": {"amenity": "restaurant", "contact:email": "info@subarraccu.it", "contact:facebook": "https://www.facebook.com/subarraccu/", "contact:instagram": "https://www.instagram.com/agriturismosubarraccu/", "contact:phone": "+39 334 949 4062", "contact:website": "http://www.subarraccu.it", "cuisine": "regional;sardinian", "name": "Agriturismo Su Barraccu"}}, {"type": "node", "id": 5248512056, "lat": 39.7977341, "lon": 9.5999912}, {"type": "node", "id": 5248512057, "lat": 39.797596, "lon": 9.6001951}, {"type": "node", "id": 5248512058, "lat": 39.7974963, "lon": 9.6000807}, {"type": "node", "id": 5248512059, "lat": 39.7976344, "lon": 9.5998768}, {"type": "node", "id": 5259460148, "lat": 39.6689112, "lon": 9.653407}, {"type": "node", "id": 5259460149, "lat": 39.6689248, "lon": 9.6534239}, {"type": "node", "id": 5259460150, "lat": 39.6689291, "lon": 9.6534719}, {"type": "node", "id": 5259460151, "lat": 39.6689563, "lon": 9.6534931}, {"type": "node", "id": 5259460152, "lat": 39.6689965, "lon": 9.6535186}, {"type": "node", "id": 5259460153, "lat": 39.6689998, "lon": 9.6535581}, {"type": "node", "id": 5259460154, "lat": 39.6689737, "lon": 9.6535764}, {"type": "node", "id": 5259460155, "lat": 39.6689498, "lon": 9.65364}, {"type": "node", "id": 5259460156, "lat": 39.6689095, "lon": 9.6536273}, {"type": "node", "id": 5259460157, "lat": 39.6686911, "lon": 9.6533682}, {"type": "node", "id": 5259460158, "lat": 39.6686807, "lon": 9.6533096}, {"type": "node", "id": 5259462196, "lat": 39.6686916, "lon": 9.6532947}, {"type": "node", "id": 5259462197, "lat": 39.668722, "lon": 9.6532961}, {"type": "node", "id": 5259462198, "lat": 39.6687932, "lon": 9.6533039}, {"type": "node", "id": 5259462199, "lat": 39.668809, "lon": 9.6533286}, {"type": "node", "id": 5259462200, "lat": 39.6688008, "lon": 9.6533562}, {"type": "node", "id": 5259462201, "lat": 39.6688095, "lon": 9.6534049}, {"type": "node", "id": 5259462202, "lat": 39.668822, "lon": 9.6534133}, {"type": "node", "id": 5259462203, "lat": 39.6688688, "lon": 9.6534105}, {"type": "node", "id": 5321813964, "lat": 39.8193488, "lon": 9.6761913}, {"type": "node", "id": 5321813965, "lat": 39.8192503, "lon": 9.6762032}, {"type": "node", "id": 5321813966, "lat": 39.8192529, "lon": 9.6763466}, {"type": "node", "id": 5321813967, "lat": 39.8193381, "lon": 9.6763492}, {"type": "node", "id": 5514317696, "lat": 39.699331, "lon": 9.5771423, "tags": {"amenity": "cafe"}}, {"type": "node", "id": 5514317700, "lat": 39.6963019, "lon": 9.5779014, "tags": {"amenity": "cafe", "indoor_seating": "yes", "outdoor_seating": "yes"}}, {"type": "node", "id": 5579276514, "lat": 39.6985038, "lon": 9.5768783, "tags": {"amenity": "cafe"}}, {"type": "node", "id": 5713384488, "lat": 39.9071099, "lon": 9.6811109, "tags": {"amenity": "restaurant"}}, {"type": "node", "id": 5869220785, "lat": 39.8826813, "lon": 9.5432826, "tags": {"amenity": "restaurant", "name": "Black Out"}}, {"type": "node", "id": 5870605685, "lat": 39.8832745, "lon": 9.5426938, "tags": {"amenity": "restaurant", "name": "Black Out"}}, {"type": "node", "id": 5912207785, "lat": 39.8583507, "lon": 9.5847556, "tags": {"addr:housenumber": "80", "amenity": "restaurant", "cuisine": "regional", "name": "Al Vecchio Rione"}}, {"type": "node", "id": 5940920917, "lat": 39.8191451, "lon": 9.6723216, "tags": {"amenity": "restaurant", "cuisine": "pizza", "name": "Ristorante Pizzeria Fam. Gangi"}}, {"type": "node", "id": 5969128983, "lat": 39.9701355, "lon": 9.6616926, "tags": {"amenity": "restaurant", "cuisine": "barbecue;pizza", "name": "Sardinian BBQ Pizzeria Bisteccheria"}}, {"type": "node", "id": 6005903840, "lat": 39.9911315, "lon": 9.6879596, "tags": {"addr:city": "Santa Maria Navarrese", "addr:housenumber": "55-57", "addr:postcode": "08040", "addr:street": "Viale Plammas", "amenity": "restaurant", "cuisine": "italian;pizza", "name": "Pizzeria Trattoria Forno a Legna", "outdoor_seating": "yes", "source": "survey"}}, {"type": "node", "id": 6154235385, "lat": 39.982835, "lon": 9.6857035, "tags": {"amenity": "restaurant", "cuisine": "pizza", "name": "Pizzeria Tancau"}}, {"type": "node", "id": 6354535345, "lat": 39.8421807, "lon": 9.6414736, "tags": {"addr:city": "Bar\u00ec/Bari Sardo", "addr:city:it": "Bari Sardo", "addr:city:sc": "Bar\u00ec", "addr:housenumber": "5", "addr:postcode": "08042", "addr:street": "Via Parrocchia", "amenity": "restaurant", "cuisine": "pizza", "name": "Principe D'Ogliastra", "outdoor_seating": "yes", "phone": "0039 320 881 3355"}}, {"type": "node", "id": 6354555845, "lat": 39.8428714, "lon": 9.6452491, "tags": {"addr:city": "Bar\u00ec/Bari Sardo", "addr:housenumber": "5 A", "addr:postcode": "08042", "addr:street": "Via Mare", "amenity": "restaurant", "cuisine": "regional;seafood;steak_house;italian", "name": "L'Imperfetto Ristorante", "outdoor_seating": "yes", "phone": "+39 327 831 7017"}}, {"type": "node", "id": 6574583685, "lat": 39.8108381, "lon": 9.4993542, "tags": {"amenity": "restaurant", "cuisine": "italian_pizza;italian", "name": "Pizzeria Gian Battista"}}, {"type": "node", "id": 6574583986, "lat": 39.9428744, "lon": 9.4999683, "tags": {"amenity": "restaurant", "name": "Il Bosco"}}, {"type": "node", "id": 6742892144, "lat": 39.8376979, "lon": 9.6463668, "tags": {"addr:housenumber": "28", "addr:street": "Via Antonio Gramsci", "amenity": "restaurant", "cuisine": "italian_pizza;italian;seafood", "name": "I Tre Mori"}}, {"type": "node", "id": 6792224451, "lat": 39.7683012, "lon": 9.6674656, "tags": {"amenity": "restaurant", "name": "Mirage"}}, {"type": "node", "id": 6793838855, "lat": 39.7963705, "lon": 9.6301402, "tags": {"addr:housenumber": "33", "addr:street": "Via Mare", "amenity": "restaurant", "name": "Bar Ristorante Pizzeria Via Mare", "opening_hours": "Mo-Su 12:00-15:00,18:00-24:00", "phone": "+39 0782 70362"}}, {"type": "node", "id": 6815996087, "lat": 39.9231727, "lon": 9.7099626, "tags": {"amenity": "restaurant", "name": "Ristorante del Camping Villaggio Telis", "opening_hours": "Mo-Su 19:00-22:00", "website": "https://campingtelis.com/camping-village-con-ristorante-sardegna/"}}, {"type": "node", "id": 7383038559, "lat": 39.9822769, "lon": 9.6859905, "tags": {"amenity": "restaurant"}}, {"type": "node", "id": 7985730999, "lat": 39.7938372, "lon": 9.5164815, "tags": {"addr:city": "Jerzu", "addr:postcode": "08044", "amenity": "restaurant", "name": "RistorantePizzeria Bruschetteria Da Maria"}}, {"type": "node", "id": 8795745236, "lat": 39.7905715, "lon": 9.6078755}, {"type": "node", "id": 8795745237, "lat": 39.790568, "lon": 9.6079752}, {"type": "node", "id": 8795745238, "lat": 39.7906143, "lon": 9.607978}, {"type": "node", "id": 8795745239, "lat": 39.7906121, "lon": 9.6080383}, {"type": "node", "id": 8795745240, "lat": 39.7903783, "lon": 9.6080193}, {"type": "node", "id": 8795745241, "lat": 39.7903838, "lon": 9.6078642}, {"type": "node", "id": 8843005303, "lat": 39.8992438, "lon": 9.5140081}, {"type": "node", "id": 8843005304, "lat": 39.8991618, "lon": 9.5139658}, {"type": "node", "id": 8843005305, "lat": 39.8991937, "lon": 9.5138605}, {"type": "node", "id": 8843005306, "lat": 39.8992757, "lon": 9.5139028}, {"type": "node", "id": 8918850585, "lat": 39.811631, "lon": 9.5001911, "tags": {"amenity": "restaurant", "contact:facebook": "https://www.facebook.com/ristopubferroefuoco/", "contact:phone": "+39 0782 222999", "name": "Risto Pub Ferro & Fuoco"}}, {"type": "node", "id": 8987558308, "lat": 39.8796936, "lon": 9.5419659, "tags": {"amenity": "restaurant", "name": "Ka.mi.ste"}}, {"type": "node", "id": 9816318152, "lat": 39.9075712, "lon": 9.6761922, "tags": {"addr:city": "Tortoli", "addr:postcode": "08048", "addr:street": "Strada per Lido di Orri'", "amenity": "restaurant", "cuisine": "barbecue;italian;noodle;pizza;regional", "kids_area:outdoor": "yes", "name": "San Salvatore", "outdoor_seating": "yes", "takeaway": "yes"}}, {"type": "node", "id": 9869855976, "lat": 39.9264314, "lon": 9.6581929, "tags": {"amenity": "restaurant", "name": "Locanda 45"}}, {"type": "node", "id": 9869863375, "lat": 39.9265459, "lon": 9.6639211, "tags": {"amenity": "restaurant", "cuisine": "seafood"}}, {"type": "node", "id": 9885770666, "lat": 39.79022, "lon": 9.5199206, "tags": {"amenity": "restaurant", "cuisine": "local", "name": "Da Concetta", "opening_hours": "Mo-Sa 12:30-15:00, 20:00-21:30; Su 12:30-15:00", "payment:cash": "yes", "payment:credit_cards": "yes", "payment:debit_cards": "yes", "wheelchair": "no"}}, {"type": "node", "id": 9893729906, "lat": 39.796924, "lon": 9.6258889, "tags": {"amenity": "restaurant", "name": "Ristorante Ittico L' Acquario"}}, {"type": "node", "id": 9931726817, "lat": 39.8113695, "lon": 9.4999845, "tags": {"amenity": "restaurant", "cuisine": "burger;cake;chicken;deli;grill;ice_cream;italian", "name": "Risto-pub Ferro E Fuoco"}}, {"type": "node", "id": 10292936190, "lat": 39.8635628, "lon": 9.6264696, "tags": {"amenity": "restaurant", "name": "Agriturismo Su Solianu"}}, {"type": "node", "id": 10559387568, "lat": 39.8193067, "lon": 9.6761694}, {"type": "node", "id": 10559387569, "lat": 39.8193773, "lon": 9.676225}, {"type": "node", "id": 10559387570, "lat": 39.8193417, "lon": 9.6762998}, {"type": "node", "id": 10559387571, "lat": 39.8192525, "lon": 9.6762656}, {"type": "node", "id": 10559387572, "lat": 39.8192122, "lon": 9.67621}, {"type": "node", "id": 10559387573, "lat": 39.8192286, "lon": 9.676181}, {"type": "node", "id": 10601419887, "lat": 39.803476, "lon": 9.629139, "tags": {"amenity": "restaurant", "cuisine": "pizza;pasta", "name": "Da Lorenzo"}}, {"type": "node", "id": 10614697107, "lat": 39.8333506, "lon": 9.6567276, "tags": {"amenity": "restaurant", "name": "Agriturismo Chiai Francesco"}}, {"type": "node", "id": 10848245803, "lat": 39.7272422, "lon": 9.6743903, "tags": {"amenity": "restaurant", "description": "From apr 1st to oct last", "name": "Pizzeria Efis", "website": "https://web-menu.cassanova.com/5620021b-7c5a-4ccc-bfc0-7fd7c5bc6266/14080/categories/"}}, {"type": "node", "id": 10928591207, "lat": 39.9663981, "lon": 9.6843103, "tags": {"addr:postcode": "08040", "addr:street": "Via Is Orrosas", "amenity": "restaurant", "name": "L'Aragosta"}}, {"type": "node", "id": 10928591405, "lat": 39.9655205, "lon": 9.6840102, "tags": {"addr:postcode": "08040", "addr:street": "Via Is Orrosas", "amenity": "restaurant", "name": "Bar Ristorante", "name:it": "Bar Ristorante Pizzeria Le Rose"}}, {"type": "node", "id": 11139155505, "lat": 39.9621082, "lon": 9.5062471, "tags": {"amenity": "restaurant", "name": "Sapori di Sardegna"}}, {"type": "node", "id": 11172593277, "lat": 39.925723, "lon": 9.7032418, "tags": {"amenity": "restaurant", "cuisine": "italian", "name": "Acquolina"}}, {"type": "node", "id": 11271708660, "lat": 39.7850315, "lon": 9.6688901, "tags": {"amenity": "restaurant", "name": "Bar Ristorante Pizzeria Sa Scogliera"}}, {"type": "node", "id": 11619371092, "lat": 39.6970705, "lon": 9.5737347, "tags": {"addr:postcode": "08047", "amenity": "restaurant", "cuisine": "italian_pizza;pizza;regional", "name": "Sa Omo"}}, {"type": "node", "id": 11829943537, "lat": 39.8981769, "lon": 9.6808498, "tags": {"amenity": "restaurant", "contact:phone": "+39 339 294 6279", "name": "Hakuna Matata Beach", "website": "https://www.hakunamatatabeach.it/"}}, {"type": "node", "id": 12063751546, "lat": 39.9384178, "lon": 9.7068496, "tags": {"amenity": "restaurant", "name": "Pesceria PESCATORI STELLA MARIS", "opening_hours": "Mo off; Tu-Su 09:00-14:30,18:00-22:00", "phone": "+390782664005"}}, {"type": "node", "id": 12117265901, "lat": 39.8567441, "lon": 9.5829733, "tags": {"addr:street": "Via Roma", "amenity": "restaurant", "cuisine": "pizza", "name": "Cenere Pizzeria"}}, {"type": "node", "id": 12208874401, "lat": 39.8783045, "lon": 9.5418262, "tags": {"addr:housenumber": "31", "addr:street": "Via Roma", "amenity": "cafe", "cuisine": "ice_cream", "name": "Gelateria del Corso", "opening_hours": "Mo-Su 06:00-00:00"}}, {"type": "node", "id": 12214463177, "lat": 39.9879618, "lon": 9.6873419, "tags": {"addr:city": "Santa Maria Navarrese", "addr:housenumber": "6", "addr:postcode": "08040", "addr:street": "Viale Pedras", "amenity": "restaurant", "cuisine": "pizza", "name": "PizzAjo", "phone": "+39 0782 615367"}}, {"type": "node", "id": 12216168686, "lat": 39.8800496, "lon": 9.5402653, "tags": {"addr:city": "Lanusei", "addr:housenumber": "78", "addr:postcode": "08045", "addr:street": "Via Umberto Primo di Savoia", "amenity": "restaurant", "name": "Black Moon Bistrot"}}, {"type": "node", "id": 12488618214, "lat": 39.7904806, "lon": 9.6080304}, {"type": "node", "id": 12488618217, "lat": 39.7903935, "lon": 9.6080251}, {"type": "node", "id": 12796059633, "lat": 39.6682247, "lon": 9.6454652, "tags": {"amenity": "cafe", "indoor_seating": "yes", "name": "Coco Caf\u00e9", "not:brand:wikidata": "Q65084369", "outdoor_seating": "yes"}}, {"type": "node", "id": 12800302481, "lat": 39.6950674, "lon": 9.5798201, "tags": {"amenity": "cafe", "indoor_seating": "yes", "outdoor_seating": "yes"}}, {"type": "node", "id": 12800311210, "lat": 39.6972658, "lon": 9.5769641, "tags": {"amenity": "cafe", "indoor_seating": "yes", "name": "Portico Bar", "outdoor_seating": "yes"}}, {"type": "node", "id": 12802965163, "lat": 39.6683434, "lon": 9.6454659, "tags": {"amenity": "restaurant", "cuisine": "pizza", "diet:vegetarian": "yes", "indoor_seating": "yes", "name": "Da Giorgio", "outdoor_seating": "yes"}}, {"type": "node", "id": 12859614251, "lat": 39.9895862, "lon": 9.690281, "tags": {"addr:city": "Santa Maria Navarrese", "addr:country": "IT", "addr:housenumber": "1", "addr:postcode": "08040", "amenity": "restaurant", "cuisine": "italian", "name": "Su Forru Pizzeria", "phone": "+39 351 7245698", "street": "Via Arala"}}, {"type": "node", "id": 12877016044, "lat": 39.9251169, "lon": 9.6494166, "tags": {"amenity": "cafe"}}, {"type": "way", "id": 136409145, "nodes": [1496337972, 1496337970, 1496337973, 1413725380, 1496337972], "tags": {"amenity": "restaurant", "building": "yes", "cuisine": "regional", "name": "Niala"}}, {"type": "way", "id": 171267118, "nodes": [1823253286, 1823253290, 1823253287, 1823253285, 1823253281, 1823253279, 3019992100, 2955564394, 1823253286], "tags": {"amenity": "restaurant", "building": "yes", "contact:facebook": "https://www.facebook.com/pages/Ristorante-Su-Bullicciu/859912630802906", "contact:phone": "+39 0782 79859", "cuisine": "regional", "name": "Su Bullicciu"}}, {"type": "way", "id": 238314718, "nodes": [2461614529, 2461614527, 2461614525, 2461614526, 2461614529], "tags": {"amenity": "cafe", "name": "La Torre"}}, {"type": "way", "id": 238322661, "nodes": [2461710812, 2461710802, 2461710800, 2461710793, 2461710795, 2461710798, 2461710804, 2461710806, 2461710818, 2461710816, 2461710810, 2461710808, 2461710814, 2461710812], "tags": {"amenity": "restaurant", "building": "yes", "cuisine": "italian", "name": "Da Lenin", "opening_hours": "Mo-Sa 19:30-22:30", "phone": "+39 348 5445555"}}, {"type": "way", "id": 247304361, "nodes": [2542160871, 2542160869, 2542160857, 2542160859, 2542160871], "tags": {"amenity": "restaurant", "building": "yes", "contact:phone": "+39 320 688 7282", "cuisine": "italian;sardinian", "name": "Cala Surya"}}, {"type": "way", "id": 273743555, "nodes": [2785734669, 2785734609, 2785734634, 2785734619, 2785734583, 2785734566, 2785734540, 2785734514, 2785734533, 2785734532, 2785734592, 2785734620, 2785734669], "tags": {"agritourism": "yes", "amenity": "restaurant", "building": "yes", "landuse": "farmyard", "name": "S'arvescidorgiu"}}, {"type": "way", "id": 288018847, "nodes": [2915720387, 2915720388, 2915720389, 2915720390, 2915720391, 2915720387], "tags": {"amenity": "cafe", "name": "Joker's Caf\u00e9", "opening_hours": "24/7"}}, {"type": "way", "id": 289634821, "nodes": [2931777503, 2931776892, 2931776969, 2931775880, 2931775836, 2931774793, 2931775356, 2931776973, 2931776962, 2931777218, 2931777232, 2931777524, 2931777402, 2931777560, 2931777503], "tags": {"addr:city": "Tortol\u00ec", "addr:housenumber": "9", "addr:postcode": "08048", "addr:street": "Via Coghinas", "amenity": "cafe", "bar": "yes", "building": "commercial", "cuisine": "coffee_shop;biliardo;giochi_di_societ\u00e0", "name": "Urban caf\u00e8", "opening_hours": "24/7", "outdoor_seating": "yes", "toilets": "yes", "website": "https://www.instagram.com/urban_cafe_tortoli?igsh=ejdwaXVlYnhrMmY3&utm_source=qr", "wheelchair": "yes"}}, {"type": "way", "id": 289635962, "nodes": [2931764172, 2931764173, 2931764175, 2931764174, 2931764172], "tags": {"amenity": "cafe", "building": "yes", "name": "Bar Orr\u00ed"}}, {"type": "way", "id": 297852253, "nodes": [3017541526, 3017541544, 3017541513, 3017541493, 3017541526], "tags": {"addr:city": "Santa Maria Navarrese", "addr:housenumber": "30", "addr:postcode": "08040", "addr:street": "Viale Plammas", "amenity": "restaurant", "building": "yes", "cuisine": "italian", "name": "Ristorante Albergo Santa Maria", "opening_hours": "12:30-15:00,19:30-23:00", "smoking": "outside", "website": "https://www.albergosantamaria.it/"}}, {"type": "way", "id": 298056139, "nodes": [3019760330, 3019760326, 3019760548, 3019760561, 3019760560, 4324448407, 4324448405, 3019760547, 4324448403, 3019760330], "tags": {"addr:city": "Tertenia", "addr:country": "IT", "addr:housenumber": "98", "addr:postcode": "08047", "addr:street": "Strada Statale 125", "amenity": "restaurant", "building": "yes", "cuisine": "sardinian", "email": "agriturismocirra@yahoo.it", "name": "Agriturismo Cirra", "phone": "+39 338 8196123", "website": "http://www.agriturismocirratertenia.com"}}, {"type": "way", "id": 298061076, "nodes": [3019829128, 3019829099, 3019829103, 3019829109, 3019829110, 3019829116, 3019829117, 3019829131, 3019829128], "tags": {"amenity": "restaurant", "building": "detached", "building:levels": "1", "cuisine": "italian", "name": "Depau", "opening_hours": "Mo-Su,PH 08:00-24:00", "roof:levels": "0"}}, {"type": "way", "id": 434668074, "nodes": [4326294072, 4326294071, 4326294068, 4326294066, 4326294067, 4326294069, 4326294070, 4326294072], "tags": {"amenity": "restaurant", "building": "yes", "cuisine": "italian;burger;coffee_shop", "name": "Ciringhito Bar Ristorante"}}, {"type": "way", "id": 527237706, "nodes": [5126124146, 3019871805, 3019871804, 5126124147, 5126124146], "tags": {"amenity": "cafe", "building": "yes"}}, {"type": "way", "id": 542901005, "nodes": [5248512059, 5248512056, 5248512057, 5248512058, 5248512059], "tags": {"amenity": "cafe", "building": "detached", "building:levels": "1", "name": "Bar San Paolo di Lai Stefano", "opening_hours": "Mo-Sa 08:30-01:00, Su,PH 08:30-24:00", "roof:levels": "0"}}, {"type": "way", "id": 544086381, "nodes": [5259460158, 5259460157, 5259460156, 5259460155, 5259460154, 5259460153, 5259460152, 5259460151, 5259460150, 5259460149, 5259460148, 5259462203, 5259462202, 5259462201, 5259462200, 5259462199, 5259462198, 5259462197, 5259462196, 5259460158], "tags": {"amenity": "restaurant", "building": "yes", "name": "Ristorante Punta Moros"}}, {"type": "way", "id": 551037923, "nodes": [5321813967, 5321813966, 10559387571, 10559387572, 10559387573, 5321813965, 10559387568, 5321813964, 10559387569, 10559387570, 5321813967], "tags": {"amenity": "restaurant", "building": "yes", "cuisine": "pizza", "name": "Foxi"}}, {"type": "way", "id": 950105150, "nodes": [8795745236, 8795745237, 8795745238, 8795745239, 12488618214, 12488618217, 8795745240, 8795745241, 8795745236], "tags": {"amenity": "cafe", "building": "yes"}}, {"type": "way", "id": 955453387, "nodes": [8843005306, 8843005303, 8843005304, 8843005305, 8843005306], "tags": {"addr:city": "Elini", "addr:housenumber": "Km 178+780", "addr:postcode": "08040", "addr:street": "Strada Statale 389 di Buddus\u00f2 e del Correboi", "amenity": "cafe", "building": "yes", "name": "Bar Su Macili"}}]}