{"version": 0.6, "generator": "Overpass API 0.7.62.7 375dc00a", "osm3s": {"timestamp_osm_base": "2025-06-14T14:56:39Z", "copyright": "The data included in this document is from www.openstreetmap.org. The data is made available under ODbL."}, "elements": [{"type": "node", "id": 2843535061, "lat": 40.223007, "lon": 28.8638653, "tags": {"amenity": "cafe", "cuisine": "sandwich;chicken;regional", "name": "Han Cafe"}}, {"type": "node", "id": 2985543143, "lat": 40.2186641, "lon": 28.9641234, "tags": {"amenity": "restaurant", "name": "Club Havuzlu Konak", "phone": "+902244433370"}}, {"type": "node", "id": 3066510702, "lat": 40.2132598, "lon": 28.9152191}, {"type": "node", "id": 3066510703, "lat": 40.2132936, "lon": 28.9147295}, {"type": "node", "id": 3066510704, "lat": 40.2130466, "lon": 28.9147118}, {"type": "node", "id": 3066510705, "lat": 40.2130195, "lon": 28.9151903}, {"type": "node", "id": 3066515235, "lat": 40.2132204, "lon": 28.9147243}, {"type": "node", "id": 3067944435, "lat": 40.2196765, "lon": 28.9008476, "tags": {"amenity": "cafe", "name": "Piraye Kafe"}}, {"type": "node", "id": 3078192149, "lat": 40.2132741, "lon": 28.9150125}, {"type": "node", "id": 3081294387, "lat": 40.2130188, "lon": 28.9305635}, {"type": "node", "id": 3081294398, "lat": 40.2131137, "lon": 28.930576}, {"type": "node", "id": 3081294399, "lat": 40.2128948, "lon": 28.9304202}, {"type": "node", "id": 3081294400, "lat": 40.2131233, "lon": 28.9304503}, {"type": "node", "id": 3081294401, "lat": 40.2128851, "lon": 28.930546}, {"type": "node", "id": 3081381974, "lat": 40.2189751, "lon": 28.9151184}, {"type": "node", "id": 3081381975, "lat": 40.2189689, "lon": 28.915218}, {"type": "node", "id": 3081381976, "lat": 40.2190411, "lon": 28.9152264}, {"type": "node", "id": 3081381977, "lat": 40.2190468, "lon": 28.9151264}, {"type": "node", "id": 3647723973, "lat": 40.2035242, "lon": 28.9939062, "tags": {"amenity": "restaurant", "name": "Tavac\u0131 Recep Usta"}}, {"type": "node", "id": 3694898038, "lat": 40.2011599, "lon": 28.9814828, "tags": {"amenity": "cafe", "name": "Unella Unlu Mal\u00fcller"}}, {"type": "node", "id": 3840422073, "lat": 40.1897665, "lon": 28.6857995}, {"type": "node", "id": 3840422074, "lat": 40.1897888, "lon": 28.6857026}, {"type": "node", "id": 3840422075, "lat": 40.189927, "lon": 28.6857679}, {"type": "node", "id": 3840422076, "lat": 40.1899065, "lon": 28.6858602}, {"type": "node", "id": 3840712773, "lat": 40.1667263, "lon": 28.6797235}, {"type": "node", "id": 3840712774, "lat": 40.1667843, "lon": 28.6794335}, {"type": "node", "id": 3840712775, "lat": 40.1666566, "lon": 28.6793798}, {"type": "node", "id": 3840712776, "lat": 40.1665461, "lon": 28.6797142}, {"type": "node", "id": 3840712777, "lat": 40.1666068, "lon": 28.6797352}, {"type": "node", "id": 3840712778, "lat": 40.1664915, "lon": 28.6795719}, {"type": "node", "id": 3840712779, "lat": 40.1664328, "lon": 28.6796097}, {"type": "node", "id": 3840712780, "lat": 40.1665074, "lon": 28.6798084}, {"type": "node", "id": 3840712781, "lat": 40.1665661, "lon": 28.6797707}, {"type": "node", "id": 4424244089, "lat": 40.2167298, "lon": 29.0010711, "tags": {"amenity": "restaurant", "name": "K\u00f6fteci Yusuf", "name:ar": "\u0643\u0641\u062a\u0649 \u064a\u0648\u0633\u0641"}}, {"type": "node", "id": 4529766687, "lat": 40.1761678, "lon": 28.8460024}, {"type": "node", "id": 4529766688, "lat": 40.1758793, "lon": 28.8460541}, {"type": "node", "id": 4529767489, "lat": 40.1759065, "lon": 28.8462351}, {"type": "node", "id": 4529767490, "lat": 40.1761811, "lon": 28.846168}, {"type": "node", "id": 4529777730, "lat": 40.1845698, "lon": 29.0073409}, {"type": "node", "id": 4529777731, "lat": 40.1845212, "lon": 29.0070902}, {"type": "node", "id": 4529777732, "lat": 40.1842668, "lon": 29.0071837}, {"type": "node", "id": 4529777733, "lat": 40.1842954, "lon": 29.0073483}, {"type": "node", "id": 4529777734, "lat": 40.1844298, "lon": 29.0073034}, {"type": "node", "id": 4529777735, "lat": 40.184444, "lon": 29.0073895}, {"type": "node", "id": 4529868951, "lat": 40.1800822, "lon": 28.9735803}, {"type": "node", "id": 4529868952, "lat": 40.1798965, "lon": 28.9733578}, {"type": "node", "id": 4529868953, "lat": 40.1797265, "lon": 28.9733691}, {"type": "node", "id": 4529868954, "lat": 40.1799954, "lon": 28.973703}, {"type": "node", "id": 4576708690, "lat": 40.1674316, "lon": 28.6819167, "tags": {"amenity": "restaurant", "name": "sevgi p\u0131t\u0131rc\u0131klar\u0131 et bal\u0131k lokantas\u0131", "opening_hours": "Mo-Su 08:00-22:00", "operator": "Fatma Bakar", "phone": "+905388802889"}}, {"type": "node", "id": 4614061893, "lat": 40.2031235, "lon": 28.9913749, "tags": {"amenity": "restaurant", "name": "Zennup 1844", "name:ar": "\u0645\u062c\u0645\u0639 \u0645\u0637\u0627\u0639\u0645 \u0643\u0627\u0641\u064a\u0647\u0627\u062a"}}, {"type": "node", "id": 4630910895, "lat": 40.2020011, "lon": 29.022642, "tags": {"amenity": "restaurant", "name:ar": "\u0645\u0637\u0639\u0645 Cekirge Durum"}}, {"type": "node", "id": 4663101990, "lat": 40.1910148, "lon": 29.0472009, "tags": {"amenity": "cafe", "indoor_seating": "yes", "name": "Pervane", "opening_hours:signed": "no", "outdoor_seating": "yes"}}, {"type": "node", "id": 4733625282, "lat": 40.2301733, "lon": 28.8718821}, {"type": "node", "id": 4733625283, "lat": 40.2302525, "lon": 28.8721694}, {"type": "node", "id": 4733625284, "lat": 40.2299661, "lon": 28.8722732}, {"type": "node", "id": 4733625285, "lat": 40.2299143, "lon": 28.8719898}, {"type": "node", "id": 4890392523, "lat": 40.20277, "lon": 29.0196654, "tags": {"amenity": "cafe", "name": "Saklibahce", "name:tr": "Saklibahce"}}, {"type": "node", "id": 4890398321, "lat": 40.2275416, "lon": 28.9796826, "tags": {"amenity": "cafe", "name": "Fink", "name:tr": "Fink"}}, {"type": "node", "id": 4913284723, "lat": 40.217885, "lon": 28.9779548, "tags": {"amenity": "restaurant", "name:en": "Mirano F.S.M."}}, {"type": "node", "id": 4913626121, "lat": 40.2175588, "lon": 28.9778517, "tags": {"amenity": "cafe", "name:en": "FSM Celebihan Plus"}}, {"type": "node", "id": 4999098223, "lat": 40.2512693, "lon": 28.9582906, "tags": {"amenity": "cafe", "brand": "Mado", "brand:wikidata": "Q17116336", "brand:wikipedia": "en:Mado (food company)", "cuisine": "coffee_shop", "name": "Mado", "name:tr": "Mado", "takeaway": "yes"}}, {"type": "node", "id": 4999187025, "lat": 40.2509629, "lon": 28.958129, "tags": {"amenity": "cafe", "brand": "Shakespeare Coffee & Bistro", "brand:wikidata": "Q119561507", "cuisine": "bistro;coffee_shop", "diet:vegetarian": "yes", "name": "Shakespeare", "name:tr": "Shakespeare Coffee & Bistro", "takeaway": "yes"}}, {"type": "node", "id": 4999665221, "lat": 40.2266428, "lon": 28.9791597, "tags": {"amenity": "restaurant", "name": "\u00d6z\u015fark Kebap Salonu", "name:tr": "\u00d6z\u015fark Kebap Salonu"}}, {"type": "node", "id": 5009634224, "lat": 40.2245607, "lon": 28.9801584, "tags": {"amenity": "cafe", "name": "Arnavut B\u00f6rek\u00e7isi", "name:tr": "Arnavut B\u00f6rek\u00e7isi"}}, {"type": "node", "id": 5009634225, "lat": 40.2246373, "lon": 28.97955, "tags": {"amenity": "restaurant", "name": "Zeytin Ev Yemekleri", "name:tr": "Zeytin Ev Yemekleri"}}, {"type": "node", "id": 5070146021, "lat": 40.2216247, "lon": 28.9893225, "tags": {"amenity": "restaurant", "name": "Iskende Kokorec", "name:tr": "Iskende Kokorec", "opening_hours": "Mo-Sa 14:00-01:00", "phone": "02242490464"}}, {"type": "node", "id": 5094920526, "lat": 40.1901115, "lon": 29.0029081, "tags": {"amenity": "restaurant", "name": "Dobruca Derebah\u00e7e Sosyal Tesisleri", "name:tr": "Dobruca Derebah\u00e7e Sosyal Tesisleri"}}, {"type": "node", "id": 5101649125, "lat": 40.2256936, "lon": 28.9799731, "tags": {"amenity": "cafe", "name": "Gonul Kahvesi"}}, {"type": "node", "id": 5101650127, "lat": 40.2263604, "lon": 28.9800146, "tags": {"amenity": "cafe", "brand": "Mado", "brand:wikidata": "Q17116336", "brand:wikipedia": "en:Mado (food company)", "cuisine": "coffee_shop", "name": "Mado", "takeaway": "yes"}}, {"type": "node", "id": 5101650128, "lat": 40.2234792, "lon": 28.978176, "tags": {"amenity": "restaurant", "name": "KahveBeyaz"}}, {"type": "node", "id": 5101675022, "lat": 40.2516718, "lon": 28.9583435, "tags": {"amenity": "restaurant", "name": "Mirano"}}, {"type": "node", "id": 5101675123, "lat": 40.226159, "lon": 28.9712139, "tags": {"addr:city": "bursa", "addr:district": "nil\u00fcfer", "addr:housenumber": "114", "addr:neighbourhood": "Cumhuriyet", "addr:postcode": "16140", "addr:street": "Nil\u00fcfer Hatun Cd.", "amenity": "cafe", "brand": "Starbucks", "brand:wikidata": "Q37158", "brand:wikipedia": "en:Starbucks", "cuisine": "coffee_shop", "name": "Starbucks", "name:en": "Starbucks", "official_name": "Starbucks Coffee", "takeaway": "yes"}}, {"type": "node", "id": 5101693522, "lat": 40.2068923, "lon": 28.9739801, "tags": {"amenity": "cafe", "name": "Burfa\u015f Be\u015fevler Sosyal Tesisleri"}}, {"type": "node", "id": 5101697021, "lat": 40.2255132, "lon": 28.979899, "tags": {"amenity": "restaurant", "name": "Mirano"}}, {"type": "node", "id": 5101707221, "lat": 40.2515521, "lon": 28.9579171, "tags": {"amenity": "restaurant", "name": "Iskender"}}, {"type": "node", "id": 5101713622, "lat": 40.2266852, "lon": 28.9507147, "tags": {"amenity": "restaurant", "name": "Siesta Me\u015feli Park"}}, {"type": "node", "id": 5101832028, "lat": 40.1999669, "lon": 28.9909464, "tags": {"amenity": "restaurant", "name": "Seyami Usta Tarihi Adana Kebap ve Kaburga"}}, {"type": "node", "id": 5101832029, "lat": 40.2184497, "lon": 29.0414119, "tags": {"addr:city": "Bursa", "addr:district": "Osmangazi", "addr:housenumber": "1", "addr:postcode": "16190", "addr:street": "So\u011fanl\u0131 Botanik Park", "amenity": "restaurant", "name": "\u0130skender - Bursa \u0130skender Efendi Kona\u011f\u0131", "phone": "+90 224 211 26 90", "website": "https://www.iskender.com"}}, {"type": "node", "id": 5101834722, "lat": 40.2079735, "lon": 28.940836, "tags": {"amenity": "restaurant", "name": "Has\u0131r\u00f6n\u00fc Et Lokantas\u0131"}}, {"type": "node", "id": 5101834724, "lat": 40.1889543, "lon": 29.0546784, "tags": {"air_conditioning": "no", "amenity": "cafe", "indoor_seating": "yes", "name": "Gren", "opening_hours:signed": "no", "outdoor_seating": "yes"}}, {"type": "node", "id": 5101967021, "lat": 40.2401342, "lon": 29.0224189, "tags": {"amenity": "cafe", "name": "Haflinger \u00c7iftli\u011fi"}}, {"type": "node", "id": 5104008922, "lat": 40.2280133, "lon": 28.9799492, "tags": {"amenity": "restaurant", "name:en": "Big Yellow Taxi Benzin"}}, {"type": "node", "id": 5104009024, "lat": 40.2108315, "lon": 28.9979645, "tags": {"amenity": "restaurant", "name:en": "The Swan Irish Pub"}}, {"type": "node", "id": 5114178301, "lat": 40.2624455, "lon": 28.9508119, "tags": {"amenity": "restaurant", "name": "Gaziantep Kebap\u00e7\u0131s\u0131"}}, {"type": "node", "id": 5153678721, "lat": 40.2247817, "lon": 28.9146717, "tags": {"amenity": "restaurant", "name": "Ci\u011fergah", "wheelchair": "yes"}}, {"type": "node", "id": 5153886414, "lat": 40.2008516, "lon": 29.0500427}, {"type": "node", "id": 5153886415, "lat": 40.2010381, "lon": 29.0492767}, {"type": "node", "id": 5153888916, "lat": 40.2008051, "lon": 29.0493017}, {"type": "node", "id": 5153888917, "lat": 40.2010845, "lon": 29.0500177}, {"type": "node", "id": 5157584421, "lat": 40.2201858, "lon": 28.9784674, "tags": {"amenity": "restaurant", "name:en": "Caff\u00e9 Siesta"}}, {"type": "node", "id": 5172983427, "lat": 40.1868802, "lon": 29.0580037}, {"type": "node", "id": 5172983428, "lat": 40.1870705, "lon": 29.0582892}, {"type": "node", "id": 5172983429, "lat": 40.1868009, "lon": 29.0586206}, {"type": "node", "id": 5172983430, "lat": 40.1866873, "lon": 29.0586995}, {"type": "node", "id": 5172983431, "lat": 40.1865679, "lon": 29.0587049}, {"type": "node", "id": 5172983432, "lat": 40.1864875, "lon": 29.0580208}, {"type": "node", "id": 5186561723, "lat": 40.2213416, "lon": 28.8476769, "tags": {"amenity": "cafe", "name": "Woox Lounge Cafe"}}, {"type": "node", "id": 5186613321, "lat": 40.2249887, "lon": 28.8466403, "tags": {"amenity": "cafe", "name": "The Doors Cafe"}}, {"type": "node", "id": 5214722330, "lat": 40.2273232, "lon": 29.0597301, "tags": {"amenity": "restaurant", "name": "Safahat Lokantas\u0131"}}, {"type": "node", "id": 5217489721, "lat": 40.1849898, "lon": 29.0579922, "tags": {"air_conditioning": "yes", "amenity": "restaurant", "indoor_seating": "yes", "name": "Kitap Evi", "name:en": "Kitapevi Hotel", "name:tr": "Kitapevi Otel", "opening_hours:signed": "no", "outdoor_seating": "yes", "website": "http://kitapevi.com.tr/"}}, {"type": "node", "id": 5222708526, "lat": 40.1663423, "lon": 29.0183284, "tags": {"amenity": "restaurant", "name": "Palabiyik 2 Et Mangal"}}, {"type": "node", "id": 5222708725, "lat": 40.1671083, "lon": 29.0176238, "tags": {"amenity": "cafe", "name": "Tepe Cafe"}}, {"type": "node", "id": 5298913221, "lat": 40.2513003, "lon": 28.9578961, "tags": {"amenity": "restaurant", "name": "Has\u0131r\u00f6n\u00fc"}}, {"type": "node", "id": 5340243522, "lat": 40.2196839, "lon": 28.8991078, "tags": {"amenity": "cafe", "name": "Nona Hookah Lounge"}}, {"type": "node", "id": 5352063422, "lat": 40.2629779, "lon": 28.9493466, "tags": {"amenity": "cafe", "cuisine": "coffee_shop", "internet_access": "wlan", "name": "MOC - Ministry of Coffee"}}, {"type": "node", "id": 5359449821, "lat": 40.224634, "lon": 28.9809747, "tags": {"amenity": "restaurant", "name": "Bah\u015fende Ca\u011f D\u00f6ner"}}, {"type": "node", "id": 5367800322, "lat": 40.2518911, "lon": 28.958036, "tags": {"amenity": "restaurant", "name:en": "Midpoint"}}, {"type": "node", "id": 5371956625, "lat": 40.2074512, "lon": 28.9961185, "tags": {"amenity": "restaurant", "name": "Kayseri Mutfa\u011f\u0131"}}, {"type": "node", "id": 5382784249, "lat": 40.1230037, "lon": 28.8834592, "tags": {"amenity": "cafe"}}, {"type": "node", "id": 5382791412, "lat": 40.1768085, "lon": 28.9705398, "tags": {"amenity": "cafe"}}, {"type": "node", "id": 5382792946, "lat": 40.1772798, "lon": 28.9701321, "tags": {"amenity": "restaurant"}}, {"type": "node", "id": 5382793419, "lat": 40.1772102, "lon": 28.9708831, "tags": {"amenity": "cafe"}}, {"type": "node", "id": 5382797643, "lat": 40.156812, "lon": 28.9609482, "tags": {"amenity": "cafe"}}, {"type": "node", "id": 5409484322, "lat": 40.2028652, "lon": 28.9913915, "tags": {"amenity": "cafe", "name": "Ba\u015frol"}}, {"type": "node", "id": 5409484621, "lat": 40.2029703, "lon": 28.9914365, "tags": {"amenity": "cafe", "name": "Lezizar. Lezzet Bah\u00e7esi"}}, {"type": "node", "id": 5409490321, "lat": 40.2030107, "lon": 28.9911856, "tags": {"amenity": "restaurant", "name": "Kayhan K\u00f6ftecisi"}}, {"type": "node", "id": 5409495121, "lat": 40.2028758, "lon": 28.9911067, "tags": {"amenity": "cafe", "name": "Gloria Jean's Coffees"}}, {"type": "node", "id": 5409499021, "lat": 40.2028461, "lon": 28.9912636, "tags": {"amenity": "restaurant", "name": "Meydan Lokantas\u0131"}}, {"type": "node", "id": 5409502421, "lat": 40.20303, "lon": 28.9912896, "tags": {"amenity": "restaurant", "name": "Beykap\u0131 Kebap"}}, {"type": "node", "id": 5409834523, "lat": 40.2027607, "lon": 28.9913315, "tags": {"amenity": "restaurant", "name:en": "Hamsi Finger"}}, {"type": "node", "id": 5412429924, "lat": 40.2263341, "lon": 28.9699839, "tags": {"amenity": "restaurant", "name": "K\u00f6\u015feba\u015f\u0131"}}, {"type": "node", "id": 5413786330, "lat": 40.2073561, "lon": 28.9959543, "tags": {"amenity": "cafe", "brand": "Starbucks", "brand:wikidata": "Q37158", "cuisine": "coffee_shop", "name": "Starbucks", "name:en": "Starbucks", "official_name": "Starbucks Coffee", "takeaway": "yes"}}, {"type": "node", "id": 5419542624, "lat": 40.2257196, "lon": 28.9092611, "tags": {"amenity": "cafe", "name": "Zukka Kafe & Kahvalt\u0131", "wheelchair": "yes"}}, {"type": "node", "id": 5443860523, "lat": 40.195328, "lon": 28.9983851, "tags": {"amenity": "restaurant", "name": "\u00c7ubuklu Et"}}, {"type": "node", "id": 5443931021, "lat": 40.1848309, "lon": 28.9837777, "tags": {"amenity": "restaurant", "name": "BURFA\u015e Kent Orman Restoran"}}, {"type": "node", "id": 5444755422, "lat": 40.1888498, "lon": 29.0555216, "tags": {"amenity": "restaurant", "name": "Arap \u015e\u00fckr\u00fc  Vira 2"}}, {"type": "node", "id": 5444804421, "lat": 40.2264953, "lon": 28.9800665, "tags": {"amenity": "cafe", "name": "Habba"}}, {"type": "node", "id": 5444895621, "lat": 40.1861724, "lon": 29.0574132, "tags": {"amenity": "restaurant", "indoor_seating": "yes", "name": "Tophane Kebap\u00e7\u0131s\u0131", "opening_hours:signed": "no", "outdoor_seating": "yes"}}, {"type": "node", "id": 5444895623, "lat": 40.2246827, "lon": 28.9808045, "tags": {"amenity": "restaurant", "name": "Efendio\u011flu Ca\u011f D\u00f6ner"}}, {"type": "node", "id": 5489167823, "lat": 40.2016591, "lon": 29.0202895, "tags": {"amenity": "restaurant", "name": "Uluda\u011f Kokore\u00e7"}}, {"type": "node", "id": 5534736622, "lat": 40.2246264, "lon": 28.8482335, "tags": {"amenity": "cafe", "name": "Tesad\u00fcf"}}, {"type": "node", "id": 5544451021, "lat": 40.1644836, "lon": 28.6783972, "tags": {"amenity": "cafe", "name": "G\u00f6lyaz\u0131 Faik Bey Kona\u011f\u0131", "phone": "+905344382966", "website:menu": "https://bimekan.com.tr/menu/faik-bey-konagi-kahvalti-2"}}, {"type": "node", "id": 5588716123, "lat": 40.207227, "lon": 28.9955195, "tags": {"amenity": "restaurant", "name:en": "Big Chefs"}}, {"type": "node", "id": 5598536925, "lat": 40.2260516, "lon": 29.062543, "tags": {"addr:city": "Bursa", "addr:district": "Osmangazi", "addr:housenumber": "406", "addr:neighbourhood": "Alt\u0131nova", "addr:street": "\u0130stanbul Caddesi", "amenity": "restaurant", "name": "K\u00f6fteci Yusuf", "name:ar": "\u0643\u0641\u062a\u0647 \u064a\u0648\u0633\u0641", "name:tr": "K\u00f6fteci Yusuf"}}, {"type": "node", "id": 5600000622, "lat": 40.2028795, "lon": 29.0319676, "tags": {"amenity": "cafe", "cuisine": "coffee_shop", "name": "Coffee Sinky"}}, {"type": "node", "id": 5624985621, "lat": 40.2186568, "lon": 28.8951817, "tags": {"amenity": "cafe", "name": "Ada Mola"}}, {"type": "node", "id": 5642403421, "lat": 40.2071504, "lon": 28.9962709, "tags": {"amenity": "restaurant", "name": "K\u00f6fteci Ramiz"}}, {"type": "node", "id": 5650201521, "lat": 40.2206496, "lon": 28.9722688, "tags": {"amenity": "cafe", "name": "Kahve Evi"}}, {"type": "node", "id": 5693724421, "lat": 40.2222731, "lon": 28.914259, "tags": {"amenity": "restaurant", "name": "Krokodil", "outdoor_seating": "no", "wheelchair": "limited"}}, {"type": "node", "id": 5696888322, "lat": 40.2233184, "lon": 28.9789215, "tags": {"amenity": "cafe", "name": "Kahve Madeni"}}, {"type": "node", "id": 5733374821, "lat": 40.2067485, "lon": 28.9962715, "tags": {"amenity": "cafe", "brand": "Mado", "brand:wikidata": "Q17116336", "brand:wikipedia": "en:Mado (food company)", "cuisine": "coffee_shop", "name": "Mado", "takeaway": "yes"}}, {"type": "node", "id": 5751031924, "lat": 40.228277, "lon": 28.9802058, "tags": {"amenity": "restaurant", "name": "D\u00fcr\u00fcmc\u00fc Bekir Usta"}}, {"type": "node", "id": 5815819355, "lat": 40.2027774, "lon": 29.0321756, "tags": {"amenity": "cafe", "brand": "Starbucks", "brand:wikidata": "Q37158", "brand:wikipedia": "en:Starbucks", "cuisine": "coffee_shop", "name": "Starbucks", "name:en": "Starbucks", "official_name": "Starbucks Coffee", "takeaway": "yes"}}, {"type": "node", "id": 5894131985, "lat": 40.2210702, "lon": 28.972414, "tags": {"amenity": "cafe", "name": "Noqqah Food&Beverage"}}, {"type": "node", "id": 6058190786, "lat": 40.2254954, "lon": 28.9703228, "tags": {"addr:city": "bursa", "addr:district": "nil\u00fcfer", "addr:housenumber": "114", "addr:neighbourhood": "Cumhuriyet", "addr:postcode": "16140", "addr:street": "Nil\u00fcfer Hatun Cd.", "amenity": "cafe", "name": "OT"}}, {"type": "node", "id": 6070100085, "lat": 40.2311265, "lon": 28.9821668, "tags": {"amenity": "cafe", "name": "Belluss Coffee"}}, {"type": "node", "id": 6176923785, "lat": 40.2256563, "lon": 28.9699251, "tags": {"addr:city": "bursa", "addr:district": "nil\u00fcfer", "addr:housenumber": "114", "addr:neighbourhood": "Cumhuriyet", "addr:postcode": "16140", "addr:street": "Nil\u00fcfer Hatun Cd.", "amenity": "restaurant", "name": "Klarnet"}}, {"type": "node", "id": 6226893718, "lat": 40.2464563, "lon": 28.9951663, "tags": {"addr:city": "Bursa", "addr:district": "Osmangazi", "addr:housenumber": "120", "addr:neighbourhood": "Hamitler Mahallesi", "addr:postcode": "16190", "addr:street": "G\u00fcr Caddesi", "amenity": "cafe", "cuisine": "coffee_shop", "internet_access:fee": "yes", "name": "Piccotti Coffee Shop", "outdoor_seating": "yes", "smoking": "yes"}}, {"type": "node", "id": 6234843380, "lat": 40.2262705, "lon": 28.9069143, "tags": {"amenity": "restaurant", "name": "Wok on Fire"}}, {"type": "node", "id": 6234843381, "lat": 40.2261809, "lon": 28.9071955, "tags": {"amenity": "cafe", "brand": "Starbucks", "brand:wikidata": "Q37158", "brand:wikipedia": "en:Starbucks", "cuisine": "coffee_shop", "name": "Starbucks"}}, {"type": "node", "id": 6234843382, "lat": 40.2221506, "lon": 28.9143466, "tags": {"amenity": "cafe", "brand": "Starbucks", "brand:wikidata": "Q37158", "brand:wikipedia": "en:Starbucks", "cuisine": "coffee_shop", "name": "Starbucks"}}, {"type": "node", "id": 6234846935, "lat": 40.223788, "lon": 28.9074753}, {"type": "node", "id": 6234846936, "lat": 40.2236867, "lon": 28.9075967}, {"type": "node", "id": 6234846937, "lat": 40.2238829, "lon": 28.9078775}, {"type": "node", "id": 6234846938, "lat": 40.2239425, "lon": 28.907806}, {"type": "node", "id": 6234846939, "lat": 40.2239063, "lon": 28.9077541}, {"type": "node", "id": 6234846940, "lat": 40.2239479, "lon": 28.9077042}, {"type": "node", "id": 6234918989, "lat": 40.2246876, "lon": 28.8488153, "tags": {"amenity": "cafe", "name": "CEK cafe"}}, {"type": "node", "id": 6234918990, "lat": 40.220908, "lon": 28.8513964, "tags": {"amenity": "cafe", "brand": "Starbucks", "brand:wikidata": "Q37158", "brand:wikipedia": "en:Starbucks", "cuisine": "coffee_shop", "name": "Starbucks", "official_name": "Starbucks Coffee", "takeaway": "yes"}}, {"type": "node", "id": 6455332885, "lat": 40.2219033, "lon": 28.9142651, "tags": {"amenity": "cafe", "name": "BKM Kitap", "wheelchair": "yes"}}, {"type": "node", "id": 6578143186, "lat": 40.124764, "lon": 29.0409511, "tags": {"amenity": "restaurant"}}, {"type": "node", "id": 6613015856, "lat": 40.1856607, "lon": 29.0574346, "tags": {"air_conditioning": "no", "amenity": "cafe", "cuisine": "turkish", "indoor_seating": "yes", "name": "K\u0131v\u0131lc\u0131m", "opening_hours:signed": "no", "outdoor_seating": "yes"}}, {"type": "node", "id": 6725971577, "lat": 40.2737899, "lon": 28.6003326, "tags": {"amenity": "restaurant", "brand": "Aytemiz", "name": "O122 - Oksijen Muratl\u0131 - Karacabey", "operator": "Aytemiz"}}, {"type": "node", "id": 6896897787, "lat": 40.2216415, "lon": 28.8495941, "tags": {"amenity": "restaurant"}}, {"type": "node", "id": 6935222090, "lat": 40.2087343, "lon": 28.5917235, "tags": {"amenity": "restaurant", "name": "K\u00f6fteci Kenan"}}, {"type": "node", "id": 7022625325, "lat": 40.2176227, "lon": 28.922919, "tags": {"addr:city": "Ertu\u011frul Mahallesi", "addr:district": "nil\u00fcfer", "addr:housenumber": "9A", "addr:neighbourhood": "Ertu\u011frul", "addr:postcode": "16120", "addr:street": "138. Sokak", "amenity": "cafe", "cuisine": "coffee_shop;flowers", "internet_access": "wlan", "name": "Unique Coffee & Flowers"}}, {"type": "node", "id": 7105074486, "lat": 40.2567884, "lon": 28.9532114, "tags": {"amenity": "cafe", "name": "Ceylan International Hospital - Cafe"}}, {"type": "node", "id": 7744839946, "lat": 40.2204753, "lon": 28.9763017}, {"type": "node", "id": 7744839947, "lat": 40.2202709, "lon": 28.9762781}, {"type": "node", "id": 7744839948, "lat": 40.2202432, "lon": 28.9766895}, {"type": "node", "id": 7744839949, "lat": 40.2204476, "lon": 28.9767132}, {"type": "node", "id": 7899858853, "lat": 40.2279672, "lon": 28.8466568, "tags": {"addr:city": "Bursa", "addr:district": "Nil\u00fcfer", "addr:housenumber": "10, 16285", "addr:neighbourhood": "G\u00f6r\u00fckle Mahallesi, Levor Rezidans,", "addr:postcode": "16285", "addr:street": "Eymir Cd.", "amenity": "restaurant", "cuisine": "pizza", "diet:halal": "yes", "diet:meat": "yes", "diet:vegetarian": "yes", "name": "Pizza Tomato G\u00f6r\u00fckle", "opening_hours": "Mo-Su 10:00-22:00", "phone": "+902244834747", "website": "https://www.pizzatomato.com.tr/pizza-tomato-gorukle-menu"}}, {"type": "node", "id": 8084082018, "lat": 40.225678, "lon": 28.9715105, "tags": {"amenity": "cafe", "cuisine": "coffee_shop", "internet_access": "yes", "name": "\u00d6zgen Plus", "phone": "0850 888 19 58", "website": "https://www.ozgenkahve.com/"}}, {"type": "node", "id": 8084082022, "lat": 40.2260307, "lon": 28.9711703, "tags": {"addr:city": "bursa", "addr:district": "nil\u00fcfer", "addr:housenumber": "114", "addr:neighbourhood": "Cumhuriyet", "addr:postcode": "16140", "addr:street": "Nil\u00fcfer Hatun Cd.", "amenity": "restaurant", "cuisine": "turkish", "name": "New Castle", "phone": "+90 (224) 453 29 99", "website": "https://www.newcastle.com.tr/"}}, {"type": "node", "id": 8084082023, "lat": 40.2262238, "lon": 28.970953, "tags": {"addr:city": "bursa", "addr:district": "nil\u00fcfer", "addr:housenumber": "114", "addr:neighbourhood": "Cumhuriyet", "addr:postcode": "16140", "addr:street": "Nil\u00fcfer Hatun Cd.", "amenity": "restaurant", "cuisine": "turkish", "name": "Num Num"}}, {"type": "node", "id": 8084082024, "lat": 40.2261375, "lon": 28.9709219, "tags": {"addr:city": "bursa", "addr:district": "nil\u00fcfer", "addr:housenumber": "114", "addr:neighbourhood": "Cumhuriyet", "addr:postcode": "16140", "addr:street": "Nil\u00fcfer Hatun Cd.", "amenity": "restaurant", "cuisine": "turkish", "name": "Deli Kasap", "phone": "(0224) 224 33 54"}}, {"type": "node", "id": 8084082028, "lat": 40.2259294, "lon": 28.9703462, "tags": {"addr:city": "bursa", "addr:district": "nil\u00fcfer", "addr:housenumber": "114", "addr:neighbourhood": "Cumhuriyet", "addr:postcode": "16140", "addr:street": "Nil\u00fcfer Hatun Cd.", "amenity": "restaurant", "cuisine": "turkish", "name": "Kayg\u0131s\u0131z Meyhane"}}, {"type": "node", "id": 8084082029, "lat": 40.226217, "lon": 28.9699713, "tags": {"addr:city": "bursa", "addr:district": "nil\u00fcfer", "addr:housenumber": "114", "addr:neighbourhood": "Cumhuriyet", "addr:postcode": "16140", "addr:street": "Nil\u00fcfer Hatun Cd.", "amenity": "restaurant", "cuisine": "turkish", "name": "Safidem"}}, {"type": "node", "id": 8084082030, "lat": 40.2262207, "lon": 28.9698236, "tags": {"addr:city": "bursa", "addr:district": "nil\u00fcfer", "addr:housenumber": "114", "addr:neighbourhood": "Cumhuriyet", "addr:postcode": "16140", "addr:street": "Nil\u00fcfer Hatun Cd.", "amenity": "restaurant", "cuisine": "turkish", "name": "Radika"}}, {"type": "node", "id": 8084082031, "lat": 40.2259645, "lon": 28.9701913, "tags": {"addr:city": "bursa", "addr:district": "nil\u00fcfer", "addr:housenumber": "114", "addr:neighbourhood": "Cumhuriyet", "addr:postcode": "16140", "addr:street": "Nil\u00fcfer Hatun Cd.", "amenity": "cafe", "name": "Emirgan S\u00fcti\u015f"}}, {"type": "node", "id": 8084082039, "lat": 40.2251814, "lon": 28.9702301, "tags": {"addr:city": "bursa", "addr:district": "nil\u00fcfer", "addr:housenumber": "114", "addr:neighbourhood": "Cumhuriyet", "addr:postcode": "16140", "addr:street": "Nil\u00fcfer Hatun Cd.", "amenity": "restaurant", "cuisine": "turkish", "name": "P\u0131rp\u0131r Midye"}}, {"type": "node", "id": 8084082040, "lat": 40.2253092, "lon": 28.9702388, "tags": {"amenity": "restaurant", "cuisine": "turkish", "name": "Street Food"}}, {"type": "node", "id": 8084082042, "lat": 40.2252384, "lon": 28.9699441, "tags": {"addr:city": "bursa", "addr:district": "nil\u00fcfer", "addr:housenumber": "114", "addr:neighbourhood": "Cumhuriyet", "addr:postcode": "16140", "addr:street": "Nil\u00fcfer Hatun Cd.", "amenity": "restaurant", "cuisine": "turkish", "name": "Cook Shop"}}, {"type": "node", "id": 8084082045, "lat": 40.2257697, "lon": 28.9699349, "tags": {"addr:city": "bursa", "addr:district": "nil\u00fcfer", "addr:housenumber": "114", "addr:neighbourhood": "Cumhuriyet", "addr:postcode": "16140", "addr:street": "Nil\u00fcfer Hatun Cd.", "amenity": "cafe", "brand": "Kahve D\u00fcnyas\u0131", "brand:wikidata": "Q28008050", "cuisine": "coffee_shop", "name": "Kahve D\u00fcnyas\u0131", "shop": "coffee", "takeaway": "yes"}}, {"type": "node", "id": 8084082046, "lat": 40.2256075, "lon": 28.9696013, "tags": {"addr:city": "bursa", "addr:district": "nil\u00fcfer", "addr:housenumber": "114", "addr:neighbourhood": "Cumhuriyet", "addr:postcode": "16140", "addr:street": "Nil\u00fcfer Hatun Cd.", "amenity": "restaurant", "cuisine": "turkish", "name": "Lacivert"}}, {"type": "node", "id": 8084082048, "lat": 40.2253343, "lon": 28.9687419, "tags": {"addr:city": "bursa", "addr:district": "nil\u00fcfer", "addr:housenumber": "114", "addr:neighbourhood": "Cumhuriyet", "addr:postcode": "16140", "addr:street": "Nil\u00fcfer Hatun Cd.", "amenity": "cafe", "name": "Teleferik Kafe"}}, {"type": "node", "id": 8238458268, "lat": 39.9020066, "lon": 28.9889634, "tags": {"addr:city": "Bursa", "addr:district": "Orhaneli", "addr:neighbourhood": "\u0130smetpa\u015fa Mahallesi", "addr:postcode": "16980", "addr:street": "Zafer Sokak", "amenity": "restaurant", "name": "Doyum Lokantas\u0131"}}, {"type": "node", "id": 8315057723, "lat": 40.2722006, "lon": 28.6009883, "tags": {"amenity": "restaurant", "brand": "Aytemiz", "name": "O122 - Oksijen Muratl\u0131 - Karacabey", "operator": "Aytemiz"}}, {"type": "node", "id": 8671001911, "lat": 40.2234917, "lon": 28.8507545, "tags": {"amenity": "restaurant", "cuisine": "regional;kebab", "name": "Cant\u0131k\u00e7\u0131m"}}, {"type": "node", "id": 8671001912, "lat": 40.2249547, "lon": 28.8506043, "tags": {"amenity": "restaurant", "cuisine": "regional", "name": "Ka\u015f\u0131k Ka\u015f\u0131k Ev Yemekleri"}}, {"type": "node", "id": 8671001913, "lat": 40.2231935, "lon": 28.8509154, "tags": {"amenity": "restaurant", "name": "K\u00f6fteci Yusuf"}}, {"type": "node", "id": 8671011612, "lat": 40.2271578, "lon": 28.8434822, "tags": {"amenity": "restaurant", "name": "XL Soslu D\u00fcr\u00fcm"}}, {"type": "node", "id": 8671011823, "lat": 40.222602, "lon": 28.8490572, "tags": {"amenity": "cafe", "cuisine": "coffee_shop", "name": "David People"}}, {"type": "node", "id": 8671061118, "lat": 40.226917, "lon": 28.844583, "tags": {"amenity": "restaurant", "cuisine": "burger", "name": "F\u0131r\u0131n Burger"}}, {"type": "node", "id": 8671061120, "lat": 40.2272867, "lon": 28.8428551, "tags": {"amenity": "restaurant", "cuisine": "kebab;steak_house", "name": "Uluabat Butcher Steakhouse"}}, {"type": "node", "id": 9048623201, "lat": 40.2060176, "lon": 28.9541781}, {"type": "node", "id": 9048623202, "lat": 40.2058824, "lon": 28.9542064}, {"type": "node", "id": 9048623203, "lat": 40.2058592, "lon": 28.9539941}, {"type": "node", "id": 9048623204, "lat": 40.2059987, "lon": 28.953971}, {"type": "node", "id": 9048623205, "lat": 40.2060054, "lon": 28.9540648}, {"type": "node", "id": 9048623206, "lat": 40.205877, "lon": 28.9540949}, {"type": "node", "id": 9270027880, "lat": 40.1854378, "lon": 29.0576609, "tags": {"air_conditioning": "no", "amenity": "cafe", "indoor_seating": "yes", "name": "Hisar kafe", "opening_hours:signed": "no", "outdoor_seating": "yes"}}, {"type": "node", "id": 9270027881, "lat": 40.1854788, "lon": 29.0574222, "tags": {"amenity": "cafe", "indoor_seating": "yes", "name": "Sultanat B\u00fcfe", "opening_hours:signed": "no", "outdoor_seating": "yes"}}, {"type": "node", "id": 9270027882, "lat": 40.1854583, "lon": 29.0575429, "tags": {"air_conditioning": "no", "amenity": "cafe", "indoor_seating": "yes", "name:signed": "no", "opening_hours:signed": "no", "outdoor_seating": "yes"}}, {"type": "node", "id": 9308268484, "lat": 40.2177402, "lon": 28.755372, "tags": {"amenity": "restaurant", "name": "Hamitbey Tesisleri"}}, {"type": "node", "id": 9308322218, "lat": 40.1862987, "lon": 29.0578353, "tags": {"addr:street": "Osman Gazi Caddesi", "amenity": "restaurant", "name": "Bursa Kebapb\u00e7isi"}}, {"type": "node", "id": 9421124217, "lat": 40.1886496, "lon": 29.0557298, "tags": {"addr:street": "Sakarya Caddesi", "amenity": "restaurant", "name": "Arap \u015e\u00fckr\u00fc Soka\u011f\u0131"}}, {"type": "node", "id": 9532124073, "lat": 40.2247272, "lon": 28.8457542}, {"type": "node", "id": 9532124074, "lat": 40.2246805, "lon": 28.8458657}, {"type": "node", "id": 9532124075, "lat": 40.2245728, "lon": 28.8457745}, {"type": "node", "id": 9532124076, "lat": 40.2245921, "lon": 28.8457327}, {"type": "node", "id": 9532124077, "lat": 40.2246519, "lon": 28.8457815}, {"type": "node", "id": 9532124078, "lat": 40.2246797, "lon": 28.8457166}, {"type": "node", "id": 9532149658, "lat": 40.224684, "lon": 28.845873, "tags": {"amenity": "cafe", "cuisine": "coffee_shop", "name": "R\u00fcveyda"}}, {"type": "node", "id": 9558411363, "lat": 40.1891569, "lon": 29.0538211, "tags": {"amenity": "restaurant", "cuisine": "korean", "name": "Little Korea"}}, {"type": "node", "id": 9655323420, "lat": 40.118666, "lon": 29.0435193, "tags": {"amenity": "restaurant"}}, {"type": "node", "id": 9719091693, "lat": 40.221479, "lon": 28.8487202, "tags": {"amenity": "restaurant", "cuisine": "turkish", "name": "Pitta"}}, {"type": "node", "id": 9739762460, "lat": 40.2271878, "lon": 28.8433141, "tags": {"amenity": "restaurant", "cuisine": "regional", "name": "Yasa G\u00f6r\u00fckle"}}, {"type": "node", "id": 9739762461, "lat": 40.2271878, "lon": 28.8432663, "tags": {"amenity": "cafe", "cuisine": "coffee_shop", "name": "G\u00f6n\u00fcl Kahvesi G\u00f6r\u00fckle"}}, {"type": "node", "id": 9786504831, "lat": 40.2251715, "lon": 28.8461374, "tags": {"amenity": "cafe", "name": "LeBon Cafe"}}, {"type": "node", "id": 9799656118, "lat": 40.2217067, "lon": 28.8667971}, {"type": "node", "id": 9799656119, "lat": 40.221717, "lon": 28.8670331}, {"type": "node", "id": 9799656120, "lat": 40.22159, "lon": 28.8670412}, {"type": "node", "id": 9799656121, "lat": 40.2215798, "lon": 28.8667971}, {"type": "node", "id": 9825628017, "lat": 40.2195673, "lon": 28.9784387, "tags": {"addr:housenumber": "38", "addr:street": "Fatih Sultan Mehmet Bulvar\u0131", "amenity": "restaurant", "name": "Bursa \u0130skender Kebab\u0131 - \u0130skender\u00ae 1867", "opening_hours": "Mo-Su 11:00-22:00", "phone": "+902242221867", "website": "http://www.iskenderdeyim.com/"}}, {"type": "node", "id": 9998164616, "lat": 40.1913424, "lon": 29.047107, "tags": {"amenity": "restaurant"}}, {"type": "node", "id": 10050724184, "lat": 40.1875012, "lon": 29.0572236, "tags": {"air_conditioning": "no", "amenity": "restaurant", "check_date:opening_hours": "2022-10-07", "indoor_seating": "yes", "name": "Haci Day", "opening_hours:signed": "no", "outdoor_seating": "yes"}}, {"type": "node", "id": 10087316530, "lat": 40.1320975, "lon": 29.0368404, "tags": {"amenity": "restaurant", "name": "Sinem Aile"}}, {"type": "node", "id": 10098039875, "lat": 40.184651, "lon": 29.0580718, "tags": {"amenity": "restaurant", "name": "Anadolu Evi"}}, {"type": "node", "id": 10098039876, "lat": 40.1838437, "lon": 29.053673, "tags": {"amenity": "restaurant"}}, {"type": "node", "id": 10156260926, "lat": 40.2180115, "lon": 28.9871418, "tags": {"amenity": "restaurant", "brand": "K\u00f6fteci Yusuf", "brand:wikidata": "Q126125081", "cuisine": "turkish", "name": "K\u00f6fteci Yusuf"}}, {"type": "node", "id": 10539062829, "lat": 40.2261396, "lon": 28.8480091, "tags": {"amenity": "restaurant", "cuisine": "italian", "name": "Malina Butik Cafe"}}, {"type": "node", "id": 10539079383, "lat": 40.2234312, "lon": 28.8507863, "tags": {"amenity": "restaurant", "name": "Ka\u015f\u0131k Ka\u015f\u0131k Ev Yemekleri"}}, {"type": "node", "id": 10669132206, "lat": 40.2017606, "lon": 29.0234341, "tags": {"addr:housenumber": "183", "addr:postcode": "16080", "addr:street": "\u00c7ekirge Caddesi", "amenity": "restaurant", "cuisine": "turkish", "email": "mailto:info@durakmuhallebicisi.com.tr", "internet_access": "wlan", "name": "Durak Muhallebicisi", "phone": "+90 224 240 08 09", "website": "http://www.durakmuhallebicisi.com.tr/cekirge-subesi/index.html"}}, {"type": "node", "id": 10723275200, "lat": 40.2266848, "lon": 28.9805562, "tags": {"addr:housenumber": "13/A", "addr:neighbourhood": "Esentepe Mahallesi", "addr:postcode": "16130", "addr:street": "Ye\u015fil Soka\u011f\u0131", "amenity": "cafe", "cuisine": "coffee_shop", "internet_access": "yes", "internet_access:fee": "no", "name": "Muggle's Coffee Roastery FSM", "opening_hours": "Mo-Su 09:00-00:00", "outdoor_seating": "yes", "phone": "+908503083512", "website": "https://mugglescoffee.com.tr"}}, {"type": "node", "id": 10751539319, "lat": 40.2246288, "lon": 28.9668782}, {"type": "node", "id": 10751539320, "lat": 40.2249279, "lon": 28.9668367}, {"type": "node", "id": 10751539321, "lat": 40.2249049, "lon": 28.9665533}, {"type": "node", "id": 10751539322, "lat": 40.2246059, "lon": 28.9665949}, {"type": "node", "id": 10751539323, "lat": 40.2246224, "lon": 28.9667864, "tags": {"entrance": "yes"}}, {"type": "node", "id": 10753348464, "lat": 40.2261324, "lon": 28.9164703, "tags": {"amenity": "cafe", "name": "Porselano"}}, {"type": "node", "id": 10779483117, "lat": 40.1774228, "lon": 28.9705891}, {"type": "node", "id": 10779483118, "lat": 40.1773363, "lon": 28.970657}, {"type": "node", "id": 10779483119, "lat": 40.1774152, "lon": 28.9708292}, {"type": "node", "id": 10779483120, "lat": 40.1775017, "lon": 28.9707612}, {"type": "node", "id": 10779483121, "lat": 40.177259, "lon": 28.9700186}, {"type": "node", "id": 10779483122, "lat": 40.1771337, "lon": 28.9699442}, {"type": "node", "id": 10779483123, "lat": 40.1770767, "lon": 28.9701089}, {"type": "node", "id": 10779483124, "lat": 40.177202, "lon": 28.9701833}, {"type": "node", "id": 10779483129, "lat": 40.1770634, "lon": 28.9704327}, {"type": "node", "id": 10779483130, "lat": 40.1769946, "lon": 28.9703609}, {"type": "node", "id": 10779483131, "lat": 40.1768932, "lon": 28.9705273}, {"type": "node", "id": 10779483132, "lat": 40.176962, "lon": 28.9705992}, {"type": "node", "id": 10848490706, "lat": 40.2094726, "lon": 29.0178249}, {"type": "node", "id": 10856103980, "lat": 40.2259674, "lon": 28.8465824, "tags": {"amenity": "restaurant", "name": "Adana Sofras\u0131"}}, {"type": "node", "id": 10856114320, "lat": 40.2258835, "lon": 28.8409901, "tags": {"amenity": "restaurant", "name": "Konya \u015eems Etli Ekmek"}}, {"type": "node", "id": 10856128743, "lat": 40.2271309, "lon": 28.8436623, "tags": {"amenity": "restaurant", "name": "Has Etli Ekmek"}}, {"type": "node", "id": 10876010984, "lat": 40.2270864, "lon": 28.8438622, "tags": {"amenity": "restaurant", "name": "Prusa Pide & Lahmacun & Cant\u0131k"}}, {"type": "node", "id": 10919509880, "lat": 40.2273256, "lon": 28.8462011, "tags": {"amenity": "restaurant", "name": "Tad \u00c7i\u011f k\u00f6fte"}}, {"type": "node", "id": 11109393906, "lat": 40.1518269, "lon": 28.974675, "tags": {"addr:postcode": "16370", "addr:street": "Orhaneli - Bursa yolu", "amenity": "restaurant", "email": "info@kasaba.com.tr", "name": "Kasaba Garden", "name:en": "Town Garden & Organisation", "name:tr": "Kasaba Garden & Organisazyon", "opening_hours": "Mo-Fr 10:30-20:00; Sa-Su 09:00-18:00", "phone": "05322832586;02242931188", "website": "http://www.kasabagarden.com/"}}, {"type": "node", "id": 11159392921, "lat": 40.2066708, "lon": 29.0235155, "tags": {"amenity": "restaurant", "cuisine": "italian", "name": "MOD Italiana"}}, {"type": "node", "id": 11159392931, "lat": 40.2054138, "lon": 29.0256628, "tags": {"air_conditioning": "yes", "amenity": "restaurant", "cuisine": "turkish", "delivery": "yes", "diet:halal": "yes", "diet:local": "yes", "diet:meat": "yes", "name": "Beyakp\u0131 Kebap", "website": "https://beykapi.com/"}}, {"type": "node", "id": 11159392932, "lat": 40.2052636, "lon": 29.025787, "tags": {"amenity": "restaurant", "cuisine": "italian", "name": "COI Pizza"}}, {"type": "node", "id": 11192880483, "lat": 40.2094978, "lon": 29.0176556}, {"type": "node", "id": 11192880484, "lat": 40.209629, "lon": 29.017687}, {"type": "node", "id": 11192880485, "lat": 40.209602, "lon": 29.0178578}, {"type": "node", "id": 11192880486, "lat": 40.2094891, "lon": 29.0178291}, {"type": "node", "id": 11237713232, "lat": 40.2172062, "lon": 28.9778282, "tags": {"amenity": "cafe", "cuisine": "coffee_shop", "name": "Espressolab"}}, {"type": "node", "id": 11276584234, "lat": 40.2231003, "lon": 28.9773424, "tags": {"amenity": "cafe", "cuisine": "coffee_shop"}}, {"type": "node", "id": 11277150790, "lat": 40.2121984, "lon": 28.9860032}, {"type": "node", "id": 11277150791, "lat": 40.2122122, "lon": 28.9862212}, {"type": "node", "id": 11277150792, "lat": 40.2124053, "lon": 28.9859807}, {"type": "node", "id": 11277150794, "lat": 40.2124191, "lon": 28.9861986}, {"type": "node", "id": 11280476871, "lat": 40.2086799, "lon": 28.9849648, "tags": {"amenity": "cafe", "name": "Be\u015fevler \u0130stasyonu"}}, {"type": "node", "id": 11280476872, "lat": 40.2018844, "lon": 29.0494022, "tags": {"amenity": "cafe", "name": "Merinos \u0130stasyonu"}}, {"type": "node", "id": 11281267303, "lat": 40.1313444, "lon": 28.9677878}, {"type": "node", "id": 11281267304, "lat": 40.1314097, "lon": 28.9679471}, {"type": "node", "id": 11281267305, "lat": 40.1312783, "lon": 28.9680116}, {"type": "node", "id": 11281267306, "lat": 40.131218, "lon": 28.9678218}, {"type": "node", "id": 11281267307, "lat": 40.1312646, "lon": 28.9678003}, {"type": "node", "id": 11281267308, "lat": 40.1312755, "lon": 28.9678361}, {"type": "node", "id": 11455410751, "lat": 40.2015108, "lon": 28.999498}, {"type": "node", "id": 11455410752, "lat": 40.2014833, "lon": 28.9996182}, {"type": "node", "id": 11455410753, "lat": 40.2013376, "lon": 28.9995611}, {"type": "node", "id": 11455410754, "lat": 40.2013651, "lon": 28.9994409}, {"type": "node", "id": 11455413823, "lat": 40.2022968, "lon": 28.9978752}, {"type": "node", "id": 11455413824, "lat": 40.2021511, "lon": 28.9978321}, {"type": "node", "id": 11455413825, "lat": 40.2021859, "lon": 28.997662}, {"type": "node", "id": 11455413826, "lat": 40.2021361, "lon": 28.9976435}, {"type": "node", "id": 11455413827, "lat": 40.2021897, "lon": 28.997418}, {"type": "node", "id": 11455413828, "lat": 40.2023802, "lon": 28.9974854}, {"type": "node", "id": 11775385132, "lat": 40.2513602, "lon": 28.9783895}, {"type": "node", "id": 11775385133, "lat": 40.251266, "lon": 28.9784491}, {"type": "node", "id": 11775385134, "lat": 40.251223, "lon": 28.9782718}, {"type": "node", "id": 11775385135, "lat": 40.2512832, "lon": 28.9782369}, {"type": "node", "id": 11930131571, "lat": 40.1833273, "lon": 28.9229429}, {"type": "node", "id": 11930131574, "lat": 40.1836118, "lon": 28.9228214}, {"type": "node", "id": 11930131575, "lat": 40.1836503, "lon": 28.9229105}, {"type": "node", "id": 11930131576, "lat": 40.1833769, "lon": 28.9230998}, {"type": "node", "id": 11955729467, "lat": 40.2310918, "lon": 28.9853781, "tags": {"addr:city": "Bursa", "addr:district": "Osmangazi", "addr:housenumber": "3", "addr:neighbourhood": "Ba\u011flarba\u015f\u0131 Mahallesi", "addr:postcode": "16150", "addr:street": "B\u0131\u00e7ak\u00e7\u0131 Soka\u011f\u0131", "amenity": "cafe", "name": "La Fika Coffee"}}, {"type": "node", "id": 11982008769, "lat": 40.1888021, "lon": 29.0563613, "tags": {"addr:housenumber": "3", "addr:postcode": "16050", "addr:street": "Alt\u0131parmak Caddesi", "amenity": "restaurant", "name": "\u00c7orbaci Baba", "opening_hours": "24/7", "phone": "+902242201351"}}, {"type": "node", "id": 11983624969, "lat": 40.1822467, "lon": 29.0168338, "tags": {"amenity": "cafe"}}, {"type": "node", "id": 11983625169, "lat": 40.1884387, "lon": 29.0155406, "tags": {"amenity": "cafe", "name": "Panorama Cafe"}}, {"type": "node", "id": 12014513898, "lat": 40.2721421, "lon": 28.6008164, "tags": {"amenity": "cafe", "check_date": "2024-06-27", "name": "\u0130skender"}}, {"type": "node", "id": 12014513900, "lat": 40.2737071, "lon": 28.600218, "tags": {"amenity": "cafe", "check_date": "2024-06-27", "name": "\u0130skender"}}, {"type": "node", "id": 12355196412, "lat": 40.1934653, "lon": 28.9924008, "tags": {"addr:city": "Bursa", "addr:district": "Nil\u00fcfer", "addr:neighbourhood": "Odunluk", "addr:postcode": "16110", "addr:street": "Kaz\u0131m Karabekir Caddesi, Metropol Hal\u0131saha Yan\u0131", "amenity": "restaurant", "cuisine": "turkish", "diet:halal": "yes", "diet:local": "yes", "diet:meat": "yes", "diet:organic": "yes", "name": "Gece G\u00fcnd\u00fcz Ca\u011f Kebap\u00e7\u0131 H\u00fcseyin Usta", "opening_hours": "Mo-Su 12:00-24:00", "outdoor_seating": "yes", "phone": "+90 5306978719", "takeaway": "yes"}}, {"type": "node", "id": 12484948692, "lat": 40.2195551, "lon": 28.9874888, "tags": {"amenity": "restaurant", "name": "\u00d6zkanlar Pide - Kebap - Lahmacun"}}, {"type": "node", "id": 12506527792, "lat": 40.1837499, "lon": 29.0572073}, {"type": "node", "id": 12506527793, "lat": 40.1837919, "lon": 29.0573062}, {"type": "node", "id": 12506527794, "lat": 40.183714, "lon": 29.0573628}, {"type": "node", "id": 12506527795, "lat": 40.183672, "lon": 29.0572639}, {"type": "node", "id": 12535862852, "lat": 40.2539682, "lon": 28.9793102}, {"type": "node", "id": 12535862853, "lat": 40.253763, "lon": 28.9793083}, {"type": "node", "id": 12568782511, "lat": 40.2500027, "lon": 28.9825895}, {"type": "node", "id": 12568782512, "lat": 40.2499125, "lon": 28.9825185}, {"type": "node", "id": 12568782513, "lat": 40.2500948, "lon": 28.9823293}, {"type": "node", "id": 12568782514, "lat": 40.2500114, "lon": 28.9822546}, {"type": "node", "id": 12571998363, "lat": 40.2539687, "lon": 28.9792229}, {"type": "node", "id": 12571998364, "lat": 40.2537634, "lon": 28.9792209}, {"type": "node", "id": 12571998365, "lat": 40.2538253, "lon": 28.9792844, "tags": {"amenity": "cafe", "name": "Yoyo Oyun Park Cafe"}}, {"type": "node", "id": 12571998392, "lat": 40.2511239, "lon": 28.9783203}, {"type": "node", "id": 12571998393, "lat": 40.2510405, "lon": 28.9783478}, {"type": "node", "id": 12571998394, "lat": 40.251055, "lon": 28.9785297}, {"type": "node", "id": 12572018902, "lat": 40.2513133, "lon": 28.9784361}, {"type": "node", "id": 12572018903, "lat": 40.2512461, "lon": 28.9782593}, {"type": "node", "id": 12572019048, "lat": 40.2501513, "lon": 28.9786452}, {"type": "node", "id": 12572019049, "lat": 40.2501917, "lon": 28.978832}, {"type": "node", "id": 12572019050, "lat": 40.2503303, "lon": 28.9787798}, {"type": "node", "id": 12572019051, "lat": 40.2502941, "lon": 28.9786003}, {"type": "node", "id": 12574565982, "lat": 40.2506128, "lon": 28.985227}, {"type": "node", "id": 12574565983, "lat": 40.2504614, "lon": 28.9849522}, {"type": "node", "id": 12574565984, "lat": 40.2502355, "lon": 28.9851571}, {"type": "node", "id": 12574565985, "lat": 40.2503844, "lon": 28.9854531}, {"type": "node", "id": 12579677737, "lat": 40.2560379, "lon": 28.981129}, {"type": "node", "id": 12579677738, "lat": 40.2560371, "lon": 28.9810753}, {"type": "node", "id": 12579677739, "lat": 40.2560366, "lon": 28.9810381}, {"type": "node", "id": 12579677740, "lat": 40.2560669, "lon": 28.9810376}, {"type": "node", "id": 12579677741, "lat": 40.2560846, "lon": 28.9810429}, {"type": "node", "id": 12579677742, "lat": 40.2560849, "lon": 28.9811266}, {"type": "node", "id": 12585400092, "lat": 40.2554127, "lon": 28.9805253, "tags": {"amenity": "restaurant", "diet:halal": "yes", "name": "Erman Ayd\u0131n Ortaokulu Yemek Kantini"}}, {"type": "node", "id": 12795938688, "lat": 40.2485567, "lon": 28.9871907}, {"type": "node", "id": 12796015104, "lat": 40.2484788, "lon": 28.9872905}, {"type": "node", "id": 12796015105, "lat": 40.2485904, "lon": 28.9872924}, {"type": "node", "id": 12796015106, "lat": 40.2485882, "lon": 28.9871909}, {"type": "node", "id": 12796015107, "lat": 40.2485397, "lon": 28.9872004}, {"type": "node", "id": 12796015108, "lat": 40.2485148, "lon": 28.9871994}, {"type": "node", "id": 12796015109, "lat": 40.2485041, "lon": 28.9872046}, {"type": "node", "id": 12796015110, "lat": 40.2484799, "lon": 28.9872064}, {"type": "node", "id": 12796015111, "lat": 40.2484881, "lon": 28.9872058}, {"type": "node", "id": 12824111957, "lat": 40.2412294, "lon": 28.9831071}, {"type": "node", "id": 12824111958, "lat": 40.2412218, "lon": 28.9830706}, {"type": "node", "id": 12824111959, "lat": 40.2412405, "lon": 28.9830621}, {"type": "node", "id": 12824111960, "lat": 40.2412345, "lon": 28.9830285}, {"type": "node", "id": 12824111961, "lat": 40.2412742, "lon": 28.9830161}, {"type": "node", "id": 12824111962, "lat": 40.2412491, "lon": 28.9829846}, {"type": "node", "id": 12824111963, "lat": 40.2412475, "lon": 28.9829503}, {"type": "node", "id": 12824111964, "lat": 40.2411964, "lon": 28.9829439}, {"type": "node", "id": 12824111965, "lat": 40.2411694, "lon": 28.9829584}, {"type": "node", "id": 12824111966, "lat": 40.2411411, "lon": 28.9829875}, {"type": "node", "id": 12824111967, "lat": 40.2411351, "lon": 28.9829744}, {"type": "node", "id": 12824111968, "lat": 40.2411127, "lon": 28.9830055}, {"type": "node", "id": 12824111969, "lat": 40.2410957, "lon": 28.9829959}, {"type": "node", "id": 12824111970, "lat": 40.2410832, "lon": 28.9830122}, {"type": "node", "id": 12824111971, "lat": 40.2410938, "lon": 28.9830802}, {"type": "node", "id": 12824111972, "lat": 40.2411216, "lon": 28.9830678}, {"type": "node", "id": 12824111973, "lat": 40.2411375, "lon": 28.9830968}, {"type": "node", "id": 12824111974, "lat": 40.2411602, "lon": 28.9830919}, {"type": "node", "id": 12824111975, "lat": 40.2411689, "lon": 28.9831287}, {"type": "node", "id": 12844697449, "lat": 40.252255, "lon": 28.9767028}, {"type": "node", "id": 12844697450, "lat": 40.2524074, "lon": 28.9766737}, {"type": "node", "id": 12844697451, "lat": 40.2524619, "lon": 28.976523}, {"type": "node", "id": 12844697452, "lat": 40.2523566, "lon": 28.9764295}, {"type": "way", "id": 302392794, "nodes": [3066510702, 3078192149, 3066510703, 3066515235, 3066510704, 3066510705, 3066510702], "tags": {"amenity": "restaurant", "building": "yes", "name": "Kafkas", "website": "http://www.kafkas.com/tr"}}, {"type": "way", "id": 303726251, "nodes": [3081294400, 3081294398, 3081294387, 3081294401, 3081294399, 3081294400], "tags": {"amenity": "cafe", "building": "yes", "source": "Esri Luftbilder"}}, {"type": "way", "id": 303738122, "nodes": [3081381974, 3081381975, 3081381976, 3081381977, 3081381974], "tags": {"amenity": "restaurant", "building": "yes"}}, {"type": "way", "id": 380718633, "nodes": [3840422073, 3840422074, 3840422075, 3840422076, 3840422073], "tags": {"amenity": "restaurant", "building": "yes", "cuisine": "fish_and_chips", "delivery": "no", "name": "G\u00f6lyaz\u0131 Bal\u0131k Restaruant", "smoking": "outside", "takeaway": "no"}}, {"type": "way", "id": 380760112, "nodes": [3840712773, 3840712774, 3840712775, 3840712776, 3840712777, 3840712773], "tags": {"amenity": "cafe", "building": "yes"}}, {"type": "way", "id": 380760113, "nodes": [3840712778, 3840712779, 3840712780, 3840712781, 3840712778], "tags": {"amenity": "cafe", "building": "yes"}}, {"type": "way", "id": 456738634, "nodes": [4529766687, 4529766688, 4529767489, 4529767490, 4529766687], "tags": {"addr:street": "Bursa Yolu Cd", "amenity": "restaurant", "building": "yes", "name": "Uzan Et Restaurant"}}, {"type": "way", "id": 456750547, "nodes": [4529868951, 4529868952, 4529868953, 4529868954, 4529868951], "tags": {"addr:street": "Harmanlar Cd", "amenity": "restaurant", "building": "yes", "cuisine": "regional", "delivery": "yes", "description": "Nil\u00fcfer Belediyesi Sosyal tesisi", "name": "Nilbel", "smoking": "separated", "takeaway": "no"}}, {"type": "way", "id": 456751032, "nodes": [4529777730, 4529777731, 4529777732, 4529777733, 4529777734, 4529777735, 4529777730], "tags": {"addr:street": "3. Z\u00fcmr\u00fct Sk", "amenity": "restaurant", "building": "yes", "cuisine": "regional", "description": "Bursa B\u00fcy\u00fck\u015fehir Belediyesi Sosyal tesisleri.Restaurant ve Kafe", "name": "Burfa\u015f Dobruca Sosyal Tesisi"}}, {"type": "way", "id": 480352787, "nodes": [4733625282, 4733625283, 4733625284, 4733625285, 4733625282], "tags": {"amenity": "cafe", "building": "yes"}}, {"type": "way", "id": 530848649, "nodes": [5153888916, 5153886414, 5153888917, 5153886415, 5153888916], "tags": {"addr:street": "Stadyum Caddesi", "amenity": "restaurant", "building": "yes", "cuisine": "turkish", "name": "Hayat Lokantas\u0131", "source": "bing"}}, {"type": "way", "id": 533165772, "nodes": [5172983427, 5172983428, 5172983429, 5172983430, 5172983431, 5172983432, 5172983427], "tags": {"amenity": "cafe", "name": "S\u00fcmb\u00fcll\u00fc Bah\u00e7e Kona\u011f\u0131", "outdoor_seating": "yes", "website": "https://www.okikultur.com.tr/"}}, {"type": "way", "id": 665972096, "nodes": [6234846935, 6234846936, 6234846937, 6234846938, 6234846939, 6234846940, 6234846935], "tags": {"amenity": "cafe", "building": "yes"}}, {"type": "way", "id": 829799284, "nodes": [7744839946, 7744839947, 7744839948, 7744839949, 7744839946], "tags": {"amenity": "cafe", "building": "yes"}}, {"type": "way", "id": 977907292, "nodes": [9048623201, 9048623202, 9048623206, 9048623203, 9048623204, 9048623205, 9048623201], "tags": {"amenity": "restaurant", "building": "yes"}}, {"type": "way", "id": 1034771188, "nodes": [9532124073, 9532124074, 9532124075, 9532124076, 9532124077, 9532124078, 9532124073], "tags": {"amenity": "cafe", "building": "yes", "cuisine": "coffee_shop;burger;chicken", "internet_access": "wlan", "name": "R\u00fcveyda", "opening_hours": "Mo-Su 09:00-21:00"}}, {"type": "way", "id": 1067294944, "nodes": [9799656118, 9799656119, 9799656120, 9799656121, 9799656118], "tags": {"amenity": "cafe", "building": "yes", "cuisine": "coffee_shop", "name": "Espresso Lab"}}, {"type": "way", "id": 1156129043, "nodes": [10751539319, 10751539320, 10751539321, 10751539322, 10751539323, 10751539319], "tags": {"addr:city": "Bursa", "addr:district": "Nil\u00fcfer", "addr:housenumber": "114", "addr:neighbourhood": "Cumhuriyet", "addr:postcode": "16140", "addr:street": "Nil\u00fcfer Hatun", "amenity": "cafe", "building": "yes", "name": "\u00d6zgen Kafe"}}, {"type": "way", "id": 1159137931, "nodes": [10779483117, 10779483118, 10779483119, 10779483120, 10779483117], "tags": {"amenity": "restaurant", "building": "yes", "cuisine": "turkish", "name": "K\u00f6pr\u00fcba\u015f\u0131 Kahvalt\u0131 ve Izgara"}}, {"type": "way", "id": 1159137932, "nodes": [10779483121, 10779483122, 10779483123, 10779483124, 10779483121], "tags": {"amenity": "restaurant", "building": "yes", "cuisine": "turkish", "name": "Misili Orhan"}}, {"type": "way", "id": 1159137934, "nodes": [10779483129, 10779483130, 10779483131, 10779483132, 10779483129], "tags": {"amenity": "restaurant", "building": "yes", "cuisine": "turkish", "name": "Misi Orkide"}}, {"type": "way", "id": 1166330424, "nodes": [11192880483, 11192880484, 11192880485, 11192880486, 10848490706, 11192880483], "tags": {"amenity": "cafe", "building": "yes", "cuisine": "turkish", "name": "Kantin", "operator": "school", "outdoor_seating": "yes"}}, {"type": "way", "id": 1217067736, "nodes": [11277150791, 11277150794, 11277150792, 11277150790, 11277150791], "tags": {"amenity": "cafe", "building": "yes"}}, {"type": "way", "id": 1217525523, "nodes": [11281267303, 11281267304, 11281267305, 11281267306, 11281267307, 11281267308, 11281267303], "tags": {"amenity": "restaurant", "building": "yes", "cuisine": "turkish"}}, {"type": "way", "id": 1234274326, "nodes": [11455410751, 11455410752, 11455410753, 11455410754, 11455410751], "tags": {"amenity": "cafe", "building": "yes"}}, {"type": "way", "id": 1234274333, "nodes": [11455413823, 11455413824, 11455413825, 11455413826, 11455413827, 11455413828, 11455413823], "tags": {"amenity": "restaurant", "building": "yes", "cuisine": "turkish", "name": "K\u00f6fteci Yusuf"}}, {"type": "way", "id": 1286193610, "nodes": [11930131574, 11930131575, 11930131576, 11930131571, 11930131574], "tags": {"amenity": "restaurant", "building": "yes"}}, {"type": "way", "id": 1351765686, "nodes": [12506527792, 12506527793, 12506527794, 12506527795, 12506527792], "tags": {"amenity": "cafe", "building": "yes", "name": "Hara\u00e7\u00e7\u0131o\u011flu Medresesi Sosyal Tesisleri", "outdoor_seating": "yes"}}, {"type": "way", "id": 1358148989, "nodes": [12568782511, 12568782513, 12568782514, 12568782512, 12568782511], "tags": {"amenity": "restaurant", "building": "yes", "cuisine": "turkish", "layer": "-1", "name": "\u015e\u00f6len Pide Ve Lahmacun Salonu"}}, {"type": "way", "id": 1358401670, "nodes": [12535862852, 12571998363, 12571998364, 12535862853, 12535862852], "tags": {"amenity": "cafe", "building": "yes", "name": "Yoyo Oyun Park Cafe"}}, {"type": "way", "id": 1358401680, "nodes": [11775385133, 11775385134, 12571998392, 12571998393, 12571998394, 11775385133], "tags": {"amenity": "restaurant", "building": "yes", "cuisine": "pide;lahmacun", "diet:halal": "yes", "name": "\u0130\u015fte Pide"}}, {"type": "way", "id": 1358401685, "nodes": [11775385132, 12572018902, 12572018903, 11775385135, 11775385132], "tags": {"amenity": "restaurant", "building": "yes", "name": "Alaadin Usta Ev Yemekleri"}}, {"type": "way", "id": 1358401722, "nodes": [12572019050, 12572019051, 12572019048, 12572019049, 12572019050], "tags": {"amenity": "restaurant", "building": "yes", "name": "At\u0131fo\u011flu Baklava ve \u00c7i\u011fk\u00f6fte"}}, {"type": "way", "id": 1358691982, "nodes": [12574565982, 12574565983, 12574565984, 12574565985, 12574565982], "tags": {"amenity": "restaurant", "building": "yes", "name": "OK\u0130 Macera Bursa"}}, {"type": "way", "id": 1359137928, "nodes": [12579677737, 12579677738, 12579677739, 12579677740, 12579677741, 12579677742, 12579677737], "tags": {"amenity": "cafe", "building": "yes", "layer": "-1", "name": "Kids Kafe"}}, {"type": "way", "id": 1382112411, "nodes": [12796015104, 12796015105, 12796015106, 12795938688, 12796015107, 12796015108, 12796015109, 12796015111, 12796015110, 12796015104], "tags": {"amenity": "restaurant", "building": "yes", "cuisine": "tantuni;turkish", "diet:halal": "yes", "layer": "-1", "name": "D\u00f6rt Mevsim Tantuni"}}, {"type": "way", "id": 1385144492, "nodes": [12824111957, 12824111958, 12824111959, 12824111960, 12824111961, 12824111962, 12824111963, 12824111964, 12824111965, 12824111966, 12824111967, 12824111968, 12824111969, 12824111970, 12824111971, 12824111972, 12824111973, 12824111974, 12824111975, 12824111957], "tags": {"amenity": "cafe", "building": "yes"}}, {"type": "way", "id": 1387594163, "nodes": [12844697449, 12844697450, 12844697451, 12844697452, 12844697449], "tags": {"amenity": "cafe", "building": "yes", "name": "Yeyedoy Kafe"}}]}