{"version": 0.6, "generator": "Overpass API 0.7.62.7 375dc00a", "osm3s": {"timestamp_osm_base": "2025-06-14T14:50:30Z", "copyright": "The data included in this document is from www.openstreetmap.org. The data is made available under ODbL."}, "elements": [{"type": "node", "id": 416346116, "lat": 35.097201, "lon": 26.26302, "tags": {"amenity": "restaurant", "cuisine": "greek", "name": "Amnesia", "outdoor_seating": "yes"}}, {"type": "node", "id": 924477718, "lat": 35.1993302, "lon": 26.2768674}, {"type": "node", "id": 924477745, "lat": 35.1992112, "lon": 26.2767702}, {"type": "node", "id": 924477860, "lat": 35.1992735, "lon": 26.2767777}, {"type": "node", "id": 924477926, "lat": 35.1992669, "lon": 26.2768597}, {"type": "node", "id": 924477955, "lat": 35.1993233, "lon": 26.2769534}, {"type": "node", "id": 924478017, "lat": 35.1991976, "lon": 26.2769382}, {"type": "node", "id": 985898202, "lat": 35.0747784, "lon": 25.9926415, "tags": {"amenity": "restaurant", "cuisine": "regional", "int_name": "Taverna Piperia", "name": "Piperia"}}, {"type": "node", "id": 1309640640, "lat": 35.0744504, "lon": 25.9924169, "tags": {"amenity": "cafe"}}, {"type": "node", "id": 1333425477, "lat": 35.2130797, "lon": 26.110722, "tags": {"amenity": "restaurant", "name": "Nato"}}, {"type": "node", "id": 1777373571, "lat": 35.09802, "lon": 26.263305, "tags": {"amenity": "restaurant", "cuisine": "greek", "name": "Akrogiali", "outdoor_seating": "yes"}}, {"type": "node", "id": 1777373572, "lat": 35.097414, "lon": 26.263052, "tags": {"amenity": "restaurant", "name": "Nikos Platanakis", "outdoor_seating": "yes"}}, {"type": "node", "id": 1777373573, "lat": 35.097617, "lon": 26.263097, "tags": {"amenity": "restaurant", "name": "Nostos", "outdoor_seating": "yes"}}, {"type": "node", "id": 1778049870, "lat": 35.198853, "lon": 25.9905905}, {"type": "node", "id": 1873979200, "lat": 35.1579445, "lon": 25.8942777, "tags": {"amenity": "restaurant", "cuisine": "greek", "name": "Natural", "opening_hours": "09:00-23:00"}}, {"type": "node", "id": 1913825863, "lat": 35.2528754, "lon": 26.2651879}, {"type": "node", "id": 1913825870, "lat": 35.2529597, "lon": 26.265068}, {"type": "node", "id": 1913825874, "lat": 35.2530361, "lon": 26.2653574}, {"type": "node", "id": 1913825885, "lat": 35.2531412, "lon": 26.2652081}, {"type": "node", "id": 2312666436, "lat": 35.20823, "lon": 26.1065593, "tags": {"addr:city": "\u03a3\u03b7\u03c4\u03b5\u03af\u03b1", "addr:housenumber": "3", "addr:postcode": "723 00", "addr:street": "\u039d\u03af\u03ba\u03bf\u03c5 \u039a\u03b1\u03b6\u03b1\u03bd\u03c4\u03b6\u03ac\u03ba\u03b7", "amenity": "restaurant", "cuisine": "greek", "name": "Zorbas", "phone": "+30 2843022689"}}, {"type": "node", "id": 2394405036, "lat": 35.0816365, "lon": 26.0982747, "tags": {"amenity": "restaurant", "name": "Taverna"}}, {"type": "node", "id": 2420024288, "lat": 35.1978933, "lon": 26.2551462, "tags": {"amenity": "restaurant", "cuisine": "greek", "name": "Ithanos"}}, {"type": "node", "id": 2420024289, "lat": 35.1980938, "lon": 26.2546218, "tags": {"amenity": "restaurant", "cuisine": "greek", "name": "Mythos"}}, {"type": "node", "id": 2968169172, "lat": 35.1599779, "lon": 25.9707397, "tags": {"amenity": "cafe", "cuisine": "pizza", "internet_access": "wlan", "name": "\u0391\u03b3\u03c1\u03b9\u03bb\u03cc\u03c2"}}, {"type": "node", "id": 3033632611, "lat": 35.2064448, "lon": 26.1076969, "tags": {"amenity": "restaurant", "cuisine": "greek", "name": "Da Giorgio"}}, {"type": "node", "id": 3033651633, "lat": 35.2013923, "lon": 26.1154309, "tags": {"amenity": "cafe"}}, {"type": "node", "id": 3033655534, "lat": 35.1980433, "lon": 26.1282104, "tags": {"amenity": "restaurant", "name:en": "Kaparoperta"}}, {"type": "node", "id": 3127400830, "lat": 35.183597, "lon": 25.905487, "tags": {"amenity": "restaurant", "name": "Taverna Remezzo", "outdoor_seating": "yes"}}, {"type": "node", "id": 3127400831, "lat": 35.1845039, "lon": 25.9045403, "tags": {"amenity": "restaurant", "int_name": "Messostrati", "name": "\u039c\u03b5\u03c3\u03bf\u03c3\u03c4\u03c1\u03b1\u03c4\u03b9", "outdoor_seating": "yes"}}, {"type": "node", "id": 3127448229, "lat": 35.184193, "lon": 25.905162, "tags": {"amenity": "cafe", "description": "cafe - bar", "internet_access": "wlan", "name": "Oktana", "opening_hours": "Mo, Tu, Th-Su 09:00-02:00", "outdoor_seating": "yes"}}, {"type": "node", "id": 3127451929, "lat": 35.1842154, "lon": 25.9049208, "tags": {"amenity": "restaurant", "int_name": "Sofia", "name": "\u03a3\u03bf\u03c6\u03b9\u03b1"}}, {"type": "node", "id": 3127454729, "lat": 35.1843587, "lon": 25.9047882, "tags": {"amenity": "restaurant", "cuisine": "greek", "name": "Kavouria", "outdoor_seating": "yes", "phone": "2843094204"}}, {"type": "node", "id": 3127458629, "lat": 35.1846118, "lon": 25.90443, "tags": {"amenity": "restaurant", "description": "Greek cuisine with a modern twist based on local products.", "int_name": "Sochoro", "name": "\u03a3\u03cc\u03c7\u03c9\u03c1\u03bf"}}, {"type": "node", "id": 3127471729, "lat": 35.1847267, "lon": 25.9047762, "tags": {"addr:city": "\u039c\u03cc\u03c7\u03bb\u03bf\u03c2", "amenity": "restaurant", "int_name": "Taverna Kochilia", "name": "\u03a4\u03b1 \u039a\u03bf\u03c7\u03cd\u03bb\u03b9\u03b1", "survey:date": "2024-10-15"}}, {"type": "node", "id": 3133205330, "lat": 35.097535, "lon": 26.262975, "tags": {"amenity": "restaurant", "name": "Glaros"}}, {"type": "node", "id": 3143205032, "lat": 35.115218, "lon": 25.8611964}, {"type": "node", "id": 3143205033, "lat": 35.1152344, "lon": 25.8611353}, {"type": "node", "id": 3143205034, "lat": 35.1152779, "lon": 25.8612205}, {"type": "node", "id": 3143205035, "lat": 35.1152943, "lon": 25.8611593}, {"type": "node", "id": 3220593173, "lat": 35.1235192, "lon": 25.8583639, "tags": {"amenity": "restaurant", "name": "\u039d\u03c4\u03ac\u03ba\u03bf\u03c2"}}, {"type": "node", "id": 3473283800, "lat": 35.2530263, "lon": 26.2643871}, {"type": "node", "id": 3473283801, "lat": 35.2530354, "lon": 26.2643143}, {"type": "node", "id": 3473283802, "lat": 35.2532008, "lon": 26.2644199}, {"type": "node", "id": 3473283803, "lat": 35.2532099, "lon": 26.2643471}, {"type": "node", "id": 3592615591, "lat": 35.2065991, "lon": 26.1075584, "tags": {"addr:city": "\u03a3\u03b7\u03c4\u03b5\u03af\u03b1", "addr:country": "GR", "addr:housenumber": "10", "addr:street": "\u039f\u03b4\u03cc\u03c2 \u039a\u03c9\u03bd\u03c3\u03c4\u03b1\u03bd\u03c4\u03af\u03bd\u03bf\u03c5 \u039a\u03b1\u03c1\u03b1\u03bc\u03b1\u03bd\u03bb\u03ae", "amenity": "restaurant", "cuisine": "greek", "name": "\u039a\u03c1\u03b7\u03c4\u03b9\u03ba\u03cc \u03a3\u03c0\u03af\u03c4\u03b9", "name:de": "Kritiko Spiti", "name:el": "\u039a\u03c1\u03b7\u03c4\u03b9\u03ba\u03cc \u03a3\u03c0\u03af\u03c4\u03b9", "name:en": "Kritiko Spiti Restaurant", "note": "Traditional Restaurant"}}, {"type": "node", "id": 3592615775, "lat": 35.2067264, "lon": 26.1074199, "tags": {"amenity": "cafe", "name": "En Plo"}}, {"type": "node", "id": 3606552196, "lat": 35.2087009, "lon": 26.106127, "tags": {"amenity": "restaurant"}}, {"type": "node", "id": 3625400378, "lat": 35.206983, "lon": 26.1067091}, {"type": "node", "id": 3625400387, "lat": 35.2071027, "lon": 26.1065919}, {"type": "node", "id": 3625400391, "lat": 35.2070847, "lon": 26.1068675}, {"type": "node", "id": 3625400495, "lat": 35.2071668, "lon": 26.1065302}, {"type": "node", "id": 3625400500, "lat": 35.2072005, "lon": 26.1067439}, {"type": "node", "id": 3625400507, "lat": 35.2072646, "lon": 26.1066822}, {"type": "node", "id": 3636590213, "lat": 35.2064019, "lon": 26.1068265, "tags": {"amenity": "restaurant", "cuisine": "greek", "name": "Taverna Steki"}}, {"type": "node", "id": 3674129751, "lat": 35.2529173, "lon": 26.2648554}, {"type": "node", "id": 3674129752, "lat": 35.2529226, "lon": 26.2648831}, {"type": "node", "id": 3674129753, "lat": 35.2529301, "lon": 26.2648104}, {"type": "node", "id": 3674129754, "lat": 35.252931, "lon": 26.2648737}, {"type": "node", "id": 3674129755, "lat": 35.2529426, "lon": 26.2648272}, {"type": "node", "id": 3674129756, "lat": 35.2529978, "lon": 26.2649839}, {"type": "node", "id": 3674129757, "lat": 35.2530067, "lon": 26.2651176}, {"type": "node", "id": 3674129758, "lat": 35.2530001, "lon": 26.2647321}, {"type": "node", "id": 3674129759, "lat": 35.2530274, "lon": 26.2650881}, {"type": "node", "id": 3674129760, "lat": 35.2530187, "lon": 26.2649135}, {"type": "node", "id": 3674129761, "lat": 35.2530576, "lon": 26.2648455, "tags": {"amenity": "cafe"}}, {"type": "node", "id": 3674129762, "lat": 35.2530378, "lon": 26.2649392}, {"type": "node", "id": 3674129764, "lat": 35.2530823, "lon": 26.2648423}, {"type": "node", "id": 3674129765, "lat": 35.2531074, "lon": 26.2652561}, {"type": "node", "id": 3741483493, "lat": 35.1848058, "lon": 25.9049154, "tags": {"addr:postcode": "72057", "addr:street": "\u039c\u03bf\u03c7\u03bb\u03bf\u03c2", "amenity": "restaurant", "check_date:opening_hours": "2022-07-12", "cuisine": "grill;greek;fish", "delivery": "no", "diet:vegetarian": "yes", "internet_access": "wlan", "name": "Bogazi", "opening_hours": "Mo-Su 09:00-23:00", "opening_hours:signed": "no", "operator": "Manolis and Gabi", "outdoor_seating": "yes", "phone": "+30 2843 094200", "smoking": "outside", "takeaway": "only", "wheelchair": "limited"}}, {"type": "node", "id": 3751331214, "lat": 35.1551666, "lon": 25.880506, "tags": {"amenity": "restaurant", "cuisine": "regional", "int_name": "Panorama", "name": "\u03a0\u03b1\u03bd\u03cc\u03c1\u03b1\u03bc\u03b1", "name:el": "\u03a0\u03b1\u03bd\u03cc\u03c1\u03b1\u03bc\u03b1"}}, {"type": "node", "id": 4167840984, "lat": 35.1984118, "lon": 26.2758529}, {"type": "node", "id": 4167840985, "lat": 35.1983862, "lon": 26.2759145}, {"type": "node", "id": 4167840986, "lat": 35.1983494, "lon": 26.2758916}, {"type": "node", "id": 4167840987, "lat": 35.1983242, "lon": 26.2759523}, {"type": "node", "id": 4167840988, "lat": 35.1982828, "lon": 26.2759266}, {"type": "node", "id": 4167841689, "lat": 35.1982971, "lon": 26.275892}, {"type": "node", "id": 4167841690, "lat": 35.1982299, "lon": 26.2758502}, {"type": "node", "id": 4167841691, "lat": 35.198271, "lon": 26.2757514}, {"type": "node", "id": 4167841692, "lat": 35.1983108, "lon": 26.2757762}, {"type": "node", "id": 4167841693, "lat": 35.1983264, "lon": 26.2758308}, {"type": "node", "id": 4167841694, "lat": 35.1983366, "lon": 26.2758061}, {"type": "node", "id": 4168052373, "lat": 35.2123675, "lon": 26.2669099}, {"type": "node", "id": 4168052374, "lat": 35.2123296, "lon": 26.2670447}, {"type": "node", "id": 4168052375, "lat": 35.2121716, "lon": 26.2669893}, {"type": "node", "id": 4168052376, "lat": 35.2122084, "lon": 26.2668499}, {"type": "node", "id": 4174343409, "lat": 35.2042838, "lon": 26.2704751, "tags": {"amenity": "restaurant", "cuisine": "greek", "name": "\u03a4\u03b1\u03b2\u03ad\u03c1\u03bd\u03b1 \u03a4' \u0391\u03bd\u03ad\u03b4\u03b9\u03b1\u03c3\u03bc\u03b1", "name:de": "Taverne Anediasma", "name:el": "\u03a4\u03b1\u03b2\u03ad\u03c1\u03bd\u03b1 \u03a4' \u0391\u03bd\u03ad\u03b4\u03b9\u03b1\u03c3\u03bc\u03b1", "name:en": "Tavern Anediasma"}}, {"type": "node", "id": 4174353991, "lat": 35.2143935, "lon": 26.2671599, "tags": {"amenity": "restaurant", "cuisine": "cretan traditional cusine", "name": "\u0386\u03bb\u03b9\u03b1\u03ae\u03c2", "name:el": "\u0386\u03bb\u03b9\u03b1\u03ae\u03c2", "name:en": "Aliaes"}}, {"type": "node", "id": 4348786908, "lat": 35.154716, "lon": 25.9235289, "tags": {"amenity": "cafe"}}, {"type": "node", "id": 4348786909, "lat": 35.1596984, "lon": 25.9707256, "tags": {"amenity": "cafe"}}, {"type": "node", "id": 4379735761, "lat": 35.1982189, "lon": 26.2537521, "tags": {"amenity": "restaurant", "cuisine": "greek"}}, {"type": "node", "id": 4404264256, "lat": 35.221123, "lon": 26.2160185, "tags": {"amenity": "cafe"}}, {"type": "node", "id": 4422548951, "lat": 35.2059059, "lon": 26.1079614, "tags": {"amenity": "restaurant", "name": "Da Giorgio"}}, {"type": "node", "id": 4423574103, "lat": 35.2026885, "lon": 26.1118863, "tags": {"amenity": "cafe", "name": "Bloom"}}, {"type": "node", "id": 4424763684, "lat": 35.1385787, "lon": 25.8990543, "tags": {"amenity": "restaurant", "cuisine": "greek", "level": "0", "outdoor_seating": "yes"}}, {"type": "node", "id": 4437369780, "lat": 35.195992, "lon": 26.2636711, "tags": {"amenity": "restaurant", "cuisine": "regional", "name": "Elia", "name:el": "\u0395\u03bb\u03b9\u03b1"}}, {"type": "node", "id": 4441107115, "lat": 35.1682648, "lon": 25.9468414, "tags": {"amenity": "restaurant", "cuisine": "regional", "name": "Kath'odon"}}, {"type": "node", "id": 4456043591, "lat": 35.1126411, "lon": 26.2190889, "tags": {"amenity": "restaurant", "contact:facebook": "https://www.facebook.com/profile.php?id=100033324715964", "contact:phone": "+30 2843 093438", "cuisine": "greek", "name": "\u039a\u03b1\u03c6\u03b5\u03bd\u03b5\u03b9\u03bf \u039f \u03a0\u03bf\u03bd\u03c4\u03b9\u03bf\u03c2"}}, {"type": "node", "id": 4456060689, "lat": 35.1114803, "lon": 26.2180725, "tags": {"amenity": "restaurant", "cuisine": "pizza", "name": "Napoleon"}}, {"type": "node", "id": 4456084998, "lat": 35.1107563, "lon": 26.2178766, "tags": {"amenity": "cafe", "name": "KILOPORTA"}}, {"type": "node", "id": 4456119391, "lat": 35.0475532, "lon": 26.2324141, "tags": {"amenity": "restaurant", "cuisine": "greek", "name": "Taverna Creta Sun"}}, {"type": "node", "id": 4473089475, "lat": 35.1981974, "lon": 26.2543558, "tags": {"amenity": "restaurant", "cuisine": "greek", "name": "Elena"}}, {"type": "node", "id": 4473089476, "lat": 35.1980582, "lon": 26.2547608, "tags": {"amenity": "cafe", "name": "Exodos Cafe"}}, {"type": "node", "id": 4473089477, "lat": 35.1980522, "lon": 26.255012, "tags": {"amenity": "restaurant", "cuisine": "greek", "name": "Finistrini"}}, {"type": "node", "id": 4473089478, "lat": 35.1979763, "lon": 26.2546214, "tags": {"amenity": "restaurant", "cuisine": "greek", "name": "Hellas"}}, {"type": "node", "id": 4473089480, "lat": 35.1980543, "lon": 26.2549101, "tags": {"amenity": "restaurant", "name": "To Konaki"}}, {"type": "node", "id": 4473108665, "lat": 35.2496863, "lon": 26.2512316, "tags": {"amenity": "restaurant", "cuisine": "greek", "name": "\u039c\u03b5\u03c4\u03cc\u03c7\u03b9", "name:el": "\u039c\u03b5\u03c4\u03cc\u03c7\u03b9", "name:en": "Metochi Tavern"}}, {"type": "node", "id": 5012795863, "lat": 35.1904706, "lon": 26.1484672}, {"type": "node", "id": 5012795864, "lat": 35.1904444, "lon": 26.1484323}, {"type": "node", "id": 5012795865, "lat": 35.1903658, "lon": 26.1484221}, {"type": "node", "id": 5012795866, "lat": 35.1903276, "lon": 26.1484701}, {"type": "node", "id": 5012795867, "lat": 35.1903098, "lon": 26.1484774}, {"type": "node", "id": 5012795868, "lat": 35.1903098, "lon": 26.1485284}, {"type": "node", "id": 5012795869, "lat": 35.1902407, "lon": 26.1485314}, {"type": "node", "id": 5012795870, "lat": 35.1904642, "lon": 26.1486503}, {"type": "node", "id": 5012795871, "lat": 35.1902373, "lon": 26.1486435}, {"type": "node", "id": 5061520328, "lat": 35.0740461, "lon": 26.1396558, "tags": {"amenity": "restaurant", "name": "\u039f\u0392\u0395\u039b\u0399\u03a3\u03a4\u0397\u03a1\u0399\u039f", "name:el": "\u039f\u0392\u0395\u039b\u0399\u03a3\u03a4\u0397\u03a1\u0399\u039f", "name:en": "OBELISTER"}}, {"type": "node", "id": 5620539512, "lat": 35.199027, "lon": 25.9907578}, {"type": "node", "id": 5891832525, "lat": 35.1296628, "lon": 26.2170454}, {"type": "node", "id": 5891832526, "lat": 35.1296617, "lon": 26.2171513}, {"type": "node", "id": 5891832527, "lat": 35.1297137, "lon": 26.2171521}, {"type": "node", "id": 5891832528, "lat": 35.1297148, "lon": 26.2170462}, {"type": "node", "id": 6074193057, "lat": 35.0802772, "lon": 25.8267866, "tags": {"amenity": "restaurant", "name": "\u03a4\u03bf \u039a\u03b1\u03c0\u03b9\u03bb\u03b5\u03b9\u03cc"}}, {"type": "node", "id": 6521284937, "lat": 35.2079371, "lon": 26.1064044, "tags": {"amenity": "restaurant", "name": "Bistrot-Cafe Krema Kanela", "name:el": "Bistrot-Cafe \u039a\u03c1\u03ad\u03bc\u03b1 \u039a\u03b1\u03bd\u03ad\u03bb\u03b1"}}, {"type": "node", "id": 6525042848, "lat": 35.2080641, "lon": 26.1064975, "tags": {"amenity": "restaurant", "name": "Vai"}}, {"type": "node", "id": 6525042849, "lat": 35.2084866, "lon": 26.1064146, "tags": {"amenity": "restaurant", "name": "MeRaki"}}, {"type": "node", "id": 6525042852, "lat": 35.209456, "lon": 26.1071516, "tags": {"amenity": "restaurant", "name": "Il Forno"}}, {"type": "node", "id": 6531790698, "lat": 35.2043973, "lon": 26.1039301, "tags": {"amenity": "cafe"}}, {"type": "node", "id": 6531806025, "lat": 35.2079664, "lon": 26.1062225, "tags": {"amenity": "cafe", "name": "Snoopy"}}, {"type": "node", "id": 6656967085, "lat": 35.2057848, "lon": 26.1053729, "tags": {"amenity": "restaurant"}}, {"type": "node", "id": 6899370686, "lat": 35.1955574, "lon": 26.264262, "tags": {"amenity": "restaurant", "cuisine": "greek", "name": "\u0391\u03bd\u03b1\u03c4\u03bf\u03bb\u03ae"}}, {"type": "node", "id": 6899370687, "lat": 35.1969436, "lon": 26.2642907, "tags": {"amenity": "restaurant", "name": "\u039c\u03b5\u03bb\u03c4\u03ad\u03bc\u03b9"}}, {"type": "node", "id": 6899370785, "lat": 35.1962362, "lon": 26.2645769, "tags": {"amenity": "restaurant", "name": "\u03a4\u03bf \u0391\u03b3\u03ba\u03af\u03c3\u03c4\u03c1\u03b9"}}, {"type": "node", "id": 6899374685, "lat": 35.1328562, "lon": 26.1704101, "tags": {"amenity": "cafe"}}, {"type": "node", "id": 6899391486, "lat": 35.2057431, "lon": 26.1083809, "tags": {"amenity": "restaurant", "name": "AKTI"}}, {"type": "node", "id": 6899395186, "lat": 35.1900611, "lon": 26.1033237, "tags": {"amenity": "restaurant", "name": "Klimataria"}}, {"type": "node", "id": 6899395187, "lat": 35.1791231, "lon": 26.0968701, "tags": {"amenity": "restaurant", "name": "EROTOKRITOS"}}, {"type": "node", "id": 6899436385, "lat": 35.178702, "lon": 26.0958776, "tags": {"amenity": "restaurant", "name": "I Plateia"}}, {"type": "node", "id": 6907743285, "lat": 35.1983785, "lon": 26.2542278, "tags": {"amenity": "restaurant", "name": "Retro Tavern"}}, {"type": "node", "id": 6910936085, "lat": 35.1466606, "lon": 26.2467859, "tags": {"amenity": "cafe", "name:en": "Caf\u00e9 Chochlakies"}}, {"type": "node", "id": 6925470735, "lat": 35.1993293, "lon": 25.9905903}, {"type": "node", "id": 6925470736, "lat": 35.1991828, "lon": 25.9904163}, {"type": "node", "id": 6925470737, "lat": 35.1988858, "lon": 25.990406}, {"type": "node", "id": 6925470738, "lat": 35.1987687, "lon": 25.9909538}, {"type": "node", "id": 6925470739, "lat": 35.1991828, "lon": 25.9910203}, {"type": "node", "id": 6925470740, "lat": 35.1992791, "lon": 25.9909333}, {"type": "node", "id": 7004805867, "lat": 35.1995932, "lon": 26.2776049}, {"type": "node", "id": 7004805869, "lat": 35.1996197, "lon": 26.2776607}, {"type": "node", "id": 7004805871, "lat": 35.1994966, "lon": 26.2777246}, {"type": "node", "id": 7004805872, "lat": 35.1996153, "lon": 26.2777202}, {"type": "node", "id": 7004805873, "lat": 35.1996412, "lon": 26.2776833}, {"type": "node", "id": 7004805874, "lat": 35.1995847, "lon": 26.2776881}, {"type": "node", "id": 7004805875, "lat": 35.198296, "lon": 26.2758118}, {"type": "node", "id": 7004805876, "lat": 35.199543, "lon": 26.2777229}, {"type": "node", "id": 7004826297, "lat": 35.1995234, "lon": 26.2775621}, {"type": "node", "id": 7004826298, "lat": 35.199631, "lon": 26.2776446}, {"type": "node", "id": 7004826299, "lat": 35.1995718, "lon": 26.2777066}, {"type": "node", "id": 7004826302, "lat": 35.1994422, "lon": 26.2776636}, {"type": "node", "id": 7004826306, "lat": 35.1995808, "lon": 26.2776225}, {"type": "node", "id": 7042092574, "lat": 35.2022613, "lon": 26.1128753, "tags": {"amenity": "cafe", "name": "\u0386\u03b3\u03b5\u03c1\u03b1\u03c2", "name:el": "\u0386\u03b3\u03b5\u03c1\u03b1\u03c2", "name:en": "\u0391geras"}}, {"type": "node", "id": 7737894162, "lat": 35.1546206, "lon": 25.8799799, "tags": {"amenity": "restaurant", "name": "\u03a0\u03bb\u03ac\u03c4\u03b1\u03bd\u03bf\u03c2"}}, {"type": "node", "id": 7973786886, "lat": 35.0758249, "lon": 25.9917847, "tags": {"amenity": "restaurant", "name": "\u039a\u039b\u0397\u039c\u0391\u03a4\u0391\u03a1\u0399\u0391"}}, {"type": "node", "id": 8036377994, "lat": 35.0735916, "lon": 26.0465497, "tags": {"amenity": "restaurant", "name": "Tavern"}}, {"type": "node", "id": 8503553942, "lat": 35.1216986, "lon": 25.8572671, "tags": {"amenity": "cafe"}}, {"type": "node", "id": 8889959117, "lat": 35.1990375, "lon": 26.2507807, "tags": {"amenity": "restaurant", "name": "Restaurant Vai"}}, {"type": "node", "id": 8957713478, "lat": 35.1217303, "lon": 25.8573273, "tags": {"amenity": "cafe"}}, {"type": "node", "id": 8957713479, "lat": 35.1217783, "lon": 25.8573661, "tags": {"amenity": "cafe"}}, {"type": "node", "id": 8957713480, "lat": 35.1216588, "lon": 25.857164, "tags": {"amenity": "cafe"}}, {"type": "node", "id": 9078981998, "lat": 35.0805276, "lon": 25.826721, "tags": {"amenity": "restaurant", "name": "\u03a4\u03bf \u039c\u03bf\u03bd\u03b1\u03c3\u03c4\u03b7\u03c1\u03ac\u03ba\u03b9", "name:el": "\u03a4\u03bf \u039c\u03bf\u03bd\u03b1\u03c3\u03c4\u03b7\u03c1\u03ac\u03ba\u03b9", "name:fr": "To Monastir\u00e1ki", "phone": "+306972847432", "website": "www.tomonastiraki.gr"}}, {"type": "node", "id": 9109387057, "lat": 35.2226896, "lon": 26.2711598, "tags": {"amenity": "restaurant", "name": "Maridatis", "opening_hours": "Mo-Su 12:30-21:30"}}, {"type": "node", "id": 9109429123, "lat": 35.179186, "lon": 26.0969788, "tags": {"amenity": "restaurant", "int_name": "Aeroinon", "name": "\u0391\u03ad\u03c1\u03bf\u03b9\u03bd\u03bf\u03bd", "phone": "698 358 1695"}}, {"type": "node", "id": 9846055529, "lat": 35.0741198, "lon": 26.1399894, "tags": {"amenity": "cafe"}}, {"type": "node", "id": 9874669574, "lat": 35.1235314, "lon": 25.8586721, "tags": {"amenity": "cafe"}}, {"type": "node", "id": 9874669575, "lat": 35.1235288, "lon": 25.858817, "tags": {"amenity": "cafe"}}, {"type": "node", "id": 9874669605, "lat": 35.0891809, "lon": 25.8614789, "tags": {"amenity": "cafe"}}, {"type": "node", "id": 9878742603, "lat": 35.2082742, "lon": 26.1065666, "tags": {"amenity": "restaurant", "cuisine": "greek", "name": "To Limani"}}, {"type": "node", "id": 9937327117, "lat": 35.0780451, "lon": 25.9412767, "tags": {"amenity": "restaurant", "name:en": "Stravodoxari"}}, {"type": "node", "id": 9974181205, "lat": 35.1740676, "lon": 25.9559221, "tags": {"amenity": "cafe", "disused": "closed"}}, {"type": "node", "id": 11114421884, "lat": 35.2533818, "lon": 26.2650069}, {"type": "node", "id": 11114421885, "lat": 35.2533401, "lon": 26.2649628}, {"type": "node", "id": 11114421886, "lat": 35.2532234, "lon": 26.265128}, {"type": "node", "id": 11114421887, "lat": 35.2532651, "lon": 26.2651721}, {"type": "node", "id": 11225363661, "lat": 35.1516063, "lon": 25.8619778, "tags": {"addr:city": "Kavousi", "amenity": "restaurant", "name": "Tholos Beach", "phone": "2842094793"}}, {"type": "node", "id": 11225363684, "lat": 35.1537151, "lon": 25.8613751, "tags": {"amenity": "restaurant", "cuisine": "greek", "name": "Petros Kantina"}}, {"type": "node", "id": 11955691693, "lat": 35.0743055, "lon": 26.0466561, "tags": {"amenity": "cafe"}}, {"type": "node", "id": 11982905709, "lat": 35.1674956, "lon": 25.988431, "tags": {"amenity": "restaurant", "name": "Mrs.Rose"}}, {"type": "node", "id": 11982905710, "lat": 35.16751, "lon": 25.988242, "tags": {"amenity": "restaurant", "name": "\u03a4\u03bf \u039a\u03b1\u03c0\u03b7\u03bb\u03b5\u03b9\u03cc"}}, {"type": "node", "id": 12251209315, "lat": 35.1844967, "lon": 25.9047819, "tags": {"amenity": "restaurant", "cuisine": "greek", "description": "greek food", "name": "Yalos", "outdoor_seating": "yes", "wheelchair": "yes"}}, {"type": "node", "id": 12740974001, "lat": 35.2055397, "lon": 26.1082841, "tags": {"amenity": "cafe", "name": "Obelix"}}, {"type": "way", "id": 79121038, "nodes": [924477718, 924477955, 924478017, 924477745, 924477860, 924477926, 924477718], "tags": {"amenity": "restaurant", "building": "yes", "cuisine": "greek", "name": "Batis"}}, {"type": "way", "id": 180929672, "nodes": [1913825885, 3674129765, 1913825874, 1913825863, 1913825870, 3674129757, 3674129759, 1913825885], "tags": {"amenity": "restaurant", "building": "yes", "cuisine": "regional", "name": "Vai Restaurant", "name:en": "Vai Restaurant", "name:ru": "\u0420\u0435\u0441\u0442\u043e\u0440\u0430\u043d \u0412\u0430\u0438", "phone": "+30 2843061129", "website": "http://www.vai-restaurant.gr"}}, {"type": "way", "id": 309005894, "nodes": [3143205035, 3143205034, 3143205032, 3143205033, 3143205035], "tags": {"amenity": "restaurant", "building": "yes", "changing_table": "no", "changing_table:fee": "no", "name": "\u0395\u03bb\u03b9\u03ac\u03bd\u03b8\u03b7", "outdoor_seating": "yes", "reservation": "no", "takeaway": "no", "wheelchair": "no"}}, {"type": "way", "id": 340125134, "nodes": [3473283803, 3473283802, 3473283800, 3473283801, 3473283803], "tags": {"amenity": "cafe", "building": "yes", "shop": "gift"}}, {"type": "way", "id": 357215679, "nodes": [3625400387, 3625400378, 3625400391, 3625400500, 3625400387], "tags": {"addr:city": "\u03a3\u03b7\u03c4\u03b5\u03af\u03b1", "addr:housenumber": "6", "addr:postcode": "72300", "addr:street": "\u039f\u03b4\u03cc\u03c2 \u039a\u03c9\u03bd\u03c3\u03c4\u03b1\u03bd\u03c4\u03af\u03bd\u03bf\u03c5 \u039a\u03b1\u03c1\u03b1\u03bc\u03b1\u03bd\u03bb\u03ae", "amenity": "restaurant", "building": "yes", "name": "\u039c\u03b7\u03c4\u03c3\u03b1\u03ba\u03ac\u03ba\u03b7\u03c2", "phone": "2843022377"}}, {"type": "way", "id": 357215706, "nodes": [3625400495, 3625400387, 3625400500, 3625400507, 3625400495], "tags": {"amenity": "cafe", "building": "yes", "name": "Cafe-Cafe"}}, {"type": "way", "id": 363235311, "nodes": [3674129764, 3674129760, 3674129762, 3674129756, 3674129752, 3674129754, 3674129751, 3674129755, 3674129753, 3674129758, 3674129764], "tags": {"amenity": "cafe", "building": "cafe", "name": "SeaSide Cafe"}}, {"type": "way", "id": 415835538, "nodes": [4167840984, 4167840985, 4167840986, 4167840987, 4167840988, 4167841689, 4167841690, 4167841691, 4167841692, 7004805875, 4167841693, 4167841694, 4167840984], "tags": {"amenity": "restaurant", "building": "yes", "cuisine": "greek", "name": "\u039a\u03b1\u03ba\u03b1\u03b2\u03b9\u03b1"}}, {"type": "way", "id": 415860520, "nodes": [4168052373, 4168052374, 4168052375, 4168052376, 4168052373], "tags": {"amenity": "restaurant", "building": "yes", "name": "Grandes"}}, {"type": "way", "id": 512665736, "nodes": [5012795863, 5012795864, 5012795865, 5012795866, 5012795867, 5012795868, 5012795869, 5012795871, 5012795870, 5012795863], "tags": {"amenity": "restaurant", "building": "yes", "cuisine": "pizza;italian;greek", "delivery": "yes", "name": "\u0394\u03b9\u03cc\u03bd\u03c5\u03c3\u03bf\u03c2", "name:el": "\u0394\u03b9\u03cc\u03bd\u03c5\u03c3\u03bf\u03c2", "name:en": "Dionysos", "outdoor_seating": "yes"}}, {"type": "way", "id": 623955211, "nodes": [5891832528, 5891832527, 5891832526, 5891832525, 5891832528], "tags": {"amenity": "restaurant", "building": "yes", "name": "\u0391\u03bd\u03b4\u03c1\u03b1\u03b2\u03ae\u03c4\u03b7 \u03a4\u03b1\u03b2\u03ad\u03c1\u03bd\u03b1", "name:el": "\u0391\u03bd\u03b4\u03c1\u03b1\u03b2\u03ae\u03c4\u03b7 \u03a4\u03b1\u03b2\u03ad\u03c1\u03bd\u03b1", "name:en": "Delicious Taverna"}}, {"type": "way", "id": 739649901, "nodes": [6925470735, 6925470736, 6925470737, 1778049870, 6925470738, 5620539512, 6925470739, 6925470740, 6925470735], "tags": {"amenity": "restaurant", "cuisine": "greek", "name": "Kantina Richtis"}}, {"type": "way", "id": 749063140, "nodes": [7004826297, 7004826306, 7004805867, 7004826298, 7004805869, 7004805873, 7004805872, 7004805874, 7004826299, 7004805876, 7004805871, 7004826302, 7004826297], "tags": {"amenity": "restaurant", "building": "yes", "name": "Chiona", "opening_hours": "Mo-Su 13:00-21:00"}}, {"type": "way", "id": 1198044645, "nodes": [11114421884, 11114421885, 11114421886, 11114421887, 11114421884], "tags": {"amenity": "cafe", "building": "yes", "name": "SeaSide Cafe - beach tables"}}]}