{"version": 0.6, "generator": "Overpass API 0.7.62.7 375dc00a", "osm3s": {"timestamp_osm_base": "2025-06-14T14:54:35Z", "copyright": "The data included in this document is from www.openstreetmap.org. The data is made available under ODbL."}, "elements": [{"type": "node", "id": 1775164419, "lat": 41.2580358, "lon": 28.4183384, "tags": {"amenity": "restaurant", "cuisine": "turkish", "name": "Merkez K\u00f6fte Salonu"}}, {"type": "node", "id": 2612231645, "lat": 41.2711455, "lon": 28.4833842}, {"type": "node", "id": 2612231646, "lat": 41.2712442, "lon": 28.4835156}, {"type": "node", "id": 2612231647, "lat": 41.2711152, "lon": 28.4836766}, {"type": "node", "id": 2612231648, "lat": 41.2710164, "lon": 28.4835505}, {"type": "node", "id": 2613358227, "lat": 41.3575747, "lon": 28.2194221, "tags": {"amenity": "cafe", "name": "Yaylac\u0131k K\u00f6y kahvesi"}}, {"type": "node", "id": 2618321604, "lat": 41.4301928, "lon": 28.1092668}, {"type": "node", "id": 2618321606, "lat": 41.4301752, "lon": 28.1093608}, {"type": "node", "id": 2618321608, "lat": 41.4300687, "lon": 28.1093253}, {"type": "node", "id": 2618321610, "lat": 41.4300863, "lon": 28.1092313}, {"type": "node", "id": 2618369893, "lat": 41.4286276, "lon": 28.0975002}, {"type": "node", "id": 2618369894, "lat": 41.428702, "lon": 28.0975727}, {"type": "node", "id": 2618369895, "lat": 41.4286357, "lon": 28.0976936}, {"type": "node", "id": 2618369896, "lat": 41.4285613, "lon": 28.097621}, {"type": "node", "id": 2627256466, "lat": 41.4275027, "lon": 28.0997128, "tags": {"amenity": "cafe", "name": "Kahvehane"}}, {"type": "node", "id": 3272767478, "lat": 41.3116187, "lon": 28.2833642}, {"type": "node", "id": 3272767479, "lat": 41.3116268, "lon": 28.2834336}, {"type": "node", "id": 3272767480, "lat": 41.3115944, "lon": 28.283469}, {"type": "node", "id": 3272767481, "lat": 41.3115331, "lon": 28.2834567}, {"type": "node", "id": 3272767482, "lat": 41.3115284, "lon": 28.283392}, {"type": "node", "id": 3272767483, "lat": 41.3115574, "lon": 28.283355}, {"type": "node", "id": 3272767484, "lat": 41.3115886, "lon": 28.2833504}, {"type": "node", "id": 4202026578, "lat": 41.5235476, "lon": 28.220162, "tags": {"amenity": "restaurant", "cuisine": "turkish", "name": "\u00c7ilingoz Tabiat Park\u0131 Restoran\u0131"}}, {"type": "node", "id": 4745339430, "lat": 41.6334909, "lon": 28.0922489, "tags": {"amenity": "restaurant", "name": "G\u00f6khan Restaurant"}}, {"type": "node", "id": 4745650269, "lat": 41.6312871, "lon": 28.0990731, "tags": {"amenity": "restaurant", "cuisine": "fish"}}, {"type": "node", "id": 4806739280, "lat": 41.2669239, "lon": 28.0513495, "tags": {"amenity": "restaurant", "name": "U\u011frak Et Lokantas\u0131"}}, {"type": "node", "id": 4837465391, "lat": 41.3743001, "lon": 28.2063198, "tags": {"amenity": "cafe"}}, {"type": "node", "id": 4837465421, "lat": 41.3744407, "lon": 28.2060082, "tags": {"amenity": "cafe"}}, {"type": "node", "id": 4850664826, "lat": 41.2810516, "lon": 28.1440151, "tags": {"amenity": "cafe"}}, {"type": "node", "id": 5121125780, "lat": 41.6337514, "lon": 28.0956231, "tags": {"amenity": "restaurant", "name": "Me\u015fhur Uysal Ev Yemekleri"}}, {"type": "node", "id": 5121125781, "lat": 41.6336832, "lon": 28.0955145, "tags": {"amenity": "restaurant", "name": "K\u0131y\u0131k\u00f6y'\u00fcn Me\u015fhur K\u00f6ftecisi Ya\u015far Usta"}}, {"type": "node", "id": 5173921379, "lat": 41.337044, "lon": 28.0199832, "tags": {"amenity": "cafe", "name": "Kahve"}}, {"type": "node", "id": 5173921380, "lat": 41.3368577, "lon": 28.0201937, "tags": {"amenity": "cafe", "name": "Kahve"}}, {"type": "node", "id": 5452420607, "lat": 41.2341018, "lon": 28.113315, "tags": {"amenity": "cafe", "name": "Kahve"}}, {"type": "node", "id": 5452420608, "lat": 41.2339697, "lon": 28.1136341, "tags": {"amenity": "cafe", "name": "Kahve"}}, {"type": "node", "id": 5485587189, "lat": 41.6297223, "lon": 28.0981122, "tags": {"amenity": "restaurant", "name": "Erkan'\u0131n Yeri Bal\u0131k Restoran\u0131"}}, {"type": "node", "id": 5485587194, "lat": 41.6337208, "lon": 28.0990912, "tags": {"amenity": "cafe", "name": "So\u011fuk i\u00e7ecekler"}}, {"type": "node", "id": 5485587195, "lat": 41.6338541, "lon": 28.0988163, "tags": {"amenity": "restaurant", "name": "G\u00f6khan Restaurant ve Motel", "tourism": "motel"}}, {"type": "node", "id": 5485587196, "lat": 41.63424, "lon": 28.0939883, "tags": {"amenity": "cafe"}}, {"type": "node", "id": 5485587198, "lat": 41.5469992, "lon": 28.0498016, "tags": {"amenity": "cafe", "name": "Kahve"}}, {"type": "node", "id": 5485650034, "lat": 41.5460587, "lon": 28.0485222, "tags": {"addr:city": "Bah\u00e7ek\u00f6y", "addr:district": "Saray", "addr:street": "Saray - K\u0131y\u0131k\u00f6y yolu", "amenity": "restaurant", "name": "\u0130rem Kahvalt\u0131 ve G\u00f6zleme Evi"}}, {"type": "node", "id": 5485650035, "lat": 41.5465446, "lon": 28.0489916, "tags": {"amenity": "restaurant", "name": "Hamide'nin Mutfa\u011f\u0131"}}, {"type": "node", "id": 5485650129, "lat": 41.6404773, "lon": 28.0920035, "tags": {"amenity": "restaurant", "name": "Sala\u015f Restauran Kafe & Bar"}}, {"type": "node", "id": 5485650144, "lat": 41.6348725, "lon": 28.091577, "tags": {"amenity": "cafe", "name": "Kartal \u00c7ay Bah\u00e7esi", "phone": "+905426349956"}}, {"type": "node", "id": 5485650145, "lat": 41.6348785, "lon": 28.0918854, "tags": {"amenity": "restaurant", "name": "Riva Motel Restaurant & Cafe", "tourism": "motel"}}, {"type": "node", "id": 5485650180, "lat": 41.6334311, "lon": 28.0963996, "tags": {"amenity": "cafe", "name": "\u00c7ap O\u011flu \u00c7ay Bah\u00e7esi"}}, {"type": "node", "id": 5485650181, "lat": 41.6337739, "lon": 28.0969897, "tags": {"amenity": "restaurant", "name": "Palaz Pansiyon ve Restauran", "tourism": "hotel"}}, {"type": "node", "id": 5485650182, "lat": 41.6343633, "lon": 28.0981752, "tags": {"amenity": "restaurant", "name": "K\u0131y\u0131 Restaurant"}}, {"type": "node", "id": 5485650183, "lat": 41.6340024, "lon": 28.0978265, "tags": {"amenity": "restaurant", "name": "K\u00f6\u015fk"}}, {"type": "node", "id": 5485650184, "lat": 41.6338581, "lon": 28.0981484, "tags": {"amenity": "restaurant", "name": "Deniz Feneri Restaurant ve Motel", "tourism": "motel"}}, {"type": "node", "id": 5485650185, "lat": 41.6334391, "lon": 28.09865, "tags": {"amenity": "restaurant", "name": "Marina Cafe & Restaurant"}}, {"type": "node", "id": 5526908343, "lat": 41.276722, "lon": 28.1430888, "tags": {"amenity": "cafe", "name": "\u00c7ay\u0131rdere K\u00f6y\u00fc Aile \u00c7ay bah\u00e7esi"}}, {"type": "node", "id": 5526908344, "lat": 41.2767059, "lon": 28.1437808, "tags": {"amenity": "restaurant", "name": "\u00c7ay\u0131rdere \u00c7aml\u0131k Restoran"}}, {"type": "node", "id": 5526908397, "lat": 41.2666313, "lon": 28.0317302, "tags": {"addr:city": "\u00c7erkezk\u00f6y", "addr:country": "TR", "addr:district": "\u00c7erkezk\u00f6y", "addr:housenumber": "137", "addr:neighbourhood": "\u0130stasyon Mahallesi", "addr:place": "Tepe Mevkii", "addr:postcode": "59500", "addr:street": "Cengiz Topel Caddesi", "amenity": "restaurant", "name": "Toko\u00e7in Restaurant", "opening_hours": "09:00-23:00", "phone": "0532 434 98 76", "website": "http://www.tokocin.com"}}, {"type": "node", "id": 5526908469, "lat": 41.3170476, "lon": 28.1742453, "tags": {"amenity": "cafe", "name": "K\u00f6y Kahvesi"}}, {"type": "node", "id": 5526908485, "lat": 41.2804767, "lon": 28.1442489, "tags": {"amenity": "cafe", "name": "Damga Cafe & Pastane", "shop": "pastry"}}, {"type": "node", "id": 5605431420, "lat": 41.2555479, "lon": 28.4210523, "tags": {"amenity": "restaurant", "name": "Tarihi K\u0131rkp\u0131nar Kuzu ve O\u011flak \u00c7evirme"}}, {"type": "node", "id": 5605433622, "lat": 41.3200531, "lon": 28.0997991, "tags": {"amenity": "cafe"}}, {"type": "node", "id": 5605434175, "lat": 41.320154, "lon": 28.099175, "tags": {"amenity": "cafe", "name": "Metinler Kahve"}}, {"type": "node", "id": 5654883187, "lat": 41.2648783, "lon": 28.0235683, "tags": {"amenity": "restaurant", "name": "\u00c7erkezk\u00f6y Tepe Restaurant & Kafe"}}, {"type": "node", "id": 5717894540, "lat": 41.5465093, "lon": 28.0491439, "tags": {"amenity": "restaurant", "name": "Balaban Et Bal\u0131k"}}, {"type": "node", "id": 6005299329, "lat": 41.3332325, "lon": 28.2458412, "tags": {"amenity": "restaurant", "name": "\u00c7elebio\u011flu \u00c7iftli\u011fi"}}, {"type": "node", "id": 6111223604, "lat": 41.633864, "lon": 28.093574, "tags": {"amenity": "restaurant", "name": "Tarihi K\u0131y\u0131k\u00f6y B\u00f6rek\u00e7isi"}}, {"type": "node", "id": 6266864003, "lat": 41.2784106, "lon": 28.0144176, "tags": {"amenity": "cafe", "name": "Has Karde\u015fler B\u00f6rek\u00e7isi"}}, {"type": "node", "id": 6388870660, "lat": 41.2887356, "lon": 28.6029415}, {"type": "node", "id": 6388870661, "lat": 41.2887956, "lon": 28.6032726}, {"type": "node", "id": 6388870662, "lat": 41.2885188, "lon": 28.6033615}, {"type": "node", "id": 6388870663, "lat": 41.2884588, "lon": 28.6030304}, {"type": "node", "id": 6468970037, "lat": 41.2489026, "lon": 28.0378766, "tags": {"amenity": "restaurant"}}, {"type": "node", "id": 6481823906, "lat": 41.6334311, "lon": 28.0960616, "tags": {"amenity": "restaurant", "name": "Liman Restoran"}}, {"type": "node", "id": 6481823907, "lat": 41.6333058, "lon": 28.0967268, "tags": {"amenity": "restaurant", "name": "K\u00f6\u015fk Restoran"}}, {"type": "node", "id": 6481823919, "lat": 41.633827, "lon": 28.0931307, "tags": {"amenity": "cafe", "name": "K\u0131raathane"}}, {"type": "node", "id": 6818550983, "lat": 41.2542472, "lon": 28.3586975, "tags": {"amenity": "restaurant", "name": "D\u00fczdereler Et Lokantas\u0131"}}, {"type": "node", "id": 6835960107, "lat": 41.6307982, "lon": 28.0998035, "tags": {"amenity": "restaurant", "name": "K\u0131l\u0131\u00e7 Restaurant"}}, {"type": "node", "id": 6929277753, "lat": 41.4106019, "lon": 28.184026, "tags": {"amenity": "cafe", "name": "\u00c7atalca Belediyesi \u00c7ay Bah\u00e7esi"}}, {"type": "node", "id": 6929356058, "lat": 41.4123865, "lon": 28.1514787, "tags": {"amenity": "restaurant", "name": "Sakl\u0131 Bah\u00e7e", "phone": "+905306074904"}}, {"type": "node", "id": 6929358301, "lat": 41.4103089, "lon": 28.1837563, "tags": {"amenity": "restaurant", "name": "\u00c7a\u011fla Aile \u00c7ay Bah\u00e7esi"}}, {"type": "node", "id": 6929368776, "lat": 41.411042, "lon": 28.1824806, "tags": {"amenity": "restaurant", "name": "\u00c7i\u00e7ek Et Lokantas\u0131"}}, {"type": "node", "id": 6929369386, "lat": 41.4141034, "lon": 28.1685789, "tags": {"amenity": "restaurant", "name": "Borsa Restaurant - Annemin Malikanesi Et ve Kahvalt\u0131"}}, {"type": "node", "id": 6939386157, "lat": 41.2568578, "lon": 28.4116557, "tags": {"amenity": "restaurant"}}, {"type": "node", "id": 6939386158, "lat": 41.2570264, "lon": 28.4113733}, {"type": "node", "id": 6939386159, "lat": 41.2568573, "lon": 28.4114257}, {"type": "node", "id": 6939386160, "lat": 41.2567392, "lon": 28.4119033}, {"type": "node", "id": 6939386161, "lat": 41.2567971, "lon": 28.4118817}, {"type": "node", "id": 6939386162, "lat": 41.2568573, "lon": 28.4118386}, {"type": "node", "id": 6939386163, "lat": 41.2569245, "lon": 28.4115613}, {"type": "node", "id": 6939386164, "lat": 41.2568897, "lon": 28.4115459}, {"type": "node", "id": 6939386165, "lat": 41.2569036, "lon": 28.4114904}, {"type": "node", "id": 6939386166, "lat": 41.2570472, "lon": 28.4114565}, {"type": "node", "id": 6947864961, "lat": 41.3143781, "lon": 28.2851569, "tags": {"amenity": "cafe", "name": "G\u00fcm\u00fc\u015fp\u0131nar cay evi alpak kafe"}}, {"type": "node", "id": 6947864962, "lat": 41.3140499, "lon": 28.2855939, "tags": {"amenity": "restaurant", "name": "G\u00fcm\u00fc\u015fp\u0131nar k\u00f6ftecisi"}}, {"type": "node", "id": 6947864963, "lat": 41.3140117, "lon": 28.2852788, "tags": {"amenity": "cafe", "name": "Alpak Cafe"}}, {"type": "node", "id": 6948716591, "lat": 41.2548155, "lon": 28.3585195}, {"type": "node", "id": 6948716592, "lat": 41.2547903, "lon": 28.3586712}, {"type": "node", "id": 6948716593, "lat": 41.2546919, "lon": 28.3586424}, {"type": "node", "id": 6948716594, "lat": 41.2547171, "lon": 28.3584906}, {"type": "node", "id": 7107678329, "lat": 41.4118973, "lon": 28.1887824, "tags": {"addr:housenumber": "121B", "amenity": "cafe", "name": "Akg\u00fcl K\u0131raathanesi"}}, {"type": "node", "id": 7107684474, "lat": 41.4133594, "lon": 28.1853941, "tags": {"amenity": "cafe", "name": "Durak K\u0131raathanesi"}}, {"type": "node", "id": 7874190967, "lat": 41.3169745, "lon": 28.1754852, "tags": {"amenity": "cafe", "name": "G\u00fcm\u00fc\u015f Cafe"}}, {"type": "node", "id": 7874190982, "lat": 41.3156066, "lon": 28.1754497, "tags": {"amenity": "cafe", "name": "Kahve"}}, {"type": "node", "id": 7918387282, "lat": 41.6373033, "lon": 28.0866629, "tags": {"amenity": "restaurant", "name": "Ye\u015filvadi Restaurant"}}, {"type": "node", "id": 7918387390, "lat": 41.6362836, "lon": 28.0870488, "tags": {"amenity": "restaurant", "name": "Gen\u00e7 Restaurant"}}, {"type": "node", "id": 8304938954, "lat": 41.6321114, "lon": 28.0963249, "tags": {"amenity": "cafe", "name": "\u00c7apo\u011flu Aike \u00c7ay Bah\u00e7esi"}}, {"type": "node", "id": 8403439109, "lat": 41.2235184, "lon": 28.455654, "tags": {"amenity": "cafe", "name": "Suba\u015f\u0131 K\u00f6y Kahvesi"}}, {"type": "node", "id": 8403439118, "lat": 41.2219115, "lon": 28.4549533, "tags": {"amenity": "cafe", "name": "Suba\u015f\u0131spor 1972"}}, {"type": "node", "id": 8403439132, "lat": 41.2203822, "lon": 28.455133, "tags": {"amenity": "restaurant", "name": "Baba Sultan\u0131n Yeri"}}, {"type": "node", "id": 8403439133, "lat": 41.2203227, "lon": 28.4551451, "tags": {"amenity": "restaurant", "cuisine": "crepe", "name": "G\u00f6zlemeci G\u00fcl\u015fen Abla"}}, {"type": "node", "id": 8403439206, "lat": 41.2239118, "lon": 28.4556238, "tags": {"amenity": "restaurant", "cuisine": "regional;sandwich;sausage;turkish", "name": "Salim Usta Bonak B\u00f6re\u011fi Baklava Tost \u00c7orba Menemen Kahvalt\u0131"}}, {"type": "node", "id": 8403439230, "lat": 41.2233731, "lon": 28.4551504, "tags": {"amenity": "restaurant", "cuisine": "turkish", "name": "Ihlamur Lokantas\u0131"}}, {"type": "node", "id": 8403439236, "lat": 41.2226721, "lon": 28.4553932, "tags": {"amenity": "cafe", "name": "K\u0131raathane Kuzeyin Yeri"}}, {"type": "node", "id": 8403439237, "lat": 41.222665, "lon": 28.4551518, "tags": {"amenity": "restaurant", "cuisine": "turkish", "name": "Saimo\u011flu Lokantas\u0131", "phone": "+902127950399"}}, {"type": "node", "id": 8403439241, "lat": 41.2221627, "lon": 28.455023, "tags": {"amenity": "cafe", "name": "Tost \u00c7ay Ayran Me\u015frubat"}}, {"type": "node", "id": 8403439243, "lat": 41.2217758, "lon": 28.4553502, "tags": {"amenity": "restaurant", "name": "Sivas Huzur K\u00f6fte"}}, {"type": "node", "id": 8403439245, "lat": 41.2215922, "lon": 28.4549104, "tags": {"amenity": "restaurant", "cuisine": "turkish", "name": "\u015eefim K\u00f6fte Salonu"}}, {"type": "node", "id": 9178856636, "lat": 41.6336775, "lon": 28.0966962, "tags": {"amenity": "cafe", "name": "Kahve"}}, {"type": "node", "id": 9178876389, "lat": 41.6335837, "lon": 28.0969855, "tags": {"amenity": "restaurant"}}, {"type": "node", "id": 9178878861, "lat": 41.6336718, "lon": 28.0969255, "tags": {"amenity": "cafe", "name": "Kahve"}}, {"type": "node", "id": 9368612198, "lat": 41.4096109, "lon": 28.4878412, "tags": {"amenity": "cafe", "name": "Pruva Beach Cafe"}}, {"type": "node", "id": 9648215711, "lat": 41.2594647, "lon": 28.0214327}, {"type": "node", "id": 9648215712, "lat": 41.2594621, "lon": 28.021532}, {"type": "node", "id": 9648215713, "lat": 41.2594077, "lon": 28.0215833}, {"type": "node", "id": 9648215714, "lat": 41.2593305, "lon": 28.0215483}, {"type": "node", "id": 9648215715, "lat": 41.259334, "lon": 28.0214187}, {"type": "node", "id": 9648215716, "lat": 41.2593989, "lon": 28.0213837}, {"type": "node", "id": 9648215717, "lat": 41.2594632, "lon": 28.0214909}, {"type": "node", "id": 9761234795, "lat": 41.2670133, "lon": 28.0244262, "tags": {"amenity": "restaurant", "name": "Bafra Pide Tepe \u015eubesi"}}, {"type": "node", "id": 9950145393, "lat": 41.2674196, "lon": 28.0282936, "tags": {"amenity": "cafe", "name": "Lu'up Coffee & Kitchen"}}, {"type": "node", "id": 9950153958, "lat": 41.2713263, "lon": 28.0142248, "tags": {"amenity": "restaurant", "name": "Ci\u011ferin Kalbi"}}, {"type": "node", "id": 9950187264, "lat": 41.2713743, "lon": 28.0139983, "tags": {"amenity": "restaurant", "name": "Konya Etli Ekmek"}}, {"type": "node", "id": 9950187549, "lat": 41.2711021, "lon": 28.0153678, "tags": {"amenity": "restaurant", "name": "Oses \u00c7i\u011f K\u00f6fte"}}, {"type": "node", "id": 9950192837, "lat": 41.271899, "lon": 28.0120147, "tags": {"amenity": "cafe", "name": "Cafe Unique"}}, {"type": "node", "id": 9950195516, "lat": 41.271669, "lon": 28.0126656, "tags": {"amenity": "cafe", "name": "Eddaa Cafe Van Kahvalt\u0131 Saray\u0131"}}, {"type": "node", "id": 9950196293, "lat": 41.2713688, "lon": 28.0141264, "tags": {"amenity": "restaurant", "name": "Miss \u00c7orba D\u00fcnyas\u0131"}}, {"type": "node", "id": 9950199140, "lat": 41.2703103, "lon": 28.0179586, "tags": {"amenity": "cafe", "name": "Gloria Jeens Coffees"}}, {"type": "node", "id": 9956749894, "lat": 41.4772062, "lon": 28.295877, "tags": {"amenity": "cafe", "outdoor_seating": "yes"}}, {"type": "node", "id": 9956766232, "lat": 41.4773409, "lon": 28.2956112, "tags": {"amenity": "cafe"}}, {"type": "node", "id": 9956766233, "lat": 41.4772783, "lon": 28.2960778, "tags": {"amenity": "restaurant", "name": "Vardar et Lokantasi"}}, {"type": "node", "id": 9956785480, "lat": 41.4035493, "lon": 28.3839432, "tags": {"amenity": "restaurant", "name": "Cadde\u00fcst\u00fc"}}, {"type": "node", "id": 9967451829, "lat": 41.358132, "lon": 28.2265022, "tags": {"amenity": "restaurant", "name": "K\u00f6y\u00fcm At \u00c7iftligi Cafe ve Resturant"}}, {"type": "node", "id": 10174286719, "lat": 41.2715977, "lon": 28.4839144, "tags": {"amenity": "restaurant", "name": "Erdem Efendi Lokantas\u0131"}}, {"type": "node", "id": 10299600137, "lat": 41.4221161, "lon": 28.1277868, "tags": {"amenity": "restaurant", "name": "\u00c7ak\u0131ro\u011flu Tesisleri Et Mangal"}}, {"type": "node", "id": 10589889515, "lat": 41.2783932, "lon": 28.0145872, "tags": {"amenity": "restaurant", "name": "Hanedan Lahmacun"}}, {"type": "node", "id": 10860158966, "lat": 41.2288623, "lon": 28.5321593, "tags": {"amenity": "restaurant", "name": "Hanice Et Mangal Kahvalt\u0131"}}, {"type": "node", "id": 11029631505, "lat": 41.2344871, "lon": 28.1133546, "tags": {"amenity": "cafe"}}, {"type": "node", "id": 11029632405, "lat": 41.2259044, "lon": 28.2995548, "tags": {"amenity": "cafe"}}, {"type": "node", "id": 11030873207, "lat": 41.2666043, "lon": 28.0240735, "tags": {"amenity": "cafe", "name": "Kahve Deposu"}}, {"type": "node", "id": 11148913237, "lat": 41.2781737, "lon": 28.0143218, "tags": {"amenity": "restaurant", "name": "Istranca Rumeli Balkan K\u00f6ftecisi"}}, {"type": "node", "id": 11914858698, "lat": 41.263925, "lon": 28.0297973, "tags": {"amenity": "restaurant", "name": "Tatar Et Restaurant"}}, {"type": "node", "id": 11949811412, "lat": 41.2721471, "lon": 28.0126832, "tags": {"amenity": "restaurant", "name": "Van Kahvalt\u0131 Saray\u0131"}}, {"type": "node", "id": 12009170970, "lat": 41.3191249, "lon": 28.0979139, "tags": {"amenity": "restaurant", "name": "Met-Et Kasap Restaurant"}}, {"type": "node", "id": 12009490069, "lat": 41.3072928, "lon": 28.2441677, "tags": {"addr:housenumber": "2E", "amenity": "restaurant", "name": "Eren K\u00f6fte-\u0130zgara"}}, {"type": "node", "id": 12030194718, "lat": 41.5466907, "lon": 28.0488092, "tags": {"addr:city": "Bah\u00e7ek\u00f6y", "addr:district": "Saray", "addr:street": "Saray - K\u0131y\u0131k\u00f6y yolu", "amenity": "restaurant", "name": "Beyaz Ev Kahvalt\u0131 Bah\u00e7esi"}}, {"type": "node", "id": 12282825783, "lat": 41.3197082, "lon": 28.0985735, "tags": {"amenity": "restaurant", "name": "Balkan Cafe & Restaurant"}}, {"type": "node", "id": 12363533836, "lat": 41.3168092, "lon": 28.1750976, "tags": {"amenity": "restaurant", "name": "Ece Kasap Et Lokantas\u0131"}}, {"type": "node", "id": 12654503712, "lat": 41.3172152, "lon": 28.1756173, "tags": {"amenity": "cafe", "name": "Ali Erdi Kahvehanesi"}}, {"type": "node", "id": 12654503784, "lat": 41.281664, "lon": 28.1449576, "tags": {"amenity": "restaurant", "name": "Eser Kasap Et Lokantas\u0131"}}, {"type": "node", "id": 12654503795, "lat": 41.2807252, "lon": 28.1444346, "tags": {"amenity": "cafe", "name": "Merkez K\u0131raathanesi"}}, {"type": "node", "id": 12680744283, "lat": 41.2296136, "lon": 28.4971422, "tags": {"addr:city": "\u0130stanbul", "addr:district": "\u00c7atalca", "addr:neighbourhood": "Kestanelik Mahallesi", "addr:postcode": "34540", "amenity": "restaurant", "cuisine": "steak_house", "name": "Kasap \u0130stanbul", "opening_hours": "Mo-Su 10:00-20:00", "phone": "0212 794 25 27", "website": "https://www.istanbulkasabi.com.tr/"}}, {"type": "node", "id": 12745927063, "lat": 41.2694503, "lon": 28.0166934, "tags": {"amenity": "cafe", "name": "Cafe Loss"}}, {"type": "way", "id": 255541727, "nodes": [2612231645, 2612231646, 2612231647, 2612231648, 2612231645], "tags": {"amenity": "restaurant", "building": "yes", "name": "Beyza Restaurant"}}, {"type": "way", "id": 256138966, "nodes": [2618321604, 2618321606, 2618321608, 2618321610, 2618321604], "tags": {"addr:country": "TR", "amenity": "restaurant", "building": "yes"}}, {"type": "way", "id": 256144541, "nodes": [2618369893, 2618369894, 2618369895, 2618369896, 2618369893], "tags": {"addr:country": "TR", "amenity": "cafe", "building": "yes"}}, {"type": "way", "id": 320657108, "nodes": [3272767478, 3272767479, 3272767480, 3272767481, 3272767482, 3272767483, 3272767484, 3272767478], "tags": {"amenity": "cafe", "building": "yes"}}, {"type": "way", "id": 682229103, "nodes": [6388870660, 6388870661, 6388870662, 6388870663, 6388870660], "tags": {"amenity": "restaurant", "building": "yes", "cuisine": "turkish", "name": "Durusu Club Restaurant", "website": "https://www.durusuclubhotel.com/en/restaurant"}}, {"type": "way", "id": 741255752, "nodes": [6939386158, 6939386159, 6939386160, 6939386161, 6939386162, 6939386163, 6939386164, 6939386165, 6939386166, 6939386158], "tags": {"amenity": "restaurant", "building": "yes"}}, {"type": "way", "id": 742218045, "nodes": [6948716591, 6948716592, 6948716593, 6948716594, 6948716591], "tags": {"amenity": "cafe", "building": "yes"}}, {"type": "way", "id": 1049886930, "nodes": [9648215711, 9648215717, 9648215712, 9648215713, 9648215714, 9648215715, 9648215716, 9648215711], "tags": {"amenity": "cafe", "building": "yes"}}]}