{"version": 0.6, "generator": "Overpass API 0.7.62.7 375dc00a", "osm3s": {"timestamp_osm_base": "2025-06-14T14:36:09Z", "copyright": "The data included in this document is from www.openstreetmap.org. The data is made available under ODbL."}, "elements": [{"type": "node", "id": 1772823307, "lat": 39.5284215, "lon": 21.4386642, "tags": {"amenity": "restaurant", "name": "Hotel Niavis", "tourism": "hotel"}}, {"type": "node", "id": 2298435888, "lat": 39.335616, "lon": 21.1742422, "tags": {"addr:city": "\u03a0\u03b1\u03bb\u03b1\u03b9\u03bf\u03ba\u03ac\u03c4\u03bf\u03c5\u03bd\u03bf", "addr:postcode": "47045", "addr:street": "50\u03bf \u03c7\u03bb\u03bc \u0395\u03b8\u03bd\u03b9\u03ba\u03ae\u03c2 \u039f\u03b4\u03bf\u03cd \u0386\u03c1\u03c4\u03b1\u03c2 - \u03a4\u03c1\u03b9\u03ba\u03ac\u03bb\u03c9\u03bd", "amenity": "restaurant", "cuisine": "greek", "internet_access": "wlan", "name": "\u03a4\u039f \u03a3\u03a4\u0395\u039a\u0399", "website": "https://www.facebook.com/to.steki2/"}}, {"type": "node", "id": 2298435889, "lat": 39.3703413, "lon": 21.1872985, "tags": {"amenity": "cafe"}}, {"type": "node", "id": 2302020899, "lat": 39.3446108, "lon": 21.2718995, "tags": {"amenity": "cafe"}}, {"type": "node", "id": 2391431880, "lat": 39.4346059, "lon": 21.2095881, "tags": {"amenity": "restaurant", "cuisine": "greek"}}, {"type": "node", "id": 2391431883, "lat": 39.4346593, "lon": 21.2096571, "tags": {"amenity": "restaurant", "cuisine": "greek"}}, {"type": "node", "id": 2391431884, "lat": 39.4347204, "lon": 21.2099235, "tags": {"amenity": "restaurant", "cuisine": "greek"}}, {"type": "node", "id": 2391431885, "lat": 39.4347347, "lon": 21.2098183, "tags": {"amenity": "restaurant", "cuisine": "greek", "name": "\u0396\u03ac\u03c4\u03c3\u03b1\u03bb\u03bf\u03c2"}}, {"type": "node", "id": 2518781828, "lat": 39.2641493, "lon": 20.9973762}, {"type": "node", "id": 2518781829, "lat": 39.2639672, "lon": 20.9974025}, {"type": "node", "id": 2521116923, "lat": 39.2639589, "lon": 20.9973068}, {"type": "node", "id": 2521116924, "lat": 39.264141, "lon": 20.9972804}, {"type": "node", "id": 2819535583, "lat": 39.2983648, "lon": 21.4251284}, {"type": "node", "id": 2819535585, "lat": 39.2984324, "lon": 21.4253111}, {"type": "node", "id": 2819535587, "lat": 39.2984813, "lon": 21.4250565}, {"type": "node", "id": 2819535589, "lat": 39.2985488, "lon": 21.4252392}, {"type": "node", "id": 2824754530, "lat": 39.2491044, "lon": 21.1600282, "tags": {"amenity": "cafe", "name": "\u039a\u03b1\u03c6\u03b5\u03c4\u03ad\u03c1\u03b9\u03b1 \u03a6\u03ce\u03c4\u03b7 \u03a0\u03b1\u03bd\u03ac\u03b3\u03bf\u03c5"}}, {"type": "node", "id": 3687795612, "lat": 39.4551141, "lon": 21.0341768, "tags": {"amenity": "restaurant"}}, {"type": "node", "id": 3687796029, "lat": 39.4548989, "lon": 21.0342902, "tags": {"amenity": "restaurant"}}, {"type": "node", "id": 4350610695, "lat": 39.6198795, "lon": 21.3482487, "tags": {"amenity": "restaurant"}}, {"type": "node", "id": 4350756189, "lat": 39.6201639, "lon": 21.3483497, "tags": {"amenity": "restaurant"}}, {"type": "node", "id": 4350829395, "lat": 39.6198113, "lon": 21.3484874, "tags": {"amenity": "restaurant"}}, {"type": "node", "id": 4881278123, "lat": 39.4582975, "lon": 21.1222606, "tags": {"amenity": "cafe", "name": "\u03a4\u03bf\u03c5\u03c1\u03b9\u03c3\u03c4\u03b9\u03ba\u03cc \u03a0\u03b5\u03c1\u03af\u03c0\u03c4\u03b5\u03c1\u03bf \u039a\u03b1\u03c4\u03b1\u03c1\u03c1\u03ac\u03ba\u03c4\u03b7\u03c2"}}, {"type": "node", "id": 4881364811, "lat": 39.5943333, "lon": 21.1071856, "tags": {"addr:city": "\u03a3\u03c5\u03c1\u03c1\u03ac\u03ba\u03bf", "amenity": "restaurant", "name": "\u03a3\u03c4\u03b1\u03c5\u03c1\u03b1\u03b5\u03c4\u03cc\u03c2"}}, {"type": "node", "id": 4885573486, "lat": 39.5305091, "lon": 21.4461567, "tags": {"amenity": "restaurant", "name": "\u039d\u03b9\u03b1\u03b2\u03ae\u03c2"}}, {"type": "node", "id": 5242612682, "lat": 39.3758905, "lon": 21.1144467, "tags": {"amenity": "cafe"}}, {"type": "node", "id": 5242612683, "lat": 39.376185, "lon": 21.1152541, "tags": {"amenity": "restaurant"}}, {"type": "node", "id": 5242615645, "lat": 39.3762331, "lon": 21.1153782, "tags": {"amenity": "restaurant"}}, {"type": "node", "id": 5245416209, "lat": 39.425871, "lon": 21.060046, "tags": {"amenity": "cafe", "name": "\u0397 \u0396\u03c9\u03ae \u03c4\u03bf\u03c5 \u03a7\u03c9\u03c1\u03b9\u03bf\u03cd"}}, {"type": "node", "id": 5245471729, "lat": 39.4741541, "lon": 21.0796276, "tags": {"amenity": "cafe", "name": "Mont cafe"}}, {"type": "node", "id": 5245471730, "lat": 39.4740623, "lon": 21.0809331, "tags": {"amenity": "restaurant", "name": "\u03a4\u03b1 \u03a4\u03b6\u03bf\u03c5\u03bc\u03ad\u03c1\u03ba\u03b1"}}, {"type": "node", "id": 5246753539, "lat": 39.4569003, "lon": 21.0196633, "tags": {"amenity": "restaurant"}}, {"type": "node", "id": 5263398223, "lat": 39.4175452, "lon": 20.9399068, "tags": {"amenity": "restaurant", "capacity": "25", "cuisine": "regional", "delivery": "no", "name": "\u03a7\u03c1\u03ae\u03c3\u03c4\u03bf\u03c2", "opening_hours": "Mo-Su 09:00-21:00", "outdoor_seating": "yes", "smoking": "yes", "takeaway": "no"}}, {"type": "node", "id": 5267778603, "lat": 39.6286206, "lon": 21.338447, "tags": {"amenity": "restaurant", "name": "La Korno"}}, {"type": "node", "id": 5267823959, "lat": 39.6221129, "lon": 21.3491443, "tags": {"amenity": "restaurant", "name": "\u0393\u03b9\u03bf\u03c1\u03b3\u03ba\u03ac\u03c4\u03c3\u03b9"}}, {"type": "node", "id": 5269918857, "lat": 39.5397721, "lon": 21.4649412, "tags": {"amenity": "cafe", "name": "\u039b\u03c5\u03c7\u03bd\u03ac\u03c1\u03b9"}}, {"type": "node", "id": 5269918858, "lat": 39.5399907, "lon": 21.4648088, "tags": {"amenity": "cafe", "name": "\u03a4\u03b7\u03bb\u03ad\u03b3\u03c1\u03b1\u03c6\u03bf\u03c2"}}, {"type": "node", "id": 5269918859, "lat": 39.5408349, "lon": 21.4663871, "tags": {"amenity": "restaurant", "name": "\u03a4\u03bf \u039b\u03b7\u03bc\u03ad\u03c1\u03b9 \u03c4\u03bf\u03c5 \u0392\u03b1\u03c3\u03af\u03bb\u03b7"}}, {"type": "node", "id": 5269918860, "lat": 39.5409371, "lon": 21.4665935, "tags": {"amenity": "restaurant", "name": "\u03a4\u03bf \u0391\u03bd\u03c4\u03ac\u03bc\u03c9\u03bc\u03b1"}}, {"type": "node", "id": 5269918861, "lat": 39.5411533, "lon": 21.4668308, "tags": {"amenity": "cafe", "name": "\u03a4\u03bf \u03a3\u03c4\u03ad\u03ba\u03b9"}}, {"type": "node", "id": 5269968626, "lat": 39.5278179, "lon": 21.4409672, "tags": {"amenity": "restaurant", "name": "\u039c\u03b1\u03c1\u03b3\u03b1\u03c1\u03af\u03c4\u03b7\u03c2"}}, {"type": "node", "id": 5270043855, "lat": 39.5274401, "lon": 21.2506637, "tags": {"amenity": "restaurant"}}, {"type": "node", "id": 5272096548, "lat": 39.5119235, "lon": 21.1465192, "tags": {"amenity": "cafe", "name": "\u03a4\u03bf\u03c5\u03c1\u03b9\u03c3\u03c4\u03b9\u03ba\u03cc \u03a0\u03b5\u03c1\u03af\u03c0\u03c4\u03b5\u03c1\u03bf"}}, {"type": "node", "id": 5272254633, "lat": 39.5238704, "lon": 21.1034101, "tags": {"amenity": "restaurant", "name": "\u03a4\u03bf \u03a0\u03ad\u03c4\u03c1\u03b9\u03bd\u03bf \u03c4\u03bf\u03c5 \u03a4\u03c3\u03b1\u03bc\u03c0\u03bf\u03cd\u03bb\u03b1"}}, {"type": "node", "id": 5272254634, "lat": 39.52382, "lon": 21.103716, "tags": {"amenity": "restaurant", "name": "\u039f \u039c\u03c0\u03bf\u03cd\u03c4\u03b6\u03b1\u03c2"}}, {"type": "node", "id": 5272254635, "lat": 39.5236775, "lon": 21.1034124, "tags": {"amenity": "cafe", "name": "\u03a7\u03b1\u03b3\u03b9\u03ac\u03c4\u03b9"}}, {"type": "node", "id": 5272266007, "lat": 39.522624, "lon": 21.1042233, "tags": {"amenity": "restaurant"}}, {"type": "node", "id": 5272266016, "lat": 39.5231203, "lon": 21.1043722, "tags": {"amenity": "cafe", "name": "\u039f \u039c\u03af\u03bc\u03b7\u03c2"}}, {"type": "node", "id": 5308770432, "lat": 39.3704676, "lon": 21.1837028, "tags": {"amenity": "cafe"}}, {"type": "node", "id": 5308770441, "lat": 39.3711188, "lon": 21.184146, "tags": {"amenity": "cafe"}}, {"type": "node", "id": 5309565633, "lat": 39.5527601, "lon": 21.0565276, "tags": {"amenity": "cafe", "name": "\u03a4\u03bf \u039a\u03c1\u03c5\u03c6\u03cc \u03a3\u03c7\u03bf\u03bb\u03b5\u03af\u03bf"}}, {"type": "node", "id": 5317116639, "lat": 39.509333, "lon": 21.0706743, "tags": {"amenity": "cafe"}}, {"type": "node", "id": 5317273930, "lat": 39.2940819, "lon": 21.0493504, "tags": {"amenity": "cafe"}}, {"type": "node", "id": 5628785079, "lat": 39.2696906, "lon": 21.3393395, "tags": {"amenity": "cafe", "name": "\u03a4\u03bf \u039a\u03b1\u03c6\u03ad \u03c4\u03b7\u03c2 \u0391\u03b3\u03bd\u03ae\u03c2", "outdoor_seating": "yes"}}, {"type": "node", "id": 6419900902, "lat": 39.5802561, "lon": 21.1198015}, {"type": "node", "id": 6419900903, "lat": 39.5802575, "lon": 21.1197372}, {"type": "node", "id": 6419900904, "lat": 39.5801884, "lon": 21.1197346}, {"type": "node", "id": 6419900905, "lat": 39.580187, "lon": 21.1197989}, {"type": "node", "id": 6895572186, "lat": 39.4352508, "lon": 21.2032494, "tags": {"amenity": "restaurant", "name": "Panorama Theodoriana"}}, {"type": "node", "id": 7042254204, "lat": 39.4608147, "lon": 21.0303991}, {"type": "node", "id": 7042254205, "lat": 39.4608302, "lon": 21.0305261}, {"type": "node", "id": 7042254206, "lat": 39.4607501, "lon": 21.0305425}, {"type": "node", "id": 7042254207, "lat": 39.4607346, "lon": 21.0304155}, {"type": "node", "id": 7358345232, "lat": 39.3344776, "lon": 21.1725551, "tags": {"addr:city": "\u03a0\u03b1\u03bb\u03b1\u03b9\u03bf\u03ba\u03ac\u03c4\u03bf\u03c5\u03bd\u03bf", "addr:postcode": "47045", "amenity": "cafe", "brand": "Hausbrandt", "cuisine": "coffee_shop", "internet_access": "wlan", "internet_access:fee": "yes", "name": "Caf\u00e9 Spanos", "outdoor_seating": "yes", "payment:coins": "yes", "payment:credit_cards": "yes", "payment:debit_cards": "yes", "payment:visa": "yes", "website": "https://www.facebook.com/CafeSpanos/"}}, {"type": "node", "id": 8247294234, "lat": 39.6090153, "lon": 20.9657033, "tags": {"amenity": "restaurant", "name": "\u03a4\u03bf \u03c0\u03ad\u03c4\u03c1\u03b9\u03bd\u03bf \u03c4\u03b7\u03c2 \u039c\u03b1\u03c1\u03b9\u03ac\u03bd\u03b8\u03b7\u03c2"}}, {"type": "node", "id": 9038894009, "lat": 39.4742772, "lon": 21.3256009}, {"type": "node", "id": 9038894010, "lat": 39.4742693, "lon": 21.3254785}, {"type": "node", "id": 9038894011, "lat": 39.4741843, "lon": 21.3254494}, {"type": "node", "id": 9038894012, "lat": 39.4741776, "lon": 21.3255652}, {"type": "node", "id": 9038936917, "lat": 39.4741845, "lon": 21.3253764}, {"type": "node", "id": 9038936918, "lat": 39.474186, "lon": 21.3252557}, {"type": "node", "id": 9038936919, "lat": 39.4742705, "lon": 21.3252575}, {"type": "node", "id": 9038936920, "lat": 39.474269, "lon": 21.3253782}, {"type": "node", "id": 9038936929, "lat": 39.4741879, "lon": 21.3249158}, {"type": "node", "id": 9038936930, "lat": 39.474212, "lon": 21.325029}, {"type": "node", "id": 9038936931, "lat": 39.474138, "lon": 21.3250554}, {"type": "node", "id": 9038936932, "lat": 39.4741139, "lon": 21.3249422}, {"type": "node", "id": 9038936937, "lat": 39.4743315, "lon": 21.3241529}, {"type": "node", "id": 9038936938, "lat": 39.4743859, "lon": 21.3243314}, {"type": "node", "id": 9038936939, "lat": 39.4742932, "lon": 21.3243789}, {"type": "node", "id": 9038936940, "lat": 39.4742186, "lon": 21.3242414}, {"type": "node", "id": 9038936941, "lat": 39.4742608, "lon": 21.32424}, {"type": "node", "id": 9038936942, "lat": 39.4742605, "lon": 21.3242261}, {"type": "node", "id": 9038936943, "lat": 39.4742938, "lon": 21.324225}, {"type": "node", "id": 9038936944, "lat": 39.4742925, "lon": 21.3241541}, {"type": "node", "id": 9038936956, "lat": 39.4741054, "lon": 21.3259862}, {"type": "node", "id": 9038936957, "lat": 39.4741399, "lon": 21.3260739}, {"type": "node", "id": 9038936958, "lat": 39.4740577, "lon": 21.3261281}, {"type": "node", "id": 9038936959, "lat": 39.4740233, "lon": 21.3260403}, {"type": "node", "id": 9421123419, "lat": 39.5840295, "lon": 21.1226941, "tags": {"amenity": "cafe", "cuisine": "regional;greek", "name": "\u0386\u03ba\u03b1\u03bd\u03b8\u03bf\u03c2"}}, {"type": "node", "id": 9425412324, "lat": 39.5133359, "lon": 21.0869237}, {"type": "node", "id": 9425412325, "lat": 39.513234, "lon": 21.0870734}, {"type": "node", "id": 9425412326, "lat": 39.5131083, "lon": 21.0869215}, {"type": "node", "id": 9425412327, "lat": 39.513217, "lon": 21.0867586}, {"type": "node", "id": 9802375455, "lat": 39.2041645, "lon": 21.3400215, "tags": {"amenity": "cafe", "name": "\u039f \u03a0\u03cd\u03c1\u03b3\u03bf\u03c2", "outdoor_seating": "yes"}}, {"type": "node", "id": 9802375458, "lat": 39.2039889, "lon": 21.3396948, "tags": {"amenity": "cafe"}}, {"type": "node", "id": 9803796095, "lat": 39.250661, "lon": 21.1599808, "tags": {"amenity": "cafe", "outdoor_seating": "yes"}}, {"type": "node", "id": 9803796097, "lat": 39.2504181, "lon": 21.1595651, "tags": {"amenity": "cafe", "internet_access": "wlan", "outdoor_seating": "yes"}}, {"type": "node", "id": 9804399050, "lat": 39.2050914, "lon": 21.1161702, "tags": {"amenity": "cafe", "outdoor_seating": "yes"}}, {"type": "node", "id": 9897531578, "lat": 39.5482938, "lon": 21.0105396, "tags": {"amenity": "restaurant", "name": "Zabos", "phone": "+30 2651053611"}}, {"type": "node", "id": 9899710610, "lat": 39.509073, "lon": 21.0695869, "tags": {"amenity": "restaurant", "name": "Tavern Tzoumerka", "website": "https://www.tzoumerkatavern.com/"}}, {"type": "node", "id": 9900286584, "lat": 39.4235945, "lon": 21.0953863, "tags": {"amenity": "cafe", "name": "\u039a\u03b1\u03c6\u03b5\u03bd\u03b5\u03af\u03bf \u03a7\u03bf\u03c1\u03bf\u03c3\u03c4\u03ac\u03c3\u03b9"}}, {"type": "node", "id": 9900313731, "lat": 39.4234399, "lon": 21.0950497, "tags": {"amenity": "restaurant", "name": "\u03a4\u03c3\u03b9\u03c1\u03ce\u03bd\u03b7\u03c2 \u03ba\u03b1\u03c6\u03ad \u03c8\u03b7\u03c4\u03bf\u03c0\u03c9\u03bb\u03b5\u03af\u03bf"}}, {"type": "node", "id": 9904036517, "lat": 39.370972, "lon": 21.183631, "tags": {"amenity": "restaurant"}}, {"type": "node", "id": 9907411335, "lat": 39.2039309, "lon": 21.3394095, "tags": {"amenity": "restaurant"}}, {"type": "node", "id": 10002438789, "lat": 39.4200478, "lon": 21.2587752, "tags": {"amenity": "restaurant", "name": "\u03a4\u03bf \u03a0\u03ad\u03c4\u03c1\u03b9\u03bd\u03bf \u03c4\u03bf\u03c5 \u0391\u03c7\u03b5\u03bb\u03ce\u03bf\u03c5", "outdoor_seating": "yes"}}, {"type": "node", "id": 10819639999, "lat": 39.3188841, "lon": 21.4291419, "tags": {"amenity": "cafe"}}, {"type": "node", "id": 12019992987, "lat": 39.3720149, "lon": 21.1848258}, {"type": "node", "id": 12019992988, "lat": 39.3719938, "lon": 21.1849761}, {"type": "node", "id": 12019992989, "lat": 39.3718265, "lon": 21.1849367}, {"type": "node", "id": 12019992990, "lat": 39.3718477, "lon": 21.1847863}, {"type": "node", "id": 12881132301, "lat": 39.3519363, "lon": 21.092798, "tags": {"amenity": "restaurant", "name": "In the Heart of the Bees (Tryphonos)", "opening_hours": "Tu, Fr-Su 00:00-24:00", "website": "https://www.workaway.info/en/host/945321447981"}}, {"type": "way", "id": 244575624, "nodes": [2518781828, 2518781829, 2521116923, 2521116924, 2518781828], "tags": {"amenity": "cafe", "building": "yes", "name": "\u039c\u03ac\u03c1\u03ba\u03bf\u03c5 \u03a0\u03b1\u03c0\u03ac"}}, {"type": "way", "id": 277465278, "nodes": [2819535587, 2819535589, 2819535585, 2819535583, 2819535587], "tags": {"amenity": "restaurant", "building": "yes", "cuisine": "greek"}}, {"type": "way", "id": 685150875, "nodes": [6419900902, 6419900903, 6419900904, 6419900905, 6419900902], "tags": {"amenity": "cafe", "building": "yes", "cuisine": "regional", "int_name": "Watermill", "name": "\u039a\u03b1\u03c6\u03b5\u03bd\u03b5\u03af\u03bf \u039d\u03b5\u03c1\u03cc\u03bc\u03c5\u03bb\u03bf\u03c2", "name:de": "Caf\u00e9 Wasserm\u00fchle", "name:el": "\u039a\u03b1\u03c6\u03b5\u03bd\u03b5\u03af\u03bf \u039d\u03b5\u03c1\u03cc\u03bc\u03c5\u03bb\u03bf\u03c2", "name:en": "Caf\u00e9 Watermill", "name:fr": "Caf\u00e9 Moulin \u00e0 eau", "name:it": "Caf\u00e9 Mulino ad acqua", "outdoor_seating": "yes"}}, {"type": "way", "id": 753744383, "nodes": [7042254204, 7042254205, 7042254206, 7042254207, 7042254204], "tags": {"amenity": "restaurant", "building": "yes", "cuisine": "greek;regional", "int_name": "Old customs house", "name": "\u03a0\u03b1\u03bb\u03b9\u03cc \u03a4\u03b5\u03bb\u03c9\u03bd\u03b5\u03af\u03bf", "name:de": "Altes Zollhaus", "name:el": "\u03a0\u03b1\u03bb\u03b9\u03cc \u03a4\u03b5\u03bb\u03c9\u03bd\u03b5\u03af\u03bf", "name:en": "Old customs house", "name:fr": "Ancienne maison de douane", "name:it": "Vecchia dogana", "name:ru": "\u0421\u0442\u0430\u0440\u0430\u044f \u0442\u0430\u043c\u043e\u0436\u043d\u044f"}}, {"type": "way", "id": 976775661, "nodes": [9038894009, 9038894010, 9038894011, 9038894012, 9038894009], "tags": {"amenity": "restaurant", "building": "yes", "name": "\u03c4\u03b7\u03c2 \u0391\u03b3\u03b3\u03ad\u03bb\u03c9\u03c2"}}, {"type": "way", "id": 976775663, "nodes": [9038936917, 9038936918, 9038936919, 9038936920, 9038936917], "tags": {"amenity": "restaurant", "building": "yes", "cuisine": "pizza"}}, {"type": "way", "id": 976775666, "nodes": [9038936929, 9038936930, 9038936931, 9038936932, 9038936929], "tags": {"amenity": "restaurant", "building": "yes", "name": "\u039a\u03b1\u03c1\u03b1\u03b8\u03ac\u03bd\u03bf\u03c2 \u0393\u03b5\u03ce\u03c1\u03b3\u03b9\u03bf\u03c2"}}, {"type": "way", "id": 976775668, "nodes": [9038936937, 9038936938, 9038936939, 9038936940, 9038936941, 9038936942, 9038936943, 9038936944, 9038936937], "tags": {"amenity": "restaurant", "building": "yes", "name": "\u0397 \u03a0\u03c1\u03ac\u03c3\u03b9\u03bd\u03b7 \u0393\u03c9\u03bd\u03b9\u03ac"}}, {"type": "way", "id": 976775672, "nodes": [9038936956, 9038936957, 9038936958, 9038936959, 9038936956], "tags": {"amenity": "restaurant", "building": "yes"}}, {"type": "way", "id": 1021938779, "nodes": [9425412324, 9425412325, 9425412326, 9425412327, 9425412324], "tags": {"amenity": "cafe", "building": "yes", "cuisine": "greek", "name": "\u0391\u03bd\u03b5\u03bc\u03cc\u03c4\u03c1\u03c5\u03c0\u03b1"}}, {"type": "way", "id": 1297324238, "nodes": [12019992987, 12019992988, 12019992989, 12019992990, 12019992987], "tags": {"amenity": "restaurant", "building": "yes", "cuisine": "greek", "name": "\u0397 \u0393\u03ad\u03c6\u03c5\u03c1\u03b1"}}]}