{"version": 0.6, "generator": "Overpass API 0.7.62.7 375dc00a", "osm3s": {"timestamp_osm_base": "2025-06-14T15:03:48Z", "copyright": "The data included in this document is from www.openstreetmap.org. The data is made available under ODbL."}, "elements": [{"type": "node", "id": 294011768, "lat": 36.4146776, "lon": 30.4801672, "tags": {"amenity": "restaurant", "name": "MyLand"}}, {"type": "node", "id": 310412518, "lat": 36.4069797, "lon": 30.4786306}, {"type": "node", "id": 310412520, "lat": 36.407126, "lon": 30.4787053}, {"type": "node", "id": 310412522, "lat": 36.4071709, "lon": 30.4787292}, {"type": "node", "id": 310412524, "lat": 36.4072286, "lon": 30.4785328}, {"type": "node", "id": 310412527, "lat": 36.4072005, "lon": 30.4784165}, {"type": "node", "id": 310412530, "lat": 36.4070171, "lon": 30.4784181}, {"type": "node", "id": 310412536, "lat": 36.4058511, "lon": 30.4782811}, {"type": "node", "id": 310412538, "lat": 36.405823, "lon": 30.4783741}, {"type": "node", "id": 310412540, "lat": 36.4057284, "lon": 30.4783441}, {"type": "node", "id": 310412542, "lat": 36.4057644, "lon": 30.4782465}, {"type": "node", "id": 310994003, "lat": 36.3127307, "lon": 30.4621913, "tags": {"amenity": "restaurant", "name": "Paradise Cafe Restaurant", "note": "Yes! It is over the water"}}, {"type": "node", "id": 310996568, "lat": 36.4012187, "lon": 30.4411275, "tags": {"amenity": "restaurant", "name": "Alt\u0131nta\u015f G\u00f6zleme K\u00f6\u015fk\u00fc"}}, {"type": "node", "id": 310996570, "lat": 36.4234139, "lon": 30.4434084, "tags": {"amenity": "restaurant", "name": "Ulu\u00e7\u0131nar Restaurant"}}, {"type": "node", "id": 310996578, "lat": 36.4040374, "lon": 30.4732605, "tags": {"amenity": "restaurant", "name": "Kaptan Restaurant"}}, {"type": "node", "id": 310996584, "lat": 36.4033473, "lon": 30.4772322, "tags": {"amenity": "restaurant", "name": "\u0130kiz Restaurant"}}, {"type": "node", "id": 310996585, "lat": 36.4038428, "lon": 30.4775771, "tags": {"amenity": "restaurant"}}, {"type": "node", "id": 310996586, "lat": 36.4038789, "lon": 30.4775279, "tags": {"amenity": "restaurant", "name": "Aida Azur Restaurant"}}, {"type": "node", "id": 310996587, "lat": 36.4043794, "lon": 30.4778484, "tags": {"amenity": "restaurant", "cuisine": "turkish", "internet_access": "wlan", "name": "Orange Restaurant"}}, {"type": "node", "id": 310996588, "lat": 36.404915, "lon": 30.478061, "tags": {"amenity": "restaurant", "internet_access": "wlan", "name": "Karaku\u015f Restaurant"}}, {"type": "node", "id": 432008464, "lat": 36.5048543, "lon": 30.4200294, "tags": {"addr:housename": "Rivera Park Restaurant", "addr:street": "Tahtali Sagi-Beycik", "amenity": "restaurant", "description": "tents and shower", "name": "Rivera Park Restaurant", "phone": "+90-242-816-1005/537-507-0193", "website": "www.beycikrivieraparkrestaurant.com", "wheelchair": "no"}}, {"type": "node", "id": 504465726, "lat": 36.4512113, "lon": 30.4363994, "tags": {"amenity": "restaurant", "name": "Ulupinar"}}, {"type": "node", "id": 962109894, "lat": 36.4886401, "lon": 30.5247273}, {"type": "node", "id": 962109985, "lat": 36.489983, "lon": 30.5252932}, {"type": "node", "id": 962110012, "lat": 36.4885146, "lon": 30.5247558}, {"type": "node", "id": 962110144, "lat": 36.4884538, "lon": 30.5245921}, {"type": "node", "id": 962110267, "lat": 36.4901527, "lon": 30.5251597}, {"type": "node", "id": 962110477, "lat": 36.4884119, "lon": 30.5246813}, {"type": "node", "id": 962110584, "lat": 36.4884773, "lon": 30.5248355}, {"type": "node", "id": 962110768, "lat": 36.4885609, "lon": 30.5248962}, {"type": "node", "id": 962110862, "lat": 36.4898727, "lon": 30.5250764}, {"type": "node", "id": 962176989, "lat": 36.4885888, "lon": 30.5246901}, {"type": "node", "id": 962178064, "lat": 36.4899296, "lon": 30.5251881}, {"type": "node", "id": 1238859521, "lat": 36.3100957, "lon": 30.4645566, "tags": {"alt_name": "Black Houses", "amenity": "restaurant", "name": "Adem'in Yeri", "phone": "0242 883 13 98", "tourism": "guest_house", "website": "https://www.adrasanademinyeri.com"}}, {"type": "node", "id": 1711869038, "lat": 36.380722, "lon": 30.4481775, "tags": {"amenity": "restaurant", "name": "A\u015f\u0131k Pansiyon", "tourism": "guest_house"}}, {"type": "node", "id": 1711869063, "lat": 36.3790684, "lon": 30.4489689, "tags": {"amenity": "restaurant", "name": "Olympos K\u00f6y Evi", "tourism": "guest_house"}}, {"type": "node", "id": 1730212005, "lat": 36.276758, "lon": 30.4103053, "tags": {"amenity": "restaurant"}}, {"type": "node", "id": 1763686186, "lat": 36.4490564, "lon": 30.4290465, "tags": {"amenity": "restaurant", "name": "Akhisar K\u00f6ftecisi"}}, {"type": "node", "id": 1798329500, "lat": 36.5366331, "lon": 30.4421533, "tags": {"amenity": "cafe", "name": "Shakespeare", "website": "https://www.shakespearebistro.com/"}}, {"type": "node", "id": 1809038237, "lat": 36.2756855, "lon": 30.4071062, "tags": {"amenity": "restaurant", "name": "\u00d6zlikya Restaurant"}}, {"type": "node", "id": 1809109820, "lat": 36.2827014, "lon": 30.3507337, "tags": {"amenity": "restaurant", "name": "Marina"}}, {"type": "node", "id": 1832442693, "lat": 36.5575333, "lon": 30.5665053, "tags": {"amenity": "cafe", "name": "Panorama"}}, {"type": "node", "id": 1877012358, "lat": 36.3901439, "lon": 30.4666673, "tags": {"amenity": "restaurant", "name": "Saban Treehouses", "source": "GPS", "tourism": "guest_house", "website": "http://www.sabanpansion.com/"}}, {"type": "node", "id": 2048070365, "lat": 36.54369, "lon": 30.55598, "tags": {"amenity": "restaurant", "cuisine": "regional", "name": "Lokanta"}}, {"type": "node", "id": 2300532247, "lat": 36.3103383, "lon": 30.4638753, "tags": {"amenity": "restaurant", "name": "Duran Pension", "tourism": "guest_house"}}, {"type": "node", "id": 2300532248, "lat": 36.3109882, "lon": 30.4632813, "tags": {"amenity": "restaurant", "name": "Kadir's Garden", "tourism": "guest_house"}}, {"type": "node", "id": 2300532250, "lat": 36.310492, "lon": 30.4637401, "tags": {"amenity": "restaurant", "name": "Tu\u011fra Otel", "tourism": "hotel"}}, {"type": "node", "id": 2300532253, "lat": 36.3091881, "lon": 30.464392, "tags": {"amenity": "restaurant", "name": "\u0130kizler Motel", "tourism": "hotel", "website": "https://www.hotelaslihan.com/En/adrasan-ikizler-motel.html"}}, {"type": "node", "id": 2300739029, "lat": 36.3131108, "lon": 30.4621072, "tags": {"amenity": "restaurant", "name": "Arikanda River Garden Restaurant"}}, {"type": "node", "id": 2300739036, "lat": 36.3126558, "lon": 30.462538, "tags": {"amenity": "restaurant", "name": "Hotel Aybars", "tourism": "hotel", "website": "http://aybarshotel.com/"}}, {"type": "node", "id": 2300739042, "lat": 36.3147536, "lon": 30.4614734, "tags": {"amenity": "restaurant", "name": "Likya Otel", "tourism": "hotel", "website": "https://www.likyaadrasanotel.com/"}}, {"type": "node", "id": 2300739061, "lat": 36.3117259, "lon": 30.463616, "tags": {"amenity": "restaurant", "name": "Lykia Edrassa", "tourism": "hotel"}}, {"type": "node", "id": 2300739929, "lat": 36.3119977, "lon": 30.4623086, "tags": {"amenity": "restaurant", "name": "\u00c7i\u00e7ek Pansiyon", "tourism": "guest_house"}}, {"type": "node", "id": 2300739932, "lat": 36.3120909, "lon": 30.4621934, "tags": {"amenity": "cafe", "name": "\u00c7\u0131t\u0131r Motel", "tourism": "hotel"}}, {"type": "node", "id": 2300739936, "lat": 36.3128388, "lon": 30.461599, "tags": {"amenity": "restaurant", "name": "\u015eim\u015fek Pansiyon", "tourism": "guest_house"}}, {"type": "node", "id": 2300828458, "lat": 36.4045548, "lon": 30.4740689}, {"type": "node", "id": 2300884521, "lat": 36.4493535, "lon": 30.4287377, "tags": {"amenity": "restaurant", "name": "Acar Restaurant"}}, {"type": "node", "id": 2300884677, "lat": 36.5043027, "lon": 30.4246292, "tags": {"amenity": "restaurant", "name": "\u00c7\u0131naralt\u0131 Et & Bal\u0131k Evi", "phone": "+90-242-816-1117/535-874-9969", "tourism": "guest_house", "website": "cinaraltibeycik@hotmail.com"}}, {"type": "node", "id": 2319700911, "lat": 36.5584146, "lon": 30.563103, "tags": {"addr:city": "Antalya", "addr:district": "Kemer", "amenity": "restaurant"}}, {"type": "node", "id": 2319722328, "lat": 36.5028831, "lon": 30.5251171, "tags": {"amenity": "restaurant"}}, {"type": "node", "id": 2322080501, "lat": 36.3728856, "lon": 30.3287526, "tags": {"amenity": "restaurant", "fixme": "resurvey"}}, {"type": "node", "id": 2322080504, "lat": 36.3840962, "lon": 30.3873641, "tags": {"amenity": "restaurant"}}, {"type": "node", "id": 2331987403, "lat": 36.4004817, "lon": 30.4757804, "tags": {"amenity": "restaurant", "name": "Olympos Merhaba Restorant"}}, {"type": "node", "id": 2331987404, "lat": 36.3999695, "lon": 30.4756751, "tags": {"amenity": "restaurant", "cuisine": "turkish", "name": "Olympos Yavuz Restorant"}}, {"type": "node", "id": 2331992375, "lat": 36.4489495, "lon": 30.433438, "tags": {"amenity": "restaurant", "cuisine": "turkish", "name": "Havuzbasi Restaurant"}}, {"type": "node", "id": 2378782234, "lat": 36.3901173, "lon": 30.4673505, "tags": {"amenity": "cafe", "name": "Sim & Ar Cafe Restaurant"}}, {"type": "node", "id": 2378785491, "lat": 36.3902453, "lon": 30.4674633, "tags": {"amenity": "restaurant", "cuisine": "regional", "diet:vegetarian": "only", "name": "Olympos Orange Restaurant", "wheelchair": "no"}}, {"type": "node", "id": 2975939539, "lat": 36.5663876, "lon": 30.573886}, {"type": "node", "id": 2975939540, "lat": 36.5661927, "lon": 30.5737394}, {"type": "node", "id": 2975939541, "lat": 36.5660476, "lon": 30.5740385}, {"type": "node", "id": 2975939542, "lat": 36.5662425, "lon": 30.574185}, {"type": "node", "id": 3106608969, "lat": 36.4044862, "lon": 30.4752138, "tags": {"amenity": "restaurant", "name": "Gunes Pansiyon"}}, {"type": "node", "id": 3505960791, "lat": 36.4046459, "lon": 30.4778998, "tags": {"addr:city": "CIRALI", "amenity": "restaurant", "capacity": "50", "cuisine": "Home_Cooking", "name": "Hayriye's Home Cooking", "opening_hours": "9:00 - 20:30", "smoking": "outside", "takeaway": "yes"}}, {"type": "node", "id": 3505973418, "lat": 36.4051074, "lon": 30.4768638, "tags": {"amenity": "restaurant", "name": "Oleandro Restaurant", "note": "oleandropension.com", "smoking": "outside"}}, {"type": "node", "id": 3506036766, "lat": 36.4051828, "lon": 30.4780518, "tags": {"amenity": "restaurant", "name": "K\u00fctle Restaurant"}}, {"type": "node", "id": 3570152895, "lat": 36.5438027, "lon": 30.5579957, "tags": {"access": "private", "amenity": "restaurant", "name": "Main Restaurant"}}, {"type": "node", "id": 3598233873, "lat": 36.5549591, "lon": 30.5672762, "tags": {"amenity": "cafe", "name": "Hotel Camyuva Beach / snack bar", "opening_hours": "Mo-Su,PH 10:00-16:00", "payment:credit_cards": "no", "payment:debit_cards": "no"}}, {"type": "node", "id": 3636525895, "lat": 36.4030804, "lon": 30.477164, "tags": {"amenity": "restaurant", "name": "Star Restaurant"}}, {"type": "node", "id": 3636588494, "lat": 36.4159928, "lon": 30.4808283, "tags": {"amenity": "cafe", "name": "Armibia", "shop": "convenience"}}, {"type": "node", "id": 3687406889, "lat": 36.5619084, "lon": 30.5616949, "tags": {"amenity": "cafe", "name": "Super Mario (D\u00f6ner \u00c7im)"}}, {"type": "node", "id": 3741542431, "lat": 36.4296016, "lon": 30.4646556, "tags": {"amenity": "cafe", "cuisine": "turkish", "description": "Teestube (Tea,Cai)"}}, {"type": "node", "id": 3758973784, "lat": 36.4044586, "lon": 30.4737776, "tags": {"amenity": "restaurant", "cuisine": "regional", "name": "Lemon Restaurant"}}, {"type": "node", "id": 3779255509, "lat": 36.5008821, "lon": 30.429139, "tags": {"addr:city": "Beycik", "addr:housenumber": "1", "addr:postcode": "07980", "addr:street": "Bas\u00f6ren mah", "amenity": "cafe", "cuisine": "regional", "ele": "750", "internet_access": "yes", "name": "Beycik Information Center"}}, {"type": "node", "id": 3785135215, "lat": 36.5044802, "lon": 30.5350873, "tags": {"amenity": "restaurant"}}, {"type": "node", "id": 4176433489, "lat": 36.5188356, "lon": 30.5399272, "tags": {"amenity": "restaurant", "description": "\u0420\u0435\u0441\u0442\u043e\u0440\u0430\u043d \u0434\u043b\u044f \u043f\u043e\u0441\u0442\u043e\u044f\u043b\u044c/\u0433\u043e\u0442\u043e\u0432\u044f\u0442 \u043f\u043e \u0440\u0430\u0441\u043f\u0438\u0441\u0430\u043d\u0438\u044e. \u041d\u0430 \u0437\u0430\u043a\u0430\u0437 \u0434\u043e\u043b\u0433\u043e \u0438 \u043d\u0435 \u043e\u0447\u0435\u043d\u044c \u0432\u043a\u0443\u0441\u043d\u043e, \u043b\u0443\u0447\u0448\u0435 \u0431\u0440\u0430\u0442\u044c \u0438\u0437 \u0433\u043e\u0442\u043e\u0432\u043e\u0433\u043e."}}, {"type": "node", "id": 4314291815, "lat": 36.5443668, "lon": 30.5587594}, {"type": "node", "id": 4314291816, "lat": 36.5444915, "lon": 30.5584778}, {"type": "node", "id": 4314291817, "lat": 36.5443536, "lon": 30.5583829}, {"type": "node", "id": 4314291830, "lat": 36.544223, "lon": 30.5586615}, {"type": "node", "id": 4370705256, "lat": 36.4070317, "lon": 30.4761261}, {"type": "node", "id": 4370705257, "lat": 36.4069148, "lon": 30.4760781}, {"type": "node", "id": 4370705258, "lat": 36.4068898, "lon": 30.476172}, {"type": "node", "id": 4370705259, "lat": 36.4070065, "lon": 30.4762206}, {"type": "node", "id": 4370723492, "lat": 36.406938, "lon": 30.4761918}, {"type": "node", "id": 4370723493, "lat": 36.4069739, "lon": 30.4762072}, {"type": "node", "id": 4370723494, "lat": 36.4069666, "lon": 30.4762344}, {"type": "node", "id": 4370723495, "lat": 36.4069306, "lon": 30.4762196}, {"type": "node", "id": 4370754563, "lat": 36.4071221, "lon": 30.476028}, {"type": "node", "id": 4370754568, "lat": 36.4071321, "lon": 30.4759799}, {"type": "node", "id": 4370754575, "lat": 36.4071055, "lon": 30.4759714}, {"type": "node", "id": 4370754585, "lat": 36.4070955, "lon": 30.4760198}, {"type": "node", "id": 4375545673, "lat": 36.4071042, "lon": 30.4759773}, {"type": "node", "id": 4375545678, "lat": 36.4069233, "lon": 30.4760816}, {"type": "node", "id": 4380182795, "lat": 36.4104071, "lon": 30.4795133, "tags": {"amenity": "restaurant", "name": "Emin"}}, {"type": "node", "id": 4380182796, "lat": 36.4155048, "lon": 30.4821628, "tags": {"amenity": "restaurant", "name": "Arcadia Restaurant"}}, {"type": "node", "id": 4380182797, "lat": 36.407475, "lon": 30.4787574, "tags": {"amenity": "restaurant", "name": "Hamam"}}, {"type": "node", "id": 4380182800, "lat": 36.4099053, "lon": 30.4791868, "tags": {"amenity": "restaurant", "name": "Blue & White"}}, {"type": "node", "id": 4380182812, "lat": 36.4140076, "lon": 30.4803758, "tags": {"amenity": "restaurant"}}, {"type": "node", "id": 4381186144, "lat": 36.4044064, "lon": 30.4740189, "tags": {"amenity": "restaurant", "name": "Likya"}}, {"type": "node", "id": 4841700248, "lat": 36.5076515, "lon": 30.5385417}, {"type": "node", "id": 4841700249, "lat": 36.5075636, "lon": 30.5386952}, {"type": "node", "id": 4841700250, "lat": 36.5074459, "lon": 30.538591}, {"type": "node", "id": 4841700251, "lat": 36.5075338, "lon": 30.5384374}, {"type": "node", "id": 4841700275, "lat": 36.5079045, "lon": 30.5379909}, {"type": "node", "id": 4841700276, "lat": 36.5077016, "lon": 30.5378196}, {"type": "node", "id": 4841700277, "lat": 36.5076065, "lon": 30.5379939}, {"type": "node", "id": 4841700278, "lat": 36.5078094, "lon": 30.5381652}, {"type": "node", "id": 4841700310, "lat": 36.5066021, "lon": 30.5378412}, {"type": "node", "id": 4841700311, "lat": 36.5065334, "lon": 30.5379713}, {"type": "node", "id": 4841700312, "lat": 36.5064272, "lon": 30.53789}, {"type": "node", "id": 4841700313, "lat": 36.5064958, "lon": 30.5377599}, {"type": "node", "id": 4841700350, "lat": 36.5065811, "lon": 30.537881}, {"type": "node", "id": 4841700361, "lat": 36.507785, "lon": 30.53789}, {"type": "node", "id": 4935176623, "lat": 36.3939453, "lon": 30.4705598, "tags": {"amenity": "restaurant", "name": "Muzo's Restaurant"}}, {"type": "node", "id": 4944074230, "lat": 36.4504486, "lon": 30.4305571, "tags": {"amenity": "restaurant", "name": "Ye\u015filvadi"}}, {"type": "node", "id": 5012872124, "lat": 36.4497821, "lon": 30.4325709, "tags": {"amenity": "restaurant", "cuisine": "barbecue;grill", "email": "info@selalerestoran.com", "internet_access": "wlan", "name": "\u015eelale Restoran", "name:en": "Selale", "phone": "902428250025", "website": "http://selalerestoran.com"}}, {"type": "node", "id": 5079313528, "lat": 36.5037228, "lon": 30.5234117, "tags": {"amenity": "cafe", "name": "Akkelle"}}, {"type": "node", "id": 5107153324, "lat": 36.5578947, "lon": 30.5639583, "tags": {"amenity": "cafe", "name:en": "Turkish cafe. Chip and tasty", "name:uk": "\u041a\u0430\u0444\u0435 \u0434\u043b\u044f \u0441\u0432\u043e\u0457\u0445. \u0414\u0435\u0448\u0435\u0432\u043e \u0456 \u0441\u0443\u043f\u0435\u0440\u043e\u0432\u043e"}}, {"type": "node", "id": 5186235939, "lat": 36.5040433, "lon": 30.4240065, "tags": {"amenity": "cafe"}}, {"type": "node", "id": 5301847750, "lat": 36.5661697, "lon": 30.5741304}, {"type": "node", "id": 5318580415, "lat": 36.306539, "lon": 30.3141751}, {"type": "node", "id": 5318580416, "lat": 36.3064156, "lon": 30.3140811}, {"type": "node", "id": 5318580419, "lat": 36.3064941, "lon": 30.3139223}, {"type": "node", "id": 5318580420, "lat": 36.3066175, "lon": 30.3140163}, {"type": "node", "id": 5318606006, "lat": 36.3633063, "lon": 30.2961805}, {"type": "node", "id": 5318606007, "lat": 36.3633247, "lon": 30.2961524}, {"type": "node", "id": 5318606008, "lat": 36.3633247, "lon": 30.2961161}, {"type": "node", "id": 5318606009, "lat": 36.3633096, "lon": 30.296088}, {"type": "node", "id": 5318606010, "lat": 36.3632815, "lon": 30.2960786}, {"type": "node", "id": 5318606011, "lat": 36.3632491, "lon": 30.2960947}, {"type": "node", "id": 5318606012, "lat": 36.3632318, "lon": 30.2961416}, {"type": "node", "id": 5318606013, "lat": 36.363181, "lon": 30.296155}, {"type": "node", "id": 5318606014, "lat": 36.3631854, "lon": 30.2961068}, {"type": "node", "id": 5318606015, "lat": 36.3632145, "lon": 30.2960531}, {"type": "node", "id": 5318606016, "lat": 36.3632458, "lon": 30.2960263}, {"type": "node", "id": 5318606017, "lat": 36.3632923, "lon": 30.2960062}, {"type": "node", "id": 5318606018, "lat": 36.3633387, "lon": 30.2960343}, {"type": "node", "id": 5318606019, "lat": 36.3633765, "lon": 30.2960813}, {"type": "node", "id": 5318606020, "lat": 36.3633819, "lon": 30.296151}, {"type": "node", "id": 5318606021, "lat": 36.3633625, "lon": 30.2961993}, {"type": "node", "id": 5318606022, "lat": 36.363343, "lon": 30.2962301}, {"type": "node", "id": 5318606023, "lat": 36.3632955, "lon": 30.2962516}, {"type": "node", "id": 5318606024, "lat": 36.3632826, "lon": 30.2961926}, {"type": "node", "id": 5325850837, "lat": 36.5537472, "lon": 30.5619585}, {"type": "node", "id": 5325850838, "lat": 36.5536072, "lon": 30.5619451}, {"type": "node", "id": 5325850839, "lat": 36.5535986, "lon": 30.5620927}, {"type": "node", "id": 5325850840, "lat": 36.5537365, "lon": 30.5621088}, {"type": "node", "id": 5404616710, "lat": 36.3879727, "lon": 30.3912252, "tags": {"amenity": "restaurant", "name": "Ayd\u0131n Restoran"}}, {"type": "node", "id": 5520965177, "lat": 36.449417, "lon": 30.4313819, "tags": {"amenity": "cafe", "name": "Afiyet Olsun"}}, {"type": "node", "id": 5578249421, "lat": 36.4502457, "lon": 30.4311689, "tags": {"amenity": "restaurant", "cuisine": "turkish;fish", "name:en": "Premium Park Restaurant"}}, {"type": "node", "id": 5595048722, "lat": 36.421596, "lon": 30.4700976, "tags": {"amenity": "cafe"}}, {"type": "node", "id": 5606179699, "lat": 36.5581616, "lon": 30.5699325, "tags": {"amenity": "cafe"}}, {"type": "node", "id": 5695377321, "lat": 36.4999946, "lon": 30.5272597, "tags": {"amenity": "restaurant", "cuisine": "turkish", "internet_access": "wlan", "name:en": "Mimoza"}}, {"type": "node", "id": 5712852766, "lat": 36.403988, "lon": 30.4735117, "tags": {"amenity": "restaurant", "cuisine": "turkish", "internet_access": "wlan", "name": "Y\u00f6r\u00fck"}}, {"type": "node", "id": 5751482221, "lat": 36.5675537, "lon": 30.5564881, "tags": {"amenity": "restaurant", "cuisine": "turkish;pizza;breakfast", "internet_access": "wlan", "internet_access:fee": "no", "level": "1", "name": "Aspava Ramazan", "name:en": "Aspava Ramazan", "opening_hours": "Mo-Su 11:00-24:00", "phone": "+90 242 824 56 07", "smoking": "outside", "takeaway": "yes", "toilets": "yes", "toilets:access": "customers"}}, {"type": "node", "id": 6003262310, "lat": 36.4888208, "lon": 30.5242732, "tags": {"amenity": "restaurant", "name": "Mexican Fuego"}}, {"type": "node", "id": 6003262311, "lat": 36.488963, "lon": 30.5243342, "tags": {"amenity": "restaurant", "name": "Padolia"}}, {"type": "node", "id": 6003262318, "lat": 36.4897642, "lon": 30.5254046}, {"type": "node", "id": 6005716511, "lat": 36.4853469, "lon": 30.5227198, "tags": {"amenity": "restaurant", "name": "Main Restaurant"}}, {"type": "node", "id": 6005716517, "lat": 36.4836892, "lon": 30.5214743, "tags": {"amenity": "cafe"}}, {"type": "node", "id": 6005716518, "lat": 36.4840027, "lon": 30.5212478, "tags": {"amenity": "restaurant"}}, {"type": "node", "id": 6005731866, "lat": 36.489895, "lon": 30.5256828, "tags": {"amenity": "restaurant", "name": "Anchor"}}, {"type": "node", "id": 6005731867, "lat": 36.4900423, "lon": 30.5249429}, {"type": "node", "id": 6005731870, "lat": 36.4888999, "lon": 30.5240416, "tags": {"amenity": "restaurant", "name": "Euphoria French"}}, {"type": "node", "id": 6056870586, "lat": 36.2503957, "lon": 30.4068837, "tags": {"amenity": "cafe", "name": "Korsan Camping"}}, {"type": "node", "id": 6161689893, "lat": 36.4492347, "lon": 30.4309383, "tags": {"amenity": "restaurant", "cuisine": "turkish;fish_and_chips", "name": "Caglayan Restaurant", "website": "http://www.caglayanrestaurant.com/#"}}, {"type": "node", "id": 6168976888, "lat": 36.3926979, "lon": 30.4702702, "tags": {"amenity": "restaurant", "name": "Zakkum Pension", "name:tr": "Zakkum Pansiyon"}}, {"type": "node", "id": 6168976889, "lat": 36.3925527, "lon": 30.4702147, "tags": {"amenity": "restaurant", "name": "Pehlivan Pension", "name:tr": "Pehlivan Pansiyon"}}, {"type": "node", "id": 6168976891, "lat": 36.3922702, "lon": 30.4701501, "tags": {"amenity": "restaurant", "name": "Kardelen Pansiyon"}}, {"type": "node", "id": 6168976892, "lat": 36.3905191, "lon": 30.4683885, "tags": {"amenity": "restaurant", "name": "Tatilya"}}, {"type": "node", "id": 6168982687, "lat": 36.3928355, "lon": 30.4702933, "tags": {"amenity": "restaurant", "name": "Hasan's Pension", "name:tr": "Hasan's Pansiyon"}}, {"type": "node", "id": 6168982688, "lat": 36.3920473, "lon": 30.4700552, "tags": {"amenity": "restaurant", "name": "Lila"}}, {"type": "node", "id": 6168982689, "lat": 36.3918156, "lon": 30.4698249, "tags": {"amenity": "restaurant", "name": "Zeus"}}, {"type": "node", "id": 6168982691, "lat": 36.3901627, "lon": 30.467959, "tags": {"amenity": "restaurant", "name": "Doga"}}, {"type": "node", "id": 6168982692, "lat": 36.3901086, "lon": 30.4673997, "tags": {"amenity": "cafe", "name": "Beaver"}}, {"type": "node", "id": 6168982693, "lat": 36.3897239, "lon": 30.4652045, "tags": {"amenity": "restaurant", "name": "Olympos"}}, {"type": "node", "id": 6450333985, "lat": 36.5068211, "lon": 30.4978731, "tags": {"amenity": "restaurant", "name:ru": "\u0440\u0435\u0441\u0442\u043e\u0440\u0430\u043d \u043d\u0430 \u0440\u0435\u043a\u0435"}}, {"type": "node", "id": 6507156295, "lat": 36.5105945, "lon": 30.535346, "tags": {"amenity": "cafe", "name": "Yummy Bar", "outdoor_seating": "yes"}}, {"type": "node", "id": 6507195529, "lat": 36.5112923, "lon": 30.5371661}, {"type": "node", "id": 6507195530, "lat": 36.511222, "lon": 30.5374661}, {"type": "node", "id": 6507195531, "lat": 36.5111098, "lon": 30.5374254}, {"type": "node", "id": 6507195532, "lat": 36.5111801, "lon": 30.5371254}, {"type": "node", "id": 6507195536, "lat": 36.5112526, "lon": 30.5371517}, {"type": "node", "id": 6507195540, "lat": 36.511275, "lon": 30.5372401, "tags": {"entrance": "main"}}, {"type": "node", "id": 6539654785, "lat": 36.4051979, "lon": 30.4744636, "tags": {"addr:housenumber": "39", "addr:postcode": "07982", "addr:street": "Likya Yolu", "amenity": "cafe", "cuisine": "cake;coffee_shop;ice_cream;mediterranean;turkish", "internet_access": "wlan", "name": "AsmaAlti", "name:en": "Asma Alti cafe & patisserie", "name:ru": "\u0410\u0441\u043c\u0430 \u0410\u043b\u0442\u0438 \u043a\u0430\u0444\u0435-\u043a\u043e\u043d\u0434\u0438\u0442\u0435\u0440\u0441\u043a\u0430\u044f", "name:tr": "Asma Alti cafe & patisserie", "opening_hours": "Mo-Su 09:00-22:00", "phone": "+9005340111737"}}, {"type": "node", "id": 6562131885, "lat": 36.3866173, "lon": 30.3886075, "tags": {"amenity": "cafe"}}, {"type": "node", "id": 6562849687, "lat": 36.4500762, "lon": 30.4368904, "tags": {"amenity": "restaurant", "cuisine": "turkish", "diet:vegan": "no", "diet:vegetarian": "limited", "name": "Botanik", "outdoor_seating": "yes"}}, {"type": "node", "id": 6624951485, "lat": 36.4513515, "lon": 30.4311916, "tags": {"addr:housenumber": "60", "addr:street": "Likya Yolu", "amenity": "restaurant", "cuisine": "turkish;asian", "internet_access": "wlan", "name": "S\u00fckun\u2019et", "name:en": "Sukunet", "name:ru": "Sukunet", "opening_hours": "24/7", "operator": "Ali Karabulut", "phone": "+902428250066"}}, {"type": "node", "id": 6694789885, "lat": 36.4214692, "lon": 30.4702208, "tags": {"amenity": "restaurant", "name": "Emine bacinin yeri"}}, {"type": "node", "id": 6790710690, "lat": 36.5598454, "lon": 30.5617883, "tags": {"amenity": "cafe", "check_date:opening_hours": "2024-07-09", "internet_access": "wlan", "name": "K\u00f6ftec\u0131 muro", "opening_hours": "Mo-Su 12:00-05:00", "phone": "+905424513767"}}, {"type": "node", "id": 6795351846, "lat": 36.3643672, "lon": 30.5022904, "tags": {"amenity": "cafe", "cuisine": "regional;turkish"}}, {"type": "node", "id": 6812925585, "lat": 36.4043556, "lon": 30.4721139, "tags": {"amenity": "restaurant", "name": "San Simon restobar"}}, {"type": "node", "id": 6840584845, "lat": 36.4173285, "lon": 30.4756425}, {"type": "node", "id": 6840584846, "lat": 36.417264, "lon": 30.4756127}, {"type": "node", "id": 6840584847, "lat": 36.4172004, "lon": 30.4758098}, {"type": "node", "id": 6840584848, "lat": 36.4172677, "lon": 30.4758385}, {"type": "node", "id": 7090960885, "lat": 36.4042681, "lon": 30.4736303, "tags": {"amenity": "restaurant", "cuisine": "italian_pizza;mediterranean", "internet_access": "wlan", "name": "simge kitchen", "phone": "0905301635988"}}, {"type": "node", "id": 7095126385, "lat": 36.4508795, "lon": 30.4285553, "tags": {"amenity": "cafe", "name": "Kayalar", "name:ru": "\u041a\u0430\u0444\u0435 \u041a\u0430\u044f\u043b\u0430\u0440 \u043e\u0447\u0435\u043d\u044c \u0432\u043a\u0443\u0441\u043d\u043e"}}, {"type": "node", "id": 7425486785, "lat": 36.331485, "lon": 30.4362171, "tags": {"amenity": "cafe", "name": "G\u00f6zleme", "name:ru": "\u041a\u0430\u0444\u0435 \u0413\u043e\u0437\u043b\u0435\u043c\u0435"}}, {"type": "node", "id": 7849461585, "lat": 36.4157483, "lon": 30.4808217, "tags": {"amenity": "restaurant", "cuisine": "turkish", "internet_access": "wlan", "internet_access:fee": "no", "name": "Zakkum Restaurant", "operator": "Zakkum", "payment:credit_cards": "yes", "smoking": "yes", "wheelchair": "limited"}}, {"type": "node", "id": 7849461685, "lat": 36.411238, "lon": 30.4798808, "tags": {"amenity": "restaurant", "name": "Salih Restaurant"}}, {"type": "node", "id": 7862204085, "lat": 36.4152621, "lon": 30.4820453, "tags": {"amenity": "restaurant", "name": "Bellerphon Restaurant"}}, {"type": "node", "id": 7877738685, "lat": 36.4051613, "lon": 30.474072, "tags": {"amenity": "restaurant", "name": "Village Garden"}}, {"type": "node", "id": 7939396787, "lat": 36.4510539, "lon": 30.4285056, "tags": {"amenity": "restaurant", "name": "Kayalar Restraunt", "name:en": "Ulup\u0131nar Kayalar Restaurant", "name:tr": "Ulup\u0131nar Kayalar Restaurant"}}, {"type": "node", "id": 7959122685, "lat": 36.5621739, "lon": 30.5595734, "tags": {"amenity": "restaurant"}}, {"type": "node", "id": 8062855485, "lat": 36.4039693, "lon": 30.4724093, "tags": {"amenity": "cafe", "cuisine": "cake", "name": "K\u00f6sem Pastanesi"}}, {"type": "node", "id": 8062859085, "lat": 36.4049593, "lon": 30.4771849, "tags": {"amenity": "cafe", "cuisine": "coffee_shop", "name": "Beaver Coffeeshop", "name:en": "The Beaver Coffee Shop", "name:tr": "The Beaver Coffee Shop"}}, {"type": "node", "id": 8090333917, "lat": 36.3050192, "lon": 30.3163302, "tags": {"amenity": "cafe", "name:en": "Deniz Cafe"}}, {"type": "node", "id": 8222532839, "lat": 36.5644379, "lon": 30.5585632, "tags": {"addr:housenumber": "42/A", "amenity": "restaurant", "description": "Talip ustan\u0131n yeri", "name": "De\u011firmenci Amca Restoran", "opening_hours": "24/7", "phone": "+90 537 687 7376"}}, {"type": "node", "id": 8357830828, "lat": 36.4035579, "lon": 30.4771529, "tags": {"amenity": "toilets", "name": "Inside camping"}}, {"type": "node", "id": 8358505441, "lat": 36.5428777, "lon": 30.5551873, "tags": {"addr:street": "\u00c7amyuva Mah Turizm Caddesi Ekizler Pasaji No5", "amenity": "restaurant", "contact:instagram": "denizrestaurant07", "cuisine": "beef_bowl;breakfast;cake;chicken;deli;diner", "description": "\u041d\u043e\u0432\u0438\u0439 \u0440\u0438\u0431\u043d\u0438\u0439 \u0440\u0435\u0441\u0442\u043e\u0440\u0430\u043d, \u043d\u0430 15.10.20 \u0440\u0435\u0441\u0442\u043e\u0440\u0430\u043d\u0443 6 \u043c\u0456\u0441\u044f\u0446\u0456\u0432. \n\u0427\u0438\u0441\u0442\u043e, \u0441\u0432\u0456\u0436\u043e. \u0432\u0438\u0431\u0456\u0440 \u043c\u0430\u043b\u0435\u043d\u044c\u043a\u0438\u0439, \u0430\u043b\u0435 \u0441\u043c\u0430\u0447\u043d\u043e.", "internet_access": "wlan", "name": "Deniz restoran", "opening_hours": "Mo-Su 09:00-23:00", "operator": "Baki G\u00fcl", "phone": "+905376942603"}}, {"type": "node", "id": 8467297117, "lat": 36.5006377, "lon": 30.4919115, "tags": {"amenity": "restaurant", "name": "\u0440\u0435\u0441\u0442\u043e\u0440\u0430\u043d \u0443 \u0432\u043e\u0434\u044b"}}, {"type": "node", "id": 8614563609, "lat": 36.4049933, "lon": 30.4740786}, {"type": "node", "id": 8615694833, "lat": 36.40446, "lon": 30.4740195}, {"type": "node", "id": 8615694834, "lat": 36.4043952, "lon": 30.4742116}, {"type": "node", "id": 8615694835, "lat": 36.4044901, "lon": 30.474261}, {"type": "node", "id": 8615694836, "lat": 36.4049189, "lon": 30.4740825}, {"type": "node", "id": 8615694837, "lat": 36.4049132, "lon": 30.4739129}, {"type": "node", "id": 8615694838, "lat": 36.4049876, "lon": 30.4739091}, {"type": "node", "id": 8646784617, "lat": 36.405892, "lon": 30.4744331, "tags": {"amenity": "cafe", "name": "Sila"}}, {"type": "node", "id": 8667964117, "lat": 36.5267775, "lon": 30.4229968, "tags": {"amenity": "cafe", "name": "Emzik \u00c7e\u015fmesi Cafe", "name:en": "Emzik \u00c7e\u015fme", "phone": "+90-5436948990"}}, {"type": "node", "id": 8898271809, "lat": 36.4223362, "lon": 30.4701557, "tags": {"amenity": "cafe"}}, {"type": "node", "id": 8898290927, "lat": 36.4120124, "lon": 30.4800087, "tags": {"amenity": "restaurant", "name": "Esralina"}}, {"type": "node", "id": 8898290929, "lat": 36.4050839, "lon": 30.4781559, "tags": {"amenity": "restaurant", "name": "La Vita"}}, {"type": "node", "id": 8898290930, "lat": 36.4038479, "lon": 30.4775198, "tags": {"amenity": "restaurant", "name": "Arikanda"}}, {"type": "node", "id": 8898290943, "lat": 36.405087, "lon": 30.4766553, "tags": {"amenity": "cafe"}}, {"type": "node", "id": 9116836817, "lat": 36.4490728, "lon": 30.4377431, "tags": {"addr:city": "Ulup\u0131nar", "addr:postcode": "07982", "amenity": "restaurant", "cuisine": "turkish", "disused:website": "https://www.ulupinartropik.com/", "internet_access": "wlan", "name": "Tropik", "name:ru": "\u0422\u0440\u043e\u043f\u0438\u043a", "name:tr": "Tropik", "opening_hours": "Mo-Su 08:30-00:00"}}, {"type": "node", "id": 9136787369, "lat": 36.489649, "lon": 30.5254842}, {"type": "node", "id": 9136787370, "lat": 36.4896583, "lon": 30.5255595}, {"type": "node", "id": 9136787371, "lat": 36.489699, "lon": 30.5256102}, {"type": "node", "id": 9136787372, "lat": 36.4897374, "lon": 30.5255595}, {"type": "node", "id": 9136787373, "lat": 36.4897781, "lon": 30.525558}, {"type": "node", "id": 9136787374, "lat": 36.4897816, "lon": 30.5254886}, {"type": "node", "id": 9136842989, "lat": 36.4900079, "lon": 30.52497}, {"type": "node", "id": 9182898217, "lat": 36.495329, "lon": 30.5295954, "tags": {"amenity": "cafe", "name:en": "Kailani"}}, {"type": "node", "id": 9195162793, "lat": 36.4026104, "lon": 30.4770153, "tags": {"amenity": "restaurant", "cuisine": "regional;meat;lamb;fish", "name": "Karakedi Restaurant"}}, {"type": "node", "id": 9516348917, "lat": 36.3920874, "lon": 30.4698326, "tags": {"amenity": "restaurant", "name": "Nehir Gozleme"}}, {"type": "node", "id": 9670273617, "lat": 36.3069743, "lon": 30.325006, "tags": {"amenity": "cafe"}}, {"type": "node", "id": 9671056774, "lat": 36.5611254, "lon": 30.5601722, "tags": {"amenity": "cafe", "name": "\u00d6mer Aybak Ad\u0131yaman \u00c7i\u011fk\u00f6ftecisi", "opening_hours": "Mo-Fr 13:00-00:30, Sa,Su 13:00-02:00"}}, {"type": "node", "id": 9672208017, "lat": 36.3016483, "lon": 30.4662329, "tags": {"amenity": "cafe", "name:en": "Bayram"}}, {"type": "node", "id": 9734482617, "lat": 36.3619558, "lon": 30.4726701, "tags": {"amenity": "cafe", "description": "a farmer selling cold homemade pomegranate drinks"}}, {"type": "node", "id": 9734990717, "lat": 36.5640983, "lon": 30.5591075, "tags": {"amenity": "cafe", "name": "\u00c7AMYUVA ASPAVA RESTOURANT (HACI USTANIN YERI)", "opening_hours": "Mo-Su 09:00-24:00"}}, {"type": "node", "id": 9966430517, "lat": 36.5606891, "lon": 30.3434567, "tags": {"addr:postcode": "07350", "amenity": "restaurant", "name": "Yavuz Alabal\u0131k Restaurant"}}, {"type": "node", "id": 9972096517, "lat": 36.5570173, "lon": 30.3488821, "tags": {"amenity": "restaurant", "name": "Doruk Bal\u0131k Mangal Evi", "phone": "05348534559;05399458809"}}, {"type": "node", "id": 9990696900, "lat": 36.3058789, "lon": 30.3153098, "tags": {"amenity": "restaurant"}}, {"type": "node", "id": 10157120217, "lat": 36.4509467, "lon": 30.428531, "tags": {"amenity": "restaurant", "name": "Kayalar"}}, {"type": "node", "id": 10309193858, "lat": 36.3742071, "lon": 30.369622, "tags": {"amenity": "cafe"}}, {"type": "node", "id": 10719345435, "lat": 36.2987961, "lon": 30.4676221, "tags": {"amenity": "restaurant", "check_date": "2023-03-08", "name": "Merhaba Bungalow Restaurant", "payment:mastercard": "yes", "payment:visa": "yes", "wheelchair": "no"}}, {"type": "node", "id": 10720622545, "lat": 36.298695, "lon": 30.4677095, "tags": {"amenity": "restaurant", "check_date": "2023-03-08", "name": "Mavi Kahve"}}, {"type": "node", "id": 10720647169, "lat": 36.2985663, "lon": 30.467849, "tags": {"amenity": "restaurant", "check_date": "2023-03-08", "name": "Sezar Restaurant"}}, {"type": "node", "id": 10720651970, "lat": 36.2988511, "lon": 30.4675682, "tags": {"amenity": "restaurant", "check_date": "2023-03-08", "name": "Lime Restaurant & Cafe"}}, {"type": "node", "id": 10720696377, "lat": 36.2989211, "lon": 30.4674663, "tags": {"amenity": "restaurant", "check_date": "2023-03-08", "name": "Son Durak K\u00f6fteci Burak"}}, {"type": "node", "id": 10811920530, "lat": 36.4186743, "lon": 30.4818719, "tags": {"amenity": "restaurant"}}, {"type": "node", "id": 11019912302, "lat": 36.4901696, "lon": 30.4414195, "tags": {"amenity": "restaurant", "contact:instagram": "https://www.instagram.com/beycikdogacafe/?igshid=MzRlODBiNWFlZA%3D%3D", "name": "Do\u011fa Cafe", "opening_hours": "Mo-Su 08:30-24:00", "phone": "+905416769381"}}, {"type": "node", "id": 11019925611, "lat": 36.493001, "lon": 30.4375221, "tags": {"amenity": "restaurant", "name": "Panda Restaurant"}}, {"type": "node", "id": 11019925615, "lat": 36.4897271, "lon": 30.4445556, "tags": {"amenity": "restaurant", "name": "Sibel Restaurant"}}, {"type": "node", "id": 11277548069, "lat": 36.3898765, "lon": 30.4646059, "tags": {"amenity": "restaurant", "cuisine": "burger;coffee_shop;fish_and_chips;international;mediterranean;pasta", "diet:vegan": "yes", "name": "Base", "opening_hours": "Mo-Su 12:00-22:00", "website": "http://basebungalows.com"}}, {"type": "node", "id": 11294693300, "lat": 36.5355552, "lon": 30.5557684}, {"type": "node", "id": 11294693301, "lat": 36.5354385, "lon": 30.5556928}, {"type": "node", "id": 11294693302, "lat": 36.5353982, "lon": 30.555789}, {"type": "node", "id": 11294693303, "lat": 36.535515, "lon": 30.5558646}, {"type": "node", "id": 11453147540, "lat": 36.4034852, "lon": 30.4774613}, {"type": "node", "id": 11453147541, "lat": 36.4035349, "lon": 30.4774909}, {"type": "node", "id": 11453147542, "lat": 36.4036309, "lon": 30.47719}, {"type": "node", "id": 11518686895, "lat": 36.5621373, "lon": 30.5604862, "tags": {"amenity": "restaurant", "name": "Gaziantep Sultan Sofras\u0131", "phone": "+90 242 824 55 22"}}, {"type": "node", "id": 11632116733, "lat": 36.4013498, "lon": 30.4411274}, {"type": "node", "id": 11632116734, "lat": 36.4012285, "lon": 30.4410251}, {"type": "node", "id": 11632116735, "lat": 36.4011638, "lon": 30.4411434}, {"type": "node", "id": 11632116736, "lat": 36.4012851, "lon": 30.4412458}, {"type": "node", "id": 11809638829, "lat": 36.3035508, "lon": 30.3232701, "tags": {"amenity": "cafe"}}, {"type": "node", "id": 11809939834, "lat": 36.272724, "lon": 30.4108389, "tags": {"amenity": "cafe"}}, {"type": "node", "id": 11915807669, "lat": 36.2744195, "lon": 30.4098656, "tags": {"amenity": "cafe", "description:en": "Only tea and drinks.", "description:ru": "\u0415\u0441\u0442\u044c \u0442\u043e\u043b\u044c\u043a\u043e \u0447\u0430\u0439 \u0438 \u043d\u0430\u043f\u0438\u0442\u043a\u0438.", "name:en": "Kara\u00f6z cafe"}}, {"type": "node", "id": 11925859270, "lat": 36.415322, "lon": 30.4806686, "tags": {"amenity": "cafe", "cuisine": "cake;coffee_shop;tea", "internet_access": "wlan", "name": "Kafein", "opening_hours": "Mo-Su 08:00-00:00"}}, {"type": "node", "id": 11927968669, "lat": 36.4231936, "lon": 30.4530464, "tags": {"amenity": "cafe", "cuisine": "coffee_shop;tea", "internet_access": "wlan", "name": "Y\u00f6r\u00fck"}}, {"type": "node", "id": 12154119101, "lat": 36.5133451, "lon": 30.52037, "tags": {"amenity": "restaurant", "cuisine": "breakfast;turkish", "outdoor_seating": "yes", "self_service": "no"}}, {"type": "node", "id": 12156000326, "lat": 36.4995527, "lon": 30.526629, "tags": {"amenity": "restaurant"}}, {"type": "node", "id": 12193127466, "lat": 36.4229832, "lon": 30.4228819, "tags": {"amenity": "cafe", "check_date": "2024-09-20", "name": "Lucas", "toilets": "yes"}}, {"type": "node", "id": 12339734801, "lat": 36.5049783, "lon": 30.5227579, "tags": {"amenity": "restaurant", "name": "Naim'in Yeri Ev Yemekleri"}}, {"type": "node", "id": 12455816485, "lat": 36.3927263, "lon": 30.4706174, "tags": {"amenity": "cafe", "name": "Museum Cafe", "name:tr": "M\u00fcze Cafe"}}, {"type": "node", "id": 12455816486, "lat": 36.3927746, "lon": 30.4703171, "tags": {"amenity": "cafe", "name": "Deniz Cafe"}}, {"type": "node", "id": 12455885478, "lat": 36.4050487, "lon": 30.474123, "tags": {"amenity": "restaurant", "name": "Cemil's Restaurant"}}, {"type": "node", "id": 12704776583, "lat": 36.4820526, "lon": 30.5209275, "tags": {"amenity": "restaurant", "name": "Poseidon Restaurant"}}, {"type": "node", "id": 12706840351, "lat": 36.4835461, "lon": 30.5218005, "tags": {"amenity": "restaurant", "name": "Anatolian Restaurant"}}, {"type": "node", "id": 12706840353, "lat": 36.4821184, "lon": 30.5202073, "tags": {"amenity": "restaurant", "name": "Pescatore sea food"}}, {"type": "node", "id": 12706840357, "lat": 36.4821852, "lon": 30.5211689, "tags": {"amenity": "restaurant", "name": "Sea club and lounge"}}, {"type": "node", "id": 12726319190, "lat": 36.3654236, "lon": 30.3061884, "tags": {"amenity": "cafe", "outdoor_seating": "yes"}}, {"type": "node", "id": 12873796668, "lat": 36.5187827, "lon": 30.5397212, "tags": {"amenity": "cafe"}}, {"type": "way", "id": 28265462, "nodes": [310412518, 310412520, 310412522, 310412524, 310412527, 310412530, 310412518], "tags": {"amenity": "cafe", "building": "yes", "name": "\u0130pek Pastanesi Patisserie", "shop": "bakery"}}, {"type": "way", "id": 28265466, "nodes": [310412536, 310412538, 310412540, 310412542, 310412536], "tags": {"amenity": "restaurant", "building": "yes", "cuisine": "regional", "name": "TeaHouse"}}, {"type": "way", "id": 82667514, "nodes": [962110144, 962176989, 962109894, 962110768, 962110584, 962110012, 962110477, 962110144], "tags": {"amenity": "restaurant", "building": "yes", "cuisine": "chinese", "name": "Dragon Far East & Mongol"}}, {"type": "way", "id": 82667524, "nodes": [6005731867, 962110267, 962109985, 962178064, 962110862, 9136842989, 6005731867], "tags": {"amenity": "restaurant", "building": "yes"}}, {"type": "way", "id": 294028709, "nodes": [2975939539, 2975939540, 2975939541, 5301847750, 2975939542, 2975939539], "tags": {"amenity": "restaurant", "building": "yes"}}, {"type": "way", "id": 432357164, "nodes": [4314291815, 4314291816, 4314291817, 4314291830, 4314291815], "tags": {"amenity": "restaurant", "building": "yes", "toilets": "yes"}}, {"type": "way", "id": 439452371, "nodes": [4370705257, 4370705258, 4370723492, 4370723495, 4370723494, 4370723493, 4370705259, 4370705256, 4375545678, 4370705257], "tags": {"addr:city": "Cirali", "addr:housename": "Aida Hotel", "amenity": "restaurant", "building": "yes", "cuisine": "regional", "name": "Aida Restaurant , Reception Hotel"}}, {"type": "way", "id": 439456519, "nodes": [4370754585, 4370754563, 4370754568, 4370754575, 4375545673, 4370754585], "tags": {"amenity": "restaurant", "building": "yes", "name": "Aida Pool Bar"}}, {"type": "way", "id": 492120931, "nodes": [4841700248, 4841700249, 4841700250, 4841700251, 4841700248], "tags": {"amenity": "restaurant", "building": "yes", "name": "A la Carte Mediterranean Cusine", "name:ru": "\u0410-\u043b\u044f \u041a\u0430\u0440\u0442 \u0421\u0440\u0435\u0434\u0438\u0437\u0435\u043c\u043d\u043e\u043c\u043e\u0440\u0441\u043a\u0430\u044f \u041a\u0443\u0445\u043d\u044f"}}, {"type": "way", "id": 492120934, "nodes": [4841700275, 4841700361, 4841700276, 4841700277, 4841700278, 4841700275], "tags": {"amenity": "cafe", "building": "yes", "name": "A la Carte BBQ Restaraunt", "name:ru": "\u0410-\u043b\u044f \u041a\u0430\u0440\u0442 \u0428\u0430\u0448\u043b\u044b\u0447\u043d\u044b\u0439 \u0440\u0435\u0441\u0442\u043e\u0440\u0430\u043d"}}, {"type": "way", "id": 492120937, "nodes": [4841700310, 4841700350, 4841700311, 4841700312, 4841700313, 4841700310], "tags": {"amenity": "restaurant", "building": "yes", "name": "A la Carte Pelmeni Restaraunt", "name:ru": "\u0410-\u043b\u044f \u041a\u0430\u0440\u0442 \u041f\u0435\u043b\u044c\u043c\u0435\u043d\u0438 \u0420\u0435\u0441\u0442\u043e\u0440\u0430\u043d"}}, {"type": "way", "id": 550666756, "nodes": [5318580420, 5318580419, 5318580416, 5318580415, 5318580420], "tags": {"amenity": "restaurant", "building": "yes", "building:levels": "1"}}, {"type": "way", "id": 550669378, "nodes": [5318606024, 5318606023, 5318606022, 5318606021, 5318606020, 5318606019, 5318606018, 5318606017, 5318606016, 5318606015, 5318606014, 5318606013, 5318606012, 5318606011, 5318606010, 5318606009, 5318606008, 5318606007, 5318606006, 5318606024], "tags": {"amenity": "cafe", "building": "yes", "name": "Kalekule Kafe"}}, {"type": "way", "id": 551476011, "nodes": [5325850840, 5325850839, 5325850838, 5325850837, 5325850840], "tags": {"amenity": "restaurant", "building": "yes", "building:levels": "1", "name": "\u00c7amyuva Park \u00c7ay Bah\u00e7esi"}}, {"type": "way", "id": 693102069, "nodes": [6507195529, 6507195540, 6507195530, 6507195531, 6507195532, 6507195536, 6507195529], "tags": {"amenity": "restaurant", "building": "yes", "name": "Veranda"}}, {"type": "way", "id": 730192260, "nodes": [6840584845, 6840584846, 6840584847, 6840584848, 6840584845], "tags": {"amenity": "cafe", "building": "yes", "cuisine": "home_style_cooking"}}, {"type": "way", "id": 928970828, "nodes": [2300828458, 8615694833, 8615694834, 8615694835, 2300828458], "tags": {"amenity": "restaurant", "building": "yes", "name": "Ceylan"}}, {"type": "way", "id": 928970829, "nodes": [8614563609, 8615694836, 8615694837, 8615694838, 8614563609], "tags": {"amenity": "restaurant", "building": "yes", "cuisine": "barbecue;cake;international;mediterranean;regional;seafood", "name": "Yakamoz restaurant cafe", "name:en": "Yakamoz restaurant cafe"}}, {"type": "way", "id": 988491499, "nodes": [6003262318, 9136787369, 9136787370, 9136787371, 9136787372, 9136787373, 9136787374, 6003262318], "tags": {"amenity": "cafe", "building": "yes", "name": "Food Cort"}}, {"type": "way", "id": 1218932786, "nodes": [11294693300, 11294693301, 11294693302, 11294693303, 11294693300], "tags": {"amenity": "cafe", "building": "yes", "check_date:opening_hours": "2024-07-09", "name:signed": "no", "opening_hours:signed": "no"}}, {"type": "way", "id": 1234093058, "nodes": [11453147542, 11453147541, 11453147540, 8357830828, 11453147542], "tags": {"addr:city": "Antalya", "addr:district": "Kemar", "addr:housenumber": "33", "addr:neighbourhood": "Ulup\u0131nar Mah.", "addr:postcode": "07982", "addr:street": "\u00c7\u0131ral\u0131", "amenity": "restaurant", "building": "yes", "cuisine": "italian", "name": "ROOMS", "phone": "02428257051"}}, {"type": "way", "id": 1251317926, "nodes": [11632116733, 11632116734, 11632116735, 11632116736, 11632116733], "tags": {"amenity": "restaurant", "building": "yes"}}]}