{"version": 0.6, "generator": "Overpass API 0.7.62.7 375dc00a", "osm3s": {"timestamp_osm_base": "2025-06-14T13:11:54Z", "copyright": "The data included in this document is from www.openstreetmap.org. The data is made available under ODbL."}, "elements": [{"type": "node", "id": 3673166574, "lat": 35.6256516, "lon": 3.2189025}, {"type": "node", "id": 3673166575, "lat": 35.6257355, "lon": 3.2187711}, {"type": "node", "id": 3673166576, "lat": 35.6254924, "lon": 3.2185297}, {"type": "node", "id": 3673166577, "lat": 35.6254346, "lon": 3.2186973}, {"type": "node", "id": 3776458594, "lat": 35.631755, "lon": 3.2245174, "tags": {"addr:country": "DZ", "amenity": "cafe", "name": "Caf\u00e9 de Ben sika", "name:ar": "\u0645\u0642\u0647\u0649 \u0628\u0646 \u0633\u064a\u0642\u0649", "name:fr": "Caf\u00e9 de Ben sika"}}, {"type": "node", "id": 3896325032, "lat": 35.7032354, "lon": 3.2138922}, {"type": "node", "id": 3896325033, "lat": 35.7030992, "lon": 3.213878}, {"type": "node", "id": 3896325034, "lat": 35.7030934, "lon": 3.2139806}, {"type": "node", "id": 3896325035, "lat": 35.7032329, "lon": 3.2139938}, {"type": "node", "id": 4078680052, "lat": 35.8901782, "lon": 3.1450164, "tags": {"addr:country": "DZ", "amenity": "restaurant", "name": "Restaurant Belaid"}}, {"type": "node", "id": 4424325690, "lat": 35.8896539, "lon": 3.146486}, {"type": "node", "id": 4426897089, "lat": 35.8896434, "lon": 3.1522269, "tags": {"addr:country": "DZ", "amenity": "cafe", "name": "Caf\u00e9t\u00e9ria", "name:ar": "Caf\u00e9t\u00e9ria"}}, {"type": "node", "id": 4581803389, "lat": 35.8892933, "lon": 3.1551809, "tags": {"addr:country": "DZ", "amenity": "cafe", "name": "Caf\u00e9t\u00e9ria", "name:ar": "Caf\u00e9t\u00e9ria"}}, {"type": "node", "id": 4582555016, "lat": 35.8899776, "lon": 3.1507017}, {"type": "node", "id": 8742138011, "lat": 35.6308187, "lon": 3.2258463, "tags": {"amenity": "cafe", "name": "Caf\u00e9 Imessaoud\u00e8ne"}}, {"type": "node", "id": 11138598971, "lat": 35.8894888, "lon": 3.1464392}, {"type": "node", "id": 11138602838, "lat": 35.8899039, "lon": 3.1507054}, {"type": "node", "id": 11138603234, "lat": 35.8899721, "lon": 3.1505356}, {"type": "node", "id": 11138605229, "lat": 35.8895177, "lon": 3.1462838}, {"type": "node", "id": 11138607850, "lat": 35.8898983, "lon": 3.1505394}, {"type": "node", "id": 11138616978, "lat": 35.8896911, "lon": 3.1462863}, {"type": "node", "id": 11138621413, "lat": 35.8896158, "lon": 3.146265}, {"type": "node", "id": 11138621701, "lat": 35.8896076, "lon": 3.1463093}, {"type": "way", "id": 363115381, "nodes": [3673166574, 3673166575, 3673166576, 3673166577, 3673166574], "tags": {"amenity": "cafe", "building": "yes", "name": "Caf\u00e9 Ben Djahecha"}}, {"type": "way", "id": 386317512, "nodes": [3896325032, 3896325033, 3896325034, 3896325035, 3896325032], "tags": {"amenity": "restaurant", "building": "yes"}}, {"type": "way", "id": 1201392338, "nodes": [11138603234, 11138607850, 11138602838, 4582555016, 11138603234], "tags": {"addr:country": "DZ", "amenity": "cafe", "building": "yes", "name": "\u0645\u0641\u0647\u0649 \u0627\u0644\u0642\u0648\u064a\u0646\u064a", "name:ar": "\u0645\u0641\u0647\u0649 \u0627\u0644\u0642\u0648\u064a\u0646\u064a", "name:fr": "Caf\u00e9 Kuini", "source": "microsoft/BuildingFootprints"}}, {"type": "way", "id": 1201393115, "nodes": [11138621413, 11138621701, 11138605229, 11138598971, 4424325690, 11138616978, 11138621413], "tags": {"addr:country": "DZ", "amenity": "cafe", "building": "yes", "name": "Caf\u00e9t\u00e9ria", "name:ar": "\u0645\u0642\u0647\u0649 \u0627\u0644\u0628\u0627\u0642\u0631", "source": "microsoft/BuildingFootprints"}}]}