{"version": 0.6, "generator": "Overpass API 0.7.62.7 375dc00a", "osm3s": {"timestamp_osm_base": "2025-06-14T14:41:26Z", "copyright": "The data included in this document is from www.openstreetmap.org. The data is made available under ODbL."}, "elements": [{"type": "node", "id": 636058939, "lat": 41.9954967, "lon": 23.0906715, "tags": {"amenity": "restaurant", "internet_access": "yes", "internet_access:fee": "yes", "name": "\u0411\u0430\u0440 7", "name:en": "Bar 7", "opening_hours": "08:00-23:00", "phone": "+359 73 840 909", "smoking": "yes"}}, {"type": "node", "id": 975690884, "lat": 42.0146975, "lon": 23.0972278, "tags": {"amenity": "cafe", "name": "\u0415\u0441\u0442\u0440\u0435\u043b\u0430", "name:en": "Estrella", "opening_hours": "07:00-23:00", "phone": "+359 88 821 9547", "smoking": "yes", "wheelchair": "no"}}, {"type": "node", "id": 2441542690, "lat": 42.122886, "lon": 23.1290719, "tags": {"addr:city": "\u0420\u0438\u043b\u0430", "addr:housenumber": "79", "addr:street": "\u0421\u043f\u043e\u0440\u0442\u0435\u043b\u0430", "amenity": "restaurant", "name": "Bistro temenuga", "website": "https://bistro-temenuga.business.site/"}}, {"type": "node", "id": 2749322590, "lat": 42.3261952, "lon": 22.7815373}, {"type": "node", "id": 2749322592, "lat": 42.3259988, "lon": 22.7814782}, {"type": "node", "id": 2749322593, "lat": 42.3259627, "lon": 22.7816973}, {"type": "node", "id": 2749322594, "lat": 42.3261592, "lon": 22.7817564}, {"type": "node", "id": 3090640893, "lat": 42.0949661, "lon": 23.1072861, "tags": {"amenity": "restaurant", "cuisine": "regional", "name": "Restaurant Stobi"}}, {"type": "node", "id": 3529223655, "lat": 42.2639855, "lon": 23.1123761, "tags": {"amenity": "cafe"}}, {"type": "node", "id": 3529223656, "lat": 42.2639931, "lon": 23.1126189, "tags": {"amenity": "restaurant", "name": "\u0420\u0438\u043b\u044c\u0441\u043a\u0438 \u0415\u0437\u0435\u0440\u0430"}}, {"type": "node", "id": 3562892462, "lat": 41.8922017, "lon": 23.1101921, "tags": {"amenity": "cafe"}}, {"type": "node", "id": 3695356159, "lat": 41.9670002, "lon": 22.775975, "tags": {"addr:city": "\u0414\u0435\u043b\u0447\u0435\u0432\u043e", "addr:postcode": "2320", "addr:street": "\u041d. \u0408. \u0412\u0430\u043f\u0446\u0430\u0440\u043e\u0432", "amenity": "restaurant", "cuisine": "regional", "name": "\u0420\u0435\u0441\u0442\u043e\u0440\u0430\u043d \u041b\u0438\u0431\u0435\u0440\u043e", "name:en": "Restaurant Libero", "smoking": "outside"}}, {"type": "node", "id": 3696549082, "lat": 41.9665628, "lon": 22.7727421, "tags": {"amenity": "restaurant", "name": "\u0410\u043d\u0442\u0438\u043a\u0430", "name:en": "Antika"}}, {"type": "node", "id": 3696549083, "lat": 41.9671309, "lon": 22.7743723, "tags": {"addr:city": "\u0414\u0435\u043b\u0447\u0435\u0432\u043e", "addr:postcode": "2320", "addr:street": "\u041d. \u0408. \u0412\u0430\u043f\u0446\u0430\u0440\u043e\u0432", "amenity": "restaurant", "name": "\u041a\u0430\u0458 \u0411\u0443\u0431\u0435\u0442\u043e", "name:en": "Kaj Bubeto"}}, {"type": "node", "id": 3696549088, "lat": 41.9655104, "lon": 22.7714652, "tags": {"addr:city": "\u0414\u0435\u043b\u0447\u0435\u0432\u043e", "addr:housenumber": "\u0431.\u0431.", "addr:postcode": "2320", "addr:street": "\u041c\u0430\u0440\u0448\u0430\u043b \u0422\u0438\u0442\u043e", "amenity": "restaurant", "cuisine": "pizza", "internet_access": "wlan", "name": "\u041f\u0438\u0446\u0435\u0440\u0438\u0458\u0430 \u041f\u0430\u043b\u043c\u0430", "name:en": "Pizza bar Palma"}}, {"type": "node", "id": 3696549089, "lat": 41.9667157, "lon": 22.7756155, "tags": {"addr:city": "\u0414\u0435\u043b\u0447\u0435\u0432\u043e", "addr:postcode": "2320", "addr:street": "\u041d. \u0408. \u0412\u0430\u043f\u0446\u0430\u0440\u043e\u0432", "amenity": "restaurant", "cuisine": "pizza", "name": "\u041f\u0430\u043d\u043e\u0440\u0430\u043c\u0430", "name:en": "Pizza bar Panorama"}}, {"type": "node", "id": 3696549091, "lat": 41.9663111, "lon": 22.7729809, "tags": {"amenity": "restaurant", "name": "\u041f\u0438\u0446\u0435\u0440\u0438\u0458\u0430 Iceberg", "name:en": "Pizza bar - Iceberg"}}, {"type": "node", "id": 3696549092, "lat": 41.9664629, "lon": 22.7732345, "tags": {"amenity": "restaurant", "name": "\u0412\u0438\u0433\u043e\u0440", "name:en": "Vigor"}}, {"type": "node", "id": 3696549093, "lat": 41.9660622, "lon": 22.7707576}, {"type": "node", "id": 3696549094, "lat": 41.9659524, "lon": 22.7705827}, {"type": "node", "id": 3696549095, "lat": 41.9658716, "lon": 22.7706745}, {"type": "node", "id": 3696549096, "lat": 41.9658117, "lon": 22.7705791}, {"type": "node", "id": 3696549114, "lat": 41.9657541, "lon": 22.7706446}, {"type": "node", "id": 3699303243, "lat": 41.9669685, "lon": 22.7757929, "tags": {"addr:city": "\u0414\u0435\u043b\u0447\u0435\u0432\u043e", "addr:postcode": "2320", "addr:street": "\u041d. \u0408. \u0412\u0430\u043f\u0446\u0430\u0440\u043e\u0432", "amenity": "cafe", "name": "Apolon", "name:en": "Apolon"}}, {"type": "node", "id": 3699303244, "lat": 41.9671423, "lon": 22.7772992, "tags": {"addr:city": "\u0414\u0435\u043b\u0447\u0435\u0432\u043e", "addr:postcode": "2320", "addr:street": "\u0431\u0443\u043b. \u041c\u0430\u043a\u0435\u0434\u043e\u043d\u0438\u0458\u0430", "amenity": "cafe", "name": "\u0412\u0430\u043b\u0438\u0443\u043c", "name:en": "Valium Coffee"}}, {"type": "node", "id": 3699318356, "lat": 41.9641901, "lon": 22.772658, "tags": {"amenity": "restaurant", "name": "\u0420\u0435\u0441\u0442\u043e\u0440\u0430\u043d \u0422\u0440\u043b\u0430", "name:en": "Restaurant Trla"}}, {"type": "node", "id": 3699318369, "lat": 41.963414, "lon": 22.7736839, "tags": {"amenity": "restaurant", "internet_access": "wlan", "name": "Gostilnica Zvon-Trejd", "name:en": "Kaj Moco"}}, {"type": "node", "id": 3699968873, "lat": 41.9661614, "lon": 22.7708581}, {"type": "node", "id": 3699968874, "lat": 41.9660019, "lon": 22.7710392}, {"type": "node", "id": 3704278069, "lat": 41.9660833, "lon": 22.7707337}, {"type": "node", "id": 3705063148, "lat": 41.9642846, "lon": 22.7729377}, {"type": "node", "id": 3705063149, "lat": 41.9643648, "lon": 22.77306}, {"type": "node", "id": 3705063150, "lat": 41.9642752, "lon": 22.7731663}, {"type": "node", "id": 3705063151, "lat": 41.9641949, "lon": 22.773044}, {"type": "node", "id": 4004807076, "lat": 42.1166266, "lon": 23.0381963, "tags": {"amenity": "cafe"}}, {"type": "node", "id": 4194725924, "lat": 42.1208838, "lon": 23.272131}, {"type": "node", "id": 4194725925, "lat": 42.1208101, "lon": 23.2719503}, {"type": "node", "id": 4194725926, "lat": 42.1209203, "lon": 23.271828}, {"type": "node", "id": 4194725927, "lat": 42.1207842, "lon": 23.271649}, {"type": "node", "id": 4194725928, "lat": 42.1205931, "lon": 23.2715573}, {"type": "node", "id": 4194725929, "lat": 42.1202854, "lon": 23.2717276}, {"type": "node", "id": 4194725930, "lat": 42.1201525, "lon": 23.2721862}, {"type": "node", "id": 4204753734, "lat": 42.2567766, "lon": 22.8533205, "tags": {"amenity": "restaurant", "indoor_seating": "yes", "name": "\u041c\u0435\u0445\u0430\u043d\u0430 \"\u041d\u0435\u0432\u0435\u0441\u0442\u0438\u043d\u043e\"", "outdoor_seating": "yes"}}, {"type": "node", "id": 4214388670, "lat": 42.2048565, "lon": 22.9029841}, {"type": "node", "id": 4214388671, "lat": 42.2049107, "lon": 22.9031627}, {"type": "node", "id": 4214388672, "lat": 42.2048214, "lon": 22.9032121}, {"type": "node", "id": 4214388673, "lat": 42.2047672, "lon": 22.9030335}, {"type": "node", "id": 4481405207, "lat": 42.0254295, "lon": 23.1068463, "tags": {"addr:housenumber": "16", "addr:street": "\u0414\u043e\u0439\u0440\u0430\u043d", "amenity": "cafe", "internet_access": "wlan", "name": "\u0414\u0438\u0432\u0430", "name:bg": "\u0414\u0438\u0432\u0430", "name:en": "Diva", "phone": "+359 89 368 2818"}}, {"type": "node", "id": 4575995394, "lat": 42.314727, "lon": 23.0994873, "tags": {"amenity": "restaurant"}}, {"type": "node", "id": 4576045786, "lat": 42.2740231, "lon": 23.1309445, "tags": {"amenity": "restaurant"}}, {"type": "node", "id": 4683222726, "lat": 41.9752689, "lon": 22.8186239, "tags": {"addr:city": "Delchevo", "addr:postcode": "2320", "addr:street": "Road Route A3", "amenity": "restaurant", "capacity": "100", "cuisine": "seafood", "delivery": "yes", "name": "\u0420\u0438\u0431\u043d\u0438\u043a \u0412\u043e\u0434\u0435\u043d\u0438\u0446\u0430", "name:en": "Vodenica Fish Restaurant", "opening_hours": "08:00 - 00:00", "outdoor_seating": "yes", "smoking": "outside", "takeaway": "yes"}}, {"type": "node", "id": 4846913194, "lat": 42.0861942, "lon": 23.0571088, "tags": {"amenity": "restaurant", "cuisine": "bulgarian", "delivery": "no", "name": "\u0411\u0430\u0440 169", "name:bg": "\u0420\u0435\u0441\u0442\u043e\u0440\u0430\u043d\u0442", "name:en": "Bar 169", "name:hu": "Bar 169", "outdoor_seating": "yes"}}, {"type": "node", "id": 4847108960, "lat": 42.0858485, "lon": 23.0580491, "tags": {"amenity": "cafe", "internet_access": "wlan", "internet_access:fee": "no", "name": "\u041a\u0430\u0444\u0435", "name:en": "Coffee shop", "outdoor_seating": "yes"}}, {"type": "node", "id": 4847650158, "lat": 42.0895449, "lon": 23.064744, "tags": {"amenity": "cafe", "name": "Cafe", "name:bg": "\u041a\u0430\u0444\u0435"}}, {"type": "node", "id": 4911410485, "lat": 42.2887462, "lon": 23.2624567, "tags": {"amenity": "cafe"}}, {"type": "node", "id": 4911426485, "lat": 42.2915513, "lon": 23.2505796, "tags": {"amenity": "restaurant"}}, {"type": "node", "id": 4911462234, "lat": 42.321147, "lon": 23.0988491, "tags": {"amenity": "restaurant"}}, {"type": "node", "id": 4998588559, "lat": 41.9288083, "lon": 23.1060046}, {"type": "node", "id": 4998588560, "lat": 41.9286823, "lon": 23.1061981}, {"type": "node", "id": 4998588561, "lat": 41.9287974, "lon": 23.1063334}, {"type": "node", "id": 4998588562, "lat": 41.9289233, "lon": 23.1061398}, {"type": "node", "id": 5089460722, "lat": 42.2886333, "lon": 23.2619998, "tags": {"amenity": "restaurant", "cuisine": "italian_pizza;italian", "name": "\u041f\u0438\u0446\u0430 \u0420\u0430\u0434\u043e", "name:bg": "\u041f\u0438\u0446\u0430 \u0420\u0430\u0434\u043e", "name:en": "Pizzeria Rado"}}, {"type": "node", "id": 5108698079, "lat": 42.2892986, "lon": 23.2644018, "tags": {"amenity": "restaurant", "cuisine": "pizza", "name": "\u041f\u0438\u0446\u0430 \u0412\u0435\u043d\u0435\u0446\u0438\u044f"}}, {"type": "node", "id": 5108699137, "lat": 42.2886846, "lon": 23.2630697, "tags": {"amenity": "cafe", "name": "Downtown cafe"}}, {"type": "node", "id": 5126304228, "lat": 42.2878082, "lon": 23.2566431, "tags": {"addr:city": "\u0421\u0430\u043f\u0430\u0440\u0435\u0432\u0430 \u0431\u0430\u043d\u044f", "addr:housenumber": "34a", "addr:postcode": "2650", "addr:street": "\u0413\u0435\u0440\u043c\u0430\u043d\u0435\u044f", "amenity": "restaurant", "name": "\u0411\u043e\u0445\u0435\u043c\u0438", "opening_hours": "Mo-Su 12:00-23:00", "phone": "+359897432767"}}, {"type": "node", "id": 5126304229, "lat": 42.2889987, "lon": 23.2625574, "tags": {"amenity": "restaurant", "name": "7-\u0442\u0435 \u0435\u0437\u0435\u0440\u0430"}}, {"type": "node", "id": 5126304233, "lat": 42.2893162, "lon": 23.265819, "tags": {"amenity": "restaurant", "indoor_seating": "yes", "name": "Fantasy", "outdoor_seating": "yes", "wheelchair": "no"}}, {"type": "node", "id": 5126304234, "lat": 42.2893599, "lon": 23.266519, "tags": {"addr:city": "\u0421\u0430\u043f\u0430\u0440\u0435\u0432\u0430 \u0431\u0430\u043d\u044f", "addr:postcode": "2650", "addr:street": "\u041f\u043b\u0438\u0441\u043a\u0430", "amenity": "restaurant", "cuisine": "regional", "name": "\u041f\u0440\u0438 \u0413\u0435\u0440\u0438", "opening_hours": "Mo-Sa 08:00-21:00", "phone": "+359890219007"}}, {"type": "node", "id": 5225149621, "lat": 42.1246522, "lon": 23.2485337, "tags": {"addr:city": "\u041f\u0430\u0441\u0442\u0440\u0430", "amenity": "restaurant", "email": "ste03@abv.bg", "facebook": "https://www.facebook.com/%D0%93%D0%BE%D1%80%D1%85%D0%B8%D0%BC-676273622418303/", "internet_access": "wlan", "name": "\u0413\u043e\u0440\u0445\u0438\u043c", "name:en": "Gorkhim", "name:hu": "Gorhim", "opening_hours": "Mo-Su 10:00-22:00", "phone": "+359 87 810 1218", "website": "https://gorhim.com/"}}, {"type": "node", "id": 5321194052, "lat": 41.9654757, "lon": 22.7742657, "tags": {"addr:city": "\u0414\u0435\u043b\u0447\u0435\u0432\u043e", "addr:housenumber": "6", "addr:postcode": "2320", "addr:street": "\u0431\u0443\u043b. \u041c\u0435\u0442\u043e\u0434\u0438 \u041c\u0438\u0442\u0435\u0432\u0441\u043a\u0438 \u0411\u0440\u0438\u0446\u043e", "amenity": "restaurant", "name": "\u0414\u0432\u0435 \u041b\u0438\u043f\u0438", "name:en": "Dve Lipi", "outdoor_seating": "yes", "website": "https://www.facebook.com/meanadvelipi/"}}, {"type": "node", "id": 5420063051, "lat": 42.1540401, "lon": 23.001102, "tags": {"amenity": "restaurant"}}, {"type": "node", "id": 5522909344, "lat": 42.0048036, "lon": 23.0939713}, {"type": "node", "id": 5522909345, "lat": 42.0047593, "lon": 23.0941314}, {"type": "node", "id": 5522909346, "lat": 42.0047366, "lon": 23.0941213}, {"type": "node", "id": 5522909347, "lat": 42.004729, "lon": 23.0941518}, {"type": "node", "id": 5522909348, "lat": 42.0045565, "lon": 23.0940622}, {"type": "node", "id": 5522909349, "lat": 42.0046119, "lon": 23.0938657}, {"type": "node", "id": 5540876313, "lat": 42.1203017, "lon": 23.2754427}, {"type": "node", "id": 5540876314, "lat": 42.1203475, "lon": 23.2758236}, {"type": "node", "id": 5540876315, "lat": 42.1207991, "lon": 23.2758987}, {"type": "node", "id": 5540876316, "lat": 42.120809, "lon": 23.2755527}, {"type": "node", "id": 5794082329, "lat": 42.2875939, "lon": 23.2550257, "tags": {"amenity": "restaurant", "name": "\u0420\u0435\u0441\u0442\u043e\u0440\u0430\u043d\u0442-\u0433\u0440\u0430\u0434\u0438\u043d\u0430 \u041f\u0430\u043d\u0438\u0447\u0438\u0449\u0435", "opening_hours": "10:00-02:00", "outdoor_seating": "yes"}}, {"type": "node", "id": 5794082333, "lat": 42.2879402, "lon": 23.2533815, "tags": {"addr:city": "\u0421\u0430\u043f\u0430\u0440\u0435\u0432\u0430 \u0431\u0430\u043d\u044f", "addr:housenumber": "38\u0410", "addr:postcode": "2650", "addr:street": "\u0413\u0435\u0440\u043c\u0430\u043d\u0435\u044f", "amenity": "restaurant", "cuisine": "regional", "email": "restaurant@aquaclubkotvata.com", "name": "\u041a\u043e\u0442\u0432\u0430\u0442\u0430", "name:en": "Kotvata", "phone": "+359889 688 558", "website": "https://aquaclubkotvata.com/"}}, {"type": "node", "id": 5794082334, "lat": 42.2879689, "lon": 23.2529832, "tags": {"amenity": "restaurant"}}, {"type": "node", "id": 5798715153, "lat": 42.1277396, "lon": 23.2237546, "tags": {"amenity": "restaurant", "name": "\u041f\u044a\u0441\u0442\u0440\u0430", "name:en": "Pastra", "name:hu": "Pasztra", "opening_hours": "Mo-Su 09:00-18:00", "phone": "+359 88 966 2030", "website": "https://www.facebook.com/%D0%A0%D0%B5%D1%81%D1%82%D0%BE%D1%80%D0%B0%D0%BD%D1%82-%D0%9F%D1%8A%D1%81%D1%82%D1%80%D0%B0-653533051668566/"}}, {"type": "node", "id": 5939144654, "lat": 42.020519, "lon": 23.1003241, "tags": {"amenity": "cafe", "name": "Fe' bar"}}, {"type": "node", "id": 5939144674, "lat": 42.0211071, "lon": 23.0995346, "tags": {"amenity": "restaurant", "cuisine": "regional;pizza", "level": "1", "name": "\u041b\u0430\u0440\u0436", "name:en": "Large", "phone": "+359 89 668 5668"}}, {"type": "node", "id": 5939144680, "lat": 42.020641, "lon": 23.1007011, "tags": {"addr:city": "\u0411\u043b\u0430\u0433\u043e\u0435\u0432\u0433\u0440\u0430\u0434", "addr:housenumber": "1", "addr:postcode": "2700", "addr:street": "\u0422\u0440\u0430\u043a\u0438\u044f", "amenity": "restaurant", "name": "Raffy bar & gelato"}}, {"type": "node", "id": 5939144695, "lat": 42.0211004, "lon": 23.099266, "tags": {"amenity": "restaurant", "name": "The House of the Food"}}, {"type": "node", "id": 5939144716, "lat": 42.0213276, "lon": 23.0996722, "tags": {"addr:city": "\u0411\u043b\u0430\u0433\u043e\u0435\u0432\u0433\u0440\u0430\u0434", "addr:housenumber": "13", "addr:postcode": "2700", "addr:street": "\u0420\u0430\u0439\u043a\u043e \u0414\u0430\u0441\u043a\u0430\u043b\u043e\u0432", "amenity": "restaurant", "name": "Nice Place", "phone": "0884585554"}}, {"type": "node", "id": 5939144754, "lat": 42.017994, "lon": 23.1009651, "tags": {"amenity": "cafe"}}, {"type": "node", "id": 5939144761, "lat": 42.020912, "lon": 23.1002697, "tags": {"amenity": "cafe", "name": "The White"}}, {"type": "node", "id": 5939144776, "lat": 42.012229, "lon": 23.0944509, "tags": {"amenity": "cafe", "opening_hours": "Mo-Fr 08:00-22:00; Sa-Su 09:00-22:00"}}, {"type": "node", "id": 5941930835, "lat": 42.0179259, "lon": 23.1010058, "tags": {"amenity": "restaurant", "level": "-1"}}, {"type": "node", "id": 6032550364, "lat": 42.0210146, "lon": 23.101414, "tags": {"amenity": "restaurant", "cuisine": "pizza", "name": "Verde", "outdoor_seating": "yes", "smoking": "isolated", "toilets": "yes"}}, {"type": "node", "id": 6033594856, "lat": 42.0209807, "lon": 23.083238, "tags": {"amenity": "restaurant", "cuisine": "pizza", "name": "Bonjour"}}, {"type": "node", "id": 6225352521, "lat": 42.034174, "lon": 23.1274462}, {"type": "node", "id": 6225352522, "lat": 42.0342138, "lon": 23.1274919}, {"type": "node", "id": 6225352523, "lat": 42.0342227, "lon": 23.1275822}, {"type": "node", "id": 6225352524, "lat": 42.0341895, "lon": 23.1276497}, {"type": "node", "id": 6225352525, "lat": 42.0341202, "lon": 23.1276616}, {"type": "node", "id": 6225352526, "lat": 42.0340723, "lon": 23.1276189}, {"type": "node", "id": 6225352527, "lat": 42.0340619, "lon": 23.1275237}, {"type": "node", "id": 6225352528, "lat": 42.0340841, "lon": 23.127478}, {"type": "node", "id": 6225352529, "lat": 42.0340737, "lon": 23.1273162}, {"type": "node", "id": 6225352530, "lat": 42.0341644, "lon": 23.1272964}, {"type": "node", "id": 6225352531, "lat": 42.0355079, "lon": 23.1326174}, {"type": "node", "id": 6225352532, "lat": 42.0355543, "lon": 23.1328463}, {"type": "node", "id": 6225352533, "lat": 42.0355364, "lon": 23.1328529}, {"type": "node", "id": 6225352534, "lat": 42.0355529, "lon": 23.1329348}, {"type": "node", "id": 6225352535, "lat": 42.0354226, "lon": 23.1329827}, {"type": "node", "id": 6225352536, "lat": 42.0354358, "lon": 23.133048}, {"type": "node", "id": 6225352537, "lat": 42.0353726, "lon": 23.1330712}, {"type": "node", "id": 6225352538, "lat": 42.0353765, "lon": 23.1330908}, {"type": "node", "id": 6225352539, "lat": 42.0352646, "lon": 23.1331319}, {"type": "node", "id": 6225352540, "lat": 42.0352419, "lon": 23.1330201}, {"type": "node", "id": 6225352541, "lat": 42.0352053, "lon": 23.1330335}, {"type": "node", "id": 6225352542, "lat": 42.0351782, "lon": 23.1328995}, {"type": "node", "id": 6225352543, "lat": 42.0353129, "lon": 23.13285}, {"type": "node", "id": 6225352544, "lat": 42.0352999, "lon": 23.1327856}, {"type": "node", "id": 6225352545, "lat": 42.0353474, "lon": 23.1327681}, {"type": "node", "id": 6225352546, "lat": 42.0353387, "lon": 23.132725}, {"type": "node", "id": 6225352547, "lat": 42.0353794, "lon": 23.1327101}, {"type": "node", "id": 6225352548, "lat": 42.0353708, "lon": 23.1326677}, {"type": "node", "id": 6225352567, "lat": 42.0353693, "lon": 23.1273532}, {"type": "node", "id": 6225352568, "lat": 42.0352931, "lon": 23.127355}, {"type": "node", "id": 6225352569, "lat": 42.0352913, "lon": 23.1272187}, {"type": "node", "id": 6225352570, "lat": 42.0353675, "lon": 23.1272168}, {"type": "node", "id": 6225554066, "lat": 42.020512, "lon": 23.0868911}, {"type": "node", "id": 6225554067, "lat": 42.0204771, "lon": 23.0869087}, {"type": "node", "id": 6225554068, "lat": 42.0205012, "lon": 23.0869953}, {"type": "node", "id": 6225554069, "lat": 42.0205361, "lon": 23.0869777}, {"type": "node", "id": 6288530556, "lat": 41.9990027, "lon": 23.0046239, "tags": {"amenity": "cafe"}}, {"type": "node", "id": 6288530563, "lat": 41.9987081, "lon": 23.0042691, "tags": {"amenity": "cafe"}}, {"type": "node", "id": 6288530705, "lat": 41.9976565, "lon": 22.9998411, "tags": {"amenity": "cafe"}}, {"type": "node", "id": 6470955385, "lat": 42.1220264, "lon": 23.1280587, "tags": {"amenity": "restaurant", "facebook": "http://www.facebook.com/strandjatarestaurant/", "name": "\u0421\u0442\u0440\u0430\u043d\u0434\u0436\u0430\u0442\u0430", "name:en": "Strandjata Restaurant"}}, {"type": "node", "id": 6470955386, "lat": 42.0211344, "lon": 23.1011129, "tags": {"addr:city": "\u0411\u043b\u0430\u0433\u043e\u0435\u0432\u0433\u0440\u0430\u0434", "addr:housenumber": "3", "addr:postcode": "2700", "addr:street": "\u0422\u0440\u0430\u043a\u0438\u044f", "amenity": "restaurant", "name": "La Storia", "phone": "0897007009"}}, {"type": "node", "id": 6470955585, "lat": 42.0168132, "lon": 23.0972519, "tags": {"amenity": "restaurant", "name:en": "PolCa Caf\u00e9 & Deli"}}, {"type": "node", "id": 6531417585, "lat": 42.0201268, "lon": 23.1006388, "tags": {"amenity": "restaurant", "name": "\u0420\u0443\u0441\u0430\u043b\u043a\u0430", "name:en": "Rusalka"}}, {"type": "node", "id": 6792988525, "lat": 42.1164617, "lon": 23.03824, "tags": {"amenity": "restaurant", "cuisine": "fast_food", "opening_hours": "Mo-Su 06:00-22:00"}}, {"type": "node", "id": 6794464274, "lat": 42.0189755, "lon": 23.0992692, "tags": {"amenity": "cafe", "opening_hours": "Mo-Fr 08:30-18:00; Sa 09:00-17:00", "product": "ground coffe per 100g"}}, {"type": "node", "id": 6810846686, "lat": 42.2892591, "lon": 23.2646819, "tags": {"amenity": "cafe", "name": "\u041b\u0430\u043f\u0430\u0434\u0443\u043d\u0434\u0438"}}, {"type": "node", "id": 7036015860, "lat": 42.0205966, "lon": 23.0973725}, {"type": "node", "id": 7036015861, "lat": 42.0205291, "lon": 23.0972513}, {"type": "node", "id": 7036015862, "lat": 42.0205227, "lon": 23.0974469}, {"type": "node", "id": 7036015863, "lat": 42.020455, "lon": 23.0973182}, {"type": "node", "id": 7093115185, "lat": 42.0862005, "lon": 23.0570232, "tags": {"amenity": "restaurant", "name": "\u0429\u044a\u0440\u043a\u0435\u043b", "opening_hours": "Mo-Su 06:00-04:00", "phone": "+359 705 38 787"}}, {"type": "node", "id": 7467402623, "lat": 42.0118427, "lon": 23.0925378}, {"type": "node", "id": 7467402624, "lat": 42.0117853, "lon": 23.092642}, {"type": "node", "id": 7467402625, "lat": 42.0118744, "lon": 23.0927308}, {"type": "node", "id": 7467402626, "lat": 42.0119317, "lon": 23.0926266}, {"type": "node", "id": 7503951349, "lat": 42.0968357, "lon": 23.1124737, "tags": {"amenity": "restaurant", "name": "Stobi"}}, {"type": "node", "id": 7503955531, "lat": 42.2717663, "lon": 23.2054469, "tags": {"amenity": "restaurant", "name": "\u041c\u0430\u0440\u0438\u0430\u043d\u043d\u0430"}}, {"type": "node", "id": 7570249775, "lat": 42.2464256, "lon": 23.1492247}, {"type": "node", "id": 7640527236, "lat": 42.0261431, "lon": 23.1081072, "tags": {"amenity": "restaurant", "name": "\u0420\u0430\u0439"}}, {"type": "node", "id": 7685449287, "lat": 42.1230391, "lon": 23.18725, "tags": {"amenity": "restaurant", "name": "\u0412\u0430\u043b\u0434\u0438\u0441"}}, {"type": "node", "id": 7685451511, "lat": 42.1318662, "lon": 23.1432442, "tags": {"amenity": "restaurant"}}, {"type": "node", "id": 7698625985, "lat": 42.2608017, "lon": 23.10389, "tags": {"amenity": "restaurant"}}, {"type": "node", "id": 8837787967, "lat": 42.0137641, "lon": 23.0851124, "tags": {"amenity": "cafe"}}, {"type": "node", "id": 8914767719, "lat": 42.0194644, "lon": 23.0935762}, {"type": "node", "id": 8914767725, "lat": 42.0193506, "lon": 23.0934901}, {"type": "node", "id": 8914767726, "lat": 42.0194363, "lon": 23.093612}, {"type": "node", "id": 8914767727, "lat": 42.0193212, "lon": 23.0935276}, {"type": "node", "id": 8914767728, "lat": 42.0194746, "lon": 23.0937458}, {"type": "node", "id": 8914767729, "lat": 42.0195322, "lon": 23.0936704}, {"type": "node", "id": 8914767730, "lat": 42.0194879, "lon": 23.0937273}, {"type": "node", "id": 9140635752, "lat": 42.1269496, "lon": 23.1333048, "tags": {"amenity": "restaurant", "name": "\u0411\u0438\u0441\u0442\u0440\u043e \"169\"", "opening_hours": "Mo-Su 06:30-23:00"}}, {"type": "node", "id": 9285763133, "lat": 41.8922603, "lon": 23.1113067, "tags": {"amenity": "restaurant", "name": "Mladost"}}, {"type": "node", "id": 9464215849, "lat": 42.2894335, "lon": 23.2686502, "tags": {"addr:city": "\u0421\u0430\u043f\u0430\u0440\u0435\u0432\u0430 \u0431\u0430\u043d\u044f", "addr:housenumber": "1", "addr:postcode": "2650", "addr:street": "\u0412\u0430\u0441\u0438\u043b \u041b\u0435\u0432\u0441\u043a\u0438", "amenity": "restaurant", "name": "\u0420\u0435\u0441\u0442\u043e\u0440\u0430\u043d\u0442 \u201e\u041f\u0440\u0438\u044f\u0442\u0435\u043b\u0438\u201c", "name:bg": "\u0420\u0435\u0441\u0442\u043e\u0440\u0430\u043d\u0442 \u201e\u041f\u0440\u0438\u044f\u0442\u0435\u043b\u0438\u201c", "name:en": "Restapurant \u201ePriyateli\u201c", "opening_hours": "Mo-Su 10:00-00:00", "outdoor_seating": "yes", "payment:cash": "yes", "phone": "+359 89 567 5272"}}, {"type": "node", "id": 9789810118, "lat": 42.0211693, "lon": 23.1008776, "tags": {"addr:city": "\u0411\u043b\u0430\u0433\u043e\u0435\u0432\u0433\u0440\u0430\u0434", "addr:housenumber": "2\u0410", "addr:postcode": "2700", "addr:street": "\u0422\u0440\u0430\u043a\u0438\u044f", "amenity": "restaurant", "internet_access": "wlan", "name": "FRAME bar and food", "phone": "0899117373", "website": "http://frame-bg.com/"}}, {"type": "node", "id": 9842142918, "lat": 42.0211492, "lon": 23.1022957, "tags": {"amenity": "restaurant", "check_date": "2023-06-03", "internet_access": "wlan", "name": "\u0412\u0442\u043e\u0440\u0438 \u0428\u0430\u043d\u0441", "opening_hours": "PH,Mo-Su 08:00-02:00", "outdoor_seating": "yes", "payment:cards": "no", "payment:credit_cards": "no", "payment:debit_cards": "no", "reservation": "recommended", "smoking": "outside", "toilets:access": "customers", "wheelchair": "no"}}, {"type": "node", "id": 9843862717, "lat": 42.0145519, "lon": 23.0855349, "tags": {"amenity": "restaurant", "name": "\u0428\u043a\u0435\u043c\u0431\u0435\u0434\u0436\u0438\u0439\u043d\u0438\u0446\u0430"}}, {"type": "node", "id": 9847966056, "lat": 42.2649135, "lon": 23.116957, "tags": {"amenity": "cafe"}}, {"type": "node", "id": 9856684144, "lat": 42.1139781, "lon": 23.3089694}, {"type": "node", "id": 9856684145, "lat": 42.1139224, "lon": 23.3090326}, {"type": "node", "id": 9856684146, "lat": 42.1140126, "lon": 23.3092257}, {"type": "node", "id": 9856684147, "lat": 42.1140462, "lon": 23.3091828}, {"type": "node", "id": 9856684148, "lat": 42.1140515, "lon": 23.3090802}, {"type": "node", "id": 9859131167, "lat": 42.1258471, "lon": 23.1340245, "tags": {"amenity": "restaurant", "name": "\u0420\u0435\u0441\u0442\u043e\u0440\u0430\u043d\u0442 \"\u0415\u043b\u0445\u0438\u0442\u0435\"", "phone": "+359 89 912 7708", "website": "https://restaurant-53145.business.site/"}}, {"type": "node", "id": 9881080860, "lat": 42.1320264, "lon": 23.1429306}, {"type": "node", "id": 9881080861, "lat": 42.1320896, "lon": 23.1430427}, {"type": "node", "id": 9881080862, "lat": 42.1319615, "lon": 23.1431874}, {"type": "node", "id": 9881080863, "lat": 42.1318645, "lon": 23.1430485}, {"type": "node", "id": 9881080864, "lat": 42.1319225, "lon": 23.1429843}, {"type": "node", "id": 9881080865, "lat": 42.1319485, "lon": 23.1430263}, {"type": "node", "id": 9922794673, "lat": 42.2880949, "lon": 23.2583258, "tags": {"amenity": "restaurant", "name": "\u0413\u0435\u0439\u0437\u0435\u0440\u0430", "outdoor_seating": "yes"}}, {"type": "node", "id": 9948835475, "lat": 42.2569257, "lon": 22.8766772, "tags": {"amenity": "restaurant", "name": "\u0412\u0438\u0435\u043d\u0441\u043a\u043e \u0445\u0430\u043d\u0447\u0435"}}, {"type": "node", "id": 10076242408, "lat": 42.250392, "lon": 23.1427389, "tags": {"amenity": "restaurant"}}, {"type": "node", "id": 10128407536, "lat": 42.2873998, "lon": 23.2559679, "tags": {"amenity": "restaurant", "level": "1"}}, {"type": "node", "id": 10671862397, "lat": 42.2646668, "lon": 23.1193797}, {"type": "node", "id": 10671862398, "lat": 42.2646007, "lon": 23.119418}, {"type": "node", "id": 10671862399, "lat": 42.2646471, "lon": 23.1195641}, {"type": "node", "id": 10671862400, "lat": 42.2647133, "lon": 23.1195257}, {"type": "node", "id": 10671862433, "lat": 42.2641282, "lon": 23.1195494}, {"type": "node", "id": 10671862434, "lat": 42.2642783, "lon": 23.1194391}, {"type": "node", "id": 10671862435, "lat": 42.2642466, "lon": 23.1193604}, {"type": "node", "id": 10671862436, "lat": 42.2640965, "lon": 23.1194708}, {"type": "node", "id": 10671874011, "lat": 42.2636382, "lon": 23.1166608, "tags": {"amenity": "restaurant", "name": "\u0420\u0435\u0441\u0442\u043e\u0440\u0430\u043d\u0442 \"\u041a\u043e\u043d\u0434\u043e\u0440\""}}, {"type": "node", "id": 10671878314, "lat": 42.2641302, "lon": 23.1138624, "tags": {"amenity": "cafe", "name": "\u041a\u0430\u0444\u0435 \"\u0421\u0438\u043c\u043e\u043d\u0430 \u0444\u0440\u0435\u0448\""}}, {"type": "node", "id": 10671878317, "lat": 42.2642892, "lon": 23.1160376, "tags": {"amenity": "cafe", "name": "\u041a\u0430\u0444\u0435 \"\u0411\u0430\u0440\u0438\u0441\u0442\u0430\""}}, {"type": "node", "id": 10671907304, "lat": 42.1689686, "lon": 23.0463252}, {"type": "node", "id": 10671907305, "lat": 42.1690523, "lon": 23.0463784}, {"type": "node", "id": 10671907306, "lat": 42.1690405, "lon": 23.0464123}, {"type": "node", "id": 10671907307, "lat": 42.1691228, "lon": 23.0464645}, {"type": "node", "id": 10671907308, "lat": 42.1691688, "lon": 23.0463328}, {"type": "node", "id": 10671907309, "lat": 42.1690858, "lon": 23.0462801}, {"type": "node", "id": 10671907310, "lat": 42.1690689, "lon": 23.0463284}, {"type": "node", "id": 10671907311, "lat": 42.1689859, "lon": 23.0462757}, {"type": "node", "id": 10759726763, "lat": 42.2509391, "lon": 23.1280299, "tags": {"amenity": "cafe", "name": "\u041a\u0430\u0444\u0435 \u0415\u043c\u0438\u043b\u0438"}}, {"type": "node", "id": 10762139751, "lat": 42.2878812, "lon": 23.2567386}, {"type": "node", "id": 10762139752, "lat": 42.2878982, "lon": 23.2566003}, {"type": "node", "id": 10762139753, "lat": 42.2877553, "lon": 23.2565682}, {"type": "node", "id": 10762139754, "lat": 42.2877418, "lon": 23.2566779}, {"type": "node", "id": 10762139755, "lat": 42.2877785, "lon": 23.2566861}, {"type": "node", "id": 10762139756, "lat": 42.2877721, "lon": 23.2567383}, {"type": "node", "id": 10762139757, "lat": 42.2878301, "lon": 23.2567513}, {"type": "node", "id": 10762139758, "lat": 42.2878329, "lon": 23.2567278}, {"type": "node", "id": 10790505548, "lat": 42.2933013, "lon": 23.0414287, "tags": {"amenity": "restaurant", "name": "\u0420\u0435\u0441\u0442\u043e\u0440\u0430\u043d\u0442 \u0413\u043e\u043b\u0435\u043c\u043e \u0441\u0435\u043b\u043e", "phone": "+359 89 362 0321", "website": "https://www.facebook.com/profile.php?id=100087037574704"}}, {"type": "node", "id": 10803311184, "lat": 42.248931, "lon": 23.1440264}, {"type": "node", "id": 10803311185, "lat": 42.2486812, "lon": 23.1440796}, {"type": "node", "id": 10803311186, "lat": 42.2486989, "lon": 23.1442842}, {"type": "node", "id": 10803311187, "lat": 42.2488386, "lon": 23.144239}, {"type": "node", "id": 10803311188, "lat": 42.248933, "lon": 23.1440743}, {"type": "node", "id": 10803311191, "lat": 42.247001, "lon": 23.1461413}, {"type": "node", "id": 10803311192, "lat": 42.246864, "lon": 23.1460809}, {"type": "node", "id": 10803311193, "lat": 42.2467606, "lon": 23.1463263}, {"type": "node", "id": 10803311194, "lat": 42.2468668, "lon": 23.1464207}, {"type": "node", "id": 10811248492, "lat": 42.2481618, "lon": 23.1441603}, {"type": "node", "id": 10811248493, "lat": 42.2481367, "lon": 23.1440994}, {"type": "node", "id": 10811248494, "lat": 42.2479025, "lon": 23.1443087}, {"type": "node", "id": 10811248495, "lat": 42.2479359, "lon": 23.144424}, {"type": "node", "id": 10811248496, "lat": 42.2481807, "lon": 23.1442623}, {"type": "node", "id": 10811248497, "lat": 42.248001, "lon": 23.1441899}, {"type": "node", "id": 10811248498, "lat": 42.2480699, "lon": 23.1443667}, {"type": "node", "id": 10811254023, "lat": 42.2463535, "lon": 23.1490356}, {"type": "node", "id": 10811254032, "lat": 42.2465076, "lon": 23.1491093}, {"type": "node", "id": 10811254033, "lat": 42.2464175, "lon": 23.1489547}, {"type": "node", "id": 10811254034, "lat": 42.2462714, "lon": 23.1491392}, {"type": "node", "id": 10811254035, "lat": 42.2463674, "lon": 23.1493067}, {"type": "node", "id": 10811254053, "lat": 42.2469566, "lon": 23.1462338}, {"type": "node", "id": 10811254056, "lat": 42.2469015, "lon": 23.1467495}, {"type": "node", "id": 10811254057, "lat": 42.2468571, "lon": 23.1468421}, {"type": "node", "id": 10811254058, "lat": 42.2467799, "lon": 23.1467495}, {"type": "node", "id": 10811254059, "lat": 42.246833, "lon": 23.1466673}, {"type": "node", "id": 10820355710, "lat": 42.1930351, "lon": 23.0601704, "tags": {"amenity": "restaurant", "name": "\u041b\u043e\u0432\u043d\u0430 \u0441\u0440\u0435\u0449\u0430", "phone": "+359 89 851 1258"}}, {"type": "node", "id": 10824119536, "lat": 42.0206849, "lon": 23.0908699, "tags": {"addr:city": "\u0411\u043b\u0430\u0433\u043e\u0435\u0432\u0433\u0440\u0430\u0434", "addr:housenumber": "28", "addr:postcode": "2700", "addr:street": "\u0412\u043b\u0430\u0434\u043e \u0427\u0435\u0440\u043d\u043e\u0437\u0435\u043c\u0441\u043a\u0438", "amenity": "restaurant", "name": "\u041a\u0430\u043b\u0438\u0441\u0442\u043e", "phone": "+359 88 760 0774"}}, {"type": "node", "id": 10824371954, "lat": 42.0210567, "lon": 23.0904275, "tags": {"addr:city": "\u0411\u043b\u0430\u0433\u043e\u0435\u0432\u0433\u0440\u0430\u0434", "addr:housenumber": "1", "addr:postcode": "2700", "addr:street": "\u0421\u0430\u043d \u0421\u0442\u0435\u0444\u0430\u043d\u043e", "amenity": "restaurant", "name": "\u0418\u0432\u0438\u044f"}}, {"type": "node", "id": 10824371955, "lat": 42.0220906, "lon": 23.0902883, "tags": {"amenity": "restaurant", "name": "\u0411\u0438\u0441\u0442\u0440\u043e \u0425\u044a\u0448\u043e\u0432\u0435"}}, {"type": "node", "id": 10824372010, "lat": 42.0227208, "lon": 23.0884305, "tags": {"amenity": "restaurant", "cuisine": "pizza", "name": "Pizzaria Margarita", "phone": "+359 87 640 4939", "website": "https://pizzariamargarita.com/"}}, {"type": "node", "id": 10824372011, "lat": 42.0226617, "lon": 23.0881588, "tags": {"addr:city": "\u0411\u043b\u0430\u0433\u043e\u0435\u0432\u0433\u0440\u0430\u0434", "addr:housenumber": "70", "addr:postcode": "2700", "addr:street": "\u0421\u043b\u0430\u0432\u044f\u043d\u0441\u043a\u0430", "amenity": "cafe", "name": "\u0421\u043f\u043e\u0440\u0442 \u043a\u0430\u0444\u0435 \u0421\u043f\u043e\u0440\u0442 \u0442\u043e\u0442\u043e \u0411\u043b\u0430\u0433\u043e\u0435\u0432\u0433\u0440\u0430\u0434", "phone": "+359 87 945 4728"}}, {"type": "node", "id": 10824386017, "lat": 42.0192182, "lon": 23.0868302, "tags": {"addr:city": "\u0411\u043b\u0430\u0433\u043e\u0435\u0432\u0433\u0440\u0430\u0434", "addr:housenumber": "32", "addr:postcode": "2700", "addr:street": "\u041c\u0430\u0439\u043e\u0440 \u0421\u0442\u0435\u0444\u0430\u043d \u0418\u0432\u0430\u043d\u043e\u0432", "amenity": "restaurant", "name": "\u0414\u044e\u043d\u0435\u0440 \u0438 \u0424\u0440\u0435\u0448 \u0431\u0430\u0440 \"\u0431\u043e\u0431\u043e\"", "phone": "+359 87 665 8346"}}, {"type": "node", "id": 10827519983, "lat": 42.0153278, "lon": 23.0830451, "tags": {"amenity": "restaurant"}}, {"type": "node", "id": 10827522309, "lat": 42.0141428, "lon": 23.0783435, "tags": {"amenity": "cafe"}}, {"type": "node", "id": 10827522310, "lat": 42.0153072, "lon": 23.0780769, "tags": {"addr:city": "\u0411\u043b\u0430\u0433\u043e\u0435\u0432\u0433\u0440\u0430\u0434", "addr:housenumber": "35", "addr:postcode": "2700", "addr:street": "\u041c\u0430\u043b\u0435\u0448\u0435\u0432\u043e", "amenity": "cafe", "name": "\u0414\u0436\u043e\u0440\u0434\u0430\u043d"}}, {"type": "node", "id": 10967746707, "lat": 42.2875008, "lon": 23.2562508}, {"type": "node", "id": 10967746708, "lat": 42.2873751, "lon": 23.2562362}, {"type": "node", "id": 10967746709, "lat": 42.2873648, "lon": 23.2563994}, {"type": "node", "id": 10967746710, "lat": 42.2874905, "lon": 23.256414}, {"type": "node", "id": 11030238802, "lat": 41.9921212, "lon": 23.0848682}, {"type": "node", "id": 11030238803, "lat": 41.9921153, "lon": 23.0849353}, {"type": "node", "id": 11030238804, "lat": 41.9920149, "lon": 23.0849192}, {"type": "node", "id": 11030262305, "lat": 41.9920208, "lon": 23.0848521}, {"type": "node", "id": 11099013757, "lat": 42.2888549, "lon": 23.2646555, "tags": {"addr:city": "\u0421\u0430\u043f\u0430\u0440\u0435\u0432\u0430 \u0431\u0430\u043d\u044f", "addr:postcode": "2650", "amenity": "restaurant", "cuisine": "pizza;regional", "name": "Bar & Dinner La Rocca", "opening_hours": "Mo-Su 10:00-24:00", "phone": "+359882636311"}}, {"type": "node", "id": 11237672404, "lat": 42.2891784, "lon": 23.2634654, "tags": {"amenity": "cafe"}}, {"type": "node", "id": 11237726196, "lat": 42.2881959, "lon": 23.260741, "tags": {"amenity": "cafe", "indoor_seating": "yes", "outdoor_seating": "veranda"}}, {"type": "node", "id": 11266587725, "lat": 42.0218028, "lon": 23.1008858, "tags": {"amenity": "cafe", "check_date": "2023-10-16", "internet_access": "wlan", "internet_access:fee": "customers", "name": "Vision", "outdoor_seating": "yes", "payment:cards": "no", "payment:cash": "yes", "payment:credit_cards": "no", "payment:debit_cards": "no", "wheelchair": "limited"}}, {"type": "node", "id": 11584738218, "lat": 42.0204861, "lon": 23.1010279, "tags": {"addr:city": "\u0411\u043b\u0430\u0433\u043e\u0435\u0432\u0433\u0440\u0430\u0434", "addr:housenumber": "5", "addr:postcode": "2700", "addr:street": "\u0410\u043d\u0442\u0438\u043c I", "amenity": "restaurant", "cuisine": "pizza", "diet:non-vegetarian": "yes", "diet:vegetarian": "yes", "name": "ROOTS est. 1996", "phone": "073893111", "website": "https://www.facebook.com/roots1996/"}}, {"type": "node", "id": 11585153667, "lat": 42.019877, "lon": 23.0911892, "tags": {"amenity": "cafe", "cuisine": "coffee_shop", "name": "Vertona", "phone": "+359878569543", "website": "https://vertonacoffee.com/"}}, {"type": "node", "id": 11585207880, "lat": 42.018687, "lon": 23.0915549, "tags": {"amenity": "cafe", "cuisine": "coffee_shop"}}, {"type": "node", "id": 11585207885, "lat": 42.021409, "lon": 23.0982412, "tags": {"amenity": "cafe", "name": "Sladuna", "outdoor_seating": "yes"}}, {"type": "node", "id": 11585207888, "lat": 42.0215221, "lon": 23.1020861, "tags": {"amenity": "restaurant", "name": "\u0422\u0440\u0435\u0437\u043e\u0440", "name:en": "Trezor"}}, {"type": "node", "id": 11618296282, "lat": 41.930845, "lon": 23.001019, "tags": {"amenity": "restaurant"}}, {"type": "node", "id": 11732176547, "lat": 42.0216587, "lon": 23.0989238, "tags": {"amenity": "restaurant", "cuisine": "pizza", "name": "Pizza Napoli", "name:bg": "\u041f\u0438\u0446\u0430\u0440\u0438\u044f \u041d\u0430\u043f\u043e\u043b\u0438"}}, {"type": "node", "id": 11951308531, "lat": 42.0217155, "lon": 23.100729, "tags": {"addr:city": "\u0411\u043b\u0430\u0433\u043e\u0435\u0432\u0433\u0440\u0430\u0434", "addr:housenumber": "2", "addr:postcode": "2700", "addr:street": "\u0420\u0430\u0439\u043a\u043e \u0414\u0430\u0441\u043a\u0430\u043b\u043e\u0432", "amenity": "cafe", "cuisine": "cake", "name": "Yoanna Cake Boutique", "opening_hours": "Su-Th 10:00-19:00; Fr-Sa 10:00-20:00; ", "outdoor_seating": "yes", "phone": "0898599899", "shop": "pastry"}}, {"type": "node", "id": 11955051273, "lat": 42.0211948, "lon": 23.1012974, "tags": {"addr:city": "\u0411\u043b\u0430\u0433\u043e\u0435\u0432\u0433\u0440\u0430\u0434", "addr:place": "\u041f\u043b\u043e\u0449\u0430\u0434 \u041c\u0430\u043a\u0435\u0434\u043e\u043d\u0438\u044f", "addr:postcode": "2700", "amenity": "cafe", "cuisine": "cake", "name": "Ganache Cake House", "phone": "0889166969"}}, {"type": "node", "id": 11956537646, "lat": 42.0213657, "lon": 23.1010157, "tags": {"addr:city": "\u0411\u043b\u0430\u0433\u043e\u0435\u0432\u0433\u0440\u0430\u0434", "addr:housenumber": "4", "addr:place": "\u041f\u043b\u043e\u0449\u0430\u0434 \u041c\u0430\u043a\u0435\u0434\u043e\u043d\u0438\u044f", "addr:postcode": "2700", "amenity": "cafe", "name": "POINT"}}, {"type": "node", "id": 11957721752, "lat": 42.0211306, "lon": 23.0975524, "tags": {"addr:city": "\u0411\u043b\u0430\u0433\u043e\u0435\u0432\u0433\u0440\u0430\u0434", "addr:housenumber": "18", "addr:postcode": "2700", "addr:street": "\u041f\u0435\u0442\u043a\u043e \u0414. \u041f\u0435\u0442\u043a\u043e\u0432", "amenity": "cafe", "name": "HOPE Coffee & Bar", "phone": "0896186188"}}, {"type": "node", "id": 11998746949, "lat": 42.2880126, "lon": 23.2546782, "tags": {"amenity": "restaurant", "cuisine": "regional", "name": "\u0422\u0435\u0434\u0436\u0430\u0441", "opening_hours": "12:00-15:00", "outdoor_seating": "yes"}}, {"type": "node", "id": 12099388610, "lat": 42.2892703, "lon": 23.2645609, "tags": {"addr:city": "\u0421\u0430\u043f\u0430\u0440\u0435\u0432\u0430 \u0431\u0430\u043d\u044f", "addr:postcode": "2650", "amenity": "restaurant", "name": "\u043b\u0430\u043f\u0430\u0434\u0443\u043d\u0434\u0438", "name:en": "Lapadundi", "opening_hours": "Mo-Sa 11:00-19:00; Su off"}}, {"type": "node", "id": 12165195885, "lat": 42.2752924, "lon": 23.2248919, "tags": {"addr:city": "\u041e\u0432\u0447\u0430\u0440\u0446\u0438", "addr:postcode": "2647", "amenity": "restaurant", "contact:facebook": "https://www.facebook.com/profile.php?id=61556348434178", "cuisine": "pizza", "name": "Pizza Vodopada", "opening_hours": "Mo off, Tu-Su 11:00-24:00", "phone": "+359894305306"}}, {"type": "node", "id": 12828691513, "lat": 41.8918394, "lon": 23.1093002, "tags": {"addr:city": "\u0421\u0438\u043c\u0438\u0442\u043b\u0438", "addr:housenumber": "2", "addr:postcode": "2730", "addr:street": "\u041f\u044a\u0440\u0432\u0438 \u041c\u0430\u0439", "amenity": "restaurant", "cuisine": "pizza", "name": "\u041f\u0438\u0446\u0430\u0440\u0438\u044f \u043f\u043b\u0430\u043d\u0435\u0442\u0430"}}, {"type": "node", "id": 12914810906, "lat": 42.0845468, "lon": 23.0597075, "tags": {"addr:city": "\u041a\u043e\u0447\u0435\u0440\u0438\u043d\u043e\u0432\u043e", "addr:postcode": "2640", "addr:street": "\u0428\u0438\u043f\u043a\u0430", "amenity": "restaurant", "cuisine": "coffee_shop;barbecue", "name": "City Park Kocherinovo", "opening_hours": "Mo-Su 09:00-00:00", "smoking": "yes"}}, {"type": "way", "id": 269789236, "nodes": [2749322590, 2749322592, 2749322593, 2749322594, 2749322590], "tags": {"addr:city": "\u041a\u043e\u043d\u044f\u0432\u043e", "addr:housenumber": "13", "addr:postcode": "2540", "addr:street": "\u0416\u0435\u043b\u044c\u043e \u0414\u0435\u043c\u0438\u0440\u0435\u0432\u0441\u043a\u0438", "amenity": "restaurant", "building": "yes", "capacity": "80", "cuisine": "regional", "name": "\u041c\u0435\u0445\u0430\u043d\u0430 \"\u0410\u043d\u0434\u0436\u0438\" - \u0441. \u041a\u043e\u043d\u044f\u0432\u043e", "opening_hours": "07:00 - 24:00", "phone": "+359 88 610 2673"}}, {"type": "way", "id": 365651449, "nodes": [3696549093, 3696549094, 3696549095, 3696549096, 3696549114, 3699968874, 3699968873, 3704278069, 3696549093], "tags": {"addr:city": "\u0414\u0435\u043b\u0447\u0435\u0432\u043e", "addr:postcode": "2320", "addr:street": "\u041c\u0430\u0440\u0448\u0430\u043b \u0422\u0438\u0442\u043e", "amenity": "restaurant", "building": "yes", "name": "\u0420\u0435\u0441\u0442\u043e\u0440\u0430\u043d \u041c\u0430\u043a\u0435\u0434\u043e\u043d\u0438\u0458\u0430", "name:en": "Restaurant Makedonija"}}, {"type": "way", "id": 366523246, "nodes": [3705063148, 3705063149, 3705063150, 3705063151, 3705063148], "tags": {"addr:city": "\u0414\u0435\u043b\u0447\u0435\u0432\u043e", "addr:postcode": "2320", "addr:street": "\u041c\u0430\u0440\u0448\u0430\u043b \u0422\u0438\u0442\u043e", "amenity": "restaurant", "building": "yes", "name": "\u0413\u043e\u0441\u0442\u0438\u043b\u043d\u0438\u0446\u0430 \u041a\u0430\u0458 \u041c\u0438\u0442\u0435", "name:en": "Kaj Mite"}}, {"type": "way", "id": 419400369, "nodes": [4194725924, 4194725925, 4194725926, 4194725927, 4194725928, 4194725929, 4194725930, 4194725924], "tags": {"amenity": "restaurant", "building": "terrace", "cuisine": "fish", "description": "\u0414\u043e\u0431\u044a\u0440 \u0440\u0435\u0441\u0442\u043e\u0440\u0430\u043d\u0442 \u0437\u0430 \u043b\u044f\u0442\u043e\u0442\u043e. \u0416\u0438\u0432\u0430 \u0440\u0438\u0431\u0430.", "description:en": "Good for the summer time. Try the fish.", "name": "\u041c\u0430\u0433\u0438\u044f\u0442\u0430 \u043d\u0430 \u0420\u0438\u043b\u0430", "name:en": "Magic of RIla", "phone": "+359 89 869 1057", "smoking": "outside"}}, {"type": "way", "id": 421680680, "nodes": [4214388670, 4214388671, 4214388672, 4214388673, 4214388670], "tags": {"amenity": "restaurant", "building": "yes", "name": "bar caffee ok per T Stop", "name:bg": "bar caffee ok per T Stop"}}, {"type": "way", "id": 510866847, "nodes": [4998588559, 4998588560, 4998588561, 4998588562, 4998588559], "tags": {"amenity": "restaurant", "building": "yes"}}, {"type": "way", "id": 575599654, "nodes": [5522909344, 5522909345, 5522909346, 5522909347, 5522909348, 5522909349, 5522909344], "tags": {"amenity": "restaurant", "building": "yes", "name": "\u041c\u0435\u0445\u0430\u043d\u0430 \"\u0422\u0440\u0438\u0444\u043e\u043d \u0417\u0430\u0440\u0435\u0437\u0430\u043d\""}}, {"type": "way", "id": 578193654, "nodes": [5540876316, 5540876315, 5540876314, 5540876313, 5540876316], "tags": {"amenity": "restaurant", "name": "\u0415\u043b\u0435\u0448\u043d\u0438\u0446\u0430"}}, {"type": "way", "id": 665103185, "nodes": [6225352521, 6225352522, 6225352523, 6225352524, 6225352525, 6225352526, 6225352527, 6225352528, 6225352529, 6225352530, 6225352521], "tags": {"amenity": "restaurant", "building": "yes", "name": "\u0413\u044a\u0431\u0430\u0442\u0430"}}, {"type": "way", "id": 665103188, "nodes": [6225352531, 6225352532, 6225352533, 6225352534, 6225352535, 6225352536, 6225352537, 6225352538, 6225352539, 6225352540, 6225352541, 6225352542, 6225352543, 6225352544, 6225352545, 6225352546, 6225352547, 6225352548, 6225352531], "tags": {"amenity": "restaurant", "building": "yes", "name": "\u041c\u0435\u0445\u0430\u043d\u0430 \u0412\u043e\u0434\u0435\u043d\u0438\u0446\u0430\u0442\u0430", "phone": "+359 73 885 959", "website": "http://www.mehana-vodenicata.com"}}, {"type": "way", "id": 665103190, "nodes": [6225352567, 6225352568, 6225352569, 6225352570, 6225352567], "tags": {"amenity": "restaurant", "building": "yes", "name": "\u041a\u0430\u0440\u0438\u0431\u0438"}}, {"type": "way", "id": 665127869, "nodes": [6225554066, 6225554067, 6225554068, 6225554069, 6225554066], "tags": {"amenity": "restaurant", "building": "yes"}}, {"type": "way", "id": 753002306, "nodes": [7036015861, 7036015860, 7036015862, 7036015863, 7036015861], "tags": {"addr:city": "\u0411\u043b\u0430\u0433\u043e\u0435\u0432\u0433\u0440\u0430\u0434", "addr:housenumber": "27", "addr:postcode": "2700", "addr:street": "\u0410\u0440\u0441\u0435\u043d\u0438\u0439 \u041a\u043e\u0441\u0442\u0435\u043d\u0446\u0435\u0432", "amenity": "restaurant", "building": "yes", "name": "\u0420\u0435\u0441\u0442\u043e\u0440\u0430\u043d\u0442 \"\u0410\u0432\u0435\u0440\u0438\"", "phone": "+359 88 799 5169"}}, {"type": "way", "id": 798391790, "nodes": [7467402623, 7467402624, 7467402625, 7467402626, 7467402623], "tags": {"addr:city": "\u0411\u043b\u0430\u0433\u043e\u0435\u0432\u0433\u0440\u0430\u0434", "amenity": "cafe", "building": "yes"}}, {"type": "way", "id": 963765885, "nodes": [8914767725, 8914767727, 8914767728, 8914767730, 8914767729, 8914767719, 8914767726, 8914767725], "tags": {"amenity": "restaurant", "building": "yes", "cuisine": "pizza", "name": "\u041f\u0438\u0446\u0430\u0440\u0438\u044f \u0411\u043e\u0440\u0433\u0435\u0437\u0435", "name:en": "Pizza Borghese", "phone": "+359 88 400 0033"}}, {"type": "way", "id": 1074631973, "nodes": [9856684144, 9856684145, 9856684146, 9856684147, 9856684148, 9856684144], "tags": {"amenity": "restaurant", "building": "yes"}}, {"type": "way", "id": 1077698187, "nodes": [9881080860, 9881080861, 9881080862, 9881080863, 9881080864, 9881080865, 9881080860], "tags": {"addr:city": "\u0420\u0438\u043b\u0430", "addr:housenumber": "115", "addr:street": "\u0421\u0432. \u0418\u0432\u0430\u043d \u0420\u0438\u043b\u0441\u043a\u0438", "amenity": "restaurant", "building": "yes", "name": "\u0420\u0435\u0441\u0442\u043e\u0440\u0430\u043d\u0442 \u041d\u0435\u0432\u0435\u043d", "phone": "+359 88 641 2241", "website": "https://www.facebook.com/restaurant.Neven/"}}, {"type": "way", "id": 1146827251, "nodes": [10671862397, 10671862398, 10671862399, 10671862400, 10671862397], "tags": {"amenity": "cafe", "building": "yes", "name": "\u0414\u043e \u0427\u0430\u0441\u043e\u0432\u043d\u0438\u043a\u0430", "source": "microsoft/BuildingFootprints"}}, {"type": "way", "id": 1146827257, "nodes": [10671862433, 10671862434, 10671862435, 10671862436, 10671862433], "tags": {"amenity": "restaurant", "building": "yes", "name": "\u0420\u0435\u0441\u0442\u043e\u0440\u0430\u043d\u0442 \u041d\u0430\u0441\u043b\u0430\u0434\u0430", "source": "microsoft/BuildingFootprints"}}, {"type": "way", "id": 1146833505, "nodes": [10671907304, 10671907305, 10671907306, 10671907307, 10671907308, 10671907309, 10671907310, 10671907311, 10671907304], "tags": {"amenity": "restaurant", "building": "yes", "name": "\u0421\u043b\u0430\u0442\u0438\u043d\u0441\u043a\u043e \u0445\u0430\u043d\u0447\u0435", "phone": "+359 89 783 1128", "source": "microsoft/BuildingFootprints"}}, {"type": "way", "id": 1157281129, "nodes": [10762139751, 10762139752, 10762139753, 10762139754, 10762139755, 10762139756, 10762139757, 10762139758, 10762139751], "tags": {"addr:city": "\u0421\u0430\u043f\u0430\u0440\u0435\u0432\u0430 \u0431\u0430\u043d\u044f", "addr:housenumber": "34\u0410", "addr:postcode": "2650", "addr:street": "\u0413\u0435\u0440\u043c\u0430\u043d\u0435\u044f", "amenity": "restaurant", "building": "yes", "opening_hours": "Mo-Su 12:00-23:00", "phone": "+359897432767", "source": "microsoft/BuildingFootprints"}}, {"type": "way", "id": 1161550523, "nodes": [10803311184, 10803311185, 10803311186, 10803311187, 10803311188, 10803311184], "tags": {"amenity": "cafe", "building": "yes"}}, {"type": "way", "id": 1161550524, "nodes": [10803311191, 10803311192, 10803311193, 10803311194, 10811254053, 10803311191], "tags": {"amenity": "restaurant", "building": "yes", "cuisine": "regional", "name": "Park Life"}}, {"type": "way", "id": 1162461562, "nodes": [10811248492, 10811248493, 10811248497, 10811248494, 10811248495, 10811248498, 10811248496, 10811248492], "tags": {"amenity": "restaurant", "building": "yes"}}, {"type": "way", "id": 1162461575, "nodes": [10811254032, 10811254033, 10811254023, 10811254034, 10811254035, 7570249775, 10811254032], "tags": {"amenity": "restaurant", "building": "yes"}}, {"type": "way", "id": 1162461588, "nodes": [10811254056, 10811254057, 10811254058, 10811254059, 10811254056], "tags": {"amenity": "restaurant", "building": "yes"}}, {"type": "way", "id": 1180964683, "nodes": [10967746707, 10967746708, 10967746709, 10967746710, 10967746707], "tags": {"addr:city": "\u0421\u0430\u043f\u0430\u0440\u0435\u0432\u0430 \u0431\u0430\u043d\u044f", "addr:housenumber": "37", "addr:postcode": "2650", "addr:street": "\u0413\u0435\u0440\u043c\u0430\u043d\u0435\u044f", "amenity": "restaurant", "building": "yes", "cuisine": "regional", "name": "\u0417\u043b\u0430\u0442\u043d\u043e\u0442\u043e \u043f\u0438\u043b\u0435 \u043d\u0430 \u0436\u0430\u0440", "name:en": "Zlatnoto Pile Na Zhar", "opening_hours": "Mo-Su 08:00-00:00", "phone": "+359895579141", "website": "https://jarta-bg.com/"}}, {"type": "way", "id": 1187863904, "nodes": [11030238802, 11030238803, 11030238804, 11030262305, 11030238802], "tags": {"amenity": "cafe", "building": "yes"}}]}