{"version": 0.6, "generator": "Overpass API 0.7.62.7 375dc00a", "osm3s": {"timestamp_osm_base": "2025-06-14T13:57:32Z", "copyright": "The data included in this document is from www.openstreetmap.org. The data is made available under ODbL."}, "elements": [{"type": "node", "id": 253724326, "lat": 41.1927741, "lon": 15.8123934, "tags": {"amenity": "restaurant", "branch": "Ofanto Nord", "brand": "Autogrill", "brand:wikidata": "Q786790", "cuisine": "italian;regional", "name": "Autogrill", "operator": "Autogrill S.p.A.", "phone": "+39 800 069069", "ref:vatin": "IT01630730032"}}, {"type": "node", "id": 282866704, "lat": 41.2631069, "lon": 15.9127977, "tags": {"amenity": "cafe", "name": "Plaza", "operator": "Longo,Michele", "wheelchair": "limited"}}, {"type": "node", "id": 289917858, "lat": 41.2660751, "lon": 15.9067016, "tags": {"amenity": "restaurant", "name": "Di Muzio", "wheelchair": "no"}}, {"type": "node", "id": 291358307, "lat": 41.2625051, "lon": 15.9270625}, {"type": "node", "id": 291358308, "lat": 41.2624149, "lon": 15.9270596}, {"type": "node", "id": 291358309, "lat": 41.2624106, "lon": 15.9273}, {"type": "node", "id": 291358312, "lat": 41.2625008, "lon": 15.9273029}, {"type": "node", "id": 291358701, "lat": 41.2621454, "lon": 15.9277891}, {"type": "node", "id": 291358703, "lat": 41.2619562, "lon": 15.9278395}, {"type": "node", "id": 291358704, "lat": 41.2619732, "lon": 15.9279526}, {"type": "node", "id": 291358705, "lat": 41.2621624, "lon": 15.9279022}, {"type": "node", "id": 291360883, "lat": 41.2479756, "lon": 15.9624266}, {"type": "node", "id": 291360887, "lat": 41.2480543, "lon": 15.9626146}, {"type": "node", "id": 291360889, "lat": 41.2480753, "lon": 15.9626497}, {"type": "node", "id": 291360890, "lat": 41.2481324, "lon": 15.9626488}, {"type": "node", "id": 291361221, "lat": 41.2480505, "lon": 15.9623579}, {"type": "node", "id": 291361222, "lat": 41.2480515, "lon": 15.9625693}, {"type": "node", "id": 292007501, "lat": 41.2985152, "lon": 15.924423, "tags": {"amenity": "restaurant", "created_by": "Potlatch 0.10b", "name": "Al Solito Posto", "wheelchair": "limited"}}, {"type": "node", "id": 292008149, "lat": 41.2953104, "lon": 15.9313238, "tags": {"addr:city": "Cerignola", "addr:postcode": "71042", "addr:street": "SV Torre Quarto", "amenity": "restaurant", "cuisine": "pizza;regional", "name": "Il Caminetto", "outdoor_seating": "yes", "wheelchair": "yes"}}, {"type": "node", "id": 293030734, "lat": 41.2960252, "lon": 15.9316243, "tags": {"amenity": "restaurant", "name": "L'Oasi Di Claire"}}, {"type": "node", "id": 293551755, "lat": 41.2590144, "lon": 15.9164793, "tags": {"amenity": "restaurant", "name": "Bowling", "wheelchair": "yes"}}, {"type": "node", "id": 309028838, "lat": 41.172158, "lon": 16.2135968, "tags": {"amenity": "restaurant", "name": "Borgata Troianelli"}}, {"type": "node", "id": 309291079, "lat": 40.9805179, "lon": 15.6587427}, {"type": "node", "id": 309291080, "lat": 40.9804343, "lon": 15.6587956}, {"type": "node", "id": 309291081, "lat": 40.9804531, "lon": 15.658563}, {"type": "node", "id": 309291082, "lat": 40.9803695, "lon": 15.658616}, {"type": "node", "id": 309294194, "lat": 41.1774817, "lon": 16.031261, "tags": {"amenity": "restaurant", "name": "Tenuta Leone"}}, {"type": "node", "id": 309294604, "lat": 40.9682116, "lon": 16.090171, "tags": {"amenity": "restaurant", "name": "Il Grottino"}}, {"type": "node", "id": 394989626, "lat": 41.1969489, "lon": 15.8460715}, {"type": "node", "id": 394989627, "lat": 41.1972128, "lon": 15.8462108}, {"type": "node", "id": 394989631, "lat": 41.1970571, "lon": 15.8464273}, {"type": "node", "id": 394989634, "lat": 41.1970225, "lon": 15.8459691}, {"type": "node", "id": 524800599, "lat": 41.2807431, "lon": 15.9347853, "tags": {"amenity": "restaurant", "cuisine": "pizza", "name": "Bib\u00f2"}}, {"type": "node", "id": 559449818, "lat": 41.2658896, "lon": 15.9078216, "tags": {"addr:city": "Cerignola", "addr:country": "IT", "addr:housenumber": "44", "addr:postcode": "71042", "addr:street": "Via Nizza", "amenity": "cafe", "name": "Caffe' 44", "phone": "+39 0885 412652", "wheelchair": "limited"}}, {"type": "node", "id": 649113338, "lat": 41.2645869, "lon": 15.9036169, "tags": {"amenity": "cafe", "name": "Bar Blanc et Noir", "wheelchair": "no"}}, {"type": "node", "id": 649113340, "lat": 41.263899, "lon": 15.9061772, "tags": {"addr:city": "Cerignola", "addr:country": "IT", "addr:housenumber": "16", "addr:postcode": "71042", "addr:street": "Corso Aldo Moro", "amenity": "cafe", "name": "Bar Fiorella", "operator": "Fiorella, Giuseppe", "phone": "+39 0885 427025", "wheelchair": "no"}}, {"type": "node", "id": 649113341, "lat": 41.2639561, "lon": 15.9056927, "tags": {"addr:city": "Cerignola", "addr:country": "IT", "addr:housenumber": "41", "addr:postcode": "71042", "addr:street": "Via Venti Settembre", "amenity": "cafe", "name": "Bar Reale", "operator": "Perrucci, Rocco", "wheelchair": "limited"}}, {"type": "node", "id": 649113342, "lat": 41.2639672, "lon": 15.9068387, "tags": {"addr:city": "Cerignola", "addr:housenumber": "85", "addr:postcode": "71042", "addr:street": "Corso Aldo Moro", "amenity": "cafe", "name": "Pasticceria Sud", "operator": "Bonavita & Pugliese snc", "phone": "+39 0885 424996", "ref:vatin": "IT01019880713", "wheelchair": "no"}}, {"type": "node", "id": 649113353, "lat": 41.2653364, "lon": 15.908908, "tags": {"addr:city": "Cerignola", "addr:country": "IT", "addr:housenumber": "62", "addr:postcode": "71042", "addr:street": "Viale Giovanni Falcone", "amenity": "cafe", "name": "Bar dell'Angolo", "operator": "Giuseppe Gasparro & c. sas", "phone": "+39 0885 412212", "wheelchair": "limited"}}, {"type": "node", "id": 661052455, "lat": 41.2652413, "lon": 15.8835737, "tags": {"addr:city": "Cerignola", "addr:postcode": "71042", "addr:street": "Via Portofino", "amenity": "restaurant", "cuisine": "pizza", "delivery": "yes", "name": "Gambero d'Oro", "operator": "Di Reda, Francesco", "outdoor_seating": "no"}}, {"type": "node", "id": 675635460, "lat": 40.9681131, "lon": 16.0908532, "tags": {"amenity": "restaurant", "cuisine": "regional", "name": "L'Arcata"}}, {"type": "node", "id": 687136297, "lat": 40.9125831, "lon": 15.6656592, "tags": {"amenity": "restaurant", "cuisine": "italian"}}, {"type": "node", "id": 703490191, "lat": 41.191495, "lon": 15.813335, "tags": {"amenity": "restaurant", "name": "Sarni"}}, {"type": "node", "id": 708340558, "lat": 41.2645298, "lon": 15.9036083, "tags": {"amenity": "restaurant", "name": "U Vulesce", "wheelchair": "limited"}}, {"type": "node", "id": 711446140, "lat": 41.2462519, "lon": 15.9176263, "tags": {"amenity": "restaurant", "name": "Torre Brayda"}}, {"type": "node", "id": 712711788, "lat": 41.1592701, "lon": 15.9383421, "tags": {"addr:city": "Loconia", "addr:postcode": "76012", "addr:street": "Piazza Roma", "amenity": "cafe", "check_date": "2023-09-17", "name": "Bar Loconia"}}, {"type": "node", "id": 720925662, "lat": 41.265659, "lon": 15.8981593, "tags": {"amenity": "restaurant", "name": "Il Postaccio", "wheelchair": "no"}}, {"type": "node", "id": 1061540917, "lat": 41.268715, "lon": 15.9018484, "tags": {"amenity": "cafe", "name": "Bar K2", "wheelchair": "no"}}, {"type": "node", "id": 1098074224, "lat": 41.3057177, "lon": 15.8991791, "tags": {"addr:city": "Cerignola", "addr:country": "IT", "addr:postcode": "71042", "addr:street": "Via Manfredonia", "amenity": "restaurant", "contact:phone": "+39-0885-441088", "name": "Al Vecchio Casello", "operator": "Cirillo, Pasquale", "phone": "+39 0885 441088", "ref:vatin": "IT03926250717", "wheelchair": "limited"}}, {"type": "node", "id": 1137912602, "lat": 41.273237, "lon": 15.9155585, "tags": {"addr:city": "Cerignola", "addr:country": "IT", "addr:housenumber": "1/a", "addr:postcode": "71042", "addr:street": "SP 62", "amenity": "restaurant", "cuisine": "pizza;regional", "name": "L'Antico Uliveto", "phone": "+39 340 4968031", "wheelchair": "limited"}}, {"type": "node", "id": 1246704771, "lat": 41.2481075, "lon": 15.9624567}, {"type": "node", "id": 1246704905, "lat": 41.2481549, "lon": 15.9625961}, {"type": "node", "id": 1297640036, "lat": 41.2623577, "lon": 15.8902351, "tags": {"amenity": "cafe", "name": "Caf\u00e9 Parisienne", "wheelchair": "no"}}, {"type": "node", "id": 1297640037, "lat": 41.2608926, "lon": 15.8918928, "tags": {"amenity": "cafe", "name": "Bar Valentina", "wheelchair": "no"}}, {"type": "node", "id": 1297640038, "lat": 41.2630315, "lon": 15.8885504, "tags": {"addr:city": "Cerignola", "addr:housenumber": "194/a", "addr:postcode": "71042", "addr:street": "Viale di Ponente", "amenity": "cafe", "name": "Night & Day", "operator": "Defeudis, Antonietta", "ref:vatin": "IT03602340717"}}, {"type": "node", "id": 1297640039, "lat": 41.2725568, "lon": 15.8945424, "tags": {"amenity": "cafe", "name": "Bar Jolly"}}, {"type": "node", "id": 1366222527, "lat": 41.2652757, "lon": 15.8974629, "tags": {"amenity": "cafe", "indoor_seating": "yes", "name": "Bar Gorizia", "outdoor_seating": "yes", "wheelchair": "limited"}}, {"type": "node", "id": 1366222531, "lat": 41.2654035, "lon": 15.8970336, "tags": {"addr:city": "Cerignola", "addr:country": "IT", "addr:housenumber": "32", "addr:postcode": "71042", "addr:street": "Corso Giuseppe Garibaldi", "amenity": "cafe", "indoor_seating": "yes", "name": "Bar Ruocco", "operator": "Caterina, Francesco", "outdoor_seating": "no", "phone": "+39 0885 422152", "ref:vatin": "IT00481270718", "wheelchair": "limited"}}, {"type": "node", "id": 1366222596, "lat": 41.2640642, "lon": 15.9015022, "tags": {"amenity": "restaurant", "cuisine": "regional", "name": "Modus Vivendi", "wheelchair": "limited"}}, {"type": "node", "id": 1366222611, "lat": 41.2646654, "lon": 15.9011231, "tags": {"amenity": "cafe", "indoor_seating": "yes", "name": "Gran Caff\u0117 Ideal", "outdoor_seating": "yes", "wheelchair": "no"}}, {"type": "node", "id": 1366222621, "lat": 41.2646897, "lon": 15.8976343, "tags": {"amenity": "cafe", "name": "Bar Roosevelt", "wheelchair": "limited"}}, {"type": "node", "id": 1366222625, "lat": 41.2647451, "lon": 15.8972913, "tags": {"addr:city": "Cerignola", "addr:housenumber": "24", "addr:postcode": "71042", "addr:street": "Viale Franklin Delano Roosevelt", "amenity": "cafe", "internet_access": "wlan", "internet_access:fee": "no", "name": "Bistr\u00f2", "opening_hours": "24/7", "outdoor_seating": "yes", "wheelchair": "no"}}, {"type": "node", "id": 1366222637, "lat": 41.2658723, "lon": 15.8949686, "tags": {"amenity": "cafe", "wheelchair": "no"}}, {"type": "node", "id": 1366222706, "lat": 41.2661981, "lon": 15.9016572, "tags": {"amenity": "restaurant", "cuisine": "regional", "wheelchair": "no"}}, {"type": "node", "id": 1542016609, "lat": 41.2632781, "lon": 15.8967039, "tags": {"amenity": "cafe", "name": "Bar Roma", "operator": "Perrucci", "wheelchair": "no"}}, {"type": "node", "id": 1670737076, "lat": 41.0470059, "lon": 15.7932311, "tags": {"amenity": "cafe"}}, {"type": "node", "id": 1672509524, "lat": 41.0466639, "lon": 15.7942709, "tags": {"amenity": "cafe"}}, {"type": "node", "id": 1783147632, "lat": 40.9899569, "lon": 15.6479764, "tags": {"amenity": "cafe", "name": "Hollywood", "wheelchair": "yes"}}, {"type": "node", "id": 1797993737, "lat": 40.9951843, "lon": 15.6557656, "tags": {"amenity": "restaurant", "cuisine": "italian;regional;fish", "name": "Destino ristorante", "website": "http://destinoristorante.it/", "wheelchair": "limited"}}, {"type": "node", "id": 1985357589, "lat": 41.2635247, "lon": 15.9083878, "tags": {"addr:city": "Cerignola", "addr:housenumber": "42a", "addr:postcode": "71042", "addr:street": "Via Paolo Borsellino", "amenity": "cafe", "name": "La Villetta Caff\u00e9", "operator": "Graziano, Annarita", "phone": "+39 0885 440260", "ref:vatin": "IT07371770723", "source": "survey"}}, {"type": "node", "id": 1992956552, "lat": 41.2650566, "lon": 15.9079549, "tags": {"amenity": "cafe", "name": "X\u00f2 Caf\u00e9"}}, {"type": "node", "id": 1993290993, "lat": 41.266455, "lon": 15.8863467, "tags": {"amenity": "cafe", "name": "Bar Tortorella"}}, {"type": "node", "id": 2057400836, "lat": 41.2632462, "lon": 15.9126877, "tags": {"amenity": "restaurant", "cuisine": "italian", "name": "La Posada del Plaza"}}, {"type": "node", "id": 2239840168, "lat": 41.0516179, "lon": 15.7935465, "tags": {"amenity": "cafe", "name": "bar Terminal"}}, {"type": "node", "id": 2242441732, "lat": 40.9609449, "lon": 15.8093994, "tags": {"amenity": "restaurant", "name": "Spizzikomania"}}, {"type": "node", "id": 2301166351, "lat": 41.2904055, "lon": 15.8397587, "tags": {"amenity": "restaurant", "name": "Villa Demetra", "note": "E' una sala ricevimenti"}}, {"type": "node", "id": 2408599864, "lat": 41.0294393, "lon": 15.9691883, "tags": {"amenity": "restaurant"}}, {"type": "node", "id": 2652421583, "lat": 41.2883554, "lon": 15.7676853, "tags": {"addr:city": "Stornara", "addr:postcode": "71047", "addr:street": "Corso Vittorio Emanuele", "amenity": "restaurant", "name": "Pizzeria"}}, {"type": "node", "id": 2652427536, "lat": 41.2878905, "lon": 15.7675456, "tags": {"addr:city": "Stornara", "addr:postcode": "71047", "addr:street": "Corso Vittorio Emanuele", "amenity": "restaurant", "name": "Pizzeria Ristorante"}}, {"type": "node", "id": 3481333569, "lat": 40.9917147, "lon": 15.6458633, "tags": {"amenity": "cafe", "wheelchair": "limited"}}, {"type": "node", "id": 3481354654, "lat": 40.9932934, "lon": 15.644329, "tags": {"addr:city": "Melfi", "addr:housenumber": "44", "addr:postcode": "85025", "addr:street": "Via Aldo Moro", "amenity": "cafe", "name": "FarinAmi", "phone": "+39 0972 470344", "wheelchair": "limited"}}, {"type": "node", "id": 3482200031, "lat": 40.9940155, "lon": 15.6532198, "tags": {"amenity": "restaurant", "name": "Pizzeria Sole di Mezzanotte", "wheelchair": "yes"}}, {"type": "node", "id": 3483919180, "lat": 40.995367, "lon": 15.6558699, "tags": {"amenity": "cafe", "name": "Pizza e Jazz", "wheelchair": "no"}}, {"type": "node", "id": 3483950308, "lat": 40.994746, "lon": 15.6509605, "tags": {"amenity": "restaurant", "name": "Pizzeria Hora Sesta", "wheelchair": "limited"}}, {"type": "node", "id": 3483955553, "lat": 40.9947045, "lon": 15.6569453, "tags": {"amenity": "restaurant", "name": "Ristorante Lucano", "wheelchair": "no"}}, {"type": "node", "id": 3483957231, "lat": 40.9961029, "lon": 15.6396616, "tags": {"amenity": "restaurant", "name": "Pizzeria ReSole", "wheelchair": "yes"}}, {"type": "node", "id": 3483964389, "lat": 40.9968312, "lon": 15.6572592, "tags": {"amenity": "restaurant", "name": "Delle Rose", "wheelchair": "no"}}, {"type": "node", "id": 3483968389, "lat": 40.9934719, "lon": 15.6540427, "tags": {"addr:city": "Melfi", "addr:housenumber": "6", "addr:postcode": "85025", "addr:street": "Via Gabriele D'Annunzio", "amenity": "restaurant", "cuisine": "pizza", "name": "Pizzeria Sfizio", "wheelchair": "yes"}}, {"type": "node", "id": 3486306001, "lat": 40.9900386, "lon": 15.652931, "tags": {"addr:city": "Melfi", "addr:housenumber": "27", "addr:postcode": "85025", "addr:street": "Via Gabriele D'Annunzio", "amenity": "restaurant", "contact:facebook": "https://www.facebook.com/muranoricevimenti/", "contact:instagram": "https://www.instagram.com/muranoricevimenti/", "name": "Sala Murano", "phone": "+39 0972 236611", "website": "https://www.muranoricevimenti.com/", "wheelchair": "yes"}}, {"type": "node", "id": 3486319434, "lat": 40.9957558, "lon": 15.6426688, "tags": {"amenity": "cafe", "name": "Bar - Pasticceria", "wheelchair": "limited"}}, {"type": "node", "id": 3618142584, "lat": 41.1971402, "lon": 15.8806512, "tags": {"addr:city": "Cerignola", "addr:street:full": "SP 143 Km. 7", "amenity": "restaurant", "contact:facebook": "https://m.facebook.com/SantaLuciaRistoranteCerignola/?_rdr", "cuisine": "seafood", "name": "Santa Lucia", "phone": "+39 376 008 0221"}}, {"type": "node", "id": 3775070158, "lat": 41.2742314, "lon": 15.8873327, "tags": {"amenity": "cafe", "name": "Bar Cinque Stelle", "operator": "Amoruso, Pasquale", "ref:vatin": "IT03639380710", "wheelchair": "no"}}, {"type": "node", "id": 4004390105, "lat": 41.217843, "lon": 16.0771437, "tags": {"amenity": "cafe"}}, {"type": "node", "id": 4007994135, "lat": 41.2117783, "lon": 16.0777073, "tags": {"amenity": "cafe"}}, {"type": "node", "id": 4016638481, "lat": 41.2258742, "lon": 16.0606164, "tags": {"amenity": "restaurant", "cuisine": "pizza", "name": "Carbon dolce pizzeria"}}, {"type": "node", "id": 4016639811, "lat": 41.2246353, "lon": 16.0618783, "tags": {"amenity": "restaurant", "name": "Antico Borgo"}}, {"type": "node", "id": 4082041439, "lat": 41.1968668, "lon": 15.8461856}, {"type": "node", "id": 4082070153, "lat": 41.2480627, "lon": 15.9625585}, {"type": "node", "id": 4082070166, "lat": 41.2480816, "lon": 15.9625876}, {"type": "node", "id": 4082070257, "lat": 41.2481587, "lon": 15.9624085}, {"type": "node", "id": 4082070322, "lat": 41.2482245, "lon": 15.9625293}, {"type": "node", "id": 4082123709, "lat": 41.2667549, "lon": 15.9064646}, {"type": "node", "id": 4082123889, "lat": 41.26691, "lon": 15.9063028}, {"type": "node", "id": 4082124013, "lat": 41.2669184, "lon": 15.9065699}, {"type": "node", "id": 4082124178, "lat": 41.2669968, "lon": 15.9064501}, {"type": "node", "id": 4082124207, "lat": 41.2670107, "lon": 15.9064736}, {"type": "node", "id": 4096327810, "lat": 41.2014135, "lon": 16.082405, "tags": {"addr:city": "Canosa di Puglia", "addr:housenumber": "184", "addr:postcode": "76012", "addr:street": "Via Corsica", "amenity": "restaurant", "name": "Il Giardino del Mago", "phone": "+39 0883 664100"}}, {"type": "node", "id": 4096552525, "lat": 41.2110707, "lon": 16.0785872}, {"type": "node", "id": 4096552526, "lat": 41.2110712, "lon": 16.0785891}, {"type": "node", "id": 4096552527, "lat": 41.2110713, "lon": 16.0786217}, {"type": "node", "id": 4096552532, "lat": 41.2110787, "lon": 16.0786182}, {"type": "node", "id": 4096552554, "lat": 41.2111075, "lon": 16.0787625}, {"type": "node", "id": 4096552616, "lat": 41.2111762, "lon": 16.0785296}, {"type": "node", "id": 4096552628, "lat": 41.211187, "lon": 16.0785597}, {"type": "node", "id": 4096552635, "lat": 41.211192, "lon": 16.0783946}, {"type": "node", "id": 4096552645, "lat": 41.2112081, "lon": 16.0785466}, {"type": "node", "id": 4096552657, "lat": 41.2112278, "lon": 16.0784609}, {"type": "node", "id": 4096552662, "lat": 41.2112337, "lon": 16.0784511}, {"type": "node", "id": 4096552663, "lat": 41.2112347, "lon": 16.0786133}, {"type": "node", "id": 4096552668, "lat": 41.2112414, "lon": 16.0786075}, {"type": "node", "id": 4096552676, "lat": 41.2112463, "lon": 16.0786062}, {"type": "node", "id": 4096552679, "lat": 41.2112498, "lon": 16.0784909}, {"type": "node", "id": 4096552682, "lat": 41.211253, "lon": 16.0786088}, {"type": "node", "id": 4096552889, "lat": 41.2112586, "lon": 16.0784829}, {"type": "node", "id": 4096552890, "lat": 41.2112603, "lon": 16.0786914}, {"type": "node", "id": 4096552892, "lat": 41.2112629, "lon": 16.0787}, {"type": "node", "id": 4096552895, "lat": 41.2112662, "lon": 16.0787021}, {"type": "node", "id": 4096552896, "lat": 41.2112667, "lon": 16.0785017}, {"type": "node", "id": 4096552902, "lat": 41.2112728, "lon": 16.0787019}, {"type": "node", "id": 4096552906, "lat": 41.2112785, "lon": 16.0787001}, {"type": "node", "id": 4096552910, "lat": 41.2112818, "lon": 16.0783229}, {"type": "node", "id": 4096552911, "lat": 41.2112851, "lon": 16.0786958}, {"type": "node", "id": 4096552920, "lat": 41.2112994, "lon": 16.0785768}, {"type": "node", "id": 4096552938, "lat": 41.21133, "lon": 16.0784491}, {"type": "node", "id": 4096552940, "lat": 41.2113332, "lon": 16.078664}, {"type": "node", "id": 4096552982, "lat": 41.2113857, "lon": 16.0784261}, {"type": "node", "id": 4096553113, "lat": 41.2114144, "lon": 16.0784882}, {"type": "node", "id": 4096553126, "lat": 41.2114189, "lon": 16.078498}, {"type": "node", "id": 4096553169, "lat": 41.2114437, "lon": 16.0785911}, {"type": "node", "id": 4096553182, "lat": 41.2114476, "lon": 16.0785885}, {"type": "node", "id": 4096553292, "lat": 41.2114508, "lon": 16.0785829}, {"type": "node", "id": 4096553295, "lat": 41.2114523, "lon": 16.0785703}, {"type": "node", "id": 4096576798, "lat": 41.2218882, "lon": 16.0730014}, {"type": "node", "id": 4096576834, "lat": 41.2219099, "lon": 16.0728265}, {"type": "node", "id": 4096576859, "lat": 41.2219258, "lon": 16.0728299}, {"type": "node", "id": 4096576878, "lat": 41.2219345, "lon": 16.0727604}, {"type": "node", "id": 4096577002, "lat": 41.2219964, "lon": 16.0727911}, {"type": "node", "id": 4096577003, "lat": 41.2219985, "lon": 16.0727744}, {"type": "node", "id": 4096577015, "lat": 41.222005, "lon": 16.0730269}, {"type": "node", "id": 4096577131, "lat": 41.2220333, "lon": 16.0727991}, {"type": "node", "id": 4200278890, "lat": 41.3349396, "lon": 15.9069053, "tags": {"amenity": "restaurant", "name": "Giardini Jemma Resort"}}, {"type": "node", "id": 4421987090, "lat": 41.1722531, "lon": 16.1410999, "tags": {"addr:housenumber": "10", "addr:street": "Piazza Sant'Isidoro", "amenity": "restaurant", "cuisine": "buschenschank;regional;diner", "name": "Antichi sapori", "name:en": "Antichi sapori", "name:it": "Antichi sapori", "operator": "Pietro Zito", "phone": "+39 0883 569529", "website": "https://www.pietrozito.it/"}}, {"type": "node", "id": 4422047289, "lat": 41.0888314, "lon": 16.0801269, "tags": {"addr:street": "Vico III Vescovado", "amenity": "restaurant", "cuisine": "regional;diner", "name": "Casa Scesciola", "name:en": "Casa Scesciola", "name:it": "Casa Scesciola", "phone": "+39 0883 695932", "website": "http://www.casascesciola.it"}}, {"type": "node", "id": 4623266161, "lat": 41.2594947, "lon": 15.894578, "tags": {"addr:housenumber": "61", "addr:street": "Viale di Ponente", "amenity": "cafe", "name": "Bar Pasticceria Graziano", "operator": "Graziano, Francesco", "phone": "+39-348-0149557", "ref:vatin": "IT03268050717", "shop": "pastry"}}, {"type": "node", "id": 4663256387, "lat": 41.1497935, "lon": 16.0860726, "tags": {"amenity": "restaurant", "cuisine": "italian", "level": "0", "name": "Masseria Barbera"}}, {"type": "node", "id": 4666085632, "lat": 41.3007885, "lon": 15.8495941, "tags": {"amenity": "restaurant", "level": "0", "name": "Torre Giulia"}}, {"type": "node", "id": 4695351231, "lat": 41.2634761, "lon": 15.9118649, "tags": {"amenity": "cafe", "level": "0", "name": "Maxi Bar", "outdoor_seating": "yes", "takeaway": "yes"}}, {"type": "node", "id": 4725457254, "lat": 41.3112319, "lon": 16.0921667, "tags": {"amenity": "cafe", "level": "0", "name": "Di Benedetto Caff\u0117", "operator": "Di Benedetto srl", "outdoor_seating": "yes", "takeaway": "yes"}}, {"type": "node", "id": 4755841191, "lat": 41.2658354, "lon": 15.8875334, "tags": {"addr:city": "Cerignola", "addr:postcode": "71042", "addr:street": "Viale di Ponente", "amenity": "restaurant", "cuisine": "pizza", "delivery": "yes", "name": "Lo Chalet", "outdoor_seating": "no", "smoking": "no", "takeaway": "yes"}}, {"type": "node", "id": 4756272763, "lat": 41.2669027, "lon": 15.9064661, "tags": {"addr:city": "Cerignola", "addr:housenumber": "77", "addr:postcode": "71042", "addr:street": "Via Plebiscito", "amenity": "restaurant", "cuisine": "italian_pizza", "name": "Plebiscito 77", "outdoor_seating": "yes"}}, {"type": "node", "id": 4798077706, "lat": 41.1710979, "lon": 16.1028619, "tags": {"amenity": "restaurant", "level": "0", "name": "Villa Carafa", "note": "Sala ricevimenti"}}, {"type": "node", "id": 4826545900, "lat": 41.2001601, "lon": 16.0741145, "tags": {"amenity": "restaurant", "cuisine": "italian", "name": "La Corte di Opaka", "note": "Sala ricevimenti"}}, {"type": "node", "id": 4955088791, "lat": 41.2710202, "lon": 15.8975554, "tags": {"addr:city": "Cerignola", "addr:postcode": "71042", "addr:street": "Corso Vecchio", "amenity": "restaurant", "name": "Pizzeria Corso Vecchio"}}, {"type": "node", "id": 4987841669, "lat": 41.2146275, "lon": 16.0719593}, {"type": "node", "id": 4987841670, "lat": 41.2147828, "lon": 16.0724291}, {"type": "node", "id": 4987841671, "lat": 41.2146727, "lon": 16.0725}, {"type": "node", "id": 4987841672, "lat": 41.214527, "lon": 16.072014}, {"type": "node", "id": 4989901146, "lat": 41.2116345, "lon": 16.0786951, "tags": {"addr:city": "Canosa di Puglia", "addr:postcode": "76012", "addr:street": "Piazza Oristano", "amenity": "restaurant", "name": "Villa Torre Caracciolo", "opening_hours": "20:00+", "phone": "+39 0883 664642", "website": "ristorantevillacaracciolo.it"}}, {"type": "node", "id": 4992693994, "lat": 41.2172381, "lon": 16.0736463, "tags": {"addr:city": "Canosa di Puglia", "addr:country": "IT", "addr:housenumber": "21", "addr:postcode": "76012", "addr:province": "Barletta-Andria-Trani", "addr:street": "Via Peppino Impastato", "amenity": "restaurant", "name": "Coll\u0112xstro", "phone": "+39 347 0195785", "website": "https://www.instagram.com/collexstro/"}}, {"type": "node", "id": 4992693998, "lat": 41.2190128, "lon": 16.0703711, "tags": {"addr:city": "Canosa di Puglia", "addr:country": "IT", "addr:housenumber": "29b", "addr:postcode": "76012", "addr:province": "Barletta-Andria-Trani", "addr:street": "Via Corsica", "amenity": "restaurant", "name": "Pizzeria Tip Top"}}, {"type": "node", "id": 4997253360, "lat": 41.2127986, "lon": 16.078052, "tags": {"addr:city": "Canosa di Puglia", "addr:country": "IT", "addr:housenumber": "44-46", "addr:postcode": "76012", "addr:province": "Barletta-Andria-Trani", "addr:street": "Via Ugo La Malfa", "amenity": "restaurant", "name": "Ristorante La Terrazza", "opening_hours": "Mo-Su 20:00-24:00", "phone": "+39 348 3437720", "website": "ristopizzalaterrazza.it"}}, {"type": "node", "id": 5041266323, "lat": 40.9380343, "lon": 15.9735974, "tags": {"addr:street": "Viale Villa d'Errico", "amenity": "restaurant", "cuisine": "italian;pizza", "name": "Da Canio"}}, {"type": "node", "id": 5177232439, "lat": 41.2627777, "lon": 15.8958857, "tags": {"addr:city": "Cerignola", "addr:postcode": "71042", "addr:street": "Via Giuseppe Pavoncelli", "amenity": "restaurant", "cuisine": "pizza;regional;italian", "delivery": "no", "level": "-1", "name": "Gold Fashion", "outdoor_seating": "yes", "toilets": "yes"}}, {"type": "node", "id": 5196972123, "lat": 41.2633106, "lon": 15.8982494, "tags": {"addr:city": "Cerignola", "addr:housenumber": "25", "addr:postcode": "71042", "addr:street": "Via Bologna", "amenity": "restaurant", "cuisine": "pizza", "name": "Pizzeria 10 Fontane", "outdoor_seating": "yes", "takeaway": "yes"}}, {"type": "node", "id": 5352039896, "lat": 41.2648559, "lon": 15.9003665}, {"type": "node", "id": 5352039897, "lat": 41.2648182, "lon": 15.9003547}, {"type": "node", "id": 5352039898, "lat": 41.2648112, "lon": 15.9003942}, {"type": "node", "id": 5352039899, "lat": 41.2648489, "lon": 15.900406}, {"type": "node", "id": 5586567415, "lat": 40.9901696, "lon": 15.648249, "tags": {"addr:housenumber": "37", "addr:postcode": "85025", "addr:street": "Via Gabriele D'Annunzio", "amenity": "restaurant", "diet:gluten_free": "yes", "name": "Sole di Mezzanotte", "operator": "Michele Sonessa"}}, {"type": "node", "id": 5593989616, "lat": 40.9941694, "lon": 15.6539737}, {"type": "node", "id": 5593989748, "lat": 40.9941626, "lon": 15.6539089}, {"type": "node", "id": 5593990199, "lat": 40.994229, "lon": 15.653963}, {"type": "node", "id": 5593990208, "lat": 40.994226, "lon": 15.6539345}, {"type": "node", "id": 5600200899, "lat": 40.9437872, "lon": 15.6733186, "tags": {"addr:city": "Barile", "addr:postcode": "85022", "addr:street": "Viale Ten. Attilio Corrubia", "amenity": "restaurant", "capacity": "60", "contact:phone": "+393200737061", "cuisine": "regional;italian", "name": "Il Boschetto", "opening_hours": "10:00-22:00", "outdoor_seating": "yes", "smoking": "outside", "takeaway": "yes"}}, {"type": "node", "id": 5620477442, "lat": 40.9964589, "lon": 15.6558292, "tags": {"addr:city": "Melfi", "addr:housenumber": "1", "addr:postcode": "85025", "addr:street": "Piazza Giuseppe D'Addezio Toga Doro", "amenity": "restaurant", "cuisine": "pizza;regional;italian", "delivery": "no", "description": "Pizza al taglio, al piatto e d'asporto. Catering per eventi di ogni tipo.Cucina Tipica", "name": "La Taverna Del Borgo Da Felice - Pizzeria Ristorante", "outdoor_seating": "yes", "phone": "+39 0972 727799", "takeaway": "yes", "website": "https://www.facebook.com/Taverna-del-Borgo-457570717785403/"}}, {"type": "node", "id": 5809183894, "lat": 40.9595532, "lon": 15.8038688}, {"type": "node", "id": 5809183895, "lat": 40.9595532, "lon": 15.8039926}, {"type": "node", "id": 5809183896, "lat": 40.9595235, "lon": 15.8039993}, {"type": "node", "id": 5809183897, "lat": 40.9595298, "lon": 15.8041676}, {"type": "node", "id": 5809183898, "lat": 40.9596442, "lon": 15.8041567}, {"type": "node", "id": 5809183899, "lat": 40.9596796, "lon": 15.8041534}, {"type": "node", "id": 5809183900, "lat": 40.9597175, "lon": 15.804083}, {"type": "node", "id": 5809183901, "lat": 40.9596948, "lon": 15.8039424}, {"type": "node", "id": 5809183902, "lat": 40.9596442, "lon": 15.8039458}, {"type": "node", "id": 5809183903, "lat": 40.9596417, "lon": 15.8038654}, {"type": "node", "id": 6124344083, "lat": 41.2111319, "lon": 16.0785538}, {"type": "node", "id": 6124344392, "lat": 41.2112365, "lon": 16.0787025}, {"type": "node", "id": 7122619075, "lat": 41.2658005, "lon": 15.9082496, "tags": {"addr:city": "Cerignola", "addr:housenumber": "56", "addr:postcode": "71042", "addr:street": "Via Nizza", "amenity": "restaurant", "cuisine": "japanese;chinese", "name": "Hana - Sushi Experience", "phone": "+39 348 609 1196"}}, {"type": "node", "id": 7122762027, "lat": 41.2658733, "lon": 15.9079416, "tags": {"addr:city": "Cerignola", "addr:housenumber": "48", "addr:postcode": "71042", "addr:street": "Via Nizza", "amenity": "restaurant", "cuisine": "italian;mediterranean;fish", "name": "La Volpe e L'Uva", "phone": "+39 348 894 1511"}}, {"type": "node", "id": 7220937480, "lat": 41.2908095, "lon": 15.8397003, "tags": {"amenity": "restaurant", "name": "Figli di Puglia"}}, {"type": "node", "id": 7618334316, "lat": 41.2608812, "lon": 15.9058475, "tags": {"amenity": "restaurant", "name": "Il Paladino"}}, {"type": "node", "id": 8298044017, "lat": 40.9606342, "lon": 15.8192768, "tags": {"amenity": "restaurant", "name": "D'Avalos"}}, {"type": "node", "id": 8563861564, "lat": 40.9143172, "lon": 15.9528315, "tags": {"amenity": "restaurant", "name": "Il Rifugio"}}, {"type": "node", "id": 9113005507, "lat": 40.9924918, "lon": 15.654037, "tags": {"addr:city": "Melfi", "addr:postcode": "85025", "addr:street": "Via Gabriele D'Annunzio", "amenity": "cafe", "name": "Dolce Arte", "outdoor_seating": "yes"}}, {"type": "node", "id": 9113005510, "lat": 40.9918177, "lon": 15.6533899, "tags": {"addr:city": "Melfi", "addr:housenumber": "48", "addr:postcode": "85025", "addr:street": "Via Gabriele D'Annunzio", "amenity": "cafe", "cuisine": "coffee_shop", "name": "Night and Day"}}, {"type": "node", "id": 9113005514, "lat": 40.9916168, "lon": 15.6532887, "tags": {"addr:city": "Melfi", "addr:housenumber": "58", "addr:postcode": "85025", "addr:street": "Via Gabriele D'Annunzio", "amenity": "restaurant", "cuisine": "italian", "name": "Miseria e nobilt\u00e0"}}, {"type": "node", "id": 9234837080, "lat": 40.965891, "lon": 16.0918714, "tags": {"amenity": "restaurant", "cuisine": "pizza", "name": "Pizzeria Rosticceria La Nicchia"}}, {"type": "node", "id": 9234837085, "lat": 40.9643155, "lon": 16.0965941, "tags": {"amenity": "restaurant", "cuisine": "pizza", "name": "Pizzeria Ristorante Mikad\u00f2"}}, {"type": "node", "id": 9234999439, "lat": 40.9657971, "lon": 16.0945463, "tags": {"addr:city": "Spinazzola", "addr:housenumber": "204", "addr:postcode": "76014", "addr:street": "Corso Umberto I", "amenity": "restaurant", "contact:facebook": "buccominobistrot", "contact:instagram": "buccomino_bistrot", "email": "info@buccominobistrot.it", "name": "Buccomino Bistrot", "opening_hours": "Tu-Su 05:30-24:00", "phone": "+39 0883 681862", "website": "https://buccominobistrot.it/"}}, {"type": "node", "id": 9235902470, "lat": 40.9662746, "lon": 16.0937908, "tags": {"addr:city": "Spinazzola", "addr:postcode": "76014", "addr:street": "Corso Umberto I", "amenity": "cafe", "name": "Bar Luisa"}}, {"type": "node", "id": 9236090574, "lat": 40.9600088, "lon": 16.0989894, "tags": {"amenity": "restaurant", "cuisine": "italian_pizza;pasta;pastry", "name": "Bar New Residence"}}, {"type": "node", "id": 9306356747, "lat": 40.9293565, "lon": 15.9881376, "tags": {"amenity": "cafe"}}, {"type": "node", "id": 9474135917, "lat": 41.214881, "lon": 16.047618, "tags": {"amenity": "restaurant", "name": "Bologna"}}, {"type": "node", "id": 9474162419, "lat": 41.2869216, "lon": 15.8432128, "tags": {"amenity": "restaurant", "name": "Agriturismo", "name:it": "Agriturismo Oasi le Fontanelle"}}, {"type": "node", "id": 9603653551, "lat": 41.2652899, "lon": 15.9118789, "tags": {"addr:city": "Cerignola", "addr:street": "Via Luigi Pirandello", "amenity": "restaurant", "cuisine": "pizza", "name": "Pizzeria Pulcinella", "opening_hours": "Mo-Su 10:00-20:00", "phone": "3894603285", "website": "https://www.pizzeriapulcinella.com/"}}, {"type": "node", "id": 10024914317, "lat": 41.0452024, "lon": 15.7914039, "tags": {"amenity": "cafe", "name": "Il Gelato del Pasticciere"}}, {"type": "node", "id": 10282089335, "lat": 40.996073, "lon": 15.6554045, "tags": {"addr:city": "Melfi", "addr:housenumber": "2", "addr:postcode": "85025", "addr:street": "Via Francesco Saverio Nitti", "amenity": "cafe", "name": "Bar Nazionale"}}, {"type": "node", "id": 10282089383, "lat": 40.9944792, "lon": 15.6422333, "tags": {"addr:city": "Melfi", "addr:postcode": "85025", "addr:street": "Via Aldo Moro", "amenity": "cafe", "name": "Tiger Bar", "outdoor_seating": "no"}}, {"type": "node", "id": 11109487470, "lat": 41.3193988, "lon": 15.9003158, "tags": {"addr:city": "Cerignola", "addr:postcode": "71042", "addr:street": "Strada Provinciale 77 Rivolese", "air_conditioning": "yes", "amenity": "cafe", "check_date": "2023-08-12", "cuisine": "regional", "name": "Special Bar", "operator": "Maria Colonna", "payment:bancomat": "yes", "payment:cash": "yes", "payment:mastercard": "yes", "payment:visa": "yes", "payment:visa_debit": "yes", "payment:visa_electron": "yes", "takeaway": "yes", "toilets": "yes", "wheelchair": "yes"}}, {"type": "node", "id": 11248199911, "lat": 41.1723793, "lon": 16.14076, "tags": {"addr:city": "Andria", "addr:country": "IT", "addr:hamlet": "Montegrosso", "addr:housenumber": "3", "addr:postcode": "76123", "addr:province": "Barletta-Andria-Trani", "addr:street": "Piazza Sant'Isidoro", "amenity": "cafe", "check_date": "2023-10-08", "name": "Le Delizie Dei Massari", "operator": "Zingaro Ilaria", "ref:vatin": "IT08151470724"}}, {"type": "node", "id": 11257293235, "lat": 41.3059127, "lon": 16.0741147, "tags": {"addr:city": "San Ferdinando di Puglia", "addr:housenumber": "83", "addr:postcode": "76017", "addr:street": "Via Ruggiero Grieco", "amenity": "restaurant", "cuisine": "pizza", "diet:gluten_free": "yes", "name": "Pizzeria 2000", "opening_hours": "Mo-Su 18:30-00:00"}}, {"type": "node", "id": 11309551969, "lat": 41.0777604, "lon": 16.0838073, "tags": {"addr:place": "Interno Villa faro", "addr:postcode": "76013", "amenity": "cafe", "check_date": "2024-09-01", "name": "Bar Villa Faro", "operator": "Palo Nicola", "ref:vatin": "IT03626990729"}}, {"type": "node", "id": 11795494767, "lat": 41.1071015, "lon": 15.8956423}, {"type": "node", "id": 11795494768, "lat": 41.1070757, "lon": 15.8955327}, {"type": "node", "id": 11795494769, "lat": 41.1070292, "lon": 15.8955203}, {"type": "node", "id": 11795494770, "lat": 41.1070012, "lon": 15.8955478}, {"type": "node", "id": 11795494771, "lat": 41.1070113, "lon": 15.8955578}, {"type": "node", "id": 11795494772, "lat": 41.1069476, "lon": 15.8956671}, {"type": "node", "id": 11795494773, "lat": 41.1069744, "lon": 15.895692}, {"type": "node", "id": 11795494774, "lat": 41.1069719, "lon": 15.8957007}, {"type": "node", "id": 11795494775, "lat": 41.1070037, "lon": 15.8957154}, {"type": "node", "id": 11795494776, "lat": 41.1069866, "lon": 15.8957651}, {"type": "node", "id": 11795494777, "lat": 41.1070042, "lon": 15.8958254}, {"type": "node", "id": 11795494778, "lat": 41.1070517, "lon": 15.8958509}, {"type": "node", "id": 11795494779, "lat": 41.1070962, "lon": 15.8958066}, {"type": "node", "id": 11795494780, "lat": 41.1071164, "lon": 15.8958368}, {"type": "node", "id": 11795494781, "lat": 41.1071356, "lon": 15.8959159}, {"type": "node", "id": 11795494782, "lat": 41.1071629, "lon": 15.8958717}, {"type": "node", "id": 11795494783, "lat": 41.1071715, "lon": 15.895867}, {"type": "node", "id": 11795494784, "lat": 41.1071876, "lon": 15.8958395}, {"type": "node", "id": 11795494785, "lat": 41.1071962, "lon": 15.8958167}, {"type": "node", "id": 11795494786, "lat": 41.1072089, "lon": 15.8957905}, {"type": "node", "id": 11795494787, "lat": 41.1072063, "lon": 15.8957436}, {"type": "node", "id": 11884849965, "lat": 41.3027998, "lon": 16.0672541, "tags": {"addr:city": "San Ferdinando Di Puglia", "addr:housenumber": "39", "addr:postcode": "76017", "addr:street": "Piazza della Costituzione", "amenity": "cafe", "check_date": "2024-05-05", "cuisine": "ice_cream", "name": "Heaven Caf\u00e8", "ref:vatin": "IT08445250726"}}, {"type": "node", "id": 11991630938, "lat": 40.9909345, "lon": 15.6531393, "tags": {"addr:city": "Melfi", "addr:housenumber": "23", "addr:postcode": "85025", "addr:street": "Via Gabriele D'Annunzio", "amenity": "restaurant", "cuisine": "italian;lucana;regional", "name": "Trattoria Oasi Gialloverde", "opening_hours": "Mo-Fr 12:30-15:00, 19:00-24:00; Sa 12:30-15:00, 19:00-01:00; Su 12:30-15:00", "outdoor_seating": "yes", "phone": "0972 23414", "reservation": "yes", "toilets": "yes", "website": "https://www.facebook.com/TrattoriaOasiGialloverde/", "wheelchair": "yes"}}, {"type": "node", "id": 12160414949, "lat": 41.3119622, "lon": 16.0840461, "tags": {"amenity": "cafe", "shop": "tobacco"}}, {"type": "node", "id": 12160414950, "lat": 41.3164638, "lon": 16.1190194, "tags": {"amenity": "cafe"}}, {"type": "node", "id": 12306763401, "lat": 41.2220509, "lon": 16.065744, "tags": {"amenity": "restaurant", "cuisine": "regional", "name": "Osteria La Capannina", "outdoor_seating": "yes", "phone": "+39 0883 617350"}}, {"type": "node", "id": 12506622601, "lat": 41.2223934, "lon": 16.0665938, "tags": {"amenity": "cafe", "name": "Casa del caff\u00e8"}}, {"type": "node", "id": 12860979614, "lat": 41.0909141, "lon": 16.076792, "tags": {"amenity": "cafe", "check_date": "2025-05-24"}}, {"type": "way", "id": 26572140, "nodes": [291358307, 291358308, 291358309, 291358312, 291358307], "tags": {"amenity": "restaurant", "name": "Trattoria Veronese"}}, {"type": "way", "id": 26572159, "nodes": [291358701, 291358703, 291358704, 291358705, 291358701], "tags": {"amenity": "cafe", "name": "Caffe Veronese"}}, {"type": "way", "id": 26572254, "nodes": [4082070322, 4082070257, 1246704771, 291361221, 291360883, 291361222, 4082070153, 4082070166, 291360887, 291360889, 291360890, 1246704905, 4082070322], "tags": {"amenity": "restaurant", "name": "Il Casale"}}, {"type": "way", "id": 28158950, "nodes": [309291079, 309291081, 309291082, 309291080, 309291079], "tags": {"amenity": "restaurant", "building": "yes", "name": "Agriturismo Sant'Agata", "wheelchair": "limited"}}, {"type": "way", "id": 34399581, "nodes": [394989626, 4082041439, 394989631, 394989627, 394989634, 394989626], "tags": {"amenity": "restaurant", "cuisine": "regional", "name": "Agriturismo Il Sole"}}, {"type": "way", "id": 406108619, "nodes": [4082124013, 4082123709, 4082123889, 4082124178, 4082124207, 4082124013], "tags": {"addr:city": "Cerignola", "addr:housenumber": "77", "addr:postcode": "71042", "addr:street": "Via Plebiscito", "amenity": "restaurant", "building": "yes", "cuisine": "pizza", "layer": "1", "name": "Plebiscito 77"}}, {"type": "way", "id": 407614816, "nodes": [4096552526, 4096552525, 6124344083, 4096552616, 4096552628, 4096552645, 4096552663, 4096552668, 4096552676, 4096552682, 4096552920, 4096552896, 4096552889, 4096552679, 4096552657, 4096552662, 4096552635, 4096552910, 4096552938, 4096552982, 4096553113, 4096553126, 4096553295, 4096553292, 4096553182, 4096553169, 4096552940, 4096552911, 4096552906, 4096552902, 4096552895, 4096552892, 4096552890, 6124344392, 4096552554, 4096552527, 4096552532, 4096552526], "tags": {"amenity": "restaurant", "building": "yes", "name": "Villa Caracciolo"}}, {"type": "way", "id": 407616947, "nodes": [4096577015, 4096576798, 4096576834, 4096576859, 4096576878, 4096577003, 4096577002, 4096577131, 4096577015], "tags": {"amenity": "restaurant", "building": "yes"}}, {"type": "way", "id": 509570419, "nodes": [4987841669, 4987841670, 4987841671, 4987841672, 4987841669], "tags": {"addr:city": "Canosa di Puglia", "addr:housenumber": "84", "addr:postcode": "76012", "addr:street": "Via Corsica", "amenity": "restaurant", "building": "yes", "description": "Location per matrimoni: Passeggiando nel parco, incontriamo un susseguirsi di meravigliosi scenari che suggeriscono scorci di grande effetto per servizi fotografici. I viali costeggiati da alte palme esotiche e piante tipiche dell\u2019area mediterranea.", "name": "Lo Smeraldo", "phone": "+39 0883 613834", "website": "https://www.losmeraldo.it/"}}, {"type": "way", "id": 554591812, "nodes": [5352039896, 5352039897, 5352039898, 5352039899, 5352039896], "tags": {"amenity": "cafe", "building": "kiosk", "indoor_seating": "yes", "name": "Il Chioschetto del Duomo", "outdoor_seating": "yes"}}, {"type": "way", "id": 585348410, "nodes": [5593989616, 5593989748, 5593990208, 5593990199, 5593989616], "tags": {"amenity": "cafe", "building": "yes", "name": "Piccolo bar"}}, {"type": "way", "id": 614086888, "nodes": [5809183894, 5809183895, 5809183896, 5809183897, 5809183898, 5809183899, 5809183900, 5809183901, 5809183902, 5809183903, 5809183894], "tags": {"amenity": "restaurant", "building": "yes", "name": "La Pineta"}}, {"type": "way", "id": 1270374199, "nodes": [11795494787, 11795494786, 11795494785, 11795494784, 11795494783, 11795494782, 11795494781, 11795494780, 11795494779, 11795494778, 11795494777, 11795494776, 11795494775, 11795494774, 11795494773, 11795494772, 11795494771, 11795494770, 11795494769, 11795494768, 11795494767, 11795494787], "tags": {"amenity": "restaurant", "building": "yes", "contact:email": "info@terredigaudio.com", "contact:facebook": "https://www.facebook.com/terredigaudio.it", "contact:phone": "+39 391 794 2924", "contact:website": "https://www.terredigaudio.com/", "name": "Terre di Gaudio"}}]}