{"version": 0.6, "generator": "Overpass API 0.7.62.7 375dc00a", "osm3s": {"timestamp_osm_base": "2025-06-14T14:35:15Z", "copyright": "The data included in this document is from www.openstreetmap.org. The data is made available under ODbL."}, "elements": [{"type": "node", "id": 913682528, "lat": 37.906963, "lon": 20.705332, "tags": {"amenity": "restaurant", "cuisine": "regional", "name": "La Grotta"}}, {"type": "node", "id": 913682619, "lat": 37.9078516, "lon": 20.7057201, "tags": {"amenity": "restaurant", "cuisine": "regional", "name:en": "La Storia"}}, {"type": "node", "id": 913682648, "lat": 37.9062913, "lon": 20.7056461, "tags": {"amenity": "restaurant", "cuisine": "regional", "name": "Porto Taverna"}}, {"type": "node", "id": 943199925, "lat": 37.8827984, "lon": 20.7221437, "tags": {"amenity": "restaurant", "contact:phone": "+30 2695031563", "cuisine": "greek", "name": "Mikro Nisi"}}, {"type": "node", "id": 1313996708, "lat": 38.0733553, "lon": 20.7976733, "tags": {"amenity": "restaurant"}}, {"type": "node", "id": 1313996779, "lat": 38.089283, "lon": 20.8031039, "tags": {"amenity": "restaurant"}}, {"type": "node", "id": 1313996824, "lat": 38.0640044, "lon": 20.7490665, "tags": {"amenity": "restaurant", "name": "Taverna Katelios"}}, {"type": "node", "id": 1313996837, "lat": 38.0739582, "lon": 20.7989699, "tags": {"amenity": "restaurant", "fixme": "There are lots here - this is just indicative", "name": "BBS Club", "source": "survey"}}, {"type": "node", "id": 1313996844, "lat": 38.0740948, "lon": 20.7994937, "tags": {"amenity": "restaurant", "name": "The Pines"}}, {"type": "node", "id": 1313996860, "lat": 38.072741, "lon": 20.7991515, "tags": {"amenity": "restaurant"}}, {"type": "node", "id": 1313996889, "lat": 38.0635646, "lon": 20.7485308, "tags": {"amenity": "restaurant", "name": "Cozy"}}, {"type": "node", "id": 1313996891, "lat": 38.073957, "lon": 20.7992021, "tags": {"amenity": "restaurant", "name": "La Luna"}}, {"type": "node", "id": 1313996901, "lat": 38.0732326, "lon": 20.7992773, "tags": {"amenity": "restaurant", "bar": "yes", "name": "Panorama", "phone": "+30 26710 83585"}}, {"type": "node", "id": 1313997040, "lat": 38.0647751, "lon": 20.7498067, "tags": {"amenity": "restaurant", "name": "\u039c\u03ad\u03b4\u03bf\u03c5\u03c3\u03b1", "name:el": "\u039c\u03ad\u03b4\u03bf\u03c5\u03c3\u03b1", "name:en": "Medusa"}}, {"type": "node", "id": 1313997182, "lat": 38.0659064, "lon": 20.7511247, "tags": {"amenity": "cafe", "name": "The Wave"}}, {"type": "node", "id": 1313997219, "lat": 38.0733824, "lon": 20.7978489, "tags": {"amenity": "restaurant"}}, {"type": "node", "id": 1313997272, "lat": 38.0642063, "lon": 20.7493484, "tags": {"amenity": "restaurant", "name": "Captain Jerry"}}, {"type": "node", "id": 1313997345, "lat": 38.0663285, "lon": 20.7515744, "tags": {"amenity": "restaurant", "name": "Albouro Taverna", "note": "old name from 19 June 2011. Repoended under new name 2017", "old_name": "The Olive Tree", "source": "survey"}}, {"type": "node", "id": 1313997386, "lat": 38.0648517, "lon": 20.7499699, "tags": {"amenity": "restaurant", "indoor_seating": "yes", "name": "Blue Sea Restaurant", "outdoor_seating": "yes"}}, {"type": "node", "id": 1313997469, "lat": 38.07419, "lon": 20.7994287, "tags": {"amenity": "restaurant", "name": "Flamingo"}}, {"type": "node", "id": 1404032582, "lat": 38.067532, "lon": 20.7734703, "tags": {"amenity": "restaurant", "name": "Taverna Anemos (Wind)"}}, {"type": "node", "id": 1406354009, "lat": 38.0695711, "lon": 20.7484628, "tags": {"amenity": "restaurant", "name": "Jerry's Elliniko"}}, {"type": "node", "id": 1406511034, "lat": 38.0677954, "lon": 20.7524458, "tags": {"amenity": "cafe", "name": "Dreamcatcher"}}, {"type": "node", "id": 1406511039, "lat": 38.07305, "lon": 20.7458447, "tags": {"amenity": "restaurant", "name": "Rosebud Bistro"}}, {"type": "node", "id": 1406511042, "lat": 38.0749558, "lon": 20.7470457, "tags": {"amenity": "restaurant", "name": "\u039f 4 \u0391\u03b4\u03ad\u03bb\u03c6\u03b9\u03b1"}}, {"type": "node", "id": 1407327149, "lat": 38.06384, "lon": 20.7487819, "tags": {"amenity": "restaurant", "indoor_seating": "yes", "name": "Maria's", "note": "'Ostria' = south wind", "old_name": "\u03a4\u03b1\u03b2\u03b5\u03c1\u03bd\u03b1 \u039f\u03c3\u03c4\u03c1\u03b9\u03b1", "old_name:en": "Ostria Tavern", "outdoor_seating": "yes"}}, {"type": "node", "id": 1407327160, "lat": 38.0640773, "lon": 20.7491973, "tags": {"amenity": "restaurant", "name": "Delicious", "note": "Old restaurant closed some years ago. Opened under new name 2017.", "old_name": "Taverna Ammos"}}, {"type": "node", "id": 1407327164, "lat": 38.0650304, "lon": 20.7496488, "tags": {"amenity": "restaurant", "cuisine": "greek", "delivery": "yes", "indoor_seating": "yes", "name": "Tsobo's Garden", "note": "new name 2017", "old_name": "\u039f \u039a\u03ae\u03c0\u03bf\u03c2", "old_name:en": "The Garden", "outdoor_seating": "yes", "smoking": "separated", "takeaway": "yes"}}, {"type": "node", "id": 1407387198, "lat": 38.0720457, "lon": 20.7445139, "tags": {"amenity": "restaurant", "int_name": "Persas Taverna", "name": "\u0397 \u03a4\u03b1\u03b2\u03ad\u03c1\u03bd\u03b1 \u03c4\u03b7\u03c2 \u03a0\u03ad\u03c1\u03c3\u03b1\u03c2"}}, {"type": "node", "id": 1410532322, "lat": 38.0649511, "lon": 20.7501624, "tags": {"amenity": "restaurant", "indoor_seating": "yes", "name": "\u039f \u03a6\u03ac\u03c1\u03bf\u03c2", "name:el": "\u039f \u03a6\u03ac\u03c1\u03bf\u03c2", "name:en": "Lighthouse Restaurant", "outdoor_seating": "yes"}}, {"type": "node", "id": 1423435452, "lat": 38.1696254, "lon": 20.7113986, "tags": {"amenity": "cafe", "cuisine": "greek", "internet_access": "wlan", "name": "Olive Garden", "opening_hours": "May-Oct: 09:00-21:00", "operator": "Helen"}}, {"type": "node", "id": 1544575542, "lat": 38.1203733, "lon": 20.547496, "tags": {"addr:postcode": "28100", "addr:street": "Keramies", "amenity": "restaurant", "cuisine": "greek", "name": "Eleonas", "name:en": "Olive Grove"}}, {"type": "node", "id": 1544577781, "lat": 38.1193356, "lon": 20.5628541, "tags": {"addr:postcode": "28100", "addr:street": "Keramies", "amenity": "restaurant", "cuisine": "greek", "name": "Ksasteria"}}, {"type": "node", "id": 1621593944, "lat": 38.0764936, "lon": 20.7726743, "tags": {"amenity": "restaurant", "cuisine": "greek", "name": "Femina Restaurant"}}, {"type": "node", "id": 2090842345, "lat": 38.1248014, "lon": 20.600311, "tags": {"amenity": "restaurant", "name": "Enastron"}}, {"type": "node", "id": 2223328201, "lat": 37.8639566, "lon": 20.7377646, "tags": {"amenity": "cafe", "name": "Magda's snack bar"}}, {"type": "node", "id": 2223351342, "lat": 37.862332, "lon": 20.7360312, "tags": {"amenity": "restaurant", "cuisine": "regional", "name": "Pelagaki"}}, {"type": "node", "id": 2885626472, "lat": 38.1110387, "lon": 20.56171, "tags": {"addr:city": "\u03a3\u03c0\u03b1\u03c1\u03c4\u03b9\u03ac", "addr:postcode": "28100", "amenity": "restaurant", "contact:facebook": "https://www.facebook.com/CavoLiakas/", "contact:instagram": "https://www.instagram.com/cavoliakas/", "cuisine": "coffee_shop;greek;pasta;pizza", "delivery": "yes", "email": "cavoliakas@hotmail.com", "internet_access": "wlan", "name": "Cavo Liakas Taverna", "outdoor_seating": "yes", "phone": "+30 6978149290", "takeaway": "yes"}}, {"type": "node", "id": 2885626474, "lat": 38.1185774, "lon": 20.5341383, "tags": {"amenity": "cafe", "name": "Marina's Cafe"}}, {"type": "node", "id": 2885626478, "lat": 38.1107468, "lon": 20.5618799, "tags": {"addr:postcode": "28100", "amenity": "cafe", "cuisine": "coffee_shop;greek;ice_cream", "internet_access": "wlan", "name": "Caffe", "name:de": "Cafe Bar Aeolos", "name:el": "Cafe Bar Aeolos", "name:en": "Cafe Bar Aeolos", "opening_hours": "Mo-Su 08:00-01:00"}}, {"type": "node", "id": 2889272542, "lat": 38.1254697, "lon": 20.5152501, "tags": {"amenity": "restaurant", "cuisine": "greek", "name": "Byron's"}}, {"type": "node", "id": 2889272566, "lat": 38.1251009, "lon": 20.5249056, "tags": {"amenity": "restaurant", "name": "Obelix grill house"}}, {"type": "node", "id": 2889272567, "lat": 38.1253799, "lon": 20.517619, "tags": {"amenity": "restaurant"}}, {"type": "node", "id": 2889272568, "lat": 38.1255269, "lon": 20.5194973, "tags": {"amenity": "restaurant", "cuisine": "greek"}}, {"type": "node", "id": 2889435256, "lat": 38.1346845, "lon": 20.5526332, "tags": {"amenity": "cafe"}}, {"type": "node", "id": 2889435260, "lat": 38.1352133, "lon": 20.5578326, "tags": {"amenity": "cafe"}}, {"type": "node", "id": 2894042147, "lat": 38.10275, "lon": 20.5379812, "tags": {"amenity": "restaurant", "cuisine": "greek", "name": "Avithos Preview"}}, {"type": "node", "id": 2894042148, "lat": 38.1059261, "lon": 20.5120668, "tags": {"amenity": "restaurant", "cuisine": "greek", "name": "O Milos"}}, {"type": "node", "id": 2894042149, "lat": 38.1026701, "lon": 20.5381034, "tags": {"amenity": "restaurant", "cuisine": "greek", "name": "To Enetiko"}}, {"type": "node", "id": 2930934252, "lat": 37.8678892, "lon": 20.7345413}, {"type": "node", "id": 2930934253, "lat": 37.8678923, "lon": 20.7345788}, {"type": "node", "id": 2930934254, "lat": 37.8679612, "lon": 20.7345319}, {"type": "node", "id": 2930934255, "lat": 37.8679642, "lon": 20.7345695}, {"type": "node", "id": 2986234175, "lat": 38.2554114, "lon": 20.6293903, "tags": {"amenity": "restaurant", "cuisine": "greek", "name": "\u039a\u03b1\u03c1\u03b1\u03b2\u03cc\u03bc\u03c5\u03bb\u03bf\u03c2"}}, {"type": "node", "id": 2994486881, "lat": 38.2519221, "lon": 20.6480791, "tags": {"amenity": "cafe"}}, {"type": "node", "id": 2994487710, "lat": 38.2517326, "lon": 20.6482006, "tags": {"amenity": "restaurant"}}, {"type": "node", "id": 2999702326, "lat": 38.2008452, "lon": 20.4388383, "tags": {"amenity": "cafe", "name": "\u039c\u03bf\u03c3\u03c7\u03cc\u03c0\u03bf\u03c5\u03bb\u03bf\u03c2"}}, {"type": "node", "id": 2999704137, "lat": 38.2009584, "lon": 20.4388326, "tags": {"amenity": "cafe"}}, {"type": "node", "id": 3008975742, "lat": 38.0737115, "lon": 20.8002434, "tags": {"addr:street": "Poros-Skala", "amenity": "restaurant", "name": "Metaxa Beach Bar"}}, {"type": "node", "id": 3036934095, "lat": 38.2507899, "lon": 20.6380749}, {"type": "node", "id": 3036934935, "lat": 38.2507878, "lon": 20.6380534}, {"type": "node", "id": 3036934953, "lat": 38.2511283, "lon": 20.6385979}, {"type": "node", "id": 3036934978, "lat": 38.2509353, "lon": 20.6382573}, {"type": "node", "id": 3036935024, "lat": 38.2511255, "lon": 20.6383159}, {"type": "node", "id": 3036935076, "lat": 38.2506509, "lon": 20.638099}, {"type": "node", "id": 3036935140, "lat": 38.2510514, "lon": 20.6383171}, {"type": "node", "id": 3036935253, "lat": 38.2509416, "lon": 20.638032}, {"type": "node", "id": 3036935267, "lat": 38.2507415, "lon": 20.6382492}, {"type": "node", "id": 3036935322, "lat": 38.2506593, "lon": 20.6381822}, {"type": "node", "id": 3036935329, "lat": 38.2507352, "lon": 20.6381768}, {"type": "node", "id": 3036935433, "lat": 38.2510543, "lon": 20.6385991}, {"type": "node", "id": 3044970965, "lat": 38.2004949, "lon": 20.4382655, "tags": {"amenity": "cafe"}}, {"type": "node", "id": 3066818192, "lat": 38.2272137, "lon": 20.6278177}, {"type": "node", "id": 3066818193, "lat": 38.2272249, "lon": 20.6279874}, {"type": "node", "id": 3066818200, "lat": 38.2274033, "lon": 20.6278053}, {"type": "node", "id": 3066818201, "lat": 38.2274126, "lon": 20.6279751}, {"type": "node", "id": 3073625372, "lat": 38.2611096, "lon": 20.3775009, "tags": {"amenity": "restaurant", "name": "\u0395\u03c1\u03b1\u03c3\u03bc\u03af\u03b1"}}, {"type": "node", "id": 3082589091, "lat": 38.1203976, "lon": 20.624395, "tags": {"amenity": "restaurant", "facebook": "La Mer Taverna", "name": "La Mer", "phone": "2671031550"}}, {"type": "node", "id": 3082589100, "lat": 38.1194666, "lon": 20.628113, "tags": {"amenity": "restaurant", "name": "Spiros Restaurant"}}, {"type": "node", "id": 3278195171, "lat": 38.1216187, "lon": 20.6219375, "tags": {"amenity": "restaurant", "name": "Inopolis Restaurant"}}, {"type": "node", "id": 3278195172, "lat": 38.1210468, "lon": 20.6232357, "tags": {"amenity": "restaurant"}}, {"type": "node", "id": 3278195174, "lat": 38.1208569, "lon": 20.6235575, "tags": {"amenity": "restaurant", "name": "Casa de Blue Restaurant"}}, {"type": "node", "id": 3278195175, "lat": 38.1200762, "lon": 20.62536, "tags": {"amenity": "restaurant", "name": "Zorbas restaurant"}}, {"type": "node", "id": 3278225922, "lat": 38.1381003, "lon": 20.5570294, "tags": {"addr:city": "\u039a\u03ac\u03c3\u03c4\u03c1\u03bf", "addr:postcode": "28100", "amenity": "restaurant", "name": "Olive lounge Restaurant"}}, {"type": "node", "id": 3466420940, "lat": 38.3030844, "lon": 20.5997001, "tags": {"amenity": "restaurant", "name": "Finikas"}}, {"type": "node", "id": 3466420942, "lat": 38.3031643, "lon": 20.6007596, "tags": {"amenity": "restaurant"}}, {"type": "node", "id": 3466420944, "lat": 38.3032296, "lon": 20.5986493, "tags": {"amenity": "cafe"}}, {"type": "node", "id": 3466420954, "lat": 38.3032028, "lon": 20.598943, "tags": {"amenity": "cafe"}}, {"type": "node", "id": 3466420958, "lat": 38.3031349, "lon": 20.5979969, "tags": {"amenity": "cafe", "name": "fior d\u2018amore"}}, {"type": "node", "id": 3466420962, "lat": 38.3031307, "lon": 20.6005798, "tags": {"amenity": "restaurant"}}, {"type": "node", "id": 3466422730, "lat": 38.3033706, "lon": 20.6018512, "tags": {"amenity": "restaurant", "name": "themis ristorante"}}, {"type": "node", "id": 3466422731, "lat": 38.3018214, "lon": 20.5974256, "tags": {"amenity": "restaurant", "name": "The Local Steak House"}}, {"type": "node", "id": 3466422732, "lat": 38.3032127, "lon": 20.6010761, "tags": {"amenity": "restaurant"}}, {"type": "node", "id": 3466422737, "lat": 38.3027812, "lon": 20.5977608, "tags": {"amenity": "cafe"}}, {"type": "node", "id": 3466532031, "lat": 38.3032264, "lon": 20.5988579, "tags": {"amenity": "cafe"}}, {"type": "node", "id": 3466532032, "lat": 38.2763416, "lon": 20.6150182, "tags": {"amenity": "restaurant"}}, {"type": "node", "id": 3466547975, "lat": 38.3039915, "lon": 20.5974873, "tags": {"amenity": "restaurant"}}, {"type": "node", "id": 3598597256, "lat": 37.9294824, "lon": 20.7006082}, {"type": "node", "id": 3598597257, "lat": 37.9292699, "lon": 20.7006949}, {"type": "node", "id": 3598597258, "lat": 37.9292998, "lon": 20.7008126}, {"type": "node", "id": 3598597259, "lat": 37.9293785, "lon": 20.7007805}, {"type": "node", "id": 3598597260, "lat": 37.9294059, "lon": 20.7008885}, {"type": "node", "id": 3598597261, "lat": 37.9295397, "lon": 20.7008338}, {"type": "node", "id": 3738750325, "lat": 38.260604, "lon": 20.3837679}, {"type": "node", "id": 3738750333, "lat": 38.2606355, "lon": 20.3769707}, {"type": "node", "id": 3738750336, "lat": 38.2606671, "lon": 20.3838942}, {"type": "node", "id": 3738750340, "lat": 38.2607004, "lon": 20.383691}, {"type": "node", "id": 3738750342, "lat": 38.260737, "lon": 20.3771099}, {"type": "node", "id": 3738750345, "lat": 38.2607609, "lon": 20.3838043}, {"type": "node", "id": 3738750347, "lat": 38.2607155, "lon": 20.3768745}, {"type": "node", "id": 3738750349, "lat": 38.2608234, "lon": 20.3770272}, {"type": "node", "id": 4245894690, "lat": 38.1038244, "lon": 20.5221797, "tags": {"amenity": "restaurant", "name": "Ai Helis Beach"}}, {"type": "node", "id": 4245906289, "lat": 37.8830691, "lon": 20.7214408, "tags": {"amenity": "restaurant", "name": "El Sue\u00f1o Restaurant"}}, {"type": "node", "id": 4267841690, "lat": 38.174207, "lon": 20.4916967, "tags": {"amenity": "restaurant", "indoor_seating": "yes", "name": "Megas BBQ - Grill", "outdoor_seating": "yes"}}, {"type": "node", "id": 4293648790, "lat": 37.8742301, "lon": 20.6612959, "tags": {"amenity": "cafe", "internet_access": "wlan", "name": "Strofi Snack Bar", "name:el": "\u03a3\u03a4\u03a1\u039f\u03a6\u0397", "name:en": "Strofi", "opening_hours": "24/7"}}, {"type": "node", "id": 4307639990, "lat": 38.2531468, "lon": 20.6491301, "tags": {"amenity": "restaurant", "name": "The Dolphins"}}, {"type": "node", "id": 4326745698, "lat": 38.1808086, "lon": 20.486535, "tags": {"amenity": "restaurant", "cuisine": "barbecue", "name": "Ladakola"}}, {"type": "node", "id": 4340782727, "lat": 38.1997882, "lon": 20.4382182, "tags": {"amenity": "restaurant", "check_date": "2024-03-24", "name": "\u03a4\u03bf \u0396\u03b5\u03cd\u03ba\u03b9"}}, {"type": "node", "id": 4340785335, "lat": 38.2017981, "lon": 20.4374465, "tags": {"amenity": "cafe", "name": "\u039a\u03b1\u03c6\u03ad \u039f\u03c5\u03b6\u03b5\u03c1\u03af \"\u0397 \u0393\u03ad\u03c6\u03c5\u03c1\u03b1\""}}, {"type": "node", "id": 4340799906, "lat": 38.2013854, "lon": 20.4377023, "tags": {"amenity": "cafe"}}, {"type": "node", "id": 4340817401, "lat": 38.2007283, "lon": 20.4385558, "tags": {"amenity": "cafe", "name": "La Luna"}}, {"type": "node", "id": 4340817909, "lat": 38.2005139, "lon": 20.4386711, "tags": {"amenity": "cafe", "name": "Pero"}}, {"type": "node", "id": 4345407883, "lat": 37.8932299, "lon": 20.7060129, "tags": {"amenity": "restaurant", "name": "Ex Animo"}}, {"type": "node", "id": 4348267189, "lat": 38.1649084, "lon": 20.3756574, "tags": {"amenity": "restaurant", "name": "Spiaggia Vatsa"}}, {"type": "node", "id": 4398405892, "lat": 38.1854404, "lon": 20.4847056, "tags": {"amenity": "restaurant", "name": "\u03a0\u03b1\u03bb\u03b9\u03ac \u03a0\u03bb\u03ac\u03ba\u03b1", "name:el": "\u03a0\u03b1\u03bb\u03b9\u03ac \u03a0\u03bb\u03ac\u03ba\u03b1", "name:en": "Palia Plaka", "source": "gps survey"}}, {"type": "node", "id": 4398470189, "lat": 38.1314415, "lon": 20.4944039, "tags": {"amenity": "cafe", "name": "\u03a3\u03c0\u03ac\u03c3\u03bc\u03b1\u03c4\u03b1", "name:el": "\u03a3\u03c0\u03ac\u03c3\u03bc\u03b1\u03c4\u03b1", "name:en": "Spasmata Beach"}}, {"type": "node", "id": 4459549989, "lat": 38.252672, "lon": 20.6486873, "tags": {"amenity": "restaurant", "name": "Adonis", "name:en": "Restaurant Adonis"}}, {"type": "node", "id": 4460678896, "lat": 38.2529951, "lon": 20.6489961, "tags": {"amenity": "restaurant", "int_name": "Mermaid", "name": "\u0393\u03bf\u03c1\u03b3\u03cc\u03bd\u03b1", "name:el": "\u0393\u03bf\u03c1\u03b3\u03cc\u03bd\u03b1", "name:en": "Tavern Faros"}}, {"type": "node", "id": 4511585506, "lat": 38.0689869, "lon": 20.7688533, "tags": {"amenity": "cafe", "cuisine": "international", "internet_access": "no", "name": "Kamini seaside"}}, {"type": "node", "id": 4912325300, "lat": 38.1940658, "lon": 20.4742154}, {"type": "node", "id": 4912325301, "lat": 38.1940119, "lon": 20.4742663}, {"type": "node", "id": 4912325302, "lat": 38.1939497, "lon": 20.4741672}, {"type": "node", "id": 4912325303, "lat": 38.1938191, "lon": 20.4742852}, {"type": "node", "id": 4912325304, "lat": 38.1937496, "lon": 20.4741617}, {"type": "node", "id": 4912325305, "lat": 38.1939372, "lon": 20.4739874}, {"type": "node", "id": 4919027429, "lat": 38.138431, "lon": 20.5543721, "tags": {"amenity": "cafe", "name": "Kastro cafe"}}, {"type": "node", "id": 4924028021, "lat": 38.1658712, "lon": 20.3767825, "tags": {"amenity": "restaurant", "name": "Captain Nikolas", "name:en": "Captain Nikolas family tavern", "opening_hours": "Mo-Su 12:00-22:30", "phone": "+302671092722", "website": "http://www.captain-nikolas.gr"}}, {"type": "node", "id": 4924051221, "lat": 38.1382978, "lon": 20.5556949, "tags": {"amenity": "restaurant", "name": "il Borgo", "website": "http://www.ilborgo.gr"}}, {"type": "node", "id": 4924094521, "lat": 38.0751883, "lon": 20.7956006, "tags": {"amenity": "restaurant", "name:en": "Taverna Apostolis"}}, {"type": "node", "id": 4924094522, "lat": 38.1786478, "lon": 20.4884755, "tags": {"amenity": "restaurant", "name:en": "Casa Grec"}}, {"type": "node", "id": 4924094721, "lat": 38.1128669, "lon": 20.6367999, "tags": {"amenity": "restaurant", "name": "Lorraine's Magic Hill", "name:en": "Lorraine's Magic Hill"}}, {"type": "node", "id": 4924104921, "lat": 38.0740176, "lon": 20.7985542, "tags": {"amenity": "restaurant", "name": "Mikelatos"}}, {"type": "node", "id": 4924106721, "lat": 38.0911184, "lon": 20.8031995, "tags": {"amenity": "restaurant", "name:en": "Old Times"}}, {"type": "node", "id": 4924146721, "lat": 38.1642042, "lon": 20.4823592, "tags": {"amenity": "restaurant", "name:en": "Phaedra"}}, {"type": "node", "id": 4924146722, "lat": 38.2516086, "lon": 20.6449469, "tags": {"air_conditioning": "yes", "amenity": "restaurant", "diet:vegetarian": "no", "indoor_seating": "yes", "name": "familia", "name:en": "Il Familia", "outdoor_seating": "yes", "wheelchair": "yes"}}, {"type": "node", "id": 4959564024, "lat": 38.3032711, "lon": 20.6014496, "tags": {"amenity": "restaurant", "cuisine": "greek;fish;regional", "name:de": "Poseidon"}}, {"type": "node", "id": 4963688521, "lat": 38.2053943, "lon": 20.4878869, "tags": {"amenity": "restaurant", "name:en": "To Eksoxiko"}}, {"type": "node", "id": 4986341222, "lat": 38.1191454, "lon": 20.6269695, "tags": {"amenity": "restaurant", "name:en": "Souvlaki house"}}, {"type": "node", "id": 5051191623, "lat": 38.1611124, "lon": 20.4247558, "tags": {"addr:street": "Megas Lakos", "amenity": "restaurant", "cuisine": "greek;international;coffee_shop", "internet_access": "wlan", "name:en": "Fishbones", "name:it": "Mario's Fishbones", "opening_hours": "Mo-Su 09:00-13:00, 14:00-22:00"}}, {"type": "node", "id": 5051261822, "lat": 38.1799656, "lon": 20.4873287, "tags": {"addr:housenumber": "5", "addr:street": "Rizospaston", "amenity": "restaurant", "internet_access": "wlan", "name:en": "to Arhontiko", "name:it": "Arhontiko", "opening_hours": "Mo-Su 09:00-01:00", "phone": "+302671027213"}}, {"type": "node", "id": 5055782164, "lat": 38.1245096, "lon": 20.6092497, "tags": {"addr:city": "Trapezaki", "addr:postcode": "47150", "addr:street": "Main Road", "amenity": "restaurant", "contact:phone": "+30 2671 027363", "cuisine": "regional;greek", "name": "Stamna", "outdoor_seating": "yes"}}, {"type": "node", "id": 5055782194, "lat": 38.1180847, "lon": 20.6106508, "tags": {"addr:city": "Trapezaki", "amenity": "restaurant", "cuisine": "regional;greek", "name": "Denis", "opening_hours": "Mo-Su 10:00-01:00", "phone": "+30 26710 31454", "website": "https://deniskefalonia.gr/"}}, {"type": "node", "id": 5056142109, "lat": 38.1276411, "lon": 20.5852008, "tags": {"amenity": "restaurant", "cuisine": "greek;mediterranean", "name": "Happiness", "opening_hours": "Mo-Su 10:00 - 15:30, 19:00 - 23:00", "phone": "+30 2671 069277", "takeaway": "yes", "website": "https://www.facebook.com/happinesskaravados/"}}, {"type": "node", "id": 5091701137, "lat": 37.8748191, "lon": 20.6619284, "tags": {"amenity": "restaurant", "name": "Koskino"}}, {"type": "node", "id": 5111471024, "lat": 37.8746093, "lon": 20.6655027, "tags": {"amenity": "restaurant", "name:en": "Kaminaki", "name:ru": "\u041a\u0430\u043c\u0438\u043d\u0430\u043a\u0438"}}, {"type": "node", "id": 5181331122, "lat": 37.9000572, "lon": 20.6791375, "tags": {"amenity": "cafe", "operational_status": "closed"}}, {"type": "node", "id": 5181394624, "lat": 37.9294411, "lon": 20.7007539, "tags": {"amenity": "cafe", "name:en": "Faros"}}, {"type": "node", "id": 5181394625, "lat": 37.9075659, "lon": 20.7053599, "tags": {"amenity": "cafe", "name:en": "To misi"}}, {"type": "node", "id": 5181413322, "lat": 37.9072564, "lon": 20.7053615, "tags": {"amenity": "cafe", "name:en": "CoffeeLand"}}, {"type": "node", "id": 5181532921, "lat": 37.8782063, "lon": 20.724751, "tags": {"amenity": "cafe", "name:en": "Oneira"}}, {"type": "node", "id": 5181533021, "lat": 37.8780245, "lon": 20.7250267, "tags": {"amenity": "cafe", "cuisine": "regional", "name:en": "Pilar Nos"}}, {"type": "node", "id": 5181640932, "lat": 37.879918, "lon": 20.7243135, "tags": {"amenity": "cafe"}}, {"type": "node", "id": 5596913856, "lat": 38.1695862, "lon": 20.7112992}, {"type": "node", "id": 5596913911, "lat": 38.1696118, "lon": 20.7113154}, {"type": "node", "id": 5596913919, "lat": 38.1695916, "lon": 20.7113672}, {"type": "node", "id": 5596914127, "lat": 38.169566, "lon": 20.7113511}, {"type": "node", "id": 5598781283, "lat": 38.1121427, "lon": 20.6370142, "tags": {"amenity": "restaurant", "cuisine": "greek;regional;seafood;salad", "internet_access": "wlan", "name": "Klimatis", "outdoor_seating": "yes"}}, {"type": "node", "id": 5599763510, "lat": 38.1627566, "lon": 20.4824949, "tags": {"amenity": "restaurant", "cuisine": "greek", "name": "treat House", "opening_hours:signed": "no", "outdoor_seating": "yes", "wheelchair": "yes"}}, {"type": "node", "id": 5600426119, "lat": 38.0657871, "lon": 20.750085, "tags": {"addr:city": "Kato Katelios", "addr:postcode": "28082", "amenity": "restaurant", "cuisine": "greek", "name": "Katelios Grill House", "opening_hours": "12:00-24:00", "outdoor_seating": "yes", "phone": "+30 2671 081443", "takeaway": "yes", "website": "https://www.tripadvisor.de/Restaurant_Review-g189457-d3389778-Reviews-Katelios_Grill_House-Cephalonia_Ionian_Islands.html?m=19905", "wheelchair": "limited"}}, {"type": "node", "id": 5602523432, "lat": 38.115879, "lon": 20.5997626, "tags": {"amenity": "restaurant"}}, {"type": "node", "id": 5644287115, "lat": 38.1565129, "lon": 20.4817758, "tags": {"amenity": "restaurant", "cuisine": "greek", "name": "Zorba's", "opening_hours:signed": "no"}}, {"type": "node", "id": 5644324467, "lat": 38.1906193, "lon": 20.4797845, "tags": {"amenity": "restaurant", "name": "Vinaries"}}, {"type": "node", "id": 5667867879, "lat": 38.1616983, "lon": 20.4124089, "tags": {"amenity": "restaurant", "name": "Vardianna Taverna"}}, {"type": "node", "id": 5681585647, "lat": 38.1035609, "lon": 20.5715919, "tags": {"amenity": "restaurant", "cuisine": "greek;mediterranean", "delivery": "no", "name": "Isalos", "outdoor_seating": "yes", "takeaway": "no"}}, {"type": "node", "id": 5681596647, "lat": 38.1029023, "lon": 20.5746112, "tags": {"amenity": "restaurant", "cuisine": "greek;mediterranean", "delivery": "no", "name": "Waterway Cafe Bar Restaurant", "outdoor_seating": "yes", "takeaway": "no"}}, {"type": "node", "id": 5681600939, "lat": 38.1036356, "lon": 20.5747869, "tags": {"amenity": "restaurant", "cuisine": "greek;mediterranean", "name": "Panas Restaturant"}}, {"type": "node", "id": 5779529713, "lat": 38.1226063, "lon": 20.6112336, "tags": {"addr:city": "Trapezaki", "addr:housenumber": "0", "addr:postcode": "28100", "amenity": "restaurant", "cuisine": "barbecue;greek", "diet:vegetarian": "yes", "internet_access": "wlan", "name": "Veramente Grill House", "outdoor_seating": "yes", "phone": "+30 2671 031486"}}, {"type": "node", "id": 5779556759, "lat": 38.1228868, "lon": 20.6112262, "tags": {"amenity": "restaurant", "name": "Gerfiri"}}, {"type": "node", "id": 5787140117, "lat": 38.1126925, "lon": 20.6357029, "tags": {"amenity": "cafe", "cuisine": "greek;regional;coffee_shop;sandwich;ice_cream", "internet_access": "wlan", "internet_access:fee": "no", "internet_access:ssid": "SEVENCAFE", "level": "1", "name": "Seven", "outdoor_seating": "yes", "wheelchair": "no"}}, {"type": "node", "id": 5787140118, "lat": 38.1126364, "lon": 20.6356771, "tags": {"amenity": "cafe", "cuisine": "greek;regional;coffee_shop;ice_cream;sandwich", "internet_access": "wlan", "internet_access:fee": "no", "level": "0", "name": "Lourdas Mare", "outdoor_seating": "yes"}}, {"type": "node", "id": 5787146150, "lat": 38.1125966, "lon": 20.6358035, "tags": {"amenity": "restaurant", "cuisine": "greek", "internet_access": "wlan", "name": "Lourdas Mare", "wheelchair": "yes"}}, {"type": "node", "id": 5836725224, "lat": 38.1064515, "lon": 20.5120426, "tags": {"amenity": "restaurant", "name": "Koutoupa"}}, {"type": "node", "id": 5840336737, "lat": 38.147777, "lon": 20.7788774, "tags": {"amenity": "restaurant"}}, {"type": "node", "id": 5865968385, "lat": 38.1796554, "lon": 20.4877339, "tags": {"amenity": "cafe", "name": "Premier"}}, {"type": "node", "id": 5885114777, "lat": 38.2713598, "lon": 20.4221216, "tags": {"amenity": "cafe", "name": "Taverna Tis Pareas", "name:en": "Three Umbrellas"}}, {"type": "node", "id": 5911855610, "lat": 38.0746665, "lon": 20.7281207, "tags": {"amenity": "restaurant", "indoor_seating": "yes", "name": "\u0395\u03bb\u03b5\u03b9\u03cc\u03c2", "name:el": "\u0395\u03bb\u03b5\u03b9\u03cc\u03c2", "name:en": "Eleios", "outdoor_seating": "yes"}}, {"type": "node", "id": 5912544441, "lat": 38.1992089, "lon": 20.439012, "tags": {"amenity": "restaurant", "name": "\u0391\u03ba\u03c1\u03bf\u03b3\u03b9\u03b1\u03bb\u03b9", "name:el": "\u0391\u03ba\u03c1\u03bf\u03b3\u03b9\u03b1\u03bb\u03b9", "name:en": "Akrogiali"}}, {"type": "node", "id": 5926288427, "lat": 38.1175164, "lon": 20.633741}, {"type": "node", "id": 5926288428, "lat": 38.1174787, "lon": 20.6337445}, {"type": "node", "id": 5926288429, "lat": 38.117512, "lon": 20.6336619}, {"type": "node", "id": 5926288430, "lat": 38.1174827, "lon": 20.6338156}, {"type": "node", "id": 5926288431, "lat": 38.1174097, "lon": 20.6338222}, {"type": "node", "id": 5926288432, "lat": 38.1174013, "lon": 20.633672}, {"type": "node", "id": 6027336337, "lat": 38.1795208, "lon": 20.4893521, "tags": {"amenity": "restaurant", "indoor_seating": "yes", "name": "Captain's Table", "outdoor_seating": "yes"}}, {"type": "node", "id": 6027336338, "lat": 38.1792826, "lon": 20.4881398, "tags": {"amenity": "restaurant", "check_date": "2024-03-24", "cuisine": "italian", "name": "La Gondola Cafe - Restaurant"}}, {"type": "node", "id": 6027336339, "lat": 38.1789263, "lon": 20.4884455, "tags": {"amenity": "restaurant", "cuisine": "italian", "name": "Pizzaria Paparazzi"}}, {"type": "node", "id": 6027347882, "lat": 38.1785046, "lon": 20.4870159, "tags": {"amenity": "restaurant", "cuisine": "greek", "int_name": "Ladokolla", "name": "\u039b\u03b1\u03b4\u03cc\u03ba\u03bf\u03bb\u03bb\u03b1"}}, {"type": "node", "id": 6027347883, "lat": 38.1784181, "lon": 20.4867826, "tags": {"amenity": "restaurant", "cuisine": "greek", "name": "El Greco"}}, {"type": "node", "id": 6027347884, "lat": 38.1791603, "lon": 20.48818, "tags": {"amenity": "restaurant", "cuisine": "greek", "name": "Grill"}}, {"type": "node", "id": 6032701491, "lat": 38.3031888, "lon": 20.5991547, "tags": {"amenity": "restaurant"}}, {"type": "node", "id": 6033949495, "lat": 38.1229849, "lon": 20.6242897, "tags": {"amenity": "restaurant", "cuisine": "barbecue", "indoor_seating": "yes", "outdoor_seating": "yes"}}, {"type": "node", "id": 6553570785, "lat": 38.2251586, "lon": 20.4771002, "tags": {"amenity": "restaurant", "cuisine": "greek", "name:en": "Mylos Taverna", "operator": "Kostas Drakatos", "phone": "+30 6943 404368"}}, {"type": "node", "id": 6557101986, "lat": 38.1756128, "lon": 20.4892091, "tags": {"amenity": "cafe", "check_date": "2024-03-25", "cuisine": "sandwich;ice_cream;crepe;mediterranean;coffee_shop", "name": "\u039c\u03b1\u03c5\u03c1\u03bf\u03b5\u03b9\u03b4\u03ae\u03c2", "name:el": "\u039c\u03b1\u03c5\u03c1\u03bf\u03b5\u03b9\u03b4\u03ae\u03c2", "name:en": "Mauroidis", "name:fr": "Mauroidis"}}, {"type": "node", "id": 6598933807, "lat": 38.2096324, "lon": 20.6308567, "tags": {"amenity": "restaurant", "name": "Kallithea Tavern"}}, {"type": "node", "id": 6600036303, "lat": 38.0809279, "lon": 20.7770541, "tags": {"amenity": "restaurant"}}, {"type": "node", "id": 6600068909, "lat": 38.135768, "lon": 20.5594029, "tags": {"amenity": "cafe"}}, {"type": "node", "id": 6600068911, "lat": 38.1350753, "lon": 20.5520554, "tags": {"amenity": "restaurant"}}, {"type": "node", "id": 6600068912, "lat": 38.1348703, "lon": 20.5516634, "tags": {"amenity": "restaurant"}}, {"type": "node", "id": 6600249465, "lat": 38.1747221, "lon": 20.4911172, "tags": {"amenity": "restaurant", "name:en": "Tzivras"}}, {"type": "node", "id": 6600249469, "lat": 38.1749223, "lon": 20.4915958, "tags": {"amenity": "cafe"}}, {"type": "node", "id": 6600316100, "lat": 38.1878062, "lon": 20.5280571, "tags": {"amenity": "restaurant"}}, {"type": "node", "id": 6619400086, "lat": 38.1648986, "lon": 20.5813705, "tags": {"amenity": "restaurant", "name": "Makis"}}, {"type": "node", "id": 6643519990, "lat": 37.9032693, "lon": 20.7096623, "tags": {"amenity": "restaurant", "cuisine": "greek;seafood", "internet_access": "wlan", "name:en": "Nobelos Restaurant", "website": "https://www.nobelos.gr/"}}, {"type": "node", "id": 6656653185, "lat": 38.2001252, "lon": 20.4378578, "tags": {"amenity": "cafe", "bakery": "yes", "check_date": "2024-03-24", "ice_cream": "yes", "name": "\u039c\u03b1\u03c5\u03c1\u03bf\u03b5\u03b9\u03b4\u03ae\u03c2", "outdoor_seating": "yes", "phone": "+30 26710 22021", "smoking": "outside", "website": "www.mavroidis.gr"}}, {"type": "node", "id": 6656710885, "lat": 38.1610018, "lon": 20.4137936, "tags": {"amenity": "restaurant", "cuisine": "greek", "name": "Averto"}}, {"type": "node", "id": 6661533785, "lat": 38.1765095, "lon": 20.4883197, "tags": {"addr:postcode": "28100", "amenity": "restaurant", "cuisine": "greek;mediterranean", "diet:vegan": "yes", "name:en": "Oinops Wine Bar - Restaurant", "opening_hours": "Mo-Su 08:00-03:00"}}, {"type": "node", "id": 6710827786, "lat": 38.185507, "lon": 20.3719474, "tags": {"amenity": "restaurant", "contact:facebook": "https://www.facebook.com/profile.php?id=100057037346362", "contact:phone": "+302671029498", "cuisine": "greek", "internet_access": "wlan", "name": "\u039b\u03b1\u03b3\u03ba\u03b1\u03b4\u03ac\u03ba\u03b9\u03b1 \u03a0\u03b1\u03c1\u03b1\u03b4\u03bf\u03c3\u03b9\u03b1\u03ba\u03ae \u03a4\u03b1\u03b2\u03ad\u03c1\u03bd\u03b1", "name:el": "\u039b\u03b1\u03b3\u03ba\u03b1\u03b4\u03ac\u03ba\u03b9\u03b1 \u03a0\u03b1\u03c1\u03b1\u03b4\u03bf\u03c3\u03b9\u03b1\u03ba\u03ae \u03a4\u03b1\u03b2\u03ad\u03c1\u03bd\u03b1", "name:en": "Lagadakia Greek Tavern"}}, {"type": "node", "id": 6711929662, "lat": 38.1582154, "lon": 20.4821718, "tags": {"amenity": "restaurant", "name": "Tzogia's Taverna", "opening_hours:signed": "no"}}, {"type": "node", "id": 6711941032, "lat": 38.1103778, "lon": 20.5144768, "tags": {"amenity": "restaurant", "name": "La Tavolita"}}, {"type": "node", "id": 6985075405, "lat": 38.0719635, "lon": 20.7993379}, {"type": "node", "id": 6985075406, "lat": 38.0719419, "lon": 20.7993337}, {"type": "node", "id": 6985075407, "lat": 38.0718297, "lon": 20.799277}, {"type": "node", "id": 6985075408, "lat": 38.0718602, "lon": 20.7991794}, {"type": "node", "id": 6985075409, "lat": 38.0719922, "lon": 20.7992461}, {"type": "node", "id": 6985075410, "lat": 38.0720226, "lon": 20.7994391}, {"type": "node", "id": 6985075411, "lat": 38.0719244, "lon": 20.7993894}, {"type": "node", "id": 6985075412, "lat": 38.0720419, "lon": 20.7993776}, {"type": "node", "id": 6985249242, "lat": 38.0703644, "lon": 20.7983018}, {"type": "node", "id": 6985249243, "lat": 38.0703309, "lon": 20.798428}, {"type": "node", "id": 6985249244, "lat": 38.0702595, "lon": 20.7981868}, {"type": "node", "id": 6985249245, "lat": 38.0703811, "lon": 20.798239}, {"type": "node", "id": 6985249246, "lat": 38.0703846, "lon": 20.798451}, {"type": "node", "id": 6985249247, "lat": 38.0702093, "lon": 20.7983759}, {"type": "node", "id": 6985249248, "lat": 38.0702428, "lon": 20.7982497}, {"type": "node", "id": 6985249249, "lat": 38.0704181, "lon": 20.7983248}, {"type": "node", "id": 6985249251, "lat": 38.0727014, "lon": 20.7993441}, {"type": "node", "id": 6985249252, "lat": 38.0726169, "lon": 20.7993388}, {"type": "node", "id": 6985249253, "lat": 38.0726194, "lon": 20.799277}, {"type": "node", "id": 6985249254, "lat": 38.0727038, "lon": 20.7992823}, {"type": "node", "id": 6985335334, "lat": 38.0725517, "lon": 20.7978706}, {"type": "node", "id": 6985335335, "lat": 38.0725527, "lon": 20.7980141}, {"type": "node", "id": 6985335336, "lat": 38.072479, "lon": 20.798015}, {"type": "node", "id": 6985335337, "lat": 38.0724779, "lon": 20.7978715}, {"type": "node", "id": 7006097709, "lat": 38.1612608, "lon": 20.4158722}, {"type": "node", "id": 7006097710, "lat": 38.1611678, "lon": 20.4158799}, {"type": "node", "id": 7006097711, "lat": 38.1611741, "lon": 20.4160043}, {"type": "node", "id": 7006097712, "lat": 38.1612671, "lon": 20.4159967}, {"type": "node", "id": 7198076901, "lat": 38.0741161, "lon": 20.7988786, "tags": {"amenity": "restaurant", "name": "Main Streat"}}, {"type": "node", "id": 7463785762, "lat": 38.1688295, "lon": 20.4881297, "tags": {"amenity": "restaurant", "name": "FRESKO CARI"}}, {"type": "node", "id": 7860516757, "lat": 38.1851536, "lon": 20.4856568}, {"type": "node", "id": 7860516758, "lat": 38.1852327, "lon": 20.4858472}, {"type": "node", "id": 7860516759, "lat": 38.1851366, "lon": 20.4859118}, {"type": "node", "id": 7860516760, "lat": 38.1850575, "lon": 20.4857214}, {"type": "node", "id": 7860550159, "lat": 38.1759739, "lon": 20.4802463}, {"type": "node", "id": 7860550160, "lat": 38.1760013, "lon": 20.4805199}, {"type": "node", "id": 7860550161, "lat": 38.1758069, "lon": 20.4805514}, {"type": "node", "id": 7860550162, "lat": 38.1757795, "lon": 20.4802778}, {"type": "node", "id": 7947465219, "lat": 38.1641121, "lon": 20.4178551}, {"type": "node", "id": 7947465220, "lat": 38.1641793, "lon": 20.4180856}, {"type": "node", "id": 7947465221, "lat": 38.1642961, "lon": 20.4180305}, {"type": "node", "id": 7947465222, "lat": 38.1642289, "lon": 20.4178}, {"type": "node", "id": 7947465307, "lat": 38.1643341, "lon": 20.4174698}, {"type": "node", "id": 7947465308, "lat": 38.1643589, "lon": 20.4171994}, {"type": "node", "id": 7947465309, "lat": 38.1642902, "lon": 20.4171514}, {"type": "node", "id": 7947465310, "lat": 38.1642942, "lon": 20.4174706}, {"type": "node", "id": 7947465311, "lat": 38.1643583, "lon": 20.4171501}, {"type": "node", "id": 7947465312, "lat": 38.1643351, "lon": 20.4175487}, {"type": "node", "id": 7947465313, "lat": 38.1645555, "lon": 20.4175442}, {"type": "node", "id": 7947465314, "lat": 38.1645512, "lon": 20.4171956}, {"type": "node", "id": 7973443996, "lat": 38.0780183, "lon": 20.8002493, "tags": {"amenity": "cafe", "contact:phone": "+30 267 10 83070", "name": "Anassa Caf\u00e8 pool bar", "outdoor_seating": "yes"}}, {"type": "node", "id": 7973451646, "lat": 38.07769, "lon": 20.8001581, "tags": {"amenity": "restaurant", "bar": "yes", "name": "Avra"}}, {"type": "node", "id": 7973451648, "lat": 38.0764189, "lon": 20.8001876, "tags": {"amenity": "restaurant", "contact:phone": "+30 2671083410", "name": "Pikona"}}, {"type": "node", "id": 7973490339, "lat": 38.073863, "lon": 20.7991844, "tags": {"amenity": "restaurant", "contact:phone": "+30 2671083440", "name": "Elea"}}, {"type": "node", "id": 8012704486, "lat": 38.2201373, "lon": 20.6458605, "tags": {"amenity": "restaurant", "cuisine": "greek", "name": "Dimitroula's place ", "opening_hours": "Mo-Su 09:00-23:00"}}, {"type": "node", "id": 8262061717, "lat": 38.1572975, "lon": 20.5589202, "tags": {"amenity": "restaurant", "cuisine": "greek", "name:en": "Taverna Hersonas", "name:it": "Taverna Hersonas"}}, {"type": "node", "id": 8264027917, "lat": 38.1714662, "lon": 20.491794, "tags": {"addr:postcode": "28100", "addr:street": "\u0394\u03b5\u03b2\u03bf\u03c3\u03ad\u03c4\u03bf\u03c5", "amenity": "restaurant", "cuisine": "greek;grill", "name": "\u03a8\u03b7\u03c4\u03bf\u03c0\u03c9\u03bb\u03b5\u03af\u03bf \u039f \u03a3\u03c0\u03cd\u03c1\u03bf\u03c2", "name:el": "\u03a8\u03b7\u03c4\u03bf\u03c0\u03c9\u03bb\u03b5\u03af\u03bf \u039f \u03a3\u03c0\u03cd\u03c1\u03bf\u03c2", "name:en": "Grillhouse Spyros", "opening_hours": "Mo-Sa 14:00-01:00", "phone": "2671025139", "survey:date": "2024-08-02"}}, {"type": "node", "id": 8296543717, "lat": 38.2224221, "lon": 20.3787284, "tags": {"amenity": "restaurant", "name": "Anatoli"}}, {"type": "node", "id": 8296547918, "lat": 38.2351412, "lon": 20.3767449, "tags": {"amenity": "restaurant", "name": "Atsoupi"}}, {"type": "node", "id": 8296548818, "lat": 38.2388335, "lon": 20.3734457, "tags": {"amenity": "restaurant", "name": "Ladokolla"}}, {"type": "node", "id": 8296577217, "lat": 38.2016162, "lon": 20.3858356, "tags": {"amenity": "restaurant", "name": "Yolandas"}}, {"type": "node", "id": 8296586017, "lat": 38.2037805, "lon": 20.3860991, "tags": {"amenity": "restaurant", "name": "Bylli", "name:el": "Billy's place"}}, {"type": "node", "id": 8296599817, "lat": 38.2521857, "lon": 20.3839834, "tags": {"amenity": "restaurant", "int_name": "Mouria", "name": "\u039c\u03bf\u03c5\u03c1\u03b9\u03ac", "name:el": "\u039c\u03bf\u03c5\u03c1\u03b9\u03ac"}}, {"type": "node", "id": 8297257955, "lat": 38.1634663, "lon": 20.4257181, "tags": {"amenity": "restaurant", "name": "Ostria"}}, {"type": "node", "id": 8777681562, "lat": 38.1072401, "lon": 20.5887438}, {"type": "node", "id": 8777681563, "lat": 38.1072959, "lon": 20.58876}, {"type": "node", "id": 8777681564, "lat": 38.1072685, "lon": 20.5889119}, {"type": "node", "id": 8777681565, "lat": 38.1072127, "lon": 20.5888956}, {"type": "node", "id": 8925057994, "lat": 38.1186719, "lon": 20.5070194}, {"type": "node", "id": 8925057995, "lat": 38.1186233, "lon": 20.5070063}, {"type": "node", "id": 8925057996, "lat": 38.1186482, "lon": 20.5068577}, {"type": "node", "id": 8925057997, "lat": 38.1186968, "lon": 20.5068708}, {"type": "node", "id": 9020398939, "lat": 38.1770385, "lon": 20.4881096, "tags": {"amenity": "cafe", "cuisine": "coffee_shop", "indoor_seating": "no", "name": "Coffee Boat", "outdoor_seating": "no", "takeaway": "only"}}, {"type": "node", "id": 9020581271, "lat": 38.1784638, "lon": 20.4886112, "tags": {"amenity": "restaurant", "cuisine": "japanese", "name": "Sepia", "name:en": "Sepia", "outdoor_seating": "yes"}}, {"type": "node", "id": 9084249788, "lat": 38.1633465, "lon": 20.4823271, "tags": {"amenity": "restaurant", "name": "Nefeli"}}, {"type": "node", "id": 9093941279, "lat": 38.1746763, "lon": 20.4900778, "tags": {"amenity": "cafe", "name": "Uforia Cafe"}}, {"type": "node", "id": 9105911317, "lat": 38.2530847, "lon": 20.6490838, "tags": {"addr:housenumber": "20", "addr:postcode": "280 80", "addr:street": "\u0391\u03c1\u03b3\u03bf\u03c3\u03c4\u03cc\u03bb\u03b9 - \u03a3\u03ac\u03bc\u03b7", "amenity": "restaurant", "internet_access": "wlan", "name:en": "Family restaurant the Mermaid"}}, {"type": "node", "id": 9186981817, "lat": 38.2554325, "lon": 20.6525191, "tags": {"amenity": "cafe", "name": "House of Lords"}}, {"type": "node", "id": 9506384117, "lat": 38.1202217, "lon": 20.5472153, "tags": {"amenity": "restaurant", "name": "Elaionas"}}, {"type": "node", "id": 9659790717, "lat": 38.1057912, "lon": 20.5218893, "tags": {"amenity": "restaurant", "name:en": "Fois"}}, {"type": "node", "id": 9659791917, "lat": 38.1115258, "lon": 20.5246632, "tags": {"amenity": "restaurant", "name:en": "Acropolis"}}, {"type": "node", "id": 9659792617, "lat": 38.1114682, "lon": 20.528705, "tags": {"amenity": "restaurant", "name:en": "Esperides"}}, {"type": "node", "id": 9671723317, "lat": 38.1709648, "lon": 20.584331, "tags": {"amenity": "restaurant", "name:en": "Mpotsolos"}}, {"type": "node", "id": 9709545581, "lat": 38.1984531, "lon": 20.4390758, "tags": {"amenity": "cafe", "check_date": "2024-03-24", "internet_access": "wlan", "internet_access:fee": "no", "name": "\u0386\u03bd\u03b5\u03bc\u03bf\u03c2", "outdoor_seating": "yes"}}, {"type": "node", "id": 9709545584, "lat": 38.1991191, "lon": 20.4390367, "tags": {"amenity": "cafe", "check_date": "2024-03-24", "internet_access": "wlan", "internet_access:fee": "no", "name": "Esspresso Martini", "outdoor_seating": "yes"}}, {"type": "node", "id": 9709545585, "lat": 38.1995395, "lon": 20.4389977, "tags": {"amenity": "restaurant", "cuisine": "greek", "name": "Mezzo", "outdoor_seating": "yes"}}, {"type": "node", "id": 9709545590, "lat": 38.1998395, "lon": 20.438969, "tags": {"amenity": "cafe", "name": "Asilon", "outdoor_seating": "yes"}}, {"type": "node", "id": 9709545592, "lat": 38.200078, "lon": 20.4389146, "tags": {"amenity": "restaurant", "cuisine": "greek;italian;pizza;pasta", "name": "V+S corner bar+restaurant"}}, {"type": "node", "id": 9709545594, "lat": 38.2000869, "lon": 20.4384412, "tags": {"amenity": "cafe", "name": "Senso", "outdoor_seating": "yes"}}, {"type": "node", "id": 9709545596, "lat": 38.1996384, "lon": 20.4388308, "tags": {"amenity": "restaurant", "check_date": "2024-03-24", "cuisine": "greek", "name": "\u03a3' \u03b1\u03bd\u03b1\u03bc\u03ad\u03bd\u03b1 \u03ba\u03ac\u03c1\u03b2\u03bf\u03c5\u03bb\u03b1", "phone": "2671093666"}}, {"type": "node", "id": 9709545600, "lat": 38.1995227, "lon": 20.4385885, "tags": {"amenity": "restaurant", "check_date": "2024-03-24", "name": "Tsibibo"}}, {"type": "node", "id": 9709545602, "lat": 38.2000567, "lon": 20.4378705, "tags": {"amenity": "cafe", "name": "\u0394\u03b9\u03cc\u03bd\u03c5\u03c3\u03bf\u03c2 Cafe", "outdoor_seating": "yes"}}, {"type": "node", "id": 9709545604, "lat": 38.1982863, "lon": 20.4391061, "tags": {"amenity": "restaurant", "check_date": "2024-03-24", "cuisine": "pizza;greek", "name": "Bella Mangia", "phone": "+30 2671092400"}}, {"type": "node", "id": 9802719617, "lat": 38.166826, "lon": 20.4828285, "tags": {"amenity": "restaurant", "name": "Mel's"}}, {"type": "node", "id": 9878806653, "lat": 38.1743348, "lon": 20.4915776, "tags": {"amenity": "restaurant", "cuisine": "american", "diet:vegetarian": "yes", "name": "K63"}}, {"type": "node", "id": 9883247317, "lat": 38.1715291, "lon": 20.4947907, "tags": {"amenity": "restaurant"}}, {"type": "node", "id": 9909150605, "lat": 38.0742459, "lon": 20.7994171}, {"type": "node", "id": 9909162416, "lat": 38.0742969, "lon": 20.7994101}, {"type": "node", "id": 9909171949, "lat": 38.0741939, "lon": 20.7992881}, {"type": "node", "id": 9909172258, "lat": 38.0741959, "lon": 20.7993131}, {"type": "node", "id": 9909172560, "lat": 38.0741239, "lon": 20.7995701}, {"type": "node", "id": 9909173174, "lat": 38.0741019, "lon": 20.7993001}, {"type": "node", "id": 9909173221, "lat": 38.0743079, "lon": 20.7995451}, {"type": "node", "id": 9909173266, "lat": 38.0742369, "lon": 20.7993081}, {"type": "node", "id": 9925283929, "lat": 37.8652884, "lon": 20.7353873}, {"type": "node", "id": 9925283930, "lat": 37.865253, "lon": 20.7354891}, {"type": "node", "id": 9925283931, "lat": 37.8654002, "lon": 20.7355711}, {"type": "node", "id": 9925283932, "lat": 37.8654355, "lon": 20.7354694}, {"type": "node", "id": 9931464485, "lat": 38.1245403, "lon": 20.5360899, "tags": {"addr:postcode": "28100", "addr:street": "\u039c\u03b5\u03c4\u03b1\u03be\u03ac\u03c4\u03b1 - \u03a0\u03b5\u03c3\u03c3\u03ac\u03b4\u03b5\u03c2", "amenity": "restaurant", "cuisine": "cake;coffee_shop;greek", "name": "\u0395\u03bd \u039a\u03b5\u03c6\u03b1\u03bb\u03bb\u03b7\u03bd\u03af\u03b1", "name:el": "\u0395\u03bd \u039a\u03b5\u03c6\u03b1\u03bb\u03bb\u03b7\u03bd\u03af\u03b1", "name:en": "En Keffalonia", "outdoor_seating": "yes", "phone": "+302671041190"}}, {"type": "node", "id": 9947794818, "lat": 38.1798233, "lon": 20.4892594, "tags": {"amenity": "restaurant", "cuisine": "greek", "name": "Portside Taverna"}}, {"type": "node", "id": 9947829719, "lat": 38.0785224, "lon": 20.8004236, "tags": {"amenity": "restaurant", "name": "Paspalis Tavern"}}, {"type": "node", "id": 9962264434, "lat": 38.0749997, "lon": 20.7969961, "tags": {"amenity": "restaurant", "name": "Odysseas's Manor House", "opening_hours": "Mo-Su 17:00-00:30", "phone": "+30 697 222 2993", "website": "https://www.tripadvisor.it/Restaurant_Review-g664630-d2333019-Reviews-Manor_House-Skala_Kefalonia_Ionian_Islands.html"}}, {"type": "node", "id": 9962270904, "lat": 38.0740647, "lon": 20.7968353, "tags": {"amenity": "cafe", "name": "Dodoni Skala Kefalonias / Village Cafe", "opening_hours": "Mo-Su 10:00-02:00", "phone": "+30 2671 083921", "website": "https://m.facebook.com/DodoniSkala/"}}, {"type": "node", "id": 9997684218, "lat": 38.164871, "lon": 20.4824186, "tags": {"amenity": "restaurant", "name": "Taverna Bar Ionio", "opening_hours": "24/7"}}, {"type": "node", "id": 10002122791, "lat": 38.227405, "lon": 20.6278358, "tags": {"access": "permissive", "amenity": "toilets"}}, {"type": "node", "id": 10023875539, "lat": 37.8745354, "lon": 20.6615887, "tags": {"amenity": "restaurant", "name": "Elatino"}}, {"type": "node", "id": 10922260651, "lat": 38.1796015, "lon": 20.4874454, "tags": {"amenity": "restaurant", "name": "Melograno"}}, {"type": "node", "id": 10951341079, "lat": 38.1195405, "lon": 20.6279465, "tags": {"addr:street": "\u039b\u03bf\u03c5\u03c1\u03b4\u03ac\u03c4\u03b1 - \u0392\u03bb\u03b1\u03c7\u03ac\u03c4\u03b1", "amenity": "restaurant", "cuisine": "greek", "name": "Chefalonia", "outdoor_seating": "yes"}}, {"type": "node", "id": 10971426602, "lat": 38.1141868, "lon": 20.6297075, "tags": {"amenity": "restaurant", "name": "Lithero"}}, {"type": "node", "id": 10971434962, "lat": 38.1127006, "lon": 20.6355008, "tags": {"amenity": "restaurant", "name": "Blue Sea"}}, {"type": "node", "id": 11061919294, "lat": 38.2522699, "lon": 20.6471721, "tags": {"amenity": "restaurant", "cuisine": "pizza", "name": "Tereza"}}, {"type": "node", "id": 11061920797, "lat": 38.2514052, "lon": 20.6443634, "tags": {"amenity": "restaurant", "cuisine": "fish;greek", "name": "\u039a\u03b1\u03c1\u03bd\u03ac\u03b3\u03b9\u03bf"}}, {"type": "node", "id": 11088749131, "lat": 38.1740954, "lon": 20.4900533, "tags": {"amenity": "cafe", "check_date": "2024-03-22", "name": "Libretto"}}, {"type": "node", "id": 11127487687, "lat": 38.1192983, "lon": 20.5046729, "tags": {"amenity": "restaurant", "name": "Sir Barley"}}, {"type": "node", "id": 11127487689, "lat": 38.1187774, "lon": 20.5051074, "tags": {"amenity": "restaurant", "check_date:opening_hours": "2023-08-29", "diet:vegetarian": "yes", "name": "Sir Barley", "opening_hours:signed": "no", "payment:credit_cards": "yes", "payment:debit_cards": "yes"}}, {"type": "node", "id": 11161630377, "lat": 38.1596861, "lon": 20.4826283, "tags": {"amenity": "cafe", "name": "Bit & Bite"}}, {"type": "node", "id": 11161630378, "lat": 38.1637119, "lon": 20.4823042, "tags": {"amenity": "restaurant", "name": "Kefalos"}}, {"type": "node", "id": 11161662688, "lat": 38.1706514, "lon": 20.4830786, "tags": {"amenity": "restaurant", "name": "Sto Psito"}}, {"type": "node", "id": 11161664971, "lat": 38.1619344, "lon": 20.4826038, "tags": {"amenity": "restaurant", "name": "Da Veronika"}}, {"type": "node", "id": 11161668299, "lat": 38.1606107, "lon": 20.4824149, "tags": {"amenity": "restaurant", "name": "Retseto"}}, {"type": "node", "id": 11161683602, "lat": 38.1598905, "lon": 20.4826358, "tags": {"amenity": "restaurant", "name": "Tanu's"}}, {"type": "node", "id": 11161686935, "lat": 38.1604845, "lon": 20.4827098, "tags": {"amenity": "restaurant", "name": "Blue Sky"}}, {"type": "node", "id": 11161688801, "lat": 38.1635999, "lon": 20.4820867, "tags": {"amenity": "restaurant", "name": "Sirtaki"}}, {"type": "node", "id": 11161691615, "lat": 38.162247, "lon": 20.4825772, "tags": {"amenity": "restaurant", "name": "Trata"}}, {"type": "node", "id": 11161691617, "lat": 38.1584585, "lon": 20.482522, "tags": {"amenity": "restaurant", "name": "Drosia"}}, {"type": "node", "id": 11161691969, "lat": 38.1615197, "lon": 20.482749, "tags": {"amenity": "restaurant", "name": "Il Gabbiano"}}, {"type": "node", "id": 11161692412, "lat": 38.1671028, "lon": 20.4835084, "tags": {"amenity": "cafe"}}, {"type": "node", "id": 11181111998, "lat": 38.1643617, "lon": 20.4968772, "tags": {"amenity": "cafe", "name": "Four seasons"}}, {"type": "node", "id": 11181146879, "lat": 38.1667527, "lon": 20.4968775, "tags": {"amenity": "cafe"}}, {"type": "node", "id": 11181148628, "lat": 38.1696376, "lon": 20.4880733, "tags": {"amenity": "cafe"}}, {"type": "node", "id": 11755612795, "lat": 38.1504427, "lon": 20.7757859, "tags": {"amenity": "restaurant", "check_date": "2024-03-23", "name": "Pantelis"}}, {"type": "node", "id": 11757862367, "lat": 38.1979401, "lon": 20.4387423, "tags": {"amenity": "restaurant", "check_date": "2024-03-24", "name": "Avli", "name:el": "\u0391\u03c5\u03bb\u03b7"}}, {"type": "node", "id": 11757876471, "lat": 38.1996097, "lon": 20.4384021, "tags": {"amenity": "cafe", "check_date": "2024-03-24", "name:el": "\u039f \u03a6\u03af\u03bb\u03b1\u03b8\u03bb\u03bf\u03c2"}}, {"type": "node", "id": 11757876474, "lat": 38.1984551, "lon": 20.4387614, "tags": {"amenity": "restaurant", "check_date": "2024-03-24", "cuisine": "greek", "name": "Mimoza", "name:el": "\u039c\u03b5\u03b6\u03b5\u03b4\u03bf\u03c0\u03c9\u03bb\u03b5\u03af\u03bf Mimoza"}}, {"type": "node", "id": 11758658048, "lat": 38.1786408, "lon": 20.4881376, "tags": {"amenity": "cafe", "check_date": "2024-03-24", "name": "Baroque Le Bistrot"}}, {"type": "node", "id": 11758658049, "lat": 38.1768231, "lon": 20.488892, "tags": {"amenity": "cafe", "check_date": "2024-03-24", "name": "AnticoCafe"}}, {"type": "node", "id": 11758658050, "lat": 38.1764687, "lon": 20.4890129, "tags": {"amenity": "cafe", "check_date": "2024-03-24", "name": "Cinnamon Cafe"}}, {"type": "node", "id": 11760432821, "lat": 38.1795419, "lon": 20.4887557, "tags": {"amenity": "cafe", "check_date": "2024-03-25", "name": "Cosi"}}, {"type": "node", "id": 11958270456, "lat": 37.8750693, "lon": 20.6588083, "tags": {"amenity": "cafe", "name": "\u0397 \u03a3\u03bf\u03cd\u03bd\u03b1"}}, {"type": "node", "id": 11970045469, "lat": 37.8564733, "lon": 20.7387333, "tags": {"amenity": "cafe"}}, {"type": "node", "id": 12058598125, "lat": 38.0738661, "lon": 20.7976475, "tags": {"amenity": "restaurant", "name": "The Old Village"}}, {"type": "node", "id": 12089324201, "lat": 38.1713946, "lon": 20.4949932, "tags": {"amenity": "cafe", "name": "Soulatso", "survey:date": "2024-08-02"}}, {"type": "node", "id": 12089960544, "lat": 38.105415, "lon": 20.5554141, "tags": {"amenity": "cafe", "name": "\u03a0\u03bb\u03b1\u03c4\u03b5\u03af\u03b1 \u0397 \u0395\u03bb\u03b9\u03ac", "outdoor_seating": "yes", "survey:date": "2024-08-03"}}, {"type": "node", "id": 12097411604, "lat": 38.1816503, "lon": 20.488537, "tags": {"amenity": "cafe", "internet_access": "wlan", "name": "Dash"}}, {"type": "node", "id": 12114106902, "lat": 38.1088421, "lon": 20.511271, "tags": {"addr:postcode": "28100", "amenity": "restaurant", "cuisine": "fish;greek", "name": "\u03a8\u03b1\u03c1\u03cc\u03b3\u03b1\u03c4\u03bf\u03c2", "name:el": "\u03a8\u03b1\u03c1\u03cc\u03b3\u03b1\u03c4\u03bf\u03c2", "name:en": "Fishcat", "phone": "698 456 8191"}}, {"type": "node", "id": 12114115702, "lat": 38.1085587, "lon": 20.5112287, "tags": {"addr:postcode": "28100", "amenity": "cafe", "name": "Tropicana Snack Bar-Caf\u00e9"}}, {"type": "node", "id": 12169431014, "lat": 37.9043335, "lon": 20.7088344, "tags": {"addr:city": "Volimes  Griekenland", "addr:postcode": "290 91", "addr:street": "\u0391\u03b3\u03b9\u03bf\u03c2 \u03bd\u03b9\u03ba\u03bf\u03bb\u03b1\u03bf\u03c2 \u03bb\u03b9\u03bc\u03b1\u03bd\u03b9", "amenity": "restaurant", "cuisine": "greek", "name": "Madrakia", "opening_hours": "Mo-Su 10:00-00:00", "phone": "+306973450794"}}, {"type": "node", "id": 12176768001, "lat": 38.1738357, "lon": 20.5807465, "tags": {"amenity": "restaurant"}}, {"type": "node", "id": 12179888084, "lat": 38.1511261, "lon": 20.7738693, "tags": {"amenity": "cafe"}}, {"type": "node", "id": 12179905718, "lat": 38.1498924, "lon": 20.7766353, "tags": {"amenity": "restaurant", "name": "Pomantza"}}, {"type": "node", "id": 12192861318, "lat": 38.1457921, "lon": 20.7804621, "tags": {"amenity": "restaurant"}}, {"type": "node", "id": 12200843729, "lat": 38.2533403, "lon": 20.649378, "tags": {"addr:city": "Sami", "addr:housenumber": "14", "addr:street": "\u03a0\u03bf\u03c3\u03b5\u03b9\u03b4\u03ce\u03bd\u03bf\u03c2", "amenity": "restaurant", "name": "Nea Sami since 1890"}}, {"type": "node", "id": 12343723248, "lat": 38.1160983, "lon": 20.6344388, "tags": {"amenity": "cafe", "name": "Cafe Platanos"}}, {"type": "node", "id": 12907507478, "lat": 38.1788515, "lon": 20.6791825}, {"type": "node", "id": 12907507479, "lat": 38.1788034, "lon": 20.679285}, {"type": "node", "id": 12907507480, "lat": 38.1786803, "lon": 20.6792044}, {"type": "node", "id": 12907507481, "lat": 38.178724, "lon": 20.6790875}, {"type": "way", "id": 289539635, "nodes": [2930934254, 2930934252, 2930934253, 2930934255, 2930934254], "tags": {"amenity": "cafe", "name": "Xigia"}}, {"type": "way", "id": 299660303, "nodes": [3036935024, 3036934953, 3036935433, 3036935140, 3036935024], "tags": {"amenity": "restaurant", "building": "retail", "source": "Bing"}}, {"type": "way", "id": 299660336, "nodes": [3036935253, 3036934978, 3036935267, 3036935329, 3036935322, 3036935076, 3036934095, 3036934935, 3036935253], "tags": {"amenity": "restaurant", "building": "retail", "source": "Bing"}}, {"type": "way", "id": 302424698, "nodes": [3066818200, 3066818192, 3066818193, 3066818201, 10002122791, 3066818200], "tags": {"amenity": "cafe", "building": "yes", "check_date": "2023-10-17", "name": "Stalaktites Cafe", "opening_hours:signed": "no", "outdoor_seating": "yes", "toilets": "yes"}}, {"type": "way", "id": 354084091, "nodes": [3598597256, 3598597257, 3598597258, 3598597259, 3598597260, 3598597261, 3598597256], "tags": {"amenity": "restaurant", "building": "yes"}}, {"type": "way", "id": 370148872, "nodes": [3738750347, 3738750349, 3738750342, 3738750333, 3738750347], "tags": {"amenity": "restaurant", "building": "yes", "name": "\u039e\u03bf\u03cd\u03c1\u03b1\u03c2"}}, {"type": "way", "id": 370148929, "nodes": [3738750340, 3738750345, 3738750336, 3738750325, 3738750340], "tags": {"amenity": "restaurant", "building": "yes", "name": "Taverna Petani"}}, {"type": "way", "id": 500086298, "nodes": [4912325300, 4912325301, 4912325302, 4912325303, 4912325304, 4912325305, 4912325300], "tags": {"amenity": "cafe", "building": "yes", "name": "Katavothres Club"}}, {"type": "way", "id": 585734404, "nodes": [5596913856, 5596914127, 5596913919, 5596913911, 5596913856], "tags": {"amenity": "cafe", "building": "yes"}}, {"type": "way", "id": 627755994, "nodes": [5926288432, 5926288429, 5926288427, 5926288428, 5926288430, 5926288431, 5926288432], "tags": {"amenity": "restaurant", "building": "yes", "cuisine": "greek", "delivery": "yes", "int_name": "Dionysos", "name": "\u0394\u03b9\u03cc\u03bd\u03c5\u03c3\u03bf\u03c2", "outdoor_seating": "yes", "takeaway": "yes"}}, {"type": "way", "id": 746406397, "nodes": [6985075412, 6985075410, 6985075411, 6985075406, 6985075407, 6985075408, 6985075409, 6985075405, 6985075412], "tags": {"amenity": "restaurant", "bar": "yes", "building": "yes", "cuisine": "ionian", "email": "joya@kef.forthnet.gr", "indoor_seating": "yes", "name": "Milos", "outdoor_seating": "yes", "phone": "+30 26710 83188"}}, {"type": "way", "id": 746424024, "nodes": [6985249247, 6985249248, 6985249244, 6985249245, 6985249242, 6985249249, 6985249246, 6985249243, 6985249247], "tags": {"amenity": "restaurant", "building": "yes", "cuisine": "seafood", "name": "Sunrise", "phone": "+30 26710 83125", "website": "www.skala-sunrise.gr"}}, {"type": "way", "id": 746424025, "nodes": [6985249254, 6985249251, 6985249252, 6985249253, 6985249254], "tags": {"amenity": "cafe", "building": "yes", "name": "Karma", "outdoor_seating": "yes", "phone": "+30 26710 83664"}}, {"type": "way", "id": 746438607, "nodes": [6985335337, 6985335334, 6985335335, 6985335336, 6985335337], "tags": {"amenity": "restaurant", "building": "yes", "cuisine": "regional", "name": "Socrates", "phone": "+30 26710 83318"}}, {"type": "way", "id": 749186765, "nodes": [7006097709, 7006097710, 7006097711, 7006097712, 7006097709], "tags": {"amenity": "restaurant", "building": "yes", "name": "C-BLU", "opening_hours": "Mo-Su 08:00-22:00"}}, {"type": "way", "id": 842598860, "nodes": [7860516760, 7860516757, 7860516758, 7860516759, 7860516760], "tags": {"amenity": "restaurant", "building": "yes", "cuisine": "greek", "name": "\u039a\u03c5\u03b1\u03bd\u03ae \u0391\u03ba\u03c4\u03ae", "name:el": "\u039a\u03c5\u03b1\u03bd\u03ae \u0391\u03ba\u03c4\u03ae", "name:en": "Kyani Akti"}}, {"type": "way", "id": 842598891, "nodes": [7860550162, 7860550159, 7860550160, 7860550161, 7860550162], "tags": {"amenity": "restaurant", "building": "yes", "name": "Oskars Studios", "tourism": "motel", "website": "https://oskars.gr"}}, {"type": "way", "id": 852009596, "nodes": [7947465222, 7947465221, 7947465220, 7947465219, 7947465222], "tags": {"amenity": "restaurant", "building": "yes", "cuisine": "greek", "name": "La Pergola"}}, {"type": "way", "id": 852009609, "nodes": [7947465307, 7947465310, 7947465309, 7947465311, 7947465308, 7947465314, 7947465313, 7947465312, 7947465307], "tags": {"amenity": "restaurant", "building": "yes", "name": "Delice"}}, {"type": "way", "id": 948287182, "nodes": [8777681562, 8777681563, 8777681564, 8777681565, 8777681562], "tags": {"amenity": "restaurant", "building": "yes"}}, {"type": "way", "id": 964795062, "nodes": [8925057997, 8925057994, 8925057995, 8925057996, 8925057997], "tags": {"amenity": "cafe", "building": "yes", "name": "Icarus", "source": "survey"}}, {"type": "way", "id": 1081109536, "nodes": [9909173174, 9909172560, 9909173221, 9909162416, 9909150605, 9909173266, 9909172258, 9909171949, 9909173174], "tags": {"amenity": "restaurant", "building": "yes"}}, {"type": "way", "id": 1083007564, "nodes": [9925283929, 9925283930, 9925283931, 9925283932, 9925283929], "tags": {"addr:city": "Zakinthos", "addr:postcode": "290 91", "amenity": "restaurant", "building": "yes", "cuisine": "greek", "name": "\u03a4\u03b1\u03b2\u03ad\u03c1\u03bd\u03b1 \u039e\u03cd\u03b3\u03ba\u03b9\u03b1", "name:el": "\u03a4\u03b1\u03b2\u03ad\u03c1\u03bd\u03b1 \u039e\u03cd\u03b3\u03ba\u03b9\u03b1", "name:en": "Taverna Xigia", "name:es": "Taverna Xigia", "opening_hours": "Mo-Su 13:30-20:00", "phone": "+30 6982148306", "website": "https://www.zanteisland.com/zakynthos/servizi.php?key=45&language=greece"}}, {"type": "way", "id": 1394239585, "nodes": [12907507478, 12907507479, 12907507480, 12907507481, 12907507478], "tags": {"amenity": "restaurant", "building": "yes", "name": "To Pyrgi"}}]}