{"version": 0.6, "generator": "Overpass API 0.7.62.7 375dc00a", "osm3s": {"timestamp_osm_base": "2025-06-14T14:47:30Z", "copyright": "The data included in this document is from www.openstreetmap.org. The data is made available under ODbL."}, "elements": [{"type": "node", "id": 631895034, "lat": 35.0779468, "lon": 24.7433836, "tags": {"amenity": "cafe", "name": "DelMar"}}, {"type": "node", "id": 631980849, "lat": 35.0285168, "lon": 24.7589645, "tags": {"amenity": "restaurant", "cuisine": "regional", "indoor_seating": "yes", "name": "Aristidis", "outdoor_seating": "yes"}}, {"type": "node", "id": 631986038, "lat": 35.0727597, "lon": 24.7693925, "tags": {"amenity": "cafe", "name": "Kafenion"}}, {"type": "node", "id": 742232568, "lat": 34.9424059, "lon": 25.0530392, "tags": {"amenity": "restaurant", "int_name": "Agios Ioannis", "name": "\u0386\u03b3\u03b9\u03bf\u03c2 \u0399\u03c9\u03ac\u03bd\u03bd\u03b7\u03c2", "name:de": "Agios Ioannis", "name:el": "\u0386\u03b3\u03b9\u03bf\u03c2 \u0399\u03c9\u03ac\u03bd\u03bd\u03b7\u03c2", "name:en": "Agios Ioannis"}}, {"type": "node", "id": 1110390515, "lat": 34.9297772, "lon": 24.9144937, "tags": {"amenity": "restaurant", "cuisine": "greek", "name": "Taverna Odysseas", "operator": "Tsapakis"}}, {"type": "node", "id": 1306231661, "lat": 35.0379251, "lon": 24.8354057, "tags": {"amenity": "restaurant", "cuisine": "regional", "name": "Drosoylites", "source": "Personal visit with GPS log"}}, {"type": "node", "id": 1368250607, "lat": 34.9926322, "lon": 24.7477219, "tags": {"amenity": "restaurant", "check_date": "2024-08-23", "cuisine": "seafood", "internet_access": "wlan", "name": "Plaka", "website": "http://www.visitmatala.com/list.php?cat=5&subcat=22&lang=en", "wheelchair": "limited"}}, {"type": "node", "id": 1886074836, "lat": 35.0146526, "lon": 24.7808494}, {"type": "node", "id": 1886074842, "lat": 35.014524, "lon": 24.7808972}, {"type": "node", "id": 1886074843, "lat": 35.0146814, "lon": 24.7809647}, {"type": "node", "id": 1886074844, "lat": 35.0145528, "lon": 24.7810125}, {"type": "node", "id": 1886085766, "lat": 35.0158715, "lon": 24.7796613, "tags": {"amenity": "restaurant", "name": "Bodikos", "wheelchair": "limited"}}, {"type": "node", "id": 1886085767, "lat": 35.0155306, "lon": 24.7795607, "tags": {"amenity": "restaurant", "name": "Aretoussa"}}, {"type": "node", "id": 2018268898, "lat": 35.0143908, "lon": 24.7810203}, {"type": "node", "id": 2018268923, "lat": 35.0143186, "lon": 24.7810875}, {"type": "node", "id": 2018268924, "lat": 35.0143901, "lon": 24.7811952}, {"type": "node", "id": 2018268953, "lat": 35.0144585, "lon": 24.7811326}, {"type": "node", "id": 2304125421, "lat": 35.0272803, "lon": 24.7591176, "tags": {"amenity": "restaurant", "indoor_seating": "yes", "name": "Delfinia", "outdoor_seating": "yes"}}, {"type": "node", "id": 2390298101, "lat": 35.0518947, "lon": 24.8134283, "tags": {"amenity": "cafe", "int_name": "Xenia Festos", "name": "\u039e\u03b5\u03bd\u03b9\u03b1 \u03a6\u03b1\u03b9\u03c3\u03c4\u03cc\u03c2", "name:de": "Xenia Festos", "name:el": "\u039e\u03b5\u03bd\u03b9\u03b1 \u03a6\u03b1\u03b9\u03c3\u03c4\u03cc\u03c2", "self_service": "yes", "shop": "gift", "wheelchair": "limited"}}, {"type": "node", "id": 2487366265, "lat": 34.9294562, "lon": 24.9146386}, {"type": "node", "id": 2487366270, "lat": 34.92954, "lon": 24.914626}, {"type": "node", "id": 2487366276, "lat": 34.9294314, "lon": 24.9147718}, {"type": "node", "id": 2487366280, "lat": 34.9295783, "lon": 24.9149133}, {"type": "node", "id": 2522445713, "lat": 35.0028837, "lon": 25.0322241, "tags": {"amenity": "cafe"}}, {"type": "node", "id": 2701590014, "lat": 35.0339595, "lon": 24.7876595, "tags": {"amenity": "restaurant", "cuisine": "greek", "name": "Kelari"}}, {"type": "node", "id": 2701590022, "lat": 35.0374127, "lon": 24.7933934, "tags": {"amenity": "restaurant", "capacity": "150", "cuisine": "italian", "internet_access": "wlan", "name": "Pizzeria Ariadni", "name:ru": "\u041f\u0438\u0446\u0435\u0440\u0438\u044f \u0410\u0434\u0440\u0438\u0430\u043d\u0438", "opening_hours": "18-open end", "smoking": "outside", "takeaway": "yes"}}, {"type": "node", "id": 2807342369, "lat": 35.0153146, "lon": 24.7794671, "tags": {"amenity": "restaurant", "name": "Elli's Grillhouse"}}, {"type": "node", "id": 2807342370, "lat": 35.0161979, "lon": 24.7795338, "tags": {"amenity": "restaurant", "name": "Babis", "wheelchair": "no"}}, {"type": "node", "id": 2811934860, "lat": 35.0162953, "lon": 24.7795841, "tags": {"amenity": "restaurant", "cuisine": "pizza", "name": "Ariadni", "wheelchair": "no"}}, {"type": "node", "id": 2811959818, "lat": 35.0160643, "lon": 24.7823509, "tags": {"amenity": "restaurant", "name": "\u039f\u03bd\u03b5\u03af\u03c1\u03b1", "name:de": "Traumfabrik", "name:el": "\u039f\u03bd\u03b5\u03af\u03c1\u03b1", "website": "https://onira-traumfabrik.com"}}, {"type": "node", "id": 2833978265, "lat": 34.9934624, "lon": 24.7495686, "tags": {"amenity": "restaurant", "check_date": "2024-08-23", "cuisine": "greek", "internet_access": "wlan", "internet_access:fee": "no", "name": "The Lions"}}, {"type": "node", "id": 2861209848, "lat": 35.050049, "lon": 24.8928668, "tags": {"amenity": "restaurant", "cuisine": "regional", "name": "\u039f \u03a3\u03c4\u03ad\u03bb\u03b9\u03bf\u03c2", "user_defined": "\u03a4\u03b1\u03b2\u03ad\u03c1\u03bd\u03b1"}}, {"type": "node", "id": 2874961542, "lat": 35.013531, "lon": 24.7756747, "tags": {"amenity": "restaurant", "name": "Sunset"}}, {"type": "node", "id": 2875002941, "lat": 35.0081246, "lon": 24.7598791, "tags": {"amenity": "restaurant", "name": "Comos Taverna - Cafe", "outdoor_seating": "yes", "toilets": "yes", "toilets:access": "customers", "wheelchair": "no"}}, {"type": "node", "id": 2875098694, "lat": 35.0070058, "lon": 24.7594268, "tags": {"amenity": "restaurant", "changing_table": "no", "cuisine": "greek;regional;seafood", "name": "\u0392\u03c1\u03ac\u03c7\u03bf\u03c2", "name:el": "\u0392\u03c1\u03ac\u03c7\u03bf\u03c2", "name:en": "Vrachos", "operator": "Alekos Spinthakis", "outdoor_seating": "yes", "smoking": "outside", "toilets": "yes", "toilets:access": "customers", "toilets:wheelchair": "no", "website": "http://www.vrachos-tavern.gr/gr/index.html"}}, {"type": "node", "id": 2986003341, "lat": 35.0503193, "lon": 24.8703821, "tags": {"amenity": "cafe", "internet_access": "wlan", "internet_access:fee": "no", "name": "Servitis"}}, {"type": "node", "id": 2986003342, "lat": 35.0503527, "lon": 24.8708518, "tags": {"amenity": "restaurant", "indoor_seating": "yes", "outdoor_seating": "yes"}}, {"type": "node", "id": 2986003358, "lat": 34.9934234, "lon": 24.7501406, "tags": {"amenity": "restaurant", "indoor_seating": "yes", "internet_access": "wlan", "internet_access:fee": "no", "name": "Zafiria", "outdoor_seating": "yes"}}, {"type": "node", "id": 2986003366, "lat": 34.9924162, "lon": 24.7496607, "tags": {"addr:city": "\u039c\u03ac\u03c4\u03b1\u03bb\u03b1", "addr:postcode": "70200", "amenity": "restaurant", "contact:email": "info@evamarina.com", "contact:fax": "+30 28920 45769", "contact:phone": "+30 28920 45125", "contact:website": "http://www.evamarina.com/", "internet_access": "wlan", "internet_access:fee": "no", "name": "Eva Marina", "tourism": "apartment"}}, {"type": "node", "id": 2987605316, "lat": 34.9925969, "lon": 24.7489405, "tags": {"amenity": "cafe", "name": "Mermaid"}}, {"type": "node", "id": 2987605317, "lat": 34.9925777, "lon": 24.7485822, "tags": {"amenity": "restaurant", "check_date": "2024-08-23", "cuisine": "greek", "name": "Giannis Family", "name:en": "Giannis Family", "outdoor_seating": "yes", "toilets": "yes", "toilets:access": "customers", "wheelchair": "limited"}}, {"type": "node", "id": 2987605319, "lat": 34.992608, "lon": 24.7480038, "tags": {"addr:street": "\u03a0\u03b1\u03c1\u03ac\u03c0\u03bb\u03b5\u03c5\u03c1\u03b7 \u039f\u03b4\u03cc\u03c2 \u0392\u039f\u0391\u039a", "amenity": "restaurant", "name": "2Friends"}}, {"type": "node", "id": 2987605322, "lat": 34.9931023, "lon": 24.7472358, "tags": {"amenity": "restaurant", "internet_access": "wlan", "internet_access:fee": "no", "name": "Sunset Family Taverna", "operator": "Anna Haralabaki"}}, {"type": "node", "id": 2987605323, "lat": 34.993074, "lon": 24.7472909, "tags": {"amenity": "restaurant", "check_date": "2024-08-23", "internet_access": "wlan", "internet_access:fee": "no", "name": "Scala"}}, {"type": "node", "id": 2987605433, "lat": 34.993283, "lon": 24.7492911, "tags": {"amenity": "restaurant", "check_date": "2024-08-23", "name": "Alexis Zorbas Family Taverna", "opening_hours": "Mo-Su 09:30-23:00", "phone": "+302892045343", "start_date": "1970", "website": "https://taverna-alexis-zorbas.webnode.gr/"}}, {"type": "node", "id": 2987605435, "lat": 34.9931269, "lon": 24.7490866, "tags": {"amenity": "restaurant", "check_date": "2024-08-23", "internet_access": "wlan", "name": "Sirtaki"}}, {"type": "node", "id": 2987605436, "lat": 34.9932257, "lon": 24.7492263, "tags": {"amenity": "restaurant", "check_date": "2024-08-23", "name": "Eleni"}}, {"type": "node", "id": 2987605439, "lat": 34.9935429, "lon": 24.7496762, "tags": {"amenity": "restaurant", "check_date": "2024-08-23", "name": "Dolphin"}}, {"type": "node", "id": 2989607748, "lat": 35.0501754, "lon": 24.870345, "tags": {"amenity": "cafe", "name": "\u03a3\u03c4\u03b1\u03b8\u03bc\u03bf\u03c2", "phone": "+30 28920 22449"}}, {"type": "node", "id": 2998261389, "lat": 34.994187, "lon": 24.7502779, "tags": {"amenity": "restaurant", "bar": "yes", "check_date": "2024-08-23", "internet_access": "wlan", "name": "Anemi Restaurant and Wine Bar", "outdoor_seating": "yes", "payment:cash": "yes", "payment:credit_cards": "yes", "payment:debit_cards": "yes", "wheelchair": "limited"}}, {"type": "node", "id": 3255911567, "lat": 35.0501921, "lon": 24.8787875, "tags": {"amenity": "restaurant", "cuisine": "steak_house", "name": "\u039c\u03c0\u03c1\u03b9\u03b6\u03cc\u03bb\u03b1 \u0393\u03b9\u03ce\u03c1\u03b3\u03bf\u03c2"}}, {"type": "node", "id": 3381281143, "lat": 35.0279391, "lon": 24.7590525, "tags": {"addr:city": "\u039a\u03b1\u03bb\u03b1\u03bc\u03ac\u03ba\u03b9", "addr:street": "Promenade", "amenity": "restaurant", "capacity": "0", "cuisine": "regional,_sehr_traditionell,_einfach", "name": "Taverne Kostas Manusakis", "takeaway": "no"}}, {"type": "node", "id": 3498460268, "lat": 35.0339122, "lon": 24.7893141, "tags": {"amenity": "restaurant", "capacity": "50", "cuisine": "greek", "name": "Akropolis", "opening_hours": "16:00-24:00", "smoking": "outside", "takeaway": "yes"}}, {"type": "node", "id": 3498470671, "lat": 35.0337553, "lon": 24.7894995, "tags": {"amenity": "cafe", "cuisine": "greek", "internet_access": "no", "name": "Kafenion Kentriko", "smoking": "outside"}}, {"type": "node", "id": 3498473020, "lat": 35.03349, "lon": 24.7901785, "tags": {"amenity": "cafe", "cuisine": "greek", "internet_access": "wlan", "name": "Markos", "smoking": "separated"}}, {"type": "node", "id": 3498480363, "lat": 35.0368894, "lon": 24.7938508, "tags": {"amenity": "restaurant", "capacity": "100", "cuisine": "regional_and_international", "name": "Kypos", "opening_hours": "16:00+", "smoking": "outside", "takeaway": "yes", "website": "http://www.kipos-kamilari.gr"}}, {"type": "node", "id": 3498481524, "lat": 35.0314359, "lon": 24.7905869, "tags": {"amenity": "cafe", "cuisine": "regional", "internet_access": "no", "name": "To Steki ton Meraklidon", "smoking": "outside"}}, {"type": "node", "id": 3498497254, "lat": 35.0357255, "lon": 24.7856165, "tags": {"amenity": "restaurant", "capacity": "50", "cuisine": "regional", "indoor_seating": "yes", "name": "Ouzeri Chrysopigi", "opening_hours": "We-Mo 13:00+; Tu off", "outdoor_seating": "yes", "smoking": "outside"}}, {"type": "node", "id": 3526539123, "lat": 35.033843, "lon": 24.7894086, "tags": {"amenity": "restaurant", "cuisine": "greek", "name": "Taverna Loggia"}}, {"type": "node", "id": 3528568629, "lat": 35.0153271, "lon": 24.7814724, "tags": {"amenity": "restaurant", "cuisine": "tapas", "name": "\u039a\u03b1\u03bd\u03c4\u03b9\u03c6\u03ad\u03c2", "name:el": "\u039a\u03b1\u03bd\u03c4\u03b9\u03c6\u03ad\u03c2", "name:en": "Kantifes", "opening_hours": "Tu-Su 08:00-01:00", "phone": "2892029229", "wheelchair": "yes"}}, {"type": "node", "id": 3528568631, "lat": 35.0157446, "lon": 24.7818081, "tags": {"amenity": "restaurant", "name": "\u039b\u0399\u0392\u0391\u03a3", "name:el": "\u039b\u0399\u0392\u0391\u03a3", "name:en": "LIVAS"}}, {"type": "node", "id": 3528568632, "lat": 35.015548, "lon": 24.7817142, "tags": {"amenity": "cafe", "name": "Malibu"}}, {"type": "node", "id": 3547956914, "lat": 34.961591, "lon": 25.0424895, "tags": {"amenity": "restaurant", "check_date": "2025-05-16", "cuisine": "regional", "name": "Thalori Taverna"}}, {"type": "node", "id": 3556934228, "lat": 34.9619524, "lon": 24.9565572}, {"type": "node", "id": 3556934229, "lat": 34.9618821, "lon": 24.9565599}, {"type": "node", "id": 3556934230, "lat": 34.9618855, "lon": 24.9566936}, {"type": "node", "id": 3556934231, "lat": 34.9618426, "lon": 24.9566952}, {"type": "node", "id": 3556934232, "lat": 34.9618439, "lon": 24.9567457}, {"type": "node", "id": 3556934233, "lat": 34.9619224, "lon": 24.9567427}, {"type": "node", "id": 3556934234, "lat": 34.9619215, "lon": 24.9567101}, {"type": "node", "id": 3556934235, "lat": 34.9619563, "lon": 24.9567087}, {"type": "node", "id": 3655120839, "lat": 34.9340822, "lon": 24.8052502}, {"type": "node", "id": 3655120840, "lat": 34.9341916, "lon": 24.8053849}, {"type": "node", "id": 3655120841, "lat": 34.9341021, "lon": 24.8054931}, {"type": "node", "id": 3655120842, "lat": 34.9339927, "lon": 24.8053585}, {"type": "node", "id": 3677711565, "lat": 35.0281034, "lon": 24.7590142, "tags": {"amenity": "cafe", "internet_access": "wlan", "name": "Babis Studios"}}, {"type": "node", "id": 3741483476, "lat": 35.0180531, "lon": 24.8083557, "tags": {"amenity": "restaurant", "cuisine": "greek", "name": "Mr.Mo", "name:el": "Mr.Mo", "name:en": "Mr.Mo", "phone": "+30 2892 042282"}}, {"type": "node", "id": 3741483489, "lat": 35.0279011, "lon": 24.8220849, "tags": {"amenity": "restaurant", "cuisine": "greek", "name": "Taverna Sunset"}}, {"type": "node", "id": 3741504785, "lat": 34.9646069, "lon": 25.0423117, "tags": {"amenity": "restaurant", "cuisine": "greek", "name": "Gunnar und Luis Taverne"}}, {"type": "node", "id": 3741504786, "lat": 34.9645441, "lon": 25.0422059, "tags": {"amenity": "restaurant", "cuisine": "greek", "name": "Taverne von Mro und Adriana"}}, {"type": "node", "id": 3792262357, "lat": 35.0076769, "lon": 24.7596745, "tags": {"amenity": "restaurant", "cuisine": "greek", "name": "Bunga Bunga", "name:en": "Bunga Bunga", "outdoor_seating": "yes", "wheelchair": "no"}}, {"type": "node", "id": 3799592217, "lat": 35.0158376, "lon": 24.7808513, "tags": {"amenity": "restaurant", "name": "\u03a1\u0391\u03a6\u03a4\u0399\u03a3", "name:el": "\u03a1\u0391\u03a6\u03a4\u0399\u03a3", "name:en": "Raftis"}}, {"type": "node", "id": 3799648187, "lat": 35.0204286, "lon": 24.7606382, "tags": {"amenity": "cafe", "name": "Karibu"}}, {"type": "node", "id": 3799649437, "lat": 35.0265434, "lon": 24.7593642, "tags": {"amenity": "restaurant", "cuisine": "greek", "name": "Liberty"}}, {"type": "node", "id": 3799713557, "lat": 35.0295863, "lon": 24.7587596}, {"type": "node", "id": 3799713562, "lat": 35.0295711, "lon": 24.7588547}, {"type": "node", "id": 3799713563, "lat": 35.029659, "lon": 24.7587769}, {"type": "node", "id": 3799713564, "lat": 35.0296438, "lon": 24.758872}, {"type": "node", "id": 3799735826, "lat": 35.0183827, "lon": 24.8083853, "tags": {"amenity": "restaurant", "cuisine": "greek"}}, {"type": "node", "id": 3799735828, "lat": 35.0183189, "lon": 24.8084093, "tags": {"amenity": "restaurant", "cuisine": "greek", "internet_access": "wlan", "name:en": "Kafenion Kostas"}}, {"type": "node", "id": 3799735845, "lat": 35.0184616, "lon": 24.8083478, "tags": {"amenity": "restaurant", "cuisine": "greek", "int_name": "Sigelakis", "name": "\u03a3\u03b9\u03b3\u03b5\u03bb\u03b1\u03ba\u03b9\u03c2", "name:el": "\u03a3\u03b9\u03b3\u03b5\u03bb\u03b1\u03ba\u03b9\u03c2"}}, {"type": "node", "id": 3799750957, "lat": 35.0177609, "lon": 24.8086347, "tags": {"amenity": "restaurant", "cuisine": "greek"}}, {"type": "node", "id": 3800759197, "lat": 35.0270979, "lon": 24.7593387}, {"type": "node", "id": 3800759198, "lat": 35.0270878, "lon": 24.7591983}, {"type": "node", "id": 3800759199, "lat": 35.0271349, "lon": 24.7591932}, {"type": "node", "id": 3800759200, "lat": 35.0271451, "lon": 24.7593336}, {"type": "node", "id": 3800770306, "lat": 35.0265038, "lon": 24.75919, "tags": {"amenity": "cafe"}}, {"type": "node", "id": 3800770310, "lat": 35.0248652, "lon": 24.7595682, "tags": {"amenity": "restaurant", "building": "yes", "cuisine": "greek", "name": "\u0391\u03a1\u0399\u03a3\u03a4\u039f\u0394\u0399\u039c\u039f\u03a3", "name:el": "\u0391\u03a1\u0399\u03a3\u03a4\u039f\u0394\u0399\u039c\u039f\u03a3", "name:en": "Taverna Aristodimos"}}, {"type": "node", "id": 3800783886, "lat": 35.0235649, "lon": 24.7597935, "tags": {"amenity": "restaurant", "cuisine": "greek", "name": "Marina"}}, {"type": "node", "id": 3805498276, "lat": 35.0621285, "lon": 24.9479713, "tags": {"addr:city": "Gortina", "amenity": "cafe", "name": "Gortyna Snack-Cafe", "phone": "+30 2892 027197"}}, {"type": "node", "id": 3817396502, "lat": 35.0263855, "lon": 24.8128705, "tags": {"amenity": "restaurant", "cuisine": "greek", "name": "\u03a4\u03b1\u03b2\u03ad\u03c1\u03bd\u03b1 \u03a3\u03c4\u03c1\u03bf\u03c6\u03ae"}}, {"type": "node", "id": 3859579924, "lat": 35.0179259, "lon": 24.8084333, "tags": {"amenity": "restaurant", "cuisine": "greek", "name": "Vafis Aposperida", "website": "https://vafis-restaurant.gr/"}}, {"type": "node", "id": 4219936590, "lat": 34.932912, "lon": 24.9381481}, {"type": "node", "id": 4219936591, "lat": 34.9328573, "lon": 24.9381575}, {"type": "node", "id": 4219936592, "lat": 34.9328626, "lon": 24.9382032}, {"type": "node", "id": 4219936593, "lat": 34.9329173, "lon": 24.9381938}, {"type": "node", "id": 4219936596, "lat": 34.9328666, "lon": 24.938156}, {"type": "node", "id": 4261349405, "lat": 35.0278333, "lon": 24.7590807, "tags": {"addr:housenumber": "beach road 1", "addr:postcode": "70400", "addr:street": "beach road 1", "amenity": "cafe", "email": "info@Castello-Kalamaki.com", "internet_access": "wlan", "name": "Castello cafe", "opening_hours": "24/7", "phone": "+302892045487", "website": "www.castello-kalamaki.com"}}, {"type": "node", "id": 4366600696, "lat": 35.0840114, "lon": 24.7351095, "tags": {"amenity": "restaurant", "cuisine": "greek", "internet_access": "wlan", "name": "The red castle", "name:el": "The red castle", "name:en": "The red castle"}}, {"type": "node", "id": 4431049884, "lat": 34.9911527, "lon": 25.0179511, "tags": {"amenity": "cafe"}}, {"type": "node", "id": 4431054903, "lat": 34.992783, "lon": 25.0159955, "tags": {"amenity": "restaurant"}}, {"type": "node", "id": 4462208202, "lat": 34.9299512, "lon": 24.913604}, {"type": "node", "id": 4462208203, "lat": 34.9298363, "lon": 24.9135879}, {"type": "node", "id": 4462208204, "lat": 34.929828, "lon": 24.9136765}, {"type": "node", "id": 4462208205, "lat": 34.9299429, "lon": 24.9136925}, {"type": "node", "id": 4757825440, "lat": 35.0170934, "lon": 24.7797708, "tags": {"amenity": "cafe", "name:en": "KING'S coffee and more"}}, {"type": "node", "id": 4785734018, "lat": 34.9297365, "lon": 24.9149445, "tags": {"addr:city": "Dytikos", "addr:postcode": "70400", "amenity": "restaurant", "capacity": "40", "cuisine": "regional", "description": "nette kleine Taverne direkt am Meer", "name": "Susi's Cafe Relax", "opening_hours": "9:00-23:00", "outdoor_seating": "yes", "phone": "+30 28920 95 240", "takeaway": "yes", "website": "https://www.facebook.com/Susis-Caf%C3%A9-Relax-163180567074291/?fref=ts"}}, {"type": "node", "id": 4883884922, "lat": 35.0299156, "lon": 24.7587449, "tags": {"amenity": "restaurant", "cuisine": "greek", "name": "Taverna Pelagos"}}, {"type": "node", "id": 4912668212, "lat": 35.028212, "lon": 24.7588954, "tags": {"addr:city": "\u039a\u03b1\u03bb\u03b1\u03bc\u03ac\u03ba\u03b9", "addr:postcode": "70200", "amenity": "cafe", "name": "Cafe Paradise", "outdoor_seating": "yes"}}, {"type": "node", "id": 5094043522, "lat": 34.9292555, "lon": 24.9223684, "tags": {"amenity": "restaurant", "cuisine": "greek;steak_house", "name": "Taverna Nikitas"}}, {"type": "node", "id": 5097715627, "lat": 34.9308173, "lon": 24.9232894, "tags": {"amenity": "restaurant", "cuisine": "greek;steak_house", "name": "Taverna Manouraki", "name:en": "Manouraki"}}, {"type": "node", "id": 5109736068, "lat": 34.9932851, "lon": 24.7507589, "tags": {"addr:city": "\u039c\u03ac\u03c4\u03b1\u03bb\u03b1", "addr:postcode": "70200", "amenity": "restaurant", "name": "365 All Day", "opening_hours": "Mo-Tu 08:00-01:30; We off; Th-Su 08:00-01:30", "phone": "+302892029223"}}, {"type": "node", "id": 5109736070, "lat": 34.9933018, "lon": 24.7506034, "tags": {"amenity": "restaurant", "cuisine": "fusion;mediterranean", "name": "Bistronomy", "name:de": "Bistronomy", "name:el": "Bistronomy", "name:en": "Bistronomy", "phone": "+30 2892 045066"}}, {"type": "node", "id": 5109737355, "lat": 35.0512412, "lon": 24.8745959, "tags": {"amenity": "cafe", "name": "Jazz Cafe"}}, {"type": "node", "id": 5109737365, "lat": 34.9931643, "lon": 24.7510296, "tags": {"amenity": "restaurant", "name": "Leontarakis"}}, {"type": "node", "id": 5109737531, "lat": 34.9933164, "lon": 24.7510261, "tags": {"amenity": "restaurant", "name": "Fragiskos"}}, {"type": "node", "id": 5152042646, "lat": 34.9372503, "lon": 24.781368, "tags": {"amenity": "cafe", "name": "Kuna Muta"}}, {"type": "node", "id": 5249275553, "lat": 34.9346075, "lon": 24.9482255, "tags": {"amenity": "restaurant", "cuisine": "greek", "name": "Taverna Lefteris"}}, {"type": "node", "id": 5249327826, "lat": 34.9298483, "lon": 24.9142697, "tags": {"amenity": "restaurant", "name": "Patisserei Lakuva"}}, {"type": "node", "id": 5249385278, "lat": 34.9298986, "lon": 24.9223579, "tags": {"amenity": "restaurant", "name": "\u03a0\u03cc\u03c1\u03c4\u03bf \u039b\u03ad\u03bd\u03c4\u03b1\u03c2"}}, {"type": "node", "id": 5249387828, "lat": 34.9296667, "lon": 24.9223835, "tags": {"amenity": "restaurant", "name": "Taverna oasis"}}, {"type": "node", "id": 5249389821, "lat": 34.9303044, "lon": 24.9234564, "tags": {"amenity": "restaurant", "name": "Taverna Meltemi", "website": "meltemi-restaurant.eu"}}, {"type": "node", "id": 5249392778, "lat": 34.9306755, "lon": 24.9242925, "tags": {"amenity": "restaurant", "name": "Taverna EL Greco", "website": "https://www.lentas-elgreco.com/"}}, {"type": "node", "id": 5609626621, "lat": 34.9924721, "lon": 24.7486415, "tags": {"amenity": "restaurant", "cuisine": "greek", "name": "George's Yard", "name:en": "George's Yard", "outdoor_seating": "yes", "wheelchair": "limited"}}, {"type": "node", "id": 5749006225, "lat": 35.0132455, "lon": 25.0002516, "tags": {"amenity": "restaurant", "cuisine": "greek", "name": "\u0399\u03b4\u03bf\u03bc\u03b5\u03bd\u03ad\u03b1\u03c2", "name:el": "\u0399\u03b4\u03bf\u03bc\u03b5\u03bd\u03ad\u03b1\u03c2", "name:en": "Idomeneus", "phone": "+302893041754", "source": "survey", "wheelchair": "no"}}, {"type": "node", "id": 5900068185, "lat": 35.0672341, "lon": 24.8119123, "tags": {"amenity": "cafe", "name": "\u0422\u0430\u0432\u0435\u0440\u043d\u0430"}}, {"type": "node", "id": 5911046666, "lat": 34.9536299, "lon": 25.1363951, "tags": {"amenity": "restaurant", "name": "Marinela Caf\u00e9 Snack Bar", "smoking": "outside"}}, {"type": "node", "id": 5912050862, "lat": 34.953687, "lon": 25.1366292, "tags": {"amenity": "restaurant", "cuisine": "regional", "name": "Cafe Vaggelis"}}, {"type": "node", "id": 6032796478, "lat": 34.993116, "lon": 24.7496383, "tags": {"addr:city": "\u039c\u03ac\u03c4\u03b1\u03bb\u03b1", "addr:postcode": "70200", "amenity": "restaurant", "description": "greek /italian", "indoor_seating": "yes", "name": "The 2 Brothers", "opening_hours": "Mo-Su 10:30-24:00", "outdoor_seating": "yes", "phone": "+306978014584"}}, {"type": "node", "id": 6181827104, "lat": 35.0463838, "lon": 24.8107871}, {"type": "node", "id": 6181827105, "lat": 35.0464639, "lon": 24.8107781}, {"type": "node", "id": 6181827106, "lat": 35.0464749, "lon": 24.8109229}, {"type": "node", "id": 6181827107, "lat": 35.0465034, "lon": 24.8109234}, {"type": "node", "id": 6181827108, "lat": 35.046487, "lon": 24.810715}, {"type": "node", "id": 6181827109, "lat": 35.0463728, "lon": 24.8107284}, {"type": "node", "id": 6181827111, "lat": 35.0468364, "lon": 24.8103568}, {"type": "node", "id": 6181827112, "lat": 35.0468276, "lon": 24.8105929}, {"type": "node", "id": 6181827113, "lat": 35.0470469, "lon": 24.810605}, {"type": "node", "id": 6181827114, "lat": 35.0470557, "lon": 24.810369}, {"type": "node", "id": 6371027841, "lat": 35.0717715, "lon": 24.7687302, "tags": {"amenity": "cafe", "delivery": "Mo-Su 07:00-21:00", "name": "Central Snack Caf\u00e9", "phone": "+30-2892052892", "smoking": "yes"}}, {"type": "node", "id": 6727617285, "lat": 35.0430667, "lon": 25.0939317, "tags": {"amenity": "cafe", "internet_access": "wlan", "name": "\u0417\u043e\u0440\u0430\u043a\u0441", "name:en": "Zoraks"}}, {"type": "node", "id": 6873241585, "lat": 35.08224, "lon": 24.9303827, "tags": {"amenity": "cafe", "cuisine": "greek", "internet_access": "wlan", "name:en": "TO STEKI TOU XOXLIOU", "name:ru": "\u0422\u0430\u0432\u0435\u0440\u043d\u0430 \u043a\u0430\u0444\u0435"}}, {"type": "node", "id": 7044866196, "lat": 35.0289191, "lon": 24.7595338}, {"type": "node", "id": 7044866197, "lat": 35.028913, "lon": 24.7594518}, {"type": "node", "id": 7044866199, "lat": 35.0288363, "lon": 24.7595426}, {"type": "node", "id": 7044866201, "lat": 35.0288302, "lon": 24.7594605}, {"type": "node", "id": 7047508830, "lat": 34.9350383, "lon": 24.9828725, "tags": {"amenity": "restaurant", "cuisine": "greek", "name": "\u039f \u039c\u03b1\u03b8\u03b9\u03cc\u03c2", "name:el": "\u039f \u039c\u03b1\u03b8\u03b9\u03cc\u03c2", "name:en": "Mathios"}}, {"type": "node", "id": 7047566746, "lat": 34.9360636, "lon": 24.9822067, "tags": {"amenity": "restaurant", "name": "\u0397\u03c1\u03b1\u03ba\u03bb\u03ae\u03c2"}}, {"type": "node", "id": 7049568283, "lat": 35.009013, "lon": 24.76935}, {"type": "node", "id": 7049585503, "lat": 35.0089021, "lon": 24.7692883}, {"type": "node", "id": 7049585505, "lat": 35.0089597, "lon": 24.7693935}, {"type": "node", "id": 7049585508, "lat": 35.0089554, "lon": 24.7692448}, {"type": "node", "id": 7049931154, "lat": 34.9410959, "lon": 25.0537007}, {"type": "node", "id": 7049931155, "lat": 34.9410013, "lon": 25.0539153}, {"type": "node", "id": 7049931157, "lat": 34.941143, "lon": 25.0538477}, {"type": "node", "id": 7049931159, "lat": 34.9409542, "lon": 25.0537684}, {"type": "node", "id": 7049933259, "lat": 34.9416598, "lon": 25.0515898, "tags": {"amenity": "cafe", "name": "\u0393\u03b9\u03b1\u03bb\u03cc\u03c2", "name:el": "\u0393\u03b9\u03b1\u03bb\u03cc\u03c2", "name:en": "Gialos"}}, {"type": "node", "id": 7092923084, "lat": 35.0765638, "lon": 24.7443067, "tags": {"amenity": "restaurant", "cuisine": "thai", "name": "\u03a4\u03b1\u03b2\u03ad\u03c1\u03bd\u03b1 \u0391\u03ba\u03c4\u03ae", "name:el": "\u03a4\u03b1\u03b2\u03ad\u03c1\u03bd\u03b1 \u0391\u03ba\u03c4\u03ae", "name:en": "Akti"}}, {"type": "node", "id": 7093026910, "lat": 35.0778896, "lon": 24.7434458, "tags": {"amenity": "restaurant", "cuisine": "greek", "name": "Pelagos"}}, {"type": "node", "id": 7093026999, "lat": 35.0815399, "lon": 24.7404282, "tags": {"amenity": "restaurant", "cuisine": "greek", "name": "Dimitris"}}, {"type": "node", "id": 7093034011, "lat": 35.0833228, "lon": 24.7383622, "tags": {"amenity": "restaurant", "cuisine": "greek", "name": "Enplo"}}, {"type": "node", "id": 7093035996, "lat": 35.0821259, "lon": 24.739845, "tags": {"amenity": "restaurant", "cuisine": "greek", "name": "\u03a4\u03b1 \u03ba\u03b1\u0390\u03ba\u03b9\u03b1", "name:el": "\u03a4\u03b1 \u03ba\u03b1\u0390\u03ba\u03b9\u03b1", "name:en": "ta kaikia"}}, {"type": "node", "id": 7093048476, "lat": 35.0801176, "lon": 24.7419303, "tags": {"amenity": "restaurant", "cuisine": "mediterranean", "name": "alatsi"}}, {"type": "node", "id": 7093068742, "lat": 35.0833815, "lon": 24.7387492, "tags": {"amenity": "cafe", "name": "\u039a\u03ce\u03c3\u03c4\u03b1\u03c2 \u03a3\u03bf\u03c6\u03bf\u03c5\u03bb\u03ac\u03ba\u03b7\u03c2", "name:el": "\u039a\u03ce\u03c3\u03c4\u03b1\u03c2 \u03a3\u03bf\u03c6\u03bf\u03c5\u03bb\u03ac\u03ba\u03b7\u03c2", "name:en": "Kostas"}}, {"type": "node", "id": 7093077418, "lat": 35.0714162, "lon": 24.7713756, "tags": {"amenity": "restaurant", "cuisine": "greek", "name": "\u039c\u03b5\u03bb\u03c4\u03ad\u03bc\u03b9", "name:el": "\u039c\u03b5\u03bb\u03c4\u03ad\u03bc\u03b9", "name:en": "Meltemi"}}, {"type": "node", "id": 7093098745, "lat": 35.0726148, "lon": 24.7691346, "tags": {"amenity": "restaurant", "name": "Mezedopolio to pareaki"}}, {"type": "node", "id": 7093120758, "lat": 35.0719079, "lon": 24.7692647, "tags": {"amenity": "cafe", "name": "\u0391\u03c3\u03c4\u03c1\u03b9\u03bd\u03cc\u03c2"}}, {"type": "node", "id": 7834693702, "lat": 34.9330945, "lon": 24.9386528}, {"type": "node", "id": 7834693705, "lat": 34.9330428, "lon": 24.9386573}, {"type": "node", "id": 8118617740, "lat": 35.0152588, "lon": 24.7802742, "tags": {"addr:city": "\u03a0\u03b9\u03c4\u03c3\u03af\u03b4\u03b9\u03b1", "addr:postcode": "70200", "amenity": "restaurant", "contact:facebook": "https://facebook.com/Greenkukunari", "diet:vegan": "yes", "name": "Green Kukunari", "opening_hours": "09:00-23:30", "organic": "yes", "phone": "+302892029208", "website": "https://greenkukunari.com/", "wheelchair": "yes"}}, {"type": "node", "id": 8118959868, "lat": 35.0504487, "lon": 24.8742877, "tags": {"amenity": "cafe", "name": "\u03a4\u03bf \u039a\u03b1\u03c1\u03b1\u03c6\u03b1\u03ba\u03b9"}}, {"type": "node", "id": 8155902601, "lat": 35.0070127, "lon": 24.7592379, "tags": {"amenity": "restaurant", "name": "Mystical View"}}, {"type": "node", "id": 8391145521, "lat": 35.0486689, "lon": 24.7560623, "tags": {"amenity": "restaurant", "name": "Taverne"}}, {"type": "node", "id": 8870140217, "lat": 34.9392773, "lon": 24.8128604, "tags": {"amenity": "restaurant", "cuisine": "local", "internet_access": "wlan", "name": "\u03a4\u0391\u0392\u0395\u03a1\u039d\u0391 \u039a\u0391\u03a1\u0391\u0392\u039f\u0392\u03a1\u03a5\u03a3\u0397", "name:el": "\u03a4\u03b1\u03b2\u03b5\u03c1\u03bd\u03b1 \u039a\u03b1\u03c1\u03b1\u03b2\u03bf\u03b2\u03c1\u03c5\u03c3\u03b7", "name:en": "Taverna Karavovrisi", "name:fr": "Taverne Karavovrisi", "phone": "+302892097028"}}, {"type": "node", "id": 8874539217, "lat": 34.9303453, "lon": 24.9232741, "tags": {"amenity": "restaurant", "name": "Taverna Zahos"}}, {"type": "node", "id": 9282711420, "lat": 35.006254, "lon": 25.1551771, "tags": {"amenity": "restaurant", "cuisine": "greek", "name": "Minas"}}, {"type": "node", "id": 9282711422, "lat": 35.0106485, "lon": 25.133549, "tags": {"amenity": "restaurant", "name": "Villagio"}}, {"type": "node", "id": 9282711424, "lat": 35.0111611, "lon": 25.1200474, "tags": {"amenity": "cafe", "name": "Luigi"}}, {"type": "node", "id": 9822115018, "lat": 35.0381428, "lon": 24.7868569, "tags": {"amenity": "restaurant", "name": "Minoan Parassies"}}, {"type": "node", "id": 9942024225, "lat": 34.9425556, "lon": 25.0510391, "tags": {"amenity": "restaurant", "name": "\u0396\u03b5\u03c1\u03b2\u03cc\u03c2", "name:el": "\u0396\u03b5\u03c1\u03b2\u03cc\u03c2", "name:en": "Zervos"}}, {"type": "node", "id": 9985521893, "lat": 34.9927132, "lon": 24.7494626, "tags": {"amenity": "cafe", "cuisine": "coffee_shop", "name": "Music Cafe Bar", "outdoor_seating": "yes", "toilets": "yes", "toilets:access": "customers", "toilets:wheelchair": "no", "wheelchair": "limited"}}, {"type": "node", "id": 9985521894, "lat": 34.9926004, "lon": 24.7491386, "tags": {"amenity": "cafe", "name": "Creta", "outdoor_seating": "yes"}}, {"type": "node", "id": 9985521896, "lat": 34.9926447, "lon": 24.7494217, "tags": {"amenity": "restaurant", "indoor_seating": "yes", "name": "Corali", "outdoor_seating": "yes", "wheelchair": "limited"}}, {"type": "node", "id": 9986095915, "lat": 34.9927483, "lon": 24.7486135, "tags": {"amenity": "restaurant", "check_date": "2024-08-23", "name": "\u03a0\u03ad\u03c4\u03c1\u03b1 \u03ba\u03b1\u03b9 \u0392\u03cc\u03c4\u03c3\u03b1\u03bb\u03bf", "name:el": "\u03a0\u03ad\u03c4\u03c1\u03b1 \u03ba\u03b1\u03b9 \u0392\u03cc\u03c4\u03c3\u03b1\u03bb\u03bf", "name:en": "Petra & Votsalo", "outdoor_seating": "yes"}}, {"type": "node", "id": 9986095916, "lat": 34.9930746, "lon": 24.749035, "tags": {"amenity": "cafe", "cuisine": "coffee_shop", "name": "Smile", "outdoor_seating": "yes", "wheelchair": "no"}}, {"type": "node", "id": 10029315240, "lat": 35.0570427, "lon": 24.9447947, "tags": {"amenity": "restaurant", "name": "Ancient Gortyna"}}, {"type": "node", "id": 10074743273, "lat": 35.0514233, "lon": 24.8757561, "tags": {"amenity": "cafe"}}, {"type": "node", "id": 10074743274, "lat": 35.0512838, "lon": 24.8740338, "tags": {"amenity": "cafe", "indoor_seating": "yes", "outdoor_seating": "yes"}}, {"type": "node", "id": 10074743942, "lat": 35.051484, "lon": 24.8742111, "tags": {"amenity": "restaurant", "cuisine": "pizza"}}, {"type": "node", "id": 10074748988, "lat": 35.0508238, "lon": 24.875518, "tags": {"amenity": "cafe", "name": "Mulbery"}}, {"type": "node", "id": 10074754345, "lat": 35.051185, "lon": 24.8735708, "tags": {"amenity": "restaurant", "name": "Dolce Vita"}}, {"type": "node", "id": 10074754718, "lat": 35.0513574, "lon": 24.8738763, "tags": {"amenity": "cafe", "indoor_seating": "yes", "name": "Markakhs", "outdoor_seating": "yes"}}, {"type": "node", "id": 10074756817, "lat": 35.0512716, "lon": 24.8743569, "tags": {"amenity": "restaurant"}}, {"type": "node", "id": 10074876582, "lat": 35.0505781, "lon": 24.8763538, "tags": {"amenity": "restaurant", "name": "Taverna"}}, {"type": "node", "id": 10076287213, "lat": 35.0288221, "lon": 24.7595473}, {"type": "node", "id": 10076287214, "lat": 35.0286979, "lon": 24.7595617}, {"type": "node", "id": 10076287215, "lat": 35.0286932, "lon": 24.7594799}, {"type": "node", "id": 10076287216, "lat": 35.0288173, "lon": 24.7594656}, {"type": "node", "id": 10842053705, "lat": 35.0558109, "lon": 24.9440548, "tags": {"amenity": "restaurant", "cuisine": "greek"}}, {"type": "node", "id": 11077000798, "lat": 35.0290142, "lon": 24.7602442}, {"type": "node", "id": 11077000799, "lat": 35.0289248, "lon": 24.7602454}, {"type": "node", "id": 11077000800, "lat": 35.0289253, "lon": 24.760298}, {"type": "node", "id": 11077000801, "lat": 35.0290147, "lon": 24.7602968}, {"type": "node", "id": 11367033060, "lat": 35.014792, "lon": 24.7808666}, {"type": "node", "id": 11367033061, "lat": 35.0147973, "lon": 24.7809098}, {"type": "node", "id": 11367033062, "lat": 35.0147293, "lon": 24.7809236}, {"type": "node", "id": 11367033063, "lat": 35.014722, "lon": 24.7808797}, {"type": "node", "id": 11421546597, "lat": 35.0286698, "lon": 24.758947, "tags": {"amenity": "restaurant", "indoor_seating": "yes", "name": "Noti Ammos", "outdoor_seating": "yes"}}, {"type": "node", "id": 11666976162, "lat": 34.9330468, "lon": 24.9387243}, {"type": "node", "id": 11666976163, "lat": 34.9330984, "lon": 24.9387199}, {"type": "node", "id": 11935554968, "lat": 35.0138747, "lon": 25.0008983, "tags": {"amenity": "cafe", "cuisine": "coffee_shop", "name": "\u039a\u03b1\u03c6\u03b5\u03bd\u03b5\u03af\u03bf \u039d\u03b5\u03bf\u03bd\u03ac\u03ba\u03b7\u03c2"}}, {"type": "node", "id": 11935579614, "lat": 35.0132449, "lon": 25.0002109, "tags": {"amenity": "restaurant", "name": "\u03a4\u03b1\u03b2\u03ad\u03c1\u03bd\u03b1 - \u039f\u03c5\u03be\u03b5\u03c1\u03af \u201c\u0397 \u03c0\u03bb\u03b1\u03c4\u03b5\u03af\u03b1\u201c"}}, {"type": "node", "id": 11935580008, "lat": 35.0135261, "lon": 25.000179, "tags": {"amenity": "restaurant", "name": "Snack Bar"}}, {"type": "node", "id": 12062851284, "lat": 34.9930358, "lon": 24.7491601, "tags": {"addr:city": "\u039c\u03ac\u03c4\u03b1\u03bb\u03b1", "addr:postcode": "71304", "amenity": "restaurant", "name": "\u03a3\u03c5\u03c1\u03c4\u03ac\u03ba\u03b9", "name:el": "\u03a3\u03c5\u03c1\u03c4\u03ac\u03ba\u03b9", "name:en": "Sirtaki"}}, {"type": "node", "id": 12139658991, "lat": 34.9936295, "lon": 24.751047, "tags": {"addr:city": "\u039c\u03ac\u03c4\u03b1\u03bb\u03b1", "addr:postcode": "70200", "amenity": "restaurant", "name": "Fragiskos Restaurant", "opening_hours": "Mo-Su 07:30-10:15,13:00-14:30,19:30-21:15", "phone": "+302892045380", "website": "https://www.fragiskoshotel.gr/"}}, {"type": "node", "id": 12638171969, "lat": 34.9926997, "lon": 24.7492359, "tags": {"amenity": "restaurant", "diet:vegan": "only", "fixme": "location", "name": "Mad Irie", "opening_hours": "Mar16-Nov03 Tu-Su"}}, {"type": "node", "id": 12757130201, "lat": 35.031322, "lon": 24.8350249, "tags": {"amenity": "restaurant"}}, {"type": "node", "id": 12757130301, "lat": 35.0312154, "lon": 24.8350438, "tags": {"amenity": "cafe"}}, {"type": "way", "id": 178238516, "nodes": [1886074836, 1886074843, 1886074844, 1886074842, 1886074836], "tags": {"amenity": "restaurant", "building": "yes", "cuisine": "greek", "name": "\u0397 \u03a3\u03c5\u03bd\u03ac\u03bd\u03c4\u03b7\u03c3\u03b7", "name:el": "\u0397 \u03a3\u03c5\u03bd\u03ac\u03bd\u03c4\u03b7\u03c3\u03b7", "name:en": "The Meeting Place", "wheelchair": "no"}}, {"type": "way", "id": 191237373, "nodes": [2018268898, 2018268953, 2018268924, 2018268923, 2018268898], "tags": {"amenity": "restaurant", "building": "yes", "cuisine": "greek", "name": "Markos"}}, {"type": "way", "id": 241052288, "nodes": [2487366280, 2487366276, 2487366265, 2487366270, 2487366280], "tags": {"amenity": "restaurant", "building": "yes", "cuisine": "regional", "name": "Taverna Voula"}}, {"type": "way", "id": 349908667, "nodes": [3556934228, 3556934229, 3556934230, 3556934231, 3556934232, 3556934233, 3556934234, 3556934235, 3556934228], "tags": {"amenity": "cafe", "building": "yes"}}, {"type": "way", "id": 360974811, "nodes": [3655120839, 3655120840, 3655120841, 3655120842, 3655120839], "tags": {"amenity": "restaurant", "building": "yes", "cuisine": "greek", "name": "Taverna Gorgona"}}, {"type": "way", "id": 376560342, "nodes": [3799713563, 3799713564, 3799713562, 3799713557, 3799713563], "tags": {"amenity": "restaurant", "building": "yes", "cuisine": "greek", "name": "Taverna Aura"}}, {"type": "way", "id": 376678404, "nodes": [3800759200, 3800759197, 3800759198, 3800759199, 3800759200], "tags": {"amenity": "restaurant", "building": "yes", "cuisine": "fish;greek;thai", "indoor_seating": "yes", "internet_access": "wlan", "name": "\u0393\u0399\u03a9\u03a1\u0393\u039f\u03a3", "name:de": "Giorgos", "name:el": "\u0393\u03b9\u03bf\u03c1\u03b3\u03bf\u03c3", "name:en": "Tavern Giorgios", "operator": "Aristides", "outdoor_seating": "yes"}}, {"type": "way", "id": 422256796, "nodes": [4219936590, 4219936596, 4219936591, 4219936592, 4219936593, 4219936590], "tags": {"amenity": "restaurant", "building": "yes", "name": "Anatoli"}}, {"type": "way", "id": 449249603, "nodes": [4462208202, 4462208203, 4462208204, 4462208205, 4462208202], "tags": {"amenity": "restaurant", "building": "yes", "cuisine": "regional", "name": "Christina's Bistro", "smoking": "yes"}}, {"type": "way", "id": 660261468, "nodes": [6181827109, 6181827108, 6181827107, 6181827106, 6181827105, 6181827104, 6181827109], "tags": {"amenity": "restaurant", "cuisine": "greek", "name": "Taverna Agios Ioannis", "outdoor_seating": "yes"}}, {"type": "way", "id": 660261469, "nodes": [6181827114, 6181827113, 6181827112, 6181827111, 6181827114], "tags": {"amenity": "restaurant", "building": "yes", "cuisine": "greek", "name": "Taverna Lamb House", "outdoor_seating": "yes"}}, {"type": "way", "id": 754070667, "nodes": [7044866196, 7044866199, 7044866201, 7044866197, 7044866196], "tags": {"amenity": "restaurant", "building": "yes", "indoor_seating": "yes", "name": "\u0391\u03b8\u03b9\u03b2\u03bf\u03bb\u03b5\u03c2 \u03c4\u03bf\u03c5 \u039a\u03b1\u03c1\u03b1", "name:el": "\u0391\u03b8\u03b9\u03b2\u03bf\u03bb\u03b5\u03c2 \u03c4\u03bf\u03c5 \u039a\u03b1\u03c1\u03b1", "name:en": "Athivoles tou Kara", "outdoor_seating": "yes"}}, {"type": "way", "id": 754599037, "nodes": [7049568283, 7049585505, 7049585503, 7049585508, 7049568283], "tags": {"addr:city": "\u039c\u03ac\u03c4\u03b1\u03bb\u03b1", "addr:postcode": "70200", "addr:street": "\u0393\u03cc\u03c1\u03c4\u03c5\u03bd\u03b1\u03c2 - \u039b\u03b9\u03bc\u03ad\u03bd\u03b1 \u039c\u03b1\u03c4\u03ac\u03bb\u03c9\u03bd", "amenity": "restaurant", "building": "yes", "cuisine": "regional;greek", "diet:local": "yes", "diet:meat": "yes", "diet:mediterranean": "yes", "diet:vegetarian": "yes", "name": "The Secret Garden", "phone": "+306981770746", "website": "http://www.thesecretgardenmatala.com/"}}, {"type": "way", "id": 754641196, "nodes": [7049931154, 7049931157, 7049931155, 7049931159, 7049931154], "tags": {"amenity": "restaurant", "building": "yes", "name": "\u039a\u03ac\u03b2\u03bf \u03a0\u03cc\u03bd\u03c4\u03b1", "name:el": "\u039a\u03ac\u03b2\u03bf \u03a0\u03cc\u03bd\u03c4\u03b1", "name:en": "Cavo Ponta"}}, {"type": "way", "id": 839615791, "nodes": [7834693705, 11666976162, 11666976163, 7834693702, 7834693705], "tags": {"amenity": "restaurant", "building": "yes", "name": "Ostria", "name:el": "\u039f\u03a3\u03a4\u03a1\u0399\u0391"}}, {"type": "way", "id": 1100994143, "nodes": [10076287216, 10076287215, 10076287214, 10076287213, 10076287216], "tags": {"air_conditioning": "no", "amenity": "restaurant", "building": "yes", "indoor_seating": "yes", "name": "Tavernis Diogenis", "name:de": "Diogenes Taverne", "name:en": "Diogenes Tavern", "opening_hours": "May-Oct PH,Mo-Su 16:00-24:00", "outdoor_seating": "yes", "smoking": "outside", "wheelchair": "yes"}}, {"type": "way", "id": 1193334223, "nodes": [11077000798, 11077000799, 11077000800, 11077000801, 11077000798], "tags": {"amenity": "restaurant", "building": "yes"}}, {"type": "way", "id": 1225727954, "nodes": [11367033060, 11367033061, 11367033062, 11367033063, 11367033060], "tags": {"addr:city": "\u03a0\u03b9\u03c4\u03c3\u03af\u03b4\u03b9\u03b1", "addr:postcode": "702 00", "amenity": "restaurant", "building": "yes", "name": "Bougainvillea"}}]}