{"version": 0.6, "generator": "Overpass API 0.7.62.7 375dc00a", "osm3s": {"timestamp_osm_base": "2025-06-14T14:53:30Z", "copyright": "The data included in this document is from www.openstreetmap.org. The data is made available under ODbL."}, "elements": [{"type": "node", "id": 455937562, "lat": 42.0231831, "lon": 28.0093857, "tags": {"amenity": "restaurant", "name": "\u0421\u0438\u043b\u0438\u0441\u0442\u0430\u0440"}}, {"type": "node", "id": 850560090, "lat": 42.0586726, "lon": 27.780429, "tags": {"amenity": "cafe", "name": "\u041a\u0430\u0444\u0435 \u0412\u0435\u043b\u0435\u043a\u0430"}}, {"type": "node", "id": 2372949116, "lat": 42.0599354, "lon": 27.9783958, "tags": {"addr:housename": "\u0411\u0443\u0442\u0430\u043c\u044f", "addr:street": "\u0411\u0443\u0442\u0430\u043c\u044f", "amenity": "restaurant", "cuisine": "regional", "indoor_seating": "yes", "name": "\u0425\u043e\u0440\u0438\u0437\u043e\u043d\u0442", "opening_hours": "Mo-Su 10:00-23:30", "outdoor_seating": "yes"}}, {"type": "node", "id": 3036591768, "lat": 42.0607896, "lon": 27.9765259}, {"type": "node", "id": 3036591769, "lat": 42.0608695, "lon": 27.9764992}, {"type": "node", "id": 3036591770, "lat": 42.0608875, "lon": 27.9765967}, {"type": "node", "id": 3036591771, "lat": 42.0608076, "lon": 27.9766234}, {"type": "node", "id": 3037670462, "lat": 42.0602057, "lon": 27.9776721}, {"type": "node", "id": 3037670470, "lat": 42.060207, "lon": 27.9776014}, {"type": "node", "id": 3037670473, "lat": 42.0604032, "lon": 27.9776078}, {"type": "node", "id": 3037670474, "lat": 42.0604018, "lon": 27.9776787}, {"type": "node", "id": 3038887855, "lat": 42.060108, "lon": 27.9816967, "tags": {"addr:housenumber": "12", "addr:postcode": "8279", "addr:street": "\u0420\u0438\u0431\u0430\u0440\u0441\u043a\u0430", "alt_name": "Coffee - Pastry Shop - Sea Prince", "amenity": "cafe", "cuisine": "cake", "int_name": "Kafe Sladkarnica Morski Princ Sinemorec", "name": "\u041c\u043e\u0440\u0441\u043a\u0438 \u043f\u0440\u0438\u043d\u0446", "operator": "\u0415\u0422 \u0422\u0418\u0412\u0418-\u0422\u0410\u0422\u042f\u041d\u0410 \u0412\u042a\u041b\u041a\u041e\u0412\u0410 \u0413\u0420.\u041f-\u0412 \u0416.\u041a. \u0422\u0420\u0410\u041a\u0418\u042f \u0411\u041b. 201\u0411", "phone": "+359 89 824 2368", "shop": "pastry", "start_date": "2010", "website": "https://bg-bg.facebook.com/KafeSladkarnicaMorskiPrincSinemorec"}}, {"type": "node", "id": 3039138344, "lat": 42.0567234, "lon": 27.9864021}, {"type": "node", "id": 3039138345, "lat": 42.0566477, "lon": 27.9865488}, {"type": "node", "id": 3039138346, "lat": 42.0567352, "lon": 27.9866306}, {"type": "node", "id": 3039138347, "lat": 42.0568109, "lon": 27.9864838}, {"type": "node", "id": 3589986312, "lat": 41.9839328, "lon": 28.0307147}, {"type": "node", "id": 3589986313, "lat": 41.9839459, "lon": 28.0309854}, {"type": "node", "id": 3589986318, "lat": 41.984039, "lon": 28.0308623}, {"type": "node", "id": 3589986320, "lat": 41.9840445, "lon": 28.0309768}, {"type": "node", "id": 3589986321, "lat": 41.9841045, "lon": 28.0306997}, {"type": "node", "id": 3589986322, "lat": 41.984112, "lon": 28.030856}, {"type": "node", "id": 3643929057, "lat": 42.1002718, "lon": 27.928992}, {"type": "node", "id": 3643929058, "lat": 42.1002904, "lon": 27.9286583}, {"type": "node", "id": 3643929061, "lat": 42.1004099, "lon": 27.929006}, {"type": "node", "id": 3643929062, "lat": 42.1004285, "lon": 27.9286723}, {"type": "node", "id": 3684315283, "lat": 42.1012353, "lon": 27.9466848, "tags": {"amenity": "restaurant", "cuisine": "bulgarian", "internet_access": "wlan", "internet_access:fee": "no", "name": "\u041f\u0440\u0438 \u0421\u0442\u0430\u0440\u0438\u044f \u0428\u0432\u0435\u0439\u043a", "name:cs": "\u0160vejk", "name:de": "Schweik", "outdoor_seating": "yes", "smoking": "yes"}}, {"type": "node", "id": 3684364563, "lat": 42.1020033, "lon": 27.9443861, "tags": {"amenity": "restaurant", "name": "\u0421\u0432\u0435\u0442\u0438 \u0413\u0435\u043e\u0440\u0433\u0438", "opening_hours": "Mo-Su 14:00-15:00,18:00-23:00"}}, {"type": "node", "id": 4279918092, "lat": 42.060148, "lon": 27.9797185, "tags": {"amenity": "restaurant", "internet_access": "wlan", "name": "Rock Mehana"}}, {"type": "node", "id": 4536307308, "lat": 42.1013731, "lon": 27.9431746, "tags": {"amenity": "restaurant", "cuisine": "fish", "name": "Sunrise", "outdoor_seating": "yes", "takeaway": "yes"}}, {"type": "node", "id": 4704755924, "lat": 42.1197057, "lon": 27.899305, "tags": {"amenity": "restaurant", "name": "\u041f\u0440\u0438 \u0414\u0438\u043c\u043e"}}, {"type": "node", "id": 4931400485, "lat": 42.1015164, "lon": 27.9280031}, {"type": "node", "id": 4931400486, "lat": 42.101538, "lon": 27.9278249}, {"type": "node", "id": 4931400487, "lat": 42.101685, "lon": 27.927866}, {"type": "node", "id": 4931400488, "lat": 42.1016551, "lon": 27.9280435}, {"type": "node", "id": 4931403638, "lat": 42.1016087, "lon": 27.9278447, "tags": {"amenity": "cafe"}}, {"type": "node", "id": 4931403639, "lat": 42.1004204, "lon": 27.9288178, "tags": {"amenity": "restaurant"}}, {"type": "node", "id": 4933264021, "lat": 42.1205558, "lon": 27.8986789, "tags": {"amenity": "restaurant", "name": "\u0421\u0442\u0430\u0440\u0446\u0438 \u0440\u0430\u0437\u0431\u043e\u0439\u043d\u0438\u0446\u0438", "name:bg": "\u0421\u0442\u0430\u0440\u0446\u0438 \u0440\u0430\u0437\u0431\u043e\u0439\u043d\u0438\u0446\u0438"}}, {"type": "node", "id": 4936988629, "lat": 41.7389702, "lon": 27.6421664, "tags": {"addr:housenumber": "29", "addr:street": "Atat\u00fcrk", "amenity": "restaurant", "cuisine": "steak_house;turkish;local", "email": "iletisim@yenice.com.tr", "internet_access": "wlan", "name": "Yenice K\u00f6yl\u00fc K\u0131r Lokantas\u0131 - \u00c7aml\u0131k", "name:tr": "Yenice K\u00f6yl\u00fc K\u0131r Lokantas\u0131 - \u00c7aml\u0131k", "opening_hours": "Mo-Su 08:00-00:00", "phone": "+902886855373", "website": "http://www.yenice.com.tr"}}, {"type": "node", "id": 4950777690, "lat": 42.0599882, "lon": 27.9798919, "tags": {"amenity": "restaurant", "cuisine": "fish", "name": "\u0422\u0440\u044a\u0441\u0442\u0438\u043a\u0438\u0442\u0435"}}, {"type": "node", "id": 4950780247, "lat": 42.0995858, "lon": 27.9419513, "tags": {"amenity": "restaurant", "loc_name": "\u0425\u0430\u0432\u0430\u0439", "name": "Hawaii"}}, {"type": "node", "id": 4997920148, "lat": 42.1014128, "lon": 27.9421826, "tags": {"addr:city": "\u0410\u0445\u0442\u043e\u043f\u043e\u043b", "addr:housenumber": "23", "addr:postcode": "8280", "addr:street": "\u0427\u0435\u0440\u043d\u043e \u041c\u043e\u0440\u0435", "amenity": "restaurant", "capacity": "50", "cuisine": "pizza", "name": "Casa Bella", "outdoor_seating": "yes", "smoking": "outside", "website": "https://casabella-ahtopol.wixsite.com/casa-bella"}}, {"type": "node", "id": 5011875126, "lat": 42.0599632, "lon": 27.9795903, "tags": {"addr:city": "\u0421\u0438\u043d\u0435\u043c\u043e\u0440\u0435\u0446", "addr:postcode": "8279", "addr:street": "\u0411\u0443\u0442\u0430\u043c\u044f", "amenity": "restaurant", "name": "YO Bar & Dinner"}}, {"type": "node", "id": 5011875145, "lat": 42.0598678, "lon": 27.9825959, "tags": {"amenity": "restaurant"}}, {"type": "node", "id": 5011877234, "lat": 42.0593518, "lon": 27.9849537, "tags": {"amenity": "restaurant", "name": "Bar and grill"}}, {"type": "node", "id": 5011877237, "lat": 42.0551155, "lon": 27.9860887, "tags": {"amenity": "restaurant"}}, {"type": "node", "id": 5011877682, "lat": 42.0603766, "lon": 27.9772465, "tags": {"amenity": "restaurant"}}, {"type": "node", "id": 5017517727, "lat": 41.9629342, "lon": 28.0224503, "tags": {"amenity": "cafe", "name": "ayaztefanos", "name:tr": "ayaztefanos"}}, {"type": "node", "id": 5485649749, "lat": 41.8249459, "lon": 27.7682541, "tags": {"amenity": "cafe", "name": "Integral Cafe"}}, {"type": "node", "id": 5485649762, "lat": 41.8250134, "lon": 27.7674387, "tags": {"amenity": "cafe"}}, {"type": "node", "id": 5485649763, "lat": 41.8249984, "lon": 27.7673636, "tags": {"amenity": "restaurant", "name": "Efsane Izgara ve \u00c7orba Salonu"}}, {"type": "node", "id": 5485649771, "lat": 41.8249085, "lon": 27.766858, "tags": {"addr:city": "Demirk\u00f6y", "addr:district": "Demirk\u00f6y", "amenity": "cafe"}}, {"type": "node", "id": 5485649788, "lat": 41.8247778, "lon": 27.7663159, "tags": {"addr:city": "Demirk\u00f6y", "addr:district": "Demirk\u00f6y", "amenity": "restaurant", "name": "\u0130kizler Restaurant Sulu Yemek ve Izgara \u00c7e\u015fitleri"}}, {"type": "node", "id": 5485649795, "lat": 41.8249944, "lon": 27.7653667, "tags": {"amenity": "restaurant", "name": "Musti'nin Yeri Pide ve Lahmacun Salonu"}}, {"type": "node", "id": 5485649796, "lat": 41.8246246, "lon": 27.7650771, "tags": {"amenity": "restaurant", "name": "\u015e\u00f6len Restoran Bira Evi"}}, {"type": "node", "id": 5485649803, "lat": 41.8213826, "lon": 27.7571511, "tags": {"addr:city": "Demirk\u00f6y", "addr:district": "Demirk\u00f6y", "addr:neighbourhood": "Orhaniye Mahallesi", "addr:street": "K\u0131rklareli Caddesi", "amenity": "restaurant", "cuisine": "turkish;steak_house", "name": "Samakof K\u0131r Restorant", "phone": "0535 336 73 58"}}, {"type": "node", "id": 5485649804, "lat": 41.8220622, "lon": 27.7510879, "tags": {"amenity": "restaurant", "name": "Bonanza K\u0131r Restaurant"}}, {"type": "node", "id": 5611614882, "lat": 42.1018352, "lon": 27.945994}, {"type": "node", "id": 5611614883, "lat": 42.1017755, "lon": 27.9460986}, {"type": "node", "id": 5611614884, "lat": 42.1017051, "lon": 27.9460256}, {"type": "node", "id": 5611614885, "lat": 42.1017648, "lon": 27.945921}, {"type": "node", "id": 5611615134, "lat": 42.1010155, "lon": 27.9452198}, {"type": "node", "id": 5611615135, "lat": 42.1008603, "lon": 27.9453619}, {"type": "node", "id": 5611615136, "lat": 42.100918, "lon": 27.9454764}, {"type": "node", "id": 5611615137, "lat": 42.1010732, "lon": 27.9453343}, {"type": "node", "id": 5715863037, "lat": 42.059991, "lon": 27.9793757, "tags": {"amenity": "restaurant", "name": "The Pig of the sea"}}, {"type": "node", "id": 6653336598, "lat": 41.8405174, "lon": 27.5570959, "tags": {"amenity": "restaurant", "name": "D\u00f6ngel Kasap Izgara"}}, {"type": "node", "id": 6689674885, "lat": 42.1226412, "lon": 27.9004258, "tags": {"amenity": "restaurant", "name": "\u0411\u043e\u0446\u043c\u0430\u043d\u0430"}}, {"type": "node", "id": 6698570518, "lat": 42.065612, "lon": 27.9741327, "tags": {"amenity": "cafe"}}, {"type": "node", "id": 7859526640, "lat": 41.875093, "lon": 27.9132945, "tags": {"addr:city": "k\u0131rklareli", "addr:district": "demirk\u00f6y", "addr:neighbourhood": "D565, 39500/Demirk\u00f6y K\u0131rklareli TR,", "addr:postcode": "39400", "amenity": "restaurant", "cuisine": "turkish", "name": "Sakl\u0131kent Beylerbeyi \u00c7iftli\u011fi", "website": "http://www.sakl\u0131kentbeylerbeyiciftligi.com"}}, {"type": "node", "id": 8149517621, "lat": 41.8152819, "lon": 27.7446822, "tags": {"amenity": "cafe", "name": "Yol Bitti Komutan\u0131m"}}, {"type": "node", "id": 8357574145, "lat": 42.0880894, "lon": 27.8574439, "tags": {"amenity": "cafe"}}, {"type": "node", "id": 8911265546, "lat": 42.1008933, "lon": 27.938047, "tags": {"addr:street": "\u0422\u0440\u0435\u0442\u0438 \u041c\u0430\u0440\u0442", "amenity": "cafe", "cuisine": "ice_cream", "name:bg": "\u041c\u0430\u0433\u0430\u0437\u0438\u043d\u044a\u0442 \u043e\u0442 \u044a\u0433\u044a\u043b\u0430", "name:en": "Corner Shop", "outdoor_seating": "yes", "shop": "yes"}}, {"type": "node", "id": 8911838019, "lat": 42.1017846, "lon": 27.937187, "tags": {"amenity": "restaurant", "name": "\u041c\u043e\u0440\u0441\u043a\u0438 \u0431\u0440\u0438\u0437 2", "self_service": "yes"}}, {"type": "node", "id": 8928479386, "lat": 42.0995014, "lon": 27.9413043, "tags": {"amenity": "restaurant", "cuisine": "pizza", "internet_access": "wlan", "name": "Venezia", "name:bg": "\u0412\u0435\u043d\u0435\u0446\u0438\u044f", "outdoor_seating": "yes", "toilets": "yes"}}, {"type": "node", "id": 8929242817, "lat": 42.1011385, "lon": 27.9411101, "tags": {"amenity": "restaurant", "internet_access": "wlan", "name": "\u0413\u0435\u043d\u0435\u0437\u0438\u0441"}}, {"type": "node", "id": 8954780319, "lat": 41.9847516, "lon": 28.0297966}, {"type": "node", "id": 8956138557, "lat": 41.9847974, "lon": 28.0298526}, {"type": "node", "id": 8956138558, "lat": 41.9847049, "lon": 28.0299831}, {"type": "node", "id": 8956138559, "lat": 41.9846611, "lon": 28.0299336}, {"type": "node", "id": 9083886588, "lat": 42.0621215, "lon": 27.9816342}, {"type": "node", "id": 9083886604, "lat": 42.0619989, "lon": 27.9816445}, {"type": "node", "id": 9083893924, "lat": 42.0621324, "lon": 27.9816533}, {"type": "node", "id": 9083893943, "lat": 42.0621522, "lon": 27.9816022}, {"type": "node", "id": 9083893958, "lat": 42.0620518, "lon": 27.981737}, {"type": "node", "id": 9083893972, "lat": 42.0621103, "lon": 27.9815289}, {"type": "node", "id": 9103782350, "lat": 42.0600354, "lon": 27.9794376}, {"type": "node", "id": 9103782361, "lat": 42.0601627, "lon": 27.9796203}, {"type": "node", "id": 9103782381, "lat": 42.0600338, "lon": 27.9796244}, {"type": "node", "id": 9103782395, "lat": 42.0601536, "lon": 27.9793994}, {"type": "node", "id": 9129878878, "lat": 42.0883042, "lon": 27.8574981, "tags": {"amenity": "restaurant"}}, {"type": "node", "id": 9149684893, "lat": 42.0935881, "lon": 27.6808674, "tags": {"amenity": "cafe", "name": "\u041f\u043e\u0441\u043b\u0435\u0434\u043d\u0438\u0439 \u043f\u0430\u0442\u0440\u043e\u043d"}}, {"type": "node", "id": 9684892203, "lat": 41.8972865, "lon": 27.5455973, "tags": {"amenity": "cafe", "name": "Paspala Market & Cafe"}}, {"type": "node", "id": 9951243975, "lat": 42.0993241, "lon": 27.9393822, "tags": {"amenity": "cafe", "check_date": "2022-08-12", "name": "D\u00e9j\u00e0 vu", "outdoor_seating": "yes"}}, {"type": "node", "id": 9962450502, "lat": 42.0606384, "lon": 27.9771023}, {"type": "node", "id": 9962450503, "lat": 42.0607832, "lon": 27.9770509}, {"type": "node", "id": 9962450504, "lat": 42.0608112, "lon": 27.9772769}, {"type": "node", "id": 9962450505, "lat": 42.0606803, "lon": 27.9773265}, {"type": "node", "id": 10004786473, "lat": 42.1008627, "lon": 27.9396108, "tags": {"amenity": "restaurant", "name": "\u0411\u0438\u0441\u0442\u0440\u043e \u0410\u0445\u0442\u043e\u043f\u043e\u043b"}}, {"type": "node", "id": 10216508366, "lat": 42.0993762, "lon": 27.9372362, "tags": {"amenity": "restaurant", "cuisine": "seafood"}}, {"type": "node", "id": 10221956582, "lat": 42.099814, "lon": 27.939118, "tags": {"amenity": "restaurant"}}, {"type": "node", "id": 10221976707, "lat": 42.0994642, "lon": 27.9406794, "tags": {"amenity": "restaurant", "name": "\u0411\u0438\u0441\u0442\u0440\u043e \u0414\u0438\u0430\u043d\u0430"}}, {"type": "node", "id": 10221999293, "lat": 42.0995993, "lon": 27.9398166, "tags": {"amenity": "restaurant", "name": "\u041c\u0435\u0445\u0430\u043d\u0430 \u041a\u043e\u0442\u0432\u0430\u0442\u0430"}}, {"type": "node", "id": 10222001128, "lat": 42.099458, "lon": 27.9400389, "tags": {"amenity": "restaurant", "name": "\u041a\u0440\u044a\u0447\u043c\u0430\u0442\u0430", "name:en": "Kr\u010dmata"}}, {"type": "node", "id": 10222001430, "lat": 42.0995584, "lon": 27.9426407, "tags": {"amenity": "restaurant"}}, {"type": "node", "id": 10222865904, "lat": 42.1000839, "lon": 27.9430965, "tags": {"amenity": "restaurant"}}, {"type": "node", "id": 10570043805, "lat": 42.1015464, "lon": 27.9423824, "tags": {"amenity": "restaurant", "name": "\u042e\u0436\u0435\u043d \u0431\u0440\u044f\u0433", "opening_hours": "12:00-15:00; 18:00-23:00"}}, {"type": "node", "id": 10929778920, "lat": 41.6961125, "lon": 27.9423975}, {"type": "node", "id": 10929778921, "lat": 41.6961195, "lon": 27.9422627}, {"type": "node", "id": 10929778922, "lat": 41.6959824, "lon": 27.94225}, {"type": "node", "id": 10929778923, "lat": 41.6959754, "lon": 27.9423848}, {"type": "node", "id": 10929778924, "lat": 41.6963295, "lon": 27.9420018}, {"type": "node", "id": 10929778925, "lat": 41.6963435, "lon": 27.942179}, {"type": "node", "id": 10929778926, "lat": 41.696263, "lon": 27.9421904}, {"type": "node", "id": 10929778927, "lat": 41.696249, "lon": 27.9420132}, {"type": "node", "id": 10929778928, "lat": 41.6961611, "lon": 27.9417236}, {"type": "node", "id": 10929778929, "lat": 41.6960892, "lon": 27.9417163}, {"type": "node", "id": 10929778930, "lat": 41.696095, "lon": 27.941615}, {"type": "node", "id": 10929778931, "lat": 41.6961668, "lon": 27.9416224}, {"type": "node", "id": 10970148847, "lat": 41.7367427, "lon": 27.6384538, "tags": {"amenity": "restaurant", "name": "Halim Restoran Et ve Et \u00dcr\u00fcnleri"}}, {"type": "node", "id": 11601268473, "lat": 41.823936, "lon": 27.772048, "tags": {"amenity": "cafe"}}, {"type": "node", "id": 11601268474, "lat": 41.8775816, "lon": 27.9873912, "tags": {"addr:city": "\u0130\u011fneada", "addr:district": "Demirk\u00f6y", "addr:neighbourhood": "Deniz Mahallesi", "amenity": "restaurant"}}, {"type": "node", "id": 11601268571, "lat": 41.8772151, "lon": 27.9871392, "tags": {"addr:city": "\u0130\u011fneada", "addr:district": "Demirk\u00f6y", "addr:neighbourhood": "Deniz Mahallesi", "amenity": "restaurant"}}, {"type": "node", "id": 11601268870, "lat": 41.8774319, "lon": 27.9870874, "tags": {"addr:city": "\u0130\u011fneada", "addr:district": "Demirk\u00f6y", "addr:neighbourhood": "Deniz Mahallesi", "amenity": "restaurant"}}, {"type": "node", "id": 11993035681, "lat": 41.8701518, "lon": 27.9809603, "tags": {"addr:city": "\u0130\u011fneada", "addr:district": "Demirk\u00f6y", "addr:neighbourhood": "Deniz Mahallesi", "amenity": "cafe", "name": "Pablo Cafe"}}, {"type": "node", "id": 12030194704, "lat": 41.8409116, "lon": 27.8039364, "tags": {"addr:district": "Demirk\u00f6y", "addr:neighbourhood": "Yeni Mahalle", "amenity": "restaurant", "name": "Efkan Ta\u015f Mekan K\u0131r Lokantas\u0131"}}, {"type": "node", "id": 12065180120, "lat": 42.0601609, "lon": 27.9799962, "tags": {"addr:city": "\u0421\u0438\u043d\u0435\u043c\u043e\u0440\u0435\u0446", "addr:housenumber": "11", "addr:postcode": "8279", "addr:street": "\u0411\u0443\u0442\u0430\u043c\u044f", "amenity": "restaurant", "name": "\u0421\u0438\u043d\u044f\u0442\u0430 \u0430\u043a\u0443\u043b\u0430", "name:en": "The Blue Shark", "phone": "+359877572616"}}, {"type": "node", "id": 12098358993, "lat": 42.0614872, "lon": 27.9787115, "tags": {"amenity": "cafe", "check_date": "2024-08-08", "name": "Levandi"}}, {"type": "node", "id": 12404326731, "lat": 41.8833858, "lon": 27.9926957, "tags": {"addr:city": "\u0130\u011fneada", "addr:district": "Demirk\u00f6y", "addr:neighbourhood": "Deniz Mahallesi", "addr:street": "Liman 1. Cadde", "amenity": "restaurant", "name": "Rota Bal\u0131k Restaurant"}}, {"type": "node", "id": 12404326732, "lat": 41.8848732, "lon": 27.9942944, "tags": {"addr:city": "\u0130\u011fneada", "addr:district": "Demirk\u00f6y", "addr:neighbourhood": "Deniz Mahallesi", "addr:street": "Liman 1. Caddesi", "amenity": "restaurant", "name": "\u00c7atkap\u0131 Et & Bal\u0131k Restaurant"}}, {"type": "node", "id": 12404326733, "lat": 41.887801, "lon": 27.9975064, "tags": {"addr:city": "\u0130\u011fneada", "addr:district": "Demirk\u00f6y", "addr:neighbourhood": "Deniz Mahallesi", "addr:street": "Liman 1. Caddesi", "amenity": "restaurant", "cuisine": "fish", "name": "Kumsal Et Bal\u0131k K\u00f6fte"}}, {"type": "node", "id": 12404326734, "lat": 41.8909229, "lon": 28.0286303, "tags": {"addr:city": "Limank\u00f6y", "addr:district": "Demirk\u00f6y", "amenity": "restaurant", "name": "\u015eahin Tepesi Izgara ve Bal\u0131k Restoran"}}, {"type": "node", "id": 12404326735, "lat": 41.8896375, "lon": 28.0296316, "tags": {"addr:city": "Limank\u00f6y", "addr:district": "Demirk\u00f6y", "addr:street": "Dolunay Caddesi", "amenity": "restaurant", "name": "Liman Restoran"}}, {"type": "node", "id": 12802697462, "lat": 41.8775503, "lon": 27.987198, "tags": {"addr:district": "Demirk\u00f6y", "addr:housenumber": "5/B", "addr:neighbourhood": "Deniz Mahallesi", "addr:postcode": "39650", "addr:street": "Cumhuriyet Meydan\u0131", "amenity": "restaurant", "bar": "yes", "contact:facebook": "lebideryaigneada", "cuisine": "turkish", "internet_access": "yes", "microbrewery": "no", "name": "Leb-i Derya \u0130\u011fneada", "opening_hours": "Mo-Su 09:00-01:00", "outdoor_seating": "yes", "phone": "+905558197236", "reservation": "yes", "toilets": "yes"}}, {"type": "way", "id": 299633761, "nodes": [3036591770, 3036591771, 3036591768, 3036591769, 3036591770], "tags": {"addr:city": "\u0421\u0438\u043d\u0435\u043c\u043e\u0440\u0435\u0446", "addr:postcode": "8279", "amenity": "cafe", "building": "yes", "name": "\u041c\u043e\u0440\u0441\u043a\u0438 \u0414\u0430\u0440"}}, {"type": "way", "id": 299732497, "nodes": [3037670473, 3037670474, 3037670462, 3037670470, 3037670473], "tags": {"addr:postcode": "8279", "addr:street": "\u0411\u0443\u0447\u0442\u0430\u043c\u044f", "amenity": "restaurant", "building": "yes", "cuisine": "regional", "int_name": "ALBATROS", "name": "\u0410\u041b\u0411\u0410\u0422\u0420\u041e\u0421", "operator": "\u0415\u0422 \u0422\u0415\u041e\u0414\u041e\u0420\u0410 - \u041a\u0420\u042a\u0421\u0422\u042e \u0424\u0410\u041a\u0410\u041b\u0418\u0419\u0421\u041a\u0418 \u0413\u0420. \u0411\u0423\u0420\u0413\u0410\u0421 . \u0423\u041b. \u0421\u041e\u0424\u0420\u041e\u041d\u0418\u0419 15"}}, {"type": "way", "id": 299835713, "nodes": [3039138347, 3039138346, 3039138345, 3039138344, 3039138347], "tags": {"amenity": "restaurant", "building": "yes", "cuisine": "pizza", "indoor_seating": "no", "name": "\u041a\u0443\u0446\u0430\u0442\u0430 \u041c\u0435\u0434\u0443\u0437\u0430", "outdoor_seating": "yes"}}, {"type": "way", "id": 353224760, "nodes": [3589986321, 3589986322, 3589986318, 3589986320, 3589986313, 3589986312, 3589986321], "tags": {"amenity": "restaurant", "building": "yes", "building:levels": "7", "capacity": "50", "cuisine": "regional;seafood", "drink:wine": "low_alcohol;served;rose", "name": "\u041f\u0430\u043d\u043e\u0440\u0430\u043c\u0430", "name:en": "Panorama", "opening_hours": "Mo-Su 09:00-23:00", "outdoor_seating": "yes", "smoking": "outside"}}, {"type": "way", "id": 359735854, "nodes": [3643929062, 3643929061, 3643929057, 3643929058, 3643929062], "tags": {"amenity": "restaurant", "building": "yes"}}, {"type": "way", "id": 502761754, "nodes": [4931400485, 4931400486, 4931400487, 4931400488, 4931400485], "tags": {"amenity": "cafe", "building": "yes", "name": "\u041a\u0430\u0440\u0430\u0432\u0430\u043d\u0430\u0442\u0430"}}, {"type": "way", "id": 587488046, "nodes": [5611614885, 5611614882, 5611614883, 5611614884, 5611614885], "tags": {"amenity": "restaurant", "building": "yes", "name": "\u0411\u0438\u0441\u0442\u0440\u043e \u0411\u043e\u0440\u0443\u043d\u0430", "name:bg": "\u0411\u0438\u0441\u0442\u0440\u043e \u0411\u043e\u0440\u0443\u043d\u0430", "name:en": "Boruna bistro", "opening_hours": "12:00-14:00; 18:00-24:00", "stars": "2"}}, {"type": "way", "id": 587488071, "nodes": [5611615137, 5611615136, 5611615135, 5611615134, 5611615137], "tags": {"addr:city": "\u0410\u0445\u0442\u043e\u043f\u043e\u043b", "addr:housenumber": "29", "addr:postcode": "8280", "addr:street": "\u041a\u0440\u0430\u0439\u043c\u043e\u0440\u0441\u043a\u0430", "amenity": "restaurant", "building": "yes", "cuisine": "seafood", "name": "\u0427\u0435\u0442\u0438\u0440\u0438\u043c\u0430\u0442\u0430 \u043a\u0430\u043f\u0438\u0442\u0430\u043d\u0438", "name:bg": "\u0427\u0435\u0442\u0438\u0440\u0438\u043c\u0430\u0442\u0430 \u043a\u0430\u043f\u0438\u0442\u0430\u043d\u0438"}}, {"type": "way", "id": 968069288, "nodes": [8954780319, 8956138557, 8956138558, 8956138559, 8954780319], "tags": {"addr:postcode": "8281", "amenity": "restaurant", "building": "yes", "cuisine": "grill;local;regional;seafood", "name": "\u041c\u043e\u0440\u0441\u043a\u0430 \u0433\u0440\u0430\u0434\u0438\u043d\u0430", "name:bg": "\u041c\u043e\u0440\u0441\u043a\u0430 \u0433\u0440\u0430\u0434\u0438\u043d\u0430", "name:en": "Morska Gradina", "phone": "+359 88 249 2264"}}, {"type": "way", "id": 982208171, "nodes": [9083893972, 9083886604, 9083893958, 9083893924, 9083886588, 9083893943, 9083893972], "tags": {"air_conditioning": "no", "amenity": "cafe", "bar": "no", "building": "yes", "cuisine": "fish", "internet_access": "no", "name": "\u0422\u0430\u043b\u044f\u043d\u0430", "outdoor_seating": "no", "payment:american_express": "no", "payment:coins": "yes", "payment:credit_cards": "no", "payment:debit_cards": "no", "payment:maestro": "no", "payment:mastercard": "no", "payment:notes": "no", "payment:telephone_cards": "no", "payment:visa": "no"}}, {"type": "way", "id": 984699759, "nodes": [9103782395, 9103782350, 9103782381, 9103782361, 9103782395], "tags": {"addr:city": "\u0421\u0438\u043d\u0435\u043c\u043e\u0440\u0435\u0446", "addr:postcode": "8279", "amenity": "cafe", "building": "yes", "name": "\u041f\u0440\u0438\u044f\u0442\u0435\u043b\u0438"}}, {"type": "way", "id": 1087321328, "nodes": [9962450502, 9962450503, 9962450504, 9962450505, 9962450502], "tags": {"addr:city": "\u0421\u0438\u043d\u0435\u043c\u043e\u0440\u0435\u0446", "addr:housenumber": "61", "addr:postcode": "8279", "addr:street": "\u0421\u0432. \u0421\u0432. \u041a\u0438\u0440\u0438\u043b \u0438 \u041c\u0435\u0442\u043e\u0434\u0438\u0439", "amenity": "restaurant", "building": "yes", "name": "\u0411\u0438\u0440\u0430\u0440\u0438\u044f \u0425\u0435\u043b\u0438\u043e\u0441", "outdoor_seating": "yes", "phone": "+359 88 845 7717", "website": "https://www.facebook.com/%D0%91%D0%B8%D1%80%D0%B0%D1%80%D0%B8%D1%8F-%D1%85%D0%B5%D0%BB%D0%B8%D0%BE%D1%81-238328450294870/"}}, {"type": "way", "id": 1176358870, "nodes": [10929778920, 10929778921, 10929778922, 10929778923, 10929778920], "tags": {"amenity": "restaurant", "building": "yes", "name": "Aydin K\u00f6fte"}}, {"type": "way", "id": 1176358871, "nodes": [10929778924, 10929778925, 10929778926, 10929778927, 10929778924], "tags": {"amenity": "restaurant", "building": "yes"}}, {"type": "way", "id": 1176358872, "nodes": [10929778928, 10929778929, 10929778930, 10929778931, 10929778928], "tags": {"amenity": "cafe", "building": "yes"}}]}