{"version": 0.6, "generator": "Overpass API 0.7.62.7 375dc00a", "osm3s": {"timestamp_osm_base": "2025-06-14T14:49:31Z", "copyright": "The data included in this document is from www.openstreetmap.org. The data is made available under ODbL."}, "elements": [{"type": "node", "id": 4058930883, "lat": 40.1184577, "lon": 25.7010702, "tags": {"amenity": "restaurant", "name": "Sahil Restorant"}}, {"type": "node", "id": 4058931171, "lat": 40.1219819, "lon": 25.7049767, "tags": {"amenity": "restaurant", "name": "U\u011furlu Cafe Restorant"}}, {"type": "node", "id": 4058941620, "lat": 40.1521246, "lon": 25.770612, "tags": {"amenity": "cafe", "name": "Halaka K\u00f6y Evi"}}, {"type": "node", "id": 4058964028, "lat": 40.1929623, "lon": 25.9060467, "tags": {"amenity": "cafe", "name": "F\u0131s\u0131lt\u0131 Kafe"}}, {"type": "node", "id": 4058964031, "lat": 40.1942393, "lon": 25.9052499, "tags": {"amenity": "restaurant", "name": "Merkez Lokantas\u0131"}}, {"type": "node", "id": 4058977388, "lat": 40.2314808, "lon": 25.8949662, "tags": {"amenity": "restaurant", "name": "Son Vapur"}}, {"type": "node", "id": 4322905178, "lat": 40.2321705, "lon": 25.8945684, "tags": {"amenity": "restaurant", "name": "Seabird Tekne Turu", "phone": "0543 382 61 61; 0536 595 15 15", "source": "http://www.gokceadarehberim.com/nm-Seabird_Tekne_Turu-cp-379"}}, {"type": "node", "id": 4323209033, "lat": 40.1953802, "lon": 25.9049208, "tags": {"amenity": "restaurant", "description": "M\u00fcessese \u00d6zellikleri: : Kafe Restoran; MEN\u00dc: Ev Yemekleri; Kahvalt\u0131; SERV\u0130S: 08.00-01.00; K\u0131\u015f\u0131n da a\u00e7\u0131k; \u0130\u00e7-D\u0131\u015f Mekan; \u0130nternet; Kredi Kart\u0131 Ge\u00e7erli", "name": "Ada Mant\u0131c\u0131s\u0131", "phone": "0531 258 84 49"}}, {"type": "node", "id": 4323217539, "lat": 40.1502202, "lon": 25.7753396, "tags": {"amenity": "restaurant", "description": "M\u00fcessese \u00d6zellikleri: : Kafe Restoran; MEN\u00dc: Et \u00c7e\u015fitleri; Kahvalt\u0131; SERV\u0130S: 08.00-23.00; Kredi Kart\u0131 Ge\u00e7ersiz", "name": "Ay\u0131\u015f\u0131\u011f\u0131 \u00c7aml\u0131k Restoran", "phone": "0538 891 96 91, 0286 897 60 86", "website": "www.ayisigicamlik.com"}}, {"type": "node", "id": 4323218165, "lat": 40.1953852, "lon": 25.9048483, "tags": {"amenity": "restaurant", "description": "M\u00fcessese \u00d6zellikleri: : Kafe; MEN\u00dc: Ev Yemekleri; Kahvalt\u0131; \u00d6zel Kahveler; SERV\u0130S: 09.00-22.00; K\u0131\u015f\u0131n da a\u00e7\u0131k; \u0130\u00e7-D\u0131\u015f Mekan; Kredi Kart\u0131 Ge\u00e7erli", "name": "Bi Yer", "phone": "0286 887 21 17"}}, {"type": "node", "id": 4323229637, "lat": 40.1908385, "lon": 25.8729914, "tags": {"amenity": "restaurant", "description": "M\u00fcessese \u00d6zellikleri: : Kafe Restoran; MEN\u00dc: Ege Mutfa\u011f\u0131; Et \u00c7e\u015fitleri; Kahvalt\u0131; SERV\u0130S: 9.30-24.00; K\u0131\u015f\u0131n da a\u00e7\u0131k; \u0130\u00e7-D\u0131\u015f Mekan; Kredi Kart\u0131 Ge\u00e7erli", "name": "Dami", "phone": "0530 285 63 75, 0 555 743 18 08", "website": "www.facebook.com/dami.gokceada"}}, {"type": "node", "id": 4323232767, "lat": 40.233096, "lon": 25.8946409, "tags": {"amenity": "restaurant", "description": "M\u00fcessese \u00d6zellikleri: : Restoran; MEN\u00dc: Ege Mutfa\u011f\u0131; Bal\u0131k ve Deniz \u00dcr\u00fcnleri; Kahvalt\u0131; SERV\u0130S: 08.00 - 02.30; Sadece y\u00fcksek sezonda a\u00e7\u0131k; \u0130\u00e7-D\u0131\u015f Mekan; Kredi Kart\u0131 Ge\u00e7erli", "name": "\u0130lios Taverna", "phone": "0531 403 86 03"}}, {"type": "node", "id": 4323232773, "lat": 40.2335867, "lon": 25.8969063, "tags": {"amenity": "restaurant", "description": "M\u00fcessese \u00d6zellikleri: : Restoran; MEN\u00dc: Ege Mutfa\u011f\u0131; Bal\u0131k ve Deniz \u00dcr\u00fcnleri; K\u0131\u015f\u0131n da a\u00e7\u0131k; \u0130\u00e7-D\u0131\u015f Mekan; Kredi Kart\u0131 Ge\u00e7erli", "name": "\u0130mroz Poseidon", "phone": "0553 410 34 62"}}, {"type": "node", "id": 4355096692, "lat": 40.2323877, "lon": 25.8944496, "tags": {"amenity": "cafe", "name": "G\u00fcl aile kafe"}}, {"type": "node", "id": 4356172390, "lat": 40.2316121, "lon": 25.8948878, "tags": {"amenity": "restaurant", "name": "Eleni Rum tavernas\u0131"}}, {"type": "node", "id": 6533084685, "lat": 40.1899369, "lon": 25.8748267, "tags": {"amenity": "restaurant", "cuisine": "greek", "name": "Son Vapur Imroz", "phone": "+90 538 415 5700", "website": "https://sonvapurimroz.com/"}}, {"type": "node", "id": 9008186506, "lat": 40.1953872, "lon": 25.905004, "tags": {"amenity": "restaurant", "name": "Ecem Manti", "phone": "+905438115023"}}, {"type": "node", "id": 9010974752, "lat": 40.1945045, "lon": 25.9061717, "tags": {"amenity": "restaurant", "description": "Steakhouse", "name": "Can Et"}}, {"type": "node", "id": 9010981849, "lat": 40.1983998, "lon": 25.9069201, "tags": {"amenity": "restaurant", "description": "Breakfast with an island view.", "name": "De\u011firmentepe Cafe", "phone": "+905356432221"}}, {"type": "node", "id": 9011072311, "lat": 40.194089, "lon": 25.9049223, "tags": {"amenity": "restaurant", "name": "Taylan Restaurant"}}, {"type": "node", "id": 9011285913, "lat": 40.1944408, "lon": 25.9059017, "tags": {"amenity": "restaurant", "name": "Titiz"}}, {"type": "node", "id": 9011778123, "lat": 40.1934904, "lon": 25.9046762, "tags": {"amenity": "cafe", "name": "Helvac\u0131 Ali"}}, {"type": "node", "id": 9011863850, "lat": 40.1936047, "lon": 25.9045797, "tags": {"amenity": "restaurant", "name": "Day\u0131n\u0131n Yeri", "phone": "+902868873838"}}, {"type": "node", "id": 9011993385, "lat": 40.1922261, "lon": 25.9040792, "tags": {"amenity": "restaurant", "name": "G\u00f6k\u00e7e Madam Meyhane"}}, {"type": "node", "id": 9011996681, "lat": 40.1934401, "lon": 25.9046543, "tags": {"amenity": "cafe", "name": "Salvia"}}, {"type": "node", "id": 9012007524, "lat": 40.1921952, "lon": 25.9041864, "tags": {"amenity": "restaurant", "name": "Asmal\u0131 Konak Restaurant"}}, {"type": "node", "id": 9012008972, "lat": 40.1920991, "lon": 25.9041017, "tags": {"amenity": "cafe", "name": "D\u0131mar Cafe"}}, {"type": "node", "id": 9202729832, "lat": 40.1911576, "lon": 25.8330644}, {"type": "node", "id": 9202729833, "lat": 40.1911579, "lon": 25.8332104}, {"type": "node", "id": 9202729834, "lat": 40.1910832, "lon": 25.8332115}, {"type": "node", "id": 9202729835, "lat": 40.1910824, "lon": 25.8331137}, {"type": "node", "id": 9238934657, "lat": 40.1910695, "lon": 25.8331288}, {"type": "node", "id": 9238934658, "lat": 40.1910685, "lon": 25.8332071}, {"type": "node", "id": 9238934659, "lat": 40.1910067, "lon": 25.8332046}, {"type": "node", "id": 9238934660, "lat": 40.1909434, "lon": 25.8331798}, {"type": "node", "id": 9238934661, "lat": 40.1909688, "lon": 25.8331309}, {"type": "node", "id": 9256615039, "lat": 40.1921318, "lon": 25.8342597}, {"type": "node", "id": 9256615040, "lat": 40.1920498, "lon": 25.834198}, {"type": "node", "id": 9256615041, "lat": 40.1920006, "lon": 25.8343134}, {"type": "node", "id": 9256615042, "lat": 40.1920846, "lon": 25.8343724}, {"type": "node", "id": 9277940088, "lat": 40.1911137, "lon": 25.8330475}, {"type": "node", "id": 9277940092, "lat": 40.1911007, "lon": 25.8331133}, {"type": "node", "id": 9277940093, "lat": 40.191212, "lon": 25.8330828}, {"type": "node", "id": 9277940094, "lat": 40.1912079, "lon": 25.8331511}, {"type": "node", "id": 9277940095, "lat": 40.1912047, "lon": 25.8332079}, {"type": "node", "id": 9288851266, "lat": 40.1953404, "lon": 25.8382827}, {"type": "node", "id": 9288851267, "lat": 40.1953012, "lon": 25.8384007}, {"type": "node", "id": 9288851268, "lat": 40.1952024, "lon": 25.8383417}, {"type": "node", "id": 9288851269, "lat": 40.195246, "lon": 25.8382238}, {"type": "node", "id": 10764041567, "lat": 40.1900091, "lon": 25.8716541, "tags": {"amenity": "cafe", "name": "Nostos"}}, {"type": "node", "id": 10764041568, "lat": 40.190069, "lon": 25.8717193, "tags": {"amenity": "cafe", "name": "Arassia"}}, {"type": "node", "id": 10926309473, "lat": 40.1938235, "lon": 25.903387, "tags": {"amenity": "restaurant", "name": "Dami Rum Meyhanesi"}}, {"type": "node", "id": 11115332000, "lat": 40.1294905, "lon": 25.9421447, "tags": {"addr:city": "\u00c7anakkale", "addr:district": "G\u00f6k\u00e7eada", "addr:housenumber": "8", "addr:neighbourhood": "\u00c7\u0131narl\u0131", "addr:postcode": "17760", "addr:street": "E\u015felek, Ayd\u0131nc\u0131k mevkii k\u00fcmeevleri", "amenity": "restaurant", "name": "Argos", "phone": "+905397988171", "website": "https://www.instagram.com/argosdining/?igshid=YmMyMTA2M2Y%3D"}}, {"type": "node", "id": 12812198505, "lat": 40.1236079, "lon": 25.6779935, "tags": {"addr:city": "\u00c7anakkale", "addr:housenumber": "3", "addr:neighbourhood": "gizli liman", "addr:place": "G\u00f6k\u00e7eada", "addr:postcode": "17100", "amenity": "cafe", "cuisine": "coffee_shop;pizza;burger;sandwich;turkish;fish;salad", "internet_access": "no", "name": "G\u00fcng\u00f6r Yeri plaj cafe", "outdoor_seating": "yes", "phone": "05367011749"}}, {"type": "way", "id": 996650034, "nodes": [9202729832, 9277940093, 9277940094, 9277940095, 9202729833, 9202729834, 9202729835, 9277940092, 9277940088, 9202729832], "tags": {"amenity": "restaurant", "building": "yes", "contact:mobile": "+90 533 098 42 52", "contact:website": "https://meraklistaverna.com/", "cuisine": "greek", "name": "Meraklis Taverna", "opening_hours": "We-Mo 09:00-00:00; Tu 09:00-00:30"}}, {"type": "way", "id": 1000902240, "nodes": [9238934657, 9238934658, 9238934659, 9238934660, 9238934661, 9238934657], "tags": {"amenity": "restaurant", "building": "yes", "cuisine": "greek", "name": "To Steki tis Angelikis", "opening_hours": "10:00-02:00", "phone": "+90 5 3122 00286"}}, {"type": "way", "id": 1003036322, "nodes": [9256615039, 9256615040, 9256615041, 9256615042, 9256615039], "tags": {"amenity": "restaurant", "building": "yes", "cuisine": "greek", "name": "Baba Yorgo", "website": "http://www.barbayorgo.com/"}}, {"type": "way", "id": 1006819260, "nodes": [9288851266, 9288851267, 9288851268, 9288851269, 9288851266], "tags": {"amenity": "restaurant", "building": "yes", "contact:mobile": "+90 543 374 03 18", "cuisine": "lunch;breakfast", "diet:local": "yes", "diet:meat": "yes", "diet:mediterranean": "yes", "name": "KARDEL\u0130Z Kahvalt\u0131 Salonu"}}]}