{"version": 0.6, "generator": "Overpass API 0.7.62.7 375dc00a", "osm3s": {"timestamp_osm_base": "2025-06-14T15:26:15Z", "copyright": "The data included in this document is from www.openstreetmap.org. The data is made available under ODbL."}, "elements": [{"type": "node", "id": 4944434432, "lat": 3.7069935, "lon": 34.8529137}, {"type": "node", "id": 6373797362, "lat": 3.706944, "lon": 34.852854}, {"type": "node", "id": 6373797363, "lat": 3.7070347, "lon": 34.8529633}, {"type": "node", "id": 6373797364, "lat": 3.7070887, "lon": 34.8529183}, {"type": "node", "id": 6373797365, "lat": 3.706998, "lon": 34.852809}, {"type": "node", "id": 6558485963, "lat": 3.7618609, "lon": 34.8201941}, {"type": "node", "id": 6558485964, "lat": 3.76184, "lon": 34.8201672}, {"type": "node", "id": 6558485965, "lat": 3.7618607, "lon": 34.8201511}, {"type": "node", "id": 6560113351, "lat": 3.748834, "lon": 34.8241919}, {"type": "node", "id": 6560113352, "lat": 3.7489512, "lon": 34.8242126}, {"type": "node", "id": 6560113353, "lat": 3.7489367, "lon": 34.8243326}, {"type": "node", "id": 6560113354, "lat": 3.7488978, "lon": 34.8243081}, {"type": "node", "id": 6560113355, "lat": 3.7488944, "lon": 34.8243134}, {"type": "node", "id": 6560113356, "lat": 3.7488486, "lon": 34.8242645}, {"type": "node", "id": 6560113358, "lat": 3.7487999, "lon": 34.8241939}, {"type": "node", "id": 6561292361, "lat": 3.7084751, "lon": 34.8647728}, {"type": "node", "id": 6561292362, "lat": 3.7084411, "lon": 34.8649116}, {"type": "node", "id": 6561292363, "lat": 3.708374, "lon": 34.8648951}, {"type": "node", "id": 6579148390, "lat": 3.7457823, "lon": 34.8395059}, {"type": "node", "id": 6579148391, "lat": 3.7457949, "lon": 34.8395586}, {"type": "node", "id": 6579148392, "lat": 3.7456734, "lon": 34.8395878}, {"type": "node", "id": 6579148393, "lat": 3.7456608, "lon": 34.8395351}, {"type": "node", "id": 6587162092, "lat": 3.720701, "lon": 34.8491342}, {"type": "node", "id": 6587162093, "lat": 3.7206444, "lon": 34.8490283}, {"type": "node", "id": 6587162094, "lat": 3.7205554, "lon": 34.8491032}, {"type": "node", "id": 6587162095, "lat": 3.720631, "lon": 34.8491932}, {"type": "node", "id": 6602659647, "lat": 3.7000689, "lon": 34.8768452}, {"type": "node", "id": 6602659648, "lat": 3.7001428, "lon": 34.8768785}, {"type": "node", "id": 6602659649, "lat": 3.7000538, "lon": 34.8770599}, {"type": "node", "id": 6602659650, "lat": 3.6999998, "lon": 34.877014}, {"type": "node", "id": 7856339682, "lat": 3.7084212, "lon": 34.8647295}, {"type": "node", "id": 7856339689, "lat": 3.7084791, "lon": 34.8647438}, {"type": "node", "id": 10278345615, "lat": 3.7682968, "lon": 34.6222619}, {"type": "node", "id": 10278345617, "lat": 3.7682623, "lon": 34.622302}, {"type": "node", "id": 10278345618, "lat": 3.7683174, "lon": 34.6223219}, {"type": "node", "id": 10278345619, "lat": 3.7683317, "lon": 34.6222818}, {"type": "node", "id": 10278345620, "lat": 3.768279, "lon": 34.6222555}, {"type": "node", "id": 10989628211, "lat": 3.7090064, "lon": 34.865276, "tags": {"amenity": "restaurant", "name": "Ronex View Hotel", "shop": "beverages"}}, {"type": "node", "id": 10989628212, "lat": 3.7082395, "lon": 34.8647757, "tags": {"amenity": "restaurant", "name": "Carmels Roast House"}}, {"type": "node", "id": 10989664940, "lat": 3.7106073, "lon": 34.8554518, "tags": {"amenity": "restaurant", "name": "Nakosi Lounge"}}, {"type": "node", "id": 10989700513, "lat": 3.7696338, "lon": 34.7292543, "tags": {"amenity": "restaurant", "name": "City Hotel"}}, {"type": "node", "id": 10989700516, "lat": 3.7691114, "lon": 34.7294155, "tags": {"amenity": "restaurant", "name": "Village 1 Classic Hotel"}}, {"type": "node", "id": 10991560406, "lat": 3.7508087, "lon": 34.810911, "tags": {"amenity": "restaurant", "name": "Tam Tam Hotel"}}, {"type": "node", "id": 10991686499, "lat": 3.7066667, "lon": 34.8669981, "tags": {"amenity": "restaurant", "name": "County Side Hotel"}}, {"type": "node", "id": 10991771240, "lat": 3.7086896, "lon": 34.8634943, "tags": {"amenity": "restaurant", "name": "Jamia Hotel"}}, {"type": "node", "id": 10991771247, "lat": 3.7075454, "lon": 34.8656586, "tags": {"amenity": "restaurant", "name": "Villa Park Hotel"}}, {"type": "node", "id": 10991824789, "lat": 3.7507621, "lon": 34.8108025, "tags": {"amenity": "restaurant", "name": "Mama Angel"}}, {"type": "node", "id": 10991824793, "lat": 3.7508483, "lon": 34.8109944, "tags": {"amenity": "restaurant", "name": "Bora Hotel"}}, {"type": "node", "id": 10991824801, "lat": 3.7512996, "lon": 34.8120969, "tags": {"amenity": "restaurant", "name": "Tiba"}}, {"type": "node", "id": 10991824803, "lat": 3.7511159, "lon": 34.8117528, "tags": {"amenity": "restaurant", "name": "New Hope"}}, {"type": "node", "id": 10991989156, "lat": 3.7089224, "lon": 34.8713453, "tags": {"amenity": "restaurant", "name": "Stevelynne Inn Limited"}}, {"type": "node", "id": 10992027607, "lat": 3.7510085, "lon": 34.811315, "tags": {"amenity": "restaurant", "name": "Umoja Ni Nguvu"}}, {"type": "node", "id": 10992219736, "lat": 3.7066893, "lon": 34.8670531, "tags": {"amenity": "restaurant", "name": "Calabash Hotel"}}, {"type": "node", "id": 10992219739, "lat": 3.70665, "lon": 34.8670167, "tags": {"amenity": "restaurant", "name": "Country Side Hotel Kakuma"}}, {"type": "node", "id": 10992219748, "lat": 3.7071578, "lon": 34.8652527, "tags": {"amenity": "restaurant", "name": "Legend Hotel"}}, {"type": "node", "id": 10992253088, "lat": 3.7075579, "lon": 34.8645396, "tags": {"amenity": "restaurant", "name": "Swahili Dishes"}}, {"type": "node", "id": 10992253089, "lat": 3.7076958, "lon": 34.8643045, "tags": {"amenity": "restaurant", "name": "Instabul Restaurant"}}, {"type": "node", "id": 10994452225, "lat": 3.7090972, "lon": 34.8609111, "tags": {"amenity": "restaurant", "name": "Classic Hotel"}}, {"type": "node", "id": 10994466781, "lat": 3.7072671, "lon": 34.8640587, "tags": {"amenity": "restaurant", "name": "Sunshine Hotel"}}, {"type": "node", "id": 10994492370, "lat": 3.7635554, "lon": 34.7318424, "tags": {"amenity": "restaurant", "name": "Rock City Hotel"}}, {"type": "node", "id": 10994595564, "lat": 3.7091681, "lon": 34.862575, "tags": {"amenity": "restaurant", "name": "Hotel Javas"}}, {"type": "node", "id": 10994632357, "lat": 3.7097832, "lon": 34.8617036, "tags": {"amenity": "cafe", "name": "Green Cafe"}}, {"type": "node", "id": 10995061846, "lat": 3.7678493, "lon": 34.8245062, "tags": {"amenity": "restaurant", "name": "Idris And Sons Hotel"}}, {"type": "node", "id": 10995061856, "lat": 3.7668944, "lon": 34.8253258, "tags": {"amenity": "restaurant", "name": "Shade Hotel"}}, {"type": "node", "id": 10995061857, "lat": 3.7668285, "lon": 34.8253332, "tags": {"amenity": "restaurant", "name": "Ethiopia Oromia"}}, {"type": "node", "id": 10995090193, "lat": 3.7489754, "lon": 34.8209766, "tags": {"amenity": "restaurant", "name": "Juba Hotel"}}, {"type": "node", "id": 10995228270, "lat": 3.7496477, "lon": 34.8251391, "tags": {"amenity": "restaurant", "noname": "yes"}}, {"type": "node", "id": 10995228273, "lat": 3.7498873, "lon": 34.8254148, "tags": {"amenity": "restaurant"}}, {"type": "node", "id": 10995228280, "lat": 3.7506943, "lon": 34.8256132, "tags": {"amenity": "restaurant", "name": "Orange Hotel"}}, {"type": "node", "id": 10996661253, "lat": 3.7102361, "lon": 34.8627368, "tags": {"amenity": "restaurant", "name": "Chips and Cold Drinks"}}, {"type": "node", "id": 10996661266, "lat": 3.7122197, "lon": 34.8268786, "tags": {"amenity": "restaurant", "name": "Ato Rites Resort"}}, {"type": "node", "id": 10996700768, "lat": 3.7577326, "lon": 34.7424467, "tags": {"amenity": "restaurant", "name": "Muhamed Shop"}}, {"type": "node", "id": 10996708300, "lat": 3.7464877, "lon": 34.8098061, "tags": {"amenity": "restaurant", "name": "Baraka"}}, {"type": "node", "id": 10996781142, "lat": 3.7410838, "lon": 34.80632, "tags": {"amenity": "restaurant", "name": "Nyatim Hotel"}}, {"type": "node", "id": 10996781143, "lat": 3.7409734, "lon": 34.806823, "tags": {"amenity": "restaurant", "name": "Mama Kakuma 4 Hotel"}}, {"type": "node", "id": 10996784813, "lat": 3.7418207, "lon": 34.8059592, "tags": {"amenity": "restaurant", "name": "Bujumbura Hotel"}}, {"type": "node", "id": 10996784815, "lat": 3.741618, "lon": 34.8059941, "tags": {"amenity": "restaurant", "name": "Amap Hotel"}}, {"type": "node", "id": 10996915524, "lat": 3.7512833, "lon": 34.8260557, "tags": {"amenity": "restaurant"}}, {"type": "node", "id": 10996915528, "lat": 3.7513517, "lon": 34.8256967, "tags": {"amenity": "restaurant", "name": "Fathi Hotel"}}, {"type": "node", "id": 10996915531, "lat": 3.7514791, "lon": 34.8258944, "tags": {"amenity": "restaurant", "name": "Ethiopia Hotel"}}, {"type": "node", "id": 10997042611, "lat": 3.7482462, "lon": 34.7618889, "tags": {"amenity": "restaurant", "name": "Mama Boy"}}, {"type": "node", "id": 10997042616, "lat": 3.7487669, "lon": 34.7622093, "tags": {"amenity": "restaurant", "name": "Lodea Ent"}}, {"type": "node", "id": 10997119767, "lat": 3.7682945, "lon": 34.6222684}, {"type": "node", "id": 10997329405, "lat": 3.7428787, "lon": 34.8071905, "tags": {"amenity": "restaurant", "name": "Yoal Makon Hotel"}}, {"type": "node", "id": 10997329410, "lat": 3.7427319, "lon": 34.8066496, "tags": {"amenity": "restaurant", "name": "Abdullahi Hotel"}}, {"type": "node", "id": 11001365879, "lat": 3.7695813, "lon": 34.7292999, "tags": {"amenity": "restaurant", "name": "Abas Hotel"}}, {"type": "node", "id": 11001378169, "lat": 3.7000153, "lon": 34.8770393}, {"type": "node", "id": 11001380716, "lat": 3.7695083, "lon": 34.7291313, "tags": {"amenity": "restaurant", "name": "Arlo Hotel"}}, {"type": "node", "id": 11001404221, "lat": 3.7696794, "lon": 34.7291927, "tags": {"amenity": "restaurant", "name": "South Sudan Hotel"}}, {"type": "node", "id": 11001404223, "lat": 3.7695984, "lon": 34.7291346, "tags": {"amenity": "restaurant", "name": "Chakula Bora Hotel"}}, {"type": "node", "id": 11001418535, "lat": 3.7695399, "lon": 34.7293159, "tags": {"amenity": "restaurant", "name": "Mama Rideh Hotel"}}, {"type": "node", "id": 11001418541, "lat": 3.7696266, "lon": 34.7293403, "tags": {"amenity": "restaurant", "name": "Amani Hotel"}}, {"type": "node", "id": 11001433375, "lat": 3.7092706, "lon": 34.8626299, "tags": {"amenity": "restaurant", "name": "Mama Tony Hotel"}}, {"type": "node", "id": 11001433383, "lat": 3.7091358, "lon": 34.8633314, "tags": {"amenity": "restaurant", "name": "Hotel"}}, {"type": "node", "id": 11001465297, "lat": 3.7084081, "lon": 34.864756}, {"type": "node", "id": 11001473766, "lat": 3.7082367, "lon": 34.8639815, "tags": {"amenity": "restaurant", "name": "Al Jazera Hotel"}}, {"type": "node", "id": 11001473776, "lat": 3.7078862, "lon": 34.8647455, "tags": {"amenity": "cafe", "name": "Rolex Valley Cafeteria"}}, {"type": "node", "id": 11001511139, "lat": 3.7086981, "lon": 34.8650962, "tags": {"amenity": "restaurant", "name": "Loswan Hotel"}}, {"type": "node", "id": 11001511153, "lat": 3.7075576, "lon": 34.8658465, "tags": {"amenity": "restaurant", "name": "Airport View"}}, {"type": "node", "id": 11001518589, "lat": 3.7500765, "lon": 34.7582366, "tags": {"amenity": "restaurant", "name": "Yarsin Hostel"}}, {"type": "node", "id": 11001538105, "lat": 3.7498682, "lon": 34.7573385, "tags": {"amenity": "restaurant", "name": "Claude Hotel"}}, {"type": "node", "id": 11001540305, "lat": 3.7498531, "lon": 34.7574727, "tags": {"amenity": "restaurant", "name": "Lokong Hotel"}}, {"type": "node", "id": 11001774222, "lat": 3.7427912, "lon": 34.8065857, "tags": {"amenity": "restaurant", "name": "Blue Star Restaurant"}}, {"type": "node", "id": 11001774223, "lat": 3.7427541, "lon": 34.8068976, "tags": {"amenity": "restaurant", "name": "Super Deam Tamtam Hotel"}}, {"type": "node", "id": 11001774224, "lat": 3.7427668, "lon": 34.8068763, "tags": {"amenity": "restaurant", "name": "Ahmed Kubita Hotel"}}, {"type": "node", "id": 11001774226, "lat": 3.7426799, "lon": 34.806932, "tags": {"amenity": "restaurant", "name": "Saleh Hotel"}}, {"type": "node", "id": 11001774228, "lat": 3.7424478, "lon": 34.8067706, "tags": {"amenity": "restaurant", "name": "Family Restaurant"}}, {"type": "node", "id": 11001774229, "lat": 3.7424019, "lon": 34.8065276, "tags": {"amenity": "restaurant", "name": "South Sudan Hotel"}}, {"type": "node", "id": 11001774230, "lat": 3.7425144, "lon": 34.8065221, "tags": {"amenity": "restaurant", "name": "Martha Hotel"}}, {"type": "node", "id": 11001774234, "lat": 3.7418656, "lon": 34.8068335, "tags": {"amenity": "restaurant", "name": "Rebecca Hotel"}}, {"type": "node", "id": 11001774237, "lat": 3.7418034, "lon": 34.8065029, "tags": {"amenity": "restaurant", "name": "Nyangiengiey Kang Hotel"}}, {"type": "node", "id": 11001805079, "lat": 3.7144563, "lon": 34.8567447, "tags": {"amenity": "restaurant", "name": "Hope Restaurant"}}, {"type": "node", "id": 11001805081, "lat": 3.7059219, "lon": 34.8652075}, {"type": "node", "id": 11001805090, "lat": 3.7067811, "lon": 34.8645663, "tags": {"amenity": "restaurant", "name": "Chebaebae Shop"}}, {"type": "node", "id": 11001858053, "lat": 3.7532339, "lon": 34.8102689, "tags": {"amenity": "restaurant", "name": "Amani Hotel"}}, {"type": "node", "id": 11001862853, "lat": 3.7627717, "lon": 34.8211212, "tags": {"amenity": "restaurant", "name": "Marks Hotel"}}, {"type": "node", "id": 11001894920, "lat": 3.7532339, "lon": 34.8102682, "tags": {"amenity": "restaurant", "name": "Amani Hotel"}}, {"type": "node", "id": 11007162678, "lat": 3.7489552, "lon": 34.8243031}, {"type": "node", "id": 11007196993, "lat": 3.740553, "lon": 34.8078191, "tags": {"amenity": "restaurant", "name": "Nyagai Matik Hotel"}}, {"type": "node", "id": 11007196997, "lat": 3.740135, "lon": 34.8087133, "tags": {"amenity": "restaurant", "name": "South Sudan Hotel"}}, {"type": "node", "id": 11007197001, "lat": 3.7400076, "lon": 34.8096111, "tags": {"amenity": "restaurant", "name": "Gatwitch Hotel"}}, {"type": "node", "id": 11007197002, "lat": 3.7400213, "lon": 34.8093999, "tags": {"amenity": "restaurant", "name": "Nyapine Gatluak Hotel"}}, {"type": "node", "id": 11007197004, "lat": 3.7392412, "lon": 34.81014, "tags": {"amenity": "restaurant", "name": "Vision Hotel"}}, {"type": "node", "id": 11007203788, "lat": 3.7501293, "lon": 34.8095412, "tags": {"amenity": "restaurant", "name": "Peace"}}, {"type": "node", "id": 11007211241, "lat": 3.7378836, "lon": 34.8133078, "tags": {"amenity": "restaurant", "name": "South Sudan Hotel"}}, {"type": "node", "id": 11007874537, "lat": 3.7391643, "lon": 34.8179869, "tags": {"amenity": "restaurant"}}, {"type": "node", "id": 11008100634, "lat": 3.7389925, "lon": 34.8112338, "tags": {"amenity": "restaurant", "name": "Adok El Bahar Hotel"}}, {"type": "node", "id": 11009724019, "lat": 3.7388217, "lon": 34.8123483, "tags": {"amenity": "restaurant", "name": "Yesu Ni Mwema Hotel"}}, {"type": "node", "id": 11009967488, "lat": 3.7422632, "lon": 34.8210976, "tags": {"amenity": "restaurant"}}, {"type": "node", "id": 11009967504, "lat": 3.7398524, "lon": 34.8198635, "tags": {"amenity": "restaurant"}}, {"type": "node", "id": 11009977005, "lat": 3.7610644, "lon": 34.8175712, "tags": {"amenity": "restaurant", "name": "Bor"}}, {"type": "node", "id": 11012167211, "lat": 3.7606146, "lon": 34.8178075, "tags": {"amenity": "restaurant", "name": "Fashion Hotel"}}, {"type": "node", "id": 11012185305, "lat": 3.7608466, "lon": 34.8182592, "tags": {"amenity": "restaurant", "name": "Maryan Shop"}}, {"type": "node", "id": 11012185306, "lat": 3.7611302, "lon": 34.8181293, "tags": {"amenity": "restaurant", "name": "Salama Restaurant"}}, {"type": "node", "id": 11012185316, "lat": 3.7633491, "lon": 34.8202963, "tags": {"amenity": "restaurant", "name": "Akol"}}, {"type": "node", "id": 11012200127, "lat": 3.7624254, "lon": 34.8197215, "tags": {"amenity": "restaurant", "name": "Akol"}}, {"type": "node", "id": 11012209263, "lat": 3.7384536, "lon": 34.8122991, "tags": {"amenity": "restaurant", "name": "New Hotel"}}, {"type": "node", "id": 11012209264, "lat": 3.7383894, "lon": 34.8122185, "tags": {"amenity": "restaurant", "name": "Tamtamu Restaurant"}}, {"type": "node", "id": 11012209271, "lat": 3.7382264, "lon": 34.8124807, "tags": {"amenity": "restaurant", "name": "Lochia Hotel"}}, {"type": "node", "id": 11012209272, "lat": 3.738329, "lon": 34.8125249, "tags": {"amenity": "restaurant", "name": "Kakuma 4 Zone 2 Block 6"}}, {"type": "node", "id": 11012243178, "lat": 3.7382172, "lon": 34.8127879, "tags": {"amenity": "restaurant", "name": "Musa Tamtam Hotel"}}, {"type": "node", "id": 11012243187, "lat": 3.7381451, "lon": 34.8127105, "tags": {"amenity": "restaurant", "name": "J.Star Hotel"}}, {"type": "node", "id": 11012243188, "lat": 3.7379868, "lon": 34.8127772, "tags": {"amenity": "restaurant", "name": "Masfin Hotel"}}, {"type": "node", "id": 11012243190, "lat": 3.7374621, "lon": 34.811735, "tags": {"amenity": "restaurant", "name": "Motomoto Hotel"}}, {"type": "node", "id": 11012243192, "lat": 3.7385198, "lon": 34.8115422, "tags": {"amenity": "restaurant", "name": "Upper Nile State Hotel"}}, {"type": "node", "id": 11013576564, "lat": 3.7578478, "lon": 34.8235051, "tags": {"amenity": "restaurant", "name": "Baraka Hotel"}}, {"type": "node", "id": 11013576569, "lat": 3.7361162, "lon": 34.8173728, "tags": {"amenity": "restaurant", "name": "Mama Esta Hotel"}}, {"type": "node", "id": 11015500856, "lat": 3.7590343, "lon": 34.8274698}, {"type": "node", "id": 11015500864, "lat": 3.7618816, "lon": 34.8201779}, {"type": "node", "id": 11015537947, "lat": 3.7624159, "lon": 34.8197403, "tags": {"amenity": "restaurant", "name": "Akol"}}, {"type": "node", "id": 11015719564, "lat": 3.7613162, "lon": 34.8183741, "tags": {"amenity": "restaurant"}}, {"type": "node", "id": 11015751102, "lat": 3.762395, "lon": 34.8194199, "tags": {"amenity": "restaurant", "name": "Biol"}}, {"type": "node", "id": 11219325270, "lat": 3.7467723, "lon": 34.8393312}, {"type": "node", "id": 11219325271, "lat": 3.7467753, "lon": 34.8394147}, {"type": "node", "id": 11219325272, "lat": 3.7468399, "lon": 34.8394124}, {"type": "node", "id": 11219325273, "lat": 3.7468369, "lon": 34.8393289}, {"type": "node", "id": 11231127560, "lat": 3.7590613, "lon": 34.8275327}, {"type": "node", "id": 11231127561, "lat": 3.7590137, "lon": 34.8275022}, {"type": "node", "id": 11231127562, "lat": 3.7590819, "lon": 34.8275004}, {"type": "node", "id": 11240939554, "lat": 3.7069782, "lon": 34.8529264}, {"type": "node", "id": 11240939555, "lat": 3.7070081, "lon": 34.8529625}, {"type": "node", "id": 11240939557, "lat": 3.7070234, "lon": 34.8529497}, {"type": "node", "id": 11240988291, "lat": 3.7084721, "lon": 34.8647721}, {"type": "node", "id": 11240988292, "lat": 3.7084143, "lon": 34.8647575}, {"type": "node", "id": 11241979587, "lat": 3.7059383, "lon": 34.8652993}, {"type": "node", "id": 11241979588, "lat": 3.7059279, "lon": 34.8652819}, {"type": "node", "id": 11241979589, "lat": 3.7059095, "lon": 34.8652929}, {"type": "node", "id": 11241979590, "lat": 3.7059144, "lon": 34.8653011}, {"type": "node", "id": 11241979591, "lat": 3.7058848, "lon": 34.8653188}, {"type": "node", "id": 11241979592, "lat": 3.7059665, "lon": 34.8652824}, {"type": "node", "id": 11241979593, "lat": 3.7058457, "lon": 34.8652531}, {"type": "node", "id": 11242363152, "lat": 3.7489376, "lon": 34.824292}, {"type": "node", "id": 11242363153, "lat": 3.7489505, "lon": 34.8242714}, {"type": "node", "id": 11242363155, "lat": 3.7488395, "lon": 34.8242789}, {"type": "node", "id": 11242363156, "lat": 3.7488054, "lon": 34.8242374}, {"type": "node", "id": 11242363157, "lat": 3.7487974, "lon": 34.8242501}, {"type": "node", "id": 11242363158, "lat": 3.7487739, "lon": 34.8242354}, {"type": "node", "id": 11242363159, "lat": 3.7488194, "lon": 34.8242062}, {"type": "node", "id": 11242363160, "lat": 3.7488223, "lon": 34.8242016}, {"type": "node", "id": 11242363161, "lat": 3.7488263, "lon": 34.8242041}, {"type": "node", "id": 11242363162, "lat": 3.7488504, "lon": 34.8242022}, {"type": "node", "id": 11242363163, "lat": 3.7488426, "lon": 34.8242146}, {"type": "node", "id": 11242363164, "lat": 3.7488863, "lon": 34.824242}, {"type": "node", "id": 11242363165, "lat": 3.7489179, "lon": 34.8241916}, {"type": "node", "id": 11242363166, "lat": 3.7489246, "lon": 34.8242551}, {"type": "node", "id": 11245286058, "lat": 3.7206722, "lon": 34.8490614}, {"type": "node", "id": 11245286059, "lat": 3.7206533, "lon": 34.8490773}, {"type": "node", "id": 11276743540, "lat": 3.7422573, "lon": 34.8376484, "tags": {"amenity": "restaurant", "name": "Green Hotel"}}, {"type": "node", "id": 11276815684, "lat": 3.7482058, "lon": 34.8397475, "tags": {"amenity": "restaurant", "name": "Julia Hotel"}}, {"type": "node", "id": 11276815690, "lat": 3.7481214, "lon": 34.8405872, "tags": {"amenity": "restaurant", "name": "Chapati Maragwe Na Nyama Choma"}}, {"type": "node", "id": 11276815698, "lat": 3.7481563, "lon": 34.8402589, "tags": {"amenity": "restaurant", "name": "L.A Family Hotels"}}, {"type": "node", "id": 11276831603, "lat": 3.7472499, "lon": 34.8390409, "tags": {"amenity": "restaurant", "name": "South Sudan Hotel"}}, {"type": "node", "id": 11276895237, "lat": 3.7471843, "lon": 34.8387027, "tags": {"amenity": "restaurant", "name": "Abuk Bol Hotel"}}, {"type": "node", "id": 11276895245, "lat": 3.7471754, "lon": 34.8385843, "tags": {"amenity": "restaurant", "name": "Lajat Hotel"}}, {"type": "node", "id": 11276900654, "lat": 3.7481051, "lon": 34.8392104, "tags": {"amenity": "restaurant", "name": "Green Restaurant"}}, {"type": "node", "id": 11276900655, "lat": 3.7479791, "lon": 34.8393271, "tags": {"amenity": "cafe", "name": "Elizabeth Tea Caf\u00e9"}}, {"type": "node", "id": 11276903998, "lat": 3.7471677, "lon": 34.8390575, "tags": {"amenity": "restaurant", "name": "Nyantiok Hotel"}}, {"type": "node", "id": 11276904005, "lat": 3.7477781, "lon": 34.8393047, "tags": {"amenity": "restaurant", "name": "Bujumbura Restaurant"}}, {"type": "node", "id": 11276914467, "lat": 3.7471175, "lon": 34.838817, "tags": {"amenity": "restaurant", "name": "Nyankol Hotel"}}, {"type": "node", "id": 11276958674, "lat": 3.722978, "lon": 34.8477466, "tags": {"amenity": "restaurant", "name": "Isimbi Hotel"}}, {"type": "node", "id": 11276958685, "lat": 3.7331854, "lon": 34.8411019, "tags": {"amenity": "restaurant", "name": "Smile Hotel"}}, {"type": "node", "id": 11276965294, "lat": 3.7456959, "lon": 34.8395267}, {"type": "node", "id": 11276965295, "lat": 3.7457257, "lon": 34.8395194}, {"type": "node", "id": 11276965296, "lat": 3.7456929, "lon": 34.8395143}, {"type": "node", "id": 11276965297, "lat": 3.7457227, "lon": 34.8395072}, {"type": "node", "id": 11276965302, "lat": 3.7204186, "lon": 34.8485182, "tags": {"amenity": "restaurant", "name": "Remigo Hotel"}}, {"type": "node", "id": 11283414541, "lat": 3.7186228, "lon": 34.8495015, "tags": {"amenity": "restaurant", "name": "Ramadhan Hotel"}}, {"type": "node", "id": 11283415920, "lat": 3.7203492, "lon": 34.8507524, "tags": {"amenity": "restaurant", "name": "Franco Hotel"}}, {"type": "node", "id": 11283415921, "lat": 3.7197752, "lon": 34.8516688, "tags": {"amenity": "restaurant", "name": "Sha Shmene Hotel"}}, {"type": "node", "id": 11283415928, "lat": 3.7204294, "lon": 34.8505392, "tags": {"amenity": "restaurant", "name": "Farmajo Hotel"}}, {"type": "node", "id": 11283415932, "lat": 3.7215695, "lon": 34.8492246, "tags": {"amenity": "restaurant", "name": "Family Care Hotel"}}, {"type": "node", "id": 11283415942, "lat": 3.7196297, "lon": 34.8517541, "tags": {"amenity": "restaurant", "name": "Finfinne Hotel"}}, {"type": "node", "id": 11283415947, "lat": 3.7165942, "lon": 34.8508831, "tags": {"amenity": "restaurant", "name": "Kismayo City Hotel"}}, {"type": "node", "id": 11283415952, "lat": 3.7189658, "lon": 34.8524242, "tags": {"amenity": "restaurant", "name": "Green Hotel"}}, {"type": "node", "id": 11283416224, "lat": 3.7217968, "lon": 34.8490537, "tags": {"amenity": "restaurant", "name": "Baraka Hotel"}}, {"type": "node", "id": 11283416235, "lat": 3.7225743, "lon": 34.848248, "tags": {"amenity": "restaurant", "name": "Rohobot Cafe and Restaurant"}}, {"type": "node", "id": 11283416237, "lat": 3.7218856, "lon": 34.8488984, "tags": {"amenity": "restaurant", "name": "Itara Hotel"}}, {"type": "node", "id": 11283416239, "lat": 3.7226435, "lon": 34.8480869, "tags": {"amenity": "restaurant", "name": "Delivery Hotel"}}, {"type": "node", "id": 11283416243, "lat": 3.7226789, "lon": 34.8481296, "tags": {"amenity": "restaurant", "name": "Alext Hotel"}}, {"type": "node", "id": 11283423770, "lat": 3.7201014, "lon": 34.8486796, "tags": {"amenity": "restaurant", "name": "Wasafi Hotel"}}, {"type": "node", "id": 11283423772, "lat": 3.7208683, "lon": 34.848381, "tags": {"amenity": "restaurant", "name": "The Palace Hotel"}}, {"type": "node", "id": 11283423775, "lat": 3.7204244, "lon": 34.8484027, "tags": {"amenity": "restaurant", "name": "Freedom Hotel"}}, {"type": "node", "id": 11283423778, "lat": 3.7199246, "lon": 34.8487832, "tags": {"amenity": "restaurant", "name": "Hashtag Bar and Restaurant"}}, {"type": "node", "id": 11283423785, "lat": 3.7205728, "lon": 34.8491959, "tags": {"amenity": "restaurant", "name": "Ethiopia Hotel"}}, {"type": "node", "id": 11336385329, "lat": 3.7000829, "lon": 34.8770556}, {"type": "node", "id": 11336385330, "lat": 3.7001222, "lon": 34.876968}, {"type": "node", "id": 11336385331, "lat": 3.7000603, "lon": 34.8770454}, {"type": "node", "id": 11336385332, "lat": 3.700106, "lon": 34.8769607}, {"type": "node", "id": 11376130006, "lat": 3.6999943, "lon": 34.8770115}, {"type": "node", "id": 11376130007, "lat": 3.699993, "lon": 34.8770292}, {"type": "node", "id": 11376130008, "lat": 3.7000141, "lon": 34.877042}, {"type": "way", "id": 680693684, "nodes": [6373797365, 6373797364, 6373797363, 11240939557, 11240939555, 11240939554, 4944434432, 6373797362, 6373797365], "tags": {"amenity": "restaurant", "building": "yes", "name": "Cafeteria", "roof:material": "metal_sheet"}}, {"type": "way", "id": 698350935, "nodes": [11015500864, 6558485963, 6558485964, 6558485965, 11015500864], "tags": {"amenity": "restaurant", "building": "yes", "name": "Chol"}}, {"type": "way", "id": 698571721, "nodes": [6560113351, 11242363162, 11242363163, 11242363164, 11242363165, 6560113352, 11242363166, 11242363153, 11242363152, 11007162678, 6560113353, 6560113354, 6560113355, 11242363155, 6560113356, 11242363156, 11242363157, 11242363158, 6560113358, 11242363159, 11242363160, 11242363161, 6560113351], "tags": {"amenity": "restaurant", "building": "yes", "name": "Kakuma 2 Hotel", "roof:material": "metal_sheet"}}, {"type": "way", "id": 698723221, "nodes": [6561292361, 6561292362, 6561292363, 11001465297, 11240988292, 7856339682, 7856339689, 11240988291, 6561292361], "tags": {"amenity": "restaurant", "building": "yes", "name": "Tatu Kumi Hotel", "roof:material": "metal_sheet"}}, {"type": "way", "id": 700588667, "nodes": [6579148390, 6579148391, 6579148392, 6579148393, 11276965294, 11276965296, 11276965297, 11276965295, 6579148390], "tags": {"amenity": "restaurant", "building": "yes", "name": "Bawuma Hotel", "roof:material": "metal_sheet"}}, {"type": "way", "id": 701387802, "nodes": [6587162095, 6587162094, 6587162093, 11245286058, 11245286059, 6587162092, 6587162095], "tags": {"amenity": "restaurant", "building": "yes", "name": "Ethiopia Hotel", "roof:material": "metal_sheet"}}, {"type": "way", "id": 703076538, "nodes": [6602659647, 6602659648, 11336385332, 11336385330, 11336385329, 11336385331, 6602659649, 11376130008, 11001378169, 11376130007, 6602659650, 11376130006, 6602659647], "tags": {"amenity": "restaurant", "building": "yes", "name": "New View Cafe", "roof:material": "metal_sheet"}}, {"type": "way", "id": 1123918540, "nodes": [10278345620, 10278345615, 10997119767, 10278345619, 10278345618, 10278345617, 10278345620], "tags": {"amenity": "restaurant", "building": "yes", "name": "Bisline Hotel", "roof:material": "metal_sheet"}}, {"type": "way", "id": 1210920497, "nodes": [11219325273, 11219325272, 11219325271, 11219325270, 11219325273], "tags": {"amenity": "restaurant", "building": "yes", "name": "Imani Ya Tosha Hotel"}}, {"type": "way", "id": 1212237036, "nodes": [11231127562, 11231127560, 11231127561, 11015500856, 11231127562], "tags": {"amenity": "restaurant", "building": "yes", "name": "Hotel Ruweyda", "roof:material": "metal_sheet"}}, {"type": "way", "id": 1213406620, "nodes": [11241979593, 11001805081, 11241979592, 11241979587, 11241979588, 11241979589, 11241979590, 11241979591, 11241979593], "tags": {"amenity": "restaurant", "building": "yes", "name": "County 23", "roof:material": "metal_sheet"}}]}