{"version": 0.6, "generator": "Overpass API 0.7.62.7 375dc00a", "osm3s": {"timestamp_osm_base": "2025-06-14T14:41:26Z", "copyright": "The data included in this document is from www.openstreetmap.org. The data is made available under ODbL."}, "elements": [{"type": "node", "id": 462077451, "lat": 41.3951867, "lon": 23.2074655, "tags": {"amenity": "cafe"}}, {"type": "node", "id": 462077452, "lat": 41.3951335, "lon": 23.2073214, "tags": {"amenity": "cafe"}}, {"type": "node", "id": 462077458, "lat": 41.3984893, "lon": 23.2091238, "tags": {"amenity": "cafe"}}, {"type": "node", "id": 1713147853, "lat": 41.0003821, "lon": 22.8734343}, {"type": "node", "id": 1790311348, "lat": 41.3811426, "lon": 22.819584, "tags": {"amenity": "restaurant", "cuisine": "regional", "name": "\u0420\u0435\u0441\u0442\u043e\u0440\u0430\u043d \u0421\u041e\u041d\u0426\u0415 - Restaurant SONCE"}}, {"type": "node", "id": 1790324208, "lat": 41.3766989, "lon": 22.812486, "tags": {"amenity": "cafe"}}, {"type": "node", "id": 1790358588, "lat": 41.3818009, "lon": 22.8155652, "tags": {"amenity": "restaurant"}}, {"type": "node", "id": 1790358591, "lat": 41.3790614, "lon": 22.798482, "tags": {"amenity": "restaurant"}}, {"type": "node", "id": 1791514947, "lat": 41.4130818, "lon": 22.8810812, "tags": {"amenity": "restaurant"}}, {"type": "node", "id": 1791514950, "lat": 41.4128968, "lon": 22.882079, "tags": {"amenity": "restaurant"}}, {"type": "node", "id": 1791514952, "lat": 41.4126312, "lon": 22.8808076, "tags": {"amenity": "restaurant"}}, {"type": "node", "id": 1791534874, "lat": 41.3827929, "lon": 22.7547196, "tags": {"amenity": "restaurant"}}, {"type": "node", "id": 2111263407, "lat": 40.992863, "lon": 22.8740968, "tags": {"amenity": "cafe"}}, {"type": "node", "id": 2111263438, "lat": 40.9924625, "lon": 22.87534, "tags": {"addr:city": "\u039a\u03b9\u03bb\u03ba\u03af\u03c2", "addr:housenumber": "13", "addr:postcode": "61100", "addr:street": "25\u03b7\u03c2 \u039c\u03b1\u03c1\u03c4\u03af\u03bf\u03c5", "amenity": "cafe"}}, {"type": "node", "id": 2111263565, "lat": 40.9916171, "lon": 22.873428, "tags": {"amenity": "cafe"}}, {"type": "node", "id": 2111263567, "lat": 40.9920548, "lon": 22.8756909, "tags": {"amenity": "cafe", "name": "Friends cafe bar"}}, {"type": "node", "id": 2111263569, "lat": 40.9921301, "lon": 22.8756125, "tags": {"amenity": "cafe"}}, {"type": "node", "id": 2111263572, "lat": 40.9921638, "lon": 22.8755524, "tags": {"amenity": "cafe"}}, {"type": "node", "id": 2111263574, "lat": 40.9921881, "lon": 22.8758428, "tags": {"amenity": "cafe"}}, {"type": "node", "id": 2111263579, "lat": 40.9923058, "lon": 22.8756869, "tags": {"amenity": "cafe"}}, {"type": "node", "id": 2111263581, "lat": 40.9923258, "lon": 22.8751298, "tags": {"amenity": "cafe"}}, {"type": "node", "id": 2111263589, "lat": 40.9925257, "lon": 22.8752098, "tags": {"amenity": "cafe"}}, {"type": "node", "id": 2111263592, "lat": 40.9925915, "lon": 22.8745555, "tags": {"amenity": "cafe"}}, {"type": "node", "id": 2111263594, "lat": 40.9926001, "lon": 22.8750538, "tags": {"amenity": "cafe"}}, {"type": "node", "id": 2111263599, "lat": 40.9927282, "lon": 22.8747648, "tags": {"amenity": "cafe"}}, {"type": "node", "id": 2111263628, "lat": 40.9931037, "lon": 22.8738072, "tags": {"amenity": "cafe"}}, {"type": "node", "id": 2111263645, "lat": 40.9942102, "lon": 22.8737574, "tags": {"amenity": "restaurant", "cuisine": "greek"}}, {"type": "node", "id": 2111263652, "lat": 40.9951796, "lon": 22.8767809, "tags": {"amenity": "cafe"}}, {"type": "node", "id": 2145910859, "lat": 40.9927627, "lon": 22.8767338, "tags": {"amenity": "restaurant", "cuisine": "greek"}}, {"type": "node", "id": 2145910873, "lat": 40.9947171, "lon": 22.8738049, "tags": {"amenity": "restaurant", "cuisine": "pizza"}}, {"type": "node", "id": 2145910882, "lat": 40.994834, "lon": 22.8738188, "tags": {"amenity": "cafe"}}, {"type": "node", "id": 2145910890, "lat": 40.9951747, "lon": 22.875377, "tags": {"amenity": "restaurant", "cuisine": "greek"}}, {"type": "node", "id": 2270683011, "lat": 40.9925973, "lon": 22.8663778, "tags": {"addr:housenumber": "3", "addr:street": "\u0393\u03b9\u03b1\u03bb\u03b1\u03bc\u03c0\u03af\u03b4\u03b7", "amenity": "cafe", "diet:vegan": "yes", "name": "\u03a4\u03c1\u03c5\u03c0\u03bf\u03ba\u03ac\u03c1\u03c5\u03b4\u03bf\u03c2", "phone": "+302341020210"}}, {"type": "node", "id": 2306543051, "lat": 40.9947882, "lon": 22.8755128, "tags": {"amenity": "cafe"}}, {"type": "node", "id": 2364883015, "lat": 40.9947673, "lon": 22.8755307, "tags": {"amenity": "cafe", "name": "\u0391\u03bc\u03c0\u03b1\u03b6\u03bf\u03cd\u03c1"}}, {"type": "node", "id": 2364883016, "lat": 40.9946053, "lon": 22.8753161, "tags": {"amenity": "restaurant", "name": "\u039c\u03b5\u03b6\u03ad-\u03bc\u03b5\u03b6\u03ad"}}, {"type": "node", "id": 2685120094, "lat": 41.2596906, "lon": 23.000588}, {"type": "node", "id": 2685120097, "lat": 41.2597456, "lon": 23.0005326}, {"type": "node", "id": 2685120098, "lat": 41.2597344, "lon": 23.0006007}, {"type": "node", "id": 2685120100, "lat": 41.2597531, "lon": 23.0004868}, {"type": "node", "id": 2685120101, "lat": 41.2597107, "lon": 23.0004707}, {"type": "node", "id": 2685122405, "lat": 41.259497, "lon": 23.0003929}, {"type": "node", "id": 2685122408, "lat": 41.2595857, "lon": 23.0004278}, {"type": "node", "id": 2685122410, "lat": 41.2595636, "lon": 23.0005673}, {"type": "node", "id": 2685122413, "lat": 41.2594668, "lon": 23.0005378}, {"type": "node", "id": 2685122434, "lat": 41.2594839, "lon": 23.000543}, {"type": "node", "id": 2685129925, "lat": 41.2597309, "lon": 23.0001676}, {"type": "node", "id": 2685129926, "lat": 41.2598519, "lon": 23.000181}, {"type": "node", "id": 2685129927, "lat": 41.2597329, "lon": 23.000114}, {"type": "node", "id": 2685129928, "lat": 41.2598579, "lon": 23.0001247}, {"type": "node", "id": 2685129929, "lat": 41.259743, "lon": 23.000004}, {"type": "node", "id": 2685129930, "lat": 41.2598358, "lon": 23.0000174}, {"type": "node", "id": 2685129931, "lat": 41.2598255, "lon": 23.0001219}, {"type": "node", "id": 2685151245, "lat": 41.2597067, "lon": 22.9999289}, {"type": "node", "id": 2685151249, "lat": 41.259624, "lon": 22.9997733}, {"type": "node", "id": 2685151252, "lat": 41.2596079, "lon": 22.9999074}, {"type": "node", "id": 2685151261, "lat": 41.2597198, "lon": 22.9998218}, {"type": "node", "id": 2685151283, "lat": 41.2596485, "lon": 22.9997787}, {"type": "node", "id": 2685151284, "lat": 41.2597228, "lon": 22.9997975}, {"type": "node", "id": 2685151296, "lat": 41.2596886, "lon": 22.9994756}, {"type": "node", "id": 2685151300, "lat": 41.2596986, "lon": 22.9994032}, {"type": "node", "id": 2685151302, "lat": 41.2599204, "lon": 22.9994461}, {"type": "node", "id": 2685151304, "lat": 41.2597088, "lon": 22.9993135}, {"type": "node", "id": 2685151305, "lat": 41.2599296, "lon": 22.9993591}, {"type": "node", "id": 2685151307, "lat": 41.2597188, "lon": 22.9992415}, {"type": "node", "id": 2685151309, "lat": 41.2599366, "lon": 22.9992905}, {"type": "node", "id": 2685151311, "lat": 41.2597329, "lon": 22.9991477}, {"type": "node", "id": 2685151313, "lat": 41.2598458, "lon": 22.9991798}, {"type": "node", "id": 2685151315, "lat": 41.2598378, "lon": 22.9992657}, {"type": "node", "id": 2685151343, "lat": 41.2599285, "lon": 22.9985341}, {"type": "node", "id": 2685151344, "lat": 41.2598216, "lon": 22.99851}, {"type": "node", "id": 2685151345, "lat": 41.2598358, "lon": 22.9983884}, {"type": "node", "id": 2685151346, "lat": 41.2599406, "lon": 22.9984125}, {"type": "node", "id": 2685198468, "lat": 41.2597268, "lon": 22.9997559}, {"type": "node", "id": 2685198469, "lat": 41.2596534, "lon": 22.9997428}, {"type": "node", "id": 2685213246, "lat": 41.2593229, "lon": 22.9994481}, {"type": "node", "id": 2685213247, "lat": 41.2592996, "lon": 22.99958}, {"type": "node", "id": 2685213248, "lat": 41.2592102, "lon": 22.9995409}, {"type": "node", "id": 2685213249, "lat": 41.2592335, "lon": 22.9994123}, {"type": "node", "id": 2686693093, "lat": 41.2601791, "lon": 22.9985455}, {"type": "node", "id": 2686693094, "lat": 41.2601536, "lon": 22.9987085}, {"type": "node", "id": 2686693095, "lat": 41.2600951, "lon": 22.9986951}, {"type": "node", "id": 2686693096, "lat": 41.2601186, "lon": 22.9985344}, {"type": "node", "id": 2686697826, "lat": 41.2601818, "lon": 23.0000359}, {"type": "node", "id": 2686697827, "lat": 41.2601677, "lon": 23.000119}, {"type": "node", "id": 2686697828, "lat": 41.260077, "lon": 23.0001083}, {"type": "node", "id": 2686697829, "lat": 41.260087, "lon": 23.0000252}, {"type": "node", "id": 2686697831, "lat": 41.2599318, "lon": 23.0000708}, {"type": "node", "id": 2686697833, "lat": 41.260079, "lon": 23.0000842}, {"type": "node", "id": 2686698402, "lat": 41.2600507, "lon": 23.0000816}, {"type": "node", "id": 2686698403, "lat": 41.2600306, "lon": 23.0002102}, {"type": "node", "id": 2686698404, "lat": 41.2599177, "lon": 23.000178}, {"type": "node", "id": 2688192183, "lat": 41.2817367, "lon": 23.01031}, {"type": "node", "id": 2688192186, "lat": 41.2816796, "lon": 23.0105201}, {"type": "node", "id": 2688192191, "lat": 41.2817558, "lon": 23.0105071}, {"type": "node", "id": 2688303111, "lat": 41.2598167, "lon": 22.999335}, {"type": "node", "id": 2688303113, "lat": 41.2599139, "lon": 22.9995221}, {"type": "node", "id": 2694346471, "lat": 41.2396202, "lon": 22.9892718}, {"type": "node", "id": 2694346472, "lat": 41.2395242, "lon": 22.9894499}, {"type": "node", "id": 2694346473, "lat": 41.2393541, "lon": 22.9892877}, {"type": "node", "id": 2694346474, "lat": 41.2394498, "lon": 22.9891095}, {"type": "node", "id": 2694349838, "lat": 41.2394239, "lon": 22.9891522}, {"type": "node", "id": 2694423501, "lat": 41.2526095, "lon": 23.0743582}, {"type": "node", "id": 2694423506, "lat": 41.2527395, "lon": 23.0742454}, {"type": "node", "id": 2694702392, "lat": 41.2286871, "lon": 23.0062201}, {"type": "node", "id": 2694702394, "lat": 41.2286008, "lon": 23.0064337}, {"type": "node", "id": 2694702395, "lat": 41.2284962, "lon": 23.0063589}, {"type": "node", "id": 2694702397, "lat": 41.2285825, "lon": 23.0061454}, {"type": "node", "id": 2696148049, "lat": 41.281867, "lon": 23.012048}, {"type": "node", "id": 2696148051, "lat": 41.2817749, "lon": 23.0121191}, {"type": "node", "id": 2696148053, "lat": 41.2817407, "lon": 23.012046}, {"type": "node", "id": 2696148055, "lat": 41.2818313, "lon": 23.0119728}, {"type": "node", "id": 2696148058, "lat": 41.2818105, "lon": 23.0119293}, {"type": "node", "id": 2696148060, "lat": 41.2817214, "lon": 23.0120025}, {"type": "node", "id": 2696148062, "lat": 41.2817764, "lon": 23.0118542}, {"type": "node", "id": 2696148064, "lat": 41.2816857, "lon": 23.0119293}, {"type": "node", "id": 2696155265, "lat": 41.2819547, "lon": 23.0106916}, {"type": "node", "id": 2696155267, "lat": 41.2819382, "lon": 23.0108071}, {"type": "node", "id": 2696155269, "lat": 41.2818434, "lon": 23.0107831}, {"type": "node", "id": 2696155271, "lat": 41.2818599, "lon": 23.0106676}, {"type": "node", "id": 2696155317, "lat": 41.2824227, "lon": 23.0115675}, {"type": "node", "id": 2696155318, "lat": 41.282332, "lon": 23.0116347}, {"type": "node", "id": 2696155320, "lat": 41.2822652, "lon": 23.0114924}, {"type": "node", "id": 2696155322, "lat": 41.2823514, "lon": 23.0114172}, {"type": "node", "id": 2696161792, "lat": 41.281867, "lon": 23.0105394}, {"type": "node", "id": 2696161793, "lat": 41.2819913, "lon": 23.0105646}, {"type": "node", "id": 2696161794, "lat": 41.2819803, "lon": 23.0106611}, {"type": "node", "id": 2696161795, "lat": 41.281856, "lon": 23.0106359}, {"type": "node", "id": 2696166482, "lat": 41.2820107, "lon": 22.9787193}, {"type": "node", "id": 2696166483, "lat": 41.2818492, "lon": 22.9787259}, {"type": "node", "id": 2696166484, "lat": 41.2818517, "lon": 22.9785402}, {"type": "node", "id": 2696166485, "lat": 41.2820083, "lon": 22.9785337}, {"type": "node", "id": 2696171338, "lat": 41.2432779, "lon": 23.0202448}, {"type": "node", "id": 2696171339, "lat": 41.2433039, "lon": 23.0204209}, {"type": "node", "id": 2696171340, "lat": 41.2432003, "lon": 23.020448}, {"type": "node", "id": 2696171341, "lat": 41.2431743, "lon": 23.0202719}, {"type": "node", "id": 2826050118, "lat": 41.1443522, "lon": 23.0075739}, {"type": "node", "id": 2826050120, "lat": 41.1442118, "lon": 23.0076409}, {"type": "node", "id": 2826050121, "lat": 41.1442842, "lon": 23.0075127}, {"type": "node", "id": 2826050122, "lat": 41.1442864, "lon": 23.0077109}, {"type": "node", "id": 2826051003, "lat": 41.1448308, "lon": 23.0065974}, {"type": "node", "id": 2826051004, "lat": 41.1447956, "lon": 23.0067228}, {"type": "node", "id": 2826051005, "lat": 41.1446727, "lon": 23.0066207}, {"type": "node", "id": 2826051006, "lat": 41.14471, "lon": 23.0065275}, {"type": "node", "id": 3929016349, "lat": 41.2960417, "lon": 22.9751207, "tags": {"amenity": "restaurant", "cuisine": "regional", "name": "Evora", "name:el": "\u0395\u03b2\u03cc\u03c1\u03b1"}}, {"type": "node", "id": 4089163074, "lat": 41.2535134, "lon": 22.7957274, "tags": {"amenity": "restaurant", "name": "\u03a8\u03b7\u03c3\u03c4\u03b1\u03c1\u03b9\u03b1"}}, {"type": "node", "id": 4089178116, "lat": 41.2570267, "lon": 22.8010111}, {"type": "node", "id": 4089178117, "lat": 41.2569613, "lon": 22.8009933}, {"type": "node", "id": 4089178118, "lat": 41.2569434, "lon": 22.8011139}, {"type": "node", "id": 4089178119, "lat": 41.2570088, "lon": 22.8011297}, {"type": "node", "id": 4090978365, "lat": 41.2763164, "lon": 22.7863734, "tags": {"amenity": "restaurant", "name": "To Patriko"}}, {"type": "node", "id": 4092125775, "lat": 41.2534196, "lon": 22.7962946}, {"type": "node", "id": 4092125776, "lat": 41.2534422, "lon": 22.796381}, {"type": "node", "id": 4092125777, "lat": 41.2533646, "lon": 22.7964206}, {"type": "node", "id": 4092125778, "lat": 41.253342, "lon": 22.7963354}, {"type": "node", "id": 4129575546, "lat": 41.2616886, "lon": 22.8384317, "tags": {"amenity": "cafe"}}, {"type": "node", "id": 4129575568, "lat": 41.2618235, "lon": 22.8397912, "tags": {"amenity": "cafe", "name": "Basaki"}}, {"type": "node", "id": 4129575569, "lat": 41.2618621, "lon": 22.8398802, "tags": {"amenity": "restaurant", "cuisine": "pizza", "delivery": "yes", "name": "H Gonia", "phone": "23410 31977"}}, {"type": "node", "id": 4129575570, "lat": 41.2619171, "lon": 22.8399988, "tags": {"amenity": "cafe", "name": "Da Iouz"}}, {"type": "node", "id": 4129575571, "lat": 41.2619602, "lon": 22.8400819, "tags": {"amenity": "cafe", "name": "Prestige"}}, {"type": "node", "id": 4129575575, "lat": 41.2620806, "lon": 22.8403073, "tags": {"amenity": "cafe"}}, {"type": "node", "id": 4139219303, "lat": 41.1780294, "lon": 22.7607488, "tags": {"amenity": "restaurant", "name": "Basilis"}}, {"type": "node", "id": 4139219304, "lat": 41.1780718, "lon": 22.7608506, "tags": {"amenity": "restaurant", "phone": "23410 97612"}}, {"type": "node", "id": 4139219312, "lat": 41.1782147, "lon": 22.7609495, "tags": {"amenity": "restaurant"}}, {"type": "node", "id": 4139219313, "lat": 41.1783337, "lon": 22.7612154, "tags": {"amenity": "restaurant", "name": "o Pontos"}}, {"type": "node", "id": 4139226794, "lat": 41.1783651, "lon": 22.760515, "tags": {"amenity": "cafe"}}, {"type": "node", "id": 4152012557, "lat": 41.2623313, "lon": 22.8405109, "tags": {"amenity": "restaurant", "cuisine": "pizza"}}, {"type": "node", "id": 4208672372, "lat": 41.3918098, "lon": 23.2075908, "tags": {"addr:city": "\u041f\u0435\u0442\u0440\u0438\u0447", "amenity": "restaurant", "cuisine": "pizza", "name": "\u041f\u043e\u0440\u0442\u043e \u0420\u0438\u043a\u043e", "name:en": "Porto Rico", "takeaway": "no"}}, {"type": "node", "id": 4429058124, "lat": 41.0926981, "lon": 22.7253825, "tags": {"amenity": "cafe"}}, {"type": "node", "id": 4530818689, "lat": 41.3704959, "lon": 22.9006024, "tags": {"addr:postcode": "2400", "addr:street": "Smolare", "amenity": "restaurant", "cuisine": "fish;barbecue;local;grill", "email": "manager@atlantis.com.mk", "internet_access": "wlan", "name": "\u0420\u0435\u0441\u0442\u043e\u0440\u0430\u043d \u0410\u0442\u043b\u0430\u043d\u0442\u0438\u0421 \u0421\u043c\u043e\u043b\u0430\u0440\u0441\u043a\u0438 \u0412\u043e\u0434\u043e\u043f\u0430\u0442", "name:en": "Restaurant AtlantiS Smolare Waterfall", "name:mk": "\u0420\u0435\u0441\u0442\u043e\u0440\u0430\u043d \u0410\u0442\u043b\u0430\u043d\u0442\u0438\u0421 \u0421\u043c\u043e\u043b\u0430\u0440\u0441\u043a\u0438 \u0412\u043e\u0434\u043e\u043f\u0430\u0442", "opening_hours": "Mo-Su 10:00-22:00", "operator": "Sashko Donchovski", "phone": "38978314212", "website": "https://www.atlantis.mk/"}}, {"type": "node", "id": 4837598220, "lat": 41.2120459, "lon": 23.0952837, "tags": {"amenity": "restaurant", "cuisine": "regional", "name": "\u0395\u03bb\u03c9\u03b4\u03af\u03b1 (\u03a4\u03b1\u03b2\u03ad\u03c1\u03bd\u03b1 - \u03c0\u03bf\u03bb\u03c5\u03c7\u03ce\u03c1\u03bf\u03c2)", "phone": "2327041502"}}, {"type": "node", "id": 4837606863, "lat": 41.2148758, "lon": 23.0864528, "tags": {"amenity": "restaurant"}}, {"type": "node", "id": 4837607485, "lat": 41.2165962, "lon": 23.0885797, "tags": {"amenity": "restaurant", "name": "\u03a4\u03b1\u03b2\u03ad\u03c1\u03bd\u03b1 \"\u039c\u03bf\u03c1\u03c6\u03ae\"", "phone": "2327041036"}}, {"type": "node", "id": 4837614623, "lat": 41.2200934, "lon": 23.0848574, "tags": {"amenity": "cafe", "name": "\u039a\u03b1\u03c6\u03b5\u03b6\u03b1\u03c7\u03b1\u03c1\u03bf\u03c0\u03bb\u03b1\u03c3\u03c4\u03b5\u03af\u03bf"}}, {"type": "node", "id": 4837614773, "lat": 41.2214645, "lon": 23.0851673, "tags": {"amenity": "restaurant", "name": "\u03a4\u03ac\u03ba\u03b1-\u03a4\u03ac\u03ba\u03b1"}}, {"type": "node", "id": 4837614774, "lat": 41.2217771, "lon": 23.0848845, "tags": {"amenity": "restaurant", "name": "\u03a4\u03bf \u03ba\u03bf\u03c5\u03c4\u03bf\u03cd\u03ba\u03b9"}}, {"type": "node", "id": 4837614775, "lat": 41.2225549, "lon": 23.085056, "tags": {"amenity": "restaurant", "name": "\u03a4\u03bf \u03bc\u03c0\u03b1\u03ca\u03c1\u03ac\u03ba\u03b9"}}, {"type": "node", "id": 4837625929, "lat": 41.2655259, "lon": 23.2463896, "tags": {"amenity": "restaurant", "name": "\u03b1\u039b\u0388\u039e\u0391\u039d\u0394\u03a1\u039f\u03c2"}}, {"type": "node", "id": 4837625930, "lat": 41.265312, "lon": 23.2514053, "tags": {"amenity": "restaurant", "cuisine": "pizza"}}, {"type": "node", "id": 4837625931, "lat": 41.2653185, "lon": 23.2558463, "tags": {"amenity": "cafe"}}, {"type": "node", "id": 4837625993, "lat": 41.2660171, "lon": 23.2574441, "tags": {"amenity": "restaurant", "cuisine": "pizza"}}, {"type": "node", "id": 4837629141, "lat": 41.2824422, "lon": 23.2909184, "tags": {"amenity": "restaurant"}}, {"type": "node", "id": 4837659028, "lat": 41.1381032, "lon": 23.2190989, "tags": {"amenity": "restaurant", "name": "\u03a4\u03b1\u03b2\u03ad\u03c1\u03bd\u03b1 \"\u03a0\u03b1\u03bd\u03cc\u03c1\u03b1\u03bc\u03b1\""}}, {"type": "node", "id": 4837659029, "lat": 41.1377901, "lon": 23.2198494, "tags": {"amenity": "cafe", "name": "\u0391\u03c1\u03c7\u03bf\u03bd\u03c4\u03b1\u03c1\u03af\u03ba\u03b9"}}, {"type": "node", "id": 4918595608, "lat": 41.2704274, "lon": 23.1780155, "tags": {"amenity": "restaurant", "name": "\u03a4\u03bf \u039c\u03c0\u03ad\u03bb\u03bb\u03b5\u03c2"}}, {"type": "node", "id": 4918595609, "lat": 41.2707066, "lon": 23.1782172, "tags": {"amenity": "restaurant"}}, {"type": "node", "id": 4918595610, "lat": 41.2708267, "lon": 23.1777997, "tags": {"amenity": "restaurant"}}, {"type": "node", "id": 4918595743, "lat": 41.2701931, "lon": 23.178239, "tags": {"amenity": "restaurant", "cuisine": "\u03a8\u03b7\u03c3\u03c4\u03b1\u03c1\u03b9\u03ac", "name": "\u039f \u039c\u03c0\u03ac\u03c1\u03bc\u03c0\u03b1 \u0393\u03b9\u03ce\u03c1\u03b3\u03b7\u03c2"}}, {"type": "node", "id": 5311649385, "lat": 41.2156973, "lon": 23.0886164, "tags": {"amenity": "restaurant", "name:en": "Oikoperigitis"}}, {"type": "node", "id": 5340629477, "lat": 41.1377462, "lon": 23.2188606, "tags": {"amenity": "restaurant", "name": "\u03a0\u03b1\u03c1\u03b1\u03bb\u03af\u03bc\u03bd\u03b7"}}, {"type": "node", "id": 5340632646, "lat": 41.1361147, "lon": 23.220852, "tags": {"amenity": "restaurant"}}, {"type": "node", "id": 5360785327, "lat": 41.1786371, "lon": 22.8508651, "tags": {"amenity": "restaurant"}}, {"type": "node", "id": 5360800306, "lat": 41.1900992, "lon": 22.8148271}, {"type": "node", "id": 5360834553, "lat": 41.1667387, "lon": 22.8034794, "tags": {"amenity": "cafe"}}, {"type": "node", "id": 5360834555, "lat": 41.166788, "lon": 22.8032902, "tags": {"amenity": "cafe"}}, {"type": "node", "id": 5360834558, "lat": 41.1651455, "lon": 22.8020173, "tags": {"amenity": "restaurant", "cuisine": "\u03a8\u03b7\u03c3\u03c4\u03b1\u03c1\u03b9\u03ac", "name": "\u03a3\u03bf\u03c5\u03bb\u03c4\u03bf\u03cd\u03c1\u03b1\u03c2"}}, {"type": "node", "id": 5361059247, "lat": 41.2640477, "lon": 23.1411756, "tags": {"amenity": "cafe", "name": "\u039a\u03bb\u03b7\u03bc\u03b1\u03c1\u03b1\u03c1\u03b9\u03ac"}}, {"type": "node", "id": 5361077826, "lat": 41.2703257, "lon": 23.1781335, "tags": {"amenity": "cafe"}}, {"type": "node", "id": 5361137816, "lat": 41.2655349, "lon": 23.2490191, "tags": {"amenity": "restaurant"}}, {"type": "node", "id": 5361140023, "lat": 41.2650722, "lon": 23.2516566, "tags": {"amenity": "cafe", "name": "\u0397 \u039a\u03b1\u03bb\u03ae \u039a\u03b1\u03c1\u03b4\u03b9\u03ac"}}, {"type": "node", "id": 5361140025, "lat": 41.2651634, "lon": 23.2523562, "tags": {"amenity": "restaurant", "name": "\u0391\u03af\u03bd\u03b9\u03b3\u03bc\u03b1"}}, {"type": "node", "id": 5424687775, "lat": 41.181915, "lon": 23.283212, "tags": {"amenity": "restaurant", "cuisine": "\u03a8\u03b7\u03c4\u03bf\u03c0\u03c9\u03bb\u03b5\u03af\u03bf", "name": "\u0391\u03c3\u03c4\u03b5\u03c1\u03af\u03be & \u039f\u03b2\u03b5\u03bb\u03af\u03be"}}, {"type": "node", "id": 5424687776, "lat": 41.1819707, "lon": 23.2826126, "tags": {"amenity": "cafe", "name": "\u03a3\u03b5\u03c1\u03c1\u03b1\u03af\u03bf\u03c2"}}, {"type": "node", "id": 5424704743, "lat": 41.1640517, "lon": 23.2677397, "tags": {"amenity": "cafe"}}, {"type": "node", "id": 5424704744, "lat": 41.1645691, "lon": 23.2678045, "tags": {"amenity": "restaurant", "name": "\u0392\u03c5\u03be\u03b9\u03ce\u03c4\u03b7\u03c2"}}, {"type": "node", "id": 5424704749, "lat": 41.1649052, "lon": 23.2673125, "tags": {"amenity": "restaurant", "name": "\u039f \u039c\u03b9\u03c7\u03ac\u03bb\u03b7\u03c2"}}, {"type": "node", "id": 5424704750, "lat": 41.1646665, "lon": 23.2666529, "tags": {"amenity": "restaurant", "name": "\u039f \u03a0\u03b1\u03c4\u03b1\u03ba\u03bf\u03c2"}}, {"type": "node", "id": 5424704751, "lat": 41.1654896, "lon": 23.2673191, "tags": {"amenity": "cafe"}}, {"type": "node", "id": 5548579513, "lat": 41.2841029, "lon": 22.931419, "tags": {"amenity": "cafe", "cuisine": "greek"}}, {"type": "node", "id": 5570753589, "lat": 40.9886662, "lon": 22.8739633}, {"type": "node", "id": 5570753590, "lat": 40.9885834, "lon": 22.8739755}, {"type": "node", "id": 5570753591, "lat": 40.9886079, "lon": 22.87413}, {"type": "node", "id": 5570753592, "lat": 40.9886816, "lon": 22.8740974}, {"type": "node", "id": 5803571454, "lat": 41.3951875, "lon": 22.9390355, "tags": {"amenity": "restaurant"}}, {"type": "node", "id": 6030353485, "lat": 41.3914664, "lon": 23.2071946, "tags": {"addr:housenumber": "1", "addr:street": "\u041c\u0430\u043a\u0435\u0434\u043e\u043d\u0438\u044f", "amenity": "restaurant", "name": "\u0414\u0435\u0442\u0435\u043b\u0438\u043d\u0430", "phone": "+359 89 856 8468"}}, {"type": "node", "id": 6452841966, "lat": 41.3710158, "lon": 23.0909148, "tags": {"amenity": "restaurant", "name": "\u042f\u043d\u043a\u0438\u0448", "name:hu": "Jankis"}}, {"type": "node", "id": 6695548298, "lat": 41.2816605, "lon": 23.0103231}, {"type": "node", "id": 6696421281, "lat": 41.2685461, "lon": 22.8543352, "tags": {"amenity": "restaurant", "name": "\u03a4\u03bf \u03a3\u03c4\u03ad\u03ba\u03b9", "wheelchair": "yes"}}, {"type": "node", "id": 6960187386, "lat": 41.3957619, "lon": 23.2060991, "tags": {"amenity": "restaurant", "name": "\u0410\u0432\u0430\u043b\u043e\u043d", "opening_hours": "Mo-Su 10:00-24:00"}}, {"type": "node", "id": 7121648912, "lat": 41.1873541, "lon": 22.722538}, {"type": "node", "id": 7124138463, "lat": 41.1833619, "lon": 22.7230515, "tags": {"addr:city": "\u0421\u0442\u0430\u0440 \u0414\u043e\u0458\u0440\u0430\u043d", "addr:postcode": "1487", "addr:street": "\u041c\u0430\u0440\u0448\u0430\u043b \u0422\u0438\u0442\u043e", "amenity": "restaurant", "name": "\u0411\u043e\u0435\u043c\u0438", "opening_hours": "Mo-Su 08:00-23:00"}}, {"type": "node", "id": 7124138465, "lat": 41.18306, "lon": 22.7232748}, {"type": "node", "id": 8231196793, "lat": 40.9929662, "lon": 22.8751669, "tags": {"addr:housenumber": "3", "addr:street": "\u0393\u03b1\u03b2\u03c1\u03b9\u03b7\u03bb\u03af\u03b4\u03b7", "amenity": "restaurant", "name": "Low'n'Slow"}}, {"type": "node", "id": 8231230718, "lat": 40.9919115, "lon": 22.8760343, "tags": {"amenity": "restaurant", "name": "\u03a4\u03c1\u03b1\u03c4\u03b1\u03bc\u03ad\u03bd\u03c4\u03bf \u03a0\u03bf\u03b9\u03ba\u03b9\u03bb\u03af\u03b1 \u0393\u03b5\u03cd\u03c3\u03b5\u03c9\u03bd"}}, {"type": "node", "id": 8848436978, "lat": 41.2703465, "lon": 23.1781856, "tags": {"amenity": "restaurant", "name": "\u0395\u03b9\u03c1\u03ae\u03bd\u03b7"}}, {"type": "node", "id": 8848963662, "lat": 41.2627838, "lon": 23.2548994, "tags": {"amenity": "restaurant", "name": "\u039c\u03b5\u03b8\u03bf\u03c1\u03b9\u03b1\u03ba\u03cc\u03c2 \u03a3\u03c4\u03b1\u03b8\u03bc\u03cc\u03c2"}}, {"type": "node", "id": 8850346027, "lat": 41.2915232, "lon": 23.0361072, "tags": {"amenity": "restaurant", "name": "\u0392\u03b1\u03c3\u03b9\u03bb\u03b5\u03af\u03bf\u03c5 \u03a7\u03c1\u03ae\u03c3\u03c4\u03bf\u03c2", "phone": "+302327051493"}}, {"type": "node", "id": 8851001894, "lat": 41.2594118, "lon": 22.9997746, "tags": {"amenity": "restaurant", "name": "\u0394\u03ad\u03b4\u03b7\u03c2"}}, {"type": "node", "id": 9178100258, "lat": 41.2957929, "lon": 23.0376681}, {"type": "node", "id": 9178100259, "lat": 41.2958373, "lon": 23.0377857}, {"type": "node", "id": 9178100260, "lat": 41.2958508, "lon": 23.0377766}, {"type": "node", "id": 9178100261, "lat": 41.2959209, "lon": 23.0379617}, {"type": "node", "id": 9178100262, "lat": 41.2958361, "lon": 23.0380186}, {"type": "node", "id": 9178100263, "lat": 41.2957216, "lon": 23.0377159}, {"type": "node", "id": 9963356394, "lat": 41.29193, "lon": 23.0359862, "tags": {"amenity": "cafe", "name": "\u039a\u0391\u03a6\u0395 \u03a4\u0399\u039d\u03a4\u0396\u0391\u03a3"}}, {"type": "node", "id": 9964153227, "lat": 41.1839089, "lon": 23.2390485}, {"type": "node", "id": 9964153228, "lat": 41.1839822, "lon": 23.2388528}, {"type": "node", "id": 9964153229, "lat": 41.1839531, "lon": 23.2388336}, {"type": "node", "id": 9964153230, "lat": 41.1839592, "lon": 23.2388174}, {"type": "node", "id": 9964153231, "lat": 41.183879, "lon": 23.2387644}, {"type": "node", "id": 9964153232, "lat": 41.1838576, "lon": 23.2388214}, {"type": "node", "id": 9964153233, "lat": 41.1838181, "lon": 23.2387953}, {"type": "node", "id": 9964153234, "lat": 41.1837601, "lon": 23.2389501}, {"type": "node", "id": 9964413181, "lat": 41.2070177, "lon": 23.2826609}, {"type": "node", "id": 9964413182, "lat": 41.2070527, "lon": 23.2826821}, {"type": "node", "id": 9964413183, "lat": 41.2070269, "lon": 23.2827572}, {"type": "node", "id": 9964413184, "lat": 41.2070664, "lon": 23.2827812}, {"type": "node", "id": 9964413185, "lat": 41.2071108, "lon": 23.2826522}, {"type": "node", "id": 9964431121, "lat": 41.2048569, "lon": 23.2790318}, {"type": "node", "id": 9964431122, "lat": 41.2046893, "lon": 23.2791035}, {"type": "node", "id": 9964431123, "lat": 41.2046765, "lon": 23.279051}, {"type": "node", "id": 9964431124, "lat": 41.2046237, "lon": 23.2790736}, {"type": "node", "id": 9964431125, "lat": 41.2046713, "lon": 23.2792699}, {"type": "node", "id": 9964431126, "lat": 41.2047873, "lon": 23.2792202}, {"type": "node", "id": 9964431127, "lat": 41.2047981, "lon": 23.2792647}, {"type": "node", "id": 9964431128, "lat": 41.2049025, "lon": 23.27922}, {"type": "node", "id": 10012744429, "lat": 41.1797713, "lon": 22.7631762, "tags": {"amenity": "restaurant", "cuisine": "greek"}}, {"type": "node", "id": 10035238414, "lat": 41.185858, "lon": 23.2757502}, {"type": "node", "id": 10035238415, "lat": 41.1859659, "lon": 23.2757575}, {"type": "node", "id": 10035238416, "lat": 41.1859663, "lon": 23.2757471}, {"type": "node", "id": 10035238417, "lat": 41.1860262, "lon": 23.2757512}, {"type": "node", "id": 10035238418, "lat": 41.1860345, "lon": 23.2755353}, {"type": "node", "id": 10035238427, "lat": 41.1859423, "lon": 23.275529}, {"type": "node", "id": 10035238428, "lat": 41.1859408, "lon": 23.2755676}, {"type": "node", "id": 10035238429, "lat": 41.1858652, "lon": 23.2755625}, {"type": "node", "id": 10087327504, "lat": 41.2617695, "lon": 22.839591, "tags": {"amenity": "cafe"}}, {"type": "node", "id": 10087332704, "lat": 41.2617643, "lon": 22.8385566, "tags": {"amenity": "cafe"}}, {"type": "node", "id": 10087337091, "lat": 41.2619907, "lon": 22.8390749, "tags": {"amenity": "cafe"}}, {"type": "node", "id": 10089622190, "lat": 41.2595687, "lon": 22.8326238, "tags": {"amenity": "restaurant"}}, {"type": "node", "id": 10089623068, "lat": 41.2624728, "lon": 22.840493, "tags": {"amenity": "restaurant"}}, {"type": "node", "id": 10118893017, "lat": 41.2538569, "lon": 22.7954822}, {"type": "node", "id": 10118893018, "lat": 41.2538319, "lon": 22.7955727}, {"type": "node", "id": 10118893019, "lat": 41.2537859, "lon": 22.795546}, {"type": "node", "id": 10118893020, "lat": 41.2538118, "lon": 22.7954592}, {"type": "node", "id": 10118900245, "lat": 41.2402273, "lon": 22.7750054}, {"type": "node", "id": 10118900246, "lat": 41.240025, "lon": 22.7750018}, {"type": "node", "id": 10118900247, "lat": 41.2400233, "lon": 22.7751689}, {"type": "node", "id": 10118900248, "lat": 41.2402256, "lon": 22.7751726}, {"type": "node", "id": 10135807986, "lat": 41.1901244, "lon": 22.8147078}, {"type": "node", "id": 10135807987, "lat": 41.1900637, "lon": 22.8146851}, {"type": "node", "id": 10135807988, "lat": 41.1900385, "lon": 22.8148044}, {"type": "node", "id": 10135859090, "lat": 41.1830139, "lon": 22.7232799}, {"type": "node", "id": 10135859091, "lat": 41.18301, "lon": 22.7232173}, {"type": "node", "id": 10135859092, "lat": 41.1829338, "lon": 22.7232256}, {"type": "node", "id": 10135859093, "lat": 41.1829386, "lon": 22.7233029}, {"type": "node", "id": 10135859094, "lat": 41.1828463, "lon": 22.723313}, {"type": "node", "id": 10135859095, "lat": 41.1828543, "lon": 22.7234409}, {"type": "node", "id": 10135859096, "lat": 41.1830688, "lon": 22.7234173}, {"type": "node", "id": 10135859109, "lat": 41.1833864, "lon": 22.7228048}, {"type": "node", "id": 10135859110, "lat": 41.1834078, "lon": 22.7230018}, {"type": "node", "id": 10135859111, "lat": 41.1835482, "lon": 22.7229748}, {"type": "node", "id": 10135859112, "lat": 41.1835402, "lon": 22.7229013}, {"type": "node", "id": 10135859113, "lat": 41.1834987, "lon": 22.7229093}, {"type": "node", "id": 10135859114, "lat": 41.1834852, "lon": 22.7227858}, {"type": "node", "id": 10135886245, "lat": 41.1875477, "lon": 22.722517}, {"type": "node", "id": 10135886246, "lat": 41.1875349, "lon": 22.7223092}, {"type": "node", "id": 10135886247, "lat": 41.1873052, "lon": 22.7223341}, {"type": "node", "id": 10135886248, "lat": 41.1873161, "lon": 22.7225116}, {"type": "node", "id": 10135886249, "lat": 41.1873522, "lon": 22.7225077}, {"type": "node", "id": 10213934871, "lat": 41.1812262, "lon": 23.2796909}, {"type": "node", "id": 10213934872, "lat": 41.1811911, "lon": 23.2796393}, {"type": "node", "id": 10213934873, "lat": 41.1812106, "lon": 23.2796158}, {"type": "node", "id": 10213934874, "lat": 41.1811789, "lon": 23.2795692}, {"type": "node", "id": 10213934875, "lat": 41.1811024, "lon": 23.2796613}, {"type": "node", "id": 10213934876, "lat": 41.1812054, "lon": 23.2798125}, {"type": "node", "id": 10213934877, "lat": 41.1813001, "lon": 23.2796986}, {"type": "node", "id": 10213934878, "lat": 41.1812639, "lon": 23.2796455}, {"type": "node", "id": 10712271004, "lat": 41.0003838, "lon": 22.8733579}, {"type": "node", "id": 10712291705, "lat": 41.0003299, "lon": 22.8733558}, {"type": "node", "id": 10712291706, "lat": 41.0003307, "lon": 22.8733223}, {"type": "node", "id": 10712291707, "lat": 41.0003631, "lon": 22.8733235}, {"type": "node", "id": 10712291708, "lat": 41.0003662, "lon": 22.8731842}, {"type": "node", "id": 10712291709, "lat": 41.0002954, "lon": 22.8731814}, {"type": "node", "id": 10712291710, "lat": 41.0002943, "lon": 22.873231}, {"type": "node", "id": 10712291711, "lat": 41.0002303, "lon": 22.8732252}, {"type": "node", "id": 10712291712, "lat": 41.000194, "lon": 22.8734269}, {"type": "node", "id": 10712291713, "lat": 41.0001904, "lon": 22.8732876}, {"type": "node", "id": 10976892645, "lat": 41.3968584, "lon": 23.2057705, "tags": {"addr:city": "\u041f\u0435\u0442\u0440\u0438\u0447", "addr:housenumber": "10", "addr:postcode": "2850", "addr:street": "\u041f\u043e\u043b\u043a\u043e\u0432\u043d\u0438\u043a \u0414\u0440\u0430\u043d\u0433\u043e\u0432", "amenity": "restaurant", "check_date": "2023-06-14", "contact:phone": "+359 89 570 3370", "int_name": "Provence", "internet_access": "wlan", "internet_access:fee": "customers", "name": "\u041f\u0440\u043e\u0432\u0430\u043d\u0441", "name:en": "Provence", "opening_hours": "08:00-24:00", "operator": "\u0418\u043d\u0442\u0435\u0440 \u0424\u0443\u0443\u0434\u0441 \u0415\u041e\u041e\u0414", "payment:mastercard": "yes", "payment:visa": "yes", "wheelchair": "yes"}}, {"type": "node", "id": 11070112910, "lat": 41.1632522, "lon": 23.2685912, "tags": {"amenity": "restaurant", "name": "\u039f \u039a\u03bf\u03c5\u03c4\u03c3\u03b9\u03bf\u03cd\u03bc\u03c0\u03b1\u03c2"}}, {"type": "node", "id": 11130580027, "lat": 41.1833362, "lon": 23.2821699}, {"type": "node", "id": 11130580028, "lat": 41.1833326, "lon": 23.2822987}, {"type": "node", "id": 11130580031, "lat": 41.1833389, "lon": 23.2821701}, {"type": "node", "id": 11130580035, "lat": 41.1834058, "lon": 23.2823023}, {"type": "node", "id": 11130580036, "lat": 41.1834097, "lon": 23.2821363}, {"type": "node", "id": 11130580037, "lat": 41.1833399, "lon": 23.2821329}, {"type": "node", "id": 11150386300, "lat": 41.1834094, "lon": 23.2821681}, {"type": "node", "id": 11150386301, "lat": 41.1834066, "lon": 23.2822766}, {"type": "node", "id": 11212800152, "lat": 41.1833291, "lon": 23.2824743}, {"type": "node", "id": 11212800155, "lat": 41.1832579, "lon": 23.282471}, {"type": "node", "id": 11212800156, "lat": 41.1832552, "lon": 23.2825746}, {"type": "node", "id": 11212800157, "lat": 41.1833264, "lon": 23.2825779}, {"type": "node", "id": 11262234183, "lat": 41.1836422, "lon": 23.2826166, "tags": {"amenity": "cafe"}}, {"type": "node", "id": 11262234184, "lat": 41.1835769, "lon": 23.2826115, "tags": {"amenity": "restaurant"}}, {"type": "node", "id": 11262234189, "lat": 41.182582, "lon": 23.2824945, "tags": {"amenity": "cafe"}}, {"type": "node", "id": 11262234199, "lat": 41.1831507, "lon": 23.2822192, "tags": {"amenity": "cafe"}}, {"type": "node", "id": 11262234205, "lat": 41.1819242, "lon": 23.283435, "tags": {"amenity": "cafe"}}, {"type": "node", "id": 11266635429, "lat": 41.2526686, "lon": 23.0741007}, {"type": "node", "id": 11266635430, "lat": 41.2525386, "lon": 23.0742134}, {"type": "node", "id": 11291026669, "lat": 40.9921733, "lon": 22.8725169, "tags": {"addr:housenumber": "77", "addr:postcode": "61100", "addr:street": "21\u03b7\u03c2 \u0399\u03bf\u03c5\u03bd\u03af\u03bf\u03c5", "amenity": "cafe", "name:en": "Bruno Coffee Stores", "phone": "+302341078918", "website": "https://www.bruno.gr/"}}, {"type": "node", "id": 11530756954, "lat": 41.1806223, "lon": 22.7255347, "tags": {"addr:city": "\u0421\u0442\u0430\u0440 \u0414\u043e\u0458\u0440\u0430\u043d", "amenity": "cafe", "cuisine": "coffee_shop", "name": "Moon Bar", "outdoor_seating": "yes"}}, {"type": "node", "id": 11535300310, "lat": 41.1747683, "lon": 22.7308375}, {"type": "node", "id": 11535300311, "lat": 41.1746091, "lon": 22.7306993}, {"type": "node", "id": 11535300312, "lat": 41.1744898, "lon": 22.730931}, {"type": "node", "id": 11535300313, "lat": 41.174655, "lon": 22.7310774}, {"type": "node", "id": 11535300315, "lat": 41.184296, "lon": 22.7220118}, {"type": "node", "id": 11535300316, "lat": 41.1842257, "lon": 22.7216639}, {"type": "node", "id": 11535300317, "lat": 41.1840623, "lon": 22.7217689}, {"type": "node", "id": 11535300318, "lat": 41.1841238, "lon": 22.7220304}, {"type": "node", "id": 11764910696, "lat": 41.3885939, "lon": 22.8972022}, {"type": "node", "id": 11764910697, "lat": 41.3884953, "lon": 22.8975601}, {"type": "node", "id": 11764910698, "lat": 41.3883556, "lon": 22.8974917}, {"type": "node", "id": 11764910699, "lat": 41.3883816, "lon": 22.8973977}, {"type": "node", "id": 11764910700, "lat": 41.3882668, "lon": 22.8973414}, {"type": "node", "id": 11764910701, "lat": 41.3881908, "lon": 22.897617}, {"type": "node", "id": 11764910702, "lat": 41.3881002, "lon": 22.8975726}, {"type": "node", "id": 11764910703, "lat": 41.3881734, "lon": 22.8973073}, {"type": "node", "id": 11764910704, "lat": 41.388234, "lon": 22.897337}, {"type": "node", "id": 11764910705, "lat": 41.3882864, "lon": 22.8971473}, {"type": "node", "id": 11764910706, "lat": 41.3884389, "lon": 22.8972222}, {"type": "node", "id": 11764910707, "lat": 41.3884543, "lon": 22.8971663}, {"type": "node", "id": 11764910708, "lat": 41.3885457, "lon": 22.8972111}, {"type": "node", "id": 11764910709, "lat": 41.388548, "lon": 22.8971798}, {"type": "node", "id": 12084062293, "lat": 41.2070363, "lon": 23.2826069}, {"type": "node", "id": 12147454398, "lat": 41.3620733, "lon": 23.0701663, "tags": {"amenity": "cafe"}}, {"type": "node", "id": 12174279517, "lat": 41.4055361, "lon": 23.2041684, "tags": {"amenity": "restaurant", "name": "\u0421\u0438\u043c\u0438\u0434\u0438\u0442\u0435"}}, {"type": "node", "id": 12174279518, "lat": 41.4056367, "lon": 23.2036849, "tags": {"amenity": "restaurant", "name": "\u0427\u043e\u0447\u043a\u043e"}}, {"type": "node", "id": 12211990689, "lat": 41.2198298, "lon": 23.084372, "tags": {"addr:city": "Kerkinix", "addr:postcode": "62055", "amenity": "cafe", "contact:facebook": "https://www.facebook.com/BlackSugar.Kerkini", "cuisine": "regional;coffee_shop;sandwich", "email": "xaramix32@gmail.com", "name": "Sugar Cafe - Bar", "outdoor_seating": "yes", "payment:cash": "yes", "payment:credit_cards": "yes", "phone": "+30 697 691 2951", "toilets": "yes"}}, {"type": "way", "id": 262857494, "nodes": [2685120098, 2685120097, 2685120100, 2685120101, 2685120094, 2685120098], "tags": {"amenity": "cafe", "building": "yes", "name": "La Casa"}}, {"type": "way", "id": 262857952, "nodes": [2685122405, 2685122408, 2685122410, 2685122434, 2685122413, 2685122405], "tags": {"amenity": "cafe", "building": "yes", "name": "\u03a3\u03a0\u039f\u03a1\u03a4 \u039a\u0391\u03a6\u0395"}}, {"type": "way", "id": 262858838, "nodes": [2685129925, 2685129927, 2685129931, 2685129928, 2685129926, 2685129925], "tags": {"amenity": "cafe", "building": "yes", "name": "\"\u03a4\u03c1\u03b1\u03c0\u03b5\u03b6\u03ac\u03ba\u03b9\u03b1 \u0388\u03be\u03c9\""}}, {"type": "way", "id": 262858839, "nodes": [2685129927, 2685129929, 2685129930, 2685129931, 2685129927], "tags": {"amenity": "restaurant", "building": "yes", "cuisine": "regional", "name": "\"\u039a\u03bf\u03bc\u03c0\u03bf\u03bb\u03cc\u03b9\""}}, {"type": "way", "id": 262861601, "nodes": [2685151245, 2685151261, 2685151284, 2685151283, 2685151249, 2685151252, 2685151245], "tags": {"amenity": "restaurant", "building": "yes", "cuisine": "regional", "name": "\u0394\u0395\u0394\u0397\u03a3 \u0391\u0398\u0391\u039d\u0391\u03a3\u0399\u039f\u03a3", "survey:date": "2020-02-21"}}, {"type": "way", "id": 262861610, "nodes": [2685151296, 2685151300, 2685151302, 2688303113, 2685151296], "tags": {"amenity": "cafe", "building": "yes", "name": "KOYROS CLOSE", "survey:date": "2020-02-21"}}, {"type": "way", "id": 262861611, "nodes": [2685151300, 2685151304, 2688303111, 2685151305, 2685151302, 2685151300], "tags": {"amenity": "cafe", "building": "yes", "name": "SANTANA"}}, {"type": "way", "id": 262861612, "nodes": [2685151304, 2685151307, 2685151315, 2685151309, 2685151305, 2688303111, 2685151304], "tags": {"amenity": "cafe", "building": "yes", "name": "ELLI CLOSE", "survey:date": "2020-02-21"}}, {"type": "way", "id": 262861613, "nodes": [2685151307, 2685151311, 2685151313, 2685151315, 2685151307], "tags": {"amenity": "cafe", "building": "yes", "name": "Dreams CLOSE", "survey:date": "2020-02-21"}}, {"type": "way", "id": 262861624, "nodes": [2685151344, 2685151345, 2685151346, 2685151343, 2685151344], "tags": {"amenity": "cafe", "building": "yes", "name": "POSTO"}}, {"type": "way", "id": 262865879, "nodes": [2685198469, 2685151283, 2685151284, 2685198468, 2685198469], "tags": {"amenity": "restaurant", "building": "yes", "name": "\u0394\u03ad\u03b4\u03b7\u03c2 \u0391\u03b8\u03b1\u03bd\u03ac\u03c3\u03b9\u03bf\u03c2", "survey:date": "2020-02-21"}}, {"type": "way", "id": 262867494, "nodes": [2685213246, 2685213247, 2685213248, 2685213249, 2685213246], "tags": {"amenity": "restaurant", "building": "yes", "cuisine": "mediterranean", "name": "\u039a\u0391\u03a6\u0395-\u03a8\u0397\u03a3\u03a4\u0391\u03a1\u0399\u0391 \"\u039f \u03a0\u039b\u0391\u03a4\u0391\u039d\u039f\u03a3\" \u039c\u0395\u039b\u0399\u039a\u0399\u0394\u0397\u03a3 \u039c\u0399\u03a7.", "phone": "2327023326", "survey:date": "2020-02-21", "website": "https://platanos.yolasite.com/", "wheelchair": "yes"}}, {"type": "way", "id": 263042631, "nodes": [2686693093, 2686693094, 2686693095, 2686693096, 2686693093], "tags": {"amenity": "restaurant", "building": "yes", "cuisine": "pizza", "name": "\u03a0\u03b9\u03c4\u03c3\u03b1\u03c1\u03af\u03b1 \"\u0394\u03b9\u03cc\u03bd\u03c5\u03c3\u03bf\u03c2\"", "phone": "+302327023115"}}, {"type": "way", "id": 263043275, "nodes": [2686697826, 2686697827, 2686697828, 2686697833, 2686697829, 2686697826], "tags": {"amenity": "cafe", "building": "yes", "name": "\"\u03a3\u03bf\u03cd\u03bb\u03b7\u03c2\""}}, {"type": "way", "id": 263043337, "nodes": [2686698402, 2686698403, 2686698404, 2686697831, 2686698402], "tags": {"amenity": "cafe", "building": "yes", "name": "Village Coffee", "phone": "2327023296"}}, {"type": "way", "id": 263195162, "nodes": [2688192186, 6695548298, 2688192183, 2688192191, 2688192186], "tags": {"amenity": "restaurant", "cuisine": "greek", "internet_access": "wlan", "internet_access:fee": "no", "name": "\u03a4\u03bf \u039a\u03b9\u03cc\u03c3\u03ba\u03b9", "name:el": "\u03a4\u03bf \u039a\u03b9\u03cc\u03c3\u03ba\u03b9", "name:en": "To Kioski", "outdoor_seating": "yes", "toilets": "yes", "wheelchair": "limited"}}, {"type": "way", "id": 263781857, "nodes": [2694346471, 2694346472, 2694346473, 2694349838, 2694346474, 2694346471], "tags": {"amenity": "restaurant", "building": "yes", "cuisine": "greek", "name": "\u0391\u03a7\u0399\u039b\u039b\u0395\u0399\u039f\u039d"}}, {"type": "way", "id": 263789883, "nodes": [11266635429, 11266635430, 2694423501, 2694423506, 11266635429], "tags": {"amenity": "cafe", "building": "yes"}}, {"type": "way", "id": 263820521, "nodes": [2694702392, 2694702394, 2694702395, 2694702397, 2694702392], "tags": {"amenity": "restaurant", "building": "yes", "cuisine": "greek"}}, {"type": "way", "id": 263931149, "nodes": [2696148049, 2696148051, 2696148053, 2696148055, 2696148049], "tags": {"amenity": "cafe", "building": "yes", "cuisine": "coffee_shop", "name": "\u03a3\u03a4\u0395\u039b\u0399\u039f\u03a3 - \u039a\u03a9\u03a3\u03a4\u0391\u03a3"}}, {"type": "way", "id": 263931151, "nodes": [2696148058, 2696148062, 2696148064, 2696148060, 2696148058], "tags": {"amenity": "cafe", "building": "yes", "name": "ROUTE 66"}}, {"type": "way", "id": 263931575, "nodes": [2696155265, 2696155267, 2696155269, 2696155271, 2696155265], "tags": {"amenity": "cafe", "building": "yes", "cuisine": "greek", "name": "\u03a3\u03a4\u03a1\u0391\u03a4\u039f\u03a3"}}, {"type": "way", "id": 263931584, "nodes": [2696155317, 2696155318, 2696155320, 2696155322, 2696155317], "tags": {"amenity": "cafe", "building": "yes", "cuisine": "greek", "internet_access": "no"}}, {"type": "way", "id": 263932945, "nodes": [2696161792, 2696161793, 2696161794, 2696161795, 2696161792], "tags": {"amenity": "restaurant", "building": "yes", "cuisine": "fish_and_chips", "name": "\u03a0\u03b9\u03bd\u03bf\u03c1\u03b1\u03ba\u03b9\u03b4\u03b5\u03c3"}}, {"type": "way", "id": 263933626, "nodes": [2696166485, 2696166482, 2696166483, 2696166484, 2696166485], "tags": {"amenity": "restaurant", "building": "yes"}}, {"type": "way", "id": 263934307, "nodes": [2696171338, 2696171339, 2696171340, 2696171341, 2696171338], "tags": {"amenity": "cafe", "building": "yes", "cuisine": "greek", "name": "\u03a0\u03b1\u03c3\u03c7\u03ac\u03bb\u03b7\u03c2"}}, {"type": "way", "id": 278183187, "nodes": [2826051003, 2826051004, 2826051005, 2826051006, 2826051003], "tags": {"amenity": "cafe", "building": "yes", "cuisine": "greek", "name": "\u03a4\u0391 \u039c\u0391\u039d\u039f\u03a5\u03a3\u0391\u039a\u0399\u0391"}}, {"type": "way", "id": 278183960, "nodes": [2826050118, 2826050122, 2826050120, 2826050121, 2826050118], "tags": {"amenity": "cafe", "building": "yes", "cuisine": "greek", "name": "\u03a0\u0391\u03a4\u03a1\u0391\u039b\u0397\u03a3"}}, {"type": "way", "id": 406865194, "nodes": [4089178116, 4089178117, 4089178118, 4089178119, 4089178116], "tags": {"amenity": "cafe", "building": "yes", "name": "Takas"}}, {"type": "way", "id": 407177150, "nodes": [4092125775, 4092125776, 4092125777, 4092125778, 4092125775], "tags": {"amenity": "cafe", "building": "yes"}}, {"type": "way", "id": 582498657, "nodes": [5570753589, 5570753590, 5570753591, 5570753592, 5570753589], "tags": {"amenity": "restaurant", "building": "yes", "name": "\u03a4\u03b7\u03c2 \u03a0\u03cc\u03c0\u03b7\u03c2..."}}, {"type": "way", "id": 993442227, "nodes": [9178100258, 9178100259, 9178100260, 9178100261, 9178100262, 9178100263, 9178100258], "tags": {"amenity": "restaurant", "building": "yes", "cuisine": "fish", "name": "\u03a0\u03ad\u03c3\u03c4\u03c1\u03bf\u03c6\u03b5\u03c2 \u03a4\u03b1\u03b2\u03ad\u03c1\u03bd\u03b1", "name:el": "\u03a0\u03ad\u03c3\u03c4\u03c1\u03bf\u03c6\u03b5\u03c2 \u03a4\u03b1\u03b2\u03ad\u03c1\u03bd\u03b1", "name:en": "Pestrofes Taverna", "phone": "302327051500", "website": "http://www.pestrofes.gr/pesportal/"}}, {"type": "way", "id": 1087521629, "nodes": [9964153227, 9964153228, 9964153229, 9964153230, 9964153231, 9964153232, 9964153233, 9964153234, 9964153227], "tags": {"amenity": "cafe", "building": "yes", "name": "\u0393\u03b1\u03bb\u03ae\u03bd\u03b7", "source": "microsoft/BuildingFootprints"}}, {"type": "way", "id": 1087553739, "nodes": [9964413181, 9964413182, 9964413183, 9964413184, 9964413185, 12084062293, 9964413181], "tags": {"amenity": "restaurant", "building": "yes", "name": "\u039a\u03b1\u03c6\u03ad-\u0393\u03c5\u03c1\u03ac\u03b4\u03b9\u03ba\u03bf \u03b1\u03c0\u03cc\u03bb\u03b1\u03c5\u03c3\u03b7", "source": "microsoft/BuildingFootprints"}}, {"type": "way", "id": 1087555710, "nodes": [9964431121, 9964431122, 9964431123, 9964431124, 9964431125, 9964431126, 9964431127, 9964431128, 9964431121], "tags": {"amenity": "restaurant", "building": "yes", "name": "\u039a\u03b1\u03c6\u03ad \u03a0\u03af\u03c4\u03c3\u03b1 \u039c\u03ad\u03c3\u03c3\u03b1\u03c2", "source": "microsoft/BuildingFootprints"}}, {"type": "way", "id": 1095760237, "nodes": [10035238414, 10035238415, 10035238416, 10035238417, 10035238418, 10035238427, 10035238428, 10035238429, 10035238414], "tags": {"amenity": "restaurant", "building": "yes", "source": "microsoft/BuildingFootprints"}}, {"type": "way", "id": 1105804679, "nodes": [10118893017, 10118893018, 10118893019, 10118893020, 10118893017], "tags": {"addr:city": "\u039c\u03bf\u03c5\u03c1\u03b9\u03ad\u03c2", "addr:postcode": "61003", "amenity": "restaurant", "building": "yes", "cuisine": "regional;greek", "name": "\u039a\u0391\u03a6\u0395\u039d\u0395\u0399\u039f \u00a8\u0397 \u039a\u03a1\u0397\u03a4\u0397\u00a8", "opening_hours": "sunrise-sunset", "phone": "2341031242"}}, {"type": "way", "id": 1105806426, "nodes": [10118900245, 10118900246, 10118900247, 10118900248, 10118900245], "tags": {"addr:city": "\u03a0\u03b1\u03c1\u03b1\u03bb\u03af\u03b1 \u0394\u03bf\u03b9\u03c1\u03ac\u03bd\u03b7\u03c2", "addr:postcode": "61003", "amenity": "restaurant", "building": "yes", "cuisine": "greek", "name": "1000 \u0394\u03ad\u03bd\u03c4\u03c1\u03b1", "phone": "6978188512", "website": "https://g.page/1000dentra?share"}}, {"type": "way", "id": 1107779749, "nodes": [5360800306, 10135807986, 10135807987, 10135807988, 5360800306], "tags": {"amenity": "cafe", "building": "yes", "source": "microsoft/BuildingFootprints"}}, {"type": "way", "id": 1107785861, "nodes": [7124138465, 10135859090, 10135859091, 10135859092, 10135859093, 10135859094, 10135859095, 10135859096, 7124138465], "tags": {"addr:city": "\u0421\u0442\u0430\u0440 \u0414\u043e\u0458\u0440\u0430\u043d", "addr:postcode": "1487", "addr:street": "\u041c\u0430\u0440\u0448\u0430\u043b \u0422\u0438\u0442\u043e", "amenity": "restaurant", "building": "yes", "name": "\u041d\u043e\u0442\u0430", "source": "microsoft/BuildingFootprints"}}, {"type": "way", "id": 1107785865, "nodes": [10135859109, 10135859110, 10135859111, 10135859112, 10135859113, 10135859114, 10135859109], "tags": {"addr:city": "\u0421\u0442\u0430\u0440 \u0414\u043e\u0458\u0440\u0430\u043d", "amenity": "restaurant", "building": "yes", "cuisine": "pizza;barbecue", "name": "\u0412\u0430\u0432\u0438\u043b\u043e\u043d", "source": "microsoft/BuildingFootprints"}}, {"type": "way", "id": 1107785887, "nodes": [7121648912, 10135886245, 10135886246, 10135886247, 10135886248, 10135886249, 7121648912], "tags": {"addr:city": "\u0421\u0442\u0430\u0440 \u0414\u043e\u0458\u0440\u0430\u043d", "addr:postcode": "1487", "addr:street": "\u041a\u0430\u0458 5 \u0442\u0438 \u041d\u043e\u0435\u043c\u0432\u0440\u0438", "amenity": "cafe", "building": "yes", "cuisine": "sandwich", "internet_access": "yes", "internet_access:fee": "no", "name": "\u0420\u0435\u0444\u043e\u0440\u043c", "outdoor_seating": "yes", "source": "microsoft/BuildingFootprints"}}, {"type": "way", "id": 1116778376, "nodes": [10213934871, 10213934872, 10213934873, 10213934874, 10213934875, 10213934876, 10213934877, 10213934878, 10213934871], "tags": {"amenity": "cafe", "building": "yes", "source": "microsoft/BuildingFootprints"}}, {"type": "way", "id": 1151526880, "nodes": [1713147853, 10712271004, 10712291705, 10712291706, 10712291707, 10712291708, 10712291709, 10712291710, 10712291711, 10712291713, 10712291712, 1713147853], "tags": {"amenity": "cafe", "building": "yes", "name": "\u039b\u03cc\u03c6\u03bf\u03c2", "source": "microsoft/BuildingFootprints"}}, {"type": "way", "id": 1200310559, "nodes": [11130580028, 11130580035, 11150386301, 11150386300, 11130580036, 11130580037, 11130580031, 11130580027, 11130580028], "tags": {"amenity": "cafe", "building": "house"}}, {"type": "way", "id": 1210336409, "nodes": [11212800152, 11212800155, 11212800156, 11212800157, 11212800152], "tags": {"amenity": "cafe", "building": "yes"}}, {"type": "way", "id": 1241503016, "nodes": [11535300310, 11535300311, 11535300312, 11535300313, 11535300310], "tags": {"addr:city": "\u0421\u0440\u0435\u0442\u0435\u043d\u043e\u0432\u043e", "amenity": "restaurant", "building": "yes", "cuisine": "barbecue;fish_and_chips", "diet:fish": "yes", "diet:meat": "yes", "name": "\u0413\u0440\u0430\u043d\u0438\u043a\u043e"}}, {"type": "way", "id": 1241503017, "nodes": [11535300315, 11535300316, 11535300317, 11535300318, 11535300315], "tags": {"addr:city": "\u0421\u0442\u0430\u0440 \u0414\u043e\u0458\u0440\u0430\u043d", "addr:street": "\u041c\u0430\u0440\u0448\u0430\u043b \u0422\u0438\u0442\u043e", "amenity": "restaurant", "building": "yes", "cuisine": "fish;\u0441\u043a\u0430\u0440\u0430", "diet:fish": "yes", "diet:meat": "yes", "name": "\u0420\u0435\u0441\u0442\u043e\u0440\u0430\u043d \u0424\u0443\u043a \u0422\u0430\u043a"}}, {"type": "way", "id": 1266637044, "nodes": [11764910696, 11764910697, 11764910698, 11764910699, 11764910700, 11764910701, 11764910702, 11764910703, 11764910704, 11764910705, 11764910706, 11764910707, 11764910708, 11764910709, 11764910696], "tags": {"amenity": "restaurant", "building": "yes", "cuisine": "macedonian", "name": "\u041b\u0435\u0431\u0435\u0434\u043e\u0432\u043e \u0415\u0437\u0435\u0440\u043e", "name:en": "Lebedovo Ezero", "name:mk": "\u041b\u0435\u0431\u0435\u0434\u043e\u0432\u043e \u0415\u0437\u0435\u0440\u043e", "phone": "+38934330515", "website": "https://www.lebedovoezero.mk"}}]}