{"version": 0.6, "generator": "Overpass API 0.7.62.7 375dc00a", "osm3s": {"timestamp_osm_base": "2025-06-14T15:07:54Z", "copyright": "The data included in this document is from www.openstreetmap.org. The data is made available under ODbL."}, "elements": [{"type": "node", "id": 294916108, "lat": 36.3521431, "lon": 32.206556, "tags": {"amenity": "restaurant", "name": "Toks\u00f6s", "note": "FIXME olive oil after cactus, wassermelone"}}, {"type": "node", "id": 1556068273, "lat": 36.269184, "lon": 32.3146818, "tags": {"alt_name": "Yesil Vaha", "amenity": "restaurant", "name": "The Green Oasis", "website": "http://www.the-green-oasis-cafe.tk/"}}, {"type": "node", "id": 1556090970, "lat": 36.2706986, "lon": 32.3046357}, {"type": "node", "id": 1591022644, "lat": 36.2645507, "lon": 32.2925668, "tags": {"amenity": "restaurant", "name": "Kamara Cafe Bistro"}}, {"type": "node", "id": 1591022662, "lat": 36.2802208, "lon": 32.2773179}, {"type": "node", "id": 1591022665, "lat": 36.2684519, "lon": 32.3173772, "tags": {"amenity": "cafe", "cuisine": "burger", "name": "Cafe Otantik"}}, {"type": "node", "id": 1591022667, "lat": 36.2679892, "lon": 32.3179928, "tags": {"addr:city": "Antalya", "addr:postcode": "07900", "amenity": "restaurant", "cuisine": "Etli_Ekmek", "name": "Konyal\u0131 \u00d6zbekler Pide Salonu"}}, {"type": "node", "id": 1591022696, "lat": 36.266696, "lon": 32.280867, "tags": {"amenity": "restaurant", "name": "Aqua Land"}}, {"type": "node", "id": 1592239918, "lat": 36.2528584, "lon": 32.2868895}, {"type": "node", "id": 1611582515, "lat": 36.4044132, "lon": 32.4257556, "tags": {"amenity": "restaurant", "cuisine": "turkish", "name": "\u015eato \u00c7orba Piknik"}}, {"type": "node", "id": 1612031448, "lat": 36.2633253, "lon": 32.2848524, "tags": {"amenity": "restaurant", "check_date": "2023-11-19", "name": "Karaca Agaclik"}}, {"type": "node", "id": 1630187953, "lat": 36.2692961, "lon": 32.3176445, "tags": {"amenity": "restaurant", "name": "Ali Yilmaz aus dem Zillertal"}}, {"type": "node", "id": 1630187955, "lat": 36.2685843, "lon": 32.3175065, "tags": {"addr:city": "Antalya", "addr:postcode": "07900", "amenity": "restaurant", "cuisine": "kebab", "delivery": "yes", "name": "Bizim Restaurant", "takeaway": "yes"}}, {"type": "node", "id": 1633659430, "lat": 36.2207279, "lon": 32.4021251, "tags": {"amenity": "cafe", "cuisine": "turkish", "name": "Yalan D\u00fcnya Ma\u011faras\u0131", "website": "facebook.com/yalandunya.magarasi"}}, {"type": "node", "id": 1635340261, "lat": 36.3333432, "lon": 32.2220418, "tags": {"amenity": "restaurant", "name": "Aydap"}}, {"type": "node", "id": 1635340262, "lat": 36.3417523, "lon": 32.2128579, "tags": {"amenity": "restaurant", "name": "Ugrak Bal\u0131k"}}, {"type": "node", "id": 1635340263, "lat": 36.349452, "lon": 32.2081265, "tags": {"amenity": "restaurant", "name": "Okyanos"}}, {"type": "node", "id": 1635340265, "lat": 36.3218841, "lon": 32.2341572, "tags": {"amenity": "restaurant", "name": "Kale"}}, {"type": "node", "id": 1636478111, "lat": 36.2694117, "lon": 32.3181212, "tags": {"amenity": "restaurant", "cuisine": "turkish", "name": "Lezzet"}}, {"type": "node", "id": 1636482017, "lat": 36.269674, "lon": 32.2806008}, {"type": "node", "id": 2297345217, "lat": 36.3041272, "lon": 32.2593458, "tags": {"amenity": "restaurant", "cuisine": "fish", "name": "Giritli", "phone": "0533 479 1937"}}, {"type": "node", "id": 2482625757, "lat": 36.26925, "lon": 32.3184836, "tags": {"amenity": "restaurant", "cuisine": "turkish", "name": "Gazipa\u015fa Pide", "phone": "+90 242 572 6668"}}, {"type": "node", "id": 2840925689, "lat": 36.2729085, "lon": 32.3104497, "tags": {"amenity": "cafe", "name": "Nizamo\u011flu"}}, {"type": "node", "id": 2840925690, "lat": 36.2724454, "lon": 32.311323, "tags": {"amenity": "restaurant"}}, {"type": "node", "id": 2840925692, "lat": 36.27123, "lon": 32.3113983, "tags": {"amenity": "restaurant", "name": "Akdeniz Restoran"}}, {"type": "node", "id": 2840947896, "lat": 36.2724346, "lon": 32.310946, "tags": {"amenity": "cafe", "name": "Nazar Pastanesi"}}, {"type": "node", "id": 3421546176, "lat": 36.268783, "lon": 32.3170829, "tags": {"amenity": "restaurant", "cuisine": "turkish", "name": "Aksu K\u00f6fte & Piyaz"}}, {"type": "node", "id": 3423451148, "lat": 36.4149637, "lon": 32.1761219, "tags": {"amenity": "restaurant", "cuisine": "turkish", "name": "R\u00fcya Tepe", "phone": "02425161020", "website": "http://www.ruyatepe.com"}}, {"type": "node", "id": 3455889246, "lat": 36.2660064, "lon": 32.3184561, "tags": {"amenity": "cafe", "name": "Kahvalti"}}, {"type": "node", "id": 3457410248, "lat": 36.3185634, "lon": 32.2415379, "tags": {"amenity": "restaurant", "name": "Balik Evi"}}, {"type": "node", "id": 3794432557, "lat": 36.2383272, "lon": 32.2969064}, {"type": "node", "id": 3859456357, "lat": 36.3919241, "lon": 32.4125028, "tags": {"amenity": "restaurant", "name": "Piknik"}}, {"type": "node", "id": 3862594271, "lat": 36.2446296, "lon": 32.3465789, "tags": {"amenity": "restaurant", "name": "Say\u0131nlar"}}, {"type": "node", "id": 3865311174, "lat": 36.2681627, "lon": 32.3114103, "tags": {"amenity": "cafe", "check_date": "2023-11-19", "name": "Art cafe garden"}}, {"type": "node", "id": 3865311175, "lat": 36.2689651, "lon": 32.3176998, "tags": {"amenity": "restaurant", "name": "Tadim", "name:da": "Smag"}}, {"type": "node", "id": 3865318049, "lat": 36.2678997, "lon": 32.3098053, "tags": {"amenity": "cafe", "check_date": "2023-11-19", "name": "T\u00fcrkmeno\u011flu"}}, {"type": "node", "id": 3865340671, "lat": 36.2680498, "lon": 32.3177683, "tags": {"amenity": "restaurant", "name": "Numune"}}, {"type": "node", "id": 3865351942, "lat": 36.2680195, "lon": 32.3172855, "tags": {"amenity": "cafe", "name": "Cafe Park"}}, {"type": "node", "id": 3865360997, "lat": 36.2691484, "lon": 32.3173015, "tags": {"amenity": "cafe", "name": "Yurtsan"}}, {"type": "node", "id": 3865360998, "lat": 36.2682877, "lon": 32.31588, "tags": {"amenity": "cafe"}}, {"type": "node", "id": 3865545007, "lat": 36.2727943, "lon": 32.3105424, "tags": {"amenity": "restaurant", "cuisine": "fish", "name": "Elir Restaurant"}}, {"type": "node", "id": 3865556883, "lat": 36.2692263, "lon": 32.3134123, "tags": {"amenity": "restaurant", "name": "D\u00fcr\u00fcm\u00e7\u00fc"}}, {"type": "node", "id": 3865576993, "lat": 36.267693, "lon": 32.3159953, "tags": {"amenity": "cafe", "name": "Golden Apple Pastanesi"}}, {"type": "node", "id": 3865608389, "lat": 36.2749178, "lon": 32.3143136, "tags": {"amenity": "cafe", "name": "Selinus Patanesi"}}, {"type": "node", "id": 3865615194, "lat": 36.2696544, "lon": 32.3177629, "tags": {"amenity": "restaurant", "cuisine": "fish", "name": "G\u00fczel Bal\u0131k\u00e7\u0131l\u0131k", "phone": "+905727262"}}, {"type": "node", "id": 4455390613, "lat": 36.3275701, "lon": 32.2282775, "tags": {"amenity": "restaurant", "name": "Yelken"}}, {"type": "node", "id": 4468753299, "lat": 36.2697602, "lon": 32.3136966, "tags": {"amenity": "restaurant", "check_date": "2023-11-19", "cuisine": "turkish", "level": "1", "name": "Otogar"}}, {"type": "node", "id": 4474539114, "lat": 36.2529622, "lon": 32.2869106}, {"type": "node", "id": 4474539115, "lat": 36.2529341, "lon": 32.286842}, {"type": "node", "id": 4474539116, "lat": 36.2528865, "lon": 32.2869582}, {"type": "node", "id": 4480093434, "lat": 36.3205721, "lon": 32.462007, "tags": {"addr:city": "Gazipa\u015fa", "addr:postcode": "07900", "addr:street": "\u00c7\u00f6r\u00fc\u015f Mahallesi - ere Mevki", "amenity": "restaurant", "cuisine": "turkish", "name": "Kiwi Park Ya\u011fmur Evleri", "website": "http://www.kiwiparkyagmurevleri.com/"}}, {"type": "node", "id": 4485482465, "lat": 36.2751245, "lon": 32.279494}, {"type": "node", "id": 4485482466, "lat": 36.2735533, "lon": 32.2796218}, {"type": "node", "id": 4485482467, "lat": 36.2715781, "lon": 32.2801109, "tags": {"amenity": "restaurant", "name": "Gazipa\u015fa Lavinia"}}, {"type": "node", "id": 4485482468, "lat": 36.27092, "lon": 32.2801745}, {"type": "node", "id": 4485482469, "lat": 36.2723604, "lon": 32.2798889}, {"type": "node", "id": 4485697169, "lat": 36.2643359, "lon": 32.2823262}, {"type": "node", "id": 4485700843, "lat": 36.267257, "lon": 32.3080421, "tags": {"amenity": "restaurant", "name": "Yildiz kebap"}}, {"type": "node", "id": 4492342444, "lat": 36.238295, "lon": 32.296818}, {"type": "node", "id": 4492342447, "lat": 36.2382273, "lon": 32.296856}, {"type": "node", "id": 4492342449, "lat": 36.2382595, "lon": 32.2969443}, {"type": "node", "id": 5216642015, "lat": 36.4141688, "lon": 32.1689565, "tags": {"amenity": "restaurant", "name": "Susa Beach Park"}}, {"type": "node", "id": 5216642016, "lat": 36.4049989, "lon": 32.1741278, "tags": {"amenity": "restaurant", "name": "Palm Garden Club"}}, {"type": "node", "id": 5232287470, "lat": 36.2677985, "lon": 32.3120264, "tags": {"amenity": "cafe", "check_date": "2023-11-19", "name": "Ye\u015fil\u00e7am Kahve Evi"}}, {"type": "node", "id": 5466023024, "lat": 36.3593446, "lon": 32.2308685, "tags": {"amenity": "restaurant", "name": "Do\u011fal Restaurant"}}, {"type": "node", "id": 5553997823, "lat": 36.2708656, "lon": 32.3128768, "tags": {"amenity": "restaurant", "check_date": "2023-11-19", "name": "Komagene"}}, {"type": "node", "id": 5554011221, "lat": 36.2684555, "lon": 32.3134265, "tags": {"amenity": "cafe", "check_date": "2023-11-19", "name": "Yemen Kahvesi"}}, {"type": "node", "id": 6068529125, "lat": 36.2360808, "lon": 32.2973261, "tags": {"amenity": "restaurant", "cuisine": "fish", "name": "Feneralt\u0131 Cafe & Restaurant", "website": "https://feneralti.com/"}}, {"type": "node", "id": 6068534301, "lat": 36.2668179, "lon": 32.3017664, "tags": {"amenity": "cafe", "check_date": "2023-11-19", "name": "Ice Berry"}}, {"type": "node", "id": 6068534306, "lat": 36.2649127, "lon": 32.28777, "tags": {"amenity": "restaurant", "name": "Kemer G\u00f6zleme ev\u0131"}}, {"type": "node", "id": 6068537210, "lat": 36.2646803, "lon": 32.2878804, "tags": {"amenity": "restaurant", "check_date": "2023-11-19", "name": "Enginar"}}, {"type": "node", "id": 6068537212, "lat": 36.2389748, "lon": 32.2975236, "tags": {"amenity": "restaurant", "cuisine": "fish", "name": "Hac\u0131Baba"}}, {"type": "node", "id": 6072991652, "lat": 36.268985, "lon": 32.3144133, "tags": {"amenity": "restaurant", "check_date": "2023-11-19", "name": "Isiklar kebap", "opening_hours": "24/7"}}, {"type": "node", "id": 6072991654, "lat": 36.2693369, "lon": 32.3132859, "tags": {"amenity": "restaurant", "name": "Pa\u015fam"}}, {"type": "node", "id": 6072991809, "lat": 36.2714666, "lon": 32.3111867, "tags": {"amenity": "cafe", "name": "Sevge Kahvalti"}}, {"type": "node", "id": 6087761365, "lat": 36.3320581, "lon": 32.2619466, "tags": {"amenity": "restaurant"}}, {"type": "node", "id": 6087764886, "lat": 36.3527942, "lon": 32.2417681, "tags": {"amenity": "restaurant", "name": "Deve\u00e7i K\u00f6y\u0131"}}, {"type": "node", "id": 6087765657, "lat": 36.3083117, "lon": 32.2780683, "tags": {"amenity": "restaurant", "name": "Mabav"}}, {"type": "node", "id": 6442357074, "lat": 36.2722104, "lon": 32.3088266, "tags": {"amenity": "cafe", "name": "Haclalio\u011flu"}}, {"type": "node", "id": 6654987350, "lat": 36.2661737, "lon": 32.3226035, "tags": {"amenity": "restaurant", "cuisine": "turkish", "name": "Ota\u011f-I A'la"}}, {"type": "node", "id": 6792116393, "lat": 36.2707479, "lon": 32.3047227}, {"type": "node", "id": 6792116394, "lat": 36.2706284, "lon": 32.3046342}, {"type": "node", "id": 6792116395, "lat": 36.2707119, "lon": 32.304837}, {"type": "node", "id": 6792116396, "lat": 36.2706083, "lon": 32.3048309}, {"type": "node", "id": 6792116397, "lat": 36.2705699, "lon": 32.3047081}, {"type": "node", "id": 6961600573, "lat": 36.2923515, "lon": 32.273077, "tags": {"amenity": "restaurant", "cuisine": "turkish", "int_name": "GREEN Garden Kahyalar", "name": "\u00d6mero\u011flu Kahyalar Deniz Tesisleri", "name:en": "GREEN Garden Kahyalar"}}, {"type": "node", "id": 7004130840, "lat": 36.2672683, "lon": 32.3050995, "tags": {"amenity": "restaurant", "check_date": "2023-11-19", "cuisine": "fish", "name": "Me\u015fhur Antep Kwbap\u00e7\u0131s\u0131", "phone": "+90 552 873 0007"}}, {"type": "node", "id": 8508603541, "lat": 36.1601822, "lon": 32.4211161, "tags": {"amenity": "cafe", "cuisine": "turkish", "name": "Kral Koyu Caf\u00e9- Kaddafi Muhtar\u0131n Yeri"}}, {"type": "node", "id": 8579394651, "lat": 36.2710952, "lon": 32.3122113, "tags": {"amenity": "cafe", "check_date": "2023-11-19", "name": "\u015eefler'in Evi Bistro&Patiserie"}}, {"type": "node", "id": 9263500952, "lat": 36.1547012, "lon": 32.426106, "tags": {"amenity": "cafe", "cuisine": "turkish", "name": "Yakup A\u011fa nin yeri"}}, {"type": "node", "id": 9277589276, "lat": 36.2413444, "lon": 32.2946495}, {"type": "node", "id": 9277589278, "lat": 36.2438171, "lon": 32.2930986}, {"type": "node", "id": 9280922250, "lat": 36.3094119, "lon": 32.2529604}, {"type": "node", "id": 9280922251, "lat": 36.3093341, "lon": 32.2529711}, {"type": "node", "id": 9280922252, "lat": 36.3094012, "lon": 32.2528399}, {"type": "node", "id": 9280922253, "lat": 36.3093234, "lon": 32.2528506}, {"type": "node", "id": 9299440783, "lat": 36.2605887, "lon": 32.2898532}, {"type": "node", "id": 9299440785, "lat": 36.260669, "lon": 32.2897737}, {"type": "node", "id": 9299440789, "lat": 36.2606767, "lon": 32.2898366}, {"type": "node", "id": 9299440793, "lat": 36.260581, "lon": 32.2897903}, {"type": "node", "id": 9355574030, "lat": 36.2679558, "lon": 32.2808585}, {"type": "node", "id": 9355574031, "lat": 36.2680051, "lon": 32.2808481}, {"type": "node", "id": 9355574032, "lat": 36.2680094, "lon": 32.2808797}, {"type": "node", "id": 9355574033, "lat": 36.2679601, "lon": 32.28089}, {"type": "node", "id": 9365563725, "lat": 36.2698576, "lon": 32.3194076}, {"type": "node", "id": 9365563726, "lat": 36.269813, "lon": 32.3195607}, {"type": "node", "id": 9365563727, "lat": 36.2697751, "lon": 32.3195165}, {"type": "node", "id": 9365563728, "lat": 36.2698955, "lon": 32.3194518}, {"type": "node", "id": 9696922083, "lat": 36.2665008, "lon": 32.2814139}, {"type": "node", "id": 9696922084, "lat": 36.2663699, "lon": 32.2814421}, {"type": "node", "id": 9696922085, "lat": 36.2663532, "lon": 32.281343}, {"type": "node", "id": 9696922115, "lat": 36.2642444, "lon": 32.2822941}, {"type": "node", "id": 9696922116, "lat": 36.2642055, "lon": 32.2824643}, {"type": "node", "id": 9696922117, "lat": 36.264297, "lon": 32.2824964}, {"type": "node", "id": 9708699931, "lat": 36.2681089, "lon": 32.3180629, "tags": {"amenity": "restaurant", "name": "Sevim' in yeri"}}, {"type": "node", "id": 9724755050, "lat": 36.2754668, "lon": 32.3047723, "tags": {"amenity": "restaurant", "cuisine": "turkish", "name": "LafLafa", "phone": "02425726888", "website": "http://www.laflafacafe.com/"}}, {"type": "node", "id": 9919334033, "lat": 36.2664863, "lon": 32.2813136}, {"type": "node", "id": 9919337593, "lat": 36.2670083, "lon": 32.2806643}, {"type": "node", "id": 9919337594, "lat": 36.2666857, "lon": 32.28055}, {"type": "node", "id": 9919337595, "lat": 36.2669836, "lon": 32.2804864}, {"type": "node", "id": 9919337597, "lat": 36.2708636, "lon": 32.2801806}, {"type": "node", "id": 9919337600, "lat": 36.2667104, "lon": 32.2807278}, {"type": "node", "id": 10101408074, "lat": 36.2728533, "lon": 32.310617, "tags": {"amenity": "restaurant", "cuisine": "fish", "name": "Gazipa\u015fa Balik Evi"}}, {"type": "node", "id": 10116240854, "lat": 36.2685197, "lon": 32.3105962, "tags": {"amenity": "cafe", "name": "Cafe Dem"}}, {"type": "node", "id": 10197934335, "lat": 36.2705364, "lon": 32.3191137, "tags": {"amenity": "cafe", "name": "Papatya Cafe"}}, {"type": "node", "id": 10199994992, "lat": 36.2693389, "lon": 32.3189993, "tags": {"amenity": "cafe", "name": "G\u00fcrb\u00fczler Cay Evi"}}, {"type": "node", "id": 10613858996, "lat": 36.2451528, "lon": 32.292063}, {"type": "node", "id": 10613858997, "lat": 36.2451818, "lon": 32.2921323}, {"type": "node", "id": 10613858998, "lat": 36.2452775, "lon": 32.2920708}, {"type": "node", "id": 10613858999, "lat": 36.2452485, "lon": 32.2920014}, {"type": "node", "id": 10613861209, "lat": 36.243762, "lon": 32.2931496}, {"type": "node", "id": 10613861210, "lat": 36.2437414, "lon": 32.2931161}, {"type": "node", "id": 10613861211, "lat": 36.2437998, "lon": 32.2930664}, {"type": "node", "id": 10613861225, "lat": 36.2412274, "lon": 32.294727}, {"type": "node", "id": 10613861226, "lat": 36.2411714, "lon": 32.2945948}, {"type": "node", "id": 10613861227, "lat": 36.2412873, "lon": 32.2945202}, {"type": "node", "id": 10814281483, "lat": 36.274982, "lon": 32.2795275}, {"type": "node", "id": 10814281484, "lat": 36.2749569, "lon": 32.2793629}, {"type": "node", "id": 10814281485, "lat": 36.2750629, "lon": 32.279338}, {"type": "node", "id": 10814281486, "lat": 36.2750758, "lon": 32.2794224}, {"type": "node", "id": 10814281487, "lat": 36.2751123, "lon": 32.2794138}, {"type": "node", "id": 10814281500, "lat": 36.2735778, "lon": 32.2798318}, {"type": "node", "id": 10814281501, "lat": 36.2736919, "lon": 32.2798113}, {"type": "node", "id": 10814281502, "lat": 36.2736866, "lon": 32.2797659}, {"type": "node", "id": 10814281503, "lat": 36.2737058, "lon": 32.2797624}, {"type": "node", "id": 10814281504, "lat": 36.2736866, "lon": 32.2795979}, {"type": "node", "id": 10814307526, "lat": 36.28025, "lon": 32.2774607}, {"type": "node", "id": 10814307527, "lat": 36.2803099, "lon": 32.2774419}, {"type": "node", "id": 10814307528, "lat": 36.280325, "lon": 32.2775155}, {"type": "node", "id": 10814307529, "lat": 36.2803926, "lon": 32.2774942}, {"type": "node", "id": 10814307530, "lat": 36.2803637, "lon": 32.277353}, {"type": "node", "id": 10814307531, "lat": 36.2803446, "lon": 32.277359}, {"type": "node", "id": 10814307532, "lat": 36.2803293, "lon": 32.2772838}, {"type": "node", "id": 10814331409, "lat": 36.2723869, "lon": 32.2800966}, {"type": "node", "id": 10814331410, "lat": 36.2722846, "lon": 32.2801166}, {"type": "node", "id": 10814331411, "lat": 36.2722581, "lon": 32.279909}, {"type": "node", "id": 10814331412, "lat": 36.2709505, "lon": 32.2803855}, {"type": "node", "id": 10814331413, "lat": 36.2710543, "lon": 32.2803624}, {"type": "node", "id": 10814331414, "lat": 36.2710238, "lon": 32.2801514}, {"type": "node", "id": 10814331415, "lat": 36.2709029, "lon": 32.2803805}, {"type": "node", "id": 10814331416, "lat": 36.2708626, "lon": 32.2803927}, {"type": "node", "id": 10814331417, "lat": 36.2708453, "lon": 32.2803046}, {"type": "node", "id": 10814331418, "lat": 36.2707146, "lon": 32.2803441}, {"type": "node", "id": 10814331419, "lat": 36.2706926, "lon": 32.2802323}, {"type": "node", "id": 10814331420, "lat": 36.2696857, "lon": 32.2806454}, {"type": "node", "id": 10814331421, "lat": 36.2697084, "lon": 32.2806362}, {"type": "node", "id": 10814331422, "lat": 36.2697392, "lon": 32.2807528}, {"type": "node", "id": 10814331423, "lat": 36.2696379, "lon": 32.2807939}, {"type": "node", "id": 10814331424, "lat": 36.2696086, "lon": 32.2806825}, {"type": "node", "id": 10814331425, "lat": 36.2696294, "lon": 32.2806741}, {"type": "node", "id": 10814331426, "lat": 36.2696163, "lon": 32.2806242}, {"type": "node", "id": 10820091668, "lat": 36.2614978, "lon": 32.2875524}, {"type": "node", "id": 10820091669, "lat": 36.2614648, "lon": 32.2877083}, {"type": "node", "id": 10820091670, "lat": 36.261371, "lon": 32.2876778}, {"type": "node", "id": 10820091671, "lat": 36.261404, "lon": 32.2875218}, {"type": "node", "id": 10859810783, "lat": 36.3064144, "lon": 32.2791876}, {"type": "node", "id": 10859810784, "lat": 36.306432, "lon": 32.2792266}, {"type": "node", "id": 10859810785, "lat": 36.306397, "lon": 32.2792509}, {"type": "node", "id": 10859810786, "lat": 36.3063794, "lon": 32.279212}, {"type": "node", "id": 10865410847, "lat": 36.2688972, "lon": 32.3152055}, {"type": "node", "id": 10865410848, "lat": 36.268901, "lon": 32.3152046}, {"type": "node", "id": 10865410849, "lat": 36.268898, "lon": 32.3152182}, {"type": "node", "id": 10865410850, "lat": 36.2689047, "lon": 32.3152075}, {"type": "node", "id": 10865410851, "lat": 36.2689043, "lon": 32.3152165}, {"type": "node", "id": 10865410852, "lat": 36.2688951, "lon": 32.315215}, {"type": "node", "id": 10865410853, "lat": 36.2689054, "lon": 32.3152144}, {"type": "node", "id": 10865410854, "lat": 36.2688999, "lon": 32.3152187}, {"type": "node", "id": 10865410856, "lat": 36.2689033, "lon": 32.3152058}, {"type": "node", "id": 10865410857, "lat": 36.2689058, "lon": 32.3152121}, {"type": "node", "id": 10865410858, "lat": 36.2688963, "lon": 32.3152169}, {"type": "node", "id": 10865410859, "lat": 36.2688991, "lon": 32.3152047}, {"type": "node", "id": 10865410860, "lat": 36.2689056, "lon": 32.3152097}, {"type": "node", "id": 10865410861, "lat": 36.2688947, "lon": 32.3152093}, {"type": "node", "id": 10865410862, "lat": 36.2689019, "lon": 32.3152184}, {"type": "node", "id": 10865410863, "lat": 36.2688944, "lon": 32.3152126}, {"type": "node", "id": 10865410864, "lat": 36.2688957, "lon": 32.3152071}, {"type": "node", "id": 11060466690, "lat": 36.4063601, "lon": 32.1735519}, {"type": "node", "id": 11060466691, "lat": 36.4060255, "lon": 32.173746}, {"type": "node", "id": 11060466692, "lat": 36.4057791, "lon": 32.1730903}, {"type": "node", "id": 11060466693, "lat": 36.4060378, "lon": 32.1729401}, {"type": "node", "id": 11060466694, "lat": 36.4060467, "lon": 32.1729636}, {"type": "node", "id": 11060466695, "lat": 36.4061225, "lon": 32.1729196}, {"type": "node", "id": 11064319740, "lat": 36.409002, "lon": 32.1723059}, {"type": "node", "id": 11064319741, "lat": 36.4094934, "lon": 32.1720209}, {"type": "node", "id": 11064319742, "lat": 36.4092848, "lon": 32.1713503}, {"type": "node", "id": 11064319743, "lat": 36.4087623, "lon": 32.1716802}, {"type": "node", "id": 11064319744, "lat": 36.4115961, "lon": 32.1699123}, {"type": "node", "id": 11064319745, "lat": 36.4117357, "lon": 32.1700713}, {"type": "node", "id": 11064319746, "lat": 36.4115845, "lon": 32.1702592}, {"type": "node", "id": 11064319747, "lat": 36.411424, "lon": 32.1704095}, {"type": "node", "id": 11064319748, "lat": 36.4113356, "lon": 32.1702303}, {"type": "node", "id": 11064319749, "lat": 36.411103, "lon": 32.1703864}, {"type": "node", "id": 11064319750, "lat": 36.4110425, "lon": 32.1702765}, {"type": "node", "id": 11064319751, "lat": 36.4112449, "lon": 32.1701262}, {"type": "node", "id": 11064319752, "lat": 36.4113472, "lon": 32.1699961}, {"type": "node", "id": 11252905822, "lat": 36.2305021, "lon": 32.3762451, "tags": {"amenity": "restaurant", "name": "Gazipa\u015fa Dinlenme Tesisleri", "source": "bing"}}, {"type": "node", "id": 11329273695, "lat": 36.2695434, "lon": 32.3176728, "tags": {"amenity": "cafe", "name": "D\u00f6rtyol \u00c7ay Evi", "phone": "0544 311 2599"}}, {"type": "node", "id": 11329297777, "lat": 36.2695306, "lon": 32.3176422, "tags": {"amenity": "restaurant", "name": "Terminal Kebap", "phone": "02425722949"}}, {"type": "node", "id": 11361268723, "lat": 36.2674147, "lon": 32.3062024, "tags": {"amenity": "cafe", "check_date": "2023-11-19", "name": "\u015eefim"}}, {"type": "node", "id": 11361328325, "lat": 36.2658301, "lon": 32.2938179, "tags": {"amenity": "cafe", "check_date": "2023-11-19", "cuisine": "coffee_shop", "name": "Palm coffee"}}, {"type": "node", "id": 11361328326, "lat": 36.2652878, "lon": 32.2938656, "tags": {"amenity": "cafe", "check_date": "2023-11-19", "name": "No keyf"}}, {"type": "node", "id": 11361328327, "lat": 36.2652212, "lon": 32.2935016, "tags": {"amenity": "cafe", "check_date": "2023-11-19", "cuisine": "coffee_shop", "name": "Roby's coffee house"}}, {"type": "node", "id": 11361334745, "lat": 36.2661243, "lon": 32.2961198, "tags": {"amenity": "cafe", "check_date": "2023-11-19", "cuisine": "coffee_shop;sandwich", "name": "Pigro coffee shop", "takeaway": "yes"}}, {"type": "node", "id": 11361465560, "lat": 36.264544, "lon": 32.287618, "tags": {"amenity": "cafe", "check_date": "2023-11-19", "name": "\u00c7\u0131ra Restaurant"}}, {"type": "node", "id": 11361465561, "lat": 36.2645098, "lon": 32.2874434, "tags": {"amenity": "cafe", "check_date": "2023-11-19", "cuisine": "coffee_shop", "name": "Mixx point"}}, {"type": "node", "id": 11361465562, "lat": 36.2649033, "lon": 32.2873883, "tags": {"amenity": "cafe", "check_date": "2023-11-19", "description": "Lounge cafe", "name": "Muz Dali"}}, {"type": "node", "id": 11361775325, "lat": 36.2661858, "lon": 32.3006122, "tags": {"amenity": "cafe", "check_date": "2023-11-19", "name": "Mersin class Tantuni"}}, {"type": "node", "id": 11361798933, "lat": 36.2658503, "lon": 32.293926, "tags": {"amenity": "restaurant", "check_date": "2024-08-01", "name": "Cajun Corner Gazipa\u015fa"}}, {"type": "node", "id": 11361798936, "lat": 36.2658155, "lon": 32.2976971, "tags": {"amenity": "cafe", "check_date": "2023-11-19", "cuisine": "coffee_shop", "name": "Atom master"}}, {"type": "node", "id": 11361798937, "lat": 36.2659155, "lon": 32.298564, "tags": {"amenity": "cafe", "check_date": "2023-11-19", "name": "Adig\u00fczel K\u00fcnefe"}}, {"type": "node", "id": 11361801270, "lat": 36.2652345, "lon": 32.2897147, "tags": {"amenity": "cafe", "check_date": "2023-11-19", "name": "Last summer"}}, {"type": "node", "id": 11362322351, "lat": 36.2693163, "lon": 32.3140528, "tags": {"amenity": "cafe", "check_date": "2023-11-19", "name": "Akdeniz dondurma"}}, {"type": "node", "id": 11929142150, "lat": 36.2685954, "lon": 32.3154015, "tags": {"amenity": "restaurant", "name": "Tavada Tavuk"}}, {"type": "node", "id": 12074509878, "lat": 36.2502793, "lon": 32.3821685}, {"type": "node", "id": 12074509879, "lat": 36.2503783, "lon": 32.3824621}, {"type": "node", "id": 12074509880, "lat": 36.2500713, "lon": 32.3826243}, {"type": "node", "id": 12074509881, "lat": 36.2500046, "lon": 32.3824219}, {"type": "node", "id": 12074509882, "lat": 36.2500681, "lon": 32.3822056}, {"type": "node", "id": 12074509883, "lat": 36.250199, "lon": 32.3821438}, {"type": "node", "id": 12293426723, "lat": 36.272168, "lon": 32.2799501, "tags": {"amenity": "restaurant", "name": "La Boheme"}}, {"type": "node", "id": 12323354919, "lat": 36.1725729, "lon": 32.4440343, "tags": {"amenity": "cafe", "name": "Asya Piknik"}}, {"type": "way", "id": 450529893, "nodes": [1592239918, 4474539115, 4474539114, 4474539116, 1592239918], "tags": {"amenity": "restaurant", "building": "yes", "cuisine": "fish", "int_name": "Fatih's Place", "name": "B\u0131d\u0131 B\u0131d\u0131 Beach", "name:de": "Biddi Biddi", "phone": "0534 848 63 67", "source": "bing"}}, {"type": "way", "id": 452437715, "nodes": [3794432557, 4492342444, 4492342447, 4492342449, 3794432557], "tags": {"addr:city": "Gazipa\u015fa", "addr:housename": "Bello Beach", "addr:housenumber": "316", "addr:postcode": "07900", "addr:street": "Cumhuriyet Caddesi;Koru Mah. Do\u011fal Havuzlar Yan\u0131", "amenity": "restaurant", "cuisine": "turkish", "delivery": "yes", "name": "Bello Beach", "phone": "+90 242 572 7393"}}, {"type": "way", "id": 724234687, "nodes": [6792116397, 6792116396, 6792116395, 6792116393, 1556090970, 6792116394, 6792116397], "tags": {"amenity": "restaurant", "building": "yes", "cuisine": "turkish", "name": "CebeliTeyirtepe Restaurant", "website": "https://www.facebook.com/cebelitepesi/"}}, {"type": "way", "id": 1005907378, "nodes": [9280922253, 9280922251, 9280922250, 9280922252, 9280922253], "tags": {"amenity": "restaurant", "cuisine": "turkish", "name": "Hal Limani"}}, {"type": "way", "id": 1008014286, "nodes": [9299440785, 9299440789, 9299440783, 9299440793, 9299440785], "tags": {"amenity": "cafe"}}, {"type": "way", "id": 1014045255, "nodes": [9355574031, 9355574032, 9355574033, 9355574030, 9355574031], "tags": {"amenity": "cafe", "building": "yes", "name": "Aqua Cafe"}}, {"type": "way", "id": 1015261296, "nodes": [9365563728, 9365563726, 9365563727, 9365563725, 9365563728], "tags": {"amenity": "cafe", "house": "yes", "name": "Atat\u00fcrk\u00e7\u00fc D\u00fcs\u00fcnce Derne\u011fi"}}, {"type": "way", "id": 1055295381, "nodes": [9919334033, 9696922083, 9696922084, 9696922085, 9919334033], "tags": {"amenity": "restaurant", "building": "yes", "cuisine": "fish", "name": "Bal\u0131kevi Restoran"}}, {"type": "way", "id": 1055295389, "nodes": [4485697169, 9696922117, 9696922116, 9696922115, 4485697169], "tags": {"amenity": "restaurant", "building": "yes", "check_date": "2023-11-19", "name": "Begonvil B\u00fcfe"}}, {"type": "way", "id": 1082338929, "nodes": [9919337595, 9919337593, 9919337600, 9919337594, 9919337595], "tags": {"amenity": "restaurant", "building": "yes", "cuisine": "fish", "name": "Selinus Bal\u0131k Restorant"}}, {"type": "way", "id": 1138627344, "nodes": [10613858996, 10613858997, 10613858998, 10613858999, 10613858996], "tags": {"amenity": "cafe", "building": "yes", "name": "Koru Halk Bufe"}}, {"type": "way", "id": 1138627346, "nodes": [9277589278, 10613861209, 10613861210, 10613861211, 9277589278], "tags": {"amenity": "restaurant", "building": "yes", "cuisine": "turkish", "name": "Moonlight Beach"}}, {"type": "way", "id": 1138627349, "nodes": [9277589276, 10613861225, 10613861226, 10613861227, 9277589276], "tags": {"amenity": "restaurant", "building": "yes", "cuisine": "turkish", "name": "Mango Beach"}}, {"type": "way", "id": 1162780142, "nodes": [1591022662, 10814307526, 10814307527, 10814307528, 10814307529, 10814307530, 10814307531, 10814307532, 1591022662], "tags": {"amenity": "restaurant", "building": "yes", "check_date": "2023-11-19", "name": "K\u0131z\u0131lin Beach"}}, {"type": "way", "id": 1162781884, "nodes": [4485482465, 10814281483, 10814281484, 10814281485, 10814281486, 10814281487, 4485482465], "tags": {"amenity": "restaurant", "building": "yes", "check_date": "2023-11-19", "name": "Tyana gold & beach"}}, {"type": "way", "id": 1162781886, "nodes": [4485482466, 10814281500, 10814281501, 10814281502, 10814281503, 10814281504, 4485482466], "tags": {"amenity": "restaurant", "building": "yes", "check_date": "2023-11-19", "name": "Gazipa\u015fa Lavinia"}}, {"type": "way", "id": 1162781888, "nodes": [4485482469, 10814331409, 10814331410, 10814331411, 4485482469], "tags": {"amenity": "restaurant", "building": "yes", "check_date": "2023-11-19", "name": "Sugar Beach Cafe"}}, {"type": "way", "id": 1162781889, "nodes": [4485482468, 10814331412, 10814331413, 10814331414, 4485482468], "tags": {"amenity": "restaurant", "building": "yes", "name": "Koruba\u015f\u0131 Beach Restoran"}}, {"type": "way", "id": 1162781890, "nodes": [9919337597, 10814331415, 10814331416, 10814331417, 10814331418, 10814331419, 9919337597], "tags": {"addr:housenumber": "7", "amenity": "restaurant", "building": "yes", "check_date": "2023-11-19", "name": "Sefa Beach"}}, {"type": "way", "id": 1162781891, "nodes": [1636482017, 10814331420, 10814331421, 10814331422, 10814331423, 10814331424, 10814331425, 10814331426, 1636482017], "tags": {"amenity": "restaurant", "building": "yes", "check_date": "2023-11-19", "name": "Nanu Beach"}}, {"type": "way", "id": 1163445559, "nodes": [10820091668, 10820091669, 10820091670, 10820091671, 10820091668]}, {"type": "way", "id": 1167683402, "nodes": [10859810783, 10859810784, 10859810785, 10859810786, 10859810783], "tags": {"amenity": "cafe", "building": "yes"}}, {"type": "way", "id": 1168314627, "nodes": [10865410861, 10865410864, 10865410847, 10865410859, 10865410848, 10865410856, 10865410850, 10865410860, 10865410857, 10865410853, 10865410851, 10865410862, 10865410854, 10865410849, 10865410858, 10865410852, 10865410863, 10865410861], "tags": {"amenity": "cafe", "cuisine": "ice_cream", "name": "Doping Buf\u00e9"}}, {"type": "way", "id": 1191299436, "nodes": [11060466690, 11060466691, 11060466692, 11060466693, 11060466694, 11060466695, 11060466690], "tags": {"amenity": "restaurant", "building": "yes"}}, {"type": "way", "id": 1191726424, "nodes": [11064319740, 11064319741, 11064319742, 11064319743, 11064319740], "tags": {"amenity": "restaurant", "building": "yes"}}, {"type": "way", "id": 1191726425, "nodes": [11064319744, 11064319745, 11064319746, 11064319747, 11064319748, 11064319749, 11064319750, 11064319751, 11064319752, 11064319744], "tags": {"amenity": "restaurant", "building": "yes"}}, {"type": "way", "id": 1303808818, "nodes": [12074509878, 12074509879, 12074509880, 12074509881, 12074509882, 12074509883, 12074509878], "tags": {"amenity": "restaurant", "building": "yes", "name": "\u015eirin \u00c7ardak"}}, {"type": "relation", "id": 15737418, "members": [{"type": "way", "ref": 1163445559, "role": "outer"}], "tags": {"amenity": "cafe", "type": "multipolygon"}}]}