{"version": 0.6, "generator": "Overpass API 0.7.62.7 375dc00a", "osm3s": {"timestamp_osm_base": "2025-06-14T15:17:02Z", "copyright": "The data included in this document is from www.openstreetmap.org. The data is made available under ODbL."}, "elements": [{"type": "node", "id": 1020963800, "lat": 39.7214364, "lon": 36.8687972, "tags": {"amenity": "restaurant", "cuisine": "turkish"}}, {"type": "node", "id": 3058070535, "lat": 39.7400925, "lon": 37.0061182, "tags": {"amenity": "restaurant", "name": "Vagon Kebap"}}, {"type": "node", "id": 3568839511, "lat": 39.7499946, "lon": 37.0156642, "tags": {"amenity": "cafe"}}, {"type": "node", "id": 3568839516, "lat": 39.7497735, "lon": 37.015558, "tags": {"amenity": "cafe"}}, {"type": "node", "id": 3568841601, "lat": 39.7494691, "lon": 37.0156178, "tags": {"amenity": "cafe"}}, {"type": "node", "id": 4058886326, "lat": 39.7200368, "lon": 36.9794492, "tags": {"amenity": "restaurant", "name": "Sivas K\u00f6ftecisi Nuri Usta"}}, {"type": "node", "id": 4543064849, "lat": 39.7466391, "lon": 37.0241149, "tags": {"amenity": "restaurant", "capacity": "20", "cuisine": "turkish", "name": "Divan Restaurant", "smoking": "outside", "wheelchair": "yes"}}, {"type": "node", "id": 4543224215, "lat": 39.7482522, "lon": 37.0167176, "tags": {"amenity": "cafe", "name": "Istikbar", "wheelchair": "no"}}, {"type": "node", "id": 4543229465, "lat": 39.7483759, "lon": 37.0162294, "tags": {"amenity": "cafe", "name": "Deniz", "wheelchair": "no"}}, {"type": "node", "id": 4543245418, "lat": 39.7487268, "lon": 37.0126897, "tags": {"amenity": "cafe", "brand": "The Coffee Club", "brand:wikidata": "Q7726599", "brand:wikipedia": "en:The Coffee Club", "cuisine": "coffee_shop", "name": "The Coffee Club", "takeaway": "yes", "wheelchair": "no"}}, {"type": "node", "id": 4543251901, "lat": 39.7512629, "lon": 37.0204166, "tags": {"amenity": "cafe", "name": "Bi Icim Cay", "wheelchair": "no"}}, {"type": "node", "id": 4543263893, "lat": 39.7482917, "lon": 37.0175329, "tags": {"amenity": "restaurant", "wheelchair": "no"}}, {"type": "node", "id": 4543279795, "lat": 39.7518154, "lon": 37.017735, "tags": {"amenity": "restaurant", "name": "Kral Cig K\u00f6fte", "wheelchair": "yes"}}, {"type": "node", "id": 4543288184, "lat": 39.7475576, "lon": 37.0154488, "tags": {"amenity": "cafe", "name": "Cafe Latte photo", "wheelchair": "no"}}, {"type": "node", "id": 4543290112, "lat": 39.7499751, "lon": 37.0127382, "tags": {"amenity": "cafe", "name": "Emine Baci Cafe", "wheelchair": "no"}}, {"type": "node", "id": 4543294175, "lat": 39.7487186, "lon": 37.0109554, "tags": {"amenity": "cafe", "name": "Mandala Cafe", "wheelchair": "no"}}, {"type": "node", "id": 4543296382, "lat": 39.749272, "lon": 37.012055, "tags": {"amenity": "cafe", "name": "Kafe Sebaste", "wheelchair": "no"}}, {"type": "node", "id": 4543297916, "lat": 39.7484985, "lon": 37.0131889, "tags": {"amenity": "restaurant", "name": "Bolulu Hasan Usta", "wheelchair": "no"}}, {"type": "node", "id": 4543299812, "lat": 39.7483243, "lon": 37.0111182, "tags": {"amenity": "cafe", "name": "Kafe Rio", "wheelchair": "no"}}, {"type": "node", "id": 4543302334, "lat": 39.7488823, "lon": 37.0112863, "tags": {"amenity": "cafe", "name": "Sato Grand Coffee Nargile", "wheelchair": "no"}}, {"type": "node", "id": 4543310978, "lat": 39.7493557, "lon": 37.0123264, "tags": {"amenity": "restaurant", "name": "Gulen pizza", "wheelchair": "no"}}, {"type": "node", "id": 4543313615, "lat": 39.7490108, "lon": 37.0113184, "tags": {"amenity": "cafe", "name": "KahveRengi", "wheelchair": "no"}}, {"type": "node", "id": 4543314222, "lat": 39.7487992, "lon": 37.0110997, "tags": {"amenity": "cafe", "name": "telveli cafe", "wheelchair": "no"}}, {"type": "node", "id": 4543316520, "lat": 39.7488324, "lon": 37.0111857, "tags": {"amenity": "restaurant", "name": "Deniz can kebab salonu", "wheelchair": "no"}}, {"type": "node", "id": 4543691408, "lat": 39.7476527, "lon": 37.0129156, "tags": {"addr:city": "Sivas", "amenity": "cafe", "cuisine": "regional", "name": "K\u0131l\u0131\u00e7o\u011flu", "wheelchair": "limited"}}, {"type": "node", "id": 4543736640, "lat": 39.7470663, "lon": 37.0123816, "tags": {"addr:city": "Sivas", "amenity": "cafe", "cuisine": "coffee_shop", "name": "3f Cafe", "wheelchair": "no"}}, {"type": "node", "id": 4543865372, "lat": 39.744111, "lon": 37.0102614, "tags": {"addr:city": "Sivas", "addr:street": "\u0130n\u00f6n\u00fc Bulvar\u0131", "amenity": "cafe", "name": "Zafer \u00c7ay & kahve", "wheelchair": "no"}}, {"type": "node", "id": 4543968746, "lat": 39.7477377, "lon": 37.012629, "tags": {"addr:city": "Sivas", "amenity": "cafe", "name": "Hakan Bistro", "wheelchair": "limited"}}, {"type": "node", "id": 4543989501, "lat": 39.7467502, "lon": 37.0117455, "tags": {"addr:city": "Sivas", "amenity": "cafe", "brand": "Mado", "brand:wikidata": "Q17116336", "brand:wikipedia": "en:Mado (food company)", "cuisine": "coffee_shop", "name": "Mado", "takeaway": "yes", "wheelchair": "limited"}}, {"type": "node", "id": 4543989503, "lat": 39.746706, "lon": 37.0116986, "tags": {"addr:city": "S\u0131vas", "amenity": "restaurant", "name": "Tavuk D\u00fcnyas\u0131", "wheelchair": "limited"}}, {"type": "node", "id": 4543989506, "lat": 39.7463255, "lon": 37.0113813, "tags": {"addr:city": "S\u0131vas", "amenity": "cafe", "name": "Kahve Saray\u0131", "wheelchair": "yes"}}, {"type": "node", "id": 4543989508, "lat": 39.7461594, "lon": 37.0112224, "tags": {"addr:city": "S\u0131vas", "addr:district": "Merkez", "addr:housenumber": "30/B", "addr:neighbourhood": "\u00d6rt\u00fcl\u00fcp\u0131nar", "addr:postcode": "58040", "addr:street": "\u0130n\u00f6n\u00fc Bulvar\u0131", "amenity": "cafe", "cuisine": "coffee_shop", "internet_access": "wlan", "internet_access:fee": "customers", "name": "Sammelo Coffee Sivas", "opening_hours": "Mo-Su 09:00-23:00", "outdoor_seating": "yes", "phone": "+905550195842", "wheelchair": "yes"}}, {"type": "node", "id": 4544008138, "lat": 39.7452661, "lon": 37.0106756, "tags": {"addr:city": "S\u0131vas", "amenity": "restaurant", "name": "Komagene \u00c7i\u011f K\u00f6fte", "wheelchair": "limited"}}, {"type": "node", "id": 4544008143, "lat": 39.7451388, "lon": 37.0105346, "tags": {"addr:city": "Sivas", "amenity": "restaurant", "name": "K\u00f6ftem 58", "wheelchair": "yes"}}, {"type": "node", "id": 4544018056, "lat": 39.7446178, "lon": 37.0100908, "tags": {"addr:city": "S\u0131vas", "amenity": "restaurant", "name": "K\u00f6fteci Kirli Ahmet Usta", "wheelchair": "yes"}}, {"type": "node", "id": 4544018057, "lat": 39.7445872, "lon": 37.0100571, "tags": {"addr:city": "Sivas", "amenity": "restaurant", "name": "\u00c7i\u011f K\u00f6ftem", "wheelchair": "yes"}}, {"type": "node", "id": 4544018059, "lat": 39.7442409, "lon": 37.0096822, "tags": {"addr:city": "Sivas", "amenity": "cafe", "cuisine": "turkish;dessert", "name": "Kral K\u00fcnefe"}}, {"type": "node", "id": 4546067044, "lat": 39.7509778, "lon": 37.0174567, "tags": {"amenity": "restaurant", "name": "Edessa Lachmacum", "wheelchair": "yes"}}, {"type": "node", "id": 4546067048, "lat": 39.7507139, "lon": 37.0173922, "tags": {"amenity": "restaurant", "name": "D\u00f6ner", "wheelchair": "yes"}}, {"type": "node", "id": 4546067070, "lat": 39.7482579, "lon": 37.0227432, "tags": {"amenity": "restaurant", "name": "\u00c7orba D\u00fcnyas\u0131", "wheelchair": "yes"}}, {"type": "node", "id": 4546095557, "lat": 39.7492156, "lon": 37.0118998, "tags": {"addr:city": "S\u0131vas", "amenity": "restaurant", "name": "Limon Agaci", "wheelchair": "no"}}, {"type": "node", "id": 4546095564, "lat": 39.74903, "lon": 37.0113695, "tags": {"addr:city": "Sivas", "amenity": "cafe", "name": "Kahve Rengi", "wheelchair": "no"}}, {"type": "node", "id": 4576060080, "lat": 39.7048231, "lon": 37.0242098}, {"type": "node", "id": 4576060085, "lat": 39.7048174, "lon": 37.0241318}, {"type": "node", "id": 4576060086, "lat": 39.7048823, "lon": 37.0240294}, {"type": "node", "id": 4618938998, "lat": 39.7477877, "lon": 37.0126408, "tags": {"addr:city": "S\u0131vas", "addr:street": "\u0130n\u00f6n\u00fc Bulvar\u0131", "amenity": "cafe", "name": "3f cafe", "wheelchair": "no"}}, {"type": "node", "id": 5141353425, "lat": 39.7429863, "lon": 37.0257338, "tags": {"amenity": "restaurant", "name:ka": "\u10d1\u10d0\u10d3\u10e0\u10d8\u10ef\u10d0\u10dc\u10d8 \u10d8\u10d6\u10d2\u10d0\u10e0\u10d0"}}, {"type": "node", "id": 5519897369, "lat": 39.8695013, "lon": 36.6246668, "tags": {"amenity": "restaurant", "name": "Dinlenme Tesisi"}}, {"type": "node", "id": 6021831085, "lat": 39.6705354, "lon": 37.0074861, "tags": {"amenity": "restaurant", "cuisine": "georgian", "opening_hours": "24/7"}}, {"type": "node", "id": 6080762271, "lat": 39.7109622, "lon": 37.0299392}, {"type": "node", "id": 6080762272, "lat": 39.7109823, "lon": 37.0302366}, {"type": "node", "id": 6080762273, "lat": 39.7113168, "lon": 37.0301862}, {"type": "node", "id": 6080762274, "lat": 39.7112804, "lon": 37.029891}, {"type": "node", "id": 6080978688, "lat": 39.7495121, "lon": 37.0178225, "tags": {"amenity": "cafe", "cuisine": "coffee_shop;ice_cream;chocolate", "name": "Bi' Cezve"}}, {"type": "node", "id": 6080978689, "lat": 39.7502929, "lon": 37.0171068, "tags": {"amenity": "restaurant", "name": "K\u00f6\u015fe D\u00f6ner"}}, {"type": "node", "id": 6080978691, "lat": 39.7508807, "lon": 37.0167777, "tags": {"amenity": "restaurant", "name": "Lezzet\u00e7i"}}, {"type": "node", "id": 6080978697, "lat": 39.7496215, "lon": 37.0200188, "tags": {"amenity": "restaurant", "name": "Lezzet\u00e7i \u00c7orbac\u0131m"}}, {"type": "node", "id": 6641686286, "lat": 39.7475882, "lon": 37.0222833, "tags": {"addr:street": "Pa\u015fabey", "amenity": "cafe", "cuisine": "burger;pasta;pizza;tea;kebab;coffee_shop", "internet_access": "wlan", "name": "M\u00fcze cafe", "phone": "+90(0541)7716814", "website": "https://www.facebook.com/muzemuzekafe"}}, {"type": "node", "id": 7026259687, "lat": 39.7428959, "lon": 37.0094712, "tags": {"addr:housenumber": "3/E", "addr:postcode": "58010", "addr:street": "At\u00f6lye Camii", "amenity": "restaurant", "name": "Mis Kebap"}}, {"type": "node", "id": 10245928995, "lat": 39.686079, "lon": 37.0100408, "tags": {"amenity": "restaurant", "check_date": "2022-12-08"}}, {"type": "node", "id": 10269305470, "lat": 39.7070371, "lon": 37.0268666}, {"type": "node", "id": 10269305471, "lat": 39.7069189, "lon": 37.0269564}, {"type": "node", "id": 10269305472, "lat": 39.706969, "lon": 37.0271084}, {"type": "node", "id": 10269305473, "lat": 39.7071054, "lon": 37.0270225}, {"type": "node", "id": 10269305474, "lat": 39.7071145, "lon": 37.0270701}, {"type": "node", "id": 10269305475, "lat": 39.7069707, "lon": 37.0271833}, {"type": "node", "id": 10269305476, "lat": 39.706994, "lon": 37.027249}, {"type": "node", "id": 10269305477, "lat": 39.7070156, "lon": 37.0273016}, {"type": "node", "id": 10269305478, "lat": 39.70709, "lon": 37.0272428}, {"type": "node", "id": 10269305479, "lat": 39.7071194, "lon": 37.0273077}, {"type": "node", "id": 10269305480, "lat": 39.707168, "lon": 37.0272743}, {"type": "node", "id": 10269305481, "lat": 39.7071623, "lon": 37.0272519}, {"type": "node", "id": 10269305482, "lat": 39.7072155, "lon": 37.0272132}, {"type": "node", "id": 10269305483, "lat": 39.7071675, "lon": 37.0271075}, {"type": "node", "id": 10269305484, "lat": 39.7071381, "lon": 37.0271204}, {"type": "node", "id": 10269305487, "lat": 39.7071476, "lon": 37.0276255}, {"type": "node", "id": 10269305488, "lat": 39.7072322, "lon": 37.0275655}, {"type": "node", "id": 10269305489, "lat": 39.7073442, "lon": 37.0278632}, {"type": "node", "id": 10269305490, "lat": 39.707382, "lon": 37.0278534}, {"type": "node", "id": 10269305491, "lat": 39.7074225, "lon": 37.0278018}, {"type": "node", "id": 10269305492, "lat": 39.7072375, "lon": 37.027244}, {"type": "node", "id": 10269305493, "lat": 39.7071306, "lon": 37.0273334}, {"type": "node", "id": 10269305494, "lat": 39.7101136, "lon": 37.0272448}, {"type": "node", "id": 10269305495, "lat": 39.710207, "lon": 37.0274054}, {"type": "node", "id": 10269305496, "lat": 39.7103457, "lon": 37.0272485}, {"type": "node", "id": 10269305497, "lat": 39.7103772, "lon": 37.02716}, {"type": "node", "id": 10269305498, "lat": 39.7103108, "lon": 37.0270448}, {"type": "node", "id": 10269305499, "lat": 39.7103188, "lon": 37.0270367}, {"type": "node", "id": 10269305500, "lat": 39.7103833, "lon": 37.0271483}, {"type": "node", "id": 10269305501, "lat": 39.7104687, "lon": 37.0269466}, {"type": "node", "id": 10269305502, "lat": 39.7104449, "lon": 37.0269078}, {"type": "node", "id": 10269305542, "lat": 39.7097424, "lon": 37.0331972}, {"type": "node", "id": 10269305543, "lat": 39.7095103, "lon": 37.0332801}, {"type": "node", "id": 10269305544, "lat": 39.7095543, "lon": 37.0334876}, {"type": "node", "id": 10269305545, "lat": 39.7096077, "lon": 37.0334669}, {"type": "node", "id": 10269305546, "lat": 39.7096191, "lon": 37.0335314}, {"type": "node", "id": 10269305547, "lat": 39.7098078, "lon": 37.033443}, {"type": "node", "id": 10269305739, "lat": 39.7049598, "lon": 37.0240525}, {"type": "node", "id": 10269305740, "lat": 39.7050023, "lon": 37.0240991}, {"type": "node", "id": 10269305741, "lat": 39.705017, "lon": 37.0241485}, {"type": "node", "id": 10269305742, "lat": 39.7050188, "lon": 37.0242063}, {"type": "node", "id": 10269305743, "lat": 39.7049823, "lon": 37.024274}, {"type": "node", "id": 10269305744, "lat": 39.7049513, "lon": 37.0243091}, {"type": "node", "id": 10269305745, "lat": 39.7049103, "lon": 37.0243123}, {"type": "node", "id": 10269305746, "lat": 39.7049, "lon": 37.0242926}, {"type": "node", "id": 10269305747, "lat": 39.7048601, "lon": 37.0242994}, {"type": "node", "id": 10269305748, "lat": 39.7049672, "lon": 37.0240188}, {"type": "node", "id": 11380043713, "lat": 39.8726074, "lon": 36.6004597}, {"type": "node", "id": 11380043714, "lat": 39.8723747, "lon": 36.600547}, {"type": "node", "id": 11380043715, "lat": 39.8724144, "lon": 36.6007264}, {"type": "node", "id": 11380043716, "lat": 39.8726471, "lon": 36.6006391}, {"type": "node", "id": 12589983445, "lat": 39.7496425, "lon": 37.0173511, "tags": {"amenity": "restaurant", "name": "Eray Kebap Salonu", "phone": "+90 346 222 32 32", "toilets:access": "customers", "wheelchair": "no"}}, {"type": "node", "id": 12604147718, "lat": 39.75268, "lon": 37.0115782}, {"type": "node", "id": 12604147734, "lat": 39.7531675, "lon": 37.0115042}, {"type": "node", "id": 12604147877, "lat": 39.7521634, "lon": 37.0129102}, {"type": "node", "id": 12604147893, "lat": 39.7522794, "lon": 37.0129335}, {"type": "node", "id": 12604147929, "lat": 39.7521843, "lon": 37.0127282}, {"type": "node", "id": 12604147983, "lat": 39.7530666, "lon": 37.0112817}, {"type": "node", "id": 12604147987, "lat": 39.7523051, "lon": 37.0127554}, {"type": "node", "id": 12652612135, "lat": 39.7530312, "lon": 37.0119015}, {"type": "node", "id": 12652612136, "lat": 39.7528794, "lon": 37.0120179}, {"type": "node", "id": 12652612137, "lat": 39.7529327, "lon": 37.0116843}, {"type": "node", "id": 12697172715, "lat": 39.7903637, "lon": 37.0005814, "tags": {"amenity": "cafe", "name": "Mabeyn Kafe"}}, {"type": "node", "id": 12814571332, "lat": 39.7483414, "lon": 37.0301932}, {"type": "node", "id": 12814571333, "lat": 39.748323, "lon": 37.0302218}, {"type": "node", "id": 12814571334, "lat": 39.7481495, "lon": 37.0301649}, {"type": "node", "id": 12814571336, "lat": 39.7481707, "lon": 37.0300555}, {"type": "node", "id": 12814571338, "lat": 39.7483563, "lon": 37.0301164}, {"type": "node", "id": 12814572176, "lat": 39.7490605, "lon": 37.0301937}, {"type": "node", "id": 12814572178, "lat": 39.7488418, "lon": 37.0302611}, {"type": "node", "id": 12814572180, "lat": 39.7488298, "lon": 37.0301954}, {"type": "node", "id": 12814572181, "lat": 39.748889, "lon": 37.0301345}, {"type": "node", "id": 12814572182, "lat": 39.7490412, "lon": 37.0300876}, {"type": "node", "id": 12863241956, "lat": 39.7499406, "lon": 37.0203239, "tags": {"entrance": "shop"}}, {"type": "node", "id": 12863241957, "lat": 39.7499067, "lon": 37.0202638}, {"type": "node", "id": 12863241958, "lat": 39.7499471, "lon": 37.0203153}, {"type": "node", "id": 12863241959, "lat": 39.7499842, "lon": 37.0205159, "tags": {"entrance": "shop"}}, {"type": "node", "id": 12863241961, "lat": 39.7499015, "lon": 37.0204104, "tags": {"entrance": "shop"}}, {"type": "node", "id": 12863241962, "lat": 39.7498882, "lon": 37.0203934}, {"type": "node", "id": 12863241963, "lat": 39.7499059, "lon": 37.0203699}, {"type": "node", "id": 12863241964, "lat": 39.7498655, "lon": 37.0203184}, {"type": "node", "id": 12863241965, "lat": 39.7498155, "lon": 37.0203847}, {"type": "node", "id": 12863241966, "lat": 39.7499131, "lon": 37.0204252}, {"type": "node", "id": 12863241967, "lat": 39.7498809, "lon": 37.020468}, {"type": "node", "id": 12863241968, "lat": 39.7500442, "lon": 37.0205925}, {"type": "node", "id": 12863241969, "lat": 39.750012, "lon": 37.0206353}, {"type": "node", "id": 12863241970, "lat": 39.7499447, "lon": 37.0205494}, {"type": "node", "id": 12863241971, "lat": 39.7499769, "lon": 37.0205066}, {"type": "node", "id": 12863268349, "lat": 39.7503029, "lon": 37.020762, "tags": {"addr:housenumber": "34", "addr:street": "Garipler Sokak", "entrance": "shop"}}, {"type": "node", "id": 12863268403, "lat": 39.7507297, "lon": 37.0200018, "tags": {"addr:housenumber": "2", "addr:street": "Garipler Sokak", "entrance": "shop"}}, {"type": "node", "id": 12863268405, "lat": 39.7507402, "lon": 37.0199341, "tags": {"addr:housenumber": "24", "addr:street": "Nalbantlarba\u015f\u0131 Caddesi", "entrance": "shop"}}, {"type": "node", "id": 12863268420, "lat": 39.7503916, "lon": 37.0198261, "tags": {"addr:housenumber": "15/5", "addr:street": "12-2. Sokak", "entrance": "shop"}}, {"type": "node", "id": 12863268463, "lat": 39.7506792, "lon": 37.0200021}, {"type": "node", "id": 12863268464, "lat": 39.7507175, "lon": 37.0199183}, {"type": "node", "id": 12863268465, "lat": 39.7507581, "lon": 37.0199466}, {"type": "node", "id": 12863268466, "lat": 39.7507166, "lon": 37.0200273}, {"type": "node", "id": 12863268515, "lat": 39.7503132, "lon": 37.0207471}, {"type": "node", "id": 12863268516, "lat": 39.7502857, "lon": 37.020787}, {"type": "node", "id": 12863268518, "lat": 39.7502628, "lon": 37.0206906}, {"type": "node", "id": 12863268519, "lat": 39.7502389, "lon": 37.0207275}, {"type": "node", "id": 12863268574, "lat": 39.7503738, "lon": 37.0198667}, {"type": "node", "id": 12863268575, "lat": 39.7503526, "lon": 37.019853}, {"type": "node", "id": 12863268576, "lat": 39.7503559, "lon": 37.0198444}, {"type": "node", "id": 12863268577, "lat": 39.7502906, "lon": 37.0198039}, {"type": "node", "id": 12863268579, "lat": 39.750399, "lon": 37.0198092}, {"type": "node", "id": 12863268581, "lat": 39.7503563, "lon": 37.0197783}, {"type": "node", "id": 12863268583, "lat": 39.7503138, "lon": 37.0197505}, {"type": "node", "id": 12877128621, "lat": 39.7492741, "lon": 37.0299797}, {"type": "node", "id": 12877128622, "lat": 39.7493733, "lon": 37.0299648}, {"type": "node", "id": 12877128623, "lat": 39.7493619, "lon": 37.0298372}, {"type": "node", "id": 12877128624, "lat": 39.7492627, "lon": 37.0298521}, {"type": "node", "id": 12877128640, "lat": 39.7483189, "lon": 37.0296982}, {"type": "node", "id": 12877128641, "lat": 39.7480432, "lon": 37.0296634}, {"type": "node", "id": 12877128642, "lat": 39.7480479, "lon": 37.0296006}, {"type": "node", "id": 12877128643, "lat": 39.7483236, "lon": 37.0296353}, {"type": "node", "id": 12877128644, "lat": 39.7465581, "lon": 37.028923}, {"type": "node", "id": 12877128645, "lat": 39.746535, "lon": 37.0289662}, {"type": "node", "id": 12877128646, "lat": 39.7463823, "lon": 37.0288282}, {"type": "node", "id": 12877128647, "lat": 39.7464054, "lon": 37.028785}, {"type": "node", "id": 12877128661, "lat": 39.7455861, "lon": 37.0280109}, {"type": "node", "id": 12877128662, "lat": 39.745555, "lon": 37.0280702}, {"type": "node", "id": 12877128663, "lat": 39.7453888, "lon": 37.0279228}, {"type": "node", "id": 12877128664, "lat": 39.7454198, "lon": 37.0278636}, {"type": "node", "id": 12877128726, "lat": 39.7430948, "lon": 37.0260718}, {"type": "node", "id": 12877128727, "lat": 39.7430494, "lon": 37.0261613}, {"type": "node", "id": 12877128728, "lat": 39.7428529, "lon": 37.0259927}, {"type": "node", "id": 12877128729, "lat": 39.7429393, "lon": 37.0259384}, {"type": "node", "id": 12877128734, "lat": 39.7429244, "lon": 37.0259676}, {"type": "node", "id": 12877128735, "lat": 39.7428835, "lon": 37.0259325}, {"type": "node", "id": 12912834275, "lat": 39.7588186, "lon": 36.7430152}, {"type": "node", "id": 12912834276, "lat": 39.7589046, "lon": 36.742988}, {"type": "node", "id": 12912834277, "lat": 39.758895, "lon": 36.7429368}, {"type": "node", "id": 12912834278, "lat": 39.7589159, "lon": 36.7429302}, {"type": "node", "id": 12912834279, "lat": 39.7588964, "lon": 36.7428259}, {"type": "node", "id": 12912834280, "lat": 39.7588817, "lon": 36.7428305}, {"type": "node", "id": 12912834281, "lat": 39.7588703, "lon": 36.7427692}, {"type": "node", "id": 12912834282, "lat": 39.7587661, "lon": 36.7428021}, {"type": "node", "id": 12912834283, "lat": 39.7587771, "lon": 36.742861}, {"type": "node", "id": 12912834284, "lat": 39.7587651, "lon": 36.7428648}, {"type": "node", "id": 12912834285, "lat": 39.7587855, "lon": 36.7429741}, {"type": "node", "id": 12912834286, "lat": 39.7588095, "lon": 36.7429665}, {"type": "way", "id": 647505615, "nodes": [6080762271, 6080762272, 6080762273, 6080762274, 6080762271], "tags": {"amenity": "cafe", "building": "yes", "cuisine": "burger;pizza;sandwich;ice_cream", "name": "Albatros Kafe"}}, {"type": "way", "id": 1122856151, "nodes": [10269305470, 10269305471, 10269305472, 10269305473, 10269305470], "tags": {"amenity": "cafe", "building": "yes", "name": "EspressoLab"}}, {"type": "way", "id": 1122856152, "nodes": [10269305474, 10269305475, 10269305476, 10269305477, 10269305478, 10269305479, 10269305480, 10269305481, 10269305482, 10269305483, 10269305484, 10269305474], "tags": {"amenity": "cafe", "building": "yes", "name": "Noche"}}, {"type": "way", "id": 1122856155, "nodes": [10269305487, 10269305489, 10269305490, 10269305491, 10269305492, 10269305493, 10269305488, 10269305487], "tags": {"amenity": "cafe", "building": "yes", "layer": "1", "name": "Akropol"}}, {"type": "way", "id": 1122856156, "nodes": [10269305494, 10269305495, 10269305496, 10269305497, 10269305498, 10269305494], "tags": {"amenity": "cafe", "building": "yes", "name": "K\u0131l\u0131\u00e7o\u011flu, \u00d6nc\u00fc D\u00f6ner"}}, {"type": "way", "id": 1122856157, "nodes": [10269305499, 10269305500, 10269305501, 10269305502, 10269305499], "tags": {"amenity": "restaurant", "building": "yes", "name": "Y\u0131ld\u0131z Ci\u011fer"}}, {"type": "way", "id": 1122856164, "nodes": [10269305542, 10269305543, 10269305544, 10269305545, 10269305546, 10269305547, 10269305542], "tags": {"amenity": "cafe", "building": "yes"}}, {"type": "way", "id": 1122856188, "nodes": [10269305739, 10269305740, 10269305741, 10269305742, 10269305743, 10269305744, 10269305745, 10269305746, 10269305747, 4576060080, 4576060085, 4576060086, 10269305748, 10269305739], "tags": {"amenity": "restaurant", "building": "yes", "name": "Feri\u015ftah"}}, {"type": "way", "id": 1227199251, "nodes": [11380043714, 11380043713, 11380043716, 11380043715, 11380043714], "tags": {"addr:street": "Sivas-Yozgat yolu", "amenity": "restaurant", "contact:phone": "+90 533 736 24 57", "name": "Yenihan Y\u00f6resel Ev Yemekleri Et Lokantasi"}}, {"type": "way", "id": 1361466934, "nodes": [12604147987, 12604147893, 12604147877, 12604147929, 12604147987], "tags": {"amenity": "restaurant", "building": "yes", "name": "G\u00fcl\u00fcc\u00fck Glutensiz Kafe", "wheelchair": "limited"}}, {"type": "way", "id": 1361466936, "nodes": [12604147983, 12604147734, 12652612137, 12652612135, 12652612136, 12604147718, 12604147983], "tags": {"amenity": "restaurant", "building": "yes", "name": "346 Kafe Restoran", "wheelchair": "limited"}}, {"type": "way", "id": 1384072546, "nodes": [12814571338, 12814571336, 12814571334, 12814571333, 12814571332, 12814571338], "tags": {"amenity": "cafe", "building": "yes", "name": "Aksu Kafe"}}, {"type": "way", "id": 1384072673, "nodes": [12814572182, 12814572181, 12814572180, 12814572178, 12814572176, 12814572182], "tags": {"amenity": "cafe", "building": "yes", "name": "De\u011firmen Kafe"}}, {"type": "way", "id": 1389632737, "nodes": [12863241963, 12863241956, 12863241958, 12863241957, 12863241964, 12863241963], "tags": {"amenity": "cafe", "level": "1", "name": "Kahve Meclisi"}}, {"type": "way", "id": 1389632738, "nodes": [12863241966, 12863241967, 12863241965, 12863241964, 12863241963, 12863241962, 12863241961, 12863241966], "tags": {"amenity": "cafe", "level": "1", "name": "Bir & Dem Cafe"}}, {"type": "way", "id": 1389632740, "nodes": [12863241971, 12863241970, 12863241969, 12863241968, 12863241959, 12863241971], "tags": {"amenity": "cafe", "level": "1", "name": "Me\u015frep Cafe"}}, {"type": "way", "id": 1389632783, "nodes": [12863268466, 12863268403, 12863268465, 12863268405, 12863268464, 12863268463, 12863268466], "tags": {"amenity": "restaurant", "cuisine": "turkish", "level": "0", "name": "Hal Kellecisi"}}, {"type": "way", "id": 1389632811, "nodes": [12863268516, 12863268349, 12863268515, 12863268518, 12863268519, 12863268516], "tags": {"amenity": "restaurant", "cuisine": "turkish", "level": "0", "name": "Sivas Hal K\u00f6ftecisi"}}, {"type": "way", "id": 1389632828, "nodes": [12863268579, 12863268581, 12863268583, 12863268577, 12863268576, 12863268575, 12863268574, 12863268420, 12863268579], "tags": {"amenity": "restaurant", "diet:fish": "yes", "level": "0", "name": "Nizamo\u011flu Bal\u0131k Evi"}}, {"type": "way", "id": 1391147429, "nodes": [12877128621, 12877128622, 12877128623, 12877128624, 12877128621], "tags": {"amenity": "cafe", "building": "yes", "name": "Kamelya Kafe"}}, {"type": "way", "id": 1391147435, "nodes": [12877128640, 12877128641, 12877128642, 12877128643, 12877128640], "tags": {"amenity": "cafe", "building": "yes", "name": "Asya Garden Cafe & Restaurant"}}, {"type": "way", "id": 1391147436, "nodes": [12877128644, 12877128645, 12877128646, 12877128647, 12877128644], "tags": {"amenity": "cafe", "building": "yes", "name": "Aksu Sardunya Kafe"}}, {"type": "way", "id": 1391147445, "nodes": [12877128661, 12877128662, 12877128663, 12877128664, 12877128661], "tags": {"amenity": "cafe", "building": "yes", "name": "Nil\u00fcfer Kafe"}}, {"type": "way", "id": 1391147457, "nodes": [12877128726, 12877128727, 12877128728, 12877128735, 12877128734, 12877128729, 12877128726], "tags": {"amenity": "cafe", "building": "yes", "name": "Medcezir Bah\u00e7e"}}, {"type": "way", "id": 1395010886, "nodes": [12912834275, 12912834276, 12912834277, 12912834278, 12912834279, 12912834280, 12912834281, 12912834282, 12912834283, 12912834284, 12912834285, 12912834286, 12912834275], "tags": {"amenity": "restaurant", "building": "yes", "cuisine": "turkish", "name": "Alt\u0131nkale Cafe Restaurant"}}]}