{"version": 0.6, "generator": "Overpass API 0.7.62.7 375dc00a", "osm3s": {"timestamp_osm_base": "2025-06-14T14:41:26Z", "copyright": "The data included in this document is from www.openstreetmap.org. The data is made available under ODbL."}, "elements": [{"type": "node", "id": 481193746, "lat": 36.665183, "lon": 23.0266354, "tags": {"amenity": "restaurant", "contact:phone": "+30 2732 061044", "cuisine": "greek", "email": "athivoli.mon@gmail.com", "name": "\u0391\u03b8\u03b9\u03b2\u03bf\u03bb\u03ae", "name:el": "\u0391\u03b8\u03b9\u03b2\u03bf\u03bb\u03ae", "name:en": "Athivoli", "reservation": "recommended", "toilets": "yes", "website": "http://www.athivoli-monemvasia.gr/"}}, {"type": "node", "id": 481193790, "lat": 36.6401535, "lon": 23.0268844, "tags": {"amenity": "restaurant"}}, {"type": "node", "id": 481193801, "lat": 36.6871628, "lon": 23.0552741, "tags": {"amenity": "restaurant", "cuisine": "greek", "name": "\u039c\u03b1\u03c4\u03bf\u03cd\u03bb\u03b1", "name:el": "\u039c\u03b1\u03c4\u03bf\u03cd\u03bb\u03b1", "name:en": "Matoula's", "phone": "+302732061660"}}, {"type": "node", "id": 481193847, "lat": 36.6863843, "lon": 23.0386971, "tags": {"amenity": "restaurant"}}, {"type": "node", "id": 481301342, "lat": 36.7893461, "lon": 23.0798218, "tags": {"amenity": "restaurant", "cuisine": "seafood", "microbrewery": "no", "name": "\u039f \u0394\u03b9\u03b1\u03bc\u03b1\u03bd\u03c4\u03ae\u03c2", "phone": "+302732023849", "ref:vatin": "046883590"}}, {"type": "node", "id": 481301345, "lat": 36.6432237, "lon": 22.9665929, "tags": {"amenity": "cafe"}}, {"type": "node", "id": 839234559, "lat": 36.6812043, "lon": 22.9651613, "tags": {"amenity": "restaurant", "cuisine": "greek", "name": "\u03a4\u03bf \u03a0\u03b1\u03c1\u03b1\u03b4\u03bf\u03c3\u03b9\u03b1\u03ba\u03bf (\u0393\u03b9\u03b1\u03bd\u03bd\u03b7\u03c2)", "name:de": "Bei Paradosiako (Yannis)", "name:el": "\u03a4\u03bf \u03a0\u03b1\u03c1\u03b1\u03b4\u03bf\u03c3\u03b9\u03b1\u03ba\u03bf (\u0393\u03b9\u03b1\u03bd\u03bd\u03b7\u03c2)", "name:en": "Paradosiako (Yannis)", "note": "phone for reservation, speech: el", "phone": "+302732053430, +306947022260"}}, {"type": "node", "id": 839234560, "lat": 36.618325, "lon": 23.0087903, "tags": {"amenity": "restaurant", "cuisine": "greek", "name": "\u0395\u03c0\u03b9\u03b4\u03b7\u03bb\u03b9\u03bf\u03bd", "name:de": "Epidilion", "name:el": "\u0395\u03c0\u03b9\u03b4\u03b7\u03bb\u03b9\u03bf\u03bd", "name:en": "Epidilion", "phone": "T. 2732066252, 6977626702"}}, {"type": "node", "id": 839234561, "lat": 36.6122104, "lon": 22.983721, "tags": {"amenity": "restaurant"}}, {"type": "node", "id": 840150719, "lat": 36.6873354, "lon": 23.0386275, "tags": {"amenity": "restaurant", "cuisine": "greek"}}, {"type": "node", "id": 1234640143, "lat": 36.6863472, "lon": 23.0383703, "tags": {"amenity": "cafe", "name": "Cafe Matthaios", "note": "Ouzeri, Mezedes, 35 beer breeds"}}, {"type": "node", "id": 1380843906, "lat": 36.767133, "lon": 22.9447763, "tags": {"amenity": "cafe", "phone": "+302732071675"}}, {"type": "node", "id": 1380855193, "lat": 36.68754, "lon": 23.0432603, "tags": {"amenity": "restaurant", "cuisine": "pizza", "name": "Pizza"}}, {"type": "node", "id": 1838511128, "lat": 36.5784739, "lon": 22.9421698, "tags": {"amenity": "restaurant", "cuisine": "greek"}}, {"type": "node", "id": 1838511571, "lat": 36.5218477, "lon": 22.9835491, "tags": {"amenity": "restaurant", "name": "\u0397 \u03a0\u03bf\u03c5\u03bd\u03c4\u03b1"}}, {"type": "node", "id": 1838511582, "lat": 36.5233978, "lon": 22.9830337, "tags": {"amenity": "restaurant", "name": "Pavlopetri"}}, {"type": "node", "id": 1838511599, "lat": 36.6863835, "lon": 23.0390974, "tags": {"amenity": "restaurant", "name": "Akaion"}}, {"type": "node", "id": 1838511603, "lat": 36.6134506, "lon": 22.9833048, "tags": {"amenity": "cafe"}}, {"type": "node", "id": 1838511633, "lat": 36.795091, "lon": 22.7866192, "tags": {"amenity": "restaurant", "name": "\u03a4\u03b1\u03b2\u03ad\u03c1\u03bd\u03b1 \u0391\u03ba\u03c1\u03b1\u03af\u03b1"}}, {"type": "node", "id": 1838511648, "lat": 36.833075, "lon": 22.6978612, "tags": {"amenity": "cafe"}}, {"type": "node", "id": 1869305002, "lat": 36.6878722, "lon": 22.8398477, "tags": {"addr:city": "\u03a0\u03bb\u03cd\u03c4\u03c1\u03b1", "addr:postcode": "23056", "amenity": "restaurant", "cuisine": "pizza", "name": "\u039f \u039c\u03b1\u03c1\u03af\u03b4\u03b1\u03c2"}}, {"type": "node", "id": 1869305011, "lat": 36.6880135, "lon": 22.8396711, "tags": {"addr:city": "\u03a0\u03bb\u03cd\u03c4\u03c1\u03b1", "addr:postcode": "23056", "amenity": "cafe", "name": "\u039d\u03a4\u039f\u039c\u0399\u039d\u039f"}}, {"type": "node", "id": 1869305151, "lat": 36.6891788, "lon": 22.8357623, "tags": {"amenity": "restaurant"}}, {"type": "node", "id": 2214642313, "lat": 36.7889241, "lon": 23.0805213}, {"type": "node", "id": 2214642317, "lat": 36.7889695, "lon": 23.0803436}, {"type": "node", "id": 2214642318, "lat": 36.7890122, "lon": 23.0805564}, {"type": "node", "id": 2214642319, "lat": 36.7890148, "lon": 23.0801661}, {"type": "node", "id": 2214642322, "lat": 36.789103, "lon": 23.0802012}, {"type": "node", "id": 2214642346, "lat": 36.7859753, "lon": 23.0852564, "tags": {"amenity": "restaurant", "cuisine": "greek", "microbrewery": "no", "name": "\u0397 \u03b1\u03cd\u03c1\u03b1"}}, {"type": "node", "id": 2316862384, "lat": 36.7316, "lon": 22.8546, "tags": {"amenity": "restaurant", "cuisine": "greek", "name": "\u039a\u03b1\u03bc\u03ac\u03c1\u03b5\u03c2"}}, {"type": "node", "id": 2316870623, "lat": 36.7312999, "lon": 22.8543999, "tags": {"amenity": "cafe", "name": "Pegasus"}}, {"type": "node", "id": 2316911306, "lat": 36.7309314, "lon": 22.8546406, "tags": {"amenity": "cafe"}}, {"type": "node", "id": 2316912928, "lat": 36.7308497, "lon": 22.8545996, "tags": {"amenity": "cafe"}}, {"type": "node", "id": 2316919661, "lat": 36.7309611, "lon": 22.8542878, "tags": {"amenity": "cafe"}}, {"type": "node", "id": 2539588443, "lat": 36.6869505, "lon": 23.0389769, "tags": {"amenity": "cafe", "name": "Castello"}}, {"type": "node", "id": 2785374400, "lat": 36.704229, "lon": 22.8206894}, {"type": "node", "id": 2785374402, "lat": 36.7042616, "lon": 22.8208941}, {"type": "node", "id": 2785374413, "lat": 36.7043843, "lon": 22.8206509}, {"type": "node", "id": 2785374414, "lat": 36.7044169, "lon": 22.8208556}, {"type": "node", "id": 2909099101, "lat": 36.5096529, "lon": 22.9782547, "tags": {"amenity": "cafe", "name": "Mare Nostrum", "source": "survey"}}, {"type": "node", "id": 2909099801, "lat": 36.509797, "lon": 22.978419, "tags": {"amenity": "restaurant", "cuisine": "greek", "description": "\u03a8\u03b1\u03c1\u03bf\u03c4\u03b1\u03b2\u03ad\u03c1\u03bd\u03b1", "name": "\u039f \u039c\u03c0\u03bf\u03cd\u03ba\u03b1\u03c2", "source": "survey"}}, {"type": "node", "id": 2909309401, "lat": 36.509823, "lon": 22.979703, "tags": {"amenity": "restaurant", "cuisine": "greek", "description": "\u03a8\u03b1\u03c1\u03bf\u03c4\u03b1\u03b2\u03ad\u03c1\u03bd\u03b1", "name": "\u03a3\u03c0\u03cd\u03c1\u03bf\u03c2 \u03a3\u03c0\u03c5\u03c1\u03b9\u03b4\u03bf\u03cd\u03bb\u03b1", "source": "survey"}}, {"type": "node", "id": 2909309403, "lat": 36.509661, "lon": 22.9797746, "tags": {"amenity": "restaurant", "cuisine": "greek", "description": "\u03c4\u03b1\u03b2\u03ad\u03c1\u03bd\u03b1-\u03bf\u03c5\u03b6\u03b5\u03c1\u03af", "name": "\u039a\u03c9\u03bd\u03c3\u03c4\u03b1\u03bd\u03c4\u03af\u03bd\u03bf\u03c2 & \u0395\u03c5\u03b1\u03b3\u03b3\u03b5\u03bb\u03af\u03b1"}}, {"type": "node", "id": 2909309404, "lat": 36.5092227, "lon": 22.9801138, "tags": {"amenity": "cafe", "name": "Cafe del Mar"}}, {"type": "node", "id": 2909309601, "lat": 36.5093456, "lon": 22.9800268, "tags": {"amenity": "restaurant", "cuisine": "greek", "description": "\u03c4\u03b1\u03b2\u03ad\u03c1\u03bd\u03b1-\u03bf\u03c5\u03b6\u03b5\u03c1\u03af", "name": "\u039f\u03c5\u03c1\u03b1\u03bd\u03af\u03b1"}}, {"type": "node", "id": 2909309701, "lat": 36.5094858, "lon": 22.9799498, "tags": {"amenity": "restaurant", "cuisine": "greek", "name": "\u0391\u03bd\u03c4\u03ce\u03bd\u03b7\u03c2"}}, {"type": "node", "id": 2909356901, "lat": 36.5095488, "lon": 22.9798356, "tags": {"amenity": "cafe", "name": "Sailing"}}, {"type": "node", "id": 3278438671, "lat": 36.7381595, "lon": 22.8116163}, {"type": "node", "id": 3278438672, "lat": 36.7382594, "lon": 22.8117075}, {"type": "node", "id": 3278438673, "lat": 36.7383605, "lon": 22.8118537}, {"type": "node", "id": 3278438674, "lat": 36.7384078, "lon": 22.8119288}, {"type": "node", "id": 3278438675, "lat": 36.7385442, "lon": 22.8117893}, {"type": "node", "id": 3278438676, "lat": 36.7387398, "lon": 22.8116512}, {"type": "node", "id": 3278438677, "lat": 36.7386711, "lon": 22.8114366}, {"type": "node", "id": 3278438678, "lat": 36.7386958, "lon": 22.8113977}, {"type": "node", "id": 3278438679, "lat": 36.7384239, "lon": 22.8114285}, {"type": "node", "id": 3278438680, "lat": 36.738268, "lon": 22.8113065}, {"type": "node", "id": 3278438681, "lat": 36.7381015, "lon": 22.8115653}, {"type": "node", "id": 3374940506, "lat": 36.747488, "lon": 22.8021141, "tags": {"amenity": "cafe", "name": "\u0392\u03b9\u03b1\u03bd\u03b4\u03af\u03bd\u03b7"}}, {"type": "node", "id": 3374940507, "lat": 36.7474342, "lon": 22.8022781, "tags": {"amenity": "restaurant", "name": "\u0392\u03b9\u03b1\u03bd\u03b4\u03af\u03bd\u03b7"}}, {"type": "node", "id": 3551242310, "lat": 36.5096475, "lon": 22.9795317, "tags": {"amenity": "restaurant"}}, {"type": "node", "id": 3635938203, "lat": 36.8475045, "lon": 22.6611374}, {"type": "node", "id": 3635938204, "lat": 36.8475702, "lon": 22.6608741}, {"type": "node", "id": 3635938205, "lat": 36.8476034, "lon": 22.6611759}, {"type": "node", "id": 3635938207, "lat": 36.8476691, "lon": 22.6609126}, {"type": "node", "id": 4306421852, "lat": 36.8008894, "lon": 22.8549298, "tags": {"addr:postcode": "23052", "amenity": "cafe", "internet_access": "wlan", "name": "moment's", "phone": "+302732022807"}}, {"type": "node", "id": 4380487758, "lat": 36.522514, "lon": 22.983084}, {"type": "node", "id": 4380487759, "lat": 36.5225219, "lon": 22.9832526}, {"type": "node", "id": 4380487760, "lat": 36.5225919, "lon": 22.9832027}, {"type": "node", "id": 4380487761, "lat": 36.5225939, "lon": 22.9832474}, {"type": "node", "id": 4380487841, "lat": 36.5226345, "lon": 22.9830753}, {"type": "node", "id": 4380487842, "lat": 36.5226403, "lon": 22.9831993}, {"type": "node", "id": 4872205836, "lat": 36.5150869, "lon": 23.0526188, "tags": {"amenity": "restaurant", "name": "\u03a4\u03bf \u039b\u03b9\u03bc\u03b1\u03bd\u03ac\u03ba\u03b9"}}, {"type": "node", "id": 4943429837, "lat": 36.5094976, "lon": 22.9778824, "tags": {"amenity": "cafe", "name": "Creperie Mammy mam"}}, {"type": "node", "id": 4943432962, "lat": 36.5092355, "lon": 22.9774932, "tags": {"amenity": "restaurant", "name": "\u0393\u03c5\u03c1\u03bf\u03c6\u03c9\u03bb\u03b9\u03ac"}}, {"type": "node", "id": 4943434524, "lat": 36.5084813, "lon": 22.9793855, "tags": {"amenity": "restaurant"}}, {"type": "node", "id": 4943434525, "lat": 36.507985, "lon": 22.9796393, "tags": {"amenity": "restaurant", "name": "\u039d\u03c4\u03b1\u03b3\u03b9\u03b1\u03bd\u03c4\u03b1\u03c2"}}, {"type": "node", "id": 4943434526, "lat": 36.5076781, "lon": 22.9797913, "tags": {"amenity": "cafe"}}, {"type": "node", "id": 5069023787, "lat": 36.5090763, "lon": 22.9755066, "tags": {"amenity": "restaurant", "name": "\u0391\u03c1\u03ce\u03bd\u03b7\u03c2"}}, {"type": "node", "id": 5069080204, "lat": 36.5108795, "lon": 22.9795164, "tags": {"amenity": "cafe", "name": "\u03a3\u03c4\u03b7\u03bd \u0386\u03ba\u03c1\u03b7"}}, {"type": "node", "id": 5072203799, "lat": 36.5089756, "lon": 23.0602157, "tags": {"amenity": "restaurant", "name": "\u039a\u03b1\u03c4\u03ac\u03c1\u03c4\u03b9"}}, {"type": "node", "id": 5072203800, "lat": 36.5092404, "lon": 23.0598421, "tags": {"amenity": "cafe", "name": "\u0386\u03bc\u03bc\u03bf\u03c2", "name:de": "Ammos", "name:el": "\u0386\u03bc\u03bc\u03bf\u03c2", "name:en": "Ammos"}}, {"type": "node", "id": 5072203801, "lat": 36.509309, "lon": 23.0597509, "tags": {"amenity": "cafe", "name": "\u03a0\u03cc\u03c3\u03c4\u03bf"}}, {"type": "node", "id": 5072203802, "lat": 36.509491, "lon": 23.0594861, "tags": {"amenity": "restaurant", "name": "\u03a4\u03bf \u03c8\u03b7\u03c3\u03c4\u03ae\u03c1\u03b9", "phone": "+302734029100"}}, {"type": "node", "id": 5072203803, "lat": 36.5093941, "lon": 23.0592567, "tags": {"amenity": "cafe", "indoor_seating": "no", "name": "\u0394\u03c9\u03b4\u03ce\u03bd\u03b7", "outdoor_seating": "yes", "smoking": "yes", "wheelchair": "yes"}}, {"type": "node", "id": 5072203804, "lat": 36.5086823, "lon": 23.0606982, "tags": {"amenity": "restaurant", "name": "\u03a4\u03b6\u03b9\u03b2\u03b1\u03ad\u03c1\u03b9"}}, {"type": "node", "id": 5072203805, "lat": 36.5084719, "lon": 23.0609453, "tags": {"amenity": "restaurant", "name": "\u03a4\u03ac\u03ba\u03b7\u03c2"}}, {"type": "node", "id": 5072203806, "lat": 36.5081456, "lon": 23.0612425, "tags": {"amenity": "cafe", "name": "\u03a3\u03c4\u03b1\u03b2\u03ad\u03bd\u03c4\u03bf"}}, {"type": "node", "id": 5072203807, "lat": 36.5077861, "lon": 23.0617661, "tags": {"amenity": "cafe", "name": "\u039c\u03c0\u03b9\u03bb\u03af\u03bd\u03b7\u03c2"}}, {"type": "node", "id": 5072203808, "lat": 36.5076656, "lon": 23.0619662, "tags": {"amenity": "cafe", "name": "\u039c\u03b1\u03ca\u03c3\u03c4\u03c1\u03ac\u03bb\u03b9"}}, {"type": "node", "id": 5072212326, "lat": 36.5120447, "lon": 23.0560661, "tags": {"amenity": "cafe", "name": "Southern Breeze"}}, {"type": "node", "id": 5072214255, "lat": 36.5108795, "lon": 23.0573299, "tags": {"amenity": "restaurant", "diet:halal": "no", "diet:kosher": "no", "diet:vegan": "no", "diet:vegetarian": "yes", "indoor_seating": "yes", "name": "Moreas", "outdoor_seating": "yes", "smoking": "outside", "wheelchair": "yes"}}, {"type": "node", "id": 5162470422, "lat": 36.6844698, "lon": 23.0372581, "tags": {"amenity": "restaurant", "name": "\u03a3\u03ba\u03bf\u03c1\u03c0\u03b9\u03cc\u03c2", "name:el": "\u03a3\u03ba\u03bf\u03c1\u03c0\u03b9\u03cc\u03c2", "name:en": "Scorpio"}}, {"type": "node", "id": 5169242825, "lat": 36.8678565, "lon": 22.8987198, "tags": {"amenity": "cafe", "name": "\u03a0\u03c5\u03c1\u03bf\u03c3\u03c4\u03b9\u03ac", "phone": "2732031408"}}, {"type": "node", "id": 5711532361, "lat": 36.6873495, "lon": 23.0364095}, {"type": "node", "id": 5711532362, "lat": 36.6872646, "lon": 23.0364431}, {"type": "node", "id": 5711532363, "lat": 36.6873098, "lon": 23.0366774}, {"type": "node", "id": 5711532364, "lat": 36.6874272, "lon": 23.03663}, {"type": "node", "id": 5711532365, "lat": 36.6873931, "lon": 23.0364688}, {"type": "node", "id": 5711532366, "lat": 36.6873677, "lon": 23.0364777}, {"type": "node", "id": 5742661921, "lat": 36.7600447, "lon": 22.7962407, "tags": {"amenity": "restaurant", "name:en": "Liogerma"}}, {"type": "node", "id": 5762248356, "lat": 36.6836491, "lon": 23.0376229, "tags": {"amenity": "restaurant", "name": "\u039a\u03b1\u03c3\u03c4\u03c1\u03ac\u03ba\u03b9"}}, {"type": "node", "id": 5762258853, "lat": 36.6839112, "lon": 23.037398, "tags": {"amenity": "restaurant", "name": "\u03a4' \u03b1\u03ba\u03c1\u03bf\u03b3\u03b9\u03ac\u03bb\u03b9"}}, {"type": "node", "id": 5775447049, "lat": 36.6287274, "lon": 22.8777614, "tags": {"amenity": "restaurant", "cuisine": "greek", "name": "\u039c\u03b1\u03c1\u03b3\u03b1\u03c1\u03af\u03c4\u03b1", "outdoor_seating": "yes", "smoking": "outside", "takeaway": "yes"}}, {"type": "node", "id": 5775571054, "lat": 36.6026655, "lon": 22.9077441, "tags": {"amenity": "restaurant", "cuisine": "greek", "name": "\u0393\u03b1\u03bb\u03b1\u03bd\u03cc\u03c2", "outdoor_seating": "yes", "smoking": "outside"}}, {"type": "node", "id": 6534121885, "lat": 36.742177, "lon": 23.002594, "tags": {"amenity": "restaurant", "name": "\u0386\u03b8\u03b1\u03c2", "name:el": "\u0386\u03b8\u03b1\u03c2", "name:en": "Athas"}}, {"type": "node", "id": 6534126986, "lat": 36.6870986, "lon": 23.0548846, "tags": {"amenity": "restaurant", "name": "Oinomelo"}}, {"type": "node", "id": 6622448985, "lat": 36.8585576, "lon": 23.0379364, "tags": {"amenity": "restaurant", "cuisine": "greek", "name": "Kantina", "opening_hours": "Mo-Su 11:00-20:00"}}, {"type": "node", "id": 6635593666, "lat": 36.6881189, "lon": 22.8367985}, {"type": "node", "id": 6635593667, "lat": 36.6880356, "lon": 22.8369021}, {"type": "node", "id": 6635593668, "lat": 36.6879111, "lon": 22.8367465}, {"type": "node", "id": 6635593669, "lat": 36.6879573, "lon": 22.8366889}, {"type": "node", "id": 6635593670, "lat": 36.6880765, "lon": 22.8367455}, {"type": "node", "id": 6684423022, "lat": 36.6873346, "lon": 23.0551707, "tags": {"amenity": "restaurant", "name": "Restaurant Marianthi"}}, {"type": "node", "id": 7313042900, "lat": 36.8193922, "lon": 22.8589426, "tags": {"amenity": "restaurant", "cuisine": "mediterranean", "name": "\u03a6\u03b1\u03bd\u03ac\u03c1\u03b9\u03b1"}}, {"type": "node", "id": 7787894449, "lat": 36.6880395, "lon": 22.8367916}, {"type": "node", "id": 7787928688, "lat": 36.6879365, "lon": 22.8367783}, {"type": "node", "id": 7787928690, "lat": 36.6880192, "lon": 22.836766}, {"type": "node", "id": 7787928692, "lat": 36.688009, "lon": 22.8367536}, {"type": "node", "id": 7787943662, "lat": 36.6879973, "lon": 22.8368543}, {"type": "node", "id": 7787943663, "lat": 36.6880138, "lon": 22.8367595}, {"type": "node", "id": 7945821885, "lat": 36.5131548, "lon": 23.0539409, "tags": {"amenity": "restaurant", "name": "Mone mone"}}, {"type": "node", "id": 8090455334, "lat": 36.8510775, "lon": 22.6659472}, {"type": "node", "id": 8090455335, "lat": 36.8511219, "lon": 22.6660397}, {"type": "node", "id": 8090455336, "lat": 36.8512458, "lon": 22.6659773}, {"type": "node", "id": 8090455337, "lat": 36.8512083, "lon": 22.6658773}, {"type": "node", "id": 8093301092, "lat": 36.8506952, "lon": 22.665138}, {"type": "node", "id": 8093301094, "lat": 36.8506156, "lon": 22.6649734}, {"type": "node", "id": 8093301095, "lat": 36.8507488, "lon": 22.6648765}, {"type": "node", "id": 8093301096, "lat": 36.8508249, "lon": 22.6650385}, {"type": "node", "id": 8093301099, "lat": 36.8507083, "lon": 22.6649059}, {"type": "node", "id": 8093319563, "lat": 36.8503503, "lon": 22.6642214}, {"type": "node", "id": 8093319564, "lat": 36.8503059, "lon": 22.6641104}, {"type": "node", "id": 8093319565, "lat": 36.8504729, "lon": 22.6640112}, {"type": "node", "id": 8093319566, "lat": 36.8505686, "lon": 22.664126}, {"type": "node", "id": 8093319567, "lat": 36.8504197, "lon": 22.6642043}, {"type": "node", "id": 8093319568, "lat": 36.8504132, "lon": 22.6641834}, {"type": "node", "id": 8093352356, "lat": 36.8506728, "lon": 22.6635914}, {"type": "node", "id": 8093352357, "lat": 36.8507509, "lon": 22.6637835}, {"type": "node", "id": 8093352358, "lat": 36.8509759, "lon": 22.6636472}, {"type": "node", "id": 8093352359, "lat": 36.850914, "lon": 22.6634584}, {"type": "node", "id": 8093352416, "lat": 36.8502265, "lon": 22.6644605}, {"type": "node", "id": 8093352417, "lat": 36.8501183, "lon": 22.6645319}, {"type": "node", "id": 8093352418, "lat": 36.850008, "lon": 22.6643048}, {"type": "node", "id": 8093352419, "lat": 36.8501305, "lon": 22.6642283}, {"type": "node", "id": 8101082662, "lat": 36.799115, "lon": 22.8560938}, {"type": "node", "id": 8101082663, "lat": 36.7990312, "lon": 22.8560522}, {"type": "node", "id": 8101082664, "lat": 36.7989912, "lon": 22.8561779}, {"type": "node", "id": 8101082665, "lat": 36.7990749, "lon": 22.8562195}, {"type": "node", "id": 8101863243, "lat": 36.8065459, "lon": 22.9078906}, {"type": "node", "id": 8101863244, "lat": 36.8064484, "lon": 22.9078225}, {"type": "node", "id": 8101863245, "lat": 36.8063535, "lon": 22.9080343}, {"type": "node", "id": 8101863246, "lat": 36.806451, "lon": 22.9081025}, {"type": "node", "id": 8114983387, "lat": 36.8038773, "lon": 22.8511847, "tags": {"amenity": "restaurant", "cuisine": "coffee_shop;greek", "name": "\u03a0\u03bb\u03b1\u03c4\u03b5\u03af\u03b1"}}, {"type": "node", "id": 8115004019, "lat": 36.8038108, "lon": 22.8511561, "tags": {"amenity": "restaurant", "cuisine": "coffee_shop;greek", "name": "\u03a4\u0396\u0391\u039d\u03a4\u0395"}}, {"type": "node", "id": 8115010659, "lat": 36.8037205, "lon": 22.8511172, "tags": {"amenity": "cafe", "name": "CAFE \u03a0\u03bb\u03b1\u03c4\u03b5\u03af\u03b1"}}, {"type": "node", "id": 8116285525, "lat": 36.803947, "lon": 22.8519132, "tags": {"addr:city": "\u039c\u03bf\u03bb\u03ac\u03bf\u03b9", "addr:housenumber": "6", "addr:postcode": "23052", "addr:street": "\u0393\u03b5\u03bd\u03bd\u03ae\u03c3\u03b5\u03c9\u03c2 \u03a7\u03c1\u03b9\u03c3\u03c4\u03bf\u03cd", "amenity": "restaurant", "cuisine": "greek", "name": "\u039a\u03b1\u03bc\u03b9\u03bd\u03ac\u03b4\u03b1\u03c2"}}, {"type": "node", "id": 8120656076, "lat": 36.8507901, "lon": 22.6649645}, {"type": "node", "id": 8120662065, "lat": 36.8514812, "lon": 22.6639372}, {"type": "node", "id": 8120662066, "lat": 36.8513701, "lon": 22.6639769}, {"type": "node", "id": 8120662067, "lat": 36.851386, "lon": 22.6640598}, {"type": "node", "id": 8120662068, "lat": 36.8515009, "lon": 22.664019}, {"type": "node", "id": 8120662071, "lat": 36.8514127, "lon": 22.6640503}, {"type": "node", "id": 8120662193, "lat": 36.851383, "lon": 22.6624198}, {"type": "node", "id": 8120662194, "lat": 36.8512712, "lon": 22.662383}, {"type": "node", "id": 8120662195, "lat": 36.8512112, "lon": 22.6626721}, {"type": "node", "id": 8120662196, "lat": 36.851322, "lon": 22.6627087}, {"type": "node", "id": 8736717779, "lat": 36.7515617, "lon": 22.8003337}, {"type": "node", "id": 8736717780, "lat": 36.7515109, "lon": 22.8003923}, {"type": "node", "id": 8736717781, "lat": 36.7514476, "lon": 22.8003367}, {"type": "node", "id": 8736717782, "lat": 36.7514836, "lon": 22.8002735}, {"type": "node", "id": 9556049619, "lat": 36.6853283, "lon": 23.0374663, "tags": {"addr:city": "\u0393\u03ad\u03c6\u03c5\u03c1\u03b1", "addr:postcode": "23070", "addr:street": "\u0395\u03c0\u03b1\u03c1.\u039f\u03b4. \u039c\u03bf\u03bd\u03b5\u03bc\u03b2\u03ac\u03c3\u03b9\u03b1\u03c2-\u039d\u03b5\u03ac\u03c0\u03bf\u03bb\u03b7\u03c2", "amenity": "restaurant", "cuisine": "greek", "name": "\u0389\u03b4\u03c5\u03c3\u03bc\u03b1 \u03ba\u03b1\u03b9 \u03ac\u03c1\u03c4\u03c5\u03bc\u03b1", "phone": "+30 694 939 4088"}}, {"type": "node", "id": 9558250538, "lat": 36.6854519, "lon": 23.0375328, "tags": {"addr:city": "\u0393\u03ad\u03c6\u03c5\u03c1\u03b1", "addr:postcode": "23070", "amenity": "restaurant", "contact:facebook": "https://facebook.com/people/Tartaruga-Di-Mare/100087365535198", "cuisine": "italian;mediterranean;pizza;seafood", "name": "Tartaruga di Mare", "opening_hours": "Mo-Fr 16:00-23:30; Sa-Su 13:00-23:30", "phone": "+30 2732 061486"}}, {"type": "node", "id": 9797673138, "lat": 36.6822056, "lon": 22.8274872, "tags": {"amenity": "restaurant", "name": "\u039a\u03ac\u03b2\u03bf\u03c2"}}, {"type": "node", "id": 9797673141, "lat": 36.6865731, "lon": 22.8277679, "tags": {"amenity": "restaurant"}}, {"type": "node", "id": 9798372341, "lat": 36.6883004, "lon": 22.828435, "tags": {"amenity": "restaurant"}}, {"type": "node", "id": 9855401018, "lat": 36.6867125, "lon": 23.0546041, "tags": {"addr:postcode": "230 70", "addr:street": "\u03a3\u03c0\u03ac\u03c1\u03c4\u03b7 - \u039c\u03bf\u03bd\u03b5\u03bc\u03b2\u03b1\u03c3\u03b9\u03ac", "amenity": "restaurant", "contact:facebook": "voltesmonemvasia", "int_name": "Voltes", "name": "\u0392\u03cc\u03bb\u03c4\u03b5\u03c2", "phone": "+30 2732 061919"}}, {"type": "node", "id": 9929696819, "lat": 36.8490432, "lon": 22.6621694}, {"type": "node", "id": 9929696820, "lat": 36.8490948, "lon": 22.6620457}, {"type": "node", "id": 9929696822, "lat": 36.84915, "lon": 22.662243}, {"type": "node", "id": 9929696823, "lat": 36.8492514, "lon": 22.6621352}, {"type": "node", "id": 9929696824, "lat": 36.8491858, "lon": 22.6619858}, {"type": "node", "id": 9930164283, "lat": 36.850029, "lon": 22.6679299}, {"type": "node", "id": 9930164284, "lat": 36.8500626, "lon": 22.6680677}, {"type": "node", "id": 9930164285, "lat": 36.8502199, "lon": 22.6680817}, {"type": "node", "id": 9930164286, "lat": 36.8501607, "lon": 22.6679325}, {"type": "node", "id": 10003653319, "lat": 36.5134774, "lon": 23.0533183, "tags": {"amenity": "restaurant", "cuisine": "mediterranean;greek", "name": "\u0393\u03b5\u03c5\u03c3\u03b9\u03c0\u03bb\u03bf\u03c5\u03c2"}}, {"type": "node", "id": 10604283325, "lat": 36.6392861, "lon": 23.0295748, "tags": {"amenity": "restaurant", "cuisine": "greek;mediterranean;seafood", "name": "\u039f \u03a4\u03ac\u03ba\u03b7\u03c2", "name:el": "\u039f \u03a4\u03ac\u03ba\u03b7\u03c2", "name:en": "\u039f \u03a4akis", "phone": "+302732066135", "ref:vatin": "042275581"}}, {"type": "node", "id": 11222875938, "lat": 36.5102898, "lon": 23.0584438, "tags": {"amenity": "restaurant", "name:en": "Olive Verde"}}, {"type": "node", "id": 11222879338, "lat": 36.5101473, "lon": 23.0585404, "tags": {"addr:city": "\u039d\u03b5\u03ac\u03c0\u03bf\u03bb\u03b7", "amenity": "restaurant", "cuisine": "italian;pizza", "name": "Le Farfalle", "phone": "+302734022980", "ref:vatin": "801791444"}}, {"type": "node", "id": 11225096937, "lat": 36.512166, "lon": 23.0598322, "tags": {"amenity": "cafe", "name:en": "Black Rose Cafe"}}, {"type": "node", "id": 11227196939, "lat": 36.6874088, "lon": 23.0552299, "tags": {"amenity": "cafe", "cuisine": "breakfast;coffee_shop", "name": "Volax"}}, {"type": "node", "id": 11982667949, "lat": 36.7862619, "lon": 23.0845626, "tags": {"amenity": "restaurant", "name": "Taverna to Remetzo"}}, {"type": "node", "id": 11982770518, "lat": 36.786215, "lon": 23.0847488, "tags": {"amenity": "cafe", "internet_access": "yes", "name": "Cafe Bar Botzi"}}, {"type": "node", "id": 12057681709, "lat": 36.505576, "lon": 23.0788372, "tags": {"amenity": "restaurant", "cuisine": "greek", "name": "\u0386\u03bc\u03b1 \u039b\u03ac\u03c7\u03b9", "outdoor_seating": "yes", "reservation": "recommended"}}, {"type": "node", "id": 12375963154, "lat": 36.8438456, "lon": 22.6502559, "tags": {"amenity": "restaurant"}}, {"type": "node", "id": 12386192616, "lat": 36.8512522, "lon": 22.6624821}, {"type": "node", "id": 12386192619, "lat": 36.8512288, "lon": 22.6625887}, {"type": "node", "id": 12672979459, "lat": 36.5441749, "lon": 23.0456741, "tags": {"amenity": "cafe"}}, {"type": "node", "id": 12783340737, "lat": 36.5111123, "lon": 23.0580539, "tags": {"amenity": "restaurant", "contact:phone": "+30 2734 029131", "name": "\u0391\u03c1\u03c7\u03bf\u03bd\u03c4\u03b9\u03ba\u03cc"}}, {"type": "node", "id": 12788913381, "lat": 36.6873259, "lon": 23.055253, "tags": {"amenity": "restaurant", "cuisine": "greek", "name": "\u039a\u03b1\u03bd\u03cc\u03bd\u03b9"}}, {"type": "node", "id": 12788913382, "lat": 36.6867101, "lon": 23.0393307, "tags": {"amenity": "cafe", "name": "4Lines", "phone": "+302732061201"}}, {"type": "way", "id": 211449792, "nodes": [2214642319, 2214642322, 2214642318, 2214642313, 2214642317, 2214642319], "tags": {"amenity": "cafe", "internet_access": "wlan", "internet_access:fee": "no", "name": "\u0391\u03c0\u03bf\u03b8\u03ae\u03ba\u03b7 \u03a4\u03c3\u03b1\u03b2\u03b1\u03bb\u03ac"}}, {"type": "way", "id": 273710217, "nodes": [2785374413, 2785374400, 2785374402, 2785374414, 2785374413], "tags": {"amenity": "restaurant", "building": "yes", "cuisine": "regional", "name": "The \"Bozo\" Agathoklis"}}, {"type": "way", "id": 321126565, "nodes": [3278438671, 3278438672, 3278438673, 3278438674, 3278438675, 3278438676, 3278438677, 3278438678, 3278438679, 3278438680, 3278438681, 3278438671], "tags": {"amenity": "restaurant", "area": "yes"}}, {"type": "way", "id": 358705450, "nodes": [3635938204, 3635938207, 3635938205, 3635938203, 3635938204], "tags": {"addr:city": "\u03a3\u03ba\u03ac\u03bb\u03b1", "addr:postcode": "23051", "amenity": "cafe", "building": "yes", "name": "Correto", "opening_hours": "Mo-Su 05:00-21:00", "phone": "+30 27350 23052", "source": "Bing"}}, {"type": "way", "id": 440321291, "nodes": [4380487841, 4380487842, 4380487760, 4380487761, 4380487759, 4380487758, 4380487841], "tags": {"amenity": "restaurant", "building": "yes", "name": "Oasis"}}, {"type": "way", "id": 600776295, "nodes": [5711532361, 5711532362, 5711532363, 5711532364, 5711532365, 5711532366, 5711532361], "tags": {"amenity": "cafe", "building": "yes", "cuisine": "greek", "name": "Apto\u043f\u043e\u0456\u0435\u0456\u043e", "outdoor_seating": "yes"}}, {"type": "way", "id": 706202050, "nodes": [6635593670, 6635593666, 6635593667, 7787943662, 7787928688, 6635593668, 6635593669, 7787928692, 7787943663, 7787928690, 7787894449, 6635593670], "tags": {"addr:city": "\u03a0\u03bb\u03cd\u03c4\u03c1\u03b1", "addr:postcode": "23056", "addr:street": "\u0391\u03c3\u03c3\u03c9\u03c0\u03cc\u03c2", "amenity": "restaurant", "building": "yes", "internet_access": "wlan", "name": "\u03a4\u03bf \u03bd\u03b7\u03c3\u03af", "phone": "2732083143"}}, {"type": "way", "id": 867969327, "nodes": [8090455334, 8090455335, 8090455336, 8090455337, 8090455334], "tags": {"addr:city": "\u03a3\u03ba\u03ac\u03bb\u03b1", "addr:postcode": "23051", "amenity": "restaurant", "building": "yes", "cuisine": "greek", "name": "\u03a6\u03bb\u03cc\u03b3\u03b1", "phone": "+30 27350 23941"}}, {"type": "way", "id": 868264711, "nodes": [8093301092, 8093301094, 8093301099, 8093301095, 8120656076, 8093301096, 8093301092], "tags": {"addr:city": "\u03a3\u03ba\u03ac\u03bb\u03b1", "addr:postcode": "23051", "addr:street": "\u0393\u03b5\u03c9\u03c1\u03b3\u03af\u03bf\u03c5 \u0393\u03c1\u03c5\u03c0\u03b9\u03ce\u03c4\u03b7", "air_conditioning": "yes", "amenity": "cafe", "bar": "yes", "building": "yes", "delivery": "yes", "internet_access": "yes", "internet_access:fee": "no", "name": "Prime Cafe-Bar", "opening_hours": "Mo-Su 06:00-24:00", "phone": "+30 27350 22022", "smoking": "outside"}}, {"type": "way", "id": 868264730, "nodes": [8093319563, 8093319564, 8093319565, 8093319566, 8093319567, 8093319568, 8093319563], "tags": {"addr:city": "\u03a3\u03ba\u03ac\u03bb\u03b1", "addr:postcode": "23051", "addr:street": "\u0393\u03b5\u03c9\u03c1\u03b3\u03af\u03bf\u03c5 \u0393\u03c1\u03c5\u03c0\u03b9\u03ce\u03c4\u03b7", "air_conditioning": "yes", "amenity": "cafe", "bar": "yes", "building": "yes", "delivery": "yes", "internet_access": "yes", "internet_access:fee": "no", "name": "Volcano Cafe-Bar", "opening_hours": "Mo-Su 08:00-24:00", "outdoor_seating": "yes", "phone": "+30 27350 23718", "smoking": "outside"}}, {"type": "way", "id": 868277605, "nodes": [8093352356, 8093352357, 8093352358, 8093352359, 8093352356], "tags": {"addr:city": "\u03a3\u03ba\u03ac\u03bb\u03b1", "addr:postcode": "23051", "air_conditioning": "yes", "amenity": "restaurant", "building": "yes", "cuisine": "greek", "delivery": "yes", "name": "Casa Del Pazzo", "opening_hours": "Mo-Su 08:00-24:00", "outdoor_seating": "yes", "phone": "+30 27350 29153", "smoking": "outside"}}, {"type": "way", "id": 868277615, "nodes": [8093352416, 8093352417, 8093352418, 8093352419, 8093352416], "tags": {"addr:city": "\u03a3\u03ba\u03ac\u03bb\u03b1", "addr:postcode": "23051", "addr:street": "\u0393\u03b5\u03c9\u03c1\u03b3\u03af\u03bf\u03c5 \u0393\u03c1\u03c5\u03c0\u03b9\u03ce\u03c4\u03b7", "air_conditioning": "yes", "amenity": "restaurant", "building": "yes", "cuisine": "greek;pizza", "delivery": "yes", "name": "Eataly", "opening_hours": "Mo-Su 18:00-02:00", "phone": "+30 27350 22040", "website": "https://eataly-gastronomic-approach.business.site/"}}, {"type": "way", "id": 869148102, "nodes": [8101082662, 8101082663, 8101082664, 8101082665, 8101082662], "tags": {"amenity": "restaurant", "building": "yes"}}, {"type": "way", "id": 869297151, "nodes": [8101863243, 8101863244, 8101863245, 8101863246, 8101863243], "tags": {"addr:city": "\u039c\u03b5\u03c4\u03b1\u03bc\u03cc\u03c1\u03c6\u03c9\u03c3\u03b7", "addr:postcode": "23052", "addr:street": "\u039c\u03bf\u03bb\u03ac\u03bf\u03b9 - \u03a1\u03b5\u03b9\u03c7\u03ad\u03b1", "amenity": "restaurant", "building": "yes", "cuisine": "greek", "name": "\u03a4\u03b1\u03b2\u03ad\u03c1\u03bd\u03b1 \u0394\u03b7\u03bc\u03cc\u03c4\u03c3\u03b7\u03c2"}}, {"type": "way", "id": 871854564, "nodes": [8120662065, 8120662066, 8120662067, 8120662071, 8120662068, 8120662065], "tags": {"amenity": "cafe", "building": "yes", "delivery": "yes", "internet_access": "yes", "internet_access:fee": "no", "name": "Parapente Caffe Bar", "opening_hours": "Mo-Su 08:00-00:00", "outdoor_seating": "yes", "phone": "+30 27354 02775", "website": "https://www.facebook.com/pages/category/Coffee-Shop/Parapente-Caffe-Bar-106217474548495/"}}, {"type": "way", "id": 871854593, "nodes": [8120662193, 8120662194, 12386192616, 12386192619, 8120662195, 8120662196, 8120662193], "tags": {"amenity": "restaurant", "building": "yes", "cuisine": "greek"}}, {"type": "way", "id": 943595108, "nodes": [8736717779, 8736717780, 8736717781, 8736717782, 8736717779], "tags": {"addr:city": "\u0395\u03bb\u03b9\u03ac \u039b\u03b1\u03ba\u03c9\u03bd\u03af\u03b1\u03c2", "addr:postcode": "23052", "addr:street": "\u039d\u03b1\u03c5\u03c4\u03b9\u03ba\u03bf\u03cd \u039f\u03bc\u03af\u03bb\u03bf\u03c5", "amenity": "restaurant", "building": "yes", "cuisine": "burger;pizza;greek", "diet:local": "yes", "name": "\u0391\u03c0\u03ad\u03c1\u03b1\u03bd\u03c4\u03bf \u0393\u03b1\u03bb\u03ac\u03b6\u03b9\u03bf"}}, {"type": "way", "id": 1083530939, "nodes": [9929696819, 9929696822, 9929696823, 9929696824, 9929696820, 9929696819], "tags": {"addr:city": "\u03a3\u03ba\u03ac\u03bb\u03b1", "addr:postcode": "23051", "amenity": "restaurant", "building": "yes", "name": "Mr Donut", "opening_hours": "24/7", "phone": "+30 2735 023900"}}, {"type": "way", "id": 1083585582, "nodes": [9930164283, 9930164284, 9930164285, 9930164286, 9930164283], "tags": {"addr:city": "\u03a3\u03ba\u03ac\u03bb\u03b1", "addr:postcode": "23051", "amenity": "cafe", "building": "yes", "name": "Art Cafe", "opening_hours": "Mo-Su 08:00-02:00", "phone": "+30 27350 23450"}}]}