{"version": 0.6, "generator": "Overpass API 0.7.62.7 375dc00a", "osm3s": {"timestamp_osm_base": "2025-06-14T15:03:48Z", "copyright": "The data included in this document is from www.openstreetmap.org. The data is made available under ODbL."}, "elements": [{"type": "node", "id": 2417028701, "lat": 41.2777885, "lon": 31.4203046}, {"type": "node", "id": 2417028702, "lat": 41.2777587, "lon": 31.4203106}, {"type": "node", "id": 2417028707, "lat": 41.2776379, "lon": 31.4208559}, {"type": "node", "id": 2417028715, "lat": 41.2778274, "lon": 31.4208025}, {"type": "node", "id": 2417028719, "lat": 41.2779791, "lon": 31.4202692}, {"type": "node", "id": 2417028720, "lat": 41.2781821, "lon": 31.4204936}, {"type": "node", "id": 2417028725, "lat": 41.2780563, "lon": 31.4207549}, {"type": "node", "id": 2417028726, "lat": 41.277616, "lon": 31.4206472}, {"type": "node", "id": 2417028728, "lat": 41.2782128, "lon": 31.4207049}, {"type": "node", "id": 2417028736, "lat": 41.2779498, "lon": 31.4202702}, {"type": "node", "id": 2417028748, "lat": 41.2780134, "lon": 31.4207666}, {"type": "node", "id": 2417028750, "lat": 41.2778543, "lon": 31.4207987}, {"type": "node", "id": 2417028751, "lat": 41.276667, "lon": 31.4208465, "tags": {"amenity": "restaurant", "name": "Romantique", "phone": "(0372) 312 34 34"}}, {"type": "node", "id": 3042373818, "lat": 41.2827953, "lon": 31.4153895, "tags": {"amenity": "cafe", "check_date": "2025-02-16", "name": "Teras Kafeterya"}}, {"type": "node", "id": 3757986475, "lat": 41.0897459, "lon": 31.122753, "tags": {"addr:city": "Ak\u00e7akoca", "addr:street": "Otopark \u0130\u00e7i Yollar", "amenity": "cafe", "cuisine": "regional", "internet_access": "no", "name": "Liman Cafe"}}, {"type": "node", "id": 3757986476, "lat": 41.087585, "lon": 31.1068255, "tags": {"addr:city": "Ak\u00e7akoca", "addr:street": "Otopark \u0130\u00e7i Yollar", "amenity": "restaurant", "cuisine": "fish_and_chips", "name": "Hamsi Bal\u0131k Restoran", "phone": "+906118868"}}, {"type": "node", "id": 3757986479, "lat": 41.0889738, "lon": 31.1205251, "tags": {"addr:street": "Posta Sokak", "amenity": "cafe", "internet_access": "no", "name": "Cingirt Kafe"}}, {"type": "node", "id": 3836294029, "lat": 41.2841817, "lon": 31.4128012, "tags": {"amenity": "cafe", "name": "Bozhane Cafe"}}, {"type": "node", "id": 4294010027, "lat": 41.0459765, "lon": 31.1962499, "tags": {"addr:city": "Ak\u00e7akoca", "addr:street": "Zirve Et Mangal", "amenity": "restaurant", "cuisine": "regional", "name": "Zirve Et Mangal"}}, {"type": "node", "id": 4360049929, "lat": 41.0903183, "lon": 31.134815, "tags": {"amenity": "cafe", "name": "Bah\u00e7e Cafe"}}, {"type": "node", "id": 4360083402, "lat": 41.0902659, "lon": 31.1348017, "tags": {"amenity": "restaurant", "cuisine": "regional", "name": "Livadi Restaurant"}}, {"type": "node", "id": 4362381892, "lat": 41.0910704, "lon": 31.1470367, "tags": {"addr:housenumber": "5", "amenity": "restaurant", "cuisine": "steak_house;kebab;coffee_shop;turkish;breakfast;fish;beef_bowl", "name": "Livadi Restoran", "name:tr": "Livadi Restoran"}}, {"type": "node", "id": 4406283412, "lat": 41.2728359, "lon": 31.4420235, "tags": {"addr:city": "Karadeniz Ere\u011fli", "addr:country": "TR", "addr:postcode": "67300", "amenity": "cafe", "name": "Erdemir Ta\u015f Cafe", "operator": "Erdemir", "outdoor_seating": "yes", "wheelchair": "yes"}}, {"type": "node", "id": 4406283416, "lat": 41.283929, "lon": 31.4122224, "tags": {"access": "yes", "amenity": "cafe", "name": "Halk Kafe"}}, {"type": "node", "id": 4554603169, "lat": 41.267971, "lon": 31.4387582}, {"type": "node", "id": 4554603170, "lat": 41.2679599, "lon": 31.4389513}, {"type": "node", "id": 4554603171, "lat": 41.2680595, "lon": 31.4389614}, {"type": "node", "id": 4554603172, "lat": 41.2680706, "lon": 31.4387683}, {"type": "node", "id": 4554603425, "lat": 41.2722274, "lon": 31.439213}, {"type": "node", "id": 4554603426, "lat": 41.2719069, "lon": 31.4389958}, {"type": "node", "id": 4554603427, "lat": 41.2719526, "lon": 31.4388295}, {"type": "node", "id": 4554603428, "lat": 41.2722712, "lon": 31.4390459}, {"type": "node", "id": 4566916232, "lat": 41.2688357, "lon": 31.4479612}, {"type": "node", "id": 4566916233, "lat": 41.2687248, "lon": 31.4479853}, {"type": "node", "id": 4566916234, "lat": 41.2687188, "lon": 31.4480551}, {"type": "node", "id": 4566916235, "lat": 41.2688289, "lon": 31.4480611}, {"type": "node", "id": 4566916282, "lat": 41.2688197, "lon": 31.4539909}, {"type": "node", "id": 4566916283, "lat": 41.2686907, "lon": 31.4539587}, {"type": "node", "id": 4566916284, "lat": 41.2686826, "lon": 31.4540687}, {"type": "node", "id": 4566916285, "lat": 41.2687995, "lon": 31.4541009}, {"type": "node", "id": 4566916426, "lat": 41.273793, "lon": 31.4354568}, {"type": "node", "id": 4566916427, "lat": 41.2736297, "lon": 31.4355132}, {"type": "node", "id": 4566916428, "lat": 41.2736458, "lon": 31.4356339}, {"type": "node", "id": 4575205147, "lat": 41.2728839, "lon": 31.4214539}, {"type": "node", "id": 4575205148, "lat": 41.2747648, "lon": 31.4213869}, {"type": "node", "id": 4575205149, "lat": 41.2747613, "lon": 31.4212826}, {"type": "node", "id": 4575205150, "lat": 41.2728884, "lon": 31.421367}, {"type": "node", "id": 4575205214, "lat": 41.2753613, "lon": 31.429254}, {"type": "node", "id": 4575205215, "lat": 41.2752948, "lon": 31.4292111}, {"type": "node", "id": 4575205216, "lat": 41.2752061, "lon": 31.4293694}, {"type": "node", "id": 4575205217, "lat": 41.2752928, "lon": 31.4293935}, {"type": "node", "id": 4575205222, "lat": 41.2737721, "lon": 31.4354892}, {"type": "node", "id": 4623935290, "lat": 41.2757347, "lon": 31.4313407, "tags": {"amenity": "restaurant", "cuisine": "pizza", "name": "Pizza Venezzia", "phone": "322 11 11", "website": "http://pizzavenezzia.com/"}}, {"type": "node", "id": 4788869027, "lat": 41.2512921, "lon": 31.4311743, "tags": {"amenity": "restaurant", "name": "Yemek Fabrikas\u0131"}}, {"type": "node", "id": 5033449085, "lat": 41.2878734, "lon": 31.41025}, {"type": "node", "id": 5033449086, "lat": 41.2876128, "lon": 31.4104078}, {"type": "node", "id": 5033449087, "lat": 41.2877029, "lon": 31.4106712}, {"type": "node", "id": 5033449088, "lat": 41.2879635, "lon": 31.4105134}, {"type": "node", "id": 5033524838, "lat": 41.2814517, "lon": 31.4159256}, {"type": "node", "id": 5033524839, "lat": 41.2812834, "lon": 31.4161402}, {"type": "node", "id": 5033524840, "lat": 41.2813641, "lon": 31.4162523}, {"type": "node", "id": 5033524841, "lat": 41.2815324, "lon": 31.4160377}, {"type": "node", "id": 5033524865, "lat": 41.2799059, "lon": 31.4206602, "tags": {"amenity": "cafe"}}, {"type": "node", "id": 5033524877, "lat": 41.2810038, "lon": 31.4183317, "tags": {"amenity": "cafe"}}, {"type": "node", "id": 5033524878, "lat": 41.2810624, "lon": 31.4182036, "tags": {"amenity": "cafe"}}, {"type": "node", "id": 5033524879, "lat": 41.2811334, "lon": 31.4180689, "tags": {"amenity": "cafe"}}, {"type": "node", "id": 5853475646, "lat": 41.0876448, "lon": 31.1070406, "tags": {"amenity": "restaurant", "cuisine": "kebab;grill;meat", "name": "\u0130lla Et"}}, {"type": "node", "id": 6177042106, "lat": 41.0910546, "lon": 31.1468596}, {"type": "node", "id": 6177042107, "lat": 41.0909085, "lon": 31.1469441}, {"type": "node", "id": 6177042108, "lat": 41.0910607, "lon": 31.147315}, {"type": "node", "id": 6177042109, "lat": 41.0911833, "lon": 31.1472499}, {"type": "node", "id": 6184984465, "lat": 41.0903934, "lon": 31.1345792}, {"type": "node", "id": 6184984466, "lat": 41.0902236, "lon": 31.1345095}, {"type": "node", "id": 6184984467, "lat": 41.0901791, "lon": 31.1347992}, {"type": "node", "id": 6184984468, "lat": 41.0903691, "lon": 31.1348957}, {"type": "node", "id": 6188593022, "lat": 41.0899316, "lon": 31.1294685}, {"type": "node", "id": 6188593023, "lat": 41.0898503, "lon": 31.1294654}, {"type": "node", "id": 6188593024, "lat": 41.0898387, "lon": 31.1288554}, {"type": "node", "id": 6188593025, "lat": 41.0899107, "lon": 31.12884}, {"type": "node", "id": 6188593026, "lat": 41.0899641, "lon": 31.1272224}, {"type": "node", "id": 6188593027, "lat": 41.089848, "lon": 31.1272347}, {"type": "node", "id": 6188593028, "lat": 41.089834, "lon": 31.1268897}, {"type": "node", "id": 6188593029, "lat": 41.0899594, "lon": 31.126902}, {"type": "node", "id": 6188593030, "lat": 41.0899269, "lon": 31.1281036}, {"type": "node", "id": 6188593031, "lat": 41.0898642, "lon": 31.1280974}, {"type": "node", "id": 6188593032, "lat": 41.0898758, "lon": 31.1278571}, {"type": "node", "id": 6188593033, "lat": 41.0899385, "lon": 31.1278571}, {"type": "node", "id": 6799598468, "lat": 41.2828498, "lon": 31.4118159, "tags": {"access": "yes", "amenity": "restaurant", "name": "Bal\u0131k Lokantalar\u0131"}}, {"type": "node", "id": 6799617470, "lat": 41.2835411, "lon": 31.4146385, "tags": {"amenity": "restaurant", "check_date": "2025-02-16", "name": "G\u00fcverte Lokantas\u0131", "opening_hours": "24/7"}}, {"type": "node", "id": 6799624990, "lat": 41.2791419, "lon": 31.423567, "tags": {"amenity": "restaurant", "cuisine": "turkish", "name": "\u00c7orbac\u0131"}}, {"type": "node", "id": 7165030685, "lat": 41.0894729, "lon": 31.1224829, "tags": {"addr:postcode": "81650", "addr:street": "Yal\u0131 mahallesi misafir sokak", "amenity": "cafe", "cuisine": "international", "internet_access": "wlan", "name": "Alesta Bistro Kafe", "name:en": "Alesta Bistro Cafe", "opening_hours": "Mo-Su 08:00-00:00", "operator": "Ahmet \u0130NCEO\u011eLU", "phone": "0542 428 81 00"}}, {"type": "node", "id": 9167103452, "lat": 41.2808475, "lon": 31.4188729, "tags": {"amenity": "cafe", "name": "Kafe"}}, {"type": "node", "id": 9167103455, "lat": 41.280565, "lon": 31.4196648, "tags": {"amenity": "cafe", "check_date": "2025-02-16", "name": "Kafe"}}, {"type": "node", "id": 9171684402, "lat": 41.2667168, "lon": 31.4619882, "tags": {"amenity": "cafe", "name": "Kafe"}}, {"type": "node", "id": 10149169512, "lat": 41.2780142, "lon": 31.4239708, "tags": {"amenity": "restaurant", "cuisine": "steak_house", "name": "Ci\u011ferci Halit Usta"}}, {"type": "node", "id": 10156510934, "lat": 41.2775806, "lon": 31.4203563}, {"type": "node", "id": 10156510936, "lat": 41.2780082, "lon": 31.420512}, {"type": "node", "id": 10156510937, "lat": 41.2781511, "lon": 31.4202192}, {"type": "node", "id": 10156510938, "lat": 41.2781535, "lon": 31.4203788}, {"type": "node", "id": 10536809826, "lat": 41.2722119, "lon": 31.4390103}, {"type": "node", "id": 10536809827, "lat": 41.2722345, "lon": 31.4389253}, {"type": "node", "id": 10536809828, "lat": 41.2720764, "lon": 31.4388492}, {"type": "node", "id": 10536809829, "lat": 41.2720649, "lon": 31.4388733}, {"type": "node", "id": 10536809830, "lat": 41.2719623, "lon": 31.439023}, {"type": "node", "id": 10536809831, "lat": 41.2719477, "lon": 31.4390697}, {"type": "node", "id": 10536809832, "lat": 41.2719995, "lon": 31.4391673}, {"type": "node", "id": 10536809833, "lat": 41.2720899, "lon": 31.4392134}, {"type": "node", "id": 10536809834, "lat": 41.2721069, "lon": 31.4391614}, {"type": "node", "id": 10672267260, "lat": 41.2836662, "lon": 31.4129019, "tags": {"amenity": "cafe", "name": "Espresso Lab"}}, {"type": "node", "id": 10962873337, "lat": 41.2669238, "lon": 31.4629605, "tags": {"amenity": "restaurant", "name": "Pide salonu"}}, {"type": "node", "id": 10962873338, "lat": 41.2674704, "lon": 31.4613761, "tags": {"amenity": "cafe", "name": "Kahvehane"}}, {"type": "node", "id": 10962873356, "lat": 41.2850951, "lon": 31.414109, "tags": {"amenity": "cafe", "name": "Kafe"}}, {"type": "node", "id": 11010230631, "lat": 41.0859255, "lon": 31.1016817, "tags": {"addr:city": "D\u00fczce", "addr:district": "Ak\u00e7akoca", "addr:postcode": "81650", "addr:street": "Hac\u0131 Yusuflar", "amenity": "restaurant", "name": "Gurme Restaurant & Camping", "opening_hours": "Mo-Su 08:00-02:00", "phone": "+90 544 395 6024", "website": "https://www.gurmerestaurant.com/"}}, {"type": "node", "id": 12260938315, "lat": 41.2787918, "lon": 31.422168}, {"type": "node", "id": 12260938316, "lat": 41.2787423, "lon": 31.4222728}, {"type": "node", "id": 12260938317, "lat": 41.278837, "lon": 31.4223393}, {"type": "node", "id": 12260938318, "lat": 41.2788758, "lon": 31.422323}, {"type": "node", "id": 12260938319, "lat": 41.2788939, "lon": 31.4222862}, {"type": "node", "id": 12260938320, "lat": 41.278886, "lon": 31.4222402}, {"type": "node", "id": 12260938323, "lat": 41.275621, "lon": 31.4307953}, {"type": "node", "id": 12260938324, "lat": 41.2755516, "lon": 31.431035}, {"type": "node", "id": 12260938325, "lat": 41.2754302, "lon": 31.4309968}, {"type": "node", "id": 12260938326, "lat": 41.2754766, "lon": 31.4308002}, {"type": "node", "id": 12260938327, "lat": 41.2755284, "lon": 31.430815}, {"type": "node", "id": 12260938328, "lat": 41.2755437, "lon": 31.430762}, {"type": "node", "id": 12260938342, "lat": 41.2719305, "lon": 31.4391291}, {"type": "node", "id": 12290226221, "lat": 41.2837612, "lon": 31.4128484, "tags": {"amenity": "cafe", "name": "Espressolab"}}, {"type": "node", "id": 12290226222, "lat": 41.2843091, "lon": 31.4127965}, {"type": "node", "id": 12290226223, "lat": 41.2841074, "lon": 31.4124579}, {"type": "node", "id": 12290226224, "lat": 41.2839477, "lon": 31.412598}, {"type": "node", "id": 12290226225, "lat": 41.283985, "lon": 31.4126965}, {"type": "node", "id": 12290226226, "lat": 41.2840045, "lon": 31.4127339}, {"type": "node", "id": 12290226227, "lat": 41.2841056, "lon": 31.4126681}, {"type": "node", "id": 12290226228, "lat": 41.28426, "lon": 31.4129366}, {"type": "node", "id": 12307237144, "lat": 41.2740511, "lon": 31.435405, "tags": {"amenity": "restaurant", "cuisine": "pizza", "name": "Pizza Venezzia", "phone": "322 11 11", "website": "http://pizzavenezzia.com/"}}, {"type": "node", "id": 12307237212, "lat": 41.2754792, "lon": 31.4287549, "tags": {"amenity": "restaurant", "cuisine": "pizza", "name": "Terra Pizza"}}, {"type": "node", "id": 12309381688, "lat": 41.2813937, "lon": 31.4175312, "tags": {"amenity": "restaurant", "cuisine": "italian", "name": "Danilo's Pizza"}}, {"type": "node", "id": 12309381689, "lat": 41.2813219, "lon": 31.4176533, "tags": {"amenity": "cafe", "name": "Limoon Waffle House"}}, {"type": "node", "id": 12312528517, "lat": 41.280752, "lon": 31.4191122, "tags": {"amenity": "restaurant", "cuisine": "pizza", "name": "Big Daddy"}}, {"type": "node", "id": 12334348729, "lat": 41.2841854, "lon": 31.4125888}, {"type": "node", "id": 12344348439, "lat": 41.0856567, "lon": 31.1772162, "tags": {"amenity": "restaurant", "brand": "K\u00f6fteci Yusuf", "brand:wikidata": "Q126125081", "cuisine": "turkish", "name": "K\u00f6fteci Yusuf"}}, {"type": "node", "id": 12453583871, "lat": 41.28039, "lon": 31.4207471, "tags": {"amenity": "restaurant", "cuisine": "japanese", "name": "\u015eems Sushi"}}, {"type": "node", "id": 12569822397, "lat": 41.2760196, "lon": 31.4281517, "tags": {"amenity": "restaurant", "cuisine": "turkish", "name": "Me\u015fhur Hasan Kuru Pide Salonu"}}, {"type": "node", "id": 12581799782, "lat": 41.0856149, "lon": 31.1771155, "tags": {"amenity": "cafe", "indoor_seating": "yes", "name": "Brew House", "operator": "Brew House", "outdoor_seating": "yes", "smoking": "yes", "takeaway": "yes", "toilets": "no", "wheelchair": "limited"}}, {"type": "node", "id": 12581874344, "lat": 41.086396, "lon": 31.1784101, "tags": {"air_conditioning": "yes", "amenity": "cafe", "changing_table": "no", "indoor_seating": "yes", "name": "Undan Kale", "smoking": "yes", "takeaway": "no", "wheelchair": "yes"}}, {"type": "node", "id": 12649967934, "lat": 41.2924266, "lon": 31.4137498, "tags": {"amenity": "restaurant", "name": "Acheron Restaurant"}}, {"type": "node", "id": 12908594324, "lat": 41.0880649, "lon": 31.1634833}, {"type": "node", "id": 12908594325, "lat": 41.0881178, "lon": 31.1635727}, {"type": "node", "id": 12908594326, "lat": 41.088297, "lon": 31.1635507}, {"type": "node", "id": 12908594327, "lat": 41.0881582, "lon": 31.1632936}, {"type": "way", "id": 233318155, "nodes": [2417028707, 2417028726, 10156510934, 2417028702, 2417028715, 2417028707], "tags": {"amenity": "cafe", "building": "yes", "name": "Kahverengi Kafe"}}, {"type": "way", "id": 233318159, "nodes": [2417028701, 2417028750, 2417028748, 2417028736, 2417028701], "tags": {"amenity": "cafe", "building": "yes", "name": "Pastel Kafe"}}, {"type": "way", "id": 233318161, "nodes": [2417028719, 10156510936, 2417028725, 2417028728, 2417028720, 10156510938, 10156510937, 2417028719], "tags": {"amenity": "cafe", "building": "yes", "name": "L\u00e2l Kafe"}}, {"type": "way", "id": 459664324, "nodes": [4554603172, 4554603171, 4554603170, 4554603169, 4554603172], "tags": {"amenity": "cafe", "building": "yes", "name": "Kahvehane"}}, {"type": "way", "id": 459664388, "nodes": [4554603428, 4554603425, 10536809834, 10536809833, 10536809832, 12260938342, 10536809831, 10536809830, 4554603426, 4554603427, 10536809829, 10536809828, 10536809827, 10536809826, 4554603428], "tags": {"amenity": "restaurant", "building": "yes", "cuisine": "turkish", "name": "Ba\u011fl\u0131k Kantini"}}, {"type": "way", "id": 461147638, "nodes": [4566916232, 4566916233, 4566916234, 4566916235, 4566916232], "tags": {"amenity": "cafe", "building": "yes", "name": "Kafe"}}, {"type": "way", "id": 461147649, "nodes": [4566916282, 4566916283, 4566916284, 4566916285, 4566916282], "tags": {"amenity": "cafe", "building": "yes", "name": "Kafe"}}, {"type": "way", "id": 461147683, "nodes": [4566916426, 4566916427, 4566916428, 4575205222, 4566916426], "tags": {"amenity": "cafe", "building": "yes", "name": "Kafe"}}, {"type": "way", "id": 462121012, "nodes": [4575205147, 4575205148, 4575205149, 4575205150, 4575205147], "tags": {"amenity": "cafe", "building": "yes", "name": "Kafe"}}, {"type": "way", "id": 462121029, "nodes": [4575205214, 4575205215, 4575205216, 4575205217, 4575205214], "tags": {"amenity": "cafe", "branch": "Coffee House", "building": "yes", "name": "Arabica Coffee House", "not:brand:wikidata": "Q107639197"}}, {"type": "way", "id": 515389250, "nodes": [5033449085, 5033449086, 5033449087, 5033449088, 5033449085], "tags": {"amenity": "cafe", "building": "yes", "check_date": "2025-02-16", "cuisine": "coffee_shop", "internet_access": "yes", "internet_access:fee": "no", "name": "Sevgi Bar\u0131\u015f Dostluk(SBD) Kafe", "outdoor_seating": "yes", "smoking": "outside"}}, {"type": "way", "id": 515397310, "nodes": [5033524838, 5033524839, 5033524840, 5033524841, 5033524838], "tags": {"amenity": "cafe", "building": "yes", "cuisine": "coffee_shop", "internet_access": "yes", "internet_access:fee": "no", "name": "Piramit Kafe", "outdoor_seating": "yes", "smoking": "isolated"}}, {"type": "way", "id": 659764857, "nodes": [6177042106, 6177042107, 6177042108, 6177042109, 6177042106], "tags": {"amenity": "restaurant", "building": "yes", "cuisine": "turkish"}}, {"type": "way", "id": 660608716, "nodes": [6184984465, 6184984466, 6184984467, 6184984468, 6184984465], "tags": {"amenity": "cafe", "building": "yes"}}, {"type": "way", "id": 661014403, "nodes": [6188593022, 6188593023, 6188593024, 6188593025, 6188593022], "tags": {"amenity": "restaurant", "building": "yes", "cuisine": "seafood"}}, {"type": "way", "id": 661014404, "nodes": [6188593026, 6188593027, 6188593028, 6188593029, 6188593026], "tags": {"amenity": "restaurant", "building": "yes", "cuisine": "seafood"}}, {"type": "way", "id": 661014405, "nodes": [6188593030, 6188593031, 6188593032, 6188593033, 6188593030], "tags": {"amenity": "restaurant", "building": "yes", "cuisine": "seafood"}}, {"type": "way", "id": 1324976276, "nodes": [12260938315, 12260938316, 12260938317, 12260938318, 12260938319, 12260938320, 12260938315], "tags": {"amenity": "cafe", "brand": "Mado", "brand:wikidata": "Q17116336", "building": "yes", "cuisine": "coffee_shop", "name": "Mado", "takeaway": "yes"}}, {"type": "way", "id": 1324976277, "nodes": [12260938323, 12260938324, 12260938325, 12260938326, 12260938327, 12260938328, 12260938323], "tags": {"amenity": "cafe", "building": "yes", "name": "Colombia Cafe"}}, {"type": "way", "id": 1328390308, "nodes": [12290226222, 12334348729, 12290226223, 12290226224, 12290226225, 12290226226, 12290226227, 12290226228, 12290226222], "tags": {"amenity": "restaurant", "building": "yes", "cuisine": "turkish", "name": "Bozhane Kafeterya"}}, {"type": "way", "id": 1394449712, "nodes": [12908594324, 12908594325, 12908594326, 12908594327, 12908594324], "tags": {"amenity": "cafe", "building": "yes"}}]}