{"version": 0.6, "generator": "Overpass API 0.7.62.7 375dc00a", "osm3s": {"timestamp_osm_base": "2025-06-14T13:54:29Z", "copyright": "The data included in this document is from www.openstreetmap.org. The data is made available under ODbL."}, "elements": [{"type": "node", "id": 2597362582, "lat": 32.3247434, "lon": 15.1104457, "tags": {"addr:street": "\u0627\u0644\u0637\u0631\u064a\u0642 \u0627\u0644\u0633\u0627\u062d\u0644\u064a \u0645\u0635\u0631\u0627\u062a\u0647-\u0633\u0631\u062a Misrata-Sirte", "amenity": "restaurant", "name": "\u0645\u0637\u0639\u0645 \u0627\u0644\u062d\u0631\u064a\u0629 \u0644\u0644\u0645\u0623\u0643\u0648\u0644\u0627\u062a \u0627\u0644\u062a\u0631\u0643\u064a\u0629", "name:ar": "\u0645\u0637\u0639\u0645 \u0627\u0644\u062d\u0631\u064a\u0629 \u0644\u0644\u0645\u0623\u0643\u0648\u0644\u0627\u062a \u0627\u0644\u062a\u0631\u0643\u064a\u0629", "name:en": "Alhorria restaurant for Turkish Dishes"}}, {"type": "node", "id": 4131735393, "lat": 32.2585852, "lon": 14.8727428, "tags": {"amenity": "cafe", "cuisine": "arab", "internet_access": "wlan", "name": "\u0645\u0642\u0647\u064a \u0648\u0645\u0637\u0639\u0645 \u0627\u0644\u0633\u062f\u064a\u0631", "name:ar": "\u0645\u0642\u0647\u064a \u0648\u0645\u0637\u0639\u0645 \u0627\u0644\u0633\u062f\u064a\u0631", "opening_hours": "Mo-Su 10:00-23:00"}}, {"type": "node", "id": 4586021989, "lat": 32.3024621, "lon": 15.0849313, "tags": {"amenity": "cafe", "internet_access": "wlan", "name": "\u0645\u0642\u0647\u0649 \u0645\u0632\u0627\u062c", "name:ar": "\u0645\u0642\u0647\u0649 \u0645\u0632\u0627\u062c", "name:en": "caffe mazag"}}, {"type": "node", "id": 4692320223, "lat": 32.316773, "lon": 14.9904712, "tags": {"amenity": "cafe", "name": "\u0643\u0627\u0641\u064a \u0627\u0644\u0633\u0643\u062a", "name:ar": "\u0643\u0627\u0641\u064a \u0627\u0644\u0633\u0643\u062a", "name:en": "Seket Cafe"}}, {"type": "node", "id": 6120851829, "lat": 32.3021723, "lon": 15.0844142, "tags": {"amenity": "cafe", "name": "\u0639\u0635\u0627\u0626\u0631 \u0637\u0628\u064a\u0639\u064a\u0629", "name:ar": "\u0639\u0635\u0627\u0626\u0631 \u0637\u0628\u064a\u0639\u064a\u0629", "name:en": "Natural juices"}}]}