{"version": 0.6, "generator": "Overpass API 0.7.62.7 375dc00a", "osm3s": {"timestamp_osm_base": "2025-06-14T15:11:00Z", "copyright": "The data included in this document is from www.openstreetmap.org. The data is made available under ODbL."}, "elements": [{"type": "node", "id": 4526787294, "lat": 36.1479492, "lon": 33.3272467, "tags": {"amenity": "restaurant", "name": "Akdeniz"}}, {"type": "node", "id": 5471000721, "lat": 36.1362426, "lon": 33.2962448, "tags": {"amenity": "restaurant", "name": "\u00c7a\u011flar Restaurant"}}, {"type": "node", "id": 5471028121, "lat": 36.157094, "lon": 33.4828654, "tags": {"amenity": "restaurant", "name": "A\u011fa\u00e7l\u0131 Dinlenme Tesisleri"}}, {"type": "node", "id": 9916939303, "lat": 36.1549859, "lon": 33.3552838, "tags": {"amenity": "restaurant", "cuisine": "kebab", "name": "Mahir Usta Aile Lokantas\u0131"}}, {"type": "node", "id": 10108533363, "lat": 36.2780471, "lon": 33.378678, "tags": {"amenity": "cafe", "name": "Menek\u015fe Ma\u011faras\u0131"}}, {"type": "node", "id": 10178074420, "lat": 36.1364271, "lon": 33.1699045, "tags": {"amenity": "restaurant"}}]}