{"version": 0.6, "generator": "Overpass API 0.7.62.7 375dc00a", "osm3s": {"timestamp_osm_base": "2025-06-14T13:49:28Z", "copyright": "The data included in this document is from www.openstreetmap.org. The data is made available under ODbL."}, "elements": [{"type": "node", "id": 4409804791, "lat": 32.6330558, "lon": 12.7839205, "tags": {"addr:street": "\u0628\u064a\u0631 \u0628\u0646 \u062d\u0633\u0646", "amenity": "cafe", "internet_access": "wlan", "name": "\u0642\u0647\u0648\u0629 \u062c\u0645\u0627\u0644 \u0627\u0644\u0645\u0631\u064a\u0636", "name:ar": "\u0642\u0647\u0648\u0629 \u062c\u0645\u0627\u0644 \u0627\u0644\u0645\u0631\u064a\u0636"}}, {"type": "node", "id": 6278659887, "lat": 32.564232, "lon": 13.0234361, "tags": {"amenity": "restaurant", "name": "\u0642\u0647\u0648\u0629 \u0648\u0631\u0634\u0641\u0627\u0646\u0629", "name:ar": "\u0642\u0647\u0648\u0629 \u0648\u0631\u0634\u0641\u0627\u0646\u0629", "name:en": "Cafe"}}, {"type": "node", "id": 6640377593, "lat": 32.5375158, "lon": 13.016871, "tags": {"amenity": "restaurant", "name": "\u0645\u0637\u0639\u0645 \u0627\u0644\u0645\u0635\u0631\u064a \u0644\u0644\u0648\u062c\u0628\u0627\u062a \u0627\u0644\u0634\u0639\u0628\u064a\u0629", "name:ar": "\u0645\u0637\u0639\u0645 \u0627\u0644\u0645\u0635\u0631\u064a \u0644\u0644\u0648\u062c\u0628\u0627\u062a \u0627\u0644\u0634\u0639\u0628\u064a\u0629", "name:en": "Restaurant Libyan Food"}}, {"type": "node", "id": 6641207185, "lat": 32.5519198, "lon": 13.0210328, "tags": {"amenity": "restaurant", "name": "\u0645\u0637\u0639\u0645 \u0627\u0644\u0648\u0644\u064a\u0645\u0629", "name:ar": "\u0645\u0637\u0639\u0645 \u0627\u0644\u0648\u0644\u064a\u0645\u0629", "name:en": "Al Walimah Restaurant", "phone": "092-4945138"}}, {"type": "node", "id": 6641207385, "lat": 32.5532025, "lon": 13.0221522, "tags": {"amenity": "cafe", "name": "\u0643\u0627\u0641\u064a \u0627\u0644\u062f\u064a\u0648\u0627\u0646", "name:ar": "\u0643\u0627\u0641\u064a \u0627\u0644\u062f\u064a\u0648\u0627\u0646", "name:en": "Al Diwan Cafe"}}, {"type": "node", "id": 7914021185, "lat": 32.5566377, "lon": 13.0228081, "tags": {"amenity": "restaurant"}}, {"type": "node", "id": 8531165817, "lat": 32.6217672, "lon": 13.0380365, "tags": {"amenity": "cafe", "name": "\u0643\u0627\u0641\u064a \u0643\u0648\u0633\u062a\u0627", "name:en": "Costa Cafe"}}, {"type": "node", "id": 8531338417, "lat": 32.4484755, "lon": 12.7374662, "tags": {"amenity": "cafe", "name": "\u0634\u0627\u0647\u064a \u0628\u0627\u0644\u0644\u0648\u0632", "name:en": "Tea"}}, {"type": "node", "id": 9932116526, "lat": 32.2530117, "lon": 13.0438363, "tags": {"amenity": "cafe"}}, {"type": "node", "id": 9932116528, "lat": 32.2534476, "lon": 13.0433508, "tags": {"amenity": "restaurant"}}, {"type": "node", "id": 9932116531, "lat": 32.2428821, "lon": 13.0480632, "tags": {"amenity": "cafe", "name": "\u0645\u0642\u0647\u064a \u0648 \u0627\u0631\u0642\u064a\u0644\u0629"}}, {"type": "node", "id": 9932116538, "lat": 32.2436505, "lon": 13.0480942, "tags": {"amenity": "restaurant"}}, {"type": "node", "id": 9934670725, "lat": 32.5136983, "lon": 13.0012088, "tags": {"amenity": "restaurant"}}, {"type": "node", "id": 9934670726, "lat": 32.5006879, "lon": 12.9864232, "tags": {"amenity": "restaurant"}}, {"type": "node", "id": 12888584004, "lat": 32.6168166, "lon": 13.0375704, "tags": {"addr:city": "\u0627\u0627\u0644\u0633\u0627\u0639\u062f\u064a\u0629", "addr:postcode": "J28Q+P3 \u0634\u0647\u062f\u0627\u0621 \u0623\u0648\u0644\u0627\u062f \u0639\u0637\u064a\u0629", "addr:street": "\u0637\u0631\u0627\u0628\u0644\u0633-\u063a\u0631\u064a\u0627\u0646", "amenity": "restaurant", "cuisine": "pizza;burger;chicken;regional;ice_cream", "loc_name": "\u0633\u0628\u0627\u062a\u0648\u0646\u064a\u0627", "name": "\u0645\u0637\u0639\u0645 \u0633\u0628\u0627\u062a\u0648\u0646\u064a\u0627 Sabatonia", "opening_hours": "24/7", "phone": "0940052525", "website": "https://www.facebook.com/share/1KiACsSbxq/"}}, {"type": "node", "id": 12903465621, "lat": 32.2039225, "lon": 12.8789255, "tags": {"amenity": "cafe"}}]}