{"version": 0.6, "generator": "Overpass API 0.7.62.7 375dc00a", "osm3s": {"timestamp_osm_base": "2025-06-14T15:09:55Z", "copyright": "The data included in this document is from www.openstreetmap.org. The data is made available under ODbL."}, "elements": [{"type": "node", "id": 2632195598, "lat": 41.9518622, "lon": 34.3938801, "tags": {"amenity": "restaurant", "cuisine": "regional", "name": "Tourisitik Tessisleri"}}, {"type": "node", "id": 3050697561, "lat": 41.9457413, "lon": 34.2779311, "tags": {"amenity": "restaurant"}}, {"type": "node", "id": 5078773517, "lat": 41.9780622, "lon": 34.048917, "tags": {"amenity": "cafe", "cuisine": "turkish", "name": "Hac\u0131veli Kona\u011f\u0131", "tourism": "viewpoint"}}, {"type": "node", "id": 7070724988, "lat": 41.9483995, "lon": 34.585197, "tags": {"amenity": "restaurant", "name": "Firuze"}}, {"type": "node", "id": 10128519973, "lat": 41.6260977, "lon": 34.465001, "tags": {"amenity": "restaurant", "name": "Ehli Sultan Sofras\u0131"}}, {"type": "node", "id": 10128519985, "lat": 41.6253078, "lon": 34.4629788, "tags": {"amenity": "cafe", "name": "Karde\u015fler Lokantas\u0131"}}]}