{"version": 0.6, "generator": "Overpass API 0.7.62.7 375dc00a", "osm3s": {"timestamp_osm_base": "2025-06-14T13:16:00Z", "copyright": "The data included in this document is from www.openstreetmap.org. The data is made available under ODbL."}, "elements": [{"type": "node", "id": 440070958, "lat": 39.8396837, "lon": 4.2987777, "tags": {"amenity": "restaurant"}}, {"type": "node", "id": 457701995, "lat": 39.8331017, "lon": 4.3013285, "tags": {"amenity": "restaurant", "name": "Restaurante Reina Isabel"}}, {"type": "node", "id": 457701997, "lat": 39.8329759, "lon": 4.3016704, "tags": {"amenity": "restaurant", "name": "El Pirata Bar"}}, {"type": "node", "id": 472429180, "lat": 39.8167844, "lon": 4.2429376, "tags": {"amenity": "restaurant", "check_date": "2025-05-23", "name": "Paupa", "outdoor_seating": "yes", "payment:credit_cards": "yes", "payment:debit_cards": "yes"}}, {"type": "node", "id": 494158684, "lat": 39.8162207, "lon": 4.2450002, "tags": {"addr:city": "Binibeca", "addr:housenumber": "19", "addr:postcode": "07711", "addr:street": "Passeig dels Porxos", "amenity": "restaurant", "cuisine": "regional", "name": "Restaurante D.P. Cala Torret"}}, {"type": "node", "id": 517866884, "lat": 39.8147168, "lon": 4.2814985, "tags": {"addr:housenumber": "25", "addr:postcode": "07713", "addr:street": "Passeig de s'Arenal", "amenity": "restaurant"}}, {"type": "node", "id": 517866887, "lat": 39.8147626, "lon": 4.2817698, "tags": {"amenity": "restaurant", "name": "Faro", "name:ca": "Faro"}}, {"type": "node", "id": 517866893, "lat": 39.8143826, "lon": 4.2798705, "tags": {"addr:housenumber": "5", "addr:postcode": "07713", "addr:street": "Passeig de s'Arenal", "amenity": "restaurant", "name": "Restaurante Manolo", "source": "survey"}}, {"type": "node", "id": 517866895, "lat": 39.8141191, "lon": 4.2805364, "tags": {"addr:housenumber": "4", "addr:postcode": "07713", "addr:street": "Passeig de s'Arenal", "amenity": "restaurant", "cuisine": "regional", "name": "Bar Restaurante Noray", "source": "survey+bing"}}, {"type": "node", "id": 517866904, "lat": 39.8144754, "lon": 4.2805744, "tags": {"addr:housenumber": "9", "addr:postcode": "07713", "addr:street": "Passeig de s'Arenal", "amenity": "restaurant", "name": "Ca'n Santi", "source": "survey"}}, {"type": "node", "id": 520849887, "lat": 39.874974, "lon": 4.2952364, "tags": {"amenity": "restaurant"}}, {"type": "node", "id": 520850162, "lat": 39.8742494, "lon": 4.2985838, "tags": {"amenity": "restaurant"}}, {"type": "node", "id": 521902448, "lat": 39.8708909, "lon": 4.2586516, "tags": {"amenity": "restaurant", "name": "S'Aturadeta Jardins", "source": "survey"}}, {"type": "node", "id": 522747710, "lat": 39.834233, "lon": 4.2966599, "tags": {"addr:housenumber": "34", "addr:postcode": "07713", "addr:street": "Avinguda 1\u00aa", "amenity": "restaurant", "cuisine": "asian", "name": "Restaurant Asia"}}, {"type": "node", "id": 533615886, "lat": 39.8247988, "lon": 4.224691, "tags": {"amenity": "restaurant", "bar": "yes", "check_date": "2025-05-24", "name": "Club Nautico Binisafua", "outdoor_seating": "yes", "payment:credit_cards": "yes", "payment:debit_cards": "yes"}}, {"type": "node", "id": 627187148, "lat": 39.8297647, "lon": 4.2962656, "tags": {"addr:housenumber": "17", "addr:postcode": "07713", "addr:street": "Carrer de Xaloc", "amenity": "restaurant", "name": "Piccolo Mundo"}}, {"type": "node", "id": 805320056, "lat": 39.8508865, "lon": 4.2578788, "tags": {"addr:housenumber": "24", "addr:postcode": "07711", "addr:street": "Carrer de Sant Llu\u00eds", "amenity": "restaurant", "name": "S'Olivera", "name:ca": "S'Olivera"}}, {"type": "node", "id": 805320070, "lat": 39.8506153, "lon": 4.2578874, "tags": {"addr:housenumber": "30", "addr:postcode": "07711", "addr:street": "Carrer de Sant Llu\u00eds", "amenity": "restaurant", "cuisine": "regional", "name": "La Rueda"}}, {"type": "node", "id": 959555408, "lat": 39.8896723, "lon": 4.2671559, "tags": {"addr:housenumber": "18-20", "addr:street": "Moll de Llevant", "amenity": "restaurant", "cuisine": "regional", "name": "Ca'n Juanet"}}, {"type": "node", "id": 959555414, "lat": 39.8895952, "lon": 4.2699591, "tags": {"addr:housenumber": "91", "addr:street": "Moll de Llevant", "amenity": "restaurant", "name": "La Minerva", "source": "survey"}}, {"type": "node", "id": 960198874, "lat": 39.8496982, "lon": 4.2579607, "tags": {"addr:housenumber": "56", "addr:postcode": "07711", "addr:street": "Carrer de Sant Llu\u00eds", "amenity": "restaurant", "name": "La Bolla"}}, {"type": "node", "id": 1457172844, "lat": 39.8804264, "lon": 4.2914445, "tags": {"addr:housenumber": "19", "addr:postcode": "07720", "addr:street": "Carrer de Victori", "amenity": "restaurant", "cuisine": "sandwich;burger;regional;spanish", "description": "Uno de los locales veteranos de Es Castell para comer y tomar cervezas", "diet:non-vegetarian": "yes", "name": "Bar Camacho", "source": "survey"}}, {"type": "node", "id": 1464545446, "lat": 39.879958, "lon": 4.2912937, "tags": {"addr:housenumber": "10", "addr:postcode": "07720", "addr:street": "Carrer Calasfonts", "amenity": "cafe", "name": "Mos Art", "name:ca": "Mos Art", "source": "survey", "wifi": "no"}}, {"type": "node", "id": 1471806607, "lat": 39.8721037, "lon": 4.2082065, "tags": {"amenity": "restaurant", "name": "Es Casino"}}, {"type": "node", "id": 1665498778, "lat": 39.9501694, "lon": 4.2679358}, {"type": "node", "id": 1665498811, "lat": 39.9501609, "lon": 4.2677885}, {"type": "node", "id": 1665498905, "lat": 39.9500754, "lon": 4.2677993}, {"type": "node", "id": 1674677477, "lat": 39.8792489, "lon": 4.293901, "tags": {"addr:housenumber": "38", "addr:postcode": "07720", "addr:street": "Moll de Calasfonts", "amenity": "restaurant", "name": "Can Delio"}}, {"type": "node", "id": 1674684852, "lat": 39.8792178, "lon": 4.2948262, "tags": {"addr:housenumber": "46-47", "addr:postcode": "07720", "addr:street": "Moll de Calasfonts", "amenity": "cafe", "name": "Chespir"}}, {"type": "node", "id": 1674685215, "lat": 39.8790676, "lon": 4.2932679, "tags": {"addr:housenumber": "27", "addr:postcode": "07720", "addr:street": "Moll de Calasfonts", "amenity": "restaurant", "name": "Pizzeria La Lola"}}, {"type": "node", "id": 1674685664, "lat": 39.8775908, "lon": 4.2901488, "tags": {"amenity": "restaurant", "name": "Boomerang"}}, {"type": "node", "id": 1674686703, "lat": 39.8807565, "lon": 4.2870374, "tags": {"addr:street": "Carrer Gran", "amenity": "restaurant", "name": "Sa Llesca"}}, {"type": "node", "id": 1677701348, "lat": 39.8809503, "lon": 4.2870371, "tags": {"amenity": "cafe", "name": "Es Castell Kebab Bar"}}, {"type": "node", "id": 1677703433, "lat": 39.8803843, "lon": 4.288829, "tags": {"addr:city": "Es Castells", "addr:postcode": "07720", "addr:street": "Calle Cala Corb 21", "amenity": "restaurant", "cuisine": "regional;tapas;churros;paellas", "name": "Cas Pintor", "note": "Platos combinados, paella los domingos y churros los fines de samana", "opening_hours": "09:00-10:00"}}, {"type": "node", "id": 1677708124, "lat": 39.8793777, "lon": 4.2895906, "tags": {"addr:country": "ES", "amenity": "cafe", "name": "Ca Na Maru", "opening_hours": "Mo-Fr 06:00-14:00,16:30-20:30; Sa 06:00-14:00"}}, {"type": "node", "id": 1677721096, "lat": 39.8795538, "lon": 4.2892412, "tags": {"amenity": "cafe", "check_date:opening_hours": "2023-03-07", "name": "Bar Isla", "opening_hours:signed": "no"}}, {"type": "node", "id": 1677721097, "lat": 39.8788822, "lon": 4.2897958, "tags": {"amenity": "restaurant", "name": "Bar Espanya"}}, {"type": "node", "id": 1677721098, "lat": 39.881543, "lon": 4.2894833, "tags": {"amenity": "restaurant", "name": "Bar Picatapas"}}, {"type": "node", "id": 1677721099, "lat": 39.8789342, "lon": 4.2898588, "tags": {"amenity": "cafe", "name": "Ca n'Elena"}}, {"type": "node", "id": 1677721178, "lat": 39.8784556, "lon": 4.2924706, "tags": {"amenity": "restaurant", "cuisine": "japanese;chinese", "name": "Sushi Es Castell"}}, {"type": "node", "id": 1677722863, "lat": 39.8777969, "lon": 4.2907922, "tags": {"addr:housenumber": "37", "addr:postcode": "07720", "addr:street": "Carrer de Sant Josep", "amenity": "restaurant", "contact:facebook": "100067207010740", "cuisine": "fish;mediterranean;regional;spanish", "name": "Bahia", "opening_hours": "Mo-Su 20:00-01:00", "outdoor_seating": "yes", "phone": "+34 609 66 12 53", "self_service": "no"}}, {"type": "node", "id": 1677722872, "lat": 39.8777599, "lon": 4.2906688, "tags": {"amenity": "cafe"}}, {"type": "node", "id": 1677722873, "lat": 39.8782045, "lon": 4.2917471, "tags": {"amenity": "restaurant", "check_date:opening_hours": "2023-02-14", "name": "Cocoa", "opening_hours:signed": "no"}}, {"type": "node", "id": 1677722877, "lat": 39.8782401, "lon": 4.2922601, "tags": {"amenity": "restaurant", "cuisine": "pizza;italian", "name": "Rojo Pomodoro", "opening_hours": "PH,Th-Mo 19:30-24:00+"}}, {"type": "node", "id": 1677722878, "lat": 39.8779657, "lon": 4.291334, "tags": {"amenity": "cafe", "cuisine": "regional", "level": "0", "name": "Granja Es Castell", "outdoor_seating": "yes", "smoking": "outside", "toilets:access": "customers", "wheelchair": "no"}}, {"type": "node", "id": 1677722881, "lat": 39.8787067, "lon": 4.2908137, "tags": {"amenity": "cafe", "cuisine": "regional;sandwich;spanish", "name": "Bar Nou Toni", "opening_hours": "We-Mo 06:00-15:30"}}, {"type": "node", "id": 1728501651, "lat": 39.8868552, "lon": 4.2747077}, {"type": "node", "id": 1728501655, "lat": 39.8869497, "lon": 4.2748887}, {"type": "node", "id": 1728501681, "lat": 39.8869438, "lon": 4.274902}, {"type": "node", "id": 1738618270, "lat": 39.8831022, "lon": 4.2730227}, {"type": "node", "id": 1738618272, "lat": 39.8829772, "lon": 4.2732102}, {"type": "node", "id": 1738618287, "lat": 39.883071, "lon": 4.2732827}, {"type": "node", "id": 1738618289, "lat": 39.8830345, "lon": 4.2730852}, {"type": "node", "id": 1738618333, "lat": 39.8831672, "lon": 4.2730729}, {"type": "node", "id": 1738618444, "lat": 39.8830634, "lon": 4.2731074}, {"type": "node", "id": 1738621436, "lat": 39.8835248, "lon": 4.2723948}, {"type": "node", "id": 1738621443, "lat": 39.8838186, "lon": 4.2723478}, {"type": "node", "id": 1738621444, "lat": 39.8834755, "lon": 4.2727267}, {"type": "node", "id": 1738621445, "lat": 39.8834458, "lon": 4.2724628}, {"type": "node", "id": 1738621446, "lat": 39.8835814, "lon": 4.2724463}, {"type": "node", "id": 1738621447, "lat": 39.883832, "lon": 4.272278}, {"type": "node", "id": 1738621449, "lat": 39.883785, "lon": 4.272388}, {"type": "node", "id": 1738621450, "lat": 39.8838215, "lon": 4.272352}, {"type": "node", "id": 1738621451, "lat": 39.8835715, "lon": 4.2724324}, {"type": "node", "id": 1738621453, "lat": 39.8835524, "lon": 4.2724488}, {"type": "node", "id": 1738621454, "lat": 39.8838556, "lon": 4.2723111}, {"type": "node", "id": 1738621455, "lat": 39.8836459, "lon": 4.2725371}, {"type": "node", "id": 1751720137, "lat": 39.8896384, "lon": 4.2762598, "tags": {"addr:housenumber": "267", "addr:street": "Moll de Llevant", "amenity": "restaurant", "name": "S'Espig\u00f3", "name:ca": "S'Espig\u00f3"}}, {"type": "node", "id": 1751720227, "lat": 39.8906036, "lon": 4.2754628, "tags": {"addr:housenumber": "222", "amenity": "restaurant", "contact:email": "admin@restaurante222portmao.com", "cuisine": "regional", "name": "222", "phone": "+34 971 36 64 46"}}, {"type": "node", "id": 1752428092, "lat": 39.8884989, "lon": 4.2672148, "tags": {"amenity": "cafe", "name": "Miranda", "name:ca": "Miranda"}}, {"type": "node", "id": 1752428477, "lat": 39.8882704, "lon": 4.2669849, "tags": {"amenity": "cafe", "name": "princep"}}, {"type": "node", "id": 1752659718, "lat": 39.8883665, "lon": 4.2745005, "tags": {"amenity": "restaurant", "cuisine": "regional", "name": "Port Mahon"}}, {"type": "node", "id": 1753092257, "lat": 39.8903189, "lon": 4.2764445, "tags": {"addr:housenumber": "245", "addr:street": "Moll de Llevant", "amenity": "cafe", "name": "Amarre"}}, {"type": "node", "id": 1753092260, "lat": 39.8894153, "lon": 4.2759715, "tags": {"amenity": "restaurant", "cuisine": "regional", "name": "El Cachido"}}, {"type": "node", "id": 1753092264, "lat": 39.8898841, "lon": 4.271189, "tags": {"addr:housenumber": "122", "addr:street": "Moll de Llevant", "amenity": "restaurant", "cuisine": "regional", "name": "L'Arpo"}}, {"type": "node", "id": 1753092267, "lat": 39.8905282, "lon": 4.2752014, "tags": {"addr:housenumber": "218 - 220", "addr:street": "Moll de Llevant", "amenity": "restaurant", "cuisine": "italian", "name": "Pizza Pierro"}}, {"type": "node", "id": 1753092270, "lat": 39.8896789, "lon": 4.2702774, "tags": {"addr:housenumber": "96", "addr:street": "Moll de Llevant", "amenity": "restaurant", "cuisine": "italian", "name": "Pizzeria Giuletta & Romeo"}}, {"type": "node", "id": 1753092329, "lat": 39.8906365, "lon": 4.2759853}, {"type": "node", "id": 1753092332, "lat": 39.8889992, "lon": 4.2755546, "tags": {"amenity": "restaurant", "cuisine": "regional", "name": "Ses Salines", "name:ca": "Ses Salines"}}, {"type": "node", "id": 1755328610, "lat": 39.8890603, "lon": 4.2662482, "tags": {"amenity": "cafe", "name": "Cafe de sa Pla\u00e7a"}}, {"type": "node", "id": 1755328637, "lat": 39.8893406, "lon": 4.2629046, "tags": {"addr:housenumber": "14B", "addr:street": "Pla\u00e7a del Basti\u00f3", "amenity": "restaurant", "cuisine": "indian", "name": "Es Nassus", "phone": "+34 971 35 55 16"}}, {"type": "node", "id": 1755329245, "lat": 39.8892452, "lon": 4.2629357, "tags": {"addr:housenumber": "12", "addr:street": "Pla\u00e7a del Basti\u00f3", "amenity": "restaurant", "cuisine": "regional", "name": "Ca Murada"}}, {"type": "node", "id": 1756293306, "lat": 39.8478904, "lon": 4.2581016, "tags": {"addr:housenumber": "110", "addr:postcode": "07711", "addr:street": "Carrer de Sant Llu\u00eds", "amenity": "cafe", "name": "Es Mosset"}}, {"type": "node", "id": 1756445360, "lat": 39.8900585, "lon": 4.2765491, "tags": {"amenity": "restaurant", "cuisine": "italian", "name": "Opera", "phone": "+34 971 363 727"}}, {"type": "node", "id": 1756736156, "lat": 40.016732, "lon": 4.2003778, "tags": {"amenity": "restaurant", "cuisine": "regional", "name": "Acuario"}}, {"type": "node", "id": 1756736160, "lat": 40.0206505, "lon": 4.183151, "tags": {"amenity": "restaurant", "cuisine": "regional", "name": "Alcalde"}}, {"type": "node", "id": 1756736164, "lat": 40.0167482, "lon": 4.2005034, "tags": {"amenity": "restaurant", "cuisine": "italian", "name": "Biosphera"}}, {"type": "node", "id": 1756736168, "lat": 40.0163609, "lon": 4.200256, "tags": {"amenity": "restaurant", "name": "Na Macaret"}}, {"type": "node", "id": 1758984166, "lat": 39.8859149, "lon": 4.2723484, "tags": {"amenity": "restaurant", "cuisine": "regional", "name": "El Faro", "name:ca": "El Faro"}}, {"type": "node", "id": 1760403955, "lat": 39.8870413, "lon": 4.2725832, "tags": {"amenity": "restaurant", "cuisine": "regional", "name": "Royal"}}, {"type": "node", "id": 1760694462, "lat": 39.8841438, "lon": 4.2711134, "tags": {"addr:housenumber": "243", "addr:street": "Cami des Castell", "amenity": "restaurant", "cuisine": "regional", "name": "Virginia"}}, {"type": "node", "id": 1761484447, "lat": 39.8903577, "lon": 4.2648239, "tags": {"amenity": "restaurant", "cuisine": "regional", "name": "Pasarela", "phone": "+34 971 36 68 71"}}, {"type": "node", "id": 1763561833, "lat": 39.8895281, "lon": 4.2695346, "tags": {"addr:housenumber": "75", "addr:street": "Moll de Llevant", "amenity": "restaurant", "cuisine": "indian", "name": "Rainbow", "phone": "+34 971 364 393"}}, {"type": "node", "id": 1763561834, "lat": 39.8886107, "lon": 4.2754607, "tags": {"addr:housenumber": "295", "addr:street": "Moll de Llevant", "amenity": "restaurant", "cuisine": "pizza", "name": "Roma Pizza"}}, {"type": "node", "id": 1763561835, "lat": 39.8895134, "lon": 4.2760907, "tags": {"addr:housenumber": "274", "addr:street": "Moll de Llevant", "amenity": "restaurant", "cuisine": "japanese;asian", "name": "Thai Country", "name:ca": "Thai Country"}}, {"type": "node", "id": 1765379608, "lat": 39.879299, "lon": 4.295349, "tags": {"addr:city": "Es Castell", "addr:country": "ES", "addr:housenumber": "2", "addr:street": "Carrer de Calesfonts", "amenity": "restaurant", "cuisine": "regional", "mobile": "+34 690854671", "name": "Sa Punta Menorca", "website": "https://www.sapuntamenorca.com/"}}, {"type": "node", "id": 1765379609, "lat": 39.8792161, "lon": 4.2937221, "tags": {"addr:housenumber": "36", "addr:postcode": "07720", "addr:street": "Moll de Calasfonts", "amenity": "restaurant", "name": "Es Llenegall"}}, {"type": "node", "id": 1765379626, "lat": 39.8792195, "lon": 4.2945177, "tags": {"addr:housenumber": "44", "addr:postcode": "07720", "addr:street": "Moll de Calasfonts", "amenity": "restaurant", "cuisine": "italian", "name": "La Caprichosa"}}, {"type": "node", "id": 1765379627, "lat": 39.8787589, "lon": 4.2928912, "tags": {"addr:housenumber": "14-16", "addr:postcode": "07720", "addr:street": "Moll de Calasfonts", "amenity": "restaurant", "cuisine": "regional", "name": "Miramar", "name:ca": "Miramar"}}, {"type": "node", "id": 1765379636, "lat": 39.8792625, "lon": 4.2940346, "tags": {"addr:housenumber": "39", "addr:postcode": "07720", "addr:street": "Moll de Calasfonts", "amenity": "restaurant", "cuisine": "regional", "name": "Nou Siroco"}}, {"type": "node", "id": 1765380014, "lat": 39.8792339, "lon": 4.2943958, "tags": {"addr:housenumber": "43", "addr:postcode": "07720", "addr:street": "Moll de Calasfonts", "amenity": "restaurant", "cuisine": "seafood", "name": "Tr\u00e9bol", "phone": "+34 971 36 70 97", "website": "https://www.trebolmenorca.es"}}, {"type": "node", "id": 1765380041, "lat": 39.879276, "lon": 4.2951347, "tags": {"addr:housenumber": "52", "addr:postcode": "07720", "addr:street": "Moll de Calasfonts", "amenity": "restaurant", "cuisine": "regional", "name": "Vell Parrander"}}, {"type": "node", "id": 1765399102, "lat": 39.8782823, "lon": 4.2929358, "tags": {"addr:housenumber": "14", "addr:postcode": "07720", "addr:street": "Costa de Calesfonts", "amenity": "cafe", "name": "Cr\u00eaperie Pancake"}}, {"type": "node", "id": 1765399103, "lat": 39.8782652, "lon": 4.2930578, "tags": {"addr:housenumber": "18", "addr:postcode": "07720", "addr:street": "Costa de Calesfonts", "amenity": "restaurant", "cuisine": "regional", "name": "Dinkums"}}, {"type": "node", "id": 1765399141, "lat": 39.8786187, "lon": 4.2927272, "tags": {"addr:housenumber": "11", "addr:postcode": "07720", "addr:street": "Moll de Calasfonts", "amenity": "restaurant", "cuisine": "regional", "name": "Sa Barquets"}}, {"type": "node", "id": 1765399142, "lat": 39.8785726, "lon": 4.2926891, "tags": {"addr:housenumber": "9", "addr:postcode": "07720", "addr:street": "Moll de Calasfonts", "amenity": "restaurant", "name": "Sa Cala"}}, {"type": "node", "id": 1923516895, "lat": 39.9105132, "lon": 4.2914861, "tags": {"amenity": "restaurant", "cuisine": "spanish", "designation": "Tres forquilles", "name": "Restaurant Cap Roig"}}, {"type": "node", "id": 1925270916, "lat": 39.8655808, "lon": 4.2551376, "tags": {"amenity": "restaurant"}}, {"type": "node", "id": 1956582364, "lat": 39.8134532, "lon": 4.2793534, "tags": {"amenity": "restaurant"}}, {"type": "node", "id": 2038580210, "lat": 39.8121552, "lon": 4.2803806}, {"type": "node", "id": 2038580211, "lat": 39.8120749, "lon": 4.2804267}, {"type": "node", "id": 2038580213, "lat": 39.8120452, "lon": 4.280339}, {"type": "node", "id": 2038580214, "lat": 39.8120429, "lon": 4.2803404}, {"type": "node", "id": 2038580215, "lat": 39.8119888, "lon": 4.280194}, {"type": "node", "id": 2100253202, "lat": 39.8405548, "lon": 4.2554911, "tags": {"addr:housenumber": "3", "addr:postcode": "07710", "addr:street": "Cami de la Coixa", "amenity": "restaurant", "cuisine": "regional", "name": "Restaurante Pan Y Vino", "phone": "+34 971 15 02 01", "source": "survey+bing", "website": "https://www.panyvinomenorca.com/"}}, {"type": "node", "id": 2100292690, "lat": 39.8145082, "lon": 4.2807241, "tags": {"addr:housenumber": "11", "addr:postcode": "07713", "addr:street": "Passeig de s'Arenal", "amenity": "restaurant", "cuisine": "regional", "name": "Casa Ferm\u00edn", "source": "survey"}}, {"type": "node", "id": 2666122530, "lat": 39.8803464, "lon": 4.2905444, "tags": {"amenity": "restaurant", "name": "La Mar Salada", "source": "local knowledge"}}, {"type": "node", "id": 2666122538, "lat": 39.8786626, "lon": 4.2927692, "tags": {"addr:housenumber": "12", "addr:postcode": "07720", "addr:street": "Moll de Calasfonts", "amenity": "restaurant", "name": "Creper\u00eda Groucho", "source": "survey"}}, {"type": "node", "id": 2667723463, "lat": 39.8879954, "lon": 4.2647847, "tags": {"amenity": "cafe", "name": "Cafe Bar Andaluc\u00eda", "source": "survey"}}, {"type": "node", "id": 2671781645, "lat": 39.8291766, "lon": 4.292778, "tags": {"amenity": "restaurant", "contact:email": "info@xuroymenorca.com", "contact:phone": "+34 971 15 18 20", "name": "Xuroy", "source": "survey"}}, {"type": "node", "id": 2992796849, "lat": 39.8187624, "lon": 4.2826375}, {"type": "node", "id": 2992796867, "lat": 39.8187994, "lon": 4.2824782}, {"type": "node", "id": 2992796868, "lat": 39.8189201, "lon": 4.2825653}, {"type": "node", "id": 2992796869, "lat": 39.8188342, "lon": 4.2825091}, {"type": "node", "id": 2992796870, "lat": 39.8189074, "lon": 4.2826777}, {"type": "node", "id": 2992796871, "lat": 39.8189503, "lon": 4.2826004}, {"type": "node", "id": 2992796872, "lat": 39.8188725, "lon": 4.282741}, {"type": "node", "id": 2992796875, "lat": 39.8188787, "lon": 4.2823308}, {"type": "node", "id": 2992796876, "lat": 39.8189007, "lon": 4.2824177}, {"type": "node", "id": 2992796878, "lat": 39.8189095, "lon": 4.2824921}, {"type": "node", "id": 2992796879, "lat": 39.8189531, "lon": 4.2825954}, {"type": "node", "id": 2992796880, "lat": 39.818925, "lon": 4.2823749}, {"type": "node", "id": 2992796881, "lat": 39.818934, "lon": 4.2824486}, {"type": "node", "id": 2992796883, "lat": 39.8189427, "lon": 4.2825223}, {"type": "node", "id": 2992796885, "lat": 39.8189854, "lon": 4.2826348}, {"type": "node", "id": 2992861899, "lat": 39.8160521, "lon": 4.28337}, {"type": "node", "id": 2992861900, "lat": 39.8160619, "lon": 4.2834446}, {"type": "node", "id": 2992861901, "lat": 39.8160714, "lon": 4.2835184}, {"type": "node", "id": 2992861902, "lat": 39.8160863, "lon": 4.2834006}, {"type": "node", "id": 2992861903, "lat": 39.8160957, "lon": 4.2834754}, {"type": "node", "id": 2992861905, "lat": 39.8161119, "lon": 4.2835544}, {"type": "node", "id": 2992861906, "lat": 39.8161383, "lon": 4.2833083}, {"type": "node", "id": 2992861908, "lat": 39.8161486, "lon": 4.2834925}, {"type": "node", "id": 2992861909, "lat": 39.8161439, "lon": 4.2833136}, {"type": "node", "id": 2992861911, "lat": 39.8161692, "lon": 4.2832678}, {"type": "node", "id": 2992861912, "lat": 39.8161819, "lon": 4.2835232}, {"type": "node", "id": 2992861916, "lat": 39.8162234, "lon": 4.2833521}, {"type": "node", "id": 2992861917, "lat": 39.8162356, "lon": 4.2833304}, {"type": "node", "id": 2992861919, "lat": 39.8162587, "lon": 4.2833848}, {"type": "node", "id": 2992861929, "lat": 39.8166639, "lon": 4.2840263}, {"type": "node", "id": 2992861930, "lat": 39.8166824, "lon": 4.2841791}, {"type": "node", "id": 2992862733, "lat": 39.8166797, "lon": 4.2831658}, {"type": "node", "id": 2992862734, "lat": 39.8168496, "lon": 4.2841422}, {"type": "node", "id": 3037468692, "lat": 39.8164423, "lon": 4.2832151}, {"type": "node", "id": 3037468694, "lat": 39.816482, "lon": 4.2835333}, {"type": "node", "id": 3037468697, "lat": 39.8165262, "lon": 4.2835658}, {"type": "node", "id": 3037468698, "lat": 39.8165531, "lon": 4.2837831}, {"type": "node", "id": 3037468699, "lat": 39.8165973, "lon": 4.2838168}, {"type": "node", "id": 3037468700, "lat": 39.8165995, "lon": 4.2835079}, {"type": "node", "id": 3037468701, "lat": 39.8166048, "lon": 4.2835506}, {"type": "node", "id": 3037468702, "lat": 39.8166245, "lon": 4.2840335}, {"type": "node", "id": 3037468703, "lat": 39.81667, "lon": 4.283759}, {"type": "node", "id": 3037468704, "lat": 39.8166755, "lon": 4.2838012}, {"type": "node", "id": 3037468705, "lat": 39.8166875, "lon": 4.2834904}, {"type": "node", "id": 3037468706, "lat": 39.8166928, "lon": 4.283532}, {"type": "node", "id": 3037468707, "lat": 39.8167235, "lon": 4.2834823}, {"type": "node", "id": 3037468708, "lat": 39.8167981, "lon": 4.2837322}, {"type": "node", "id": 3037468709, "lat": 39.816803, "lon": 4.283774}, {"type": "node", "id": 3037468710, "lat": 39.8168309, "lon": 4.2839909}, {"type": "node", "id": 3037468711, "lat": 39.8168362, "lon": 4.2836645}, {"type": "node", "id": 3037468712, "lat": 39.8168371, "lon": 4.2837246}, {"type": "node", "id": 3037468713, "lat": 39.8168432, "lon": 4.2836294}, {"type": "node", "id": 3037468714, "lat": 39.8168421, "lon": 4.2837663}, {"type": "node", "id": 3037468715, "lat": 39.8168486, "lon": 4.2835014}, {"type": "node", "id": 3037468716, "lat": 39.8168587, "lon": 4.2835887}, {"type": "node", "id": 3037468717, "lat": 39.8168684, "lon": 4.2839832}, {"type": "node", "id": 3372927843, "lat": 39.810647, "lon": 4.2664623, "tags": {"addr:city": "Sant Llu\u00eds", "addr:housenumber": "66", "addr:postcode": "07713", "addr:street": "Passeig de Sa Marina", "amenity": "restaurant", "cuisine": "regional", "name": "Son Ganxo", "name:ca": "Son Ganxo", "phone": "+34 971159075", "website": "https://www.restaurante-son-ganxo.com/"}}, {"type": "node", "id": 3372927845, "lat": 39.8177109, "lon": 4.2455026, "tags": {"addr:city": "Binibeca", "addr:housenumber": "57", "addr:postcode": "07711", "addr:street": "Carrer de s'Amf\u00f3s Blau", "amenity": "restaurant", "name": "Sa Cova", "name:ca": "Sa Cova", "phone": "+34 971 157 424", "website": "https://www.sacova.es/"}}, {"type": "node", "id": 3372927846, "lat": 39.8203134, "lon": 4.2327443, "tags": {"addr:city": "Binibequer Vell", "addr:housenumber": "38", "addr:postcode": "07711", "addr:street": "Passeig Mar\u00edtim", "amenity": "restaurant", "name": "Bini Inn", "phone": "+34 971150918", "website": "http://bini-inn.com/"}}, {"type": "node", "id": 3742985855, "lat": 39.8762507, "lon": 4.3110317, "tags": {"amenity": "cafe", "name": "Fortaleza de la Mola", "opening_hours": "24/7"}}, {"type": "node", "id": 3830647159, "lat": 39.8793009, "lon": 4.2563185, "tags": {"addr:city": "Ma\u00f3", "addr:postcode": "07702", "addr:street": "Plaza Biosfera", "amenity": "restaurant", "capacity": "100", "cuisine": "regional", "name": "Biosfera", "smoking": "no", "takeaway": "no"}}, {"type": "node", "id": 4128127721, "lat": 39.87136, "lon": 4.2071854, "tags": {"addr:city": "Sant Climent", "addr:housenumber": "63", "addr:street": "Carrer de Sant Loren\u00e7", "amenity": "restaurant", "contact:website": "http://www.esmolidefoc.es/", "cuisine": "regional", "name": "Es Mol\u00ed de Foc"}}, {"type": "node", "id": 4345347889, "lat": 39.816272, "lon": 4.2450831, "tags": {"addr:city": "Binibeca", "addr:housenumber": "21", "addr:postcode": "07711", "addr:street": "Passeig dels Porxos", "amenity": "restaurant", "contact:facebook": "https://www.facebook.com/Tabernadelcorso/", "cuisine": "regional", "name": "Taberna del Corso"}}, {"type": "node", "id": 4872593022, "lat": 40.0227517, "lon": 4.1796331, "tags": {"amenity": "restaurant", "cuisine": "local", "name": "White's Bar", "name:es": "White's Bar"}}, {"type": "node", "id": 4874656022, "lat": 40.0234339, "lon": 4.1863457, "tags": {"amenity": "restaurant", "name": "S'Arenal", "name:ca": "S'Arenal", "name:es": "S'Arenal"}}, {"type": "node", "id": 5031795626, "lat": 39.8807364, "lon": 4.2941504, "tags": {"addr:city": "Sant Llu\u00eds", "addr:housenumber": "6", "addr:postcode": "07720", "addr:street": "Moll d'en Pons", "amenity": "restaurant", "name": "Namast\u00e9", "opening_hours": "May-Oct: PH,Mo-Su 11:00-24:00+", "outdoor_seating": "yes", "phone": "+34971483662"}}, {"type": "node", "id": 5031795627, "lat": 39.8810665, "lon": 4.2939658, "tags": {"addr:city": "Sant Llu\u00eds", "addr:country": "ES", "addr:postcode": "07720", "addr:street": "Moll d'en Pons", "amenity": "restaurant", "name": "Ana Luisa", "outdoor_seating": "yes", "phone": "+34649083675"}}, {"type": "node", "id": 5103434913, "lat": 39.9499964, "lon": 4.2685894}, {"type": "node", "id": 5479812132, "lat": 39.8430276, "lon": 4.2442786}, {"type": "node", "id": 5479812133, "lat": 39.8430049, "lon": 4.2443722}, {"type": "node", "id": 5479812135, "lat": 39.8430114, "lon": 4.2444055}, {"type": "node", "id": 5479812136, "lat": 39.8430232, "lon": 4.2442966}, {"type": "node", "id": 5479812137, "lat": 39.8429447, "lon": 4.2442448}, {"type": "node", "id": 5479812138, "lat": 39.8430409, "lon": 4.2442841}, {"type": "node", "id": 5479812139, "lat": 39.8430364, "lon": 4.2443021}, {"type": "node", "id": 5479812140, "lat": 39.8429982, "lon": 4.2444}, {"type": "node", "id": 5479812141, "lat": 39.8429152, "lon": 4.2443662}, {"type": "node", "id": 5479812143, "lat": 39.8430181, "lon": 4.2443775}, {"type": "node", "id": 5484874937, "lat": 39.8418385, "lon": 4.2473486}, {"type": "node", "id": 5484874940, "lat": 39.8419816, "lon": 4.2473193}, {"type": "node", "id": 5484874946, "lat": 39.8419766, "lon": 4.2472142}, {"type": "node", "id": 5484874951, "lat": 39.8418315, "lon": 4.2474288}, {"type": "node", "id": 5484874954, "lat": 39.8418301, "lon": 4.247396}, {"type": "node", "id": 5484874959, "lat": 39.8419785, "lon": 4.2472514}, {"type": "node", "id": 5484874983, "lat": 39.841829, "lon": 4.2473494}, {"type": "node", "id": 5484874984, "lat": 39.841955, "lon": 4.2474069}, {"type": "node", "id": 5484874985, "lat": 39.8419075, "lon": 4.2474092}, {"type": "node", "id": 5484874986, "lat": 39.8418365, "lon": 4.2473038}, {"type": "node", "id": 5484874987, "lat": 39.8419082, "lon": 4.2474229}, {"type": "node", "id": 5484874989, "lat": 39.8418839, "lon": 4.2473442}, {"type": "node", "id": 5484874990, "lat": 39.8419149, "lon": 4.2472192}, {"type": "node", "id": 5484874992, "lat": 39.8419045, "lon": 4.2473425}, {"type": "node", "id": 5484874997, "lat": 39.8418819, "lon": 4.2473003}, {"type": "node", "id": 5484874998, "lat": 39.8419178, "lon": 4.2472133}, {"type": "node", "id": 5484875000, "lat": 39.8419035, "lon": 4.2473218}, {"type": "node", "id": 5484875001, "lat": 39.8419754, "lon": 4.2473197}, {"type": "node", "id": 5484875003, "lat": 39.8418296, "lon": 4.2473607}, {"type": "node", "id": 5484875004, "lat": 39.8419729, "lon": 4.2472091}, {"type": "node", "id": 5484875005, "lat": 39.8419189, "lon": 4.2473204}, {"type": "node", "id": 5484875006, "lat": 39.8419699, "lon": 4.2474053}, {"type": "node", "id": 5484968777, "lat": 39.8440263, "lon": 4.2497493}, {"type": "node", "id": 5484968783, "lat": 39.8440324, "lon": 4.2497158}, {"type": "node", "id": 5484968795, "lat": 39.844112, "lon": 4.2496219}, {"type": "node", "id": 5484968798, "lat": 39.8441022, "lon": 4.24962}, {"type": "node", "id": 5484968800, "lat": 39.8441044, "lon": 4.2496022}, {"type": "node", "id": 5484968801, "lat": 39.8440924, "lon": 4.2495923}, {"type": "node", "id": 5484968803, "lat": 39.8440926, "lon": 4.2495901}, {"type": "node", "id": 5484968804, "lat": 39.844068, "lon": 4.2495833}, {"type": "node", "id": 5484968805, "lat": 39.844071, "lon": 4.2495639}, {"type": "node", "id": 5484968806, "lat": 39.8440214, "lon": 4.2495552}, {"type": "node", "id": 5484968808, "lat": 39.8440177, "lon": 4.2495807}, {"type": "node", "id": 5484968809, "lat": 39.8439787, "lon": 4.2495703}, {"type": "node", "id": 5484968810, "lat": 39.8439745, "lon": 4.249614}, {"type": "node", "id": 5484968811, "lat": 39.8439942, "lon": 4.2496221}, {"type": "node", "id": 5484968812, "lat": 39.8439772, "lon": 4.249736}, {"type": "node", "id": 5484968813, "lat": 39.8439818, "lon": 4.2497372}, {"type": "node", "id": 5484968815, "lat": 39.8439969, "lon": 4.2497428}, {"type": "node", "id": 5484968820, "lat": 39.8440988, "lon": 4.2497294}, {"type": "node", "id": 5487107206, "lat": 39.839088, "lon": 4.2602834}, {"type": "node", "id": 5487107216, "lat": 39.8391307, "lon": 4.2602801}, {"type": "node", "id": 5487107217, "lat": 39.8391333, "lon": 4.2603355}, {"type": "node", "id": 5487107329, "lat": 39.8390238, "lon": 4.2602766}, {"type": "node", "id": 5487107331, "lat": 39.8390997, "lon": 4.2606087}, {"type": "node", "id": 5487107347, "lat": 39.8390994, "lon": 4.2606082}, {"type": "node", "id": 5487107349, "lat": 39.8390773, "lon": 4.2602487}, {"type": "node", "id": 5487107364, "lat": 39.839075, "lon": 4.2605547}, {"type": "node", "id": 5487107383, "lat": 39.8391829, "lon": 4.2604998}, {"type": "node", "id": 5487107388, "lat": 39.8392135, "lon": 4.260601}, {"type": "node", "id": 5487107390, "lat": 39.8390626, "lon": 4.2605322}, {"type": "node", "id": 5487107394, "lat": 39.8390865, "lon": 4.2605797}, {"type": "node", "id": 5487107418, "lat": 39.839077, "lon": 4.2605582}, {"type": "node", "id": 5487107420, "lat": 39.8390954, "lon": 4.2606083}, {"type": "node", "id": 5487107423, "lat": 39.8390703, "lon": 4.2604268}, {"type": "node", "id": 5487107424, "lat": 39.8390355, "lon": 4.2604449}, {"type": "node", "id": 5487107426, "lat": 39.839084, "lon": 4.260581}, {"type": "node", "id": 5487107427, "lat": 39.8390814, "lon": 4.2605224}, {"type": "node", "id": 5487107430, "lat": 39.8390892, "lon": 4.2605475}, {"type": "node", "id": 5489467813, "lat": 39.8469221, "lon": 4.2581666}, {"type": "node", "id": 5489467814, "lat": 39.8469187, "lon": 4.2581662}, {"type": "node", "id": 5489467815, "lat": 39.8469114, "lon": 4.2582578}, {"type": "node", "id": 5489467816, "lat": 39.8468226, "lon": 4.2583342}, {"type": "node", "id": 5489467818, "lat": 39.8468964, "lon": 4.2583411}, {"type": "node", "id": 5489467819, "lat": 39.8468996, "lon": 4.2582982}, {"type": "node", "id": 5489468021, "lat": 39.8469048, "lon": 4.2583789}, {"type": "node", "id": 5489468022, "lat": 39.8469998, "lon": 4.2583864}, {"type": "node", "id": 5489468023, "lat": 39.8469497, "lon": 4.2581705}, {"type": "node", "id": 5489468024, "lat": 39.8469518, "lon": 4.2581522}, {"type": "node", "id": 5489468026, "lat": 39.8469258, "lon": 4.2581483}, {"type": "node", "id": 5489468071, "lat": 39.8468822, "lon": 4.258469}, {"type": "node", "id": 5489468087, "lat": 39.8468642, "lon": 4.258253}, {"type": "node", "id": 5489468094, "lat": 39.8469091, "lon": 4.2582988}, {"type": "node", "id": 5489468098, "lat": 39.8470115, "lon": 4.2581791}, {"type": "node", "id": 5489468109, "lat": 39.8468568, "lon": 4.2583759}, {"type": "node", "id": 5489468110, "lat": 39.8468532, "lon": 4.2584673}, {"type": "node", "id": 5489468111, "lat": 39.8469563, "lon": 4.258513}, {"type": "node", "id": 5489468112, "lat": 39.8469574, "lon": 4.2584776}, {"type": "node", "id": 5489468113, "lat": 39.8468818, "lon": 4.2585082}, {"type": "node", "id": 5489468117, "lat": 39.8469946, "lon": 4.2584791}, {"type": "node", "id": 5516648069, "lat": 39.8477591, "lon": 4.2574876, "tags": {"addr:housenumber": "59", "addr:postcode": "07711", "addr:street": "Carrer del Primer Batle Pere Tudur\u00ed", "amenity": "restaurant", "name": "La Taberna", "phone": "+34 971 150 652"}}, {"type": "node", "id": 5517195720, "lat": 39.8494695, "lon": 4.2579784, "tags": {"addr:housenumber": "60", "addr:postcode": "07711", "addr:street": "Carrer de Sant Llu\u00eds", "amenity": "restaurant", "name": "Bar Restaurante Casino"}}, {"type": "node", "id": 5519982172, "lat": 39.8492154, "lon": 4.259854, "tags": {"addr:housenumber": "118", "addr:postcode": "07711", "addr:street": "Avinguda de sa Pau", "amenity": "cafe", "name": "Cafe Bar Avenida"}}, {"type": "node", "id": 5525687518, "lat": 39.8506106, "lon": 4.2601987, "tags": {"addr:housenumber": "3", "addr:postcode": "07710", "addr:street": "Carrer Lluna", "amenity": "restaurant", "name": "Sa Cantina", "name:ca": "Sa Cantina"}}, {"type": "node", "id": 5525774520, "lat": 39.8515833, "lon": 4.2596378, "tags": {"addr:housenumber": "32", "addr:postcode": "07711", "addr:street": "Carrer Duc de Crillon", "amenity": "cafe", "name": "Bracafe"}}, {"type": "node", "id": 5531367351, "lat": 39.8628456, "lon": 4.264058, "tags": {"addr:housenumber": "42", "addr:postcode": "07711", "addr:street": "Avinguda Circumvalaci\u00f3", "amenity": "cafe", "contact:facebook": "https://www.facebook.com/panaderialuispons/", "name": "Panader\u00eda Luis Pons", "phone": "+34 971 15 13 20", "shop": "bakery"}}, {"type": "node", "id": 5533344692, "lat": 39.8429326, "lon": 4.2442949, "tags": {"entrance": "yes"}}, {"type": "node", "id": 5533345045, "lat": 39.8439852, "lon": 4.2496828, "tags": {"addr:housenumber": "4", "addr:postcode": "07711", "addr:street": "Cam\u00ed de s'Ullastrar", "entrance": "yes"}}, {"type": "node", "id": 5534200920, "lat": 39.8419175, "lon": 4.2472861, "tags": {"addr:housenumber": "1", "addr:postcode": "07711", "addr:street": "Cam\u00ed des Baliacs", "entrance": "yes"}}, {"type": "node", "id": 5546204937, "lat": 39.8235934, "lon": 4.2289245}, {"type": "node", "id": 5546204950, "lat": 39.8235051, "lon": 4.228657, "tags": {"addr:housenumber": "22", "addr:postcode": "07711", "addr:street": "Passeig de la Mar", "entrance": "yes"}}, {"type": "node", "id": 5546205170, "lat": 39.8236209, "lon": 4.2288118}, {"type": "node", "id": 5546205188, "lat": 39.8234876, "lon": 4.2286452}, {"type": "node", "id": 5546205193, "lat": 39.8236488, "lon": 4.2288458}, {"type": "node", "id": 5546205211, "lat": 39.823503, "lon": 4.2290536}, {"type": "node", "id": 5546205218, "lat": 39.823336, "lon": 4.2288537}, {"type": "node", "id": 5546205220, "lat": 39.8234529, "lon": 4.228956}, {"type": "node", "id": 5546205326, "lat": 39.8236104, "lon": 4.2288992}, {"type": "node", "id": 5546205328, "lat": 39.8234914, "lon": 4.2286407}, {"type": "node", "id": 5546205331, "lat": 39.82361, "lon": 4.2289008}, {"type": "node", "id": 5546205332, "lat": 39.8234454, "lon": 4.2289391}, {"type": "node", "id": 5546205334, "lat": 39.8234008, "lon": 4.2289783}, {"type": "node", "id": 5546205344, "lat": 39.823628, "lon": 4.2288024}, {"type": "node", "id": 5546205447, "lat": 39.823379, "lon": 4.2288163}, {"type": "node", "id": 5546205604, "lat": 39.8233344, "lon": 4.2287317}, {"type": "node", "id": 5546205965, "lat": 39.8234355, "lon": 4.2285849}, {"type": "node", "id": 5546205977, "lat": 39.8233423, "lon": 4.2287485}, {"type": "node", "id": 5546316561, "lat": 39.8289295, "lon": 4.2273289, "tags": {"amenity": "restaurant"}}, {"type": "node", "id": 5548505270, "lat": 39.8232633, "lon": 4.2299382, "tags": {"addr:housenumber": "33", "addr:postcode": "07711", "addr:street": "Carrer des Tim\u00f3", "amenity": "restaurant", "bar": "yes", "check_date": "2025-05-23", "name": "Sa Musclera", "outdoor_seating": "yes", "payment:credit_cards": "yes", "payment:debit_cards": "yes", "phone": "+34 971 15 66 06", "website": "https://www.barsamusclera.com/"}}, {"type": "node", "id": 5548673463, "lat": 39.8231012, "lon": 4.2312216, "tags": {"addr:housenumber": "5", "addr:postcode": "07711", "addr:street": "Carrer de s'\u00c0ncora", "amenity": "restaurant"}}, {"type": "node", "id": 5548673466, "lat": 39.8233458, "lon": 4.2302082, "tags": {"amenity": "restaurant", "name": "El Pescadito"}}, {"type": "node", "id": 5554055367, "lat": 39.8391662, "lon": 4.2604444, "tags": {"addr:housenumber": "14", "addr:postcode": "07711", "addr:street": "Cam\u00ed des Pujol", "entrance": "yes"}}, {"type": "node", "id": 5568362355, "lat": 39.8166175, "lon": 4.2447792, "tags": {"addr:housenumber": "2", "addr:postcode": "07711", "addr:street": "Pla\u00e7a se sa Font", "amenity": "restaurant", "bar": "yes", "check_date": "2025-05-28", "indoor_seating": "yes", "name": "Na Rosa", "opening_hours": "Tu-Su 19:00-01:00; Mo off", "outdoor_seating": "yes", "payment:credit_cards": "yes", "payment:debit_cards": "yes", "website": "https://narosa.es/"}}, {"type": "node", "id": 5568626466, "lat": 39.8163097, "lon": 4.2449759, "tags": {"addr:city": "Binibeca", "addr:housenumber": "18", "addr:postcode": "07711", "addr:street": "Carrer des Peus de Cabrit", "amenity": "restaurant", "cuisine": "regional", "name": "Alma Salada"}}, {"type": "node", "id": 5568626472, "lat": 39.8164978, "lon": 4.2452043, "tags": {"addr:city": "Binibeca", "addr:postcode": "07711", "addr:street": "Carrer de ses Cranques", "amenity": "restaurant", "cuisine": "regional", "name": "El Faro", "name:ca": "El Faro"}}, {"type": "node", "id": 5575462753, "lat": 39.8128185, "lon": 4.2584487, "tags": {"addr:housenumber": "43", "addr:postcode": "07713", "addr:street": "Carrer de s'Oronella", "amenity": "restaurant", "name": "En Caragol"}}, {"type": "node", "id": 5575636936, "lat": 39.8125925, "lon": 4.2637048, "tags": {"addr:housenumber": "23", "addr:postcode": "07713", "addr:street": "Passeig Mar\u00edtim", "amenity": "restaurant", "cuisine": "pizza", "name": "La Baia", "name:ca": "La Baia"}}, {"type": "node", "id": 5582978856, "lat": 39.8120739, "lon": 4.2801426}, {"type": "node", "id": 5583851312, "lat": 39.8189436, "lon": 4.2827117}, {"type": "node", "id": 5583851380, "lat": 39.8161008, "lon": 4.283284}, {"type": "node", "id": 5583851630, "lat": 39.8168343, "lon": 4.2836887}, {"type": "node", "id": 5583851648, "lat": 39.816835, "lon": 4.2836766}, {"type": "node", "id": 5583851741, "lat": 39.8168403, "lon": 4.2836409}, {"type": "node", "id": 5583851789, "lat": 39.8165986, "lon": 4.283148}, {"type": "node", "id": 5583851796, "lat": 39.8166025, "lon": 4.2831819}, {"type": "node", "id": 5583851801, "lat": 39.8168467, "lon": 4.2836181}, {"type": "node", "id": 5583851828, "lat": 39.8164663, "lon": 4.2834076}, {"type": "node", "id": 5583851832, "lat": 39.8168506, "lon": 4.2836071}, {"type": "node", "id": 5583851862, "lat": 39.8164999, "lon": 4.2836459}, {"type": "node", "id": 5583851868, "lat": 39.816508, "lon": 4.2837116}, {"type": "node", "id": 5583851875, "lat": 39.8165433, "lon": 4.2837043}, {"type": "node", "id": 5583851886, "lat": 39.816676, "lon": 4.2831322}, {"type": "node", "id": 5583851891, "lat": 39.816458, "lon": 4.2833417}, {"type": "node", "id": 5583851892, "lat": 39.81642, "lon": 4.2833496}, {"type": "node", "id": 5583851893, "lat": 39.8164283, "lon": 4.2834156}, {"type": "node", "id": 5583851899, "lat": 39.8165351, "lon": 4.2836386}, {"type": "node", "id": 5583851904, "lat": 39.8166062, "lon": 4.2838881}, {"type": "node", "id": 5583851907, "lat": 39.816579, "lon": 4.2839625}, {"type": "node", "id": 5583851908, "lat": 39.8166146, "lon": 4.2839548}, {"type": "node", "id": 5583851909, "lat": 39.8165705, "lon": 4.2838956}, {"type": "node", "id": 5583851913, "lat": 39.8167936, "lon": 4.2841546}, {"type": "node", "id": 5583851925, "lat": 39.8167381, "lon": 4.2841668}, {"type": "node", "id": 5583851927, "lat": 39.8167439, "lon": 4.284216}, {"type": "node", "id": 5583851931, "lat": 39.8168005, "lon": 4.2842046}, {"type": "node", "id": 5583851982, "lat": 39.8166975, "lon": 4.2832715}, {"type": "node", "id": 5583851989, "lat": 39.8167012, "lon": 4.2832706}, {"type": "node", "id": 5583852021, "lat": 39.8166878, "lon": 4.2831642}, {"type": "node", "id": 5583852121, "lat": 39.816855, "lon": 4.2835964}, {"type": "node", "id": 5583852195, "lat": 39.816135, "lon": 4.2833142}, {"type": "node", "id": 5583852480, "lat": 39.8168342, "lon": 4.2837008}, {"type": "node", "id": 5583852494, "lat": 39.816838, "lon": 4.2836527}, {"type": "node", "id": 5583852542, "lat": 39.8167685, "lon": 4.2835196}, {"type": "node", "id": 5583852546, "lat": 39.8167683, "lon": 4.283517}, {"type": "node", "id": 5584018372, "lat": 39.815591, "lon": 4.2769935, "tags": {"addr:housenumber": "26", "addr:postcode": "07713", "addr:street": "Carrer des Mestral", "amenity": "cafe", "name": "C'an Cholo"}}, {"type": "node", "id": 5584916308, "lat": 39.8188958, "lon": 4.2826987}, {"type": "node", "id": 5590403481, "lat": 39.8326524, "lon": 4.2988696}, {"type": "node", "id": 5590403483, "lat": 39.8326175, "lon": 4.2988641}, {"type": "node", "id": 5590403486, "lat": 39.8326942, "lon": 4.2987519}, {"type": "node", "id": 5590403487, "lat": 39.8324924, "lon": 4.2988002}, {"type": "node", "id": 5590403490, "lat": 39.8326281, "lon": 4.298743}, {"type": "node", "id": 5590403494, "lat": 39.8326303, "lon": 4.29872}, {"type": "node", "id": 5590403496, "lat": 39.8325949, "lon": 4.2987153}, {"type": "node", "id": 5590403499, "lat": 39.8325927, "lon": 4.2987383}, {"type": "node", "id": 5590403501, "lat": 39.8324993, "lon": 4.2987253}, {"type": "node", "id": 5590403502, "lat": 39.8324931, "lon": 4.2987924}, {"type": "node", "id": 5590403504, "lat": 39.8326856, "lon": 4.2988455}, {"type": "node", "id": 5590403505, "lat": 39.8329558, "lon": 4.2987862}, {"type": "node", "id": 5590403506, "lat": 39.8325031, "lon": 4.298794}, {"type": "node", "id": 5590403507, "lat": 39.832949, "lon": 4.2988596}, {"type": "node", "id": 5590403508, "lat": 39.832837, "lon": 4.2988347}, {"type": "node", "id": 5590403509, "lat": 39.8328458, "lon": 4.2987393}, {"type": "node", "id": 5590403510, "lat": 39.8328432, "lon": 4.2987688}, {"type": "node", "id": 5590403511, "lat": 39.8325024, "lon": 4.2988016}, {"type": "node", "id": 5590403512, "lat": 39.8327751, "lon": 4.2988251}, {"type": "node", "id": 5590403513, "lat": 39.8328364, "lon": 4.2988421}, {"type": "node", "id": 5590403514, "lat": 39.8327744, "lon": 4.2988314}, {"type": "node", "id": 5590403515, "lat": 39.8326975, "lon": 4.2987163}, {"type": "node", "id": 5590403516, "lat": 39.8326882, "lon": 4.298818}, {"type": "node", "id": 5590404122, "lat": 39.8324887, "lon": 4.2988405}, {"type": "node", "id": 5590404125, "lat": 39.832655, "lon": 4.2988409}, {"type": "node", "id": 5590404128, "lat": 39.832514, "lon": 4.2988444}, {"type": "node", "id": 5590404133, "lat": 39.8325115, "lon": 4.2988711}, {"type": "node", "id": 5590404144, "lat": 39.8326153, "lon": 4.2988872}, {"type": "node", "id": 5602490455, "lat": 39.8326124, "lon": 4.2987176, "tags": {"addr:housenumber": "1", "addr:postcode": "07713", "addr:street": "Passeig Mar\u00edtim", "entrance": "yes"}}, {"type": "node", "id": 5613541469, "lat": 39.8746722, "lon": 4.2754082, "tags": {"amenity": "restaurant", "name": "Meson El Toro"}}, {"type": "node", "id": 5622925482, "lat": 39.8785171, "lon": 4.2926449, "tags": {"addr:housenumber": "6-7", "addr:postcode": "07720", "addr:street": "Moll de Calasfonts", "amenity": "restaurant", "name": "Bar El Vell Port"}}, {"type": "node", "id": 5622925484, "lat": 39.878276, "lon": 4.2929911, "tags": {"addr:housenumber": "16", "addr:postcode": "07720", "addr:street": "Costa de Calesfonts", "amenity": "restaurant", "name": "Nikki's"}}, {"type": "node", "id": 5635825433, "lat": 39.8791809, "lon": 4.2924914, "tags": {"addr:housenumber": "12A", "addr:postcode": "07720", "addr:street": "Carrer Calesfonts", "amenity": "restaurant", "name": "Mes\u00f3n Can Mito", "opening_hours": "Tu-Su 13:00-15:30; Fr,Sa 20:00-23:00", "phone": "+34 971 362 625"}}, {"type": "node", "id": 5651533564, "lat": 39.8746398, "lon": 4.2952733}, {"type": "node", "id": 5651533565, "lat": 39.8744012, "lon": 4.2951485}, {"type": "node", "id": 5651533566, "lat": 39.8744074, "lon": 4.2951566}, {"type": "node", "id": 5651533567, "lat": 39.8745754, "lon": 4.2950753}, {"type": "node", "id": 5651533568, "lat": 39.8745309, "lon": 4.2950965}, {"type": "node", "id": 5651533569, "lat": 39.8745121, "lon": 4.2953816}, {"type": "node", "id": 5651533570, "lat": 39.8746052, "lon": 4.2952842}, {"type": "node", "id": 5651533571, "lat": 39.8744935, "lon": 4.2951351}, {"type": "node", "id": 5651533572, "lat": 39.874371, "lon": 4.2951598}, {"type": "node", "id": 5651533573, "lat": 39.8744814, "lon": 4.2951179}, {"type": "node", "id": 5720332541, "lat": 39.8746037, "lon": 4.2951215, "tags": {"addr:housenumber": "1", "addr:postcode": "07720", "addr:street": "Passeig Mar\u00edtim", "entrance": "yes"}}, {"type": "node", "id": 5720332547, "lat": 39.8745405, "lon": 4.2951093}, {"type": "node", "id": 5720332548, "lat": 39.8746544, "lon": 4.2952042}, {"type": "node", "id": 5760503611, "lat": 39.8714314, "lon": 4.2070781, "tags": {"addr:city": "Ma\u00f3", "addr:country": "ES", "addr:housenumber": "65", "addr:postcode": "07712", "addr:street": "Carrer de Sant Lloren\u00e7", "amenity": "restaurant", "entrance": "yes", "name": "Es Mol\u00ed de Foc"}}, {"type": "node", "id": 5825498165, "lat": 39.950163, "lon": 4.2678075}, {"type": "node", "id": 5825498187, "lat": 39.9500751, "lon": 4.2678002}, {"type": "node", "id": 5825498189, "lat": 39.9500855, "lon": 4.2679423}, {"type": "node", "id": 5825498192, "lat": 39.9501658, "lon": 4.2678624}, {"type": "node", "id": 5825498197, "lat": 39.9500611, "lon": 4.2678414}, {"type": "node", "id": 5825498200, "lat": 39.9500683, "lon": 4.2679436}, {"type": "node", "id": 5825498213, "lat": 39.9500616, "lon": 4.2678487, "tags": {"addr:housenumber": "14", "addr:postcode": "07700", "addr:street": "Pas des Tamarell", "entrance": "yes"}}, {"type": "node", "id": 5840103393, "lat": 39.9500583, "lon": 4.2685093}, {"type": "node", "id": 5840103395, "lat": 39.9500874, "lon": 4.2686057}, {"type": "node", "id": 5840103402, "lat": 39.9500145, "lon": 4.2686136}, {"type": "node", "id": 5840103404, "lat": 39.9500866, "lon": 4.2685414}, {"type": "node", "id": 5840103408, "lat": 39.9500912, "lon": 4.2686065}, {"type": "node", "id": 5840103411, "lat": 39.9500845, "lon": 4.2685098}, {"type": "node", "id": 5840103415, "lat": 39.9500023, "lon": 4.2686321}, {"type": "node", "id": 5840103418, "lat": 39.950085, "lon": 4.2686578}, {"type": "node", "id": 5840103423, "lat": 39.9500017, "lon": 4.2686145}, {"type": "node", "id": 5840103427, "lat": 39.9500116, "lon": 4.2685085, "tags": {"addr:housenumber": "18", "addr:postcode": "07700", "addr:street": "Carrer de s'Arribada", "entrance": "yes"}}, {"type": "node", "id": 5840103432, "lat": 39.9499875, "lon": 4.268633}, {"type": "node", "id": 5840103437, "lat": 39.9500136, "lon": 4.2686588}, {"type": "node", "id": 5840103463, "lat": 39.949986, "lon": 4.26859}, {"type": "node", "id": 5840103468, "lat": 39.9499922, "lon": 4.2685082}, {"type": "node", "id": 5840132585, "lat": 39.9508545, "lon": 4.2692292, "tags": {"amenity": "restaurant", "check_date": "2025-04-12", "contact:instagram": "es_moll_des_grau", "cuisine": "mediterranean", "name": "Caf\u00e9 Bar Es Moll", "opening_hours": "Mo-Su 09:00-23:00; PH open", "outdoor_seating": "yes"}}, {"type": "node", "id": 5865989035, "lat": 39.8906738, "lon": 4.2760204}, {"type": "node", "id": 5865989039, "lat": 39.8907129, "lon": 4.2760624}, {"type": "node", "id": 5865989041, "lat": 39.8907161, "lon": 4.2760456}, {"type": "node", "id": 5865989227, "lat": 39.890642, "lon": 4.2761485}, {"type": "node", "id": 5865989228, "lat": 39.8906261, "lon": 4.2761215}, {"type": "node", "id": 5865989231, "lat": 39.8906116, "lon": 4.2760966}, {"type": "node", "id": 5865989232, "lat": 39.8905978, "lon": 4.2760732}, {"type": "node", "id": 5865989235, "lat": 39.8905915, "lon": 4.2760628}, {"type": "node", "id": 5865989246, "lat": 39.8906686, "lon": 4.2761938}, {"type": "node", "id": 5865989247, "lat": 39.8906634, "lon": 4.2760856}, {"type": "node", "id": 5865989248, "lat": 39.8906499, "lon": 4.2760619}, {"type": "node", "id": 5865989251, "lat": 39.8906233, "lon": 4.2760159}, {"type": "node", "id": 5865989253, "lat": 39.8906058, "lon": 4.2760368}, {"type": "node", "id": 5865989258, "lat": 39.89069, "lon": 4.2761578, "tags": {"addr:housenumber": "226", "addr:postcode": "07701", "addr:street": "Moll de Llevant", "entrance": "yes"}}, {"type": "node", "id": 5865989259, "lat": 39.8906975, "lon": 4.2761451}, {"type": "node", "id": 5865989260, "lat": 39.8907124, "lon": 4.2758309}, {"type": "node", "id": 5865989261, "lat": 39.8907124, "lon": 4.2758035}, {"type": "node", "id": 5865989262, "lat": 39.890712, "lon": 4.2760438}, {"type": "node", "id": 5865989265, "lat": 39.8906707, "lon": 4.275671}, {"type": "node", "id": 5865989266, "lat": 39.8906039, "lon": 4.2757095}, {"type": "node", "id": 5865989267, "lat": 39.8905751, "lon": 4.2756602}, {"type": "node", "id": 5865989270, "lat": 39.8905429, "lon": 4.2756724}, {"type": "node", "id": 5865989274, "lat": 39.8904968, "lon": 4.2757289}, {"type": "node", "id": 5865989276, "lat": 39.8905557, "lon": 4.2757802}, {"type": "node", "id": 5865989278, "lat": 39.8905704, "lon": 4.2757701}, {"type": "node", "id": 5865989279, "lat": 39.8905881, "lon": 4.2758073}, {"type": "node", "id": 5865989281, "lat": 39.8906128, "lon": 4.2758594}, {"type": "node", "id": 5865989282, "lat": 39.8906226, "lon": 4.2758511}, {"type": "node", "id": 5868827545, "lat": 39.8867503, "lon": 4.2747988}, {"type": "node", "id": 5868827583, "lat": 39.8877624, "lon": 4.2750406}, {"type": "node", "id": 5868828593, "lat": 39.8877757, "lon": 4.2750068}, {"type": "node", "id": 5868828594, "lat": 39.8877855, "lon": 4.2749824}, {"type": "node", "id": 5868828596, "lat": 39.8877946, "lon": 4.2749597}, {"type": "node", "id": 5868828597, "lat": 39.8876808, "lon": 4.2748686}, {"type": "node", "id": 5868828598, "lat": 39.8876689, "lon": 4.2748985}, {"type": "node", "id": 5868828650, "lat": 39.8869061, "lon": 4.274934}, {"type": "node", "id": 5868828654, "lat": 39.8876937, "lon": 4.2749949, "tags": {"addr:housenumber": "314", "addr:postcode": "07701", "addr:street": "Moll de Llevant", "entrance": "yes"}}, {"type": "node", "id": 5868828822, "lat": 39.8876575, "lon": 4.2749272}, {"type": "node", "id": 5868828830, "lat": 39.8876438, "lon": 4.2749617}, {"type": "node", "id": 5868828912, "lat": 39.8867301, "lon": 4.2747599}, {"type": "node", "id": 5868828947, "lat": 39.8866778, "lon": 4.2748058}, {"type": "node", "id": 5868829122, "lat": 39.8867728, "lon": 4.2750467}, {"type": "node", "id": 6109720419, "lat": 39.8837246, "lon": 4.2728201}, {"type": "node", "id": 6109720420, "lat": 39.8837162, "lon": 4.2727002}, {"type": "node", "id": 6109720421, "lat": 39.8837586, "lon": 4.2727299}, {"type": "node", "id": 6109720423, "lat": 39.8836897, "lon": 4.2727229}, {"type": "node", "id": 6109720424, "lat": 39.8836443, "lon": 4.272766}, {"type": "node", "id": 6109720426, "lat": 39.8837895, "lon": 4.272864}, {"type": "node", "id": 6109720427, "lat": 39.8838003, "lon": 4.272759}, {"type": "node", "id": 6109720428, "lat": 39.8838247, "lon": 4.2727761}, {"type": "node", "id": 6109720430, "lat": 39.8837581, "lon": 4.2728428}, {"type": "node", "id": 6109753735, "lat": 39.8830513, "lon": 4.2730981, "tags": {"addr:city": "Ma\u00f3", "addr:country": "ES", "addr:housenumber": "23", "addr:postcode": "07702", "addr:street": "Carrer de sa S\u00ednia des Muret", "entrance": "yes"}}, {"type": "node", "id": 6109753736, "lat": 39.88358, "lon": 4.2725446}, {"type": "node", "id": 6109753740, "lat": 39.8835639, "lon": 4.2725609}, {"type": "node", "id": 6109753746, "lat": 39.8835491, "lon": 4.2725792}, {"type": "node", "id": 6109753747, "lat": 39.8834509, "lon": 4.2726786}, {"type": "node", "id": 6109753752, "lat": 39.8833997, "lon": 4.2725786}, {"type": "node", "id": 6109753754, "lat": 39.8834975, "lon": 4.2727077}, {"type": "node", "id": 6109753758, "lat": 39.8835718, "lon": 4.2725525}, {"type": "node", "id": 6109753767, "lat": 39.883519, "lon": 4.2726325}, {"type": "node", "id": 6109753768, "lat": 39.8835062, "lon": 4.2726687}, {"type": "node", "id": 6109753775, "lat": 39.8836248, "lon": 4.2725074}, {"type": "node", "id": 6109754092, "lat": 39.8837148, "lon": 4.2724548}, {"type": "node", "id": 6109754098, "lat": 39.8837824, "lon": 4.2723844}, {"type": "node", "id": 6109754108, "lat": 39.8835028, "lon": 4.2726811}, {"type": "node", "id": 6109754122, "lat": 39.8835, "lon": 4.2726939}, {"type": "node", "id": 6109754132, "lat": 39.8834598, "lon": 4.2724902}, {"type": "node", "id": 6109754135, "lat": 39.8834367, "lon": 4.2725467}, {"type": "node", "id": 6109754138, "lat": 39.8834237, "lon": 4.2725212}, {"type": "node", "id": 6109754139, "lat": 39.8835563, "lon": 4.2725698}, {"type": "node", "id": 6109754148, "lat": 39.8837386, "lon": 4.2723227}, {"type": "node", "id": 6109754163, "lat": 39.883745, "lon": 4.2724185}, {"type": "node", "id": 6109754166, "lat": 39.8835143, "lon": 4.2726443}, {"type": "node", "id": 6109754167, "lat": 39.8834649, "lon": 4.272706}, {"type": "node", "id": 6109754169, "lat": 39.8835298, "lon": 4.27261}, {"type": "node", "id": 6109754173, "lat": 39.8836503, "lon": 4.272364}, {"type": "node", "id": 6109754175, "lat": 39.8835099, "lon": 4.2726563}, {"type": "node", "id": 6109754176, "lat": 39.8835242, "lon": 4.2726212}, {"type": "node", "id": 6109754195, "lat": 39.8835423, "lon": 4.2725891}, {"type": "node", "id": 6109754200, "lat": 39.8835359, "lon": 4.2725994}, {"type": "node", "id": 6109754204, "lat": 39.8834926, "lon": 4.2727119}, {"type": "node", "id": 6109754207, "lat": 39.8837492, "lon": 4.2724243}, {"type": "node", "id": 6176852658, "lat": 39.8877471, "lon": 4.2651002, "tags": {"addr:city": "Ma\u00f3", "addr:country": "ES", "addr:housenumber": "6", "addr:postcode": "07702", "addr:street": "Carrer de la Infanta", "entrance": "yes"}}, {"type": "node", "id": 6176853420, "lat": 39.8876972, "lon": 4.265053}, {"type": "node", "id": 6176853433, "lat": 39.8877317, "lon": 4.264992}, {"type": "node", "id": 6176853438, "lat": 39.8876921, "lon": 4.2650159}, {"type": "node", "id": 6176853442, "lat": 39.8877346, "lon": 4.2650121}, {"type": "node", "id": 6176853482, "lat": 39.8877067, "lon": 4.2651205}, {"type": "node", "id": 6176853605, "lat": 39.8876898, "lon": 4.2649994}, {"type": "node", "id": 6176854515, "lat": 39.8877419, "lon": 4.2650628}, {"type": "node", "id": 6176854764, "lat": 39.887746, "lon": 4.2650911}, {"type": "node", "id": 6176854907, "lat": 39.8877336, "lon": 4.2651147, "tags": {"addr:housenumber": "8", "addr:postcode": "07702", "addr:street": "Carrer de la Infanta", "entrance": "yes"}}, {"type": "node", "id": 6176854941, "lat": 39.8877486, "lon": 4.2651114}, {"type": "node", "id": 6385743158, "lat": 40.0070352, "lon": 4.1936576, "tags": {"amenity": "restaurant", "name": "Don Carlos"}}, {"type": "node", "id": 7524070740, "lat": 40.0166771, "lon": 4.1885616, "tags": {"amenity": "restaurant"}}, {"type": "node", "id": 7524081248, "lat": 40.0192832, "lon": 4.1886723, "tags": {"amenity": "restaurant", "name": "El Pirata"}}, {"type": "node", "id": 7704850685, "lat": 39.8230857, "lon": 4.2302591, "tags": {"amenity": "restaurant", "name": "Stromboli"}}, {"type": "node", "id": 7875841026, "lat": 39.8290399, "lon": 4.2157659, "tags": {"amenity": "restaurant", "check_date": "2025-05-27", "cuisine": "italian", "delivery": "yes", "diet:vegetarian": "yes", "indoor_seating": "yes", "name": "\u00d3pera", "outdoor_seating": "yes", "payment:credit_cards": "yes", "payment:debit_cards": "yes", "takeaway": "yes"}}, {"type": "node", "id": 7875841027, "lat": 39.8287237, "lon": 4.2159321, "tags": {"amenity": "restaurant", "check_date": "2025-05-29", "cuisine": "spanish", "highchair": "yes", "indoor_seating": "yes", "name": "El Txoco", "outdoor_seating": "yes", "payment:credit_cards": "yes", "payment:debit_cards": "yes", "reservation": "recommended", "toilets:wheelchair": "yes", "website": "https://txokomenorca.com/", "wheelchair": "yes"}}, {"type": "node", "id": 8284454092, "lat": 39.8648787, "lon": 4.2250704, "tags": {"amenity": "cafe", "cuisine": "coffee_shop"}}, {"type": "node", "id": 9080965796, "lat": 39.8717138, "lon": 4.2083004, "tags": {"amenity": "cafe", "name": "Caf\u00e8 des Pla", "outdoor_seating": "yes", "takeaway": "yes"}}, {"type": "node", "id": 9097878917, "lat": 39.8905371, "lon": 4.2744671, "tags": {"addr:housenumber": "200", "amenity": "restaurant", "name": "Pappa e Ciccia"}}, {"type": "node", "id": 9111473560, "lat": 39.8887638, "lon": 4.2643019, "tags": {"amenity": "cafe", "name": "Ses Palmeres", "name:ca": "Ses Palmeres"}}, {"type": "node", "id": 9111473562, "lat": 39.8890148, "lon": 4.2630029, "tags": {"addr:housenumber": "16", "addr:street": "Carrer Alaior", "amenity": "cafe", "name": "Casa Carmela", "outdoor_seating": "yes", "phone": "+34 871718712", "website": "https://casacarmelamahon.com/"}}, {"type": "node", "id": 9121612417, "lat": 39.8203477, "lon": 4.2326499, "tags": {"addr:street": "Carrer 48 Binibeca Vell", "amenity": "restaurant", "check_date": "2025-05-24", "diet:vegetarian": "yes", "name": "Bambu Menorca", "outdoor_seating": "yes", "payment:credit_cards": "yes", "payment:debit_cards": "yes", "phone": "+34 971 35 89 69", "reservation": "recommended", "website": "https://bambumenorca.com"}}, {"type": "node", "id": 9126949239, "lat": 39.8904432, "lon": 4.264093, "tags": {"addr:housenumber": "41-43", "addr:street": "Moll de Ponent", "amenity": "restaurant", "email": "mikelakelarre82@gmail.com", "name": "Akelarre", "phone": "+34971368520;+34971368380"}}, {"type": "node", "id": 9270014507, "lat": 39.889031, "lon": 4.262697, "tags": {"addr:housenumber": "10", "addr:postcode": "07703", "addr:street": "Pla\u00e7a del Basti\u00f3", "amenity": "cafe", "name": "Pipet & Co", "outdoor_seating": "yes", "phone": "+34 971366368"}}, {"type": "node", "id": 9446056020, "lat": 40.021085, "lon": 4.1811038, "tags": {"amenity": "restaurant", "name": "Romani"}}, {"type": "node", "id": 9793823206, "lat": 39.8895982, "lon": 4.265114, "tags": {"amenity": "restaurant", "name": "El Romero"}}, {"type": "node", "id": 9904492787, "lat": 39.8878567, "lon": 4.2551782, "tags": {"amenity": "cafe", "name": "Can Manolo"}}, {"type": "node", "id": 9904541655, "lat": 39.888836, "lon": 4.2650617, "tags": {"amenity": "restaurant", "cuisine": "tapas", "name": "Augustin"}}, {"type": "node", "id": 10054647917, "lat": 39.8791902, "lon": 4.2936551, "tags": {"addr:housenumber": "35", "addr:postcode": "07720", "addr:street": "Moll de Calasfonts", "amenity": "restaurant", "contact:instagram": "esllautmenorca", "cuisine": "fish;mediterranean;spanish", "name": "Es Lla\u00fct"}}, {"type": "node", "id": 10120567478, "lat": 39.8821292, "lon": 4.2883291, "tags": {"addr:city": "Es Castell", "addr:housenumber": "17", "addr:postcode": "07720", "addr:street": "Carrer Bon Aire", "amenity": "restaurant", "name": "S'Arraval\u00f3", "phone": "+34 871042058"}}, {"type": "node", "id": 10560337192, "lat": 39.8797451, "lon": 4.2916937, "tags": {"addr:city": "es Castell", "addr:housenumber": "2", "addr:postcode": "07720", "addr:street": "Carrer Sant Ignasi", "amenity": "cafe", "bar": "yes", "cuisine": "burger;sandwich;chicken;ice_cream;spanish", "name": "Cafeter\u00eda Centro Cultural", "outdoor_seating": "yes"}}, {"type": "node", "id": 10834091925, "lat": 39.8888004, "lon": 4.2755008, "tags": {"addr:street": "Moll de Llevant", "amenity": "restaurant", "name": "Sa Lliga"}}, {"type": "node", "id": 11241058417, "lat": 39.8866208, "lon": 4.2875026, "tags": {"amenity": "restaurant", "cuisine": "regional", "name": "Cantina"}}, {"type": "node", "id": 11395896389, "lat": 39.8877164, "lon": 4.2650636, "tags": {"amenity": "cafe"}}, {"type": "node", "id": 11888684532, "lat": 39.8809378, "lon": 4.2940285, "tags": {"amenity": "restaurant", "cuisine": "regional", "name": "Pintaroja"}}, {"type": "node", "id": 11888684533, "lat": 39.8808043, "lon": 4.2941354, "tags": {"amenity": "restaurant", "cuisine": "regional", "name": "Sa Verella"}}, {"type": "node", "id": 11888685590, "lat": 39.8786866, "lon": 4.2896207, "tags": {"amenity": "restaurant", "cuisine": "regional", "description": "Bar, platos, tapas y paella los domingos", "name": "Can Jordi"}}, {"type": "node", "id": 11925691770, "lat": 39.8881619, "lon": 4.2652497, "tags": {"amenity": "restaurant", "indoor_seating": "yes", "name": "Can Miquel", "outdoor_seating": "yes"}}, {"type": "node", "id": 11932833557, "lat": 40.0070037, "lon": 4.1934182, "tags": {"amenity": "restaurant", "cuisine": "italian", "level": "0", "name": "La Baia", "outdoor_seating": "yes", "smoking": "outside", "toilets": "yes", "toilets:access": "customers", "wheelchair": "limited"}}, {"type": "node", "id": 12124778483, "lat": 40.0216432, "lon": 4.1810169, "tags": {"amenity": "restaurant", "name": "Copas-La Paella"}}, {"type": "node", "id": 12285400201, "lat": 39.8891902, "lon": 4.2643579, "tags": {"addr:housenumber": "9", "addr:postcode": "07701", "addr:street": "Pla\u00e7a de la Constituci\u00f3", "amenity": "restaurant", "contact:instagram": "centricmenorca", "cuisine": "regional;spanish;tapas", "name": "Centric Gastrobar", "opening_hours": "Mo-Su 09:00-16:00, 18:30-00:30", "phone": "+34676054539"}}, {"type": "node", "id": 12288049470, "lat": 39.8876904, "lon": 4.2750397, "tags": {"addr:housenumber": "314", "addr:street": "Moll de Llevant", "amenity": "restaurant", "check_date": "2024-10-25", "name": "El Rais", "phone": "+34 971 36 23 45", "website": "https://www.sesforquilles.com/es/restaurantes/el-rais"}}, {"type": "node", "id": 12290240747, "lat": 39.8869877, "lon": 4.2535213, "tags": {"addr:city": "Ma\u00f3", "addr:housenumber": "3", "addr:postcode": "07703", "addr:street": "Carrer de Font i Vidal", "amenity": "restaurant", "cuisine": "asian;japanese;chinese", "name": "Sushi Ma\u00f3", "phone": "+34 971 723 012"}}, {"type": "node", "id": 12297156419, "lat": 39.8879825, "lon": 4.2554819, "tags": {"addr:city": "Ma\u00f3", "addr:housenumber": "49", "addr:postcode": "07703", "addr:street": "Carrer de Sant Esteve", "addr:unit": "Bajo", "amenity": "restaurant", "cuisine": "regional", "name": "La Paella", "phone": "971365431", "website": "lapaella.com"}}, {"type": "node", "id": 12297156423, "lat": 39.8883, "lon": 4.2548438, "tags": {"addr:city": "Ma\u00f3", "addr:housenumber": "28", "addr:postcode": "07703", "addr:street": "Avinguda de Vives Llull", "amenity": "cafe", "name": "Cafeteria Ses Vinyes", "phone": "971364277"}}, {"type": "node", "id": 12300229482, "lat": 39.878644, "lon": 4.2555974, "tags": {"addr:city": "Ma\u00f3", "addr:housenumber": "40", "addr:postcode": "07703", "addr:street": "Carrer d'Anat\u00f2lia", "amenity": "restaurant", "cuisine": "asian", "name": "Itanou", "phone": "+34 971 357 418", "website": "https://itanou.com/"}}, {"type": "node", "id": 12346808193, "lat": 39.8832341, "lon": 4.2646513, "tags": {"addr:city": "Ma\u00f3", "addr:housenumber": "171", "addr:postcode": "07702", "addr:street": "Es C\u00f3s de Gr\u00e0cia", "amenity": "cafe", "name": "Quedamos", "outdoor_seating": "yes", "phone": "971945464"}}, {"type": "node", "id": 12401119675, "lat": 39.8887208, "lon": 4.2641621, "tags": {"addr:city": "Ma\u00f3", "addr:housenumber": "8", "addr:postcode": "07703", "addr:street": "Pla\u00e7a de Colon", "amenity": "restaurant", "cuisine": "italian", "name": "Lapiadina"}}, {"type": "node", "id": 12401149915, "lat": 39.888376, "lon": 4.2629511, "tags": {"addr:city": "Ma\u00f3", "addr:housenumber": "1", "addr:postcode": "07702", "addr:street": "Carrer de ses Moreres", "amenity": "cafe", "cuisine": "regional;breakfast;panader\u00eda", "name": "Ca na Maru", "outdoor_seating": "yes", "website": "canamaru.com"}}, {"type": "node", "id": 12449956831, "lat": 39.8850768, "lon": 4.2597886, "tags": {"addr:city": "Ma\u00f3", "addr:housenumber": "54", "addr:postcode": "07703", "addr:street": "Avinguda Josep Anselm Clav\u00e9", "amenity": "restaurant", "cuisine": "tapas;grill", "name": "S'Aturadeta", "phone": "871 04 70 05", "website": "https://saturadetamenorca.com/"}}, {"type": "node", "id": 12559133208, "lat": 39.888469, "lon": 4.2630876, "tags": {"addr:city": "Ma\u00f3", "addr:housenumber": "29", "addr:postcode": "07703", "addr:street": "Carrer del Basti\u00f3", "amenity": "cafe", "name": "Essencia Brunch and Lunch", "phone": "971354604"}}, {"type": "node", "id": 12813721863, "lat": 39.8898121, "lon": 4.2665062}, {"type": "node", "id": 12813721864, "lat": 39.8897639, "lon": 4.266513}, {"type": "node", "id": 12813721865, "lat": 39.8897713, "lon": 4.2666021}, {"type": "node", "id": 12813721866, "lat": 39.8898195, "lon": 4.2665953}, {"type": "node", "id": 12863381300, "lat": 39.8166721, "lon": 4.2451628, "tags": {"amenity": "restaurant", "check_date": "2025-05-29", "contact:facebook": "Barracudamenorca", "diet:vegan": "no", "diet:vegetarian": "no", "email": "barracudamenorca@gmail.com", "name": "Barracuda", "outdoor_seating": "yes", "payment:credit_cards": "yes", "payment:debit_cards": "yes", "phone": "+34 636 10 98 77", "reservation": "recommended"}}, {"type": "way", "id": 153933669, "nodes": [1665498778, 5825498189, 5825498200, 5825498213, 5825498197, 5825498187, 1665498905, 1665498811, 5825498165, 5825498192, 1665498778], "tags": {"amenity": "restaurant", "building": "retail", "building:levels": "2", "cuisine": "spanish", "name": "Tamarindos", "phone": "+34 971 35 94 20", "website": "https://restaurante-tamarindos.co.cc/"}}, {"type": "way", "id": 160834993, "nodes": [5868828650, 5868829122, 5868828947, 5868828912, 5868827545, 1728501651, 1728501655, 1728501681, 5868828650], "tags": {"amenity": "restaurant", "building": "residential", "building:levels": "2", "name": "Jagaro"}}, {"type": "way", "id": 160931543, "nodes": [5868828593, 5868827583, 5868828654, 5868828830, 5868828822, 5868828598, 5868828597, 5868828596, 5868828594, 5868828593], "tags": {"amenity": "restaurant", "building": "retail", "building:levels": "2", "name": "Aroma"}}, {"type": "way", "id": 160948746, "nodes": [5865989247, 5865989259, 5865989258, 5865989246, 5865989227, 5865989228, 5865989231, 5865989232, 5865989235, 5865989253, 5865989251, 5865989248, 5865989247], "tags": {"addr:housenumber": "227", "addr:street": "Moll de Llevant", "amenity": "restaurant", "building": "residential", "building:levels": "4", "cuisine": "thai", "name": "Wepi"}}, {"type": "way", "id": 161911337, "nodes": [1738618444, 1738618270, 1738618333, 1738618287, 1738618272, 1738618289, 6109753735, 1738618444], "tags": {"addr:city": "Ma\u00f3", "addr:housenumber": "23", "addr:postcode": "07701", "addr:street": "Carrer de sa S\u00ednia des Muret", "amenity": "restaurant", "building": "retail", "building:levels": "1", "name": "Can Avelino 23", "outdoor_seating": "yes", "phone": "+34 971 09 11 04", "website": "www.canavelino.com"}}, {"type": "way", "id": 161911719, "nodes": [6109720421, 6109720427, 6109720428, 6109720426, 6109720430, 6109720419, 6109720424, 6109720423, 6109720420, 6109720421], "tags": {"addr:housenumber": "39", "addr:postcode": "07702", "addr:street": "Carrer de sa Sinia des Muret", "amenity": "restaurant", "building": "apartments", "building:levels": "4", "building:levels:underground": "1", "cuisine": "tapas", "name": "Tap\u00e9s can Avelino", "name:ca": "Tap\u00e9s can Avelino"}}, {"type": "way", "id": 161911721, "nodes": [6109754098, 6109754207, 6109754163, 6109754092, 1738621455, 6109753775, 6109753736, 6109753758, 6109753740, 6109754139, 6109753746, 6109754195, 6109754200, 6109754169, 6109754176, 6109753767, 6109754166, 6109754175, 6109753768, 6109754108, 6109754122, 6109753754, 6109754204, 1738621444, 6109754167, 6109753747, 6109753752, 6109754135, 6109754138, 6109754132, 1738621445, 1738621436, 1738621453, 1738621451, 1738621446, 6109754173, 6109754148, 1738621447, 1738621454, 1738621450, 1738621443, 1738621449, 6109754098], "tags": {"addr:housenumber": "1", "addr:postcode": "07702", "addr:street": "Carrer de sa S\u00ednia des Muret", "amenity": "restaurant", "building": "retail", "building:levels": "2"}}, {"type": "way", "id": 163640990, "nodes": [5865989260, 5865989262, 5865989041, 5865989039, 5865989259, 5865989247, 5865989248, 5865989035, 1753092329, 5865989282, 5865989281, 5865989279, 5865989278, 5865989276, 5865989274, 5865989270, 5865989267, 5865989266, 5865989265, 5865989261, 5865989260], "tags": {"addr:housenumber": "225", "addr:street": "Moll de Llevant", "amenity": "restaurant", "building": "yes", "building:levels": "4", "cuisine": "regional", "name": "Ii Porto", "phone": "+34 971 354 426"}}, {"type": "way", "id": 193352220, "nodes": [5582978856, 2038580215, 2038580214, 2038580213, 2038580211, 2038580210, 5582978856], "tags": {"amenity": "restaurant", "building": "commercial", "building:levels": "1", "name": "La Golosa 2.0"}}, {"type": "way", "id": 295549335, "nodes": [2992796868, 2992796879, 2992796871, 2992796885, 5583851312, 2992796870, 5584916308, 2992796872, 2992796849, 2992796869, 2992796867, 2992796875, 2992796880, 2992796876, 2992796881, 2992796878, 2992796883, 2992796868], "tags": {"amenity": "restaurant", "building": "commercial", "building:levels": "1", "operator": "Insotel Punta Prima"}}, {"type": "way", "id": 295557092, "nodes": [5583851380, 5583852195, 2992861906, 2992861909, 2992861911, 2992861917, 2992861916, 2992861919, 2992861912, 2992861908, 2992861905, 2992861901, 2992861903, 2992861900, 2992861902, 2992861899, 5583851380], "tags": {"amenity": "restaurant", "building": "commercial", "building:levels": "1", "name": "Aire Mediterranean Restaurant", "operator": "Insotel Punta Prima"}}, {"type": "way", "id": 295557097, "nodes": [2992862733, 5583852021, 5583851989, 5583851982, 3037468707, 3037468705, 3037468706, 5583852546, 5583852542, 3037468715, 3037468716, 5583852121, 5583851832, 5583851801, 3037468713, 5583851741, 5583852494, 3037468711, 5583851648, 5583851630, 5583852480, 3037468712, 3037468708, 3037468709, 3037468714, 3037468717, 3037468710, 2992862734, 5583851913, 5583851931, 5583851927, 5583851925, 2992861930, 2992861929, 3037468702, 5583851908, 5583851907, 5583851909, 5583851904, 3037468699, 3037468704, 3037468703, 3037468698, 5583851875, 5583851868, 5583851862, 5583851899, 3037468697, 3037468701, 3037468700, 3037468694, 5583851828, 5583851893, 5583851892, 5583851891, 3037468692, 5583851796, 5583851789, 5583851886, 2992862733], "tags": {"amenity": "restaurant", "building": "commercial", "building:levels": "1", "name": "Menorca Buffet Restaurant", "operator": "Insotel Punta Prima"}}, {"type": "way", "id": 569889416, "nodes": [5479812132, 5479812138, 5479812139, 5479812136, 5479812133, 5479812143, 5479812135, 5479812140, 5479812141, 5533344692, 5479812137, 5479812132], "tags": {"addr:city": "Sant Llu\u00eds", "addr:country": "ES", "addr:housenumber": "46", "addr:place": "S'Ullestrar", "addr:postcode": "07711", "addr:street": "Cam\u00ed Vell de S'Ullestrar", "amenity": "restaurant", "building": "commercial", "building:levels": "2", "building:levels:underground": "1", "cuisine": "pizza", "name": "Villa Madrid", "phone": "+34 971 15 04 64"}}, {"type": "way", "id": 570496823, "nodes": [5484874959, 5484874940, 5484875001, 5484875006, 5484874984, 5484874985, 5484874987, 5484874951, 5484874954, 5484875003, 5484874983, 5484874937, 5484874986, 5484874997, 5484874989, 5484874992, 5484875000, 5484875005, 5534200920, 5484874990, 5484874998, 5484875004, 5484874946, 5484874959], "tags": {"addr:housenumber": "1", "addr:postcode": "07711", "addr:street": "Cam\u00ed des Baliacs", "amenity": "restaurant", "building": "commercial", "building:levels": "2", "name": "La Caraba"}}, {"type": "way", "id": 570501901, "nodes": [5484968798, 5484968795, 5484968820, 5484968783, 5484968777, 5484968815, 5484968813, 5484968812, 5533345045, 5484968811, 5484968810, 5484968809, 5484968808, 5484968806, 5484968805, 5484968804, 5484968803, 5484968801, 5484968800, 5484968798], "tags": {"addr:housenumber": "4", "addr:postcode": "07711", "addr:street": "Cam\u00ed de s'Ullastrar", "amenity": "restaurant", "building": "commercial", "building:levels": "2"}}, {"type": "way", "id": 570758017, "nodes": [5487107217, 5554055367, 5487107383, 5487107388, 5487107331, 5487107347, 5487107420, 5487107394, 5487107426, 5487107418, 5487107364, 5487107430, 5487107427, 5487107390, 5487107424, 5487107423, 5487107329, 5487107349, 5487107206, 5487107216, 5487107217], "tags": {"addr:housenumber": "14", "addr:postcode": "07711", "addr:street": "Cam\u00ed des Pujol", "amenity": "restaurant", "building": "commercial", "building:levels": "1", "building:levels:underground": "1", "contact:instagram": "sapedrerapujol", "cuisine": "fine_dining;mediterranean;regional;spanish", "email": "pedreramenorca@gmail.com", "name": "Sa Pedrera des Pujol", "phone": "+34 971 15 07 17", "website": "https://sapedreradespujol.com/"}}, {"type": "way", "id": 571082506, "nodes": [5489468023, 5489468098, 5489468022, 5489468117, 5489468112, 5489468111, 5489468113, 5489468071, 5489468110, 5489468109, 5489468021, 5489468094, 5489467819, 5489467818, 5489467816, 5489468087, 5489467815, 5489467814, 5489467813, 5489468026, 5489468024, 5489468023], "tags": {"addr:housenumber": "149", "addr:postcode": "07711", "addr:street": "Carrer de Sant Llu\u00eds", "amenity": "restaurant", "building": "commercial", "building:levels": "2", "name": "Restaurante La Venta"}}, {"type": "way", "id": 579019807, "nodes": [5546205331, 5546204937, 5546205211, 5546205220, 5546205332, 5546205334, 5546205218, 5546205447, 5546205977, 5546205604, 5546205965, 5546205188, 5546205328, 5546204950, 5546205344, 5546205170, 5546205193, 5546205326, 5546205331], "tags": {"amenity": "restaurant", "bar": "yes", "building": "hotel", "building:levels": "2", "check_date": "2025-05-25", "diet:vegetarian": "yes", "indoor_seating": "yes", "name": "Sa Cuina & Mar Blau", "outdoor_seating": "yes", "payment:credit_cards": "yes", "payment:debit_cards": "yes", "website": "https://sacuinamarblau.com"}}, {"type": "way", "id": 584912031, "nodes": [5590403486, 5590403515, 5590403509, 5590403510, 5590403505, 5590403507, 5590403513, 5590403508, 5590403512, 5590403514, 5590403516, 5590403504, 5590404125, 5590403481, 5590403483, 5590404144, 5590404133, 5590404128, 5590404122, 5590403487, 5590403511, 5590403506, 5590403502, 5590403501, 5590403499, 5590403496, 5602490455, 5590403494, 5590403490, 5590403486], "tags": {"amenity": "restaurant", "building": "commercial", "building:levels": "1", "name": "Kentia"}}, {"type": "way", "id": 592066190, "nodes": [5651533565, 5651533566, 5651533573, 5651533571, 5651533568, 5720332547, 5651533567, 5720332541, 5720332548, 5651533564, 5651533570, 5651533569, 5651533572, 5651533565], "tags": {"addr:housenumber": "1", "addr:postcode": "07720", "addr:street": "Passeig Mar\u00edtim", "amenity": "restaurant", "building": "yes"}}, {"type": "way", "id": 617844674, "nodes": [5840103393, 5840103411, 5840103404, 5840103408, 5840103395, 5840103418, 5840103437, 5840103402, 5840103423, 5840103415, 5840103432, 5840103463, 5103434913, 5840103468, 5840103427, 5840103393], "tags": {"amenity": "restaurant", "building": "retail", "building:levels": "2", "name": "Can Bernadet", "name:ca": "Can Bernadet"}}, {"type": "way", "id": 659739835, "nodes": [6176853442, 6176854515, 6176854764, 6176852658, 6176854941, 6176854907, 6176853482, 6176853420, 6176853438, 6176853605, 6176853433, 6176853442], "tags": {"addr:city": "Ma\u00f3", "addr:housenumber": "6", "addr:postcode": "07702", "addr:street": "Carrer de la Infanta", "air_conditioning": "yes", "amenity": "cafe", "bar": "yes", "building": "yes", "building:levels": "3", "building:levels:underground": "1", "cuisine": "coffee_shop", "name": "El Buz\u00f3n de Retu", "opening_hours": "11:30-15:30 / 19:00-23:00", "outdoor_seating": "no", "phone": "648 29 98 90", "smoking": "outside", "toilets": "yes", "website": "https://elbuzonderetu.com/", "wheelchair": "limited"}}, {"type": "way", "id": 1383959862, "nodes": [12813721863, 12813721864, 12813721865, 12813721866, 12813721863], "tags": {"addr:city": "Ma\u00f3", "addr:housenumber": "12", "addr:postcode": "07701", "addr:street": "Moll de Llevant", "amenity": "cafe", "building": "yes", "name": "Bar Quiosc Rochina", "outdoor_seating": "yes"}}]}