{"version": 0.6, "generator": "Overpass API 0.7.62.7 375dc00a", "osm3s": {"timestamp_osm_base": "2025-06-14T14:53:30Z", "copyright": "The data included in this document is from www.openstreetmap.org. The data is made available under ODbL."}, "elements": [{"type": "node", "id": 344556618, "lat": 42.6932769, "lon": 27.7086299, "tags": {"amenity": "cafe", "created_by": "Potlatch 0.10f", "name": "Condor"}}, {"type": "node", "id": 345400915, "lat": 42.7527726, "lon": 27.6922382, "tags": {"amenity": "restaurant", "created_by": "Potlatch 0.10f"}}, {"type": "node", "id": 345416697, "lat": 42.6925046, "lon": 27.7065977, "tags": {"amenity": "restaurant", "created_by": "Potlatch 0.10f", "name": "\u0418\u0440\u0438\u0441"}}, {"type": "node", "id": 345725879, "lat": 42.6965734, "lon": 27.7030332, "tags": {"amenity": "restaurant", "name": "\u0412\u0435\u0441\u0435\u043b\u043e \u0441\u0435\u043b\u043e"}}, {"type": "node", "id": 345731063, "lat": 42.6674481, "lon": 27.7080058, "tags": {"amenity": "restaurant", "name": "\u0415\u0441\u043f\u0435\u0440\u0430\u043d\u0442\u043e"}}, {"type": "node", "id": 345731451, "lat": 42.6605335, "lon": 27.7138021, "tags": {"addr:housenumber": "32", "addr:street": "\u041c\u043b\u0430\u0434\u043e\u0441\u0442", "amenity": "restaurant", "name": "\u0413\u0435\u0440\u0434\u0436\u0438\u043a\u0430", "website": "https://gerdjika.narod.ru/irina.html"}}, {"type": "node", "id": 345734351, "lat": 42.6812006, "lon": 27.7074512, "tags": {"amenity": "restaurant", "name": "\u041c\u0430\u0433\u0443\u0440\u0430"}}, {"type": "node", "id": 345738419, "lat": 42.6848442, "lon": 27.7092214, "tags": {"amenity": "restaurant", "created_by": "Potlatch 0.10f", "name": "\u041b\u043e\u0442\u0443\u0441"}}, {"type": "node", "id": 345740691, "lat": 42.688188, "lon": 27.7104746, "tags": {"amenity": "restaurant", "created_by": "Potlatch 0.10f", "name": "\u041b\u0430\u0441 \u041f\u0430\u043b\u043c\u0430\u0441"}}, {"type": "node", "id": 345741653, "lat": 42.6891673, "lon": 27.7115072, "tags": {"amenity": "restaurant", "created_by": "Potlatch 0.10f", "name": "\u0412\u0430\u0440\u0438\u0435\u0442\u0435,\u043a\u0430\u0437\u0438\u043d\u043e"}}, {"type": "node", "id": 345746391, "lat": 42.6603455, "lon": 27.7155375, "tags": {"addr:city": "\u041d\u0435\u0441\u0435\u0431\u044a\u0440", "amenity": "cafe", "name": "\u0414\u0436\u0443\u043d\u0438\u044a\u0440"}}, {"type": "node", "id": 346167807, "lat": 42.8167221, "lon": 27.8784689, "tags": {"amenity": "cafe"}}, {"type": "node", "id": 349327642, "lat": 42.6917222, "lon": 27.7076173, "tags": {"amenity": "restaurant", "name": "\u041a\u0438\u0442\u0430\u0439\u0441\u043a\u0438 \u0440-\u0442"}}, {"type": "node", "id": 349342310, "lat": 42.6843516, "lon": 27.7119474, "tags": {"amenity": "restaurant", "name": "\u043b\u0430 \u0431\u043e\u043c\u0431\u0430"}}, {"type": "node", "id": 361172537, "lat": 42.6465788, "lon": 27.6501357, "tags": {"amenity": "restaurant", "check_date": "2009-03-16"}}, {"type": "node", "id": 363429592, "lat": 42.659182, "lon": 27.7167998, "tags": {"amenity": "cafe", "name": "Dublin", "name:bg": "\u0414\u044a\u0431\u043b\u0438\u043d"}}, {"type": "node", "id": 364101546, "lat": 42.6602145, "lon": 27.5656547, "tags": {"amenity": "cafe", "created_by": "Potlatch 0.10f", "name:en": "The new"}}, {"type": "node", "id": 378862401, "lat": 42.6510632, "lon": 27.6506065, "tags": {"amenity": "cafe", "name": "\u0410\u0432\u0442\u043e\u0441\u0435\u0440\u0432\u0438\u0437, \u043a\u0430\u0444\u0435"}}, {"type": "node", "id": 399571268, "lat": 42.6494759, "lon": 27.6884755, "tags": {"amenity": "restaurant", "name": "\u0411\u043e\u043b\u044f\u0440\u0441\u043a\u0438 \u0441\u0442\u0430\u043d"}}, {"type": "node", "id": 402449494, "lat": 42.6590018, "lon": 27.7363399, "tags": {"amenity": "restaurant", "name": "\u0421\u0442\u0430\u0440\u0438\u044f \u041a\u0430\u0432\u0430\u043a"}}, {"type": "node", "id": 402452013, "lat": 42.6592062, "lon": 27.7365786, "tags": {"amenity": "restaurant", "name": "\u0414\u0430\u043c\u0430 \u043a\u0430\u0440\u043e"}}, {"type": "node", "id": 405379813, "lat": 42.6578202, "lon": 27.7338725, "tags": {"amenity": "restaurant", "name": "\u0410\u043d\u0434\u0440\u043e\u043c\u0435\u0434\u0430", "name:bg": "Andromeda (Nesebar)", "name:tr": "Andromeda"}}, {"type": "node", "id": 426983408, "lat": 42.7798679, "lon": 27.5968606, "tags": {"amenity": "restaurant", "name": "\u0431\u044f\u043b\u0430 \u0440\u044f\u043a\u0430"}}, {"type": "node", "id": 441120330, "lat": 42.8808571, "lon": 27.8893963, "tags": {"amenity": "restaurant", "name": "\u0411\u0438\u0441\u0442\u0440\u043e \u041a\u043e\u0440\u0430\u0431\u0430", "name:en": "Bistro Koraba"}}, {"type": "node", "id": 445066824, "lat": 42.673299, "lon": 27.7109553, "tags": {"amenity": "restaurant", "name": "\u0424\u0440\u0435\u0433\u0430\u0442\u0430", "name:en": "Restaurant Del Mar"}}, {"type": "node", "id": 461983069, "lat": 42.6579469, "lon": 27.716374, "tags": {"addr:city": "\u041d\u0435\u0441\u0435\u0431\u044a\u0440", "amenity": "restaurant", "name": "Ivanoff", "name:bg": "\u0418\u0432\u0430\u043d\u043e\u0444"}}, {"type": "node", "id": 504517228, "lat": 42.6575301, "lon": 27.732923, "tags": {"amenity": "restaurant", "name": "\u041a\u0430\u043f\u0438\u0442\u0430\u043d\u0441\u043a\u0430 \u0441\u0440\u0435\u0449\u0430"}}, {"type": "node", "id": 504523909, "lat": 42.6598484, "lon": 27.7362981, "tags": {"amenity": "restaurant", "name": "\u041f\u0440\u0438\u043d\u0446 \u041a\u0438\u0440\u0438\u043b"}}, {"type": "node", "id": 517495219, "lat": 42.8756018, "lon": 27.8863868, "tags": {"amenity": "restaurant", "cuisine": "regional", "name": "\u041f\u0440\u0438 \u041a\u0430\u043c\u0435\u043d"}}, {"type": "node", "id": 939642329, "lat": 42.658309, "lon": 27.5711661, "tags": {"amenity": "restaurant", "name": "\u041f\u0440\u0438 \u0413\u043e\u0446\u043e", "name:en": "Titus"}}, {"type": "node", "id": 939652921, "lat": 42.6252152, "lon": 27.5741488, "tags": {"amenity": "cafe"}}, {"type": "node", "id": 1341518050, "lat": 42.8197807, "lon": 27.8826, "tags": {"amenity": "cafe", "name": "Tania"}}, {"type": "node", "id": 1341518054, "lat": 42.8184775, "lon": 27.8810569, "tags": {"amenity": "cafe", "name": "\u041a\u0440\u0438\u0441\u0442\u0430\u043b"}}, {"type": "node", "id": 1341518061, "lat": 42.8197308, "lon": 27.8822598, "tags": {"amenity": "cafe", "name": "\u0414\u0438\u043e\u043d\u0438\u0441\u0438\u0439"}}, {"type": "node", "id": 1341518070, "lat": 42.817883, "lon": 27.8830163, "tags": {"amenity": "cafe", "name": "\u0422\u0440\u0430\u043a\u0438\u0439\u0441\u043a\u0438\u0439 \u0421\u0442\u0430\u043d"}}, {"type": "node", "id": 1341518071, "lat": 42.8181604, "lon": 27.8825728, "tags": {"amenity": "cafe", "name": "\u041b\u043e\u0442\u043e\u0441"}}, {"type": "node", "id": 1341518074, "lat": 42.8200268, "lon": 27.8793249, "tags": {"amenity": "cafe", "name": "\u041b\u043e\u0442\u043e\u0441"}}, {"type": "node", "id": 1341518076, "lat": 42.8193399, "lon": 27.8814368, "tags": {"amenity": "cafe"}}, {"type": "node", "id": 1341518084, "lat": 42.8198147, "lon": 27.8836638, "tags": {"amenity": "cafe", "name": "\u0411\u0435\u043b\u043b\u0430"}}, {"type": "node", "id": 1341518086, "lat": 42.8161708, "lon": 27.8846295, "tags": {"amenity": "cafe", "name": "\u0411\u0438\u0441\u0435\u0440"}}, {"type": "node", "id": 1341518091, "lat": 42.8179189, "lon": 27.8821784, "tags": {"amenity": "cafe", "name": "\u0421\u0442\u0443\u0434\u0435\u043d \u041a\u043b\u0430\u0434\u0435\u043d\u0435\u0446"}}, {"type": "node", "id": 1341518098, "lat": 42.8229894, "lon": 27.879009, "tags": {"amenity": "cafe", "name": "Zora"}}, {"type": "node", "id": 1341518102, "lat": 42.8194834, "lon": 27.8800074, "tags": {"amenity": "cafe"}}, {"type": "node", "id": 1341518106, "lat": 42.8212135, "lon": 27.8818383, "tags": {"amenity": "restaurant", "internet_access": "yes", "name": "\u0411\u0430\u0440\u0431\u0430"}}, {"type": "node", "id": 1341518112, "lat": 42.8192021, "lon": 27.8817891}, {"type": "node", "id": 1341518119, "lat": 42.8226562, "lon": 27.8794198, "tags": {"amenity": "cafe", "name": "\u042d\u043b\u043b\u0430\u0434\u0430"}}, {"type": "node", "id": 1341518124, "lat": 42.8196662, "lon": 27.8824604, "tags": {"amenity": "cafe", "name": "\u041e\u043b\u0438\u043c\u043f"}}, {"type": "node", "id": 1341518128, "lat": 42.818793, "lon": 27.8816647, "tags": {"addr:city": "\u041e\u0431\u0437\u043e\u0440", "addr:housenumber": "1", "addr:postcode": "8250", "addr:street": "\u043f\u043b. \u0421\u0432\u043e\u0431\u043e\u0434\u0430", "amenity": "restaurant", "cuisine": "regional", "name": "\u0421\u0435\u0432\u0430\u0441\u0442\u043e\u043f\u043e\u043b"}}, {"type": "node", "id": 1341523195, "lat": 42.8194775, "lon": 27.8840807, "tags": {"amenity": "cafe", "name": "\u0413\u0430\u043b\u0435\u0440\u0430\u0442\u0430"}}, {"type": "node", "id": 1341523199, "lat": 42.8190285, "lon": 27.882532, "tags": {"amenity": "cafe", "name": "Palma Pub"}}, {"type": "node", "id": 1341523202, "lat": 42.8192619, "lon": 27.8841616, "tags": {"amenity": "cafe"}}, {"type": "node", "id": 1342675717, "lat": 42.7043639, "lon": 27.8026752}, {"type": "node", "id": 1342675731, "lat": 42.7041854, "lon": 27.8025239}, {"type": "node", "id": 1342675733, "lat": 42.7042545, "lon": 27.8023952}, {"type": "node", "id": 1342675763, "lat": 42.7041626, "lon": 27.8028417}, {"type": "node", "id": 1342675791, "lat": 42.7041633, "lon": 27.8021147}, {"type": "node", "id": 1342675797, "lat": 42.704373, "lon": 27.8025489}, {"type": "node", "id": 1342675803, "lat": 42.704364, "lon": 27.8028685}, {"type": "node", "id": 1342675819, "lat": 42.7043778, "lon": 27.802677}, {"type": "node", "id": 1342675821, "lat": 42.7041727, "lon": 27.8024001}, {"type": "node", "id": 1342675826, "lat": 42.7042451, "lon": 27.8021097}, {"type": "node", "id": 1343137994, "lat": 42.8211519, "lon": 27.880563, "tags": {"amenity": "cafe", "name": "\u0417\u043b\u0430\u0442\u043d\u0430 \u041a\u043e\u0442\u0432\u0430"}}, {"type": "node", "id": 1343137998, "lat": 42.8214029, "lon": 27.8806655, "tags": {"amenity": "cafe", "name": "\u0420\u0430\u0439"}}, {"type": "node", "id": 1343912724, "lat": 42.6822595, "lon": 27.7080144, "tags": {"amenity": "restaurant"}}, {"type": "node", "id": 1343912725, "lat": 42.68223, "lon": 27.7104928, "tags": {"amenity": "restaurant"}}, {"type": "node", "id": 1343912732, "lat": 42.6826086, "lon": 27.707875, "tags": {"amenity": "restaurant", "cuisine": "international;local", "internet_access": "wlan", "name": "\u0411\u0435\u043b\u0438\u044f \u0434\u043e\u043c", "name:en": "White House", "name:ru": "\u0411\u0435\u043b\u044b\u0439 \u0434\u043e\u043c", "opening_hours": "Mo-Su 10:00-24:00"}}, {"type": "node", "id": 1343912734, "lat": 42.6844738, "lon": 27.7075263, "tags": {"amenity": "restaurant", "name": "Smartline Meridian 4*"}}, {"type": "node", "id": 1343913708, "lat": 42.6842874, "lon": 27.7092696, "tags": {"amenity": "restaurant"}}, {"type": "node", "id": 1344669292, "lat": 42.8180104, "lon": 27.8842911, "tags": {"amenity": "cafe", "name": "\u041c\u043e\u0440\u0441\u043a\u0430 \u0421\u0440\u0435\u0449\u0430"}}, {"type": "node", "id": 1344669312, "lat": 42.8224912, "lon": 27.8788138, "tags": {"amenity": "cafe", "name": "Perla"}}, {"type": "node", "id": 1345847493, "lat": 42.8224909, "lon": 27.8784561, "tags": {"amenity": "cafe", "name": "\u041e\u0440\u0435\u0445\u0430"}}, {"type": "node", "id": 1345847495, "lat": 42.8219576, "lon": 27.8818714, "tags": {"amenity": "cafe", "name": "\u041b\u0430\u0437\u0443\u0440"}}, {"type": "node", "id": 1345847496, "lat": 42.822551, "lon": 27.8797976, "tags": {"amenity": "cafe", "name": "\u0411y\u043d\u0430\u0440\u0430"}}, {"type": "node", "id": 1345847510, "lat": 42.8224196, "lon": 27.8820915, "tags": {"amenity": "cafe", "name": "\u041c\u0438\u0440\u0430\u0436"}}, {"type": "node", "id": 1365141289, "lat": 42.8159137, "lon": 27.885505, "tags": {"amenity": "cafe"}}, {"type": "node", "id": 1365143798, "lat": 42.8207845, "lon": 27.8830826, "tags": {"amenity": "cafe"}}, {"type": "node", "id": 1809386955, "lat": 42.7117676, "lon": 27.7597335, "tags": {"amenity": "restaurant", "name": "St.George"}}, {"type": "node", "id": 1819162293, "lat": 42.7159594, "lon": 27.7272564}, {"type": "node", "id": 1819162295, "lat": 42.7160545, "lon": 27.7268666}, {"type": "node", "id": 1819162296, "lat": 42.7161577, "lon": 27.7270698}, {"type": "node", "id": 1832171458, "lat": 42.6522378, "lon": 27.6948983, "tags": {"amenity": "restaurant", "cuisine": "regional", "name": "\u041f\u0438\u043d\u043a\u043e\u0432\u0438", "name:en": "Pinkovi"}}, {"type": "node", "id": 1834036351, "lat": 42.8204898, "lon": 27.8844533, "tags": {"amenity": "restaurant", "cuisine": "seafood", "name": "\u041c\u043e\u0440\u0441\u043a\u0430 \u041f\u0435\u0440\u043b\u0430"}}, {"type": "node", "id": 1846117842, "lat": 42.8762209, "lon": 27.8850576, "tags": {"amenity": "cafe", "name": "Sunrise"}}, {"type": "node", "id": 1846117947, "lat": 42.8741765, "lon": 27.8926693, "tags": {"amenity": "restaurant", "name": "\u0412\u043e\u0434\u0435\u043d\u0438\u0446\u0430"}}, {"type": "node", "id": 1846117978, "lat": 42.8741392, "lon": 27.8928517, "tags": {"amenity": "restaurant"}}, {"type": "node", "id": 1863999213, "lat": 42.7080111, "lon": 27.7220725, "tags": {"amenity": "restaurant", "name": "Severina"}}, {"type": "node", "id": 1864003616, "lat": 42.7068301, "lon": 27.7238369, "tags": {"amenity": "restaurant", "name": "Friends"}}, {"type": "node", "id": 1875867878, "lat": 42.6413405, "lon": 27.6736845}, {"type": "node", "id": 1875867900, "lat": 42.6414151, "lon": 27.6738904}, {"type": "node", "id": 1875867910, "lat": 42.6414387, "lon": 27.6736187}, {"type": "node", "id": 1875867921, "lat": 42.6415133, "lon": 27.6738246}, {"type": "node", "id": 1886344041, "lat": 42.6575509, "lon": 27.7162888, "tags": {"addr:city": "\u041d\u0435\u0441\u0435\u0431\u044a\u0440", "amenity": "restaurant", "cuisine": "international", "name": "\u0421\u0442\u0430\u0440\u0438\u044f\u0442 \u043a\u0435\u0441\u0442\u0435\u043d"}}, {"type": "node", "id": 1886699335, "lat": 42.6422482, "lon": 27.6755154}, {"type": "node", "id": 1886699336, "lat": 42.6422822, "lon": 27.6756342}, {"type": "node", "id": 1886699341, "lat": 42.6424, "lon": 27.6754351}, {"type": "node", "id": 1886699342, "lat": 42.642434, "lon": 27.6755539}, {"type": "node", "id": 1889726519, "lat": 42.6434325, "lon": 27.6748411, "tags": {"amenity": "restaurant", "name": "Admiral"}}, {"type": "node", "id": 1889726525, "lat": 42.6430158, "lon": 27.6740871, "tags": {"amenity": "cafe", "name": "Bistro Sanrise"}}, {"type": "node", "id": 1889726526, "lat": 42.6435141, "lon": 27.6754305, "tags": {"amenity": "cafe", "name": "\u041a\u043e\u0440\u0430\u043b"}}, {"type": "node", "id": 1889726667, "lat": 42.6432142, "lon": 27.6751684, "tags": {"amenity": "restaurant", "name": "Perla"}}, {"type": "node", "id": 1889726823, "lat": 42.6442045, "lon": 27.6777331}, {"type": "node", "id": 1889726836, "lat": 42.6443252, "lon": 27.6776345}, {"type": "node", "id": 1889726845, "lat": 42.6443376, "lon": 27.6776624}, {"type": "node", "id": 1889726847, "lat": 42.6442572, "lon": 27.6778479}, {"type": "node", "id": 1889726856, "lat": 42.6443835, "lon": 27.6776233}, {"type": "node", "id": 1889726879, "lat": 42.6444243, "lon": 27.6777098}, {"type": "node", "id": 1889726884, "lat": 42.6444685, "lon": 27.6775207, "tags": {"amenity": "restaurant"}}, {"type": "node", "id": 1890101239, "lat": 42.6433261, "lon": 27.6725451, "tags": {"amenity": "cafe", "name": "Fiesta"}}, {"type": "node", "id": 1890101240, "lat": 42.6446657, "lon": 27.6774161, "tags": {"amenity": "cafe", "name": "Fresh Sea Food"}}, {"type": "node", "id": 1890101245, "lat": 42.6423691, "lon": 27.6765869}, {"type": "node", "id": 1890101247, "lat": 42.6424192, "lon": 27.6765556}, {"type": "node", "id": 1890101248, "lat": 42.6424249, "lon": 27.6767522}, {"type": "node", "id": 1890101249, "lat": 42.6424751, "lon": 27.676721}, {"type": "node", "id": 1890529130, "lat": 42.7157716, "lon": 27.7271491}, {"type": "node", "id": 1890529132, "lat": 42.7157824, "lon": 27.7270196}, {"type": "node", "id": 1890529134, "lat": 42.7158312, "lon": 27.7272511}, {"type": "node", "id": 1890529148, "lat": 42.7158574, "lon": 27.7269384}, {"type": "node", "id": 1890529149, "lat": 42.7159264, "lon": 27.7272659}, {"type": "node", "id": 1890529150, "lat": 42.7159508, "lon": 27.7272394}, {"type": "node", "id": 1890529151, "lat": 42.7159526, "lon": 27.7269532}, {"type": "node", "id": 1890529152, "lat": 42.7159561, "lon": 27.7269592}, {"type": "node", "id": 2136185454, "lat": 42.6628391, "lon": 27.7173025}, {"type": "node", "id": 2136185456, "lat": 42.6628901, "lon": 27.7171556}, {"type": "node", "id": 2136185469, "lat": 42.6630465, "lon": 27.7174357}, {"type": "node", "id": 2136185471, "lat": 42.6630975, "lon": 27.7172888}, {"type": "node", "id": 2147500687, "lat": 42.6550535, "lon": 27.7112668}, {"type": "node", "id": 2147500688, "lat": 42.6551153, "lon": 27.7114271}, {"type": "node", "id": 2147500689, "lat": 42.6551867, "lon": 27.7111718}, {"type": "node", "id": 2147500690, "lat": 42.6552485, "lon": 27.7113321}, {"type": "node", "id": 2195863521, "lat": 42.6992377, "lon": 27.7140769}, {"type": "node", "id": 2207325505, "lat": 42.7013738, "lon": 27.719655}, {"type": "node", "id": 2207325512, "lat": 42.7013553, "lon": 27.7192869}, {"type": "node", "id": 2207325565, "lat": 42.7015015, "lon": 27.7197094}, {"type": "node", "id": 2207325574, "lat": 42.7015957, "lon": 27.7193919}, {"type": "node", "id": 2218821550, "lat": 42.6945275, "lon": 27.7133065}, {"type": "node", "id": 2218821555, "lat": 42.6946931, "lon": 27.7133842}, {"type": "node", "id": 2262581446, "lat": 42.6607993, "lon": 27.7164982, "tags": {"addr:city": "\u041d\u0435\u0441\u0435\u0431\u044a\u0440", "addr:housenumber": "19", "addr:street": "\u041e\u0442\u0435\u0446 \u041f\u0430\u0438\u0441\u0438\u0439", "amenity": "cafe", "cuisine": "pie", "name": "ANGELS"}}, {"type": "node", "id": 2262581447, "lat": 42.6630008, "lon": 27.717693, "tags": {"addr:city": "\u041d\u0435\u0441\u0435\u0431\u044a\u0440", "addr:street": "\u0421\u0442\u0440\u0443\u043c\u0430", "amenity": "restaurant", "cuisine": "pizza", "name": "Bistro Prima"}}, {"type": "node", "id": 2262623853, "lat": 42.6604493, "lon": 27.7162002, "tags": {"addr:city": "\u041d\u0435\u0441\u0435\u0431\u044a\u0440", "addr:housenumber": "54", "addr:street": "\u041e\u0442\u0435\u0446 \u041f\u0430\u0438\u0441\u0438\u0439", "amenity": "cafe", "name": "\u041a\u0440\u0438\u0441"}}, {"type": "node", "id": 2262719065, "lat": 42.6581408, "lon": 27.7160966, "tags": {"addr:housenumber": "14", "addr:street": "\u0418\u0432\u0430\u043d \u0412\u0430\u0437\u043e\u0432", "amenity": "cafe", "cuisine": "pizza", "name": "\u0411\u0443\u043b\u0435\u0432\u0430\u0440\u0434", "name:en": "BOULEVARD", "name:ru": "\u0411\u0443\u043b\u044c\u0432\u0430\u0440", "opening_hours": "07:00-24:00", "outdoor_seating": "yes", "phone": "+359 554 45 554"}}, {"type": "node", "id": 2262719066, "lat": 42.6627192, "lon": 27.7214124, "tags": {"addr:housenumber": "21", "addr:street": "\u0418\u0437\u0433\u0440\u0435\u0432", "amenity": "restaurant", "name": "\u0410\u0431\u043e\u0440\u0434\u0430\u0436"}}, {"type": "node", "id": 2262732718, "lat": 42.6623097, "lon": 27.7166584, "tags": {"addr:city": "\u041d\u0435\u0441\u0435\u0431\u044a\u0440", "addr:street": "\u041e\u0442\u0435\u0446 \u041f\u0430\u0438\u0441\u0438\u0439", "amenity": "cafe", "name": "GARDEN"}}, {"type": "node", "id": 2262732722, "lat": 42.655991, "lon": 27.7162531, "tags": {"amenity": "cafe", "name": "\u0412\u0435\u0440\u043e\u043d\u0438\u043a\u0430"}}, {"type": "node", "id": 2262732723, "lat": 42.6624436, "lon": 27.7166748, "tags": {"addr:city": "\u041d\u0435\u0441\u0435\u0431\u044a\u0440", "addr:street": "\u041e\u0442\u0435\u0446 \u041f\u0430\u0438\u0441\u0438\u0439", "amenity": "cafe", "name": "JAZZ Cafe"}}, {"type": "node", "id": 2265609935, "lat": 42.6617908, "lon": 27.7213063, "tags": {"addr:street": "\u0443\u043b. \u0425\u0430\u043d \u041a\u0440\u0443\u043c", "amenity": "cafe", "cuisine": "pie", "name": "\u0414\u0415\u0422\u0415\u041b\u0418\u041d\u0410"}}, {"type": "node", "id": 2265609936, "lat": 42.6617833, "lon": 27.7190224, "tags": {"addr:street": "\u0443\u043b. \u0421\u0432. \u041a\u0438\u0440\u0438\u043b \u0438 \u041c\u0435\u0442\u043e\u0434\u0438\u0439", "amenity": "cafe", "name": "\u0414\u0416\u0410\u041d\u0413\u042a\u0420\u0410"}}, {"type": "node", "id": 2265632148, "lat": 42.6626206, "lon": 27.7181782, "tags": {"addr:city": "\u041d\u0435\u0441\u0435\u0431\u044a\u0440", "addr:housenumber": "11", "addr:street": "\u0425\u0430\u043d \u041a\u0440\u0443\u043c", "amenity": "cafe", "name": "CARAMEL"}}, {"type": "node", "id": 2265632149, "lat": 42.6625092, "lon": 27.7189361, "tags": {"addr:city": "\u041d\u0435\u0441\u0435\u0431\u044a\u0440", "addr:housenumber": "11", "addr:street": "\u0425\u0430\u043d \u041a\u0440\u0443\u043c", "amenity": "cafe", "name": "JUNIOR"}}, {"type": "node", "id": 2265632150, "lat": 42.6625914, "lon": 27.7186671, "tags": {"addr:city": "\u041d\u0435\u0441\u0435\u0431\u044a\u0440", "addr:housenumber": "11", "addr:street": "\u0425\u0430\u043d \u041a\u0440\u0443\u043c", "amenity": "cafe", "internet_access": "wlan", "name": "LA CUBA NERRA"}}, {"type": "node", "id": 2265632151, "lat": 42.6624374, "lon": 27.7191824, "tags": {"addr:city": "\u041d\u0435\u0441\u0435\u0431\u044a\u0440", "addr:housenumber": "11", "addr:street": "\u0425\u0430\u043d \u041a\u0440\u0443\u043c", "amenity": "cafe", "name": "XTREME"}}, {"type": "node", "id": 2265632152, "lat": 42.6627046, "lon": 27.7193396, "tags": {"addr:city": "\u041d\u0435\u0441\u0435\u0431\u044a\u0440", "addr:housenumber": "22", "addr:street": "\u0425\u0430\u043d \u041a\u0440\u0443\u043c", "amenity": "restaurant", "name": "\u041c\u0418\u0421\u0422\u0420\u0410\u041b"}}, {"type": "node", "id": 2265642150, "lat": 42.6617346, "lon": 27.7214106, "tags": {"addr:street": "\u0443\u043b. \u0425\u0430\u043d \u041a\u0440\u0443\u043c", "amenity": "cafe", "name": "\u041f\u0430\u043b\u043c\u0430"}}, {"type": "node", "id": 2265642151, "lat": 42.6646217, "lon": 27.7156358, "tags": {"addr:street": "\u0443\u043b. \u0425\u0430\u043d \u041a\u0440\u0443\u043c", "amenity": "restaurant", "name": "\u0421\u0411\u0420"}}, {"type": "node", "id": 2265642152, "lat": 42.6625477, "lon": 27.7197434, "tags": {"addr:city": "\u041d\u0435\u0441\u0435\u0431\u044a\u0440", "addr:housenumber": "22", "addr:street": "\u0425\u0430\u043d \u041a\u0440\u0443\u043c", "amenity": "cafe", "name": "\u0421\u0438\u043e\u043d"}}, {"type": "node", "id": 2265642153, "lat": 42.6619127, "lon": 27.7210785, "tags": {"addr:street": "\u0443\u043b. \u0425\u0430\u043d \u041a\u0440\u0443\u043c", "amenity": "cafe", "cuisine": "pie", "name": "\u042f\u043c\u0430\u0439\u043a\u0430"}}, {"type": "node", "id": 2268367517, "lat": 42.6602806, "lon": 27.7162354, "tags": {"addr:city": "\u041d\u0435\u0441\u0435\u0431\u044a\u0440", "addr:street": "\u041e\u0442\u0435\u0446 \u041f\u0430\u0438\u0441\u0438\u0439", "amenity": "cafe", "cuisine": "pizza", "name": "ONYX"}}, {"type": "node", "id": 2268367521, "lat": 42.6595212, "lon": 27.7163211, "tags": {"addr:city": "\u041d\u0435\u0441\u0435\u0431\u044a\u0440", "addr:housenumber": "27\u0430", "addr:street": "\u041e\u0442\u0435\u0446 \u041f\u0430\u0438\u0441\u0438\u0439", "amenity": "cafe", "cuisine": "pizza", "name": "PALAZZO", "phone": "+359 89 353 1594", "website": "http://www.facebook.com/pages/Palazzo-pizza-bar-restaurant/173452525998193"}}, {"type": "node", "id": 2268367529, "lat": 42.6601913, "lon": 27.7162168, "tags": {"addr:city": "\u041d\u0435\u0441\u0435\u0431\u044a\u0440", "addr:street": "\u041e\u0442\u0435\u0446 \u041f\u0430\u0438\u0441\u0438\u0439", "amenity": "cafe", "cuisine": "pizza"}}, {"type": "node", "id": 2270683375, "lat": 42.6611781, "lon": 27.7164985, "tags": {"addr:city": "\u041d\u0435\u0441\u0435\u0431\u044a\u0440", "addr:housenumber": "40", "addr:street": "\u0413.\u0421.\u0420\u0430\u043a\u043e\u0432\u0441\u043a\u0438", "amenity": "restaurant", "cuisine": "italian_pizza;regional", "email": "nikivasilev@abv.bg", "internet_access": "wlan", "name": "\u0411\u044f\u043b\u0430 \u0420\u043e\u0437\u0430", "name:en": "White Rose", "name:ru": "\u0411\u0435\u043b\u0430\u044f \u0440\u043e\u0437\u0430", "outdoor_seating": "yes", "phone": "+359 89 792 5256"}}, {"type": "node", "id": 2270683386, "lat": 42.6611435, "lon": 27.7191613, "tags": {"addr:city": "\u041d\u0435\u0441\u0435\u0431\u044a\u0440", "addr:housenumber": "12", "addr:street": "\u0413.\u0421.\u0420\u0430\u043a\u043e\u0432\u0441\u043a\u0438", "amenity": "restaurant", "name": "\u0421\u0422\u0410\u0420\u0418\u042f\u0422 \u041e\u0420\u0415\u0425"}}, {"type": "node", "id": 2270829823, "lat": 42.6589402, "lon": 27.7211772, "tags": {"addr:city": "\u041d\u0435\u0441\u0435\u0431\u044a\u0440", "addr:street": "\u0418\u0432\u0430\u043d \u0412\u0430\u0437\u043e\u0432", "amenity": "cafe", "cuisine": "pizza", "name": "VENICE", "name:bg": "\u0412\u0435\u043d\u0438\u0441", "name:en": "Venice"}}, {"type": "node", "id": 2270829824, "lat": 42.6577136, "lon": 27.7186719, "tags": {"addr:city": "\u041d\u0435\u0441\u0435\u0431\u044a\u0440", "addr:street": "\u042e\u0436\u043d\u044b\u0439 \u043f\u043b\u044f\u0436", "amenity": "restaurant", "name": "\u0427\u0415\u0412\u0415\u0420\u041c\u0415\u0422\u041e", "phone": "+359 88 619 1919", "website": "http://www.chevermeto-nessebar.com"}}, {"type": "node", "id": 2271351262, "lat": 42.6591089, "lon": 27.7181979, "tags": {"addr:city": "\u041d\u0435\u0441\u0435\u0431\u044a\u0440", "addr:housenumber": "23", "addr:street": "\u0418\u0432\u0430\u043d \u0412\u0430\u0437\u043e\u0432", "amenity": "restaurant", "name": "\u041d\u0435\u0441\u0435\u0431\u044a\u0440", "outdoor_seating": "yes"}}, {"type": "node", "id": 2272407348, "lat": 42.6587163, "lon": 27.7202982, "tags": {"addr:city": "\u041d\u0435\u0441\u0435\u0431\u044a\u0440", "amenity": "restaurant", "name": "VIGO"}}, {"type": "node", "id": 2272430226, "lat": 42.6623444, "lon": 27.7215749, "tags": {"addr:housenumber": "21", "addr:street": "\u0418\u0437\u0433\u0440\u0435\u0432", "amenity": "cafe", "name": "\u0413\u043e\u043d\u0434\u043e\u043b\u0430"}}, {"type": "node", "id": 2273445684, "lat": 42.6581871, "lon": 27.7166881, "tags": {"addr:housenumber": "5", "addr:street": "\u0418\u0432\u0430\u043d \u0412\u0430\u0437\u043e\u0432", "amenity": "cafe", "name": "\u041e\u0430\u0437\u0438\u0441"}}, {"type": "node", "id": 2277006955, "lat": 42.658423, "lon": 27.7198589}, {"type": "node", "id": 2277006957, "lat": 42.6584991, "lon": 27.7198124}, {"type": "node", "id": 2277006959, "lat": 42.6585016, "lon": 27.7200778}, {"type": "node", "id": 2277006965, "lat": 42.6585777, "lon": 27.7200313}, {"type": "node", "id": 2279238716, "lat": 42.6556216, "lon": 27.7125448, "tags": {"addr:street": "\u042e\u0436\u043d\u044b\u0439 \u043f\u043b\u044f\u0436", "amenity": "restaurant", "name": "\u0417\u043b\u0430\u0442\u043d\u0430 \u0434\u044e\u043d\u0430", "name:en": "Golden Dune", "opening_hours": "07:00-24:00", "phone": "+359 87 834 5001"}}, {"type": "node", "id": 2286659160, "lat": 42.8753017, "lon": 27.8868384, "tags": {"amenity": "restaurant", "name": "\u041c\u0435\u0445\u0430\u043d\u0430 \u0418\u043b\u0438\u043d\u0434\u0435\u043d"}}, {"type": "node", "id": 2288106428, "lat": 42.8655977, "lon": 27.8856342, "tags": {"amenity": "restaurant", "name": "\u041f\u043e\u0441\u0435\u0439\u0434\u043e\u043d", "phone": "+359 89 842 0937"}}, {"type": "node", "id": 2297542266, "lat": 42.7085329, "lon": 27.7633752, "tags": {"amenity": "restaurant", "name": "Tuna"}}, {"type": "node", "id": 2298018815, "lat": 42.6579005, "lon": 27.734264, "tags": {"amenity": "restaurant", "name": "Sea View Gardens"}}, {"type": "node", "id": 2298018830, "lat": 42.6577559, "lon": 27.7341222, "tags": {"amenity": "restaurant", "name": "Stari Nesebr"}}, {"type": "node", "id": 2298018843, "lat": 42.6583536, "lon": 27.7343435, "tags": {"amenity": "restaurant", "cuisine": "steak_house;regional;pizza;seafood;barbecue", "diet:vegetarian": "yes", "internet_access": "wlan", "name": "Old Sailor", "phone": "+359 89 869 8747"}}, {"type": "node", "id": 2298689429, "lat": 42.6594161, "lon": 27.7394674, "tags": {"amenity": "restaurant", "name": "Iannis Paradise", "name:bg": "\u042f\u043d\u0438\u0441", "name:en": "Iannis Paradise"}}, {"type": "node", "id": 2298689446, "lat": 42.6462641, "lon": 27.6146401, "tags": {"amenity": "restaurant"}}, {"type": "node", "id": 2298689448, "lat": 42.660156, "lon": 27.7358318, "tags": {"amenity": "restaurant", "name": "\u041a\u0440\u0438\u043c", "opening_hours": "Mo-Su 09:00-23:00", "outdoor_seating": "yes", "stars": "2", "wheelchair": "limited"}}, {"type": "node", "id": 2298689454, "lat": 42.6590348, "lon": 27.7381486, "tags": {"amenity": "restaurant", "name": "\u041d\u0435\u043f\u0442\u0443\u043d"}}, {"type": "node", "id": 2368394415, "lat": 42.7036815, "lon": 27.8135472, "tags": {"amenity": "restaurant", "name": "Philipopolis", "stars": "3"}}, {"type": "node", "id": 2399949803, "lat": 42.6503317, "lon": 27.6836617, "tags": {"amenity": "restaurant", "cuisine": "regional", "name": "\u0412\u0430\u0440\u0432\u0430\u0440\u0438"}}, {"type": "node", "id": 2410977390, "lat": 42.6941285, "lon": 27.7135992}, {"type": "node", "id": 2450524105, "lat": 42.6524353, "lon": 27.6932532, "tags": {"amenity": "restaurant", "cuisine": "regional", "name": "\u041a\u0430\u0440\u0435\u043b"}}, {"type": "node", "id": 2450524113, "lat": 42.6445281, "lon": 27.6793748, "tags": {"addr:city": "\u0420\u0430\u0432\u0434\u0430", "amenity": "restaurant", "cuisine": "bistro;fish;bulgarian", "name": "\u0417\u043b\u0430\u0442\u043d\u0430 \u0440\u0438\u0431\u043a\u0430", "outdoor_seating": "yes"}}, {"type": "node", "id": 2450524119, "lat": 42.6446796, "lon": 27.6797759, "tags": {"amenity": "cafe", "indoor_seating": "yes", "outdoor_seating": "yes"}}, {"type": "node", "id": 2450524135, "lat": 42.645405, "lon": 27.6808581, "tags": {"amenity": "cafe"}}, {"type": "node", "id": 2491902656, "lat": 42.9101991, "lon": 27.8414373}, {"type": "node", "id": 2491902657, "lat": 42.9104916, "lon": 27.8412079}, {"type": "node", "id": 2491902658, "lat": 42.9101281, "lon": 27.8409865}, {"type": "node", "id": 2491902659, "lat": 42.9100818, "lon": 27.8411427}, {"type": "node", "id": 2491903014, "lat": 42.9156328, "lon": 27.8232531, "tags": {"amenity": "restaurant", "name": "Gorica BBQ Restaurant", "phone": "+359 88 504 1033", "website": "http://www.zoo-gorica.com"}}, {"type": "node", "id": 2999873928, "lat": 42.661738, "lon": 27.7171542, "tags": {"amenity": "restaurant", "name": "Andreev"}}, {"type": "node", "id": 3010775147, "lat": 42.6964066, "lon": 27.7142063, "tags": {"amenity": "restaurant", "cuisine": "chinese", "name": "China House"}}, {"type": "node", "id": 3018893914, "lat": 42.6940841, "lon": 27.7137891}, {"type": "node", "id": 3018893915, "lat": 42.6942324, "lon": 27.7138534}, {"type": "node", "id": 3018893916, "lat": 42.6942769, "lon": 27.7136632}, {"type": "node", "id": 3018893924, "lat": 42.6947484, "lon": 27.7134101}, {"type": "node", "id": 3018893925, "lat": 42.6946931, "lon": 27.7136284}, {"type": "node", "id": 3018893926, "lat": 42.6944722, "lon": 27.7135248}, {"type": "node", "id": 3020044503, "lat": 42.6599658, "lon": 27.7346012, "tags": {"amenity": "cafe", "name": "\u0418\u0437\u0432\u043e\u0440\u0430"}}, {"type": "node", "id": 3023264463, "lat": 42.6968453, "lon": 27.7081767, "tags": {"amenity": "restaurant", "name": "Marco Polo", "source": "Survey, GPS"}}, {"type": "node", "id": 3023267454, "lat": 42.6969597, "lon": 27.7082384, "tags": {"amenity": "restaurant", "name": "Ryor", "source": "Survey, GPS"}}, {"type": "node", "id": 3023273255, "lat": 42.6954244, "lon": 27.7082579, "tags": {"amenity": "restaurant", "name": "Djany", "outdoor_seating": "yes", "source": "Survey, GPS"}}, {"type": "node", "id": 3056423379, "lat": 42.7084927, "lon": 27.7706846, "tags": {"amenity": "restaurant", "name": "Gorgeus George"}}, {"type": "node", "id": 3057982294, "lat": 42.711713, "lon": 27.7651932, "tags": {"amenity": "restaurant", "name": "Chevermeto"}}, {"type": "node", "id": 3057982295, "lat": 42.7088417, "lon": 27.765675, "tags": {"amenity": "restaurant", "name": "Gabi"}}, {"type": "node", "id": 3057982298, "lat": 42.708075, "lon": 27.7677969, "tags": {"amenity": "restaurant", "name": "Riviera"}}, {"type": "node", "id": 3057982299, "lat": 42.7114858, "lon": 27.7645645, "tags": {"amenity": "restaurant", "name": "Tcherga Vintage"}}, {"type": "node", "id": 3057982300, "lat": 42.7089335, "lon": 27.7668698, "tags": {"amenity": "restaurant", "name": "Vega"}}, {"type": "node", "id": 3059858602, "lat": 42.7087145, "lon": 27.7694697, "tags": {"amenity": "restaurant", "name": "\u0411\u0438\u0441\u0442\u0440\u043e \u041b\u0430\u0437\u0443\u0440"}}, {"type": "node", "id": 3061367248, "lat": 42.710293, "lon": 27.7685394, "tags": {"amenity": "restaurant", "name": "\u0411\u0438\u0441\u0442\u0440\u043e \u041a\u043e\u043c\u043f\u0430\u0441"}}, {"type": "node", "id": 3061367249, "lat": 42.7095703, "lon": 27.7684056, "tags": {"amenity": "restaurant", "cuisine": "russian", "fixme": "verify position", "name": "\u0420\u0443\u0441\u043a\u0438 \u0440\u0435\u0441\u0442\u043e\u0440\u0430\u043d\u0442", "name:en": "Russian restaurant", "name:ru": "\u0420\u0443\u0441\u0441\u043a\u0438\u0439 \u0440\u0435\u0441\u0442\u043e\u0440\u0430\u043d"}}, {"type": "node", "id": 3085881046, "lat": 42.6848678, "lon": 27.7078481, "tags": {"amenity": "restaurant", "name": "Fresh & Tasty"}}, {"type": "node", "id": 3268927373, "lat": 42.6351903, "lon": 27.6414534, "tags": {"amenity": "restaurant", "name": "Restaurant Midia"}}, {"type": "node", "id": 3494419966, "lat": 42.6668074, "lon": 27.7081728, "tags": {"amenity": "restaurant", "name": "\u041a\u043e\u0442\u0432\u0430"}}, {"type": "node", "id": 3576857098, "lat": 42.711665, "lon": 27.7674951, "tags": {"amenity": "restaurant", "name": "\u0412\u0430\u043b\u0435\u043d\u0442\u0438\u043d\u0430", "opening_hours": "15:00-23:00"}}, {"type": "node", "id": 3614793914, "lat": 42.6577469, "lon": 27.7372757}, {"type": "node", "id": 3614793915, "lat": 42.6577169, "lon": 27.737264}, {"type": "node", "id": 3614793916, "lat": 42.6577251, "lon": 27.7373296}, {"type": "node", "id": 3614793917, "lat": 42.6577231, "lon": 27.7373833}, {"type": "node", "id": 3614793918, "lat": 42.6577084, "lon": 27.7373948}, {"type": "node", "id": 3614793919, "lat": 42.6577259, "lon": 27.7374483}, {"type": "node", "id": 3614793920, "lat": 42.6577682, "lon": 27.737521}, {"type": "node", "id": 3614793921, "lat": 42.6578071, "lon": 27.7375577}, {"type": "node", "id": 3614793922, "lat": 42.657882, "lon": 27.7375206}, {"type": "node", "id": 3627421194, "lat": 42.658076, "lon": 27.7355024, "tags": {"addr:housenumber": "28", "addr:street": "\u041c\u0435\u0441\u0435\u043c\u0431\u0440\u0438\u044f", "amenity": "restaurant", "cuisine": "local", "internet_access": "wlan", "name": "Zornitza", "name:bg": "\u0417\u043e\u0440\u043d\u0438\u0446\u0430", "name:en": "Zornitsa", "phone": "+359 554 45 231"}}, {"type": "node", "id": 3650775056, "lat": 42.7038579, "lon": 27.713585, "tags": {"amenity": "restaurant", "cuisine": "international;grill;ice_cream;cake;coffee_shop;steak_house;pasta;pancake;russian;chicken;fish;breakfast;seafood;tea;barbecue", "internet_access": "wlan", "name": "Plovdiv", "name:bg": "\u041f\u043b\u043e\u0432\u0434\u0438\u0432", "opening_hours": "Mo-Su 10:00-23:00", "operator": "\u041c\u0430\u0440\u0433\u0430\u0440\u0438\u0442\u0430 \u0422\u0438\u043d\u043a\u043e\u0432\u0430", "outdoor_seating": "yes"}}, {"type": "node", "id": 3651249027, "lat": 42.7040685, "lon": 27.7162081, "tags": {"amenity": "restaurant", "name": "Zero"}}, {"type": "node", "id": 3651249030, "lat": 42.700281, "lon": 27.7123945}, {"type": "node", "id": 3651249031, "lat": 42.7002977, "lon": 27.7123305}, {"type": "node", "id": 3651249035, "lat": 42.7004024, "lon": 27.7124533}, {"type": "node", "id": 3651249036, "lat": 42.7004192, "lon": 27.7123893}, {"type": "node", "id": 3651249094, "lat": 42.7040097, "lon": 27.7117958, "tags": {"amenity": "restaurant", "name": "\u0411\u0438\u0441\u0442\u0440\u043e \"\u0414\u0430\u0443\u043d \u041f\u0430\u0440\u043a\"", "name:en": "Bistro \"Dawn Park\"", "opening_hours": "Mo-Su 10:00-23:00", "operator": "\"\u0410\u0441\u0435\u043d\u043e\u0432 \u041a\u043e\u043c\u0435\u0440\u0441 60\" \u0415\u041e\u041e\u0414", "outdoor_seating": "yes", "phone": "+359 88 870 9552"}}, {"type": "node", "id": 3651249099, "lat": 42.7047105, "lon": 27.7127204, "tags": {"amenity": "restaurant", "cuisine": "pizza;mediterranean", "name": "Beatris", "opening_hours": "Mo-Su 08:00-23:00", "operator": "\"\u0414\u0436\u0438 \u0414\u0436\u0438 \u0424\u0430\u0440\u043c\" \u0415\u041e\u041e\u0414", "outdoor_seating": "yes"}}, {"type": "node", "id": 3667317754, "lat": 42.6535832, "lon": 27.6900593, "tags": {"amenity": "restaurant", "capacity": "50", "cuisine": "regional", "name": "Apollon", "name:bg": "\u0410\u043f\u043e\u043b\u043e\u043d", "takeaway": "yes"}}, {"type": "node", "id": 3684023003, "lat": 42.805804, "lon": 27.8865712, "tags": {"amenity": "restaurant"}}, {"type": "node", "id": 3717464064, "lat": 42.819263, "lon": 27.8819116}, {"type": "node", "id": 3717464065, "lat": 42.8193057, "lon": 27.8818721}, {"type": "node", "id": 3717464066, "lat": 42.8192787, "lon": 27.881818}, {"type": "node", "id": 3717464067, "lat": 42.8193104, "lon": 27.8817887}, {"type": "node", "id": 3717464068, "lat": 42.8192764, "lon": 27.8817204}, {"type": "node", "id": 3768789058, "lat": 42.7034075, "lon": 27.7122986}, {"type": "node", "id": 3768789059, "lat": 42.7033489, "lon": 27.7124395}, {"type": "node", "id": 3768789060, "lat": 42.7032461, "lon": 27.7123603}, {"type": "node", "id": 3768789061, "lat": 42.7033047, "lon": 27.7122194}, {"type": "node", "id": 4103341692, "lat": 42.7024407, "lon": 27.7170324, "tags": {"amenity": "restaurant", "name": "Yassen"}}, {"type": "node", "id": 4111849190, "lat": 42.7059041, "lon": 27.8099571, "tags": {"amenity": "restaurant", "name": "\u0410\u043d\u0432\u0435\u0440\u0441"}}, {"type": "node", "id": 4131317703, "lat": 42.6927573, "lon": 27.709262, "tags": {"amenity": "restaurant", "name": "\u0424\u0430\u0440"}}, {"type": "node", "id": 4232114302, "lat": 42.6589629, "lon": 27.7317054, "tags": {"addr:housenumber": "1", "addr:street": "\u0443\u043b. \u041a\u0440\u0430\u0439\u0431\u0440\u0435\u0436\u043d\u0430", "amenity": "restaurant", "internet_access": "wlan", "name": "Cristal", "phone": "+359 89 883 3225"}}, {"type": "node", "id": 4250898732, "lat": 42.6474485, "lon": 27.7086789}, {"type": "node", "id": 4250898733, "lat": 42.6474775, "lon": 27.7084646}, {"type": "node", "id": 4250898737, "lat": 42.6475407, "lon": 27.7087019}, {"type": "node", "id": 4250898746, "lat": 42.6475697, "lon": 27.7084876}, {"type": "node", "id": 4250898805, "lat": 42.6493835, "lon": 27.7052305, "tags": {"amenity": "restaurant"}}, {"type": "node", "id": 4256019390, "lat": 42.6582002, "lon": 27.7367602, "tags": {"addr:city": "\u041d\u0435\u0441\u0435\u0431\u044a\u0440", "addr:housenumber": "38", "addr:street": "\u0443\u043b. \u041c\u0435\u0441\u0435\u043c\u0431\u0440\u0438\u044f", "amenity": "restaurant", "cuisine": "pizza;chicken;seafood;barbecue;local", "description": "\u201eRobinzon Fish and Grill is a small and cozy restaurant placed on the rocks above the south beach of Old Town Nessebar. Here you can indulge into our carefully selected menu of traditional Bulgarian and intentional cuisine.", "diet:vegetarian": "yes", "internet_access": "wlan", "name": "Robinson Fish&Grill", "name:bg": "\u0420\u043e\u0431\u0438\u043d\u0437\u043e\u043d", "name:en": "Robinson Fish&Grill", "opening_hours": "Mo-Su 10:00-24:00", "phone": "+359 89 793 2878", "smoking": "outside", "website": "https://robinzon-fishgrill.business.site/"}}, {"type": "node", "id": 4256037989, "lat": 42.6594363, "lon": 27.7312926, "tags": {"addr:housenumber": "9", "addr:street": "\u0443\u043b. \u041a\u0440\u0430\u0439\u0431\u0440\u0435\u0436\u043d\u0430", "amenity": "restaurant", "cuisine": "seafood;pizza;local", "internet_access": "wlan", "name": "The Old Mill", "phone": "+359 88 826 9466"}}, {"type": "node", "id": 4256142789, "lat": 42.6908887, "lon": 27.7137793, "tags": {"addr:postcode": "8240", "addr:street": "Strandpromenade", "amenity": "restaurant", "cuisine": "coffee_shop;international;italian", "internet_access": "wlan", "name": "Morris"}}, {"type": "node", "id": 4256163589, "lat": 42.6631049, "lon": 27.7171973, "tags": {"addr:housenumber": "9", "addr:street": "\u0421\u0442\u0440\u0443\u043c\u0430", "amenity": "cafe", "cuisine": "seafood;pizza;local", "internet_access": "wlan", "name": "Sofi Hut", "opening_hours": "Mo-Su 09:00-22:00"}}, {"type": "node", "id": 4264788291, "lat": 42.6474148, "lon": 27.7083873, "tags": {"amenity": "restaurant", "name": "\u0414\u0430\u043b\u044f\u043d \u0410\u043a\u0440\u043e\u0442\u0438\u0440", "opening_hours": "Mo-Su 10:00-01:00"}}, {"type": "node", "id": 4267835594, "lat": 42.6939971, "lon": 27.6490664}, {"type": "node", "id": 4267835595, "lat": 42.6940304, "lon": 27.6492995}, {"type": "node", "id": 4267835596, "lat": 42.6939196, "lon": 27.6493288}, {"type": "node", "id": 4267835597, "lat": 42.6939142, "lon": 27.6492908}, {"type": "node", "id": 4267835598, "lat": 42.6937157, "lon": 27.6493433}, {"type": "node", "id": 4267835599, "lat": 42.6936879, "lon": 27.6491482}, {"type": "node", "id": 4287470290, "lat": 42.6584969, "lon": 27.7316495, "tags": {"amenity": "cafe", "name": "Logodaj"}}, {"type": "node", "id": 4295955089, "lat": 42.6588654, "lon": 27.7330916, "tags": {"amenity": "restaurant", "internet_access": "wlan", "name": "fast food"}}, {"type": "node", "id": 4306306392, "lat": 42.7000379, "lon": 27.7182483, "tags": {"amenity": "restaurant", "cuisine": "sushi;asian", "name": "Briz", "opening_hours": "Mo-Su 16:00-23:00"}}, {"type": "node", "id": 4309191990, "lat": 42.8241742, "lon": 27.8817086, "tags": {"addr:housenumber": "4", "addr:street": "\u0420\u0438\u0431\u0430\u0440\u0441\u043a\u0430", "amenity": "restaurant", "internet_access": "wlan", "name": "\u041a\u0430\u043b\u0438\u043d\u0430 \u0413\u0430\u0440\u0434\u0435\u043d", "name:en": "Kalina Garden", "opening_hours": "9:00 - 23:00"}}, {"type": "node", "id": 4318197191, "lat": 42.695351, "lon": 27.7075948, "tags": {"amenity": "restaurant", "fixme": "position estimated", "name": "Lapa Lapa"}}, {"type": "node", "id": 4328288289, "lat": 42.754023, "lon": 27.6217256, "tags": {"addr:street": "\u0441. \u041e\u0440\u0438\u0437\u0430\u0440\u0435", "amenity": "restaurant", "cuisine": "regional;fish_and_chips;chicken;barbecue;coffee_shop;friture", "name": "\u0420\u0435\u0441\u0442\u043e\u0440\u0430\u043d \"\u0413\u0435\u0440\u0430\u043d\u0430\"", "opening_hours": "Mo-Su 14:00-23:00", "operator": "\u0417\u043b\u0430\u0442\u0438\u043d\u0430 \u0418\u0432\u0430\u043d\u043e\u0432\u043d\u0430-\u041c\u0438\u0442\u0435\u0432\u0430", "phone": "+359 88 733 3215"}}, {"type": "node", "id": 4330144540, "lat": 42.6941813, "lon": 27.7120718}, {"type": "node", "id": 4330144541, "lat": 42.6943982, "lon": 27.7121653}, {"type": "node", "id": 4330144542, "lat": 42.6943395, "lon": 27.712406}, {"type": "node", "id": 4330144543, "lat": 42.694126, "lon": 27.7123109}, {"type": "node", "id": 4330144546, "lat": 42.6942285, "lon": 27.7128414}, {"type": "node", "id": 4330144547, "lat": 42.6940229, "lon": 27.7127486}, {"type": "node", "id": 4330144548, "lat": 42.6941754, "lon": 27.713059}, {"type": "node", "id": 4330144549, "lat": 42.6939698, "lon": 27.7129662}, {"type": "node", "id": 4346919291, "lat": 42.7008575, "lon": 27.7119921, "tags": {"amenity": "restaurant", "cuisine": "grill;indian;sushi;balkan", "internet_access": "wlan", "name": "Bolero"}}, {"type": "node", "id": 4358167993, "lat": 42.6962386, "lon": 27.7081979, "tags": {"amenity": "restaurant", "name": "\u041d\u0435\u043f\u0442\u0443\u043d"}}, {"type": "node", "id": 4383603299, "lat": 42.6671956, "lon": 27.7067632, "tags": {"amenity": "restaurant", "name": "Sarov", "name:bg": "Sarov", "name:uk": "\u0421\u0430\u0440\u043e\u0432", "opening_hours": "Mo-Su 12:00-23:30"}}, {"type": "node", "id": 4386667989, "lat": 42.6993979, "lon": 27.7141076, "tags": {"amenity": "restaurant", "name": "\u0422\u0431\u0438\u043b\u0438\u0441\u0438"}}, {"type": "node", "id": 4395065596, "lat": 42.6878712, "lon": 27.709916, "tags": {"amenity": "restaurant", "name": "\u0424\u0435\u043d\u0438\u043a\u0441"}}, {"type": "node", "id": 4411683990, "lat": 42.7118258, "lon": 27.763926, "tags": {"addr:housenumber": "72", "addr:street": "\u0426\u0430\u0440 \u0421\u0438\u043c\u0435\u043e\u043d", "amenity": "restaurant", "cuisine": "greek", "name": "Kalea", "name:en": "Mykonos", "opening_hours": "Mo-Su 09:00-00:00", "phone": "+359 89 625 6189"}}, {"type": "node", "id": 4424925907, "lat": 42.6617334, "lon": 27.7159777, "tags": {"amenity": "restaurant", "cuisine": "regional", "name": "\u0412\u043e\u0434\u043e\u043f\u0430\u0434\u0430", "outdoor_seating": "yes"}}, {"type": "node", "id": 4432158290, "lat": 42.6957976, "lon": 27.7078109, "tags": {"amenity": "cafe", "cuisine": "italian;balkan;local", "internet_access": "wlan", "name": "La Piazza"}}, {"type": "node", "id": 4432158291, "lat": 42.695833, "lon": 27.7071758, "tags": {"amenity": "cafe", "cuisine": "pancake;local", "name": "\u041f\u0430\u043b\u0430\u0447\u0438\u043d\u043a\u0438", "name:en": "Pancakes"}}, {"type": "node", "id": 4432171789, "lat": 42.707575, "lon": 27.7215092, "tags": {"amenity": "restaurant", "fixme": "resurvey"}}, {"type": "node", "id": 4505282510, "lat": 42.6591681, "lon": 27.7372032, "tags": {"addr:housenumber": "8", "addr:street": "\u0413\u043b\u0430\u0440\u0443\u0441", "amenity": "restaurant", "name": "\u0411\u044a\u043b\u0433\u0430\u0440"}}, {"type": "node", "id": 4505286895, "lat": 42.6584121, "lon": 27.7337647, "tags": {"amenity": "cafe", "name": "Fronton"}}, {"type": "node", "id": 4693563983, "lat": 42.6922407, "lon": 27.7072885, "tags": {"amenity": "restaurant", "name": "\u0417\u0430\u0440\u044f"}}, {"type": "node", "id": 4695314191, "lat": 42.6962275, "lon": 27.7156991, "tags": {"amenity": "restaurant", "cuisine": "diner;balkan;local", "name": "Marina", "name:en": "Marina", "name:pl": "Marina", "name:ru": "\u041c\u0430\u0440\u0438\u043d\u0430"}}, {"type": "node", "id": 4695349489, "lat": 42.7007958, "lon": 27.7190849, "tags": {"amenity": "restaurant", "cuisine": "diner;balkan;international", "email": "tomtattan@gmail.com", "name": "\u0425\u0430\u0432\u0430\u0438", "name:en": "Hawaii", "name:ru": "\u0413\u0430\u0432\u0430\u0438", "phone": "+359 89 435 341", "website": "http://www.hawaiirestaurantsunnybeach.com"}}, {"type": "node", "id": 4871509934, "lat": 42.7103703, "lon": 27.7630757, "tags": {"addr:city": "\u0421\u0432\u0435\u0442\u0438 \u0412\u043b\u0430\u0441", "addr:housenumber": "13", "addr:postcode": "8256", "addr:street": "\u042f\u0441\u0435\u043d", "amenity": "restaurant", "bar": "yes", "brewery": "Stella_Artois;Kamenitza", "capacity": "150", "contact:facebook": "https://www.facebook.com/stella.st.vlas/", "contact:instagram": "@stella_st.vlas", "cuisine": "seafood;mediterranean;barbecue;pizza;cake", "email": "contact@restaurant-stella.com", "internet_access": "wlan", "name": "STELLA", "name:bg": "\u0421\u0422\u0415\u041b\u0410", "opening_hours": "Mo-Su 09:00-23:00", "outdoor_seating": "yes", "phone": "+359 0893808005", "reservation": "yes", "smoking": "outside", "stars": "3", "start_date": "2014", "takeaway": "yes", "website": "https://www.restaurant-stella.com/", "wheelchair": "limited"}}, {"type": "node", "id": 4909569399, "lat": 42.8554104, "lon": 27.8958267, "tags": {"amenity": "restaurant", "cuisine": "seafood", "name": "\u0427\u0430\u0439\u043a\u0430", "outdoor_seating": "yes", "payment:coins": "yes", "payment:credit_cards": "no", "payment:debit_cards": "no", "payment:notes": "yes"}}, {"type": "node", "id": 4924041056, "lat": 42.7003718, "lon": 27.7021985, "tags": {"amenity": "restaurant", "name": "\u041c\u043e\u0440\u0441\u043a\u0430 \u0437\u0432\u0435\u0437\u0434\u0430", "opening_hours": "Mo-Su 10:00-22:00"}}, {"type": "node", "id": 4924041567, "lat": 42.7004497, "lon": 27.7032548, "tags": {"amenity": "restaurant", "name": "Nessebar Fort", "opening_hours": "Mo-Su 08:00-24:00"}}, {"type": "node", "id": 4924175492, "lat": 42.6901912, "lon": 27.7045085, "tags": {"amenity": "cafe", "name": "\u0411\u044a\u0447\u0432\u0430\u0442\u0430", "name:bg": "\u0411\u044a\u0447\u0432\u0430\u0442\u0430", "name:en": "Buchvata"}}, {"type": "node", "id": 4935560122, "lat": 42.6707607, "lon": 27.7081511, "tags": {"amenity": "restaurant", "name:en": "Musoni"}}, {"type": "node", "id": 4958773721, "lat": 42.6702604, "lon": 27.7065372, "tags": {"amenity": "restaurant", "name": "Bar Vicky", "name:bg": "bbq pizza bar", "name:en": "VICKY Bar"}}, {"type": "node", "id": 4959472850, "lat": 42.707038, "lon": 27.7698433, "tags": {"amenity": "cafe", "cuisine": "pastry", "name": "Marmelade", "outdoor_seating": "yes", "takeaway": "no"}}, {"type": "node", "id": 4959472851, "lat": 42.7069197, "lon": 27.7700821, "tags": {"amenity": "restaurant", "name": "Marionette", "takeaway": "no"}}, {"type": "node", "id": 4995542924, "lat": 42.7088701, "lon": 27.7584638, "tags": {"amenity": "cafe", "cuisine": "balkan", "internet_access": "wlan", "name": "\u041d\u0435\u043f\u0442\u0443\u043d", "opening_hours": "Mo-Su 10:00-00:00"}}, {"type": "node", "id": 5009811449, "lat": 42.6991795, "lon": 27.7155245, "tags": {"amenity": "restaurant", "cuisine": "regional;pizza"}}, {"type": "node", "id": 5009811450, "lat": 42.6993428, "lon": 27.7143749, "tags": {"amenity": "restaurant", "cuisine": "regional;pizza"}}, {"type": "node", "id": 5009811451, "lat": 42.699215, "lon": 27.7141511}, {"type": "node", "id": 5009811452, "lat": 42.699043, "lon": 27.7140526}, {"type": "node", "id": 5009811453, "lat": 42.6990636, "lon": 27.7139799}, {"type": "node", "id": 5013011025, "lat": 42.6597951, "lon": 27.7341539, "tags": {"amenity": "cafe", "name": "Familia Fish & Grill"}}, {"type": "node", "id": 5013011026, "lat": 42.661944, "lon": 27.7172617, "tags": {"amenity": "restaurant", "name": "\u0411\u0438\u0441\u0442\u0440\u043e \"\u0410\u043b\u0435\u043a\u0441\u0430\u043d\u0434\u044a\u0440\""}}, {"type": "node", "id": 5013045223, "lat": 42.6619572, "lon": 27.7169603, "tags": {"amenity": "cafe", "name:bg": "\u0414\u0436\u0430\u043c\u0431\u043e"}}, {"type": "node", "id": 5017002291, "lat": 42.8700616, "lon": 27.8948423, "tags": {"amenity": "restaurant"}}, {"type": "node", "id": 5017002293, "lat": 42.871729, "lon": 27.8957328, "tags": {"amenity": "restaurant"}}, {"type": "node", "id": 5020804608, "lat": 42.8212596, "lon": 27.8842768, "tags": {"amenity": "restaurant", "cuisine": "fish;seafood;sushi", "name": "Captain Fish"}}, {"type": "node", "id": 5037645540, "lat": 42.8563134, "lon": 27.8989937, "tags": {"access": "private", "amenity": "restaurant"}}, {"type": "node", "id": 5045314052, "lat": 42.7058801, "lon": 27.7915548, "tags": {"amenity": "cafe"}}, {"type": "node", "id": 5045314058, "lat": 42.7032795, "lon": 27.7922202, "tags": {"amenity": "restaurant", "name": "Marina"}}, {"type": "node", "id": 5045314059, "lat": 42.7033204, "lon": 27.7943308, "tags": {"amenity": "restaurant"}}, {"type": "node", "id": 5077079222, "lat": 42.6421807, "lon": 27.676151, "tags": {"amenity": "restaurant", "name": "\u0427\u0443\u0447\u0443\u0440\u0430", "name:bg": "\u0427\u0443\u0447\u0443\u0440\u0430"}}, {"type": "node", "id": 5121452023, "lat": 42.6600209, "lon": 27.7376662, "tags": {"alt_name": "Praha", "amenity": "restaurant", "name": "Praga"}}, {"type": "node", "id": 5147969023, "lat": 42.6577708, "lon": 27.7159776, "tags": {"amenity": "cafe"}}, {"type": "node", "id": 5329360623, "lat": 42.7078301, "lon": 27.7674384, "tags": {"addr:street": "Marina Dinevi Yatch Port", "amenity": "restaurant", "internet_access": "wlan", "name": "Mari \u0418\u0432\u0430\u043d\u043d\u0430", "name:bg": "\u041c\u0430\u0440\u0438 \u0418\u0432\u0430\u043d\u043d\u0430", "name:en": "Mari Ivanna", "phone": "+359 89 999 9178", "website": "http://www.mariivanna.com"}}, {"type": "node", "id": 5592878349, "lat": 42.8303152, "lon": 27.881642}, {"type": "node", "id": 5592878350, "lat": 42.8301109, "lon": 27.8817431}, {"type": "node", "id": 5592878351, "lat": 42.8300853, "lon": 27.8819411}, {"type": "node", "id": 5592878352, "lat": 42.830389, "lon": 27.8819763}, {"type": "node", "id": 5684809371, "lat": 42.6981835, "lon": 27.7143113, "tags": {"amenity": "cafe", "name": "Fresh & coffee"}}, {"type": "node", "id": 5690754778, "lat": 42.6931124, "lon": 27.7004159, "tags": {"amenity": "cafe", "outdoor_seating": "yes"}}, {"type": "node", "id": 5694779799, "lat": 42.7013661, "lon": 27.7109759, "tags": {"amenity": "restaurant", "capacity": "75", "name": "\u0420\u0438\u0431\u0430\u0440\u0441\u043a\u0430 \u0441\u0440\u0435\u0449\u0430", "name:bg": "\u0420\u0438\u0431\u0430\u0440\u0441\u043a\u0430 \u0441\u0440\u0435\u0449\u0430", "name:en": "Fishing meeting", "name:ru": "\u0420\u044b\u0431\u0430\u0446\u043a\u0430\u044f \u0432\u0441\u0442\u0440\u0435\u0447\u0430", "outdoor_seating": "yes"}}, {"type": "node", "id": 5695372315, "lat": 42.7116771, "lon": 27.7550109, "tags": {"amenity": "restaurant", "name": "Olymp restaurant"}}, {"type": "node", "id": 5695372325, "lat": 42.7162126, "lon": 27.8845875, "tags": {"amenity": "cafe", "name": "Saloon", "opening_hours": "Mo-Sa 08:30-17:00; Su off"}}, {"type": "node", "id": 5695425757, "lat": 42.7544364, "lon": 27.888906, "tags": {"amenity": "restaurant", "name": "\u041f\u0430\u043d\u043e\u0440\u0430\u043c\u0430", "opening_hours": "Mo-Su 11:00-23:00", "operator": "\u0415\u043c\u043e\u043d\u0430 2000 \u0415\u041e\u041e\u0414", "outdoor_seating": "yes"}}, {"type": "node", "id": 5697322611, "lat": 42.7012277, "lon": 27.7113015, "tags": {"amenity": "restaurant"}}, {"type": "node", "id": 5701902570, "lat": 42.7050019, "lon": 27.7130467, "tags": {"amenity": "restaurant", "fixme": "opening_hours", "outdoor_seating": "yes"}}, {"type": "node", "id": 5702798905, "lat": 42.7061434, "lon": 27.7150152, "tags": {"amenity": "cafe", "name": "\u0414\u0435\u0432\u0430", "name:bg": "\u0414\u0435\u0432\u0430", "name:en": "Deva"}}, {"type": "node", "id": 5715882244, "lat": 42.71345, "lon": 27.7621962, "tags": {"amenity": "restaurant", "internet_access": "wlan", "name": "\u0412\u043e\u0434\u043e\u043f\u0430\u0434\u0438"}}, {"type": "node", "id": 5744089500, "lat": 42.8743191, "lon": 27.8939127}, {"type": "node", "id": 5744089501, "lat": 42.8743264, "lon": 27.8938272}, {"type": "node", "id": 5744089502, "lat": 42.874386, "lon": 27.8938367}, {"type": "node", "id": 5744089503, "lat": 42.8743787, "lon": 27.8939222}, {"type": "node", "id": 5744089504, "lat": 42.8742798, "lon": 27.8939569}, {"type": "node", "id": 5744089505, "lat": 42.8742634, "lon": 27.8941004}, {"type": "node", "id": 5744089506, "lat": 42.874359, "lon": 27.8941094}, {"type": "node", "id": 5744089507, "lat": 42.8743671, "lon": 27.8939509}, {"type": "node", "id": 5752361403, "lat": 42.6580676, "lon": 27.7349926, "tags": {"amenity": "restaurant", "name:en": "Plakamoto"}}, {"type": "node", "id": 5752361419, "lat": 42.6578115, "lon": 27.7318227, "tags": {"amenity": "restaurant"}}, {"type": "node", "id": 5752361420, "lat": 42.6578718, "lon": 27.7316548, "tags": {"amenity": "restaurant"}}, {"type": "node", "id": 5804107059, "lat": 42.7083369, "lon": 27.7701103, "tags": {"addr:street": "\u0411\u043e\u0440", "amenity": "restaurant", "cuisine": "sandwich;international;grill;ice_cream;crepe;coffee_shop;pasta;noodles;balkan;pancake;pizza;chicken;fish_and_chips;italian_pizza;fish;breakfast;french;seafood;friture;italian;barbecue", "internet_access": "wlan", "name": "\u0420\u0435\u0441\u0442\u043e\u0440\u0430\u043d\u0442 Gambas", "name:en": "Restaurant Gambas", "opening_hours": "Mo-Su 08:00-00:00"}}, {"type": "node", "id": 5826727087, "lat": 42.6579174, "lon": 27.7343945, "tags": {"amenity": "restaurant", "name": "Nessebar"}}, {"type": "node", "id": 5838609137, "lat": 42.7127358, "lon": 27.7448961, "tags": {"amenity": "cafe", "name": "\u041b\u044e\u043a\u0441\u043e\u0440"}}, {"type": "node", "id": 5846497489, "lat": 42.7888483, "lon": 27.8855404, "tags": {"amenity": "restaurant"}}, {"type": "node", "id": 5859757075, "lat": 42.658077, "lon": 27.7371224, "tags": {"addr:city": "\u041d\u0435\u0441\u0435\u0431\u044a\u0440", "addr:housenumber": "41", "addr:postcode": "8230", "addr:street": "\u041c\u0435\u0441\u0435\u043c\u0431\u0440\u0438\u044f", "amenity": "restaurant", "capacity": "250", "cuisine": "burger;chicken;fish_and_chips;ice_cream;international;pizza", "email": "emona_02@abv.bg", "name": "\u0415\u043c\u043e\u043d\u0430", "name:en": "Emona", "opening_hours": "10:00-23:40", "outdoor_seating": "yes", "payment:cash": "yes", "payment:credit_cards": "yes", "payment:debit_cards": "yes", "payment:maestro": "yes", "payment:visa": "yes", "payment:visa_debit": "yes", "payment:visa_electron": "yes", "phone": "+359 89 342 8677", "smoking": "isolated", "takeaway": "yes", "website": "https://emona-ns.com/en/", "wheelchair": "yes"}}, {"type": "node", "id": 5869394915, "lat": 42.6631031, "lon": 27.7212613}, {"type": "node", "id": 5869394916, "lat": 42.6630617, "lon": 27.7212191}, {"type": "node", "id": 5869394917, "lat": 42.6629913, "lon": 27.7213464}, {"type": "node", "id": 5869394918, "lat": 42.6630327, "lon": 27.7213887}, {"type": "node", "id": 5869394919, "lat": 42.6629788, "lon": 27.7214401}, {"type": "node", "id": 5869394920, "lat": 42.6629553, "lon": 27.7213963}, {"type": "node", "id": 5869394921, "lat": 42.662833, "lon": 27.7215181}, {"type": "node", "id": 5869394922, "lat": 42.6628566, "lon": 27.7215619}, {"type": "node", "id": 5869394923, "lat": 42.6628234, "lon": 27.7215223}, {"type": "node", "id": 5869394924, "lat": 42.6628403, "lon": 27.7215814}, {"type": "node", "id": 5869394925, "lat": 42.6626995, "lon": 27.7216562}, {"type": "node", "id": 5869394926, "lat": 42.6626825, "lon": 27.7215971}, {"type": "node", "id": 5869394927, "lat": 42.6626738, "lon": 27.7215972}, {"type": "node", "id": 5869394928, "lat": 42.6625865, "lon": 27.7216434}, {"type": "node", "id": 5869394929, "lat": 42.6626077, "lon": 27.7217177}, {"type": "node", "id": 5869394930, "lat": 42.6626951, "lon": 27.7216715}, {"type": "node", "id": 5869394931, "lat": 42.6624671, "lon": 27.7217005}, {"type": "node", "id": 5869394932, "lat": 42.6624903, "lon": 27.7217665}, {"type": "node", "id": 5869394933, "lat": 42.6624068, "lon": 27.7218208}, {"type": "node", "id": 5869394934, "lat": 42.6623836, "lon": 27.7217548}, {"type": "node", "id": 5902300887, "lat": 42.6572699, "lon": 27.7166481, "tags": {"addr:housenumber": "55", "addr:postcode": "8230", "addr:street": "Perla", "amenity": "restaurant", "cuisine": "pasta;international;pizza;grill;cake", "name:en": "Mario cafe - pizza, pasta , steaks", "opening_hours": "Mo-Su 08:00-24:00", "phone": "+359 87 610 0424", "website": "https://www.facebook.com/MarioCafeNessebar"}}, {"type": "node", "id": 6173277086, "lat": 42.6894216, "lon": 27.7033006, "tags": {"amenity": "restaurant", "cuisine": "italian", "name": "Tarantula Pizza Bar & Cake", "opening_hours": "9:30-23:30"}}, {"type": "node", "id": 6262286786, "lat": 42.660398, "lon": 27.5664237, "tags": {"amenity": "restaurant", "name": "ChuckWagon Bbq Pit"}}, {"type": "node", "id": 6429333485, "lat": 42.6592323, "lon": 27.7362519, "tags": {"amenity": "restaurant", "name": "Old Sailor", "name:en": "The Old Sailor"}}, {"type": "node", "id": 6429333585, "lat": 42.6583908, "lon": 27.7343738, "tags": {"amenity": "restaurant", "name:en": "The Old Anchor"}}, {"type": "node", "id": 6461837909, "lat": 42.6588297, "lon": 27.7362683, "tags": {"addr:city": "\u041d\u0435\u0441\u0435\u0431\u044a\u0440", "addr:street": "\u0426\u0430\u0440 \u0418\u0432\u0430\u043d \u0410\u0441\u0435\u043d II", "amenity": "cafe", "comment": "Nice little caf\u00e9, good food, good prices", "cuisine": "breakfast;snacks;ice_cream;cake;pancake", "name": "Caf\u00e9 Capice"}}, {"type": "node", "id": 6512228034, "lat": 42.7043911, "lon": 27.7145018, "tags": {"amenity": "restaurant"}}, {"type": "node", "id": 6512228090, "lat": 42.7033429, "lon": 27.7172209, "tags": {"amenity": "restaurant", "cuisine": "kebab", "name": "Izmira"}}, {"type": "node", "id": 6512228221, "lat": 42.7013051, "lon": 27.7194652}, {"type": "node", "id": 6514111243, "lat": 42.7038501, "lon": 27.7098057}, {"type": "node", "id": 6514111244, "lat": 42.7040059, "lon": 27.7099316}, {"type": "node", "id": 6514111245, "lat": 42.703904, "lon": 27.7101649}, {"type": "node", "id": 6514111246, "lat": 42.7037482, "lon": 27.7100389}, {"type": "node", "id": 6525521122, "lat": 42.7068698, "lon": 27.7156134, "tags": {"amenity": "restaurant", "name": "Corona", "opening_hours": "Mo-Su 14:00-24:00"}}, {"type": "node", "id": 6525521123, "lat": 42.7068097, "lon": 27.7161151, "tags": {"amenity": "restaurant", "name": "Cactus Jak's Bar & Grill"}}, {"type": "node", "id": 6525659340, "lat": 42.7084005, "lon": 27.7165039, "tags": {"amenity": "restaurant", "cuisine": "seafood"}}, {"type": "node", "id": 6530581422, "lat": 42.695777, "lon": 27.7155264, "tags": {"amenity": "restaurant", "cuisine": "italian", "name": "La Cucina Italiana"}}, {"type": "node", "id": 6530581486, "lat": 42.6953854, "lon": 27.7152261, "tags": {"amenity": "restaurant", "name": "Chanove"}}, {"type": "node", "id": 6530581643, "lat": 42.6989933, "lon": 27.7153806, "tags": {"amenity": "restaurant"}}, {"type": "node", "id": 6534414680, "lat": 42.7092717, "lon": 27.7216577, "tags": {"amenity": "restaurant", "cuisine": "bar_and_grill", "name": "Roxy", "name:bg": "\u0420\u043e\u043a\u0441\u0438", "name:en": "Roxy", "opening_hours": "Mo-Su 10:00-24:00", "phone": "+359 88 821 2637", "website": "https://www.roxysunnybeach.com/"}}, {"type": "node", "id": 6534448431, "lat": 42.7067721, "lon": 27.7245553, "tags": {"amenity": "restaurant"}}, {"type": "node", "id": 6534448538, "lat": 42.7063206, "lon": 27.7244615, "tags": {"amenity": "restaurant", "name": "Shipka", "name:bg": "\u0428\u0438\u043f\u043a\u0430", "name:en": "Shipka"}}, {"type": "node", "id": 6534448593, "lat": 42.7066768, "lon": 27.7237037, "tags": {"amenity": "restaurant", "name": "Shipka", "name:bg": "\u0428\u0438\u043f\u043a\u0430", "name:en": "Shipka"}}, {"type": "node", "id": 6535992565, "lat": 42.7080485, "lon": 27.7649354, "tags": {"amenity": "restaurant", "cuisine": "greek", "name": "Aeraki"}}, {"type": "node", "id": 6535992885, "lat": 42.7095463, "lon": 27.732538, "tags": {"entrance": "main"}}, {"type": "node", "id": 6535992918, "lat": 42.7094706, "lon": 27.7301283, "tags": {"amenity": "restaurant"}}, {"type": "node", "id": 6550204137, "lat": 42.7066879, "lon": 27.7788992, "tags": {"amenity": "restaurant", "cuisine": "italian"}}, {"type": "node", "id": 6550754240, "lat": 42.7037985, "lon": 27.7099238, "tags": {"entrance": "yes"}}, {"type": "node", "id": 6550754241, "lat": 42.703954, "lon": 27.7100505, "tags": {"entrance": "yes"}}, {"type": "node", "id": 6550754259, "lat": 42.7031357, "lon": 27.7082249, "tags": {"amenity": "restaurant", "name": "Flame"}}, {"type": "node", "id": 6577697285, "lat": 42.6445871, "lon": 27.6479131, "tags": {"addr:street": "\u0418\u0441\u043a\u044a\u0440", "amenity": "restaurant", "cuisine": "balkan", "name": "\u041a\u044a\u0449\u0430\u0442\u044a"}}, {"type": "node", "id": 6588888105, "lat": 42.8662561, "lon": 27.8988184, "tags": {"amenity": "restaurant", "name:en": "Alex resort"}}, {"type": "node", "id": 6592055285, "lat": 42.8197706, "lon": 27.8805601, "tags": {"amenity": "restaurant", "name": "\u041c\u0435\u0445\u0430\u043d\u0430 \u043f\u0440\u0438 \u0445\u044a\u0448\u043e\u0432\u0435\u0442\u0435"}}, {"type": "node", "id": 6596041085, "lat": 42.7145174, "lon": 27.7518197, "tags": {"amenity": "restaurant", "name": "\u0421\u0438\u0434\u043e\u0440\u043e\u0432\u0430 \u043a\u043e\u0437\u0430"}}, {"type": "node", "id": 6611569986, "lat": 42.6747669, "lon": 27.7063313, "tags": {"amenity": "cafe", "cuisine": "chicken;pizza;pasta;breakfast;coffee_shop;local;balkan", "internet_access": "wlan", "name": "\u0424\u0430\u0432\u043e\u0440\u0438\u0442 \u043f\u0438\u0446\u0430 \u0438 \u0433\u0440\u0438\u043b", "name:en": "Favorit pizza&grill"}}, {"type": "node", "id": 6614896485, "lat": 42.6731493, "lon": 27.7072277, "tags": {"amenity": "cafe", "name:en": "Bar&food", "name:ru": "\u0411\u0430\u0440 \u0438 \u0435\u0434\u0430"}}, {"type": "node", "id": 6669736854, "lat": 42.6986785, "lon": 27.7141526, "tags": {"amenity": "restaurant", "cuisine": "chinese", "name": "Shanghai"}}, {"type": "node", "id": 6670680585, "lat": 42.7153577, "lon": 27.7579214, "tags": {"addr:housenumber": "15", "addr:postcode": "8256", "addr:street": "\u0445\u0430\u043d \u041a\u0440\u0443\u043c", "amenity": "restaurant", "cuisine": "local", "name": "Miami", "name:ru": "\u041c\u0430\u0439\u0430\u043c\u0438", "opening_hours": "24/7", "phone": "+359 89 983 9083", "website": "https://website--1622240736001711093195-restaurant.business.site/"}}, {"type": "node", "id": 6685226285, "lat": 42.7141932, "lon": 27.7559208, "tags": {"amenity": "restaurant", "name": "Bistro Kotva", "name:en": "Kotva"}}, {"type": "node", "id": 6740291251, "lat": 42.7094106, "lon": 27.7449082, "tags": {"amenity": "restaurant", "name": "The Taste"}}, {"type": "node", "id": 6747025871, "lat": 42.7543928, "lon": 27.8889325, "tags": {"amenity": "restaurant"}}, {"type": "node", "id": 6775658255, "lat": 42.6948255, "lon": 27.7123903, "tags": {"amenity": "restaurant", "name": "The Corner Piano Bar & Dinner", "website": "https://thecorner.bg/"}}, {"type": "node", "id": 6793813819, "lat": 42.7077539, "lon": 27.73977}, {"type": "node", "id": 6793813820, "lat": 42.707756, "lon": 27.7399576}, {"type": "node", "id": 6793813821, "lat": 42.7076878, "lon": 27.7399557}, {"type": "node", "id": 6793813822, "lat": 42.7077066, "lon": 27.7397609}, {"type": "node", "id": 6793813823, "lat": 42.707678, "lon": 27.7396433}, {"type": "node", "id": 6793813824, "lat": 42.7076727, "lon": 27.739854}, {"type": "node", "id": 6793813825, "lat": 42.7076618, "lon": 27.7400582}, {"type": "node", "id": 6793813826, "lat": 42.7075959, "lon": 27.7400125}, {"type": "node", "id": 6793813827, "lat": 42.7075649, "lon": 27.7399366}, {"type": "node", "id": 6793813828, "lat": 42.7075838, "lon": 27.7396302}, {"type": "node", "id": 6802927087, "lat": 42.6625379, "lon": 27.6961398}, {"type": "node", "id": 6802927088, "lat": 42.6624285, "lon": 27.6961221}, {"type": "node", "id": 6802927089, "lat": 42.6621735, "lon": 27.6962637}, {"type": "node", "id": 6802927090, "lat": 42.6622229, "lon": 27.6964265}, {"type": "node", "id": 6802927091, "lat": 42.6625743, "lon": 27.6962566}, {"type": "node", "id": 6817459386, "lat": 42.6818601, "lon": 27.7106252, "tags": {"amenity": "restaurant", "int_name": "Hotel Burgas Beach", "name": "\u0425\u043e\u0442\u0435\u043b \u0411\u0443\u0440\u0433\u0430\u0441 \u0411\u0438\u0438\u0447", "name:bg": "\u0425\u043e\u0442\u0435\u043b \u0411\u0443\u0440\u0433\u0430\u0441 \u0411\u0438\u0438\u0447"}}, {"type": "node", "id": 7340846033, "lat": 42.7056996, "lon": 27.7791847}, {"type": "node", "id": 7340846034, "lat": 42.7057014, "lon": 27.7788495}, {"type": "node", "id": 7340846035, "lat": 42.7055925, "lon": 27.7788484}, {"type": "node", "id": 7340846036, "lat": 42.7055916, "lon": 27.7790196}, {"type": "node", "id": 7340846037, "lat": 42.7056097, "lon": 27.7790198}, {"type": "node", "id": 7340846038, "lat": 42.7056088, "lon": 27.7791838}, {"type": "node", "id": 7356844982, "lat": 42.7119544, "lon": 27.7593405}, {"type": "node", "id": 7356844983, "lat": 42.7119555, "lon": 27.7592367}, {"type": "node", "id": 7356844984, "lat": 42.7120442, "lon": 27.7592384}, {"type": "node", "id": 7356844985, "lat": 42.7120432, "lon": 27.7593422}, {"type": "node", "id": 7356845011, "lat": 42.713707, "lon": 27.758062}, {"type": "node", "id": 7387086038, "lat": 42.7136603, "lon": 27.7600667}, {"type": "node", "id": 7387086039, "lat": 42.713672, "lon": 27.7599388}, {"type": "node", "id": 7387086040, "lat": 42.7134838, "lon": 27.7598978}, {"type": "node", "id": 7387086041, "lat": 42.7134711, "lon": 27.7599949}, {"type": "node", "id": 7395189713, "lat": 42.7071623, "lon": 27.7795138}, {"type": "node", "id": 7395189714, "lat": 42.7071985, "lon": 27.7793655}, {"type": "node", "id": 7395189715, "lat": 42.7072468, "lon": 27.7793873}, {"type": "node", "id": 7395189716, "lat": 42.7072702, "lon": 27.7795625}, {"type": "node", "id": 7395200845, "lat": 42.7076434, "lon": 27.7780016, "tags": {"amenity": "restaurant", "name": "\u041f\u0430\u0440\u0430\u0434\u0438\u0437\u043e"}}, {"type": "node", "id": 7651292186, "lat": 42.7071428, "lon": 27.7169052, "tags": {"amenity": "restaurant", "name": "Lira", "name:bg": "\u041b\u0438\u0440\u0430", "name:en": "Lira"}}, {"type": "node", "id": 7673752086, "lat": 42.6593668, "lon": 27.7331442, "tags": {"addr:housenumber": "6", "addr:postcode": "8231", "addr:street": "\u0443\u043b. \u0416\u0430\u043d\u0430 \u0427\u0438\u043c\u0431\u0443\u043b\u0435\u0432\u0430", "amenity": "restaurant", "internet_access": "wlan", "name": "MENA north Dock", "phone": "+359 98 877 1887"}}, {"type": "node", "id": 7734445332, "lat": 42.6515578, "lon": 27.7007982, "tags": {"addr:city": "\u041d\u0435\u0441\u0435\u0431\u044a\u0440", "addr:housenumber": "On the beach infront hotel Rich", "addr:postcode": "8230", "addr:street": "\u041d\u0435\u0441\u0435\u0431\u044a\u0440", "amenity": "restaurant", "cuisine": "regional;burger;sandwich;chicken;ice_cream", "name": "Kiwi Beach food and drinks", "opening_hours": "Mo-Su 08:00-23:00", "phone": "+359 89 033 3309"}}, {"type": "node", "id": 7739133487, "lat": 42.6630407, "lon": 27.7165308, "tags": {"amenity": "cafe", "name:en": "The Coffee Room"}}, {"type": "node", "id": 7739143385, "lat": 42.6589838, "lon": 27.7358723, "tags": {"amenity": "cafe", "name:en": "ART Cafe"}}, {"type": "node", "id": 7880350002, "lat": 42.7038974, "lon": 27.8073835}, {"type": "node", "id": 7880350003, "lat": 42.7038515, "lon": 27.8073806}, {"type": "node", "id": 7880350004, "lat": 42.7038488, "lon": 27.8074608}, {"type": "node", "id": 7880350005, "lat": 42.7038946, "lon": 27.8074637}, {"type": "node", "id": 8204863726, "lat": 42.6544531, "lon": 27.7148658, "tags": {"amenity": "restaurant", "name": "\u0422\u0430\u043b\u0438\u0441\u043c\u0430\u043d"}}, {"type": "node", "id": 8206985589, "lat": 42.6583842, "lon": 27.7298837, "tags": {"amenity": "restaurant", "name": "Flagman"}}, {"type": "node", "id": 8263500950, "lat": 42.6555683, "lon": 27.7113764}, {"type": "node", "id": 8263500951, "lat": 42.6557897, "lon": 27.7116199}, {"type": "node", "id": 8263500952, "lat": 42.6558139, "lon": 27.7115824}, {"type": "node", "id": 8263500953, "lat": 42.6558838, "lon": 27.7116648}, {"type": "node", "id": 8263500954, "lat": 42.6557249, "lon": 27.7119571}, {"type": "node", "id": 8263500955, "lat": 42.6554114, "lon": 27.711644}, {"type": "node", "id": 8270725708, "lat": 42.6554153, "lon": 27.714309, "tags": {"amenity": "restaurant", "name:signed": "no"}}, {"type": "node", "id": 8846321095, "lat": 42.7145835, "lon": 27.7562539, "tags": {"amenity": "restaurant", "cuisine": "regional", "name": "Bistro Story"}}, {"type": "node", "id": 8846370947, "lat": 42.7136, "lon": 27.7581092}, {"type": "node", "id": 8846370955, "lat": 42.713768, "lon": 27.7561698, "tags": {"amenity": "restaurant", "name": "\u0421\u0442\u0430\u0440\u0438\u044f\u0442 \u043e\u0440\u0435\u0445", "outdoor_seating": "yes"}}, {"type": "node", "id": 8846370958, "lat": 42.7118486, "lon": 27.759771, "tags": {"amenity": "restaurant", "name": "Amor"}}, {"type": "node", "id": 8846370967, "lat": 42.7136103, "lon": 27.7581411}, {"type": "node", "id": 8846370970, "lat": 42.7135806, "lon": 27.7580656}, {"type": "node", "id": 8846370981, "lat": 42.7136081, "lon": 27.7582159}, {"type": "node", "id": 8846370984, "lat": 42.7137016, "lon": 27.7582416}, {"type": "node", "id": 8846370985, "lat": 42.7133041, "lon": 27.7595442, "tags": {"amenity": "restaurant", "name": "Oreha"}}, {"type": "node", "id": 8846370987, "lat": 42.7136708, "lon": 27.7573137, "tags": {"amenity": "restaurant"}}, {"type": "node", "id": 8864851217, "lat": 42.6576765, "lon": 27.7160922, "tags": {"amenity": "restaurant", "name": "\u0417\u043b\u0430\u0442\u043d\u0430 \u0440\u0438\u0431\u043a\u0430", "outdoor_seating": "yes"}}, {"type": "node", "id": 8869442743, "lat": 42.65602, "lon": 27.7119139, "tags": {"amenity": "restaurant", "name": "\u041b\u0430\u0437\u0443\u0440"}}, {"type": "node", "id": 8944879617, "lat": 42.665633, "lon": 27.7160351, "tags": {"amenity": "restaurant", "name": "Attica"}}, {"type": "node", "id": 8959151556, "lat": 42.6899159, "lon": 27.7089604, "tags": {"amenity": "restaurant", "contact:facebook": "https://www.facebook.com/Mandarin-Bar-Dinner-original-page-1373675719400401/", "contact:phone": "+359 88 882 8240", "name": "Mandarin Bar & Dinner"}}, {"type": "node", "id": 8980012006, "lat": 42.6530516, "lon": 27.7139211, "tags": {"amenity": "restaurant"}}, {"type": "node", "id": 8986976902, "lat": 42.6549092, "lon": 27.7152752, "tags": {"amenity": "restaurant", "name": "\u041f\u0435\u0440\u0443\u043d \u0431\u0430\u0440 \u0435\u043d\u0434 \u0434\u0438\u043d\u044a\u0440", "name:en": "Perun Bar and Dinner"}}, {"type": "node", "id": 8996496780, "lat": 42.6582864, "lon": 27.7301654, "tags": {"amenity": "restaurant", "name": "Fish House"}}, {"type": "node", "id": 8996496781, "lat": 42.648155, "lon": 27.70702, "tags": {"amenity": "restaurant", "name": "Sacre", "opening_hours": "Mo-Su 08:00-24:00", "outdoor_seating": "yes"}}, {"type": "node", "id": 9004953306, "lat": 42.713232, "lon": 27.7589882, "tags": {"amenity": "restaurant", "name": "\u0411\u0438\u0441\u0442\u0440\u043e \u0412\u0438\u043a\u0442\u043e\u0440\u0438\u044f"}}, {"type": "node", "id": 9021118617, "lat": 42.6430473, "lon": 27.6806189, "tags": {"addr:housenumber": "5", "addr:postcode": "8283", "addr:street": "\u0421\u0438\u0440\u0435\u043d\u0430", "amenity": "restaurant", "name:en": "Restaurant Viona"}}, {"type": "node", "id": 9056191292, "lat": 42.7151047, "lon": 27.8846982, "tags": {"amenity": "restaurant", "name": "\u0412\u0438\u043b\u0430 \u0415\u043c\u043e\u043d\u0430"}}, {"type": "node", "id": 9103150703, "lat": 42.6586161, "lon": 27.7163978, "tags": {"amenity": "cafe", "name": "Caffetto", "name:bg": "\u041a\u0430\u0444\u0435\u0442\u043e"}}, {"type": "node", "id": 9373441637, "lat": 42.6601942, "lon": 27.7023561, "tags": {"amenity": "cafe", "indoor_seating": "yes", "name": "Detelina's", "opening_hours": "Mo-Su 07:00-22:00", "outdoor_seating": "yes"}}, {"type": "node", "id": 9794532047, "lat": 42.6582979, "lon": 27.7361455, "tags": {"amenity": "restaurant", "name": "Sevina", "name:bg": "\u0421\u0435\u0432\u0438\u043d\u0430", "name:en": "Sevina"}}, {"type": "node", "id": 9823413255, "lat": 42.8239041, "lon": 27.8835804}, {"type": "node", "id": 9823413261, "lat": 42.8239435, "lon": 27.8837558}, {"type": "node", "id": 9823413262, "lat": 42.8238215, "lon": 27.8838067}, {"type": "node", "id": 9823413277, "lat": 42.8237822, "lon": 27.8836313}, {"type": "node", "id": 9826084403, "lat": 42.823653, "lon": 27.8802334}, {"type": "node", "id": 9826084404, "lat": 42.8235149, "lon": 27.8803396}, {"type": "node", "id": 9826084405, "lat": 42.8235405, "lon": 27.8804015}, {"type": "node", "id": 9826084406, "lat": 42.8236786, "lon": 27.8802953}, {"type": "node", "id": 9846896498, "lat": 42.7082659, "lon": 27.7198881, "tags": {"amenity": "restaurant", "cuisine": "pizza;pub", "name": "Friends"}}, {"type": "node", "id": 9846896539, "lat": 42.708567, "lon": 27.7188657, "tags": {"amenity": "restaurant", "name": "Black Sea Bistro"}}, {"type": "node", "id": 9848237366, "lat": 42.7110843, "lon": 27.7244985, "tags": {"amenity": "restaurant", "name": "Swan Hills"}}, {"type": "node", "id": 9848854308, "lat": 42.7127203, "lon": 27.7273694, "tags": {"amenity": "restaurant", "indoor_seating": "yes", "name": "Taverna", "outdoor_seating": "yes"}}, {"type": "node", "id": 9848854438, "lat": 42.7125826, "lon": 27.7263298, "tags": {"amenity": "restaurant", "indoor_seating": "yes", "name": "The Restaurant", "outdoor_seating": "yes"}}, {"type": "node", "id": 9848854514, "lat": 42.7116907, "lon": 27.7260937, "tags": {"amenity": "restaurant", "indoor_seating": "yes", "name": "Panorama Bar", "outdoor_seating": "yes"}}, {"type": "node", "id": 9860136511, "lat": 42.6553828, "lon": 27.7137257, "tags": {"amenity": "restaurant"}}, {"type": "node", "id": 9860152752, "lat": 42.655623, "lon": 27.71116, "tags": {"amenity": "restaurant", "name": "\u041c\u0435\u0442\u0430\u0445\u0430"}}, {"type": "node", "id": 9860916117, "lat": 42.6571894, "lon": 27.7164889, "tags": {"amenity": "restaurant"}}, {"type": "node", "id": 9861066190, "lat": 42.7029656, "lon": 27.7204047, "tags": {"amenity": "restaurant", "name": "Ginger"}}, {"type": "node", "id": 9861131128, "lat": 42.7038433, "lon": 27.7216647, "tags": {"amenity": "cafe", "cuisine": "coffee_shop", "name": "The Americano"}}, {"type": "node", "id": 9861131193, "lat": 42.7072355, "lon": 27.7266727, "tags": {"amenity": "cafe", "name": "Veny's beach"}}, {"type": "node", "id": 9861131207, "lat": 42.7091276, "lon": 27.7304884, "tags": {"amenity": "cafe", "cuisine": "pancake", "name": "Masha's pancakes", "name:en": "Masha's pancakes", "name:ru": "\u0411\u043b\u0438\u043d\u044b \u041c\u0430\u0448\u0438"}}, {"type": "node", "id": 9861277540, "lat": 42.7094001, "lon": 27.730713, "tags": {"amenity": "restaurant", "name": "Carina beach"}}, {"type": "node", "id": 9861277542, "lat": 42.7095706, "lon": 27.731203, "tags": {"amenity": "restaurant", "name": "Dolphin Coast"}}, {"type": "node", "id": 9861277549, "lat": 42.7095872, "lon": 27.7322805}, {"type": "node", "id": 9861277550, "lat": 42.7095033, "lon": 27.7322874}, {"type": "node", "id": 9861277551, "lat": 42.7095083, "lon": 27.7324011}, {"type": "node", "id": 9861277552, "lat": 42.7095401, "lon": 27.7323985}, {"type": "node", "id": 9861277553, "lat": 42.7095542, "lon": 27.732717}, {"type": "node", "id": 9861277554, "lat": 42.7095427, "lon": 27.7327179}, {"type": "node", "id": 9861277555, "lat": 42.7095438, "lon": 27.7328185}, {"type": "node", "id": 9861277556, "lat": 42.7096192, "lon": 27.732818}, {"type": "node", "id": 9861277557, "lat": 42.7096184, "lon": 27.7326974}, {"type": "node", "id": 9861277558, "lat": 42.7096626, "lon": 27.7326938}, {"type": "node", "id": 9861277559, "lat": 42.7096605, "lon": 27.7326472}, {"type": "node", "id": 9861277560, "lat": 42.7096762, "lon": 27.7326459}, {"type": "node", "id": 9861277561, "lat": 42.7096742, "lon": 27.7326023}, {"type": "node", "id": 9861277562, "lat": 42.7096867, "lon": 27.7326013}, {"type": "node", "id": 9861277563, "lat": 42.7096785, "lon": 27.7324182}, {"type": "node", "id": 9861277564, "lat": 42.7095936, "lon": 27.7324252}, {"type": "node", "id": 9861277603, "lat": 42.7095921, "lon": 27.7323923, "tags": {"entrance": "yes"}}, {"type": "node", "id": 9861314075, "lat": 42.7078641, "lon": 27.7410075, "tags": {"amenity": "restaurant"}}, {"type": "node", "id": 9862001318, "lat": 42.7122709, "lon": 27.7412851, "tags": {"amenity": "restaurant", "name": "\u0410\u043d\u0442\u043e\u043d\u0438\u044f"}}, {"type": "node", "id": 9863863457, "lat": 42.7086473, "lon": 27.7726884, "tags": {"amenity": "restaurant", "name": "Breeze"}}, {"type": "node", "id": 9863863663, "lat": 42.7061827, "lon": 27.7703159, "tags": {"amenity": "restaurant", "name": "iL Siciliano"}}, {"type": "node", "id": 9884005021, "lat": 42.7044424, "lon": 27.7084784, "tags": {"alt_name": "Lotus family restaurant", "amenity": "restaurant", "name": "Lotus"}}, {"type": "node", "id": 9904670117, "lat": 42.6426725, "lon": 27.6818886, "tags": {"amenity": "restaurant", "name": "\u0411\u0438\u0436\u0443", "opening_hours": "07:30-23:00"}}, {"type": "node", "id": 9904670128, "lat": 42.7757707, "lon": 27.8182928, "tags": {"amenity": "restaurant", "name": "\u0415\u043b\u0438\u043d\u043e\u0440", "outdoor_seating": "yes"}}, {"type": "node", "id": 9904670137, "lat": 42.7126628, "lon": 27.7522488, "tags": {"addr:housenumber": "3", "addr:street": "\u0420\u0430\u043a\u043e\u0432\u0438\u043d\u0430", "amenity": "restaurant", "opening_hours": "11:00-22:00", "outdoor_seating": "yes", "phone": "+359 87 751 7465"}}, {"type": "node", "id": 9911046340, "lat": 42.6655843, "lon": 27.7163627, "tags": {"amenity": "restaurant", "name": "La Vista"}}, {"type": "node", "id": 9921313780, "lat": 42.7124567, "lon": 27.762901, "tags": {"amenity": "restaurant", "name": "\u041f\u0440\u0438 \u041c\u0438\u0442\u043a\u043e"}}, {"type": "node", "id": 9921313790, "lat": 42.7125357, "lon": 27.7609205, "tags": {"amenity": "restaurant", "name": "Balkan"}}, {"type": "node", "id": 9921313792, "lat": 42.7123673, "lon": 27.7626952, "tags": {"amenity": "restaurant", "name": "Rubin"}}, {"type": "node", "id": 9921364318, "lat": 42.7118836, "lon": 27.7624032, "tags": {"amenity": "restaurant"}}, {"type": "node", "id": 9922811217, "lat": 42.6405828, "lon": 27.6772987, "tags": {"amenity": "restaurant", "name:en": "Marina"}}, {"type": "node", "id": 9922824117, "lat": 42.6403623, "lon": 27.6770655, "tags": {"amenity": "restaurant", "name:en": "Elegance"}}, {"type": "node", "id": 9987704470, "lat": 42.6562129, "lon": 27.7046075, "tags": {"amenity": "restaurant", "name": "\u0427\u0438\u0444\u043b\u0438\u043a\u0430", "outdoor_seating": "yes"}}, {"type": "node", "id": 9987704482, "lat": 42.6529361, "lon": 27.7030604, "tags": {"amenity": "restaurant", "cuisine": "fish;fish_and_chips", "name": "\u0411\u0438\u0441\u0442\u0440\u043e \u041c\u043e\u0440\u0441\u043a\u0430 \u0417\u0432\u0435\u0437\u0434\u0430"}}, {"type": "node", "id": 9987722849, "lat": 42.6561496, "lon": 27.7032841, "tags": {"amenity": "cafe", "indoor_seating": "yes", "name": "Cafechino", "opening_hours": "Mo-Fr 07:00-20:00; Sa-Su 08:00-20:00", "outdoor_seating": "yes"}}, {"type": "node", "id": 10002429797, "lat": 42.6566184, "lon": 27.7329706, "tags": {"amenity": "restaurant", "contact:facebook": "https://www.facebook.com/people/MELSA-Morska-Gara/100083282127642/", "contact:instagram": "https://www.instagram.com/melsa.morska.gara/", "contact:phone": "+359 88 655 2285", "name": "Melsa - Morska Gara"}}, {"type": "node", "id": 10043334618, "lat": 42.6581195, "lon": 27.7351089, "tags": {"amenity": "restaurant", "name": "\u041a\u0430\u043a\u0430\u0434\u0443", "name:bg": "\u041a\u0430\u043a\u0430\u0434\u0443", "name:en": "Cacadu"}}, {"type": "node", "id": 10130893714, "lat": 42.6521335, "lon": 27.6974266, "tags": {"amenity": "restaurant", "check_date:currency:XBT": "2023-02-08", "name": "Azzaiia"}}, {"type": "node", "id": 10291893275, "lat": 42.6626522, "lon": 27.7194778, "tags": {"amenity": "cafe", "name": "5koffee by Mistral", "outdoor_seating": "yes"}}, {"type": "node", "id": 10962618700, "lat": 42.6941695, "lon": 27.7121228}, {"type": "node", "id": 10969764183, "lat": 42.6707868, "lon": 27.7064525, "tags": {"amenity": "restaurant", "name": "Memory"}}, {"type": "node", "id": 10969764192, "lat": 42.6797178, "lon": 27.7055999, "tags": {"amenity": "cafe"}}, {"type": "node", "id": 10977790683, "lat": 42.6575919, "lon": 27.7333152, "tags": {"amenity": "cafe"}}, {"type": "node", "id": 10980859071, "lat": 42.6997089, "lon": 27.7101401, "tags": {"amenity": "restaurant"}}, {"type": "node", "id": 10980859125, "lat": 42.6989513, "lon": 27.7097678, "tags": {"amenity": "restaurant"}}, {"type": "node", "id": 10998601332, "lat": 42.6934787, "lon": 27.7123499, "tags": {"amenity": "restaurant", "cuisine": "barbecue", "name": "Bistro Billy"}}, {"type": "node", "id": 11001565230, "lat": 42.6911893, "lon": 27.707196, "tags": {"amenity": "restaurant", "brand": "Restaurante Popular", "name": "Restaurante Popular"}}, {"type": "node", "id": 11030227734, "lat": 42.8304439, "lon": 27.8817969}, {"type": "node", "id": 11030227735, "lat": 42.830312, "lon": 27.8817393}, {"type": "node", "id": 11030227736, "lat": 42.8304886, "lon": 27.8819272}, {"type": "node", "id": 11031563091, "lat": 42.8302055, "lon": 27.8817514}, {"type": "node", "id": 11031563092, "lat": 42.8302065, "lon": 27.8816319}, {"type": "node", "id": 11031563093, "lat": 42.8303331, "lon": 27.8817747}, {"type": "node", "id": 11031563094, "lat": 42.8303708, "lon": 27.8817999}, {"type": "node", "id": 11032373014, "lat": 42.8301533, "lon": 27.8806582, "tags": {"amenity": "restaurant", "internet_access": "wlan", "internet_access:fee": "no", "kids_area": "no", "name": "HVD Miramar Restaurant", "operator": "HVD Miramar", "self_service": "yes", "smoking": "no", "toilets:access": "customers", "toilets:wheelchair": "yes"}}, {"type": "node", "id": 11069662824, "lat": 42.6951541, "lon": 27.7094905, "tags": {"amenity": "restaurant", "check_date": "2023-07-26", "cuisine": "nordic", "name": "Nordic House", "opening_hours": "09:00-23:00", "payment:cash": "yes", "payment:credit_cards": "yes", "payment:debit_cards": "yes", "website": "https://www.nordichousesb.com/"}}, {"type": "node", "id": 11087524688, "lat": 42.6880527, "lon": 27.7052123, "tags": {"amenity": "restaurant", "name": "Pardon"}}, {"type": "node", "id": 11101593105, "lat": 42.6572814, "lon": 27.7325134, "tags": {"amenity": "restaurant", "name": "\u041a\u0430\u043f\u0438\u0442\u0430\u043d\u0441\u043a\u0430 \u0441\u0440\u0435\u0449\u0430", "name:en": "Kapitanska sreshta"}}, {"type": "node", "id": 11108266807, "lat": 42.7114007, "lon": 27.7630562, "tags": {"amenity": "cafe"}}, {"type": "node", "id": 11116173063, "lat": 42.6746052, "lon": 27.7049585}, {"type": "node", "id": 11116173064, "lat": 42.6746071, "lon": 27.705106}, {"type": "node", "id": 11116173065, "lat": 42.6746943, "lon": 27.7051877}, {"type": "node", "id": 11116173066, "lat": 42.6746885, "lon": 27.7049611}, {"type": "node", "id": 11144347522, "lat": 42.6539365, "lon": 27.705674, "tags": {"amenity": "restaurant", "brewery": "yes", "name": "The Yard", "opening_hours": "08:30-23:00", "outdoor_seating": "yes"}}, {"type": "node", "id": 11146545763, "lat": 42.6604065, "lon": 27.7178038, "tags": {"amenity": "restaurant", "cuisine": "pizza", "name": "Portorosso", "outdoor_seating": "yes"}}, {"type": "node", "id": 11146545792, "lat": 42.6604421, "lon": 27.7174209, "tags": {"amenity": "restaurant", "cuisine": "regional", "name": "\u041c\u0435\u0445\u0430\u043d\u0430 \u0410\u043d\u0447\u043e"}}, {"type": "node", "id": 11260164437, "lat": 42.6594512, "lon": 27.738336, "tags": {"amenity": "restaurant", "internet_access": "wlan", "name": "\u0422\u0430\u0433\u0440\u0430", "name:en": "Tangra"}}, {"type": "node", "id": 11260164737, "lat": 42.6465527, "lon": 27.6494666, "tags": {"amenity": "restaurant", "name:en": "Bistro Elit"}}, {"type": "node", "id": 11919688706, "lat": 42.7134886, "lon": 27.7600238}, {"type": "node", "id": 11919691826, "lat": 42.7136297, "lon": 27.7582376}, {"type": "node", "id": 11919691827, "lat": 42.7136304, "lon": 27.7582172}, {"type": "node", "id": 11919691828, "lat": 42.7135991, "lon": 27.7581405}, {"type": "node", "id": 11919691829, "lat": 42.7135793, "lon": 27.758108}, {"type": "node", "id": 11919691830, "lat": 42.7136767, "lon": 27.758071}, {"type": "node", "id": 11919691831, "lat": 42.713677, "lon": 27.7580604}, {"type": "node", "id": 11983096910, "lat": 42.7001093, "lon": 27.7139115, "tags": {"amenity": "cafe", "name": "Spetema"}}, {"type": "node", "id": 11994927018, "lat": 42.7047103, "lon": 27.7097265, "tags": {"amenity": "cafe", "opening_hours": "Mo-Su 09:00-20:00", "outdoor_seating": "yes", "takeaway": "yes"}}, {"type": "node", "id": 11997722980, "lat": 42.8742657, "lon": 27.8940553}, {"type": "node", "id": 11997722981, "lat": 42.8742748, "lon": 27.8940562}, {"type": "node", "id": 11997722982, "lat": 42.8743305, "lon": 27.8939617}, {"type": "node", "id": 11997722983, "lat": 42.8743312, "lon": 27.8939475}, {"type": "node", "id": 12006165291, "lat": 42.7044444, "lon": 27.7152479, "tags": {"amenity": "restaurant"}}, {"type": "node", "id": 12006621538, "lat": 42.7059726, "lon": 27.717638, "tags": {"amenity": "restaurant", "name": "St. Valentin"}}, {"type": "node", "id": 12007536935, "lat": 42.7045611, "lon": 27.7215792, "tags": {"amenity": "restaurant"}}, {"type": "node", "id": 12012105367, "lat": 42.7084076, "lon": 27.7285848, "tags": {"amenity": "restaurant", "name": "Dolphin"}}, {"type": "node", "id": 12012129205, "lat": 42.7096641, "lon": 27.7285182, "tags": {"amenity": "restaurant"}}, {"type": "node", "id": 12012349471, "lat": 42.6610934, "lon": 27.7375886}, {"type": "node", "id": 12012349472, "lat": 42.6610676, "lon": 27.7375666}, {"type": "node", "id": 12012349473, "lat": 42.6610149, "lon": 27.7376808}, {"type": "node", "id": 12012349474, "lat": 42.6609638, "lon": 27.7376372}, {"type": "node", "id": 12012349475, "lat": 42.6609344, "lon": 27.7378477}, {"type": "node", "id": 12012349476, "lat": 42.660967, "lon": 27.7378561}, {"type": "node", "id": 12012349477, "lat": 42.6609869, "lon": 27.7377135}, {"type": "node", "id": 12012349478, "lat": 42.6610219, "lon": 27.7377434}, {"type": "node", "id": 12012349507, "lat": 42.6596664, "lon": 27.7338455, "tags": {"amenity": "restaurant", "name": "Familia"}}, {"type": "node", "id": 12013086576, "lat": 42.6589744, "lon": 27.7325821, "tags": {"amenity": "restaurant", "cuisine": "regional;fish", "name": "\u0414\u0438\u043e\u043d\u0438\u0441", "name:en": "Dionis"}}, {"type": "node", "id": 12013086577, "lat": 42.6589485, "lon": 27.7322305, "tags": {"amenity": "restaurant", "cuisine": "fish", "name": "\u0411\u0438\u0441\u0442\u0440\u043e \u201e\u0410\u041a\u0412\u0410\u041c\u0410\u0420\u0418\u041d\u201c", "name:en": "Bistro \"Aquamarin\"", "outdoor_seating": "yes"}}, {"type": "node", "id": 12013086578, "lat": 42.658949, "lon": 27.7323431, "tags": {"amenity": "restaurant", "cuisine": "fish", "name": "\u041a\u0430\u043b\u0438\u0441\u0442\u043e", "outdoor_seating": "yes", "toilets:access": "customers"}}, {"type": "node", "id": 12013086579, "lat": 42.6587956, "lon": 27.7314651, "tags": {"amenity": "restaurant", "name": "Hemingway"}}, {"type": "node", "id": 12013100216, "lat": 42.6582216, "lon": 27.7332957, "tags": {"amenity": "restaurant", "name": "Pontika"}}, {"type": "node", "id": 12017361769, "lat": 42.6599174, "lon": 27.7346411, "tags": {"addr:housenumber": "6", "addr:street": "\u041a\u0440\u0430\u0439\u0431\u0440\u0435\u0436\u043d\u0430", "amenity": "restaurant", "name": "\u0413\u0430\u043b\u0435\u0440\u0438\u044f"}}, {"type": "node", "id": 12020960015, "lat": 42.6978831, "lon": 27.7158456, "tags": {"amenity": "restaurant"}}, {"type": "node", "id": 12020960106, "lat": 42.7019597, "lon": 27.7187369, "tags": {"amenity": "restaurant"}}, {"type": "node", "id": 12022956105, "lat": 42.658421, "lon": 27.737653, "tags": {"amenity": "restaurant", "name": "\u0417\u043b\u0430\u0442\u043d\u043e\u0442\u043e \u0440\u0443\u043d\u043e"}}, {"type": "node", "id": 12022956175, "lat": 42.6598985, "lon": 27.7366561, "tags": {"amenity": "restaurant", "contact:instagram": "arnaud_house", "name": "\u0410\u0440\u043d\u0430\u0443\u0434\u043e\u0432\u0430\u0442\u0430 \u043a\u044b\u0449\u0430", "name:bg": "\u0410\u0440\u043d\u0430\u0443\u0434\u043e\u0432\u0430\u0442\u0430 \u043a\u044b\u0449\u0430", "name:en": "Arnaudov's House", "phone": "+359 899 139422"}}, {"type": "node", "id": 12023342150, "lat": 42.7016612, "lon": 27.7195807, "tags": {"amenity": "restaurant", "cuisine": "bulgarian;mexican;indian;french", "name": "The Fat Cat", "name:bg": "\u0414\u0435\u0431\u0435\u043b\u0430\u0442\u0430 \u041a\u043e\u0442\u043a\u0430", "name:en": "The Fat Cat", "opening_hours": "Mo-Su 09:00-03:00", "phone": "+359 88 512 6280", "website": "https://thefatcat.ilovesunnybeach.bg/"}}, {"type": "node", "id": 12023342151, "lat": 42.7018285, "lon": 27.7195526, "tags": {"amenity": "restaurant", "cuisine": "steak_house;fish", "name": "La Bamba", "opening_hours": "Mo-Su 09:00-21:30", "phone": "+359 885126280", "website": "https://www.labamba.ilovesunnybeach.bg/"}}, {"type": "node", "id": 12023360562, "lat": 42.6589955, "lon": 27.7327523, "tags": {"amenity": "restaurant", "cuisine": "regional;fish", "name:en": "Royal"}}, {"type": "node", "id": 12052830716, "lat": 42.6629468, "lon": 27.7031587, "tags": {"amenity": "cafe", "name": "El Camino", "outdoor_seating": "yes"}}, {"type": "node", "id": 12052852770, "lat": 42.8740562, "lon": 27.8935577, "tags": {"amenity": "restaurant", "name": "\u0411\u0438\u0441\u0442\u0440\u043e \u0420\u0438\u0431\u043a\u0430\u0442\u0430"}}, {"type": "node", "id": 12063312902, "lat": 42.6431631, "lon": 27.6488306, "tags": {"amenity": "restaurant", "name": "Provence"}}, {"type": "node", "id": 12063312906, "lat": 42.6456744, "lon": 27.6493643, "tags": {"amenity": "restaurant"}}, {"type": "node", "id": 12063312907, "lat": 42.6394064, "lon": 27.6501394, "tags": {"amenity": "restaurant", "name": "Lecardo", "outdoor_seating": "yes"}}, {"type": "node", "id": 12063312917, "lat": 42.6430522, "lon": 27.6485233, "tags": {"amenity": "restaurant", "name": "El Mar"}}, {"type": "node", "id": 12063312919, "lat": 42.6435928, "lon": 27.6488195, "tags": {"amenity": "restaurant", "name": "Motive"}}, {"type": "node", "id": 12063312923, "lat": 42.6438267, "lon": 27.6800834, "tags": {"amenity": "restaurant", "name": "\u0411\u0438\u0441\u0442\u0440\u043e \u0417\u043e\u0440\u043d\u0438\u0446\u0430", "outdoor_seating": "yes"}}, {"type": "node", "id": 12074965555, "lat": 42.6463165, "lon": 27.6496478, "tags": {"amenity": "restaurant", "name": "\u0425\u0435\u043d\u0438"}}, {"type": "node", "id": 12077102870, "lat": 42.6745418, "lon": 27.7031045, "tags": {"amenity": "restaurant", "cuisine": "fish;fish_and_chips;italian_pizza", "name": "Pollo Resort", "opening_hours": "Mo-Su 08:00-23:00"}}, {"type": "node", "id": 12086893062, "lat": 42.6585008, "lon": 27.73269, "tags": {"amenity": "cafe", "cuisine": "bubble_tea", "name": "Bamboo bubble tea"}}, {"type": "node", "id": 12087617467, "lat": 42.7106916, "lon": 27.720956, "tags": {"amenity": "restaurant", "fixme": "Location approximate; needs info from survey", "name": "Go Grill"}}, {"type": "node", "id": 12088387469, "lat": 42.6851425, "lon": 27.7030576, "tags": {"addr:street": "\u0410\u0444\u0440\u043e\u0434\u0438\u0442\u0430", "amenity": "cafe", "cuisine": "breakfast;cake;coffee_shop;ice_cream;pancake;tea", "name": "ReFresh Coffee&Bar", "website:menu": "https://drive.google.com/drive/mobile/folders/1saEpUU6jXvy4co9pVRtW-pHrc__COicM"}}, {"type": "node", "id": 12091343595, "lat": 42.7087005, "lon": 27.7586209, "tags": {"amenity": "restaurant", "name": "La Cubanita"}}, {"type": "node", "id": 12091372367, "lat": 42.7093711, "lon": 27.7589507, "tags": {"amenity": "restaurant", "name": "Berlin Beach Garden"}}, {"type": "node", "id": 12091445049, "lat": 42.7109886, "lon": 27.7545001, "tags": {"amenity": "restaurant", "int_name": "Siana", "name": "\u0421\u0438\u0430\u043d\u0430", "name:bg": "\u0421\u0438\u0430\u043d\u0430"}}, {"type": "node", "id": 12112507383, "lat": 42.6585586, "lon": 27.7339586, "tags": {"addr:city": "\u041d\u0435\u0441\u0435\u0431\u044a\u0440", "addr:housenumber": "7", "addr:street": "\u041c\u0435\u0441\u0435\u043c\u0431\u0440\u0438\u044f", "amenity": "cafe", "name": "\u0421\u043e\u043d\u044f"}}, {"type": "node", "id": 12144350347, "lat": 42.7025641, "lon": 27.8063616, "tags": {"amenity": "restaurant", "name": "Robinson beach reastaurant", "opening_hours": "Mo-Su 10:00-22:00"}}, {"type": "node", "id": 12153330681, "lat": 42.8252397, "lon": 27.8784735, "tags": {"amenity": "restaurant"}}, {"type": "node", "id": 12164235701, "lat": 42.6608525, "lon": 27.7365923, "tags": {"addr:housenumber": "18\u0430", "addr:postcode": "8230", "addr:street": "\u041a\u0440\u0430\u0439\u0431\u0440\u0435\u0436\u043d\u0430", "amenity": "restaurant", "cuisine": "balkan", "name": "\u041a\u0430\u043f\u0438\u0442\u0430\u043d \u041d\u0435\u043c\u043e", "name:de": "Kapit\u00e4n Nemo", "name:en": "Captain Nemo", "outdoor_seating": "yes", "self_service": "no"}}, {"type": "node", "id": 12165778780, "lat": 42.7101156, "lon": 27.7436006, "tags": {"amenity": "restaurant", "name": "Chef's Buffet", "opening_hours": "Mo-Su 07:30-22:00"}}, {"type": "node", "id": 12228624661, "lat": 42.627234, "lon": 27.6344601}, {"type": "node", "id": 12228624662, "lat": 42.6271385, "lon": 27.6343902}, {"type": "node", "id": 12228624663, "lat": 42.6269998, "lon": 27.6344551}, {"type": "node", "id": 12228624664, "lat": 42.6269006, "lon": 27.6346973}, {"type": "node", "id": 12228624665, "lat": 42.6269548, "lon": 27.6348758}, {"type": "node", "id": 12228624666, "lat": 42.6270494, "lon": 27.6349507}, {"type": "node", "id": 12362969744, "lat": 42.6450819, "lon": 27.6774934, "tags": {"amenity": "restaurant", "name": "\u041c\u0435\u0437\u0435\u0442\u043e"}}, {"type": "node", "id": 12405487570, "lat": 42.7009943, "lon": 27.7184363, "tags": {"amenity": "restaurant", "name": "\u0413\u043b\u0430\u0440\u0443\u0441", "name:en": "Glarus", "phone": "+35955422177", "website": "https://hotelglarus.bg/%d1%80%d0%b5%d1%81%d1%82%d0%be%d1%80%d0%b0%d0%bd%d1%82%d0%b8/"}}, {"type": "node", "id": 12899454713, "lat": 42.6945602, "lon": 27.712101, "tags": {"amenity": "restaurant", "cuisine": "italian;brunch", "name": "Jack's Bar & Diner", "opening_hours": "Mo-Su 09:00-03:00", "phone": "+359 89 893 4330"}}, {"type": "way", "id": 119514735, "nodes": [1342675797, 1342675731, 1342675763, 1342675803, 1342675819, 1342675717, 1342675797], "tags": {"amenity": "restaurant", "building": "yes", "name": "\u0420\u0438\u0431\u0435\u043d \u0420\u0435\u0441\u0442\u043e\u0440\u0430\u043d\u0442 \u041b\u0435\u0432\u0430\u043d\u0442", "phone": "+359 88 911 9913"}}, {"type": "way", "id": 119514737, "nodes": [1342675826, 1342675791, 1342675821, 1342675733, 1342675826], "tags": {"amenity": "restaurant", "cuisine": "regional", "name": "Robinson"}}, {"type": "way", "id": 170771330, "nodes": [1819162296, 1819162293, 1890529150, 1890529149, 1890529134, 1890529130, 1890529132, 1890529148, 1890529151, 1890529152, 1819162295, 1819162296], "tags": {"amenity": "restaurant", "building": "yes", "name": "\u0425\u0430\u043d\u0441\u043a\u0430 \u0448\u0430\u0442\u0440\u0430", "name:bg": "\u0425\u0430\u043d\u0441\u043a\u0430 \u0448\u0430\u0442\u0440\u0430", "name:en": "Khan's Tent", "name:ru": "\u0425\u0430\u043d\u0441\u043a\u0438\u0439 \u0448\u0430\u0442\u0451\u0440", "toilets:wheelchair": "yes", "tourism": "attraction", "wheelchair": "yes", "wikidata": "Q671484", "wikipedia": "bg:\u0425\u0430\u043d\u0441\u043a\u0430 \u0448\u0430\u0442\u0440\u0430 (\u0440\u0430\u0437\u0432\u043b\u0435\u043a\u0430\u0442\u0435\u043b\u0435\u043d \u0446\u0435\u043d\u0442\u044a\u0440)"}}, {"type": "way", "id": 177122563, "nodes": [1875867910, 1875867921, 1875867900, 1875867878, 1875867910], "tags": {"amenity": "restaurant", "name": "\u0427\u0435\u0432\u0435\u0440\u043c\u0435"}}, {"type": "way", "id": 178305732, "nodes": [1886699336, 1886699335, 1886699341, 1886699342, 1886699336], "tags": {"amenity": "restaurant", "building": "yes"}}, {"type": "way", "id": 178627418, "nodes": [1889726856, 1889726879, 1889726847, 1889726823, 1889726836, 1889726845, 1889726856], "tags": {"amenity": "cafe", "name": "Best"}}, {"type": "way", "id": 178658922, "nodes": [1890101247, 1890101249, 1890101248, 1890101245, 1890101247], "tags": {"amenity": "restaurant", "name": "\u0410\u0434\u0435\u0442\u0438"}}, {"type": "way", "id": 203610832, "nodes": [2136185471, 2136185456, 2136185454, 2136185469, 2136185471], "tags": {"amenity": "restaurant", "building": "house", "name": "\u041f\u043e\u043d\u0442\u043e\u0441", "outdoor_seating": "yes"}}, {"type": "way", "id": 204775517, "nodes": [2147500690, 2147500689, 2147500687, 2147500688, 2147500690], "tags": {"amenity": "restaurant", "building": "yes"}}, {"type": "way", "id": 210654561, "nodes": [2207325565, 2207325505, 6512228221, 2207325512, 2207325574, 2207325565], "tags": {"amenity": "restaurant", "building": "retail", "name": "Euphoria", "name:en": "Euphoria", "name:ru": "\u042d\u0439\u0444\u043e\u0440\u0438\u044f"}}, {"type": "way", "id": 218452865, "nodes": [2277006957, 2277006955, 2277006959, 2277006965, 2277006957], "tags": {"amenity": "cafe", "building": "yes", "cuisine": "ice_cream", "internet_access:fee": "yes", "outdoor_seating": "yes", "toilets": "yes"}}, {"type": "way", "id": 241580144, "nodes": [2491902656, 2491902657, 2491902658, 2491902659, 2491902656], "tags": {"amenity": "restaurant", "name": "\u041f\u0440\u0438 \u041f\u0430\u043d\u0447\u043e"}}, {"type": "way", "id": 297988105, "nodes": [3018893915, 3018893916, 2410977390, 3018893914, 3018893915], "tags": {"addr:city": "\u0421\u043b\u044a\u043d\u0447\u0435\u0432 \u0431\u0440\u044f\u0433", "addr:postcode": "8240", "amenity": "restaurant", "building": "yes", "cuisine": "chinese", "name": "Restaurant Arena", "smoking": "outside"}}, {"type": "way", "id": 297988107, "nodes": [2218821555, 3018893924, 3018893925, 3018893926, 2218821550, 2218821555], "tags": {"addr:city": "\u0421\u043b\u044a\u043d\u0447\u0435\u0432 \u0431\u0440\u044f\u0433", "addr:postcode": "8240", "addr:street": "Flower Street", "amenity": "restaurant", "building": "yes", "cuisine": "regional", "name": "Central Food & Bar", "opening_hours": "24/7", "smoking": "outside"}}, {"type": "way", "id": 355983155, "nodes": [3614793914, 3614793915, 3614793916, 3614793917, 3614793918, 3614793919, 3614793920, 3614793921, 3614793922, 3614793914], "tags": {"amenity": "restaurant", "building": "yes", "cuisine": "regional", "name": "The Old Ship", "note": "Great Food, cheap Beer and awesome views!", "tourism": "attraction", "website": "http://wikimapia.org/25383810/The-old-ship"}}, {"type": "way", "id": 360608518, "nodes": [3651249030, 3651249031, 3651249036, 3651249035, 3651249030], "tags": {"addr:housenumber": "3", "addr:street": "\u041e\u0431\u043e\u0440\u0438\u0449\u0435", "amenity": "cafe", "building": "yes", "building:levels": "2", "cuisine": "local;coffee_shop", "internet_access": "wlan", "name": "Luxury", "opening_hours": "Mo-Su 08:00-22:00", "operator": "\u041d\u0438\u043a\u043e\u043b\u0430\u0439 \u0418\u0432\u0430\u043d\u043e\u0432", "phone": "+359 87 735 1122"}}, {"type": "way", "id": 367872735, "nodes": [1341518112, 3717464068, 3717464067, 3717464066, 3717464065, 3717464064, 1341518112], "tags": {"addr:city": "\u041e\u0431\u0437\u043e\u0440", "addr:housenumber": "11", "addr:postcode": "8250", "addr:street": "\u043f\u043b. \u0421\u0432\u043e\u0431\u043e\u0434\u0430", "amenity": "restaurant", "building": "yes", "cuisine": "pizza", "int_name": "The House", "name": "\u041a\u044a\u0449\u0430\u0442\u0430", "name:en": "The House Bar&Dinner", "operator": "\u0410\u0432\u0440\u0430\u043c\u043e\u0432\u0438 \u0438 \u043a\u043e \u041e\u041e\u0414"}}, {"type": "way", "id": 373405436, "nodes": [3768789058, 3768789059, 3768789060, 3768789061, 3768789058], "tags": {"amenity": "restaurant", "building": "roof", "fixme": "resurvey", "name": "Casa Brava Bar"}}, {"type": "way", "id": 425779734, "nodes": [4250898746, 4250898737, 4250898732, 4250898733, 4250898746], "tags": {"amenity": "restaurant", "building": "yes"}}, {"type": "way", "id": 427583711, "nodes": [4267835594, 4267835595, 4267835596, 4267835597, 4267835598, 4267835599, 4267835594], "tags": {"amenity": "restaurant", "building": "yes"}}, {"type": "way", "id": 435074708, "nodes": [4330144540, 4330144541, 4330144542, 4330144543, 10962618700, 4330144540], "tags": {"amenity": "restaurant", "building": "yes", "name": "Jack's"}}, {"type": "way", "id": 435074711, "nodes": [4330144546, 4330144548, 4330144549, 4330144547, 4330144546], "tags": {"amenity": "restaurant", "building": "yes", "name": "Rhapsodia"}}, {"type": "way", "id": 512355776, "nodes": [2195863521, 5009811451, 5009811452, 5009811453, 2195863521], "tags": {"amenity": "restaurant", "building": "yes", "cuisine": "pizza"}}, {"type": "way", "id": 585204586, "nodes": [5592878349, 11031563092, 11031563091, 5592878350, 5592878351, 5592878352, 11030227736, 11030227734, 11031563094, 11031563093, 11030227735, 5592878349], "tags": {"amenity": "restaurant", "building": "yes"}}, {"type": "way", "id": 605684414, "nodes": [5744089503, 5744089502, 5744089501, 5744089500, 5744089503], "tags": {"amenity": "cafe", "building": "yes", "name": "\u043a\u0438\u043f\u0430\u0440\u0438\u0441"}}, {"type": "way", "id": 605684418, "nodes": [5744089507, 5744089506, 5744089505, 11997722980, 11997722981, 5744089504, 11997722982, 11997722983, 5744089507], "tags": {"amenity": "restaurant", "building": "yes"}}, {"type": "way", "id": 621314249, "nodes": [5869394915, 5869394916, 5869394917, 5869394918, 5869394915], "tags": {"amenity": "restaurant", "building": "roof"}}, {"type": "way", "id": 621314250, "nodes": [5869394919, 5869394920, 5869394921, 5869394922, 5869394919], "tags": {"amenity": "restaurant", "building": "roof"}}, {"type": "way", "id": 621314251, "nodes": [5869394923, 5869394924, 5869394925, 5869394926, 5869394923], "tags": {"amenity": "restaurant", "building": "roof"}}, {"type": "way", "id": 621314252, "nodes": [5869394927, 5869394928, 5869394929, 5869394930, 5869394927], "tags": {"amenity": "restaurant", "building": "roof"}}, {"type": "way", "id": 621314253, "nodes": [5869394931, 5869394932, 5869394933, 5869394934, 5869394931], "tags": {"amenity": "restaurant", "building": "roof"}}, {"type": "way", "id": 693815370, "nodes": [6514111243, 6514111244, 6550754241, 6514111245, 6514111246, 6550754240, 6514111243], "tags": {"amenity": "restaurant", "building": "yes", "building:levels": "1", "name": "Cascadas", "name:en": "Cascadas"}}, {"type": "way", "id": 724419700, "nodes": [6793813819, 6793813820, 6793813821, 6793813822, 6793813819], "tags": {"amenity": "cafe", "building": "hut", "name": "Paradise Beach Bar Seafood & Grill"}}, {"type": "way", "id": 724419701, "nodes": [6793813823, 6793813824, 6793813825, 6793813826, 6793813827, 6793813828, 6793813823], "tags": {"addr:city": "\u0421\u0432\u0435\u0442\u0438 \u0412\u043b\u0430\u0441", "addr:postcode": "8230", "air_conditioning": "no", "amenity": "restaurant", "bar": "yes", "building": "terrace", "internet_access": "wlan", "internet_access:fee": "no", "level": "0", "name": "Paradise Beach Bar Seafood & Grill", "opening_hours": "24/7", "outdoor_seating": "yes", "payment:cash": "yes", "payment:debit_cards": "yes", "smoking": "yes", "takeaway": "yes", "wheelchair": "yes"}}, {"type": "way", "id": 725452464, "nodes": [6802927087, 6802927088, 6802927089, 6802927090, 6802927091, 6802927087], "tags": {"amenity": "restaurant", "building": "yes", "name": "\u0411\u0443\u043b\u0433\u0430\u0440\u0430"}}, {"type": "way", "id": 785399297, "nodes": [7340846033, 7340846034, 7340846035, 7340846036, 7340846037, 7340846038, 7340846033], "tags": {"amenity": "restaurant", "building": "yes", "cuisine": "seafood", "name": "\u0420\u0438\u0431\u0435\u043d \u0440\u0435\u0441\u0442\u043e\u0440\u0430\u043d\u0442"}}, {"type": "way", "id": 786941027, "nodes": [7356844982, 7356844983, 7356844984, 7356844985, 7356844982], "tags": {"amenity": "restaurant", "building": "yes", "name": "\u0411\u0438\u0441\u0442\u0440\u043e \u0413\u0435\u0448\u0430", "outdoor_seating": "yes"}}, {"type": "way", "id": 790165171, "nodes": [7387086038, 7387086039, 7387086040, 7387086041, 11919688706, 7387086038], "tags": {"amenity": "restaurant", "building": "yes", "name": "Biser"}}, {"type": "way", "id": 791054994, "nodes": [7395189713, 7395189714, 7395189715, 7395189716, 7395189713], "tags": {"amenity": "cafe", "building": "yes", "name": "\u0410\u0440\u0442 \u043a\u0430\u0444\u0435"}}, {"type": "way", "id": 844686931, "nodes": [7880350002, 7880350003, 7880350004, 7880350005, 7880350002], "tags": {"addr:city": "\u0421\u0432\u0435\u0442\u0438 \u0412\u043b\u0430\u0441", "addr:housenumber": "8256", "addr:postcode": "8256", "addr:street": "\u0415\u043b\u0435\u043d\u0438\u0442\u0435", "amenity": "restaurant", "building": "yes", "image": "https://lh3.googleusercontent.com/R5dgDvVa1Wg8UQevu01Plvf9h2FFIT1eBQAwTmeEZ1-EEMTHUbTfH9JW_DL9kjBkJaFGn952FIz6FTdVTg=w960-h960-n-o-v1", "name": "\u0414\u0436\u0430\u043a \u0421\u043f\u0430\u0440\u043e\u0443", "name:en": "Jack Sparrow", "opening_hours": "Mo-Su 14:00-24:00", "phone": "+359 88 942 7959", "website": "https://jack-sparrow-restaurant.business.site/"}}, {"type": "way", "id": 888824235, "nodes": [8263500950, 8263500951, 8263500952, 8263500953, 8263500954, 8263500955, 8263500950], "tags": {"amenity": "restaurant", "building": "yes", "building:levels": "1"}}, {"type": "way", "id": 955845687, "nodes": [8846370970, 11919691830, 11919691831, 7356845011, 8846370984, 11919691826, 11919691827, 8846370981, 8846370967, 11919691828, 8846370947, 11919691829, 8846370970], "tags": {"amenity": "restaurant", "building": "yes", "cuisine": "regional", "name": "\u0413\u0435\u0440\u0430\u043d\u0430", "outdoor_seating": "yes"}}, {"type": "way", "id": 1070403315, "nodes": [9823413255, 9823413261, 9823413262, 9823413277, 9823413255], "tags": {"amenity": "restaurant", "building": "hut"}}, {"type": "way", "id": 1070724274, "nodes": [9826084405, 9826084406, 9826084403, 9826084404, 9826084405], "tags": {"amenity": "restaurant", "building": "yes"}}, {"type": "way", "id": 1075213737, "nodes": [9861277549, 9861277550, 9861277551, 9861277552, 6535992885, 9861277553, 9861277554, 9861277555, 9861277556, 9861277557, 9861277558, 9861277559, 9861277560, 9861277561, 9861277562, 9861277563, 9861277564, 9861277603, 9861277549], "tags": {"amenity": "restaurant", "building": "yes", "name": "Sunrise Beach Bar"}}, {"type": "way", "id": 1198258406, "nodes": [11116173063, 11116173064, 11116173065, 11116173066, 11116173063], "tags": {"addr:city": "\u0421\u043b\u044a\u043d\u0447\u0435\u0432 \u0431\u0440\u044f\u0433", "addr:postcode": "8240", "addr:street": "Complex Rainbow", "amenity": "restaurant", "building": "yes", "cuisine": "barbecue;pizza;greek;bulgarian;mediterranean", "diet:meat": "yes", "diet:vegetarian": "yes", "name": "Kadem Garden", "opening_hours": "Mo-Su 10:00-23:00", "phone": "+359 89 510 1011", "website": "https://www.facebook.com/kademrestaurant/menu/"}}, {"type": "way", "id": 1296351845, "nodes": [12012349471, 12012349472, 12012349473, 12012349474, 12012349475, 12012349476, 12012349477, 12012349478, 12012349471], "tags": {"amenity": "restaurant", "building": "yes"}}, {"type": "way", "id": 1321509919, "nodes": [12228624661, 12228624662, 12228624663, 12228624664, 12228624665, 12228624666, 12228624661], "tags": {"amenity": "restaurant", "building": "yes"}}]}