{"version": 0.6, "generator": "Overpass API 0.7.62.7 375dc00a", "osm3s": {"timestamp_osm_base": "2025-06-14T13:14:57Z", "copyright": "The data included in this document is from www.openstreetmap.org. The data is made available under ODbL."}, "elements": [{"type": "node", "id": 3353670791, "lat": 13.4931138, "lon": 7.1293235, "tags": {"amenity": "restaurant", "source": "survey"}}, {"type": "node", "id": 3906055483, "lat": 13.4989248, "lon": 7.1069468, "tags": {"amenity": "restaurant", "name": "Restaurant Martaba"}}, {"type": "node", "id": 3941237524, "lat": 13.4956124, "lon": 7.1172315, "tags": {"amenity": "restaurant", "name": "Restaurant Rosario", "source": "survey, bing"}}, {"type": "node", "id": 4314700228, "lat": 13.4914575, "lon": 7.1245337, "tags": {"amenity": "restaurant", "name": "Restaurant PLAZA", "project:pdevii": "yes", "source": "survey"}}, {"type": "node", "id": 4314707042, "lat": 13.4906299, "lon": 7.1268403, "tags": {"amenity": "restaurant", "name": "Restaurant&Pension Le Royal"}}, {"type": "node", "id": 4316047151, "lat": 13.491776, "lon": 7.1176599, "tags": {"amenity": "restaurant", "name": "Maquis AMAZONE", "project:pdevii": "yes", "source": "survey", "survey:date": "2016-07-22"}}, {"type": "node", "id": 4316047154, "lat": 13.4917549, "lon": 7.1175553, "tags": {"amenity": "restaurant", "name": "Restaurant FARA'A Mai Jirgui", "project:pdevii": "yes", "source": "survey", "survey:date": "2016-07-22"}}, {"type": "node", "id": 4317351512, "lat": 13.4947824, "lon": 7.1123417, "tags": {"amenity": "restaurant", "name": "Elh. Madougou Mai Zabi", "project:pdevii": "yes", "source": "survey"}}, {"type": "node", "id": 4318505191, "lat": 13.4926655, "lon": 7.1105231, "tags": {"amenity": "restaurant", "name": "Restaurant Maggi", "project:pdevii": "yes", "source": "survey"}}, {"type": "node", "id": 6767982685, "lat": 13.5020204, "lon": 7.1076839, "tags": {"amenity": "restaurant", "name": "Restaurant S\u00e9n\u00e9galais", "name:ar": "\u0645\u0637\u0639\u0645 \u0633\u0646\u063a\u0627\u0644\u064a"}}, {"type": "node", "id": 8830361417, "lat": 13.4887404, "lon": 7.109418, "tags": {"amenity": "restaurant", "name": "Restaurant BANGA FOOD Maradi"}}, {"type": "node", "id": 8838238717, "lat": 13.4966967, "lon": 7.124413, "tags": {"amenity": "restaurant", "name": "Maradi Restaurant Los Tallos"}}, {"type": "node", "id": 11096835654, "lat": 13.4860116, "lon": 7.1141439, "tags": {"amenity": "restaurant", "name": "Restaurant Club 5 \u00c9toiles"}}, {"type": "node", "id": 11096841797, "lat": 13.4872076, "lon": 7.1193339, "tags": {"amenity": "restaurant", "name": "Restaurant Dan Komma"}}]}