{"version": 0.6, "generator": "Overpass API 0.7.62.7 375dc00a", "osm3s": {"timestamp_osm_base": "2025-06-14T15:36:29Z", "copyright": "The data included in this document is from www.openstreetmap.org. The data is made available under ODbL."}, "elements": [{"type": "node", "id": 4577464493, "lat": 14.10019, "lon": 38.2812128, "tags": {"amenity": "restaurant", "name:en": "Darro coffee"}}, {"type": "node", "id": 4623248789, "lat": 14.0979317, "lon": 38.2764111, "tags": {"amenity": "cafe", "name": "\u1203\u12ca \u12ab\u134c\u1293 \u1241\u122d\u1235 \u1264\u1275", "name:am": "\u1203\u12ca \u12ab\u134c\u1293 \u1241\u122d\u1235 \u1264\u1275", "name:en": "Hawi Cafe and Restaurant"}}, {"type": "node", "id": 5182409822, "lat": 14.0995775, "lon": 38.2737516, "tags": {"amenity": "restaurant", "name": "\u12a5\u1295\u12f3 \u1303\u121d\u1266 \u134d\u12e8\u120d \u1264\u1275", "name:en": "Enda Jambo Fiyel Bet"}}, {"type": "node", "id": 5222546930, "lat": 14.1033829, "lon": 38.2844155, "tags": {"amenity": "restaurant", "name:en": "Habesha"}}, {"type": "node", "id": 6017340610, "lat": 14.0995114, "lon": 38.279797, "tags": {"amenity": "restaurant", "cuisine": "ethiopian", "name:en": "Local Restaurant with terrace"}}, {"type": "node", "id": 6359928192, "lat": 14.0996327, "lon": 38.2768029, "tags": {"amenity": "cafe", "name": "\u1203\u1228\u130d \u12ab\u134c Hareg Cafe"}}, {"type": "node", "id": 6401898185, "lat": 14.1030533, "lon": 38.2833522, "tags": {"amenity": "restaurant", "name": "\u1264\u1275 \u1218\u130d\u1262 \u12a3\u1260\u1263 \u123d\u1228 Abeba Restaurant Shire", "phone": "+251921461749"}}, {"type": "node", "id": 6794553387, "lat": 14.099406, "lon": 38.2801596, "tags": {"amenity": "cafe", "name": "Fisseha Embaye (Lingo) \u1264\u1275 \u1241\u122d\u1232 \u134d\u1230\u1203 \u12a5\u121d\u1263\u12e8 (\u120a\u1295\u130e)", "phone": "+251913420104"}}, {"type": "node", "id": 8601413419, "lat": 14.1026713, "lon": 38.2832479, "tags": {"amenity": "restaurant", "name:en": "Tesfay Restaurant"}}, {"type": "node", "id": 8651257018, "lat": 14.1038286, "lon": 38.2854061, "tags": {"amenity": "restaurant", "name:en": "Gabeta Restaurant"}}, {"type": "node", "id": 8651257620, "lat": 14.10211, "lon": 38.2823592, "tags": {"amenity": "restaurant", "name:en": "Nura Restaurant"}}, {"type": "node", "id": 8761281117, "lat": 14.1046869, "lon": 38.2877303, "tags": {"amenity": "restaurant", "name:en": "Amazon Restaurant"}}, {"type": "node", "id": 10275557610, "lat": 14.1033083, "lon": 38.285471, "tags": {"amenity": "restaurant", "name:en": "Rawena Butchery"}}, {"type": "node", "id": 10275557611, "lat": 14.1032909, "lon": 38.2853958, "tags": {"amenity": "restaurant", "name:en": "Abrahale Butchery"}}, {"type": "node", "id": 10275565609, "lat": 14.1033008, "lon": 38.2854238, "tags": {"amenity": "restaurant", "name:en": "Abrahale Butchery"}}, {"type": "node", "id": 10604449105, "lat": 14.0988741, "lon": 38.273876, "tags": {"amenity": "restaurant", "name": "\u12a5\u1295\u12f3 \u1203\u12ca", "name:en": "HAWI cafe and restaurant"}}, {"type": "node", "id": 10604449306, "lat": 14.1043284, "lon": 38.2861305, "tags": {"amenity": "cafe", "name:en": "Makda \u1241\u122d\u1235 \u1264\u1275"}}]}