{"version": 0.6, "generator": "Overpass API 0.7.62.7 375dc00a", "osm3s": {"timestamp_osm_base": "2025-06-14T14:56:39Z", "copyright": "The data included in this document is from www.openstreetmap.org. The data is made available under ODbL."}, "elements": [{"type": "node", "id": 300876657, "lat": 37.7325187, "lon": 28.6397576, "tags": {"amenity": "restaurant", "name": "Altinu\u00e7"}}, {"type": "node", "id": 2164012384, "lat": 37.8806331, "lon": 28.241939, "tags": {"addr:city": "At\u00e7a, Ayd\u0131n", "addr:neighbourhood": "At\u00e7a", "addr:postcode": "09650", "addr:street": "Di\u011fme Mevkii", "amenity": "restaurant", "cuisine": "fish", "name": "Arif Abi'nin Yeri", "phone": "+905359227308", "source": "https://tr.foursquare.com/v/arif-abinin-yeri/500d8c02e4b07957c403bbd2"}}, {"type": "node", "id": 3299471763, "lat": 37.713204, "lon": 28.7103109, "tags": {"amenity": "restaurant", "email": "anatolya@anatoliaturizm.com.tr", "name": "Anatolia Hotel, Restaurant & Camping", "phone": "+90 256 448 81 38", "website": "https://www.anatoliaturizm.com.tr/"}}, {"type": "node", "id": 4389545368, "lat": 37.9625902, "lon": 28.7260167, "tags": {"amenity": "restaurant"}}, {"type": "node", "id": 5112794928, "lat": 37.9244822, "lon": 28.5407887, "tags": {"amenity": "restaurant", "name": "yorukefe pide salonu", "name:en": "the best pide"}}, {"type": "node", "id": 5511452821, "lat": 37.9046016, "lon": 28.3220561, "tags": {"addr:housenumber": "87", "addr:postcode": "09900", "addr:street": "Dumlup\u0131nar Mahallesi Re\u015fit Galip Caddesi", "amenity": "restaurant", "cuisine": "turkish;regional", "internet_access": "wlan", "name": "K\u0131smet Pide", "name:en": "pita", "opening_hours": "24/7", "phone": "02563154466"}}, {"type": "node", "id": 5967157289, "lat": 37.8885588, "lon": 28.3206857, "tags": {"amenity": "cafe", "name": "hac\u0131 Mustafa efendizade erkek \u00f6\u011frenci yurdu"}}, {"type": "node", "id": 6337588485, "lat": 37.8629144, "lon": 28.5430004, "tags": {"amenity": "restaurant", "cuisine": "turkish", "name": "Seher Y\u0131ld\u0131z\u0131 Pide"}}, {"type": "node", "id": 6944111504, "lat": 37.6706094, "lon": 28.3180219}, {"type": "node", "id": 6944111505, "lat": 37.6706402, "lon": 28.3178621}, {"type": "node", "id": 6944111506, "lat": 37.670788, "lon": 28.3179076}, {"type": "node", "id": 6944111507, "lat": 37.6707571, "lon": 28.3180675}, {"type": "node", "id": 6944111508, "lat": 37.6707157, "lon": 28.3179697, "tags": {"addr:city": "Ayd\u0131n", "addr:district": "Bozdo\u011fan", "addr:neighbourhood": "Yeni Mahalle", "addr:postcode": "09760", "addr:street": "25. Sokak", "amenity": "cafe", "name": "\u015eelalezar Aile \u00c7ay Bah\u00e7esi"}}, {"type": "node", "id": 6955977724, "lat": 37.6723382, "lon": 28.3118105, "tags": {"addr:city": "Ayd\u0131n", "addr:district": "Bozdo\u011fan", "addr:housenumber": "7", "addr:neighbourhood": "\u00c7ar\u015f\u0131", "addr:postcode": "09760", "addr:street": "H\u00fck\u00fcmet Caddesi", "amenity": "restaurant", "cuisine": "turkish;pide", "name": "Mikado Pide"}}, {"type": "node", "id": 7899250226, "lat": 37.6736109, "lon": 28.3125115, "tags": {"addr:city": "Ayd\u0131n", "addr:district": "Bozdo\u011fan", "addr:housenumber": "53/B", "addr:neighbourhood": "\u00c7ar\u015f\u0131", "addr:postcode": "09760", "addr:street": "Okullar Caddesi", "amenity": "restaurant", "cuisine": "turkish;pide", "name": "Burcu Pide"}}, {"type": "node", "id": 9299594580, "lat": 37.7098936, "lon": 28.332691, "tags": {"alcohol": "raki, beer", "amenity": "restaurant", "cuisine": "turkish", "name": "Zeytin"}}, {"type": "node", "id": 9825493317, "lat": 37.713117, "lon": 28.732113, "tags": {"amenity": "restaurant", "name": "Afrodisias Restaurant"}}, {"type": "node", "id": 9947518171, "lat": 37.7300752, "lon": 28.6435272, "tags": {"amenity": "restaurant", "cuisine": "turkish", "name": "Do\u011fa Restaurant", "phone": "02564413600"}}, {"type": "node", "id": 10029740764, "lat": 37.9101573, "lon": 28.3250255, "tags": {"amenity": "cafe", "check_date": "2022-09-16"}}, {"type": "node", "id": 10029740768, "lat": 37.9078585, "lon": 28.3103245, "tags": {"amenity": "cafe", "check_date": "2022-09-16"}}, {"type": "node", "id": 11428929635, "lat": 37.9038917, "lon": 28.3003581, "tags": {"addr:city": "Ayd\u0131n", "addr:district": "Nazilli", "addr:housenumber": "135", "addr:neighbourhood": "Yeni Sanayi Mahallesi", "addr:postcode": "09800", "addr:street": "Devlet Kara Yolu Caddesi", "amenity": "cafe", "cuisine": "coffee_shop;pizza;chicken;ice_cream;pasta;italian;chocolate;salad;cake", "internet_access": "wlan", "internet_access:fee": "no", "name": "Coffee 333", "opening_hours": "Mo-Su 09:00-24:00", "phone": "+905393163331", "website": "https://coffee333.com.tr/"}}, {"type": "node", "id": 11509669095, "lat": 37.672168, "lon": 28.3110985, "tags": {"amenity": "restaurant", "cuisine": "turkish", "name": "Duru Pide Pizza"}}, {"type": "node", "id": 11509679292, "lat": 37.6729978, "lon": 28.3096013, "tags": {"addr:city": "Ayd\u0131n", "addr:district": "Bozdo\u011fan", "addr:neighbourhood": "\u00c7ar\u015f\u0131", "addr:postcode": "09760", "addr:street": "Okullar Caddesi", "amenity": "restaurant", "cuisine": "turkish;pide", "name": "G\u00fcl Pide"}}, {"type": "node", "id": 11509679293, "lat": 37.6731157, "lon": 28.3132894, "tags": {"addr:city": "Ayd\u0131n", "addr:district": "Bozdo\u011fan", "addr:housenumber": "4/B", "addr:neighbourhood": "\u00c7ar\u015f\u0131", "addr:postcode": "09760", "addr:street": "Atat\u00fcrk Caddesi", "amenity": "restaurant", "cuisine": "turkish;pide;pizza;lahmacun", "name": "Sevim Lahmacun Pizza Pide D\u00fcnyas\u0131"}}, {"type": "way", "id": 741784881, "nodes": [6944111504, 6944111505, 6944111506, 6944111507, 6944111504], "tags": {"amenity": "cafe", "building": "yes"}}]}