{"version": 0.6, "generator": "Overpass API 0.7.62.7 375dc00a", "osm3s": {"timestamp_osm_base": "2025-06-14T13:51:30Z", "copyright": "The data included in this document is from www.openstreetmap.org. The data is made available under ODbL."}, "elements": [{"type": "node", "id": 4362780001, "lat": 32.4516193, "lon": 13.1589897, "tags": {"amenity": "cafe", "name": "\u0645\u0642\u0647\u0649 \u0627\u0644\u0645\u0639\u0644\u0645", "name:ar": "\u0645\u0642\u0647\u0649 \u0627\u0644\u0645\u0639\u0644\u0645", "name:en": "Cafe"}}, {"type": "node", "id": 4464769294, "lat": 32.5806641, "lon": 13.1751765, "tags": {"addr:street": "\u0642\u0635\u0631 \u0628\u0646 \u063a\u0634\u064a\u0631", "amenity": "cafe", "name": "\u0639\u0628\u062f\u0648 \u0627\u0644\u0625\u0641\u0637\u0627\u0631 \u0635\u0628\u0627\u062d\u064a", "name:ar": "\u0639\u0628\u062f\u0648 \u0627\u0644\u0625\u0641\u0637\u0627\u0631 \u0635\u0628\u0627\u062d\u064a", "name:en": "Abdo breakfast", "opening_hours": "Sa-Th 10:00-22:00"}}, {"type": "node", "id": 4517172794, "lat": 32.5898218, "lon": 13.1753607, "tags": {"amenity": "restaurant", "name": "\u0645\u0637\u0639\u0645 \u0633\u0648\u0642 \u0627\u0644\u0633\u0628\u062a", "name:ar": "\u0645\u0637\u0639\u0645 \u0633\u0648\u0642 \u0627\u0644\u0633\u0628\u062a", "name:en": "Suq Assbt Restaurant"}}, {"type": "node", "id": 4517172801, "lat": 32.5268583, "lon": 13.2179069, "tags": {"amenity": "cafe", "name": "\u0645\u0642\u0647\u0649 \u0623\u0628\u0648\u0639\u064a\u0646", "name:ar": "\u0645\u0642\u0647\u0649 \u0623\u0628\u0648\u0639\u064a\u0646", "name:en": "Cafe"}}, {"type": "node", "id": 4517192091, "lat": 32.6027612, "lon": 13.1732381, "tags": {"amenity": "cafe", "name": "\u0645\u0642\u0647\u0649", "name:ar": "\u0645\u0642\u0647\u0649", "name:en": "Cafe"}}, {"type": "node", "id": 4517192290, "lat": 32.3879561, "lon": 13.2315762, "tags": {"amenity": "cafe", "name": "\u0645\u0623\u0643\u0648\u0644\u0627\u062a \u0627\u0644\u0631\u0643\u0646 \u0627\u0644\u0634\u0627\u0645\u064a", "name:ar": "\u0645\u0623\u0643\u0648\u0644\u0627\u062a \u0627\u0644\u0631\u0643\u0646 \u0627\u0644\u0634\u0627\u0645\u064a", "name:en": "Fast Food"}}, {"type": "node", "id": 4651494191, "lat": 32.6634569, "lon": 13.2274688, "tags": {"addr:street": "\u062c\u0632\u064a\u0631\u0629 \u0645\u0628\u0631\u0648\u0643 \u0647\u0627\u0645\u0627\u0646", "amenity": "cafe", "name": "\u0645\u0642\u0647\u0649", "name:ar": "\u0645\u0642\u0647\u0649", "name:en": "Cafe"}}, {"type": "node", "id": 4651494192, "lat": 32.6626335, "lon": 13.2266338, "tags": {"addr:street": "\u062c\u0632\u064a\u0631\u0629 \u0645\u0628\u0631\u0648\u0643 \u0647\u0627\u0645\u0627\u0646", "amenity": "cafe", "name": "\u0645\u0642\u0647\u0649", "name:ar": "\u0645\u0642\u0647\u0649", "name:en": "Cafe"}}, {"type": "node", "id": 4651702089, "lat": 32.6690596, "lon": 13.2293504, "tags": {"addr:street": "\u0637\u0631\u064a\u0642 \u0628\u0626\u0631 \u0627\u0644\u062a\u0648\u062a\u0629", "amenity": "cafe", "name": "\u0645\u0642\u0647\u0649", "name:ar": "\u0645\u0642\u0647\u0649", "name:en": "Cafe"}}, {"type": "node", "id": 4876562223, "lat": 32.3759985, "lon": 13.5541267, "tags": {"addr:street": "\u0628\u0646\u064a \u0648\u0644\u064a\u062f \u0637\u0631\u0627\u0628\u0644\u0633", "amenity": "cafe", "internet_access": "wlan", "name": "\u0627\u0644\u062f\u0648\u0641\u0627\u0646\u064a \u0644\u0644\u0648\u062c\u0628\u0627\u062a \u0627\u0644\u062e\u0641\u064a\u0641\u0629", "name:ar": "\u0627\u0644\u062f\u0648\u0641\u0627\u0646\u064a \u0644\u0644\u0648\u062c\u0628\u0627\u062a \u0627\u0644\u062e\u0641\u064a\u0641\u0629", "name:en": "Fast food"}}, {"type": "node", "id": 5072586022, "lat": 32.4918626, "lon": 13.1389209, "tags": {"addr:street": "\u0627\u0644\u0633\u0628\u064a\u0639\u0629", "amenity": "restaurant", "name": "\u0637\u064a\u0628\u0629", "name:ar": "\u0637\u064a\u0628\u0629", "name:en": "Snack"}}, {"type": "node", "id": 6367454285, "lat": 32.435562, "lon": 13.3802346, "tags": {"amenity": "cafe", "name": "Route 99 Caf\u00e8"}}, {"type": "node", "id": 6784906785, "lat": 32.6447961, "lon": 13.1701746, "tags": {"amenity": "cafe", "name": "\u062a\u0627\u064a\u0645 \u0643\u0627\u0641\u064a", "name:ar": "\u062a\u0627\u064a\u0645 \u0643\u0627\u0641\u064a", "name:en": "Time Cafe"}}, {"type": "node", "id": 6958778814, "lat": 32.6191918, "lon": 13.2237623, "tags": {"addr:street": "\u0627\u0644\u0645\u0631\u0627\u0632\u064a\u0642", "amenity": "cafe", "cuisine": "pizza;chicken;sandwich;breakfast;friture;coffee_shop", "internet_access": "wlan", "name": "\u0647\u0627\u0646\u0648\u0641\u0631", "name:ar": "\u0647\u0627\u0646\u0648\u0641\u0631", "name:en": "Hanover", "opening_hours": "Mo-Su 07:30-23:00", "operator": "\u0648\u062c\u0628\u0627\u062a \u0633\u0631\u064a\u0639\u0647"}}, {"type": "node", "id": 7715635601, "lat": 32.5569505, "lon": 13.1745702, "tags": {"amenity": "restaurant"}}, {"type": "node", "id": 7715635605, "lat": 32.5355657, "lon": 13.2003753, "tags": {"amenity": "cafe"}}, {"type": "node", "id": 7733458387, "lat": 32.6594307, "lon": 13.2908029, "tags": {"amenity": "cafe", "internet_access": "wlan", "name": "\u0645\u0632\u0627\u062c", "name:ar": "\u0645\u0632\u0627\u062c"}}, {"type": "node", "id": 7866116686, "lat": 32.442335, "lon": 13.3686906, "tags": {"amenity": "cafe"}}, {"type": "node", "id": 7873504886, "lat": 32.442206, "lon": 13.3691144, "tags": {"amenity": "cafe", "name": "\u0643\u0627\u0641\u064a \u0627\u0644\u0627\u062a\u062d\u0627\u062f", "name:ar": "\u0643\u0627\u0641\u064a \u0627\u0644\u0627\u062a\u062d\u0627\u062f", "name:en": "Coffee"}}, {"type": "node", "id": 7891173962, "lat": 32.5590793, "lon": 13.2510284, "tags": {"amenity": "cafe"}}, {"type": "node", "id": 8019133786, "lat": 32.5452899, "lon": 13.1761322, "tags": {"amenity": "cafe", "name": "\u0645\u0642\u0647\u064a \u0628\u0631\u0628\u0627\u0634", "name:ar": "\u0645\u0642\u0647\u064a \u0628\u0631\u0628\u0627\u0634", "name:en": "Cafe"}}, {"type": "node", "id": 8036354785, "lat": 32.6445033, "lon": 13.0464172, "tags": {"amenity": "cafe", "name": "\u0643\u0627\u0641\u064a \u0647\u0627\u0631\u0648\u0646", "name:ar": "\u0643\u0627\u0641\u064a \u0647\u0627\u0631\u0648\u0646", "name:en": "Haroon Cafe"}}, {"type": "node", "id": 8779105493, "lat": 32.3330938, "lon": 13.482527, "tags": {"amenity": "cafe"}}, {"type": "node", "id": 8779105923, "lat": 32.3674682, "lon": 13.5110443, "tags": {"amenity": "cafe"}}, {"type": "node", "id": 8779105925, "lat": 32.3831709, "lon": 13.5258933, "tags": {"amenity": "cafe"}}, {"type": "node", "id": 9927677601, "lat": 32.4377956, "lon": 13.37877, "tags": {"amenity": "cafe"}}, {"type": "node", "id": 10706438640, "lat": 32.6508056, "lon": 13.2949204, "tags": {"amenity": "cafe", "cuisine": "coffee_shop"}}, {"type": "node", "id": 11047370397, "lat": 32.4380589, "lon": 13.2338164, "tags": {"amenity": "cafe"}}]}