{"version": 0.6, "generator": "Overpass API 0.7.62.7 375dc00a", "osm3s": {"timestamp_osm_base": "2025-06-14T15:17:02Z", "copyright": "The data included in this document is from www.openstreetmap.org. The data is made available under ODbL."}, "elements": [{"type": "node", "id": 683470117, "lat": 33.6575854, "lon": 35.7466145, "tags": {"amenity": "restaurant", "name": "\u062f\u064a\u0648\u0646\u064a\u0632\u0648\u0633", "name:ar": "\u062f\u064a\u0648\u0646\u064a\u0632\u0648\u0633", "name:de": "Dionysos", "name:en": "Dionysos", "name:fr": "Dionysos"}}, {"type": "node", "id": 1139893421, "lat": 33.5658215, "lon": 35.3727308}, {"type": "node", "id": 1139893990, "lat": 33.5658298, "lon": 35.3728144}, {"type": "node", "id": 1139894219, "lat": 33.565795, "lon": 35.3724775}, {"type": "node", "id": 1139894334, "lat": 33.5660097, "lon": 35.3727877}, {"type": "node", "id": 1888098331, "lat": 33.5659749, "lon": 35.3724507}, {"type": "node", "id": 1888098335, "lat": 33.5654713, "lon": 35.3709157, "tags": {"addr:city": "\u0635\u064a\u062f\u0627", "amenity": "cafe", "name": "\u0623\u0628\u0648 \u0639\u0628\u062f \u0642\u0647\u0648\u0629", "name:ar": "\u0623\u0628\u0648 \u0639\u0628\u062f \u0642\u0647\u0648\u0629", "name:fr": "Abou Abd Qahwa"}}, {"type": "node", "id": 2035831681, "lat": 33.6425106, "lon": 35.4363231, "tags": {"addr:city": "\u0628\u0631\u062c\u0627", "amenity": "restaurant", "name": "\u0627\u0644\u0639\u0642\u0627\u062f", "name:ar": "\u0627\u0644\u0639\u0642\u0627\u062f", "name:fr": "Al-Aqq\u00e2d"}}, {"type": "node", "id": 2218357491, "lat": 33.7095239, "lon": 35.6761411, "tags": {"amenity": "restaurant", "name": "\u0643\u0627\u0633\u0643\u0627\u062f \u0628\u0627\u0631\u0648\u0643", "name:en": "Cascade Baroque", "name:fr": "Cascade Baroque"}}, {"type": "node", "id": 2218358979, "lat": 33.7120862, "lon": 35.6919691, "tags": {"amenity": "restaurant", "name": "\u0631\u0623\u0633 \u0627\u0644\u0646\u0628\u0639", "name:en": "Ras Al Nabaa"}}, {"type": "node", "id": 2221788551, "lat": 33.545007, "lon": 35.5835884, "tags": {"amenity": "restaurant", "name": "\u0645\u0637\u0639\u0645 \u0628\u062d\u064a\u0631\u0629 \u062c\u0632\u064a\u0646", "name:de": "Restaurant Bouheiret Jezzine", "name:en": "Restaurant Bouheiret Jezzine", "name:ru": "Restaurant Bouheiret Jezzine"}}, {"type": "node", "id": 2407703567, "lat": 33.4431586, "lon": 35.5747659, "tags": {"amenity": "restaurant"}}, {"type": "node", "id": 2408910128, "lat": 33.7426169, "lon": 35.4549069, "tags": {"amenity": "cafe", "cuisine": "coffee_shop", "language:ar": "main"}}, {"type": "node", "id": 2440600310, "lat": 33.8332226, "lon": 35.5108639, "tags": {"amenity": "restaurant", "name": "\u0644\u0648\u0631\u062f \u0628\u0631\u063a\u0631", "name:ar": "\u0644\u0648\u0631\u062f \u0628\u0631\u063a\u0631", "name:en": "Lord Burger"}}, {"type": "node", "id": 2440986031, "lat": 33.8334944, "lon": 35.5082234, "tags": {"amenity": "restaurant", "name": "\u0627\u0644\u0647\u0644\u0627\u0644", "name:ar": "\u0627\u0644\u0647\u0644\u0627\u0644"}}, {"type": "node", "id": 3064717561, "lat": 33.6525097, "lon": 35.5337695, "tags": {"amenity": "restaurant", "contact:mobile": "+961 3 745 321", "contact:phone": "+961 5 301 149", "name": "\u0645\u0637\u0639\u0645 \u0627\u0644\u0634\u0644\u0627\u0644\u0627\u062a \u0627\u0644\u0632\u0631\u0642\u0627", "name:en": "baaqleen challalat el zarka"}}, {"type": "node", "id": 3064727158, "lat": 33.6522512, "lon": 35.5323908, "tags": {"amenity": "restaurant", "name": "\u0646\u0647\u0631 \u0627\u0644\u062d\u0645\u0627\u0645 \u0628\u0639\u0642\u0644\u064a\u0646", "name:en": "Baaqleen river el hamem"}}, {"type": "node", "id": 3067880212, "lat": 33.8167868, "lon": 35.5549738, "tags": {"amenity": "restaurant", "name": "pine hill", "name:en": "pine hill"}}, {"type": "node", "id": 3073304340, "lat": 33.7430399, "lon": 35.6301069}, {"type": "node", "id": 3073304341, "lat": 33.7429027, "lon": 35.6302512}, {"type": "node", "id": 3073304342, "lat": 33.7426828, "lon": 35.6299017}, {"type": "node", "id": 3073304343, "lat": 33.742769, "lon": 35.6298111}, {"type": "node", "id": 3077164618, "lat": 33.8041966, "lon": 35.5397736}, {"type": "node", "id": 3077164619, "lat": 33.8041172, "lon": 35.5398322}, {"type": "node", "id": 3077164620, "lat": 33.8041198, "lon": 35.539903}, {"type": "node", "id": 3077164621, "lat": 33.8040174, "lon": 35.5399061}, {"type": "node", "id": 3077164622, "lat": 33.8039457, "lon": 35.5397736}, {"type": "node", "id": 3077164623, "lat": 33.8038433, "lon": 35.5396719}, {"type": "node", "id": 3077164624, "lat": 33.8039201, "lon": 35.5395148}, {"type": "node", "id": 3077164625, "lat": 33.8040455, "lon": 35.5396103}, {"type": "node", "id": 3077164626, "lat": 33.8041198, "lon": 35.5396504}, {"type": "node", "id": 3096012093, "lat": 33.8392482, "lon": 35.5308402, "tags": {"amenity": "restaurant", "name": "\u0645\u0646\u0642\u0648\u0634", "name:ar": "\u0645\u0646\u0642\u0648\u0634", "name:en": "mankouche"}}, {"type": "node", "id": 3110861735, "lat": 33.8101939, "lon": 35.5334899, "tags": {"amenity": "restaurant", "name": "\u0627\u0644\u0646\u0628\u0639", "name:ar": "\u0627\u0644\u0646\u0628\u0639", "name:en": "Nabeh", "name:fr": "Nabeh"}}, {"type": "node", "id": 3114238754, "lat": 33.7250069, "lon": 35.5961522, "tags": {"amenity": "restaurant"}}, {"type": "node", "id": 3114238755, "lat": 33.7229599, "lon": 35.594636}, {"type": "node", "id": 3114238757, "lat": 33.7228445, "lon": 35.5947396}, {"type": "node", "id": 3114238759, "lat": 33.7227313, "lon": 35.5946627}, {"type": "node", "id": 3114238762, "lat": 33.7228712, "lon": 35.5945212}, {"type": "node", "id": 3114238766, "lat": 33.7237796, "lon": 35.5939874, "tags": {"amenity": "restaurant", "name": "Jannat Al Nahryn"}}, {"type": "node", "id": 3142022079, "lat": 33.8100501, "lon": 35.5489754}, {"type": "node", "id": 3142022080, "lat": 33.8099909, "lon": 35.5491218}, {"type": "node", "id": 3142022081, "lat": 33.8098746, "lon": 35.5490258}, {"type": "node", "id": 3142022082, "lat": 33.8099503, "lon": 35.548893}, {"type": "node", "id": 3170689905, "lat": 33.7959845, "lon": 35.569502, "tags": {"amenity": "restaurant", "name": "al innab", "name:en": "al innab"}}, {"type": "node", "id": 3170700051, "lat": 33.8003982, "lon": 35.5558735}, {"type": "node", "id": 3170700052, "lat": 33.8002429, "lon": 35.5559705}, {"type": "node", "id": 3170700053, "lat": 33.8003664, "lon": 35.5562569}, {"type": "node", "id": 3170700054, "lat": 33.8004974, "lon": 35.5561034}, {"type": "node", "id": 3180673356, "lat": 33.5497271, "lon": 35.5660671, "tags": {"amenity": "restaurant", "name": "Jannat el Sanawbar", "name:en": "Jannat el Sanawbar", "name:fr": "Jannat el Sanawbar"}}, {"type": "node", "id": 3200085696, "lat": 33.8069037, "lon": 35.564961}, {"type": "node", "id": 3200085697, "lat": 33.8067853, "lon": 35.5648177}, {"type": "node", "id": 3200085698, "lat": 33.8066771, "lon": 35.5649473}, {"type": "node", "id": 3200085702, "lat": 33.8067955, "lon": 35.5650905}, {"type": "node", "id": 3353548140, "lat": 33.8261609, "lon": 35.5968955, "tags": {"amenity": "restaurant", "name": "el karmeh", "name:en": "el karmeh"}}, {"type": "node", "id": 3507908176, "lat": 33.5625096, "lon": 35.3684644, "tags": {"addr:city": "\u0635\u064a\u062f\u0627", "amenity": "restaurant", "capacity": "15", "cuisine": "regional;traditional;lebanese;southern_lebanese;levantine", "diet:vegan": "yes", "name": "\u0645\u0637\u0639\u0645 \u0627\u0644\u0634\u064a\u062e", "name:ar": "\u0645\u0637\u0639\u0645 \u0627\u0644\u0634\u064a\u062e", "name:en": "The Sheikh Restaurant", "name:fr": "Restaurant Le Cheikh", "smoking": "outside", "takeaway": "yes"}}, {"type": "node", "id": 3657930407, "lat": 33.8067919, "lon": 35.5649839, "tags": {"amenity": "restaurant", "name": "\u0625\u0633\u062a\u0631\u0627\u062d\u0629 \u0627\u0644\u0642\u0644\u0639\u0629 \u0628\u062f\u0627\u062f\u0648\u0646", "name:ar": "\u0625\u0633\u062a\u0631\u0627\u062d\u0629 \u0627\u0644\u0642\u0644\u0639\u0629 \u0628\u062f\u0627\u062f\u0648\u0646", "name:en": "Al Kalaa bdadoun", "name:fr": "Repos Al-Qalaat Bd\u00e9doun"}}, {"type": "node", "id": 3711830298, "lat": 33.825843, "lon": 35.492886, "tags": {"addr:city": "\u0628\u064a\u0631\u0648\u062a", "addr:country": "LB", "amenity": "cafe", "level": "0", "name": "\u0643\u0627\u0641\u064a\u0645\u0627\u062a\u0643", "name:ar": "\u0643\u0627\u0641\u064a\u0645\u0627\u062a\u0643", "name:de": "Cafematik", "name:en": "Cafematik"}}, {"type": "node", "id": 3711932205, "lat": 33.8253439, "lon": 35.4936454, "tags": {"addr:city": "\u0628\u064a\u0631\u0648\u062a", "amenity": "cafe", "level": "0", "name": "\u0623\u0643\u0644\u064a", "name:ar": "\u0623\u0643\u0644\u064a", "name:en": "akl\u00e9"}}, {"type": "node", "id": 4328807990, "lat": 33.4053328, "lon": 35.6645779, "tags": {"amenity": "restaurant", "name": "Fawar Al Hasbani", "name:en": "Fawar Al Hasbani", "name:fr": "Fawar Al Hasbani"}}, {"type": "node", "id": 4369932489, "lat": 33.5665744, "lon": 35.391, "tags": {"amenity": "cafe", "name": "Festival Cafe", "name:en": "Festival Cafe"}}, {"type": "node", "id": 4385822789, "lat": 33.8165845, "lon": 35.5324613, "tags": {"addr:housenumber": "41", "addr:street": "Kferchima Main", "amenity": "restaurant", "contact:phone": "+9615433783", "cuisine": "burger;american;grill;crepe;chicken", "name": "\u0631\u0648\u062a \u0641\u0648\u0631\u062a\u064a \u0648\u0627\u0646", "name:ar": "\u0631\u0648\u062a \u0641\u0648\u0631\u062a\u064a \u0648\u0627\u0646", "name:en": "Route 41", "opening_hours": "Mo-Su 10:00-22:00"}}, {"type": "node", "id": 4394533700, "lat": 33.6427245, "lon": 35.5331298, "tags": {"amenity": "restaurant", "name": "Queen Land"}}, {"type": "node", "id": 4425594908, "lat": 33.6537895, "lon": 35.625, "tags": {"amenity": "restaurant", "name": "\u0634\u0644\u0627\u0644\u0627\u062a \u0646\u0628\u0639 \u0645\u0631\u0634\u062f"}}, {"type": "node", "id": 4587767195, "lat": 33.5493292, "lon": 35.4050118, "tags": {"amenity": "cafe", "name": "\u0639\u064a\u0646 \u0627\u0644\u062f\u0644\u0628", "name:ar": "\u0639\u064a\u0646 \u0627\u0644\u062f\u0644\u0628"}}, {"type": "node", "id": 4589295511, "lat": 33.7713766, "lon": 35.4685593, "tags": {"amenity": "restaurant", "name": "\u0643\u0628\u0633\u0647", "name:ar": "\u0643\u0628\u0633\u0647", "name:en": "Kabsseh", "name:fr": "Kabsseh"}}, {"type": "node", "id": 4607659959, "lat": 33.8206864, "lon": 35.5265332, "tags": {"amenity": "restaurant", "brand": "Pizza Hut", "brand:wikidata": "Q191615", "cuisine": "pizza", "name": "Pizza Hut", "name:en": "Pizza hut"}}, {"type": "node", "id": 4724920873, "lat": 33.8255447, "lon": 35.493206, "tags": {"addr:city": "\u0628\u064a\u0631\u0648\u062a", "amenity": "restaurant", "level": "1", "name": "\u0628\u0627\u0644\u0643\u0648\u0645\u064a", "name:ar": "\u0628\u0627\u0644\u0643\u0648\u0645\u064a", "name:de": "Balkoumi", "name:en": "Balkoumi", "name:fr": "Balkoumi"}}, {"type": "node", "id": 4909365364, "lat": 33.6196264, "lon": 35.4000977, "tags": {"amenity": "restaurant", "name": "Sindibad", "name:en": "Sindibad", "name:fr": "Sindibad"}}, {"type": "node", "id": 4947061721, "lat": 33.7119472, "lon": 35.6929282, "tags": {"amenity": "cafe", "name": "Dweik", "name:en": "Dweik"}}, {"type": "node", "id": 4971126121, "lat": 33.5759304, "lon": 35.3845807, "tags": {"addr:street": "\u0623\u062a\u0633\u062a\u0631\u0627\u062f \u0627\u0644\u0628\u062d\u0631", "amenity": "restaurant", "name": "\u0645\u0637\u0639\u0645 \u0632\u0647\u0631\u0629 \u0627\u0644\u0644\u064a\u0645\u0648\u0646", "name:ar": "\u0623\u062a\u0633\u062a\u0631\u0627\u062f \u0627\u0644\u0628\u062d\u0631", "name:en": "Zarhet Laymoun Restaurant", "name:fr": "Zarhet Laymoun Restaurant", "opening_hours": "24/7"}}, {"type": "node", "id": 5009777624, "lat": 33.4207553, "lon": 35.3363155, "tags": {"amenity": "restaurant", "name": "\u0635\u062d\u0627\u0631\u0649", "name:ar": "\u0635\u062d\u0627\u0631\u0649", "name:de": "Sahara", "name:en": "Sahara", "name:fr": "Sahara"}}, {"type": "node", "id": 5013791221, "lat": 33.4368117, "lon": 35.4265793, "tags": {"amenity": "restaurant", "name": "\u0645\u0637\u0639\u0645 \u0634\u0645\u0633 \u0627\u0644\u0623\u0635\u064a\u0644", "name:ar": "\u0645\u0637\u0639\u0645 \u0634\u0645\u0633 \u0627\u0644\u0623\u0635\u064a\u0644", "name:en": "shams al asil"}}, {"type": "node", "id": 5062120576, "lat": 33.780997, "lon": 35.4744606}, {"type": "node", "id": 5062120577, "lat": 33.7809101, "lon": 35.4745652}, {"type": "node", "id": 5062120578, "lat": 33.780861, "lon": 35.4745464}, {"type": "node", "id": 5062120579, "lat": 33.7809123, "lon": 35.4744231}, {"type": "node", "id": 5092543358, "lat": 33.8107754, "lon": 35.6055806, "tags": {"addr:city": "\u0639\u0627\u0644\u064a\u0647", "amenity": "restaurant", "name": "Papaya", "name:en": "Papaya", "name:fr": "Papaya"}}, {"type": "node", "id": 5221355721, "lat": 33.7775676, "lon": 35.4902975, "tags": {"amenity": "cafe", "name": "\u062f\u064a\u0648\u0627\u0646 \u0627\u0644\u062f\u0648\u062d\u0629", "name:en": "Diwan Al Dawha"}}, {"type": "node", "id": 5306267534, "lat": 33.7126461, "lon": 35.7608294, "tags": {"amenity": "restaurant", "contact:facebook": "https://m.facebook.com/pages/Tawlet-Ammiq/260736767373827", "name": "Tawlet Ammiq", "name:en": "Tawlet Ammiq", "name:fr": "Tawlet Ammiq"}}, {"type": "node", "id": 5334554821, "lat": 33.8281027, "lon": 35.5264208, "tags": {"amenity": "restaurant", "name": "\u0645\u0637\u0639\u0645 \u0627\u0644\u0645\u062d\u0637\u0629", "name:ar": "\u0645\u0637\u0639\u0645 \u0627\u0644\u0645\u062d\u0637\u0629"}}, {"type": "node", "id": 5385162224, "lat": 33.565555, "lon": 35.3743813, "tags": {"amenity": "cafe", "cuisine": "coffee_shop", "internet_access": "wlan"}}, {"type": "node", "id": 5385166721, "lat": 33.5688223, "lon": 35.3766762, "tags": {"addr:city": "\u0635\u064a\u062f\u0627", "addr:country": "LB", "amenity": "restaurant", "cuisine": "kebab;coffee_shop;ice_cream", "name": "\u0631\u0633\u062a\u0648 \u0643\u0627\u0641\u064a\u0647 \u0628\u0644\u0645\u0627", "name:ar": "\u0631\u0633\u062a\u0648 \u0643\u0627\u0641\u064a\u0647 \u0628\u0644\u0645\u0627", "name:en": "Resto Caf\u00e9 Palma", "name:fr": "Resto Caf\u00e9 Palma"}}, {"type": "node", "id": 5451463870, "lat": 33.8369917, "lon": 35.4955162, "tags": {"amenity": "cafe", "name": "\u0645\u0642\u0647\u0649 \u0627\u0644\u062f\u0648\u062d\u0629", "name:ar": "\u0645\u0642\u0647\u0649 \u0627\u0644\u062f\u0648\u062d\u0629", "name:en": "Al Doha Cafe"}}, {"type": "node", "id": 5576308261, "lat": 33.5633643, "lon": 35.3700743, "tags": {"amenity": "restaurant", "cuisine": "lebanese"}}, {"type": "node", "id": 5577749590, "lat": 33.5636913, "lon": 35.3742778, "tags": {"amenity": "cafe", "name": "Caf\u00e9 Ezz", "name:fr": "Caf\u00e9 Ezz"}}, {"type": "node", "id": 5641307022, "lat": 33.7877959, "lon": 35.4887198, "tags": {"amenity": "restaurant", "name": "\u0645\u0637\u0639\u0645 \u0627\u0644\u0635\u0648\u0635\u0629", "name:ar": "\u0645\u0637\u0639\u0645 \u0627\u0644\u0635\u0648\u0635\u0629", "name:en": "Al Sousa  Restaurant", "name:fr": "Restaurant Al Sousa"}}, {"type": "node", "id": 5724775711, "lat": 33.6052107, "lon": 35.6180477, "tags": {"amenity": "cafe", "name": "Cafe"}}, {"type": "node", "id": 5810283358, "lat": 33.8097625, "lon": 35.5676877, "tags": {"amenity": "restaurant", "name": "\u0645\u0637\u0628\u062e \u0643\u0644\u0648\u062f\u064a\u0627", "name:ar": "\u0645\u0637\u0628\u062e \u0643\u0644\u0648\u062f\u064a\u0627", "name:fr": "La Cuisine de Claudia"}}, {"type": "node", "id": 5933654257, "lat": 33.8163621, "lon": 35.5236015, "tags": {"amenity": "cafe", "name": "\u0639 \u0637\u0631\u064a\u0642\u0643 \u0641\u0631\u0646 \u0648\u0643\u0627\u0641\u064a\u0647"}}, {"type": "node", "id": 5933673190, "lat": 33.8154664, "lon": 35.5209217, "tags": {"amenity": "cafe", "name": "\u0642\u0647\u0648\u0629 \u0627\u0643\u0633\u0628\u0631\u0633", "name:fr": "Caf\u00e9 express"}}, {"type": "node", "id": 5933722144, "lat": 33.8168885, "lon": 35.5228631, "tags": {"amenity": "cafe", "cuisine": "espresso", "name": "\u0627\u0643\u0633\u0628\u0631\u064a\u0633 \u0662\u0664 \u0639\u0644\u0649 \u0662\u0664", "name:fr": "Express 24h/24"}}, {"type": "node", "id": 5953982075, "lat": 33.8223218, "lon": 35.5325058, "tags": {"amenity": "cafe", "name": "\u0643\u0627\u0641\u064a\u0647 \u0637\u064a\u0651\u0628"}}, {"type": "node", "id": 5956504106, "lat": 33.821701, "lon": 35.5297617, "tags": {"amenity": "cafe"}}, {"type": "node", "id": 5974414885, "lat": 33.6225538, "lon": 35.7024553, "tags": {"amenity": "cafe", "name": "P\u00e2tisserie Ghassan", "name:en": "P\u00e2tisserie Ghassan", "name:fr": "P\u00e2tisserie Ghassan"}}, {"type": "node", "id": 5983863585, "lat": 33.6977942, "lon": 35.4754749, "tags": {"amenity": "restaurant", "name": "\u0627\u0633\u062a\u0631\u0627\u062d\u0629 \u0645\u0644\u062a\u0642\u0649 \u0627\u0644\u0646\u0647\u0631\u064a\u0646"}}, {"type": "node", "id": 6041879902, "lat": 33.5575647, "lon": 35.5599451}, {"type": "node", "id": 6041879903, "lat": 33.5573466, "lon": 35.5599602}, {"type": "node", "id": 6041879904, "lat": 33.5573355, "lon": 35.5597004}, {"type": "node", "id": 6041879905, "lat": 33.5574114, "lon": 35.5596947}, {"type": "node", "id": 6041879906, "lat": 33.5575552, "lon": 35.5598275}, {"type": "node", "id": 6158536988, "lat": 33.4160322, "lon": 35.4710992, "tags": {"amenity": "restaurant", "name": "\u0645\u0646\u062f\u064a \u062d\u0636\u0631\u0645\u0648\u062a"}}, {"type": "node", "id": 6313327886, "lat": 33.8378811, "lon": 35.5033469, "tags": {"amenity": "cafe", "name:en": "sabe3 zbon zet"}}, {"type": "node", "id": 6323716390, "lat": 33.7933054, "lon": 35.5071827, "tags": {"amenity": "cafe", "name": "Mahal Market", "name:en": "Mahal Market"}}, {"type": "node", "id": 6357545289, "lat": 33.6953909, "lon": 35.5534844, "tags": {"amenity": "restaurant", "cuisine": "lebanese", "internet_access": "wlan", "name": "Amare"}}, {"type": "node", "id": 6406115786, "lat": 33.5655484, "lon": 35.3732356, "tags": {"amenity": "restaurant", "internet_access": "wlan", "name": "Sidon Resto Caf\u00e9", "name:fr": "Sidon Resto Caf\u00e9"}}, {"type": "node", "id": 6418110085, "lat": 33.6836753, "lon": 35.4733803, "tags": {"amenity": "restaurant", "contact:facebook": "https://www.facebook.com/aboukarimsnack/", "contact:mobile": "+961 78 940 787", "operator": "Selim Mkniyh"}}, {"type": "node", "id": 6432483685, "lat": 33.6834842, "lon": 35.4730145, "tags": {"addr:street": "Debbiyeh Highway", "amenity": "cafe", "contact:mobile": "+96181979998", "cuisine": "tea;cake;lebanese;coffee_shop;arab", "internet_access": "wlan", "name": "\u0642\u0647\u0648\u0629 \u0645\u0633\u0631\u0629", "name:en": "Mssera Caffe", "opening_hours": "24/7"}}, {"type": "node", "id": 6535521280, "lat": 33.774746, "lon": 35.4706259, "tags": {"amenity": "restaurant", "brand": "Pizza Hut", "brand:ar": "\u0628\u064a\u062a\u0632\u0627 \u0647\u062a", "brand:de": "Pizza Hut", "brand:fr": "Pizza Hut", "brand:wikidata": "Q191615", "cuisine": "pizza", "name": "Pizza Hut", "name:ar": "\u0628\u064a\u062a\u0632\u0627 \u0647\u062a", "name:en": "Pizza Hut", "name:fr": "Pizza Hut"}}, {"type": "node", "id": 6565982355, "lat": 33.8249659, "lon": 35.4930065, "tags": {"amenity": "restaurant", "name": "Charles Azar"}}, {"type": "node", "id": 6697476016, "lat": 33.5730321, "lon": 35.3821777, "tags": {"addr:city": "Saida", "air_conditioning": "yes", "amenity": "restaurant", "contact:mobile": "+96171993444", "cuisine": "seafood", "delivery": "yes", "internet_access": "yes", "name": "Chabke w Sennara", "name:en": "Chabke w Sennara", "outdoor_seating": "yes"}}, {"type": "node", "id": 6709968391, "lat": 33.8115681, "lon": 35.6076676, "tags": {"amenity": "restaurant", "name": "\u0645\u0637\u0639\u0645 \u0644\u062a\u064a\u062a \u0643\u0627\u0641\u064a"}}, {"type": "node", "id": 6810648408, "lat": 33.5253758, "lon": 35.3752343, "tags": {"amenity": "restaurant", "name": "L\u2019Arc", "name:en": "L\u2019Arc"}}, {"type": "node", "id": 6883754852, "lat": 33.688854, "lon": 35.516458}, {"type": "node", "id": 6883754853, "lat": 33.6889051, "lon": 35.5163499}, {"type": "node", "id": 6883771338, "lat": 33.6892708, "lon": 35.5146853}, {"type": "node", "id": 6883771339, "lat": 33.6891635, "lon": 35.5145578}, {"type": "node", "id": 6883771340, "lat": 33.6891433, "lon": 35.5145823}, {"type": "node", "id": 6883771341, "lat": 33.6891193, "lon": 35.5145538}, {"type": "node", "id": 6883771342, "lat": 33.6890284, "lon": 35.5146643}, {"type": "node", "id": 6883771343, "lat": 33.6891686, "lon": 35.5148309}, {"type": "node", "id": 6883771344, "lat": 33.689189, "lon": 35.514806}, {"type": "node", "id": 6883771345, "lat": 33.6892534, "lon": 35.5148334}, {"type": "node", "id": 6883771346, "lat": 33.689294, "lon": 35.5146951}, {"type": "node", "id": 6883771387, "lat": 33.6890414, "lon": 35.5161743}, {"type": "node", "id": 6883771388, "lat": 33.688929, "lon": 35.5160976}, {"type": "node", "id": 6883771389, "lat": 33.688782, "lon": 35.5164089}, {"type": "node", "id": 6883771390, "lat": 33.6889569, "lon": 35.5163533}, {"type": "node", "id": 6885347205, "lat": 33.6899639, "lon": 35.5116467}, {"type": "node", "id": 6885347206, "lat": 33.6898615, "lon": 35.5119788}, {"type": "node", "id": 6885347207, "lat": 33.6897253, "lon": 35.5119182}, {"type": "node", "id": 6885347208, "lat": 33.6898278, "lon": 35.5115861}, {"type": "node", "id": 6886781787, "lat": 33.6886284, "lon": 35.5211337}, {"type": "node", "id": 6886781788, "lat": 33.6886996, "lon": 35.5213084}, {"type": "node", "id": 6886781789, "lat": 33.6888093, "lon": 35.5212438}, {"type": "node", "id": 6886781790, "lat": 33.6888107, "lon": 35.5210264}, {"type": "node", "id": 6900273395, "lat": 33.6919987, "lon": 35.5078387}, {"type": "node", "id": 6900273396, "lat": 33.6918704, "lon": 35.5077998}, {"type": "node", "id": 6900273397, "lat": 33.6919071, "lon": 35.5076248}, {"type": "node", "id": 6900273398, "lat": 33.6920354, "lon": 35.5076637}, {"type": "node", "id": 6900330203, "lat": 33.6884455, "lon": 35.5206979}, {"type": "node", "id": 6900330204, "lat": 33.6882855, "lon": 35.5207422}, {"type": "node", "id": 6900330205, "lat": 33.6882675, "lon": 35.5206471}, {"type": "node", "id": 6900330206, "lat": 33.6884189, "lon": 35.5206079}, {"type": "node", "id": 6900330233, "lat": 33.6888559, "lon": 35.5211371}, {"type": "node", "id": 6900330234, "lat": 33.6887833, "lon": 35.5211798}, {"type": "node", "id": 6956249803, "lat": 33.7228151, "lon": 35.5947305}, {"type": "node", "id": 6956249804, "lat": 33.7227662, "lon": 35.5947051}, {"type": "node", "id": 7110438685, "lat": 33.5656237, "lon": 35.3712341, "tags": {"amenity": "restaurant", "cuisine": "lebanese;fish", "name": "JS Shark", "name:en": "JS Shark", "name:fr": "JS Shark"}}, {"type": "node", "id": 7139935560, "lat": 33.8115601, "lon": 35.6058408}, {"type": "node", "id": 7139935561, "lat": 33.8114686, "lon": 35.6059621}, {"type": "node", "id": 7139935562, "lat": 33.8112295, "lon": 35.6057008}, {"type": "node", "id": 7139935563, "lat": 33.811321, "lon": 35.6055795}, {"type": "node", "id": 7139935777, "lat": 33.8120252, "lon": 35.6054345}, {"type": "node", "id": 7139935778, "lat": 33.8118553, "lon": 35.6055318}, {"type": "node", "id": 7139935779, "lat": 33.81175, "lon": 35.6052656}, {"type": "node", "id": 7139935780, "lat": 33.8119199, "lon": 35.6051682}, {"type": "node", "id": 7160455333, "lat": 33.8089449, "lon": 35.6030251}, {"type": "node", "id": 7160455334, "lat": 33.8089648, "lon": 35.6030079}, {"type": "node", "id": 7160455335, "lat": 33.8090898, "lon": 35.6032176}, {"type": "node", "id": 7160455336, "lat": 33.8089934, "lon": 35.6033009}, {"type": "node", "id": 7160455338, "lat": 33.8088683, "lon": 35.6030912}, {"type": "node", "id": 7160464009, "lat": 33.8090942, "lon": 35.603747}, {"type": "node", "id": 7160464010, "lat": 33.8090069, "lon": 35.6038445}, {"type": "node", "id": 7160464011, "lat": 33.8087725, "lon": 35.6035406}, {"type": "node", "id": 7160464012, "lat": 33.8088598, "lon": 35.6034431}, {"type": "node", "id": 7449286910, "lat": 33.810698, "lon": 35.6051971, "tags": {"amenity": "restaurant"}}, {"type": "node", "id": 7449286927, "lat": 33.8162641, "lon": 35.6226625}, {"type": "node", "id": 7449286928, "lat": 33.816355, "lon": 35.6226838}, {"type": "node", "id": 7449286929, "lat": 33.8164016, "lon": 35.6228853}, {"type": "node", "id": 7449286930, "lat": 33.8162314, "lon": 35.6228645}, {"type": "node", "id": 7468590734, "lat": 33.6775508, "lon": 35.5590719}, {"type": "node", "id": 7468590735, "lat": 33.6774444, "lon": 35.5592109}, {"type": "node", "id": 7468590736, "lat": 33.6773558, "lon": 35.559113}, {"type": "node", "id": 7468590737, "lat": 33.6774622, "lon": 35.558974}, {"type": "node", "id": 7468590745, "lat": 33.6779126, "lon": 35.5584166}, {"type": "node", "id": 7468590746, "lat": 33.6779324, "lon": 35.5585451}, {"type": "node", "id": 7468590747, "lat": 33.6778321, "lon": 35.5585673}, {"type": "node", "id": 7468590748, "lat": 33.6778124, "lon": 35.5584389}, {"type": "node", "id": 7468590766, "lat": 33.679306, "lon": 35.5582646}, {"type": "node", "id": 7468590767, "lat": 33.6790836, "lon": 35.5582094}, {"type": "node", "id": 7468590768, "lat": 33.6791063, "lon": 35.5580737}, {"type": "node", "id": 7468611490, "lat": 33.6809384, "lon": 35.5555724}, {"type": "node", "id": 7468611491, "lat": 33.6808649, "lon": 35.555689}, {"type": "node", "id": 7468611492, "lat": 33.6807218, "lon": 35.5555588}, {"type": "node", "id": 7468611493, "lat": 33.6807953, "lon": 35.5554421}, {"type": "node", "id": 7468611527, "lat": 33.6772155, "lon": 35.5595873}, {"type": "node", "id": 7468611528, "lat": 33.6772545, "lon": 35.5594837}, {"type": "node", "id": 7468611529, "lat": 33.6771653, "lon": 35.5594351}, {"type": "node", "id": 7468611530, "lat": 33.6771262, "lon": 35.5595387}, {"type": "node", "id": 7468611638, "lat": 33.679909, "lon": 35.5708066}, {"type": "node", "id": 7468611639, "lat": 33.6798185, "lon": 35.570437}, {"type": "node", "id": 7468611640, "lat": 33.6796774, "lon": 35.5705196}, {"type": "node", "id": 7468611641, "lat": 33.6797534, "lon": 35.570837}, {"type": "node", "id": 7468611658, "lat": 33.6802563, "lon": 35.5717371}, {"type": "node", "id": 7468611659, "lat": 33.6801984, "lon": 35.5714545}, {"type": "node", "id": 7468611660, "lat": 33.6799198, "lon": 35.5715936}, {"type": "node", "id": 7468611661, "lat": 33.6800103, "lon": 35.5718762}, {"type": "node", "id": 7468611663, "lat": 33.6803432, "lon": 35.5720545}, {"type": "node", "id": 7468611664, "lat": 33.6803178, "lon": 35.5718371}, {"type": "node", "id": 7468611665, "lat": 33.6800863, "lon": 35.5719589}, {"type": "node", "id": 7468611666, "lat": 33.6801188, "lon": 35.5721806}, {"type": "node", "id": 7468611668, "lat": 33.6803974, "lon": 35.5723154}, {"type": "node", "id": 7468611669, "lat": 33.6803504, "lon": 35.5721067}, {"type": "node", "id": 7468611670, "lat": 33.6801315, "lon": 35.572211}, {"type": "node", "id": 7468611671, "lat": 33.6801324, "lon": 35.5724263}, {"type": "node", "id": 7468611673, "lat": 33.6807495, "lon": 35.5725324}, {"type": "node", "id": 7468611674, "lat": 33.680688, "lon": 35.5721498}, {"type": "node", "id": 7468611675, "lat": 33.6805632, "lon": 35.5721845}, {"type": "node", "id": 7468611676, "lat": 33.6806226, "lon": 35.5725743}, {"type": "node", "id": 7468611688, "lat": 33.6804601, "lon": 35.5727849}, {"type": "node", "id": 7468611689, "lat": 33.6804547, "lon": 35.5726349}, {"type": "node", "id": 7468611690, "lat": 33.6803606, "lon": 35.5726479}, {"type": "node", "id": 7468611691, "lat": 33.680366, "lon": 35.5728371}, {"type": "node", "id": 7468611708, "lat": 33.6800157, "lon": 35.5730981}, {"type": "node", "id": 7468611709, "lat": 33.6800229, "lon": 35.5729241}, {"type": "node", "id": 7468611710, "lat": 33.6799035, "lon": 35.5729828}, {"type": "node", "id": 7468611711, "lat": 33.6799072, "lon": 35.5731307}, {"type": "node", "id": 7468611742, "lat": 33.6781126, "lon": 35.5695129, "tags": {"amenity": "restaurant", "name": "Abou Samir"}}, {"type": "node", "id": 7468611773, "lat": 33.6807113, "lon": 35.5727128}, {"type": "node", "id": 7468611774, "lat": 33.6806732, "lon": 35.5725703}, {"type": "node", "id": 7468611775, "lat": 33.6806149, "lon": 35.5725977}, {"type": "node", "id": 7468611776, "lat": 33.6806591, "lon": 35.5727289}, {"type": "node", "id": 7468611794, "lat": 33.681674, "lon": 35.5736065, "tags": {"amenity": "restaurant", "name": "Al Jarouj Al Sakhry"}}, {"type": "node", "id": 7468611831, "lat": 33.6844977, "lon": 35.5752479}, {"type": "node", "id": 7468611832, "lat": 33.6844353, "lon": 35.574962}, {"type": "node", "id": 7468611833, "lat": 33.684267, "lon": 35.5749694}, {"type": "node", "id": 7468611834, "lat": 33.6843678, "lon": 35.5753553}, {"type": "node", "id": 7468611846, "lat": 33.684428, "lon": 35.5763338}, {"type": "node", "id": 7468611847, "lat": 33.6843321, "lon": 35.5761381}, {"type": "node", "id": 7468611848, "lat": 33.6841856, "lon": 35.5762381}, {"type": "node", "id": 7468611849, "lat": 33.6842724, "lon": 35.5764599}, {"type": "node", "id": 7468611856, "lat": 33.6848984, "lon": 35.5775339}, {"type": "node", "id": 7468611857, "lat": 33.6847989, "lon": 35.5772904}, {"type": "node", "id": 7468611858, "lat": 33.684513, "lon": 35.5773991}, {"type": "node", "id": 7468611859, "lat": 33.6846216, "lon": 35.5776839}, {"type": "node", "id": 7468611869, "lat": 33.6842213, "lon": 35.585457}, {"type": "node", "id": 7468611870, "lat": 33.6843979, "lon": 35.5851723}, {"type": "node", "id": 7468611871, "lat": 33.684294, "lon": 35.5850999}, {"type": "node", "id": 7468611872, "lat": 33.684107, "lon": 35.5853921}, {"type": "node", "id": 7468611874, "lat": 33.6836561, "lon": 35.5856893}, {"type": "node", "id": 7468611875, "lat": 33.683575, "lon": 35.5854945}, {"type": "node", "id": 7468611876, "lat": 33.6833173, "lon": 35.5857142}, {"type": "node", "id": 7468611877, "lat": 33.6834025, "lon": 35.5859165}, {"type": "node", "id": 7566856641, "lat": 33.8048408, "lon": 35.6064958, "tags": {"amenity": "restaurant", "name": "Sam's Double Bus Restaurant", "name:en": "Sam's Double Bus Restaurant"}}, {"type": "node", "id": 7566856652, "lat": 33.8111889, "lon": 35.6070568}, {"type": "node", "id": 7566856653, "lat": 33.8112979, "lon": 35.6069738}, {"type": "node", "id": 7566856654, "lat": 33.8113956, "lon": 35.6071596}, {"type": "node", "id": 7566856655, "lat": 33.8112866, "lon": 35.6072426}, {"type": "node", "id": 7566856656, "lat": 33.8111861, "lon": 35.606764}, {"type": "node", "id": 7566856657, "lat": 33.8112908, "lon": 35.6069478}, {"type": "node", "id": 7566856658, "lat": 33.8111768, "lon": 35.6070419}, {"type": "node", "id": 7566856659, "lat": 33.811073, "lon": 35.6068595}, {"type": "node", "id": 7566856660, "lat": 33.8111303, "lon": 35.6068122}, {"type": "node", "id": 7566856661, "lat": 33.8111295, "lon": 35.6068107}, {"type": "node", "id": 7566856662, "lat": 33.8106805, "lon": 35.6058349}, {"type": "node", "id": 7566856663, "lat": 33.8105943, "lon": 35.6059077}, {"type": "node", "id": 7566856664, "lat": 33.8107452, "lon": 35.6061665}, {"type": "node", "id": 7566856665, "lat": 33.8108314, "lon": 35.6060937}, {"type": "node", "id": 7566856666, "lat": 33.8109047, "lon": 35.6064293}, {"type": "node", "id": 7566856667, "lat": 33.8109795, "lon": 35.6063684}, {"type": "node", "id": 7566856668, "lat": 33.8108507, "lon": 35.6061393}, {"type": "node", "id": 7566856669, "lat": 33.8107758, "lon": 35.6062002}, {"type": "node", "id": 7566856674, "lat": 33.8101374, "lon": 35.6045201}, {"type": "node", "id": 7566856675, "lat": 33.8102333, "lon": 35.6043808}, {"type": "node", "id": 7566856676, "lat": 33.8101007, "lon": 35.6042486}, {"type": "node", "id": 7566856677, "lat": 33.8100048, "lon": 35.6043879}, {"type": "node", "id": 7566866050, "lat": 33.8119824, "lon": 35.6080788, "tags": {"amenity": "restaurant", "cuisine": "shawarma"}}, {"type": "node", "id": 7566866066, "lat": 33.8118038, "lon": 35.6076341}, {"type": "node", "id": 7566866067, "lat": 33.8118871, "lon": 35.607586}, {"type": "node", "id": 7566866068, "lat": 33.8119098, "lon": 35.6076429}, {"type": "node", "id": 7566866069, "lat": 33.8118265, "lon": 35.607691}, {"type": "node", "id": 7566866158, "lat": 33.8088662, "lon": 35.5979424}, {"type": "node", "id": 7566866159, "lat": 33.8088801, "lon": 35.597988}, {"type": "node", "id": 7566866160, "lat": 33.8089679, "lon": 35.5979493}, {"type": "node", "id": 7566866161, "lat": 33.8089539, "lon": 35.5979036}, {"type": "node", "id": 7567280668, "lat": 33.4491876, "lon": 35.2998455}, {"type": "node", "id": 7567280669, "lat": 33.4492592, "lon": 35.2999796}, {"type": "node", "id": 7567280670, "lat": 33.4491652, "lon": 35.3000172}, {"type": "node", "id": 7567280671, "lat": 33.4491205, "lon": 35.2999045}, {"type": "node", "id": 7932392201, "lat": 33.5788896, "lon": 35.3966521}, {"type": "node", "id": 7932392202, "lat": 33.5785454, "lon": 35.3963946}, {"type": "node", "id": 7932392203, "lat": 33.5786348, "lon": 35.3961908}, {"type": "node", "id": 7932392204, "lat": 33.5787153, "lon": 35.3962713}, {"type": "node", "id": 7932392205, "lat": 33.5788225, "lon": 35.3961747}, {"type": "node", "id": 7932392206, "lat": 33.5789209, "lon": 35.3962069}, {"type": "node", "id": 7932392207, "lat": 33.5790192, "lon": 35.3963088}, {"type": "node", "id": 7932392208, "lat": 33.5790102, "lon": 35.3964697}, {"type": "node", "id": 7935850740, "lat": 33.6948944, "lon": 35.5805999}, {"type": "node", "id": 7935850741, "lat": 33.6950246, "lon": 35.5808114}, {"type": "node", "id": 7935850742, "lat": 33.6949566, "lon": 35.5808719}, {"type": "node", "id": 7935850743, "lat": 33.6948144, "lon": 35.580671}, {"type": "node", "id": 7935850744, "lat": 33.6948483, "lon": 35.5806408}, {"type": "node", "id": 7935850756, "lat": 33.6949662, "lon": 35.5813684}, {"type": "node", "id": 7935850757, "lat": 33.6950191, "lon": 35.581411}, {"type": "node", "id": 7935850758, "lat": 33.6949592, "lon": 35.5815234}, {"type": "node", "id": 7935850759, "lat": 33.6948897, "lon": 35.5814714}, {"type": "node", "id": 7935850780, "lat": 33.6955887, "lon": 35.5825892}, {"type": "node", "id": 7935850781, "lat": 33.6956548, "lon": 35.5828911}, {"type": "node", "id": 7935850782, "lat": 33.6955975, "lon": 35.582924}, {"type": "node", "id": 7935850783, "lat": 33.6954204, "lon": 35.5826428}, {"type": "node", "id": 7935858585, "lat": 33.6961804, "lon": 35.5853928}, {"type": "node", "id": 7935858586, "lat": 33.696307, "lon": 35.5860511}, {"type": "node", "id": 7935858587, "lat": 33.6961288, "lon": 35.5860701}, {"type": "node", "id": 7935858588, "lat": 33.696078, "lon": 35.5854153}, {"type": "node", "id": 7935858635, "lat": 33.7060728, "lon": 35.5998925}, {"type": "node", "id": 7935858636, "lat": 33.7059571, "lon": 35.5998972}, {"type": "node", "id": 7935858637, "lat": 33.7059537, "lon": 35.599774}, {"type": "node", "id": 7935858646, "lat": 33.711615, "lon": 35.5860223}, {"type": "node", "id": 7935858647, "lat": 33.7116194, "lon": 35.5861521}, {"type": "node", "id": 7935858648, "lat": 33.7115409, "lon": 35.586156}, {"type": "node", "id": 7935858649, "lat": 33.7115365, "lon": 35.5860262}, {"type": "node", "id": 7935858748, "lat": 33.6905546, "lon": 35.5277191}, {"type": "node", "id": 7935858749, "lat": 33.6907258, "lon": 35.5279003}, {"type": "node", "id": 7935858750, "lat": 33.6906055, "lon": 35.5280253}, {"type": "node", "id": 7935858751, "lat": 33.6904909, "lon": 35.527866}, {"type": "node", "id": 7935858752, "lat": 33.6905947, "lon": 35.527718}, {"type": "node", "id": 7935858791, "lat": 33.6883353, "lon": 35.5206252}, {"type": "node", "id": 7935858797, "lat": 33.6882972, "lon": 35.5193207, "tags": {"amenity": "restaurant", "name": "Elysee Sweet Pastries"}}, {"type": "node", "id": 7935858801, "lat": 33.6883422, "lon": 35.516553, "tags": {"amenity": "restaurant", "name": "Tivoli-Pastry"}}, {"type": "node", "id": 7954650498, "lat": 33.5650301, "lon": 35.3761218, "tags": {"amenity": "restaurant", "name": "Al Sultan", "name:en": "Al Sultan", "name:fr": "Al Sultan"}}, {"type": "node", "id": 7954650499, "lat": 33.5667534, "lon": 35.3765321, "tags": {"amenity": "restaurant", "name": "El Papitto", "name:en": "El Papitto", "name:fr": "El Papitto"}}, {"type": "node", "id": 7954650500, "lat": 33.5662597, "lon": 35.3742497, "tags": {"amenity": "cafe", "name": "sabbeh sabbeh"}}, {"type": "node", "id": 7954650502, "lat": 33.5680267, "lon": 35.376384, "tags": {"amenity": "restaurant", "name": "C'est la Vie", "name:fr": "C'est la Vie"}}, {"type": "node", "id": 8000571054, "lat": 33.5922606, "lon": 35.3876187}, {"type": "node", "id": 8000571055, "lat": 33.592216, "lon": 35.387823}, {"type": "node", "id": 8000571056, "lat": 33.5919827, "lon": 35.3877496}, {"type": "node", "id": 8000571057, "lat": 33.5920274, "lon": 35.3875453}, {"type": "node", "id": 8000571058, "lat": 33.5927175, "lon": 35.3876912}, {"type": "node", "id": 8000571059, "lat": 33.5926681, "lon": 35.3878731}, {"type": "node", "id": 8000571060, "lat": 33.5923295, "lon": 35.3878063}, {"type": "node", "id": 8000571061, "lat": 33.592395, "lon": 35.387565}, {"type": "node", "id": 8000571062, "lat": 33.5947125, "lon": 35.3883029}, {"type": "node", "id": 8000571063, "lat": 33.5946783, "lon": 35.3884601}, {"type": "node", "id": 8000571064, "lat": 33.5944624, "lon": 35.3883925}, {"type": "node", "id": 8000571065, "lat": 33.5944966, "lon": 35.3882353}, {"type": "node", "id": 8022478160, "lat": 33.6409544, "lon": 35.7205162}, {"type": "node", "id": 8022478161, "lat": 33.6409065, "lon": 35.7204682}, {"type": "node", "id": 8022478162, "lat": 33.6408914, "lon": 35.720526}, {"type": "node", "id": 8022478163, "lat": 33.6409485, "lon": 35.7205835}, {"type": "node", "id": 8022478175, "lat": 33.6406912, "lon": 35.718715}, {"type": "node", "id": 8022478176, "lat": 33.6405591, "lon": 35.7186107}, {"type": "node", "id": 8022478177, "lat": 33.6405381, "lon": 35.7187047}, {"type": "node", "id": 8022478178, "lat": 33.6406669, "lon": 35.7187567}, {"type": "node", "id": 8022478184, "lat": 33.6407191, "lon": 35.719064}, {"type": "node", "id": 8022491885, "lat": 33.6406731, "lon": 35.7192295}, {"type": "node", "id": 8022491886, "lat": 33.6408534, "lon": 35.7193018}, {"type": "node", "id": 8040212054, "lat": 33.6021406, "lon": 35.6944232, "tags": {"amenity": "restaurant", "name": "blue lake"}}, {"type": "node", "id": 8040212055, "lat": 33.5955914, "lon": 35.6900886, "tags": {"amenity": "restaurant", "name": "joubram"}}, {"type": "node", "id": 8040212074, "lat": 33.6285343, "lon": 35.7126449, "tags": {"amenity": "restaurant", "name": "casino nabeh"}}, {"type": "node", "id": 8041258685, "lat": 33.7900238, "lon": 35.5025511, "tags": {"addr:street": "\u0628\u0634\u0627\u0645\u0648\u0646", "amenity": "cafe", "internet_access": "wlan", "name": "\u0642\u0647\u0648\u0629 \u0627\u0644\u0645\u063a\u0627\u0631\u0629", "opening_hours": "24/7"}}, {"type": "node", "id": 8045135502, "lat": 33.6883985, "lon": 35.546409}, {"type": "node", "id": 8045135503, "lat": 33.6883562, "lon": 35.5465468}, {"type": "node", "id": 8045135504, "lat": 33.6882898, "lon": 35.5465173}, {"type": "node", "id": 8045135505, "lat": 33.6883322, "lon": 35.5463795}, {"type": "node", "id": 8045135512, "lat": 33.6864966, "lon": 35.548931}, {"type": "node", "id": 8045135513, "lat": 33.6865169, "lon": 35.5491652}, {"type": "node", "id": 8045135514, "lat": 33.6863494, "lon": 35.5491861}, {"type": "node", "id": 8045135515, "lat": 33.6863292, "lon": 35.5489519}, {"type": "node", "id": 8045135522, "lat": 33.6839709, "lon": 35.5458625}, {"type": "node", "id": 8045135523, "lat": 33.6839787, "lon": 35.5462828}, {"type": "node", "id": 8045135524, "lat": 33.6837845, "lon": 35.5462548}, {"type": "node", "id": 8045135525, "lat": 33.683769, "lon": 35.5458625}, {"type": "node", "id": 8045135532, "lat": 33.6822902, "lon": 35.5481793}, {"type": "node", "id": 8045135533, "lat": 33.682298, "lon": 35.5484969}, {"type": "node", "id": 8045135534, "lat": 33.6820415, "lon": 35.5485156}, {"type": "node", "id": 8045135535, "lat": 33.6820104, "lon": 35.54817}, {"type": "node", "id": 8045135537, "lat": 33.6818131, "lon": 35.551533}, {"type": "node", "id": 8045135538, "lat": 33.6817228, "lon": 35.5517199}, {"type": "node", "id": 8045135539, "lat": 33.6816065, "lon": 35.5516387}, {"type": "node", "id": 8045135540, "lat": 33.6816969, "lon": 35.5514518}, {"type": "node", "id": 8045135542, "lat": 33.6835305, "lon": 35.5457951}, {"type": "node", "id": 8045135543, "lat": 33.6835238, "lon": 35.5461488}, {"type": "node", "id": 8045135544, "lat": 33.6833377, "lon": 35.5461}, {"type": "node", "id": 8045135545, "lat": 33.6833309, "lon": 35.5457463}, {"type": "node", "id": 8045135557, "lat": 33.6845707, "lon": 35.5414786}, {"type": "node", "id": 8045135558, "lat": 33.6845847, "lon": 35.5416841}, {"type": "node", "id": 8045135559, "lat": 33.6844019, "lon": 35.5417021}, {"type": "node", "id": 8045135560, "lat": 33.6843879, "lon": 35.5414966}, {"type": "node", "id": 8045136304, "lat": 33.6892773, "lon": 35.514752}, {"type": "node", "id": 8045136312, "lat": 33.6898263, "lon": 35.5117757, "tags": {"amenity": "restaurant", "name": "Tarabish-Pastry"}}, {"type": "node", "id": 8045136322, "lat": 33.6919401, "lon": 35.5077269, "tags": {"amenity": "restaurant", "name": "Forn Jebne w Zebdeh"}}, {"type": "node", "id": 8045136323, "lat": 33.689329, "lon": 35.503752}, {"type": "node", "id": 8045136324, "lat": 33.6893379, "lon": 35.5040739}, {"type": "node", "id": 8045136325, "lat": 33.689166, "lon": 35.5040685}, {"type": "node", "id": 8045136326, "lat": 33.6891727, "lon": 35.5037386}, {"type": "node", "id": 8045136327, "lat": 33.6892464, "lon": 35.5039156, "tags": {"amenity": "restaurant", "name": "Diwan Al Amira"}}, {"type": "node", "id": 8045136338, "lat": 33.6721011, "lon": 35.5130102}, {"type": "node", "id": 8045136339, "lat": 33.6721011, "lon": 35.5131943}, {"type": "node", "id": 8045136340, "lat": 33.6719538, "lon": 35.513166}, {"type": "node", "id": 8045136341, "lat": 33.6720127, "lon": 35.5129819}, {"type": "node", "id": 8045136342, "lat": 33.6720599, "lon": 35.5130952, "tags": {"amenity": "restaurant", "name": "Forn and Snack"}}, {"type": "node", "id": 8045136343, "lat": 33.6659833, "lon": 35.512236}, {"type": "node", "id": 8045136344, "lat": 33.6659921, "lon": 35.5124448}, {"type": "node", "id": 8045136345, "lat": 33.6658272, "lon": 35.5124342}, {"type": "node", "id": 8045136346, "lat": 33.6658213, "lon": 35.5122147}, {"type": "node", "id": 8045136348, "lat": 33.6644677, "lon": 35.5124221}, {"type": "node", "id": 8045136349, "lat": 33.6644721, "lon": 35.5125643}, {"type": "node", "id": 8045136350, "lat": 33.6643226, "lon": 35.5125723}, {"type": "node", "id": 8045136351, "lat": 33.6643226, "lon": 35.5124087}, {"type": "node", "id": 8045136352, "lat": 33.6643851, "lon": 35.5124945, "tags": {"amenity": "restaurant", "name": "GOOD FOOD"}}, {"type": "node", "id": 8045136353, "lat": 33.6587473, "lon": 35.5142417}, {"type": "node", "id": 8045136354, "lat": 33.6588109, "lon": 35.5143614}, {"type": "node", "id": 8045136355, "lat": 33.6587185, "lon": 35.5144323}, {"type": "node", "id": 8045136356, "lat": 33.6586549, "lon": 35.5143127}, {"type": "node", "id": 8045136358, "lat": 33.6558313, "lon": 35.5164801}, {"type": "node", "id": 8045136359, "lat": 33.6558544, "lon": 35.5165356}, {"type": "node", "id": 8045136360, "lat": 33.6558057, "lon": 35.516551}, {"type": "node", "id": 8045136361, "lat": 33.6557826, "lon": 35.5165048}, {"type": "node", "id": 8045136363, "lat": 33.6557749, "lon": 35.5163723}, {"type": "node", "id": 8045136364, "lat": 33.6557903, "lon": 35.5164616}, {"type": "node", "id": 8045136365, "lat": 33.6557441, "lon": 35.5164924}, {"type": "node", "id": 8045136366, "lat": 33.6557185, "lon": 35.5164339}, {"type": "node", "id": 8045136367, "lat": 33.655757, "lon": 35.5164339, "tags": {"amenity": "restaurant", "name": "El rio"}}, {"type": "node", "id": 8045136368, "lat": 33.6531861, "lon": 35.5190592}, {"type": "node", "id": 8045136369, "lat": 33.6533111, "lon": 35.519086}, {"type": "node", "id": 8045136370, "lat": 33.6532709, "lon": 35.5192255}, {"type": "node", "id": 8045136371, "lat": 33.6531504, "lon": 35.5191719}, {"type": "node", "id": 8045136372, "lat": 33.6532441, "lon": 35.5191129, "tags": {"amenity": "cafe", "name": "La Riva"}}, {"type": "node", "id": 8045136387, "lat": 33.6503115, "lon": 35.5285127, "tags": {"amenity": "restaurant", "name": "Nahr el Hammam"}}, {"type": "node", "id": 8045136398, "lat": 33.6443061, "lon": 35.5273534}, {"type": "node", "id": 8045136399, "lat": 33.6441522, "lon": 35.5276615}, {"type": "node", "id": 8045136400, "lat": 33.6439393, "lon": 35.5275136}, {"type": "node", "id": 8045136401, "lat": 33.644147, "lon": 35.5272517}, {"type": "node", "id": 8045136402, "lat": 33.6441316, "lon": 35.5274273, "tags": {"amenity": "restaurant", "name": "Jdodna Nahr El Hammam"}}, {"type": "node", "id": 8125348349, "lat": 33.6343887, "lon": 35.7807184, "tags": {"amenity": "restaurant", "name": "al hallAB"}}, {"type": "node", "id": 8125348351, "lat": 33.6357732, "lon": 35.7798386, "tags": {"amenity": "cafe", "name": "choco crepe"}}, {"type": "node", "id": 8125348362, "lat": 33.6302704, "lon": 35.7864214, "tags": {"amenity": "restaurant", "name": "stop snack"}}, {"type": "node", "id": 8125348368, "lat": 33.6272076, "lon": 35.7860009, "tags": {"amenity": "restaurant", "name": "B-Square"}}, {"type": "node", "id": 8125348369, "lat": 33.6271794, "lon": 35.7861919, "tags": {"amenity": "cafe", "name": "maroun"}}, {"type": "node", "id": 8125348370, "lat": 33.6339948, "lon": 35.7816318, "tags": {"amenity": "restaurant", "name": "Olive Garden"}}, {"type": "node", "id": 8125348372, "lat": 33.66144, "lon": 35.741419, "tags": {"amenity": "restaurant", "name": "cafe kefraya"}}, {"type": "node", "id": 8125348374, "lat": 33.6644668, "lon": 35.7448954, "tags": {"amenity": "restaurant", "name": "Al Kourom"}}, {"type": "node", "id": 8174729068, "lat": 33.5366929, "lon": 35.3831404, "tags": {"amenity": "restaurant"}}, {"type": "node", "id": 8222988817, "lat": 33.5634379, "lon": 35.3680846, "tags": {"addr:street": "\u0637\u0631\u064a\u0642 \u0627\u0644\u0628\u062d\u0631", "amenity": "restaurant", "cuisine": "fish;lebanese", "name": "Restaurant Tawlet Sidon", "name:en": "Tawlet Sidon Restaurant", "name:fr": "Restaurant Tawlet Sidon"}}, {"type": "node", "id": 8252121885, "lat": 33.5339142, "lon": 35.3618622}, {"type": "node", "id": 8252121886, "lat": 33.5338089, "lon": 35.3624661}, {"type": "node", "id": 8252121887, "lat": 33.5335418, "lon": 35.3624045}, {"type": "node", "id": 8252121888, "lat": 33.5336599, "lon": 35.3617421}, {"type": "node", "id": 8252121889, "lat": 33.5337627, "lon": 35.3621457, "tags": {"amenity": "restaurant"}}, {"type": "node", "id": 8252121900, "lat": 33.5335778, "lon": 35.3631008, "tags": {"amenity": "restaurant"}}, {"type": "node", "id": 8252121979, "lat": 33.5205793, "lon": 35.3575524}, {"type": "node", "id": 8252121980, "lat": 33.5205254, "lon": 35.3577804}, {"type": "node", "id": 8252121981, "lat": 33.5203687, "lon": 35.3577219}, {"type": "node", "id": 8252121982, "lat": 33.5204277, "lon": 35.3574692}, {"type": "node", "id": 8252121983, "lat": 33.5204868, "lon": 35.3576387, "tags": {"amenity": "restaurant"}}, {"type": "node", "id": 8252121984, "lat": 33.5200427, "lon": 35.3580031}, {"type": "node", "id": 8252121985, "lat": 33.5199037, "lon": 35.3583319}, {"type": "node", "id": 8252121986, "lat": 33.5197111, "lon": 35.3581779}, {"type": "node", "id": 8252121987, "lat": 33.519914, "lon": 35.3579486}, {"type": "node", "id": 8252122024, "lat": 33.5153263, "lon": 35.3553125}, {"type": "node", "id": 8252122025, "lat": 33.5154059, "lon": 35.3551338}, {"type": "node", "id": 8252122026, "lat": 33.5153134, "lon": 35.3550444}, {"type": "node", "id": 8252122027, "lat": 33.5151953, "lon": 35.355217}, {"type": "node", "id": 8252122028, "lat": 33.5153134, "lon": 35.3551708, "tags": {"amenity": "cafe"}}, {"type": "node", "id": 8252122030, "lat": 33.5138877, "lon": 35.3543204}, {"type": "node", "id": 8252122031, "lat": 33.5140239, "lon": 35.3540862}, {"type": "node", "id": 8252122032, "lat": 33.5136206, "lon": 35.3537966}, {"type": "node", "id": 8252122033, "lat": 33.5135487, "lon": 35.3540616}, {"type": "node", "id": 8252122034, "lat": 33.5137644, "lon": 35.3540616, "tags": {"amenity": "restaurant"}}, {"type": "node", "id": 8252122045, "lat": 33.5090599, "lon": 35.3497223}, {"type": "node", "id": 8252122046, "lat": 33.5092325, "lon": 35.3496068}, {"type": "node", "id": 8252122047, "lat": 33.5091023, "lon": 35.3494343}, {"type": "node", "id": 8252122048, "lat": 33.5089272, "lon": 35.3496064}, {"type": "node", "id": 8252122076, "lat": 33.5042387, "lon": 35.3462357}, {"type": "node", "id": 8252122077, "lat": 33.5043492, "lon": 35.3460108}, {"type": "node", "id": 8252122078, "lat": 33.5041539, "lon": 35.3458198}, {"type": "node", "id": 8252122079, "lat": 33.5040177, "lon": 35.3460847}, {"type": "node", "id": 8252122080, "lat": 33.504195, "lon": 35.3460416, "tags": {"amenity": "restaurant"}}, {"type": "node", "id": 8279188499, "lat": 33.7600203, "lon": 35.5277802, "tags": {"amenity": "restaurant", "name": "Classic Bun"}}, {"type": "node", "id": 8279188500, "lat": 33.7568885, "lon": 35.5320543, "tags": {"amenity": "restaurant", "name": "Al Rihan"}}, {"type": "node", "id": 8279188501, "lat": 33.7569376, "lon": 35.5318255, "tags": {"amenity": "cafe", "name": "Al Rihan"}}, {"type": "node", "id": 8279193044, "lat": 33.7503421, "lon": 35.5324886, "tags": {"amenity": "restaurant", "name": "Al Hawr"}}, {"type": "node", "id": 8279251358, "lat": 33.7524517, "lon": 35.5439673, "tags": {"amenity": "restaurant"}}, {"type": "node", "id": 8279251359, "lat": 33.7522317, "lon": 35.5439548, "tags": {"amenity": "restaurant"}}, {"type": "node", "id": 8279251360, "lat": 33.7521692, "lon": 35.5439691, "tags": {"amenity": "restaurant"}}, {"type": "node", "id": 8279428717, "lat": 33.7528642, "lon": 35.5430718, "tags": {"amenity": "restaurant"}}, {"type": "node", "id": 8279428718, "lat": 33.7529742, "lon": 35.5432166, "tags": {"amenity": "restaurant"}}, {"type": "node", "id": 8279428723, "lat": 33.7531854, "lon": 35.5437942, "tags": {"amenity": "restaurant"}}, {"type": "node", "id": 8302566016, "lat": 33.5594114, "lon": 35.5604833, "tags": {"amenity": "restaurant", "cuisine": "lebanese;falafel", "name": "\u0643\u0648\u0644 \u0648 \u0634\u0643\u0648\u0631"}}, {"type": "node", "id": 8308882938, "lat": 33.7529207, "lon": 35.5428022, "tags": {"amenity": "restaurant"}}, {"type": "node", "id": 8308882939, "lat": 33.7532657, "lon": 35.5426323, "tags": {"amenity": "restaurant"}}, {"type": "node", "id": 8308882951, "lat": 33.7549382, "lon": 35.5385446, "tags": {"amenity": "cafe"}}, {"type": "node", "id": 8308882962, "lat": 33.7262964, "lon": 35.5274043, "tags": {"amenity": "restaurant"}}, {"type": "node", "id": 8308882970, "lat": 33.7261386, "lon": 35.5303648, "tags": {"amenity": "restaurant"}}, {"type": "node", "id": 8308882973, "lat": 33.7263389, "lon": 35.5277946, "tags": {"amenity": "restaurant"}}, {"type": "node", "id": 8317853026, "lat": 33.8036494, "lon": 35.8115011, "tags": {"amenity": "restaurant", "name": "Marhaba"}}, {"type": "node", "id": 8317853028, "lat": 33.804342, "lon": 35.8055402, "tags": {"amenity": "restaurant", "name": "Halwani products"}}, {"type": "node", "id": 8317853031, "lat": 33.8111104, "lon": 35.7554025, "tags": {"amenity": "cafe", "name": "express al-kareem"}}, {"type": "node", "id": 8317853037, "lat": 33.8038488, "lon": 35.7165932, "tags": {"amenity": "cafe", "name": "highway cafe"}}, {"type": "node", "id": 8317853038, "lat": 33.8031772, "lon": 35.7020824, "tags": {"amenity": "restaurant", "name": "thoulouj"}}, {"type": "node", "id": 8317853045, "lat": 33.8038593, "lon": 35.691436, "tags": {"amenity": "cafe", "name": "corniche view sawfar"}}, {"type": "node", "id": 8317853046, "lat": 33.8036179, "lon": 35.6928631, "tags": {"amenity": "cafe", "name": "green hut coffee shop"}}, {"type": "node", "id": 8317853047, "lat": 33.8031247, "lon": 35.6926484, "tags": {"amenity": "cafe", "name": "chez bro cafe"}}, {"type": "node", "id": 8317853049, "lat": 33.8012768, "lon": 35.6874952, "tags": {"amenity": "cafe", "name": "Nazem cafe"}}, {"type": "node", "id": 8317853057, "lat": 33.7990213, "lon": 35.6808781, "tags": {"amenity": "restaurant", "name": "la ronda samer"}}, {"type": "node", "id": 8317853058, "lat": 33.7993887, "lon": 35.6803603, "tags": {"amenity": "restaurant", "name": "golden fish"}}, {"type": "node", "id": 8317853060, "lat": 33.8010048, "lon": 35.6762811, "tags": {"amenity": "restaurant", "building": "yes", "name": "Burger house"}}, {"type": "node", "id": 8380229117, "lat": 33.5573564, "lon": 35.5599811, "tags": {"addr:postcode": "1623", "addr:street": "\u0637\u0631\u064a\u0642 \u0635\u064a\u062f\u0627 - \u062c\u0632\u064a\u0646", "amenity": "restaurant", "contact:mobile": "+961 76 555 308", "contact:website": "https://pinenuts.vip", "cuisine": "international", "internet_access": "wlan", "name": "\u0635\u0646\u0648\u0628\u0631 \u0628\u0644\u062f\u064a", "name:en": "PineNutsvip", "name:fr": "PineNutsvip", "shop": "convenience"}}, {"type": "node", "id": 8462134936, "lat": 33.7238808, "lon": 35.5939034}, {"type": "node", "id": 8462134937, "lat": 33.7238853, "lon": 35.5941287}, {"type": "node", "id": 8462134938, "lat": 33.7237158, "lon": 35.594118}, {"type": "node", "id": 8462134939, "lat": 33.7237247, "lon": 35.5938552}, {"type": "node", "id": 8462134950, "lat": 33.7363793, "lon": 35.5971548}, {"type": "node", "id": 8462134951, "lat": 33.7364024, "lon": 35.5973735}, {"type": "node", "id": 8462134952, "lat": 33.736223, "lon": 35.5974198}, {"type": "node", "id": 8462134953, "lat": 33.7361692, "lon": 35.5971948}, {"type": "node", "id": 8462134954, "lat": 33.7362973, "lon": 35.5973027, "tags": {"amenity": "restaurant", "name": "Sandwich Al Shaykh"}}, {"type": "node", "id": 8462134974, "lat": 33.7398396, "lon": 35.6056049, "tags": {"amenity": "restaurant", "name": "Aal Ain"}}, {"type": "node", "id": 8462134986, "lat": 33.7458774, "lon": 35.6037445, "tags": {"amenity": "restaurant", "name": "Jawzat Almir"}}, {"type": "node", "id": 8462141429, "lat": 33.8317606, "lon": 35.5687397}, {"type": "node", "id": 8462141430, "lat": 33.8318096, "lon": 35.5689938}, {"type": "node", "id": 8462141431, "lat": 33.831553, "lon": 35.5690751}, {"type": "node", "id": 8462141432, "lat": 33.8315091, "lon": 35.5689104}, {"type": "node", "id": 8462141433, "lat": 33.8316695, "lon": 35.5689145, "tags": {"amenity": "restaurant", "name": "Loz"}}, {"type": "node", "id": 8462141456, "lat": 33.8319312, "lon": 35.566585}, {"type": "node", "id": 8462141457, "lat": 33.8319244, "lon": 35.5667395}, {"type": "node", "id": 8462141458, "lat": 33.8318164, "lon": 35.5667557}, {"type": "node", "id": 8462141459, "lat": 33.8318282, "lon": 35.5665931}, {"type": "node", "id": 8462141460, "lat": 33.8318636, "lon": 35.5666602, "tags": {"amenity": "restaurant", "name": "Moulin d'Or", "name:fr": "Moulin d'Or"}}, {"type": "node", "id": 8464506041, "lat": 33.7962686, "lon": 35.6605629, "tags": {"amenity": "restaurant", "name": "Aashta wa Easal", "name:fr": "Aashta wa Easal"}}, {"type": "node", "id": 8464506043, "lat": 33.7981864, "lon": 35.6613129, "tags": {"amenity": "restaurant", "name": "le telegraphe de belle vue"}}, {"type": "node", "id": 8464506044, "lat": 33.7991852, "lon": 35.6608129, "tags": {"amenity": "restaurant", "name": "Akram", "name:en": "Akram", "name:fr": "Akram"}}, {"type": "node", "id": 8464506046, "lat": 33.7960929, "lon": 35.6580244, "tags": {"amenity": "restaurant", "name": "Eal Ousoul", "name:fr": "Eal Ousoul"}}, {"type": "node", "id": 8464506047, "lat": 33.7968759, "lon": 35.6573514, "tags": {"amenity": "restaurant", "name": "kahwet al day3a"}}, {"type": "node", "id": 8464506048, "lat": 33.7955255, "lon": 35.6566975, "tags": {"amenity": "restaurant", "name": "Jalset Bhamdo\u00fbn", "name:fr": "Jalset Bhamdo\u00fbn"}}, {"type": "node", "id": 8464506049, "lat": 33.7958531, "lon": 35.6546879, "tags": {"amenity": "restaurant", "name": "Abo-Gabi", "name:fr": "Abo-Gabi"}}, {"type": "node", "id": 8464506052, "lat": 33.7952299, "lon": 35.6511398, "tags": {"amenity": "restaurant", "name": "L'Allouette"}}, {"type": "node", "id": 8464506054, "lat": 33.7943988, "lon": 35.6490725, "tags": {"amenity": "restaurant", "name": "chez le chef"}}, {"type": "node", "id": 8464506055, "lat": 33.7938155, "lon": 35.6491783, "tags": {"amenity": "restaurant", "name": "beit bhamdoun restaurant"}}, {"type": "node", "id": 8464506060, "lat": 33.7857524, "lon": 35.636784, "tags": {"amenity": "restaurant", "name": "L'\u00c9toile", "name:fr": "L'\u00c9toile"}}, {"type": "node", "id": 8464506062, "lat": 33.7903634, "lon": 35.6338321, "tags": {"amenity": "restaurant", "name": "iris domain"}}, {"type": "node", "id": 8464506064, "lat": 33.7808054, "lon": 35.6279955, "tags": {"amenity": "restaurant", "name": "Adel bakery"}}, {"type": "node", "id": 8464506065, "lat": 33.7800222, "lon": 35.6269666, "tags": {"amenity": "restaurant", "name": "carole bakery"}}, {"type": "node", "id": 8464626264, "lat": 33.8256871, "lon": 35.5258353, "tags": {"amenity": "restaurant", "name": "hikayat beirut"}}, {"type": "node", "id": 8464626265, "lat": 33.8226027, "lon": 35.5274388, "tags": {"amenity": "restaurant", "name": "al-ostora"}}, {"type": "node", "id": 8464626269, "lat": 33.8299377, "lon": 35.516145, "tags": {"amenity": "cafe", "name": "cafe yazbek"}}, {"type": "node", "id": 8464626270, "lat": 33.8298175, "lon": 35.5159519, "tags": {"amenity": "restaurant", "name": "croissant al-doha"}}, {"type": "node", "id": 8464626271, "lat": 33.8300547, "lon": 35.5159358, "tags": {"amenity": "restaurant", "name": "al-ghadeer"}}, {"type": "node", "id": 8464626272, "lat": 33.831078, "lon": 35.5172521, "tags": {"amenity": "restaurant", "name": "Blue Cafe"}}, {"type": "node", "id": 8464626274, "lat": 33.8314288, "lon": 35.5165402, "tags": {"amenity": "restaurant", "name": "Just Fajita"}}, {"type": "node", "id": 8464626276, "lat": 33.8312016, "lon": 35.5177427, "tags": {"amenity": "restaurant", "name": "cloud resto-cafe"}}, {"type": "node", "id": 8464626278, "lat": 33.833333, "lon": 35.5171153, "tags": {"amenity": "restaurant", "name": "tamees"}}, {"type": "node", "id": 8464626283, "lat": 33.8344955, "lon": 35.5165121, "tags": {"amenity": "cafe", "name": "cafe soltan"}}, {"type": "node", "id": 8464657122, "lat": 33.83349, "lon": 35.510576, "tags": {"amenity": "restaurant", "name": "ghadeer"}}, {"type": "node", "id": 8464657125, "lat": 33.8335234, "lon": 35.5090397, "tags": {"amenity": "restaurant", "name": "al-ghadeer"}}, {"type": "node", "id": 8464657126, "lat": 33.8320435, "lon": 35.5084123, "tags": {"amenity": "restaurant", "name": "abo youssef bakery"}}, {"type": "node", "id": 8464657128, "lat": 33.831382, "lon": 35.5099044, "tags": {"amenity": "restaurant", "name": "al-amal"}}, {"type": "node", "id": 8464657129, "lat": 33.8315958, "lon": 35.5100572, "tags": {"amenity": "cafe", "name": "shish@cafe"}}, {"type": "node", "id": 8464657132, "lat": 33.8297817, "lon": 35.510021, "tags": {"amenity": "restaurant", "name": "ka3ket abo-jaafar"}}, {"type": "node", "id": 8464657133, "lat": 33.8294176, "lon": 35.5120319, "tags": {"amenity": "restaurant", "name": "croissant al-doha"}}, {"type": "node", "id": 8464657134, "lat": 33.8290367, "lon": 35.5116578, "tags": {"amenity": "restaurant", "name": "broasted king"}}, {"type": "node", "id": 8464657136, "lat": 33.828422, "lon": 35.5131137, "tags": {"amenity": "restaurant", "name": "Avocado"}}, {"type": "node", "id": 8464657137, "lat": 33.8275667, "lon": 35.5129166, "tags": {"amenity": "cafe", "name": "ahmad hamdar"}}, {"type": "node", "id": 8464657139, "lat": 33.8286859, "lon": 35.5106564, "tags": {"amenity": "restaurant", "name": "kol wshkor"}}, {"type": "node", "id": 8464657140, "lat": 33.8284254, "lon": 35.5106403, "tags": {"amenity": "cafe", "name": "caffe kataya"}}, {"type": "node", "id": 8634749203, "lat": 33.6294911, "lon": 35.7188754, "tags": {"amenity": "restaurant", "name": "bou elias"}}, {"type": "node", "id": 8739079659, "lat": 33.8298519, "lon": 35.5172684, "tags": {"amenity": "cafe", "name": "Cafe Eben 3ame"}}, {"type": "node", "id": 8739079660, "lat": 33.8308814, "lon": 35.5173198, "tags": {"amenity": "cafe", "name": "Don Vito Cafe Resto"}}, {"type": "node", "id": 8739079661, "lat": 33.834069, "lon": 35.5175601, "tags": {"amenity": "cafe", "name": "Chello"}}, {"type": "node", "id": 8753555761, "lat": 33.6349047, "lon": 35.7804597, "tags": {"amenity": "restaurant", "name": "pizzaria al-akaber"}}, {"type": "node", "id": 8753555764, "lat": 33.6307507, "lon": 35.7813819, "tags": {"amenity": "restaurant", "name": "chef hosni"}}, {"type": "node", "id": 8753555771, "lat": 33.6619295, "lon": 35.7419419, "tags": {"amenity": "restaurant", "name": "snack samir"}}, {"type": "node", "id": 8753555772, "lat": 33.6642971, "lon": 35.7440864, "tags": {"amenity": "restaurant", "name": "fish food takeaway"}}, {"type": "node", "id": 8753555776, "lat": 33.6283275, "lon": 35.7909003, "tags": {"amenity": "restaurant", "name": "in-out snack"}}, {"type": "node", "id": 8753555782, "lat": 33.627319, "lon": 35.7864001, "tags": {"amenity": "cafe", "name": "HOOKAH"}}, {"type": "node", "id": 8753555786, "lat": 33.6269026, "lon": 35.7846666, "tags": {"amenity": "cafe", "name": "queens cafe"}}, {"type": "node", "id": 8753555790, "lat": 33.6254315, "lon": 35.781822, "tags": {"amenity": "restaurant", "name": "chef hosny jj"}}, {"type": "node", "id": 8753555799, "lat": 33.6225909, "lon": 35.7765439, "tags": {"amenity": "restaurant", "name": "saj bakery"}}, {"type": "node", "id": 8753555800, "lat": 33.6222486, "lon": 35.7759217, "tags": {"amenity": "cafe", "name": "cafe youniss"}}, {"type": "node", "id": 8815741343, "lat": 33.7845928, "lon": 35.4764504, "tags": {"amenity": "restaurant", "contact:phone": "+9615807800", "cuisine": "sushi;soupe;sandwich", "diet:meat": "yes", "name": "19 Restaurant", "opening_hours": "Mo-Su 09:00-00:00"}}, {"type": "node", "id": 8890288022, "lat": 33.8180975, "lon": 35.5660098}, {"type": "node", "id": 8890288023, "lat": 33.8181176, "lon": 35.5660634}, {"type": "node", "id": 8890288024, "lat": 33.8181064, "lon": 35.5660956}, {"type": "node", "id": 8890288025, "lat": 33.8180619, "lon": 35.5661305}, {"type": "node", "id": 8890288026, "lat": 33.8180084, "lon": 35.5659964}, {"type": "node", "id": 8890288027, "lat": 33.8179883, "lon": 35.5658811}, {"type": "node", "id": 9029779764, "lat": 33.5815791, "lon": 35.3850818}, {"type": "node", "id": 9029779765, "lat": 33.5814637, "lon": 35.3850602}, {"type": "node", "id": 9029779766, "lat": 33.5814435, "lon": 35.3852163}, {"type": "node", "id": 9029779767, "lat": 33.581559, "lon": 35.3852377}, {"type": "node", "id": 9029779768, "lat": 33.5817122, "lon": 35.385141}, {"type": "node", "id": 9029779769, "lat": 33.5815739, "lon": 35.3851165}, {"type": "node", "id": 9029779770, "lat": 33.5816973, "lon": 35.3852622}, {"type": "node", "id": 9029779796, "lat": 33.5801247, "lon": 35.3864312}, {"type": "node", "id": 9029779797, "lat": 33.5801292, "lon": 35.3863473}, {"type": "node", "id": 9029779798, "lat": 33.580211, "lon": 35.3864399}, {"type": "node", "id": 9029779799, "lat": 33.5802165, "lon": 35.3863533}, {"type": "node", "id": 9029779802, "lat": 33.5802153, "lon": 35.3863717}, {"type": "node", "id": 9029779803, "lat": 33.5801593, "lon": 35.3863481}, {"type": "node", "id": 9116699893, "lat": 33.7911113, "lon": 35.8208228, "tags": {"amenity": "cafe"}}, {"type": "node", "id": 9116699899, "lat": 33.7907341, "lon": 35.821351, "tags": {"amenity": "cafe"}}, {"type": "node", "id": 9116699907, "lat": 33.7912449, "lon": 35.8213611, "tags": {"amenity": "cafe"}}, {"type": "node", "id": 9116705920, "lat": 33.7914747, "lon": 35.8235683, "tags": {"amenity": "cafe"}}, {"type": "node", "id": 9134910288, "lat": 33.6806882, "lon": 35.5732231, "tags": {"amenity": "restaurant", "name": "The Restaurant"}}, {"type": "node", "id": 9135934848, "lat": 33.6860472, "lon": 35.5779304, "tags": {"amenity": "cafe", "name": "Shouf Cafe"}}, {"type": "node", "id": 9135956557, "lat": 33.6835576, "lon": 35.5741378, "tags": {"amenity": "restaurant", "name": "Fred's Food"}}, {"type": "node", "id": 9135961034, "lat": 33.6712502, "lon": 35.5986945, "tags": {"amenity": "restaurant", "name": "Shawarma Kareem"}}, {"type": "node", "id": 9147805999, "lat": 33.4480834, "lon": 35.2912894, "tags": {"amenity": "restaurant", "cuisine": "pizza;coffee_shop;sandwich", "diet:halal": "yes", "name": "\u0645\u0637\u0639\u0645 \u0646\u0633\u0645\u0629 \u0647\u0648\u0627"}}, {"type": "node", "id": 9147806002, "lat": 33.452942, "lon": 35.2843715, "tags": {"amenity": "restaurant", "diet:halal": "yes", "name": "\u0645\u0637\u0639\u0645 \u0627\u0644\u0627\u0645\u0628\u0631\u0627\u0637\u0648\u0631"}}, {"type": "node", "id": 9169596218, "lat": 33.565606, "lon": 35.3710136, "tags": {"amenity": "restaurant", "name": "\u0645\u0637\u0639\u0645 \u0627\u0628\u0648 \u0627\u0644\u0639\u0628\u062f \u0635\u064a\u062f\u0627"}}, {"type": "node", "id": 9180849307, "lat": 33.5953953, "lon": 35.6240499, "tags": {"amenity": "restaurant", "name": "Faten"}}, {"type": "node", "id": 9180879622, "lat": 33.5826101, "lon": 35.6211287, "tags": {"amenity": "cafe"}}, {"type": "node", "id": 9180879651, "lat": 33.6049556, "lon": 35.6161054, "tags": {"amenity": "restaurant"}}, {"type": "node", "id": 9214828528, "lat": 33.4534691, "lon": 35.2849019}, {"type": "node", "id": 9214828529, "lat": 33.4536058, "lon": 35.2850183}, {"type": "node", "id": 9214828530, "lat": 33.4534963, "lon": 35.285203}, {"type": "node", "id": 9214828531, "lat": 33.4533596, "lon": 35.2850866}, {"type": "node", "id": 9214828544, "lat": 33.4468278, "lon": 35.2759033}, {"type": "node", "id": 9214828545, "lat": 33.4466956, "lon": 35.2763326}, {"type": "node", "id": 9214828546, "lat": 33.4460772, "lon": 35.2759697}, {"type": "node", "id": 9214828547, "lat": 33.4462094, "lon": 35.2756375}, {"type": "node", "id": 9294339797, "lat": 33.4494799, "lon": 35.3061821, "tags": {"amenity": "restaurant", "name": "\u0645\u0637\u0639\u0645 \u063a\u0627\u0631\u062f\u064a\u0646\u064a\u0627", "name:ar": "\u0645\u0637\u0639\u0645 \u063a\u0627\u0631\u062f\u064a\u0646\u064a\u0627", "name:fr": "Restaurant Gard\u00e9nia"}}, {"type": "node", "id": 9294354421, "lat": 33.4522694, "lon": 35.2838555, "tags": {"amenity": "restaurant", "name": "\u0645\u0644\u0643  \u0627\u0644\u0628\u064a\u062a\u0632\u0627"}}, {"type": "node", "id": 9294354424, "lat": 33.4557076, "lon": 35.2860539, "tags": {"amenity": "restaurant", "name": "\u0645\u0637\u0639\u0645 \u062e\u0644\u064a\u0641\u0629"}}, {"type": "node", "id": 9294354427, "lat": 33.4602369, "lon": 35.2909356, "tags": {"amenity": "restaurant", "name": "\u0645\u062d\u0644 \u0645\u0646\u0627\u0642\u064a\u0634 \u0627\u0644\u0637\u0627\u0628\u0648\u0646\u0629"}}, {"type": "node", "id": 9609070540, "lat": 33.7977605, "lon": 35.8227666, "tags": {"amenity": "restaurant", "contact:mobile": "+961 70 168 863", "cuisine": "lebanese", "name": "Domaine de Chouch\u00e8ne"}}, {"type": "node", "id": 9610341473, "lat": 33.7433029, "lon": 35.455811}, {"type": "node", "id": 9610341474, "lat": 33.743281, "lon": 35.4559379}, {"type": "node", "id": 9610341475, "lat": 33.7434431, "lon": 35.4558459}, {"type": "node", "id": 9610341476, "lat": 33.7434212, "lon": 35.4559728}, {"type": "node", "id": 9610341495, "lat": 33.7432573, "lon": 35.4562834}, {"type": "node", "id": 9610341496, "lat": 33.7432347, "lon": 35.4564232}, {"type": "node", "id": 9610341497, "lat": 33.743346, "lon": 35.4564493}, {"type": "node", "id": 9610341498, "lat": 33.7433686, "lon": 35.4563095}, {"type": "node", "id": 9646961352, "lat": 33.6780398, "lon": 35.5588502, "tags": {"amenity": "cafe", "name": "Dany's Bakery"}}, {"type": "node", "id": 9646979761, "lat": 33.6796344, "lon": 35.5569876, "tags": {"amenity": "restaurant", "cuisine": "breakfast", "name": "Fakhreddine Breakfast"}}, {"type": "node", "id": 9649525760, "lat": 33.8100329, "lon": 35.5490483}, {"type": "node", "id": 9649525761, "lat": 33.8100164, "lon": 35.5490347}, {"type": "node", "id": 9660589328, "lat": 33.7060694, "lon": 35.5997693}, {"type": "node", "id": 9663301586, "lat": 33.6961126, "lon": 35.585842}, {"type": "node", "id": 9663301587, "lat": 33.6962577, "lon": 35.5856301}, {"type": "node", "id": 9663301588, "lat": 33.6962164, "lon": 35.5856368}, {"type": "node", "id": 9663301589, "lat": 33.6961316, "lon": 35.5858098}, {"type": "node", "id": 9663301610, "lat": 33.6949446, "lon": 35.5808825}, {"type": "node", "id": 9663303649, "lat": 33.6962845, "lon": 35.5858447}, {"type": "node", "id": 9690068561, "lat": 33.8004442, "lon": 35.5562083}, {"type": "node", "id": 9692226777, "lat": 33.7429771, "lon": 35.6300206}, {"type": "node", "id": 9692226778, "lat": 33.7429455, "lon": 35.6300538}, {"type": "node", "id": 9692226779, "lat": 33.7428524, "lon": 35.6301348}, {"type": "node", "id": 9692226780, "lat": 33.7428329, "lon": 35.6301552}, {"type": "node", "id": 9703974334, "lat": 33.5668453, "lon": 35.3719103}, {"type": "node", "id": 9703974335, "lat": 33.5667425, "lon": 35.3722081}, {"type": "node", "id": 9703974336, "lat": 33.566624, "lon": 35.3723408}, {"type": "node", "id": 9703974337, "lat": 33.5663547, "lon": 35.3724039}, {"type": "node", "id": 9703974338, "lat": 33.5663257, "lon": 35.3720713}, {"type": "node", "id": 9703974339, "lat": 33.5666777, "lon": 35.3720109}, {"type": "node", "id": 9703974340, "lat": 33.5667324, "lon": 35.3718607}, {"type": "node", "id": 9730771033, "lat": 33.8163375, "lon": 35.6227919}, {"type": "node", "id": 9730771034, "lat": 33.8164138, "lon": 35.6228098}, {"type": "node", "id": 9742031924, "lat": 33.6837578, "lon": 35.5859576}, {"type": "node", "id": 9742031925, "lat": 33.683856, "lon": 35.5860909}, {"type": "node", "id": 9742031926, "lat": 33.6836742, "lon": 35.5862844}, {"type": "node", "id": 9742031927, "lat": 33.683576, "lon": 35.5861511}, {"type": "node", "id": 10591714589, "lat": 33.7048273, "lon": 35.5779384, "tags": {"amenity": "restaurant", "contact:email": "info@beitelqamar.com", "contact:phone": "+9615511722", "cuisine": "lebanese", "name": "Tawlet Beit El Qamar", "name:en": "Tawlet Beit El Qamar", "toilets": "yes"}}, {"type": "node", "id": 11065762328, "lat": 33.519766, "lon": 35.3580634}, {"type": "node", "id": 11065762329, "lat": 33.5198398, "lon": 35.3580943}, {"type": "node", "id": 11127190257, "lat": 33.6905713, "lon": 35.5277424}, {"type": "node", "id": 11127190258, "lat": 33.6904902, "lon": 35.5277861}, {"type": "node", "id": 11127190259, "lat": 33.6905234, "lon": 35.5278322}, {"type": "node", "id": 11143227297, "lat": 33.6793333, "lon": 35.5581313}, {"type": "node", "id": 11143227298, "lat": 33.6792376, "lon": 35.5581111}, {"type": "node", "id": 11153176780, "lat": 33.5925459, "lon": 35.3878253}, {"type": "node", "id": 11153176781, "lat": 33.5925298, "lon": 35.3878846}, {"type": "node", "id": 11180962138, "lat": 33.5656575, "lon": 35.3717277, "tags": {"amenity": "restaurant", "name:en": "Falafel Abou Rami"}}, {"type": "node", "id": 11314455382, "lat": 33.5686674, "lon": 35.3923818, "tags": {"amenity": "cafe", "cafe": "board_game", "contact:instagram": "dicecafelb", "name": "Dice Caf\u00e9"}}, {"type": "node", "id": 11469045137, "lat": 33.8163443, "lon": 35.6228719}, {"type": "node", "id": 11469045138, "lat": 33.8163414, "lon": 35.6228902}, {"type": "node", "id": 11602931872, "lat": 33.575517, "lon": 35.381588, "tags": {"amenity": "restaurant", "name:en": "\u0645\u0637\u0639\u0645 \u0627\u0644\u0645\u062d\u0637\u0629"}}, {"type": "node", "id": 11630473842, "lat": 33.8004198, "lon": 35.5561518}, {"type": "node", "id": 11652514554, "lat": 33.6408661, "lon": 35.7192564}, {"type": "node", "id": 11652514555, "lat": 33.6408366, "lon": 35.7192445}, {"type": "node", "id": 11652514556, "lat": 33.6408699, "lon": 35.7191246}, {"type": "node", "id": 11652524525, "lat": 33.6406144, "lon": 35.7186247}, {"type": "node", "id": 11652524526, "lat": 33.640658, "lon": 35.7186609}, {"type": "node", "id": 12070471469, "lat": 33.6980513, "lon": 35.5635117, "tags": {"amenity": "cafe", "contact:phone": "+9615505810", "contact:website": "https://linktr.ee/fenetre_cafe", "cuisine": "coffee_shop;crepe;noodles;savory_pancakes;tea", "internet_access": "wlan", "name": "Fen\u00eatre Caf\u00e9", "opening_hours": "Mo-Sa 09:00-23:00", "outdoor_seating": "yes", "website:menu": "https://drive.proton.me/urls/HYTHPWCDTC#byM19FdwxK4M"}}, {"type": "node", "id": 12071246655, "lat": 33.6978564, "lon": 35.5613047, "tags": {"amenity": "cafe", "internet_access": "no", "name": "3al Sari3 W Cafe", "outdoor_seating": "no"}}, {"type": "node", "id": 12076952227, "lat": 33.6982123, "lon": 35.5635855, "tags": {"amenity": "cafe", "cuisine": "coffee_shop;sandwich", "internet_access": "wlan", "name": "LUDO Board Game Cafe", "outdoor_seating": "yes", "payment:cash": "yes", "wheelchair": "no"}}, {"type": "node", "id": 12077027630, "lat": 33.6981483, "lon": 35.5639035, "tags": {"amenity": "restaurant", "cuisine": "regional;sandwich;chicken;american;lebanese;salad", "delivery": "yes", "name": "La2met Em"}}, {"type": "node", "id": 12077040126, "lat": 33.6981553, "lon": 35.5640146, "tags": {"amenity": "restaurant", "cuisine": "coffee_shop;lebanese;sandwich", "name": "Moon Cafe", "outdoor_seating": "yes"}}, {"type": "node", "id": 12077043382, "lat": 33.6981912, "lon": 35.564502, "tags": {"amenity": "restaurant", "cuisine": "sandwich;lebanese", "name": "Portico"}}, {"type": "node", "id": 12077053115, "lat": 33.6981891, "lon": 35.5644342, "tags": {"amenity": "restaurant", "cuisine": "sandwich;chicken", "name": "Shish W Lahme"}}, {"type": "node", "id": 12133664083, "lat": 33.6978788, "lon": 35.5638419, "tags": {"amenity": "cafe", "cuisine": "coffee_shop", "name": "Koub", "outdoor_seating": "yes"}}, {"type": "node", "id": 12133669749, "lat": 33.6978771, "lon": 35.563805, "tags": {"air_conditioning": "no", "amenity": "cafe", "cuisine": "coffee_shop;pizza", "name": "Azaleas Coffee & More", "outdoor_seating": "yes", "website": "https://www.instagram.com/azaleas.lb/"}}, {"type": "node", "id": 12133697681, "lat": 33.6956911, "lon": 35.5533547, "tags": {"amenity": "restaurant", "cuisine": "sushi", "name": "Kokoro"}}, {"type": "node", "id": 12133703407, "lat": 33.6975446, "lon": 35.5565863, "tags": {"amenity": "cafe", "internet_access": "no", "name": "Eight Sports Cafe", "outdoor_seating": "yes"}}, {"type": "node", "id": 12133730195, "lat": 33.6998328, "lon": 35.5489871, "tags": {"amenity": "restaurant", "name": "Bacha Resort", "sport": "swimming"}}, {"type": "node", "id": 12151894009, "lat": 33.6975882, "lon": 35.5650824, "tags": {"amenity": "restaurant", "name": "Serail Al Beik"}}, {"type": "node", "id": 12722709301, "lat": 33.798708, "lon": 35.486902, "tags": {"addr:street": "\u0623\u062a\u0633\u062a\u0631\u0627\u062f \u0627\u0644\u0628\u062d\u0631", "amenity": "restaurant", "contact:mobile": "+96171266380", "cuisine": "chicken;grill;sandwich", "name": "\u0623\u062d\u0645\u062f \u0627\u0644\u0639\u0628\u062f\u0627\u0644\u0644\u0647", "name:en": "Ahmad AlAbdallah Chicken", "opening_hours": "Mo-Su 11:30-00:00", "self_service": "no", "website": "https://ahmadalabdalla.com/", "website:menu": "https://ahmadalabdalla.com/word/menu.php"}}, {"type": "node", "id": 12793959189, "lat": 33.7082368, "lon": 35.6748021, "tags": {"amenity": "restaurant", "cuisine": "lebanese", "name": "Baytna", "website": "baytna.info"}}, {"type": "node", "id": 12828272901, "lat": 33.8029041, "lon": 35.5883804, "tags": {"addr:street": "\u0634\u0627\u0631\u0639 \u0628\u062f\u0627\u062f\u0648\u0646 \u0627\u0644\u0631\u0626\u064a\u0633\u064a", "amenity": "restaurant", "contact:mobile": "+961\u200e3682186", "name": "Mini Kitchen", "name:en": "Mini Kitchen", "website:menu": "https://rest.thrubits.com/restaurant/mini-kitchen"}}, {"type": "node", "id": 12882637976, "lat": 33.5599956, "lon": 35.3776955, "tags": {"amenity": "restaurant", "level": "1", "name": "Al-Amir Rashed", "wheelchair": "no"}}, {"type": "node", "id": 12882637999, "lat": 33.5560949, "lon": 35.3705494, "tags": {"amenity": "cafe", "changing_table": "no", "indoor_seating": "yes", "name": "\u0627\u0644\u0628\u0632\u0631\u064a", "takeaway": "no"}}, {"type": "node", "id": 12882672500, "lat": 33.5569154, "lon": 35.3713718}, {"type": "node", "id": 12882678307, "lat": 33.561845, "lon": 35.3729548, "tags": {"amenity": "cafe"}}, {"type": "node", "id": 12882687707, "lat": 33.5569123, "lon": 35.3713312}, {"type": "node", "id": 12882828233, "lat": 33.5574787, "lon": 35.3733025}, {"type": "node", "id": 12882828251, "lat": 33.5575793, "lon": 35.373187}, {"type": "node", "id": 12882828282, "lat": 33.5576062, "lon": 35.373175}, {"type": "node", "id": 12882828293, "lat": 33.5574679, "lon": 35.3730907}, {"type": "node", "id": 12882832909, "lat": 33.5574334, "lon": 35.3731568}, {"type": "node", "id": 12882832967, "lat": 33.5575663, "lon": 35.3730466}, {"type": "node", "id": 12882833016, "lat": 33.5574818, "lon": 35.3731352}, {"type": "node", "id": 12882833022, "lat": 33.5575986, "lon": 35.3732489}, {"type": "node", "id": 12882833116, "lat": 33.5568981, "lon": 35.3713574}, {"type": "node", "id": 12882833279, "lat": 33.5569319, "lon": 35.3713452}, {"type": "way", "id": 98531156, "nodes": [1888098331, 1139894219, 1139893421, 1139893990, 1139894334, 1888098331], "tags": {"amenity": "restaurant", "building": "yes", "name": "\u0645\u0637\u0639\u0645 \u0627\u0644\u0630\u0648\u0627\u062a", "name:ar": "\u0645\u0637\u0639\u0645 \u0627\u0644\u0630\u0648\u0627\u062a"}}, {"type": "way", "id": 303038420, "nodes": [3073304340, 3073304341, 9692226780, 9692226779, 3073304342, 3073304343, 9692226778, 9692226777, 3073304340], "tags": {"amenity": "restaurant", "building": "yes", "name": "central"}}, {"type": "way", "id": 303362788, "nodes": [3077164618, 3077164619, 3077164620, 3077164621, 3077164622, 3077164623, 3077164624, 3077164625, 3077164626, 3077164618], "tags": {"amenity": "restaurant", "building": "yes", "name": "\u0645\u0637\u0639\u0645 \u0628\u064a\u062a \u062c\u062f\u064a", "name:ar": "\u0645\u0637\u0639\u0645 \u0628\u064a\u062a \u062c\u062f\u064a", "name:en": "beit jidde bsaba"}}, {"type": "way", "id": 306477897, "nodes": [3114238755, 3114238757, 6956249803, 6956249804, 3114238759, 3114238762, 3114238755], "tags": {"amenity": "restaurant", "building": "yes", "name": "Jalsit Abo Michel"}}, {"type": "way", "id": 308917559, "nodes": [3142022079, 9649525761, 9649525760, 3142022080, 3142022081, 3142022082, 3142022079], "tags": {"amenity": "restaurant", "building": "yes"}}, {"type": "way", "id": 311426997, "nodes": [3170700051, 3170700052, 3170700053, 9690068561, 11630473842, 3170700054, 3170700051], "tags": {"amenity": "restaurant", "building": "yes", "name": "kasr el siyaha", "name:en": "kasr el siyaha"}}, {"type": "way", "id": 313966243, "nodes": [3200085696, 3200085697, 3200085698, 3200085702, 3200085696], "tags": {"amenity": "restaurant", "building": "yes"}}, {"type": "way", "id": 519077092, "nodes": [5062120576, 5062120577, 5062120578, 5062120579, 5062120576], "tags": {"amenity": "restaurant", "building": "yes", "internet_access": "wlan", "name": "\u0645\u0637\u0639\u0645 \u0645\u0646\u062a\u0634\u064a\u0632", "name:ar": "\u0645\u0637\u0639\u0645 \u0645\u0646\u062a\u0634\u064a\u0632", "name:en": "Restaurant Munchease", "name:fr": "Restaurant Munchease"}}, {"type": "way", "id": 641596273, "nodes": [6041879902, 6041879903, 6041879904, 6041879905, 6041879906, 6041879902], "tags": {"addr:city": "Jezzine", "addr:postcode": "1623", "addr:street": "Homsieh Main Road Saida Jezzine", "amenity": "restaurant", "building": "yes", "capacity": "150", "contact:facebook": "https://www.facebook.com/AbouAtaya/", "cuisine": "barbecue;kebab;burger;pizza;sandwich", "delivery": "yes", "diet:vegetarian": "yes", "drink:beer": "served", "drink:coffee": "served", "email": "lexonet@gmail.com", "name": "Abou Ataya Restaurant", "name:en": "Abou Ataya Restaurant", "opening_hours": "12:00-24:00", "outdoor_seating": "yes", "smoking": "yes", "takeaway": "yes"}}, {"type": "way", "id": 735008645, "nodes": [6883771338, 6883771339, 6883771340, 6883771341, 6883771342, 6883771343, 6883771344, 6883771345, 8045136304, 6883771346, 6883771338], "tags": {"amenity": "restaurant", "building": "yes", "name": "In Diner"}}, {"type": "way", "id": 735008650, "nodes": [6883771387, 6883771388, 6883771389, 6883754852, 6883754853, 6883771390, 6883771387], "tags": {"amenity": "restaurant", "building": "yes", "name": "Shawarma Bassem"}}, {"type": "way", "id": 735157162, "nodes": [6885347205, 6885347206, 6885347207, 6885347208, 6885347205], "tags": {"amenity": "restaurant", "building": "yes", "name": "Tarabish Pastry"}}, {"type": "way", "id": 735291237, "nodes": [6886781790, 6900330233, 6900330234, 6886781789, 6886781788, 6886781787, 6886781790], "tags": {"amenity": "restaurant", "building": "yes", "name": "Elysee Sweet 2"}}, {"type": "way", "id": 737030079, "nodes": [6900273398, 6900273395, 6900273396, 6900273397, 6900273398], "tags": {"amenity": "restaurant", "building": "yes", "name": "Forn Jebneh w Zbedeh"}}, {"type": "way", "id": 737037224, "nodes": [6900330206, 6900330203, 6900330204, 6900330205, 7935858791, 6900330206], "tags": {"amenity": "restaurant", "building": "yes", "name": "Aklet Samak"}}, {"type": "way", "id": 764250411, "nodes": [7139935563, 7139935562, 7139935561, 7139935560, 7139935563], "tags": {"amenity": "restaurant", "building": "yes", "cuisine": "pizza"}}, {"type": "way", "id": 764250460, "nodes": [7139935780, 7139935779, 7139935778, 7139935777, 7139935780], "tags": {"amenity": "restaurant", "building": "yes"}}, {"type": "way", "id": 766677324, "nodes": [7160464012, 7160464011, 7160464010, 7160464009, 7160464012], "tags": {"amenity": "cafe", "building": "yes", "name": "Matte Factory Cafe"}}, {"type": "way", "id": 766678943, "nodes": [7160455338, 7160455336, 7160455335, 7160455334, 7160455333, 7160455338], "tags": {"addr:city": "\u0639\u0627\u0644\u064a\u0647", "addr:city:ar": "\u0639\u0627\u0644\u064a\u0647", "amenity": "cafe", "building": "yes", "name": "\u0645\u0642\u0647\u0649 \u0639\u0627\u0644\u064a\u0647", "name:ar": "\u0645\u0642\u0647\u0649 \u0639\u0627\u0644\u064a\u0647", "name:en": "Aley Cafe"}}, {"type": "way", "id": 796507701, "nodes": [7449286927, 7449286928, 9730771033, 9730771034, 7449286929, 11469045137, 11469045138, 7449286930, 7449286927], "tags": {"amenity": "restaurant", "building": "yes"}}, {"type": "way", "id": 798537019, "nodes": [7468590734, 7468590735, 7468590736, 7468590737, 7468590734], "tags": {"amenity": "restaurant", "building": "yes", "name": "Roy", "name:en": "Roy"}}, {"type": "way", "id": 798537021, "nodes": [7468590745, 7468590746, 7468590747, 7468590748, 7468590745], "tags": {"amenity": "restaurant", "building": "yes", "name": "Qahwet El Souq", "name:en": "Qahwet El Souq", "name:fr": "Qahwet El Souq"}}, {"type": "way", "id": 798537025, "nodes": [11143227298, 11143227297, 7468590766, 7468590767, 7468590768, 11143227298], "tags": {"amenity": "restaurant", "building": "yes", "name": "Basho's Grill"}}, {"type": "way", "id": 798537030, "nodes": [7468611490, 7468611491, 7468611492, 7468611493, 7468611490], "tags": {"amenity": "restaurant", "building": "yes", "name": "Snack Attack", "name:en": "Snack Attack"}}, {"type": "way", "id": 798537037, "nodes": [7468611527, 7468611528, 7468611529, 7468611530, 7468611527], "tags": {"amenity": "restaurant", "building": "yes", "name": "Saj Cafe"}}, {"type": "way", "id": 798537059, "nodes": [7468611638, 7468611639, 7468611640, 7468611641, 7468611638], "tags": {"amenity": "restaurant", "building": "yes", "name": "Dip N Dip"}}, {"type": "way", "id": 798537063, "nodes": [7468611658, 7468611659, 7468611660, 7468611661, 7468611658], "tags": {"amenity": "restaurant", "building": "yes", "name": "Al Masaya"}}, {"type": "way", "id": 798537064, "nodes": [7468611663, 7468611664, 7468611665, 7468611666, 7468611663], "tags": {"amenity": "restaurant", "building": "yes", "name": "JO's House of Subs"}}, {"type": "way", "id": 798537065, "nodes": [7468611668, 7468611669, 7468611670, 7468611671, 7468611668], "tags": {"amenity": "restaurant", "building": "yes", "name": "Jebne W Zebde"}}, {"type": "way", "id": 798537066, "nodes": [7468611673, 7468611674, 7468611675, 7468611676, 7468611673], "tags": {"amenity": "restaurant", "building": "yes", "name": "Sushi Bell"}}, {"type": "way", "id": 798537069, "nodes": [7468611688, 7468611689, 7468611690, 7468611691, 7468611688], "tags": {"amenity": "restaurant", "building": "yes", "name": "Pizza Way"}}, {"type": "way", "id": 798537073, "nodes": [7468611708, 7468611709, 7468611710, 7468611711, 7468611708], "tags": {"amenity": "restaurant", "building": "yes", "name": "Shisha Time"}}, {"type": "way", "id": 798537086, "nodes": [7468611773, 7468611774, 7468611775, 7468611776, 7468611773], "tags": {"amenity": "restaurant", "building": "yes", "name": "SnackWay"}}, {"type": "way", "id": 798537097, "nodes": [7468611831, 7468611832, 7468611833, 7468611834, 7468611831], "tags": {"amenity": "restaurant", "building": "yes", "name": "New Garbatella"}}, {"type": "way", "id": 798537100, "nodes": [7468611846, 7468611847, 7468611848, 7468611849, 7468611846], "tags": {"amenity": "restaurant", "building": "yes", "name": "Maestro"}}, {"type": "way", "id": 798537102, "nodes": [7468611856, 7468611857, 7468611858, 7468611859, 7468611856], "tags": {"amenity": "restaurant", "building": "yes", "name": "Rayan Palace"}}, {"type": "way", "id": 798537104, "nodes": [7468611869, 7468611870, 7468611871, 7468611872, 7468611869], "tags": {"amenity": "restaurant", "building": "yes", "name": "Shouf Paradise"}}, {"type": "way", "id": 798537105, "nodes": [7468611874, 7468611875, 7468611876, 7468611877, 7468611874], "tags": {"amenity": "restaurant", "building": "yes", "name": "Verona Resto"}}, {"type": "way", "id": 809260296, "nodes": [7566856652, 7566856653, 7566856654, 7566856655, 7566856652], "tags": {"amenity": "restaurant", "building": "yes"}}, {"type": "way", "id": 809260297, "nodes": [7566856656, 7566856657, 7566856658, 7566856659, 7566856660, 7566856661, 7566856656], "tags": {"amenity": "cafe", "building": "yes", "name": "Cafe and restaurant"}}, {"type": "way", "id": 809260298, "nodes": [7566856662, 7566856663, 7566856664, 7566856665, 7566856662], "tags": {"amenity": "cafe", "building": "yes"}}, {"type": "way", "id": 809260299, "nodes": [7566856666, 7566856667, 7566856668, 7566856669, 7566856666], "tags": {"amenity": "cafe", "building": "yes", "name": "Capri cafe"}}, {"type": "way", "id": 809260301, "nodes": [7566856674, 7566856675, 7566856676, 7566856677, 7566856674], "tags": {"amenity": "cafe", "building": "yes", "name": "Aley Cafe"}}, {"type": "way", "id": 809260321, "nodes": [7566866066, 7566866067, 7566866068, 7566866069, 7566866066], "tags": {"amenity": "cafe", "building": "yes"}}, {"type": "way", "id": 809260341, "nodes": [7566866158, 7566866159, 7566866160, 7566866161, 7566866158], "tags": {"amenity": "restaurant", "building": "yes", "name": "Donna Burger"}}, {"type": "way", "id": 809308040, "nodes": [7567280668, 7567280669, 7567280670, 7567280671, 7567280668], "tags": {"amenity": "restaurant", "building": "yes", "name": "\u062c\u0627\u062a\u0648 \u0627\u0644\u062c\u0628\u0646", "name:ar": "\u062c\u0627\u062a\u0648 \u0627\u0644\u062c\u0628\u0646", "name:en": "Cheese cake", "name:fr": "G\u00e2teau au fromage"}}, {"type": "way", "id": 850258114, "nodes": [7932392201, 7932392202, 7932392203, 7932392204, 7932392205, 7932392206, 7932392207, 7932392208, 7932392201], "tags": {"amenity": "restaurant", "building": "yes"}}, {"type": "way", "id": 850669092, "nodes": [7935850740, 7935850741, 7935850742, 9663301610, 7935850743, 7935850744, 7935850740], "tags": {"amenity": "cafe", "building": "yes", "name": "Caf\u00e9 Cr\u00e8me", "name:fr": "Caf\u00e9 Cr\u00e8me"}}, {"type": "way", "id": 850669095, "nodes": [7935850756, 7935850757, 7935850758, 7935850759, 7935850756], "tags": {"amenity": "restaurant", "building": "yes", "name": "Queen Snack"}}, {"type": "way", "id": 850669099, "nodes": [7935850780, 7935850781, 7935850782, 7935850783, 7935850780], "tags": {"amenity": "restaurant", "building": "yes", "name": "Al Hatemia"}}, {"type": "way", "id": 850669100, "nodes": [7935858585, 9663301588, 9663301587, 9663303649, 7935858586, 7935858587, 9663301586, 9663301589, 7935858588, 7935858585], "tags": {"amenity": "restaurant", "building": "yes", "name": "Diwan Al Farah", "name:en": "Diwan Al Farah"}}, {"type": "way", "id": 850669110, "nodes": [7935858635, 7935858636, 7935858637, 9660589328, 7935858635], "tags": {"amenity": "restaurant", "building": "yes", "name": "Talet shkeef"}}, {"type": "way", "id": 850669112, "nodes": [7935858646, 7935858647, 7935858648, 7935858649, 7935858646], "tags": {"amenity": "restaurant", "building": "yes", "name": "\u0627\u0644\u0643\u0648\u0631\u0629", "name:ar": "\u0627\u0644\u0643\u0648\u0631\u0629", "name:en": "Coara", "name:fr": "Coara"}}, {"type": "way", "id": 850669132, "nodes": [7935858748, 11127190257, 7935858752, 7935858749, 7935858750, 7935858751, 11127190259, 11127190258, 7935858748], "tags": {"amenity": "restaurant", "building": "yes", "name": "Saj eel set"}}, {"type": "way", "id": 858209841, "nodes": [8000571054, 8000571055, 8000571056, 8000571057, 8000571054], "tags": {"amenity": "restaurant", "building": "yes"}}, {"type": "way", "id": 858209842, "nodes": [8000571058, 8000571059, 11153176780, 11153176781, 8000571060, 8000571061, 8000571058], "tags": {"amenity": "restaurant", "building": "yes"}}, {"type": "way", "id": 858209843, "nodes": [8000571062, 8000571063, 8000571064, 8000571065, 8000571062], "tags": {"amenity": "restaurant", "building": "yes"}}, {"type": "way", "id": 860734836, "nodes": [8022478160, 8022478161, 8022478162, 8022478163, 8022478160], "tags": {"amenity": "restaurant", "building": "yes", "name": "khater snack"}}, {"type": "way", "id": 860734839, "nodes": [8022478175, 11652524526, 11652524525, 8022478176, 8022478177, 8022478178, 8022478175], "tags": {"amenity": "restaurant", "building": "yes", "name": "gourmand"}}, {"type": "way", "id": 860734841, "nodes": [8022478184, 8022491885, 8022491886, 11652514554, 11652514555, 11652514556, 8022478184], "tags": {"amenity": "cafe", "building": "yes", "name": "Moura", "name:fr": "Moura"}}, {"type": "way", "id": 863622511, "nodes": [8045135502, 8045135503, 8045135504, 8045135505, 8045135502], "tags": {"amenity": "restaurant", "building": "yes", "name": "Al Jiser"}}, {"type": "way", "id": 863622513, "nodes": [8045135512, 8045135513, 8045135514, 8045135515, 8045135512], "tags": {"amenity": "restaurant", "building": "yes", "name": "Ahwet el Mokhtar"}}, {"type": "way", "id": 863622515, "nodes": [8045135522, 8045135523, 8045135524, 8045135525, 8045135522], "tags": {"amenity": "restaurant", "building": "yes", "name": "Nazl El Sourour"}}, {"type": "way", "id": 863622517, "nodes": [8045135532, 8045135533, 8045135534, 8045135535, 8045135532], "tags": {"amenity": "restaurant", "building": "yes", "name": "The Center Bakery"}}, {"type": "way", "id": 863622518, "nodes": [8045135537, 8045135538, 8045135539, 8045135540, 8045135537], "tags": {"amenity": "restaurant", "building": "yes", "name": "Rima's Concon et Bonbon"}}, {"type": "way", "id": 863622519, "nodes": [8045135542, 8045135543, 8045135544, 8045135545, 8045135542], "tags": {"amenity": "cafe", "building": "yes", "name": "Pool View"}}, {"type": "way", "id": 863622522, "nodes": [8045135557, 8045135558, 8045135559, 8045135560, 8045135557], "tags": {"amenity": "restaurant", "building": "yes", "name": "Forn Day3etna"}}, {"type": "way", "id": 863622533, "nodes": [8045136323, 8045136324, 8045136325, 8045136326, 8045136323], "tags": {"amenity": "restaurant", "building": "yes", "name": "Diwan Al Amira"}}, {"type": "way", "id": 863622536, "nodes": [8045136338, 8045136339, 8045136340, 8045136341, 8045136338], "tags": {"amenity": "restaurant", "building": "yes", "name": "Forn and Snack"}}, {"type": "way", "id": 863622537, "nodes": [8045136343, 8045136344, 8045136345, 8045136346, 8045136343], "tags": {"amenity": "restaurant", "building": "yes", "name": "Ein El Yasmin"}}, {"type": "way", "id": 863622538, "nodes": [8045136348, 8045136349, 8045136350, 8045136351, 8045136348], "tags": {"amenity": "restaurant", "building": "yes", "name": "GOOD FOOD"}}, {"type": "way", "id": 863622539, "nodes": [8045136353, 8045136354, 8045136355, 8045136356, 8045136353], "tags": {"amenity": "restaurant", "building": "yes", "name": "Wonderland"}}, {"type": "way", "id": 863622540, "nodes": [8045136358, 8045136359, 8045136360, 8045136361, 8045136358], "tags": {"amenity": "restaurant", "building": "yes", "name": "Ein el Yasmin"}}, {"type": "way", "id": 863622541, "nodes": [8045136363, 8045136364, 8045136365, 8045136366, 8045136363], "tags": {"amenity": "restaurant", "building": "yes", "name": "El rio"}}, {"type": "way", "id": 863622542, "nodes": [8045136368, 8045136369, 8045136370, 8045136371, 8045136368], "tags": {"amenity": "cafe", "building": "yes", "name": "La Riva"}}, {"type": "way", "id": 863622548, "nodes": [8045136398, 8045136399, 8045136400, 8045136401, 8045136398], "tags": {"amenity": "restaurant", "building": "yes", "name": "Jdodna Nahr el Hammam"}}, {"type": "way", "id": 887563797, "nodes": [8252121885, 8252121886, 8252121887, 8252121888, 8252121885], "tags": {"amenity": "restaurant", "building": "yes", "name": "Ikhlas Pastries"}}, {"type": "way", "id": 887563815, "nodes": [8252121979, 8252121980, 8252121981, 8252121982, 8252121979], "tags": {"amenity": "restaurant", "building": "yes", "name": "Abdullah"}}, {"type": "way", "id": 887563816, "nodes": [8252121984, 8252121985, 8252121986, 11065762328, 11065762329, 8252121987, 8252121984], "tags": {"amenity": "restaurant", "building": "yes", "name": "Al Rayiss Pizza"}}, {"type": "way", "id": 887563824, "nodes": [8252122024, 8252122025, 8252122026, 8252122027, 8252122024], "tags": {"amenity": "cafe", "building": "yes", "name": "Daw Al Qamar"}}, {"type": "way", "id": 887563825, "nodes": [8252122030, 8252122031, 8252122032, 8252122033, 8252122030], "tags": {"amenity": "restaurant", "building": "yes", "name": "Amwaj Al Bahar"}}, {"type": "way", "id": 887563828, "nodes": [8252122045, 8252122046, 8252122047, 8252122048, 8252122045], "tags": {"amenity": "restaurant", "building": "yes", "name": "Koo5 Al Saha"}}, {"type": "way", "id": 887563834, "nodes": [8252122076, 8252122077, 8252122078, 8252122079, 8252122076], "tags": {"amenity": "restaurant", "building": "yes", "name": "Abo Al Abbas"}}, {"type": "way", "id": 911345081, "nodes": [8462134936, 8462134937, 8462134938, 8462134939, 8462134936], "tags": {"amenity": "restaurant", "building": "yes", "name": "Jannat Al Nahryn"}}, {"type": "way", "id": 911345084, "nodes": [8462134950, 8462134951, 8462134952, 8462134953, 8462134950], "tags": {"amenity": "restaurant", "building": "yes", "name": "Sandwich Al SHaykh"}}, {"type": "way", "id": 911345099, "nodes": [8462141429, 8462141430, 8462141431, 8462141432, 8462141429], "tags": {"amenity": "restaurant", "building": "yes", "name": "Loz"}}, {"type": "way", "id": 911345104, "nodes": [8462141456, 8462141457, 8462141458, 8462141459, 8462141456], "tags": {"amenity": "restaurant", "building": "yes", "name": "Moulin Dor"}}, {"type": "way", "id": 961044528, "nodes": [8890288022, 8890288023, 8890288024, 8890288025, 8890288026, 8890288027, 8890288022], "tags": {"amenity": "restaurant", "building": "yes", "name": "Falafel Abou Kamil", "name:fr": "Falafel Abou Kamil"}}, {"type": "way", "id": 975803743, "nodes": [9029779764, 9029779765, 9029779766, 9029779767, 9029779769, 9029779764], "tags": {"amenity": "cafe", "building": "yes", "name": "C Cafe"}}, {"type": "way", "id": 975803744, "nodes": [9029779768, 9029779769, 9029779767, 9029779770, 9029779768], "tags": {"amenity": "restaurant", "building": "yes", "name": "Al-Arabi"}}, {"type": "way", "id": 975803751, "nodes": [9029779797, 9029779796, 9029779798, 9029779802, 9029779799, 9029779803, 9029779797], "tags": {"amenity": "cafe", "building": "yes", "name": "Nakib Cafe"}}, {"type": "way", "id": 997991282, "nodes": [9214828528, 9214828529, 9214828530, 9214828531, 9214828528], "tags": {"amenity": "restaurant", "building": "yes", "name": "Knock on wood"}}, {"type": "way", "id": 997991286, "nodes": [9214828544, 9214828545, 9214828546, 9214828547, 9214828544], "tags": {"amenity": "restaurant", "building": "yes", "name": "\u0645\u0637\u0639\u0645 \u0627\u0644\u0645\u0648\u0646\u0633"}}, {"type": "way", "id": 1044419742, "nodes": [9610341475, 9610341476, 9610341474, 9610341473, 9610341475], "tags": {"amenity": "restaurant", "building": "yes"}}, {"type": "way", "id": 1044419747, "nodes": [9610341495, 9610341496, 9610341497, 9610341498, 9610341495], "tags": {"amenity": "cafe", "building": "yes"}}, {"type": "way", "id": 1056086139, "nodes": [9703974340, 9703974339, 9703974338, 9703974337, 9703974336, 9703974335, 9703974334, 9703974340], "tags": {"addr:city": "\u0635\u064a\u062f\u0627", "addr:city:fr": "Sidon", "amenity": "restaurant", "contact:phone": "+961 7 722 469", "cuisine": "lebanese;seafood", "internet_access": "wlan", "name": "Saida Rest House", "name:en": "Saida Rest House", "opening_hours": "Mo-Su 09:00-24:00", "outdoor_seating": "yes"}}, {"type": "way", "id": 1060345263, "nodes": [9742031924, 9742031925, 9742031926, 9742031927, 9742031924], "tags": {"amenity": "restaurant", "building": "yes", "name": "Homemade Pizza"}}, {"type": "way", "id": 1391761185, "nodes": [12882828282, 12882828251, 12882833022, 12882828233, 12882832909, 12882833016, 12882828293, 12882832967, 12882828282], "tags": {"amenity": "restaurant", "building": "yes", "building:use": "foodservice", "level": "1", "name": "Fish House", "outdoor_seating": "yes"}}, {"type": "way", "id": 1391761267, "nodes": [12882833279, 12882672500, 12882833116, 12882687707, 12882833279], "tags": {"amenity": "cafe"}}]}