{"version": 0.6, "generator": "Overpass API 0.7.62.7 375dc00a", "osm3s": {"timestamp_osm_base": "2025-06-14T13:24:02Z", "copyright": "The data included in this document is from www.openstreetmap.org. The data is made available under ODbL."}, "elements": [{"type": "node", "id": 590910474, "lat": 40.8505695, "lon": 9.1529446, "tags": {"amenity": "restaurant", "name": "Albergo Vallicciola", "tourism": "hotel"}}, {"type": "node", "id": 722920233, "lat": 40.9186489, "lon": 8.7810248, "tags": {"amenity": "restaurant", "cuisine": "italian", "name": "La Locanda del Mare"}}, {"type": "node", "id": 722920361, "lat": 40.9256217, "lon": 8.8129695, "tags": {"amenity": "restaurant", "cuisine": "italian", "name": "Park Hotel"}}, {"type": "node", "id": 796427054, "lat": 41.0515242, "lon": 8.9389662, "tags": {"amenity": "restaurant"}}, {"type": "node", "id": 1389672606, "lat": 40.8516, "lon": 9.0661323}, {"type": "node", "id": 1389672607, "lat": 40.8515699, "lon": 9.0660697}, {"type": "node", "id": 1395408460, "lat": 40.8814018, "lon": 9.0531431, "tags": {"amenity": "restaurant"}}, {"type": "node", "id": 1581062143, "lat": 41.0553191, "lon": 9.005034, "tags": {"amenity": "cafe", "name": "Lu Colbu"}}, {"type": "node", "id": 1582458053, "lat": 40.9000361, "lon": 8.6809158, "tags": {"amenity": "cafe"}}, {"type": "node", "id": 1582460789, "lat": 40.9000929, "lon": 8.6810231, "tags": {"amenity": "restaurant", "name": "da Bore"}}, {"type": "node", "id": 1786292820, "lat": 40.9288071, "lon": 8.8051323, "tags": {"amenity": "restaurant", "cuisine": "italian", "name": "Il merlo indiano"}}, {"type": "node", "id": 1841819668, "lat": 40.9279303, "lon": 8.8233443, "tags": {"amenity": "restaurant", "cuisine": "italian", "name": "Rigoletto"}}, {"type": "node", "id": 1885880868, "lat": 40.9273846, "lon": 8.8211795, "tags": {"amenity": "restaurant", "cuisine": "italian", "name": "Pazza Idea - Da Uccio"}}, {"type": "node", "id": 1885880952, "lat": 40.9287982, "lon": 8.8255904, "tags": {"amenity": "cafe", "name": "Carlos I"}}, {"type": "node", "id": 1887133945, "lat": 40.9656677, "lon": 8.8680525, "tags": {"amenity": "restaurant", "cuisine": "italian", "name": "Sapori di Gallura"}}, {"type": "node", "id": 1912121790, "lat": 40.9134532, "lon": 8.7078116, "tags": {"addr:city": "Castelsardo", "addr:country": "IT", "addr:housenumber": "1", "addr:postcode": "07031", "addr:street": "Via Lungomare Angiona", "amenity": "restaurant", "name": "Ristorante Fof\u00f2"}}, {"type": "node", "id": 1912121791, "lat": 40.915661, "lon": 8.7139941, "tags": {"addr:city": "Castelsardo", "addr:country": "IT", "addr:housenumber": "4", "addr:postcode": "07031", "addr:street": "Piazza Bastione", "amenity": "restaurant", "name": "Ristorante La Guardiola"}}, {"type": "node", "id": 1912121792, "lat": 40.9156521, "lon": 8.7131065, "tags": {"addr:city": "Castelsardo", "addr:country": "IT", "addr:postcode": "07031", "addr:street": "Vicolo Aurea", "amenity": "restaurant", "contact:mobile": "+39 338 9345568", "contact:phone": "+39 079 470605", "contact:website": "https://www.ristorantelecisterne.com/", "name": "Ristorante Le Cisterne"}}, {"type": "node", "id": 1912121793, "lat": 40.9135636, "lon": 8.7073547, "tags": {"addr:city": "Castelsardo", "addr:country": "IT", "addr:housenumber": "7", "addr:postcode": "07031", "addr:street": "Via Lungomare Angiona", "amenity": "restaurant", "name": "Ristorante Pinna"}}, {"type": "node", "id": 1912121794, "lat": 40.9137381, "lon": 8.7062854, "tags": {"addr:city": "Castelsardo", "addr:country": "IT", "addr:housenumber": "15", "addr:postcode": "07031", "addr:street": "Via Lungomare Angiona", "amenity": "restaurant", "cuisine": "pizza", "name": "Ristorante Pizzeria Castello"}}, {"type": "node", "id": 1912121800, "lat": 40.9155955, "lon": 8.7134168, "tags": {"addr:city": "Castelsardo", "addr:country": "IT", "addr:postcode": "07031", "addr:street": "Piazza del Popolo", "amenity": "restaurant", "name": "Trattoria Da Toti"}}, {"type": "node", "id": 1912121807, "lat": 40.9165229, "lon": 8.7123081, "tags": {"addr:city": "Castelsardo", "addr:country": "IT", "addr:housenumber": "20", "addr:postcode": "07031", "addr:street": "Via Seminario", "amenity": "restaurant", "name": "Trattoria-Piccolo Borgo"}}, {"type": "node", "id": 1941707449, "lat": 40.9147009, "lon": 8.7097613, "tags": {"addr:city": "Castelsardo", "addr:country": "IT", "addr:housename": "57", "addr:postcode": "07031", "addr:street": "Via Roma", "amenity": "restaurant", "cuisine": "pizza", "name": "Pizzaria Spitipizza"}}, {"type": "node", "id": 1942697375, "lat": 40.913713, "lon": 8.7118733, "tags": {"addr:city": "Castelsardo", "addr:housenumber": "11", "addr:postcode": "07031", "addr:street": "Via Roma", "amenity": "cafe", "name": "Bar Caff\u00e9 Roma"}}, {"type": "node", "id": 1943392354, "lat": 40.9114545, "lon": 8.7183834, "tags": {"amenity": "cafe", "name": "Bar Sax"}}, {"type": "node", "id": 1943392413, "lat": 40.9143816, "lon": 8.7157973, "tags": {"addr:city": "Castelsardo", "addr:country": "IT", "addr:housenumber": "11", "addr:postcode": "07031", "addr:street": "Via Ferdinando Magellano", "amenity": "restaurant", "building": "yes", "name": "Ristorante La Vignaccia Di Satta"}}, {"type": "node", "id": 1943392419, "lat": 40.9140405, "lon": 8.7131816, "tags": {"addr:city": "Castelsardo", "addr:country": "IT", "addr:housenumber": "7", "addr:postcode": "07031", "addr:street": "Via Cristoforo Colombo", "amenity": "restaurant", "name": "Ristorante il Cormorano", "website": "https://www.ristoranteilcormorano.net/"}}, {"type": "node", "id": 1955261363, "lat": 40.9136535, "lon": 8.7046152, "tags": {"amenity": "cafe", "name": "Bar La Torre"}}, {"type": "node", "id": 1955261608, "lat": 40.9111473, "lon": 8.72588, "tags": {"addr:city": "Castelsardo", "addr:country": "IT", "addr:postcode": "07031", "addr:street": "Via Sedini", "amenity": "restaurant", "cuisine": "pizza", "name": "Ristorante Pizzaria Rocca \u00b4ja", "website": "https://www.ristoranteroccaja.com/"}}, {"type": "node", "id": 1955261610, "lat": 40.9111473, "lon": 8.7252611, "tags": {"addr:city": "Castelsardo", "addr:country": "IT", "addr:postcode": "07031", "addr:street": "Via Sedini", "amenity": "restaurant", "name": "Ristorante Su Nuraghe", "website": "http://www.ristorantesunuraghe.com"}}, {"type": "node", "id": 1955261615, "lat": 40.9124517, "lon": 8.6985994, "tags": {"addr:city": "Castelsardo", "addr:country": "IT", "addr:housename": "1", "addr:postcode": "07031", "amenity": "restaurant", "name": "Skippers Bar", "seamark:small_craft_facility:category": "restaurant", "seamark:type": "small_craft_facility"}}, {"type": "node", "id": 2135105312, "lat": 40.8500813, "lon": 8.8167298, "tags": {"amenity": "cafe", "name": "Caf\u00e8 Agor\u00e0"}}, {"type": "node", "id": 2552809533, "lat": 40.9249908, "lon": 8.796781}, {"type": "node", "id": 2552809534, "lat": 40.9249964, "lon": 8.7968814}, {"type": "node", "id": 2552809541, "lat": 40.9250826, "lon": 8.796772}, {"type": "node", "id": 2552809542, "lat": 40.9250883, "lon": 8.796969}, {"type": "node", "id": 2552809551, "lat": 40.925142, "lon": 8.7968355}, {"type": "node", "id": 2552809553, "lat": 40.9251491, "lon": 8.7969631}, {"type": "node", "id": 2744570083, "lat": 40.8294553, "lon": 8.6558205, "tags": {"amenity": "restaurant", "name": "Kennt'Annos"}}, {"type": "node", "id": 2947573602, "lat": 41.0132065, "lon": 8.8723359, "tags": {"amenity": "restaurant", "name": "La Vela"}}, {"type": "node", "id": 3088387040, "lat": 40.8381449, "lon": 8.9050267}, {"type": "node", "id": 3088387041, "lat": 40.8381677, "lon": 8.9050761}, {"type": "node", "id": 3088387042, "lat": 40.8381678, "lon": 8.9049061}, {"type": "node", "id": 3088387043, "lat": 40.8381727, "lon": 8.9050482}, {"type": "node", "id": 3088387044, "lat": 40.8382021, "lon": 8.9050976}, {"type": "node", "id": 3088387045, "lat": 40.8382184, "lon": 8.904904}, {"type": "node", "id": 3088387046, "lat": 40.8382217, "lon": 8.9050352}, {"type": "node", "id": 3088387047, "lat": 40.8382478, "lon": 8.905046}, {"type": "node", "id": 3088387049, "lat": 40.8382626, "lon": 8.9049557}, {"type": "node", "id": 3094604316, "lat": 40.9285331, "lon": 8.8005282}, {"type": "node", "id": 3094604320, "lat": 40.9286072, "lon": 8.8007019}, {"type": "node", "id": 3094604321, "lat": 40.9285319, "lon": 8.8004663}, {"type": "node", "id": 3094604433, "lat": 40.9285112, "lon": 8.8004845}, {"type": "node", "id": 3094604468, "lat": 40.9285958, "lon": 8.8002185}, {"type": "node", "id": 3094604471, "lat": 40.9285115, "lon": 8.8005472}, {"type": "node", "id": 3094604475, "lat": 40.9286308, "lon": 8.800397}, {"type": "node", "id": 3094604496, "lat": 40.928535, "lon": 8.8003155}, {"type": "node", "id": 3094604502, "lat": 40.9286531, "lon": 8.8006615}, {"type": "node", "id": 3094604504, "lat": 40.9284803, "lon": 8.8003636}, {"type": "node", "id": 3094604507, "lat": 40.9286127, "lon": 8.8001917}, {"type": "node", "id": 3094604525, "lat": 40.9286794, "lon": 8.8007138}, {"type": "node", "id": 3094604529, "lat": 40.9285198, "lon": 8.8002853}, {"type": "node", "id": 3094604532, "lat": 40.9286326, "lon": 8.8002313}, {"type": "node", "id": 3094604535, "lat": 40.9285917, "lon": 8.8002102}, {"type": "node", "id": 3094604548, "lat": 40.9287236, "lon": 8.8006749}, {"type": "node", "id": 3094604571, "lat": 40.9286651, "lon": 8.8002026}, {"type": "node", "id": 3094604573, "lat": 40.9287425, "lon": 8.8007127}, {"type": "node", "id": 3094604585, "lat": 40.9287028, "lon": 8.8005403}, {"type": "node", "id": 3094604594, "lat": 40.9287762, "lon": 8.8006831}, {"type": "node", "id": 3094604604, "lat": 40.9287223, "lon": 8.8003165}, {"type": "node", "id": 3094604616, "lat": 40.9288046, "lon": 8.8007397}, {"type": "node", "id": 3094604904, "lat": 40.9287914, "lon": 8.8004624}, {"type": "node", "id": 3094604939, "lat": 40.928892, "lon": 8.8006628}, {"type": "node", "id": 3099270194, "lat": 41.0132537, "lon": 8.8738505}, {"type": "node", "id": 3099270219, "lat": 41.0132907, "lon": 8.8737695}, {"type": "node", "id": 3099270235, "lat": 41.0133032, "lon": 8.8737798}, {"type": "node", "id": 3099270269, "lat": 41.0133406, "lon": 8.8739066}, {"type": "node", "id": 3099270282, "lat": 41.0133557, "lon": 8.8736344}, {"type": "node", "id": 3099270535, "lat": 41.0133592, "lon": 8.8739185}, {"type": "node", "id": 3099270539, "lat": 41.0133668, "lon": 8.8736446}, {"type": "node", "id": 3099270542, "lat": 41.0133723, "lon": 8.8735958}, {"type": "node", "id": 3099270620, "lat": 41.013474, "lon": 8.8736653}, {"type": "node", "id": 3099281463, "lat": 41.0562323, "lon": 9.0044862}, {"type": "node", "id": 3099283520, "lat": 41.0512191, "lon": 9.0015142}, {"type": "node", "id": 3099283548, "lat": 41.0510119, "lon": 9.0013347}, {"type": "node", "id": 3099283614, "lat": 41.0511294, "lon": 9.0015854}, {"type": "node", "id": 3099283621, "lat": 41.051103, "lon": 9.0012647}, {"type": "node", "id": 3099284357, "lat": 41.0514147, "lon": 8.950208}, {"type": "node", "id": 3099284358, "lat": 41.0514288, "lon": 8.9500718}, {"type": "node", "id": 3099284455, "lat": 41.0516012, "lon": 8.9501892}, {"type": "node", "id": 3099284461, "lat": 41.0516099, "lon": 8.9501048}, {"type": "node", "id": 3099292226, "lat": 41.0561411, "lon": 9.0047574}, {"type": "node", "id": 3099292382, "lat": 41.0561738, "lon": 9.0044743}, {"type": "node", "id": 3099292413, "lat": 41.0561995, "lon": 9.0047698}, {"type": "node", "id": 3099395535, "lat": 40.9078345, "lon": 9.1612241}, {"type": "node", "id": 3099395648, "lat": 40.9079143, "lon": 9.1611662}, {"type": "node", "id": 3099395832, "lat": 40.9080957, "lon": 9.1618495}, {"type": "node", "id": 3099395911, "lat": 40.9081755, "lon": 9.1617916}, {"type": "node", "id": 3099456923, "lat": 40.922531, "lon": 9.1926344}, {"type": "node", "id": 3099456929, "lat": 40.9225367, "lon": 9.1927673}, {"type": "node", "id": 3099457040, "lat": 40.9226626, "lon": 9.1926246}, {"type": "node", "id": 3099457044, "lat": 40.9226682, "lon": 9.1927576}, {"type": "node", "id": 3099489386, "lat": 40.9392998, "lon": 8.8859011}, {"type": "node", "id": 3099489387, "lat": 40.9393722, "lon": 8.8860359}, {"type": "node", "id": 3099489390, "lat": 40.9395085, "lon": 8.8859075}, {"type": "node", "id": 3099489391, "lat": 40.9395165, "lon": 8.8859222}, {"type": "node", "id": 3099489394, "lat": 40.9395046, "lon": 8.8857082}, {"type": "node", "id": 3099489395, "lat": 40.939585, "lon": 8.8858577}, {"type": "node", "id": 3099509801, "lat": 40.9725549, "lon": 8.8695257}, {"type": "node", "id": 3099509803, "lat": 40.9725306, "lon": 8.8696477}, {"type": "node", "id": 3099509806, "lat": 40.9725293, "lon": 8.8695167}, {"type": "node", "id": 3099509815, "lat": 40.9727811, "lon": 8.8694206}, {"type": "node", "id": 3099509826, "lat": 40.9727225, "lon": 8.8697147}, {"type": "node", "id": 3099563515, "lat": 41.1251753, "lon": 9.0649934}, {"type": "node", "id": 3512654346, "lat": 40.9286076, "lon": 8.8268078, "tags": {"addr:city": "Valledoria", "addr:housenumber": "38", "addr:postcode": "07039", "addr:street": "Corso Europa", "amenity": "cafe", "name": "Revolution Cafe"}}, {"type": "node", "id": 3607781653, "lat": 40.9161701, "lon": 8.7791928, "tags": {"amenity": "restaurant", "check_date": "2023-04-12", "cuisine": "italian;pizza", "name": "Ristorante Pizzeria La Ciaccia"}}, {"type": "node", "id": 3685873063, "lat": 40.929013, "lon": 9.064322, "tags": {"amenity": "cafe", "name": "Bar P\u00e9pp\u00e9"}}, {"type": "node", "id": 3685881625, "lat": 40.929175, "lon": 9.064279, "tags": {"amenity": "cafe", "name": "Lu Gaff\u00e8 dal 1930"}}, {"type": "node", "id": 3685980625, "lat": 40.9293994, "lon": 9.0649546, "tags": {"amenity": "restaurant", "cuisine": "regional;italian", "name": "Trattoria Il Mosto"}}, {"type": "node", "id": 3687101827, "lat": 40.9297864, "lon": 9.064767, "tags": {"addr:housenumber": "121", "addr:street": "Via Roma", "amenity": "cafe", "name": "Rustico bar"}}, {"type": "node", "id": 3687230761, "lat": 40.930731, "lon": 9.065008, "tags": {"amenity": "cafe", "name": "Gege"}}, {"type": "node", "id": 3687231053, "lat": 40.9306318, "lon": 9.064786, "tags": {"addr:housenumber": "155", "addr:street": "Via Roma", "amenity": "restaurant", "cuisine": "pizza", "name": "Antiga Pizzaria In Aggius"}}, {"type": "node", "id": 3694740264, "lat": 40.905221, "lon": 9.0990607, "tags": {"addr:city:it": "Tempio Pausania", "addr:street": "Via Palau", "amenity": "cafe"}}, {"type": "node", "id": 3726536383, "lat": 40.8999838, "lon": 8.8995937, "tags": {"amenity": "restaurant"}}, {"type": "node", "id": 3844532841, "lat": 40.9016096, "lon": 8.6846346, "tags": {"amenity": "cafe", "name": "Excalibur Pizzeria Bar"}}, {"type": "node", "id": 4305123110, "lat": 40.9668111, "lon": 8.8753041, "tags": {"amenity": "restaurant", "cuisine": "italian", "name": "Il Scalitti"}}, {"type": "node", "id": 4305123111, "lat": 41.0133878, "lon": 8.8723665, "tags": {"amenity": "restaurant", "check_date": "2023-04-12", "cuisine": "italian", "name": "La Torre", "opening_hours": "Mo-Su 12:00-15:00,19:00-23:30", "outdoor_seating": "yes"}}, {"type": "node", "id": 4305131931, "lat": 41.0129701, "lon": 8.8768165, "tags": {"amenity": "restaurant", "name": "Fast Food Terzitta"}}, {"type": "node", "id": 4305150602, "lat": 41.1270323, "lon": 9.0632732, "tags": {"amenity": "cafe"}}, {"type": "node", "id": 4305150603, "lat": 41.1270787, "lon": 9.0626322, "tags": {"amenity": "cafe"}}, {"type": "node", "id": 4316753642, "lat": 40.900487, "lon": 9.10087, "tags": {"addr:city": "Tempio Pausania", "addr:housenumber": "13", "addr:postcode": "07029", "addr:street": "Via Fonte Nuova", "amenity": "restaurant", "name": "Pepperosso"}}, {"type": "node", "id": 4316776689, "lat": 40.900695, "lon": 9.101108, "tags": {"amenity": "cafe", "name": "Londor"}}, {"type": "node", "id": 4321222912, "lat": 40.918038, "lon": 9.097019, "tags": {"amenity": "restaurant", "name": "Punto di Ristoro"}}, {"type": "node", "id": 4329592757, "lat": 40.9283626, "lon": 9.0631051, "tags": {"amenity": "cafe", "name": "La Colti di Li Milinu"}}, {"type": "node", "id": 4334076689, "lat": 41.012019, "lon": 8.876544, "tags": {"amenity": "restaurant", "cuisine": "pizza", "name": "CocCodrillus", "outdoor_seating": "yes", "toilets:wheelchair": "yes", "wheelchair": "yes"}}, {"type": "node", "id": 4485136814, "lat": 40.8956056, "lon": 9.1050366, "tags": {"addr:city": "Tempio Pausania", "addr:housenumber": "50a", "addr:postcode": "07029", "addr:street": "Via Limbara", "amenity": "cafe"}}, {"type": "node", "id": 4485142520, "lat": 40.9017652, "lon": 9.1037972, "tags": {"addr:city": "Tempio Pausania", "addr:housenumber": "2", "addr:postcode": "07029", "addr:street": "Via Novara", "alt_name": "Trattoria \"La Gallurese\" di Mamma Rosa e figli", "amenity": "restaurant", "cuisine": "italian", "name": "Trattoria \"La Gallurese\""}}, {"type": "node", "id": 4493006783, "lat": 40.9160185, "lon": 8.7121819, "tags": {"addr:city": "Castelsardo", "addr:housenumber": "24", "addr:postcode": "07031", "addr:street": "Via Vittorio Emanuele", "amenity": "restaurant", "name": "Trattoria-La Schizzula"}}, {"type": "node", "id": 4493007778, "lat": 40.9158197, "lon": 8.7138251, "tags": {"addr:city": "Castelsardo", "addr:housenumber": "12", "addr:postcode": "07031", "addr:street": "Via Alfonso La Marmora", "amenity": "restaurant", "name": "Ristorante Bounty"}}, {"type": "node", "id": 4493008318, "lat": 40.9157653, "lon": 8.7133639, "tags": {"addr:city": "Castelsardo", "addr:housenumber": "2", "addr:postcode": "07031", "addr:street": "Via Giuseppe Mazzini", "amenity": "restaurant", "cuisine": "pizza", "name": "Cosmos Pizzeria"}}, {"type": "node", "id": 4493010948, "lat": 40.91417, "lon": 8.7125955, "tags": {"addr:city": "Castelsardo", "addr:housenumber": "15", "addr:postcode": "07031", "addr:street": "Via Trieste", "amenity": "restaurant", "cuisine": "regional", "diet:vegetarian": "yes", "name": "Caf\u00e9 de Paris", "operator": "Natalino Serra", "phone": "+39 079 470631", "smoking": "no"}}, {"type": "node", "id": 4493011778, "lat": 40.9139613, "lon": 8.7091616, "tags": {"addr:city": "Castelsardo", "addr:country": "IT", "addr:housenumber": "104", "addr:postcode": "07031", "addr:street": "Via Roma", "amenity": "restaurant", "name": "La Marina"}}, {"type": "node", "id": 4493012308, "lat": 40.9138743, "lon": 8.7134262, "tags": {"addr:city": "Castelsardo", "addr:housenumber": "6", "addr:postcode": "07031", "addr:street": "Via Cristoforo Colombo", "air_conditioning": "yes", "amenity": "restaurant", "cuisine": "local;pizza", "level": "1", "name": "La Trattoria Da Maria Giuseppa", "note": "no pizza at lunch", "opening_hours": "Mo-Su 12:30-14:30, 19:00-23:00", "outdoor_seating": "no", "phone": "+39 079 470661", "reservation": "recommended", "smoking": "no", "wheelchair": "no"}}, {"type": "node", "id": 4493012330, "lat": 40.9138732, "lon": 8.7118039, "tags": {"addr:city": "Castelsardo", "addr:housenumber": "14", "addr:postcode": "07031", "addr:street": "Via Roma", "amenity": "cafe", "name": "Bar da Peppe"}}, {"type": "node", "id": 4493012384, "lat": 40.9137526, "lon": 8.7122102, "tags": {"addr:city": "Castelsardo", "addr:housenumber": "4", "addr:postcode": "07031", "addr:street": "Via Roma", "amenity": "cafe", "name": "Millevoglie"}}, {"type": "node", "id": 4493013790, "lat": 40.9127451, "lon": 8.7131822, "tags": {"addr:city": "Castelsardo", "addr:housenumber": "10a", "addr:postcode": "07031", "addr:street": "Via Sedini", "amenity": "cafe", "live_music": "yes", "name": "Bar Cagliari"}}, {"type": "node", "id": 4493014413, "lat": 40.9125656, "lon": 8.7156032, "tags": {"addr:city": "Castelsardo", "addr:housenumber": "18", "addr:postcode": "07031", "addr:street": "Via Sedini", "amenity": "restaurant", "name": "Mistral"}}, {"type": "node", "id": 4493652698, "lat": 40.921867, "lon": 9.0680039, "tags": {"amenity": "restaurant", "name": "Agriurismo muto del gallura"}}, {"type": "node", "id": 4930894734, "lat": 40.9031029, "lon": 9.1041107, "tags": {"addr:city": "Tempio Pausania", "addr:postcode": "07029", "addr:street": "Via Roma", "amenity": "restaurant", "name": "Museum Restaurant Bar"}}, {"type": "node", "id": 5013192041, "lat": 40.9034081, "lon": 9.1035843, "tags": {"amenity": "restaurant", "cuisine": "pizza", "name": "Pizzeria New Train"}}, {"type": "node", "id": 5022901726, "lat": 40.9233208, "lon": 8.7955802, "tags": {"amenity": "restaurant", "cuisine": "pizza;italian;ice_cream", "name": "Bar - Restaurant Pizzeria", "outdoor_seating": "yes", "takeaway": "yes"}}, {"type": "node", "id": 5049110061, "lat": 40.9335164, "lon": 8.8165659, "tags": {"amenity": "restaurant", "cuisine": "pizza", "internet_access": "wlan", "internet_access:fee": "no", "outdoor_seating": "yes", "takeaway": "yes"}}, {"type": "node", "id": 5049110062, "lat": 40.9335094, "lon": 8.8168609, "tags": {"amenity": "cafe", "cuisine": "ice_cream", "internet_access": "wlan", "internet_access:fee": "no", "name": "Caffe Foce", "outdoor_seating": "yes"}}, {"type": "node", "id": 5062821379, "lat": 40.8515524, "lon": 9.0661803}, {"type": "node", "id": 5062821380, "lat": 40.8515057, "lon": 9.0662232}, {"type": "node", "id": 5062821381, "lat": 40.8514874, "lon": 9.0662608}, {"type": "node", "id": 5062821382, "lat": 40.8514956, "lon": 9.0663144}, {"type": "node", "id": 5062821383, "lat": 40.851599, "lon": 9.0663949}, {"type": "node", "id": 5062821384, "lat": 40.8516274, "lon": 9.0664405}, {"type": "node", "id": 5062821385, "lat": 40.8516153, "lon": 9.0666121}, {"type": "node", "id": 5062821386, "lat": 40.8516051, "lon": 9.0667275}, {"type": "node", "id": 5062821387, "lat": 40.8516153, "lon": 9.0668294}, {"type": "node", "id": 5062821679, "lat": 40.8514834, "lon": 9.0660194}, {"type": "node", "id": 5062821680, "lat": 40.8514083, "lon": 9.0660354}, {"type": "node", "id": 5062821681, "lat": 40.8513069, "lon": 9.0661079}, {"type": "node", "id": 5062821682, "lat": 40.8512298, "lon": 9.0661266}, {"type": "node", "id": 5062821683, "lat": 40.8511953, "lon": 9.0661508}, {"type": "node", "id": 5062821684, "lat": 40.8511547, "lon": 9.0662473}, {"type": "node", "id": 5062821685, "lat": 40.8510938, "lon": 9.0662473}, {"type": "node", "id": 5062821686, "lat": 40.850964, "lon": 9.066065}, {"type": "node", "id": 5062821687, "lat": 40.8508504, "lon": 9.0660408}, {"type": "node", "id": 5062821688, "lat": 40.8507875, "lon": 9.0661159}, {"type": "node", "id": 5062821689, "lat": 40.8507652, "lon": 9.0662152}, {"type": "node", "id": 5062821690, "lat": 40.8507307, "lon": 9.0662393}, {"type": "node", "id": 5062821691, "lat": 40.8506536, "lon": 9.0662447}, {"type": "node", "id": 5062821692, "lat": 40.8506333, "lon": 9.0662876}, {"type": "node", "id": 5062821693, "lat": 40.850613, "lon": 9.0665048}, {"type": "node", "id": 5062821694, "lat": 40.8506191, "lon": 9.0665638}, {"type": "node", "id": 5062821695, "lat": 40.8507571, "lon": 9.0666389}, {"type": "node", "id": 5062821696, "lat": 40.8507814, "lon": 9.0667409}, {"type": "node", "id": 5062821697, "lat": 40.8508301, "lon": 9.0667838}, {"type": "node", "id": 5062821698, "lat": 40.8509153, "lon": 9.0667731}, {"type": "node", "id": 5062821699, "lat": 40.8510533, "lon": 9.0666926}, {"type": "node", "id": 5062821700, "lat": 40.8511223, "lon": 9.0667087}, {"type": "node", "id": 5062821701, "lat": 40.8511912, "lon": 9.0667516}, {"type": "node", "id": 5062821702, "lat": 40.8513089, "lon": 9.0668857}, {"type": "node", "id": 5062821703, "lat": 40.8513779, "lon": 9.0669286}, {"type": "node", "id": 5062821704, "lat": 40.8516011, "lon": 9.0669125}, {"type": "node", "id": 5062821705, "lat": 40.8516741, "lon": 9.0669393}, {"type": "node", "id": 5337614754, "lat": 40.862565, "lon": 8.6247303, "tags": {"amenity": "cafe", "name": "La Tonnara", "wheelchair": "yes"}}, {"type": "node", "id": 5522096623, "lat": 40.9672126, "lon": 9.0222149, "tags": {"amenity": "cafe", "check_date:opening_hours": "2023-10-11", "name": "Monti di Aggius", "opening_hours:signed": "no"}}, {"type": "node", "id": 5522126921, "lat": 40.9671615, "lon": 9.0221982, "tags": {"amenity": "cafe", "name": "Lunano"}}, {"type": "node", "id": 5588726693, "lat": 40.8513201, "lon": 8.8153076, "tags": {"addr:city": "S\u00e9ddini/Sedini", "addr:housenumber": "106", "addr:postcode": "07035", "addr:street": "Via Nazionale", "amenity": "cafe", "name": "Cinemacaf\u00e8", "opening_hours": "24/7"}}, {"type": "node", "id": 5589164682, "lat": 40.9137868, "lon": 8.7127795, "tags": {"amenity": "restaurant", "check_date": "2024-09-15", "name": "Trattoria da Edoardo"}}, {"type": "node", "id": 5760187561, "lat": 40.8294681, "lon": 8.6557763, "tags": {"addr:housenumber": "Km 10", "addr:street": "Strada Provinciale 29", "amenity": "restaurant", "name": "Ristorante Agricolo \"Kent'Annos\"", "opening_hours": "Mo-Su 18:00-23:00", "phone": "+39 348 333 0900", "website": "http://kentannos.it"}}, {"type": "node", "id": 5781764949, "lat": 40.9140629, "lon": 8.7127641, "tags": {"addr:housenumber": "25", "addr:street": "Via Nazionale", "amenity": "restaurant", "check_date": "2024-09-15", "name": "Trattoria Aj\u00f3"}}, {"type": "node", "id": 5905654585, "lat": 40.9140724, "lon": 8.7123062, "tags": {"addr:street": "Via Nazionale", "amenity": "cafe", "name": "Quattro Elementi"}}, {"type": "node", "id": 5908014622, "lat": 41.0480509, "lon": 9.0011865, "tags": {"amenity": "restaurant", "name": "Agriturismo Gallura da Pieruccio"}}, {"type": "node", "id": 5941297286, "lat": 40.9131061, "lon": 8.7129999, "tags": {"addr:postcode": "07031", "amenity": "cafe", "live_music": "yes", "name": "Fronteluna Lounge Bar"}}, {"type": "node", "id": 5995715855, "lat": 41.013039, "lon": 8.8744185, "tags": {"amenity": "restaurant", "name": "Lo Spinnaker"}}, {"type": "node", "id": 6030265288, "lat": 41.0516324, "lon": 8.9502407}, {"type": "node", "id": 6030265289, "lat": 41.0513424, "lon": 8.9503105}, {"type": "node", "id": 6030265290, "lat": 41.0513542, "lon": 8.950197}, {"type": "node", "id": 6030265291, "lat": 41.0515107, "lon": 8.950341}, {"type": "node", "id": 6030265292, "lat": 41.0516371, "lon": 8.9501958}, {"type": "node", "id": 6037662308, "lat": 41.0614442, "lon": 8.9624727, "tags": {"addr:street": "Strada Nibbaroni", "amenity": "restaurant", "email": "ilcalicedoro@gmail.com", "name": "Il Calice d'Oro", "opening_hours": "Jun-Sep", "phone": "+39 079 676 3446", "website": "https://www.ilcalicedoro.it/"}}, {"type": "node", "id": 6447439263, "lat": 41.1259351, "lon": 9.0212767, "tags": {"amenity": "restaurant"}}, {"type": "node", "id": 6622466888, "lat": 40.8247531, "lon": 8.7568048, "tags": {"addr:housenumber": "1", "addr:postcode": "07032", "addr:street": "S.p. 17 Nulvi Castelsardo", "amenity": "restaurant", "cuisine": "local", "email": "info@agriturismoruspina.com", "internet_access": "wlan", "name": "Agriturismo Ruspina", "operator": "Famiglia Piras", "phone": "+393405839385", "website": "https://www.agriturismoruspina.com/"}}, {"type": "node", "id": 6680588754, "lat": 40.9285589, "lon": 8.8006416}, {"type": "node", "id": 6680588755, "lat": 40.9285714, "lon": 8.8006306}, {"type": "node", "id": 6798453685, "lat": 40.9045201, "lon": 8.6862345, "tags": {"amenity": "cafe", "internet_access": "wlan", "name": "Vela Blu Restaurant"}}, {"type": "node", "id": 6799474887, "lat": 40.9050699, "lon": 8.6882725, "tags": {"amenity": "cafe", "internet_access": "wlan", "name": "Ampurias"}}, {"type": "node", "id": 6805040385, "lat": 40.9063143, "lon": 8.6913695, "tags": {"addr:housenumber": "3", "addr:postcode": "07031", "addr:street": "Corso Italia", "amenity": "cafe", "internet_access": "wlan", "name": "Mir\u00f3 Caffe Club Bisrot", "phone": "079473018"}}, {"type": "node", "id": 6813069971, "lat": 40.9156119, "lon": 8.7130708, "tags": {"amenity": "restaurant", "check_date": "2024-10-17", "contact:email": "infostilnovo@gmail.com", "contact:phone": "079 604 6142", "name": "Ristorante al Castello", "source": "survey", "website": "https://www.alcastellorestaurant.it/"}}, {"type": "node", "id": 6943562632, "lat": 40.9725635, "lon": 8.8693446}, {"type": "node", "id": 7794579381, "lat": 41.1253009, "lon": 9.0647263}, {"type": "node", "id": 7794579382, "lat": 41.1252692, "lon": 9.0648372}, {"type": "node", "id": 7794579383, "lat": 41.1252262, "lon": 9.0648155}, {"type": "node", "id": 7794579384, "lat": 41.1251218, "lon": 9.0649664}, {"type": "node", "id": 7794617385, "lat": 41.1252044, "lon": 9.0646776}, {"type": "node", "id": 7900557785, "lat": 40.9020423, "lon": 9.1039013, "tags": {"amenity": "restaurant", "cuisine": "italian_pizza", "name": "Pizza Bosco"}}, {"type": "node", "id": 9082218817, "lat": 40.9161206, "lon": 8.7122868, "tags": {"amenity": "restaurant", "name": "Il Piccolo Borgo"}}, {"type": "node", "id": 9689331191, "lat": 40.9143159, "lon": 8.7121634, "tags": {"amenity": "restaurant", "cuisine": "pizza", "name": "Pizzeria da Frassau"}}, {"type": "node", "id": 9689331192, "lat": 40.9142582, "lon": 8.7118966, "tags": {"amenity": "cafe", "name": "Cheers"}}, {"type": "node", "id": 9689340565, "lat": 40.9138914, "lon": 8.7117957, "tags": {"addr:housenumber": "14", "addr:street": "Via Roma", "amenity": "restaurant", "name": "Sale e Peppe", "opening_hours": "Mo-Su 10:00-15:00, 18:30-23:00"}}, {"type": "node", "id": 9689346984, "lat": 40.9156866, "lon": 8.7135357, "tags": {"amenity": "cafe", "name": "Bar Caff\u00e8 Lu Juari"}}, {"type": "node", "id": 9689347119, "lat": 40.9142443, "lon": 8.7133031, "tags": {"addr:housenumber": "10", "addr:street": "Via Brigata Sassari", "amenity": "restaurant", "cuisine": "seafood", "name": "Ristorante L'imperfetto", "opening_hours": "Mo-Su 12:00-15:00, 19:00-23:59", "website": "http://wwwlimperfettocastelsardo.com/"}}, {"type": "node", "id": 9689348773, "lat": 40.9154784, "lon": 8.7110076, "tags": {"amenity": "cafe", "name": "View"}}, {"type": "node", "id": 9689361424, "lat": 40.9138878, "lon": 8.7127717, "tags": {"amenity": "cafe", "check_date": "2024-09-15", "name": "Gaston Bar"}}, {"type": "node", "id": 9701371990, "lat": 40.8805873, "lon": 8.7854864}, {"type": "node", "id": 9701371991, "lat": 40.8804799, "lon": 8.7854382}, {"type": "node", "id": 9701371992, "lat": 40.880491, "lon": 8.7853966}, {"type": "node", "id": 9701371993, "lat": 40.8804307, "lon": 8.7853684}, {"type": "node", "id": 9701371994, "lat": 40.8804849, "lon": 8.7851652}, {"type": "node", "id": 9701371995, "lat": 40.8804981, "lon": 8.785174}, {"type": "node", "id": 9701371996, "lat": 40.8805138, "lon": 8.785125}, {"type": "node", "id": 9701371997, "lat": 40.8805676, "lon": 8.7851592}, {"type": "node", "id": 9701371998, "lat": 40.8805478, "lon": 8.7852209}, {"type": "node", "id": 9701371999, "lat": 40.880564, "lon": 8.785229}, {"type": "node", "id": 9701372000, "lat": 40.8805539, "lon": 8.7852772}, {"type": "node", "id": 9701372001, "lat": 40.8806249, "lon": 8.7853114}, {"type": "node", "id": 9991273052, "lat": 40.9393063, "lon": 8.8859133}, {"type": "node", "id": 9991562167, "lat": 40.9163077, "lon": 8.7148408}, {"type": "node", "id": 9991562168, "lat": 40.9162661, "lon": 8.7148164}, {"type": "node", "id": 9991562169, "lat": 40.9162032, "lon": 8.7149797}, {"type": "node", "id": 9991562170, "lat": 40.9162527, "lon": 8.7150072}, {"type": "node", "id": 10002975605, "lat": 41.1232328, "lon": 9.071817, "tags": {"amenity": "restaurant"}}, {"type": "node", "id": 10025563360, "lat": 41.0617315, "lon": 8.9622818, "tags": {"addr:street": "Strada Nibbaroni", "amenity": "restaurant", "email": "sardiniaristorante@gmail.com", "name": "Sardinia", "phone": "+39 346 407 8953"}}, {"type": "node", "id": 10033857452, "lat": 40.9017133, "lon": 9.1027333, "tags": {"addr:housenumber": "14", "addr:street": "Via San Luca", "amenity": "restaurant", "name": "Trattoria Bisson"}}, {"type": "node", "id": 10539813980, "lat": 40.9162689, "lon": 8.7120663, "tags": {"amenity": "restaurant", "cuisine": "regional", "name": "Il Piccolo Borgo", "operator": "Cimino Mariano"}}, {"type": "node", "id": 10539814002, "lat": 40.9056986, "lon": 8.6988398, "tags": {"amenity": "restaurant", "name": "Ristorante l'Incantu"}}, {"type": "node", "id": 10539828951, "lat": 40.8759429, "lon": 8.8928591, "tags": {"amenity": "restaurant", "cuisine": "regional", "name": "Agriturismo Casteldoria"}}, {"type": "node", "id": 11010864308, "lat": 40.8500612, "lon": 8.817454, "tags": {"addr:housenumber": "10", "addr:street": "Via la Rampa", "amenity": "restaurant", "name": "Pizzeria La Pittiracca", "opening_hours": "Tu-Su 18:00-21:00", "phone": "3715246413"}}, {"type": "node", "id": 11504319187, "lat": 40.895003, "lon": 8.899139, "tags": {"amenity": "restaurant"}}, {"type": "node", "id": 11977492207, "lat": 41.0131591, "lon": 8.8740986, "tags": {"amenity": "restaurant", "name": "marea"}}, {"type": "node", "id": 11977519615, "lat": 41.0130929, "lon": 8.8742738, "tags": {"amenity": "restaurant", "name": "Pizzeria D'Asporto"}}, {"type": "node", "id": 11977531233, "lat": 41.0129299, "lon": 8.8748007, "tags": {"amenity": "restaurant", "name": "Gastronomia Isola Rossa"}}, {"type": "node", "id": 11977542970, "lat": 41.0135385, "lon": 8.8730679, "tags": {"amenity": "restaurant", "name": "GustaB\u00e8"}}, {"type": "node", "id": 11980131892, "lat": 41.0119406, "lon": 8.8773872, "tags": {"amenity": "restaurant", "name": "Pizzeria D'Asporto da Palitta"}}, {"type": "node", "id": 11980133800, "lat": 41.0119205, "lon": 8.8772696, "tags": {"amenity": "restaurant", "name": "Testy Kebab"}}, {"type": "node", "id": 11980148544, "lat": 41.0119238, "lon": 8.8771719, "tags": {"amenity": "restaurant", "name": "Panetteria da Claudia"}}, {"type": "node", "id": 12014349204, "lat": 41.0550092, "lon": 8.9471131}, {"type": "node", "id": 12014349205, "lat": 41.0549592, "lon": 8.9470328}, {"type": "node", "id": 12014349206, "lat": 41.0549367, "lon": 8.9470524}, {"type": "node", "id": 12014349207, "lat": 41.0549162, "lon": 8.9470122}, {"type": "node", "id": 12014349208, "lat": 41.0548085, "lon": 8.9471196}, {"type": "node", "id": 12014349209, "lat": 41.0548641, "lon": 8.9472037}, {"type": "node", "id": 12014349210, "lat": 41.0548895, "lon": 8.9471794}, {"type": "node", "id": 12014349211, "lat": 41.0549134, "lon": 8.9472102}, {"type": "node", "id": 12014349220, "lat": 41.0550886, "lon": 8.9472103}, {"type": "node", "id": 12014349221, "lat": 41.0550157, "lon": 8.9472857}, {"type": "node", "id": 12014349222, "lat": 41.0550372, "lon": 8.9473222}, {"type": "node", "id": 12014349223, "lat": 41.0549877, "lon": 8.9473735}, {"type": "node", "id": 12014349224, "lat": 41.0549758, "lon": 8.9473533}, {"type": "node", "id": 12014349225, "lat": 41.0549568, "lon": 8.9473729}, {"type": "node", "id": 12014349226, "lat": 41.055026, "lon": 8.9474905}, {"type": "node", "id": 12014349227, "lat": 41.0550752, "lon": 8.9474395}, {"type": "node", "id": 12014349228, "lat": 41.0551061, "lon": 8.947492}, {"type": "node", "id": 12014349229, "lat": 41.0551778, "lon": 8.9474177}, {"type": "node", "id": 12014349230, "lat": 41.0551449, "lon": 8.947362}, {"type": "node", "id": 12014349231, "lat": 41.0551654, "lon": 8.9473407}, {"type": "node", "id": 12014349232, "lat": 41.0549683, "lon": 8.947361}, {"type": "node", "id": 12014349236, "lat": 41.0550177, "lon": 8.9474764}, {"type": "node", "id": 12141576718, "lat": 40.9285935, "lon": 8.8057939, "tags": {"amenity": "restaurant", "name": "St. Peter\u2019s Kiosko Bar Beach Restaurant", "opening_hours": "Mo-Su 07:00-02:00", "phone": "+393394777788"}}, {"type": "node", "id": 12255008101, "lat": 40.9158768, "lon": 8.712891, "tags": {"addr:housenumber": "12", "addr:postcode": "07031", "addr:street": "Via Vittorio Emanuele", "amenity": "restaurant", "contact:facebook": "ilporticocastelsardo", "contact:instagram": "__il_portico_food_e_drinks__", "cuisine": "italian", "name": "Il Portico", "outdoor_seating": "yes", "phone": "3455931696"}}, {"type": "node", "id": 12259339193, "lat": 40.9158607, "lon": 8.7131092, "tags": {"amenity": "restaurant", "cuisine": "pizza", "name": "Cosmos Pizzeria"}}, {"type": "node", "id": 12628097201, "lat": 40.8945052, "lon": 8.7438662, "tags": {"amenity": "restaurant", "name": "B&B Trattoria La Roccia dell\u2019Elefante"}}, {"type": "way", "id": 248502978, "nodes": [2552809533, 2552809541, 2552809551, 2552809553, 2552809542, 2552809534, 2552809533], "tags": {"amenity": "restaurant", "building": "yes"}}, {"type": "way", "id": 304310822, "nodes": [3088387044, 3088387041, 3088387043, 3088387040, 3088387042, 3088387045, 3088387049, 3088387047, 3088387046, 3088387044], "tags": {"amenity": "restaurant", "building": "yes", "cuisine": "italian", "name": "Sara e Ottavio"}}, {"type": "way", "id": 304874650, "nodes": [3094604502, 3094604320, 6680588755, 6680588754, 3094604471, 3094604316, 3094604433, 3094604321, 3094604504, 3094604496, 3094604529, 3094604468, 3094604535, 3094604507, 3094604532, 3094604571, 3094604604, 3094604475, 3094604585, 3094604904, 3094604939, 3094604616, 3094604594, 3094604573, 3094604548, 3094604525, 3094604502], "tags": {"amenity": "restaurant", "building": "yes"}}, {"type": "way", "id": 305319202, "nodes": [3099270194, 3099270219, 3099270235, 3099270539, 3099270282, 3099270542, 3099270620, 3099270535, 3099270269, 3099270194], "tags": {"addr:city": "Isola Rossa", "addr:country": "IT", "addr:housenumber": "20", "addr:street": "Lungomare Salvatore Cottoni", "amenity": "restaurant", "building": "yes", "cuisine": "italian;pizza", "internet_access": "no", "name": "Ristorante Pizzeria da Michele Specialised in Seafood", "operator": "di Linaldeddu Giov. Michele", "phone": "+39 079 694059", "smoking": "separated", "wheelchair": "yes"}}, {"type": "way", "id": 305320676, "nodes": [3099292226, 3099292382, 3099281463, 3099292413, 3099292226], "tags": {"amenity": "restaurant", "building": "yes", "name": "Lu Colbu"}}, {"type": "way", "id": 305320720, "nodes": [3099283614, 3099283548, 3099283621, 3099283520, 3099283614], "tags": {"amenity": "restaurant", "building": "yes", "cuisine": "pizza", "name": "Mediterraneo", "outdoor_seating": "yes"}}, {"type": "way", "id": 305321300, "nodes": [3099284455, 6030265292, 6030265288, 6030265291, 6030265289, 6030265290, 3099284357, 3099284358, 3099284461, 3099284455], "tags": {"amenity": "restaurant", "building": "yes", "cuisine": "italian;pizza", "name": "Ristorante Pizzeria Da Comita", "outdoor_seating": "yes"}}, {"type": "way", "id": 305329579, "nodes": [3099395832, 3099395535, 3099395648, 3099395911, 3099395832], "tags": {"addr:city": "T\u00e8mpiu/Tempio Pausania", "addr:housenumber": "127", "addr:postcode": "07029", "addr:street": "Strada Statale 392 del Lago del Coghinas", "amenity": "restaurant", "building": "yes", "cuisine": "italian", "name": "Bonvicino Ristorante Pizzeria Di Francesco Quargnenti", "phone": "+39 079 674065", "website": "http://www.ristorantebonvicino.it/", "wikidata": "Q55494736"}}, {"type": "way", "id": 305336925, "nodes": [3099456929, 3099456923, 3099457040, 3099457044, 3099456929], "tags": {"amenity": "cafe", "building": "yes", "name": "Coffee Square"}}, {"type": "way", "id": 305340081, "nodes": [3099509803, 3099509801, 3099509806, 6943562632, 3099509815, 3099509826, 3099509803], "tags": {"amenity": "restaurant", "building": "yes", "name": "K18"}}, {"type": "way", "id": 305340122, "nodes": [3099489387, 9991273052, 3099489386, 3099489394, 3099489395, 3099489391, 3099489390, 3099489387], "tags": {"amenity": "restaurant", "building": "yes", "cuisine": "regional"}}, {"type": "way", "id": 519153353, "nodes": [5062821705, 5062821387, 5062821386, 5062821385, 5062821384, 5062821383, 5062821382, 5062821381, 5062821380, 5062821379, 1389672606, 1389672607, 5062821679, 5062821680, 5062821681, 5062821682, 5062821683, 5062821684, 5062821685, 5062821686, 5062821687, 5062821688, 5062821689, 5062821690, 5062821691, 5062821692, 5062821693, 5062821694, 5062821695, 5062821696, 5062821697, 5062821698, 5062821699, 5062821700, 5062821701, 5062821702, 5062821703, 5062821704, 5062821705], "tags": {"amenity": "restaurant", "landuse": "farmland", "name": "Hotel Ristorante L'Agnata"}}, {"type": "way", "id": 835037832, "nodes": [7794579381, 7794579382, 7794579383, 3099563515, 7794579384, 7794617385, 7794579381], "tags": {"amenity": "restaurant", "building": "yes", "name": "By Maury", "opening_hours": "We-Mo 12:00-14:00,19:00-23:30"}}, {"type": "way", "id": 1055803862, "nodes": [9701372001, 9701372000, 9701371999, 9701371998, 9701371997, 9701371996, 9701371995, 9701371994, 9701371993, 9701371992, 9701371991, 9701371990, 9701372001], "tags": {"amenity": "restaurant", "building": "commercial", "cuisine": "mediterranean", "mobile": "388 400 7652", "name": "Cross Country 2.0", "reservation": "recommended"}}, {"type": "way", "id": 1090857416, "nodes": [9991562167, 9991562168, 9991562169, 9991562170, 9991562167], "tags": {"addr:city": "Castelsardo", "addr:housenumber": "3", "addr:postcode": "07031", "addr:street": "Via Manganella", "amenity": "restaurant", "building": "yes", "check_date": "2024-10-17", "cuisine": "italian;pasta;spaghetti;fish", "name": "Aragona", "phone": "+39 340 630 3312", "website": "https://www.ristorantearagona.com"}}, {"type": "way", "id": 1296565569, "nodes": [12014349204, 12014349205, 12014349206, 12014349207, 12014349208, 12014349209, 12014349210, 12014349211, 12014349204], "tags": {"amenity": "restaurant", "building": "yes"}}, {"type": "way", "id": 1296565572, "nodes": [12014349220, 12014349221, 12014349222, 12014349223, 12014349224, 12014349232, 12014349225, 12014349236, 12014349226, 12014349227, 12014349228, 12014349229, 12014349230, 12014349231, 12014349220], "tags": {"amenity": "restaurant", "building": "yes", "name": "Pizza Napolitana"}}]}