{"version": 0.6, "generator": "Overpass API 0.7.62.7 375dc00a", "osm3s": {"timestamp_osm_base": "2025-06-14T13:26:15Z", "copyright": "The data included in this document is from www.openstreetmap.org. The data is made available under ODbL."}, "elements": [{"type": "node", "id": 928128944, "lat": 36.3953689, "lon": 10.6141372, "tags": {"addr:city": "\u0627\u0644\u062d\u0645\u0627\u0645\u0627\u062a", "amenity": "restaurant", "cuisine": "mediterranean", "name": "\u0627\u0644\u0628\u0631\u0628\u0631", "name:ar": "\u0627\u0644\u0628\u0631\u0628\u0631", "name:fr": "Le Berbere", "old_name": "Brauhaus"}}, {"type": "node", "id": 931799323, "lat": 36.4057628, "lon": 10.5928921, "tags": {"amenity": "restaurant", "cuisine": "german", "internet_access": "no", "name": "Zum Alten Fritz"}}, {"type": "node", "id": 1254081677, "lat": 36.3726819, "lon": 10.5437318}, {"type": "node", "id": 1363145711, "lat": 36.3725666, "lon": 10.5439368}, {"type": "node", "id": 1363145864, "lat": 36.3726329, "lon": 10.5439947}, {"type": "node", "id": 1363146010, "lat": 36.3727481, "lon": 10.5437906}, {"type": "node", "id": 1423464517, "lat": 36.4045359, "lon": 10.6471168}, {"type": "node", "id": 1423464519, "lat": 36.4045377, "lon": 10.6471635}, {"type": "node", "id": 1423464528, "lat": 36.4045592, "lon": 10.6470701}, {"type": "node", "id": 1423464530, "lat": 36.4045663, "lon": 10.647208}, {"type": "node", "id": 1423464544, "lat": 36.4045986, "lon": 10.6472325}, {"type": "node", "id": 1423464545, "lat": 36.4046039, "lon": 10.6470434}, {"type": "node", "id": 1423464555, "lat": 36.4046304, "lon": 10.6472376}, {"type": "node", "id": 1423464562, "lat": 36.4046411, "lon": 10.6470963}, {"type": "node", "id": 1423464567, "lat": 36.4046442, "lon": 10.6470227}, {"type": "node", "id": 1423464583, "lat": 36.4046601, "lon": 10.6472295}, {"type": "node", "id": 1423464601, "lat": 36.404697, "lon": 10.647208}, {"type": "node", "id": 1423464620, "lat": 36.4047202, "lon": 10.6471703}, {"type": "node", "id": 1437614940, "lat": 36.4251239, "lon": 10.6773044}, {"type": "node", "id": 1437614943, "lat": 36.4251083, "lon": 10.6765964}, {"type": "node", "id": 1437614946, "lat": 36.4250586, "lon": 10.677209}, {"type": "node", "id": 1726528389, "lat": 36.4056218, "lon": 10.591033, "tags": {"amenity": "restaurant", "name": "La Palma"}}, {"type": "node", "id": 1734469830, "lat": 36.4032381, "lon": 10.5831885, "tags": {"amenity": "restaurant", "cuisine": "italian", "name": "\u0627\u0644\u0645\u0637\u0639\u0645 \u0627\u0644\u0625\u064a\u0637\u0627\u0644\u064a \u062f\u0627 \u0641\u0631\u0627\u0646\u0643\u0648", "name:ar": "\u0627\u0644\u0645\u0637\u0639\u0645 \u0627\u0644\u0625\u064a\u0637\u0627\u0644\u064a \u062f\u0627 \u0641\u0631\u0627\u0646\u0643\u0648", "name:fr": "Restaurant Italien Da Franco", "name:it": "Ristorante Italiano Da Franco"}}, {"type": "node", "id": 1790232875, "lat": 36.4209404, "lon": 10.6735716, "tags": {"amenity": "restaurant", "name": "\u0644\u0627\u0645\u0628\u0648\u0643\u0627 \u0628\u064a\u062a\u0634", "name:ar": "\u0644\u0627\u0645\u0628\u0648\u0643\u0627 \u0628\u064a\u062a\u0634", "name:fr": "Lambouka Beach", "smoking": "yes"}}, {"type": "node", "id": 1815864119, "lat": 36.3738492, "lon": 10.542361, "tags": {"amenity": "restaurant", "cuisine": "pizza", "drive_in": "no", "name": "\u0628\u0627\u0643\u0631\u0632 \u0628\u064a\u062a\u0632\u0627", "name:ar": "\u0628\u0627\u0643\u0631\u0632 \u0628\u064a\u062a\u0632\u0627", "name:fr": "Pecker's Pizza"}}, {"type": "node", "id": 1843328517, "lat": 36.3584974, "lon": 10.5303787, "tags": {"amenity": "restaurant", "name": "Magico", "operator": "Magic Life Africana"}}, {"type": "node", "id": 1843328520, "lat": 36.3580968, "lon": 10.5313734, "tags": {"amenity": "restaurant", "name": "Snack bar", "operator": "Magic Life Africana"}}, {"type": "node", "id": 1843328865, "lat": 36.358183, "lon": 10.5319592, "tags": {"amenity": "restaurant", "operator": "Magic Life Africana"}}, {"type": "node", "id": 1856436751, "lat": 36.4468109, "lon": 10.7182411, "tags": {"amenity": "cafe", "name": "\u0645\u0642\u0647\u0649 \u0627\u0644\u0646\u0633\u064a\u0645", "name:ar": "\u0645\u0642\u0647\u0649 \u0627\u0644\u0646\u0633\u064a\u0645", "name:fr": "Caf\u00e9 Ennassim"}}, {"type": "node", "id": 1867181764, "lat": 36.4365855, "lon": 10.6788605}, {"type": "node", "id": 1867181780, "lat": 36.4364949, "lon": 10.6792963}, {"type": "node", "id": 1867181786, "lat": 36.436873, "lon": 10.6793937}, {"type": "node", "id": 1867181808, "lat": 36.4369545, "lon": 10.6789712}, {"type": "node", "id": 1868454294, "lat": 36.4541801, "lon": 10.7857795, "tags": {"amenity": "cafe", "internet_access": "yes", "name": "Caf\u00e9 de la plage", "smoking": "yes", "wheelchair": "yes"}}, {"type": "node", "id": 1868454295, "lat": 36.4742748, "lon": 10.799974, "tags": {"amenity": "cafe", "name": "Espace CAP"}}, {"type": "node", "id": 1868454296, "lat": 36.4625202, "lon": 10.8112788, "tags": {"amenity": "cafe", "name": "La Cozette"}}, {"type": "node", "id": 1882676157, "lat": 36.4556338, "lon": 10.7889679, "tags": {"amenity": "cafe", "internet_access": "wlan", "name": "Caf\u00e9 des Arcades"}}, {"type": "node", "id": 1896592766, "lat": 36.3825664, "lon": 10.5523506}, {"type": "node", "id": 1896592775, "lat": 36.3826182, "lon": 10.5522831}, {"type": "node", "id": 1896592779, "lat": 36.3826379, "lon": 10.5525337}, {"type": "node", "id": 1896592784, "lat": 36.3826451, "lon": 10.5524925}, {"type": "node", "id": 1896592785, "lat": 36.3826452, "lon": 10.5525752}, {"type": "node", "id": 1896592786, "lat": 36.3826623, "lon": 10.5524623}, {"type": "node", "id": 1896592787, "lat": 36.3826634, "lon": 10.5526066}, {"type": "node", "id": 1896592790, "lat": 36.3826878, "lon": 10.552626}, {"type": "node", "id": 1896592794, "lat": 36.3827087, "lon": 10.5523905}, {"type": "node", "id": 1896592800, "lat": 36.3827235, "lon": 10.5526332}, {"type": "node", "id": 1896592822, "lat": 36.3827546, "lon": 10.5526225}, {"type": "node", "id": 1896592825, "lat": 36.3827597, "lon": 10.5523241}, {"type": "node", "id": 1896592832, "lat": 36.3827791, "lon": 10.5525985}, {"type": "node", "id": 1896592841, "lat": 36.3828075, "lon": 10.5525584}, {"type": "node", "id": 1896592845, "lat": 36.3828188, "lon": 10.5523939}, {"type": "node", "id": 1896592855, "lat": 36.382879, "lon": 10.552465}, {"type": "node", "id": 1896593292, "lat": 36.3847428, "lon": 10.5485994}, {"type": "node", "id": 1896593306, "lat": 36.3847504, "lon": 10.5487077}, {"type": "node", "id": 1896593312, "lat": 36.3847564, "lon": 10.5486415}, {"type": "node", "id": 1896593314, "lat": 36.3847698, "lon": 10.5485571}, {"type": "node", "id": 1896593317, "lat": 36.3847799, "lon": 10.5487394}, {"type": "node", "id": 1896593318, "lat": 36.3847864, "lon": 10.5485035}, {"type": "node", "id": 1896593322, "lat": 36.3847915, "lon": 10.5487952}, {"type": "node", "id": 1896593336, "lat": 36.3848235, "lon": 10.5484842}, {"type": "node", "id": 1896593341, "lat": 36.3848352, "lon": 10.5488009}, {"type": "node", "id": 1896593353, "lat": 36.384851, "lon": 10.5484462}, {"type": "node", "id": 1896593364, "lat": 36.3848678, "lon": 10.5488442}, {"type": "node", "id": 1896593368, "lat": 36.3848898, "lon": 10.5484582}, {"type": "node", "id": 1896593378, "lat": 36.3849166, "lon": 10.5488248}, {"type": "node", "id": 1896593388, "lat": 36.3849441, "lon": 10.5484452}, {"type": "node", "id": 1896593394, "lat": 36.3849542, "lon": 10.5488369}, {"type": "node", "id": 1896593404, "lat": 36.3849728, "lon": 10.548479}, {"type": "node", "id": 1896593406, "lat": 36.384976, "lon": 10.5489056}, {"type": "node", "id": 1896593416, "lat": 36.3850038, "lon": 10.5489321}, {"type": "node", "id": 1896593418, "lat": 36.3850112, "lon": 10.5489692}, {"type": "node", "id": 1896593422, "lat": 36.3850229, "lon": 10.548491}, {"type": "node", "id": 1896593432, "lat": 36.3850332, "lon": 10.5485436}, {"type": "node", "id": 1896593439, "lat": 36.3850458, "lon": 10.5489801}, {"type": "node", "id": 1896593443, "lat": 36.3850541, "lon": 10.5486332}, {"type": "node", "id": 1896593449, "lat": 36.3850582, "lon": 10.5490202}, {"type": "node", "id": 1896593453, "lat": 36.3850632, "lon": 10.5485869}, {"type": "node", "id": 1896593455, "lat": 36.3850632, "lon": 10.5486869}, {"type": "node", "id": 1896593492, "lat": 36.3851529, "lon": 10.5487067}, {"type": "node", "id": 1896593494, "lat": 36.3851571, "lon": 10.5490327}, {"type": "node", "id": 1896593496, "lat": 36.3851741, "lon": 10.5487592}, {"type": "node", "id": 1896593497, "lat": 36.3851774, "lon": 10.5489769}, {"type": "node", "id": 1896593503, "lat": 36.3852225, "lon": 10.5489515}, {"type": "node", "id": 1896593504, "lat": 36.3852301, "lon": 10.5487921}, {"type": "node", "id": 1896593505, "lat": 36.3852353, "lon": 10.5489019}, {"type": "node", "id": 1896593507, "lat": 36.3852412, "lon": 10.548828}, {"type": "node", "id": 1896593536, "lat": 36.3852712, "lon": 10.5488619}, {"type": "node", "id": 2193023152, "lat": 36.4525369, "lon": 10.7335531, "tags": {"amenity": "restaurant", "name": "Le Bon Kif"}}, {"type": "node", "id": 2415824571, "lat": 36.3962654, "lon": 10.6225999}, {"type": "node", "id": 2415824573, "lat": 36.3964517, "lon": 10.6229054}, {"type": "node", "id": 2415824574, "lat": 36.3964979, "lon": 10.6223998}, {"type": "node", "id": 2415824576, "lat": 36.3966628, "lon": 10.622659}, {"type": "node", "id": 2896990298, "lat": 36.3892681, "lon": 10.5596528}, {"type": "node", "id": 2896990299, "lat": 36.3891504, "lon": 10.5597925}, {"type": "node", "id": 2896990300, "lat": 36.3892844, "lon": 10.5599667}, {"type": "node", "id": 2896990601, "lat": 36.3893867, "lon": 10.5598453}, {"type": "node", "id": 2896990602, "lat": 36.3893492, "lon": 10.5597966}, {"type": "node", "id": 2896990603, "lat": 36.3893646, "lon": 10.5597783}, {"type": "node", "id": 2896990604, "lat": 36.3896218, "lon": 10.5597436}, {"type": "node", "id": 2896990605, "lat": 36.3897218, "lon": 10.5598799}, {"type": "node", "id": 2896990606, "lat": 36.3895133, "lon": 10.5601159}, {"type": "node", "id": 2896990607, "lat": 36.3894127, "lon": 10.5599803}, {"type": "node", "id": 2896990616, "lat": 36.389169, "lon": 10.5597704}, {"type": "node", "id": 2896990620, "lat": 36.389295, "lon": 10.5600603}, {"type": "node", "id": 2896990622, "lat": 36.3895569, "lon": 10.5601738}, {"type": "node", "id": 2896990623, "lat": 36.3894625, "lon": 10.5602832}, {"type": "node", "id": 2896990624, "lat": 36.38939, "lon": 10.5599501}, {"type": "node", "id": 2990548019, "lat": 36.3955411, "lon": 10.6140036, "tags": {"amenity": "restaurant", "name": "Le P\u00eacheur"}}, {"type": "node", "id": 3034008295, "lat": 36.4722281, "lon": 10.7841158, "tags": {"amenity": "cafe", "name": "Caf\u00e9 Ahmed Bouzid"}}, {"type": "node", "id": 3034008296, "lat": 36.4669518, "lon": 10.7858348, "tags": {"amenity": "cafe", "name": "Caf\u00e9 Fennia"}}, {"type": "node", "id": 3034008297, "lat": 36.4601895, "lon": 10.7857466, "tags": {"amenity": "cafe", "name": "\u0645\u0642\u0647\u0649 \u062c\u0648\u0646", "name:ar": "\u0645\u0642\u0647\u0649 \u062c\u0648\u0646"}}, {"type": "node", "id": 3276209680, "lat": 36.4028359, "lon": 10.5895703, "tags": {"amenity": "restaurant", "cuisine": "regional;french", "email": "contact@darkais.com", "name": "Dar Ka\u00efs", "name:fr": "Dar Ka\u00efs", "name:it": "Dar Ka\u00efs", "opening_hours": "Mo-Su", "phone": "+216 20 512161 / +216 72 266473", "website": "https://www.darkais.com/"}}, {"type": "node", "id": 3772153104, "lat": 36.4590011, "lon": 10.7537389, "tags": {"amenity": "cafe", "name": "Caf\u00e9 Royal"}}, {"type": "node", "id": 3772153586, "lat": 36.4605647, "lon": 10.7586601, "tags": {"amenity": "cafe", "name": "Caf\u00e9 Dream"}}, {"type": "node", "id": 3914493421, "lat": 36.4059701, "lon": 10.5815543, "tags": {"addr:city": "Hammamet", "addr:postcode": "8050", "addr:street": "\u0634\u0627\u0631\u0639 \u0627\u0644\u0627\u0645\u0645 \u0627\u0644\u0645\u062a\u062d\u062f\u0629", "amenity": "restaurant", "cuisine": "regional", "name": "Ribat", "takeaway": "yes"}}, {"type": "node", "id": 4039252273, "lat": 36.4655403, "lon": 10.8076019}, {"type": "node", "id": 4039252274, "lat": 36.4652751, "lon": 10.8070171}, {"type": "node", "id": 4039252275, "lat": 36.4654713, "lon": 10.8068468}, {"type": "node", "id": 4039252276, "lat": 36.4656719, "lon": 10.8074557}, {"type": "node", "id": 4046821538, "lat": 36.4379683, "lon": 10.675032}, {"type": "node", "id": 4046821539, "lat": 36.437937, "lon": 10.6749636}, {"type": "node", "id": 4046821540, "lat": 36.4378712, "lon": 10.6750119}, {"type": "node", "id": 4046821541, "lat": 36.4379025, "lon": 10.6750857}, {"type": "node", "id": 4328135685, "lat": 36.4046876, "lon": 10.5791515, "tags": {"amenity": "restaurant", "name": "La Bella Marina", "phone": "+216 98 351 491"}}, {"type": "node", "id": 4343404689, "lat": 36.3686533, "lon": 10.535365, "tags": {"amenity": "restaurant", "name": "Carthage Land"}}, {"type": "node", "id": 4370259291, "lat": 36.4186273, "lon": 10.6646813, "tags": {"amenity": "restaurant", "cuisine": "oriental;grill;seafood;local;coffee_shop;asian;chicken;kebab", "name": "Panorama", "name:ru": "\u041f\u0430\u043d\u043e\u0440\u0430\u043c\u0430", "opening_hours": "Mo-Su 19:00-23:00"}}, {"type": "node", "id": 4396201242, "lat": 36.3938387, "lon": 10.6179347}, {"type": "node", "id": 4396201243, "lat": 36.3936595, "lon": 10.617822}, {"type": "node", "id": 4396201244, "lat": 36.3936703, "lon": 10.6179615}, {"type": "node", "id": 4396201245, "lat": 36.3936271, "lon": 10.6178489}, {"type": "node", "id": 4396201246, "lat": 36.3937005, "lon": 10.6180071}, {"type": "node", "id": 4396201247, "lat": 36.3937437, "lon": 10.6180071}, {"type": "node", "id": 4439252346, "lat": 36.3945201, "lon": 10.6118675, "tags": {"addr:city": "\u0627\u0644\u062d\u0645\u0627\u0645\u0627\u062a", "amenity": "cafe", "cuisine": "cafe", "internet_access": "wlan", "name": "\u0645\u0642\u0647\u0649 \u0633\u064a\u062f\u064a \u0628\u0648\u062d\u062f\u064a\u062f", "name:ar": "\u0645\u0642\u0647\u0649 \u0633\u064a\u062f\u064a \u0628\u0648\u062d\u062f\u064a\u062f", "name:fr": "Caf\u00e9 Sidi Bouhdid", "opening_hours:signed": "no", "smoking": "isolated"}}, {"type": "node", "id": 4490321230, "lat": 36.3950026, "lon": 10.6202954}, {"type": "node", "id": 4490321232, "lat": 36.3948941, "lon": 10.6204209}, {"type": "node", "id": 4490321233, "lat": 36.3950696, "lon": 10.6204711}, {"type": "node", "id": 4490321234, "lat": 36.3950387, "lon": 10.6205393}, {"type": "node", "id": 4490321235, "lat": 36.3949843, "lon": 10.6205662}, {"type": "node", "id": 4490321236, "lat": 36.3952569, "lon": 10.6207284}, {"type": "node", "id": 4490321237, "lat": 36.3952125, "lon": 10.6207782}, {"type": "node", "id": 4490326528, "lat": 36.3970736, "lon": 10.6136125, "tags": {"addr:city": "\u0627\u0644\u062d\u0645\u0627\u0645\u0627\u062a", "addr:postcode": "8050", "amenity": "cafe", "cuisine": "international", "name": "\u0644\u0627 \u0631\u0627\u0645\u0628\u0644\u0627", "name:ar": "\u0644\u0627 \u0631\u0627\u0645\u0628\u0644\u0627", "name:en": "La Rambla", "website": "https://www.facebook.com/LARAMBLARESTOCAFE"}}, {"type": "node", "id": 4490328317, "lat": 36.3950937, "lon": 10.6130196, "tags": {"amenity": "cafe", "cuisine": "international", "name": "Dar Zmen", "wifi": "yes"}}, {"type": "node", "id": 4490328691, "lat": 36.3952154, "lon": 10.6132656, "tags": {"amenity": "cafe", "cuisine": "regional", "name": "Achiri", "opening_hours": "Mo-Su 06:00-23:00"}}, {"type": "node", "id": 4595235061, "lat": 36.4818457, "lon": 10.8057698, "tags": {"amenity": "cafe", "name": "Africana Caf\u00e9 Club"}}, {"type": "node", "id": 4602686146, "lat": 36.4213557, "lon": 10.6679245, "tags": {"amenity": "cafe", "name": "Cafe Madera"}}, {"type": "node", "id": 4787485822, "lat": 36.4415108, "lon": 10.7172212, "tags": {"amenity": "cafe", "internet_access": "wlan", "name": "\u0645\u0642\u0647\u0649 M&C", "name:ar": "\u0645\u0642\u0647\u064a M&C", "name:en": "M&C Cafe", "name:fr": "M&C Caf\u00e9", "website": "https://www.tripadvisor.fr/Restaurant_Review-g317086-d12252356-Reviews-M_C_Cafe-Nabeul_Nabeul_Governorate.html"}}, {"type": "node", "id": 4799176275, "lat": 36.3949332, "lon": 10.6127177, "tags": {"addr:city": "\u0627\u0644\u062d\u0645\u0627\u0645\u0627\u062a", "amenity": "restaurant", "name": "\u0628\u0631\u0628\u0631\u0648\u0633\u0627", "name:ar": "\u0628\u0631\u0628\u0631\u0648\u0633\u0627", "name:fr": "Barbe Rousse"}}, {"type": "node", "id": 4969283923, "lat": 36.4537782, "lon": 10.7772529}, {"type": "node", "id": 4969283924, "lat": 36.4540822, "lon": 10.7780139}, {"type": "node", "id": 4969283925, "lat": 36.4537261, "lon": 10.7775967, "tags": {"amenity": "cafe", "cuisine": "Cafe Pizzaria", "name": "Cafe-Espace Familial", "smoking": "yes"}}, {"type": "node", "id": 4969283926, "lat": 36.4533409, "lon": 10.7784958}, {"type": "node", "id": 4969283927, "lat": 36.4530209, "lon": 10.7777736}, {"type": "node", "id": 4992564242, "lat": 36.4557006, "lon": 10.7523784, "tags": {"addr:city": "\u062f\u0627\u0631 \u0634\u0639\u0628\u0627\u0646 \u0627\u0644\u0641\u0647\u0631\u064a", "amenity": "cafe", "cuisine": "coffee_shop", "internet_access": "wlan", "name": "\u0645\u0642\u0647\u0649 \u0628\u0627\u0646\u0648\u0631\u0627\u0645\u0627", "name:ar": "\u0645\u0642\u0647\u0649 \u0628\u0627\u0646\u0648\u0631\u0627\u0645\u0627", "name:en": "Caf\u00e9 Panorama"}}, {"type": "node", "id": 5157499921, "lat": 36.3699939, "lon": 10.5375958, "tags": {"amenity": "restaurant", "name": "Donner City"}}, {"type": "node", "id": 5216036656, "lat": 36.4044741, "lon": 10.5599657}, {"type": "node", "id": 5216036658, "lat": 36.4044784, "lon": 10.5598143}, {"type": "node", "id": 5216036659, "lat": 36.4041936, "lon": 10.55978}, {"type": "node", "id": 5216036660, "lat": 36.4041884, "lon": 10.5599217}, {"type": "node", "id": 5257638621, "lat": 36.4059673, "lon": 10.5809525, "tags": {"amenity": "restaurant", "name": "\u0634\u0648\u0627\u0631\u0645\u0627", "name:ar": "\u0634\u0648\u0627\u0631\u0645\u0627"}}, {"type": "node", "id": 5303298880, "lat": 36.4553766, "lon": 10.7541475, "tags": {"amenity": "cafe", "cuisine": "coffee_shop", "internet_access": "wlan", "name": "Cafeteria Ideal"}}, {"type": "node", "id": 5304015683, "lat": 36.455465, "lon": 10.7516376, "tags": {"addr:city": "\u062f\u0627\u0631 \u0634\u0639\u0628\u0627\u0646 \u0627\u0644\u0641\u0647\u0631\u064a", "amenity": "cafe", "cuisine": "coffee_shop"}}, {"type": "node", "id": 5305282521, "lat": 36.3734639, "lon": 10.5425985, "tags": {"amenity": "restaurant", "name": "Bouillabaisse"}}, {"type": "node", "id": 5717649069, "lat": 36.4251253, "lon": 10.6769023}, {"type": "node", "id": 5717649091, "lat": 36.4237902, "lon": 10.6766266}, {"type": "node", "id": 5717664351, "lat": 36.4237075, "lon": 10.6763463}, {"type": "node", "id": 5717664353, "lat": 36.423755, "lon": 10.6767137}, {"type": "node", "id": 5717664354, "lat": 36.4235327, "lon": 10.6766467}, {"type": "node", "id": 5717664370, "lat": 36.4236255, "lon": 10.6764026}, {"type": "node", "id": 5717664371, "lat": 36.4236147, "lon": 10.6767996}, {"type": "node", "id": 5717664374, "lat": 36.4235283, "lon": 10.6765582}, {"type": "node", "id": 5717664379, "lat": 36.4237942, "lon": 10.676508}, {"type": "node", "id": 5717664384, "lat": 36.4235499, "lon": 10.676467}, {"type": "node", "id": 5717756797, "lat": 36.4244727, "lon": 10.6770819}, {"type": "node", "id": 5717756798, "lat": 36.4249537, "lon": 10.6769168}, {"type": "node", "id": 5717756799, "lat": 36.4245462, "lon": 10.6770496}, {"type": "node", "id": 5717756802, "lat": 36.4244787, "lon": 10.6771825}, {"type": "node", "id": 5717756803, "lat": 36.4244617, "lon": 10.6771342}, {"type": "node", "id": 5717756805, "lat": 36.4244883, "lon": 10.6770617}, {"type": "node", "id": 5717756808, "lat": 36.424999, "lon": 10.6769061}, {"type": "node", "id": 5717756809, "lat": 36.4245811, "lon": 10.6770814}, {"type": "node", "id": 5717756810, "lat": 36.4245194, "lon": 10.6772083}, {"type": "node", "id": 5717756811, "lat": 36.4245831, "lon": 10.6771695}, {"type": "node", "id": 5717756812, "lat": 36.4244957, "lon": 10.677199}, {"type": "node", "id": 5717756813, "lat": 36.4245917, "lon": 10.6771406}, {"type": "node", "id": 5717756814, "lat": 36.4245274, "lon": 10.677046}, {"type": "node", "id": 5717756815, "lat": 36.4245441, "lon": 10.677206}, {"type": "node", "id": 5717756816, "lat": 36.424591, "lon": 10.6771097}, {"type": "node", "id": 5717756817, "lat": 36.4245086, "lon": 10.6770493}, {"type": "node", "id": 5717756818, "lat": 36.4249235, "lon": 10.6770429}, {"type": "node", "id": 5717756819, "lat": 36.424467, "lon": 10.6771601}, {"type": "node", "id": 5717756820, "lat": 36.4249537, "lon": 10.6770965}, {"type": "node", "id": 5717757021, "lat": 36.4249818, "lon": 10.6768712}, {"type": "node", "id": 5717757022, "lat": 36.4249192, "lon": 10.6771126}, {"type": "node", "id": 5717757024, "lat": 36.4244635, "lon": 10.6771075}, {"type": "node", "id": 5717757025, "lat": 36.4248998, "lon": 10.6770616}, {"type": "node", "id": 5717757026, "lat": 36.4245634, "lon": 10.6770597}, {"type": "node", "id": 5717757027, "lat": 36.4245665, "lon": 10.6771925}, {"type": "node", "id": 5717757029, "lat": 36.4249516, "lon": 10.6768873}, {"type": "node", "id": 5717757030, "lat": 36.4249451, "lon": 10.677059}, {"type": "node", "id": 5717757031, "lat": 36.4249753, "lon": 10.6769356}, {"type": "node", "id": 5717757032, "lat": 36.424889, "lon": 10.6769597}, {"type": "node", "id": 5756647981, "lat": 36.4660389, "lon": 10.7768668}, {"type": "node", "id": 5756647982, "lat": 36.4661812, "lon": 10.7767166}, {"type": "node", "id": 5756647983, "lat": 36.4660993, "lon": 10.7765986}, {"type": "node", "id": 5756647984, "lat": 36.4659483, "lon": 10.7767756}, {"type": "node", "id": 5756647985, "lat": 36.4660216, "lon": 10.7772424}, {"type": "node", "id": 5756647986, "lat": 36.4660087, "lon": 10.7771726}, {"type": "node", "id": 5756647987, "lat": 36.4660346, "lon": 10.7771458}, {"type": "node", "id": 5756647988, "lat": 36.4661036, "lon": 10.7771887}, {"type": "node", "id": 5756647990, "lat": 36.4537605, "lon": 10.7871807, "tags": {"addr:city": "B\u00e9ni Khiar", "addr:postcode": "8060", "addr:street": "Avenue de la libert\u00e9", "amenity": "restaurant", "cuisine": "ice_cream", "name": "La Pampa", "outdoor_seating": "yes", "smoking": "outside"}}, {"type": "node", "id": 5759189521, "lat": 36.4511626, "lon": 10.7375936, "tags": {"amenity": "cafe", "cuisine": "arab;burger;italian_pizza", "internet_access": "wlan", "name": "Time Out", "name:en": "TIME OUT", "name:fr": "Time Out"}}, {"type": "node", "id": 5814721697, "lat": 36.4250088, "lon": 10.6769815}, {"type": "node", "id": 5814721699, "lat": 36.4251079, "lon": 10.6782879}, {"type": "node", "id": 5814721709, "lat": 36.4252126, "lon": 10.6770307}, {"type": "node", "id": 5814721719, "lat": 36.4251022, "lon": 10.6770085}, {"type": "node", "id": 5814721721, "lat": 36.4252247, "lon": 10.6768339}, {"type": "node", "id": 5814721726, "lat": 36.4252048, "lon": 10.6765535}, {"type": "node", "id": 5814721728, "lat": 36.4249919, "lon": 10.6783067}, {"type": "node", "id": 5814721732, "lat": 36.4251214, "lon": 10.6768312}, {"type": "node", "id": 5814721740, "lat": 36.4252268, "lon": 10.6766971}, {"type": "node", "id": 5814721752, "lat": 36.4250521, "lon": 10.6782247}, {"type": "node", "id": 5814721758, "lat": 36.4250915, "lon": 10.6770575}, {"type": "node", "id": 5814721765, "lat": 36.4251755, "lon": 10.6771785}, {"type": "node", "id": 5814721775, "lat": 36.4250477, "lon": 10.67837}, {"type": "node", "id": 5814721778, "lat": 36.4249937, "lon": 10.677019}, {"type": "node", "id": 5961108685, "lat": 36.3736869, "lon": 10.5455126, "tags": {"amenity": "restaurant", "cuisine": "french", "internet_access": "wlan", "name": "Le Cap food & drink", "name:en": "Le Cap food & drink", "name:fr": "Le Cap"}}, {"type": "node", "id": 6088858365, "lat": 36.44958, "lon": 10.7235295, "tags": {"amenity": "restaurant", "cuisine": "pizza", "name": "Pizzeria Ben Jabeur"}}, {"type": "node", "id": 6088858367, "lat": 36.4493637, "lon": 10.7250107, "tags": {"amenity": "restaurant", "cuisine": "pizza", "name": "Box Food"}}, {"type": "node", "id": 6088858374, "lat": 36.4498256, "lon": 10.7234973, "tags": {"amenity": "restaurant", "name": "L'ardoisa"}}, {"type": "node", "id": 6088858380, "lat": 36.4462117, "lon": 10.724439, "tags": {"amenity": "restaurant", "name": "Sam's Burger"}}, {"type": "node", "id": 6088858382, "lat": 36.444544, "lon": 10.724177, "tags": {"amenity": "restaurant", "name": "Sultana"}}, {"type": "node", "id": 6088858384, "lat": 36.441587, "lon": 10.7174583, "tags": {"amenity": "restaurant", "name": "Grill"}}, {"type": "node", "id": 6088859387, "lat": 36.4484605, "lon": 10.7224143, "tags": {"amenity": "cafe", "name": "Ex-tasse caf\u00e9"}}, {"type": "node", "id": 6088859388, "lat": 36.4457839, "lon": 10.7249449, "tags": {"amenity": "restaurant", "name": "Gustami"}}, {"type": "node", "id": 6088859389, "lat": 36.4460274, "lon": 10.7249999, "tags": {"amenity": "restaurant", "name": "Ninety's food"}}, {"type": "node", "id": 6088859390, "lat": 36.4444217, "lon": 10.7235201, "tags": {"amenity": "cafe", "name": "RP Caf\u00e9"}}, {"type": "node", "id": 6088859391, "lat": 36.440327, "lon": 10.729663, "tags": {"amenity": "cafe", "name": "Sidi Sliman"}}, {"type": "node", "id": 6088859392, "lat": 36.4414849, "lon": 10.7293052, "tags": {"amenity": "cafe", "name": "FOR YOU"}}, {"type": "node", "id": 6088859395, "lat": 36.4438503, "lon": 10.7310759, "tags": {"amenity": "cafe", "name": "Tortuga bistro"}}, {"type": "node", "id": 6088859396, "lat": 36.4437642, "lon": 10.7316673, "tags": {"amenity": "cafe", "name": "Caf\u00e9 journal"}}, {"type": "node", "id": 6088859399, "lat": 36.4500146, "lon": 10.7239098, "tags": {"amenity": "cafe", "name": "Hashtag caf\u00e9"}}, {"type": "node", "id": 6088859401, "lat": 36.4493375, "lon": 10.7274912, "tags": {"amenity": "cafe", "name": "Caf\u00e9 sport"}}, {"type": "node", "id": 6088859403, "lat": 36.4505273, "lon": 10.7226843, "tags": {"amenity": "cafe", "name": "Caf\u00e9 du stade"}}, {"type": "node", "id": 6088859407, "lat": 36.4502388, "lon": 10.7210534, "tags": {"amenity": "cafe", "name": "Hard Rock Coffee"}}, {"type": "node", "id": 6088859411, "lat": 36.4494366, "lon": 10.7232417, "tags": {"amenity": "cafe", "name": "Faouzi"}}, {"type": "node", "id": 6088859415, "lat": 36.4472977, "lon": 10.719121, "tags": {"amenity": "cafe", "name": "Caf\u00e9 Arabesque"}}, {"type": "node", "id": 6088859416, "lat": 36.447232, "lon": 10.7194846, "tags": {"amenity": "restaurant", "name": "Il Padrino"}}, {"type": "node", "id": 6164648855, "lat": 36.4444635, "lon": 10.7327596, "tags": {"amenity": "cafe", "name": "Time off"}}, {"type": "node", "id": 6164648857, "lat": 36.4456239, "lon": 10.7247353, "tags": {"amenity": "cafe", "name": "Quick Caf\u00e9 & Restaurant"}}, {"type": "node", "id": 6164648858, "lat": 36.4437854, "lon": 10.7143846, "tags": {"amenity": "restaurant", "name": "Il Gusto"}}, {"type": "node", "id": 6164648860, "lat": 36.4451434, "lon": 10.7155371, "tags": {"amenity": "restaurant", "name": "Acuatica Lounge"}}, {"type": "node", "id": 6164648863, "lat": 36.4466621, "lon": 10.7184888, "tags": {"amenity": "cafe", "name": "Boncaf\u00e9"}}, {"type": "node", "id": 6164648864, "lat": 36.4456807, "lon": 10.7163915, "tags": {"amenity": "restaurant", "name": "Il Maestro"}}, {"type": "node", "id": 6164648865, "lat": 36.4376729, "lon": 10.715356, "tags": {"amenity": "cafe", "name": "La c\u00f4te"}}, {"type": "node", "id": 6164648866, "lat": 36.4321945, "lon": 10.7031213, "tags": {"amenity": "cafe", "name": "Sidi Mahrsi"}}, {"type": "node", "id": 6164648872, "lat": 36.4524437, "lon": 10.7314035, "tags": {"amenity": "cafe", "name": "Le roi"}}, {"type": "node", "id": 6164648876, "lat": 36.4426101, "lon": 10.7437114, "tags": {"amenity": "restaurant", "name": "\u0627\u0644\u0643\u0648\u0631\u0646\u064a\u0634", "name:ar": "\u0627\u0644\u0643\u0648\u0631\u0646\u064a\u0634", "name:fr": "Corniche"}}, {"type": "node", "id": 6164648877, "lat": 36.4423679, "lon": 10.7479354, "tags": {"amenity": "restaurant", "name": "Marina Beach"}}, {"type": "node", "id": 6167343791, "lat": 36.4538657, "lon": 10.7337742, "tags": {"amenity": "cafe", "name": "Errachidia"}}, {"type": "node", "id": 6167343793, "lat": 36.4521347, "lon": 10.7298665, "tags": {"amenity": "restaurant", "name": "Les Orangers"}}, {"type": "node", "id": 6167343802, "lat": 36.4512289, "lon": 10.7270287, "tags": {"amenity": "cafe", "name": "Coffee Mahmoud"}}, {"type": "node", "id": 6167343813, "lat": 36.4495687, "lon": 10.7286536, "tags": {"amenity": "cafe", "name": "Boca Caf\u00e9"}}, {"type": "node", "id": 6167343824, "lat": 36.442071, "lon": 10.7441326, "tags": {"amenity": "cafe", "name": "Buvette de la plage"}}, {"type": "node", "id": 6167343825, "lat": 36.4423484, "lon": 10.7443518, "tags": {"amenity": "restaurant", "name": "La Rotonde"}}, {"type": "node", "id": 6167343833, "lat": 36.4438143, "lon": 10.7318756, "tags": {"addr:city": "\u0646\u0627\u0628\u0644", "addr:postcode": "8000", "addr:street": "\u0634\u0627\u0631\u0639 \u0645\u062d\u0645\u062f \u0627\u0644\u062e\u0627\u0645\u0633", "amenity": "cafe", "cuisine": "pizza;coffee_shop", "name": "The One Caf\u00e9 & Lounge", "opening_hours": "Mo-Su 07:00-22:30", "outdoor_seating": "yes"}}, {"type": "node", "id": 6167343834, "lat": 36.4466411, "lon": 10.7459663, "tags": {"amenity": "cafe", "name": "Caf\u00e9 du Stade"}}, {"type": "node", "id": 6167343835, "lat": 36.4427252, "lon": 10.7479161, "tags": {"amenity": "restaurant", "name": "Buvette Yara"}}, {"type": "node", "id": 6169391675, "lat": 36.4448181, "lon": 10.7470009, "tags": {"amenity": "restaurant", "name": "Veni Vidi Vici"}}, {"type": "node", "id": 6169398388, "lat": 36.4478976, "lon": 10.7380695, "tags": {"amenity": "restaurant", "name": "Gourmandise Nabeul"}}, {"type": "node", "id": 6169398389, "lat": 36.4476571, "lon": 10.7378499, "tags": {"addr:city": "\u0646\u0627\u0628\u0644", "addr:postcode": "8000", "addr:street": "\u0634\u0627\u0631\u0639 \u0627\u0644\u062d\u0628\u064a\u0628 \u0628\u0648\u0631\u0642\u064a\u0628\u0629", "addr:street:ar": "\u0634\u0627\u0631\u0639 \u0627\u0644\u062d\u0628\u064a\u0628 \u0628\u0648\u0631\u0642\u064a\u0628\u0629", "amenity": "cafe", "cuisine": "pizza;pasta;coffee_shop", "name": "Brooks Caf\u00e9", "outdoor_seating": "yes"}}, {"type": "node", "id": 6169398392, "lat": 36.451041, "lon": 10.7354572, "tags": {"amenity": "cafe", "name": "L'escale", "opening_hours": "Mo-Su 06:30-23:00"}}, {"type": "node", "id": 6169398405, "lat": 36.4505047, "lon": 10.7324284, "tags": {"amenity": "restaurant", "name": "Fratelli"}}, {"type": "node", "id": 6169398406, "lat": 36.4505721, "lon": 10.7326402, "tags": {"amenity": "cafe", "name": "\u0627\u0644\u0623\u0645\u064a\u0631", "name:ar": "\u0627\u0644\u0623\u0645\u064a\u0631", "name:en": "Al Amir", "name:fr": "Al Amir"}}, {"type": "node", "id": 6169398407, "lat": 36.4446628, "lon": 10.7153096, "tags": {"amenity": "restaurant", "name": "Roxford restaurant"}}, {"type": "node", "id": 6169398415, "lat": 36.4428557, "lon": 10.7282686, "tags": {"addr:city": "\u0646\u0627\u0628\u0644", "addr:postcode": "8000", "addr:street": "\u0634\u0627\u0631\u0639 \u0645\u062d\u0645\u062f \u0627\u0644\u062e\u0627\u0645\u0633", "amenity": "cafe", "cuisine": "pizza;coffee_shop;sandwich", "name": "Fashion caf\u00e9", "outdoor_seating": "yes"}}, {"type": "node", "id": 6169398416, "lat": 36.4379965, "lon": 10.7052764, "tags": {"amenity": "restaurant", "name": "The Border Tunisia"}}, {"type": "node", "id": 6169398418, "lat": 36.4418519, "lon": 10.7088719, "tags": {"amenity": "cafe", "name": "Sperenza"}}, {"type": "node", "id": 6169398421, "lat": 36.4339441, "lon": 10.6900473, "tags": {"amenity": "restaurant", "name": "Monocle"}}, {"type": "node", "id": 6169398423, "lat": 36.433796, "lon": 10.6895872, "tags": {"amenity": "cafe", "name": "Sunset Caf\u00e9 & Lounge"}}, {"type": "node", "id": 6169398440, "lat": 36.4328611, "lon": 10.7028488, "tags": {"amenity": "restaurant", "name": "Omar resto"}}, {"type": "node", "id": 6171980517, "lat": 36.4306468, "lon": 10.6844291, "tags": {"amenity": "cafe", "name": "Le Grand Caf\u00e9"}}, {"type": "node", "id": 6171980520, "lat": 36.4319977, "lon": 10.6854484, "tags": {"amenity": "restaurant", "name": "Rizzo Caf\u00e9"}}, {"type": "node", "id": 6171980526, "lat": 36.4285114, "lon": 10.6799089, "tags": {"amenity": "cafe", "name": "Mood's"}}, {"type": "node", "id": 6171980528, "lat": 36.4275746, "lon": 10.6742052, "tags": {"amenity": "cafe", "name": "Caf\u00e9 Toutta"}}, {"type": "node", "id": 6171980529, "lat": 36.4308873, "lon": 10.691591, "tags": {"amenity": "cafe", "name": "Axel'd"}}, {"type": "node", "id": 6171980530, "lat": 36.4310962, "lon": 10.6923632, "tags": {"amenity": "cafe", "name": "Aquarius"}}, {"type": "node", "id": 6171980537, "lat": 36.447554, "lon": 10.7451569, "tags": {"amenity": "cafe", "name": "Garden caf\u00e9"}}, {"type": "node", "id": 6171980540, "lat": 36.4478825, "lon": 10.7371733, "tags": {"addr:city": "\u0646\u0627\u0628\u0644", "addr:postcode": "8000", "addr:street": "\u0634\u0627\u0631\u0639 \u0627\u0644\u062d\u0628\u064a\u0628 \u0628\u0648\u0631\u0642\u064a\u0628\u0629", "addr:street:ar": "\u0634\u0627\u0631\u0639 \u0627\u0644\u062d\u0628\u064a\u0628 \u0628\u0648\u0631\u0642\u064a\u0628\u0629", "amenity": "restaurant", "cuisine": "coffee_shop;pizza", "name": "Licosa"}}, {"type": "node", "id": 6171980545, "lat": 36.4492859, "lon": 10.7369377, "tags": {"addr:city": "\u0646\u0627\u0628\u0644", "addr:postcode": "8000", "addr:street": "\u0634\u0627\u0631\u0639 \u0627\u0644\u062d\u0628\u064a\u0628 \u0628\u0648\u0631\u0642\u064a\u0628\u0629", "addr:street:ar": "\u0634\u0627\u0631\u0639 \u0627\u0644\u062d\u0628\u064a\u0628 \u0628\u0648\u0631\u0642\u064a\u0628\u0629", "amenity": "restaurant", "cuisine": "pizza;regional;coffee_shop", "name": "Twins"}}, {"type": "node", "id": 6171981195, "lat": 36.4502394, "lon": 10.7250634, "tags": {"amenity": "cafe", "name": "Montana"}}, {"type": "node", "id": 6177368019, "lat": 36.4526738, "lon": 10.7349214, "tags": {"amenity": "restaurant", "name": "Restaurant Hala Oriental"}}, {"type": "node", "id": 6177368043, "lat": 36.4520374, "lon": 10.7379335, "tags": {"amenity": "restaurant", "brand": "Big Boy", "brand:wikidata": "Q4386779", "brand:wikipedia": "en:Big Boy Restaurants", "name": "Big Boy"}}, {"type": "node", "id": 6177368045, "lat": 36.4524582, "lon": 10.7389352, "tags": {"amenity": "cafe", "name": "Caf\u00e9 Food Olympique"}}, {"type": "node", "id": 6177368047, "lat": 36.4535117, "lon": 10.749561, "tags": {"amenity": "restaurant", "name": "Frutta Frutta", "name:fr": "Frutta Frutta"}}, {"type": "node", "id": 6177368048, "lat": 36.4420854, "lon": 10.7185589, "tags": {"amenity": "cafe", "name": "L'esplanade"}}, {"type": "node", "id": 6184946770, "lat": 36.4434649, "lon": 10.7139097, "tags": {"amenity": "cafe", "name": "Le Baroque"}}, {"type": "node", "id": 6184946775, "lat": 36.4466342, "lon": 10.7264548, "tags": {"amenity": "restaurant", "name": "Crespella"}}, {"type": "node", "id": 6184946776, "lat": 36.4465922, "lon": 10.7262083, "tags": {"amenity": "cafe", "name": "Caf\u00e9 Derbi"}}, {"type": "node", "id": 6193581385, "lat": 36.4601164, "lon": 10.7277734, "tags": {"amenity": "cafe", "name": "Caf\u00e9 Baba Zou"}}, {"type": "node", "id": 6193581386, "lat": 36.4601487, "lon": 10.7270331, "tags": {"amenity": "cafe", "name": "Caf\u00e9 Ben Fkih"}}, {"type": "node", "id": 6193581419, "lat": 36.4566459, "lon": 10.7339243, "tags": {"amenity": "cafe", "name": "Bella Vista"}}, {"type": "node", "id": 6193581446, "lat": 36.4555085, "lon": 10.7366819, "tags": {"amenity": "cafe", "name": "Caf\u00e9 Avenue Farhat Hached"}}, {"type": "node", "id": 6201363274, "lat": 36.4438986, "lon": 10.7145663, "tags": {"amenity": "restaurant", "name": "Slovenia"}}, {"type": "node", "id": 6201363275, "lat": 36.4453034, "lon": 10.7163845, "tags": {"amenity": "restaurant", "name": "The Wake Up Coffee Shop"}}, {"type": "node", "id": 6201363281, "lat": 36.4469076, "lon": 10.7184247, "tags": {"amenity": "restaurant", "name": "Falefel Tarbouche"}}, {"type": "node", "id": 6201364014, "lat": 36.4444899, "lon": 10.7342257, "tags": {"amenity": "restaurant", "name": "Texas"}}, {"type": "node", "id": 6201364016, "lat": 36.4446707, "lon": 10.7347106, "tags": {"amenity": "cafe", "name": "Chocoholic", "opening_hours": "Mo-Su 07:00-21:30"}}, {"type": "node", "id": 6201364017, "lat": 36.4448145, "lon": 10.7348486, "tags": {"amenity": "cafe", "name": "Costa Caf\u00e9", "opening_hours": "Mo-Su 06:30-22:00"}}, {"type": "node", "id": 6201364018, "lat": 36.4448321, "lon": 10.733923, "tags": {"amenity": "restaurant", "name": "Le Grand Pecheur"}}, {"type": "node", "id": 6201364022, "lat": 36.4460288, "lon": 10.7416368, "tags": {"amenity": "cafe", "name": "Caf\u00e9 La Nostra"}}, {"type": "node", "id": 6201364024, "lat": 36.442462, "lon": 10.7452568, "tags": {"amenity": "restaurant", "cuisine": "regional", "name": "La Fontaine"}}, {"type": "node", "id": 6201364036, "lat": 36.4467344, "lon": 10.7186294, "tags": {"amenity": "restaurant", "name": "Garage 41"}}, {"type": "node", "id": 6202229609, "lat": 36.4450454, "lon": 10.739475, "tags": {"amenity": "cafe", "name": "Caf\u00e9 de la foire", "outdoor_seating": "yes"}}, {"type": "node", "id": 6202229611, "lat": 36.4527786, "lon": 10.7326444, "tags": {"amenity": "cafe", "name": "La Cabane"}}, {"type": "node", "id": 6202229629, "lat": 36.452358, "lon": 10.7336519, "tags": {"amenity": "restaurant", "name": "Le Patio"}}, {"type": "node", "id": 6202229630, "lat": 36.4527785, "lon": 10.7345908, "tags": {"amenity": "restaurant", "name": "L'Olivier"}}, {"type": "node", "id": 6202229632, "lat": 36.4502059, "lon": 10.7299074, "tags": {"amenity": "restaurant", "name": "\u0635\u0648\u064a\u0628\u0639\u0627\u062a \u0635\u0646\u0627\u0641\u0629", "name:ar": "\u0635\u0648\u064a\u0628\u0639\u0627\u062a \u0635\u0646\u0627\u0641\u0629"}}, {"type": "node", "id": 6202229634, "lat": 36.4514812, "lon": 10.730187, "tags": {"amenity": "restaurant", "name": "El Bahi"}}, {"type": "node", "id": 6202229635, "lat": 36.4519139, "lon": 10.7315673, "tags": {"amenity": "cafe", "name": "CAFE +"}}, {"type": "node", "id": 6202229638, "lat": 36.4460559, "lon": 10.7254464, "tags": {"amenity": "cafe", "name": "Brown Ink"}}, {"type": "node", "id": 6202229642, "lat": 36.4447438, "lon": 10.7348107, "tags": {"amenity": "restaurant", "name": "Domino Food"}}, {"type": "node", "id": 6202229643, "lat": 36.4429536, "lon": 10.7494497, "tags": {"amenity": "cafe", "name": "Caf\u00e9 Club les Tri\u00e8res"}}, {"type": "node", "id": 6202229655, "lat": 36.4436304, "lon": 10.7474577}, {"type": "node", "id": 6202229656, "lat": 36.4437167, "lon": 10.7477956}, {"type": "node", "id": 6202229657, "lat": 36.4431729, "lon": 10.748088}, {"type": "node", "id": 6202229658, "lat": 36.4431859, "lon": 10.7479968}, {"type": "node", "id": 6202229659, "lat": 36.4433283, "lon": 10.7478117}, {"type": "node", "id": 6202229660, "lat": 36.4432938, "lon": 10.747683}, {"type": "node", "id": 6202229661, "lat": 36.4430348, "lon": 10.7477876}, {"type": "node", "id": 6202229662, "lat": 36.4430284, "lon": 10.747691}, {"type": "node", "id": 6202422554, "lat": 36.4502325, "lon": 10.7360984, "tags": {"amenity": "cafe", "name": "Buvette Saber", "opening_hours:signed": "no"}}, {"type": "node", "id": 6202422572, "lat": 36.4476991, "lon": 10.7530277, "tags": {"amenity": "cafe", "name": "Caf\u00e9 Planete Foot"}}, {"type": "node", "id": 6202422573, "lat": 36.4463053, "lon": 10.7539906, "tags": {"amenity": "cafe", "name": "Salon De Th\u00e9 Ibiza Dar Chaabane Nabeul", "opening_hours": "Mo-Su 08:30-22:00"}}, {"type": "node", "id": 6202422574, "lat": 36.449023, "lon": 10.7519936, "tags": {"amenity": "cafe", "name": "Caf\u00e9 Rolla"}}, {"type": "node", "id": 6202422582, "lat": 36.4631996, "lon": 10.7328541, "tags": {"amenity": "cafe", "name": "Cafe Om Kalthoum"}}, {"type": "node", "id": 6204352718, "lat": 36.4567787, "lon": 10.731941, "tags": {"amenity": "restaurant", "name": "Restaurant SFIA"}}, {"type": "node", "id": 6204352720, "lat": 36.45833, "lon": 10.7270914, "tags": {"amenity": "cafe", "name": "Cafe Sarra"}}, {"type": "node", "id": 6204352751, "lat": 36.4559997, "lon": 10.7408419}, {"type": "node", "id": 6204352752, "lat": 36.4559257, "lon": 10.7409021}, {"type": "node", "id": 6204352753, "lat": 36.4559371, "lon": 10.7409269}, {"type": "node", "id": 6204352754, "lat": 36.455878, "lon": 10.7409736}, {"type": "node", "id": 6204352755, "lat": 36.4558061, "lon": 10.7408313}, {"type": "node", "id": 6204352756, "lat": 36.4558374, "lon": 10.7407605}, {"type": "node", "id": 6204352757, "lat": 36.4559399, "lon": 10.7407075}, {"type": "node", "id": 6204459433, "lat": 36.4575259, "lon": 10.7309251, "tags": {"amenity": "cafe"}}, {"type": "node", "id": 6208150361, "lat": 36.4532389, "lon": 10.7324019, "tags": {"amenity": "cafe", "name": "Ac Milan Coffee"}}, {"type": "node", "id": 6208150388, "lat": 36.4353559, "lon": 10.6944764, "tags": {"amenity": "cafe", "name": "Studio 55"}}, {"type": "node", "id": 6208150389, "lat": 36.4352168, "lon": 10.6938647, "tags": {"amenity": "cafe", "name": "Do' Th\u00e9"}}, {"type": "node", "id": 6208150392, "lat": 36.4353735, "lon": 10.6929056, "tags": {"amenity": "cafe", "name": "El Amen"}}, {"type": "node", "id": 6208889633, "lat": 36.4534127, "lon": 10.7410109, "tags": {"amenity": "restaurant", "name": "Restaurant Mustapha"}}, {"type": "node", "id": 6208889634, "lat": 36.4533615, "lon": 10.7414923, "tags": {"amenity": "restaurant", "name": "Chez Hamhoum"}}, {"type": "node", "id": 6210560710, "lat": 36.4511872, "lon": 10.7275851, "tags": {"amenity": "cafe", "name": "Caf\u00e9 de Paris"}}, {"type": "node", "id": 6211660647, "lat": 36.4353351, "lon": 10.6937846, "tags": {"amenity": "restaurant", "name": "Diar Zman"}}, {"type": "node", "id": 6211666491, "lat": 36.4352933, "lon": 10.6916999, "tags": {"amenity": "cafe", "name": "Glamour Caf\u00e9 & Fast-Food"}}, {"type": "node", "id": 6219477180, "lat": 36.4436056, "lon": 10.7144963, "tags": {"amenity": "restaurant", "name": "Les Jasmins"}}, {"type": "node", "id": 6219477424, "lat": 36.4338507, "lon": 10.6886272, "tags": {"amenity": "cafe", "name": "Taipei 101 drink & food"}}, {"type": "node", "id": 6219477462, "lat": 36.4288301, "lon": 10.6863306, "tags": {"amenity": "restaurant", "name": "Caf\u00e9 Restaurant Rayen"}}, {"type": "node", "id": 6221967136, "lat": 36.438515, "lon": 10.6725339, "tags": {"amenity": "cafe", "name": "Caf\u00e9 Tulipe"}}, {"type": "node", "id": 6223222722, "lat": 36.4533404, "lon": 10.7496797, "tags": {"amenity": "cafe", "name": "Buvette Salem"}}, {"type": "node", "id": 6223222753, "lat": 36.4537649, "lon": 10.7343563, "tags": {"amenity": "restaurant", "name": "Akel Fast"}}, {"type": "node", "id": 6223222754, "lat": 36.4536781, "lon": 10.7343811, "tags": {"amenity": "cafe", "name": "\u0627\u0644\u0628\u0631\u0643\u0629", "name:ar": "\u0627\u0644\u0628\u0631\u0643\u0629", "name:en": "Al Baraka", "name:fr": "Al Baraka"}}, {"type": "node", "id": 6223222755, "lat": 36.4537052, "lon": 10.7339879, "tags": {"amenity": "restaurant", "name": "C'Kentacky"}}, {"type": "node", "id": 6223222756, "lat": 36.4536318, "lon": 10.7341087, "tags": {"amenity": "restaurant", "name": "Kilioupatra"}}, {"type": "node", "id": 6223222780, "lat": 36.4482279, "lon": 10.7226363, "tags": {"amenity": "cafe", "name": "Caf\u00e9 Alae"}}, {"type": "node", "id": 6228290089, "lat": 36.4542739, "lon": 10.7310768, "tags": {"amenity": "cafe", "name": "\u0645\u064a\u0648 \u0643\u0627\u0641\u064a\u0647", "name:ar": "\u0645\u064a\u0648 \u0643\u0627\u0641\u064a\u0647", "name:fr": "Mio Caf\u00e9"}}, {"type": "node", "id": 6228290091, "lat": 36.4531902, "lon": 10.7311375, "tags": {"amenity": "restaurant", "name": "\u0625\u0646\u0633\u062a\u0627 \u0641\u0648\u062f", "name:ar": "\u0625\u0646\u0633\u062a\u0627 \u0641\u0648\u062f", "name:en": "Insta Food", "name:fr": "Insta Food"}}, {"type": "node", "id": 6228290094, "lat": 36.4559581, "lon": 10.730357, "tags": {"amenity": "restaurant", "name": "Les Jasmins"}}, {"type": "node", "id": 6228290118, "lat": 36.4564238, "lon": 10.7380679, "tags": {"amenity": "restaurant", "name": "El Saha"}}, {"type": "node", "id": 6228290119, "lat": 36.4530991, "lon": 10.7416258, "tags": {"amenity": "cafe", "name": "Toscana"}}, {"type": "node", "id": 6228290122, "lat": 36.4537833, "lon": 10.7416862, "tags": {"amenity": "cafe", "name": "Babab Nouri"}}, {"type": "node", "id": 6228290125, "lat": 36.4530237, "lon": 10.7433913, "tags": {"amenity": "restaurant", "name": "Dar Mrad"}}, {"type": "node", "id": 6228290126, "lat": 36.4525491, "lon": 10.7417456, "tags": {"amenity": "cafe", "name": "Basha Caf\u00e9"}}, {"type": "node", "id": 6228290127, "lat": 36.4523441, "lon": 10.7423031, "tags": {"amenity": "restaurant", "name": "Pacha Drink & food"}}, {"type": "node", "id": 6231293132, "lat": 36.4353326, "lon": 10.6943618, "tags": {"amenity": "restaurant", "name": "Big Texas"}}, {"type": "node", "id": 6233083725, "lat": 36.4384378, "lon": 10.7172811}, {"type": "node", "id": 6233083726, "lat": 36.4384834, "lon": 10.7174263}, {"type": "node", "id": 6233083727, "lat": 36.4382812, "lon": 10.7177377}, {"type": "node", "id": 6233083728, "lat": 36.4380762, "lon": 10.7171997}, {"type": "node", "id": 6233175376, "lat": 36.374741, "lon": 10.5418118, "tags": {"amenity": "restaurant", "name": "La Perle Marina"}}, {"type": "node", "id": 6234568254, "lat": 36.3686063, "lon": 10.5352177, "tags": {"amenity": "restaurant", "name": "Caicco Romano"}}, {"type": "node", "id": 6238751128, "lat": 36.4533023, "lon": 10.7414529, "tags": {"amenity": "cafe", "name": "Caf\u00e9 Achour Hadidane"}}, {"type": "node", "id": 6238751135, "lat": 36.4544994, "lon": 10.7435217, "tags": {"amenity": "cafe", "name": "Caf\u00e9 Am Ali"}}, {"type": "node", "id": 6238751136, "lat": 36.4552112, "lon": 10.7432579, "tags": {"amenity": "restaurant", "name": "Restaurant Maxi's", "name:fr": "Restaurant Maxi's"}}, {"type": "node", "id": 6238751137, "lat": 36.4478164, "lon": 10.7403188, "tags": {"amenity": "cafe", "name": "Caf\u00e9 Touta"}}, {"type": "node", "id": 6238751138, "lat": 36.4426283, "lon": 10.7258847, "tags": {"amenity": "restaurant", "name": "Buvette"}}, {"type": "node", "id": 6244759006, "lat": 36.4584401, "lon": 10.7445078, "tags": {"amenity": "cafe", "name": "Caf\u00e9t\u00e9ria Pazzo"}}, {"type": "node", "id": 6244759014, "lat": 36.4562291, "lon": 10.7389715, "tags": {"amenity": "cafe", "name": "Chez Saber"}}, {"type": "node", "id": 6244759021, "lat": 36.455872, "lon": 10.7367177, "tags": {"amenity": "cafe", "name": "\u0639\u0646\u062f \u062d\u0627\u062c\u064a", "name:ar": "\u0639\u0646\u062f \u062d\u0627\u062c\u064a", "name:fr": "Chez Haji"}}, {"type": "node", "id": 6244759042, "lat": 36.4542255, "lon": 10.7361015, "tags": {"amenity": "restaurant", "name": "\u0644\u0628\u0644\u0627\u0628\u064a \u0645\u0647\u0628\u0648\u0644", "name:ar": "\u0644\u0628\u0644\u0627\u0628\u064a \u0645\u0647\u0628\u0648\u0644"}}, {"type": "node", "id": 6244759043, "lat": 36.4540659, "lon": 10.734173, "tags": {"amenity": "restaurant", "name": "La Mexicana"}}, {"type": "node", "id": 6244759044, "lat": 36.4543721, "lon": 10.7340245, "tags": {"amenity": "restaurant", "name": "Chez Meng\u00fcll\u00fco\u011flu & Nuraydin (P\u00e2tisserie turque)"}}, {"type": "node", "id": 6244759045, "lat": 36.4542152, "lon": 10.7349755, "tags": {"amenity": "restaurant", "name": "Club Sandwich"}}, {"type": "node", "id": 6244759058, "lat": 36.445721, "lon": 10.7250016, "tags": {"amenity": "cafe", "name": "Vintage Coffee"}}, {"type": "node", "id": 6252317110, "lat": 36.4511326, "lon": 10.7506944, "tags": {"amenity": "cafe", "name": "Coffee Time La Fiesta"}}, {"type": "node", "id": 6252317114, "lat": 36.453256, "lon": 10.7495883, "tags": {"amenity": "restaurant", "name": "Restaurant Abou Ahmad"}}, {"type": "node", "id": 6252317149, "lat": 36.4691108, "lon": 10.7807957, "tags": {"amenity": "cafe", "name": "Caf\u00e9 Ennabi"}}, {"type": "node", "id": 6256031453, "lat": 36.3944784, "lon": 10.6127143, "tags": {"amenity": "cafe", "name": "Caf\u00e9 Fort Hammamet"}}, {"type": "node", "id": 6256031454, "lat": 36.3947685, "lon": 10.6135822, "tags": {"amenity": "cafe", "name": "El Medina"}}, {"type": "node", "id": 6256031461, "lat": 36.3952756, "lon": 10.6140649, "tags": {"amenity": "restaurant", "name": "SkyBar Hammamet"}}, {"type": "node", "id": 6256031462, "lat": 36.3958666, "lon": 10.6131539, "tags": {"amenity": "restaurant", "name": "Belle Vue"}}, {"type": "node", "id": 6256031463, "lat": 36.3957316, "lon": 10.6132831, "tags": {"amenity": "restaurant", "name": "Dolce Vita"}}, {"type": "node", "id": 6256031464, "lat": 36.396032, "lon": 10.6130472, "tags": {"amenity": "restaurant", "name": "Restaurant Fatma"}}, {"type": "node", "id": 6256534646, "lat": 36.3959351, "lon": 10.6142161, "tags": {"amenity": "cafe", "name": "Canari", "opening_hours": "Mo-Su 07:00-23:00"}}, {"type": "node", "id": 6256534647, "lat": 36.395675, "lon": 10.6139879, "tags": {"amenity": "cafe", "name": "Caf\u00e9 Le Palmier"}}, {"type": "node", "id": 6256534648, "lat": 36.396, "lon": 10.6145404, "tags": {"amenity": "cafe", "name": "Mister Ben"}}, {"type": "node", "id": 6256534649, "lat": 36.3955261, "lon": 10.6146583, "tags": {"amenity": "restaurant", "name": "La Fabrique O'Tacos", "opening_hours:signed": "no", "wheelchair": "no"}}, {"type": "node", "id": 6256534659, "lat": 36.3950092, "lon": 10.615677, "tags": {"amenity": "restaurant", "name": "L'Angolo Verde", "opening_hours:signed": "no"}}, {"type": "node", "id": 6256534660, "lat": 36.3949177, "lon": 10.6157806, "tags": {"amenity": "cafe", "name": "Black Tag"}}, {"type": "node", "id": 6256539390, "lat": 36.3972985, "lon": 10.6149123, "tags": {"amenity": "restaurant", "name": "Paradise"}}, {"type": "node", "id": 6256539391, "lat": 36.3976403, "lon": 10.6150978, "tags": {"amenity": "restaurant", "name": "Movida Club Ristorante"}}, {"type": "node", "id": 6256539398, "lat": 36.3983605, "lon": 10.6155983, "tags": {"amenity": "cafe", "name": "Twenty Six Coffee"}}, {"type": "node", "id": 6256539400, "lat": 36.3984256, "lon": 10.6157019, "tags": {"amenity": "cafe", "name": "Bridge Caf\u00e9"}}, {"type": "node", "id": 6256539401, "lat": 36.3985721, "lon": 10.6158814, "tags": {"amenity": "restaurant", "name": "Capricio"}}, {"type": "node", "id": 6256539403, "lat": 36.3986189, "lon": 10.6163617, "tags": {"amenity": "restaurant", "name": "l'Escale Hammamet"}}, {"type": "node", "id": 6256539404, "lat": 36.398476, "lon": 10.616229, "tags": {"amenity": "restaurant", "name": "Le Petit P\u00eacheur 2 Hammamet", "opening_hours:signed": "no"}}, {"type": "node", "id": 6256539409, "lat": 36.4001303, "lon": 10.6149813, "tags": {"amenity": "restaurant", "name": "Kafteji Hammamet"}}, {"type": "node", "id": 6256539412, "lat": 36.3966981, "lon": 10.612176, "tags": {"amenity": "restaurant", "name": "Resto La Plage Hammamet"}}, {"type": "node", "id": 6256539430, "lat": 36.4021989, "lon": 10.629737, "tags": {"amenity": "restaurant", "name": "Black and White"}}, {"type": "node", "id": 6256539431, "lat": 36.4021109, "lon": 10.6294569, "tags": {"amenity": "restaurant", "name": "Le Sultan"}}, {"type": "node", "id": 6259880767, "lat": 36.4547277, "lon": 10.7976535, "tags": {"amenity": "restaurant", "name": "Le Petit P\u00eacheur"}}, {"type": "node", "id": 6259880768, "lat": 36.4543884, "lon": 10.7969716, "tags": {"amenity": "restaurant", "name": "Chez Monji"}}, {"type": "node", "id": 6262815049, "lat": 36.3736737, "lon": 10.5452306, "tags": {"amenity": "cafe", "name": "Le Mistral"}}, {"type": "node", "id": 6262815050, "lat": 36.373769, "lon": 10.5457801, "tags": {"amenity": "restaurant", "name": "Yachting Caf\u00e9 Restaurant"}}, {"type": "node", "id": 6262815051, "lat": 36.3738048, "lon": 10.5447783, "tags": {"amenity": "restaurant", "name": "Yachting Caf\u00e9 Restaurant"}}, {"type": "node", "id": 6262815052, "lat": 36.3735853, "lon": 10.5443305, "tags": {"amenity": "restaurant", "name": "Restaurant & Caf\u00e9 Marinero"}}, {"type": "node", "id": 6262815073, "lat": 36.4230207, "lon": 10.67577, "tags": {"amenity": "restaurant", "name": "Eden Beach"}}, {"type": "node", "id": 6262815074, "lat": 36.4226832, "lon": 10.6751559, "tags": {"amenity": "restaurant", "name": "Lounge"}}, {"type": "node", "id": 6262815075, "lat": 36.4232822, "lon": 10.6752925, "tags": {"amenity": "restaurant", "name": "La Petite Terasse"}}, {"type": "node", "id": 6262815077, "lat": 36.4219568, "lon": 10.6724499, "tags": {"amenity": "restaurant", "name": "La Cabane Caf\u00e9 & Resto"}}, {"type": "node", "id": 6262815078, "lat": 36.4217563, "lon": 10.673034, "tags": {"amenity": "cafe", "name": "caf\u00e9 Flora Plus"}}, {"type": "node", "id": 6262815209, "lat": 36.4258178, "lon": 10.6749508, "tags": {"amenity": "restaurant", "name": "Blue Smile"}}, {"type": "node", "id": 6262815276, "lat": 36.4223255, "lon": 10.6734186, "tags": {"amenity": "restaurant", "name": "La Terasse"}}, {"type": "node", "id": 6262815282, "lat": 36.4259508, "lon": 10.681496, "tags": {"amenity": "restaurant", "name": "Bistrot Beach"}}, {"type": "node", "id": 6264723526, "lat": 36.4278773, "lon": 10.6740388, "tags": {"amenity": "cafe", "name": "Caf\u00e9 Bro"}}, {"type": "node", "id": 6264723527, "lat": 36.4282084, "lon": 10.6748085, "tags": {"addr:city": "\u0627\u0644\u0645\u0631\u0627\u0632\u0642\u0629", "addr:street": "\u0634\u0627\u0631\u0639 \u0627\u0644\u0628\u064a\u0626\u0629", "amenity": "restaurant", "cuisine": "pizza;regional", "name": "Cesar"}}, {"type": "node", "id": 6264723540, "lat": 36.4206999, "lon": 10.6679299, "tags": {"amenity": "cafe", "name": "Alia Caf\u00e9"}}, {"type": "node", "id": 6264723541, "lat": 36.4197127, "lon": 10.6671637, "tags": {"amenity": "restaurant", "name": "Le Mistral"}}, {"type": "node", "id": 6268027019, "lat": 36.4448451, "lon": 10.7157358, "tags": {"amenity": "cafe", "name": "Magic Moment Coffee"}}, {"type": "node", "id": 6268579169, "lat": 36.4360026, "lon": 10.6898334}, {"type": "node", "id": 6268579170, "lat": 36.4361312, "lon": 10.6906394}, {"type": "node", "id": 6268579171, "lat": 36.4355589, "lon": 10.6907993}, {"type": "node", "id": 6268579172, "lat": 36.4355615, "lon": 10.6908352}, {"type": "node", "id": 6268579173, "lat": 36.4355169, "lon": 10.6908319}, {"type": "node", "id": 6268579174, "lat": 36.435488, "lon": 10.6908254}, {"type": "node", "id": 6268579175, "lat": 36.4354224, "lon": 10.6904012}, {"type": "node", "id": 6268579176, "lat": 36.4355589, "lon": 10.6900161}, {"type": "node", "id": 6268579177, "lat": 36.435572, "lon": 10.6899509}, {"type": "node", "id": 6268579178, "lat": 36.4356193, "lon": 10.6899215}, {"type": "node", "id": 6268579179, "lat": 36.4356429, "lon": 10.6898823}, {"type": "node", "id": 6268579180, "lat": 36.4357689, "lon": 10.6898464}, {"type": "node", "id": 6268579181, "lat": 36.4357689, "lon": 10.6897714}, {"type": "node", "id": 6268579182, "lat": 36.4358687, "lon": 10.6897681}, {"type": "node", "id": 6268580388, "lat": 36.4310813, "lon": 10.6832263, "tags": {"amenity": "cafe", "name": "Salon de th\u00e9 Miami"}}, {"type": "node", "id": 6268580430, "lat": 36.4294043, "lon": 10.6781026, "tags": {"amenity": "restaurant", "name": "Restaurant Delfino"}}, {"type": "node", "id": 6268580434, "lat": 36.4288787, "lon": 10.684621, "tags": {"amenity": "restaurant", "name": "Bab Bhar"}}, {"type": "node", "id": 6268839777, "lat": 36.4202992, "lon": 10.6676039, "tags": {"amenity": "restaurant", "name": "Restaurant Orangina"}}, {"type": "node", "id": 6268839778, "lat": 36.419116, "lon": 10.6652888, "tags": {"amenity": "restaurant", "name": "Restaurant l'Aragosta"}}, {"type": "node", "id": 6268839779, "lat": 36.4189376, "lon": 10.6650211, "tags": {"amenity": "cafe", "name": "Caf\u00e9 Net"}}, {"type": "node", "id": 6268839780, "lat": 36.418446, "lon": 10.6645441, "tags": {"amenity": "restaurant", "name": "Traviata"}}, {"type": "node", "id": 6270405990, "lat": 36.4288779, "lon": 10.6764433, "tags": {"amenity": "cafe", "name": "Caf\u00e9 Granada"}}, {"type": "node", "id": 6270405991, "lat": 36.4286728, "lon": 10.6771081, "tags": {"amenity": "restaurant", "cuisine": "italian", "name": "Restaurant DAR Mna"}}, {"type": "node", "id": 6270405999, "lat": 36.4240313, "lon": 10.6663277, "tags": {"amenity": "restaurant", "name": "Le Coq Rouge"}}, {"type": "node", "id": 6270406013, "lat": 36.3952362, "lon": 10.6202441, "tags": {"amenity": "cafe", "name": "La Roche"}}, {"type": "node", "id": 6270406017, "lat": 36.3969206, "lon": 10.6228261, "tags": {"amenity": "restaurant", "name": "Salon de th\u00e9 et de Vape Bello"}}, {"type": "node", "id": 6270406018, "lat": 36.3980444, "lon": 10.6246012, "tags": {"amenity": "cafe", "name": "Salon De Th\u00e9 la Vague"}}, {"type": "node", "id": 6270406019, "lat": 36.3985412, "lon": 10.6213708, "tags": {"amenity": "restaurant", "name": "La Cabana"}}, {"type": "node", "id": 6270406020, "lat": 36.3987697, "lon": 10.6211489, "tags": {"amenity": "cafe", "name": "Caf\u00e9 Gualleti"}}, {"type": "node", "id": 6274661078, "lat": 36.3961836, "lon": 10.6130357, "tags": {"amenity": "restaurant", "name": "Restaurants spectacle layali Bayreuth"}}, {"type": "node", "id": 6274661493, "lat": 36.4178674, "lon": 10.6569012, "tags": {"amenity": "cafe", "name": "Caf\u00e9 Ezzitouna"}}, {"type": "node", "id": 6274661524, "lat": 36.4154424, "lon": 10.6524179, "tags": {"amenity": "cafe", "name": "Caf\u00e9 Touati"}}, {"type": "node", "id": 6274661527, "lat": 36.4147202, "lon": 10.6512877, "tags": {"amenity": "cafe", "name": "Caf\u00e9 KHARROUBA"}}, {"type": "node", "id": 6274661531, "lat": 36.4122044, "lon": 10.6481535, "tags": {"amenity": "cafe", "name": "Le Miramar"}}, {"type": "node", "id": 6274661558, "lat": 36.406751, "lon": 10.6356375, "tags": {"amenity": "cafe", "name": "Caf\u00e9 Olivia"}}, {"type": "node", "id": 6274661565, "lat": 36.4069219, "lon": 10.6439597, "tags": {"amenity": "restaurant", "name": "LE MINI GOLF, CHEZ DINO"}}, {"type": "node", "id": 6274661575, "lat": 36.4028844, "lon": 10.6413208, "tags": {"amenity": "cafe", "name": "Cabane Club"}}, {"type": "node", "id": 6274661659, "lat": 36.402227, "lon": 10.6366894, "tags": {"amenity": "cafe", "name": "Le Canap\u00e9"}}, {"type": "node", "id": 6274661660, "lat": 36.4019568, "lon": 10.6358475, "tags": {"amenity": "cafe", "name": "Melody caf\u00e9"}}, {"type": "node", "id": 6274661708, "lat": 36.3991099, "lon": 10.6254713, "tags": {"amenity": "cafe", "name": "Caf\u00e9 Halfaouine"}}, {"type": "node", "id": 6274661709, "lat": 36.3995644, "lon": 10.6253244, "tags": {"amenity": "cafe", "name": "Caf\u00e9 Essousen"}}, {"type": "node", "id": 6274661710, "lat": 36.4005811, "lon": 10.6265614, "tags": {"amenity": "cafe", "name": "Hexagone caf\u00e9"}}, {"type": "node", "id": 6274661711, "lat": 36.3987941, "lon": 10.6244145, "tags": {"amenity": "restaurant", "name": "Texas Hammamet"}}, {"type": "node", "id": 6274661712, "lat": 36.3986041, "lon": 10.6241607, "tags": {"amenity": "cafe", "name": "Caf\u00e9 Yasmine"}}, {"type": "node", "id": 6274661713, "lat": 36.3984489, "lon": 10.6232699, "tags": {"amenity": "cafe", "name": "Cafe' Perle D'Azur"}}, {"type": "node", "id": 6274661714, "lat": 36.397184, "lon": 10.622602, "tags": {"amenity": "restaurant", "name": "Farms West Hammamet"}}, {"type": "node", "id": 6274661734, "lat": 36.4225757, "lon": 10.6721311, "tags": {"amenity": "restaurant", "name": "La terasse snack and coffee"}}, {"type": "node", "id": 6275098156, "lat": 36.4528582, "lon": 10.7336803, "tags": {"amenity": "cafe", "name": "Marbella Brunch"}}, {"type": "node", "id": 6275098162, "lat": 36.4550584, "lon": 10.7333189, "tags": {"amenity": "cafe", "name": "El Malouf"}}, {"type": "node", "id": 6275098179, "lat": 36.4518713, "lon": 10.7290681, "tags": {"amenity": "cafe", "name": "Caf\u00e9t\u00e9ria Emna"}}, {"type": "node", "id": 6275099891, "lat": 36.4484648, "lon": 10.7210382, "tags": {"amenity": "cafe", "name": "Caf\u00e9 Sourour"}}, {"type": "node", "id": 6287072783, "lat": 36.4057012, "lon": 10.5832923, "tags": {"amenity": "restaurant", "name": "Chez Robert"}}, {"type": "node", "id": 6287074314, "lat": 36.4015513, "lon": 10.5811449, "tags": {"amenity": "cafe", "name": "L'eldorado"}}, {"type": "node", "id": 6287074315, "lat": 36.4021386, "lon": 10.5805254, "tags": {"amenity": "restaurant", "name": "Germaine Caf\u00e9 Restaurant"}}, {"type": "node", "id": 6287074326, "lat": 36.4023166, "lon": 10.5810101, "tags": {"amenity": "restaurant", "name": "Restaurant Casa nostra"}}, {"type": "node", "id": 6287074327, "lat": 36.4037538, "lon": 10.5796723, "tags": {"amenity": "cafe", "name": "Salon De Th\u00e9 Queen"}}, {"type": "node", "id": 6287074328, "lat": 36.4056845, "lon": 10.5783912, "tags": {"amenity": "cafe", "name": "TIME OUT coffe shop"}}, {"type": "node", "id": 6287074340, "lat": 36.4047233, "lon": 10.5717904, "tags": {"amenity": "cafe", "name": "Cafe Phenicia"}}, {"type": "node", "id": 6287074341, "lat": 36.4038752, "lon": 10.5700329, "tags": {"amenity": "restaurant", "name": "Il Pianetino"}}, {"type": "node", "id": 6287074342, "lat": 36.4041808, "lon": 10.5705917, "tags": {"amenity": "restaurant", "name": "L'artisto"}}, {"type": "node", "id": 6287074619, "lat": 36.3964439, "lon": 10.5721084, "tags": {"amenity": "restaurant", "name": "Le Trident Beach"}}, {"type": "node", "id": 6296568504, "lat": 36.398982, "lon": 10.6169544, "tags": {"amenity": "restaurant", "name": "Chee'z Pizzeria"}}, {"type": "node", "id": 6296568505, "lat": 36.3995292, "lon": 10.6171392, "tags": {"amenity": "restaurant", "name": "La Maison des Saveurs"}}, {"type": "node", "id": 6296568508, "lat": 36.3996452, "lon": 10.6182477, "tags": {"amenity": "cafe", "name": "Hammamet"}}, {"type": "node", "id": 6296568509, "lat": 36.3993329, "lon": 10.6152215, "tags": {"amenity": "cafe", "name": "Cafeteria CA"}}, {"type": "node", "id": 6296568516, "lat": 36.3971416, "lon": 10.6151549, "tags": {"amenity": "restaurant", "name": "Pizzeria L'acquolina In Bocca"}}, {"type": "node", "id": 6296568518, "lat": 36.3963445, "lon": 10.6144602, "tags": {"amenity": "restaurant", "name": "Sole Mio"}}, {"type": "node", "id": 6296568519, "lat": 36.3956663, "lon": 10.6145304, "tags": {"amenity": "restaurant", "name": "Resto Dar Bakhta"}}, {"type": "node", "id": 6296568520, "lat": 36.3958477, "lon": 10.6143962, "tags": {"amenity": "restaurant", "name": "La Sofra", "opening_hours": "Mo-Su 11:00-23:00", "wheelchair": "limited"}}, {"type": "node", "id": 6297472061, "lat": 36.3998591, "lon": 10.6122363, "tags": {"amenity": "restaurant", "name": "Restaurant Florida"}}, {"type": "node", "id": 6297472062, "lat": 36.4000824, "lon": 10.612171, "tags": {"amenity": "restaurant", "name": "Restaurant El Fawara"}}, {"type": "node", "id": 6297472067, "lat": 36.4019708, "lon": 10.6115053, "tags": {"amenity": "restaurant", "name": "Negozio Gusto Italia"}}, {"type": "node", "id": 6297472068, "lat": 36.4004135, "lon": 10.6085852, "tags": {"amenity": "cafe", "name": "Caf\u00e9 Moussa"}}, {"type": "node", "id": 6297472069, "lat": 36.400732, "lon": 10.6082144, "tags": {"amenity": "restaurant", "name": "Resto Tweety"}}, {"type": "node", "id": 6297472071, "lat": 36.401636, "lon": 10.6039034, "tags": {"amenity": "restaurant", "name": "Barbecues Le Pirate"}}, {"type": "node", "id": 6297475985, "lat": 36.4059635, "lon": 10.6047521, "tags": {"amenity": "restaurant", "check_date": "2025-06-03", "name": "Restaurant La Luna"}}, {"type": "node", "id": 6297475988, "lat": 36.4054196, "lon": 10.6028747, "tags": {"amenity": "cafe", "name": "Cafe Bouascar"}}, {"type": "node", "id": 6297475989, "lat": 36.4059972, "lon": 10.6028833, "tags": {"amenity": "cafe", "name": "Caf\u00e9 Billard Frizooo"}}, {"type": "node", "id": 6297475991, "lat": 36.405507, "lon": 10.598931, "tags": {"amenity": "cafe", "name": "Pause Cafe My Coffe"}}, {"type": "node", "id": 6297475993, "lat": 36.4057423, "lon": 10.5923895, "tags": {"amenity": "cafe", "name": "Churros By Zicos"}}, {"type": "node", "id": 6297475996, "lat": 36.406898, "lon": 10.6120795, "tags": {"amenity": "restaurant", "name": "Sandwich Royal"}}, {"type": "node", "id": 6297475999, "lat": 36.4075528, "lon": 10.6115641, "tags": {"amenity": "restaurant", "name": "Cityfood"}}, {"type": "node", "id": 6297476004, "lat": 36.405352, "lon": 10.610882, "tags": {"amenity": "restaurant", "name": "Fast Food Chez Soltani"}}, {"type": "node", "id": 6297777055, "lat": 36.4028714, "lon": 10.6158154, "tags": {"amenity": "restaurant", "name": "Burger Home CFC"}}, {"type": "node", "id": 6297777062, "lat": 36.4054802, "lon": 10.6286164, "tags": {"amenity": "cafe", "name": "Caf\u00e9 Elhana"}}, {"type": "node", "id": 6297777064, "lat": 36.4044741, "lon": 10.6289835, "tags": {"amenity": "cafe", "name": "Caf\u00e9 Prestige"}}, {"type": "node", "id": 6297777065, "lat": 36.4042154, "lon": 10.6284773, "tags": {"amenity": "cafe", "name": "Woods coffee"}}, {"type": "node", "id": 6297777068, "lat": 36.4030437, "lon": 10.6269919, "tags": {"amenity": "restaurant", "name": "Restaurant Time Out"}}, {"type": "node", "id": 6302382980, "lat": 36.4632048, "lon": 10.7323188, "tags": {"amenity": "cafe", "name": "Caf\u00e9 Heni"}}, {"type": "node", "id": 6302383585, "lat": 36.4555715, "lon": 10.7327444, "tags": {"amenity": "cafe", "name": "Hollywood Cafe Nabeul"}}, {"type": "node", "id": 6302383587, "lat": 36.4540323, "lon": 10.7350762, "tags": {"amenity": "cafe", "name": "Gastly Cafe"}}, {"type": "node", "id": 6306915432, "lat": 36.4591758, "lon": 10.7551301, "tags": {"amenity": "restaurant", "name": "Espace Hannibal"}}, {"type": "node", "id": 6306915449, "lat": 36.4586265, "lon": 10.7507866, "tags": {"amenity": "cafe", "name": "Caf\u00e9 Mondial"}}, {"type": "node", "id": 6306915452, "lat": 36.4592652, "lon": 10.7553839, "tags": {"amenity": "cafe", "name": "Lagoona Cafe"}}, {"type": "node", "id": 6306915453, "lat": 36.4586909, "lon": 10.7552345, "tags": {"amenity": "restaurant", "name": "Madame Ezzine"}}, {"type": "node", "id": 6306915458, "lat": 36.4554431, "lon": 10.7480457, "tags": {"amenity": "cafe", "name": "Spring's", "name:fr": "Spring's"}}, {"type": "node", "id": 6306915459, "lat": 36.4555849, "lon": 10.7479332, "tags": {"amenity": "cafe", "name": "Sosta Caf\u00e9"}}, {"type": "node", "id": 6306915460, "lat": 36.4551882, "lon": 10.7482848, "tags": {"amenity": "cafe", "name": "Caf\u00e9 Elgran", "name:fr": "Caf\u00e9 Elgran"}}, {"type": "node", "id": 6306915468, "lat": 36.4549731, "lon": 10.7484161, "tags": {"amenity": "restaurant", "name": "Restaurant Anis", "name:fr": "Restaurant Anis"}}, {"type": "node", "id": 6306915469, "lat": 36.4547037, "lon": 10.7490052, "tags": {"amenity": "cafe", "name": "Caf\u00e9 Les Violette"}}, {"type": "node", "id": 6306915471, "lat": 36.3737677, "lon": 10.5413814, "tags": {"amenity": "restaurant", "name": "Oggi Restaurant"}}, {"type": "node", "id": 6306915474, "lat": 36.3749217, "lon": 10.5418089, "tags": {"amenity": "restaurant", "name": "Salon De The Paris"}}, {"type": "node", "id": 6306915476, "lat": 36.3741742, "lon": 10.5434418, "tags": {"amenity": "restaurant", "name": "Malik's Restaurant"}}, {"type": "node", "id": 6306915477, "lat": 36.3738893, "lon": 10.5436686, "tags": {"amenity": "restaurant", "name": "LE MACADAM"}}, {"type": "node", "id": 6306915478, "lat": 36.3740208, "lon": 10.5439468, "tags": {"amenity": "cafe", "name": "Caf\u00e9 Maure YASMINA"}}, {"type": "node", "id": 6306915479, "lat": 36.3742594, "lon": 10.5439136, "tags": {"amenity": "restaurant", "name": "Le Voilier"}}, {"type": "node", "id": 6306915480, "lat": 36.3743933, "lon": 10.5441887, "tags": {"amenity": "restaurant", "name": "La Fornace"}}, {"type": "node", "id": 6306915481, "lat": 36.374649, "lon": 10.5444065, "tags": {"amenity": "restaurant", "name": "Pomodoro Marina"}}, {"type": "node", "id": 6306915482, "lat": 36.374946, "lon": 10.5446937, "tags": {"amenity": "cafe", "name": "Caf\u00e9 la paillote"}}, {"type": "node", "id": 6306915484, "lat": 36.3733282, "lon": 10.5439885, "tags": {"amenity": "cafe", "name": "Canari Tutti Frutti"}}, {"type": "node", "id": 6306915885, "lat": 36.3730768, "lon": 10.5437785, "tags": {"amenity": "restaurant", "name": "Restaurant L'Amiral"}}, {"type": "node", "id": 6306915886, "lat": 36.3728855, "lon": 10.5435445, "tags": {"amenity": "restaurant", "name": "Oxygene"}}, {"type": "node", "id": 6306915888, "lat": 36.3767837, "lon": 10.5474093, "tags": {"amenity": "restaurant", "name": "Farfalle Beach Bar & Restaurant"}}, {"type": "node", "id": 6306915891, "lat": 36.36941, "lon": 10.5370901, "tags": {"amenity": "restaurant", "name": "Kitchenette"}}, {"type": "node", "id": 6306915892, "lat": 36.3683459, "lon": 10.5353665, "tags": {"amenity": "restaurant", "name": "CheeseSteak"}}, {"type": "node", "id": 6306915893, "lat": 36.3676739, "lon": 10.5347829, "tags": {"amenity": "cafe", "name": "Caf\u00e9 Safsaf"}}, {"type": "node", "id": 6306915894, "lat": 36.3683537, "lon": 10.5344334, "tags": {"amenity": "restaurant", "name": "\u062a\u0627\u062c \u0645\u062d\u0644", "name:ar": "\u062a\u0627\u062c \u0645\u062d\u0644"}}, {"type": "node", "id": 6306915895, "lat": 36.3682882, "lon": 10.5348354, "tags": {"amenity": "restaurant", "name": "L'elephant"}}, {"type": "node", "id": 6306915896, "lat": 36.3681949, "lon": 10.5339121, "tags": {"amenity": "restaurant", "name": "RISTORANTE VENEZIA"}}, {"type": "node", "id": 6306915897, "lat": 36.3680873, "lon": 10.5335868, "tags": {"amenity": "restaurant", "name": "Restaurant Sh\u00e9h\u00e9razede"}}, {"type": "node", "id": 6306915898, "lat": 36.3680598, "lon": 10.5342066, "tags": {"amenity": "cafe", "name": "Ksar El Medina"}}, {"type": "node", "id": 6306915899, "lat": 36.3678612, "lon": 10.5338539, "tags": {"amenity": "cafe", "name": "Caf\u00e9 Om Kolthoum"}}, {"type": "node", "id": 6306915900, "lat": 36.368523, "lon": 10.5340902, "tags": {"amenity": "restaurant", "name": "What's Amore"}}, {"type": "node", "id": 6306915902, "lat": 36.3694686, "lon": 10.5354837, "tags": {"amenity": "restaurant", "name": "Carthage Land Restaurant"}}, {"type": "node", "id": 6306915908, "lat": 36.3668752, "lon": 10.5338223, "tags": {"amenity": "restaurant", "name": "Restaurant Alkal\u00e2a"}}, {"type": "node", "id": 6306915910, "lat": 36.3666199, "lon": 10.5387888, "tags": {"amenity": "restaurant", "name": "Golden Fish"}}, {"type": "node", "id": 6306915913, "lat": 36.3720496, "lon": 10.5418267, "tags": {"amenity": "restaurant", "name": "waisso caf\u00e9 pizza glace"}}, {"type": "node", "id": 6306915914, "lat": 36.3731384, "lon": 10.5413087, "tags": {"amenity": "restaurant", "name": "Oggi"}}, {"type": "node", "id": 6308245634, "lat": 36.4452736, "lon": 10.7111267, "tags": {"amenity": "restaurant", "name": "La Petite Marmite"}}, {"type": "node", "id": 6309100826, "lat": 36.4310318, "lon": 10.6921118, "tags": {"amenity": "cafe", "name": "So Delicious"}}, {"type": "node", "id": 6309100828, "lat": 36.4414502, "lon": 10.7164612, "tags": {"amenity": "restaurant", "name": "N\u00e9apolis Club"}}, {"type": "node", "id": 6312464551, "lat": 36.3770492, "lon": 10.5398174, "tags": {"amenity": "restaurant", "name": "Quai 27"}}, {"type": "node", "id": 6312464566, "lat": 36.3780532, "lon": 10.5386186, "tags": {"amenity": "cafe", "name": "Vancouver Coffee Shop"}}, {"type": "node", "id": 6322935078, "lat": 36.3628469, "lon": 10.5360192, "tags": {"amenity": "restaurant", "name": "Wetherspoon"}}, {"type": "node", "id": 6322935079, "lat": 36.3623784, "lon": 10.5349621, "tags": {"amenity": "restaurant", "name": "Pinky Beach"}}, {"type": "node", "id": 6322935080, "lat": 36.3627521, "lon": 10.532348, "tags": {"amenity": "cafe", "name": "Marrakech Coffee House"}}, {"type": "node", "id": 6322935083, "lat": 36.3636637, "lon": 10.535537, "tags": {"amenity": "restaurant", "name": "Le Baron"}}, {"type": "node", "id": 6322936987, "lat": 36.3652818, "lon": 10.5378072, "tags": {"amenity": "restaurant", "name": "The Beach Bar & Restaurant"}}, {"type": "node", "id": 6323176092, "lat": 36.3980757, "lon": 10.5564883, "tags": {"amenity": "restaurant", "name": "Espace Relax"}}, {"type": "node", "id": 6323176129, "lat": 36.3986934, "lon": 10.5618471, "tags": {"amenity": "restaurant", "name": "Resto Cafe Khomssa"}}, {"type": "node", "id": 6323176140, "lat": 36.3960495, "lon": 10.5589426, "tags": {"amenity": "restaurant", "name": "Les Jardins Du Nero"}}, {"type": "node", "id": 6323176150, "lat": 36.4009772, "lon": 10.5659347, "tags": {"amenity": "restaurant", "name": "Restaurant Bedwina"}}, {"type": "node", "id": 6323176151, "lat": 36.4005431, "lon": 10.5642719, "tags": {"amenity": "restaurant", "name": "Dar Zina"}}, {"type": "node", "id": 6323176153, "lat": 36.4027859, "lon": 10.5679455, "tags": {"amenity": "cafe", "name": "Kleines Cafe"}}, {"type": "node", "id": 6323176154, "lat": 36.4024837, "lon": 10.5675002, "tags": {"amenity": "restaurant", "name": "Condor"}}, {"type": "node", "id": 6323176156, "lat": 36.4059914, "lon": 10.5685974, "tags": {"amenity": "cafe", "name": "Caf\u00e9 Ciambo"}}, {"type": "node", "id": 6327196198, "lat": 36.3960807, "lon": 10.6135887, "tags": {"amenity": "cafe", "name": "Sidi Mnasser"}}, {"type": "node", "id": 6327196199, "lat": 36.3961218, "lon": 10.6139776, "tags": {"amenity": "restaurant", "name": "La Grotte"}}, {"type": "node", "id": 6327196200, "lat": 36.397143, "lon": 10.6127197, "tags": {"amenity": "restaurant", "name": "Pomodoro"}}, {"type": "node", "id": 6327196201, "lat": 36.3963873, "lon": 10.6129879, "tags": {"amenity": "restaurant", "name": "L'Esplanade"}}, {"type": "node", "id": 6327200285, "lat": 36.3978535, "lon": 10.611029, "tags": {"amenity": "restaurant", "name": "Tilar Hout"}}, {"type": "node", "id": 6328137917, "lat": 36.4629758, "lon": 10.7706125, "tags": {"amenity": "cafe", "name": "Caf\u00e9 Mosaique"}}, {"type": "node", "id": 6328137918, "lat": 36.4656258, "lon": 10.7769403, "tags": {"amenity": "cafe", "name": "Caf\u00e9 Club"}}, {"type": "node", "id": 6328137923, "lat": 36.4754052, "lon": 10.7880481, "tags": {"amenity": "restaurant", "name": "La Casa"}}, {"type": "node", "id": 6328137929, "lat": 36.4749433, "lon": 10.7864195, "tags": {"amenity": "cafe", "name": "Caf\u00e9 24"}}, {"type": "node", "id": 6328137937, "lat": 36.46861, "lon": 10.7800175, "tags": {"amenity": "cafe", "name": "Caf\u00e9 Verre"}}, {"type": "node", "id": 6328137948, "lat": 36.4658229, "lon": 10.7766072, "tags": {"amenity": "cafe", "name": "Caf\u00e9 de la Paix"}}, {"type": "node", "id": 6328137949, "lat": 36.4692766, "lon": 10.7815577, "tags": {"amenity": "restaurant", "name": "Le Peuple"}}, {"type": "node", "id": 6329687283, "lat": 36.4461473, "lon": 10.7284285, "tags": {"amenity": "cafe", "name": "Caf\u00e9 Haboub"}}, {"type": "node", "id": 6329687598, "lat": 36.4083539, "lon": 10.6325979, "tags": {"amenity": "cafe", "name": "Caf\u00e9 Vert"}}, {"type": "node", "id": 6329687605, "lat": 36.3995841, "lon": 10.62042, "tags": {"amenity": "restaurant", "name": "Two M Pizzeria", "opening_hours": "Mo-Su 16:00-24:00"}}, {"type": "node", "id": 6329687606, "lat": 36.4009528, "lon": 10.6189155, "tags": {"amenity": "restaurant", "name": "Ettahrir", "opening_hours": "Mo-Su 09:30-22:30"}}, {"type": "node", "id": 6329687607, "lat": 36.4002429, "lon": 10.6196947, "tags": {"amenity": "cafe", "name": "Valda"}}, {"type": "node", "id": 6329687610, "lat": 36.4003504, "lon": 10.6191393, "tags": {"amenity": "restaurant", "name": "El Amji", "opening_hours:signed": "no"}}, {"type": "node", "id": 6329687618, "lat": 36.3999806, "lon": 10.6196576, "tags": {"amenity": "cafe", "name": "Caf\u00e9 Messsaoud", "opening_hours": "Mo-Su 06:30-23:30"}}, {"type": "node", "id": 6329687620, "lat": 36.4001453, "lon": 10.6183063, "tags": {"amenity": "cafe", "name": "Caf\u00e9 Maure SIDI EL KILANI"}}, {"type": "node", "id": 6329687628, "lat": 36.4029079, "lon": 10.6017077, "tags": {"amenity": "restaurant", "name": "Peace & Love Beach La Paix"}}, {"type": "node", "id": 6329687631, "lat": 36.3952927, "lon": 10.6148425, "tags": {"amenity": "restaurant", "name": "La Fabrique", "opening_hours:signed": "no"}}, {"type": "node", "id": 6329687632, "lat": 36.3950536, "lon": 10.6143607, "tags": {"amenity": "cafe", "name": "Caf\u00e9 Sidi Achour"}}, {"type": "node", "id": 6329687633, "lat": 36.3955632, "lon": 10.6143733, "tags": {"amenity": "restaurant", "name": "La Fabrique", "opening_hours:signed": "no"}}, {"type": "node", "id": 6335865937, "lat": 36.4514715, "lon": 10.7286614, "tags": {"amenity": "restaurant", "name": "Maxi Food"}}, {"type": "node", "id": 6336537563, "lat": 36.4061264, "lon": 10.6176693, "tags": {"amenity": "cafe", "name": "Caf\u00e9 Paolo"}}, {"type": "node", "id": 6336537567, "lat": 36.4041258, "lon": 10.621154, "tags": {"amenity": "cafe", "name": "Caf\u00e9 Boudhina Hammamet"}}, {"type": "node", "id": 6336537569, "lat": 36.4037352, "lon": 10.620948, "tags": {"amenity": "cafe", "name": "Caf\u00e9 Jihed"}}, {"type": "node", "id": 6336537573, "lat": 36.4025076, "lon": 10.6250038, "tags": {"amenity": "cafe", "name": "Espace Les Romains"}}, {"type": "node", "id": 6336537575, "lat": 36.4019371, "lon": 10.6256674, "tags": {"amenity": "cafe", "name": "Bita Coffee"}}, {"type": "node", "id": 6336537577, "lat": 36.4037015, "lon": 10.6274604, "tags": {"amenity": "cafe", "name": "Street Coffee"}}, {"type": "node", "id": 6336537584, "lat": 36.3988265, "lon": 10.6123944, "tags": {"amenity": "restaurant", "name": "Maxi Food"}}, {"type": "node", "id": 6336540296, "lat": 36.3975536, "lon": 10.6126158, "tags": {"amenity": "restaurant", "name": "Bezzez"}}, {"type": "node", "id": 6336540299, "lat": 36.3985265, "lon": 10.6124127, "tags": {"amenity": "restaurant", "name": "Le Corail"}}, {"type": "node", "id": 6336540300, "lat": 36.3990778, "lon": 10.6123535, "tags": {"amenity": "cafe", "name": "Caf\u00e9 Bleu"}}, {"type": "node", "id": 6336540301, "lat": 36.3992152, "lon": 10.6126466, "tags": {"amenity": "restaurant", "name": "La R\u00e9sidence"}}, {"type": "node", "id": 6336540314, "lat": 36.4027806, "lon": 10.6117967, "tags": {"amenity": "cafe", "name": "Caf\u00e9 Susana"}}, {"type": "node", "id": 6336540316, "lat": 36.4037388, "lon": 10.6120069, "tags": {"amenity": "restaurant", "name": "Coq D'Or"}}, {"type": "node", "id": 6336540318, "lat": 36.4033779, "lon": 10.6118247, "tags": {"amenity": "restaurant", "name": "Fawara"}}, {"type": "node", "id": 6336540325, "lat": 36.4049022, "lon": 10.6127866, "tags": {"amenity": "restaurant", "name": "La Coquette"}}, {"type": "node", "id": 6336540326, "lat": 36.4053489, "lon": 10.6129843, "tags": {"amenity": "cafe", "name": "El MECHMOUM"}}, {"type": "node", "id": 6336540327, "lat": 36.4058028, "lon": 10.6129373, "tags": {"amenity": "cafe", "name": "El Haloui"}}, {"type": "node", "id": 6337932789, "lat": 36.4070161, "lon": 10.6108974, "tags": {"amenity": "cafe", "name": "Bohemian Caf\u00e9"}}, {"type": "node", "id": 6337932796, "lat": 36.406768, "lon": 10.6101539, "tags": {"amenity": "cafe", "name": "Omi Douja"}}, {"type": "node", "id": 6337932797, "lat": 36.4067695, "lon": 10.6073136, "tags": {"amenity": "cafe", "name": "Blackwood"}}, {"type": "node", "id": 6337932799, "lat": 36.4080576, "lon": 10.6092622, "tags": {"amenity": "restaurant", "name": "Mamino Cheese Mammi Douja"}}, {"type": "node", "id": 6337932800, "lat": 36.4079246, "lon": 10.611372, "tags": {"amenity": "restaurant", "name": "Brasero"}}, {"type": "node", "id": 6337932802, "lat": 36.4043304, "lon": 10.6120505, "tags": {"amenity": "cafe", "name": "Caf\u00e9 Derby"}}, {"type": "node", "id": 6337932821, "lat": 36.3929475, "lon": 10.5650627, "tags": {"amenity": "restaurant", "name": "Tipsy Beach"}}, {"type": "node", "id": 6337932822, "lat": 36.3897133, "lon": 10.5559111, "tags": {"amenity": "restaurant", "name": "Rovers Return"}}, {"type": "node", "id": 6337932834, "lat": 36.4006422, "lon": 10.5584101, "tags": {"amenity": "restaurant", "name": "Why Not"}}, {"type": "node", "id": 6337932835, "lat": 36.4007526, "lon": 10.5593647, "tags": {"amenity": "cafe", "name": "Bab Al Madina"}}, {"type": "node", "id": 6339857225, "lat": 36.4782202, "lon": 10.7985669}, {"type": "node", "id": 6339857226, "lat": 36.4784241, "lon": 10.7988785}, {"type": "node", "id": 6339857227, "lat": 36.4782552, "lon": 10.7990475}, {"type": "node", "id": 6339857228, "lat": 36.4780688, "lon": 10.7987577}, {"type": "node", "id": 6339857240, "lat": 36.4686152, "lon": 10.8021559, "tags": {"amenity": "cafe", "name": "\u00d4'Caf\u00e9"}}, {"type": "node", "id": 6339857281, "lat": 36.4643625, "lon": 10.8129856, "tags": {"amenity": "cafe", "name": "Buvette Chokri"}}, {"type": "node", "id": 6339857282, "lat": 36.46414, "lon": 10.810734, "tags": {"amenity": "restaurant", "name": "Chapati, Mlawi"}}, {"type": "node", "id": 6339857695, "lat": 36.4671458, "lon": 10.8074113, "tags": {"amenity": "restaurant", "name": "Pause Resto"}}, {"type": "node", "id": 6339857696, "lat": 36.4650375, "lon": 10.8080584, "tags": {"amenity": "cafe", "name": "Remontada Caf\u00e9"}}, {"type": "node", "id": 6339857699, "lat": 36.4633887, "lon": 10.8094006, "tags": {"amenity": "cafe", "name": "Caf\u00e9 Tousihene"}}, {"type": "node", "id": 6339857700, "lat": 36.4658168, "lon": 10.8042374, "tags": {"amenity": "cafe", "name": "Caf\u00e9 El Amjed"}}, {"type": "node", "id": 6339857702, "lat": 36.4651038, "lon": 10.8048332, "tags": {"amenity": "cafe", "name": "Caf\u00e9 Ben Saleh"}}, {"type": "node", "id": 6339857715, "lat": 36.4560016, "lon": 10.7889801, "tags": {"amenity": "cafe", "name": "Caf\u00e9 des Sports"}}, {"type": "node", "id": 6339857723, "lat": 36.4730178, "lon": 10.7744302, "tags": {"amenity": "cafe", "name": "Le Chalet"}}, {"type": "node", "id": 6339857743, "lat": 36.4716851, "lon": 10.7829905, "tags": {"amenity": "cafe", "name": "Caf\u00e9 Silentro"}}, {"type": "node", "id": 6342144678, "lat": 36.387739, "lon": 10.5456497, "tags": {"amenity": "cafe", "name": "Caf\u00e9 de l'OM Hammamet Sud"}}, {"type": "node", "id": 6342144679, "lat": 36.3868535, "lon": 10.5447426, "tags": {"amenity": "cafe", "name": "Caf\u00e9 Echarg"}}, {"type": "node", "id": 6342144680, "lat": 36.3858104, "lon": 10.5436483, "tags": {"amenity": "restaurant", "name": "Restaurant El Andalous"}}, {"type": "node", "id": 6342144681, "lat": 36.3831928, "lon": 10.5536394, "tags": {"amenity": "restaurant", "name": "La Foccacia Hammamet"}}, {"type": "node", "id": 6342144682, "lat": 36.4247653, "lon": 10.6828652, "tags": {"amenity": "restaurant", "name": "Tahiti Beach"}}, {"type": "node", "id": 6342144684, "lat": 36.421727, "lon": 10.6726187, "tags": {"amenity": "restaurant", "name": "Le Bon Coin"}}, {"type": "node", "id": 6342145285, "lat": 36.4218228, "lon": 10.6716817}, {"type": "node", "id": 6342145286, "lat": 36.4218111, "lon": 10.6717442}, {"type": "node", "id": 6342145287, "lat": 36.4218379, "lon": 10.6717734}, {"type": "node", "id": 6342145288, "lat": 36.4218194, "lon": 10.6718005}, {"type": "node", "id": 6342145289, "lat": 36.4218412, "lon": 10.671865}, {"type": "node", "id": 6342145290, "lat": 36.4218798, "lon": 10.6718817}, {"type": "node", "id": 6342145291, "lat": 36.4218546, "lon": 10.6719775}, {"type": "node", "id": 6342145292, "lat": 36.4219032, "lon": 10.67199}, {"type": "node", "id": 6342145293, "lat": 36.4219099, "lon": 10.6719504}, {"type": "node", "id": 6342145294, "lat": 36.4219301, "lon": 10.6719546}, {"type": "node", "id": 6342145295, "lat": 36.4219384, "lon": 10.6719088}, {"type": "node", "id": 6342145296, "lat": 36.4219669, "lon": 10.6719088}, {"type": "node", "id": 6342145297, "lat": 36.4219971, "lon": 10.6717942}, {"type": "node", "id": 6342145298, "lat": 36.4219669, "lon": 10.6717359}, {"type": "node", "id": 6342145299, "lat": 36.4219535, "lon": 10.6717255}, {"type": "node", "id": 6342145300, "lat": 36.4219669, "lon": 10.6716942}, {"type": "node", "id": 6342145301, "lat": 36.4219535, "lon": 10.6716796}, {"type": "node", "id": 6342145302, "lat": 36.4219619, "lon": 10.6716442}, {"type": "node", "id": 6342145303, "lat": 36.421925, "lon": 10.6716255}, {"type": "node", "id": 6342145304, "lat": 36.4219368, "lon": 10.6716047}, {"type": "node", "id": 6342145305, "lat": 36.4219032, "lon": 10.6715963}, {"type": "node", "id": 6342145306, "lat": 36.4219016, "lon": 10.6716276}, {"type": "node", "id": 6342145307, "lat": 36.4202151, "lon": 10.6724075, "tags": {"amenity": "restaurant", "name": "Happy Hour"}}, {"type": "node", "id": 6342145308, "lat": 36.4255631, "lon": 10.675589, "tags": {"amenity": "cafe", "name": "Luxe Caf\u00e9"}}, {"type": "node", "id": 6343247607, "lat": 36.4461533, "lon": 10.7176426, "tags": {"amenity": "cafe", "name": "Primavera"}}, {"type": "node", "id": 6345973575, "lat": 36.442051, "lon": 10.7398525, "tags": {"amenity": "cafe", "name": "Caf\u00e9 Maure"}}, {"type": "node", "id": 6352557873, "lat": 36.4529939, "lon": 10.7358362, "tags": {"amenity": "cafe", "name": "Caf\u00e9 La Rosa"}}, {"type": "node", "id": 6352557874, "lat": 36.4532121, "lon": 10.735411, "tags": {"amenity": "restaurant", "name": "Restaurant Hala"}}, {"type": "node", "id": 6352557875, "lat": 36.452618, "lon": 10.7357282, "tags": {"amenity": "cafe", "name": "Cafeteria Arabesque"}}, {"type": "node", "id": 6352557876, "lat": 36.4541026, "lon": 10.7387749, "tags": {"amenity": "cafe", "name": "Cafe Classico"}}, {"type": "node", "id": 6352557878, "lat": 36.454248, "lon": 10.7398949, "tags": {"amenity": "cafe", "name": "Caf\u00e9t\u00e9ria Saaid"}}, {"type": "node", "id": 6356477741, "lat": 36.3533667, "lon": 10.5295242, "tags": {"amenity": "restaurant", "name": "Alhambra Beach"}}, {"type": "node", "id": 6383957610, "lat": 36.4054272, "lon": 10.5602456, "tags": {"amenity": "cafe", "name": "Caf\u00e9 Erriadh"}}, {"type": "node", "id": 6383957612, "lat": 36.4062911, "lon": 10.5604753, "tags": {"amenity": "restaurant", "name": "Restaurant Bayrout"}}, {"type": "node", "id": 6383957613, "lat": 36.4068012, "lon": 10.5605679, "tags": {"amenity": "restaurant", "name": "La Mamma"}}, {"type": "node", "id": 6383957614, "lat": 36.4071512, "lon": 10.5612901, "tags": {"amenity": "cafe", "name": "Caf\u00e9 L'Horizon"}}, {"type": "node", "id": 6387591804, "lat": 36.4257204, "lon": 10.5936944, "tags": {"amenity": "restaurant", "name": "Ristorante Franco"}}, {"type": "node", "id": 6387591838, "lat": 36.4298035, "lon": 10.5705023, "tags": {"amenity": "restaurant", "name": "Restaurant Zarda"}}, {"type": "node", "id": 6387591839, "lat": 36.4311469, "lon": 10.5709243, "tags": {"amenity": "restaurant", "name": "Restaurant Feu Vert"}}, {"type": "node", "id": 6387591845, "lat": 36.4303469, "lon": 10.573106, "tags": {"amenity": "cafe", "name": "Caf\u00e9 Rayan"}}, {"type": "node", "id": 6387591846, "lat": 36.4300385, "lon": 10.5770429, "tags": {"amenity": "cafe", "name": "Caf\u00e9 Sallam"}}, {"type": "node", "id": 6387591856, "lat": 36.4315899, "lon": 10.5669917, "tags": {"amenity": "cafe", "name": "Cafeti\u00e8re Rochdi"}}, {"type": "node", "id": 6387591857, "lat": 36.433357, "lon": 10.5650944, "tags": {"amenity": "cafe", "name": "Caf\u00e9 El-Ghoul"}}, {"type": "node", "id": 6387591858, "lat": 36.4348911, "lon": 10.563629, "tags": {"amenity": "cafe", "name": "Caf\u00e9 Fitouri"}}, {"type": "node", "id": 6389530571, "lat": 36.4654403, "lon": 10.7478816, "tags": {"amenity": "cafe", "name": "Caf\u00e9 Jradi", "opening_hours": "Mo-Su 06:00-21:30", "outdoor_seating": "yes"}}, {"type": "node", "id": 6389530582, "lat": 36.4677748, "lon": 10.7501315, "tags": {"amenity": "cafe", "name": "Caf\u00e9 Nejja"}}, {"type": "node", "id": 6389530887, "lat": 36.4637698, "lon": 10.7477921, "tags": {"amenity": "cafe", "name": "Baraka Caf\u00e9"}}, {"type": "node", "id": 6389530891, "lat": 36.4620147, "lon": 10.7475664, "tags": {"addr:city": "\u062f\u0627\u0631 \u0634\u0639\u0628\u0627\u0646 \u0627\u0644\u0641\u0647\u0631\u064a", "addr:postcode": "8011", "addr:street": "\u0634\u0627\u0631\u0639 \u0627\u0644\u062d\u0628\u064a\u0628 \u0628\u0648\u0631\u0642\u064a\u0628\u0629", "addr:street:ar": "\u0634\u0627\u0631\u0639 \u0627\u0644\u062d\u0628\u064a\u0628 \u0628\u0648\u0631\u0642\u064a\u0628\u0629", "amenity": "cafe", "internet_access": "no", "name": "Caf\u00e9 Daoued", "opening_hours": "Mo-Su 06:00-22:00", "outdoor_seating": "yes"}}, {"type": "node", "id": 6389530892, "lat": 36.4648699, "lon": 10.7527124, "tags": {"amenity": "cafe", "name": "Caf\u00e9 Stita"}}, {"type": "node", "id": 6389530906, "lat": 36.459368, "lon": 10.7482615, "tags": {"amenity": "restaurant", "name": "\u0628\u0627\u0646\u0648\u0631\u0627\u0645\u0627", "name:ar": "\u0628\u0627\u0646\u0648\u0631\u0627\u0645\u0627", "name:de": "Panorama", "name:fr": "Panorama"}}, {"type": "node", "id": 6389530907, "lat": 36.4609329, "lon": 10.7543843, "tags": {"amenity": "cafe", "name": "Caf\u00e9 L'Horizon"}}, {"type": "node", "id": 6389530911, "lat": 36.46576, "lon": 10.7379146, "tags": {"amenity": "cafe", "name": "Caf\u00e9t\u00e9ria Habiba"}}, {"type": "node", "id": 6391372233, "lat": 36.4573869, "lon": 10.7493683, "tags": {"amenity": "cafe", "name": "La Coccinelle"}}, {"type": "node", "id": 6391372253, "lat": 36.4555364, "lon": 10.737397, "tags": {"amenity": "cafe", "name": "\u0627\u0644\u0633\u0648\u0642", "name:ar": "\u0627\u0644\u0633\u0648\u0642", "name:en": "Souk"}}, {"type": "node", "id": 6391372254, "lat": 36.4542487, "lon": 10.7328103, "tags": {"amenity": "cafe", "name": "Monzor"}}, {"type": "node", "id": 6391372256, "lat": 36.4569487, "lon": 10.7377072, "tags": {"amenity": "cafe", "name": "Caf\u00e9 de Paris"}}, {"type": "node", "id": 6391372257, "lat": 36.4574672, "lon": 10.7375228, "tags": {"amenity": "cafe", "name": "Caf\u00e9 Ennour"}}, {"type": "node", "id": 6391372267, "lat": 36.453943, "lon": 10.7357587, "tags": {"amenity": "restaurant", "name": "\u0645\u0637\u0639\u0645 \u0627\u0644\u0646\u0627\u0628\u0644\u064a", "name:ar": "\u0645\u0637\u0639\u0645 \u0627\u0644\u0646\u0627\u0628\u0644\u064a", "name:fr": "Nabli Resto"}}, {"type": "node", "id": 6391372268, "lat": 36.4509791, "lon": 10.7338682, "tags": {"amenity": "cafe", "name": "\u0645\u0642\u0647\u0649 \u0627\u0644\u0645\u062d\u0637\u0629", "name:ar": "\u0645\u0642\u0647\u0649 \u0627\u0644\u0645\u062d\u0637\u0629"}}, {"type": "node", "id": 6391372269, "lat": 36.4523261, "lon": 10.7302014, "tags": {"amenity": "cafe", "name": "Nabeul Centre"}}, {"type": "node", "id": 6391372271, "lat": 36.4508554, "lon": 10.7307024, "tags": {"amenity": "cafe", "name": "Caf\u00e9 Centre"}}, {"type": "node", "id": 6398503817, "lat": 36.4511722, "lon": 10.7291205, "tags": {"amenity": "cafe"}}, {"type": "node", "id": 6398503822, "lat": 36.4517243, "lon": 10.7311859, "tags": {"amenity": "cafe", "name": "El Sadiki"}}, {"type": "node", "id": 6398503827, "lat": 36.4487178, "lon": 10.7255545, "tags": {"amenity": "cafe", "name": "Caf\u00e9 Plus"}}, {"type": "node", "id": 6398503835, "lat": 36.45525, "lon": 10.7268146, "tags": {"amenity": "cafe", "name": "Caf\u00e9 Wissem"}}, {"type": "node", "id": 6422034771, "lat": 36.4499729, "lon": 10.7296474, "tags": {"amenity": "cafe", "name": "So Mo Dis"}}, {"type": "node", "id": 6422034781, "lat": 36.4533059, "lon": 10.7408377, "tags": {"amenity": "restaurant", "name": "La Fontaine"}}, {"type": "node", "id": 6422034784, "lat": 36.4516475, "lon": 10.7317472, "tags": {"amenity": "cafe", "name": "Mongrain Caf\u00e9"}}, {"type": "node", "id": 6422035585, "lat": 36.4549058, "lon": 10.7264009, "tags": {"amenity": "cafe", "name": "Sidi Achour"}}, {"type": "node", "id": 6422035586, "lat": 36.4550355, "lon": 10.7275754, "tags": {"amenity": "cafe", "name": "Sahnoun Coffee"}}, {"type": "node", "id": 6422035593, "lat": 36.4506685, "lon": 10.7296305, "tags": {"amenity": "cafe", "name": "Chez Omar"}}, {"type": "node", "id": 6470493940, "lat": 36.455835, "lon": 10.7314471, "tags": {"amenity": "cafe", "name": "Zapatista Coffee"}}, {"type": "node", "id": 6470493941, "lat": 36.4566781, "lon": 10.7333393, "tags": {"amenity": "cafe", "name": "\u0639\u0646\u062f \u0633\u0644\u064a\u0645", "name:ar": "\u0639\u0646\u062f \u0633\u0644\u064a\u0645", "name:fr": "Chez Slim"}}, {"type": "node", "id": 6470493943, "lat": 36.4513651, "lon": 10.7298679, "tags": {"amenity": "cafe"}}, {"type": "node", "id": 6473296362, "lat": 36.4525487, "lon": 10.7547945, "tags": {"amenity": "cafe", "name": "Caf\u00e9 El Qods"}}, {"type": "node", "id": 6473944252, "lat": 36.4498319, "lon": 10.7442536, "tags": {"amenity": "restaurant", "name": "Pacha Drink & Food"}}, {"type": "node", "id": 6473944253, "lat": 36.4558423, "lon": 10.7431578, "tags": {"amenity": "restaurant", "name": "Maxi's", "name:fr": "Maxi's"}}, {"type": "node", "id": 6473944254, "lat": 36.4556389, "lon": 10.7428255, "tags": {"amenity": "cafe", "name": "Chicha Centre", "name:fr": "Chicha Centre"}}, {"type": "node", "id": 6475676525, "lat": 36.457035, "lon": 10.7411812, "tags": {"amenity": "cafe", "name": "Buvette Emna"}}, {"type": "node", "id": 6475676526, "lat": 36.4662328, "lon": 10.7624005, "tags": {"amenity": "cafe", "name": "Caf\u00e9 Gouiba"}}, {"type": "node", "id": 6493268306, "lat": 36.4010861, "lon": 10.5651861, "tags": {"amenity": "restaurant", "name": "The Grill House"}}, {"type": "node", "id": 6493268344, "lat": 36.4519178, "lon": 10.7307564, "tags": {"amenity": "cafe", "name": "M\u00e9dina"}}, {"type": "node", "id": 6493268346, "lat": 36.4533083, "lon": 10.7325992, "tags": {"amenity": "cafe", "name": "Caf\u00e9 routier"}}, {"type": "node", "id": 6493268347, "lat": 36.4542575, "lon": 10.7356838, "tags": {"amenity": "cafe", "name": "Caf\u00e9 du Souk"}}, {"type": "node", "id": 6493268349, "lat": 36.4548114, "lon": 10.7334079, "tags": {"amenity": "cafe", "name": "\u0623\u0645\u064a\u063a\u0648\u0633", "name:ar": "\u0623\u0645\u064a\u063a\u0648\u0633", "name:es": "Amigos"}}, {"type": "node", "id": 6493268350, "lat": 36.4560095, "lon": 10.7321684, "tags": {"amenity": "cafe", "name": "Caf\u00e9 Berb\u00e8re"}}, {"type": "node", "id": 6493268352, "lat": 36.456846, "lon": 10.7307985, "tags": {"amenity": "cafe", "name": "Dar Ali"}}, {"type": "node", "id": 6493268354, "lat": 36.4512022, "lon": 10.7364937, "tags": {"amenity": "cafe", "name": "Caf\u00e9 du Parc"}}, {"type": "node", "id": 6515613016, "lat": 36.4640171, "lon": 10.7835135, "tags": {"amenity": "cafe", "name": "Caf\u00e9 Alta"}}, {"type": "node", "id": 6515613046, "lat": 36.4729908, "lon": 10.7847189, "tags": {"amenity": "cafe", "name": "Caf\u00e9 du centre"}}, {"type": "node", "id": 6515613048, "lat": 36.4702736, "lon": 10.7817222, "tags": {"amenity": "cafe", "name": "Caf\u00e9 B\u00e9ni Khiar"}}, {"type": "node", "id": 6515613049, "lat": 36.4627811, "lon": 10.7697972, "tags": {"amenity": "cafe", "name": "El Loued"}}, {"type": "node", "id": 6515613050, "lat": 36.4590366, "lon": 10.7539343, "tags": {"amenity": "restaurant", "name": "Chez Sofienne"}}, {"type": "node", "id": 6515613051, "lat": 36.4580628, "lon": 10.7502431, "tags": {"addr:city": "\u062f\u0627\u0631 \u0634\u0639\u0628\u0627\u0646 \u0627\u0644\u0641\u0647\u0631\u064a", "amenity": "restaurant", "brand": "\u0633\u064a\u0633\u064a\u0632 \u0628\u064a\u062a\u0632\u0627", "brand:ar": "\u0633\u064a\u0633\u064a\u0632 \u0628\u064a\u062a\u0632\u0627", "brand:en": "Cici's Pizza", "brand:wikidata": "Q2972189", "brand:wikipedia": "ar:\u0633\u064a\u0633\u064a\u0632 \u0628\u064a\u062a\u0632\u0627", "cuisine": "pizza", "name": "\u0633\u064a\u0633\u064a\u0632 \u0628\u064a\u062a\u0632\u0627", "name:ar": "\u0633\u064a\u0633\u064a\u0632 \u0628\u064a\u062a\u0632\u0627", "name:en": "Cici's Pizza"}}, {"type": "node", "id": 6519147044, "lat": 36.4031364, "lon": 10.6133715, "tags": {"amenity": "cafe", "name": "Caf\u00e9 Derby"}}, {"type": "node", "id": 6519147045, "lat": 36.401171, "lon": 10.6231682, "tags": {"amenity": "cafe", "name": "Caf\u00e9 Zico"}}, {"type": "node", "id": 6519147046, "lat": 36.3991672, "lon": 10.6164763, "tags": {"amenity": "cafe", "name": "Dar CA"}}, {"type": "node", "id": 6519147053, "lat": 36.3938501, "lon": 10.6130424, "tags": {"amenity": "cafe", "name": "Caf\u00e9 M\u00e9dina"}}, {"type": "node", "id": 6532572608, "lat": 36.4510862, "lon": 10.7318211, "tags": {"amenity": "cafe", "name": "Caf\u00e9 Club"}}, {"type": "node", "id": 6532572609, "lat": 36.4521582, "lon": 10.7343035, "tags": {"amenity": "cafe", "brand": "Coffee Time", "brand:wikidata": "Q5140932", "brand:wikipedia": "en:Coffee Time", "cuisine": "coffee_shop", "name": "Coffee Time", "takeaway": "yes"}}, {"type": "node", "id": 6532572610, "lat": 36.4549758, "lon": 10.7355688, "tags": {"amenity": "cafe", "name": "\u0627\u0644\u0645\u062f\u064a\u0646\u0629", "name:ar": "\u0627\u0644\u0645\u062f\u064a\u0646\u0629", "name:fr": "M\u00e9dina"}}, {"type": "node", "id": 6551282133, "lat": 36.3980777, "lon": 10.5593429, "tags": {"amenity": "restaurant", "name": "The Sixty Eight"}}, {"type": "node", "id": 6551282134, "lat": 36.3982723, "lon": 10.5601712, "tags": {"amenity": "cafe", "name": "Aloha Caf\u00e9"}}, {"type": "node", "id": 6551282135, "lat": 36.3988273, "lon": 10.5612402, "tags": {"amenity": "restaurant", "name": "Restaurant Caf\u00e9 Touareg"}}, {"type": "node", "id": 6551282142, "lat": 36.400453, "lon": 10.558277, "tags": {"amenity": "restaurant", "name": "Grill House"}}, {"type": "node", "id": 6551282147, "lat": 36.4051795, "lon": 10.5629344, "tags": {"amenity": "restaurant", "name": "Delizia"}}, {"type": "node", "id": 6551282148, "lat": 36.4048249, "lon": 10.5630481, "tags": {"amenity": "cafe", "name": "El Bousten"}}, {"type": "node", "id": 6551282149, "lat": 36.4052824, "lon": 10.5635598, "tags": {"amenity": "cafe", "name": "Essalem"}}, {"type": "node", "id": 6551282151, "lat": 36.4053295, "lon": 10.5638399, "tags": {"amenity": "restaurant", "name": "Restaurant du Sahel"}}, {"type": "node", "id": 6551282156, "lat": 36.4060105, "lon": 10.5681987, "tags": {"amenity": "cafe", "name": "El Mawel"}}, {"type": "node", "id": 6551282158, "lat": 36.4044333, "lon": 10.5710945, "tags": {"amenity": "cafe", "name": "Castella"}}, {"type": "node", "id": 6551282159, "lat": 36.4043087, "lon": 10.5708393, "tags": {"amenity": "restaurant", "name": "El Malouf"}}, {"type": "node", "id": 6551282161, "lat": 36.3864971, "lon": 10.544402, "tags": {"amenity": "restaurant", "name": "Restaurant Orient"}}, {"type": "node", "id": 6551282166, "lat": 36.4071138, "lon": 10.6021497, "tags": {"amenity": "cafe", "name": "Dream Coffee"}}, {"type": "node", "id": 6551282167, "lat": 36.4075244, "lon": 10.6022275, "tags": {"amenity": "cafe", "name": "Vintage Coffee"}}, {"type": "node", "id": 6551282168, "lat": 36.4078551, "lon": 10.6020339, "tags": {"amenity": "restaurant", "name": "Rose Sal\u00e9e"}}, {"type": "node", "id": 6555870925, "lat": 36.4647559, "lon": 10.8100136, "tags": {"amenity": "cafe", "name": "Cigusto"}}, {"type": "node", "id": 6555870932, "lat": 36.4514616, "lon": 10.7312975, "tags": {"amenity": "cafe", "brand": "Havanna", "brand:wikidata": "Q2900869", "brand:wikipedia": "es:Havanna", "cuisine": "coffee_shop", "name": "Havanna", "takeaway": "yes"}}, {"type": "node", "id": 6555870933, "lat": 36.4537389, "lon": 10.7243713, "tags": {"amenity": "cafe", "name": "Sidi Achour"}}, {"type": "node", "id": 6577722587, "lat": 36.3704726, "lon": 10.5418413, "tags": {"amenity": "cafe", "name": "Shell Beach Bar", "name:ru": "\u0411\u0430\u0440 \u0438 \u043b\u0435\u0436\u0430\u043a\u0438 \u043e\u0442\u0435\u043b\u044f Shell Beach"}}, {"type": "node", "id": 6580425085, "lat": 36.4550082, "lon": 10.7303117, "tags": {"amenity": "cafe", "name": "\u0627\u0644\u062f\u064a\u0648\u0627\u0646", "name:ar": "\u0627\u0644\u062f\u064a\u0648\u0627\u0646", "name:en": "Al Diwan"}}, {"type": "node", "id": 6580425086, "lat": 36.4552319, "lon": 10.7360865, "tags": {"amenity": "cafe", "brand": "Le Pain Quotidien", "brand:wikidata": "Q2046903", "brand:wikipedia": "en:Le Pain Quotidien", "cuisine": "coffee_shop", "name": "Le Pain Quotidien", "takeaway": "yes"}}, {"type": "node", "id": 6582558404, "lat": 36.3792596, "lon": 10.5381287, "tags": {"amenity": "restaurant", "name": "Le Grand Bleu"}}, {"type": "node", "id": 6582558405, "lat": 36.3798387, "lon": 10.5386222, "tags": {"amenity": "cafe", "name": "Caf\u00e9 Ahlem"}}, {"type": "node", "id": 6582558406, "lat": 36.3802355, "lon": 10.538932, "tags": {"amenity": "restaurant", "name": "Marna Food"}}, {"type": "node", "id": 6612311367, "lat": 36.4556654, "lon": 10.7298074, "tags": {"amenity": "cafe", "name": "Chez Mohsen"}}, {"type": "node", "id": 6612311368, "lat": 36.455497, "lon": 10.7293913, "tags": {"amenity": "restaurant", "name": "El Sfaxi"}}, {"type": "node", "id": 6635909787, "lat": 36.4291917, "lon": 10.6642949, "tags": {"amenity": "cafe", "name": "Kawa Fardaws"}}, {"type": "node", "id": 6742629013, "lat": 36.3576506, "lon": 10.5314969, "tags": {"amenity": "restaurant", "name": "Crepe Station"}}, {"type": "node", "id": 6743810666, "lat": 36.4037578, "lon": 10.6490445, "tags": {"amenity": "cafe", "name": "Pool Bar - La Badira"}}, {"type": "node", "id": 6757003468, "lat": 36.4475542, "lon": 10.7230805, "tags": {"amenity": "restaurant", "name": "Brothers"}}, {"type": "node", "id": 7214412225, "lat": 36.4448936, "lon": 10.7341109, "tags": {"amenity": "restaurant", "name": "Flash Back", "opening_hours": "Mo-Su 07:00-22:00"}}, {"type": "node", "id": 7279211854, "lat": 36.463375, "lon": 10.8120657}, {"type": "node", "id": 7279211855, "lat": 36.4634257, "lon": 10.8121167}, {"type": "node", "id": 7279211856, "lat": 36.4634041, "lon": 10.8121542}, {"type": "node", "id": 7279211857, "lat": 36.4634915, "lon": 10.812236}, {"type": "node", "id": 7279211858, "lat": 36.4635141, "lon": 10.8122291}, {"type": "node", "id": 7279211859, "lat": 36.4635177, "lon": 10.8122404}, {"type": "node", "id": 7279211860, "lat": 36.4635288, "lon": 10.812257}, {"type": "node", "id": 7279211861, "lat": 36.4635403, "lon": 10.8122647}, {"type": "node", "id": 7279211862, "lat": 36.4635534, "lon": 10.8122687}, {"type": "node", "id": 7279211863, "lat": 36.4635763, "lon": 10.8122698}, {"type": "node", "id": 7279211864, "lat": 36.4635891, "lon": 10.8122666}, {"type": "node", "id": 7279211865, "lat": 36.4636029, "lon": 10.8122581}, {"type": "node", "id": 7279211866, "lat": 36.463613, "lon": 10.8122506}, {"type": "node", "id": 7279211867, "lat": 36.4636248, "lon": 10.8122381}, {"type": "node", "id": 7279211868, "lat": 36.4636346, "lon": 10.8122219}, {"type": "node", "id": 7279211869, "lat": 36.463668, "lon": 10.8121238}, {"type": "node", "id": 7279211870, "lat": 36.4637461, "lon": 10.8121485}, {"type": "node", "id": 7279211871, "lat": 36.4637613, "lon": 10.8120783}, {"type": "node", "id": 7279211872, "lat": 36.4637377, "lon": 10.8120698}, {"type": "node", "id": 7279211873, "lat": 36.4637461, "lon": 10.8120347}, {"type": "node", "id": 7279211874, "lat": 36.4635362, "lon": 10.8119547}, {"type": "node", "id": 7279211875, "lat": 36.4635201, "lon": 10.8119507}, {"type": "node", "id": 7279211876, "lat": 36.4635028, "lon": 10.8119523}, {"type": "node", "id": 7279211877, "lat": 36.4634913, "lon": 10.8119579}, {"type": "node", "id": 7279211878, "lat": 36.4634823, "lon": 10.8119627}, {"type": "node", "id": 7279211879, "lat": 36.4634708, "lon": 10.8119379}, {"type": "node", "id": 7279211880, "lat": 36.4634669, "lon": 10.8119228}, {"type": "node", "id": 7279211881, "lat": 36.463566, "lon": 10.8122706}, {"type": "node", "id": 7279211882, "lat": 36.4635222, "lon": 10.8122492}, {"type": "node", "id": 7279211883, "lat": 36.4635346, "lon": 10.8122618}, {"type": "node", "id": 7279211884, "lat": 36.4635471, "lon": 10.8122671}, {"type": "node", "id": 7618727995, "lat": 36.4650205, "lon": 10.7478267, "tags": {"amenity": "cafe", "name": "Caf\u00e9 Bettaieb", "opening_hours": "Mo-Su 06:00-20:30"}}, {"type": "node", "id": 7619250994, "lat": 36.4693352, "lon": 10.7452292, "tags": {"amenity": "cafe"}}, {"type": "node", "id": 7619260607, "lat": 36.4672763, "lon": 10.7392996, "tags": {"amenity": "cafe", "name": "Caf\u00e9 Weld Hayet"}}, {"type": "node", "id": 7622350307, "lat": 36.4592628, "lon": 10.7471816, "tags": {"addr:city": "\u062f\u0627\u0631 \u0634\u0639\u0628\u0627\u0646 \u0627\u0644\u0641\u0647\u0631\u064a", "addr:city:ar": "\u062f\u0627\u0631 \u0634\u0639\u0628\u0627\u0646 \u0627\u0644\u0641\u0647\u0631\u064a", "addr:postcode": "8011", "addr:street": "\u0634\u0627\u0631\u0639 \u0627\u0644\u062d\u0628\u064a\u0628 \u0628\u0648\u0631\u0642\u064a\u0628\u0629", "addr:street:ar": "\u0634\u0627\u0631\u0639 \u0627\u0644\u062d\u0628\u064a\u0628 \u0628\u0648\u0631\u0642\u064a\u0628\u0629", "amenity": "cafe"}}, {"type": "node", "id": 7623001252, "lat": 36.3951031, "lon": 10.6204334}, {"type": "node", "id": 7623017185, "lat": 36.3946776, "lon": 10.616448, "tags": {"addr:city": "\u0627\u0644\u062d\u0645\u0627\u0645\u0627\u062a", "addr:street": "\u0634\u0627\u0631\u0639 \u0639\u0644\u064a \u0627\u0644\u0628\u0644\u0647\u0648\u0627\u0646", "amenity": "restaurant", "cuisine": "local", "name": "\u0645\u0637\u0639\u0645 \u0639\u0646\u062f \u0639\u0627\u0634\u0648\u0631", "name:ar": "\u0645\u0637\u0639\u0645 \u0639\u0646\u062f \u0639\u0627\u0634\u0648\u0631", "name:fr": "Restaurant Chez Achour", "opening_hours": "Mo-Su 11:00-24:00"}}, {"type": "node", "id": 7626324095, "lat": 36.4496543, "lon": 10.7364042, "tags": {"addr:city": "\u0646\u0627\u0628\u0644", "addr:postcode": "8000", "addr:street": "\u0634\u0627\u0631\u0639 \u0627\u0644\u062d\u0628\u064a\u0628 \u0628\u0648\u0631\u0642\u064a\u0628\u0629", "addr:street:ar": "\u0634\u0627\u0631\u0639 \u0627\u0644\u062d\u0628\u064a\u0628 \u0628\u0648\u0631\u0642\u064a\u0628\u0629", "amenity": "cafe", "cuisine": "coffee_shop", "name": "Buvette", "opening_hours:signed": "no"}}, {"type": "node", "id": 7626324096, "lat": 36.4479411, "lon": 10.737401}, {"type": "node", "id": 7626324097, "lat": 36.4478819, "lon": 10.737431}, {"type": "node", "id": 7626324098, "lat": 36.4478623, "lon": 10.7373714}, {"type": "node", "id": 7626324099, "lat": 36.4479215, "lon": 10.7373413}, {"type": "node", "id": 7626324100, "lat": 36.4479022, "lon": 10.7373839, "tags": {"addr:city": "\u0646\u0627\u0628\u0644", "addr:postcode": "8000", "addr:street": "\u0634\u0627\u0631\u0639 \u0627\u0644\u062d\u0628\u064a\u0628 \u0628\u0648\u0631\u0642\u064a\u0628\u0629", "addr:street:ar": "\u0634\u0627\u0631\u0639 \u0627\u0644\u062d\u0628\u064a\u0628 \u0628\u0648\u0631\u0642\u064a\u0628\u0629", "amenity": "cafe", "name": "Buvette", "outdoor_seating": "no"}}, {"type": "node", "id": 7626395175, "lat": 36.442172, "lon": 10.7408968, "tags": {"addr:city": "\u0646\u0627\u0628\u0644", "addr:postcode": "8000", "addr:street": "\u0634\u0627\u0631\u0639 \u0627\u0644\u062d\u0628\u064a\u0628 \u0628\u0648\u0631\u0642\u064a\u0628\u0629", "addr:street:ar": "\u0634\u0627\u0631\u0639 \u0627\u0644\u062d\u0628\u064a\u0628 \u0628\u0648\u0631\u0642\u064a\u0628\u0629", "amenity": "cafe", "cuisine": "coffee_shop", "name": "La Vague", "outdoor_seating": "yes"}}, {"type": "node", "id": 7626975270, "lat": 36.4433866, "lon": 10.7402136, "tags": {"addr:city": "\u0646\u0627\u0628\u0644", "addr:postcode": "8000", "addr:street": "\u0634\u0627\u0631\u0639 \u0627\u0644\u062d\u0628\u064a\u0628 \u0628\u0648\u0631\u0642\u064a\u0628\u0629", "addr:street:ar": "\u0634\u0627\u0631\u0639 \u0627\u0644\u062d\u0628\u064a\u0628 \u0628\u0648\u0631\u0642\u064a\u0628\u0629", "amenity": "cafe", "cuisine": "coffee_shop", "name": "Buvette", "outdoor_seating": "no"}}, {"type": "node", "id": 7627136992, "lat": 36.44605, "lon": 10.7387491, "tags": {"addr:city": "\u0646\u0627\u0628\u0644", "addr:postcode": "8000", "addr:street": "\u0634\u0627\u0631\u0639 \u0627\u0644\u062d\u0628\u064a\u0628 \u0628\u0648\u0631\u0642\u064a\u0628\u0629", "addr:street:ar": "\u0634\u0627\u0631\u0639 \u0627\u0644\u062d\u0628\u064a\u0628 \u0628\u0648\u0631\u0642\u064a\u0628\u0629", "amenity": "cafe", "cuisine": "coffee_shop", "name": "Caf\u00e9 Panorama", "outdoor_seating": "no"}}, {"type": "node", "id": 7635616603, "lat": 36.456321, "lon": 10.7461873, "tags": {"addr:city": "\u062f\u0627\u0631 \u0634\u0639\u0628\u0627\u0646 \u0627\u0644\u0641\u0647\u0631\u064a", "addr:postcode": "8011", "addr:street": "\u0634\u0627\u0631\u0639 \u0627\u0644\u0628\u064a\u0626\u0629", "addr:street:ar": "\u0634\u0627\u0631\u0639 \u0627\u0644\u0628\u064a\u0626\u0629", "amenity": "cafe", "cuisine": "coffee_shop", "internet_access": "no", "name": "Raboudi Caf\u00e9", "opening_hours": "Mo-Su 08:00-20:00", "outdoor_seating": "yes"}}, {"type": "node", "id": 7635708977, "lat": 36.4540694, "lon": 10.7490174, "tags": {"addr:city": "\u062f\u0627\u0631 \u0634\u0639\u0628\u0627\u0646 \u0627\u0644\u0641\u0647\u0631\u064a", "addr:postcode": "8011", "addr:street": "\u0634\u0627\u0631\u0639 14 \u062c\u0627\u0646\u0641\u064a 2011", "addr:street:ar": "\u0634\u0627\u0631\u0639 14 \u062c\u0627\u0646\u0641\u064a 2011", "addr:street:fr": "Avenue du 14 Janvier 2011", "amenity": "cafe", "cuisine": "coffee_shop", "internet_access": "yes", "name": "Caf\u00e9 El Alia", "outdoor_seating": "yes"}}, {"type": "node", "id": 7643863734, "lat": 36.4455572, "lon": 10.7360728, "tags": {"addr:city": "\u0646\u0627\u0628\u0644", "addr:postcode": "8000", "addr:street": "\u0634\u0627\u0631\u0639 \u0645\u062d\u0645\u062f \u0627\u0644\u062e\u0627\u0645\u0633", "amenity": "restaurant", "name": "La Piazza", "opening_hours": "Mo-Su 09:00-22:00"}}, {"type": "node", "id": 7646857949, "lat": 36.4629752, "lon": 10.7477533, "tags": {"addr:city": "\u062f\u0627\u0631 \u0634\u0639\u0628\u0627\u0646 \u0627\u0644\u0641\u0647\u0631\u064a", "addr:postcode": "8011", "addr:street": "\u0634\u0627\u0631\u0639 \u0627\u0644\u062d\u0628\u064a\u0628 \u0628\u0648\u0631\u0642\u064a\u0628\u0629", "addr:street:ar": "\u0634\u0627\u0631\u0639 \u0627\u0644\u062d\u0628\u064a\u0628 \u0628\u0648\u0631\u0642\u064a\u0628\u0629", "amenity": "cafe", "cuisine": "coffee_shop", "name": "Caf\u00e9 Mosaique", "outdoor_seating": "yes"}}, {"type": "node", "id": 7647052961, "lat": 36.4619665, "lon": 10.7472587, "tags": {"addr:city": "\u062f\u0627\u0631 \u0634\u0639\u0628\u0627\u0646 \u0627\u0644\u0641\u0647\u0631\u064a", "addr:postcode": "8011", "addr:street": "\u0634\u0627\u0631\u0639 \u0627\u0644\u062d\u0628\u064a\u0628 \u0628\u0648\u0631\u0642\u064a\u0628\u0629", "addr:street:ar": "\u0634\u0627\u0631\u0639 \u0627\u0644\u062d\u0628\u064a\u0628 \u0628\u0648\u0631\u0642\u064a\u0628\u0629", "amenity": "restaurant", "cuisine": "local", "name": "Rastaurant Dhiya", "opening_hours": "Mo-Sa 10:00-20:00"}}, {"type": "node", "id": 7741143591, "lat": 36.4655182, "lon": 10.7481633, "tags": {"amenity": "cafe", "name": "Caf\u00e9 Chikh El Beled", "outdoor_seating": "yes"}}, {"type": "node", "id": 7781251287, "lat": 36.3953353, "lon": 10.6143088, "tags": {"addr:city": "\u0627\u0644\u062d\u0645\u0627\u0645\u0627\u062a", "addr:postcode": "8050", "addr:street": "\u0646\u0647\u062c \u0627\u0644\u064a\u0627\u0633\u0645\u064a\u0646", "amenity": "cafe", "internet_access": "yes", "internet_access:fee": "no", "internet_access:ssid": "SIDIACHOUR", "name": "Caf\u00e9 Sidi Achour", "opening_hours:signed": "no", "outdoor_seating": "yes"}}, {"type": "node", "id": 7787975724, "lat": 36.3957465, "lon": 10.6145188, "tags": {"addr:city": "\u0627\u0644\u062d\u0645\u0627\u0645\u0627\u062a", "addr:postcode": "8050", "addr:street": "\u0634\u0627\u0631\u0639 \u0639\u0644\u064a \u0627\u0644\u0628\u0644\u0647\u0648\u0627\u0646", "amenity": "cafe", "name": "Caf\u00e9teria", "opening_hours:signed": "no", "outdoor_seating": "no"}}, {"type": "node", "id": 7788276447, "lat": 36.4058222, "lon": 10.6033118, "tags": {"amenity": "cafe"}}, {"type": "node", "id": 7788311955, "lat": 36.4058012, "lon": 10.6035943, "tags": {"amenity": "restaurant", "name": "Ness Cute"}}, {"type": "node", "id": 7788317672, "lat": 36.4058141, "lon": 10.6037289, "tags": {"amenity": "cafe", "name": "Big Ben Caf\u00e9"}}, {"type": "node", "id": 7826894940, "lat": 36.4647644, "lon": 10.7479676, "tags": {"amenity": "restaurant", "name": "Zerda Time"}}, {"type": "node", "id": 7826946252, "lat": 36.4652184, "lon": 10.7480273, "tags": {"amenity": "restaurant", "name": "Pizzeria Danimou"}}, {"type": "node", "id": 8269338361, "lat": 36.4587193, "lon": 10.7517705}, {"type": "node", "id": 8269338362, "lat": 36.4587239, "lon": 10.7517563}, {"type": "node", "id": 8269338363, "lat": 36.4587296, "lon": 10.7517306}, {"type": "node", "id": 8269338364, "lat": 36.4587324, "lon": 10.7516924}, {"type": "node", "id": 8269338365, "lat": 36.4587294, "lon": 10.751659}, {"type": "node", "id": 8269338366, "lat": 36.4587215, "lon": 10.7516268}, {"type": "node", "id": 8269338367, "lat": 36.45871, "lon": 10.7515988}, {"type": "node", "id": 8269338368, "lat": 36.4587285, "lon": 10.7515785}, {"type": "node", "id": 8269338369, "lat": 36.4587176, "lon": 10.7515613}, {"type": "node", "id": 8269338370, "lat": 36.4587041, "lon": 10.7515432}, {"type": "node", "id": 8269338371, "lat": 36.4586821, "lon": 10.7515197}, {"type": "node", "id": 8269338372, "lat": 36.4586659, "lon": 10.7515432}, {"type": "node", "id": 8269338373, "lat": 36.4586428, "lon": 10.751528}, {"type": "node", "id": 8269338374, "lat": 36.4586024, "lon": 10.7515919}, {"type": "node", "id": 8269338375, "lat": 36.4585864, "lon": 10.7515807}, {"type": "node", "id": 8269338376, "lat": 36.4585635, "lon": 10.7515722}, {"type": "node", "id": 8269338377, "lat": 36.4585506, "lon": 10.7515706}, {"type": "node", "id": 8269338378, "lat": 36.4586326, "lon": 10.7517998}, {"type": "node", "id": 8269338379, "lat": 36.458643, "lon": 10.7518283}, {"type": "node", "id": 8269338380, "lat": 36.45866, "lon": 10.7518529}, {"type": "node", "id": 8269338381, "lat": 36.4586797, "lon": 10.7518691}, {"type": "node", "id": 8269338382, "lat": 36.4587072, "lon": 10.7518795}, {"type": "node", "id": 8269338383, "lat": 36.4587369, "lon": 10.7518784}, {"type": "node", "id": 8269338384, "lat": 36.4587613, "lon": 10.7518678}, {"type": "node", "id": 8269338385, "lat": 36.4587793, "lon": 10.7518524}, {"type": "node", "id": 8269338386, "lat": 36.4587985, "lon": 10.7518226}, {"type": "node", "id": 8269338387, "lat": 36.4588082, "lon": 10.7517901}, {"type": "node", "id": 8357170766, "lat": 36.4613884, "lon": 10.764028, "tags": {"amenity": "cafe"}}, {"type": "node", "id": 8922379602, "lat": 36.4155839, "lon": 10.6526181, "tags": {"amenity": "cafe", "name": "Caf\u00e9 Caramel", "outdoor_seating": "yes"}}, {"type": "node", "id": 9008213714, "lat": 36.444635, "lon": 10.7152688, "tags": {"amenity": "cafe", "name": "Caf\u00e9 Amine Garaa"}}, {"type": "node", "id": 11113876909, "lat": 36.4668766, "lon": 10.7480163, "tags": {"addr:city": "\u062f\u0627\u0631 \u0634\u0639\u0628\u0627\u0646 \u0627\u0644\u0641\u0647\u0631\u064a", "addr:postcode": "8011", "addr:street": "\u0634\u0627\u0631\u0639 \u0627\u0644\u062c\u0645\u0647\u0648\u0631\u064a\u0629", "amenity": "cafe", "cuisine": "coffee_shop", "name": "Cafe Doggaz"}}, {"type": "node", "id": 11116625336, "lat": 36.4673265, "lon": 10.7453063, "tags": {"amenity": "cafe", "cuisine": "coffee_shop", "name": "Caf\u00e9 Mourad"}}, {"type": "node", "id": 11117197008, "lat": 36.4682563, "lon": 10.7504015, "tags": {"amenity": "cafe", "cuisine": "coffee_shop", "name": "Cafe Ragouba"}}, {"type": "node", "id": 12328783801, "lat": 36.40505, "lon": 10.5631917, "tags": {"amenity": "cafe", "cuisine": "coffee_shop", "name": "Cafe Bondin"}}, {"type": "way", "id": 121863640, "nodes": [1363145711, 1363145864, 1363146010, 1254081677, 1363145711], "tags": {"amenity": "restaurant", "cuisine": "regional", "name": "The Boat Hammamet"}}, {"type": "way", "id": 128935641, "nodes": [1423464601, 1423464620, 1423464562, 1423464567, 1423464545, 1423464528, 1423464517, 1423464519, 1423464530, 1423464544, 1423464555, 1423464583, 1423464601], "tags": {"access": "private", "amenity": "restaurant", "building": "yes", "name": "Le pirate", "operator": "Le Sultan"}}, {"type": "way", "id": 176163171, "nodes": [1867181786, 1867181780, 1867181764, 1867181808, 1867181786], "tags": {"amenity": "restaurant", "building": "yes", "name": "University restaurant Alemrazkh Nabeul"}}, {"type": "way", "id": 179317349, "nodes": [1896592800, 1896592790, 1896592787, 1896592785, 1896592779, 1896592784, 1896592786, 1896592766, 1896592775, 1896592794, 1896592825, 1896592845, 1896592855, 1896592841, 1896592832, 1896592822, 1896592800], "tags": {"amenity": "restaurant", "building": "roof", "source": "bing;survey"}}, {"type": "way", "id": 179317350, "nodes": [1896593388, 1896593404, 1896593422, 1896593432, 1896593453, 1896593443, 1896593455, 1896593492, 1896593496, 1896593504, 1896593507, 1896593536, 1896593505, 1896593503, 1896593497, 1896593494, 1896593449, 1896593439, 1896593418, 1896593416, 1896593406, 1896593394, 1896593378, 1896593364, 1896593341, 1896593322, 1896593317, 1896593306, 1896593312, 1896593292, 1896593314, 1896593318, 1896593336, 1896593353, 1896593368, 1896593388], "tags": {"amenity": "restaurant", "building": "roof", "source": "bing;survey"}}, {"type": "way", "id": 233227595, "nodes": [2415824574, 2415824576, 2415824573, 2415824571, 2415824574], "tags": {"addr:city": "\u0627\u0644\u062d\u0645\u0627\u0645\u0627\u062a", "addr:postcode": "8050", "addr:street": "\u0634\u0627\u0631\u0639 \u0623\u0633\u062f \u0627\u0628\u0646 \u0627\u0644\u0641\u0631\u0627\u062a", "amenity": "restaurant", "building": "yes", "name": "\u0639\u0631\u0648\u0633 \u0627\u0644\u0628\u062d\u0631", "name:ar": "\u0639\u0631\u0648\u0633 \u0627\u0644\u0628\u062d\u0631", "name:fr": "La Sir\u00e8ne"}}, {"type": "way", "id": 286063477, "nodes": [2896990298, 2896990616, 2896990299, 2896990300, 2896990601, 2896990602, 2896990603, 2896990298], "tags": {"amenity": "restaurant", "building": "yes", "name": "Le Hour"}}, {"type": "way", "id": 286063478, "nodes": [2896990604, 2896990605, 2896990606, 2896990607, 2896990604], "tags": {"amenity": "restaurant", "building": "yes", "name": "Les Palmiers"}}, {"type": "way", "id": 286063480, "nodes": [2896990606, 2896990622, 2896990623, 2896990620, 2896990624, 2896990607, 2896990606], "tags": {"amenity": "restaurant", "building": "yes", "name": "La Casa Del Pirati"}}, {"type": "way", "id": 401503622, "nodes": [4039252273, 4039252274, 4039252275, 4039252276, 4039252273], "tags": {"amenity": "restaurant", "building": "yes", "name": "Espace Le Jardin"}}, {"type": "way", "id": 402268234, "nodes": [4046821538, 4046821539, 4046821540, 4046821541, 4046821538], "tags": {"addr:city": "\u0646\u0627\u0628\u0644", "addr:city:ar": "\u0646\u0627\u0628\u0644", "amenity": "cafe", "building": "hospital", "shop": "kiosk"}}, {"type": "way", "id": 441930551, "nodes": [4396201242, 4396201243, 4396201245, 4396201244, 4396201246, 4396201247, 4396201242], "tags": {"amenity": "cafe", "cuisine": "international", "name": "My Wave"}}, {"type": "way", "id": 452242379, "nodes": [4490321232, 4490321230, 7623001252, 4490321233, 4490321236, 4490321237, 4490321234, 4490321235, 4490321232], "tags": {"addr:city": "\u0627\u0644\u062d\u0645\u0627\u0645\u0627\u062a", "addr:housename": "La Rambla", "addr:postcode": "8050", "addr:street": "\u0634\u0627\u0631\u0639 \u0623\u0633\u062f \u0627\u0628\u0646 \u0627\u0644\u0641\u0631\u0627\u062a", "amenity": "cafe", "cuisine": "international", "name": "\u0644\u0627 \u0631\u0627\u0645\u0628\u0644\u0627", "name:ar": "\u0644\u0627 \u0631\u0627\u0645\u0628\u0644\u0627", "name:en": "La Rambla", "website": "https://www.facebook.com/LARAMBLARESTOCAFE/"}}, {"type": "way", "id": 507419303, "nodes": [4969283924, 4969283926, 4969283927, 4969283923, 4969283924], "tags": {"amenity": "cafe", "building": "yes"}}, {"type": "way", "id": 538972036, "nodes": [5216036658, 5216036659, 5216036660, 5216036656, 5216036658], "tags": {"amenity": "cafe", "building": "yes", "name": "Caf\u00e9 Kaabar"}}, {"type": "way", "id": 601682630, "nodes": [5717664351, 5717664379, 5717649091, 5717664353, 5717664371, 5717664354, 5717664374, 5717664384, 5717664370, 5717664351], "tags": {"amenity": "restaurant", "name": "Baia"}}, {"type": "way", "id": 601698634, "nodes": [5717756816, 5717756809, 5717757026, 5717756799, 5717756814, 5717756817, 5717756805, 5717756797, 5717757024, 5717756803, 5717756819, 5717756802, 5717756812, 5717756810, 5717756815, 5717757027, 5717756811, 5717756813, 5717756816], "tags": {"amenity": "restaurant", "name": "Snack Bar"}}, {"type": "way", "id": 607424868, "nodes": [5756647981, 5756647982, 5756647983, 5756647984, 5756647981], "tags": {"addr:city": "\u0628\u0646\u064a \u062e\u064a\u0627\u0631", "addr:postcode": "8060", "addr:street": "\u0634\u0627\u0631\u0639 \u0627\u0644\u062d\u0628\u064a\u0628 \u0628\u0648\u0631\u0642\u064a\u0628\u0629", "addr:street:ar": "\u0634\u0627\u0631\u0639 \u0627\u0644\u062d\u0628\u064a\u0628 \u0628\u0648\u0631\u0642\u064a\u0628\u0629", "amenity": "cafe", "building": "yes", "internet_access": "wlan", "internet_access:fee": "no", "name": "\u0642\u0647\u0648\u0629 \u062c\u0644\u0651\u0648\u0644", "name:ar": "\u0642\u0647\u0648\u0629 \u062c\u0644\u0651\u0648\u0644", "name:fr": "Caf\u00e9 Jalloul", "outdoor_seating": "yes", "smoking": "yes"}}, {"type": "way", "id": 607424873, "nodes": [5756647985, 5756647986, 5756647987, 5756647988, 5756647985], "tags": {"addr:city": "\u0628\u0646\u064a \u062e\u064a\u0627\u0631", "addr:postcode": "8060", "addr:street": "\u0634\u0627\u0631\u0639 \u0627\u0644\u062d\u0628\u064a\u0628 \u0628\u0648\u0631\u0642\u064a\u0628\u0629", "addr:street:ar": "\u0634\u0627\u0631\u0639 \u0627\u0644\u062d\u0628\u064a\u0628 \u0628\u0648\u0631\u0642\u064a\u0628\u0629", "amenity": "cafe", "building": "yes", "internet_access": "no", "name": "\u0645\u0642\u0647\u0649 \u0627\u0644\u0646\u0635\u0631", "name:ar": "\u0645\u0642\u0647\u0649 \u0627\u0644\u0646\u0635\u0631", "name:fr": "Caf\u00e9 Ennasr", "outdoor_seating": "yes", "smoking": "separated"}}, {"type": "way", "id": 614784844, "nodes": [5717757031, 5717756808, 5717757021, 5717757029, 5717756798, 5717757032, 5717756818, 5717757025, 5717757022, 5717756820, 5717757030, 5814721778, 5814721758, 1437614946, 1437614940, 5814721765, 5814721709, 5814721721, 5814721732, 5717649069, 5814721719, 5814721697, 5717757031], "tags": {"amenity": "restaurant", "name": "Jasmine"}}, {"type": "way", "id": 614784847, "nodes": [5814721752, 5814721699, 5814721775, 5814721728, 5814721752], "tags": {"amenity": "cafe", "name": "Moorish Cafe"}}, {"type": "way", "id": 614784851, "nodes": [5814721740, 5814721721, 5814721732, 1437614943, 5814721726, 5814721740], "tags": {"amenity": "restaurant", "name": "Sofra"}}, {"type": "way", "id": 662504054, "nodes": [6202229655, 6202229656, 6202229657, 6202229658, 6202229659, 6202229660, 6202229661, 6202229662, 6202229655], "tags": {"amenity": "cafe", "building": "yes", "name": "L'auberge de la jeunesse"}}, {"type": "way", "id": 662750808, "nodes": [6204352751, 6204352752, 6204352753, 6204352754, 6204352755, 6204352756, 6204352757, 6204352751], "tags": {"amenity": "cafe", "building": "yes", "name": "Caf\u00e9 Elmaestro", "name:fr": "Caf\u00e9 Elmaestro"}}, {"type": "way", "id": 665859978, "nodes": [6233083725, 6233083726, 6233083727, 6233083728, 6233083725], "tags": {"amenity": "restaurant", "building": "yes", "cuisine": "regional", "name": "Jasmin"}}, {"type": "way", "id": 669406572, "nodes": [6268579169, 6268579170, 6268579171, 6268579172, 6268579173, 6268579174, 6268579175, 6268579176, 6268579177, 6268579178, 6268579179, 6268579180, 6268579181, 6268579182, 6268579169], "tags": {"amenity": "restaurant", "building": "yes", "name": "Restaurant Universitaire de Nabeul"}}, {"type": "way", "id": 677056487, "nodes": [6339857225, 6339857226, 6339857227, 6339857228, 6339857225], "tags": {"amenity": "cafe", "building": "yes", "name": "Caf\u00e9 Mondiale"}}, {"type": "way", "id": 677328329, "nodes": [6342145285, 6342145286, 6342145287, 6342145288, 6342145289, 6342145290, 6342145291, 6342145292, 6342145293, 6342145294, 6342145295, 6342145296, 6342145297, 6342145298, 6342145299, 6342145300, 6342145301, 6342145302, 6342145303, 6342145304, 6342145305, 6342145306, 6342145285], "tags": {"amenity": "restaurant", "building": "yes", "name": "Les Colombes"}}, {"type": "way", "id": 779527205, "nodes": [7279211854, 7279211855, 7279211856, 7279211857, 7279211858, 7279211859, 7279211882, 7279211860, 7279211883, 7279211861, 7279211884, 7279211862, 7279211881, 7279211863, 7279211864, 7279211865, 7279211866, 7279211867, 7279211868, 7279211869, 7279211870, 7279211871, 7279211872, 7279211873, 7279211874, 7279211875, 7279211876, 7279211877, 7279211878, 7279211879, 7279211880, 7279211854], "tags": {"amenity": "cafe", "building": "yes", "name": "Caf\u00e9 de la plage de M\u00e2amoura"}}, {"type": "way", "id": 816557081, "nodes": [7626324096, 7626324097, 7626324098, 7626324099, 7626324096], "tags": {"addr:city": "\u0646\u0627\u0628\u0644", "addr:postcode": "8000", "addr:street": "\u0634\u0627\u0631\u0639 \u0627\u0644\u062d\u0628\u064a\u0628 \u0628\u0648\u0631\u0642\u064a\u0628\u0629", "addr:street:ar": "\u0634\u0627\u0631\u0639 \u0627\u0644\u062d\u0628\u064a\u0628 \u0628\u0648\u0631\u0642\u064a\u0628\u0629", "amenity": "cafe", "building": "yes", "name": "Buvette", "outdoor_seating": "no"}}, {"type": "way", "id": 889469888, "nodes": [8269338387, 8269338386, 8269338385, 8269338384, 8269338383, 8269338382, 8269338381, 8269338380, 8269338379, 8269338378, 8269338377, 8269338376, 8269338375, 8269338374, 8269338373, 8269338372, 8269338371, 8269338370, 8269338369, 8269338368, 8269338367, 8269338366, 8269338365, 8269338364, 8269338363, 8269338362, 8269338361, 8269338387], "tags": {"amenity": "cafe", "building": "yes", "name": "Cafe La Princesse", "name:ar": "\u0645\u0642\u0647\u0649 \u0627\u0644\u0623\u0645\u064a\u0631\u0629", "name:fr": "Cafe La Princesse"}}]}