{"version": 0.6, "generator": "Overpass API 0.7.62.7 375dc00a", "osm3s": {"timestamp_osm_base": "2025-06-14T15:13:00Z", "copyright": "The data included in this document is from www.openstreetmap.org. The data is made available under ODbL."}, "elements": [{"type": "node", "id": 514957676, "lat": 35.0539262, "lon": 34.0093161, "tags": {"amenity": "restaurant", "name": "Karas Village Tavern"}}, {"type": "node", "id": 558843479, "lat": 35.026263, "lon": 34.049226, "tags": {"amenity": "cafe", "name": "Zafeiros Kiosk", "note": "Not in place during winter months."}}, {"type": "node", "id": 685491917, "lat": 34.9848866, "lon": 34.0112364, "tags": {"amenity": "restaurant", "name": "Alion"}}, {"type": "node", "id": 715218149, "lat": 34.9817037, "lon": 34.0023379, "tags": {"amenity": "restaurant", "cuisine": "seafood;fish", "internet_access": "wlan", "name": "Markos fish tavern", "source": "survey"}}, {"type": "node", "id": 763129219, "lat": 35.030787, "lon": 33.981818, "tags": {"amenity": "restaurant", "name": "Tappis Restaurant"}}, {"type": "node", "id": 763170907, "lat": 34.9867726, "lon": 34.0006309, "tags": {"amenity": "restaurant", "brand": "Pizza Hut", "brand:wikidata": "Q191615", "brand:wikipedia": "en:Pizza Hut", "cuisine": "pizza", "internet_access": "wlan", "name": "Pizza Hut", "opening_hours": "12:00-22:30", "website": "https://www.pizzahut.com.cy/"}}, {"type": "node", "id": 900751418, "lat": 34.9879412, "lon": 34.0043941, "tags": {"amenity": "restaurant", "cuisine": "local;russian;seafood", "food": "russian", "internet_access": "wlan", "name": "Teremok", "name:ru": "\u0422\u0435\u0440\u0435\u043c\u043e\u043a", "opening_hours": "Mo-Su 11:00-19:00"}}, {"type": "node", "id": 900756412, "lat": 34.9885722, "lon": 33.9864728, "tags": {"addr:street": "Leoforos Nissi", "amenity": "restaurant", "cuisine": "mexican", "name": "Tequila Garden", "phone": "+35723723620"}}, {"type": "node", "id": 931080199, "lat": 35.0143694, "lon": 34.0538662}, {"type": "node", "id": 931080283, "lat": 35.0144219, "lon": 34.0539352}, {"type": "node", "id": 931080496, "lat": 35.0142783, "lon": 34.0539696}, {"type": "node", "id": 931080767, "lat": 35.0143983, "lon": 34.053962}, {"type": "node", "id": 931081200, "lat": 35.0144168, "lon": 34.0539863}, {"type": "node", "id": 931081607, "lat": 35.0143493, "lon": 34.0540628}, {"type": "node", "id": 939138548, "lat": 34.9838857, "lon": 34.0011956, "tags": {"amenity": "cafe", "name": "Jello"}}, {"type": "node", "id": 945978689, "lat": 35.0182431, "lon": 34.0474755}, {"type": "node", "id": 945978869, "lat": 35.0184235, "lon": 34.047684}, {"type": "node", "id": 945979043, "lat": 35.0185663, "lon": 34.0474999}, {"type": "node", "id": 945979223, "lat": 35.0183859, "lon": 34.0472913}, {"type": "node", "id": 946001071, "lat": 35.0153305, "lon": 34.0513359}, {"type": "node", "id": 946001095, "lat": 35.0152215, "lon": 34.0511926}, {"type": "node", "id": 946023913, "lat": 35.0136451, "lon": 34.0540458}, {"type": "node", "id": 946023924, "lat": 35.0137957, "lon": 34.054221}, {"type": "node", "id": 946023928, "lat": 35.013661, "lon": 34.0540665}, {"type": "node", "id": 946023936, "lat": 35.0136956, "lon": 34.0540269}, {"type": "node", "id": 946023951, "lat": 35.0137972, "lon": 34.0541589}, {"type": "node", "id": 946023959, "lat": 35.0136995, "lon": 34.0543315}, {"type": "node", "id": 946023967, "lat": 35.0136487, "lon": 34.0542655}, {"type": "node", "id": 946023972, "lat": 35.0136766, "lon": 34.0542336}, {"type": "node", "id": 946023976, "lat": 35.0141109, "lon": 34.0542193, "tags": {"amenity": "restaurant", "check_date": "2024-09-18", "name": "All American BBQ"}}, {"type": "node", "id": 946023980, "lat": 35.013771, "lon": 34.054189}, {"type": "node", "id": 946023983, "lat": 35.0135851, "lon": 34.0541148}, {"type": "node", "id": 946749959, "lat": 35.0478576, "lon": 34.0187694}, {"type": "node", "id": 946750009, "lat": 35.0480804, "lon": 34.0189192}, {"type": "node", "id": 946750015, "lat": 35.0479491, "lon": 34.0186909}, {"type": "node", "id": 946750029, "lat": 35.0479889, "lon": 34.0189977}, {"type": "node", "id": 946973163, "lat": 35.0151194, "lon": 34.0513084}, {"type": "node", "id": 946973192, "lat": 35.0158279, "lon": 34.0526626, "tags": {"amenity": "restaurant", "check_date": "2024-09-18", "cuisine": "indian", "name": "Raj Indian"}}, {"type": "node", "id": 947267259, "lat": 35.0156141, "lon": 34.051808}, {"type": "node", "id": 947267339, "lat": 35.016811, "lon": 34.050513}, {"type": "node", "id": 947267371, "lat": 35.0156584, "lon": 34.0517524}, {"type": "node", "id": 947267430, "lat": 35.0157037, "lon": 34.0518062}, {"type": "node", "id": 947267472, "lat": 35.016891, "lon": 34.0505363}, {"type": "node", "id": 947267526, "lat": 35.0169217, "lon": 34.0508295}, {"type": "node", "id": 947267691, "lat": 35.0168815, "lon": 34.0505585}, {"type": "node", "id": 947267692, "lat": 35.0159185, "lon": 34.051455, "tags": {"amenity": "restaurant", "check_date": "2024-09-18", "cuisine": "regional", "diet:fish": "yes", "diet:meat": "yes", "diet:pescetarian": "yes", "diet:seafood": "yes", "diet:vegan": "yes", "diet:vegetarian": "yes", "name": "Andama Tavern", "note": "Closed during winter season.", "opening_hours": "16:00-23:00", "website": "https://www.andama-corner.com/"}}, {"type": "node", "id": 947267756, "lat": 35.0156594, "lon": 34.0518618}, {"type": "node", "id": 947267829, "lat": 35.0167281, "lon": 34.0507045}, {"type": "node", "id": 947267930, "lat": 35.0155878, "lon": 34.0518399}, {"type": "node", "id": 948449010, "lat": 35.0150472, "lon": 34.0527267, "tags": {"amenity": "restaurant", "check_date": "2024-09-18", "name": "Erato"}}, {"type": "node", "id": 948449026, "lat": 35.0146935, "lon": 34.0527714}, {"type": "node", "id": 948449117, "lat": 35.014802, "lon": 34.0528974}, {"type": "node", "id": 948669396, "lat": 35.0152284, "lon": 34.0514517}, {"type": "node", "id": 948919243, "lat": 35.0116473, "lon": 34.0569358}, {"type": "node", "id": 948919250, "lat": 35.0115525, "lon": 34.056928}, {"type": "node", "id": 948919273, "lat": 35.0115377, "lon": 34.0567644}, {"type": "node", "id": 948919291, "lat": 35.0130307, "lon": 34.0549224, "tags": {"addr:city": "Protaras", "addr:housenumber": "50", "addr:street": "Leoforos Protara", "amenity": "restaurant", "check_date": "2024-09-18", "name": "Da Sonia", "website": "http://www.dasoniarestaurant.com/"}}, {"type": "node", "id": 948919294, "lat": 35.0116853, "lon": 34.0566308}, {"type": "node", "id": 948919315, "lat": 35.0116083, "lon": 34.0568744}, {"type": "node", "id": 948919323, "lat": 35.0166497, "lon": 34.0503717, "tags": {"addr:housenumber": "18", "addr:street": "Leoforos Protara", "amenity": "restaurant", "check_date": "2024-09-16", "email": "info@hippocampus-restaurant.com.cy;hippocampus-res@hotmail.com", "name": "Hippocampus", "note": "Closed during winter season.", "phone": "+357 23 831166", "website": "http://www.hippocampus-restaurant.com.cy/"}}, {"type": "node", "id": 948919326, "lat": 35.0120156, "lon": 34.0581327}, {"type": "node", "id": 948919333, "lat": 35.0121297, "lon": 34.0558905, "tags": {"addr:housenumber": "58", "addr:street": "Leoforos Protara", "amenity": "restaurant", "bar": "yes", "check_date": "2024-09-22", "cuisine": "pizza", "name": "Pizza Flox", "opening_hours": "Mo-Su 18:00-23:00", "outdoor_seating": "yes", "source": "survey"}}, {"type": "node", "id": 948919340, "lat": 35.0115931, "lon": 34.0567117}, {"type": "node", "id": 948919343, "lat": 35.0115568, "lon": 34.0567945}, {"type": "node", "id": 948919345, "lat": 35.011501, "lon": 34.056848}, {"type": "node", "id": 948919368, "lat": 35.0119732, "lon": 34.0583386}, {"type": "node", "id": 948919374, "lat": 35.0117135, "lon": 34.056674}, {"type": "node", "id": 948919375, "lat": 35.0124788, "lon": 34.0555889, "tags": {"amenity": "cafe", "cuisine": "ice_cream", "name": "Juice Bar"}}, {"type": "node", "id": 948919400, "lat": 35.011827, "lon": 34.0568703}, {"type": "node", "id": 948919406, "lat": 35.0116819, "lon": 34.0562115, "tags": {"amenity": "restaurant", "cuisine": "italian", "name": "Promessa"}}, {"type": "node", "id": 948919429, "lat": 35.0118709, "lon": 34.0561249, "tags": {"amenity": "restaurant", "check_date": "2024-09-22", "name": "Nbila Rooftop Restaurant"}}, {"type": "node", "id": 948919437, "lat": 35.0119029, "lon": 34.0582367}, {"type": "node", "id": 948919462, "lat": 35.0117791, "lon": 34.0566444}, {"type": "node", "id": 948919483, "lat": 35.0127796, "lon": 34.0556524, "tags": {"amenity": "restaurant", "check_date": "2024-09-18", "cuisine": "regional", "name": "Paladela", "wheelchair": "yes"}}, {"type": "node", "id": 948919500, "lat": 35.0116919, "lon": 34.0569968}, {"type": "node", "id": 948919518, "lat": 35.0121084, "lon": 34.0582911}, {"type": "node", "id": 948919520, "lat": 35.0118827, "lon": 34.0567926}, {"type": "node", "id": 950713434, "lat": 35.0112702, "lon": 34.0572472}, {"type": "node", "id": 950713456, "lat": 35.0106465, "lon": 34.0572769}, {"type": "node", "id": 950713479, "lat": 35.0112801, "lon": 34.0570536}, {"type": "node", "id": 950713491, "lat": 35.0112738, "lon": 34.0571921}, {"type": "node", "id": 950713494, "lat": 35.0104598, "lon": 34.0576347}, {"type": "node", "id": 950713512, "lat": 35.0111537, "lon": 34.0572144}, {"type": "node", "id": 950713532, "lat": 35.0113302, "lon": 34.0571369}, {"type": "node", "id": 950713534, "lat": 35.010539, "lon": 34.0576978}, {"type": "node", "id": 950713553, "lat": 35.0112993, "lon": 34.0573549}, {"type": "node", "id": 950713556, "lat": 35.0106928, "lon": 34.0574769}, {"type": "node", "id": 950713579, "lat": 35.0106681, "lon": 34.0574561}, {"type": "node", "id": 950713587, "lat": 35.011251, "lon": 34.057269}, {"type": "node", "id": 950713594, "lat": 35.0111581, "lon": 34.0571749}, {"type": "node", "id": 950713609, "lat": 35.0107542, "lon": 34.0573644}, {"type": "node", "id": 950786131, "lat": 35.0109159, "lon": 34.0542904, "tags": {"amenity": "restaurant", "name": "Starlight Gardens"}}, {"type": "node", "id": 950786231, "lat": 35.0127624, "lon": 34.0508853, "tags": {"amenity": "cafe", "check_date": "2024-10-01", "description": "coffee n' bites", "name": "Fabricca", "outdoor_seating": "yes", "source": "survey"}}, {"type": "node", "id": 952464069, "lat": 35.0168931, "lon": 34.0465108}, {"type": "node", "id": 952464197, "lat": 35.0167348, "lon": 34.0466494}, {"type": "node", "id": 952464199, "lat": 35.0177056, "lon": 34.0476865, "tags": {"amenity": "restaurant", "check_date": "2024-09-16", "cuisine": "italian", "name": "Da Paolo"}}, {"type": "node", "id": 952464258, "lat": 35.0176012, "lon": 34.0470789, "tags": {"amenity": "restaurant", "check_date": "2024-09-16", "cuisine": "regional", "name": "Oscar Restaurant", "phone": "+357 23 832323", "website": "https://www.facebook.com/people/Oscar-restaurant-Protaras/100063857243347/"}}, {"type": "node", "id": 952464339, "lat": 35.0169433, "lon": 34.0465922}, {"type": "node", "id": 952464518, "lat": 35.0168127, "lon": 34.0467657}, {"type": "node", "id": 952658715, "lat": 35.0172377, "lon": 34.0485079, "tags": {"amenity": "restaurant", "check_date": "2024-09-16", "name": "Porky's", "note": "Closed during winter season.", "opening_hours": "Mo-Su 12:00-23:00", "phone": "+357 23 831595", "website": "https://www.facebook.com/PorkysRestaurantProtaras/"}}, {"type": "node", "id": 952658792, "lat": 35.0179476, "lon": 34.0485585, "tags": {"amenity": "restaurant", "check_date": "2024-09-17", "cuisine": "mexican", "name": "Los Hermanos", "outdoor_seating": "yes", "wheelchair": "yes"}}, {"type": "node", "id": 952658845, "lat": 35.0187502, "lon": 34.0486162, "tags": {"amenity": "restaurant", "name": "Utopia"}}, {"type": "node", "id": 956400915, "lat": 35.0113187, "lon": 34.0573783}, {"type": "node", "id": 956400919, "lat": 35.0117778, "lon": 34.0565686, "tags": {"addr:housenumber": "58", "addr:street": "Leoforos Protara", "amenity": "cafe", "check_date": "2024-09-22", "name": "Vietry", "phone": "+357 23 825838"}}, {"type": "node", "id": 956400935, "lat": 35.0114736, "lon": 34.056957}, {"type": "node", "id": 956400948, "lat": 35.0114426, "lon": 34.0568996}, {"type": "node", "id": 956400965, "lat": 35.0113636, "lon": 34.0569727}, {"type": "node", "id": 956400986, "lat": 35.0114052, "lon": 34.0570327}, {"type": "node", "id": 957286114, "lat": 35.0067858, "lon": 34.0581701}, {"type": "node", "id": 957286225, "lat": 35.0071129, "lon": 34.0582103}, {"type": "node", "id": 957286241, "lat": 35.0066785, "lon": 34.0580728}, {"type": "node", "id": 957286317, "lat": 35.006995, "lon": 34.0580949}, {"type": "node", "id": 957286341, "lat": 35.007097, "lon": 34.0582453}, {"type": "node", "id": 957286363, "lat": 35.0067507, "lon": 34.0579237}, {"type": "node", "id": 957644469, "lat": 35.0018498, "lon": 34.0633092, "tags": {"amenity": "restaurant", "name": "Le Cygne"}}, {"type": "node", "id": 957645237, "lat": 35.001169, "lon": 34.061124, "tags": {"amenity": "restaurant", "cuisine": "regional", "name": "To Ellinadiko"}}, {"type": "node", "id": 959807984, "lat": 35.0315304, "lon": 34.0366376, "tags": {"amenity": "restaurant", "bar": "yes", "cuisine": "regional", "name": "Windmills Cocktail Bar & Restaurant", "note": "Closed during winter season.", "outdoor_seating": "yes", "phone": "+357 23 831 120", "website": "https://www.facebook.com/windmillsbar/"}}, {"type": "node", "id": 959808003, "lat": 35.031152, "lon": 34.0372911, "tags": {"amenity": "cafe", "cuisine": "coffee_shop", "name": "Always Coffee Time Cafe", "note": "Has not been operational during 2023 season."}}, {"type": "node", "id": 961528935, "lat": 35.0372336, "lon": 34.0350095}, {"type": "node", "id": 961528962, "lat": 35.031899, "lon": 34.0355462, "tags": {"amenity": "restaurant", "email": "freshhousepernera@gmail.com", "name": "Fresh House", "note": "Open during summer season only.", "phone": "+357 23 831 790", "website": "https://www.facebook.com/Fresh.house.pernera/"}}, {"type": "node", "id": 961529055, "lat": 35.0370991, "lon": 34.0350768}, {"type": "node", "id": 961529218, "lat": 35.0372087, "lon": 34.0353181}, {"type": "node", "id": 961529522, "lat": 35.0371166, "lon": 34.0349724}, {"type": "node", "id": 961529701, "lat": 35.0370691, "lon": 34.035049}, {"type": "node", "id": 961529994, "lat": 35.0371978, "lon": 34.0350673}, {"type": "node", "id": 961530125, "lat": 35.0371432, "lon": 34.0349971}, {"type": "node", "id": 961530240, "lat": 35.0371635, "lon": 34.0353188}, {"type": "node", "id": 961530267, "lat": 35.0371713, "lon": 34.0349518}, {"type": "node", "id": 961530429, "lat": 35.0372443, "lon": 34.0352932}, {"type": "node", "id": 961530780, "lat": 35.0370272, "lon": 34.0351927}, {"type": "node", "id": 961530814, "lat": 35.0373163, "lon": 34.0351771}, {"type": "node", "id": 961547060, "lat": 35.029712, "lon": 34.0401947, "tags": {"amenity": "restaurant", "name": "Novelo", "note": "Closed during winter months.", "opening_hours": "Mo-Su 15:30-23:00", "phone": "+357 23 832533", "website": "https://www.tripadvisor.ru/Restaurant_Review-d15046189?m=19905"}}, {"type": "node", "id": 961870470, "lat": 35.0201617, "lon": 34.0424825, "tags": {"addr:street:en": "Protaras - Cape Greco Avenue", "addr:streetnumber": "317", "amenity": "restaurant", "check_date": "2023-09-25", "cuisine": "greek", "name": "Super S", "note": "Closed during winter season.", "opening_hours": "Mo-Su 13:30-23:00", "phone": "+357 23 831152", "website": "https://www.facebook.com/people/Super-S/100054633661253/"}}, {"type": "node", "id": 962315962, "lat": 35.0184929, "lon": 34.0452647}, {"type": "node", "id": 962316010, "lat": 35.01852, "lon": 34.0452826}, {"type": "node", "id": 962316047, "lat": 35.0191819, "lon": 34.0441148, "tags": {"addr:street": "Leoforos Protara-Cavo Greco", "addr:street:en": "Protaras - Cape Greco Avenue", "addr:streetnumber": "327", "amenity": "restaurant", "branch": "Protaras", "check_date": "2023-09-25", "cuisine": "indian", "name": "Balti House", "note": "Also known as Ganga.", "opening_hours": "Mo-Su 12:00-15:00; Mo-Su 16:30-23:30", "phone": "+357 23 833838", "website": "https://baltirestro.com/"}}, {"type": "node", "id": 962316254, "lat": 35.0184868, "lon": 34.0453252}, {"type": "node", "id": 962316444, "lat": 35.018717, "lon": 34.0441358, "tags": {"amenity": "restaurant", "check_date": "2023-09-25", "cuisine": "greek", "email": "Leuteris111@hotmail.com", "name": "Thomas Snacks & Grill House", "phone": "+357 77 776140;+357 23 831419", "website": "https://www.facebook.com/people/Thomas-Snacks-Grill-House/100066351498482/"}}, {"type": "node", "id": 962316518, "lat": 35.0185656, "lon": 34.0451168}, {"type": "node", "id": 962316643, "lat": 35.0184863, "lon": 34.0450677}, {"type": "node", "id": 962316667, "lat": 35.0190634, "lon": 34.0443149, "tags": {"amenity": "restaurant", "check_date": "2024-09-28", "name": "Steen's Balkan Restaurant", "opening_hours": "Tu-Su 18:00-24:00", "phone": "+357 96 214538", "website": "https://www.facebook.com/Steens-Balkan-Restaurant-107647268200828/"}}, {"type": "node", "id": 962316691, "lat": 35.0183866, "lon": 34.0452377}, {"type": "node", "id": 963479866, "lat": 34.9883904, "lon": 33.9649714, "tags": {"amenity": "restaurant", "name": "Dione"}}, {"type": "node", "id": 963644232, "lat": 34.990371, "lon": 33.9505615, "tags": {"amenity": "restaurant"}}, {"type": "node", "id": 1319403650, "lat": 35.0519156, "lon": 34.0123078, "tags": {"amenity": "restaurant", "cuisine": "chinese", "name": "Fusion"}}, {"type": "node", "id": 1320654053, "lat": 35.0554063, "lon": 34.0077978}, {"type": "node", "id": 1350513599, "lat": 35.0525029, "lon": 34.0120274}, {"type": "node", "id": 1350513620, "lat": 35.0526414, "lon": 34.0118824}, {"type": "node", "id": 1350513621, "lat": 35.052595, "lon": 34.0118967}, {"type": "node", "id": 1350513624, "lat": 35.0526856, "lon": 34.0119077}, {"type": "node", "id": 1350513679, "lat": 35.0526464, "lon": 34.0121831}, {"type": "node", "id": 1350513705, "lat": 35.0527273, "lon": 34.0119603}, {"type": "node", "id": 1350513735, "lat": 35.0526951, "lon": 34.0120031}, {"type": "node", "id": 1350643029, "lat": 35.055309, "lon": 34.0077171}, {"type": "node", "id": 1350643030, "lat": 35.0553733, "lon": 34.0076197}, {"type": "node", "id": 1350643035, "lat": 35.0554835, "lon": 34.0076761}, {"type": "node", "id": 1350643039, "lat": 35.0554029, "lon": 34.0076105}, {"type": "node", "id": 1428947965, "lat": 35.0289319, "lon": 33.9492683, "tags": {"amenity": "restaurant", "cuisine": "regional", "email": "info@ploumin.com.cy", "name": "Ploumin", "operator": "Costas Kyriazis", "phone": "+357 99 658 333", "smoking": "yes", "website": "www.ploumin.com.cy", "wheelchair": "yes"}}, {"type": "node", "id": 1449521147, "lat": 34.9866059, "lon": 33.9990625}, {"type": "node", "id": 1452502985, "lat": 34.9887463, "lon": 33.9998493, "tags": {"addr:housenumber": "10", "addr:street": "Archiepiskopou Makariou III", "amenity": "cafe", "internet_access": "wlan", "name": "Amare - Restaurant Bar Lounge", "name:ru": "360 \u0433\u0440\u0430\u0434\u0443\u0441\u043e\u0432", "opening_hours": "Mo-Su 10:00-02:00"}}, {"type": "node", "id": 1452515355, "lat": 34.9829971, "lon": 34.0036027, "tags": {"amenity": "restaurant", "name": "Karousos Beach", "name:el": "Pantachou 5"}}, {"type": "node", "id": 1453994646, "lat": 34.9852893, "lon": 34.0002558}, {"type": "node", "id": 1453994663, "lat": 34.9854247, "lon": 34.0002451}, {"type": "node", "id": 1453994714, "lat": 34.9854205, "lon": 34.0001657}, {"type": "node", "id": 1453994728, "lat": 34.9852851, "lon": 34.0001763}, {"type": "node", "id": 1453994735, "lat": 34.9855017, "lon": 34.000297, "tags": {"amenity": "restaurant"}}, {"type": "node", "id": 1456995953, "lat": 34.9893395, "lon": 34.000474}, {"type": "node", "id": 1456995995, "lat": 34.9891769, "lon": 34.0003292}, {"type": "node", "id": 1456996001, "lat": 34.9892251, "lon": 34.0005018}, {"type": "node", "id": 1458835525, "lat": 34.989873, "lon": 34.0015796, "tags": {"amenity": "restaurant", "cuisine": "greek", "internet_access": "wlan", "name": "Lime Light Taverna"}}, {"type": "node", "id": 1464044201, "lat": 35.0100971, "lon": 34.0595351, "tags": {"amenity": "restaurant", "name": "Poseidonio", "opening_hours": "Mo-Su 11:00-22:30"}}, {"type": "node", "id": 1464044215, "lat": 35.0096607, "lon": 34.061422, "tags": {"amenity": "restaurant"}}, {"type": "node", "id": 1548545662, "lat": 35.0111979, "lon": 34.058775, "tags": {"amenity": "restaurant", "cuisine": "international", "name": "Astreas"}}, {"type": "node", "id": 1548545670, "lat": 35.0111846, "lon": 34.0588864, "tags": {"amenity": "cafe", "name": "Astreas Coffee Terrace"}}, {"type": "node", "id": 1744330491, "lat": 35.0471765, "lon": 34.0048845, "tags": {"amenity": "restaurant", "check_date": "2024-09-23", "name": "Mood'z"}}, {"type": "node", "id": 1747832014, "lat": 35.0420865, "lon": 33.979855, "tags": {"amenity": "restaurant", "name": "Vangelis", "name:el": "\u0392\u03b1\u03b3\u03b3\u03ad\u03bb\u03b7\u03c2", "source": "survey"}}, {"type": "node", "id": 1759897568, "lat": 35.0627431, "lon": 33.9596263, "tags": {"addr:housename": "\u03a4\u03bf \u039a\u03bf\u03bd\u03ac\u03c4\u03b6\u03b9\u03b7\u03bd \u03c4\u03bf\u03c5 \u03a3\u03b9\u03cc\u03b3\u03ba\u03b1", "addr:postcode": "5380", "addr:street": "\u0394\u03b7\u03bc\u03bf\u03ba\u03c1\u03b1\u03c4\u03af\u03b1\u03c2", "amenity": "cafe", "cuisine": "burger", "name": "\u03a4\u03bf \u03a0\u03bf\u03c3\u03c4\u03bf"}}, {"type": "node", "id": 1759908935, "lat": 35.0637378, "lon": 33.9603235, "tags": {"amenity": "restaurant", "cuisine": "international", "name": "Squre"}}, {"type": "node", "id": 1759909552, "lat": 35.0652126, "lon": 33.960796, "tags": {"amenity": "restaurant", "cuisine": "kebab", "name": "\u039d\u03af\u03ba\u03bf\u03c2"}}, {"type": "node", "id": 1759911282, "lat": 35.0608771, "lon": 33.9541947, "tags": {"addr:postcode": "5380", "addr:street": "\u0391\u03c1\u03c7\u03b9\u03b5\u03c0\u03b9\u03c3\u03ba\u03cc\u03c0\u03bf\u03c5 \u039c\u03b1\u03ba\u03b1\u03c1\u03af\u03bf\u03c5 \u0393\u2019", "amenity": "restaurant", "cuisine": "regional", "name": "\u039a\u03c9\u03c3\u03c4\u03ac\u03c1\u03b7\u03c2"}}, {"type": "node", "id": 1759931101, "lat": 35.0541674, "lon": 33.9569976, "tags": {"amenity": "restaurant", "cuisine": "kebab", "name": "\u03a6\u03bb\u03ce\u03c1\u03b7\u03c2"}}, {"type": "node", "id": 1759933138, "lat": 35.0550083, "lon": 33.95707, "tags": {"amenity": "restaurant", "cuisine": "regional"}}, {"type": "node", "id": 1761278035, "lat": 35.0619724, "lon": 33.9586297, "tags": {"amenity": "cafe"}}, {"type": "node", "id": 1765490245, "lat": 34.9859959, "lon": 34.0002268, "tags": {"addr:housenumber": "2", "addr:street": "Leoforos Nissi", "amenity": "cafe", "cuisine": "greek", "email": "avra@cytanet.com.cy", "internet_access": "wlan", "internet_access:fee": "yes", "name": "Avra", "name:en": "Avra", "opening_hours": "Tu-Su 12:00-22:00", "phone": "+35723722208"}}, {"type": "node", "id": 1765496060, "lat": 34.9838564, "lon": 34.0042655, "tags": {"amenity": "cafe", "name": "Paradissos", "name:en": "Paradisos Bar"}}, {"type": "node", "id": 1765496207, "lat": 34.9862657, "lon": 33.999345, "tags": {"amenity": "cafe"}}, {"type": "node", "id": 1958641020, "lat": 35.3177165, "lon": 33.9551568, "tags": {"amenity": "restaurant", "name": "Bumbles Bistro (English)"}}, {"type": "node", "id": 1986065613, "lat": 35.0289836, "lon": 34.0434733, "tags": {"addr:street": "Pernera", "addr:streetnumber": "35", "amenity": "restaurant", "cuisine": "greek", "internet_access": "wlan", "name": "Ifalos Taverna", "name:en": "Ifalos Taverna", "note": "Closed during winter season.", "outdoor_seating": "yes", "phone": "+357 99 595544", "website": "https://www.facebook.com/people/Ifalos-Taverna/100063661085717/"}}, {"type": "node", "id": 2094017735, "lat": 35.0526812, "lon": 34.0120961}, {"type": "node", "id": 2094017737, "lat": 35.0526953, "lon": 34.0121114}, {"type": "node", "id": 2094017741, "lat": 35.0527236, "lon": 34.012034}, {"type": "node", "id": 2095645389, "lat": 34.9887929, "lon": 33.9848508, "tags": {"amenity": "restaurant", "name": "Acropolis"}}, {"type": "node", "id": 2095645396, "lat": 34.9907366, "lon": 33.9718722, "tags": {"amenity": "restaurant", "name": "Blue Tulip"}}, {"type": "node", "id": 2095645402, "lat": 34.9894889, "lon": 33.9789859, "tags": {"amenity": "cafe", "name": "Florence"}}, {"type": "node", "id": 2095645405, "lat": 34.9904271, "lon": 33.9731882, "tags": {"amenity": "restaurant", "name": "Gardens"}}, {"type": "node", "id": 2095645406, "lat": 34.989233, "lon": 33.9805721, "tags": {"amenity": "restaurant", "name": "Karystos Inn"}}, {"type": "node", "id": 2095645414, "lat": 34.98953, "lon": 33.9776093, "tags": {"amenity": "restaurant", "indoor_seating": "yes", "internet_access": "wlan", "name": "Mangas", "outdoor_seating": "yes"}}, {"type": "node", "id": 2095645415, "lat": 34.9905126, "lon": 33.991534, "tags": {"addr:city": "Ayia Napa", "addr:housenumber": "1", "addr:postcode": "5330", "addr:street": "Gianni Ritsou", "amenity": "restaurant", "cuisine": "chinese", "name": "Taipei Town", "website": "www.taipeitown.com"}}, {"type": "node", "id": 2095645422, "lat": 34.9901242, "lon": 33.9747841, "tags": {"amenity": "restaurant", "cuisine": "regional", "name": "Odyssos Taverna", "phone": "+357 23 816231"}}, {"type": "node", "id": 2095645423, "lat": 34.9894472, "lon": 33.9798537, "tags": {"amenity": "restaurant", "cuisine": "steak_house;grill", "name": "Orange Grove"}}, {"type": "node", "id": 2095645428, "lat": 34.9896309, "lon": 33.9779885, "tags": {"amenity": "restaurant", "name": "Sacramento"}}, {"type": "node", "id": 2095645432, "lat": 34.9896517, "lon": 33.9767267, "tags": {"amenity": "restaurant", "indoor_seating": "yes", "name": "L'Italiano", "outdoor_seating": "yes"}}, {"type": "node", "id": 2095645511, "lat": 34.9867433, "lon": 33.9479233, "tags": {"amenity": "restaurant"}}, {"type": "node", "id": 2095646008, "lat": 34.9906344, "lon": 33.9570147}, {"type": "node", "id": 2095646019, "lat": 34.9907413, "lon": 33.9571039}, {"type": "node", "id": 2096465940, "lat": 34.9887937, "lon": 33.9858789, "tags": {"amenity": "restaurant", "name": "Jungle Mania"}}, {"type": "node", "id": 2096466434, "lat": 34.9925716, "lon": 33.9955305, "tags": {"amenity": "restaurant"}}, {"type": "node", "id": 2100028096, "lat": 34.9871916, "lon": 34.0010818, "tags": {"amenity": "restaurant", "email": "odin@odin.nu", "fax": "+357 23 721 088", "name": "Odin", "phone": "+357 23 723 203", "website": "https://www.odin.nu/"}}, {"type": "node", "id": 2100347807, "lat": 34.9880236, "lon": 34.0005224, "tags": {"amenity": "restaurant", "name": "Clarabel", "website": "http://www.clarabelflambee.com/"}}, {"type": "node", "id": 2100347810, "lat": 34.9878888, "lon": 34.0004718, "tags": {"amenity": "restaurant", "name": "Cornelia", "opening_hours": "24/7"}}, {"type": "node", "id": 2100347817, "lat": 34.9881508, "lon": 34.0001738, "tags": {"amenity": "restaurant", "cuisine": "mexican", "name": "El Chihuahua"}}, {"type": "node", "id": 2100347818, "lat": 34.9881021, "lon": 34.0005343, "tags": {"amenity": "restaurant", "cuisine": "polynesian", "fax": "+357 23 725926", "name": "Fiji", "opening_hours": "17:30-23:30", "phone": "+357 23 725925", "website": "http://www.polynesian-ayianapa.com/"}}, {"type": "node", "id": 2100504929, "lat": 34.9896362, "lon": 34.0003115, "tags": {"amenity": "restaurant", "name": "Alex Grill House"}}, {"type": "node", "id": 2100504938, "lat": 34.9899518, "lon": 34.0002535, "tags": {"amenity": "restaurant", "cuisine": "indian", "name": "Taste of India"}}, {"type": "node", "id": 2100647940, "lat": 34.9913982, "lon": 33.9985665, "tags": {"amenity": "restaurant", "cuisine": "regional", "name": "Ambeli Tou Elia", "phone": "+357 23816121", "website": "http://eliasambelitavern.com/"}}, {"type": "node", "id": 2100647947, "lat": 34.990736, "lon": 34.0007401, "tags": {"amenity": "cafe", "name": "Blue Paradise"}}, {"type": "node", "id": 2100647950, "lat": 34.9898084, "lon": 34.0008736, "tags": {"amenity": "restaurant", "cuisine": "thai", "name": "Chiang Mai"}}, {"type": "node", "id": 2100647956, "lat": 34.9902702, "lon": 34.0008788, "tags": {"amenity": "cafe", "name": "Fresh"}}, {"type": "node", "id": 2100647974, "lat": 34.9909413, "lon": 34.0007774, "tags": {"amenity": "restaurant", "cuisine": "regional", "name": "Ke Napa House"}}, {"type": "node", "id": 2100647986, "lat": 34.9890901, "lon": 34.0019132, "tags": {"addr:housenumber": "16", "addr:postcode": "5330", "addr:street": "Dionysiou Solomou", "amenity": "restaurant", "cuisine": "regional", "name": "En-yevo Tavernaki", "opening_hours": "Mo-Su 12:00-23:00", "phone": "+35799388555"}}, {"type": "node", "id": 2101780000, "lat": 34.9877749, "lon": 34.0032189, "tags": {"amenity": "restaurant", "name": "Abacus", "opening_hours": "Mo-Su 00:00-01:30,09:00-24:00", "phone": "+357 23 721 342"}}, {"type": "node", "id": 2101780021, "lat": 34.9874365, "lon": 34.0030391, "tags": {"amenity": "restaurant", "name": "Petinos"}}, {"type": "node", "id": 2101780022, "lat": 34.9885034, "lon": 34.0015152, "tags": {"amenity": "restaurant", "name": "Quadro"}}, {"type": "node", "id": 2101910467, "lat": 34.988674, "lon": 34.0005988, "tags": {"amenity": "restaurant", "name": "Raven's Rook"}}, {"type": "node", "id": 2296275101, "lat": 35.0317875, "lon": 34.0360801, "tags": {"amenity": "restaurant", "check_date": "2024-04-03", "contact:facebook": "https://www.facebook.com/profile.php?id=100077542968483", "cuisine": "sushi", "delivery": "yes", "name": "Sabay Sushi", "note": "Restaurant is open during the summer season only.", "outdoor_seating": "yes", "phone": "+96 233 344", "website": "https://www.foody.com.cy/delivery/ammochostos/sabay-sushi-2000279347"}}, {"type": "node", "id": 2296275103, "lat": 35.0313861, "lon": 34.0362282, "tags": {"amenity": "restaurant", "cuisine": "italian", "email": "nautilusinn@cytanet.com.cy", "name": "Nautilus", "name:en": "Nautilus", "note": "Closed during winter season.", "outdoor_seating": "yes", "phone": "+357 23 814 027;+357 23 814 411", "website": "https://www.facebook.com/nautilus1989/"}}, {"type": "node", "id": 2296275104, "lat": 35.0354122, "lon": 34.0385835, "tags": {"addr:housenumber": "40", "addr:street": "Ellinon", "amenity": "restaurant", "cuisine": "regional;seafood", "email": "kalamies1976@cytanet.com.cy", "name": "Kalamies Restaurant", "note": "Closed during winter season.", "opening_hours": "Mo-Su 09:00-23:00", "phone": "+357 23 831145;+357 99 437780", "website": "https://kalamiesrestaurant.com/", "wheelchair": "limited"}}, {"type": "node", "id": 2296275108, "lat": 35.0308157, "lon": 34.0369202, "tags": {"addr:housenumber": "60", "addr:street": "Leoforos Perneras", "amenity": "restaurant", "branch": "Pernera Square (Permanently Closed)", "brand": "Pizza Hut", "brand:wikidata": "Q191615", "cuisine": "pizza", "name": "Pizza Hut", "note": "Permanently closed, premises were advertised as being for rent as of early Feb-2023."}}, {"type": "node", "id": 2298145471, "lat": 34.9872364, "lon": 33.9930121, "tags": {"amenity": "restaurant", "cuisine": "italian", "description": "authentic Italian restaurant", "name": "De Medici", "source": "survey"}}, {"type": "node", "id": 2313464284, "lat": 34.9874451, "lon": 33.9922081, "tags": {"amenity": "restaurant", "cuisine": "pizza", "name": "Pizza Pompei"}}, {"type": "node", "id": 2313682743, "lat": 35.03121, "lon": 34.0388481, "tags": {"addr:housenumber": "9", "addr:postcode": "5296", "addr:street": "Ifaistou", "amenity": "restaurant", "cuisine": "italian", "email": "laculturadelgusto@gmail.com", "internet_access": "wlan", "name": "La Cultura Del Gusto", "note": "Open all year round.", "opening_hours": "Mo-Su 17:00-23:00", "phone": "+357 23 833860", "website": "https://www.Facebook.com/laculturadelgusto"}}, {"type": "node", "id": 2313682744, "lat": 35.0305278, "lon": 34.0376474, "tags": {"amenity": "restaurant", "check_date": "2024-09-23", "cuisine": "mexican", "email": "nickluiginick@gmail.com", "name": "Speedy Gonzales Mexican Restaurant & Bar", "note": "Closed during winter season. Being renovated as of Feb-2023.", "phone": "+357 23 834 111", "website": "https://www.facebook.com/people/Speedy-Gonzales-Mexican/100063652459547/"}}, {"type": "node", "id": 2327596369, "lat": 35.0150282, "lon": 34.0531156}, {"type": "node", "id": 2327596370, "lat": 35.0151523, "lon": 34.0531435}, {"type": "node", "id": 2327596371, "lat": 35.0150887, "lon": 34.0530525}, {"type": "node", "id": 2327596372, "lat": 35.0150917, "lon": 34.0532066}, {"type": "node", "id": 2451623954, "lat": 34.9841196, "lon": 33.9556565}, {"type": "node", "id": 2451623955, "lat": 34.9839578, "lon": 33.9553865}, {"type": "node", "id": 2461619631, "lat": 35.0147859, "lon": 34.0526476}, {"type": "node", "id": 2461619632, "lat": 35.0149751, "lon": 34.052856}, {"type": "node", "id": 2461619633, "lat": 35.0148788, "lon": 34.052985}, {"type": "node", "id": 2514210287, "lat": 34.986714, "lon": 34.0064645, "tags": {"amenity": "restaurant", "internet_access": "wlan", "name": "Erofili Tavern"}}, {"type": "node", "id": 2543603890, "lat": 34.9887277, "lon": 34.0712558, "tags": {"addr:city": "Protaras", "addr:housenumber": "65", "addr:street": "Leoforos Konnou", "amenity": "restaurant", "cuisine": "local", "internet_access": "wlan", "name": "Kafkaros Tavern", "opening_hours": "Mo-Su 12:00-22:00", "outdoor_seating": "yes", "phone": "+357 23831763", "smoking": "outside", "takeaway": "yes"}}, {"type": "node", "id": 2835751788, "lat": 34.9833922, "lon": 34.0031427, "tags": {"amenity": "restaurant", "brand": "Ocean Basket", "brand:wikidata": "Q62075311", "cuisine": "seafood", "name": "Ocean Basket", "website": "https://cyprus.oceanbasket.com/"}}, {"type": "node", "id": 2862770715, "lat": 35.0301559, "lon": 34.0437691}, {"type": "node", "id": 2862770716, "lat": 35.0299971, "lon": 34.043658}, {"type": "node", "id": 2862770717, "lat": 35.0297917, "lon": 34.0438867}, {"type": "node", "id": 2862770718, "lat": 35.029851, "lon": 34.0440024}, {"type": "node", "id": 2862770719, "lat": 35.0299757, "lon": 34.0437459}, {"type": "node", "id": 2901716333, "lat": 35.0419438, "lon": 34.0308444, "tags": {"addr:city": "Protaras", "addr:street": "Vrysoudion", "amenity": "restaurant", "capacity": "30", "cuisine": "barbecue", "name": "Jami Jami", "opening_hours": "-22:00", "smoking": "outside"}}, {"type": "node", "id": 2903655765, "lat": 35.0286823, "lon": 34.0433824}, {"type": "node", "id": 2942134984, "lat": 34.9879479, "lon": 33.9883001, "tags": {"amenity": "restaurant", "cuisine": "japanese;thai;asian", "name": "Yo' Thai"}}, {"type": "node", "id": 2942331458, "lat": 34.9883162, "lon": 33.9861362, "tags": {"amenity": "restaurant", "brand": "Pizza Hut", "brand:wikidata": "Q191615", "cuisine": "pizza", "internet_access": "wlan", "name": "Pizza Hut"}}, {"type": "node", "id": 2943935162, "lat": 34.9876906, "lon": 33.9900559, "tags": {"amenity": "restaurant", "cuisine": "steak", "name": "Passaggioc"}}, {"type": "node", "id": 2944056950, "lat": 34.9871462, "lon": 33.9945702, "tags": {"amenity": "cafe", "name": "Bed Rock Cafe"}}, {"type": "node", "id": 2946314197, "lat": 34.9872903, "lon": 33.9933089, "tags": {"amenity": "restaurant", "name": "Levanta"}}, {"type": "node", "id": 3011034369, "lat": 34.9902874, "lon": 33.9899864, "tags": {"amenity": "restaurant", "capacity": "200", "cuisine": "greek;burger;italian", "ele": "1", "name": "La Casa Di Napa", "opening_hours": "11:00-23:00", "smoking": "separated", "wheelchair": "yes"}}, {"type": "node", "id": 3011107041, "lat": 34.9821639, "lon": 34.0012251, "tags": {"addr:housenumber": "76", "addr:postcode": "5330", "addr:street": "Archiepiskopou Makariou III", "amenity": "restaurant", "capacity": "100", "cuisine": "regional;_greec", "internet_access": "wlan", "name": "Isaac Taverna", "name:ru": "\u0418\u0441\u0430\u0430\u043a \u0422\u0430\u0432\u0435\u0440\u043d\u0430", "opening_hours": "Mo-Su 11:00-23:00", "operator": "Miss koulla", "phone": "23723586", "smoking": "separated", "wheelchair": "yes"}}, {"type": "node", "id": 3080629033, "lat": 35.0348792, "lon": 34.0327293, "tags": {"addr:street": "Pinias", "amenity": "restaurant", "cuisine": "regional", "name": "Pinia Restaurant", "opening_hours": "Tu-Sa 17:00-22:30; Sa 12:30-15:30, Su 12:30-16:00", "outdoor_seating": "yes", "payment:credit_cards": "yes", "payment:debit_cards": "yes", "phone": "+357 23 831 004", "website": "https://www.facebook.com/piniarestaurant/", "wheelchair": "yes"}}, {"type": "node", "id": 3729811840, "lat": 34.9864903, "lon": 33.9992803}, {"type": "node", "id": 3729811853, "lat": 34.9866027, "lon": 33.999235}, {"type": "node", "id": 3730320675, "lat": 34.9864514, "lon": 33.9992793}, {"type": "node", "id": 3730320678, "lat": 34.9864937, "lon": 33.999107}, {"type": "node", "id": 3730320679, "lat": 34.9865071, "lon": 33.9990857}, {"type": "node", "id": 3730320680, "lat": 34.9865273, "lon": 33.9991087}, {"type": "node", "id": 3730320681, "lat": 34.9865277, "lon": 33.9990863}, {"type": "node", "id": 3735080710, "lat": 34.9906403, "lon": 33.957183}, {"type": "node", "id": 3735080711, "lat": 34.9905716, "lon": 33.957117}, {"type": "node", "id": 3735080712, "lat": 34.9908566, "lon": 33.9572084}, {"type": "node", "id": 3735080713, "lat": 34.9907963, "lon": 33.9573125}, {"type": "node", "id": 3735097378, "lat": 34.9907188, "lon": 33.9572481}, {"type": "node", "id": 3735097393, "lat": 34.9906836, "lon": 33.9570557}, {"type": "node", "id": 3735097403, "lat": 34.9905839, "lon": 33.957097}, {"type": "node", "id": 3735097627, "lat": 34.9902653, "lon": 33.9571811, "tags": {"amenity": "restaurant", "name": "Captain's Deck"}}, {"type": "node", "id": 3741607301, "lat": 34.984517, "lon": 34.0064097, "tags": {"amenity": "restaurant", "name": "Theophan"}}, {"type": "node", "id": 3788607959, "lat": 34.9737247, "lon": 34.0400673, "tags": {"amenity": "restaurant", "name": "Cave Greco"}}, {"type": "node", "id": 3809236445, "lat": 34.9756166, "lon": 34.0427432}, {"type": "node", "id": 3809236446, "lat": 34.9755887, "lon": 34.0428795}, {"type": "node", "id": 3809236447, "lat": 34.9752796, "lon": 34.0428221}, {"type": "node", "id": 3809236448, "lat": 34.9753146, "lon": 34.0426511}, {"type": "node", "id": 3809236658, "lat": 34.9736671, "lon": 34.0404488, "tags": {"amenity": "restaurant", "name": "Alkion Stonegril & Kioku Sushi Bar"}}, {"type": "node", "id": 3839222602, "lat": 35.0540625, "lon": 34.0099917, "tags": {"addr:city": "Paralimni", "addr:housenumber": "52", "addr:postcode": "5290", "addr:street": "Leoforos Kappari", "amenity": "restaurant", "cuisine": "italian", "delivery": "yes", "email": "info@justitalian.com", "name": "Just Italian", "opening_hours": "13:00-22:45", "opening_hours:delivery": "13:00-22:45", "phone": "+357 23 744 300", "website": "https://www.justitalian.com/"}}, {"type": "node", "id": 3841474951, "lat": 35.0551791, "lon": 34.0074315, "tags": {"amenity": "restaurant", "cuisine": "greek", "name": "Faliros"}}, {"type": "node", "id": 3845059265, "lat": 35.0398812, "lon": 33.9833358, "tags": {"amenity": "restaurant", "name": "\u03a0\u03bb\u03b1\u03c4\u03b5\u03af\u03b1"}}, {"type": "node", "id": 3845059266, "lat": 35.039811, "lon": 33.9825821, "tags": {"amenity": "restaurant", "name": "Senso"}}, {"type": "node", "id": 3846750034, "lat": 35.054471, "lon": 34.0091012, "tags": {"amenity": "restaurant", "name": "Wooden Crest Inn"}}, {"type": "node", "id": 3993711116, "lat": 35.1259314, "lon": 33.9437523}, {"type": "node", "id": 3993721903, "lat": 35.1164023, "lon": 33.9587577}, {"type": "node", "id": 3993721905, "lat": 35.1164569, "lon": 33.9588566}, {"type": "node", "id": 3993721914, "lat": 35.1166328, "lon": 33.9585673}, {"type": "node", "id": 3993721916, "lat": 35.1166874, "lon": 33.9586662}, {"type": "node", "id": 3993722106, "lat": 35.1258333, "lon": 33.9438504}, {"type": "node", "id": 3993722107, "lat": 35.1258525, "lon": 33.9438974}, {"type": "node", "id": 3993722108, "lat": 35.1258597, "lon": 33.9437628}, {"type": "node", "id": 3993722109, "lat": 35.1258627, "lon": 33.9438637}, {"type": "node", "id": 3993722110, "lat": 35.1258836, "lon": 33.9437735}, {"type": "node", "id": 3993722111, "lat": 35.1259172, "lon": 33.9439265}, {"type": "node", "id": 3993722115, "lat": 35.1259284, "lon": 33.9438893}, {"type": "node", "id": 3993722116, "lat": 35.1259569, "lon": 33.943902}, {"type": "node", "id": 3993722117, "lat": 35.1259664, "lon": 33.9438704}, {"type": "node", "id": 4016692691, "lat": 34.9821092, "lon": 34.0027225, "tags": {"amenity": "restaurant", "cuisine": "seafood;fish", "name": "Vassos Psarolimano fish tavern", "phone": "+35723721884"}}, {"type": "node", "id": 4130696798, "lat": 35.0521459, "lon": 33.9816456, "tags": {"amenity": "cafe", "cuisine": "greek", "internet_access": "wlan", "name": "Sofias Souvlaki Bar", "opening_hours": "Mo-Su 08:00-22:00"}}, {"type": "node", "id": 4135900392, "lat": 35.012505, "lon": 34.0580261, "tags": {"amenity": "cafe"}}, {"type": "node", "id": 4151144989, "lat": 34.986045, "lon": 34.0005245, "tags": {"amenity": "cafe", "name": "Farmers tavern"}}, {"type": "node", "id": 4191198417, "lat": 34.9874544, "lon": 33.9954875, "tags": {"addr:street": "Leoforos Nissi", "amenity": "cafe", "name": "Juice naturals @BAR@", "opening_hours": "Mo-Su 09:00-21:00"}}, {"type": "node", "id": 4191198812, "lat": 34.9886115, "lon": 33.9852664, "tags": {"addr:housenumber": "48", "addr:street": "Leoforos Nissi", "amenity": "restaurant", "cuisine": "greek;russian", "description": "Shishka (\u041a\u0430\u043b\u044c\u044f\u043d)", "internet_access": "wlan", "name": "Baraban", "opening_hours": "24/7"}}, {"type": "node", "id": 4196727943, "lat": 35.0625679, "lon": 33.9556672, "tags": {"addr:housenumber": "2", "addr:street": "Athinon", "amenity": "restaurant", "cuisine": "Cypriot_with_modern_twist", "name": "O Dikos Mas Mezes", "phone": "23827700", "smoking": "outside"}}, {"type": "node", "id": 4198658890, "lat": 35.1244182, "lon": 33.9419989, "tags": {"addr:housenumber": "03923664003", "addr:street": "mahmut celalettin sokak", "amenity": "cafe", "name": "Cafe Ruso", "opening_hours": "Mo-sa 07:30-20:30", "phone": "05338848284"}}, {"type": "node", "id": 4208763794, "lat": 35.120459, "lon": 33.9561116, "tags": {"amenity": "cafe", "name": "Atis Caf\u00e9"}}, {"type": "node", "id": 4214923889, "lat": 34.9854608, "lon": 34.0690907, "tags": {"amenity": "restaurant", "cuisine": "seafood", "internet_access": "wlan", "name": "Spartiatis", "name:en": "Spartiatis"}}, {"type": "node", "id": 4230206092, "lat": 35.0526035, "lon": 34.0146497, "tags": {"addr:full": "Poseidonas 11, Kapparis, Paralimni, Cy", "addr:housenumber": "11", "addr:postcode": "5390", "addr:street": "Poseidonos", "amenity": "restaurant", "cuisine": "greek;mediterranean", "email": "Avgoustistaverna@gmail.com", "internet_access": "wlan", "name": "Avgoustis Taverna", "opening_hours": "Mo-Su 12:00-15:00,18:00-23:00+", "operator": "The Berry Brothers"}}, {"type": "node", "id": 4231903690, "lat": 35.0311003, "lon": 34.0367045, "tags": {"amenity": "restaurant", "description": "Knight's Pub Restaurant was established in 1988. It's a family business run by four brothers. Friendly atmosphere. Food, cocktails, draught beers, and a large wine selection. All LIVE sports shown on HD screens.", "email": "knightspubrestaurant@gmail.com", "name": "Knight's Pub Restaurant", "note": "Take away every day from 12:00 to 19:30.\nEstablishment closed during winter season.", "opening_hours": "Mo-Su 12:00-01:00", "phone": "+357 23 831497, +357 99 499149", "takeaway": "yes", "website": "https://www.knightsgastropub.com/"}}, {"type": "node", "id": 4233797878, "lat": 35.0330083, "lon": 34.0369784, "tags": {"amenity": "restaurant", "name": "Happy Grill Tavern & Pub", "note": "Closed during winter season.", "phone": "+357 23 831136", "website": "https://www.facebook.com/andoniakaoulla"}}, {"type": "node", "id": 4233799890, "lat": 35.0323736, "lon": 34.0361811}, {"type": "node", "id": 4233799892, "lat": 35.0324132, "lon": 34.0360486}, {"type": "node", "id": 4233799894, "lat": 35.0324619, "lon": 34.0362205, "tags": {"entrance": "yes"}}, {"type": "node", "id": 4233799896, "lat": 35.0325442, "lon": 34.0362572}, {"type": "node", "id": 4233799901, "lat": 35.0325838, "lon": 34.0361247}, {"type": "node", "id": 4239736401, "lat": 34.9898689, "lon": 33.9590058, "tags": {"addr:housenumber": "120", "addr:postcode": "5330", "addr:street": "Leoforos Nissi", "amenity": "restaurant", "cuisine": "greek;grill;buschenschank;coffee_shop;international;local;seafood;pizza;pasta;russian;fish_and_chips;mediterranean;sandwich;crepe", "email": "cyprustavern@hotmail.com", "internet_access": "wlan", "name": "Cyprus Tavern", "opening_hours": "Mo-Su 12:00-16:00, 17:30-21:00", "phone": "+735723722411"}}, {"type": "node", "id": 4259188593, "lat": 34.9845478, "lon": 34.0005396, "tags": {"amenity": "cafe", "name": "ice cream"}}, {"type": "node", "id": 4267752790, "lat": 35.1250759, "lon": 33.9421552, "tags": {"amenity": "cafe", "name": "Ginkgo"}}, {"type": "node", "id": 4267753289, "lat": 35.1251132, "lon": 33.9418867, "tags": {"amenity": "restaurant", "name": "Historia Restaurant & Cafe Bar"}}, {"type": "node", "id": 4270237682, "lat": 35.1156288, "lon": 33.9575814}, {"type": "node", "id": 4270237684, "lat": 35.1157226, "lon": 33.9573856}, {"type": "node", "id": 4270237685, "lat": 35.1156686, "lon": 33.9572823}, {"type": "node", "id": 4270237686, "lat": 35.1156548, "lon": 33.9572727}, {"type": "node", "id": 4270237687, "lat": 35.1156381, "lon": 33.9572715}, {"type": "node", "id": 4270237688, "lat": 35.1156205, "lon": 33.9572787}, {"type": "node", "id": 4270237689, "lat": 35.115591, "lon": 33.9573087}, {"type": "node", "id": 4270237690, "lat": 35.1155002, "lon": 33.9574784}, {"type": "node", "id": 4274096768, "lat": 35.1145641, "lon": 33.9555955}, {"type": "node", "id": 4274096769, "lat": 35.1145408, "lon": 33.9555193}, {"type": "node", "id": 4274096770, "lat": 35.1144872, "lon": 33.9555443}, {"type": "node", "id": 4274096771, "lat": 35.1144666, "lon": 33.9554784}, {"type": "node", "id": 4274096772, "lat": 35.1143598, "lon": 33.9555282}, {"type": "node", "id": 4274096773, "lat": 35.114404, "lon": 33.9556699}, {"type": "node", "id": 4281768822, "lat": 35.0314772, "lon": 34.0393537, "tags": {"addr:city": "Pernera", "addr:housenumber": "7", "addr:street": "Ifaistou", "amenity": "restaurant", "cuisine": "regional", "email": "sizzlerprotaras@gmail.com", "name": "Sizzler's Steak and Flambe House", "note": "Closed during winter season.", "opening_hours": "Mo-Sa 17:30-23:00", "phone": "+357 23 831406;+357 96 651399", "takeaway": "yes", "website": "https://www.facebook.com/sizzlersrestaurantofficial/"}}, {"type": "node", "id": 4285655589, "lat": 34.9921653, "lon": 34.0007766, "tags": {"amenity": "restaurant", "name": "Taverna Napa"}}, {"type": "node", "id": 4305466200, "lat": 34.9905591, "lon": 33.9986323, "tags": {"addr:housenumber": "2", "addr:postcode": "5630", "addr:street": "Ari Velouchioti", "amenity": "restaurant", "cuisine": "mexican", "internet_access": "wlan", "name": "Los Bandidos", "phone": "+35723723258", "website": "http://losbandidosmexican.com"}}, {"type": "node", "id": 4323528412, "lat": 35.0252625, "lon": 33.9551609, "tags": {"addr:housenumber": "6", "addr:street": "Sotiras", "amenity": "restaurant", "name": "Mousikos Taverna"}}, {"type": "node", "id": 4329096791, "lat": 34.9888485, "lon": 33.993267, "tags": {"addr:housenumber": "5", "addr:postcode": "5342", "addr:street": "\u0393\u03b9\u03bf\u03cd\u03c1\u03b9 \u0393\u03ba\u03b1\u03b3\u03ba\u03ac\u03c1\u03b9\u03bd", "amenity": "restaurant", "cuisine": "international", "email": "info@blueberriesrestaurant.com", "internet_access": "wlan", "name": "Blueberries", "opening_hours": "Mo-Su 06:00-23:00", "phone": "23722024", "website": "https://blueberriesrestaurant.com/"}}, {"type": "node", "id": 4330803567, "lat": 35.0386098, "lon": 33.9823847, "tags": {"addr:city": "Paralimni", "addr:street": "Archiepiskopou Makariou III", "alt_name": "St George's Fish and Chips Cafe Paralimni", "amenity": "restaurant", "capacity": "40", "cuisine": "fish_and_chips", "name": "Saint George's Fish and Chips Cafe Paralimni", "opening_hours": "16:00 - 22:00", "phone": "+357 23825526", "smoking": "outside", "takeaway": "yes"}}, {"type": "node", "id": 4347732503, "lat": 34.9871968, "lon": 33.9967533, "tags": {"amenity": "restaurant", "internet_access": "wlan", "name": "Othellos"}}, {"type": "node", "id": 4354608793, "lat": 35.0417987, "lon": 33.9238731, "tags": {"amenity": "cafe", "name": "olympias frenarou"}}, {"type": "node", "id": 4354608796, "lat": 35.0469483, "lon": 33.9143497, "tags": {"amenity": "restaurant", "name": "Exochi"}}, {"type": "node", "id": 4354608892, "lat": 35.0432779, "lon": 33.924718, "tags": {"amenity": "cafe"}}, {"type": "node", "id": 4354609093, "lat": 35.0369757, "lon": 33.9176204, "tags": {"amenity": "restaurant", "name": "papas res/an"}}, {"type": "node", "id": 4354609094, "lat": 35.0415448, "lon": 33.9217124, "tags": {"amenity": "cafe", "name": "sykia"}}, {"type": "node", "id": 4354623297, "lat": 35.0401397, "lon": 33.9159525, "tags": {"amenity": "cafe", "name": "troulis"}}, {"type": "node", "id": 4354661690, "lat": 35.042403, "lon": 33.9245509, "tags": {"amenity": "cafe", "name": "\u03a0\u03b1\u03c3\u03c4\u03b5\u03ba\u03ba\u03b1 \u03a3\u03c4\u03ad\u03bb\u03b9\u03bf\u03c2"}}, {"type": "node", "id": 4363565089, "lat": 34.9868319, "lon": 33.9984263, "tags": {"addr:housenumber": "10", "addr:street": "Leoforos Nissi", "amenity": "restaurant", "name": "Tony\u2019s Taverna"}}, {"type": "node", "id": 4369116396, "lat": 35.042341, "lon": 33.9777346, "tags": {"amenity": "cafe", "internet_access": "wlan", "name": "Clock Cafe"}}, {"type": "node", "id": 4369608718, "lat": 34.9916361, "lon": 33.9967035, "tags": {"addr:street": "Tefkrou Anthia", "amenity": "cafe", "cuisine": "russian", "internet_access": "wlan", "name": "Svyturis", "name:en": "Svyturis", "name:lt": "\u0160vyturys", "name:ru": "\u0421\u0432\u0438\u0442\u0443\u0440\u0438\u0441", "name:tr": "Svyturis", "phone": "+35796324813"}}, {"type": "node", "id": 4377640089, "lat": 34.978358, "lon": 34.023628, "tags": {"amenity": "cafe", "name": "Ammos tou Kambouri Beach", "name:en": "Ammos tou Kambouri Beach"}}, {"type": "node", "id": 4392600992, "lat": 35.1301596, "lon": 33.9292423, "tags": {"amenity": "restaurant"}}, {"type": "node", "id": 4392601791, "lat": 35.1241953, "lon": 33.9267753, "tags": {"amenity": "cafe", "cuisine": "bagel;breakfast;burger;chicken;coffee_shop;crepe", "diet:vegetarian": "yes", "internet_access": "wlan", "name": "Ekor", "name:en": "Ecor"}}, {"type": "node", "id": 4421258549, "lat": 34.9858782, "lon": 34.0671337}, {"type": "node", "id": 4421258550, "lat": 34.9860646, "lon": 34.0670353}, {"type": "node", "id": 4421258551, "lat": 34.9860338, "lon": 34.0673312}, {"type": "node", "id": 4421258553, "lat": 34.9861718, "lon": 34.0671713}, {"type": "node", "id": 4422269991, "lat": 34.9898471, "lon": 33.9757851, "tags": {"amenity": "restaurant", "cuisine": "italian_pizza;italian", "internet_access": "wlan", "name": "Atlas", "name:ru": "\u0410\u0441\u0430\u0434\u043e\u0440", "name:tr": "Asador"}}, {"type": "node", "id": 4422272690, "lat": 34.9897882, "lon": 33.976071, "tags": {"amenity": "restaurant", "indoor_seating": "yes", "name": "Rasoi Indian Cuisine", "outdoor_seating": "yes"}}, {"type": "node", "id": 4422272691, "lat": 34.9881533, "lon": 33.9534339, "tags": {"amenity": "restaurant", "name": "Agrotikon", "name:en": "Agrotikon"}}, {"type": "node", "id": 4435921191, "lat": 34.9881391, "lon": 33.9887887, "tags": {"amenity": "restaurant", "internet_access": "wlan", "name": "Robinson's", "name:en": "Robinson's"}}, {"type": "node", "id": 4458966191, "lat": 34.9828944, "lon": 34.0017198, "tags": {"addr:street": "Archiepiskopou Makariou III", "amenity": "restaurant", "cuisine": "greek;fish", "internet_access": "wlan", "name": "Queen Vic", "name:en": "Queen Vic"}}, {"type": "node", "id": 4476195791, "lat": 34.9900777, "lon": 33.9912157, "tags": {"amenity": "restaurant", "cuisine": "japanese", "name": "Hokkaido", "name:ru": "\u0425\u043e\u043a\u0430\u0439\u0434\u043e"}}, {"type": "node", "id": 4485500491, "lat": 35.1243488, "lon": 33.9447036, "tags": {"addr:street": "Surici (Petek Pastanesi Yolu)", "amenity": "restaurant", "name": "Incir Alti Mezze & Kebap Restaurant", "phone": "05488811178"}}, {"type": "node", "id": 4583554190, "lat": 34.9849572, "lon": 34.0164324, "tags": {"amenity": "restaurant", "cuisine": "greek", "internet_access": "wlan", "name": "Evinos Taverna", "name:en": "Evinos Taverna"}}, {"type": "node", "id": 4750555424, "lat": 34.9872697, "lon": 33.9937297, "tags": {"addr:street": "Leoforos Nissi", "amenity": "restaurant", "cuisine": "steak_house;grill", "internet_access": "wlan", "name": "Olive Tree", "opening_hours": "Mo-Su 10:00-23:58"}}, {"type": "node", "id": 4750883745, "lat": 35.0198977, "lon": 34.0502029, "tags": {"amenity": "restaurant", "check_date": "2024-09-17", "cuisine": "international;regional", "diet:fish": "yes", "diet:meat": "yes", "diet:seafood": "yes", "diet:vegetarian": "yes", "email": "info@yiannamarie.com", "name": "Yianna Marie Restaurant", "note": "Closed during winter season.", "phone": "+357 23 814 440", "website": "https://yiannamariehotels.com/yianna-marie-restaurant/"}}, {"type": "node", "id": 4756173929, "lat": 35.0303606, "lon": 34.0383433, "tags": {"amenity": "restaurant", "cuisine": "regional", "email": "tony@nissiotis.com", "name": "Nissiotis Restaurant", "note": "Restaurant relocated from Vrissi Beach to below Pernera Square in 2023.", "outdoor_seating": "yes", "phone": "+357 23 833 900", "website": "https://www.nissiotis.com/"}}, {"type": "node", "id": 4757952232, "lat": 35.0123152, "lon": 34.0578282}, {"type": "node", "id": 4757952233, "lat": 35.012355, "lon": 34.0579187}, {"type": "node", "id": 4757952234, "lat": 35.0123242, "lon": 34.0579453}, {"type": "node", "id": 4757952235, "lat": 35.0123514, "lon": 34.0580049}, {"type": "node", "id": 4757952236, "lat": 35.0123206, "lon": 34.0580336}, {"type": "node", "id": 4757952237, "lat": 35.0123514, "lon": 34.05808}, {"type": "node", "id": 4757952238, "lat": 35.0121487, "lon": 34.0582611}, {"type": "node", "id": 4757952239, "lat": 35.0120257, "lon": 34.0580248}, {"type": "node", "id": 4757952240, "lat": 35.0120076, "lon": 34.0579696}, {"type": "node", "id": 4757952241, "lat": 35.01208, "lon": 34.0579077}, {"type": "node", "id": 4757952242, "lat": 35.0121071, "lon": 34.0579651}, {"type": "node", "id": 4757952243, "lat": 35.0120763, "lon": 34.0579806}, {"type": "node", "id": 4757952244, "lat": 35.0121596, "lon": 34.0581529}, {"type": "node", "id": 4757952245, "lat": 35.0122645, "lon": 34.0580601}, {"type": "node", "id": 4757952246, "lat": 35.0121903, "lon": 34.0579121}, {"type": "node", "id": 4757981344, "lat": 35.0180591, "lon": 34.0451417}, {"type": "node", "id": 4757981345, "lat": 35.0180974, "lon": 34.0451256}, {"type": "node", "id": 4757981346, "lat": 35.0181287, "lon": 34.045162}, {"type": "node", "id": 4757981347, "lat": 35.0181138, "lon": 34.0452093}, {"type": "node", "id": 4757981348, "lat": 35.0180825, "lon": 34.0452239}, {"type": "node", "id": 4757981349, "lat": 35.0179946, "lon": 34.0453931}, {"type": "node", "id": 4757981350, "lat": 35.0179454, "lon": 34.0453494}, {"type": "node", "id": 4757981351, "lat": 35.0179275, "lon": 34.0453858}, {"type": "node", "id": 4757981352, "lat": 35.0178664, "lon": 34.0453258}, {"type": "node", "id": 4757981353, "lat": 35.0178873, "lon": 34.0452857}, {"type": "node", "id": 4757981354, "lat": 35.0179141, "lon": 34.0453094}, {"type": "node", "id": 4757981355, "lat": 35.0179394, "lon": 34.045253}, {"type": "node", "id": 4757981356, "lat": 35.0179066, "lon": 34.0452239}, {"type": "node", "id": 4757981357, "lat": 35.0179543, "lon": 34.0451238}, {"type": "node", "id": 4757981358, "lat": 35.018008, "lon": 34.0451839}, {"type": "node", "id": 4757981359, "lat": 35.0180244, "lon": 34.0451657}, {"type": "node", "id": 4757981360, "lat": 35.0180482, "lon": 34.0451875}, {"type": "node", "id": 4760038146, "lat": 35.0273566, "lon": 34.0414802, "tags": {"addr:housenumber": "18", "addr:street": "Afroditis", "amenity": "restaurant", "name": "Mojito Bar & Grill", "opening_hours": "Mo-Su 09:30-00:00", "phone": "+357 99 098110", "website": "https://www.facebook.com/mojitobarandgrill/"}}, {"type": "node", "id": 4762532531, "lat": 35.0287279, "lon": 34.0436943}, {"type": "node", "id": 4762532536, "lat": 35.0285121, "lon": 34.0437353}, {"type": "node", "id": 4762532537, "lat": 35.0284653, "lon": 34.0434604}, {"type": "node", "id": 4762579523, "lat": 35.0181374, "lon": 34.0446873}, {"type": "node", "id": 4762579524, "lat": 35.0183359, "lon": 34.044886}, {"type": "node", "id": 4762579525, "lat": 35.0182742, "lon": 34.0449668}, {"type": "node", "id": 4762579526, "lat": 35.0181269, "lon": 34.0449675}, {"type": "node", "id": 4770542422, "lat": 34.9915745, "lon": 33.9974945, "tags": {"addr:housenumber": "37", "addr:street": "Tefkrou Anthia", "amenity": "restaurant", "cuisine": "greek;grill;buschenschank;kebab;local;regional;steak_house;burger", "internet_access": "wlan", "name": "Hungry Horse", "name:en": "Hungry Horse", "opening_hours": "Mo-Su 00:30-22:15", "phone": "23 725205"}}, {"type": "node", "id": 4777547011, "lat": 35.0276789, "lon": 34.030867}, {"type": "node", "id": 4777547012, "lat": 35.0277962, "lon": 34.0310015}, {"type": "node", "id": 4777547013, "lat": 35.0275879, "lon": 34.0310977}, {"type": "node", "id": 4777547014, "lat": 35.0275776, "lon": 34.0309987}, {"type": "node", "id": 4777773761, "lat": 35.0326708, "lon": 34.0419848}, {"type": "node", "id": 4777773762, "lat": 35.0327507, "lon": 34.0420944}, {"type": "node", "id": 4777773763, "lat": 35.0326419, "lon": 34.0422126}, {"type": "node", "id": 4777789042, "lat": 35.026136, "lon": 34.0488621}, {"type": "node", "id": 4777789043, "lat": 35.0262234, "lon": 34.0489635}, {"type": "node", "id": 4777789044, "lat": 35.0260838, "lon": 34.0491212}, {"type": "node", "id": 4777789045, "lat": 35.0260518, "lon": 34.048969}, {"type": "node", "id": 4783129317, "lat": 35.0198498, "lon": 34.0492819}, {"type": "node", "id": 4783129318, "lat": 35.0197239, "lon": 34.0494155}, {"type": "node", "id": 4783129319, "lat": 35.0198728, "lon": 34.0496246}, {"type": "node", "id": 4783129320, "lat": 35.0200438, "lon": 34.049443}, {"type": "node", "id": 4783129721, "lat": 35.0199365, "lon": 34.0492923}, {"type": "node", "id": 4783129722, "lat": 35.0198914, "lon": 34.0493402}, {"type": "node", "id": 4787091881, "lat": 34.9873144, "lon": 34.0002061, "tags": {"addr:housenumber": "14", "addr:postcode": "5330", "addr:street": "Archiepiskopou Makariou III", "amenity": "cafe", "name": "The Bakery Co"}}, {"type": "node", "id": 4804302522, "lat": 34.9865088, "lon": 34.0005098, "tags": {"amenity": "cafe", "brand": "Coffee Island", "brand:wikidata": "Q60867333", "brand:wikipedia": "en:Coffee Island", "cuisine": "coffee_shop", "name": "Coffee Island"}}, {"type": "node", "id": 4804421822, "lat": 34.9901521, "lon": 33.9923955, "tags": {"addr:housenumber": "40", "addr:street": "Agias Mavris", "amenity": "restaurant", "cuisine": "local", "internet_access": "wlan", "name": "Cavo Taverna", "name:en": "Cavo Taverna", "phone": "+35796672930"}}, {"type": "node", "id": 4820397223, "lat": 34.9860848, "lon": 33.9799217, "tags": {"amenity": "cafe", "name": "Cafe Del Mar", "name:en": "Cafe Del Mar"}}, {"type": "node", "id": 4868210721, "lat": 34.9873336, "lon": 34.0056455, "tags": {"addr:housenumber": "31", "addr:street": "\u039b\u03b5\u03c9\u03c6\u03cc\u03c1\u03bf\u03c2 \u039a\u03c1\u03b9\u03bf\u03cd \u039d\u03b5\u03c1\u03bf\u03cd", "amenity": "restaurant", "internet_access": "wlan", "name": "Terrazza", "name:en": "Terrazza", "phone": "+35796833844", "website": "http://www.terrazza-restaurant.com"}}, {"type": "node", "id": 4934404122, "lat": 34.9845872, "lon": 34.0127605, "tags": {"amenity": "restaurant", "name": "Maistrali Seafood Seaview", "name:en": "Maistrali Seafood Seaview"}}, {"type": "node", "id": 4935067621, "lat": 35.059557, "lon": 34.0093993, "tags": {"amenity": "cafe", "cuisine": "sandwich;coffee_shop;ice_cream", "name": "KoHiLi", "name:ru": "\u041f\u043b\u044f\u0436\u043d\u043e\u0435 \u043a\u0430\u0444\u0435"}}, {"type": "node", "id": 4986696721, "lat": 35.0173621, "lon": 34.0479122, "tags": {"addr:street": "Leoforos Protara", "addr:street:en": "Protaras Avenue", "addr:streetnumber": "8", "amenity": "restaurant", "check_date": "2024-09-16", "cuisine": "greek", "email": "akefalascy@gmail.com", "name": "Georgia's AVLI Tavern", "name:el": "\u0397 \u0391\u03c5\u03bb\u03ae \u03c4\u03b7\u03c2 \u039a\u03c5\u03c1\u03ac \u0393\u03b9\u03c9\u03c1\u03b3\u03b1\u03b9\u03bd\u03b1\u03c2", "name:ru": "\u0410\u0432\u043b\u0438 \u0441\u0435\u043c\u0435\u0439\u043d\u044b\u0439 \u0440\u0435\u0441\u0442\u043e\u0440\u0430\u043d-\u0442\u0430\u0432\u0435\u0440\u043d\u0430", "note": "Open all year round.", "phone": "+357 99 729977", "website": "https://www.facebook.com/avlitisgeorgias/", "wheelchair": "yes"}}, {"type": "node", "id": 5039430822, "lat": 34.9888177, "lon": 33.9862682, "tags": {"addr:housenumber": "58", "addr:street": "Agias Mavris", "amenity": "restaurant", "cuisine": "regional;mediterranean;local", "internet_access": "wlan", "name": "Flames", "opening_hours": "Mo-Su 12:00-23:00", "phone": "23722774", "website": "https://www.flamesrestaurantbar.com/"}}, {"type": "node", "id": 5040457374, "lat": 34.9794469, "lon": 33.9344946}, {"type": "node", "id": 5040457375, "lat": 34.979464, "lon": 33.9346535}, {"type": "node", "id": 5040457376, "lat": 34.9796641, "lon": 33.9346214}, {"type": "node", "id": 5040457377, "lat": 34.979647, "lon": 33.9344626}, {"type": "node", "id": 5076352221, "lat": 35.0139436, "lon": 34.0543411, "tags": {"addr:street": "Leoforos Protara", "amenity": "restaurant", "check_date": "2024-09-18", "cuisine": "american;greek;italian;caribbean", "internet_access": "wlan", "name": "The Brewery", "name:en": "The Brewery", "opening_hours": "Mo-Su 09:00-01:00"}}, {"type": "node", "id": 5097447825, "lat": 34.987253, "lon": 34.0049247, "tags": {"amenity": "restaurant", "name": "Marquis de Napa", "name:en": "Marquis de Napa"}}, {"type": "node", "id": 5135583623, "lat": 34.9827766, "lon": 34.0016868, "tags": {"amenity": "cafe", "name": "Sesoula Kalamaki", "name:en": "Sesoula Kalamaki"}}, {"type": "node", "id": 5137336048, "lat": 35.0209023, "lon": 34.0501331}, {"type": "node", "id": 5137336049, "lat": 35.0207464, "lon": 34.0502574}, {"type": "node", "id": 5137336050, "lat": 35.0207545, "lon": 34.0502989}, {"type": "node", "id": 5137336051, "lat": 35.0206301, "lon": 34.0503982}, {"type": "node", "id": 5137336052, "lat": 35.0207186, "lon": 34.0505636}, {"type": "node", "id": 5137336053, "lat": 35.0210088, "lon": 34.0503322}, {"type": "node", "id": 5170748921, "lat": 35.0345252, "lon": 33.9782567, "tags": {"addr:housenumber": "134", "addr:street": "\u039b\u03b5\u03c9\u03c6\u03cc\u03c1\u03bf\u03c2 \u0393\u03b5\u03ce\u03c1\u03b3\u03b9\u03bf\u03c5 \u0393\u03c1\u03af\u03b2\u03b1 \u0394\u03b9\u03b3\u03b5\u03bd\u03ae", "amenity": "cafe", "cuisine": "diner;sandwich;cake;coffee_shop", "internet_access": "wlan", "name": "Fabricca Coffee n' Bites", "name:en": "FABRICCA Coffe'n bites", "opening_hours": "Mo-Fr 07:00-21:00; Sa 07:30-21:00; Su 08:00-21:00", "phone": "+357 23 820540", "website": "https://facebook.com/FabriccaCoffeeNBites"}}, {"type": "node", "id": 5173155123, "lat": 35.0398239, "lon": 33.9778145, "tags": {"amenity": "restaurant", "name": "TAKE AWAY", "name:en": "TAKE AWAY", "phone": "+35723823217"}}, {"type": "node", "id": 5173155125, "lat": 35.0377679, "lon": 33.9823413, "tags": {"amenity": "restaurant", "check_date": "2024-09-23", "name": "Kanati Tavern 1947 b.", "name:en": "Kanatt Tavern 1947 b.", "phone": "+357 23 826093"}}, {"type": "node", "id": 5183553963, "lat": 34.9831735, "lon": 33.9547221}, {"type": "node", "id": 5183553964, "lat": 34.9830739, "lon": 33.9548097}, {"type": "node", "id": 5183553965, "lat": 34.9831579, "lon": 33.9549518}, {"type": "node", "id": 5183553966, "lat": 34.9832575, "lon": 33.9548642}, {"type": "node", "id": 5234889122, "lat": 35.041582, "lon": 34.0330156, "tags": {"amenity": "restaurant", "name": "Sirena Bay"}}, {"type": "node", "id": 5235900294, "lat": 35.0124507, "lon": 34.0573548}, {"type": "node", "id": 5235900295, "lat": 35.0125074, "lon": 34.0573339}, {"type": "node", "id": 5235900296, "lat": 35.0125522, "lon": 34.0575843}, {"type": "node", "id": 5235900297, "lat": 35.01258, "lon": 34.057583}, {"type": "node", "id": 5235900298, "lat": 35.0126131, "lon": 34.0577957}, {"type": "node", "id": 5235900299, "lat": 35.0126548, "lon": 34.0577826}, {"type": "node", "id": 5235900300, "lat": 35.0126911, "lon": 34.0579639}, {"type": "node", "id": 5235900301, "lat": 35.0126922, "lon": 34.0580461}, {"type": "node", "id": 5235900302, "lat": 35.0124187, "lon": 34.0580696}, {"type": "node", "id": 5235900303, "lat": 35.0123941, "lon": 34.0576496}, {"type": "node", "id": 5235900304, "lat": 35.0124668, "lon": 34.0576639}, {"type": "node", "id": 5235900305, "lat": 35.012471, "lon": 34.057793}, {"type": "node", "id": 5235900306, "lat": 35.0125202, "lon": 34.0577774}, {"type": "node", "id": 5235901946, "lat": 35.012036, "lon": 34.0582933}, {"type": "node", "id": 5235901947, "lat": 35.0120581, "lon": 34.0583391}, {"type": "node", "id": 5237710985, "lat": 35.0447578, "lon": 34.0188847}, {"type": "node", "id": 5237710986, "lat": 35.0449733, "lon": 34.0191899}, {"type": "node", "id": 5237710987, "lat": 35.0445319, "lon": 34.0195869}, {"type": "node", "id": 5237710988, "lat": 35.0443608, "lon": 34.0193153}, {"type": "node", "id": 5257441421, "lat": 35.1124141, "lon": 33.9247812, "tags": {"addr:postcode": "99450", "addr:street": "15 A\u011fustos Bul.", "amenity": "cafe", "cuisine": "coffee_shop", "email": "alkankahve@hotmail.com", "internet_access": "wlan", "name": "Alkan Kahve Fabrikas\u0131", "name:en": "Alkan Coffee Factory", "opening_hours": "Mo-Sa 08:30-13:00, 14:00-17:00", "operator": "Ibrahim Alkan & Son's Trd. Ltd.", "phone": "+903923663741"}}, {"type": "node", "id": 5260882621, "lat": 35.1124808, "lon": 33.9247435, "tags": {"addr:postcode": "99450", "addr:street": "15 A\u011fustos Bul.", "amenity": "cafe", "cuisine": "coffee_shop", "email": "alkankahve@hotmail.com", "internet_access": "wlan", "name": "Alkan Kahve Fabrikas\u0131", "name:en": "Alkan Coffee Factory", "opening_hours": "Mo-Sa 09:00-13:00, 14:00-18:00", "operator": "Ibrahim Alkan & Son's Trd. Ltd.", "phone": "+903923663741"}}, {"type": "node", "id": 5268768138, "lat": 34.9898028, "lon": 33.9977481, "tags": {"addr:street": "G. Afxentiou", "amenity": "restaurant", "name": "Piccolo Iavolo", "source": "Kaart Ground Survey 2017"}}, {"type": "node", "id": 5268768145, "lat": 34.9895098, "lon": 33.9978873, "tags": {"addr:street": "G. Afxentiou", "amenity": "restaurant", "name": "Acuna", "source": "Kaart Ground Survey 2017"}}, {"type": "node", "id": 5268768150, "lat": 34.9889375, "lon": 33.9965478}, {"type": "node", "id": 5268768151, "lat": 34.9888332, "lon": 33.9964974}, {"type": "node", "id": 5268768152, "lat": 34.9888549, "lon": 33.9966078}, {"type": "node", "id": 5268768153, "lat": 34.9889237, "lon": 33.9966535}, {"type": "node", "id": 5268768154, "lat": 34.987549, "lon": 33.99553, "tags": {"addr:street": "Katalimaton", "amenity": "restaurant", "name": "Appetite", "source": "Kaart Ground Survey 2017"}}, {"type": "node", "id": 5268768155, "lat": 34.9875864, "lon": 33.99523, "tags": {"addr:street": "Katalimaton", "amenity": "restaurant", "name": "The Elysian Inn Resturant", "source": "Kaart Ground Survey 2017"}}, {"type": "node", "id": 5268768159, "lat": 34.9893812, "lon": 34.0002469}, {"type": "node", "id": 5322251655, "lat": 34.9876321, "lon": 33.9512197}, {"type": "node", "id": 5322251656, "lat": 34.987641, "lon": 33.951306}, {"type": "node", "id": 5322251657, "lat": 34.9876092, "lon": 33.9513116}, {"type": "node", "id": 5322251658, "lat": 34.9876182, "lon": 33.9514007}, {"type": "node", "id": 5322251659, "lat": 34.9875166, "lon": 33.9514195}, {"type": "node", "id": 5322251660, "lat": 34.9875226, "lon": 33.9514865}, {"type": "node", "id": 5322251661, "lat": 34.987462, "lon": 33.9514956}, {"type": "node", "id": 5322251662, "lat": 34.9874385, "lon": 33.9512468}, {"type": "node", "id": 5322262480, "lat": 34.9874493, "lon": 33.9513628}, {"type": "node", "id": 5322262482, "lat": 34.9876373, "lon": 33.9512704}, {"type": "node", "id": 5344304224, "lat": 35.0259362, "lon": 34.0494759}, {"type": "node", "id": 5344390853, "lat": 35.0260056, "lon": 34.0496146}, {"type": "node", "id": 5344390854, "lat": 35.0259161, "lon": 34.0496931}, {"type": "node", "id": 5344390855, "lat": 35.0259425, "lon": 34.0497424}, {"type": "node", "id": 5344390856, "lat": 35.0258908, "lon": 34.0497856}, {"type": "node", "id": 5344390857, "lat": 35.025824, "lon": 34.0496515}, {"type": "node", "id": 5344390858, "lat": 35.0257849, "lon": 34.049687}, {"type": "node", "id": 5607765322, "lat": 34.9879187, "lon": 34.0041866, "tags": {"addr:street": "Leoforos Kryou Nerou", "amenity": "restaurant", "name": "Al Ritrovo", "name:en": "Al Ritrovo", "name:ru": "\u0410\u043b \u0420\u0438\u0442\u0440\u0438\u0432\u043e"}}, {"type": "node", "id": 5609308721, "lat": 34.9699392, "lon": 33.9010052}, {"type": "node", "id": 5615399524, "lat": 34.9898839, "lon": 33.9755118, "tags": {"amenity": "restaurant", "internet_access": "wlan", "name": "Asador", "name:en": "Asador"}}, {"type": "node", "id": 5615399527, "lat": 34.9886818, "lon": 33.9819745, "tags": {"amenity": "restaurant", "name": "Carina", "name:en": "Carina"}}, {"type": "node", "id": 5615401025, "lat": 34.9903757, "lon": 33.9733685, "tags": {"amenity": "restaurant", "name": "Stratovarius", "name:en": "Stratovarius"}}, {"type": "node", "id": 5615418123, "lat": 34.9873699, "lon": 33.992575, "tags": {"amenity": "restaurant", "cuisine": "chinese;sushi", "name": "Panda", "name:en": "Panda"}}, {"type": "node", "id": 5615754338, "lat": 34.9851595, "lon": 34.0003559, "tags": {"amenity": "restaurant", "name": "Wagamama", "name:en": "Wagamama"}}, {"type": "node", "id": 5615754339, "lat": 34.9850407, "lon": 34.0003194, "tags": {"amenity": "restaurant", "name": "Raphaelis", "name:en": "Raphaelis"}}, {"type": "node", "id": 5625180515, "lat": 35.053198, "lon": 34.0143544, "tags": {"amenity": "restaurant", "name": "La Piazza"}}, {"type": "node", "id": 5638833321, "lat": 34.9904572, "lon": 33.9994496, "tags": {"addr:housenumber": "5", "addr:postcode": "5330", "addr:street": "\u0392\u03b1\u03c3\u03af\u03bb\u03b7 \u039c\u03b9\u03c7\u03b1\u03b7\u03bb\u03af\u03b4\u03b7", "amenity": "restaurant", "name": "Kota Greek Souvlaki", "name:en": "Kota Greek Souvlaki", "phone": "35797776370"}}, {"type": "node", "id": 5640940821, "lat": 35.0368307, "lon": 33.9822219, "tags": {"amenity": "cafe", "name": "Daily dose"}}, {"type": "node", "id": 5643681721, "lat": 35.0399413, "lon": 33.9776781, "tags": {"amenity": "cafe", "cuisine": "greek;grill", "name": "Syntrivani Grill House", "name:en": "Syntrivani Grill House", "phone": "23823217"}}, {"type": "node", "id": 5658255322, "lat": 34.9848286, "lon": 34.0004161, "tags": {"amenity": "restaurant", "cuisine": "local", "internet_access": "wlan", "name": "Raphaels", "name:en": "Raphaels"}}, {"type": "node", "id": 5729828028, "lat": 34.9849745, "lon": 34.0135333, "tags": {"amenity": "restaurant", "cuisine": "burger", "name": "Burger Bar", "name:en": "Burger Bar"}}, {"type": "node", "id": 5733335321, "lat": 34.9881175, "lon": 34.0015632, "tags": {"amenity": "restaurant", "cuisine": "fine_dining", "name": "Sage", "name:en": "Sage"}}, {"type": "node", "id": 5745160382, "lat": 34.9918684, "lon": 33.9975609, "tags": {"amenity": "cafe", "name": "Captain Andreas", "name:en": "Captain Andreas", "name:ru": "\u041a\u0430\u043f\u0438\u0442\u0430\u043d \u0410\u043d\u0434\u0440\u0435\u0430\u0441"}}, {"type": "node", "id": 5761517753, "lat": 34.9871973, "lon": 34.0050633, "tags": {"amenity": "restaurant", "name": "Golden Dragon"}}, {"type": "node", "id": 5764484340, "lat": 34.9754249, "lon": 34.0429265}, {"type": "node", "id": 5764484341, "lat": 34.9755092, "lon": 34.0429522}, {"type": "node", "id": 5764484342, "lat": 34.9755279, "lon": 34.042861}, {"type": "node", "id": 5764484343, "lat": 34.9754365, "lon": 34.04287}, {"type": "node", "id": 5793437133, "lat": 35.0461484, "lon": 34.0011197, "tags": {"alt_name": "\u03a1\u03b1\u03bd\u03b5\u03c1\u03b9", "amenity": "cafe", "name": "\u03a0\u03b1\u03bd\u03b5\u03c1\u03b9"}}, {"type": "node", "id": 5796691754, "lat": 34.9828226, "lon": 34.0026969, "tags": {"amenity": "restaurant", "cuisine": "asian;mediterranean", "internet_access": "wlan", "name": "Limanaki", "name:en": "Limanaki", "name:ru": "\u041b\u0438\u043c\u0430\u043d\u0430\u043a\u0438", "opening_hours": "Mo-Su 18:00-23:00"}}, {"type": "node", "id": 5801355048, "lat": 35.0474498, "lon": 34.0007195, "tags": {"amenity": "restaurant", "name": "Kapparis"}}, {"type": "node", "id": 5807403192, "lat": 35.13247, "lon": 33.9247399, "tags": {"amenity": "cafe", "brand": "Gloria Jean's", "brand:wikidata": "Q2666365", "brand:wikipedia": "en:Gloria Jean's Coffees", "cuisine": "coffee_shop", "name": "Gloria Jean's", "official_name": "Gloria Jean's Coffees", "takeaway": "yes"}}, {"type": "node", "id": 5833223985, "lat": 35.0313143, "lon": 33.9821862, "tags": {"addr:housenumber": "63", "addr:postcode": "5280", "addr:street": "Stadiou", "amenity": "restaurant", "contact:instagram": "https://www.instagram.com/tavernaropas/", "cuisine": "greek", "internet_access": "wlan", "name": "\u03a4\u03b1\u03b2\u03ad\u03c1\u03bd\u03b1 \u03a1\u03cc\u03c0\u03b1\u03c2", "name:el": "\u03a4\u03b1\u03b2\u03ad\u03c1\u03bd\u03b1 \u03a1\u03cc\u03c0\u03b1\u03c2", "name:en": "Ropas Tavern", "name:ru": "\u0422\u0430\u0432\u0435\u0440\u043d\u0430 \u0420\u043e\u043f\u0430\u0441", "opening_hours": "Mo-Su 18:00-23:00", "phone": "+357 23 820025"}}, {"type": "node", "id": 5843632587, "lat": 34.9889204, "lon": 33.9668443, "tags": {"amenity": "cafe", "name": "Eurobakers", "name:en": "Eurobakers"}}, {"type": "node", "id": 5843632588, "lat": 34.9904859, "lon": 33.9720708, "tags": {"amenity": "restaurant", "cuisine": "lebanese", "name": "Zaatar", "name:en": "Zaatar", "opening_hours": "Mo-Su 13:00-23:00"}}, {"type": "node", "id": 5854400385, "lat": 34.9857687, "lon": 34.0003252, "tags": {"amenity": "restaurant", "name": "Da Vinci Napiana", "name:en": "Da Vinci Napiana"}}, {"type": "node", "id": 5858900386, "lat": 35.1289224, "lon": 33.9271169, "tags": {"addr:street": "Esref Bitlis Cad, Famagusta Mersin 10", "amenity": "restaurant", "cuisine": "steak_house;fish;regional;fish_and_chips;mediterranean", "internet_access": "wlan", "name": "Ezi\u00e7", "name:en": "Ezic Magusa", "opening_hours": "Mo-Su 09:00-00:00", "website": "http://ezic.com.tr"}}, {"type": "node", "id": 5943357686, "lat": 35.1310257, "lon": 33.9263928, "tags": {"amenity": "cafe", "name": "Mardo", "name:en": "Mardo"}}, {"type": "node", "id": 5951252887, "lat": 34.9869579, "lon": 33.9965986, "tags": {"amenity": "cafe", "brand": "Costa", "brand:wikidata": "Q608845", "cuisine": "coffee_shop", "name": "Costa", "takeaway": "yes"}}, {"type": "node", "id": 5958392385, "lat": 34.9886346, "lon": 33.9852229, "tags": {"amenity": "restaurant", "cuisine": "greek", "internet_access": "wlan", "name": "Old vilage tavern", "name:en": "Old village tavern", "outdoor_seating": "yes"}}, {"type": "node", "id": 5959454486, "lat": 35.0158167, "lon": 34.0519843, "tags": {"amenity": "cafe", "check_date": "2024-09-18", "cuisine": "cake;coffee_shop;ice_cream;sandwich", "delivery": "yes", "description": "The place to enjoy the finest quality desserts, Belgian waffles and homemade gelato ice cream, as well as a wide selection of freshly brewed coffees and teas.", "diet:vegetarian": "yes", "internet_access": "wlan", "name": "Patisserie Amelie (Sunrise Pearl)", "note": "Open all year round.", "opening_hours": "Mo-Su 10:00-19:00", "outdoor_seating": "yes", "website": "https://www.foody.com.cy/delivery/paralimni/patisserie-amelie", "wheelchair": "yes"}}, {"type": "node", "id": 6071065144, "lat": 35.0679756, "lon": 33.9671308, "tags": {"amenity": "cafe", "internet_access": "wlan", "name": "Famagusta Beach View", "tourism": "viewpoint"}}, {"type": "node", "id": 6133388931, "lat": 34.990499, "lon": 33.9988647, "tags": {"addr:housenumber": "4", "addr:street": "Ari Velouchioti", "amenity": "restaurant", "cuisine": "steak_house;pizza;mediterranean", "name": "Nikitas", "opening_hours": "Mo-Su 16:00-23:30", "phone": "+357 23 721701"}}, {"type": "node", "id": 6133388933, "lat": 34.9864601, "lon": 33.9999712, "tags": {"addr:city": "Ayia Napa", "addr:housenumber": "4", "addr:street": "Leoforos Nissi", "amenity": "restaurant", "cuisine": "greek", "name": "Aura", "name:en": "Aura"}}, {"type": "node", "id": 6135698723, "lat": 34.987672, "lon": 34.0037678, "tags": {"amenity": "cafe", "name": "Fresco"}}, {"type": "node", "id": 6135698727, "lat": 34.9876467, "lon": 33.9957802, "tags": {"amenity": "restaurant", "name": "Paula's Restaurant"}}, {"type": "node", "id": 6135698730, "lat": 34.9872314, "lon": 33.994136, "tags": {"amenity": "restaurant", "name": "Moo Moo Taverna"}}, {"type": "node", "id": 6142558883, "lat": 34.9888855, "lon": 34.0006135, "tags": {"amenity": "cafe", "name": "Lobby"}}, {"type": "node", "id": 6142564287, "lat": 34.9878341, "lon": 33.9951083, "tags": {"amenity": "restaurant", "name": "Cicero"}}, {"type": "node", "id": 6142564288, "lat": 34.9877368, "lon": 33.9947931, "tags": {"addr:city": "\u0391\u03b3\u03af\u03b1 \u039d\u03ac\u03c0\u03b1", "amenity": "restaurant", "name": "Georgian Yard", "name:ka": "\u10e5\u10d0\u10e0\u10d7\u10e3\u10da\u10d8 \u10d4\u10d6\u10dd", "name:ru": "\u0433\u0440\u0443\u0437\u0438\u043d\u0441\u043a\u0438\u0439 \u0434\u0432\u043e\u0440"}}, {"type": "node", "id": 6200178586, "lat": 35.1220727, "lon": 33.9399026, "tags": {"amenity": "cafe", "cuisine": "mediterranean;turkish", "internet_access": "wlan", "name": "Ravelin Gate", "name:en": "Ravelin Gate"}}, {"type": "node", "id": 6241544986, "lat": 35.1257655, "lon": 33.9435924, "tags": {"amenity": "cafe", "cuisine": "regional;turkish;local", "name": "Rouge", "name:en": "Rouge"}}, {"type": "node", "id": 6241605185, "lat": 35.1235566, "lon": 33.9463662, "tags": {"amenity": "restaurant", "cuisine": "regional;turkish;local", "name": "Desdemona Meze Restaurant", "name:en": "Desdemona Meze Restaurant"}}, {"type": "node", "id": 6265806088, "lat": 35.0386923, "lon": 33.9843665, "tags": {"amenity": "restaurant", "brand": "Pizza Hut", "brand:wikidata": "Q191615", "cuisine": "pizza", "name": "Pizza Hut", "name:en": "Pizza Hut"}}, {"type": "node", "id": 6482078966, "lat": 34.988094, "lon": 33.9942234, "tags": {"addr:city": "\u0391\u03b3\u03af\u03b1 \u039d\u03ac\u03c0\u03b1", "addr:housenumber": "29", "addr:postcode": "5330", "addr:street": "\u0393\u03b9\u03bf\u03cd\u03c1\u03b9 \u0393\u03ba\u03b1\u03b3\u03ba\u03ac\u03c1\u03b9\u03bd", "amenity": "restaurant", "name": "The stumble Inn", "opening_hours": "Mo-Su 08:00-02:00", "outdoor_seating": "yes"}}, {"type": "node", "id": 6482188699, "lat": 35.1106737, "lon": 33.9598676}, {"type": "node", "id": 6482188700, "lat": 35.110714, "lon": 33.9599662}, {"type": "node", "id": 6482188701, "lat": 35.1103557, "lon": 33.9601943}, {"type": "node", "id": 6482188702, "lat": 35.110337, "lon": 33.9601487}, {"type": "node", "id": 6482188703, "lat": 35.1103765, "lon": 33.9601246}, {"type": "node", "id": 6482188704, "lat": 35.1103557, "lon": 33.9600723}, {"type": "node", "id": 6482267196, "lat": 35.1148227, "lon": 33.9559636}, {"type": "node", "id": 6482267197, "lat": 35.1146404, "lon": 33.9559724}, {"type": "node", "id": 6482267198, "lat": 35.1146361, "lon": 33.9558382}, {"type": "node", "id": 6482267199, "lat": 35.1147565, "lon": 33.9558324}, {"type": "node", "id": 6482267200, "lat": 35.1148095, "lon": 33.9558615}, {"type": "node", "id": 6482267201, "lat": 35.1148386, "lon": 33.9558956}, {"type": "node", "id": 6482267202, "lat": 35.1148399, "lon": 33.9559361}, {"type": "node", "id": 6509575185, "lat": 34.9832718, "lon": 34.0007492, "tags": {"amenity": "cafe", "brand": "Costa", "brand:wikidata": "Q608845", "cuisine": "coffee_shop", "name": "Costa"}}, {"type": "node", "id": 6515454285, "lat": 34.9815009, "lon": 34.0019687, "tags": {"amenity": "restaurant", "cuisine": "seafood;fish", "kids_area": "yes", "name": "Fish House"}}, {"type": "node", "id": 6527832087, "lat": 34.989715, "lon": 34.0003549, "tags": {"addr:street": "Archiepiskopou Makariou III", "amenity": "cafe", "cuisine": "breakfast;french;ice_cream;coffee_shop", "internet_access": "wlan", "name": "La Croissanterie"}}, {"type": "node", "id": 6547550086, "lat": 35.1252082, "lon": 33.9421188, "tags": {"amenity": "cafe", "cuisine": "coffee_shop", "internet_access": "wlan", "internet_access:fee": "customers", "name": "Cortado", "name:en": "Cortado", "outdoor_seating": "yes"}}, {"type": "node", "id": 6547550087, "lat": 35.1254148, "lon": 33.9426945, "tags": {"addr:housenumber": "17", "addr:street": "Liman yolu", "amenity": "restaurant", "internet_access": "wlan", "name": "Aspava restaurant", "opening_hours": "Mo-Su 10:00-22:30", "phone": "+903923666037"}}, {"type": "node", "id": 6578733292, "lat": 35.0322888, "lon": 34.0417859}, {"type": "node", "id": 6578733293, "lat": 35.0323754, "lon": 34.0419111}, {"type": "node", "id": 6578733294, "lat": 35.032371, "lon": 34.0420457}, {"type": "node", "id": 6578733295, "lat": 35.0324233, "lon": 34.0421127}, {"type": "node", "id": 6578733296, "lat": 35.0327316, "lon": 34.0419188}, {"type": "node", "id": 6578733297, "lat": 35.0325906, "lon": 34.0416774}, {"type": "node", "id": 6578733298, "lat": 35.032512, "lon": 34.0417585}, {"type": "node", "id": 6578733299, "lat": 35.0324301, "lon": 34.0416401}, {"type": "node", "id": 6578733300, "lat": 35.0324559, "lon": 34.0416775, "tags": {"amenity": "toilets"}}, {"type": "node", "id": 6594268084, "lat": 35.1181229, "lon": 33.9577919}, {"type": "node", "id": 6594303885, "lat": 35.1184102, "lon": 33.9578134}, {"type": "node", "id": 6594303886, "lat": 35.1184144, "lon": 33.9577182}, {"type": "node", "id": 6594303887, "lat": 35.1181258, "lon": 33.9576989}, {"type": "node", "id": 6614724285, "lat": 34.9862196, "lon": 33.999501, "tags": {"amenity": "cafe"}}, {"type": "node", "id": 6617236785, "lat": 35.0116103, "lon": 34.0564631, "tags": {"addr:street": "Leoforos Protara", "amenity": "restaurant", "check_date": "2024-09-18", "cuisine": "greek", "description": "meze & grill restaurant", "internet_access": "wlan", "name": "Yiasemi", "name:en": "Yiasemi", "outdoor_seating": "yes"}}, {"type": "node", "id": 6617493693, "lat": 35.0376035, "lon": 34.0369731, "tags": {"amenity": "restaurant", "cuisine": "italian", "name": "Trattoria Italiana Mamma Leone", "opening_hours": "Mo-Su 19:00-23:00", "phone": "+357 99 065891"}}, {"type": "node", "id": 6622298385, "lat": 35.0175099, "lon": 34.0500605, "tags": {"amenity": "cafe", "branch": "Protaras (Odessa Hotel)", "brand": "Costa", "brand:wikidata": "Q608845", "check_date": "2024-09-16", "cuisine": "coffee_shop", "diet:vegetarian": "yes", "internet_access": "wlan", "internet_access:fee": "customers", "name": "Costa", "note": "Open all year round.", "opening_hours": "08:00-20:30", "outdoor_seating": "yes", "phone": "+357 23 833235", "takeaway": "yes", "website": "https://www.costacoffee.com.cy/"}}, {"type": "node", "id": 6635680792, "lat": 35.0112471, "lon": 34.057398}, {"type": "node", "id": 6655011985, "lat": 34.9864423, "lon": 34.000119, "tags": {"addr:housenumber": "4", "addr:street": "Leoforos Nissi", "amenity": "cafe", "brand": "Gloria Jean's", "brand:wikidata": "Q2666365", "cuisine": "coffee_shop", "internet_access": "wlan", "name": "Gloria Jean's", "name:en": "Gloria Jean's Coffees", "official_name": "Gloria Jean's Coffees", "outdoor_seating": "yes", "phone": "00357-23721921", "takeaway": "yes"}}, {"type": "node", "id": 6658371785, "lat": 35.0585007, "lon": 33.9672809, "tags": {"amenity": "cafe", "cuisine": "greek", "internet_access": "wlan", "name": "Salamana"}}, {"type": "node", "id": 6727806086, "lat": 35.130173, "lon": 33.9292396, "tags": {"amenity": "restaurant", "name": "Temel reis"}}, {"type": "node", "id": 6745954889, "lat": 34.9789889, "lon": 33.9275159, "tags": {"amenity": "cafe", "name": "Zafiri"}}, {"type": "node", "id": 6754184662, "lat": 34.9834548, "lon": 33.9547558}, {"type": "node", "id": 6754184663, "lat": 34.9832455, "lon": 33.954933}, {"type": "node", "id": 6754184664, "lat": 34.9833148, "lon": 33.955055}, {"type": "node", "id": 6754184665, "lat": 34.9835242, "lon": 33.9548778}, {"type": "node", "id": 6773607785, "lat": 34.9878973, "lon": 34.0026478, "tags": {"amenity": "cafe"}}, {"type": "node", "id": 6786424386, "lat": 34.9879537, "lon": 33.9507713, "tags": {"amenity": "restaurant", "cuisine": "greek", "internet_access": "wlan", "name": "Garden of Eden", "name:en": "Garden of Eden", "opening_hours": "Mo-Su 09:00-00:00"}}, {"type": "node", "id": 6813712685, "lat": 34.9870034, "lon": 33.9975391, "tags": {"amenity": "restaurant", "name": "Tony's Tavern", "name:en": "Tony's Tavern"}}, {"type": "node", "id": 6846774531, "lat": 34.9871635, "lon": 33.9786137, "tags": {"amenity": "restaurant", "name": "Sandy Bay"}}, {"type": "node", "id": 6886816385, "lat": 34.9915665, "lon": 34.0007742, "tags": {"amenity": "restaurant", "name": "Stamna Taverna", "name:en": "Stamna Taverna"}}, {"type": "node", "id": 6906353085, "lat": 34.9870757, "lon": 33.9972536, "tags": {"addr:housenumber": "14", "addr:street": "Leoforos Nissi", "amenity": "restaurant", "name": "Tony\u2019s Tavern", "name:en": "Tony\u2019s Tavern"}}, {"type": "node", "id": 6913791667, "lat": 35.0127524, "lon": 34.0552138}, {"type": "node", "id": 6913791668, "lat": 35.0126162, "lon": 34.0553479}, {"type": "node", "id": 6913791669, "lat": 35.0126052, "lon": 34.0553318}, {"type": "node", "id": 6913791670, "lat": 35.0125327, "lon": 34.0554015}, {"type": "node", "id": 6913791671, "lat": 35.012458, "lon": 34.0554793}, {"type": "node", "id": 6913791672, "lat": 35.0125349, "lon": 34.0556}, {"type": "node", "id": 6913791673, "lat": 35.012603, "lon": 34.0555222}, {"type": "node", "id": 6913791674, "lat": 35.0126272, "lon": 34.0555222}, {"type": "node", "id": 6913791675, "lat": 35.0126931, "lon": 34.0554605}, {"type": "node", "id": 6913791676, "lat": 35.0126887, "lon": 34.055431}, {"type": "node", "id": 6913791677, "lat": 35.0128117, "lon": 34.0553103}, {"type": "node", "id": 6942866846, "lat": 35.123953, "lon": 33.9409023, "tags": {"amenity": "cafe", "description": "Caf\u00e9 and kebap", "name": "Di Cafe"}}, {"type": "node", "id": 7102100079, "lat": 35.124456, "lon": 33.9442384}, {"type": "node", "id": 7517536385, "lat": 34.9880483, "lon": 34.0000494, "tags": {"amenity": "restaurant", "cuisine": "greek", "internet_access": "wlan", "name": "Plateia", "name:en": "Plateia"}}, {"type": "node", "id": 7724476286, "lat": 35.0170142, "lon": 34.0506158}, {"type": "node", "id": 7900198252, "lat": 35.0536117, "lon": 34.0107505, "tags": {"amenity": "restaurant", "cuisine": "greek", "name": "Magazaki"}}, {"type": "node", "id": 8981654733, "lat": 35.114566, "lon": 33.9556033}, {"type": "node", "id": 8981654734, "lat": 35.1145657, "lon": 33.9556115}, {"type": "node", "id": 8981654735, "lat": 35.1145633, "lon": 33.955619}, {"type": "node", "id": 8981654736, "lat": 35.1145589, "lon": 33.9556252}, {"type": "node", "id": 8981654737, "lat": 35.1145295, "lon": 33.9556194}, {"type": "node", "id": 8981654738, "lat": 35.1145273, "lon": 33.9556126}, {"type": "node", "id": 8981654739, "lat": 35.1145531, "lon": 33.9556292}, {"type": "node", "id": 8981654740, "lat": 35.1145465, "lon": 33.9556307}, {"type": "node", "id": 8981654741, "lat": 35.1145399, "lon": 33.9556294}, {"type": "node", "id": 8981654742, "lat": 35.114534, "lon": 33.9556254}, {"type": "node", "id": 9005655411, "lat": 35.1178781, "lon": 33.9554721}, {"type": "node", "id": 9005655412, "lat": 35.1178663, "lon": 33.955529}, {"type": "node", "id": 9005655413, "lat": 35.1179659, "lon": 33.95556}, {"type": "node", "id": 9005655414, "lat": 35.1182005, "lon": 33.9558766}, {"type": "node", "id": 9005655415, "lat": 35.1182454, "lon": 33.9558269}, {"type": "node", "id": 9005655416, "lat": 35.1180951, "lon": 33.9556241}, {"type": "node", "id": 9005722717, "lat": 35.118109, "lon": 33.9556087}, {"type": "node", "id": 9005722718, "lat": 35.1180262, "lon": 33.955497}, {"type": "node", "id": 9005722719, "lat": 35.1180112, "lon": 33.9555136}, {"type": "node", "id": 9091494217, "lat": 35.0355723, "lon": 33.9783837, "tags": {"amenity": "cafe", "name": "The Loop Cafe", "name:en": "The Loop Cafe"}}, {"type": "node", "id": 9098764418, "lat": 35.0293756, "lon": 34.0413695, "tags": {"amenity": "restaurant", "email": "domarestaurantprotaras@gmail.com", "name": "Doma Restaurant", "note": "Closed during winter season (November to early April).", "phone": "+357 99 476 707", "website": "https://www.facebook.com/Doma.Restaurant.Protaras/"}}, {"type": "node", "id": 9169765517, "lat": 35.0125841, "lon": 34.0580416, "tags": {"amenity": "cafe", "name": "Fig Tree Bay", "name:en": "Fig Tree Bay"}}, {"type": "node", "id": 9207391818, "lat": 35.123348, "lon": 33.947702, "tags": {"amenity": "restaurant", "name": "Magusa Denizciler Birligi"}}, {"type": "node", "id": 9208199083, "lat": 34.9865806, "lon": 33.9969095, "tags": {"amenity": "restaurant", "cuisine": "thai", "name": "Sawadee"}}, {"type": "node", "id": 9592364821, "lat": 35.0260963, "lon": 34.0490223}, {"type": "node", "id": 9592364822, "lat": 35.0260505, "lon": 34.0490825}, {"type": "node", "id": 9784089421, "lat": 34.9857198, "lon": 34.0023533, "tags": {"amenity": "restaurant", "description": "Bar Restauraunt", "name": "Crown"}}, {"type": "node", "id": 9787259826, "lat": 34.9877924, "lon": 33.9799586, "tags": {"amenity": "restaurant", "name": "Solymaris Beach Bar"}}, {"type": "node", "id": 9797120604, "lat": 34.983972, "lon": 33.9556484}, {"type": "node", "id": 9797120645, "lat": 34.9839178, "lon": 33.9553198}, {"type": "node", "id": 9797120646, "lat": 34.9838248, "lon": 33.9554028}, {"type": "node", "id": 9797120647, "lat": 34.9840839, "lon": 33.9558351}, {"type": "node", "id": 9797120648, "lat": 34.9841769, "lon": 33.955752}, {"type": "node", "id": 9797120653, "lat": 34.983714, "lon": 33.9555234}, {"type": "node", "id": 9797120654, "lat": 34.9837713, "lon": 33.9556281}, {"type": "node", "id": 9797120655, "lat": 34.9838838, "lon": 33.9555365}, {"type": "node", "id": 9797120656, "lat": 34.9838265, "lon": 33.9554318}, {"type": "node", "id": 9797120821, "lat": 34.9834555, "lon": 33.954936}, {"type": "node", "id": 9797980511, "lat": 34.9800739, "lon": 33.9447599, "tags": {"amenity": "restaurant", "cuisine": "italian", "fixme": "check open", "name": "Primi", "note": "(Opening Soon)"}}, {"type": "node", "id": 9797980512, "lat": 34.97998, "lon": 33.944546, "tags": {"amenity": "restaurant", "name": "Sueno Azul", "start_date": "2022-06"}}, {"type": "node", "id": 9798402400, "lat": 34.9841646, "lon": 33.955763}, {"type": "node", "id": 9798407917, "lat": 34.9799816, "lon": 33.9455545, "tags": {"amenity": "restaurant", "name": "Sushi Yama"}}, {"type": "node", "id": 9798408065, "lat": 34.9798618, "lon": 33.9459649, "tags": {"amenity": "cafe", "cuisine": "coffee_shop", "name": "Coffee Berry"}}, {"type": "node", "id": 9887696673, "lat": 34.9860047, "lon": 34.0671057}, {"type": "node", "id": 9887696674, "lat": 34.9859554, "lon": 34.0670431}, {"type": "node", "id": 9887696675, "lat": 34.9861399, "lon": 34.0672088}, {"type": "node", "id": 9887696676, "lat": 34.9861809, "lon": 34.0672609}, {"type": "node", "id": 9887696677, "lat": 34.9861065, "lon": 34.0673483}, {"type": "node", "id": 9887696678, "lat": 34.9860645, "lon": 34.0672951}, {"type": "node", "id": 9981678490, "lat": 35.000904, "lon": 34.0653268, "tags": {"amenity": "restaurant", "name": "Nissia Bar and Grill"}}, {"type": "node", "id": 10227859060, "lat": 35.0116099, "lon": 34.0580043, "tags": {"amenity": "cafe", "check_date": "2024-09-18", "contact:facebook": "https://www.facebook.com/miyudiversity/", "name": "Miyu Coffee"}}, {"type": "node", "id": 10312923109, "lat": 35.1292864, "lon": 33.9292198, "tags": {"amenity": "restaurant", "name": "Tutar Tutar"}}, {"type": "node", "id": 10565116985, "lat": 34.982807, "lon": 34.0693071}, {"type": "node", "id": 10565116986, "lat": 34.9828465, "lon": 34.0694104}, {"type": "node", "id": 10565116987, "lat": 34.9827301, "lon": 34.0694788}, {"type": "node", "id": 10565116988, "lat": 34.9826905, "lon": 34.0693755}, {"type": "node", "id": 10594498812, "lat": 34.9698316, "lon": 33.9010247}, {"type": "node", "id": 10594498813, "lat": 34.9698337, "lon": 33.9010414}, {"type": "node", "id": 10594498814, "lat": 34.9697646, "lon": 33.9010539}, {"type": "node", "id": 10594498815, "lat": 34.9697686, "lon": 33.9010867}, {"type": "node", "id": 10594498816, "lat": 34.9696941, "lon": 33.9011003}, {"type": "node", "id": 10594498817, "lat": 34.9696905, "lon": 33.9010708}, {"type": "node", "id": 10594498818, "lat": 34.9696448, "lon": 33.9010792}, {"type": "node", "id": 10594498819, "lat": 34.9696858, "lon": 33.901413}, {"type": "node", "id": 10594498820, "lat": 34.9698747, "lon": 33.9013784}, {"type": "node", "id": 10594498821, "lat": 34.969868, "lon": 33.9013236}, {"type": "node", "id": 10594498822, "lat": 34.9698928, "lon": 33.9013191}, {"type": "node", "id": 10594498823, "lat": 34.9698877, "lon": 33.9012771}, {"type": "node", "id": 10594498824, "lat": 34.9699083, "lon": 33.9012733}, {"type": "node", "id": 10594498825, "lat": 34.9698966, "lon": 33.9011781}, {"type": "node", "id": 10594498826, "lat": 34.969923, "lon": 33.9011733}, {"type": "node", "id": 10594498827, "lat": 34.969921, "lon": 33.9011571}, {"type": "node", "id": 10594498828, "lat": 34.9699569, "lon": 33.9011506}, {"type": "node", "id": 10652376181, "lat": 35.0309456, "lon": 34.0368947, "tags": {"amenity": "restaurant", "email": "javaloungecyprus@gmail.com", "name": "Java Lounge", "note": "Closed during winter season.", "outdoor_seating": "yes", "phone": "+357 23 730830", "website": "https://www.facebook.com/javaloungecyprus/"}}, {"type": "node", "id": 10652733490, "lat": 35.0305885, "lon": 34.0380664, "tags": {"amenity": "restaurant", "cuisine": "greek;regional", "email": "kartanas@cytanet.com.cy", "name": "Kartanas Meze Tavern", "note": "Closed during winter season.", "phone": "+357 23 832 954", "website": "https://www.facebook.com/Kartanas/"}}, {"type": "node", "id": 10655641166, "lat": 35.0332836, "lon": 34.0397281, "tags": {"amenity": "restaurant", "description": "Serves throughout the day, a wide variety of international and local specialties with an extended choice of local wines. Also a rich buffet breakfast and dinner is served at Pinelopi Restaurant.", "email": "penelopehotel@gmail.com", "name": "Pinelopi Restaurant", "phone": "+357 23 831 180", "website": "https://www.penelopehotel.com.cy/page/restaurants-bars"}}, {"type": "node", "id": 10658564285, "lat": 35.0302633, "lon": 34.0393967}, {"type": "node", "id": 10658564286, "lat": 35.0302084, "lon": 34.0393477}, {"type": "node", "id": 10658564287, "lat": 35.0300941, "lon": 34.0395388}, {"type": "node", "id": 10658564288, "lat": 35.0302056, "lon": 34.0396383}, {"type": "node", "id": 10658564289, "lat": 35.0302596, "lon": 34.0395481}, {"type": "node", "id": 10658564290, "lat": 35.0302029, "lon": 34.0394975}, {"type": "node", "id": 10658593208, "lat": 35.0307438, "lon": 34.0425584}, {"type": "node", "id": 10658593209, "lat": 35.0306725, "lon": 34.0426107}, {"type": "node", "id": 10658593210, "lat": 35.0307159, "lon": 34.042699}, {"type": "node", "id": 10658593211, "lat": 35.0306858, "lon": 34.0427211}, {"type": "node", "id": 10658593212, "lat": 35.0307364, "lon": 34.0428239}, {"type": "node", "id": 10658593213, "lat": 35.0308097, "lon": 34.0427701}, {"type": "node", "id": 10658593214, "lat": 35.0307905, "lon": 34.0427309}, {"type": "node", "id": 10658593215, "lat": 35.0308132, "lon": 34.0426996}, {"type": "node", "id": 10658593235, "lat": 35.0293608, "lon": 34.0444931}, {"type": "node", "id": 10658593236, "lat": 35.0293248, "lon": 34.0444998}, {"type": "node", "id": 10658593237, "lat": 35.0293289, "lon": 34.0445322}, {"type": "node", "id": 10658593238, "lat": 35.0293649, "lon": 34.0445255}, {"type": "node", "id": 10658593239, "lat": 35.0284353, "lon": 34.0449602}, {"type": "node", "id": 10658593240, "lat": 35.0283932, "lon": 34.044958}, {"type": "node", "id": 10658593241, "lat": 35.0283874, "lon": 34.0450514}, {"type": "node", "id": 10658593242, "lat": 35.0284298, "lon": 34.0450559}, {"type": "node", "id": 10658593262, "lat": 35.0284364, "lon": 34.0458708, "tags": {"amenity": "restaurant", "cuisine": "italian", "name": "Seaglass Restaurant & Lounge Bar", "note": "Closed during winter season."}}, {"type": "node", "id": 10658593263, "lat": 35.0283976, "lon": 34.0459611, "tags": {"amenity": "restaurant", "cuisine": "greek", "name": "Thalassa Restaurant & Bar", "note": "Closed during winter season."}}, {"type": "node", "id": 10659640073, "lat": 35.0227429, "lon": 34.0506531}, {"type": "node", "id": 10659640074, "lat": 35.0227461, "lon": 34.0507746}, {"type": "node", "id": 10659640075, "lat": 35.0226594, "lon": 34.050778}, {"type": "node", "id": 10659640076, "lat": 35.0225843, "lon": 34.0507494}, {"type": "node", "id": 10659640077, "lat": 35.0225418, "lon": 34.0506953}, {"type": "node", "id": 10659640078, "lat": 35.0225232, "lon": 34.050648}, {"type": "node", "id": 10659640079, "lat": 35.0225207, "lon": 34.0505542}, {"type": "node", "id": 10659640080, "lat": 35.0226699, "lon": 34.0505483}, {"type": "node", "id": 10659640081, "lat": 35.0226728, "lon": 34.0506559}, {"type": "node", "id": 10659640098, "lat": 35.0197767, "lon": 34.0509667, "tags": {"amenity": "restaurant", "check_date": "2024-09-21", "cuisine": "italian", "diet:vegetarian": "yes", "email": "reservations@vrissakibeachhotel.com", "name": "Veranda", "note": "Closed during winter season. Wheelchair: ramp exists but is quite steep in a part. No problem for strollers, though.", "outdoor_seating": "yes", "phone": "+357 23 831 333", "website": "https://www.facebook.com/VerandaItalianRestaurant/", "wheelchair": "limited"}}, {"type": "node", "id": 10659640099, "lat": 35.0197372, "lon": 34.0511804, "tags": {"amenity": "restaurant", "check_date": "2024-09-21", "diet:vegetarian": "yes", "internet_access": "wlan", "internet_access:fee": "no", "name": "Bikini Beach Bar & Restaurant", "note": "Closed during winter season.Breakfast buffet from 7 to 10, lunch/dinner from 11 to 21:30", "opening_hours": "Mo-Su,PH 07:00-23:00", "operator": "Vrissaki", "payment:cash": "yes", "payment:credit_cards": "yes", "payment:debit_cards": "yes", "phone": "+357 23 831 333", "website": "https://www.facebook.com/BikiniBeachBarAndRestaurant/", "wheelchair": "limited"}}, {"type": "node", "id": 10659640100, "lat": 35.0196382, "lon": 34.0512559}, {"type": "node", "id": 10659640101, "lat": 35.0196128, "lon": 34.0512773}, {"type": "node", "id": 10659640102, "lat": 35.0196421, "lon": 34.0513293}, {"type": "node", "id": 10659640103, "lat": 35.0196675, "lon": 34.0513079}, {"type": "node", "id": 10659666645, "lat": 35.0174589, "lon": 34.0529194}, {"type": "node", "id": 10659666646, "lat": 35.0174161, "lon": 34.052872}, {"type": "node", "id": 10659666647, "lat": 35.0173879, "lon": 34.0529099}, {"type": "node", "id": 10659666648, "lat": 35.0174308, "lon": 34.0529573}, {"type": "node", "id": 10659666663, "lat": 35.0149898, "lon": 34.0515649, "tags": {"amenity": "restaurant", "check_date": "2024-09-18", "cuisine": "italian", "diet:vegetarian": "yes", "name": "Il Boccon Divino", "opening_hours": "06:00-23:00", "outdoor_seating": "yes", "wheelchair": "yes"}}, {"type": "node", "id": 10659666681, "lat": 35.0155979, "lon": 34.0518218}, {"type": "node", "id": 10659666682, "lat": 35.0156363, "lon": 34.0518653}, {"type": "node", "id": 10659666683, "lat": 35.0155906, "lon": 34.0519254}, {"type": "node", "id": 10659666684, "lat": 35.0155516, "lon": 34.0518811}, {"type": "node", "id": 10695424439, "lat": 35.0348227, "lon": 34.0371522}, {"type": "node", "id": 10695424440, "lat": 35.0347919, "lon": 34.0371958}, {"type": "node", "id": 10695424441, "lat": 35.0347089, "lon": 34.0371083}, {"type": "node", "id": 10695424442, "lat": 35.0347398, "lon": 34.0370647}, {"type": "node", "id": 10695424459, "lat": 35.0349891, "lon": 34.0327128, "tags": {"amenity": "cafe", "check_date": "2024-09-23", "name": "Coffee Point (PAPAFiLiPOU Ice Cream)", "note": "Closed during winter season.", "outdoor_seating": "yes"}}, {"type": "node", "id": 10697529909, "lat": 35.032671, "lon": 34.0422524}, {"type": "node", "id": 10697529910, "lat": 35.0326125, "lon": 34.0423162}, {"type": "node", "id": 10697529913, "lat": 35.0325115, "lon": 34.0421275}, {"type": "node", "id": 10697529914, "lat": 35.032571, "lon": 34.0422596}, {"type": "node", "id": 10697529915, "lat": 35.0326896, "lon": 34.041861}, {"type": "node", "id": 10697529916, "lat": 35.0327054, "lon": 34.0418441}, {"type": "node", "id": 10697529917, "lat": 35.0326723, "lon": 34.0417978}, {"type": "node", "id": 10697529918, "lat": 35.0326883, "lon": 34.0417809}, {"type": "node", "id": 10697529919, "lat": 35.03265, "lon": 34.0417264}, {"type": "node", "id": 10697529920, "lat": 35.0326353, "lon": 34.0417417}, {"type": "node", "id": 10697529952, "lat": 35.0191812, "lon": 34.0512133}, {"type": "node", "id": 10697529953, "lat": 35.0190894, "lon": 34.0513199}, {"type": "node", "id": 10697529954, "lat": 35.019161, "lon": 34.051412}, {"type": "node", "id": 10697529955, "lat": 35.0192529, "lon": 34.0513054}, {"type": "node", "id": 10702690712, "lat": 35.0257535, "lon": 34.0496066}, {"type": "node", "id": 10702690799, "lat": 35.0158588, "lon": 34.0515549, "tags": {"addr:housenumber": "26", "addr:street": "Leoforos Protara", "amenity": "restaurant", "check_date": "2024-09-22", "diet:vegetarian": "no", "email": "corner@kavazis.com", "name": "The Corner Restaurant", "note": "Closed during winter season.", "opening_hours": "Mo-Su 18:00-23:00", "phone": "+357 23 831337", "website": "https://www.thecornerrestaurantprotaras.com/", "wheelchair": "yes"}}, {"type": "node", "id": 10702690835, "lat": 35.0161044, "lon": 34.0512931, "tags": {"amenity": "cafe", "brand": "Coffee Island", "brand:wikidata": "Q60867333", "check_date": "2023-09-21", "cuisine": "coffee_shop", "delivery": "yes", "description": "You can enjoy unique Arabica specialty coffee. You can also find freshly coffee beans for the house. Take it with delivery at home or take away, wherever you are using online Order service.", "drive_through": "no", "name": "Coffe Island", "note": "Open all year round.", "opening_hours": "Mo-Su 08:00-17:00", "outdoor_seating": "yes", "phone": "+357 23 833944", "takeaway": "yes", "website": "https://www.coffeeisland.com.cy/"}}, {"type": "node", "id": 10702690836, "lat": 35.0161605, "lon": 34.051136, "tags": {"addr:housenumber": "26", "addr:street": "Leoforos Protara", "amenity": "restaurant", "check_date": "2024-09-16", "cuisine": "asian", "email": "info@inamoasian.com", "name": "INAMO Asian Philosophy", "note": "Closed during winter season.", "opening_hours": "Mo-Sa 18:00-23:00; Su 13:00-10:00", "phone": "+357 23 831211", "website": "https://asian.ahinos-inamo.com/"}}, {"type": "node", "id": 10702690837, "lat": 35.0162066, "lon": 34.0510779, "tags": {"addr:housenumber": "26", "addr:street": "Leoforos Protara", "amenity": "restaurant", "check_date": "2023-09-21", "cuisine": "sushi;seafood", "email": "info@ahinosseafood.com", "name": "Ahinos Seafood & Sushi", "note": "Closed during winter season.", "opening_hours": "Mo-Sa 18:00-23:00; Su 13:00-22:00", "phone": "+357 23 831211", "website": "https://seafood.ahinos-inamo.com/"}}, {"type": "node", "id": 10712848403, "lat": 35.051911, "lon": 34.0114994}, {"type": "node", "id": 10712848404, "lat": 35.0518554, "lon": 34.0116163}, {"type": "node", "id": 10712848405, "lat": 35.0518932, "lon": 34.0116432}, {"type": "node", "id": 10712848406, "lat": 35.0518407, "lon": 34.0117535}, {"type": "node", "id": 10712848407, "lat": 35.0517471, "lon": 34.0116871}, {"type": "node", "id": 10712848408, "lat": 35.0518553, "lon": 34.0114598}, {"type": "node", "id": 10713575421, "lat": 35.0503906, "lon": 34.0225525}, {"type": "node", "id": 10713575422, "lat": 35.0501241, "lon": 34.0227027}, {"type": "node", "id": 10713575423, "lat": 35.0501863, "lon": 34.0225766}, {"type": "node", "id": 10713575424, "lat": 35.0503027, "lon": 34.022818}, {"type": "node", "id": 10717022213, "lat": 35.0286631, "lon": 34.0436866}, {"type": "node", "id": 10717022216, "lat": 35.0286897, "lon": 34.0436897}, {"type": "node", "id": 10717022235, "lat": 35.0299674, "lon": 34.0436001}, {"type": "node", "id": 10717022236, "lat": 35.0300404, "lon": 34.0435442}, {"type": "node", "id": 10717022284, "lat": 35.0276236, "lon": 34.0310513}, {"type": "node", "id": 10717022285, "lat": 35.0276301, "lon": 34.031146}, {"type": "node", "id": 10717022286, "lat": 35.0276537, "lon": 34.0311153}, {"type": "node", "id": 10717022287, "lat": 35.0276829, "lon": 34.0311488}, {"type": "node", "id": 10717386657, "lat": 35.0238897, "lon": 34.0380514}, {"type": "node", "id": 10717386658, "lat": 35.0238086, "lon": 34.0379649}, {"type": "node", "id": 10717386659, "lat": 35.023787, "lon": 34.037995}, {"type": "node", "id": 10717386660, "lat": 35.0236627, "lon": 34.0378622}, {"type": "node", "id": 10717386661, "lat": 35.0235996, "lon": 34.0379503}, {"type": "node", "id": 10717386662, "lat": 35.0237149, "lon": 34.0380734}, {"type": "node", "id": 10717386663, "lat": 35.0236995, "lon": 34.038095}, {"type": "node", "id": 10717386664, "lat": 35.0237896, "lon": 34.0381912}, {"type": "node", "id": 10717401260, "lat": 35.0227236, "lon": 34.0401392}, {"type": "node", "id": 10717401261, "lat": 35.022648, "lon": 34.0402028}, {"type": "node", "id": 10717401262, "lat": 35.0225972, "lon": 34.0401127}, {"type": "node", "id": 10717401263, "lat": 35.0226234, "lon": 34.0400907}, {"type": "node", "id": 10717401264, "lat": 35.0226048, "lon": 34.0400578}, {"type": "node", "id": 10717401265, "lat": 35.0226331, "lon": 34.040034}, {"type": "node", "id": 10717401266, "lat": 35.0226419, "lon": 34.040067}, {"type": "node", "id": 10717401267, "lat": 35.0226698, "lon": 34.0400436}, {"type": "node", "id": 10720496093, "lat": 35.0198005, "lon": 34.0436908}, {"type": "node", "id": 10720496094, "lat": 35.0197141, "lon": 34.0437051}, {"type": "node", "id": 10720496095, "lat": 35.0196716, "lon": 34.0436658}, {"type": "node", "id": 10720496096, "lat": 35.0196665, "lon": 34.0436041}, {"type": "node", "id": 10720496097, "lat": 35.0196899, "lon": 34.0435451}, {"type": "node", "id": 10720496098, "lat": 35.0196577, "lon": 34.0435174}, {"type": "node", "id": 10720496099, "lat": 35.0196511, "lon": 34.0434593}, {"type": "node", "id": 10720496100, "lat": 35.0197485, "lon": 34.0434664}, {"type": "node", "id": 10720496101, "lat": 35.0197741, "lon": 34.0435049}, {"type": "node", "id": 10720496102, "lat": 35.0197763, "lon": 34.0435397}, {"type": "node", "id": 10720496103, "lat": 35.0198327, "lon": 34.0435442}, {"type": "node", "id": 10720496104, "lat": 35.0198759, "lon": 34.04358}, {"type": "node", "id": 10722037409, "lat": 35.0185146, "lon": 34.0451791}, {"type": "node", "id": 10722037410, "lat": 35.0185338, "lon": 34.0451911}, {"type": "node", "id": 10722037417, "lat": 35.0181423, "lon": 34.0447581}, {"type": "node", "id": 10722037418, "lat": 35.0180466, "lon": 34.0448984}, {"type": "node", "id": 10722037423, "lat": 35.0181098, "lon": 34.04472}, {"type": "node", "id": 10722037424, "lat": 35.0181008, "lon": 34.044945}, {"type": "node", "id": 10724015232, "lat": 35.0178601, "lon": 34.0467069, "tags": {"amenity": "cafe", "check_date": "2024-09-28", "cuisine": "coffee_shop", "name": "Deck All Day", "opening_hours": "08:00-22:00", "outdoor_seating": "yes"}}, {"type": "node", "id": 10724015236, "lat": 35.0168906, "lon": 34.0466361}, {"type": "node", "id": 10724015237, "lat": 35.0169126, "lon": 34.0466759}, {"type": "node", "id": 10724015238, "lat": 35.0168648, "lon": 34.0465333}, {"type": "node", "id": 10724015239, "lat": 35.0168478, "lon": 34.0465075}, {"type": "node", "id": 10724015240, "lat": 35.016781, "lon": 34.0465597}, {"type": "node", "id": 10733375525, "lat": 35.0367517, "lon": 34.0350157}, {"type": "node", "id": 10733375526, "lat": 35.0368413, "lon": 34.035101}, {"type": "node", "id": 10733375527, "lat": 35.0367772, "lon": 34.0352015}, {"type": "node", "id": 10733375528, "lat": 35.0366876, "lon": 34.0351163}, {"type": "node", "id": 10735493189, "lat": 35.031352, "lon": 34.0423227}, {"type": "node", "id": 10735493190, "lat": 35.0313359, "lon": 34.0423782}, {"type": "node", "id": 10735493191, "lat": 35.0313127, "lon": 34.0423682}, {"type": "node", "id": 10735493192, "lat": 35.0313288, "lon": 34.0423127}, {"type": "node", "id": 10908357899, "lat": 35.0313204, "lon": 34.0370499, "tags": {"addr:housenumber": "75", "addr:street": "Leoforos Perneras", "amenity": "restaurant", "cuisine": "souvlaki;kebab", "name": "\u03bf \u03c3\u03b5\u03c6\u03c4\u03b1\u03bb\u03ae\u03c2 \u03c3\u03c4\u03b1 \u03ba\u03ac\u03c1\u03b2\u03bf\u03c5\u03bd\u03b1", "opening_hours": "Mo-Su 12:00-03:00", "phone": "+357 94 446 444", "website": "https://www.facebook.com/o.sephtales"}}, {"type": "node", "id": 11004054005, "lat": 35.1257935, "lon": 33.9271326, "tags": {"addr:housenumber": "4WGG+8VW", "addr:postcode": "99450", "addr:street": "Doktorlar Sokak", "amenity": "restaurant", "cuisine": "turkish", "internet_access": "wlan", "name": "Niazi's Restaurants", "opening_hours": "Mo-Su 11:00-23:00", "phone": "+90 392 366 07 77", "website": "https://www.niazis.com/"}}, {"type": "node", "id": 11025770694, "lat": 35.0112103, "lon": 34.0568309, "tags": {"amenity": "restaurant", "cuisine": "regional", "name": "Nikolas Tavern", "website": "http://www.nicolastavern.com/"}}, {"type": "node", "id": 11025791821, "lat": 35.0129167, "lon": 34.0554753, "tags": {"addr:city": "Protaras", "amenity": "restaurant", "check_date": "2024-09-18", "name": "Molti"}}, {"type": "node", "id": 11027601470, "lat": 35.0251581, "lon": 34.0499235, "tags": {"amenity": "restaurant", "bar": "yes", "check_date": "2024-09-21", "cuisine": "mediterranean", "diet:vegan": "yes", "diet:vegetarian": "yes", "instagram": "montegobeachbar", "mobile": "+357 99 008 500", "name": "Montego", "note": "Opened in June 2023 at former \"Canes Restaurant\" location.", "opening_hours": "Mo-Fr 13:00-01:00; Sa-Su 11:00-02:00", "outdoor_seating": "yes", "phone": "+357 99 008500"}}, {"type": "node", "id": 11207375032, "lat": 35.0169757, "lon": 34.0489782, "tags": {"amenity": "cafe", "check_date": "2024-09-16", "check_date:opening_hours": "2024-05-07", "name": "My Cookie Dough", "note": "Coffee, dessert, ice cream", "opening_hours:signed": "no", "outdoor_seating": "yes", "payment:apple_pay": "yes", "payment:diners_club": "yes", "payment:discover_card": "yes", "payment:google_pay": "yes", "payment:jcb": "yes", "payment:maestro": "yes", "payment:mastercard": "yes", "payment:unionpay": "yes", "payment:visa": "yes", "wheelchair": "limited"}}, {"type": "node", "id": 11209944839, "lat": 35.0152353, "lon": 34.0527859, "tags": {"amenity": "restaurant", "check_date": "2024-09-18", "cuisine": "asian", "name": "Lemongrass", "outdoor_seating": "yes", "source": "survey", "wheelchair": "yes"}}, {"type": "node", "id": 11209944841, "lat": 35.0149485, "lon": 34.0533093, "tags": {"amenity": "restaurant", "check_date": "2024-09-18", "name": "Braseiro Steakhouse"}}, {"type": "node", "id": 11209944843, "lat": 35.0147011, "lon": 34.0531787, "tags": {"amenity": "cafe", "check_date": "2024-09-18", "name": "cafe amarena", "note": "Coffee, cake, ice cream"}}, {"type": "node", "id": 11212077023, "lat": 35.0200919, "lon": 34.0499635, "tags": {"addr:housenumber": "27", "addr:street": "Lefkollas", "amenity": "cafe", "branch": "Protaras", "check_date": "2024-09-17", "contact:facebook": "https://www.facebook.com/profile.php?id=100090832102356", "cuisine": "coffee_shop", "email": "secondcupprotaras@outlook.com", "name": "Second Cup Coffee Company", "not:brand:wikidata": "Q862180", "opening_hours": "Fr-Tu 08:00-00:00; We-Th 09:00-00:00", "phone": "+357 23 823 399", "takeaway": "yes", "website": "https://wolt.com/en/cyp/ammochostos/restaurant/second-cup-protaras"}}, {"type": "node", "id": 11220913929, "lat": 35.0134793, "lon": 34.0548999, "tags": {"amenity": "restaurant", "check_date": "2024-09-18", "cuisine": "italian", "name": "ciacco", "note": "Pizza, Pasta, Cocktails", "source": "survey"}}, {"type": "node", "id": 11224626243, "lat": 35.0074607, "lon": 34.060989, "tags": {"amenity": "cafe", "check_date": "2023-09-28", "name": "Patisserie Amelie (Sunrise Jade)", "note": "Only open during the summer season.", "opening_hours": "Mo-Su 09:00-00:00", "outdoor_seating": "yes", "website": "https://www.sunrise.com.cy/en/hotels/pearl-spa/restaurants/patisserie-amelie"}}, {"type": "node", "id": 11226767106, "lat": 35.0394193, "lon": 33.9836774, "tags": {"amenity": "cafe", "check_date": "2024-09-23", "name": "Coffee Lab", "opening_hours": "07:00-22:30", "phone": "+357 23 822012"}}, {"type": "node", "id": 11287947738, "lat": 35.3285843, "lon": 34.0601703}, {"type": "node", "id": 11288074840, "lat": 35.3286254, "lon": 34.0601746}, {"type": "node", "id": 11288074841, "lat": 35.3286575, "lon": 34.0597518}, {"type": "node", "id": 11288074842, "lat": 35.3283835, "lon": 34.0597163}, {"type": "node", "id": 11288074843, "lat": 35.3283535, "lon": 34.0601462}, {"type": "node", "id": 11307449352, "lat": 34.9889466, "lon": 33.9668737, "tags": {"amenity": "cafe"}}, {"type": "node", "id": 11664764966, "lat": 35.1150231, "lon": 33.9549904, "tags": {"amenity": "cafe"}}, {"type": "node", "id": 11668689020, "lat": 35.1215754, "lon": 33.9400975, "tags": {"amenity": "restaurant", "indoor_seating": "yes", "name": "Fa Kabob", "outdoor_seating": "yes"}}, {"type": "node", "id": 11781124269, "lat": 35.1221632, "lon": 33.9393838, "tags": {"amenity": "cafe", "name:en": "Garga Inn"}}, {"type": "node", "id": 11880910197, "lat": 35.1174326, "lon": 33.9547275, "tags": {"amenity": "cafe"}}, {"type": "node", "id": 11880910202, "lat": 35.1029024, "lon": 33.964304, "tags": {"amenity": "cafe"}}, {"type": "node", "id": 11880910206, "lat": 35.1178158, "lon": 33.9545728, "tags": {"amenity": "restaurant"}}, {"type": "node", "id": 12010593684, "lat": 35.0433502, "lon": 34.0308061}, {"type": "node", "id": 12010593685, "lat": 35.0434496, "lon": 34.0308997}, {"type": "node", "id": 12010593686, "lat": 35.0433199, "lon": 34.0311053}, {"type": "node", "id": 12010593687, "lat": 35.0432205, "lon": 34.0310117}, {"type": "node", "id": 12192784134, "lat": 35.0154554, "lon": 34.0533521, "tags": {"amenity": "restaurant", "check_date": "2024-09-22", "name": "Reef American Grill & Sports Bar"}}, {"type": "node", "id": 12202963347, "lat": 34.989909, "lon": 34.0013357, "tags": {"amenity": "restaurant", "cuisine": "asian", "name": "Red Ruby Asian Restaurant"}}, {"type": "node", "id": 12224179142, "lat": 35.0102337, "lon": 34.0578735, "tags": {"addr:housenumber": "457", "addr:street": "Leoforos Cavo Greco", "amenity": "cafe", "check_date": "2024-10-05", "name": "Caf\u00e9 Magic"}}, {"type": "node", "id": 12326117001, "lat": 35.1247201, "lon": 33.9419891, "tags": {"amenity": "cafe", "cuisine": "pizza;coffee_shop;ice_cream", "image": "https://photos.app.goo.gl/fmwqd5GSXgrZXwvu9", "internet_access": "wlan", "internet_access:fee": "customers", "name": "Mardo", "outdoor_seating": "yes"}}, {"type": "node", "id": 12326117028, "lat": 35.124426, "lon": 33.9441743}, {"type": "node", "id": 12326117029, "lat": 35.1246115, "lon": 33.9441288}, {"type": "node", "id": 12326117030, "lat": 35.1245819, "lon": 33.9440632}, {"type": "node", "id": 12326117037, "lat": 35.1219393, "lon": 33.9399605}, {"type": "node", "id": 12326117038, "lat": 35.1218594, "lon": 33.9398977}, {"type": "node", "id": 12326117039, "lat": 35.1218374, "lon": 33.9398927}, {"type": "node", "id": 12326117040, "lat": 35.1218194, "lon": 33.9399057}, {"type": "node", "id": 12326117041, "lat": 35.1217705, "lon": 33.9400143}, {"type": "node", "id": 12326117042, "lat": 35.1218569, "lon": 33.9400961}, {"type": "node", "id": 12452760754, "lat": 35.040712, "lon": 33.9833833, "tags": {"amenity": "restaurant", "check_date": "2024-12-26", "cuisine": "burger", "internet_access": "wlan", "internet_access:fee": "customers", "name": "Midtown Bistro", "payment:cash": "yes", "payment:mastercard": "yes", "payment:visa": "yes"}}, {"type": "node", "id": 12485253313, "lat": 35.1219531, "lon": 33.9396963, "tags": {"amenity": "restaurant", "contact:instagram": "https://www.instagram.com/oneshot_seafood/", "cuisine": "seafood", "image": "https://photos.app.goo.gl/hnB3TT4dqfnJ8JiW6", "name": "One Shot  seea food"}}, {"type": "node", "id": 12630307420, "lat": 35.1105206, "lon": 33.9354086, "tags": {"amenity": "restaurant", "cuisine": "turkish", "diet:non-vegetarian": "yes", "name": "Bi'D\u00f6ner"}}, {"type": "way", "id": 79766438, "nodes": [931080199, 931080283, 931080767, 931081200, 931081607, 931080496, 931080199], "tags": {"addr:housenumber": "49", "addr:street": "Leoforos Protara", "amenity": "restaurant", "building": "yes", "check_date": "2024-09-18", "name": "Happy Days"}}, {"type": "way", "id": 81179369, "nodes": [945978689, 945979223, 945979043, 945978869, 945978689], "tags": {"amenity": "restaurant", "building": "yes", "check_date": "2024-09-28", "description": "All-Inclusive All You Can Eat International Buffet", "name": "Magic Dancing Water Restaurant", "website": "https://magicdancingwaters.com/en/bar-restaurant/"}}, {"type": "way", "id": 81188798, "nodes": [946001071, 948669396, 946973163, 946001095, 946001071], "tags": {"amenity": "restaurant", "building": "yes", "check_date": "2024-10-03", "check_date:opening_hours": "2024-10-03", "cuisine": "mexican", "diet:vegetarian": "no", "email": "dine@edensquare.com.cy", "name": "El Chico", "note": "Closed during winter season.", "opening_hours:signed": "no", "phone": "+357 23 819 444;+357 96 211 028", "website": "https://www.edensquare.com.cy/"}}, {"type": "way", "id": 81191913, "nodes": [946023980, 946023924, 946023959, 946023967, 946023972, 946023983, 946023913, 946023928, 946023936, 946023951, 946023980], "tags": {"amenity": "restaurant", "building": "yes", "check_date": "2024-09-18", "name": "Island Affair"}}, {"type": "way", "id": 81256977, "nodes": [946750015, 946750009, 946750029, 946749959, 946750015], "tags": {"amenity": "cafe", "building": "yes", "check_date": "2024-09-08", "name": "Penguin"}}, {"type": "way", "id": 81309600, "nodes": [7724476286, 947267526, 947267829, 947267339, 947267691, 947267472, 7724476286], "tags": {"amenity": "restaurant", "building": "yes", "check_date": "2024-09-16", "cuisine": "greek", "email": "vangelistavern@gmail.com", "name": "Vangelis Tavern", "name:el": "\u03a4\u03b1\u03b2\u03ad\u03c1\u03bd\u03b1 \u0392\u03b1\u03b3\u03b3\u03b5\u03bb\u03b7\u03c2", "phone": "+357 23 821456", "website": "https://www.facebook.com/VangelisTavern/"}}, {"type": "way", "id": 81309624, "nodes": [947267371, 947267430, 947267756, 947267259, 947267371], "tags": {"addr:housenumber": "24", "addr:street": "Leoforos Protara", "amenity": "restaurant", "branch": "Protaras", "brand": "Pizza Hut", "brand:wikidata": "Q191615", "building": "yes", "check_date": "2024-09-18", "cuisine": "pizza", "name": "Pizza Hut", "phone": "+357 77 77 77 77", "website": "https://www.pizzahut.com.cy/"}}, {"type": "way", "id": 81446195, "nodes": [948919520, 948919400, 948919500, 948919243, 948919315, 948919343, 948919273, 948919340, 948919294, 948919374, 948919462, 948919520], "tags": {"amenity": "restaurant", "check_date": "2024-09-22", "cuisine": "italian", "diet:vegetarian": "yes", "name": "La Piazza"}}, {"type": "way", "id": 81446207, "nodes": [948919326, 948919518, 5235901947, 5235901946, 948919368, 948919437, 948919326], "tags": {"amenity": "restaurant", "building": "yes", "name": "Fig Tree Bay"}}, {"type": "way", "id": 81558449, "nodes": [950713609, 950713556, 950713579, 950713534, 950713494, 950713456, 950713609], "tags": {"amenity": "restaurant", "building": "yes", "check_date": "2024-09-22", "cuisine": "regional", "description": "Sushi Bar", "diet:vegetarian": "yes", "name": "Folio"}}, {"type": "way", "id": 81558453, "nodes": [950713479, 950713532, 950713491, 950713434, 950713587, 950713553, 6635680792, 950713512, 950713594, 950713479], "tags": {"addr:housenumber": "69", "addr:street": "Leoforos Protara", "amenity": "cafe", "brand": "Starbucks", "brand:wikidata": "Q37158", "brand:wikipedia": "en:Starbucks", "building": "yes", "check_date": "2024-09-18", "cuisine": "coffee_shop", "name": "Starbucks", "official_name": "Starbucks Coffee", "opening_hours": "Mo-Fr 08:30-22:30; Sa-Su 08:30-23:30", "outdoor_seating": "yes", "takeaway": "yes"}}, {"type": "way", "id": 81756276, "nodes": [952464069, 952464339, 10724015236, 10724015237, 952464518, 952464197, 10724015240, 10724015239, 10724015238, 952464069], "tags": {"addr:street:en": "Protaras - Cape Greco Avenue", "addr:streetnumber": "360", "amenity": "restaurant", "building": "yes", "check_date": "2024-09-16", "email": "faoutas6@gmail.com", "name": "Nameless Bar & Restaurant", "phone": "+357 99 273957", "website": "https://www.facebook.com/NamelessBarAndRestaurant/"}}, {"type": "way", "id": 82134142, "nodes": [948919500, 956400915, 950713553, 950713587, 950713434, 950713491, 950713532, 950713479, 956400965, 956400986, 956400935, 956400948, 948919345, 948919250, 948919315, 948919243, 948919500], "tags": {"amenity": "restaurant", "building": "yes", "check_date": "2024-09-22", "cuisine": "chinese", "name": "Wan Chai", "opening_hours": "Mo-Fr 17:00-24:00"}}, {"type": "way", "id": 82226270, "nodes": [957286317, 957286225, 957286341, 957286114, 957286241, 957286363, 957286317], "tags": {"amenity": "restaurant", "building": "yes", "name": "Ambeli Taverna"}}, {"type": "way", "id": 82619459, "nodes": [961530240, 961530780, 961529055, 961529701, 961529522, 961530125, 961530267, 961528935, 961529994, 961530814, 961530429, 961529218, 961530240], "tags": {"amenity": "restaurant", "building": "yes", "check_date": "2023-02-15", "image": "https://imgur.com/a/uyGuFh0", "name": "Mikrolimano", "note": "The restaurant is permanently closed."}}, {"type": "way", "id": 82681578, "nodes": [962316643, 962316518, 10722037409, 10722037410, 962315962, 962316010, 962316254, 962316691, 962316643], "tags": {"addr:housenumber": "331", "addr:street": "Leoforos Protara-Cavo Greco", "addr:street:en": "Protaras - Cape Greco Avenue", "amenity": "restaurant", "building": "yes", "check_date": "2024-10-03", "cuisine": "regional;steak_house;international;kebab;greek;chicken;seafood;salad", "description": "Meze & steak house. Mediterranean cuisine.", "diet:beef": "yes", "diet:chicken": "yes", "diet:fish": "yes", "diet:gluten_free": "yes", "diet:local": "yes", "diet:meat": "yes", "diet:non-vegetarian": "yes", "diet:pork": "yes", "diet:seafood": "yes", "diet:vegan": "yes", "diet:vegetarian": "yes", "email": "antonisemily@gmail.com", "instagram": "anatolia_restaurant_1989", "internet_access": "wlan", "internet_access:fee": "customers", "name": "Anatolia Family Restaurant", "opening_hours": "Mo-Fr 17:00-23:00", "payment:american_express": "yes", "payment:cash": "yes", "payment:diners_club": "yes", "payment:jcb": "yes", "payment:mastercard": "yes", "payment:unionpay": "yes", "payment:v_pay": "yes", "payment:visa": "yes", "payment:visa_electron": "yes", "phone": "+357 23 831533", "website": "https://website-9094114366441062015237-restaurant.business.site/", "wheelchair": "yes"}}, {"type": "way", "id": 120447298, "nodes": [1350513705, 1350513735, 2094017741, 2094017735, 2094017737, 1350513679, 1350513599, 1350513621, 1350513620, 1350513624, 1350513705], "tags": {"addr:postcode": "5315", "addr:street": "Leoforos Kappari", "amenity": "restaurant", "building": "yes", "email": "tonys@tonyscyprustavern.com", "name": "Tony's Cyprus Tavern", "opening_hours": "10:00-02:00", "phone": "+357 99 561379", "website": "http://www.tonyscyprustavern.com/"}}, {"type": "way", "id": 120457821, "nodes": [1350643035, 1350643039, 1350643030, 1350643029, 1320654053, 1350643035], "tags": {"amenity": "restaurant", "building": "yes", "name": "Twilight"}}, {"type": "way", "id": 132117125, "nodes": [1453994714, 1453994728, 1453994646, 1453994663, 1453994714], "tags": {"amenity": "restaurant", "building": "yes", "internet_access": "wlan", "name": "Costas Taverna"}}, {"type": "way", "id": 132449181, "nodes": [5268768159, 1456995995, 1456996001, 1456995953, 5268768159], "tags": {"addr:street": "Archiepiskopou Makariou III", "amenity": "restaurant", "brand": "Hard Rock Cafe", "brand:wikidata": "Q918151", "building": "yes", "cuisine": "american", "name": "Hard Rock Cafe", "name:ru": "Hard rock cafe", "opening_hours": "Mo-Su 10:00-00:00", "source": "Kaart Ground Survey 2017"}}, {"type": "way", "id": 223916363, "nodes": [2327596370, 2327596372, 2327596369, 2327596371, 2327596370], "tags": {"addr:housenumber": "35", "addr:street": "Leoforos Protara", "amenity": "restaurant", "building": "yes", "check_date": "2024-09-18", "cuisine": "italian", "name": "Marcello\u2019s", "outdoor_seating": "yes", "source": "survey"}}, {"type": "way", "id": 238315353, "nodes": [948449026, 2461619631, 2461619632, 2461619633, 948449117, 948449026], "tags": {"amenity": "restaurant", "building": "yes", "check_date": "2024-09-18", "cuisine": "italian", "name": "Il Basilico"}}, {"type": "way", "id": 282348542, "nodes": [2862770715, 10717022236, 10717022235, 2862770716, 2862770719, 2862770717, 2862770718, 2862770715], "tags": {"amenity": "restaurant", "building": "yes", "name": "Polyxenia Isaak Restaurant"}}, {"type": "way", "id": 369167063, "nodes": [3729811853, 1449521147]}, {"type": "way", "id": 369167068, "nodes": [1449521147, 3730320680]}, {"type": "way", "id": 369224212, "nodes": [3729811840, 3729811853]}, {"type": "way", "id": 369224220, "nodes": [3730320680, 3730320681, 3730320679, 3730320678, 3730320675, 3729811840]}, {"type": "way", "id": 369740631, "nodes": [2095646008, 3735097393, 2095646019, 3735080712, 3735080713, 3735097378, 3735080710, 3735080711, 3735097403, 2095646008], "tags": {"amenity": "restaurant", "building": "yes", "name": "Royal Olympic - Main Resturant"}}, {"type": "way", "id": 377543758, "nodes": [3809236445, 3809236446, 5764484342, 5764484341, 5764484340, 5764484343, 3809236447, 3809236448, 3809236445], "tags": {"amenity": "restaurant", "building": "yes", "check_date": "2024-09-27", "cuisine": "regional", "name": "Meze house", "name:ru": "Meze house"}}, {"type": "way", "id": 396559854, "nodes": [3993711116, 3993722117, 3993722116, 3993722115, 3993722111, 3993722107, 3993722109, 3993722106, 3993722108, 3993722110, 3993711116], "tags": {"amenity": "restaurant", "building": "yes", "cuisine": "turkish", "image": "https://photos.app.goo.gl/ygEYJLLqYFP6Qm2C9", "name": "Petek Pastahanesi;Petek Pastanesi", "outdoor_seating": "yes", "phone": "+903923667104", "shop": "pastry", "takeaway": "yes", "website": "https://www.petekpastahanesi.com/"}}, {"type": "way", "id": 396560076, "nodes": [3993721914, 3993721916, 3993721905, 3993721903, 3993721914], "tags": {"amenity": "cafe", "building": "yes", "name": "Neon Faliron"}}, {"type": "way", "id": 423860942, "nodes": [4233799890, 4233799892, 4233799901, 4233799896, 4233799894, 4233799890], "tags": {"amenity": "restaurant", "building": "hotel", "internet_access": "no", "name": "Jacaranda Restaurant", "operator": "Jacaranda Hotel Apts"}}, {"type": "way", "id": 427848585, "nodes": [4270237682, 4270237684, 4270237685, 4270237686, 4270237687, 4270237688, 4270237689, 4270237690, 4270237682], "tags": {"abandoned": "yes", "amenity": "restaurant", "building": "yes", "name": "Lion House"}}, {"type": "way", "id": 428286426, "nodes": [4274096768, 4274096769, 4274096770, 4274096771, 4274096772, 4274096773, 8981654738, 4274096768]}, {"type": "way", "id": 444663380, "nodes": [4421258553, 9887696675, 9887696676, 9887696677, 9887696678, 4421258551, 4421258549, 9887696674, 9887696673, 4421258550, 4421258553], "tags": {"amenity": "restaurant", "building": "yes", "cuisine": "italian", "name": "Ravioli's"}}, {"type": "way", "id": 483037825, "nodes": [4757952232, 4757952233, 4757952234, 4757952235, 4757952236, 4757952237, 4757952238, 4757952239, 4757952240, 4757952241, 4757952242, 4757952243, 4757952244, 4757952245, 4757952246, 4757952232], "tags": {"amenity": "restaurant", "building": "yes", "name": "George Zefkas Family Restaurant"}}, {"type": "way", "id": 483041642, "nodes": [4757981344, 4757981345, 4757981346, 4757981347, 4757981348, 4757981349, 4757981350, 4757981351, 4757981352, 4757981353, 4757981354, 4757981355, 4757981356, 4757981357, 4757981358, 4757981359, 4757981360, 4757981344], "tags": {"addr:city": "protaras", "addr:street:en": "Protaras - Cape Greco Avenue", "addr:streetnumber": "346", "amenity": "restaurant", "building": "yes", "check_date": "2024-09-16", "cuisine": "american", "diet:chicken": "yes", "diet:meat": "yes", "diet:vegetarian": "yes", "name": "Red Indian", "note": "Closed during winter season.", "opening_hours": "Mo-Su 16:00-24:00", "phone": "+357 23 833275", "website": "https://www.facebook.com/pages/Red-Indian/260259750664841"}}, {"type": "way", "id": 483505482, "nodes": [2903655765, 4762532531, 10717022216, 10717022213, 4762532536, 4762532537, 2903655765], "tags": {"amenity": "restaurant", "building": "yes", "cuisine": "international", "description": "Restaurant has its own swimming pool and is situated 50 meters from the beach.\nOpen for breakfast lunch and dinner.\nMenu features international and local favourites.\nCatering for special occasions, birthdays, wedding receptions, child christening etc.", "email": "bluespicerestaurant@gmail.com", "name": "Blue Spice Restaurant", "note": "Open all year round.", "phone": "+357 23 832088", "website": "http://www.bluespicerestaurant.com/"}}, {"type": "way", "id": 483509400, "nodes": [4762579523, 4762579524, 4762579525, 4762579526, 10722037424, 10722037418, 10722037417, 10722037423, 4762579523], "tags": {"addr:street:name": "Dionisiou", "addr:streetnumber": "2-4", "amenity": "restaurant", "building": "yes", "building:levels": "1", "check_date": "2024-09-16", "cuisine": "greek", "description": "Family restaurant serving traditional and authentic Cypriot cuisine.", "name": "To Nissiotiko Tavern", "note": "Open all year round.", "outdoor_seating": "yes", "phone": "+357 99 688167", "toilets": "yes", "website": "https://www.facebook.com/tonissiotiko/"}}, {"type": "way", "id": 485006005, "nodes": [4777547011, 4777547012, 10717022287, 10717022286, 10717022285, 4777547013, 10717022284, 4777547014, 4777547011], "tags": {"amenity": "cafe", "building": "yes", "building:levels": "2", "email": "loukoumades.panikkos@gmail.com", "name": "Panikkos Loukoumades", "name:el": "\u03a0\u03b1\u03bd\u03b9\u03ba\u03ba\u03bf\u03c2 \u039b\u03bf\u03b8\u03ba\u03bf\u03b8\u03bc\u03ac\u03b4\u03b5\u03c2", "opening_hours": "Tu,We,Th,Sa,Su 14:30-21:00", "outdoor_seating": "yes", "phone": "+357 99 684815", "website": "https://www.facebook.com/loukoumades.panikkos/"}}, {"type": "way", "id": 485023191, "nodes": [4777789042, 4777789043, 4777789044, 9592364822, 9592364821, 4777789045, 4777789042], "tags": {"amenity": "restaurant", "building": "yes", "check_date": "2024-09-21", "cuisine": "greek;grill;barbecue", "diet:vegetarian": "yes", "internet_access": "wlan", "kids_area": "yes", "kids_area:outdoor": "yes", "name": "Zafeiros Bar & Restaurant", "note": "Closed during winter season.", "opening_hours": "Su-Th 09:30-23:00; Fr-Sa 09:30-23:30", "phone": "+357 99 335 859;+357 99 364 842", "website": "https://zafeiros-snack-bar.business.site/"}}, {"type": "way", "id": 485531852, "nodes": [4783129317, 4783129318, 4783129319, 4783129320, 4783129721, 4783129722, 4783129317], "tags": {"amenity": "restaurant", "building": "yes", "check_date": "2024-09-17", "description": "Mandali hotel's restaurant offers rich breakfast buffet and a dinner buffet with a variety of international cuisine, salads and desserts. Range of dishes from the \u00e0 la carte menu available during the day. Open for non-residents.", "name": "Mandali Restaurant", "note": "Closed during winter season.", "opening_hours": "Mo-Su 07:00-21:00", "website": "https://mandalihotel.com/restaurant.html"}}, {"type": "way", "id": 516307353, "nodes": [5040457377, 5040457374, 5040457375, 5040457376, 5040457377], "tags": {"amenity": "restaurant", "building": "yes", "name": "Nissaki"}}, {"type": "way", "id": 528704152, "nodes": [5137336048, 5137336049, 5137336050, 5137336051, 5137336052, 5137336053, 5137336048], "tags": {"amenity": "restaurant", "building": "yes", "check_date": "2024-09-16", "name": "Rocas Experience", "note": "Former location (pre-2023) of \"Nissiotis Restaurant\".", "opening_hours": "Mo-We 09:00-17:00; Th-Su 09:00-01:00", "phone": "+357 97 511 000", "website": "https://rocasexperience.com/"}}, {"type": "way", "id": 534513282, "nodes": [5183553963, 5183553964, 5183553965, 5183553966, 5183553963], "tags": {"amenity": "restaurant", "building": "yes", "cuisine": "burger;fish_and_chips;hot_dog", "outdoor_seating": "yes", "smoking": "outside", "takeaway": "yes"}}, {"type": "way", "id": 541467846, "nodes": [5235900294, 5235900295, 5235900296, 5235900297, 5235900298, 5235900299, 5235900300, 5235900301, 5235900302, 5235900303, 5235900304, 5235900305, 5235900306, 5235900294], "tags": {"amenity": "restaurant", "building": "yes", "name": "a lot of small restaurants", "name:de": "Zefkas George Family Restaurant"}}, {"type": "way", "id": 541682149, "nodes": [5237710985, 5237710986, 5237710987, 5237710988, 5237710985], "tags": {"amenity": "restaurant", "building": "yes", "name": "Wedding Restaurant Alexia"}}, {"type": "way", "id": 545109108, "nodes": [5268768150, 5268768151, 5268768152, 5268768153, 5268768150], "tags": {"addr:street": "Katalimaton", "amenity": "restaurant", "building": "yes", "name": "Myriama", "source": "Kaart Ground Survey 2017"}}, {"type": "way", "id": 551088601, "nodes": [5322251655, 5322262482, 5322251656, 5322251657, 5322251658, 5322251659, 5322251660, 5322251661, 5322262480, 5322251662, 5322251655], "tags": {"amenity": "restaurant", "building": "yes", "delivery": "no", "outdoor_seating": "yes", "smoking": "outside"}}, {"type": "way", "id": 553693096, "nodes": [5344304224, 5344390853, 5344390854, 5344390855, 5344390856, 5344390857, 5344390858, 10702690712, 5344304224], "tags": {"amenity": "restaurant", "building": "yes", "check_date": "2024-09-21", "cuisine": "regional;chicken;fish;seafood;mediterranean", "email": "dicapilla@gmail.com", "internet_access": "wlan", "kids_area": "yes", "kids_area:outdoor": "yes", "name": "Di Capilla", "name:en": "Di Capilla", "note": "Kitchen closes at 22:30", "opening_hours": "09:00-24:00", "phone": "+357 23 831295", "website": "https://www.dicapilla.com/"}}, {"type": "way", "id": 690871301, "nodes": [6482188699, 6482188700, 6482188701, 6482188702, 6482188703, 6482188704, 6482188699], "tags": {"abandoned": "yes", "amenity": "restaurant", "building": "yes", "name": "Alasia"}}, {"type": "way", "id": 690880743, "nodes": [6482267196, 6482267197, 6482267198, 6482267199, 6482267200, 6482267201, 6482267202, 6482267196], "tags": {"abandoned": "yes", "amenity": "cafe", "building": "yes", "name": "Edelweiss Cafe"}}, {"type": "way", "id": 700549631, "nodes": [6578733292, 6578733293, 6578733294, 6578733295, 10697529913, 10697529914, 10697529910, 10697529909, 4777773763, 4777773762, 4777773761, 6578733296, 10697529915, 10697529916, 10697529917, 10697529918, 10697529919, 10697529920, 6578733297, 6578733298, 6578733300, 6578733299, 6578733292], "tags": {"amenity": "restaurant", "building": "hotel", "name": "Thalassa"}}, {"type": "way", "id": 702204283, "nodes": [6594268084, 6594303885, 6594303886, 6594303887, 6594268084], "tags": {"abandoned": "yes", "amenity": "restaurant", "building": "yes", "name": "Gazima\u011fusa Belediye Plaj B\u00fcfesi"}}, {"type": "way", "id": 719470792, "nodes": [6754184665, 9797120821, 6754184664, 6754184663, 6754184662, 6754184665], "tags": {"amenity": "restaurant", "building": "yes", "name": "Koralli Seafood"}}, {"type": "way", "id": 738353301, "nodes": [6913791667, 6913791668, 6913791669, 6913791670, 6913791671, 6913791672, 6913791673, 6913791674, 6913791675, 6913791676, 6913791677, 6913791667], "tags": {"amenity": "restaurant", "building": "yes", "check_date": "2024-09-18", "internet_access": "wlan", "internet_access:fee": "no", "name": "The Love Boat"}}, {"type": "way", "id": 970517346, "nodes": [4274096768, 8981654733, 8981654734, 8981654735, 8981654736, 8981654739, 8981654740, 8981654741, 8981654742, 8981654737, 8981654738, 4274096768]}, {"type": "way", "id": 972995125, "nodes": [9005655411, 9005655412, 9005655413, 9005655414, 9005655415, 9005655416, 9005722717, 9005722718, 9005722719, 9005655411], "tags": {"amenity": "restaurant", "building": "yes", "name": "Tost Kral\u0131"}}, {"type": "way", "id": 1066975800, "nodes": [9797120648, 9798402400, 9797120647, 9797120604, 9797120646, 9797120645, 2451623955, 2451623954, 9797120648], "tags": {"amenity": "restaurant", "building": "roof", "indoor_seating": "no", "layer": "1", "name": "Ammochostos Restaurant", "outdoor_seating": "yes"}}, {"type": "way", "id": 1066975802, "nodes": [9797120656, 9797120655, 9797120654, 9797120653, 9797120656], "tags": {"amenity": "restaurant", "building": "roof", "layer": "1", "name": "Golden Sands Italian"}}, {"type": "way", "id": 1133147753, "nodes": [10565116985, 10565116986, 10565116987, 10565116988, 10565116985], "tags": {"amenity": "cafe", "building": "yes", "building:levels": "1", "name": "Konnos Bay Caf\u00e9", "outdoor_seating": "yes"}}, {"type": "way", "id": 1136499983, "nodes": [5609308721, 10594498812, 10594498813, 10594498814, 10594498815, 10594498816, 10594498817, 10594498818, 10594498819, 10594498820, 10594498821, 10594498822, 10594498823, 10594498824, 10594498825, 10594498826, 10594498827, 10594498828, 5609308721], "tags": {"amenity": "restaurant", "building": "yes", "cuisine": "greek;fish;regional", "internet_access": "wlan", "name": "\u03a4\u03b1\u03b2\u03ad\u03c1\u03bd\u03b1 \u0394\u03b7\u03bc\u03ae\u03c4\u03c1\u03b9\u03bf\u03bd", "name:el": "\u03a4\u03b1\u03b2\u03ad\u03c1\u03bd\u03b1 \u0394\u03b7\u03bc\u03ae\u03c4\u03c1\u03b9\u03bf\u03bd", "name:en": "Demetrion Tavern", "name:ru": "\u0414\u0435\u043c\u0435\u0442\u0440\u0438\u043e\u043d", "opening_hours": "Mo-Su 09:00-00:00", "phone": "99 323403"}}, {"type": "way", "id": 1145239312, "nodes": [10658564285, 10658564286, 10658564287, 10658564288, 10658564289, 10658564290, 10658564285], "tags": {"amenity": "restaurant", "building": "yes", "note": "Building in disrepair."}}, {"type": "way", "id": 1145239317, "nodes": [10658593208, 10658593209, 10658593210, 10658593211, 10658593212, 10658593213, 10658593214, 10658593215, 10658593208], "tags": {"amenity": "cafe", "building": "yes", "cuisine": "coffee_shop", "name": "Mikel Pernera", "note": "Closed during winter season.", "outdoor_seating": "yes", "phone": "+357 23 722 192", "website": "https://www.mikelcy.com/"}}, {"type": "way", "id": 1145239319, "nodes": [10658593235, 10658593236, 10658593237, 10658593238, 10658593235], "tags": {"amenity": "cafe", "building": "yes", "cuisine": "bubble_tea", "name": "Bubble Island Cyprus", "note": "Closed during winter season.", "phone": "+357 99 747 250", "website": "https://www.facebook.com/bubbleislandcyprus/"}}, {"type": "way", "id": 1145239320, "nodes": [10658593239, 10658593240, 10658593241, 10658593242, 10658593239], "tags": {"amenity": "cafe", "branch": "Marlita (Kiosk)", "brand": "Costa", "brand:wikidata": "Q608845", "building": "yes", "cuisine": "coffee_shop", "name": "Costa", "outdoor_seating": "yes", "phone": "+357 23 833 235", "takeaway": "yes", "website": "https://www.costacoffee.com.cy/"}}, {"type": "way", "id": 1145429530, "nodes": [10659640073, 10659640074, 10659640075, 10659640076, 10659640077, 10659640078, 10659640079, 10659640080, 10659640081, 10659640073], "tags": {"amenity": "restaurant", "building": "yes", "check_date": "2024-09-16", "name": "Evalena Restaurant & Bar"}}, {"type": "way", "id": 1145429534, "nodes": [10659640100, 10659640101, 10659640102, 10659640103, 10659640100], "tags": {"amenity": "cafe", "building": "yes", "check_date": "2024-09-21", "cuisine": "coffee_shop;ice_cream;juice", "name": "Mokador", "note": "Closed during winter season."}}, {"type": "way", "id": 1145429543, "nodes": [10659666645, 10659666646, 10659666647, 10659666648, 10659666645], "tags": {"amenity": "cafe", "branch": "Vrissiana (Kiosk)", "brand": "Costa", "brand:wikidata": "Q608845", "building": "yes", "check_date": "2024-09-15", "cuisine": "coffee_shop", "name": "Costa", "note": "Closed during winter season.", "takeaway": "yes", "website": "https://www.costacoffee.com.cy/"}}, {"type": "way", "id": 1145429548, "nodes": [10659666681, 10659666682, 10659666683, 10659666684, 947267930, 10659666681], "tags": {"amenity": "restaurant", "building": "yes", "check_date": "2023-09-22", "cuisine": "greek", "layer": "1", "name": "Traditional Tavern", "note": "Lunch & dinner. Closed during winter months."}}, {"type": "way", "id": 1149714114, "nodes": [10695424439, 10695424440, 10695424441, 10695424442, 10695424439], "tags": {"amenity": "restaurant", "building": "yes", "name": "Anais Bay Hotel Restaurant", "note": "Closed during winter season."}}, {"type": "way", "id": 1149938479, "nodes": [10697529952, 10697529953, 10697529954, 10697529955, 10697529952], "tags": {"amenity": "restaurant", "building": "yes", "check_date": "2024-09-21", "diet:vegetarian": "yes", "name": "Sunprime Hotel Restaurant", "note": "Closed during winter season.Food from 12 to 5", "opening_hours": "10:30-17:00", "operator": "Sunprime", "phone": "+357 99 565622"}}, {"type": "way", "id": 1151599177, "nodes": [10712848403, 10712848404, 10712848405, 10712848406, 10712848407, 10712848408, 10712848403], "tags": {"amenity": "restaurant", "building": "yes", "cuisine": "greek", "name": "SEK", "name:el": "\u03a3\u0395\u039a"}}, {"type": "way", "id": 1151681769, "nodes": [10713575421, 10713575424, 10713575422, 10713575423, 10713575421], "tags": {"amenity": "restaurant", "building": "yes", "cuisine": "seafood", "name": "\u03a0\u03b1\u03c1\u03ac\u03b3\u03ba\u03b1", "name:en": "Paragka Ayia Triada Beach", "note": "Closed during the off-season.", "opening_hours": "Mo-Su 08:00-24:00", "phone": "+357 99 637625", "website": "https://www.facebook.com/paragka.ayiatriadabeach/"}}, {"type": "way", "id": 1152222325, "nodes": [10717386657, 10717386658, 10717386659, 10717386660, 10717386661, 10717386662, 10717386663, 10717386664, 10717386657], "tags": {"addr:street:en": "Protaras - Cape Greco Avenue", "addr:streetnumber": "288", "amenity": "restaurant", "building": "yes", "cuisine": "greek", "name": "Saint Elias", "phone": "+357 23 833119", "website": "https://www.facebook.com/tavernst.elias/"}}, {"type": "way", "id": 1152222337, "nodes": [10717401260, 10717401261, 10717401262, 10717401263, 10717401264, 10717401265, 10717401266, 10717401267, 10717401260], "tags": {"addr:street:en": "Protaras - Cape Greco Avenue", "addr:streetnumber": "303", "amenity": "restaurant", "building": "yes", "name": "Mandalena Hotel Restaurant", "website": "http://www.mandalenahotel.com/facilities/"}}, {"type": "way", "id": 1152599742, "nodes": [10720496093, 10720496094, 10720496095, 10720496096, 10720496097, 10720496098, 10720496099, 10720496100, 10720496101, 10720496102, 10720496103, 10720496104, 10720496093], "tags": {"amenity": "cafe", "building": "yes", "name": "Golf & Coffee"}}, {"type": "way", "id": 1154091038, "nodes": [10733375525, 10733375526, 10733375527, 10733375528, 10733375525], "tags": {"addr:street": "Pinias", "addr:streetnumber": "59", "amenity": "restaurant", "building": "yes", "cuisine": "greek", "name": "To Limani", "name:el": "\u03a4\u03bf \u039b\u03b9\u03bc\u03ac\u03bd\u03b9", "phone": "+357 23 100103", "website": "https://restaurantguru.com/To-limani-ths-Pinias-Paralimni"}}, {"type": "way", "id": 1154328062, "nodes": [10735493189, 10735493190, 10735493191, 10735493192, 10735493189], "tags": {"amenity": "cafe", "brand": "Costa", "brand:wikidata": "Q608845", "building": "yes", "cuisine": "coffee_shop", "image": "https://imgur.com/a/cZA1eQE", "name": "Costa", "note": "This kiosk is closed during winter season.", "takeaway": "yes"}}, {"type": "way", "id": 1218202995, "nodes": [11288074840, 11288074841, 11288074842, 11288074843, 11287947738, 11288074840], "tags": {"amenity": "restaurant", "building": "yes"}}, {"type": "way", "id": 1296164875, "nodes": [12010593684, 12010593685, 12010593686, 12010593687, 12010593684], "tags": {"amenity": "restaurant", "building": "yes", "cuisine": "regional", "name": "Basilikos Restaurant"}}, {"type": "way", "id": 1332258912, "nodes": [12326117028, 7102100079, 12326117029, 12326117030, 12326117028], "tags": {"air_conditioning": "no", "amenity": "restaurant", "building": "yes", "cuisine": "kebab", "diet:mediterranean": "yes", "internet_access": "no", "name": "Fikretin Yeri", "outdoor_seating": "yes", "smoking": "yes"}}, {"type": "way", "id": 1332258914, "nodes": [12326117037, 12326117038, 12326117039, 12326117040, 12326117041, 12326117042, 12326117037], "tags": {"amenity": "cafe", "building": "yes", "cuisine": "coffee_shop", "internet_access": "wlan", "internet_access:fee": "customers", "name": "Tatl\u0131 Hayat", "outdoor_seating": "yes"}}, {"type": "relation", "id": 5485841, "members": [{"type": "way", "ref": 369167063, "role": "outer"}, {"type": "way", "ref": 369224220, "role": "outer"}, {"type": "way", "ref": 369224212, "role": "outer"}, {"type": "way", "ref": 369167068, "role": "outer"}], "tags": {"amenity": "cafe", "name": "Frankie's Bar and Grill", "type": "multipolygon"}}, {"type": "relation", "id": 13056901, "members": [{"type": "way", "ref": 970517346, "role": "outer"}, {"type": "way", "ref": 428286426, "role": "outer"}], "tags": {"amenity": "restaurant", "building": "yes", "name": "Famagusta Tavern", "type": "multipolygon"}}]}