{"version": 0.6, "generator": "Overpass API 0.7.62.7 375dc00a", "osm3s": {"timestamp_osm_base": "2025-06-14T14:33:06Z", "copyright": "The data included in this document is from www.openstreetmap.org. The data is made available under ODbL."}, "elements": [{"type": "node", "id": 1129834522, "lat": 39.1569689, "lon": 20.2271161}, {"type": "node", "id": 1129834747, "lat": 39.15705, "lon": 20.2270769}, {"type": "node", "id": 1129835543, "lat": 39.1569614, "lon": 20.2269905}, {"type": "node", "id": 1129836111, "lat": 39.1569121, "lon": 20.2272128}, {"type": "node", "id": 1129836423, "lat": 39.1568605, "lon": 20.2271625}, {"type": "node", "id": 1129837014, "lat": 39.1570058, "lon": 20.2271522}, {"type": "node", "id": 1340874442, "lat": 39.1986583, "lon": 20.1854777}, {"type": "node", "id": 1821255527, "lat": 39.193609, "lon": 20.1932889, "tags": {"amenity": "restaurant", "name": "Klis"}}, {"type": "node", "id": 1821257269, "lat": 39.1609567, "lon": 20.2234397, "tags": {"amenity": "restaurant"}}, {"type": "node", "id": 2320017481, "lat": 39.1818023, "lon": 20.2056563}, {"type": "node", "id": 2320017482, "lat": 39.1818658, "lon": 20.2055832}, {"type": "node", "id": 2320017483, "lat": 39.1819185, "lon": 20.2058241}, {"type": "node", "id": 2320017484, "lat": 39.181982, "lon": 20.205751}, {"type": "node", "id": 3141399485, "lat": 39.1956749, "lon": 20.1891143}, {"type": "node", "id": 3141399486, "lat": 39.195693, "lon": 20.1889901}, {"type": "node", "id": 3141399489, "lat": 39.1957431, "lon": 20.1890309}, {"type": "node", "id": 3141399490, "lat": 39.1957472, "lon": 20.1890033}, {"type": "node", "id": 3141399494, "lat": 39.1957678, "lon": 20.1889287}, {"type": "node", "id": 3141399497, "lat": 39.1957759, "lon": 20.1888726}, {"type": "node", "id": 3141399501, "lat": 39.1957908, "lon": 20.1890424}, {"type": "node", "id": 3141399502, "lat": 39.195806, "lon": 20.188938}, {"type": "node", "id": 3141399503, "lat": 39.1958078, "lon": 20.1888803}, {"type": "node", "id": 3141399504, "lat": 39.1958122, "lon": 20.1888496}, {"type": "node", "id": 3141399508, "lat": 39.195842, "lon": 20.1891548}, {"type": "node", "id": 3141399513, "lat": 39.1958839, "lon": 20.188867}, {"type": "node", "id": 3141399581, "lat": 39.1975551, "lon": 20.1860865, "tags": {"amenity": "cafe"}}, {"type": "node", "id": 3141399585, "lat": 39.1977262, "lon": 20.1856472}, {"type": "node", "id": 3141399590, "lat": 39.1977811, "lon": 20.1855795}, {"type": "node", "id": 3141480824, "lat": 39.1965307, "lon": 20.1863603}, {"type": "node", "id": 3141480826, "lat": 39.1965685, "lon": 20.186242}, {"type": "node", "id": 3141480827, "lat": 39.1965821, "lon": 20.1864307}, {"type": "node", "id": 3141480828, "lat": 39.1965833, "lon": 20.1862964}, {"type": "node", "id": 3141482630, "lat": 39.1966189, "lon": 20.1861779}, {"type": "node", "id": 3141482631, "lat": 39.1966347, "lon": 20.1863667}, {"type": "node", "id": 3141482634, "lat": 39.1966513, "lon": 20.1863506}, {"type": "node", "id": 3141482637, "lat": 39.1967017, "lon": 20.1862865}, {"type": "node", "id": 3141482639, "lat": 39.1967238, "lon": 20.1861434}, {"type": "node", "id": 3141482642, "lat": 39.1967702, "lon": 20.1860905}, {"type": "node", "id": 3141482644, "lat": 39.1967939, "lon": 20.1862461}, {"type": "node", "id": 3141482648, "lat": 39.1968404, "lon": 20.1861932}, {"type": "node", "id": 3141482724, "lat": 39.1985729, "lon": 20.1854406}, {"type": "node", "id": 3141482725, "lat": 39.1986037, "lon": 20.1853701}, {"type": "node", "id": 3141482930, "lat": 39.1986422, "lon": 20.1853963}, {"type": "node", "id": 3141482933, "lat": 39.1986632, "lon": 20.1853475}, {"type": "node", "id": 3141482935, "lat": 39.1986702, "lon": 20.1854714}, {"type": "node", "id": 3141482936, "lat": 39.1987081, "lon": 20.1853765}, {"type": "node", "id": 4266181911, "lat": 39.1982908, "lon": 20.1853702, "tags": {"amenity": "restaurant", "name": "Cafe Italiano"}}, {"type": "node", "id": 4311638191, "lat": 39.1568586, "lon": 20.2287505, "tags": {"amenity": "restaurant", "name": "Bella Vista"}}, {"type": "node", "id": 5081312304, "lat": 39.1969946, "lon": 20.1851772}, {"type": "node", "id": 5081312305, "lat": 39.1970516, "lon": 20.185299}, {"type": "node", "id": 5081312306, "lat": 39.1971024, "lon": 20.1852595}, {"type": "node", "id": 5081312307, "lat": 39.1970455, "lon": 20.1851376}, {"type": "node", "id": 5310383231, "lat": 39.1978815, "lon": 20.1858018, "tags": {"amenity": "cafe", "name": "Taverna del pescatore"}}, {"type": "node", "id": 5310383246, "lat": 39.1988454, "lon": 20.1698614, "tags": {"amenity": "restaurant", "name": "\u039f \u039c\u03c0\u03b9\u03c1\u03bf\u03c2"}}, {"type": "node", "id": 5629285875, "lat": 39.1975259, "lon": 20.1856564, "tags": {"amenity": "cafe", "cuisine": "local;greek", "internet_access": "wlan", "name": "Volcano", "outdoor_seating": "yes"}}, {"type": "node", "id": 6555547835, "lat": 39.1985603, "lon": 20.1706858, "tags": {"amenity": "restaurant", "name": "La Famiglia"}}, {"type": "node", "id": 6559908496, "lat": 39.1973108, "lon": 20.1861266, "tags": {"amenity": "cafe", "name": "Anatoli"}}, {"type": "node", "id": 6570621660, "lat": 39.1976539, "lon": 20.1855409}, {"type": "node", "id": 6570621661, "lat": 39.1977126, "lon": 20.1854773}, {"type": "node", "id": 9123898123, "lat": 39.1974072, "lon": 20.1846702, "tags": {"amenity": "restaurant", "cuisine": "greek", "name": "Visalis", "outdoor_seating": "yes", "reservation": "recommended", "smoking": "outside"}}, {"type": "node", "id": 9123898126, "lat": 39.1975111, "lon": 20.1854253, "tags": {"amenity": "cafe", "description": "Cafe and Bar", "name": "Cafe Kalimera"}}, {"type": "node", "id": 9134778498, "lat": 39.1611954, "lon": 20.2226625, "tags": {"amenity": "restaurant", "cuisine": "greek", "name": "Taverna Spyros"}}, {"type": "node", "id": 9167477217, "lat": 39.1958857, "lon": 20.1886253, "tags": {"amenity": "cafe", "name": "\u0398\u03ac\u03bb\u03b1\u03c3\u03c3\u03b1", "name:el": "\u0398\u03ac\u03bb\u03b1\u03c3\u03c3\u03b1", "name:en": "Thalassa"}}, {"type": "node", "id": 9167917017, "lat": 39.1974301, "lon": 20.1845729, "tags": {"amenity": "restaurant", "name:en": "Vasilis"}}, {"type": "node", "id": 9906222540, "lat": 39.1978254, "lon": 20.1853542, "tags": {"amenity": "restaurant", "name": "Fanalino"}}, {"type": "node", "id": 10026199617, "lat": 39.1981098, "lon": 20.185589, "tags": {"amenity": "restaurant", "name": "\u03c3\u03c4\u03bf \u039b\u03b1\u03b4\u03bf\u03c7\u03b1\u03c1\u03c4\u03bf \u03b1\u03bb\u03b1 \u03a0\u03b1\u03bb\u03b1\u03bd\u03ac", "name:el": "\u03c3\u03c4\u03bf \u039b\u03b1\u03b4\u03bf\u03c7\u03b1\u03c1\u03c4\u03bf \u03b1\u03bb\u03b1 \u03a0\u03b1\u03bb\u03b1\u03bd\u03ac", "name:en": "Ladoharto Grill Bar", "phone": "+30 694 695 6307"}}, {"type": "node", "id": 11920596843, "lat": 39.1968188, "lon": 20.185836, "tags": {"amenity": "restaurant", "cuisine": "italian;pizza", "name": "Blue Grotto", "natural": "tree"}}, {"type": "way", "id": 97595056, "nodes": [1129834747, 1129835543, 1129836423, 1129836111, 1129834522, 1129837014, 1129834747], "tags": {"amenity": "restaurant", "building": "yes", "name": "Voutoumi Taverna"}}, {"type": "way", "id": 223056507, "nodes": [2320017484, 2320017482, 2320017481, 2320017483, 2320017484], "tags": {"amenity": "restaurant", "building": "yes", "cuisine": "greek", "name": "Mongonisi Taverna"}}, {"type": "way", "id": 308848226, "nodes": [3141399513, 3141399504, 3141399503, 3141399497, 3141399494, 3141399502, 3141399501, 3141399489, 3141399490, 3141399486, 3141399485, 3141399508, 3141399513], "tags": {"amenity": "restaurant", "building": "yes", "name": "Genesis"}}, {"type": "way", "id": 308857303, "nodes": [3141482642, 3141482648, 3141482644, 3141482639, 3141482642], "tags": {"amenity": "cafe", "building": "yes", "name": "Cafe Italiano"}}, {"type": "way", "id": 308857304, "nodes": [3141480826, 3141482634, 3141482637, 3141482630, 3141480826], "tags": {"amenity": "restaurant", "building": "yes", "name": "Pan & Theo"}}, {"type": "way", "id": 308857319, "nodes": [3141480824, 3141480828, 3141482631, 3141480827, 3141480824], "tags": {"amenity": "restaurant", "building": "yes", "name": "Mambo"}}, {"type": "way", "id": 308857343, "nodes": [3141482936, 3141482933, 3141482930, 3141482725, 3141482724, 1340874442, 3141482935, 3141482936], "tags": {"amenity": "cafe", "building": "yes", "name": "Athina Bakery"}}, {"type": "way", "id": 521512828, "nodes": [5081312304, 5081312305, 5081312306, 5081312307, 5081312304], "tags": {"amenity": "restaurant", "building": "yes", "name": "Taka Taka"}}, {"type": "way", "id": 699709405, "nodes": [6570621660, 3141399585, 3141399590, 6570621661, 6570621660], "tags": {"amenity": "restaurant", "building": "yes", "cuisine": "greek", "name": "George's Corner"}}]}