{"version": 0.6, "generator": "Overpass API 0.7.62.7 375dc00a", "osm3s": {"timestamp_osm_base": "2025-06-14T13:22:01Z", "copyright": "The data included in this document is from www.openstreetmap.org. The data is made available under ODbL."}, "elements": [{"type": "node", "id": 2144356251, "lat": 36.5564863, "lon": 8.7546262}, {"type": "node", "id": 2144356272, "lat": 36.5565125, "lon": 8.7547141}, {"type": "node", "id": 2144356273, "lat": 36.55655, "lon": 8.7546969}, {"type": "node", "id": 2144356279, "lat": 36.556557, "lon": 8.7545936}, {"type": "node", "id": 2144356284, "lat": 36.5565643, "lon": 8.7547447}, {"type": "node", "id": 2144356288, "lat": 36.5565716, "lon": 8.7546429}, {"type": "node", "id": 2144356297, "lat": 36.5565885, "lon": 8.7547335}, {"type": "node", "id": 2144356299, "lat": 36.5566022, "lon": 8.7546288}, {"type": "node", "id": 2144356300, "lat": 36.5566039, "lon": 8.7547852}, {"type": "node", "id": 2144356307, "lat": 36.5566215, "lon": 8.7546199}, {"type": "node", "id": 2144356315, "lat": 36.5566726, "lon": 8.754694}, {"type": "node", "id": 2144356318, "lat": 36.5566759, "lon": 8.7545948}, {"type": "node", "id": 2144356320, "lat": 36.5566881, "lon": 8.7547463}, {"type": "node", "id": 2144356323, "lat": 36.5567015, "lon": 8.7546806}, {"type": "node", "id": 2833513845, "lat": 36.5043791, "lon": 8.7889711, "tags": {"addr:city": "\u062c\u0646\u062f\u0648\u0628\u0629", "amenity": "cafe"}}, {"type": "node", "id": 2835379709, "lat": 36.4977548, "lon": 8.7780748, "tags": {"addr:city": "\u062c\u0646\u062f\u0648\u0628\u0629", "amenity": "restaurant", "cuisine": "regional", "name": "\u0643\u0644\u064a\u0648\u0628\u0627\u062a\u0631\u0627", "name:ar": "\u0643\u0644\u064a\u0648\u0628\u0627\u062a\u0631\u0627", "name:fr": "Cleopatre"}}, {"type": "node", "id": 3865376130, "lat": 36.450789, "lon": 8.4418709, "tags": {"addr:city": "\u063a\u0627\u0631 \u0627\u0644\u062f\u0645\u0627\u0621", "amenity": "cafe", "name": "\u0645\u0642\u0647\u0649 \u0639\u0627\u062f\u0644", "name:ar": "\u0645\u0642\u0647\u0649 \u0639\u0627\u062f\u0644", "name:en": "Cafe ADEL"}}, {"type": "node", "id": 3865376132, "lat": 36.4510732, "lon": 8.4419278, "tags": {"amenity": "restaurant", "name": "\u062d\u0633\u0646\u064a", "name:ar": "\u062d\u0633\u0646\u064a", "name:en": "Husni"}}, {"type": "node", "id": 3865376133, "lat": 36.4514141, "lon": 8.4410668, "tags": {"amenity": "cafe", "name": "\u064a\u0648\u0633\u0641", "name:ar": "\u064a\u0648\u0633\u0641", "name:en": "Yusuf", "name:fr": "Yousouf"}}, {"type": "node", "id": 3865376134, "lat": 36.4511197, "lon": 8.441123, "tags": {"addr:city": "\u063a\u0627\u0631 \u0627\u0644\u062f\u0645\u0627\u0621", "amenity": "cafe"}}, {"type": "node", "id": 3865376136, "lat": 36.4515241, "lon": 8.440415, "tags": {"addr:city": "\u063a\u0627\u0631 \u0627\u0644\u062f\u0645\u0627\u0621", "amenity": "cafe", "name": "\u062f\u0648\u0644\u0627", "name:ar": "\u062f\u0648\u0644\u0627", "name:en": "doula"}}, {"type": "node", "id": 3865376139, "lat": 36.4500441, "lon": 8.4416033, "tags": {"addr:city": "\u063a\u0627\u0631 \u0627\u0644\u062f\u0645\u0627\u0621", "amenity": "cafe", "name": "\u0648\u062d\u064a\u062f", "name:ar": "\u0648\u062d\u064a\u062f", "name:en": "wahid", "name:fr": "Caf\u00e9 Wahid"}}, {"type": "node", "id": 3865376146, "lat": 36.4484108, "lon": 8.4391705, "tags": {"addr:city": "\u063a\u0627\u0631 \u0627\u0644\u062f\u0645\u0627\u0621", "amenity": "restaurant", "name": "\u0627\u0644\u0631\u062d\u0645\u0629", "name:ar": "\u0627\u0644\u0631\u062d\u0645\u0629", "name:fr": "erahma"}}, {"type": "node", "id": 3865376147, "lat": 36.4478952, "lon": 8.439318, "tags": {"addr:city": "\u063a\u0627\u0631 \u0627\u0644\u062f\u0645\u0627\u0621", "amenity": "restaurant", "name": "\u0627\u0644\u0628\u0631\u0643\u0629", "name:ar": "\u0627\u0644\u0628\u0631\u0643\u0629", "name:fr": "elbaraka"}}, {"type": "node", "id": 3865376149, "lat": 36.4480635, "lon": 8.4395111, "tags": {"addr:city": "\u063a\u0627\u0631 \u0627\u0644\u062f\u0645\u0627\u0621", "amenity": "cafe"}}, {"type": "node", "id": 3865376150, "lat": 36.4474788, "lon": 8.4396667, "tags": {"addr:city": "\u063a\u0627\u0631 \u0627\u0644\u062f\u0645\u0627\u0621", "amenity": "cafe", "name": "\u0627\u0644\u062d\u0628\u064a\u0628", "name:ar": "\u0627\u0644\u062d\u0628\u064a\u0628", "name:fr": "elhabib"}}, {"type": "node", "id": 3865376764, "lat": 36.4469027, "lon": 8.4385965, "tags": {"addr:city": "\u063a\u0627\u0631 \u0627\u0644\u062f\u0645\u0627\u0621", "amenity": "cafe", "name": "\u0645\u0648\u0632\u0627\u064a\u064a\u0643", "name:ar": "\u0645\u0648\u0632\u0627\u064a\u064a\u0643", "name:fr": "mosa\u00efque"}}, {"type": "node", "id": 3865385151, "lat": 36.4482264, "lon": 8.4382532, "tags": {"addr:city": "\u063a\u0627\u0631 \u0627\u0644\u062f\u0645\u0627\u0621", "amenity": "cafe", "name": "\u0645\u0642\u0647\u0649 \u0627\u0644\u0645\u062d\u0637\u0629", "name:ar": "\u0645\u0642\u0647\u0649 \u0627\u0644\u0645\u062d\u0637\u0629", "name:fr": "Caf\u00e9 la care"}}, {"type": "node", "id": 3865385155, "lat": 36.4507161, "lon": 8.4440146, "tags": {"amenity": "cafe", "name": "\u0643\u0627\u0645\u0644", "name:ar": "\u0643\u0627\u0645\u0644", "name:en": "Kamil"}}, {"type": "node", "id": 3865388757, "lat": 36.4505641, "lon": 8.4435151, "tags": {"addr:city": "\u063a\u0627\u0631 \u0627\u0644\u062f\u0645\u0627\u0621", "amenity": "cafe", "name": "\u0627\u0644\u0645\u0642\u0647\u0649 \u0627\u0644\u0631\u0639\u0627\u064a\u0629", "name:ar": "\u0627\u0644\u0645\u0642\u0647\u0649 \u0627\u0644\u0631\u0639\u0627\u064a\u0629", "name:fr": "Caf\u00e9 de la care"}}, {"type": "node", "id": 3865801135, "lat": 36.4509798, "lon": 8.4422956, "tags": {"amenity": "cafe", "name": "\u0635\u0627\u0644\u062d", "name:ar": "\u0635\u0627\u0644\u062d", "name:en": "Salih"}}, {"type": "node", "id": 3865801138, "lat": 36.4490094, "lon": 8.4420902, "tags": {"addr:city": "\u063a\u0627\u0631 \u0627\u0644\u062f\u0645\u0627\u0621", "amenity": "cafe", "name": "\u062c\u0644\u0627\u0644", "name:ar": "\u062c\u0644\u0627\u0644", "name:fr": "jalel"}}, {"type": "node", "id": 3865801143, "lat": 36.4482318, "lon": 8.441092, "tags": {"addr:city": "\u063a\u0627\u0631 \u0627\u0644\u062f\u0645\u0627\u0621", "amenity": "cafe", "name": "\u0628\u0646 \u0633\u0644\u0627\u0645\u0629", "name:ar": "\u0628\u0646 \u0633\u0644\u0627\u0645\u0629", "name:fr": "ben slama"}}, {"type": "node", "id": 3865801145, "lat": 36.450827, "lon": 8.4390082, "tags": {"addr:city": "\u063a\u0627\u0631 \u0627\u0644\u062f\u0645\u0627\u0621", "amenity": "cafe", "name": "\u062d\u0641\u0632\u0646\u064a", "name:ar": "\u062d\u0641\u0632\u0646\u064a", "name:fr": "hafsouni"}}, {"type": "node", "id": 3865802774, "lat": 36.4473936, "lon": 8.4420561, "tags": {"addr:city": "\u063a\u0627\u0631 \u0627\u0644\u062f\u0645\u0627\u0621", "amenity": "cafe"}}, {"type": "node", "id": 3867822186, "lat": 36.449666, "lon": 8.4369303, "tags": {"amenity": "cafe", "name": "\u0643\u0648\u0645\u0631\u0633\u064a\u0648", "name:ar": "\u0643\u0648\u0645\u0631\u0633\u064a\u0648", "name:en": "caumercio"}}, {"type": "node", "id": 3867822194, "lat": 36.4455386, "lon": 8.4345808}, {"type": "node", "id": 3868050453, "lat": 36.4456188, "lon": 8.4367521, "tags": {"addr:city": "\u063a\u0627\u0631 \u0627\u0644\u062f\u0645\u0627\u0621", "amenity": "cafe"}}, {"type": "node", "id": 3868050665, "lat": 36.4463391, "lon": 8.4354674, "tags": {"addr:city": "\u063a\u0627\u0631 \u0627\u0644\u062f\u0645\u0627\u0621", "amenity": "cafe"}}, {"type": "node", "id": 3868050697, "lat": 36.4501227, "lon": 8.4439931, "tags": {"addr:city": "\u063a\u0627\u0631 \u0627\u0644\u062f\u0645\u0627\u0621", "amenity": "cafe", "name": "\u0627\u0644\u0631\u062d\u0648\u064a", "name:ar": "\u0627\u0644\u0631\u062d\u0648\u064a", "name:fr": "Rahoui"}}, {"type": "node", "id": 3868050714, "lat": 36.4486525, "lon": 8.4413522, "tags": {"addr:city": "\u063a\u0627\u0631 \u0627\u0644\u062f\u0645\u0627\u0621", "amenity": "restaurant", "name": "\u0628\u0631\u0627\u064a\u0633", "name:ar": "\u0628\u0631\u0627\u064a\u0633", "name:fr": "birayes"}}, {"type": "node", "id": 3868050726, "lat": 36.4482112, "lon": 8.4412424, "tags": {"amenity": "cafe"}}, {"type": "node", "id": 3870646373, "lat": 36.4470575, "lon": 8.4380896, "tags": {"amenity": "restaurant", "name": "elfadhlaoui"}}, {"type": "node", "id": 3870646375, "lat": 36.4469248, "lon": 8.4378898, "tags": {"amenity": "restaurant"}}, {"type": "node", "id": 4367725789, "lat": 36.6627688, "lon": 8.6813861, "tags": {"addr:city": "\u0641\u0631\u0646\u0627\u0646\u0629", "addr:city:ar": "\u0641\u0631\u0646\u0627\u0646\u0629", "amenity": "cafe", "name": "\u0645\u0642\u0647\u0649 \u0627\u0644\u0641\u062c\u0648\u062c 2", "name:ar": "\u0645\u0642\u0647\u0649 \u0627\u0644\u0641\u062c\u0648\u062c 2", "name:fr": "Cafe el Fjouj 2"}}, {"type": "node", "id": 6873034740, "lat": 36.6599638, "lon": 8.3724011, "tags": {"addr:city": "\u0628\u0648\u0642\u0648\u0633", "alt_name": "\u0642\u0647\u0648\u0629 \u064a\u0639\u0642\u0648\u0628", "alt_name:ar": "\u0642\u0647\u0648\u0629 \u064a\u0639\u0642\u0648\u0628", "amenity": "cafe", "name": "\u0645\u0642\u0647\u0649 \u064a\u0639\u0642\u0648\u0628", "name:ar": "\u0645\u0642\u0647\u0649 \u064a\u0639\u0642\u0648\u0628", "name:fr": "Caf\u00e9 Yacob", "phone": "+213 554 56 79 05"}}, {"type": "node", "id": 6873034741, "lat": 36.6589739, "lon": 8.3695775, "tags": {"addr:city": "\u0628\u0648\u0642\u0648\u0633", "amenity": "cafe", "name": "\u0645\u0642\u0647\u0649 \u0646\u0648\u064a\u0648\u0649 \u0631\u0641\u064a\u0642", "name:ar": "\u0645\u0642\u0647\u0649 \u0646\u0648\u064a\u0648\u0649 \u0631\u0641\u064a\u0642", "name:fr": "Caf\u00e9 Nouiri Rafik", "opening_hours": "24/7", "phone": "+213 771 84 22 24"}}, {"type": "node", "id": 6873034742, "lat": 36.6561964, "lon": 8.371083, "tags": {"addr:city": "\u0628\u0648\u0642\u0648\u0633", "amenity": "restaurant", "name": "\u0645\u0637\u0639\u0645 \u0632\u064a\u0632\u0648", "name:ar": "\u0645\u0637\u0639\u0645 \u0632\u064a\u0632\u0648", "name:fr": "Restaurant Zizou"}}, {"type": "node", "id": 10657910068, "lat": 36.5219649, "lon": 8.4790101, "tags": {"amenity": "cafe", "cuisine": "coffee_shop", "internet_access": "no", "name": "\u0645\u0642\u0647\u064a \u062f\u0648\u0627\u0631 \u0628\u0646 \u064a\u0648\u0633\u0641"}}, {"type": "node", "id": 10968039123, "lat": 36.4996757, "lon": 8.787687, "tags": {"addr:city": "\u062c\u0646\u062f\u0648\u0628\u0629", "addr:postcode": "8100", "addr:street": "Rue Imam Sohnoun, Cit\u00e9 Palmier 2", "amenity": "cafe", "cuisine": "ice_cream;crepe;pancake;waffle", "internet_access": "yes", "internet_access:fee": "no", "name": "Crepe Trip", "opening_hours": "Mo-Su 07:00-00:00", "phone": "+216 23 761 210", "takeaway": "yes", "website": "https://www.facebook.com/TripCrepe"}}, {"type": "node", "id": 10978830183, "lat": 36.4454773, "lon": 8.4345467}, {"type": "node", "id": 10978830204, "lat": 36.4454011, "lon": 8.4344601}, {"type": "node", "id": 10978830784, "lat": 36.4451149, "lon": 8.4339397}, {"type": "node", "id": 10978831145, "lat": 36.4455627, "lon": 8.4346191}, {"type": "node", "id": 10978831812, "lat": 36.4453716, "lon": 8.4343467}, {"type": "node", "id": 10978831908, "lat": 36.4456557, "lon": 8.4345285}, {"type": "node", "id": 10978832745, "lat": 36.4452199, "lon": 8.4338374}, {"type": "node", "id": 10978833053, "lat": 36.445395, "lon": 8.4343238}, {"type": "node", "id": 10978833906, "lat": 36.445464, "lon": 8.4345597}, {"type": "node", "id": 10978833927, "lat": 36.4454506, "lon": 8.4344119}, {"type": "node", "id": 10978836319, "lat": 36.445514, "lon": 8.4346049}, {"type": "node", "id": 12334414329, "lat": 36.5041281, "lon": 8.7645682, "tags": {"amenity": "restaurant", "description": "Street food and restaurant - vegetarian welcome", "name": "Mama Mia Pizzeria"}}, {"type": "way", "id": 204427162, "nodes": [2144356299, 2144356307, 2144356318, 2144356323, 2144356315, 2144356320, 2144356300, 2144356297, 2144356284, 2144356273, 2144356272, 2144356251, 2144356279, 2144356288, 2144356299], "tags": {"amenity": "restaurant", "building": "yes", "name": "Restaurant"}}, {"type": "way", "id": 1182241079, "nodes": [10978832745, 10978830784, 10978831812, 10978833053, 10978833927, 10978830204, 10978833906, 10978830183, 10978836319, 3867822194, 10978831145, 10978831908, 10978832745], "tags": {"addr:city": "\u063a\u0627\u0631 \u0627\u0644\u062f\u0645\u0627\u0621", "amenity": "cafe", "building": "yes", "name": "\u0645\u0642\u0647\u0649 \u0627\u0644\u0635\u064a\u0627\u062f\u064a\u0646", "name:ar": "\u0645\u0642\u0647\u0649 \u0627\u0644\u0635\u064a\u0627\u062f\u064a\u0646", "name:fr": "Caf\u00e9 essayadin", "opening_hours": "24/7", "source": "FB: Algerie Mapper Team"}}]}