{"version": 0.6, "generator": "Overpass API 0.7.62.7 375dc00a", "osm3s": {"timestamp_osm_base": "2025-06-14T15:22:13Z", "copyright": "The data included in this document is from www.openstreetmap.org. The data is made available under ODbL."}, "elements": [{"type": "node", "id": 4404358390, "lat": 41.0074309, "lon": 38.8203381, "tags": {"amenity": "restaurant", "name": "Yusuf'un yeri", "name:tr": "Yusuf'un yeri"}}, {"type": "node", "id": 10057226647, "lat": 41.0079932, "lon": 38.8153455, "tags": {"amenity": "cafe", "name": "Ay\u015feg\u00fcl Bal\u0131k Evi"}}, {"type": "node", "id": 10057226681, "lat": 41.0079407, "lon": 38.8135688, "tags": {"amenity": "restaurant", "name": "Otogar \u00c7ay Evi"}}, {"type": "node", "id": 10057226683, "lat": 41.0078346, "lon": 38.8136716, "tags": {"amenity": "restaurant", "name": "Otogar Lokantas\u0131"}}, {"type": "node", "id": 10057230218, "lat": 41.0073645, "lon": 38.8205655, "tags": {"amenity": "cafe", "name": "Yusufun Yeri Bal\u0131k\u00e7\u0131s\u0131"}}, {"type": "node", "id": 10057230292, "lat": 41.0060686, "lon": 38.8400582, "tags": {"amenity": "cafe", "name": "Uzman pide salonu"}}, {"type": "node", "id": 10057230320, "lat": 41.0044403, "lon": 38.8550396, "tags": {"amenity": "cafe", "name": "Pidecim Tirebolu"}}, {"type": "node", "id": 10068744088, "lat": 40.9710691, "lon": 38.6433448, "tags": {"amenity": "restaurant", "name": "\u00c7amburnu Restoran", "outdoor_seating": "yes"}}, {"type": "node", "id": 10068744099, "lat": 40.9709062, "lon": 38.6429798, "tags": {"amenity": "restaurant", "name": "G\u00fcm\u00fc\u015f Restaurant"}}, {"type": "node", "id": 10608792797, "lat": 40.9814121, "lon": 38.769017, "tags": {"amenity": "restaurant", "name": "Tirebolu 42"}}, {"type": "node", "id": 10617367605, "lat": 41.0369983, "lon": 38.9845441, "tags": {"amenity": "cafe"}}, {"type": "node", "id": 12301255281, "lat": 41.0359833, "lon": 38.981532, "tags": {"amenity": "cafe", "name": "Decorative Art World", "outdoor_seating": "no", "website": "https://www.shopier.com/decorative_art_world"}}]}