{"version": 0.6, "generator": "Overpass API 0.7.62.7 375dc00a", "osm3s": {"timestamp_osm_base": "2025-06-14T13:25:11Z", "copyright": "The data included in this document is from www.openstreetmap.org. The data is made available under ODbL."}, "elements": [{"type": "node", "id": 4117140552, "lat": 34.8603074, "lon": 9.7831068, "tags": {"amenity": "cafe", "internet_access": "yes", "name": "-\u0627\u0644\u0645\u0631\u0643\u0632 \u0627\u0644\u062b\u0642\u0627\u0641\u064a -\u0628\u064a\u062a\u0647\u0648\u0641\u0646", "name:ar": "-\u0627\u0644\u0645\u0631\u0643\u0632 \u0627\u0644\u062b\u0642\u0627\u0641\u064a -\u0628\u064a\u062a\u0647\u0648\u0641\u0646", "name:fr": "Beethoven Center", "smoking": "yes"}}, {"type": "node", "id": 4117140554, "lat": 34.862036, "lon": 9.7844736, "tags": {"amenity": "cafe", "cuisine": "coffee_shop", "internet_access": "no", "name": "\u0645\u0642\u0647\u0649 \u0633\u0645\u0631\u0642\u0646\u062f", "name:ar": "\u0645\u0642\u0647\u0649 \u0633\u0645\u0631\u0642\u0646\u062f", "smoking": "yes"}}, {"type": "node", "id": 4117140555, "lat": 34.8632047, "lon": 9.7835536, "tags": {"amenity": "cafe", "internet_access": "no", "name": "\u0645\u0642\u0647\u0649 \u0627\u0644\u062c\u0648\u0631\u0646\u0627\u0644", "name:ar": "\u0645\u0642\u0647\u0649 \u0627\u0644\u062c\u0648\u0631\u0646\u0627\u0644", "name:fr": "Caf\u00e9 Journal", "smoking": "yes"}}, {"type": "node", "id": 4117140557, "lat": 34.8608788, "lon": 9.7858861, "tags": {"amenity": "cafe", "internet_access": "no", "smoking": "yes"}}, {"type": "node", "id": 4117140567, "lat": 34.8568727, "lon": 9.7850503, "tags": {"amenity": "cafe", "name": "\u0645\u0642\u0647\u064a \u0627\u0644\u062c\u0648\u0643\u0646\u062f\u0627", "name:ar": "\u0645\u0642\u0647\u064a \u0627\u0644\u062c\u0648\u0643\u0646\u062f\u0627"}}, {"type": "node", "id": 4117140573, "lat": 34.8544472, "lon": 9.7836985, "tags": {"amenity": "cafe"}}, {"type": "node", "id": 4117140576, "lat": 34.8532894, "lon": 9.7829421, "tags": {"amenity": "cafe", "name": "\u0645\u0642\u0647\u0649 \u0627\u0644\u0645\u0627\u0644\u0648\u0641", "name:ar": "\u0645\u0642\u0647\u0649 \u0627\u0644\u0645\u0627\u0644\u0648\u0641"}}, {"type": "node", "id": 4117140585, "lat": 34.8561778, "lon": 9.7867606, "tags": {"amenity": "restaurant"}}, {"type": "node", "id": 4117140586, "lat": 34.8559023, "lon": 9.7867561, "tags": {"amenity": "restaurant"}}, {"type": "node", "id": 4117141289, "lat": 34.855808, "lon": 9.7867561, "tags": {"amenity": "cafe"}}, {"type": "node", "id": 4117141290, "lat": 34.8557573, "lon": 9.7863894, "tags": {"amenity": "cafe"}}, {"type": "node", "id": 4117141298, "lat": 34.8571422, "lon": 9.785254, "tags": {"amenity": "restaurant"}}, {"type": "node", "id": 4117141312, "lat": 34.8598651, "lon": 9.786681, "tags": {"amenity": "cafe", "name": "\u0645\u0642\u0647\u0649 \u0625\u0628\u0646 \u062e\u0644\u062f\u0648\u0646", "name:ar": "\u0645\u0642\u0647\u0649 \u0625\u0628\u0646 \u062e\u0644\u062f\u0648\u0646"}}, {"type": "node", "id": 4117141325, "lat": 34.8620125, "lon": 9.7869635, "tags": {"amenity": "cafe", "name": "\u0645\u0642\u0647\u0649 \u0627\u0644\u063a\u0646\u0645", "name:ar": "\u0645\u0642\u0647\u0649 \u0627\u0644\u063a\u0646\u0645"}}, {"type": "node", "id": 4117141339, "lat": 34.8562649, "lon": 9.7950328, "tags": {"amenity": "cafe", "name": "Espace Mandela", "type": "cultural space"}}, {"type": "node", "id": 9383385094, "lat": 35.0442476, "lon": 10.0552181, "tags": {"amenity": "cafe", "name": "Caf\u00e9 Ben Othman"}}, {"type": "node", "id": 9383385095, "lat": 35.0469892, "lon": 10.0415918, "tags": {"amenity": "cafe", "name": "Caf\u00e9 Ennajeh"}}, {"type": "node", "id": 9383385096, "lat": 35.0573418, "lon": 9.9814154, "tags": {"amenity": "cafe", "name": "Caf\u00e9 Erranzez"}}, {"type": "node", "id": 10006741272, "lat": 35.056844, "lon": 9.6513231, "tags": {"amenity": "cafe", "name": "\u0645\u0642\u0647\u0649 \u0627\u0644\u0646\u0648\u0631\u0633", "name:ar": "\u0645\u0642\u0647\u0649 \u0627\u0644\u0646\u0648\u0631\u0633", "name:fr": "Caf\u00e9 Ennawras"}}]}