{"version": 0.6, "generator": "Overpass API 0.7.62.7 375dc00a", "osm3s": {"timestamp_osm_base": "2025-06-14T13:23:06Z", "copyright": "The data included in this document is from www.openstreetmap.org. The data is made available under ODbL."}, "elements": [{"type": "node", "id": 597844159, "lat": 39.31103, "lon": 8.4342787, "tags": {"amenity": "restaurant", "cuisine": "italian", "name": "Al '906 Operaio"}}, {"type": "node", "id": 967042735, "lat": 39.3136847, "lon": 8.5363807, "tags": {"amenity": "cafe", "name": "Carpe Diem"}}, {"type": "node", "id": 1353690615, "lat": 39.2684897, "lon": 8.7710758, "tags": {"amenity": "cafe", "cuisine": "ice_cream", "internet_access": "wlan", "name": "la tana del volo"}}, {"type": "node", "id": 1495512755, "lat": 39.1112667, "lon": 8.3713117}, {"type": "node", "id": 1495514208, "lat": 39.1116507, "lon": 8.3712475}, {"type": "node", "id": 1495514790, "lat": 39.1113481, "lon": 8.3703269}, {"type": "node", "id": 1495514868, "lat": 39.1114567, "lon": 8.3716598}, {"type": "node", "id": 1495514898, "lat": 39.1112797, "lon": 8.3704083}, {"type": "node", "id": 1495516374, "lat": 39.1115667, "lon": 8.3713577}, {"type": "node", "id": 1495516662, "lat": 39.11144, "lon": 8.3704551}, {"type": "node", "id": 1495516732, "lat": 39.1113317, "lon": 8.3718258}, {"type": "node", "id": 1495517960, "lat": 39.1113716, "lon": 8.3705365}, {"type": "node", "id": 1495518009, "lat": 39.1114504, "lon": 8.3719743}, {"type": "node", "id": 1495519209, "lat": 39.1116019, "lon": 8.3718362}, {"type": "node", "id": 1495519611, "lat": 39.1113424, "lon": 8.3714073}, {"type": "node", "id": 1495522741, "lat": 39.111481, "lon": 8.3710296}, {"type": "node", "id": 1767914671, "lat": 39.0679081, "lon": 8.9302493, "tags": {"amenity": "restaurant", "name": "Agriturismo Su Lilloni"}}, {"type": "node", "id": 1787429653, "lat": 39.0457993, "lon": 8.7052373, "tags": {"amenity": "restaurant"}}, {"type": "node", "id": 2013680969, "lat": 39.3018428, "lon": 8.6699573, "tags": {"addr:housenumber": "13", "addr:street": "Via Vittorio Emanuele III", "amenity": "cafe", "name": "Bar Nonna Annetta"}}, {"type": "node", "id": 2019513445, "lat": 39.3143755, "lon": 8.5335154, "tags": {"addr:city": "Iglesias", "addr:country": "IT", "addr:housenumber": "22", "addr:street": "Via Manno", "amenity": "restaurant", "cuisine": "italian;regional", "name": "Pintadera", "phone": "+39 349 5228556"}}, {"type": "node", "id": 2019637265, "lat": 39.313629, "lon": 8.533729, "tags": {"amenity": "cafe", "name": "Caffe Lamarmora"}}, {"type": "node", "id": 2019637266, "lat": 39.3135302, "lon": 8.5322023, "tags": {"addr:city": "Iglesias", "addr:country": "IT", "addr:housenumber": "2", "addr:postcode": "09016", "addr:street": "Piazza Municipio", "amenity": "restaurant", "cuisine": "italian;regional", "name": "Villa di Chiesa", "opening_hours": "Tu-Su", "phone": "+39 078 131641"}}, {"type": "node", "id": 2022043234, "lat": 39.3131311, "lon": 8.5355184, "tags": {"addr:city": "Iglesias", "addr:country": "IT", "addr:housenumber": "21", "addr:postcode": "09016", "addr:street": "Via Giuseppe Musio", "amenity": "restaurant", "cuisine": "italian;regional", "name": "Gazebo il Medioevale", "phone": "+39 328 9519998", "website": "http://www.gazebomedioevale.it"}}, {"type": "node", "id": 2025377469, "lat": 39.3140006, "lon": 8.532531, "tags": {"addr:city": "Iglesias", "addr:country": "IT", "addr:housenumber": "1", "addr:postcode": "09016", "addr:street": "Piazza Collegio", "amenity": "restaurant", "cuisine": "pizza", "name": "Volters & Murion"}}, {"type": "node", "id": 2058918668, "lat": 39.0932279, "lon": 8.7114122, "tags": {"addr:housenumber": "8", "addr:postcode": "09010", "addr:street": "Piazza Repubblica", "amenity": "restaurant", "bar": "no", "changing_table": "no", "cuisine": "italian;pizza;mediterranean;regional", "level": "0", "name": "Ristorante Licu e Giuanniccu", "outdoor_seating": "yes", "toilets:access": "customers"}}, {"type": "node", "id": 2162926182, "lat": 39.1608551, "lon": 8.6129777, "tags": {"amenity": "cafe"}}, {"type": "node", "id": 2162926186, "lat": 39.1612045, "lon": 8.6124547, "tags": {"amenity": "cafe"}}, {"type": "node", "id": 2162935032, "lat": 39.1508176, "lon": 8.6182536, "tags": {"amenity": "restaurant"}}, {"type": "node", "id": 2337672651, "lat": 39.2036398, "lon": 8.3771485, "tags": {"amenity": "restaurant", "name": "La Ghinghetta", "tourism": "hotel"}}, {"type": "node", "id": 2337672656, "lat": 39.2029472, "lon": 8.3820865, "tags": {"amenity": "restaurant", "name": "Al Ristorantino", "website": "http://www.alristorantino.it/"}}, {"type": "node", "id": 2337672657, "lat": 39.2036209, "lon": 8.3802521, "tags": {"amenity": "restaurant", "name": "Don Pedro"}}, {"type": "node", "id": 2337672659, "lat": 39.2042329, "lon": 8.3796718, "tags": {"addr:housenumber": "6", "addr:state": "88", "addr:street": "Via Amerigo Vespucci", "air_conditioning": "yes", "amenity": "restaurant", "check_date": "2024-10-10", "cuisine": "italian;pizza", "delivery": "yes", "highchair": "yes", "internet_access": "wlan", "internet_access:fee": "customers", "kids_area": "no", "level": "0", "microbrewery": "no", "name": "Ristorante Pizzeria Ciccittu", "name:it": "Ristorante Pizzeria Ciccittu", "note": "Pizzeria Pub", "opening_hours": "Mo,We-Su 18:30-23:00; PH closed", "outdoor_seating": "no", "payment:cash": "yes", "payment:mastercard": "yes", "payment:visa": "yes", "reservation": "yes", "self_service": "no", "smoking": "no", "source": "survey", "takeaway": "yes", "toilets": "yes", "toilets:access": "customers", "toilets:wheelchair": "yes", "website:menu": "https://ordini-cloud.com/store/ristorantepizzeriaciccittu", "wheelchair": "yes"}}, {"type": "node", "id": 2338659160, "lat": 39.198283, "lon": 8.3905364, "tags": {"amenity": "cafe"}}, {"type": "node", "id": 2338659210, "lat": 39.1997331, "lon": 8.3893454, "tags": {"amenity": "cafe"}}, {"type": "node", "id": 2429680090, "lat": 39.3132278, "lon": 8.5313056, "tags": {"addr:city": "Iglesias", "addr:postcode": "09016", "addr:street": "Via Don Mirzoni", "amenity": "restaurant", "cuisine": "pizza", "name": "Oasis"}}, {"type": "node", "id": 2431676183, "lat": 39.3136733, "lon": 8.5331115, "tags": {"amenity": "cafe", "name": "Electra Caf\u00e8"}}, {"type": "node", "id": 2438678591, "lat": 39.2028873, "lon": 8.3815792, "tags": {"amenity": "cafe", "name": "Giro di Boa"}}, {"type": "node", "id": 2438678610, "lat": 39.2028317, "lon": 8.3817677, "tags": {"amenity": "cafe", "internet_access": "yes", "internet_access:fee": "no", "name": "Il Faro", "outdoor_seating": "yes"}}, {"type": "node", "id": 2440099033, "lat": 39.2043427, "lon": 8.3783392, "tags": {"amenity": "restaurant", "cuisine": "pizza", "name": "da Guzzo"}}, {"type": "node", "id": 2440099073, "lat": 39.2033584, "lon": 8.3787881, "tags": {"amenity": "restaurant", "name": "Sa Musciara"}}, {"type": "node", "id": 2760854358, "lat": 39.0976652, "lon": 8.5717198}, {"type": "node", "id": 2760854373, "lat": 39.0977019, "lon": 8.5716764}, {"type": "node", "id": 2760854377, "lat": 39.0977079, "lon": 8.5716849}, {"type": "node", "id": 2760854385, "lat": 39.0977386, "lon": 8.5716487}, {"type": "node", "id": 2760854392, "lat": 39.0977622, "lon": 8.5718562}, {"type": "node", "id": 2760854414, "lat": 39.0978296, "lon": 8.5717766}, {"type": "node", "id": 2817567001, "lat": 39.3734757, "lon": 8.3793553}, {"type": "node", "id": 2817582646, "lat": 39.3978715, "lon": 8.4002769, "tags": {"amenity": "cafe", "indoor_seating": "yes", "name": "Bar Fratelli Orru'", "outdoor_seating": "yes", "payment:cash": "yes", "payment:credit_cards": "yes", "payment:debit_cards": "yes"}}, {"type": "node", "id": 2873440063, "lat": 39.1809012, "lon": 8.4874937, "tags": {"amenity": "restaurant"}}, {"type": "node", "id": 2873449289, "lat": 39.1569025, "lon": 8.5398016}, {"type": "node", "id": 2873449292, "lat": 39.1569071, "lon": 8.5398485}, {"type": "node", "id": 2873449342, "lat": 39.1569563, "lon": 8.5398475}, {"type": "node", "id": 2873449351, "lat": 39.1569647, "lon": 8.540103}, {"type": "node", "id": 2873449356, "lat": 39.156968, "lon": 8.5398034}, {"type": "node", "id": 2873449358, "lat": 39.1569706, "lon": 8.5397614}, {"type": "node", "id": 2873449549, "lat": 39.1571174, "lon": 8.5398099}, {"type": "node", "id": 2873449552, "lat": 39.1571182, "lon": 8.5397608}, {"type": "node", "id": 2873449629, "lat": 39.1571811, "lon": 8.539814}, {"type": "node", "id": 2873449650, "lat": 39.1572047, "lon": 8.5400301}, {"type": "node", "id": 2873655695, "lat": 39.3044612, "lon": 8.5702835}, {"type": "node", "id": 2873655714, "lat": 39.3044787, "lon": 8.5701005}, {"type": "node", "id": 2873655728, "lat": 39.3044914, "lon": 8.5700341}, {"type": "node", "id": 2873655741, "lat": 39.3044988, "lon": 8.5701151}, {"type": "node", "id": 2873655764, "lat": 39.304515, "lon": 8.5700421}, {"type": "node", "id": 2873655804, "lat": 39.3045468, "lon": 8.5703135}, {"type": "node", "id": 2873655817, "lat": 39.3045554, "lon": 8.5698614}, {"type": "node", "id": 2873655854, "lat": 39.3045725, "lon": 8.5702075}, {"type": "node", "id": 2873655894, "lat": 39.3045963, "lon": 8.5699591}, {"type": "node", "id": 2873655925, "lat": 39.3046144, "lon": 8.5698853}, {"type": "node", "id": 2873655999, "lat": 39.3046755, "lon": 8.5701233}, {"type": "node", "id": 2873656033, "lat": 39.3047026, "lon": 8.5700091}, {"type": "node", "id": 2873656122, "lat": 39.3047615, "lon": 8.5702812}, {"type": "node", "id": 2873656151, "lat": 39.3047886, "lon": 8.5701725}, {"type": "node", "id": 2982106738, "lat": 39.3923032, "lon": 8.499547}, {"type": "node", "id": 2982106742, "lat": 39.3923247, "lon": 8.499477}, {"type": "node", "id": 2982106752, "lat": 39.3923882, "lon": 8.4995901}, {"type": "node", "id": 2982106755, "lat": 39.3924096, "lon": 8.4995199}, {"type": "node", "id": 2982107289, "lat": 39.4090682, "lon": 8.5278801}, {"type": "node", "id": 2982107291, "lat": 39.4091715, "lon": 8.5276664}, {"type": "node", "id": 2982107292, "lat": 39.4091882, "lon": 8.5280039}, {"type": "node", "id": 2982107294, "lat": 39.4092093, "lon": 8.5276983}, {"type": "node", "id": 2982107296, "lat": 39.4092391, "lon": 8.5278077}, {"type": "node", "id": 2982107298, "lat": 39.4092765, "lon": 8.5278394}, {"type": "node", "id": 2982107299, "lat": 39.4092772, "lon": 8.527611}, {"type": "node", "id": 2982107303, "lat": 39.4093263, "lon": 8.527659}, {"type": "node", "id": 2982210746, "lat": 39.216197, "lon": 8.6649961}, {"type": "node", "id": 2982210747, "lat": 39.2163032, "lon": 8.6649078}, {"type": "node", "id": 2982210748, "lat": 39.2163082, "lon": 8.6652873}, {"type": "node", "id": 2982210749, "lat": 39.2164232, "lon": 8.6651359}, {"type": "node", "id": 2982210750, "lat": 39.2165218, "lon": 8.6650942}, {"type": "node", "id": 2982210751, "lat": 39.2166153, "lon": 8.6650315}, {"type": "node", "id": 2982210752, "lat": 39.2166369, "lon": 8.6653039}, {"type": "node", "id": 2982210753, "lat": 39.2166392, "lon": 8.6652884}, {"type": "node", "id": 2982210754, "lat": 39.2166483, "lon": 8.6652529}, {"type": "node", "id": 2982210755, "lat": 39.2166516, "lon": 8.665204}, {"type": "node", "id": 2982210756, "lat": 39.2166544, "lon": 8.6652913}, {"type": "node", "id": 2982210757, "lat": 39.2166583, "lon": 8.6652535}, {"type": "node", "id": 2982210758, "lat": 39.2166803, "lon": 8.6654661}, {"type": "node", "id": 2982210759, "lat": 39.2166959, "lon": 8.6652075}, {"type": "node", "id": 2982210760, "lat": 39.2167363, "lon": 8.6652964}, {"type": "node", "id": 2982210761, "lat": 39.2167421, "lon": 8.6652391}, {"type": "node", "id": 2982210763, "lat": 39.216795, "lon": 8.6650635}, {"type": "node", "id": 2982210764, "lat": 39.2167954, "lon": 8.6650432}, {"type": "node", "id": 2982210766, "lat": 39.2169538, "lon": 8.6654424}, {"type": "node", "id": 2982210767, "lat": 39.2169601, "lon": 8.6653623}, {"type": "node", "id": 2982210770, "lat": 39.2168952, "lon": 8.6652471}, {"type": "node", "id": 2982210771, "lat": 39.2169057, "lon": 8.6650775}, {"type": "node", "id": 2982513716, "lat": 39.0548638, "lon": 8.6302167}, {"type": "node", "id": 2982513722, "lat": 39.0548962, "lon": 8.6298254}, {"type": "node", "id": 2982513733, "lat": 39.0549916, "lon": 8.6302309}, {"type": "node", "id": 2982513740, "lat": 39.0550248, "lon": 8.6298457}, {"type": "node", "id": 3079258198, "lat": 39.1122498, "lon": 8.3720582, "tags": {"amenity": "cafe", "name": "Kambusa"}}, {"type": "node", "id": 3088283163, "lat": 39.1646927, "lon": 8.5153204, "tags": {"amenity": "restaurant", "name": "Il Vinile"}}, {"type": "node", "id": 3097642583, "lat": 39.3111658, "lon": 8.4369158}, {"type": "node", "id": 3097642584, "lat": 39.3112064, "lon": 8.4369643}, {"type": "node", "id": 3097642587, "lat": 39.3112917, "lon": 8.4368463}, {"type": "node", "id": 3097642588, "lat": 39.3113233, "lon": 8.4370539}, {"type": "node", "id": 3097642590, "lat": 39.3114033, "lon": 8.4368824}, {"type": "node", "id": 3097652171, "lat": 39.4079, "lon": 8.4940035, "tags": {"amenity": "cafe"}}, {"type": "node", "id": 3362109697, "lat": 39.1110135, "lon": 8.52358, "tags": {"addr:city": "Santu Giuanni Su\u00e8rgiu/San Giovanni Suergiu", "addr:city:it": "San Giovanni Suergiu", "addr:city:sc": "Santu Giuanni Su\u00e8rgiu", "addr:housenumber": "5", "addr:postcode": "09010", "addr:street": "Via Vittorio Emanuele", "amenity": "cafe", "cuisine": "burger_panini_bistecca", "name": "Pianeta Blu", "phone": "+39 3204890525"}}, {"type": "node", "id": 3579369708, "lat": 39.3143682, "lon": 8.6136771}, {"type": "node", "id": 3579369709, "lat": 39.3142646, "lon": 8.6134838}, {"type": "node", "id": 3579369710, "lat": 39.3143826, "lon": 8.6133836}, {"type": "node", "id": 3579369711, "lat": 39.3144792, "lon": 8.6135636}, {"type": "node", "id": 3579369712, "lat": 39.314508, "lon": 8.6135576}, {"type": "node", "id": 3579369713, "lat": 39.314533, "lon": 8.6137347}, {"type": "node", "id": 3579369714, "lat": 39.3145131, "lon": 8.6137395}, {"type": "node", "id": 3579369715, "lat": 39.3144532, "lon": 8.614033}, {"type": "node", "id": 3579369716, "lat": 39.314318, "lon": 8.6139874}, {"type": "node", "id": 3579369717, "lat": 39.3143738, "lon": 8.6137113}, {"type": "node", "id": 3596775993, "lat": 39.2617782, "lon": 8.5599609, "tags": {"amenity": "restaurant", "name": "Il Paradiso"}}, {"type": "node", "id": 3628354257, "lat": 39.3627564, "lon": 8.7973667, "tags": {"addr:street": "Corso Roma", "amenity": "restaurant", "name": "Il Tulipano"}}, {"type": "node", "id": 3666784053, "lat": 39.3960574, "lon": 8.4014893, "tags": {"addr:city": "Buggerru", "addr:postcode": "09010", "addr:street": "Via Roma", "amenity": "cafe", "name": "Bar Trattoria"}}, {"type": "node", "id": 3666784054, "lat": 39.3973611, "lon": 8.4003081, "tags": {"addr:housenumber": "98", "addr:street": "Via Roma", "amenity": "restaurant", "cuisine": "pasta;italian;pizza;regional", "name": "La Privilegiata", "opening_hours": "Tu-Su 12:30-15:00, 19:00-22:00", "outdoor_seating": "yes", "payment:credit_cards": "yes", "payment:debit_cards": "yes", "phone": "+39 0781 548030"}}, {"type": "node", "id": 3666784055, "lat": 39.3950562, "lon": 8.402342, "tags": {"addr:city": "Buggerru", "addr:postcode": "09010", "addr:street": "Via Roma", "amenity": "restaurant", "name": "Gastronomia"}}, {"type": "node", "id": 3666784056, "lat": 39.398127, "lon": 8.3999906, "tags": {"addr:city": "Buggerru", "addr:postcode": "09010", "addr:street": "Via Roma", "amenity": "restaurant", "name": "La Baia"}}, {"type": "node", "id": 3763093650, "lat": 39.0577969, "lon": 8.4525429, "tags": {"amenity": "restaurant", "craft": "brewery", "name": "Rubiu"}}, {"type": "node", "id": 4195595950, "lat": 39.4094485, "lon": 8.491748, "tags": {"addr:place": "Localit\u00e0 Su Mannau", "amenity": "restaurant", "cuisine": "regional;fish;meat", "name": "Su Mannau", "outdoor_seating": "yes", "payment:cash": "yes", "payment:credit_cards": "yes", "payment:debit_cards": "yes", "phone": "+39 347 0095367", "website": "http://www.ostellosumannau.com/"}}, {"type": "node", "id": 4266759046, "lat": 39.3116578, "lon": 8.4359259, "tags": {"amenity": "restaurant", "name": "Dal Capitano", "outdoor_seating": "yes"}}, {"type": "node", "id": 4366297590, "lat": 39.164084, "lon": 8.5269446, "tags": {"amenity": "cafe", "name": "Caff\u00e8 Bistr\u00f2"}}, {"type": "node", "id": 4373352185, "lat": 39.1676149, "lon": 8.5255315, "tags": {"amenity": "cafe", "name": "Jo Lounge Bar"}}, {"type": "node", "id": 4374604008, "lat": 39.1664707, "lon": 8.5261899, "tags": {"amenity": "restaurant", "cuisine": "burger", "name": "Dinokebab"}}, {"type": "node", "id": 4413809291, "lat": 39.0794112, "lon": 8.4860389, "tags": {"amenity": "restaurant", "cuisine": "fish;seafood;italian", "name": "Da Silvana", "name:it": "Da Silvana", "opening_hours": "Mo-Su 20:00-00:00"}}, {"type": "node", "id": 4447507531, "lat": 39.3127317, "lon": 8.5351467, "tags": {"amenity": "cafe", "name": "Cafe Novecento"}}, {"type": "node", "id": 4474894873, "lat": 39.1738463, "lon": 8.5255738, "tags": {"addr:city": "Carbonia", "addr:housenumber": "96", "addr:postcode": "09013", "addr:street": "Via Tirso", "amenity": "restaurant", "cuisine": "italian", "name": "Marcos"}}, {"type": "node", "id": 4474909202, "lat": 39.2123498, "lon": 8.4592879, "tags": {"addr:city": "Cortoghiana", "addr:housenumber": "69", "addr:postcode": "09013", "addr:street": "Piazza Venezia", "amenity": "restaurant", "cuisine": "pizza;italian;steak_house", "name": "Alten Keller", "phone": "+39 0781 60065"}}, {"type": "node", "id": 4489075396, "lat": 39.0684318, "lon": 8.4545796, "tags": {"addr:city": "Sant'Antioco", "addr:housenumber": "1", "addr:postcode": "09017", "addr:street": "Corso Vittorio Emanuele", "amenity": "cafe", "name": "Caf\u00e9 Italia", "name:it": "Caf\u00e9 Italia", "website": "https://www.subito.it/uffici-locali-commerciali/locale-commerciale-ex-bar-italia-sud-sardegna-559036922.htm"}}, {"type": "node", "id": 4489077353, "lat": 39.0625574, "lon": 8.4575171, "tags": {"addr:city": "Sant'Antioco", "addr:housenumber": "87", "addr:postcode": "09017", "addr:street": "Via Nazionale", "amenity": "cafe", "name": "Lo Sfizio Sardo"}}, {"type": "node", "id": 4489080849, "lat": 39.0685012, "lon": 8.458753, "tags": {"addr:city": "Sant'Antioco", "addr:housenumber": "72", "addr:postcode": "09017", "addr:street": "Lungomare Cristoforo Colombo", "amenity": "restaurant", "name": "Due Fratelli"}}, {"type": "node", "id": 4494605019, "lat": 39.1026727, "lon": 8.3987814, "tags": {"addr:city": "Calasetta", "addr:housenumber": "1", "addr:postcode": "09011", "addr:street": "Via del Mare", "amenity": "restaurant", "cuisine": "seafood", "name": "Il Gabbiano"}}, {"type": "node", "id": 4496344420, "lat": 39.1621176, "lon": 8.5096407, "tags": {"amenity": "restaurant"}}, {"type": "node", "id": 4813650963, "lat": 39.3734208, "lon": 8.3792675}, {"type": "node", "id": 4813650964, "lat": 39.3733615, "lon": 8.3793295}, {"type": "node", "id": 4813650965, "lat": 39.3734164, "lon": 8.3794173}, {"type": "node", "id": 5072801982, "lat": 39.3137206, "lon": 8.5316986, "tags": {"addr:city": "Iglesias", "addr:housenumber": "42", "addr:postcode": "09016", "addr:street": "Via Repubblica", "amenity": "restaurant", "cuisine": "sardinian", "name": "Sa Matracca", "outdoor_seating": "yes", "phone": "+39 333 8038 607"}}, {"type": "node", "id": 5276511808, "lat": 39.1739289, "lon": 8.7509809}, {"type": "node", "id": 5276511809, "lat": 39.1740397, "lon": 8.7510571}, {"type": "node", "id": 5276551032, "lat": 39.1739058, "lon": 8.7510401}, {"type": "node", "id": 5276551034, "lat": 39.1740219, "lon": 8.7511129}, {"type": "node", "id": 5520268661, "lat": 39.4241427, "lon": 8.8736393, "tags": {"amenity": "restaurant", "contact:email": "orangemoonagriturismo@gmail.com", "contact:phone": "+39 070 9137144", "contact:website": "http://www.orangemoonagriturismo.com", "cuisine": "sardinian", "name": "Agriturismo Orange Moon"}}, {"type": "node", "id": 5525361257, "lat": 39.3953579, "lon": 8.6998046, "tags": {"amenity": "restaurant", "contact:facebook": "https://www.facebook.com/Agriturismo-Il-Pesco-1669336413339119/", "contact:phone": "+39 070 931 4327", "cuisine": "sardinian", "name": "Agriturismo Il Pesco"}}, {"type": "node", "id": 5535753506, "lat": 39.3879639, "lon": 8.5996167, "tags": {"amenity": "restaurant", "contact:email": "info@agriturismo-perdaniedda.com", "contact:phone": "+39 0781 71326;+39 348 540 2841", "contact:website": "http://www.agriturismo-perdaniedda.com/", "cuisine": "sardinian", "name": "Agriturismo Perda Niedda"}}, {"type": "node", "id": 5537220619, "lat": 39.3791874, "lon": 8.493636, "tags": {"amenity": "cafe"}}, {"type": "node", "id": 5566219299, "lat": 39.3370932, "lon": 8.4130755, "tags": {"amenity": "cafe", "name": "Da Zio Lello", "outdoor_seating": "only", "payment:credit_cards": "no", "payment:debit_cards": "no"}}, {"type": "node", "id": 5778717274, "lat": 39.1083992, "lon": 8.3714094, "tags": {"amenity": "restaurant", "name": "Gastronomia \"Mamma fina\"", "opening_hours": "Mo-Su 11:30-14:30,18:00-22:00", "phone": "+39 0781 186 5859", "website": "https://www.facebook.com/GastronomiaMammaFina/"}}, {"type": "node", "id": 5801383606, "lat": 39.3123674, "lon": 8.5387148, "tags": {"addr:city": "Iglesias", "addr:housenumber": "19", "addr:postcode": "09016", "addr:street": "Via Valverde", "amenity": "cafe", "name": "Dolce Risveglio", "phone": "+393883686642"}}, {"type": "node", "id": 5815695419, "lat": 39.1092456, "lon": 8.3719461, "tags": {"amenity": "restaurant", "name": "Trattoria Pasqualino"}}, {"type": "node", "id": 5844598086, "lat": 39.3130804, "lon": 8.5355068, "tags": {"addr:housenumber": "21", "addr:street": "Via Giuseppe Musio", "amenity": "restaurant", "name": "Ristorante Gazebo Medioevale"}}, {"type": "node", "id": 6449845660, "lat": 39.1645595, "lon": 8.514977, "tags": {"amenity": "restaurant", "cuisine": "asian;japanese;sushi", "name": "Origami"}}, {"type": "node", "id": 6481063227, "lat": 39.1569504, "lon": 8.5297988, "tags": {"amenity": "restaurant", "cuisine": "pizza", "name": "Poppy's", "wheelchair": "yes"}}, {"type": "node", "id": 6753168085, "lat": 39.3107301, "lon": 8.5414376, "tags": {"addr:housenumber": "16", "addr:street": "Via Cappuccini", "amenity": "restaurant", "name": "Baddy's"}}, {"type": "node", "id": 6833836890, "lat": 39.4003065, "lon": 8.3990552, "tags": {"amenity": "restaurant", "cuisine": "italian_pizza;seafood", "name": "Stella Maris", "opening_hours": "Mo-Su 13:00-15:00,20:00-23:00", "payment:credit_cards": "yes", "payment:debit_cards": "yes"}}, {"type": "node", "id": 6855805292, "lat": 39.0131021, "lon": 8.4315197}, {"type": "node", "id": 6855805293, "lat": 39.0131049, "lon": 8.4315263}, {"type": "node", "id": 6855805294, "lat": 39.0129538, "lon": 8.4316315}, {"type": "node", "id": 6855805295, "lat": 39.0129473, "lon": 8.4316161}, {"type": "node", "id": 6855805296, "lat": 39.0129351, "lon": 8.4316246}, {"type": "node", "id": 6855805297, "lat": 39.0129267, "lon": 8.4316046}, {"type": "node", "id": 6855805298, "lat": 39.0129102, "lon": 8.4316161}, {"type": "node", "id": 6855805299, "lat": 39.0128436, "lon": 8.4314577}, {"type": "node", "id": 6855805300, "lat": 39.0129441, "lon": 8.4313877}, {"type": "node", "id": 6855805301, "lat": 39.0129872, "lon": 8.4314903}, {"type": "node", "id": 6855805302, "lat": 39.0130135, "lon": 8.431472}, {"type": "node", "id": 6855805303, "lat": 39.0129748, "lon": 8.4313799}, {"type": "node", "id": 6855805304, "lat": 39.0130706, "lon": 8.4313131}, {"type": "node", "id": 6855805305, "lat": 39.0131449, "lon": 8.4314898}, {"type": "node", "id": 6855836343, "lat": 39.0608859, "lon": 8.4595236, "tags": {"addr:city": "Sant'Antioco", "addr:housenumber": "8", "addr:postcode": "09017", "addr:street": "Via Asiago", "amenity": "restaurant", "contact:phone": "+39 078 183 456", "name": "Il Tamarindo", "opening_hours": "19:30-22:30"}}, {"type": "node", "id": 7025470329, "lat": 39.2033216, "lon": 8.6261143}, {"type": "node", "id": 7025470330, "lat": 39.2032426, "lon": 8.6260811}, {"type": "node", "id": 7025470331, "lat": 39.2032206, "lon": 8.6261711}, {"type": "node", "id": 7025470332, "lat": 39.2032904, "lon": 8.6261948}, {"type": "node", "id": 7148636885, "lat": 39.2041937, "lon": 8.3858799, "tags": {"addr:housenumber": "23", "addr:street": "Via Nuoro", "amenity": "restaurant", "name": "l\u2019ancorna"}}, {"type": "node", "id": 7992792528, "lat": 39.3135187, "lon": 8.5349413, "tags": {"amenity": "restaurant", "name": "Jack Potato"}}, {"type": "node", "id": 7992983901, "lat": 39.3133637, "lon": 8.535388, "tags": {"amenity": "restaurant", "name": "Bar Trattoria da Emi", "phone": "3207121240"}}, {"type": "node", "id": 8089509662, "lat": 39.1320299, "lon": 8.4506037, "tags": {"amenity": "cafe"}}, {"type": "node", "id": 8771794948, "lat": 39.3044519, "lon": 8.5455627}, {"type": "node", "id": 8771794949, "lat": 39.3042642, "lon": 8.5455026}, {"type": "node", "id": 8771794950, "lat": 39.3042078, "lon": 8.5457515}, {"type": "node", "id": 8771794951, "lat": 39.3042178, "lon": 8.5458352}, {"type": "node", "id": 8771794952, "lat": 39.3042626, "lon": 8.5458502}, {"type": "node", "id": 8771794953, "lat": 39.3043273, "lon": 8.5458781}, {"type": "node", "id": 8771794954, "lat": 39.3044054, "lon": 8.545758}, {"type": "node", "id": 8772275164, "lat": 39.3027674, "lon": 8.5520192}, {"type": "node", "id": 8772275165, "lat": 39.3026425, "lon": 8.55196}, {"type": "node", "id": 8772275166, "lat": 39.3026218, "lon": 8.5520506}, {"type": "node", "id": 8772275167, "lat": 39.3027773, "lon": 8.5521226}, {"type": "node", "id": 9025997117, "lat": 39.2681176, "lon": 8.4710024, "tags": {"addr:housenumber": "107", "addr:postcode": "09010", "addr:street": "Via Iglesias", "amenity": "restaurant", "name": "S'anninnia", "opening_hours": "Mo-Su 06:00-22:30", "phone": "0039078145132"}}, {"type": "node", "id": 9026925517, "lat": 39.3091772, "lon": 8.5331547, "tags": {"addr:housenumber": "3", "addr:postcode": "09016", "addr:street": "Via Fratelli Bandiera", "amenity": "cafe", "name": "Bar Pizzeria Tiffany"}}, {"type": "node", "id": 9107170142, "lat": 39.021424, "lon": 8.8453233}, {"type": "node", "id": 9107170144, "lat": 39.0212963, "lon": 8.8450851}, {"type": "node", "id": 9107170146, "lat": 39.0214627, "lon": 8.8454776}, {"type": "node", "id": 9107170150, "lat": 39.021347, "lon": 8.8450387}, {"type": "node", "id": 9107170151, "lat": 39.0214126, "lon": 8.8455086}, {"type": "node", "id": 9107170154, "lat": 39.0213724, "lon": 8.8453492}, {"type": "node", "id": 9107170157, "lat": 39.0213848, "lon": 8.8451551}, {"type": "node", "id": 9107170158, "lat": 39.0213533, "lon": 8.8452912}, {"type": "node", "id": 9107170161, "lat": 39.0214087, "lon": 8.845262}, {"type": "node", "id": 9107170163, "lat": 39.0213246, "lon": 8.8451788}, {"type": "node", "id": 9212806226, "lat": 39.2006416, "lon": 8.3831625, "tags": {"amenity": "restaurant", "cuisine": "pizza;italian", "name": "Nutilus"}}, {"type": "node", "id": 9407148775, "lat": 39.3111747, "lon": 8.4368879}, {"type": "node", "id": 9407148776, "lat": 39.3112167, "lon": 8.436954}, {"type": "node", "id": 9407148777, "lat": 39.3112276, "lon": 8.4369725}, {"type": "node", "id": 9859086578, "lat": 39.1085531, "lon": 8.3708526, "tags": {"amenity": "restaurant", "name": "C\u00e0 Taborka"}}, {"type": "node", "id": 9861117289, "lat": 39.0041199, "lon": 8.6419601, "tags": {"amenity": "restaurant", "name": "Lavori in corso"}}, {"type": "node", "id": 9864338793, "lat": 39.1114715, "lon": 8.3712373}, {"type": "node", "id": 9864403223, "lat": 39.1118105, "lon": 8.3715414, "tags": {"amenity": "restaurant", "cuisine": "pizza", "name": "Il Veliero", "outdoor_seating": "yes", "takeaway": "yes"}}, {"type": "node", "id": 9866939960, "lat": 39.0014053, "lon": 8.4268276, "tags": {"amenity": "restaurant", "name": "La Luna nel Pozzo"}}, {"type": "node", "id": 9871754114, "lat": 39.0592796, "lon": 8.462535, "tags": {"amenity": "restaurant", "check_date:opening_hours": "2022-07-06", "cuisine": "regional;seafood;pizza", "full_name": "Ristorante Pizzeria Del Passeggero", "name": "Del Passeggero", "opening_hours": "12:00-15:00,19:40-23:00", "outdoor_seating": "yes", "toilets:wheelchair": "yes", "wheelchair": "yes"}}, {"type": "node", "id": 9955140954, "lat": 39.2499171, "lon": 8.4580915, "tags": {"amenity": "restaurant", "cuisine": "pizza", "name": "Ristorante Pizzeria 13", "phone": "+39 338 9295271"}}, {"type": "node", "id": 9955180336, "lat": 39.2498492, "lon": 8.4580607, "tags": {"amenity": "cafe", "name": "Bar 13", "outdoor_seating": "yes", "payment:cash": "yes", "phone": "+39 338 9295271"}}, {"type": "node", "id": 9959436710, "lat": 39.3721267, "lon": 8.382209, "tags": {"amenity": "cafe", "name": "Su Marxani"}}, {"type": "node", "id": 9961477259, "lat": 39.3734899, "lon": 8.3817738, "tags": {"amenity": "cafe", "cocktails": "yes", "contact:mobile": "+39 351 5256724", "cuisine": "italian;regional", "lunch": "yes", "name": "Oasi Beach lounge bar", "opening_hours": "May 27-Nov 04: sunrise-sunset;Nov 05-May 26: Mo-Th off", "payment:cash": "only", "phone": "+39 0781 1896483"}}, {"type": "node", "id": 10013768081, "lat": 39.3141725, "lon": 8.4369228, "tags": {"amenity": "restaurant", "name": "Pizzeria Mare", "phone": "+393382519169"}}, {"type": "node", "id": 10114989022, "lat": 39.3132817, "lon": 8.5357885, "tags": {"addr:housenumber": "98", "addr:street": "Via Cagliari", "amenity": "restaurant", "check_date": "2022-10-19", "cuisine": "pizza", "name": "Pizzeria Margherita"}}, {"type": "node", "id": 10199236650, "lat": 39.3113534, "lon": 8.4368482}, {"type": "node", "id": 10199236651, "lat": 39.3112357, "lon": 8.4368543}, {"type": "node", "id": 10947332805, "lat": 39.4005272, "lon": 8.4003583, "tags": {"amenity": "restaurant", "email": "aquabuggerru@gmail.com", "name": "AQUA", "phone": "+393515894487"}}, {"type": "node", "id": 10977487607, "lat": 39.0697555, "lon": 8.4512186, "tags": {"amenity": "cafe", "name:de": "Janas Caf\u00e9"}}, {"type": "node", "id": 11160236907, "lat": 39.3115266, "lon": 8.534369, "tags": {"addr:city": "Iglesias", "addr:housenumber": "15", "addr:postcode": "09016", "addr:street": "Via Roma", "amenity": "cafe", "name": "Gatto In Tazza", "theme": "cat", "website": "https://gattointazza.easy-delivery.it/"}}, {"type": "node", "id": 11454011499, "lat": 39.2886085, "lon": 8.4400186, "tags": {"addr:city": "Gonnesa", "addr:place": "Fontanamare", "addr:postcode": "09010", "amenity": "restaurant", "cuisine": "pizza", "name": "Ristorante Pizzeria Fontanamare", "official_name": "Ristorante S'Arrizzoni di Rosy S.r.l.", "outdoor_seating": "yes", "ref:vatin": "IT03302410927"}}, {"type": "node", "id": 11829795969, "lat": 39.0206496, "lon": 8.6385577, "tags": {"amenity": "restaurant", "name": "Ristorante La Perla"}}, {"type": "node", "id": 11889374497, "lat": 39.0489067, "lon": 8.6300594, "tags": {"amenity": "cafe", "name": "Glam Bar"}}, {"type": "node", "id": 11917391301, "lat": 39.0689775, "lon": 8.6344378, "tags": {"addr:housenumber": "65", "addr:street": "V\u00eda Roma", "amenity": "restaurant", "cuisine": "italian", "description": "Ristorante pizzeria", "name": "Su Nuraghe", "opening_hours": "Mo-We, Fr-Su 19:00-23:00", "phone": "+39 0781 964159", "wheelchair": "no"}}, {"type": "node", "id": 11967658769, "lat": 39.3961721, "lon": 8.4014538, "tags": {"amenity": "restaurant", "name": "Nido delle aquile"}}, {"type": "node", "id": 12121978732, "lat": 39.0941467, "lon": 8.7158852, "tags": {"addr:housenumber": "22", "addr:street": "Piazza Guglielmo Marconi", "amenity": "restaurant", "name": "Tinti Milena", "opening_hours": "Tu-Sa 17:00-22:00; Su 09:00-13:00, 17:00-22:00", "phone": "3485516702"}}, {"type": "node", "id": 12121978733, "lat": 39.0918922, "lon": 8.7164392, "tags": {"addr:housenumber": "11", "addr:street": "Via Iglesias", "amenity": "restaurant", "name": "Pizzeria maurreddina", "opening_hours": "Mo-We, Fr-Su 18:00-22:00", "phone": "3791797803"}}, {"type": "node", "id": 12151075624, "lat": 39.2580121, "lon": 8.4595865, "tags": {"amenity": "restaurant", "cuisine": "italian", "name": "Piedra Del Sol Restaurant & Room", "phone": "+39078136394"}}, {"type": "node", "id": 12190969843, "lat": 39.0033775, "lon": 8.6433041, "tags": {"amenity": "restaurant", "name": "Da Vinicio"}}, {"type": "node", "id": 12190983494, "lat": 39.0027265, "lon": 8.6456473, "tags": {"amenity": "restaurant", "name": "L'Angelo"}}, {"type": "node", "id": 12247798691, "lat": 39.321665, "lon": 8.6528963, "tags": {"addr:city": "Domusnovas", "addr:housenumber": "96", "addr:postcode": "09015", "addr:street": "Via Cagliari", "amenity": "cafe", "name": "Old Tropicoasi"}}, {"type": "node", "id": 12247839164, "lat": 39.3206626, "lon": 8.6464521, "tags": {"addr:city": "Domunoas/Domusnovas", "addr:housenumber": "254", "addr:postcode": "09015", "addr:street": "Via Cagliari", "amenity": "restaurant", "name": "Ristorante Temptation", "phone": "+393381852432"}}, {"type": "node", "id": 12247839165, "lat": 39.3201969, "lon": 8.645731, "tags": {"addr:city": "Domunoas/Domusnovas", "addr:housenumber": "129", "addr:postcode": "09015", "addr:street": "Via Cagliari", "amenity": "restaurant", "name": "Ristorante I 4 Mori", "phone": "+393498301614"}}, {"type": "node", "id": 12247839167, "lat": 39.3213221, "lon": 8.647774, "tags": {"addr:city": "Domunoas/Domusnovas", "addr:housenumber": "22", "addr:postcode": "09015", "addr:street": "Corso Repubblica", "amenity": "restaurant", "cuisine": "pizza", "name": "Pizzeria Lelle Domusnovas", "phone": "+39078171184"}}, {"type": "way", "id": 136335813, "nodes": [1495522741, 1495514208, 1495516374, 9864338793, 1495519611, 1495512755, 1495522741], "tags": {"amenity": "restaurant", "building": "yes", "name": "Perla", "opening_hours": "Mo-Su 12:00-15:00,18:30-21:30"}}, {"type": "way", "id": 136336030, "nodes": [1495514868, 1495519209, 1495518009, 1495516732, 1495514868], "tags": {"amenity": "restaurant", "building": "yes", "cuisine": "spaghetti", "name": "Nord Ovest"}}, {"type": "way", "id": 136336158, "nodes": [1495514790, 1495516662, 1495517960, 1495514898, 1495514790], "tags": {"amenity": "restaurant", "building": "yes", "name": "Palomar", "opening_hours": "Mo-Su 12:00-15:00,18:30-21:30"}}, {"type": "way", "id": 271124229, "nodes": [2760854385, 2760854414, 2760854392, 2760854358, 2760854373, 2760854377, 2760854385], "tags": {"amenity": "restaurant", "building": "yes", "name": "Locanda Monserrat", "website": "http://www.locandamonserrat.it"}}, {"type": "way", "id": 283489713, "nodes": [2873449650, 2873449351, 2873449342, 2873449292, 2873449289, 2873449356, 2873449358, 2873449552, 2873449549, 2873449629, 2873449650], "tags": {"amenity": "restaurant", "building": "yes", "name": "La Piazzetta"}}, {"type": "way", "id": 283515328, "nodes": [2873656122, 2873655854, 2873655804, 2873655695, 2873655741, 2873655714, 2873655728, 2873655764, 2873655817, 2873655925, 2873655894, 2873656033, 2873655999, 2873656151, 2873656122], "tags": {"amenity": "restaurant", "building": "yes", "name": "Casa Corrias"}}, {"type": "way", "id": 294618187, "nodes": [2982106752, 2982106738, 2982106742, 2982106755, 2982106752], "tags": {"amenity": "cafe", "building": "yes"}}, {"type": "way", "id": 294620596, "nodes": [2982107303, 2982107296, 2982107298, 2982107292, 2982107289, 2982107291, 2982107294, 2982107299, 2982107303], "tags": {"amenity": "restaurant", "building": "yes", "name": "Agriturismo di Pubusinu"}}, {"type": "way", "id": 294626407, "nodes": [2982210770, 2982210761, 2982210760, 2982210767, 2982210766, 2982210758, 2982210759, 2982210755, 2982210754, 2982210757, 2982210756, 2982210753, 2982210752, 2982210748, 2982210746, 2982210747, 2982210749, 2982210750, 2982210751, 2982210764, 2982210763, 2982210771, 2982210770], "tags": {"amenity": "restaurant", "building": "yes", "name": "Agriturismo Battaglia"}}, {"type": "way", "id": 294660192, "nodes": [2982513733, 2982513716, 2982513722, 2982513740, 2982513733], "tags": {"addr:city": "Masainas", "addr:housenumber": "3", "addr:postcode": "09010", "addr:street": "Via Roma", "amenity": "restaurant", "building": "yes", "cuisine": "pizza", "name": "Sogno Sulcitano"}}, {"type": "way", "id": 305181635, "nodes": [3097642590, 3097642588, 9407148777, 9407148776, 3097642584, 3097642583, 9407148775, 10199236651, 3097642587, 10199236650, 3097642590], "tags": {"addr:city": "Nebida", "addr:housenumber": "16", "addr:postcode": "09016", "addr:street": "Corso Pan di Zucchero", "amenity": "restaurant", "building": "yes", "building:levels": "1", "cuisine": "italian", "height": "5", "name": "L'Oasi", "outdoor_seating": "yes", "wheelchair": "yes"}}, {"type": "way", "id": 352171893, "nodes": [3579369708, 3579369709, 3579369710, 3579369711, 3579369712, 3579369713, 3579369714, 3579369715, 3579369716, 3579369717, 3579369708], "tags": {"addr:city": "Iglesias", "addr:postcode": "09016", "addr:street": "Cuccuru Murtas", "amenity": "restaurant", "building": "yes", "capacity": "12", "cuisine": "regional", "name": "Agriturismo Saludi e Trigu", "phone": "+39 331 3793226", "smoking": "outside", "takeaway": "no", "tourism": "hotel"}}, {"type": "way", "id": 489086587, "nodes": [2817567001, 4813650963, 4813650964, 4813650965, 2817567001], "tags": {"amenity": "cafe", "building": "yes", "cocktails": "yes", "cuisine": "sandwich;salad", "name": "The smile of summer", "opening_hours": "Mo-Su 09:00-19:00", "outdoor_seating": "only", "payment:cash": "only", "phone": "+39 340 9487470"}}, {"type": "way", "id": 545952469, "nodes": [5276511808, 5276511809, 5276551034, 5276551032, 5276511808], "tags": {"amenity": "cafe", "building": "yes", "name": "Bar Acquacadda", "outdoor_seating": "yes", "smoking": "outside"}}, {"type": "way", "id": 732165318, "nodes": [6855805305, 6855805304, 6855805303, 6855805302, 6855805301, 6855805300, 6855805299, 6855805298, 6855805297, 6855805296, 6855805295, 6855805294, 6855805293, 6855805292, 6855805305], "tags": {"amenity": "restaurant", "building": "yes", "name": "Sa Ruscitta", "source:geometry": "Bing Aerial Imagery"}}, {"type": "way", "id": 751504800, "nodes": [7025470329, 7025470330, 7025470331, 7025470332, 7025470329], "tags": {"addr:city": "Terraseo", "addr:housenumber": "34-40", "addr:postcode": "09010", "addr:street": "Via Iglesias Centro", "amenity": "cafe", "building": "yes", "name": "Bar 4 Mori", "outdoor_seating": "yes"}}, {"type": "way", "id": 947668678, "nodes": [8771794948, 8771794949, 8771794950, 8771794951, 8771794952, 8771794953, 8771794954, 8771794948], "tags": {"amenity": "cafe", "building": "yes", "name": "Chiosco sardo"}}, {"type": "way", "id": 947725807, "nodes": [8772275164, 8772275165, 8772275166, 8772275167, 8772275164], "tags": {"amenity": "cafe", "building": "yes", "name": "La Gioconda"}}, {"type": "way", "id": 985077849, "nodes": [9107170150, 9107170157, 9107170161, 9107170142, 9107170146, 9107170151, 9107170154, 9107170158, 9107170163, 9107170144, 9107170150], "tags": {"amenity": "restaurant", "building": "yes", "cuisine": "regional", "name": "Perda Sterria"}}]}