{"version": 0.6, "generator": "Overpass API 0.7.62.7 375dc00a", "osm3s": {"timestamp_osm_base": "2025-06-14T13:54:29Z", "copyright": "The data included in this document is from www.openstreetmap.org. The data is made available under ODbL."}, "elements": [{"type": "node", "id": 261044201, "lat": 35.8592983, "lon": 14.3978972}, {"type": "node", "id": 261044202, "lat": 35.8592061, "lon": 14.3981258}, {"type": "node", "id": 261044203, "lat": 35.8587818, "lon": 14.3981087}, {"type": "node", "id": 261044204, "lat": 35.858747, "lon": 14.3977053}, {"type": "node", "id": 261044205, "lat": 35.8588792, "lon": 14.3976023}, {"type": "node", "id": 261719486, "lat": 35.8277072, "lon": 14.4237338, "tags": {"amenity": "restaurant", "contact:facebook": "https://www.facebook.com/Ta-Rita-Lapsi-view-1491747834398348/", "email": "book@taritalapsiview.co", "name": "Ta' Rita Lapsi View", "phone": "+35679820098", "website": "http://www.taritalapsiview.com/"}}, {"type": "node", "id": 318319101, "lat": 35.8563904, "lon": 14.5592089, "tags": {"amenity": "restaurant", "name": "Beijing"}}, {"type": "node", "id": 387755600, "lat": 35.8678562, "lon": 14.5724549, "tags": {"amenity": "restaurant"}}, {"type": "node", "id": 464709168, "lat": 35.8268495, "lon": 14.4432045, "tags": {"amenity": "restaurant", "name": "\u0126a\u0121ar Qim", "opening_hours": "Tu-Su 10:00-15:00, 19:00-23:00; Mo 10:00-15:00"}}, {"type": "node", "id": 496330625, "lat": 35.859353, "lon": 14.3980454, "tags": {"amenity": "restaurant", "name": "Antica Roma"}}, {"type": "node", "id": 587832393, "lat": 35.8323244, "lon": 14.5339342, "tags": {"amenity": "restaurant", "historic": "yes", "name": "Ferretti"}}, {"type": "node", "id": 655195972, "lat": 35.8728672, "lon": 14.5165644, "tags": {"amenity": "restaurant", "name": "Eda"}}, {"type": "node", "id": 666166231, "lat": 35.8403532, "lon": 14.5484026, "tags": {"amenity": "restaurant", "check_date": "2025-04-17", "name": "Hunters Tower"}}, {"type": "node", "id": 666166273, "lat": 35.8412936, "lon": 14.5454369, "tags": {"addr:city": "Marsaxlokk", "addr:country": "MT", "addr:street": "Xatt Is-Sajjieda", "amenity": "restaurant", "cuisine": "italian", "email": "harbourlightsmalta@gmail.com", "name": "Harbour lights", "website": "https://www.facebook.com/HarbourLightsMT/"}}, {"type": "node", "id": 727319771, "lat": 35.8793216, "lon": 14.509302}, {"type": "node", "id": 727319773, "lat": 35.8793802, "lon": 14.5091509}, {"type": "node", "id": 727319777, "lat": 35.879496, "lon": 14.5094051}, {"type": "node", "id": 727319778, "lat": 35.8795547, "lon": 14.509254}, {"type": "node", "id": 1276538901, "lat": 35.8274519, "lon": 14.4243585, "tags": {"amenity": "restaurant", "name": "Blue Creek Bar & restaurant", "website": "http://www.bluecreekmalta.com/"}}, {"type": "node", "id": 1389238061, "lat": 35.8237591, "lon": 14.5283405, "tags": {"amenity": "restaurant", "cuisine": "pizza"}}, {"type": "node", "id": 1423146632, "lat": 35.8357676, "lon": 14.461086, "tags": {"amenity": "restaurant", "cuisine": "Maltese", "name": "Ta' 31 Maltese Restaurant"}}, {"type": "node", "id": 1426790738, "lat": 35.840891, "lon": 14.5448897, "tags": {"amenity": "restaurant", "cuisine": "regional", "name": "Ir-Rizzu"}}, {"type": "node", "id": 1426810624, "lat": 35.84139, "lon": 14.5451324, "tags": {"amenity": "restaurant", "cuisine": "regional", "name": "Ta' Victor"}}, {"type": "node", "id": 1426810625, "lat": 35.8397418, "lon": 14.5441614, "tags": {"addr:city": "Marsaxlokk", "addr:country": "MT", "addr:housenumber": "89", "addr:street": "Xatt is-Sajjieda", "amenity": "restaurant", "name": "Pisces", "phone": "+356 99821491", "website": "http://www.piscesrestaurantmalta.com/"}}, {"type": "node", "id": 1426810626, "lat": 35.8413922, "lon": 14.5452397, "tags": {"amenity": "restaurant", "name": "Duncan"}}, {"type": "node", "id": 1426810634, "lat": 35.8411021, "lon": 14.5449937, "tags": {"addr:city": "Marsaxlokk", "addr:country": "MT", "addr:street": "Triq iz-Zejtun", "alt_name": "Costa Coffee", "amenity": "cafe", "brand": "Costa", "brand:wikidata": "Q608845", "brand:wikipedia": "en:Costa Coffee", "cuisine": "coffee_shop", "diet:vegetarian": "yes", "internet_access": "wlan", "internet_access:fee": "no", "name": "Costa", "opening_hours": "Mo-Fr 08:30-19:30; Sa-Su 08:30-21:30", "owner": "The Coffee Company Malta Limited", "phone": "+356 2165 3760", "takeaway": "yes", "toilets:wheelchair": "no", "website": "https://www.costamalta.com/", "wheelchair": "yes"}}, {"type": "node", "id": 1428099596, "lat": 35.8233571, "lon": 14.5288596, "tags": {"addr:housename": "Renos restaurant and guest house", "addr:housenumber": "1", "addr:street": "Triq San Patrizju", "amenity": "restaurant", "cuisine": "fish", "name": "Reno's Bar & Restaurant", "website": "http://renosguesthouse.wix.com/renos-guest-house"}}, {"type": "node", "id": 1450520758, "lat": 35.8398738, "lon": 14.5441892, "tags": {"addr:city": "Marsaxlokk", "addr:country": "MT", "addr:housenumber": "87", "addr:street": "Xatt is-Sajjieda", "amenity": "restaurant", "cuisine": "fish", "name": "la Nostra Padrona", "phone": "+3562766772"}}, {"type": "node", "id": 1499750823, "lat": 35.8615099, "lon": 14.5604627, "tags": {"amenity": "restaurant", "name": "Pizzeria dell Etna"}}, {"type": "node", "id": 1511615552, "lat": 35.8627393, "lon": 14.5616309}, {"type": "node", "id": 1511615870, "lat": 35.8628669, "lon": 14.5620226}, {"type": "node", "id": 1511615897, "lat": 35.8629094, "lon": 14.5618611}, {"type": "node", "id": 1511615948, "lat": 35.8626651, "lon": 14.5619719}, {"type": "node", "id": 1511616106, "lat": 35.8628714, "lon": 14.5616664}, {"type": "node", "id": 1574415133, "lat": 35.8539278, "lon": 14.3796003}, {"type": "node", "id": 1574415139, "lat": 35.8537385, "lon": 14.379662}, {"type": "node", "id": 1574415334, "lat": 35.8588005, "lon": 14.3724146}, {"type": "node", "id": 1574415360, "lat": 35.858972, "lon": 14.3726854}, {"type": "node", "id": 1574415442, "lat": 35.8587853, "lon": 14.3725407}, {"type": "node", "id": 1574415459, "lat": 35.8588543, "lon": 14.3727745}, {"type": "node", "id": 1574415478, "lat": 35.8538397, "lon": 14.3797516}, {"type": "node", "id": 1574415495, "lat": 35.858759, "lon": 14.3724681}, {"type": "node", "id": 1574415594, "lat": 35.8538266, "lon": 14.3795107}, {"type": "node", "id": 1609109211, "lat": 35.851131, "lon": 14.4998595, "tags": {"addr:street": "Triq Bir Miftuh", "amenity": "restaurant", "name": "Ta' Scicluna Farmhouse", "name:en": "Ta' Scicluna Farmhouse"}}, {"type": "node", "id": 1725063118, "lat": 35.8538044, "lon": 14.5317747}, {"type": "node", "id": 2086997075, "lat": 35.8491557, "lon": 14.4958799, "tags": {"amenity": "cafe", "name": "Dr. Juice"}}, {"type": "node", "id": 2086997079, "lat": 35.8492204, "lon": 14.495172, "tags": {"amenity": "restaurant", "brand": "Hard Rock Cafe", "brand:wikidata": "Q918151", "brand:wikipedia": "en:Hard Rock Cafe", "check_date": "2023-02-10", "cuisine": "american", "level": "1", "name": "Hard Rock Cafe", "wheelchair": "yes"}}, {"type": "node", "id": 2283862463, "lat": 35.8690886, "lon": 14.4654671, "tags": {"amenity": "restaurant", "cuisine": "regional", "name": "Cavett"}}, {"type": "node", "id": 2299203347, "lat": 35.8407233, "lon": 14.5447513, "tags": {"amenity": "restaurant", "name": "La Capanna"}}, {"type": "node", "id": 2482976423, "lat": 35.8609564, "lon": 14.3829928, "tags": {"amenity": "restaurant", "name": "1640"}}, {"type": "node", "id": 2515131190, "lat": 35.8517441, "lon": 14.493989, "tags": {"amenity": "cafe", "brand": "McCaf\u00e9", "brand:wikidata": "Q3114287", "brand:wikipedia": "en:McCaf\u00e9", "cuisine": "coffee_shop", "name": "McCaf\u00e9", "operator:wikidata": "Q38076", "operator:wikipedia": "en:McDonald's", "takeaway": "yes"}}, {"type": "node", "id": 2619449286, "lat": 35.8197104, "lon": 14.4535139, "tags": {"amenity": "restaurant"}}, {"type": "node", "id": 2649926720, "lat": 35.8237715, "lon": 14.5290759, "tags": {"amenity": "restaurant", "name": "marinella"}}, {"type": "node", "id": 2810493345, "lat": 35.8716404, "lon": 14.4414609, "tags": {"amenity": "cafe", "name": "Lungo"}}, {"type": "node", "id": 2810493359, "lat": 35.8718245, "lon": 14.4402218, "tags": {"amenity": "cafe", "name": "Pancake Parlour"}}, {"type": "node", "id": 2810493361, "lat": 35.8718656, "lon": 14.4416063, "tags": {"amenity": "restaurant"}}, {"type": "node", "id": 2971228908, "lat": 35.8786255, "lon": 14.4830739, "tags": {"amenity": "cafe", "name": "The Cake Box"}}, {"type": "node", "id": 3110077772, "lat": 35.8237349, "lon": 14.5288927, "tags": {"amenity": "cafe", "name": "Bite size"}}, {"type": "node", "id": 3110077774, "lat": 35.8238684, "lon": 14.5285476, "tags": {"amenity": "restaurant", "internet_access": "yes", "internet_access:fee": "yes", "name": "Ta' \u0120or\u0121", "smoking": "yes"}}, {"type": "node", "id": 3110077775, "lat": 35.8238619, "lon": 14.528742, "tags": {"amenity": "restaurant", "cuisine": "regional", "internet_access": "yes", "internet_access:fee": "no", "name": "Chiaro", "smoking": "yes"}}, {"type": "node", "id": 3110077776, "lat": 35.8238812, "lon": 14.5288689, "tags": {"amenity": "restaurant", "cuisine": "italian;mediterranean", "name": "Illusions", "outdoor_seating": "yes"}}, {"type": "node", "id": 3110077820, "lat": 35.8315729, "lon": 14.5302025, "tags": {"amenity": "cafe"}}, {"type": "node", "id": 3135703850, "lat": 35.8348944, "lon": 14.5455652}, {"type": "node", "id": 3135703851, "lat": 35.8349279, "lon": 14.5455797}, {"type": "node", "id": 3135703852, "lat": 35.8349396, "lon": 14.5454066}, {"type": "node", "id": 3135703853, "lat": 35.8349577, "lon": 14.5454753}, {"type": "node", "id": 3135703854, "lat": 35.8350221, "lon": 14.5455033}, {"type": "node", "id": 3135703856, "lat": 35.8350375, "lon": 14.5454491}, {"type": "node", "id": 3135703871, "lat": 35.8352164, "lon": 14.5454699}, {"type": "node", "id": 3135703872, "lat": 35.8353841, "lon": 14.5452757}, {"type": "node", "id": 3135703873, "lat": 35.8354807, "lon": 14.5456125}, {"type": "node", "id": 3135703875, "lat": 35.8355611, "lon": 14.545512}, {"type": "node", "id": 3135919098, "lat": 35.8486732, "lon": 14.4962201, "tags": {"amenity": "cafe", "brand": "Costa", "brand:wikidata": "Q608845", "brand:wikipedia": "en:Costa Coffee", "cuisine": "coffee_shop", "name": "Costa", "opening_hours": "24/7", "takeaway": "yes"}}, {"type": "node", "id": 3135919099, "lat": 35.8485913, "lon": 14.4959516, "tags": {"air_conditioning": "yes", "amenity": "restaurant", "check_date": "2023-02-10", "level": "1", "name": "Relish", "opening_hours:signed": "no", "outdoor_seating": "no", "payment:credit_cards": "yes", "payment:debit_cards": "yes", "wheelchair": "yes"}}, {"type": "node", "id": 3254737711, "lat": 35.824567, "lon": 14.5279969, "tags": {"amenity": "cafe", "name": "Jojo's Bar"}}, {"type": "node", "id": 3255473998, "lat": 35.8376634, "lon": 14.5443278, "tags": {"amenity": "restaurant", "name": "Aquapazza"}}, {"type": "node", "id": 3255474000, "lat": 35.8385012, "lon": 14.543679, "tags": {"amenity": "restaurant", "cuisine": "pizza", "name": "Cafe de Paris"}}, {"type": "node", "id": 3255474001, "lat": 35.8400515, "lon": 14.5481298, "tags": {"amenity": "restaurant", "name": "Al Solito Posto"}}, {"type": "node", "id": 3255474003, "lat": 35.8382239, "lon": 14.5437713, "tags": {"amenity": "restaurant", "name": "Gente di Mare"}}, {"type": "node", "id": 3255474004, "lat": 35.8404226, "lon": 14.5445632, "tags": {"amenity": "restaurant", "check_date": "2025-04-17", "name": "Il Bukkett"}}, {"type": "node", "id": 3255474008, "lat": 35.840498, "lon": 14.5445905, "tags": {"amenity": "restaurant", "name": "Matthew's Bar & Restaurant"}}, {"type": "node", "id": 3255474009, "lat": 35.8383539, "lon": 14.5437372, "tags": {"amenity": "restaurant", "name": "Mr. Fitz"}}, {"type": "node", "id": 3255474010, "lat": 35.8403323, "lon": 14.5444684, "tags": {"amenity": "cafe", "name": "Opera"}}, {"type": "node", "id": 3255474012, "lat": 35.8407616, "lon": 14.5447906, "tags": {"amenity": "restaurant", "name": "Principino"}}, {"type": "node", "id": 3255474017, "lat": 35.8412312, "lon": 14.544731, "tags": {"amenity": "restaurant", "name": "Ristorante dell' Arte"}}, {"type": "node", "id": 3255474018, "lat": 35.8408479, "lon": 14.5448375, "tags": {"amenity": "restaurant", "name": "Rona"}}, {"type": "node", "id": 3255474021, "lat": 35.840757, "lon": 14.5477976, "tags": {"amenity": "restaurant", "check_date": "2025-04-17", "name": "Southeast Cafe", "wheelchair": "limited"}}, {"type": "node", "id": 3255474022, "lat": 35.8414395, "lon": 14.5455431, "tags": {"amenity": "restaurant", "name": "T'Anna Mari"}}, {"type": "node", "id": 3255474023, "lat": 35.8406833, "lon": 14.5447239, "tags": {"amenity": "restaurant", "name": "Ta' Mattew"}}, {"type": "node", "id": 3255474024, "lat": 35.8414464, "lon": 14.5453983, "tags": {"amenity": "restaurant", "name": "Tartarun"}}, {"type": "node", "id": 3255474028, "lat": 35.8408214, "lon": 14.5475349, "tags": {"amenity": "restaurant", "check_date": "2025-04-17", "name": "iPlace"}}, {"type": "node", "id": 3255474036, "lat": 35.837269, "lon": 14.5498945, "tags": {"amenity": "restaurant", "name": "l-Qrolla"}}, {"type": "node", "id": 3339905867, "lat": 35.8711992, "lon": 14.5380788, "tags": {"amenity": "restaurant", "name": "AMIGOS", "website": "https://amigos.com.mt/"}}, {"type": "node", "id": 3387615312, "lat": 35.8737554, "lon": 14.4453472, "tags": {"addr:street": "Triq San Rokku", "amenity": "restaurant", "name": "Ta' Conti"}}, {"type": "node", "id": 3391056553, "lat": 35.8589524, "lon": 14.3976344}, {"type": "node", "id": 3502864867, "lat": 35.823371, "lon": 14.5289208, "tags": {"amenity": "restaurant", "cuisine": "chinese", "name": "Pearl Palace"}}, {"type": "node", "id": 3554345863, "lat": 35.8621713, "lon": 14.3845018, "tags": {"addr:city": "\u0126ad-Dingli", "addr:country": "MT", "addr:postcode": "DGL 1942", "addr:street": "Main Street", "amenity": "restaurant", "cuisine": "regional", "name": "Diar il-Bniet", "outdoor_seating": "no", "phone": "+356 2762 0727", "website": "https://diarilbniet.com/"}}, {"type": "node", "id": 3704155511, "lat": 35.8759646, "lon": 14.4784933}, {"type": "node", "id": 3704155523, "lat": 35.8758759, "lon": 14.4783539}, {"type": "node", "id": 3704157570, "lat": 35.8760546, "lon": 14.4783917}, {"type": "node", "id": 3704157578, "lat": 35.8758996, "lon": 14.4783293}, {"type": "node", "id": 3704157879, "lat": 35.8758475, "lon": 14.4782529}, {"type": "node", "id": 3704157880, "lat": 35.8759378, "lon": 14.478159}, {"type": "node", "id": 3767306448, "lat": 35.8553006, "lon": 14.565088}, {"type": "node", "id": 3767306449, "lat": 35.8553343, "lon": 14.565262}, {"type": "node", "id": 3767306450, "lat": 35.8552173, "lon": 14.5652936}, {"type": "node", "id": 3767306451, "lat": 35.8552125, "lon": 14.5652778}, {"type": "node", "id": 3767306452, "lat": 35.8551836, "lon": 14.5652758}, {"type": "node", "id": 3767306453, "lat": 35.8551436, "lon": 14.5651275}, {"type": "node", "id": 3767306454, "lat": 35.85519, "lon": 14.5651216}, {"type": "node", "id": 3767306455, "lat": 35.85519, "lon": 14.5651038}, {"type": "node", "id": 3999315624, "lat": 35.8771525, "lon": 14.4865851, "tags": {"addr:city": "Il-Marsa", "addr:country": "MT", "amenity": "restaurant", "name": "Marsa Sports Club/Chukkas", "website": "https://www.chukkasmalta.com/"}}, {"type": "node", "id": 4040551068, "lat": 35.8667033, "lon": 14.5678417, "tags": {"amenity": "restaurant", "name": "pitch"}}, {"type": "node", "id": 4273736093, "lat": 35.8752823, "lon": 14.5380933, "tags": {"amenity": "cafe", "internet_access": "wlan", "name": "Oseris Cafeteria"}}, {"type": "node", "id": 4289848591, "lat": 35.8713643, "lon": 14.5072005, "tags": {"amenity": "cafe", "name": "Traffic Lights cafe"}}, {"type": "node", "id": 4289877189, "lat": 35.8720387, "lon": 14.5077542, "tags": {"amenity": "cafe", "name": "Cafe 13"}}, {"type": "node", "id": 4485088804, "lat": 35.8414889, "lon": 14.5453436, "tags": {"addr:housenumber": "29", "addr:street": "Xatt is-Sajjieda", "amenity": "restaurant", "name": "Tartarun", "name:en": "Tartarun"}}, {"type": "node", "id": 4492336763, "lat": 35.8196459, "lon": 14.4531026}, {"type": "node", "id": 4492336764, "lat": 35.8195528, "lon": 14.4531351}, {"type": "node", "id": 4492336765, "lat": 35.8195709, "lon": 14.4529965}, {"type": "node", "id": 4492336766, "lat": 35.8196554, "lon": 14.4530392}, {"type": "node", "id": 4536059388, "lat": 35.8627841, "lon": 14.5616429}, {"type": "node", "id": 4621813616, "lat": 35.8537749, "lon": 14.5318354}, {"type": "node", "id": 4806142221, "lat": 35.8611595, "lon": 14.3833174, "tags": {"addr:housenumber": "71", "addr:street": "Triq il-Kbira", "amenity": "restaurant", "internet_access": "wlan", "name": "Il-Pagna", "name:en": "Il-Pagna", "phone": "79260236"}}, {"type": "node", "id": 4984739840, "lat": 35.8244442, "lon": 14.5281878, "tags": {"amenity": "restaurant", "name": "Seabreeze"}}, {"type": "node", "id": 5017127392, "lat": 35.8246868, "lon": 14.4778316, "tags": {"amenity": "cafe", "name": "Nassaba Bar"}}, {"type": "node", "id": 5018774551, "lat": 35.8545799, "lon": 14.4385189, "tags": {"amenity": "restaurant", "name": "Ferdinand's"}}, {"type": "node", "id": 5029126557, "lat": 35.8780323, "lon": 14.4804073}, {"type": "node", "id": 5029126558, "lat": 35.8781801, "lon": 14.4806206}, {"type": "node", "id": 5029126559, "lat": 35.8781322, "lon": 14.4806711}, {"type": "node", "id": 5029126560, "lat": 35.8779844, "lon": 14.4804579}, {"type": "node", "id": 5287032326, "lat": 35.8616732, "lon": 14.5626719, "tags": {"addr:street": "Triq Il-Gardiel", "amenity": "restaurant", "cuisine": "seafood", "name": "Tal-Familja restaurant"}}, {"type": "node", "id": 5484463722, "lat": 35.839449, "lon": 14.5439963, "tags": {"amenity": "restaurant", "name": "Ix xlukkajr"}}, {"type": "node", "id": 5518708524, "lat": 35.827261, "lon": 14.4238825, "tags": {"amenity": "restaurant", "cuisine": "fish", "email": "carmensbar@gmail.com", "name": "Carmen's Bar", "phone": "+35621467305", "website": "https://www.carmensgharlapsi.com/"}}, {"type": "node", "id": 5585008861, "lat": 35.8736488, "lon": 14.5126402, "tags": {"amenity": "restaurant", "name": "Royal Chick"}}, {"type": "node", "id": 5585829821, "lat": 35.8726101, "lon": 14.5319428, "tags": {"amenity": "restaurant", "name": "Zeffie's Bistro & Pizzeria", "phone": "+35679007744", "website": "http://www.zeffiesmalta.com/"}}, {"type": "node", "id": 5586758622, "lat": 35.8237101, "lon": 14.5288599, "tags": {"amenity": "restaurant", "name": "BORDAS Cafe Bar & Grill"}}, {"type": "node", "id": 5638250722, "lat": 35.8511017, "lon": 14.494643, "tags": {"amenity": "restaurant", "name": "Vecchia Napoli"}}, {"type": "node", "id": 5638250723, "lat": 35.8509767, "lon": 14.4944925, "tags": {"amenity": "restaurant", "name": "Zensushi"}}, {"type": "node", "id": 5638250824, "lat": 35.851242, "lon": 14.4948518, "tags": {"amenity": "restaurant", "name": "Bert\u2019s Kitchen"}}, {"type": "node", "id": 5753649946, "lat": 35.8590705, "lon": 14.3978949, "tags": {"amenity": "restaurant", "name": "Chateau Buskett"}}, {"type": "node", "id": 5907793959, "lat": 35.8353416, "lon": 14.5454433}, {"type": "node", "id": 5907793960, "lat": 35.8353178, "lon": 14.545473}, {"type": "node", "id": 5907793961, "lat": 35.8353128, "lon": 14.5455873}, {"type": "node", "id": 5907793962, "lat": 35.8353616, "lon": 14.5455263}, {"type": "node", "id": 6170527486, "lat": 35.8747596, "lon": 14.5373014, "tags": {"amenity": "cafe", "internet_access": "wlan", "name": "Green's Club"}}, {"type": "node", "id": 6271050486, "lat": 35.8556457, "lon": 14.5646139, "tags": {"amenity": "restaurant", "cuisine": "pizza", "name": "Al Legna"}}, {"type": "node", "id": 6271059386, "lat": 35.862258, "lon": 14.5626344, "tags": {"amenity": "restaurant", "name": "Bongo Nyah"}}, {"type": "node", "id": 6281549885, "lat": 35.8694953, "lon": 14.5081297, "tags": {"amenity": "cafe", "name": "Fairtrade Cafe", "opening_hours": "Mo-Fr 09:00-18:30; Sa 09:00-18:00"}}, {"type": "node", "id": 6324870615, "lat": 35.874206, "lon": 14.3977454, "tags": {"amenity": "restaurant", "name": "Ta' Klaric"}}, {"type": "node", "id": 6394631026, "lat": 35.8579365, "lon": 14.4902809, "tags": {"amenity": "restaurant", "name": "Goodfellas Pizza & Grill"}}, {"type": "node", "id": 6418247276, "lat": 35.85876, "lon": 14.3725483}, {"type": "node", "id": 6688531886, "lat": 35.8199353, "lon": 14.4523945, "tags": {"addr:postcode": "QRD 3043", "addr:street": "Sajjieda", "amenity": "restaurant", "cuisine": "italian;mediterranean", "name": "Coast @ Cassarini Restaurant", "opening_hours": "Mo-Su 12:00-15:00,19:00-22:30", "phone": "35620997911", "website": "https://coast.com.mt/"}}, {"type": "node", "id": 6765223985, "lat": 35.8234133, "lon": 14.5289554, "tags": {"addr:postcode": "BBG 2366", "addr:street": "Triq San Patrizju c/w Misrah s-Summit", "amenity": "restaurant", "cuisine": "turkish;balkan;barbecue;burger;chicken;coffee_shop;diner;donut;kebab;pizza;tea", "diet:vegetarian": "yes", "email": "info@posh.com.mt", "internet_access": "wlan", "name": "posh turkish", "opening_hours": "Mo-Su 09:00-03:00", "operator": "Erdal Kara", "phone": "+356 2165 1165", "website": "https://www.posh.com.mt/"}}, {"type": "node", "id": 6765235787, "lat": 35.875948, "lon": 14.5367083, "tags": {"addr:street": "Triq is-Santwarju", "amenity": "restaurant", "cuisine": "balkan;burger;breakfast;coffee_shop;diner;donut;grill;kebab;pizza;sausage;tea;turkish", "diet:vegetarian": "yes", "email": "info@posh.com.mt", "internet_access": "wlan", "name": "Ottoman by Posh Turkish", "opening_hours": "Mo-Su 09:00-01:00", "operator": "Erdal Kara", "phone": "+356 2738 3275"}}, {"type": "node", "id": 6903962985, "lat": 35.8740218, "lon": 14.448616, "tags": {"addr:street": "Triq L-Imdina", "amenity": "restaurant", "cuisine": "turkish", "internet_access": "wlan", "name": "Sofra Kebab"}}, {"type": "node", "id": 7014902785, "lat": 35.8200542, "lon": 14.4521139, "tags": {"amenity": "restaurant", "name": "Step in pizzeria"}}, {"type": "node", "id": 7283724844, "lat": 35.8196434, "lon": 14.4529612}, {"type": "node", "id": 8303826059, "lat": 35.8575511, "lon": 14.5628553, "tags": {"amenity": "restaurant", "changing_table": "no", "internet_access": "wlan", "internet_access:fee": "yes", "level": "0", "name": "Jalex", "operator": "Jalex", "smoking": "outside", "stars": "3", "toilets": "yes", "toilets:access": "customers"}}, {"type": "node", "id": 8430817957, "lat": 35.8638491, "lon": 14.5616323, "tags": {"amenity": "restaurant", "name": "La Marina Snack Bar and Pizzeria"}}, {"type": "node", "id": 8434245094, "lat": 35.8759961, "lon": 14.4784559}, {"type": "node", "id": 8434245095, "lat": 35.8760086, "lon": 14.4784733}, {"type": "node", "id": 8434245096, "lat": 35.8759835, "lon": 14.4785009}, {"type": "node", "id": 8434245097, "lat": 35.8760708, "lon": 14.4786221}, {"type": "node", "id": 8434245098, "lat": 35.8761544, "lon": 14.4785303}, {"type": "node", "id": 8460832805, "lat": 35.8631586, "lon": 14.5609844, "tags": {"amenity": "restaurant", "cuisine": "indian", "name": "Roti"}}, {"type": "node", "id": 9074257644, "lat": 35.8538293, "lon": 14.531978}, {"type": "node", "id": 9198272186, "lat": 35.8387678, "lon": 14.5436187, "tags": {"addr:city": "Marsaxlokk", "addr:country": "MT", "addr:housenumber": "107", "addr:street": "Xatt is-Sajjieda", "amenity": "restaurant", "contact:facebook": "https://www.facebook.com/shichiria/", "cuisine": "pizza;sushi;burger", "name": "Shichiria", "opening_hours": "Mo-Su 11:30-22:00"}}, {"type": "node", "id": 9198272187, "lat": 35.8389177, "lon": 14.5436529, "tags": {"amenity": "restaurant", "cuisine": "pizza", "indoor_seating": "yes", "name": "Carrubia pizzeria", "outdoor_seating": "yes"}}, {"type": "node", "id": 9198272189, "lat": 35.8404368, "lon": 14.5477067, "tags": {"amenity": "cafe", "name": "Il-Qrolla"}}, {"type": "node", "id": 9212719117, "lat": 35.867247, "lon": 14.5724678, "tags": {"addr:street": "triq Ghar ix-Xama", "amenity": "restaurant", "name": "Kyle\u2019s \u017bonqor Point"}}, {"type": "node", "id": 9399510117, "lat": 35.8696488, "lon": 14.5072667, "tags": {"addr:street": "Triq \u0126al Luqa", "amenity": "cafe", "contact:facebook": "TheGreenBeanMalta", "cuisine": "cake;coffee_shop;local;pasta;regional;sandwich;tea", "name": "The Green Bean", "opening_hours": "Mo-Sa 09:00-17:00", "phone": "+356 2757 2720"}}, {"type": "node", "id": 9458654317, "lat": 35.8404525, "lon": 14.5446266, "tags": {"amenity": "restaurant", "name": "Roots"}}, {"type": "node", "id": 9763305536, "lat": 35.8258632, "lon": 14.5306021}, {"type": "node", "id": 9763305537, "lat": 35.8259046, "lon": 14.5306152}, {"type": "node", "id": 9878809917, "lat": 35.8382021, "lon": 14.5438578, "tags": {"amenity": "restaurant", "check_date": "2025-04-17", "name": "Liska"}}, {"type": "node", "id": 10158078331, "lat": 35.8626133, "lon": 14.4982644, "tags": {"amenity": "restaurant", "name": "All winds"}}, {"type": "node", "id": 10219451298, "lat": 35.8538697, "lon": 14.5316704}, {"type": "node", "id": 10219451299, "lat": 35.8538345, "lon": 14.5316518}, {"type": "node", "id": 10219451302, "lat": 35.8539213, "lon": 14.5318922}, {"type": "node", "id": 10219451303, "lat": 35.8539823, "lon": 14.5317638}, {"type": "node", "id": 10713540255, "lat": 35.8258904, "lon": 14.5306567}, {"type": "node", "id": 10713540256, "lat": 35.8258329, "lon": 14.5308955}, {"type": "node", "id": 10713540257, "lat": 35.8257705, "lon": 14.5310342}, {"type": "node", "id": 10713540258, "lat": 35.8256718, "lon": 14.5311867}, {"type": "node", "id": 10713540259, "lat": 35.8256131, "lon": 14.5311235}, {"type": "node", "id": 10713540260, "lat": 35.8256793, "lon": 14.5310295}, {"type": "node", "id": 10713540261, "lat": 35.8256518, "lon": 14.531008}, {"type": "node", "id": 10713540262, "lat": 35.825688, "lon": 14.5309448}, {"type": "node", "id": 10713540263, "lat": 35.825708, "lon": 14.5308632}, {"type": "node", "id": 10713540264, "lat": 35.8256905, "lon": 14.5307846}, {"type": "node", "id": 10713540265, "lat": 35.825713, "lon": 14.5306737}, {"type": "node", "id": 10713540266, "lat": 35.825743, "lon": 14.5306198}, {"type": "node", "id": 10713540267, "lat": 35.8257792, "lon": 14.530572}, {"type": "node", "id": 10713540268, "lat": 35.8257955, "lon": 14.5306136}, {"type": "node", "id": 10713540269, "lat": 35.8258479, "lon": 14.5305889}, {"type": "node", "id": 10811637993, "lat": 35.8413826, "lon": 14.5461414, "tags": {"amenity": "restaurant", "check_date": "2025-04-17", "name": "Rising Sun"}}, {"type": "node", "id": 10873743750, "lat": 35.8313078, "lon": 14.5305116}, {"type": "node", "id": 10873743751, "lat": 35.8312801, "lon": 14.5305284}, {"type": "node", "id": 10873743752, "lat": 35.831292, "lon": 14.5305613}, {"type": "node", "id": 10873743753, "lat": 35.8312371, "lon": 14.5305914}, {"type": "node", "id": 10873743754, "lat": 35.831242, "lon": 14.5306216}, {"type": "node", "id": 10873743755, "lat": 35.8312572, "lon": 14.5306216}, {"type": "node", "id": 10873743756, "lat": 35.8313361, "lon": 14.5305753}, {"type": "node", "id": 10968193820, "lat": 35.882817, "lon": 14.5196692, "tags": {"amenity": "cafe", "name": "Date Art Cafe", "website": "https://datecafemalta.com"}}, {"type": "node", "id": 11332470859, "lat": 35.8529592, "lon": 14.4428386, "tags": {"amenity": "cafe", "outdoor_seating": "yes"}}, {"type": "node", "id": 11531706336, "lat": 35.87349, "lon": 14.523687, "tags": {"amenity": "cafe", "name": "Caf\u00e8 Jubilee"}}, {"type": "node", "id": 11610540012, "lat": 35.8814235, "lon": 14.5195118, "tags": {"amenity": "restaurant", "cuisine": "french", "name": "France M'en Bon", "opening_hours": "Tu-Su 07:00-22:00"}}, {"type": "node", "id": 12238869488, "lat": 35.8452525, "lon": 14.4667467, "tags": {"amenity": "restaurant", "name": "Bottegin del teatro", "opening_hours": "Mo-Su 09:00-22:30", "phone": "+35699671010"}}, {"type": "node", "id": 12278585801, "lat": 35.8377097, "lon": 14.5443941, "tags": {"addr:housenumber": "144", "addr:postcode": "1307", "addr:street": "Xatt is-Sajjieda", "amenity": "restaurant", "cuisine": "fish;mediterranean", "name": "Harbour by Johann", "opening_hours": "Mo-Su 11:30-22:00", "phone": "+35699461651"}}, {"type": "node", "id": 12304036181, "lat": 35.8828856, "lon": 14.5208666, "tags": {"addr:housenumber": "2", "addr:street": "Sqaq Santa Tere\u017ca", "amenity": "cafe", "name": "Dock.1 Caf\u00e9 & Lounge"}}, {"type": "node", "id": 12397426663, "lat": 35.8758868, "lon": 14.4783711}, {"type": "node", "id": 12616397656, "lat": 35.8718001, "lon": 14.4401913, "tags": {"amenity": "restaurant", "cuisine": "italian", "name": "OCRA"}}, {"type": "node", "id": 12638349133, "lat": 35.880777, "lon": 14.5193454, "tags": {"amenity": "restaurant", "cuisine": "sushi", "name": "Fuji Sushi"}}, {"type": "node", "id": 12638442984, "lat": 35.8811232, "lon": 14.518579, "tags": {"addr:housenumber": "3", "addr:street": "Triq Wi\u0121i Rosato", "amenity": "cafe", "cuisine": "coffee_shop", "name": "South Bite", "outdoor_seating": "yes", "phone": "+35621637181"}}, {"type": "node", "id": 12639615366, "lat": 35.8817104, "lon": 14.5205232, "tags": {"amenity": "cafe", "cuisine": "coffee_shop", "name": "Cafe Rouge", "opening_hours": "Mo-Su 08:00-24:00", "outdoor_seating": "yes"}}, {"type": "node", "id": 12639662380, "lat": 35.8823233, "lon": 14.5211526, "tags": {"addr:street": "Piazza Paolino Vassallo", "amenity": "restaurant", "cuisine": "italian", "name": "San Giorgio Restaurant", "opening_hours": "Tu-Sa 07:00-22:00; Su 12:30-15:00", "phone": "+35677115871", "website": "https://www.facebook.com/cafesangiorgio"}}, {"type": "node", "id": 12642212131, "lat": 35.8826556, "lon": 14.5208869, "tags": {"amenity": "cafe", "cuisine": "coffee_shop", "name": "Seamen's", "opening_hours": "Mo-Sa 05:00-15:00", "outdoor_seating": "yes", "phone": "+35677440105"}}, {"type": "node", "id": 12646700814, "lat": 35.8640792, "lon": 14.5618335, "tags": {"addr:city": "Wied il-G\u0127ajn", "addr:housenumber": "29", "addr:street": "Triq ix-Xatt", "amenity": "cafe", "check_date": "2025-03-09", "contact:facebook": "coffeecircusmarsaskala", "contact:instagram": "coffeecircusconnections", "cuisine": "coffee_shop", "currency:XBT": "yes", "name": "Coffee Circus Connections / Marsaskala", "opening_hours": "Mo-Su 07:30-23:00", "payment:lightning": "yes", "payment:lightning_contactless": "no", "payment:onchain": "yes", "phone": "+356 79 231 717", "website": "https://www.coffeecircus.com.mt/"}}, {"type": "node", "id": 12791281281, "lat": 35.8486278, "lon": 14.4954811, "tags": {"amenity": "restaurant", "name": "Hard Rock"}}, {"type": "node", "id": 12791347389, "lat": 35.8488761, "lon": 14.4958676, "tags": {"amenity": "cafe", "name": "Verani"}}, {"type": "node", "id": 12837347801, "lat": 35.848837, "lon": 14.4960397, "tags": {"amenity": "cafe", "cuisine": "cake;coffee_shop", "name": "Sunday in Scotland", "opening_hours": "Mo-Su 05:00-21:00"}}, {"type": "way", "id": 24063098, "nodes": [261044201, 261044202, 261044203, 261044204, 261044205, 3391056553, 261044201], "tags": {"amenity": "restaurant", "name": "Roadhouse"}}, {"type": "way", "id": 58695147, "nodes": [727319771, 727319773, 727319778, 727319777, 727319771], "tags": {"amenity": "restaurant", "building": "prison", "historic": "yes", "historic:civilization": "imperial_chinese", "name": "Sergeant's Mess"}}, {"type": "way", "id": 137843578, "nodes": [1511616106, 1511615897, 1511615870, 1511615948, 1511615552, 4536059388, 1511616106], "tags": {"amenity": "restaurant", "internet_access": "wlan", "name": "Grabiel", "opening_hours": "Mo-Su 09:00-22:30", "phone": "+35621636368", "website": "http://www.grabielrestaurant.com/"}}, {"type": "way", "id": 143874392, "nodes": [1574415334, 1574415360, 1574415459, 6418247276, 1574415442, 1574415495, 1574415334], "tags": {"amenity": "restaurant", "building": "yes", "cuisine": "regional", "name": "Bobbyland", "takeaway": "no"}}, {"type": "way", "id": 143874394, "nodes": [1574415594, 1574415139, 1574415478, 1574415133, 1574415594], "tags": {"amenity": "restaurant", "building": "yes", "name": "The Cliffs"}}, {"type": "way", "id": 308275340, "nodes": [3135703872, 3135703871, 5907793961, 5907793962, 5907793960, 5907793959, 3135703873, 3135703875, 3135703872], "tags": {"amenity": "restaurant", "building": "yes", "building:levels": "2", "cuisine": "pizza;burger;mexican", "name": "Tex Mex South", "smoking": "no", "takeaway": "no"}}, {"type": "way", "id": 308275364, "nodes": [3135703856, 3135703852, 3135703850, 3135703851, 3135703853, 3135703854, 3135703856], "tags": {"amenity": "restaurant", "building": "yes", "name": "Marsaxlokk Water Polo Club", "opening_hours": "Tu-Su,PH 12:00-22:00"}}, {"type": "way", "id": 366435297, "nodes": [3704157570, 8434245094, 3704155511, 12397426663, 3704155523, 3704157578, 3704157879, 3704157880, 3704157570], "tags": {"amenity": "restaurant", "building": "yes", "name": "Klabb tal-Bo\u010b\u010bi San Bastjan", "name:mt": "Klabb tal-Bocci San Bastjan"}}, {"type": "way", "id": 373219463, "nodes": [3767306448, 3767306449, 3767306450, 3767306451, 3767306452, 3767306453, 3767306454, 3767306455, 3767306448], "tags": {"addr:city": "Wied il-G\u0127ajn", "addr:country": "MT", "addr:street": "Triq il-Qaliet", "amenity": "restaurant", "building": "yes", "internet_access": "wlan", "internet_access:fee": "no", "name": "San Tomaso Restaurant", "smoking": "outside", "takeaway": "yes"}}, {"type": "way", "id": 452437075, "nodes": [4492336763, 4492336764, 4492336765, 7283724844, 4492336766, 4492336763], "tags": {"amenity": "restaurant", "building": "yes", "building:levels": "4", "name": "Congreve Channel"}}, {"type": "way", "id": 514860026, "nodes": [5029126560, 5029126557, 5029126558, 5029126559, 5029126560], "tags": {"amenity": "restaurant", "brand": "Pizza Hut", "brand:wikidata": "Q191615", "brand:wikipedia": "en:Pizza Hut", "building": "yes", "cuisine": "pizza", "name": "Pizza Hut"}}, {"type": "way", "id": 908328994, "nodes": [3704157570, 8434245094, 8434245095, 8434245096, 8434245097, 8434245098, 3704157570], "tags": {"amenity": "restaurant", "building": "yes", "name": "Qormi Hockey Club"}}, {"type": "way", "id": 1117339546, "nodes": [10219451298, 10219451299, 1725063118, 4621813616, 9074257644, 10219451302, 10219451303, 10219451298], "tags": {"amenity": "restaurant", "building": "yes", "name": "Il-Lew\u017cu"}}, {"type": "way", "id": 1151682465, "nodes": [10713540255, 10713540256, 10713540257, 10713540258, 10713540259, 10713540260, 10713540261, 10713540262, 10713540263, 10713540264, 10713540265, 10713540266, 10713540267, 10713540268, 10713540269, 9763305536, 9763305537, 10713540255], "tags": {"amenity": "restaurant", "building": "yes", "name": "DistrictFive"}}, {"type": "way", "id": 1169370390, "nodes": [10873743750, 10873743751, 10873743752, 10873743753, 10873743754, 10873743755, 10873743756, 10873743750], "tags": {"amenity": "restaurant", "building": "yes", "name": "Fishermans rest"}}]}