{"version": 0.6, "generator": "Overpass API 0.7.62.7 375dc00a", "osm3s": {"timestamp_osm_base": "2025-06-14T15:08:54Z", "copyright": "The data included in this document is from www.openstreetmap.org. The data is made available under ODbL."}, "elements": [{"type": "node", "id": 3062808888, "lat": 41.973621, "lon": 33.8865436, "tags": {"amenity": "restaurant", "cuisine": "regional", "internet_access": "no"}}, {"type": "node", "id": 3062824391, "lat": 41.9743149, "lon": 33.8878739, "tags": {"amenity": "cafe", "internet_access": "wlan"}}, {"type": "node", "id": 3062824392, "lat": 41.9717784, "lon": 33.8928521, "tags": {"amenity": "cafe"}}, {"type": "node", "id": 3062836584, "lat": 41.9731424, "lon": 33.9105493, "tags": {"amenity": "restaurant", "cuisine": "regional", "name": "\u0130skele Kafe"}}, {"type": "node", "id": 3129680363, "lat": 41.9794709, "lon": 34.0206582, "tags": {"amenity": "restaurant"}}, {"type": "node", "id": 5333060822, "lat": 41.9769899, "lon": 33.7523648, "tags": {"amenity": "cafe", "internet_access": "wlan", "name": "Twins cafe"}}, {"type": "node", "id": 8736000116, "lat": 41.9503798, "lon": 34.0115166}, {"type": "node", "id": 8736009417, "lat": 41.9502224, "lon": 34.011623}, {"type": "node", "id": 8736009418, "lat": 41.9502744, "lon": 34.011762}, {"type": "node", "id": 8736009419, "lat": 41.9504317, "lon": 34.0116556}, {"type": "node", "id": 9511318800, "lat": 41.9581458, "lon": 34.0111863}, {"type": "node", "id": 9511318802, "lat": 41.9580777, "lon": 34.0112365}, {"type": "node", "id": 9511364018, "lat": 41.9581513, "lon": 34.011472}, {"type": "node", "id": 9511364019, "lat": 41.9582549, "lon": 34.0111482}, {"type": "node", "id": 9511364020, "lat": 41.9583172, "lon": 34.0113969}, {"type": "node", "id": 10022004132, "lat": 41.9754613, "lon": 33.7725554, "tags": {"amenity": "cafe"}}, {"type": "node", "id": 10022117418, "lat": 41.9742754, "lon": 33.7776803, "tags": {"amenity": "restaurant"}}, {"type": "node", "id": 11104085597, "lat": 41.949061, "lon": 34.0128803, "tags": {"amenity": "cafe", "name": "S\u0131narc\u0131k Kafe"}}, {"type": "node", "id": 12009279192, "lat": 41.9769866, "lon": 33.7503202}, {"type": "node", "id": 12009279193, "lat": 41.9772996, "lon": 33.7503007}, {"type": "node", "id": 12009279194, "lat": 41.9772919, "lon": 33.7499439}, {"type": "node", "id": 12009279195, "lat": 41.9769689, "lon": 33.749926}, {"type": "node", "id": 12009279196, "lat": 41.9772438, "lon": 33.7465659}, {"type": "node", "id": 12009279197, "lat": 41.976979, "lon": 33.7465447}, {"type": "node", "id": 12009279198, "lat": 41.9769705, "lon": 33.7469278}, {"type": "node", "id": 12009279199, "lat": 41.9772554, "lon": 33.7469675}, {"type": "way", "id": 943499465, "nodes": [8736000116, 8736009417, 8736009418, 8736009419, 8736000116], "tags": {"amenity": "cafe", "building": "yes", "demolished": "yes"}}, {"type": "way", "id": 1032216354, "nodes": [9511364019, 9511364020, 9511364018, 9511318802, 9511318800, 9511364019], "tags": {"amenity": "cafe", "name": "\u00c7\u0131nar Kafe"}}, {"type": "way", "id": 1296016019, "nodes": [12009279192, 12009279193, 12009279194, 12009279195, 12009279192], "tags": {"amenity": "cafe", "building": "yes", "cuisine": "coffee_shop;turkish", "name": "Cafe Mola", "outdoor_seating": "yes"}}, {"type": "way", "id": 1296016020, "nodes": [12009279196, 12009279197, 12009279198, 12009279199, 12009279196], "tags": {"amenity": "restaurant", "building": "yes", "name": "Heyamola Restoran"}}]}