{"version": 0.6, "generator": "Overpass API 0.7.62.7 375dc00a", "osm3s": {"timestamp_osm_base": "2025-06-14T14:31:02Z", "copyright": "The data included in this document is from www.openstreetmap.org. The data is made available under ODbL."}, "elements": [{"type": "node", "id": 420631392, "lat": 42.8913182, "lon": 19.5405065, "tags": {"amenity": "restaurant", "name": "Terasa na Tari"}}, {"type": "node", "id": 695833653, "lat": 42.8243238, "lon": 19.5204073}, {"type": "node", "id": 695833654, "lat": 42.8243553, "lon": 19.5201178}, {"type": "node", "id": 695833655, "lat": 42.8244597, "lon": 19.5201389}, {"type": "node", "id": 695833656, "lat": 42.8244281, "lon": 19.5204284}, {"type": "node", "id": 973793828, "lat": 42.8258731, "lon": 19.5228691, "tags": {"amenity": "restaurant", "cuisine": "regional", "delivery": "no", "internet_access": "no", "name": "Vodenica", "wheelchair": "no"}}, {"type": "node", "id": 1298477769, "lat": 42.8238554, "lon": 19.5227163, "tags": {"addr:city": "Kola\u0161in", "addr:housenumber": "14", "addr:street": "Trg Vukmana Kru\u0161\u010di\u0107a", "amenity": "restaurant", "cuisine": "regional", "name": "Konoba Ni\u0161avi\u0107", "name:sr": "\u041a\u043e\u043d\u043e\u0431\u0430", "opening_hours": "Mo-Su 08:00-00:00", "phone": "+382 69875239"}}, {"type": "node", "id": 1886725468, "lat": 42.8190044, "lon": 19.4023694, "tags": {"amenity": "cafe", "name": "Mioska"}}, {"type": "node", "id": 1891590664, "lat": 42.8239166, "lon": 19.5221413, "tags": {"amenity": "cafe", "name": "Caffe Bar Arizona"}}, {"type": "node", "id": 1891590665, "lat": 42.8240228, "lon": 19.5212938, "tags": {"amenity": "cafe", "name": "Talia"}}, {"type": "node", "id": 1891590666, "lat": 42.8238556, "lon": 19.5213783, "tags": {"amenity": "cafe", "name": "Sibirska 5", "opening_hours": "Mo-Su 08:00-24:00"}}, {"type": "node", "id": 2307733239, "lat": 42.9841434, "lon": 19.553341, "tags": {"amenity": "restaurant", "cuisine": "regional", "name": "Krstac"}}, {"type": "node", "id": 2489451322, "lat": 43.0243582, "lon": 19.3970337, "tags": {"amenity": "restaurant", "name": "Izlet", "phone": "+382 69 822 969"}}, {"type": "node", "id": 2489451328, "lat": 42.9577048, "lon": 19.5747331, "tags": {"amenity": "restaurant", "name": "Most"}}, {"type": "node", "id": 2489451341, "lat": 42.958933, "lon": 19.5656056, "tags": {"amenity": "restaurant", "name": "Tiha no\u0107"}}, {"type": "node", "id": 2489451342, "lat": 42.9225022, "lon": 19.5772222, "tags": {"amenity": "restaurant", "name": "To\u0107ak"}}, {"type": "node", "id": 2489451346, "lat": 42.9222419, "lon": 19.5774932, "tags": {"amenity": "restaurant"}}, {"type": "node", "id": 2489451354, "lat": 42.938464, "lon": 19.5759016}, {"type": "node", "id": 2489451355, "lat": 42.9385122, "lon": 19.5758342}, {"type": "node", "id": 2489451356, "lat": 42.938561, "lon": 19.5760312}, {"type": "node", "id": 2489451357, "lat": 42.9386092, "lon": 19.5759639}, {"type": "node", "id": 2489451358, "lat": 42.9509376, "lon": 19.5710443, "tags": {"amenity": "cafe"}}, {"type": "node", "id": 2622690082, "lat": 42.8299516, "lon": 19.6305881, "tags": {"amenity": "cafe"}}, {"type": "node", "id": 2992305482, "lat": 42.8722902, "lon": 19.5272469, "tags": {"amenity": "restaurant", "cuisine": "regional", "name": "Restoran Raj", "opening_hours": "Mo-Su 07:00-00:00", "phone": "067441206"}}, {"type": "node", "id": 3025516272, "lat": 42.8317099, "lon": 19.518524}, {"type": "node", "id": 3025516273, "lat": 42.8316055, "lon": 19.5184521}, {"type": "node", "id": 3025516274, "lat": 42.8316491, "lon": 19.5183345}, {"type": "node", "id": 3025516275, "lat": 42.8317534, "lon": 19.5184064}, {"type": "node", "id": 3428636708, "lat": 42.7952024, "lon": 19.4351778, "tags": {"amenity": "restaurant", "cuisine": "local", "name": "Konoba Vidikovac"}}, {"type": "node", "id": 3428636709, "lat": 42.8236294, "lon": 19.5206003, "tags": {"amenity": "cafe", "name": "Sport Select"}}, {"type": "node", "id": 4366567794, "lat": 42.9630898, "lon": 19.5789882, "tags": {"amenity": "cafe", "name:en": "EXIT"}}, {"type": "node", "id": 4366589392, "lat": 42.9622322, "lon": 19.5790951, "tags": {"amenity": "cafe", "name:en": "Cafe Arte"}}, {"type": "node", "id": 4366592794, "lat": 42.9604835, "lon": 19.5805218, "tags": {"amenity": "cafe", "name:en": "Cafe bar \"3N\""}}, {"type": "node", "id": 4366604891, "lat": 42.962835, "lon": 19.5805953, "tags": {"amenity": "cafe", "name:en": "\"CLUB S\""}}, {"type": "node", "id": 4366608889, "lat": 42.9639597, "lon": 19.5793997, "tags": {"amenity": "cafe", "name:en": "Cafe bar Atase"}}, {"type": "node", "id": 4366618290, "lat": 42.9615256, "lon": 19.5791011, "tags": {"amenity": "cafe", "name:en": "\"Padrino\""}}, {"type": "node", "id": 4366619491, "lat": 42.9822806, "lon": 19.5577869, "tags": {"amenity": "restaurant", "name": "Restoran Kozak", "name:en": "KOZAK"}}, {"type": "node", "id": 4590646189, "lat": 42.8235169, "lon": 19.5224644, "tags": {"addr:street": "Trg. Vukmana Kr\u0161\u010di\u0107a", "amenity": "restaurant", "cuisine": "sandwich;pizza", "name": "Pizzeria Kapri", "name:en": "Pizzeria Kapri", "name:ru": "\u041f\u0438\u0446\u0446\u0435\u0440\u0438\u044f \u041a\u0430\u043f\u0440\u0438", "name:sr": "Picerija Kapri", "opening_hours": "Mo-Su 08:00-00:00", "outdoor_seating": "yes", "phone": "+352 68102983"}}, {"type": "node", "id": 4889054822, "lat": 42.830956, "lon": 19.5520971, "tags": {"amenity": "restaurant", "name": "Savardak", "name:en": "Savardak"}}, {"type": "node", "id": 4966272662, "lat": 42.7959474, "lon": 19.4394454, "tags": {"amenity": "restaurant", "name": "Restoran Crkvine"}}, {"type": "node", "id": 5210688852, "lat": 42.8245629, "lon": 19.5205474, "tags": {"amenity": "restaurant", "cuisine": "pasta;balkan;barbecue;local;coffee_shop", "internet_access": "wlan", "name": "Slavija", "name:en": "Slavija", "name:fr": "Slavija", "opening_hours": "Mo-Su 07:00-23:00"}}, {"type": "node", "id": 5941015115, "lat": 42.8310319, "lon": 19.5533991, "tags": {"amenity": "restaurant", "cuisine": "balkan;traditional", "name": "Viline Vode"}}, {"type": "node", "id": 6402521719, "lat": 42.8897604, "lon": 19.6854045, "tags": {"amenity": "restaurant", "cuisine": "traditional;local", "email": "rakovic.stevo@gmail.com", "name": "Katun Rakovi\u0107", "name:sr": "\u041a\u0430\u0442\u0443\u043d \u0420\u0430\u043a\u043e\u0432\u0438\u045b", "phone": "+382 68 020 852"}}, {"type": "node", "id": 6402537999, "lat": 42.8881048, "lon": 19.7054035, "tags": {"amenity": "restaurant", "name": "Katun Suvodo (\u0160ekularci)"}}, {"type": "node", "id": 6652751890, "lat": 42.992385, "lon": 19.5807957, "tags": {"amenity": "restaurant", "internet_access": "wlan", "name": "Lepenac", "name:en": "Lepenac restaurant", "name:fr": "Restaurant Lepenac", "tourism": "alpine_hut"}}, {"type": "node", "id": 6723518489, "lat": 42.901016, "lon": 19.5973499, "tags": {"amenity": "restaurant", "name": "Nacjonalni Restoran", "name:en": "Nacjonalni Restoran", "opening_hours": "Mo-Su 09:00-20:00"}}, {"type": "node", "id": 9066981818, "lat": 43.0125449, "lon": 19.3731139, "tags": {"amenity": "restaurant", "name:en": "Eko koliba Zabojsko jezero", "opening_hours": "Mo-Su 08:00-21:00", "phone": "+382 67 802 873"}}, {"type": "node", "id": 9805991416, "lat": 42.8118063, "lon": 19.2336182, "tags": {"amenity": "restaurant", "name": "Restaurant Eko Koliba", "website": "https://hosteljezero.traveleto.com/"}}, {"type": "node", "id": 9995339611, "lat": 42.8231864, "lon": 19.5306557, "tags": {"addr:housenumber": "49", "addr:street": "Bo\u0161ka Ra\u0161ovi\u0107a", "air_conditioning": "yes", "amenity": "restaurant", "diet:vegan": "yes", "diet:vegetarian": "yes", "name": "Sherpas", "opening_hours": "Mo-Su 07:00-23:00", "payment:credit_cards": "yes", "payment:debit_cards": "yes", "smoking": "outside", "wheelchair": "limited"}}, {"type": "node", "id": 9998079566, "lat": 43.0178623, "lon": 19.4103488, "tags": {"amenity": "restaurant"}}, {"type": "node", "id": 10931453325, "lat": 42.8883604, "lon": 19.5388104}, {"type": "node", "id": 10931453328, "lat": 42.888198, "lon": 19.5388376}, {"type": "node", "id": 10931453329, "lat": 42.8882877, "lon": 19.5386849}, {"type": "node", "id": 10931453332, "lat": 42.8883382, "lon": 19.5387955}, {"type": "node", "id": 10931453336, "lat": 42.888178, "lon": 19.5390256}, {"type": "node", "id": 10931453338, "lat": 42.8881514, "lon": 19.538735}, {"type": "node", "id": 10931453339, "lat": 42.8882432, "lon": 19.5389096}, {"type": "node", "id": 10931453342, "lat": 42.888481, "lon": 19.5387539}, {"type": "node", "id": 10931453343, "lat": 42.8882635, "lon": 19.5386345}, {"type": "node", "id": 10931453345, "lat": 42.8881219, "lon": 19.5389019}, {"type": "node", "id": 10931453346, "lat": 42.8883754, "lon": 19.5388435}, {"type": "node", "id": 10931453347, "lat": 42.8884548, "lon": 19.5386964}, {"type": "node", "id": 10931453348, "lat": 42.8882632, "lon": 19.5389535}, {"type": "node", "id": 10931998105, "lat": 42.8703307, "lon": 19.5275464, "tags": {"amenity": "restaurant", "name:en": "Restoraunt Coliba", "name:ru": "\u0420\u0435\u0441\u0442\u043e\u0440\u0430\u043d \u041a\u043e\u043b\u0438\u0431\u0430"}}, {"type": "node", "id": 10946063117, "lat": 42.9896059, "lon": 19.4115874, "tags": {"amenity": "restaurant", "cuisine": "local", "internet_access": "wlan", "internet_access:fee": "no", "name": "Ravnjak"}}, {"type": "node", "id": 10948955481, "lat": 42.8232422, "lon": 19.5250865, "tags": {"amenity": "cafe", "name": "Caffeine Coffee Shop Kola\u0161in", "opening_hours": "Mo-Su 08:00-23:00"}}, {"type": "node", "id": 10948972571, "lat": 42.8237816, "lon": 19.5229715, "tags": {"addr:street": "Trg. Vukmana Kr\u0161\u010di\u0107a", "amenity": "cafe", "name": "Villa Gorska"}}, {"type": "node", "id": 11127455933, "lat": 42.9529503, "lon": 19.5865837, "tags": {"amenity": "cafe", "name": "Vagon", "opening_hours": "Mo-Su 07:00-24:00"}}, {"type": "node", "id": 11127456556, "lat": 42.9632313, "lon": 19.5784446, "tags": {"amenity": "cafe"}}, {"type": "node", "id": 11989715973, "lat": 42.8415675, "lon": 19.6394275, "tags": {"amenity": "restaurant", "name": "Restoran Troglava"}}, {"type": "node", "id": 12073095970, "lat": 42.8566546, "lon": 19.3240551, "tags": {"alt_name": "\u041a\u043e\u0434 \u040b\u0435\u0458\u0430", "amenity": "cafe", "contact:instagram": "https://www.instagram.com/caffe_kolijevka/", "cuisine": "regional", "name": "\u041a\u0430\u0444\u0435 \u041a\u043e\u043b\u0438\u0458\u0435\u0432\u043a\u0430", "name:sr": "\u041a\u0430\u0444\u0435 \u041a\u043e\u043b\u0438\u0458\u0435\u0432\u043a\u0430", "name:sr-Latn": "Caffe Kolijevka", "outdoor_seating": "yes"}}, {"type": "node", "id": 12271002530, "lat": 42.8228684, "lon": 19.5201971, "tags": {"amenity": "restaurant", "changing_table": "no", "cuisine": "sandwich;breakfast;coffee_shop", "name": "Caffe Bar Napoleon", "outdoor_seating": "yes", "toilets:access": "customers", "toilets:wheelchair": "no", "wheelchair": "no"}}, {"type": "node", "id": 12842579211, "lat": 42.9074778, "lon": 19.373745, "tags": {"amenity": "restaurant", "cuisine": "regional", "name": "\u041a\u043e\u043d\u043e\u0431\u0430 \u0412\u0440\u0430\u0442\u043b\u043e", "name:sr": "\u041a\u043e\u043d\u043e\u0431\u0430 \u0412\u0440\u0430\u0442\u043b\u043e", "name:sr-Latn": "Konoba Vratlo", "phone": "+382 69 544094"}}, {"type": "way", "id": 55386138, "nodes": [695833653, 695833654, 695833655, 695833656, 695833653], "tags": {"amenity": "restaurant", "building": "yes", "cuisine": "regional", "internet_access": "wlan", "name": "Restoran Planinar"}}, {"type": "way", "id": 241256098, "nodes": [2489451355, 2489451357, 2489451356, 2489451354, 2489451355], "tags": {"amenity": "restaurant", "name": "Grilcafe"}}, {"type": "way", "id": 298660732, "nodes": [3025516272, 3025516273, 3025516274, 3025516275, 3025516272], "tags": {"amenity": "restaurant", "building": "yes"}}, {"type": "way", "id": 1176572234, "nodes": [10931453338, 10931453328, 10931453345, 10931453336, 10931453348, 10931453339, 10931453325, 10931453346, 10931453342, 10931453347, 10931453332, 10931453329, 10931453343, 10931453338], "tags": {"amenity": "restaurant", "building": "yes", "name": "Restoran Dobre Vode"}}]}