{"version": 0.6, "generator": "Overpass API 0.7.62.7 375dc00a", "osm3s": {"timestamp_osm_base": "2025-06-14T13:57:32Z", "copyright": "The data included in this document is from www.openstreetmap.org. The data is made available under ODbL."}, "elements": [{"type": "node", "id": 1419935938, "lat": 38.4054778, "lon": 16.0788329, "tags": {"amenity": "restaurant", "cuisine": "italian", "name": "Donna Nela"}}, {"type": "node", "id": 1421296330, "lat": 38.3045375, "lon": 16.0325738, "tags": {"amenity": "restaurant", "name": "La Madonnina"}}, {"type": "node", "id": 1423156196, "lat": 38.2792841, "lon": 16.048242, "tags": {"amenity": "restaurant", "name": "La Quiete dei Monti"}}, {"type": "node", "id": 1424495635, "lat": 38.3536097, "lon": 16.0105909, "tags": {"addr:city": "Taurianova", "addr:housenumber": "84", "addr:postcode": "89029", "addr:street": "Via Ventiquattro Maggio", "amenity": "cafe", "email": "torrefazionemanuli@live.it", "facebook": "https://www.facebook.com/mattia.manule/", "name": "Caffetteria Cioccolateria Manule", "phone": "+39 0966615068", "website": "http://www.torrefazionemanuli.com/"}}, {"type": "node", "id": 1424571526, "lat": 38.3094029, "lon": 16.0342419, "tags": {"amenity": "restaurant", "name": "La Brace"}}, {"type": "node", "id": 1511510560, "lat": 38.6221045, "lon": 15.8371235, "tags": {"addr:postcode": "89866", "addr:street": "Via grotticelle", "amenity": "restaurant", "cuisine": "italian", "name": "Ristorante La Taverna", "website": "https://www.residencelataverna.com/"}}, {"type": "node", "id": 1667705777, "lat": 38.5152769, "lon": 16.3147162, "tags": {"addr:city": "Mongiana", "addr:postcode": "89823", "addr:street": "Via Roma", "amenity": "restaurant", "cuisine": "italian", "name": "Trattoria Elim"}}, {"type": "node", "id": 1667832692, "lat": 38.5807135, "lon": 16.3378963, "tags": {"addr:postcode": "89822", "addr:street": "Contrada La Chiusa", "amenity": "restaurant", "name": "Agriturismo Fondo dei Baroni", "phone": "388 839 9046"}}, {"type": "node", "id": 1820308831, "lat": 38.6045308, "lon": 15.8585984, "tags": {"addr:city": "Coccorino", "addr:postcode": "09863", "addr:street": "Via Stazione", "amenity": "restaurant", "contact:mobile": "+39 349 133 2339", "contact:phone": "+39 349 0500 948", "cuisine": "calabrese", "email": "hotel@mercuriosulmare.it", "name": "Ristorante Hotel \"Mercurio sul Mare\"", "phone": "+39 0963 883317", "website": "https://www.mercuriosulmare.it/"}}, {"type": "node", "id": 1855346671, "lat": 38.622668, "lon": 15.8342321, "tags": {"amenity": "restaurant", "cuisine": "italian", "name": "La Campagnola"}}, {"type": "node", "id": 1894696586, "lat": 38.3748343, "lon": 15.9613668}, {"type": "node", "id": 1902213140, "lat": 38.3120937, "lon": 15.9803398, "tags": {"amenity": "restaurant", "name": "La Pergola"}}, {"type": "node", "id": 1905769577, "lat": 38.4238399, "lon": 15.8964981, "tags": {"amenity": "cafe", "name": "Il Capriccio"}}, {"type": "node", "id": 2192238802, "lat": 38.4067802, "lon": 16.0779653, "tags": {"addr:city": "Polistena", "addr:postcode": "89024", "addr:street": "Via Comm. Vincenzo Grio", "amenity": "cafe", "facebook": "https://www.facebook.com/bar.mommo/", "instagram": "https://www.instagram.com/barmommo/", "name": "Bar Mommo", "outdoor_seating": "yes", "phone": "+39 0966931307"}}, {"type": "node", "id": 2296349021, "lat": 38.2714222, "lon": 16.3007095, "tags": {"amenity": "restaurant", "name": "Bowling"}}, {"type": "node", "id": 2296362145, "lat": 38.278837, "lon": 16.2936982, "tags": {"amenity": "restaurant", "name": "La Vecchia Botte"}}, {"type": "node", "id": 2296394795, "lat": 38.2688349, "lon": 16.2984991, "tags": {"amenity": "cafe", "name": "Bar Aquila"}}, {"type": "node", "id": 2296932342, "lat": 38.265773, "lon": 16.2974721}, {"type": "node", "id": 2335179533, "lat": 38.4126454, "lon": 15.8896368, "tags": {"amenity": "restaurant", "name": "Ristorante Golfo del Sole"}}, {"type": "node", "id": 2335184371, "lat": 38.3556841, "lon": 15.8466439, "tags": {"addr:postcode": "89015", "amenity": "restaurant", "name": "Ristorante De Gustibus"}}, {"type": "node", "id": 2335184989, "lat": 38.3613042, "lon": 15.8580807, "tags": {"amenity": "restaurant", "name": "Ristorante L'Uliveto"}}, {"type": "node", "id": 2335185138, "lat": 38.3915436, "lon": 15.8633971, "tags": {"amenity": "restaurant", "name": "Ristorante L'Ancora d'Oro"}}, {"type": "node", "id": 2335186282, "lat": 38.3336848, "lon": 15.8483367, "tags": {"amenity": "restaurant", "indoor_seating": "yes", "name": "La Collina", "outdoor_seating": "yes", "survey:date": "2024-03-09"}}, {"type": "node", "id": 2335192222, "lat": 38.3825118, "lon": 15.8606421, "tags": {"amenity": "restaurant", "name": "Lido La Lampara"}}, {"type": "node", "id": 2376103037, "lat": 38.5788063, "lon": 16.3318081, "tags": {"amenity": "cafe", "name": "Golden Bar"}}, {"type": "node", "id": 2376103042, "lat": 38.5786713, "lon": 16.3302595, "tags": {"addr:city": "Serra San Bruno", "addr:housenumber": "12", "addr:street": "Via Roma", "amenity": "restaurant", "cuisine": "italian", "name": "Zenzero"}}, {"type": "node", "id": 2376103058, "lat": 38.5788538, "lon": 16.3315249, "tags": {"amenity": "restaurant", "name": "Ristorante dei fiori"}}, {"type": "node", "id": 2432119256, "lat": 38.3146702, "lon": 15.9848404, "tags": {"amenity": "cafe"}}, {"type": "node", "id": 2446104257, "lat": 38.6002814, "lon": 16.3376869}, {"type": "node", "id": 2446104258, "lat": 38.6003839, "lon": 16.3377767}, {"type": "node", "id": 2446104259, "lat": 38.6002986, "lon": 16.3379359}, {"type": "node", "id": 2446104260, "lat": 38.6001962, "lon": 16.3378461}, {"type": "node", "id": 2446104261, "lat": 38.6002332, "lon": 16.337777}, {"type": "node", "id": 2447196117, "lat": 38.5154432, "lon": 16.3175427, "tags": {"addr:city": "Mongiana", "addr:housenumber": "33", "addr:postcode": "89823", "addr:street": "Via Roma", "amenity": "cafe"}}, {"type": "node", "id": 2612860516, "lat": 38.3107287, "lon": 16.372408, "tags": {"addr:postcode": "89047", "addr:street": "Strada Statale 106 Jonica", "alt_name": "La Cascina 1899", "amenity": "restaurant", "cuisine": "regional", "name": "La Cascina", "website": "http://www.ristorantelacascina1899.it/home/"}}, {"type": "node", "id": 2628647075, "lat": 38.3576551, "lon": 16.2295941, "tags": {"amenity": "cafe"}}, {"type": "node", "id": 2628647100, "lat": 38.3588097, "lon": 16.2284596, "tags": {"amenity": "cafe"}}, {"type": "node", "id": 2696281587, "lat": 38.2198451, "lon": 16.2295789, "tags": {"amenity": "restaurant", "cuisine": "regional", "name": "La Fontanella"}}, {"type": "node", "id": 2794618038, "lat": 38.5870925, "lon": 16.2201684, "tags": {"amenity": "restaurant", "cuisine": "pizza", "name": "Ciccio sul fiume"}}, {"type": "node", "id": 3234370566, "lat": 38.3075272, "lon": 15.8828043, "tags": {"amenity": "cafe", "name": "Nancy Bar", "phone": "+39 0966 332333"}}, {"type": "node", "id": 3234699502, "lat": 38.3018084, "lon": 15.880834, "tags": {"amenity": "cafe", "name": "Bar Zirino", "phone": "+39 0966 332002"}}, {"type": "node", "id": 3592674893, "lat": 38.3021573, "lon": 16.3285645, "tags": {"addr:city": "Marina di Gioiosa Ionica", "addr:postcode": "89046", "addr:street": "Via Giacomo Matteotti", "amenity": "restaurant", "cuisine": "regional", "delivery": "no", "name": "Take and Go", "smoking": "outside", "takeaway": "yes"}}, {"type": "node", "id": 3685783359, "lat": 38.4309001, "lon": 15.8967689, "tags": {"amenity": "cafe", "name": "Mini Bar"}}, {"type": "node", "id": 3685793236, "lat": 38.4250657, "lon": 15.8797676}, {"type": "node", "id": 3685793247, "lat": 38.4251838, "lon": 15.8798284}, {"type": "node", "id": 3685793249, "lat": 38.4251969, "lon": 15.8793522}, {"type": "node", "id": 3685793258, "lat": 38.425315, "lon": 15.879413}, {"type": "node", "id": 3685793340, "lat": 38.4270038, "lon": 15.8807449}, {"type": "node", "id": 3685793341, "lat": 38.4270527, "lon": 15.8806511}, {"type": "node", "id": 3685793342, "lat": 38.4271491, "lon": 15.8808682}, {"type": "node", "id": 3685793343, "lat": 38.427198, "lon": 15.8807743}, {"type": "node", "id": 3687098238, "lat": 38.4305549, "lon": 15.883012}, {"type": "node", "id": 3687098239, "lat": 38.4306246, "lon": 15.8829128}, {"type": "node", "id": 3687098240, "lat": 38.4306811, "lon": 15.8831566}, {"type": "node", "id": 3687098241, "lat": 38.4307508, "lon": 15.8830573}, {"type": "node", "id": 3687098251, "lat": 38.4355915, "lon": 15.8886181}, {"type": "node", "id": 3687098252, "lat": 38.4356923, "lon": 15.8884365}, {"type": "node", "id": 3687098253, "lat": 38.4357667, "lon": 15.8887767}, {"type": "node", "id": 3687098254, "lat": 38.4358675, "lon": 15.8885951}, {"type": "node", "id": 3737225675, "lat": 38.4890919, "lon": 16.1496846, "tags": {"amenity": "restaurant", "capacity": "200", "cuisine": "italian;regional", "name": "San Michele", "smoking": "outside"}}, {"type": "node", "id": 3771819834, "lat": 38.6166243, "lon": 15.8364288}, {"type": "node", "id": 3771819835, "lat": 38.616594, "lon": 15.8364691}, {"type": "node", "id": 3771819837, "lat": 38.6166233, "lon": 15.8363273}, {"type": "node", "id": 3771819838, "lat": 38.6166679, "lon": 15.8365545}, {"type": "node", "id": 3771819839, "lat": 38.6167019, "lon": 15.8361186}, {"type": "node", "id": 3771819840, "lat": 38.616703, "lon": 15.8363169}, {"type": "node", "id": 3771819841, "lat": 38.6167129, "lon": 15.8360553}, {"type": "node", "id": 3771819842, "lat": 38.6167097, "lon": 15.8364327}, {"type": "node", "id": 3771819843, "lat": 38.6167194, "lon": 15.8364891}, {"type": "node", "id": 3771819844, "lat": 38.6166629, "lon": 15.8363038}, {"type": "node", "id": 3771819845, "lat": 38.6167261, "lon": 15.8360103}, {"type": "node", "id": 3771819846, "lat": 38.6167426, "lon": 15.8361172}, {"type": "node", "id": 3771819847, "lat": 38.6167513, "lon": 15.8361945}, {"type": "node", "id": 3771819848, "lat": 38.6167466, "lon": 15.8363828}, {"type": "node", "id": 3771819849, "lat": 38.6167524, "lon": 15.8359625}, {"type": "node", "id": 3771819851, "lat": 38.6167689, "lon": 15.8362451}, {"type": "node", "id": 3771819852, "lat": 38.6167788, "lon": 15.8359161}, {"type": "node", "id": 3771819854, "lat": 38.6167975, "lon": 15.8362226}, {"type": "node", "id": 3771819856, "lat": 38.6168096, "lon": 15.835895}, {"type": "node", "id": 3771821457, "lat": 38.6168107, "lon": 15.8362451}, {"type": "node", "id": 3771821459, "lat": 38.6168348, "lon": 15.8362747}, {"type": "node", "id": 3771821460, "lat": 38.6168425, "lon": 15.8358754}, {"type": "node", "id": 3771821461, "lat": 38.6168645, "lon": 15.8362114}, {"type": "node", "id": 3771821462, "lat": 38.616881, "lon": 15.8359639}, {"type": "node", "id": 3771821463, "lat": 38.6168821, "lon": 15.8358697}, {"type": "node", "id": 3771821464, "lat": 38.6168975, "lon": 15.8362353}, {"type": "node", "id": 3771821465, "lat": 38.6169216, "lon": 15.8359625}, {"type": "node", "id": 3771821466, "lat": 38.6169216, "lon": 15.8362339}, {"type": "node", "id": 3771821467, "lat": 38.6169381, "lon": 15.8360146}, {"type": "node", "id": 3771821468, "lat": 38.616948, "lon": 15.8359724}, {"type": "node", "id": 3771821469, "lat": 38.6169831, "lon": 15.8360525}, {"type": "node", "id": 4110281789, "lat": 38.5767475, "lon": 16.3334209, "tags": {"addr:street": "Via San Brunone di Colonia", "amenity": "restaurant", "name": "La Lumera"}}, {"type": "node", "id": 4117209793, "lat": 38.5545966, "lon": 16.3131144, "tags": {"amenity": "restaurant", "cuisine": "sausage;buschenschank;steak_house;italian;friture;grill;pasta;coffee_shop;barbecue;diner", "internet_access": "wlan", "name": "Ritrovo Santa Maria", "phone": "+39 0963 70000"}}, {"type": "node", "id": 4130886289, "lat": 38.5553945, "lon": 16.312757, "tags": {"addr:street": "Localit\u00e0 Santa Maria del Bosco", "amenity": "restaurant", "cuisine": "cake;buschenschank;italian;friture;grill;breakfast;donut;pasta;coffee_shop;diner;sausage;chicken;steak_house;sandwich;regional;pizza;barbecue;ice_cream", "internet_access": "wlan", "name": "Il Laghetto"}}, {"type": "node", "id": 4187685177, "lat": 38.322575, "lon": 16.4074024, "tags": {"amenity": "cafe", "name": "Pasticceria Bar Centrale"}}, {"type": "node", "id": 4187685178, "lat": 38.3224237, "lon": 16.4068646, "tags": {"addr:city": "Roccella Jonica", "addr:housenumber": "33", "addr:street": "Via Roma", "amenity": "cafe", "name": "Noveau Lirica Caf\u00e8"}}, {"type": "node", "id": 4187743741, "lat": 38.321542, "lon": 16.4048395, "tags": {"amenity": "cafe", "name": "Bar Smile"}}, {"type": "node", "id": 4187743745, "lat": 38.3219503, "lon": 16.4053598, "tags": {"amenity": "cafe", "name": "Bar Roma"}}, {"type": "node", "id": 4214387058, "lat": 38.301367, "lon": 16.3310818}, {"type": "node", "id": 4214387599, "lat": 38.3013179, "lon": 16.3309882}, {"type": "node", "id": 4278721000, "lat": 38.6105284, "lon": 15.8488062, "tags": {"amenity": "restaurant", "description": "Sehr gutes Fischrestaurant", "name": "Ristorante Peppino"}}, {"type": "node", "id": 4308179920, "lat": 38.350591, "lon": 16.0870308}, {"type": "node", "id": 4308179925, "lat": 38.3506355, "lon": 16.0871311}, {"type": "node", "id": 4353589547, "lat": 38.5137266, "lon": 16.3191625, "tags": {"amenity": "cafe", "name": "Bar dello sport"}}, {"type": "node", "id": 4353589568, "lat": 38.5137556, "lon": 16.3203269, "tags": {"addr:city": "Mongiana", "addr:housenumber": "34", "addr:postcode": "89823", "addr:street": "Via Armando Diaz", "amenity": "restaurant", "name": "Ristorante degli amici"}}, {"type": "node", "id": 4353589573, "lat": 38.5133611, "lon": 16.3191187, "tags": {"amenity": "cafe", "name": "Bar Hard Rock"}}, {"type": "node", "id": 4426395577, "lat": 38.5783628, "lon": 15.8906121, "tags": {"addr:city": "Joppolo", "addr:postcode": "89863", "addr:street": "Via Bonello", "amenity": "restaurant", "bar": "yes", "cuisine": "pizza", "name": "Bar Pizzeria Edicola La Zagara", "opening_hours": "Mo-Su 08:30-23:30", "phone": "3890311606"}}, {"type": "node", "id": 4433229410, "lat": 38.5863802, "lon": 15.8941648, "tags": {"amenity": "cafe", "name": "Bar Kafe"}}, {"type": "node", "id": 4933187028, "lat": 38.3510541, "lon": 16.3619974, "tags": {"amenity": "restaurant", "cuisine": "regional", "name": "Pietra di Fonte", "website": "https://www.pietradifonte.it/"}}, {"type": "node", "id": 5061949111, "lat": 38.5665979, "lon": 16.3189117, "tags": {"amenity": "cafe"}}, {"type": "node", "id": 5264603622, "lat": 38.2656161, "lon": 16.2965949}, {"type": "node", "id": 5264603623, "lat": 38.2658839, "lon": 16.2962171}, {"type": "node", "id": 5264603647, "lat": 38.2655275, "lon": 16.2964695}, {"type": "node", "id": 5264603648, "lat": 38.265787, "lon": 16.2960932}, {"type": "node", "id": 5264603649, "lat": 38.2657104, "lon": 16.2959964}, {"type": "node", "id": 5264603650, "lat": 38.2654355, "lon": 16.2963493}, {"type": "node", "id": 5264606697, "lat": 38.2659174, "lon": 16.2973019}, {"type": "node", "id": 5264606698, "lat": 38.2657445, "lon": 16.2975068}, {"type": "node", "id": 5264606699, "lat": 38.2662162, "lon": 16.2981507}, {"type": "node", "id": 5264606700, "lat": 38.2663598, "lon": 16.2978971}, {"type": "node", "id": 5354622999, "lat": 38.3012313, "lon": 16.3310623}, {"type": "node", "id": 5354623000, "lat": 38.3012812, "lon": 16.3311536}, {"type": "node", "id": 5354623001, "lat": 38.301343, "lon": 16.3310361}, {"type": "node", "id": 5354670194, "lat": 38.2987941, "lon": 16.3272561, "tags": {"amenity": "restaurant", "cuisine": "fine_dining", "name": "Ristorante Gambero Rosso"}}, {"type": "node", "id": 5516591480, "lat": 38.3974911, "lon": 16.074117, "tags": {"addr:city": "Polistena", "addr:postcode": "89024", "addr:street": "Via Fausto Gullo", "amenity": "restaurant", "name": "Il Portale"}}, {"type": "node", "id": 5640371547, "lat": 38.2726493, "lon": 16.2224977, "tags": {"addr:street": "Via Nazionale", "amenity": "restaurant", "name": "La Terrazza", "opening_hours": "Mo-Su 20:00-23:00, 12:30-14:30", "phone": "+39-0964-356739", "website": "www.ristorantelaterrazzagerace.it"}}, {"type": "node", "id": 5643978404, "lat": 38.2682996, "lon": 16.2041868, "tags": {"addr:housenumber": "69", "addr:street": "Contra Cavuria", "amenity": "restaurant", "name": "Il Lupo Cattivo", "opening_hours": "Mo-Su 10:00-00:00", "phone": "+39-0964-355143", "website": "https://www.ristoranteillupocattivo.it/"}}, {"type": "node", "id": 5713663601, "lat": 38.5726321, "lon": 15.9743148, "tags": {"amenity": "cafe", "cuisine": "ice_cream", "name": "Bar di Carmelo", "outdoor_seating": "yes", "toilets": "yes"}}, {"type": "node", "id": 5776787442, "lat": 38.3069043, "lon": 16.3480761, "tags": {"amenity": "restaurant"}}, {"type": "node", "id": 5870983385, "lat": 38.6230126, "lon": 15.8332923, "tags": {"amenity": "restaurant", "cuisine": "italian", "name": "Trattoria Da Mimma"}}, {"type": "node", "id": 5873008985, "lat": 38.4888181, "lon": 15.9703237, "tags": {"amenity": "cafe", "check_date": "2023-06-20", "name": "Caff\u00e8"}}, {"type": "node", "id": 5873318681, "lat": 38.4244057, "lon": 16.3732309}, {"type": "node", "id": 5873318685, "lat": 38.4244373, "lon": 16.3732845}, {"type": "node", "id": 5873318686, "lat": 38.4243841, "lon": 16.3733438}, {"type": "node", "id": 5873318698, "lat": 38.4243488, "lon": 16.3732849}, {"type": "node", "id": 5876001072, "lat": 38.3521601, "lon": 16.0742091}, {"type": "node", "id": 5876001073, "lat": 38.3520484, "lon": 16.074459}, {"type": "node", "id": 5876001074, "lat": 38.3519349, "lon": 16.0743889}, {"type": "node", "id": 5876001075, "lat": 38.3520265, "lon": 16.0741227}, {"type": "node", "id": 5948731529, "lat": 38.3589426, "lon": 16.2400937, "tags": {"amenity": "restaurant", "cuisine": "regional;italian;stocco;stockfish", "name": "La Taverna del Borgo"}}, {"type": "node", "id": 5955295785, "lat": 38.3554877, "lon": 16.2913506, "tags": {"addr:street": "Via Colac\u00e0", "amenity": "restaurant", "cuisine": "italian", "name": "La Collinetta", "name:en": "La Collineta", "name:ru": "\u041b\u0430 \u041a\u043e\u043b\u043b\u0438\u043d\u0435\u0442\u0442\u0430"}}, {"type": "node", "id": 6010666083, "lat": 38.3653186, "lon": 15.8566824, "tags": {"addr:street": "Via Concordado", "amenity": "restaurant", "name": "Nel nome della Pizza", "opening_hours": "Mo-Su 10:30-14:00, 18:00-23:30", "phone": "+39 0966264169"}}, {"type": "node", "id": 6221319488, "lat": 38.3643759, "lon": 16.2386183, "tags": {"amenity": "restaurant", "name": "Il Mulino"}}, {"type": "node", "id": 6221319619, "lat": 38.3610572, "lon": 16.2399058, "tags": {"amenity": "restaurant", "name": "La Piazzetta"}}, {"type": "node", "id": 6221319981, "lat": 38.3600496, "lon": 16.2383249, "tags": {"amenity": "restaurant", "name": "Il Ponte"}}, {"type": "node", "id": 6221328556, "lat": 38.3625462, "lon": 16.2391977, "tags": {"amenity": "restaurant", "name": "La Bottega dei Sapori"}}, {"type": "node", "id": 6274250877, "lat": 38.2660525, "lon": 16.2955605, "tags": {"addr:housenumber": "3", "addr:street": "via Amalfi", "amenity": "restaurant", "description": "Magnifica trattoria d'altri tempi, informale ma tranquillo ed accogliente, con cucina anche di pesce e pasta solo fresca.", "name": "Il Gallo d'oro"}}, {"type": "node", "id": 6297675569, "lat": 38.281728, "lon": 15.9486036}, {"type": "node", "id": 6297675570, "lat": 38.2815481, "lon": 15.9485532}, {"type": "node", "id": 6297675571, "lat": 38.281526, "lon": 15.9486935}, {"type": "node", "id": 6297675572, "lat": 38.2817035, "lon": 15.9487455}, {"type": "node", "id": 6297675573, "lat": 38.2815316, "lon": 15.9486631}, {"type": "node", "id": 6297675574, "lat": 38.2819443, "lon": 15.948526}, {"type": "node", "id": 6297675575, "lat": 38.2817625, "lon": 15.9485062}, {"type": "node", "id": 6297675576, "lat": 38.2817495, "lon": 15.9486699}, {"type": "node", "id": 6297675577, "lat": 38.2819342, "lon": 15.9486916}, {"type": "node", "id": 6297675579, "lat": 38.2814888, "lon": 15.9488181}, {"type": "node", "id": 6297675580, "lat": 38.281259, "lon": 15.9487203}, {"type": "node", "id": 6297675581, "lat": 38.2812935, "lon": 15.9485888}, {"type": "node", "id": 6297676987, "lat": 38.2815382, "lon": 15.9486191}, {"type": "node", "id": 6297676992, "lat": 38.2818575, "lon": 15.9485157}, {"type": "node", "id": 6297680956, "lat": 38.2816719, "lon": 15.9487363}, {"type": "node", "id": 6504325220, "lat": 38.6106154, "lon": 15.8484958}, {"type": "node", "id": 6504325221, "lat": 38.6105859, "lon": 15.8484175}, {"type": "node", "id": 6504325222, "lat": 38.6106409, "lon": 15.8483834}, {"type": "node", "id": 6504325223, "lat": 38.6106705, "lon": 15.8484617}, {"type": "node", "id": 6531587232, "lat": 38.3506009, "lon": 16.0845001, "tags": {"addr:city": "Cittanova", "addr:postcode": "89022", "addr:street": "Via Giovanni XXIII", "amenity": "restaurant", "cuisine": "pizza", "name": "Da Ciccio Pizzeria"}}, {"type": "node", "id": 6531645895, "lat": 38.3536147, "lon": 16.0769569, "tags": {"amenity": "restaurant", "cuisine": "pizza", "name": "Il Capriccio"}}, {"type": "node", "id": 6531645897, "lat": 38.3544149, "lon": 16.08041, "tags": {"amenity": "restaurant", "name": "Ristorante La Mamma"}}, {"type": "node", "id": 6531651541, "lat": 38.3669852, "lon": 16.0770842}, {"type": "node", "id": 6531651542, "lat": 38.3669991, "lon": 16.0771136}, {"type": "node", "id": 6531651543, "lat": 38.3670184, "lon": 16.0771321}, {"type": "node", "id": 6531651544, "lat": 38.3670208, "lon": 16.0771583}, {"type": "node", "id": 6531651545, "lat": 38.3670172, "lon": 16.0771907}, {"type": "node", "id": 6531651546, "lat": 38.3670075, "lon": 16.0772076}, {"type": "node", "id": 6531651547, "lat": 38.366993, "lon": 16.0772215}, {"type": "node", "id": 6531651548, "lat": 38.3668771, "lon": 16.0772816}, {"type": "node", "id": 6531651549, "lat": 38.3668505, "lon": 16.0772723}, {"type": "node", "id": 6531651550, "lat": 38.3668324, "lon": 16.0772569}, {"type": "node", "id": 6531651551, "lat": 38.3668251, "lon": 16.0772276}, {"type": "node", "id": 6531651552, "lat": 38.3668263, "lon": 16.0771984}, {"type": "node", "id": 6531651553, "lat": 38.3668336, "lon": 16.0771768}, {"type": "node", "id": 6531651554, "lat": 38.3667792, "lon": 16.0769688}, {"type": "node", "id": 6531651555, "lat": 38.3668445, "lon": 16.0769396}, {"type": "node", "id": 6531651556, "lat": 38.3669361, "lon": 16.0769019}, {"type": "node", "id": 6531651557, "lat": 38.3669743, "lon": 16.0770409}, {"type": "node", "id": 6564871088, "lat": 38.3779804, "lon": 15.8720422}, {"type": "node", "id": 6564871089, "lat": 38.378312, "lon": 15.8720772}, {"type": "node", "id": 6564871090, "lat": 38.3782654, "lon": 15.872797}, {"type": "node", "id": 6564871091, "lat": 38.3779337, "lon": 15.872762}, {"type": "node", "id": 6594363285, "lat": 38.6166592, "lon": 15.8610022}, {"type": "node", "id": 6594363286, "lat": 38.6166983, "lon": 15.8608042}, {"type": "node", "id": 6594363293, "lat": 38.6168606, "lon": 15.8611893}, {"type": "node", "id": 6594363294, "lat": 38.6167934, "lon": 15.8613146}, {"type": "node", "id": 7175290679, "lat": 38.377064, "lon": 15.8670287}, {"type": "node", "id": 7175290680, "lat": 38.3771534, "lon": 15.8671797}, {"type": "node", "id": 7175290681, "lat": 38.3770302, "lon": 15.867306}, {"type": "node", "id": 7175290682, "lat": 38.376942, "lon": 15.8671458}, {"type": "node", "id": 7258197707, "lat": 38.3587223, "lon": 15.8486344, "tags": {"addr:postcode": "89015", "amenity": "restaurant", "name": "Ristorante Pizzeria \"Strappita\""}}, {"type": "node", "id": 7500512162, "lat": 38.3754961, "lon": 15.9604874}, {"type": "node", "id": 7500512163, "lat": 38.375479, "lon": 15.9605159}, {"type": "node", "id": 7500512164, "lat": 38.3755304, "lon": 15.9605815}, {"type": "node", "id": 7500512165, "lat": 38.3754723, "lon": 15.9606749}, {"type": "node", "id": 7500512166, "lat": 38.3753025, "lon": 15.9604636}, {"type": "node", "id": 7500512167, "lat": 38.3753731, "lon": 15.960351}, {"type": "node", "id": 7642383197, "lat": 38.3748538, "lon": 15.9613394}, {"type": "node", "id": 7642383198, "lat": 38.3747276, "lon": 15.9613189}, {"type": "node", "id": 7642383199, "lat": 38.3747756, "lon": 15.9612507}, {"type": "node", "id": 7642383200, "lat": 38.3747987, "lon": 15.961417}, {"type": "node", "id": 8093452120, "lat": 38.4123715, "lon": 15.9587652, "tags": {"amenity": "restaurant", "cuisine": "pizza"}}, {"type": "node", "id": 8264727399, "lat": 38.4401962, "lon": 15.9421189, "tags": {"amenity": "restaurant", "brand": "Autogrill", "brand:wikidata": "Q786790", "brand:wikipedia": "en:Autogrill", "cuisine": "italian;regional", "name": "Autogrill"}}, {"type": "node", "id": 8264727400, "lat": 38.4402831, "lon": 15.9423147, "tags": {"amenity": "restaurant", "name": "Risto Agip"}}, {"type": "node", "id": 8932352254, "lat": 38.3523406, "lon": 16.0710332}, {"type": "node", "id": 8932352255, "lat": 38.3524386, "lon": 16.07115}, {"type": "node", "id": 8932352256, "lat": 38.3523577, "lon": 16.0712782}, {"type": "node", "id": 8932352257, "lat": 38.3522535, "lon": 16.0711405}, {"type": "node", "id": 8987363162, "lat": 38.3251252, "lon": 16.4009269, "tags": {"amenity": "cafe", "name": "Bar Borgo"}}, {"type": "node", "id": 8996623868, "lat": 38.3505162, "lon": 16.0870686}, {"type": "node", "id": 8996623869, "lat": 38.3505832, "lon": 16.0872285}, {"type": "node", "id": 8996623870, "lat": 38.3506599, "lon": 16.087186}, {"type": "node", "id": 8996623875, "lat": 38.3506918, "lon": 16.0872453}, {"type": "node", "id": 8996623878, "lat": 38.350659, "lon": 16.0872723}, {"type": "node", "id": 9025347117, "lat": 38.3562265, "lon": 15.8466581, "tags": {"addr:street": "Piazza Primo Maggio", "amenity": "cafe", "name": "Mont Blanc"}}, {"type": "node", "id": 9028051487, "lat": 38.3386413, "lon": 16.3038286, "tags": {"amenity": "restaurant", "name": "La locanda del palazzo"}}, {"type": "node", "id": 9404395949, "lat": 38.3635811, "lon": 15.8559188, "tags": {"amenity": "restaurant", "cuisine": "pizza"}}, {"type": "node", "id": 9719899760, "lat": 38.2343773, "lon": 16.2650512, "tags": {"addr:housenumber": "5", "addr:street": "Piazza dei Martiri", "amenity": "restaurant", "cuisine": "pizza", "email": "gustoristora@gmail.com", "name": "Gusto Ristora", "phone": "+39 0964 390400"}}, {"type": "node", "id": 9831260866, "lat": 38.2332637, "lon": 16.2642574, "tags": {"amenity": "cafe", "indoor_seating": "yes", "name": "Caff\u00e8 Venezia", "outdoor_seating": "yes"}}, {"type": "node", "id": 9834294054, "lat": 38.2336977, "lon": 16.2639604, "tags": {"amenity": "restaurant", "name": "The Scotsman"}}, {"type": "node", "id": 9834321372, "lat": 38.2311956, "lon": 16.2615256, "tags": {"alt_name": "Le 3 Coccinelle", "amenity": "cafe", "name": "Le Tre Coccinelle"}}, {"type": "node", "id": 9834321374, "lat": 38.2361984, "lon": 16.2660857, "tags": {"amenity": "cafe", "name": "Bar Rivera"}}, {"type": "node", "id": 9834347128, "lat": 38.2321356, "lon": 16.2597906, "tags": {"amenity": "cafe", "name": "Bar 2000"}}, {"type": "node", "id": 9834365228, "lat": 38.233393, "lon": 16.263318, "tags": {"amenity": "cafe", "name": "Bar Royal"}}, {"type": "node", "id": 9834367129, "lat": 38.2352476, "lon": 16.2651796, "tags": {"amenity": "restaurant", "cuisine": "pizza", "name": "La Piazza"}}, {"type": "node", "id": 9834373605, "lat": 38.2347914, "lon": 16.2646914, "tags": {"amenity": "cafe", "name": "Bar del Corso", "outdoor_seating": "yes"}}, {"type": "node", "id": 9836096214, "lat": 38.3263401, "lon": 16.4069644, "tags": {"amenity": "cafe", "name": "La Torre"}}, {"type": "node", "id": 9836108277, "lat": 38.3221696, "lon": 16.4069617, "tags": {"amenity": "cafe", "name": "Bar Stazione"}}, {"type": "node", "id": 9878461617, "lat": 38.6271716, "lon": 15.8429629, "tags": {"addr:postcode": "89866", "addr:street": "Viale Giuseppe Berto", "amenity": "restaurant", "name": "Antichi Sapori del Mare", "phone": "+39 339 365 6226"}}, {"type": "node", "id": 10125958718, "lat": 38.5738244, "lon": 16.3249014, "tags": {"amenity": "restaurant", "name": "Cosas Buenas"}}, {"type": "node", "id": 10154487217, "lat": 38.5738682, "lon": 16.3247417, "tags": {"addr:street": "Viale Aldo Moro", "amenity": "restaurant", "name": "Cosas Buenas"}}, {"type": "node", "id": 10154644617, "lat": 38.5792426, "lon": 16.3323407, "tags": {"addr:street": "Piazza Monsignor Tedeschi", "amenity": "restaurant", "name": "Otto al litro", "name:it": "Ottoalitro"}}, {"type": "node", "id": 10279700440, "lat": 38.5661459, "lon": 16.3258863, "tags": {"addr:housenumber": "27", "addr:postcode": "89822", "addr:street": "Via Giuseppe Maria Pisani", "amenity": "restaurant", "cuisine": "italian;italian_pizza;pizza", "name": "Ristorante Pizzeria Delle Serre", "opening_hours": "We-Mo 12:30-14:00, 19:00-22:00", "phone": "327 321 4396", "self_service": "27"}}, {"type": "node", "id": 10279933884, "lat": 38.2815233, "lon": 15.9486866}, {"type": "node", "id": 10287814961, "lat": 38.3569612, "lon": 16.0142371, "tags": {"addr:city": "Taurianova", "addr:housenumber": "37", "addr:postcode": "89029", "addr:street": "Via Senatore Loschiavo", "amenity": "restaurant", "cuisine": "pizza", "facebook": "https://facebook.com/franchettipasqualebasilio/", "instagram": "https://www.instagram.com/re_leone_pizzeria/", "name": "Il Re Leone", "payment:american_express": "yes", "payment:mastercard": "yes", "payment:visa": "yes", "phone": "+39 3924064364"}}, {"type": "node", "id": 10288319861, "lat": 38.3534441, "lon": 16.014521, "tags": {"addr:city": "Taurianova", "addr:housenumber": "14", "addr:postcode": "89029", "addr:street": "Piazza Italia", "amenity": "restaurant", "cuisine": "pizza", "name": "Food Italia", "operator": "Eleonora Frisina", "outdoor_seating": "yes", "phone": "+39 340 079 3777"}}, {"type": "node", "id": 10296996206, "lat": 38.3535255, "lon": 16.010249, "tags": {"addr:city": "Taurianova", "addr:housenumber": "1", "addr:postcode": "89029", "addr:street": "Via Principessa di Piemonte", "amenity": "restaurant", "cuisine": "pizza;italian", "email": "Ilpeperoncino2024@libero.it", "facebook": "https://www.facebook.com/people/il-peperoncino-Taurianova/61558037096064/", "instagram": "https://www.instagram.com/il_peperoncino_2024/", "name": "Il Peperoncino", "phone": "+39 0966266940", "phone:mobile": "+39 3761823092", "website": "https://www.ilpeperoncinotaurianova.com/"}}, {"type": "node", "id": 10297010618, "lat": 38.3589098, "lon": 16.0172029, "tags": {"addr:city": "Taurianova", "addr:housenumber": "78", "addr:postcode": "89029", "addr:street": "Via I Circonvallazione", "amenity": "cafe", "name": "Chantilly", "phone": "+39 3487051233"}}, {"type": "node", "id": 10297010631, "lat": 38.3532258, "lon": 16.0202356, "tags": {"addr:city": "Taurianova", "addr:housenumber": "19", "addr:postcode": "89029", "addr:street": "Via Giacomo Matteotti", "amenity": "restaurant", "cuisine": "italian;pizza", "facebook": "https://www.facebook.com/lalocandadelgustosrls/", "instagram": "https://www.instagram.com/lalocandadelgusto_/", "name": "La Locanda Del Gusto", "phone": "+39 0966610804", "website": "https://www.lalocandadelgusto.net", "website:menu": "https://www.lalocandadelgusto.net/index.php/il-menu"}}, {"type": "node", "id": 10297010644, "lat": 38.3507184, "lon": 16.0141781, "tags": {"addr:city": "Taurianova", "addr:housenumber": "17", "addr:postcode": "89029", "addr:street": "Via Francesco Sofia Alessio", "amenity": "restaurant", "cuisine": "pizza;burger", "email": "rosticcerialarosa_75@libero.it", "facebook": "https://www.facebook.com/Rosticceriapizzerialarosa/", "name": "Rosticceria Pizzeria Larosa", "phone": "+39 0966612062", "website": "https://www.rosticcerialarosa.it", "website:menu": "https://rosticcerialarosa.it/il-nostro-menu/"}}, {"type": "node", "id": 10298052156, "lat": 38.2443213, "lon": 15.9317932}, {"type": "node", "id": 10298052157, "lat": 38.2443765, "lon": 15.9316461}, {"type": "node", "id": 10298052158, "lat": 38.2442291, "lon": 15.9317388}, {"type": "node", "id": 10298052159, "lat": 38.2442832, "lon": 15.931591}, {"type": "node", "id": 10576288650, "lat": 38.2361665, "lon": 16.151634, "tags": {"amenity": "restaurant", "cuisine": "regional;italian", "diet:mediterranean": "yes", "name": "Agriturismo A Sena Runcatini"}}, {"type": "node", "id": 10764029711, "lat": 38.6240178, "lon": 15.8400972}, {"type": "node", "id": 10764029712, "lat": 38.6241606, "lon": 15.8401427}, {"type": "node", "id": 10764029713, "lat": 38.6241297, "lon": 15.8403012}, {"type": "node", "id": 10764029714, "lat": 38.6239869, "lon": 15.8402557}, {"type": "node", "id": 10769302718, "lat": 38.6163291, "lon": 15.8373217}, {"type": "node", "id": 10769302719, "lat": 38.6163305, "lon": 15.837504}, {"type": "node", "id": 10769302720, "lat": 38.6163742, "lon": 15.8374643}, {"type": "node", "id": 10769302721, "lat": 38.6163664, "lon": 15.8370727}, {"type": "node", "id": 10769302722, "lat": 38.6162663, "lon": 15.8369717}, {"type": "node", "id": 10769302723, "lat": 38.616229, "lon": 15.8369203}, {"type": "node", "id": 10769302724, "lat": 38.6161979, "lon": 15.8369374}, {"type": "node", "id": 10769302725, "lat": 38.6161754, "lon": 15.8368634}, {"type": "node", "id": 10769302726, "lat": 38.6161077, "lon": 15.8368932}, {"type": "node", "id": 10769302727, "lat": 38.6161303, "lon": 15.8369997}, {"type": "node", "id": 10769302728, "lat": 38.6161881, "lon": 15.8371575}, {"type": "node", "id": 10769302729, "lat": 38.6162142, "lon": 15.8371458}, {"type": "node", "id": 10769302730, "lat": 38.6162536, "lon": 15.8372766}, {"type": "node", "id": 10769302731, "lat": 38.6163037, "lon": 15.8372541}, {"type": "node", "id": 10837811704, "lat": 38.3581649, "lon": 16.0126472, "tags": {"addr:city": "Taurianova", "addr:postcode": "89029", "addr:street": "Via I Circonvallazione", "amenity": "restaurant", "email": "bonannorestaurant@gmail.com", "facebook": "https://www.facebook.com/people/Bonanno-Restaurant/100063709413519/", "instagram": "https://www.instagram.com/bonanno_restaurant/", "name": "Bonanno", "opening_hours": "Mo-Su 10:00-14:30,18:30-23:00", "phone": "+39 0966472521", "website": "https://www.bonannorestaurant.com/"}}, {"type": "node", "id": 10892982521, "lat": 38.3592808, "lon": 16.0140271, "tags": {"addr:city": "Taurianova", "addr:postcode": "89029", "addr:street": "Via San Giovanni dei Rossi", "amenity": "restaurant", "cuisine": "pizza;italian", "email": "pizzeriametropolis@gmail.com", "facebook": "https://www.facebook.com/people/Ristorante-Metropolis/100063748883921/", "name": "Ristorante Metropolis", "phone": "+39 0966645073", "website": "https://www.ristorantepizzeriametropolis.com/"}}, {"type": "node", "id": 10894215570, "lat": 38.4168838, "lon": 15.9044854, "tags": {"addr:city": "Gioia Tauro", "addr:postcode": "89013", "amenity": "restaurant", "cuisine": "sushi", "email": "kingusrls@gmail.com", "facebook": "https://www.facebook.com/people/Kingu/100085169506528/", "instagram": "https://www.instagram.com/kingu.it/", "name": "Kingu sushi", "phone": "+39 0966938712", "website": "https://kingu.it/"}}, {"type": "node", "id": 10919985606, "lat": 38.4487838, "lon": 16.0990368, "tags": {"addr:city": "Tritanti", "addr:postcode": "89020", "amenity": "cafe", "facebook": "https://www.facebook.com/people/Bar-Nuovi-Orizzonti-Tritanti/100054267140340/", "internet_access": "no", "name": "Nuovi Orizzonti", "outdoor_seating": "yes", "phone": "+39 333 212 3505"}}, {"type": "node", "id": 10940323903, "lat": 38.3506249, "lon": 16.0872035}, {"type": "node", "id": 10940323904, "lat": 38.3505599, "lon": 16.0871729}, {"type": "node", "id": 10940338305, "lat": 38.3505398, "lon": 16.087125}, {"type": "node", "id": 10940338306, "lat": 38.3505218, "lon": 16.087139}, {"type": "node", "id": 10940338307, "lat": 38.3505424, "lon": 16.0871842}, {"type": "node", "id": 10948718618, "lat": 38.3543588, "lon": 16.0145031, "tags": {"addr:city": "Taurianova", "addr:housenumber": "27", "addr:postcode": "89029", "addr:street": "Via Roma", "amenity": "cafe", "facebook": "https://www.facebook.com/Coff-bar-323417181784906/", "name": "Coff Bar di Macr\u00ec", "phone": "+39 3398013674"}}, {"type": "node", "id": 10982918610, "lat": 38.3880681, "lon": 15.996607, "tags": {"addr:city": "Taurianova", "addr:postcode": "89029", "amenity": "restaurant", "email": "pinocucciarda@libero.it", "facebook": "https://www.facebook.com/lacucciarda", "name": "La Cucciarda", "opening_hours": "Tu-Su 11:00-15:00,19:00-24:00+", "phone": "+39 0966612766", "website": "https://www.ristorantelacucciarda.com/"}}, {"type": "node", "id": 11034484158, "lat": 38.3552761, "lon": 16.0155516, "tags": {"addr:city": "Taurianova", "addr:housenumber": "60", "addr:postcode": "89029", "addr:street": "Via Roma", "amenity": "restaurant", "cuisine": "pizza", "facebook": "https://www.facebook.com/ilpirata.pizzeria", "name": "Il Pirata", "phone": "+39 3285399147"}}, {"type": "node", "id": 11035742795, "lat": 38.4296981, "lon": 15.8831287, "tags": {"amenity": "cafe", "cuisine": "yogurt"}}, {"type": "node", "id": 11035742796, "lat": 38.4302346, "lon": 15.8905602, "tags": {"amenity": "restaurant", "cuisine": "pizza;barbecue", "name": "Bella Gioia"}}, {"type": "node", "id": 11035742798, "lat": 38.4296256, "lon": 15.8833144, "tags": {"amenity": "cafe", "cuisine": "pizza; sandwich", "name": "Real"}}, {"type": "node", "id": 11035742799, "lat": 38.4304631, "lon": 15.8891619, "tags": {"amenity": "cafe", "name": "Bar Metauros"}}, {"type": "node", "id": 11035742800, "lat": 38.4298149, "lon": 15.8828901, "tags": {"amenity": "cafe"}}, {"type": "node", "id": 11044639036, "lat": 38.3578525, "lon": 16.0087073, "tags": {"addr:city": "Taurianova", "addr:postcode": "89029", "amenity": "restaurant", "cuisine": "italian;pizza", "email": "blablaristorantepizzeriabeb@gmail.com", "facebook": "https://www.facebook.com/blablaristorantepizzeria/", "instagram": "https://www.instagram.com/blablaristorantepizzeriabeb/", "name": "Bl\u00e0 Bl\u00e0", "operator": "Rocco Biasi", "phone": "+39 0966254207", "website": "https://blabla.picieffe.it/", "website:menu": "https://blabla.picieffe.it/menu/"}}, {"type": "node", "id": 11054644540, "lat": 38.322166, "lon": 16.4064708, "tags": {"amenity": "restaurant", "email": "pizzerialeparis@gmail.com", "facebook": "https://www.facebook.com/Pizzerialeparis", "name": "Le Paris", "phone": "+39 3273467585"}}, {"type": "node", "id": 11083164544, "lat": 38.2715507, "lon": 16.2201733, "tags": {"amenity": "restaurant", "cuisine": "regional", "indoor_seating": "yes", "name": "Broccia", "outdoor_seating": "yes"}}, {"type": "node", "id": 11083164545, "lat": 38.2717587, "lon": 16.2200938, "tags": {"amenity": "restaurant", "cuisine": "regional", "name": "Il Brillo Parlante"}}, {"type": "node", "id": 11083164553, "lat": 38.2720977, "lon": 16.2187388, "tags": {"amenity": "restaurant", "cuisine": "pizza", "indoor_seating": "yes", "name": "Bar Dolce e Salato", "outdoor_seating": "yes"}}, {"type": "node", "id": 11083164563, "lat": 38.2722497, "lon": 16.2180469, "tags": {"amenity": "restaurant", "indoor_seating": "yes", "name": "Bistro des Artistes", "outdoor_seating": "yes"}}, {"type": "node", "id": 11084149309, "lat": 38.3572417, "lon": 16.0057619, "tags": {"addr:city": "Taurianova", "addr:postcode": "89029", "amenity": "restaurant", "cuisine": "pizza", "email": "santatecla.0108@gmail.com", "facebook": "https://www.facebook.com/p/Santa-Tecla-Pizzeria-100084166964796/", "instagram": "https://www.instagram.com/santatecla_pizzeria/", "name": "Santa Tecla", "phone": "+39 3291184949"}}, {"type": "node", "id": 11084149317, "lat": 38.3570789, "lon": 16.0046311, "tags": {"addr:city": "Taurianova", "addr:postcode": "89029", "amenity": "restaurant", "cuisine": "pizza", "facebook": "https://www.facebook.com/la.d.ristorantepizzeria/", "name": "La Diavola", "phone": "+39 3347143920"}}, {"type": "node", "id": 11101519495, "lat": 38.354387, "lon": 16.0110208, "tags": {"addr:city": "Taurianova", "addr:housenumber": "49", "addr:postcode": "89029", "addr:street": "Via Pentolai", "amenity": "cafe", "instagram": "https://www.instagram.com/bar_ilbuco", "name": "Il Buco", "outdoor_seating": "yes"}}, {"type": "node", "id": 11105906622, "lat": 38.6376442, "lon": 15.8485302, "tags": {"addr:city": "San Nicol\u00f2", "addr:postcode": "89866", "addr:street": "Viale Giuseppe Berto", "amenity": "restaurant", "cuisine": "sushi", "diet:fish": "yes", "name": "Live Fish & Sushi Capo Vaticano", "phone": "+39 3770976574", "website": "https://sushi.live/"}}, {"type": "node", "id": 11136309682, "lat": 38.6167799, "lon": 15.8613033}, {"type": "node", "id": 11136309686, "lat": 38.6166934, "lon": 15.8617426}, {"type": "node", "id": 11136309692, "lat": 38.6165885, "lon": 15.8617428}, {"type": "node", "id": 11136309693, "lat": 38.6165903, "lon": 15.8616074}, {"type": "node", "id": 11136309694, "lat": 38.6165346, "lon": 15.8616104}, {"type": "node", "id": 11136309695, "lat": 38.6165346, "lon": 15.8615406}, {"type": "node", "id": 11136309696, "lat": 38.6164848, "lon": 15.8615133}, {"type": "node", "id": 11136309697, "lat": 38.616435, "lon": 15.8614526}, {"type": "node", "id": 11136309698, "lat": 38.6164172, "lon": 15.8613964}, {"type": "node", "id": 11136309699, "lat": 38.6164172, "lon": 15.8612902}, {"type": "node", "id": 11136309700, "lat": 38.616441, "lon": 15.8612235}, {"type": "node", "id": 11136309701, "lat": 38.6164742, "lon": 15.8611749}, {"type": "node", "id": 11136309702, "lat": 38.6165014, "lon": 15.8611567}, {"type": "node", "id": 11136309703, "lat": 38.6165263, "lon": 15.861096}, {"type": "node", "id": 11136309704, "lat": 38.6165583, "lon": 15.8610733}, {"type": "node", "id": 11136331805, "lat": 38.6165773, "lon": 15.8610004}, {"type": "node", "id": 11136331806, "lat": 38.6166188, "lon": 15.8610095}, {"type": "node", "id": 11136331807, "lat": 38.6166508, "lon": 15.8608593}, {"type": "node", "id": 11136360742, "lat": 38.6060945, "lon": 15.871591, "tags": {"amenity": "cafe", "indoor_seating": "yes", "outdoor_seating": "yes"}}, {"type": "node", "id": 11142109974, "lat": 38.4892201, "lon": 16.0792874, "tags": {"addr:city": "Laureana di Borrello", "addr:housenumber": "8", "addr:postcode": "89023", "addr:street": "Via Roma", "amenity": "restaurant", "cuisine": "pizza;italian", "facebook": "https://www.facebook.com/raffaelemazzitelli.pizzachef/", "instagram": "https://www.instagram.com/partenope_pizzeria_ristorante/", "name": "Partenop\u00e8", "phone": "+39 0966421782", "website:menu": "https://www.partenopepizzeriaristorante.it/"}}, {"type": "node", "id": 11143641191, "lat": 38.3443345, "lon": 16.0156047, "tags": {"addr:city": "Taurianova", "addr:postcode": "89029", "amenity": "restaurant", "facebook": "https://www.facebook.com/trattoriapizzerianinazzu/", "name": "La trattoria di Ninazzu", "phone": "+39 3489262848"}}, {"type": "node", "id": 11147132833, "lat": 38.4050448, "lon": 16.0797472, "tags": {"addr:city": "Polistena", "addr:housenumber": "22", "addr:postcode": "89024", "addr:street": "Corso Mazzini", "amenity": "restaurant", "cuisine": "pizza", "email": "salva.macri@my.com", "facebook": "https://www.facebook.com/ilpaperogiallo1/", "instagram": "https://www.instagram.com/paperogiallo1999/", "name": "Il Papero Giallo", "payment:american_express": "yes", "payment:apple_pay": "yes", "payment:cash": "yes", "payment:discover_card": "yes", "payment:google_pay": "yes", "payment:mastercard": "yes", "payment:unionpay": "yes", "payment:visa": "yes", "phone": "+39 0966940539", "website:menu": "https://www.leggimenu.it/menu/paperogiallo1999"}}, {"type": "node", "id": 11148871343, "lat": 38.4065162, "lon": 16.0766146, "tags": {"addr:city": "Polistena", "addr:postcode": "89024", "addr:street": "Via Dottor Pasquale Jemma", "amenity": "cafe", "cuisine": "ice_cream", "facebook": "https://www.facebook.com/bellavistapolistena/", "instagram": "https://www.instagram.com/barbellavista/", "name": "Bar Bellavista", "outdoor_seating": "yes", "phone": "+39 0966931761"}}, {"type": "node", "id": 11161359560, "lat": 38.3594941, "lon": 16.0200981, "tags": {"addr:city": "Taurianova", "addr:postcode": "89029", "amenity": "restaurant", "email": "info@radikena.it", "facebook": "https://www.facebook.com/radikena/", "name": "Radikena", "phone": "+39 0966447359", "website": "https://www.radikena.it/"}}, {"type": "node", "id": 11163328608, "lat": 38.3906319, "lon": 15.9974443, "tags": {"addr:city": "Taurianova", "addr:postcode": "89029", "amenity": "restaurant", "email": "ristorantedagianni1@libero.it", "facebook": "https://www.facebook.com/p/Ristorante-Pizzeria-Da-Gianni-100039257273681/", "name": "Da Gianni", "phone": "+39 0966640060"}}, {"type": "node", "id": 11165082357, "lat": 38.6166054, "lon": 15.8363887}, {"type": "node", "id": 11208539979, "lat": 38.3604607, "lon": 15.9858129, "tags": {"addr:city": "San Martino di Taurianova", "addr:postcode": "89029", "amenity": "restaurant", "facebook": "https://www.facebook.com/LaFontanellaBarRistorantePizzeriaSaliTabacchi/", "name": "La Fontanella", "phone": "+39 0966638878", "ref:vatin": "01127420808", "shop": "tobacco"}}, {"type": "node", "id": 11211115304, "lat": 38.3557092, "lon": 15.8447657, "tags": {"amenity": "restaurant", "cuisine": "pizza", "name": "Nonna Vittoria"}}, {"type": "node", "id": 11212317028, "lat": 38.3664576, "lon": 15.8667007, "tags": {"amenity": "restaurant", "name": "Bourakhe'", "phone": "+39 096646383", "website:menu": "https://bourakhe.it/"}}, {"type": "node", "id": 11215503318, "lat": 38.3554653, "lon": 16.0147987, "tags": {"addr:city": "Taurianova", "addr:housenumber": "10", "addr:postcode": "89029", "addr:street": "Via Senatore Loschiavo", "amenity": "cafe", "email": "crystalcafetaurianova@gmail.com", "instagram": "https://www.instagram.com/bar_crystal/", "name": "Crystal Cafe", "phone": "+39 0966253669"}}, {"type": "node", "id": 11281606282, "lat": 38.4862441, "lon": 15.9774847, "tags": {"amenity": "cafe"}}, {"type": "node", "id": 11360705574, "lat": 38.3499192, "lon": 16.0055083, "tags": {"addr:city": "Taurianova", "addr:postcode": "89029", "addr:street": "Via Pietromeo", "air_conditioning": "yes", "amenity": "restaurant", "facebook": "https://www.facebook.com/antica.traccia/", "instagram": "https://www.instagram.com/anticatraccia/", "name": "Antica Traccia", "phone": "+39 0966255129", "ref:vatin": "03025020805", "website:menu": "https://menu.pienissimo.com/?hash=OzFMIA9au6J6cGlES1V0zohkgU1Zkucl&id=3"}}, {"type": "node", "id": 11465992758, "lat": 38.4173552, "lon": 16.0833929, "tags": {"amenity": "restaurant", "cuisine": "sushi", "name": "Ximi Sushi"}}, {"type": "node", "id": 11483533403, "lat": 38.3556745, "lon": 15.9994947, "tags": {"addr:city": "Taurianova", "addr:postcode": "89029", "amenity": "cafe", "name": "La Dolce Vita"}}, {"type": "node", "id": 11581848176, "lat": 38.566423, "lon": 16.1914201, "tags": {"amenity": "restaurant", "name": "Tenuta del Barone"}}, {"type": "node", "id": 11649028325, "lat": 38.6350778, "lon": 15.8386464, "tags": {"amenity": "restaurant", "name": "La Notte"}}, {"type": "node", "id": 11649058594, "lat": 38.6346585, "lon": 15.8337521}, {"type": "node", "id": 11649058595, "lat": 38.6347105, "lon": 15.8339999}, {"type": "node", "id": 11649058596, "lat": 38.6346751, "lon": 15.834048}, {"type": "node", "id": 11649058597, "lat": 38.6345601, "lon": 15.8340791}, {"type": "node", "id": 11649058598, "lat": 38.634497, "lon": 15.8338272}, {"type": "node", "id": 11650348211, "lat": 38.6108816, "lon": 15.8491783, "tags": {"amenity": "restaurant", "name": "Ristorante Paradise"}}, {"type": "node", "id": 11660263438, "lat": 38.3914441, "lon": 15.8714886, "tags": {"amenity": "restaurant", "name": "Radici"}}, {"type": "node", "id": 11708171366, "lat": 38.3121823, "lon": 15.8459997, "tags": {"amenity": "restaurant", "name": "La Chianina"}}, {"type": "node", "id": 11708415019, "lat": 38.3578343, "lon": 15.856344, "tags": {"air_conditioning": "yes", "amenity": "cafe", "indoor_seating": "yes", "name": "Mikala", "outdoor_seating": "no", "smoking": "no", "wheelchair": "yes"}}, {"type": "node", "id": 11708496302, "lat": 38.3651714, "lon": 15.8580862, "tags": {"amenity": "cafe", "indoor_seating": "yes", "outdoor_seating": "yes"}}, {"type": "node", "id": 11708588913, "lat": 38.3701343, "lon": 15.8621944, "tags": {"amenity": "cafe", "indoor_seating": "yes", "outdoor_seating": "yes"}}, {"type": "node", "id": 11708656294, "lat": 38.3938578, "lon": 15.8837559, "tags": {"amenity": "restaurant"}}, {"type": "node", "id": 11710488167, "lat": 38.4166595, "lon": 15.8944255, "tags": {"amenity": "restaurant"}}, {"type": "node", "id": 11710590628, "lat": 38.4218849, "lon": 15.8989378, "tags": {"amenity": "cafe", "indoor_seating": "yes", "outdoor_seating": "yes"}}, {"type": "node", "id": 11710627170, "lat": 38.4226094, "lon": 15.9011169, "tags": {"amenity": "cafe"}}, {"type": "node", "id": 11710766593, "lat": 38.465092, "lon": 15.9418279, "tags": {"amenity": "restaurant"}}, {"type": "node", "id": 11710867493, "lat": 38.4850418, "lon": 15.9725561, "tags": {"amenity": "cafe", "indoor_seating": "yes", "outdoor_seating": "yes"}}, {"type": "node", "id": 11710941050, "lat": 38.5140936, "lon": 15.9714786, "tags": {"amenity": "restaurant", "cuisine": "pizza", "name": "Valenzise"}}, {"type": "node", "id": 11715971021, "lat": 38.6250734, "lon": 15.8654151, "tags": {"amenity": "cafe"}}, {"type": "node", "id": 11716157938, "lat": 38.6317606, "lon": 15.8556967, "tags": {"amenity": "restaurant"}}, {"type": "node", "id": 11730413602, "lat": 38.6167669, "lon": 15.8613265}, {"type": "node", "id": 11865800175, "lat": 38.3492073, "lon": 16.0849544, "tags": {"amenity": "restaurant", "name": "Vecchio Mulino"}}, {"type": "node", "id": 12012852370, "lat": 38.6282685, "lon": 15.8433266, "tags": {"amenity": "restaurant", "cuisine": "fish;friture;local;seafood", "name": "Gastronomia Pescheria"}}, {"type": "node", "id": 12108840516, "lat": 38.3733123, "lon": 16.2422067, "tags": {"addr:city": "mammola", "addr:housenumber": "89045", "addr:street": "Contrada Brucuvelano", "amenity": "restaurant", "cuisine": "italian;gourmet", "name": "Locanda degli ulivi"}}, {"type": "node", "id": 12154067264, "lat": 38.3311326, "lon": 16.1643734, "tags": {"amenity": "restaurant", "name": "Ristorante da Cosimo"}}, {"type": "node", "id": 12155036794, "lat": 38.5445593, "lon": 15.9365911, "tags": {"amenity": "restaurant", "name": "Ristorante Giada"}}, {"type": "node", "id": 12155901500, "lat": 38.6026879, "lon": 16.3407114, "tags": {"amenity": "cafe"}}, {"type": "node", "id": 12159510830, "lat": 38.5782928, "lon": 15.8920266}, {"type": "node", "id": 12159510831, "lat": 38.5783784, "lon": 15.8920843}, {"type": "node", "id": 12159510832, "lat": 38.5783587, "lon": 15.8921637}, {"type": "node", "id": 12159510833, "lat": 38.5783266, "lon": 15.8922259}, {"type": "node", "id": 12159510834, "lat": 38.5782934, "lon": 15.8921978}, {"type": "node", "id": 12159510835, "lat": 38.5782559, "lon": 15.8921765}, {"type": "node", "id": 12160470318, "lat": 38.5726801, "lon": 15.9743222}, {"type": "node", "id": 12160470319, "lat": 38.5726654, "lon": 15.974362}, {"type": "node", "id": 12160470320, "lat": 38.572629, "lon": 15.9743693}, {"type": "node", "id": 12160470321, "lat": 38.5726049, "lon": 15.9743273}, {"type": "node", "id": 12160470322, "lat": 38.5726214, "lon": 15.974288}, {"type": "node", "id": 12160470323, "lat": 38.5726592, "lon": 15.9742789}, {"type": "node", "id": 12176725502, "lat": 38.6269992, "lon": 15.836682, "tags": {"amenity": "restaurant", "name": "A turri"}}, {"type": "node", "id": 12176740401, "lat": 38.6250803, "lon": 15.8410957, "tags": {"amenity": "restaurant", "name": "Happy days"}}, {"type": "node", "id": 12178051642, "lat": 38.4715979, "lon": 16.3449891, "tags": {"addr:city": "Nardodipace", "addr:housenumber": "16", "addr:postcode": "89824", "addr:street": "Viale della Pace", "amenity": "cafe", "name": "Mille idee"}}, {"type": "node", "id": 12185033114, "lat": 38.478271, "lon": 15.994463, "tags": {"amenity": "restaurant", "name": "Medmea"}}, {"type": "node", "id": 12186063794, "lat": 38.4915237, "lon": 15.9780051, "tags": {"amenity": "cafe", "name": "Titbit"}}, {"type": "node", "id": 12190248846, "lat": 38.2899334, "lon": 16.266933, "tags": {"amenity": "restaurant", "name": "Zio Salvatore", "phone": "+39 334 2438177"}}, {"type": "node", "id": 12212477901, "lat": 38.2339252, "lon": 16.2629396, "tags": {"amenity": "restaurant", "name": "Sans Souci"}}, {"type": "node", "id": 12238646486, "lat": 38.582146, "lon": 16.333234, "tags": {"addr:city": "Serra San Bruno", "addr:street": "Contrada San Rocco", "amenity": "cafe", "name": "Bar \"San Rocco\""}}, {"type": "node", "id": 12240859954, "lat": 38.5778884, "lon": 16.3274081, "tags": {"amenity": "cafe"}}, {"type": "node", "id": 12461195125, "lat": 38.6025499, "lon": 15.8583203}, {"type": "node", "id": 12461195126, "lat": 38.6025943, "lon": 15.8584016}, {"type": "node", "id": 12461195127, "lat": 38.6024851, "lon": 15.8585057}, {"type": "node", "id": 12461195128, "lat": 38.6024241, "lon": 15.8584}, {"type": "node", "id": 12520315076, "lat": 38.5056153, "lon": 16.091367, "tags": {"amenity": "restaurant", "cuisine": "pizza", "name": "Santa Lucia"}}, {"type": "node", "id": 12520647734, "lat": 38.4933858, "lon": 16.0904261, "tags": {"amenity": "restaurant", "cuisine": "pizza"}}, {"type": "node", "id": 12539206858, "lat": 38.4904417, "lon": 16.0804026, "tags": {"amenity": "cafe", "name": "Badu Caf\u00e8"}}, {"type": "node", "id": 12547066334, "lat": 38.4900769, "lon": 16.0819017, "tags": {"amenity": "cafe", "cuisine": "coffee_shop", "name": "Artemisia"}}, {"type": "node", "id": 12901440700, "lat": 38.6347, "lon": 15.8340142}, {"type": "way", "id": 236589705, "nodes": [2446104257, 2446104258, 2446104259, 2446104260, 2446104261, 2446104257], "tags": {"addr:city": "Spadola", "addr:housenumber": "85", "addr:postcode": "89822", "addr:street": "Via Ruggero", "amenity": "restaurant", "building": "yes", "cuisine": "regional", "name": "Taverna dei Borboni"}}, {"type": "way", "id": 364542929, "nodes": [3685793247, 3685793258, 3685793249, 3685793236, 3685793247], "tags": {"amenity": "restaurant", "building": "yes", "cuisine": "italian;pizza", "name": "L'Antica Chambra"}}, {"type": "way", "id": 364542952, "nodes": [3685793341, 3685793340, 3685793342, 3685793343, 3685793341], "tags": {"amenity": "restaurant", "building": "yes", "cuisine": "italian;pizza", "name": "Pizzeria Pino's"}}, {"type": "way", "id": 364667284, "nodes": [3687098239, 3687098238, 3687098240, 3687098241, 3687098239], "tags": {"addr:city": "Gioia Tauro", "addr:postcode": "89013", "addr:street": "Lungomare Metauro", "amenity": "cafe", "building": "commercial", "cuisine": "italian", "internet_access": "no", "name": "Lido Vulcano", "smoking": "outside"}}, {"type": "way", "id": 364667285, "nodes": [3687098254, 3687098253, 3687098251, 3687098252, 3687098254], "tags": {"amenity": "restaurant", "building": "yes", "cuisine": "fish", "name": "Tripodi", "shop": "seafood"}}, {"type": "way", "id": 373768749, "nodes": [3771821463, 3771821462, 3771821465, 3771821468, 3771821467, 3771821469, 3771821466, 3771821464, 3771821461, 3771821459, 3771821457, 3771819854, 3771819851, 3771819847, 3771819846, 3771819839, 3771819841, 3771819845, 3771819849, 3771819852, 3771819856, 3771821460, 3771821463], "tags": {"amenity": "restaurant", "building": "yes", "cuisine": "italian", "name": "Grotticelli", "operator": "Hotel Grotticelli", "outdoor_seating": "yes", "smoking": "separated"}}, {"type": "way", "id": 373768752, "nodes": [3771819837, 11165082357, 3771819834, 3771819835, 3771819838, 3771819843, 3771819842, 3771819848, 3771819840, 3771819844, 3771819837], "tags": {"amenity": "restaurant", "building": "yes", "cuisine": "italian", "name": "La Onda Blu", "outdoor_seating": "yes", "smoking": "separated", "wheelchair": "yes"}}, {"type": "way", "id": 544639621, "nodes": [5264603623, 5264603622, 5264603647, 5264603648, 5264603623], "tags": {"addr:street": "Lungomare delle Palme", "amenity": "restaurant", "building": "yes", "name": "La Giara", "outdoor_seating": "yes"}}, {"type": "way", "id": 544639622, "nodes": [5264603648, 5264603649, 5264603650, 5264603647, 5264603648], "tags": {"addr:street": "Lungomare delle Palme", "amenity": "restaurant", "building": "yes", "name": "Delle Palme", "outdoor_seating": "yes"}}, {"type": "way", "id": 544640045, "nodes": [5264606697, 2296932342, 5264606698, 5264606699, 5264606700, 5264606697], "tags": {"addr:street": "Lungomare delle Palme", "amenity": "restaurant", "building": "yes", "name": "Club Paradise Beach", "outdoor_seating": "no"}}, {"type": "way", "id": 554890279, "nodes": [4214387599, 5354622999, 5354623000, 4214387058, 5354623001, 4214387599], "tags": {"amenity": "cafe", "building": "yes", "name": "Bar grillo"}}, {"type": "way", "id": 621732316, "nodes": [5873318686, 5873318685, 5873318681, 5873318698, 5873318686], "tags": {"amenity": "cafe", "building": "yes", "name": "Bar Le Cascate"}}, {"type": "way", "id": 622002150, "nodes": [5876001072, 5876001073, 5876001074, 5876001075, 5876001072], "tags": {"amenity": "restaurant", "building": "yes", "name": "Pizzeria \"Da Cesare\""}}, {"type": "way", "id": 672507134, "nodes": [6297675573, 6297675571, 6297680956, 6297675572, 6297675569]}, {"type": "way", "id": 672507135, "nodes": [6297675574, 6297676992, 6297675575, 6297675576, 6297675577, 6297675574]}, {"type": "way", "id": 672507136, "nodes": [6297675569, 6297675570, 6297676987, 6297675573]}, {"type": "way", "id": 672507137, "nodes": [10279933884, 6297675579, 6297675580, 6297675581, 10279933884]}, {"type": "way", "id": 692804989, "nodes": [6504325220, 6504325221, 6504325222, 6504325223, 6504325220], "tags": {"addr:hamlet": "Santa Maria", "addr:postcode": "89866", "addr:street": "Piazza Santa Maria", "amenity": "restaurant", "building": "yes", "cuisine": "seafood;regional", "description:de": "Meeresfr\u00fcchte und lokale Spezialit\u00e4ten speisen, direkt am Meer", "name": "Ristorante da Barbone", "outdoor_seating": "yes", "phone": "+39 0963 665159", "wheelchair": "yes"}}, {"type": "way", "id": 695579771, "nodes": [6531651541, 6531651542, 6531651543, 6531651544, 6531651545, 6531651546, 6531651547, 6531651548, 6531651549, 6531651550, 6531651551, 6531651552, 6531651553, 6531651554, 6531651555, 6531651556, 6531651557, 6531651541], "tags": {"amenity": "restaurant", "building": "yes", "cuisine": "pizza", "landuse": "farmyard", "name": "Agriturismo Peppone", "tourism": "guest_house"}}, {"type": "way", "id": 699097638, "nodes": [6564871088, 6564871089, 6564871090, 6564871091, 6564871088], "tags": {"amenity": "restaurant", "building": "yes"}}, {"type": "way", "id": 768569080, "nodes": [7175290679, 7175290680, 7175290681, 7175290682, 7175290679], "tags": {"amenity": "restaurant", "building": "yes", "indoor_seating": "yes", "name": "Le III Farine", "outdoor_seating": "yes"}}, {"type": "way", "id": 801896456, "nodes": [7500512162, 7500512163, 7500512164, 7500512165, 7500512166, 7500512167, 7500512162], "tags": {"amenity": "cafe", "building": "yes", "name": "Imperial Bar"}}, {"type": "way", "id": 818311200, "nodes": [7642383197, 1894696586, 7642383200, 7642383198, 7642383199, 7642383197], "tags": {"amenity": "cafe", "building": "yes", "name": "Bar Crea"}}, {"type": "way", "id": 965551969, "nodes": [8932352254, 8932352255, 8932352256, 8932352257, 8932352254], "tags": {"amenity": "restaurant", "building": "yes"}}, {"type": "way", "id": 972047466, "nodes": [4308179920, 8996623868, 10940338305, 10940338306, 10940338307, 10940323904, 8996623869, 10940323903, 8996623878, 8996623875, 8996623870, 4308179925, 4308179920], "tags": {"amenity": "restaurant", "building": "yes", "horse": "yes", "name": "Cavallica Ranch"}}, {"type": "way", "id": 1126168659, "nodes": [10298052156, 10298052158, 10298052159, 10298052157, 10298052156], "tags": {"addr:housenumber": "10/12", "addr:street": "Via Nazionale", "alcohol": "yes", "alt_name": "Bar Pizzeria Pasticceria \"La Fontana Vecchia\"", "amenity": "cafe", "building": "yes", "contact:phone": "+39 0966 964084;+39 339 4151708", "cuisine": "regional;pizza;italian;dessert", "description:it": "Bar Pizzeria Pasticceria", "dinner": "yes", "lunch": "yes", "name": "Fontana Vecchia", "opening_hours": "Th-Tu 07:00-23:00", "operator": "Scibilia Giuseppe"}}, {"type": "way", "id": 1157456800, "nodes": [10764029711, 10764029712, 10764029713, 10764029714, 10764029711], "tags": {"amenity": "restaurant", "building": "yes", "cuisine": "pizza", "name": "Pizzeria I Fichi D'India"}}, {"type": "way", "id": 1157995076, "nodes": [10769302718, 10769302719, 10769302720, 10769302721, 10769302722, 10769302723, 10769302724, 10769302725, 10769302726, 10769302727, 10769302728, 10769302729, 10769302730, 10769302731, 10769302718], "tags": {"amenity": "restaurant", "building": "yes", "cuisine": "italian"}}, {"type": "way", "id": 1201094699, "nodes": [6594363294, 11136309682, 11730413602, 11136309686, 11136309692, 11136309693, 11136309694, 11136309695, 11136309696, 11136309697, 11136309698, 11136309699, 11136309700, 11136309701, 11136309702, 11136309703, 11136309704, 11136331805, 11136331806, 11136331807, 6594363286, 6594363285, 6594363293, 6594363294], "tags": {"amenity": "restaurant", "building": "yes"}}, {"type": "way", "id": 1253251547, "nodes": [11649058594, 11649058595, 12901440700, 11649058596, 11649058597, 11649058598, 11649058594], "tags": {"amenity": "restaurant", "building": "yes", "cuisine": "italian"}}, {"type": "way", "id": 1313683639, "nodes": [12159510830, 12159510831, 12159510832, 12159510833, 12159510834, 12159510835, 12159510830], "tags": {"amenity": "restaurant", "building": "yes", "cuisine": "pizza", "name": "Vista Mare"}}, {"type": "way", "id": 1313817590, "nodes": [12160470318, 12160470319, 12160470320, 12160470321, 12160470322, 12160470323, 12160470318], "tags": {"amenity": "cafe", "building": "yes"}}, {"type": "way", "id": 1347117124, "nodes": [12461195125, 12461195126, 12461195127, 12461195128, 12461195125], "tags": {"addr:street": "Via Stazione", "amenity": "restaurant", "bar": "yes", "building": "yes", "guest_house": "bed_and_breakfast", "name": "Bar Ristorante Lido La Baia Del Corsaro", "operator": "Bar Ristorante Lido La Baia Del Corsaro", "restaurant": "yes"}}, {"type": "relation", "id": 9349956, "members": [{"type": "way", "ref": 672507134, "role": "outer"}, {"type": "way", "ref": 672507136, "role": "outer"}, {"type": "way", "ref": 672507137, "role": "outer"}, {"type": "way", "ref": 672507135, "role": "outer"}], "tags": {"addr:city": "Santa Cristina d'Aspromonte", "addr:postcode": "89056", "addr:street": "Localit\u00e0 Calabretto", "amenity": "restaurant", "building": "yes", "cuisine": "italian;Michelin_star", "name": "Qafiz", "phone": "+390966878800", "type": "multipolygon", "website": "https://qafiz.it/"}}]}