{"version": 0.6, "generator": "Overpass API 0.7.62.7 375dc00a", "osm3s": {"timestamp_osm_base": "2025-06-14T14:51:30Z", "copyright": "The data included in this document is from www.openstreetmap.org. The data is made available under ODbL."}, "elements": [{"type": "node", "id": 2426467936, "lat": 13.6419341, "lon": 25.3230428, "tags": {"amenity": "cafe"}}, {"type": "node", "id": 2426467941, "lat": 13.653757, "lon": 25.3220128, "tags": {"amenity": "restaurant", "cuisine": "regional", "int_name": "Pancrop", "name": "Transit Camp Restaurant", "old_name": "Egyptian Restaurant"}}, {"type": "node", "id": 2426467944, "lat": 13.6206637, "lon": 25.3239011, "tags": {"addr:city": "\u0627\u0644\u0641\u0627\u0634\u0631", "addr:city:ar": "\u0627\u0644\u0641\u0627\u0634\u0631", "amenity": "restaurant", "cuisine": "international", "name": "\u0643\u0631\u0645\u0633\u0648\u0646 \u0644\u0627\u064a\u062a\u0632", "name:ar": "\u0643\u0631\u0645\u0633\u0648\u0646 \u0644\u0627\u064a\u062a\u0632", "name:en": "Crimson Lights"}}, {"type": "node", "id": 2426467959, "lat": 13.6417777, "lon": 25.3241103, "tags": {"amenity": "restaurant", "name": "ARC Cmpd Restaurant", "old_name": "Turkish Restaurant"}}, {"type": "node", "id": 2426467964, "lat": 13.6479603, "lon": 25.3182631, "tags": {"amenity": "cafe", "cuisine": "coffee_shop", "name": "Caf\u00e9 Tamam"}}, {"type": "node", "id": 2426467987, "lat": 13.6483067, "lon": 25.3183473, "tags": {"amenity": "restaurant", "cuisine": "international", "name": "Crimson Lights"}}, {"type": "node", "id": 12279730378, "lat": 13.6249348, "lon": 25.3557528, "tags": {"amenity": "restaurant", "name": "Riyadh Restaurant"}}]}