{"version": 0.6, "generator": "Overpass API 0.7.62.7 375dc00a", "osm3s": {"timestamp_osm_base": "2025-06-14T13:11:54Z", "copyright": "The data included in this document is from www.openstreetmap.org. The data is made available under ODbL."}, "elements": [{"type": "node", "id": 4727053591, "lat": 19.5644705, "lon": 5.7717457, "tags": {"addr:city": "\u0639\u064a\u0646 \u0642\u0632\u0627\u0645", "addr:country": "DZ", "addr:street": "\u0627\u0644\u0637\u0631\u064a\u0642 \u0627\u0644\u0639\u0627\u0628\u0631 \u0644\u0644\u0635\u062d\u0631\u0627\u0621", "amenity": "cafe", "name": "\u0642\u0647\u0648\u0629 \u0639\u0632\u062f\u064a\u0646 \u0645\u0639\u0633\u0643\u0631\u064a", "name:ar": "\u0642\u0647\u0648\u0629 \u0639\u0632\u062f\u064a\u0646 \u0645\u0639\u0633\u0643\u0631\u064a", "name:fr": "Azzedine Maaskri"}}, {"type": "node", "id": 6970555418, "lat": 19.5644634, "lon": 5.7718239, "tags": {"addr:city": "\u0639\u064a\u0646 \u0642\u0632\u0627\u0645", "amenity": "restaurant", "name": "\u0645\u0637\u0639\u0645 \u0648\u0645\u0642\u0647\u0649 \u062d\u0645\u0648", "name:ar": "\u0645\u0637\u0639\u0645 \u0648\u0645\u0642\u0647\u0649 \u062d\u0645\u0648", "name:fr": "Restaurant Cafee Hamou"}}, {"type": "node", "id": 6970555429, "lat": 19.5676517, "lon": 5.7720269, "tags": {"addr:city": "\u0639\u064a\u0646 \u0642\u0632\u0627\u0645", "amenity": "restaurant", "name": "Braiji Restaurant and Cafe \u0645\u0637\u0639\u0645 \u0648\u0645\u0642\u0647\u0649 \u0627\u0644\u0628\u0631\u0627\u064a\u062c\u064a", "name:ar": "\u0645\u0637\u0639\u0645 \u0648 \u0645\u0642\u0647\u0649 \u0627\u0644\u0628\u0631\u0627\u064a\u062c\u064a", "name:en": "Braiji Restaurant and Cafe", "name:fr": "Braidji Caf\u00e9 & Restaurant"}}, {"type": "node", "id": 8513605217, "lat": 19.5691705, "lon": 5.7723037, "tags": {"amenity": "cafe", "name": "\u0645\u0642\u0647\u0649", "name:en": "Ain Qazam Caf\u00e9", "name:fr": "In Gazam Caf\u00e9"}}, {"type": "node", "id": 8518205617, "lat": 19.569428, "lon": 5.7723954, "tags": {"amenity": "restaurant", "name": "\u0645\u0637\u0639\u0645 \u0639\u064a\u0646 \u0642\u0632\u0627\u0645", "name:fr": "Restaurant Hassan Jijeli"}}]}