{"version": 0.6, "generator": "Overpass API 0.7.62.7 375dc00a", "osm3s": {"timestamp_osm_base": "2025-06-14T14:47:30Z", "copyright": "The data included in this document is from www.openstreetmap.org. The data is made available under ODbL."}, "elements": [{"type": "node", "id": 420794220, "lat": 37.0434944, "lon": 25.0850006, "tags": {"amenity": "restaurant", "name": "Theologos Beach"}}, {"type": "node", "id": 420794247, "lat": 37.0432011, "lon": 25.0762572, "tags": {"amenity": "restaurant", "name": "Sifneiko Cafe"}}, {"type": "node", "id": 420806798, "lat": 37.0481902, "lon": 25.081595, "tags": {"amenity": "restaurant"}}, {"type": "node", "id": 421411346, "lat": 37.039974, "lon": 25.0823412, "tags": {"amenity": "cafe", "name": "Papagallos"}}, {"type": "node", "id": 421940921, "lat": 36.9720568, "lon": 25.0593977, "tags": {"amenity": "cafe", "name": "Soros", "outdoor_seating": "yes"}}, {"type": "node", "id": 421940923, "lat": 36.9744082, "lon": 25.0282059, "tags": {"air_conditioning": "no", "amenity": "restaurant", "check_date": "2023-08-03", "cuisine": "greek", "delivery": "no", "microbrewery": "no", "name": "Captain Pipinos", "opening_hours": "Mo-Su 12:15-23:00", "outdoor_seating": "yes", "phone": "+30 2284021823", "reservation": "no", "smoking": "no", "toilets": "yes", "website": "http://captainpipinos.com"}}, {"type": "node", "id": 423087522, "lat": 37.0342752, "lon": 25.0814653, "tags": {"amenity": "restaurant", "name": "Fanari Beach"}}, {"type": "node", "id": 423087536, "lat": 37.039244, "lon": 25.0827594, "tags": {"amenity": "restaurant", "cuisine": "chinese", "name": "Yam"}}, {"type": "node", "id": 423992096, "lat": 37.0420491, "lon": 25.0832632, "tags": {"amenity": "restaurant", "name": "Y\u00c9K\u00c9 Y\u00c9K\u00c9"}}, {"type": "node", "id": 424352110, "lat": 37.0401374, "lon": 25.0795037, "tags": {"amenity": "restaurant", "cuisine": "greek", "name": "Pantelis Taverna"}}, {"type": "node", "id": 427550584, "lat": 37.0400757, "lon": 25.0840041, "tags": {"amenity": "cafe", "name": "Mickeys"}}, {"type": "node", "id": 427626790, "lat": 37.0403253, "lon": 25.0794242, "tags": {"amenity": "restaurant", "name": "le castello"}}, {"type": "node", "id": 427747237, "lat": 37.0403054, "lon": 25.0836663, "tags": {"amenity": "restaurant"}}, {"type": "node", "id": 428699944, "lat": 37.0373456, "lon": 25.1007313, "tags": {"amenity": "restaurant", "name:en": "OEA Restaurant"}}, {"type": "node", "id": 428700192, "lat": 37.1238833, "lon": 25.2375805, "tags": {"amenity": "cafe", "indoor_seating": "yes", "name": "Platia", "outdoor_seating": "yes"}}, {"type": "node", "id": 534262522, "lat": 37.100309, "lon": 25.3737088}, {"type": "node", "id": 535435327, "lat": 37.0956743, "lon": 25.3751038, "tags": {"amenity": "cafe", "name": "Flisvos Beach Cafe", "website": "https://www.flisvos-sportclub.com/"}}, {"type": "node", "id": 538258795, "lat": 37.1020898, "lon": 25.3761068, "tags": {"addr:city": "Naxos Chora", "addr:postcode": "843 00", "addr:street": "Platia Protodikiou", "amenity": "restaurant", "cuisine": "greek;mediterranean", "name": "Scirocco"}}, {"type": "node", "id": 652713212, "lat": 37.0399825, "lon": 25.0824968, "tags": {"amenity": "cafe", "name": "Margarita"}}, {"type": "node", "id": 653129301, "lat": 37.0397216, "lon": 25.0828963, "tags": {"amenity": "restaurant", "name": "Klimataria", "wheelchair": "limited"}}, {"type": "node", "id": 806502852, "lat": 37.0989358, "lon": 25.3782914, "tags": {"amenity": "restaurant", "name": "Heaven's"}}, {"type": "node", "id": 810364593, "lat": 37.0591904, "lon": 25.359309, "tags": {"amenity": "cafe", "name": "Waffle House", "opening_hours": "Mo-Su 17:00-01:00"}}, {"type": "node", "id": 1039907506, "lat": 37.078169, "lon": 25.3529271, "tags": {"amenity": "restaurant", "name": "Perama"}}, {"type": "node", "id": 1039907511, "lat": 37.074449, "lon": 25.3511324, "tags": {"amenity": "restaurant", "name": "La Trattoria"}}, {"type": "node", "id": 1039907520, "lat": 37.0734873, "lon": 25.3521512, "tags": {"amenity": "restaurant", "name": "Blue Fin"}}, {"type": "node", "id": 1039907539, "lat": 37.0725308, "lon": 25.3526846, "tags": {"amenity": "restaurant", "name": "Fotis"}}, {"type": "node", "id": 1039907546, "lat": 37.0739731, "lon": 25.3516147, "tags": {"amenity": "cafe", "name": "Golden Beach"}}, {"type": "node", "id": 1039907549, "lat": 37.0742899, "lon": 25.3512634, "tags": {"amenity": "restaurant", "cuisine": "pizza", "name": "Colosseo"}}, {"type": "node", "id": 1039907586, "lat": 37.0737997, "lon": 25.3518025, "tags": {"addr:city": "Agios Prokopios", "addr:postcode": "84300", "amenity": "restaurant", "cuisine": "greek;mediterranean", "name": "Barbounis"}}, {"type": "node", "id": 1039936255, "lat": 37.1032321, "lon": 25.3749965, "tags": {"addr:city": "Naxos Chora", "addr:postcode": "84300", "amenity": "restaurant", "cuisine": "international", "name": "Barozzi", "opening_hours": "Mo-Su 18:00-24:00"}}, {"type": "node", "id": 1039936279, "lat": 37.103624, "lon": 25.3749407, "tags": {"amenity": "cafe", "internet_access": "yes", "internet_access:fee": "no", "name": "Bossa", "outdoor_seating": "yes"}}, {"type": "node", "id": 1152944093, "lat": 37.1008884, "lon": 25.3758494, "tags": {"addr:city": "Naxos Chora", "addr:postcode": "843 00", "amenity": "restaurant", "cuisine": "greek", "diet:healthy": "yes", "diet:vegetarian": "yes", "name": "Menu me nou", "opening_hours": "Mo-Su 10:00-22:00"}}, {"type": "node", "id": 1313440885, "lat": 37.1070137, "lon": 25.3748303, "tags": {"amenity": "restaurant", "cuisine": "italian", "name": "IL GIRASOLE"}}, {"type": "node", "id": 1313440888, "lat": 37.1061812, "lon": 25.3750451, "tags": {"amenity": "restaurant", "cuisine": "regional", "name": "Meze Meze"}}, {"type": "node", "id": 1313440905, "lat": 37.1062902, "lon": 25.374969, "tags": {"amenity": "restaurant"}}, {"type": "node", "id": 1313440958, "lat": 37.1069556, "lon": 25.3748576, "tags": {"amenity": "restaurant"}}, {"type": "node", "id": 1313441005, "lat": 37.1060544, "lon": 25.3751437, "tags": {"amenity": "cafe"}}, {"type": "node", "id": 1313441028, "lat": 37.1071625, "lon": 25.3747908, "tags": {"addr:postcode": "84300", "amenity": "restaurant", "cuisine": "greek", "name": "\u03a3\u03c4\u03b7\u03c2 \u0395\u03b9\u03c1\u03ae\u03bd\u03b7\u03c2", "opening_hours": "Mo-Su 10:00-00:00"}}, {"type": "node", "id": 1313441030, "lat": 37.1061033, "lon": 25.3751004, "tags": {"amenity": "restaurant"}}, {"type": "node", "id": 1313441071, "lat": 37.105957, "lon": 25.3752852, "tags": {"amenity": "restaurant"}}, {"type": "node", "id": 1350115793, "lat": 37.0627631, "lon": 25.3555071, "tags": {"amenity": "restaurant", "cuisine": "regional", "name": "Paradiso"}}, {"type": "node", "id": 1430757123, "lat": 37.107294, "lon": 25.3758145, "tags": {"amenity": "restaurant", "cuisine": "greek", "name": "Metaxi mas"}}, {"type": "node", "id": 1430867191, "lat": 37.1015193, "lon": 25.3765964, "tags": {"addr:city": "Naxos", "addr:postcode": "843 00", "addr:street": "\u03a0\u03b1\u03c0\u03b1\u03c1\u03c1\u03b7\u03b3\u03bf\u03c0\u03bf\u03cd\u03bb\u03bf\u03c5", "amenity": "restaurant", "cuisine": "greek;mediterranean", "name": "Maro's Taverna", "opening_hours": "Mo-Su 11:00-23:00"}}, {"type": "node", "id": 1430867194, "lat": 37.1049947, "lon": 25.3768606, "tags": {"addr:city": "Naxos Chora", "addr:postcode": "843 00", "amenity": "restaurant", "cuisine": "greek;mediterranean", "diet:vegetarian": "yes", "name": "Oniro Wine Bar", "opening_hours": "Mo-Su 11:00-23:00"}}, {"type": "node", "id": 1775151682, "lat": 37.0412116, "lon": 25.0771672, "tags": {"amenity": "restaurant", "cuisine": "greek"}}, {"type": "node", "id": 1775151687, "lat": 37.0414957, "lon": 25.0771895, "tags": {"amenity": "restaurant", "cuisine": "greek"}}, {"type": "node", "id": 1866902204, "lat": 37.0948812, "lon": 25.1452961, "tags": {"amenity": "restaurant", "cuisine": "greek", "name": "Arodo"}}, {"type": "node", "id": 1866909998, "lat": 37.0846369, "lon": 25.1498869, "tags": {"amenity": "cafe", "contact:facebook": "https://www.facebook.com/DistratoCafe/", "cuisine": "regional", "diet:vegan": "yes", "name": "Distrato", "phone": "+302284025175"}}, {"type": "node", "id": 1866915584, "lat": 37.1217494, "lon": 25.233338, "tags": {"amenity": "restaurant", "cuisine": "greek", "name": "Karina's Dream"}}, {"type": "node", "id": 1866920514, "lat": 37.0567898, "lon": 25.2073405, "tags": {"amenity": "restaurant", "cuisine": "greek", "name": "Agnantio"}}, {"type": "node", "id": 1866923282, "lat": 37.0564649, "lon": 25.2065036, "tags": {"amenity": "restaurant", "cuisine": "greek", "name": "\u039a\u03bb\u03b1\u03c1\u03af\u03bd\u03bf\u03c2", "name:el": "\u039a\u03bb\u03b1\u03c1\u03af\u03bd\u03bf\u03c2", "name:en": "Klarinos", "phone": "+30 22840 41608"}}, {"type": "node", "id": 1962316851, "lat": 37.1073823, "lon": 25.3756425, "tags": {"amenity": "restaurant", "cuisine": "greek", "name": "Taverna Apostolis"}}, {"type": "node", "id": 2262958668, "lat": 37.0750707, "lon": 25.3505529, "tags": {"amenity": "restaurant", "name": "Anesis"}}, {"type": "node", "id": 2262958672, "lat": 37.0747485, "lon": 25.3521328, "tags": {"amenity": "restaurant", "int_name": "Taverna \"O Giannoulis\"", "name": "\u03a4\u03b1\u03b2\u03ad\u03c1\u03bd\u03b1 \"\u039f \u0393\u03b9\u03b1\u03bd\u03bd\u03bf\u03cd\u03bb\u03b7\u03c2\""}}, {"type": "node", "id": 2344287650, "lat": 37.0377426, "lon": 25.2601852, "tags": {"amenity": "cafe", "name": "Soir\u00e9e"}}, {"type": "node", "id": 2357787611, "lat": 37.0506135, "lon": 25.3706465, "tags": {"amenity": "restaurant", "cuisine": "greek", "name": "Aronis Taverna"}}, {"type": "node", "id": 2357787614, "lat": 37.0537496, "lon": 25.3669223, "tags": {"amenity": "restaurant", "cuisine": "greek", "name": "Dolphin"}}, {"type": "node", "id": 2360803460, "lat": 37.1004534, "lon": 25.3775744, "tags": {"addr:city": "Naxos", "addr:housename": "To Elliniko", "addr:postcode": "84300", "addr:street": "\u03a0\u03b1\u03c0\u03b1\u03c1\u03c1\u03b7\u03b3\u03bf\u03c0\u03bf\u03cd\u03bb\u03bf\u03c5", "amenity": "restaurant", "cuisine": "greek", "indoor_seating": "yes", "name": "To Elliniko", "outdoor_seating": "yes", "phone": "+30 2285027050", "website": "https://www.toelliniko.com/"}}, {"type": "node", "id": 2456937520, "lat": 37.0683564, "lon": 25.3557811, "tags": {"amenity": "restaurant", "name": "Akrogiali"}}, {"type": "node", "id": 2456937522, "lat": 37.0695923, "lon": 25.3546543, "tags": {"amenity": "restaurant", "name": "Step By Step"}}, {"type": "node", "id": 2466378453, "lat": 37.0332066, "lon": 25.2550472, "tags": {"amenity": "restaurant", "name": "Fisilanis"}}, {"type": "node", "id": 2466378455, "lat": 37.0332944, "lon": 25.2551869, "tags": {"amenity": "restaurant"}}, {"type": "node", "id": 2751869244, "lat": 37.0698187, "lon": 25.3544345, "tags": {"amenity": "restaurant", "name": "Taverna I Avl\u00ed"}}, {"type": "node", "id": 2873173863, "lat": 37.0602258, "lon": 25.3579604, "tags": {"amenity": "restaurant", "cuisine": "regional", "name": "Taverna Nostimies Plaka"}}, {"type": "node", "id": 2898770524, "lat": 37.0900775, "lon": 25.1584225, "tags": {"addr:city": "Parikia, Paros", "addr:place": "Livadia", "amenity": "restaurant", "cuisine": "greek", "facebook": "https://facebook.com/parosrestaurant", "name": "Parea", "note": "traditional cafe and Greek meze, local products, Parian home-made sweets", "opening_hours": "Mo-Fr 18:00+; Sa-Su 13:00+", "phone": "+302284022006"}}, {"type": "node", "id": 2906306016, "lat": 36.9935577, "lon": 25.208768, "tags": {"amenity": "restaurant", "name": "The Cliff", "opening_hours": "Mo-Su,PH 10:00-18:00+"}}, {"type": "node", "id": 2969838055, "lat": 37.1065791, "lon": 25.3719206}, {"type": "node", "id": 2969838056, "lat": 37.1065267, "lon": 25.3718235}, {"type": "node", "id": 2969838057, "lat": 37.1064647, "lon": 25.3718758}, {"type": "node", "id": 2969838058, "lat": 37.1065164, "lon": 25.3719733}, {"type": "node", "id": 2969852508, "lat": 37.1063879, "lon": 25.3751275, "tags": {"amenity": "restaurant", "cuisine": "regional", "name": "Boulamatsis"}}, {"type": "node", "id": 3158319785, "lat": 37.1034535, "lon": 25.3746605}, {"type": "node", "id": 3158319787, "lat": 37.1034922, "lon": 25.3745795}, {"type": "node", "id": 3158319789, "lat": 37.1035465, "lon": 25.3747304}, {"type": "node", "id": 3158319791, "lat": 37.1035852, "lon": 25.3746494}, {"type": "node", "id": 3526264423, "lat": 37.1064911, "lon": 25.3751794, "tags": {"amenity": "restaurant", "name": "To Kati Allo"}}, {"type": "node", "id": 3578162180, "lat": 37.0269096, "lon": 25.3723601, "tags": {"amenity": "restaurant", "name": "Taverna Stelios"}}, {"type": "node", "id": 3609864369, "lat": 37.0721831, "lon": 25.3529223, "tags": {"addr:city": "Naxos", "addr:housename": "Sunset", "addr:postcode": "84300", "addr:street": "Agios Prokopios", "amenity": "restaurant", "cuisine": "greek", "name": "Sunset", "phone": "+302285042775", "website": "https://sunsetnaxos.com/"}}, {"type": "node", "id": 3669785452, "lat": 37.056061, "lon": 25.3619401, "tags": {"amenity": "cafe", "name": "Plaka Watersports", "shop": "sports"}}, {"type": "node", "id": 3669826143, "lat": 37.0592154, "lon": 25.3590881, "tags": {"amenity": "cafe", "name": "Cedar Cafe"}}, {"type": "node", "id": 3679886993, "lat": 37.0592974, "lon": 25.3586604, "tags": {"amenity": "restaurant", "cuisine": "mexican", "name": "Picasso"}}, {"type": "node", "id": 3679890298, "lat": 37.0613493, "lon": 25.356643, "tags": {"amenity": "restaurant", "cuisine": "greek", "diet:vegetarian": "yes", "name": "Manolis", "website": "https://tavernamanolis.gr/"}}, {"type": "node", "id": 3679892626, "lat": 37.0590512, "lon": 25.3593264, "tags": {"amenity": "restaurant", "cuisine": "italian", "name": "Amore mio"}}, {"type": "node", "id": 3680250601, "lat": 37.0593469, "lon": 25.3592588, "tags": {"amenity": "restaurant", "name": "Nostimies Naxos"}}, {"type": "node", "id": 3710105805, "lat": 37.0043103, "lon": 25.2232773, "tags": {"amenity": "restaurant", "name": "Anna"}}, {"type": "node", "id": 3710108533, "lat": 37.0033553, "lon": 25.2236491, "tags": {"amenity": "restaurant", "name": "Agkyra"}}, {"type": "node", "id": 3710108534, "lat": 37.0025726, "lon": 25.2276507, "tags": {"amenity": "restaurant", "name": "To Kyma"}}, {"type": "node", "id": 3710119774, "lat": 37.0042953, "lon": 25.2236105, "tags": {"amenity": "cafe", "diet:vegetarian": "yes", "name": "Centro"}}, {"type": "node", "id": 3715141685, "lat": 37.0026971, "lon": 25.2281253, "tags": {"amenity": "cafe", "name": "Markakis cafe"}}, {"type": "node", "id": 3723666954, "lat": 37.0848236, "lon": 25.1489391, "tags": {"amenity": "restaurant", "name": "Happy Green Cows", "phone": "+302284024691"}}, {"type": "node", "id": 3737662827, "lat": 37.1300995, "lon": 25.2132501, "tags": {"amenity": "restaurant", "cuisine": "greek", "name": "Kolymbitres"}}, {"type": "node", "id": 3737686425, "lat": 37.1306629, "lon": 25.2141215, "tags": {"amenity": "restaurant", "cuisine": "greek", "name": "\u0397 \u0392\u03af\u03b3\u03bb\u03b1", "name:el": "\u0397 \u0392\u03af\u03b3\u03bb\u03b1", "name:en": "Vigla"}}, {"type": "node", "id": 3749544716, "lat": 37.1022406, "lon": 25.2651052, "tags": {"amenity": "restaurant", "cuisine": "greek", "name": "Aspro"}}, {"type": "node", "id": 3749551484, "lat": 37.0355046, "lon": 25.2600259, "tags": {"amenity": "restaurant", "cuisine": "pizza", "indoor_seating": "yes", "name": "Soiree Restaurant Pizzeria", "opening_hours": "Mo-Su 09:00-23:30", "outdoor_seating": "yes"}}, {"type": "node", "id": 3749551485, "lat": 37.0504163, "lon": 25.2471876, "tags": {"amenity": "cafe"}}, {"type": "node", "id": 3749561576, "lat": 36.9750543, "lon": 25.0593319, "tags": {"amenity": "restaurant", "cuisine": "greek", "internet_access": "wlan", "name:en": "Taverna Peramataki", "operator": "Costas"}}, {"type": "node", "id": 3861768009, "lat": 37.0904946, "lon": 25.1568165, "tags": {"amenity": "restaurant", "name": "Livadia"}}, {"type": "node", "id": 3988369842, "lat": 37.1205208, "lon": 25.2411834, "tags": {"amenity": "restaurant", "cuisine": "greek;souvlaki;traditional", "delivery": "yes", "internet_access": "wlan", "level": "0", "name": "Comfuzio", "name:el": "\u039a\u03bf\u03bc\u03c6\u03bf\u03cd\u03b6\u03b9\u03bf", "outdoor_seating": "yes", "phone": "+302284053360", "takeaway": "yes"}}, {"type": "node", "id": 4146267090, "lat": 37.0586787, "lon": 25.3594244, "tags": {"amenity": "restaurant", "name": "Vlassi's Family"}}, {"type": "node", "id": 4215725804, "lat": 37.0221866, "lon": 25.3714979}, {"type": "node", "id": 4215725805, "lat": 37.0221926, "lon": 25.3712878}, {"type": "node", "id": 4215725806, "lat": 37.0223268, "lon": 25.3715041}, {"type": "node", "id": 4215725807, "lat": 37.0223297, "lon": 25.3714052}, {"type": "node", "id": 4215725808, "lat": 37.0223386, "lon": 25.3713181}, {"type": "node", "id": 4215725809, "lat": 37.0223392, "lon": 25.3712944}, {"type": "node", "id": 4215725810, "lat": 37.0223548, "lon": 25.3714063}, {"type": "node", "id": 4215725811, "lat": 37.0223573, "lon": 25.371319}, {"type": "node", "id": 4218321040, "lat": 37.0574933, "lon": 25.3606476, "tags": {"amenity": "restaurant", "name": "Glaronissi"}}, {"type": "node", "id": 4218321044, "lat": 37.05662, "lon": 25.3613607, "tags": {"amenity": "cafe", "name": "Plakaf\u00e9 beach bar"}}, {"type": "node", "id": 4218321045, "lat": 37.0578101, "lon": 25.3602365, "tags": {"amenity": "restaurant", "cuisine": "greek", "name": "Voula"}}, {"type": "node", "id": 4218321647, "lat": 37.055767, "lon": 25.3630472, "tags": {"amenity": "restaurant", "cuisine": "greek", "name": "3 Brothers"}}, {"type": "node", "id": 4308983076, "lat": 37.0817581, "lon": 25.1458953, "tags": {"amenity": "restaurant", "name": "Impasto Pizza"}}, {"type": "node", "id": 4308983077, "lat": 37.0817283, "lon": 25.1458742, "tags": {"amenity": "restaurant", "name": "Dacco's"}}, {"type": "node", "id": 4308983080, "lat": 37.0820282, "lon": 25.1460284, "tags": {"amenity": "restaurant", "cuisine": "regional", "name": "Taverna Meltemi"}}, {"type": "node", "id": 4308983081, "lat": 37.082004, "lon": 25.1460143, "tags": {"amenity": "restaurant", "cuisine": "italian", "name": "Il Napoletano"}}, {"type": "node", "id": 4308983082, "lat": 37.0819909, "lon": 25.1460027, "tags": {"amenity": "restaurant", "name": "Britzoladiko"}}, {"type": "node", "id": 4309091874, "lat": 37.0831049, "lon": 25.1464346, "tags": {"amenity": "restaurant", "check_date": "2024-05-19", "name": "Hibiscus", "opening_hours": "12:00-24:00"}}, {"type": "node", "id": 4309091875, "lat": 37.0823672, "lon": 25.1461918, "tags": {"amenity": "cafe", "name": "Classcafe"}}, {"type": "node", "id": 4309091876, "lat": 37.0824082, "lon": 25.1461685, "tags": {"amenity": "restaurant", "name": "Nidaros Pizzeria"}}, {"type": "node", "id": 4309091877, "lat": 37.0824492, "lon": 25.1462011, "tags": {"amenity": "cafe", "name": "Steliod Cafe"}}, {"type": "node", "id": 4309091879, "lat": 37.0827807, "lon": 25.1463529, "tags": {"amenity": "cafe", "name": "Classcafe"}}, {"type": "node", "id": 4309091880, "lat": 37.0828608, "lon": 25.1463623, "tags": {"amenity": "restaurant", "name": "Nidaros Pizzeria"}}, {"type": "node", "id": 4309091881, "lat": 37.0829391, "lon": 25.1463926, "tags": {"amenity": "cafe", "name": "Steliod Cafe"}}, {"type": "node", "id": 4309091882, "lat": 37.0834734, "lon": 25.1465429, "tags": {"addr:postcode": "84400", "addr:street": "\u03a0\u03b1\u03c1\u03b1\u03bb\u03b9\u03b1\u03ba\u03ae", "amenity": "cafe", "check_date": "2024-05-19", "cuisine": "burger;sandwich;breakfast;ice_cream;crepe;cake;coffee_shop", "internet_access": "wlan", "name": "Cosa", "opening_hours": "09:00-01:00", "operator": "\u0393\u03b9\u03b1\u03bd\u03bd\u03bf\u03c5\u03bb\u03b7\u03c2 \u039d\u03b9\u03ba\u03bf\u03bb\u03b1\u03bf\u03c2"}}, {"type": "node", "id": 4309091886, "lat": 37.0840268, "lon": 25.1467234, "tags": {"amenity": "cafe", "check_date": "2024-05-19", "name": "Kafepotopoleio Pinoklis", "opening_hours": "Mo off; Tu-Su 08:00-03:00"}}, {"type": "node", "id": 4309097168, "lat": 37.085295, "lon": 25.1476189, "tags": {"amenity": "restaurant", "name": "Plaza"}}, {"type": "node", "id": 4309104220, "lat": 37.0855601, "lon": 25.1484298, "tags": {"amenity": "restaurant", "name": "Albatross sea food"}}, {"type": "node", "id": 4309104222, "lat": 37.0858993, "lon": 25.1486024, "tags": {"amenity": "restaurant", "indoor_seating": "yes", "name": "Yiannulis Grill Restaurant", "outdoor_seating": "yes"}}, {"type": "node", "id": 4309104223, "lat": 37.087691, "lon": 25.1551249, "tags": {"amenity": "restaurant", "diet:vegan": "yes", "diet:vegetarian": "yes", "name": "Aeoli"}}, {"type": "node", "id": 4319608236, "lat": 37.036928, "lon": 25.2522686, "tags": {"amenity": "restaurant"}}, {"type": "node", "id": 4319608278, "lat": 37.1041638, "lon": 25.2663733, "tags": {"amenity": "restaurant", "name": "Christiana"}}, {"type": "node", "id": 4319608279, "lat": 37.1061314, "lon": 25.2671752, "tags": {"amenity": "restaurant", "name": "To thalami"}}, {"type": "node", "id": 4323900068, "lat": 37.0869874, "lon": 25.2000561, "tags": {"amenity": "restaurant", "name": "To Marathi"}}, {"type": "node", "id": 4327912458, "lat": 37.0976276, "lon": 25.3800103, "tags": {"amenity": "cafe", "name": "Dolce"}}, {"type": "node", "id": 4329359539, "lat": 37.1014129, "lon": 25.3804263, "tags": {"amenity": "restaurant", "name": "Alsos"}}, {"type": "node", "id": 4331272853, "lat": 37.0988642, "lon": 25.3781512, "tags": {"amenity": "restaurant", "name": "To Ktima"}}, {"type": "node", "id": 4339397685, "lat": 37.1052861, "lon": 25.3772747, "tags": {"addr:city": "Naxos Chora", "addr:postcode": "843 00", "amenity": "cafe", "cuisine": "american;breakfast", "name": "Avaton 1739"}}, {"type": "node", "id": 4352828592, "lat": 37.0275115, "lon": 25.3722547, "tags": {"amenity": "restaurant", "name": "kontos"}}, {"type": "node", "id": 4366948289, "lat": 37.1015446, "lon": 25.3761779, "tags": {"amenity": "restaurant", "indoor_seating": "yes", "name": "pizzadelia", "outdoor_seating": "yes"}}, {"type": "node", "id": 4378204014, "lat": 37.0668529, "lon": 25.3562145, "tags": {"addr:city": "\u0391\u03b3\u03af\u03b1 \u0391\u03bd\u03bd\u03b1", "addr:housenumber": "843 00", "addr:postcode": "84300", "addr:street": "Ag. Anna", "amenity": "restaurant", "cuisine": "greek;seafood", "diet:vegetarian": "yes", "name": "\u03a4\u03b1\u03b2\u03ad\u03c1\u03bd\u03b1 \"\u0393\u03bf\u03c1\u03b3\u03cc\u03bd\u03b1\"", "name:el": "\u03a4\u03b1\u03b2\u03ad\u03c1\u03bd\u03b1 \"\u0393\u03bf\u03c1\u03b3\u03cc\u03bd\u03b1\"", "name:en": "Gorgona Greek Tavern", "name:fr": "Gorgona Greek Tavern"}}, {"type": "node", "id": 4382457889, "lat": 37.0812915, "lon": 25.1504685, "tags": {"addr:postcode": "84400", "addr:street": "Periferiakos", "amenity": "cafe", "brand": "Coffee Island", "brand:wikidata": "Q60867333", "cuisine": "coffee_shop", "internet_access": "wlan", "name": "Coffee Island", "name:el": "Coffee island", "opening_hours": "Mo-Su 08:00-22:00", "operator": "\u03a6\u03b1\u03bd\u03c4\u03b7 \u0394\u03b7\u03bc\u03b7\u03c4\u03c1\u03b1 - \u039d\u03b9\u03ba\u03bf\u03bb\u03bb\u03b5\u03c4\u03b1", "phone": "2284028281", "takeaway": "yes", "website": "https://www.coffeeisland.gr/"}}, {"type": "node", "id": 4396817189, "lat": 37.1070475, "lon": 25.3752412, "tags": {"addr:postcode": "84300", "addr:street": "Old Market Street", "amenity": "restaurant", "cuisine": "greek", "name": "Vassilis"}}, {"type": "node", "id": 4405527690, "lat": 37.1245579, "lon": 25.2382615, "tags": {"amenity": "restaurant", "indoor_seating": "yes", "name": "\u0393\u03b5\u03bc\u03b5\u03bd\u03b9", "name:el": "\u0393\u03b5\u03bc\u03b5\u03bd\u03b9", "name:it": "Yemeni", "outdoor_seating": "yes"}}, {"type": "node", "id": 4477396519, "lat": 37.1240293, "lon": 25.2357452, "tags": {"addr:city": "Naoussa", "addr:postcode": "84401", "amenity": "restaurant", "cuisine": "greek", "name": "Mediterraneo"}}, {"type": "node", "id": 4477398667, "lat": 37.1241128, "lon": 25.2362637, "tags": {"addr:city": "Naoussa", "addr:postcode": "84401", "amenity": "restaurant", "cuisine": "greek", "indoor_seating": "yes", "name": "Meltemi", "outdoor_seating": "yes"}}, {"type": "node", "id": 4477438254, "lat": 37.1240273, "lon": 25.2364221, "tags": {"addr:city": "Naoussa", "addr:postcode": "84401", "amenity": "restaurant", "name": "Ta Kritikakia"}}, {"type": "node", "id": 4477448022, "lat": 37.1250807, "lon": 25.2374485, "tags": {"addr:city": "\u039d\u03ac\u03bf\u03c5\u03c3\u03b1", "addr:postcode": "84401", "amenity": "restaurant", "cuisine": "greek", "indoor_seating": "yes", "name": "Barbarosssa", "outdoor_seating": "yes"}}, {"type": "node", "id": 4477465983, "lat": 37.1241751, "lon": 25.2396318, "tags": {"addr:city": "\u039d\u03ac\u03bf\u03c5\u03c3\u03b1", "addr:postcode": "84401", "amenity": "restaurant", "cuisine": "greek", "name": "Kapari"}}, {"type": "node", "id": 4477472050, "lat": 37.117554, "lon": 25.2428761, "tags": {"amenity": "restaurant", "cuisine": "greek", "name": "\u039c\u03b1\u03c4\u03b6\u03bf\u03c5\u03c1\u03ac\u03bd\u03b1", "name:el": "\u039c\u03b1\u03c4\u03b6\u03bf\u03c5\u03c1\u03ac\u03bd\u03b1", "name:en": "Matzourana", "phone": "+30 22847 71171"}}, {"type": "node", "id": 4482490189, "lat": 37.1025369, "lon": 25.2658871, "tags": {"amenity": "restaurant", "name": "Taverna Argyris"}}, {"type": "node", "id": 4482493558, "lat": 37.122505, "lon": 25.2149844, "tags": {"amenity": "restaurant", "name": "Taverna Spyros"}}, {"type": "node", "id": 4768038124, "lat": 36.996858, "lon": 25.1364719, "tags": {"amenity": "restaurant", "name:en": "Apoplous"}}, {"type": "node", "id": 4784787132, "lat": 37.1080481, "lon": 25.3759, "tags": {"amenity": "restaurant", "cuisine": "greek", "name": "Kozi", "opening_hours": "Mo-Su 13:00-00:00", "phone": "+302285024571", "website": "https://kozinaxos.gr"}}, {"type": "node", "id": 4793844675, "lat": 37.0912471, "lon": 25.1567779, "tags": {"amenity": "restaurant", "name": "Koralli", "opening_hours": "Mo-Su 12:30-01:00", "website": "https://www.coralliparos.com/"}}, {"type": "node", "id": 4795206496, "lat": 37.0898063, "lon": 25.1566522, "tags": {"amenity": "restaurant", "cuisine": "seafood", "name": "Filoxenia"}}, {"type": "node", "id": 4795208601, "lat": 37.0885114, "lon": 25.1559659, "tags": {"amenity": "cafe", "name": "Paros Beach Cafe"}}, {"type": "node", "id": 4795208602, "lat": 37.0869938, "lon": 25.1536061, "tags": {"amenity": "restaurant", "cuisine": "greek", "name": "To Souvlaki Tou Pepe"}}, {"type": "node", "id": 4795208796, "lat": 37.0890386, "lon": 25.1562221, "tags": {"amenity": "restaurant", "cuisine": "greek", "name": "Zannet"}}, {"type": "node", "id": 4795208797, "lat": 37.0888364, "lon": 25.1561651, "tags": {"amenity": "restaurant", "cuisine": "greek", "name": "Apostolis"}}, {"type": "node", "id": 4795208798, "lat": 37.0874206, "lon": 25.154785, "tags": {"amenity": "restaurant", "cuisine": "greek", "name": "Trata"}}, {"type": "node", "id": 4801308870, "lat": 37.0033093, "lon": 25.2058565, "tags": {"amenity": "restaurant", "name": "Souflaki The Canadian"}}, {"type": "node", "id": 4802299872, "lat": 37.0847249, "lon": 25.1502147, "tags": {"amenity": "cafe", "internet_access:fee": "no", "level": "0", "name": "Symposium", "outdoor_seating": "yes", "takeaway": "yes", "wheelchair": "no"}}, {"type": "node", "id": 4804243163, "lat": 37.055673, "lon": 25.2088399, "tags": {"amenity": "cafe", "indoor_seating": "yes", "level": "0", "name": "\u0392\u03b9\u03c4\u03b6\u03b7\u03bb\u03b1\u03af\u03bf\u03c2", "outdoor_seating": "yes"}}, {"type": "node", "id": 4804243203, "lat": 37.085174, "lon": 25.1511299, "tags": {"amenity": "cafe", "level": "0", "name": "\u0399\u03b4\u03ad\u03b1"}}, {"type": "node", "id": 4806344696, "lat": 37.0562491, "lon": 25.2066275, "tags": {"amenity": "cafe", "drink:coffee": "served", "internet_access": "wlan", "internet_access:fee": "no", "internet_access:ssid": "aggelantonis", "name": "\u0391\u03b3\u03b3\u03b5\u03bb\u03b1\u03bd\u03c4\u03ce\u03bd\u03b7\u03c2", "name:el": "\u0391\u03b3\u03b3\u03b5\u03bb\u03b1\u03bd\u03c4\u03ce\u03bd\u03b7\u03c2", "name:en": "Aggelantonis"}}, {"type": "node", "id": 4906215013, "lat": 37.0857765, "lon": 25.1483719, "tags": {"amenity": "cafe", "name": "Hot Spot"}}, {"type": "node", "id": 4906216237, "lat": 37.0857898, "lon": 25.1503559, "tags": {"amenity": "cafe", "indoor_seating": "yes", "name": "Orange Cafe", "outdoor_seating": "yes"}}, {"type": "node", "id": 4910746063, "lat": 37.0851466, "lon": 25.1486802, "tags": {"amenity": "cafe", "name": "Coffee Shop"}}, {"type": "node", "id": 4913764089, "lat": 37.1239176, "lon": 25.236682, "tags": {"amenity": "cafe", "name": "YoLove"}}, {"type": "node", "id": 4915741267, "lat": 37.1247313, "lon": 25.2373405, "tags": {"amenity": "cafe", "indoor_seating": "yes", "name": "la Zucca vino e amore", "outdoor_seating": "yes"}}, {"type": "node", "id": 4915741268, "lat": 37.1246554, "lon": 25.2373123, "tags": {"amenity": "restaurant", "indoor_seating": "yes", "name": "Calypso", "outdoor_seating": "yes"}}, {"type": "node", "id": 4915741269, "lat": 37.1245592, "lon": 25.2372533, "tags": {"amenity": "restaurant", "indoor_seating": "yes", "name": "MIT love to the bone", "outdoor_seating": "yes"}}, {"type": "node", "id": 4915741273, "lat": 37.1247174, "lon": 25.2376489, "tags": {"amenity": "restaurant", "cuisine": "greek;fish", "indoor_seating": "no", "name": "\u03a4\u03c3\u03b1\u03c7\u03c0\u03af\u03bd\u03b7\u03c2", "name:el": "\u03a4\u03c3\u03b1\u03c7\u03c0\u03af\u03bd\u03b7\u03c2", "name:en": "Tsachpinis", "outdoor_seating": "yes"}}, {"type": "node", "id": 4915753389, "lat": 37.1248053, "lon": 25.2379381, "tags": {"amenity": "restaurant", "indoor_seating": "yes", "name": "Moschonas", "outdoor_seating": "yes"}}, {"type": "node", "id": 4915753393, "lat": 37.1248094, "lon": 25.2378514, "tags": {"amenity": "restaurant", "indoor_seating": "yes", "level": "0", "name": "Tsachpinis", "outdoor_seating": "yes"}}, {"type": "node", "id": 4915753414, "lat": 37.1248618, "lon": 25.2375524, "tags": {"amenity": "restaurant", "indoor_seating": "no", "name": "Sigi Ikthios", "outdoor_seating": "yes"}}, {"type": "node", "id": 4915753415, "lat": 37.1250061, "lon": 25.237437, "tags": {"amenity": "restaurant", "indoor_seating": "yes", "name": "Mare Nostrum", "outdoor_seating": "yes"}}, {"type": "node", "id": 4915753416, "lat": 37.1249249, "lon": 25.2373606, "tags": {"amenity": "restaurant", "indoor_seating": "yes", "int_name": "Axinos", "name": "\u0391\u03c7\u03b9\u03bd\u03cc\u03c2", "outdoor_seating": "yes"}}, {"type": "node", "id": 4915753417, "lat": 37.1248425, "lon": 25.2373311, "tags": {"amenity": "restaurant", "indoor_seating": "yes", "name": "\u0391\u03c7\u03b9\u03bd\u03cc\u03c2", "name:el": "\u0391\u03c7\u03b9\u03bd\u03cc\u03c2", "name:en": "Axinos", "outdoor_seating": "yes"}}, {"type": "node", "id": 4917632633, "lat": 37.1241582, "lon": 25.2372788, "tags": {"amenity": "restaurant", "cuisine": "grill", "indoor_seating": "yes", "name": "Pita Frank", "outdoor_seating": "yes"}}, {"type": "node", "id": 4917632665, "lat": 37.1244758, "lon": 25.2371876, "tags": {"amenity": "cafe", "indoor_seating": "yes", "name": "Karino", "outdoor_seating": "yes"}}, {"type": "node", "id": 4917632666, "lat": 37.124418, "lon": 25.2371487, "tags": {"amenity": "cafe", "indoor_seating": "no", "name": "Le P'tit Cafe", "outdoor_seating": "yes"}}, {"type": "node", "id": 4922572465, "lat": 37.1235038, "lon": 25.2391027, "tags": {"amenity": "restaurant", "name": "Open Garden"}}, {"type": "node", "id": 4922572470, "lat": 37.1236781, "lon": 25.2379695, "tags": {"amenity": "restaurant", "cuisine": "pizza", "indoor_seating": "no", "name": "Pizzarella", "outdoor_seating": "yes"}}, {"type": "node", "id": 4922572471, "lat": 37.1237497, "lon": 25.2378716, "tags": {"amenity": "restaurant", "indoor_seating": "yes", "name": "Ladi & Rigani", "outdoor_seating": "yes"}}, {"type": "node", "id": 4922572512, "lat": 37.1237476, "lon": 25.2381264, "tags": {"amenity": "cafe", "indoor_seating": "yes", "name": "Aimona", "outdoor_seating": "yes"}}, {"type": "node", "id": 4922572516, "lat": 37.1239682, "lon": 25.2378354, "tags": {"amenity": "restaurant", "indoor_seating": "no", "name": "Yianiyamas", "outdoor_seating": "yes"}}, {"type": "node", "id": 4922572517, "lat": 37.1239828, "lon": 25.2377281, "tags": {"amenity": "cafe", "indoor_seating": "yes", "name": "Dennis", "outdoor_seating": "yes"}}, {"type": "node", "id": 4934266743, "lat": 37.1329038, "lon": 25.2219417, "tags": {"amenity": "cafe"}}, {"type": "node", "id": 4961172121, "lat": 37.1046515, "lon": 25.3757291, "tags": {"addr:city": "Naxos Chora", "addr:postcode": "843 00", "amenity": "cafe", "name": "Kitron Cafe Bar", "outdoor_seating": "yes", "phone": "+302285027055", "toilets": "yes"}}, {"type": "node", "id": 4976169321, "lat": 36.993834, "lon": 25.1361716, "tags": {"amenity": "restaurant", "cuisine": "grill;crepe;juice;pizza;seafood", "name": "Nikoleta", "outdoor_seating": "yes", "wheelchair": "limited"}}, {"type": "node", "id": 4990527221, "lat": 37.0416907, "lon": 25.0834949, "tags": {"amenity": "restaurant", "cuisine": "grill;greek", "internet_access": "wlan", "name": "George\u00b4s Grill"}}, {"type": "node", "id": 5010063927, "lat": 37.1151892, "lon": 25.2645193, "tags": {"amenity": "restaurant", "cuisine": "asian", "diet:vegetarian": "yes", "drink:beer": "served", "drink:coffee": "served", "drink:wine": "served", "internet_access": "wlan", "internet_access:fee": "no", "internet_access:ssid": "Taos Center", "name": "Tao's Center", "phone": "+30 2284 028882", "website": "https://taos-greece.com/restaurant/"}}, {"type": "node", "id": 5042810062, "lat": 37.1240872, "lon": 25.2359864, "tags": {"amenity": "cafe", "cuisine": "sandwich;breakfast;ice_cream;coffee_shop;greek", "internet_access": "wlan", "internet_access:fee": "no", "name": "\u039a\u03bf\u03af\u03c1\u03b1\u03bd\u03bf\u03c2", "name:el": "\u039a\u03bf\u03af\u03c1\u03b1\u03bd\u03bf\u03c2", "name:en": "Kiranos", "outdoor_seating": "yes"}}, {"type": "node", "id": 5053946973, "lat": 37.1001065, "lon": 25.3753127, "tags": {"addr:street": "\u0391\u03c1\u03b9\u03c3\u03c4\u03b5\u03b9\u03b4\u03b7 \u03a0\u03c1\u03c9\u03c4\u03bf\u03c0\u03b1\u03c0\u03b1\u03b4\u03b1\u03ba\u03b7- \u0391\u03c0\u03b5\u03b9\u03c1\u03ac\u03bd\u03b8\u03bf\u03c5, Chora Naxos 843 00, Gr\u00e8ce", "air_conditioning": "no", "amenity": "restaurant", "delivery": "no", "microbrewery": "no", "name": "Oasis", "opening_hours": "Mo-Su 11:00-01:00+", "outdoor_seating": "yes", "phone": "+30 2285 025606"}}, {"type": "node", "id": 5056618223, "lat": 37.1030973, "lon": 25.3760744, "tags": {"amenity": "restaurant", "cuisine": "greek", "name": "Elizabeth's Garden"}}, {"type": "node", "id": 5056618224, "lat": 37.1047642, "lon": 25.3765698, "tags": {"amenity": "restaurant", "cuisine": "greek", "indoor_seating": "yes", "name": "Typographio", "name:en": "Typographio", "outdoor_seating": "yes"}}, {"type": "node", "id": 5056618424, "lat": 37.0996699, "lon": 25.3753951, "tags": {"addr:city": "Naxos", "addr:street": "Protopapadaki", "amenity": "restaurant", "cuisine": "greek", "name:en": "Sergiani"}}, {"type": "node", "id": 5056618425, "lat": 37.1001889, "lon": 25.3753224, "tags": {"air_conditioning": "no", "amenity": "restaurant", "bar": "yes", "cuisine": "greek", "delivery": "no", "microbrewery": "no", "name:en": "Oasis", "outdoor_seating": "yes", "takeaway": "no", "toilets": "yes", "wheelchair": "yes"}}, {"type": "node", "id": 5056630521, "lat": 37.1021027, "lon": 25.3763433, "tags": {"amenity": "restaurant", "name:en": "Fotis Greek Cuisine"}}, {"type": "node", "id": 5056778526, "lat": 37.1005577, "lon": 25.3755063, "tags": {"air_conditioning": "no", "amenity": "restaurant", "cuisine": "greek", "delivery": "no", "name:en": "Meltemi", "outdoor_seating": "yes", "payment:cards": "yes", "payment:cash": "yes"}}, {"type": "node", "id": 5056780921, "lat": 37.1006535, "lon": 25.3773268, "tags": {"amenity": "restaurant", "cuisine": "greek;mediterranean", "diet:organic": "yes", "diet:vegetarian": "yes", "indoor_seating": "yes", "name": "Nostimon Hellas", "name:en": "Nostimon Hellas", "outdoor_seating": "yes"}}, {"type": "node", "id": 5057641423, "lat": 37.1052687, "lon": 25.3758078, "tags": {"amenity": "cafe", "cuisine": "coffee_shop;greek", "name": "Prime"}}, {"type": "node", "id": 5057645621, "lat": 37.1004914, "lon": 25.3754647, "tags": {"amenity": "cafe", "name:en": "Cafe Musses"}}, {"type": "node", "id": 5057645721, "lat": 37.1049134, "lon": 25.3757698, "tags": {"addr:street": "\u03a0\u03b1\u03c0\u03b1\u03b2\u03b1\u03c3\u03b9\u03bb\u03b5\u03af\u03bf\u03c5", "amenity": "cafe", "cuisine": "breakfast;coffee_shop;ice_cream;cake;burger;hot_dog;sandwich;greek", "int_name": "Rendez-vous", "name": "\u03a1\u03b1\u03bd\u03c4\u03b5\u03b2\u03bf\u03cd", "opening_hours": "07:00-01:00", "outdoor_seating": "yes", "phone": "+302285022266;+302285023858", "toilets": "yes", "website": "https://rendezvouscafe.gr/"}}, {"type": "node", "id": 5057716222, "lat": 37.1039131, "lon": 25.3754601, "tags": {"amenity": "cafe", "cuisine": "breakfast;greek", "name": "Klik cafe"}}, {"type": "node", "id": 5057716223, "lat": 37.1037227, "lon": 25.3750713, "tags": {"addr:city": "Naxos Chora", "addr:postcode": "84300", "amenity": "cafe", "internet_access": "yes", "internet_access:fee": "no", "name": "Cream & Coffee", "opening_hours": "Mo-Su 08:00-22:00", "outdoor_seating": "yes"}}, {"type": "node", "id": 5057722625, "lat": 37.1043456, "lon": 25.375549, "tags": {"amenity": "cafe", "name": "Omerto"}}, {"type": "node", "id": 5057722626, "lat": 37.1040504, "lon": 25.3754074, "tags": {"amenity": "restaurant", "cuisine": "barbecue", "name": "Yasouvlaki!"}}, {"type": "node", "id": 5057722627, "lat": 37.1039723, "lon": 25.3756729, "tags": {"amenity": "cafe", "cuisine": "crepe", "name": "Creparea"}}, {"type": "node", "id": 5059466125, "lat": 37.1016092, "lon": 25.3764731, "tags": {"addr:city": "Naxos", "addr:street": "Paparrigopoulou", "amenity": "restaurant", "cuisine": "greek;local;regional", "indoor_seating": "yes", "name": "Nikos", "outdoor_seating": "yes"}}, {"type": "node", "id": 5060490421, "lat": 37.0669641, "lon": 25.3566945, "tags": {"amenity": "restaurant", "name:en": "Oregano"}}, {"type": "node", "id": 5063562622, "lat": 37.1096408, "lon": 25.3727731, "tags": {"amenity": "cafe", "name": "Apollon Paradise", "name:en": "Apollon paradise"}}, {"type": "node", "id": 5064390121, "lat": 37.0883187, "lon": 25.1559043, "tags": {"amenity": "cafe", "cuisine": "ice_cream", "name": "Colori"}}, {"type": "node", "id": 5064390123, "lat": 37.0901127, "lon": 25.1566791, "tags": {"amenity": "restaurant", "cuisine": "greek", "name": "Ephessus"}}, {"type": "node", "id": 5064390124, "lat": 37.0902622, "lon": 25.1567338, "tags": {"amenity": "restaurant", "name": "Cavo d'Oro"}}, {"type": "node", "id": 5064390125, "lat": 37.0875503, "lon": 25.1548854, "tags": {"amenity": "restaurant", "cuisine": "greek", "name": "Taberna Kali Orexi"}}, {"type": "node", "id": 5064390126, "lat": 37.087269, "lon": 25.1543899, "tags": {"amenity": "cafe", "name:en": "Little Green Rocket"}}, {"type": "node", "id": 5064390127, "lat": 37.084881, "lon": 25.1491567, "tags": {"amenity": "restaurant", "name:en": "Daphne Restaurant & Bar"}}, {"type": "node", "id": 5064390128, "lat": 37.0842104, "lon": 25.1467324, "tags": {"amenity": "restaurant", "check_date": "2024-05-19", "cuisine": "greek", "name": "\u03a4\u03b1\u03b2\u03ad\u03c1\u03bd\u03b1 \u039c\u03bf\u03c5\u03c1\u03ac\u03b3\u03b9\u03bf", "name:el": "\u03a4\u03b1\u03b2\u03ad\u03c1\u03bd\u03b1 \u039c\u03bf\u03c5\u03c1\u03ac\u03b3\u03b9\u03bf", "name:en": "Taverna Mouragio", "opening_hours": "12:00-23:00"}}, {"type": "node", "id": 5064390221, "lat": 37.0891702, "lon": 25.1563316, "tags": {"amenity": "restaurant", "name": "Taberna Katerina"}}, {"type": "node", "id": 5064390521, "lat": 37.0874945, "lon": 25.1548104, "tags": {"amenity": "restaurant", "name": "Aromas", "opening_hours": "PH,Mo-Su 12:15-24:00"}}, {"type": "node", "id": 5064390621, "lat": 37.0855065, "lon": 25.1495508, "tags": {"amenity": "restaurant", "name:en": "Mad Hatters Bistro"}}, {"type": "node", "id": 5064390622, "lat": 37.0860847, "lon": 25.1495883, "tags": {"amenity": "cafe", "cuisine": "breakfast;coffee_shop;greek", "indoor_seating": "yes", "name:en": "Taverna Hellas", "outdoor_seating": "yes"}}, {"type": "node", "id": 5064520621, "lat": 37.0842774, "lon": 25.1467534, "tags": {"amenity": "restaurant", "check_date": "2024-05-19", "cuisine": "mediterranean", "name": "Mira", "name:en": "Mira", "opening_hours": "18:00-23:45"}}, {"type": "node", "id": 5064520622, "lat": 37.0842614, "lon": 25.1468285, "tags": {"amenity": "restaurant", "check_date": "2024-05-19", "name": "Bebop", "name:en": "Bebop", "opening_hours": "Mo-Fr,Su 18:00-03:00; Sa 06:00-03:00"}}, {"type": "node", "id": 5068318522, "lat": 37.0856934, "lon": 25.1482379, "tags": {"amenity": "cafe", "indoor_seating": "no", "name": "Salparo", "outdoor_seating": "yes"}}, {"type": "node", "id": 5068325021, "lat": 37.0861477, "lon": 25.16038, "tags": {"amenity": "cafe", "name:en": "Stradale"}}, {"type": "node", "id": 5068393422, "lat": 37.1243647, "lon": 25.2385551, "tags": {"amenity": "cafe", "cuisine": "breakfast;coffee_shop;sandwich", "facebook": "https://facebook.com/SousouroCafeBar", "name": "Sousouro"}}, {"type": "node", "id": 5071044121, "lat": 37.0400123, "lon": 25.0818578, "tags": {"amenity": "cafe", "cuisine": "breakfast;coffee_shop;crepe;pancake;pasta", "name": "Bougainvilles", "name:en": "Bougainvilles"}}, {"type": "node", "id": 5071103122, "lat": 37.0400718, "lon": 25.0814948, "tags": {"amenity": "cafe", "name:en": "Blender"}}, {"type": "node", "id": 5071112821, "lat": 37.0400216, "lon": 25.0814041, "tags": {"amenity": "restaurant", "name": "Manos"}}, {"type": "node", "id": 5071112822, "lat": 37.0402077, "lon": 25.0811829, "tags": {"amenity": "restaurant", "name:en": "Taverna Yorgis"}}, {"type": "node", "id": 5071112824, "lat": 37.0401262, "lon": 25.0837673, "tags": {"amenity": "cafe", "cuisine": "breakfast;sandwich", "name:en": "Elia Kafenes"}}, {"type": "node", "id": 5072875829, "lat": 37.0937947, "lon": 25.1554945, "tags": {"amenity": "cafe", "leisure": "beach_resort", "name": "\u039d\u03b1\u03c5\u03c4\u03b9\u03ba\u03cc\u03c2 \u03cc\u03bc\u03b9\u03bb\u03bf\u03c2 \u03a0\u03ac\u03c1\u03bf\u03c5"}}, {"type": "node", "id": 5072879624, "lat": 37.0907534, "lon": 25.1568557, "tags": {"amenity": "cafe", "name": "Akrogi\u00e1li"}}, {"type": "node", "id": 5073911723, "lat": 37.0832001, "lon": 25.1512158, "tags": {"amenity": "restaurant", "cuisine": "greek", "name:en": "Family Tavern Paros"}}, {"type": "node", "id": 5131309139, "lat": 37.1073238, "lon": 25.3753861, "tags": {"amenity": "restaurant", "name": "Doukato"}}, {"type": "node", "id": 5132512835, "lat": 37.1074593, "lon": 25.3745944, "tags": {"amenity": "cafe", "name": "Bikini"}}, {"type": "node", "id": 5177232290, "lat": 37.0846098, "lon": 25.1497963, "tags": {"amenity": "cafe", "name": "Mana Mana"}}, {"type": "node", "id": 5177234716, "lat": 37.121674, "lon": 25.2387039, "tags": {"amenity": "restaurant", "name": "Marmitta"}}, {"type": "node", "id": 5177236621, "lat": 37.1240672, "lon": 25.2358752, "tags": {"amenity": "restaurant", "name": "Paros"}}, {"type": "node", "id": 5226768396, "lat": 37.0508455, "lon": 25.2393103}, {"type": "node", "id": 5226768397, "lat": 37.050865, "lon": 25.2393141}, {"type": "node", "id": 5226768398, "lat": 37.0508527, "lon": 25.2394131}, {"type": "node", "id": 5226768399, "lat": 37.0506984, "lon": 25.239383}, {"type": "node", "id": 5226768400, "lat": 37.0507082, "lon": 25.2393045}, {"type": "node", "id": 5226768401, "lat": 37.0507284, "lon": 25.2393085}, {"type": "node", "id": 5226768402, "lat": 37.0507324, "lon": 25.2392758}, {"type": "node", "id": 5226768403, "lat": 37.0507576, "lon": 25.2392807}, {"type": "node", "id": 5226768404, "lat": 37.0507632, "lon": 25.2392353}, {"type": "node", "id": 5226768405, "lat": 37.0508527, "lon": 25.2392528}, {"type": "node", "id": 5300959948, "lat": 37.103764, "lon": 25.3757856, "tags": {"amenity": "restaurant", "name": "Taverna Sarris"}}, {"type": "node", "id": 5346904409, "lat": 37.0859124, "lon": 25.1501966, "tags": {"amenity": "restaurant", "cuisine": "\u03a8\u03b7\u03c4\u03bf\u03c0\u03c9\u03bb\u03b5\u03af\u03bf", "name": "\u0396\u03bf\u03c1\u03bc\u03c0\u03ac\u03c2"}}, {"type": "node", "id": 5482660091, "lat": 36.9955153, "lon": 25.1367079, "tags": {"amenity": "restaurant", "cuisine": "seafood;greek;pasta", "name": "\u039c\u03bf\u03c5\u03c1\u03ac\u03b3\u03b9\u03bf", "opening_hours": "Mo-Su 12:00-23:00", "outdoor_seating": "yes", "wheelchair": "yes"}}, {"type": "node", "id": 5482670349, "lat": 36.9952302, "lon": 25.1365962, "tags": {"amenity": "restaurant", "cuisine": "grill;seafood;greek;kebab;pasta", "name": "Vassilis", "opening_hours": "13:00-22:00", "outdoor_seating": "yes", "wheelchair": "yes"}}, {"type": "node", "id": 5482697521, "lat": 36.9920834, "lon": 25.1397193, "tags": {"amenity": "restaurant", "name": "THALASSAMOU"}}, {"type": "node", "id": 5482813462, "lat": 36.9956881, "lon": 25.1367154, "tags": {"amenity": "cafe", "name": "\u039c\u03b1\u03c1\u03af\u03bd\u03b1", "name:el": "\u039c\u03b1\u03c1\u03af\u03bd\u03b1", "name:en": "Caf\u00e9 Marina", "opening_hours": "Mo-Su 07:30-23:30", "outdoor_seating": "yes", "payment:cash": "yes", "payment:maestro": "yes", "takeaway": "yes", "wheelchair": "no"}}, {"type": "node", "id": 5482813463, "lat": 36.995813, "lon": 25.1367358, "tags": {"amenity": "restaurant", "cuisine": "seafood;greek;pasta;grill", "name": "\u03a4\u03bf \u039c\u03c0\u03b1\u03bb\u03ba\u03cc\u03bd\u03b9 \u03c4\u03bf\u03c5 \u0386\u03ba\u03b7", "outdoor_seating": "yes", "wheelchair": "limited"}}, {"type": "node", "id": 5484748695, "lat": 37.042297, "lon": 25.2498289, "tags": {"amenity": "cafe", "name": "\u039d\u03b9\u03ba\u03ae\u03c4\u03b1\u03c2"}}, {"type": "node", "id": 5614799842, "lat": 37.1070273, "lon": 25.3753288, "tags": {"amenity": "restaurant", "name": "Lucculus Taverna", "opening_hours": "Mo-Su 11:00-00:00", "phone": "+302285022569"}}, {"type": "node", "id": 5667358221, "lat": 37.1078342, "lon": 25.378907, "tags": {"amenity": "restaurant", "diet:vegan": "yes", "diet:vegetarian": "yes", "name": "Jaipur Palace Naxos", "wheelchair": "limited"}}, {"type": "node", "id": 5680204723, "lat": 37.1056019, "lon": 25.375779, "tags": {"amenity": "restaurant", "indoor_seating": "yes", "name": "520premium", "outdoor_seating": "yes"}}, {"type": "node", "id": 5706094148, "lat": 37.1041085, "lon": 25.3757513, "tags": {"amenity": "restaurant", "name": "Flamingo"}}, {"type": "node", "id": 5706094149, "lat": 37.1061791, "lon": 25.3755017, "tags": {"amenity": "cafe", "name": "Jazz & Blues"}}, {"type": "node", "id": 5743463253, "lat": 37.1191906, "lon": 25.2326567}, {"type": "node", "id": 5743463254, "lat": 37.1191718, "lon": 25.2326567}, {"type": "node", "id": 5743463255, "lat": 37.1191719, "lon": 25.2327787}, {"type": "node", "id": 5743463256, "lat": 37.119144, "lon": 25.2327787}, {"type": "node", "id": 5743463257, "lat": 37.1191441, "lon": 25.2329174}, {"type": "node", "id": 5743463258, "lat": 37.1190398, "lon": 25.2329176}, {"type": "node", "id": 5743463259, "lat": 37.1190397, "lon": 25.232827}, {"type": "node", "id": 5743463260, "lat": 37.1190559, "lon": 25.232827}, {"type": "node", "id": 5743463261, "lat": 37.1190558, "lon": 25.2326989}, {"type": "node", "id": 5743463262, "lat": 37.1190976, "lon": 25.2326989}, {"type": "node", "id": 5743463263, "lat": 37.1190975, "lon": 25.2325796}, {"type": "node", "id": 5743463264, "lat": 37.1191905, "lon": 25.2325795}, {"type": "node", "id": 5751964209, "lat": 37.1201888, "lon": 25.2409343, "tags": {"amenity": "cafe", "cuisine": "crepes;coffee_shop;waffle;breakfast", "name": "\u039a\u03c1\u03b5\u03c0\u03ac\u03bb\u03bb\u03b7", "name:el": "\u039a\u03c1\u03b5\u03c0\u03ac\u03bb\u03bb\u03b7", "name:en": "Krepalli"}}, {"type": "node", "id": 5757167750, "lat": 37.009059, "lon": 25.2350432, "tags": {"amenity": "restaurant", "name": "Golden Beach Hotel restaurant"}}, {"type": "node", "id": 5766135024, "lat": 37.0776335, "lon": 25.2180406, "tags": {"amenity": "restaurant", "cuisine": "greek", "outdoor_seating": "yes"}}, {"type": "node", "id": 5766135025, "lat": 37.0776068, "lon": 25.2183022, "tags": {"amenity": "cafe", "name": "O Kostos"}}, {"type": "node", "id": 5766155538, "lat": 36.9751811, "lon": 25.0296932, "tags": {"amenity": "restaurant", "cuisine": "greek", "name": "Zombos", "outdoor_seating": "yes"}}, {"type": "node", "id": 5777225653, "lat": 37.0074529, "lon": 25.2284402, "tags": {"amenity": "restaurant", "cuisine": "greek", "fixme": "is this still a restaurant? or has it become a rent-a-bike?", "name": "Xilaras", "opening_hours": "Mo-Su 09:00-00:00"}}, {"type": "node", "id": 5779341753, "lat": 37.1245802, "lon": 25.2388215, "tags": {"amenity": "restaurant", "name:en": "Taverna Glafkos"}}, {"type": "node", "id": 5779341754, "lat": 37.122733, "lon": 25.2386092, "tags": {"amenity": "restaurant", "name:en": "Emanuel"}}, {"type": "node", "id": 5779341755, "lat": 37.1240075, "lon": 25.2355609, "tags": {"amenity": "restaurant", "name": "Archipelagos"}}, {"type": "node", "id": 5810060455, "lat": 37.1082247, "lon": 25.3742988, "tags": {"amenity": "restaurant", "diet:vegetarian": "yes", "int_name": "Relax", "name": "\u03a1\u03b5\u03bb\u03ac\u03be"}}, {"type": "node", "id": 5810082471, "lat": 37.1097223, "lon": 25.3837986, "tags": {"amenity": "restaurant", "name": "\u0391\u03ba\u03c4\u03b1\u03af\u03bf\u03bd", "phone": "+302285026111", "shop": "pastry", "website": "https://aktaio.com/"}}, {"type": "node", "id": 5826322554, "lat": 37.1245595, "lon": 25.2394812, "tags": {"amenity": "restaurant", "name:en": "Ouzeri Mitsi"}}, {"type": "node", "id": 5826324653, "lat": 37.1393595, "lon": 25.2868004, "tags": {"amenity": "restaurant", "name": "To Dixti", "name:el": "\u03a4\u03bf \u0394\u03af\u03c7\u03c4\u03c5", "name:en": "To Dixty"}}, {"type": "node", "id": 5826324753, "lat": 37.0579581, "lon": 25.2093841, "tags": {"amenity": "restaurant", "name:en": "Aranto"}}, {"type": "node", "id": 5827038385, "lat": 37.1012025, "lon": 25.3738098, "tags": {"amenity": "restaurant", "cuisine": "coffee_shop;\u03a0\u03c1\u03c9\u03ca\u03bd\u03cc", "name": "\u039c\u03b5\u03bb\u03af\u03bc\u03b7\u03bb\u03bf\u03bd", "name:el": "\u039c\u03b5\u03bb\u03af\u03bc\u03b7\u03bb\u03bf\u03bd", "name:en": "Melimilon", "outdoor_seating": "yes"}}, {"type": "node", "id": 5891749095, "lat": 37.1233784, "lon": 25.2391044, "tags": {"amenity": "restaurant", "name": "\u039d \u03a3\u03c9\u03c3\u03c9"}}, {"type": "node", "id": 5891749096, "lat": 37.1234308, "lon": 25.2390371, "tags": {"amenity": "restaurant", "name": "\u03a5\u03b4\u03c1\u03bf\u03cd\u03c3\u03b1"}}, {"type": "node", "id": 5891749097, "lat": 37.1234589, "lon": 25.2391812, "tags": {"amenity": "restaurant", "name": "Minoa"}}, {"type": "node", "id": 5891749098, "lat": 37.1239146, "lon": 25.2393446, "tags": {"amenity": "restaurant", "name": "Le Sud"}}, {"type": "node", "id": 5891749103, "lat": 37.1244389, "lon": 25.239106, "tags": {"addr:city": "\u039d\u03ac\u03bf\u03c5\u03c3\u03b1", "addr:postcode": "84401", "amenity": "restaurant", "cuisine": "french;seafood;cocktail;champagne", "description": "Right off the waters of Agios Dimitrios in Naousa, Paros, Ohja! offers the finest seafood and fish prepared from scratch through our very own version of Greco-French dining, in a setting that creates an experience in itself.", "email": "info@ohja.gr", "name": "Ohja! Oyster & Cocktail bar", "opening_hours": "Mo-Su 18:00-01:30", "outdoor_seating": "yes", "phone": "+30 695 530 1639", "reservation": "recommended", "website": "https://ohja.gr"}}, {"type": "node", "id": 5891749105, "lat": 37.1245542, "lon": 25.2393285, "tags": {"amenity": "restaurant", "name": "\u03a4\u03b1\u03b2\u03ad\u03c1\u03bd\u03b1 \u039c\u03ae\u03c4\u03c3\u03b9\u03c2", "name:el": "\u03a4\u03b1\u03b2\u03ad\u03c1\u03bd\u03b1 \u039c\u03ae\u03c4\u03c3\u03b9\u03c2", "name:en": "Taverna Mitsi"}}, {"type": "node", "id": 5891749106, "lat": 37.1245874, "lon": 25.2396264, "tags": {"amenity": "restaurant", "name": "\u039f\u03c5\u03c4\u03bf\u03c0\u03af\u03b1", "name:el": "\u039f\u03c5\u03c4\u03bf\u03c0\u03af\u03b1"}}, {"type": "node", "id": 5891761384, "lat": 37.1235754, "lon": 25.2386032, "tags": {"amenity": "restaurant", "cuisine": "greek;italian", "name:de": "Safran", "name:en": "Safran"}}, {"type": "node", "id": 5896060518, "lat": 37.0321959, "lon": 25.2541861, "tags": {"amenity": "restaurant", "name": "Aktaion Taverna", "name:el": "\u03a4\u03b1\u03b2\u03ad\u03c1\u03bd\u03b1 \u0391\u03ba\u03c4\u03b1\u03af\u03bf\u03bd", "name:en": "Aktaion Tavern"}}, {"type": "node", "id": 5906881045, "lat": 37.0331356, "lon": 25.2549401, "tags": {"amenity": "restaurant", "name": "Mr Cactus"}}, {"type": "node", "id": 5925955286, "lat": 37.1069117, "lon": 25.3748605, "tags": {"air_conditioning": "no", "amenity": "restaurant", "bar": "yes", "delivery": "no", "microbrewery": "no", "name": "Diogenes", "outdoor_seating": "yes"}}, {"type": "node", "id": 5925976186, "lat": 37.1068395, "lon": 25.3750697, "tags": {"amenity": "restaurant", "name:en": "Captain's"}}, {"type": "node", "id": 5982876286, "lat": 37.0251864, "lon": 25.2488358, "tags": {"amenity": "restaurant", "name": "ristorante buovento"}}, {"type": "node", "id": 6100694602, "lat": 37.1396074, "lon": 25.2876513, "tags": {"amenity": "restaurant", "name": "Katsounas"}}, {"type": "node", "id": 6121329058, "lat": 37.1236196, "lon": 25.2382466, "tags": {"amenity": "restaurant", "cuisine": "italian", "name": "Mediterranean Sea", "name:el": "\u039c\u03b5\u03c3\u03cc\u03b3\u03b5\u03b9\u03bf\u03c2"}}, {"type": "node", "id": 6168105994, "lat": 37.1305758, "lon": 25.215003}, {"type": "node", "id": 6168105995, "lat": 37.1306055, "lon": 25.2150087}, {"type": "node", "id": 6168105996, "lat": 37.1306079, "lon": 25.2149891}, {"type": "node", "id": 6168105997, "lat": 37.1306839, "lon": 25.214909}, {"type": "node", "id": 6168105998, "lat": 37.1306875, "lon": 25.21488}, {"type": "node", "id": 6168105999, "lat": 37.1307353, "lon": 25.2148893}, {"type": "node", "id": 6168106000, "lat": 37.1307398, "lon": 25.2148523}, {"type": "node", "id": 6168106001, "lat": 37.1307282, "lon": 25.2148501}, {"type": "node", "id": 6168106002, "lat": 37.1307344, "lon": 25.2148}, {"type": "node", "id": 6168106003, "lat": 37.1306039, "lon": 25.2147747}, {"type": "node", "id": 6168113271, "lat": 37.1306725, "lon": 25.2150016}, {"type": "node", "id": 6447711385, "lat": 37.0697386, "lon": 25.3545664, "tags": {"addr:city": "Agia Anna (Naxos)", "amenity": "restaurant", "beach": "yes", "cuisine": "greek;seafood", "name": "Deoudas", "outdoor_seating": "yes"}}, {"type": "node", "id": 6535560985, "lat": 37.1233846, "lon": 25.2386029, "tags": {"amenity": "restaurant", "name": "Les Amis"}}, {"type": "node", "id": 6537409788, "lat": 37.0558321, "lon": 25.2076374, "tags": {"amenity": "restaurant", "name": "Lefkiano"}}, {"type": "node", "id": 6551451073, "lat": 37.0508787, "lon": 25.2383963, "tags": {"amenity": "restaurant", "name": "\u039a\u03b1\u03bb\u03bb\u03b9\u03c4\u03b5\u03c7\u03bd\u03b9\u03ba\u03cc \u03ba\u03b1\u03c6\u03b5\u03bd\u03b5\u03af\u03bf"}}, {"type": "node", "id": 6588238585, "lat": 37.1051081, "lon": 25.3766707, "tags": {"amenity": "restaurant", "name": "Taverna Kastro"}}, {"type": "node", "id": 6588238685, "lat": 37.1063888, "lon": 25.3758627, "tags": {"amenity": "restaurant", "name": "Lithos"}}, {"type": "node", "id": 6602277596, "lat": 37.1244307, "lon": 25.23923, "tags": {"amenity": "restaurant", "name:en": "Statheros"}}, {"type": "node", "id": 6651663385, "lat": 37.0593756, "lon": 25.3585536, "tags": {"amenity": "restaurant", "name:en": "Souvlucky"}}, {"type": "node", "id": 6694771623, "lat": 37.0358293, "lon": 25.2597997, "tags": {"amenity": "restaurant", "description": "Greek & international food", "name": "Stavros", "phone": "+30 2284 041404"}}, {"type": "node", "id": 6698813510, "lat": 37.0587303, "lon": 25.1101245, "tags": {"amenity": "restaurant"}}, {"type": "node", "id": 6699553509, "lat": 37.0854152, "lon": 25.154152, "tags": {"amenity": "cafe", "name": "Dash"}}, {"type": "node", "id": 6700852777, "lat": 37.0856774, "lon": 25.149861, "tags": {"amenity": "cafe", "name": "\u03a3\u03c5\u03bd\u03ac\u03bd\u03c4\u03b7\u03c3\u03b7", "outdoor_seating": "yes"}}, {"type": "node", "id": 6702827340, "lat": 37.0852381, "lon": 25.150007, "tags": {"amenity": "restaurant"}}, {"type": "node", "id": 6801818389, "lat": 37.040341, "lon": 25.0840082, "tags": {"amenity": "restaurant", "name:fr": "Anargyros"}}, {"type": "node", "id": 6801849287, "lat": 37.0352074, "lon": 25.2600791, "tags": {"amenity": "restaurant", "cuisine": "fish", "indoor_seating": "yes", "name": "MARKAKIS RESTAURANT", "name:fr": "Markakis restaurant", "opening_hours": "Mo-Su 12:00-23:30", "outdoor_seating": "yes", "phone": "+30 2284042177", "reservation": "recommended", "website": "https://markakisrestaurant.gr/", "website:menu": "https://markakisrestaurant.gr/en/menu/"}}, {"type": "node", "id": 6801856185, "lat": 37.0443588, "lon": 25.1212684, "tags": {"amenity": "restaurant", "cuisine": "greek", "name": "To Spikito"}}, {"type": "node", "id": 6808312587, "lat": 37.0438796, "lon": 25.2494778, "tags": {"amenity": "restaurant", "name:en": "Mylos"}}, {"type": "node", "id": 6834529689, "lat": 37.1029852, "lon": 25.3751156, "tags": {"amenity": "restaurant", "name": "Antamoma Cuisine Deli Store"}}, {"type": "node", "id": 6839862116, "lat": 37.1056673, "lon": 25.3755881, "tags": {"amenity": "restaurant", "name": "Meze 2"}}, {"type": "node", "id": 6839872284, "lat": 37.105253, "lon": 25.375702, "tags": {"amenity": "restaurant", "name": "Zorbas"}}, {"type": "node", "id": 6839898843, "lat": 37.1054987, "lon": 25.3756515, "tags": {"amenity": "cafe", "name": "Deck Caf\u00e9"}}, {"type": "node", "id": 6839902199, "lat": 37.105276, "lon": 25.3756888, "tags": {"amenity": "restaurant", "cuisine": "italian", "name": "Sue e giu"}}, {"type": "node", "id": 6839919547, "lat": 37.1018845, "lon": 25.3760943, "tags": {"amenity": "cafe", "name": "Soulatso"}}, {"type": "node", "id": 6852435094, "lat": 37.1036421, "lon": 25.3781716, "tags": {"amenity": "cafe"}}, {"type": "node", "id": 6852460178, "lat": 37.1041994, "lon": 25.3756065, "tags": {"amenity": "restaurant", "name": "1926"}}, {"type": "node", "id": 6852462824, "lat": 37.1042799, "lon": 25.3756516, "tags": {"amenity": "cafe", "name": "Amerta"}}, {"type": "node", "id": 7752667113, "lat": 37.0398235, "lon": 25.0799049, "tags": {"amenity": "restaurant", "cuisine": "greek", "name": "Taverna Kyklades"}}, {"type": "node", "id": 7774124683, "lat": 37.1229905, "lon": 25.2442069, "tags": {"amenity": "restaurant", "craft": "winery", "name": "\u039f\u03b9\u03bd\u03bf\u03c0\u03bf\u03b9\u03b5\u03af\u03bf \u039c\u03c9\u03c1\u03b1\u0390\u03c4\u03b7", "name:el": "\u039f\u03b9\u03bd\u03bf\u03c0\u03bf\u03b9\u03b5\u03af\u03bf \u039c\u03c9\u03c1\u03b1\u0390\u03c4\u03b7", "name:en": "Moraitis Winery", "website": "https://www.moraitiswines.gr/"}}, {"type": "node", "id": 7808420585, "lat": 37.1023954, "lon": 25.2657294, "tags": {"addr:postcode": "84401", "addr:street": "\u039d\u03ac\u03bf\u03c5\u03c3\u03b1\u03c2 - \u0391\u03bc\u03c0\u03b5\u03bb\u03ac", "amenity": "restaurant", "cuisine": "mediterranean", "internet_access": "wlan", "name:en": "Blue Oyster", "opening_hours": "24/7", "operator": "tsahpinis ioannis", "phone": "2284052707"}}, {"type": "node", "id": 7831458387, "lat": 37.1060638, "lon": 25.3752593, "tags": {"amenity": "restaurant", "name": "Pikantiko Grill House"}}, {"type": "node", "id": 8068738097, "lat": 37.1034269, "lon": 25.3761178, "tags": {"amenity": "cafe", "name": "Rebel Project"}}, {"type": "node", "id": 8560077483, "lat": 37.0530663, "lon": 25.3678339}, {"type": "node", "id": 8560077484, "lat": 37.0529283, "lon": 25.3679774}, {"type": "node", "id": 8560077485, "lat": 37.0528214, "lon": 25.3678139}, {"type": "node", "id": 8560077486, "lat": 37.0530162, "lon": 25.367614}, {"type": "node", "id": 8832636317, "lat": 36.9975307, "lon": 25.133696, "tags": {"amenity": "restaurant", "name:en": "To Balcony tou Aki", "phone": "00302284091512"}}, {"type": "node", "id": 8842064617, "lat": 37.1278389, "lon": 25.2670932, "tags": {"amenity": "restaurant", "name:en": "Siparos Seaside", "phone": "00302284052785", "website": "https://www.siparos.gr/"}}, {"type": "node", "id": 8850580217, "lat": 37.124071, "lon": 25.2381818, "tags": {"amenity": "restaurant", "name:en": "Meat Bar"}}, {"type": "node", "id": 8850591518, "lat": 37.0433761, "lon": 25.2477739, "tags": {"amenity": "restaurant", "name:en": "Charoula's Tavern"}}, {"type": "node", "id": 8909821719, "lat": 37.1180683, "lon": 25.2431889, "tags": {"amenity": "restaurant", "contact:facebook": "https://www.facebook.com/kouzinaparos", "cuisine": "pizza", "delivery": "yes", "diet:healthy": "yes", "diet:vegetarian": "yes", "name": "\u039a\u03bf\u03c5\u03b6\u03af\u03bd\u03b1", "name:el": "\u039a\u03bf\u03c5\u03b6\u03af\u03bd\u03b1", "name:en": "Kouzina", "phone": "+30 2284 301349", "takeaway": "only"}}, {"type": "node", "id": 8909821724, "lat": 37.1234929, "lon": 25.2382685, "tags": {"amenity": "restaurant", "cuisine": "pizza;pasta", "indoor_seating": "yes", "name": "\u03a0\u03b9\u03ac\u03c4\u03c3\u03b1", "name:el": "\u03a0\u03b9\u03ac\u03c4\u03c3\u03b1", "name:en": "Piatsa", "outdoor_seating": "yes"}}, {"type": "node", "id": 8909821725, "lat": 37.1239452, "lon": 25.236427, "tags": {"amenity": "cafe", "indoor_seating": "no", "name": "Tserki", "outdoor_seating": "yes"}}, {"type": "node", "id": 8946557753, "lat": 37.051331, "lon": 25.2389652, "tags": {"amenity": "cafe", "diet:vegetarian": "yes", "name": "Byzantino Cafe"}}, {"type": "node", "id": 8976677139, "lat": 37.118184, "lon": 25.2448785, "tags": {"amenity": "cafe", "cuisine": "coffee_shop", "name": "Coffee Paros"}}, {"type": "node", "id": 8976677160, "lat": 37.1201551, "lon": 25.2316059, "tags": {"amenity": "cafe", "cuisine": "coffee_shop", "name": "Nad Box"}}, {"type": "node", "id": 9038804618, "lat": 37.0839531, "lon": 25.1473645, "tags": {"amenity": "restaurant", "check_date": "2024-05-19", "name:en": "Levantis", "opening_hours": "Mo-Sa 18:30-24:00; Su off"}}, {"type": "node", "id": 9083613273, "lat": 37.0746557, "lon": 25.3509252, "tags": {"addr:city": "Agios Prokopios", "addr:postcode": "84300", "amenity": "cafe", "cuisine": "burger;sandwich;sushi;international", "internet_access": "yes", "internet_access:fee": "no", "name": "Macao Beach Bar", "outdoor_seating": "yes"}}, {"type": "node", "id": 9179723233, "lat": 37.1065438, "lon": 25.3718544}, {"type": "node", "id": 9709057017, "lat": 37.0350543, "lon": 25.260126, "tags": {"amenity": "restaurant", "indoor_seating": "yes", "name": "Halaris", "opening_hours": "Mo-Su 12:00-23:30", "outdoor_seating": "yes"}}, {"type": "node", "id": 9718397734, "lat": 37.1002328, "lon": 25.3738633}, {"type": "node", "id": 9718397735, "lat": 37.100219, "lon": 25.3739294}, {"type": "node", "id": 9718397736, "lat": 37.1001684, "lon": 25.3739109}, {"type": "node", "id": 9718397737, "lat": 37.1001832, "lon": 25.3738447}, {"type": "node", "id": 9823320417, "lat": 37.1059767, "lon": 25.3751968, "tags": {"amenity": "restaurant", "name": "Good Heart Estiatorio"}}, {"type": "node", "id": 9831483617, "lat": 37.1033194, "lon": 25.3763922, "tags": {"amenity": "restaurant", "name": "Taverna Authentic Greek Cuisine"}}, {"type": "node", "id": 9916751768, "lat": 37.1043722, "lon": 25.3757801, "tags": {"addr:city": "Naxos Chora", "addr:postcode": "843 00", "addr:street": "\u03a0\u03c1\u03c9\u03c4\u03bf\u03c0\u03b1\u03c0\u03b1\u03b4\u03ac\u03ba\u03b7", "amenity": "cafe", "fixme": "may no longer exist. Facebook page has been inactive for over a year", "internet_access": "yes", "internet_access:fee": "no", "name": "With Naxos All Day", "opening_hours": "24/7", "outdoor_seating": "yes"}}, {"type": "node", "id": 9926798730, "lat": 37.1034744, "lon": 25.3748975}, {"type": "node", "id": 9926798735, "lat": 37.1035102, "lon": 25.3748005}, {"type": "node", "id": 9926798740, "lat": 37.1033973, "lon": 25.3748562}, {"type": "node", "id": 9926798741, "lat": 37.1034348, "lon": 25.3747408}, {"type": "node", "id": 9929576049, "lat": 37.1003476, "lon": 25.3737897}, {"type": "node", "id": 9929576051, "lat": 37.1004776, "lon": 25.3737091}, {"type": "node", "id": 9929576052, "lat": 37.1004808, "lon": 25.3738034}, {"type": "node", "id": 9929576053, "lat": 37.1004177, "lon": 25.3738133}, {"type": "node", "id": 9929576054, "lat": 37.1003921, "lon": 25.3736044}, {"type": "node", "id": 9929576055, "lat": 37.100292, "lon": 25.373785}, {"type": "node", "id": 9929576056, "lat": 37.1003456, "lon": 25.3735884}, {"type": "node", "id": 9929576057, "lat": 37.1004236, "lon": 25.3737252}, {"type": "node", "id": 9955273685, "lat": 37.0522863, "lon": 25.3688064, "tags": {"amenity": "restaurant", "cuisine": "greek", "name": "Petrino", "outdoor_seating": "yes"}}, {"type": "node", "id": 9982574210, "lat": 37.0687845, "lon": 25.3569022, "tags": {"amenity": "restaurant", "description": "Snacks, Hamburger, Sandwich, Breakfast"}}, {"type": "node", "id": 10222483834, "lat": 37.1067731, "lon": 25.3752992, "tags": {"amenity": "restaurant", "name": "\u0393\u03b5\u03cd\u03bc\u03b1 \u0391\u03b3\u03ac\u03c0\u03b7\u03c2"}}, {"type": "node", "id": 10594992336, "lat": 37.0399965, "lon": 25.0832619, "tags": {"amenity": "restaurant", "diet:vegan": "yes", "fixme": "approximate location", "name": "Salerosso", "opening_hours": "10:00-22:00", "phone": "+302284061181", "website": "https://salerosso.com/"}}, {"type": "node", "id": 10984718034, "lat": 36.9959227, "lon": 25.136837, "tags": {"amenity": "cafe", "cuisine": "ice_cream", "name": "Sweet N Salty", "opening_hours": "Mo-Su 15:00-24:00; PH closed", "outdoor_seating": "yes", "takeaway": "yes", "toilets": "no", "wheelchair": "yes"}}, {"type": "node", "id": 10984718036, "lat": 36.9945483, "lon": 25.136366, "tags": {"amenity": "restaurant", "cuisine": "fish;greek", "email": "alyki.restaurant@gmail.com", "internet_access": "wlan", "internet_access:fee": "no", "name": "Aliki", "opening_hours": "12:00-24:00", "outdoor_seating": "yes", "phone": "+30 2284 091235", "website": "https://www.alikirestaurant.com/", "wheelchair": "limited"}}, {"type": "node", "id": 10984718042, "lat": 36.996269, "lon": 25.136804, "tags": {"amenity": "restaurant", "cuisine": "seafood;greek;kebab", "name": "Melinos", "wheelchair": "no"}}, {"type": "node", "id": 10984718043, "lat": 36.9948387, "lon": 25.1364192, "tags": {"amenity": "restaurant", "cuisine": "cake;italian", "name": "Fusilli & Mandilli", "opening_hours": "Tu-Su 11:00-15:00,18:00-22:30"}}, {"type": "node", "id": 10984718056, "lat": 36.996387, "lon": 25.1368624, "tags": {"amenity": "restaurant", "cuisine": "salad;seafood;pizza;grill", "name": "BE\u0393\u0393EPA", "name:en": "Veggera All Day"}}, {"type": "node", "id": 10984718061, "lat": 36.993902, "lon": 25.1362039, "tags": {"amenity": "restaurant", "cuisine": "burger;crepe;pancake;sandwich", "name": "Pela Luz", "opening_hours:kitchen": "Sa-Su 09:30-12:30", "outdoor_seating": "yes", "wheelchair": "limited"}}, {"type": "node", "id": 11070833109, "lat": 37.0827133, "lon": 25.1467299, "tags": {"amenity": "restaurant", "contact:facebook": "https://www.facebook.com/Profumoparos/", "contact:phone": "+30 690 907 0266", "name": "Profumo Paros"}}, {"type": "node", "id": 11083511434, "lat": 37.0358656, "lon": 25.2600594, "tags": {"amenity": "restaurant", "name": "Anthi Meze", "opening_hours": "Mo-Su 12:00-01:00+"}}, {"type": "node", "id": 11083511445, "lat": 37.0349882, "lon": 25.2601899, "tags": {"air_conditioning": "no", "amenity": "cafe", "bar": "yes", "cuisine": "regional", "drive_through": "no", "indoor_seating": "yes", "name": "CAPTAIN YIANNIS", "opening_hours": "Mo-Su 07:00-03:00+", "outdoor_seating": "yes", "payment:credit_cards": "yes", "payment:debit_cards": "yes"}}, {"type": "node", "id": 11083511477, "lat": 37.0353938, "lon": 25.2600389, "tags": {"air_conditioning": "no", "amenity": "restaurant", "cuisine": "greek", "delivery": "no", "diet:halal": "yes", "diet:vegetarian": "yes", "indoor_seating": "yes", "microbrewery": "no", "name": "Gialos Paros", "opening_hours": "Mo-Su 12:00-23:43", "outdoor_seating": "yes", "payment:apple_pay": "yes", "payment:cards": "yes", "payment:cash": "yes", "payment:coins": "yes", "payment:contactless": "yes", "payment:credit_cards": "yes", "payment:debit_cards": "yes", "payment:google_pay": "yes", "payment:mastercard": "yes", "payment:mastercard_contactless": "yes", "payment:notes": "yes", "payment:visa": "yes", "payment:visa_debit": "yes", "payment:visa_electron": "yes", "phone": "+302284 045124", "smoking": "no", "website": "https://gialos-paros.business.site", "wheelchair": "limited"}}, {"type": "node", "id": 11085637814, "lat": 37.0399226, "lon": 25.0843168, "tags": {"air_conditioning": "no", "amenity": "restaurant", "cuisine": "greek", "email": "info@nauticaantiparos.gr", "name": "Nautica", "opening_hours": "Mo-Su 07:00-01:00+", "outdoor_seating": "yes", "payment:apple_pay": "yes", "payment:cards": "yes", "payment:cash": "yes", "payment:contactless": "yes", "payment:credit_cards": "yes", "payment:debit_cards": "yes", "payment:google_pay": "yes", "payment:mastercard": "yes", "payment:mastercard_contactless": "yes", "payment:notes": "yes", "payment:visa": "yes", "payment:visa_debit": "yes", "payment:visa_electron": "yes", "phone": "+302284061323", "website": "https://nauticaantiparos.gr"}}, {"type": "node", "id": 11097551583, "lat": 37.1013135, "lon": 25.3761756, "tags": {"air_conditioning": "no", "amenity": "restaurant", "bar": "yes", "delivery": "no", "diet:vegan": "yes", "diet:vegetarian": "yes", "highchair": "yes", "internet_access": "yes", "name": "Chocolat", "opening_hours": "24/7"}}, {"type": "node", "id": 11164790173, "lat": 37.081068, "lon": 25.1443847}, {"type": "node", "id": 11164790174, "lat": 37.0811707, "lon": 25.1444249}, {"type": "node", "id": 11164790175, "lat": 37.0811686, "lon": 25.1445188}, {"type": "node", "id": 11164790176, "lat": 37.0810509, "lon": 25.1445}, {"type": "node", "id": 11165111642, "lat": 37.1001579, "lon": 25.3740682, "tags": {"amenity": "restaurant", "cuisine": "greek", "name": "Yialos", "survey:date": "2023-09-03"}}, {"type": "node", "id": 11174438537, "lat": 37.0846357, "lon": 25.1491297, "tags": {"addr:street": "\u0393\u03b5\u03c9\u03c1\u03b3\u03af\u03bf\u03c5 \u0393\u03c1\u03ac\u03b2\u03b1\u03c1\u03b7", "amenity": "restaurant", "contact:facebook": "100063596679203", "contact:instagram": "daphneparos", "cuisine": "greek", "name:en": "Daphne", "website": "https://www.daphneparos.com/"}}, {"type": "node", "id": 11194418958, "lat": 37.123197, "lon": 25.2388789, "tags": {"amenity": "restaurant", "name": "Daverona"}}, {"type": "node", "id": 11195421478, "lat": 37.1466727, "lon": 25.2243722, "tags": {"amenity": "restaurant", "name": "Monastiri", "website": "https://www.monastiri-paros.gr/"}}, {"type": "node", "id": 11197764534, "lat": 37.0556757, "lon": 25.2086603, "tags": {"amenity": "cafe", "indoor_seating": "yes", "name": "\u0391\u03b3\u03b9\u03ac\u03b6\u03b9 \u039a\u03b1\u03c6\u03ad", "outdoor_seating": "yes"}}, {"type": "node", "id": 11197770386, "lat": 37.0286312, "lon": 25.2518693, "tags": {"amenity": "restaurant", "name": "Punda Coast"}}, {"type": "node", "id": 11519492069, "lat": 37.0823785, "lon": 25.1462021, "tags": {"addr:housenumber": "58", "addr:postcode": "84400", "addr:street": "Gianni pariou", "amenity": "restaurant", "cuisine": "burger;chicken;coffee_shop;crepe;deli;fish;fish_and_chips", "email": "Tasiaskaramaga@gmail.com", "internet_access": "wlan", "opening_hours": "Su,Sa,Fr,Th,We,Tu,Mo 12:30-00:00", "phone": "2284026556", "website": "http://Www.tomortari-paros.com"}}, {"type": "node", "id": 11519492169, "lat": 37.0828164, "lon": 25.1463915, "tags": {"addr:housenumber": "58", "addr:postcode": "84400", "addr:street": "\u0393\u03b9\u03ac\u03bd\u03bd\u03b7 \u03c0\u03b1\u03c1\u03b9\u03bf\u03c5", "amenity": "restaurant", "cuisine": "coffee_shop;fish;fish_and_chips;friture;greek;grill;ice_cream", "email": "Tasiaskaramaga@gmail.com", "opening_hours": "Su-Sa 12:30-00:00", "phone": "2284026556", "website": "http://Www.tomortari-paros.com"}}, {"type": "node", "id": 11950406669, "lat": 37.103508, "lon": 25.3788012, "tags": {"amenity": "restaurant", "cuisine": "greek;grill", "int_name": "ta Filarakia", "name": "\u03a4\u03b1 \u03a6\u03b9\u03bb\u03b1\u03c1\u03ac\u03ba\u03b9\u03b1"}}, {"type": "node", "id": 11966174570, "lat": 37.0860925, "lon": 25.1497491, "tags": {"amenity": "restaurant", "cuisine": "coffee_shop;crepe;ice_cream;pancake;sandwich;savory_pancakes", "internet_access": "wlan", "name:en": "Limani Cafe"}}, {"type": "node", "id": 12034138973, "lat": 37.035753, "lon": 25.2593359}, {"type": "node", "id": 12034138974, "lat": 37.0357783, "lon": 25.2595261}, {"type": "node", "id": 12034138975, "lat": 37.0357598, "lon": 25.2595313}, {"type": "node", "id": 12034138976, "lat": 37.0357598, "lon": 25.2595757}, {"type": "node", "id": 12034138977, "lat": 37.0357362, "lon": 25.2595863}, {"type": "node", "id": 12034138978, "lat": 37.0357421, "lon": 25.2596655}, {"type": "node", "id": 12034138979, "lat": 37.0356662, "lon": 25.2596824}, {"type": "node", "id": 12034138980, "lat": 37.0356501, "lon": 25.2595179}, {"type": "node", "id": 12034138981, "lat": 37.0356754, "lon": 25.2595102}, {"type": "node", "id": 12034138982, "lat": 37.0356999, "lon": 25.2594098}, {"type": "node", "id": 12034138983, "lat": 37.0357235, "lon": 25.2593993}, {"type": "node", "id": 12034138984, "lat": 37.0357151, "lon": 25.2593412}, {"type": "node", "id": 12037187562, "lat": 37.0777622, "lon": 25.3410393, "tags": {"amenity": "restaurant"}}, {"type": "node", "id": 12176796770, "lat": 37.1039755, "lon": 25.2662903}, {"type": "node", "id": 12176796771, "lat": 37.1042315, "lon": 25.2665437}, {"type": "node", "id": 12176796772, "lat": 37.1042734, "lon": 25.2664584}, {"type": "node", "id": 12176796773, "lat": 37.1043172, "lon": 25.2663744}, {"type": "node", "id": 12176796774, "lat": 37.1043451, "lon": 25.2662168}, {"type": "node", "id": 12176796775, "lat": 37.1043312, "lon": 25.2662109}, {"type": "node", "id": 12176796776, "lat": 37.1043209, "lon": 25.2661817}, {"type": "node", "id": 12176796777, "lat": 37.1042669, "lon": 25.2661619}, {"type": "node", "id": 12176796778, "lat": 37.1042288, "lon": 25.2663172}, {"type": "node", "id": 12176796779, "lat": 37.1041906, "lon": 25.2662985}, {"type": "node", "id": 12176796780, "lat": 37.104252, "lon": 25.2660918}, {"type": "node", "id": 12176796781, "lat": 37.1042018, "lon": 25.2660638}, {"type": "node", "id": 12176796782, "lat": 37.1041887, "lon": 25.266107}, {"type": "node", "id": 12176796783, "lat": 37.1040826, "lon": 25.2660557}, {"type": "node", "id": 12176796784, "lat": 37.1040472, "lon": 25.2661852}, {"type": "node", "id": 12176796785, "lat": 37.1040276, "lon": 25.2661771}, {"type": "node", "id": 12176796786, "lat": 37.1039783, "lon": 25.2662074}, {"type": "node", "id": 12205933177, "lat": 37.0583116, "lon": 25.2088833}, {"type": "node", "id": 12205933179, "lat": 37.0582045, "lon": 25.208692}, {"type": "node", "id": 12205933187, "lat": 37.058274, "lon": 25.2088657}, {"type": "node", "id": 12205933199, "lat": 37.058252, "lon": 25.2087999}, {"type": "node", "id": 12205950105, "lat": 37.0584062, "lon": 25.2088532}, {"type": "node", "id": 12205950117, "lat": 37.0583734, "lon": 25.2090131}, {"type": "node", "id": 12205950118, "lat": 37.058497, "lon": 25.2089406}, {"type": "node", "id": 12205950126, "lat": 37.0584251, "lon": 25.2090135}, {"type": "node", "id": 12205950134, "lat": 37.0584294, "lon": 25.2088312}, {"type": "node", "id": 12205950136, "lat": 37.0584115, "lon": 25.2089843}, {"type": "node", "id": 12205950146, "lat": 37.0581707, "lon": 25.2087355}, {"type": "node", "id": 12252309258, "lat": 37.1241847, "lon": 25.2376162, "tags": {"amenity": "cafe", "indoor_seating": "yes", "name": "\u03a4\u03b1\u03bd\u03b5\u03af\u03c0\u03bf\u03c4\u03b1", "outdoor_seating": "yes"}}, {"type": "node", "id": 12252567793, "lat": 37.0844812, "lon": 25.1494221, "tags": {"amenity": "restaurant", "indoor_seating": "no", "name": "Dionysos", "outdoor_seating": "yes"}}, {"type": "node", "id": 12803925001, "lat": 37.1046351, "lon": 25.3764819, "tags": {"amenity": "restaurant", "cuisine": "burger", "name": "Capone's", "website": "https://www.capones.gr/"}}, {"type": "node", "id": 12803933101, "lat": 37.104535, "lon": 25.3763069, "tags": {"amenity": "cafe", "cuisine": "breakfast;coffee_shop;tapas", "name": "\u039a\u03b1\u03c6\u03b5\u03bd\u03b5\u03b9\u03bf\u03bd"}}, {"type": "node", "id": 12813521102, "lat": 37.1243673, "lon": 25.2421293, "tags": {"amenity": "restaurant", "cuisine": "greek", "name": "\u0391\u03bd\u03c4\u03bf\u03bd\u03b1\u03ba\u03b9\u03c3"}}, {"type": "node", "id": 12813524401, "lat": 37.1245845, "lon": 25.2381136, "tags": {"amenity": "restaurant", "cuisine": "greek", "name": "\u039a\u03b1\u03c1\u03b3\u03b1\u03c3"}}, {"type": "node", "id": 12836386014, "lat": 37.105288, "lon": 25.3807408, "tags": {"amenity": "cafe", "name": "Pantry cofee-brunch"}}, {"type": "way", "id": 293392126, "nodes": [2969838055, 9179723233, 2969838056, 2969838057, 2969838058, 2969838055], "tags": {"amenity": "restaurant", "building": "yes", "name": "Port Caf\u00e9"}}, {"type": "way", "id": 310411095, "nodes": [3158319791, 3158319789, 3158319785, 3158319787, 3158319791]}, {"type": "way", "id": 421836367, "nodes": [4215725809, 4215725808, 4215725811, 4215725810, 4215725807, 4215725806, 4215725804, 4215725805, 4215725809], "tags": {"amenity": "restaurant", "building": "yes", "name": "Taverna Mikri Vigla"}}, {"type": "way", "id": 540227809, "nodes": [5226768405, 5226768404, 5226768403, 5226768402, 5226768401, 5226768400, 5226768399, 5226768398, 5226768397, 5226768396, 5226768405], "tags": {"amenity": "restaurant", "building": "yes", "cuisine": "regional", "name": "\u03a4\u03c3\u03b9\u03c4\u03c3\u03ac\u03bd\u03b7\u03c2", "name:el": "\u03a4\u03c3\u03b9\u03c4\u03c3\u03ac\u03bd\u03b7\u03c2", "name:en": "Tsitsanis Tavern"}}, {"type": "way", "id": 605592976, "nodes": [5743463264, 5743463263, 5743463262, 5743463261, 5743463260, 5743463259, 5743463258, 5743463257, 5743463256, 5743463255, 5743463254, 5743463253, 5743463264], "tags": {"amenity": "cafe", "building": "yes", "cuisine": "coffee_shop", "name": "Pop Cafe"}}, {"type": "way", "id": 658722127, "nodes": [6168106003, 6168106002, 6168106001, 6168106000, 6168105999, 6168105998, 6168105997, 6168113271, 6168105996, 6168105995, 6168105994, 6168106003], "tags": {"amenity": "restaurant", "cuisine": "greek", "name": "Anemos", "name:el": "\u0391\u03bd\u03b5\u03bc\u03bf\u03c2"}}, {"type": "way", "id": 922036277, "nodes": [8560077486, 8560077483, 8560077484, 8560077485, 8560077486], "tags": {"amenity": "restaurant", "building": "retail", "cuisine": "greek", "name": "Nikos & Maria", "outdoor_seating": "yes", "reservation": "yes", "toilets": "yes"}}, {"type": "way", "id": 1057662376, "nodes": [9718397734, 9718397735, 9718397736, 9718397737, 9718397734], "tags": {"amenity": "restaurant", "building": "yes", "cuisine": "greek;seafood", "name": "Kavouri"}}, {"type": "way", "id": 1083183157, "nodes": [9926798735, 9926798730, 9926798740, 9926798741, 9926798735]}, {"type": "way", "id": 1083522022, "nodes": [9929576049, 9929576054, 9929576056, 534262522, 9929576055, 9929576049]}, {"type": "way", "id": 1083522023, "nodes": [9929576052, 9929576051, 9929576057, 9929576053, 9929576052]}, {"type": "way", "id": 1204640000, "nodes": [11164790173, 11164790174, 11164790175, 11164790176, 11164790173], "tags": {"addr:city": "\u03a0\u03b1\u03c1\u03bf\u03b9\u03ba\u03b9\u03ac", "amenity": "restaurant", "building": "yes", "contact:instagram": "https://www.instagram.com/bountaraki/?hl=en", "email": "bountaraki@yahoo.com", "facebook": "https://www.facebook.com/bountaraki", "name": "\u03a4\u03bf \u039c\u03c0\u03bf\u03c5\u03bd\u03c4\u03b1\u03c1\u03ac\u03ba\u03b9", "phone": "2284022297", "website": "https://bountaraki8.webnode.gr/"}}, {"type": "way", "id": 1299124526, "nodes": [12034138973, 12034138974, 12034138975, 12034138976, 12034138977, 12034138978, 12034138979, 12034138980, 12034138981, 12034138982, 12034138983, 12034138984, 12034138973], "tags": {"amenity": "restaurant", "building": "yes"}}, {"type": "way", "id": 1315523655, "nodes": [12176796770, 12176796771, 12176796772, 12176796773, 12176796774, 12176796775, 12176796776, 12176796777, 12176796778, 12176796779, 12176796780, 12176796781, 12176796782, 12176796783, 12176796784, 12176796785, 12176796786, 12176796770], "tags": {"amenity": "restaurant", "building": "yes"}}, {"type": "way", "id": 1318884153, "nodes": [12205950118, 12205950134, 12205950105, 12205933179, 12205950146, 12205933199, 12205933187, 12205933177, 12205950117, 12205950136, 12205950126, 12205950118], "tags": {"amenity": "restaurant", "building": "yes"}}, {"type": "relation", "id": 14414111, "members": [{"type": "way", "ref": 310411095, "role": "outer"}, {"type": "way", "ref": 1083183157, "role": "outer"}], "tags": {"amenity": "restaurant", "building": "yes", "name": "Dal Professore", "type": "multipolygon"}}, {"type": "relation", "id": 14419221, "members": [{"type": "way", "ref": 1083522023, "role": "outer"}, {"type": "way", "ref": 1083522022, "role": "outer"}], "tags": {"amenity": "restaurant", "building": "yes", "name": "Nissaki Restaurant", "type": "multipolygon"}}]}