{"version": 0.6, "generator": "Overpass API 0.7.62.7 375dc00a", "osm3s": {"timestamp_osm_base": "2025-06-14T14:41:26Z", "copyright": "The data included in this document is from www.openstreetmap.org. The data is made available under ODbL."}, "elements": [{"type": "node", "id": 2038150445, "lat": 38.6533023, "lon": 22.9997858, "tags": {"addr:housenumber": "17", "addr:street": "28\u03b7\u03c2 \u039f\u03ba\u03c4\u03c9\u03b2\u03c1\u03af\u03bf\u03c5", "amenity": "cafe", "name": "Caldo"}}, {"type": "node", "id": 2836667404, "lat": 38.4434135, "lon": 22.8527671, "tags": {"amenity": "cafe", "internet_access": "wlan", "name": "Friendly Cafe"}}, {"type": "node", "id": 2836667416, "lat": 38.441003, "lon": 22.8927172, "tags": {"amenity": "restaurant", "cuisine": "pizza", "name": "Artio"}}, {"type": "node", "id": 2836741463, "lat": 38.4524223, "lon": 22.7761586, "tags": {"amenity": "restaurant", "cuisine": "greek", "name": "Sarakatsanos"}}, {"type": "node", "id": 3107006225, "lat": 38.4387323, "lon": 22.8785896, "tags": {"amenity": "restaurant", "cuisine": "greek", "name": "\u039e\u03b5\u03bd\u03ce\u03bd\u03b1\u03c2 \u03a0\u03b5\u03c1\u03af\u03b4\u03c1\u03bf\u03bc\u03bf\u03c2", "opening_hours": "24/7", "tourism": "hotel"}}, {"type": "node", "id": 3269428330, "lat": 38.4385733, "lon": 22.8788438, "tags": {"amenity": "cafe", "name": "blackcoffee"}}, {"type": "node", "id": 3462081293, "lat": 38.4935339, "lon": 22.9816581, "tags": {"amenity": "cafe", "internet_access": "wlan", "name": "Drop"}}, {"type": "node", "id": 3462081294, "lat": 38.5006188, "lon": 22.9630303, "tags": {"amenity": "cafe", "name": "\u03a0\u0397\u0393\u0395\u03a3"}}, {"type": "node", "id": 3462081295, "lat": 38.5147059, "lon": 22.9491782, "tags": {"amenity": "cafe", "cuisine": "Souvlaki", "name": "\u03a0\u0391\u03a1\u0391\u03a6\u03a9\u039d\u039f"}}, {"type": "node", "id": 3462081296, "lat": 38.5142178, "lon": 22.9489581, "tags": {"amenity": "cafe", "internet_access": "wlan", "name": "\u0394\u03af\u03c3\u03c4\u03c1\u03b1\u03c4\u03bf Cafe-Bar"}}, {"type": "node", "id": 3728983249, "lat": 38.6718594, "lon": 23.0739021, "tags": {"amenity": "restaurant"}}, {"type": "node", "id": 3785029198, "lat": 38.7103418, "lon": 23.0635971, "tags": {"amenity": "restaurant", "cuisine": "greek"}}, {"type": "node", "id": 3983829431, "lat": 38.4941402, "lon": 22.981363, "tags": {"amenity": "restaurant", "cuisine": "regional", "name": "\u03a0\u039b\u0391\u03a4\u0395\u0399\u0391"}}, {"type": "node", "id": 3983829432, "lat": 38.4939834, "lon": 22.9812646, "tags": {"amenity": "cafe", "name": "Central"}}, {"type": "node", "id": 3983829433, "lat": 38.4937846, "lon": 22.9817382, "tags": {"amenity": "cafe", "name": "Cosi"}}, {"type": "node", "id": 3983829436, "lat": 38.4925433, "lon": 22.9837114, "tags": {"amenity": "restaurant", "cuisine": "greek", "name": "\u03a4\u039f \u0391\u03a1\u03a7\u039f\u039d\u03a4\u0399\u039a\u039f"}}, {"type": "node", "id": 3983829441, "lat": 38.4920789, "lon": 22.9792391, "tags": {"amenity": "restaurant", "cuisine": "pizza", "name": "\u0391\u03a7\u039b\u0391\u0394\u0399\u0391"}}, {"type": "node", "id": 3983829454, "lat": 38.4923722, "lon": 22.9827278, "tags": {"amenity": "restaurant", "cuisine": "regional", "name": "\u039f \u039a\u0399\u03a3\u03a3\u0391\u03a3"}}, {"type": "node", "id": 3983913887, "lat": 38.492186, "lon": 22.9776327, "tags": {"amenity": "cafe", "name": "\u0391\u03c0\u03cc\u03bc\u03b5\u03c1\u03bf"}}, {"type": "node", "id": 3983913910, "lat": 38.4910479, "lon": 22.9751829, "tags": {"amenity": "restaurant", "cuisine": "regional", "name": "\u039f \u03a6\u03b1\u03c1\u03bf\u03cd\u03ba"}}, {"type": "node", "id": 3983962229, "lat": 38.4928382, "lon": 22.982424, "tags": {"amenity": "restaurant", "cuisine": "greek", "name": "\u039f \u039c\u03b9\u03ba\u03c1\u03cc\u03c2"}}, {"type": "node", "id": 3983962230, "lat": 38.4927338, "lon": 22.9912605, "tags": {"amenity": "cafe", "contact:facebook": "Coffeeplaceorhomenos", "name": "Coffe place", "phone": "2261032540"}}, {"type": "node", "id": 4659319884, "lat": 38.5315496, "lon": 23.0941485, "tags": {"addr:city": "\u03a0\u03b1\u03cd\u03bb\u03bf\u03c2", "addr:postcode": "32300", "amenity": "restaurant", "opening_hours": "Fr 08:00-16:00; Sa 08:00-16:00; Su 08:00-16:00; Mo 08:00-16:00; Tu 08:00-16:00; We 08:00-16:00; Th 08:00-16:00", "phone": "2261 091747", "website": "https://www.facebook.com/tosokaki.cpm"}}, {"type": "node", "id": 4659319888, "lat": 38.5314786, "lon": 23.0942332, "tags": {"addr:city": "\u03a0\u03b1\u03cd\u03bb\u03bf\u03c2", "addr:postcode": "32300", "amenity": "restaurant", "delivery": "no", "outdoor_seating": "yes", "takeaway": "no"}}, {"type": "node", "id": 4659319989, "lat": 38.531189, "lon": 23.0941555, "tags": {"addr:city": "\u03a0\u03b1\u03cd\u03bb\u03bf\u03c2", "addr:postcode": "32300", "amenity": "cafe", "outdoor_seating": "yes"}}, {"type": "node", "id": 4659319990, "lat": 38.5309905, "lon": 23.093799, "tags": {"addr:city": "\u03a0\u03b1\u03cd\u03bb\u03bf\u03c2", "addr:postcode": "32300", "amenity": "cafe", "name": "Mrs. Rose", "outdoor_seating": "yes"}}, {"type": "node", "id": 4659320022, "lat": 38.5313368, "lon": 23.0939806, "tags": {"addr:city": "\u03a0\u03b1\u03cd\u03bb\u03bf\u03c2", "addr:postcode": "32300", "amenity": "cafe", "name": "Sugar Espresso Bar Darras", "phone": "2261 091112"}}, {"type": "node", "id": 4797375676, "lat": 38.5837048, "lon": 22.6694567, "tags": {"amenity": "cafe", "name": "Cafe \u03a0\u03bb\u03ac\u03c4\u03b1\u03bd\u03bf\u03c2"}}, {"type": "node", "id": 4797376293, "lat": 38.5843937, "lon": 22.6675322, "tags": {"amenity": "restaurant"}}, {"type": "node", "id": 4799599066, "lat": 38.3175343, "lon": 23.1777967, "tags": {"amenity": "restaurant", "cuisine": "barbecue", "delivery": "yes", "int_name": "To Archontiko", "name": "\u03a4\u03bf \u0391\u03c1\u03c7\u03bf\u03bd\u03c4\u03b9\u03ba\u03cc", "outdoor_seating": "yes", "takeaway": "yes"}}, {"type": "node", "id": 4799603038, "lat": 38.3170287, "lon": 23.1778061, "tags": {"amenity": "cafe", "cuisine": "coffee_shop", "ice_cream": "yes", "int_name": "Irida", "name": "\u038a\u03c1\u03b9\u03b4\u03b1", "outdoor_seating": "yes", "takeaway": "yes"}}, {"type": "node", "id": 5172624922, "lat": 38.4901142, "lon": 23.0585105, "tags": {"addr:postcode": "32300", "amenity": "cafe", "cuisine": "greek", "internet_access": "wlan", "name": "\u039a\u03b1\u03b8'\u03bf\u03b4\u03bf\u03bd", "phone": "2261039091"}}, {"type": "node", "id": 5172653821, "lat": 38.4900754, "lon": 23.0584819, "tags": {"addr:postcode": "32300", "amenity": "cafe", "cuisine": "greek", "internet_access": "wlan", "name": "\u039a\u03b1\u03b8'\u03bf\u03b4\u03bf\u03bd", "phone": "2261039091"}}, {"type": "node", "id": 5291774613, "lat": 38.3712032, "lon": 23.1064313, "tags": {"amenity": "restaurant", "name": "\u039c\u03c0\u03c1\u03b9\u03b6\u03bf\u03bb\u03bf\u03c0\u03b9\u03c4\u03ac\u03b4\u03b9\u03ba\u03bf"}}, {"type": "node", "id": 5291774615, "lat": 38.3717358, "lon": 23.1042713, "tags": {"amenity": "cafe", "name": "Yummy Yummy"}}, {"type": "node", "id": 5291774616, "lat": 38.3716942, "lon": 23.1045577, "tags": {"amenity": "cafe"}}, {"type": "node", "id": 5291774619, "lat": 38.3720736, "lon": 23.1041629, "tags": {"amenity": "cafe"}}, {"type": "node", "id": 5291774620, "lat": 38.3722572, "lon": 23.1035048, "tags": {"amenity": "cafe", "name": "Mousses"}}, {"type": "node", "id": 5291775822, "lat": 38.3719717, "lon": 23.1029807, "tags": {"amenity": "restaurant", "name": "\u03a4\u03bf \u03a4\u03b6\u03ac\u03ba\u03b9"}}, {"type": "node", "id": 5291775825, "lat": 38.3725537, "lon": 23.102321, "tags": {"amenity": "cafe"}}, {"type": "node", "id": 5291791323, "lat": 38.3724013, "lon": 23.1019899, "tags": {"amenity": "cafe", "name": "Top Cafe"}}, {"type": "node", "id": 5291791328, "lat": 38.3727313, "lon": 23.1003269, "tags": {"amenity": "restaurant"}}, {"type": "node", "id": 5291791329, "lat": 38.3727222, "lon": 23.0999673, "tags": {"amenity": "cafe", "name": "\u0392\u03b9\u03ba\u03c4\u03ce\u03c1\u03b9\u03b1"}}, {"type": "node", "id": 5291791331, "lat": 38.373026, "lon": 23.1000117, "tags": {"amenity": "restaurant", "name": "\u03a4\u03bf \u03a3\u03c4\u03ad\u03ba\u03b9 \u03c4\u03c9\u03bd \u039a\u03c5\u03bd\u03b7\u03b3\u03ce\u03bd"}}, {"type": "node", "id": 5291804434, "lat": 38.3729596, "lon": 23.0980571, "tags": {"amenity": "cafe", "name": "Bridge"}}, {"type": "node", "id": 5291815333, "lat": 38.37336, "lon": 23.097111, "tags": {"amenity": "restaurant"}}, {"type": "node", "id": 5291815335, "lat": 38.3731406, "lon": 23.0963832, "tags": {"amenity": "restaurant", "name": "24"}}, {"type": "node", "id": 5291815338, "lat": 38.3735429, "lon": 23.0954829, "tags": {"amenity": "restaurant", "name": "\u03a7\u03c1\u03c5\u03c3\u03b9\u03ba\u03cc\u03c2"}}, {"type": "node", "id": 5293736288, "lat": 38.3143602, "lon": 23.1096987, "tags": {"amenity": "cafe"}}, {"type": "node", "id": 5293736290, "lat": 38.3142248, "lon": 23.1096278, "tags": {"amenity": "cafe"}}, {"type": "node", "id": 5293746720, "lat": 38.2987767, "lon": 23.1091435, "tags": {"amenity": "cafe", "name": "Rainbow"}}, {"type": "node", "id": 5293776214, "lat": 38.3655441, "lon": 22.8394277, "tags": {"amenity": "restaurant", "name": "\u03a4\u03bf \u0396\u03b5\u03c1\u03af\u03ba\u03b9"}}, {"type": "node", "id": 5293776215, "lat": 38.3654089, "lon": 22.8394477, "tags": {"amenity": "restaurant"}}, {"type": "node", "id": 5293810939, "lat": 38.3174534, "lon": 22.9046578, "tags": {"amenity": "restaurant"}}, {"type": "node", "id": 5293810940, "lat": 38.3169478, "lon": 22.9045938, "tags": {"amenity": "restaurant"}}, {"type": "node", "id": 5293839609, "lat": 38.3539766, "lon": 22.9083856, "tags": {"amenity": "restaurant"}}, {"type": "node", "id": 5293839610, "lat": 38.3540975, "lon": 22.9083926, "tags": {"amenity": "restaurant"}}, {"type": "node", "id": 5293839611, "lat": 38.3543099, "lon": 22.9084323, "tags": {"amenity": "cafe"}}, {"type": "node", "id": 5294052062, "lat": 38.3545999, "lon": 22.7877919, "tags": {"amenity": "cafe"}}, {"type": "node", "id": 5294052063, "lat": 38.3543419, "lon": 22.7876687, "tags": {"amenity": "cafe", "name": "\u03a6\u03bb\u03c5\u03b3\u03cc\u03bd\u03b9\u03bf\u03bd"}}, {"type": "node", "id": 5294052064, "lat": 38.3543586, "lon": 22.7882244, "tags": {"amenity": "restaurant"}}, {"type": "node", "id": 5294059701, "lat": 38.3556349, "lon": 22.7879819, "tags": {"amenity": "restaurant", "name": "\u0391\u03c3\u03c4\u03ad\u03c1\u03b1\u03c2"}}, {"type": "node", "id": 5294073847, "lat": 38.3533791, "lon": 22.7884414, "tags": {"amenity": "cafe"}}, {"type": "node", "id": 5294073848, "lat": 38.3532108, "lon": 22.78842, "tags": {"amenity": "cafe"}}, {"type": "node", "id": 5294073850, "lat": 38.3531161, "lon": 22.7885085, "tags": {"amenity": "cafe", "name": "Snookers"}}, {"type": "node", "id": 5294073854, "lat": 38.3528637, "lon": 22.7886936, "tags": {"amenity": "cafe"}}, {"type": "node", "id": 5294073855, "lat": 38.3528806, "lon": 22.7890181, "tags": {"amenity": "cafe"}}, {"type": "node", "id": 5304792821, "lat": 38.4901541, "lon": 23.058505, "tags": {"addr:postcode": "32300", "addr:street": "6 \u03c7\u03bb\u03bc. \u039f\u03c1\u03c7\u03bf\u03bc\u03b5\u03bd\u03bf\u03c5-\u03ba\u03b1\u03c3\u03c4\u03c1\u03bf\u03c5", "amenity": "cafe", "cuisine": "greek", "email": "topratirio@gmail.com", "internet_access": "wlan", "name": "\u039a\u03b1\u03b8'\u03bf\u03b4\u03bf\u03bd", "opening_hours": "Mo-Su 07:00-01:00", "operator": "\u039a\u03c9\u03c3\u03c4\u03ae\u03c2-\u0393\u03b9\u03b1\u03bd\u03bd\u03b1", "phone": "2261039091"}}, {"type": "node", "id": 5372953621, "lat": 38.3163852, "lon": 22.9039585, "tags": {"amenity": "restaurant"}}, {"type": "node", "id": 5375588421, "lat": 38.4292632, "lon": 22.6677431, "tags": {"amenity": "cafe"}}, {"type": "node", "id": 5409653123, "lat": 38.4084531, "lon": 22.713027, "tags": {"amenity": "restaurant", "name": "Menios"}}, {"type": "node", "id": 5969573505, "lat": 38.437346, "lon": 22.876267, "tags": {"amenity": "cafe", "name": "Le Pettit Bistro"}}, {"type": "node", "id": 6436287897, "lat": 38.6585881, "lon": 23.0721358, "tags": {"amenity": "restaurant", "name": "\u0395\u03bb\u03b9\u03ac \u03ba\u03b1\u03b9 \u03bb\u03ac\u03b4\u03b9"}}, {"type": "node", "id": 7602237036, "lat": 38.3529407, "lon": 22.787904, "tags": {"amenity": "restaurant", "name": "\u039f \u03a3\u03c4\u03b1\u03bc\u03ac\u03c4\u03b7\u03c2"}}, {"type": "node", "id": 7602288688, "lat": 38.3551882, "lon": 22.7880501, "tags": {"amenity": "restaurant"}}, {"type": "node", "id": 7886754456, "lat": 38.5856108, "lon": 22.7388803, "tags": {"amenity": "cafe"}}, {"type": "node", "id": 8003024737, "lat": 38.3216114, "lon": 22.854973}, {"type": "node", "id": 8003024738, "lat": 38.3216733, "lon": 22.8548441}, {"type": "node", "id": 8003024739, "lat": 38.321571, "lon": 22.8547439}, {"type": "node", "id": 8003024740, "lat": 38.3215019, "lon": 22.8548729}, {"type": "node", "id": 8010856057, "lat": 38.6118545, "lon": 22.7070148, "tags": {"amenity": "restaurant", "description": "\u039a\u0391\u03a6\u0395 \u03a3\u039d\u0391\u039a \u039c\u03a0\u0391\u03a1", "name": "\u03a3\u039d\u0391\u039a \u039c\u03a0\u0391\u03a1 \u03a9\u03a1\u0399\u03a9\u039d", "phone": "6974212743"}}, {"type": "node", "id": 8014101955, "lat": 38.5838826, "lon": 22.6690139, "tags": {"amenity": "restaurant", "description": "\u03a4\u03b1\u03b2\u03b5\u03c1\u03bd\u03ac\u03ba\u03b9", "name": "\u03a7\u03b1\u03bc\u03bf\u03ba\u03ad\u03bb\u03b1"}}, {"type": "node", "id": 8078053984, "lat": 38.3210132, "lon": 22.9019707}, {"type": "node", "id": 8078053985, "lat": 38.3210352, "lon": 22.9020931}, {"type": "node", "id": 8078053986, "lat": 38.3209572, "lon": 22.9021773}, {"type": "node", "id": 8078053987, "lat": 38.320833, "lon": 22.9022207}, {"type": "node", "id": 8078053988, "lat": 38.320821, "lon": 22.9021722}, {"type": "node", "id": 8078053989, "lat": 38.3207389, "lon": 22.9022131}, {"type": "node", "id": 8078053990, "lat": 38.3207209, "lon": 22.9021493}, {"type": "node", "id": 8078053991, "lat": 38.320773, "lon": 22.9021263}, {"type": "node", "id": 8078053992, "lat": 38.320753, "lon": 22.9020651}, {"type": "node", "id": 8338888317, "lat": 38.4406916, "lon": 22.8919975, "tags": {"addr:postcode": "32131", "addr:street": "\u03a0\u03bb\u03b1\u03c4\u03b5\u03af\u03b1 \u03a3\u03b9\u03bd\u03bf\u03b9\u03ba\u03b9\u03c3\u03bc\u03bf\u03cd", "amenity": "restaurant", "cuisine": "greek", "internet_access": "wlan", "name": "\u039c\u03a0\u0391\u03a1\u03a4\u03a3\u039f\u03a3", "name:el": "\u039c\u03a0\u0391\u03a1\u03a4\u0396\u039f\u03a3", "name:en": "MPARZOS", "opening_hours": "Mo-Su 10:00-12:00", "phone": "+302261026706"}}, {"type": "node", "id": 8906260619, "lat": 38.4405991, "lon": 22.8895908, "tags": {"addr:postcode": "32131", "addr:street": "\u0394\u03b7\u03bc\u03b7\u03c4\u03c1\u03af\u03bf\u03c5 \u03a0\u03b1\u03c0\u03b1\u03c3\u03c0\u03cd\u03c1\u03bf\u03c5", "amenity": "cafe", "internet_access": "wlan", "name:en": "A Pied", "opening_hours": "Mo-Su 06:00-21:00", "phone": "+302261 301401"}}, {"type": "node", "id": 8906314117, "lat": 38.4404847, "lon": 22.8882804, "tags": {"addr:postcode": "32131", "addr:street": "\u0394\u03b7\u03bc\u03b7\u03c4\u03c1\u03af\u03bf\u03c5 \u03a0\u03b1\u03c0\u03b1\u03c3\u03c0\u03cd\u03c1\u03bf\u03c5", "amenity": "cafe", "internet_access": "wlan", "name:en": "A Pied", "opening_hours": "Mo-Su 06:00-21:00", "phone": "2261 301401"}}, {"type": "node", "id": 9521484687, "lat": 38.437245, "lon": 22.8739257, "tags": {"amenity": "restaurant", "description": "\u039c\u03b5\u03b6\u03b5\u03b4\u03bf\u03c0\u03c9\u03bb\u03b5\u03af\u03bf", "name": "\u039a\u03c5\u03b2\u03b5\u03c1\u03bd\u03b5\u03af\u03bf"}}, {"type": "node", "id": 9609112963, "lat": 38.3861523, "lon": 22.6529202}, {"type": "node", "id": 9609112964, "lat": 38.3862127, "lon": 22.6534981}, {"type": "node", "id": 9609112965, "lat": 38.3860435, "lon": 22.6535269}, {"type": "node", "id": 9609112966, "lat": 38.385983, "lon": 22.652949}, {"type": "node", "id": 9632366494, "lat": 38.3772109, "lon": 22.6321706}, {"type": "node", "id": 9632366496, "lat": 38.3770077, "lon": 22.6323309}, {"type": "node", "id": 9632366497, "lat": 38.3769978, "lon": 22.6322547}, {"type": "node", "id": 9632378423, "lat": 38.3770865, "lon": 22.630855}, {"type": "node", "id": 9632378424, "lat": 38.3770617, "lon": 22.6307458}, {"type": "node", "id": 9632378425, "lat": 38.3769313, "lon": 22.6307939}, {"type": "node", "id": 9632378426, "lat": 38.3769561, "lon": 22.6309032}, {"type": "node", "id": 9632378449, "lat": 38.3770148, "lon": 22.6314977}, {"type": "node", "id": 9632378450, "lat": 38.3770351, "lon": 22.631572}, {"type": "node", "id": 9632378451, "lat": 38.3769194, "lon": 22.6316184}, {"type": "node", "id": 9632378452, "lat": 38.3769139, "lon": 22.6315365}, {"type": "node", "id": 9632378454, "lat": 38.3770663, "lon": 22.6316905}, {"type": "node", "id": 9632378455, "lat": 38.3769316, "lon": 22.6317514}, {"type": "node", "id": 9632378457, "lat": 38.3770858, "lon": 22.6317665}, {"type": "node", "id": 9632378458, "lat": 38.3769354, "lon": 22.6318327}, {"type": "node", "id": 9632378479, "lat": 38.3771942, "lon": 22.6331277}, {"type": "node", "id": 9632378480, "lat": 38.3772045, "lon": 22.6332071}, {"type": "node", "id": 9632378481, "lat": 38.3771132, "lon": 22.6332264}, {"type": "node", "id": 9632378482, "lat": 38.3771029, "lon": 22.633147}, {"type": "node", "id": 9632378484, "lat": 38.3771912, "lon": 22.6320989}, {"type": "node", "id": 9632378485, "lat": 38.3771365, "lon": 22.6321232}, {"type": "node", "id": 9632378487, "lat": 38.3769884, "lon": 22.6321891}, {"type": "node", "id": 9632378489, "lat": 38.3771084, "lon": 22.6322951}, {"type": "node", "id": 9632378490, "lat": 38.3771204, "lon": 22.63235}, {"type": "node", "id": 9632378491, "lat": 38.377011, "lon": 22.6323903}, {"type": "node", "id": 9632378492, "lat": 38.3771314, "lon": 22.6324009}, {"type": "node", "id": 9632378493, "lat": 38.3770144, "lon": 22.6324489}, {"type": "node", "id": 9632378510, "lat": 38.3774324, "lon": 22.6339523}, {"type": "node", "id": 9632378511, "lat": 38.3774635, "lon": 22.6340184}, {"type": "node", "id": 9632378512, "lat": 38.377392, "lon": 22.6340732}, {"type": "node", "id": 9632378513, "lat": 38.3773609, "lon": 22.6340071}, {"type": "node", "id": 9632378514, "lat": 38.3777425, "lon": 22.6343514}, {"type": "node", "id": 9632378515, "lat": 38.3777742, "lon": 22.6344282}, {"type": "node", "id": 9632378516, "lat": 38.377617, "lon": 22.6345338}, {"type": "node", "id": 9632378517, "lat": 38.3775853, "lon": 22.634457}, {"type": "node", "id": 9632378518, "lat": 38.3779483, "lon": 22.6348448}, {"type": "node", "id": 9632378519, "lat": 38.3779642, "lon": 22.6348948}, {"type": "node", "id": 9632378520, "lat": 38.3777768, "lon": 22.6349922}, {"type": "node", "id": 9632378521, "lat": 38.3777608, "lon": 22.6349422}, {"type": "node", "id": 9779199525, "lat": 38.4763575, "lon": 22.6358637, "tags": {"addr:street": "\u0396\u03b5\u03bc\u03b5\u03bd\u03cc \u0391\u03c1\u03ac\u03c7\u03bf\u03b2\u03b1\u03c2 320 04, Grecia", "amenity": "restaurant", "cuisine": "barbecue;greek", "name": "Aggelos Taverna - Grill", "name:es": "Interesante restaurante, buena y abundante comida griega , servicio muy r\u00e1pido y atento."}}, {"type": "node", "id": 9949723677, "lat": 38.4316696, "lon": 22.8750743, "tags": {"amenity": "cafe", "name": "XENIA"}}, {"type": "node", "id": 10090544893, "lat": 38.6530914, "lon": 23.0011202, "tags": {"amenity": "restaurant"}}, {"type": "node", "id": 10090573029, "lat": 38.6528513, "lon": 23.002158, "tags": {"amenity": "restaurant", "cuisine": "pizza", "delivery": "yes", "name": "Capricciosa"}}, {"type": "node", "id": 10090577617, "lat": 38.6537018, "lon": 22.9998428, "tags": {"amenity": "restaurant", "name": "\u00b4\u038c\u03c0\u03c9\u03c2 \u03a0\u03b1\u03bb\u03b9\u03ac"}}, {"type": "node", "id": 11019676916, "lat": 38.3711455, "lon": 23.0574371, "tags": {"amenity": "restaurant", "name": "\u039a\u03b1\u03c6\u03b5\u03bd\u03b5\u03af\u03bf \u03bf \u03a6\u03b1\u03c1\u03bc\u03b1\u03ba\u03bf\u03c0\u03bf\u03b9\u03cc\u03c2", "website": "https://kafeneiofarmakopoios.business.site/"}}, {"type": "node", "id": 12136489082, "lat": 38.3727309, "lon": 23.1002171, "tags": {"addr:city": "\u0391\u03bb\u03af\u03b1\u03c1\u03c4\u03bf\u03c2", "addr:housenumber": "46", "addr:postcode": "32001", "addr:street": "\u0391\u03b8\u03b7\u03bd\u03ce\u03bd", "amenity": "cafe", "name": "LOFIS", "outdoor_seating": "yes", "phone": "+30 2268 300403", "ref:vatin": "EL070455128"}}, {"type": "node", "id": 12444333226, "lat": 38.4437882, "lon": 22.879393, "tags": {"addr:city": "\u039b\u03b9\u03b2\u03b1\u03b4\u03b5\u03b9\u03ac", "addr:housenumber": "4", "addr:postcode": "32100", "addr:street": "\u03a1\u03bf\u03cd\u03bc\u03b5\u03bb\u03b7\u03c2", "amenity": "cafe", "fixme": "approximate location", "name": "Unicoffee", "phone": "+302261021948", "website": "https://unicoffee.gr/"}}, {"type": "node", "id": 12744956363, "lat": 38.4957368, "lon": 23.1632347, "tags": {"amenity": "cafe"}}, {"type": "way", "id": 858482002, "nodes": [8003024737, 8003024738, 8003024739, 8003024740, 8003024737], "tags": {"amenity": "restaurant", "building": "yes", "name": "9 \u039c\u03bf\u03cd\u03c3\u03b5\u03c2"}}, {"type": "way", "id": 866663525, "nodes": [8078053984, 8078053985, 8078053986, 8078053987, 8078053988, 8078053989, 8078053990, 8078053991, 8078053992, 8078053984], "tags": {"amenity": "restaurant", "building": "yes", "name": "\u03a0\u03bf\u03bb\u03cd\u03bc\u03bd\u03b9\u03b1"}}, {"type": "way", "id": 1044274114, "nodes": [9609112963, 9609112964, 9609112965, 9609112966, 9609112963], "tags": {"amenity": "restaurant", "building": "yes", "name": "\u03a0\u03b5\u03c1\u03bf\u03ba\u03ad"}}, {"type": "way", "id": 1047524766, "nodes": [9632378423, 9632378424, 9632378425, 9632378426, 9632378423], "tags": {"amenity": "cafe", "building": "yes", "name": "\u03a4\u03bf \u03a3\u03c4\u03ad\u03ba\u03b9"}}, {"type": "way", "id": 1047524775, "nodes": [9632378449, 9632378450, 9632378451, 9632378452, 9632378449], "tags": {"amenity": "restaurant", "building": "yes", "cuisine": "meat", "name": "Food truck"}}, {"type": "way", "id": 1047524777, "nodes": [9632378454, 9632378457, 9632378458, 9632378455, 9632378454], "tags": {"amenity": "restaurant", "building": "yes", "cuisine": "fish", "name": "\u03a4\u03b1 \u0394\u03b5\u03bb\u03c6\u03af\u03bd\u03b9\u03b1"}}, {"type": "way", "id": 1047524783, "nodes": [9632378479, 9632378480, 9632378481, 9632378482, 9632378479], "tags": {"amenity": "cafe", "building": "yes", "name": "Sabbia"}}, {"type": "way", "id": 1047524786, "nodes": [9632378484, 9632366494, 9632366497, 9632378487, 9632378485, 9632378484], "tags": {"amenity": "restaurant", "building": "yes", "name": "\u0392\u03b1\u03bb\u03b1\u03bf\u03cd\u03c1\u03b1\u03c2"}}, {"type": "way", "id": 1047524787, "nodes": [9632378489, 9632378490, 9632378491, 9632366496, 9632378489], "tags": {"amenity": "cafe", "building": "yes", "name": "\u0392\u03b9\u03ba\u03c4\u03ce\u03c1\u03b9\u03b1"}}, {"type": "way", "id": 1047524788, "nodes": [9632378490, 9632378492, 9632378493, 9632378491, 9632378490], "tags": {"amenity": "restaurant", "building": "yes", "cuisine": "pizza", "name": "Castello"}}, {"type": "way", "id": 1047524793, "nodes": [9632378510, 9632378511, 9632378512, 9632378513, 9632378510], "tags": {"amenity": "cafe", "building": "yes", "name": "\u039c\u03b9\u03ba\u03c1\u03cc"}}, {"type": "way", "id": 1047524794, "nodes": [9632378514, 9632378515, 9632378516, 9632378517, 9632378514], "tags": {"amenity": "cafe", "building": "yes", "name": "Seagul"}}, {"type": "way", "id": 1047524795, "nodes": [9632378518, 9632378519, 9632378520, 9632378521, 9632378518], "tags": {"amenity": "cafe", "building": "yes", "name": "Saloon"}}]}