{"version": 0.6, "generator": "Overpass API 0.7.62.7 375dc00a", "osm3s": {"timestamp_osm_base": "2025-06-14T15:20:06Z", "copyright": "The data included in this document is from www.openstreetmap.org. The data is made available under ODbL."}, "elements": [{"type": "node", "id": 679755679, "lat": 37.0633008, "lon": 37.3831162}, {"type": "node", "id": 2450076979, "lat": 37.0691631, "lon": 37.3839704}, {"type": "node", "id": 2450076980, "lat": 37.0691887, "lon": 37.384074}, {"type": "node", "id": 2450076981, "lat": 37.0691004, "lon": 37.3841084}, {"type": "node", "id": 2450076982, "lat": 37.0690748, "lon": 37.3840047}, {"type": "node", "id": 2450143376, "lat": 37.0632865, "lon": 37.3830048}, {"type": "node", "id": 2450143378, "lat": 37.063218, "lon": 37.3830151}, {"type": "node", "id": 2450143380, "lat": 37.0632291, "lon": 37.3831397}, {"type": "node", "id": 2451245042, "lat": 37.0611137, "lon": 37.3876048}, {"type": "node", "id": 2451245050, "lat": 37.0611085, "lon": 37.3878233}, {"type": "node", "id": 2451245059, "lat": 37.0603437, "lon": 37.3875114}, {"type": "node", "id": 2451245060, "lat": 37.0604373, "lon": 37.3877212}, {"type": "node", "id": 2451245061, "lat": 37.0601812, "lon": 37.3879125}, {"type": "node", "id": 2523145579, "lat": 37.056053, "lon": 37.5433405, "tags": {"amenity": "restaurant", "name": "Asko\u00e7 Park Dinlenme Tesisleri"}}, {"type": "node", "id": 2523145580, "lat": 37.0547234, "lon": 37.5406038, "tags": {"amenity": "restaurant", "name": "Asko\u00e7 Park Dinlenme Tesisleri"}}, {"type": "node", "id": 3485858725, "lat": 37.0630878, "lon": 37.3793334, "tags": {"addr:city": "\u015eahinbey/Gaziantep", "amenity": "restaurant", "name": "\u00dcmit D\u00f6ner"}}, {"type": "node", "id": 3485983757, "lat": 37.0631783, "lon": 37.3842612, "tags": {"amenity": "restaurant", "name": "\u00c7avu\u015fo\u011flu Kebap"}}, {"type": "node", "id": 3485983758, "lat": 37.0634988, "lon": 37.3852138, "tags": {"addr:city": "Gaziantep", "amenity": "restaurant", "name": "\u0130mam \u00c7a\u011fda\u015f", "opening_hours": "Mo-Su 08:00-22:00", "phone": "+90 342 220 4545", "website": "https://www.imamcagdas.com/"}}, {"type": "node", "id": 3525966549, "lat": 37.024969, "lon": 37.3123058}, {"type": "node", "id": 3525966550, "lat": 37.0248809, "lon": 37.3123178}, {"type": "node", "id": 3525966551, "lat": 37.0248349, "lon": 37.312349}, {"type": "node", "id": 3525966552, "lat": 37.0247869, "lon": 37.3124282}, {"type": "node", "id": 3525966553, "lat": 37.0247735, "lon": 37.312457}, {"type": "node", "id": 3525966554, "lat": 37.0248023, "lon": 37.3124666}, {"type": "node", "id": 3525966555, "lat": 37.0248119, "lon": 37.3125627}, {"type": "node", "id": 3525966556, "lat": 37.0248368, "lon": 37.3126107}, {"type": "node", "id": 3525966557, "lat": 37.0248617, "lon": 37.3126347}, {"type": "node", "id": 3525966558, "lat": 37.0249192, "lon": 37.3126443}, {"type": "node", "id": 3525966559, "lat": 37.0249844, "lon": 37.3126299}, {"type": "node", "id": 3525966560, "lat": 37.0250208, "lon": 37.3126035}, {"type": "node", "id": 3525966561, "lat": 37.0250476, "lon": 37.3125411}, {"type": "node", "id": 3525966562, "lat": 37.0250821, "lon": 37.3125483}, {"type": "node", "id": 3525966563, "lat": 37.025084, "lon": 37.312505}, {"type": "node", "id": 3525966564, "lat": 37.0250668, "lon": 37.312457}, {"type": "node", "id": 3525966565, "lat": 37.0250342, "lon": 37.3123874}, {"type": "node", "id": 3525966566, "lat": 37.024969, "lon": 37.3123466}, {"type": "node", "id": 3525966567, "lat": 37.025006, "lon": 37.3123646}, {"type": "node", "id": 3525966568, "lat": 37.0249269, "lon": 37.3123034}, {"type": "node", "id": 3525966569, "lat": 37.0248047, "lon": 37.312385}, {"type": "node", "id": 4000280867, "lat": 37.0633241, "lon": 37.3564259}, {"type": "node", "id": 4000280868, "lat": 37.0628604, "lon": 37.3566149}, {"type": "node", "id": 4000280869, "lat": 37.0628875, "lon": 37.3567714}, {"type": "node", "id": 4000280870, "lat": 37.0628396, "lon": 37.3567844}, {"type": "node", "id": 4000280871, "lat": 37.0629487, "lon": 37.3574132}, {"type": "node", "id": 4000280872, "lat": 37.0634375, "lon": 37.35728}, {"type": "node", "id": 4105177726, "lat": 36.9536411, "lon": 37.3807544}, {"type": "node", "id": 4105177727, "lat": 36.9536076, "lon": 37.3806592}, {"type": "node", "id": 4105177728, "lat": 36.9536829, "lon": 37.3806178}, {"type": "node", "id": 4105177729, "lat": 36.953716, "lon": 37.3807117}, {"type": "node", "id": 4213454020, "lat": 37.0777985, "lon": 37.3501077, "tags": {"addr:street": "Ali Nadi \u00dcnler Bulvar\u0131", "amenity": "cafe", "name": "Bellapais", "phone": "03423221055", "website": "www.bellapaiscafe.com"}}, {"type": "node", "id": 4213531899, "lat": 37.0628997, "lon": 37.3482638, "tags": {"amenity": "restaurant", "name": "Senfoni", "website": "senfonigaziantep.com"}}, {"type": "node", "id": 4213532194, "lat": 37.0636622, "lon": 37.3493659, "tags": {"addr:street": "Z\u00fcbeyde Han\u0131m Blv", "amenity": "restaurant", "name": "Ayyu\u015f Han\u0131m Kona\u011f\u0131"}}, {"type": "node", "id": 4239684652, "lat": 37.0633339, "lon": 37.3762108, "tags": {"amenity": "cafe", "layer": "-1", "name": "Karakedi Sakl\u0131 Bah\u00e7e"}}, {"type": "node", "id": 4239735419, "lat": 37.0638462, "lon": 37.3774657, "tags": {"amenity": "cafe", "name": "Kitap Kafe"}}, {"type": "node", "id": 4239736118, "lat": 37.0633396, "lon": 37.377213, "tags": {"amenity": "cafe", "layer": "-1", "name": "Maydanoz D\u00fcr\u00fcm"}}, {"type": "node", "id": 4239737191, "lat": 37.0640442, "lon": 37.3780884, "tags": {"amenity": "restaurant", "name": "Pizzac\u0131"}}, {"type": "node", "id": 4239745226, "lat": 37.0636839, "lon": 37.3775439, "tags": {"amenity": "restaurant", "name": "\u00c7\u0131t\u0131r Lahmacun", "opening_hours": "Mo-Su 10:00-22:00", "phone": "+90 342 220 7187"}}, {"type": "node", "id": 4270137589, "lat": 37.0765336, "lon": 37.35037, "tags": {"addr:street": "Gazi Ali D\u00fc\u015f\u00fcn Caddesi", "amenity": "restaurant", "name": "Locca Cafe and Restaurant"}}, {"type": "node", "id": 4294847444, "lat": 37.0632095, "lon": 37.3762634, "tags": {"addr:street": "Atat\u00fcrk Bulvar\u0131", "amenity": "cafe", "layer": "1", "name": "Ye\u015filsu Cafe & Restaurant"}}, {"type": "node", "id": 4302130089, "lat": 37.0681477, "lon": 37.3705298, "tags": {"amenity": "restaurant", "name": "Macaroni Restaurant"}}, {"type": "node", "id": 4411472903, "lat": 37.0607118, "lon": 37.3640603, "tags": {"amenity": "restaurant", "cuisine": "regional", "name": "Yesemek restoran", "name:ar": "\u0645\u0637\u0639\u0645 \u064a\u0627\u0633\u0645\u0643", "name:tr": "Yesemak restoran"}}, {"type": "node", "id": 4411605196, "lat": 37.0693284, "lon": 37.3730286, "tags": {"amenity": "restaurant", "name": "Tolip", "name:ar": "\u0645\u0637\u0639\u0645 \u062a\u0648\u0644\u064a\u0628"}}, {"type": "node", "id": 4457479889, "lat": 37.0671299, "lon": 37.375101, "tags": {"addr:street": "Prof. Muamer Aksoy Bulvar\u0131", "amenity": "restaurant", "name": "A\u015fina Gaziantep Restoran", "name:tr": "A\u015fina Gaziantep Restoran", "opening_hours": "Mo-Su 11:00-22:00", "phone": "+90 342 220 4949"}}, {"type": "node", "id": 4461677602, "lat": 37.0628925, "lon": 37.3710014, "tags": {"amenity": "restaurant", "name": "Ci\u011ferci Mustafa", "name:tr": "Ci\u011ferci Mustafa", "phone": "+90 342 230 1230"}}, {"type": "node", "id": 4461677796, "lat": 37.058687, "lon": 37.387386, "tags": {"amenity": "restaurant", "name": "\u00c7ulcuo\u011flu Et Lokantas\u0131", "name:tr": "\u00c7ulcuo\u011flu Et Lokantas\u0131", "opening_hours": "Mo-Su 11:00-22:00", "phone": "+90 342 231 0241"}}, {"type": "node", "id": 4461677893, "lat": 37.060917, "lon": 37.3882478, "tags": {"amenity": "restaurant", "name": "Metanet Lokantas\u0131", "name:tr": "Metanet Lokantas\u0131", "phone": "+90 342 231 4666"}}, {"type": "node", "id": 4461697694, "lat": 37.0661959, "lon": 37.3586887, "tags": {"amenity": "restaurant", "name": "\u00dc\u00e7ler Kebap", "name:tr": "\u00dc\u00e7ler Kebap", "phone": "+90 342 338 1828"}}, {"type": "node", "id": 4461697695, "lat": 37.062646, "lon": 37.365197, "tags": {"amenity": "restaurant", "name": "Kelebek Restaurant", "name:tr": "Kelebek Restaurant", "phone": "+90 342 230 9633"}}, {"type": "node", "id": 4461698090, "lat": 37.062238, "lon": 37.377547, "tags": {"amenity": "cafe", "name": "Beyo\u011flu Cafe", "name:tr": "Beyo\u011flu Cafe", "phone": "+90 506 613 4295"}}, {"type": "node", "id": 4461710993, "lat": 37.063542, "lon": 37.377345, "tags": {"amenity": "cafe", "name": "Otantik Cafe", "name:tr": "Otantik Cafe", "phone": "+90 542 650 7909"}}, {"type": "node", "id": 4493293390, "lat": 37.0935812, "lon": 37.4179603, "tags": {"amenity": "restaurant", "name": "Bar\u0131\u015f b\u00fcryan", "name:tr": "Bar\u0131\u015f b\u00fcryan"}}, {"type": "node", "id": 4755579621, "lat": 37.0609472, "lon": 37.3870822, "tags": {"amenity": "cafe", "name": "\u00c7elebio\u011flular\u0131 Baklava", "name:tr": "\u00c7elebio\u011flular\u0131 Baklava"}}, {"type": "node", "id": 4834669643, "lat": 37.0700384, "lon": 37.3800338, "tags": {"amenity": "cafe", "brand": "Starbucks", "brand:wikidata": "Q37158", "brand:wikipedia": "en:Starbucks", "cuisine": "coffee_shop", "name": "Starbucks", "name:en": "Starbucks", "name:tr": "Starbucks", "official_name": "Starbucks Coffee", "takeaway": "yes"}}, {"type": "node", "id": 4834669733, "lat": 37.067889, "lon": 37.3799346, "tags": {"amenity": "restaurant", "name": "K\u00f6\u015fk Kebap", "name:en": "K\u00f6\u015fk Turkish Kebap", "name:tr": "K\u00f6\u015fk Kebap"}}, {"type": "node", "id": 4834670023, "lat": 37.0695235, "lon": 37.3799221, "tags": {"amenity": "cafe", "brand": "Kahve D\u00fcnyas\u0131", "brand:wikidata": "Q28008050", "cuisine": "coffee_shop", "internet_access": "wlan", "name": "Kahve D\u00fcnyas\u0131", "name:en": "Coffee World", "takeaway": "yes"}}, {"type": "node", "id": 4889905043, "lat": 37.0433046, "lon": 37.3242598, "tags": {"amenity": "restaurant", "name": "Zeugma Park", "name:en": "Zeugma Park", "name:tr": "Zeugma Park"}}, {"type": "node", "id": 4889959137, "lat": 37.0626513, "lon": 37.3591523, "tags": {"amenity": "cafe", "name": "Zekeriya Usta", "name:en": "Zekeriya Usta", "name:tr": "Zekeriya Usta"}}, {"type": "node", "id": 4889959438, "lat": 37.0643997, "lon": 37.364666, "tags": {"amenity": "cafe", "name": "Tatl\u0131hane", "name:en": "Tatlihane", "name:tr": "Tatl\u0131hane"}}, {"type": "node", "id": 5018191022, "lat": 37.0854604, "lon": 37.3382171, "tags": {"addr:housenumber": "8", "addr:street": "Duisburg Bulvar\u0131", "amenity": "cafe", "cuisine": "mediterranean;arab;fish_and_chips;seafood;regional;ice_cream;donut;soba;noodles;steak_house;pancake;burger;italian_pizza;breakfast;coffee_shop;kebab;pasta;pizza;cake;barbecue;chicken;turkish;tea", "internet_access": "wlan", "name": "jacky jones cafe", "opening_hours": "Mo-Su 07:00-23:30", "operator": "Oya \u00f6zdemir", "phone": "+903423220321"}}, {"type": "node", "id": 5018284543, "lat": 37.0638906, "lon": 37.384351, "tags": {"addr:street": "TAR\u0130H\u0130 G\u00dcMR\u00dcK HAN/YA\u015eAYAN M\u00dcZE", "amenity": "cafe", "name": "Kahveci Seddar Bey", "name:tr": "Kahveci Seddar Bey"}}, {"type": "node", "id": 5020521122, "lat": 37.0736379, "lon": 37.365023, "tags": {"amenity": "restaurant", "name": "Ko\u00e7ak baklava", "name:tr": "Ko\u00e7ak baklava"}}, {"type": "node", "id": 5163405121, "lat": 37.0658835, "lon": 37.3578511, "tags": {"amenity": "restaurant", "cuisine": "arab", "name": "Istasyon Restoran"}}, {"type": "node", "id": 5163405122, "lat": 37.0645375, "lon": 37.3688176, "tags": {"amenity": "cafe"}}, {"type": "node", "id": 5163807021, "lat": 37.0175093, "lon": 37.3683465, "tags": {"amenity": "restaurant", "name": "Cevizli K\u00f6fte"}}, {"type": "node", "id": 5316441921, "lat": 37.0627177, "lon": 37.3777822, "tags": {"amenity": "cafe", "name": "Papirus cafe"}}, {"type": "node", "id": 5320623021, "lat": 37.074902, "lon": 37.3493963, "tags": {"amenity": "restaurant", "name": "Cumba K\u00fcnefe"}}, {"type": "node", "id": 5451600724, "lat": 37.0642325, "lon": 37.3512899, "tags": {"amenity": "restaurant", "name": "Mutfak Sanatlar\u0131 Merkezi"}}, {"type": "node", "id": 5470750221, "lat": 37.0623522, "lon": 37.3827342, "tags": {"amenity": "restaurant", "cuisine": "turkish", "name": "Katmerci Zekeriya Usta", "phone": "03422300971", "website": "https://katmercizekeriya.com/"}}, {"type": "node", "id": 5584146625, "lat": 37.08858, "lon": 37.3508789, "tags": {"amenity": "restaurant", "name": "Adil Usta"}}, {"type": "node", "id": 5584509823, "lat": 37.0331082, "lon": 37.321333, "tags": {"amenity": "restaurant", "name": "27 Ocakba\u015f\u0131"}}, {"type": "node", "id": 5584509825, "lat": 37.0336072, "lon": 37.320427, "tags": {"amenity": "cafe", "name": "Yemen Kahvesi"}}, {"type": "node", "id": 5584509829, "lat": 37.0350932, "lon": 37.3195516, "tags": {"amenity": "restaurant", "name": "T\u00fcrkan Ev Yemekleri"}}, {"type": "node", "id": 5584509831, "lat": 37.0347348, "lon": 37.3201117, "tags": {"addr:city": "Gaziantep", "addr:district": "\u015eahinbey", "addr:housenumber": "66", "addr:neighbourhood": "Yeditepe mh.", "addr:postcode": "27470", "addr:street": "85204. sk", "amenity": "cafe", "cuisine": "coffee_shop;turkish;ice_cream;pasta;juice;cake;sandwich;chocolate;waffle;american;pizza;burger;restoran;kahvalt\u0131;ana_\u00f6\u011f\u00fcn;ara_\u00f6\u011f\u00fcn;aparatif;kutlamalar", "internet_access": "wlan", "internet_access:fee": "no", "name": "Baniyas Cafe", "opening_hours": "Mo-Su 09:00-23:00", "phone": "+90 506 855 2331", "website": "https://www.instagram.com/baniyascafe/"}}, {"type": "node", "id": 5584510823, "lat": 37.0322336, "lon": 37.3217247, "tags": {"amenity": "restaurant", "name": "Kahvalt\u0131 Hane"}}, {"type": "node", "id": 5584519422, "lat": 37.0334377, "lon": 37.3193667, "tags": {"amenity": "restaurant", "name": "Ba\u015fak Cafe & Restaurant"}}, {"type": "node", "id": 5584519423, "lat": 37.0347095, "lon": 37.3190398, "tags": {"amenity": "cafe", "name": "Kahve Tiryakisi"}}, {"type": "node", "id": 5584519921, "lat": 37.0315412, "lon": 37.3243706, "tags": {"amenity": "restaurant", "name": "Friends Restaurant & Cafe"}}, {"type": "node", "id": 5896333785, "lat": 37.0629241, "lon": 37.36702, "tags": {"addr:street": "Kemal K\u00f6ker Cd.", "amenity": "restaurant", "internet_access": "wlan", "name": "sakip usta", "opening_hours": "Mo-Su 09:00-23:55"}}, {"type": "node", "id": 5901680587, "lat": 37.0630447, "lon": 37.3614953, "tags": {"addr:street": "Ahmet Apaayd\u0131n Caddesi", "amenity": "cafe", "internet_access": "wlan", "name": "ROBERTS CAFE", "opening_hours": "Mo-Su 09:00-22:00"}}, {"type": "node", "id": 5901699385, "lat": 37.0629245, "lon": 37.3615477, "tags": {"addr:street": "Ahmet Apaayd\u0131n Caddesi", "amenity": "restaurant", "cuisine": "turkish", "internet_access": "wlan", "name": "B\u0130G CHEFS CAFE", "opening_hours": "Mo-Su 09:00-22:55"}}, {"type": "node", "id": 5922568086, "lat": 37.0632142, "lon": 37.369736, "tags": {"addr:street": "\u015eair Fuzuli Sokak", "amenity": "restaurant", "internet_access": "wlan", "name": "ANTEP LIVE MUSIC CAFE & RESTAURANT", "opening_hours": "Mo-Su 09:00-23:00"}}, {"type": "node", "id": 6125426682, "lat": 37.0439136, "lon": 37.3219894}, {"type": "node", "id": 6125426683, "lat": 37.0437437, "lon": 37.3227117}, {"type": "node", "id": 6125426684, "lat": 37.0442489, "lon": 37.3229512}, {"type": "node", "id": 6125438985, "lat": 37.0443217, "lon": 37.3229379}, {"type": "node", "id": 6125438986, "lat": 37.0447587, "lon": 37.3223525}, {"type": "node", "id": 6567164795, "lat": 37.0613233, "lon": 37.3878314}, {"type": "node", "id": 6567164798, "lat": 37.0601061, "lon": 37.387716}, {"type": "node", "id": 6567164799, "lat": 37.0602471, "lon": 37.3874168}, {"type": "node", "id": 6622563286, "lat": 37.0774667, "lon": 37.3854867, "tags": {"amenity": "restaurant", "name": "Kabab\u00e7i Halil Usta", "name:en": "\u0645\u0637\u0639\u0645 \u062e\u0644\u064a\u0644 \u0647\u0648\u0633\u062a\u0627 Xalil Hosta"}}, {"type": "node", "id": 6634239916, "lat": 37.0731395, "lon": 37.3655871, "tags": {"amenity": "restaurant", "email": "saim@hassofram.com.tr", "name": "SOFRAM Restaurant", "name:en": "has SOFRAM Restaurant \u0633\u0648\u0641\u0631\u0627\u0645", "name:tr": "Has SOFRAM Restaurant", "opening_hours": "Mo-Sa 10:00-21:30", "phone": "05327327279", "website": "http://hassofram.com.tr"}}, {"type": "node", "id": 7064035386, "lat": 37.0553524, "lon": 37.3389352, "tags": {"addr:street": "binevler yeni balik pazari - \u015eahinbey / Gaziantep", "amenity": "restaurant", "name": "Tayim Balik Evi", "name:ar": "\u0645\u0637\u0639\u0645 \u062a\u0627\u064a\u0645 \u0628\u0627\u0644\u064a\u0643 (\u0645\u0627\u0633\u0649-\u0633\u0645\u0643)", "name:en": "Tayim Balik Evi Rest.", "phone": "05389201212"}}, {"type": "node", "id": 7767684576, "lat": 37.0580548, "lon": 37.3222257}, {"type": "node", "id": 7767684577, "lat": 37.0585897, "lon": 37.3221458}, {"type": "node", "id": 7767684578, "lat": 37.0586159, "lon": 37.3224201}, {"type": "node", "id": 7767684579, "lat": 37.0585898, "lon": 37.3226723}, {"type": "node", "id": 7767684580, "lat": 37.058212, "lon": 37.3228422}, {"type": "node", "id": 7767684581, "lat": 37.0580643, "lon": 37.3223267}, {"type": "node", "id": 7879070685, "lat": 37.0671735, "lon": 37.3819077, "tags": {"amenity": "restaurant", "name": "Cigerci Mustafa"}}, {"type": "node", "id": 7879070785, "lat": 37.0673937, "lon": 37.3817027, "tags": {"amenity": "restaurant", "name": "Cigerci Mustafa"}}, {"type": "node", "id": 7879147086, "lat": 37.0692122, "lon": 37.3797809, "tags": {"amenity": "cafe", "brand": "Kahve D\u00fcnyas\u0131", "brand:wikidata": "Q28008050", "cuisine": "coffee_shop", "name": "Kahve D\u00fcnyas\u0131", "name:en": "Kahve D\u00fcnyasi", "takeaway": "yes"}}, {"type": "node", "id": 7995372719, "lat": 36.9814788, "lon": 37.3014608, "tags": {"amenity": "cafe", "brand": "Mado", "brand:wikidata": "Q17116336", "brand:wikipedia": "en:Mado (food company)", "cuisine": "coffee_shop", "name": "Mado", "takeaway": "yes"}}, {"type": "node", "id": 8448973715, "lat": 37.0348291, "lon": 37.3131342}, {"type": "node", "id": 8448973716, "lat": 37.0347466, "lon": 37.3131154}, {"type": "node", "id": 8448981321, "lat": 37.0351376, "lon": 37.3131214}, {"type": "node", "id": 8448981322, "lat": 37.0351208, "lon": 37.3132334}, {"type": "node", "id": 8448981323, "lat": 37.0350314, "lon": 37.3132159}, {"type": "node", "id": 8448981324, "lat": 37.0350034, "lon": 37.313161}, {"type": "node", "id": 8448981325, "lat": 37.0350137, "lon": 37.3130933}, {"type": "node", "id": 8448981326, "lat": 37.035099, "lon": 37.3134019}, {"type": "node", "id": 8448981328, "lat": 37.0350612, "lon": 37.3135113}, {"type": "node", "id": 8448981329, "lat": 37.0349907, "lon": 37.313493}, {"type": "node", "id": 8448981330, "lat": 37.0350075, "lon": 37.3133816}, {"type": "node", "id": 8448981331, "lat": 37.0350479, "lon": 37.3136193}, {"type": "node", "id": 8448981332, "lat": 37.0350017, "lon": 37.3136079}, {"type": "node", "id": 8448981333, "lat": 37.0349786, "lon": 37.3135734}, {"type": "node", "id": 8448981336, "lat": 37.0350136, "lon": 37.3137956}, {"type": "node", "id": 8448981337, "lat": 37.0349737, "lon": 37.3137856}, {"type": "node", "id": 8448981338, "lat": 37.0349875, "lon": 37.3139456}, {"type": "node", "id": 8448981339, "lat": 37.0349515, "lon": 37.3139651}, {"type": "node", "id": 8448981340, "lat": 37.0349198, "lon": 37.3139587}, {"type": "node", "id": 8448981341, "lat": 37.0349455, "lon": 37.3138076}, {"type": "node", "id": 8448981342, "lat": 37.0349939, "lon": 37.3140446}, {"type": "node", "id": 8448981343, "lat": 37.0349717, "lon": 37.3141821}, {"type": "node", "id": 8448981344, "lat": 37.0348886, "lon": 37.3141568}, {"type": "node", "id": 8448981345, "lat": 37.0349068, "lon": 37.3140549}, {"type": "node", "id": 8448981346, "lat": 37.0349416, "lon": 37.3140322}, {"type": "node", "id": 8448981347, "lat": 37.034959, "lon": 37.3141787}, {"type": "node", "id": 8448981348, "lat": 37.0349488, "lon": 37.314232}, {"type": "node", "id": 8448981349, "lat": 37.0348792, "lon": 37.3142098}, {"type": "node", "id": 8448981350, "lat": 37.0349367, "lon": 37.3142287}, {"type": "node", "id": 8448981351, "lat": 37.0349271, "lon": 37.3142818}, {"type": "node", "id": 8448981352, "lat": 37.0348692, "lon": 37.3142657}, {"type": "node", "id": 8448981353, "lat": 37.0349186, "lon": 37.314328}, {"type": "node", "id": 8448981354, "lat": 37.0348611, "lon": 37.3143114}, {"type": "node", "id": 8448981355, "lat": 37.0349272, "lon": 37.3143303}, {"type": "node", "id": 8448981356, "lat": 37.0349171, "lon": 37.3143888}, {"type": "node", "id": 8448981357, "lat": 37.034835, "lon": 37.3143796}, {"type": "node", "id": 8448981358, "lat": 37.0348484, "lon": 37.3143082}, {"type": "node", "id": 8448981359, "lat": 37.0349061, "lon": 37.3144614}, {"type": "node", "id": 8448981360, "lat": 37.03484, "lon": 37.314444}, {"type": "node", "id": 8448981361, "lat": 37.0348501, "lon": 37.3143836}, {"type": "node", "id": 8448981362, "lat": 37.0349357, "lon": 37.314522}, {"type": "node", "id": 8448981363, "lat": 37.0349167, "lon": 37.3146321}, {"type": "node", "id": 8448981364, "lat": 37.0348278, "lon": 37.3146026}, {"type": "node", "id": 8448981365, "lat": 37.0348472, "lon": 37.3144966}, {"type": "node", "id": 8448981438, "lat": 37.0348055, "lon": 37.3132806}, {"type": "node", "id": 8448981439, "lat": 37.0347242, "lon": 37.313263}, {"type": "node", "id": 8448981449, "lat": 37.0347444, "lon": 37.3135387}, {"type": "node", "id": 8448981450, "lat": 37.0347171, "lon": 37.3136896}, {"type": "node", "id": 8448981451, "lat": 37.0346405, "lon": 37.3136702}, {"type": "node", "id": 8448981452, "lat": 37.0346689, "lon": 37.313518}, {"type": "node", "id": 8448981453, "lat": 37.0347371, "lon": 37.3135787}, {"type": "node", "id": 8448981454, "lat": 37.0348075, "lon": 37.3135944}, {"type": "node", "id": 8448981455, "lat": 37.0348397, "lon": 37.3135736}, {"type": "node", "id": 8448981456, "lat": 37.0349114, "lon": 37.3135904}, {"type": "node", "id": 8448981457, "lat": 37.0348873, "lon": 37.3137359}, {"type": "node", "id": 8448981458, "lat": 37.0348156, "lon": 37.3137205}, {"type": "node", "id": 8448981459, "lat": 37.0347942, "lon": 37.3136849}, {"type": "node", "id": 8448981460, "lat": 37.0347213, "lon": 37.3136664}, {"type": "node", "id": 8448981461, "lat": 37.0351149, "lon": 37.3132948}, {"type": "node", "id": 8448981462, "lat": 37.0350245, "lon": 37.3132747}, {"type": "node", "id": 8483218017, "lat": 37.0691004, "lon": 37.3843581, "tags": {"amenity": "restaurant", "name": "Kebap\u00e7\u0131 Yal\u00e7\u0131n", "name:ar": "\u0643\u0628\u0627\u0628 \u064a\u0627\u0644\u062c\u0646"}}, {"type": "node", "id": 9112711790, "lat": 37.1576479, "lon": 37.283255, "tags": {"addr:city": "Gaziantep", "addr:district": "\u015eehitkamil", "addr:neighbourhood": "Nesimi Mah.", "amenity": "restaurant", "name": "Ba\u015fp\u0131nar \u015ei\u015fHet Restaurant", "phone": "+90 533 161 71 81"}}, {"type": "node", "id": 9154712717, "lat": 37.0616977, "lon": 37.3776044, "tags": {"amenity": "cafe", "name:en": "Cafe Mina"}}, {"type": "node", "id": 9277650084, "lat": 37.0759773, "lon": 37.3860332, "tags": {"amenity": "cafe"}}, {"type": "node", "id": 9628450488, "lat": 37.0677772, "lon": 37.3814471, "tags": {"amenity": "restaurant", "name": "Katmerci Cumali Usta"}}, {"type": "node", "id": 9628499120, "lat": 37.0907302, "lon": 37.3475893}, {"type": "node", "id": 9628499122, "lat": 37.0905547, "lon": 37.3476108}, {"type": "node", "id": 10069306599, "lat": 37.0670488, "lon": 37.3403424, "tags": {"amenity": "cafe", "name": "jacky jones"}}, {"type": "node", "id": 10069306613, "lat": 37.0717896, "lon": 37.3402758, "tags": {"amenity": "cafe", "brand": "Starbucks", "brand:wikidata": "Q37158", "cuisine": "coffee_shop", "name": "Starbucks", "official_name": "Starbucks Coffee", "takeaway": "yes"}}, {"type": "node", "id": 10132344443, "lat": 37.0330541, "lon": 37.3204305, "tags": {"addr:city": "\u015eahinbey/Gaziantep", "amenity": "cafe", "brand": "Starbucks", "brand:wikidata": "Q37158", "cuisine": "coffee_shop", "name": "Starbucks", "official_name": "Starbucks Coffee", "takeaway": "yes"}}, {"type": "node", "id": 10221919617, "lat": 37.0762273, "lon": 37.3496864, "tags": {"amenity": "cafe", "name:en": "Artukbey kahve"}}, {"type": "node", "id": 10223365117, "lat": 37.0751722, "lon": 37.3493351, "tags": {"amenity": "cafe", "name:en": "Kumba pahlava"}}, {"type": "node", "id": 10225353117, "lat": 37.0618635, "lon": 37.3695172, "tags": {"amenity": "restaurant", "name": "Evirge\u00e7 Mant\u0131 Evi & Y\u00f6resel Ev Yemekleri"}}, {"type": "node", "id": 10595748407, "lat": 37.0653106, "lon": 37.3846705, "tags": {"amenity": "cafe", "name": "B\u00fcdeyri Ala cafe"}}, {"type": "node", "id": 10599185005, "lat": 37.0628078, "lon": 37.377834, "tags": {"amenity": "cafe", "name": "Bagdad cafe"}}, {"type": "node", "id": 10607517306, "lat": 37.0612352, "lon": 37.3757188, "tags": {"amenity": "restaurant"}}, {"type": "node", "id": 10614444195, "lat": 37.0809866, "lon": 37.3479888, "tags": {"addr:city": "\u015eehitkamil/Gaziantep", "addr:housenumber": "9", "addr:neighbourhood": "Fatih mahallesi", "addr:postcode": "27060", "addr:street": "22024. Sokak", "amenity": "restaurant", "name": "Kasap Halil Usta F\u0131r\u0131nl\u0131 Et Lokantas\u0131", "opening_hours": "Mo-Su 08:00-22:00"}}, {"type": "node", "id": 10647115873, "lat": 37.0613286, "lon": 37.387613}, {"type": "node", "id": 10647461016, "lat": 37.0906963, "lon": 37.3475018}, {"type": "node", "id": 10651100648, "lat": 37.0905947, "lon": 37.3477094}, {"type": "node", "id": 10691145394, "lat": 37.0631154, "lon": 37.3565441}, {"type": "node", "id": 10691145395, "lat": 37.0631874, "lon": 37.3565244}, {"type": "node", "id": 10691145396, "lat": 37.0631772, "lon": 37.3564659}, {"type": "node", "id": 10691145397, "lat": 37.0631011, "lon": 37.3564619}, {"type": "node", "id": 10691145398, "lat": 37.0629721, "lon": 37.3564971}, {"type": "node", "id": 10691145399, "lat": 37.0629866, "lon": 37.3565805}, {"type": "node", "id": 10691145400, "lat": 37.0633592, "lon": 37.3566283}, {"type": "node", "id": 10691145401, "lat": 37.063326, "lon": 37.3566374}, {"type": "node", "id": 11053749293, "lat": 37.1161391, "lon": 37.393554}, {"type": "node", "id": 11053749294, "lat": 37.1159958, "lon": 37.3935585}, {"type": "node", "id": 11053749295, "lat": 37.1160172, "lon": 37.3936533}, {"type": "node", "id": 11053749296, "lat": 37.1161334, "lon": 37.3936363}, {"type": "node", "id": 11254595954, "lat": 37.0631502, "lon": 37.3855585, "tags": {"amenity": "restaurant", "cuisine": "regional", "name": "YESEMEK Gaziantep Mutfa\u011f\u0131"}}, {"type": "node", "id": 11258141221, "lat": 37.0150744, "lon": 37.3847246}, {"type": "node", "id": 11258141222, "lat": 37.0150744, "lon": 37.3846583}, {"type": "node", "id": 11258141223, "lat": 37.0150308, "lon": 37.3847193}, {"type": "node", "id": 11921660235, "lat": 37.0540416, "lon": 37.3722941, "tags": {"amenity": "restaurant", "name": "kafa day\u0131n\u0131n yeri"}}, {"type": "node", "id": 12009974407, "lat": 36.982679, "lon": 37.3069223, "tags": {"amenity": "cafe"}}, {"type": "node", "id": 12010089036, "lat": 36.9817774, "lon": 37.2998122}, {"type": "node", "id": 12010089037, "lat": 36.981921, "lon": 37.2996915}, {"type": "node", "id": 12010089038, "lat": 36.9819177, "lon": 37.2996365}, {"type": "node", "id": 12010089039, "lat": 36.9818877, "lon": 37.2996137}, {"type": "node", "id": 12010089040, "lat": 36.981772, "lon": 37.2997103}, {"type": "node", "id": 12010089041, "lat": 36.981772, "lon": 37.2997773}, {"type": "node", "id": 12010091136, "lat": 36.9813695, "lon": 37.3016491, "tags": {"amenity": "cafe"}}, {"type": "node", "id": 12010091137, "lat": 36.9810397, "lon": 37.3010375, "tags": {"amenity": "cafe"}}, {"type": "node", "id": 12010091138, "lat": 36.9809055, "lon": 37.3011592, "tags": {"amenity": "cafe"}}, {"type": "node", "id": 12010091139, "lat": 36.9824872, "lon": 37.30654, "tags": {"amenity": "cafe"}}, {"type": "node", "id": 12011886022, "lat": 36.9814256, "lon": 37.2993872, "tags": {"amenity": "restaurant", "cuisine": "steak_house"}}, {"type": "node", "id": 12176613601, "lat": 37.0608502, "lon": 37.388166, "tags": {"amenity": "restaurant", "name": "Beyoglu Kamtercim", "outdoor_seating": "no"}}, {"type": "node", "id": 12717903502, "lat": 37.0608187, "lon": 37.3883472, "tags": {"addr:street": "\u015eehitler Caddesi", "amenity": "cafe", "name": "Huzur \u00c7ay Evi Day\u0131 Sevesicenin Yeri"}}, {"type": "node", "id": 12717921301, "lat": 37.0608814, "lon": 37.3884368, "tags": {"amenity": "restaurant", "name": "Metanet Lokantas\u0131"}}, {"type": "node", "id": 12718232001, "lat": 37.0619484, "lon": 37.3772505, "tags": {"addr:street": "Kayac\u0131k Ara Soka\u011f\u0131", "amenity": "cafe", "name": "Eski plak Kafa"}}, {"type": "node", "id": 12718452402, "lat": 37.0668265, "lon": 37.3806295, "tags": {"addr:street": "Depo Sokak", "amenity": "restaurant", "name": "Gale Alt\u0131 Kafe ve Kahvalt\u0131"}}, {"type": "node", "id": 12718458501, "lat": 37.0668764, "lon": 37.3807039, "tags": {"addr:street": "Depo Sokak", "amenity": "restaurant", "name": "L\u00f6k\u00fcs Ci\u011fer ve Kebap"}}, {"type": "node", "id": 12718471801, "lat": 37.0668519, "lon": 37.3810642, "tags": {"addr:street": "Depo Sokak", "amenity": "restaurant", "name": "\u015eeriff Usta Kebap Salonu"}}, {"type": "node", "id": 12718474201, "lat": 37.0669982, "lon": 37.3814851, "tags": {"addr:street": "Depo Sokak", "amenity": "restaurant", "name": "\u00c7i\u011ferci Yener Usta"}}, {"type": "node", "id": 12719173101, "lat": 37.060963, "lon": 37.366999, "tags": {"addr:street": "Mehmet Bedir \u0130ncetahtac\u0131 Sokak", "amenity": "restaurant"}}, {"type": "node", "id": 12719176601, "lat": 37.0609713, "lon": 37.3672059, "tags": {"addr:street": "Mehmet Bedir \u0130ncetahtac\u0131 Sokak", "amenity": "restaurant", "name": "\u00c7i\u011ferci Mustafa"}}, {"type": "node", "id": 12748084121, "lat": 37.0771014, "lon": 37.3226514, "tags": {"addr:city": "\u015eehitkamil/Gaziantep", "addr:district": "\u015eehitkamil", "addr:housenumber": "9", "addr:neighbourhood": "\u0130brahimli Mahallesi", "addr:postcode": "27560", "addr:street": "35003", "amenity": "cafe", "name": "Muhan Bohem", "phone": "5378440227", "website": "www.muhanbohem.com"}}, {"type": "node", "id": 12786654201, "lat": 37.0898216, "lon": 37.3327288, "tags": {"amenity": "restaurant", "name": "Damla D\u00f6ner"}}, {"type": "way", "id": 237059023, "nodes": [2450076979, 2450076980, 2450076981, 2450076982, 2450076979], "tags": {"amenity": "restaurant", "building": "yes", "name": "Ciger"}}, {"type": "way", "id": 237060286, "nodes": [2450143376, 2450143378, 2450143380, 679755679, 2450143376], "tags": {"amenity": "restaurant", "building": "yes", "name": "Baklavaci Gulluoglu"}}, {"type": "way", "id": 237176907, "nodes": [10647115873, 6567164795, 2451245050, 2451245042, 10647115873], "tags": {"amenity": "cafe", "building": "yes", "name": "Tahmis Kahvesi"}}, {"type": "way", "id": 237176910, "nodes": [2451245059, 2451245060, 2451245061, 6567164798, 6567164799, 2451245059], "tags": {"amenity": "cafe", "building": "yes", "name": "Yigitogullari Kadayif"}}, {"type": "way", "id": 345999930, "nodes": [3525966549, 3525966568, 3525966550, 3525966551, 3525966569, 3525966552, 3525966553, 3525966554, 3525966555, 3525966556, 3525966557, 3525966558, 3525966559, 3525966560, 3525966561, 3525966562, 3525966563, 3525966564, 3525966565, 3525966567, 3525966566, 3525966549], "tags": {"addr:city": "\u015eahinbey/Gaziantep", "amenity": "restaurant", "building": "yes", "name": "Lal Restoran", "phone": "0342 360 91 96"}}, {"type": "way", "id": 397210101, "nodes": [4000280867, 10691145396, 10691145395, 10691145394, 10691145397, 10691145398, 10691145399, 4000280868, 4000280869, 4000280870, 4000280871, 4000280872, 10691145401, 10691145400, 4000280867], "tags": {"addr:city": "\u015eehitkamil/Gaziantep", "amenity": "restaurant", "building": "yes", "name": "\u015eato Restoran"}}, {"type": "way", "id": 408623780, "nodes": [4105177726, 4105177727, 4105177728, 4105177729, 4105177726], "tags": {"amenity": "restaurant", "building": "yes", "cuisine": "TOST-_KAHVALTI_-_\u00c7ORBA_-_KEBAB", "opening_hours": "07:00-24:00"}}, {"type": "way", "id": 653623752, "nodes": [6125426682, 6125426683, 6125426684, 6125438985, 6125438986, 6125426682], "tags": {"addr:city": "\u015eehitkamil/Gaziantep", "addr:district": "\u015eehitkamil", "addr:neighbourhood": "15 Temmuz Mahallesi", "addr:postcode": "27560", "addr:street": "56060", "amenity": "cafe", "name": "A\u011fa\u00e7alt\u0131 Cafe Restourant", "outdoor_seating": "yes", "smoking": "dedicated", "takeaway": "yes"}}, {"type": "way", "id": 831975743, "nodes": [7767684576, 7767684577, 7767684578, 7767684579, 7767684580, 7767684581, 7767684576], "tags": {"addr:neighbourhood": "15 Temmuz Mahallesi Se\u00e7kin Koleji Yan\u0131", "amenity": "restaurant", "building": "yes", "cuisine": "burger;pizza;chicken;regional;sandwich", "name": "\u00c7aml\u0131ca K\u00f6\u015fk\u00fc Restaurant", "opening_hours": "Mo-Su 06:00-24:00", "website": "https://www.camlicakosku.com/menu"}}, {"type": "way", "id": 909955258, "nodes": [8448981321, 8448981322, 8448981323, 8448981324, 8448981325, 8448981321], "tags": {"amenity": "cafe", "building": "yes"}}, {"type": "way", "id": 909955260, "nodes": [8448981329, 8448981328, 8448981331, 8448981332, 8448981333, 8448981329], "tags": {"amenity": "restaurant", "building": "yes"}}, {"type": "way", "id": 909955262, "nodes": [8448981336, 8448981338, 8448981339, 8448981340, 8448981341, 8448981337, 8448981336], "tags": {"amenity": "restaurant", "building": "yes"}}, {"type": "way", "id": 909955263, "nodes": [8448981342, 8448981343, 8448981347, 8448981344, 8448981345, 8448981346, 8448981342], "tags": {"amenity": "restaurant", "building": "yes"}}, {"type": "way", "id": 909955264, "nodes": [8448981347, 8448981348, 8448981350, 8448981349, 8448981344, 8448981347], "tags": {"amenity": "restaurant", "building": "yes"}}, {"type": "way", "id": 909955265, "nodes": [8448981350, 8448981351, 8448981352, 8448981349, 8448981350], "tags": {"amenity": "restaurant", "building": "yes"}}, {"type": "way", "id": 909955266, "nodes": [8448981351, 8448981353, 8448981354, 8448981352, 8448981351], "tags": {"amenity": "restaurant", "building": "yes"}}, {"type": "way", "id": 909955267, "nodes": [8448981353, 8448981355, 8448981356, 8448981361, 8448981357, 8448981358, 8448981354, 8448981353], "tags": {"amenity": "restaurant", "building": "yes"}}, {"type": "way", "id": 909955268, "nodes": [8448981356, 8448981359, 8448981360, 8448981361, 8448981356], "tags": {"amenity": "restaurant", "building": "yes"}}, {"type": "way", "id": 909955269, "nodes": [8448981362, 8448981363, 8448981364, 8448981365, 8448981362], "tags": {"amenity": "restaurant", "building": "yes"}}, {"type": "way", "id": 909955283, "nodes": [8448973715, 8448981438, 8448981439, 8448973716, 8448973715], "tags": {"amenity": "restaurant", "building": "yes"}}, {"type": "way", "id": 909955288, "nodes": [8448981449, 8448981453, 8448981460, 8448981450, 8448981451, 8448981452, 8448981449], "tags": {"amenity": "cafe", "building": "yes"}}, {"type": "way", "id": 909955289, "nodes": [8448981453, 8448981454, 8448981455, 8448981456, 8448981457, 8448981458, 8448981459, 8448981460, 8448981453], "tags": {"amenity": "restaurant", "building": "yes"}}, {"type": "way", "id": 909955290, "nodes": [8448981326, 8448981461, 8448981462, 8448981330, 8448981326], "tags": {"amenity": "restaurant", "building": "yes"}}, {"type": "way", "id": 1047086104, "nodes": [10647461016, 9628499120, 10651100648, 9628499122, 10647461016], "tags": {"amenity": "restaurant", "building": "yes", "name": "Anadolu K\u0131r Lokantas\u0131"}}, {"type": "way", "id": 1190473844, "nodes": [11053749293, 11053749294, 11053749295, 11053749296, 11053749293], "tags": {"amenity": "cafe", "building": "yes", "cuisine": "coffee_shop", "name": "Oasis Coffee Shop", "opening_hours": "Mo-Su 08:00-23:00", "outdoor_seating": "yes", "website": "https://www.instagram.com/oasisgaziantep"}}, {"type": "way", "id": 1215135100, "nodes": [11258141221, 11258141222, 11258141223, 11258141221], "tags": {"addr:city": "GAZ\u0130ANTEP", "addr:district": "\u015eAH\u0130NBEY", "addr:housenumber": "NO:1", "addr:neighbourhood": "IBN-I SINA MAHALLESI", "addr:postcode": "27100", "addr:street": "190011 NOLU CADDE D BLOK", "amenity": "restaurant", "building": "yes", "cuisine": "turkish;kebab", "name": "\u00d6Z C\u0130\u011eERC\u0130 ABE GAZ\u0130ANTEP", "opening_hours": "Mo-Su 07:00-23:00", "phone": "+90 537 309 37 63", "website": "https://www.ozcigerciabegaziantep.com/"}}, {"type": "way", "id": 1296109865, "nodes": [12010089036, 12010089037, 12010089038, 12010089039, 12010089040, 12010089041, 12010089036], "tags": {"amenity": "cafe", "building": "yes"}}]}