{"version": 0.6, "generator": "Overpass API 0.7.62.7 375dc00a", "osm3s": {"timestamp_osm_base": "2025-06-14T14:39:19Z", "copyright": "The data included in this document is from www.openstreetmap.org. The data is made available under ODbL."}, "elements": [{"type": "node", "id": 813711185, "lat": 37.1879102, "lon": 22.2078643, "tags": {"amenity": "restaurant", "cuisine": "regional", "fixme": "check name", "int_name": "Xerovouna", "name": "\u0397 \u039e\u03b5\u03c1\u03bf\u03b2\u03c5\u03bd\u03b1"}}, {"type": "node", "id": 967223353, "lat": 37.0938055, "lon": 22.2293321, "tags": {"amenity": "restaurant", "cuisine": "regional", "name": "\u03a4\u03b1\u03b2\u03ad\u03c1\u03bd\u03b1 \u039a\u03bf\u03c5\u03c0\u03af\u03c4\u03c3\u03b1", "name:el": "\u03a4\u03b1\u03b2\u03ad\u03c1\u03bd\u03b1 \u039a\u03bf\u03c5\u03c0\u03af\u03c4\u03c3\u03b1", "outdoor_seating": "yes"}}, {"type": "node", "id": 1399391075, "lat": 37.0751097, "lon": 22.4301744, "tags": {"amenity": "cafe", "internet_access": "wlan", "internet_access:fee": "no", "name": "Ministry"}}, {"type": "node", "id": 1399391086, "lat": 37.0753406, "lon": 22.4311452, "tags": {"amenity": "cafe", "cuisine": "greek", "internet_access": "wlan", "internet_access:fee": "no", "name": "\u0395\u03bd\u03b1\u03bb\u03bb\u03ac\u03be"}}, {"type": "node", "id": 1408246437, "lat": 37.0746636, "lon": 22.4305094, "tags": {"amenity": "cafe"}}, {"type": "node", "id": 1408246438, "lat": 37.0752511, "lon": 22.4307432, "tags": {"amenity": "cafe", "internet_access": "wlan", "internet_access:fee": "no", "name": "Event"}}, {"type": "node", "id": 1482973431, "lat": 37.0738376, "lon": 22.3710427, "tags": {"amenity": "cafe", "cuisine": "greek", "fixme": "is this still open?", "name": "\u03a4\u03bf\u03c5\u03c1\u03b9\u03c3\u03c4\u03b9\u03ba\u03cc \u039c\u03c5\u03c3\u03c4\u03c1\u03ac"}}, {"type": "node", "id": 1708979485, "lat": 37.0251602, "lon": 22.1133171, "tags": {"addr:city": "\u039a\u03b1\u03bb\u03b1\u03bc\u03ac\u03c4\u03b1", "addr:postcode": "24100", "addr:street": "\u039d\u03b1\u03c5\u03b1\u03c1\u03af\u03bd\u03bf\u03c5", "amenity": "restaurant", "cuisine": "regional", "name": "Katelanos", "opening_hours": "Mo-Su 11:00-02:00", "phone": "+30 2721 023374"}}, {"type": "node", "id": 1709591246, "lat": 37.0752247, "lon": 22.4306375, "tags": {"amenity": "cafe", "internet_access": "wlan", "internet_access:fee": "no", "name": "Karma"}}, {"type": "node", "id": 1709593922, "lat": 37.0756004, "lon": 22.4304256, "tags": {"amenity": "restaurant", "cuisine": "greek", "name": "\u03a8\u03b7\u03c3\u03c4\u03b1\u03c1\u03b9\u03ac \"\u03a0\u03b1\u03c1\u03b8\u03b5\u03bd\u03ce\u03bd\""}}, {"type": "node", "id": 1838511729, "lat": 37.1697464, "lon": 22.3053789, "tags": {"amenity": "cafe"}}, {"type": "node", "id": 1838511770, "lat": 37.4010072, "lon": 22.1361038, "tags": {"addr:city": "\u039c\u03b5\u03b3\u03b1\u03bb\u03cc\u03c0\u03bf\u03bb\u03b7", "addr:housenumber": "9", "addr:postcode": "22200", "addr:street": "\u039a\u03bf\u03bb\u03bf\u03ba\u03bf\u03c4\u03c1\u03ce\u03bd\u03b7", "amenity": "cafe", "internet_access": "wlan", "name": "Marina", "name:en": "Marina", "outdoor_seating": "yes"}}, {"type": "node", "id": 1867285440, "lat": 37.0658907, "lon": 22.2659778, "tags": {"amenity": "restaurant", "name": "\u03a4\u03bf\u03c5\u03c1\u03b9\u03c3\u03c4\u03b9\u03ba\u03cc \u03a4\u03b1\u03cb\u03b3\u03ad\u03c4\u03bf\u03c5", "name:el": "\u03a4\u03bf\u03c5\u03c1\u03b9\u03c3\u03c4\u03b9\u03ba\u03cc \u03a4\u03b1\u03cb\u03b3\u03ad\u03c4\u03bf\u03c5", "name:en": "Touristic Pavillion of Taygetos"}}, {"type": "node", "id": 1867285441, "lat": 37.0662846, "lon": 22.2658517, "tags": {"amenity": "cafe", "name": "\u03a4\u03bf\u03c5\u03c1\u03b9\u03c3\u03c4\u03b9\u03ba\u03cc \u03a4\u03b1\u03cb\u03b3\u03ad\u03c4\u03bf\u03c5", "name:el": "\u03a4\u03bf\u03c5\u03c1\u03b9\u03c3\u03c4\u03b9\u03ba\u03cc \u03a4\u03b1\u03cb\u03b3\u03ad\u03c4\u03bf\u03c5", "name:en": "Touristic Pavillion of Taygetos"}}, {"type": "node", "id": 1867285446, "lat": 37.0758133, "lon": 22.2708275, "tags": {"amenity": "restaurant"}}, {"type": "node", "id": 1867313177, "lat": 37.0934651, "lon": 22.348936, "tags": {"amenity": "restaurant"}}, {"type": "node", "id": 1867313179, "lat": 37.0936203, "lon": 22.3486737, "tags": {"amenity": "restaurant"}}, {"type": "node", "id": 1867313228, "lat": 37.097757, "lon": 22.3680211, "tags": {"amenity": "restaurant"}}, {"type": "node", "id": 2085794479, "lat": 37.0731709, "lon": 22.4286456, "tags": {"amenity": "restaurant", "cuisine": "greek", "name": "\u03a4\u03c3\u03b9\u03c0\u03bf\u03c5\u03c1\u03ac\u03b4\u03b9\u03ba\u03bf"}}, {"type": "node", "id": 2085799308, "lat": 37.0747128, "lon": 22.4284744, "tags": {"amenity": "restaurant"}}, {"type": "node", "id": 2085799317, "lat": 37.0742108, "lon": 22.4299898, "tags": {"amenity": "cafe", "name": "\u03a3\u03b5\u03b2\u03af\u03bb\u03bb\u03b7"}}, {"type": "node", "id": 2254593782, "lat": 37.4008204, "lon": 22.1351518, "tags": {"amenity": "cafe"}}, {"type": "node", "id": 2254593783, "lat": 37.4008748, "lon": 22.1351137, "tags": {"amenity": "restaurant"}}, {"type": "node", "id": 2418824499, "lat": 37.0732818, "lon": 22.4300348, "tags": {"amenity": "cafe", "name": "Il Posto", "source": "survey"}}, {"type": "node", "id": 3055047133, "lat": 36.9652802, "lon": 22.4040952, "tags": {"amenity": "restaurant", "name": "Toriza"}}, {"type": "node", "id": 3757062054, "lat": 37.3272257, "lon": 22.4253241}, {"type": "node", "id": 3757062057, "lat": 37.3273301, "lon": 22.4251378}, {"type": "node", "id": 3757062058, "lat": 37.327338, "lon": 22.4254189}, {"type": "node", "id": 3757062060, "lat": 37.3274391, "lon": 22.4252355}, {"type": "node", "id": 3861313879, "lat": 37.024517, "lon": 22.1257178, "tags": {"amenity": "restaurant", "name": "del mar"}}, {"type": "node", "id": 4227706598, "lat": 37.0758398, "lon": 22.4293862, "tags": {"addr:city": "Sparta", "addr:housenumber": "105", "addr:street": "\u039f\u03b4\u03cc\u03c2 \u039a\u03c9\u03bd\u03c3\u03c4\u03b1\u03bd\u03c4\u03af\u03bd\u03bf\u03c5 \u03a0\u03b1\u03bb\u03b1\u03b9\u03bf\u03bb\u03cc\u03b3\u03bf\u03c5", "amenity": "restaurant", "cuisine": "greek", "description": "Has a nice Garden with Turtles", "name": "Diethnes", "phone": "0030 27310 28636"}}, {"type": "node", "id": 4273099278, "lat": 37.0239228, "lon": 22.127457, "tags": {"amenity": "restaurant", "name": "\u03a3\u03c4\u03bf \u03ba\u03c5\u03bc\u03b1"}}, {"type": "node", "id": 4321655789, "lat": 37.0490132, "lon": 22.3976478, "tags": {"amenity": "restaurant", "cuisine": "regional", "name": "Kaphalari"}}, {"type": "node", "id": 4367601649, "lat": 37.0239829, "lon": 22.1270925, "tags": {"amenity": "cafe", "indoor_seating": "yes", "internet_access": "wlan", "internet_access:fee": "no", "name": "Tricky", "outdoor_seating": "yes", "smoking": "outside"}}, {"type": "node", "id": 4367701906, "lat": 37.0431655, "lon": 22.1137806, "tags": {"addr:city": "\u039a\u03b1\u03bb\u03b1\u03bc\u03ac\u03c4\u03b1", "addr:housenumber": "3", "addr:street": "\u03a5\u03c0\u03b1\u03c0\u03b1\u03bd\u03c4\u03ae\u03c2", "amenity": "restaurant", "cuisine": "barbecue", "facebook": "https://facebook.com/ladolemono/", "indoor_seating": "yes", "name": "\u039b\u03b1\u03b4\u03bf\u03bb\u03ad\u03bc\u03bf\u03bd\u03bf", "opening_hours": "12:00-24:00", "outdoor_seating": "yes", "phone": "+302721028400", "smoking": "outside", "wheelchair": "limited"}}, {"type": "node", "id": 4367746493, "lat": 37.0432314, "lon": 22.1139078, "tags": {"amenity": "restaurant", "cuisine": "greek", "diet:vegan": "no", "diet:vegetarian": "limited", "diet:vegetarian:description:en": "The only vegetarian main dishes are salads.", "internet_access": "wlan", "internet_access:fee": "no", "level": "0", "name": "\u0398\u03af\u03b1\u03c3\u03bf\u03c2", "outdoor_seating": "yes", "smoking": "outside"}}, {"type": "node", "id": 4368540862, "lat": 37.0263763, "lon": 22.1160765, "tags": {"addr:city": "\u039a\u03b1\u03bb\u03b1\u03bc\u03ac\u03c4\u03b1", "addr:housenumber": "127", "addr:postcode": "24100", "addr:street": "\u0391\u03ba\u03c1\u03af\u03c4\u03b1", "amenity": "cafe", "internet_access": "wlan", "internet_access:fee": "no", "name": "\u0395\u03bb\u03bb\u03ac\u03c2", "opening_hours": "Mo-Su 00:00-01:00,09:00-24:00", "outdoor_seating": "sidewalk", "phone": "2721 092682"}}, {"type": "node", "id": 4371101104, "lat": 37.0257838, "lon": 22.1133171, "tags": {"addr:city": "\u039a\u03b1\u03bb\u03b1\u03bc\u03ac\u03c4\u03b1", "addr:housenumber": "231", "addr:postcode": "24100", "addr:street": "\u03a6\u03b1\u03c1\u03ce\u03bd", "amenity": "restaurant", "cuisine": "barbecue", "internet_access": "wlan", "internet_access:fee": "no", "level": "0", "name": "\u03a4\u03bf \u03ba\u03ac\u03c4\u03b9 \u03ac\u03bb\u03bb\u03bf", "opening_hours": "Mo-Sa 17:00-24:00", "smoking": "outside", "source": "survey"}}, {"type": "node", "id": 4573328388, "lat": 37.0254074, "lon": 22.1527791, "tags": {"addr:city": "\u039a\u03b1\u03bb\u03b1\u03bc\u03ac\u03c4\u03b1", "addr:postcode": "24100", "addr:street": "\u0391\u03b3\u03af\u03bf\u03c5 \u03a1\u03b1\u03c6\u03b1\u03ae\u03bb", "amenity": "restaurant", "capacity": "500", "cuisine": "regional", "name": "\u039a\u03bf\u03c5\u03ba\u03bf\u03cd\u03c4\u03c3\u03b7\u03c2"}}, {"type": "node", "id": 4577209065, "lat": 37.3671436, "lon": 22.4012536}, {"type": "node", "id": 4577209066, "lat": 37.3671804, "lon": 22.4013483}, {"type": "node", "id": 4577209067, "lat": 37.3671253, "lon": 22.4013822}, {"type": "node", "id": 4577209068, "lat": 37.3671436, "lon": 22.4014277}, {"type": "node", "id": 4577209069, "lat": 37.367031, "lon": 22.4014947}, {"type": "node", "id": 4577209070, "lat": 37.3670561, "lon": 22.4015594}, {"type": "node", "id": 4577209071, "lat": 37.3669894, "lon": 22.4016002}, {"type": "node", "id": 4577209072, "lat": 37.3669067, "lon": 22.401393}, {"type": "node", "id": 4577209073, "lat": 37.3669575, "lon": 22.4013576}, {"type": "node", "id": 4577209074, "lat": 37.3669483, "lon": 22.4013352}, {"type": "node", "id": 4577209075, "lat": 37.3670763, "lon": 22.4012528}, {"type": "node", "id": 4577209076, "lat": 37.3670885, "lon": 22.4012867}, {"type": "node", "id": 4589437189, "lat": 37.022589, "lon": 22.1353331, "tags": {"addr:housenumber": "202", "addr:postcode": "24100", "addr:street": "\u039d\u03b1\u03c5\u03b1\u03c1\u03af\u03bd\u03bf\u03c5", "amenity": "restaurant", "cuisine": "greek;coffee_shop;breakfast;burger;fish;grill;ice_cream;international;italian_pizza;italian;pizza;sandwich;seafood;steak_house", "internet_access": "wlan", "name": "\u03a4\u03c1\u03b9\u03bb\u03bf\u03b3\u03af\u03b1", "name:el": "\u03a4\u03c1\u03b9\u03bb\u03bf\u03b3\u03af\u03b1", "name:en": "Trilogy", "phone": "2721089165", "wheelchair": "limited"}}, {"type": "node", "id": 4646044660, "lat": 37.0266777, "lon": 22.1108846}, {"type": "node", "id": 4646044661, "lat": 37.0265051, "lon": 22.1108814}, {"type": "node", "id": 4682323764, "lat": 37.024559, "lon": 22.1055837}, {"type": "node", "id": 4682323767, "lat": 37.0245544, "lon": 22.1058112}, {"type": "node", "id": 4682403400, "lat": 37.0245703, "lon": 22.1061095, "tags": {"addr:city": "\u039a\u03b1\u03bb\u03b1\u03bc\u03ac\u03c4\u03b1", "addr:housenumber": "130", "addr:postcode": "24100", "addr:street": "\u03a0\u03bf\u03c3\u03b5\u03b9\u03b4\u03ce\u03bd\u03bf\u03c2", "amenity": "restaurant", "cuisine": "spanish", "name": "Zen Sushi"}}, {"type": "node", "id": 4682403401, "lat": 37.0249089, "lon": 22.1055687, "tags": {"addr:city": "\u039a\u03b1\u03bb\u03b1\u03bc\u03ac\u03c4\u03b1", "addr:postcode": "24100", "addr:street": "\u03a3\u03b1\u03bb\u03b1\u03bc\u03af\u03bd\u03bf\u03c2", "amenity": "restaurant", "cuisine": "italian", "name": "Mangiona", "opening_hours": "Mo-Sa 00:00-01:00,18:00-24:00; Su 00:00-01:00,11:00-24:00", "phone": "2721 098988", "website": "https://mangiona.gr/"}}, {"type": "node", "id": 4682403402, "lat": 37.0251504, "lon": 22.105204, "tags": {"addr:city": "\u039a\u03b1\u03bb\u03b1\u03bc\u03ac\u03c4\u03b1", "addr:housenumber": "34", "addr:postcode": "24100", "addr:street": "\u03a3\u03b1\u03bb\u03b1\u03bc\u03af\u03bd\u03bf\u03c2", "amenity": "restaurant", "name": "\u03a3\u0391\u039a\u039a\u0391 \u0391\u0399\u039a\u0391\u03a4\u0395\u03a1\u0399\u039d\u0397", "phone": "2721 096885"}}, {"type": "node", "id": 4682403403, "lat": 37.0251126, "lon": 22.1047067, "tags": {"addr:city": "\u039a\u03b1\u03bb\u03b1\u03bc\u03ac\u03c4\u03b1", "addr:housenumber": "48", "addr:postcode": "24100", "addr:street": "\u03a7\u03c1\u03c5\u03c3\u03bf\u03c3\u03c4\u03cc\u03bc\u03bf\u03c5 \u03a3\u03bc\u03cd\u03c1\u03bd\u03b7\u03c2", "amenity": "restaurant", "name": "\u039c\u03b1\u03c1\u03af\u03bd\u03b1 \u03a3\u03ac\u03ba\u03b7\u03c2"}}, {"type": "node", "id": 4682403404, "lat": 37.0249768, "lon": 22.1044408, "tags": {"addr:city": "\u039a\u03b1\u03bb\u03b1\u03bc\u03ac\u03c4\u03b1", "addr:housenumber": "50", "addr:postcode": "24100", "addr:street": "\u03a3\u03b1\u03bb\u03b1\u03bc\u03af\u03bd\u03bf\u03c2", "amenity": "restaurant", "name": "\u0386\u03c1\u03b1\u03b3\u03bc\u03b1", "opening_hours": "24/7", "phone": "2721 097949"}}, {"type": "node", "id": 4682403405, "lat": 37.0251441, "lon": 22.1042401, "tags": {"addr:city": "\u039a\u03b1\u03bb\u03b1\u03bc\u03ac\u03c4\u03b1", "addr:housenumber": "52", "addr:postcode": "24100", "addr:street": "\u03a3\u03b1\u03bb\u03b1\u03bc\u03af\u03bd\u03bf\u03c2", "amenity": "restaurant", "name": "Argo", "outdoor_seating": "yes", "phone": "2721 025380"}}, {"type": "node", "id": 4682403406, "lat": 37.0245498, "lon": 22.1064254, "tags": {"addr:city": "\u039a\u03b1\u03bb\u03b1\u03bc\u03ac\u03c4\u03b1", "addr:postcode": "24100", "addr:street": "\u03a0\u03bf\u03c3\u03b5\u03b9\u03b4\u03ce\u03bd\u03bf\u03c2", "amenity": "restaurant", "name": "Olive and Mint", "opening_hours": "Tu-Su 18:00-24:00; Mo off", "outdoor_seating": "yes", "phone": "2721 087800"}}, {"type": "node", "id": 4682403407, "lat": 37.0245524, "lon": 22.106598, "tags": {"addr:city": "\u039a\u03b1\u03bb\u03b1\u03bc\u03ac\u03c4\u03b1", "addr:housenumber": "12", "addr:postcode": "24100", "addr:street": "\u03a0\u03bf\u03c3\u03b5\u03b9\u03b4\u03ce\u03bd\u03bf\u03c2", "amenity": "restaurant", "name": "Tigani"}}, {"type": "node", "id": 4682403408, "lat": 37.0245524, "lon": 22.1067934, "tags": {"addr:city": "\u039a\u03b1\u03bb\u03b1\u03bc\u03ac\u03c4\u03b1", "addr:postcode": "24100", "addr:street": "\u03a0\u03bf\u03c3\u03b5\u03b9\u03b4\u03ce\u03bd\u03bf\u03c2", "amenity": "restaurant", "name": "Da Francesco", "opening_hours": "We-Mo 18:00-24:00", "phone": "2721 080806"}}, {"type": "node", "id": 4682403409, "lat": 37.024503, "lon": 22.1070165, "tags": {"addr:city": "\u039a\u03b1\u03bb\u03b1\u03bc\u03ac\u03c4\u03b1", "addr:housenumber": "12", "addr:postcode": "24100", "addr:street": "\u03a0\u03bf\u03c3\u03b5\u03b9\u03b4\u03ce\u03bd\u03bf\u03c2", "amenity": "restaurant", "name": "Fish & Pasta Kannas", "opening_hours": "Mo-Su 12:00-01:00", "phone": "2721 091596", "website": "kannas.gr"}}, {"type": "node", "id": 4682403415, "lat": 37.0266054, "lon": 22.1118494, "tags": {"addr:city": "\u039a\u03b1\u03bb\u03b1\u03bc\u03ac\u03c4\u03b1", "addr:housenumber": "7", "addr:postcode": "24100", "addr:street": "\u03a4\u03c3\u03b1\u03bc\u03b1\u03b4\u03bf\u03cd", "air_conditioning": "yes", "amenity": "restaurant", "check_date:opening_hours": "2022-08-03", "cuisine": "greek", "diet:halal": "no", "diet:kosher": "no", "diet:vegan": "no", "diet:vegetarian": "yes", "indoor_seating": "yes", "name": "\u03a0\u03bf\u03bb\u03c5\u03c7\u03c1\u03cc\u03bd\u03b7\u03c2", "opening_hours:signed": "no", "outdoor_seating": "yes", "phone": "+30 2721 087730", "smoking": "outside", "wheelchair": "limited"}}, {"type": "node", "id": 4682403416, "lat": 37.0267896, "lon": 22.1121641, "tags": {"addr:city": "\u039a\u03b1\u03bb\u03b1\u03bc\u03ac\u03c4\u03b1", "addr:housenumber": "88", "addr:postcode": "24100", "addr:street": "\u039a\u03c9\u03bd\u03c3\u03c4\u03b1\u03bd\u03c4\u03af\u03bd\u03bf\u03c5 \u039a\u03b1\u03bd\u03ac\u03c1\u03b7", "amenity": "cafe", "name": "KING"}}, {"type": "node", "id": 4682403417, "lat": 37.0270479, "lon": 22.1131096, "tags": {"addr:city": "\u039a\u03b1\u03bb\u03b1\u03bc\u03ac\u03c4\u03b1", "addr:housenumber": "190", "addr:postcode": "24100", "addr:street": "\u03a6\u03b1\u03c1\u03ce\u03bd", "amenity": "restaurant", "cuisine": "souvlaki", "name": "\u0397 \u039d\u03bf\u03c3\u03c4\u03b9\u03bc\u03b9\u03ac \u03a4\u03bf\u03c5 \u039d\u03cc\u03c4\u03bf\u03c5", "opening_hours": "Tu-Su 10:00-13:00", "phone": "2721 099559"}}, {"type": "node", "id": 4682403421, "lat": 37.0259341, "lon": 22.1133142, "tags": {"addr:city": "\u039a\u03b1\u03bb\u03b1\u03bc\u03ac\u03c4\u03b1", "addr:housenumber": "204", "addr:postcode": "24100", "addr:street": "\u03a6\u03b1\u03c1\u03ce\u03bd", "amenity": "cafe", "name": "Oops...!", "phone": "2721 023992"}}, {"type": "node", "id": 4682403427, "lat": 37.0251064, "lon": 22.113363, "tags": {"addr:city": "\u039a\u03b1\u03bb\u03b1\u03bc\u03ac\u03c4\u03b1", "addr:housenumber": "25", "addr:postcode": "24100", "addr:street": "\u039d\u03b1\u03c5\u03b1\u03c1\u03af\u03bd\u03bf\u03c5", "amenity": "restaurant", "cuisine": "crepe", "name": "checkeat", "opening_hours": "Mo-Su 12:00-00:00", "phone": "+30 2721 081111", "website": "https://www.facebook.com/Check-EAT-383932251808017/?ref=hl"}}, {"type": "node", "id": 4682403429, "lat": 37.0249729, "lon": 22.1145394, "tags": {"addr:city": "\u039a\u03b1\u03bb\u03b1\u03bc\u03ac\u03c4\u03b1", "addr:housenumber": "43", "addr:postcode": "24100", "addr:street": "\u039d\u03b1\u03c5\u03b1\u03c1\u03af\u03bd\u03bf\u03c5", "amenity": "restaurant", "name": "\u03a5\u03c0\u03b5\u03c1\u03ac\u03bd\u03c9"}}, {"type": "node", "id": 4682403430, "lat": 37.0250186, "lon": 22.1147094, "tags": {"addr:city": "\u039a\u03b1\u03bb\u03b1\u03bc\u03ac\u03c4\u03b1", "addr:housenumber": "41", "addr:postcode": "24100", "addr:street": "\u039d\u03b1\u03c5\u03b1\u03c1\u03af\u03bd\u03bf\u03c5", "amenity": "cafe", "name": "\u0391\u03af\u03b3\u03bb\u03b7", "phone": "+30 2721 097977", "website": "https://www.facebook.com/aigli.kalamata"}}, {"type": "node", "id": 4682403431, "lat": 37.0249721, "lon": 22.1151424, "tags": {"addr:city": "\u039a\u03b1\u03bb\u03b1\u03bc\u03ac\u03c4\u03b1", "addr:housenumber": "45", "addr:postcode": "24100", "addr:street": "\u039d\u03b1\u03c5\u03b1\u03c1\u03af\u03bd\u03bf\u03c5", "amenity": "cafe", "name": "\u0391\u03b8\u03b1\u03bd\u03b1\u03c3\u03af\u03bf\u03c5", "phone": "2721 023344", "website": "https://athanasioupastry.gr/"}}, {"type": "node", "id": 4682403433, "lat": 37.0249452, "lon": 22.1157424, "tags": {"addr:city": "\u039a\u03b1\u03bb\u03b1\u03bc\u03ac\u03c4\u03b1", "addr:postcode": "24100", "addr:street": "\u039d\u03b1\u03c5\u03b1\u03c1\u03af\u03bd\u03bf\u03c5", "amenity": "restaurant", "cuisine": "souvlaki", "name": "\u039b\u0391\u0394\u039f\u03a1\u0399\u0393\u0391\u039d\u0397", "opening_hours": "Mo-Th 17:00-01:00;Fr-Su 13:00-01:00", "phone": "2721 022111"}}, {"type": "node", "id": 4682403434, "lat": 37.0249233, "lon": 22.1164184, "tags": {"amenity": "restaurant", "cuisine": "souvlaki", "name": "\u0397 \u03c0\u03af\u03c4\u03b1 \u03c4\u03bf\u03c5 \u03c0\u03b1\u03c0\u03c0\u03bf\u03cd"}}, {"type": "node", "id": 4682403435, "lat": 37.0247173, "lon": 22.1164905, "tags": {"addr:city": "\u039a\u03b1\u03bb\u03b1\u03bc\u03ac\u03c4\u03b1", "addr:housenumber": "4", "addr:postcode": "24100", "addr:street": "\u039d\u03b1\u03c5\u03b1\u03c1\u03af\u03bd\u03bf\u03c5", "amenity": "restaurant", "delivery": "yes", "name": "Goody's Burger House", "opening_hours": "Su-Th 12:00-24:00;Fr-Sa 12:00-01:00", "phone": "2721 095500", "takeaway": "yes", "website": "goodysburgerhouse.com", "wheelchair": "yes"}}, {"type": "node", "id": 4682403437, "lat": 37.0258181, "lon": 22.1157467, "tags": {"addr:city": "\u039a\u03b1\u03bb\u03b1\u03bc\u03ac\u03c4\u03b1", "addr:postcode": "24100", "addr:street": "\u0391\u03ba\u03c1\u03af\u03c4\u03b1", "amenity": "restaurant", "name": "\u039c\u03b5\u03b6\u03b5\u03b4\u03bf\u03ba\u03b1\u03bc\u03ce\u03bc\u03b1\u03c4\u03b1", "phone": "2721 093806", "website": "messinia-holidays.gr"}}, {"type": "node", "id": 4682403438, "lat": 37.0262325, "lon": 22.1160966, "tags": {"addr:city": "\u039a\u03b1\u03bb\u03b1\u03bc\u03ac\u03c4\u03b1", "addr:housenumber": "131", "addr:postcode": "24100", "addr:street": "\u0391\u03ba\u03c1\u03af\u03c4\u03b1", "amenity": "restaurant", "cuisine": "chinese", "name": "Beihai", "opening_hours": "Mo-Su 00:00-01:00,19:45-24:00", "phone": "2721 093470", "website": "https://beihai.gr/"}}, {"type": "node", "id": 4682559579, "lat": 37.0352127, "lon": 22.1109028, "tags": {"addr:city": "\u039a\u03b1\u03bb\u03b1\u03bc\u03ac\u03c4\u03b1", "addr:housenumber": "83", "addr:postcode": "24100", "addr:street": "\u0391\u03c1\u03b9\u03c3\u03c4\u03bf\u03bc\u03ad\u03bd\u03bf\u03c5\u03c2", "amenity": "cafe", "brand": "Mikel", "brand:wikidata": "Q16952021", "brand:wikipedia": "el:Mikel Coffee Company", "cuisine": "coffee_shop", "internet_access": "yes", "internet_access:fee": "no", "name": "Mikel", "opening_hours": "Mo-Su 06:00-23:00", "outdoor_seating": "yes", "phone": "2721 098980", "takeaway": "yes", "website": "mikelcc.gr"}}, {"type": "node", "id": 4682559580, "lat": 37.0326834, "lon": 22.1099122, "tags": {"addr:city": "\u039a\u03b1\u03bb\u03b1\u03bc\u03ac\u03c4\u03b1", "addr:housenumber": "56", "addr:postcode": "24100", "addr:street": "\u03a8\u03b1\u03c1\u03ce\u03bd", "amenity": "cafe", "name": "The Park"}}, {"type": "node", "id": 4682559586, "lat": 37.0331143, "lon": 22.1076829, "tags": {"addr:city": "\u039a\u03b1\u03bb\u03b1\u03bc\u03ac\u03c4\u03b1", "addr:housenumber": "16", "addr:postcode": "24100", "addr:street": "\u039c\u03b1\u03ba\u03b5\u03b4\u03bf\u03bd\u03af\u03b1\u03c2", "amenity": "cafe", "name": "\u039a\u03b1\u03c6\u03b5\u03ba\u03bf\u03cd\u03c4\u03b9", "opening_hours": "Mo-Su 05:00-23:30", "phone": "2721 110367"}}, {"type": "node", "id": 4682559587, "lat": 37.0329119, "lon": 22.1073795, "tags": {"addr:city": "\u039a\u03b1\u03bb\u03b1\u03bc\u03ac\u03c4\u03b1", "addr:housenumber": "21", "addr:postcode": "24100", "addr:street": "\u039c\u03b1\u03ba\u03b5\u03b4\u03bf\u03bd\u03af\u03b1\u03c2", "amenity": "restaurant", "cuisine": "souvlaki", "name": "\u03a4\u03bf \u03a8\u03b7\u03c3\u03c4\u03ae\u03c1\u03b9", "opening_hours": "Mo-Su 18:00-00:30", "phone": "2721 086484"}}, {"type": "node", "id": 4682559588, "lat": 37.0331218, "lon": 22.1073617, "tags": {"addr:city": "\u039a\u03b1\u03bb\u03b1\u03bc\u03ac\u03c4\u03b1", "addr:housenumber": "18", "addr:postcode": "24100", "addr:street": "\u039c\u03b1\u03ba\u03b5\u03b4\u03bf\u03bd\u03af\u03b1\u03c2", "amenity": "cafe", "name": "Leonidas Passion", "not:brand:wikidata": "Q80335", "opening_hours": "Mo-Su 06:00-23:00", "phone": "2721 088858"}}, {"type": "node", "id": 4682561191, "lat": 37.0411901, "lon": 22.1020018, "tags": {"addr:city": "\u039a\u03b1\u03bb\u03b1\u03bc\u03ac\u03c4\u03b1", "addr:housenumber": "96", "addr:postcode": "24100", "addr:street": "\u0391\u03b8\u03b7\u03bd\u03ce\u03bd", "amenity": "cafe", "opening_hours": "Mo-Sa 05:00-21:30;Su 06:00-18:00", "phone": "2721 302502", "website": "https://www.coffeeisland.gr/"}}, {"type": "node", "id": 4682561194, "lat": 37.0411905, "lon": 22.1035159, "tags": {"addr:city": "\u039a\u03b1\u03bb\u03b1\u03bc\u03ac\u03c4\u03b1", "addr:housenumber": "81", "addr:postcode": "24100", "addr:street": "\u0391\u03b8\u03b7\u03bd\u03ce\u03bd", "amenity": "restaurant", "cuisine": "souvlaki", "phone": "2721 029213"}}, {"type": "node", "id": 4682561206, "lat": 37.0361399, "lon": 22.1161032, "tags": {"addr:city": "\u039a\u03b1\u03bb\u03b1\u03bc\u03ac\u03c4\u03b1", "addr:postcode": "24100", "addr:street": "\u0391\u03ba\u03c1\u03af\u03c4\u03b1", "amenity": "restaurant", "cuisine": "souvlaki", "delivery": "yes", "name": "Exesio", "opening_hours": "Su 00:00-01:00,05:30-24:00; Mo-Fr 00:00-01:00,12:00-24:00", "phone": "2721 090102", "takeaway": "yes"}}, {"type": "node", "id": 4682561215, "lat": 37.0371309, "lon": 22.1127041, "tags": {"addr:city": "\u039a\u03b1\u03bb\u03b1\u03bc\u03ac\u03c4\u03b1", "addr:housenumber": "14", "addr:postcode": "24100", "addr:street": "\u039a\u03c9\u03bd\u03c3\u03c4\u03b1\u03bd\u03c4\u03af\u03bd\u03bf\u03c5 \u039a\u03b1\u03bd\u03ac\u03c1\u03b7", "amenity": "cafe", "name": "Play cafe", "opening_hours": "Mo-Su 08:30-01:00", "phone": "2721 097850"}}, {"type": "node", "id": 4682561222, "lat": 37.0362256, "lon": 22.1115416, "tags": {"addr:city": "\u039a\u03b1\u03bb\u03b1\u03bc\u03ac\u03c4\u03b1", "addr:housenumber": "5", "addr:postcode": "24100", "addr:street": "\u0392\u03b1\u03c3\u03b9\u03bb\u03af\u03c3\u03c3\u03b7\u03c2 \u038c\u03bb\u03b3\u03b1\u03c2", "amenity": "cafe", "name": "\u0391\u03bc\u03ac\u03bd - \u039c\u03c0\u03bf\u03c5\u03bc\u03c0\u03bf\u03cd\u03c2", "phone": "2721 095618"}}, {"type": "node", "id": 4682561224, "lat": 37.0357958, "lon": 22.1118169, "tags": {"addr:city": "\u039a\u03b1\u03bb\u03b1\u03bc\u03ac\u03c4\u03b1", "addr:housenumber": "97", "addr:postcode": "24100", "addr:street": "\u0391\u03c1\u03b9\u03c3\u03c4\u03bf\u03b4\u03ae\u03bc\u03bf\u03c5", "amenity": "cafe", "name": "\u03a3\u03c4\u03bf\u03bb\u03af\u03b4\u03b9 \u03ad\u03bd\u03b1", "opening_hours": "Mo-Su 09:00-23:00", "phone": "2721 022160"}}, {"type": "node", "id": 4682561226, "lat": 37.0354462, "lon": 22.1109254, "tags": {"addr:city": "\u039a\u03b1\u03bb\u03b1\u03bc\u03ac\u03c4\u03b1", "addr:housenumber": "79", "addr:postcode": "24100", "addr:street": "\u0391\u03c1\u03b9\u03c3\u03c4\u03bf\u03bc\u03ad\u03bd\u03bf\u03c5\u03c2", "amenity": "cafe", "name": "La Casa Del Caffe"}}, {"type": "node", "id": 4682561238, "lat": 37.0372767, "lon": 22.1118234, "tags": {"addr:city": "\u039a\u03b1\u03bb\u03b1\u03bc\u03ac\u03c4\u03b1", "addr:housenumber": "6", "addr:postcode": "24100", "addr:street": "\u0392\u03b1\u03bb\u03b1\u03c9\u03c1\u03af\u03c4\u03bf\u03c5", "amenity": "cafe", "name": "\u039a\u03cc\u03ba\u03ba\u03bf\u03b9 \u039a\u03b1\u03c6\u03ad", "opening_hours": "24/7", "phone": "2721 082207"}}, {"type": "node", "id": 4682561243, "lat": 37.037267, "lon": 22.1127346, "tags": {"addr:city": "\u039a\u03b1\u03bb\u03b1\u03bc\u03ac\u03c4\u03b1", "addr:housenumber": "11", "addr:postcode": "24100", "addr:street": "\u0392\u03b1\u03bb\u03b1\u03c9\u03c1\u03af\u03c4\u03bf\u03c5", "amenity": "cafe", "name": "REBEL DONKEY BY EXIS", "phone": "2721 084464"}}, {"type": "node", "id": 4682561244, "lat": 37.0371981, "lon": 22.1104964, "tags": {"addr:city": "\u039a\u03b1\u03bb\u03b1\u03bc\u03ac\u03c4\u03b1", "addr:housenumber": "5-11", "addr:postcode": "24100", "addr:street": "\u0391\u03bc\u03b2\u03c1\u03cc\u03c3\u03b9\u03bf\u03c5 \u03a6\u03c1\u03b1\u03c4\u03b6\u03af", "amenity": "cafe", "name": "Black Forest"}}, {"type": "node", "id": 4682561245, "lat": 37.0374479, "lon": 22.1114004, "tags": {"addr:city": "\u039a\u03b1\u03bb\u03b1\u03bc\u03ac\u03c4\u03b1", "addr:housenumber": "1", "addr:postcode": "24100", "addr:street": "\u0392\u03b1\u03bb\u03b1\u03c9\u03c1\u03af\u03c4\u03bf\u03c5", "amenity": "cafe", "name": "Foxtrot", "opening_hours": "Mo-Su 08:00-13:00", "phone": "2721 097343"}}, {"type": "node", "id": 4682561246, "lat": 37.0373622, "lon": 22.1113093, "tags": {"addr:city": "\u039a\u03b1\u03bb\u03b1\u03bc\u03ac\u03c4\u03b1", "addr:housenumber": "2", "addr:postcode": "24100", "addr:street": "\u0392\u03b1\u03bb\u03b1\u03c9\u03c1\u03af\u03c4\u03bf\u03c5", "amenity": "cafe", "name": "Kioki", "opening_hours": "Mo-Sa 07:00-21:00"}}, {"type": "node", "id": 4682561252, "lat": 37.0373034, "lon": 22.11006, "tags": {"addr:city": "\u039a\u03b1\u03bb\u03b1\u03bc\u03ac\u03c4\u03b1", "addr:housenumber": "7", "addr:postcode": "24100", "addr:street": "\u0391\u03bc\u03b2\u03c1\u03cc\u03c3\u03b9\u03bf\u03c5 \u03a6\u03c1\u03b1\u03c4\u03b6\u03af", "amenity": "cafe", "name": "BUCO", "phone": "2721 085001", "website": "buco.gr"}}, {"type": "node", "id": 4682561253, "lat": 37.0371227, "lon": 22.1099982, "tags": {"addr:city": "\u039a\u03b1\u03bb\u03b1\u03bc\u03ac\u03c4\u03b1", "addr:housenumber": "6", "addr:postcode": "24100", "addr:street": "\u0391\u03bc\u03b2\u03c1\u03cc\u03c3\u03b9\u03bf\u03c5 \u03a6\u03c1\u03b1\u03c4\u03b6\u03af", "amenity": "restaurant", "cuisine": "regional", "name": "Open Kitchen", "opening_hours": "Mo-Su 13:00-24:00", "phone": "2721 085000", "website": "https://www.facebook.com/openkitchenkalamatas"}}, {"type": "node", "id": 4682561256, "lat": 37.0374623, "lon": 22.1098605, "tags": {"addr:city": "\u039a\u03b1\u03bb\u03b1\u03bc\u03ac\u03c4\u03b1", "addr:housenumber": "2", "addr:postcode": "24100", "addr:street": "\u0394\u03b1\u03b3\u03c1\u03ad", "amenity": "restaurant", "cuisine": "\u03a8\u03b7\u03c4\u03bf\u03c0\u03c9\u03bb\u03b5\u03af\u03bf", "name": "Barbayiannis", "name:el": "\u039c\u03c0\u03ac\u03c1\u03bc\u03c0\u03b1 \u0393\u03b9\u03ac\u03bd\u03bd\u03b7\u03c2"}}, {"type": "node", "id": 4682561257, "lat": 37.0376842, "lon": 22.1099358, "tags": {"addr:city": "\u039a\u03b1\u03bb\u03b1\u03bc\u03ac\u03c4\u03b1", "addr:housenumber": "6", "addr:postcode": "24100", "addr:street": "\u0394\u03b1\u03b3\u03c1\u03ad", "amenity": "restaurant", "cuisine": "souvlaki", "name": "Kalamaki", "opening_hours": "Mo-Su 11:00-01:00", "phone": "2721 088504", "website": "https://www.facebook.com/profile.php?id=100009877262373c"}}, {"type": "node", "id": 4682561258, "lat": 37.0379321, "lon": 22.1096444, "tags": {"addr:city": "\u039a\u03b1\u03bb\u03b1\u03bc\u03ac\u03c4\u03b1", "addr:housenumber": "19", "addr:postcode": "24100", "addr:street": "\u03a3\u03b9\u03b4\u03b7\u03c1\u03bf\u03b4\u03c1\u03bf\u03bc\u03b9\u03ba\u03bf\u03cd \u03a3\u03c4\u03b1\u03b8\u03bc\u03bf\u03cd", "amenity": "restaurant", "indoor_seating": "yes", "name": "Gourmet", "outdoor_seating": "yes", "phone": "2721 063003"}}, {"type": "node", "id": 4682561259, "lat": 37.0382133, "lon": 22.1091791, "tags": {"addr:city": "\u039a\u03b1\u03bb\u03b1\u03bc\u03ac\u03c4\u03b1", "addr:housenumber": "7", "addr:postcode": "24100", "addr:street": "\u039a\u03b5\u03c6\u03b1\u03bb\u03ac", "amenity": "restaurant", "cuisine": "souvlaki", "name": "\u03a5\u03c0\u03b5\u03c1\u03ac\u03bd\u03c9", "phone": "2721 303912"}}, {"type": "node", "id": 4682561261, "lat": 37.038221, "lon": 22.108955, "tags": {"addr:city": "\u039a\u03b1\u03bb\u03b1\u03bc\u03ac\u03c4\u03b1", "addr:postcode": "24100", "addr:street": "\u039a\u03b5\u03c6\u03b1\u03bb\u03ac", "amenity": "restaurant", "cuisine": "chicken", "indoor_seating": "yes", "name": "Adam's Chicken", "outdoor_seating": "yes", "phone": "2721 088403", "smoking": "outside", "website": "messinia-holidays.gr"}}, {"type": "node", "id": 4682561266, "lat": 37.0380524, "lon": 22.110138, "tags": {"addr:city": "\u039a\u03b1\u03bb\u03b1\u03bc\u03ac\u03c4\u03b1", "addr:housenumber": "11", "addr:postcode": "24100", "addr:street": "\u0399\u03b1\u03c4\u03c1\u03cc\u03c0\u03bf\u03c5\u03bb\u03bf\u03c5", "amenity": "cafe", "indoor_seating": "yes", "name": "PEDONALE", "outdoor_seating": "yes", "phone": "2721 110329", "smoking": "outside", "website": "https://www.facebook.com/pedonalecafebar.pedonalecafebar.7?fref=ts", "wheelchair": "limited"}}, {"type": "node", "id": 4682561267, "lat": 37.0378914, "lon": 22.1101578, "tags": {"addr:city": "\u039a\u03b1\u03bb\u03b1\u03bc\u03ac\u03c4\u03b1", "addr:housenumber": "13", "addr:postcode": "24100", "addr:street": "\u0399\u03b1\u03c4\u03c1\u03cc\u03c0\u03bf\u03c5\u03bb\u03bf\u03c5", "amenity": "cafe", "indoor_seating": "yes", "name": "SOCIAL", "outdoor_seating": "yes", "phone": "2721 026240", "smoking": "outside", "wheelchair": "limited"}}, {"type": "node", "id": 4682561268, "lat": 37.0379044, "lon": 22.1103153, "tags": {"addr:city": "\u039a\u03b1\u03bb\u03b1\u03bc\u03ac\u03c4\u03b1", "addr:housenumber": "11", "addr:postcode": "24100", "addr:street": "\u0399\u03b1\u03c4\u03c1\u03cc\u03c0\u03bf\u03c5\u03bb\u03bf\u03c5", "amenity": "cafe", "indoor_seating": "yes", "name": "Kopi Luwak", "opening_hours": "Mo-Sa 08:00-02:00", "outdoor_seating": "yes", "phone": "2721 021856", "smoking": "outside", "wheelchair": "limited"}}, {"type": "node", "id": 4682561269, "lat": 37.0377951, "lon": 22.1104247, "tags": {"addr:city": "\u039a\u03b1\u03bb\u03b1\u03bc\u03ac\u03c4\u03b1", "addr:housenumber": "15", "addr:postcode": "24100", "addr:street": "\u0399\u03b1\u03c4\u03c1\u03cc\u03c0\u03bf\u03c5\u03bb\u03bf\u03c5", "amenity": "restaurant", "cuisine": "japanese", "indoor_seating": "yes", "name": "umami sushi and more", "opening_hours": "Mo-Sa 12:30-24:00; Su 18:00-24:00", "outdoor_seating": "yes", "phone": "2721 402635", "smoking": "outside", "wheelchair": "limited"}}, {"type": "node", "id": 4682561271, "lat": 37.0376488, "lon": 22.1106631, "tags": {"addr:city": "\u039a\u03b1\u03bb\u03b1\u03bc\u03ac\u03c4\u03b1", "addr:postcode": "24100", "amenity": "cafe", "indoor_seating": "yes", "name": "\u039a\u03b1\u03c6\u03ad \u039b\u03c9\u03c4\u03cc\u03c2", "opening_hours": "Mo-Su 07:00-24:00,00:00-01:00", "outdoor_seating": "yes", "phone": "2721 083565", "smoking": "outside", "website": "https://www.facebook.com/lwtos", "wheelchair": "yes"}}, {"type": "node", "id": 4682561272, "lat": 37.0382824, "lon": 22.1103708, "tags": {"addr:city": "\u039a\u03b1\u03bb\u03b1\u03bc\u03ac\u03c4\u03b1", "addr:housenumber": "8", "addr:postcode": "24100", "addr:street": "\u0391\u03bd\u03c4\u03c9\u03bd\u03bf\u03c0\u03bf\u03cd\u03bb\u03bf\u03c5", "amenity": "cafe", "name": "Spinos Coffee", "opening_hours": "Mo-Sa 09:00-21:00; Su off", "phone": "2721 092482", "website": "https://spinoscoffee.gr/"}}, {"type": "node", "id": 4682561274, "lat": 37.0387277, "lon": 22.1108746, "tags": {"addr:city": "\u039a\u03b1\u03bb\u03b1\u03bc\u03ac\u03c4\u03b1", "addr:housenumber": "18", "addr:postcode": "24100", "addr:street": "\u03a0\u03bb\u03b1\u03c4. \u0392\u03b1\u03c3\u03b9\u03bb\u03ad\u03c9\u03c2 \u0393\u03b5\u03c9\u03c1\u03b3\u03af\u03bf\u03c5", "amenity": "cafe", "contact:facebook": "bistroteca", "diet:vegetarian": "yes", "indoor_seating": "yes", "name": "BISTROTECA", "opening_hours": "Mo-Su 09:00-00:00", "outdoor_seating": "yes", "phone": "+30 2721 097431", "smoking": "outside", "website": "https://bistroteca.gr", "wheelchair": "yes"}}, {"type": "node", "id": 4682561276, "lat": 37.0388842, "lon": 22.1109238, "tags": {"addr:city": "\u039a\u03b1\u03bb\u03b1\u03bc\u03ac\u03c4\u03b1", "addr:housenumber": "1", "addr:postcode": "24100", "addr:street": "\u03a3\u03b9\u03b4\u03b7\u03c1\u03bf\u03b4\u03c1\u03bf\u03bc\u03b9\u03ba\u03bf\u03cd \u03a3\u03c4\u03b1\u03b8\u03bc\u03bf\u03cd", "amenity": "cafe", "diet:vegetarian": "yes", "indoor_seating": "yes", "name": "Adelante", "opening_hours": "Mo-Su 09:00-14:00", "outdoor_seating": "yes", "phone": "+30 2721 092772", "smoking": "outside", "wheelchair": "yes"}}, {"type": "node", "id": 4793824502, "lat": 37.0717823, "lon": 22.4306946, "tags": {"amenity": "cafe", "leisure": "sports_centre", "level": "0", "name": "Rolling", "sport": "billiards"}}, {"type": "node", "id": 4793824630, "lat": 37.0714852, "lon": 22.4310307, "tags": {"amenity": "cafe", "internet_access": "wlan", "level": "0", "name": "Diporto", "outdoor_seating": "yes"}}, {"type": "node", "id": 4793824642, "lat": 37.0716553, "lon": 22.430162, "tags": {"amenity": "cafe", "level": "0", "name": "\u03a3\u03c4\u03ad\u03ba\u03b9 \u03c4\u03b7\u03c2 \u03c0\u03b1\u03c1\u03ad\u03b1\u03c2"}}, {"type": "node", "id": 4794284050, "lat": 37.0737256, "lon": 22.4317691, "tags": {"amenity": "restaurant", "level": "0", "name": "\u0388\u03c4\u03c3\u03b9 \u0391\u03c0\u03bb\u03ac"}}, {"type": "node", "id": 4794284055, "lat": 37.0709364, "lon": 22.4339022, "tags": {"amenity": "cafe", "level": "0", "name": "Gomio"}}, {"type": "node", "id": 4794284059, "lat": 37.0710699, "lon": 22.4347603, "tags": {"amenity": "restaurant", "level": "0", "name": "Pizza Louis"}}, {"type": "node", "id": 4795153451, "lat": 37.0722394, "lon": 22.4313152, "tags": {"amenity": "cafe", "level": "0", "name": "Hot & Ice"}}, {"type": "node", "id": 4795153468, "lat": 37.0733591, "lon": 22.4303435, "tags": {"amenity": "cafe", "level": "0", "name": "Antique"}}, {"type": "node", "id": 4795153486, "lat": 37.072143, "lon": 22.431361, "tags": {"amenity": "cafe", "level": "0", "name": "Mercedes"}}, {"type": "node", "id": 4797009072, "lat": 37.0735288, "lon": 22.428985, "tags": {"amenity": "restaurant", "level": "0", "name": "\u039a\u03b5\u03c7\u03c1\u03b9\u03bc\u03c0\u03ac\u03c1\u03b9"}}, {"type": "node", "id": 4797009076, "lat": 37.0731878, "lon": 22.4296566, "tags": {"amenity": "restaurant", "level": "0", "name": "\u039c\u03ad\u03bb\u03c5\u03b4\u03c1\u03bf\u03bd"}}, {"type": "node", "id": 4988824221, "lat": 37.0353347, "lon": 22.0909561, "tags": {"addr:postcode": "24100", "addr:street": "\u0397\u03c1\u03ce\u03c9\u03bd \u03a0\u03bf\u03bb\u03c5\u03c4\u03b5\u03c7\u03bd\u03b5\u03af\u03bf\u03c5", "air_conditioning": "no", "amenity": "cafe", "check_date:opening_hours": "2024-01-20", "diet:halal": "no", "diet:kosher": "no", "diet:vegan": "no", "diet:vegetarian": "yes", "indoor_seating": "yes", "internet_access": "wlan", "name": "mikel", "opening_hours:signed": "no", "outdoor_seating": "yes", "payment:credit_cards": "yes", "payment:debit_cards": "yes", "phone": "2721095272", "smoking": "outside", "website": "https://pueblo-cafe.business.site/", "wheelchair": "yes"}}, {"type": "node", "id": 5022958786, "lat": 37.3278311, "lon": 22.5463427, "tags": {"amenity": "restaurant", "name": "\u039f \u03a3\u03c0\u03ac\u03c1\u03c4\u03b1\u03ba\u03bf\u03c2"}}, {"type": "node", "id": 5081157855, "lat": 37.2981855, "lon": 22.1434136, "tags": {"amenity": "restaurant", "name": "\u03a3\u03c4\u03ac\u03b8\u03b7\u03c2"}}, {"type": "node", "id": 5166862023, "lat": 37.0017131, "lon": 22.161465, "tags": {"amenity": "restaurant", "name:en": "Paradosiaki Taverna Agrilia"}}, {"type": "node", "id": 5166873521, "lat": 36.9814746, "lon": 22.1504121, "tags": {"amenity": "restaurant", "name": "\u03c4\u03b1 \u03ba\u03b1\u03b2\u03bf\u03c5\u03c1\u03ac\u03ba\u03b9\u03b1", "name:el": "\u03c4\u03b1 \u03ba\u03b1\u03b2\u03bf\u03c5\u03c1\u03ac\u03ba\u03b9\u03b1", "name:en": "Ta Kavurakia", "phone": "+302721058011"}}, {"type": "node", "id": 5250606292, "lat": 37.0446715, "lon": 22.1128626, "tags": {"addr:city": "\u039a\u03b1\u03bb\u03b1\u03bc\u03ac\u03c4\u03b1", "addr:housenumber": "53", "addr:postcode": "24100", "addr:street": "\u03a3\u03c0\u03ac\u03c1\u03c4\u03b7\u03c2", "air_conditioning": "yes", "amenity": "restaurant", "check_date:opening_hours": "2024-04-13", "cuisine": "mediterranean", "diet:halal": "no", "diet:kosher": "no", "diet:vegan": "yes", "diet:vegetarian": "yes", "indoor_seating": "yes", "name": "\u03a4\u03b1 \u03a1\u03bf\u03bb\u03bb\u03ac", "opening_hours:signed": "no", "outdoor_seating": "yes", "smoking": "outside", "wheelchair": "no"}}, {"type": "node", "id": 5278516894, "lat": 36.9969267, "lon": 22.1557249}, {"type": "node", "id": 5278516895, "lat": 36.9968291, "lon": 22.1557315}, {"type": "node", "id": 5278516896, "lat": 36.9968397, "lon": 22.1559848}, {"type": "node", "id": 5278516897, "lat": 36.9969444, "lon": 22.1559848}, {"type": "node", "id": 5311916621, "lat": 37.0800956, "lon": 22.3563879, "tags": {"amenity": "restaurant", "check_date": "2024-03-28", "cuisine": "greek", "diet:vegetarian": "yes", "name:en": "Taverna Pikoulianika"}}, {"type": "node", "id": 5323661023, "lat": 37.042801, "lon": 22.1117865, "tags": {"amenity": "restaurant", "name": "\u039c\u03b1\u03b3\u03b5\u03b9\u03c1\u03b5\u03af\u03bf \u0392\u03b5\u03c1\u03c3\u03b1\u03bb\u03af\u03b5\u03c2", "wheelchair": "limited"}}, {"type": "node", "id": 5323661024, "lat": 37.0431772, "lon": 22.1118574, "tags": {"amenity": "restaurant", "name": "\u03a7\u03bf\u03c5\u03bb\u03b9\u03ac\u03c1\u03b1"}}, {"type": "node", "id": 5323661025, "lat": 37.043278, "lon": 22.111876, "tags": {"amenity": "restaurant", "name": "\u039f \u039d\u03ad\u03b4\u03c9\u03bd"}}, {"type": "node", "id": 5323661026, "lat": 37.0433631, "lon": 22.1118871, "tags": {"amenity": "restaurant"}}, {"type": "node", "id": 5323661028, "lat": 37.0436407, "lon": 22.1119782, "tags": {"amenity": "restaurant", "name": "\u03a4\u03bf \u03a0\u03ad\u03c1\u03b1\u03c3\u03bc\u03b1"}}, {"type": "node", "id": 5323661032, "lat": 37.0439343, "lon": 22.1125415, "tags": {"amenity": "restaurant", "name": "\u0391\u03c1\u03b9\u03c2 1993"}}, {"type": "node", "id": 5323673656, "lat": 37.0433927, "lon": 22.1129759, "tags": {"amenity": "restaurant", "indoor_seating": "yes", "name": "\u039c\u03c0\u03b1\u03ba\u03b1\u03bb\u03cc\u03b3\u03b1\u03c4\u03bf\u03c2", "outdoor_seating": "yes", "smoking": "outside"}}, {"type": "node", "id": 5323673658, "lat": 37.0428098, "lon": 22.11298, "tags": {"air_conditioning": "yes", "amenity": "cafe", "diet:halal": "no", "diet:kosher": "no", "diet:vegan": "no", "diet:vegetarian": "yes", "indoor_seating": "yes", "name": "13 square", "outdoor_seating": "yes", "smoking": "outside", "wheelchair": "limited"}}, {"type": "node", "id": 5323680555, "lat": 37.0429958, "lon": 22.1119202, "tags": {"amenity": "cafe", "name": "\u03a0\u03ac\u03bd\u03b8\u03b5\u03bf\u03bd", "wheelchair": "yes"}}, {"type": "node", "id": 5570867123, "lat": 37.0688265, "lon": 22.3755687, "tags": {"addr:city": "\u039c\u03c5\u03c3\u03c4\u03c1\u03ac\u03c2", "addr:postcode": "23100", "addr:street": "\u039a\u03b5\u03bd\u03c4\u03c1\u03b9\u03ba\u03ae \u03a0\u03bb\u03b1\u03c4\u03b5\u03af\u03b1 \u039c\u03c5\u03c3\u03c4\u03c1\u03ac", "amenity": "restaurant", "cuisine": "greek", "name": "\u039f \u0388\u03bb\u03bb\u03b7\u03bd\u03b1\u03c2", "operator": "\u0393. \u039c\u03c0\u03bf\u03c5\u03c1\u03bb\u03cc\u03ba\u03b1\u03c2", "phone": "+30 27310 82666", "website": "https://www.mystrasrestaurant.com/"}}, {"type": "node", "id": 5570881921, "lat": 37.0686368, "lon": 22.3759597, "tags": {"amenity": "restaurant", "int_name": "Tavern Hellen", "name": "\u03a4\u03b1\u03b2\u03ad\u03c1\u03bd\u03b1 \u0395\u03bb\u03ad\u03bd\u03b7", "name:el": "\u03a4\u03b1\u03b2\u03ad\u03c1\u03bd\u03b1 \u0395\u03bb\u03ad\u03bd\u03b7"}}, {"type": "node", "id": 5570905321, "lat": 37.0691079, "lon": 22.375783, "tags": {"amenity": "restaurant", "cuisine": "greek", "name": "\u03a4\u03bf \u039a\u03ac\u03c3\u03c4\u03c1\u03bf"}}, {"type": "node", "id": 5670472126, "lat": 37.0247947, "lon": 22.1485256, "tags": {"amenity": "restaurant", "name:en": "Ksimerona"}}, {"type": "node", "id": 5673179025, "lat": 37.080656, "lon": 22.3548359, "tags": {"amenity": "restaurant", "name:en": "Taverna Chromata"}}, {"type": "node", "id": 5784332853, "lat": 37.0808627, "lon": 22.354709, "tags": {"amenity": "restaurant", "name:en": "Chromata"}}, {"type": "node", "id": 5979259076, "lat": 37.0410268, "lon": 22.099151, "tags": {"amenity": "cafe"}}, {"type": "node", "id": 5982672650, "lat": 37.0265013, "lon": 22.1112039}, {"type": "node", "id": 5982672651, "lat": 37.0266739, "lon": 22.1112071}, {"type": "node", "id": 6374122693, "lat": 37.2416182, "lon": 22.1812605, "tags": {"amenity": "restaurant", "name": "\u039f\u03b9\u03bd\u03bf\u03c0\u03b1\u03bd\u03c4\u03bf\u03c0\u03c9\u03bb\u03b5\u03af\u03bf\u03bd \"\u03a4\u03bf \u03a0\u03ad\u03c1\u03b1\u03c3\u03bc\u03b1\""}}, {"type": "node", "id": 6451982685, "lat": 37.0802573, "lon": 22.3562453, "tags": {"amenity": "restaurant", "check_date": "2024-03-28", "cuisine": "greek", "name:el": "\u039a\u03c4\u03ae\u03bc\u03b1 \u03a3\u03ba\u03c1\u03ad\u03ba\u03b1", "name:en": "Ktima Skreka", "website": "https://ktimaskreka.com"}}, {"type": "node", "id": 6512538786, "lat": 37.0377917, "lon": 22.1097847, "tags": {"amenity": "restaurant", "level": "0", "name:en": "Kardamo", "name:ru": "\u041a\u0430\u0440\u0434\u0430\u043c\u043e", "outdoor_seating": "yes", "payment:cards": "yes", "payment:cash": "yes", "reservation": "yes", "website": "https://kardamo.gr/"}}, {"type": "node", "id": 6622299785, "lat": 37.0438008, "lon": 22.1124255, "tags": {"amenity": "cafe", "name": "\u03a7\u03c1\u03c5\u03c3\u03ac\u03bd\u03b8\u03b7"}}, {"type": "node", "id": 6622337285, "lat": 37.0432543, "lon": 22.1122437, "tags": {"amenity": "cafe", "indoor_seating": "no", "name": "\u03a3\u03c0\u03b9\u03bd\u03bf\u03c5", "name:el": "\u03a3\u03c0\u03b9\u03bd\u03bf\u03c5", "name:en": "Spinos", "outdoor_seating": "no", "takeaway": "only", "wheelchair": "no"}}, {"type": "node", "id": 6636741385, "lat": 37.041162, "lon": 22.1017727, "tags": {"amenity": "cafe", "brand": "Coffee Island", "brand:wikidata": "Q60867333", "brand:wikipedia": "en:Coffee Island", "cuisine": "coffee_shop", "name": "Coffee Island", "name:en": "Coffee island", "takeaway": "yes"}}, {"type": "node", "id": 6636741388, "lat": 37.0482801, "lon": 22.0732702, "tags": {"amenity": "restaurant"}}, {"type": "node", "id": 6636741488, "lat": 37.0670674, "lon": 22.0600427, "tags": {"amenity": "cafe"}}, {"type": "node", "id": 6637503585, "lat": 37.0434114, "lon": 22.1119055, "tags": {"amenity": "restaurant", "cuisine": "greek", "name": "Kokkari"}}, {"type": "node", "id": 6705399085, "lat": 37.0790781, "lon": 22.3578198, "tags": {"amenity": "restaurant", "check_date": "2024-03-28", "cuisine": "greek", "diet:vegetarian": "yes", "name": "mystrasbistrot", "outdoor_seating": "yes"}}, {"type": "node", "id": 6732448690, "lat": 37.027805, "lon": 22.0904353, "tags": {"amenity": "cafe", "cuisine": "fish;seafood", "name:en": "Mouria"}}, {"type": "node", "id": 6751145386, "lat": 37.0442434, "lon": 22.1114028, "tags": {"addr:housenumber": "84", "addr:postcode": "24134", "addr:street": "\u0391\u03c1\u03c4\u03ad\u03bc\u03b9\u03b4\u03bf\u03c2", "amenity": "restaurant", "cuisine": "greek", "name": "\u03a0\u03bb\u03ac\u03c4\u03b1\u03bd\u03bf\u03c2", "name:el": "\u03a0\u03bb\u03ac\u03c4\u03b1\u03bd\u03bf\u03c2", "name:en": "Platanos", "opening_hours": "Mo-Su 09:30-00:30", "phone": "2721088266", "website": "https://platanoskalamata.gr/"}}, {"type": "node", "id": 6919491785, "lat": 37.0736637, "lon": 22.4307146, "tags": {"addr:street": "\u039a\u03c9\u03bd\u03c3\u03c4\u03b1\u03bd\u03c4\u03af\u03bd\u03bf\u03c5 \u03a0\u03b1\u03bb\u03b1\u03b9\u03bf\u03bb\u03cc\u03b3\u03bf\u03c5", "amenity": "restaurant", "cuisine": "burger;greek;regional", "diet:vegetarian": "yes", "name": "Black John", "phone": "+30 2731 022222"}}, {"type": "node", "id": 6922754812, "lat": 37.0674172, "lon": 22.4300316}, {"type": "node", "id": 6922754813, "lat": 37.0673628, "lon": 22.430057}, {"type": "node", "id": 6922754814, "lat": 37.0672915, "lon": 22.4300444}, {"type": "node", "id": 6922754815, "lat": 37.0672829, "lon": 22.4299608}, {"type": "node", "id": 6922754816, "lat": 37.0673, "lon": 22.42988}, {"type": "node", "id": 6922754817, "lat": 37.0674271, "lon": 22.4298882}, {"type": "node", "id": 7134284360, "lat": 37.0206165, "lon": 22.1433645}, {"type": "node", "id": 7134284364, "lat": 37.0207357, "lon": 22.1434387}, {"type": "node", "id": 7134284366, "lat": 37.0207974, "lon": 22.1432835}, {"type": "node", "id": 7134284371, "lat": 37.0206782, "lon": 22.1432093}, {"type": "node", "id": 7619811390, "lat": 37.1908502, "lon": 22.5514799}, {"type": "node", "id": 7619811391, "lat": 37.1907944, "lon": 22.5516102}, {"type": "node", "id": 7619811392, "lat": 37.1907104, "lon": 22.5515536}, {"type": "node", "id": 7619811393, "lat": 37.1907661, "lon": 22.5514232}, {"type": "node", "id": 7932159915, "lat": 37.0245376, "lon": 22.1028244}, {"type": "node", "id": 7932159916, "lat": 37.0245367, "lon": 22.1030334}, {"type": "node", "id": 7932159917, "lat": 37.0241727, "lon": 22.1030312}, {"type": "node", "id": 7932159918, "lat": 37.0241736, "lon": 22.1028221}, {"type": "node", "id": 8076375218, "lat": 37.3673007, "lon": 22.3779997, "tags": {"amenity": "restaurant"}}, {"type": "node", "id": 8076375219, "lat": 37.3668531, "lon": 22.3788312, "tags": {"amenity": "restaurant"}}, {"type": "node", "id": 8348385536, "lat": 37.0244852, "lon": 22.1055814}, {"type": "node", "id": 8348385537, "lat": 37.0244805, "lon": 22.1058089}, {"type": "node", "id": 8615401156, "lat": 37.1886698, "lon": 22.2035135, "tags": {"amenity": "restaurant", "cuisine": "greek", "name": "\u0391\u03b3\u03bd\u03ac\u03bd\u03c4\u03b9", "opening_hours": "Mo-Su 10:00-22:00"}}, {"type": "node", "id": 9110431317, "lat": 37.0434673, "lon": 22.1128023, "tags": {"amenity": "cafe", "cuisine": "breakfast;cake;coffee_shop;deli;donut;ice_cream;pancake", "name": "\u0393\u039b\u03a5\u039a\u039f\u03a0\u03a9\u039b\u0395\u0399\u039f\u039d", "name:el": "\u0393\u039b\u03a5\u039a\u039f\u03a0\u03a9\u039b\u0395\u0399\u039f\u039d", "name:en": "Mama\u2019s sweethouse"}}, {"type": "node", "id": 9127138133, "lat": 37.0477, "lon": 22.1142972, "tags": {"air_conditioning": "yes", "amenity": "cafe", "diet:halal": "no", "diet:kosher": "no", "diet:vegan": "no", "diet:vegetarian": "yes", "indoor_seating": "yes", "name": "Station Coffee", "note:en": "The name is not descriptive, is the name wrote on the sign", "outdoor_seating": "yes", "smoking": "outside", "wheelchair": "yes"}}, {"type": "node", "id": 9127138137, "lat": 37.0422793, "lon": 22.1178564, "tags": {"amenity": "cafe", "delivery": "07:00-21:00", "indoor_seating": "yes", "name": "Craft", "opening_hours": "06:00-21:00", "outdoor_seating": "yes", "smoking": "outside", "wheelchair": "no"}}, {"type": "node", "id": 9411362476, "lat": 37.0412687, "lon": 22.1248904, "tags": {"amenity": "restaurant", "cuisine": "greek", "delivery": "yes", "name": "\u0397 \u03c0\u03af\u03c4\u03b1 \u03c4\u03bf\u03b9\u03c5 \u039b\u03ac\u03b6\u03b1\u03c1\u03bf\u03c5", "outdoor_seating": "yes", "smoking": "outside", "takeaway": "yes", "wheelchair": "limited"}}, {"type": "node", "id": 9750836578, "lat": 37.0291307, "lon": 22.5656127, "tags": {"amenity": "cafe", "outdoor_seating": "yes"}}, {"type": "node", "id": 9750836609, "lat": 37.0289615, "lon": 22.5659523, "tags": {"amenity": "cafe", "internet_access": "wlan", "name": "\u03a0\u03bf\u03c5\u03bb\u03bf\u03c2", "outdoor_seating": "yes"}}, {"type": "node", "id": 9751486817, "lat": 37.0370683, "lon": 22.1131132, "tags": {"addr:housenumber": "16", "addr:postcode": "241 00", "addr:street": "\u0392\u03b1\u03bb\u03b1\u03c9\u03c1\u03af\u03c4\u03bf\u03c5", "amenity": "restaurant", "cuisine": "italian", "email": "davito.pizzabar@gmail.com", "internet_access": "wlan", "name": "DaVito Pizza", "name:en": "Da Vito Pizza", "opening_hours": "Tu-Su 18:00-00:00", "phone": "2721027797"}}, {"type": "node", "id": 9752385446, "lat": 37.072832, "lon": 22.4306191, "tags": {"amenity": "cafe", "name": "Miko", "outdoor_seating": "yes"}}, {"type": "node", "id": 9752385462, "lat": 37.074157, "lon": 22.4300042, "tags": {"amenity": "restaurant", "cuisine": "pizza", "internet_access": "wlan", "name": "Street 73", "outdoor_seating": "yes"}}, {"type": "node", "id": 9752385466, "lat": 37.0702767, "lon": 22.4292716, "tags": {"amenity": "cafe", "outdoor_seating": "yes"}}, {"type": "node", "id": 9753950587, "lat": 37.068271, "lon": 22.4319954, "tags": {"amenity": "cafe", "name": "Way Cup", "outdoor_seating": "yes", "phone": "+30 2731 022210"}}, {"type": "node", "id": 9754956852, "lat": 37.1964555, "lon": 22.3428011, "tags": {"amenity": "cafe", "internet_access": "wlan", "outdoor_seating": "yes", "toilets": "yes", "wheelchair": "yes"}}, {"type": "node", "id": 9825973618, "lat": 36.958254, "lon": 22.4510918, "tags": {"amenity": "restaurant"}}, {"type": "node", "id": 9971640895, "lat": 37.2452668, "lon": 22.551555, "tags": {"amenity": "restaurant", "name": "\u0395\u03c3\u03c4\u03b9\u03b1\u03c4\u03cc\u03c1\u03b9\u03bf-\u039a\u03b1\u03c6\u03ad \u0392\u03bf\u03c5\u03c1\u03ad\u03b9\u03ba\u03bf"}}, {"type": "node", "id": 9971657490, "lat": 37.2459234, "lon": 22.5533737}, {"type": "node", "id": 9971657491, "lat": 37.2458635, "lon": 22.5534065}, {"type": "node", "id": 9971657492, "lat": 37.2458938, "lon": 22.5534939}, {"type": "node", "id": 9971657493, "lat": 37.2458427, "lon": 22.5535218}, {"type": "node", "id": 9971657494, "lat": 37.2458671, "lon": 22.5535922}, {"type": "node", "id": 9971657495, "lat": 37.2459781, "lon": 22.5535315}, {"type": "node", "id": 10011039617, "lat": 37.0381127, "lon": 22.11078, "tags": {"addr:housenumber": "13", "addr:street": "\u0391\u03bd\u03c4\u03c9\u03bd\u03bf\u03c0\u03bf\u03cd\u03bb\u03bf\u03c5", "amenity": "restaurant", "diet:vegetarian": "yes", "indoor_seating": "yes", "internet_access": "wlan", "internet_access:ssid": "Platea WiFi", "name": "Platea", "outdoor_seating": "yes", "smoking": "outside", "wheelchair": "yes"}}, {"type": "node", "id": 10074690317, "lat": 37.3659956, "lon": 22.366328, "tags": {"amenity": "restaurant", "name:de": "Forests"}}, {"type": "node", "id": 10169425219, "lat": 37.0406895, "lon": 22.1268269, "tags": {"amenity": "restaurant", "cuisine": "greek", "delivery": "no", "name": "\u03a4\u03b1\u03b2\u03ad\u03c1\u03bd\u03b1 \u0392\u03ac\u03b3\u03b9\u03b1\u03c2", "opening_hours": "20:00 - 01:00", "operator": "\u0399\u03c9\u03ac\u03bd\u03bd\u03b7\u03c2 \u0392\u03ac\u03b3\u03b9\u03b1\u03c2", "outdoor_seating": "yes", "phone": "2721029118", "smoking": "outside", "source": "local knowledge", "takeaway": "yes", "wheelchair": "limited"}}, {"type": "node", "id": 10555038185, "lat": 37.0416594, "lon": 22.1139939}, {"type": "node", "id": 10555038186, "lat": 37.0416701, "lon": 22.1139188}, {"type": "node", "id": 10555038187, "lat": 37.0417365, "lon": 22.1139309}, {"type": "node", "id": 10555038188, "lat": 37.0417258, "lon": 22.114006}, {"type": "node", "id": 10822377827, "lat": 37.0762256, "lon": 22.4325639, "tags": {"amenity": "cafe", "name": "\u039f \u039b\u03cc\u03c6\u03bf\u03c2", "outdoor_seating": "yes"}}, {"type": "node", "id": 10822377837, "lat": 37.0723325, "lon": 22.4331229, "tags": {"amenity": "cafe", "level": "0", "name": "Royal Coffee", "outdoor_seating": "yes", "takeaway": "yes", "wheelchair": "limited"}}, {"type": "node", "id": 10832171277, "lat": 37.2924464, "lon": 22.5008876, "tags": {"amenity": "cafe", "name": "Savas"}}, {"type": "node", "id": 10969624224, "lat": 37.0746094, "lon": 22.4297583}, {"type": "node", "id": 10969832989, "lat": 37.0744682, "lon": 22.4297862, "tags": {"entrance": "shop", "level": "0", "wheelchair": "limited"}}, {"type": "node", "id": 10969832991, "lat": 37.0744752, "lon": 22.4298129}, {"type": "node", "id": 10969832992, "lat": 37.0746932, "lon": 22.4297242}, {"type": "node", "id": 10973457622, "lat": 37.0746679, "lon": 22.4296612}, {"type": "node", "id": 10973457629, "lat": 37.074458, "lon": 22.4297466}, {"type": "node", "id": 10973457630, "lat": 37.074676, "lon": 22.4296579}, {"type": "node", "id": 11127377205, "lat": 37.0244753, "lon": 22.1078132, "tags": {"amenity": "restaurant", "cuisine": "greek", "internet_access": "wlan", "name": "\u039d\u03cc\u03c4\u03b9\u03b1\u03c2", "name:el": "\u039d\u03cc\u03c4\u03b9\u03b1\u03c2", "name:fr": "Notias"}}, {"type": "node", "id": 11298599949, "lat": 37.1763766, "lon": 22.5942269, "tags": {"amenity": "restaurant"}}, {"type": "node", "id": 11298599950, "lat": 37.1760528, "lon": 22.5953466, "tags": {"amenity": "restaurant", "cuisine": "barbecue;greek", "name": "\u039a\u03bf\u03c5\u03ba\u03bf\u03c5\u03bd\u03ac\u03c1\u03b9"}}, {"type": "node", "id": 11298599951, "lat": 37.1761419, "lon": 22.595501, "tags": {"amenity": "cafe", "name": "\u039c\u03bf\u03c4\u03af\u03b2\u03bf"}}, {"type": "node", "id": 11298606901, "lat": 37.1701754, "lon": 22.3050466, "tags": {"amenity": "cafe"}}, {"type": "node", "id": 11766232819, "lat": 37.1010607, "lon": 22.2311845, "tags": {"amenity": "cafe", "check_date": "2024-03-27", "contact:instagram": "https://www.instagram.com/stou_mixali", "name": "\u03a3\u03c4\u03bf\u03c5 \u039c\u03b9\u03c7\u03ac\u03bb\u03b7", "opening_hours": "Mo,We-Su 08:00-22:30; Tu off", "outdoor_seating": "yes", "phone": "+30 2721 076585", "wheelchair": "yes"}}, {"type": "node", "id": 11766318946, "lat": 37.0994183, "lon": 22.2304558, "tags": {"amenity": "cafe", "check_date": "2024-03-27", "name": "\u0391\u03c1\u03c4\u03b5\u03bc\u03b9\u03c3\u03af\u03b1"}}, {"type": "node", "id": 11766318947, "lat": 37.0987467, "lon": 22.2432814, "tags": {"amenity": "cafe", "check_date": "2024-03-27", "name": "\u039a\u03b1\u03c6\u03b5\u03bd\u03b5\u03af\u03bf \u0391\u03b8\u03ae\u03bd\u03b1 \u03a0\u03b1\u03c0\u03b1\u03b4\u03b5\u03b1", "name:el": "\u039a\u03b1\u03c6\u03b5\u03bd\u03b5\u03af\u03bf \u0391\u03b8\u03ae\u03bd\u03b1 \u03a0\u03b1\u03c0\u03b1\u03b4\u03b5\u03b1", "wheelchair": "no"}}, {"type": "node", "id": 11771144435, "lat": 37.0049364, "lon": 22.1557468, "tags": {"amenity": "cafe", "check_date": "2024-03-29", "name": "KAFEBRIKO", "name:el": "\u039a\u0391\u03a6\u0395\u039c\u03a0\u03a1\u0399\u039a\u039f", "outdoor_seating": "yes", "payment:cash": "yes", "payment:credit_cards": "yes", "payment:debit_cards": "yes", "wheelchair": "yes"}}, {"type": "node", "id": 11953624222, "lat": 37.0378421, "lon": 22.1107011, "tags": {"amenity": "cafe", "internet_access": "wlan", "internet_access:fee": "customers", "internet_access:ssid": "Bodega", "name": "Bodega", "outdoor_seating": "yes", "website": "http://www.bodegakalamata.gr/"}}, {"type": "node", "id": 11953892967, "lat": 37.025096, "lon": 22.1071532, "tags": {"addr:city": "\u039a\u03b1\u03bb\u03b1\u03bc\u03ac\u03c4\u03b1", "addr:housenumber": "20", "addr:postcode": "24100", "addr:street": "\u03a3\u03b1\u03bb\u03b1\u03bc\u03af\u03bd\u03bf\u03c2", "amenity": "restaurant", "name": "\u03a4\u03bf \u039a\u03b1\u03c4\u03ce\u03c6\u03bb\u03b9", "opening_hours": "Mo-We 17:00-01:00; Th 17:00-24:00; Fr-Sa 17:00-01:00; Su 12:00-01:00", "phone": "+302721089789"}}, {"type": "node", "id": 12000685040, "lat": 37.0252361, "lon": 22.1117849, "tags": {"amenity": "cafe", "name": "Holy Mug"}}, {"type": "node", "id": 12177699224, "lat": 37.0345908, "lon": 22.1281345, "tags": {"amenity": "cafe", "name": "\u039a\u03b1\u03c6\u03ad...\u03bd\u03b1\u03b9!"}}, {"type": "node", "id": 12177699229, "lat": 37.0355007, "lon": 22.1273191, "tags": {"amenity": "cafe", "delivery": "yes", "name": "Cafe Brunch", "outdoor_seating": "yes", "phone": "+30 27210 21812", "takeaway": "yes"}}, {"type": "node", "id": 12222590859, "lat": 37.3279664, "lon": 22.5467184, "tags": {"amenity": "cafe"}}, {"type": "node", "id": 12222606018, "lat": 37.3274188, "lon": 22.5467693, "tags": {"amenity": "restaurant"}}, {"type": "node", "id": 12222608336, "lat": 37.3272942, "lon": 22.5468114, "tags": {"amenity": "restaurant", "name": "\u03a4\u03b1\u03b2\u03ad\u03c1\u03bd\u03b1 \u039c\u03b1\u03c1\u03b3\u03b1\u03c1\u03af\u03c4\u03b1"}}, {"type": "node", "id": 12222613821, "lat": 37.2453917, "lon": 22.5513753, "tags": {"amenity": "cafe"}}, {"type": "node", "id": 12222615310, "lat": 37.3274936, "lon": 22.5466844, "tags": {"amenity": "restaurant", "name": "\u039f\u03b9\u03ba\u03bf\u03b3\u03b5\u03bd\u03b5\u03b9\u03b1\u03ba\u03ae \u03a4\u03b1\u03b2\u03ad\u03c1\u03bd\u03b1 \"\u039f \u039a\u03b1\u03c1\u03c1\u03ac\u03c2 & \u03bf \u03a0\u03ac\u03c1\u03bd\u03c9\u03bd\u03b1\u03c2\""}}, {"type": "node", "id": 12222615311, "lat": 37.3276139, "lon": 22.5464372, "tags": {"amenity": "restaurant"}}, {"type": "node", "id": 12222615705, "lat": 37.327562, "lon": 22.5465694, "tags": {"amenity": "restaurant"}}, {"type": "node", "id": 12542031794, "lat": 37.0377854, "lon": 22.1100727, "tags": {"addr:housenumber": "2", "addr:street": "\u0394\u03b1\u03b3\u03c1\u03ad", "amenity": "restaurant", "cuisine": "small plate dishes", "name": "Tsipouradiko Therapeftirion", "phone": "2721093391"}}, {"type": "node", "id": 12628540401, "lat": 37.0479278, "lon": 22.1072499, "tags": {"addr:housenumber": "82", "addr:street": "\u039b\u03b5\u0390\u03ba\u03c9\u03bd", "amenity": "cafe", "contact:instagram": "leikon_streetcoffee", "cuisine": "bagel;cake", "internet_access": "wlan", "name": "Leikon Street Coffee", "opening_hours": "Mo-Sa 06:00-20:00; Su 07:00-14:00", "phone": "2721407069"}}, {"type": "node", "id": 12679607788, "lat": 37.0288842, "lon": 22.1114583, "tags": {"addr:city": "Kalamata", "addr:housenumber": "47", "addr:postcode": "24100", "addr:street": "\u03a6\u03b9\u03bb\u03b5\u03bb\u03bb\u03ae\u03bd\u03c9\u03bd", "amenity": "cafe", "cuisine": "coffee_shop", "internet_access": "wlan", "name": "The Locals & Co", "opening_hours": "Mo-Su 07:00-22:00", "phone": "+302721111999"}}, {"type": "node", "id": 12691186433, "lat": 37.0315934, "lon": 22.3783677, "tags": {"amenity": "restaurant", "cuisine": "barbecue", "name": "\u03a3\u03bf\u03c5\u03bc\u03ac\u03ba\u03b7\u03c2 \u03a0\u03b1\u03bd\u03b1\u03b3\u03b9\u03ce\u03c4\u03b7\u03c2", "phone": "2731081199"}}, {"type": "node", "id": 12693312269, "lat": 37.0625876, "lon": 22.3823072, "tags": {"amenity": "restaurant", "name": "\u038f\u03c1\u03b5\u03c2"}}, {"type": "node", "id": 12693312270, "lat": 37.0622954, "lon": 22.382212, "tags": {"amenity": "restaurant", "name": "\u039f \u039a\u03c1\u03b5\u03bc\u03bc\u03cd\u03b4\u03b1\u03c2"}}, {"type": "node", "id": 12693313524, "lat": 37.0483336, "lon": 22.4039498, "tags": {"amenity": "restaurant", "name": "\u03a0\u03b1\u03bb\u03b1\u03c4\u03ac\u03ba\u03b9"}}, {"type": "node", "id": 12693313525, "lat": 37.0468136, "lon": 22.4046642, "tags": {"amenity": "restaurant", "name": "\u03a4\u03bf\u03c5 \u0391\u03c0\u03bf\u03c3\u03c4\u03cc\u03bb\u03b7 \u03c4\u03bf \u03ba\u03bf\u03c5\u03c4\u03bf\u03cd\u03ba\u03b9"}}, {"type": "way", "id": 372172940, "nodes": [3757062060, 3757062058, 3757062054, 3757062057, 3757062060], "tags": {"amenity": "restaurant", "building": "yes", "cuisine": "regional", "name": "\u0395. \u0391\u03c1\u03b4\u03ac\u03bc\u03b7\u03c2", "name:el": "\u0395. \u0391\u03c1\u03b4\u03ac\u03bc\u03b7\u03c2", "name:en": "E.Ardamis", "phone": "+30 2710382594"}}, {"type": "way", "id": 462314069, "nodes": [4577209065, 4577209066, 4577209067, 4577209068, 4577209069, 4577209070, 4577209071, 4577209072, 4577209073, 4577209074, 4577209075, 4577209076, 4577209065], "tags": {"amenity": "restaurant", "name": "\u03a0\u03b1\u03c0\u03b1\u03bd\u03c4\u03ce\u03bd\u03b7\u03c2", "name:el": "\u03a0\u03b1\u03c0\u03b1\u03bd\u03c4\u03ce\u03bd\u03b7\u03c2", "name:en": "Papantonis"}}, {"type": "way", "id": 470403829, "nodes": [4646044660, 4646044661, 5982672650, 5982672651, 4646044660], "tags": {"addr:city": "\u039a\u03b1\u03bb\u03b1\u03bc\u03ac\u03c4\u03b1", "addr:housenumber": "30", "addr:postcode": "24100", "addr:street": "\u039c\u03b9\u03b1\u03bf\u03cd\u03bb\u03b7", "amenity": "cafe", "building": "yes", "internet_access": "yes", "internet_access:fee": "customers", "name": "\u0391\u03c6\u03c1\u03ac\u03bb\u03b1\u03c4\u03bf", "name:el": "\u0391\u03c6\u03c1\u03ac\u03bb\u03b1\u03c4\u03bf", "name:en": "Afralato", "opening_hours": "Su-Tu 07:00-21:00; We 07:00-24:00; Th 07:00-21:00; Fr 07:00-24:00; Sa 07:00-24:00", "outdoor_seating": "garden", "phone": "+30 2721 021 005"}}, {"type": "way", "id": 474230689, "nodes": [4682323764, 8348385536, 8348385537, 4682323767, 4682323764], "tags": {"addr:city": "\u039a\u03b1\u03bb\u03b1\u03bc\u03ac\u03c4\u03b1", "addr:postcode": "24100", "addr:street": "\u03a0\u03bf\u03c3\u03b5\u03b9\u03b4\u03ce\u03bd\u03bf\u03c2", "amenity": "restaurant", "building": "yes", "cuisine": "seafood", "name": "Limeni", "opening_hours": "Mo-Su 13:00-01:00", "phone": "2721 095670", "website": "https://tolimeni.gr/"}}, {"type": "way", "id": 546197239, "nodes": [5278516894, 5278516895, 5278516896, 5278516897, 5278516894], "tags": {"amenity": "cafe", "building": "yes", "name": "Cafe \u03a0\u03ac\u03c1\u03ba\u03bf\u03c5 \u0391\u03bb\u03bc\u03c5\u03c1\u03bf\u03cd"}}, {"type": "way", "id": 739365773, "nodes": [6922754812, 6922754813, 6922754814, 6922754815, 6922754816, 6922754817, 6922754812], "tags": {"amenity": "restaurant", "building": "yes", "cuisine": "regional", "name": "En Chatipi", "outdoor_seating": "yes"}}, {"type": "way", "id": 763488918, "nodes": [7134284371, 7134284360, 7134284364, 7134284366, 7134284371], "tags": {"amenity": "restaurant", "building": "yes", "name": "Fare", "outdoor_seating": "yes", "smoking": "outside"}}, {"type": "way", "id": 815867237, "nodes": [7619811390, 7619811391, 7619811392, 7619811393, 7619811390], "tags": {"amenity": "restaurant", "building": "yes", "cuisine": "greek", "name": "\u03a4\u03b1 \u03c9\u03c1\u03b1\u03af\u03b1 \u0392\u03ad\u03c1\u03b9\u03b1", "website": "https://ta-oraia-veroia8.webnode.gr"}}, {"type": "way", "id": 850240200, "nodes": [7932159915, 7932159916, 7932159917, 7932159918, 7932159915], "tags": {"amenity": "restaurant", "building": "yes"}}, {"type": "way", "id": 1088366581, "nodes": [9971657490, 9971657491, 9971657492, 9971657493, 9971657494, 9971657495, 9971657490], "tags": {"amenity": "cafe", "building": "yes", "name": "\u03a4\u03b5\u03bb\u03c9\u03bd\u03b5\u03af\u03bf"}}, {"type": "way", "id": 1132006004, "nodes": [10555038188, 10555038187, 10555038186, 10555038185, 10555038188], "tags": {"amenity": "restaurant", "cuisine": "mexican", "delivery": "no", "internet_access": "yes", "internet_access:fee": "no", "name": "Mamacita Mexican Restaurant Bar", "opening_hours": "Tu-Su 17:00-24:00", "outdoor_seating": "yes", "payment:american_express": "yes", "payment:coins": "yes", "payment:mastercard": "yes", "payment:notes": "yes", "payment:visa": "yes", "payment:visa_debit": "yes", "payment:visa_electron": "yes", "phone": "+30 2721 405041", "smoking": "outside", "takeaway": "yes", "website": "https://www.facebook.com/profile.php?id=100066869990617&sk=about", "wheelchair": "yes"}}, {"type": "way", "id": 1181213973, "nodes": [10969832991, 10969832989, 10973457629, 10973457622, 10973457630, 10969832992, 10969624224, 10969832991], "tags": {"addr:city": "\u03a3\u03c0\u03ac\u03c1\u03c4\u03b7", "addr:housenumber": "98", "addr:postcode": "23100", "addr:street": "\u039b\u03c5\u03ba\u03bf\u03cd\u03c1\u03b3\u03bf\u03c5", "amenity": "cafe", "brand": "Coffee Island", "brand:wikidata": "Q60867333", "brand:wikipedia": "en:Coffee Island", "building": "retail", "cuisine": "coffee_shop", "level": "0", "name": "Coffee Island", "opening_hours": "Mo-Fr 07:00-20:30; Sa 07:00-19:00", "outdoor_seating": "yes", "phone": "+302731096202", "roof:shape": "flat", "takeaway": "yes", "website": "https://www.coffeeisland.gr/"}}]}