{"version": 0.6, "generator": "Overpass API 0.7.62.7 375dc00a", "osm3s": {"timestamp_osm_base": "2025-06-14T15:00:45Z", "copyright": "The data included in this document is from www.openstreetmap.org. The data is made available under ODbL."}, "elements": [{"type": "node", "id": 27146695, "lat": 36.172673, "lon": 29.6495562}, {"type": "node", "id": 956854629, "lat": 36.1489803, "lon": 29.5907864, "tags": {"amenity": "restaurant", "cuisine": "seafood", "internet_access": "wlan", "name": "Lazarakis"}}, {"type": "node", "id": 1917315379, "lat": 36.1495453, "lon": 29.6021179}, {"type": "node", "id": 1917315380, "lat": 36.1495579, "lon": 29.602061}, {"type": "node", "id": 1917315389, "lat": 36.149663, "lon": 29.6021578}, {"type": "node", "id": 1917315391, "lat": 36.1496756, "lon": 29.6021009}, {"type": "node", "id": 2962599982, "lat": 36.1919674, "lon": 29.6516142}, {"type": "node", "id": 2962599983, "lat": 36.1919736, "lon": 29.6517698}, {"type": "node", "id": 2962599984, "lat": 36.1919425, "lon": 29.6519346}, {"type": "node", "id": 2962599985, "lat": 36.191848, "lon": 29.6519038}, {"type": "node", "id": 2962599986, "lat": 36.1918865, "lon": 29.6517574}, {"type": "node", "id": 2962599987, "lat": 36.1918816, "lon": 29.6516173}, {"type": "node", "id": 3782265651, "lat": 36.1727395, "lon": 29.6494953}, {"type": "node", "id": 3782265652, "lat": 36.172694, "lon": 29.6493707}, {"type": "node", "id": 3782265653, "lat": 36.1726078, "lon": 29.6493796}, {"type": "node", "id": 3782265654, "lat": 36.1725743, "lon": 29.6494775}, {"type": "node", "id": 3782265655, "lat": 36.1725886, "lon": 29.6495457}, {"type": "node", "id": 3782265656, "lat": 36.172591, "lon": 29.6495012}, {"type": "node", "id": 3782268157, "lat": 36.1726357, "lon": 29.6495012}, {"type": "node", "id": 3782268158, "lat": 36.1726716, "lon": 29.6495308}, {"type": "node", "id": 3782268159, "lat": 36.1726916, "lon": 29.6495318}, {"type": "node", "id": 3782268160, "lat": 36.1727211, "lon": 29.6495318}, {"type": "node", "id": 3782268161, "lat": 36.1725408, "lon": 29.6494982}, {"type": "node", "id": 3782268162, "lat": 36.172674, "lon": 29.6495773}, {"type": "node", "id": 3782268163, "lat": 36.1725894, "lon": 29.649604}, {"type": "node", "id": 3782268164, "lat": 36.1725368, "lon": 29.6495546}, {"type": "node", "id": 3787769432, "lat": 36.1741886, "lon": 29.643352, "tags": {"amenity": "restaurant", "internet_access": "wlan", "name": "Bilal's Beach"}}, {"type": "node", "id": 3790443935, "lat": 36.149388, "lon": 29.5892362, "tags": {"amenity": "cafe", "internet_access": "wlan", "name": "Remezzo"}}, {"type": "node", "id": 3790444881, "lat": 36.1489351, "lon": 29.5908949, "tags": {"amenity": "restaurant", "internet_access": "wlan", "name": "Athena"}}, {"type": "node", "id": 6574655361, "lat": 36.1480768, "lon": 29.5941709, "tags": {"amenity": "cafe", "cuisine": "greek", "internet_access": "no", "name": "MAGIAPHI", "outdoor_seating": "yes"}}, {"type": "node", "id": 6811987164, "lat": 36.1725691, "lon": 29.6495847}, {"type": "node", "id": 7158934185, "lat": 36.1488428, "lon": 29.5917198, "tags": {"amenity": "restaurant", "cuisine": "greek;fish;fish_and_chips", "name": "Billy\u2019s Restaurant", "name:en": "Billy\u2019s Restaurant"}}, {"type": "node", "id": 7158934285, "lat": 36.1487765, "lon": 29.5914617, "tags": {"amenity": "cafe", "cuisine": "coffee_shop;tea", "name": "Stratos cafe", "name:en": "Stratos"}}, {"type": "node", "id": 7160440485, "lat": 36.1491266, "lon": 29.590511, "tags": {"addr:street": "Kastellorizo Port", "amenity": "restaurant", "cuisine": "seafood", "internet_access": "wlan", "name": "Alexandra's Restaurant", "opening_hours": "24/7", "operator": "Michalis Papoutsis", "phone": "+306955495970"}}, {"type": "node", "id": 8225107803, "lat": 36.1500237, "lon": 29.5890087, "tags": {"amenity": "restaurant", "name": "\u039c\u03b9\u03ba\u03c1\u03cc \u03a0\u03b1\u03c1\u03af\u03c3\u03b9", "name:el": "\u039c\u03b9\u03ba\u03c1\u03cc \u03a0\u03b1\u03c1\u03af\u03c3\u03b9", "name:en": "Little Paris"}}, {"type": "node", "id": 8225307495, "lat": 36.1487822, "lon": 29.5912644, "tags": {"amenity": "cafe", "cuisine": "coffee_shop;tea", "name": "\u039c\u03b5\u03bb\u03c4\u03ad\u03bc\u03b9", "name:el": "\u039c\u03b5\u03bb\u03c4\u03ad\u03bc\u03b9", "name:en": "Meltemi"}}, {"type": "node", "id": 8225381879, "lat": 36.1487174, "lon": 29.5916875}, {"type": "node", "id": 8225381880, "lat": 36.1486557, "lon": 29.5916949}, {"type": "node", "id": 8225381881, "lat": 36.14865, "lon": 29.5916225}, {"type": "node", "id": 8225381882, "lat": 36.1487118, "lon": 29.5916151}, {"type": "node", "id": 8225381883, "lat": 36.1487053, "lon": 29.591424}, {"type": "node", "id": 8225381884, "lat": 36.1487053, "lon": 29.5915226}, {"type": "node", "id": 8225381885, "lat": 36.1486506, "lon": 29.5915226}, {"type": "node", "id": 8225381886, "lat": 36.1486506, "lon": 29.591424}, {"type": "node", "id": 9177757817, "lat": 36.1559699, "lon": 29.7127343, "tags": {"amenity": "cafe"}}, {"type": "node", "id": 10955634505, "lat": 36.1518686, "lon": 29.6784932, "tags": {"amenity": "cafe", "description:ru": "\u041a\u0430\u0444\u0435. \u0412 \u043d\u0430\u0447\u0430\u043b\u0435 \u0438\u044e\u043d\u044f 2023 \u043a\u0443\u043f\u0438\u043b\u0438 \u0432\u043e\u0434\u044b \u0437\u0430 \u0431\u043e\u043b\u044c\u0448\u0438\u0435 \u0434\u0435\u043d\u044c\u0433\u0438. \u041d\u0435\u0434\u0440\u0443\u0436\u0435\u043b\u044e\u0431\u043d\u043e."}}, {"type": "node", "id": 11195438637, "lat": 36.1938319, "lon": 29.593328, "tags": {"amenity": "restaurant", "diet:vegan": "yes", "diet:vegetarian": "yes", "name": "OBURUS MOMUS"}}, {"type": "way", "id": 181305391, "nodes": [1917315391, 1917315389, 1917315379, 1917315380, 1917315391], "tags": {"amenity": "restaurant", "name": "Saint George Beach - Aya Yorgi"}}, {"type": "way", "id": 292728308, "nodes": [2962599982, 2962599983, 2962599984, 2962599985, 2962599986, 2962599987, 2962599982], "tags": {"amenity": "restaurant", "building": "yes", "wheelchair": "limited"}}, {"type": "way", "id": 374847037, "nodes": [3782265651, 3782265652, 3782265653, 3782265654, 3782268161, 3782268164, 3782265655, 3782265656, 3782268157, 3782268158, 3782268159, 3782268160, 3782265651], "tags": {"addr:city": "Ka\u015f", "addr:postcode": "07953", "addr:street": "Limanagzi Mevkii", "amenity": "restaurant", "building": "yes", "capacity": "100", "cuisine": "regional", "name": "Nuri's Beach Restaurant", "opening_hours": "Mo-Su 10:00-01:00", "website": "https://www.nurisbeach.com/", "wifi": "yes"}}, {"type": "way", "id": 374847038, "nodes": [3782268162, 3782268163, 6811987164, 3782268164, 3782265655, 3782265656, 3782268157, 3782268158, 27146695, 3782268162], "tags": {"amenity": "restaurant", "building": "terrace", "wifi": "yes"}}, {"type": "way", "id": 884483294, "nodes": [8225381882, 8225381879, 8225381880, 8225381881, 8225381882], "tags": {"amenity": "restaurant", "building": "yes", "name": "\u03a3\u03c4\u03ad\u03ba\u03b9", "name:el": "\u03a3\u03c4\u03ad\u03ba\u03b9", "name:en": "Steki"}}, {"type": "way", "id": 884483295, "nodes": [8225381886, 8225381883, 8225381884, 8225381885, 8225381886], "tags": {"amenity": "restaurant", "building": "yes", "name": "\u0391\u03b3\u03bf\u03c1\u03ac", "name:el": "\u0391\u03b3\u03bf\u03c1\u03ac", "name:en": "Agora"}}]}