{"version": 0.6, "generator": "Overpass API 0.7.62.7 375dc00a", "osm3s": {"timestamp_osm_base": "2025-06-14T14:39:19Z", "copyright": "The data included in this document is from www.openstreetmap.org. The data is made available under ODbL."}, "elements": [{"type": "node", "id": 6888580898, "lat": 32.7619329, "lon": 22.2373822, "tags": {"amenity": "cafe", "name": "\u0643\u0627\u0641\u064a \u0634\u064a\u0631\u0643\u0648", "name:ar": "\u0643\u0627\u0641\u064a \u0634\u064a\u0631\u0643\u0648", "name:en": "Circo Cafe"}}, {"type": "node", "id": 6888582193, "lat": 32.7641239, "lon": 22.2392732, "tags": {"amenity": "cafe", "name": "\u0643\u0627\u0641\u064a \u062a\u0627\u064a\u0645", "name:ar": "\u0643\u0627\u0641\u064a \u062a\u0627\u064a\u0645", "name:en": "Time Cafe"}}, {"type": "node", "id": 6888603986, "lat": 32.7669133, "lon": 22.2479022, "tags": {"amenity": "cafe", "name": "\u0643\u0627\u0641\u064a \u0627\u0644\u0641\u0627\u062a\u062d", "name:ar": "\u0643\u0627\u0641\u064a \u0627\u0644\u0641\u0627\u062a\u062d", "name:en": "Al Fateh Cafe"}}, {"type": "node", "id": 7188376486, "lat": 32.6066365, "lon": 22.2461634, "tags": {"amenity": "restaurant", "name": "\u0627\u0633\u062a\u0631\u0627\u062d\u0629 \u0627\u0644\u0646\u0648\u0627\u0631", "name:ar": "\u0627\u0633\u062a\u0631\u0627\u062d\u0629 \u0627\u0644\u0646\u0648\u0627\u0631", "name:en": "Alnowar Restaurant"}}, {"type": "node", "id": 7610655748, "lat": 32.765404, "lon": 22.2479132, "tags": {"amenity": "cafe"}}, {"type": "node", "id": 7610655749, "lat": 32.7664169, "lon": 22.2478467, "tags": {"amenity": "cafe"}}, {"type": "node", "id": 7610660195, "lat": 32.7792907, "lon": 22.143424, "tags": {"amenity": "cafe"}}, {"type": "node", "id": 7610667894, "lat": 32.759285, "lon": 22.2438762, "tags": {"amenity": "cafe"}}, {"type": "node", "id": 7711458137, "lat": 32.7683474, "lon": 22.2422242, "tags": {"amenity": "cafe"}}, {"type": "node", "id": 7711458138, "lat": 32.769095, "lon": 22.2432499, "tags": {"amenity": "cafe"}}, {"type": "node", "id": 7711476511, "lat": 32.7623761, "lon": 22.2471726, "tags": {"amenity": "cafe"}}, {"type": "node", "id": 7711476513, "lat": 32.7613973, "lon": 22.2482612, "tags": {"amenity": "restaurant"}}, {"type": "node", "id": 8058835885, "lat": 32.7619379, "lon": 22.2486658, "tags": {"addr:street": "\u0627\u0644\u063a\u0631\u0633", "amenity": "restaurant", "name": "\u0645\u0637\u0639\u0645 \u0643\u0631\u0646\u0641\u0627\u0644", "name:ar": "\u0645\u0637\u0639\u0645 \u0643\u0631\u0646\u0641\u0627\u0644", "name:en": "Carnival Restaurant", "opening_hours": "Sa-Th 09:00-22:00"}}, {"type": "node", "id": 9579272604, "lat": 32.770904, "lon": 22.2232285, "tags": {"amenity": "cafe"}}, {"type": "node", "id": 9944541088, "lat": 32.7644275, "lon": 22.2398277, "tags": {"amenity": "cafe"}}, {"type": "node", "id": 11070148746, "lat": 32.8503522, "lon": 22.422044, "tags": {"amenity": "cafe"}}]}