{"version": 0.6, "generator": "Overpass API 0.7.62.7 375dc00a", "osm3s": {"timestamp_osm_base": "2025-06-14T15:17:02Z", "copyright": "The data included in this document is from www.openstreetmap.org. The data is made available under ODbL."}, "elements": [{"type": "node", "id": 1359825366, "lat": 34.4374808, "lon": 35.8336931, "tags": {"addr:city": "Tripoli", "addr:housename": "Riad El Solh Street", "amenity": "restaurant", "capacity": "100", "contact:phone": "+9616444445", "contact:website": "https://www.hallab.com.lb/", "cuisine": "regional", "delivery": "yes", "name": "\u0639\u0628\u062f\u0627\u0644\u0631\u062d\u0645\u0627\u0646 \u0627\u0644\u062d\u0644\u0627\u0628", "name:ar": "\u0639\u0628\u062f\u0627\u0644\u0631\u062d\u0645\u0627\u0646 \u0627\u0644\u062d\u0644\u0627\u0628", "name:en": "Abdul Rahman Hallab & Sons", "name:fr": "Abdul Rahman Hallab & Sons", "outdoor_seating": "yes", "shop": "bakery", "smoking": "isolated", "takeaway": "yes", "wheelchair": "limited"}}, {"type": "node", "id": 1856036686, "lat": 34.4404073, "lon": 35.8293154, "tags": {"amenity": "cafe", "name": "\u0628\u0627\u0646 \u062f\u0648\u0631", "name:ar": "\u0628\u0627\u0646 \u062f\u0648\u0631", "name:en": "Pain d'Or", "name:fr": "Pain d'Or"}}, {"type": "node", "id": 1856046952, "lat": 34.4354212, "lon": 35.8355061, "tags": {"amenity": "cafe", "cuisine": "ice_cream", "name": "\u0631\u0641\u0639\u062a \u0627\u0644\u062d\u0644\u0627\u0628", "name:ar": "\u0631\u0641\u0639\u062a \u0627\u0644\u062d\u0644\u0627\u0628"}}, {"type": "node", "id": 1857575821, "lat": 34.4518459, "lon": 35.8162812, "tags": {"amenity": "cafe", "cuisine": "ice_cream", "name": "\u0628\u0648\u0638\u0629 \u0647\u062f\u0644\u0627", "name:ar": "\u0628\u0648\u0638\u0629 \u0647\u062f\u0644\u0627"}}, {"type": "node", "id": 3057832409, "lat": 34.4488719, "lon": 35.8079034, "tags": {"amenity": "restaurant", "cuisine": "sweets", "name": "AL mabsout", "name:ar": "\u0627\u0644\u0645\u0628\u0633\u0648\u0637", "name:fr": "mabsout"}}, {"type": "node", "id": 3112162796, "lat": 34.2643473, "lon": 35.7584472, "tags": {"amenity": "restaurant"}}, {"type": "node", "id": 3112162797, "lat": 34.2632522, "lon": 35.7590105, "tags": {"amenity": "restaurant"}}, {"type": "node", "id": 3150216119, "lat": 34.2492714, "lon": 35.8952261}, {"type": "node", "id": 3150216120, "lat": 34.2491838, "lon": 35.8951601}, {"type": "node", "id": 3150216121, "lat": 34.2490668, "lon": 35.8953874}, {"type": "node", "id": 3150216122, "lat": 34.2491545, "lon": 35.8954535}, {"type": "node", "id": 3448775504, "lat": 34.4405179, "lon": 35.8385918, "tags": {"amenity": "cafe", "cuisine": "regional", "internet_access": "yes", "name": "Lara cafe", "name:en": "Lara cafe"}}, {"type": "node", "id": 4330486364, "lat": 34.3039672, "lon": 35.852842, "tags": {"addr:city": "Kousba", "addr:street": "M3 - Autoroute al-Arz", "amenity": "restaurant", "cuisine": "ice_cream", "name": "Bouzet Salem", "name:en": "Bouzet Salem", "name:fr": "Bouzet Salem", "takeaway": "yes"}}, {"type": "node", "id": 4390073790, "lat": 34.4387672, "lon": 35.8374947, "tags": {"amenity": "restaurant", "name": "\u0645\u0637\u0639\u0645 \u062f\u0646\u0648\u0646", "name:ar": "\u0645\u0637\u0639\u0645 \u062f\u0646\u0648\u0646"}}, {"type": "node", "id": 4459062692, "lat": 34.2983529, "lon": 35.8409469, "tags": {"amenity": "restaurant", "name": "Papa chicken", "name:en": "Papa chicken"}}, {"type": "node", "id": 4733014323, "lat": 34.4231701, "lon": 35.8267727, "tags": {"amenity": "restaurant", "name": "\u0647\u0648\u062a \u0628\u064a\u062a\u0632\u0627 \u0637\u0631\u0627\u0628\u0644\u0633", "name:ar": "\u0647\u0648\u062a \u0628\u064a\u062a\u0632\u0627 \u0637\u0631\u0627\u0628\u0644\u0633", "name:en": "Hot Pizza Tranilo", "name:fr": "Hot Pizza Tranilo"}}, {"type": "node", "id": 4914907125, "lat": 34.435305, "lon": 35.8384984, "tags": {"amenity": "cafe", "name": "kahwet el chay", "name:ar": "\u0642\u0647\u0648\u0629 \u0627\u0644\u0634\u0627\u064a", "name:en": "kahwet el chay"}}, {"type": "node", "id": 4914907127, "lat": 34.423443, "lon": 35.8263942, "tags": {"addr:country": "LB", "addr:street": "\u0634\u0627\u0631\u0639 \u0639\u0634\u064a\u0631 \u0627\u0644\u062f\u0627\u064a\u0647", "addr:street:ar": "\u0634\u0627\u0631\u0639 \u0639\u0634\u064a\u0631 \u0627\u0644\u062f\u0627\u064a\u0647", "addr:street:fr": "Rue Achie El Daya", "amenity": "cafe", "contact:phone": "+9616412772", "cuisine": "burger;sandwich;breakfast;cake;tea;coffee_shop;american;chicken;diner", "name": "Rassif Coffee & Tea", "name:fr": "Rassif Caf\u00e9 & Th\u00e9"}}, {"type": "node", "id": 4914915022, "lat": 34.4545972, "lon": 35.8110775, "tags": {"amenity": "cafe", "fixme": "name, name:en mismatch. name, name:en mismatch. name, name:en mismatch.", "name": "kahwet sindibad", "name:en": "caf\u00e9 sindibad", "name:fr": "caf\u00e9 sindibad"}}, {"type": "node", "id": 4958107821, "lat": 34.4363356, "lon": 35.8394375, "tags": {"amenity": "cafe", "name": "\u0645\u0642\u0647\u0629 \u0642\u0647\u0648\u0629", "name:ar": "\u0645\u0642\u0647\u0629 \u0642\u0647\u0648\u0629", "name:en": "cofe restaurant"}}, {"type": "node", "id": 4958130223, "lat": 34.4365079, "lon": 35.8422834, "tags": {"amenity": "restaurant", "name": "Akra", "name:ar": "\u0639\u0643\u0631\u0629", "name:en": "Akra", "name:fr": "Akra"}}, {"type": "node", "id": 4958404721, "lat": 34.4374269, "lon": 35.8460716, "tags": {"amenity": "cafe", "name": "\u0645\u0642\u0647\u0649 \u0633\u0648\u0642 \u062d\u0631\u0627\u062c", "name:ar": "\u0645\u0642\u0647\u0649 \u0633\u0648\u0642 \u062d\u0631\u0627\u062c", "name:en": "Caf\u00e9 Haraj", "name:fr": "Caf\u00e9 Haraj"}}, {"type": "node", "id": 4984873637, "lat": 34.4254551, "lon": 35.8314776, "tags": {"amenity": "restaurant", "name": "Vip", "name:en": "Vip"}}, {"type": "node", "id": 4984873638, "lat": 34.4261099, "lon": 35.8308124, "tags": {"amenity": "cafe", "name": "Moccachino Cafe", "name:en": "Moccachino Cafe", "opening_hours": "24/7"}}, {"type": "node", "id": 4984873639, "lat": 34.4270436, "lon": 35.8283555, "tags": {"amenity": "restaurant", "name": "Dip N Dip", "name:en": "Dip N Dip", "opening_hours": "Mo-Su 08:00-00:00"}}, {"type": "node", "id": 4984873644, "lat": 34.4247957, "lon": 35.8273363, "tags": {"amenity": "cafe", "name": "Scaff Caf\u00e9", "name:en": "Caf\u00e9 Scaff", "name:fr": "Caf\u00e9 Scaff"}}, {"type": "node", "id": 4984873645, "lat": 34.4249099, "lon": 35.8268653, "tags": {"amenity": "cafe", "name": "Mini Me World", "name:en": "Mini Me World", "opening_hours": "Mo-Su 12:00-00:00"}}, {"type": "node", "id": 4984873649, "lat": 34.4253809, "lon": 35.8276501, "tags": {"amenity": "restaurant", "name": "Matte", "name:ar": "\u0645\u062a\u064a", "name:en": "Matte", "name:fr": "Matte", "opening_hours": "Mo-Su 08:00-00:00"}}, {"type": "node", "id": 4986244818, "lat": 34.436751, "lon": 35.8294253, "tags": {"amenity": "restaurant", "name": "Loukoum", "name:en": "Loukoum", "name:fr": "Loukoum", "opening_hours": "Mo-Sa 10:00-20:00; Su off"}}, {"type": "node", "id": 4986254043, "lat": 34.4391666, "lon": 35.829837, "tags": {"amenity": "cafe", "name": "Frozen", "name:en": "Frozen", "name:fr": "Frozen", "opening_hours": "Mo-Sa 11:00-21:00"}}, {"type": "node", "id": 4986258323, "lat": 34.443959, "lon": 35.8256635, "tags": {"amenity": "restaurant", "name": "\u0645\u064a\u0645\u0648\u0632", "name:ar": "\u0645\u064a\u0645\u0648\u0632", "name:de": "Mimoz", "name:en": "Mimoz", "name:es": "Mimoz", "name:fr": "Mimoz", "opening_hours": "Mo-Su 12:00-02:00", "shop": "mobile_phone"}}, {"type": "node", "id": 4986258326, "lat": 34.4429921, "lon": 35.8243933, "tags": {"amenity": "restaurant", "name": "Tabliyit Massaad", "name:en": "Tabliyit Massaad", "opening_hours": "Mo-Su 12:00-00:00"}}, {"type": "node", "id": 4986267092, "lat": 34.4421916, "lon": 35.8270582, "tags": {"amenity": "cafe", "name": "The Crow - Coffee Bar", "name:ar": "\u0627\u0644\u062a\u0627\u062c \u0643\u0627\u0641\u064a", "name:en": "The Crow - Coffee Bar", "name:fr": "crouron cafr", "opening_hours": "Mo-Su 08:00-01:00"}}, {"type": "node", "id": 5264026221, "lat": 34.4434958, "lon": 35.8304786, "tags": {"amenity": "cafe", "name": "\u0642\u0647\u0648\u0629 \u0623\u0628\u0648 \u0639\u0644\u064a", "name:ar": "\u0642\u0647\u0648\u0629 \u0623\u0628\u0648 \u0639\u0644\u064a", "name:de": "Caf\u00e9 Abou Ali", "name:en": "Caf\u00e9 Abou Ali", "name:fr": "Caf\u00e9 Abou Ali"}}, {"type": "node", "id": 5524103623, "lat": 34.4342975, "lon": 35.8553858, "tags": {"amenity": "restaurant", "name": "\u0631\u0646\u0648\u0634"}}, {"type": "node", "id": 5893235953, "lat": 34.4524099, "lon": 35.8159658, "tags": {"amenity": "cafe", "internet_access": "yes", "name": "Bond cafe", "name:en": "Bond cafe"}}, {"type": "node", "id": 5893291508, "lat": 34.4523111, "lon": 35.8155588, "tags": {"amenity": "restaurant"}}, {"type": "node", "id": 5893291509, "lat": 34.4524217, "lon": 35.815473, "tags": {"amenity": "restaurant"}}, {"type": "node", "id": 5893291510, "lat": 34.4521961, "lon": 35.8154462, "tags": {"amenity": "restaurant"}}, {"type": "node", "id": 5972123885, "lat": 34.4552372, "lon": 35.8117617, "tags": {"amenity": "cafe", "name": "Glace Balha", "name:en": "Glace Balha"}}, {"type": "node", "id": 6299527424, "lat": 34.4433042, "lon": 35.8260429, "tags": {"amenity": "cafe", "contact:phone": "+9616225002", "name": "Newtown Caffee", "name:ar": "\u0646\u064a\u0648\u062a\u0648\u0646", "outdoor_seating": "yes", "smoking": "outside", "wheelchair": "yes"}}, {"type": "node", "id": 6661626203, "lat": 34.4516821, "lon": 35.809451, "tags": {"amenity": "restaurant", "name": "Pizza kamel"}}, {"type": "node", "id": 6831000087, "lat": 34.4547701, "lon": 35.8098946, "tags": {"amenity": "cafe", "name": "Fanar Caf\u00e9", "name:en": "Fanar Caf\u00e9", "name:fr": "Fanar Caf\u00e9"}}, {"type": "node", "id": 6832903485, "lat": 34.4542121, "lon": 35.8100867, "tags": {"amenity": "cafe", "name": "Cultural Bistro", "name:en": "Cultural Bistro", "name:fr": "Cultural Bistro"}}, {"type": "node", "id": 6834529587, "lat": 34.4542981, "lon": 35.8094285, "tags": {"amenity": "restaurant", "name": "Silver Shore", "name:en": "Silver Shore", "name:fr": "Silver Shore"}}, {"type": "node", "id": 6834532087, "lat": 34.4543205, "lon": 35.8097231, "tags": {"amenity": "restaurant", "name": "Burj Al Samak", "name:en": "Burj Al Samak"}}, {"type": "node", "id": 6873231886, "lat": 34.4315267, "lon": 35.8406325, "tags": {"amenity": "cafe", "name": "Caf\u00e9 Moussa", "name:fr": "Caf\u00e9 Moussa"}}, {"type": "node", "id": 7449952889, "lat": 34.436895, "lon": 35.8712278}, {"type": "node", "id": 7449952890, "lat": 34.436807, "lon": 35.8713484}, {"type": "node", "id": 7449952891, "lat": 34.4366203, "lon": 35.8711482}, {"type": "node", "id": 7449952892, "lat": 34.4367083, "lon": 35.8710276}, {"type": "node", "id": 7449952893, "lat": 34.4371943, "lon": 35.871143}, {"type": "node", "id": 7449952894, "lat": 34.4373142, "lon": 35.871274}, {"type": "node", "id": 7449952895, "lat": 34.4371559, "lon": 35.8714871}, {"type": "node", "id": 7449952896, "lat": 34.437036, "lon": 35.8713561}, {"type": "node", "id": 8006361690, "lat": 34.4510526, "lon": 35.8177451, "tags": {"amenity": "restaurant", "name": "Abu Fadhi", "name:fr": "Abu Fadhi"}}, {"type": "node", "id": 8066784886, "lat": 34.4317752, "lon": 35.8403995, "tags": {"amenity": "restaurant", "name": "\u0627\u0641\u0631\u0627\u0646 \u0627\u0644\u0634\u0631\u0642"}}, {"type": "node", "id": 8066784986, "lat": 34.4312787, "lon": 35.8406135, "tags": {"amenity": "cafe", "name": "\u0642\u0647\u0648\u0629 \u0645\u0648\u0633\u0649", "name:ar": "\u0642\u0647\u0648\u0629 \u0645\u0648\u0633\u0649", "name:fr": "Caf\u00e9 Moussa"}}, {"type": "node", "id": 8158370769, "lat": 34.4514859, "lon": 35.8105378, "tags": {"amenity": "cafe", "name": "Groupy cafe", "name:ar": "\u0642\u0647\u0648\u0629 \u063a\u0631\u0648\u0628\u064a"}}, {"type": "node", "id": 8158370772, "lat": 34.4520322, "lon": 35.809084, "tags": {"amenity": "cafe", "name": "Le coin cafe", "name:en": "coin cafe"}}, {"type": "node", "id": 8158370774, "lat": 34.4516297, "lon": 35.8093281, "tags": {"amenity": "cafe", "name": "cheikh coffe"}}, {"type": "node", "id": 8158370777, "lat": 34.4478846, "lon": 35.8090567, "tags": {"amenity": "restaurant", "cuisine": "\u0641\u0648\u0644;\u062d\u0645\u0635;\u0641\u062a\u0629;\u0635\u0641\u0627\u0626\u062d", "name": "Al fanar restaurant"}}, {"type": "node", "id": 8158505245, "lat": 34.4370252, "lon": 35.8410291, "tags": {"amenity": "cafe", "name": "Al daraj cafe"}}, {"type": "node", "id": 8158505249, "lat": 34.4536662, "lon": 35.8082955, "tags": {"amenity": "restaurant", "name": "Diwan al ba7r", "name:ar": "\u062f\u064a\u0648\u0627\u0646 \u0627\u0644\u0628\u062d\u0631"}}, {"type": "node", "id": 8158505256, "lat": 34.4434214, "lon": 35.8143479, "tags": {"amenity": "cafe", "name": "Yamani caffe", "name:ar": "\u0627\u0644\u064a\u0645\u0646\u064a"}}, {"type": "node", "id": 8158767286, "lat": 34.4512797, "lon": 35.8092093, "tags": {"amenity": "cafe", "name": "VIP", "name:ar": "\u0641 \u064a \u0628"}}, {"type": "node", "id": 8158767294, "lat": 34.4480294, "lon": 35.8156754, "tags": {"amenity": "restaurant", "cuisine": "\u0641\u0648\u0644_\u0648_\u062d\u0645\u0635", "name": "Sabra", "name:ar": "\u0635\u0628\u0631\u0627", "name:en": "sabra"}}, {"type": "node", "id": 8164873867, "lat": 34.3958766, "lon": 35.8919067, "tags": {"amenity": "restaurant"}}, {"type": "node", "id": 8164873868, "lat": 34.3954952, "lon": 35.8928741, "tags": {"amenity": "restaurant"}}, {"type": "node", "id": 8164873874, "lat": 34.3975236, "lon": 35.8967274}, {"type": "node", "id": 8164873875, "lat": 34.3976245, "lon": 35.8968819}, {"type": "node", "id": 8164873876, "lat": 34.3974759, "lon": 35.8970245}, {"type": "node", "id": 8164873877, "lat": 34.397375, "lon": 35.89687}, {"type": "node", "id": 8164873878, "lat": 34.397553, "lon": 35.8967724}, {"type": "node", "id": 8164878156, "lat": 34.4038671, "lon": 35.8917328, "tags": {"amenity": "restaurant"}}, {"type": "node", "id": 8240253965, "lat": 34.3556867, "lon": 35.7323103, "tags": {"amenity": "restaurant", "name": "Tunel XTC"}}, {"type": "node", "id": 8240253990, "lat": 34.3580627, "lon": 35.7324639, "tags": {"amenity": "restaurant"}}, {"type": "node", "id": 8240253993, "lat": 34.3558426, "lon": 35.7317102, "tags": {"amenity": "restaurant"}}, {"type": "node", "id": 8262672000, "lat": 34.4426133, "lon": 35.8269146, "tags": {"amenity": "restaurant", "cuisine": "asian", "name": "the grill"}}, {"type": "node", "id": 8346440965, "lat": 34.4212695, "lon": 35.8306176, "tags": {"amenity": "restaurant", "name": "PISTACHIO"}}, {"type": "node", "id": 8455778336, "lat": 34.3511199, "lon": 35.7345655}, {"type": "node", "id": 8455778337, "lat": 34.3510986, "lon": 35.7346278}, {"type": "node", "id": 8455778338, "lat": 34.3510118, "lon": 35.7345725}, {"type": "node", "id": 8455778339, "lat": 34.3510732, "lon": 35.7345195}, {"type": "node", "id": 8458478320, "lat": 34.4422, "lon": 35.8137406}, {"type": "node", "id": 8458478321, "lat": 34.4420226, "lon": 35.8144484}, {"type": "node", "id": 8458478322, "lat": 34.4414482, "lon": 35.8142106}, {"type": "node", "id": 8458478323, "lat": 34.441635, "lon": 35.813548}, {"type": "node", "id": 8458547549, "lat": 34.4503048, "lon": 35.808384}, {"type": "node", "id": 8458547550, "lat": 34.450258, "lon": 35.8085644}, {"type": "node", "id": 8458547551, "lat": 34.4500056, "lon": 35.8084995}, {"type": "node", "id": 8458547552, "lat": 34.450019, "lon": 35.8083597}, {"type": "node", "id": 8458547553, "lat": 34.4501711, "lon": 35.8082907}, {"type": "node", "id": 8458547554, "lat": 34.4502964, "lon": 35.8083455}, {"type": "node", "id": 8458547556, "lat": 34.4500641, "lon": 35.8080029, "tags": {"amenity": "restaurant", "name": "\u0627\u0644\u0645\u0646\u0627\u0631\u0629"}}, {"type": "node", "id": 8458547557, "lat": 34.4494056, "lon": 35.8080678, "tags": {"amenity": "restaurant", "name": "\u0627\u0644\u0645\u062d\u0631\u0645\u062c\u064a"}}, {"type": "node", "id": 8458547559, "lat": 34.4479548, "lon": 35.8093184, "tags": {"amenity": "cafe", "name": "\u0643\u0627\u0633\u062a\u0627\u0644\u0648"}}, {"type": "node", "id": 8572141003, "lat": 34.4511773, "lon": 35.8174329, "tags": {"amenity": "restaurant", "name": "\u0645\u0637\u0639\u0645 \u0641\u0627\u062f\u064a"}}, {"type": "node", "id": 8572210198, "lat": 34.4503554, "lon": 35.8126611, "tags": {"amenity": "restaurant", "cuisine": "american", "name": "public"}}, {"type": "node", "id": 8680630705, "lat": 34.4443958, "lon": 35.8258546, "tags": {"amenity": "restaurant", "name": "\u0627\u0644\u0641\u064a\u0635\u0644"}}, {"type": "node", "id": 9019792628, "lat": 34.4444256, "lon": 35.8259505, "tags": {"amenity": "restaurant", "name": "\u0645\u0637\u0639\u0645 \u0627\u0644\u0641\u064a\u0635\u0644 \u0637\u0631\u0627\u0628\u0644\u0633"}}, {"type": "node", "id": 9127847689, "lat": 34.3038064, "lon": 35.8533541, "tags": {"amenity": "cafe", "name": "Gramps"}}, {"type": "node", "id": 9127847691, "lat": 34.3045627, "lon": 35.8553855, "tags": {"amenity": "restaurant", "name": "The Village", "name:en": "The Village", "name:fr": "The Village"}}, {"type": "node", "id": 9127847692, "lat": 34.3027754, "lon": 35.8497707, "tags": {"amenity": "restaurant", "name": "Gate Resto-Cafe"}}, {"type": "node", "id": 9127847693, "lat": 34.303251, "lon": 35.8499889, "tags": {"amenity": "restaurant", "name": "Sadat"}}, {"type": "node", "id": 9127847694, "lat": 34.3034401, "lon": 35.8504645, "tags": {"amenity": "restaurant", "name": "sitndip"}}, {"type": "node", "id": 9127847695, "lat": 34.3029438, "lon": 35.8491234, "tags": {"amenity": "restaurant", "name": "Lounge 829"}}, {"type": "node", "id": 9127847700, "lat": 34.2979214, "lon": 35.8447067, "tags": {"amenity": "restaurant", "name": "Capri", "name:en": "Capri", "name:fr": "Capri"}}, {"type": "node", "id": 9127847702, "lat": 34.2978741, "lon": 35.8449177, "tags": {"amenity": "restaurant", "name": "Al Boustany Restaurant", "name:en": "Al Boustany Restaurant"}}, {"type": "node", "id": 9127847708, "lat": 34.3039571, "lon": 35.8523814, "tags": {"amenity": "restaurant", "name": "La Tanya"}}, {"type": "node", "id": 9127847709, "lat": 34.3038212, "lon": 35.8518879, "tags": {"amenity": "restaurant", "name": "Chez Serge"}}, {"type": "node", "id": 9127848953, "lat": 34.298838, "lon": 35.8201421, "tags": {"amenity": "restaurant", "name": "Jessy Juice"}}, {"type": "node", "id": 9127848955, "lat": 34.2993432, "lon": 35.8139337, "tags": {"amenity": "cafe", "brand": "Starbucks", "brand:fr": "Starbucks", "brand:wikidata": "Q37158", "brand:wikipedia": "fr:Starbucks", "cuisine": "coffee_shop", "name": "Starbucks", "name:fr": "Starbucks", "official_name": "Starbucks Coffee", "official_name:es": "Caf\u00e9 Starbucks", "official_name:fr": "Caf\u00e9 Starbucks", "takeaway": "yes"}}, {"type": "node", "id": 9127848961, "lat": 34.3409918, "lon": 35.7337636}, {"type": "node", "id": 9127848962, "lat": 34.3424469, "lon": 35.7336724}, {"type": "node", "id": 9127848963, "lat": 34.3424941, "lon": 35.7345594}, {"type": "node", "id": 9127848964, "lat": 34.3410096, "lon": 35.7346309}, {"type": "node", "id": 9127848965, "lat": 34.3414311, "lon": 35.7336984}, {"type": "node", "id": 9271879256, "lat": 34.4433452, "lon": 35.8259909, "tags": {"addr:city": "Tripoli", "addr:housenumber": "1300", "addr:postcode": "1300", "addr:street": "\u0634\u0627\u0631\u0639 \u0631\u064a\u0627\u0636 \u0627\u0644\u0635\u0644\u062d", "amenity": "cafe", "contact:phone": "+9616225002", "contact:website": "http://newtown.wheeeze.site/", "cuisine": "coffee_shop", "name": "Newtown Specialty Coffee Roasters,\u060c Mina 1300", "opening_hours": "Mo-Su 08:00-22:00", "outdoor_seating": "no"}}, {"type": "node", "id": 9668013987, "lat": 34.3011059, "lon": 35.7841584, "tags": {"amenity": "restaurant", "name": "Pizza Napoli"}}, {"type": "node", "id": 9668025024, "lat": 34.3223495, "lon": 35.7373934, "tags": {"amenity": "restaurant", "name": "Tasty Chicken"}}, {"type": "node", "id": 10314579007, "lat": 34.3096868, "lon": 35.6941913}, {"type": "node", "id": 10314579008, "lat": 34.3096363, "lon": 35.6940332}, {"type": "node", "id": 10314648413, "lat": 34.3095347, "lon": 35.6940874}, {"type": "node", "id": 10314648416, "lat": 34.3095843, "lon": 35.6942429}, {"type": "node", "id": 10836808431, "lat": 34.4783694, "lon": 35.9468904, "tags": {"addr:city": "Minieh", "addr:street": "minieh-danieh highway", "amenity": "cafe", "name": "Liwan"}}, {"type": "node", "id": 11281356890, "lat": 34.4329191, "lon": 35.8135517}, {"type": "node", "id": 11281356891, "lat": 34.4330423, "lon": 35.8140075}, {"type": "node", "id": 11281356892, "lat": 34.4333458, "lon": 35.8138786}, {"type": "node", "id": 11281356893, "lat": 34.4332364, "lon": 35.8134116}, {"type": "node", "id": 11304544065, "lat": 34.3606249, "lon": 35.7310467, "tags": {"amenity": "restaurant", "name": "Wassim Aal Baher", "name:en": "Wassim Aal Baher", "name:fr": "Wassim Aal Baher"}}, {"type": "node", "id": 12841722392, "lat": 34.45108, "lon": 35.8182702}, {"type": "node", "id": 12841722393, "lat": 34.4507826, "lon": 35.8182806}, {"type": "node", "id": 12841722394, "lat": 34.4508471, "lon": 35.8180126}, {"type": "node", "id": 12841722395, "lat": 34.4509806, "lon": 35.8180598}, {"type": "node", "id": 12841722396, "lat": 34.4509418, "lon": 35.8182213}, {"type": "node", "id": 12841726341, "lat": 34.4514979, "lon": 35.8165592, "tags": {"addr:city": "\u0627\u0644\u0645\u064a\u0646\u0627\u0621", "addr:place": "\u0627\u0644\u0645\u064a\u0646\u0627\u0621", "addr:postcode": "1301", "amenity": "restaurant", "contact:phone": "+9616601925", "name": "\u0645\u0644\u062d\u0645\u0629 \u0627\u0644\u062d\u0627\u062c \u0639\u0648\u0646\u064a \u0644\u0628\u062f\u0629 \u0648\u0623\u0648\u0644\u0627\u062f\u0647"}}, {"type": "node", "id": 12869459546, "lat": 34.4510543, "lon": 35.8183768}, {"type": "way", "id": 309688042, "nodes": [3150216119, 3150216120, 3150216121, 3150216122, 3150216119], "tags": {"amenity": "restaurant", "building": "yes"}}, {"type": "way", "id": 796587436, "nodes": [7449952889, 7449952890, 7449952891, 7449952892, 7449952889], "tags": {"amenity": "restaurant", "building": "yes"}}, {"type": "way", "id": 796587437, "nodes": [7449952893, 7449952894, 7449952895, 7449952896, 7449952893], "tags": {"amenity": "restaurant", "building": "yes"}}, {"type": "way", "id": 877543654, "nodes": [8164873874, 8164873878, 8164873875, 8164873876, 8164873877, 8164873874], "tags": {"amenity": "restaurant", "building": "yes"}}, {"type": "way", "id": 910646981, "nodes": [8455778336, 8455778337, 8455778338, 8455778339, 8455778336], "tags": {"amenity": "cafe", "building": "yes"}}, {"type": "way", "id": 910919628, "nodes": [8458478320, 8458478321, 8458478322, 8458478323, 8458478320], "tags": {"amenity": "cafe", "building": "yes", "name": "\u0645\u0642\u0627\u0647\u064a \u0627\u0644\u0628\u062d\u0631"}}, {"type": "way", "id": 910928576, "nodes": [8458547549, 8458547550, 8458547551, 8458547552, 8458547553, 8458547554, 8458547549], "tags": {"amenity": "restaurant", "building": "yes"}}, {"type": "way", "id": 987515254, "nodes": [9127848962, 9127848963, 9127848964, 9127848961, 9127848965, 9127848962], "tags": {"amenity": "restaurant", "building": "yes", "name": "Napoli Land"}}, {"type": "way", "id": 1128215702, "nodes": [10314579008, 10314648413, 10314648416, 10314579007, 10314579008], "tags": {"amenity": "cafe", "building": "yes"}}, {"type": "way", "id": 1217529638, "nodes": [11281356890, 11281356891, 11281356892, 11281356893, 11281356890], "tags": {"amenity": "restaurant", "building": "yes", "name": "Sea Side"}}, {"type": "way", "id": 1387207179, "nodes": [12841722392, 12869459546, 12841722393, 12841722394, 12841722395, 12841722396, 12841722392], "tags": {"addr:city": "\u0637\u0631\u0627\u0628\u0644\u0633", "addr:housenumber": "902", "addr:street": "\u0637\u0631\u064a\u0642 \u0627\u0644\u0628\u062d\u0631", "amenity": "restaurant", "building": "yes", "cuisine": "burger", "diet:halal": "yes"}}]}