{"version": 0.6, "generator": "Overpass API 0.7.62.7 375dc00a", "osm3s": {"timestamp_osm_base": "2025-06-14T15:19:03Z", "copyright": "The data included in this document is from www.openstreetmap.org. The data is made available under ODbL."}, "elements": [{"type": "node", "id": 683486435, "lat": 33.8453627, "lon": 35.9040387, "tags": {"addr:postcode": "1801", "amenity": "cafe", "name": "\u062f\u0646\u0643\u0646 \u062f\u0648\u0646\u062a", "name:ar": "\u062f\u0646\u0643\u0646 \u062f\u0648\u0646\u062a", "name:en": "Dunkin' Donuts"}}, {"type": "node", "id": 683486449, "lat": 33.8454939, "lon": 35.9037861, "tags": {"addr:postcode": "1801", "amenity": "cafe", "name": "\u062d\u0644\u0648\u064a\u0627\u062a \u0627\u0644\u0628\u062d\u0631", "name:ar": "\u062d\u0644\u0648\u064a\u0627\u062a \u0627\u0644\u0628\u062d\u0631", "name:en": "Sea Sweet"}}, {"type": "node", "id": 683486450, "lat": 33.8487269, "lon": 35.8977321, "tags": {"amenity": "cafe", "name": "\u0623\u0648\u0644\u062f \u0623\u0631\u0628\u0633\u0643 \u0643\u0627\u0641\u064a", "name:ar": "\u0623\u0648\u0644\u062f \u0623\u0631\u0628\u0633\u0643 \u0643\u0627\u0641\u064a", "name:en": "Old Arabesque Caf\u00e9", "name:fr": "Old Arabesque Caf\u00e9"}}, {"type": "node", "id": 683493228, "lat": 34.0056829, "lon": 36.205186, "tags": {"amenity": "cafe"}}, {"type": "node", "id": 993839762, "lat": 33.8596479, "lon": 36.005397, "tags": {"amenity": "restaurant", "name": "\u0645\u0637\u0639\u0645 \u0631\u064a\u0645\u0648\u0646", "name:ar": "\u0645\u0637\u0639\u0645 \u0631\u064a\u0645\u0648\u0646", "name:en": "Raymond's Restaurant", "name:fr": "Raymond's Restaurant"}}, {"type": "node", "id": 1199172909, "lat": 33.8181977, "lon": 35.8442529, "tags": {"addr:city": "\u0632\u0628\u062f\u0644", "amenity": "cafe", "name": "\u062f\u0627\u0646\u0643\u0646 \u062f\u0648\u0646\u062a\u0633", "name:ar": "\u062f\u0627\u0646\u0643\u0646 \u062f\u0648\u0646\u062a\u0633", "name:en": "Dunkin' Donuts"}}, {"type": "node", "id": 1199172919, "lat": 33.8177617, "lon": 35.8441195, "tags": {"amenity": "restaurant", "cuisine": "seafood", "name": "Sailor's Seafood", "name:en": "Sailor's Seafood"}}, {"type": "node", "id": 3059602752, "lat": 33.8172199, "lon": 35.8644781, "tags": {"amenity": "restaurant", "name": "quick meal", "name:en": "quick meal"}}, {"type": "node", "id": 3060487217, "lat": 33.8417023, "lon": 35.9107165, "tags": {"amenity": "restaurant", "name": "Always", "name:en": "Always", "name:fr": "Always"}}, {"type": "node", "id": 3060550529, "lat": 33.8554636, "lon": 35.8933102, "tags": {"addr:city": "Zahl\u00e9", "amenity": "restaurant", "name": "Qoreitem", "name:en": "Qoreitem", "name:fr": "Qoreitem"}}, {"type": "node", "id": 3061149145, "lat": 33.8327226, "lon": 35.9055096, "tags": {"addr:country": "LB", "amenity": "cafe", "name": "Caf\u00e9 Sea Sweet", "name:fr": "Caf\u00e9 Sea Sweet"}}, {"type": "node", "id": 3094108004, "lat": 33.834963, "lon": 35.9003253, "tags": {"addr:country": "LB", "amenity": "restaurant", "name": "Tilal Ksara", "name:en": "Tilal Ksara", "name:fr": "Tilal Ksara"}}, {"type": "node", "id": 3740222244, "lat": 33.8562948, "lon": 35.8932391, "tags": {"addr:city": "Zahl\u00e9", "amenity": "restaurant"}}, {"type": "node", "id": 3740361164, "lat": 33.8546367, "lon": 35.8947132, "tags": {"amenity": "restaurant", "name": "Burger House", "name:en": "Burger House", "name:fr": "Burger House"}}, {"type": "node", "id": 3740361165, "lat": 33.8547032, "lon": 35.8945703, "tags": {"addr:city": "Zahl\u00e9", "amenity": "cafe"}}, {"type": "node", "id": 4107240197, "lat": 33.8349673, "lon": 35.9056496, "tags": {"amenity": "restaurant", "name": "Tabliyet Massaad Zahl\u00e9", "name:en": "Tabliyet Massaad Zahl\u00e9"}}, {"type": "node", "id": 4361414995, "lat": 33.999309, "lon": 36.215928, "tags": {"amenity": "restaurant", "name": "\u0627\u0644\u0646\u0648\u0631\u0633", "name:en": "al nawras"}}, {"type": "node", "id": 4709619991, "lat": 34.0704687, "lon": 36.202951, "tags": {"addr:city": "\u0645\u0642\u0646\u0629", "amenity": "restaurant", "name": "\u062c\u0633\u0648\u0631", "name:ar": "\u062c\u0633\u0648\u0631"}}, {"type": "node", "id": 5306267537, "lat": 33.9999087, "lon": 36.19418, "tags": {"amenity": "restaurant", "name": "COMIDA LOCAL EN BAALBEK", "name:es": "COMIDA LOCAL EN BAALBEK"}}, {"type": "node", "id": 5377593721, "lat": 34.0064565, "lon": 36.2068117, "tags": {"addr:postcode": "1800", "amenity": "restaurant", "internet_access": "wlan", "name": "Tavern Cesar"}}, {"type": "node", "id": 5503404301, "lat": 33.887945, "lon": 35.9399987}, {"type": "node", "id": 5503404302, "lat": 33.8878022, "lon": 35.9401396}, {"type": "node", "id": 5503404303, "lat": 33.8878887, "lon": 35.9402667}, {"type": "node", "id": 5503404304, "lat": 33.8879851, "lon": 35.9400576}, {"type": "node", "id": 5589132922, "lat": 33.8326908, "lon": 35.9052442, "tags": {"amenity": "cafe", "name": "Salon du caf\u00e9", "name:en": "Salon du caf\u00e9", "name:fr": "Salon du caf\u00e9"}}, {"type": "node", "id": 5592860621, "lat": 33.8325901, "lon": 35.9052895, "tags": {"amenity": "restaurant", "cuisine": "japanese", "name": "Ichiban express", "name:en": "Ichiban express", "name:fr": "Ichiban express"}}, {"type": "node", "id": 5594895221, "lat": 33.849315, "lon": 35.8973442, "tags": {"amenity": "restaurant", "cuisine": "lebanese", "name": "Beit El-Seit", "name:en": "Beit El-Seit", "name:fr": "Beit El-Seit"}}, {"type": "node", "id": 5629429321, "lat": 33.8428186, "lon": 35.8918078, "tags": {"amenity": "restaurant", "cuisine": "lebanese", "name": "Tallet Abou Zeid", "name:en": "Tallet Abou Zeid", "name:fr": "Tallet Abou Zeid"}}, {"type": "node", "id": 5629429322, "lat": 33.8283499, "lon": 35.8980284, "tags": {"amenity": "restaurant", "name": "Tanbakji", "name:en": "Tanbakji", "name:fr": "Tanbakji"}}, {"type": "node", "id": 5838641602, "lat": 33.9337503, "lon": 36.1527509, "tags": {"addr:city": "\u0628\u0631\u064a\u062a\u0627\u0644", "amenity": "restaurant", "contact:phone": "+961 1 071 719", "name": "\u0628\u0648\u0631\u063a\u0631 \u0647\u0648\u0633", "name:ar": "\u0628\u0648\u0631\u063a\u0631 \u0647\u0648\u0633", "opening_hours": "Tu 08:00-03:00"}}, {"type": "node", "id": 5838641629, "lat": 33.9338405, "lon": 36.1529713, "tags": {"addr:city": "\u0628\u0631\u064a\u062a\u0627\u0644", "amenity": "restaurant", "contact:mobile": "+96170176304", "name": "\u0645\u0637\u0639\u0645 \u0623\u0628\u0648 \u0641\u064a\u0627\u0636 \u0641\u0631\u0639 (1)", "name:ar": "\u0645\u0637\u0639\u0645 \u0623\u0628\u0648 \u0641\u064a\u0627\u0636 \u0641\u0631\u0639 (1)", "opening_hours": "Mo-Su 10:00-01:00"}}, {"type": "node", "id": 5838641791, "lat": 33.9348513, "lon": 36.1501331, "tags": {"addr:city": "\u0628\u0631\u064a\u062a\u0627\u0644", "amenity": "restaurant", "contact:mobile": "+961 70 331 113", "name": "\u0645\u0637\u0639\u0645 \u0627\u0644\u062e\u0648\u0627\u062c\u0629", "name:ar": "\u0645\u0637\u0639\u0645 \u0627\u0644\u062e\u0648\u0627\u062c\u0629", "opening_hours": "Mo-Su 12:00-24:00"}}, {"type": "node", "id": 5838641802, "lat": 33.9349517, "lon": 36.1499443, "tags": {"addr:city": "\u0628\u0631\u064a\u062a\u0627\u0644", "amenity": "cafe", "contact:mobile": "+96178969363", "name": "\u0633\u062a\u064a \u0643\u0641\u064a", "name:ar": "\u0633\u062a\u064a \u0643\u0641\u064a", "opening_hours": "Mo-Su 08:00-01:00"}}, {"type": "node", "id": 5838807623, "lat": 33.988345, "lon": 36.1788935, "tags": {"addr:city": "\u062f\u0648\u0631\u0633", "amenity": "cafe", "name": "\u0645\u0642\u0647\u0649 \u062f\u0648\u0631\u0633", "name:ar": "\u0645\u0642\u0647\u0649 \u062f\u0648\u0631\u0633"}}, {"type": "node", "id": 5839815861, "lat": 33.9861165, "lon": 36.1352018, "tags": {"addr:city": "\u0645\u062c\u062f\u0644\u0648\u0646", "amenity": "restaurant", "contact:mobile": "+96170171 893", "name": "\u0635\u0627\u062c \u0648\u0627\u0633\u062a\u0631\u0627\u062d\u0629 \u0627\u0644\u0636\u064a\u0639\u0629", "name:ar": "\u0635\u0627\u062c \u0648\u0627\u0633\u062a\u0631\u0627\u062d\u0629 \u0627\u0644\u0636\u064a\u0639\u0629", "opening_hours": "Mo-Su 07:00-02:00"}}, {"type": "node", "id": 5857341125, "lat": 33.9868411, "lon": 36.0256466, "tags": {"addr:city": "\u0637\u0627\u0631\u064a\u0627", "alt_name:ar": "\u0645\u0637\u0639\u0645 \u0623\u0628\u0648\u0623\u062f\u0647\u0645 \u0644\u0644\u0635\u0641\u064a\u062d\u0629 \u0627\u0644\u0628\u0639\u0644\u0628\u0643\u064a\u0629", "amenity": "restaurant", "name": "\u0645\u0637\u0639\u0645 \u0623\u0628\u0648 \u0623\u062f\u0647\u0645 \u0644\u0644\u0635\u0641\u064a\u062d\u0629 \u0627\u0644\u0628\u0639\u0644\u0628\u0643\u064a\u0629", "name:ar": "\u0645\u0637\u0639\u0645 \u0623\u0628\u0648 \u0623\u062f\u0647\u0645 \u0644\u0644\u0635\u0641\u064a\u062d\u0629 \u0627\u0644\u0628\u0639\u0644\u0628\u0643\u064a\u0629"}}, {"type": "node", "id": 6023991286, "lat": 33.8446649, "lon": 35.9050703, "tags": {"amenity": "cafe", "name": "\u0645\u0633\u0639\u062f", "name:ar": "\u0645\u0633\u0639\u062f", "name:en": "Masaad", "name:fr": "Masaad"}}, {"type": "node", "id": 6034153288, "lat": 34.2077717, "lon": 35.9384662, "tags": {"addr:street": "Lebanon Mountain Trail Section 9", "amenity": "restaurant", "cuisine": "lebanese;local", "name": "Manoucheh", "name:en": "Manoucheh", "name:fr": "Manoucheh"}}, {"type": "node", "id": 6390245285, "lat": 33.9934965, "lon": 36.1757699, "tags": {"amenity": "restaurant", "cuisine": "lebanese", "name": "Lakkis Farm", "name:en": "Lakkis Farm"}}, {"type": "node", "id": 7305389709, "lat": 33.8364599, "lon": 35.9104683, "tags": {"addr:city": "Zahl\u00e9", "addr:postcode": "1801", "addr:street": "Rue Haouch El Oumara", "amenity": "cafe", "contact:instagram": "https://instagram.com/breadnbeans_zahle", "contact:mobile": "+96170465445", "name": "Bread & Beans", "name:en": "Bread & Beans", "name:fr": "Bread & Beans"}}, {"type": "node", "id": 7914946285, "lat": 33.8573761, "lon": 35.8926241, "tags": {"addr:city": "Zahl\u00e9", "amenity": "restaurant", "name": "\u0643\u0627\u0632\u064a\u0646\u0648 \u0646\u0645\u064a\u0631 \u0632\u062d\u0644\u0629", "name:ar": "\u0643\u0627\u0632\u064a\u0646\u0648 \u0646\u0645\u064a\u0631 \u0632\u062d\u0644\u0629", "name:fr": "Casino Nmeir Zahl\u00e9"}}, {"type": "node", "id": 8049636923, "lat": 33.7966561, "lon": 35.947431, "tags": {"amenity": "restaurant", "name": "ahl al-raya restuarant"}}, {"type": "node", "id": 8245813242, "lat": 33.8005754, "lon": 35.8695578, "tags": {"amenity": "restaurant", "name": "restaurant khan-akmoaksoud"}}, {"type": "node", "id": 8245813261, "lat": 33.8139867, "lon": 35.8542197, "tags": {"amenity": "restaurant", "name": "Naeme restaurant"}}, {"type": "node", "id": 8245813263, "lat": 33.814166, "lon": 35.8544355, "tags": {"amenity": "restaurant", "name": "Al Kawthar"}}, {"type": "node", "id": 8245813264, "lat": 33.8144184, "lon": 35.8549419, "tags": {"amenity": "restaurant", "name": "Snack Adam"}}, {"type": "node", "id": 8245813265, "lat": 33.814777, "lon": 35.8552281, "tags": {"amenity": "restaurant", "name": "Pizza Dinapoli"}}, {"type": "node", "id": 8245813268, "lat": 33.8154721, "lon": 35.8527225, "tags": {"amenity": "restaurant", "name": "baba ghannouj"}}, {"type": "node", "id": 8245813269, "lat": 33.8157977, "lon": 35.852586, "tags": {"amenity": "cafe", "name": "Green's Cafe"}}, {"type": "node", "id": 8245813273, "lat": 33.8163539, "lon": 35.8500363, "tags": {"amenity": "restaurant", "name": "sea sweet"}}, {"type": "node", "id": 8245813275, "lat": 33.8173344, "lon": 35.84868, "tags": {"amenity": "restaurant", "name": "Malak Al-tawouk"}}, {"type": "node", "id": 8245813276, "lat": 33.8174807, "lon": 35.8475791, "tags": {"amenity": "restaurant", "name": "Phillys'"}}, {"type": "node", "id": 8245813278, "lat": 33.8175868, "lon": 35.8467028, "tags": {"amenity": "cafe", "brand:fr": "Starbucks", "brand:wikidata": "Q37158", "brand:wikipedia": "fr:Starbucks", "name": "Starbucks", "name:fr": "Starbucks", "official_name:es": "Caf\u00e9 Starbucks", "official_name:fr": "Caf\u00e9 Starbucks"}}, {"type": "node", "id": 8245813281, "lat": 33.8180112, "lon": 35.8444437, "tags": {"amenity": "restaurant", "name": "Alturki"}}, {"type": "node", "id": 8245813282, "lat": 33.8181758, "lon": 35.8434529, "tags": {"amenity": "restaurant", "name": "Al-ekhlas"}}, {"type": "node", "id": 8245813284, "lat": 33.8206004, "lon": 35.8469111, "tags": {"amenity": "restaurant", "name": "sama chtoura"}}, {"type": "node", "id": 8245813285, "lat": 33.81813, "lon": 35.8418134, "tags": {"amenity": "restaurant", "name": "Lakkis farm"}}, {"type": "node", "id": 8245813286, "lat": 33.8178986, "lon": 35.8407842, "tags": {"amenity": "restaurant", "name": "jarjora-restaurant"}}, {"type": "node", "id": 8310580500, "lat": 33.817989, "lon": 35.8409894, "tags": {"amenity": "restaurant", "name": "rst chehadi hache"}}, {"type": "node", "id": 8310580503, "lat": 33.8169592, "lon": 35.8386757, "tags": {"amenity": "restaurant", "name": "ain barake"}}, {"type": "node", "id": 8310580505, "lat": 33.8170202, "lon": 35.8379504, "tags": {"amenity": "restaurant", "name": "mahatat loubnan"}}, {"type": "node", "id": 8310580507, "lat": 33.8172872, "lon": 35.8376658, "tags": {"amenity": "restaurant", "name": "abo arab bakery"}}, {"type": "node", "id": 8310580509, "lat": 33.8162422, "lon": 35.8375005, "tags": {"amenity": "cafe", "name": "choucri hamasni 1880"}}, {"type": "node", "id": 8310580512, "lat": 33.8145176, "lon": 35.8337028, "tags": {"amenity": "restaurant", "name": "Chtaurama"}}, {"type": "node", "id": 8571776122, "lat": 33.8153406, "lon": 35.8587328, "tags": {"amenity": "restaurant", "name": "al shams chicken and sandwiches chtoura"}}, {"type": "node", "id": 8571776124, "lat": 33.8148405, "lon": 35.8594764, "tags": {"amenity": "cafe", "name": "finjani cafe"}}, {"type": "node", "id": 8571776125, "lat": 33.8160678, "lon": 35.8620008, "tags": {"amenity": "restaurant", "name": "just..mankooshe"}}, {"type": "node", "id": 8571776131, "lat": 33.8168537, "lon": 35.8640041, "tags": {"amenity": "restaurant", "name": "al-noor restuarant"}}, {"type": "node", "id": 8571776134, "lat": 33.8174127, "lon": 35.8660353, "tags": {"amenity": "restaurant", "name": "Hawana lebanese"}}, {"type": "node", "id": 8571776135, "lat": 33.8175682, "lon": 35.8669383, "tags": {"amenity": "restaurant", "name": "chaaban chicken"}}, {"type": "node", "id": 8571776142, "lat": 33.8180957, "lon": 35.8730671, "tags": {"amenity": "restaurant", "name": "TOP BAKER"}}, {"type": "node", "id": 8872427124, "lat": 33.8189502, "lon": 35.8786929, "tags": {"amenity": "restaurant", "name": "Dab BBQ"}}, {"type": "node", "id": 8872427136, "lat": 33.8203321, "lon": 35.8777938, "tags": {"amenity": "cafe", "name": "taza-taza"}}, {"type": "node", "id": 8872427139, "lat": 33.8207493, "lon": 35.8818995, "tags": {"amenity": "restaurant"}}, {"type": "node", "id": 8872427141, "lat": 33.8213768, "lon": 35.8805039, "tags": {"amenity": "restaurant", "name": "chicken-plus"}}, {"type": "node", "id": 8872427142, "lat": 33.8217572, "lon": 35.8803116, "tags": {"amenity": "restaurant", "name": "al-madina"}}, {"type": "node", "id": 8872427156, "lat": 33.8293603, "lon": 35.8871839, "tags": {"amenity": "cafe", "name": "bilal al-houssein"}}, {"type": "node", "id": 8872427164, "lat": 33.8260518, "lon": 35.895048, "tags": {"amenity": "restaurant", "name": "Patchi", "name:fr": "Patchi"}}, {"type": "node", "id": 8956904273, "lat": 33.8257744, "lon": 35.8989003, "tags": {"amenity": "restaurant", "name": "chamsine"}}, {"type": "node", "id": 8956904279, "lat": 33.8274072, "lon": 35.8968376, "tags": {"amenity": "restaurant", "name": "la tour"}}, {"type": "node", "id": 8956904287, "lat": 33.8276141, "lon": 35.9034807, "tags": {"amenity": "restaurant", "name": "poul d'or zahleh"}}, {"type": "node", "id": 8956904291, "lat": 33.8341772, "lon": 35.902824, "tags": {"amenity": "restaurant"}}, {"type": "node", "id": 8956904292, "lat": 33.8326218, "lon": 35.9041918, "tags": {"amenity": "restaurant"}}, {"type": "node", "id": 8956904294, "lat": 33.8326384, "lon": 35.9051745, "tags": {"amenity": "restaurant", "name": "dipndip", "name:fr": "dipndip"}}, {"type": "node", "id": 8956904295, "lat": 33.8349493, "lon": 35.9062634, "tags": {"amenity": "restaurant"}}, {"type": "node", "id": 8956904296, "lat": 33.8349604, "lon": 35.9039394, "tags": {"amenity": "restaurant", "cuisine": "chicken", "name": "Chick & Chick", "name:fr": "Chick & Chick"}}, {"type": "node", "id": 8956904297, "lat": 33.8345688, "lon": 35.9032954, "tags": {"amenity": "restaurant", "name": "Daze", "name:fr": "Daze"}}, {"type": "node", "id": 8956904304, "lat": 33.8341452, "lon": 35.9131764, "tags": {"amenity": "cafe", "name": "zahle cafe"}}, {"type": "node", "id": 8956904308, "lat": 33.8344326, "lon": 35.917175, "tags": {"amenity": "restaurant", "cuisine": "chicken;barbecue", "name": "Chicken Barbecue", "name:en": "Chicken Barbecue", "name:fr": "Chicken Barbecue"}}, {"type": "node", "id": 8956904311, "lat": 33.8363382, "lon": 35.9151885, "tags": {"amenity": "restaurant"}}, {"type": "node", "id": 8956904316, "lat": 33.8394328, "lon": 35.9211775, "tags": {"amenity": "restaurant"}}, {"type": "node", "id": 9135247264, "lat": 33.8412823, "lon": 35.9111137, "tags": {"amenity": "restaurant", "name": "Always", "name:fr": "Always"}}, {"type": "node", "id": 9135247269, "lat": 33.843996, "lon": 35.9072882, "tags": {"amenity": "cafe"}}, {"type": "node", "id": 9135247270, "lat": 33.8443089, "lon": 35.9056455, "tags": {"amenity": "cafe", "name": "Caf\u00e9 Crystal", "name:fr": "Caf\u00e9 Crystal"}}, {"type": "node", "id": 9135247273, "lat": 33.8447235, "lon": 35.9062899, "tags": {"amenity": "cafe"}}, {"type": "node", "id": 9135247279, "lat": 33.8506141, "lon": 35.8973866, "tags": {"amenity": "restaurant", "name": "pravda valley"}}, {"type": "node", "id": 9135247280, "lat": 33.8492687, "lon": 35.8985165, "tags": {"amenity": "restaurant", "name": "Salon des Famillies", "name:fr": "Salon des Famillies"}}, {"type": "node", "id": 9135247281, "lat": 33.8497059, "lon": 35.8970099, "tags": {"amenity": "restaurant", "name": "Beit el-Set", "name:fr": "Beit el-Set"}}, {"type": "node", "id": 9135247283, "lat": 33.8517146, "lon": 35.8951494, "tags": {"amenity": "restaurant", "name": "Germanos", "name:fr": "Germanos"}}, {"type": "node", "id": 9174683717, "lat": 33.8181233, "lon": 35.8428111, "tags": {"amenity": "restaurant", "name": "\u0645\u0637\u0639\u0645 \u0644\u0626\u064a\u0633 \u0645\u0646\u0637\u0642\u0629 \u0634\u062a\u0648\u0631\u0627"}}, {"type": "node", "id": 9293080709, "lat": 33.8163802, "lon": 35.86236, "tags": {"amenity": "restaurant", "name": "AalBal"}}, {"type": "node", "id": 9381360508, "lat": 33.8149552, "lon": 35.8630068, "tags": {"amenity": "cafe", "name": "Qahwat AlKoukh"}}, {"type": "node", "id": 10862302931, "lat": 33.8523973, "lon": 35.8959456}, {"type": "node", "id": 10862302932, "lat": 33.8523906, "lon": 35.8957558}, {"type": "node", "id": 10862302933, "lat": 33.852476, "lon": 35.8957238}, {"type": "node", "id": 10862302934, "lat": 33.8525087, "lon": 35.8957348}, {"type": "node", "id": 10862302935, "lat": 33.852517, "lon": 35.8957625}, {"type": "node", "id": 10862302936, "lat": 33.852539, "lon": 35.89576}, {"type": "node", "id": 10862302937, "lat": 33.8525597, "lon": 35.8957818}, {"type": "node", "id": 10862302938, "lat": 33.8525644, "lon": 35.8958148}, {"type": "node", "id": 10862302939, "lat": 33.8525597, "lon": 35.8958421}, {"type": "node", "id": 10862302940, "lat": 33.852539, "lon": 35.8958518}, {"type": "node", "id": 10862302941, "lat": 33.8525216, "lon": 35.8958478}, {"type": "node", "id": 10862302942, "lat": 33.852527, "lon": 35.8959057}, {"type": "node", "id": 10877647529, "lat": 33.8403748, "lon": 35.8675348}, {"type": "node", "id": 10877647530, "lat": 33.8403793, "lon": 35.8674462}, {"type": "node", "id": 10877647531, "lat": 33.8403262, "lon": 35.8674401}, {"type": "node", "id": 10877647532, "lat": 33.8403242, "lon": 35.8674632}, {"type": "node", "id": 10877647533, "lat": 33.8402788, "lon": 35.8674562}, {"type": "node", "id": 10877647534, "lat": 33.8401336, "lon": 35.8674431}, {"type": "node", "id": 10877647535, "lat": 33.8401291, "lon": 35.867427}, {"type": "node", "id": 10877647536, "lat": 33.8401393, "lon": 35.8673669}, {"type": "node", "id": 10877647537, "lat": 33.8401022, "lon": 35.86736}, {"type": "node", "id": 10877647538, "lat": 33.840083, "lon": 35.8674146}, {"type": "node", "id": 10877647539, "lat": 33.8400702, "lon": 35.8675078}, {"type": "node", "id": 10877647540, "lat": 33.8402763, "lon": 35.8675471}, {"type": "node", "id": 10877647541, "lat": 33.8403044, "lon": 35.8675487}, {"type": "node", "id": 10877647542, "lat": 33.8403076, "lon": 35.8675155}, {"type": "node", "id": 10877647543, "lat": 33.8403306, "lon": 35.8675202}, {"type": "node", "id": 10877647544, "lat": 33.8403319, "lon": 35.8675394}, {"type": "node", "id": 10878317457, "lat": 33.8536962, "lon": 35.881895}, {"type": "node", "id": 10878317458, "lat": 33.8537021, "lon": 35.8819542}, {"type": "node", "id": 10878317459, "lat": 33.8536377, "lon": 35.8819635}, {"type": "node", "id": 10878317460, "lat": 33.8536318, "lon": 35.8819043}, {"type": "node", "id": 10878317493, "lat": 33.8521468, "lon": 35.8814619}, {"type": "node", "id": 10878317494, "lat": 33.8521693, "lon": 35.8815666}, {"type": "node", "id": 10878317495, "lat": 33.8520464, "lon": 35.881599}, {"type": "node", "id": 10878317496, "lat": 33.8520404, "lon": 35.8815702}, {"type": "node", "id": 10878317497, "lat": 33.8519999, "lon": 35.881581}, {"type": "node", "id": 10878317498, "lat": 33.8519523, "lon": 35.8816911}, {"type": "node", "id": 10878317499, "lat": 33.851922, "lon": 35.881682}, {"type": "node", "id": 10878317500, "lat": 33.8519325, "lon": 35.881507}, {"type": "node", "id": 10913803306, "lat": 33.8738922, "lon": 35.9462228}, {"type": "node", "id": 10913803307, "lat": 33.8738926, "lon": 35.9461512}, {"type": "node", "id": 10913803308, "lat": 33.8738752, "lon": 35.9461539}, {"type": "node", "id": 10913803309, "lat": 33.873871, "lon": 35.9460888}, {"type": "node", "id": 10913803310, "lat": 33.8737121, "lon": 35.9461131}, {"type": "node", "id": 10913803311, "lat": 33.8737206, "lon": 35.9462521}, {"type": "node", "id": 10928243400, "lat": 33.8682043, "lon": 36.0077972}, {"type": "node", "id": 10928243401, "lat": 33.8681651, "lon": 36.0078329}, {"type": "node", "id": 10928243402, "lat": 33.8680062, "lon": 36.007593}, {"type": "node", "id": 10928243403, "lat": 33.8680433, "lon": 36.007565}, {"type": "node", "id": 10928243404, "lat": 33.8680931, "lon": 36.0076403}, {"type": "node", "id": 10928539305, "lat": 33.8681058, "lon": 36.0076403}, {"type": "node", "id": 10928539345, "lat": 33.8671561, "lon": 36.0076406, "tags": {"amenity": "cafe", "contact:mobile": "+96171981254", "cuisine": "coffee_shop", "name": "\u062d\u0644\u0648 \u0648\u0645\u0634 \u062d\u0644\u0648"}}, {"type": "node", "id": 10928539376, "lat": 33.8673823, "lon": 36.0085126, "tags": {"amenity": "cafe", "cuisine": "coffee_shop", "name": "City cafe"}}, {"type": "node", "id": 10928539403, "lat": 33.8674434, "lon": 36.0089829, "tags": {"amenity": "cafe", "cuisine": "coffee_shop", "name": "Cafe Samo"}}, {"type": "node", "id": 10931253969, "lat": 33.8630865, "lon": 36.0077094, "tags": {"amenity": "restaurant", "name": "Julia"}}, {"type": "node", "id": 10948551284, "lat": 33.8497634, "lon": 36.0144984, "tags": {"amenity": "restaurant", "name": "\u0645\u0637\u0639\u0645 \u0627\u0644\u0634\u064a\u0641 \u0627\u0644\u0644\u0628\u0646\u0627\u0646\u064a"}}, {"type": "node", "id": 10948740904, "lat": 33.8240355, "lon": 35.8808942}, {"type": "node", "id": 10948740905, "lat": 33.8238931, "lon": 35.8809501}, {"type": "node", "id": 10948740906, "lat": 33.8239418, "lon": 35.8811396}, {"type": "node", "id": 10948740907, "lat": 33.824037, "lon": 35.8815059}, {"type": "node", "id": 10948740908, "lat": 33.8241786, "lon": 35.88145}, {"type": "node", "id": 10970908266, "lat": 33.8580118, "lon": 35.8783665}, {"type": "node", "id": 10970908267, "lat": 33.8579594, "lon": 35.8783756}, {"type": "node", "id": 10970908268, "lat": 33.8579519, "lon": 35.8782935}, {"type": "node", "id": 10970908269, "lat": 33.8580027, "lon": 35.8782852}, {"type": "node", "id": 10976816733, "lat": 33.8679246, "lon": 35.9008941}, {"type": "node", "id": 10976816734, "lat": 33.8678284, "lon": 35.9007112}, {"type": "node", "id": 10976816735, "lat": 33.8677643, "lon": 35.9007579}, {"type": "node", "id": 10976816736, "lat": 33.8678115, "lon": 35.9008575}, {"type": "node", "id": 10976816737, "lat": 33.8678554, "lon": 35.9009389}, {"type": "node", "id": 10978328586, "lat": 33.8542562, "lon": 35.8983348}, {"type": "node", "id": 10978328587, "lat": 33.8542451, "lon": 35.8982001}, {"type": "node", "id": 10978328588, "lat": 33.8541591, "lon": 35.8982231}, {"type": "node", "id": 10978328589, "lat": 33.8541768, "lon": 35.8983456}, {"type": "node", "id": 10978449481, "lat": 33.8541308, "lon": 35.8938767}, {"type": "node", "id": 10978449482, "lat": 33.8540791, "lon": 35.8939067}, {"type": "node", "id": 10978449483, "lat": 33.854113, "lon": 35.8940387}, {"type": "node", "id": 10978449484, "lat": 33.8541691, "lon": 35.8940129}, {"type": "node", "id": 10978449629, "lat": 33.8523631, "lon": 35.8958074}, {"type": "node", "id": 10978449630, "lat": 33.852382, "lon": 35.895792}, {"type": "node", "id": 11029857889, "lat": 33.8362456, "lon": 35.9105224}, {"type": "node", "id": 11029857890, "lat": 33.8363284, "lon": 35.9106857}, {"type": "node", "id": 11029857891, "lat": 33.8364913, "lon": 35.9105659}, {"type": "node", "id": 11029857892, "lat": 33.8364086, "lon": 35.9104027}, {"type": "node", "id": 11176504039, "lat": 33.8618778, "lon": 35.9174562, "tags": {"amenity": "restaurant", "name:en": "Pravda Valley", "opening_hours": "Mo-Su 09:00-18:00"}}, {"type": "node", "id": 11269543969, "lat": 33.856126, "lon": 35.8929496, "tags": {"amenity": "restaurant", "name": "Arabi", "name:en": "Arabi", "name:fr": "Arabi"}}, {"type": "node", "id": 11378184169, "lat": 33.8136507, "lon": 35.8593225, "tags": {"amenity": "restaurant", "name:en": "Chtourama"}}, {"type": "node", "id": 12014691576, "lat": 33.8880143, "lon": 35.9401428}, {"type": "node", "id": 12014691577, "lat": 33.8879679, "lon": 35.9400746}, {"type": "node", "id": 12771197894, "lat": 33.8398512, "lon": 35.9143537, "tags": {"addr:city": "Zahl\u00e9", "amenity": "restaurant", "contact:facebook": "https://www.facebook.com/chezgio/", "contact:instagram": "https://www.instagram.com/chezgiogio/", "contact:phone": "+961 8 822 884", "cuisine": "italian", "currency:LBP": "yes", "currency:USD": "yes", "currency:XMR": "yes", "description": "Authentic Italian Pizza & Pasta restaurant", "diet:halal": "yes", "diet:healthy": "yes", "diet:meat": "yes", "diet:mediterranean": "yes", "diet:organic": "yes", "diet:vegetarian": "yes", "name": "Chez Gio Gio", "name:en": "Chez Gio Gio", "opening_hours": "Mo-Su 12:00-23:00", "payment:cash": "yes", "payment:cryptocurrencies": "yes", "payment:kyc": "no", "payment:onchain": "yes", "survey:date": "2025-04-19"}}, {"type": "way", "id": 572858934, "nodes": [5503404301, 5503404302, 5503404303, 12014691576, 12014691577, 5503404304, 5503404301], "tags": {"amenity": "restaurant", "building": "yes", "cuisine": "lebanese", "name": "\u0645\u0637\u0639\u0645 \u0646\u0628\u0639 \u0627\u0644\u062d\u0628\u064a\u0633", "name:ar": "\u0645\u0637\u0639\u0645 \u0646\u0628\u0639 \u0627\u0644\u062d\u0628\u064a\u0633", "outdoor_seating": "yes"}}, {"type": "way", "id": 1167954437, "nodes": [10862302931, 10978449629, 10978449630, 10862302932, 10862302933, 10862302934, 10862302935, 10862302936, 10862302937, 10862302938, 10862302939, 10862302940, 10862302941, 10862302942, 10862302931], "tags": {"addr:city": "Zahle", "addr:street": "Boulevard Zahl\u00e9", "amenity": "restaurant", "building": "yes", "name": "Mersal Restaurant"}}, {"type": "way", "id": 1169863616, "nodes": [10877647529, 10877647530, 10877647531, 10877647532, 10877647533, 10877647534, 10877647535, 10877647536, 10877647537, 10877647538, 10877647539, 10877647540, 10877647541, 10877647542, 10877647543, 10877647544, 10877647529], "tags": {"amenity": "restaurant", "building": "yes", "name": "Sarde", "name:en": "Sarde"}}, {"type": "way", "id": 1169992298, "nodes": [10878317457, 10878317458, 10878317459, 10878317460, 10878317457], "tags": {"amenity": "restaurant", "building": "yes", "name": "Rise"}}, {"type": "way", "id": 1169992303, "nodes": [10878317493, 10878317494, 10878317495, 10878317496, 10878317497, 10878317498, 10878317499, 10878317500, 10878317493], "tags": {"amenity": "restaurant", "name": "Khayrat Taanayel"}}, {"type": "way", "id": 1174510728, "nodes": [10913803306, 10913803307, 10913803308, 10913803309, 10913803310, 10913803311, 10913803306], "tags": {"amenity": "cafe", "building": "yes", "name": "Hogan's Cafe"}}, {"type": "way", "id": 1176185237, "nodes": [10928243400, 10928243401, 10928243402, 10928243403, 10928243404, 10928539305, 10928243400], "tags": {"amenity": "cafe", "building": "yes", "cuisine": "coffee_shop", "name": "CU caffe"}}, {"type": "way", "id": 1178549552, "nodes": [10948740904, 10948740905, 10948740906, 10948740907, 10948740908, 10948740904], "tags": {"amenity": "restaurant", "building": "yes", "name": "\u0645\u0637\u0639\u0645 \u0648\u0633\u0646\u0627\u0643 \u0645\u0634\u0648\u0627\u0631"}}, {"type": "way", "id": 1181339448, "nodes": [10970908266, 10970908267, 10970908268, 10970908269, 10970908266], "tags": {"amenity": "cafe", "building": "yes", "contact:mobile": "+9613767761", "cuisine": "bakery", "name": "Off Road Cafe", "name:en": "Off Road Cafe"}}, {"type": "way", "id": 1182012030, "nodes": [10976816733, 10976816734, 10976816735, 10976816736, 10976816737, 10976816733], "tags": {"amenity": "restaurant", "building": "yes"}}, {"type": "way", "id": 1182180706, "nodes": [10978328586, 10978328587, 10978328588, 10978328589, 10978328586], "tags": {"amenity": "restaurant", "building": "yes", "name": "Ain El Daouk resto-cafe", "name:en": "Ain El Daouk resto-cafe"}}, {"type": "way", "id": 1182192219, "nodes": [10978449481, 10978449482, 10978449483, 10978449484, 10978449481], "tags": {"amenity": "restaurant", "building": "yes", "name": "Mazaj", "name:en": "Mazaj"}}, {"type": "way", "id": 1187817637, "nodes": [11029857892, 11029857891, 11029857890, 11029857889, 11029857892], "tags": {"amenity": "restaurant", "building": "yes", "name": "Bread & Beans"}}]}