{"version": 0.6, "generator": "Overpass API 0.7.62.7 375dc00a", "osm3s": {"timestamp_osm_base": "2025-06-14T15:00:45Z", "copyright": "The data included in this document is from www.openstreetmap.org. The data is made available under ODbL."}, "elements": [{"type": "node", "id": 3775140465, "lat": 39.4185165, "lon": 29.9834449, "tags": {"amenity": "restaurant", "cuisine": "turkish", "name": "Sofram", "takeaway": "yes"}}, {"type": "node", "id": 3776073324, "lat": 39.4185372, "lon": 29.9834321, "tags": {"amenity": "restaurant", "cuisine": "turkish", "name": "Osmanl\u0131 Kebap", "takeaway": "yes"}}, {"type": "node", "id": 3776078153, "lat": 39.418098, "lon": 29.9816672, "tags": {"amenity": "restaurant", "cuisine": "regional", "name": "Hammam-i Ziyafe", "takeaway": "yes"}}, {"type": "node", "id": 3776103574, "lat": 39.4195626, "lon": 29.9873315, "tags": {"amenity": "cafe", "craft": "confectionery", "name": "Penguen"}}, {"type": "node", "id": 3776103621, "lat": 39.4197184, "lon": 29.9866236, "tags": {"amenity": "restaurant", "cuisine": "regional", "name": "Kervan"}}, {"type": "node", "id": 3776112684, "lat": 39.420405, "lon": 29.9858693, "tags": {"amenity": "cafe", "craft": "confectionery", "name": "\u0130nci", "name:tr": "\u0130nci"}}, {"type": "node", "id": 3776130345, "lat": 39.4425933, "lon": 30.0038331, "tags": {"amenity": "restaurant", "cuisine": "turkish", "name": "M\u00fclayimo\u011fullar\u0131", "website": "http://www.mulayimogullari.com/"}}, {"type": "node", "id": 3776131122, "lat": 39.4579579, "lon": 30.0176341, "tags": {"amenity": "restaurant", "cuisine": "turkish", "name": "G\u00fcral Sofras\u0131", "takeaway": "yes"}}, {"type": "node", "id": 3776150971, "lat": 39.420587, "lon": 29.9860203, "tags": {"amenity": "restaurant", "name": "M\u00fclayimo\u011fullar\u0131 Kebap"}}, {"type": "node", "id": 3776326599, "lat": 39.4186275, "lon": 29.9827194, "tags": {"amenity": "restaurant", "cuisine": "regional", "name": "Antepli Seyfi", "takeaway": "yes"}}, {"type": "node", "id": 3776348621, "lat": 39.4178851, "lon": 29.9814002, "tags": {"amenity": "cafe", "name": "Kucuk Park Cay Bahcesi", "name:tr": "K\u00fc\u00e7\u00fck Park \u00c7ay Bah\u00e7esi"}}, {"type": "node", "id": 3776364705, "lat": 39.4202346, "lon": 29.9764454, "tags": {"amenity": "restaurant", "cuisine": "turkish", "delivery": "yes", "name": "Nefis Kofte", "takeaway": "yes"}}, {"type": "node", "id": 3776366146, "lat": 39.4205339, "lon": 29.9767162, "tags": {"amenity": "restaurant", "cuisine": "turkish", "name": "Saadettin Lokantasi"}}, {"type": "node", "id": 3776377534, "lat": 39.4218497, "lon": 29.9792018, "tags": {"amenity": "restaurant", "cuisine": "turkish;local", "name": "Ispartal\u0131lar Kona\u011f\u0131"}}, {"type": "node", "id": 3776547689, "lat": 39.4189128, "lon": 29.9700992, "tags": {"amenity": "restaurant", "name": "Doner Gazino"}}, {"type": "node", "id": 4656790289, "lat": 39.4217168, "lon": 29.9852836, "tags": {"amenity": "restaurant", "name": "Star Gozleme", "name:en": "Toaster Mehmet", "name:tr": "Tostcu Mehmet"}}, {"type": "node", "id": 4656790489, "lat": 39.4217783, "lon": 29.9852587, "tags": {"amenity": "restaurant", "name": "Tostcu Memet", "name:en": "Toaster Memet", "name:tr": "Star Gozleme"}}, {"type": "node", "id": 4708257689, "lat": 39.4234184, "lon": 29.9895742, "tags": {"amenity": "cafe", "name": "Felicita", "name:tr": "Felicita"}}, {"type": "node", "id": 4714574692, "lat": 39.4178249, "lon": 29.9840855, "tags": {"addr:street": "Orgeneral As\u0131m G\u00fcnd\u00fcz Caddesi", "amenity": "restaurant", "cuisine": "turkish;seafood;fish;fine_dining", "name": "M&N Bal\u0131k Restaurant", "name:en": "M&N Bal\u0131k Restaurant", "name:tr": "M&N Bal\u0131k Restaurant", "opening_hours": "Mo-Su 11:00-22:00", "operator": "MEHMET MET\u0130N TUNCEL", "phone": "05378190576"}}, {"type": "node", "id": 4784804922, "lat": 39.420687, "lon": 29.9849207, "tags": {"amenity": "restaurant", "cuisine": "kebab", "name": "Fazl\u0131 Usta Yaprak Kebap", "name:tr": "Fazl\u0131 Usta Yaprak Kebap", "phone": "05326451317"}}, {"type": "node", "id": 4784940700, "lat": 39.4133303, "lon": 30.0103686, "tags": {"fixme": "check brand, BP in Turkey is acquired by Petrol Ofisi. Don't delete fixme if still BP please."}}, {"type": "node", "id": 5013898921, "lat": 39.421115, "lon": 29.9834735, "tags": {"amenity": "restaurant", "name": "Meshur Fazli Usta Yaprak Kebab", "name:en": "Fazli Kebab", "name:tr": "Meshur Fazli Usta Yaprak Kebab"}}, {"type": "node", "id": 5161151023, "lat": 39.4258753, "lon": 29.9911463, "tags": {"amenity": "restaurant", "name": "CigerPare Istanbul"}}, {"type": "node", "id": 5375462122, "lat": 39.422744, "lon": 29.9878818, "tags": {"amenity": "restaurant", "cuisine": "turkish", "name": "\u00c7\u0131t\u0131r"}}, {"type": "node", "id": 6262672230, "lat": 39.4263038, "lon": 29.963822}, {"type": "node", "id": 6262672231, "lat": 39.4262871, "lon": 29.9639133}, {"type": "node", "id": 6262672232, "lat": 39.4261926, "lon": 29.9638978}, {"type": "node", "id": 6262672233, "lat": 39.4262079, "lon": 29.9638001}, {"type": "node", "id": 8213384512, "lat": 39.4083374, "lon": 30.0185055}, {"type": "node", "id": 8213384513, "lat": 39.4083182, "lon": 30.01846}, {"type": "node", "id": 8213384514, "lat": 39.4083705, "lon": 30.0184232}, {"type": "node", "id": 8213384515, "lat": 39.4083896, "lon": 30.0184687}, {"type": "node", "id": 8260206000, "lat": 39.4099118, "lon": 30.0135845, "tags": {"addr:city": "K\u00fctahya", "addr:district": "Merkez", "addr:housenumber": "22", "addr:neighbourhood": "Cumhuriyet Mahallesi", "addr:postcode": "43020", "addr:street": "Haymeana Caddesi", "amenity": "restaurant", "cuisine": "turkish", "name": "Haymeana Pide Salonu"}}, {"type": "node", "id": 8930293897, "lat": 39.3885662, "lon": 30.0374345, "tags": {"amenity": "restaurant", "name": "Pesmet"}}, {"type": "node", "id": 9091568813, "lat": 39.4350743, "lon": 29.9950076, "tags": {"air_conditioning": "yes", "amenity": "restaurant", "cuisine": "chicken", "level": "1", "name": "Tavuk D\u00fcnyas\u0131", "website": "https://www.tavukdunyasi.com/"}}, {"type": "node", "id": 9091568815, "lat": 39.4351182, "lon": 29.9952195, "tags": {"amenity": "cafe", "brand": "Kahve D\u00fcnyas\u0131", "brand:wikidata": "Q28008050", "cuisine": "coffee_shop", "level": "0", "name": "Kahve D\u00fcnyas\u0131", "takeaway": "yes", "website": "https://www.kahvedunyasi.com/"}}, {"type": "node", "id": 9091568816, "lat": 39.434759, "lon": 29.9948784, "tags": {"amenity": "cafe", "brand": "Starbucks", "brand:wikidata": "Q37158", "brand:wikipedia": "en:Starbucks", "cuisine": "coffee_shop", "name": "Starbucks", "official_name": "Starbucks Coffee", "takeaway": "yes", "website": "https://www.starbucks.com.tr/"}}, {"type": "node", "id": 9091583228, "lat": 39.4356889, "lon": 29.9957466, "tags": {"amenity": "cafe", "level": "0", "name": "Siyah \u0130nci"}}, {"type": "node", "id": 9091583229, "lat": 39.4345394, "lon": 29.9944134, "tags": {"amenity": "restaurant", "level": "1", "name": "Konyal\u0131 Hac\u0131 Usta"}}, {"type": "node", "id": 9091583230, "lat": 39.4361917, "lon": 29.9963202, "tags": {"amenity": "cafe", "level": "0", "name": "Cook Berry"}}, {"type": "node", "id": 9383218812, "lat": 39.423122, "lon": 29.9871455, "tags": {"addr:city": "K\u00fctahya", "addr:district": "Merkez", "addr:housenumber": "29", "addr:neighbourhood": "Servi Mahallesi", "addr:postcode": "43020", "addr:street": "Merkez Sokak", "amenity": "restaurant", "email": "feslegenrestoran@gmail.com", "name": "Fesle\u011fen Restoran", "opening_hours": "Mo-Su 10:00-22:45", "phone": "+90 274 231 4343", "website": "https://feslegenrestoran.com/"}}, {"type": "node", "id": 9588597827, "lat": 39.4209012, "lon": 30.0005945, "tags": {"amenity": "cafe"}}, {"type": "node", "id": 9772219429, "lat": 39.4813777, "lon": 29.8976934}, {"type": "node", "id": 9772219430, "lat": 39.4813013, "lon": 29.8977924}, {"type": "node", "id": 9772219431, "lat": 39.4811739, "lon": 29.8976384}, {"type": "node", "id": 9772219432, "lat": 39.4812461, "lon": 29.8975339}, {"type": "node", "id": 9772219447, "lat": 39.4788731, "lon": 29.9011502}, {"type": "node", "id": 9772219448, "lat": 39.4787117, "lon": 29.9009577}, {"type": "node", "id": 9772219449, "lat": 39.4785526, "lon": 29.9011942}, {"type": "node", "id": 9772219450, "lat": 39.4787096, "lon": 29.9013812}, {"type": "node", "id": 9772219451, "lat": 39.4789728, "lon": 29.9009687}, {"type": "node", "id": 9772219452, "lat": 39.4789049, "lon": 29.9010649}, {"type": "node", "id": 9772219453, "lat": 39.4787691, "lon": 29.9008999}, {"type": "node", "id": 9772219454, "lat": 39.4788455, "lon": 29.9008119}, {"type": "node", "id": 9945328817, "lat": 39.4255053, "lon": 29.990616, "tags": {"amenity": "cafe", "name:en": "Tchibo"}}, {"type": "node", "id": 9959382404, "lat": 39.4049078, "lon": 30.0345737, "tags": {"amenity": "restaurant", "cuisine": "turkish", "name": "Beyefendi Kebap"}}, {"type": "node", "id": 9972329307, "lat": 39.3992203, "lon": 30.0411535}, {"type": "node", "id": 9972329308, "lat": 39.3986386, "lon": 30.0426496}, {"type": "node", "id": 9972329309, "lat": 39.3990034, "lon": 30.0428792}, {"type": "node", "id": 9972329310, "lat": 39.3994767, "lon": 30.0414788}, {"type": "node", "id": 9972329311, "lat": 39.3994865, "lon": 30.0413991}, {"type": "node", "id": 10001219816, "lat": 39.4444699, "lon": 30.0055399, "tags": {"amenity": "restaurant", "cuisine": "kebab", "diet:halal": "yes", "name": "Ci\u011ferci Ahmet"}}, {"type": "node", "id": 10001245917, "lat": 39.4455863, "lon": 30.006288, "tags": {"addr:city": "K\u00fctahya", "addr:district": "Merkez", "addr:housenumber": "29", "addr:neighbourhood": "\u0130nk\u00f6y Mahallesi", "addr:postcode": "43100", "addr:street": "Eski\u015fehir Karayolu Bulvar\u0131", "amenity": "restaurant", "cuisine": "kebab", "name": "Ci\u011ferci Bahattin", "opening_hours": "Mo-Su 09:00-23:00", "outdoor_seating": "yes", "phone": "+90 545 446 43 43", "smoking": "outside", "wheelchair": "yes"}}, {"type": "node", "id": 10001245937, "lat": 39.44193, "lon": 30.0054963, "tags": {"amenity": "cafe", "name": "Nehir Cafe"}}, {"type": "node", "id": 10595818072, "lat": 39.4802989, "lon": 30.0358205, "tags": {"amenity": "restaurant", "cuisine": "steak_house", "name": "Et Usta"}}, {"type": "node", "id": 10683532425, "lat": 39.4195783, "lon": 29.9952607, "tags": {"addr:city": "K\u00fctahya", "addr:district": "Merkez", "amenity": "cafe", "name": "Tavus Coffee Concept", "opening_hours": "Mo-Su 09:00-00:00"}}, {"type": "node", "id": 10692820345, "lat": 39.4510356, "lon": 30.0119861, "tags": {"amenity": "restaurant", "cuisine": "kebab;regional;turkish", "diet:halal": "yes", "name": "Refika'n\u0131n Mutfa\u011f\u0131"}}, {"type": "node", "id": 10692820346, "lat": 39.4362247, "lon": 29.9999228, "tags": {"addr:city": "K\u00fctahya", "addr:neighbourhood": "Vefa Mahallesi", "amenity": "restaurant", "brand": "K\u00f6fteci Yusuf", "brand:wikidata": "Q126125081", "cuisine": "turkish", "diet:halal": "yes", "name": "K\u00f6fteci Yusuf"}}, {"type": "node", "id": 10692820347, "lat": 39.4235286, "lon": 29.9884565, "tags": {"amenity": "restaurant", "cuisine": "chicken;kebab;turkish", "name": "Donas", "phone": "4443367", "website": "https://donas.com.tr/"}}, {"type": "node", "id": 10738787946, "lat": 39.423986, "lon": 29.9883925, "tags": {"addr:city": "K\u00fctahya", "addr:district": "Merkez", "addr:housenumber": "70/A", "addr:neighbourhood": "Servi Mahallesi", "addr:postcode": "43020", "addr:street": "Merkez Sokak", "amenity": "restaurant", "cuisine": "pizza", "name": "Pasaport Pizza", "opening_hours": "Mo-Su 11:00-23:00", "phone": "+90 274 333 0440", "website": "http://www.pasaportpizza.com/"}}, {"type": "node", "id": 10803222830, "lat": 39.4252693, "lon": 29.9869396, "tags": {"addr:city": "K\u00fctahya", "addr:district": "Merkez", "addr:housenumber": "28/A", "addr:neighbourhood": "Gaybiefendi Mahallesi", "addr:postcode": "43020", "addr:street": "Bekir Avlup\u0131nar Caddesi P\u0131nar Sokak", "amenity": "cafe", "cuisine": "coffee_shop", "internet_access": "yes", "internet_access:fee": "no", "name": "Monalisa Coffee Co.", "opening_hours": "Mo-Su 10:00-02:30", "outdoor_seating": "yes", "phone": "0545 906 48 06", "takeaway": "yes"}}, {"type": "node", "id": 10803280439, "lat": 39.4248835, "lon": 29.9868148, "tags": {"addr:city": "K\u00fctahya", "addr:district": "Merkez", "addr:housenumber": "25/C", "addr:neighbourhood": "Servi Mahallesi", "addr:postcode": "43020", "addr:street": "Okur Sokak", "amenity": "cafe", "cuisine": "coffee_shop", "internet_access": "yes", "internet_access:fee": "no", "name": "Pasaj 1980", "opening_hours": "Mo-Su 10:00-02:00", "outdoor_seating": "yes", "payment:credit_cards": "yes", "payment:mastercard": "yes", "payment:visa": "yes", "phone": "0545 906 48 06", "takeaway": "yes"}}, {"type": "node", "id": 11020156805, "lat": 39.4218437, "lon": 29.9789338, "tags": {"addr:street": "Germiyan Caddesi", "amenity": "restaurant", "cuisine": "local", "name": "Lalezar Kona\u011f\u0131"}}, {"type": "node", "id": 11020161405, "lat": 39.4219424, "lon": 29.9790792, "tags": {"amenity": "restaurant", "cuisine": "local;turkish", "name": "Hanedan", "name:tr": "Hanedan Kona\u011f\u0131"}}, {"type": "node", "id": 11146592077, "lat": 39.4001811, "lon": 30.0187152, "tags": {"amenity": "cafe", "name": "Emminin Yeri \u00c7ay Kahve Salonu", "outdoor_seating": "yes"}}, {"type": "node", "id": 11146592088, "lat": 39.4001206, "lon": 30.0189419, "tags": {"amenity": "cafe", "cuisine": "b\u00f6rek", "name": "Beyo\u011flu B\u00f6rek", "outdoor_seating": "yes"}}, {"type": "node", "id": 11146592089, "lat": 39.4000951, "lon": 30.0190418, "tags": {"amenity": "restaurant", "cuisine": "turkish", "name": "Atakent Pide"}}, {"type": "node", "id": 11147719442, "lat": 39.4038585, "lon": 30.0116047}, {"type": "node", "id": 11147719443, "lat": 39.4039174, "lon": 30.0114459}, {"type": "node", "id": 11147719444, "lat": 39.4040231, "lon": 30.0115022}, {"type": "node", "id": 11147719445, "lat": 39.4039905, "lon": 30.011588}, {"type": "node", "id": 11147719446, "lat": 39.4040324, "lon": 30.0116108}, {"type": "node", "id": 11147719447, "lat": 39.4040062, "lon": 30.0116846}, {"type": "node", "id": 11155788801, "lat": 39.3974597, "lon": 30.0194496, "tags": {"amenity": "cafe", "name": "Teperas"}}, {"type": "node", "id": 11157703004, "lat": 39.4000246, "lon": 30.0156536, "tags": {"amenity": "restaurant", "cuisine": "turkish", "name": "Atakent Pidecim"}}, {"type": "node", "id": 12509927040, "lat": 39.425267, "lon": 29.9878415, "tags": {"addr:city": "K\u00fctahya", "addr:district": "Merkez", "amenity": "cafe", "name": "Chaplin K\u00fclt\u00fcr"}}, {"type": "node", "id": 12509927050, "lat": 39.424783, "lon": 29.9873988, "tags": {"addr:city": "K\u00fctahya", "addr:district": "Merkez", "amenity": "cafe", "brand": "Gloria Jean's", "brand:wikidata": "Q2666365", "cuisine": "coffee_shop", "name": "Gloria Jean's", "official_name": "Gloria Jean's Coffees", "takeaway": "yes"}}, {"type": "node", "id": 12645299421, "lat": 39.4133643, "lon": 30.0102453}, {"type": "node", "id": 12645299422, "lat": 39.4135211, "lon": 30.0104092}, {"type": "node", "id": 12645299423, "lat": 39.4134606, "lon": 30.0105125}, {"type": "way", "id": 668762936, "nodes": [6262672230, 6262672231, 6262672232, 6262672233, 6262672230], "tags": {"amenity": "cafe", "building": "yes"}}, {"type": "way", "id": 883199574, "nodes": [8213384512, 8213384513, 8213384514, 8213384515, 8213384512], "tags": {"addr:city": "K\u00fctahya", "addr:district": "Merkez", "addr:housenumber": "2", "addr:neighbourhood": "Cumhuriyet Mahallesi", "addr:postcode": "43020", "addr:street": "Karako\u00e7 Sokak", "amenity": "cafe", "building": "yes", "name": "Damak B\u00fcfe \u00c7ay Bah\u00e7esi"}}, {"type": "way", "id": 1063952825, "nodes": [9772219429, 9772219430, 9772219431, 9772219432, 9772219429], "tags": {"amenity": "cafe", "building": "yes", "name": "terrase couverte du Ekol cafeteria"}}, {"type": "way", "id": 1063952831, "nodes": [9772219447, 9772219448, 9772219449, 9772219450, 9772219447], "tags": {"amenity": "cafe", "building": "yes"}}, {"type": "way", "id": 1063952832, "nodes": [9772219451, 9772219452, 9772219453, 9772219454, 9772219451], "tags": {"amenity": "cafe", "building": "yes"}}, {"type": "way", "id": 1088460999, "nodes": [9972329307, 9972329308, 9972329309, 9972329310, 9972329311, 9972329307], "tags": {"amenity": "cafe", "building": "yes", "name": "\u00c7\u0131ra\u011fan Plus D\u00fc\u011f\u00fcn ve Davet Salonu"}}, {"type": "way", "id": 1202478541, "nodes": [11147719447, 11147719446, 11147719445, 11147719444, 11147719443, 11147719442, 11147719447], "tags": {"amenity": "cafe", "name": "Ya\u011fmur G\u0131da", "outdoor_seating": "yes"}}, {"type": "way", "id": 1365518819, "nodes": [12645299421, 12645299422, 12645299423, 4784940700, 12645299421], "tags": {"amenity": "cafe", "brand": "Starbucks", "brand:wikidata": "Q37158", "building": "yes", "cuisine": "coffee_shop", "internet_access": "wlan", "internet_access:fee": "yes", "name": "Starbucks", "official_name": "Starbucks Coffee", "opening_hours": "Mo-Su 07:00-22:00", "outdoor_seating": "yes", "takeaway": "yes"}}]}