{"version": 0.6, "generator": "Overpass API 0.7.62.7 375dc00a", "osm3s": {"timestamp_osm_base": "2025-06-14T13:50:30Z", "copyright": "The data included in this document is from www.openstreetmap.org. The data is made available under ODbL."}, "elements": [{"type": "node", "id": 428173388, "lat": 42.6456046, "lon": 11.9846647, "tags": {"amenity": "restaurant"}}, {"type": "node", "id": 743459514, "lat": 42.5372366, "lon": 12.0378331, "tags": {"addr:city": "Montefiascone", "addr:postcode": "01027", "amenity": "restaurant", "cuisine": "italian", "name": "Da Roland"}}, {"type": "node", "id": 743459527, "lat": 42.539126, "lon": 12.0338527, "tags": {"addr:city": "Montefiascone", "addr:postcode": "01027", "addr:street": "Via Verentana", "amenity": "restaurant", "cuisine": "italian", "name": "Bar Pizzeria Roma"}}, {"type": "node", "id": 743538621, "lat": 42.5383598, "lon": 12.0307891, "tags": {"amenity": "restaurant", "cuisine": "italian", "name": "Ristorante Dante"}}, {"type": "node", "id": 768765220, "lat": 42.5443082, "lon": 11.9944757}, {"type": "node", "id": 768765225, "lat": 42.5445024, "lon": 11.9942737}, {"type": "node", "id": 768765233, "lat": 42.5443865, "lon": 11.9941717}, {"type": "node", "id": 768765242, "lat": 42.544421, "lon": 11.9945374}, {"type": "node", "id": 768765254, "lat": 42.5443677, "lon": 11.9944056}, {"type": "node", "id": 768765261, "lat": 42.5445667, "lon": 11.994397}, {"type": "node", "id": 768765269, "lat": 42.5444272, "lon": 11.9942376}, {"type": "node", "id": 768765274, "lat": 42.5444774, "lon": 11.9941866}, {"type": "node", "id": 768765279, "lat": 42.5443771, "lon": 11.9945841}, {"type": "node", "id": 768765284, "lat": 42.5445165, "lon": 11.9942567}, {"type": "node", "id": 768765294, "lat": 42.5442925, "lon": 11.9942631}, {"type": "node", "id": 768765302, "lat": 42.5444366, "lon": 11.9945459}, {"type": "node", "id": 926716805, "lat": 42.6446347, "lon": 11.8951587, "tags": {"amenity": "restaurant", "contact:email": "info@ristoranteilcapriccio.it", "contact:phone": "+39 0763 612737", "contact:website": "https://ristoranteilcapriccio.it/", "name": "Il Capriccio"}}, {"type": "node", "id": 1010551528, "lat": 42.4584546, "lon": 12.0871848}, {"type": "node", "id": 1010552610, "lat": 42.4584662, "lon": 12.0870615}, {"type": "node", "id": 1010552999, "lat": 42.4586692, "lon": 12.0870984}, {"type": "node", "id": 1010553503, "lat": 42.4584421, "lon": 12.0873112}, {"type": "node", "id": 1010553772, "lat": 42.458657, "lon": 12.0872216}, {"type": "node", "id": 1010553952, "lat": 42.4588735, "lon": 12.0873897}, {"type": "node", "id": 1010554541, "lat": 42.4589083, "lon": 12.0870383}, {"type": "node", "id": 1010554694, "lat": 42.4584763, "lon": 12.0869598}, {"type": "node", "id": 1098729177, "lat": 42.6866931, "lon": 12.1004405, "tags": {"addr:city": "Porano", "addr:housenumber": "1", "addr:street": "Via Nereo Neri", "amenity": "cafe", "name": "Bar Baraonda", "operator": "Enrico Pascucci"}}, {"type": "node", "id": 1457857668, "lat": 42.4722557, "lon": 12.2771379, "tags": {"addr:city": "Vitorchiano", "addr:country": "IT", "addr:housename": "Trattoria d'Alfiero", "addr:postcode": "01030", "addr:street": "Via Vittorio Emanuele III", "amenity": "restaurant", "cuisine": "italian", "name": "Trattoria d'Alfiero", "phone": "+39 0761 743005"}}, {"type": "node", "id": 1823137273, "lat": 42.6458086, "lon": 11.9857609, "tags": {"amenity": "restaurant", "cuisine": "italian", "name": "al 3"}}, {"type": "node", "id": 1823137274, "lat": 42.6458057, "lon": 11.9864679, "tags": {"addr:housenumber": "41", "amenity": "restaurant", "contact:website": "https://www.50-special.com/", "name": "50 Special"}}, {"type": "node", "id": 1825277196, "lat": 42.6469791, "lon": 11.9833596, "tags": {"amenity": "restaurant", "cuisine": "italian", "name": "Tempio di Norzia"}}, {"type": "node", "id": 1826473478, "lat": 42.6410513, "lon": 11.9817373, "tags": {"amenity": "restaurant", "cuisine": "italian", "name": "Bar del Porto"}}, {"type": "node", "id": 1826473480, "lat": 42.640097, "lon": 11.9832932, "tags": {"amenity": "restaurant", "cuisine": "italian", "name": "Il Gabbiano"}}, {"type": "node", "id": 1826473482, "lat": 42.637551, "lon": 11.9843864, "tags": {"amenity": "restaurant", "contact:facebook": "https://www.facebook.com/casapatriziabolsena", "contact:phone": "+39 0761 798906", "cuisine": "italian", "name": "Casa Patrizia"}}, {"type": "node", "id": 1826473632, "lat": 42.6405974, "lon": 11.9831138, "tags": {"amenity": "cafe", "cuisine": "ice_cream", "name": "Oasi Bar Gelateria"}}, {"type": "node", "id": 1826473635, "lat": 42.6407236, "lon": 11.9824293, "tags": {"addr:housenumber": "5", "addr:postcode": "01023", "addr:street": "Piazzale Dante Alighieri", "amenity": "restaurant", "name": "Trattoria Del Moro"}}, {"type": "node", "id": 1826473678, "lat": 42.6402985, "lon": 11.9829362, "tags": {"amenity": "restaurant", "cuisine": "italian", "name": "Spiaggetta"}}, {"type": "node", "id": 1826473682, "lat": 42.6421011, "lon": 11.9811005, "tags": {"amenity": "restaurant", "cuisine": "italian", "name": "da Guido"}}, {"type": "node", "id": 1827301936, "lat": 42.6458349, "lon": 11.984426, "tags": {"amenity": "restaurant", "contact:phone": "+39 0761 799158", "contact:website": "https://www.trattoriapicchietto.it/", "name": "Da Picchietto"}}, {"type": "node", "id": 1827301938, "lat": 42.6444681, "lon": 11.9863489, "tags": {"amenity": "cafe", "name": "Giardinetti"}}, {"type": "node", "id": 1827301939, "lat": 42.6449309, "lon": 11.9851644, "tags": {"amenity": "restaurant", "name": "Il Toscaro"}}, {"type": "node", "id": 1827301943, "lat": 42.6446266, "lon": 11.9865038, "tags": {"amenity": "restaurant", "cuisine": "italian", "name": "Osteria Del Borgo Dentro"}}, {"type": "node", "id": 1827740316, "lat": 42.6523438, "lon": 11.9802596}, {"type": "node", "id": 1827740318, "lat": 42.652403, "lon": 11.9803568}, {"type": "node", "id": 1827740320, "lat": 42.6524404, "lon": 11.980151}, {"type": "node", "id": 1827740322, "lat": 42.6524995, "lon": 11.9802482}, {"type": "node", "id": 1829744763, "lat": 42.644549, "lon": 11.9873848, "tags": {"amenity": "cafe", "name": "Bar Centrale"}}, {"type": "node", "id": 1829744767, "lat": 42.6442741, "lon": 11.9764077, "tags": {"amenity": "restaurant", "name": "La Pineta"}}, {"type": "node", "id": 1829932145, "lat": 42.6455323, "lon": 11.9847446, "tags": {"addr:housenumber": "4", "amenity": "restaurant", "cuisine": "pizza", "delivery": "no", "name": "Pizzeria San Rocca", "takeaway": "yes"}}, {"type": "node", "id": 1831393541, "lat": 42.6435278, "lon": 11.9856012, "tags": {"addr:housenumber": "24", "addr:street": "Viale Nicola Colesanti", "amenity": "cafe", "cuisine": "ice_cream", "name": "Malaika Blu Bar"}}, {"type": "node", "id": 1831393546, "lat": 42.6437252, "lon": 11.9858133, "tags": {"addr:housenumber": "10", "addr:street": "Viale Nicola Colesanti", "amenity": "restaurant", "cuisine": "italian;pizza", "name": "Pizza Planet's"}}, {"type": "node", "id": 1832162192, "lat": 42.6438874, "lon": 11.9882423, "tags": {"amenity": "restaurant", "contact:mobile": "+39 338 3005410;+39 392 6709478", "contact:phone": "+39 0761 798078", "cuisine": "italian", "name": "Antica Trattoria del Corso", "toilets:wheelchair": "no", "wheelchair": "limited"}}, {"type": "node", "id": 1832162193, "lat": 42.6439551, "lon": 11.9880138, "tags": {"amenity": "cafe", "name": "Bar del Corso"}}, {"type": "node", "id": 1832162209, "lat": 42.6430173, "lon": 11.9889661, "tags": {"amenity": "cafe", "name": "Insomnia Cafe'"}}, {"type": "node", "id": 1832162213, "lat": 42.6452229, "lon": 11.9859045, "tags": {"amenity": "restaurant", "contact:mobile": "+39 338 9660937", "contact:phone": "+39 0761 798979", "contact:website": "https://www.latavernettabolsena.com/", "name": "La Tavernetta"}}, {"type": "node", "id": 1832162216, "lat": 42.6448485, "lon": 11.986765, "tags": {"amenity": "restaurant", "name": "Osteria Del Borgo Dentro"}}, {"type": "node", "id": 1832162252, "lat": 42.6454325, "lon": 11.985292, "tags": {"amenity": "restaurant"}}, {"type": "node", "id": 1832162256, "lat": 42.6437093, "lon": 11.9885267, "tags": {"amenity": "restaurant", "cuisine": "pizza", "name": "Take Away Pizza", "takeaway": "yes"}}, {"type": "node", "id": 1832162257, "lat": 42.6430836, "lon": 11.988924, "tags": {"amenity": "restaurant", "cuisine": "italian", "name": "Tavola Calda"}}, {"type": "node", "id": 1832162262, "lat": 42.6447626, "lon": 11.9867836, "tags": {"addr:housenumber": "20", "amenity": "cafe", "name": "Caffellatte"}}, {"type": "node", "id": 1832768736, "lat": 42.6424981, "lon": 11.9880059, "tags": {"amenity": "restaurant", "cuisine": "chinese;japanese", "name": "Take House"}}, {"type": "node", "id": 1936515923, "lat": 42.6260287, "lon": 12.1089569, "tags": {"amenity": "restaurant"}}, {"type": "node", "id": 2091224086, "lat": 42.6710141, "lon": 12.4505019, "tags": {"amenity": "cafe", "name": "Bar"}}, {"type": "node", "id": 2285445470, "lat": 42.4853752, "lon": 12.4524735, "tags": {"amenity": "cafe", "name": "Bar"}}, {"type": "node", "id": 2338997332, "lat": 42.4698652, "lon": 12.3581386, "tags": {"addr:city": "Orte", "addr:postcode": "01028", "addr:street": "Localit\u00e0 Serpiola", "amenity": "restaurant", "name": "La Locanda della Chiocciola", "phone": "+39 0761 402734", "website": "http://www.lachiocciola.net", "wheelchair": "limited"}}, {"type": "node", "id": 2493535051, "lat": 42.5044421, "lon": 12.46905, "tags": {"addr:city": "Montoro", "addr:country": "IT", "addr:housenumber": "10", "addr:street": "Via del Forno", "amenity": "restaurant", "cuisine": "pizza;regional", "email": "feudorist@gmail.com", "fax": "+39 0744 243402", "name": "Il Feudo ristorante pizzeria", "phone": "+39 0744 735168"}}, {"type": "node", "id": 2493535062, "lat": 42.5070587, "lon": 12.4678772, "tags": {"amenity": "cafe", "name": "Bar associazione pro Montoro"}}, {"type": "node", "id": 2942537643, "lat": 42.5351831, "lon": 11.9260241, "tags": {"addr:city": "Marta", "addr:country": "IT", "addr:housenumber": "5", "addr:postcode": "01010", "addr:street": "Via Laertina", "addr:unit": "Via", "amenity": "restaurant", "cuisine": "italian;regional", "email": "info@daotello.it", "name": "da Otello", "phone": "+39 0761 871627", "website": "www.daotello.it"}}, {"type": "node", "id": 3008391712, "lat": 42.5550931, "lon": 12.4148551, "tags": {"addr:city": "Amelia", "addr:country": "IT", "addr:housenumber": "73", "addr:postcode": "05022", "addr:street": "Via Farrattini", "amenity": "restaurant", "building": "yes", "cuisine": "pizza", "email": "info@porcellitavern.it", "name": "Porcelli Tavern", "opening_hours": "We-Mo 20:00-24:00", "phone": "+39 0744 983639", "website": "http://www.porcellitavern.it/"}}, {"type": "node", "id": 3008391713, "lat": 42.5541949, "lon": 12.420433, "tags": {"addr:city": "Amelia", "addr:country": "IT", "addr:housenumber": "31", "addr:postcode": "05022", "addr:street": "Via Roma", "amenity": "restaurant", "cuisine": "italian;regional", "email": "info@cateringhotelanita.com", "name": "Ristorante Anita", "phone": "+39 0744 087368", "website": "https://www.cateringhotelanita.com/ristorante/"}}, {"type": "node", "id": 3008391714, "lat": 42.5575233, "lon": 12.4329791, "tags": {"addr:city": "Amelia", "addr:country": "IT", "addr:housenumber": "191", "addr:postcode": "05022", "addr:street": "Via Roma", "amenity": "restaurant", "cuisine": "italian;regional", "name": "Ristorante Le Colonne", "phone": "+39 0744 983529"}}, {"type": "node", "id": 3008391715, "lat": 42.5567314, "lon": 12.4059427, "tags": {"addr:city": "Amelia", "addr:country": "IT", "addr:housenumber": "23", "addr:postcode": "05022", "addr:street": "Via Orvieto", "amenity": "restaurant", "cuisine": "italian;regional", "email": "info@scogliodellaquilone.it", "fax": "+39 0744 983005", "name": "Ristorante Scoglio dell'Aquilone", "phone": "+39 0744 982445", "website": "http://www.scogliodellaquilone.it/hotel_scoglio_dell_aquilone.asp"}}, {"type": "node", "id": 3050503188, "lat": 42.5587998, "lon": 12.4396353}, {"type": "node", "id": 3050503191, "lat": 42.5588884, "lon": 12.4395368}, {"type": "node", "id": 3050503194, "lat": 42.5589526, "lon": 12.4398887}, {"type": "node", "id": 3050503198, "lat": 42.558995, "lon": 12.4397135}, {"type": "node", "id": 3050503199, "lat": 42.5589971, "lon": 12.4395047}, {"type": "node", "id": 3050503203, "lat": 42.5590716, "lon": 12.4396283}, {"type": "node", "id": 3050503209, "lat": 42.5590903, "lon": 12.4395212}, {"type": "node", "id": 3050503215, "lat": 42.5591607, "lon": 12.4394429}, {"type": "node", "id": 3050503217, "lat": 42.5591677, "lon": 12.4396496}, {"type": "node", "id": 3050503218, "lat": 42.5591791, "lon": 12.4393024}, {"type": "node", "id": 3050503222, "lat": 42.5592446, "lon": 12.439582}, {"type": "node", "id": 3050503225, "lat": 42.5593064, "lon": 12.4395134}, {"type": "node", "id": 3143475088, "lat": 42.6700493, "lon": 12.2203631}, {"type": "node", "id": 3143475089, "lat": 42.6700822, "lon": 12.2205309}, {"type": "node", "id": 3143475090, "lat": 42.6702546, "lon": 12.2202886}, {"type": "node", "id": 3143475091, "lat": 42.6702875, "lon": 12.2204565}, {"type": "node", "id": 3200050016, "lat": 42.5021432, "lon": 12.3644448, "tags": {"amenity": "restaurant", "cuisine": "italian", "name": "Il canto del gallo"}}, {"type": "node", "id": 3202779775, "lat": 42.6695658, "lon": 12.3359905, "tags": {"addr:city": "Melezzole", "addr:housenumber": "1", "addr:postcode": "05020", "addr:street": "Via Pian dell'Ara", "amenity": "restaurant", "cuisine": "italian;pizza;regional", "email": "info@ristorantesemiramide.it", "name": "Ristorante Semiramide", "opening_hours": "Mo-Su 12:00-14:30,19:30-23:00; Tu off", "phone": "+39 0744 951008", "website": "https://www.ristorantesemiramide.it/"}}, {"type": "node", "id": 3257132689, "lat": 42.6999532, "lon": 12.2473897}, {"type": "node", "id": 3257132690, "lat": 42.6999197, "lon": 12.2476793}, {"type": "node", "id": 3257132691, "lat": 42.6998882, "lon": 12.2476767}, {"type": "node", "id": 3257132692, "lat": 42.6998822, "lon": 12.2477249}, {"type": "node", "id": 3257132693, "lat": 42.6998527, "lon": 12.2477249}, {"type": "node", "id": 3257132694, "lat": 42.6998408, "lon": 12.2478134}, {"type": "node", "id": 3257132695, "lat": 42.6997344, "lon": 12.2477786}, {"type": "node", "id": 3257132696, "lat": 42.6997482, "lon": 12.247674}, {"type": "node", "id": 3257132697, "lat": 42.6997896, "lon": 12.2476793}, {"type": "node", "id": 3257132698, "lat": 42.6998014, "lon": 12.247615}, {"type": "node", "id": 3257132699, "lat": 42.6997797, "lon": 12.2476096}, {"type": "node", "id": 3257132700, "lat": 42.6998152, "lon": 12.2473575}, {"type": "node", "id": 3264972205, "lat": 42.5536992, "lon": 12.0046636}, {"type": "node", "id": 3264972206, "lat": 42.5537578, "lon": 12.004461}, {"type": "node", "id": 3264972208, "lat": 42.5539362, "lon": 12.00479}, {"type": "node", "id": 3264972209, "lat": 42.5539948, "lon": 12.0045874}, {"type": "node", "id": 3270743196, "lat": 42.5109301, "lon": 12.296017}, {"type": "node", "id": 3270743371, "lat": 42.5109004, "lon": 12.2959043}, {"type": "node", "id": 3270743378, "lat": 42.5108174, "lon": 12.2959446}, {"type": "node", "id": 3270743409, "lat": 42.5108174, "lon": 12.2960679}, {"type": "node", "id": 3307261218, "lat": 42.6377938, "lon": 12.4091567}, {"type": "node", "id": 3500675305, "lat": 42.4592253, "lon": 12.1634769, "tags": {"addr:city": "Vitorchiano", "addr:housenumber": "15b", "addr:postcode": "01030", "addr:street": "Via de La Quercia", "amenity": "restaurant", "cuisine": "regional", "name": "Basilic\u00f2", "note": "There are 2 restaurants, one is underground and has traditional italian cusine (Basilic\u00f2), the other is a more expensive gourmet restaurant (the one above)", "operator": "Poggio Caccia S.r.l.", "phone": "+39 0761 370486", "ref:vatin": "IT01873560567", "restaurant:type:it": "osteria"}}, {"type": "node", "id": 3500675306, "lat": 42.4591319, "lon": 12.1636035, "tags": {"addr:city": "Vitorchiano", "addr:housenumber": "15b", "addr:postcode": "01030", "addr:street": "Via de La Quercia", "amenity": "restaurant", "cuisine": "gourmet", "name": "Villa San Michele", "operator": "Poggio Caccia S.r.l.", "phone": "+39 0761 373441", "ref:vatin": "IT01873560567", "restaurant:type:it": "ristorante"}}, {"type": "node", "id": 3609732756, "lat": 42.5363948, "lon": 11.9240057, "tags": {"amenity": "restaurant", "name": "Trattoria de la Jolanda"}}, {"type": "node", "id": 3686967143, "lat": 42.6360791, "lon": 11.8866358, "tags": {"amenity": "restaurant", "name": "La Grata"}}, {"type": "node", "id": 3709249626, "lat": 42.6352606, "lon": 12.4055723, "tags": {"amenity": "cafe", "cuisine": "italian", "internet_access": "no", "name": "Aquila d'Oro", "smoking": "outside"}}, {"type": "node", "id": 3709249627, "lat": 42.5998122, "lon": 12.4367357, "tags": {"amenity": "cafe", "internet_access": "yes", "name": "Spritz"}}, {"type": "node", "id": 3709249628, "lat": 42.5996187, "lon": 12.4366445, "tags": {"amenity": "restaurant", "name": "Narducci"}}, {"type": "node", "id": 3739284903, "lat": 42.5533726, "lon": 12.4173859, "tags": {"addr:city": "Amelia", "addr:housenumber": "5", "addr:postcode": "05022", "addr:street": "Piazza XXI Settembre", "amenity": "cafe", "contact:facebook": "https://www.facebook.com/Bar-Leonardi-296620463785206/", "name": "Bar Leonardi 2.0", "phone": "+39 0744 294210", "shop": "pastry"}}, {"type": "node", "id": 3739289152, "lat": 42.5529649, "lon": 12.4170546, "tags": {"amenity": "restaurant", "cuisine": "pizza", "name": "Pizzeria Piccino"}}, {"type": "node", "id": 3739291027, "lat": 42.5534656, "lon": 12.4180046, "tags": {"addr:city": "Amelia", "addr:housenumber": "16", "addr:postcode": "05022", "addr:street": "Piazza XXI Settembre", "amenity": "cafe", "name": "Caff\u00e8 Fuoriporta"}}, {"type": "node", "id": 3744110055, "lat": 42.6381716, "lon": 12.408995}, {"type": "node", "id": 3744110056, "lat": 42.6382696, "lon": 12.4093592}, {"type": "node", "id": 3744110057, "lat": 42.6379037, "lon": 12.4095507}, {"type": "node", "id": 3744110060, "lat": 42.6381833, "lon": 12.4090383}, {"type": "node", "id": 3995055877, "lat": 42.514396, "lon": 12.1718333, "tags": {"amenity": "cafe", "indoor_seating": "yes", "outdoor_seating": "yes"}}, {"type": "node", "id": 4228752135, "lat": 42.5548092, "lon": 12.4156273, "tags": {"addr:city": "Amelia", "addr:housenumber": "7", "addr:postcode": "05022", "addr:street": "Via Angeletti", "amenity": "restaurant", "cuisine": "italian;pizza", "name": "La locanda del Conte Nitto", "phone": "+39 0744 981836", "website": "http://locandadelcontenitto.it/"}}, {"type": "node", "id": 4237655153, "lat": 42.5463234, "lon": 12.448897, "tags": {"addr:city": "Amelia", "addr:housenumber": "54", "addr:postcode": "05022", "addr:street": "Strada Amerina", "amenity": "restaurant", "cuisine": "italian;regional", "email": "petroli.innocenzi@gmail.com", "name": "Ristorante Amerino", "phone": "+39 0744 989667", "website": "http://www.hotel-amerino.it/"}}, {"type": "node", "id": 4237655154, "lat": 42.5342111, "lon": 12.4011431, "tags": {"addr:city": "Amelia", "addr:hamlet": "Montenero", "addr:postcode": "05022", "addr:street": "Strada Amelia Giove", "amenity": "restaurant", "cuisine": "italian;regional", "delivery:description:it": "Consegna a domicilio per emergenza COVID-19", "name": "Ristorante Montenero", "phone": "+39 0744 982462"}}, {"type": "node", "id": 4237680407, "lat": 42.5506394, "lon": 12.4201046, "tags": {"addr:city": "Amelia", "addr:housenumber": "21", "addr:postcode": "05022", "addr:street": "Via Europa", "amenity": "restaurant", "contact:facebook": "https://www.facebook.com/acquaefarinapizzeria/", "cuisine": "pizza", "email": "pizzeriacquaefarina@gmail.com", "name": "Pizzeria Acqua e Farina", "opening_hours": "11:00-15:00,17:00-24:00", "phone": "+39 0744 982563", "phone:mobile": "+39 331 1085811", "takeaway": "yes", "wheelchair": "yes"}}, {"type": "node", "id": 4239795789, "lat": 42.5661009, "lon": 12.4490069, "tags": {"amenity": "restaurant", "cuisine": "italian;regional", "name": "La Gabelletta"}}, {"type": "node", "id": 4239795794, "lat": 42.5541169, "lon": 12.4164692, "tags": {"addr:city": "Amelia", "addr:housenumber": "25", "addr:postcode": "05022", "addr:street": "Via della Repubblica", "amenity": "restaurant", "cuisine": "italian;pizza;regional", "description": "Wine bar - piccola ristorazione", "email": "emporioves@gmail.com", "name": "Ristorante Punto diVino", "opening_hours": "Mo-Su 09:00-21:00", "payment:cash": "yes", "payment:mastercard": "yes", "payment:visa": "yes", "phone": "+39 0744 978586", "wheelchair": "no"}}, {"type": "node", "id": 4759699288, "lat": 42.547431, "lon": 12.2330504}, {"type": "node", "id": 4759699296, "lat": 42.5474685, "lon": 12.2329458}, {"type": "node", "id": 4759699386, "lat": 42.547595, "lon": 12.2331441}, {"type": "node", "id": 4759699433, "lat": 42.5476286, "lon": 12.2330477}, {"type": "node", "id": 4795023394, "lat": 42.6526618, "lon": 11.9543128, "tags": {"amenity": "restaurant", "cuisine": "italian", "delivery": "no", "name": "Il Pinzale", "smoking": "separated"}}, {"type": "node", "id": 4887528823, "lat": 42.4864871, "lon": 12.449022, "tags": {"addr:city": "San Liberato", "addr:housenumber": "2/v", "addr:postcode": "05035", "addr:street": "Via Ortana vecchia", "amenity": "restaurant", "cuisine": "italian", "diet:gluten_free": "yes", "diet:meat": "yes", "diet:vegan": "yes", "diet:vegetarian": "yes", "name": "Agriturismo Podernovo Houses & Country Umbria", "name:it": "Agriturismo Podernovo", "phone": "+39 335 480 759", "website": "https://www.podernovo.it/"}}, {"type": "node", "id": 5069374104, "lat": 42.5681562, "lon": 12.4561264, "tags": {"amenity": "restaurant", "cuisine": "italian;regional", "email": "info@monasterolegrazie.it", "name": "Il Ristoro del Priore", "outdoor_seating": "yes", "phone": "+39 0744 981716", "website": "http://www.monasterolegrazie.it/"}}, {"type": "node", "id": 5081075824, "lat": 42.6258114, "lon": 12.1060201, "tags": {"addr:city": "Bagnoregio", "addr:postcode": "01022", "addr:street": "PIazza Alberto Ricci", "amenity": "cafe", "name": "Caff\u00e8 Belvedere", "opening_hours": "Tu-Su 09:30-03:00", "outdoor_seating": "yes"}}, {"type": "node", "id": 5333971475, "lat": 42.4506966, "lon": 12.0826867, "tags": {"amenity": "restaurant", "cuisine": "bar_and_grill", "name": "Bar & Grill Viterbo"}}, {"type": "node", "id": 5333993523, "lat": 42.4700983, "lon": 12.0747423, "tags": {"amenity": "restaurant", "name": "Antica Sosta", "phone": "+39 0761 253077", "website": "https://ristoranteanticasosta.it/"}}, {"type": "node", "id": 5354630219, "lat": 42.6575739, "lon": 12.3477781}, {"type": "node", "id": 5354630220, "lat": 42.6574506, "lon": 12.3477083}, {"type": "node", "id": 5354630321, "lat": 42.6573783, "lon": 12.3479448}, {"type": "node", "id": 5354630322, "lat": 42.6575015, "lon": 12.3480146}, {"type": "node", "id": 5368936896, "lat": 42.5920171, "lon": 12.3942143, "tags": {"amenity": "restaurant", "cuisine": "regional", "email": "info@elemerendero.it", "name": "Ristorante El Merendero"}}, {"type": "node", "id": 5368936897, "lat": 42.5549094, "lon": 12.4160384, "tags": {"amenity": "restaurant", "cuisine": "pizza;regional", "name": "DentrAmelia", "phone": "+39 0744 061878"}}, {"type": "node", "id": 5390645053, "lat": 42.6542724, "lon": 12.4280584, "tags": {"addr:city": "Avigliano Umbro", "addr:housenumber": "19", "addr:postcode": "05020", "addr:street": "Via Giacomo Matteotti", "amenity": "restaurant", "cuisine": "italian;pizza;regional", "email": "info@ristorantelaposta.net", "name": "Ristorante Pizzeria Panetteria La Posta", "phone": "+39 339 1429044", "takeaway": "yes", "website": "https://www.ristorantelaposta.net/"}}, {"type": "node", "id": 5390645054, "lat": 42.5041034, "lon": 12.3152554, "tags": {"addr:city": "Giove", "addr:housenumber": "km 15.500", "addr:postcode": "05024", "addr:street": "Strada provinciale di Giove", "amenity": "restaurant", "cuisine": "italian;pizza", "email": "alan.alfonsini@gmail.com", "name": "Ristorante Pizzeria Villaggio del Sole", "phone": "+39 393 1993417"}}, {"type": "node", "id": 5390645057, "lat": 42.6512976, "lon": 12.4182495, "tags": {"addr:city": "Avigliano Umbro", "addr:housenumber": "79", "addr:postcode": "05020", "addr:street": "Strada Pian dell'Ara", "amenity": "restaurant", "cuisine": "italian", "name": "Trattoria La Casareccia", "phone": "+39 0744 933482"}}, {"type": "node", "id": 5390982478, "lat": 42.4928072, "lon": 12.3554954, "tags": {"addr:city": "Penna in Teverina", "addr:housenumber": "4", "addr:postcode": "05028", "addr:street": "Borgo Giuseppe Garibaldi", "amenity": "restaurant", "cuisine": "pizza;regional", "email": "ibanezjem79v@hotmail.it", "name": "Osteria del Borgo", "phone": "+39 0744 993205"}}, {"type": "node", "id": 5433827370, "lat": 42.5350652, "lon": 11.9254585}, {"type": "node", "id": 5433827371, "lat": 42.5350215, "lon": 11.9255613}, {"type": "node", "id": 5433827372, "lat": 42.5351254, "lon": 11.9256427}, {"type": "node", "id": 5433827373, "lat": 42.5351691, "lon": 11.92554}, {"type": "node", "id": 5457965122, "lat": 42.5556673, "lon": 12.4135798, "tags": {"addr:city": "Amelia", "addr:housenumber": "56", "addr:postcode": "05022", "addr:street": "Via Farrattini", "amenity": "restaurant", "cuisine": "regional;pizza;italian", "name": "IL Baronetto", "opening_hours": "Mo-Su 10:30-24:00", "outdoor_seating": "yes", "phone": "+39 342 5654005"}}, {"type": "node", "id": 5532018097, "lat": 42.5381229, "lon": 12.0311874, "tags": {"amenity": "cafe", "name": "Bar Corso"}}, {"type": "node", "id": 5584457493, "lat": 42.5489091, "lon": 12.4193345, "tags": {"addr:city": "Amelia", "addr:housenumber": "117", "addr:postcode": "05022", "addr:street": "Via Europa", "amenity": "restaurant", "cuisine": "italian;pizza", "name": "Oro Nero", "phone": "+39 392 503505"}}, {"type": "node", "id": 5628874649, "lat": 42.5500515, "lon": 12.4194529, "tags": {"addr:city": "Amelia", "addr:housenumber": "64a", "addr:postcode": "05022", "addr:street": "Via Europa", "amenity": "cafe", "name": "Bar Europa", "phone": "+39 0744 978583"}}, {"type": "node", "id": 5648355321, "lat": 42.6276995, "lon": 12.1132471, "tags": {"addr:street": "Via S. Maria del Cassero", "amenity": "restaurant", "name": "Osteria Al forno di Agnese"}}, {"type": "node", "id": 5781449257, "lat": 42.5000333, "lon": 12.3120835, "tags": {"amenity": "cafe", "name": "My Chef", "source": "survey 2018"}}, {"type": "node", "id": 6003530256, "lat": 42.6217845, "lon": 12.2539457}, {"type": "node", "id": 6003530257, "lat": 42.6217955, "lon": 12.2540555}, {"type": "node", "id": 6003530258, "lat": 42.6216504, "lon": 12.2540823}, {"type": "node", "id": 6003530259, "lat": 42.6216394, "lon": 12.2539725}, {"type": "node", "id": 6413733173, "lat": 42.5380164, "lon": 12.0311686, "tags": {"amenity": "cafe", "contact:facebook": "CaffeCentraleMontefiascone", "name": "Caff\u00e8 Centrale", "opening_hours": "06:00-22:00", "payment:debit_cards": "yes"}}, {"type": "node", "id": 6421544214, "lat": 42.5620235, "lon": 11.9949533, "tags": {"addr:city": "Montefiascone", "addr:postcode": "01027", "addr:street": "Via del Lago", "amenity": "restaurant", "cuisine": "regional;italian;seafood", "delivery": "no", "diet:pescetarian": "yes", "name": "La Capanna del Pescatore", "opening_hours": "We-Mo 12:30-23:00", "payment:cash": "yes", "payment:contactless": "yes", "payment:credit_cards": "yes", "payment:debit_cards": "yes", "phone": "393 430 3007", "reservation": "recommended", "takeaway": "no"}}, {"type": "node", "id": 6466649787, "lat": 42.5378201, "lon": 12.0307561, "tags": {"amenity": "restaurant", "cuisine": "local", "name": "La piccola hostaria"}}, {"type": "node", "id": 6466649906, "lat": 42.5375534, "lon": 12.0303573, "tags": {"addr:housenumber": "4", "addr:street": "Largo del Plebiscito", "amenity": "restaurant", "contact:facebook": "mammapappa.mammapappa", "contact:phone": "+39 0761 1894159; +39 349 4511087", "name": "Mamma Pappa osteria e foccacceria"}}, {"type": "node", "id": 6513161285, "lat": 42.4861435, "lon": 12.250672, "tags": {"amenity": "restaurant", "cuisine": "italian;italian_pizza", "name": "tutto n\u2018artro magna"}}, {"type": "node", "id": 6723411215, "lat": 42.6473336, "lon": 12.1285089}, {"type": "node", "id": 6723411216, "lat": 42.647282, "lon": 12.1286428}, {"type": "node", "id": 6723411217, "lat": 42.6471881, "lon": 12.1285599}, {"type": "node", "id": 6723411218, "lat": 42.6472397, "lon": 12.12841}, {"type": "node", "id": 6810890867, "lat": 42.5158893, "lon": 12.1693958, "tags": {"addr:city": "Grotte Santo Stefano", "addr:housenumber": "2", "addr:postcode": "01026", "addr:street": "Via Asmara", "amenity": "cafe", "indoor_seating": "yes", "name": "Bar Civico 71", "outdoor_seating": "yes", "wheelchair": "yes"}}, {"type": "node", "id": 6821906784, "lat": 42.6457145, "lon": 11.9848236, "tags": {"addr:housenumber": "4/6", "addr:street": "Bolsena, Vicolo San Rocco", "amenity": "restaurant", "name": "L'Osteria del Contadino", "phone": "+39 0761798304; +39 3477589372"}}, {"type": "node", "id": 7147510786, "lat": 42.4812369, "lon": 12.5016061, "tags": {"amenity": "restaurant", "name": "Osteria Fosca Umbra", "name:it": "Osteria Fosca Umbra"}}, {"type": "node", "id": 7450406148, "lat": 42.6703874, "lon": 12.2161369, "tags": {"addr:city": "Baschi", "addr:housenumber": "23", "addr:postcode": "05023", "addr:street": "Piazza Italia", "amenity": "cafe", "name": "Caff\u00e8 Maxim"}}, {"type": "node", "id": 7682978158, "lat": 42.4824748, "lon": 12.4444038, "tags": {"amenity": "restaurant", "cuisine": "italian", "name": "Ristorante Da Carlo"}}, {"type": "node", "id": 7710030175, "lat": 42.6927973, "lon": 12.2130491}, {"type": "node", "id": 7710030176, "lat": 42.6929964, "lon": 12.2132825}, {"type": "node", "id": 7710030177, "lat": 42.6928779, "lon": 12.2134696}, {"type": "node", "id": 7710030178, "lat": 42.6926788, "lon": 12.2132362}, {"type": "node", "id": 7726589110, "lat": 42.670537, "lon": 12.2161365, "tags": {"addr:housenumber": "24;25", "addr:street": "Piazza Italia", "amenity": "cafe", "name": "Bar Vinci Caff\u00e8"}}, {"type": "node", "id": 7731083192, "lat": 42.6455655, "lon": 11.8996347, "tags": {"amenity": "restaurant", "cuisine": "regional", "name": "Il Chiosco", "operator": "Cooperativa Ser.So.Tur.", "outdoor_seating": "yes", "ref:vatin": "IT01286450562"}}, {"type": "node", "id": 7731083193, "lat": 42.6451789, "lon": 11.8973711, "tags": {"amenity": "restaurant", "name": "Palm Beach", "outdoor_seating": "yes"}}, {"type": "node", "id": 8003397485, "lat": 42.5354102, "lon": 11.9248466, "tags": {"amenity": "cafe", "name": "Bar del turista"}}, {"type": "node", "id": 8042022099, "lat": 42.5508456, "lon": 12.0281544, "tags": {"amenity": "restaurant", "name": "Albergo Ristorante La Rondinella"}}, {"type": "node", "id": 8042022101, "lat": 42.5481326, "lon": 12.0330039, "tags": {"amenity": "cafe", "name": "Bar Pasticceria Dolceloc"}}, {"type": "node", "id": 8042022103, "lat": 42.5444571, "lon": 12.0373557, "tags": {"amenity": "restaurant", "name": "Antica Grotta"}}, {"type": "node", "id": 8042022104, "lat": 42.5429018, "lon": 12.0367295, "tags": {"amenity": "restaurant", "contact:email": "giuseppedonnino@libero.it", "contact:facebook": "bar.donnino", "contact:phone": "+39 366 5078035", "name": "Bar Donnino Giuseppe", "opening_hours": "06:00-22:00"}}, {"type": "node", "id": 8042022106, "lat": 42.5365017, "lon": 12.0273189, "tags": {"amenity": "restaurant", "name": "Cucina e Bar Rocca dei Papi"}}, {"type": "node", "id": 8212530198, "lat": 42.6867621, "lon": 12.1025153, "tags": {"addr:city": "Porano", "amenity": "restaurant", "name": "Il Boccone del Prete", "phone": "+390763374772"}}, {"type": "node", "id": 8212530822, "lat": 42.6803439, "lon": 12.1035599, "tags": {"addr:city": "Porano", "addr:housenumber": "33", "addr:street": "Viale Guglielmo Marconi", "amenity": "restaurant", "contact:facebook": "Trattoria Pizzeria Da Claudio", "contact:instagram": "trattoria_pizzeria_daclaudio", "cuisine": "pizza", "email": "trattoriadaclaudioporano@gmail.com", "name": "Trattoria Pizzeria Da Claudio", "outdoor_seating": "yes", "phone": "+39 333 361 6146", "toilets": "yes", "toilets:wheelchair": "no"}}, {"type": "node", "id": 8212786916, "lat": 42.6363915, "lon": 12.1106891, "tags": {"amenity": "cafe"}}, {"type": "node", "id": 8212833817, "lat": 42.6341864, "lon": 12.1009148, "tags": {"addr:city": "Lubriano", "addr:street": "Via I\u00b0 maggio", "amenity": "restaurant", "name": "Antico Callaro"}}, {"type": "node", "id": 8212833819, "lat": 42.635105, "lon": 12.104324, "tags": {"addr:city": "Lubriano", "addr:street": "Piazza Paime", "amenity": "restaurant", "cuisine": "pizza", "name": "Orchidea", "phone": "+390761763426"}}, {"type": "node", "id": 8212833820, "lat": 42.6348675, "lon": 12.1050389, "tags": {"amenity": "cafe", "name": "Bar Puff"}}, {"type": "node", "id": 8212833821, "lat": 42.6358348, "lon": 12.1092785, "tags": {"addr:city": "Lubriano", "addr:housenumber": "25a", "addr:postcode": "01020", "addr:street": "Via Guglielmo Marconi", "amenity": "restaurant", "name": "Ristorante Il Vecchio Mulino", "phone": "+390761780505"}}, {"type": "node", "id": 8213063846, "lat": 42.6266552, "lon": 12.0952974, "tags": {"addr:city": "Bagnoregio", "addr:postcode": "01022", "addr:street": "Piazza Cavour", "amenity": "restaurant", "name": "Pane e lavanda", "phone": "+390761792113"}}, {"type": "node", "id": 8213063847, "lat": 42.6265116, "lon": 12.095264, "tags": {"addr:city": "Bagnoregio", "addr:housenumber": "2", "addr:street": "Corso Giuseppe Mazzini", "amenity": "cafe", "name": "Caffetteria del Corso"}}, {"type": "node", "id": 8213063849, "lat": 42.6257453, "lon": 12.0997062, "tags": {"addr:city": "Bagnoregio", "addr:postcode": "01022", "addr:street": "Piazza Sant'Agostino", "amenity": "restaurant", "name": "Magna Civita", "phone": "+390761792093"}}, {"type": "node", "id": 8213348584, "lat": 42.6259453, "lon": 12.1021255, "tags": {"addr:city": "Bagnoregio", "addr:housenumber": "71", "addr:street": "Viale Alfonso e Giovanni Agosti", "amenity": "restaurant", "check_date": "2024-08-17", "name": "Agricola Amaltea Street Food", "phone": "+393478535360"}}, {"type": "node", "id": 8214310490, "lat": 42.6276921, "lon": 12.1144676, "tags": {"addr:city": "Bagnoregio", "addr:housenumber": "121", "addr:street": "Via Madonna della Maest\u00e0", "amenity": "restaurant", "name": "La Cantina Di Arianna", "phone": "+390761793270"}}, {"type": "node", "id": 8214585353, "lat": 42.5447261, "lon": 12.0392662, "tags": {"addr:city": "Montefiascone", "addr:housenumber": "2", "addr:street": "Via Teverina", "amenity": "cafe", "name": "Bar Ranucci", "phone": "+390761820016"}}, {"type": "node", "id": 8214585354, "lat": 42.5447537, "lon": 12.0386081, "tags": {"addr:city": "Montefiascone", "amenity": "restaurant", "name": "Ristorante Da Rita", "phone": "+390761826710"}}, {"type": "node", "id": 8214659045, "lat": 42.5396542, "lon": 12.0330713, "tags": {"addr:city": "Montefiascone", "addr:housenumber": "20", "addr:postcode": "01027", "addr:street": "Corso Cavour", "amenity": "restaurant", "contact:phone": "+39 0761 834019", "name": "Il Borgo Antico", "opening_hours": "Mo, We-Su 12:00-15:00, 19:00-22:30"}}, {"type": "node", "id": 8214659046, "lat": 42.5395453, "lon": 12.0331562, "tags": {"addr:city": "Montefiascone", "addr:housenumber": "21", "addr:postcode": "01027", "addr:street": "Corso Cavour", "amenity": "cafe", "name": "Billy Bar"}}, {"type": "node", "id": 8214659047, "lat": 42.5379188, "lon": 12.0279234, "tags": {"addr:city": "Montefiascone", "addr:housenumber": "25", "addr:postcode": "01027", "addr:street": "Via della Bandita", "amenity": "restaurant", "name": "Ristorante Da Cesare Alla Cavalla"}}, {"type": "node", "id": 8266477340, "lat": 42.5241781, "lon": 12.3729632, "tags": {"addr:city": "Amelia", "addr:postcode": "05022", "addr:street": "Strada Provinciale 31 Amelia Giove km 7,200", "amenity": "restaurant", "cuisine": "italian;fish;regional", "diet:gluten_free": "yes", "diet:meat": "yes", "diet:vegan": "yes", "diet:vegetarian": "yes", "name": "Locanda San Giuseppe", "phone": "+39 0744 063181", "website": "https://www.ilpoderesangiuseppe.it/"}}, {"type": "node", "id": 8538394539, "lat": 42.5997596, "lon": 12.0895741}, {"type": "node", "id": 8538394540, "lat": 42.5996877, "lon": 12.0893088}, {"type": "node", "id": 8538394541, "lat": 42.5997438, "lon": 12.0893046}, {"type": "node", "id": 8538394542, "lat": 42.5997716, "lon": 12.0895147}, {"type": "node", "id": 8538394543, "lat": 42.5997053, "lon": 12.0895957}, {"type": "node", "id": 8538394544, "lat": 42.5996642, "lon": 12.0895988}, {"type": "node", "id": 8538394545, "lat": 42.5997061, "lon": 12.0896147}, {"type": "node", "id": 8538394546, "lat": 42.5997611, "lon": 12.0896105}, {"type": "node", "id": 8538394547, "lat": 42.5997739, "lon": 12.089573}, {"type": "node", "id": 8538394548, "lat": 42.5996862, "lon": 12.0892728}, {"type": "node", "id": 8538394549, "lat": 42.5997423, "lon": 12.0892686}, {"type": "node", "id": 8538394550, "lat": 42.5997865, "lon": 12.0895136}, {"type": "node", "id": 8538394551, "lat": 42.5996525, "lon": 12.0893115}, {"type": "node", "id": 8538394552, "lat": 42.5997779, "lon": 12.0893021}, {"type": "node", "id": 8954841117, "lat": 42.6494534, "lon": 11.9130622, "tags": {"amenity": "restaurant", "name": "Da peppe il pescatore"}}, {"type": "node", "id": 9018229403, "lat": 42.5352921, "lon": 11.9767351, "tags": {"amenity": "restaurant", "name": "Il Muretto"}}, {"type": "node", "id": 9603228820, "lat": 42.5423282, "lon": 11.9058545, "tags": {"addr:city": "Marta", "addr:postcode": "01010", "addr:street": "Strada Santa Maria", "amenity": "cafe", "cuisine": "camere_con_prima_colazione", "internet_access": "yes", "internet_access:fee": "no", "name": "Agriturismo Santa Maria", "nohousenumber": "yes", "opening_hours": "08:00-22:00", "outdoor_seating": "no", "phone": "+39 3276930723", "website": "https://www.agriturismosantamaria.info/"}}, {"type": "node", "id": 9644343605, "lat": 42.5480494, "lon": 11.8979761, "tags": {"addr:city": "Capodimonte", "addr:postcode": "01010", "addr:street": "Strada provinciale Verentana", "amenity": "restaurant", "cuisine": "pizza;italian;sandwich", "diet:gluten_free": "yes", "name": "La Piroga", "website": "https://www.lapiroga.it/"}}, {"type": "node", "id": 9659064693, "lat": 42.5561592, "lon": 12.4322063, "tags": {"amenity": "restaurant", "cuisine": "italian;pizza;regional", "delivery": "yes", "name": "Il Ristoro del Falco"}}, {"type": "node", "id": 9659064709, "lat": 42.5524326, "lon": 12.4190369, "tags": {"amenity": "cafe"}}, {"type": "node", "id": 9672176080, "lat": 42.6489433, "lon": 11.910061, "tags": {"amenity": "restaurant", "name": "Trattoria Da Millo"}}, {"type": "node", "id": 9672176081, "lat": 42.6488005, "lon": 11.9096901, "tags": {"amenity": "restaurant", "cuisine": "pizza", "name": "Camping Mario"}}, {"type": "node", "id": 9672176082, "lat": 42.6475281, "lon": 11.9058756, "tags": {"amenity": "restaurant", "name": "Ristorante Filoni"}}, {"type": "node", "id": 9731222517, "lat": 42.5371049, "lon": 12.0315238, "tags": {"amenity": "cafe", "name": "Giusti Pasticceria"}}, {"type": "node", "id": 9748569427, "lat": 42.5475259, "lon": 12.2330326, "tags": {"amenity": "restaurant"}}, {"type": "node", "id": 9797172600, "lat": 42.6453653, "lon": 11.9870328, "tags": {"amenity": "restaurant", "name": "Lo Spigolo", "tourism": "viewpoint"}}, {"type": "node", "id": 9919817761, "lat": 42.4682996, "lon": 12.1744237, "tags": {"addr:city": "Vitorchiano", "addr:housenumber": "1b", "addr:postcode": "01030", "addr:street": "Via Francesco Aquilanti", "amenity": "restaurant", "brewery": "yes;various", "cuisine": "pizza", "name": "Mactra", "outdoor_seating": "no", "payment:cash": "yes", "payment:credit_cards": "yes", "payment:debit_cards": "yes", "phone": "0761371122", "reservation": "recommended", "wheelchair": "yes"}}, {"type": "node", "id": 9975708207, "lat": 42.6275889, "lon": 12.0918886, "tags": {"addr:city": "Bagnoregio", "addr:housenumber": "35", "addr:postcode": "01022", "addr:street": "Via Giacomo Matteotti", "amenity": "restaurant", "cuisine": "italian", "email": "info@ilripiego.it", "entrance": "main", "name": "il Ripi&go", "phone": "+39 0761 094040", "website": "www.ilripiego.it"}}, {"type": "node", "id": 9987941158, "lat": 42.4918074, "lon": 12.2471569, "tags": {"amenity": "restaurant", "cuisine": "italian;local", "email": "lalocandadelmostro@gmail.com", "name": "La Locanda del Mostro", "phone": "0761924682"}}, {"type": "node", "id": 9995161668, "lat": 42.6627268, "lon": 12.2858686, "tags": {"addr:city": "Montecchio", "addr:postcode": "05020", "addr:street": "Via Alessandro degli Atti", "amenity": "restaurant", "cuisine": "italian;noodles;steak_house", "name": "kilometro zero", "outdoor_seating": "yes"}}, {"type": "node", "id": 10000656998, "lat": 42.6275695, "lon": 12.1133408, "tags": {"amenity": "restaurant", "name": "il pozzo dei desideri"}}, {"type": "node", "id": 10000656999, "lat": 42.627848, "lon": 12.1135914, "tags": {"amenity": "restaurant", "name": "Trattoria antico forno"}}, {"type": "node", "id": 10000657012, "lat": 42.6277079, "lon": 12.1130682, "tags": {"amenity": "restaurant", "name": "il pozzo dei desideri"}}, {"type": "node", "id": 10000667525, "lat": 42.6275546, "lon": 12.1136324, "tags": {"amenity": "restaurant"}}, {"type": "node", "id": 10000667531, "lat": 42.6276357, "lon": 12.1140727, "tags": {"amenity": "restaurant", "name": "trattoria la cantina"}}, {"type": "node", "id": 10000667537, "lat": 42.6277297, "lon": 12.1134154, "tags": {"amenity": "restaurant", "name": "Al forno di Agnese"}}, {"type": "node", "id": 10000667547, "lat": 42.6280334, "lon": 12.1144172, "tags": {"amenity": "restaurant"}}, {"type": "node", "id": 10154534990, "lat": 42.6367955, "lon": 12.110038, "tags": {"amenity": "cafe"}}, {"type": "node", "id": 10630905353, "lat": 42.4953754, "lon": 12.500555, "tags": {"amenity": "restaurant", "cuisine": "regional", "name": "Trattoria Tiberina"}}, {"type": "node", "id": 10708861248, "lat": 42.4781046, "lon": 12.1150312}, {"type": "node", "id": 10708861249, "lat": 42.4780524, "lon": 12.1151836}, {"type": "node", "id": 10708861250, "lat": 42.4778285, "lon": 12.1150446}, {"type": "node", "id": 10708861251, "lat": 42.4778834, "lon": 12.1148959}, {"type": "node", "id": 10801416054, "lat": 42.6246537, "lon": 12.296002, "tags": {"amenity": "cafe", "name": "V Bar"}}, {"type": "node", "id": 10801416055, "lat": 42.624473, "lon": 12.2965579, "tags": {"amenity": "restaurant", "cuisine": "pizza", "name": "La Norma Pizzeria"}}, {"type": "node", "id": 10807037805, "lat": 42.6584176, "lon": 12.3505611, "tags": {"amenity": "cafe", "name": "Circolo di Toscolano"}}, {"type": "node", "id": 10858676616, "lat": 42.5404628, "lon": 12.033238, "tags": {"amenity": "cafe", "name": "Bar Victoria"}}, {"type": "node", "id": 10876489837, "lat": 42.5407381, "lon": 12.0339125, "tags": {"amenity": "cafe", "outdoor_seating": "yes"}}, {"type": "node", "id": 10940270570, "lat": 42.5344442, "lon": 11.9487624}, {"type": "node", "id": 10940270571, "lat": 42.5344512, "lon": 11.948934}, {"type": "node", "id": 10940270572, "lat": 42.5343316, "lon": 11.9489434}, {"type": "node", "id": 10940270573, "lat": 42.5343345, "lon": 11.9490601}, {"type": "node", "id": 10940270574, "lat": 42.534468, "lon": 11.9490521}, {"type": "node", "id": 10940270575, "lat": 42.5344739, "lon": 11.9489153}, {"type": "node", "id": 10940270576, "lat": 42.5345421, "lon": 11.9489166}, {"type": "node", "id": 10940270577, "lat": 42.534547, "lon": 11.948749}, {"type": "node", "id": 11183033383, "lat": 42.5451542, "lon": 12.4160849, "tags": {"amenity": "cafe", "cuisine": "bar_and_grill;dessert", "lottery": "yes", "name": "Sister Act", "outdoor_seating": "yes", "ref:tobacco": "12", "tobacco": "yes"}}, {"type": "node", "id": 11281306669, "lat": 42.6279984, "lon": 12.1144628, "tags": {"amenity": "restaurant", "name": "Alma Civita"}}, {"type": "node", "id": 11309091020, "lat": 42.4783391, "lon": 12.2475301, "tags": {"amenity": "restaurant", "name": "Piccolo Mondo"}}, {"type": "node", "id": 11782396796, "lat": 42.5670589, "lon": 12.1694612, "tags": {"amenity": "restaurant", "indoor_seating": "yes", "name": "Hostaria Mastro Ciliegia", "outdoor_seating": "yes"}}, {"type": "node", "id": 12104693282, "lat": 42.6459424, "lon": 11.9879606, "tags": {"amenity": "restaurant", "cuisine": "italian", "diet:halal": "no", "diet:kosher": "no", "diet:vegan": "no", "diet:vegetarian": "yes", "indoor_seating": "yes", "name": "Tanaquilla", "opening_hours": "Mo-Su,PH 19:00-23:00", "outdoor_seating": "terrace", "payment:credit_cards": "yes", "payment:debit_cards": "yes", "phone": "0761799686", "smoking": "outside", "website": "https://www.tanaquilla.it", "wheelchair": "no"}}, {"type": "node", "id": 12116754833, "lat": 42.6277046, "lon": 12.1131032, "tags": {"amenity": "restaurant", "cuisine": "regional", "name": "L'arco del gusto", "survey:date": "2024-08-17", "wheelchair": "no"}}, {"type": "node", "id": 12133660880, "lat": 42.6550764, "lon": 12.4291094, "tags": {"amenity": "restaurant", "cuisine": "pizza;italian", "name": "Il Ceppo"}}, {"type": "node", "id": 12133660881, "lat": 42.654945, "lon": 12.4291248, "tags": {"amenity": "cafe"}}, {"type": "node", "id": 12165036220, "lat": 42.532957, "lon": 11.9313768, "tags": {"amenity": "restaurant", "name": "Ristorante Bar la Pineta"}}, {"type": "node", "id": 12288907017, "lat": 42.7002359, "lon": 12.2739003}, {"type": "node", "id": 12288907018, "lat": 42.7002283, "lon": 12.2739692}, {"type": "node", "id": 12288907019, "lat": 42.7001879, "lon": 12.2739473}, {"type": "node", "id": 12288907020, "lat": 42.7001972, "lon": 12.2738823}, {"type": "node", "id": 12462835734, "lat": 42.4918531, "lon": 12.2472268, "tags": {"addr:city": "Bomarzo", "addr:postcode": "01020", "addr:street": "Localit\u00e0 giardino", "amenity": "cafe", "cuisine": "coffee_shop;sandwich", "name": "Giardino Bomarzo", "phone": "+39 0761 924029"}}, {"type": "node", "id": 12574002101, "lat": 42.6495055, "lon": 12.2830633, "tags": {"amenity": "cafe", "name": "Bar", "outdoor_seating": "yes"}}, {"type": "node", "id": 12874983309, "lat": 42.543788, "lon": 11.9932414}, {"type": "node", "id": 12874983315, "lat": 42.5438192, "lon": 11.9931244}, {"type": "node", "id": 12874983316, "lat": 42.5437244, "lon": 11.9930778}, {"type": "node", "id": 12874983317, "lat": 42.5438353, "lon": 11.9931864}, {"type": "node", "id": 12874983318, "lat": 42.5438168, "lon": 11.9932555}, {"type": "node", "id": 12874983319, "lat": 42.5438064, "lon": 11.9931722}, {"type": "node", "id": 12874983320, "lat": 42.5436701, "lon": 11.9931051}, {"type": "node", "id": 12874983321, "lat": 42.5436256, "lon": 11.9932716}, {"type": "node", "id": 12874983322, "lat": 42.543762, "lon": 11.9933387}, {"type": "way", "id": 61677980, "nodes": [768765274, 768765284, 768765225, 768765261, 768765302, 768765242, 768765279, 768765220, 768765254, 768765294, 768765233, 768765269, 768765274], "tags": {"amenity": "restaurant", "cuisine": "italian", "name": "Ristorante Isola Blu"}}, {"type": "way", "id": 86830566, "nodes": [1010553952, 1010553503, 1010551528, 1010553772, 1010552999, 1010552610, 1010554694, 1010554541, 1010553952], "tags": {"amenity": "restaurant", "building": "yes", "cuisine": "italian", "name": "Rinaldone"}}, {"type": "way", "id": 171795355, "nodes": [1827740322, 1827740318, 1827740316, 1827740320, 1827740322], "tags": {"amenity": "restaurant", "building": "yes", "name": "Da Angela e Piero", "toilets:wheelchair": "no", "wheelchair": "yes"}}, {"type": "way", "id": 300943865, "nodes": [3050503188, 3050503191, 3050503198, 3050503203, 3050503199, 3050503218, 3050503225, 3050503222, 3050503215, 3050503209, 3050503217, 3050503194, 3050503188], "tags": {"addr:city": "Amelia", "addr:country": "IT", "addr:housenumber": "27", "addr:postcode": "05022", "addr:street": "Strada Amerina", "amenity": "restaurant", "building": "yes", "cuisine": "italian;pizza;regional", "email": "info@parcoulivi.com", "name": "Ristorante Pizzeria Parco Degli Ulivi", "phone": "+39 0744 982681", "website": "http://www.parcoulivi.com/"}}, {"type": "way", "id": 309036817, "nodes": [3143475090, 3143475091, 3143475089, 3143475088, 3143475090], "tags": {"addr:city": "Baschi", "addr:country": "IT", "addr:housenumber": "22", "addr:place": "Vocabolo Cardeto", "addr:postcode": "05023", "amenity": "restaurant", "building": "yes", "building:levels": "3", "cuisine": "regional", "name": "C'era una Volta", "outdoor_seating": "yes", "oven": "wood_fired", "phone": "+39 0744 957195", "ref:vatin": "IT01558520555", "restaurant:type:it": "pizzeria;trattoria"}}, {"type": "way", "id": 319299709, "nodes": [3257132689, 3257132690, 3257132691, 3257132692, 3257132693, 3257132694, 3257132695, 3257132696, 3257132697, 3257132698, 3257132699, 3257132700, 3257132689], "tags": {"addr:street": "Strada statale 448 di Baschi", "amenity": "restaurant", "building": "yes", "contact:phone": "+39 0744 950163", "cuisine": "regional", "name": "Scacco Matto", "operator": "Lamincia Vittorugo & C Snc", "ref:vatin": "IT01395400557"}}, {"type": "way", "id": 319991262, "nodes": [3264972209, 3264972206, 3264972205, 3264972208, 3264972209], "tags": {"amenity": "restaurant", "building": "yes", "cuisine": "italian", "email": "info@ilcaminettoresort.it", "internet_access": "yes", "internet_access:fee": "no", "name": "Il Caminetto Resort", "phone": "+39 0761 825783", "tourism": "hotel", "website": "http://www.ilcaminettoresort.it/"}}, {"type": "way", "id": 320538150, "nodes": [3270743371, 3270743378, 3270743409, 3270743196, 3270743371], "tags": {"amenity": "restaurant", "building": "yes", "cuisine": "pizza;italian", "name": "Il Mangiarino"}}, {"type": "way", "id": 370719467, "nodes": [3744110055, 3744110060, 3744110056, 3744110057, 3307261218, 3744110055], "tags": {"amenity": "cafe", "building": "yes", "name": "Orietta"}}, {"type": "way", "id": 483214791, "nodes": [4759699296, 4759699433, 4759699386, 4759699288, 4759699296], "tags": {"amenity": "restaurant", "building": "yes"}}, {"type": "way", "id": 554885361, "nodes": [5354630322, 5354630321, 5354630220, 5354630219, 5354630322], "tags": {"addr:city": "Avigliano Umbro", "addr:hamlet": "Toscolano", "addr:housenumber": "26", "addr:street": "Via Guglielmo Marconi", "amenity": "restaurant", "building": "yes", "contact:facebook": "https://www.facebook.com/ristoranteaviglianoumbro/", "cuisine": "italian;regional", "email": "elilusrls@libero.it", "name": "Ristorante Il Castagneto", "opening_hours": "Tu-Su 12:00-15:00,18:00-23:00", "phone": "+39 0744 1991122", "website": "https://ilcastagnetoterni.it/"}}, {"type": "way", "id": 563911529, "nodes": [5433827373, 5433827372, 5433827371, 5433827370, 5433827373], "tags": {"addr:city": "Marta", "addr:housenumber": "13", "addr:place": "Piazza Umberto I", "addr:postcode": "01010", "amenity": "restaurant", "building": "house", "cuisine": "pizza", "name": "Pizzeria Chiatti Alessio", "phone": "+39 0761 871185", "website": "https://visitmarta.it"}}, {"type": "way", "id": 636652242, "nodes": [6003530256, 6003530257, 6003530258, 6003530259, 6003530256], "tags": {"amenity": "cafe", "building": "yes", "name": "Caff\u00e8 dell'oasi"}}, {"type": "way", "id": 715373403, "nodes": [6723411215, 6723411216, 6723411217, 6723411218, 6723411215], "tags": {"addr:city": "Lubriano", "addr:housenumber": "36", "addr:postcode": "01020", "addr:street": "Localit\u00e0 Camporena", "amenity": "restaurant", "building": "yes", "cuisine": "italian", "name": "Jovez"}}, {"type": "way", "id": 825760349, "nodes": [7710030178, 7710030175, 7710030176, 7710030177, 7710030178], "tags": {"addr:city": "Baschi", "addr:housenumber": "10/12", "addr:postcode": "05023", "addr:street": "Via dell'industria", "amenity": "restaurant", "building": "yes", "cuisine": "italian", "diet:vegetarian": "yes", "name": "DesCaf\u00e8", "payment:credit_cards": "yes", "payment:debit_cards": "yes", "wheelchair": "yes"}}, {"type": "way", "id": 919318133, "nodes": [8538394552, 8538394550, 8538394542, 8538394547, 8538394539, 8538394546, 8538394545, 8538394543, 8538394544, 8538394551, 8538394540, 8538394548, 8538394549, 8538394541, 8538394552], "tags": {"addr:city": "Bagnoregio", "addr:postcode": "01022", "amenity": "restaurant", "building": "yes", "cuisine": "regional", "guest_house": "agritourism", "name": "Agriturismo Buonasera", "phone": "+39 0761 792397", "tourism": "guest_house", "website": "https://www.agribuonasera.it/"}}, {"type": "way", "id": 1151169647, "nodes": [10708861248, 10708861249, 10708861250, 10708861251, 10708861248], "tags": {"addr:housenumber": "86", "addr:street": "Strada Teverina", "amenity": "restaurant", "building": "yes", "name": "Ristorante Acquarossa"}}, {"type": "way", "id": 1177644074, "nodes": [10940270577, 10940270576, 10940270575, 10940270574, 10940270573, 10940270572, 10940270571, 10940270570, 10940270577], "tags": {"amenity": "restaurant", "name": "Cooperativa pescatori lago di Bracciano"}}, {"type": "way", "id": 1328245905, "nodes": [12288907017, 12288907018, 12288907019, 12288907020, 12288907017], "tags": {"addr:city": "Baschi", "addr:housenumber": "22", "addr:postcode": "05023", "addr:street": "Strada provinciale 93", "amenity": "cafe", "bar": "yes", "building": "cabin", "cuisine": "coffee_shop", "internet_access": "no", "name": "Il Ristorino del Pellegrino", "note": "Piccolo BAR self-service per i camminatori del Cammino dei Borghi Silenti", "opening_hours": "24/7", "outdoor_seating": "yes", "toilets": "no"}}, {"type": "way", "id": 1390908708, "nodes": [12874983321, 12874983320, 12874983316, 12874983315, 12874983319, 12874983317, 12874983318, 12874983309, 12874983322, 12874983321], "tags": {"addr:housenumber": "118", "addr:street": "Via del Lago", "amenity": "restaurant", "building": "yes", "cuisine": "italian", "name": "Bar Pizzeria da Ivaldo"}}]}