{"version": 0.6, "generator": "Overpass API 0.7.62.7 375dc00a", "osm3s": {"timestamp_osm_base": "2025-06-14T14:50:30Z", "copyright": "The data included in this document is from www.openstreetmap.org. The data is made available under ODbL."}, "elements": [{"type": "node", "id": 271454065, "lat": 35.0171651, "lon": 25.8318369, "tags": {"amenity": "restaurant", "name": "Asteria"}}, {"type": "node", "id": 272301758, "lat": 35.0123297, "lon": 25.8320331, "tags": {"amenity": "restaurant", "name": "Koyros"}}, {"type": "node", "id": 982720304, "lat": 35.0224718, "lon": 25.8764985, "tags": {"amenity": "restaurant", "cuisine": "regional", "int_name": "Poulis", "internet_access": "wlan", "name": "\u03a0\u03bf\u03c5\u03bb\u03ae\u03c2"}}, {"type": "node", "id": 985886506, "lat": 35.0173092, "lon": 25.8481562, "tags": {"amenity": "restaurant", "cuisine": "regional", "name": "Steki"}}, {"type": "node", "id": 985886507, "lat": 35.0175026, "lon": 25.8488808, "tags": {"amenity": "restaurant", "cuisine": "regional", "name": "Dionysos"}}, {"type": "node", "id": 985886522, "lat": 35.0188695, "lon": 25.8538666, "tags": {"amenity": "restaurant", "cuisine": "regional;greek", "name": "Tavern Katerina"}}, {"type": "node", "id": 985898101, "lat": 35.0395011, "lon": 25.9824593, "tags": {"amenity": "restaurant", "cuisine": "regional", "name": "To Xani"}}, {"type": "node", "id": 993829680, "lat": 35.0534604, "lon": 25.8832664, "tags": {"amenity": "cafe", "name": "Cafenion"}}, {"type": "node", "id": 1010503287, "lat": 35.0333112, "lon": 25.9434932, "tags": {"amenity": "restaurant", "cuisine": "regional", "name": "Tavern Kalliotzina", "phone": "+30 28430 51207"}}, {"type": "node", "id": 1010503297, "lat": 35.0328322, "lon": 25.9468437, "tags": {"amenity": "restaurant", "cuisine": "regional", "name": "Tavern Votsalakia"}}, {"type": "node", "id": 1912763498, "lat": 35.0331214, "lon": 25.947202, "tags": {"amenity": "restaurant"}}, {"type": "node", "id": 1912764233, "lat": 35.0338915, "lon": 25.947661, "tags": {"amenity": "restaurant", "name": "cafe iguana"}}, {"type": "node", "id": 1913771534, "lat": 35.0389992, "lon": 25.9841402, "tags": {"amenity": "restaurant", "cuisine": "regional", "name": "Tavern"}}, {"type": "node", "id": 1913771584, "lat": 35.0272997, "lon": 25.8919184, "tags": {"addr:city": "achlia", "amenity": "restaurant", "cuisine": "greek;mediterranean", "name": "Galini"}}, {"type": "node", "id": 2256161644, "lat": 35.0244613, "lon": 26.0158833, "tags": {"addr:city": "Makry-Gialos", "addr:postcode": "720 59", "alt_name": "\u0397 \u03a3\u03c0\u03b7\u03bb\u03b9\u03ac \u03c4\u03bf\u03c5 \u0394\u03c1\u03ac\u03ba\u03bf\u03c5.", "amenity": "restaurant", "cuisine": "regional", "int_name": "Dragon's Cave", "name": "Dragon's Cave", "phone": "+30 2843 051494"}}, {"type": "node", "id": 2256171128, "lat": 35.0386278, "lon": 25.9741975, "tags": {"amenity": "restaurant", "cuisine": "chicken", "name": "Makis Grill"}}, {"type": "node", "id": 2319699374, "lat": 35.010942, "lon": 25.837448, "tags": {"addr:city": "Ierapetra", "addr:postcode": "72200", "amenity": "restaurant", "cuisine": "greek", "fax": "Mob: +306978488796", "internet_access": "wlan", "name": "Taverna Pelagos", "outdoor_seating": "yes", "phone": "+302842061263", "smoking": "yes", "takeaway": "yes", "wheelchair": "yes"}}, {"type": "node", "id": 2322009649, "lat": 35.010991, "lon": 25.837969, "tags": {"addr:city": "Ierapetra", "addr:postcode": "72200", "amenity": "restaurant", "cuisine": "greek", "internet_access": "wlan", "name": "Taverne Psaropoula", "outdoor_seating": "yes", "phone": "2842061552", "smoking": "yes", "takeaway": "yes"}}, {"type": "node", "id": 2326320194, "lat": 35.0415293, "lon": 26.2330098}, {"type": "node", "id": 2326320195, "lat": 35.04159, "lon": 26.2330626}, {"type": "node", "id": 2326320197, "lat": 35.0414122, "lon": 26.2333681}, {"type": "node", "id": 2326321390, "lat": 35.0413515, "lon": 26.2333154}, {"type": "node", "id": 2392444843, "lat": 35.0282727, "lon": 25.8914334, "tags": {"addr:city": "achlia", "amenity": "restaurant", "information": "traditional local greek food", "name": "Taverna Ahilia", "source": "survey"}}, {"type": "node", "id": 2400494117, "lat": 35.0359346, "lon": 25.9705924, "tags": {"amenity": "restaurant", "cuisine": "greek", "name": "George's"}}, {"type": "node", "id": 2703508977, "lat": 35.0392784, "lon": 25.9832961, "tags": {"amenity": "restaurant"}}, {"type": "node", "id": 3783621269, "lat": 35.0134518, "lon": 25.8352021}, {"type": "node", "id": 3783621270, "lat": 35.0135243, "lon": 25.8350852}, {"type": "node", "id": 3783621271, "lat": 35.013525, "lon": 25.8352697}, {"type": "node", "id": 3783621272, "lat": 35.0135522, "lon": 25.8351818}, {"type": "node", "id": 3783621273, "lat": 35.0135696, "lon": 25.8351978}, {"type": "node", "id": 3783621274, "lat": 35.0135801, "lon": 25.8351368}, {"type": "node", "id": 4456121825, "lat": 35.0456406, "lon": 26.2315961, "tags": {"amenity": "restaurant", "name": "Kostas"}}, {"type": "node", "id": 4456127464, "lat": 35.0442352, "lon": 26.2297614, "tags": {"amenity": "restaurant", "cuisine": "greek", "name": "LivikoView"}}, {"type": "node", "id": 4519502846, "lat": 35.0414692, "lon": 26.2327332}, {"type": "node", "id": 4519502851, "lat": 35.0414161, "lon": 26.2329324}, {"type": "node", "id": 4519502883, "lat": 35.0414859, "lon": 26.2329532}, {"type": "node", "id": 4519503193, "lat": 35.0415784, "lon": 26.2327766}, {"type": "node", "id": 4865623721, "lat": 35.0231849, "lon": 25.8757031, "tags": {"amenity": "restaurant", "cuisine": "greek", "name": "The River Restaurant", "name:en": "The River Restaurant", "opening_hours": "Mo-Su 13:00-23:00", "phone": "+30 2842 061557", "website": "https://theriverrestaurant.wixsite.com/ierapetra"}}, {"type": "node", "id": 4922406450, "lat": 35.0387216, "lon": 25.9892853, "tags": {"alt_name": "\u03a4\u03b1\u03b2\u03b5\u03c1\u03bd\u03b1 \u03c4\u03bf\u03c5 \u03a7\u03b1\u03c1\u03b7", "amenity": "restaurant", "cuisine": "greek", "name": "Haris Restaurant"}}, {"type": "node", "id": 4951395609, "lat": 35.0391281, "lon": 25.9814014, "tags": {"amenity": "restaurant", "name": "Petra Bay"}}, {"type": "node", "id": 4953303037, "lat": 35.0389153, "lon": 25.9848784, "tags": {"amenity": "restaurant", "name": "Obelix"}}, {"type": "node", "id": 4964388342, "lat": 35.0388322, "lon": 25.9881527, "tags": {"amenity": "restaurant", "name": "Gabbiano"}}, {"type": "node", "id": 5013315724, "lat": 35.038252, "lon": 25.9737469, "tags": {"amenity": "restaurant", "cuisine": "greek", "name": "Faros", "name:de": "Faros", "name:el": "Faros"}}, {"type": "node", "id": 5146091235, "lat": 35.0330741, "lon": 25.9441695}, {"type": "node", "id": 5146091236, "lat": 35.0330485, "lon": 25.9442362}, {"type": "node", "id": 5146091237, "lat": 35.0331874, "lon": 25.9442923}, {"type": "node", "id": 5146091238, "lat": 35.0332095, "lon": 25.9442206}, {"type": "node", "id": 5754883766, "lat": 35.0393382, "lon": 25.9762181}, {"type": "node", "id": 5754883767, "lat": 35.0392492, "lon": 25.9762562}, {"type": "node", "id": 5754883768, "lat": 35.0392992, "lon": 25.9764638}, {"type": "node", "id": 5754883769, "lat": 35.0393663, "lon": 25.9762963}, {"type": "node", "id": 5827495772, "lat": 35.0388275, "lon": 25.9748094, "tags": {"amenity": "restaurant", "cuisine": "italian;pizza", "diet:meat": "yes", "diet:mediterranean": "yes", "name": "Gusto"}}, {"type": "node", "id": 6705295133, "lat": 35.0530446, "lon": 25.8467963, "tags": {"amenity": "restaurant", "cuisine": "greek", "outdoor_seating": "yes"}}, {"type": "node", "id": 6917329685, "lat": 35.0188469, "lon": 26.0304552, "tags": {"amenity": "restaurant", "name": "Stayosa"}}, {"type": "node", "id": 6917329686, "lat": 35.0144756, "lon": 25.8415323, "tags": {"amenity": "restaurant", "name": "Taverna Avra"}}, {"type": "node", "id": 6917329785, "lat": 35.0190005, "lon": 26.0309128, "tags": {"amenity": "restaurant", "name": "Oasis"}}, {"type": "node", "id": 6917329786, "lat": 35.0123921, "lon": 25.8289891, "tags": {"amenity": "restaurant", "name": "Kimeri"}}, {"type": "node", "id": 6917329887, "lat": 35.0089814, "lon": 25.830438, "tags": {"amenity": "restaurant", "name": "Al\u00e1tsi"}}, {"type": "node", "id": 6917330085, "lat": 35.0159299, "lon": 25.8297301, "tags": {"amenity": "restaurant", "name": "Rodos"}}, {"type": "node", "id": 7685122005, "lat": 35.0386949, "lon": 25.9898151, "tags": {"addr:city": "Makry Gialos", "addr:postcode": "72055", "amenity": "restaurant", "cuisine": "greek;cretan", "name": "Alliotiko", "name:el": "\u0391\u03bb\u03bb\u03b9\u03c9\u03c4\u03b9\u03ba\u03bf", "opening_hours": "Tu-Su", "phone": "+30 2843 052281", "website": "https://www.facebook.com/%CE%91%CE%BB%CE%BB%CE%B9%CF%89%CF%84%CE%B9%CE%BA%CE%BF-2055173981475552/"}}, {"type": "node", "id": 8560303939, "lat": 35.0331079, "lon": 25.9441822}, {"type": "node", "id": 9792336746, "lat": 35.0393226, "lon": 25.976317}, {"type": "node", "id": 9792336747, "lat": 35.0393592, "lon": 25.9764347}, {"type": "node", "id": 9836942591, "lat": 35.0190351, "lon": 25.8556531}, {"type": "node", "id": 9919320417, "lat": 35.0444603, "lon": 26.2303266, "tags": {"amenity": "cafe", "name": "Coffee House Cafe"}}, {"type": "node", "id": 9921967332, "lat": 35.0387791, "lon": 25.9741136, "tags": {"amenity": "cafe", "cuisine": "coffee_shop", "name": "De\u03bb\u03cc\u03b3\u03c9"}}, {"type": "node", "id": 9923273930, "lat": 35.0368205, "lon": 25.9730806, "tags": {"amenity": "restaurant", "name": "Minas Place"}}, {"type": "node", "id": 9923273931, "lat": 35.0367791, "lon": 25.97309, "tags": {"amenity": "cafe", "cuisine": "coffee_shop", "name": "Limanaki"}}, {"type": "node", "id": 9924642814, "lat": 35.0041837, "lon": 25.8138466}, {"type": "node", "id": 9924642815, "lat": 35.0040767, "lon": 25.8141048}, {"type": "node", "id": 9924642816, "lat": 35.0043755, "lon": 25.814417}, {"type": "node", "id": 9924642817, "lat": 35.0045927, "lon": 25.8140655}, {"type": "node", "id": 9924642818, "lat": 35.0043281, "lon": 25.8138147}, {"type": "node", "id": 9924642819, "lat": 35.0042672, "lon": 25.813921}, {"type": "node", "id": 9925252328, "lat": 35.0375723, "lon": 25.973129, "tags": {"amenity": "restaurant", "cuisine": "greek", "diet:vegan": "no", "diet:vegetarian": "yes", "name": "Taverna Thalassa", "payment:credit_cards": "yes", "payment:debit_cards": "yes", "wheelchair": "no"}}, {"type": "node", "id": 9925252329, "lat": 35.0374969, "lon": 25.9731026, "tags": {"amenity": "restaurant", "cuisine": "greek", "name": "Agyrovoli"}}, {"type": "node", "id": 9925252333, "lat": 35.0380559, "lon": 25.9735322, "tags": {"amenity": "restaurant", "cuisine": "greek;\u03b5\u03bb\u03b9\u03b1", "name": "Elia"}}, {"type": "node", "id": 9927400753, "lat": 35.0045762, "lon": 25.814093}, {"type": "node", "id": 10118537427, "lat": 35.0353051, "lon": 25.9337445, "tags": {"amenity": "restaurant", "cuisine": "greek", "name": "Dasaki Taverna", "name:de": "Dasaki Taverne"}}, {"type": "node", "id": 11301027098, "lat": 35.0190832, "lon": 25.8556366}, {"type": "node", "id": 11301027099, "lat": 35.0190403, "lon": 25.8554395}, {"type": "node", "id": 11301027100, "lat": 35.0189891, "lon": 25.8554556}, {"type": "node", "id": 11991749234, "lat": 35.0104741, "lon": 25.8352022, "tags": {"amenity": "restaurant", "name": "Main Restaurant"}}, {"type": "node", "id": 11991749235, "lat": 35.0107943, "lon": 25.8350024, "tags": {"amenity": "restaurant", "cuisine": "italian", "name": "Italian Restaurant", "note": "included, but you have to make a reservation at the reception"}}, {"type": "way", "id": 223750246, "nodes": [2326320194, 2326320195, 2326320197, 2326321390, 2326320194], "tags": {"amenity": "restaurant", "building": "yes", "cuisine": "greek", "name": "Akrogiali Tavern", "phone": "+302843026777"}}, {"type": "way", "id": 374979941, "nodes": [3783621270, 3783621274, 3783621272, 3783621273, 3783621271, 3783621269, 3783621270], "tags": {"addr:city": "\u039a\u03bf\u03c5\u03c4\u03c3\u03bf\u03c5\u03bd\u03ac\u03c1\u03b9", "addr:postcode": "72200", "amenity": "restaurant", "building": "yes", "cuisine": "greek", "int_name": "Oasis Tavern", "name": "Oasis Tavern", "name:en": "Oasis Tavern"}}, {"type": "way", "id": 455558118, "nodes": [4519503193, 4519502883, 4519502851, 4519502846, 4519503193], "tags": {"amenity": "restaurant", "building": "restaurant", "cuisine": "greek", "diet:vegan": "no", "diet:vegetarian": "yes", "name": "Dolphin", "wheelchair": "limited"}}, {"type": "way", "id": 529801713, "nodes": [5146091238, 5146091237, 5146091236, 5146091235, 8560303939, 5146091238], "tags": {"amenity": "restaurant", "cuisine": "regional", "name": "Tavern Robinson"}}, {"type": "way", "id": 607170212, "nodes": [5754883766, 5754883767, 5754883768, 9792336747, 9792336746, 5754883769, 5754883766], "tags": {"amenity": "restaurant", "building": "yes", "cuisine": "burger;sandwich", "diet:mediterranean": "yes", "layer": "-1", "name": "Coukos"}}, {"type": "way", "id": 1082933694, "nodes": [9924642814, 9924642815, 9924642816, 9927400753, 9924642817, 9924642818, 9924642819, 9924642814], "tags": {"amenity": "restaurant", "building": "yes", "name": "Main Restaurant", "opening_hours": "PH,Mo-Su 07:30-11:00,12:30-14:00,15:00-17:00,19:30-21:30"}}, {"type": "way", "id": 1219630507, "nodes": [9836942591, 11301027100, 11301027099, 11301027098, 9836942591], "tags": {"amenity": "cafe", "building": "yes", "delivery": "yes", "internet_access": "wlan", "internet_access:fee": "no", "name": "Route 76", "smoking": "outside", "takeaway": "yes"}}]}