{"version": 0.6, "generator": "Overpass API 0.7.62.7 375dc00a", "osm3s": {"timestamp_osm_base": "2025-06-14T13:57:32Z", "copyright": "The data included in this document is from www.openstreetmap.org. The data is made available under ODbL."}, "elements": [{"type": "node", "id": 343767246, "lat": 39.3688253, "lon": 16.2273465, "tags": {"amenity": "restaurant", "name": "Le Casette di Zio Rocco"}}, {"type": "node", "id": 343767282, "lat": 39.363672, "lon": 16.2225087, "tags": {"addr:city": "Rende", "addr:postcode": "87036", "amenity": "cafe", "name": "Bar \"Club 99\"", "toilets:wheelchair": "yes", "wheelchair": "yes"}}, {"type": "node", "id": 344103667, "lat": 39.3621264, "lon": 16.2238131, "tags": {"amenity": "cafe", "name": "Bar Martensson - La Cascina"}}, {"type": "node", "id": 344103668, "lat": 39.3621337, "lon": 16.2240822, "tags": {"amenity": "restaurant", "name": "Mensa Martensson - La Cascina"}}, {"type": "node", "id": 344103669, "lat": 39.3558565, "lon": 16.225215, "tags": {"amenity": "cafe", "name": "Bar Centro Residenziale", "wheelchair": "yes"}}, {"type": "node", "id": 344103671, "lat": 39.3556385, "lon": 16.2252271, "tags": {"amenity": "restaurant", "name": "Mensa Centro Residenziale", "toilets:wheelchair": "yes", "wheelchair": "yes"}}, {"type": "node", "id": 834717235, "lat": 39.3886749, "lon": 16.2367733, "tags": {"amenity": "restaurant", "cuisine": "italian", "name": "Ristorante Pizzeria La Ciambotta"}}, {"type": "node", "id": 996753636, "lat": 39.5466514, "lon": 16.2996884, "tags": {"amenity": "restaurant", "email": "aziendavemi@virgilio.it", "name": "Agriturismo Vemi", "opening_hours": "\"on prenotation\"", "phone": "+39 0984 957342"}}, {"type": "node", "id": 996897856, "lat": 39.3551511, "lon": 16.2401357, "tags": {"amenity": "restaurant", "cuisine": "regional", "name": "Tre Spighe"}}, {"type": "node", "id": 996912485, "lat": 39.354062, "lon": 16.2433816, "tags": {"addr:city": "Rende", "addr:place": "Piazza Santo Sergio", "addr:postcode": "87036", "amenity": "cafe", "name": "Colosseo", "wheelchair": "limited"}}, {"type": "node", "id": 996912498, "lat": 39.3541526, "lon": 16.2408366, "tags": {"addr:city": "Rende", "addr:housenumber": "44", "addr:postcode": "87036", "addr:street": "Via Guglielmo Marconi", "amenity": "restaurant", "cuisine": "sushi", "facebook": "https://www.facebook.com/sushirende/", "name": "888 Sushi", "opening_hours": "Mo-Su 12:00-15:30, 19:00-23:59", "phone": "+39 09841453766", "website": "https://www.sushirende.it/"}}, {"type": "node", "id": 1352416352, "lat": 39.2843127, "lon": 16.272348}, {"type": "node", "id": 1355529150, "lat": 39.3386561, "lon": 16.0651434}, {"type": "node", "id": 1355529155, "lat": 39.3386787, "lon": 16.0650395}, {"type": "node", "id": 1355529163, "lat": 39.3387602, "lon": 16.0651661}, {"type": "node", "id": 1355529167, "lat": 39.3387828, "lon": 16.0650621}, {"type": "node", "id": 1409259730, "lat": 39.2923362, "lon": 16.2520222, "tags": {"amenity": "restaurant", "name": "Scarpelli"}}, {"type": "node", "id": 1409279244, "lat": 39.3346277, "lon": 16.2401414, "tags": {"amenity": "cafe", "name": "Mary Gelateria", "wheelchair": "limited"}}, {"type": "node", "id": 1414392365, "lat": 39.3621727, "lon": 16.0431276, "tags": {"amenity": "restaurant", "name": "pizzeria pulcinella"}}, {"type": "node", "id": 1414392383, "lat": 39.3621767, "lon": 16.0296689, "tags": {"amenity": "restaurant", "name": "krystal"}}, {"type": "node", "id": 1621585354, "lat": 39.1339279, "lon": 16.2460127, "tags": {"amenity": "restaurant"}}, {"type": "node", "id": 2659479846, "lat": 39.33538, "lon": 16.2442333}, {"type": "node", "id": 2659479849, "lat": 39.3353795, "lon": 16.2443599}, {"type": "node", "id": 2659479850, "lat": 39.3353117, "lon": 16.2442328}, {"type": "node", "id": 2659479851, "lat": 39.3353103, "lon": 16.2445565}, {"type": "node", "id": 2659479852, "lat": 39.3353786, "lon": 16.244557}, {"type": "node", "id": 2758559514, "lat": 39.3402425, "lon": 16.2459968, "tags": {"amenity": "restaurant", "cuisine": "italian", "name": "Papero Verde"}}, {"type": "node", "id": 2758596921, "lat": 39.3388055, "lon": 16.2457023, "tags": {"amenity": "restaurant", "capacity": "30", "cuisine": "steak", "name": "Griglieria del Popolo", "smoking": "no"}}, {"type": "node", "id": 2896618286, "lat": 39.3063653, "lon": 16.0478336, "tags": {"amenity": "cafe", "name": "La Rotonda"}}, {"type": "node", "id": 2896618617, "lat": 39.3067929, "lon": 16.0479221, "tags": {"amenity": "cafe", "name": "Miramare"}}, {"type": "node", "id": 2921542040, "lat": 39.5377855, "lon": 15.9020336, "tags": {"amenity": "restaurant"}}, {"type": "node", "id": 2942448340, "lat": 39.1334948, "lon": 16.0723193, "tags": {"addr:city": "Amantea", "addr:country": "IT", "addr:housenumber": "92", "addr:postcode": "87032", "addr:street": "Via Dogana", "amenity": "restaurant", "cuisine": "italian", "name": "Due Bicchieri", "phone": "+39 0982 424 409"}}, {"type": "node", "id": 3093913426, "lat": 39.4079715, "lon": 16.0145429, "tags": {"amenity": "cafe"}}, {"type": "node", "id": 3093914260, "lat": 39.3903392, "lon": 16.0192791}, {"type": "node", "id": 3093914261, "lat": 39.3903414, "lon": 16.0193862}, {"type": "node", "id": 3093914262, "lat": 39.3904185, "lon": 16.0192764}, {"type": "node", "id": 3093914263, "lat": 39.3904207, "lon": 16.0193835}, {"type": "node", "id": 3093914287, "lat": 39.3911342, "lon": 16.0190397, "tags": {"amenity": "restaurant"}}, {"type": "node", "id": 3164269841, "lat": 39.3342371, "lon": 16.2422006, "tags": {"amenity": "cafe", "name": "Antica Pasticceria"}}, {"type": "node", "id": 3259832516, "lat": 39.1887668, "lon": 16.3069853}, {"type": "node", "id": 3259832521, "lat": 39.1888026, "lon": 16.3069072}, {"type": "node", "id": 3259832522, "lat": 39.1888135, "lon": 16.307021}, {"type": "node", "id": 3259832528, "lat": 39.1889543, "lon": 16.3071283}, {"type": "node", "id": 3259832529, "lat": 39.1889901, "lon": 16.3070502}, {"type": "node", "id": 3371727430, "lat": 39.4129736, "lon": 16.009404, "tags": {"amenity": "restaurant", "name": "Mare in Bocca"}}, {"type": "node", "id": 3373431676, "lat": 39.431112, "lon": 16.0018777, "tags": {"amenity": "restaurant", "name": "Banaker"}}, {"type": "node", "id": 3734052382, "lat": 39.4996723, "lon": 16.2758656, "tags": {"amenity": "restaurant", "cuisine": "pizza", "name": "arte pizza"}}, {"type": "node", "id": 3734069505, "lat": 39.502983, "lon": 16.2652636, "tags": {"amenity": "restaurant", "cuisine": "pizza", "name": "Pinocchio"}}, {"type": "node", "id": 3734069810, "lat": 39.5030258, "lon": 16.2645279, "tags": {"amenity": "restaurant", "name": "Gusto west"}}, {"type": "node", "id": 3960414057, "lat": 39.3632166, "lon": 16.2175985, "tags": {"amenity": "restaurant", "cuisine": "pizza;burger", "name": "Fuori Corso", "takeaway": "yes"}}, {"type": "node", "id": 4146291805, "lat": 39.2485102, "lon": 16.1740374}, {"type": "node", "id": 4146291806, "lat": 39.2485981, "lon": 16.1740595}, {"type": "node", "id": 4146291807, "lat": 39.2485925, "lon": 16.1742102}, {"type": "node", "id": 4146291808, "lat": 39.2485001, "lon": 16.1741913}, {"type": "node", "id": 4146291809, "lat": 39.2485062, "lon": 16.174128}, {"type": "node", "id": 4146291810, "lat": 39.2484794, "lon": 16.1741293}, {"type": "node", "id": 4146291811, "lat": 39.2484819, "lon": 16.1740413}, {"type": "node", "id": 4146291812, "lat": 39.2485077, "lon": 16.1740485}, {"type": "node", "id": 4493484834, "lat": 39.303653, "lon": 16.3400597, "tags": {"addr:city": "Spezzano Albanese", "addr:housenumber": "6", "addr:postcode": "87058", "addr:street": "Via Alfonso Rendano", "amenity": "cafe", "name": "Bar Panoramico"}}, {"type": "node", "id": 4493487051, "lat": 39.3035645, "lon": 16.340072, "tags": {"amenity": "restaurant", "name": "Il Fungo"}}, {"type": "node", "id": 4834131584, "lat": 39.3558532, "lon": 16.2283777, "tags": {"addr:city": "Rende", "addr:housenumber": "8", "addr:postcode": "87036", "addr:street": "Via Alberto Savinio", "amenity": "cafe", "facebook": "https://www.facebook.com/VentimigliaDeRango/", "instagram": "https://www.instagram.com/bar_ventimiglia", "internet_access": "wlan", "internet_access:fee": "yes", "name": "Bar Ventimiglia", "opening_hours": "06:30 - 19:00", "outdoor_seating": "yes", "phone": "+39 0984837561", "toilets:wheelchair": "yes", "wheelchair": "yes"}}, {"type": "node", "id": 4834212319, "lat": 39.3559877, "lon": 16.2284327, "tags": {"addr:city": "Rende", "addr:housenumber": "13", "addr:postcode": "87036", "addr:street": "Via Alberto Savinio", "amenity": "cafe", "facebook": "https://www.facebook.com/AgiuropicalaBar/", "instagram": "https://www.instagram.com/agiuropicala_di_baffa_rosalba", "name": "Agiuropicala", "outdoor_seating": "yes", "phone": "+39 3490560735", "toilets:wheelchair": "no", "wheelchair": "limited"}}, {"type": "node", "id": 5223444893, "lat": 39.2583229, "lon": 16.3443506, "tags": {"amenity": "restaurant", "name": "Piezzeria Cappuccini"}}, {"type": "node", "id": 5224507284, "lat": 39.2878166, "lon": 16.2646361, "tags": {"amenity": "restaurant"}}, {"type": "node", "id": 5538821936, "lat": 39.5103358, "lon": 15.9406786, "tags": {"amenity": "restaurant", "name": "Il Gusto giusto"}}, {"type": "node", "id": 5538821945, "lat": 39.5108297, "lon": 15.9402137, "tags": {"amenity": "cafe", "name": "Caff\u00e8 San Marco"}}, {"type": "node", "id": 5538821947, "lat": 39.5103205, "lon": 15.9403121, "tags": {"amenity": "cafe", "name": "Corner"}}, {"type": "node", "id": 5570740023, "lat": 39.1606139, "lon": 16.2531835, "tags": {"amenity": "restaurant"}}, {"type": "node", "id": 5577301269, "lat": 39.2366715, "lon": 16.2506362, "tags": {"addr:city": "Dipignano", "addr:postcode": "87045", "amenity": "restaurant", "capacity": "100", "name": "Osteria Dal Cugino", "outdoor_seating": "yes", "smoking": "no"}}, {"type": "node", "id": 5642179321, "lat": 39.3530567, "lon": 16.2397718, "tags": {"amenity": "restaurant", "brand": "Rossopomodoro", "brand:wikidata": "Q16598843", "brand:wikipedia": "it:Rossopomodoro", "cuisine": "pizza;seafood", "name": "Rossopomodoro", "phone": "+39 0984 401392", "website": "http://www.rende.rossopomodoro.com"}}, {"type": "node", "id": 5651273013, "lat": 39.2194113, "lon": 16.2058235}, {"type": "node", "id": 5651273014, "lat": 39.2193764, "lon": 16.2059057}, {"type": "node", "id": 5651273015, "lat": 39.2194775, "lon": 16.2059747}, {"type": "node", "id": 5651273016, "lat": 39.2194861, "lon": 16.2059738}, {"type": "node", "id": 5651273017, "lat": 39.2194967, "lon": 16.2059508}, {"type": "node", "id": 5651273018, "lat": 39.2195215, "lon": 16.2059349}, {"type": "node", "id": 5651273019, "lat": 39.2195345, "lon": 16.2058972}, {"type": "node", "id": 5661159271, "lat": 39.3410888, "lon": 16.0443043, "tags": {"addr:city": "Paola", "addr:housenumber": "102", "addr:postcode": "87027", "addr:street": "Contrada Pantani", "amenity": "restaurant", "cuisine": "regional;italian;seafood", "name": "Ristorante Pizzeria Bar Petrulla", "opening_hours": "Tu-Su 12:00-14:30, 19:00-23:00", "phone": "+39 0982 582651"}}, {"type": "node", "id": 5744508925, "lat": 39.1641173, "lon": 16.0655831}, {"type": "node", "id": 5744508926, "lat": 39.1641206, "lon": 16.0657849}, {"type": "node", "id": 5744508927, "lat": 39.1638997, "lon": 16.0657911}, {"type": "node", "id": 5744508928, "lat": 39.1638963, "lon": 16.0655892}, {"type": "node", "id": 5744516846, "lat": 39.1592022, "lon": 16.0639966}, {"type": "node", "id": 5744516847, "lat": 39.1592002, "lon": 16.0641674}, {"type": "node", "id": 5744516848, "lat": 39.159044, "lon": 16.0641644}, {"type": "node", "id": 5744516851, "lat": 39.159046, "lon": 16.0639935}, {"type": "node", "id": 5893065301, "lat": 39.2182238, "lon": 16.3377861, "tags": {"amenity": "cafe", "name": "Brooklyn Bar"}}, {"type": "node", "id": 5990451025, "lat": 39.3373941, "lon": 16.1386441}, {"type": "node", "id": 5990451026, "lat": 39.3372579, "lon": 16.1385922}, {"type": "node", "id": 5990451027, "lat": 39.3372339, "lon": 16.1386975}, {"type": "node", "id": 5990451028, "lat": 39.3373701, "lon": 16.1387494}, {"type": "node", "id": 6283196702, "lat": 39.4783772, "lon": 15.9941713}, {"type": "node", "id": 6283196703, "lat": 39.4784238, "lon": 15.9942062}, {"type": "node", "id": 6283196704, "lat": 39.4784565, "lon": 15.9939936}, {"type": "node", "id": 6283196705, "lat": 39.4785031, "lon": 15.9940284}, {"type": "node", "id": 6835687873, "lat": 39.291179, "lon": 16.2576816, "tags": {"amenity": "cafe", "cuisine": "ice_cream", "name": "Gelateria Zorro 1932", "wheelchair": "limited"}}, {"type": "node", "id": 7080182666, "lat": 39.3243994, "lon": 16.2706988, "tags": {"amenity": "restaurant", "name": "Ara casa mia"}}, {"type": "node", "id": 7573121396, "lat": 39.5448154, "lon": 16.3281868, "tags": {"amenity": "restaurant", "name": "The Nice Place RistoPub"}}, {"type": "node", "id": 7989377456, "lat": 39.3462868, "lon": 16.2420788, "tags": {"addr:housenumber": "34", "addr:street": "Via Rossini", "amenity": "restaurant", "name": "Dunya"}}, {"type": "node", "id": 7989379280, "lat": 39.3425102, "lon": 16.2443733, "tags": {"amenity": "restaurant", "name": "Du Spaghi"}}, {"type": "node", "id": 8231079606, "lat": 39.383634, "lon": 16.2607296, "tags": {"amenity": "restaurant", "name": "Da Mario"}}, {"type": "node", "id": 8265447285, "lat": 39.1880515, "lon": 16.3075522, "tags": {"amenity": "restaurant", "brand": "Autogrill", "brand:wikidata": "Q786790", "brand:wikipedia": "en:Autogrill", "cuisine": "italian;regional", "name": "Autogrill"}}, {"type": "node", "id": 8651882914, "lat": 39.347046, "lon": 16.2052447, "tags": {"amenity": "cafe", "name": "Arintha caf\u00e8"}}, {"type": "node", "id": 8653081224, "lat": 39.2881842, "lon": 16.2608362, "tags": {"amenity": "cafe", "name": "Gran Caff\u00e8 Renzelli"}}, {"type": "node", "id": 8655583720, "lat": 39.2875831, "lon": 16.2613748, "tags": {"amenity": "cafe", "name": "Caff\u00e8 Telesio", "tobacco": "yes"}}, {"type": "node", "id": 8656169748, "lat": 39.2916474, "lon": 16.2513207, "tags": {"amenity": "cafe"}}, {"type": "node", "id": 8817654203, "lat": 39.3063356, "lon": 16.2566109, "tags": {"amenity": "cafe"}}, {"type": "node", "id": 8817973683, "lat": 39.3250379, "lon": 16.2562653, "tags": {"amenity": "cafe", "name": "Con sapore"}}, {"type": "node", "id": 9404436459, "lat": 39.5203128, "lon": 15.9315715, "tags": {"amenity": "cafe", "ice_cream": "yes", "name": "Mulini"}}, {"type": "node", "id": 9471060676, "lat": 39.3573512, "lon": 16.0324694}, {"type": "node", "id": 9471060677, "lat": 39.3574592, "lon": 16.0324163}, {"type": "node", "id": 9471060678, "lat": 39.357476, "lon": 16.0324118}, {"type": "node", "id": 9471060679, "lat": 39.3574976, "lon": 16.0324184}, {"type": "node", "id": 9471060680, "lat": 39.3575122, "lon": 16.0324373}, {"type": "node", "id": 9471060681, "lat": 39.3575201, "lon": 16.0324639}, {"type": "node", "id": 9471060682, "lat": 39.3575168, "lon": 16.0324931}, {"type": "node", "id": 9471060683, "lat": 39.3574873, "lon": 16.0325214}, {"type": "node", "id": 9471060685, "lat": 39.3573859, "lon": 16.0325766}, {"type": "node", "id": 9471956914, "lat": 39.357501, "lon": 16.0325137}, {"type": "node", "id": 9487318438, "lat": 39.3830449, "lon": 16.0289607}, {"type": "node", "id": 9487318439, "lat": 39.3831842, "lon": 16.0290796}, {"type": "node", "id": 9487318440, "lat": 39.3831596, "lon": 16.0291362}, {"type": "node", "id": 9487318441, "lat": 39.3832416, "lon": 16.0291964}, {"type": "node", "id": 9487318442, "lat": 39.3831596, "lon": 16.0293415}, {"type": "node", "id": 9487318443, "lat": 39.3830939, "lon": 16.0292601}, {"type": "node", "id": 9487318444, "lat": 39.3830119, "lon": 16.0292672}, {"type": "node", "id": 9487318445, "lat": 39.3829654, "lon": 16.0293274}, {"type": "node", "id": 9487318446, "lat": 39.3829298, "lon": 16.029292}, {"type": "node", "id": 9487318447, "lat": 39.3828313, "lon": 16.0293521}, {"type": "node", "id": 9487318448, "lat": 39.3828012, "lon": 16.0293203}, {"type": "node", "id": 9487318449, "lat": 39.3827657, "lon": 16.0293592}, {"type": "node", "id": 9487318450, "lat": 39.3826262, "lon": 16.0291469}, {"type": "node", "id": 9487318451, "lat": 39.382711, "lon": 16.029069}, {"type": "node", "id": 9487318452, "lat": 39.3828395, "lon": 16.0292566}, {"type": "node", "id": 9487318453, "lat": 39.3829079, "lon": 16.0292247}, {"type": "node", "id": 9487318454, "lat": 39.3829572, "lon": 16.0291327}, {"type": "node", "id": 9498151020, "lat": 39.3552628, "lon": 16.0335998}, {"type": "node", "id": 9498151021, "lat": 39.3558948, "lon": 16.0333471}, {"type": "node", "id": 9498151022, "lat": 39.3559869, "lon": 16.0337712}, {"type": "node", "id": 9498151023, "lat": 39.3553423, "lon": 16.0340166}, {"type": "node", "id": 9591914425, "lat": 39.3598618, "lon": 16.0306787}, {"type": "node", "id": 9591914429, "lat": 39.35997, "lon": 16.0309524}, {"type": "node", "id": 9591914430, "lat": 39.3601268, "lon": 16.0308488}, {"type": "node", "id": 9591914431, "lat": 39.3600186, "lon": 16.0305751}, {"type": "node", "id": 9624781839, "lat": 39.2341797, "lon": 16.066858, "tags": {"amenity": "restaurant", "name": "Valle Reale", "website": "https://www.facebook.com/vallerealefiumefreddo/"}}, {"type": "node", "id": 9624781843, "lat": 39.2346542, "lon": 16.0665881, "tags": {"addr:city": "Fiumefreddo Bruzio", "addr:housenumber": "1", "addr:postcode": "87030", "addr:street": "Largo Salvatore Fiume", "amenity": "restaurant", "cuisine": "regional", "name": "Convivio Enosteria con l'orto", "phone": "+39 3480519798"}}, {"type": "node", "id": 9624781844, "lat": 39.2353027, "lon": 16.066879, "tags": {"amenity": "restaurant", "name": "La Locanda della Tradizione"}}, {"type": "node", "id": 9624781845, "lat": 39.2353263, "lon": 16.0659984, "tags": {"amenity": "restaurant", "name": "La Taverna degli Antichi Sapori"}}, {"type": "node", "id": 9624781846, "lat": 39.2359133, "lon": 16.0652334, "tags": {"amenity": "restaurant", "name": "La Torretta"}}, {"type": "node", "id": 9624781847, "lat": 39.2357947, "lon": 16.0659899, "tags": {"addr:city": "Fiumefreddo Bruzio", "addr:housenumber": "22", "addr:postcode": "87030", "addr:street": "Via Roma", "amenity": "cafe", "cuisine": "pizza;ice_cream", "name": "Bar Trieste", "website": "https://www.facebook.com/Bar-Trieste-1805737742774309/"}}, {"type": "node", "id": 9624781848, "lat": 39.2339154, "lon": 16.069655, "tags": {"addr:city": "Fiumefreddo Bruzio", "addr:housenumber": "21", "addr:postcode": "87030", "addr:street": "Via Campo", "amenity": "restaurant", "cuisine": "pizza", "name": "U Campu"}}, {"type": "node", "id": 9624781849, "lat": 39.2365564, "lon": 16.0745184, "tags": {"amenity": "restaurant", "cuisine": "pizza", "name": "Duca"}}, {"type": "node", "id": 9624781850, "lat": 39.2455444, "lon": 16.0614602, "tags": {"addr:housenumber": "16", "addr:street": "Via Nazionale", "amenity": "restaurant", "cuisine": "pizza", "name": "Sapori Bruzi"}}, {"type": "node", "id": 9624781851, "lat": 39.2455171, "lon": 16.0617846, "tags": {"amenity": "cafe", "cuisine": "ice_cream", "indoor_seating": "yes", "name": "Tropical", "outdoor_seating": "yes", "wheelchair": "limited"}}, {"type": "node", "id": 9624781852, "lat": 39.2456037, "lon": 16.0612191, "tags": {"amenity": "restaurant", "cuisine": "seafood", "indoor_seating": "yes", "name": "Gli Osti... Nati", "outdoor_seating": "yes"}}, {"type": "node", "id": 9624781855, "lat": 39.2470385, "lon": 16.0600215, "tags": {"amenity": "restaurant", "name": "L'angolo del Gusto"}}, {"type": "node", "id": 9624948531, "lat": 39.2301803, "lon": 16.0604966, "tags": {"amenity": "cafe", "name": "Bar Reggio"}}, {"type": "node", "id": 9654821224, "lat": 39.2364592, "lon": 16.0838297}, {"type": "node", "id": 9654821225, "lat": 39.2363496, "lon": 16.0839793}, {"type": "node", "id": 9654821226, "lat": 39.2363136, "lon": 16.0840925}, {"type": "node", "id": 9654821227, "lat": 39.2364216, "lon": 16.0841633}, {"type": "node", "id": 9654821228, "lat": 39.2364639, "lon": 16.0840743}, {"type": "node", "id": 9654821229, "lat": 39.236561, "lon": 16.0839692}, {"type": "node", "id": 9654843806, "lat": 39.2351695, "lon": 16.0669663, "tags": {"amenity": "cafe", "name": "Il Localetto"}}, {"type": "node", "id": 9656328331, "lat": 39.2262846, "lon": 16.060959, "tags": {"amenity": "restaurant", "cuisine": "pizza", "name": "Esperia Pizza Ristorante"}}, {"type": "node", "id": 9675514983, "lat": 39.2063481, "lon": 16.076364, "tags": {"amenity": "cafe", "name": "Bar Pizzeria Pellegrini"}}, {"type": "node", "id": 9675514984, "lat": 39.2617664, "lon": 16.0726212, "tags": {"amenity": "restaurant", "name": "La Vecchia Quercia"}}, {"type": "node", "id": 9675521486, "lat": 39.2326023, "lon": 16.0622559, "tags": {"addr:city": "Fiumefreddo Bruzio", "addr:housenumber": "15", "addr:postcode": "87030", "addr:street": "Via Del Mulino", "amenity": "restaurant", "cuisine": "seafood", "name": "Pescheria Friggitoria Del Tirreno"}}, {"type": "node", "id": 9675521487, "lat": 39.2218371, "lon": 16.0963585, "tags": {"addr:city": "Fiumefreddo Bruzio", "addr:housenumber": "31", "addr:postcode": "87030", "addr:street": "Via Destra", "amenity": "cafe", "name": "Bar Amendola", "phone": "+39 0982 975912"}}, {"type": "node", "id": 9706770136, "lat": 39.1363675, "lon": 16.0740369, "tags": {"amenity": "cafe", "name": "Micuzzo"}}, {"type": "node", "id": 9706772971, "lat": 39.1359526, "lon": 16.0754564, "tags": {"amenity": "restaurant", "name": "Dintra u strittu"}}, {"type": "node", "id": 9720042477, "lat": 39.3539507, "lon": 16.2398292, "tags": {"addr:city": "Rende", "addr:housenumber": "76", "addr:postcode": "87036", "addr:street": "Via Guglielmo Marconi", "amenity": "restaurant", "brand": "Old Wild West", "brand:wikidata": "Q25402475", "cuisine": "american", "email": "rende@oldwildwest.it", "name": "Old Wild West", "opening_hours": "Mo-Fr 12:00-15:00, 19:00-23:00; Sa 12:00-15:00, 19:00-00:00; Su 12:00-15:30, 19:00-00:00", "phone": "+39 0984 404474", "ref:vatin": "03116560784", "website": "https://www.oldwildwest.it/code/20073/Rende-Via-Marconi"}}, {"type": "node", "id": 9840230257, "lat": 39.2984356, "lon": 16.2519766, "tags": {"amenity": "restaurant", "cuisine": "pizza", "name": "Fratelli la Bufala", "website": "https://www.fratellilabufala-cosenzarende.it/"}}, {"type": "node", "id": 9840408827, "lat": 39.293789, "lon": 16.2556749, "tags": {"amenity": "cafe", "name": "Delizie", "website": "https://m.facebook.com/delizie.cs/"}}, {"type": "node", "id": 9860416820, "lat": 39.2247514, "lon": 16.3302995, "tags": {"amenity": "restaurant", "cuisine": "pizza"}}, {"type": "node", "id": 10016884592, "lat": 39.3066253, "lon": 16.0494751, "tags": {"amenity": "cafe"}}, {"type": "node", "id": 10732961188, "lat": 39.243076, "lon": 16.3389418, "tags": {"addr:city": "Aprigliano", "addr:housenumber": "244", "addr:postcode": "87051", "addr:street": "SP", "amenity": "restaurant", "cuisine": "pizza;italian;bar_and_grill", "name": "Il Nettare degli Dei", "opening_hours": "Mo-Su 12:00-15:00,17:30-24:00", "phone": "+393333639041", "website": "https://www.facebook.com/ilnettaredeglidei/"}}, {"type": "node", "id": 10886186630, "lat": 39.3576511, "lon": 16.2258374}, {"type": "node", "id": 10886186631, "lat": 39.3575834, "lon": 16.2258456}, {"type": "node", "id": 10886186632, "lat": 39.3575816, "lon": 16.2258209}, {"type": "node", "id": 10886186633, "lat": 39.3574959, "lon": 16.2258313}, {"type": "node", "id": 10886186634, "lat": 39.3575404, "lon": 16.2260967}, {"type": "node", "id": 10886186635, "lat": 39.3576628, "lon": 16.2261187}, {"type": "node", "id": 10886186636, "lat": 39.3576598, "lon": 16.2260774}, {"type": "node", "id": 10886186637, "lat": 39.3576794, "lon": 16.2260751}, {"type": "node", "id": 10886186638, "lat": 39.357674, "lon": 16.2260014}, {"type": "node", "id": 10886186639, "lat": 39.3576631, "lon": 16.2260027}, {"type": "node", "id": 10886186644, "lat": 39.3575154, "lon": 16.2260997}, {"type": "node", "id": 10886186645, "lat": 39.3575431, "lon": 16.2261332}, {"type": "node", "id": 10887051208, "lat": 39.3537261, "lon": 16.2374617, "tags": {"addr:city": "Rende", "addr:postcode": "87036", "addr:street": "Via Guglielmo Marconi", "amenity": "restaurant", "cuisine": "pizza", "name": "Super Mario Pizza", "phone": "+39 3450058013", "website": "https://super-mario-pizza-pizzatakeaway.business.site/"}}, {"type": "node", "id": 10887051210, "lat": 39.3533522, "lon": 16.2377261, "tags": {"addr:city": "Rende", "addr:postcode": "87036", "addr:street": "Via Guglielmo Marconi", "amenity": "restaurant", "cuisine": "pizza", "facebook": "https://www.facebook.com/people/Take-And-Go-2/100057312615050/", "instagram": "https://www.instagram.com/takeandgo_2", "name": "Take and Go!", "phone": "+39 3279976006"}}, {"type": "node", "id": 10887051211, "lat": 39.3533454, "lon": 16.2376513, "tags": {"addr:city": "Rende", "addr:housenumber": "85a", "addr:postcode": "87036", "addr:street": "Via Guglielmo Marconi", "amenity": "cafe", "email": "fernandomaz@libero.it", "facebook": "https://www.facebook.com/people/Temple-Coffee-Rende-CS/100040057160166/", "name": "Temple Coffee", "outdoor_seating": "yes", "phone": "+39 0984837768", "ref:vatin": "02494220789"}}, {"type": "node", "id": 10919976988, "lat": 39.3538771, "lon": 16.2392835, "tags": {"addr:city": "Rende", "addr:housenumber": "104", "addr:postcode": "87036", "addr:street": "Via Guglielmo Marconi", "amenity": "restaurant", "name": "La Locanda", "opening_hours": "Mo-Su 12:25-15:00,19:15-24:00", "phone": "+39 0984402689", "ref:vatin": "03757260785"}}, {"type": "node", "id": 10919976993, "lat": 39.3538838, "lon": 16.2415027, "tags": {"addr:city": "Rende", "addr:postcode": "87036", "addr:street": "Via Guglielmo Marconi", "amenity": "restaurant", "cuisine": "poke", "instagram": "https://www.instagram.com/poke_okay_rende", "name": "Poke Okay", "opening_hours": "Mo-Su 18:00-23:00", "phone": "+39 3282550233"}}, {"type": "node", "id": 10919976995, "lat": 39.3560627, "lon": 16.2397956, "tags": {"addr:city": "Rende", "addr:postcode": "87036", "addr:street": "Via Francesco Todaro", "amenity": "restaurant", "cuisine": "pizza", "name": "Al Pachino", "opening_hours": "Mo-Su 19:00-04:00", "phone": "+39 0984401467", "ref:vatin": "03329070787", "website": "https://al-pachino.business.site/"}}, {"type": "node", "id": 11017376248, "lat": 39.3538548, "lon": 16.2348724, "tags": {"addr:city": "Rende", "addr:postcode": "87036", "amenity": "restaurant", "email": "ilfortino.info@gmail.com", "facebook": "https://www.facebook.com/Acquolina-Lounge-Cuisine-112662591443618", "instagram": "https://www.instagram.com/acquolinaloungecuisine", "level": "-1", "name": "Acquolina Lounge Cuisine", "phone": "+39 09841806221", "website": "https://ristoranteacquolina.it/", "website:menu": "https://ristoranteacquolina.it/menu/"}}, {"type": "node", "id": 11152758342, "lat": 39.2969996, "lon": 16.2545221, "tags": {"amenity": "restaurant", "cuisine": "pizza"}}, {"type": "node", "id": 11152758347, "lat": 39.2994591, "lon": 16.2536487, "tags": {"amenity": "cafe"}}, {"type": "node", "id": 11152758353, "lat": 39.2988624, "lon": 16.2538362, "tags": {"amenity": "cafe", "name": "Tosti"}}, {"type": "node", "id": 11238651026, "lat": 39.1323408, "lon": 16.0715064, "tags": {"addr:city": "Amantea", "addr:housenumber": "156", "addr:postcode": "87032", "addr:street": "Viale Regina Margherita", "amenity": "restaurant", "name": "Lanterna Rossa", "phone": "+39 0982 41645"}}, {"type": "node", "id": 11245411741, "lat": 39.3497425, "lon": 16.2428417, "tags": {"addr:city": "Rende", "addr:postcode": "87036", "addr:street": "Via Gioacchino Rossini", "amenity": "restaurant", "cuisine": "sushi", "email": "sushikokusai@gmail.com", "facebook": "https://www.facebook.com/SushiKokusai", "instagram": "https://instagram.com/sushikokusai", "name": "Sushi Kokusai", "phone": "+39 09841803721", "phone:mobile": "+39 3519900620", "website": "https://www.sushikokusai.com/"}}, {"type": "node", "id": 11245411742, "lat": 39.3522369, "lon": 16.2391552, "tags": {"addr:city": "Rende", "addr:postcode": "87036", "addr:street": "Via Enrico Fermi", "amenity": "restaurant", "cuisine": "pizza", "name": "Doppiozero", "phone": "+39 0984456419", "ref:vatin": "03789380783"}}, {"type": "node", "id": 11248181619, "lat": 39.3559505, "lon": 16.22849, "tags": {"addr:city": "Rende", "addr:housenumber": "15", "addr:postcode": "87036", "addr:street": "Via Alberto Savinio", "amenity": "cafe", "name": "Dolce e Salato 2.0", "outdoor_seating": "yes", "phone": "+39 3491092015"}}, {"type": "node", "id": 11248181627, "lat": 39.3535469, "lon": 16.2384834, "tags": {"addr:city": "Rende", "addr:housenumber": "75", "addr:postcode": "87036", "addr:street": "Via Guglielmo Marconi", "amenity": "restaurant", "cuisine": "pizza", "facebook": "https://www.facebook.com/pages/Pizzeria%20Annamaria/100103656747292/", "instagram": "https://www.instagram.com/pizzeriaannamaria", "name": "Pizzeria Annamaria", "phone": "+39 09841814452", "phone:mobile": "+39 3280805260"}}, {"type": "node", "id": 11272583770, "lat": 39.3647159, "lon": 16.2255527, "tags": {"addr:city": "Rende", "addr:postcode": "87036", "addr:street": "Ponte P. Bucci", "amenity": "cafe", "name": "Bar Valentine"}}, {"type": "node", "id": 11277878307, "lat": 39.3540624, "lon": 16.2347733, "tags": {"addr:city": "Rende", "addr:housenumber": "298", "addr:postcode": "87036", "addr:street": "Via Guglielmo Marconi", "amenity": "restaurant", "cuisine": "greek", "name": "Odysseas Ghyros", "phone": "+39 3515872570"}}, {"type": "node", "id": 11279994733, "lat": 39.2961941, "lon": 16.2542415, "tags": {"amenity": "restaurant", "cuisine": "pizza", "name": "Il Tagliere"}}, {"type": "node", "id": 11280058858, "lat": 39.2965124, "lon": 16.2544975, "tags": {"addr:city": "Cosenza", "amenity": "restaurant", "cuisine": "pizza", "email": "vanityfood.cs@gmail.com", "facebook": "https://www.facebook.com/VanityPizzaCosenza/", "instagram": "https://www.instagram.com/vanity_pizza_cosenza/", "name": "Vanity", "payment:alipay": "yes", "payment:american_express": "yes", "payment:apple_pay": "yes", "payment:cash": "yes", "payment:contactless": "yes", "payment:google_pay": "yes", "payment:maestro": "yes", "payment:mastercard": "yes", "payment:v_pay": "yes", "payment:visa": "yes", "phone": "+39 3756850597"}}, {"type": "node", "id": 11280083784, "lat": 39.2966269, "lon": 16.2547173, "tags": {"amenity": "cafe", "name": "Il caff\u00e8 di Alarico"}}, {"type": "node", "id": 11280089318, "lat": 39.2965889, "lon": 16.2547368, "tags": {"amenity": "restaurant", "cuisine": "pizza", "name": "1netto"}}, {"type": "node", "id": 11509024117, "lat": 39.1320679, "lon": 16.0684845}, {"type": "node", "id": 11509024142, "lat": 39.1263879, "lon": 16.071111}, {"type": "node", "id": 11509024167, "lat": 39.1310045, "lon": 16.0692363}, {"type": "node", "id": 11509064492, "lat": 39.1341578, "lon": 16.0679097, "tags": {"amenity": "restaurant", "indoor_seating": "yes", "name": "Micky Beach", "outdoor_seating": "yes", "wheelchair": "yes"}}, {"type": "node", "id": 11509064498, "lat": 39.1310875, "lon": 16.0695123}, {"type": "node", "id": 11509064518, "lat": 39.1266801, "lon": 16.0709996}, {"type": "node", "id": 11509064531, "lat": 39.1310734, "lon": 16.0694629}, {"type": "node", "id": 11509064540, "lat": 39.1300496, "lon": 16.0697187, "tags": {"amenity": "restaurant", "indoor_seating": "yes", "name": "A Modo Mio", "outdoor_seating": "yes"}}, {"type": "node", "id": 11509064542, "lat": 39.1262913, "lon": 16.0706896}, {"type": "node", "id": 11509064555, "lat": 39.1270002, "lon": 16.0708895}, {"type": "node", "id": 11509064559, "lat": 39.1271001, "lon": 16.0704268}, {"type": "node", "id": 11509064573, "lat": 39.1319857, "lon": 16.0685116}, {"type": "node", "id": 11509064576, "lat": 39.1269056, "lon": 16.0705066}, {"type": "node", "id": 11509064585, "lat": 39.1271946, "lon": 16.0708097}, {"type": "node", "id": 11509064588, "lat": 39.1265835, "lon": 16.0705782}, {"type": "node", "id": 11509064596, "lat": 39.1320107, "lon": 16.0686379}, {"type": "node", "id": 11509064612, "lat": 39.130743, "lon": 16.0696673}, {"type": "node", "id": 11509064613, "lat": 39.1320929, "lon": 16.0686109}, {"type": "node", "id": 11509064622, "lat": 39.1306644, "lon": 16.069346}, {"type": "node", "id": 11514140825, "lat": 39.3648089, "lon": 16.0299082, "tags": {"amenity": "restaurant", "cuisine": "italian", "name": "Scialab\u00e9", "website": "https://www.facebook.com/scialabefood"}}, {"type": "node", "id": 11536340199, "lat": 39.1493961, "lon": 16.0661294, "tags": {"amenity": "restaurant", "name": "La Grotta"}}, {"type": "node", "id": 11731471409, "lat": 39.1272248, "lon": 16.0719291, "tags": {"amenity": "restaurant", "cuisine": "pizza"}}, {"type": "node", "id": 11731501002, "lat": 39.131139, "lon": 16.0709423, "tags": {"amenity": "cafe", "indoor_seating": "yes", "outdoor_seating": "yes"}}, {"type": "node", "id": 11731502446, "lat": 39.1315367, "lon": 16.0713724, "tags": {"amenity": "restaurant", "indoor_seating": "yes", "outdoor_seating": "yes"}}, {"type": "node", "id": 11731509358, "lat": 39.1260726, "lon": 16.0723218, "tags": {"amenity": "cafe", "indoor_seating": "yes", "outdoor_seating": "yes"}}, {"type": "node", "id": 11731535102, "lat": 39.1319591, "lon": 16.0711062, "tags": {"amenity": "restaurant"}}, {"type": "node", "id": 11731601714, "lat": 39.1290223, "lon": 16.0698797, "tags": {"amenity": "restaurant", "indoor_seating": "yes", "name": "Il Sombrero", "outdoor_seating": "yes"}}, {"type": "node", "id": 11731607254, "lat": 39.1254432, "lon": 16.0712299, "tags": {"amenity": "restaurant", "indoor_seating": "yes", "name": "Oasi Blu", "opening_hours": "Sa,Su,PH 12:30-15:00, Mo-Su 19:30-23:30", "outdoor_seating": "yes"}}, {"type": "node", "id": 11733554378, "lat": 39.1314202, "lon": 16.068751, "tags": {"amenity": "restaurant", "name": "Lido Azzurro"}}, {"type": "node", "id": 11733646033, "lat": 39.1473776, "lon": 16.0660658, "tags": {"amenity": "cafe"}}, {"type": "node", "id": 11733660437, "lat": 39.1664366, "lon": 16.0639915, "tags": {"amenity": "restaurant"}}, {"type": "node", "id": 11733896510, "lat": 39.2216198, "lon": 16.0614251, "tags": {"amenity": "cafe", "name": "L'Ancora", "wheelchair": "yes"}}, {"type": "node", "id": 11734153309, "lat": 39.2600193, "lon": 16.0586661, "tags": {"amenity": "restaurant", "indoor_seating": "yes", "outdoor_seating": "yes"}}, {"type": "node", "id": 11734170389, "lat": 39.2626137, "lon": 16.0576167, "tags": {"amenity": "cafe", "indoor_seating": "yes", "outdoor_seating": "yes"}}, {"type": "node", "id": 11734308657, "lat": 39.3051697, "lon": 16.047245, "tags": {"amenity": "restaurant", "name": "Il Fico d'India"}}, {"type": "node", "id": 11734327721, "lat": 39.3054772, "lon": 16.0469252, "tags": {"amenity": "restaurant", "name": "Lo Scoglio"}}, {"type": "node", "id": 11734328236, "lat": 39.3058027, "lon": 16.0468597, "tags": {"amenity": "cafe", "indoor_seating": "yes", "name": "Calipso", "outdoor_seating": "yes"}}, {"type": "node", "id": 11734449548, "lat": 39.3679473, "lon": 16.0277793, "tags": {"amenity": "restaurant"}}, {"type": "node", "id": 11734513916, "lat": 39.3630563, "lon": 16.0293237, "tags": {"amenity": "restaurant", "cuisine": "sushi"}}, {"type": "node", "id": 11736275012, "lat": 39.3916755, "lon": 16.0196574, "tags": {"amenity": "cafe"}}, {"type": "node", "id": 11736309868, "lat": 39.392839, "lon": 16.019503, "tags": {"amenity": "restaurant"}}, {"type": "node", "id": 11736482175, "lat": 39.4638387, "lon": 15.980207, "tags": {"amenity": "cafe", "indoor_seating": "yes", "outdoor_seating": "yes"}}, {"type": "node", "id": 11736496721, "lat": 39.4627503, "lon": 15.981053, "tags": {"amenity": "cafe", "indoor_seating": "yes", "outdoor_seating": "yes"}}, {"type": "node", "id": 11736533264, "lat": 39.4734813, "lon": 15.9665282, "tags": {"amenity": "restaurant", "indoor_seating": "yes", "name": "Zio Enzo", "outdoor_seating": "yes", "wheelchair": "yes"}}, {"type": "node", "id": 11736586278, "lat": 39.4760374, "lon": 15.9627046, "tags": {"amenity": "restaurant", "name": "il Caicco", "survey:date": "2024-03-16"}}, {"type": "node", "id": 11736614050, "lat": 39.4783475, "lon": 15.9600666, "tags": {"amenity": "restaurant", "name": "Acquadimare"}}, {"type": "node", "id": 11736623992, "lat": 39.4856044, "lon": 15.9559485, "tags": {"amenity": "restaurant"}}, {"type": "node", "id": 11736649028, "lat": 39.5075215, "lon": 15.9439332, "tags": {"amenity": "cafe", "indoor_seating": "yes", "name": "La Perla Nera", "outdoor_seating": "yes"}}, {"type": "node", "id": 11736707355, "lat": 39.528877, "lon": 15.921575, "tags": {"amenity": "restaurant", "name": "Il Faro"}}, {"type": "node", "id": 11736758420, "lat": 39.5207547, "lon": 15.9314025, "tags": {"amenity": "restaurant", "name": "Le Tre Luci"}}, {"type": "node", "id": 11755534749, "lat": 39.3374769, "lon": 16.2441749, "tags": {"addr:city": "Rende", "addr:housenumber": "176", "addr:postcode": "87036", "addr:street": "Viale della Resistenza", "amenity": "restaurant", "cuisine": "pizza", "name": "Euro Pizza Rende", "phone": "+39 0984466254", "website": "https://www.facebook.com/profile.php?id=61553218541216"}}, {"type": "node", "id": 11822066527, "lat": 39.2989678, "lon": 16.2527182, "tags": {"amenity": "restaurant"}}, {"type": "node", "id": 11822622536, "lat": 39.3028637, "lon": 16.2535375, "tags": {"amenity": "restaurant", "cuisine": "asian", "name": "Ristorante Orientale"}}, {"type": "node", "id": 11825030971, "lat": 39.2982217, "lon": 16.2507706, "tags": {"amenity": "restaurant", "cuisine": "steak_house", "name": "NICE"}}, {"type": "node", "id": 11825086940, "lat": 39.4995048, "lon": 16.2768805, "tags": {"amenity": "restaurant", "cuisine": "pizza"}}, {"type": "node", "id": 11944443314, "lat": 39.3677898, "lon": 16.2249828, "tags": {"amenity": "restaurant", "name": "Mensa Vermicelli - La Cascina"}}, {"type": "node", "id": 11986058889, "lat": 39.5168584, "lon": 15.9339135, "tags": {"amenity": "restaurant", "name": "Il Cubo"}}, {"type": "node", "id": 11986115161, "lat": 39.5202522, "lon": 15.9313385, "tags": {"amenity": "restaurant", "name": "Mulini"}}, {"type": "node", "id": 11991020355, "lat": 39.5118043, "lon": 15.9404188, "tags": {"amenity": "restaurant", "cuisine": "pizza", "name": "La Specialit\u00e0"}}, {"type": "node", "id": 11991052568, "lat": 39.51295, "lon": 15.9422723, "tags": {"amenity": "restaurant", "name": "I Saraceni"}}, {"type": "node", "id": 11991067955, "lat": 39.5130408, "lon": 15.9419425, "tags": {"amenity": "cafe", "name": "Q8 Shop"}}, {"type": "node", "id": 11991607540, "lat": 39.5169176, "lon": 15.9348067, "tags": {"amenity": "cafe"}}, {"type": "node", "id": 12001650180, "lat": 39.5167707, "lon": 15.9409027, "tags": {"amenity": "cafe", "name": "Petit Bar"}}, {"type": "node", "id": 12006361238, "lat": 39.5309704, "lon": 15.9184545, "tags": {"amenity": "cafe"}}, {"type": "node", "id": 12006400462, "lat": 39.5301214, "lon": 15.9157281, "tags": {"amenity": "restaurant", "name": "Il Casello"}}, {"type": "node", "id": 12042198878, "lat": 39.5121821, "lon": 15.9381963, "tags": {"amenity": "restaurant", "cuisine": "pizza", "name": "Linea 2"}}, {"type": "node", "id": 12042198886, "lat": 39.5106833, "lon": 15.9394418, "tags": {"amenity": "cafe", "name": "Emily"}}, {"type": "node", "id": 12079904186, "lat": 39.3255997, "lon": 16.2486657, "tags": {"addr:city": "Roges", "addr:postcode": "87036", "addr:street": "Via Tevere", "amenity": "restaurant", "cuisine": "sushi", "facebook": "https://www.facebook.com/sushi.garden.rende", "instagram": "https://www.instagram.com/sushi_garden_rende/", "name": "Garden Sushi", "opening_hours": "Mo-Su 12:30-15:00, 19:30-23:00", "phone": "+39 0984306182", "ref:vatin": "03839640780"}}, {"type": "node", "id": 12079904194, "lat": 39.338466, "lon": 16.2433526, "tags": {"addr:city": "Rende", "addr:housenumber": "19", "addr:postcode": "87036", "addr:street": "Via Cavour", "amenity": "restaurant", "cuisine": "pizza", "facebook": "https://www.facebook.com/people/Pizza-Go/61555826484993/", "name": "Pizza Go", "phone": "+39 09841814991"}}, {"type": "node", "id": 12079904196, "lat": 39.3384666, "lon": 16.2434873, "tags": {"addr:city": "Rende", "addr:housenumber": "15", "addr:postcode": "87036", "addr:street": "Via Cavour", "amenity": "cafe", "name": "Gran Caff\u00e8 Cavour", "phone": "+39 09841810890"}}, {"type": "node", "id": 12079904198, "lat": 39.3523451, "lon": 16.2320241, "tags": {"addr:city": "Rende", "addr:housenumber": "462", "addr:postcode": "87036", "addr:street": "Via Guglielmo Marconi", "amenity": "restaurant", "cuisine": "fish;pizza", "facebook": "https://www.facebook.com/people/Ristorante-Nettuno-Flli-Minervini/100063618791725/", "instagram": "https://www.instagram.com/nettuno_rende/", "opening_hours": "Mo-Sa 10:30-23:00; Su off", "phone": "+39 0984403959", "website": "https://www.ristorantepizzerianettuno.com/"}}, {"type": "node", "id": 12101510344, "lat": 39.2842085, "lon": 16.2724194}, {"type": "node", "id": 12101510345, "lat": 39.2842686, "lon": 16.2725659}, {"type": "node", "id": 12101510346, "lat": 39.2843728, "lon": 16.2724944}, {"type": "node", "id": 12135527204, "lat": 39.5279378, "lon": 15.9273338, "tags": {"amenity": "restaurant", "name": "Sala Miramare"}}, {"type": "node", "id": 12135811107, "lat": 39.2998312, "lon": 16.2564114, "tags": {"amenity": "restaurant", "cuisine": "pizza", "name": "Al Solito Porzio | Pizzeria Cosenza"}}, {"type": "node", "id": 12151811935, "lat": 39.5097865, "lon": 15.9397508, "tags": {"amenity": "restaurant", "name": "Agape"}}, {"type": "node", "id": 12151812181, "lat": 39.5165764, "lon": 15.9435756, "tags": {"amenity": "restaurant", "name": "Il Locale"}}, {"type": "node", "id": 12152130426, "lat": 39.512512, "lon": 16.2852461, "tags": {"amenity": "restaurant", "cuisine": "pizza"}}, {"type": "node", "id": 12152130427, "lat": 39.5121578, "lon": 16.2840736, "tags": {"amenity": "restaurant", "cuisine": "pizza"}}, {"type": "node", "id": 12152130428, "lat": 39.5130658, "lon": 16.2843228, "tags": {"amenity": "restaurant", "cuisine": "pizza"}}, {"type": "node", "id": 12152165240, "lat": 39.4903726, "lon": 16.2437057, "tags": {"amenity": "cafe"}}, {"type": "node", "id": 12152475898, "lat": 39.5213713, "lon": 15.9324907, "tags": {"amenity": "restaurant", "cuisine": "pizza", "name": "Voglia di Pizza"}}, {"type": "node", "id": 12153452342, "lat": 39.2960096, "lon": 16.2495319, "tags": {"amenity": "restaurant", "cuisine": "pizza"}}, {"type": "node", "id": 12153452343, "lat": 39.297086, "lon": 16.2492016, "tags": {"amenity": "restaurant", "cuisine": "pizza"}}, {"type": "node", "id": 12153452344, "lat": 39.2972704, "lon": 16.2490218, "tags": {"amenity": "restaurant", "cuisine": "seafood"}}, {"type": "node", "id": 12153452375, "lat": 39.3047617, "lon": 16.2457694, "tags": {"amenity": "restaurant", "name": "Al Girone Dei Golosi Ristorante Enoteca"}}, {"type": "node", "id": 12153452378, "lat": 39.2923142, "lon": 16.2475835, "tags": {"amenity": "restaurant", "cuisine": "pizza", "name": "La locanda"}}, {"type": "node", "id": 12153452379, "lat": 39.2923538, "lon": 16.2479595, "tags": {"amenity": "restaurant", "cuisine": "pizza"}}, {"type": "node", "id": 12153452392, "lat": 39.300384, "lon": 16.2530048, "tags": {"amenity": "restaurant"}}, {"type": "node", "id": 12153504007, "lat": 39.2981174, "lon": 16.2532066, "tags": {"amenity": "restaurant", "cuisine": "pizza"}}, {"type": "node", "id": 12153504012, "lat": 39.3054691, "lon": 16.2522069, "tags": {"amenity": "cafe", "name": "Caff\u00e8 Italia"}}, {"type": "node", "id": 12153663574, "lat": 39.3006904, "lon": 16.2535999, "tags": {"amenity": "restaurant", "cuisine": "seafood"}}, {"type": "node", "id": 12153965596, "lat": 39.2996443, "lon": 16.2475405, "tags": {"amenity": "cafe"}}, {"type": "node", "id": 12153976708, "lat": 39.3009225, "lon": 16.2499998, "tags": {"amenity": "restaurant", "cuisine": "pizza"}}, {"type": "node", "id": 12155143179, "lat": 39.3236586, "lon": 16.2489647, "tags": {"amenity": "restaurant", "diet:meat": "yes"}}, {"type": "node", "id": 12155143180, "lat": 39.2958033, "lon": 16.2540516, "tags": {"amenity": "restaurant", "cuisine": "sushi", "name": "Boa Sorte"}}, {"type": "node", "id": 12155190809, "lat": 39.3132675, "lon": 16.2565522, "tags": {"amenity": "restaurant", "cuisine": "barbecue"}}, {"type": "node", "id": 12173830108, "lat": 39.5120222, "lon": 15.938361, "tags": {"amenity": "cafe", "name": "Crystal Cafe"}}, {"type": "node", "id": 12173830140, "lat": 39.5115356, "lon": 15.9388799, "tags": {"amenity": "cafe", "name": "Azzurra"}}, {"type": "node", "id": 12173885573, "lat": 39.5111201, "lon": 15.9399805, "tags": {"amenity": "cafe", "name": "Sestin"}}, {"type": "node", "id": 12175693466, "lat": 39.515905, "lon": 15.9419693, "tags": {"amenity": "restaurant", "name": "Cumis\u00e0"}}, {"type": "node", "id": 12184814596, "lat": 39.5101079, "lon": 15.9408071, "tags": {"amenity": "cafe", "name": "Mony"}}, {"type": "node", "id": 12184894738, "lat": 39.505432, "lon": 15.9459788, "tags": {"amenity": "restaurant", "name": "La Sosta"}}, {"type": "node", "id": 12184924565, "lat": 39.5056738, "lon": 15.9445313, "tags": {"amenity": "restaurant", "name": "Elite"}}, {"type": "node", "id": 12185823531, "lat": 39.3068093, "lon": 16.1687528}, {"type": "node", "id": 12185823532, "lat": 39.3067721, "lon": 16.1689098}, {"type": "node", "id": 12185823533, "lat": 39.3063606, "lon": 16.1688866}, {"type": "node", "id": 12185823534, "lat": 39.3063744, "lon": 16.168635}, {"type": "node", "id": 12185823535, "lat": 39.3065166, "lon": 16.1686493}, {"type": "node", "id": 12185823536, "lat": 39.3065194, "lon": 16.1686761}, {"type": "node", "id": 12185823537, "lat": 39.306645, "lon": 16.1686957}, {"type": "node", "id": 12194213635, "lat": 39.3059477, "lon": 16.2217171, "tags": {"amenity": "restaurant", "cuisine": "pizza"}}, {"type": "node", "id": 12194213636, "lat": 39.3061188, "lon": 16.223758, "tags": {"amenity": "restaurant", "cuisine": "pizza"}}, {"type": "node", "id": 12194842631, "lat": 39.3099504, "lon": 16.2269414, "tags": {"amenity": "restaurant"}}, {"type": "node", "id": 12197056448, "lat": 39.3055876, "lon": 16.2221671, "tags": {"amenity": "restaurant", "cuisine": "pizza"}}, {"type": "node", "id": 12197855616, "lat": 39.5257432, "lon": 15.9291649, "tags": {"amenity": "restaurant", "name": "Spaghetteria Le Lanterne"}}, {"type": "node", "id": 12197855675, "lat": 39.5255342, "lon": 15.9284273, "tags": {"amenity": "cafe"}}, {"type": "node", "id": 12217061233, "lat": 39.4802813, "lon": 15.9609602, "tags": {"amenity": "restaurant", "name": "Pit Stop"}}, {"type": "node", "id": 12217061234, "lat": 39.4794615, "lon": 15.9615927, "tags": {"amenity": "restaurant", "name": "La Roanda"}}, {"type": "node", "id": 12229815667, "lat": 39.5077797, "lon": 16.2503901, "tags": {"amenity": "restaurant"}}, {"type": "node", "id": 12229825468, "lat": 39.496694, "lon": 16.2647623, "tags": {"amenity": "restaurant"}}, {"type": "node", "id": 12230151800, "lat": 39.3401805, "lon": 16.2487898, "tags": {"amenity": "restaurant", "cuisine": "barbecue"}}, {"type": "node", "id": 12241665577, "lat": 39.3260575, "lon": 16.2533898, "tags": {"amenity": "restaurant", "cuisine": "pizza"}}, {"type": "node", "id": 12243935410, "lat": 39.3033376, "lon": 16.2515369, "tags": {"amenity": "restaurant", "cuisine": "pizza", "name": "Crunchy"}}, {"type": "node", "id": 12243935413, "lat": 39.3034951, "lon": 16.2514166, "tags": {"amenity": "restaurant"}}, {"type": "node", "id": 12243935416, "lat": 39.3026958, "lon": 16.2515692, "tags": {"amenity": "restaurant", "cuisine": "asian"}}, {"type": "node", "id": 12383282508, "lat": 39.3709802, "lon": 16.2216004, "tags": {"amenity": "restaurant", "cuisine": "pizza", "name": "Il Tufo", "phone": "+39 0984839692"}}, {"type": "node", "id": 12481894659, "lat": 39.4706696, "lon": 15.9689465, "tags": {"amenity": "restaurant", "name": "Por do Sol"}}, {"type": "node", "id": 12546276624, "lat": 39.3059206, "lon": 16.250664, "tags": {"amenity": "restaurant", "name": "Day & Night"}}, {"type": "node", "id": 12546303851, "lat": 39.3055433, "lon": 16.2505197, "tags": {"amenity": "restaurant", "name": "David"}}, {"type": "node", "id": 12546397641, "lat": 39.3095879, "lon": 16.2525693, "tags": {"amenity": "cafe", "name": "Espresso 43"}}, {"type": "node", "id": 12546406074, "lat": 39.3020135, "lon": 16.255209, "tags": {"amenity": "restaurant", "name": "GustaR\u00e8"}}, {"type": "node", "id": 12546428672, "lat": 39.3095634, "lon": 16.2526623, "tags": {"amenity": "restaurant", "cuisine": "pizza", "name": "...al Solito Posto"}}, {"type": "node", "id": 12546464246, "lat": 39.3096167, "lon": 16.252178, "tags": {"amenity": "restaurant", "name": "Enoteca Vini Cir\u00f2 Doc"}}, {"type": "node", "id": 12553955115, "lat": 39.3402765, "lon": 16.2449753, "tags": {"amenity": "restaurant"}}, {"type": "node", "id": 12578702573, "lat": 39.3076853, "lon": 16.2568936, "tags": {"amenity": "restaurant", "cuisine": "pizza", "name": "Pizzeria da Franco"}}, {"type": "node", "id": 12857194871, "lat": 39.2988088, "lon": 16.3067943, "tags": {"amenity": "cafe", "name": "Glamour"}}, {"type": "node", "id": 12857194937, "lat": 39.3010064, "lon": 16.3114917, "tags": {"amenity": "restaurant", "name": "La Locanda degli Antichi Sapori"}}, {"type": "node", "id": 12861576032, "lat": 39.3290639, "lon": 16.2422265, "tags": {"amenity": "cafe", "name": "Bar Ipanema"}}, {"type": "node", "id": 12865639478, "lat": 39.345473, "lon": 16.2423077, "tags": {"addr:city": "Rende", "addr:housenumber": "74", "addr:postcode": "87036", "addr:street": "Via Gioachino Rossini", "amenity": "restaurant", "cuisine": "pizza", "name": "Pizza Rosso"}}, {"type": "node", "id": 12873309965, "lat": 39.2616133, "lon": 16.2405364, "tags": {"amenity": "restaurant", "name": "da Livio"}}, {"type": "node", "id": 12873545730, "lat": 39.2581042, "lon": 16.2229812, "tags": {"amenity": "restaurant", "cuisine": "pizza", "name": "Pizzeria Sicilia"}}, {"type": "node", "id": 12873545769, "lat": 39.262437, "lon": 16.222312, "tags": {"amenity": "restaurant", "cuisine": "regional", "name": "Wind's Eden"}}, {"type": "way", "id": 121020264, "nodes": [1355529167, 1355529163, 1355529150, 1355529155, 1355529167], "tags": {"amenity": "restaurant"}}, {"type": "way", "id": 260463694, "nodes": [2659479846, 2659479850, 2659479851, 2659479852, 2659479849, 2659479846], "tags": {"amenity": "restaurant", "building": "yes", "name": "Ristorante Cinese", "opening_hours": "Mo-Su,PH 12:00-24:00", "wheelchair": "no"}}, {"type": "way", "id": 304791136, "nodes": [3093914260, 3093914262, 3093914263, 3093914261, 3093914260], "tags": {"amenity": "cafe", "building": "yes"}}, {"type": "way", "id": 319559246, "nodes": [3259832529, 3259832528, 3259832522, 3259832516, 3259832521, 3259832529], "tags": {"amenity": "restaurant", "brand": "Autogrill", "building": "yes"}}, {"type": "way", "id": 413281542, "nodes": [4146291805, 4146291806, 4146291807, 4146291808, 4146291809, 4146291810, 4146291811, 4146291812, 4146291805], "tags": {"amenity": "restaurant", "building": "yes", "cuisine": "regional", "name": "Ristorante Pupille e Papille", "smoking": "outside", "takeaway": "no"}}, {"type": "way", "id": 592029438, "nodes": [5651273013, 5651273014, 5651273015, 5651273016, 5651273017, 5651273018, 5651273019, 5651273013], "tags": {"amenity": "cafe", "building": "yes", "name": "Volo Rosso", "website": "https://www.facebook.com/pages/Volo-Rosso/771259226302963"}}, {"type": "way", "id": 605739533, "nodes": [5744508925, 5744508926, 5744508927, 5744508928, 5744508925], "tags": {"addr:city": "Belmonte Calabro", "addr:postcode": "87033", "addr:street": "Via Federico II Di Svevia", "amenity": "restaurant", "building": "yes", "name": "Sapori di Casa da Amerigo"}}, {"type": "way", "id": 605740533, "nodes": [5744516846, 5744516847, 5744516848, 5744516851, 5744516846], "tags": {"addr:city": "Belmonte Calabro", "addr:postcode": "87033", "addr:street": "Via Lungomare Ammiraglio Pugliese Lato Sud", "amenity": "restaurant", "building": "yes", "name": "RistorArte Corallo Nero"}}, {"type": "way", "id": 634910575, "nodes": [5990451025, 5990451026, 5990451027, 5990451028, 5990451025], "tags": {"amenity": "restaurant", "building": "yes", "capacity": "100", "cuisine": "pizza;regional;italian", "delivery": "yes", "name": "SPQR", "smoking": "isolated", "takeaway": "yes"}}, {"type": "way", "id": 670960812, "nodes": [6283196705, 6283196703, 6283196702, 6283196704, 6283196705], "tags": {"amenity": "restaurant"}}, {"type": "way", "id": 1027326653, "nodes": [9471060676, 9471060677, 9471060678, 9471060679, 9471060680, 9471060681, 9471060682, 9471956914, 9471060683, 9471060685, 9471060676], "tags": {"addr:city": "Paola", "addr:postcode": "87027", "addr:street": "Via Arenile", "amenity": "cafe", "building": "yes", "name": "La Conchiglia", "nohousenumber": "yes"}}, {"type": "way", "id": 1029033076, "nodes": [9487318438, 9487318439, 9487318440, 9487318441, 9487318442, 9487318443, 9487318444, 9487318445, 9487318446, 9487318447, 9487318448, 9487318449, 9487318450, 9487318451, 9487318452, 9487318453, 9487318454, 9487318438], "tags": {"amenity": "restaurant", "building": "yes", "name": "Le Mimose"}}, {"type": "way", "id": 1030384032, "nodes": [9498151020, 9498151021, 9498151022, 9498151023, 9498151020], "tags": {"amenity": "restaurant", "name": "Flora"}}, {"type": "way", "id": 1041937745, "nodes": [9591914431, 9591914425, 9591914429, 9591914430, 9591914431], "tags": {"amenity": "restaurant", "building": "yes", "indoor_seating": "yes", "name": "Atmosfera Versatile", "outdoor_seating": "yes"}}, {"type": "way", "id": 1050639640, "nodes": [9654821224, 9654821225, 9654821226, 9654821227, 9654821228, 9654821229, 9654821224], "tags": {"amenity": "restaurant", "building": "yes", "cuisine": "regional", "guest_house": "agritourism", "name": "Agriturismo Santa Rita", "phone": "+39 0982 79007", "restaurant": "yes", "tourism": "guest_house"}}, {"type": "way", "id": 1171539692, "nodes": [10886186630, 10886186631, 10886186632, 10886186633, 10886186644, 10886186634, 10886186645, 10886186635, 10886186636, 10886186637, 10886186638, 10886186639, 10886186630], "tags": {"addr:city": "Arcavacata", "addr:postcode": "87036", "addr:street": "Piazza Molicelle Unical", "amenity": "restaurant", "building": "yes", "drive_through": "no", "name": "Cubo Restaurant Caf\u00e8", "payment:google_pay": "yes", "phone": "+39 3501315288", "toilets:wheelchair": "yes", "wheelchair": "yes"}}, {"type": "way", "id": 1238905748, "nodes": [11509024167, 11509064531, 11509064498, 11509064612, 11509064622, 11509024167], "tags": {"amenity": "restaurant", "cuisine": "seafood;mediterranean", "name": "Eden", "ref:vatin": "IT03434280784", "reservation": "yes", "wheelchair": "yes"}}, {"type": "way", "id": 1238905763, "nodes": [11509064576, 11509064555, 11509064585, 11509064559, 11509064576], "tags": {"amenity": "restaurant", "indoor_seating": "yes", "name": "Da Maurizio", "outdoor_seating": "yes"}}, {"type": "way", "id": 1238905772, "nodes": [11509064573, 11509024117, 11509064613, 11509064596, 11509064573], "tags": {"amenity": "restaurant", "building": "yes", "name": "Lido Mediterranea"}}, {"type": "way", "id": 1238905787, "nodes": [11509064542, 11509024142, 11509064518, 11509064588, 11509064542], "tags": {"amenity": "restaurant", "name": "007"}}, {"type": "way", "id": 1306696970, "nodes": [1352416352, 12101510344, 12101510345, 12101510346, 1352416352], "tags": {"addr:housenumber": "45", "addr:street": "Via Donato Bendicenti", "amenity": "restaurant", "building": "yes", "cuisine": "pizza;italian", "diet:gluten_free": "yes", "diet:vegetarian": "yes", "name": "Pizzeria Le Magnolie", "opening_hours": "Mo-Sa 19:30-22:00", "phone": "+39 0984 791683", "reservation": "yes", "takeaway": "yes", "website": "https://www.pizzerialemagnolie.it/", "website:booking": "https://www.pizzerialemagnolie.it/#/prenota", "website:menu": "https://www.pizzerialemagnolie.it/#/menu"}}, {"type": "way", "id": 1316629436, "nodes": [12185823531, 12185823532, 12185823533, 12185823534, 12185823535, 12185823536, 12185823537, 12185823531], "tags": {"amenity": "restaurant", "building": "yes", "name": "Ristorante Pizzeria da Manu"}}]}