{"version": 0.6, "generator": "Overpass API 0.7.62.7 375dc00a", "osm3s": {"timestamp_osm_base": "2025-06-14T13:56:34Z", "copyright": "The data included in this document is from www.openstreetmap.org. The data is made available under ODbL."}, "elements": [{"type": "node", "id": 406674644, "lat": 41.4555339, "lon": 15.5266151, "tags": {"amenity": "cafe", "name": "Ristobar", "phone": "+39 0881 732455"}}, {"type": "node", "id": 406674645, "lat": 41.4563829, "lon": 15.5228598, "tags": {"amenity": "cafe"}}, {"type": "node", "id": 534592005, "lat": 41.6833489, "lon": 15.3784431, "tags": {"amenity": "restaurant", "cuisine": "italian", "name": "I ghiottone"}}, {"type": "node", "id": 1111919654, "lat": 41.4291875, "lon": 15.1241517, "tags": {"amenity": "restaurant", "cuisine": "italian", "name": "Ristorante da Liberato"}}, {"type": "node", "id": 1195302197, "lat": 41.4543437, "lon": 15.5477934, "tags": {"amenity": "cafe"}}, {"type": "node", "id": 1242081296, "lat": 41.6847944, "lon": 15.3835223, "tags": {"amenity": "restaurant"}}, {"type": "node", "id": 1242081342, "lat": 41.6842585, "lon": 15.3818406, "tags": {"amenity": "restaurant", "name": "Pizza Lab"}}, {"type": "node", "id": 1242081348, "lat": 41.6830476, "lon": 15.3803573, "tags": {"amenity": "restaurant"}}, {"type": "node", "id": 1371422973, "lat": 41.6905747, "lon": 15.2927514, "tags": {"amenity": "cafe", "name": "Bar Jolly 2"}}, {"type": "node", "id": 1516295330, "lat": 41.465339, "lon": 15.5438246, "tags": {"amenity": "restaurant", "cuisine": "regional", "name": "I Cavalieri"}}, {"type": "node", "id": 1520436348, "lat": 41.4606826, "lon": 15.5509116, "tags": {"amenity": "restaurant", "name": "Barbecue"}}, {"type": "node", "id": 1520436375, "lat": 41.4618153, "lon": 15.5480951, "tags": {"addr:city": "Foggia", "addr:housenumber": "1", "addr:street": "Corso Benedetto Cairoli", "amenity": "cafe", "internet_access": "no", "name": "Caffe Cairoli", "wheelchair": "yes"}}, {"type": "node", "id": 1520436476, "lat": 41.4639528, "lon": 15.5409174, "tags": {"amenity": "restaurant", "name": "Terra Arsa", "operator": "fish"}}, {"type": "node", "id": 1520469366, "lat": 41.4613113, "lon": 15.5496019, "tags": {"addr:city": "Foggia", "addr:country": "IT", "addr:housenumber": "12", "addr:postcode": "71121", "addr:street": "Via Umberto Garofalo", "amenity": "restaurant", "name": "Kaminetto", "opening_hours": "Mo-Sa 12:00-15:00,20:00-22:30; Su 12:00-14:30,15:00-15:30", "phone": "+39 0881 313203"}}, {"type": "node", "id": 1521842904, "lat": 41.4589126, "lon": 15.5527543, "tags": {"addr:city": "Foggia", "addr:housenumber": "12", "addr:postcode": "71121", "addr:street": "Corso Roma", "amenity": "restaurant", "name": "Pizza e Sfizi", "phone": "+39 328 797 6859"}}, {"type": "node", "id": 1521919229, "lat": 41.4640185, "lon": 15.5431504, "tags": {"addr:city": "Foggia", "addr:country": "IT", "addr:housenumber": "82", "addr:street": "Via Arpi", "amenity": "cafe", "name": "Antica caffetteria Cupo"}}, {"type": "node", "id": 1988281700, "lat": 41.4627405, "lon": 15.5534187, "tags": {"amenity": "cafe", "name": "Bar Ruocco"}}, {"type": "node", "id": 1989538719, "lat": 41.4612742, "lon": 15.554881, "tags": {"addr:city": "Foggia", "addr:housenumber": "22", "addr:postcode": "71121", "addr:street": "Via Celestino Galliani", "amenity": "cafe", "name": "Marikant Caf\u00e9", "operator": "Marika, Roberto", "phone": "+39 0881 756171", "ref:vatin": "IT03748030719"}}, {"type": "node", "id": 2080813477, "lat": 41.4629251, "lon": 15.5545365, "tags": {"amenity": "cafe", "name": "Montepeloso"}}, {"type": "node", "id": 2162496146, "lat": 41.4435706, "lon": 15.5758958, "tags": {"addr:city": "Foggia", "addr:country": "IT", "addr:housenumber": "2", "addr:street": "Viale Virgilio", "amenity": "restaurant", "cuisine": "italian", "name": "La Nuova Mangiatoia", "operator": "Ficarelli, Mario"}}, {"type": "node", "id": 2544625371, "lat": 41.4481716, "lon": 15.5293742}, {"type": "node", "id": 2544625416, "lat": 41.4466754, "lon": 15.5298556}, {"type": "node", "id": 2544625419, "lat": 41.4471901, "lon": 15.5298273}, {"type": "node", "id": 2544625421, "lat": 41.4473174, "lon": 15.5309881}, {"type": "node", "id": 2544625423, "lat": 41.4477207, "lon": 15.5308961}, {"type": "node", "id": 2544625426, "lat": 41.4478321, "lon": 15.5302307}, {"type": "node", "id": 2544625428, "lat": 41.4479753, "lon": 15.5298343}, {"type": "node", "id": 3066857573, "lat": 41.4610327, "lon": 15.5292573, "tags": {"addr:city": "Foggia", "addr:housenumber": "5", "addr:postcode": "71122", "addr:street": "Via Nedo Nadi", "amenity": "cafe", "name": "Moody jazz caf\u00e8", "website": "http://www.moodyjazzcafe.it/"}}, {"type": "node", "id": 3414412745, "lat": 41.4438854, "lon": 15.5480749, "tags": {"addr:housenumber": "17", "addr:street": "Via Luigi Einaudi", "amenity": "restaurant", "cuisine": "italian;grill", "name": "Cochet Grillee"}}, {"type": "node", "id": 3681359536, "lat": 41.4657013, "lon": 15.5662709, "tags": {"addr:city": "Foggia", "addr:housenumber": "3", "addr:postcode": "71121", "addr:street": "Via Vito Ciampoli", "amenity": "cafe", "name": "Tolleranza Zero"}}, {"type": "node", "id": 3681425824, "lat": 41.453461, "lon": 15.5636549, "tags": {"addr:city": "Foggia", "addr:housenumber": "237", "addr:street": "Viale Giuseppe Di Vittorio", "amenity": "cafe", "name": "Sam\u00ec"}}, {"type": "node", "id": 3681432527, "lat": 41.465947, "lon": 15.5444283, "tags": {"amenity": "cafe"}}, {"type": "node", "id": 3682533568, "lat": 41.4673223, "lon": 15.5465348, "tags": {"addr:city": "Foggia", "addr:housenumber": "2", "addr:street": "Via Sant'Alfonso Maria de' Liguori", "amenity": "cafe", "name": "Caff\u00e8 dell'Alba"}}, {"type": "node", "id": 3682651236, "lat": 41.4464165, "lon": 15.5278138}, {"type": "node", "id": 3682651241, "lat": 41.4426413, "lon": 15.5250188}, {"type": "node", "id": 3682651242, "lat": 41.4423549, "lon": 15.5248339}, {"type": "node", "id": 3682651243, "lat": 41.4427106, "lon": 15.5211829}, {"type": "node", "id": 3682651244, "lat": 41.4429854, "lon": 15.5213739}, {"type": "node", "id": 3683068809, "lat": 41.4586608, "lon": 15.5525371, "tags": {"addr:city": "Foggia", "addr:housenumber": "22", "addr:street": "Corso Roma", "amenity": "cafe", "name": "Gran Caff\u00e8 Cocozza"}}, {"type": "node", "id": 3686909506, "lat": 41.4612703, "lon": 15.5524215, "tags": {"amenity": "cafe"}}, {"type": "node", "id": 3689047950, "lat": 41.4670937, "lon": 15.563479, "tags": {"addr:city": "Foggia", "addr:housenumber": "38", "addr:street": "Via di Salpi", "amenity": "restaurant", "name": "Sorsi e Morsi"}}, {"type": "node", "id": 3689047951, "lat": 41.4668131, "lon": 15.563286, "tags": {"addr:city": "Foggia", "addr:housenumber": "28", "addr:street": "Via di Salpi", "amenity": "restaurant", "cuisine": "pizza", "name": "Bistr\u00f2"}}, {"type": "node", "id": 3689048035, "lat": 41.4653606, "lon": 15.5658064, "tags": {"amenity": "restaurant", "cuisine": "pizza", "name": "Pizzeria Mediterranea"}}, {"type": "node", "id": 4070268816, "lat": 41.6962087, "lon": 15.3949032}, {"type": "node", "id": 4070268840, "lat": 41.6962404, "lon": 15.3946554}, {"type": "node", "id": 4070268842, "lat": 41.696244, "lon": 15.3950878}, {"type": "node", "id": 4070268859, "lat": 41.6962829, "lon": 15.3948779}, {"type": "node", "id": 4070268883, "lat": 41.6963118, "lon": 15.3950648}, {"type": "node", "id": 4070268893, "lat": 41.6963225, "lon": 15.3951207}, {"type": "node", "id": 4070268937, "lat": 41.6963865, "lon": 15.3946057}, {"type": "node", "id": 4070268942, "lat": 41.6963964, "lon": 15.3946572}, {"type": "node", "id": 4070269031, "lat": 41.6964751, "lon": 15.3950688}, {"type": "node", "id": 4070884641, "lat": 41.6893254, "lon": 15.3027193}, {"type": "node", "id": 4070884676, "lat": 41.6893443, "lon": 15.3027771}, {"type": "node", "id": 4070884854, "lat": 41.6894491, "lon": 15.3026474}, {"type": "node", "id": 4070884883, "lat": 41.689468, "lon": 15.3027051}, {"type": "node", "id": 4071584683, "lat": 41.734403, "lon": 15.2613569}, {"type": "node", "id": 4071584688, "lat": 41.7344302, "lon": 15.2614071}, {"type": "node", "id": 4071584694, "lat": 41.7344431, "lon": 15.2613184}, {"type": "node", "id": 4071584698, "lat": 41.7344702, "lon": 15.2613686}, {"type": "node", "id": 4074433042, "lat": 41.4627489, "lon": 15.527336}, {"type": "node", "id": 4074433153, "lat": 41.4627723, "lon": 15.5273896}, {"type": "node", "id": 4074433193, "lat": 41.4627831, "lon": 15.5273105}, {"type": "node", "id": 4074433366, "lat": 41.4628177, "lon": 15.5272849}, {"type": "node", "id": 4074433457, "lat": 41.4628394, "lon": 15.5273399}, {"type": "node", "id": 4235943118, "lat": 41.3171798, "lon": 15.40683, "tags": {"amenity": "restaurant", "cuisine": "regional", "name": "Agritur Posta Guevara"}}, {"type": "node", "id": 4248717755, "lat": 41.6888251, "lon": 15.2923308, "tags": {"amenity": "restaurant", "name": "Pizzeria dell'Arco"}}, {"type": "node", "id": 4248717758, "lat": 41.6883564, "lon": 15.292025, "tags": {"amenity": "restaurant", "name": "Il Vicoletto"}}, {"type": "node", "id": 4248814302, "lat": 41.6883949, "lon": 15.3006559, "tags": {"amenity": "restaurant", "cuisine": "pizza", "name": "Cicerone"}}, {"type": "node", "id": 4248814303, "lat": 41.6887348, "lon": 15.2969553, "tags": {"addr:city": "Torremaggiore", "addr:postcode": "71017", "amenity": "cafe", "name": "Mama Mia's"}}, {"type": "node", "id": 4248814308, "lat": 41.6918416, "lon": 15.2987167, "tags": {"amenity": "restaurant", "name": "Lord Nelson"}}, {"type": "node", "id": 4248814330, "lat": 41.6906072, "lon": 15.2964472, "tags": {"amenity": "cafe", "name": "Bar Fontana"}}, {"type": "node", "id": 4248814331, "lat": 41.6901511, "lon": 15.2952278, "tags": {"amenity": "cafe", "name": "Jolly"}}, {"type": "node", "id": 4248814332, "lat": 41.6902338, "lon": 15.2945382, "tags": {"amenity": "restaurant", "name": "La Tana"}}, {"type": "node", "id": 4248814333, "lat": 41.6907147, "lon": 15.2946213, "tags": {"amenity": "cafe", "name": "Saloon"}}, {"type": "node", "id": 4248814334, "lat": 41.690641, "lon": 15.294334, "tags": {"amenity": "restaurant", "name": "Il Simposio"}}, {"type": "node", "id": 4248814335, "lat": 41.690447, "lon": 15.2941499, "tags": {"amenity": "restaurant", "name": "La Tana"}}, {"type": "node", "id": 4248814336, "lat": 41.6903048, "lon": 15.2936295, "tags": {"amenity": "restaurant", "name": "Pizzeria il Gufo"}}, {"type": "node", "id": 4248823762, "lat": 41.6920813, "lon": 15.2927444, "tags": {"amenity": "cafe", "name": "Bar Pineta"}}, {"type": "node", "id": 4250008534, "lat": 41.6888707, "lon": 15.2881896, "tags": {"addr:city": "Torremaggiore", "addr:housenumber": "8", "addr:postcode": "71017", "addr:street": "Via della Costituente", "amenity": "restaurant", "cuisine": "kebab,_panini,_rosticceria", "name": "L'Ottava Meravigliake"}}, {"type": "node", "id": 4744602696, "lat": 41.4554234, "lon": 15.5296442, "tags": {"addr:housenumber": "150/152", "addr:street": "Via Paolo Telesforo", "amenity": "restaurant", "cuisine": "italian;pizza", "delivery": "yes", "name": "Battista...L'arte della Pizza", "takeaway": "yes"}}, {"type": "node", "id": 4788110725, "lat": 41.3599323, "lon": 15.5372856, "tags": {"amenity": "restaurant", "name": "Roadside Restaurant", "name:it": "Roadside Restaurant"}}, {"type": "node", "id": 4841207674, "lat": 41.4478441, "lon": 15.4914397, "tags": {"addr:city": "Foggia", "addr:postcode": "71122", "addr:street": "1\u00aa traversa bivio via Napoli-via Troia", "amenity": "restaurant", "cuisine": "italian", "name": "Posta di Pietrafitta Ricevimenti e Resort", "phone": "+39 392 034 1858"}}, {"type": "node", "id": 4841214679, "lat": 41.4183419, "lon": 15.3212908, "tags": {"addr:housenumber": "KM. 32", "addr:street": "S.P. 109 di Lucera", "amenity": "restaurant", "cuisine": "italian", "name": "Masseria Ristorante Montaratro", "takeaway": "yes"}}, {"type": "node", "id": 4841611706, "lat": 41.3426566, "lon": 15.1945735, "tags": {"addr:city": "Castelluccio Valmaggiore", "addr:housenumber": "31", "addr:postcode": "71020", "addr:street": "Porta del pozzo", "amenity": "restaurant", "contact:instagram": "la_torre_antica", "cuisine": "italian;pizza", "email": "info@pizzerialatorreantica.it", "name": "La Torre Antica", "operator": "Caccavella Lina", "phone": "+39 0881 972715", "website": "https://www.pizzerialatorreantica.it/"}}, {"type": "node", "id": 4841617118, "lat": 41.3422742, "lon": 15.1999468, "tags": {"addr:city": "Castelluccio Valmaggiore", "addr:postcode": "71020", "addr:street": "Piazza Guglielmo Marconi", "amenity": "restaurant", "cuisine": "italian_pizza", "name": "Pizzeria Antichi Sapori", "phone": "+39 3275523231"}}, {"type": "node", "id": 4841627324, "lat": 41.3416328, "lon": 15.1992011, "tags": {"addr:city": "Castelluccio Valmaggiore", "addr:postcode": "71020", "addr:street": "Largo Umberto I", "amenity": "restaurant", "contact:instagram": "littleitaly_bar_and_grill", "cuisine": "italian_pizza", "name": "Little Italy Bar and Grill", "phone": "+39 328 813 0689"}}, {"type": "node", "id": 4847201047, "lat": 41.323138, "lon": 15.1623256, "tags": {"addr:city": "Faeto", "addr:housenumber": "3", "addr:postcode": "71020", "addr:street": "Via Marie Petit Pierre", "amenity": "restaurant", "name": "Ristorante Moreno", "phone": "+39 0881 973205"}}, {"type": "node", "id": 4847207377, "lat": 41.3290837, "lon": 15.1483619, "tags": {"addr:city": "Faeto", "addr:postcode": "71020", "addr:street": "Contrada Piano Delle Noci", "amenity": "restaurant", "name": "Ristorante Albergo Piano delle Noci", "phone": "+39 0881 973014"}}, {"type": "node", "id": 4847207408, "lat": 41.3234091, "lon": 15.1627586, "tags": {"addr:city": "Faeto", "addr:housenumber": "7", "addr:postcode": "71020", "addr:street": "Via Duca degli Abruzzi", "amenity": "restaurant", "name": "Locanda Casa Mia", "phone": "+39 0881-973018"}}, {"type": "node", "id": 4868151381, "lat": 41.3704853, "lon": 15.0955178, "tags": {"addr:city": "Roseto Valfortore", "addr:housenumber": "7", "addr:postcode": "71039", "addr:street": "Via Sottosanti", "amenity": "restaurant", "cuisine": "pizza;italian", "name": "La Locanda di Tullio e Amalia", "phone": "+39 0881 594085"}}, {"type": "node", "id": 5002274609, "lat": 41.3610118, "lon": 15.3081778, "tags": {"amenity": "cafe", "description": "Specialit\u00e0 locale: la passionata", "description:hu": "Megk\u00f3stoland\u00f3 a h\u00e1z specialit\u00e1sa a passionata", "name": "Pasticceria Casoli", "website": "https://www.pasticceriacl.it/"}}, {"type": "node", "id": 5002275961, "lat": 41.3612685, "lon": 15.3086987, "tags": {"amenity": "cafe", "name": "Caff\u00e9 Izzo"}}, {"type": "node", "id": 5366193516, "lat": 41.6947674, "lon": 15.3771814, "tags": {"amenity": "restaurant", "description": "Pizzeria La Baracchina", "name": "La Baracchina"}}, {"type": "node", "id": 5393502048, "lat": 41.684924, "lon": 15.3881369, "tags": {"amenity": "restaurant", "description": "Pizza napoletana", "name": "Pizzeria Benvenuti al Sud"}}, {"type": "node", "id": 5393502051, "lat": 41.6866275, "lon": 15.3842061, "tags": {"amenity": "restaurant", "description": "Pizzeria", "name": "Il Chirurgo"}}, {"type": "node", "id": 5393867913, "lat": 41.6874543, "lon": 15.3863925, "tags": {"amenity": "restaurant", "description": "Pizzeria Arte Bianca", "name": "Arte Bianca"}}, {"type": "node", "id": 5393868622, "lat": 41.6880323, "lon": 15.3853434, "tags": {"amenity": "restaurant", "name": "Il Campione"}}, {"type": "node", "id": 5393868634, "lat": 41.6900869, "lon": 15.3803972, "tags": {"amenity": "restaurant", "cuisine": "pizza", "description": "Pizzeria", "name": "Pummarella"}}, {"type": "node", "id": 5395706955, "lat": 41.6854613, "lon": 15.3847092, "tags": {"amenity": "restaurant", "description": "Pizzeria", "name": "Chirurgo"}}, {"type": "node", "id": 5395706997, "lat": 41.6896344, "lon": 15.3820759, "tags": {"amenity": "restaurant", "cuisine": "pizza", "name": "Pizzeria L'Arco"}}, {"type": "node", "id": 5395730427, "lat": 41.6852572, "lon": 15.3894091, "tags": {"amenity": "restaurant", "description": "Pizzeria Liberty", "name": "Liberty"}}, {"type": "node", "id": 5398922870, "lat": 41.6869287, "lon": 15.3828888, "tags": {"amenity": "cafe", "name": "Caffelatte"}}, {"type": "node", "id": 5659135223, "lat": 41.4121669, "lon": 15.0738036, "tags": {"amenity": "restaurant", "name": "Il Refugio"}}, {"type": "node", "id": 5764330660, "lat": 41.4669274, "lon": 15.5354885, "tags": {"addr:city": "Foggia", "addr:housenumber": "80", "addr:postcode": "71121", "addr:street": "Viale Candelaro", "amenity": "restaurant", "cuisine": "pizza;rosticceria;paposceria", "name": "Sacro Cuore", "outdoor_seating": "yes", "phone": "+39 329 8152236"}}, {"type": "node", "id": 5771819128, "lat": 41.4651944, "lon": 15.5395791, "tags": {"addr:city": "Foggia", "addr:housenumber": "30", "addr:postcode": "71121", "addr:street": "Via Occidentale", "amenity": "restaurant", "cuisine": "pizzeria_al_taglio;sandwich;crocchette;panini_napoletani", "name": "Capriccio all'Italiana"}}, {"type": "node", "id": 6028394799, "lat": 41.5863442, "lon": 15.1212585, "tags": {"addr:city": "Castelnuovo della Daunia", "addr:postcode": "71034", "addr:street": "Piazza Giovan Battista Trotta", "amenity": "restaurant", "cuisine": "italian;regional;pizza;italian_pizza", "name": "La Locanda del Convento"}}, {"type": "node", "id": 6028394802, "lat": 41.5853992, "lon": 15.1200428, "tags": {"addr:city": "Castelnuovo della Daunia", "addr:housenumber": "47", "addr:postcode": "71034", "addr:street": "Via Solferino", "amenity": "restaurant", "cuisine": "pizza;italian_pizza;italian", "name": "Pizza & Sfizi", "takeaway": "yes"}}, {"type": "node", "id": 6028394805, "lat": 41.5842964, "lon": 15.1131387, "tags": {"addr:city": "Castelnuovo della Daunia", "addr:postcode": "71034", "addr:street": "Contrada Crocella", "amenity": "restaurant", "cuisine": "regional;italian;pizza", "name": "Ad Maiora - Ristorante delle Terme"}}, {"type": "node", "id": 6029149342, "lat": 41.5844281, "lon": 15.1202479, "tags": {"addr:city": "Castelnuovo della Daunia", "addr:housenumber": "4", "addr:postcode": "71034", "addr:street": "Piazza Canelli", "amenity": "restaurant", "cuisine": "italian;cafe/diner;cafe;bistro", "name": "Caf\u00e8 Smile Bistr\u00f2", "phone": "+39 338 498 8547", "takeaway": "yes"}}, {"type": "node", "id": 6054429474, "lat": 41.5373303, "lon": 15.0476562, "tags": {"addr:city": "San Marco la Catola", "addr:postcode": "71030", "addr:street": "Strada Provinciale 1/Contrada San Cristoforo", "amenity": "restaurant", "cuisine": "pizza;regional;italian", "name": "Locanda Bosco San Cristoforo", "opening_hours": "Mo-Su 10:00-23:30", "outdoor_seating": "yes", "phone": "+39 333 334 6671", "smoking": "outside", "website": "http://www.locandaboscosancristoforo.it/"}}, {"type": "node", "id": 6126716600, "lat": 41.460917, "lon": 15.5467272, "tags": {"amenity": "restaurant", "name": "Ristorante enoteca Leonardo"}}, {"type": "node", "id": 6126756548, "lat": 41.4573531, "lon": 15.5469123, "tags": {"amenity": "cafe"}}, {"type": "node", "id": 6126756553, "lat": 41.4586697, "lon": 15.5478269, "tags": {"amenity": "cafe", "name": "Caffetteria Tiffany"}}, {"type": "node", "id": 6241419719, "lat": 41.4239177, "lon": 15.0233044}, {"type": "node", "id": 6241419723, "lat": 41.4237749, "lon": 15.023181}, {"type": "node", "id": 6241419724, "lat": 41.4236502, "lon": 15.0234626}, {"type": "node", "id": 6241419725, "lat": 41.4237904, "lon": 15.0235909}, {"type": "node", "id": 6270069185, "lat": 41.4331406, "lon": 15.1222856, "tags": {"amenity": "restaurant", "name": "Antichi Sapori", "name:de": "Pizzeria und Restaurant", "name:en": "Pizzeria and Restaurant"}}, {"type": "node", "id": 6363686785, "lat": 41.4576637, "lon": 15.5504285, "tags": {"addr:housenumber": "53", "addr:postcode": "71121", "addr:street": "Via Tenente Iorio", "amenity": "restaurant", "cuisine": "mediterranean;italian", "name": "Ambasciata Orsarese", "opening_hours": "Mo-Su 12:30-15:30, 19:30-23:00", "phone": "+39 0881740204"}}, {"type": "node", "id": 6950882903, "lat": 41.6863074, "lon": 15.3125738, "tags": {"amenity": "restaurant"}}, {"type": "node", "id": 7227073164, "lat": 41.4572481, "lon": 15.5672061, "tags": {"amenity": "cafe", "name": "Caf\u00e8 Society"}}, {"type": "node", "id": 7966702298, "lat": 41.4357614, "lon": 15.017427}, {"type": "node", "id": 7966702299, "lat": 41.4358956, "lon": 15.0174241}, {"type": "node", "id": 7966702300, "lat": 41.4358956, "lon": 15.0176239}, {"type": "node", "id": 7966702301, "lat": 41.4357547, "lon": 15.0176209}, {"type": "node", "id": 7966702312, "lat": 41.4245059, "lon": 15.0175145}, {"type": "node", "id": 7966702313, "lat": 41.4245022, "lon": 15.0176904}, {"type": "node", "id": 7966702314, "lat": 41.4244307, "lon": 15.0176854}, {"type": "node", "id": 7966702315, "lat": 41.4244283, "lon": 15.0177972}, {"type": "node", "id": 7966702316, "lat": 41.4245441, "lon": 15.0178021}, {"type": "node", "id": 7966702317, "lat": 41.4245441, "lon": 15.0177758}, {"type": "node", "id": 7966702318, "lat": 41.424618, "lon": 15.0177791}, {"type": "node", "id": 7966702319, "lat": 41.4246205, "lon": 15.0175161}, {"type": "node", "id": 9216344575, "lat": 41.4414456, "lon": 15.5211389, "tags": {"amenity": "restaurant"}}, {"type": "node", "id": 9868731614, "lat": 41.4634594, "lon": 15.5471311, "tags": {"addr:housenumber": "34", "addr:street": "Via Saverio Altamura", "air_conditioning": "yes", "amenity": "restaurant", "bar": "no", "check_date": "2022-07-07", "cuisine": "italian", "diet:gluten_free": "yes", "highchair": "yes", "internet_access": "no", "level": "0", "name": "Osteria La Giara", "operator": "D'Ambrosio Tiziana e La Marca Fabio", "outdoor_seating": "no", "payment:mastercard": "yes", "payment:visa": "yes", "phone": "+39 0881 206920", "ref:vatin": "IT03792050712", "reservation": "yes"}}, {"type": "node", "id": 9870129918, "lat": 41.4609013, "lon": 15.5514706, "tags": {"amenity": "restaurant", "check_date": "2022-07-06", "cuisine": "regional", "diet:vegetarian": "yes", "level": "0", "name": "Osteria Numero Dieci", "wheelchair": "no"}}, {"type": "node", "id": 9870172941, "lat": 41.4609013, "lon": 15.5514706, "tags": {"amenity": "restaurant", "check_date": "2022-07-06", "cuisine": "regional", "diet:vegetarian": "yes", "level": "0", "name": "Osteria Numero Dieci", "outdoor_seating": "yes", "reservation": "yes", "wheelchair": "no"}}, {"type": "node", "id": 9870571851, "lat": 41.5049492, "lon": 15.333629, "tags": {"amenity": "cafe", "check_date": "2022-07-06", "level": "0", "name": "Caf\u00e8 Queen", "outdoor_seating": "yes"}}, {"type": "node", "id": 9870587423, "lat": 41.5009822, "lon": 15.3319659, "tags": {"amenity": "cafe", "check_date": "2022-07-06", "level": "0", "name": "Caffetteria Guaran\u00e0", "outdoor_seating": "yes"}}, {"type": "node", "id": 9870718571, "lat": 41.5080385, "lon": 15.3343344, "tags": {"addr:housenumber": "6-7", "addr:street": "Piazza del Duomo", "amenity": "cafe", "bar": "yes", "contact:facebook": "labelleepoquerestaurant021", "contact:instagram": "la_belleepoque_lucera", "email": "labelle.epoque@seitecnica.it", "name": "La Belle \u00c9poque", "phone": "08811782322"}}, {"type": "node", "id": 9871696760, "lat": 41.4647272, "lon": 15.5471255, "tags": {"amenity": "restaurant", "check_date": "2022-07-07", "cuisine": "chinese;japanese"}}, {"type": "node", "id": 10058311789, "lat": 41.4515857, "lon": 15.5330565, "tags": {"amenity": "cafe"}}, {"type": "node", "id": 10058349628, "lat": 41.4505011, "lon": 15.5353273, "tags": {"amenity": "cafe", "name": "Fahrenheit 2.0"}}, {"type": "node", "id": 10058349629, "lat": 41.4503993, "lon": 15.5353109, "tags": {"amenity": "restaurant", "cuisine": "pizza", "name": "Fahrenheit 2.0"}}, {"type": "node", "id": 10058349638, "lat": 41.4495699, "lon": 15.5361438, "tags": {"amenity": "restaurant", "name": "Peperone in Citt\u00e0"}}, {"type": "node", "id": 10058349641, "lat": 41.4497699, "lon": 15.5355827, "tags": {"amenity": "restaurant", "cuisine": "steak_house", "name": "El Matador"}}, {"type": "node", "id": 10273859655, "lat": 41.6911054, "lon": 15.2978381, "tags": {"amenity": "cafe"}}, {"type": "node", "id": 10275336913, "lat": 41.688344, "lon": 15.3692096, "tags": {"amenity": "cafe", "name": "Caff\u00e8 letterario"}}, {"type": "node", "id": 10276868763, "lat": 41.4575419, "lon": 15.5503421, "tags": {"amenity": "restaurant", "name": "Salustri"}}, {"type": "node", "id": 10296621123, "lat": 41.4477052, "lon": 15.5352593, "tags": {"addr:city": "Foggia", "addr:housenumber": "130", "addr:postcode": "71122", "addr:street": "Via Vincenzo Gioberti", "amenity": "restaurant", "cuisine": "pizza", "name": "Kal\u00f2"}}, {"type": "node", "id": 10734212017, "lat": 41.5425957, "lon": 15.1285091, "tags": {"amenity": "cafe", "name": "Bar Sport"}}, {"type": "node", "id": 11158654211, "lat": 41.7109327, "lon": 14.9915552, "tags": {"addr:city": "Santa Croce di Magliano", "amenity": "cafe", "contact:facebook": "https://www.facebook.com/1538551516361954", "name": "Bar Marconi", "outdoor_seating": "yes"}}, {"type": "node", "id": 11158663285, "lat": 41.7113278, "lon": 14.9883469, "tags": {"addr:city": "Santa Croce di Magliano", "addr:housenumber": "2", "addr:postcode": "86047", "addr:street": "Piazza monsignor A. Santorelli", "amenity": "cafe", "contact:facebook": "https://www.facebook.com/540305866145953", "name": "Broadway Cafe'", "phone": "+39 333 9168792"}}, {"type": "node", "id": 11183446437, "lat": 41.3423917, "lon": 15.2013153, "tags": {"addr:housenumber": "76", "addr:postcode": "71020", "addr:street": "Via Santa Maria", "amenity": "restaurant", "contact:instagram": "enigma.instafood", "cuisine": "barbecue;breakfast;burger;coffee_shop;friture;hot_dog;pasta", "email": "enigma.braceria@gmail.com", "name": "ENIGMA (BRACERIA", "name:en": "ENIGMA (BRACERIA-HANBURGERIA-LOUNGE BAR)", "name:it": "ENIGMA (BRACERIA-HANBURGERIA-LOUNGE BAR)", "phone": "388 834 5584"}}, {"type": "node", "id": 11197773937, "lat": 41.3259631, "lon": 15.1820346, "tags": {"addr:housenumber": "2", "addr:postcode": "71020", "addr:street": "SP126", "amenity": "restaurant", "cuisine": "barbecue;breakfast;deli;italian;pasta;pizza", "email": "casadellefontanelle@gmail.com", "name": "Le Fontanelle", "phone": "0881972347", "website": "https://www.tripadvisor.it/Restaurant_Review-g3493404-d3493406-Reviews-Le_Fontanelle-Celle_di_San_Vito_Province_of_Foggia_Puglia.html?m=19905"}}, {"type": "node", "id": 11302786828, "lat": 41.6897881, "lon": 15.3811085, "tags": {"amenity": "restaurant", "cuisine": "pizza", "name": "Queen's kitchen", "survey:date": "2023-10-31"}}, {"type": "node", "id": 11364248515, "lat": 41.6919583, "lon": 15.3692343, "tags": {"amenity": "cafe"}}, {"type": "node", "id": 11365940491, "lat": 41.4474476, "lon": 15.5996299, "tags": {"amenity": "restaurant"}}, {"type": "node", "id": 11368030830, "lat": 41.6223804, "lon": 15.4481664, "tags": {"amenity": "restaurant"}}, {"type": "node", "id": 12138530364, "lat": 41.4508763, "lon": 15.5521603, "tags": {"addr:street": "Viale I Maggio 26", "amenity": "restaurant", "name": "Lievi'tante", "phone": "+393403292443", "website": "https://www.lievitantepizzeria.com/"}}, {"type": "node", "id": 12201863560, "lat": 41.618226, "lon": 15.1025064, "tags": {"amenity": "restaurant", "cuisine": "pizza"}}, {"type": "node", "id": 12279518816, "lat": 41.3593654, "lon": 15.3047825, "tags": {"amenity": "cafe"}}, {"type": "node", "id": 12309687922, "lat": 41.4638225, "lon": 15.5507102, "tags": {"addr:housenumber": "6", "addr:street": "Via Fiume", "amenity": "restaurant", "cuisine": "regional", "name": "Italo dal 1966 ... Trattoria Donna Irma", "operator": "Food Art S.R.L.S.", "outdoor_seating": "no", "wheelchair": "limited"}}, {"type": "node", "id": 12488661526, "lat": 41.4118571, "lon": 15.0167774}, {"type": "node", "id": 12488661527, "lat": 41.4119678, "lon": 15.0169218}, {"type": "node", "id": 12488661528, "lat": 41.4118736, "lon": 15.0170307}, {"type": "node", "id": 12488661529, "lat": 41.4117871, "lon": 15.0168451}, {"type": "node", "id": 12488661530, "lat": 41.4118396, "lon": 15.0167902}, {"type": "node", "id": 12512492201, "lat": 41.4158016, "lon": 15.0173383}, {"type": "node", "id": 12512492202, "lat": 41.4158825, "lon": 15.0174477}, {"type": "node", "id": 12512492203, "lat": 41.4158097, "lon": 15.0175401}, {"type": "node", "id": 12512492204, "lat": 41.415723, "lon": 15.0174323}, {"type": "node", "id": 12512492205, "lat": 41.4152691, "lon": 15.0163665}, {"type": "node", "id": 12512492206, "lat": 41.4153195, "lon": 15.0164125}, {"type": "node", "id": 12512492207, "lat": 41.4154071, "lon": 15.0162798}, {"type": "node", "id": 12512492208, "lat": 41.4153713, "lon": 15.0162355}, {"type": "node", "id": 12520849370, "lat": 41.4550656, "lon": 15.5564211, "tags": {"amenity": "cafe", "brand": "Izzo", "check_date": "2024-09-23", "cuisine": "coffee_shop", "name": "Guerra Caff\u00e8"}}, {"type": "node", "id": 12520849377, "lat": 41.4554161, "lon": 15.5533474, "tags": {"amenity": "cafe", "check_date": "2024-09-23", "cuisine": "coffee_shop", "name:it": "Caffetteria Colombo"}}, {"type": "node", "id": 12520849392, "lat": 41.4500526, "lon": 15.5660599, "tags": {"amenity": "restaurant", "check_date": "2024-09-21", "cuisine": "italian;coffee_shop;pizza", "diet:gluten_free": "yes", "name": "Alter Ego", "payment:cash": "yes", "payment:credit_cards": "yes", "payment:debit_cards": "yes"}}, {"type": "node", "id": 12520849397, "lat": 41.4467927, "lon": 15.5676612, "tags": {"amenity": "cafe", "check_date": "2024-09-21", "cuisine": "coffee_shop"}}, {"type": "node", "id": 12520856910, "lat": 41.4640115, "lon": 15.5314783, "tags": {"amenity": "restaurant", "check_date": "2024-09-22", "cuisine": "barbecue", "name": "Havana Park", "name:it": "Havana Park Braceria"}}, {"type": "node", "id": 12520856915, "lat": 41.456188, "lon": 15.5504142, "tags": {"amenity": "cafe", "bar": "yes", "brand": "Illy", "check_date": "2024-09-23", "cuisine": "coffee_shop", "name:it": "Bar Imperial"}}, {"type": "node", "id": 12527044977, "lat": 41.4623917, "lon": 15.5445627, "tags": {"amenity": "cafe", "check_date": "2025-01-23", "name:it": "Fovea Caff\u00e8"}}, {"type": "node", "id": 12601505601, "lat": 41.4649371, "lon": 15.5547831, "tags": {"amenity": "cafe", "indoor_seating": "yes", "name": "Kiwi Bar", "outdoor_seating": "yes"}}, {"type": "node", "id": 12643195777, "lat": 41.4449368, "lon": 15.5437351, "tags": {"amenity": "restaurant", "check_date": "2025-03-07", "name": "Sarni Bistr\u00f2", "website": "https://www.sarniristorazione.it/"}}, {"type": "way", "id": 364198498, "nodes": [2544625416, 3682651236, 2544625371, 2544625428, 2544625426, 2544625423, 2544625421, 2544625419, 2544625416], "tags": {"amenity": "restaurant", "name": "Ristorante Sala Ricevimenti Ambassador"}}, {"type": "way", "id": 364198501, "nodes": [3682651241, 3682651242, 3682651243, 3682651244, 3682651241], "tags": {"amenity": "restaurant", "name": "Villa Reale Ricevimenti"}}, {"type": "way", "id": 404758377, "nodes": [4070268840, 4070268937, 4070268942, 4070269031, 4070268893, 4070268883, 4070268842, 4070268816, 4070268859, 4070268840], "tags": {"addr:city": "San Severo", "addr:housenumber": "20", "addr:postcode": "71016", "addr:street": "Strada Provinciale S.Severo-S.Nicandro", "amenity": "restaurant", "building": "yes", "building:levels": "2", "cuisine": "italian;pizza", "name": "Le 4 Stagioni Trattoria-Pizzeria"}}, {"type": "way", "id": 404834844, "nodes": [4070884676, 4070884641, 4070884854, 4070884883, 4070884676], "tags": {"amenity": "restaurant", "building": "yes", "layer": "1", "name": "La Scorpacciata"}}, {"type": "way", "id": 404908867, "nodes": [4071584688, 4071584683, 4071584694, 4071584698, 4071584688], "tags": {"addr:city": "San Paolo di Civitate", "addr:postcode": "71010", "addr:street": "Via G. Leopardi", "amenity": "cafe", "bar": "yes", "building": "yes", "name": "Bar Ll Chioschetto"}}, {"type": "way", "id": 405228336, "nodes": [4074433042, 4074433193, 4074433366, 4074433457, 4074433153, 4074433042], "tags": {"addr:city": "Foggia", "addr:postcode": "71122", "addr:street": "Via Nedo Nadi", "amenity": "restaurant", "building": "yes", "cuisine": "pizza,patatine,rustici,panzerotti", "name": "Bruschetteria - Paninoteca di Mario Forcella", "website": "https://www.facebook.com/pages/Mario-Forcella/151803948191811"}}, {"type": "way", "id": 666623108, "nodes": [6241419723, 6241419724, 6241419725, 6241419719, 6241419723], "tags": {"amenity": "restaurant", "building": "yes", "name": "Ristorante del Sole"}}, {"type": "way", "id": 854260380, "nodes": [7966702298, 7966702299, 7966702300, 7966702301, 7966702298], "tags": {"amenity": "restaurant", "building": "yes", "name": "Agriturismo Pizzeria Santagata"}}, {"type": "way", "id": 854260382, "nodes": [7966702312, 7966702313, 7966702314, 7966702315, 7966702316, 7966702317, 7966702318, 7966702319, 7966702312], "tags": {"amenity": "restaurant", "building": "yes", "name": "Ristorante Pizzeria il Fauno"}}, {"type": "way", "id": 1350012134, "nodes": [12488661526, 12488661527, 12488661528, 12488661529, 12488661530, 12488661526], "tags": {"addr:city": "San Bartolomeo in Galdo", "addr:postcode": "82028", "addr:street": "Piazza Umberto I", "amenity": "restaurant", "building": "yes", "cuisine": "pizza;italian", "name": "La Lanterna"}}, {"type": "way", "id": 1352352249, "nodes": [12512492201, 12512492202, 12512492203, 12512492204, 12512492201], "tags": {"amenity": "restaurant", "building": "yes", "cuisine": "pizza", "name": "Pizzeria Sasso 2.0"}}, {"type": "way", "id": 1352352250, "nodes": [12512492205, 12512492206, 12512492207, 12512492208, 12512492205], "tags": {"amenity": "restaurant", "building": "yes", "cuisine": "pizza", "name": "Lo Straniero"}}]}