{"version": 0.6, "generator": "Overpass API 0.7.62.7 375dc00a", "osm3s": {"timestamp_osm_base": "2025-06-14T13:58:38Z", "copyright": "The data included in this document is from www.openstreetmap.org. The data is made available under ODbL."}, "elements": [{"type": "node", "id": 289267350, "lat": 41.8840262, "lon": 16.1765142, "tags": {"amenity": "restaurant", "name": "Skipper"}}, {"type": "node", "id": 289267351, "lat": 41.883471, "lon": 16.1767582, "tags": {"amenity": "restaurant", "name": "Box 19", "outdoor_seating": "yes"}}, {"type": "node", "id": 3099627995, "lat": 41.8836853, "lon": 16.1801666, "tags": {"amenity": "restaurant", "name": "Pizzeria Portofino"}}, {"type": "node", "id": 3099628930, "lat": 41.8820822, "lon": 16.1801263, "tags": {"amenity": "restaurant", "name": "Osteria degli Angeli"}}, {"type": "node", "id": 3698306401, "lat": 41.8837373, "lon": 16.1807356}, {"type": "node", "id": 3698306402, "lat": 41.8837618, "lon": 16.1807773}, {"type": "node", "id": 3698306403, "lat": 41.883813, "lon": 16.1806555}, {"type": "node", "id": 3698306404, "lat": 41.8838375, "lon": 16.1806972}, {"type": "node", "id": 4084239724, "lat": 41.8475401, "lon": 16.1787367}, {"type": "node", "id": 4084239726, "lat": 41.8475512, "lon": 16.1787817}, {"type": "node", "id": 4084239727, "lat": 41.8475581, "lon": 16.1787284}, {"type": "node", "id": 4084239729, "lat": 41.8476196, "lon": 16.1787018}, {"type": "node", "id": 4084239730, "lat": 41.8476301, "lon": 16.1787453}, {"type": "node", "id": 4084239909, "lat": 41.849334, "lon": 16.178036}, {"type": "node", "id": 4084239913, "lat": 41.8493649, "lon": 16.1782033}, {"type": "node", "id": 4084239929, "lat": 41.8494107, "lon": 16.1780105}, {"type": "node", "id": 4084239932, "lat": 41.8494416, "lon": 16.1781778}, {"type": "node", "id": 4084240703, "lat": 41.8541072, "lon": 16.1758942}, {"type": "node", "id": 4084240721, "lat": 41.8541252, "lon": 16.1760203}, {"type": "node", "id": 4084240727, "lat": 41.8541349, "lon": 16.175887}, {"type": "node", "id": 4084240733, "lat": 41.8541421, "lon": 16.1760158}, {"type": "node", "id": 4084240741, "lat": 41.8541597, "lon": 16.1760112}, {"type": "node", "id": 4084240776, "lat": 41.8542652, "lon": 16.1759835}, {"type": "node", "id": 4084240804, "lat": 41.8543247, "lon": 16.1758379}, {"type": "node", "id": 4084240809, "lat": 41.8543426, "lon": 16.1759633}, {"type": "node", "id": 4084263356, "lat": 41.8811132, "lon": 16.181707}, {"type": "node", "id": 4084263455, "lat": 41.8811585, "lon": 16.1817869}, {"type": "node", "id": 4084263469, "lat": 41.8811631, "lon": 16.1816673}, {"type": "node", "id": 4084263478, "lat": 41.8811675, "lon": 16.1817886}, {"type": "node", "id": 4084263493, "lat": 41.8811732, "lon": 16.181675}, {"type": "node", "id": 4084263506, "lat": 41.8811797, "lon": 16.1818702}, {"type": "node", "id": 4084263523, "lat": 41.8811858, "lon": 16.1817633}, {"type": "node", "id": 4084263536, "lat": 41.8811919, "lon": 16.1817717}, {"type": "node", "id": 4084263557, "lat": 41.8812007, "lon": 16.1818465}, {"type": "node", "id": 4084263561, "lat": 41.8812027, "lon": 16.1816492}, {"type": "node", "id": 4084263571, "lat": 41.8812057, "lon": 16.1819098}, {"type": "node", "id": 4084263572, "lat": 41.8812072, "lon": 16.1816467}, {"type": "node", "id": 4084263609, "lat": 41.8812258, "lon": 16.181871}, {"type": "node", "id": 4084263620, "lat": 41.8812308, "lon": 16.1818809}, {"type": "node", "id": 4084263670, "lat": 41.8812587, "lon": 16.1816186}, {"type": "node", "id": 4084263681, "lat": 41.881265, "lon": 16.1817821}, {"type": "node", "id": 4084263705, "lat": 41.8812747, "lon": 16.1816588}, {"type": "node", "id": 4084263721, "lat": 41.8812816, "lon": 16.1818111}, {"type": "node", "id": 4084263757, "lat": 41.8812936, "lon": 16.1816283}, {"type": "node", "id": 4084263765, "lat": 41.8812961, "lon": 16.1816416}, {"type": "node", "id": 4084263792, "lat": 41.8813088, "lon": 16.1817347}, {"type": "node", "id": 4084263797, "lat": 41.881311, "lon": 16.1817317}, {"type": "node", "id": 4084263853, "lat": 41.8813316, "lon": 16.1817035}, {"type": "node", "id": 4084263859, "lat": 41.8813336, "lon": 16.1817009}, {"type": "node", "id": 4084263881, "lat": 41.8813419, "lon": 16.1816121}, {"type": "node", "id": 4084264114, "lat": 41.881354, "lon": 16.1816061}, {"type": "node", "id": 4084264174, "lat": 41.8813776, "lon": 16.1816446}, {"type": "node", "id": 4084264185, "lat": 41.8813823, "lon": 16.1815922}, {"type": "node", "id": 4084264197, "lat": 41.8813856, "lon": 16.1816006}, {"type": "node", "id": 4084264232, "lat": 41.8813981, "lon": 16.181588}, {"type": "node", "id": 4084264258, "lat": 41.8814069, "lon": 16.181607}, {"type": "node", "id": 4084271880, "lat": 41.8835525, "lon": 16.1804753}, {"type": "node", "id": 4084271899, "lat": 41.8835611, "lon": 16.1805191}, {"type": "node", "id": 4084271961, "lat": 41.8835977, "lon": 16.1804595}, {"type": "node", "id": 4084271979, "lat": 41.8836062, "lon": 16.1805034}, {"type": "node", "id": 4351312627, "lat": 41.8828508, "lon": 16.1791372, "tags": {"amenity": "restaurant", "name": "Trattoria La Piazzetta"}}, {"type": "node", "id": 4351801091, "lat": 41.8835265, "lon": 16.1802622, "tags": {"amenity": "cafe", "cuisine": "ice_cream", "level": "0", "name": "Matteosky", "outdoor_seating": "yes", "takeaway": "yes"}}, {"type": "node", "id": 4382226589, "lat": 41.816699, "lon": 16.1937928, "tags": {"addr:province": "FG", "amenity": "restaurant", "cuisine": "fish", "entrance": "yes", "level": "0", "wheelchair": "yes"}}, {"type": "node", "id": 4422404006, "lat": 41.8829134, "lon": 16.1782547, "tags": {"amenity": "cafe", "level": "0", "name": "Iris caf\u0117", "wheelchair": "limited"}}, {"type": "node", "id": 4980301806, "lat": 41.8818833, "lon": 16.1785443, "tags": {"amenity": "restaurant", "name": "Antica Bruschetta"}}, {"type": "node", "id": 4980301815, "lat": 41.881736, "lon": 16.1766279, "tags": {"amenity": "restaurant", "name": "Piccadilly"}}, {"type": "node", "id": 5000098381, "lat": 41.8823239, "lon": 16.1770231, "tags": {"amenity": "cafe", "description": "Campione italiano di gelateria (2010)", "description:hu": "Az olasz fagylaltk\u00e9sz\u00edt\u0151 bajnoks\u00e1g gy\u0151ztese (2010)", "name": "Ruggieri"}}, {"type": "node", "id": 5155704357, "lat": 41.8821234, "lon": 16.1755904, "tags": {"addr:street": "Viale XXIV Maggio", "amenity": "restaurant", "name": "Panificio Giuffreda Pizza Biscotti Pane"}}, {"type": "node", "id": 5155706725, "lat": 41.88229, "lon": 16.1755398, "tags": {"amenity": "restaurant", "name": "Kebab"}}, {"type": "node", "id": 5939047587, "lat": 41.8819051, "lon": 16.1808017, "tags": {"amenity": "restaurant", "name": "Locanda la Macina"}}, {"type": "node", "id": 6411887770, "lat": 41.8827539, "lon": 16.1828018, "tags": {"amenity": "restaurant", "cuisine": "seafood", "name": "Taverna Al Cantinone"}}, {"type": "node", "id": 6411897229, "lat": 41.8821652, "lon": 16.1821615, "tags": {"amenity": "cafe", "name": "Carpenter"}}, {"type": "node", "id": 6490030906, "lat": 41.8814011, "lon": 16.1818837, "tags": {"amenity": "restaurant", "cuisine": "pizza;italian;seafood;pasta", "name": "Sapore di Mare", "outdoor_seating": "yes", "toilets": "yes", "wheelchair": "limited"}}, {"type": "node", "id": 6490634335, "lat": 41.8825156, "lon": 16.1829919, "tags": {"amenity": "restaurant", "name": "Osteria degli Archi"}}, {"type": "node", "id": 6490665151, "lat": 41.8828743, "lon": 16.1829838, "tags": {"amenity": "restaurant", "cuisine": "seafood", "name": "Ristorante Vecchia Vieste"}}, {"type": "node", "id": 6490675693, "lat": 41.8824471, "lon": 16.1819451, "tags": {"amenity": "restaurant", "name": "Ristorante Padre Pio"}}, {"type": "node", "id": 6490687476, "lat": 41.8828766, "lon": 16.18199, "tags": {"amenity": "restaurant", "name": "Arcaroli"}}, {"type": "node", "id": 6490984640, "lat": 41.8819322, "lon": 16.1778697, "tags": {"amenity": "restaurant", "cuisine": "seafood", "name": "Ristorante La Teresina"}}, {"type": "node", "id": 6491022801, "lat": 41.8836915, "lon": 16.1763469, "tags": {"amenity": "restaurant", "cuisine": "pizza", "name": "Napoli"}}, {"type": "node", "id": 6491041386, "lat": 41.8848431, "lon": 16.1793139, "tags": {"amenity": "restaurant", "name": "Ristorante Pizzeria Bella Napoli"}}, {"type": "node", "id": 6564513085, "lat": 41.8822562, "lon": 16.1819939, "tags": {"amenity": "restaurant", "cuisine": "italian;pizza", "name": "Antichi Sapori"}}, {"type": "node", "id": 6564542087, "lat": 41.8851698, "lon": 16.1721108, "tags": {"amenity": "restaurant", "cuisine": "italian_pizza", "indoor_seating": "yes", "name": "Pizzeria Da Enzo Con Forno A Legna", "outdoor_seating": "yes"}}, {"type": "node", "id": 6564542586, "lat": 41.882374, "lon": 16.1760602, "tags": {"amenity": "restaurant", "cuisine": "italian_pizza", "name": "Pizzeria Notte e Di"}}, {"type": "node", "id": 6564542595, "lat": 41.8853424, "lon": 16.1780563, "tags": {"amenity": "restaurant", "cuisine": "mediterranean;italian", "name": "Ristorante Acqua"}}, {"type": "node", "id": 6564557789, "lat": 41.8829782, "lon": 16.1808749, "tags": {"amenity": "restaurant", "cuisine": "italian_pizza", "name": "Il Fornaio"}}, {"type": "node", "id": 6564557887, "lat": 41.8820516, "lon": 16.1780409, "tags": {"amenity": "restaurant", "cuisine": "italian", "name": "\u013d Osteria"}}, {"type": "node", "id": 6564558091, "lat": 41.8822336, "lon": 16.1809592, "tags": {"amenity": "restaurant", "cuisine": "italian", "name": "Osteria Al Duomo"}}, {"type": "node", "id": 6661733085, "lat": 41.8812139, "lon": 16.1814185, "tags": {"amenity": "restaurant", "cuisine": "italian_pizza;italian", "name": "Piazzetta Petrone"}}, {"type": "node", "id": 6742645738, "lat": 41.88291, "lon": 16.1794159, "tags": {"amenity": "restaurant", "name": "Il Paniere"}}, {"type": "node", "id": 6751171481, "lat": 41.8834537, "lon": 16.1822139, "tags": {"amenity": "restaurant", "name": "Il Grottino"}}, {"type": "node", "id": 7063534088, "lat": 41.8829921, "lon": 16.1785382, "tags": {"amenity": "restaurant", "cuisine": "italian;seafood", "name": "Piccolo Ristoro By Gerry"}}, {"type": "node", "id": 7807520814, "lat": 41.8834062, "lon": 16.1768164, "tags": {"amenity": "restaurant", "cuisine": "seafood", "name": "Miro'", "outdoor_seating": "yes"}}, {"type": "node", "id": 7839834941, "lat": 41.8828478, "lon": 16.1808227, "tags": {"amenity": "cafe", "name": "Cristal Caf\u00e9"}}, {"type": "node", "id": 7842679507, "lat": 41.8825552, "lon": 16.1786512, "tags": {"addr:housenumber": "45", "addr:street": "Corso Lorenzo Fazzini", "amenity": "cafe", "cuisine": "ice_cream", "name": "Bar del corso", "outdoor_seating": "yes", "takeaway": "yes", "toilets:wheelchair": "yes", "wheelchair": "yes"}}, {"type": "node", "id": 10010511475, "lat": 41.8817165, "lon": 16.1809154, "tags": {"addr:housenumber": "6", "addr:street": "Via Duomo", "amenity": "restaurant", "cuisine": "pizza", "name": "Pizzeria Adali", "operator": "Vespa Giuseppina", "outdoor_seating": "yes", "phone": "+39 340 5223461", "ref:vatin": "IT01872350713", "takeaway": "yes"}}, {"type": "node", "id": 10030068417, "lat": 41.8817841, "lon": 16.1796075, "tags": {"addr:housenumber": "11", "addr:postcode": "71019", "addr:street": "Corso Cesare Battisti", "amenity": "restaurant", "cuisine": "italian", "name": "Borgo Antico", "phone": "+39 0884 701377"}}, {"type": "node", "id": 11068655284, "lat": 41.8822683, "lon": 16.1807215, "tags": {"amenity": "restaurant", "name": "Pepe Nero"}}, {"type": "node", "id": 11534552177, "lat": 41.8857429, "lon": 16.178688, "tags": {"amenity": "restaurant", "name": "Del Porto Ristorante Pizzeria"}}, {"type": "node", "id": 11534552272, "lat": 41.8554055, "lon": 16.175483, "tags": {"amenity": "restaurant", "name": "Tre Vele Pizzeria"}}, {"type": "node", "id": 11534552273, "lat": 41.8832275, "lon": 16.1770861, "tags": {"amenity": "restaurant", "cuisine": "local;pizza", "name": "El Sombrero"}}, {"type": "node", "id": 11795275447, "lat": 41.8831606, "lon": 16.1802438, "tags": {"amenity": "restaurant", "name": "Ristorante Pizzeria ottocento", "outdoor_seating": "yes"}}, {"type": "node", "id": 11799587968, "lat": 41.8836359, "lon": 16.1768881, "tags": {"amenity": "restaurant", "name": "Ristorante La Galea"}}, {"type": "node", "id": 11799625527, "lat": 41.8835682, "lon": 16.1765626, "tags": {"amenity": "restaurant", "name": "Ristorante di mare Stella Maris"}}, {"type": "node", "id": 11951884495, "lat": 41.882427, "lon": 16.177678, "tags": {"amenity": "restaurant", "name": "Trattoria pizzeria bar Europa"}}, {"type": "node", "id": 11951884497, "lat": 41.8825528, "lon": 16.1791632, "tags": {"amenity": "restaurant", "name": "Braceria Gustus", "outdoor_seating": "yes"}}, {"type": "node", "id": 11951884510, "lat": 41.88341, "lon": 16.1826407, "tags": {"amenity": "restaurant", "name": "Ristorante antipasteria pizzeria del Faro"}}, {"type": "node", "id": 11951884511, "lat": 41.883353, "lon": 16.1827594, "tags": {"amenity": "restaurant", "name": "Sapori del Gargano da Grazia"}}, {"type": "node", "id": 11951884513, "lat": 41.882807, "lon": 16.1818758, "tags": {"amenity": "restaurant", "name": "Arcaroli"}}, {"type": "node", "id": 11951884514, "lat": 41.8827439, "lon": 16.1818037, "tags": {"amenity": "restaurant", "cuisine": "pizza", "name": "Pietra", "outdoor_seating": "yes"}}, {"type": "node", "id": 11951884517, "lat": 41.8828139, "lon": 16.1812782, "tags": {"amenity": "restaurant", "name": "La Tavernetta", "outdoor_seating": "yes"}}, {"type": "node", "id": 11954356901, "lat": 41.8835258, "lon": 16.1808993, "tags": {"amenity": "restaurant", "name": "Ristorante Al vaporetto", "outdoor_seating": "yes"}}, {"type": "node", "id": 11954361798, "lat": 41.886857, "lon": 16.1795515, "tags": {"amenity": "restaurant", "name": "Bar ristorante Alta marea"}}, {"type": "node", "id": 12040334824, "lat": 41.882385, "lon": 16.1761216, "tags": {"amenity": "restaurant", "cuisine": "italian_pizza", "name": "Pizzeria Big boy"}}, {"type": "node", "id": 12040334825, "lat": 41.8823666, "lon": 16.1759499, "tags": {"amenity": "restaurant", "name": "Encanto food and wine experience"}}, {"type": "way", "id": 365824218, "nodes": [3698306403, 3698306404, 3698306402, 3698306401, 3698306403], "tags": {"amenity": "cafe", "cuisine": "ice_cream", "name": "L'altro chiosco"}}, {"type": "way", "id": 406346732, "nodes": [4084263757, 4084263881, 4084264114, 4084264185, 4084264197, 4084264232, 4084264258, 4084264174, 4084263859, 4084263853, 4084263797, 4084263792, 4084263681, 4084263721, 4084263609, 4084263620, 4084263571, 4084263506, 4084263557, 4084263478, 4084263536, 4084263523, 4084263455, 4084263356, 4084263469, 4084263493, 4084263561, 4084263572, 4084263670, 4084263705, 4084263765, 4084263757], "tags": {"addr:city": "Vieste", "addr:housenumber": "16", "addr:postcode": "71019", "addr:street": "Via Cimaglia", "air_conditioning": "yes", "amenity": "restaurant", "building": "yes", "cuisine": "regional;fish;vieste;pasta;italian;japanese;seafood;barbecue;pesce", "description": "I Migliori Ristoranti a Base di Pesce Vieste", "height": "16", "internet_access": "yes", "name": "Ristorante La Ripa", "phone": "+39 0884 708048", "reservation": "yes", "smoking": "outside", "website": "https://www.laripa.net/"}}, {"type": "way", "id": 406349522, "nodes": [4084239929, 4084239932, 4084239913, 4084239909, 4084239929], "tags": {"amenity": "restaurant", "building": "shed", "name": "Lido Delfino ristorante pizzeria"}}, {"type": "way", "id": 406351530, "nodes": [4084271961, 4084271979, 4084271899, 4084271880, 4084271961], "tags": {"amenity": "restaurant", "building": "yes", "name": "La Bonnaccia"}}, {"type": "way", "id": 406353458, "nodes": [4084239729, 4084239730, 4084239726, 4084239724, 4084239727, 4084239729], "tags": {"amenity": "cafe", "building": "retail", "contact:email": "lidodeisogni@gmail.com", "contact:mobile": "+39 347 9961787;+39 349 7865243", "name": "Lido dei Sogni", "outdoor_seating": "yes"}}, {"type": "way", "id": 406355941, "nodes": [4084240804, 4084240809, 4084240776, 4084240741, 4084240733, 4084240721, 4084240703, 4084240727, 4084240804], "tags": {"amenity": "restaurant", "building": "yes", "name": "Ristorante Lisa Bay"}}]}