{"version": 0.6, "generator": "Overpass API 0.7.62.7 375dc00a", "osm3s": {"timestamp_osm_base": "2025-06-14T13:14:00Z", "copyright": "The data included in this document is from www.openstreetmap.org. The data is made available under ODbL."}, "elements": [{"type": "node", "id": 453029241, "lat": 39.5207158, "lon": 3.3135523, "tags": {"amenity": "restaurant", "name": "Cala Mendia"}}, {"type": "node", "id": 453147338, "lat": 39.61277, "lon": 3.2859395, "tags": {"addr:housenumber": "22", "addr:street": "Carrer d'en Soler", "amenity": "restaurant", "name": "Es Pati", "opening_hours": "Su off", "smoking": "outside", "website": "https://es-pati.com/"}}, {"type": "node", "id": 461265275, "lat": 39.5702347, "lon": 3.3758475, "tags": {"amenity": "restaurant"}}, {"type": "node", "id": 502655976, "lat": 39.3616729, "lon": 3.2104098, "tags": {"addr:housenumber": "56", "addr:street": "passeig del Port", "amenity": "restaurant", "cuisine": "regional", "internet_access": "wlan", "name": "Can Martina", "name:ca": "Can Martina", "phone": "+34971657517", "website": "http://www.restaurantecanmartina.com"}}, {"type": "node", "id": 530053086, "lat": 39.6272082, "lon": 3.3586269, "tags": {"amenity": "restaurant", "name": "Can Juli\u00e0", "name:ca": "Can Juli\u00e0"}}, {"type": "node", "id": 540197045, "lat": 39.6007413, "lon": 3.3630598, "tags": {"amenity": "restaurant", "cuisine": "german", "name": "Bella Vista", "name:ca": "Bella Vista"}}, {"type": "node", "id": 542643541, "lat": 39.5599327, "lon": 3.2440496, "tags": {"amenity": "restaurant"}}, {"type": "node", "id": 560375806, "lat": 39.4146202, "lon": 3.263569, "tags": {"amenity": "restaurant", "brewery": "San Miguel"}}, {"type": "node", "id": 560376657, "lat": 39.4139337, "lon": 3.2632741, "tags": {"amenity": "restaurant", "brewery": "San Miguel", "name": "Can Tomeu", "name:ca": "Can Tomeu"}}, {"type": "node", "id": 624639322, "lat": 39.5668934, "lon": 3.2049312, "tags": {"addr:housenumber": "8", "addr:postcode": "07500", "addr:street": "Carrer de Mallorca", "amenity": "restaurant", "name": "Can March", "name:ca": "Can March", "opening_hours": "Mo-Fr 13:00-13:00, 15:30-23:00"}}, {"type": "node", "id": 686490277, "lat": 39.5802682, "lon": 3.3962644}, {"type": "node", "id": 686490287, "lat": 39.5801667, "lon": 3.3958963}, {"type": "node", "id": 686490351, "lat": 39.5802564, "lon": 3.3958546}, {"type": "node", "id": 686490364, "lat": 39.580358, "lon": 3.3962227}, {"type": "node", "id": 735773537, "lat": 39.5136483, "lon": 3.2161274, "tags": {"amenity": "restaurant", "name": "Ca'n Bess\u00f3"}}, {"type": "node", "id": 735774541, "lat": 39.513558, "lon": 3.2163121, "tags": {"amenity": "restaurant", "name": "Ca'n Pelut"}}, {"type": "node", "id": 769951073, "lat": 39.6102003, "lon": 3.2857637, "tags": {"addr:city": "Sant Lloren\u00e7 des Cardassar", "amenity": "restaurant", "name": "Sa Guatlera"}}, {"type": "node", "id": 922729843, "lat": 39.5406041, "lon": 3.334989, "tags": {"amenity": "restaurant", "name": "Sa Llonja"}}, {"type": "node", "id": 925238167, "lat": 39.3671889, "lon": 3.2249933, "tags": {"addr:city": "Cala d'Or", "addr:housenumber": "9", "addr:postcode": "07660", "addr:street": "Avinguda d'es Fort\u00ed", "amenity": "restaurant", "name": "El Pescador", "phone": "+34 971 64 32 51"}}, {"type": "node", "id": 925246711, "lat": 39.3645694, "lon": 3.225583, "tags": {"addr:city": "Cala d'Or", "addr:housenumber": "5", "addr:postcode": "07660", "addr:street": "Toni Costa", "amenity": "restaurant", "cuisine": "indian;thai", "internet_access": "wlan", "name": "Indiana John's", "opening_hours": "11:00-23:00", "outdoor_seating": "yes", "phone": "+34 677 14 81 65", "smoking": "yes", "takeaway": "yes", "website": "http://www.indiana-johns.com"}}, {"type": "node", "id": 925246753, "lat": 39.3645227, "lon": 3.226758, "tags": {"addr:city": "Cala d'Or", "addr:housenumber": "31", "addr:postcode": "07660", "addr:street": "Avinguda de sa Marina", "amenity": "restaurant", "cuisine": "pizza", "name": "Napoli", "phone": "+34 971 65 91 19"}}, {"type": "node", "id": 925250359, "lat": 39.3643605, "lon": 3.2265028, "tags": {"addr:city": "Cala d'Or", "addr:housenumber": "37", "addr:postcode": "07660", "addr:street": "Avinguda de sa Marina", "amenity": "restaurant", "internet_access": "wlan", "name": "Tony's Bar", "opening_hours": "08:30-23:30", "outdoor_seating": "yes", "phone": "+34 971 64 86 87", "takeaway": "yes"}}, {"type": "node", "id": 925250361, "lat": 39.3644621, "lon": 3.2267037, "tags": {"addr:city": "Cala d'Or", "addr:housenumber": "35", "addr:postcode": "07660", "addr:street": "Avinguda de sa Marina", "amenity": "restaurant", "name": "La Marina", "name:ca": "La Marina", "opening_hours": "18:30-23:30", "phone": "+34 971 658 117", "website": "http://www.restaurante-lamarina.com"}}, {"type": "node", "id": 927327300, "lat": 39.6205825, "lon": 3.3602161, "tags": {"amenity": "cafe", "wheelchair": "yes"}}, {"type": "node", "id": 1147386332, "lat": 39.5427784, "lon": 3.3388285, "tags": {"amenity": "restaurant", "cuisine": "chinese", "name": "Hong Kong"}}, {"type": "node", "id": 1351119745, "lat": 39.412412, "lon": 3.2598515, "tags": {"amenity": "restaurant", "cuisine": "regional", "name": "Can Tom\u00e0s", "name:ca": "Can Tom\u00e0s"}}, {"type": "node", "id": 1351121321, "lat": 39.4197705, "lon": 3.2616824, "tags": {"amenity": "restaurant", "indoor_seating": "yes", "name": "Babbo Tapas", "outdoor_seating": "yes"}}, {"type": "node", "id": 1351122018, "lat": 39.4200124, "lon": 3.2615897, "tags": {"addr:housenumber": "7", "addr:street": "Carrer d'en Crist\u00f2for Colom", "amenity": "restaurant", "cuisine": "international", "internet_access": "wlan", "name": "Colom", "name:ca": "Colom"}}, {"type": "node", "id": 1351122019, "lat": 39.4201622, "lon": 3.261579, "tags": {"amenity": "restaurant", "cuisine": "international", "name": "Florian's"}}, {"type": "node", "id": 1351122082, "lat": 39.4204405, "lon": 3.2616283, "tags": {"amenity": "restaurant", "cuisine": "regional", "indoor_seating": "yes", "name": "Mestral", "name:ca": "Mestral", "outdoor_seating": "yes"}}, {"type": "node", "id": 1351122159, "lat": 39.423177, "lon": 3.2612889, "tags": {"amenity": "restaurant", "cuisine": "international", "name": "Por qu\u00e9 no?"}}, {"type": "node", "id": 1351122287, "lat": 39.4229683, "lon": 3.261537, "tags": {"amenity": "restaurant", "cuisine": "international", "name": "El Barco"}}, {"type": "node", "id": 1351122795, "lat": 39.4185008, "lon": 3.2583662, "tags": {"addr:country": "ES", "amenity": "cafe"}}, {"type": "node", "id": 1351134921, "lat": 39.4088987, "lon": 3.257123, "tags": {"amenity": "restaurant", "cuisine": "regional", "name": "Can Bernat", "name:ca": "Can Bernat"}}, {"type": "node", "id": 1351154918, "lat": 39.4146916, "lon": 3.259467, "tags": {"amenity": "restaurant", "cuisine": "crepe;ice_cream", "diet:vegan": "no", "diet:vegetarian": "yes", "indoor_seating": "yes", "name": "Es Cucurutxo", "outdoor_seating": "yes", "phone": "971 82 51 70"}}, {"type": "node", "id": 1351154927, "lat": 39.4147785, "lon": 3.258859, "tags": {"amenity": "restaurant"}}, {"type": "node", "id": 1351154929, "lat": 39.4125986, "lon": 3.2605258, "tags": {"amenity": "cafe", "internet_access": "wlan", "name": "Citrus"}}, {"type": "node", "id": 1351154931, "lat": 39.4127063, "lon": 3.2618052, "tags": {"amenity": "restaurant", "description": "Street food", "name": "Jamming Portocolom", "website": "https://www.jammingportocolom.com/"}}, {"type": "node", "id": 1351154933, "lat": 39.4121724, "lon": 3.2639203, "tags": {"amenity": "restaurant"}}, {"type": "node", "id": 1351154936, "lat": 39.4124908, "lon": 3.2624435, "tags": {"amenity": "restaurant"}}, {"type": "node", "id": 1351154937, "lat": 39.4128597, "lon": 3.26087, "tags": {"amenity": "cafe", "name": "El Extreme\u00f1o"}}, {"type": "node", "id": 1351154938, "lat": 39.4149784, "lon": 3.2590953, "tags": {"amenity": "restaurant", "name": "La Ni\u00f1a"}}, {"type": "node", "id": 1351154939, "lat": 39.4148032, "lon": 3.2608935, "tags": {"amenity": "restaurant", "indoor_seating": "yes", "name": "Ses Portadores", "outdoor_seating": "yes"}}, {"type": "node", "id": 1351154947, "lat": 39.4145446, "lon": 3.2592911, "tags": {"amenity": "restaurant", "diet:vegan": "no", "diet:vegetarian": "yes", "indoor_seating": "yes", "outdoor_seating": "yes"}}, {"type": "node", "id": 1351154954, "lat": 39.4126939, "lon": 3.2602817, "tags": {"amenity": "restaurant"}}, {"type": "node", "id": 1463676147, "lat": 39.5609628, "lon": 3.3724165, "tags": {"amenity": "restaurant", "name": "Es Pagell", "opening_hours": "Mo off"}}, {"type": "node", "id": 1540753208, "lat": 39.5400378, "lon": 3.333313, "tags": {"amenity": "cafe", "name": "Anita", "opening_hours": "Mo-Fr 07:00-19:00; Sa 07:00-18:00; Su off"}}, {"type": "node", "id": 1541601038, "lat": 39.5446452, "lon": 3.331846, "tags": {"amenity": "cafe", "name": "Can Melis", "name:ca": "Can Melis"}}, {"type": "node", "id": 1541601042, "lat": 39.5420824, "lon": 3.3333838, "tags": {"amenity": "cafe", "name": "Portocristo"}}, {"type": "node", "id": 1541601052, "lat": 39.5406065, "lon": 3.3314408, "tags": {"amenity": "restaurant", "name": "El Pino"}}, {"type": "node", "id": 1541601109, "lat": 39.5438332, "lon": 3.3326372, "tags": {"amenity": "restaurant", "cuisine": "regional", "name": "sa Sal"}}, {"type": "node", "id": 1541601113, "lat": 39.5405121, "lon": 3.3331562, "tags": {"amenity": "cafe", "name": "San Jos\u00e9", "name:ca": "Sant Josep"}}, {"type": "node", "id": 1541601118, "lat": 39.5405516, "lon": 3.3329358, "tags": {"amenity": "restaurant", "cuisine": "regional", "name": "Thomas", "name:es": "Tr3ntra-1", "wheelchair": "yes"}}, {"type": "node", "id": 1541601149, "lat": 39.5425418, "lon": 3.3349482, "tags": {"amenity": "restaurant", "cuisine": "regional", "name": "La Magrana", "phone": "+34 971 55 69 74", "toilets": "yes"}}, {"type": "node", "id": 1541999042, "lat": 39.5668537, "lon": 3.2124947, "tags": {"amenity": "cafe", "internet_access": "yes", "internet_access:fee": "no", "name": "Mingo", "opening_hours": "24/7", "wheelchair": "yes"}}, {"type": "node", "id": 1542676123, "lat": 39.5416823, "lon": 3.3359469, "tags": {"addr:city": "PortoCristo", "addr:housenumber": "57", "addr:postcode": "07680", "addr:street": "Carrer dels Bordils", "amenity": "restaurant", "name": "Garum"}}, {"type": "node", "id": 1548720795, "lat": 39.5455164, "lon": 3.334941, "tags": {"amenity": "cafe", "name": "Guti"}}, {"type": "node", "id": 1623460592, "lat": 39.6246402, "lon": 3.3959964, "tags": {"amenity": "restaurant", "name": "Port Verd del Mar"}}, {"type": "node", "id": 1642022289, "lat": 39.5707888, "lon": 3.2027884, "tags": {"amenity": "cafe", "name": "Bela Manacor", "name:ca": "Bela Manacor"}}, {"type": "node", "id": 1642022420, "lat": 39.5702275, "lon": 3.2028514, "tags": {"amenity": "cafe", "name": "ses Estacions"}}, {"type": "node", "id": 1787010023, "lat": 39.5879613, "lon": 3.382792, "tags": {"amenity": "restaurant", "name": "Crist\u00f3bal", "wheelchair": "yes"}}, {"type": "node", "id": 1787248418, "lat": 39.6099606, "lon": 3.389843, "tags": {"amenity": "restaurant", "name": "Sol I Mar"}}, {"type": "node", "id": 1798552632, "lat": 39.601034, "lon": 3.383782, "tags": {"amenity": "restaurant", "cuisine": "regional", "name": "La Sangria", "name:ca": "La Sangria"}}, {"type": "node", "id": 1798552634, "lat": 39.600953, "lon": 3.3839644, "tags": {"amenity": "cafe", "name": "Osiris", "outdoor_seating": "yes"}}, {"type": "node", "id": 1918109266, "lat": 39.5402851, "lon": 3.3323312, "tags": {"amenity": "restaurant", "name": "La esquina"}}, {"type": "node", "id": 1918109277, "lat": 39.5407068, "lon": 3.3323899, "tags": {"amenity": "restaurant", "name": "Can Salvador", "name:ca": "Can Salvador"}}, {"type": "node", "id": 1918109286, "lat": 39.5393789, "lon": 3.332208, "tags": {"amenity": "restaurant", "name": "Cap des Toi"}}, {"type": "node", "id": 1918109289, "lat": 39.5405542, "lon": 3.3318481, "tags": {"amenity": "restaurant", "name": "Can Jordi", "name:ca": "Can Jordi"}}, {"type": "node", "id": 1935711332, "lat": 39.5951031, "lon": 3.3812807, "tags": {"amenity": "restaurant", "cuisine": "pizza;spanish", "name": "sa Terrassa"}}, {"type": "node", "id": 1950973318, "lat": 39.3592774, "lon": 3.2110566, "tags": {"amenity": "restaurant", "internet_access": "wlan", "name": "Ran de Mar", "name:ca": "Ran de Mar"}}, {"type": "node", "id": 1961625346, "lat": 39.3618749, "lon": 3.2105774, "tags": {"amenity": "restaurant", "cuisine": "regional", "indoor_seating": "yes", "name": "na Petra", "outdoor_seating": "yes"}}, {"type": "node", "id": 2077548376, "lat": 39.3747446, "lon": 3.2300128, "tags": {"amenity": "cafe", "name": "Alhambra de Granada"}}, {"type": "node", "id": 2077555761, "lat": 39.3728889, "lon": 3.2288326, "tags": {"amenity": "restaurant", "name": "Pepe (Finca Mann)"}}, {"type": "node", "id": 2167828745, "lat": 39.5706098, "lon": 3.2113764, "tags": {"amenity": "cafe", "name": "Es Rac\u00f3", "name:ca": "Es Rac\u00f3", "phone": "+34 871579010"}}, {"type": "node", "id": 2185738657, "lat": 39.3709778, "lon": 3.2239272}, {"type": "node", "id": 2185738659, "lat": 39.3709781, "lon": 3.2239147}, {"type": "node", "id": 2185738660, "lat": 39.3709789, "lon": 3.2239367}, {"type": "node", "id": 2185738661, "lat": 39.3709805, "lon": 3.2239061}, {"type": "node", "id": 2185738663, "lat": 39.3709818, "lon": 3.2239452}, {"type": "node", "id": 2185738664, "lat": 39.3709847, "lon": 3.2238967}, {"type": "node", "id": 2185738665, "lat": 39.3709847, "lon": 3.2239521}, {"type": "node", "id": 2185738667, "lat": 39.37099, "lon": 3.2238884}, {"type": "node", "id": 2185738668, "lat": 39.3709922, "lon": 3.2239628}, {"type": "node", "id": 2185738669, "lat": 39.370996, "lon": 3.2238334}, {"type": "node", "id": 2185738670, "lat": 39.3709963, "lon": 3.2238822}, {"type": "node", "id": 2185738674, "lat": 39.3710005, "lon": 3.2239691}, {"type": "node", "id": 2185738677, "lat": 39.3710045, "lon": 3.2238787}, {"type": "node", "id": 2185738679, "lat": 39.3710069, "lon": 3.2239727}, {"type": "node", "id": 2185738680, "lat": 39.3710141, "lon": 3.223878}, {"type": "node", "id": 2185738683, "lat": 39.3710153, "lon": 3.2239736}, {"type": "node", "id": 2185738689, "lat": 39.3710223, "lon": 3.2239734}, {"type": "node", "id": 2185738692, "lat": 39.3710298, "lon": 3.2239703}, {"type": "node", "id": 2185738695, "lat": 39.3710364, "lon": 3.2239661}, {"type": "node", "id": 2185738701, "lat": 39.3710431, "lon": 3.2239578}, {"type": "node", "id": 2185738706, "lat": 39.3710465, "lon": 3.2239516}, {"type": "node", "id": 2185738710, "lat": 39.3710475, "lon": 3.2239497}, {"type": "node", "id": 2185738713, "lat": 39.3710508, "lon": 3.22394}, {"type": "node", "id": 2185738719, "lat": 39.3710589, "lon": 3.2239412}, {"type": "node", "id": 2185738731, "lat": 39.3710812, "lon": 3.2238173}, {"type": "node", "id": 2194676640, "lat": 39.3712659, "lon": 3.2217617}, {"type": "node", "id": 2194676641, "lat": 39.3712932, "lon": 3.2214919}, {"type": "node", "id": 2194676642, "lat": 39.3713028, "lon": 3.2217677}, {"type": "node", "id": 2194676644, "lat": 39.3713053, "lon": 3.2217473}, {"type": "node", "id": 2194676646, "lat": 39.3713136, "lon": 3.2217881}, {"type": "node", "id": 2194676648, "lat": 39.3713182, "lon": 3.2217497}, {"type": "node", "id": 2194676650, "lat": 39.3714964, "lon": 3.2218187}, {"type": "node", "id": 2194676652, "lat": 39.3714989, "lon": 3.2217886}, {"type": "node", "id": 2194676654, "lat": 39.37151, "lon": 3.2217139}, {"type": "node", "id": 2194676656, "lat": 39.3715261, "lon": 3.2215883}, {"type": "node", "id": 2194676658, "lat": 39.3715299, "lon": 3.2215378}, {"type": "node", "id": 2194676660, "lat": 39.3715311, "lon": 3.2215253}, {"type": "node", "id": 2194676662, "lat": 39.371539, "lon": 3.2217297}, {"type": "node", "id": 2194676664, "lat": 39.3715661, "lon": 3.2218655}, {"type": "node", "id": 2194676666, "lat": 39.3715777, "lon": 3.2216221}, {"type": "node", "id": 2194676668, "lat": 39.3715781, "lon": 3.2218359}, {"type": "node", "id": 2194676670, "lat": 39.3716583, "lon": 3.2215989}, {"type": "node", "id": 2194676672, "lat": 39.3716886, "lon": 3.2215113}, {"type": "node", "id": 2194676678, "lat": 39.3718118, "lon": 3.2220143}, {"type": "node", "id": 2194676679, "lat": 39.3718143, "lon": 3.2220059}, {"type": "node", "id": 2194676682, "lat": 39.3719047, "lon": 3.2218234}, {"type": "node", "id": 2194676684, "lat": 39.3719162, "lon": 3.2220654}, {"type": "node", "id": 2194676689, "lat": 39.3719463, "lon": 3.2218503}, {"type": "node", "id": 2194676693, "lat": 39.3719582, "lon": 3.2216759}, {"type": "node", "id": 2196667747, "lat": 39.3652338, "lon": 3.227516}, {"type": "node", "id": 2196667748, "lat": 39.3652742, "lon": 3.2276315}, {"type": "node", "id": 2196667749, "lat": 39.3652801, "lon": 3.2275914}, {"type": "node", "id": 2196667750, "lat": 39.3652848, "lon": 3.2274627}, {"type": "node", "id": 2196667751, "lat": 39.3652938, "lon": 3.2274767}, {"type": "node", "id": 2196667752, "lat": 39.3653038, "lon": 3.227448}, {"type": "node", "id": 2196667753, "lat": 39.3653148, "lon": 3.227641}, {"type": "node", "id": 2196667754, "lat": 39.3653199, "lon": 3.2276115}, {"type": "node", "id": 2196667755, "lat": 39.3653291, "lon": 3.227444}, {"type": "node", "id": 2196667757, "lat": 39.3653425, "lon": 3.227468}, {"type": "node", "id": 2196667758, "lat": 39.365346, "lon": 3.2276096}, {"type": "node", "id": 2196667759, "lat": 39.3653533, "lon": 3.2275785}, {"type": "node", "id": 2196667760, "lat": 39.3653666, "lon": 3.2274638}, {"type": "node", "id": 2196667761, "lat": 39.3653741, "lon": 3.2275186}, {"type": "node", "id": 2196667763, "lat": 39.3653796, "lon": 3.2275751}, {"type": "node", "id": 2196667764, "lat": 39.3653835, "lon": 3.2274912}, {"type": "node", "id": 2196667765, "lat": 39.3653882, "lon": 3.2275432}, {"type": "node", "id": 2198078083, "lat": 39.3659424, "lon": 3.2279477}, {"type": "node", "id": 2198078086, "lat": 39.3659453, "lon": 3.2280082}, {"type": "node", "id": 2198078098, "lat": 39.3659585, "lon": 3.2279268}, {"type": "node", "id": 2198078106, "lat": 39.3659669, "lon": 3.2279814}, {"type": "node", "id": 2198078116, "lat": 39.365983, "lon": 3.2279617}, {"type": "node", "id": 2198078159, "lat": 39.3660027, "lon": 3.2279896}, {"type": "node", "id": 2198078166, "lat": 39.3660029, "lon": 3.2279383}, {"type": "node", "id": 2198078187, "lat": 39.3660073, "lon": 3.2280971}, {"type": "node", "id": 2198078191, "lat": 39.3660079, "lon": 3.2279635}, {"type": "node", "id": 2198078202, "lat": 39.3660147, "lon": 3.227955}, {"type": "node", "id": 2198078205, "lat": 39.366015, "lon": 3.2279745}, {"type": "node", "id": 2198078266, "lat": 39.3660467, "lon": 3.2280523}, {"type": "node", "id": 2208685137, "lat": 39.3616594, "lon": 3.2292657}, {"type": "node", "id": 2208685141, "lat": 39.3616621, "lon": 3.2290279}, {"type": "node", "id": 2208685174, "lat": 39.3617417, "lon": 3.2292673}, {"type": "node", "id": 2208685175, "lat": 39.361742, "lon": 3.2292402}, {"type": "node", "id": 2208685187, "lat": 39.361776, "lon": 3.2290301}, {"type": "node", "id": 2208685188, "lat": 39.361776, "lon": 3.229036}, {"type": "node", "id": 2208685199, "lat": 39.3618046, "lon": 3.2290365}, {"type": "node", "id": 2208685200, "lat": 39.3618047, "lon": 3.2290317}, {"type": "node", "id": 2208685237, "lat": 39.3618797, "lon": 3.2292429}, {"type": "node", "id": 2208685239, "lat": 39.3618821, "lon": 3.2290332}, {"type": "node", "id": 2211697403, "lat": 39.3773078, "lon": 3.2343241}, {"type": "node", "id": 2211697414, "lat": 39.3773223, "lon": 3.2343622}, {"type": "node", "id": 2211697434, "lat": 39.3773765, "lon": 3.234485}, {"type": "node", "id": 2211697442, "lat": 39.3774071, "lon": 3.2342614}, {"type": "node", "id": 2211697445, "lat": 39.3774206, "lon": 3.2343018}, {"type": "node", "id": 2211697554, "lat": 39.3775675, "lon": 3.2342123}, {"type": "node", "id": 2211697560, "lat": 39.3775848, "lon": 3.2342601}, {"type": "node", "id": 2211697565, "lat": 39.3775966, "lon": 3.2342901}, {"type": "node", "id": 2211697568, "lat": 39.3776046, "lon": 3.2342862}, {"type": "node", "id": 2211697583, "lat": 39.3776141, "lon": 3.2343399}, {"type": "node", "id": 2211697597, "lat": 39.3776395, "lon": 3.2342155}, {"type": "node", "id": 2211697605, "lat": 39.3776438, "lon": 3.234369}, {"type": "node", "id": 2211697675, "lat": 39.3776934, "lon": 3.2343306}, {"type": "node", "id": 2234844866, "lat": 39.3766603, "lon": 3.2369067}, {"type": "node", "id": 2234844868, "lat": 39.3766816, "lon": 3.236964}, {"type": "node", "id": 2234844872, "lat": 39.3766858, "lon": 3.2367708}, {"type": "node", "id": 2234844874, "lat": 39.3766903, "lon": 3.2369128}, {"type": "node", "id": 2234844877, "lat": 39.3767088, "lon": 3.2369713}, {"type": "node", "id": 2234844879, "lat": 39.3767094, "lon": 3.2369651}, {"type": "node", "id": 2234844882, "lat": 39.3767119, "lon": 3.236777}, {"type": "node", "id": 2234844884, "lat": 39.376714, "lon": 3.2367687}, {"type": "node", "id": 2234844886, "lat": 39.3767142, "lon": 3.2367628}, {"type": "node", "id": 2234844888, "lat": 39.3767187, "lon": 3.2367633}, {"type": "node", "id": 2234844892, "lat": 39.3767355, "lon": 3.2369735}, {"type": "node", "id": 2234844899, "lat": 39.3767392, "lon": 3.2367854}, {"type": "node", "id": 2234844901, "lat": 39.3767414, "lon": 3.2367679}, {"type": "node", "id": 2234844904, "lat": 39.3767655, "lon": 3.2367908}, {"type": "node", "id": 2234945039, "lat": 39.3768631, "lon": 3.2341382}, {"type": "node", "id": 2234945083, "lat": 39.3769233, "lon": 3.2342558}, {"type": "node", "id": 2234945092, "lat": 39.3769358, "lon": 3.2340733}, {"type": "node", "id": 2234945106, "lat": 39.376969, "lon": 3.2342163}, {"type": "node", "id": 2234945109, "lat": 39.3769702, "lon": 3.2342197}, {"type": "node", "id": 2234945110, "lat": 39.3769711, "lon": 3.2340764}, {"type": "node", "id": 2234945116, "lat": 39.376979, "lon": 3.2340903}, {"type": "node", "id": 2234945121, "lat": 39.376993, "lon": 3.2341994}, {"type": "node", "id": 2234945124, "lat": 39.3770057, "lon": 3.2340477}, {"type": "node", "id": 2234945125, "lat": 39.3770065, "lon": 3.2342254}, {"type": "node", "id": 2234945129, "lat": 39.3770367, "lon": 3.2341975}, {"type": "node", "id": 2234945130, "lat": 39.3770406, "lon": 3.2342058}, {"type": "node", "id": 2234945131, "lat": 39.377073, "lon": 3.2341794}, {"type": "node", "id": 2234945169, "lat": 39.3775534, "lon": 3.2354836}, {"type": "node", "id": 2234945171, "lat": 39.3775716, "lon": 3.2354408}, {"type": "node", "id": 2234945172, "lat": 39.3775816, "lon": 3.235466}, {"type": "node", "id": 2234945173, "lat": 39.3775886, "lon": 3.2355843}, {"type": "node", "id": 2234945174, "lat": 39.3776059, "lon": 3.2355748}, {"type": "node", "id": 2234945175, "lat": 39.3776112, "lon": 3.2355901}, {"type": "node", "id": 2234945176, "lat": 39.3776207, "lon": 3.2355846}, {"type": "node", "id": 2234945177, "lat": 39.3776389, "lon": 3.2356346}, {"type": "node", "id": 2234945179, "lat": 39.377662, "lon": 3.2353846}, {"type": "node", "id": 2234945180, "lat": 39.3776717, "lon": 3.2354097}, {"type": "node", "id": 2234945181, "lat": 39.3776798, "lon": 3.2354067}, {"type": "node", "id": 2234945182, "lat": 39.3776985, "lon": 3.2354575}, {"type": "node", "id": 2234945183, "lat": 39.3777397, "lon": 3.2355761}, {"type": "node", "id": 2242644922, "lat": 39.5883722, "lon": 3.3827602, "tags": {"addr:housenumber": "2", "addr:street": "Cam\u00ed de Son Moro Vell", "amenity": "cafe", "diet:vegan": "yes", "diet:vegetarian": "yes", "indoor_seating": "yes", "internet_access": "wlan", "internet_access:fee": "no", "language": "es;en;de", "level": "0", "name": "Biggi's", "opening_hours": "Mo, We-Sa 08:00-17:00; Su 09:00-17:00", "outdoor_seating": "yes", "payment:cash": "yes", "payment:credit_cards": "yes", "phone": "+34 971 586306", "ref": "5", "toilets": "yes", "website": "https://www.biggis.es/", "wheelchair": "no"}}, {"type": "node", "id": 2313267148, "lat": 39.5938678, "lon": 3.3799118, "tags": {"amenity": "restaurant", "cuisine": "mexican", "name": "Rancho Bonanza", "wheelchair": "yes"}}, {"type": "node", "id": 2374219336, "lat": 39.5955689, "lon": 3.3825451}, {"type": "node", "id": 2374219351, "lat": 39.5956318, "lon": 3.3823696}, {"type": "node", "id": 2374219352, "lat": 39.5956365, "lon": 3.382511}, {"type": "node", "id": 2374219357, "lat": 39.5956412, "lon": 3.3825268}, {"type": "node", "id": 2374219369, "lat": 39.595675, "lon": 3.3823952}, {"type": "node", "id": 2374219372, "lat": 39.5956835, "lon": 3.3823732}, {"type": "node", "id": 2374219384, "lat": 39.5957191, "lon": 3.3824902}, {"type": "node", "id": 2374219389, "lat": 39.5957267, "lon": 3.3823988}, {"type": "node", "id": 2374219391, "lat": 39.5957389, "lon": 3.3824354}, {"type": "node", "id": 2376823610, "lat": 39.5982954, "lon": 3.3842622}, {"type": "node", "id": 2376823611, "lat": 39.5983124, "lon": 3.3841597}, {"type": "node", "id": 2376823613, "lat": 39.5984913, "lon": 3.3843166}, {"type": "node", "id": 2376823615, "lat": 39.5985082, "lon": 3.3842141}, {"type": "node", "id": 2376823795, "lat": 39.5994746, "lon": 3.3847052}, {"type": "node", "id": 2376823798, "lat": 39.5994955, "lon": 3.3846252}, {"type": "node", "id": 2376823799, "lat": 39.5995178, "lon": 3.3846542}, {"type": "node", "id": 2376823801, "lat": 39.5995223, "lon": 3.3846358}, {"type": "node", "id": 2376823828, "lat": 39.599707, "lon": 3.3847315}, {"type": "node", "id": 2376823830, "lat": 39.5997129, "lon": 3.384716}, {"type": "node", "id": 2376823832, "lat": 39.5997147, "lon": 3.3847763}, {"type": "node", "id": 2376823834, "lat": 39.5997286, "lon": 3.3847218}, {"type": "node", "id": 2387897723, "lat": 39.5954005, "lon": 3.3811371, "tags": {"amenity": "restaurant", "name": "La Bodega", "name:ca": "La Bodega"}}, {"type": "node", "id": 2387897729, "lat": 39.595646, "lon": 3.3814103}, {"type": "node", "id": 2387897735, "lat": 39.5957249, "lon": 3.3812463}, {"type": "node", "id": 2387897739, "lat": 39.5957828, "lon": 3.3815249}, {"type": "node", "id": 2387897741, "lat": 39.595821, "lon": 3.3813837}, {"type": "node", "id": 2387897744, "lat": 39.5958321, "lon": 3.381393}, {"type": "node", "id": 2387897745, "lat": 39.5958364, "lon": 3.3813362}, {"type": "node", "id": 2387897776, "lat": 39.5961357, "lon": 3.3817629}, {"type": "node", "id": 2387897780, "lat": 39.5961527, "lon": 3.3818172}, {"type": "node", "id": 2387897781, "lat": 39.596166, "lon": 3.3817824}, {"type": "node", "id": 2387897782, "lat": 39.5961684, "lon": 3.3816773}, {"type": "node", "id": 2387897786, "lat": 39.5962147, "lon": 3.3818571}, {"type": "node", "id": 2387897794, "lat": 39.5962607, "lon": 3.3817367}, {"type": "node", "id": 2388339179, "lat": 39.5959038, "lon": 3.3815965, "tags": {"amenity": "restaurant", "cuisine": "italian", "name": "Dolce Vita"}}, {"type": "node", "id": 2388499025, "lat": 39.6144075, "lon": 3.3918212}, {"type": "node", "id": 2388499026, "lat": 39.6144541, "lon": 3.3918723}, {"type": "node", "id": 2388499027, "lat": 39.6144708, "lon": 3.3917241}, {"type": "node", "id": 2388499029, "lat": 39.6145174, "lon": 3.3917752}, {"type": "node", "id": 2389247831, "lat": 39.5941438, "lon": 3.382406, "tags": {"amenity": "restaurant", "cuisine": "italian", "name": "Bella Napoli"}}, {"type": "node", "id": 2389247835, "lat": 39.5932852, "lon": 3.3826466, "tags": {"amenity": "restaurant", "cuisine": "pizza;tapas;pasta;meat;salad", "name": "Le Mans"}}, {"type": "node", "id": 2389247861, "lat": 39.5934147, "lon": 3.3826376, "tags": {"amenity": "cafe", "name": "Sky Sports"}}, {"type": "node", "id": 2389247865, "lat": 39.594497, "lon": 3.3810647, "tags": {"amenity": "restaurant", "name": "The White Side", "toilets:wheelchair": "yes", "wheelchair": "yes"}}, {"type": "node", "id": 2414364545, "lat": 39.6358913, "lon": 3.4037799, "tags": {"amenity": "restaurant", "cuisine": "fish", "name": "Playa - Beach Bar"}}, {"type": "node", "id": 2495291222, "lat": 39.6066896, "lon": 3.3873407, "tags": {"amenity": "restaurant", "name": "Alhambra", "name:ca": "Alhambra"}}, {"type": "node", "id": 2881737334, "lat": 39.4582177, "lon": 3.2793198}, {"type": "node", "id": 2881737335, "lat": 39.4582964, "lon": 3.2794436}, {"type": "node", "id": 2881737336, "lat": 39.4582637, "lon": 3.2794466}, {"type": "node", "id": 2881737337, "lat": 39.4582495, "lon": 3.2794781}, {"type": "node", "id": 2881737338, "lat": 39.4581909, "lon": 3.2794922}, {"type": "node", "id": 2881737339, "lat": 39.4581708, "lon": 3.2794651}, {"type": "node", "id": 2881737340, "lat": 39.4581582, "lon": 3.2794661}, {"type": "node", "id": 2881737341, "lat": 39.4581432, "lon": 3.2794412}, {"type": "node", "id": 2881737342, "lat": 39.458113, "lon": 3.2794444}, {"type": "node", "id": 2881737343, "lat": 39.458108, "lon": 3.279477}, {"type": "node", "id": 2881737347, "lat": 39.4580688, "lon": 3.2794818}, {"type": "node", "id": 2881737349, "lat": 39.4580421, "lon": 3.2794545}, {"type": "node", "id": 2881737350, "lat": 39.4580534, "lon": 3.2794054}, {"type": "node", "id": 2881737351, "lat": 39.4580871, "lon": 3.2793999}, {"type": "node", "id": 2881737352, "lat": 39.4580955, "lon": 3.279349}, {"type": "node", "id": 2881737353, "lat": 39.4580773, "lon": 3.2793308}, {"type": "node", "id": 2881737354, "lat": 39.4581208, "lon": 3.2792598}, {"type": "node", "id": 2881737355, "lat": 39.4581475, "lon": 3.2792798}, {"type": "node", "id": 2881737356, "lat": 39.4581728, "lon": 3.2792471}, {"type": "node", "id": 2881737367, "lat": 39.4572283, "lon": 3.276172}, {"type": "node", "id": 2881737368, "lat": 39.4571839, "lon": 3.2762768}, {"type": "node", "id": 2881737369, "lat": 39.4570524, "lon": 3.2762703}, {"type": "node", "id": 2881737370, "lat": 39.45697, "lon": 3.276143}, {"type": "node", "id": 2881737371, "lat": 39.4571576, "lon": 3.2760415}, {"type": "node", "id": 2921791575, "lat": 39.6054005, "lon": 3.3886646, "tags": {"amenity": "restaurant", "name": "Carlos"}}, {"type": "node", "id": 2921791576, "lat": 39.6033861, "lon": 3.3863516, "tags": {"amenity": "cafe", "name": "Gravina", "source": "survey"}}, {"type": "node", "id": 2921792334, "lat": 39.6046441, "lon": 3.3878968, "tags": {"amenity": "restaurant", "name": "twenty twenty", "source": "survey"}}, {"type": "node", "id": 2921844496, "lat": 39.6135078, "lon": 3.3917349}, {"type": "node", "id": 2921844499, "lat": 39.6135697, "lon": 3.391458}, {"type": "node", "id": 2921844501, "lat": 39.6135779, "lon": 3.3917657}, {"type": "node", "id": 2921844506, "lat": 39.6137256, "lon": 3.3915983}, {"type": "node", "id": 2921847611, "lat": 39.6033287, "lon": 3.3847383, "tags": {"amenity": "cafe", "name": "dolc i mes"}}, {"type": "node", "id": 3070994333, "lat": 39.3650381, "lon": 3.2258284, "tags": {"addr:city": "Cala d'Or", "addr:housenumber": "32", "addr:postcode": "07660", "addr:street": "Avinguda de sa Marina", "amenity": "restaurant", "contact:phone": "+34 871 70 25 85", "cuisine": "italian;pizza", "internet_access": "wlan", "name": "Da Marcello", "opening_hours": "12:00-15:00, 18:00-00:00", "takeaway": "yes"}}, {"type": "node", "id": 3071003852, "lat": 39.3643787, "lon": 3.2251579, "tags": {"addr:city": "Cala d'Or", "addr:housenumber": "24", "addr:postcode": "07660", "addr:street": "Carrer Voltor", "amenity": "restaurant", "cuisine": "pizza;italian", "name": "Beatriz", "opening_hours": "12:00-24:00", "outdoor_seating": "yes", "phone": "+34 971 65 95 82"}}, {"type": "node", "id": 3073875569, "lat": 39.3643132, "lon": 3.2246671, "tags": {"addr:city": "Cala d'Or", "addr:housenumber": "11", "addr:postcode": "07660", "addr:street": "Carrer Voltor", "amenity": "restaurant", "cuisine": "pizza", "name": "Il Peperone", "phone": "+34 971 643 112"}}, {"type": "node", "id": 3090216029, "lat": 39.3645026, "lon": 3.225386, "tags": {"addr:city": "Cala d'Or", "addr:postcode": "07660", "addr:street": "Avenida de Cala Egos", "amenity": "restaurant", "cuisine": "regional", "internet_access": "wlan", "name": "Taberna Murciana", "phone": "+34 971 65 82 68"}}, {"type": "node", "id": 3092062862, "lat": 39.3694427, "lon": 3.2227591, "tags": {"addr:city": "Cala d'Or", "addr:postcode": "07660", "addr:street": "Avinguda de la Cala Llonga", "amenity": "restaurant", "internet_access": "wlan", "name": "Churchill's", "phone": "+34 971 65 92 64"}}, {"type": "node", "id": 3100406964, "lat": 39.3742091, "lon": 3.229334, "tags": {"addr:city": "Cala d'Or", "addr:housenumber": "5 - 9", "addr:postcode": "07660", "addr:street": "Carrer Toni Costa", "amenity": "restaurant", "internet_access": "wlan", "name": "Indiana John's", "phone": "+34 971 65 94 83", "website": "http://www.indiana-johns.com"}}, {"type": "node", "id": 3100787549, "lat": 39.3647623, "lon": 3.2260912, "tags": {"addr:city": "Cala d'Or", "addr:housenumber": "25", "addr:postcode": "07660", "addr:street": "Avinguda de sa Marina", "amenity": "restaurant", "internet_access": "wlan", "name": "Western Steakhouse", "phone": "+34 971 65 80 63"}}, {"type": "node", "id": 3203358899, "lat": 39.5734424, "lon": 3.2154953, "tags": {"amenity": "cafe", "name": "Ses Primetes"}}, {"type": "node", "id": 3291430926, "lat": 39.3786275, "lon": 3.1889656, "tags": {"amenity": "restaurant", "cuisine": "regional", "name": "El Campo", "name:ca": "El Campo"}}, {"type": "node", "id": 3347700782, "lat": 39.5688895, "lon": 3.215222, "tags": {"amenity": "cafe", "cuisine": "pizza", "internet_access": "yes", "name": "Carpe Diem"}}, {"type": "node", "id": 3378144644, "lat": 39.5691012, "lon": 3.2193712, "tags": {"addr:housenumber": "40", "addr:postcode": "07500", "addr:street": "Avenida Parc", "entrance": "yes"}}, {"type": "node", "id": 3378145123, "lat": 39.5690336, "lon": 3.2193382}, {"type": "node", "id": 3378145125, "lat": 39.5690361, "lon": 3.2193473}, {"type": "node", "id": 3378145127, "lat": 39.5690504, "lon": 3.2193984}, {"type": "node", "id": 3378145128, "lat": 39.5690557, "lon": 3.2193267}, {"type": "node", "id": 3378145133, "lat": 39.5690809, "lon": 3.2193136}, {"type": "node", "id": 3378145143, "lat": 39.5691269, "lon": 3.2192898}, {"type": "node", "id": 3378145147, "lat": 39.5691437, "lon": 3.2193484}, {"type": "node", "id": 3378145148, "lat": 39.5691441, "lon": 3.2193483}, {"type": "node", "id": 3378196039, "lat": 39.5673773, "lon": 3.2026968, "tags": {"addr:housenumber": "17", "addr:postcode": "07500", "addr:street": "Calle Sant Rafel", "entrance": "yes"}}, {"type": "node", "id": 3378196088, "lat": 39.5673315, "lon": 3.2027224}, {"type": "node", "id": 3378196998, "lat": 39.5673629, "lon": 3.2028195}, {"type": "node", "id": 3378197000, "lat": 39.5673753, "lon": 3.2028578}, {"type": "node", "id": 3378197004, "lat": 39.567409, "lon": 3.2029652}, {"type": "node", "id": 3378197005, "lat": 39.5674083, "lon": 3.2026794}, {"type": "node", "id": 3378197007, "lat": 39.5674121, "lon": 3.2026935}, {"type": "node", "id": 3378197008, "lat": 39.567415, "lon": 3.2029852}, {"type": "node", "id": 3378197009, "lat": 39.567422, "lon": 3.2028332}, {"type": "node", "id": 3378197010, "lat": 39.5674302, "lon": 3.2030347}, {"type": "node", "id": 3378197011, "lat": 39.567445, "lon": 3.2028128}, {"type": "node", "id": 3378197012, "lat": 39.5674453, "lon": 3.2028127}, {"type": "node", "id": 3378197013, "lat": 39.567448, "lon": 3.2028218}, {"type": "node", "id": 3378197014, "lat": 39.567456, "lon": 3.2029409}, {"type": "node", "id": 3378197015, "lat": 39.5674795, "lon": 3.2029269}, {"type": "node", "id": 3378197017, "lat": 39.5674432, "lon": 3.2028062}, {"type": "node", "id": 3378197020, "lat": 39.5675007, "lon": 3.202998}, {"type": "node", "id": 3378197237, "lat": 39.5677074, "lon": 3.2030162}, {"type": "node", "id": 3378197240, "lat": 39.5677219, "lon": 3.20306}, {"type": "node", "id": 3378197241, "lat": 39.5677265, "lon": 3.2030736}, {"type": "node", "id": 3378197242, "lat": 39.5677324, "lon": 3.2030024}, {"type": "node", "id": 3378197246, "lat": 39.5677522, "lon": 3.2030594}, {"type": "node", "id": 3378200977, "lat": 39.5661468, "lon": 3.2002294, "tags": {"addr:housenumber": "69", "addr:street": "Calle Pilar", "entrance": "yes"}}, {"type": "node", "id": 3378203374, "lat": 39.5660622, "lon": 3.200215}, {"type": "node", "id": 3378203383, "lat": 39.5661011, "lon": 3.2003295}, {"type": "node", "id": 3378203388, "lat": 39.5661287, "lon": 3.2001775}, {"type": "node", "id": 3378203390, "lat": 39.5661684, "lon": 3.2002914}, {"type": "node", "id": 3378216668, "lat": 39.5742646, "lon": 3.2005151}, {"type": "node", "id": 3378216793, "lat": 39.5743136, "lon": 3.2006512}, {"type": "node", "id": 3378216799, "lat": 39.5743408, "lon": 3.2004703}, {"type": "node", "id": 3378216804, "lat": 39.5743645, "lon": 3.200792}, {"type": "node", "id": 3378216814, "lat": 39.5743907, "lon": 3.2006083}, {"type": "node", "id": 3378216823, "lat": 39.5744304, "lon": 3.2007182}, {"type": "node", "id": 3378216824, "lat": 39.5744406, "lon": 3.2007481}, {"type": "node", "id": 3378216825, "lat": 39.5744411, "lon": 3.2007478}, {"type": "node", "id": 3378217614, "lat": 39.5722449, "lon": 3.1992752, "tags": {"addr:housenumber": "7", "addr:postcode": "07500", "addr:street": "Calle Pere Riche", "entrance": "yes"}}, {"type": "node", "id": 3378217775, "lat": 39.572211, "lon": 3.1992263}, {"type": "node", "id": 3378217779, "lat": 39.5722132, "lon": 3.1992164}, {"type": "node", "id": 3378217780, "lat": 39.5722178, "lon": 3.1991952}, {"type": "node", "id": 3378217781, "lat": 39.572225, "lon": 3.1992677}, {"type": "node", "id": 3378217782, "lat": 39.5722307, "lon": 3.1992428}, {"type": "node", "id": 3378217784, "lat": 39.5722327, "lon": 3.1992342}, {"type": "node", "id": 3378217786, "lat": 39.5722429, "lon": 3.1990803}, {"type": "node", "id": 3378217787, "lat": 39.5722488, "lon": 3.1990533}, {"type": "node", "id": 3378217790, "lat": 39.5722592, "lon": 3.1990056}, {"type": "node", "id": 3378217792, "lat": 39.5722661, "lon": 3.1992833}, {"type": "node", "id": 3378217994, "lat": 39.5722685, "lon": 3.1989632}, {"type": "node", "id": 3378217996, "lat": 39.5722698, "lon": 3.198957}, {"type": "node", "id": 3378217998, "lat": 39.5722717, "lon": 3.1992578}, {"type": "node", "id": 3378217999, "lat": 39.5722722, "lon": 3.1989464}, {"type": "node", "id": 3378218000, "lat": 39.5722736, "lon": 3.1992488}, {"type": "node", "id": 3378218001, "lat": 39.5722751, "lon": 3.198933}, {"type": "node", "id": 3378218002, "lat": 39.5722757, "lon": 3.1992393}, {"type": "node", "id": 3378218009, "lat": 39.5722975, "lon": 3.1989407}, {"type": "node", "id": 3378218011, "lat": 39.5723018, "lon": 3.1989421}, {"type": "node", "id": 3378218012, "lat": 39.572306, "lon": 3.1989435}, {"type": "node", "id": 3378218014, "lat": 39.5723103, "lon": 3.198945}, {"type": "node", "id": 3378218015, "lat": 39.5723108, "lon": 3.1990778}, {"type": "node", "id": 3378218016, "lat": 39.5723145, "lon": 3.1989464}, {"type": "node", "id": 3378218022, "lat": 39.5723188, "lon": 3.1989478}, {"type": "node", "id": 3378218023, "lat": 39.5723212, "lon": 3.1990303}, {"type": "node", "id": 3378218024, "lat": 39.5723214, "lon": 3.1990291}, {"type": "node", "id": 3378218025, "lat": 39.572323, "lon": 3.1989492}, {"type": "node", "id": 3378218026, "lat": 39.5723272, "lon": 3.1989507}, {"type": "node", "id": 3378218028, "lat": 39.5723304, "lon": 3.1989841}, {"type": "node", "id": 3378218030, "lat": 39.5723311, "lon": 3.1989845}, {"type": "node", "id": 3378218032, "lat": 39.5723371, "lon": 3.198954}, {"type": "node", "id": 3378225366, "lat": 39.5177927, "lon": 3.3006712}, {"type": "node", "id": 3378225451, "lat": 39.5178738, "lon": 3.3006716}, {"type": "node", "id": 3378225494, "lat": 39.5179188, "lon": 3.3006858}, {"type": "node", "id": 3378225495, "lat": 39.5179189, "lon": 3.3006719}, {"type": "node", "id": 3378225647, "lat": 39.5180402, "lon": 3.3007598}, {"type": "node", "id": 3378225649, "lat": 39.5180403, "lon": 3.3007366}, {"type": "node", "id": 3378225650, "lat": 39.5180403, "lon": 3.3007389}, {"type": "node", "id": 3378225665, "lat": 39.5180582, "lon": 3.3007599}, {"type": "node", "id": 3378225666, "lat": 39.5180582, "lon": 3.3007715}, {"type": "node", "id": 3378225696, "lat": 39.5180762, "lon": 3.3007716}, {"type": "node", "id": 3378225697, "lat": 39.5180763, "lon": 3.3007367}, {"type": "node", "id": 3378225698, "lat": 39.5180763, "lon": 3.300739}, {"type": "node", "id": 3378225802, "lat": 39.5181536, "lon": 3.3006871}, {"type": "node", "id": 3378225803, "lat": 39.5181532, "lon": 3.3004623}, {"type": "node", "id": 3378278839, "lat": 39.5676297, "lon": 3.2207296}, {"type": "node", "id": 3378278840, "lat": 39.5676346, "lon": 3.2207401}, {"type": "node", "id": 3378278841, "lat": 39.5676395, "lon": 3.2207505}, {"type": "node", "id": 3378278844, "lat": 39.5676628, "lon": 3.2208003}, {"type": "node", "id": 3378278845, "lat": 39.5676667, "lon": 3.2207972}, {"type": "node", "id": 3378278846, "lat": 39.5676671, "lon": 3.2207981}, {"type": "node", "id": 3378278848, "lat": 39.5676918, "lon": 3.220683}, {"type": "node", "id": 3378278849, "lat": 39.5676939, "lon": 3.2208619}, {"type": "node", "id": 3378278850, "lat": 39.5676947, "lon": 3.220861}, {"type": "node", "id": 3378278851, "lat": 39.5676961, "lon": 3.2208671}, {"type": "node", "id": 3378278853, "lat": 39.5677024, "lon": 3.2208814}, {"type": "node", "id": 3378278854, "lat": 39.5677141, "lon": 3.2206663}, {"type": "node", "id": 3378278856, "lat": 39.5677263, "lon": 3.2208641}, {"type": "node", "id": 3378278860, "lat": 39.5677583, "lon": 3.2206332}, {"type": "node", "id": 3378278863, "lat": 39.5677693, "lon": 3.2206248}, {"type": "node", "id": 3378278865, "lat": 39.5678129, "lon": 3.2205921}, {"type": "node", "id": 3378278866, "lat": 39.5678221, "lon": 3.2206135}, {"type": "node", "id": 3378278867, "lat": 39.567825, "lon": 3.22062}, {"type": "node", "id": 3378278869, "lat": 39.5678362, "lon": 3.2207739}, {"type": "node", "id": 3378278871, "lat": 39.5678386, "lon": 3.2207722}, {"type": "node", "id": 3378278873, "lat": 39.5678394, "lon": 3.2207815}, {"type": "node", "id": 3378278875, "lat": 39.5678452, "lon": 3.2206671}, {"type": "node", "id": 3378278882, "lat": 39.5678771, "lon": 3.2207436}, {"type": "node", "id": 3378278884, "lat": 39.5678778, "lon": 3.2207431}, {"type": "node", "id": 3379795095, "lat": 39.5395516, "lon": 3.3336683, "tags": {"addr:housenumber": "1", "addr:postcode": "07680", "addr:street": "Calle Mar", "entrance": "yes"}}, {"type": "node", "id": 3379795512, "lat": 39.5362701, "lon": 3.332094, "tags": {"addr:housenumber": "9", "addr:postcode": "07680", "addr:street": "Avenida Joan Servera Camps", "entrance": "yes"}}, {"type": "node", "id": 3379795519, "lat": 39.5362503, "lon": 3.3321299}, {"type": "node", "id": 3379795520, "lat": 39.5362699, "lon": 3.3321632}, {"type": "node", "id": 3379795521, "lat": 39.5362766, "lon": 3.3321745}, {"type": "node", "id": 3379795522, "lat": 39.5362785, "lon": 3.3320789}, {"type": "node", "id": 3379795524, "lat": 39.5363056, "lon": 3.3320302}, {"type": "node", "id": 3379795526, "lat": 39.5363121, "lon": 3.3323987}, {"type": "node", "id": 3379795527, "lat": 39.536315, "lon": 3.3320453}, {"type": "node", "id": 3379795528, "lat": 39.5363215, "lon": 3.3323889}, {"type": "node", "id": 3379795529, "lat": 39.5363228, "lon": 3.3322504}, {"type": "node", "id": 3379795530, "lat": 39.5363273, "lon": 3.3324234}, {"type": "node", "id": 3379795534, "lat": 39.5363413, "lon": 3.3320881}, {"type": "node", "id": 3379795535, "lat": 39.5363473, "lon": 3.3320978}, {"type": "node", "id": 3379795537, "lat": 39.5363524, "lon": 3.3322992}, {"type": "node", "id": 3379795541, "lat": 39.5363712, "lon": 3.3322799}, {"type": "node", "id": 3379795542, "lat": 39.5363746, "lon": 3.3323328}, {"type": "node", "id": 3379795544, "lat": 39.5363782, "lon": 3.332149}, {"type": "node", "id": 3379795545, "lat": 39.5363926, "lon": 3.3323139}, {"type": "node", "id": 3379795551, "lat": 39.5364216, "lon": 3.3325766}, {"type": "node", "id": 3379795552, "lat": 39.5364217, "lon": 3.3322212}, {"type": "node", "id": 3379795554, "lat": 39.5364452, "lon": 3.3322601}, {"type": "node", "id": 3379795556, "lat": 39.5364525, "lon": 3.3322523}, {"type": "node", "id": 3379795557, "lat": 39.5364757, "lon": 3.3325232}, {"type": "node", "id": 3379795559, "lat": 39.5364785, "lon": 3.3322255}, {"type": "node", "id": 3379795560, "lat": 39.5364838, "lon": 3.3325152}, {"type": "node", "id": 3379795561, "lat": 39.5364947, "lon": 3.332458}, {"type": "node", "id": 3379795564, "lat": 39.536505, "lon": 3.3324951}, {"type": "node", "id": 3379795565, "lat": 39.5365112, "lon": 3.3322832}, {"type": "node", "id": 3379795566, "lat": 39.5365129, "lon": 3.3324876}, {"type": "node", "id": 3379795567, "lat": 39.5365177, "lon": 3.3324345}, {"type": "node", "id": 3379795568, "lat": 39.5365209, "lon": 3.3323328}, {"type": "node", "id": 3379795571, "lat": 39.5365305, "lon": 3.3324212}, {"type": "node", "id": 3379795572, "lat": 39.5365324, "lon": 3.3323209}, {"type": "node", "id": 3379795575, "lat": 39.5365555, "lon": 3.3324647}, {"type": "node", "id": 3379795577, "lat": 39.5365604, "lon": 3.3323969}, {"type": "node", "id": 3379795585, "lat": 39.5365849, "lon": 3.3324366}, {"type": "node", "id": 3379796144, "lat": 39.5394768, "lon": 3.3335787}, {"type": "node", "id": 3379796148, "lat": 39.539486, "lon": 3.3336023}, {"type": "node", "id": 3379796153, "lat": 39.5395071, "lon": 3.3335601}, {"type": "node", "id": 3379796160, "lat": 39.5395174, "lon": 3.3335538}, {"type": "node", "id": 3379796161, "lat": 39.5395196, "lon": 3.3336888}, {"type": "node", "id": 3379796163, "lat": 39.539523, "lon": 3.3335684}, {"type": "node", "id": 3379796165, "lat": 39.5395261, "lon": 3.3335763}, {"type": "node", "id": 3379796168, "lat": 39.5395308, "lon": 3.3336816}, {"type": "node", "id": 3379796172, "lat": 39.5395597, "lon": 3.3336632}, {"type": "node", "id": 3382587542, "lat": 39.570733, "lon": 3.211064, "tags": {"addr:housenumber": "42", "addr:postcode": "07500", "addr:street": "Calle Amistat", "entrance": "yes"}}, {"type": "node", "id": 3382588179, "lat": 39.5706132, "lon": 3.2110441}, {"type": "node", "id": 3382588180, "lat": 39.5706132, "lon": 3.2110784}, {"type": "node", "id": 3382588181, "lat": 39.5706133, "lon": 3.2110501}, {"type": "node", "id": 3382588193, "lat": 39.570645, "lon": 3.211036}, {"type": "node", "id": 3382588196, "lat": 39.5706602, "lon": 3.2110321}, {"type": "node", "id": 3382588197, "lat": 39.5706633, "lon": 3.2110314}, {"type": "node", "id": 3382588198, "lat": 39.5706681, "lon": 3.2110635}, {"type": "node", "id": 3382588202, "lat": 39.5707071, "lon": 3.2110199}, {"type": "node", "id": 3382588203, "lat": 39.5707119, "lon": 3.2110507}, {"type": "node", "id": 3382588204, "lat": 39.5707121, "lon": 3.2110522}, {"type": "node", "id": 3382588205, "lat": 39.5707213, "lon": 3.2110164}, {"type": "node", "id": 3382588206, "lat": 39.5707265, "lon": 3.2111408}, {"type": "node", "id": 3382588207, "lat": 39.5707267, "lon": 3.2111405}, {"type": "node", "id": 3382588208, "lat": 39.5707287, "lon": 3.2110464}, {"type": "node", "id": 3382588209, "lat": 39.5707457, "lon": 3.211125}, {"type": "node", "id": 3382588210, "lat": 39.5707473, "lon": 3.2111232}, {"type": "node", "id": 3382588211, "lat": 39.5707476, "lon": 3.2111229}, {"type": "node", "id": 3383042763, "lat": 39.564473, "lon": 3.2166143}, {"type": "node", "id": 3383042767, "lat": 39.5644749, "lon": 3.2165421}, {"type": "node", "id": 3383042768, "lat": 39.5644753, "lon": 3.2165089}, {"type": "node", "id": 3383042770, "lat": 39.5644798, "lon": 3.2164507}, {"type": "node", "id": 3383042788, "lat": 39.5645182, "lon": 3.216453}, {"type": "node", "id": 3383044401, "lat": 39.5645824, "lon": 3.2166167}, {"type": "node", "id": 3383044405, "lat": 39.5646069, "lon": 3.2164584}, {"type": "node", "id": 3383044406, "lat": 39.5646137, "lon": 3.2165453}, {"type": "node", "id": 3383044408, "lat": 39.5646141, "lon": 3.2165038}, {"type": "node", "id": 3383044409, "lat": 39.5646166, "lon": 3.2165039}, {"type": "node", "id": 3383044415, "lat": 39.5646213, "lon": 3.216618}, {"type": "node", "id": 3383044416, "lat": 39.5646223, "lon": 3.2165458}, {"type": "node", "id": 3383990542, "lat": 39.5682067, "lon": 3.2114408, "tags": {"amenity": "cafe", "internet_access": "yes", "internet_access:fee": "no", "name": "Es C\u00f3s", "name:ca": "Es C\u00f3s", "wheelchair": "yes"}}, {"type": "node", "id": 3390149963, "lat": 39.5663436, "lon": 3.2114706, "tags": {"addr:housenumber": "18", "addr:street": "Plaza Ramon Llull", "entrance": "yes"}}, {"type": "node", "id": 3390153366, "lat": 39.5660974, "lon": 3.2115054}, {"type": "node", "id": 3390153369, "lat": 39.5661008, "lon": 3.2114763}, {"type": "node", "id": 3390153370, "lat": 39.5661009, "lon": 3.2114774}, {"type": "node", "id": 3390153374, "lat": 39.56611, "lon": 3.2114703}, {"type": "node", "id": 3390153377, "lat": 39.5661289, "lon": 3.211502}, {"type": "node", "id": 3390153378, "lat": 39.5661291, "lon": 3.2115032}, {"type": "node", "id": 3390153379, "lat": 39.5661313, "lon": 3.2114657}, {"type": "node", "id": 3390153380, "lat": 39.5661315, "lon": 3.2114677}, {"type": "node", "id": 3390153381, "lat": 39.5661373, "lon": 3.2115837}, {"type": "node", "id": 3390153388, "lat": 39.5661523, "lon": 3.211455}, {"type": "node", "id": 3390153389, "lat": 39.5661527, "lon": 3.2114622}, {"type": "node", "id": 3390153390, "lat": 39.5661557, "lon": 3.211454}, {"type": "node", "id": 3390153391, "lat": 39.5661585, "lon": 3.2115772}, {"type": "node", "id": 3390153394, "lat": 39.5661749, "lon": 3.2115723}, {"type": "node", "id": 3390153395, "lat": 39.5661763, "lon": 3.2114454}, {"type": "node", "id": 3390153396, "lat": 39.5661766, "lon": 3.2114485}, {"type": "node", "id": 3390153398, "lat": 39.5661809, "lon": 3.2114449}, {"type": "node", "id": 3390153406, "lat": 39.5662029, "lon": 3.211564}, {"type": "node", "id": 3390153410, "lat": 39.5662043, "lon": 3.2114428}, {"type": "node", "id": 3390153419, "lat": 39.566219, "lon": 3.2115591}, {"type": "node", "id": 3390153420, "lat": 39.5662197, "lon": 3.2115589}, {"type": "node", "id": 3390153427, "lat": 39.5662364, "lon": 3.21144}, {"type": "node", "id": 3390153428, "lat": 39.5662364, "lon": 3.2114409}, {"type": "node", "id": 3390153432, "lat": 39.5662485, "lon": 3.2114405}, {"type": "node", "id": 3390153433, "lat": 39.5662557, "lon": 3.2115502}, {"type": "node", "id": 3390153434, "lat": 39.5662601, "lon": 3.2115491}, {"type": "node", "id": 3390153443, "lat": 39.5663306, "lon": 3.2114248}, {"type": "node", "id": 3390153444, "lat": 39.5663312, "lon": 3.2114375}, {"type": "node", "id": 3390153450, "lat": 39.5663417, "lon": 3.211424}, {"type": "node", "id": 3390153451, "lat": 39.5663459, "lon": 3.2115284}, {"type": "node", "id": 3391090778, "lat": 39.5411547, "lon": 3.3309128, "tags": {"addr:housenumber": "1", "addr:postcode": "07680", "addr:street": "Calle Gerreria", "entrance": "yes"}}, {"type": "node", "id": 3391090787, "lat": 39.5412459, "lon": 3.3309323, "tags": {"addr:housenumber": "3", "addr:postcode": "07680", "addr:street": "Calle Gerreria", "entrance": "yes"}}, {"type": "node", "id": 3391093693, "lat": 39.541128, "lon": 3.3309071}, {"type": "node", "id": 3391093696, "lat": 39.5411334, "lon": 3.3308561}, {"type": "node", "id": 3391093715, "lat": 39.5411887, "lon": 3.3309201}, {"type": "node", "id": 3391093717, "lat": 39.5411959, "lon": 3.3308695}, {"type": "node", "id": 3391093720, "lat": 39.5412062, "lon": 3.3308716}, {"type": "node", "id": 3391093752, "lat": 39.5412817, "lon": 3.3308878}, {"type": "node", "id": 3391093764, "lat": 39.5413104, "lon": 3.3309461}, {"type": "node", "id": 3391093768, "lat": 39.5413171, "lon": 3.3308953}, {"type": "node", "id": 3397195352, "lat": 39.571189, "lon": 3.2133291, "tags": {"addr:housenumber": "33", "addr:postcode": "07500", "addr:street": "Paseo Antoni Maura", "entrance": "yes"}}, {"type": "node", "id": 3397195363, "lat": 39.5711757, "lon": 3.2132881}, {"type": "node", "id": 3397195364, "lat": 39.5712036, "lon": 3.2133742}, {"type": "node", "id": 3397195366, "lat": 39.5712146, "lon": 3.213268}, {"type": "node", "id": 3397195370, "lat": 39.5712395, "lon": 3.2133548}, {"type": "node", "id": 3397195372, "lat": 39.5712406, "lon": 3.2133542}, {"type": "node", "id": 3397195374, "lat": 39.5712506, "lon": 3.2132494}, {"type": "node", "id": 3397195375, "lat": 39.5712507, "lon": 3.2132493}, {"type": "node", "id": 3397195377, "lat": 39.571254, "lon": 3.2132477}, {"type": "node", "id": 3397195378, "lat": 39.5712644, "lon": 3.2132799}, {"type": "node", "id": 3397195383, "lat": 39.5712762, "lon": 3.2133349}, {"type": "node", "id": 3397195384, "lat": 39.5712798, "lon": 3.2133331}, {"type": "node", "id": 3397195385, "lat": 39.5712814, "lon": 3.2133323}, {"type": "node", "id": 3489025858, "lat": 39.4206916, "lon": 3.2616271, "tags": {"amenity": "restaurant", "indoor_seating": "yes", "name": "Vora Mar", "name:ca": "Vora Mar", "outdoor_seating": "yes"}}, {"type": "node", "id": 3496970034, "lat": 39.377469, "lon": 3.2346133, "tags": {"amenity": "restaurant", "name": "Mestral", "name:ca": "Mestral", "phone": "+34 971643478"}}, {"type": "node", "id": 3544682501, "lat": 39.3732106, "lon": 3.2320162, "tags": {"amenity": "restaurant", "name": "Costa Cala d'or"}}, {"type": "node", "id": 3544682506, "lat": 39.3736786, "lon": 3.2304365, "tags": {"amenity": "restaurant", "name": "Marfil", "name:ca": "Marfil"}}, {"type": "node", "id": 3546717700, "lat": 39.373077, "lon": 3.2287091, "tags": {"amenity": "restaurant", "name": "Aquamarina"}}, {"type": "node", "id": 3546717704, "lat": 39.3736217, "lon": 3.2284874, "tags": {"amenity": "restaurant", "name": "Ca'n Tromp\u00e9"}}, {"type": "node", "id": 3546717707, "lat": 39.3734186, "lon": 3.2295152, "tags": {"amenity": "restaurant", "name": "Casablanca", "name:ca": "Casablanca"}}, {"type": "node", "id": 3546717711, "lat": 39.3754362, "lon": 3.2293795, "tags": {"amenity": "restaurant", "cuisine": "pizza", "name": "Cristal d'Or"}}, {"type": "node", "id": 3546717715, "lat": 39.3739987, "lon": 3.2286977, "tags": {"amenity": "restaurant", "name": "Don Leone", "website": "http://www.restaurantedonleone.com/en/"}}, {"type": "node", "id": 3546717720, "lat": 39.3740568, "lon": 3.2283547, "tags": {"amenity": "restaurant", "cuisine": "pizza", "name": "Gusto"}}, {"type": "node", "id": 3546717724, "lat": 39.3732667, "lon": 3.2292641, "tags": {"amenity": "restaurant", "name": "Jimmy's bar"}}, {"type": "node", "id": 3546717725, "lat": 39.3734031, "lon": 3.2292938, "tags": {"amenity": "restaurant", "name": "La Bodega", "name:ca": "La Bodega"}}, {"type": "node", "id": 3546717726, "lat": 39.3740868, "lon": 3.2291347, "tags": {"amenity": "restaurant", "cuisine": "pizza", "name": "La Sevina"}}, {"type": "node", "id": 3546717727, "lat": 39.3747969, "lon": 3.2295131, "tags": {"amenity": "restaurant", "name": "Las Columnas"}}, {"type": "node", "id": 3546717728, "lat": 39.373862, "lon": 3.2284706, "tags": {"amenity": "restaurant", "name": "Los Amigos"}}, {"type": "node", "id": 3546717729, "lat": 39.3753768, "lon": 3.2290004, "tags": {"amenity": "restaurant", "name": "Los Gauchos"}}, {"type": "node", "id": 3546717730, "lat": 39.3735727, "lon": 3.2294404, "tags": {"amenity": "restaurant", "name": "Lovento"}}, {"type": "node", "id": 3546717731, "lat": 39.3753588, "lon": 3.2287387, "tags": {"amenity": "restaurant", "cuisine": "pizza", "name": "Mamma Mia", "name:ca": "Mamma Mia"}}, {"type": "node", "id": 3546717736, "lat": 39.3737381, "lon": 3.2286285, "tags": {"amenity": "restaurant", "name": "Plaza"}}, {"type": "node", "id": 3546717738, "lat": 39.37418, "lon": 3.2289472, "tags": {"amenity": "restaurant", "name": "Regina"}}, {"type": "node", "id": 3546717741, "lat": 39.3734301, "lon": 3.2285175, "tags": {"amenity": "restaurant", "name": "R\u00fastic"}}, {"type": "node", "id": 3546717742, "lat": 39.3733164, "lon": 3.229339, "tags": {"amenity": "restaurant", "name": "Sa Caseta", "name:ca": "Sa Caseta"}}, {"type": "node", "id": 3546717746, "lat": 39.3728848, "lon": 3.2289194, "tags": {"amenity": "restaurant", "name": "Tapas chill out"}}, {"type": "node", "id": 3546717747, "lat": 39.3740309, "lon": 3.2290159, "tags": {"amenity": "restaurant", "name": "Taste of Texas"}}, {"type": "node", "id": 3546717748, "lat": 39.3742554, "lon": 3.2291539, "tags": {"amenity": "restaurant", "name": "The Pirate"}}, {"type": "node", "id": 3547555865, "lat": 39.539636, "lon": 3.3322926, "tags": {"amenity": "restaurant", "changing_table": "yes", "changing_table:count": "1", "changing_table:fee": "no", "changing_table:location": "sales_area", "level": "0", "name": "Vintasty", "takeaway": "yes", "toilets": "yes", "wheelchair": "yes"}}, {"type": "node", "id": 3547580978, "lat": 39.5651556, "lon": 3.3724509, "tags": {"amenity": "restaurant", "name": "4 Fogons"}}, {"type": "node", "id": 3555565998, "lat": 39.3754125, "lon": 3.2307502, "tags": {"amenity": "restaurant", "name": "Cellar"}}, {"type": "node", "id": 3555602094, "lat": 39.3745345, "lon": 3.2323901, "tags": {"amenity": "restaurant", "name": "Las Palmas"}}, {"type": "node", "id": 3555602095, "lat": 39.3756868, "lon": 3.2325998, "tags": {"amenity": "restaurant", "name": "La dolce vita"}}, {"type": "node", "id": 3555602294, "lat": 39.3752376, "lon": 3.2324144, "tags": {"amenity": "restaurant", "name": "Supertramp"}}, {"type": "node", "id": 3555602793, "lat": 39.3761414, "lon": 3.2320516, "tags": {"amenity": "restaurant", "name": "Hollywood"}}, {"type": "node", "id": 3556793495, "lat": 39.3761789, "lon": 3.2340213, "tags": {"amenity": "restaurant", "name": "Spice of India"}}, {"type": "node", "id": 3556793593, "lat": 39.375554, "lon": 3.2284833, "tags": {"amenity": "restaurant", "cuisine": "pizza", "name": "Marco Polo"}}, {"type": "node", "id": 3556793793, "lat": 39.3727047, "lon": 3.228081, "tags": {"amenity": "restaurant", "cuisine": "italian", "name": "Capriccio"}}, {"type": "node", "id": 3556793896, "lat": 39.3760084, "lon": 3.2328439, "tags": {"amenity": "restaurant", "cuisine": "chinese", "name": "Muralla China"}}, {"type": "node", "id": 3556794295, "lat": 39.3762545, "lon": 3.2339567, "tags": {"amenity": "restaurant", "cuisine": "chinese", "name": "Shangri-La"}}, {"type": "node", "id": 3596531661, "lat": 39.5600363, "lon": 3.3544962}, {"type": "node", "id": 3596531662, "lat": 39.5603758, "lon": 3.3543331}, {"type": "node", "id": 3596531663, "lat": 39.5601103, "lon": 3.3536551}, {"type": "node", "id": 3596531664, "lat": 39.5600481, "lon": 3.3535767}, {"type": "node", "id": 3596531665, "lat": 39.5600183, "lon": 3.3537669}, {"type": "node", "id": 3596531673, "lat": 39.5599408, "lon": 3.3542014}, {"type": "node", "id": 3596531674, "lat": 39.5600219, "lon": 3.3541592}, {"type": "node", "id": 3596531675, "lat": 39.5599984, "lon": 3.3540748}, {"type": "node", "id": 3596531676, "lat": 39.5600928, "lon": 3.3540278}, {"type": "node", "id": 3596531677, "lat": 39.5600423, "lon": 3.3538704}, {"type": "node", "id": 3596531678, "lat": 39.5599314, "lon": 3.3537196}, {"type": "node", "id": 3596531679, "lat": 39.5603124, "lon": 3.3541418}, {"type": "node", "id": 3596531680, "lat": 39.560338, "lon": 3.3541278}, {"type": "node", "id": 3596531681, "lat": 39.5603049, "lon": 3.3540215}, {"type": "node", "id": 3596531682, "lat": 39.5604101, "lon": 3.3539796}, {"type": "node", "id": 3596531683, "lat": 39.5603814, "lon": 3.3538802}, {"type": "node", "id": 3596531684, "lat": 39.5603061, "lon": 3.353956}, {"type": "node", "id": 3596531685, "lat": 39.560227, "lon": 3.3536788}, {"type": "node", "id": 3596531686, "lat": 39.5601393, "lon": 3.3537271}, {"type": "node", "id": 3634015962, "lat": 39.5594535, "lon": 3.2449363}, {"type": "node", "id": 3634015963, "lat": 39.5593564, "lon": 3.2448148}, {"type": "node", "id": 3634015964, "lat": 39.5592661, "lon": 3.2449231}, {"type": "node", "id": 3634015965, "lat": 39.5592474, "lon": 3.2448988}, {"type": "node", "id": 3634015966, "lat": 39.5588659, "lon": 3.2454047}, {"type": "node", "id": 3634015967, "lat": 39.5588914, "lon": 3.2454422}, {"type": "node", "id": 3634015968, "lat": 39.5587041, "lon": 3.2456985}, {"type": "node", "id": 3634015969, "lat": 39.5589817, "lon": 3.2460387}, {"type": "node", "id": 3634015970, "lat": 39.5591639, "lon": 3.2460431}, {"type": "node", "id": 3634015971, "lat": 39.5591673, "lon": 3.2459393}, {"type": "node", "id": 3634015972, "lat": 39.5592678, "lon": 3.2459304}, {"type": "node", "id": 3634015973, "lat": 39.559307, "lon": 3.245884}, {"type": "node", "id": 3634015974, "lat": 39.5593036, "lon": 3.2457073}, {"type": "node", "id": 3634015975, "lat": 39.559244, "lon": 3.2456499}, {"type": "node", "id": 3634015976, "lat": 39.5592116, "lon": 3.2456543}, {"type": "node", "id": 3634015977, "lat": 39.5590566, "lon": 3.2454997}, {"type": "node", "id": 3658765525, "lat": 39.54508, "lon": 3.336193, "tags": {"amenity": "restaurant"}}, {"type": "node", "id": 3658765725, "lat": 39.545375, "lon": 3.335953, "tags": {"amenity": "restaurant", "name": "Ses Comes", "name:ca": "Ses Comes"}}, {"type": "node", "id": 3670439451, "lat": 39.609329, "lon": 3.3759882}, {"type": "node", "id": 3670439452, "lat": 39.6092061, "lon": 3.376239}, {"type": "node", "id": 3670439453, "lat": 39.6090041, "lon": 3.3761006}, {"type": "node", "id": 3670439454, "lat": 39.609112, "lon": 3.3758303}, {"type": "node", "id": 3753209610, "lat": 39.3796389, "lon": 3.2409254, "tags": {"amenity": "restaurant", "cuisine": "tapas", "name": "La Tasca", "name:ca": "La Tasca"}}, {"type": "node", "id": 3771895369, "lat": 39.4539137, "lon": 3.2726917, "tags": {"amenity": "restaurant", "name": "Halali"}}, {"type": "node", "id": 3771895372, "lat": 39.4547471, "lon": 3.2709857, "tags": {"amenity": "restaurant", "cuisine": "italian;pizza", "name": "El Creole"}}, {"type": "node", "id": 3771958328, "lat": 39.5221703, "lon": 3.3162925, "tags": {"amenity": "restaurant", "cuisine": "regional", "name": "Vista Alegre", "name:ca": "Vista Alegre"}}, {"type": "node", "id": 3772201701, "lat": 39.3794448, "lon": 3.2409286, "tags": {"amenity": "restaurant", "name": "L'\u00c0nima"}}, {"type": "node", "id": 3772209476, "lat": 39.379967, "lon": 3.2406184, "tags": {"amenity": "restaurant", "name": "Robinson"}}, {"type": "node", "id": 3777076311, "lat": 39.5810444, "lon": 3.3772413, "tags": {"amenity": "restaurant", "cuisine": "indian", "microbrewery": "no", "name": "goa", "operator": "Protour", "outdoor_seating": "no", "smoking": "no", "wheelchair": "no"}}, {"type": "node", "id": 3777076314, "lat": 39.5807641, "lon": 3.3772573, "tags": {"amenity": "restaurant", "microbrewery": "no", "name": "el Mol\u00ed den Bou", "operator": "Protur", "outdoor_seating": "no"}}, {"type": "node", "id": 3777137369, "lat": 39.5794977, "lon": 3.3778693}, {"type": "node", "id": 3777137372, "lat": 39.579601, "lon": 3.3779985}, {"type": "node", "id": 3777137373, "lat": 39.5795996, "lon": 3.3777467}, {"type": "node", "id": 3777137374, "lat": 39.5796182, "lon": 3.377986}, {"type": "node", "id": 3777137375, "lat": 39.5796562, "lon": 3.378056}, {"type": "node", "id": 3777137376, "lat": 39.5796642, "lon": 3.3780329}, {"type": "node", "id": 3777137377, "lat": 39.5797255, "lon": 3.3778983}, {"type": "node", "id": 3777137378, "lat": 39.5797379, "lon": 3.3779032}, {"type": "node", "id": 3777137379, "lat": 39.579744, "lon": 3.3781201}, {"type": "node", "id": 3777137380, "lat": 39.5797494, "lon": 3.377904}, {"type": "node", "id": 3777137381, "lat": 39.5797798, "lon": 3.3778639}, {"type": "node", "id": 3777137382, "lat": 39.5797931, "lon": 3.3781121}, {"type": "node", "id": 3777137383, "lat": 39.5798535, "lon": 3.3780803}, {"type": "node", "id": 3777137384, "lat": 39.5798824, "lon": 3.3779873}, {"type": "node", "id": 3777137385, "lat": 39.5799379, "lon": 3.3776402}, {"type": "node", "id": 3777137387, "lat": 39.5799986, "lon": 3.3776139}, {"type": "node", "id": 3777137390, "lat": 39.5800793, "lon": 3.3777129}, {"type": "node", "id": 3778238962, "lat": 39.6059794, "lon": 3.2768105}, {"type": "node", "id": 3778238963, "lat": 39.6061248, "lon": 3.27699}, {"type": "node", "id": 3778238964, "lat": 39.6059458, "lon": 3.277257}, {"type": "node", "id": 3778238965, "lat": 39.605931, "lon": 3.2768765}, {"type": "node", "id": 3791155257, "lat": 39.6046374, "lon": 3.3806582}, {"type": "node", "id": 3801143305, "lat": 39.5131941, "lon": 3.2168307}, {"type": "node", "id": 3801143306, "lat": 39.5132461, "lon": 3.2168818}, {"type": "node", "id": 3801143307, "lat": 39.51325, "lon": 3.2169029}, {"type": "node", "id": 3801143308, "lat": 39.5132024, "lon": 3.2169843}, {"type": "node", "id": 3801143309, "lat": 39.5131401, "lon": 3.2169231}, {"type": "node", "id": 3869215577, "lat": 39.5771725, "lon": 3.2086214}, {"type": "node", "id": 3869215578, "lat": 39.5772142, "lon": 3.2087438}, {"type": "node", "id": 3869215579, "lat": 39.5770634, "lon": 3.2088302}, {"type": "node", "id": 3869215580, "lat": 39.5770217, "lon": 3.2087078}, {"type": "node", "id": 3872525504, "lat": 39.4713762, "lon": 3.2691021}, {"type": "node", "id": 3872525505, "lat": 39.4712283, "lon": 3.2691309}, {"type": "node", "id": 3872525506, "lat": 39.4711814, "lon": 3.2687261}, {"type": "node", "id": 3872525507, "lat": 39.4712186, "lon": 3.2687189}, {"type": "node", "id": 3872525508, "lat": 39.4712228, "lon": 3.268755}, {"type": "node", "id": 3872525509, "lat": 39.4712485, "lon": 3.26875}, {"type": "node", "id": 3872525510, "lat": 39.4712531, "lon": 3.2687896}, {"type": "node", "id": 3872525511, "lat": 39.4712652, "lon": 3.2687872}, {"type": "node", "id": 3872525512, "lat": 39.4712747, "lon": 3.2688685}, {"type": "node", "id": 3872525513, "lat": 39.4713057, "lon": 3.2688625}, {"type": "node", "id": 3872525514, "lat": 39.4713128, "lon": 3.2689237}, {"type": "node", "id": 3872525515, "lat": 39.4713384, "lon": 3.2689187}, {"type": "node", "id": 3872525516, "lat": 39.4713424, "lon": 3.2689536}, {"type": "node", "id": 3872525517, "lat": 39.4713586, "lon": 3.2689504}, {"type": "node", "id": 3930819960, "lat": 39.564734, "lon": 3.2023672, "tags": {"addr:housenumber": "30", "addr:postcode": "07500", "addr:street": "Calle Corcega", "entrance": "yes"}}, {"type": "node", "id": 3930819967, "lat": 39.5647647, "lon": 3.2022746, "tags": {"addr:housenumber": "43", "addr:postcode": "07500", "addr:street": "Calle Sant Gabriel", "entrance": "yes"}}, {"type": "node", "id": 3930819971, "lat": 39.5647126, "lon": 3.2023041}, {"type": "node", "id": 3930819972, "lat": 39.5647389, "lon": 3.2023817}, {"type": "node", "id": 3930819973, "lat": 39.5647441, "lon": 3.2023969}, {"type": "node", "id": 3930819979, "lat": 39.5647664, "lon": 3.2023843}, {"type": "node", "id": 3930819983, "lat": 39.5647796, "lon": 3.2023768}, {"type": "node", "id": 3930819985, "lat": 39.5647927, "lon": 3.2022588}, {"type": "node", "id": 3930819987, "lat": 39.564809, "lon": 3.2023067}, {"type": "node", "id": 3930819989, "lat": 39.5648242, "lon": 3.2023515}, {"type": "node", "id": 3940552787, "lat": 39.4532113, "lon": 3.2137304}, {"type": "node", "id": 3940552788, "lat": 39.4534709, "lon": 3.2136772}, {"type": "node", "id": 3940552789, "lat": 39.4535002, "lon": 3.2139173}, {"type": "node", "id": 3940552790, "lat": 39.4534037, "lon": 3.213937}, {"type": "node", "id": 3940552791, "lat": 39.4533951, "lon": 3.2138669}, {"type": "node", "id": 3940552792, "lat": 39.4533339, "lon": 3.2138795}, {"type": "node", "id": 3940552793, "lat": 39.4533437, "lon": 3.2139598}, {"type": "node", "id": 3940552794, "lat": 39.4532419, "lon": 3.2139806}, {"type": "node", "id": 3968399809, "lat": 39.5710152, "lon": 3.2078157}, {"type": "node", "id": 3968399810, "lat": 39.5709377, "lon": 3.207954}, {"type": "node", "id": 3968399811, "lat": 39.5708739, "lon": 3.2078698}, {"type": "node", "id": 3968399812, "lat": 39.5709468, "lon": 3.2077477}, {"type": "node", "id": 3980702215, "lat": 39.5690626, "lon": 3.2073093, "tags": {"amenity": "cafe", "name": "Es Convent"}}, {"type": "node", "id": 4036717635, "lat": 39.5991731, "lon": 3.3842991, "tags": {"amenity": "restaurant", "name": "Lasarz"}}, {"type": "node", "id": 4046189487, "lat": 39.3600618, "lon": 3.2092924, "tags": {"addr:housenumber": "7", "addr:street": "carrer des Far", "amenity": "restaurant", "check_date": "2023-07-29", "contact:facebook": "https://facebook.com/elbaulportopetro", "contact:tripadvisor": "https://www.tripadvisor.com/Restaurant_Review-g1010182-d23285040-Reviews-El_Baul_Restaurant_Porto_Petro-Porto_Petro_Majorca_Balearic_Islands.html", "cuisine": "steak_house;spanish;fish", "indoor_seating": "yes", "name": "El Ba\u00fal", "opening_hours": "13:00-24:00", "outdoor_seating": "balcony", "payment:mastercard": "yes", "payment:visa": "yes", "phone": "+34 684 41 88 41", "reservation": "yes", "toilets": "yes"}}, {"type": "node", "id": 4046198826, "lat": 39.3613026, "lon": 3.2088728, "tags": {"amenity": "restaurant", "cuisine": "italian", "name": "Antichi Pori"}}, {"type": "node", "id": 4046199390, "lat": 39.3614451, "lon": 3.2077655, "tags": {"addr:city": "Porto Petro", "addr:housenumber": "6", "addr:postcode": "07691", "addr:street": "pla\u00e7a des Cal\u00f3 des Moix", "amenity": "restaurant", "bar": "yes", "contact:instagram": "https://www.instagram.com/patagonia_portopetro/", "cuisine": "fish;argentinian;regional", "name": "Pategonia", "opening_hours": "11:00-12:00", "outdoor_seating": "yes", "phone": "+34 699 34 20 65", "reservation": "yes", "wheelchair": "yes"}}, {"type": "node", "id": 4046199547, "lat": 39.3610601, "lon": 3.2090551, "tags": {"addr:city": "Porto Petro", "addr:housenumber": "51", "addr:postcode": "07691", "addr:street": "Carrer Passeig d'es Port", "amenity": "restaurant", "contact:facebook": "https://www.facebook.com/esceller9/", "cuisine": "regional;seafood;fish;spanish", "image": "https://www.instagram.com/esceller9/?hl=en", "name": "Es 9 Celler", "opening_hours": "13:00-15:00,19:00-22:00", "outdoor_seating": "yes", "phone": "+34 971 65 75 57", "reservation": "yes", "website": "https://www.tripadvisor.com/Restaurant_Review-g1010182-d7398371-Reviews-Es_Celler_9-Porto_Petro_Majorca_Balearic_Islands.html"}}, {"type": "node", "id": 4046199888, "lat": 39.3613897, "lon": 3.2085989, "tags": {"amenity": "cafe", "name": "es Pi", "name:ca": "es Pi"}}, {"type": "node", "id": 4046199923, "lat": 39.3611639, "lon": 3.2100229, "tags": {"amenity": "cafe", "check_date": "2024-07-22", "indoor_seating": "yes", "name": "Piscis", "opening_hours": "Th-Tu 12:00-18:00+", "opening_hours:kitchen": "Th-Tu 12:00-17:00", "outdoor_seating": "veranda"}}, {"type": "node", "id": 4046200524, "lat": 39.3613244, "lon": 3.2101653, "tags": {"amenity": "restaurant", "cuisine": "mediterranean;seafood", "name": "La Caracola", "opening_hours": "Tu-Su 08:00-23:00; Mo off; Dec 24,Dec 25,Dec 31-Jan 01: 06:00-20:00 closed", "outdoor_seating": "yes", "website": "https://www.lacaracolaportopetro.com/"}}, {"type": "node", "id": 4046200609, "lat": 39.3613926, "lon": 3.2102166, "tags": {"amenity": "restaurant", "contact:facebook": "https://facebook.com/Restaurante-Es-Bergant-257237134303791/", "contact:instagram": "https://www.instagram.com/restauranteesbergant/", "cuisine": "spanish;seafood;mediterranean", "internet_access": "wlan", "name": "Es Bergant", "opening_hours": "12:30-22:30", "outdoor_seating": "yes", "phone": "+34 971 64 84 00", "website": "https://www.esbergantportopetro.com/"}}, {"type": "node", "id": 4065688893, "lat": 39.5289639, "lon": 3.3108186}, {"type": "node", "id": 4065688894, "lat": 39.5288351, "lon": 3.3109205}, {"type": "node", "id": 4065688895, "lat": 39.5287311, "lon": 3.3106996}, {"type": "node", "id": 4065688896, "lat": 39.5288735, "lon": 3.3106266}, {"type": "node", "id": 4149973914, "lat": 39.5736059, "lon": 3.228928}, {"type": "node", "id": 4149973915, "lat": 39.5737295, "lon": 3.2292241}, {"type": "node", "id": 4149973916, "lat": 39.5736147, "lon": 3.2293048}, {"type": "node", "id": 4149973917, "lat": 39.5734911, "lon": 3.2290087}, {"type": "node", "id": 4150908497, "lat": 39.604706, "lon": 3.3807441}, {"type": "node", "id": 4150908498, "lat": 39.6046384, "lon": 3.3808351}, {"type": "node", "id": 4150908499, "lat": 39.6045519, "lon": 3.3807268}, {"type": "node", "id": 4150908500, "lat": 39.6046195, "lon": 3.3806358}, {"type": "node", "id": 4175610204, "lat": 39.6170092, "lon": 3.3917913}, {"type": "node", "id": 4175610205, "lat": 39.6170749, "lon": 3.3921223}, {"type": "node", "id": 4175610206, "lat": 39.6169409, "lon": 3.3921764}, {"type": "node", "id": 4175610207, "lat": 39.6168105, "lon": 3.3918698}, {"type": "node", "id": 4217726589, "lat": 39.6116158, "lon": 3.2857137, "tags": {"amenity": "restaurant", "cuisine": "italian_pizza", "name": "Il Cantone"}}, {"type": "node", "id": 4247301743, "lat": 39.5702934, "lon": 3.2097041, "tags": {"amenity": "restaurant", "cuisine": "mexican", "name": "taquer\u00eda MX"}}, {"type": "node", "id": 4275851044, "lat": 39.456982, "lon": 3.2759015}, {"type": "node", "id": 4292602199, "lat": 39.5709632, "lon": 3.2077446}, {"type": "node", "id": 4292848600, "lat": 39.4002598, "lon": 3.2067178}, {"type": "node", "id": 4292848601, "lat": 39.4002099, "lon": 3.2067586}, {"type": "node", "id": 4292848602, "lat": 39.4001387, "lon": 3.2066735}, {"type": "node", "id": 4292848603, "lat": 39.4002087, "lon": 3.2066133}, {"type": "node", "id": 4292848606, "lat": 39.4001802, "lon": 3.2066366}, {"type": "node", "id": 4292848607, "lat": 39.4001598, "lon": 3.2066562}, {"type": "node", "id": 4292848608, "lat": 39.4000724, "lon": 3.2065379}, {"type": "node", "id": 4292848609, "lat": 39.4001149, "lon": 3.206503}, {"type": "node", "id": 4298332416, "lat": 39.4116685, "lon": 3.193263}, {"type": "node", "id": 4298332417, "lat": 39.4115213, "lon": 3.1934648}, {"type": "node", "id": 4298332418, "lat": 39.411414, "lon": 3.1933336}, {"type": "node", "id": 4298332419, "lat": 39.411373, "lon": 3.1933899}, {"type": "node", "id": 4298332420, "lat": 39.4113286, "lon": 3.1933356}, {"type": "node", "id": 4298332421, "lat": 39.4114107, "lon": 3.193223}, {"type": "node", "id": 4298332422, "lat": 39.4113518, "lon": 3.193151}, {"type": "node", "id": 4298332423, "lat": 39.4114495, "lon": 3.193017}, {"type": "node", "id": 4298332424, "lat": 39.4115607, "lon": 3.1931529}, {"type": "node", "id": 4298332425, "lat": 39.4115458, "lon": 3.1931734}, {"type": "node", "id": 4298332426, "lat": 39.4115973, "lon": 3.1932363}, {"type": "node", "id": 4298332427, "lat": 39.4116205, "lon": 3.1932044}, {"type": "node", "id": 4299734489, "lat": 39.6073457, "lon": 3.389368, "tags": {"amenity": "restaurant", "cuisine": "international", "name": "Costa", "name:ca": "Costa"}}, {"type": "node", "id": 4310431004, "lat": 39.5639912, "lon": 3.3710218}, {"type": "node", "id": 4310431005, "lat": 39.5639109, "lon": 3.3709834}, {"type": "node", "id": 4310431006, "lat": 39.5638828, "lon": 3.3713603}, {"type": "node", "id": 4310431011, "lat": 39.5638051, "lon": 3.3713191}, {"type": "node", "id": 4310898170, "lat": 39.567815, "lon": 3.2050162, "tags": {"amenity": "cafe", "name": "sa Torre", "name:ca": "sa Torre"}}, {"type": "node", "id": 4338004592, "lat": 39.5419028, "lon": 3.3375301, "tags": {"addr:housenumber": "79", "addr:postcode": "07680", "addr:street": "Carrer dels Bordils", "amenity": "restaurant", "name": "Flamingo Bar"}}, {"type": "node", "id": 4341807889, "lat": 39.6020815, "lon": 3.3823421, "tags": {"amenity": "cafe"}}, {"type": "node", "id": 4346008666, "lat": 39.608494, "lon": 3.2879002, "tags": {"addr:housenumber": "59", "addr:street": "carretera de Son Servera", "amenity": "restaurant", "cuisine": "regional", "name": "Can Pedro", "name:ca": "Can Pedro", "phone": "+34 971838448"}}, {"type": "node", "id": 4346008684, "lat": 39.6106609, "lon": 3.2856673, "tags": {"amenity": "restaurant"}}, {"type": "node", "id": 4346008685, "lat": 39.6113484, "lon": 3.2850598, "tags": {"amenity": "cafe", "name": "Bar Nou", "name:ca": "Bar Nou"}}, {"type": "node", "id": 4375217587, "lat": 39.400133, "lon": 3.2036005, "tags": {"amenity": "restaurant", "name": "Bona Taula", "name:ca": "Bona Taula"}}, {"type": "node", "id": 4393733893, "lat": 39.4083377, "lon": 3.2586355, "tags": {"amenity": "cafe", "name": "Vista Sol"}}, {"type": "node", "id": 4393734090, "lat": 39.4091437, "lon": 3.2582611, "tags": {"amenity": "restaurant", "name": "La Bella Vita"}}, {"type": "node", "id": 4403263671, "lat": 39.4092048, "lon": 3.2580516, "tags": {"amenity": "restaurant", "name": "La Playa"}}, {"type": "node", "id": 4403263719, "lat": 39.4117919, "lon": 3.2600174, "tags": {"amenity": "restaurant", "cuisine": "italian", "name": "Spaghetti"}}, {"type": "node", "id": 4415906914, "lat": 39.4455215, "lon": 3.2357061}, {"type": "node", "id": 4415906915, "lat": 39.4454186, "lon": 3.2358783}, {"type": "node", "id": 4415906916, "lat": 39.4452353, "lon": 3.2356948}, {"type": "node", "id": 4415906917, "lat": 39.4453382, "lon": 3.2355225}, {"type": "node", "id": 4423188295, "lat": 39.478651, "lon": 3.2496676}, {"type": "node", "id": 4423188296, "lat": 39.4787668, "lon": 3.2500184}, {"type": "node", "id": 4423188297, "lat": 39.4788319, "lon": 3.250122}, {"type": "node", "id": 4423188298, "lat": 39.4787704, "lon": 3.2501725}, {"type": "node", "id": 4423188299, "lat": 39.4786931, "lon": 3.2500557}, {"type": "node", "id": 4423188300, "lat": 39.4786347, "lon": 3.2500884}, {"type": "node", "id": 4423188301, "lat": 39.478522, "lon": 3.2497357}, {"type": "node", "id": 4437969299, "lat": 39.637863, "lon": 3.414466, "tags": {"amenity": "restaurant", "name": "Ca n'Aurelio", "toilets:wheelchair": "yes", "wheelchair": "yes", "wheelchair:description": "Sehr sauber, sehr lecker. Aber auch etwas teurer!"}}, {"type": "node", "id": 4447831957, "lat": 39.6104048, "lon": 3.2846365, "tags": {"amenity": "cafe", "name": "Ol\u00edmpic"}}, {"type": "node", "id": 4463029799, "lat": 39.5540162, "lon": 3.3461418}, {"type": "node", "id": 4463029800, "lat": 39.5541738, "lon": 3.3463972}, {"type": "node", "id": 4463029801, "lat": 39.5541047, "lon": 3.3464689}, {"type": "node", "id": 4463029802, "lat": 39.5539782, "lon": 3.3462639}, {"type": "node", "id": 4463029803, "lat": 39.5539347, "lon": 3.3463091}, {"type": "node", "id": 4463029804, "lat": 39.5539036, "lon": 3.3462588}, {"type": "node", "id": 4466166113, "lat": 39.5454389, "lon": 3.3309468}, {"type": "node", "id": 4466166114, "lat": 39.5452329, "lon": 3.3306355}, {"type": "node", "id": 4466166115, "lat": 39.5451241, "lon": 3.3307551}, {"type": "node", "id": 4466166116, "lat": 39.5453301, "lon": 3.3310686}, {"type": "node", "id": 4466166119, "lat": 39.5446504, "lon": 3.3313131}, {"type": "node", "id": 4466166120, "lat": 39.5445989, "lon": 3.3313864}, {"type": "node", "id": 4466166121, "lat": 39.5447081, "lon": 3.3315639}, {"type": "node", "id": 4466166122, "lat": 39.544796, "lon": 3.3314971}, {"type": "node", "id": 4466166127, "lat": 39.5452965, "lon": 3.3307329}, {"type": "node", "id": 4466958069, "lat": 39.5404683, "lon": 3.3327845, "tags": {"amenity": "restaurant"}}, {"type": "node", "id": 4466959552, "lat": 39.5391679, "lon": 3.3334951, "tags": {"amenity": "restaurant", "diet:vegan": "no", "diet:vegetarian": "yes", "name": "Dil Porto", "wheelchair": "no"}}, {"type": "node", "id": 4468128518, "lat": 39.5465639, "lon": 3.3332273, "tags": {"amenity": "restaurant", "name": "L'Alpa"}}, {"type": "node", "id": 4471054761, "lat": 39.5912993, "lon": 3.3834782, "tags": {"amenity": "cafe", "name": "Amapola"}}, {"type": "node", "id": 4471354383, "lat": 39.5975581, "lon": 3.3807899, "tags": {"amenity": "cafe"}}, {"type": "node", "id": 4471503521, "lat": 39.5980621, "lon": 3.3809411}, {"type": "node", "id": 4471503522, "lat": 39.598212, "lon": 3.3810315}, {"type": "node", "id": 4471503523, "lat": 39.5981418, "lon": 3.3811882}, {"type": "node", "id": 4471503524, "lat": 39.5979779, "lon": 3.3811248}, {"type": "node", "id": 4471823536, "lat": 39.5957946, "lon": 3.3826081}, {"type": "node", "id": 4471823537, "lat": 39.5957724, "lon": 3.3826585}, {"type": "node", "id": 4471823538, "lat": 39.5955097, "lon": 3.3827113}, {"type": "node", "id": 4471823539, "lat": 39.5955042, "lon": 3.3826513}, {"type": "node", "id": 4471823540, "lat": 39.5957114, "lon": 3.3825577}, {"type": "node", "id": 4471908964, "lat": 39.5968486, "lon": 3.3829143, "tags": {"amenity": "cafe", "name": "San Francisco", "name:ca": "Sant Francesc"}}, {"type": "node", "id": 4471937269, "lat": 39.5986037, "lon": 3.3844296, "tags": {"amenity": "cafe", "name": "La terraza del Mar", "outdoor_seating": "yes"}}, {"type": "node", "id": 4536224064, "lat": 39.4107028, "lon": 3.2599008, "tags": {"amenity": "restaurant", "name": "es Port"}}, {"type": "node", "id": 4595953889, "lat": 39.5689811, "lon": 3.2103096, "tags": {"addr:housenumber": "1", "addr:postcode": "07500", "addr:street": "pla\u00e7a del General Weyler", "amenity": "restaurant", "cuisine": "argentinian;international", "email": "info@factoriagastrobar.com", "indoor_seating": "yes", "internet_access": "wlan", "name": "Factoria Tomeu Bauz\u00e1", "opening_hours:signed": "no", "outdoor_seating": "yes", "phone": "+34 654602769", "website": "http://www.factoriagastrobar.com", "wheelchair": "yes"}}, {"type": "node", "id": 4604414896, "lat": 39.5660172, "lon": 3.2033113, "tags": {"addr:housenumber": "36", "addr:postcode": "07500", "addr:street": "Carrer de Sant Rafael", "amenity": "cafe", "name": "Can Parera", "name:ca": "Can Parera", "name:en": "Can Parera", "name:es": "Can Parera"}}, {"type": "node", "id": 4681700489, "lat": 39.5695813, "lon": 3.2091907, "tags": {"addr:city": "Manacor", "addr:housenumber": "12", "addr:postcode": "07500", "addr:street": "Carrer Major", "amenity": "restaurant", "cuisine": "italian;pizza;mediterranean", "name": "Liorna Trattoria", "name:ca": "Liorna Trattoria", "name:en": "Liorna Trattoria", "name:es": "Liorna Trattoria", "phone": "+34 971 55 02 29"}}, {"type": "node", "id": 4726249308, "lat": 39.6011721, "lon": 3.3808007}, {"type": "node", "id": 4726249309, "lat": 39.6011271, "lon": 3.3809369}, {"type": "node", "id": 4726249310, "lat": 39.6010134, "lon": 3.3808737}, {"type": "node", "id": 4726249312, "lat": 39.6009834, "lon": 3.3807797}, {"type": "node", "id": 4726249313, "lat": 39.6010068, "lon": 3.3807089}, {"type": "node", "id": 4745792747, "lat": 39.5663054, "lon": 3.2110049, "tags": {"amenity": "cafe", "name": "es Mercat"}}, {"type": "node", "id": 4747197921, "lat": 39.5677607, "lon": 3.2119143, "tags": {"addr:housenumber": "6", "addr:postcode": "07500", "addr:street": "avinguda de Baix des C\u00f3s", "amenity": "cafe", "name": "Yeye"}}, {"type": "node", "id": 4771140421, "lat": 39.3698695, "lon": 3.2233003, "tags": {"addr:housenumber": "17", "addr:street": "Avinguda de la Cala Llonga", "amenity": "restaurant", "cuisine": "spanish", "name": "Botavara", "name:es": "Botavara", "phone": "+34 971 658 035", "website": "https://www.restaurantebotavara.es/"}}, {"type": "node", "id": 4799222724, "lat": 39.5864226, "lon": 3.3568688}, {"type": "node", "id": 4799222725, "lat": 39.5863539, "lon": 3.3569759}, {"type": "node", "id": 4799222726, "lat": 39.5864825, "lon": 3.3571147}, {"type": "node", "id": 4799222728, "lat": 39.5864833, "lon": 3.3571997}, {"type": "node", "id": 4799222729, "lat": 39.5866064, "lon": 3.3570079}, {"type": "node", "id": 4799318636, "lat": 39.5864506, "lon": 3.3571644}, {"type": "node", "id": 4801422021, "lat": 39.5718759, "lon": 3.2027471, "tags": {"addr:housenumber": "1", "addr:postcode": "07500", "addr:street": "carrer des Creuers", "amenity": "restaurant", "contact:facebook": "https://www.facebook.com/plaervegetariamanacor", "diet:vegan": "yes", "diet:vegetarian": "yes", "email": "plaervegetaria@gmail.com", "name": "Plaer Vegetari\u00e0", "name:ca": "Plaer Vegetari\u00e0", "name:en": "Plaer Vegetari\u00e0", "name:es": "Plaer Vegetari\u00e0", "phone": "+34 971555504"}}, {"type": "node", "id": 4845585920, "lat": 39.5799843, "lon": 3.370102, "tags": {"amenity": "restaurant", "cuisine": "regional", "name": "Hermanos Jim\u00e9nez", "outdoor_seating": "yes"}}, {"type": "node", "id": 4855009888, "lat": 39.6025245, "lon": 3.378439, "tags": {"amenity": "restaurant", "cuisine": "italian", "name": "Amore Mio"}}, {"type": "node", "id": 4862306716, "lat": 39.6379554, "lon": 3.4140685, "tags": {"amenity": "restaurant", "cuisine": "spanish", "name": "David", "outdoor_seating": "yes"}}, {"type": "node", "id": 4862307446, "lat": 39.6384108, "lon": 3.4071431, "tags": {"amenity": "restaurant", "cuisine": "pizza", "name": "La Piazzetta"}}, {"type": "node", "id": 4871334598, "lat": 39.4175541, "lon": 3.2460878}, {"type": "node", "id": 4871334599, "lat": 39.4176829, "lon": 3.2461904}, {"type": "node", "id": 4871334600, "lat": 39.4177597, "lon": 3.2460289}, {"type": "node", "id": 4871334601, "lat": 39.417631, "lon": 3.2459262}, {"type": "node", "id": 4893300679, "lat": 39.5827832, "lon": 3.3805119, "tags": {"amenity": "cafe", "name": "Delaney's"}}, {"type": "node", "id": 4904786853, "lat": 39.6029364, "lon": 3.3771768, "tags": {"amenity": "cafe"}}, {"type": "node", "id": 4904819827, "lat": 39.3695876, "lon": 3.2234503, "tags": {"amenity": "restaurant", "name": "Porto Cari"}}, {"type": "node", "id": 4904819828, "lat": 39.3699993, "lon": 3.2231953, "tags": {"amenity": "restaurant", "name": "Rolf's"}}, {"type": "node", "id": 4904819829, "lat": 39.3700624, "lon": 3.2231247, "tags": {"amenity": "cafe", "name": "Piscis"}}, {"type": "node", "id": 4904819830, "lat": 39.3702579, "lon": 3.222877, "tags": {"amenity": "restaurant", "name": "Old west"}}, {"type": "node", "id": 4907069803, "lat": 39.5830171, "lon": 3.380504, "tags": {"addr:city": "Sa Coma", "addr:housenumber": "11", "addr:postcode": "07560", "addr:street": "Carrer dels Baladres", "amenity": "cafe", "contact:facebook": "https://www.facebook.com/Dito-Cafeteria-Sa-Coma-100083246025371/", "name": "Dito - Breakfast Cafeteria Sa Coma", "opening_hours": "Tu-Su 09:00-16:00", "outdoor_seating": "yes"}}, {"type": "node", "id": 4935295025, "lat": 39.4236787, "lon": 3.2608181, "tags": {"addr:street": "carrer dels Pescadors", "amenity": "restaurant", "cuisine": "spanish;italian_pizza;mediterranean;tapas;coffee_shop", "name": "Rosso Peperone", "name:es": "Rosso Peperone"}}, {"type": "node", "id": 4940827721, "lat": 39.3932412, "lon": 3.2467524, "tags": {"amenity": "cafe", "cuisine": "fish;ice_cream;seafood;tapas;coffee_shop", "internet_access": "wlan", "name": "Cala Sa Nau", "name:es": "Cala Sa Nau", "opening_hours": "Mo-Su 09:00-21:30", "website": "https://www.calasanau.com/"}}, {"type": "node", "id": 4945391421, "lat": 39.619842, "lon": 3.391831, "tags": {"amenity": "restaurant", "name": "sa Punta", "name:ca": "sa Punta", "name:es": "sa Punta"}}, {"type": "node", "id": 4945391521, "lat": 39.6056236, "lon": 3.3884999, "tags": {"addr:housenumber": "1", "addr:postcode": "07560", "addr:street": "Carrer Es Rafal", "amenity": "restaurant", "contact:facebook": "https://www.facebook.com/KruaThaiRestaurant", "cuisine": "thai", "email": "Kruathai2015@gmail.com", "name": "Krua", "name:de": "Krua", "name:en": "Krua", "name:es": "Krua", "opening_hours": "Mo-Su 12:30-16:30, 18:30-23:30", "phone": "+34971813528"}}, {"type": "node", "id": 4945405423, "lat": 39.5624038, "lon": 3.3736278, "tags": {"addr:housenumber": "31", "addr:postcode": "07687", "addr:street": "Ronda del Mat\u00ed", "amenity": "restaurant", "cuisine": "italian;spanish;pasta;pizza", "email": "mamamia.cafeteria@hotmail.com", "name": "Mama M\u00eda", "phone": "+34 971 810 152"}}, {"type": "node", "id": 4966132312, "lat": 39.6333559, "lon": 3.3981992}, {"type": "node", "id": 4966132313, "lat": 39.6332856, "lon": 3.398387}, {"type": "node", "id": 4966132314, "lat": 39.6331715, "lon": 3.3983009}, {"type": "node", "id": 4966132315, "lat": 39.6331944, "lon": 3.3982395}, {"type": "node", "id": 4966132316, "lat": 39.6331803, "lon": 3.3989709}, {"type": "node", "id": 4966132317, "lat": 39.6331383, "lon": 3.3990956}, {"type": "node", "id": 4966132318, "lat": 39.6330411, "lon": 3.3990404}, {"type": "node", "id": 4966132319, "lat": 39.6330831, "lon": 3.3989157}, {"type": "node", "id": 4979794956, "lat": 39.6026917, "lon": 3.3830756, "tags": {"amenity": "restaurant", "cuisine": "spanish", "name": "El Tapeo", "source": "survey"}}, {"type": "node", "id": 4979794958, "lat": 39.6019777, "lon": 3.3855526, "tags": {"amenity": "cafe", "name": "Voramar", "outdoor_seating": "yes", "source": "survey"}}, {"type": "node", "id": 5018631157, "lat": 39.3644248, "lon": 3.225878, "tags": {"amenity": "restaurant", "cuisine": "chinese", "name": "Chino Gran Oriente"}}, {"type": "node", "id": 5018631159, "lat": 39.3640689, "lon": 3.2260704, "tags": {"amenity": "restaurant", "name": "Marta cafe"}}, {"type": "node", "id": 5022220063, "lat": 39.3646369, "lon": 3.2251027, "tags": {"amenity": "cafe", "cuisine": "frozen_yogurt", "name": "Yogodor"}}, {"type": "node", "id": 5024843740, "lat": 39.3626502, "lon": 3.2245852, "tags": {"amenity": "restaurant", "cuisine": "spanish", "name": "Cala Egos", "name:ca": "Cala Egos"}}, {"type": "node", "id": 5024843744, "lat": 39.3635626, "lon": 3.2245825, "tags": {"amenity": "cafe", "name": "Cafeteria Luna"}}, {"type": "node", "id": 5025005755, "lat": 39.3741121, "lon": 3.2286816, "tags": {"amenity": "restaurant", "name": "Diferent"}}, {"type": "node", "id": 5025053544, "lat": 39.3755584, "lon": 3.2286207, "tags": {"amenity": "restaurant", "name": "Domus", "name:ca": "Domus"}}, {"type": "node", "id": 5026011614, "lat": 39.3651853, "lon": 3.2276389, "tags": {"amenity": "restaurant", "name": "Tenis Rocamarina"}}, {"type": "node", "id": 5026011615, "lat": 39.36408, "lon": 3.2248065, "tags": {"amenity": "restaurant", "name": "Tango grill"}}, {"type": "node", "id": 5026011618, "lat": 39.3642449, "lon": 3.2263367, "tags": {"amenity": "restaurant", "name": "Aries"}}, {"type": "node", "id": 5026011729, "lat": 39.3647457, "lon": 3.2261825, "tags": {"addr:city": "Cala d'Or", "addr:housenumber": "25", "addr:postcode": "07660", "addr:street": "Avinguda de sa Marina", "amenity": "restaurant", "internet_access": "wlan", "name": "Nevada", "phone": "+34 971 65 80 63"}}, {"type": "node", "id": 5026011732, "lat": 39.3643641, "lon": 3.225701, "tags": {"amenity": "restaurant", "name": "Flip Flop"}}, {"type": "node", "id": 5027132318, "lat": 39.3633402, "lon": 3.2238968, "tags": {"amenity": "restaurant", "name": "Central Park Steakhouse"}}, {"type": "node", "id": 5027271999, "lat": 39.364913, "lon": 3.2257588, "tags": {"amenity": "restaurant", "name": "Mediterrano"}}, {"type": "node", "id": 5041512723, "lat": 39.3762428, "lon": 3.233826, "tags": {"addr:housenumber": "18", "addr:street": "Carrer Espardell", "amenity": "restaurant", "internet_access": "wlan", "name": "Ushuaia"}}, {"type": "node", "id": 5046800221, "lat": 39.5700076, "lon": 3.3710321, "tags": {"amenity": "restaurant", "internet_access": "wlan"}}, {"type": "node", "id": 5068486621, "lat": 39.5760654, "lon": 3.3756678, "tags": {"amenity": "restaurant", "name": "Happy Bar", "name:es": "Happy Bar"}}, {"type": "node", "id": 5088546455, "lat": 39.5697147, "lon": 3.2096131, "tags": {"amenity": "cafe", "cuisine": "ice_cream", "name": "Sa Bassa", "name:ca": "Sa Bassa", "outdoor_seating": "yes", "takeaway": "yes"}}, {"type": "node", "id": 5104491456, "lat": 39.5659411, "lon": 3.3721466, "tags": {"amenity": "cafe", "name": "Can Mateu", "name:ca": "Can Mateu"}}, {"type": "node", "id": 5107005923, "lat": 39.586542, "lon": 3.3205821, "tags": {"amenity": "restaurant", "name": "Es Torrent"}}, {"type": "node", "id": 5117291772, "lat": 39.3617929, "lon": 3.2105142, "tags": {"amenity": "restaurant", "cuisine": "regional", "indoor_seating": "yes", "name": "Restaurante Norai", "outdoor_seating": "terrace"}}, {"type": "node", "id": 5142121285, "lat": 39.3822801, "lon": 3.2400879, "tags": {"amenity": "restaurant", "name": "Ficus", "name:ca": "Ficus"}}, {"type": "node", "id": 5153213532, "lat": 39.5188819, "lon": 3.3140342, "tags": {"amenity": "restaurant", "name": "La Finca", "name:ca": "La Finca"}}, {"type": "node", "id": 5153213533, "lat": 39.5183972, "lon": 3.3154448, "tags": {"amenity": "restaurant", "name": "Voramar", "opening_hours": "Mo-Su,PH 07:30-10:30,13:00-15:00,18:30-21:30"}}, {"type": "node", "id": 5153267895, "lat": 39.5177997, "lon": 3.3145398, "tags": {"amenity": "restaurant", "name": "Bolzano"}}, {"type": "node", "id": 5158736322, "lat": 39.5708867, "lon": 3.2113156, "tags": {"amenity": "restaurant", "cuisine": "italian", "name": "Tutto Pasta"}}, {"type": "node", "id": 5159164857, "lat": 39.5197752, "lon": 3.3116362}, {"type": "node", "id": 5159164858, "lat": 39.519639, "lon": 3.3115887}, {"type": "node", "id": 5159164859, "lat": 39.5196893, "lon": 3.3113467}, {"type": "node", "id": 5159164860, "lat": 39.5198254, "lon": 3.3113943}, {"type": "node", "id": 5171787966, "lat": 39.4007233, "lon": 3.2037965, "tags": {"amenity": "restaurant", "cuisine": "italian", "name": "Pizzeria NoU"}}, {"type": "node", "id": 5206834833, "lat": 39.5460283, "lon": 3.3387739, "tags": {"amenity": "cafe", "indoor_seating": "yes", "name": "Manhattan", "outdoor_seating": "yes"}}, {"type": "node", "id": 5211132723, "lat": 39.61616, "lon": 3.3924083, "tags": {"amenity": "restaurant", "cuisine": "pizza", "indoor_seating": "no", "name": "Tomy\u2018s", "outdoor_seating": "no", "takeaway": "only"}}, {"type": "node", "id": 5214626821, "lat": 39.6203366, "lon": 3.360451, "tags": {"addr:housenumber": "17a", "addr:street": "Plaza Sant Joan 17A", "amenity": "restaurant", "name": "El Roc\u00edo", "website": "http://marisqueriaelrocio.blogspot.de"}}, {"type": "node", "id": 5273620522, "lat": 39.5390635, "lon": 3.3332826, "tags": {"addr:housenumber": "1", "addr:postcode": "07680", "addr:street": "Carrer de Ver\u00ed", "amenity": "restaurant", "cuisine": "spanish", "email": "restaurantequince@gmail.com", "internet_access": "wlan", "name": "Quince", "opening_hours": "Mo-Su 11:00-22:30", "phone": "+34 971821830", "website": "https://www.restaurantequince.com/", "wheelchair": "limited"}}, {"type": "node", "id": 5276737521, "lat": 39.579095, "lon": 3.3734331, "tags": {"amenity": "restaurant", "cuisine": "barbecue", "internet_access": "wlan", "name": "Cafe del Mar", "name:en": "Cafe del Mar", "name:es": "Cafe del Mar"}}, {"type": "node", "id": 5403262365, "lat": 39.5648241, "lon": 3.2127273, "tags": {"amenity": "cafe", "name": "Tr\u00e8vol"}}, {"type": "node", "id": 5406117785, "lat": 39.570213, "lon": 3.2165798, "tags": {"amenity": "cafe", "name": "Bar Mallorqu\u00ed"}}, {"type": "node", "id": 5438519676, "lat": 39.5626124, "lon": 3.2083223, "tags": {"amenity": "cafe", "name": "sa Volta"}}, {"type": "node", "id": 5438523324, "lat": 39.5641802, "lon": 3.2130008, "tags": {"amenity": "cafe"}}, {"type": "node", "id": 5487701302, "lat": 39.5460323, "lon": 3.3360882, "tags": {"amenity": "cafe"}}, {"type": "node", "id": 5508372354, "lat": 39.5706635, "lon": 3.1867987, "tags": {"amenity": "cafe", "name": "sa Cantina", "name:ca": "sa Cantina"}}, {"type": "node", "id": 5518874259, "lat": 39.5473653, "lon": 3.3382263, "tags": {"amenity": "cafe", "name": "JJ"}}, {"type": "node", "id": 5536774681, "lat": 39.5687994, "lon": 3.2047439, "tags": {"amenity": "restaurant", "cuisine": "pizza", "name": "Chento"}}, {"type": "node", "id": 5548888519, "lat": 39.5644912, "lon": 3.372995, "tags": {"amenity": "cafe", "name": "Escollera"}}, {"type": "node", "id": 5548888520, "lat": 39.5631806, "lon": 3.3725758, "tags": {"amenity": "cafe", "name": "Manacor", "name:ca": "Manacor"}}, {"type": "node", "id": 5627476621, "lat": 39.6031498, "lon": 3.3861025, "tags": {"amenity": "restaurant", "cuisine": "spanish", "name": "Sa Caleta", "name:ca": "Sa Caleta", "name:de": "Fisch, Tappas und Pizza"}}, {"type": "node", "id": 5633633827, "lat": 39.564307, "lon": 3.3743178, "tags": {"amenity": "restaurant", "name": "es Mollet"}}, {"type": "node", "id": 5661440229, "lat": 39.6330156, "lon": 3.399523}, {"type": "node", "id": 5661440230, "lat": 39.632942, "lon": 3.3997155}, {"type": "node", "id": 5661440231, "lat": 39.6328222, "lon": 3.3998227}, {"type": "node", "id": 5661440232, "lat": 39.6327076, "lon": 3.3996041}, {"type": "node", "id": 5661440233, "lat": 39.6327827, "lon": 3.3995388}, {"type": "node", "id": 5661440234, "lat": 39.6328129, "lon": 3.3995951}, {"type": "node", "id": 5661440235, "lat": 39.632892, "lon": 3.399524}, {"type": "node", "id": 5661440236, "lat": 39.6329306, "lon": 3.3995668}, {"type": "node", "id": 5670381083, "lat": 39.5722019, "lon": 3.2174147, "tags": {"amenity": "cafe", "name": "Xinxeram"}}, {"type": "node", "id": 5670382767, "lat": 39.5724583, "lon": 3.2172618, "tags": {"amenity": "restaurant", "name": "Es Celler"}}, {"type": "node", "id": 5683454294, "lat": 39.3734958, "lon": 3.2271297, "tags": {"amenity": "cafe", "name": "La Avenida"}}, {"type": "node", "id": 5705926430, "lat": 39.5773033, "lon": 3.3766593, "tags": {"amenity": "restaurant", "name": "Atl\u00e0ntic"}}, {"type": "node", "id": 5709782861, "lat": 39.568414, "lon": 3.2046767, "tags": {"amenity": "restaurant", "cuisine": "chinese", "name": "Oriente"}}, {"type": "node", "id": 5709782862, "lat": 39.568232, "lon": 3.2045131, "tags": {"amenity": "cafe", "name": "Brasil"}}, {"type": "node", "id": 5715448328, "lat": 39.5727941, "lon": 3.2068653, "tags": {"amenity": "cafe"}}, {"type": "node", "id": 5752189535, "lat": 39.5750647, "lon": 3.2082821, "tags": {"amenity": "cafe", "name": "Auditori", "name:ca": "Auditori"}}, {"type": "node", "id": 5772737460, "lat": 39.4092105, "lon": 3.2575983, "tags": {"amenity": "cafe"}}, {"type": "node", "id": 5772774334, "lat": 39.4109201, "lon": 3.2598781, "tags": {"amenity": "restaurant", "name": "La Pizza"}}, {"type": "node", "id": 5772774335, "lat": 39.4116078, "lon": 3.2599605, "tags": {"amenity": "restaurant", "cuisine": "thai", "name": "Thai Colom", "name:ca": "Thai Colom"}}, {"type": "node", "id": 5772774338, "lat": 39.4143488, "lon": 3.2599067, "tags": {"amenity": "cafe", "name": "Isla"}}, {"type": "node", "id": 5772774339, "lat": 39.4144663, "lon": 3.2597451, "tags": {"amenity": "restaurant", "name": "Es s\u00edmbol", "name:ca": "Es s\u00edmbol", "phone": "971 82 47 17"}}, {"type": "node", "id": 5773031020, "lat": 39.5647002, "lon": 3.3726954, "tags": {"amenity": "cafe", "name": "Sun beach"}}, {"type": "node", "id": 5775007196, "lat": 39.5186066, "lon": 3.3136008, "tags": {"amenity": "restaurant", "name": "Snack La Torre", "opening_hours": "Mo-Su 10:30-18:00"}}, {"type": "node", "id": 5783851430, "lat": 39.5655788, "lon": 3.2063039, "tags": {"amenity": "cafe", "name": "Embulls"}}, {"type": "node", "id": 5784244952, "lat": 39.5720438, "lon": 3.21594, "tags": {"amenity": "cafe", "name": "es Passeig"}}, {"type": "node", "id": 5801776153, "lat": 39.5414364, "lon": 3.3357448, "tags": {"amenity": "restaurant", "cuisine": "mediterranean", "name": "La galerna"}}, {"type": "node", "id": 5817736739, "lat": 39.561671, "lon": 3.2069321, "tags": {"amenity": "restaurant", "name": "1990"}}, {"type": "node", "id": 5817761799, "lat": 39.5617398, "lon": 3.2081032, "tags": {"amenity": "cafe", "name": "Continente"}}, {"type": "node", "id": 5824227767, "lat": 39.6354198, "lon": 3.4138561}, {"type": "node", "id": 5824227768, "lat": 39.6353408, "lon": 3.4138136}, {"type": "node", "id": 5824227769, "lat": 39.6353081, "lon": 3.4139159}, {"type": "node", "id": 5824227770, "lat": 39.6353871, "lon": 3.4139584}, {"type": "node", "id": 5832843593, "lat": 39.561721, "lon": 3.2018647}, {"type": "node", "id": 5832843594, "lat": 39.5615938, "lon": 3.2017198}, {"type": "node", "id": 5832843595, "lat": 39.5616526, "lon": 3.2019572}, {"type": "node", "id": 5832843596, "lat": 39.5615095, "lon": 3.2018317}, {"type": "node", "id": 5832843597, "lat": 39.561528, "lon": 3.2018016}, {"type": "node", "id": 5838536596, "lat": 39.5668249, "lon": 3.2101439, "tags": {"addr:housenumber": "16", "addr:street": "Carrer del Pr\u00edncep", "amenity": "restaurant", "name": "Somnis", "website": "http://somnis.rest/"}}, {"type": "node", "id": 5840287696, "lat": 39.5709823, "lon": 3.2031712, "tags": {"amenity": "cafe", "name": "es Rac\u00f3 des Tren"}}, {"type": "node", "id": 5840302387, "lat": 39.5788267, "lon": 3.3749175, "tags": {"amenity": "restaurant", "name:de": "Taste of India"}}, {"type": "node", "id": 5874038526, "lat": 39.5731991, "lon": 3.2022344, "tags": {"amenity": "restaurant", "name": "Marco Polo"}}, {"type": "node", "id": 5877996305, "lat": 39.5403933, "lon": 3.331616, "tags": {"amenity": "cafe", "name": "N\u00e1utico"}}, {"type": "node", "id": 5882578776, "lat": 39.599221, "lon": 3.3831137, "tags": {"amenity": "cafe", "cuisine": "ice_cream", "name": "La Sirena", "name:ca": "La Sirena", "smoking": "yes", "takeaway": "no", "toilets": "yes"}}, {"type": "node", "id": 5890838499, "lat": 39.3792987, "lon": 3.2373977, "tags": {"amenity": "restaurant", "cuisine": "pizza", "name": "Espiga d'Or"}}, {"type": "node", "id": 5907888185, "lat": 39.3552017, "lon": 3.2085683, "tags": {"amenity": "restaurant", "internet_access": "wlan", "name": "La Finca", "name:ca": "La Finca", "opening_hours": "24/7"}}, {"type": "node", "id": 5975173486, "lat": 39.6005229, "lon": 3.3841342, "tags": {"amenity": "restaurant", "name:de": "Anpfiff"}}, {"type": "node", "id": 5994940539, "lat": 39.6026802, "lon": 3.3834621, "tags": {"amenity": "restaurant", "name": "Faneteria B\u00fcchner"}}, {"type": "node", "id": 5995059463, "lat": 39.4543212, "lon": 3.2696553, "tags": {"amenity": "restaurant", "name": "La Dorada", "name:ca": "La Dorada"}}, {"type": "node", "id": 5995146320, "lat": 39.6100429, "lon": 3.2848758, "tags": {"amenity": "cafe", "name": "Can Neula", "name:ca": "Can Neula"}}, {"type": "node", "id": 5999079646, "lat": 39.5755472, "lon": 3.2054526, "tags": {"amenity": "restaurant", "name": "Ca na Prima"}}, {"type": "node", "id": 6032028112, "lat": 39.5619196, "lon": 3.21051, "tags": {"amenity": "cafe", "name": "es Serral", "name:ca": "es Serral"}}, {"type": "node", "id": 6032028114, "lat": 39.5635137, "lon": 3.2149648, "tags": {"amenity": "restaurant", "name": "Peperoncino"}}, {"type": "node", "id": 6032041318, "lat": 39.5657193, "lon": 3.2207737, "tags": {"amenity": "cafe", "name": "sa Clova"}}, {"type": "node", "id": 6037698552, "lat": 39.5742198, "lon": 3.2083925, "tags": {"amenity": "cafe", "name": "Puc"}}, {"type": "node", "id": 6037698553, "lat": 39.5745074, "lon": 3.2080502, "tags": {"amenity": "cafe", "name": "Cas Bombero"}}, {"type": "node", "id": 6044277068, "lat": 39.4541395, "lon": 3.2701816}, {"type": "node", "id": 6044277069, "lat": 39.4540805, "lon": 3.2701787}, {"type": "node", "id": 6044277070, "lat": 39.4540727, "lon": 3.2704458}, {"type": "node", "id": 6044277071, "lat": 39.4541316, "lon": 3.2704487}, {"type": "node", "id": 6044557007, "lat": 39.5626012, "lon": 3.2045699, "tags": {"amenity": "cafe", "name": "es Cau"}}, {"type": "node", "id": 6052661490, "lat": 39.6120041, "lon": 3.2844209, "tags": {"amenity": "restaurant", "name": "Xa na Robina"}}, {"type": "node", "id": 6110397743, "lat": 39.4227237, "lon": 3.2295041}, {"type": "node", "id": 6110397744, "lat": 39.4226803, "lon": 3.2294787}, {"type": "node", "id": 6110397745, "lat": 39.4226526, "lon": 3.2295582}, {"type": "node", "id": 6110397746, "lat": 39.4225213, "lon": 3.2294813}, {"type": "node", "id": 6110397747, "lat": 39.422592, "lon": 3.2292788}, {"type": "node", "id": 6110397748, "lat": 39.4226744, "lon": 3.229327}, {"type": "node", "id": 6110397749, "lat": 39.4227069, "lon": 3.2292338}, {"type": "node", "id": 6110397750, "lat": 39.4224906, "lon": 3.2291072}, {"type": "node", "id": 6110397751, "lat": 39.422515, "lon": 3.2290373}, {"type": "node", "id": 6110397752, "lat": 39.4227801, "lon": 3.2291924}, {"type": "node", "id": 6110397753, "lat": 39.4227512, "lon": 3.2292754}, {"type": "node", "id": 6110397754, "lat": 39.4227947, "lon": 3.2293008}, {"type": "node", "id": 6132554153, "lat": 39.5640963, "lon": 3.2051016, "tags": {"amenity": "cafe", "name": "Cas Frau"}}, {"type": "node", "id": 6187459244, "lat": 39.5443397, "lon": 3.33173, "tags": {"amenity": "cafe", "name": "Jumilla"}}, {"type": "node", "id": 6199550682, "lat": 39.5641934, "lon": 3.3739987, "tags": {"amenity": "restaurant", "name": "ses Closques"}}, {"type": "node", "id": 6352983889, "lat": 39.427355, "lon": 3.2651778, "tags": {"amenity": "cafe", "name": "s'Algar", "name:ca": "s'Algar", "opening_hours": "Mo-Sa 09:00-16:00"}}, {"type": "node", "id": 6363593305, "lat": 39.4515596, "lon": 3.2763988}, {"type": "node", "id": 6363593306, "lat": 39.4517375, "lon": 3.2764324}, {"type": "node", "id": 6363593307, "lat": 39.45172, "lon": 3.2765881}, {"type": "node", "id": 6363593308, "lat": 39.4515421, "lon": 3.2765545}, {"type": "node", "id": 6363593325, "lat": 39.4491883, "lon": 3.2743947}, {"type": "node", "id": 6363593326, "lat": 39.4492353, "lon": 3.2742973}, {"type": "node", "id": 6363593327, "lat": 39.4491201, "lon": 3.2743395}, {"type": "node", "id": 6363593328, "lat": 39.4491918, "lon": 3.2741909}, {"type": "node", "id": 6363593329, "lat": 39.44926, "lon": 3.274246}, {"type": "node", "id": 6374803699, "lat": 39.6332206, "lon": 3.3982561}, {"type": "node", "id": 6374803700, "lat": 39.6332631, "lon": 3.3981407}, {"type": "node", "id": 6374803701, "lat": 39.6332497, "lon": 3.3981541}, {"type": "node", "id": 6374803702, "lat": 39.6332433, "lon": 3.3981954}, {"type": "node", "id": 6374803706, "lat": 39.6332359, "lon": 3.3981908}, {"type": "node", "id": 6450690294, "lat": 39.5689466, "lon": 3.2023704}, {"type": "node", "id": 6450690295, "lat": 39.5691804, "lon": 3.2022398}, {"type": "node", "id": 6450690296, "lat": 39.5691357, "lon": 3.2021693}, {"type": "node", "id": 6450690297, "lat": 39.568939, "lon": 3.2022835}, {"type": "node", "id": 6450690298, "lat": 39.5689282, "lon": 3.2023148}, {"type": "node", "id": 6461083542, "lat": 39.6114261, "lon": 3.3839479}, {"type": "node", "id": 6461083543, "lat": 39.6115817, "lon": 3.384051}, {"type": "node", "id": 6461083544, "lat": 39.6115337, "lon": 3.384173}, {"type": "node", "id": 6461083545, "lat": 39.6116319, "lon": 3.3842381}, {"type": "node", "id": 6461083546, "lat": 39.6116649, "lon": 3.3841543}, {"type": "node", "id": 6461083547, "lat": 39.6118045, "lon": 3.3838331}, {"type": "node", "id": 6461083548, "lat": 39.6117532, "lon": 3.3837991}, {"type": "node", "id": 6461083549, "lat": 39.6117361, "lon": 3.3838426}, {"type": "node", "id": 6461083550, "lat": 39.6114729, "lon": 3.3838288}, {"type": "node", "id": 6461083551, "lat": 39.6115595, "lon": 3.3838862}, {"type": "node", "id": 6461083552, "lat": 39.611532, "lon": 3.383956}, {"type": "node", "id": 6461083553, "lat": 39.611596, "lon": 3.3839985}, {"type": "node", "id": 6461083554, "lat": 39.6115399, "lon": 3.3837124}, {"type": "node", "id": 6461083555, "lat": 39.6116293, "lon": 3.3838241}, {"type": "node", "id": 6461083556, "lat": 39.6115236, "lon": 3.3837539}, {"type": "node", "id": 6461083558, "lat": 39.6116059, "lon": 3.3838835}, {"type": "node", "id": 6461083559, "lat": 39.611634, "lon": 3.3839021}, {"type": "node", "id": 6461083560, "lat": 39.6117555, "lon": 3.3839574}, {"type": "node", "id": 6461083561, "lat": 39.6117763, "lon": 3.3839713}, {"type": "node", "id": 6461083562, "lat": 39.6117144, "lon": 3.3841282}, {"type": "node", "id": 6461083563, "lat": 39.6116962, "lon": 3.3841161}, {"type": "node", "id": 6461083564, "lat": 39.6116778, "lon": 3.3841629}, {"type": "node", "id": 6461467139, "lat": 39.6183988, "lon": 3.3635137, "tags": {"amenity": "cafe", "name": "s'Entrada"}}, {"type": "node", "id": 6462008211, "lat": 39.5695353, "lon": 3.2066315, "tags": {"amenity": "cafe", "name": "es Claustre"}}, {"type": "node", "id": 6484183599, "lat": 39.615014, "lon": 3.3910671}, {"type": "node", "id": 6484183600, "lat": 39.6149659, "lon": 3.391134}, {"type": "node", "id": 6484183601, "lat": 39.6148494, "lon": 3.3909928}, {"type": "node", "id": 6484183604, "lat": 39.6148975, "lon": 3.3909259}, {"type": "node", "id": 6484283584, "lat": 39.3735011, "lon": 3.2318674, "tags": {"amenity": "restaurant", "name": "Ca'n Bernad\u00ed"}}, {"type": "node", "id": 6484284185, "lat": 39.3738131, "lon": 3.2322382, "tags": {"amenity": "restaurant"}}, {"type": "node", "id": 6494349689, "lat": 39.3736554, "lon": 3.2271382, "tags": {"amenity": "restaurant", "name": "la vermuteria"}}, {"type": "node", "id": 6494393886, "lat": 39.37378, "lon": 3.2298385, "tags": {"amenity": "restaurant", "name": "la bodega mallorca"}}, {"type": "node", "id": 6570661985, "lat": 39.5690793, "lon": 3.2107418, "tags": {"addr:housenumber": "8", "addr:street": "pla\u00e7a del Rector Rub\u00ed", "amenity": "cafe", "diet:vegetarian": "yes", "email": "elpalaucafe@hotmail.com", "internet_access": "wlan", "name": "El Palau", "name:ca": "El Palau", "opening_hours": "Mo-Su 09:00-21:00", "wheelchair": "limited"}}, {"type": "node", "id": 6628655137, "lat": 39.5627325, "lon": 3.3700288, "tags": {"amenity": "cafe", "indoor_seating": "yes", "outdoor_seating": "yes"}}, {"type": "node", "id": 6657278289, "lat": 39.5685586, "lon": 3.2101996, "tags": {"amenity": "restaurant", "name": "En tre vins"}}, {"type": "node", "id": 6673746004, "lat": 39.5227532, "lon": 3.3121352, "tags": {"amenity": "cafe", "name": "Chiringo"}}, {"type": "node", "id": 6673852249, "lat": 39.5225795, "lon": 3.3117461, "tags": {"amenity": "restaurant"}}, {"type": "node", "id": 6721844659, "lat": 39.5780907, "lon": 3.2063689}, {"type": "node", "id": 6721844660, "lat": 39.578239, "lon": 3.2062815}, {"type": "node", "id": 6721844661, "lat": 39.5783279, "lon": 3.2065352}, {"type": "node", "id": 6721844662, "lat": 39.5781796, "lon": 3.2066226}, {"type": "node", "id": 6721923667, "lat": 39.5410799, "lon": 3.3333982, "tags": {"amenity": "restaurant", "name": "Black & Blue"}}, {"type": "node", "id": 6798910044, "lat": 39.5672818, "lon": 3.2114617, "tags": {"amenity": "restaurant", "name": "La Ensalader\u00eda"}}, {"type": "node", "id": 6872033500, "lat": 39.3771716, "lon": 3.2359624, "tags": {"amenity": "restaurant", "level": "1", "name": "Es Cal\u00f3", "opening_hours": "PH,Mo-Su 08:00-11:00,18:00-21:00"}}, {"type": "node", "id": 6872033501, "lat": 39.377214, "lon": 3.2361156, "tags": {"amenity": "cafe", "internet_access": "wlan", "internet_access:fee": "no", "outdoor_seating": "yes"}}, {"type": "node", "id": 6874132250, "lat": 39.5200152, "lon": 3.3097524, "tags": {"amenity": "restaurant", "name": "Punta Rom\u00e0ntica"}}, {"type": "node", "id": 6874132253, "lat": 39.5199366, "lon": 3.310423, "tags": {"amenity": "cafe", "name": "las Ca\u00f1itas"}}, {"type": "node", "id": 6874132259, "lat": 39.5191232, "lon": 3.3144712, "tags": {"amenity": "cafe"}}, {"type": "node", "id": 6879503539, "lat": 39.5169893, "lon": 3.3103522, "tags": {"amenity": "restaurant", "name": "Vela beach"}}, {"type": "node", "id": 6879538971, "lat": 39.3740748, "lon": 3.2284617, "tags": {"amenity": "restaurant", "name": "Lola"}}, {"type": "node", "id": 6879539435, "lat": 39.5678746, "lon": 3.2098725, "tags": {"amenity": "restaurant", "name": "Il bistrot"}}, {"type": "node", "id": 6879539640, "lat": 39.567929, "lon": 3.3733332, "tags": {"amenity": "restaurant", "name": "Antic"}}, {"type": "node", "id": 6879540465, "lat": 39.5416241, "lon": 3.3358633, "tags": {"amenity": "restaurant", "name": "Latitud"}}, {"type": "node", "id": 6979199982, "lat": 39.4183498, "lon": 3.2592168, "tags": {"amenity": "restaurant", "indoor_seating": "yes", "name": "Barefoot", "outdoor_seating": "yes"}}, {"type": "node", "id": 7035588244, "lat": 39.5661533, "lon": 3.207842, "tags": {"amenity": "restaurant", "cuisine": "arab;moroccan", "name": "Ousraf"}}, {"type": "node", "id": 7050401154, "lat": 39.5640546, "lon": 3.2071839, "tags": {"amenity": "cafe", "name": "Puigserver"}}, {"type": "node", "id": 7050403617, "lat": 39.5449381, "lon": 3.3382453, "tags": {"amenity": "restaurant", "name": "Can Taxo", "name:ca": "Can Taxo"}}, {"type": "node", "id": 7056197931, "lat": 39.5690249, "lon": 3.2163412, "tags": {"amenity": "cafe", "name": "ses Moreres"}}, {"type": "node", "id": 7082573659, "lat": 39.4619503, "lon": 3.2780718, "tags": {"amenity": "restaurant", "name": "d'Alfil"}}, {"type": "node", "id": 7082593456, "lat": 39.4215476, "lon": 3.2615104, "tags": {"amenity": "cafe", "indoor_seating": "yes", "name": "Gent gran", "outdoor_seating": "yes"}}, {"type": "node", "id": 7083693345, "lat": 39.5288371, "lon": 3.3106157}, {"type": "node", "id": 7083693346, "lat": 39.5288507, "lon": 3.3106446}, {"type": "node", "id": 7084336832, "lat": 39.377059, "lon": 3.2338429, "tags": {"amenity": "cafe", "name": "Reboreda"}}, {"type": "node", "id": 7084336836, "lat": 39.3783009, "lon": 3.2362167, "tags": {"amenity": "cafe", "name": "Andy's"}}, {"type": "node", "id": 7086977210, "lat": 39.3784692, "lon": 3.2370209, "tags": {"amenity": "restaurant", "name": "el Patio"}}, {"type": "node", "id": 7110914482, "lat": 39.5411521, "lon": 3.334569, "tags": {"amenity": "restaurant", "name": "el Patio"}}, {"type": "node", "id": 7110914483, "lat": 39.5412493, "lon": 3.3347755, "tags": {"amenity": "restaurant", "name": "Tanit"}}, {"type": "node", "id": 7110929433, "lat": 39.5682285, "lon": 3.2128646, "tags": {"amenity": "cafe", "name": "el Punto"}}, {"type": "node", "id": 7115417290, "lat": 39.5608452, "lon": 3.3712541, "tags": {"amenity": "cafe", "name": "ses Xarxes"}}, {"type": "node", "id": 7115417293, "lat": 39.5646592, "lon": 3.3729287, "tags": {"amenity": "cafe", "name": "Delf\u00edn azul"}}, {"type": "node", "id": 7115430760, "lat": 39.5390482, "lon": 3.3324035, "tags": {"amenity": "restaurant", "name": "Porto Beach"}}, {"type": "node", "id": 7115590378, "lat": 39.5739109, "lon": 3.199746, "tags": {"amenity": "cafe", "name": "Cer\u00e0mica"}}, {"type": "node", "id": 7130649600, "lat": 39.6061438, "lon": 3.3885066, "tags": {"amenity": "restaurant", "name": "Yates"}}, {"type": "node", "id": 7165933533, "lat": 39.5434086, "lon": 3.332893, "tags": {"amenity": "cafe", "name": "Onofre"}}, {"type": "node", "id": 7223644753, "lat": 39.5658879, "lon": 3.204243, "tags": {"amenity": "cafe", "name": "sa Torre", "name:ca": "sa Torre"}}, {"type": "node", "id": 7232268716, "lat": 39.6201661, "lon": 3.3604409, "tags": {"amenity": "restaurant", "cuisine": "pizza", "name": "Peperoncino"}}, {"type": "node", "id": 7232274712, "lat": 39.6209966, "lon": 3.3599046, "tags": {"amenity": "cafe", "name": "Bar Nou", "name:ca": "Bar Nou"}}, {"type": "node", "id": 7232274713, "lat": 39.6207947, "lon": 3.3597819}, {"type": "node", "id": 7232274714, "lat": 39.6208935, "lon": 3.359913}, {"type": "node", "id": 7232274715, "lat": 39.6208398, "lon": 3.3599799}, {"type": "node", "id": 7232274716, "lat": 39.6207872, "lon": 3.359966}, {"type": "node", "id": 7232274717, "lat": 39.6207153, "lon": 3.3598809}, {"type": "node", "id": 7246915665, "lat": 39.5716454, "lon": 3.21555, "tags": {"amenity": "cafe", "name": "Alameda", "name:ca": "Alameda"}}, {"type": "node", "id": 7264944273, "lat": 39.5713692, "lon": 3.2044221, "tags": {"amenity": "cafe", "name": "\u00c9bano"}}, {"type": "node", "id": 7321739806, "lat": 39.6155841, "lon": 3.3923304, "tags": {"amenity": "restaurant", "indoor_seating": "yes", "name": "Fonoll mar\u00ed", "name:ca": "Fonoll mar\u00ed", "outdoor_seating": "yes", "phone": "0971813883"}}, {"type": "node", "id": 7321739807, "lat": 39.615452, "lon": 3.3923087, "tags": {"amenity": "restaurant", "cuisine": "pizza", "indoor_seating": "yes", "name": "Tasca del Port", "outdoor_seating": "yes"}}, {"type": "node", "id": 7321930703, "lat": 39.6139253, "lon": 3.3900591, "tags": {"amenity": "cafe", "name": "Can Jaume", "name:ca": "Can Jaume"}}, {"type": "node", "id": 7358924291, "lat": 39.5651188, "lon": 3.214398, "tags": {"amenity": "restaurant", "cuisine": "pizza", "name": "Mamma Rosa", "name:ca": "Mamma Rosa"}}, {"type": "node", "id": 7399480616, "lat": 39.5712852, "lon": 3.2065234}, {"type": "node", "id": 7399480619, "lat": 39.5711583, "lon": 3.2065001}, {"type": "node", "id": 7399480620, "lat": 39.5712433, "lon": 3.2065138}, {"type": "node", "id": 7399480621, "lat": 39.5712134, "lon": 3.2064376}, {"type": "node", "id": 7399480622, "lat": 39.5712464, "lon": 3.2064845}, {"type": "node", "id": 7399480637, "lat": 39.5713068, "lon": 3.2063261}, {"type": "node", "id": 7399480638, "lat": 39.5712467, "lon": 3.2063491}, {"type": "node", "id": 7399480639, "lat": 39.5711406, "lon": 3.2064735}, {"type": "node", "id": 7399480640, "lat": 39.5712211, "lon": 3.2063132}, {"type": "node", "id": 7577039532, "lat": 39.566195, "lon": 3.211216, "tags": {"amenity": "cafe", "name": "Col\u00f3n", "name:ca": "Colom"}}, {"type": "node", "id": 7922215129, "lat": 39.4216374, "lon": 3.2616779, "tags": {"addr:street": "Carrer dels Pescadors", "amenity": "restaurant", "cuisine": "spanish", "email": "info@restaurantsallotjaportocolom.com", "name": "sa Llotja", "name:de": "Sa Llotja", "name:en": "Sa Llotja", "name:es": "Sa Llotja", "opening_hours": "Tu-Su 13:00-15:00, 19:00-22:30", "phone": "+34 971 82 51 65", "website": "https://restaurantsallotjaportocolom.com/"}}, {"type": "node", "id": 8074593394, "lat": 39.4786664, "lon": 3.249722}, {"type": "node", "id": 8074593395, "lat": 39.478731, "lon": 3.2499131}, {"type": "node", "id": 8074593396, "lat": 39.4787292, "lon": 3.249689}, {"type": "node", "id": 8074593397, "lat": 39.4787875, "lon": 3.2498826}, {"type": "node", "id": 8074593398, "lat": 39.4787748, "lon": 3.2500337}, {"type": "node", "id": 8074593404, "lat": 39.4798163, "lon": 3.251633}, {"type": "node", "id": 8074593405, "lat": 39.4796168, "lon": 3.2522801}, {"type": "node", "id": 8074593406, "lat": 39.4795512, "lon": 3.2522462}, {"type": "node", "id": 8074593407, "lat": 39.4797505, "lon": 3.251599}, {"type": "node", "id": 8239922178, "lat": 39.5397978, "lon": 3.3334832, "tags": {"amenity": "restaurant", "name": "Can Tauleta", "name:ca": "Can Tauleta"}}, {"type": "node", "id": 8328418539, "lat": 39.5678111, "lon": 3.20974, "tags": {"amenity": "cafe", "name": "Ca na Pereta", "opening_hours:signed": "no"}}, {"type": "node", "id": 8328548815, "lat": 39.5728509, "lon": 3.2025258}, {"type": "node", "id": 8328548816, "lat": 39.5729182, "lon": 3.2024885}, {"type": "node", "id": 8328555317, "lat": 39.5728843, "lon": 3.2023859}, {"type": "node", "id": 8328555318, "lat": 39.572817, "lon": 3.2024233}, {"type": "node", "id": 8583381817, "lat": 39.5648316, "lon": 3.3721113, "tags": {"addr:housenumber": "4", "addr:postcode": "07687", "addr:street": "Carrer dels Sipions", "amenity": "cafe", "name": "D&D", "name:es": "D&D  zum Mitnehmen", "phone": "+34 650 10 70 93"}}, {"type": "node", "id": 8692696757, "lat": 39.5680961, "lon": 3.2157897, "tags": {"amenity": "cafe", "name": "Gomila"}}, {"type": "node", "id": 8827800866, "lat": 39.5619463, "lon": 3.2051364, "tags": {"amenity": "cafe", "name": "Ronda", "name:ca": "Ronda"}}, {"type": "node", "id": 8828234109, "lat": 39.523086, "lon": 3.3176145, "tags": {"amenity": "restaurant", "name": "Cala Anguila", "name:ca": "Cala Anguila"}}, {"type": "node", "id": 8897365507, "lat": 39.4571794, "lon": 3.2760815}, {"type": "node", "id": 8897401374, "lat": 39.4569812, "lon": 3.2759938}, {"type": "node", "id": 8897401375, "lat": 39.4570819, "lon": 3.2760326}, {"type": "node", "id": 8897401376, "lat": 39.4569908, "lon": 3.2760924}, {"type": "node", "id": 8897401391, "lat": 39.4570795, "lon": 3.2758943}, {"type": "node", "id": 8983612177, "lat": 39.4072362, "lon": 3.2085981, "tags": {"amenity": "restaurant", "name": "Can Cap\u00f3"}}, {"type": "node", "id": 8984003317, "lat": 39.6019455, "lon": 3.3834305, "tags": {"addr:housenumber": "15", "addr:street": "Carrer Ca s'Hereu", "amenity": "restaurant", "cuisine": "german;international", "diet:fish": "yes", "diet:gluten_free": "yes", "diet:meat": "yes", "diet:vegan": "yes", "diet:vegetarian": "yes", "name": "Yolo", "opening_hours": "17:00 - 23:00", "phone": "0034 64 38 2000 6"}}, {"type": "node", "id": 8984037618, "lat": 39.6017167, "lon": 3.3821581, "tags": {"amenity": "restaurant", "cuisine": "burger", "name:en": "Hamburgueseria Can Juan"}}, {"type": "node", "id": 9027147833, "lat": 39.6007806, "lon": 3.382289, "tags": {"amenity": "restaurant", "name": "Asia", "outdoor_seating": "yes"}}, {"type": "node", "id": 9033366401, "lat": 39.6010542, "lon": 3.3808191}, {"type": "node", "id": 9033366402, "lat": 39.6010485, "lon": 3.3808364}, {"type": "node", "id": 9033366403, "lat": 39.6010293, "lon": 3.3808257}, {"type": "node", "id": 9034313978, "lat": 39.6170596, "lon": 3.3920583}, {"type": "node", "id": 9034313979, "lat": 39.6170719, "lon": 3.3920533}, {"type": "node", "id": 9034313980, "lat": 39.6168982, "lon": 3.3918697}, {"type": "node", "id": 9034313981, "lat": 39.6169367, "lon": 3.3918545}, {"type": "node", "id": 9034313982, "lat": 39.6169454, "lon": 3.391851}, {"type": "node", "id": 9034313983, "lat": 39.6168895, "lon": 3.3918732}, {"type": "node", "id": 9034313984, "lat": 39.6169127, "lon": 3.3919305}, {"type": "node", "id": 9034313985, "lat": 39.6169512, "lon": 3.391915}, {"type": "node", "id": 9034313986, "lat": 39.6169708, "lon": 3.3918068}, {"type": "node", "id": 9034313987, "lat": 39.6169686, "lon": 3.3917973}, {"type": "node", "id": 9034313988, "lat": 39.6169357, "lon": 3.3918106}, {"type": "node", "id": 9034313989, "lat": 39.6168493, "lon": 3.3918541}, {"type": "node", "id": 9034313990, "lat": 39.6168474, "lon": 3.3918458}, {"type": "node", "id": 9034313991, "lat": 39.6168798, "lon": 3.3918327}, {"type": "node", "id": 9034313992, "lat": 39.6169131, "lon": 3.3921179}, {"type": "node", "id": 9034313993, "lat": 39.6169059, "lon": 3.3920879}, {"type": "node", "id": 9034313994, "lat": 39.6169184, "lon": 3.3920828}, {"type": "node", "id": 9034313995, "lat": 39.6168737, "lon": 3.3921338}, {"type": "node", "id": 9034344461, "lat": 39.6137084, "lon": 3.3915829}, {"type": "node", "id": 9034344482, "lat": 39.6136195, "lon": 3.3917821}, {"type": "node", "id": 9044246417, "lat": 39.4265252, "lon": 3.2640806, "tags": {"addr:housenumber": "11", "addr:postcode": "07670", "addr:street": "Carrer de s'Algar", "amenity": "restaurant", "cuisine": "italian;italian_pizza", "name": "Alegria", "opening_hours": "Th-Mo 18:00-22:30", "phone": "+34 693 77 83 01"}}, {"type": "node", "id": 9083789600, "lat": 39.5799459, "lon": 3.3776456}, {"type": "node", "id": 9090902294, "lat": 39.374906, "lon": 3.2297533, "tags": {"amenity": "restaurant", "cuisine": "italian;pizza", "name": "Pizzer\u00eda Neptuno"}}, {"type": "node", "id": 9097215445, "lat": 39.5864949, "lon": 3.3569469}, {"type": "node", "id": 9097215446, "lat": 39.5865174, "lon": 3.3569118}, {"type": "node", "id": 9122995917, "lat": 39.4090976, "lon": 3.2582625, "tags": {"amenity": "restaurant", "name:de": "Kaikuana Beach", "name:en": "Kaikuana Beach"}}, {"type": "node", "id": 9124916760, "lat": 39.5663261, "lon": 3.2115751, "tags": {"amenity": "restaurant", "cuisine": "chinese", "name": "Gran Muralla"}}, {"type": "node", "id": 9172048761, "lat": 39.5392312, "lon": 3.3335602, "tags": {"amenity": "restaurant", "check_date": "2023-12-11", "name": "Sa Pedra"}}, {"type": "node", "id": 9318827205, "lat": 39.6066182, "lon": 3.2869246, "tags": {"amenity": "restaurant", "name": "s'Estaci\u00f3 de Sant Llorenc"}}, {"type": "node", "id": 9471659917, "lat": 39.6009715, "lon": 3.3839685, "tags": {"amenity": "cafe", "name:en": "Cafe Osiris"}}, {"type": "node", "id": 9471660017, "lat": 39.6013761, "lon": 3.3841687, "tags": {"amenity": "cafe", "name": "Caf\u00e9 Bar Mallorca"}}, {"type": "node", "id": 9553007970, "lat": 39.5402534, "lon": 3.3322813, "tags": {"addr:city": "Porto Cristo", "addr:country": "ES", "addr:housenumber": "1", "addr:postcode": "07680", "addr:street": "Passatge del Riuet", "amenity": "restaurant", "cuisine": "regional", "email": "portobelloportocristo@gmail.com", "name": "Porto Bello", "outdoor_seating": "yes", "phone": "+34 971 821296"}}, {"type": "node", "id": 9723490281, "lat": 39.5723029, "lon": 3.2013102, "tags": {"amenity": "cafe", "name": "Sa Foganya"}}, {"type": "node", "id": 9795534303, "lat": 39.5177941, "lon": 3.300459}, {"type": "node", "id": 9795625511, "lat": 39.5181534, "lon": 3.3005598}, {"type": "node", "id": 9795625512, "lat": 39.5181533, "lon": 3.3005395}, {"type": "node", "id": 9863633622, "lat": 39.6161042, "lon": 3.392363, "tags": {"amenity": "restaurant", "cuisine": "indian", "indoor_seating": "yes", "name": "Kashmir", "outdoor_seating": "yes"}}, {"type": "node", "id": 9863635502, "lat": 39.6153862, "lon": 3.3921909, "tags": {"amenity": "restaurant", "cuisine": "italian", "indoor_seating": "yes", "name": "Paparazzi", "outdoor_seating": "yes"}}, {"type": "node", "id": 9863657485, "lat": 39.6138943, "lon": 3.3911927, "tags": {"amenity": "restaurant", "indoor_seating": "yes", "name": "Smithy's", "outdoor_seating": "yes"}}, {"type": "node", "id": 9863667141, "lat": 39.6153326, "lon": 3.3921232, "tags": {"amenity": "restaurant", "indoor_seating": "yes", "name": "Cafe Nautic", "outdoor_seating": "yes"}}, {"type": "node", "id": 9864308587, "lat": 39.6131136, "lon": 3.3895672, "tags": {"amenity": "restaurant", "name": "Cavall d'Or", "name:ca": "Cavall d'Or"}}, {"type": "node", "id": 9864353476, "lat": 39.6128321, "lon": 3.3898561, "tags": {"amenity": "restaurant", "cuisine": "chinese", "name": "Modu"}}, {"type": "node", "id": 9866295190, "lat": 39.6119993, "lon": 3.389537, "tags": {"amenity": "cafe", "name": "Cafe Sureda"}}, {"type": "node", "id": 9870195406, "lat": 39.6137636, "lon": 3.3914531, "tags": {"amenity": "restaurant", "cuisine": "indian", "name": "Tandoori Nights"}}, {"type": "node", "id": 9870197263, "lat": 39.6138059, "lon": 3.3913596, "tags": {"amenity": "restaurant", "indoor_seating": "yes", "name": "Porto Bello", "outdoor_seating": "yes"}}, {"type": "node", "id": 9870202948, "lat": 39.6136875, "lon": 3.391538, "tags": {"amenity": "restaurant", "cuisine": "fish", "name": "Janet and Johns"}}, {"type": "node", "id": 9902521174, "lat": 39.5599794, "lon": 3.3543154}, {"type": "node", "id": 9902521175, "lat": 39.5599078, "lon": 3.3543547}, {"type": "node", "id": 9902521176, "lat": 39.5599963, "lon": 3.3544648}, {"type": "node", "id": 9902521177, "lat": 39.5600298, "lon": 3.3544528}, {"type": "node", "id": 9902521178, "lat": 39.5603349, "lon": 3.3543242}, {"type": "node", "id": 9902521179, "lat": 39.5603438, "lon": 3.3543496}, {"type": "node", "id": 9902521180, "lat": 39.5603513, "lon": 3.3538955}, {"type": "node", "id": 9902521181, "lat": 39.560353, "lon": 3.3539317}, {"type": "node", "id": 9908087185, "lat": 39.5994652, "lon": 3.383186, "tags": {"amenity": "restaurant", "name": "Tomeu"}}, {"type": "node", "id": 9910984717, "lat": 39.4541392, "lon": 3.2700003, "tags": {"amenity": "cafe", "name": "Bonissim Gourmet"}}, {"type": "node", "id": 9916524317, "lat": 39.4541056, "lon": 3.2703098, "tags": {"amenity": "cafe", "internet_access": "wlan", "name": "Torrente"}}, {"type": "node", "id": 9921371311, "lat": 39.361183, "lon": 3.2104203, "tags": {"amenity": "restaurant", "name": "Rafael y Flora"}}, {"type": "node", "id": 9921431217, "lat": 39.3609668, "lon": 3.2092608, "tags": {"addr:city": "Porto Petro", "addr:housenumber": "15", "addr:postcode": "07691", "addr:street": "passeig del Port", "air_conditioning": "yes", "amenity": "cafe", "check_date": "2023-07-29", "cuisine": "ice_cream;crepe", "internet_access": "no", "name": "Southeast", "outdoor_seating": "yes", "payment:cards": "no", "payment:cash": "yes", "payment:credit_cards": "no", "payment:debit_cards": "no", "website": "https://www.rafaels-icecream.com/", "wheelchair": "yes"}}, {"type": "node", "id": 9930343588, "lat": 39.5990554, "lon": 3.3829631, "tags": {"amenity": "cafe"}}, {"type": "node", "id": 9930351319, "lat": 39.59724, "lon": 3.3843163, "tags": {"amenity": "cafe", "name": "Cafs La Mar"}}, {"type": "node", "id": 9950232566, "lat": 39.4125596, "lon": 3.2639097, "tags": {"amenity": "restaurant", "name": "Orange Colom"}}, {"type": "node", "id": 9997585495, "lat": 39.5685135, "lon": 3.2087904, "tags": {"amenity": "restaurant", "cuisine": "italian", "name": "Osteria Pane & Olio"}}, {"type": "node", "id": 10061382985, "lat": 39.5861619, "lon": 3.3204089}, {"type": "node", "id": 10061382986, "lat": 39.5861133, "lon": 3.3204247}, {"type": "node", "id": 10061382987, "lat": 39.5861395, "lon": 3.3205599}, {"type": "node", "id": 10061382988, "lat": 39.5861881, "lon": 3.3205441}, {"type": "node", "id": 10061544625, "lat": 39.6218242, "lon": 3.3594216, "tags": {"amenity": "cafe", "name": "es Mol\u00ed", "name:ca": "es Mol\u00ed"}}, {"type": "node", "id": 10102059318, "lat": 39.4092854, "lon": 3.2577733, "tags": {"amenity": "restaurant", "diet:vegan": "yes", "diet:vegetarian": "yes", "indoor_seating": "yes", "level": "0", "name": "Restaurant Organic", "opening_hours": "Th-Su 10:00-22:00", "organic": "only", "outdoor_seating": "yes", "payment:cash": "yes", "payment:credit_cards": "yes", "payment:debit_cards": "yes", "wheelchair": "yes"}}, {"type": "node", "id": 10181203064, "lat": 39.5691614, "lon": 3.2021827}, {"type": "node", "id": 10277991988, "lat": 39.56891, "lon": 3.2033325, "tags": {"amenity": "restaurant", "name": "Brusca"}}, {"type": "node", "id": 10277991990, "lat": 39.568813, "lon": 3.2102659, "tags": {"addr:housenumber": "8", "addr:street": "pla\u00e7a del General Weyler", "amenity": "restaurant", "name": "zerO"}}, {"type": "node", "id": 10298367128, "lat": 39.3608491, "lon": 3.2096791, "tags": {"amenity": "restaurant", "name": "Goli"}}, {"type": "node", "id": 10735812229, "lat": 39.606066, "lon": 3.2771586}, {"type": "node", "id": 10735812230, "lat": 39.606053, "lon": 3.2771426}, {"type": "node", "id": 10735812231, "lat": 39.6060323, "lon": 3.2771709}, {"type": "node", "id": 10735812232, "lat": 39.60602, "lon": 3.2771558}, {"type": "node", "id": 10735812233, "lat": 39.6060991, "lon": 3.2771135}, {"type": "node", "id": 10735812234, "lat": 39.6060651, "lon": 3.2770714}, {"type": "node", "id": 10735812235, "lat": 39.605976, "lon": 3.277115}, {"type": "node", "id": 10735812236, "lat": 39.605982, "lon": 3.2771225}, {"type": "node", "id": 10735812237, "lat": 39.605907, "lon": 3.2772091}, {"type": "node", "id": 10735812238, "lat": 39.6060037, "lon": 3.2770928}, {"type": "node", "id": 10735812239, "lat": 39.605892, "lon": 3.2769785}, {"type": "node", "id": 10735812240, "lat": 39.6059187, "lon": 3.276942}, {"type": "node", "id": 10735812241, "lat": 39.6059286, "lon": 3.2770237}, {"type": "node", "id": 10735812242, "lat": 39.6059507, "lon": 3.2770273}, {"type": "node", "id": 10735812243, "lat": 39.6059707, "lon": 3.277}, {"type": "node", "id": 10735812244, "lat": 39.6059577, "lon": 3.2769839}, {"type": "node", "id": 10735812245, "lat": 39.6059086, "lon": 3.2769294}, {"type": "node", "id": 10735812246, "lat": 39.6059396, "lon": 3.2768872}, {"type": "node", "id": 10839644220, "lat": 39.5984201, "lon": 3.3832945}, {"type": "node", "id": 10839644221, "lat": 39.598292, "lon": 3.3832175}, {"type": "node", "id": 10839644222, "lat": 39.5983424, "lon": 3.3830765}, {"type": "node", "id": 10839644223, "lat": 39.5984704, "lon": 3.3831534}, {"type": "node", "id": 10852871507, "lat": 39.5968383, "lon": 3.3829075, "tags": {"amenity": "cafe", "name": "Cala Millor"}}, {"type": "node", "id": 10929848518, "lat": 39.5414668, "lon": 3.3354624, "tags": {"amenity": "cafe", "description": "Baguette Milkshake Smoothies Coffee", "name": "Sa Toviassa"}}, {"type": "node", "id": 10962001816, "lat": 39.5729169, "lon": 3.2024847}, {"type": "node", "id": 10962001818, "lat": 39.5729003, "lon": 3.2024343}, {"type": "node", "id": 10963652550, "lat": 39.5644144, "lon": 3.3732733, "tags": {"addr:city": "S'Illot", "addr:housenumber": "12", "addr:postcode": "07687", "addr:street": "Ronda del Mat\u00ed", "amenity": "cafe", "check_date": "2023-06-08", "check_date:currency:XBT": "2025-05-02", "currency:XBT": "yes", "name": "Caf\u00e9 S\u2019illot", "payment:lightning": "yes", "payment:lightning_contactless": "yes", "website": "https://www.cafesillot.free.nf/"}}, {"type": "node", "id": 10977315830, "lat": 39.571224, "lon": 3.2063136}, {"type": "node", "id": 10977315838, "lat": 39.5712058, "lon": 3.206397}, {"type": "node", "id": 10977315842, "lat": 39.5711908, "lon": 3.2064633}, {"type": "node", "id": 10977315844, "lat": 39.5712196, "lon": 3.2064466}, {"type": "node", "id": 10977315846, "lat": 39.5712311, "lon": 3.2064635}, {"type": "node", "id": 10977315848, "lat": 39.5712335, "lon": 3.2063332}, {"type": "node", "id": 10995280075, "lat": 39.5709795, "lon": 3.207887}, {"type": "node", "id": 10995554705, "lat": 39.5971373, "lon": 3.3839627, "tags": {"amenity": "restaurant", "description": "Pizza, Burger, Salad, Wraps", "name": "Cafe Beach"}}, {"type": "node", "id": 11030453595, "lat": 39.5616086, "lon": 3.2019185}, {"type": "node", "id": 11030696170, "lat": 39.5615926, "lon": 3.2017212}, {"type": "node", "id": 11104579510, "lat": 39.4230236, "lon": 3.2614782, "tags": {"amenity": "restaurant", "name:en": "la tapa"}}, {"type": "node", "id": 11104580606, "lat": 39.5996944, "lon": 3.3847344, "tags": {"amenity": "restaurant", "name:en": "Hollywood"}}, {"type": "node", "id": 11145073003, "lat": 39.5718168, "lon": 3.2178891, "tags": {"amenity": "restaurant", "name": "Mania"}}, {"type": "node", "id": 11186563568, "lat": 39.6333315, "lon": 3.3982644}, {"type": "node", "id": 11186563571, "lat": 39.6333, "lon": 3.3983486}, {"type": "node", "id": 11186563572, "lat": 39.633193, "lon": 3.3983286}, {"type": "node", "id": 11186563573, "lat": 39.6331973, "lon": 3.3983172}, {"type": "node", "id": 11186563574, "lat": 39.6332565, "lon": 3.3981584}, {"type": "node", "id": 11186563581, "lat": 39.6331724, "lon": 3.3989664}, {"type": "node", "id": 11186563582, "lat": 39.6330975, "lon": 3.3989239}, {"type": "node", "id": 11186563586, "lat": 39.6331628, "lon": 3.3990231}, {"type": "node", "id": 11186563595, "lat": 39.6327749, "lon": 3.3997325}, {"type": "node", "id": 11186563596, "lat": 39.6327265, "lon": 3.3996401}, {"type": "node", "id": 11186563597, "lat": 39.6329142, "lon": 3.3995382}, {"type": "node", "id": 11186563598, "lat": 39.6329082, "lon": 3.3995542}, {"type": "node", "id": 11188923729, "lat": 39.6330098, "lon": 3.3995376}, {"type": "node", "id": 11188923731, "lat": 39.6329964, "lon": 3.3995291}, {"type": "node", "id": 11188923732, "lat": 39.6329548, "lon": 3.3995027}, {"type": "node", "id": 11188923733, "lat": 39.6330021, "lon": 3.3995142}, {"type": "node", "id": 11188923737, "lat": 39.6329699, "lon": 3.3996433}, {"type": "node", "id": 11188923742, "lat": 39.6328921, "lon": 3.3997602}, {"type": "node", "id": 11230653421, "lat": 39.6223511, "lon": 3.391862, "tags": {"access": "customers", "amenity": "restaurant", "diet:vegan": "yes", "diet:vegetarian": "yes", "highchair": "yes", "indoor_seating": "yes", "name": "The Restaurant", "outdoor_seating": "yes"}}, {"type": "node", "id": 11233575828, "lat": 39.6206468, "lon": 3.3914321, "tags": {"access": "customers", "air_conditioning": "yes", "amenity": "restaurant", "diet:vegan": "no", "diet:vegetarian": "yes", "drinking_water:refill": "yes", "indoor_seating": "yes", "name": "Taverna", "opening_hours": "11:00-17:00;18:15-21:15", "outdoor_seating": "yes", "smoking": "no"}}, {"type": "node", "id": 11251006455, "lat": 39.5362877, "lon": 3.3322649, "tags": {"addr:housenumber": "1", "addr:street": "Carrer del Gambi", "amenity": "cafe"}}, {"type": "node", "id": 11264224876, "lat": 39.4621468, "lon": 3.2781734, "tags": {"addr:city": "Calas de Mallorca", "addr:housenumber": "183", "addr:postcode": "07689", "addr:street": "Passeig de Manacor", "amenity": "restaurant", "cuisine": "italian", "name": "Made In Italy"}}, {"type": "node", "id": 11264224878, "lat": 39.4622502, "lon": 3.2783841, "tags": {"addr:street": "Carrer Cala Romanguera", "amenity": "restaurant", "cuisine": "bar_and_grill;grill", "name": "El Grillo"}}, {"type": "node", "id": 11264224879, "lat": 39.4622414, "lon": 3.2785322, "tags": {"amenity": "restaurant", "name": "Maysi"}}, {"type": "node", "id": 11264224882, "lat": 39.4628218, "lon": 3.2785792, "tags": {"addr:street": "Passeig de Manacor", "amenity": "restaurant", "cuisine": "indian;indonesian;thai", "name": "Masala Restaurant", "opening_hours": "Mo-Su 12:00-23:00"}}, {"type": "node", "id": 11285779951, "lat": 39.5638803, "lon": 3.3710806}, {"type": "node", "id": 11409276355, "lat": 39.5721763, "lon": 3.2172002, "tags": {"amenity": "restaurant", "name": "Cas Gallo"}}, {"type": "node", "id": 11622205361, "lat": 39.454497, "lon": 3.2700907}, {"type": "node", "id": 11622205362, "lat": 39.4545336, "lon": 3.2703195}, {"type": "node", "id": 11622205363, "lat": 39.4543964, "lon": 3.2703563}, {"type": "node", "id": 11622205364, "lat": 39.4543598, "lon": 3.2701275}, {"type": "node", "id": 11697336818, "lat": 39.45579, "lon": 3.2649151}, {"type": "node", "id": 11697336819, "lat": 39.4558813, "lon": 3.2650466}, {"type": "node", "id": 11697336820, "lat": 39.4557981, "lon": 3.2653417}, {"type": "node", "id": 11697336821, "lat": 39.4556558, "lon": 3.2652163}, {"type": "node", "id": 11697336830, "lat": 39.455804, "lon": 3.2651235}, {"type": "node", "id": 11697336831, "lat": 39.4558806, "lon": 3.2651859}, {"type": "node", "id": 11697336832, "lat": 39.4559169, "lon": 3.2650387}, {"type": "node", "id": 11697336833, "lat": 39.4559701, "lon": 3.2651144}, {"type": "node", "id": 11697336834, "lat": 39.4559059, "lon": 3.2652069}, {"type": "node", "id": 11697336835, "lat": 39.4556792, "lon": 3.2650773}, {"type": "node", "id": 11697336836, "lat": 39.4557094, "lon": 3.2650972}, {"type": "node", "id": 11697336837, "lat": 39.4558203, "lon": 3.2651507}, {"type": "node", "id": 11819560866, "lat": 39.4078669, "lon": 3.209286, "tags": {"addr:city": "s'Horta", "addr:housenumber": "6", "addr:postcode": "07669", "addr:street": "pla\u00e7a de Sant Isidre", "amenity": "restaurant", "cuisine": "spanish", "diet:vegetarian": "yes", "name": "Bar 3 Edat", "outdoor_seating": "yes", "phone": "+34627165785"}}, {"type": "node", "id": 11917599012, "lat": 39.4225876, "lon": 3.2616747, "tags": {"amenity": "restaurant", "cuisine": "pizza"}}, {"type": "node", "id": 11950446269, "lat": 39.5663389, "lon": 3.2113448, "tags": {"addr:housenumber": "20", "addr:street": "Pla\u00e7a de Ramon Llull", "amenity": "restaurant", "contact:facebook": "https://facebook.com/people/Sushitoday/100069743448929", "contact:instagram": "sushitoday_manacor", "cuisine": "sushi", "email": "sushitoday20@gmail.com", "name": "Sushi Today", "opening_hours": "Th-Tu 12:00-16:00, 19:30-23:00", "phone": "+34 652706700", "website": "https://h5.clewm.net/?url=qr61.cn%2FoTfNNZ%2FqYay5Vt"}}, {"type": "node", "id": 11950772194, "lat": 39.5409766, "lon": 3.3331387, "tags": {"amenity": "restaurant", "check_date": "2024-06-01", "cuisine": "italian;pizza;regional", "name": "Il Purista", "opening_hours": "Mo off; Tu-Su 16:00-22:00", "outdoor_seating": "yes", "payment:cash": "yes", "payment:contactless": "yes", "payment:girocard": "yes", "payment:maestro": "yes", "phone": "+34 679 62 08 79", "source": "local knowledge", "sport": "soccer", "start_date": "2024-05-16", "toilets": "yes", "wheelchair": "limited"}}, {"type": "node", "id": 11962360236, "lat": 39.6014621, "lon": 3.3822479, "tags": {"addr:city": "Son Servera", "addr:housenumber": "18", "addr:postcode": "07560", "addr:street": "Carrer Vinya del Mar", "amenity": "restaurant", "name": "Es Cant\u00f3", "opening_hours": "Mo off; Tu-Sa 09:00-24:00; Su 09:00-20:00", "phone": "+34971940128"}}, {"type": "node", "id": 11976132475, "lat": 39.6105786, "lon": 3.3887425, "tags": {"addr:city": "Son Servera", "addr:housenumber": "33", "addr:postcode": "07559", "addr:street": "Avenida Magnolia", "amenity": "restaurant", "name": "Maria's", "opening_hours": "Mo 07:00-15:00,18:00-23:00; Tu off; We-Su 07:00-15:00,18:00-23:00", "phone": "+34971585068"}}, {"type": "node", "id": 12023826114, "lat": 39.5982236, "lon": 3.3815598, "tags": {"amenity": "restaurant", "cuisine": "chinese", "name": "Shang Hai"}}, {"type": "node", "id": 12055858623, "lat": 39.6105166, "lon": 3.2855852, "tags": {"amenity": "restaurant", "check_date": "2024-07-15", "cuisine": "mediterranean", "name": "El Hontanar", "phone": "+34 971 56 99 49"}}, {"type": "node", "id": 12061084256, "lat": 39.5689926, "lon": 3.2097452, "tags": {"amenity": "cafe", "indoor_seating": "yes", "name": "Chiky", "outdoor_seating": "pedestrian_zone"}}, {"type": "node", "id": 12061104737, "lat": 39.569412, "lon": 3.2094708, "tags": {"amenity": "restaurant", "name": "migimig"}}, {"type": "node", "id": 12061464760, "lat": 39.522163, "lon": 3.3125178, "tags": {"addr:city": "Manacor", "addr:housenumber": "422", "addr:postcode": "07680", "addr:street": "Passeig d'Alfons XII", "amenity": "restaurant", "name": "Verana", "opening_hours": "Mo-We 13:00-22:30; Th off; Fr 13:00-23:00; Sa 18:00-23:00; Su 13:00-22:00", "phone": "+34971616159"}}, {"type": "node", "id": 12149766824, "lat": 39.5824224, "lon": 3.3730711, "tags": {"amenity": "restaurant", "name": "Cardamom"}}, {"type": "node", "id": 12241931239, "lat": 39.5421093, "lon": 3.3340268, "tags": {"addr:housenumber": "23", "addr:street": "Carrer de Sant Sim\u00f3", "amenity": "cafe", "contact:facebook": "https://www.facebook.com/profile.php?id=100082880454734", "description": "Breakfast, Brunch", "name": "Cafeteria Moni", "opening_hours": "Mo, Tu, Th-Su 09:00-18:00", "phone": "+34691292984"}}, {"type": "node", "id": 12460603888, "lat": 39.3710475, "lon": 3.2237316, "tags": {"addr:street": "Avinguda de la Cala Llonga", "amenity": "restaurant", "name": "Port Petit", "nohousenumber": "yes", "phone": "+34 971 643 039", "website": "https://portpetit.com/"}}, {"type": "node", "id": 12463693780, "lat": 39.4201183, "lon": 3.2616595, "tags": {"addr:housenumber": "11", "addr:street": "c/Christofol  Colom", "amenity": "restaurant", "name": "Bocoi"}}, {"type": "node", "id": 12531361947, "lat": 39.5990104, "lon": 3.3845255, "tags": {"addr:city": "Cala Millor", "addr:housenumber": "8", "addr:postcode": "07560", "addr:street": "Paseo Mar", "amenity": "restaurant", "cuisine": "german;spanish;bistro", "name": "Giovannis Strandbistro \"Bei Petra\"", "opening_hours": "Mo-So 11:00 - 17:00", "website": "https://www.bei-petra.com/"}}, {"type": "node", "id": 12646564401, "lat": 39.5690888, "lon": 3.2073573, "tags": {"addr:housenumber": "8", "addr:postcode": "07500", "addr:street": "Pla\u00e7a del Convent", "amenity": "cafe", "cuisine": "bagel;cake;coffee_shop", "name": "SA Bakery Caf\u00e9", "opening_hours": "Mo-Fr 08:30-15:00; Sa 09:00-13:00"}}, {"type": "node", "id": 12726569324, "lat": 39.5659912, "lon": 3.2147001, "tags": {"amenity": "cafe", "name": "De Tot"}}, {"type": "node", "id": 12730739097, "lat": 39.5790906, "lon": 3.3737683, "tags": {"amenity": "cafe", "name": "La Farm\u00e0cia"}}, {"type": "node", "id": 12833194472, "lat": 39.3805419, "lon": 3.2381885}, {"type": "node", "id": 12833194473, "lat": 39.3804133, "lon": 3.238238}, {"type": "node", "id": 12833194474, "lat": 39.3803477, "lon": 3.2379372}, {"type": "node", "id": 12833194475, "lat": 39.3802984, "lon": 3.2378452}, {"type": "node", "id": 12833194476, "lat": 39.3804516, "lon": 3.2378169}, {"type": "node", "id": 12833194477, "lat": 39.3805173, "lon": 3.2378275}, {"type": "node", "id": 12833194478, "lat": 39.3805282, "lon": 3.2379584}, {"type": "node", "id": 12833194479, "lat": 39.3805747, "lon": 3.237962}, {"type": "way", "id": 54500112, "nodes": [686490277, 686490287, 686490351, 686490364, 686490277], "tags": {"addr:street": "Carrer Castell", "amenity": "restaurant", "building": "yes", "cuisine": "mediterranean", "name": "Bar Es Castell - Punta de n'Amer", "name:ca": "Bar Es Castell - Punta de n'Amer", "opening_hours": "Mo-Su 11:00-00:00", "outdoor_seating": "yes", "phone": "+34 637 52 46 47"}}, {"type": "way", "id": 208260582, "nodes": [2185738731, 2185738669, 2185738680, 2185738677, 2185738670, 2185738667, 2185738664, 2185738661, 2185738659, 2185738657, 2185738660, 2185738663, 2185738665, 2185738668, 2185738674, 2185738679, 2185738683, 2185738689, 2185738692, 2185738695, 2185738701, 2185738706, 2185738710, 2185738713, 2185738719, 2185738731], "tags": {"amenity": "restaurant", "building": "yes", "cuisine": "chinese", "name": "Pato Peking", "source": "Catastro Espagnol"}}, {"type": "way", "id": 209241531, "nodes": [2194676693, 2194676672, 2194676670, 2194676660, 2194676658, 2194676641, 2194676640, 2194676642, 2194676644, 2194676648, 2194676646, 2194676650, 2194676652, 2194676668, 2194676664, 2194676678, 2194676679, 2194676684, 2194676689, 2194676682, 2194676693]}, {"type": "way", "id": 209241536, "nodes": [2194676666, 2194676656, 2194676654, 2194676662, 2194676666]}, {"type": "way", "id": 209448903, "nodes": [2196667764, 2196667760, 2196667757, 2196667755, 2196667752, 2196667751, 2196667750, 2196667747, 2196667749, 2196667748, 2196667753, 2196667754, 2196667758, 2196667759, 2196667763, 2196667765, 2196667761, 2196667764], "tags": {"addr:city": "Cala d'Or", "addr:housenumber": "14", "addr:postcode": "07660", "addr:street": "Avinguda d'es Fort\u00ed", "amenity": "restaurant", "building": "yes", "name": "Tenis Rocamarina", "phone": "+34 971 659 242", "takeaway": "yes"}}, {"type": "way", "id": 209613728, "nodes": [2198078202, 2198078166, 2198078116, 2198078098, 2198078083, 2198078106, 2198078086, 2198078187, 2198078266, 2198078159, 2198078205, 2198078191, 2198078202], "tags": {"amenity": "restaurant", "building": "commercial", "building:levels": "1", "name": "EsPou", "opening_hours": "PH,Mo-Su 09:00-23:00", "outdoor_seating": "yes", "roof:levels": "0"}}, {"type": "way", "id": 210831392, "nodes": [2208685239, 2208685200, 2208685199, 2208685188, 2208685187, 2208685141, 2208685137, 2208685174, 2208685175, 2208685237, 2208685239], "tags": {"amenity": "restaurant", "building": "yes"}}, {"type": "way", "id": 211161864, "nodes": [2211697675, 2211697597, 2211697560, 2211697554, 2211697445, 2211697442, 2211697403, 2211697414, 2211697434, 2211697583, 2211697565, 2211697568, 2211697605, 2211697675], "tags": {"amenity": "restaurant", "building": "yes", "name": "Marivent"}}, {"type": "way", "id": 213851215, "nodes": [2234844886, 2234844884, 2234844882, 2234844872, 2234844866, 2234844874, 2234844868, 2234844877, 2234844879, 2234844892, 2234844904, 2234844899, 2234844901, 2234844888, 2234844886], "tags": {"amenity": "restaurant", "building": "hotel", "name": "Es Pins", "name:ca": "Es Pins", "outdoor_seating": "yes", "takeaway": "yes", "toilets": "yes"}}, {"type": "way", "id": 213859093, "nodes": [2234945124, 2234945110, 2234945116, 2234945092, 2234945039, 2234945083, 2234945106, 2234945109, 2234945121, 2234945125, 2234945129, 2234945130, 2234945131, 2234945124], "tags": {"amenity": "cafe", "building": "yes", "name": "Eden Paradise"}}, {"type": "way", "id": 213859096, "nodes": [2234945183, 2234945182, 2234945181, 2234945180, 2234945179, 2234945171, 2234945172, 2234945169, 2234945173, 2234945174, 2234945175, 2234945176, 2234945177, 2234945183], "tags": {"amenity": "cafe", "building": "yes", "name": "Bon sol"}}, {"type": "way", "id": 228746568, "nodes": [2374219391, 2374219384, 2374219357, 2374219352, 2374219336, 2374219351, 2374219369, 2374219372, 2374219389, 2374219391], "tags": {"amenity": "restaurant", "building": "yes", "name": "Pizza&kebab"}}, {"type": "way", "id": 229045554, "nodes": [2376823615, 2376823613, 2376823610, 2376823611, 2376823615], "tags": {"amenity": "restaurant", "building": "yes", "craft": "brewery", "name": "Capit\u00e1n Hook"}}, {"type": "way", "id": 229045569, "nodes": [2376823834, 2376823832, 2376823795, 2376823798, 2376823801, 2376823799, 2376823828, 2376823830, 2376823834], "tags": {"amenity": "cafe", "building": "yes", "name": "Rigo"}}, {"type": "way", "id": 230266489, "nodes": [2387897735, 2387897745, 2387897741, 2387897744, 2387897739, 2387897729, 2387897735], "tags": {"amenity": "restaurant", "building": "yes", "name": "Cala Nau"}}, {"type": "way", "id": 230266491, "nodes": [2387897782, 2387897794, 2387897786, 2387897780, 2387897781, 2387897776, 2387897782], "tags": {"amenity": "restaurant", "building": "yes", "name": "Leo's"}}, {"type": "way", "id": 230334531, "nodes": [2388499027, 2388499029, 2388499026, 2388499025, 2388499027], "tags": {"amenity": "cafe", "building": "yes", "building:levels": "1", "indoor_seating": "yes", "name": "Thalassa", "outdoor_seating": "yes", "wheelchair": "yes"}}, {"type": "way", "id": 284426779, "nodes": [2881737334, 2881737335, 2881737336, 2881737337, 2881737338, 2881737339, 2881737340, 2881737341, 2881737342, 2881737343, 2881737347, 2881737349, 2881737350, 2881737351, 2881737352, 2881737353, 2881737354, 2881737355, 2881737356, 2881737334], "tags": {"amenity": "restaurant", "building": "yes"}}, {"type": "way", "id": 284426781, "nodes": [2881737367, 2881737368, 2881737369, 2881737370, 8897401376, 8897401374, 4275851044, 8897401391, 8897401375, 2881737371, 8897365507, 2881737367], "tags": {"amenity": "restaurant", "building": "yes"}}, {"type": "way", "id": 288633862, "nodes": [2921844499, 9034344461, 2921844506, 9034344482, 2921844501, 2921844496, 2921844499], "tags": {"amenity": "restaurant", "building": "yes", "name": "Es Mollet"}}, {"type": "way", "id": 330811211, "nodes": [3378145143, 3378145148, 3378145147, 3378144644, 3378145127, 3378145125, 3378145123, 3378145128, 3378145133, 3378145143], "tags": {"amenity": "cafe", "building": "yes", "building:levels": "5", "height": "15", "name": "es Parc", "name:ca": "es Parc", "source": "catastro", "source:date": "2014-01"}}, {"type": "way", "id": 330817439, "nodes": [3378197005, 3378197007, 3378197017, 3378197011, 3378197012, 3378197013, 3378197015, 3378197020, 3378197010, 3378197008, 3378197004, 3378197014, 3378197009, 3378197000, 3378196998, 3378196088, 3378196039, 3378197005], "tags": {"amenity": "cafe", "building": "yes", "building:levels": "1", "height": "3", "name": "Peric", "source": "catastro", "source:date": "2014-01"}}, {"type": "way", "id": 330817446, "nodes": [3378197242, 3378197246, 3378197241, 3378197240, 3378197237, 3378197242], "tags": {"amenity": "cafe", "building": "yes", "building:levels": "1", "height": "3", "name": "Salut", "source": "catastro", "source:date": "2014-01"}}, {"type": "way", "id": 330818332, "nodes": [3378203388, 3378200977, 3378203390, 3378203383, 3378203374, 3378203388], "tags": {"amenity": "cafe", "building": "yes", "building:levels": "1", "height": "3", "name": "Bon Profit", "source": "catastro", "source:date": "2014-01"}}, {"type": "way", "id": 330819264, "nodes": [3378216799, 3378216814, 3378216823, 3378216825, 3378216824, 3378216804, 3378216793, 3378216668, 3378216799], "tags": {"amenity": "cafe", "building": "yes", "building:levels": "1", "height": "3", "source": "catastro", "source:date": "2014-01"}}, {"type": "way", "id": 330819751, "nodes": [3378218001, 3378218009, 3378218011, 3378218012, 3378218014, 3378218016, 3378218022, 3378218025, 3378218026, 3378218032, 3378218028, 3378218030, 3378218024, 3378218023, 3378218015, 3378218002, 3378218000, 3378217998, 3378217792, 3378217614, 3378217781, 3378217782, 3378217784, 3378217775, 3378217779, 3378217780, 3378217786, 3378217787, 3378217790, 3378217994, 3378217996, 3378217999, 3378218001], "tags": {"amenity": "cafe", "building": "yes", "landuse": "industrial", "name": "Balear", "source": "catastro", "source:date": "2014-01"}}, {"type": "way", "id": 330821144, "nodes": [3378225649, 3378225697, 3378225698, 3378225696, 3378225666, 3378225665, 3378225647, 3378225650, 3378225649], "tags": {"amenity": "restaurant", "building": "yes", "building:levels": "1", "cuisine": "italian", "height": "3", "source": "catastro", "source:date": "2014-01"}}, {"type": "way", "id": 330824970, "nodes": [3378278865, 3378278866, 3378278867, 3378278875, 3378278884, 3378278882, 3378278871, 3378278869, 3378278873, 3378278856, 3378278853, 3378278851, 3378278849, 3378278850, 3378278846, 3378278845, 3378278844, 3378278841, 3378278840, 3378278839, 3378278848, 3378278854, 3378278860, 3378278863, 3378278865], "tags": {"amenity": "restaurant", "building": "yes", "building:levels": "2", "height": "6", "source": "catastro", "source:date": "2014-01"}}, {"type": "way", "id": 330944453, "nodes": [3379796160, 3379796163, 3379796165, 3379796172, 3379795095, 3379796168, 3379796161, 3379796148, 3379796144, 3379796153, 3379796160], "tags": {"amenity": "restaurant", "building": "yes", "building:levels": "3", "height": "9", "name": "Siroco", "source": "catastro", "source:date": "2014-01"}}, {"type": "way", "id": 330944659, "nodes": [3379795524, 3379795527, 3379795534, 3379795535, 3379795544, 3379795552, 3379795554, 3379795556, 3379795559, 3379795565, 3379795572, 3379795568, 3379795577, 3379795585, 3379795575, 3379795571, 3379795567, 3379795561, 3379795566, 3379795564, 3379795560, 3379795557, 3379795551, 3379795530, 3379795526, 3379795528, 3379795542, 3379795545, 3379795541, 3379795537, 3379795529, 3379795521, 3379795520, 3379795519, 3379795512, 3379795522, 3379795524], "tags": {"amenity": "restaurant", "building": "yes", "building:levels": "1", "height": "3", "name": "Can Toni", "name:ca": "Can Toni", "source": "catastro", "source:date": "2014-01"}}, {"type": "way", "id": 331204079, "nodes": [3382588205, 3382588208, 3382587542, 3382588211, 3382588210, 3382588209, 3382588207, 3382588206, 3382588180, 3382588181, 3382588179, 3382588193, 3382588196, 3382588197, 3382588198, 3382588204, 3382588203, 3382588202, 3382588205], "tags": {"amenity": "restaurant", "building": "yes", "building:levels": "2", "height": "6", "name": "El Norte", "source": "catastro", "source:date": "2014-01"}}, {"type": "way", "id": 331252878, "nodes": [3383042770, 3383042788, 3383044405, 3383044409, 3383044408, 3383044406, 3383044416, 3383044415, 3383044401, 3383042763, 3383042767, 3383042768, 3383042770], "tags": {"amenity": "cafe", "building": "yes", "building:levels": "2", "height": "6", "name": "Truis", "source": "catastro", "source:date": "2014-01"}}, {"type": "way", "id": 331915614, "nodes": [3390153450, 3390149963, 3390153451, 3390153434, 3390153433, 3390153420, 3390153419, 3390153406, 3390153394, 3390153391, 3390153381, 3390153378, 3390153377, 3390153366, 3390153370, 3390153369, 3390153374, 3390153379, 3390153380, 3390153389, 3390153388, 3390153390, 3390153396, 3390153395, 3390153398, 3390153410, 3390153427, 3390153428, 3390153432, 3390153444, 3390153443, 3390153450], "tags": {"amenity": "restaurant", "brand": "100 Montaditos", "brand:wikidata": "Q8355805", "brand:wikipedia": "en:Cervecer\u00eda 100 Montaditos", "building": "yes", "building:levels": "3", "cuisine": "sandwich", "height": "9", "name": "100 Montaditos", "source": "catastro", "source:date": "2014-01"}}, {"type": "way", "id": 332007721, "nodes": [3391093696, 3391093717, 3391093715, 3391090778, 3391093693, 3391093696], "tags": {"amenity": "cafe", "building": "yes", "building:levels": "1", "height": "3", "source": "catastro", "source:date": "2014-01"}}, {"type": "way", "id": 332007726, "nodes": [3391093717, 3391093720, 3391093752, 3391093768, 3391093764, 3391090787, 3391093715, 3391093717], "tags": {"amenity": "cafe", "building": "yes", "building:levels": "1", "height": "3", "source": "catastro", "source:date": "2014-01"}}, {"type": "way", "id": 332573610, "nodes": [3397195377, 3397195378, 3397195385, 3397195384, 3397195383, 3397195372, 3397195370, 3397195364, 3397195352, 3397195363, 3397195366, 3397195374, 3397195375, 3397195377], "tags": {"amenity": "restaurant", "building": "yes", "building:levels": "2", "cuisine": "japanese", "height": "6", "name": "Casa Trenta tres", "source": "catastro", "source:date": "2014-01"}}, {"type": "way", "id": 353853576, "nodes": [3596531661, 9902521178, 9902521179, 3596531662, 3596531679, 3596531680, 3596531681, 3596531682, 3596531683, 9902521180, 9902521181, 3596531684, 3596531685, 3596531686, 3596531663, 3596531664, 3596531678, 3596531665, 3596531677, 3596531676, 3596531675, 3596531674, 3596531673, 9902521174, 9902521175, 9902521176, 9902521177, 3596531661], "tags": {"amenity": "restaurant", "building": "yes", "name": "Sa Gruta Nova"}}, {"type": "way", "id": 358488242, "nodes": [3634015962, 3634015963, 3634015964, 3634015965, 3634015966, 3634015967, 3634015968, 3634015969, 3634015970, 3634015971, 3634015972, 3634015973, 3634015974, 3634015975, 3634015976, 3634015977, 3634015962], "tags": {"amenity": "restaurant", "building": "yes", "name": "Mol\u00ed d'en Sopa"}}, {"type": "way", "id": 362789266, "nodes": [3670439451, 3670439452, 3670439453, 3670439454, 3670439451], "tags": {"amenity": "restaurant", "building": "yes", "name": "Ca s'Hereu", "name:ca": "Ca s'Hereu"}}, {"type": "way", "id": 374336814, "nodes": [3777137381, 3777137380, 3777137378, 3777137377, 3777137373, 3777137369, 3777137372, 3777137374, 3777137376, 3777137375, 3777137379, 3777137382, 3777137383, 3777137384, 3777137381], "tags": {"amenity": "restaurant", "building": "retail", "building:levels": "1", "microbrewery": "no", "name": "Es Passeig", "outdoor_seating": "yes"}}, {"type": "way", "id": 374336815, "nodes": [3777137381, 3777137384, 3777137390, 3777137387, 9083789600, 3777137385, 3777137381], "tags": {"amenity": "restaurant", "building": "retail", "building:levels": "1", "cuisine": "italian", "microbrewery": "no", "name": "Salvatore", "outdoor_seating": "yes"}}, {"type": "way", "id": 374433125, "nodes": [3778238962, 3778238963, 10735812234, 10735812233, 10735812229, 10735812230, 10735812231, 10735812232, 3778238964, 10735812237, 10735812235, 10735812236, 10735812238, 10735812242, 10735812243, 10735812244, 10735812241, 10735812239, 10735812240, 10735812245, 10735812246, 3778238965, 3778238962], "tags": {"amenity": "restaurant", "building": "yes", "name": "sa Cova", "name:ca": "sa Cova"}}, {"type": "way", "id": 376722652, "nodes": [3801143305, 3801143306, 3801143307, 3801143308, 3801143309, 3801143305], "tags": {"amenity": "cafe", "building": "yes", "name": "bar Nou", "name:ca": "bar Nou"}}, {"type": "way", "id": 383620738, "nodes": [3869215577, 3869215578, 3869215579, 3869215580, 3869215577], "tags": {"amenity": "restaurant", "building": "yes", "name": "Tot a punt", "name:ca": "Tot a punt"}}, {"type": "way", "id": 383950508, "nodes": [3872525504, 3872525505, 3872525506, 3872525507, 3872525508, 3872525509, 3872525510, 3872525511, 3872525512, 3872525513, 3872525514, 3872525515, 3872525516, 3872525517, 3872525504], "tags": {"amenity": "cafe", "building": "yes", "name": "Peter"}}, {"type": "way", "id": 389921002, "nodes": [3930819985, 3930819987, 3930819989, 3930819983, 3930819979, 3930819973, 3930819972, 3930819960, 3930819971, 3930819967, 3930819985], "tags": {"amenity": "cafe", "building": "yes", "building:levels": "2", "height": "6", "name": "Ca n'Arjona", "source": "catastro", "source:date": "2014-01"}}, {"type": "way", "id": 390902441, "nodes": [3940552787, 3940552788, 3940552789, 3940552790, 3940552791, 3940552792, 3940552793, 3940552794, 3940552787], "tags": {"amenity": "restaurant", "building": "yes", "name": "Vista Hermosa"}}, {"type": "way", "id": 393632216, "nodes": [3968399809, 10995280075, 3968399810, 3968399811, 3968399812, 4292602199, 3968399809], "tags": {"amenity": "cafe", "building": "yes", "building:levels": "2", "name": "Can Lliro", "roof:shape": "flat"}}, {"type": "way", "id": 404295502, "nodes": [4065688893, 4065688894, 4065688895, 7083693345, 7083693346, 4065688896, 4065688893], "tags": {"amenity": "cafe", "building": "yes", "name": "Cactus"}}, {"type": "way", "id": 413731668, "nodes": [4149973914, 4149973915, 4149973916, 4149973917, 4149973914], "tags": {"amenity": "restaurant", "building": "yes"}}, {"type": "way", "id": 413859525, "nodes": [4150908497, 4150908498, 4150908499, 4150908500, 3791155257, 4150908497], "tags": {"amenity": "cafe", "building": "yes"}}, {"type": "way", "id": 416880364, "nodes": [4175610204, 9034313979, 9034313978, 4175610205, 4175610206, 9034313994, 9034313993, 9034313992, 9034313995, 4175610207, 9034313989, 9034313990, 9034313991, 9034313983, 9034313980, 9034313984, 9034313985, 9034313981, 9034313982, 9034313988, 9034313987, 9034313986, 4175610204], "tags": {"addr:housenumber": "35", "addr:street": "Passeig del Moll", "amenity": "restaurant", "building": "yes", "cuisine": "grill;pizza", "indoor_seating": "yes", "name": "Panetosto", "opening_hours": "Mo-Su 12:00-00:00", "outdoor_seating": "yes", "phone": "+34971813273", "website": "https://paparazziristorante.com/"}}, {"type": "way", "id": 430026190, "nodes": [4292848600, 4292848601, 4292848607, 4292848602, 4292848608, 4292848609, 4292848606, 4292848603, 4292848600], "tags": {"amenity": "restaurant", "building": "yes", "name": "Cas Senyor"}}, {"type": "way", "id": 430566197, "nodes": [4298332416, 4298332417, 4298332418, 4298332419, 4298332420, 4298332421, 4298332422, 4298332423, 4298332424, 4298332425, 4298332426, 4298332427, 4298332416], "tags": {"amenity": "restaurant", "building": "yes", "name": "sa Farinera de s'Horta", "opening_hours": "We-Mo 19:00-23:00"}}, {"type": "way", "id": 431820655, "nodes": [4310431004, 4310431005, 11285779951, 4310431011, 4310431006, 4310431004], "tags": {"amenity": "cafe", "building": "yes"}}, {"type": "way", "id": 444090921, "nodes": [4415906914, 4415906915, 4415906916, 4415906917, 4415906914], "tags": {"amenity": "restaurant", "building": "yes", "name": "el Castillo del Bosque"}}, {"type": "way", "id": 444855407, "nodes": [4423188295, 8074593394, 8074593396, 8074593397, 8074593395, 4423188296, 8074593398, 4423188297, 4423188298, 4423188299, 4423188300, 4423188301, 4423188295], "tags": {"amenity": "restaurant", "building": "yes", "name": "Can Gust\u00ed", "name:ca": "Can Gust\u00ed", "opening_hours": "Mo-Su 13:00-15:00, 18:30-22:00", "phone": "+34 971 83 33 46"}}, {"type": "way", "id": 449332562, "nodes": [4463029799, 4463029800, 4463029801, 4463029802, 4463029803, 4463029804, 4463029799], "tags": {"addr:city": "Porto Cristo", "addr:country": "ES", "addr:postcode": "07680", "addr:street": "Cam\u00ed de Can Barcel\u00f3", "amenity": "restaurant", "building": "detached", "cuisine": "spanish", "diet:vegetarian": "yes", "email": "turoalzines@gmail.com", "kids_area:outdoor": "yes", "level": "1", "mobile": "+34 971 822 814", "name": "Es Tur\u00f3 de ses Alzines", "opening_hours": "Tu-Su 13:00-16:00,19:00-22:00; PH closed", "opening_hours:kitchen": "Tu-Su 13:00-16:00,19:00-22:00; PH closed", "outdoor_seating": "yes", "payment:contactless": "yes", "payment:girocard": "yes", "payment:maestro": "yes", "payment:mastercard": "yes", "payment:visa": "yes", "payment:visa_debit": "yes", "payment:visa_electron": "yes", "phone": "+34 645 031 056", "smoking": "outside", "toilets": "yes", "toilets:access": "customers", "wheelchair": "yes"}}, {"type": "way", "id": 449679665, "nodes": [4466166113, 4466166127, 4466166114, 4466166115, 4466166116, 4466166113], "tags": {"amenity": "restaurant", "building": "yes", "cuisine": "regional;seafood", "name": "Sa Parra"}}, {"type": "way", "id": 449679667, "nodes": [4466166119, 4466166120, 4466166121, 4466166122, 4466166119], "tags": {"amenity": "restaurant", "building": "yes", "name": "Can Bernat de Sa Parra", "name:ca": "Can Bernat de Sa Parra"}}, {"type": "way", "id": 450228060, "nodes": [4471503521, 4471503522, 4471503523, 4471503524, 4471503521], "tags": {"amenity": "restaurant", "building": "yes", "name": "Ti\u00e0 Jass"}}, {"type": "way", "id": 450260251, "nodes": [4471823536, 4471823537, 4471823538, 4471823539, 4471823540, 4471823536], "tags": {"amenity": "restaurant", "building": "yes", "name": "Bei Josef"}}, {"type": "way", "id": 479542415, "nodes": [4726249308, 4726249309, 4726249310, 9033366403, 9033366402, 9033366401, 4726249312, 4726249313, 4726249308], "tags": {"amenity": "restaurant", "building": "retail", "building:levels": "1", "name": "Son Moro", "name:ca": "Son Moro"}}, {"type": "way", "id": 487469008, "nodes": [4799222724, 4799222725, 4799222726, 4799318636, 4799222728, 4799222729, 9097215446, 9097215445, 4799222724], "tags": {"amenity": "restaurant", "building": "yes", "building:levels": "1"}}, {"type": "way", "id": 495368756, "nodes": [4871334598, 4871334599, 4871334600, 4871334601, 4871334598], "tags": {"amenity": "restaurant", "building": "yes", "name": "sa Cuina"}}, {"type": "way", "id": 507018283, "nodes": [4966132312, 11186563568, 11186563571, 4966132313, 11186563572, 11186563573, 4966132314, 4966132315, 6374803699, 6374803702, 6374803706, 6374803701, 11186563574, 6374803700, 4966132312], "tags": {"amenity": "restaurant", "building": "yes", "name": "es Cruce"}}, {"type": "way", "id": 507018284, "nodes": [4966132316, 11186563586, 4966132317, 4966132318, 4966132319, 11186563582, 11186563581, 4966132316], "tags": {"amenity": "cafe", "building": "yes", "building:levels": "2", "name": "Ca na Bel", "roof:shape": "flat"}}, {"type": "way", "id": 531474108, "nodes": [5159164860, 5159164859, 5159164858, 5159164857, 5159164860], "tags": {"amenity": "restaurant", "building": "yes", "name": "Las Palmeras"}}, {"type": "way", "id": 593459608, "nodes": [11188923732, 11188923731, 11188923733, 5661440229, 11188923729, 11188923737, 5661440230, 11188923742, 5661440231, 11186563595, 11186563596, 5661440232, 5661440233, 5661440234, 5661440235, 11186563597, 11186563598, 5661440236, 11188923732], "tags": {"amenity": "restaurant", "building": "yes", "building:levels": "1", "check_date": "2024-07-19", "contact:facebook": "https://www.facebook.com/soratgeportvell/", "contact:tripadvisor": "https://www.tripadvisor.com/Restaurant_Review-g187459-d985525-Reviews-Restaurane_S_Oratge-Balearic_Islands_Majorca.html?m=65842", "cuisine": "regional;mediterranean", "name": "s'Oratge", "name:ca": "s'Oratge", "opening_hours": "Mo,We-Su 12:30-23:30; Tu off", "outdoor_seating": "yes", "payment:cash": "yes", "payment:credit_cards": "yes", "payment:debit_cards": "yes", "phone": "+34 971 84 01 20", "reservation": "recommended", "toilets": "yes"}}, {"type": "way", "id": 615976138, "nodes": [5824227767, 5824227768, 5824227769, 5824227770, 5824227767], "tags": {"amenity": "restaurant", "building": "yes", "building:levels": "1", "name": "La Caba\u00f1a", "roof:shape": "flat"}}, {"type": "way", "id": 617001560, "nodes": [5832843593, 5832843595, 11030453595, 5832843596, 5832843597, 11030696170, 5832843594, 5832843593], "tags": {"amenity": "cafe", "building": "yes", "name": "Ca sa Padrina"}}, {"type": "way", "id": 641905909, "nodes": [6044277068, 6044277069, 6044277070, 6044277071, 6044277068], "tags": {"amenity": "cafe", "building": "yes"}}, {"type": "way", "id": 651654924, "nodes": [6110397743, 6110397744, 6110397745, 6110397746, 6110397747, 6110397748, 6110397749, 6110397750, 6110397751, 6110397752, 6110397753, 6110397754, 6110397743], "tags": {"amenity": "restaurant", "building": "yes", "name": "Alma de la isla"}}, {"type": "way", "id": 679602587, "nodes": [6363593305, 6363593306, 6363593307, 6363593308, 6363593305], "tags": {"amenity": "cafe", "building": "yes", "name": "Playa"}}, {"type": "way", "id": 679602590, "nodes": [6363593325, 6363593327, 6363593328, 6363593329, 6363593326, 6363593325], "tags": {"amenity": "restaurant", "building": "yes", "cuisine": "regional", "name": "Can Perell\u00f3", "name:ca": "Can Perell\u00f3", "opening_hours": "Tu-Su 09:00-11:00,13:00-15:00,18:00-22:00"}}, {"type": "way", "id": 688035947, "nodes": [6450690294, 6450690295, 10181203064, 6450690296, 6450690297, 6450690298, 6450690294], "tags": {"amenity": "cafe", "building": "yes", "name": "Palau de Premsa", "name:ca": "Palau de Premsa"}}, {"type": "way", "id": 688834787, "nodes": [6461083542, 6461083543, 6461083544, 6461083545, 6461083546, 6461083564, 6461083563, 6461083562, 6461083561, 6461083560, 6461083547, 6461083548, 6461083549, 6461083554, 6461083556, 6461083555, 6461083558, 6461083559, 6461083553, 6461083552, 6461083551, 6461083550, 6461083542], "tags": {"addr:city": "Cala Bona", "addr:postcode": "07550", "addr:street": "Avenida Magnolia", "air_conditioning": "yes", "amenity": "restaurant", "bar": "yes", "brewery": "yes", "building": "yes", "cuisine": "mediterranea;regional;fish", "email": "rsonfloriana@proturhotels.com", "highchair": "yes", "internet_access": "wlan", "internet_access:fee": "no", "name": "Resetaurante Son Floriana", "opening_hours": "Mo-Su 09:00-23:00", "outdoor_seating": "yes", "payment:cash": "yes", "payment:credit_cards": "yes", "payment:debit_cards": "yes", "payment:mastercard": "yes", "payment:visa": "yes", "phone": "+34 971 58 60 75", "toilets": "yes", "toilets:wheelchair": "yes", "website": "https://protur-hotels.com/pages/carta-restaurante-son-floriana/index.html", "wheelchair": "yes"}}, {"type": "way", "id": 691066162, "nodes": [6484183599, 6484183600, 6484183601, 6484183604, 6484183599], "tags": {"amenity": "cafe", "building": "yes", "building:levels": "1", "name": "Jemica", "roof:shape": "flat"}}, {"type": "way", "id": 715177964, "nodes": [6721844659, 6721844660, 6721844661, 6721844662, 6721844659], "tags": {"addr:street": "carretera de Conilles", "amenity": "cafe", "building": "yes", "name": "sa Tafal"}}, {"type": "way", "id": 775192822, "nodes": [7232274713, 7232274714, 7232274715, 7232274716, 7232274717, 7232274713], "tags": {"amenity": "cafe", "building": "yes", "name": "s'Oratge", "name:ca": "s'Oratge"}}, {"type": "way", "id": 791515480, "nodes": [7399480616, 7399480637, 10977315830, 7399480640, 10977315848, 7399480638, 10977315838, 7399480639, 7399480619, 10977315842, 7399480621, 10977315844, 10977315846, 7399480622, 7399480620, 7399480616], "tags": {"amenity": "restaurant", "building": "yes", "building:levels": "3", "cuisine": "indian", "name": "India", "roof:shape": "flat"}}, {"type": "way", "id": 866281773, "nodes": [8074593404, 8074593405, 8074593406, 8074593407, 8074593404], "tags": {"amenity": "restaurant", "building": "yes", "name": "Can Pep Noguera", "name:ca": "Can Pep Noguera"}}, {"type": "way", "id": 895974810, "nodes": [8328548815, 8328548816, 10962001816, 10962001818, 8328555317, 8328555318, 8328548815], "tags": {"amenity": "cafe", "building": "yes", "building:levels": "2", "name": "el Porr\u00f3n", "roof:shape": "flat"}}, {"type": "way", "id": 1066788593, "nodes": [9795534303, 3378225803, 9795625512, 9795625511, 3378225802, 3378225494, 3378225495, 3378225451, 3378225366, 9795534303], "tags": {"access": "private", "amenity": "restaurant", "building": "hotel", "building:levels": "1", "height": "3", "highchair": "yes", "operator": "Club Marmara Bel Mar", "outdoor_seating": "yes", "reservation": "no", "self_service": "yes", "source": "catastro", "source:date": "2014-01", "toilets": "yes", "toilets:wheelchair": "yes", "wheelchair": "yes"}}, {"type": "way", "id": 1098858825, "nodes": [10061382985, 10061382986, 10061382987, 10061382988, 10061382985], "tags": {"amenity": "cafe", "building": "yes", "name": "Cas Patr\u00f3"}}, {"type": "way", "id": 1165385291, "nodes": [10839644220, 10839644221, 10839644222, 10839644223, 10839644220], "tags": {"addr:housenumber": "6", "addr:street": "Carrer del Dof\u00ed", "amenity": "restaurant", "building": "yes", "building:levels": "1", "cuisine": "spanish", "name": "Moments Caf\u00e9", "outdoor_seating": "yes", "payment:cash": "yes", "payment:girocard": "yes", "payment:maestro": "yes", "payment:mastercard": "yes", "payment:visa": "yes", "payment:visa_debit": "yes", "roof:shape": "flat", "smoking": "outside", "wheelchair": "yes"}}, {"type": "way", "id": 1250257141, "nodes": [11622205361, 11622205362, 11622205363, 11622205364, 11622205361], "tags": {"amenity": "restaurant", "building": "yes", "name": "Can Pedro"}}, {"type": "way", "id": 1258227289, "nodes": [11697336818, 11697336819, 11697336830, 11697336837, 11697336832, 11697336833, 11697336834, 11697336831, 11697336820, 11697336821, 11697336836, 11697336835, 11697336818], "tags": {"amenity": "restaurant", "building": "yes", "name": "Vallbona"}}, {"type": "way", "id": 1386068040, "nodes": [12833194472, 12833194473, 12833194474, 12833194475, 12833194476, 12833194477, 12833194478, 12833194479, 12833194472], "tags": {"addr:city": "Cala Ferrera", "addr:housenumber": "6", "addr:postcode": "07669", "addr:street": "Carrer d'Es Farall\u00f3", "air_conditioning": "yes", "amenity": "restaurant", "bar": "yes", "building": "yes", "cuisine": "mediterranean;spanish;diner", "description": "Sumergido en la arena de Cala Ferrera se alza Natura Olea restaurante para fusionar la frescura del entorno con una propuesta culinaria que celebra los sabores tradicionales con toques latinoamericanos y productos de cercan\u00eda, abrazando la filosof\u00eda km 0.", "diet:gluten_free": "yes", "diet:healthy": "yes", "diet:local": "yes", "diet:mediterranean": "yes", "diet:vegetarian": "yes", "email": "res.naturaolea@marsenses.com", "highchair": "yes", "internet_access": "wlan", "internet_access:fee": "customers", "name": "Natura Olea Restaurante", "opening_hours": "Mo-Su 12:00-23:00", "outdoor_seating": "yes", "payment:american_express": "yes", "payment:apple_pay": "yes", "payment:cash": "yes", "payment:credit_cards": "yes", "payment:debit_cards": "yes", "payment:google_pay": "yes", "payment:mastercard": "yes", "payment:nfc": "yes", "payment:visa": "yes", "payment:visa_debit": "yes", "payment:visa_electron": "yes", "phone": "+34 871 73 39 72", "reservation": "yes", "smoking": "isolated", "start_date": "2025/05/01", "toilets": "yes", "website": "https://naturaolea.com/", "website:menu": "https://naturaolea.com/menu/A4_comida_provi_compressed.pdf", "wheelchair": "limited"}}, {"type": "relation", "id": 2812367, "members": [{"type": "way", "ref": 209241536, "role": "inner"}, {"type": "way", "ref": 209241531, "role": "outer"}], "tags": {"amenity": "restaurant", "building": "yes", "type": "multipolygon"}}]}