{"version": 0.6, "generator": "Overpass API 0.7.62.7 375dc00a", "osm3s": {"timestamp_osm_base": "2025-06-14T14:30:01Z", "copyright": "The data included in this document is from www.openstreetmap.org. The data is made available under ODbL."}, "elements": [{"type": "node", "id": 312400252, "lat": 42.0872315, "lon": 19.1051978, "tags": {"amenity": "cafe"}}, {"type": "node", "id": 529475813, "lat": 42.279585, "lon": 18.8373765, "tags": {"amenity": "restaurant", "cuisine": "mediterranean", "internet_access": "wlan", "name": "Old Fisherman's Pub", "opening_hours": "Mo-Su 08:00-01:00", "phone": "+382 68 081 842", "website": "http://oldfishermanspub.com"}}, {"type": "node", "id": 529475814, "lat": 42.2797786, "lon": 18.8366464, "tags": {"amenity": "cafe", "internet_access": "wlan", "internet_access:fee": "no", "name": "Hemingway", "outdoor_seating": "yes"}}, {"type": "node", "id": 697886251, "lat": 42.0927979, "lon": 19.1330011}, {"type": "node", "id": 697886431, "lat": 42.2057626, "lon": 18.9370411, "tags": {"amenity": "restaurant", "cuisine": "pizza;coffee_shop", "name": "Caffe Pizzera Lazaret", "name:sr": "\u041a\u0430\u0444\u0435-\u043f\u0438\u0446\u0435\u0440\u0438\u0458\u0430 \u041b\u0430\u0437\u0430\u0440\u0435\u0442"}}, {"type": "node", "id": 705448226, "lat": 42.275472, "lon": 18.8872649}, {"type": "node", "id": 854284506, "lat": 42.2888511, "lon": 18.8463975, "tags": {"amenity": "restaurant", "cuisine": "seafood;mediterranean;fish;fish_and_chips;coffee_shop;grill;local;balkan", "internet_access": "wlan", "internet_access:fee": "customers", "internet_access:ssid": "KANGAROO Restaurant FAST", "name": "Kangaroo", "name:ru": "\u041a\u0435\u043d\u0433\u0443\u0440\u0443", "smoking": "yes", "takeaway": "yes"}}, {"type": "node", "id": 854284525, "lat": 42.2911841, "lon": 18.8468932, "tags": {"amenity": "restaurant", "internet_access": "wlan", "internet_access:fee": "customers", "internet_access:ssid": "Zlatibor", "name": "\u0417\u043b\u0430\u0442\u0438\u0431\u043e\u0440", "name:en": "Zlatibor", "opening_hours": "Mo-Su 08:00-22:00", "smoking": "outside"}}, {"type": "node", "id": 885252029, "lat": 42.2061778, "lon": 18.937177, "tags": {"amenity": "restaurant", "name": "Ambasador", "name:sr": "\u0410\u043c\u0431\u0430\u0441\u0430\u0434\u043e\u0440"}}, {"type": "node", "id": 885252153, "lat": 42.2064178, "lon": 18.937359, "tags": {"amenity": "restaurant", "cuisine": "pizza", "name": "Pizza MTV", "name:sr": "\u041f\u0438\u0446\u0430 \u041c\u0422\u0412"}}, {"type": "node", "id": 885252681, "lat": 42.2115222, "lon": 18.9257669, "tags": {"amenity": "restaurant", "name:en": "Perazi\u0107a Do", "outdoor_seating": "yes"}}, {"type": "node", "id": 885252710, "lat": 42.2059391, "lon": 18.9370045, "tags": {"amenity": "restaurant", "name": "Conoba Orata", "name:sr": "\u041a\u043e\u043d\u043e\u0431\u0430 \u041e\u0440\u0430\u0442\u0430"}}, {"type": "node", "id": 905175709, "lat": 42.3069759, "lon": 18.8047444, "tags": {"amenity": "cafe", "name": "Papillon"}}, {"type": "node", "id": 905385966, "lat": 42.3072306, "lon": 18.8010871, "tags": {"amenity": "restaurant", "name": "Aruba"}}, {"type": "node", "id": 905387102, "lat": 42.3066696, "lon": 18.8052351, "tags": {"amenity": "cafe", "name": "Caffe Firma", "outdoor_seating": "yes"}}, {"type": "node", "id": 1170832034, "lat": 42.2853102, "lon": 18.8465146, "tags": {"amenity": "restaurant", "name": "Express food"}}, {"type": "node", "id": 1170832084, "lat": 42.2856776, "lon": 18.8468526, "tags": {"amenity": "restaurant", "name": "Slovenska Pla\u017ea restaurant"}}, {"type": "node", "id": 1738476932, "lat": 42.2929764, "lon": 18.8481335, "tags": {"addr:street": "\u017drtava fa\u0161izma", "amenity": "restaurant", "check_date": "2025-05-20", "cuisine": "regional", "internet_access": "wlan", "internet_access:fee": "customers", "internet_access:ssid": "KUZINA", "name": "Ku\u017eina", "name:en": "Kuzina", "name:ru": "\u041a\u0443\u0436\u0438\u043d\u0430", "opening_hours": "Mo-Su 06:00-01:00", "outdoor_seating": "yes", "reservation": "yes", "smoking": "outside", "toilets": "yes"}}, {"type": "node", "id": 1738476935, "lat": 42.2828441, "lon": 18.8394778, "tags": {"air_conditioning": "yes", "amenity": "restaurant", "cuisine": "regional;mediterranean", "internet_access": "wlan", "name": "Restoran Kralj", "opening_hours": "Mo-Su,PH 08:00-24:00", "outdoor_seating": "yes", "wheelchair": "yes"}}, {"type": "node", "id": 1763060881, "lat": 42.2863058, "lon": 18.8492731, "tags": {"amenity": "restaurant", "check_date": "2024-10-19", "name": "Alexander Restaurant"}}, {"type": "node", "id": 1832198714, "lat": 42.1016612, "lon": 19.0900037}, {"type": "node", "id": 1832587076, "lat": 42.098579, "lon": 19.0918245}, {"type": "node", "id": 1832587077, "lat": 42.0987043, "lon": 19.0921271}, {"type": "node", "id": 1832587078, "lat": 42.0987768, "lon": 19.0920685}, {"type": "node", "id": 1832587079, "lat": 42.0986477, "lon": 19.091776}, {"type": "node", "id": 1833173564, "lat": 42.1642976, "lon": 18.988288}, {"type": "node", "id": 1833173567, "lat": 42.1643041, "lon": 18.9888808}, {"type": "node", "id": 1833173571, "lat": 42.1643626, "lon": 18.9882867}, {"type": "node", "id": 1833173572, "lat": 42.1643691, "lon": 18.9888795}, {"type": "node", "id": 1849676154, "lat": 42.0982904, "lon": 19.0942725, "tags": {"amenity": "restaurant", "name": "Gradski Restoran", "name:sr": "\u0413\u0440\u0430\u0434\u0441\u043a\u0438 \u0420\u0435\u0441\u0442\u043e\u0440\u0430\u043d", "name:sr-Latn": "Gradski Restoran", "opening_hours": "Mo-Su 09:00-23:00", "outdoor_seating": "yes"}}, {"type": "node", "id": 1849676158, "lat": 42.0987176, "lon": 19.0940292, "tags": {"amenity": "restaurant", "name": "FIT", "name:ru": "\u0424\u0418\u0422", "opening_hours": "Mo-Su 07:00-23:00"}}, {"type": "node", "id": 1851506937, "lat": 42.0957364, "lon": 19.094953}, {"type": "node", "id": 1858214450, "lat": 42.2466425, "lon": 19.0907309}, {"type": "node", "id": 1858214454, "lat": 42.2466858, "lon": 19.0906154}, {"type": "node", "id": 1858214457, "lat": 42.2467163, "lon": 19.0907815}, {"type": "node", "id": 1858214462, "lat": 42.2467597, "lon": 19.090666}, {"type": "node", "id": 1863986948, "lat": 42.2871761, "lon": 18.8519776, "tags": {"addr:postcode": "85310", "addr:street": "Jadranski put", "amenity": "cafe", "cuisine": "italian;breakfast;pizza", "diet:vegetarian": "yes", "name": "Rabello", "opening_hours": "Mo-Su 07:00-01:00", "phone": "+38267355555"}}, {"type": "node", "id": 1869860143, "lat": 42.0972095, "lon": 19.0940817, "tags": {"amenity": "cafe", "name": "Your Time Waffle-maffle", "opening_hours": "Mo-Sa 08:00-22:00; Su 09:00-22:00", "website": "https://yourtime.me/bar"}}, {"type": "node", "id": 1947078706, "lat": 42.2883524, "lon": 18.8479737, "tags": {"amenity": "restaurant", "name": "Balkan"}}, {"type": "node", "id": 1964672735, "lat": 42.2844847, "lon": 18.8421387, "tags": {"amenity": "restaurant", "bar": "yes", "check_date": "2023-08-01", "cuisine": "pizza;italian;regional", "diet:vegetarian": "yes", "internet_access": "wlan", "internet_access:fee": "customers", "internet_access:ssid": "Restoran TROPICO WiFi", "name": "Tropico", "name:sr": "\u0422\u0440\u043e\u043f\u0438\u043a\u043e", "payment:mastercard": "yes", "payment:visa": "yes", "payment:visa_debit": "yes", "reservation": "yes", "smoking": "outside", "takeaway": "no", "toilets": "yes", "toilets:access": "customers", "wheelchair": "limited"}}, {"type": "node", "id": 1966715690, "lat": 42.2849407, "lon": 18.8475068, "tags": {"amenity": "restaurant", "cuisine": "regional;pizza;dessert", "name": "La Bocca", "toilets:wheelchair": "no", "website": "http://www.labocca.astoriamontenegro.com/", "wheelchair": "limited"}}, {"type": "node", "id": 1989400676, "lat": 42.2942913, "lon": 18.844114}, {"type": "node", "id": 1989400677, "lat": 42.2943381, "lon": 18.843987}, {"type": "node", "id": 1989400678, "lat": 42.2943614, "lon": 18.8441612}, {"type": "node", "id": 1989400679, "lat": 42.2944084, "lon": 18.8440346}, {"type": "node", "id": 1990124052, "lat": 42.29003, "lon": 18.843944}, {"type": "node", "id": 1990124094, "lat": 42.2900294, "lon": 18.8440325}, {"type": "node", "id": 1990124192, "lat": 42.2901479, "lon": 18.8439466}, {"type": "node", "id": 1990124194, "lat": 42.2901475, "lon": 18.8440329}, {"type": "node", "id": 2165151642, "lat": 42.3057553, "lon": 18.8990424}, {"type": "node", "id": 2165151647, "lat": 42.3057444, "lon": 18.899125}, {"type": "node", "id": 2165151665, "lat": 42.305877, "lon": 18.8991568}, {"type": "node", "id": 2165151670, "lat": 42.3058879, "lon": 18.8990742}, {"type": "node", "id": 2207530903, "lat": 42.2720157, "lon": 19.1234168}, {"type": "node", "id": 2207530905, "lat": 42.2717415, "lon": 19.1234242}, {"type": "node", "id": 2207530909, "lat": 42.2718065, "lon": 19.1235486}, {"type": "node", "id": 2207530913, "lat": 42.2719751, "lon": 19.1232991}, {"type": "node", "id": 2207530923, "lat": 42.2461319, "lon": 19.0910132, "tags": {"amenity": "restaurant", "cuisine": "regional", "indoor_seating": "yes", "internet_access": "wlan", "name": "\u0414\u0435\u043c\u0438\u045f\u0430\u043d\u0430", "name:sr": "\u0414\u0435\u043c\u0438\u045f\u0430\u043d\u0430", "outdoor_seating": "yes"}}, {"type": "node", "id": 2207530937, "lat": 42.2717596, "lon": 19.1234128}, {"type": "node", "id": 2207530945, "lat": 42.271699, "lon": 19.1233008}, {"type": "node", "id": 2207530967, "lat": 42.2719889, "lon": 19.1232904}, {"type": "node", "id": 2207530977, "lat": 42.2719401, "lon": 19.1231489}, {"type": "node", "id": 2210344373, "lat": 42.1394909, "lon": 19.0502457, "tags": {"amenity": "cafe"}}, {"type": "node", "id": 2269356256, "lat": 42.2061619, "lon": 18.9408886, "tags": {"amenity": "restaurant", "name": "Oaza", "name:sr": "\u041e\u0430\u0437\u0430"}}, {"type": "node", "id": 2269379159, "lat": 42.2029869, "lon": 18.9428579, "tags": {"amenity": "restaurant", "name": "Ponta", "name:sr": "\u041f\u043e\u043d\u0442\u0430"}}, {"type": "node", "id": 2292328900, "lat": 42.0922257, "lon": 19.13358}, {"type": "node", "id": 2292328902, "lat": 42.0922785, "lon": 19.1334723}, {"type": "node", "id": 2292328903, "lat": 42.0922941, "lon": 19.1336409}, {"type": "node", "id": 2292328904, "lat": 42.0923469, "lon": 19.1335332}, {"type": "node", "id": 2292328936, "lat": 42.0929022, "lon": 19.1329318}, {"type": "node", "id": 2292328941, "lat": 42.0928846, "lon": 19.1330309}, {"type": "node", "id": 2298246987, "lat": 42.098722, "lon": 19.0959467, "tags": {"amenity": "restaurant", "cuisine": "pizza", "indoor_seating": "yes", "name": "Pulena", "opening_hours": "Mo-Su 07:00-00:00", "outdoor_seating": "yes"}}, {"type": "node", "id": 2317356835, "lat": 42.1950646, "lon": 18.9627534, "tags": {"amenity": "restaurant", "cuisine": "fish;regional;seafood", "internet_access": "yes", "internet_access:fee": "yes", "name": "Galija", "name:sr": "\u0413\u0430\u043b\u0438\u0458\u0430", "smoking": "no"}}, {"type": "node", "id": 2384022724, "lat": 42.1575564, "lon": 19.029349, "tags": {"amenity": "restaurant", "check_date": "2025-06-03", "cuisine": "steak_house", "name": "Sudbina"}}, {"type": "node", "id": 2386330255, "lat": 42.282999, "lon": 18.8029752, "tags": {"amenity": "cafe", "name": "Kiki"}}, {"type": "node", "id": 2386336615, "lat": 42.2829113, "lon": 18.8028246, "tags": {"amenity": "cafe", "name": "Stefan"}}, {"type": "node", "id": 2386336628, "lat": 42.2831218, "lon": 18.8032992, "tags": {"amenity": "cafe", "internet_access": "wlan", "name": "Wild Beauty", "smoking": "yes"}}, {"type": "node", "id": 2386336639, "lat": 42.2832227, "lon": 18.8035662, "tags": {"amenity": "cafe", "name": "Plaza"}}, {"type": "node", "id": 2397663957, "lat": 42.2907923, "lon": 18.8469992, "tags": {"amenity": "restaurant", "cuisine": "pizza", "name": "Fenix", "opening_hours": "Mo-Su 08:00-24:00", "payment:cash": "yes", "payment:credit_cards": "yes", "payment:debit_cards": "yes", "smoking": "outside"}}, {"type": "node", "id": 2418373721, "lat": 42.2925281, "lon": 18.8384744, "tags": {"amenity": "cafe", "name": "Brera", "opening_hours": "Mo-Su 07:00-00:00", "outdoor_seating": "yes", "phone": "+382 69 769 736", "toilets:wheelchair": "no", "wheelchair": "limited"}}, {"type": "node", "id": 2419914045, "lat": 42.2813893, "lon": 18.8658798}, {"type": "node", "id": 2419914055, "lat": 42.2814234, "lon": 18.8663121}, {"type": "node", "id": 2419914101, "lat": 42.2815099, "lon": 18.8662955}, {"type": "node", "id": 2419914108, "lat": 42.2814765, "lon": 18.8658656}, {"type": "node", "id": 2419916718, "lat": 42.2848202, "lon": 18.863222}, {"type": "node", "id": 2419916759, "lat": 42.2848845, "lon": 18.8632936}, {"type": "node", "id": 2419916779, "lat": 42.2849126, "lon": 18.8630704}, {"type": "node", "id": 2419916819, "lat": 42.2849769, "lon": 18.863142}, {"type": "node", "id": 2420249433, "lat": 42.2704417, "lon": 18.846433}, {"type": "node", "id": 2420249435, "lat": 42.2704535, "lon": 18.8463884}, {"type": "node", "id": 2420249441, "lat": 42.2704832, "lon": 18.8464954}, {"type": "node", "id": 2420249453, "lat": 42.2705473, "lon": 18.8463365}, {"type": "node", "id": 2420249472, "lat": 42.2709561, "lon": 18.8469746}, {"type": "node", "id": 2420249476, "lat": 42.2710215, "lon": 18.8470712}, {"type": "node", "id": 2420249488, "lat": 42.27096, "lon": 18.8466305}, {"type": "node", "id": 2420249490, "lat": 42.2709754, "lon": 18.846751}, {"type": "node", "id": 2420249492, "lat": 42.2709815, "lon": 18.8468071}, {"type": "node", "id": 2420249494, "lat": 42.2709907, "lon": 18.846697}, {"type": "node", "id": 2420249496, "lat": 42.2710107, "lon": 18.8468736}, {"type": "node", "id": 2420249498, "lat": 42.2710138, "lon": 18.84683}, {"type": "node", "id": 2420249504, "lat": 42.2710394, "lon": 18.8465131}, {"type": "node", "id": 2420249505, "lat": 42.2710708, "lon": 18.8470227}, {"type": "node", "id": 2420249508, "lat": 42.2710909, "lon": 18.8466513}, {"type": "node", "id": 2420249510, "lat": 42.2711363, "lon": 18.8468966}, {"type": "node", "id": 2424558288, "lat": 42.2851242, "lon": 18.8489473}, {"type": "node", "id": 2424558289, "lat": 42.2851694, "lon": 18.8487875}, {"type": "node", "id": 2424558295, "lat": 42.2853464, "lon": 18.8489407}, {"type": "node", "id": 2424558296, "lat": 42.2852039, "lon": 18.8487653}, {"type": "node", "id": 2424562076, "lat": 42.2931335, "lon": 18.8381274}, {"type": "node", "id": 2424562114, "lat": 42.2931779, "lon": 18.8380692}, {"type": "node", "id": 2424562175, "lat": 42.2931878, "lon": 18.8381925}, {"type": "node", "id": 2424562212, "lat": 42.2932296, "lon": 18.8381384}, {"type": "node", "id": 2425580400, "lat": 42.281244, "lon": 18.837797}, {"type": "node", "id": 2425580413, "lat": 42.2813431, "lon": 18.8378461}, {"type": "node", "id": 2425580414, "lat": 42.2813022, "lon": 18.8380187}, {"type": "node", "id": 2425580425, "lat": 42.2814074, "lon": 18.8376665}, {"type": "node", "id": 2425580427, "lat": 42.2814108, "lon": 18.8380925}, {"type": "node", "id": 2425580439, "lat": 42.2815237, "lon": 18.8377243}, {"type": "node", "id": 2425580469, "lat": 42.281756, "lon": 18.8383377}, {"type": "node", "id": 2425580489, "lat": 42.2817945, "lon": 18.8381788}, {"type": "node", "id": 2425580498, "lat": 42.2818268, "lon": 18.8383978}, {"type": "node", "id": 2425580520, "lat": 42.2818946, "lon": 18.8382576}, {"type": "node", "id": 2425581454, "lat": 42.2841256, "lon": 18.8413707}, {"type": "node", "id": 2425581480, "lat": 42.2842959, "lon": 18.8416752}, {"type": "node", "id": 2425581560, "lat": 42.2843044, "lon": 18.8413173}, {"type": "node", "id": 2425581600, "lat": 42.2844684, "lon": 18.8415932}, {"type": "node", "id": 2425581602, "lat": 42.2844342, "lon": 18.8422649}, {"type": "node", "id": 2425581606, "lat": 42.2844672, "lon": 18.8424813}, {"type": "node", "id": 2425581638, "lat": 42.2845171, "lon": 18.8422418}, {"type": "node", "id": 2425581646, "lat": 42.2845501, "lon": 18.8424583}, {"type": "node", "id": 2425581973, "lat": 42.285249, "lon": 18.8463628}, {"type": "node", "id": 2455300170, "lat": 42.2814016, "lon": 18.8660637}, {"type": "node", "id": 2455300225, "lat": 42.2826614, "lon": 18.8665874}, {"type": "node", "id": 2460606915, "lat": 42.2818069, "lon": 18.8383405, "tags": {"addr:city": "Budva", "amenity": "restaurant", "check_date": "2024-10-13", "cuisine": "mediterranean", "internet_access": "wlan", "name": "Olimp"}}, {"type": "node", "id": 2473147556, "lat": 42.2826693, "lon": 18.8665287}, {"type": "node", "id": 2474241681, "lat": 42.287289, "lon": 18.8520453, "tags": {"amenity": "restaurant", "cuisine": "regional", "indoor_seating": "yes", "name": "M-Irena", "opening_hours": "Mo-Su 08:00-00:00", "outdoor_seating": "yes", "phone": "067584321", "website": "https://www.mirenagrill.me/"}}, {"type": "node", "id": 2474383092, "lat": 42.2060525, "lon": 18.945315}, {"type": "node", "id": 2474383095, "lat": 42.2061765, "lon": 18.9454188}, {"type": "node", "id": 2474383096, "lat": 42.2060475, "lon": 18.9456866}, {"type": "node", "id": 2474383098, "lat": 42.2059942, "lon": 18.9456347}, {"type": "node", "id": 2474578396, "lat": 42.2694789, "lon": 18.783283, "tags": {"amenity": "restaurant", "name": "Uvala Plo\u010de", "name:sr": "\u0423\u0432\u0430\u043b\u0430 \u041f\u043b\u043e\u0447\u0435", "website": "http://www.uvalaploce.com/"}}, {"type": "node", "id": 2475944711, "lat": 42.2850047, "lon": 18.8464371}, {"type": "node", "id": 2475944713, "lat": 42.2850337, "lon": 18.8466475}, {"type": "node", "id": 2475944717, "lat": 42.2852599, "lon": 18.8464577}, {"type": "node", "id": 2475968407, "lat": 42.2852419, "lon": 18.8487598}, {"type": "node", "id": 2475968408, "lat": 42.2852791, "lon": 18.8487716}, {"type": "node", "id": 2475968409, "lat": 42.2853112, "lon": 18.8487994}, {"type": "node", "id": 2475968410, "lat": 42.2853555, "lon": 18.8488146}, {"type": "node", "id": 2475968412, "lat": 42.2851424, "lon": 18.8490019}, {"type": "node", "id": 2475968413, "lat": 42.2851226, "lon": 18.8488896}, {"type": "node", "id": 2475968417, "lat": 42.285167, "lon": 18.8490358}, {"type": "node", "id": 2476381724, "lat": 42.1030833, "lon": 19.0889437}, {"type": "node", "id": 2476519529, "lat": 42.1331991, "lon": 19.0616009, "tags": {"amenity": "restaurant", "internet_access": "wlan", "name:en": "Trattoria di Radenko"}}, {"type": "node", "id": 2476533302, "lat": 42.1385341, "lon": 19.048984}, {"type": "node", "id": 2476533327, "lat": 42.1385958, "lon": 19.0491912}, {"type": "node", "id": 2476533331, "lat": 42.138645, "lon": 19.0491646}, {"type": "node", "id": 2476540960, "lat": 42.1385833, "lon": 19.0489573}, {"type": "node", "id": 2477654891, "lat": 42.2820645, "lon": 18.7852272, "tags": {"amenity": "cafe", "name": "Trsteno"}}, {"type": "node", "id": 2485967815, "lat": 42.1405636, "lon": 19.0433438}, {"type": "node", "id": 2485967826, "lat": 42.140396, "lon": 19.0434351}, {"type": "node", "id": 2485967846, "lat": 42.1405036, "lon": 19.043507}, {"type": "node", "id": 2636984711, "lat": 42.2284717, "lon": 18.9116692}, {"type": "node", "id": 2636984842, "lat": 42.2284827, "lon": 18.9117329}, {"type": "node", "id": 2636984897, "lat": 42.2285742, "lon": 18.9117173}, {"type": "node", "id": 2636984956, "lat": 42.2462232, "lon": 18.9043904}, {"type": "node", "id": 2636984995, "lat": 42.2283798, "lon": 18.9117194}, {"type": "node", "id": 2636985068, "lat": 42.2284749, "lon": 18.9117032}, {"type": "node", "id": 2636985172, "lat": 42.2283885, "lon": 18.9118133}, {"type": "node", "id": 2636985218, "lat": 42.2284886, "lon": 18.9117963}, {"type": "node", "id": 2639850193, "lat": 42.1406169, "lon": 19.0437285}, {"type": "node", "id": 2639850401, "lat": 42.1406521, "lon": 19.0436233}, {"type": "node", "id": 2639850664, "lat": 42.1409733, "lon": 19.0439452}, {"type": "node", "id": 2670179649, "lat": 42.1950098, "lon": 18.963231}, {"type": "node", "id": 2690451787, "lat": 42.2555133, "lon": 18.8973957, "tags": {"addr:housenumber": "24", "addr:street": "Slobode", "amenity": "restaurant", "name": "Famelia Kentera"}}, {"type": "node", "id": 2765583475, "lat": 42.2882655, "lon": 18.8483414, "tags": {"addr:city": "Budva", "addr:postcode": "85310", "addr:street": "Jadranski put", "amenity": "restaurant", "capacity": "80", "check_date": "2024-10-20", "cuisine": "international", "name": "Admiral", "phone": "+38 233 459 263", "smoking": "outside", "website": "https://www.hoteladmiralbudva.me/en/"}}, {"type": "node", "id": 2964057031, "lat": 42.2858484, "lon": 18.8391486, "tags": {"amenity": "restaurant", "cuisine": "local;pizza", "name": "Restaurant Aquarius"}}, {"type": "node", "id": 3016608933, "lat": 42.1017312, "lon": 19.0964914, "tags": {"air_conditioning": "yes", "amenity": "restaurant", "cuisine": "italian", "indoor_seating": "yes", "internet_access": "wlan", "name": "Cafe Pascucci", "opening_hours": "Mo-Su 07:00-24:00", "outdoor_seating": "garden", "smoking": "outside", "wheelchair": "limited"}}, {"type": "node", "id": 3659172642, "lat": 42.2807966, "lon": 18.8641213}, {"type": "node", "id": 3659172643, "lat": 42.28082, "lon": 18.8643032}, {"type": "node", "id": 3659172644, "lat": 42.2809276, "lon": 18.8640904}, {"type": "node", "id": 3659172645, "lat": 42.280951, "lon": 18.8642724}, {"type": "node", "id": 3678849942, "lat": 42.0999042, "lon": 19.0914003}, {"type": "node", "id": 3678849943, "lat": 42.0996951, "lon": 19.0913591}, {"type": "node", "id": 3696399030, "lat": 42.1003897, "lon": 19.0922292}, {"type": "node", "id": 3719993685, "lat": 42.2770625, "lon": 18.838378, "tags": {"amenity": "cafe", "check_date": "2024-08-28", "cuisine": "pizza", "internet_access": "wlan", "level": "1", "name": "Citadela", "outdoor_seating": "yes", "payment:mastercard": "yes", "payment:visa": "yes", "payment:visa_debit": "yes"}}, {"type": "node", "id": 3769340709, "lat": 42.1069866, "lon": 19.0914838, "tags": {"amenity": "cafe", "check_date": "2024-05-04", "cuisine": "regional;sandwich;fish", "name": "Pod lozom", "name:ru": "\u041f\u043e\u0434 \u041b\u043e\u0437\u043e\u043c", "opening_hours": "Mo-Su 07:00-22:00", "outdoor_seating": "yes", "smoking": "yes"}}, {"type": "node", "id": 3769354300, "lat": 42.1393616, "lon": 19.0482136, "tags": {"amenity": "restaurant", "cuisine": "regional", "indoor_seating": "yes", "name": "Vuk", "outdoor_seating": "no"}}, {"type": "node", "id": 3769406313, "lat": 42.1405288, "lon": 19.0243911, "tags": {"amenity": "restaurant", "opening_hours": "Jun-Aug"}}, {"type": "node", "id": 3769406357, "lat": 42.1410084, "lon": 19.0438401}, {"type": "node", "id": 3773172675, "lat": 42.1958502, "lon": 18.9608853}, {"type": "node", "id": 3773172676, "lat": 42.1958169, "lon": 18.9608703}, {"type": "node", "id": 3773172677, "lat": 42.1958302, "lon": 18.9608253}, {"type": "node", "id": 3773172678, "lat": 42.1958627, "lon": 18.9608403}, {"type": "node", "id": 3774323475, "lat": 42.2579347, "lon": 18.8931997}, {"type": "node", "id": 3774323476, "lat": 42.257966, "lon": 18.8935091}, {"type": "node", "id": 3774323477, "lat": 42.2578033, "lon": 18.8935515}, {"type": "node", "id": 3774323478, "lat": 42.2577792, "lon": 18.893229}, {"type": "node", "id": 3783386418, "lat": 42.2833638, "lon": 18.8778287, "tags": {"amenity": "restaurant", "name": "Palma"}}, {"type": "node", "id": 3783390654, "lat": 42.2828792, "lon": 18.8777074, "tags": {"addr:housenumber": "1", "addr:postcode": "85316", "addr:street": "Marina Be\u010di\u0107a", "amenity": "restaurant", "name": "Atlantic", "name:ru": "\u0410\u0442\u043b\u0430\u043d\u0442\u0438\u043a", "opening_hours": "12:00-23:00", "phone": "+382 (33) 471 483", "website": "http://www.domatlantic.com/"}}, {"type": "node", "id": 4001634392, "lat": 42.096181, "lon": 19.096029, "tags": {"addr:city": "Bar", "addr:floor": "G", "addr:postcode": "85000", "addr:street": "Jovana Toma\u0161evi\u0107a", "amenity": "restaurant", "check_date": "2025-05-07", "indoor_seating": "yes", "level": "0", "name": "North", "opening_hours": "08:00-22:00", "outdoor_seating": "yes", "payment:cash": "yes", "payment:credit_cards": "yes", "payment:debit_cards": "yes", "wheelchair": "yes"}}, {"type": "node", "id": 4001634396, "lat": 42.09573, "lon": 19.0949578}, {"type": "node", "id": 4001634398, "lat": 42.0956142, "lon": 19.0969205, "tags": {"addr:city": "Bar", "addr:postcode": "85000", "addr:street": "Jovana Toma\u0161evi\u0107a", "amenity": "restaurant", "name": "Savoia"}}, {"type": "node", "id": 4001634399, "lat": 42.0975524, "lon": 19.0940251}, {"type": "node", "id": 4001634400, "lat": 42.097495, "lon": 19.0938895}, {"type": "node", "id": 4001634401, "lat": 42.0974087, "lon": 19.0939576}, {"type": "node", "id": 4001634402, "lat": 42.097467, "lon": 19.094092}, {"type": "node", "id": 4001634406, "lat": 42.0966905, "lon": 19.0942736, "tags": {"amenity": "cafe"}}, {"type": "node", "id": 4001634407, "lat": 42.0965554, "lon": 19.0943904, "tags": {"addr:housenumber": "21", "addr:street": "Mar\u0161ala Tita", "amenity": "cafe", "cuisine": "deli", "name": "Kao Kod Ku\u0107e", "opening_hours": "Mo-Sa 08:00-21:00"}}, {"type": "node", "id": 4002175387, "lat": 42.0988183, "lon": 19.0961167, "tags": {"amenity": "restaurant", "name": "Perbacco"}}, {"type": "node", "id": 4002175388, "lat": 42.0988746, "lon": 19.0962099, "tags": {"addr:housenumber": "9", "addr:street": "Vladimira Rolovi\u0107a", "amenity": "restaurant", "check_date": "2024-06-08", "cuisine": "pizza;burger;italian", "diet:beef": "yes", "diet:chicken": "yes", "diet:meat": "yes", "diet:omnivore": "yes", "diet:pork": "yes", "diet:seafood": "yes", "internet_access": "wlan", "internet_access:fee": "customers", "level": "0", "name": "Karuba", "opening_hours": "07:00-24:00", "payment:cash": "yes", "payment:credit_cards": "yes", "payment:debit_cards": "yes", "website": "https://karuba.digitalnimeni.me", "wheelchair": "yes"}}, {"type": "node", "id": 4002176541, "lat": 42.1018359, "lon": 19.0899747, "tags": {"amenity": "cafe", "check_date": "2024-12-26", "name": "Martina", "name:ru": "\u041c\u0430\u0440\u0442\u0438\u043d\u0430", "opening_hours": "Mo-Su 07:30-23:00", "payment:cards": "no", "payment:cash": "yes", "payment:credit_cards": "no", "payment:debit_cards": "no", "phone": "069559954"}}, {"type": "node", "id": 4002176543, "lat": 42.0967616, "lon": 19.0924456, "tags": {"addr:city": "Bar", "addr:postcode": "85000", "addr:street": "Vladimira Rolovi\u0107a", "amenity": "restaurant", "cuisine": "pizza;regional;italian;ice_cream;sandwich;seafood;fish;salad;pasta;dessert", "indoor_seating": "yes", "name": "Raccoon in the garden", "opening_hours": "Mo-Su 08:00-23:00", "outdoor_seating": "yes", "phone": "+382 68 806 066", "website": "https://raccoon.rest", "website:menu": "https://raccoon.rest"}}, {"type": "node", "id": 4002176544, "lat": 42.0969698, "lon": 19.0927825, "tags": {"amenity": "cafe", "indoor_seating": "yes", "name": "La Forchetta", "outdoor_seating": "yes"}}, {"type": "node", "id": 4061242729, "lat": 42.2925691, "lon": 18.8429449, "tags": {"amenity": "cafe", "check_date": "2024-08-07", "cuisine": "pizza", "image": "https://waytomonte.com/img/places/preview/2/1/1501/f7d4e0c2e5cb1f2af1cc1630d9f9a4af.jpg", "internet_access": "yes", "name": "Garden cafe", "opening_hours": "Mo-Su 07:30-24:00", "smoking": "yes", "website": "https://www.garden-cafe.me/"}}, {"type": "node", "id": 4101885989, "lat": 42.1030618, "lon": 19.0901372, "tags": {"addr:street": "Obala", "amenity": "cafe", "cuisine": "local", "internet_access": "wlan", "name": "Set", "name:ru": "\u0421\u0435\u0442", "name:sr": "\u0421\u0435\u0442"}}, {"type": "node", "id": 4111906489, "lat": 42.2239498, "lon": 18.9106234, "tags": {"amenity": "restaurant", "cuisine": "local", "email": "kgolis@t-com.me", "internet_access": "wlan", "name": "Giardino", "phone": "+382 33 682 333", "website": "https://www.restorangiardino.com/"}}, {"type": "node", "id": 4115899390, "lat": 42.2813497, "lon": 18.8765865, "tags": {"amenity": "cafe", "cuisine": "breakfast;coffee_shop;fish;italian_pizza;local;mediterranean;pasta;pizza;sandwich;steak_house", "internet_access": "wlan", "name": "Pod Murvom", "name:sr": "\u041f\u043e\u0434 \u041c\u0443\u0440\u0432\u043e\u043c", "opening_hours": "Mo-Su 10:00-21:00"}}, {"type": "node", "id": 4120918191, "lat": 42.2791923, "lon": 18.8821086, "tags": {"addr:postcode": "85310", "addr:street": "Rafailovi\u0107i, Marina", "amenity": "restaurant", "cuisine": "seafood", "email": "info@restaurant-porat.com", "internet_access": "wlan", "name": "Porat", "name:sr": "\u041f\u043e\u0440\u0430\u0442", "opening_hours": "Mo-Su 08:00-24:00", "phone": "+38269028279", "website": "https://www.restaurantporat.com/"}}, {"type": "node", "id": 4120982889, "lat": 42.2802526, "lon": 18.8808238, "tags": {"amenity": "restaurant", "cuisine": "local;seafood;pasta;mediterranean", "internet_access": "wlan", "name": "Aleksandr", "opening_hours": "Mo-Su 07:00-00:00"}}, {"type": "node", "id": 4124270590, "lat": 42.2058501, "lon": 18.9370283, "tags": {"amenity": "restaurant", "cuisine": "local;seafood;coffee_shop", "name": "\u0422\u0440\u0430\u043c\u043e\u043d\u0442\u0430\u043d\u0430", "name:en": "Tramontana", "name:sr": "\u0422\u0440\u0430\u043c\u043e\u043d\u0442\u0430\u043d\u0430", "opening_hours": "Mo-Su 09:00-01:00"}}, {"type": "node", "id": 4129696089, "lat": 42.2054197, "lon": 18.9370826, "tags": {"amenity": "cafe", "cuisine": "local;seafood;coffee_shop;mediterranean", "internet_access": "wlan", "name": "Castello Terasa"}}, {"type": "node", "id": 4130886790, "lat": 42.2065208, "lon": 18.9388035, "tags": {"amenity": "cafe", "cuisine": "local;seafood;mediterranean", "internet_access": "wlan", "name": "Oskar", "name:sr": "\u041e\u0441\u043a\u0430\u0440"}}, {"type": "node", "id": 4132487690, "lat": 42.2064412, "lon": 18.9391599, "tags": {"amenity": "restaurant", "cuisine": "local;seafood;mediterranean", "internet_access": "wlan", "name": "Fortuna", "name:sr": "\u0424\u043e\u0440\u0442\u0443\u043d\u0430"}}, {"type": "node", "id": 4133301241, "lat": 42.1127444, "lon": 19.0847467, "tags": {"amenity": "restaurant", "name": "Voda u Kr\u0161u", "name:sr": "\u0412\u043e\u0434\u0430 \u0443 \u041a\u0440\u0448\u0443"}}, {"type": "node", "id": 4133344194, "lat": 42.1120266, "lon": 19.084561, "tags": {"amenity": "cafe", "cuisine": "local;italian_pizza;seafood;coffee_shop", "indoor_seating": "yes", "internet_access": "wlan", "name": "Forest", "opening_hours": "Mo-Su 07:00-01:00", "outdoor_seating": "yes"}}, {"type": "node", "id": 4133344195, "lat": 42.1140875, "lon": 19.0821339, "tags": {"amenity": "restaurant", "check_date": "2025-06-02", "cuisine": "local;seafood;mediterranean;italian", "internet_access": "wlan", "name": "Casablanca", "name:sr": "\u041a\u0430\u0437\u0430\u0431\u043b\u0430\u043d\u043a\u0430"}}, {"type": "node", "id": 4135411989, "lat": 42.0937126, "lon": 19.1330541, "tags": {"addr:city": "Stari Bar", "addr:postcode": "85000", "amenity": "restaurant", "cuisine": "local;seafood;coffee_shop", "internet_access": "wlan", "name": "Konoba Spilja", "name:sr": "\u041a\u043e\u043d\u043e\u0431\u0430 \u0421\u043f\u0438\u0459\u0430", "opening_hours": "Mo-Su 08:00-23:00", "phone": "+38269063530", "website": "www.konobaspilja.me"}}, {"type": "node", "id": 4143033599, "lat": 42.1104938, "lon": 19.085809, "tags": {"amenity": "cafe", "cuisine": "pizza;italian", "indoor_seating": "yes", "name": "Barka", "name:sr": "\u0411\u0430\u0440\u043a\u0430", "opening_hours": "Mo-Su 07:00-24:00", "outdoor_seating": "yes", "website": "https://www.facebook.com/Restoran-Barka-100887284748192"}}, {"type": "node", "id": 4229591791, "lat": 42.2797711, "lon": 18.8814139, "tags": {"addr:street": "\u0160etali\u0161te Stari grad-Rafailovi\u0107i", "amenity": "cafe", "internet_access": "wlan", "name": "Skorpion", "opening_hours": "Mo-Su 08:00-01:00"}}, {"type": "node", "id": 4229591792, "lat": 42.2842732, "lon": 18.8380272, "tags": {"addr:city": "Budva", "addr:housenumber": "53", "addr:street": "Mediteranska", "amenity": "cafe", "cuisine": "cake;fish_and_chips;breakfast;international;pasta;tea;coffee_shop;pancake;diner;chicken;sandwich;balkan;pizza", "diet:vegetarian": "yes", "email": "info@babaluu.me", "internet_access": "wlan", "name": "Babaluu", "opening_hours": "Mo-Su 07:00-01:00", "phone": "063 - 122/000", "website": "https://www.babaluu.me/", "website:menu": "https://www.babaluu.me/me/jelovnik"}}, {"type": "node", "id": 4229595991, "lat": 42.2926555, "lon": 18.8429968, "tags": {"addr:street": "Mainski put", "amenity": "cafe", "check_date": "2024-08-07", "cuisine": "pizza;regional;burger;sandwich", "internet_access": "wlan", "name": "Tate", "opening_hours": "Mo-Su 07:30-24:00"}}, {"type": "node", "id": 4245833788, "lat": 42.2054564, "lon": 18.9370784}, {"type": "node", "id": 4245834296, "lat": 42.2054717, "lon": 18.9371652}, {"type": "node", "id": 4249119989, "lat": 42.0970156, "lon": 19.0899694, "tags": {"amenity": "cafe", "indoor_seating": "yes", "name": "Marina", "name:ru": "\u041c\u0430\u0440\u0438\u043d\u0430", "opening_hours": "24/7", "outdoor_seating": "yes"}}, {"type": "node", "id": 4252792492, "lat": 42.2061029, "lon": 18.9414225, "tags": {"amenity": "cafe", "internet_access": "wlan", "name": "Sport", "name:sr": "\u0421\u043f\u043e\u0440\u0442"}}, {"type": "node", "id": 4254488191, "lat": 42.094025, "lon": 19.1342617, "tags": {"amenity": "restaurant", "cuisine": "regional", "email": "info@kulastaribar.me", "internet_access": "wlan", "name": "Konoba Kula", "name:sr": "\u041a\u043e\u043d\u043e\u0431\u0430 \u041a\u0443\u043b\u0430", "name:sr-Latn": "Konoba Kula", "opening_hours": "Su-Th 11:00-22:00; Fr-Sa 11:00-01:00", "phone": "+38267341305", "website": "www.kulastaribar.me"}}, {"type": "node", "id": 4255245190, "lat": 42.2914177, "lon": 18.8503492, "tags": {"amenity": "cafe", "cuisine": "italian_pizza", "internet_access": "wlan", "name": "London", "opening_hours": "Mo-Su 10:00-01:00"}}, {"type": "node", "id": 4256196391, "lat": 42.2560725, "lon": 18.896862, "tags": {"addr:housenumber": "32", "addr:street": "Slobode", "amenity": "restaurant", "email": "petardss@t-com.me", "internet_access": "wlan", "name": "Vila Drago", "name:en": "Drago", "phone": "+38233468477", "website": "http://www.viladrago.com"}}, {"type": "node", "id": 4257763990, "lat": 42.2785737, "lon": 18.8377157, "tags": {"amenity": "restaurant", "check_date": "2024-10-17", "cuisine": "regional", "internet_access": "wlan", "name": "Rivijera", "opening_hours": "11:00-24:00", "phone": "+382 68 665 875"}}, {"type": "node", "id": 4258320689, "lat": 42.2906046, "lon": 18.8508224, "tags": {"amenity": "cafe", "check_date": "2025-05-01", "check_date:opening_hours": "2025-05-01", "cuisine": "pizza", "internet_access": "wlan", "name": "Disney", "opening_hours": "Mo-Su 08:00-01:00"}}, {"type": "node", "id": 4262630190, "lat": 42.1343482, "lon": 19.0609243, "tags": {"amenity": "cafe", "cuisine": "balkan", "name": "Pristan"}}, {"type": "node", "id": 4262674489, "lat": 42.1340426, "lon": 19.0610365, "tags": {"amenity": "cafe", "cuisine": "balkan;italian", "name": "Vecchio Pescatore"}}, {"type": "node", "id": 4263019589, "lat": 42.2562732, "lon": 18.8944074, "tags": {"amenity": "cafe", "name": "Pod Murvom", "opening_hours": "08:00-23:00", "phone": "+382 68 831 259", "toilets": "yes", "website": "https://www.facebook.com/barpodmurvom/"}}, {"type": "node", "id": 4264862858, "lat": 42.2898999, "lon": 18.8417209, "tags": {"addr:housenumber": "20", "addr:street": "Mainski put", "amenity": "cafe", "check_date": "2023-05-21", "cuisine": "bosnian;international;local", "internet_access": "wlan", "internet_access:fee": "customers", "level": "0", "name": "Grill Relax", "outdoor_seating": "no", "payment:cards": "no", "payment:credit_cards": "no", "payment:debit_cards": "no"}}, {"type": "node", "id": 4265648192, "lat": 42.2787576, "lon": 18.8380726, "tags": {"amenity": "restaurant", "check_date": "2024-10-22", "contact:facebook": "https://www.facebook.com/reginabudva/", "cuisine": "fish", "internet_access": "wlan", "name": "Regina E", "opening_hours": "Mo-Su 07:00-01:00", "outdoor_seating": "yes", "phone": "+382 68 002 929", "website": "http://www.reginae.me"}}, {"type": "node", "id": 4279081390, "lat": 42.2340846, "lon": 18.9036483, "tags": {"amenity": "restaurant"}}, {"type": "node", "id": 4279406591, "lat": 42.2339598, "lon": 18.9036578, "tags": {"amenity": "restaurant"}}, {"type": "node", "id": 4280119891, "lat": 42.2839905, "lon": 18.8360544, "tags": {"amenity": "restaurant", "check_date": "2025-04-03", "indoor_seating": "yes", "name": "Restoran L&M", "outdoor_seating": "yes"}}, {"type": "node", "id": 4280390293, "lat": 42.2546418, "lon": 18.8962753, "tags": {"amenity": "restaurant", "cuisine": "russian", "internet_access": "wlan", "name": "Romanov", "name:sr": "\u0420\u043e\u043c\u0430\u043d\u043e\u0432", "opening_hours": "Mo-Su 10:00-23:00"}}, {"type": "node", "id": 4285653711, "lat": 42.2798602, "lon": 18.8812933, "tags": {"amenity": "restaurant", "cuisine": "local;seafood;pasta;mediterranean", "internet_access": "wlan", "name": "Tri Ribara", "name:ru": "\u0422\u0440\u0438 \u0440\u044b\u0431\u0430\u043a\u0430", "name:sr": "\u0422\u0440\u0438 \u0440\u0438\u0431\u0430\u0440\u0430", "opening_hours": "Mo-Su 12:00-00:00", "website": "https://triribara.com"}}, {"type": "node", "id": 4290786892, "lat": 42.2901745, "lon": 18.8366832, "tags": {"amenity": "restaurant", "check_date:opening_hours": "2024-10-09", "cuisine": "asian", "name": "Taste of Asia", "opening_hours": "Mo-Su 12:00-22:00", "phone": "+382 33 455 249"}}, {"type": "node", "id": 4295516791, "lat": 42.283043, "lon": 18.836338, "tags": {"amenity": "restaurant", "check_date": "2024-10-13", "name": "Adriatic", "name:sr": "\u0410\u0434\u0440\u0438\u0430\u0442\u0438\u043a", "opening_hours": "07:00-24:00"}}, {"type": "node", "id": 4307263414, "lat": 42.2785023, "lon": 18.8383574, "tags": {"amenity": "restaurant", "check_date": "2024-10-17", "name": "Spaghetti"}}, {"type": "node", "id": 4320617890, "lat": 42.1417151, "lon": 19.0464231, "tags": {"amenity": "restaurant", "name": "Bella Vista"}}, {"type": "node", "id": 4320620489, "lat": 42.1412495, "lon": 19.0441735, "tags": {"amenity": "cafe", "indoor_seating": "yes", "name": "Kafana Ba\u0161ta", "name:sr": "\u041a\u0430\u0444\u0430\u043d\u0430 \u0411\u0430\u0448\u0442\u0430", "outdoor_seating": "yes"}}, {"type": "node", "id": 4320620789, "lat": 42.140456, "lon": 19.0432719}, {"type": "node", "id": 4329969193, "lat": 42.0992619, "lon": 19.0914096, "tags": {"amenity": "cafe", "name": "Planet", "name:en": "Koncert helye", "name:ru": "\u041f\u043b\u0430\u043d\u0435\u0442\u0430"}}, {"type": "node", "id": 4330028197, "lat": 42.1001813, "lon": 19.091192, "tags": {"amenity": "cafe", "cuisine": "pasta", "name": "Gvardija", "name:ru": "\u0413\u0432\u0430\u0440\u0434\u0438\u044f"}}, {"type": "node", "id": 4330028198, "lat": 42.1000671, "lon": 19.0906925, "tags": {"air_conditioning": "yes", "amenity": "cafe", "name": "Riva", "name:ru": "\u0420\u0438\u0432\u0430", "smoking": "outside"}}, {"type": "node", "id": 4335054992, "lat": 42.2058516, "lon": 18.9416452, "tags": {"amenity": "restaurant", "name": "Sunce", "name:sr": "\u0421\u0443\u043d\u0446\u0435"}}, {"type": "node", "id": 4335317197, "lat": 42.2453908, "lon": 18.897273, "tags": {"addr:street": "Jadranska magistrala", "amenity": "restaurant", "contact:facebook": "https://www.facebook.com/plazagalija", "contact:phone": "+382 69100008", "cuisine": "burger;regional;ice_cream;grill;cake;pasta;pancake;pizza;fish_and_chips;italian_pizza;fish;seafood;mediterranean;local", "diet:vegetarian": "yes", "internet_access": "wlan", "name": "Restoran Galija", "name:sr": "\u0420\u0435\u0441\u0442\u043e\u0440\u0430\u043d \u0413\u0430\u043b\u0438\u0458\u0430", "opening_hours": "24/7"}}, {"type": "node", "id": 4343893790, "lat": 42.1015065, "lon": 19.1003408, "tags": {"amenity": "cafe", "name": "Atina", "name:sr": "\u0410\u0442\u0438\u043d\u0430"}}, {"type": "node", "id": 4352238289, "lat": 42.2838267, "lon": 18.8046556, "tags": {"amenity": "restaurant", "cuisine": "local;seafood;fish;pasta;pizza;sandwich;steak_house", "name": "Grill basta & picerija Trpeza", "phone": "+38269951222"}}, {"type": "node", "id": 4355826945, "lat": 42.2440652, "lon": 18.9024619, "tags": {"amenity": "restaurant", "cuisine": "regional", "name": "National Restoran", "name:sr": "\u041d\u0430\u0446\u0438\u043e\u043d\u0430\u043b\u043d\u0438 \u0440\u0435\u0441\u0442\u043e\u0440\u0430\u043d"}}, {"type": "node", "id": 4368432290, "lat": 42.0996115, "lon": 19.1039694, "tags": {"addr:housenumber": "7A", "addr:street": "Po\u017eareva\u010dka", "amenity": "cafe", "check_date": "2024-05-14", "cuisine": "balkan", "internet_access": "wlan", "internet_access:fee": "customers", "level": "0", "name": "Banjalu\u010dki \u0107evap", "opening_hours": "08:00-23:00", "payment:cards": "no", "payment:cash": "yes", "payment:credit_cards": "no", "payment:debit_cards": "no", "phone": "+382 69 572603", "wheelchair": "limited"}}, {"type": "node", "id": 4381185390, "lat": 42.2248889, "lon": 18.9066015, "tags": {"amenity": "restaurant", "cuisine": "regional;pizza;pancake"}}, {"type": "node", "id": 4383727606, "lat": 42.2870759, "lon": 18.8476732, "tags": {"amenity": "restaurant", "check_date": "2023-05-22", "name": "Hotel Aleksandar Restaurant"}}, {"type": "node", "id": 4398228789, "lat": 42.2819889, "lon": 18.8385773, "tags": {"amenity": "restaurant", "check_date": "2023-08-01", "cuisine": "mediterranean;balkan;regional;seafood", "diet:vegetarian": "yes", "email": "restauran-jadran@t-com.me", "internet_access": "wlan", "internet_access:fee": "customers", "internet_access:ssid": "Restoran Jadran", "name": "Jadran kod Krsta", "outdoor_seating": "yes", "payment:mastercard": "yes", "payment:visa": "yes", "payment:visa_debit": "yes", "phone": "+382 68 033 180;+382 69 030 180;+382 68 068 664", "reservation": "recommended", "toilets": "yes", "toilets:wheelchair": "yes", "website": "http://restaurantjadran.me/", "wheelchair": "yes"}}, {"type": "node", "id": 4398757791, "lat": 42.2899282, "lon": 18.8512512, "tags": {"amenity": "cafe", "cuisine": "burger;pasta;international;italian;chicken;seafood;coffee_shop", "internet_access": "wlan", "name": "Forsage", "opening_hours": "Mo-Su 08:00-23:00"}}, {"type": "node", "id": 4407379808, "lat": 42.1108475, "lon": 19.0883671, "tags": {"air_conditioning": "yes", "amenity": "cafe", "check_date": "2024-12-29", "name": "Sushi Market", "opening_hours": "10:00-22:00", "wheelchair": "yes"}}, {"type": "node", "id": 4407391997, "lat": 42.092445, "lon": 19.1113476, "tags": {"amenity": "cafe", "check_date": "2024-09-17", "cuisine": "pizza;sandwich", "drive_through": "yes", "name": "Pekara Epoka", "opening_hours": "Mo-Su 06:00-23:00", "outdoor_seating": "yes", "phone": "069476908"}}, {"type": "node", "id": 4407417193, "lat": 42.0931684, "lon": 19.1330999, "tags": {"amenity": "restaurant", "name": "Lond\u017ea"}}, {"type": "node", "id": 4407434590, "lat": 42.0931738, "lon": 19.1332746, "tags": {"amenity": "cafe", "name": "Stara Kafana", "name:sr": "\u0421\u0442\u0430\u0440\u0430 \u043a\u0430\u0444\u0430\u043d\u0430", "name:sr-Latn": "Stara Kafana"}}, {"type": "node", "id": 4407485290, "lat": 42.093533, "lon": 19.1331363, "tags": {"amenity": "restaurant", "name": "Dino", "name:sr": "\u0414\u0438\u043d\u043e", "name:sr-Latn": "Dino"}}, {"type": "node", "id": 4407485292, "lat": 42.0936659, "lon": 19.1335468, "tags": {"amenity": "restaurant", "cuisine": "regional", "indoor_seating": "yes", "internet_access": "wlan", "name": "Citadela", "name:sr": "\u0426\u0438\u0442\u0430\u0434\u0435\u043b\u0430", "name:sr-Latn": "Citadela", "outdoor_seating": "yes"}}, {"type": "node", "id": 4407512089, "lat": 42.0941439, "lon": 19.1345172, "tags": {"amenity": "cafe", "name": "Velja Vrata"}}, {"type": "node", "id": 4407512794, "lat": 42.0938293, "lon": 19.1339177, "tags": {"addr:city": "Stari Bar", "addr:postcode": "85000", "addr:street": "Starobarska \u010darsija", "amenity": "restaurant", "contact:facebook": "restorankkaldrma.staribar", "contact:instagram": "kaldrmarestaurant", "diet:vegan": "yes", "diet:vegetarian": "yes", "email": "kaldrmarestoran@t-com.me", "name": "Restoran Kaldrma", "outdoor_seating": "yes", "phone": "+382 30 304 208"}}, {"type": "node", "id": 4407524789, "lat": 42.0937394, "lon": 19.133755, "tags": {"amenity": "restaurant", "cuisine": "regional", "indoor_seating": "yes", "mobile": "+382 69 777 220", "name": "Konoba Bedem", "name:ru": "\u041a\u043e\u043d\u043e\u0431\u0430 \u0411\u0435\u0434\u0435\u043c", "name:sr": "\u041a\u043e\u043d\u043e\u0431\u0430 \u0411\u0435\u0434\u0435\u043c", "name:sr-Latn": "Konoba Bedem", "opening_hours": "Mo-Su 09:00-00:00", "outdoor_seating": "yes", "payment:apple_pay": "yes", "payment:cards": "yes", "payment:cash": "yes", "payment:credit_cards": "yes", "payment:debit_cards": "yes", "payment:mastercard": "yes", "payment:mastercard_contactless": "yes", "payment:visa": "yes", "phone": "+382 69 666 336", "reservation": "yes", "smoking": "outside", "toilets": "yes", "toilets:wheelchair": "no", "wheelchair": "limited"}}, {"type": "node", "id": 4407533990, "lat": 42.2060837, "lon": 18.9397757, "tags": {"amenity": "restaurant", "name": "\u041a\u043e\u043d\u043e\u0431\u0430 \u0411\u043e\u043d\u0430\u0446\u0430", "name:cs": "Konoba Bonaca", "name:sr": "\u041a\u043e\u043d\u043e\u0431\u0430 \u0411\u043e\u043d\u0430\u0446\u0430"}}, {"type": "node", "id": 4407539291, "lat": 42.2899038, "lon": 18.839218, "tags": {"air_conditioning": "yes", "amenity": "restaurant", "check_date:opening_hours": "2022-11-15", "indoor_seating": "yes", "name": "Mercur", "name:cs": "Self-Service Restaurant", "opening_hours:signed": "no", "outdoor_seating": "no"}}, {"type": "node", "id": 4407544591, "lat": 42.2808024, "lon": 18.800025, "tags": {"amenity": "restaurant", "name": "Spiaggia d'oro"}}, {"type": "node", "id": 4407544892, "lat": 42.2776015, "lon": 18.8378924, "tags": {"amenity": "cafe", "check_date": "2024-08-28", "ice_cream": "yes", "internet_access": "wlan", "internet_access:fee": "customers", "name": "Ice Club MB", "toilets": "yes"}}, {"type": "node", "id": 4407545089, "lat": 42.2060241, "lon": 18.9404337, "tags": {"amenity": "restaurant", "cuisine": "regional;local;balkan", "name": "\u041f\u0430\u0440\u0430\u0434\u0438\u0437\u043e", "name:cs": "Paradiso", "name:en": "Paradisio", "name:sr": "\u041f\u0430\u0440\u0430\u0434\u0438\u0437\u043e"}}, {"type": "node", "id": 4407545390, "lat": 42.2786864, "lon": 18.8385339, "tags": {"amenity": "restaurant", "check_date": "2024-10-22", "cuisine": "chinese", "internet_access": "wlan", "name": "Hong Kong", "name:ru": "\u0413\u043e\u043d\u043a\u043e\u043d\u0433", "outdoor_seating": "yes"}}, {"type": "node", "id": 4407777399, "lat": 42.284265, "lon": 18.806237, "tags": {"amenity": "restaurant", "name": "Poseidon"}}, {"type": "node", "id": 4494794748, "lat": 42.2569929, "lon": 18.8935478, "tags": {"amenity": "cafe", "name": "Agora cafe", "name:sr": "\u0410\u0433\u043e\u0440\u0430 \u043a\u0430\u0444\u0435"}}, {"type": "node", "id": 4494835126, "lat": 42.2680392, "lon": 18.8925788, "tags": {"amenity": "restaurant", "cuisine": "seafood", "name": "Konoba Langust"}}, {"type": "node", "id": 4586773255, "lat": 42.0787248, "lon": 19.1257849, "tags": {"amenity": "cafe", "name": "Vrata Bara", "name:sr": "\u0412\u0440\u0430\u0442\u0430 \u0411\u0430\u0440\u0430"}}, {"type": "node", "id": 4626017290, "lat": 42.2069086, "lon": 18.9392191, "tags": {"amenity": "restaurant", "cuisine": "balkan", "internet_access": "wlan", "name:en": "Balkan"}}, {"type": "node", "id": 4753803521, "lat": 42.2923605, "lon": 18.8427685, "tags": {"addr:street": "Mainski put", "amenity": "restaurant", "cuisine": "italian_pizza", "indoor_seating": "yes", "internet_access": "wlan", "name": "Bridge", "opening_hours": "Su-Th 08:00-00:00; Fr-Sa 08:00-01:00", "outdoor_seating": "yes", "phone": "+382 69 736 066"}}, {"type": "node", "id": 4778754333, "lat": 42.2802782, "lon": 18.8367079, "tags": {"amenity": "cafe", "level": "0", "name": "Palma Lounge Club", "outdoor_seating": "yes"}}, {"type": "node", "id": 4844388021, "lat": 42.0981981, "lon": 19.0921441, "tags": {"amenity": "restaurant", "internet_access": "wlan", "name": "Skipper Club", "name:en": "Skipper Club", "name:ru": "\u0428\u043a\u0438\u043f\u043f\u0435\u0440 \u041a\u043b\u0443\u0431", "phone": "+38268870835"}}, {"type": "node", "id": 4870478321, "lat": 42.2456237, "lon": 19.0906534}, {"type": "node", "id": 4902617961, "lat": 42.2460415, "lon": 18.9043444}, {"type": "node", "id": 4902617962, "lat": 42.246333, "lon": 18.9043635}, {"type": "node", "id": 4902617963, "lat": 42.246224, "lon": 18.9042643}, {"type": "node", "id": 4902617964, "lat": 42.2460585, "lon": 18.9042224}, {"type": "node", "id": 4902617965, "lat": 42.2463167, "lon": 18.9042416}, {"type": "node", "id": 4915144723, "lat": 42.2919927, "lon": 18.8465639, "tags": {"amenity": "restaurant", "check_date": "2024-11-08", "name": "\u0414\u0440\u0443\u0436\u0431\u0430", "opening_hours": "closed"}}, {"type": "node", "id": 4915144823, "lat": 42.2902186, "lon": 18.848184, "tags": {"addr:city": "Budva", "addr:housenumber": "100", "addr:street": "Babalonija", "amenity": "cafe", "name": "My Place Pub", "opening_hours": "closed", "outdoor_seating": "yes", "phone": "068841089"}}, {"type": "node", "id": 4922710221, "lat": 42.2907064, "lon": 18.8504332, "tags": {"amenity": "restaurant", "cuisine": "turkish;kebab;barbecue", "name": "The House Kebab & Grill Restaurant", "opening_hours": "Mo-Su 08:00-0:00"}}, {"type": "node", "id": 4926665121, "lat": 42.2840398, "lon": 18.8410816, "tags": {"amenity": "restaurant", "bar": "yes", "cuisine": "pizza", "internet_access": "wlan", "name": "Marinero", "opening_hours": "Mo-Su 08:00-01:00"}}, {"type": "node", "id": 4934466018, "lat": 42.2544702, "lon": 18.8993516}, {"type": "node", "id": 4934466019, "lat": 42.2543996, "lon": 18.8993932}, {"type": "node", "id": 4934466020, "lat": 42.2543311, "lon": 18.8992524}, {"type": "node", "id": 4934467421, "lat": 42.2543911, "lon": 18.8991987}, {"type": "node", "id": 4942610621, "lat": 42.2886074, "lon": 18.846297, "tags": {"amenity": "cafe", "name": "Street Food Verde", "opening_hours": "Mo-Su 07:00-00:00"}}, {"type": "node", "id": 4949458229, "lat": 42.2893648, "lon": 18.8383022, "tags": {"amenity": "cafe", "cuisine": "pizza", "internet_access": "wlan", "name": "Rio As", "name:en": "Rio", "opening_hours": "Mo-Su 07:00-00:00", "phone": "+382 68 271 010", "website": "http://pizzeriario.me"}}, {"type": "node", "id": 4951381288, "lat": 42.2665929, "lon": 18.8914019, "tags": {"amenity": "restaurant", "name": "Konoba Zago", "name:sr": "\u041a\u043e\u043d\u043e\u0431\u0430 \u0417\u0430\u0433\u043e", "opening_hours": "Mo-Su 08:00-00:00"}}, {"type": "node", "id": 4965329520, "lat": 42.1312732, "lon": 19.0625441, "tags": {"amenity": "cafe", "name": "Pizzeria Pink Panter", "name:sr": "\u041f\u0438\u0446\u0435\u0440\u0438\u0458\u0430 \u041f\u0438\u043d\u043a \u041f\u0430\u043d\u0442\u0435\u0440"}}, {"type": "node", "id": 4965930745, "lat": 42.1383564, "lon": 19.0293676}, {"type": "node", "id": 4965930746, "lat": 42.138308, "lon": 19.029485}, {"type": "node", "id": 4965930747, "lat": 42.1382295, "lon": 19.0294262}, {"type": "node", "id": 4965930748, "lat": 42.1382779, "lon": 19.0293088}, {"type": "node", "id": 4986677225, "lat": 42.289482, "lon": 18.8480437, "tags": {"addr:street": "Velji Vinogradi", "amenity": "cafe", "email": "grape_cafe@mail.ru", "internet_access": "wlan", "internet_access:fee": "customers", "internet_access:ssid": "Grape", "name": "Grape Cafe", "opening_hours": "Mo-Su 09:00-23:45", "phone": "+382 69 612 838", "website": "https://facebook.com/grapecafe/"}}, {"type": "node", "id": 5005516725, "lat": 42.2710864, "lon": 18.890503, "tags": {"amenity": "restaurant", "cuisine": "balkan", "internet_access": "wlan", "name": "Custo", "name:ru": "\u041a\u0443\u0441\u0442\u043e", "opening_hours": "Mo-Su 08:00-22:00"}}, {"type": "node", "id": 5048383723, "lat": 42.2794583, "lon": 18.8818434, "tags": {"amenity": "restaurant", "cuisine": "italian", "internet_access": "wlan", "name": "Dolce Vita", "name:en": "Dolce Vita", "opening_hours": "Mo-Su 09:00-23:00", "outdoor_seating": "yes"}}, {"type": "node", "id": 5048383724, "lat": 42.2787059, "lon": 18.8382135, "tags": {"amenity": "restaurant", "check_date": "2024-10-22", "cuisine": "chinese;asian", "name": "Shanghai", "outdoor_seating": "yes"}}, {"type": "node", "id": 5048390623, "lat": 42.278165, "lon": 18.881373, "tags": {"amenity": "restaurant", "name": "Monaco", "name:sr": "\u041c\u043e\u043d\u0430\u043a\u043e", "toilets:wheelchair": "no", "wheelchair": "limited"}}, {"type": "node", "id": 5049117921, "lat": 42.2801477, "lon": 18.881967, "tags": {"amenity": "restaurant", "name": "Kod Sai\u010di\u0107a", "smoking": "yes", "takeaway": "yes"}}, {"type": "node", "id": 5069566527, "lat": 42.2807671, "lon": 18.8780548, "tags": {"amenity": "cafe", "name": "Papillon fast food"}}, {"type": "node", "id": 5069796739, "lat": 42.2810139, "lon": 18.8773447, "tags": {"amenity": "restaurant", "name": "Grill Ba\u0161ta \"Stefan\"", "name:sr": "\u0413\u0440\u0438\u043b \u0431\u0430\u0448\u0442\u0430 \u0421\u0442\u0435\u0444\u0430\u043d", "opening_hours": "7:00-24:00"}}, {"type": "node", "id": 5084596721, "lat": 42.2561321, "lon": 18.896792, "tags": {"amenity": "cafe", "internet_access": "wlan", "name": "Caffe Caffe", "name:ru": "\u041a\u0430\u0444\u0435 Caffe", "opening_hours": "Mo-Su 07:30-23:00"}}, {"type": "node", "id": 5092149522, "lat": 42.2717537, "lon": 18.8902211, "tags": {"amenity": "cafe", "cuisine": "regional;breakfast;grill;seafood;friture;balkan;chicken;barbecue", "name": "Kusta Konoba", "name:sr": "\u041a\u0443\u0441\u0442\u0430 \u043a\u043e\u043d\u043e\u0431\u0430", "opening_hours": "Mo-Su 08:00-22:00"}}, {"type": "node", "id": 5103673323, "lat": 42.290105, "lon": 18.8386476, "tags": {"addr:street": "Popa Jola Zeca", "amenity": "restaurant", "cuisine": "grill;local;regional", "indoor_seating": "yes", "name": "Mercur", "outdoor_seating": "yes", "website": "http://www.mercursystem.com"}}, {"type": "node", "id": 5105269725, "lat": 42.2784334, "lon": 18.8380069, "tags": {"amenity": "restaurant", "indoor_seating": "yes", "name": "Konoba Portun", "outdoor_seating": "yes", "website": "http://konobaportun.com"}}, {"type": "node", "id": 5105269727, "lat": 42.2782261, "lon": 18.8369333, "tags": {"amenity": "restaurant", "check_date": "2024-10-17", "name": "Konoba Stari Grad", "payment:credit_cards": "yes", "payment:debit_cards": "yes", "phone": "+382 63 225 410", "website": "http://www.konobastarigrad.me/?lang=en"}}, {"type": "node", "id": 5121436121, "lat": 42.2872899, "lon": 18.840299, "tags": {"addr:city": "Budva", "addr:housenumber": "19", "addr:street": "Bla\u017ea Jovanovi\u0107a", "amenity": "restaurant", "cuisine": "balkan", "indoor_seating": "yes", "name": "Kod Iva", "outdoor_seating": "yes"}}, {"type": "node", "id": 5130832844, "lat": 42.2906431, "lon": 18.8420642, "tags": {"amenity": "cafe", "cuisine": "burger;breakfast;seafood;coffee_shop;local", "name": "Stella", "name:ru": "\u0421\u0442\u0435\u043b\u043b\u0430", "opening_hours": "Mo-Su 09:00-02:00"}}, {"type": "node", "id": 5131639021, "lat": 42.2901925, "lon": 18.841771, "tags": {"amenity": "cafe", "cuisine": "pizza", "internet_access": "wlan", "name": "Obelix", "opening_hours": "Mo-Su 08:00-00:00", "phone": "+382 68 667 669"}}, {"type": "node", "id": 5133535827, "lat": 42.2771916, "lon": 18.8810602, "tags": {"amenity": "restaurant", "name": "\u0421\u0442\u0438\u0458\u0435\u043d\u0435", "name:en": "Stijene", "name:sr": "\u0421\u0442\u0438\u0458\u0435\u043d\u0435"}}, {"type": "node", "id": 5133535831, "lat": 42.2795115, "lon": 18.8817819, "tags": {"amenity": "restaurant", "cuisine": "pizza", "internet_access": "wlan", "name": "Nevena", "outdoor_seating": "yes", "toilets:wheelchair": "no", "wheelchair": "limited"}}, {"type": "node", "id": 5133537825, "lat": 42.2807073, "lon": 18.862271, "tags": {"amenity": "restaurant", "contact:facebook": "https://www.facebook.com/ElGustoBeerGarden", "contact:instagram": "https://www.instagram.com/el_gusto_beer_garden/", "direction": "https://www.google.com/maps/vt/data=X-7bgc1137vEFECdUmHO8K26qeeS4C-Y3Cfq_xQcEH4QGyF8u2V0Y2RzHJy8fj_Rm3PRIfnHcLxSIq_1TB-VIJtnMgPUrN96Eg67jas89inLk6w-gCmgu08jxQ6shnvSffNS3jFl4Jg9vB5F3pqxgovsKHe7erqx8jNwZbygPXQw4OfHyw", "mobile": "033 - 773/388", "name": "El Gusto International", "opening_hours": "8 AM - 11 PM", "website": "https://montenegrostars.com/en/montenegro-bars-restaurants/el-gusto-international-beer-garden"}}, {"type": "node", "id": 5133538221, "lat": 42.2804203, "lon": 18.8805196, "tags": {"amenity": "restaurant", "internet_access": "wlan", "name": "Obala", "name:en": "Obala", "name:ru": "\u041e\u0431\u0430\u043b\u0430"}}, {"type": "node", "id": 5137808324, "lat": 42.2882564, "lon": 18.8419305, "tags": {"amenity": "restaurant", "name": "Bucanero"}}, {"type": "node", "id": 5171396223, "lat": 42.0985773, "lon": 19.0921534, "tags": {"addr:housenumber": "8", "amenity": "restaurant", "name": "One More", "name:en": "One More", "name:ru": "\u0415\u0449\u0435 \u041e\u0434\u043d\u043e"}}, {"type": "node", "id": 5175005630, "lat": 42.0979496, "lon": 19.0917238}, {"type": "node", "id": 5175005631, "lat": 42.0986143, "lon": 19.0921937}, {"type": "node", "id": 5175005632, "lat": 42.0985345, "lon": 19.0922505}, {"type": "node", "id": 5175005633, "lat": 42.0984904, "lon": 19.0921032}, {"type": "node", "id": 5175005634, "lat": 42.0985539, "lon": 19.0920666}, {"type": "node", "id": 5175005663, "lat": 42.098, "lon": 19.0917129}, {"type": "node", "id": 5175005664, "lat": 42.098016, "lon": 19.0918053}, {"type": "node", "id": 5175005665, "lat": 42.0979024, "lon": 19.0918552}, {"type": "node", "id": 5175005666, "lat": 42.0978831, "lon": 19.0917381}, {"type": "node", "id": 5175011649, "lat": 42.1029267, "lon": 19.0892474}, {"type": "node", "id": 5175011650, "lat": 42.1028112, "lon": 19.0892903}, {"type": "node", "id": 5175011651, "lat": 42.1027132, "lon": 19.0891746}, {"type": "node", "id": 5175486082, "lat": 42.1062746, "lon": 19.0880451}, {"type": "node", "id": 5261906840, "lat": 42.1087998, "lon": 19.0946785}, {"type": "node", "id": 5261906841, "lat": 42.1086853, "lon": 19.0947837}, {"type": "node", "id": 5261906842, "lat": 42.1087213, "lon": 19.0948554}, {"type": "node", "id": 5261906843, "lat": 42.1088367, "lon": 19.0947507}, {"type": "node", "id": 5271905122, "lat": 42.2881181, "lon": 18.8385004, "tags": {"amenity": "cafe", "cuisine": "cake", "internet_access": "wlan", "name": "Osteria Gigo", "opening_hours": "Mo-Fr 08:00-23:00; Su-Sa 09:00-23:00", "outdoor_seating": "yes", "phone": "+38233452844"}}, {"type": "node", "id": 5351639294, "lat": 42.2825968, "lon": 18.8664938}, {"type": "node", "id": 5351639295, "lat": 42.2825383, "lon": 18.8667768}, {"type": "node", "id": 5351639296, "lat": 42.2826008, "lon": 18.8668057}, {"type": "node", "id": 5351639297, "lat": 42.282561, "lon": 18.8665914, "tags": {"entrance": "yes"}}, {"type": "node", "id": 5351639298, "lat": 42.2825338, "lon": 18.8667042}, {"type": "node", "id": 5351639299, "lat": 42.2825789, "lon": 18.8665426}, {"type": "node", "id": 5351639300, "lat": 42.2825479, "lon": 18.866786, "tags": {"entrance": "yes"}}, {"type": "node", "id": 5351639304, "lat": 42.282643, "lon": 18.8668186}, {"type": "node", "id": 5351639305, "lat": 42.2825725, "lon": 18.8668004}, {"type": "node", "id": 5351641530, "lat": 42.2810017, "lon": 18.8650391, "tags": {"addr:city": "Be\u010di\u0107i", "amenity": "cafe", "description": "\u041f\u043b\u044f\u0436\u043d\u044b\u0439 \u0431\u0430\u0440 Lumbrela", "internet_access": "wlan", "internet_access:fee": "no", "name": "Lumbrela", "outdoor_seating": "yes", "smoking": "yes"}}, {"type": "node", "id": 5518878964, "lat": 42.0965064, "lon": 19.0924256, "tags": {"amenity": "cafe", "indoor_seating": "yes", "name": "Le Petit Macaron", "opening_hours": "Mo-Su 07:00-01:00", "outdoor_seating": "yes"}}, {"type": "node", "id": 5596544301, "lat": 42.0878321, "lon": 19.1035438}, {"type": "node", "id": 5596544302, "lat": 42.0879266, "lon": 19.1035572}, {"type": "node", "id": 5596544303, "lat": 42.0879353, "lon": 19.1034463}, {"type": "node", "id": 5596544304, "lat": 42.0878407, "lon": 19.1034329}, {"type": "node", "id": 5629956826, "lat": 42.2846755, "lon": 18.8549742, "tags": {"addr:postcode": "85310", "addr:street": "Slovenska Obala", "amenity": "cafe", "internet_access": "wlan", "name": "Time Out Beach", "opening_hours": "07:00-01:00", "operator": "Zeljko Zvicer", "phone": "+38269577040"}}, {"type": "node", "id": 5656894621, "lat": 42.1374579, "lon": 19.0530918, "tags": {"amenity": "restaurant", "check_date": "2024-05-01", "indoor_seating": "yes", "internet_access": "wlan", "name": "Karuba", "opening_hours": "Mo-Su 08:00-00:00", "outdoor_seating": "yes", "phone": "030372267", "smoking": "outside", "wheelchair": "no"}}, {"type": "node", "id": 5669693870, "lat": 42.1454641, "lon": 19.1220716, "tags": {"amenity": "restaurant", "name": "Restoran Sutorman"}}, {"type": "node", "id": 5709757239, "lat": 42.0852794, "lon": 19.1248355, "tags": {"amenity": "restaurant", "check_date": "2025-06-03", "cuisine": "pizza", "diet:vegetarian": "limited", "name": "Grill Montenegro"}}, {"type": "node", "id": 5709757241, "lat": 42.0860946, "lon": 19.1240643, "tags": {"amenity": "cafe", "check_date": "2025-05-29", "cuisine": "pizza;regional;burek", "diet:vegetarian": "yes", "indoor_seating": "yes", "name": "Pekara Evropa", "name:sr": "\u041f\u0435\u043a\u0430\u0440\u0430 \u0415\u0432\u0440\u043e\u043f\u0430", "opening_hours": "PH,Mo-Su 06:00-24:00", "outdoor_seating": "yes"}}, {"type": "node", "id": 5709757310, "lat": 42.0880673, "lon": 19.1309919}, {"type": "node", "id": 5709757312, "lat": 42.0880819, "lon": 19.1309758}, {"type": "node", "id": 5709757315, "lat": 42.088114, "lon": 19.1309405}, {"type": "node", "id": 5709757317, "lat": 42.0881186, "lon": 19.1310764}, {"type": "node", "id": 5709757319, "lat": 42.0881652, "lon": 19.131025}, {"type": "node", "id": 5715151042, "lat": 42.2455646, "lon": 19.0906815}, {"type": "node", "id": 5715151043, "lat": 42.2456197, "lon": 19.0908713}, {"type": "node", "id": 5715151044, "lat": 42.2456553, "lon": 19.0907664}, {"type": "node", "id": 5715151045, "lat": 42.2456604, "lon": 19.0909001}, {"type": "node", "id": 5715151046, "lat": 42.2456758, "lon": 19.0908398}, {"type": "node", "id": 5739568282, "lat": 42.2494083, "lon": 18.8972868}, {"type": "node", "id": 5739568283, "lat": 42.2494076, "lon": 18.8971673}, {"type": "node", "id": 5739568284, "lat": 42.2492751, "lon": 18.8972882}, {"type": "node", "id": 5739568285, "lat": 42.2492744, "lon": 18.8971687}, {"type": "node", "id": 5761993217, "lat": 42.1994771, "lon": 18.9656251, "tags": {"addr:street": "confirmation is required", "amenity": "restaurant", "cuisine": "local", "internet_access": "wlan", "name:de": "Konoba Galeb", "name:en": "Konoba Galeb"}}, {"type": "node", "id": 5765698854, "lat": 42.2065354, "lon": 18.9386954, "tags": {"amenity": "restaurant", "cuisine": "regional;local;balkan", "name": "\u041a\u043e\u043d\u043e\u0431\u0430 \"S&M\"", "name:en": "Conoba \"S&M\"", "name:ru": "\u041a\u043e\u043d\u043e\u0431\u0430 \"S&M\"", "name:sr": "\u041a\u043e\u043d\u043e\u0431\u0430 \"S&M\""}}, {"type": "node", "id": 5771233854, "lat": 42.2285682, "lon": 18.9116528}, {"type": "node", "id": 5772891453, "lat": 42.2065279, "lon": 18.9389621, "tags": {"amenity": "restaurant", "cuisine": "seafood;mediterranean;regional;grill;local;balkan", "internet_access": "wlan", "name": "\u041a\u0430\u0442\u0438\u045b", "name:en": "Kati\u010d", "name:ru": "\u041a\u0430\u0442\u0438\u0447", "name:sr": "\u041a\u0430\u0442\u0438\u045b"}}, {"type": "node", "id": 5783953153, "lat": 42.0987637, "lon": 19.0988332, "tags": {"amenity": "restaurant", "cuisine": "spanish;mexican;grill", "indoor_seating": "yes", "name": "Las Ramblas", "opening_hours": "Mo-Su 07:00-24:00", "outdoor_seating": "yes", "website": "https://lasramblas.online/"}}, {"type": "node", "id": 5809008067, "lat": 42.2463501, "lon": 19.0901801, "tags": {"addr:housenumber": "26", "addr:street": "Trg Ustanka", "amenity": "restaurant", "internet_access": "wlan", "name": "Bocconcino"}}, {"type": "node", "id": 5810979727, "lat": 42.2675873, "lon": 18.8921358, "tags": {"amenity": "restaurant", "name": "Konoba More", "name:sr": "\u041a\u043e\u043d\u043e\u0431\u0430 \u041c\u043e\u0440\u0435"}}, {"type": "node", "id": 5832199486, "lat": 42.2078552, "lon": 18.9406692, "tags": {"amenity": "cafe"}}, {"type": "node", "id": 5834199685, "lat": 42.2010249, "lon": 18.950721, "tags": {"amenity": "restaurant", "cuisine": "pizza;pasta;breakfast;coffee_shop;fish_and_chips;barbecue", "internet_access": "wlan", "name": "\u041c\u0435\u0434\u0438\u043d", "name:en": "Medin", "name:ru": "\u041c\u0435\u0434\u0438\u043d", "name:sr": "\u041c\u0435\u0434\u0438\u043d"}}, {"type": "node", "id": 5843868391, "lat": 42.2786435, "lon": 18.8386431, "tags": {"addr:city": "Budva", "amenity": "restaurant", "check_date": "2024-10-17", "name": "Pasta bar"}}, {"type": "node", "id": 5876379702, "lat": 42.2743852, "lon": 18.888287, "tags": {"amenity": "cafe", "name": "HIT CODE"}}, {"type": "node", "id": 5906899885, "lat": 42.2812263, "lon": 18.8681544, "tags": {"amenity": "cafe", "name": "Sunset Beach Bar"}}, {"type": "node", "id": 5909645644, "lat": 42.2756057, "lon": 18.8870472}, {"type": "node", "id": 5911022086, "lat": 42.2078816, "lon": 18.9395682, "tags": {"addr:housenumber": "10", "addr:street": "XII", "amenity": "restaurant", "name": "\u041c\u0430\u0441\u043b\u0438\u043d\u0430", "name:en": "Maslina", "name:sr": "\u041c\u0430\u0441\u043b\u0438\u043d\u0430"}}, {"type": "node", "id": 5928803685, "lat": 42.2810927, "lon": 18.8373094, "tags": {"amenity": "cafe", "internet_access": "wlan", "name": "Njam njam"}}, {"type": "node", "id": 5934632285, "lat": 42.109069, "lon": 19.0872213, "tags": {"amenity": "restaurant", "cuisine": "pizza;sandwich", "indoor_seating": "yes", "name": "Corso", "name:en": "Corso", "opening_hours": "Mo-Su 07:00-01:00", "outdoor_seating": "yes"}}, {"type": "node", "id": 5948074793, "lat": 42.1403942, "lon": 19.048105, "tags": {"amenity": "cafe", "cuisine": "mediterranean", "name": "Bobina kuhinja", "name:sr": "\u0411\u043e\u0431\u0438\u043d\u0430 \u043a\u0443\u0445\u0438\u045a\u0430"}}, {"type": "node", "id": 6028470063, "lat": 42.2931471, "lon": 18.8393042, "tags": {"addr:city": "Budva", "addr:housenumber": "2", "addr:postcode": "85310", "addr:street": "XVI ulica", "amenity": "cafe", "cuisine": "pizza;coffee_shop;sandwich;italian", "internet_access": "wlan", "internet_access:fee": "no", "name": "Snack & Caffe Bar Life", "opening_hours": "Mo-Sa 08:00-24:00", "outdoor_seating": "yes", "smoking": "yes", "toilets:wheelchair": "no", "wheelchair": "limited"}}, {"type": "node", "id": 6233348585, "lat": 42.2775026, "lon": 18.833735, "tags": {"amenity": "restaurant", "name": "Vista Vidikovac", "phone": "+38269180180"}}, {"type": "node", "id": 6412135020, "lat": 42.29006, "lon": 18.8372308}, {"type": "node", "id": 6412135021, "lat": 42.2899627, "lon": 18.8371705}, {"type": "node", "id": 6412135022, "lat": 42.2899105, "lon": 18.8373246}, {"type": "node", "id": 6412135023, "lat": 42.2900078, "lon": 18.8373848}, {"type": "node", "id": 6412143652, "lat": 42.2886404, "lon": 18.8389955, "tags": {"addr:city": "Budva", "amenity": "restaurant", "cuisine": "pizza;regional", "internet_access": "wlan", "name": "Restaurant Sirius", "outdoor_seating": "yes"}}, {"type": "node", "id": 6440399197, "lat": 42.267138, "lon": 18.891824, "tags": {"addr:housenumber": "12", "addr:street": "Obala Br.", "amenity": "restaurant", "indoor_seating": "no", "name": "Restoran Kaza", "opening_hours": "Mo-Su 09:00-23:00", "outdoor_seating": "yes"}}, {"type": "node", "id": 6498332585, "lat": 42.2866624, "lon": 18.8388156, "tags": {"amenity": "restaurant", "name": "Etzy", "name:en": "Teraca"}}, {"type": "node", "id": 6520462785, "lat": 42.2561088, "lon": 18.8975007, "tags": {"amenity": "restaurant", "internet_access": "wlan", "name": "Adrovi\u0107"}}, {"type": "node", "id": 6537311188, "lat": 42.3150643, "lon": 19.062204, "tags": {"addr:postcode": "81250", "addr:street": "Rijeka Crnojevi\u0107a - Virpazar", "amenity": "cafe", "cuisine": "regional;pancake;sandwich;coffee_shop;local;balkan;mediterranean;barbecue;tea;croatian;cake;donut;breakfast;grill", "email": "macalovbrijeg@gmail.com", "internet_access": "wlan", "name": "Macalov Brijeg", "name:en": "Macalov Brijeg", "opening_hours": "24/7", "operator": "Goran Vujovi\u0107", "phone": "+38267875959"}}, {"type": "node", "id": 6550979513, "lat": 42.2669907, "lon": 18.8910488, "tags": {"addr:city": "Municipalit\u00e9 de Budva Mont\u00e9n\u00e9gro", "addr:housenumber": "11", "addr:street": "Ulica Obala", "amenity": "restaurant", "check_date": "2023-09-14", "contact:instagram": "https://www.instagram.com/restaurant_blanche/", "currency:XBT": "yes", "name": "Blanche", "opening_hours": "Mo-Su 09:00-23:00", "payment:lightning": "no", "payment:lightning_contactless": "no", "payment:onchain": "yes", "phone": "+38 26 822 3711"}}, {"type": "node", "id": 6550991868, "lat": 42.2769937, "lon": 18.8384138, "tags": {"amenity": "restaurant", "check_date": "2023-08-01", "name": "Luxury Restaurant", "outdoor_seating": "yes", "wheelchair": "no"}}, {"type": "node", "id": 6552183875, "lat": 42.281256, "lon": 18.8363251, "tags": {"amenity": "restaurant", "name": "Perla", "phone": "+38268808080", "website": "https://instagram.com/perla_restaurant_and_club"}}, {"type": "node", "id": 6578523246, "lat": 42.2062503, "lon": 18.9372868, "tags": {"amenity": "cafe", "name": "Dominus", "name:sr": "\u0414\u043e\u043c\u0438\u043d\u0443\u0441"}}, {"type": "node", "id": 6581746691, "lat": 42.2786231, "lon": 18.8819289, "tags": {"amenity": "restaurant", "name": "Apetit"}}, {"type": "node", "id": 6620972818, "lat": 42.0789236, "lon": 19.1254219, "tags": {"addr:street": "Tomba b.b", "amenity": "restaurant", "cuisine": "mediterranean;fish;local;seafood;fine_dining", "internet_access": "wlan", "name": "Steak & Fish", "name:en": "Steak & Fish", "name:ru": "\u0441\u0442\u0435\u0439\u043a \u0438 \u0440\u044b\u0431\u0430", "opening_hours": "Mo-Su 07:00-00:00", "phone": "+38230685372"}}, {"type": "node", "id": 6661365085, "lat": 42.2885783, "lon": 18.8328286, "tags": {"addr:street": "Prva Proleterska", "air_conditioning": "yes", "amenity": "cafe", "internet_access": "wlan", "name": "Rea Src", "opening_hours": "Mo-Su 08:00-22:00", "smoking": "separated"}}, {"type": "node", "id": 6661365086, "lat": 42.2812532, "lon": 18.8379286, "tags": {"addr:street": "Slovenska Obala", "amenity": "restaurant", "cuisine": "local", "internet_access": "wlan", "name": "Riva"}}, {"type": "node", "id": 6700273485, "lat": 42.2776015, "lon": 18.838108, "tags": {"amenity": "cafe", "name": "Sky Light"}}, {"type": "node", "id": 6710564285, "lat": 42.2886511, "lon": 18.8386201, "tags": {"amenity": "restaurant", "name": "Grbalj", "opening_hours": "Mo-Su 06:00-24:00"}}, {"type": "node", "id": 6767155117, "lat": 42.307273, "lon": 18.8052066, "tags": {"amenity": "cafe", "cuisine": "pizza;coffee_shop", "name": "Molto Bene", "name:en": "Molto Bene"}}, {"type": "node", "id": 6768713879, "lat": 42.2899434, "lon": 18.8468078, "tags": {"amenity": "restaurant", "cuisine": "pizza", "name": "Oliva"}}, {"type": "node", "id": 6775553485, "lat": 42.26762, "lon": 19.1133362, "tags": {"amenity": "restaurant", "name:en": "Zoran"}}, {"type": "node", "id": 6781263785, "lat": 42.2888494, "lon": 18.8389017, "tags": {"amenity": "cafe", "internet_access": "wlan", "name": "Caffe Centar"}}, {"type": "node", "id": 6796438986, "lat": 42.2882466, "lon": 18.8402692, "tags": {"amenity": "restaurant", "cuisine": "balkan", "internet_access": "wlan", "name": "Druga Kuca"}}, {"type": "node", "id": 6813635933, "lat": 42.2064447, "lon": 18.9378886, "tags": {"amenity": "cafe", "cuisine": "coffee_shop;ice_cream;cake", "name": "Caffe poslaticarnica", "name:sr": "\u041a\u0430\u0444\u0435-\u043f\u043e\u0441\u043b\u0430\u0441\u0442\u0438\u0447\u0430\u0440\u043d\u0438\u0446\u0430"}}, {"type": "node", "id": 6813635950, "lat": 42.2063769, "lon": 18.9393072, "tags": {"amenity": "cafe", "name": "Fat Boys"}}, {"type": "node", "id": 6813635951, "lat": 42.2062359, "lon": 18.939444, "tags": {"amenity": "restaurant", "name": "Riva", "name:sr": "\u0420\u0438\u0432\u0430"}}, {"type": "node", "id": 6813635956, "lat": 42.2058102, "lon": 18.9401467}, {"type": "node", "id": 6813635957, "lat": 42.2057725, "lon": 18.9402942}, {"type": "node", "id": 6813635958, "lat": 42.2057903, "lon": 18.9402989}, {"type": "node", "id": 6813635959, "lat": 42.2059314, "lon": 18.9403321}, {"type": "node", "id": 6813635960, "lat": 42.2059384, "lon": 18.9402024}, {"type": "node", "id": 6813846896, "lat": 42.2066135, "lon": 18.9374754}, {"type": "node", "id": 6813846897, "lat": 42.2065707, "lon": 18.9376062}, {"type": "node", "id": 6813846898, "lat": 42.206501, "lon": 18.9375646}, {"type": "node", "id": 6813846899, "lat": 42.2065439, "lon": 18.9374338}, {"type": "node", "id": 6813846962, "lat": 42.205606, "lon": 18.9371221}, {"type": "node", "id": 6813846963, "lat": 42.2055907, "lon": 18.9370353}, {"type": "node", "id": 6815200385, "lat": 42.2058151, "lon": 18.9403038}, {"type": "node", "id": 6815527796, "lat": 42.2059284, "lon": 18.9410084, "tags": {"amenity": "restaurant", "cuisine": "italian", "name": "Paradiso"}}, {"type": "node", "id": 6817952188, "lat": 42.2816037, "lon": 18.8721226}, {"type": "node", "id": 6817952189, "lat": 42.2815106, "lon": 18.8721232}, {"type": "node", "id": 6817952190, "lat": 42.2815099, "lon": 18.8719366}, {"type": "node", "id": 6817952191, "lat": 42.2816031, "lon": 18.871936}, {"type": "node", "id": 6830309748, "lat": 42.2067509, "lon": 18.9377936, "tags": {"amenity": "restaurant", "cuisine": "local", "name": "Bocun"}}, {"type": "node", "id": 6871836137, "lat": 42.283709, "lon": 18.8408263}, {"type": "node", "id": 6871836142, "lat": 42.2841885, "lon": 18.8415152}, {"type": "node", "id": 6871836143, "lat": 42.2842562, "lon": 18.8416927}, {"type": "node", "id": 6871836144, "lat": 42.2843723, "lon": 18.841285}, {"type": "node", "id": 6912799241, "lat": 42.1064298, "lon": 19.0878819}, {"type": "node", "id": 6912799242, "lat": 42.1064505, "lon": 19.0879713}, {"type": "node", "id": 6912799243, "lat": 42.1062043, "lon": 19.087741}, {"type": "node", "id": 6912799244, "lat": 42.1062795, "lon": 19.0877095}, {"type": "node", "id": 6912799245, "lat": 42.1063291, "lon": 19.0879242}, {"type": "node", "id": 6932978592, "lat": 42.1386117, "lon": 19.0490529}, {"type": "node", "id": 7005144198, "lat": 42.3077195, "lon": 18.8027513, "tags": {"amenity": "restaurant", "name": "Santos"}}, {"type": "node", "id": 7018349582, "lat": 42.1604728, "lon": 19.0007368}, {"type": "node", "id": 7018349583, "lat": 42.1604205, "lon": 19.0008345}, {"type": "node", "id": 7018349584, "lat": 42.1603784, "lon": 19.0007935}, {"type": "node", "id": 7018349585, "lat": 42.1604307, "lon": 19.0006957}, {"type": "node", "id": 7018349713, "lat": 42.1607238, "lon": 18.9947994}, {"type": "node", "id": 7018349714, "lat": 42.1608223, "lon": 18.9949013}, {"type": "node", "id": 7018349718, "lat": 42.1608566, "lon": 18.9948604}, {"type": "node", "id": 7018349719, "lat": 42.1607736, "lon": 18.9947384}, {"type": "node", "id": 7018349727, "lat": 42.1613713, "lon": 18.9954057}, {"type": "node", "id": 7018349728, "lat": 42.1613219, "lon": 18.9954892}, {"type": "node", "id": 7018349729, "lat": 42.1612292, "lon": 18.9953895}, {"type": "node", "id": 7018349730, "lat": 42.1612786, "lon": 18.995306}, {"type": "node", "id": 7028817585, "lat": 42.2064942, "lon": 18.9380671, "tags": {"amenity": "restaurant", "name": "\u041a\u043e\u043d\u043e\u0431\u0430 \u041c\u0435\u0434\u0438\u0442\u0435\u0440\u0430\u043d\u0435\u043e", "name:en": "Konoba Mediterraneo", "name:sr": "\u041a\u043e\u043d\u043e\u0431\u0430 \u041c\u0435\u0434\u0438\u0442\u0435\u0440\u0430\u043d\u0435\u043e"}}, {"type": "node", "id": 7030046050, "lat": 42.1619088, "lon": 18.9980268, "tags": {"amenity": "restaurant"}}, {"type": "node", "id": 7034655268, "lat": 42.1417779, "lon": 19.0468664, "tags": {"amenity": "restaurant", "name": "Insomnia"}}, {"type": "node", "id": 7034655273, "lat": 42.1386005, "lon": 19.0506028, "tags": {"amenity": "restaurant", "name": "Izvor"}}, {"type": "node", "id": 7107889087, "lat": 42.0939346, "lon": 19.1341076, "tags": {"amenity": "restaurant", "name": "Konoba Old Town", "name:en": "Konoba Old Town"}}, {"type": "node", "id": 7234672186, "lat": 42.0988019, "lon": 19.0940558, "tags": {"addr:postcode": "85000", "addr:street": "Jovana Toma\u0161evi\u0107a", "air_conditioning": "yes", "amenity": "restaurant", "check_date:opening_hours": "2025-04-12", "cuisine": "chinese;local;grill", "internet_access": "wlan", "name": "Mornar", "name:en": "Mornar", "name:ru": "\u041c\u043e\u0440\u043d\u0430\u0440", "opening_hours": "Mo-Su 07:00-23:00", "website": "http://restoranmornar.me", "wheelchair": "limited"}}, {"type": "node", "id": 7780585587, "lat": 42.2461786, "lon": 19.0910272, "tags": {"amenity": "cafe", "cuisine": "coffee_shop", "name:en": "Plavi 1", "name:ru": "\u041f\u043b\u0430\u0432\u0438 1"}}, {"type": "node", "id": 7843748389, "lat": 42.2817256, "lon": 18.8620202, "tags": {"amenity": "cafe", "cuisine": "cake", "internet_access": "wlan", "name": "Mika"}}, {"type": "node", "id": 7935273885, "lat": 42.2673095, "lon": 18.8918895, "tags": {"amenity": "restaurant", "name": "\u041f\u041b\u042f\u0416 \u041f\u0420\u0416\u041d\u041e"}}, {"type": "node", "id": 8270807592, "lat": 42.1031683, "lon": 19.0891524}, {"type": "node", "id": 8270807595, "lat": 42.1029776, "lon": 19.0892728}, {"type": "node", "id": 8420552418, "lat": 42.2842065, "lon": 18.8405641, "tags": {"addr:city": "Budva", "amenity": "cafe", "check_date": "2024-10-24", "cuisine": "pizza;sandwich;coffee_shop;dessert", "drive_through": "no", "indoor_seating": "no", "name": "Soul Food", "opening_hours": "Mo-Su 07:00-02:00", "outdoor_seating": "yes", "takeaway": "yes", "wheelchair": "limited"}}, {"type": "node", "id": 8669122517, "lat": 42.308229, "lon": 18.8016394, "tags": {"amenity": "restaurant", "cuisine": "balkan;fish;grill", "internet_access": "wlan", "name": "\u0160ebelj", "name:en": "Shebel", "name:hr": "\u0160ebelj"}}, {"type": "node", "id": 8772978717, "lat": 42.2873897, "lon": 18.8512577, "tags": {"addr:street": "29. Novembra", "amenity": "restaurant", "name": "Home of Gyros by Naki's", "opening_hours": "Mo-Su 10:00-00:00"}}, {"type": "node", "id": 8781185591, "lat": 42.1004498, "lon": 19.0921902}, {"type": "node", "id": 8807392388, "lat": 42.2537528, "lon": 18.8962828, "tags": {"amenity": "restaurant"}}, {"type": "node", "id": 8817770311, "lat": 42.278761, "lon": 18.83776, "tags": {"amenity": "restaurant", "check_date": "2024-10-17", "cuisine": "turkish;mediterranean", "name": "Piano Nobele", "opening_hours:covid19": "Mo-Su 12:00-01:00", "website": "https://www.facebook.com/DvoristeByBahce/"}}, {"type": "node", "id": 8920439517, "lat": 42.2825913, "lon": 18.8378188, "tags": {"amenity": "restaurant", "internet_access": "wlan", "name": "Fontana restaurant"}}, {"type": "node", "id": 8927111857, "lat": 42.195058, "lon": 18.9631337}, {"type": "node", "id": 8927111858, "lat": 42.1949047, "lon": 18.9634435}, {"type": "node", "id": 8927111859, "lat": 42.1947737, "lon": 18.9633254}, {"type": "node", "id": 8927111860, "lat": 42.1948829, "lon": 18.9631048}, {"type": "node", "id": 8927111861, "lat": 42.1949516, "lon": 18.9631667}, {"type": "node", "id": 8927111862, "lat": 42.1949958, "lon": 18.9630775}, {"type": "node", "id": 8927111866, "lat": 42.1950144, "lon": 18.9630944}, {"type": "node", "id": 8960204857, "lat": 42.0948857, "lon": 19.0988497}, {"type": "node", "id": 8960204858, "lat": 42.0949224, "lon": 19.0986421}, {"type": "node", "id": 8960204859, "lat": 42.0950117, "lon": 19.0986481}, {"type": "node", "id": 8960204860, "lat": 42.0949676, "lon": 19.0988778}, {"type": "node", "id": 8972394820, "lat": 42.2538917, "lon": 18.8962491, "tags": {"amenity": "restaurant", "name": "Amadeus", "name:ru": "\u0410\u043c\u0430\u0434\u0435\u0443\u0441"}}, {"type": "node", "id": 8972555160, "lat": 42.1199038, "lon": 19.0706871}, {"type": "node", "id": 8972555161, "lat": 42.1199446, "lon": 19.0707086}, {"type": "node", "id": 8972555162, "lat": 42.1199744, "lon": 19.0707086}, {"type": "node", "id": 8972555163, "lat": 42.1200063, "lon": 19.0706938}, {"type": "node", "id": 8972555164, "lat": 42.1200341, "lon": 19.0706684}, {"type": "node", "id": 8972555165, "lat": 42.120066, "lon": 19.0706348}, {"type": "node", "id": 8972555166, "lat": 42.1200938, "lon": 19.070608}, {"type": "node", "id": 8972555167, "lat": 42.1201087, "lon": 19.0705758}, {"type": "node", "id": 8972555168, "lat": 42.1201406, "lon": 19.0705463}, {"type": "node", "id": 8972555169, "lat": 42.1201704, "lon": 19.0705155}, {"type": "node", "id": 8972555170, "lat": 42.1201963, "lon": 19.0704659}, {"type": "node", "id": 8972555171, "lat": 42.1202201, "lon": 19.0704109}, {"type": "node", "id": 8972555172, "lat": 42.1202341, "lon": 19.0703773}, {"type": "node", "id": 8972555173, "lat": 42.1202697, "lon": 19.0703068}, {"type": "node", "id": 8972555174, "lat": 42.1198349, "lon": 19.0706729}, {"type": "node", "id": 8972555175, "lat": 42.1198302, "lon": 19.0707032}, {"type": "node", "id": 8972555176, "lat": 42.1198193, "lon": 19.070781}, {"type": "node", "id": 8972555177, "lat": 42.119863, "lon": 19.0708508}, {"type": "node", "id": 8972555178, "lat": 42.1199237, "lon": 19.0709111}, {"type": "node", "id": 8972555179, "lat": 42.1200799, "lon": 19.070958}, {"type": "node", "id": 8972555180, "lat": 42.1201605, "lon": 19.0708923}, {"type": "node", "id": 8972555181, "lat": 42.1202082, "lon": 19.0708239}, {"type": "node", "id": 8972555182, "lat": 42.12024, "lon": 19.0706858}, {"type": "node", "id": 8972555183, "lat": 42.120246, "lon": 19.0706053}, {"type": "node", "id": 8972555184, "lat": 42.1202321, "lon": 19.0705517}, {"type": "node", "id": 8972555185, "lat": 42.120242, "lon": 19.0704833}, {"type": "node", "id": 8972555186, "lat": 42.1202719, "lon": 19.0704229}, {"type": "node", "id": 8972555187, "lat": 42.1202619, "lon": 19.0703519}, {"type": "node", "id": 9007771595, "lat": 42.2826138, "lon": 18.8575925, "tags": {"amenity": "restaurant", "name": "Dukley Seafront Restaurant", "website": "https://www.dukleyrestaurants.com"}}, {"type": "node", "id": 9007771601, "lat": 42.2792388, "lon": 18.8579913, "tags": {"amenity": "restaurant", "name": "Dukley Laguna Beach & Seafood Restaurant", "website": "https://www.dukleyrestaurants.com"}}, {"type": "node", "id": 9007771607, "lat": 42.2812901, "lon": 18.8573002, "tags": {"amenity": "restaurant", "name": "Key West Beach & Restaurant by Nikki Beach", "website": "https://www.dukleyrestaurants.com"}}, {"type": "node", "id": 9045726040, "lat": 42.1225787, "lon": 19.0666088}, {"type": "node", "id": 9045726041, "lat": 42.1225419, "lon": 19.0666316}, {"type": "node", "id": 9045726042, "lat": 42.122509, "lon": 19.0666451}, {"type": "node", "id": 9045726043, "lat": 42.1224762, "lon": 19.0666437}, {"type": "node", "id": 9045726044, "lat": 42.1224096, "lon": 19.0666088}, {"type": "node", "id": 9045726064, "lat": 42.121955, "lon": 19.067844}, {"type": "node", "id": 9045726065, "lat": 42.1219659, "lon": 19.0678158}, {"type": "node", "id": 9045726066, "lat": 42.1219689, "lon": 19.0677917}, {"type": "node", "id": 9045726067, "lat": 42.1219699, "lon": 19.0677716}, {"type": "node", "id": 9045726068, "lat": 42.1219699, "lon": 19.0677501}, {"type": "node", "id": 9045726069, "lat": 42.1219749, "lon": 19.0676884}, {"type": "node", "id": 9045726070, "lat": 42.121958, "lon": 19.067671}, {"type": "node", "id": 9045726071, "lat": 42.1219202, "lon": 19.0676214}, {"type": "node", "id": 9045726072, "lat": 42.1219639, "lon": 19.0675476}, {"type": "node", "id": 9045726073, "lat": 42.1219898, "lon": 19.0675691}, {"type": "node", "id": 9045726074, "lat": 42.1220415, "lon": 19.0674645}, {"type": "node", "id": 9045726075, "lat": 42.1220505, "lon": 19.0674752}, {"type": "node", "id": 9045726076, "lat": 42.1222554, "lon": 19.067038}, {"type": "node", "id": 9045726077, "lat": 42.1222733, "lon": 19.0669709}, {"type": "node", "id": 9045726078, "lat": 42.1222892, "lon": 19.0669361}, {"type": "node", "id": 9045726079, "lat": 42.122319, "lon": 19.0668905}, {"type": "node", "id": 9045726080, "lat": 42.1223489, "lon": 19.0668154}, {"type": "node", "id": 9045726081, "lat": 42.1223489, "lon": 19.0667751}, {"type": "node", "id": 9045726082, "lat": 42.1223529, "lon": 19.0666652}, {"type": "node", "id": 9045726083, "lat": 42.1223568, "lon": 19.0666249}, {"type": "node", "id": 9045726084, "lat": 42.1223727, "lon": 19.0665847}, {"type": "node", "id": 9045918158, "lat": 42.1220027, "lon": 19.0678292}, {"type": "node", "id": 9045918159, "lat": 42.1220375, "lon": 19.0678601}, {"type": "node", "id": 9045918160, "lat": 42.1221012, "lon": 19.0679339}, {"type": "node", "id": 9045918161, "lat": 42.1221887, "lon": 19.0678132}, {"type": "node", "id": 9045918162, "lat": 42.1222504, "lon": 19.0677193}, {"type": "node", "id": 9045918163, "lat": 42.1225886, "lon": 19.0666477}, {"type": "node", "id": 9045918164, "lat": 42.1225876, "lon": 19.066747}, {"type": "node", "id": 9045918165, "lat": 42.1225279, "lon": 19.0668865}, {"type": "node", "id": 9045918166, "lat": 42.1224513, "lon": 19.0670246}, {"type": "node", "id": 9045918167, "lat": 42.1223946, "lon": 19.0671627}, {"type": "node", "id": 9045918168, "lat": 42.1223578, "lon": 19.0672821}, {"type": "node", "id": 9045918169, "lat": 42.1223071, "lon": 19.0674323}, {"type": "node", "id": 9045918170, "lat": 42.1223131, "lon": 19.067498}, {"type": "node", "id": 9045918171, "lat": 42.122322, "lon": 19.0676053}, {"type": "node", "id": 9050778017, "lat": 42.2827862, "lon": 18.8381891, "tags": {"amenity": "cafe", "cuisine": "ice_cream;italian", "name": "Godo", "opening_hours": "Mo-Su 09:00-22:00"}}, {"type": "node", "id": 9092468069, "lat": 42.2005927, "lon": 18.9511862, "tags": {"amenity": "restaurant", "name": "\u0413\u0440\u0438\u043b \u0431\u0430\u0448\u0442\u0430 \"\u0410\u043b\u0431\u0430\u0442\u0440\u043e\u0441\"", "name:sr": "\u0413\u0440\u0438\u043b \u0431\u0430\u0448\u0442\u0430 \"\u0410\u043b\u0431\u0430\u0442\u0440\u043e\u0441\""}}, {"type": "node", "id": 9092468070, "lat": 42.2001703, "lon": 18.9514004, "tags": {"amenity": "restaurant", "name": "\u0411\u0443\u043c \u0431\u0430\u0440", "name:en": "Boom bar", "name:sr": "\u0411\u0443\u043c \u0431\u0430\u0440"}}, {"type": "node", "id": 9093727023, "lat": 42.2755267, "lon": 18.8869602}, {"type": "node", "id": 9093727024, "lat": 42.2753944, "lon": 18.8871779}, {"type": "node", "id": 9152487820, "lat": 42.2935893, "lon": 18.8417236, "tags": {"amenity": "restaurant", "name": "Street"}}, {"type": "node", "id": 9152787517, "lat": 42.2845621, "lon": 18.8354454, "tags": {"amenity": "cafe", "check_date": "2024-10-13", "indoor_seating": "yes", "name": "Good food", "outdoor_seating": "no"}}, {"type": "node", "id": 9152787518, "lat": 42.2783419, "lon": 18.8372876, "tags": {"amenity": "restaurant", "name": "Pizzeria Lav", "outdoor_seating": "no"}}, {"type": "node", "id": 9656044754, "lat": 42.1001541, "lon": 19.1002298, "tags": {"amenity": "cafe", "check_date": "2024-05-03", "name": "Garden", "opening_hours": "Mo-Su 07:00-00:00"}}, {"type": "node", "id": 9656151604, "lat": 42.2854453, "lon": 18.8765913, "tags": {"amenity": "cafe", "cafe": "time_cafe", "name": "\u0427\u0430\u0442"}}, {"type": "node", "id": 9659111172, "lat": 42.1032959, "lon": 19.0939514, "tags": {"amenity": "restaurant", "check_date": "2024-05-04", "cuisine": "pizza", "name": "Pizza & Bar"}}, {"type": "node", "id": 9668383544, "lat": 42.098946, "lon": 19.0945711, "tags": {"amenity": "cafe", "indoor_seating": "yes", "name": "Malina", "opening_hours": "Mo-Sa 08:00-23:00", "outdoor_seating": "yes"}}, {"type": "node", "id": 9675794017, "lat": 42.2831956, "lon": 18.8399141, "tags": {"addr:street": "Slovenska obala", "amenity": "restaurant", "contact:instagram": "coco_bar_food_sea", "cuisine": "mediterranean", "internet_access": "wlan", "name": "Coco", "not:brand:wikidata": "Q65084369"}}, {"type": "node", "id": 9698274600, "lat": 42.2848706, "lon": 18.8439311, "tags": {"addr:street": "Slovenska obala", "amenity": "restaurant", "name": "Torch", "opening_hours": "Mo-Fr 07:00-01:00, Sa,Su 07:00-02:00"}}, {"type": "node", "id": 9709108281, "lat": 42.1018231, "lon": 19.0900719}, {"type": "node", "id": 9709108284, "lat": 42.1018326, "lon": 19.0898465}, {"type": "node", "id": 9709108286, "lat": 42.1017121, "lon": 19.0901338}, {"type": "node", "id": 9709108287, "lat": 42.101926, "lon": 19.0900138}, {"type": "node", "id": 9709108288, "lat": 42.1018698, "lon": 19.0898123}, {"type": "node", "id": 9709108289, "lat": 42.1046444, "lon": 19.088733}, {"type": "node", "id": 9709108291, "lat": 42.1055514, "lon": 19.0883637}, {"type": "node", "id": 9737009717, "lat": 42.2783123, "lon": 18.8361776, "tags": {"amenity": "cafe", "check_date": "2025-06-01", "check_date:opening_hours": "2025-06-01", "name": "Bermuda Caf\u00e9", "opening_hours": "Mo-Su 08:00-23:00", "outdoor_seating": "yes", "website": "https://instagram.com/bermuda.budva"}}, {"type": "node", "id": 9791871401, "lat": 42.2885377, "lon": 18.8437031, "tags": {"amenity": "restaurant", "description": "Vegan Restaurant", "name": "Paradise Food", "opening_hours": "Mo-Th, Su 08:00-20:00; Fr 08:00-15:00"}}, {"type": "node", "id": 9805336987, "lat": 42.0997232, "lon": 19.0914605}, {"type": "node", "id": 9805336988, "lat": 42.0998199, "lon": 19.0914148}, {"type": "node", "id": 9805336989, "lat": 42.0997926, "lon": 19.0913112}, {"type": "node", "id": 9805336990, "lat": 42.0999794, "lon": 19.0913636}, {"type": "node", "id": 9805336991, "lat": 42.0999463, "lon": 19.0912177}, {"type": "node", "id": 9805336992, "lat": 42.099867, "lon": 19.0912556}, {"type": "node", "id": 9805336993, "lat": 42.1004784, "lon": 19.0925299}, {"type": "node", "id": 9805336994, "lat": 42.1005399, "lon": 19.0924899}, {"type": "node", "id": 9853645818, "lat": 42.2916394, "lon": 18.8417541, "tags": {"addr:city": "Budva", "addr:housenumber": "67", "addr:postcode": "85310", "addr:street": "Mainski put", "amenity": "restaurant", "bar": "yes", "cuisine": "coffee_shop;international;italian;pasta", "delivery": "yes", "internet_access": "wlan", "name": "ATOS 2.0 Restaurant & Bar", "opening_hours": "Mo-Su 08:00-24:00", "phone": "+382 67 018 128", "website": "https://taplink.cc/restaurant_atos"}}, {"type": "node", "id": 9874618532, "lat": 42.2846619, "lon": 18.8109691}, {"type": "node", "id": 9874618533, "lat": 42.2845389, "lon": 18.8109868}, {"type": "node", "id": 9874618534, "lat": 42.2845573, "lon": 18.8112213}, {"type": "node", "id": 9874618535, "lat": 42.2846803, "lon": 18.8112037}, {"type": "node", "id": 9878852351, "lat": 42.1044849, "lon": 19.1248981}, {"type": "node", "id": 9891987123, "lat": 42.0954372, "lon": 19.0946254, "tags": {"amenity": "cafe", "check_date": "2024-12-07", "name": "Prego", "opening_hours": "07:00-24:00"}}, {"type": "node", "id": 9892702718, "lat": 42.1130828, "lon": 19.0846634, "tags": {"addr:street": "Mila Damjanovi\u0107a", "amenity": "restaurant", "name": "Mediteran I", "name:sr": "\u041c\u0435\u0434\u0438\u0442\u0435\u0440\u0430\u043d  I"}}, {"type": "node", "id": 9892721517, "lat": 42.2715813, "lon": 19.1077321, "tags": {"amenity": "restaurant"}}, {"type": "node", "id": 9893557137, "lat": 42.0975071, "lon": 19.0940601}, {"type": "node", "id": 9893557140, "lat": 42.0972393, "lon": 19.0933281}, {"type": "node", "id": 9893557141, "lat": 42.0972647, "lon": 19.0933922}, {"type": "node", "id": 9893557142, "lat": 42.0972021, "lon": 19.0934439}, {"type": "node", "id": 9893557143, "lat": 42.0971733, "lon": 19.0933804}, {"type": "node", "id": 9894680930, "lat": 42.1072887, "lon": 19.0949164, "tags": {"amenity": "cafe", "name": "Cafe Bar 32", "opening_hours": "07:00-24:00", "smoking": "outside"}}, {"type": "node", "id": 9919287717, "lat": 42.0974385, "lon": 19.0992458, "tags": {"amenity": "restaurant", "check_date": "2024-05-04", "cuisine": "fish", "internet_access": "no", "name": "Fish Bar Cvijo", "opening_hours": "Mo-Su 09:00-22:00", "outdoor_seating": "no", "payment:cards": "no", "payment:cash": "yes", "payment:credit_cards": "no", "payment:debit_cards": "no", "phone": "+38269134860", "smoking": "outside", "takeaway": "yes", "wheelchair": "limited"}}, {"type": "node", "id": 9920936673, "lat": 42.1000981, "lon": 19.0993791, "tags": {"amenity": "cafe"}}, {"type": "node", "id": 9947474858, "lat": 42.1031563, "lon": 19.1012006}, {"type": "node", "id": 9947474859, "lat": 42.1032559, "lon": 19.1012036}, {"type": "node", "id": 9947474860, "lat": 42.1032526, "lon": 19.1014055}, {"type": "node", "id": 9947474861, "lat": 42.103153, "lon": 19.1014026}, {"type": "node", "id": 9950510451, "lat": 42.2443309, "lon": 19.0927977, "tags": {"amenity": "restaurant", "name": "BESAC"}}, {"type": "node", "id": 9952761302, "lat": 42.2897364, "lon": 18.8354048, "tags": {"amenity": "restaurant", "name": "Alinka"}}, {"type": "node", "id": 9954390780, "lat": 42.2845983, "lon": 18.8384687, "tags": {"amenity": "cafe", "name": "City"}}, {"type": "node", "id": 10015245358, "lat": 42.2469254, "lon": 19.0900783, "tags": {"amenity": "restaurant", "cuisine": "montenegrisch"}}, {"type": "node", "id": 10032081418, "lat": 42.0934918, "lon": 19.1332668, "tags": {"amenity": "cafe", "name": "M\u00e8rak", "opening_hours": "Mo-Su 08:00-23:00"}}, {"type": "node", "id": 10033628466, "lat": 42.1071008, "lon": 19.0981619}, {"type": "node", "id": 10033628467, "lat": 42.1071326, "lon": 19.0982761}, {"type": "node", "id": 10033628468, "lat": 42.1072074, "lon": 19.0982383}, {"type": "node", "id": 10033628469, "lat": 42.1071756, "lon": 19.0981241}, {"type": "node", "id": 10058817701, "lat": 42.1046027, "lon": 19.0887374}, {"type": "node", "id": 10058817702, "lat": 42.1046026, "lon": 19.0886553}, {"type": "node", "id": 10058817703, "lat": 42.1047678, "lon": 19.0885976}, {"type": "node", "id": 10058817704, "lat": 42.1047839, "lon": 19.0886778}, {"type": "node", "id": 10058817706, "lat": 42.1056328, "lon": 19.088258}, {"type": "node", "id": 10058817708, "lat": 42.1056478, "lon": 19.0883242}, {"type": "node", "id": 10058817709, "lat": 42.1056237, "lon": 19.0882179}, {"type": "node", "id": 10058817710, "lat": 42.1054423, "lon": 19.0882923}, {"type": "node", "id": 10058817711, "lat": 42.1054569, "lon": 19.088357}, {"type": "node", "id": 10058817712, "lat": 42.1055434, "lon": 19.0883246}, {"type": "node", "id": 10063671001, "lat": 42.2805863, "lon": 18.8368949, "tags": {"addr:city": "Budva", "addr:postcode": "85310", "addr:street": "Slovenska Obala", "amenity": "restaurant", "name": "Sole mio"}}, {"type": "node", "id": 10067764888, "lat": 42.096388, "lon": 19.0958789, "tags": {"amenity": "cafe", "name": "Snack caffe"}}, {"type": "node", "id": 10078075533, "lat": 42.278299, "lon": 18.8371188, "tags": {"addr:city": "Budva", "addr:postcode": "85313", "addr:street": "Vrzdak", "amenity": "restaurant", "check_date": "2024-10-17", "name": "Konoba Galeb", "name:en": "Fish restaurant"}}, {"type": "node", "id": 10078112109, "lat": 42.2784242, "lon": 18.8373726, "tags": {"amenity": "restaurant", "check_date": "2024-10-17", "cuisine": "pizza;italian;regional", "diet:vegetarian": "yes", "internet_access": "wlan", "internet_access:fee": "customers", "internet_access:ssid": "Sambra", "name": "Sambra", "outdoor_seating": "yes", "payment:cash": "yes", "payment:mastercard": "yes", "payment:visa": "yes", "payment:visa_debit": "yes", "reservation": "yes", "takeaway": "yes", "toilets": "yes", "wheelchair": "limited"}}, {"type": "node", "id": 10099097021, "lat": 42.2807617, "lon": 18.8794255, "tags": {"addr:city": "Rafailovi\u0107i", "amenity": "restaurant", "cuisine": "italian;pizza;regional", "name": "Capri", "opening_hours": "Mo-Su 07:00-24:00"}}, {"type": "node", "id": 10099100606, "lat": 42.280708, "lon": 18.8796451, "tags": {"addr:city": "Rafailovi\u0107i", "amenity": "restaurant", "cuisine": "burger;shish-kebab;international;sandwich", "name": "Meat&Burger"}}, {"type": "node", "id": 10101638017, "lat": 42.2786603, "lon": 18.8384802, "tags": {"addr:street": "Vuka Karad\u017ei\u0107a", "amenity": "restaurant", "cuisine": "sushi", "name": "Kaizen", "opening_hours": "Mo-Su 01:00-10:30"}}, {"type": "node", "id": 10101638117, "lat": 42.2785527, "lon": 18.8383464, "tags": {"addr:housenumber": "6", "addr:street": "Cara Du\u0161ana", "amenity": "restaurant", "diet:vegan": "yes", "diet:vegetarian": "yes", "name": "Hajde Vegetarian restaurant", "name:pl": "Hajde Vegetatian restaurant", "opening_hours": "Mo-Su 02:00-11:00", "phone": "+38268609025"}}, {"type": "node", "id": 10101638118, "lat": 42.2794843, "lon": 18.8365677, "tags": {"addr:housenumber": "3", "addr:postcode": "85310", "addr:street": "Slovenska obala", "amenity": "restaurant", "cuisine": "mediterranean;seafood", "name": "Konoba Demizana", "opening_hours": "Mo-Su 10:00-00:00", "outdoor_seating": "no", "phone": "+38233455028"}}, {"type": "node", "id": 10110259599, "lat": 42.0992286, "lon": 19.0990565, "tags": {"air_conditioning": "yes", "amenity": "cafe", "indoor_seating": "yes", "name": "Vesuvio", "opening_hours": "Mo-Sa 07:00-23:00", "outdoor_seating": "no"}}, {"type": "node", "id": 10126741367, "lat": 42.2783031, "lon": 18.837917, "tags": {"amenity": "cafe", "cuisine": "coffee_shop", "internet_access": "wlan", "internet_access:fee": "no", "name": "North Coffee shop", "opening_hours": "Mo-Su 09:00-20:00", "website": "https://www.instagram.com/north.coffee.shop/"}}, {"type": "node", "id": 10141813007, "lat": 42.1031886, "lon": 19.1077746, "tags": {"air_conditioning": "yes", "amenity": "restaurant", "bar": "yes", "check_date": "2024-06-14", "cuisine": "turkish;pizza", "name": "The best", "opening_hours": "Mo-Sa 08:00-21:00, Su 08:30-21:00", "outdoor_seating": "pedestrian_zone", "phone": "068203083", "wheelchair": "limited"}}, {"type": "node", "id": 10175497817, "lat": 42.2783808, "lon": 18.8815946, "tags": {"amenity": "restaurant", "cuisine": "georgian", "name": "Zeta"}}, {"type": "node", "id": 10259347988, "lat": 42.2808468, "lon": 18.8788166, "tags": {"addr:city": "Rafailovi\u0107i", "addr:postcode": "85310", "addr:street": "Obala bb", "air_conditioning": "yes", "amenity": "restaurant", "capacity": "60", "contact:facebook": "https://www.facebook.com/tulipbudva/", "cuisine": "international;coffee_shop;pizza;italian", "delivery": "yes", "diet:mediterranean": "yes", "ele": "2", "email": "tuliprestoran@gmail.com", "highchair": "yes", "internet_access": "wlan", "internet_access:fee": "customers", "internet_access:ssid": "Tulip", "mobile": "+382 67258535", "name": "Tulip Restaurant", "name:es": "Restaurante Tulip\u00e1n", "name:ru": "\u0420\u0435\u0441\u0442\u043e\u0440\u0430\u043d Tulip", "name:sr": "\u0420\u0435\u0441\u0442\u043e\u0440\u0430\u043d \u0422\u0443\u043b\u0438\u043f", "name:sr-Latn": "Restoran Tulip", "opening_hours": "Mo-Su 09:00-22:00", "outdoor_seating": "yes", "payment:cash": "yes", "payment:contactless": "yes", "payment:debit_cards": "yes", "payment:mastercard": "yes", "payment:visa": "yes", "phone": "+382 67258535", "reservation": "yes", "smoking": "outside", "start_date": "20-12-2022", "toilets": "yes", "website": "https://tuliptrattoriabudva.com/"}}, {"type": "node", "id": 10570623867, "lat": 42.2889806, "lon": 18.8321256, "tags": {"amenity": "cafe", "cuisine": "coffee_shop", "name": "Oliva coffe", "opening_hours": "Mo-Fr 07:00-20:00, Sa-Su 08:00-21:00", "phone": "+382 68584886", "website": "https://www.instagram.com/oliva.coffee/"}}, {"type": "node", "id": 10573475799, "lat": 42.0981306, "lon": 19.0943402, "tags": {"amenity": "cafe", "name": "Libre"}}, {"type": "node", "id": 10601035206, "lat": 42.2886955, "lon": 18.836182, "tags": {"amenity": "restaurant", "check_date:opening_hours": "2025-04-26", "cuisine": "balkan", "indoor_seating": "yes", "name": "Komovi", "opening_hours:signed": "no", "outdoor_seating": "yes"}}, {"type": "node", "id": 10676105914, "lat": 42.1034337, "lon": 19.0964263, "tags": {"amenity": "cafe", "name": "Meliora", "opening_hours": "Mo-Su 07:00-00:00"}}, {"type": "node", "id": 10763661601, "lat": 42.2485396, "lon": 19.0895908, "tags": {"amenity": "restaurant", "name": "Crmnica"}}, {"type": "node", "id": 10768328705, "lat": 42.2913706, "lon": 18.7553723, "tags": {"amenity": "restaurant", "name:en": "Carevich restaurant and farm", "name:ru": "\u0426\u0430\u0440\u0435\u0432\u0438\u0447 \u0440\u0435\u0441\u0442\u043e\u0440\u0430\u043d \u0438 \u0444\u0435\u0440\u043c\u0430", "name:sr": "Carevi\u0107 restoran i farma", "website": "https://carevici.me"}}, {"type": "node", "id": 10773754175, "lat": 42.0933859, "lon": 19.1329573, "tags": {"amenity": "restaurant", "diet:halal": "yes", "name": "Stara \u010car\u0161ija"}}, {"type": "node", "id": 10797484556, "lat": 42.2938785, "lon": 18.8435605, "tags": {"amenity": "cafe", "check_date": "2024-08-07", "name": "CBR", "opening_hours": "Mo-Su 07:00-00:00"}}, {"type": "node", "id": 10839291805, "lat": 42.29053, "lon": 18.8398814, "tags": {"amenity": "cafe", "contact:instagram": "coffee_shop_caffeine", "cuisine": "coffee_shop", "indoor_seating": "yes", "name": "Caffeine", "opening_hours": "Mo-Su 08:00-23:00", "outdoor_seating": "yes"}}, {"type": "node", "id": 10860686605, "lat": 42.2856672, "lon": 18.8532678, "tags": {"amenity": "restaurant", "name": "Hotel Park Restaurant"}}, {"type": "node", "id": 10861368327, "lat": 42.104554, "lon": 19.1248357}, {"type": "node", "id": 10861368328, "lat": 42.1045098, "lon": 19.1247468}, {"type": "node", "id": 10861368329, "lat": 42.1044407, "lon": 19.1248092}, {"type": "node", "id": 10862548390, "lat": 42.281387, "lon": 18.8373536}, {"type": "node", "id": 10862584435, "lat": 42.283178, "lon": 18.8401444}, {"type": "node", "id": 10862584436, "lat": 42.2830983, "lon": 18.8400137}, {"type": "node", "id": 10862584453, "lat": 42.2852734, "lon": 18.8465745}, {"type": "node", "id": 10862584454, "lat": 42.285338, "lon": 18.8490593}, {"type": "node", "id": 10862584455, "lat": 42.2852, "lon": 18.8490478}, {"type": "node", "id": 10862584456, "lat": 42.2851313, "lon": 18.8489758}, {"type": "node", "id": 10862584457, "lat": 42.2851214, "lon": 18.8489185}, {"type": "node", "id": 10862584458, "lat": 42.2851312, "lon": 18.8488503}, {"type": "node", "id": 10862584459, "lat": 42.2851472, "lon": 18.8488154}, {"type": "node", "id": 10864443546, "lat": 42.2831916, "lon": 18.8400396}, {"type": "node", "id": 10864443548, "lat": 42.2831406, "lon": 18.8399617}, {"type": "node", "id": 10910881509, "lat": 42.2780801, "lon": 18.8372865, "tags": {"addr:city": "Budva", "addr:postcode": "85310", "addr:street": "Njego\u0161eva", "amenity": "restaurant", "check_date": "2024-10-22", "cuisine": "pizza", "name": "Pizzeria Bocconcino", "phone": "+381654666643", "source": "survey"}}, {"type": "node", "id": 10932000862, "lat": 42.0966443, "lon": 19.0923948, "tags": {"amenity": "restaurant", "cuisine": "pizza", "name": "Caffe Pizzeria Portofino"}}, {"type": "node", "id": 10933920100, "lat": 42.2895202, "lon": 18.8385787, "tags": {"amenity": "cafe", "internet_access": "wlan", "name": "Pri\u010da"}}, {"type": "node", "id": 10972145261, "lat": 42.097805, "lon": 19.0979677, "tags": {"amenity": "cafe"}}, {"type": "node", "id": 10972145262, "lat": 42.0981521, "lon": 19.0979893, "tags": {"amenity": "cafe"}}, {"type": "node", "id": 10980308730, "lat": 42.2858132, "lon": 18.8135676, "tags": {"amenity": "restaurant", "contact:facebook": "https://www.facebook.com/elreybudva/", "contact:phone": "+382 67 086 011", "name": "El Rey Budva"}}, {"type": "node", "id": 10983122344, "lat": 42.100578, "lon": 19.1003242, "tags": {"air_conditioning": "yes", "amenity": "cafe", "check_date": "2024-05-03", "internet_access": "wlan", "internet_access:fee": "customers", "name": "Central Park", "opening_hours": "Mo-Su 07:00-23:00", "payment:cash": "yes", "payment:credit_cards": "yes", "payment:debit_cards": "yes", "wheelchair": "limited"}}, {"type": "node", "id": 10985082989, "lat": 42.2365605, "lon": 19.0440729, "tags": {"amenity": "restaurant"}}, {"type": "node", "id": 11048673034, "lat": 42.1393784, "lon": 19.0486393, "tags": {"amenity": "restaurant", "cuisine": "regional"}}, {"type": "node", "id": 11057492886, "lat": 42.2784258, "lon": 18.8385362, "tags": {"amenity": "restaurant", "check_date": "2024-10-22", "cuisine": "mediterranean;balkan;burger", "fixme": "location", "name": "Ku\u0107a Pub", "phone": "+382 69 218216", "website": "https://www.instagram.com/kucapub/"}}, {"type": "node", "id": 11066199685, "lat": 42.2810376, "lon": 18.8633265, "tags": {"amenity": "restaurant"}}, {"type": "node", "id": 11084268677, "lat": 42.2458888, "lon": 19.0904023, "tags": {"amenity": "restaurant", "name": "Domestic cuisne"}}, {"type": "node", "id": 11101041705, "lat": 42.2933493, "lon": 18.8397368, "tags": {"amenity": "cafe", "name": "La Familia"}}, {"type": "node", "id": 11101252848, "lat": 42.289019, "lon": 18.851433, "tags": {"amenity": "restaurant", "indoor_seating": "yes", "name": "Stari Ribar", "outdoor_seating": "no"}}, {"type": "node", "id": 11101263846, "lat": 42.2871593, "lon": 18.8473145, "tags": {"amenity": "restaurant", "indoor_seating": "yes", "name": "Pjaca", "outdoor_seating": "yes"}}, {"type": "node", "id": 11110242214, "lat": 42.3152394, "lon": 18.8588661}, {"type": "node", "id": 11110242215, "lat": 42.3152195, "lon": 18.8591652}, {"type": "node", "id": 11110242216, "lat": 42.3153433, "lon": 18.8591802}, {"type": "node", "id": 11110242217, "lat": 42.3153631, "lon": 18.8588811}, {"type": "node", "id": 11112114205, "lat": 42.278634, "lon": 18.837245, "tags": {"amenity": "restaurant", "check_date": "2024-10-17", "name": "La Mia Pasta"}}, {"type": "node", "id": 11163955017, "lat": 42.3150161, "lon": 18.8553941}, {"type": "node", "id": 11163955018, "lat": 42.3150582, "lon": 18.855419}, {"type": "node", "id": 11163955019, "lat": 42.3150864, "lon": 18.8553312}, {"type": "node", "id": 11163955020, "lat": 42.3150443, "lon": 18.8553064}, {"type": "node", "id": 11167460502, "lat": 42.3041136, "lon": 18.8091205, "tags": {"amenity": "restaurant", "name": "Adriatik"}}, {"type": "node", "id": 11212373157, "lat": 42.2904065, "lon": 18.8509371, "tags": {"amenity": "cafe", "name": "Consul", "opening_hours": "Mo-Su 07:00-24:00"}}, {"type": "node", "id": 11212373158, "lat": 42.2879283, "lon": 18.8519382, "tags": {"amenity": "restaurant", "cuisine": "fish;seafood", "name": "Fish bar Budva", "opening_hours": "Mo-Su 12:00-22:00"}}, {"type": "node", "id": 11214802038, "lat": 42.2856618, "lon": 18.8430731, "tags": {"amenity": "restaurant", "cuisine": "asian;international;soba", "internet_access": "wlan", "name": "El Faro", "opening_hours": "Su-Th 10:00-22:00; Fr-Sa 10:00-23:00", "website:menu": "https://me-qr.me/elfaro"}}, {"type": "node", "id": 11225846137, "lat": 42.2843297, "lon": 18.838039}, {"type": "node", "id": 11225846138, "lat": 42.2836975, "lon": 18.8372967}, {"type": "node", "id": 11225846139, "lat": 42.2839413, "lon": 18.8375999}, {"type": "node", "id": 11225846142, "lat": 42.284334, "lon": 18.8379768}, {"type": "node", "id": 11225846143, "lat": 42.2841197, "lon": 18.8377131}, {"type": "node", "id": 11225846144, "lat": 42.284088, "lon": 18.8377691}, {"type": "node", "id": 11251298781, "lat": 42.2887207, "lon": 18.8519187, "tags": {"amenity": "restaurant", "check_date:opening_hours": "2025-04-19", "name": "Lord", "opening_hours": "Mo-Su 07:00-23:00", "phone": "+382 69 454 235"}}, {"type": "node", "id": 11252400198, "lat": 42.2890705, "lon": 18.8383029, "tags": {"amenity": "restaurant", "cuisine": "vietnamese", "name": "HaNoi", "opening_hours": "Mo-Su 10:00-22:00", "phone": "+382 69 813 777", "website": "https://www.instagram.com/hanoibudva/"}}, {"type": "node", "id": 11257040573, "lat": 42.1398558, "lon": 19.0499228, "tags": {"amenity": "cafe", "name": "Station Cafe"}}, {"type": "node", "id": 11262629395, "lat": 42.2938341, "lon": 18.8412667, "tags": {"amenity": "restaurant", "name": "Sun Light", "opening_hours": "Mo-Su 08:00-21:00"}}, {"type": "node", "id": 11271172608, "lat": 42.1008821, "lon": 19.1017149, "tags": {"amenity": "cafe", "cuisine": "turkish", "indoor_seating": "yes", "name": "Livela", "phone": "+38269996959"}}, {"type": "node", "id": 11281131233, "lat": 42.0986358, "lon": 19.0988058, "tags": {"amenity": "restaurant", "indoor_seating": "yes", "name": "Ribar", "opening_hours": "Mo-Su 07:00-24:00", "outdoor_seating": "yes"}}, {"type": "node", "id": 11327480196, "lat": 42.2940101, "lon": 18.8437315, "tags": {"amenity": "cafe", "check_date": "2024-08-07", "name": "Kako? Kako", "opening_hours": "Mo-Su 07:00-19:00", "phone": "+382 68 644 446"}}, {"type": "node", "id": 11329264969, "lat": 42.2934243, "lon": 18.8435476, "tags": {"amenity": "cafe", "name": "Ivangrad", "opening_hours": "Mo-Su 07:00-01:00"}}, {"type": "node", "id": 11363598213, "lat": 42.2929301, "lon": 18.8432054, "tags": {"amenity": "cafe", "check_date": "2025-04-26", "check_date:opening_hours": "2025-04-26", "name": "Chicago Street Food", "opening_hours": "Mo-Su 12:00-23:00"}}, {"type": "node", "id": 11384207860, "lat": 42.0885285, "lon": 19.1188065, "tags": {"amenity": "cafe", "check_date": "2025-03-27", "check_date:opening_hours": "2025-03-27", "name": "burger house", "opening_hours": "Mo-Su 06:00-24:00"}}, {"type": "node", "id": 11413024133, "lat": 42.1416494, "lon": 19.0427623, "tags": {"amenity": "restaurant", "indoor_seating": "yes", "name": "Konoba Montenegro 3 Since 1994", "outdoor_seating": "yes"}}, {"type": "node", "id": 11413039996, "lat": 42.1416176, "lon": 19.0468304, "tags": {"amenity": "cafe", "name": "Grill caffe \"Gaga\""}}, {"type": "node", "id": 11413042090, "lat": 42.1415344, "lon": 19.0471804, "tags": {"amenity": "cafe", "name": "Pe\u0107enjara kod Gogija"}}, {"type": "node", "id": 11443416164, "lat": 42.1396802, "lon": 19.0475514, "tags": {"amenity": "cafe", "name": "Marinero"}}, {"type": "node", "id": 11443424177, "lat": 42.1383078, "lon": 19.0501812, "tags": {"amenity": "cafe", "name": "Palmera caffe bar"}}, {"type": "node", "id": 11443426967, "lat": 42.1383544, "lon": 19.0504262, "tags": {"amenity": "restaurant", "name": "Izvor"}}, {"type": "node", "id": 11443434133, "lat": 42.1385853, "lon": 19.0494392, "tags": {"amenity": "restaurant", "name": "Bossalino since 1986"}}, {"type": "node", "id": 11449386316, "lat": 42.1365757, "lon": 19.0558192, "tags": {"amenity": "restaurant", "name": "Questo quello"}}, {"type": "node", "id": 11449449149, "lat": 42.1375012, "lon": 19.0529839, "tags": {"amenity": "cafe", "name": "Pub Habana caffe"}}, {"type": "node", "id": 11449455840, "lat": 42.1377462, "lon": 19.0520587, "tags": {"amenity": "cafe", "name": "Riva"}}, {"type": "node", "id": 11494469938, "lat": 42.2759198, "lon": 18.8845136}, {"type": "node", "id": 11494469939, "lat": 42.2758608, "lon": 18.8845201}, {"type": "node", "id": 11494469940, "lat": 42.2758559, "lon": 18.884439}, {"type": "node", "id": 11494469941, "lat": 42.2759149, "lon": 18.8844325}, {"type": "node", "id": 11532736918, "lat": 42.0991865, "lon": 19.0989701, "tags": {"amenity": "cafe", "name": "Time Out", "opening_hours": "Mo-Su 07:00-23:00"}}, {"type": "node", "id": 11559787884, "lat": 42.0992624, "lon": 19.0981748, "tags": {"amenity": "restaurant", "name": "Agape", "website": "https://hotelagape.me/restoran/"}}, {"type": "node", "id": 11587451115, "lat": 42.097406, "lon": 19.0996676, "tags": {"amenity": "restaurant", "check_date": "2024-05-04", "cuisine": "sushi", "internet_access": "wlan", "internet_access:fee": "customers", "name": "City Wok", "opening_hours": "Mo-Su 10:00-22:00", "payment:cash": "yes", "payment:credit_cards": "yes", "payment:debit_cards": "yes", "wheelchair": "no"}}, {"type": "node", "id": 11608259117, "lat": 42.0957, "lon": 19.0948829}, {"type": "node", "id": 11608259118, "lat": 42.0957925, "lon": 19.0948378}, {"type": "node", "id": 11608259119, "lat": 42.0958146, "lon": 19.0948902}, {"type": "node", "id": 11608259120, "lat": 42.0958035, "lon": 19.094864, "tags": {"entrance": "main"}}, {"type": "node", "id": 11638301715, "lat": 42.3180539, "lon": 18.8223242}, {"type": "node", "id": 11638301716, "lat": 42.3179144, "lon": 18.8224792}, {"type": "node", "id": 11638301717, "lat": 42.3178087, "lon": 18.8226946}, {"type": "node", "id": 11638301718, "lat": 42.3178752, "lon": 18.8227542}, {"type": "node", "id": 11638301719, "lat": 42.3179793, "lon": 18.8225409}, {"type": "node", "id": 11638301720, "lat": 42.3180318, "lon": 18.8225539}, {"type": "node", "id": 11638301721, "lat": 42.3181228, "lon": 18.8223959}, {"type": "node", "id": 11642874048, "lat": 42.3070704, "lon": 18.8050796}, {"type": "node", "id": 11642874049, "lat": 42.3070965, "lon": 18.8051382}, {"type": "node", "id": 11642874050, "lat": 42.3070439, "lon": 18.8051812}, {"type": "node", "id": 11642874051, "lat": 42.3070178, "lon": 18.8051226}, {"type": "node", "id": 11642874054, "lat": 42.3070445, "lon": 18.8051007, "tags": {"entrance": "yes"}}, {"type": "node", "id": 11648644769, "lat": 42.2926737, "lon": 18.8381594, "tags": {"amenity": "cafe", "name": "Hello Budva", "opening_hours": "Mo-Su 08:00-22:00"}}, {"type": "node", "id": 11665812546, "lat": 42.0871008, "lon": 19.1045135, "tags": {"amenity": "cafe", "check_date": "2024-06-14", "cuisine": "burger;balkan", "name": "Konoba Baka Rej", "outdoor_seating": "yes"}}, {"type": "node", "id": 11741383308, "lat": 42.271973, "lon": 18.8469316}, {"type": "node", "id": 11741383309, "lat": 42.2718915, "lon": 18.8468968}, {"type": "node", "id": 11741383310, "lat": 42.2719021, "lon": 18.8468513}, {"type": "node", "id": 11741383311, "lat": 42.2718648, "lon": 18.8468354}, {"type": "node", "id": 11741383312, "lat": 42.2718981, "lon": 18.8466931}, {"type": "node", "id": 11741383313, "lat": 42.271964, "lon": 18.8467212}, {"type": "node", "id": 11741383314, "lat": 42.2719501, "lon": 18.8467809}, {"type": "node", "id": 11741383315, "lat": 42.2720029, "lon": 18.8468034}, {"type": "node", "id": 11784613561, "lat": 42.2880939, "lon": 18.8518906, "tags": {"amenity": "restaurant", "name": "TerminalPub", "opening_hours": "Mo-Su 07:00-01:00"}}, {"type": "node", "id": 11903443769, "lat": 42.2871898, "lon": 18.8406004, "tags": {"amenity": "cafe", "contact:instagram": "akacia_coffee", "cuisine": "coffee_shop", "internet_access": "wlan", "level": "2", "name": "Akacia", "opening_hours": "Mo-Fr 08:00-21:00", "phone": "067051509", "website": "https://akacia.coffee/"}}, {"type": "node", "id": 11903576470, "lat": 42.284176, "lon": 18.8358894, "tags": {"addr:housenumber": "2", "addr:street": "13. jul", "amenity": "cafe", "check_date": "2025-04-03", "contact:instagram": "more.coffee.budva", "cuisine": "coffee_shop", "name": "More Coffee", "opening_hours": "Mo-Fr 07:00-19:00; Sa-Su 08:00-20:00"}}, {"type": "node", "id": 11903587469, "lat": 42.284225, "lon": 18.8359447, "tags": {"addr:housenumber": "2", "addr:street": "13. jul", "air_conditioning": "yes", "amenity": "cafe", "check_date": "2025-04-04", "contact:instagram": "cups_coffeeshop", "cuisine": "coffee_shop", "email": "cupscoffeeshop23@gmail.com", "internet_access": "wlan", "internet_access:fee": "no", "level": "0", "name": "CUPS Coffeeshop", "opening_hours": "Su-Th 08:00-21:00; Fr-Sa 08:00-23:00", "outdoor_seating": "yes", "payment:cash": "yes", "payment:mastercard": "yes", "payment:visa": "yes", "phone": "+382 69 314 819", "takeaway": "yes", "toilets": "yes", "toilets:menstrual_products": "no", "toilets:wheelchair": "no", "wheelchair": "no"}}, {"type": "node", "id": 11910810677, "lat": 42.0971408, "lon": 19.0926548, "tags": {"amenity": "cafe", "contact:instagram": "crazybubble.me", "contact:tiktok": "@crazybubble.me", "cuisine": "bubble_tea", "level": "1", "name": "Crazy Bubble", "name:en": "Crazy Bubble - Bubble Tea", "opening_hours": "Mo-Tu 14:00-21:00; We-Su 09:00-21:00", "phone": "+382 67 00 77 03", "website": "https://www.crazybubble.pl/"}}, {"type": "node", "id": 11913889813, "lat": 42.292012, "lon": 18.8457332, "tags": {"amenity": "cafe", "check_date": "2024-05-04", "name": "Salute"}}, {"type": "node", "id": 11915783840, "lat": 42.2869711, "lon": 18.8525451, "tags": {"amenity": "restaurant", "name": "Carevi\u0107", "opening_hours": "Mo-Su 07:00-23:00"}}, {"type": "node", "id": 11923468021, "lat": 42.0994059, "lon": 19.0947294, "tags": {"air_conditioning": "yes", "amenity": "cafe", "bar": "yes", "check_date": "2024-07-08", "contact:facebook": "https://facebook.com/p/Tortuga-gastrobar-61556248600761", "contact:instagram": "tortuga_gastrobar", "indoor_seating": "yes", "internet_access": "wlan", "internet_access:fee": "no", "name": "Tortuga", "opening_hours": "Mo-Su 14:00-02:00", "outdoor_seating": "no", "phone": "+38268486724", "smoking": "no", "toilets": "yes", "toilets:access": "customers", "toilets:wheelchair": "no", "website": "https://www.tortugabar.me", "website:menu": "https://www.tortugabar.me/menu", "wheelchair": "no"}}, {"type": "node", "id": 11947860912, "lat": 42.0955341, "lon": 19.0972035, "tags": {"amenity": "restaurant", "name": "Carigrad"}}, {"type": "node", "id": 11974047990, "lat": 42.301859, "lon": 18.8400038, "tags": {"amenity": "restaurant", "name": "ReSeT", "tourism": "hotel", "website": "https://resetbudva.com/"}}, {"type": "node", "id": 11981847272, "lat": 42.2067919, "lon": 18.9373032, "tags": {"amenity": "cafe", "check_date": "2024-06-14", "contact:instagram": "https://www.instagram.com/miamonte.kitchen", "cuisine": "coffee_shop", "name": "Mia Monte", "opening_hours": "Mo-Th,Su 09:00-21:00; Fr-Sa 09:00-22:30", "payment:cash": "yes", "payment:credit_cards": "yes", "payment:debit_cards": "yes"}}, {"type": "node", "id": 11985391869, "lat": 42.2781852, "lon": 18.8376477, "tags": {"amenity": "restaurant", "name": "Punta Konoba"}}, {"type": "node", "id": 11986142569, "lat": 42.2690823, "lon": 18.8942914, "tags": {"amenity": "restaurant", "name": "Village"}}, {"type": "node", "id": 12046456831, "lat": 42.2163449, "lon": 18.9970026, "tags": {"amenity": "cafe", "outdoor_seating": "yes"}}, {"type": "node", "id": 12046623530, "lat": 42.0977904, "lon": 19.0928297, "tags": {"air_conditioning": "yes", "amenity": "restaurant", "cuisine": "organic", "diet:organic": "yes", "diet:raw": "yes", "diet:vegan": "only", "diet:vegetarian": "only", "name": "Mama Nature", "opening_hours": "Tu-Th 10:00-18:00; Fr-Su 10:00-20:00", "website": "https://mamanature.me/", "wheelchair": "limited"}}, {"type": "node", "id": 12047777132, "lat": 42.2206443, "lon": 18.9451047, "tags": {"amenity": "cafe"}}, {"type": "node", "id": 12078602350, "lat": 42.2262014, "lon": 19.1240473, "tags": {"amenity": "restaurant", "name": "Gazdinstvo Orlandic"}}, {"type": "node", "id": 12082890177, "lat": 42.2893928, "lon": 18.8389527, "tags": {"amenity": "cafe", "indoor_seating": "yes", "name": "Caffe Volley", "outdoor_seating": "yes"}}, {"type": "node", "id": 12083235620, "lat": 42.130661, "lon": 19.1139851, "tags": {"amenity": "cafe", "name": "Bearable"}}, {"type": "node", "id": 12088710204, "lat": 42.139362, "lon": 19.0475133, "tags": {"amenity": "restaurant", "indoor_seating": "yes", "name": "Bobina kuhinja", "opening_hours": "Mo-Su 08:00-23:00", "outdoor_seating": "yes"}}, {"type": "node", "id": 12112252565, "lat": 42.0978622, "lon": 19.0991726, "tags": {"amenity": "restaurant", "name": "\u0106evabd\u017einica Goranac"}}, {"type": "node", "id": 12115385321, "lat": 42.1340981, "lon": 19.060957, "tags": {"amenity": "restaurant", "name": "Tutto Bene"}}, {"type": "node", "id": 12146913854, "lat": 42.0928141, "lon": 19.1329005}, {"type": "node", "id": 12180715801, "lat": 42.2784085, "lon": 18.8376113, "tags": {"amenity": "restaurant", "check_date": "2024-10-17", "name": "Restaurant Green", "outdoor_seating": "no", "phone": "+38269022722"}}, {"type": "node", "id": 12248969218, "lat": 42.1051136, "lon": 19.0908224, "tags": {"amenity": "restaurant", "cuisine": "local", "name": "Aria", "outdoor_seating": "yes", "phone": "+382 30 313 546"}}, {"type": "node", "id": 12253427401, "lat": 42.2784063, "lon": 18.8375487, "tags": {"addr:street": "Trg. Palmi", "amenity": "restaurant", "check_date": "2024-10-17", "name": "Konoba Feral"}}, {"type": "node", "id": 12258913428, "lat": 42.2783014, "lon": 18.8383675, "tags": {"amenity": "restaurant", "check_date": "2024-10-17", "name": "Mlin"}}, {"type": "node", "id": 12259349128, "lat": 42.2777416, "lon": 18.8387392, "tags": {"amenity": "restaurant", "check_date": "2024-10-17", "name": "Secret Garden"}}, {"type": "node", "id": 12261002773, "lat": 42.2780724, "lon": 18.8367295, "tags": {"addr:city": "Budva", "addr:housenumber": "4", "addr:street": "Njego\u0161eva", "amenity": "restaurant", "check_date": "2024-10-22", "contact:facebook": "https://www.facebook.com/astoriabudva/", "cuisine": "regional", "name": "Astoria", "opening_hours": "08:00-23:00", "phone": "+382 63 234 005", "website": "http://astoriamontenegro.com/astoria-budva/"}}, {"type": "node", "id": 12262717753, "lat": 42.2842971, "lon": 18.8412893}, {"type": "node", "id": 12287606429, "lat": 42.2789841, "lon": 18.8364516, "tags": {"amenity": "restaurant", "check_date": "2024-10-25", "name": "Kafana Mogren"}}, {"type": "node", "id": 12393797989, "lat": 42.1000572, "lon": 19.1024461, "tags": {"amenity": "cafe", "check_date": "2024-12-03", "name": "Posto Segrelo"}}, {"type": "node", "id": 12400272675, "lat": 42.0978369, "lon": 19.100259, "tags": {"amenity": "cafe", "check_date": "2024-12-06", "name": "M&S"}}, {"type": "node", "id": 12425268449, "lat": 42.0987775, "lon": 19.0989782, "tags": {"addr:city": "Bar", "addr:housenumber": "2A", "addr:postcode": "85000", "addr:street": "Makedonska", "amenity": "cafe", "internet_access": "wlan", "name": "Oliva Cafe", "opening_hours": "Mo-Fr 07:00-20:00; Sa-Su 08:00-21:00", "outdoor_seating": "yes", "phone": "+38268639148", "website": "https://oliva.digitalnimeni.me/"}}, {"type": "node", "id": 12425268450, "lat": 42.099368, "lon": 19.1013471, "tags": {"amenity": "cafe", "name": "Round Coffee", "opening_hours": "Mo-Su 08:00-19:00"}}, {"type": "node", "id": 12452998524, "lat": 42.1108466, "lon": 19.0860071, "tags": {"amenity": "restaurant", "check_date": "2024-12-26", "name": "Amfora", "opening_hours": "07:00-01:00"}}, {"type": "node", "id": 12531862729, "lat": 42.0886091, "lon": 19.1303338, "tags": {"amenity": "restaurant", "check_date": "2025-01-25", "name": "Grill Parilla"}}, {"type": "node", "id": 12546009446, "lat": 42.2784149, "lon": 18.8367994, "tags": {"addr:city": "Budva", "addr:postcode": "85310", "addr:street": "Njego\u0161eva", "amenity": "cafe", "cuisine": "coffee_shop;italian;pizza;pasta;sandwich;breakfast", "internet_access": "yes", "name": "Mozzart", "opening_hours": "Mo-Su 09:00-21:00", "outdoor_seating": "yes", "phone": "+38269101789", "website": "https://www.facebook.com/caffe.mozart/"}}, {"type": "node", "id": 12582155827, "lat": 42.2938401, "lon": 18.8390006, "tags": {"amenity": "cafe", "cuisine": "coffee_shop", "name": "Simple Coffee", "opening_hours": "Mo-Su 10:00-22:00", "outdoor_seating": "yes", "payment:cash": "yes", "payment:mastercard": "yes", "payment:visa": "yes", "website": "https://www.instagram.com/simple_coffee_more/"}}, {"type": "node", "id": 12587203623, "lat": 42.2884479, "lon": 18.8327326, "tags": {"amenity": "cafe"}}, {"type": "node", "id": 12621557547, "lat": 42.1111389, "lon": 19.0874794, "tags": {"amenity": "restaurant", "name": "Xio", "opening_hours": "Mo-Su 12:00-22:00"}}, {"type": "node", "id": 12628431487, "lat": 42.1996601, "lon": 18.9665626, "tags": {"amenity": "restaurant", "cuisine": "balkan;georgian", "level": "0", "name": "Georgian Courtyard", "opening_hours": "Mo-Su 12:00-22:30", "outdoor_seating": "yes", "takeaway": "yes", "toilets": "yes", "toilets:access": "customers"}}, {"type": "node", "id": 12640956980, "lat": 42.2455627, "lon": 19.0919859, "tags": {"amenity": "restaurant", "check_date": "2025-03-01", "name": "Konoba Stari Konak"}}, {"type": "node", "id": 12646581542, "lat": 42.1001547, "lon": 19.0992017, "tags": {"amenity": "cafe", "name": "Alter ego"}}, {"type": "node", "id": 12647281549, "lat": 42.1128608, "lon": 19.0844514, "tags": {"amenity": "restaurant", "check_date": "2025-03-09", "name": "Konoba Sunce"}}, {"type": "node", "id": 12649847905, "lat": 42.2837335, "lon": 18.8372803}, {"type": "node", "id": 12649869797, "lat": 42.2838224, "lon": 18.8374624, "tags": {"addr:city": "Budva", "addr:housenumber": "8", "addr:postcode": "85310", "addr:street": "Mediteranska", "amenity": "cafe", "internet_access": "yes", "name": "WOW Lounge & Bar", "opening_hours": "Mo - Su 07:00-23:00", "phone:mobile": "068 - 203/303", "website": "http://www.wowloungebar.me/"}}, {"type": "node", "id": 12669616892, "lat": 42.2944306, "lon": 18.8418639, "tags": {"amenity": "cafe", "contact:instagram": "dreams.budva", "cuisine": "coffee_shop", "name": "DREAMS FOOD & DRINKS", "opening_hours": "Mo-Su 08:30-20:30", "phone": "068571749"}}, {"type": "node", "id": 12676577543, "lat": 42.2830658, "lon": 18.8399636}, {"type": "node", "id": 12676577546, "lat": 42.2830829, "lon": 18.8399878}, {"type": "node", "id": 12676577547, "lat": 42.2830607, "lon": 18.8399563}, {"type": "node", "id": 12676577550, "lat": 42.2830433, "lon": 18.8399317}, {"type": "node", "id": 12676577553, "lat": 42.2831061, "lon": 18.8399656}, {"type": "node", "id": 12676577554, "lat": 42.2831104, "lon": 18.8399599}, {"type": "node", "id": 12676577555, "lat": 42.2830597, "lon": 18.8399008}, {"type": "node", "id": 12676577558, "lat": 42.2830636, "lon": 18.8398958}, {"type": "node", "id": 12676577559, "lat": 42.2830789, "lon": 18.8398761}, {"type": "node", "id": 12676577561, "lat": 42.2830866, "lon": 18.8398755}, {"type": "node", "id": 12676577562, "lat": 42.2831292, "lon": 18.8399357}, {"type": "node", "id": 12676577564, "lat": 42.2831264, "lon": 18.8399393}, {"type": "node", "id": 12676577566, "lat": 42.2830807, "lon": 18.8399845}, {"type": "node", "id": 12676577567, "lat": 42.2830889, "lon": 18.8399878}, {"type": "node", "id": 12676577568, "lat": 42.2830452, "lon": 18.8399345}, {"type": "node", "id": 12676577570, "lat": 42.2830439, "lon": 18.8399213}, {"type": "node", "id": 12676577571, "lat": 42.2830831, "lon": 18.8398706}, {"type": "node", "id": 12676577572, "lat": 42.2830397, "lon": 18.8399267}, {"type": "node", "id": 12676577573, "lat": 42.2830858, "lon": 18.8399918}, {"type": "node", "id": 12676577575, "lat": 42.283152, "lon": 18.8401025}, {"type": "node", "id": 12676577578, "lat": 42.2831764, "lon": 18.8401426}, {"type": "node", "id": 12676577579, "lat": 42.2831254, "lon": 18.840059}, {"type": "node", "id": 12676577582, "lat": 42.2831507, "lon": 18.8401004}, {"type": "node", "id": 12676577583, "lat": 42.2831238, "lon": 18.8400563}, {"type": "node", "id": 12676577586, "lat": 42.2830999, "lon": 18.8400171}, {"type": "node", "id": 12676577667, "lat": 42.284145, "lon": 18.8413621}, {"type": "node", "id": 12676577679, "lat": 42.2844394, "lon": 18.841607}, {"type": "node", "id": 12676577680, "lat": 42.2843725, "lon": 18.8416388}, {"type": "node", "id": 12676577685, "lat": 42.284384, "lon": 18.8413301}, {"type": "node", "id": 12676577686, "lat": 42.2843959, "lon": 18.8413757}, {"type": "node", "id": 12676577690, "lat": 42.2842035, "lon": 18.8413338}, {"type": "node", "id": 12676577692, "lat": 42.2844099, "lon": 18.8414293}, {"type": "node", "id": 12676577693, "lat": 42.2844239, "lon": 18.8414226}, {"type": "node", "id": 12676577735, "lat": 42.2843927, "lon": 18.8422822}, {"type": "node", "id": 12676577740, "lat": 42.2844248, "lon": 18.8424932}, {"type": "node", "id": 12676577741, "lat": 42.2843918, "lon": 18.8422767}, {"type": "node", "id": 12683844370, "lat": 42.2837458, "lon": 18.8408689}, {"type": "node", "id": 12683844371, "lat": 42.2838701, "lon": 18.840798}, {"type": "node", "id": 12683844372, "lat": 42.2837916, "lon": 18.8409219}, {"type": "node", "id": 12683844373, "lat": 42.2837527, "lon": 18.8408768}, {"type": "node", "id": 12683844374, "lat": 42.2838311, "lon": 18.840753}, {"type": "node", "id": 12683844375, "lat": 42.2838293, "lon": 18.8409655}, {"type": "node", "id": 12683844376, "lat": 42.2837874, "lon": 18.8407024}, {"type": "node", "id": 12683844377, "lat": 42.2839078, "lon": 18.8408417}, {"type": "node", "id": 12696114593, "lat": 42.2845369, "lon": 18.838763, "tags": {"amenity": "cafe", "name": "WOW Caffe"}}, {"type": "node", "id": 12696259307, "lat": 42.2832245, "lon": 18.8400936}, {"type": "node", "id": 12703385835, "lat": 42.2844241, "lon": 18.8424883}, {"type": "node", "id": 12704880029, "lat": 42.2931855, "lon": 18.8381951}, {"type": "node", "id": 12706768763, "lat": 42.2812612, "lon": 18.8381083}, {"type": "node", "id": 12706768764, "lat": 42.2811405, "lon": 18.8380432}, {"type": "node", "id": 12706768765, "lat": 42.2812256, "lon": 18.8377892}, {"type": "node", "id": 12706768766, "lat": 42.2813361, "lon": 18.83733}, {"type": "node", "id": 12706768767, "lat": 42.2812795, "lon": 18.837537}, {"type": "node", "id": 12706768768, "lat": 42.2813304, "lon": 18.8375622}, {"type": "node", "id": 12713293369, "lat": 42.2912637, "lon": 18.8494129, "tags": {"amenity": "cafe", "check_date": "2025-05-07", "check_date:opening_hours": "2025-05-07", "internet_access": "wlan", "internet_access:fee": "customers", "name": "Granola", "opening_hours": "Mo-Su 09:00-15:00", "payment:cards": "no", "payment:cash": "yes", "payment:credit_cards": "no", "payment:debit_cards": "no", "wheelchair": "limited"}}, {"type": "node", "id": 12717788170, "lat": 42.2782226, "lon": 18.8359415, "tags": {"amenity": "cafe"}}, {"type": "node", "id": 12717788171, "lat": 42.278214, "lon": 18.8357815, "tags": {"amenity": "cafe"}}, {"type": "node", "id": 12722196360, "lat": 42.2818057, "lon": 18.8382246}, {"type": "node", "id": 12722196361, "lat": 42.2817834, "lon": 18.8382077}, {"type": "node", "id": 12722196362, "lat": 42.2818723, "lon": 18.8383272}, {"type": "node", "id": 12722196363, "lat": 42.2818671, "lon": 18.8383227}, {"type": "node", "id": 12722196364, "lat": 42.2818517, "lon": 18.8383587}, {"type": "node", "id": 12722196365, "lat": 42.2818456, "lon": 18.8383544}, {"type": "node", "id": 12756811043, "lat": 42.2839719, "lon": 18.8375537}, {"type": "node", "id": 12766821488, "lat": 42.2912319, "lon": 18.8504458, "tags": {"amenity": "restaurant", "cuisine": "kebab;barbecue", "name": "Mangal", "name:ru": "\u041c\u0430\u043d\u0433\u0430\u043b", "opening_hours": "Mo-Su 11:00-23:00"}}, {"type": "node", "id": 12770846591, "lat": 42.0928265, "lon": 19.1329049}, {"type": "node", "id": 12778150372, "lat": 42.294366, "lon": 18.8409205, "tags": {"amenity": "cafe", "name": "Vivaldi"}}, {"type": "node", "id": 12794800701, "lat": 42.2935998, "lon": 18.8417241, "tags": {"addr:housenumber": "34", "addr:street": "Filipa Kova\u010devi\u0107a", "amenity": "cafe", "internet_access": "wlan", "name:en": "street cafe", "opening_hours": "Mo-Su 07:00-01:00"}}, {"type": "node", "id": 12803855195, "lat": 42.2913662, "lon": 18.8384397, "tags": {"addr:city": "Budva", "addr:housenumber": "3", "addr:postcode": "85310", "addr:street": "I ulica", "amenity": "cafe", "cuisine": "pastry", "internet_access": "wlan", "internet_access:fee": "no", "name": "Mari Pastry - Pastry shop & cafe", "opening_hours": "Mo-Su 12:00-19:00", "phone": "+382 68 516 095", "website": "https://www.instagram.com/mari_pastry_"}}, {"type": "node", "id": 12810400402, "lat": 42.2846747, "lon": 18.876342, "tags": {"addr:housenumber": "S42 Anatolia", "addr:postcode": "85316", "addr:street": "Nova Ulica", "amenity": "restaurant", "contact:email": "2517er@gmail.com", "contact:instagram": "voronka.me", "contact:telegram": "voronkacoffeevlg", "cuisine": "balkan;mediterranean;russian", "delivery": "yes", "internet_access": "wlan", "name": "Voronka #4", "opening_hours": "Mo-Su 08:00-22:00", "outdoor_seating": "yes", "phone": "+382 68 143 301", "self_service": "no", "website:menu": "https://menusa.app/11ee41a05598b204afde2f1b68d2da19"}}, {"type": "node", "id": 12812325101, "lat": 42.2578742, "lon": 18.8933387, "tags": {"amenity": "restaurant", "name:tr": "Sveti stefan manzaral\u0131 restoran olive"}}, {"type": "node", "id": 12864012031, "lat": 42.1380275, "lon": 19.0477428, "tags": {"amenity": "restaurant", "name": "Tabija", "phone": "+38268111850"}}, {"type": "node", "id": 12895130201, "lat": 42.288249, "lon": 18.8418918, "tags": {"amenity": "cafe", "name:en": "sushi wok", "opening_hours": "Mo-Su 11:00-22:00"}}, {"type": "node", "id": 12900209005, "lat": 42.2861005, "lon": 18.8735071, "tags": {"amenity": "restaurant", "name": "Two Captains"}}, {"type": "way", "id": 172347896, "nodes": [1832587076, 1832587077, 1832587078, 1832587079, 1832587076], "tags": {"amenity": "restaurant", "building": "retail", "cuisine": "pizza", "indoor_seating": "yes", "name": "Parapet pizza & grill", "name:ru": "\u041f\u0430\u0440\u0430\u043f\u0435\u0442 \u043f\u0438\u0446\u0446\u0430 & \u0433\u0440\u0438\u043b\u044c", "outdoor_seating": "yes", "payment:credit_cards": "yes", "source:building": "survey"}}, {"type": "way", "id": 172411780, "nodes": [1833173571, 1833173564, 1833173567, 1833173572, 1833173571], "tags": {"amenity": "restaurant", "building": "yes", "source:building": "survey"}}, {"type": "way", "id": 175188746, "nodes": [1858214450, 1858214454, 1858214462, 1858214457, 1858214450], "tags": {"amenity": "restaurant", "building": "yes", "cuisine": "grill;crepe;coffee_shop;beef_bowl;balkan;pasta;diner;italian_pizza;fish;hot_dog;savory_pancakes;tea;friture;italian;heuriger;sandwich;regional;international;ice_cream;buschenschank;pizza;fish_and_chips;breakfast;seafood;sausage;local;croatian", "internet_access": "wlan", "name": "Konoba Ba\u0161ta", "name:sr": "\u041a\u043e\u043d\u043e\u0431\u0430 \u0411\u0430\u0448\u0442\u0430", "opening_hours": "Mo-Su 07:00-23:00", "phone": "+38268409633"}}, {"type": "way", "id": 188312732, "nodes": [1989400679, 1989400677, 1989400676, 1989400678, 1989400679], "tags": {"addr:housenumber": "70", "addr:street": "Mainski put", "amenity": "restaurant", "building": "retail", "check_date": "2025-05-28", "contact:instagram": "https://www.instagram.com/grillbasta_parma", "cuisine": "regional", "delivery": "yes", "email": "parma.dapcevic@gmail.com", "height": "7.40", "internet_access": "wlan", "internet_access:fee": "customers", "internet_access:ssid": "Parma", "level": "0;1", "name": "Parma", "opening_hours": "Mo-Su 00:00-24:00", "outdoor_seating": "yes", "reservation": "yes", "roof:material": "plastic", "roof:shape": "round", "smoking": "yes", "takeaway": "yes", "toilets": "yes"}}, {"type": "way", "id": 188383093, "nodes": [1990124192, 1990124194, 1990124094, 1990124052, 1990124192], "tags": {"amenity": "cafe", "building": "yes", "building:levels": "3", "height": "10.50", "name": "La Terazza", "roof:material": "roof_tiles", "roof:shape": "gabled"}}, {"type": "way", "id": 206506277, "nodes": [2165151670, 2165151642, 2165151647, 2165151665, 2165151670], "tags": {"amenity": "cafe", "cuisine": "regional", "name": "Kafana Kosma\u010d"}}, {"type": "way", "id": 210671292, "nodes": [2207530977, 2207530967, 2207530913, 2207530903, 2207530909, 2207530937, 2207530905, 2207530945, 2207530977], "tags": {"amenity": "restaurant", "building": "yes", "name": "Jezero", "name:sr": "\u0408\u0435\u0437\u0435\u0440\u043e", "opening_hours": "Mo-Su 08:00-22:00"}}, {"type": "way", "id": 220111354, "nodes": [2292328902, 2292328904, 2292328903, 2292328900, 2292328902], "tags": {"amenity": "restaurant", "building": "yes", "name": "Tajana", "name:ru": "\u0422\u0430\u044f\u043d\u0430"}}, {"type": "way", "id": 220111383, "nodes": [697886251, 12146913854, 12770846591, 2292328936, 2292328941, 697886251], "tags": {"addr:housenumber": "219", "addr:street": "Bega \u0160kanjevi\u0107a", "amenity": "restaurant", "building": "yes", "name": "Caffe grill Akvadukt", "name:ru": "\u041a\u0430\u0444\u0435-\u0433\u0440\u0438\u043b\u044c \u0410\u043a\u0432\u0435\u0434\u0443\u043a", "name:sr": "\u041a\u0430\u0444\u0435 \u0433\u0440\u0438\u043b \u0410\u043a\u0432\u0430\u0434\u0443\u043a\u0442", "name:sr-Latn": "Caffe grill Akvadukt"}}, {"type": "way", "id": 233638917, "nodes": [2419916779, 2419916819, 2419916759, 2419916718, 2419916779], "tags": {"amenity": "restaurant", "building": "yes", "building:levels": "4", "cuisine": "mediterranean;russian", "name": "\u0410tos", "name:sr": "\u0410\u0442\u043e\u0441", "outdoor_seating": "yes", "smoking": "isolated"}}, {"type": "way", "id": 233680139, "nodes": [2420249435, 2420249453, 2420249504, 2420249508, 2420249510, 2420249505, 2420249476, 2420249472, 2420249496, 2420249498, 2420249492, 2420249490, 2420249494, 2420249488, 2420249441, 2420249433, 2420249435], "tags": {"amenity": "restaurant", "building": "yes", "name": "HAWAll"}}, {"type": "way", "id": 234156742, "nodes": [2424562114, 2424562212, 2424562175, 12704880029, 2424562076, 2424562114], "tags": {"addr:housenumber": "177", "addr:street": "Mimoza", "amenity": "restaurant", "building": "yes", "cuisine": "regional", "internet_access": "wlan", "name": "konoba Bocun", "name:en": "Konoba Bocun", "name:ru": "\u041a\u043e\u043d\u043e\u0431\u0430 \u0411\u043e\u0446\u0443\u043d", "note": "Very good quality, good price. Owner of this konoba(restaurant) has very good quality products (meet, wine, olive oil, vegetables etc.) from his own farm. Very good dessert - baklava, prepared by wife of owner this konoba.", "opening_hours": "Mo-Sa 08:00-22:00", "operator": "Zoran Kaluderovic", "website": "http://konobabocun.com"}}, {"type": "way", "id": 234156794, "nodes": [10862584458, 10862584459, 2424558289, 2424558296, 2475968407, 2475968408, 2475968409, 2475968410, 2424558295, 10862584454, 10862584455, 2475968417, 2475968412, 10862584456, 2424558288, 10862584457, 2475968413, 10862584458], "tags": {"addr:street": "Kaleta VII", "amenity": "restaurant", "building": "yes", "building:levels": "1", "cuisine": "mediterranean", "height": "5.15", "internet_access": "wlan", "name": "Lim", "opening_hours": "Mo-Su 08:00-01:00", "roof:material": "roof_tiles", "roof:shape": "gabled"}}, {"type": "way", "id": 234291617, "nodes": [2425580489, 2425580520, 12722196362, 12722196363, 12722196364, 12722196365, 2425580498, 2425580469, 12722196360, 12722196361, 2425580489], "tags": {"addr:street": "slovenska obala", "amenity": "cafe", "building": "yes", "height": "3.20", "internet_access": "wlan", "roof:colour": "lightgrey", "roof:material": "metal", "roof:shape": "flat"}}, {"type": "way", "id": 234291687, "nodes": [2425580425, 2425580439, 2425580427, 2425580414, 2425580425], "tags": {"addr:place": "Jadranska Obala", "addr:street": "Slovenska Obala", "amenity": "restaurant", "building": "yes", "contact:email": "restoranporto@live.com", "contact:website": "https://restoranporto.com/o-nama/", "cuisine": "fish;fish_and_chips;seafood;local", "description": "\u041f\u043e\u0440\u0442\u043e - \u043a\u0440\u0443\u0442\u0430\u043d\u0441\u043a\u0438\u0439 \u0440\u044b\u0431\u043d\u044b\u0439 \u0440\u0435\u0441\u0442\u043e\u0440\u0430\u043d", "height": "5.20", "internet_access": "wlan", "location": "https://www.google.com/maps/place/Restaurant+Porto/data=!4m2!3m1!1s0x0:0xe300285309c5e741?sa=X&ved=1t:2428&ictx=111", "name": "Porto", "name:ru": "\u041f\u043e\u0440\u0442\u043e", "opening_hours": "Mo-Su 09:00-24:00", "phone": "033 - 451/598", "roof:colour": "lightgrey", "roof:material": "metal sheet", "roof:shape": "gabled", "website": "https://www.restoranporto.com/"}}, {"type": "way", "id": 234291951, "nodes": [2425581602, 2425581638, 2425581646, 2425581606, 12676577740, 12703385835, 12676577735, 12676577741, 2425581602], "tags": {"addr:street": "slovenska obala", "amenity": "restaurant", "building": "yes", "check_date": "2024-10-19", "internet_access": "wlan", "name": "Zeleni Gaj", "name:sr": "\u0417\u0435\u043b\u0435\u043d\u0438 \u0433\u0430\u0458", "website": "https://l.instagram.com/?u=http%3A%2F%2Fzelenigaj.me%2F&e=AT06g0JhS2Q_8dJgyeCCA68mjx7mzIn2V_08T1OEastVxd-w-fDLAwThrTfvaxpFoh-mBiFeP1neUp1pr5DKlzlRmnS2QNK8"}}, {"type": "way", "id": 234291994, "nodes": [2425581560, 6871836144, 12676577685, 12676577686, 12676577692, 12676577693, 2425581600, 12676577679, 12676577680, 2425581480, 6871836143, 6871836142, 2425581454, 12676577667, 12676577690, 12262717753, 2425581560], "tags": {"addr:street": "slovenska obala", "amenity": "restaurant", "building": "yes", "cuisine": "regional;seafood", "internet_access": "wlan", "name": "Obala", "name:ace": "Restoran Obala", "phone": "+382 33 402 782", "website": "https://www.tripadvisor.com/Restaurant_Review-g304074-d4992305-Reviews-Restoran_Obala-Budva_Budva_Municipality.html"}}, {"type": "way", "id": 237658129, "nodes": [2419914055, 2455300170, 2419914045, 2419914108, 2419914101, 2419914055], "tags": {"addr:street": "Jadranska magistrala", "amenity": "restaurant", "building": "hotel", "cuisine": "asian", "name": "Promenada", "wheelchair": "yes"}}, {"type": "way", "id": 239658766, "nodes": [2474383092, 2474383095, 2474383096, 2474383098, 2474383092], "tags": {"addr:housenumber": "35", "addr:street": "I", "amenity": "restaurant", "building": "yes", "cuisine": "regional", "name": "Pod Lozom", "name:sr": "\u041f\u043e\u0434 \u043b\u043e\u0437\u043e\u043c", "note": "good price and quality", "website": "http://www.loper-tours.com/_Erestoran_lopertours.html"}}, {"type": "way", "id": 239821140, "nodes": [2475944711, 2475944713, 10862584453, 2475944717, 2425581973, 2475944711], "tags": {"addr:street": "Slovenska obala", "amenity": "restaurant", "building": "yes", "cuisine": "mediterranean", "height": "4.80", "name": "Pivnica Gral", "roof:material": "roof_tiles", "roof:shape": "side_half-hipped"}}, {"type": "way", "id": 239874538, "nodes": [2476540960, 2476533302, 2476533327, 2476533331, 6932978592, 2476540960], "tags": {"amenity": "restaurant", "building": "yes", "name": "Restoran \"LLOYD\"", "name:sr": "\u0420\u0435\u0441\u0442\u043e\u0440\u0430\u043d \"LLOYD\""}}, {"type": "way", "id": 240901636, "nodes": [4320620789, 2485967826, 2485967846, 2485967815, 4320620789], "tags": {"amenity": "restaurant", "building": "yes", "name": "Restoran Padrino", "name:sr": "\u0420\u0435\u0441\u0442\u043e\u0440\u0430\u043d \u041f\u0430\u0434\u0440\u0438\u043d\u043e"}}, {"type": "way", "id": 258325045, "nodes": [5771233854, 2636984711, 2636985068, 2636984995, 2636985172, 2636985218, 2636984842, 2636984897, 5771233854], "tags": {"amenity": "restaurant", "building": "yes", "internet_access": "wlan", "name": "Izvor", "name:sr": "\u0418\u0437\u0432\u043e\u0440", "opening_hours": "Mo-Su 12:00-22:00"}}, {"type": "way", "id": 258652852, "nodes": [3769406357, 2639850401, 2639850193, 2639850664, 3769406357], "tags": {"amenity": "restaurant", "building": "yes", "cuisine": "regional", "name": "Kafana Ku\u017eina", "name:sr": "\u041a\u0430\u0444\u0430\u043d\u0430 \u041a\u0443\u0436\u0438\u043d\u0430"}}, {"type": "way", "id": 361443090, "nodes": [3659172644, 3659172642, 3659172643, 3659172645, 3659172644], "tags": {"amenity": "restaurant", "building": "yes", "cuisine": "pizza", "name": "Azzurro", "outdoor_seating": "yes", "smoking": "yes"}}, {"type": "way", "id": 373885949, "nodes": [3773172675, 3773172676, 3773172677, 3773172678, 3773172675], "tags": {"amenity": "cafe", "building": "yes"}}, {"type": "way", "id": 374029756, "nodes": [3774323475, 3774323476, 3774323477, 3774323478, 3774323475], "tags": {"amenity": "restaurant", "building": "yes", "name": "Olive"}}, {"type": "way", "id": 397372919, "nodes": [4001634399, 4001634400, 4001634401, 4001634402, 9893557137, 4001634399], "tags": {"amenity": "cafe", "building": "retail", "indoor_seating": "yes", "name": "Dolce factory", "outdoor_seating": "yes"}}, {"type": "way", "id": 498923725, "nodes": [4902617965, 4902617962, 2636984956, 4902617961, 4902617964, 4902617963, 4902617965], "tags": {"addr:city": "Sveti Stefan", "addr:postcode": "85315", "addr:street": "Bliziku\u0107e bb", "amenity": "restaurant", "beds": "20", "building": "yes", "building:use": "residential", "cuisine": "german;regional", "internet_access": "wlan", "internet_access:fee": "no", "level": "0", "name": "Pa\u0161trovi\u0107a Dvori", "opening_hours": "Mo-Su 08:00-24:00", "phone": "+382 67 385 962", "smoking": "outside", "takeaway": "no", "tourism": "hotel"}}, {"type": "way", "id": 503106071, "nodes": [4934467421, 4934466020, 4934466019, 4934466018, 4934467421], "tags": {"amenity": "restaurant", "building": "yes", "building:levels": "2"}}, {"type": "way", "id": 506990409, "nodes": [4965930748, 4965930747, 4965930746, 4965930745, 4965930748], "tags": {"amenity": "restaurant", "building": "yes"}}, {"type": "way", "id": 533410587, "nodes": [5175005631, 5175005632, 5175005633, 5175005634, 5175005631], "tags": {"amenity": "cafe", "building": "yes"}}, {"type": "way", "id": 533410597, "nodes": [5175005663, 5175005664, 5175005665, 5175005666, 5175005630, 5175005663], "tags": {"amenity": "cafe", "building": "yes", "name": "Passerella", "name:ru": "\u041f\u0430\u0441\u0441\u0430\u0440\u0435\u043b\u043b\u0430", "opening_hours": "PH,Mo-Su 08:00-24:00"}}, {"type": "way", "id": 533411021, "nodes": [8270807595, 5175011649, 5175011650, 5175011651, 2476381724]}, {"type": "way", "id": 533474807, "nodes": [6912799241, 6912799242, 5175486082, 6912799243, 6912799244, 6912799245, 6912799241], "tags": {"amenity": "restaurant", "building": "retail", "cuisine": "regional", "indoor_seating": "yes", "name": "Nice Vice", "outdoor_seating": "yes"}}, {"type": "way", "id": 544322929, "nodes": [5261906840, 5261906841, 5261906842, 5261906843, 5261906840], "tags": {"addr:city": "\u0160u\u0161anj", "addr:housenumber": "79", "addr:street": "Ulica crnogorskih serdara", "amenity": "restaurant", "building": "retail", "building:levels": "1", "cuisine": "regional", "name": "Val Maslina", "roof:shape": "gabled", "smoking": "yes"}}, {"type": "way", "id": 554554256, "nodes": [2473147556, 5351639294, 5351639299, 5351639297, 5351639298, 5351639295, 5351639300, 5351639305, 5351639296, 5351639304, 2455300225, 2473147556], "tags": {"addr:street": "Ive Lole Ribara", "amenity": "restaurant", "building": "yes", "cuisine": "regional", "internet_access": "wlan", "name": "Stari Hrast", "name:en": "Old Oak", "name:ru": "\u0421\u0442\u0430\u0440\u044b\u0439 \u0414\u0443\u0431", "opening_hours": "Mo-Su 07:30-23:00", "outdoor_seating": "yes", "smoking": "outside", "takeaway": "yes"}}, {"type": "way", "id": 585686396, "nodes": [5596544304, 5596544303, 5596544302, 5596544301, 5596544304], "tags": {"amenity": "cafe", "building": "yes", "name": "Grill Sidro"}}, {"type": "way", "id": 600466936, "nodes": [5709757319, 5709757317, 5709757310, 5709757312, 5709757315, 5709757319], "tags": {"amenity": "cafe", "building": "yes", "name": "Caffe Bar Pitstop", "name:ru": "\u041a\u0430\u0444\u0435-\u0431\u0430\u0440 \u041f\u0438\u0442\u0441\u0442\u043e\u043f"}}, {"type": "way", "id": 601297080, "nodes": [4870478321, 5715151042, 5715151043, 5715151045, 5715151046, 5715151044, 4870478321], "tags": {"addr:postcode": "81305", "amenity": "restaurant", "building": "boat", "cuisine": "fish;grill", "email": "bojana.dabovic@t-com.me", "internet_access": "wlan", "name": "Silistria", "opening_hours": "Mo-Su 11:00-23:00", "phone": "0038268573686"}}, {"type": "way", "id": 605054398, "nodes": [5739568283, 5739568282, 5739568284, 5739568285, 5739568283], "tags": {"amenity": "restaurant", "building": "yes", "name": "Crvena Glavica"}}, {"type": "way", "id": 684410659, "nodes": [6412135020, 6412135021, 6412135022, 6412135023, 6412135020], "tags": {"addr:city": "Budva", "addr:housenumber": "15", "addr:postcode": "85310", "addr:street": "Popa Jola Zeca", "amenity": "restaurant", "building": "yes", "height": "3.5", "name": "Verige", "parking_space": "normal", "roof:material": "concrete", "roof:shape": "flat", "wheelchair": "yes"}}, {"type": "way", "id": 727036218, "nodes": [6813635960, 6813635959, 6815200385, 6813635958, 6813635957, 6813635956, 6813635960], "tags": {"amenity": "cafe", "name": "Panini", "outdoor_seating": "yes"}}, {"type": "way", "id": 727063554, "nodes": [6813846899, 6813846896, 6813846897, 6813846898, 6813846899], "tags": {"amenity": "restaurant", "building": "yes", "name": "Mun", "name:sr": "\u041c\u0443\u043d"}}, {"type": "way", "id": 727063569, "nodes": [4245834296, 4245833788, 6813846963, 6813846962, 4245834296], "tags": {"amenity": "restaurant", "building": "yes", "name": "La Cantina"}}, {"type": "way", "id": 727539362, "nodes": [6817952188, 6817952189, 6817952190, 6817952191, 6817952188], "tags": {"amenity": "restaurant", "building": "yes", "cuisine": "italian_pizza;seafood;chicken;regional;fish_and_chips;italian;coffee_shop;local;balkan;mediterranean;pizza;pasta;fish;international;grill", "name": "Barka", "name:sr": "\u0411\u0430\u0440\u043a\u0430"}}, {"type": "way", "id": 733702569, "nodes": [12683844377, 12683844375, 12683844372, 12683844373, 12683844370, 6871836137, 12683844376, 12683844374, 12683844371, 12683844377], "tags": {"access": "private", "addr:street": "slovenska obala", "amenity": "restaurant", "building": "yes", "internet_access": "wlan", "name": "Azzuro", "phone": "+382 69 356 580", "website": "https://www.tripadvisor.com/Restaurant_Review-g304074-d4480611-Reviews-Restaurant_Beach_Bar_Azzurro-Budva_Budva_Municipality.html"}}, {"type": "way", "id": 750615636, "nodes": [7018349585, 7018349584, 7018349583, 7018349582, 7018349585], "tags": {"amenity": "restaurant", "building": "yes", "name": "\u0412\u0430\u0441\u0438\u043b\u0438\u0441\u0430", "name:sr": "\u0412\u0430\u0441\u0438\u043b\u0438\u0441\u0430", "name:sr-Latn": "Vasilisa"}}, {"type": "way", "id": 750615665, "nodes": [7018349719, 7018349718, 7018349714, 7018349713, 7018349719], "tags": {"amenity": "restaurant", "building": "yes", "cuisine": "pizza", "name": "Konoba-pizzeria Zec"}}, {"type": "way", "id": 750615669, "nodes": [7018349730, 7018349729, 7018349728, 7018349727, 7018349730], "tags": {"amenity": "restaurant", "building": "yes", "cuisine": "seafood;local;regional", "name": "Ponta", "name:sr": "\u041f\u043e\u043d\u0442\u0430"}}, {"type": "way", "id": 965009901, "nodes": [8927111857, 2670179649, 8927111858, 8927111859, 8927111860, 8927111861, 8927111862, 8927111866, 8927111857], "tags": {"amenity": "restaurant", "building": "yes", "name": "Pla\u017ea"}}, {"type": "way", "id": 968499553, "nodes": [8960204857, 8960204858, 8960204859, 8960204860, 8960204857], "tags": {"amenity": "restaurant", "building": "retail", "building:levels": "2", "indoor_seating": "yes", "name": "Berlin", "name:ru": "\u0411\u0435\u0440\u043b\u0438\u043d", "name:sr": "\u0411\u0435\u0440\u043b\u0438\u043d", "outdoor_seating": "yes", "roof:shape": "flat"}}, {"type": "way", "id": 969597135, "nodes": [8972555173, 8972555187, 8972555186, 8972555185, 8972555184, 8972555183, 8972555182, 8972555181, 8972555180, 8972555179, 8972555178, 8972555177, 8972555176, 8972555175, 8972555174, 8972555160, 8972555161, 8972555162, 8972555163, 8972555164, 8972555165, 8972555166, 8972555167, 8972555168, 8972555169, 8972555170, 8972555171, 8972555172, 8972555173], "tags": {"amenity": "restaurant", "name": "Crvena pla\u017ea Bar"}}, {"type": "way", "id": 977594211, "nodes": [9045726084, 9045726044, 9045726043, 9045726042]}, {"type": "way", "id": 977594212, "nodes": [9045726084, 9045726083, 9045726082, 9045726081, 9045726080, 9045726079, 9045726078, 9045726077, 9045726076, 9045726075, 9045726074, 9045726073, 9045726072, 9045726071, 9045726070, 9045726069, 9045726068, 9045726067, 9045726066, 9045726065, 9045726064]}, {"type": "way", "id": 977611653, "nodes": [9045726042, 9045726041, 9045726040]}, {"type": "way", "id": 977611654, "nodes": [9045918171, 9045918162, 9045918161]}, {"type": "way", "id": 977611658, "nodes": [9045918161, 9045918160, 9045918159, 9045918158, 9045726064]}, {"type": "way", "id": 977611659, "nodes": [9045918171, 9045918170, 9045918169, 9045918168, 9045918167, 9045918166, 9045918165, 9045918164, 9045918163, 9045726040]}, {"type": "way", "id": 983538102, "nodes": [5909645644, 9093727023, 9093727024, 705448226, 5909645644], "tags": {"amenity": "restaurant", "building": "yes", "cuisine": "barbecue;chicken;coffee_shop;fish;fish_and_chips;international;mediterranean;pizza;regional;seafood", "diet:vegetarian": "yes", "internet_access": "wlan", "internet_access:fee": "no", "name": "Kamenovo Beach", "name:sr": "\u041f\u043b\u0430\u0436\u0430 \u041a\u0430\u043c\u0435\u043d\u043e\u0432\u043e", "opening_hours": "Mo-Su 09:00-19:00", "wheelchair": "limited"}}, {"type": "way", "id": 1056233608, "nodes": [2476381724, 8270807592]}, {"type": "way", "id": 1056617013, "nodes": [10058817701, 9709108289, 10058817704]}, {"type": "way", "id": 1056617016, "nodes": [8270807592, 8270807595]}, {"type": "way", "id": 1056617018, "nodes": [9709108287, 9709108281]}, {"type": "way", "id": 1056617019, "nodes": [9709108286, 1832198714]}, {"type": "way", "id": 1056617021, "nodes": [9709108284, 1832198714]}, {"type": "way", "id": 1056617022, "nodes": [9709108281, 9709108286]}, {"type": "way", "id": 1056617024, "nodes": [9709108288, 9709108284]}, {"type": "way", "id": 1056617026, "nodes": [9709108288, 9709108287]}, {"type": "way", "id": 1068083083, "nodes": [3678849943, 9805336987, 9805336988, 9805336989, 3678849943], "tags": {"addr:housenumber": "1", "addr:street": "\u0160etali\u0161te Kralja Nikole", "amenity": "cafe", "building": "retail", "cuisine": "pizza", "internet_access": "wlan", "name": "La Petit Chateu", "name:ru": "\u041b\u0430 \u041f\u0435\u0442\u0438\u0442 \u0428\u0430\u0442\u043e"}}, {"type": "way", "id": 1068083084, "nodes": [3678849942, 9805336990, 9805336991, 9805336992, 3678849942], "tags": {"addr:housenumber": "3", "addr:street": "\u0160etali\u0161te Kralja Nikole", "amenity": "cafe", "building": "retail", "cuisine": "pizza", "indoor_seating": "yes", "internet_access": "wlan", "name": "Ciao", "name:ru": "\u0427\u0430\u043e", "outdoor_seating": "yes"}}, {"type": "way", "id": 1068083085, "nodes": [3696399030, 9805336993, 9805336994, 8781185591, 3696399030], "tags": {"addr:housenumber": "4", "addr:street": "\u0160etali\u0161te Kralja Nikole", "air_conditioning": "yes", "amenity": "restaurant", "building": "yes", "building:levels": "1", "internet_access": "wlan", "internet_access:fee": "no", "name": "Knjazeva Basta", "name:en": "Kniazeva Basta", "name:ru": "\u041a\u043d\u044f\u0437\u0435\u0432\u0430 \u0411\u0430\u0441\u0442\u0430", "smoking": "outside"}}, {"type": "way", "id": 1076869772, "nodes": [9874618532, 9874618533, 9874618534, 9874618535, 9874618532], "tags": {"amenity": "restaurant", "building": "yes"}}, {"type": "way", "id": 1079261522, "nodes": [9893557143, 9893557142, 9893557141, 9893557140, 9893557143], "tags": {"amenity": "cafe", "cuisine": "turkish", "indoor_seating": "yes", "name": "Istanbul", "opening_hours": "Mo-Sa 12:00-24:00; Su 13:00-24:00", "outdoor_seating": "yes", "takeaway": "yes"}}, {"type": "way", "id": 1085611119, "nodes": [9947474858, 9947474859, 9947474860, 9947474861, 9947474858], "tags": {"amenity": "restaurant", "building": "yes", "name": "Zlatna Riba"}}, {"type": "way", "id": 1095621791, "nodes": [10033628466, 10033628467, 10033628468, 10033628469, 10033628466], "tags": {"amenity": "cafe", "building": "yes", "cuisine": "pizza", "drive_through": "no", "name": "Doma\u0107a trapeza"}}, {"type": "way", "id": 1098576091, "nodes": [10058817704, 10058817703, 10058817702, 10058817701]}, {"type": "way", "id": 1098576093, "nodes": [10058817706, 10058817708]}, {"type": "way", "id": 1098576095, "nodes": [10058817711, 10058817712, 9709108291]}, {"type": "way", "id": 1098576096, "nodes": [9709108291, 10058817708]}, {"type": "way", "id": 1098576097, "nodes": [10058817711, 10058817710, 10058817709, 10058817706]}, {"type": "way", "id": 1167848504, "nodes": [9878852351, 10861368327, 10861368328, 10861368329, 9878852351], "tags": {"amenity": "cafe", "building": "yes", "cuisine": "regional", "name": "Ran\u010d Muji\u0107a", "name:ru": "\u0420\u0430\u043d\u0447\u043e \u041c\u0443\u0438\u0447\u0430", "outdoor_seating": "yes", "phone": "+382 69 215  244"}}, {"type": "way", "id": 1167985089, "nodes": [10864443548, 10864443546, 12696259307, 10862584435, 12676577578, 12676577575, 12676577582, 12676577579, 12676577583, 12676577586, 10862584436, 10864443548], "tags": {"amenity": "cafe", "building": "yes", "height": "3.90", "name": "Coco", "not:brand:wikidata": "Q65084369", "roof:colour": "#a1634f", "roof:shape": "flat"}}, {"type": "way", "id": 1197467406, "nodes": [11110242217, 11110242216, 11110242215, 11110242214, 11110242217], "tags": {"amenity": "restaurant", "building": "yes", "check_date": "2024-04-07", "internet_access": "wlan", "internet_access:fee": "customers", "name": "\u0418\u0441\u0442\u043e\u043a", "payment:cash": "yes", "payment:credit_cards": "yes", "payment:debit_cards": "yes", "wheelchair": "limited"}}, {"type": "way", "id": 1204546518, "nodes": [11163955020, 11163955019, 11163955018, 11163955017, 11163955020], "tags": {"amenity": "cafe", "building": "yes", "name": "Panorama"}}, {"type": "way", "id": 1211689044, "nodes": [12649847905, 12756811043, 11225846139, 11225846138, 12649847905], "tags": {"amenity": "restaurant", "building": "roof", "name": "Wow Snack&bar", "roof:colour": "#bbad8e", "roof:direction": "130"}}, {"type": "way", "id": 1211689045, "nodes": [11225846137, 11225846142, 11225846143, 11225846144, 11225846137], "tags": {"amenity": "restaurant", "building": "roof", "name": "Babaluu Bar & Ristorante", "roof:colour": "#bbad8e", "roof:direction": "130", "website": "https://www.babaluu.me"}}, {"type": "way", "id": 1237530440, "nodes": [11494469941, 11494469938, 11494469939, 11494469940, 11494469941], "tags": {"amenity": "cafe", "building": "yes", "name": "Haizea"}}, {"type": "way", "id": 1248872372, "nodes": [1851506937, 4001634396, 11608259117, 11608259118, 11608259120, 11608259119, 1851506937], "tags": {"air_conditioning": "yes", "amenity": "restaurant", "building": "retail", "indoor_seating": "yes", "name": "Gurman", "opening_hours": "Mo-Su 07:00-24:00", "outdoor_seating": "yes"}}, {"type": "way", "id": 1252053993, "nodes": [11638301715, 11638301716, 11638301717, 11638301718, 11638301719, 11638301720, 11638301721, 11638301715], "tags": {"amenity": "restaurant", "building": "yes", "name": "Ribnjak"}}, {"type": "way", "id": 1252592507, "nodes": [11642874048, 11642874049, 11642874050, 11642874051, 11642874054, 11642874048], "tags": {"amenity": "cafe", "building": "yes", "cuisine": "coffee_shop"}}, {"type": "way", "id": 1263757774, "nodes": [11741383315, 11741383314, 11741383313, 11741383312, 11741383311, 11741383310, 11741383309, 11741383308, 11741383315], "tags": {"amenity": "cafe", "building": "yes", "name": "Captain Morgan"}}, {"type": "way", "id": 1368743835, "nodes": [12676577562, 12676577564, 12676577554, 12676577553, 12676577567, 12676577573, 12676577546, 12676577566, 12676577543, 12676577547, 12676577568, 12676577550, 12676577572, 12676577570, 12676577555, 12676577558, 12676577559, 12676577571, 12676577561, 12676577562], "tags": {"amenity": "cafe", "building": "roof", "height": "3.50", "name": "Coco", "opening_hours": "Mo-Su 08:00-20:00", "roof:colour": "#bbad8e", "roof:shape": "flat"}}, {"type": "way", "id": 1372285247, "nodes": [2425580400, 12706768765, 12706768764, 12706768763, 2425580413, 2425580400], "tags": {"addr:street": "Slovenska Obala", "amenity": "cafe", "building:part": "yes", "height": "5.40", "location": "https://www.google.com/maps/place/Riva+Concept+Restaurant+%26+Bar/data=!4m2!3m1!1s0x0:0x3667df70d5327e8c?sa=X&ved=1t:2428&ictx=111", "name": "Riva Concept Restaurant & Bar", "phone": "068 - 222/224", "roof:colour": "lightgrey", "roof:material": "concrete", "roof:shape": "flat", "website": "https://www.riva-budva.me/"}}, {"type": "way", "id": 1372285248, "nodes": [12706768768, 12706768767, 12706768766, 10862548390, 12706768768], "tags": {"amenity": "restaurant", "building:part": "yes", "height": "3.40", "roof:colour": "lightgrey", "roof:material": "metal sheet", "roof:shape": "flat"}}, {"type": "relation", "id": 13143956, "members": [{"type": "way", "ref": 977594212, "role": "outer"}, {"type": "way", "ref": 977611658, "role": "outer"}, {"type": "way", "ref": 977611654, "role": "outer"}, {"type": "way", "ref": 977611659, "role": "outer"}, {"type": "way", "ref": 977611653, "role": "outer"}, {"type": "way", "ref": 977594211, "role": "outer"}], "tags": {"amenity": "cafe", "type": "multipolygon"}}, {"type": "relation", "id": 14092946, "members": [{"type": "way", "ref": 1056233608, "role": "outer"}, {"type": "way", "ref": 1056617016, "role": "outer"}, {"type": "way", "ref": 533411021, "role": "outer"}], "tags": {"amenity": "restaurant", "building": "retail", "check_date": "2024-12-26", "name": "Kraljevska Plaza", "name:sr": "\u041a\u0440\u0430\u0459\u0435\u0432\u0441\u043a\u0430 \u043f\u043b\u0430\u0436\u0430", "opening_hours": "07:00-01:00", "type": "multipolygon"}}, {"type": "relation", "id": 14098508, "members": [{"type": "way", "ref": 1056617021, "role": "outer"}, {"type": "way", "ref": 1056617024, "role": "outer"}, {"type": "way", "ref": 1056617026, "role": "outer"}, {"type": "way", "ref": 1056617018, "role": "outer"}, {"type": "way", "ref": 1056617022, "role": "outer"}, {"type": "way", "ref": 1056617019, "role": "outer"}], "tags": {"amenity": "cafe", "type": "multipolygon"}}, {"type": "relation", "id": 14634483, "members": [{"type": "way", "ref": 1098576091, "role": "outer"}, {"type": "way", "ref": 1056617013, "role": "outer"}], "tags": {"amenity": "cafe", "name": "Azzurro Caffe & Beach", "phone": "067117771", "type": "multipolygon"}}, {"type": "relation", "id": 14634485, "members": [{"type": "way", "ref": 1098576097, "role": "outer"}, {"type": "way", "ref": 1098576093, "role": "outer"}, {"type": "way", "ref": 1098576096, "role": "outer"}, {"type": "way", "ref": 1098576095, "role": "outer"}], "tags": {"amenity": "cafe", "building": "retail", "name": "Chico Rico", "phone": "067288780", "type": "multipolygon"}}]}