{"version": 0.6, "generator": "Overpass API 0.7.62.7 375dc00a", "osm3s": {"timestamp_osm_base": "2025-06-14T14:41:26Z", "copyright": "The data included in this document is from www.openstreetmap.org. The data is made available under ODbL."}, "elements": [{"type": "node", "id": 1728865602, "lat": 40.509057, "lon": 22.9246848, "tags": {"amenity": "cafe", "name": "Thermaikos Cafe"}}, {"type": "node", "id": 1728867031, "lat": 40.5089375, "lon": 22.9242198, "tags": {"amenity": "restaurant", "int_name": "Trata Tavern Tsipouradiko", "name": "\u03a4\u03c1\u03ac\u03c4\u03b1 \u03a4\u03c3\u03b9\u03c0\u03bf\u03c5\u03c1\u03ac\u03b4\u03b9\u03ba\u03bf"}}, {"type": "node", "id": 1728880934, "lat": 40.5014203, "lon": 22.9272011, "tags": {"amenity": "restaurant"}}, {"type": "node", "id": 1728884566, "lat": 40.5022571, "lon": 22.9254956, "tags": {"amenity": "cafe", "name": "\u039a.\u0391.\u03a0.\u0397"}}, {"type": "node", "id": 1728936601, "lat": 40.5009151, "lon": 22.9252384, "tags": {"amenity": "cafe"}}, {"type": "node", "id": 1728939845, "lat": 40.5013408, "lon": 22.925047, "tags": {"amenity": "cafe"}}, {"type": "node", "id": 1728948740, "lat": 40.5045794, "lon": 22.9270439, "tags": {"amenity": "cafe"}}, {"type": "node", "id": 2428571575, "lat": 40.4942512, "lon": 22.8191045, "tags": {"amenity": "restaurant", "check_date": "2024-09-21", "name": "\u039c\u03c0\u03b1\u03c1\u03bc\u03c0\u03b1\u03bd\u03c4\u03ce\u03bd\u03b7\u03c2", "name:el": "\u039c\u03c0\u03b1\u03c1\u03bc\u03c0\u03b1\u03bd\u03c4\u03ce\u03bd\u03b7\u03c2", "name:en": "Barbantonis", "phone": "+302392057757"}}, {"type": "node", "id": 2441321031, "lat": 40.2780769, "lon": 23.1472492, "tags": {"amenity": "restaurant", "cuisine": "sandwich;greek;pizza;sausage;mediterranean", "name": "Geuseis 1000+1"}}, {"type": "node", "id": 2441376326, "lat": 40.2744616, "lon": 23.1423845, "tags": {"amenity": "restaurant", "cuisine": "fish;greek;fish_and_chips;seafood;friture", "internet_access": "wlan", "name": "\u03a3\u03c4\u03bf\u03bd \u0392\u03c1\u03ac\u03c7\u03bf", "name:el": "\u03a3\u03c4\u03bf\u03bd \u0392\u03c1\u03ac\u03c7\u03bf", "name:en": "Ston Braho"}}, {"type": "node", "id": 2608451131, "lat": 40.5009193, "lon": 22.9087132, "tags": {"amenity": "restaurant"}}, {"type": "node", "id": 2686623485, "lat": 40.2582789, "lon": 23.2021795, "tags": {"amenity": "restaurant", "name": "\u0398\u03b1\u03bb\u03b1\u03c3\u03c3\u03b9\u03bd\u03cc\u03c2"}}, {"type": "node", "id": 2908211096, "lat": 40.4678687, "lon": 22.9695911, "tags": {"addr:city": "\u03a4\u03c1\u03af\u03bb\u03bf\u03c6\u03bf\u03c2", "addr:postcode": "57500", "amenity": "restaurant", "cuisine": "pizza", "name": "Roma Pizza", "website": "https://www.romapizza.gr/11-thess-google-maps/33-2015-02-05-15-35-05"}}, {"type": "node", "id": 3560320588, "lat": 40.3820354, "lon": 22.9272908, "tags": {"addr:city": "\u0395\u03c0\u03b1\u03bd\u03bf\u03bc\u03ae", "addr:postcode": "57500", "addr:street": "\u03a0\u03bf\u03c4\u03b1\u03bc\u03cc\u03c2", "amenity": "restaurant", "cuisine": "Seafood_Greek_Mediterranean", "name": "\u03a1\u03b5\u03c4\u03b6\u03af\u03ba\u03b1\u03c2", "name:el": "\u03a1\u03b5\u03c4\u03b6\u03af\u03ba\u03b1\u03c2", "name:en": "Retzikas", "opening_hours": "12:00-23:00,08:00-22:00", "takeaway": "yes"}}, {"type": "node", "id": 3704552807, "lat": 40.5116243, "lon": 23.0141906, "tags": {"amenity": "cafe"}}, {"type": "node", "id": 3704553033, "lat": 40.5106776, "lon": 23.0170639, "tags": {"amenity": "restaurant", "name": "Natura Shop"}}, {"type": "node", "id": 3758750077, "lat": 40.2497619, "lon": 23.2485159, "tags": {"amenity": "restaurant", "int_name": "Elias", "name": "\u0397\u03bb\u03b9\u03b1\u03c3"}}, {"type": "node", "id": 3762228267, "lat": 40.2490961, "lon": 23.2524522, "tags": {"amenity": "restaurant", "cuisine": "fish", "int_name": "Aggelos", "name": "\u0391\u03b3\u03b3\u03b5\u03bb\u03bf\u03c3", "phone": "+30 23730 21827"}}, {"type": "node", "id": 3770450152, "lat": 40.5116875, "lon": 23.0169651, "tags": {"amenity": "restaurant"}}, {"type": "node", "id": 4234008608, "lat": 40.2574211, "lon": 23.2154552, "tags": {"amenity": "restaurant", "name": "Razzmatazz Summer Beach Bar"}}, {"type": "node", "id": 4234013878, "lat": 40.258344, "lon": 23.2038173, "tags": {"amenity": "cafe"}}, {"type": "node", "id": 4234013879, "lat": 40.2580933, "lon": 23.2035887, "tags": {"amenity": "restaurant", "name": "O Giannis"}}, {"type": "node", "id": 4234035037, "lat": 40.2584367, "lon": 23.2011305, "tags": {"amenity": "restaurant", "name": "\u039a\u03bf\u03c7\u03cd\u03bb\u03b9"}}, {"type": "node", "id": 4234037997, "lat": 40.2586069, "lon": 23.2023538, "tags": {"amenity": "cafe"}}, {"type": "node", "id": 4252979167, "lat": 40.2573721, "lon": 23.2144723, "tags": {"amenity": "restaurant"}}, {"type": "node", "id": 4252979764, "lat": 40.2574455, "lon": 23.2139979, "tags": {"amenity": "cafe"}}, {"type": "node", "id": 4252979765, "lat": 40.2575507, "lon": 23.2131515, "tags": {"amenity": "restaurant"}}, {"type": "node", "id": 4252979766, "lat": 40.2577882, "lon": 23.2113787, "tags": {"amenity": "restaurant"}}, {"type": "node", "id": 4252979767, "lat": 40.2577116, "lon": 23.211362, "tags": {"amenity": "cafe"}}, {"type": "node", "id": 4252981746, "lat": 40.2574869, "lon": 23.2136853, "tags": {"amenity": "cafe"}}, {"type": "node", "id": 4252981775, "lat": 40.2576129, "lon": 23.2123854, "tags": {"amenity": "restaurant"}}, {"type": "node", "id": 4307025402, "lat": 40.2574607, "lon": 23.2134781, "tags": {"amenity": "cafe", "name": "\u03a7\u03b1\u03c4\u03b6\u03b7\u03b3\u03b9\u03ac\u03bd\u03bd\u03b7\u03c2"}}, {"type": "node", "id": 4321177196, "lat": 40.3103056, "lon": 23.0620534, "tags": {"addr:city": "\u039d\u03ad\u03b1 \u039a\u03b1\u03bb\u03bb\u03b9\u03ba\u03c1\u03ac\u03c4\u03b5\u03b9\u03b1", "addr:postcode": "63080", "amenity": "restaurant", "facebook": "https://www.facebook.com/tokoutoukitouantoni/", "name": "\u03a4\u03bf \u03ba\u03bf\u03c5\u03c4\u03bf\u03cd\u03ba\u03b9 \u03c4\u03bf\u03c5 \u0391\u03bd\u03c4\u03ce\u03bd\u03b7"}}, {"type": "node", "id": 4384476891, "lat": 40.3287797, "lon": 23.240558, "tags": {"amenity": "restaurant", "name": "\u0397 \u03a4\u03ad\u03bd\u03b5\u03b4\u03bf\u03c2", "name:el": "\u0397 \u03a4\u03ad\u03bd\u03b5\u03b4\u03bf\u03c2"}}, {"type": "node", "id": 4390664194, "lat": 40.2503617, "lon": 23.2488071, "tags": {"amenity": "restaurant", "name": "\u039b\u03b1\u03b4\u03bf\u03ba\u03bf\u03bb\u03bb\u03b1"}}, {"type": "node", "id": 4394191141, "lat": 40.2498271, "lon": 23.2481385, "tags": {"amenity": "cafe", "description": "\"beach bar\"", "name": "Fisheye"}}, {"type": "node", "id": 4394191145, "lat": 40.250252, "lon": 23.2487719, "tags": {"amenity": "cafe", "int_name": "Bougatsa", "name": "\u039c\u03c0\u03bf\u03c5\u03b3\u03b1\u03c4\u03c3\u03b1"}}, {"type": "node", "id": 4394191147, "lat": 40.2499663, "lon": 23.2472336, "tags": {"amenity": "cafe", "cuisine": "pizza", "name": "\u03a3\u03bc\u03b1\u03c1\u03ac\u03b3\u03b4\u03b9", "phone": "23730 25221"}}, {"type": "node", "id": 4394191148, "lat": 40.2500897, "lon": 23.2465713, "tags": {"amenity": "restaurant", "cuisine": "greek;coffee_shop", "name": "Koutourou on the beach", "phone": "+30 697 916 2719", "website": "https://www.facebook.com/koutourouonthebeach"}}, {"type": "node", "id": 4394697363, "lat": 40.2502545, "lon": 23.2490453, "tags": {"amenity": "cafe", "name": "\u039b\u03bf\u03c5\u03ba\u03bf\u03c5\u03bc\u03b1\u03b4\u03b5\u03c3"}}, {"type": "node", "id": 4394697369, "lat": 40.2494375, "lon": 23.2503304, "tags": {"amenity": "restaurant", "name": "Miramare"}}, {"type": "node", "id": 4394709089, "lat": 40.2496597, "lon": 23.2503738, "tags": {"amenity": "cafe", "name": "Relax Crepes"}}, {"type": "node", "id": 4394725712, "lat": 40.2489744, "lon": 23.2531741, "tags": {"amenity": "cafe", "name": "\u0396\u03bf\u03c1\u03bc\u03c0\u03b1\u03c3"}}, {"type": "node", "id": 4395148337, "lat": 40.2507103, "lon": 23.2363924, "tags": {"amenity": "restaurant", "int_name": "Kabos", "name": "\u039a\u03b1\u03b2\u03bf\u03c3", "phone": "+30 23730 24878"}}, {"type": "node", "id": 4395390463, "lat": 40.2503937, "lon": 23.2506253, "tags": {"amenity": "cafe", "phone": "+30 6944 377661"}}, {"type": "node", "id": 4406154389, "lat": 40.3100421, "lon": 23.0677785, "tags": {"amenity": "restaurant", "internet_access": "wlan", "name": "\u03a4\u03b1 \u0394\u03b5\u03bb\u03c6\u03af\u03bd\u03b9\u03b1", "name:el": "\u03a4\u03b1 \u0394\u03b5\u03bb\u03c6\u03af\u03bd\u03b9\u03b1", "opening_hours": "Mo-Su,PH 11:00-24:00"}}, {"type": "node", "id": 4656456287, "lat": 40.5106336, "lon": 22.930873, "tags": {"amenity": "cafe", "internet_access": "yes", "internet_access:fee": "no", "name": "Theros", "outdoor_seating": "yes"}}, {"type": "node", "id": 4656456304, "lat": 40.5090991, "lon": 22.9248568, "tags": {"amenity": "cafe", "name": "Paso"}}, {"type": "node", "id": 4656456305, "lat": 40.5091583, "lon": 22.9250196, "tags": {"amenity": "cafe", "name": "Medusa"}}, {"type": "node", "id": 4659495145, "lat": 40.3817373, "lon": 22.9306842}, {"type": "node", "id": 4659495146, "lat": 40.3815561, "lon": 22.9306823}, {"type": "node", "id": 4659495147, "lat": 40.3815434, "lon": 22.9310092}, {"type": "node", "id": 4659495148, "lat": 40.3817351, "lon": 22.9310017}, {"type": "node", "id": 4659495149, "lat": 40.381621, "lon": 22.929923}, {"type": "node", "id": 4659495150, "lat": 40.3816213, "lon": 22.9301213}, {"type": "node", "id": 4659495151, "lat": 40.3814466, "lon": 22.9301218}, {"type": "node", "id": 4659495152, "lat": 40.3814463, "lon": 22.9299235}, {"type": "node", "id": 4659640271, "lat": 40.5096328, "lon": 22.9267841, "tags": {"amenity": "cafe", "name": "51 Coast"}}, {"type": "node", "id": 4659640272, "lat": 40.5095881, "lon": 22.9266194, "tags": {"amenity": "cafe", "name": "Guest Cafe Bar"}}, {"type": "node", "id": 4659640274, "lat": 40.5097111, "lon": 22.9270548, "tags": {"amenity": "cafe", "name": "Dolphin"}}, {"type": "node", "id": 4659640276, "lat": 40.5098408, "lon": 22.9275108, "tags": {"amenity": "restaurant", "name": "\u0398\u03b1\u03bb\u03b1\u03c3\u03c3\u03bf\u03c0\u03bf\u03cd\u03bb\u03b9\u03b1", "name:el": "\u0398\u03b1\u03bb\u03b1\u03c3\u03c3\u03bf\u03c0\u03bf\u03cd\u03bb\u03b9\u03b1", "name:en": "Seabirds"}}, {"type": "node", "id": 4659640281, "lat": 40.5093677, "lon": 22.9258927, "tags": {"amenity": "cafe", "name": "Melrose"}}, {"type": "node", "id": 4659640284, "lat": 40.5025827, "lon": 22.926966, "tags": {"amenity": "cafe", "name": "Smiley"}}, {"type": "node", "id": 4674488572, "lat": 40.5100716, "lon": 22.9282119, "tags": {"amenity": "restaurant", "name": "\u03a0\u03b5\u03c4\u03b1\u03bb\u03af\u03b4\u03b5\u03c2"}}, {"type": "node", "id": 4674488573, "lat": 40.5101153, "lon": 22.9283737, "tags": {"amenity": "cafe", "name": "Sunrise"}}, {"type": "node", "id": 4674488574, "lat": 40.5101606, "lon": 22.9285099, "tags": {"amenity": "restaurant", "name": "\u03a4\u03bf \u03c3\u03c4\u03ad\u03ba\u03b9 \u03c4\u03bf\u03c5 \u0392\u03b1\u03c3\u03af\u03bb\u03b7"}}, {"type": "node", "id": 4674488575, "lat": 40.5104854, "lon": 22.9297098, "tags": {"amenity": "restaurant", "name": "\u039c\u03c5\u03b8\u03bf\u03bc\u03b1\u03b3\u03b5\u03b9\u03c1\u03ad\u03bc\u03b1\u03c4\u03b1"}}, {"type": "node", "id": 4674488576, "lat": 40.5105294, "lon": 22.9299038, "tags": {"amenity": "restaurant", "name": "Iolkos"}}, {"type": "node", "id": 4674488577, "lat": 40.5106023, "lon": 22.9304768, "tags": {"amenity": "restaurant", "name": "\u0393\u03b9\u03ac\u03bd\u03bd\u03b7\u03c2"}}, {"type": "node", "id": 4674489495, "lat": 40.5127575, "lon": 22.9356301}, {"type": "node", "id": 4674489496, "lat": 40.5125597, "lon": 22.9357602}, {"type": "node", "id": 4674489497, "lat": 40.5128162, "lon": 22.9364961}, {"type": "node", "id": 4674489498, "lat": 40.5130511, "lon": 22.9363294}, {"type": "node", "id": 4716578672, "lat": 40.5053844, "lon": 22.9110708, "tags": {"addr:city": "\u039d\u03ad\u03bf\u03b9 \u0395\u03c0\u03b9\u03b2\u03ac\u03c4\u03b5\u03c2", "addr:housenumber": "37", "addr:postcode": "57019", "addr:street": "\u039a\u03bf\u03c5\u03bd\u03c4\u03bf\u03c5\u03c1\u03b9\u03ce\u03c4\u03bf\u03c5", "amenity": "restaurant", "cuisine": "seafood", "name": "\u038c\u03c3\u03c4\u03c1\u03b1\u03ba\u03bf \u03a8\u03b1\u03c1\u03bf\u03c4\u03b1\u03b2\u03ad\u03c1\u03bd\u03b1", "phone": "+302392022245"}}, {"type": "node", "id": 4763916421, "lat": 40.4493779, "lon": 22.9247015, "tags": {"amenity": "cafe", "int_name": "Ktima Gerovasileiou", "name": "\u039a\u03c4\u03ae\u03bc\u03b1 \u0393\u03b5\u03c1\u03bf\u03b2\u03b1\u03c3\u03b9\u03bb\u03b5\u03af\u03bf\u03c5", "name:el": "\u039a\u03c4\u03ae\u03bc\u03b1 \u0393\u03b5\u03c1\u03bf\u03b2\u03b1\u03c3\u03b9\u03bb\u03b5\u03af\u03bf\u03c5"}}, {"type": "node", "id": 4808499674, "lat": 40.3062959, "lon": 23.207932, "tags": {"amenity": "restaurant", "cuisine": "greek", "name": "\u03a4\u03b1\u03b2\u03ad\u03c1\u03bd\u03b1 \"\u0398\u03b1\u03bd\u03ac\u03c3\u03b7\u03c2\""}}, {"type": "node", "id": 4808499675, "lat": 40.3064442, "lon": 23.2072818, "tags": {"amenity": "restaurant", "cuisine": "greek", "name": "\u03a4\u03b1\u03b2\u03ad\u03c1\u03bd\u03b1 \"\u0393\u03b9\u03ac\u03bd\u03bd\u03b7\u03c2\""}}, {"type": "node", "id": 4808499676, "lat": 40.306734, "lon": 23.205515, "tags": {"amenity": "restaurant", "cuisine": "seafood", "name": "\u03a8\u03b1\u03c1\u03bf\u03c4\u03b1\u03b2\u03ad\u03c1\u03bd\u03b1 \"\u0391\u03b3\u03ad\u03c1\u03b9\""}}, {"type": "node", "id": 4808499681, "lat": 40.3061089, "lon": 23.2092948, "tags": {"amenity": "cafe", "cuisine": "bistro", "name": "Classico"}}, {"type": "node", "id": 4911262124, "lat": 40.506963, "lon": 22.9301114, "tags": {"addr:housenumber": "17", "addr:street": "\u0391\u03bd\u03b8\u03ad\u03c9 \u03ba\u03b1\u03b9 \u03a1\u03ae\u03b3\u03b1 \u03a6\u03b5\u03c1\u03b1\u03af\u03bf\u03c5 17", "amenity": "cafe", "internet_access": "wlan", "name": "Plaisir", "name:cs": "Plaisir", "phone": "2392039390"}}, {"type": "node", "id": 4960562573, "lat": 40.5084123, "lon": 22.9251755}, {"type": "node", "id": 4960562574, "lat": 40.5083118, "lon": 22.9252185}, {"type": "node", "id": 4960562575, "lat": 40.5082716, "lon": 22.9250562}, {"type": "node", "id": 4960562576, "lat": 40.5083721, "lon": 22.9250132}, {"type": "node", "id": 5014957532, "lat": 40.2581302, "lon": 23.2031319, "tags": {"amenity": "restaurant", "cuisine": "greek_suvlaki;regional", "name": "\u03a4\u03b1 \u03b2\u03b1\u03c1\u03b5\u03bb\u03ac\u03ba\u03b9\u03b1", "outdoor_seating": "yes"}}, {"type": "node", "id": 5021973121, "lat": 40.2582993, "lon": 23.2061248, "tags": {"amenity": "restaurant", "name": "\u03a7\u03c1\u03c5\u03c3\u03cc \u03a0\u03b1\u03b3\u03ce\u03bd\u03b9"}}, {"type": "node", "id": 5021978809, "lat": 40.2584286, "lon": 23.2014113, "tags": {"amenity": "restaurant"}}, {"type": "node", "id": 5021978810, "lat": 40.2584342, "lon": 23.2015855, "tags": {"amenity": "cafe"}}, {"type": "node", "id": 5076125815, "lat": 40.5051185, "lon": 23.0054162, "tags": {"amenity": "restaurant", "name": "\u039a\u03c4\u03ae\u03bc\u03b1 \u039c\u03b5\u03ca\u03bc\u03b1\u03c1\u03af\u03b4\u03b7\u03c2"}}, {"type": "node", "id": 5101956721, "lat": 40.5031042, "lon": 22.911031, "tags": {"amenity": "restaurant", "name": "\u03a4\u03bf \u03a3\u03c4\u03ad\u03ba\u03b9"}}, {"type": "node", "id": 5113510575, "lat": 40.5023565, "lon": 22.9158964, "tags": {"amenity": "restaurant", "name": "\u0391\u03bd\u03ad\u03c3\u03c4\u03b7\u03c2", "name:el": "\u0391\u03bd\u03ad\u03c3\u03c4\u03b7\u03c2", "name:en": "Anestis Tavern - Barbecue House", "phone": "+302392020820", "website": "http://www.taverna-anestis.gr/"}}, {"type": "node", "id": 5218764315, "lat": 40.4865919, "lon": 23.1262526, "tags": {"amenity": "cafe", "name": "\u0393\u03b1\u03b2\u03b1\u03bd\u03ac\u03c2"}}, {"type": "node", "id": 5227562459, "lat": 40.3122553, "lon": 23.063306}, {"type": "node", "id": 5227562462, "lat": 40.3121935, "lon": 23.0633007}, {"type": "node", "id": 5227562463, "lat": 40.3121997, "lon": 23.0631668}, {"type": "node", "id": 5227562464, "lat": 40.3122618, "lon": 23.0631715}, {"type": "node", "id": 5227562465, "lat": 40.3121322, "lon": 23.0632923}, {"type": "node", "id": 5227562466, "lat": 40.3121379, "lon": 23.0631606}, {"type": "node", "id": 5227562467, "lat": 40.3120685, "lon": 23.0632875}, {"type": "node", "id": 5227562468, "lat": 40.3120742, "lon": 23.0631558}, {"type": "node", "id": 5585622032, "lat": 40.5297883, "lon": 22.6831812}, {"type": "node", "id": 5585622033, "lat": 40.5297325, "lon": 22.6831874}, {"type": "node", "id": 5585622034, "lat": 40.529726, "lon": 22.6830879}, {"type": "node", "id": 5585622035, "lat": 40.5297818, "lon": 22.6830816}, {"type": "node", "id": 5711952933, "lat": 40.3105821, "lon": 23.0615532, "tags": {"addr:city": "\u039d\u03ad\u03b1 \u039a\u03b1\u03bb\u03bb\u03b9\u03ba\u03c1\u03ac\u03c4\u03b5\u03b9\u03b1", "addr:housenumber": "3", "addr:postcode": "63080", "addr:street": "\u03a7\u03b1\u03c4\u03b6\u03b7\u03b1\u03c1\u03b3\u03cd\u03c1\u03bf\u03c5", "amenity": "restaurant", "cuisine": "buschenschank", "internet_access": "wlan", "name": "\u03a4\u03bf \u039a\u03b1\u03c1\u03b1\u03b2\u03ac\u03ba\u03b9", "name:el": "\u03a4\u03bf \u039a\u03b1\u03c1\u03b1\u03b2\u03ac\u03ba\u03b9", "name:en": "To Kapabaki", "phone": "2399021441"}}, {"type": "node", "id": 5779063591, "lat": 40.2581021, "lon": 23.2033688, "tags": {"amenity": "restaurant", "name": "Loukoumades Tis Giagias"}}, {"type": "node", "id": 5779063701, "lat": 40.2580477, "lon": 23.2037726, "tags": {"amenity": "cafe", "description": "Beach Bar", "name": "La Playa"}}, {"type": "node", "id": 5786478900, "lat": 40.2759882, "lon": 23.1475744, "tags": {"amenity": "restaurant", "name": "To Ksilino Bifteki"}}, {"type": "node", "id": 5802426876, "lat": 40.2581027, "lon": 23.2034743, "tags": {"addr:city": "Nea Plagia", "addr:postcode": "63200", "amenity": "restaurant", "cuisine": "pizza", "name": "The King Pizza", "phone": "+30 698 743 9754", "website": "https://www.facebook.com/The-KING-PIZZA-1887472854909127/"}}, {"type": "node", "id": 5844378485, "lat": 40.3000452, "lon": 23.1041584, "tags": {"amenity": "restaurant", "cuisine": "burger;regional;greek;breakfast;crepe;barbecue", "name": "\u0391\u03bb\u03bb\u03b1\u03be\u03b1\u03bd \u03c4\u03b1 \u03c0\u03bb\u03b1\u03bd\u03b1 \u03bc\u03bf\u03c5", "opening_hours": "Mo-Su 08:30-02:00"}}, {"type": "node", "id": 5894512183, "lat": 40.3129544, "lon": 23.0635855, "tags": {"amenity": "restaurant"}}, {"type": "node", "id": 5896362021, "lat": 40.3110578, "lon": 23.0635468, "tags": {"addr:city": "\u039d\u03ad\u03b1 \u039a\u03b1\u03bb\u03bb\u03b9\u03ba\u03c1\u03ac\u03c4\u03b5\u03b9\u03b1", "addr:housenumber": "27", "addr:postcode": "63080", "addr:street": "\u0399\u03c9\u03ac\u03bd\u03bd\u03bf\u03c5 \u0391\u03c5\u03b3\u03b5\u03c1\u03af\u03b4\u03b7", "amenity": "restaurant", "facebook": "https://www.facebook.com/pages/Cafe-Le-Monde-Kallikratia/173440489392921", "name": "Cafe le Monde"}}, {"type": "node", "id": 5902430068, "lat": 40.3105518, "lon": 23.0635191}, {"type": "node", "id": 5902430069, "lat": 40.3105451, "lon": 23.0636275}, {"type": "node", "id": 5902430070, "lat": 40.3105254, "lon": 23.0636254}, {"type": "node", "id": 5902430071, "lat": 40.3105193, "lon": 23.0637231}, {"type": "node", "id": 5902430072, "lat": 40.3104535, "lon": 23.063716}, {"type": "node", "id": 5902430073, "lat": 40.3104664, "lon": 23.0635099}, {"type": "node", "id": 5907132772, "lat": 40.3142656, "lon": 23.0634989, "tags": {"amenity": "cafe", "brand": "Coffee Island", "brand:wikidata": "Q60867333", "cuisine": "coffee_shop", "name": "Coffee Island", "takeaway": "yes"}}, {"type": "node", "id": 6070911318, "lat": 40.468587, "lon": 22.9936254}, {"type": "node", "id": 6137407968, "lat": 40.4343612, "lon": 23.1258925}, {"type": "node", "id": 6137407969, "lat": 40.4351159, "lon": 23.1263151}, {"type": "node", "id": 6137407970, "lat": 40.4350475, "lon": 23.1269505}, {"type": "node", "id": 6137407971, "lat": 40.434931, "lon": 23.1274596}, {"type": "node", "id": 6137407972, "lat": 40.4342093, "lon": 23.127037}, {"type": "node", "id": 6137407976, "lat": 40.4347937, "lon": 23.1265937}, {"type": "node", "id": 6137407977, "lat": 40.4345584, "lon": 23.1270125}, {"type": "node", "id": 6137407978, "lat": 40.4347073, "lon": 23.1270962}, {"type": "node", "id": 6137407979, "lat": 40.4346833, "lon": 23.1271698}, {"type": "node", "id": 6137407980, "lat": 40.43478, "lon": 23.1272241}, {"type": "node", "id": 6137407981, "lat": 40.4348758, "lon": 23.1269299}, {"type": "node", "id": 6137407982, "lat": 40.4348507, "lon": 23.1269158}, {"type": "node", "id": 6137407983, "lat": 40.4348811, "lon": 23.1268224}, {"type": "node", "id": 6137407984, "lat": 40.4348443, "lon": 23.1268017}, {"type": "node", "id": 6137409885, "lat": 40.4348832, "lon": 23.1266823}, {"type": "node", "id": 6137409886, "lat": 40.4348599, "lon": 23.1266692}, {"type": "node", "id": 6137409887, "lat": 40.4348702, "lon": 23.1266375}, {"type": "node", "id": 6137409888, "lat": 40.434716, "lon": 23.1265508}, {"type": "node", "id": 6137409889, "lat": 40.4346563, "lon": 23.126734}, {"type": "node", "id": 6137409890, "lat": 40.4346829, "lon": 23.1267489}, {"type": "node", "id": 6137409891, "lat": 40.4346302, "lon": 23.1269106}, {"type": "node", "id": 6137409892, "lat": 40.4345975, "lon": 23.1268922}, {"type": "node", "id": 6137409905, "lat": 40.4343944, "lon": 23.1271454, "tags": {"entrance": "yes"}}, {"type": "node", "id": 6137409924, "lat": 40.4343046, "lon": 23.1263192}, {"type": "node", "id": 6137409936, "lat": 40.4343101, "lon": 23.127096}, {"type": "node", "id": 6137409945, "lat": 40.4343104, "lon": 23.1262756}, {"type": "node", "id": 6137409948, "lat": 40.4347402, "lon": 23.1273479}, {"type": "node", "id": 6284458888, "lat": 40.472133, "lon": 22.9722044, "tags": {"amenity": "cafe", "name": "\u039d\u03c4\u03cc\u03c1\u03b1"}}, {"type": "node", "id": 6440735585, "lat": 40.4070269, "lon": 22.8964477, "tags": {"addr:street": "\u0391\u03b3\u03af\u03bf\u03c5 \u03a3\u03c0\u03c5\u03c1\u03af\u03b4\u03c9\u03bd\u03bf\u03c2", "amenity": "restaurant", "internet_access": "wlan", "name": "\u03a4\u03bf \u03b4\u03af\u03c7\u03c4\u03c5"}}, {"type": "node", "id": 6468345042, "lat": 40.4891302, "lon": 23.1207969, "tags": {"amenity": "restaurant", "name": "\u03a4\u03bf \u0391\u03c1\u03c7\u03bf\u03bd\u03c4\u03b9\u03ba\u03cc"}}, {"type": "node", "id": 6503317329, "lat": 40.5042099, "lon": 22.9055523, "tags": {"amenity": "restaurant", "check_date": "2025-06-11", "name": "\u0397\u03c1\u03b1\u03af\u03bf\u03bd"}}, {"type": "node", "id": 6503317331, "lat": 40.5043057, "lon": 22.9062369, "tags": {"amenity": "restaurant", "check_date": "2025-06-11", "name": "\u0391\u03c7, \u039d\u03af\u03ba\u03bf, \u0391\u03c7!"}}, {"type": "node", "id": 6503317334, "lat": 40.5040968, "lon": 22.9053285, "tags": {"amenity": "restaurant", "check_date": "2025-06-11", "name": "Thea"}}, {"type": "node", "id": 6549014787, "lat": 40.5002945, "lon": 22.8764391, "tags": {"amenity": "restaurant", "cuisine": "greek", "internet_access": "wlan", "name:en": "Maya", "name:ru": "\u041c\u0430\u0439\u044f"}}, {"type": "node", "id": 6612655195, "lat": 40.5043949, "lon": 22.9075434, "tags": {"amenity": "restaurant", "cuisine": "pizza", "name": "Mama Mia"}}, {"type": "node", "id": 6658706011, "lat": 40.4688036, "lon": 22.9937574}, {"type": "node", "id": 6658706016, "lat": 40.4687221, "lon": 22.993529}, {"type": "node", "id": 6658706018, "lat": 40.4686443, "lon": 22.9938092}, {"type": "node", "id": 6796307820, "lat": 40.4656195, "lon": 22.8572461, "tags": {"addr:city": "\u039d\u03ad\u03b1 \u039c\u03b7\u03c7\u03b1\u03bd\u03b9\u03ce\u03bd\u03b1", "addr:housenumber": "1", "addr:postcode": "57004", "addr:street": "\u03a0\u03bf\u03bb\u03c5\u03c4\u03b5\u03c7\u03bd\u03b5\u03af\u03bf\u03c5", "amenity": "cafe", "check_date": "2024-09-21", "name": "\u039c\u03c0\u03bf\u03c5\u03b3\u03ac\u03c4\u03c3\u03b1 \"\u0393\u03b9\u03ac\u03bd\u03bd\u03b7\u03c2\"", "name:el": "\u039c\u03c0\u03bf\u03c5\u03b3\u03ac\u03c4\u03c3\u03b1 \"\u0393\u03b9\u03ac\u03bd\u03bd\u03b7\u03c2\"", "name:en": "Bougatsa \"Giannis\"", "opening_hours": "Mo-Su 06:00-19:00", "phone": "+30 2392031597", "product": "bakery", "website": "www.mpougatsa.gr/"}}, {"type": "node", "id": 6880541804, "lat": 40.3103021, "lon": 23.0618547}, {"type": "node", "id": 6880578098, "lat": 40.3111063, "lon": 23.0627857, "tags": {"addr:city": "\u039d\u03ad\u03b1 \u039a\u03b1\u03bb\u03bb\u03b9\u03ba\u03c1\u03ac\u03c4\u03b5\u03b9\u03b1", "addr:housenumber": "23", "addr:postcode": "63080", "addr:street": "\u0399\u03c9\u03ac\u03bd\u03bd\u03bf\u03c5 \u0391\u03c5\u03b3\u03b5\u03c1\u03af\u03b4\u03b7", "amenity": "cafe", "name": "Today's"}}, {"type": "node", "id": 6926797398, "lat": 40.5046792, "lon": 22.9080009, "tags": {"amenity": "cafe", "cuisine": "coffee_shop", "internet_access": "wlan", "internet_access:fee": "no", "name": "Tramonto", "outdoor_seating": "no"}}, {"type": "node", "id": 7141181589, "lat": 40.5089222, "lon": 22.92554, "tags": {"amenity": "restaurant", "name": "En Texnqn"}}, {"type": "node", "id": 7168765431, "lat": 40.3495204, "lon": 23.007131}, {"type": "node", "id": 7168765432, "lat": 40.3494976, "lon": 23.0072818}, {"type": "node", "id": 7168765433, "lat": 40.3495771, "lon": 23.0073025}, {"type": "node", "id": 7168765434, "lat": 40.3495892, "lon": 23.007223}, {"type": "node", "id": 7168765435, "lat": 40.3496247, "lon": 23.0072322}, {"type": "node", "id": 7168765436, "lat": 40.3496354, "lon": 23.007161}, {"type": "node", "id": 7168765437, "lat": 40.3495892, "lon": 23.007149}, {"type": "node", "id": 7168765440, "lat": 40.3494997, "lon": 23.0072677}, {"type": "node", "id": 7184620085, "lat": 40.346129, "lon": 23.0144755}, {"type": "node", "id": 7184620086, "lat": 40.3462476, "lon": 23.0145928}, {"type": "node", "id": 7184620087, "lat": 40.3463267, "lon": 23.0144529}, {"type": "node", "id": 7184620088, "lat": 40.3462098, "lon": 23.0143334}, {"type": "node", "id": 8692870202, "lat": 40.531144, "lon": 22.9953105, "tags": {"amenity": "cafe", "brand": "Mikel", "brand:wikidata": "Q16952021", "brand:wikipedia": "el:Mikel Coffee Company", "cuisine": "coffee_shop", "name": "Mikel", "takeaway": "yes"}}, {"type": "node", "id": 8736911195, "lat": 40.5051218, "lon": 22.9101043, "tags": {"amenity": "restaurant", "cuisine": "seafood", "name": "\u0393\u03b9\u03b1\u03bb\u03b5\u03bc\u03b1 \u03c4\u03b1\u03b2\u03b5\u03c1\u03bd\u03b1", "name:el": "\u0393\u03b9\u03b1\u03bb\u03b5\u03bc\u03b1 \u03c4\u03b1\u03b2\u03b5\u03c1\u03bd\u03b1", "name:en": "Gialema Tavern", "phone": "+302392306746"}}, {"type": "node", "id": 8736911197, "lat": 40.5049591, "lon": 22.909338, "tags": {"amenity": "restaurant", "name": "\u039a\u03b1\u03c0\u03b5\u03c4\u03ac\u03bd \u03a6\u03bf\u03c5\u03c1\u03c4\u03bf\u03cd\u03bd\u03b1\u03c2", "name:el": "\u039a\u03b1\u03c0\u03b5\u03c4\u03ac\u03bd \u03a6\u03bf\u03c5\u03c1\u03c4\u03bf\u03cd\u03bd\u03b1\u03c2", "name:en": "Kapetan Fourtounas", "phone": "+302392020708"}}, {"type": "node", "id": 8736911198, "lat": 40.5048916, "lon": 22.9091068, "tags": {"amenity": "restaurant", "name": "\u0391\u03af\u03b3\u03bb\u03b7", "phone": "+302392022344"}}, {"type": "node", "id": 8736911199, "lat": 40.5048724, "lon": 22.9089949, "tags": {"amenity": "restaurant", "name": "\u03a4\u03b1\u03b2\u03ad\u03c1\u03bd\u03b1 - \u0397 \u03c3\u03b5\u03c1\u03b2\u03b9\u03c4\u03cc\u03c1\u03b1 \u03b5\u03be\u03b1\u03c6\u03b1\u03bd\u03af\u03b6\u03b5\u03c4\u03b1\u03b9 \u03c0\u03af\u03c3\u03c9 \u03b1\u03c0\u03cc \u03c4\u03b7\u03bd \u03ba\u03bf\u03c5\u03c1\u03c4\u03af\u03bd\u03b1", "name:el": "\u03a4\u03b1\u03b2\u03ad\u03c1\u03bd\u03b1 - \u0397 \u03c3\u03b5\u03c1\u03b2\u03b9\u03c4\u03cc\u03c1\u03b1 \u03b5\u03be\u03b1\u03c6\u03b1\u03bd\u03af\u03b6\u03b5\u03c4\u03b1\u03b9 \u03c0\u03af\u03c3\u03c9 \u03b1\u03c0\u03cc \u03c4\u03b7\u03bd \u03ba\u03bf\u03c5\u03c1\u03c4\u03af\u03bd\u03b1", "name:en": "Tavern - The waitress behind the curtain", "phone": "+302392076174"}}, {"type": "node", "id": 8737340350, "lat": 40.5047173, "lon": 22.9083448, "tags": {"amenity": "restaurant", "name": "\u03a4\u03bf \u039c\u03c0\u03b1\u03bb\u03ba\u03cc\u03bd\u03b9 \u03c4\u03bf\u03c5 \u039c\u03c0\u03b1\u03be\u03ad", "name:el": "\u03a4\u03bf \u039c\u03c0\u03b1\u03bb\u03ba\u03cc\u03bd\u03b9 \u03c4\u03bf\u03c5 \u039c\u03c0\u03b1\u03be\u03ad", "name:en": "The Balcony of Baxe", "phone": "+302392021888"}}, {"type": "node", "id": 8737340351, "lat": 40.5052253, "lon": 22.9105711, "tags": {"addr:city": "\u039d\u03ad\u03bf\u03b9 \u0395\u03c0\u03b9\u03b2\u03ac\u03c4\u03b5\u03c2", "addr:housenumber": "43", "addr:postcode": "57019", "addr:street": "\u03a0\u03b1\u03cd\u03bb\u03bf\u03c5 \u039a\u03bf\u03c5\u03bd\u03c4\u03bf\u03c5\u03c1\u03b9\u03ce\u03c4\u03b7", "amenity": "restaurant", "cuisine": "seafood", "name": "\u03a3\u03a4\u0395\u03a6\u0391\u039d\u039f\u03a3 \u03a8\u03b1\u03c1\u03bf\u03c4\u03b1\u03b2\u03ad\u03c1\u03bd\u03b1-\u039f\u03c5\u03b6\u03b5\u03c1\u03af", "phone": "+302392026830"}}, {"type": "node", "id": 8737340352, "lat": 40.5058703, "lon": 22.9134255, "tags": {"addr:city": "\u039d\u03ad\u03bf\u03b9 \u0395\u03c0\u03b9\u03b2\u03ac\u03c4\u03b5\u03c2", "addr:housenumber": "119", "addr:postcode": "57019", "addr:street": "\u03a0\u03b1\u03cd\u03bb\u03bf\u03c5 \u039a\u03bf\u03c5\u03bd\u03c4\u03bf\u03c5\u03c1\u03b9\u03ce\u03c4\u03b7", "amenity": "restaurant", "cuisine": "seafood", "name": "Sakis Seafood Taverna", "phone": "+302392025757"}}, {"type": "node", "id": 8737340353, "lat": 40.5067577, "lon": 22.9167149, "tags": {"addr:city": "Peraia", "addr:housenumber": "2", "addr:postcode": "57019", "addr:street": "\u0397\u03c0\u03b5\u03af\u03c1\u03bf\u03c5", "amenity": "restaurant", "name": "\u03a0\u03b1\u03c1\u03ac\u03bb\u03bb\u03b7\u03bb\u03b5\u03c2 \u0393\u03b5\u03cd\u03c3\u03b5\u03b9\u03c2", "name:el": "\u03a0\u03b1\u03c1\u03ac\u03bb\u03bb\u03b7\u03bb\u03b5\u03c2 \u0393\u03b5\u03cd\u03c3\u03b5\u03b9\u03c2", "name:en": "Parallel Flavors", "phone": "+302392028000"}}, {"type": "node", "id": 8737340354, "lat": 40.5071162, "lon": 22.917978, "tags": {"addr:city": "Peraia", "addr:housenumber": "1", "addr:postcode": "57019", "addr:street": "\u03a3\u03c9\u03ba\u03c1\u03ac\u03c4\u03bf\u03c5\u03c2", "amenity": "restaurant", "name": "\u03a4\u03bf \u03a1\u03b1\u03b2\u03b1\u0390\u03c3\u03b9", "name:el": "\u03a4\u03bf \u03a1\u03b1\u03b2\u03b1\u0390\u03c3\u03b9", "name:en": "Ravaisi", "phone": "+302392075099"}}, {"type": "node", "id": 8737340355, "lat": 40.5078073, "lon": 22.9202289, "tags": {"addr:street": "\u0391\u03ba\u03c4\u03ae\u03c2", "amenity": "cafe", "name": "MIKE'S PLACE", "phone": "+302392028066"}}, {"type": "node", "id": 8754133221, "lat": 40.5052463, "lon": 22.9193044, "tags": {"addr:city": "\u03a0\u03b5\u03c1\u03b1\u03af\u03b1", "addr:housenumber": "5", "addr:postcode": "57019", "addr:street": "\u03a3\u03cc\u03bb\u03c9\u03bd\u03bf\u03c2", "amenity": "restaurant", "cuisine": "pizza", "name": "Pizza Siesta", "phone": "+302392022224"}}, {"type": "node", "id": 8754133232, "lat": 40.5020133, "lon": 22.9184016, "tags": {"addr:city": "\u03a0\u03b5\u03c1\u03b1\u03af\u03b1", "addr:housenumber": "66", "addr:postcode": "57019", "addr:street": "\u0398\u03b5\u03c3\u03c3\u03b1\u03bb\u03bf\u03bd\u03af\u03ba\u03b7\u03c2", "amenity": "restaurant", "name": "Manolis Tavern - Barbecue House", "phone": "+302392022246"}}, {"type": "node", "id": 8773883910, "lat": 40.5088449, "lon": 22.9239053, "tags": {"addr:city": "Pereia", "addr:housenumber": "67", "addr:postcode": "57019", "addr:street": "\u0391\u03ba\u03c4\u03ae\u03c2", "amenity": "restaurant", "name": "\u039f \u039b\u03ac\u03ba\u03b7\u03c2"}}, {"type": "node", "id": 8777392341, "lat": 40.5103018, "lon": 22.9290032, "tags": {"addr:city": "\u03a0\u03b5\u03c1\u03b1\u03af\u03b1", "addr:housenumber": "37", "addr:postcode": "57019", "addr:street": "\u0391\u03ba\u03c4\u03ae\u03c2", "amenity": "restaurant", "cuisine": "greek", "name": "\u03a4\u03b1\u03b2\u03ad\u03c1\u03bd\u03b1 \"\u0398\u03c9\u03bc\u03ac\u03c2\"", "name:el": "\u03a4\u03b1\u03b2\u03ad\u03c1\u03bd\u03b1 \"\u0398\u03c9\u03bc\u03ac\u03c2\"", "name:en": "Tavern \"Thomas\"", "phone": "+302392026000"}}, {"type": "node", "id": 8777392342, "lat": 40.5104316, "lon": 22.9293955, "tags": {"amenity": "restaurant", "name": "\u0391\u03bb\u03ac\u03c4\u03b9 \u03ba\u03b1\u03b9 \u03a0\u03b9\u03c0\u03ad\u03c1\u03b9", "name:el": "\u0391\u03bb\u03ac\u03c4\u03b9 \u03ba\u03b1\u03b9 \u03a0\u03b9\u03c0\u03ad\u03c1\u03b9", "name:en": "Alati kai Piperi", "phone": "+302392305563"}}, {"type": "node", "id": 9035427907, "lat": 40.4656497, "lon": 22.8565575, "tags": {"addr:postcode": "57004", "addr:street": "\u03a0\u03bf\u03bb\u03c5\u03c4\u03b5\u03c7\u03bd\u03b5\u03af\u03bf\u03c5", "amenity": "restaurant", "cuisine": "seafood", "name": "\u03a1\u03b5\u03c4\u03c3\u03ad\u03bb\u03b7\u03c2", "name:el": "\u03a1\u03b5\u03c4\u03c3\u03ad\u03bb\u03b7\u03c2", "name:en": "Retselis", "website": "https://retselis.gr/"}}, {"type": "node", "id": 9035714199, "lat": 40.4723779, "lon": 22.9567958, "tags": {"addr:housenumber": "42", "addr:postcode": "57500", "addr:street": "\u039c\u03b9\u03b1\u03bf\u03cd\u03bb\u03b7", "amenity": "cafe", "brand": "4all", "brand:website": "https://4allstores.gr/", "brand:wikidata": "Q130279387", "cuisine": "coffee_shop", "level": "0", "name": "4all", "name:el": "4all", "name:en": "4all", "payment:cash": "yes", "payment:contactless": "yes", "payment:credit_cards": "yes", "payment:debit_cards": "yes", "shop": "convenience"}}, {"type": "node", "id": 9035714200, "lat": 40.4724419, "lon": 22.9570311, "tags": {"addr:housenumber": "37", "addr:postcode": "57500", "addr:street": "\u039c\u03b9\u03b1\u03bf\u03cd\u03bb\u03b7", "amenity": "cafe", "brand": "Mikel", "brand:wikidata": "Q16952021", "brand:wikipedia": "el:Mikel Coffee Company", "cuisine": "coffee_shop", "name": "Mikel", "takeaway": "yes", "website": "https://www.mikelcoffee.com/el/home"}}, {"type": "node", "id": 9035714206, "lat": 40.4710257, "lon": 22.9573479, "tags": {"addr:housenumber": "55", "addr:postcode": "57500", "addr:street": "\u039c\u03b9\u03b1\u03bf\u03cd\u03bb\u03b7", "amenity": "cafe", "brand": "Coffee Island", "brand:wikidata": "Q60867333", "brand:wikipedia": "en:Coffee Island", "cuisine": "coffee_shop", "name": "Coffee Island", "takeaway": "yes", "website": "https://www.coffeeisland.gr/"}}, {"type": "node", "id": 9075225026, "lat": 40.5260509, "lon": 23.0473713}, {"type": "node", "id": 9075225027, "lat": 40.5260597, "lon": 23.047384}, {"type": "node", "id": 9075225028, "lat": 40.5260696, "lon": 23.047372}, {"type": "node", "id": 9075225029, "lat": 40.5261033, "lon": 23.0474199}, {"type": "node", "id": 9075225030, "lat": 40.5260946, "lon": 23.0474304}, {"type": "node", "id": 9075225031, "lat": 40.5261386, "lon": 23.047493}, {"type": "node", "id": 9075225032, "lat": 40.5260298, "lon": 23.0476253}, {"type": "node", "id": 9075225033, "lat": 40.5259883, "lon": 23.0475661}, {"type": "node", "id": 9075225034, "lat": 40.5259595, "lon": 23.0476011}, {"type": "node", "id": 9075225035, "lat": 40.5259145, "lon": 23.0475372}, {"type": "node", "id": 9172134463, "lat": 40.4727586, "lon": 23.0920865}, {"type": "node", "id": 9172134464, "lat": 40.4727551, "lon": 23.0921833}, {"type": "node", "id": 9172134466, "lat": 40.4726537, "lon": 23.0920812}, {"type": "node", "id": 9172134467, "lat": 40.4726491, "lon": 23.0922244}, {"type": "node", "id": 9172134468, "lat": 40.4726885, "lon": 23.0922221}, {"type": "node", "id": 9172134469, "lat": 40.4726908, "lon": 23.0921917}, {"type": "node", "id": 9172134472, "lat": 40.4730968, "lon": 23.0921774, "tags": {"amenity": "cafe", "name": "See You Coffee and More", "opening_hours": "Mo-Su 09:00-01:00"}}, {"type": "node", "id": 9172134473, "lat": 40.4733217, "lon": 23.0918617}, {"type": "node", "id": 9172134474, "lat": 40.4733065, "lon": 23.0919981}, {"type": "node", "id": 9172134475, "lat": 40.473205, "lon": 23.0919786}, {"type": "node", "id": 9172134476, "lat": 40.4732202, "lon": 23.0918422}, {"type": "node", "id": 9172184247, "lat": 40.4886813, "lon": 23.1333237}, {"type": "node", "id": 9172184248, "lat": 40.4886498, "lon": 23.1334258}, {"type": "node", "id": 9172184249, "lat": 40.4885553, "lon": 23.1334046}, {"type": "node", "id": 9172184250, "lat": 40.4884984, "lon": 23.13354}, {"type": "node", "id": 9172184251, "lat": 40.4884515, "lon": 23.1335057}, {"type": "node", "id": 9172184252, "lat": 40.4884515, "lon": 23.1334875}, {"type": "node", "id": 9172184253, "lat": 40.4883823, "lon": 23.133444}, {"type": "node", "id": 9172184254, "lat": 40.4884007, "lon": 23.1333925}, {"type": "node", "id": 9172184255, "lat": 40.4883915, "lon": 23.1333884}, {"type": "node", "id": 9172184256, "lat": 40.4884061, "lon": 23.133344}, {"type": "node", "id": 9172184257, "lat": 40.4883992, "lon": 23.1333379}, {"type": "node", "id": 9172184258, "lat": 40.48842, "lon": 23.1332712}, {"type": "node", "id": 9172184259, "lat": 40.4884323, "lon": 23.1332783}, {"type": "node", "id": 9172184260, "lat": 40.4884453, "lon": 23.1332348}, {"type": "node", "id": 9172184261, "lat": 40.4884584, "lon": 23.1332358}, {"type": "node", "id": 9172184262, "lat": 40.4884661, "lon": 23.1332237}, {"type": "node", "id": 9172184263, "lat": 40.4885253, "lon": 23.1332682}, {"type": "node", "id": 9172184264, "lat": 40.4885399, "lon": 23.1332409}, {"type": "node", "id": 9172204450, "lat": 40.4434053, "lon": 23.0870252}, {"type": "node", "id": 9172204451, "lat": 40.4434441, "lon": 23.0871212}, {"type": "node", "id": 9172204452, "lat": 40.4433313, "lon": 23.0871999}, {"type": "node", "id": 9172204453, "lat": 40.443351, "lon": 23.0872443}, {"type": "node", "id": 9172204454, "lat": 40.4432343, "lon": 23.0873279}, {"type": "node", "id": 9172204455, "lat": 40.4431765, "lon": 23.0871849}, {"type": "node", "id": 9172204462, "lat": 40.4433846, "lon": 23.0871628}, {"type": "node", "id": 9172204465, "lat": 40.4432711, "lon": 23.0872979}, {"type": "node", "id": 9187642258, "lat": 40.4968344, "lon": 22.9895065, "tags": {"amenity": "cafe", "brand": "Coffee Island", "brand:wikidata": "Q60867333", "brand:wikipedia": "en:Coffee Island", "cuisine": "coffee_shop", "name": "Coffee Island", "takeaway": "yes"}}, {"type": "node", "id": 9187642259, "lat": 40.496817, "lon": 22.9893924, "tags": {"amenity": "cafe", "brand": "Mikel", "brand:wikidata": "Q16952021", "brand:wikipedia": "el:Mikel Coffee Company", "cuisine": "coffee_shop", "name": "Mikel", "takeaway": "yes"}}, {"type": "node", "id": 9203000433, "lat": 40.4732248, "lon": 23.0915535, "tags": {"amenity": "restaurant", "name": "\u039a\u0391\u03a0\u0397"}}, {"type": "node", "id": 9436517430, "lat": 40.4748207, "lon": 22.8683925, "tags": {"air_conditioning": "yes", "amenity": "restaurant", "cuisine": "greek", "delivery": "yes", "name": "\u03a4\u03b1\u03b2\u03ad\u03c1\u03bd\u03b1 \u039b\u03b5\u03c5\u03c4\u03ad\u03c1\u03b7\u03c2", "name:el": "\u03a4\u03b1\u03b2\u03ad\u03c1\u03bd\u03b1 \u039b\u03b5\u03c5\u03c4\u03ad\u03c1\u03b7\u03c2", "name:en": "Lefteri's Tavern", "phone": "+30 2392031500", "takeaway": "yes"}}, {"type": "node", "id": 9452683262, "lat": 40.2585798, "lon": 23.2025984, "tags": {"amenity": "restaurant", "cuisine": "greek_souvlaki"}}, {"type": "node", "id": 9502636233, "lat": 40.427138, "lon": 22.9272199, "tags": {"addr:postcode": "57500", "amenity": "restaurant", "cuisine": "pizza", "name": "Pizza De Marcos", "phone": "+30 23924 00678"}}, {"type": "node", "id": 9592606710, "lat": 40.4760573, "lon": 22.8700352, "tags": {"addr:city": "\u039d\u03ad\u03b1 \u039a\u03b5\u03c1\u03b1\u03c3\u03b9\u03ac", "addr:housenumber": "11", "addr:postcode": "57004", "addr:street": "\u03a0\u03b5\u03c1\u03b1\u03af\u03b1\u03c2 - \u039d\u03ad\u03b1\u03c2 \u039c\u03b7\u03c7\u03b1\u03bd\u03b9\u03ce\u03bd\u03b1\u03c2", "amenity": "cafe", "cuisine": "coffee_shop", "name": "Goofino", "outdoor_seating": "yes"}}, {"type": "node", "id": 10136481502, "lat": 40.3102996, "lon": 23.0619672}, {"type": "node", "id": 10136481503, "lat": 40.3104549, "lon": 23.0619732}, {"type": "node", "id": 10136481504, "lat": 40.3104574, "lon": 23.0618606}, {"type": "node", "id": 10136487516, "lat": 40.3121799, "lon": 23.0631648}, {"type": "node", "id": 10834149585, "lat": 40.5032482, "lon": 22.9114788, "tags": {"amenity": "cafe"}}, {"type": "node", "id": 11191414229, "lat": 40.5089173, "lon": 22.9263445, "tags": {"amenity": "restaurant", "description": "\u0391\u03c3\u03b9\u03b1\u03c4\u03b9\u03ba\u03cc", "name": "Sama"}}, {"type": "node", "id": 11191433471, "lat": 40.5093658, "lon": 22.9263176, "tags": {"amenity": "cafe", "name": "Opera"}}, {"type": "node", "id": 11208478335, "lat": 40.4598259, "lon": 22.8613496, "tags": {"addr:city": "\u039d\u03ad\u03b1 \u039c\u03b7\u03c7\u03b1\u03bd\u03b9\u03ce\u03bd\u03b1", "addr:housenumber": "151", "addr:postcode": "57004", "addr:street": "\u03a0\u03bf\u03bb\u03c5\u03c4\u03b5\u03c7\u03bd\u03b5\u03af\u03bf\u03c5", "amenity": "restaurant", "name": "\u039d\u03cc\u03c4\u03bf\u03c2", "name:el": "\u039d\u03cc\u03c4\u03bf\u03c2", "name:en": "Notos", "opening_hours": "Mo-Su 17:00-01:00", "phone": "+30 2392 036 740"}}, {"type": "node", "id": 11208538137, "lat": 40.4614091, "lon": 22.8601629, "tags": {"addr:city": "\u039d\u03ad\u03b1 \u039c\u03b7\u03c7\u03b1\u03bd\u03b9\u03ce\u03bd\u03b1", "addr:housenumber": "117", "addr:postcode": "57004", "addr:street": "\u03a0\u03bf\u03bb\u03c5\u03c4\u03b5\u03c7\u03bd\u03b5\u03af\u03bf\u03c5", "amenity": "restaurant", "delivery": "yes", "name": "Nove A Quattro", "opening_hours": "Mo-Su 10:00-24:00", "phone": "+30 2392 301 306", "takeaway": "yes"}}, {"type": "node", "id": 11290521435, "lat": 40.5260162, "lon": 22.9749856, "tags": {"addr:floor": "1", "amenity": "restaurant", "bar": "yes", "brewery": "yes", "check_date": "2025-06-09", "cuisine": "pizza", "name": "Bistro del Cavalieri"}}, {"type": "node", "id": 11290521442, "lat": 40.5250569, "lon": 22.9741671, "tags": {"addr:floor": "1", "amenity": "cafe", "bar": "yes", "check_date": "2023-10-26", "name": "La Pasteria"}}, {"type": "node", "id": 11290521444, "lat": 40.5253162, "lon": 22.9745288, "tags": {"addr:floor": "1", "amenity": "restaurant", "check_date": "2025-06-09", "name": "eatgreek", "operator": "Select Service Partner"}}, {"type": "node", "id": 11290577557, "lat": 40.5240776, "lon": 22.9757239, "tags": {"addr:floor": "1", "amenity": "cafe", "brand": "Starbucks", "brand:wikidata": "Q37158", "check_date": "2025-06-09", "cuisine": "coffee_shop", "name": "Starbucks", "official_name": "Starbucks Coffee", "takeaway": "yes"}}, {"type": "node", "id": 11290577558, "lat": 40.5245656, "lon": 22.9752527, "tags": {"addr:floor": "1", "amenity": "restaurant", "check_date": "2023-10-26", "name": "KLEA"}}, {"type": "node", "id": 11327655369, "lat": 40.4968918, "lon": 22.8346031, "tags": {"addr:city": "\u0391\u03b3\u03b3\u03b5\u03bb\u03bf\u03c7\u03ce\u03c1\u03b9", "amenity": "restaurant", "cuisine": "burger;pizza;sandwich", "internet_access": "wlan", "name": "\u039c\u03c0\u03bf\u03c5\u03b3\u03ac\u03c4\u03c3\u03b1 cafe \u0391\u03bd\u03b1\u03c8\u03c5\u03ba\u03c4\u03ae\u03c1\u03b9\u03bf 4 \u0395\u03c0\u03bf\u03c7\u03ad\u03c2", "opening_hours": "Tu-Su 07:00-14:00, 18:00-00:00; Mo 07:00-14:00", "website": "https://cafe-24840.business.site"}}, {"type": "node", "id": 11446097592, "lat": 40.4641278, "lon": 22.8590635, "tags": {"amenity": "cafe", "brand": "Coffee Island", "brand:wikidata": "Q60867333", "cuisine": "coffee_shop", "name": "Coffee Island", "takeaway": "yes"}}, {"type": "node", "id": 11446097601, "lat": 40.4639348, "lon": 22.8585915, "tags": {"amenity": "restaurant", "cuisine": "seafood"}}, {"type": "node", "id": 11449956707, "lat": 40.4631632, "lon": 22.8588801, "tags": {"amenity": "cafe", "name": "Orange", "outdoor_seating": "yes"}}, {"type": "node", "id": 11449956708, "lat": 40.4632313, "lon": 22.8588286, "tags": {"amenity": "restaurant", "name": "\u03a4\u03bf \u03a3\u03b5\u03c1\u03bc\u03c0\u03ad\u03c4\u03b9", "name:el": "\u03a4\u03bf \u03a3\u03b5\u03c1\u03bc\u03c0\u03ad\u03c4\u03b9", "name:en": "Serbeti"}}, {"type": "node", "id": 11449956709, "lat": 40.4630391, "lon": 22.8589723, "tags": {"amenity": "cafe", "name": "Piccolo", "outdoor_seating": "yes"}}, {"type": "node", "id": 11449956710, "lat": 40.462984, "lon": 22.8590123, "tags": {"amenity": "restaurant", "cuisine": "barbecue", "name": "\u03a4\u03bf \u03a0\u03ad\u03c4\u03c1\u03b9\u03bd\u03bf", "name:el": "\u03a4\u03bf \u03a0\u03ad\u03c4\u03c1\u03b9\u03bd\u03bf", "name:en": "Petrino"}}, {"type": "node", "id": 11449956714, "lat": 40.462903, "lon": 22.8590656, "tags": {"amenity": "cafe", "name": "\u039a\u03b1\u03c6\u03b5\u03bd\u03b5\u03af\u03bf - \u03a4\u03c3\u03b9\u03c0\u03bf\u03c5\u03c1\u03ac\u03b4\u03b9\u03ba\u03bf \u03a4\u03b1\u03bb\u03b9\u03ac\u03bd\u03b9", "name:el": "\u039a\u03b1\u03c6\u03b5\u03bd\u03b5\u03af\u03bf - \u03a4\u03c3\u03b9\u03c0\u03bf\u03c5\u03c1\u03ac\u03b4\u03b9\u03ba\u03bf \u03a4\u03b1\u03bb\u03b9\u03ac\u03bd\u03b9", "name:en": "Cafe - Ouzo Taliani"}}, {"type": "node", "id": 11449956717, "lat": 40.4626079, "lon": 22.8592773, "tags": {"amenity": "cafe", "name": "Cirocco"}}, {"type": "node", "id": 11449956720, "lat": 40.4622712, "lon": 22.8595045, "tags": {"amenity": "restaurant", "name": "Volcano"}}, {"type": "node", "id": 12061500446, "lat": 40.3401288, "lon": 23.0175594, "tags": {"amenity": "restaurant", "name": "\u039a\u03b1\u03c1\u03b1\u03b2\u03cc\u03bc\u03c5\u03bb\u03bf\u03c2 \u0397\u03c1\u03ac\u03ba\u03bb\u03b5\u03b9\u03b1", "opening_hours": "Mo-Su 13:00-01:00", "phone": "+302399062186"}}, {"type": "node", "id": 12061530094, "lat": 40.3407118, "lon": 23.0169958, "tags": {"amenity": "restaurant", "name": "\u0391\u039c\u0391\u03a1\u03a5\u039b\u039b\u0399\u03a3", "name:el": "\u0391\u039c\u0391\u03a1\u03a5\u039b\u039b\u0399\u03a3", "name:en": "Amaryllis", "opening_hours": "Mo-Su 10:00-22:00", "phone": "+302399061074"}}, {"type": "node", "id": 12071531730, "lat": 40.2574087, "lon": 23.21681, "tags": {"amenity": "restaurant", "cuisine": "greek", "name": "\u03a4\u03bf \u0392\u03cc\u03c4\u03c3\u03b1\u03bb\u03bf"}}, {"type": "node", "id": 12100651454, "lat": 40.3059962, "lon": 23.2098591, "tags": {"addr:city": "\u039d\u03ad\u03b1 \u03a4\u03c1\u03af\u03b3\u03bb\u03b9\u03b1 \u03a7\u03b1\u03bb\u03ba\u03b9\u03b4\u03b9\u03ba\u03ae\u03c2", "addr:postcode": "63079", "amenity": "restaurant", "name": "\u03a4\u0391\u039c\u0391\u039c | \u03a8\u03b7\u03c4\u03bf\u03c0\u03c9\u03bb\u03b5\u03af\u03bf", "phone": "+302373051991"}}, {"type": "node", "id": 12130181249, "lat": 40.5001203, "lon": 22.8673847, "tags": {"amenity": "cafe", "check_date": "2024-08-23", "internet_access": "wlan", "internet_access:fee": "customers", "internet_access:ssid": "NEMA", "name": "Nema", "outdoor_seating": "yes", "payment:cash": "yes", "payment:credit_cards": "yes", "payment:debit_cards": "yes", "wheelchair": "yes"}}, {"type": "node", "id": 12131080396, "lat": 40.5006572, "lon": 22.8784983, "tags": {"addr:housenumber": "1", "addr:street": "\u039a\u03bf\u03bb\u03bf\u03ba\u03bf\u03c4\u03c1\u03ce\u03bd\u03b7", "amenity": "cafe", "check_date": "2024-08-23", "internet_access": "wlan", "internet_access:fee": "customers", "name": "Pithari", "payment:cash": "yes", "payment:credit_cards": "yes", "payment:debit_cards": "yes", "wheelchair": "limited"}}, {"type": "node", "id": 12165829451, "lat": 40.4974824, "lon": 22.9886649, "tags": {"addr:city": "\u039d\u03ad\u03bf \u03a1\u03cd\u03c3\u03b9\u03bf", "amenity": "cafe", "brand": "4all", "brand:website": "https://4allstores.gr/", "brand:wikidata": "Q130279387", "cuisine": "coffee_shop", "level": "0", "name": "4all", "name:el": "4all", "name:en": "4all", "payment:cash": "yes", "payment:contactless": "yes", "payment:credit_cards": "yes", "payment:debit_cards": "yes", "shop": "convenience"}}, {"type": "node", "id": 12538840205, "lat": 40.4132489, "lon": 23.0209359, "tags": {"amenity": "cafe", "name": "29 cafe"}}, {"type": "node", "id": 12598463081, "lat": 40.5065045, "lon": 22.9156838, "tags": {"amenity": "restaurant", "name": "Cuba"}}, {"type": "node", "id": 12707219914, "lat": 40.5012199, "lon": 22.9205794, "tags": {"amenity": "cafe", "cuisine": "coffee_shop", "name": "Stay24", "outdoor_seating": "yes"}}, {"type": "node", "id": 12738596547, "lat": 40.254016, "lon": 23.2264195, "tags": {"amenity": "restaurant", "cuisine": "greek", "name": "Costa Blue Restaurant", "takeaway": "yes"}}, {"type": "node", "id": 12906043193, "lat": 40.5041192, "lon": 22.9051721, "tags": {"amenity": "restaurant", "name": "\u0398\u0391\u03a1\u039f\u03a3"}}, {"type": "way", "id": 471793548, "nodes": [4659495145, 4659495146, 4659495147, 4659495148, 4659495145], "tags": {"amenity": "cafe", "building": "yes", "name": "BOOGY Beach Bar"}}, {"type": "way", "id": 471793549, "nodes": [4659495149, 4659495150, 4659495151, 4659495152, 4659495149], "tags": {"addr:city": "\u0395\u03c0\u03b1\u03bd\u03bf\u03bc\u03ae", "addr:postcode": "57500", "amenity": "restaurant", "building": "yes", "cuisine": "seafood", "name": "\u0391\u03b3\u03ba\u03c5\u03c1\u03bf\u03b2\u03cc\u03bb\u03b9", "outdoor_seating": "yes", "phone": "697 794 2352", "website": "https://www.facebook.com/OuzeriAgkyrovoli"}}, {"type": "way", "id": 473314167, "nodes": [4674489495, 4674489496, 4674489497, 4674489498, 4674489495], "tags": {"amenity": "cafe"}}, {"type": "way", "id": 506288807, "nodes": [4960562576, 4960562575, 4960562574, 4960562573, 4960562576], "tags": {"amenity": "restaurant", "name": "TPOKANAE Fish & Chips", "phone": "+30 23920 22 007"}}, {"type": "way", "id": 540336590, "nodes": [5227562459, 5227562462, 5227562463, 5227562464, 5227562459], "tags": {"amenity": "restaurant", "building": "yes"}}, {"type": "way", "id": 540336591, "nodes": [5227562462, 5227562465, 5227562466, 10136487516, 5227562463, 5227562462], "tags": {"amenity": "restaurant", "building": "yes"}}, {"type": "way", "id": 540336592, "nodes": [5227562465, 5227562467, 5227562468, 5227562466, 5227562465], "tags": {"amenity": "restaurant", "building": "yes"}}, {"type": "way", "id": 584331750, "nodes": [5585622035, 5585622034, 5585622033, 5585622032, 5585622035], "tags": {"amenity": "restaurant", "building": "yes", "cuisine": "greek", "delivery": "no", "smoking": "outside"}}, {"type": "way", "id": 625129850, "nodes": [5902430068, 5902430069, 5902430070, 5902430071, 5902430072, 5902430073, 5902430068], "tags": {"amenity": "restaurant", "building": "yes", "name": "Canteen"}}, {"type": "way", "id": 645997335, "nodes": [6658706016, 6070911318, 6658706018, 6658706011, 6658706016], "tags": {"addr:city": "\u039a\u03b1\u03c1\u03b4\u03af\u03b1", "addr:housenumber": "40", "addr:postcode": "57500", "addr:street": "\u0394\u03b7\u03bc\u03bf\u03ba\u03c1\u03b1\u03c4\u03af\u03b1\u03c2", "amenity": "cafe", "building": "yes", "name": "\u039c\u03c5\u03c1\u03bf\u03b2\u03cc\u03bb\u03bf\u03c2 \u03b5\u03bd \u039a\u03b1\u03c1\u03b4\u03af\u03b1"}}, {"type": "way", "id": 655019044, "nodes": [6137407968, 6137407969, 6137407970, 6137407971, 6137409948, 6137409905, 6137409936, 6137407972, 6137409924, 6137409945, 6137407968], "tags": {"addr:city": "\u039c\u03bf\u03bd\u03bf\u03c0\u03ae\u03b3\u03b1\u03b4\u03bf \u0392\u03b1\u03c3\u03b9\u03bb\u03b9\u03ba\u03ce\u03bd \u0398\u03b5\u03c3\u03c3\u03b1\u03bb\u03bf\u03bd\u03af\u03ba\u03b7\u03c2", "amenity": "restaurant", "email": "info@perek.gr", "landuse": "commercial", "name": "\u039a\u03c4\u03ae\u03bc\u03b1 \"\u03a0\u03b5\u03c1\u03ad\u03ba\"", "phone": "+30 23960 25305", "website": "https://www.perek.gr/"}}, {"type": "way", "id": 655019046, "nodes": [6137407977, 6137407978, 6137407979, 6137407980, 6137407981, 6137407982, 6137407983, 6137407984, 6137409885, 6137409886, 6137409887, 6137407976, 6137409888, 6137409889, 6137409890, 6137409891, 6137409892, 6137407977], "tags": {"amenity": "restaurant", "building": "yes", "cuisine": "greek"}}, {"type": "way", "id": 767801245, "nodes": [7168765431, 7168765440, 7168765432, 7168765433, 7168765434, 7168765435, 7168765436, 7168765437, 7168765431], "tags": {"addr:city": "Nea Propontida", "addr:postcode": "630 80", "amenity": "restaurant", "building": "yes", "cuisine": "regional;seafood", "name": "\u0391\u03b8\u03bf\u03c2", "name:de": "Athos", "name:el": "\u0391\u03b8\u03bf\u03c2", "name:en": "Athos", "opening_hours": "We-Su 12:00-20:00", "phone": "+30 2399 062444"}}, {"type": "way", "id": 769685211, "nodes": [7184620085, 7184620086, 7184620087, 7184620088, 7184620085], "tags": {"addr:city": "\u039d\u03ad\u03b1 \u0397\u03c1\u03ac\u03ba\u03bb\u03b5\u03b9\u03b1", "addr:postcode": "63080", "amenity": "restaurant", "building": "yes", "cuisine": "regional;steak_house", "name": "\u03a8\u03b7\u03c4\u03bf\u03c0\u03c9\u03bb\u03b5\u03af\u03bf \u03a3\u03c4\u03bf \u03a0\u03ac\u03c1\u03ba\u03bf", "name:de": "Parkens Steakhaus", "name:el": "\u03a8\u03b7\u03c4\u03bf\u03c0\u03c9\u03bb\u03b5\u03af\u03bf \u03a3\u03c4\u03bf \u03a0\u03ac\u03c1\u03ba\u03bf", "phone": "+30 698 701 1966"}}, {"type": "way", "id": 981093985, "nodes": [9075225035, 9075225034, 9075225033, 9075225032, 9075225031, 9075225030, 9075225029, 9075225028, 9075225027, 9075225026, 9075225035], "tags": {"amenity": "restaurant", "building": "yes", "name": "\u0393\u03b9\u03ac\u03bd\u03bd\u03b7\u03c2 \u03a8\u03b7\u03c3\u03c4\u03b1\u03c1\u03b9\u03ac", "name:el": "\u0393\u03b9\u03ac\u03bd\u03bd\u03b7\u03c2 \u03a8\u03b7\u03c3\u03c4\u03b1\u03c1\u03b9\u03ac", "name:en": "Giannis Grill"}}, {"type": "way", "id": 992752354, "nodes": [9172184247, 9172184248, 9172184249, 9172184250, 9172184251, 9172184252, 9172184253, 9172184254, 9172184255, 9172184256, 9172184257, 9172184258, 9172184259, 9172184260, 9172184261, 9172184262, 9172184263, 9172184264, 9172184247], "tags": {"amenity": "restaurant", "building": "yes", "cuisine": "greek", "name": "\u039c\u03bf\u03c5\u03c3\u03c4\u03ac\u03ba\u03b1\u03c2", "name:el": "\u039c\u03bf\u03c5\u03c3\u03c4\u03ac\u03ba\u03b1\u03c2", "name:en": "Moustakas"}}, {"type": "way", "id": 992754402, "nodes": [9172134463, 9172134466, 9172134467, 9172134468, 9172134469, 9172134464, 9172134463], "tags": {"amenity": "restaurant", "building": "yes", "cuisine": "regional;greek", "name": "\u03a3\u03cc\u03bc\u03c0\u03bf\u03c1\u03bf", "name:el": "\u03a3\u03cc\u03bc\u03c0\u03bf\u03c1\u03bf", "name:en": "Soboro", "opening_hours": "Tu-Fr 09:00-23:00", "phone": "302396041074", "website": "https://www.facebook.com/plateiasourotis.soboro/"}}, {"type": "way", "id": 992754404, "nodes": [9172134473, 9172134474, 9172134475, 9172134476, 9172134473], "tags": {"amenity": "cafe", "building": "yes", "name": "Coffee Costa", "opening_hours": "Mo-Su 09:00-14:00 18:00-02:00"}}, {"type": "way", "id": 992761846, "nodes": [9172204450, 9172204451, 9172204462, 9172204452, 9172204453, 9172204465, 9172204454, 9172204455, 9172204450], "tags": {"amenity": "cafe", "building": "yes", "name": "\u039a\u03b1\u03c6\u03b5\u03b3\u03bb\u03c5\u03ba\u03bf\u03c0\u03c9\u03bb\u03b5\u03af\u03bf \u0393\u03c5\u03bd\u03b1\u03b9\u03ba\u03b5\u03af\u03bf\u03c5 \u03a3\u03c5\u03bd\u03b1\u03b9\u03c4\u03b5\u03c1\u03b9\u03c3\u03bc\u03bf\u03cd \u0386\u03b3\u03b9\u03bf\u03c5 \u0391\u03bd\u03c4\u03ce\u03bd\u03b9\u03bf\u03c5", "outdoor_seating": "yes"}}, {"type": "way", "id": 1107865875, "nodes": [6880541804, 10136481502, 10136481503, 10136481504, 6880541804], "tags": {"addr:city": "\u039d\u03ad\u03b1 \u039a\u03b1\u03bb\u03bb\u03b9\u03ba\u03c1\u03ac\u03c4\u03b5\u03b9\u03b1", "addr:housenumber": "24", "addr:postcode": "63080", "addr:street": "\u039b\u03b5\u03c9\u03c6\u03cc\u03c1\u03bf\u03c2 \u039d\u03af\u03ba\u03b7\u03c2", "amenity": "restaurant", "building": "yes", "name": "Pirates", "source": "microsoft/BuildingFootprints"}}]}