{"version": 0.6, "generator": "Overpass API 0.7.62.7 375dc00a", "osm3s": {"timestamp_osm_base": "2025-06-14T15:13:00Z", "copyright": "The data included in this document is from www.openstreetmap.org. The data is made available under ODbL."}, "elements": [{"type": "node", "id": 3050729868, "lat": 36.7972598, "lon": 34.6292531, "tags": {"amenity": "restaurant", "name": "Ozkan Tantuni"}}, {"type": "node", "id": 3312315138, "lat": 36.7573583, "lon": 34.5477046, "tags": {"addr:city": "Mersin", "addr:housenumber": "30026", "addr:postcode": "33170", "addr:street": "SK.", "amenity": "restaurant", "capacity": "200", "cuisine": "regional,_Pizza,_Fastfood,", "name": "L-Alem Cafe & Restaurant", "phone": "+903243586886", "smoking": "isolated", "website": "https://vk.com/l.alem"}}, {"type": "node", "id": 3673523202, "lat": 36.771388, "lon": 34.5685453, "tags": {"amenity": "restaurant", "name": "mersin marina"}}, {"type": "node", "id": 3679362472, "lat": 36.6721666, "lon": 34.4339235}, {"type": "node", "id": 3679362473, "lat": 36.672186, "lon": 34.4340134}, {"type": "node", "id": 3679362474, "lat": 36.6721527, "lon": 34.4340751}, {"type": "node", "id": 3679362475, "lat": 36.6719902, "lon": 34.4339343}, {"type": "node", "id": 3679362476, "lat": 36.6719762, "lon": 34.433882}, {"type": "node", "id": 3679362477, "lat": 36.6719945, "lon": 34.4338551}, {"type": "node", "id": 3679362478, "lat": 36.6720515, "lon": 34.433835}, {"type": "node", "id": 3679362479, "lat": 36.6720741, "lon": 34.4338377}, {"type": "node", "id": 4110128904, "lat": 36.7607878, "lon": 34.551685, "tags": {"amenity": "cafe", "name": "Tombeki"}}, {"type": "node", "id": 4110128905, "lat": 36.7830868, "lon": 34.5970368, "tags": {"amenity": "restaurant", "name": "G\u00f6ksel Tantuni"}}, {"type": "node", "id": 4118638689, "lat": 36.7981039, "lon": 34.6292995, "tags": {"addr:housenumber": "Cafe Rail", "addr:street": "4702 sokak", "amenity": "cafe", "cuisine": "tea;grill;local;turkish;chicken;sandwich;sausage;pizza;pasta;kebab;coffee_shop;breakfast;pancake", "diet:vegan": "yes", "diet:vegetarian": "yes", "email": "caferailmersin@gmail.com", "internet_access": "wlan", "name": "Cafe Rail Mersin", "opening_hours": "24/7", "phone": "+90 542 338 33 21"}}, {"type": "node", "id": 4159681198, "lat": 36.6503231, "lon": 34.3821834, "tags": {"amenity": "restaurant", "name": "Akdeniz Kebap"}}, {"type": "node", "id": 4227737989, "lat": 36.8118329, "lon": 34.7510765, "tags": {"amenity": "restaurant"}}, {"type": "node", "id": 4227738290, "lat": 36.7842948, "lon": 34.5894883, "tags": {"amenity": "cafe", "name": "Unlikely & Cities (Sweet things)"}}, {"type": "node", "id": 4228682589, "lat": 36.674177, "lon": 34.3636739, "tags": {"amenity": "restaurant"}}, {"type": "node", "id": 4234748989, "lat": 36.7994195, "lon": 34.6297467, "tags": {"amenity": "cafe", "name": "Gramophone"}}, {"type": "node", "id": 4297347693, "lat": 36.7349835, "lon": 34.521534, "tags": {"amenity": "restaurant", "name": "Roka bal\u0131k"}}, {"type": "node", "id": 4497655589, "lat": 36.7894915, "lon": 34.5265654, "tags": {"amenity": "cafe", "name:en": "Hayal kahvesi"}}, {"type": "node", "id": 4575321712, "lat": 36.7508016, "lon": 34.5149473, "tags": {"amenity": "restaurant", "name": "Yedi Kardesler", "name:tr": "Yedi Kardesler"}}, {"type": "node", "id": 4972610622, "lat": 36.9608026, "lon": 34.5760314, "tags": {"amenity": "restaurant"}}, {"type": "node", "id": 4972610721, "lat": 36.9579741, "lon": 34.5747508, "tags": {"amenity": "restaurant"}}, {"type": "node", "id": 4973361623, "lat": 36.7824522, "lon": 34.5931303, "tags": {"amenity": "restaurant"}}, {"type": "node", "id": 4974972226, "lat": 36.9605808, "lon": 34.5758822, "tags": {"addr:street": "G\u00f6zne yolu", "amenity": "restaurant"}}, {"type": "node", "id": 5086103148, "lat": 36.7824384, "lon": 34.5882197}, {"type": "node", "id": 5086103149, "lat": 36.7825458, "lon": 34.5884372}, {"type": "node", "id": 5086103150, "lat": 36.7826956, "lon": 34.5883254}, {"type": "node", "id": 5086103151, "lat": 36.7825881, "lon": 34.5881039}, {"type": "node", "id": 5410572321, "lat": 36.7604037, "lon": 34.5509125, "tags": {"addr:city": "Mersin", "addr:district": "Mezitli", "addr:street": "Adnan Menderes Bulvar\u0131", "amenity": "restaurant", "name": "Necmi G\u00f6\u00e7t\u00fc Restorant"}}, {"type": "node", "id": 6077195593, "lat": 36.6478664, "lon": 34.3696771, "tags": {"amenity": "restaurant", "name": "Enes Kebap"}}, {"type": "node", "id": 6077277085, "lat": 36.6830396, "lon": 34.4169415, "tags": {"amenity": "restaurant", "name": "\u00d6yk\u00fc Restaurant"}}, {"type": "node", "id": 6124728403, "lat": 36.8054456, "lon": 34.6205106, "tags": {"amenity": "restaurant", "name": "G\u00f6ksel Tantuni"}}, {"type": "node", "id": 6200725836, "lat": 36.7986322, "lon": 34.6229595, "tags": {"amenity": "restaurant", "name": "Gaziantepli Remzi Usta"}}, {"type": "node", "id": 6282813449, "lat": 36.8105491, "lon": 34.6251256, "tags": {"amenity": "restaurant", "name": "Halep \u00c7i\u00e7e\u011fi Lokantas\u0131"}}, {"type": "node", "id": 6367250746, "lat": 36.7752962, "lon": 34.5756181, "tags": {"amenity": "restaurant", "cuisine": "turkish", "name": "Iskele", "outdoor_seating": "yes"}}, {"type": "node", "id": 6405000427, "lat": 36.9656179, "lon": 34.5725661, "tags": {"amenity": "restaurant"}}, {"type": "node", "id": 6461934585, "lat": 36.6798137, "lon": 34.439039, "tags": {"addr:street": "Milli Egemenlik Cd.", "amenity": "restaurant", "cuisine": "fish", "internet_access": "wlan", "name": "Eiffel Cafe Restaurant", "name:ru": "\u0420\u044b\u0431\u043d\u044b\u0439 \u0440\u0435\u0441\u0442\u043e\u0440\u0430\u043d Petunya"}}, {"type": "node", "id": 6578893064, "lat": 36.6652283, "lon": 34.429507, "tags": {"amenity": "restaurant", "cuisine": "fish", "internet_access": "wlan", "name": "Sancak"}}, {"type": "node", "id": 6717464887, "lat": 36.9552486, "lon": 34.5779908, "tags": {"amenity": "restaurant"}}, {"type": "node", "id": 6744510886, "lat": 36.7067056, "lon": 34.3686554, "tags": {"amenity": "restaurant", "name": "Ali Day\u0131 Alabal\u0131k"}}, {"type": "node", "id": 7013322085, "lat": 36.7798763, "lon": 34.5913566, "tags": {"addr:city": "Mersin", "addr:housenumber": "49", "addr:street": "1403", "amenity": "cafe", "contact:phone": "+90 536 3831212", "cuisine": "african;italian;arab;indian;coffee_shop;local", "diet:vegan": "only", "internet_access": "wlan", "name": "Vegan yer Buda Kafa", "name:en": "Vegan space Buda Kafa", "name:tr": "Vegan mekan Buda Kafa"}}, {"type": "node", "id": 7014689198, "lat": 36.795425, "lon": 34.6224902, "tags": {"addr:neighbourhood": "Kiremithane Mah.", "addr:street": "\u0130stiklal Caddesi", "amenity": "restaurant", "cuisine": "regional;kerebi\u00e7", "name": "Kerebi\u00e7ci Hayri Usta", "phone": "0 (324) 237 3454"}}, {"type": "node", "id": 7023102093, "lat": 36.7933483, "lon": 34.6206746}, {"type": "node", "id": 7023102094, "lat": 36.793417, "lon": 34.6207873}, {"type": "node", "id": 7023102095, "lat": 36.7933526, "lon": 34.6208409}, {"type": "node", "id": 7023102096, "lat": 36.7932753, "lon": 34.620739}, {"type": "node", "id": 7023121143, "lat": 36.7951625, "lon": 34.6216866, "tags": {"amenity": "cafe", "cuisine": "turkish", "internet_access": "yes", "name": "K\u00fcnefeci Emin Usta", "shop": "pastry", "smoking": "no", "wheelchair": "yes"}}, {"type": "node", "id": 7023634054, "lat": 36.7950941, "lon": 34.6234919, "tags": {"amenity": "restaurant", "cuisine": "tantuni", "name": "Ac\u0131 Tantuni"}}, {"type": "node", "id": 7036855815, "lat": 36.7951906, "lon": 34.621789, "tags": {"amenity": "cafe", "name": "\u00dcnl\u00fco\u011flu ve Cici", "shop": "pastry"}}, {"type": "node", "id": 7875095985, "lat": 36.7705933, "lon": 34.5687662, "tags": {"amenity": "cafe", "brand": "Starbucks", "brand:wikidata": "Q37158", "cuisine": "coffee_shop", "internet_access": "wlan", "name": "Starbucks", "name:en": "Starbucks", "official_name": "Starbucks Coffee", "takeaway": "yes"}}, {"type": "node", "id": 7875508187, "lat": 36.7705918, "lon": 34.5687494, "tags": {"amenity": "cafe", "brand": "Starbucks", "brand:wikidata": "Q37158", "cuisine": "coffee_shop", "internet_access": "wlan", "name": "Starbucks", "official_name": "Starbucks Coffee", "takeaway": "yes"}}, {"type": "node", "id": 7887464320, "lat": 36.6742335, "lon": 34.4093624, "tags": {"amenity": "restaurant", "name": "Ci\u011ferci \u00d6mer"}}, {"type": "node", "id": 7887751383, "lat": 36.720643, "lon": 34.4889908, "tags": {"amenity": "restaurant", "name": "Special Tantuni"}}, {"type": "node", "id": 7887778439, "lat": 36.7081911, "lon": 34.466248, "tags": {"amenity": "restaurant", "name": "Lider Tantuni"}}, {"type": "node", "id": 7890956263, "lat": 36.7459933, "lon": 34.525177, "tags": {"amenity": "restaurant", "name": "G\u00fcndo\u011fdu \u0130skender", "phone": "+90 324 358 44 11"}}, {"type": "node", "id": 7890973118, "lat": 36.7495093, "lon": 34.5298756, "tags": {"amenity": "restaurant", "name": "\u00d6zlem \u00c7orbac\u0131"}}, {"type": "node", "id": 7891931997, "lat": 36.7559103, "lon": 34.5406992, "tags": {"amenity": "restaurant", "name": "Tad\u0131m Tantuni"}}, {"type": "node", "id": 7897508579, "lat": 36.7616458, "lon": 34.5490952, "tags": {"amenity": "cafe", "name": "Bazzar Cafe"}}, {"type": "node", "id": 7899618263, "lat": 36.7850478, "lon": 34.6022235, "tags": {"amenity": "cafe", "name": "Papatya Cafe"}}, {"type": "node", "id": 7899655589, "lat": 36.7771308, "lon": 34.5747795, "tags": {"amenity": "restaurant", "name": "63 Ciger Kebap"}}, {"type": "node", "id": 7899661817, "lat": 36.7870405, "lon": 34.6097815, "tags": {"amenity": "restaurant", "name": "Gaziantep Sofras\u0131"}}, {"type": "node", "id": 7902176087, "lat": 36.8343014, "lon": 34.636651, "tags": {"amenity": "restaurant", "name": "6 Kardesler Kebap Salonu"}}, {"type": "node", "id": 8148195019, "lat": 36.7840011, "lon": 34.595197, "tags": {"addr:housenumber": "10/c", "addr:street": "1901. Sokak", "amenity": "restaurant", "cuisine": "chicken;kebab;local;sandwich;tea;turkish", "internet_access": "wlan", "name": "Hazan Usta Tantuni", "opening_hours": "24/7", "phone": "+903243259329", "website": "https://yemeksepeti.com/"}}, {"type": "node", "id": 8614507178, "lat": 36.7682569, "lon": 34.5535036, "tags": {"addr:housenumber": "759", "addr:street": "Akkent Mahallesi H\u00fcseyin Okan Merzeci Bulvar\u0131", "amenity": "cafe", "brand": "Gloria Jean's", "brand:wikidata": "Q2666365", "cuisine": "coffee_shop", "name": "Gloria Jean's", "official_name": "Gloria Jean's Coffees", "opening_hours": "Mo-Fr 10:00-22:00", "shop": "coffee", "takeaway": "yes", "website": "https://www.gloriajeans.com.tr/"}}, {"type": "node", "id": 8618109682, "lat": 36.7616467, "lon": 34.5525144, "tags": {"addr:housenumber": "210", "addr:street": "Fatih Mahallesi Adnan Menderes Bulvar\u0131", "amenity": "cafe", "name": "G\u00fcl Cafe Plus", "opening_hours": "Mo-Su 07:00-02:00", "website": "gulcafeplus.com"}}, {"type": "node", "id": 8618109710, "lat": 36.7731655, "lon": 34.5701476, "tags": {"addr:housenumber": "178", "addr:street": "Adnan menderes bulvar\u0131", "amenity": "restaurant", "name": "Otto", "opening_hours": "Mo-Su 11:30-00:00", "website": "ottobrosburgercafe.com"}}, {"type": "node", "id": 8618159884, "lat": 36.7618506, "lon": 34.5527764, "tags": {"addr:street": "Fatih, 33200", "amenity": "restaurant", "name": "Saffron Restaurant & Bistro", "opening_hours": "Mo-Su 12:00-01:00", "website": "https://saffronfish.com/"}}, {"type": "node", "id": 8618242773, "lat": 36.7741601, "lon": 34.5728331, "tags": {"addr:housenumber": "156", "addr:street": "Adnan Menderes Blv.", "amenity": "cafe", "name": "Brewser Coffe Shop", "opening_hours": "Mo-Su 07:30-23:00"}}, {"type": "node", "id": 8621479686, "lat": 36.776274, "lon": 34.5721056, "tags": {"addr:housenumber": "496", "addr:street": "Gazi Mustafa Kemal BLV.", "amenity": "cafe", "name": "Olabi Kahvesi", "opening_hours": "Mo-Su 08:00-00:00"}}, {"type": "node", "id": 8621816207, "lat": 36.7907963, "lon": 34.6223575, "tags": {"addr:housenumber": "1", "addr:street": "K\u00fclt\u00fcr 4314. Sk.", "amenity": "restaurant", "name": "Fran\u00e7ois", "opening_hours": "Mo-Sa 08:00-22:00", "phone": "08508087690"}}, {"type": "node", "id": 8622095657, "lat": 36.7812902, "lon": 34.5875501, "tags": {"addr:housenumber": "5", "addr:street": "Ayd\u0131nl\u0131kevler, Dumlup\u0131nar Cd.", "amenity": "cafe", "name": "Rain go", "opening_hours": "Mo-Sa 08:00-19:00"}}, {"type": "node", "id": 8630118685, "lat": 36.7740017, "lon": 34.572528, "tags": {"addr:housenumber": "158/A", "addr:street": "Adnan Menderes Bulv, K\u0131rmaz Apt", "amenity": "restaurant", "name": "Cafe Betul", "opening_hours": "Mo-Sa 08:00-19:00", "phone": "(0324)3290169", "website": "berullezzetleri.com"}}, {"type": "node", "id": 8631928539, "lat": 36.7806544, "lon": 34.5984084, "tags": {"addr:housenumber": "48", "addr:street": "Adnan Menderes Bulvar\u0131", "amenity": "cafe", "brand": "Starbucks", "brand:wikidata": "Q37158", "brand:wikipedia": "en:Starbucks", "cuisine": "coffee_shop", "name": "Starbucks", "official_name": "Starbucks Coffee", "takeaway": "yes"}}, {"type": "node", "id": 8632125765, "lat": 36.774398, "lon": 34.5730745, "tags": {"addr:housenumber": "5A", "addr:street": "Barbaros, 2186. Sk.", "amenity": "restaurant", "name": "Burger Town", "opening_hours": "Mo-Su 11:00-20:00", "phone": "(0324)9996033", "website": "https://burgertown.com.tr/"}}, {"type": "node", "id": 8917275578, "lat": 36.7844102, "lon": 34.5882776, "tags": {"amenity": "cafe", "brand": "Starbucks", "brand:wikidata": "Q37158", "brand:wikipedia": "en:Starbucks", "cuisine": "coffee_shop", "internet_access": "yes", "name": "Starbucks", "official_name": "Starbucks Coffee", "takeaway": "yes"}}, {"type": "node", "id": 8919810055, "lat": 36.7828862, "lon": 34.5891093, "tags": {"amenity": "cafe", "name": "Barista Brothers"}}, {"type": "node", "id": 9217827217, "lat": 36.8034491, "lon": 34.6315611, "tags": {"amenity": "restaurant", "internet_access": "wlan", "name": "Efsus", "opening_hours": "24/7"}}, {"type": "node", "id": 9280402225, "lat": 36.6971934, "lon": 34.4429167}, {"type": "node", "id": 9280402226, "lat": 36.6973182, "lon": 34.4432707}, {"type": "node", "id": 9280402227, "lat": 36.6971504, "lon": 34.4433619}, {"type": "node", "id": 9280402228, "lat": 36.6970257, "lon": 34.4430132}, {"type": "node", "id": 9301888715, "lat": 36.6882429, "lon": 34.4431408}, {"type": "node", "id": 9301888716, "lat": 36.6882059, "lon": 34.443187}, {"type": "node", "id": 9301930017, "lat": 36.6883269, "lon": 34.4433534}, {"type": "node", "id": 9301930018, "lat": 36.6883615, "lon": 34.4433041}, {"type": "node", "id": 9308398671, "lat": 36.6995372, "lon": 34.4611296}, {"type": "node", "id": 9308398672, "lat": 36.6996168, "lon": 34.4612852}, {"type": "node", "id": 9308398673, "lat": 36.6994641, "lon": 34.4614006}, {"type": "node", "id": 9308398674, "lat": 36.6993889, "lon": 34.4612369}, {"type": "node", "id": 9308398675, "lat": 36.6994512, "lon": 34.4617841, "tags": {"addr:city": "Mersin", "amenity": "cafe", "name": "Alt\u0131n Yunus Cafe"}}, {"type": "node", "id": 9308398677, "lat": 36.7024675, "lon": 34.4645937}, {"type": "node", "id": 9308398678, "lat": 36.7024976, "lon": 34.4646339}, {"type": "node", "id": 9308398679, "lat": 36.7024675, "lon": 34.4646822}, {"type": "node", "id": 9308398680, "lat": 36.7024309, "lon": 34.4646393}, {"type": "node", "id": 9505156851, "lat": 36.6860805, "lon": 34.4437794}, {"type": "node", "id": 9505156852, "lat": 36.6859816, "lon": 34.4438652}, {"type": "node", "id": 9505156853, "lat": 36.6860719, "lon": 34.44401}, {"type": "node", "id": 9505156854, "lat": 36.6861666, "lon": 34.4439188}, {"type": "node", "id": 9515488948, "lat": 36.7008654, "lon": 34.4522915, "tags": {"addr:city": "Mersin", "addr:neighbourhood": "Mezitli (Deniz Mah.)", "amenity": "restaurant", "cuisine": "chicken", "name": "Sancak Chicken"}}, {"type": "node", "id": 9560821826, "lat": 36.746029, "lon": 34.5280421, "tags": {"addr:city": "mersin", "addr:district": "mezitli", "addr:housenumber": "9a", "addr:street": "Limon cad", "amenity": "cafe", "cuisine": "coffee_shop", "internet_access": "yes", "internet_access:fee": "no", "name": "Cup Of Coffee", "outdoor_seating": "yes", "phone": "05458617716"}}, {"type": "node", "id": 9661648269, "lat": 36.7953209, "lon": 34.6234672, "tags": {"amenity": "restaurant", "capacity": "15", "cuisine": "regional", "delivery": "yes", "diet:egg_free": "yes", "diet:halal": "yes", "diet:kosher": "yes", "diet:mediterranean": "yes", "diet:organic": "yes", "diet:soy_free": "yes", "diet:vegetarian": "yes", "highchair": "no", "internet_access": "no", "name": "Murat usta", "opening_hours": "Mo-Fr 09:00-17:00", "opening_hours:covid19": "restricted", "outdoor_seating": "yes", "smoking": "outside", "takeaway": "no"}}, {"type": "node", "id": 9669709185, "lat": 36.7891295, "lon": 34.6164215, "tags": {"addr:housenumber": "154/A", "addr:street": "Silifke Cad.", "amenity": "restaurant", "name": "Memo\u015f Tantuni", "opening_hours": "Mo-Su 09:00-20:00", "phone": "0324 237 20 98", "website": "memostantuni.com"}}, {"type": "node", "id": 9732275667, "lat": 36.7743809, "lon": 34.5736898, "tags": {"addr:city": "Mersin", "addr:district": "Yeni\u015fehir", "addr:housenumber": "150 A", "addr:neighbourhood": "Barbaros Mahallesi", "addr:street": "Barboros, Adnan Menderes Blv. No:48", "amenity": "cafe", "brand": "Starbucks", "brand:wikidata": "Q37158", "brand:wikipedia": "en:Starbucks", "cuisine": "coffee_shop", "name": "Starbucks", "official_name": "Starbucks Coffee", "takeaway": "yes"}}, {"type": "node", "id": 9757388103, "lat": 36.7834985, "lon": 34.6079922, "tags": {"amenity": "restaurant", "name": "Rastlant\u0131 boutique cafe restorant"}}, {"type": "node", "id": 9779950297, "lat": 36.7990645, "lon": 34.6281763, "tags": {"addr:city": "Mersin", "addr:district": "Akdeniz", "addr:housenumber": "55", "addr:neighbourhood": "\u00c7ankaya Mah. \u0130stiklal Cad. No:55 Akdeniz / MERS\u0130N", "addr:street": "\u0130stiklal Caddesi", "amenity": "restaurant", "cuisine": "steak_house;chicken;kebab;t\u00fcrk;mediterranean;salad;d\u00f6ner;pilav;bulgur;t\u00fcrk_yemekleri;\u0131zgara;\u00e7orba;pide;tatl\u0131", "diet:vegan": "yes", "diet:vegetarian": "yes", "name": "Sabah Et Lokantas\u0131", "opening_hours": "24/7", "phone": "+90 324 2388282", "website": "https://sabahlokantasi.com.tr/"}}, {"type": "node", "id": 9779950299, "lat": 36.7831091, "lon": 34.5941518, "tags": {"addr:city": "Mersin", "addr:district": "Yeni\u015fehir", "addr:housenumber": "306/A", "addr:neighbourhood": "GMK Bulvar\u0131 No:306/A Yeni\u015fehir/Mersin", "addr:street": "Gazi Mustafa Kemal Bulvar\u0131", "amenity": "restaurant", "cuisine": "steak_house;chicken;kebab;t\u00fcrk;mediterranean;salad;d\u00f6ner;pilav;bulgur;t\u00fcrk_yemekleri;\u0131zgara;\u00e7orba;pide;tatl\u0131", "diet:vegan": "yes", "diet:vegetarian": "yes", "name": "Sabah Et Lokantas\u0131 Pozcu", "name:tr": "Sabah Et Lokantas\u0131", "opening_hours": "24/7", "phone": "+90 324 329 1515", "website": "https://sabahlokantasi.com.tr/"}}, {"type": "node", "id": 9786745254, "lat": 36.7882933, "lon": 34.5885572, "tags": {"amenity": "cafe", "brand": "Starbucks", "brand:wikidata": "Q37158", "cuisine": "coffee_shop", "name": "Starbucks", "official_name": "Starbucks Coffee", "takeaway": "yes"}}, {"type": "node", "id": 9791150121, "lat": 36.7466232, "lon": 34.5261604, "tags": {"addr:city": "Mersin", "addr:district": "Mezitli", "addr:street": "Gazi Mustafa Kemal Bulvar\u0131", "amenity": "restaurant", "cuisine": "steak_house;chicken;kebab;t\u00fcrk;mediterranean;salad;d\u00f6ner;pilav;bulgur;t\u00fcrk_yemekleri;\u0131zgara;\u00e7orba;pide;tatl\u0131", "diet:vegan": "yes", "diet:vegetarian": "yes", "name": "Sabah Et Lokantas\u0131 Mezitli", "name:tr": "Sabah Et Lokantas\u0131", "opening_hours": "24/7", "phone": "+90 324 502 29 29", "website": "https://sabahlokantasi.com.tr/"}}, {"type": "node", "id": 9792385824, "lat": 36.7681489, "lon": 34.5533437, "tags": {"addr:housenumber": "759", "addr:street": "Akkent Mahallesi H\u00fcseyin Okan Merzeci Bulvar\u0131", "amenity": "cafe", "brand": "Starbucks", "brand:wikidata": "Q37158", "cuisine": "coffee_shop", "name": "Starbucks", "official_name": "Starbucks Coffee", "shop": "coffee", "takeaway": "yes"}}, {"type": "node", "id": 9792385829, "lat": 36.7739464, "lon": 34.5722204, "tags": {"amenity": "cafe", "name": "K\u0131ska\u00e7 Cafe Bar"}}, {"type": "node", "id": 10075160917, "lat": 36.7586756, "lon": 34.5492611, "tags": {"amenity": "cafe", "name:en": "CAFFEINE COFFEE MERSIN SAHIL"}}, {"type": "node", "id": 10118505446, "lat": 36.7934677, "lon": 34.599315}, {"type": "node", "id": 10118505447, "lat": 36.7933665, "lon": 34.5994166}, {"type": "node", "id": 10118505449, "lat": 36.793332, "lon": 34.5990223}, {"type": "node", "id": 10118505450, "lat": 36.7932308, "lon": 34.5990839}, {"type": "node", "id": 10118505451, "lat": 36.793137, "lon": 34.5991424}, {"type": "node", "id": 10118505452, "lat": 36.7932875, "lon": 34.5994752}, {"type": "node", "id": 10118505516, "lat": 36.7907285, "lon": 34.5970914, "tags": {"addr:city": "Mersin", "addr:district": "Yeni\u015fehir", "addr:neighbourhood": "H\u00fcrriyet Mahallesi", "addr:street": "16. Cadde", "amenity": "restaurant", "cuisine": "regional", "name": "Et\u00e7i"}}, {"type": "node", "id": 10118650020, "lat": 36.7884644, "lon": 34.5981061, "tags": {"addr:city": "Mersin", "addr:district": "Yeni\u015fehir", "amenity": "cafe", "name": "Eyfel Pastanesi"}}, {"type": "node", "id": 10199197936, "lat": 36.7729945, "lon": 34.5406049, "tags": {"addr:city": "Mersin", "addr:district": "Yeni\u015fehir", "addr:neighbourhood": "\u00c7iftlikk\u00f6y Mahallesi , We Life Ya\u015fam Merkezi", "addr:street": "\u00dcniversite Caddesi", "amenity": "cafe", "brand": "Starbucks", "brand:wikidata": "Q37158", "cuisine": "coffee_shop", "internet_access": "wlan", "internet_access:fee": "no", "internet_access:ssid": "Starbucks", "name": "Starbucks", "official_name": "Starbucks Coffee", "takeaway": "yes"}}, {"type": "node", "id": 10209509346, "lat": 36.7734706, "lon": 34.5711243, "tags": {"addr:city": "Mersin", "addr:district": "Yeni\u015fehir", "addr:housenumber": "170/B", "addr:neighbourhood": "E\u011fri\u00e7am Mahallesi", "addr:postcode": "33160", "addr:street": "Adnan Menderes Bulvar\u0131", "amenity": "restaurant", "cuisine": "burger;breakfast;street_food;salad;pasta;dessert", "name": "Cantina dei Fiori", "opening_hours": "Mo-Su 10:00-22:30", "phone": "+905389540213", "website": "cantinadeifiori.com"}}, {"type": "node", "id": 10264986463, "lat": 36.7817027, "lon": 34.6080748, "tags": {"addr:city": "Mersin", "addr:district": "Yeni\u015fehir", "amenity": "restaurant", "name": "Next Republic Mersin", "website": "http://nextrepublic.com.tr"}}, {"type": "node", "id": 10301890937, "lat": 36.7841799, "lon": 34.5893813, "tags": {"addr:city": "Mersin", "addr:district": "Yeni\u015fehir", "addr:neighbourhood": "G\u00fcvenevler, 1910. Sk. 17-15, 33140 Yeni\u015fehir/Mersin", "addr:street": "20. Cadde", "amenity": "cafe", "brand": "Kahve D\u00fcnyas\u0131", "brand:wikidata": "Q28008050", "cuisine": "coffee_shop", "internet_access": "yes", "internet_access:fee": "no", "name": "Kahve D\u00fcnyas\u0131", "outdoor_seating": "yes", "takeaway": "yes"}}, {"type": "node", "id": 10727579005, "lat": 36.7758317, "lon": 34.5795431, "tags": {"addr:street": "Adnan Menderes Bulvar\u0131", "amenity": "cafe", "name": "Y\u00f6reden Cafe", "name:en": "Y\u00f6reden Kafe", "website": "http://dijitalmenu.tk/yoredencafe"}}, {"type": "node", "id": 10799350956, "lat": 36.8010893, "lon": 34.5953167, "tags": {"addr:city": "Mersin", "addr:district": "Yeni\u015fehir", "addr:neighbourhood": "Limonluk Mah.", "addr:street": "Palm City AVM", "amenity": "cafe", "brand": "Starbucks", "brand:wikidata": "Q37158", "cuisine": "coffee_shop", "name": "Starbucks", "official_name": "Starbucks Coffee", "takeaway": "yes"}}, {"type": "node", "id": 10802549193, "lat": 36.7875866, "lon": 34.5887404, "tags": {"addr:city": "Mersin", "addr:district": "Yeni\u015fehir", "addr:housenumber": "24/C", "addr:neighbourhood": "G\u00fcvenevler Mahallesi", "addr:postcode": "33110", "addr:street": "20. Cadde Palm Ofis", "amenity": "restaurant", "check_date": "2024-12-30", "check_date:currency:XBT": "2024-02-03", "cuisine": "italian;pizza;burger;cake", "currency:XBT": "no", "name": "Caffe Italia", "payment:lightning": "no", "payment:lightning_contactless": "no", "payment:onchain": "no", "phone": "+90 505 678 88 88", "survey:date": "2023-04-11", "website": "https://www.instagram.com/caffeitalia.tr/"}}, {"type": "node", "id": 10992018406, "lat": 36.7583577, "lon": 34.5491294, "tags": {"amenity": "restaurant", "name": "A\u015fina Makam"}}, {"type": "node", "id": 11114844707, "lat": 36.7992014, "lon": 34.6279856, "tags": {"amenity": "restaurant", "name": "Rest mersin"}}, {"type": "node", "id": 11212658038, "lat": 36.7573376, "lon": 34.5417891, "tags": {"addr:housenumber": "680", "addr:street": "Gazi Mustafa Kemal Bulvar\u0131", "amenity": "cafe", "brand": "Starbucks", "brand:wikidata": "Q37158", "cuisine": "coffee_shop", "name": "Starbucks", "official_name": "Starbucks Coffee", "opening_hours": "Mo-Su 07:00-23:00", "outdoor_seating": "no", "shop": "coffee", "takeaway": "yes"}}, {"type": "node", "id": 11220054670, "lat": 36.8084839, "lon": 34.6324309, "tags": {"addr:city": "Mersin", "addr:district": "Akdeniz", "addr:neighbourhood": "Yeni Mahalle", "addr:street": "Fasih Kayabal\u0131 Caddesi", "amenity": "cafe", "name": "Erkenekliler Derne\u011fi ve Lokali"}}, {"type": "node", "id": 11221995027, "lat": 36.8072723, "lon": 34.6281089, "tags": {"amenity": "restaurant", "name": "Be\u015fyol Tantuni"}}, {"type": "node", "id": 11250661177, "lat": 36.7785753, "lon": 34.5903493, "tags": {"addr:city": "Mersin", "addr:district": "Yeni\u015fehir", "addr:street": "Adnan Menderes Bulvar\u0131", "amenity": "cafe", "name": "Bizden Kafe"}}, {"type": "node", "id": 11257571129, "lat": 36.8066918, "lon": 34.6285819, "tags": {"addr:city": "Mersin", "addr:district": "Akdeniz", "addr:street": "\u00c7akmak Caddesi", "amenity": "restaurant", "cuisine": "tantuni", "name": "Flash Tantuni"}}, {"type": "node", "id": 11257575670, "lat": 36.8072008, "lon": 34.6284719, "tags": {"addr:city": "Mersin", "addr:district": "Akdeniz", "addr:street": "\u00c7akmak Caddesi", "amenity": "restaurant", "cuisine": "\u00e7orba", "name": "Bolkep\u00e7e Lokantas\u0131"}}, {"type": "node", "id": 11271160476, "lat": 36.807798, "lon": 34.6670239, "tags": {"amenity": "cafe"}}, {"type": "node", "id": 11273975386, "lat": 36.8024596, "lon": 34.6322806, "tags": {"addr:city": "Mersin", "addr:district": "Akdeniz", "addr:neighbourhood": "Cami\u015ferif Mahallesi", "addr:street": "\u00c7akmak Caddesi", "amenity": "restaurant", "name": "K\u00fc\u00e7\u00fcksaat Kebap\u00e7\u0131s\u0131"}}, {"type": "node", "id": 11309097940, "lat": 36.8016176, "lon": 34.632277, "tags": {"addr:city": "Mersin", "addr:district": "Akdeniz", "addr:street": "\u0130stiklal Caddesi", "amenity": "restaurant", "name": "\u015eahin Tantuni"}}, {"type": "node", "id": 11309132571, "lat": 36.7989563, "lon": 34.629856, "tags": {"addr:city": "Mersin", "addr:district": "Akdeniz", "addr:street": "5226. Sokak", "amenity": "restaurant", "cuisine": "turkish", "name": "G\u00fclnar Oteli Mersin Gastronomi Kona\u011f\u0131"}}, {"type": "node", "id": 11328719155, "lat": 36.7706339, "lon": 34.5689717, "tags": {"addr:city": "Mersin", "addr:district": "Yeni\u015fehir", "addr:street": "Mersin Marina", "amenity": "cafe", "brand": "Kahve D\u00fcnyas\u0131", "brand:wikidata": "Q28008050", "cuisine": "coffee_shop", "name": "Kahve D\u00fcnyas\u0131", "outdoor_seating": "yes", "takeaway": "yes"}}, {"type": "node", "id": 11328791246, "lat": 36.8070002, "lon": 34.6295397, "tags": {"addr:city": "Mersin", "addr:district": "Akdeniz", "addr:street": "Fasih Kayabal\u0131 Caddesi", "amenity": "restaurant", "name": "Al Tayyeb Falafel"}}, {"type": "node", "id": 11345888999, "lat": 36.7841092, "lon": 34.5959915, "tags": {"addr:city": "Mersin", "addr:district": "Yeni\u015fehir", "addr:street": "18. Cadde", "amenity": "restaurant", "name": "Yasin Usta Tantuni"}}, {"type": "node", "id": 11932745191, "lat": 36.8011449, "lon": 34.6319964, "tags": {"addr:housenumber": "19", "addr:postcode": "33060", "addr:street": "\u0130stiklal Caddesi", "amenity": "restaurant", "cuisine": "japanese", "name": "Rolik sushi Mersin", "opening_hours": "Su-Sa 12:00-21:45", "phone": "+90 505 533 52 33", "website": "https://mersin.roliksushi.com/"}}, {"type": "node", "id": 11941828755, "lat": 36.785038, "lon": 34.5405536, "tags": {"addr:city": "Mersin", "addr:district": "Yeni\u015fehir", "addr:neighbourhood": "\u00c7iftlikk\u00f6y", "addr:street": "Mimar Sinan Caddesi", "amenity": "cafe", "brand": "Starbucks", "brand:wikidata": "Q37158", "cuisine": "coffee_shop", "name": "Starbucks", "official_name": "Starbucks Coffee", "takeaway": "yes"}}, {"type": "node", "id": 11953294069, "lat": 36.8165193, "lon": 34.6397107, "tags": {"addr:city": "Mersin", "addr:district": "Akdeniz", "addr:street": "106. Cadde", "amenity": "restaurant", "name": "Bacanaklar Tantuni"}}, {"type": "node", "id": 11955095238, "lat": 36.789715, "lon": 34.6169802, "tags": {"addr:city": "Mersin", "addr:district": "Yeni\u015fehir", "addr:neighbourhood": "Hamidiye", "addr:street": "Silifke Caddesi", "amenity": "restaurant", "name": "Murat Tantuni"}}, {"type": "node", "id": 11955266516, "lat": 36.7967113, "lon": 34.6269887, "tags": {"addr:city": "Mersin", "addr:district": "Akdeniz", "addr:street": "Silifke Caddesi", "amenity": "restaurant", "name": "Yaprak Tantuni"}}, {"type": "node", "id": 11973759869, "lat": 36.7912047, "lon": 34.6241739, "tags": {"addr:street": "\u0130smet \u0130n\u00f6n\u00fc Bulvar\u0131", "amenity": "cafe", "name": "B\u00fcy\u00fck\u015fehir Belediye Kafe"}}, {"type": "node", "id": 11980651471, "lat": 36.7877102, "lon": 34.6127476, "tags": {"addr:street": "Silifke Caddesi", "amenity": "cafe", "name": "Y\u00fcr\u00fc K\u00fcnefe"}}, {"type": "node", "id": 12130250951, "lat": 36.8577313, "lon": 34.6089728, "tags": {"amenity": "cafe"}}, {"type": "node", "id": 12171614939, "lat": 36.858375, "lon": 34.6098082}, {"type": "node", "id": 12171614940, "lat": 36.8583673, "lon": 34.6099152}, {"type": "node", "id": 12171614941, "lat": 36.858067, "lon": 34.6098814}, {"type": "node", "id": 12171614942, "lat": 36.8580747, "lon": 34.6097743}, {"type": "node", "id": 12211137551, "lat": 36.8035439, "lon": 34.6319469, "tags": {"addr:city": "Mersin", "addr:district": "Akdeniz", "addr:neighbourhood": "Yeni Mahalle", "addr:street": "\u00c7akmak Caddesi", "amenity": "cafe", "name": "Loba Coffee & Bakery"}}, {"type": "node", "id": 12291661575, "lat": 36.6943775, "lon": 34.4542634}, {"type": "node", "id": 12291661576, "lat": 36.6944895, "lon": 34.4544089}, {"type": "node", "id": 12291661577, "lat": 36.6943044, "lon": 34.4545883}, {"type": "node", "id": 12291661578, "lat": 36.6941941, "lon": 34.4544313}, {"type": "node", "id": 12529377005, "lat": 36.8624208, "lon": 34.5657689, "tags": {"addr:city": "Mersin", "addr:district": "Toroslar", "addr:housenumber": "119/31", "addr:neighbourhood": "\u00e7opurlu", "addr:postcode": "33250", "addr:street": "Merkez Sk", "amenity": "restaurant", "cuisine": "kebab", "name": "Bayram-Et Mersin", "opening_hours": "Mo-Su 08:00-00:00", "organic": "yes", "outdoor_seating": "yes", "phone": "0531 738 83 33", "reservation": "yes", "website": "https://www.bayramet.com.tr/"}}, {"type": "node", "id": 12786237261, "lat": 36.7747961, "lon": 34.5716891, "tags": {"addr:city": "Mersin", "addr:district": "Yeni\u015fehir", "addr:housenumber": "1B", "addr:neighbourhood": "Barbaros Mahallesi", "addr:postcode": "33160", "addr:street": "2188 Sk.", "amenity": "cafe", "cuisine": "coffee_shop", "internet_access": "wlan", "internet_access:fee": "no", "name": "K\u00fcfi Coffee", "opening_hours": "Mo-Su 09:00-21:00", "outdoor_seating": "yes", "phone": "0541 602 30 26", "website": "https://kuficoffeefood.com/"}}, {"type": "node", "id": 12886584240, "lat": 36.766657, "lon": 34.5554264, "tags": {"addr:city": "Mersin", "addr:district": "Yeni\u015fehir", "addr:housenumber": "612", "addr:neighbourhood": "Akkent", "addr:postcode": "33160", "addr:street": "Gazi Mustafa Kemal Bulvar\u0131", "amenity": "restaurant", "cuisine": "seafood", "diet:fish": "yes", "diet:meat": "yes", "diet:seafood": "yes", "name": "Seine Restaurant", "phone": "+90 324 356 11 00", "website": "https://www.instagram.com/seinerestaurant"}}, {"type": "way", "id": 363807899, "nodes": [3679362472, 3679362473, 3679362474, 3679362475, 3679362476, 3679362477, 3679362478, 3679362479, 3679362472], "tags": {"amenity": "restaurant", "building": "yes"}}, {"type": "way", "id": 522132026, "nodes": [5086103148, 5086103149, 5086103150, 5086103151, 5086103148], "tags": {"addr:city": "Mersin", "addr:district": "Yeni\u015fehir", "addr:housenumber": "8/B", "addr:neighbourhood": "G\u00fcvenevler Mah", "addr:postcode": "33140", "addr:street": "1914 Sokak", "amenity": "cafe", "building": "yes", "cuisine": "burger;dessert;salad;pasta;coffee_shop;sandwich;french;chicken;mediterranean", "internet_access": "yes", "internet_access:fee": "no", "name": "Caffe dei Fiori", "opening_hours": "Mo-Su 10:00-22:00", "outdoor_seating": "yes", "phone": "05389540213", "website": "caffedeifiori.com.tr"}}, {"type": "way", "id": 751226624, "nodes": [7023102093, 7023102094, 7023102095, 7023102096, 7023102093], "tags": {"amenity": "cafe", "building": "yes", "name": "Kiremithane K\u0131raathanesi"}}, {"type": "way", "id": 1005846699, "nodes": [9280402225, 9280402226, 9280402227, 9280402228, 9280402225], "tags": {"addr:city": "Mersin", "addr:housenumber": "20", "addr:street": "49364 sok.", "amenity": "restaurant", "building": "yes", "name": "Mangal Restoran", "website": "https://mangal.com.tr"}}, {"type": "way", "id": 1008275199, "nodes": [9301888715, 9301888716, 9301930017, 9301930018, 9301888715], "tags": {"addr:city": "Mersin", "amenity": "restaurant", "building": "yes", "name": "Lezzet Dura\u011f\u0131 Ahmet Usta"}}, {"type": "way", "id": 1008852453, "nodes": [9308398671, 9308398672, 9308398673, 9308398674, 9308398671], "tags": {"addr:city": "Mersin", "amenity": "restaurant", "building": "yes", "cuisine": "seafood;fish_and_chips", "name": "S\u00f6\u011f\u00fctl\u00fcp\u0131nar Bal\u0131k Restaurant"}}, {"type": "way", "id": 1008852454, "nodes": [9308398677, 9308398678, 9308398679, 9308398680, 9308398677], "tags": {"addr:city": "Mersin", "amenity": "restaurant", "building": "yes", "name": "Hasan Reis bal\u0131k restoran"}}, {"type": "way", "id": 1031306598, "nodes": [9505156851, 9505156852, 9505156853, 9505156854, 9505156851], "tags": {"addr:city": "Mersin", "amenity": "cafe", "building": "yes", "name": "Corner Cafe pub"}}, {"type": "way", "id": 1105759132, "nodes": [10118505446, 10118505449, 10118505450, 10118505447, 10118505446], "tags": {"addr:city": "Mersin", "addr:district": "Yeni\u015fehir", "addr:neighbourhood": "H\u00fcrriyet Mahallesi", "amenity": "restaurant", "building": "yes", "cuisine": "regional", "name": "Zeki Usta Kebap Mersin \u015eubesi"}}, {"type": "way", "id": 1105759133, "nodes": [10118505450, 10118505451, 10118505452, 10118505447, 10118505450], "tags": {"addr:city": "Mersin", "addr:district": "Yeni\u015fehir", "addr:neighbourhood": "H\u00fcrriyet Mahallesi", "amenity": "restaurant", "building": "yes", "name": "\u015eehri Antep"}}, {"type": "way", "id": 1315030639, "nodes": [12171614939, 12171614940, 12171614941, 12171614942, 12171614939], "tags": {"addr:city": "Mersin", "addr:district": "Toroslar", "addr:street": "Mersin \u015eehir Hastanesi Sa\u011fl\u0131k Kompleksi", "amenity": "cafe", "building": "yes", "name": "F Kafe"}}, {"type": "way", "id": 1328548923, "nodes": [12291661575, 12291661576, 12291661577, 12291661578, 12291661575], "tags": {"addr:city": "Mersin", "amenity": "restaurant", "building": "yes", "cuisine": "seafood;fish_and_chips", "name": "Bal\u0131k Restaurant"}}]}