{"version": 0.6, "generator": "Overpass API 0.7.62.7 375dc00a", "osm3s": {"timestamp_osm_base": "2025-06-14T13:53:29Z", "copyright": "The data included in this document is from www.openstreetmap.org. The data is made available under ODbL."}, "elements": [{"type": "node", "id": 371217702, "lat": 32.4990241, "lon": 14.4510159, "tags": {"amenity": "restaurant", "highway": "rest_area", "name": "\u0627\u0633\u062a\u0631\u0627\u062d\u0629 \u0627\u0644\u0634\u062c\u0631\u0629", "name:ar": "\u0627\u0633\u062a\u0631\u0627\u062d\u0629 \u0627\u0644\u0634\u062c\u0631\u0629"}}, {"type": "node", "id": 976868536, "lat": 32.6512904, "lon": 14.2701504, "tags": {"amenity": "cafe"}}, {"type": "node", "id": 3194281861, "lat": 32.6521457, "lon": 14.2665762, "tags": {"addr:city": "\u0627\u0644\u062e\u0645\u0633", "addr:postcode": "053", "addr:street": "\u0634\u0627\u0631\u0639 \u0627\u0644\u0641\u0627\u062a\u062d \u0633\u0627\u0628\u0642\u0627", "amenity": "cafe", "cuisine": "regional", "name": "\u0645\u0642\u0647\u0649 \u0643\u0644 \u0627\u0644\u0639\u0631\u0628", "name:ar": "\u0645\u0642\u0647\u0649 \u0643\u0644 \u0627\u0644\u0639\u0631\u0628", "name:en": "Kull Al arab cafe"}}, {"type": "node", "id": 3194364010, "lat": 32.650391, "lon": 14.268154, "tags": {"addr:city": "\u0627\u0644\u062e\u0645\u0633", "amenity": "restaurant", "capacity": "15", "name": "\u0645\u0637\u0639\u0645 \u0633\u0648\u064a\u0644\u0645", "name:ar": "\u0645\u0637\u0639\u0645 \u0633\u0648\u064a\u0644\u0645", "name:en": "Restaurant"}}, {"type": "node", "id": 3217426061, "lat": 32.6445868, "lon": 14.2439309, "tags": {"addr:housenumber": "944115915", "addr:street": "\u0637\u0631\u064a\u0642 \u0627\u0644\u062c\u0627\u0645\u0639\u0629 - \u0627\u0644\u0631\u064a\u0627\u0636\u064a\u0629", "amenity": "cafe", "name": "\u0645\u0642\u0647\u0649", "name:ar": "\u0645\u0643\u062a\u0628 \u0645\u062a\u0641\u0648\u0642\u0648\u0646 \u0644\u0644\u0627\u0633\u062a\u0634\u0627\u0631\u0627\u062a \u0627\u0644\u0647\u0646\u062f\u0633\u064a\u0647 \u0648\u0627\u0644\u0641\u0646\u064a\u0629 \u0648\u0645\u0639\u0627\u0644\u062c\u0647 \u0645\u0634\u0627\u0643\u0644 \u0627\u0644\u0631\u0637\u0648\u0628\u0629", "name:en": "Engineering office", "phone": "0944115915"}}, {"type": "node", "id": 3710860548, "lat": 32.4721416, "lon": 14.5679592, "tags": {"amenity": "restaurant", "name": "\u0645\u0637\u0639\u0645 \u0628\u064a\u0631\u0648\u062a", "name:ar": "\u0645\u0637\u0639\u0645 \u0628\u064a\u0631\u0648\u062a"}}, {"type": "node", "id": 3710860561, "lat": 32.4695809, "lon": 14.5665819, "tags": {"amenity": "cafe", "name": "\u0642\u0647\u0648\u0629 \u0639\u0632\u064a\u0632", "name:ar": "\u0642\u0647\u0648\u0629 \u0639\u0632\u064a\u0632", "name:en": "Aziz Cafe"}}, {"type": "node", "id": 3711313250, "lat": 32.6347541, "lon": 14.2872409}, {"type": "node", "id": 3711313252, "lat": 32.6347907, "lon": 14.2870724}, {"type": "node", "id": 3711313253, "lat": 32.6348402, "lon": 14.2871236}, {"type": "node", "id": 3759804136, "lat": 32.474227, "lon": 14.5696718}, {"type": "node", "id": 3759804137, "lat": 32.4741575, "lon": 14.5697319}, {"type": "node", "id": 3759804138, "lat": 32.4740346, "lon": 14.5695514}, {"type": "node", "id": 3759804139, "lat": 32.4741014, "lon": 14.5694595}, {"type": "node", "id": 4147091590, "lat": 32.4641981, "lon": 14.5250595, "tags": {"amenity": "cafe", "internet_access": "wlan", "name": "\u0645\u0642\u0647\u0649 \u0627\u0644\u0647\u0648\u0631\u062f\u0633", "name:ar": "\u0645\u0642\u0647\u0649 \u0627\u0644\u0647\u0648\u0631\u062f\u0633", "name:en": "Hordes Cafe", "opening_hours": "Mo-Su 09:00-24:00"}}, {"type": "node", "id": 4236986156, "lat": 32.6505547, "lon": 14.2684292, "tags": {"amenity": "restaurant"}}, {"type": "node", "id": 4236986164, "lat": 32.6500809, "lon": 14.269188, "tags": {"amenity": "cafe"}}, {"type": "node", "id": 4421641289, "lat": 32.6550124, "lon": 14.2720938, "tags": {"addr:street": "\u0627\u0644\u0637\u0631\u064a\u0642 \u0627\u0644\u0633\u0627\u062d\u0644\u064a", "amenity": "restaurant", "cuisine": "breakfast;sandwich", "name": "\u0645\u0637\u0639\u0645 \u0645\u0641\u0631\u0648\u0645 \u0627\u0644\u062e\u0645\u0633", "name:ar": "\u0645\u0637\u0639\u0645 \u0645\u0641\u0631\u0648\u0645 \u0627\u0644\u062e\u0645\u0633", "name:en": "Snack"}}, {"type": "node", "id": 4440123192, "lat": 32.642461, "lon": 14.277818, "tags": {"amenity": "cafe"}}, {"type": "node", "id": 4481359190, "lat": 32.6808655, "lon": 14.1082494, "tags": {"addr:street": "\u0637\u0631\u064a\u0642 \u0627\u0644\u0633\u0627\u062d\u0644\u064a", "amenity": "restaurant", "name": "\u0645\u0637\u0639\u0645 \u0627\u0644\u0642\u0631\u064a\u0629", "name:ar": "\u0645\u0637\u0639\u0645 \u0627\u0644\u0642\u0631\u064a\u0629", "name:en": "alcrea"}}, {"type": "node", "id": 4485283992, "lat": 32.643507, "lon": 14.247828, "tags": {"amenity": "cafe", "internet_access": "wlan", "name": "\u0627\u0644\u0633\u0644\u0641\u064a\u0648\u0645", "name:ar": "\u0627\u0644\u0633\u0644\u0641\u064a\u0648\u0645", "name:en": "Silviom Cafe"}}, {"type": "node", "id": 4505420789, "lat": 32.5756894, "lon": 14.3382667, "tags": {"addr:street": "\u0627\u0644\u0637\u0631\u064a\u0642 \u0627\u0644\u0633\u0627\u062d\u0644\u064a", "amenity": "restaurant", "name": "\u0627\u0633\u062a\u0631\u0627\u062d\u0629 \u0627\u0644\u0627\u062c\u0648\u0627\u062f \u0644\u0644\u0645\u0634\u0627\u0648\u064a \u0648\u0627\u0644\u0648\u062c\u0628\u0627\u062a \u0627\u0644\u0634\u0639\u0628\u064a\u0629", "name:ar": "\u0627\u0633\u062a\u0631\u0627\u062d\u0629 \u0627\u0644\u0627\u062c\u0648\u0627\u062f \u0644\u0644\u0645\u0634\u0627\u0648\u064a \u0648\u0627\u0644\u0648\u062c\u0628\u0627\u062a \u0627\u0644\u0634\u0639\u0628\u064a\u0629", "name:en": "Grill And Libyan Food", "opening_hours": "24/7"}}, {"type": "node", "id": 4520262589, "lat": 32.6503675, "lon": 14.2688661, "tags": {"addr:street": "\u0645\u064a\u062f\u0627\u0646 \u062c\u0645\u0627\u0644 \u0639\u0628\u062f \u0627\u0644\u0646\u0627\u0635\u0631", "amenity": "cafe", "name": "\u0643\u0627\u0641\u064a \u0645\u0648\u0646\u062f\u0648", "name:ar": "\u0643\u0627\u0641\u064a \u0645\u0648\u0646\u062f\u0648", "name:en": "IL Mondo Cafe"}}, {"type": "node", "id": 4530322192, "lat": 32.4675104, "lon": 14.5644716, "tags": {"amenity": "cafe", "cuisine": "breakfast;coffee_shop", "name": "\u0645\u0642\u0647\u0649 \u0627\u0644\u0644\u064a\u0628\u064a\u0629", "name:ar": "\u0645\u0642\u0647\u0649 \u0627\u0644\u0644\u064a\u0628\u064a\u0629", "name:en": "Allibya caf\u00e9"}}, {"type": "node", "id": 4611377494, "lat": 32.6881282, "lon": 14.0992617, "tags": {"amenity": "restaurant", "name": "\u0627\u0633\u062a\u0631\u0627\u062d\u0629 \u0627\u0644\u0646\u0642\u0627\u0632\u0629", "name:ar": "\u0627\u0633\u062a\u0631\u0627\u062d\u0629 \u0627\u0644\u0646\u0642\u0627\u0632\u0629"}}, {"type": "node", "id": 4616707589, "lat": 32.6375926, "lon": 14.2376986, "tags": {"addr:street": "\u0637\u0631\u064a\u0642 \u0627\u0644\u062c\u0627\u0645\u0639\u0629 - \u0627\u0644\u0631\u064a\u0627\u0636\u064a\u0629", "amenity": "cafe", "name": "\u0627\u0644\u0641\u0648\u0627\u0646\u064a\u0633", "name:ar": "\u0627\u0644\u0641\u0648\u0627\u0646\u064a\u0633", "name:en": "Cafe"}}, {"type": "node", "id": 4626309789, "lat": 32.6371442, "lon": 14.2808846, "tags": {"addr:street": "Via Trionfale", "amenity": "cafe", "name": "\u0645\u0642\u0647\u0649", "name:ar": "\u0645\u0642\u0647\u0649", "name:en": "Cafe"}}, {"type": "node", "id": 4626310589, "lat": 32.6347393, "lon": 14.2877352, "tags": {"addr:street": "Via Trionfale", "amenity": "cafe", "cuisine": "tea;sandwich;cake;breakfast", "name": "\u0646\u062c\u064a\u0628", "name:ar": "\u0646\u062c\u064a\u0628"}}, {"type": "node", "id": 4626310590, "lat": 32.6339133, "lon": 14.2760606, "tags": {"addr:street": "\u0637\u0631\u064a\u0642 \u0627\u0644\u0646\u0647\u0631 \u0627\u0644\u0635\u0646\u0627\u0639\u064a", "amenity": "restaurant", "name": "\u0641\u0631\u0627\u062f\u064a \u0645\u0641\u0631\u0648\u0645", "name:ar": "\u0641\u0631\u0627\u062f\u064a \u0645\u0641\u0631\u0648\u0645", "name:en": "Snack"}}, {"type": "node", "id": 4626310591, "lat": 32.6770162, "lon": 14.111857, "tags": {"addr:street": "\u0637\u0631\u064a\u0642 \u0627\u0644\u0633\u0627\u062d\u0644\u064a \u0627\u0644\u062e\u0645\u0633", "amenity": "cafe", "name": "\u0627\u0644\u0634\u0631\u0627\u0631\u0629", "name:ar": "\u0627\u0644\u0634\u0631\u0627\u0631\u0629", "name:en": "Cafe"}}, {"type": "node", "id": 4723293690, "lat": 32.5858558, "lon": 14.3571267, "tags": {"amenity": "cafe", "name": "\u0645\u0642\u0647\u0649 \u0628\u0644\u064a\u0627\u0631\u062f\u0648 \u0627\u0644\u062a\u0631\u0627\u062b", "name:ar": "\u0645\u0642\u0647\u0649 \u0628\u0644\u064a\u0627\u0631\u062f\u0648 \u0627\u0644\u062a\u0631\u0627\u062b"}}, {"type": "node", "id": 4741828735, "lat": 32.4659283, "lon": 14.5730488, "tags": {"amenity": "cafe", "name": "\u0645\u0642\u0647\u0649 \u0627\u0644\u0633\u0627\u062d\u0644\u064a \u0644\u0644\u0643\u0627\u0641\u064a \u0648 \u0627\u0644\u0628\u0631\u064a\u0648\u0634", "name:ar": "\u0645\u0642\u0647\u0649 \u0627\u0644\u0633\u0627\u062d\u0644\u064a \u0644\u0644\u0643\u0627\u0641\u064a \u0648 \u0627\u0644\u0628\u0631\u064a\u0648\u0634", "name:en": "Cafe Sahile"}}, {"type": "node", "id": 4748640722, "lat": 32.6347047, "lon": 14.2871897}, {"type": "node", "id": 4755016329, "lat": 32.6478834, "lon": 14.1404719, "tags": {"amenity": "restaurant", "name": "\u0645\u0637\u0639\u0645 \u0627\u0644\u0646\u062c\u0639", "name:ar": "\u0645\u0637\u0639\u0645 \u0627\u0644\u0646\u062c\u0639", "name:en": "Al Najaa Restaurant"}}, {"type": "node", "id": 4755031925, "lat": 32.6482414, "lon": 14.1402612, "tags": {"amenity": "restaurant", "name": "\u0645\u0637\u0639\u0645 \u0627\u0644\u0642\u0644\u0639\u0629", "name:ar": "\u0645\u0637\u0639\u0645 \u0627\u0644\u0642\u0644\u0639\u0629", "name:en": "Castle Restaurant"}}, {"type": "node", "id": 4755035926, "lat": 32.4986567, "lon": 14.4528651, "tags": {"amenity": "restaurant", "name": "\u0645\u0637\u0639\u0645 \u0645\u0634\u0648\u064a\u0627\u062a", "name:ar": "\u0645\u0637\u0639\u0645 \u0645\u0634\u0648\u064a\u0627\u062a"}}, {"type": "node", "id": 4762498341, "lat": 32.4813386, "lon": 14.4937709, "tags": {"amenity": "cafe", "name": "\u0645\u0642\u0647\u0649", "name:ar": "\u0645\u0642\u0647\u0649", "name:en": "Cafe"}}, {"type": "node", "id": 4943202022, "lat": 32.4726601, "lon": 14.5681211, "tags": {"addr:street": "\u0634\u0627\u0631\u0639 \u0633\u0645\u064a\u0648", "amenity": "cafe", "name": "\u0627\u0633\u062a\u0627\u0631\u0643\u0648 \u0644\u0644\u0639\u0635\u0627\u0626\u0631 \u0627\u0644\u0637\u0628\u064a\u0639\u064a\u0629 \u0648\u0627\u0644\u0627\u0641\u0637\u0627\u0631 \u0627\u0644\u0635\u0628\u0627\u062d\u064a", "name:ar": "\u0627\u0633\u062a\u0627\u0631\u0643\u0648 \u0644\u0644\u0639\u0635\u0627\u0626\u0631 \u0627\u0644\u0637\u0628\u064a\u0639\u064a\u0629 \u0648\u0627\u0644\u0627\u0641\u0637\u0627\u0631 \u0627\u0644\u0635\u0628\u0627\u062d\u064a", "name:en": "Starco natural juices", "opening_hours": "Mo-Su 10:00-02:00", "phone": "0928389060"}}, {"type": "node", "id": 4959229905, "lat": 32.6528396, "lon": 14.2643708, "tags": {"amenity": "cafe", "name": "\u0645\u0642\u0647\u0649 \u0627\u0644\u0633\u0628\u064a\u0627\u062f\u062c\u0627", "name:ar": "\u0645\u0642\u0647\u0649 \u0627\u0644\u0633\u0628\u064a\u0627\u062f\u062c\u0627", "name:en": "Spiaggia Cafe"}}, {"type": "node", "id": 4959230931, "lat": 32.6535199, "lon": 14.2637446, "tags": {"amenity": "cafe", "name": "Rancelio"}}, {"type": "node", "id": 4994464924, "lat": 32.4664079, "lon": 14.5636055, "tags": {"amenity": "cafe", "internet_access": "wlan", "name": "\u0645\u0642\u0647\u0649 \u0642\u0648\u0631\u064a\u0646\u0627", "name:ar": "\u0645\u0642\u0647\u0649 \u0642\u0648\u0631\u064a\u0646\u0627", "name:en": "Qurina caffe"}}, {"type": "node", "id": 4994482321, "lat": 32.4657188, "lon": 14.5627761, "tags": {"amenity": "cafe", "internet_access": "wlan", "name": "\u0645\u0642\u0647\u0649 \u0627\u0644\u0647\u0644\u0627\u0644", "name:ar": "\u0645\u0642\u0647\u0649 \u0627\u0644\u0647\u0644\u0627\u0644", "name:en": "Alhelal Cafe"}}, {"type": "node", "id": 4994550621, "lat": 32.5224462, "lon": 14.445457, "tags": {"amenity": "restaurant", "name": "\u0627\u0633\u062a\u0631\u0627\u062d\u0629 \u0648\u0645\u06a8\u0647\u0649 \u0627\u0644\u0648\u0627\u062f\u064a", "name:ar": "\u0627\u0633\u062a\u0631\u0627\u062d\u0629 \u0648\u0645\u06a8\u0647\u0649 \u0627\u0644\u0648\u0627\u062f\u064a", "name:en": "Kaam vally restaurant"}}, {"type": "node", "id": 5148613625, "lat": 32.4700884, "lon": 14.5670263, "tags": {"amenity": "cafe", "name": "\u0642\u0647\u0648\u0629 \u0639\u0628\u062f\u0627\u0644\u062c\u0628\u0627\u0631", "name:ar": "\u0642\u0647\u0648\u0629 \u0639\u0628\u062f\u0627\u0644\u062c\u0628\u0627\u0631", "name:en": "Abduljabbar Cafe"}}, {"type": "node", "id": 5363036724, "lat": 32.4709293, "lon": 14.5658524, "tags": {"amenity": "cafe", "name": "\u0645\u0642\u0647\u0649 \u0627\u0644\u0631\u0627\u0628\u064a\u0629", "name:ar": "\u0645\u0642\u0647\u0649 \u0627\u0644\u0631\u0627\u0628\u064a\u0629"}}, {"type": "node", "id": 5417243222, "lat": 32.6508877, "lon": 14.269323, "tags": {"addr:street": "\u0645\u064a\u062f\u0627\u0646 \u062c\u0645\u0627\u0644 \u0639\u0628\u062f \u0627\u0644\u0646\u0627\u0635\u0631", "amenity": "cafe", "name": "\u0627\u0644\u0628\u0631\u064a\u062f", "name:ar": "\u0627\u0644\u0628\u0631\u064a\u062f"}}, {"type": "node", "id": 5433784322, "lat": 32.4706914, "lon": 14.5661385, "tags": {"amenity": "cafe", "name": "\u0643\u0627\u0641\u064a \u0645\u062d\u0633\u0646", "name:ar": "\u0643\u0627\u0641\u064a \u0645\u062d\u0633\u0646", "name:en": "Mohsen caffe"}}, {"type": "node", "id": 5490836824, "lat": 32.6376592, "lon": 14.2822576, "tags": {"amenity": "restaurant", "internet_access": "wlan", "name": "\u0645\u0642\u0647\u0649 \u0627\u0644\u0646\u0639\u0627\u0633", "name:ar": "\u0645\u0642\u0647\u0649 \u0627\u0644\u0646\u0639\u0627\u0633", "name:en": "Annas coffee", "opening_hours": "Sa-Th 09:00-20:00"}}, {"type": "node", "id": 5576734721, "lat": 32.6486064, "lon": 14.1400854, "tags": {"amenity": "restaurant", "name": "\u0645\u0637\u0639\u0645 \u0627\u0644\u062e\u064a\u0645\u0629", "name:ar": "\u0645\u0637\u0639\u0645 \u0627\u0644\u062e\u064a\u0645\u0629", "name:en": "Restaurant"}}, {"type": "node", "id": 5908053987, "lat": 32.525527, "lon": 14.4472382, "tags": {"amenity": "cafe", "name": "\u0645\u0642\u0647\u0649 \u0648\u0627\u062f\u064a \u0643\u0639\u0627\u0645 \u0644\u0644\u0642\u0647\u0648\u0647 \u0627\u0644\u0639\u0631\u0628\u064a\u0629 \u0648\u0627\u0644\u0633\u0646\u062f\u0648\u062a\u0634\u0627\u062a", "name:ar": "\u0645\u0642\u0647\u0649 \u0648\u0627\u062f\u064a \u0643\u0639\u0627\u0645 \u0644\u0644\u0642\u0647\u0648\u0647 \u0627\u0644\u0639\u0631\u0628\u064a\u0629 \u0648\u0627\u0644\u0633\u0646\u062f\u0648\u062a\u0634\u0627\u062a", "name:en": "Cafe"}}, {"type": "node", "id": 5935524587, "lat": 32.6405303, "lon": 14.2427224, "tags": {"addr:street": "\u0637\u0631\u064a\u0642 \u0627\u0644\u0646\u0647\u0631 \u0627\u0644\u0635\u0646\u0627\u0639\u064a", "amenity": "cafe", "name": "\u0643\u0627\u0641\u064a", "name:ar": "\u0643\u0627\u0641\u064a", "name:en": "Cafe"}}, {"type": "node", "id": 5983922485, "lat": 32.4707088, "lon": 14.5649865, "tags": {"amenity": "cafe", "name": "\u0627\u0644\u0631\u0627\u0628\u064a\u0629", "name:ar": "\u0627\u0644\u0631\u0627\u0628\u064a\u0629", "name:en": "Al rabia"}}, {"type": "node", "id": 6075530287, "lat": 32.4699942, "lon": 14.5631211, "tags": {"amenity": "cafe", "name": "\u0645\u0642\u0647\u0649 \u0631\u064a\u0644\u0627\u0643\u0633", "name:ar": "\u0645\u0642\u0647\u0649 \u0631\u064a\u0644\u0627\u0643\u0633"}}, {"type": "node", "id": 6090683585, "lat": 32.4593979, "lon": 14.5572934, "tags": {"amenity": "cafe", "internet_access": "wlan", "name": "\u0645\u0642\u0647\u0649 \u0628\u0631\u0644\u064a\u0646", "name:ar": "\u0645\u0642\u0647\u0649 \u0628\u0631\u0644\u064a\u0646", "name:en": "Berlin Cafe", "opening_hours": "Mo-Su 07:00-23:55"}}, {"type": "node", "id": 6367165086, "lat": 32.4680571, "lon": 14.5726519, "tags": {"amenity": "restaurant", "name": "\u0645\u0637\u0639\u0645 \u0647\u0627\u0648\u0627\u064a", "name:ar": "\u0645\u0637\u0639\u0645 \u0647\u0627\u0648\u0627\u064a", "name:en": "HAWAI Resturant"}}, {"type": "node", "id": 6370532585, "lat": 32.4830552, "lon": 14.5666804, "tags": {"addr:street": "\u0634\u0627\u0631\u0639 \u0627\u0644\u0628\u0627\u0632\u0629", "amenity": "restaurant", "cuisine": "barbecue;chicken;pizza;fish;fish_and_chips;sandwich;kebab;grill", "name": "\u0645\u0637\u0639\u0645 \u0627\u0631\u0636 \u0627\u0644\u0637\u0639\u0627\u0645", "name:ar": "\u0645\u0637\u0639\u0645 \u0627\u0631\u0636 \u0627\u0644\u0637\u0639\u0627\u0645", "name:en": "food land"}}, {"type": "node", "id": 6635814087, "lat": 32.6507432, "lon": 14.2673218, "tags": {"amenity": "cafe", "name": "\u0643\u0627\u0641\u064a \u0627\u0644\u0632\u064a\u0627\u0646\u064a", "name:ar": "\u0643\u0627\u0641\u064a \u0627\u0644\u0632\u064a\u0627\u0646\u064a", "name:en": "Al Zayyane Cafe"}}, {"type": "node", "id": 6635835686, "lat": 32.6527469, "lon": 14.2628108, "tags": {"amenity": "cafe", "name": "\u0643\u0627\u0641\u064a \u0643\u0648\u0633\u062a\u0627", "name:ar": "\u0643\u0627\u0641\u064a \u0643\u0648\u0633\u062a\u0627", "name:en": "Costa Cafe"}}, {"type": "node", "id": 6635851585, "lat": 32.6531041, "lon": 14.2632354, "tags": {"addr:street": "\u0634\u0627\u0631\u0639 \u0637\u0631\u0627\u0628\u0644\u0633", "amenity": "cafe", "name": "Marvella Cafe"}}, {"type": "node", "id": 6638778685, "lat": 32.6322801, "lon": 14.2893398}, {"type": "node", "id": 6638778689, "lat": 32.5504325, "lon": 14.3616119, "tags": {"amenity": "restaurant", "name": "\u0645\u0637\u0639\u0645 \u0627\u0644\u0634\u062c\u0631\u0629", "name:ar": "\u0645\u0637\u0639\u0645 \u0627\u0644\u0634\u062c\u0631\u0629", "name:en": "Tree Restaurant"}}, {"type": "node", "id": 6804310585, "lat": 32.4829287, "lon": 14.5666003, "tags": {"addr:street": "\u0634\u0627\u0631\u0639 \u0627\u0644\u0628\u0627\u0632\u0629", "amenity": "restaurant", "name": "\u0645\u0637\u0639\u0645 \u0627\u0631\u0636 \u0627\u0644\u0637\u0639\u0627\u0645", "name:ar": "\u0645\u0637\u0639\u0645 \u0627\u0631\u0636 \u0627\u0644\u0637\u0639\u0627\u0645", "name:en": "food land", "opening_hours": "Sa-Th 11:45-23:45; Fr 17:00-23:45"}}, {"type": "node", "id": 6828402691, "lat": 32.6810736, "lon": 14.108056, "tags": {"amenity": "cafe", "name": "\u0643\u0627\u0641\u064a \u0627\u0644\u0641\u0646\u062c\u0627\u0646", "name:ar": "\u0643\u0627\u0641\u064a \u0627\u0644\u0641\u0646\u062c\u0627\u0646", "name:en": "Al Finjan Cafe"}}, {"type": "node", "id": 6833540186, "lat": 32.6582546, "lon": 14.2557856, "tags": {"addr:street": "\u0627\u0644\u0628\u0631\u0627\u0639\u0645", "amenity": "cafe", "name:en": "All Day Caf\u00e9"}}, {"type": "node", "id": 6833541885, "lat": 32.6494408, "lon": 14.257458, "tags": {"addr:street": "\u0634\u0627\u0631\u0639 \u0637\u0631\u0627\u0628\u0644\u0633", "amenity": "restaurant", "name:en": "Pizza time"}}, {"type": "node", "id": 7008550788, "lat": 32.4655082, "lon": 14.5636939, "tags": {"amenity": "cafe", "name": "\u0643\u0627\u0641\u064a \u0627\u0644\u0633\u0644\u0637\u0627\u0646 -\u0627\u0631\u0642\u064a\u0644\u0629", "name:ar": "\u0643\u0627\u0641\u064a \u0627\u0644\u0633\u0644\u0637\u0627\u0646 -\u0627\u0631\u0642\u064a\u0644\u0629", "name:en": "Al Sultan Cafe"}}, {"type": "node", "id": 7791903785, "lat": 32.6630883, "lon": 14.2152208, "tags": {"addr:street": "\u0627\u0644\u0646\u0647\u0631 \u0627\u0644\u0635\u0646\u0627\u0639\u064a \u0627\u0644\u0639\u0638\u064a\u0645", "amenity": "restaurant", "name": "\u0632\u0646\u0628\u0631\u0629", "name:ar": "\u0632\u0646\u0628\u0631\u0629", "name:en": "Zonbra"}}, {"type": "node", "id": 7914337842, "lat": 32.46874, "lon": 14.5611183, "tags": {"amenity": "cafe", "name": "\u0645\u0648\u0632\u0627\u0631\u062a \u0632\u0644\u064a\u062a\u0646 Zliten Mozart Catering", "name:ar": "\u0645\u0648\u0632\u0627\u0631\u062a \u0632\u0644\u064a\u062a\u0646", "name:en": "Zliten Mozart Catering"}}, {"type": "node", "id": 8040763721, "lat": 32.488374, "lon": 14.5698956, "tags": {"addr:street": "\u0634\u0627\u0631\u0639 \u0627\u0644\u0645\u0633\u062a\u0634\u0641\u0649", "amenity": "cafe", "internet_access": "wlan", "opening_hours": "24/7"}}, {"type": "node", "id": 8157924617, "lat": 32.4684009, "lon": 14.5703251, "tags": {"addr:housenumber": "0913555500", "addr:street": "\u062c\u0632\u064a\u0631\u0629 9 \u064a\u0648\u0646\u064a\u0648", "amenity": "cafe", "name": "\u0645\u0642\u0647\u064a \u0627\u0644\u0628\u0627\u0631\u064a\u0633\u062a\u0627", "name:en": "Il barista coffee"}}, {"type": "node", "id": 8191049817, "lat": 32.6319604, "lon": 14.2790117, "tags": {"amenity": "restaurant", "name": "\u0645\u0637\u0639\u0645  \u0627\u0644\u064a\u0645\u0627\u0645\u0629"}}, {"type": "node", "id": 8300354681, "lat": 32.6322228, "lon": 14.2892376}, {"type": "node", "id": 8300354682, "lat": 32.6322282, "lon": 14.2892055}, {"type": "node", "id": 8300354683, "lat": 32.6322417, "lon": 14.2891771}, {"type": "node", "id": 8300354684, "lat": 32.632262, "lon": 14.2891549}, {"type": "node", "id": 8300354685, "lat": 32.632287, "lon": 14.2891413}, {"type": "node", "id": 8300354686, "lat": 32.6323143, "lon": 14.2891375}, {"type": "node", "id": 8300354687, "lat": 32.6323413, "lon": 14.289144}, {"type": "node", "id": 8300354688, "lat": 32.6323653, "lon": 14.28916}, {"type": "node", "id": 8300354689, "lat": 32.6323839, "lon": 14.289184}, {"type": "node", "id": 8300354690, "lat": 32.6323986, "lon": 14.2892462}, {"type": "node", "id": 8300354691, "lat": 32.6323932, "lon": 14.2892782}, {"type": "node", "id": 8300354692, "lat": 32.6323797, "lon": 14.2893067}, {"type": "node", "id": 8300354693, "lat": 32.6323594, "lon": 14.2893288}, {"type": "node", "id": 8300354694, "lat": 32.6323344, "lon": 14.2893425}, {"type": "node", "id": 8300354695, "lat": 32.6323071, "lon": 14.2893462}, {"type": "node", "id": 8300354696, "lat": 32.6322561, "lon": 14.2893238}, {"type": "node", "id": 8300354697, "lat": 32.6322375, "lon": 14.2892997}, {"type": "node", "id": 8300354698, "lat": 32.632226, "lon": 14.28927}, {"type": "node", "id": 8300354699, "lat": 32.6323954, "lon": 14.2892137}, {"type": "node", "id": 8633440717, "lat": 32.4426852, "lon": 14.5978879, "tags": {"amenity": "restaurant"}}, {"type": "node", "id": 8820349317, "lat": 32.4704607, "lon": 14.5646343, "tags": {"amenity": "cafe", "name": "\u0645\u0642\u0647\u0649 \u0639\u0628\u062f\u0627\u0644\u0631\u0624\u0648\u0641", "name:en": "Abdurraouf cafe"}}, {"type": "node", "id": 8860793435, "lat": 32.6838234, "lon": 14.1600653, "tags": {"amenity": "cafe"}}, {"type": "node", "id": 8882448166, "lat": 32.5834845, "lon": 14.332372, "tags": {"amenity": "restaurant", "name": "\u0645\u0637\u0639\u0645 \u0627\u0644\u0645\u0639\u0642\u0648\u0644\u0629"}}, {"type": "node", "id": 9907074500, "lat": 32.6838647, "lon": 14.1076142, "tags": {"amenity": "cafe"}}, {"type": "node", "id": 9936899789, "lat": 32.372583, "lon": 14.5884191, "tags": {"amenity": "cafe"}}, {"type": "node", "id": 9937154042, "lat": 32.3875684, "lon": 14.5778427, "tags": {"amenity": "restaurant", "cuisine": "pizza"}}, {"type": "node", "id": 9947259644, "lat": 32.6648501, "lon": 14.1255221, "tags": {"amenity": "restaurant"}}, {"type": "node", "id": 11065519705, "lat": 32.504448, "lon": 14.518528, "tags": {"amenity": "cafe", "name:en": "\u0634\u0637 \u0627\u0644\u0647\u0634\u0645"}}, {"type": "node", "id": 11333388669, "lat": 32.5115898, "lon": 14.4249414, "tags": {"amenity": "cafe", "name": "\u0645\u0642\u0647\u0649 \u062c\u0632\u064a\u0631\u0629 \u0643\u0639\u0627\u0645", "name:en": "Toraldo Caffee"}}, {"type": "node", "id": 11663611227, "lat": 32.3038017, "lon": 14.3996619, "tags": {"amenity": "restaurant", "name": "Trazar restaurant"}}, {"type": "node", "id": 11665454613, "lat": 32.4300856, "lon": 14.5917612}, {"type": "node", "id": 11665454614, "lat": 32.4300423, "lon": 14.5917098}, {"type": "node", "id": 11665454615, "lat": 32.4299832, "lon": 14.5917658}, {"type": "node", "id": 11665454616, "lat": 32.4300383, "lon": 14.5918172}, {"type": "node", "id": 11744716500, "lat": 32.4402333, "lon": 14.6239495}, {"type": "node", "id": 11744716501, "lat": 32.4401826, "lon": 14.6239388}, {"type": "node", "id": 11744716502, "lat": 32.4401363, "lon": 14.6241287}, {"type": "node", "id": 11744716503, "lat": 32.440213, "lon": 14.6241541}, {"type": "node", "id": 11744716504, "lat": 32.4402198, "lon": 14.6240739}, {"type": "way", "id": 367182586, "nodes": [3711313253, 3711313250, 4748640722, 3711313252, 3711313253], "tags": {"addr:street": "Via Trionfale", "amenity": "cafe", "building": "yes", "name": "\u0632\u0627\u064a\u062f \u0627\u0644\u0633\u064a\u0627\u062d\u064a", "name:ar": "\u0632\u0627\u064a\u062f \u0627\u0644\u0633\u064a\u0627\u062d\u064a"}}, {"type": "way", "id": 372421049, "nodes": [3759804136, 3759804137, 3759804138, 3759804139, 3759804136], "tags": {"amenity": "restaurant", "building": "yes", "name": "\u0645\u0637\u0639\u0645 \u0627\u0644\u0645\u0647\u0627\u0631\u064a", "name:ar": "\u0645\u0637\u0639\u0645 \u0627\u0644\u0645\u0647\u0627\u0631\u064a"}}, {"type": "way", "id": 893077504, "nodes": [8300354698, 8300354697, 8300354696, 6638778685, 8300354695, 8300354694, 8300354693, 8300354692, 8300354691, 8300354690, 8300354699, 8300354689, 8300354688, 8300354687, 8300354686, 8300354685, 8300354684, 8300354683, 8300354682, 8300354681, 8300354698], "tags": {"amenity": "cafe", "building": "yes", "name": "\u0643\u0627\u0641\u064a \u0627\u0644\u062c\u0631\u0629", "name:ar": "\u0643\u0627\u0641\u064a \u0627\u0644\u062c\u0631\u0629", "name:en": "Al Jarra Cafe"}}, {"type": "way", "id": 1254903133, "nodes": [11665454613, 11665454614, 11665454615, 11665454616, 11665454613], "tags": {"amenity": "cafe", "building": "yes"}}, {"type": "way", "id": 1264049130, "nodes": [11744716500, 11744716501, 11744716502, 11744716503, 11744716504, 11744716500], "tags": {"amenity": "cafe", "building": "yes"}}]}