{"version": 0.6, "generator": "Overpass API 0.7.62.7 375dc00a", "osm3s": {"timestamp_osm_base": "2025-06-14T14:55:36Z", "copyright": "The data included in this document is from www.openstreetmap.org. The data is made available under ODbL."}, "elements": [{"type": "node", "id": 260604493, "lat": 36.345708, "lon": 27.9344438, "tags": {"amenity": "restaurant", "cuisine": "greek", "name": "Dionysos Steki"}}, {"type": "node", "id": 260604494, "lat": 36.3443592, "lon": 27.9267365, "tags": {"amenity": "restaurant", "cuisine": "greek;fish", "name": "Akrogiali", "opening_hours": "Mo-Su 10:00-21:00", "phone": "00302241040038"}}, {"type": "node", "id": 663243530, "lat": 36.6849256, "lon": 28.0525598, "tags": {"amenity": "restaurant"}}, {"type": "node", "id": 762227662, "lat": 36.7072045, "lon": 28.0923926, "tags": {"amenity": "restaurant", "name": "Aurora"}}, {"type": "node", "id": 762248371, "lat": 36.5761295, "lon": 28.0433246, "tags": {"amenity": "restaurant", "name": "Serce Caria"}}, {"type": "node", "id": 870260011, "lat": 36.6916037, "lon": 28.0442583, "tags": {"amenity": "restaurant", "name": "Lokum Manti Evi"}}, {"type": "node", "id": 877155241, "lat": 36.7557941, "lon": 27.8891158, "tags": {"amenity": "restaurant", "name": "vido 2"}}, {"type": "node", "id": 881849474, "lat": 36.3492912, "lon": 27.9493744, "tags": {"amenity": "restaurant", "cuisine": "greek", "name": "Nikos Surf House"}}, {"type": "node", "id": 1267523486, "lat": 36.341939, "lon": 27.9156298, "tags": {"amenity": "restaurant", "cuisine": "greek", "internet_access": "wlan", "name": "Porto Antico", "opening_hours": "Mo-Su 09:00-21:00", "website": "https://www.portoantico.gr/index.php/ru/"}}, {"type": "node", "id": 1267524048, "lat": 36.3419719, "lon": 27.9169438, "tags": {"amenity": "restaurant", "cuisine": "greek", "name": "Old Kamiros"}}, {"type": "node", "id": 1340978342, "lat": 36.7064812, "lon": 28.0940461, "tags": {"amenity": "cafe", "source": "survey"}}, {"type": "node", "id": 1340978413, "lat": 36.7067776, "lon": 28.0947465, "tags": {"amenity": "restaurant", "name": "Bahtiyar", "source": "survey"}}, {"type": "node", "id": 1346021254, "lat": 36.7061888, "lon": 28.0940052, "tags": {"amenity": "cafe", "description": "\u0425\u043e\u0440\u043e\u0448\u0435\u0435 \u043a\u0430\u0444\u0435, \u0431\u043e\u043b\u044c\u0448\u043e\u0439 \u0432\u044b\u0431\u043e\u0440 \u0431\u043b\u044e\u0434 \u043c\u0435\u0441\u0442\u043d\u043e\u0439 \u043a\u0443\u0445\u043d\u0438. \u0420\u0430\u0431\u043e\u0442\u0430\u044e\u0442 \u043a\u0440\u0443\u0433\u043b\u044b\u0439 \u0433\u043e\u0434. \u041d\u0435 \u0434\u043e\u0440\u043e\u0433\u043e.", "outdoor_seating": "yes"}}, {"type": "node", "id": 1387637708, "lat": 36.349045, "lon": 27.9485483, "tags": {"amenity": "restaurant", "cuisine": "fish", "name": "Sea House"}}, {"type": "node", "id": 1400226713, "lat": 36.3580954, "lon": 27.9970137, "tags": {"amenity": "restaurant", "cuisine": "italian"}}, {"type": "node", "id": 1400253159, "lat": 36.3441618, "lon": 27.9532937, "tags": {"amenity": "restaurant", "name": "Grill"}}, {"type": "node", "id": 1400272653, "lat": 36.3980591, "lon": 28.0696104, "tags": {"amenity": "cafe", "name": "Airport View Cafe", "outdoor_seating": "yes"}}, {"type": "node", "id": 1406850356, "lat": 36.7565193, "lon": 27.6629863, "tags": {"amenity": "restaurant", "cuisine": "international", "name": "Elaki"}}, {"type": "node", "id": 1426218820, "lat": 36.693156, "lon": 28.041679, "tags": {"amenity": "cafe", "name": "Anatolia"}}, {"type": "node", "id": 1426226683, "lat": 36.693012, "lon": 28.0426179, "tags": {"amenity": "restaurant", "name": "Akvarium"}}, {"type": "node", "id": 1426233121, "lat": 36.6918521, "lon": 28.043299, "tags": {"amenity": "restaurant", "name": "Osman's place gordon restaurant"}}, {"type": "node", "id": 1426248954, "lat": 36.691478, "lon": 28.043439, "tags": {"amenity": "restaurant", "name": "Bozburun restaurant"}}, {"type": "node", "id": 1426256241, "lat": 36.6914865, "lon": 28.044328, "tags": {"amenity": "cafe", "name": "Ocean pastry shop"}}, {"type": "node", "id": 1426262067, "lat": 36.6907543, "lon": 28.0446612, "tags": {"addr:city": "Bozburun", "addr:housenumber": "35", "addr:postcode": "48710", "addr:street": "Cumhuriyet Caddesi", "amenity": "restaurant", "amenity_1": "hotel", "amenity_2": "bar", "capacity": "50", "cuisine": "regional", "delivery": "no", "internet_access": "wlan", "name": "Buena Vista Restaurant & Hotel Bozburun", "opening_hours": "9:30-01:00", "phone": "+90 252 456 25 99", "smoking": "separated", "takeaway": "only", "website": "http://hotelbozburun.com"}}, {"type": "node", "id": 1426263311, "lat": 36.6906797, "lon": 28.0446919, "tags": {"amenity": "cafe", "name": "Gul"}}, {"type": "node", "id": 1426264428, "lat": 36.6903996, "lon": 28.0448133, "tags": {"amenity": "restaurant", "name": "Sekilli"}}, {"type": "node", "id": 1426276888, "lat": 36.691951, "lon": 28.043256, "tags": {"amenity": "restaurant", "name": "Safak ustanin yeri kandil restaurant"}}, {"type": "node", "id": 1426279306, "lat": 36.6927708, "lon": 28.0419797, "tags": {"amenity": "cafe", "name": "Nilufer"}}, {"type": "node", "id": 1696070725, "lat": 36.397923, "lon": 28.0700828}, {"type": "node", "id": 1696070853, "lat": 36.3978561, "lon": 28.0698953}, {"type": "node", "id": 1696070933, "lat": 36.3978647, "lon": 28.070115}, {"type": "node", "id": 1696070944, "lat": 36.3977977, "lon": 28.0699275}, {"type": "node", "id": 1709357922, "lat": 36.6593022, "lon": 28.0841316, "tags": {"amenity": "restaurant", "cuisine": "regional", "name": "Captain's Table"}}, {"type": "node", "id": 1709358744, "lat": 36.6587176, "lon": 28.0837691, "tags": {"amenity": "restaurant", "cuisine": "turkish", "name": "Octopus"}}, {"type": "node", "id": 2251049640, "lat": 36.5671567, "lon": 28.0129892, "tags": {"amenity": "restaurant", "name": "Barbarossa"}}, {"type": "node", "id": 2356332142, "lat": 36.3563834, "lon": 28.0550474}, {"type": "node", "id": 2356332143, "lat": 36.3564448, "lon": 28.0551049}, {"type": "node", "id": 2356332144, "lat": 36.3564556, "lon": 28.0549285}, {"type": "node", "id": 2356332145, "lat": 36.356517, "lon": 28.054986}, {"type": "node", "id": 2452462219, "lat": 36.363222, "lon": 28.003233, "tags": {"amenity": "cafe", "name": "Aptyeimo"}}, {"type": "node", "id": 2532458937, "lat": 36.5708729, "lon": 28.0100114}, {"type": "node", "id": 2532458938, "lat": 36.5708787, "lon": 28.010176}, {"type": "node", "id": 2532458939, "lat": 36.5709912, "lon": 28.0100049}, {"type": "node", "id": 2532458940, "lat": 36.570997, "lon": 28.0101695}, {"type": "node", "id": 2532458948, "lat": 36.5765912, "lon": 28.0113706}, {"type": "node", "id": 2532458949, "lat": 36.5765947, "lon": 28.0114317}, {"type": "node", "id": 2532458950, "lat": 36.5766479, "lon": 28.0113656}, {"type": "node", "id": 2532458951, "lat": 36.5766513, "lon": 28.0114267}, {"type": "node", "id": 2875725280, "lat": 36.3640759, "lon": 27.9797786}, {"type": "node", "id": 2875725297, "lat": 36.3641081, "lon": 27.9796783}, {"type": "node", "id": 2875725505, "lat": 36.3640557, "lon": 27.979798}, {"type": "node", "id": 2875725535, "lat": 36.3641132, "lon": 27.9798903}, {"type": "node", "id": 2875725698, "lat": 36.3640489, "lon": 27.9797352}, {"type": "node", "id": 2875725835, "lat": 36.3641677, "lon": 27.9798378}, {"type": "node", "id": 2875725884, "lat": 36.364146, "lon": 27.9798029}, {"type": "node", "id": 2875725998, "lat": 36.3641709, "lon": 27.9797789}, {"type": "node", "id": 2925865186, "lat": 36.6153357, "lon": 27.8365741, "tags": {"amenity": "cafe", "internet_access": "wlan", "internet_access:fee": "no", "name": "Mediterraneo"}}, {"type": "node", "id": 3029324105, "lat": 36.6129668, "lon": 27.8568722}, {"type": "node", "id": 3029324106, "lat": 36.6128929, "lon": 27.856945}, {"type": "node", "id": 3029324109, "lat": 36.6127781, "lon": 27.8567443}, {"type": "node", "id": 3029324110, "lat": 36.6128281, "lon": 27.856807}, {"type": "node", "id": 3029324111, "lat": 36.612777, "lon": 27.8568687}, {"type": "node", "id": 3029324112, "lat": 36.6127282, "lon": 27.8568061}, {"type": "node", "id": 3029324141, "lat": 36.6231715, "lon": 27.8701152}, {"type": "node", "id": 3029324142, "lat": 36.623213, "lon": 27.8701166}, {"type": "node", "id": 3029324143, "lat": 36.623212, "lon": 27.8701559}, {"type": "node", "id": 3029324144, "lat": 36.6232488, "lon": 27.8701562}, {"type": "node", "id": 3029324145, "lat": 36.6233009, "lon": 27.8702781}, {"type": "node", "id": 3029324147, "lat": 36.6231943, "lon": 27.8701563}, {"type": "node", "id": 3029324148, "lat": 36.62317, "lon": 27.8701561}, {"type": "node", "id": 3036000065, "lat": 36.6155409, "lon": 27.8552249}, {"type": "node", "id": 3036000066, "lat": 36.6156233, "lon": 27.8552155}, {"type": "node", "id": 3036000067, "lat": 36.6156327, "lon": 27.8553432}, {"type": "node", "id": 3036000068, "lat": 36.6155503, "lon": 27.8553526}, {"type": "node", "id": 3085862428, "lat": 36.6123068, "lon": 27.8389741, "tags": {"amenity": "restaurant", "capacity": "50", "cuisine": "greek", "name": "Taverna Zoi", "opening_hours": "12:00-15:00,19:00-22:30", "smoking": "yes", "takeaway": "yes"}}, {"type": "node", "id": 3085862430, "lat": 36.6128135, "lon": 27.8391559, "tags": {"amenity": "cafe", "name": "Village Cafe"}}, {"type": "node", "id": 3141880011, "lat": 36.5497175, "lon": 27.847685, "tags": {"addr:city": "Symi Island", "amenity": "restaurant", "check_date": "2024-10-07", "cuisine": "regional", "internet_access": "wlan", "internet_access:fee": "customers", "name": "Panormio Cafe-Restaurant", "source": "bing,survey"}}, {"type": "node", "id": 3164299459, "lat": 36.6048893, "lon": 28.0565251}, {"type": "node", "id": 3164299460, "lat": 36.6049026, "lon": 28.0563459}, {"type": "node", "id": 3164299461, "lat": 36.6047277, "lon": 28.056288}, {"type": "node", "id": 3164299462, "lat": 36.6047055, "lon": 28.0564645}, {"type": "node", "id": 3164614440, "lat": 36.5766283, "lon": 28.0113982, "tags": {"amenity": "restaurant", "name": "Loryma Restaurant"}}, {"type": "node", "id": 3588073890, "lat": 36.6136251, "lon": 27.8396996, "tags": {"amenity": "restaurant", "capacity": "50", "cuisine": "quiche;light_salad;cake;illy_coffee;juice", "delivery": "no", "diet:vegetarian": "yes", "name": "Kalistrata Bistro", "opening_hours": "09:00-14:30", "smoking": "isolated", "takeaway": "yes"}}, {"type": "node", "id": 3588075553, "lat": 36.6134819, "lon": 27.8396809, "tags": {"amenity": "restaurant", "capacity": "100", "cuisine": "greek", "delivery": "no", "name": "Giorgio & Maria's Taverna (Giorgio's)", "opening_hours": "lunchtime and evenings", "smoking": "yes", "takeaway": "yes"}}, {"type": "node", "id": 3588113650, "lat": 36.6135685, "lon": 27.8404716, "tags": {"amenity": "restaurant", "capacity": "30", "cuisine": "mediterranean", "name": "The Windmill", "note": "Delicious - booking essential in high season.", "opening_hours": "Jun-Sep 07:00-23:00", "smoking": "yes"}}, {"type": "node", "id": 3623549223, "lat": 36.6157141, "lon": 27.8381106, "tags": {"amenity": "restaurant", "cuisine": "regional", "name": "Pantelis"}}, {"type": "node", "id": 3623549224, "lat": 36.615537, "lon": 27.8375135, "tags": {"amenity": "restaurant", "name": "Taverna Xaris"}}, {"type": "node", "id": 3623549225, "lat": 36.6155736, "lon": 27.8376476, "tags": {"amenity": "restaurant", "cuisine": "regional", "name": "To Spitiko"}}, {"type": "node", "id": 3623549231, "lat": 36.615735, "lon": 27.83794, "tags": {"amenity": "cafe", "name": "Porte cafe bar"}}, {"type": "node", "id": 3623549234, "lat": 36.615509, "lon": 27.8372909, "tags": {"amenity": "cafe", "name": "Acroxiali"}}, {"type": "node", "id": 3623549235, "lat": 36.6154573, "lon": 27.837197, "tags": {"amenity": "cafe", "name": "Katoi"}}, {"type": "node", "id": 3623552403, "lat": 36.615396, "lon": 27.8368101, "tags": {"amenity": "cafe", "cuisine": "greek;italian;coffee_shop", "internet_access": "wlan", "name": "Yacht Cafe"}}, {"type": "node", "id": 3623552404, "lat": 36.6153314, "lon": 27.8368369, "tags": {"amenity": "cafe", "name": "Oliva"}}, {"type": "node", "id": 3623552405, "lat": 36.6152625, "lon": 27.8368477, "tags": {"amenity": "restaurant", "cuisine": "regional", "name": "Trata (The Trawler)"}}, {"type": "node", "id": 3623588729, "lat": 36.615073, "lon": 27.8366693, "tags": {"amenity": "restaurant", "cuisine": "pizza_trattoria", "int_name": "Italian fraudsters", "name": "Bella Napoli", "name:en": "Bella Napoli", "name:ru": "\u041c\u043e\u0448\u0435\u043d\u043d\u0438\u043a\u0438 \u0438\u0442\u0430\u043b\u044c\u044f\u043d\u0441\u043a\u0438\u0435"}}, {"type": "node", "id": 3623604093, "lat": 36.6149966, "lon": 27.8358961, "tags": {"amenity": "restaurant", "cuisine": "regional", "name": "O Meraklis"}}, {"type": "node", "id": 3623627244, "lat": 36.6156909, "lon": 27.8358023, "tags": {"amenity": "cafe", "internet_access": "yes", "name": "Eva's"}}, {"type": "node", "id": 3623627246, "lat": 36.6162286, "lon": 27.8351478, "tags": {"amenity": "cafe", "name": "Evoi Evan"}}, {"type": "node", "id": 3623627247, "lat": 36.6162248, "lon": 27.8350405, "tags": {"amenity": "cafe", "name": "Kantirimi"}}, {"type": "node", "id": 3624654916, "lat": 36.6157401, "lon": 27.8357875, "tags": {"amenity": "cafe", "internet_access": "yes"}}, {"type": "node", "id": 3624662329, "lat": 36.6154268, "lon": 27.8355038, "tags": {"amenity": "restaurant", "name": "International"}}, {"type": "node", "id": 3624885272, "lat": 36.6157013, "lon": 27.835538, "tags": {"amenity": "cafe", "internet_access": "yes", "name": "Gefiraki"}}, {"type": "node", "id": 3624885277, "lat": 36.6157358, "lon": 27.8353266, "tags": {"amenity": "restaurant", "name": "Vasilis Taverna", "name:ru": "\u0412\u0430\u0441\u0435\u043b\u0438\u0441 \u0442\u0430\u0432\u0435\u0440\u043d\u0430"}}, {"type": "node", "id": 3624912266, "lat": 36.6208915, "lon": 27.8395339, "tags": {"amenity": "restaurant", "name": "Paradise Beach"}}, {"type": "node", "id": 3624912270, "lat": 36.6206376, "lon": 27.839484, "tags": {"amenity": "restaurant", "cuisine": "regional", "name": "Tholos"}}, {"type": "node", "id": 3624912271, "lat": 36.6204953, "lon": 27.8385364, "tags": {"amenity": "restaurant", "name": "Odyssia"}}, {"type": "node", "id": 3624936886, "lat": 36.6214584, "lon": 27.8168667, "tags": {"amenity": "restaurant", "name": "Maria Panagiota's Taverna"}}, {"type": "node", "id": 3624937317, "lat": 36.6181124, "lon": 27.8385988, "tags": {"amenity": "restaurant", "cuisine": "regional", "name": "Nireus"}}, {"type": "node", "id": 3624943355, "lat": 36.618387, "lon": 27.8382455, "tags": {"amenity": "restaurant"}}, {"type": "node", "id": 3624943356, "lat": 36.6186921, "lon": 27.8378152, "tags": {"amenity": "restaurant"}}, {"type": "node", "id": 3625009965, "lat": 36.6172982, "lon": 27.8377984, "tags": {"amenity": "cafe", "name": "Elpida's"}}, {"type": "node", "id": 3625017619, "lat": 36.6177511, "lon": 27.8383515, "tags": {"amenity": "cafe"}}, {"type": "node", "id": 3625032668, "lat": 36.6170527, "lon": 27.8374363, "tags": {"amenity": "restaurant", "name": "Los"}}, {"type": "node", "id": 3625032669, "lat": 36.6169311, "lon": 27.8373109, "tags": {"amenity": "restaurant", "check_date": "2023-05-15", "name": "Catherinettes"}}, {"type": "node", "id": 3625032670, "lat": 36.6168708, "lon": 27.8372653, "tags": {"amenity": "cafe"}}, {"type": "node", "id": 3625051271, "lat": 36.6163669, "lon": 27.8359073, "tags": {"amenity": "restaurant", "name": "Aris"}}, {"type": "node", "id": 3625051272, "lat": 36.6163412, "lon": 27.8358396, "tags": {"amenity": "restaurant", "name": "Manos Fish Restaurant"}}, {"type": "node", "id": 3625148058, "lat": 36.6161823, "lon": 27.8353047, "tags": {"amenity": "restaurant", "cuisine": "pizza", "name": "Dolphin Pizza"}}, {"type": "node", "id": 3625165076, "lat": 36.6145097, "lon": 27.8682511, "tags": {"amenity": "restaurant", "capacity": "50", "cuisine": "regional", "name": "Taverna", "note": "2015 sunbeds \u20ac3 per day. Refunded if spend \u20ac15 or more in taverna", "smoking": "yes"}}, {"type": "node", "id": 3625189110, "lat": 36.5663354, "lon": 27.8618169, "tags": {"amenity": "restaurant", "cuisine": "regional", "name": "Taverna"}}, {"type": "node", "id": 4219065900, "lat": 36.6232118, "lon": 27.8702823}, {"type": "node", "id": 4317871556, "lat": 36.3864097, "lon": 28.0347277}, {"type": "node", "id": 4317871557, "lat": 36.3864482, "lon": 28.0348478}, {"type": "node", "id": 4317871558, "lat": 36.3864655, "lon": 28.0348417}, {"type": "node", "id": 4317871559, "lat": 36.3864705, "lon": 28.0348601}, {"type": "node", "id": 4317871560, "lat": 36.3864965, "lon": 28.0348755}, {"type": "node", "id": 4317871561, "lat": 36.3865288, "lon": 28.0349402}, {"type": "node", "id": 4317871562, "lat": 36.3863539, "lon": 28.0350373}, {"type": "node", "id": 4317871563, "lat": 36.3863341, "lon": 28.0347692}, {"type": "node", "id": 4383839889, "lat": 36.363077, "lon": 27.9757928, "tags": {"amenity": "cafe", "internet_access": "wlan", "name:en": "zicina"}}, {"type": "node", "id": 4444655590, "lat": 36.6405144, "lon": 28.0952952, "tags": {"amenity": "restaurant", "name": "denizk\u0131z\u0131", "name:tr": "denizk\u0131z\u0131"}}, {"type": "node", "id": 4988802822, "lat": 36.7399895, "lon": 27.6657298, "tags": {"amenity": "restaurant", "name": "dat\u00e7a sofrasi", "name:tr": "dat\u00e7a sofrasi"}}, {"type": "node", "id": 5085833923, "lat": 36.764073, "lon": 27.7265993, "tags": {"addr:street": "Marmaris Dat\u00e7a Yolu", "amenity": "restaurant", "cuisine": "turkish", "name": "M\u00fclayim Restaurant", "name:en": "M\u00fclayim's Restaurant", "name:tr": "M\u00fclayim Restaurant"}}, {"type": "node", "id": 5216696823, "lat": 36.724646, "lon": 27.6860078, "tags": {"amenity": "restaurant", "name": "Ta\u015fl\u0131k Beach Restaurant"}}, {"type": "node", "id": 5216739021, "lat": 36.7399232, "lon": 27.6659298, "tags": {"amenity": "cafe", "name": "Karya \u00c7ay Bah\u00e7esi - Orhan'\u0131n Yeri"}}, {"type": "node", "id": 5216812921, "lat": 36.7254458, "lon": 27.686288, "tags": {"amenity": "restaurant", "check_date": "2023-11-18", "name": "H\u00fcsn\u00fc'n\u00fcn Yeri Bal\u0131k Lokantas\u0131"}}, {"type": "node", "id": 5359590613, "lat": 36.5483348, "lon": 27.8459777, "tags": {"amenity": "cafe"}}, {"type": "node", "id": 5401280559, "lat": 36.6232133, "lon": 27.8702066}, {"type": "node", "id": 5401280560, "lat": 36.6231938, "lon": 27.8702048}, {"type": "node", "id": 5401280561, "lat": 36.6232981, "lon": 27.8702081}, {"type": "node", "id": 5401280562, "lat": 36.6232506, "lon": 27.8702104}, {"type": "node", "id": 5401396317, "lat": 36.612736, "lon": 27.8567944}, {"type": "node", "id": 5444813533, "lat": 36.7255836, "lon": 27.6862902, "tags": {"amenity": "restaurant", "name": "Big Mamas"}}, {"type": "node", "id": 5444813534, "lat": 36.7248397, "lon": 27.6858385, "tags": {"amenity": "cafe", "name": "Serap \u00c7ay Bah\u00e7esi"}}, {"type": "node", "id": 5646112792, "lat": 36.6165694, "lon": 27.8426221, "tags": {"amenity": "restaurant", "cuisine": "regional", "name": "Hariromeni"}}, {"type": "node", "id": 5692463921, "lat": 36.3708478, "lon": 27.9978896, "tags": {"amenity": "restaurant", "name": "\u0395\u03bb\u03ad\u03bd\u03b7", "name:el": "\u0395\u03bb\u03ad\u03bd\u03b7", "name:en": "Eleni"}}, {"type": "node", "id": 5694496679, "lat": 36.69612, "lon": 28.0879264}, {"type": "node", "id": 5694496683, "lat": 36.7084413, "lon": 28.0887489}, {"type": "node", "id": 5694496687, "lat": 36.6960911, "lon": 28.0878055}, {"type": "node", "id": 5694496691, "lat": 36.7082854, "lon": 28.0885295}, {"type": "node", "id": 5694496697, "lat": 36.7083378, "lon": 28.0889743}, {"type": "node", "id": 5694496698, "lat": 36.7083114, "lon": 28.0884592}, {"type": "node", "id": 5694496700, "lat": 36.7081871, "lon": 28.088474}, {"type": "node", "id": 5694496701, "lat": 36.7082247, "lon": 28.0887851}, {"type": "node", "id": 5694496708, "lat": 36.7084506, "lon": 28.088614}, {"type": "node", "id": 5694496709, "lat": 36.7083939, "lon": 28.0889026}, {"type": "node", "id": 5694496710, "lat": 36.696144, "lon": 28.0877947}, {"type": "node", "id": 5694496712, "lat": 36.7083264, "lon": 28.0887268}, {"type": "node", "id": 5694496714, "lat": 36.696069, "lon": 28.0880554}, {"type": "node", "id": 5694496715, "lat": 36.7083369, "lon": 28.0886018}, {"type": "node", "id": 5694496716, "lat": 36.6960828, "lon": 28.0877532}, {"type": "node", "id": 5694496717, "lat": 36.6961631, "lon": 28.0879084}, {"type": "node", "id": 5694496718, "lat": 36.7082146, "lon": 28.0884044}, {"type": "node", "id": 5694497024, "lat": 36.7083189, "lon": 28.0888186}, {"type": "node", "id": 5694497041, "lat": 36.7081951, "lon": 28.0888289}, {"type": "node", "id": 5694497046, "lat": 36.6960207, "lon": 28.0877789}, {"type": "node", "id": 5694497050, "lat": 36.6961439, "lon": 28.0880278}, {"type": "node", "id": 5695504194, "lat": 36.7069795, "lon": 28.091349}, {"type": "node", "id": 5695504198, "lat": 36.7068272, "lon": 28.0912269}, {"type": "node", "id": 5695504201, "lat": 36.7069892, "lon": 28.0912396}, {"type": "node", "id": 5695504202, "lat": 36.7068183, "lon": 28.0913317}, {"type": "node", "id": 5696581907, "lat": 36.7093878, "lon": 28.0881101, "tags": {"amenity": "cafe", "name": "\u015eaziye Cafe"}}, {"type": "node", "id": 5696581915, "lat": 36.7096674, "lon": 28.0882104, "tags": {"amenity": "restaurant", "name": "Portakal"}}, {"type": "node", "id": 5932203656, "lat": 36.6153317, "lon": 27.835945, "tags": {"amenity": "restaurant", "cuisine": "greek", "email": "tosteno.symi@gmail.com", "name": "Ouzeri To Steno", "outdoor_seating": "yes", "phone": "+30 2246 072767"}}, {"type": "node", "id": 6374478516, "lat": 36.3623047, "lon": 28.0003241, "tags": {"amenity": "restaurant", "cuisine": "regional;greek"}}, {"type": "node", "id": 6374483711, "lat": 36.4023888, "lon": 28.0912122, "tags": {"amenity": "cafe", "cuisine": "coffee", "outdoor_seating": "yes"}}, {"type": "node", "id": 6374483714, "lat": 36.4024381, "lon": 28.0915441, "tags": {"amenity": "cafe", "outdoor_seating": "no"}}, {"type": "node", "id": 6388624311, "lat": 36.6164408, "lon": 27.836205, "tags": {"amenity": "restaurant", "cuisine": "greek", "name": "Mythos", "outdoor_seating": "yes"}}, {"type": "node", "id": 6388824432, "lat": 36.5483213, "lon": 27.8457804, "tags": {"amenity": "cafe", "outdoor_seating": "yes"}}, {"type": "node", "id": 6433644971, "lat": 36.3396786, "lon": 27.9486076, "tags": {"amenity": "cafe", "name": "StoneCaf\u00e9"}}, {"type": "node", "id": 6473588186, "lat": 36.6164239, "lon": 27.8361448, "tags": {"amenity": "restaurant", "name:pl": "MYTHOS Greek Creative"}}, {"type": "node", "id": 6539058471, "lat": 36.6459269, "lon": 28.0953631}, {"type": "node", "id": 6539058472, "lat": 36.6458717, "lon": 28.0953936}, {"type": "node", "id": 6539058473, "lat": 36.645949, "lon": 28.0954347}, {"type": "node", "id": 6539058474, "lat": 36.6458964, "lon": 28.0954552}, {"type": "node", "id": 6696418485, "lat": 36.3624828, "lon": 27.9756241, "tags": {"amenity": "cafe", "name:en": "akrogiali"}}, {"type": "node", "id": 6761414686, "lat": 36.3409514, "lon": 27.9464945, "tags": {"amenity": "restaurant"}}, {"type": "node", "id": 6762322752, "lat": 36.3398677, "lon": 27.9484419, "tags": {"amenity": "restaurant"}}, {"type": "node", "id": 6875645285, "lat": 36.6920238, "lon": 28.0432643, "tags": {"amenity": "restaurant", "internet_access": "wlan", "name:en": "Fisherman House"}}, {"type": "node", "id": 7010706390, "lat": 36.6330624, "lon": 28.108243}, {"type": "node", "id": 7010706391, "lat": 36.6331218, "lon": 28.1083471}, {"type": "node", "id": 7010706392, "lat": 36.6330453, "lon": 28.1084149}, {"type": "node", "id": 7010706393, "lat": 36.6329859, "lon": 28.1083108}, {"type": "node", "id": 7011108093, "lat": 36.7704939, "lon": 27.6195942, "tags": {"amenity": "cafe", "name": "Sinem Restaurant cafe"}}, {"type": "node", "id": 7011113153, "lat": 36.7643489, "lon": 27.6295049, "tags": {"amenity": "cafe"}}, {"type": "node", "id": 7221980585, "lat": 36.7265279, "lon": 27.6863021, "tags": {"addr:city": "Dat\u00e7a", "addr:district": "\u0130skele", "addr:housenumber": "13-A/D", "addr:neighbourhood": "Merkez", "addr:postcode": "48900", "addr:street": "Atat\u00fcrk Caddesi", "amenity": "restaurant", "cuisine": "breakfast;turkish;coffee_shop;tea", "delivery": "no", "description": "SE\u00c7ME KAHVALTI\n\nKahvalt\u0131l\u0131k ve Yumurta \u00c7e\u015fitleri\n\n(Breakfast and Egg Selections are served)", "diet:vegan": "yes", "diet:vegetarian": "yes", "email": "info@datcagunesbufe.com", "name": "G\u00fcne\u015f B\u00fcfe Kahvalt\u0131 Evi", "name:en": "G\u00fcne\u015f B\u00fcfe Breakfast House", "opening_hours": "Tu-Sa 08:00-13:30", "outdoor_seating": "yes", "payment:cash": "yes", "payment:debit_cards": "yes", "payment:mastercard": "yes", "payment:visa": "yes", "phone": "+905325739112", "reservation": "no", "start_date": "2017-06-01", "takeaway": "yes", "website": "http://datcagunesbufe.com/", "wheelchair": "no"}}, {"type": "node", "id": 7229831586, "lat": 36.7227304, "lon": 27.6878302, "tags": {"amenity": "restaurant", "cuisine": "burger", "name:en": "Canteen - Burger Salad Sausage Sandwich"}}, {"type": "node", "id": 7238403185, "lat": 36.7261694, "lon": 27.686884, "tags": {"amenity": "cafe", "cuisine": "coffee_shop;tea;cake", "internet_access": "wlan", "name": "The Coffee Grinder", "opening_hours": "Mo-Su 08:00-22:00", "phone": "+90 537 691 88 44"}}, {"type": "node", "id": 7240879785, "lat": 36.7219426, "lon": 27.6847297, "tags": {"amenity": "restaurant", "name": "Ye\u015fim Teras"}}, {"type": "node", "id": 7792207185, "lat": 36.6238108, "lon": 27.7984308, "tags": {"amenity": "restaurant", "cuisine": "greek", "name:de": "Dafnes Taverne", "name:en": "Dafnes Tavern"}}, {"type": "node", "id": 7832837621, "lat": 36.6608931, "lon": 28.08307, "tags": {"addr:city": "Marmaris", "addr:district": "Mugla", "addr:housenumber": "378", "addr:neighbourhood": "S\u00f6\u011f\u00fct Mahallesi", "addr:postcode": "48700", "addr:street": "Kizilyer Sokak", "amenity": "restaurant", "name": "Keci Buku Beach & Yacht Club", "name:tr": "Ke\u00e7i B\u00fck\u00fc Restaurant"}}, {"type": "node", "id": 7855320566, "lat": 36.7068562, "lon": 28.0938582, "tags": {"amenity": "cafe", "name": "Cafe Ceri"}}, {"type": "node", "id": 8179328730, "lat": 36.6129561, "lon": 27.8570423}, {"type": "node", "id": 8179328731, "lat": 36.613008, "lon": 27.8571243}, {"type": "node", "id": 8179328732, "lat": 36.6130094, "lon": 27.8569419}, {"type": "node", "id": 8179328733, "lat": 36.6130778, "lon": 27.8570549}, {"type": "node", "id": 8345055918, "lat": 36.6856699, "lon": 27.5734704}, {"type": "node", "id": 8345055978, "lat": 36.6857179, "lon": 27.5734585}, {"type": "node", "id": 8345055979, "lat": 36.6855969, "lon": 27.5734884}, {"type": "node", "id": 8345055980, "lat": 36.6856054, "lon": 27.5735422}, {"type": "node", "id": 8345055981, "lat": 36.6857264, "lon": 27.5735123}, {"type": "node", "id": 8411343597, "lat": 36.6232595, "lon": 27.8702116}, {"type": "node", "id": 8411343598, "lat": 36.6232608, "lon": 27.8701556}, {"type": "node", "id": 8411343599, "lat": 36.6232925, "lon": 27.8702074}, {"type": "node", "id": 8411343600, "lat": 36.6232897, "lon": 27.8701544}, {"type": "node", "id": 8538232225, "lat": 36.3857115, "lon": 28.0370563, "tags": {"amenity": "cafe", "name": "Billy's Caf\u00e9"}}, {"type": "node", "id": 8783704699, "lat": 36.3801317, "lon": 28.0834203, "tags": {"amenity": "restaurant", "name": "\u039c\u03c0\u03b5\u03b3\u03bb\u03ad\u03c1\u03b9"}}, {"type": "node", "id": 8783704710, "lat": 36.3805117, "lon": 28.0837232, "tags": {"amenity": "cafe", "name": "Silver Cafe"}}, {"type": "node", "id": 8783715004, "lat": 36.3803407, "lon": 28.0837413, "tags": {"amenity": "restaurant", "name": "\u0397 \u039c\u03bf\u03c5\u03c1\u03b9\u03ac"}}, {"type": "node", "id": 8942053599, "lat": 36.3372933, "lon": 28.0615864, "tags": {"amenity": "cafe"}}, {"type": "node", "id": 8942055540, "lat": 36.3370815, "lon": 28.0616013, "tags": {"amenity": "cafe"}}, {"type": "node", "id": 8942055542, "lat": 36.3316606, "lon": 28.0644956, "tags": {"amenity": "cafe"}}, {"type": "node", "id": 8986074571, "lat": 36.380328, "lon": 28.0302145, "tags": {"amenity": "cafe", "name": "Lemon Tree"}}, {"type": "node", "id": 8986075748, "lat": 36.3836265, "lon": 28.0342925, "tags": {"amenity": "restaurant", "name": "Albahaca"}}, {"type": "node", "id": 9163299917, "lat": 36.7249836, "lon": 27.6861404, "tags": {"amenity": "restaurant", "cuisine": "fish", "name": "Dutdibi Fismekan"}}, {"type": "node", "id": 9167844517, "lat": 36.6831469, "lon": 27.9775914, "tags": {"amenity": "restaurant", "cuisine": "fish"}}, {"type": "node", "id": 9171615502, "lat": 36.7403049, "lon": 27.6653497, "tags": {"addr:city": "mu\u011fla", "addr:district": "dat\u00e7a", "addr:housenumber": "3Z D:2", "addr:neighbourhood": "Dat\u00e7a mah.", "addr:postcode": "48900", "addr:street": "Osman Kara\u00e7ay", "amenity": "restaurant", "cuisine": "regional", "name": "G\u00dcZEL\u0130Z MEYHANE", "phone": "05305694062"}}, {"type": "node", "id": 9712114065, "lat": 36.6590057, "lon": 28.0846864, "tags": {"amenity": "cafe", "name": "S\u00f6\u011f\u00fcta\u011fac\u0131 cafe bar"}}, {"type": "node", "id": 9783375117, "lat": 36.7615121, "lon": 27.795104, "tags": {"amenity": "restaurant", "cuisine": "turkish", "internet_access": "wlan", "name": "Cumen"}}, {"type": "node", "id": 9828565685, "lat": 36.6150072, "lon": 27.8365822, "tags": {"amenity": "restaurant", "name": "Greek Tavern Repeat"}}, {"type": "node", "id": 9845331346, "lat": 36.3640664, "lon": 27.9797875}, {"type": "node", "id": 10090064434, "lat": 36.6144638, "lon": 27.8554634, "tags": {"amenity": "cafe", "name": "Blue Corner Cafe"}}, {"type": "node", "id": 10090068335, "lat": 36.6123822, "lon": 27.8577448, "tags": {"amenity": "cafe", "name:en": "Kamares"}}, {"type": "node", "id": 10090068336, "lat": 36.6202437, "lon": 27.8370384, "tags": {"amenity": "restaurant", "cuisine": "greek", "name:en": "Tarsanas"}}, {"type": "node", "id": 10091888425, "lat": 36.6203459, "lon": 27.8374204, "tags": {"amenity": "cafe", "name:en": "Carnagio Cafe"}}, {"type": "node", "id": 10093916417, "lat": 36.6155887, "lon": 27.8359394, "tags": {"amenity": "cafe", "name": "Paxos"}}, {"type": "node", "id": 10139056318, "lat": 36.6338119, "lon": 28.1037153, "tags": {"amenity": "cafe", "name:en": "Alp pansiyon cafe"}}, {"type": "node", "id": 10576789621, "lat": 36.7198702, "lon": 27.6868684, "tags": {"amenity": "cafe", "name": "G\u00f6l Evi"}}, {"type": "node", "id": 10595818435, "lat": 36.6583402, "lon": 28.1037967, "tags": {"amenity": "cafe"}}, {"type": "node", "id": 10595818437, "lat": 36.6600828, "lon": 28.1041261, "tags": {"amenity": "cafe", "name:ru": "\u0421\u0442\u043e\u043b\u043e\u0432\u0430\u044f"}}, {"type": "node", "id": 10595818438, "lat": 36.660514, "lon": 28.1041867, "tags": {"amenity": "cafe"}}, {"type": "node", "id": 10696539633, "lat": 36.7061088, "lon": 28.0929032}, {"type": "node", "id": 10696539634, "lat": 36.7060389, "lon": 28.0930802}, {"type": "node", "id": 10696539635, "lat": 36.7061702, "lon": 28.0931608}, {"type": "node", "id": 10696539636, "lat": 36.7062401, "lon": 28.0929838}, {"type": "node", "id": 10696633189, "lat": 36.6833134, "lon": 28.062861, "tags": {"amenity": "cafe"}}, {"type": "node", "id": 10696885840, "lat": 36.644314, "lon": 28.0955508, "tags": {"amenity": "restaurant"}}, {"type": "node", "id": 10697294739, "lat": 36.6608422, "lon": 28.1082442, "tags": {"amenity": "cafe"}}, {"type": "node", "id": 10703705464, "lat": 36.742456, "lon": 28.1275336, "tags": {"amenity": "cafe"}}, {"type": "node", "id": 10749016789, "lat": 36.6340484, "lon": 28.1028658, "tags": {"amenity": "cafe", "description": "\u0421\u0435\u0437\u043e\u043d\u043d\u043e\u0435 \u043a\u0430\u0444\u0435. Seasonal cafe. Mevsimlik kafe."}}, {"type": "node", "id": 10771690345, "lat": 36.6331564, "lon": 28.1085765, "tags": {"amenity": "cafe"}}, {"type": "node", "id": 10821345922, "lat": 36.5858549, "lon": 28.0491259}, {"type": "node", "id": 10821345923, "lat": 36.5858101, "lon": 28.0492616}, {"type": "node", "id": 10821345924, "lat": 36.5857469, "lon": 28.0492292}, {"type": "node", "id": 10821345925, "lat": 36.5857917, "lon": 28.0490935}, {"type": "node", "id": 10939863148, "lat": 36.3872731, "lon": 28.03611, "tags": {"amenity": "restaurant", "email": "info@sunsetbeachrhodos.com", "name": "Sunset Beach Bar & Restaurant", "phone": "+30 2241082203", "website": "https://www.sunsetbeachrhodos.com/"}}, {"type": "node", "id": 10982399827, "lat": 36.3454375, "lon": 27.9333785, "tags": {"amenity": "restaurant", "cuisine": "greek", "name": "\u03a4\u03b1 \u03a6\u03b9\u03bb\u03b1\u03c1\u03ac\u03ba\u03b9\u03b1"}}, {"type": "node", "id": 11037167142, "lat": 36.7404278, "lon": 27.6652657, "tags": {"addr:city": "mu\u011fla", "addr:district": "dat\u00e7a", "addr:housenumber": "no:5", "addr:neighbourhood": "Dat\u00e7a mah.", "addr:postcode": "48900", "addr:street": "Osman Karaca Sokak", "amenity": "cafe", "cuisine": "coffee_shop;sandwich", "internet_access": "wlan", "internet_access:fee": "no", "name": "SO Dat\u00e7a Cafe&Store", "opening_hours": "Mo-Su 11:00-23:00", "outdoor_seating": "yes", "phone": "+905393970187", "website": "https://soliving.shop/"}}, {"type": "node", "id": 11055300617, "lat": 36.3843779, "lon": 28.0285947, "tags": {"amenity": "restaurant", "cuisine": "greek"}}, {"type": "node", "id": 11177470453, "lat": 36.7708523, "lon": 27.6179167, "tags": {"amenity": "cafe", "name": "Kairos marina coffee"}}, {"type": "node", "id": 11177478498, "lat": 36.769413, "lon": 27.6175219, "tags": {"amenity": "restaurant"}}, {"type": "node", "id": 11177481558, "lat": 36.7707085, "lon": 27.6180987, "tags": {"amenity": "cafe", "name": "Kuzis Coffee & Co"}}, {"type": "node", "id": 11182890469, "lat": 36.7604697, "lon": 27.6918415, "tags": {"amenity": "restaurant", "name": "De\u011firmen"}}, {"type": "node", "id": 11182921639, "lat": 36.7045081, "lon": 27.6804679, "tags": {"amenity": "restaurant", "name": "Mendelle"}}, {"type": "node", "id": 11182935565, "lat": 36.7314208, "lon": 27.691922, "tags": {"amenity": "cafe", "name": "Mercan"}}, {"type": "node", "id": 11190469507, "lat": 36.7074305, "lon": 28.0941627, "tags": {"amenity": "cafe", "bar": "no", "check_date": "2023-09-14", "cuisine": "coffee_shop;dessert", "highchair": "no", "name": "Top Roasters", "outdoor_seating": "yes", "payment:mastercard": "yes", "payment:visa": "yes", "toilets:wheelchair": "no", "wheelchair": "no"}}, {"type": "node", "id": 11215537608, "lat": 36.7227272, "lon": 27.687738, "tags": {"amenity": "restaurant", "check_date": "2023-09-29", "cuisine": "international;burger;pasta", "level": "0", "name": "Alfheim", "payment:mastercard": "yes", "payment:visa": "yes", "website": "https://h28249.bisiparis.com/restoran-98615/burgers-82556"}}, {"type": "node", "id": 11215537609, "lat": 36.7250906, "lon": 27.6857068, "tags": {"amenity": "restaurant", "check_date": "2023-09-24", "cuisine": "turkish", "level": "0", "name": "Eski Meyhane", "name:tr": "Eski Meyhane", "outdoor_seating": "yes", "payment:mastercard": "yes", "payment:visa": "yes", "wheelchair": "yes"}}, {"type": "node", "id": 11227617270, "lat": 36.7265364, "lon": 27.6851583, "tags": {"amenity": "cafe", "check_date": "2023-09-29", "level": "0", "name": "K\u0131rksekizden", "name:tr": "K\u0131rksekizden", "payment:mastercard": "yes", "payment:visa": "yes"}}, {"type": "node", "id": 11228415792, "lat": 36.7251263, "lon": 27.6840479, "tags": {"amenity": "restaurant", "check_date": "2023-09-30", "cuisine": "turkish", "level": "0", "name": "Rio Pide Kebap", "name:tr": "Rio Pide Kebap", "payment:mastercard": "yes", "payment:visa": "yes"}}, {"type": "node", "id": 11359451857, "lat": 36.7389638, "lon": 27.6498363, "tags": {"amenity": "cafe"}}, {"type": "node", "id": 11359777030, "lat": 36.7258037, "lon": 27.6845394, "tags": {"amenity": "restaurant", "name": "Baba Lokantas\u0131"}}, {"type": "node", "id": 11524588093, "lat": 36.4006845, "lon": 28.0886822, "tags": {"amenity": "restaurant", "name": "Deipnos restaurant"}}, {"type": "node", "id": 11608758638, "lat": 36.3857013, "lon": 28.0369797}, {"type": "node", "id": 11608758639, "lat": 36.3857792, "lon": 28.0371065}, {"type": "node", "id": 11608758640, "lat": 36.3855589, "lon": 28.0373401}, {"type": "node", "id": 11608758641, "lat": 36.3854729, "lon": 28.0371949}, {"type": "node", "id": 11919688096, "lat": 36.7698118, "lon": 27.6210733, "tags": {"amenity": "restaurant", "name": "Gani balik"}}, {"type": "node", "id": 12054529818, "lat": 36.6741061, "lon": 27.9962787}, {"type": "node", "id": 12054529819, "lat": 36.6740604, "lon": 27.9963557}, {"type": "node", "id": 12054529820, "lat": 36.6742346, "lon": 27.996539}, {"type": "node", "id": 12054529821, "lat": 36.674284, "lon": 27.9964558, "tags": {"name": "Savaya Yacht Club"}}, {"type": "node", "id": 12144151959, "lat": 36.3479499, "lon": 27.9660639, "tags": {"amenity": "restaurant", "cuisine": "fish", "name": "Kalamaki fish restaurant", "opening_hours": "Mo-Su 08:00-22:00"}}, {"type": "node", "id": 12236205801, "lat": 36.7251256, "lon": 27.6847776, "tags": {"amenity": "cafe", "name": "Ozen Balik ekmek.(Different types)"}}, {"type": "node", "id": 12708057921, "lat": 36.3738292, "lon": 28.0373362, "tags": {"addr:city": "\u0398\u03b5\u03bf\u03bb\u03cc\u03b3\u03bf\u03c2", "amenity": "restaurant", "name": "\u0394\u03c1\u03bf\u03c3\u03b9\u03ac"}}, {"type": "node", "id": 12828233098, "lat": 36.7639269, "lon": 27.7310407, "tags": {"addr:city": "Mu\u011fla", "addr:district": "Dat\u00e7a", "addr:neighbourhood": "Re\u015fadiye Mahallesi", "addr:postcode": "48900", "addr:street": "Flow Dat\u00e7a Surf&Beach Hotel", "amenity": "restaurant", "cuisine": "pizza;regional;burger;seafood;breakfast;fish;turkish;salad;mediterranean;diner", "diet:vegan": "yes", "diet:vegetarian": "yes", "name": "Flow Dat\u00e7a Surf & Beach Hotel Restaurant", "opening_hours": "Mo-Su 08:00-22:00", "phone": "+905336131763", "website": "https://www.flowdatca.com/"}}, {"type": "node", "id": 12907540107, "lat": 36.621499, "lon": 27.8171521, "tags": {"amenity": "cafe"}}, {"type": "node", "id": 12912834751, "lat": 36.7061859, "lon": 28.0925458, "tags": {"addr:city": "Mu\u011fla", "addr:district": "Marmaris", "addr:housenumber": "221", "addr:neighbourhood": "selimiye mahallesi", "addr:postcode": "48700", "addr:street": "Han\u0131mp\u0131nar K\u00fcmeevler", "amenity": "cafe", "cuisine": "breakfast;barbecue;sandwich;burger;tea;kebab", "internet_access": "yes", "internet_access:fee": "customers", "name": "Ebru'ca Cafe", "opening_hours": "Mo-Fr 08:00-23:00", "outdoor_seating": "yes", "phone": "+905308490533"}}, {"type": "way", "id": 157385969, "nodes": [1696070725, 1696070933, 1696070944, 1696070853, 1696070725], "tags": {"amenity": "cafe", "building": "yes", "internet_access": "wlan", "name": "Embeeries"}}, {"type": "way", "id": 226907631, "nodes": [2356332145, 2356332143, 2356332142, 2356332144, 2356332145], "tags": {"amenity": "restaurant", "building": "yes", "cuisine": "greek", "name": "La Vellee Taverna"}}, {"type": "way", "id": 246171511, "nodes": [2532458950, 2532458951, 2532458949, 2532458948, 2532458950], "tags": {"amenity": "restaurant", "building": "yes", "name": "Loryma restaurant"}}, {"type": "way", "id": 246171513, "nodes": [2532458939, 2532458940, 2532458938, 2532458937, 2532458939], "tags": {"amenity": "restaurant", "building": "yes", "name": "Sailors house"}}, {"type": "way", "id": 283739041, "nodes": [2875725835, 2875725535, 2875725505, 9845331346, 2875725280, 2875725698, 2875725297, 2875725998, 2875725884, 2875725835], "tags": {"amenity": "cafe", "building": "yes", "building:levels": "1", "internet_access": "wlan", "internet_access:fee": "customers", "internet_access:ssid": "Nautica Blue", "opening_hours": "10:00-17:00", "source": "Bing"}}, {"type": "way", "id": 299001643, "nodes": [3029324105, 3029324106, 8179328730, 8179328731, 8179328733, 8179328732, 3029324105], "tags": {"amenity": "restaurant", "building": "yes", "cuisine": "regional", "name": "Katsaras"}}, {"type": "way", "id": 299001644, "nodes": [3029324109, 3029324110, 3029324111, 3029324112, 5401396317, 3029324109], "tags": {"amenity": "restaurant", "building": "yes", "cuisine": "fish;greek;grill", "name:en": "Katsaras"}}, {"type": "way", "id": 299001652, "nodes": [3029324141, 3029324142, 3029324143, 3029324144, 5401280562, 8411343597, 8411343598, 8411343600, 8411343599, 5401280561, 3029324145, 4219065900, 5401280559, 5401280560, 3029324147, 3029324148, 3029324141], "tags": {"amenity": "restaurant", "building": "yes"}}, {"type": "way", "id": 299590634, "nodes": [3036000065, 3036000066, 3036000067, 3036000068, 3036000065], "tags": {"amenity": "restaurant", "building": "yes", "name": "Tolis Taverna", "phone": "+30 6934710005; +30 22460 722221"}}, {"type": "way", "id": 310925614, "nodes": [3164299459, 3164299460, 3164299461, 3164299462, 3164299459], "tags": {"amenity": "restaurant", "building": "yes"}}, {"type": "way", "id": 432832963, "nodes": [4317871556, 4317871557, 4317871558, 4317871559, 4317871560, 4317871561, 4317871562, 4317871563, 4317871556], "tags": {"amenity": "restaurant", "building": "yes", "name": "Taverna Varka"}}, {"type": "way", "id": 598287798, "nodes": [5694496712, 5694496683, 5694496708, 5694496715, 5694496712], "tags": {"amenity": "restaurant", "building": "yes", "cuisine": "balkan", "name": "Bahia"}}, {"type": "way", "id": 598287800, "nodes": [5694496697, 5694497041, 5694496701, 5694497024, 5694496709, 5694496697], "tags": {"amenity": "restaurant", "building": "yes", "name": "Delice", "tourism": "hotel"}}, {"type": "way", "id": 598287805, "nodes": [5694496698, 5694496691, 5694496700, 5694496718, 5694496698], "tags": {"amenity": "restaurant", "building": "yes", "cuisine": "balkan", "name": "Bahia"}}, {"type": "way", "id": 598287807, "nodes": [5694497050, 5694496679, 5694496717, 5694496710, 5694496687, 5694496716, 5694497046, 5694496714, 5694497050], "tags": {"amenity": "restaurant", "name": "Kekik Otel", "outdoor_seating": "yes"}}, {"type": "way", "id": 598413817, "nodes": [5695504198, 5695504202, 5695504194, 5695504201, 5695504198], "tags": {"amenity": "restaurant", "building": "yes", "cuisine": "turkish", "name": "Stand Up Paddle (SUP)", "outdoor_seating": "yes"}}, {"type": "way", "id": 696329581, "nodes": [6539058471, 6539058473, 6539058474, 6539058472, 6539058471], "tags": {"addr:city": "Mu\u011fla", "addr:district": "Marmaris", "addr:housenumber": "105", "addr:neighbourhood": "S\u00f6\u011f\u00fctl\u00fc Mah.", "addr:street": "Cumhuriyet Sok.", "amenity": "restaurant", "bar": "yes", "brewery": "no", "building": "yes", "check_date": "2023-09-14", "name": "Esinti S\u00f6\u011f\u00fct", "opening_hours": "09:00-00:00", "outdoor_seating": "yes", "phone": "+90 532 066 59 00", "toilets": "yes", "toilets:wheelchair": "no"}}, {"type": "way", "id": 749706354, "nodes": [7010706390, 7010706391, 7010706392, 7010706393, 7010706390], "tags": {"amenity": "cafe", "building": "yes"}}, {"type": "way", "id": 897936681, "nodes": [8345055981, 8345055980, 8345055979, 8345055918, 8345055978, 8345055981], "tags": {"amenity": "restaurant", "building": "yes"}}, {"type": "way", "id": 1149831498, "nodes": [10696539636, 10696539635, 10696539634, 10696539633, 10696539636], "tags": {"addr:city": "Selimiye", "addr:housenumber": "204/a", "addr:neighbourhood": "selimiye mahallesi", "addr:postcode": "48700", "addr:street": "han\u0131mp\u0131nar k\u00fcmeevler", "amenity": "restaurant", "building": "yes", "cuisine": "regional;chicken;turkish", "delivery": "yes", "name": "Behabey", "opening_hours": "24/7", "organic": "yes", "outdoor_seating": "yes", "phone": "05372983382", "stars": "5", "takeaway": "yes", "toilets": "yes", "website": "https://www.behabey.com/"}}, {"type": "way", "id": 1163561355, "nodes": [10821345922, 10821345923, 10821345924, 10821345925, 10821345922], "tags": {"amenity": "restaurant", "building": "yes", "name": "Captan Nemo's Farm", "phone": "+90 536 339 54 92"}}, {"type": "way", "id": 1248930110, "nodes": [11608758638, 11608758639, 11608758640, 11608758641, 11608758638], "tags": {"amenity": "restaurant", "building": "yes", "cuisine": "burger;coffee_shop;greek;salad;dessert", "name": "Billy\u00b4s"}}, {"type": "way", "id": 1301445237, "nodes": [12054529818, 12054529819, 12054529820, 12054529821, 12054529818], "tags": {"amenity": "restaurant", "building": "yes", "name": "Savaya Yacht Club"}}]}