{"version": 0.6, "generator": "Overpass API 0.7.62.7 375dc00a", "osm3s": {"timestamp_osm_base": "2025-06-14T14:29:02Z", "copyright": "The data included in this document is from www.openstreetmap.org. The data is made available under ODbL."}, "elements": [{"type": "node", "id": 1925511418, "lat": 42.9991566, "lon": 18.0440914}, {"type": "node", "id": 1925511422, "lat": 42.9991887, "lon": 18.0442538}, {"type": "node", "id": 1925511425, "lat": 42.9993335, "lon": 18.0440261}, {"type": "node", "id": 1925511428, "lat": 42.9993655, "lon": 18.0441884}, {"type": "node", "id": 2107056517, "lat": 42.866087, "lon": 18.0188862}, {"type": "node", "id": 2107056518, "lat": 42.866131, "lon": 18.0187861}, {"type": "node", "id": 2107056519, "lat": 42.8661533, "lon": 18.0189406}, {"type": "node", "id": 2107056520, "lat": 42.8661974, "lon": 18.0188404}, {"type": "node", "id": 2375123459, "lat": 42.7689024, "lon": 18.3992484}, {"type": "node", "id": 2375123460, "lat": 42.7689855, "lon": 18.3991266}, {"type": "node", "id": 2375123462, "lat": 42.7690125, "lon": 18.3993878}, {"type": "node", "id": 2375123463, "lat": 42.7690072, "lon": 18.3993957}, {"type": "node", "id": 2375123464, "lat": 42.7690823, "lon": 18.399249}, {"type": "node", "id": 2375123465, "lat": 42.7690789, "lon": 18.3994829}, {"type": "node", "id": 2375123466, "lat": 42.7691308, "lon": 18.3991751}, {"type": "node", "id": 2375123467, "lat": 42.7691733, "lon": 18.3993387}, {"type": "node", "id": 2375123470, "lat": 42.7692024, "lon": 18.399262}, {"type": "node", "id": 2375123472, "lat": 42.7692361, "lon": 18.3992051}, {"type": "node", "id": 2375123478, "lat": 42.7693477, "lon": 18.3993276}, {"type": "node", "id": 2392657606, "lat": 42.8472431, "lon": 17.9798745, "tags": {"amenity": "restaurant"}}, {"type": "node", "id": 4435718707, "lat": 43.0346035, "lon": 18.4605048, "tags": {"amenity": "restaurant", "name": "Gostionica Uskok 1928", "name:sr": "\u0413\u043e\u0441\u0442\u0438\u043e\u043d\u0438\u0446\u0430 \u0423\u0441\u043a\u043e\u043a 1928"}}, {"type": "node", "id": 4435718708, "lat": 42.9240081, "lon": 18.4229174, "tags": {"amenity": "restaurant", "check_date": "2024-06-16", "cuisine": "regional", "internet_access": "wlan", "internet_access:fee": "no", "name": "Livade", "opening_hours": "06:30-23:00", "phone": "+387 66 646-012"}}, {"type": "node", "id": 4435718709, "lat": 42.8660386, "lon": 18.4188244, "tags": {"amenity": "restaurant", "name": "Jezero"}}, {"type": "node", "id": 4435719071, "lat": 42.8912604, "lon": 18.4149259, "tags": {"amenity": "restaurant", "name": "1001 Noc"}}, {"type": "node", "id": 4435719074, "lat": 42.870176, "lon": 18.4242119, "tags": {"amenity": "restaurant", "name": "Stari Dom"}}, {"type": "node", "id": 4837265122, "lat": 42.945764, "lon": 18.0949432, "tags": {"amenity": "restaurant", "name": "Pizza Grill Rio"}}, {"type": "node", "id": 5158296943, "lat": 42.7715475, "lon": 17.9201282, "tags": {"addr:city": "Majkovi", "addr:housenumber": "1", "addr:postcode": "20232", "addr:street": "Osredina", "amenity": "restaurant", "name": "Mlinica Ano", "note": "please make a reservation", "phone": "+385-98-165-42-49"}}, {"type": "node", "id": 5675347321, "lat": 42.8872478, "lon": 17.9635305, "tags": {"amenity": "cafe", "name": "Srednjice Ravno Cafe", "name:en": "Cafe", "name:hr": "Srednjice Ravno Cafe-Bar"}}, {"type": "node", "id": 5920079186, "lat": 42.8676225, "lon": 18.4222754, "tags": {"amenity": "restaurant", "cuisine": "balkan;coffee_shop;local", "internet_access": "wlan", "name": "Restoran Fortuna", "name:en": "Restaurant Fortuna", "name:sr": "\u0420\u0435\u0441\u0442\u043e\u0440\u0430\u043d \u0424\u043e\u0440\u0442\u0443\u043d\u0430"}}, {"type": "node", "id": 6131474769, "lat": 42.8873685, "lon": 17.9708812, "tags": {"amenity": "restaurant"}}, {"type": "node", "id": 6637160794, "lat": 42.8987233, "lon": 18.0128701, "tags": {"amenity": "restaurant", "name": "Restoran \u0160i\u0161i\u0107"}}, {"type": "node", "id": 6637160796, "lat": 42.8981622, "lon": 18.0232912, "tags": {"amenity": "cafe"}}, {"type": "node", "id": 7726861833, "lat": 42.8568995, "lon": 18.3960474, "tags": {"amenity": "restaurant", "cuisine": "fish", "internet_access": "wlan", "name": "Apolon fish restaurant", "note": "Trout, wild trout, catfish...", "opening_hours": "Mo-Su 07:00-23:00", "phone": "+387 65 838-234"}}, {"type": "node", "id": 11889083498, "lat": 42.9707039, "lon": 18.0561268, "tags": {"amenity": "restaurant", "name": "Restoran Vardu\u0161a"}}, {"type": "node", "id": 11889096427, "lat": 42.9518259, "lon": 18.0915186, "tags": {"amenity": "restaurant", "name": "Restoran \"Dva fenjera\""}}, {"type": "node", "id": 11889096428, "lat": 42.9507707, "lon": 18.0932325, "tags": {"amenity": "restaurant", "name": "Pit Stop by IGUANA"}}, {"type": "node", "id": 11984875869, "lat": 43.0407175, "lon": 18.2943195, "tags": {"amenity": "cafe"}}, {"type": "node", "id": 12212875785, "lat": 42.769128, "lon": 18.399477}, {"type": "node", "id": 12212875786, "lat": 42.7691265, "lon": 18.3994115}, {"type": "node", "id": 12212875787, "lat": 42.7691785, "lon": 18.3993299}, {"type": "node", "id": 12212875788, "lat": 42.7692808, "lon": 18.3994422}, {"type": "node", "id": 12212875789, "lat": 42.7693361, "lon": 18.3994651}, {"type": "node", "id": 12212875790, "lat": 42.7693662, "lon": 18.3994141}, {"type": "node", "id": 12212875791, "lat": 42.7692938, "lon": 18.3994187}, {"type": "node", "id": 12212875792, "lat": 42.769324, "lon": 18.3993677}, {"type": "way", "id": 182208311, "nodes": [1925511425, 1925511428, 1925511422, 1925511418, 1925511425], "tags": {"amenity": "restaurant", "building": "yes", "cuisine": "regional", "name": "Zwiedja"}}, {"type": "way", "id": 200741947, "nodes": [2107056520, 2107056519, 2107056517, 2107056518, 2107056520], "tags": {"addr:city": "Trebinje", "addr:place": "\u0412\u0435\u043b\u0438\u0447\u0430\u043d\u0438", "amenity": "restaurant", "building": "yes", "cuisine": "regional", "smoking": "yes"}}, {"type": "way", "id": 228849702, "nodes": [2375123470, 2375123472, 2375123478, 12212875792, 12212875790, 12212875789, 12212875791, 12212875788, 12212875787, 2375123467, 12212875786, 12212875785, 2375123465, 2375123463, 2375123462, 2375123459, 2375123460, 2375123464, 2375123466, 2375123470], "tags": {"addr:city": "Trebinje", "addr:place": "\u041c\u043e\u0441\u043a\u043e / Mosko", "amenity": "restaurant", "building": "yes", "cuisine": "regional", "name": "\u041a\u043e\u043d\u0430\u043a", "smoking": "yes"}}]}