{"version": 0.6, "generator": "Overpass API 0.7.62.7 375dc00a", "osm3s": {"timestamp_osm_base": "2025-06-14T14:43:30Z", "copyright": "The data included in this document is from www.openstreetmap.org. The data is made available under ODbL."}, "elements": [{"type": "node", "id": 633440541, "lat": 38.5873579, "lon": 23.5373218, "tags": {"amenity": "restaurant", "name": "Rizari"}}, {"type": "node", "id": 1905855279, "lat": 38.4795392, "lon": 23.4478567}, {"type": "node", "id": 2236036733, "lat": 38.3668273, "lon": 23.5370347, "tags": {"amenity": "restaurant", "name": "\u03b5\u03bb\u03b9\u03ac & \u03bb\u03ac\u03b4\u03b9", "opening_hours": "24/7"}}, {"type": "node", "id": 2236036736, "lat": 38.3675357, "lon": 23.5374704, "tags": {"amenity": "restaurant", "diet:vegetarian": "yes", "name": "\u03b5\u03bb\u03b9\u03ac & \u03bb\u03ac\u03b4\u03b9", "opening_hours": "24/7", "wheelchair": "limited"}}, {"type": "node", "id": 2690403801, "lat": 38.4654424, "lon": 23.5926517}, {"type": "node", "id": 2707939404, "lat": 38.3322393, "lon": 23.7342772, "tags": {"amenity": "restaurant", "cuisine": "fish"}}, {"type": "node", "id": 2719819069, "lat": 38.4628046, "lon": 23.5901526, "tags": {"amenity": "restaurant", "cuisine": "crepe;ice_cream", "name": "\u0394\u03c9\u03b4\u03ce\u03bd\u03b7", "opening_hours": "Mo-Su 09:00-01:00"}}, {"type": "node", "id": 3297113142, "lat": 38.5804674, "lon": 23.7128689, "tags": {"amenity": "restaurant"}}, {"type": "node", "id": 3297113143, "lat": 38.5806769, "lon": 23.7130623, "tags": {"amenity": "cafe"}}, {"type": "node", "id": 3687866059, "lat": 38.3204314, "lon": 23.3171596, "tags": {"amenity": "restaurant", "name": "\u039c\u03b5\u03b6\u03b5\u03b4\u03bf\u03c0\u03bf\u03bb\u03b5\u03af\u03bf \"\u03c4\u03bf \u0394\u03b7\u03bc\u03bf\u03c4\u03b9\u03ba\u03cc\u03bd\""}}, {"type": "node", "id": 3694409552, "lat": 38.3201844, "lon": 23.3169759, "tags": {"addr:city": "\u0398\u03ae\u03b2\u03b1", "addr:housenumber": "105", "addr:postcode": "32200", "addr:street": "\u0395\u03c0\u03b1\u03bc\u03b5\u03b9\u03bd\u03ce\u03bd\u03b4\u03bf\u03c5", "amenity": "restaurant", "cuisine": "greek", "name": "H \u039b\u03b1\u03b4\u03cc\u03ba\u03bf\u03bb\u03bb\u03b1 \u03c4\u03bf\u03c5 \u03c8\u03b1\u03c1\u03ac", "name:el": "H \u039b\u03b1\u03b4\u03cc\u03ba\u03bf\u03bb\u03bb\u03b1 \u03c4\u03bf\u03c5 \u03c8\u03b1\u03c1\u03ac", "name:en": "Ladokolla", "phone": "+30 2262 028400"}}, {"type": "node", "id": 3694409554, "lat": 38.3199532, "lon": 23.3172052, "tags": {"addr:city": "\u0398\u03ae\u03b2\u03b1", "addr:postcode": "32200", "amenity": "restaurant", "name": "Barbeque"}}, {"type": "node", "id": 3694409563, "lat": 38.3159889, "lon": 23.3295314, "tags": {"addr:housenumber": "72", "addr:postcode": "32200", "addr:street": "\u0395\u03c0\u03b1\u03bc\u03b5\u03b9\u03bd\u03ce\u03bd\u03b4\u03b1", "amenity": "cafe", "internet_access": "wlan", "name": "\u0391\u03b8\u03b7\u03bd\u03b1\u03ca\u03ba\u03cc\u03bd", "name:el": "\u0391\u03b8\u03b7\u03bd\u03b1\u03ca\u03ba\u03cc\u03bd", "name:en": "Athinaikon", "phone": "+302262027797"}}, {"type": "node", "id": 3694447083, "lat": 38.318615, "lon": 23.3177143, "tags": {"addr:city": "\u0398\u03ae\u03b2\u03b1", "addr:housenumber": "4", "addr:postcode": "32200", "addr:street": "\u03a3\u03ba\u03bf\u03c5\u03c1\u03c4\u03b1\u03bd\u03b9\u03ce\u03c4\u03bf\u03c5", "amenity": "restaurant", "cuisine": "pizza", "delivery": "yes", "name": "Milaneza"}}, {"type": "node", "id": 3694452873, "lat": 38.3185492, "lon": 23.317542, "tags": {"addr:city": "\u0398\u03ae\u03b2\u03b1", "addr:postcode": "32200", "addr:street": "\u03a3\u03ba\u03bf\u03c5\u03c1\u03c4\u03b1\u03bd\u03b9\u03ce\u03c4\u03bf\u03c5", "amenity": "restaurant", "name": "\u0388\u03c0\u03c1\u03b5\u03c0\u03b5", "name:el": "\u0388\u03c0\u03c1\u03b5\u03c0\u03b5", "name:en": "Eprepe"}}, {"type": "node", "id": 3694452884, "lat": 38.3187997, "lon": 23.3188818, "tags": {"addr:city": "\u0398\u03ae\u03b2\u03b1", "addr:postcode": "32200", "addr:street": "\u03a0\u03b5\u03bb\u03bf\u03c0\u03af\u03b4\u03bf\u03c5", "amenity": "cafe", "name": "\u03a4\u03bf \u03c0\u03b1\u03bb\u03b9\u03cc \u03ba\u03b1\u03c6\u03ad", "operator": "\u039a\u03b1\u03c6\u03b5\u03c4\u03ad\u03c1\u03b9\u03b1"}}, {"type": "node", "id": 3695351376, "lat": 38.4971134, "lon": 23.4227369, "tags": {"addr:city": "\u039b\u03bf\u03c5\u03ba\u03af\u03c3\u03b9\u03b1", "amenity": "restaurant", "name": "\u03a6\u03c1\u03bf\u03cd\u03c3\u03b7\u03c2"}}, {"type": "node", "id": 3695351377, "lat": 38.4973794, "lon": 23.424821, "tags": {"amenity": "restaurant", "name": "\u0398\u03b1\u03bb\u03b1\u03c3\u03c3\u03bf\u03bc\u03b1\u03c4\u03b9\u03ad\u03c2"}}, {"type": "node", "id": 3726014723, "lat": 38.4976552, "lon": 23.5323378, "tags": {"amenity": "restaurant"}}, {"type": "node", "id": 3917198139, "lat": 38.4093413, "lon": 23.6403019, "tags": {"amenity": "restaurant"}}, {"type": "node", "id": 3917198140, "lat": 38.408945, "lon": 23.6400344, "tags": {"amenity": "restaurant"}}, {"type": "node", "id": 4405838190, "lat": 38.5971392, "lon": 23.5452881, "tags": {"amenity": "restaurant", "cuisine": "greek", "name": "\u039a\u039f\u03a5\u039c\u039f\u03a5\u039d\u03a4\u039f\u03a5\u03a1\u039f\u03a3", "name:el": "\u039a\u039f\u03a5\u039c\u039f\u03a5\u039d\u03a4\u039f\u03a5\u03a1\u039f\u03a3", "name:en": "Komodouros"}}, {"type": "node", "id": 4713333721, "lat": 38.7121006, "lon": 23.7528384}, {"type": "node", "id": 4713333722, "lat": 38.7120745, "lon": 23.7527727}, {"type": "node", "id": 4713333735, "lat": 38.7118558, "lon": 23.7527935}, {"type": "node", "id": 4713333736, "lat": 38.7117585, "lon": 23.7528241}, {"type": "node", "id": 4713333737, "lat": 38.7118281, "lon": 23.7526491}, {"type": "node", "id": 4713333745, "lat": 38.7117308, "lon": 23.7526796}, {"type": "node", "id": 4713333750, "lat": 38.7121137, "lon": 23.7528714}, {"type": "node", "id": 4713333751, "lat": 38.7120422, "lon": 23.7529182}, {"type": "node", "id": 4713333752, "lat": 38.711984, "lon": 23.7527718}, {"type": "node", "id": 4713333753, "lat": 38.7120555, "lon": 23.752725}, {"type": "node", "id": 4744725435, "lat": 38.4797058, "lon": 23.4480781}, {"type": "node", "id": 4744725436, "lat": 38.4797217, "lon": 23.448131}, {"type": "node", "id": 4744725437, "lat": 38.4797392, "lon": 23.4481208}, {"type": "node", "id": 4744725438, "lat": 38.4797726, "lon": 23.4482103}, {"type": "node", "id": 4744725439, "lat": 38.4797551, "lon": 23.4482225}, {"type": "node", "id": 4744725440, "lat": 38.4797563, "lon": 23.4482388}, {"type": "node", "id": 4744725441, "lat": 38.4797273, "lon": 23.4482573}, {"type": "node", "id": 4744725442, "lat": 38.4797358, "lon": 23.4482773}, {"type": "node", "id": 4744725443, "lat": 38.4796972, "lon": 23.4483035}, {"type": "node", "id": 4744725444, "lat": 38.4796296, "lon": 23.448114}, {"type": "node", "id": 4744756458, "lat": 38.4793707, "lon": 23.4477318}, {"type": "node", "id": 4744756459, "lat": 38.4794268, "lon": 23.447915}, {"type": "node", "id": 4744756461, "lat": 38.4795996, "lon": 23.4474912}, {"type": "node", "id": 4744756462, "lat": 38.479489, "lon": 23.4475635}, {"type": "node", "id": 4744756463, "lat": 38.4795383, "lon": 23.4476896}, {"type": "node", "id": 4744756464, "lat": 38.4796224, "lon": 23.4476359}, {"type": "node", "id": 4744756465, "lat": 38.4796078, "lon": 23.4475997}, {"type": "node", "id": 4744756466, "lat": 38.479637, "lon": 23.4475799}, {"type": "node", "id": 4744756481, "lat": 38.4789382, "lon": 23.4470504}, {"type": "node", "id": 4744756482, "lat": 38.4789659, "lon": 23.4471857}, {"type": "node", "id": 4744756483, "lat": 38.4788322, "lon": 23.4472344}, {"type": "node", "id": 4744756484, "lat": 38.4788003, "lon": 23.4470884}, {"type": "node", "id": 4821293202, "lat": 38.4876637, "lon": 23.5726872, "tags": {"amenity": "restaurant", "cuisine": "greek;mediterranean;seafood", "name": "Tavern", "name:el": "\u03a8\u03b1\u03c1\u03bf\u03c4\u03b1\u03b2\u03ad\u03c1\u03bd\u03b1 \"\u0386\u03b3\u03b9\u03bf\u03c2 \u039c\u03b7\u03bd\u03ac\u03c2\"", "name:en": "Tavern Agios Minas", "phone": "2221099437"}}, {"type": "node", "id": 4855625173, "lat": 38.6191137, "lon": 23.5704201, "tags": {"amenity": "restaurant", "name": "\u039f \u03a0\u03b1\u03c1\u03ac\u03b4\u03b5\u03b9\u03c3\u03bf\u03c2"}}, {"type": "node", "id": 4855631918, "lat": 38.61277, "lon": 23.5299936, "tags": {"amenity": "restaurant", "name": "\u039c\u03c0\u03b1\u03ba\u03bf\u03cd\u03c4\u03b7\u03c2 \u039d\u03b9\u03ba\u03cc\u03bb\u03b1\u03bf\u03c2"}}, {"type": "node", "id": 4855645279, "lat": 38.6401553, "lon": 23.5654835, "tags": {"amenity": "restaurant", "cuisine": "greek", "name": "\u03a4\u039f \u039a\u039b\u0399\u039c\u0391\u039a\u0399", "name:el": "\"\u03a4\u03bf \u039a\u03bb\u03b9\u03bc\u03ac\u03ba\u03b9\""}}, {"type": "node", "id": 4855646764, "lat": 38.6200488, "lon": 23.5850744, "tags": {"addr:street": "\u03a7\u03b1\u03bb\u03ba\u03af\u03b4\u03b1\u03c2 - \u039b\u03bf\u03c5\u03c4\u03c1\u03ce\u03bd \u0391\u03b9\u03b4\u03b7\u03c8\u03bf\u03cd", "amenity": "restaurant", "name": "\u03a4\u03bf \u0392\u03c5\u03c3\u03c3\u03af", "phone": "2228091250"}}, {"type": "node", "id": 4855657064, "lat": 38.6036955, "lon": 23.6657521, "tags": {"addr:city": "\u039c\u03b1\u03ba\u03c1\u03c5\u03bc\u03ac\u03bb\u03bb\u03b7", "amenity": "restaurant", "name": "\u039f \u039a\u03bf\u03c5\u03ba\u03bf\u03c5\u03c1\u03af\u03ba\u03bf\u03c2"}}, {"type": "node", "id": 4897673934, "lat": 38.4653721, "lon": 23.5858841}, {"type": "node", "id": 4897673935, "lat": 38.4653837, "lon": 23.5859651}, {"type": "node", "id": 4897673936, "lat": 38.4654658, "lon": 23.5859459}, {"type": "node", "id": 4897673937, "lat": 38.4654775, "lon": 23.5860275}, {"type": "node", "id": 4897673938, "lat": 38.4652076, "lon": 23.5860906}, {"type": "node", "id": 4897673939, "lat": 38.4651843, "lon": 23.585928}, {"type": "node", "id": 4897691803, "lat": 38.4627133, "lon": 23.5902128, "tags": {"amenity": "restaurant", "name": "\u039b\u03b1\u03cc\u03c2 \u03ba\u03b1\u03b9 \u03ba\u03b1\u03bb\u03b1\u03bc\u03ac\u03ba\u03b9"}}, {"type": "node", "id": 4920904378, "lat": 38.5133671, "lon": 23.6353594, "tags": {"addr:city": "\u039d\u03ad\u03b1 \u0391\u03c1\u03c4\u03ac\u03ba\u03b7", "amenity": "restaurant", "cuisine": "\u039f\u03c5\u03b6\u03b5\u03c1\u03af", "name": "\u03a4\u0395\u03a3\u039a\u039f\u03a3"}}, {"type": "node", "id": 4920904380, "lat": 38.5133035, "lon": 23.6354529, "tags": {"addr:city": "\u039d\u03ad\u03b1 \u0391\u03c1\u03c4\u03ac\u03ba\u03b7", "amenity": "restaurant", "cuisine": "\u039f\u03c5\u03b6\u03b5\u03c1\u03af", "name": "\u039c\u03c0\u03b1\u03c1\u03c3\u03ac\u03ba\u03b7\u03c2"}}, {"type": "node", "id": 4920915915, "lat": 38.5130315, "lon": 23.6358493, "tags": {"amenity": "restaurant", "name": "\u0397 \u039a\u03bb\u03b7\u03bc\u03b1\u03c4\u03b1\u03c1\u03b9\u03ac"}}, {"type": "node", "id": 4920918338, "lat": 38.513833, "lon": 23.6374451, "tags": {"addr:city": "\u039d\u03ad\u03b1 \u0391\u03c1\u03c4\u03ac\u03ba\u03b7", "amenity": "restaurant", "cuisine": "\u03a8\u03b7\u03c4\u03bf\u03c0\u03c9\u03bb\u03b5\u03af\u03bf", "name": "\u03a4\u03bf \u03a3\u03c4\u03ad\u03ba\u03b9"}}, {"type": "node", "id": 4920923613, "lat": 38.5140871, "lon": 23.6313898, "tags": {"addr:city": "\u039d\u03ad\u03b1 \u0391\u03c1\u03c4\u03ac\u03ba\u03b7", "amenity": "cafe", "name": "\u0392\u03bf\u03c5\u03c4\u03c3\u03ac\u03c2"}}, {"type": "node", "id": 4920924727, "lat": 38.5138219, "lon": 23.6312696, "tags": {"addr:city": "\u039d\u03ad\u03b1 \u0391\u03c1\u03c4\u03ac\u03ba\u03b7", "amenity": "cafe", "name": "Passaggio"}}, {"type": "node", "id": 4920926653, "lat": 38.5144897, "lon": 23.6316856, "tags": {"amenity": "cafe", "name": "Caramello"}}, {"type": "node", "id": 4920928429, "lat": 38.5142342, "lon": 23.6341812, "tags": {"addr:city": "\u039d\u03ad\u03b1 \u0391\u03c1\u03c4\u03ac\u03ba\u03b7", "amenity": "restaurant", "cuisine": "\u03a8\u03b7\u03c4\u03bf\u03c0\u03c9\u03bb\u03b5\u03af\u03bf", "name": "\u039c\u03c0\u03b1\u03c1\u03bf\u03cd\u03c4\u03b7\u03c2"}}, {"type": "node", "id": 4920950966, "lat": 38.4680104, "lon": 23.5941771, "tags": {"amenity": "cafe", "check_date": "2023-09-05", "name": "REX"}}, {"type": "node", "id": 4948428085, "lat": 38.6157291, "lon": 23.7322725, "tags": {"amenity": "cafe", "outdoor_seating": "yes"}}, {"type": "node", "id": 4973745791, "lat": 38.4630248, "lon": 23.5901048, "tags": {"amenity": "cafe"}}, {"type": "node", "id": 4973745792, "lat": 38.4631067, "lon": 23.5902255, "tags": {"amenity": "restaurant", "name": "Lupo Trattoria"}}, {"type": "node", "id": 4973745793, "lat": 38.4632104, "lon": 23.5904046, "tags": {"addr:city": "\u03a7\u03b1\u03bb\u03ba\u03af\u03b4\u03b1", "addr:country": "GR", "addr:housenumber": "8", "addr:postcode": "34100", "addr:street": "\u0392\u03bf\u03c5\u03b4\u03bf\u03cd\u03c1\u03b7", "amenity": "restaurant", "cuisine": "greek;steak_house", "internet_access": "wlan", "name": "\u03a8\u03b7\u03c3\u03c4\u03ae\u03c1\u03b9 (\u03ba\u03c1\u03b5\u03b1\u03c4\u03bf\u03bb\u03b9\u03c7\u03bf\u03c5\u03b4\u03b9\u03ad\u03c2)", "name:el": "\u03a4\u03bf \u03a8\u03b7\u03c3\u03c4\u03ae\u03c1\u03b9 (\u03ba\u03c1\u03b5\u03b1\u03c4\u03bf\u03bb\u03b9\u03c7\u03bf\u03c5\u03b4\u03b9\u03ad\u03c2)", "name:en": "\u03a8\u03b7\u03c3\u03c4\u03ae\u03c1\u03b9", "opening_hours": "Mo-Su 11:00-00:00", "phone": "2221075556"}}, {"type": "node", "id": 4973745795, "lat": 38.4636039, "lon": 23.5910524, "tags": {"addr:postcode": "34100", "addr:street": "\u0392\u03bf\u03c5\u03b4\u03bf\u03cd\u03c1\u03b7", "amenity": "restaurant", "cuisine": "fish;seafood", "name": "\u03a8\u03b1\u03c1\u03bf\u03c4\u03b1\u03b2\u03ad\u03c1\u03bd\u03b1 \"\u03a4\u03b1 \u0394\u03b5\u03bb\u03c6\u03af\u03bd\u03b9\u03b1\""}}, {"type": "node", "id": 4973745798, "lat": 38.4646444, "lon": 23.592327, "tags": {"amenity": "cafe"}}, {"type": "node", "id": 4973749621, "lat": 38.4635208, "lon": 23.5908786, "tags": {"amenity": "cafe", "name": "Negro"}}, {"type": "node", "id": 5044711977, "lat": 38.7110831, "lon": 23.7549807, "tags": {"amenity": "restaurant", "cuisine": "regional", "name": "\u0397 \u0396\u03c9\u03ae"}}, {"type": "node", "id": 5060088643, "lat": 38.4635361, "lon": 23.588795, "tags": {"amenity": "restaurant"}}, {"type": "node", "id": 5060088644, "lat": 38.463368, "lon": 23.5887896, "tags": {"amenity": "restaurant"}}, {"type": "node", "id": 5109118984, "lat": 38.466306, "lon": 23.5934571, "tags": {"amenity": "restaurant", "name": "\u039a\u03c1\u03b7\u03c0\u03af\u03b4\u03c9\u03bc\u03b1"}}, {"type": "node", "id": 5109130351, "lat": 38.4644872, "lon": 23.5922416, "tags": {"amenity": "cafe", "name": "\u03a0\u03ad\u03c4\u03c1\u03b9\u03bd\u03bf"}}, {"type": "node", "id": 5109135719, "lat": 38.4632879, "lon": 23.5905263, "tags": {"addr:city": "\u03a7\u03b1\u03bb\u03ba\u03af\u03b4\u03b1", "addr:country": "GR", "addr:housenumber": "10", "addr:postcode": "34100", "addr:street": "\u0392\u03bf\u03c5\u03b4\u03bf\u03cd\u03c1\u03b7", "amenity": "cafe", "cuisine": "coffee_shop;ice_cream;sandwich;tea", "internet_access": "wlan", "name": "\u039d\u03ac\u03bc\u03b1\u03c2", "name:el": "Namas", "name:en": "Namas", "opening_hours": "Mo-Su 09:00-04:30", "phone": "2221078701"}}, {"type": "node", "id": 5109136521, "lat": 38.4639155, "lon": 23.5914502, "tags": {"amenity": "restaurant", "name": "\u039a\u03b1\u03c1\u03bd\u03ac\u03b3\u03b9\u03bf"}}, {"type": "node", "id": 5109136523, "lat": 38.4640952, "lon": 23.5917132, "tags": {"amenity": "restaurant"}}, {"type": "node", "id": 5188479196, "lat": 38.3233453, "lon": 23.3235403, "tags": {"amenity": "cafe"}}, {"type": "node", "id": 5225035321, "lat": 38.2763299, "lon": 23.5883789, "tags": {"amenity": "cafe", "name": "\u0393\u03ba\u03af\u03bd\u03b7\u03c2"}}, {"type": "node", "id": 5226748912, "lat": 38.2765449, "lon": 23.5880752, "tags": {"amenity": "cafe", "name": "\u0393\u03b1\u03c1\u03b4\u03ad\u03bd\u03b9\u03b1"}}, {"type": "node", "id": 5226748913, "lat": 38.2768189, "lon": 23.5881494, "tags": {"amenity": "restaurant", "cuisine": "barbecue"}}, {"type": "node", "id": 5228494405, "lat": 38.2766647, "lon": 23.5883164, "tags": {"amenity": "restaurant", "cuisine": "barbecue", "name": "\u0397 \u039b\u03b9\u03ac\u03c4\u03b1\u03bd\u03b7"}}, {"type": "node", "id": 5230137343, "lat": 38.2771955, "lon": 23.5886086, "tags": {"amenity": "cafe", "name": "\u0389 \u03b3\u03bb\u03c5\u03ba\u03b9\u03ac \u03b3\u03c9\u03bd\u03b9\u03ac", "name:en": "Sweet Corner", "opening_hours": "Mo-Su 07:00-21:00"}}, {"type": "node", "id": 5233064287, "lat": 38.2781168, "lon": 23.5936012, "tags": {"amenity": "cafe", "cuisine": "cake;coffee_shop;greek;grill;pizza;sandwich", "internet_access": "wlan", "name": "\u03a8\u03b1\u03bb\u03af\u03b4\u03b1\u03c2"}}, {"type": "node", "id": 5234937802, "lat": 38.3131353, "lon": 23.3406687, "tags": {"amenity": "restaurant", "cuisine": "regional", "name": "\u03a4\u03b1\u03b2\u03ad\u03c1\u03bd\u03b1 \"\u039f \u03bc\u03c0\u03b1\u03c1\u03bc\u03c0\u03b1-\u0393\u03b9\u03ac\u03bd\u03bd\u03b7\u03c2\""}}, {"type": "node", "id": 5234978035, "lat": 38.3093104, "lon": 23.343391, "tags": {"amenity": "restaurant"}}, {"type": "node", "id": 5247554204, "lat": 38.5291812, "lon": 23.6302869, "tags": {"amenity": "cafe", "name": "\u0396\u03ad\u03c6\u03c5\u03c1\u03bf\u03c2"}}, {"type": "node", "id": 5262666477, "lat": 38.4655794, "lon": 23.5927318}, {"type": "node", "id": 5269944101, "lat": 38.4661206, "lon": 23.5879505, "tags": {"amenity": "cafe", "cuisine": "coffee_shop;mediterranean;ice_cream;breakfast", "internet_access": "wlan", "name": "Plaz Asteria", "name:el": "\u03a0\u03b1\u03c1\u03b1\u03bb\u03af\u03b1 \u0391\u03c3\u03c4\u03ad\u03c1\u03b9\u03b1"}}, {"type": "node", "id": 5291513647, "lat": 38.3637416, "lon": 23.4426226, "tags": {"amenity": "cafe"}}, {"type": "node", "id": 5291550478, "lat": 38.3512757, "lon": 23.4859055, "tags": {"amenity": "cafe"}}, {"type": "node", "id": 5291576482, "lat": 38.2992301, "lon": 23.5015052, "tags": {"amenity": "cafe"}}, {"type": "node", "id": 5291576483, "lat": 38.2993773, "lon": 23.5017211, "tags": {"amenity": "restaurant"}}, {"type": "node", "id": 5291621043, "lat": 38.3087893, "lon": 23.4433851, "tags": {"amenity": "cafe"}}, {"type": "node", "id": 5291621044, "lat": 38.3086129, "lon": 23.4433621, "tags": {"amenity": "restaurant", "name": "\u039f \u03a3\u03c0\u03cd\u03c1\u03bf\u03c2"}}, {"type": "node", "id": 5291621047, "lat": 38.3086118, "lon": 23.4429717, "tags": {"amenity": "cafe", "name": "\u0396\u03c5\u03b3\u03cc\u03c2"}}, {"type": "node", "id": 5291621057, "lat": 38.2957082, "lon": 23.3891384, "tags": {"amenity": "cafe"}}, {"type": "node", "id": 5291621058, "lat": 38.2955903, "lon": 23.3891089, "tags": {"amenity": "cafe"}}, {"type": "node", "id": 5292011522, "lat": 38.3203377, "lon": 23.3178129, "tags": {"amenity": "restaurant", "name": "Corner In"}}, {"type": "node", "id": 5383629049, "lat": 38.4686583, "lon": 23.5939459}, {"type": "node", "id": 5383629050, "lat": 38.4685397, "lon": 23.5939213}, {"type": "node", "id": 5383629051, "lat": 38.4685146, "lon": 23.5941136}, {"type": "node", "id": 5383629053, "lat": 38.4686347, "lon": 23.5941495}, {"type": "node", "id": 5434107895, "lat": 38.4655029, "lon": 23.5929452}, {"type": "node", "id": 5434107896, "lat": 38.4653659, "lon": 23.5928652}, {"type": "node", "id": 5445204955, "lat": 38.6881704, "lon": 23.7226606, "tags": {"amenity": "cafe", "name": "\u039a\u03b1\u03c6\u03b5\u03bd\u03b5\u03af\u03b1"}}, {"type": "node", "id": 5632987391, "lat": 38.4490024, "lon": 23.663848, "tags": {"amenity": "restaurant", "name": "\u039a\u03c4\u03ae\u03bc\u03b1 \u0391\u039c\u03a0\u0395\u039b\u0399\u03a3", "phone": "6934588481,2221051469", "website": "https://www.ktimaampelis.gr/"}}, {"type": "node", "id": 5647108623, "lat": 38.4648262, "lon": 23.5924705, "tags": {"amenity": "cafe", "internet_access": "wlan", "name": "Frenzi", "opening_hours": "Mo-Su 08:00-02:00"}}, {"type": "node", "id": 5702681438, "lat": 38.3290441, "lon": 23.5354738}, {"type": "node", "id": 5702681439, "lat": 38.3288674, "lon": 23.53527}, {"type": "node", "id": 5702681440, "lat": 38.3290357, "lon": 23.5351037}, {"type": "node", "id": 5702681441, "lat": 38.3291788, "lon": 23.5352727}, {"type": "node", "id": 5802219854, "lat": 38.5958963, "lon": 23.5487487, "tags": {"amenity": "cafe", "name": "\u0386\u03c1\u03c9\u03bc\u03b1", "name:el": "\u0386\u03c1\u03c9\u03bc\u03b1", "name:en": "Aroma"}}, {"type": "node", "id": 5809168654, "lat": 38.5895998, "lon": 23.766177, "tags": {"amenity": "cafe"}}, {"type": "node", "id": 5836136143, "lat": 38.3238086, "lon": 23.3040483, "tags": {"amenity": "restaurant"}}, {"type": "node", "id": 5840037646, "lat": 38.6572112, "lon": 23.5587913, "tags": {"amenity": "restaurant"}}, {"type": "node", "id": 5873230391, "lat": 38.469156, "lon": 23.589548, "tags": {"addr:city": "\u03a7\u03b1\u03bb\u03ba\u03af\u03b4\u03b1", "addr:country": "GR", "addr:housenumber": "39", "addr:postcode": "34100", "addr:street": "\u0395\u03b8\u03bd\u03ac\u03c1\u03c7\u03bf\u03c5 \u039c\u03b1\u03ba\u03b1\u03c1\u03af\u03bf\u03c5", "amenity": "restaurant", "cuisine": "greek;seafood", "name": "\u03a7\u03b1\u03c1\u03ac", "name:el": "\u03a7\u03b1\u03c1\u03ac", "name:en": "Chara", "phone": "2221037485"}}, {"type": "node", "id": 6021376994, "lat": 38.5116699, "lon": 23.6361545, "tags": {"amenity": "restaurant", "name": "\u03a4\u03ac \u03a0\u03bb\u03b1\u03c4\u03ac\u03bd\u03b9\u03b1", "name:el": "\u03a4\u03ac \u03a0\u03bb\u03b1\u03c4\u03ac\u03bd\u03b9\u03b1", "name:en": "Ta Plat\u00e0nia"}}, {"type": "node", "id": 6249985342, "lat": 38.6213604, "lon": 23.7367919, "tags": {"amenity": "restaurant", "name": "\u03a8\u03b7\u03c3\u03c4\u03b1\u03c1\u03b9\u03ac \u039f \u039b\u03b5\u03c5\u03c4\u03ad\u03c1\u03b7\u03c2"}}, {"type": "node", "id": 6434188380, "lat": 38.4595304, "lon": 23.6112936, "tags": {"amenity": "cafe"}}, {"type": "node", "id": 6434188579, "lat": 38.4692651, "lon": 23.6059628, "tags": {"addr:city": "\u03a7\u03b1\u03bb\u03ba\u03af\u03b4\u03b1", "addr:country": "GR", "addr:housenumber": "68", "addr:postcode": "34100", "addr:street": "\u0393\u03b5\u03c9\u03c1\u03b3\u03af\u03bf\u03c5 \u03a7\u03b1\u03ca\u03bd\u03ac", "amenity": "restaurant", "cuisine": "chicken;greek", "name": "\u039f \u039a\u03b9\u03bc\u03c0\u03ac\u03c1\u03b7\u03c2", "opening_hours": "Mo-Su 12:00-23:00", "phone": "2221089115", "website": "https://kimparis.gr/"}}, {"type": "node", "id": 6485718118, "lat": 38.4636421, "lon": 23.5995517}, {"type": "node", "id": 6485718119, "lat": 38.4636892, "lon": 23.5995256}, {"type": "node", "id": 6485718120, "lat": 38.4636547, "lon": 23.5994495}, {"type": "node", "id": 6485718121, "lat": 38.4636092, "lon": 23.5994735}, {"type": "node", "id": 6753627195, "lat": 38.4740802, "lon": 23.603671, "tags": {"addr:city": "\u03a7\u03b1\u03bb\u03ba\u03af\u03b4\u03b1", "addr:country": "GR", "addr:postcode": "34100", "addr:street": "\u0395\u03b8\u03bd\u03b9\u03ba\u03ae\u03c2 \u03a3\u03c5\u03bc\u03c6\u03b9\u03bb\u03af\u03c9\u03c3\u03b7\u03c2", "amenity": "restaurant", "check_date": "2024-03-06", "cuisine": "greek;fish", "name": "\u0391\u03c0\u03ac\u03bd\u03b5\u03bc\u03bf"}}, {"type": "node", "id": 6753627196, "lat": 38.4739992, "lon": 23.6036255, "tags": {"addr:city": "\u03a7\u03b1\u03bb\u03ba\u03af\u03b4\u03b1", "addr:country": "GR", "addr:postcode": "34100", "addr:street": "\u0395\u03b8\u03bd\u03b9\u03ba\u03ae\u03c2 \u03a3\u03c5\u03bc\u03c6\u03b9\u03bb\u03af\u03c9\u03c3\u03b7\u03c2", "amenity": "restaurant", "check_date": "2024-03-06", "cuisine": "greek;fish", "name": "\u0398\u03b1\u03bb\u03ac\u03bc\u03b9"}}, {"type": "node", "id": 6753627278, "lat": 38.471038, "lon": 23.6008787, "tags": {"addr:city": "\u03a7\u03b1\u03bb\u03ba\u03af\u03b4\u03b1", "addr:country": "GR", "addr:housenumber": "37", "addr:postcode": "34100", "addr:street": "\u03a1\u03b5\u03b3\u03ba\u03bf\u03cd\u03ba\u03bf\u03c5", "amenity": "cafe", "name": "Friendly"}}, {"type": "node", "id": 6779344577, "lat": 38.4655998, "lon": 23.5930558, "tags": {"amenity": "cafe", "name": "\u039a\u03ac\u03bb\u03c7\u03b7", "outdoor_seating": "yes"}}, {"type": "node", "id": 6779344578, "lat": 38.4651459, "lon": 23.5941877, "tags": {"amenity": "cafe", "outdoor_seating": "yes"}}, {"type": "node", "id": 6779344579, "lat": 38.4646591, "lon": 23.5943207, "tags": {"amenity": "cafe", "name": "Boheme", "outdoor_seating": "yes"}}, {"type": "node", "id": 6943957728, "lat": 38.6056735, "lon": 23.6658291}, {"type": "node", "id": 6943957729, "lat": 38.6056785, "lon": 23.6657749}, {"type": "node", "id": 6943957730, "lat": 38.6055177, "lon": 23.6657047}, {"type": "node", "id": 6943957731, "lat": 38.6055128, "lon": 23.665853}, {"type": "node", "id": 6943957732, "lat": 38.6037887, "lon": 23.6658484}, {"type": "node", "id": 6943957733, "lat": 38.6036254, "lon": 23.6657113}, {"type": "node", "id": 6943957734, "lat": 38.6036715, "lon": 23.6656315}, {"type": "node", "id": 6943957735, "lat": 38.6038273, "lon": 23.6657719}, {"type": "node", "id": 6943957736, "lat": 38.6041436, "lon": 23.665733}, {"type": "node", "id": 6943957737, "lat": 38.6040922, "lon": 23.6658434}, {"type": "node", "id": 6943957738, "lat": 38.6039933, "lon": 23.6657719}, {"type": "node", "id": 6943957739, "lat": 38.6040466, "lon": 23.6656533}, {"type": "node", "id": 7196440017, "lat": 38.4620599, "lon": 23.5903151, "tags": {"amenity": "cafe", "internet_access": "wlan", "name": "Yolo"}}, {"type": "node", "id": 7262123719, "lat": 38.4672582, "lon": 23.5938707, "tags": {"addr:city": "\u03a7\u03b1\u03bb\u03ba\u03af\u03b4\u03b1", "addr:country": "GR", "addr:postcode": "34100", "addr:street": "\u03a4\u03b6\u03b9\u03b1\u03c1\u03bd\u03c4\u03af\u03bd\u03b9", "amenity": "restaurant", "cuisine": "greek", "name": "\u039c\u03b5\u03c1\u03b1\u03ba\u03bb\u03ae\u03b4\u03b9\u03ba\u03bf", "name:el": "\u03a4\u03bf \u039c\u03b5\u03c1\u03b1\u03ba\u03bb\u03af\u03b4\u03b9\u03ba\u03bf (\u039c\u03b5\u03b6\u03b5\u03b4\u03ac\u03b4\u03b9\u03ba\u03bf)", "name:en": "Meraklidiko", "opening_hours": "Mo-Su 11:00-01:00", "phone": "2221076655", "website": "https://meraklidiko.business.site/"}}, {"type": "node", "id": 7262125139, "lat": 38.4663709, "lon": 23.5934519, "tags": {"addr:city": "\u03a7\u03b1\u03bb\u03ba\u03af\u03b4\u03b1", "addr:country": "GR", "addr:postcode": "34100", "amenity": "cafe", "name": "Aurora", "phone": "2221022086"}}, {"type": "node", "id": 7262131579, "lat": 38.466681, "lon": 23.5935908, "tags": {"addr:city": "\u03a7\u03b1\u03bb\u03ba\u03af\u03b4\u03b1", "addr:country": "GR", "addr:postcode": "34100", "amenity": "restaurant", "cuisine": "greek;grill", "name": "\u03a0\u03b1\u03c2 \u0393\u03c5\u03c1\u03b5\u03cd\u03bf\u03bd\u03c4\u03b1\u03c2", "opening_hours": "Mo-Su 12:00-02:00", "phone": "+302221022009", "website": "http://www.pasgureuontas.gr"}}, {"type": "node", "id": 7262140686, "lat": 38.466785, "lon": 23.5936282, "tags": {"addr:postcode": "34100", "amenity": "restaurant", "cuisine": "greek", "name": "\u03a3\u03c7\u03bf\u03bb\u03b1\u03c1\u03c7\u03b5\u03af\u03bf", "name:el": "\u03a3\u03c7\u03bf\u03bb\u03b1\u03c1\u03c7\u03b5\u03af\u03bf (\u039c\u03b5\u03b6\u03b5\u03b4\u03bf\u03c0\u03c9\u03bb\u03b5\u03af\u03bf)", "name:en": "Sxolarxeio", "opening_hours": "Mo-Su 13:00-00:30", "phone": "2221023289 , 6977159408", "website": "https://mezedopoleio-scholarhio.gr/"}}, {"type": "node", "id": 7622630985, "lat": 38.4706621, "lon": 23.5865977, "tags": {"addr:city": "\u03a7\u03b1\u03bb\u03ba\u03af\u03b4\u03b1", "addr:country": "GR", "addr:housenumber": "58", "addr:postcode": "34100", "addr:street": "\u0391\u03bc\u03c6\u03b9\u03b4\u03ac\u03bc\u03b1\u03bd\u03c4\u03bf\u03c2", "amenity": "restaurant", "cuisine": "greek;grill", "name": "\"\u03a4\u03bf \u03a0\u03b9\u03ba\u03ac\u03bd\u03c4\u03b9\u03ba\u03bf\"", "phone": "2221076990"}}, {"type": "node", "id": 7622630986, "lat": 38.4673705, "lon": 23.5884655, "tags": {"addr:city": "\u03a7\u03b1\u03bb\u03ba\u03af\u03b4\u03b1", "addr:country": "GR", "addr:housenumber": "15", "addr:postcode": "34100", "addr:street": "\u0395\u03b8\u03bd\u03ac\u03c1\u03c7\u03bf\u03c5 \u039c\u03b1\u03ba\u03b1\u03c1\u03af\u03bf\u03c5", "amenity": "restaurant", "cuisine": "greek;seafood", "name": "\"\u03a4\u03b1 \u039a\u03b1\u0390\u03ba\u03b9\u03b1\"", "name:el": "\u039f\u03c5\u03b6\u03b5\u03c1\u03af \"\u03a4\u03b1 \u039a\u03b1\u0390\u03ba\u03b9\u03b1\"", "phone": "2221027893"}}, {"type": "node", "id": 7663578239, "lat": 38.4518219, "lon": 23.6853471, "tags": {"amenity": "cafe"}}, {"type": "node", "id": 7767848434, "lat": 38.4686253, "lon": 23.5941461}, {"type": "node", "id": 7768157086, "lat": 38.4605093, "lon": 23.5967602, "tags": {"addr:city": "\u03a7\u03b1\u03bb\u03ba\u03af\u03b4\u03b1", "addr:country": "GR", "addr:housenumber": "68", "addr:postcode": "34100", "addr:street": "\u0395\u03bb\u03b5\u03c5\u03b8\u03b5\u03c1\u03af\u03bf\u03c5 \u0392\u03b5\u03bd\u03b9\u03b6\u03ad\u03bb\u03bf\u03c5", "amenity": "restaurant", "cuisine": "greek;grill", "name": "Special", "opening_hours": "Mo-Su 12:00-01:00", "phone": "2221084751"}}, {"type": "node", "id": 7856719090, "lat": 38.4611112, "lon": 23.6045516, "tags": {"addr:city": "\u03a7\u03b1\u03bb\u03ba\u03af\u03b4\u03b1", "addr:country": "GR", "addr:housenumber": "143", "addr:postcode": "34100", "addr:street": "\u0391\u03c1\u03b5\u03b8\u03bf\u03cd\u03c3\u03b7\u03c2", "amenity": "cafe", "cuisine": "coffee_shop;crepe;sandwich", "name": "UP", "opening_hours": "24/7", "phone": "2221028104"}}, {"type": "node", "id": 7856719298, "lat": 38.48585, "lon": 23.5567249, "tags": {"amenity": "restaurant", "name": "\u03a4\u03b1\u03b2\u03ad\u03c1\u03bd\u03b1 \"\u03a0\u03b1\u03bd. \u0392\u03bf\u03c1\u03b4\u03ce\u03bb\u03b1\u03ba\u03b1\u03c2\"", "name:el": "\u03a4\u03b1\u03b2\u03ad\u03c1\u03bd\u03b1 \"\u0392\u03bf\u03c1\u03b4\u03ce\u03bb\u03b1\u03ba\u03b1\u03c2\"", "phone": "2221099012"}}, {"type": "node", "id": 7856719301, "lat": 38.4727599, "lon": 23.6076984, "tags": {"amenity": "cafe", "name": "Fuego"}}, {"type": "node", "id": 7856719303, "lat": 38.4617058, "lon": 23.5898255, "tags": {"amenity": "cafe", "name": "Block", "name:en": "Porto"}}, {"type": "node", "id": 7856719387, "lat": 38.4618169, "lon": 23.5939333, "tags": {"amenity": "restaurant", "name": "\u039f\u03c5\u03b6\u03b5\u03c1\u03af \"\u03a4\u03c3\u03b1\u03c6\""}}, {"type": "node", "id": 7856719398, "lat": 38.4642879, "lon": 23.5923314, "tags": {"addr:city": "\u03a7\u03b1\u03bb\u03ba\u03af\u03b4\u03b1", "addr:country": "GR", "addr:housenumber": "1", "addr:postcode": "34100", "addr:street": "\u03a6\u03b1\u03c1\u03bc\u03b1\u03ba\u03af\u03b4\u03bf\u03c5", "amenity": "cafe", "cuisine": "coffee_shop;sandwich", "name": "Net food cafe", "opening_hours": "24/7", "phone": "2221060436"}}, {"type": "node", "id": 7856719404, "lat": 38.4713368, "lon": 23.6002412, "tags": {"amenity": "restaurant", "name": "\u03a4\u03bf \u03c0\u03b9\u03ac\u03c4\u03bf"}}, {"type": "node", "id": 7856719405, "lat": 38.4679403, "lon": 23.5951239, "tags": {"addr:housenumber": "2", "addr:postcode": "34100", "addr:street": "\u039a\u03b1\u03c1\u03b1\u03bf\u03bb\u03ae & \u0394\u03b7\u03bc\u03b7\u03c4\u03c1\u03af\u03bf\u03c5", "amenity": "cafe", "int_name": "Lemon", "name": "Lemon cafe", "name:el": "Lemon", "outdoor_seating": "yes", "phone": "2221302493"}}, {"type": "node", "id": 7856719406, "lat": 38.4742635, "lon": 23.6051637, "tags": {"amenity": "restaurant", "name": "Maccelo"}}, {"type": "node", "id": 7856719411, "lat": 38.4837845, "lon": 23.5464211, "tags": {"amenity": "restaurant", "cuisine": "grill", "name": "\u03a8\u03b7\u03c3\u03c4\u03b1\u03c1\u03b9\u03ac \u0395\u03bb\u03b5\u03c5\u03b8\u03b5\u03c1\u03af\u03bf\u03c5"}}, {"type": "node", "id": 7856719412, "lat": 38.4743787, "lon": 23.5744604, "tags": {"amenity": "restaurant", "name": "\u03a0\u03bf\u03c3\u03b5\u03b9\u03b4\u03c9\u03bd\u03af\u03b1"}}, {"type": "node", "id": 7856719419, "lat": 38.464462, "lon": 23.5881684, "tags": {"addr:city": "\u03a7\u03b1\u03bb\u03ba\u03af\u03b4\u03b1", "addr:country": "GR", "addr:postcode": "34100", "addr:street": "\u0395\u03b8\u03bd\u03ac\u03c1\u03c7\u03bf\u03c5 \u039c\u03b1\u03ba\u03b1\u03c1\u03af\u03bf\u03c5", "amenity": "restaurant", "cuisine": "fish;greek;grill;pizza;seafood", "name": "\"\u0392\u03c1\u03ac\u03c7\u03bf\u03c2\""}}, {"type": "node", "id": 7856719505, "lat": 38.4741776, "lon": 23.6052789, "tags": {"amenity": "cafe", "name": "Faros 10"}}, {"type": "node", "id": 7856719511, "lat": 38.482854, "lon": 23.5477974, "tags": {"addr:housenumber": "2", "addr:postcode": "34100", "addr:street": "\u039c\u03bf\u03c5\u03c1\u03b9\u03ba\u03af\u03bf\u03c5 - \u0394\u03c1\u03bf\u03c3\u03b9\u03ac\u03c2", "amenity": "restaurant", "cuisine": "pasta;pizza", "name": "\u03a0\u03b9\u03c4\u03c3\u03b1\u03c1\u03af\u03b1 Villaggio", "name:el": "\u03a0\u03b9\u03c4\u03c3\u03b1\u03c1\u03af\u03b1 Villaggio", "name:en": "Pizza Villaggio", "opening_hours": "We-Su 17:00-01:00", "phone": "2221099006"}}, {"type": "node", "id": 7856719516, "lat": 38.4618293, "lon": 23.5899919, "tags": {"amenity": "restaurant", "name": "\u0397\u03bb\u03b9\u03ac\u03b4\u03b7\u03c2 \"\u0397 \u03c6\u03c9\u03bb\u03b9\u03ac\""}}, {"type": "node", "id": 7856719517, "lat": 38.4645625, "lon": 23.6033706, "tags": {"addr:housenumber": "14", "addr:postcode": "34100", "addr:street": "\u039c\u03b5\u03c3\u03c3\u03b1\u03c0\u03af\u03c9\u03bd", "amenity": "restaurant", "cuisine": "greek;grill;steak_house", "name": "\u039c\u03b5\u03c4\u03bf\u03c7\u03b9\u03ac\u03c4\u03b7\u03c2", "opening_hours": "Mo-Sa 08:00-00:00", "phone": "2221088745", "website": "https://metoxiatis.gr/"}}, {"type": "node", "id": 7856719519, "lat": 38.4638813, "lon": 23.5885125, "tags": {"amenity": "restaurant", "name": "\u03a4\u03c3\u03b1\u03c6\u03ac\u03ba\u03b9"}}, {"type": "node", "id": 7856719586, "lat": 38.469868, "lon": 23.589854, "tags": {"addr:city": "\u03a7\u03b1\u03bb\u03ba\u03af\u03b4\u03b1", "addr:country": "GR", "addr:housenumber": "47", "addr:postcode": "34100", "addr:street": "\u0395\u03b8\u03bd\u03ac\u03c1\u03c7\u03bf\u03c5 \u039c\u03b1\u03ba\u03b1\u03c1\u03af\u03bf\u03c5", "amenity": "restaurant", "cuisine": "greek;grill;steak_house", "name": "\u03a8\u03b7\u03c3\u03c4\u03b1\u03c1\u03b9\u03ac \"\u039f \u039a\u03bf\u03cd\u03bb\u03b7\u03c2\"", "phone": "2221080810"}}, {"type": "node", "id": 7856719588, "lat": 38.4609805, "lon": 23.605189, "tags": {"addr:city": "\u03a7\u03b1\u03bb\u03ba\u03af\u03b4\u03b1", "addr:country": "GR", "addr:housenumber": "3", "addr:postcode": "34100", "addr:street": "\u0391\u03c7\u03b1\u03b9\u03bf\u03cd", "amenity": "cafe", "name": "\u03a7\u03c1\u03b9\u03c3\u03c4\u03cc\u03b4\u03bf\u03c5\u03bb\u03bf\u03c2", "phone": "2221078258"}}, {"type": "node", "id": 7856719589, "lat": 38.471007, "lon": 23.6113477, "tags": {"amenity": "cafe"}}, {"type": "node", "id": 7856719694, "lat": 38.462692, "lon": 23.5934791, "tags": {"addr:city": "\u03a7\u03b1\u03bb\u03ba\u03af\u03b4\u03b1", "addr:country": "GR", "addr:housenumber": "11", "addr:postcode": "34100", "amenity": "cafe", "name": "\u03a4\u03b1 \u03c6\u03bb\u03b9\u03c4\u03b6\u03b1\u03bd\u03bf\u03ba\u03b5'\u03b9'\u03ba\u03ac\u03ba\u03b9\u03b1", "phone": "2221312934"}}, {"type": "node", "id": 7856719695, "lat": 38.4644141, "lon": 23.5921421, "tags": {"addr:city": "\u03a7\u03b1\u03bb\u03ba\u03af\u03b4\u03b1", "addr:country": "GR", "addr:housenumber": "18", "addr:postcode": "34100", "addr:street": "\u0392\u03bf\u03c5\u03b4\u03bf\u03cd\u03c1\u03b7", "amenity": "restaurant", "cuisine": "greek;mediterranean", "name": "\u03a3\u03c0\u03b9\u03c4\u03b9\u03ba\u03cc \u0388\u03b4\u03b5\u03c3\u03bc\u03b1", "opening_hours": "Mo-Su 12:00-01:00", "phone": "2221077992", "website": "https://www.spitikoedesma.gr/"}}, {"type": "node", "id": 7856720089, "lat": 38.4704535, "lon": 23.5863554, "tags": {"addr:housenumber": "72", "addr:postcode": "34100", "addr:street": "\u0391\u03bc\u03c6\u03b9\u03b4\u03ac\u03bc\u03b1\u03bd\u03c4\u03bf\u03c2", "amenity": "cafe", "name:en": "Siesta cafe", "phone": "2221094413"}}, {"type": "node", "id": 7862300698, "lat": 38.4604992, "lon": 23.5919621, "tags": {"addr:housenumber": "19", "addr:postcode": "34100", "addr:street": "\u0391\u03bb. \u0392\u03ac\u03ba\u03b7", "amenity": "restaurant", "contact:facebook": "https://www.facebook.com/pantopolion1922", "contact:instagram": "https://www.instagram.com/pantopolio.1922/", "cuisine": "coffee_shop;greek;mediterranean", "name": "\u03a0\u03b1\u03bd\u03c4\u03bf\u03c0\u03c9\u03bb\u03b5\u03af\u03bf 1922", "phone": "2221083111", "website": "https://pantopolio1922.com/"}}, {"type": "node", "id": 7963861792, "lat": 38.7132102, "lon": 23.7510423, "tags": {"amenity": "restaurant", "check_date": "2024-08-07", "name": "Taverne"}}, {"type": "node", "id": 8002428085, "lat": 38.3058574, "lon": 23.6406428, "tags": {"addr:housenumber": "20", "addr:postcode": "32011", "addr:street": "\u039c\u03b9\u03b1\u03bf\u03cd\u03bb\u03b7", "amenity": "cafe", "name:en": "Coupe-pe Creperie and Coffee", "phone": "+30-22623-04529"}}, {"type": "node", "id": 8401828221, "lat": 38.4673908, "lon": 23.5939309, "tags": {"addr:city": "\u03a7\u03b1\u03bb\u03ba\u03af\u03b4\u03b1", "addr:country": "GR", "addr:housenumber": "2", "addr:postcode": "34100", "addr:street": "\u03a0\u03b5\u03c1. \u03a3\u03c4\u03b1\u03cd\u03c1\u03bf\u03c5", "amenity": "restaurant", "cuisine": "greek;italian;pasta;pizza", "name": "La Fiamma (\u03a0\u03b9\u03c4\u03c3\u03b1\u03c1\u03af\u03b1)", "name:el": "La Fiamma (\u03a0\u03b9\u03c4\u03c3\u03b1\u03c1\u03af\u03b1)", "name:en": "La Fiamma (Pizzeria)", "opening_hours": "Mo-Su 11:00-01:00", "phone": "2221075006", "website": "http://www.lafiamma gr"}}, {"type": "node", "id": 8401828222, "lat": 38.4634141, "lon": 23.5929696, "tags": {"addr:city": "\u03a7\u03b1\u03bb\u03ba\u03af\u03b4\u03b1", "addr:country": "GR", "addr:postcode": "34100", "addr:street": "\u0395\u03bb\u03b5\u03c5\u03b8\u03b5\u03c1\u03af\u03bf\u03c5 \u0392\u03b5\u03bd\u03b9\u03b6\u03ad\u03bb\u03bf\u03c5", "amenity": "cafe", "name:en": "Passion for Life", "phone": "2221026191"}}, {"type": "node", "id": 8401828226, "lat": 38.4705446, "lon": 23.5866987, "tags": {"addr:city": "\u03a7\u03b1\u03bb\u03ba\u03af\u03b4\u03b1", "addr:country": "GR", "addr:housenumber": "52", "addr:postcode": "34100", "addr:street": "\u0391\u03c1\u03b9\u03c3\u03c4\u03bf\u03c4\u03ad\u03bb\u03bf\u03c5\u03c2", "amenity": "restaurant", "cuisine": "friture;greek;seafood", "name": "\"\u0397 \u039a\u03c5\u03c1\u03ac \u0392\u03bf\u03cd\u03bb\u03b1\"", "phone": "2221029434"}}, {"type": "node", "id": 8401828328, "lat": 38.4723533, "lon": 23.6361688, "tags": {"addr:street": "\u0391\u03bd\u03c4\u03c9\u03bd\u03af\u03bf\u03c5 \u039c\u03b1\u03c1\u03b3\u03b1\u03c1\u03af\u03c4\u03b7", "amenity": "restaurant", "cuisine": "greek;grill", "name": "\"\u03a4\u03c3\u03af\u03bc\u03c0\u03bf\u03c2\""}}, {"type": "node", "id": 8401828422, "lat": 38.4615862, "lon": 23.5939204, "tags": {"addr:street": "\u039c. \u03a6\u03c1\u03b9\u03b6\u03ae", "amenity": "cafe", "name": "Fresh", "name:en": "Portioli"}}, {"type": "node", "id": 8401828430, "lat": 38.4641635, "lon": 23.5883143, "tags": {"addr:city": "\u03a7\u03b1\u03bb\u03ba\u03af\u03b4\u03b1", "addr:country": "GR", "addr:postcode": "34100", "addr:street": "\u0395\u03b8\u03bd\u03ac\u03c1\u03c7\u03bf\u03c5 \u039c\u03b1\u03ba\u03b1\u03c1\u03af\u03bf\u03c5", "amenity": "restaurant", "name": "\u039a\u03b1\u03c0\u03ac\u03ba\u03b9", "name:el": "\u03a4\u03b1\u03b2\u03ad\u03c1\u03bd\u03b1-\u039f\u03c5\u03b6\u03b5\u03c1\u03af \"\u039a\u03b1\u03c0\u03ac\u03ba\u03b9\""}}, {"type": "node", "id": 8401828435, "lat": 38.4566911, "lon": 23.5976167, "tags": {"addr:city": "\u03a7\u03b1\u03bb\u03ba\u03af\u03b4\u03b1", "addr:country": "GR", "addr:housenumber": "55", "addr:postcode": "34100", "addr:street": "\u0395\u03c5\u03b2\u03bf\u03af\u03b1\u03c2", "amenity": "cafe", "internet_access": "wlan", "name:en": "Mirkos"}}, {"type": "node", "id": 8401828436, "lat": 38.4069953, "lon": 23.6037692, "tags": {"addr:postcode": "34100", "addr:street": "\u03a3\u03c7\u03b7\u03bc\u03b1\u03c4\u03ac\u03c1\u03b9 - \u0392\u03b1\u03b8\u03cd", "amenity": "cafe", "name": "Fresh", "opening_hours": "24/7", "phone": "2221033136"}}, {"type": "node", "id": 8401828445, "lat": 38.4701993, "lon": 23.6093197, "tags": {"addr:city": "\u03a7\u03b1\u03bb\u03ba\u03af\u03b4\u03b1", "addr:country": "GR", "addr:postcode": "34100", "addr:street": "\u0391\u03bd\u03c4.\u039d\u03af\u03ba\u03b1 & 25\u03b7\u03c2 \u039c\u03b1\u03c1\u03c4\u03af\u03bf\u03c5", "amenity": "restaurant", "check_date": "2024-10-12", "name": "\u03a8\u03b7\u03c3\u03c4\u03b1\u03c1\u03b9\u03ac \"\u039f \u039a\u03bf\u03cd\u03bb\u03b7\u03c2\"", "phone": "22210"}}, {"type": "node", "id": 8401828448, "lat": 38.4067241, "lon": 23.6035808, "tags": {"addr:street": "\u03a3\u03c7\u03b7\u03bc\u03b1\u03c4\u03ac\u03c1\u03b9 - \u0392\u03b1\u03b8\u03cd", "amenity": "restaurant", "cuisine": "coffee_shop;steak_house", "name": "\u03a4\u03c3\u03b9 \u03c4\u03c3\u03b9 corner", "phone": "2221032090"}}, {"type": "node", "id": 8602673017, "lat": 38.6012181, "lon": 23.5982739, "tags": {"addr:street": "\u03a7\u03b1\u03bb\u03ba\u03af\u03b4\u03b1\u03c2 - \u039b\u03bf\u03c5\u03c4\u03c1\u03ce\u03bd \u0391\u03b9\u03b4\u03b7\u03c8\u03bf\u03cd", "amenity": "restaurant", "cuisine": "greek;grill", "name": "\"\u03a0\u03b1\u03bd\u03cc\u03c1\u03b1\u03bc\u03b1\"", "name:el": "\"\u03a4\u03bf \u03a0\u03b1\u03bd\u03cc\u03c1\u03b1\u03bc\u03b1\"", "phone": "22280"}}, {"type": "node", "id": 8731639546, "lat": 38.3742343, "lon": 23.6387609, "tags": {"amenity": "cafe"}}, {"type": "node", "id": 8731698483, "lat": 38.3820698, "lon": 23.6292487, "tags": {"amenity": "restaurant", "name": "\u03a4\u03c3\u03af\u03c6\u03c4\u03b7\u03c2"}}, {"type": "node", "id": 8731724268, "lat": 38.3794108, "lon": 23.6302979, "tags": {"amenity": "cafe", "name": "Coffee run"}}, {"type": "node", "id": 8731724271, "lat": 38.3815524, "lon": 23.6307268, "tags": {"amenity": "cafe", "name": "\u03a3\u03bf\u03cd\u03c3\u03bf\u03c5\u03c1o"}}, {"type": "node", "id": 8731724272, "lat": 38.3840551, "lon": 23.63088, "tags": {"amenity": "cafe", "name": "\u039b\u03cd\u03bd\u03c4\u03bf\u03c2"}}, {"type": "node", "id": 8731728273, "lat": 38.3836453, "lon": 23.6296509, "tags": {"amenity": "cafe", "name": "Aylida"}}, {"type": "node", "id": 8731733123, "lat": 38.3826083, "lon": 23.6293771, "tags": {"amenity": "restaurant", "name": "\u039a\u03b1\u03c1\u03c4\u03b1\u03bb\u03b1\u03c2"}}, {"type": "node", "id": 8731736524, "lat": 38.3822048, "lon": 23.6307556, "tags": {"amenity": "restaurant", "name": "\u039d\u03bf\u03c3\u03c4\u03b9\u03bc\u03b9\u03ac"}}, {"type": "node", "id": 8731739462, "lat": 38.3812401, "lon": 23.6307156, "tags": {"amenity": "cafe", "name": "Porto"}}, {"type": "node", "id": 8731739720, "lat": 38.3820763, "lon": 23.6307492, "tags": {"amenity": "restaurant", "name": "\u03a3\u03c5\u03bc\u03c0\u03cc\u03c3\u03b9\u03bf"}}, {"type": "node", "id": 8747331917, "lat": 38.4656844, "lon": 23.574481, "tags": {"addr:street": "\u039a\u03c9\u03bd\u03c3\u03c4\u03b1\u03bd\u03c4\u03af\u03bd\u03bf\u03c5 \u039a\u03b1\u03c1\u03b1\u03bc\u03b1\u03bd\u03bb\u03ae", "amenity": "cafe", "name:en": "Coffee Power"}}, {"type": "node", "id": 8776720697, "lat": 38.3022573, "lon": 23.7301393}, {"type": "node", "id": 8776720698, "lat": 38.3023027, "lon": 23.7302328}, {"type": "node", "id": 8776720699, "lat": 38.3022246, "lon": 23.7302978}, {"type": "node", "id": 8776720700, "lat": 38.3021791, "lon": 23.7301891}, {"type": "node", "id": 8776720709, "lat": 38.302597, "lon": 23.7300346}, {"type": "node", "id": 8776720710, "lat": 38.3025348, "lon": 23.7301403}, {"type": "node", "id": 8776720711, "lat": 38.3026281, "lon": 23.7302196}, {"type": "node", "id": 8776720712, "lat": 38.3026816, "lon": 23.7301007}, {"type": "node", "id": 8776720713, "lat": 38.3027837, "lon": 23.7304422}, {"type": "node", "id": 8776720714, "lat": 38.3026983, "lon": 23.7305712}, {"type": "node", "id": 8776720715, "lat": 38.3025978, "lon": 23.7304849}, {"type": "node", "id": 8776720716, "lat": 38.3026289, "lon": 23.730431}, {"type": "node", "id": 8776720717, "lat": 38.3026792, "lon": 23.7304594}, {"type": "node", "id": 8776720718, "lat": 38.3027231, "lon": 23.7303852}, {"type": "node", "id": 8785296453, "lat": 38.3751883, "lon": 23.633329}, {"type": "node", "id": 8785296454, "lat": 38.3751119, "lon": 23.6334471}, {"type": "node", "id": 8785296455, "lat": 38.375018, "lon": 23.6333482}, {"type": "node", "id": 8785296456, "lat": 38.3750943, "lon": 23.6332302}, {"type": "node", "id": 8786120491, "lat": 38.3459495, "lon": 23.5846486, "tags": {"amenity": "cafe", "name": "Pleasure"}}, {"type": "node", "id": 8791875528, "lat": 38.4656904, "lon": 23.5743705, "tags": {"addr:housenumber": "81", "addr:postcode": "34100", "addr:street": "\u039a\u03c9\u03bd\u03c3\u03c4\u03b1\u03bd\u03c4\u03af\u03bd\u03bf\u03c5 \u039a\u03b1\u03c1\u03b1\u03bc\u03b1\u03bd\u03bb\u03ae", "amenity": "cafe", "cuisine": "coffee_shop;sandwich", "name": "Coffee Power", "phone": "2221093820"}}, {"type": "node", "id": 8791877131, "lat": 38.4676971, "lon": 23.5941665, "tags": {"addr:postcode": "34100", "addr:street": "\u039c\u03b9\u03b1\u03bf\u03cd\u03bb\u03b7 & \u03a4\u03b6\u03b9\u03b1\u03c1\u03bd\u03c4\u03af\u03bd\u03b7", "amenity": "restaurant", "cuisine": "greek;grill;steak_house", "name": "\u0393\u03bf\u03c5\u03c1\u03bf\u03c5\u03bd\u03ac\u03ba\u03b9 souvlakerie", "opening_hours": "Mo-Su 12:30-01:00", "phone": "2221080007"}}, {"type": "node", "id": 8810826817, "lat": 38.4967529, "lon": 23.5311921, "tags": {"addr:postcode": "34100", "addr:street": "\u0391\u03bb\u03c5\u03ba\u03ae\u03c2", "amenity": "restaurant", "cuisine": "greek;grill", "name": "\u0391\u03bb\u03b7\u03c4\u03bf\u03b3\u03b5\u03cd\u03c3\u03b5\u03b9\u03c2", "name:el": "\u0391\u03bb\u03b7\u03c4\u03bf\u03b3\u03b5\u03cd\u03c3\u03b5\u03b9\u03c2 (\u03a0\u03b5\u03c1\u03b4\u03af\u03ba\u03b7\u03c2 \u0392\u03b1\u03c3\u03af\u03bb.)", "phone": "2221098031"}}, {"type": "node", "id": 8887496734, "lat": 38.4794811, "lon": 23.4476903}, {"type": "node", "id": 8900339994, "lat": 38.4637489, "lon": 23.5912123, "tags": {"amenity": "cafe", "name": "Centro"}}, {"type": "node", "id": 8910416517, "lat": 38.4676265, "lon": 23.5881557, "tags": {"addr:postcode": "35100", "addr:street": "\u0391\u03c1\u03b9\u03c3\u03c4\u03bf\u03c4\u03ad\u03bb\u03bf\u03c5\u03c2", "amenity": "cafe", "name": "\u03a0\u03b1\u03c0\u03b1\u03b3\u03ac\u03bb\u03bf\u03c2 (\u039a\u03b1\u03bb\u03bf\u03ba\u03b1\u03b9\u03c1\u03b9\u03bd\u03cc)"}}, {"type": "node", "id": 8910416518, "lat": 38.4615883, "lon": 23.5968081, "tags": {"addr:postcode": "34100", "addr:street": "\u039a\u03c1\u03b9\u03b5\u03b6\u03ce\u03c4\u03bf\u03c5", "amenity": "cafe"}}, {"type": "node", "id": 8910416618, "lat": 38.4614785, "lon": 23.5968868, "tags": {"addr:postcode": "34100", "addr:street": "\u039a\u03c1\u03b9\u03b5\u03b6\u03ce\u03c4\u03bf\u03c5 & \u03a9\u03c1\u03af\u03c9\u03bd\u03bf\u03c2", "amenity": "restaurant", "cuisine": "coffee_shop;friture;seafood", "name": "\u039c\u03b5\u03b6\u03b5\u03b4\u03bf\u03c0\u03c9\u03bb\u03b5\u03af\u03bf"}}, {"type": "node", "id": 9022094617, "lat": 38.4676498, "lon": 23.5880467, "tags": {"addr:housenumber": "6", "addr:postcode": "34100", "addr:street": "\u0391\u03c1\u03b9\u03c3\u03c4\u03bf\u03c4\u03ad\u03bb\u03bf\u03c5\u03c2", "amenity": "cafe", "name": "\u03a0\u03b1\u03c0\u03b1\u03b3\u03ac\u03bb\u03bf\u03c2 (Gastro Pub) (\u039a\u03b1\u03bb\u03bf\u03ba\u03b1\u03b9\u03c1\u03b9\u03bd\u03cc)"}}, {"type": "node", "id": 9050137285, "lat": 38.4601993, "lon": 23.6019587, "tags": {"addr:city": "\u03a7\u03b1\u03bb\u03ba\u03af\u03b4\u03b1", "addr:housenumber": "78", "addr:postcode": "34100", "addr:street": "\u03a9\u03c1\u03b9\u03ce\u03bd\u03bf\u03c2", "amenity": "cafe", "cuisine": "coffee_shop;snack;sandwich", "level": "0", "name": "strike", "outdoor_seating": "yes", "phone": "2221023350"}}, {"type": "node", "id": 9050137297, "lat": 38.46148, "lon": 23.6022088, "tags": {"addr:city": "\u03a7\u03b1\u03bb\u03ba\u03af\u03b4\u03b1", "addr:postcode": "34100", "addr:street": "\u0391\u03c1\u03b5\u03b8\u03bf\u03cd\u03c3\u03b7\u03c2", "amenity": "cafe", "cuisine": "coffee_shop;bakery", "name": "Artopolis"}}, {"type": "node", "id": 9231003117, "lat": 38.4634486, "lon": 23.5923437, "tags": {"addr:housenumber": "5", "addr:postcode": "34100", "addr:street": "\u0392\u03b1\u03c1\u03b1\u03c4\u03ac\u03c3\u03b7", "amenity": "restaurant", "diet:macrobiotic": "yes", "diet:sugar_free": "yes", "diet:vegan": "yes", "name": "Demetra", "opening_hours": "-16:00", "organic": "yes"}}, {"type": "node", "id": 9269538419, "lat": 38.3225371, "lon": 23.6099284, "tags": {"amenity": "cafe", "name:en": "Taverna", "name:ru": "\u0422\u0430\u0432\u0435\u0440\u043d\u0430"}}, {"type": "node", "id": 9812778667, "lat": 38.4588351, "lon": 23.6090203, "tags": {"amenity": "restaurant", "name": "\u0393\u03b5\u03cd\u03c3\u03b5\u03b9\u03c2 \u03c4\u03b7\u03c2 \u0395\u03cd\u03b2\u03bf\u03b9\u03b1\u03c2"}}, {"type": "node", "id": 9812793721, "lat": 38.4637431, "lon": 23.5925351, "tags": {"amenity": "cafe", "name": "Well bean"}}, {"type": "node", "id": 9830492752, "lat": 38.3169337, "lon": 23.3177252, "tags": {"amenity": "cafe", "brand": "Mikel", "brand:wikidata": "Q16952021", "cuisine": "coffee_shop", "name": "Mikel", "operator": "\u039a\u03b1\u03c6\u03b5\u03c4\u03ad\u03c1\u03b9\u03b1", "takeaway": "yes"}}, {"type": "node", "id": 10072432495, "lat": 38.4613359, "lon": 23.5936583, "tags": {"addr:city": "\u03a7\u03b1\u03bb\u03ba\u03af\u03b4\u03b1", "addr:housenumber": "4", "addr:postcode": "34100", "addr:street": "\u039c. \u03a6\u03c1\u03b9\u03b6\u03ae", "amenity": "restaurant", "cuisine": "seafood;sandwich", "image": "https://www.google.gr/maps/place/%CE%A4%CE%BF+%CE%A3%CF%84%CE%AD%CE%BA%CE%B9+%CE%A4%CE%BF%CF%85+%CE%9C%CF%80%CE%AC%CF%81%CE%BC%CF%80%CE%B1+%CE%9B%CE%B5%CF%85%CF%84%CE%AD%CF%81%CE%B7/@38.4614675,23.593683,3a,131.6y,90t/data=!3m8!1e2!3m6!1sAF1QipOdpa2VRO0BB", "name": "\u03a4\u03bf \u03a3\u03c4\u03ad\u03ba\u03b9 \u03a4\u03bf\u03c5 \u039c\u03c0\u03ac\u03c1\u03bc\u03c0\u03b1 \u039b\u03b5\u03c5\u03c4\u03ad\u03c1\u03b7", "payment:cash": "yes", "payment:credit_cards": "yes", "phone": "6989100139", "website": "www.facebook.com/tostekitoumparmpaleuteri"}}, {"type": "node", "id": 10249185611, "lat": 38.4693009, "lon": 23.6060802, "tags": {"addr:housenumber": "70", "addr:postcode": "34100", "addr:street": "\u0393\u03b5\u03c9\u03c1\u03b3\u03af\u03bf\u03c5 \u03a7\u03b1\u03ca\u03bd\u03ac", "amenity": "cafe", "brand": "Coffee Lab", "brand:wikidata": "Q109568497", "cuisine": "coffee_shop", "internet_access": "wlan", "name": "Coffee Lab", "phone": "2221077177", "takeaway": "yes"}}, {"type": "node", "id": 10249192410, "lat": 38.4685479, "lon": 23.6168161, "tags": {"addr:postcode": "34100", "addr:street": "\u039f\u03c1\u03ad\u03c3\u03c4\u03b7 \u039c\u03b1\u03ba\u03c1\u03ae", "amenity": "cafe", "cuisine": "coffee_shop;sandwich", "name": "\u0386\u03c1\u03c7\u03bf\u03bd\u03c4\u03b1\u03c2 (food & coffee)", "phone": "2221060971"}}, {"type": "node", "id": 10249195809, "lat": 38.4581737, "lon": 23.5957467, "tags": {"addr:housenumber": "22", "addr:postcode": "34100", "addr:street": "\u03a0\u03b1\u03c0\u03b1\u03c3\u03c4\u03c1\u03b1\u03c4\u03ae", "amenity": "cafe", "cuisine": "coffee_shop;sandwich", "name": "Coffee Graffiti", "opening_hours": "Su-Fr 06:00-22:00", "phone": "2221025079"}}, {"type": "node", "id": 10752064009, "lat": 38.4674609, "lon": 23.5651766, "tags": {"addr:postcode": "34100", "addr:street": "\u0394\u03c1\u03bf\u03c3\u03b9\u03ac\u03c2 - \u03a7\u03b1\u03bb\u03ba\u03af\u03b4\u03b1\u03c2", "amenity": "cafe", "cuisine": "coffee_shop;sandwich", "name": "Presto food & coffee", "opening_hours": "Mo-Fr 08:00-20:00; Sa 08:00-16:00", "phone": "2221600833 , 6971837684"}}, {"type": "node", "id": 10949177280, "lat": 38.4615192, "lon": 23.5897168, "tags": {"amenity": "restaurant", "name": "\u0395\u03c5\u03c1\u03b9\u03c0\u03bf\u03c2"}}, {"type": "node", "id": 10949177286, "lat": 38.4032561, "lon": 23.7508094, "tags": {"amenity": "restaurant", "name": "\u039b\u03cd\u03ba\u03bf\u03c2"}}, {"type": "node", "id": 10949201857, "lat": 38.4604261, "lon": 23.5906211, "tags": {"amenity": "cafe", "name": "\u039a\u03b1\u03c1\u03b1\u03b3\u03ba\u03b9\u03cc\u03b6\u03b7\u03c2"}}, {"type": "node", "id": 10949204769, "lat": 38.4613264, "lon": 23.5897795, "tags": {"amenity": "restaurant", "description": "\u03c8\u03b1\u03c1\u03bf\u03c4\u03b1\u03b2\u03ad\u03c1\u03bd\u03b1", "name": "\u039f\u0393\u03b9\u03ac\u03bd\u03bd\u03b7\u03c2"}}, {"type": "node", "id": 10949208367, "lat": 38.4652619, "lon": 23.59267, "tags": {"addr:housenumber": "36", "addr:street": "\u0392\u03bf\u03c5\u03b4\u03bf\u03cd\u03c1\u03b7", "amenity": "cafe", "name": "Destin", "outdoor_seating": "yes", "phone": "2221079067"}}, {"type": "node", "id": 10949234172, "lat": 38.4712234, "lon": 23.6004895, "tags": {"amenity": "restaurant", "description": "\u03c4\u03c3\u03b9\u03c0\u03bf\u03c5\u03c1\u03ac\u03b4\u03b9\u03ba\u03bf", "name": "25 \u03b4\u03c1\u03ac\u03bc\u03b9\u03b1", "outdoor_seating": "yes", "phone": "2221085406"}}, {"type": "node", "id": 10949234175, "lat": 38.421706, "lon": 23.6791764, "tags": {"amenity": "cafe"}}, {"type": "node", "id": 10949236851, "lat": 38.4612969, "lon": 23.5901591, "tags": {"amenity": "cafe", "description": "\u03ba\u03b1\u03c6\u03b5\u03bd\u03b5\u03af\u03bf", "name": "\u03a4\u03b5\u03bc\u03c0\u03b5\u03bb \u039c\u03c0\u03b1\u03be\u03b5"}}, {"type": "node", "id": 10958172334, "lat": 38.4638067, "lon": 23.591313, "tags": {"amenity": "cafe", "name": "Asterakia"}}, {"type": "node", "id": 12205083228, "lat": 38.348996, "lon": 23.3217373, "tags": {"amenity": "cafe", "check_date": "2024-09-27", "name": "90 Cafe", "payment:apple_pay": "yes", "payment:cash": "yes", "payment:contactless": "yes", "payment:credit_cards": "yes", "payment:debit_cards": "yes", "payment:google_pay": "yes"}}, {"type": "node", "id": 12294644998, "lat": 38.6324312, "lon": 23.4923665}, {"type": "node", "id": 12294644999, "lat": 38.6324833, "lon": 23.4924376}, {"type": "node", "id": 12294645000, "lat": 38.6323966, "lon": 23.4925416}, {"type": "node", "id": 12294684801, "lat": 38.6323445, "lon": 23.4924705}, {"type": "node", "id": 12302389664, "lat": 38.4654944, "lon": 23.5927208, "tags": {"addr:city": "\u03a7\u03b1\u03bb\u03ba\u03af\u03b4\u03b1", "addr:housenumber": "19", "addr:postcode": "34100", "addr:street": "\u0392\u03bf\u03c5\u03b4\u03bf\u03cd\u03c1\u03b7", "amenity": "cafe", "name": "Yacht Seaside Tales"}}, {"type": "node", "id": 12565929788, "lat": 38.4197925, "lon": 23.6709971, "tags": {"addr:city": "\u0392\u03b1\u03c3\u03b9\u03bb\u03b9\u03ba\u03cc", "addr:postcode": "34002", "addr:street": "\u039b\u03b5\u03c5\u03ba\u03b1\u03bd\u03c4\u03af\u03bf\u03c5", "amenity": "restaurant", "name": "MAM\u0393\u0395\u0399\u03a1\u0395\u03a5\u03a4\u0391, \u039c\u03b1\u03b3\u03b5\u03b9\u03c1\u03b5\u03af\u03bf", "opening_hours": "Mo-Su 11:00-19:00", "phone": "2221050055", "website": "https://www.mamgeireuta.gr/"}}, {"type": "node", "id": 12692664101, "lat": 38.2775737, "lon": 23.5972881, "tags": {"amenity": "cafe", "cuisine": "crepe;greek;grill;kebab;pasta;pizza;sandwich", "internet_access": "wlan", "name": "\u0393\u03ba\u03af\u03bd\u03b7\u03c2", "name:en": "Gkinis view", "opening_hours": "Mo-Su 09:00-12:00"}}, {"type": "node", "id": 12846558513, "lat": 38.5268602, "lon": 23.7204418, "tags": {"amenity": "cafe", "name": "Africa", "outdoor_seating": "yes"}}, {"type": "node", "id": 12846769588, "lat": 38.5763125, "lon": 23.64287, "tags": {"amenity": "cafe", "internet_access": "wlan", "name": "Bridge House", "outdoor_seating": "yes"}}, {"type": "node", "id": 12846769590, "lat": 38.5763446, "lon": 23.6429816, "tags": {"amenity": "restaurant", "name": "\u0394\u03b1\u03c5\u03b9\u03b4", "outdoor_seating": "yes"}}, {"type": "node", "id": 12847008631, "lat": 38.5770388, "lon": 23.6403829, "tags": {"amenity": "cafe", "name": "Oasis", "outdoor_seating": "yes"}}, {"type": "node", "id": 12847361958, "lat": 38.6256575, "lon": 23.6333499, "tags": {"amenity": "cafe", "bar": "no", "name": "Orient Express", "outdoor_seating": "yes"}}, {"type": "node", "id": 12848771991, "lat": 38.6713643, "lon": 23.5548667, "tags": {"amenity": "cafe", "outdoor_seating": "yes"}}, {"type": "node", "id": 12848771995, "lat": 38.7236895, "lon": 23.5079663, "tags": {"amenity": "restaurant", "name": "\u039f \u03a0\u03bb\u03b1\u03c4\u03b1\u03bd\u03bf\u03c2", "outdoor_seating": "yes"}}, {"type": "way", "id": 478077297, "nodes": [4713333737, 4713333745, 4713333736, 4713333735, 4713333737], "tags": {"amenity": "restaurant", "building": "roof"}}, {"type": "way", "id": 478077304, "nodes": [4713333753, 4713333752, 4713333751, 4713333750, 4713333721, 4713333722, 4713333753], "tags": {"amenity": "restaurant", "building": "yes", "cuisine": "greek", "name": "\u039c\u03b1\u03bd\u03c4\u03b1\u03bb\u03b5\u03bd\u03b1\u03c2 \u03a4\u03b1\u03b2\u03ad\u03c1\u03bd\u03b1"}}, {"type": "way", "id": 481554961, "nodes": [4744725435, 4744725436, 4744725437, 4744725438, 4744725439, 4744725440, 4744725441, 4744725442, 4744725443, 4744725444, 4744725435], "tags": {"amenity": "cafe", "building": "residential", "internet_access:fee": "no", "outdoor_seating": "yes"}}, {"type": "way", "id": 481557323, "nodes": [8887496734, 4744756458, 4744756459, 1905855279, 8887496734], "tags": {"addr:city": "Anthidona", "addr:housenumber": "1", "addr:postcode": "34100", "addr:street": "Cozy", "amenity": "cafe", "building": "house", "cuisine": "coffee_shop", "level": "2", "name": "cozy", "outdoor_seating": "yes"}}, {"type": "way", "id": 481557325, "nodes": [4744756461, 4744756462, 4744756463, 4744756464, 4744756465, 4744756466, 4744756461], "tags": {"amenity": "restaurant", "building": "house"}}, {"type": "way", "id": 481557333, "nodes": [4744756481, 4744756482, 4744756483, 4744756484, 4744756481], "tags": {"amenity": "cafe", "building": "house", "level": "2", "outdoor_seating": "yes"}}, {"type": "way", "id": 498317445, "nodes": [4897673934, 4897673935, 4897673936, 4897673937, 4897673938, 4897673939, 4897673934], "tags": {"addr:postcode": "34100", "amenity": "cafe", "building": "yes", "internet_access": "wlan", "name": "Xenia Bar-Cafe", "phone": "2221024616"}}, {"type": "way", "id": 558305597, "nodes": [5383629049, 5383629050, 5383629051, 7767848434, 5383629053, 5383629049], "tags": {"addr:housenumber": "1", "addr:postcode": "34100", "addr:street": "\u039a\u03b1\u03c1\u03b1\u03bf\u03bb\u03ae & \u0394\u03b7\u03bc\u03b7\u03c4\u03c1\u03af\u03bf\u03c5", "amenity": "cafe", "building": "yes", "name": "Stavento", "phone": "2221088110", "website": "http://stavento-club.gr"}}, {"type": "way", "id": 563938329, "nodes": [5434107895, 5434107896, 2690403801, 5262666477, 5434107895], "tags": {"addr:city": "\u03a7\u03b1\u03bb\u03ba\u03af\u03b4\u03b1", "addr:country": "GR", "addr:postcode": "34100", "addr:street": "\u03a6\u03b1\u03c1\u03bc\u03b1\u03ba\u03af\u03b4\u03bf\u03c5 & \u0392\u03bf\u03c5\u03b4\u03bf\u03cd\u03c1\u03b7", "air_conditioning": "yes", "amenity": "cafe", "brewery": "yes", "building": "yes", "building:levels": "2", "contact:facebook": "www.facebook.com/YachtSeasideTales", "description": "\"\u03a3\u03b7\u03bc\u03b5\u03af\u03bf \u03b1\u03bd\u03b1\u03c6\u03bf\u03c1\u03ac\u03c2 \u03c3\u03c4\u03bf \u03c4\u03ad\u03c1\u03bc\u03b1 \u03c4\u03b7\u03c2 \u03c0\u03b1\u03c1\u03b1\u03bb\u03af\u03b1\u03c2 \u03c4\u03b7\u03c2 \u03a7\u03b1\u03bb\u03ba\u03af\u03b4\u03b1\u03c2 \u03c4\u03bf Yacht Seaside Tales \u03c3\u03b5\u03c1\u03b2\u03af\u03c1\u03b5\u03b9 \u03ba\u03b1\u03c6\u03ad \u03c4\u03bf \u03c0\u03c1\u03c9\u03af \u03ba\u03b1\u03b9 \u03c3\u03c5\u03bd\u03b5\u03c7\u03af\u03b6\u03b5\u03b9 \u03bc\u03b5 \u03c0\u03bf\u03c4\u03cc \u03c4\u03bf \u03b2\u03c1\u03ac\u03b4\u03c5.\"", "drink:wine": "yes", "email": "yachtseasidetales@gmail.com", "image": "https://maps.app.goo.gl/gk9kz9brv3UuMJcg9", "internet_access": "wlan", "name": "Yacht Seaside Tales", "name:el": "Yacht Seaside Tales", "name:en": "Yacht Seaside Tales", "opening_hours": "Mo-Su 08:00-03:00", "operator": "\u0393\u03b9\u03ac\u03bd\u03bd\u03b7\u03c2 \u03a3\u03b1\u03bc\u03c0\u03ac\u03bd\u03b7\u03c2", "outdoor_seating": "yes", "payment:cash": "yes", "payment:credit_cards": "yes", "payment:debit_cards": "yes", "payment:nfc": "yes", "phone": "2221027881", "smoking": "outside"}}, {"type": "way", "id": 599405098, "nodes": [5702681438, 5702681439, 5702681440, 5702681441, 5702681438], "tags": {"addr:city": "\u03a4\u03b1\u03bd\u03ac\u03b3\u03c1\u03b1", "addr:street": "\u039a\u03b1\u03bb\u03bb\u03b9\u03b8\u03ad\u03b1 - \u03a4\u03b1\u03bd\u03ac\u03b3\u03c1\u03b1", "amenity": "cafe", "building": "yes", "name": "Caffe Portioli", "outdoor_seating": "yes", "smoking": "outside"}}, {"type": "way", "id": 691220466, "nodes": [6485718118, 6485718119, 6485718120, 6485718121, 6485718118], "tags": {"addr:city": "\u03a7\u03b1\u03bb\u03ba\u03af\u03b4\u03b1", "addr:street": "\u0397\u03c1\u03b1\u03ba\u03bb\u03ae \u0393\u03b1\u03b6\u03ad\u03c0\u03b7", "amenity": "cafe", "building": "yes", "cuisine": "coffee_shop;juice;breakfast", "name": "\u03a0\u03bb\u03ac\u03c4\u03c9\u03bc\u03b1", "outdoor_seating": "yes"}}, {"type": "way", "id": 741772455, "nodes": [6943957728, 6943957729, 6943957730, 6943957731, 6943957728], "tags": {"addr:city": "\u039c\u03b1\u03ba\u03c1\u03c5\u03bc\u03ac\u03bb\u03bb\u03b7", "addr:postcode": "34400", "addr:street": "\u039c\u03b1\u03ba\u03c1\u03c5\u03bc\u03ac\u03bb\u03bb\u03b7 \u03a8\u03b1\u03c7\u03bd\u03ce\u03bd", "amenity": "restaurant", "building": "yes", "cuisine": "greek;regional"}}, {"type": "way", "id": 741772456, "nodes": [6943957732, 6943957733, 6943957734, 6943957735, 6943957732], "tags": {"addr:city": "\u039c\u03b1\u03ba\u03c1\u03c5\u03bc\u03ac\u03bb\u03bb\u03b7", "addr:postcode": "34400", "addr:street": "\u039c\u03b1\u03ba\u03c1\u03c5\u03bc\u03ac\u03bb\u03bb\u03b7 \u03a8\u03b1\u03c7\u03bd\u03ce\u03bd", "amenity": "restaurant", "building": "yes", "cuisine": "regional;greek", "name": "\u039f \u039a\u03bf\u03c5\u03ba\u03bf\u03c5\u03c1\u03af\u03ba\u03bf\u03c2"}}, {"type": "way", "id": 741772457, "nodes": [6943957736, 6943957737, 6943957738, 6943957739, 6943957736], "tags": {"addr:city": "\u039c\u03b1\u03ba\u03c1\u03c5\u03bc\u03ac\u03bb\u03bb\u03b7", "addr:postcode": "34400", "amenity": "cafe", "building": "yes", "cuisine": "coffee_shop"}}, {"type": "way", "id": 948172963, "nodes": [8776720697, 8776720698, 8776720699, 8776720700, 8776720697], "tags": {"amenity": "cafe", "building": "yes"}}, {"type": "way", "id": 948172966, "nodes": [8776720709, 8776720710, 8776720711, 8776720712, 8776720709], "tags": {"amenity": "restaurant", "building": "yes", "name": "\u03a4\u03bf \u039a\u03ad\u03bd\u03c4\u03c1\u03bf\u03bd"}}, {"type": "way", "id": 948172967, "nodes": [8776720713, 8776720714, 8776720715, 8776720716, 8776720717, 8776720718, 8776720713], "tags": {"amenity": "restaurant", "building": "yes", "name": "\u0397 \u039c\u03bf\u03c5\u03c1\u03b9\u03ac"}}, {"type": "way", "id": 949033770, "nodes": [8785296453, 8785296454, 8785296455, 8785296456, 8785296453], "tags": {"amenity": "restaurant", "building": "yes", "cuisine": "fish", "name": "\u03a4\u03bf \u03ba\u03cd\u03bc\u03b1"}}, {"type": "way", "id": 1328890359, "nodes": [12294644998, 12294644999, 12294645000, 12294684801, 12294644998], "tags": {"amenity": "restaurant", "building": "yes", "name": "\u0394\u03ac\u03c6\u03bd\u03b7", "name:el": "\u0394\u03ac\u03c6\u03bd\u03b7", "name:en": "Dafni"}}]}