{"version": 0.6, "generator": "Overpass API 0.7.62.7 375dc00a", "osm3s": {"timestamp_osm_base": "2025-06-14T13:51:30Z", "copyright": "The data included in this document is from www.openstreetmap.org. The data is made available under ODbL."}, "elements": [{"type": "node", "id": 604993508, "lat": 38.0644879, "lon": 13.5373278, "tags": {"amenity": "restaurant", "name": "La Rotonda"}}, {"type": "node", "id": 1167036170, "lat": 38.0354736, "lon": 13.4566862, "tags": {"addr:city": "Misilmeri", "addr:housenumber": "154", "addr:postcode": "90036", "addr:street": "Viale Europa", "air_conditioning": "yes", "amenity": "cafe", "contact:phone": "+39 091 8723121", "cuisine": "regional", "name": "Alla Fontana Grande 2", "opening_hours": "05:00-20:30", "operator": "Giuliano Marco", "outdoor_seating": "no", "ref:it:vat": "05742440828", "takeaway": "yes", "wheelchair": "yes"}}, {"type": "node", "id": 1224336709, "lat": 37.9652755, "lon": 13.4627081}, {"type": "node", "id": 1224336713, "lat": 37.9654936, "lon": 13.4628316}, {"type": "node", "id": 1224336720, "lat": 37.9653254, "lon": 13.4629014}, {"type": "node", "id": 1224336743, "lat": 37.9655997, "lon": 13.4627072}, {"type": "node", "id": 1224336744, "lat": 37.9654749, "lon": 13.4627591}, {"type": "node", "id": 1224336759, "lat": 37.9655685, "lon": 13.4625865}, {"type": "node", "id": 1277555304, "lat": 37.8973066, "lon": 13.0957064}, {"type": "node", "id": 1277555336, "lat": 37.8973138, "lon": 13.0958674}, {"type": "node", "id": 1277555339, "lat": 37.8971886, "lon": 13.0959507}, {"type": "node", "id": 1277555347, "lat": 37.8972325, "lon": 13.0959475}, {"type": "node", "id": 1277555359, "lat": 37.897326, "lon": 13.0958665}, {"type": "node", "id": 1277555361, "lat": 37.897116, "lon": 13.095956}, {"type": "node", "id": 1277555375, "lat": 37.8972509, "lon": 13.0959462}, {"type": "node", "id": 1277555377, "lat": 37.8973285, "lon": 13.0959405}, {"type": "node", "id": 1277555378, "lat": 37.8971018, "lon": 13.0956431}, {"type": "node", "id": 1277555389, "lat": 37.8973031, "lon": 13.0956272}, {"type": "node", "id": 1291398127, "lat": 37.8844895, "lon": 13.3792406}, {"type": "node", "id": 1291398326, "lat": 37.8846729, "lon": 13.3792049}, {"type": "node", "id": 1291398610, "lat": 37.8843663, "lon": 13.3792952}, {"type": "node", "id": 1291398615, "lat": 37.8845411, "lon": 13.3791638}, {"type": "node", "id": 1291398644, "lat": 37.8846193, "lon": 13.3790998}, {"type": "node", "id": 1291398738, "lat": 37.8844729, "lon": 13.379208}, {"type": "node", "id": 1291398798, "lat": 37.8845535, "lon": 13.3791882}, {"type": "node", "id": 1291398813, "lat": 37.8844241, "lon": 13.3794086}, {"type": "node", "id": 1298844464, "lat": 37.6277277, "lon": 13.2543788}, {"type": "node", "id": 1298844623, "lat": 37.627907, "lon": 13.2545412}, {"type": "node", "id": 1298846260, "lat": 37.6278265, "lon": 13.2545989}, {"type": "node", "id": 1298846600, "lat": 37.6278082, "lon": 13.2543212}, {"type": "node", "id": 1519243509, "lat": 38.0024489, "lon": 13.5955622, "tags": {"amenity": "restaurant", "cuisine": "regional", "name": "La Fattoria"}}, {"type": "node", "id": 1983996777, "lat": 37.6918915, "lon": 13.560359, "tags": {"amenity": "restaurant", "contact:mobile": "+39 333 8759362", "contact:phone": "+39 091 8217369", "contact:website": "www.agriturismosorgenterefalzafi.it", "cuisine": "regional", "name": "Agriturismo \"Sorgente Refalzafi\"", "phone:mobile": "+39 339 7903771"}}, {"type": "node", "id": 2020275992, "lat": 37.628143, "lon": 13.6189508, "tags": {"amenity": "restaurant", "cuisine": "regional"}}, {"type": "node", "id": 2422459456, "lat": 37.6810191, "lon": 13.3800828, "tags": {"amenity": "restaurant", "cuisine": "regional", "name": "Albergo del Viale"}}, {"type": "node", "id": 2598703294, "lat": 38.0360678, "lon": 13.5476809, "tags": {"amenity": "restaurant", "name": "Le delizie di zio Nino", "wheelchair": "no"}}, {"type": "node", "id": 2717328703, "lat": 37.6305002, "lon": 13.632382, "tags": {"addr:city": "Cammarata", "addr:postcode": "92022", "amenity": "restaurant", "cuisine": "pizza", "name": "Pizzeria Santa Lucia"}}, {"type": "node", "id": 3141836906, "lat": 37.983142, "lon": 13.459839, "tags": {"amenity": "restaurant", "cuisine": "italian", "name": "Baglio degli ulivi", "restaurant": "private"}}, {"type": "node", "id": 3141836907, "lat": 37.965364, "lon": 13.462457, "tags": {"amenity": "restaurant", "cuisine": "italian", "name": "Ikebana ricevimenti", "stars": "4"}}, {"type": "node", "id": 3141836908, "lat": 37.958309, "lon": 13.469967, "tags": {"amenity": "restaurant", "cuisine": "italian", "name": "La Bottega Siciliana"}}, {"type": "node", "id": 3141836909, "lat": 37.955484, "lon": 13.460354, "tags": {"amenity": "restaurant", "cuisine": "italian", "name": "La Puerta Do Sol"}}, {"type": "node", "id": 3141836910, "lat": 37.9769, "lon": 13.454689, "tags": {"amenity": "restaurant", "cuisine": "italian", "name": "Saloon West"}}, {"type": "node", "id": 3141836911, "lat": 37.976698, "lon": 13.455977, "tags": {"amenity": "restaurant", "cuisine": "italian", "name": "Villeroy"}}, {"type": "node", "id": 3143502350, "lat": 37.981543, "lon": 13.444711, "tags": {"amenity": "restaurant", "cuisine": "italian", "name": "Restaurant Al Vecchi Maniero"}}, {"type": "node", "id": 3143502351, "lat": 37.959485, "lon": 13.506338, "tags": {"amenity": "restaurant", "cuisine": "italian"}}, {"type": "node", "id": 3143502353, "lat": 37.960974, "lon": 13.42497, "tags": {"amenity": "restaurant", "cuisine": "italian", "name": "Restaurant La Rocca Bianca"}}, {"type": "node", "id": 3143502354, "lat": 37.974575, "lon": 13.460461, "tags": {"amenity": "restaurant", "cuisine": "italian", "name": "Restaurant Supremo"}}, {"type": "node", "id": 3149025224, "lat": 37.9789009, "lon": 13.4534301, "tags": {"amenity": "restaurant", "cuisine": "italian", "name": "La Collina"}}, {"type": "node", "id": 3149025225, "lat": 37.9837498, "lon": 13.4582527, "tags": {"amenity": "restaurant", "cuisine": "italian", "name": "Restaurant Tenuta Scozzari"}}, {"type": "node", "id": 3149102828, "lat": 37.9701326, "lon": 13.4538475, "tags": {"amenity": "cafe", "name": "Bar Spighe d'Oro"}}, {"type": "node", "id": 3365663630, "lat": 37.9780167, "lon": 13.4536542, "tags": {"addr:housename": "Sicilfunghi", "amenity": "restaurant", "name": "SicilFunghi"}}, {"type": "node", "id": 3365699204, "lat": 37.9659794, "lon": 13.4570352, "tags": {"amenity": "cafe", "name": "Caff\u00e8 Mareschi"}}, {"type": "node", "id": 3376349705, "lat": 37.9090388, "lon": 13.4668776, "tags": {"amenity": "restaurant", "name": "Agriturismo Cozzo di ferro"}}, {"type": "node", "id": 3376353781, "lat": 37.9070749, "lon": 13.4750584, "tags": {"amenity": "restaurant", "name": "Pizzerie Le pigne"}}, {"type": "node", "id": 3416649723, "lat": 37.9512675, "lon": 13.331561, "tags": {"amenity": "restaurant", "cuisine": "regional", "name": "Ristorante Sant'Agata"}}, {"type": "node", "id": 3688184539, "lat": 38.0485389, "lon": 13.5061189, "tags": {"amenity": "restaurant", "name": "La Villa dei Desideri"}}, {"type": "node", "id": 3970898609, "lat": 37.8223658, "lon": 13.2942967, "tags": {"amenity": "restaurant", "name": "Ristorante Leon D'Oro"}}, {"type": "node", "id": 3970901810, "lat": 37.8225845, "lon": 13.2925821, "tags": {"amenity": "restaurant", "cuisine": "pizza", "name": "Pizzaria Al Ritrovo"}}, {"type": "node", "id": 3970912906, "lat": 37.8181399, "lon": 13.2959662, "tags": {"amenity": "restaurant", "name": "Black & White"}}, {"type": "node", "id": 3970918297, "lat": 37.8144262, "lon": 13.2978311, "tags": {"amenity": "cafe", "name": "Pasticceria Excelsior"}}, {"type": "node", "id": 3970923605, "lat": 37.8144662, "lon": 13.2984153, "tags": {"amenity": "cafe", "name": "Pasticceria Sweet Temptation"}}, {"type": "node", "id": 3970932321, "lat": 37.8109163, "lon": 13.3018137, "tags": {"amenity": "restaurant", "name": "Ristorante Al Capriccio"}}, {"type": "node", "id": 3970956252, "lat": 37.7983038, "lon": 13.336422, "tags": {"amenity": "restaurant", "name": "La Schera restaurant", "phone": "+39 0918467529"}}, {"type": "node", "id": 4151817601, "lat": 37.6267144, "lon": 13.5019186}, {"type": "node", "id": 4151817602, "lat": 37.626833, "lon": 13.5021068}, {"type": "node", "id": 4151817603, "lat": 37.6267682, "lon": 13.5017283}, {"type": "node", "id": 4151817604, "lat": 37.6266907, "lon": 13.5018062}, {"type": "node", "id": 4151817605, "lat": 37.6269394, "lon": 13.5019999}, {"type": "node", "id": 4151817606, "lat": 37.6267433, "lon": 13.5018896}, {"type": "node", "id": 4242232389, "lat": 37.9011469, "lon": 13.4202498, "tags": {"addr:city": "Godrano", "addr:country": "IT", "addr:postcode": "90030", "addr:street": "Contrada Cannitello", "amenity": "restaurant", "name": "Agriturismo Gorgo del Drago", "phone": "+39 091 8208303"}}, {"type": "node", "id": 4252307936, "lat": 37.9523649, "lon": 13.4183605, "tags": {"addr:city": "Marineo", "addr:postcode": "90035", "amenity": "cafe", "cuisine": "italian", "name": "Pasticceria Sciampagna"}}, {"type": "node", "id": 4254536867, "lat": 37.9518779, "lon": 13.4154067, "tags": {"addr:city": "Marineo", "addr:postcode": "90035", "addr:street": "Corso dei Mille", "amenity": "cafe", "cuisine": "italian", "name": "Pasticceria Namio"}}, {"type": "node", "id": 4254558553, "lat": 37.9526198, "lon": 13.4194231, "tags": {"addr:city": "Marineo", "addr:postcode": "90035", "addr:street": "Via Agrigento", "amenity": "restaurant", "cuisine": "pizza", "name": "Pizzeria Anyway", "smoking": "isolated", "takeaway": "yes"}}, {"type": "node", "id": 4364711790, "lat": 37.650419, "lon": 13.1145706, "tags": {"amenity": "restaurant", "cuisine": "italian_pizza;local", "name": "Lu Saracenu", "name:it": "Lu Saracenu"}}, {"type": "node", "id": 4774028617, "lat": 37.9861192, "lon": 13.3269096, "tags": {"amenity": "restaurant", "contact:city": "Santa Cristina Gela", "contact:housenumber": "2", "contact:postcode": "90030", "contact:street": "Viale Giorgio Castriota Scanderbeg", "name": "Belvedere"}}, {"type": "node", "id": 4816894008, "lat": 37.8144977, "lon": 13.2977132, "tags": {"amenity": "restaurant", "name": "Pizzeria Excelsior"}}, {"type": "node", "id": 4930260606, "lat": 37.8762141, "lon": 13.454891, "tags": {"amenity": "restaurant", "name": "Ristorante Pizzeria La Nocilla"}}, {"type": "node", "id": 5420693070, "lat": 37.9748689, "lon": 13.1912858, "tags": {"amenity": "cafe", "name": "Cafe Piero Fritz"}}, {"type": "node", "id": 5446640017, "lat": 38.0154209, "lon": 13.613761, "tags": {"amenity": "restaurant", "indoor_seating": "yes", "name": "Covo del Brigante", "outdoor_seating": "yes"}}, {"type": "node", "id": 5446640019, "lat": 38.0155968, "lon": 13.6138757, "tags": {"amenity": "restaurant", "cuisine": "pizza", "name": "Altro Che Pizza"}}, {"type": "node", "id": 5476732276, "lat": 37.8921659, "lon": 13.5391581, "tags": {"amenity": "restaurant", "name": "Villa Belvedere"}}, {"type": "node", "id": 5491291620, "lat": 37.6812646, "lon": 13.3793601, "tags": {"amenity": "cafe", "name": "Caf\u00e8 Re Umberto"}}, {"type": "node", "id": 5537212617, "lat": 37.9778124, "lon": 13.2405011}, {"type": "node", "id": 5556193935, "lat": 37.6288562, "lon": 13.4885106, "tags": {"amenity": "restaurant", "name": "Ristorante e Pizzeria Aquarius"}}, {"type": "node", "id": 5584464694, "lat": 37.8829378, "lon": 13.3773909, "tags": {"amenity": "restaurant", "name": "I Giovani dell'Antico Borgo"}}, {"type": "node", "id": 5832814745, "lat": 37.8959148, "lon": 13.3040655}, {"type": "node", "id": 5893050585, "lat": 37.9881631, "lon": 13.5166208, "tags": {"amenity": "restaurant", "name": "Case Varr", "name:en": "Case Varisco", "name:it": "Case Varisco"}}, {"type": "node", "id": 6390386071, "lat": 37.6470359, "lon": 13.1106766, "tags": {"addr:city": "Sambuca di Sicilia", "addr:housenumber": "136", "addr:postcode": "92017", "addr:street": "Corso Umberto I", "amenity": "cafe", "brand": "Espresso House", "brand:wikidata": "Q10489162", "brand:wikipedia": "en:Espresso House", "name": "Espresso House", "outdoor_seating": "no"}}, {"type": "node", "id": 6451264556, "lat": 37.7137463, "lon": 13.4545451, "tags": {"amenity": "restaurant", "name": "Ristorante-Pizzeria Tre Torri"}}, {"type": "node", "id": 6903684280, "lat": 37.6462518, "lon": 13.1096604, "tags": {"addr:housenumber": "98", "addr:street": "Corso Umberto I", "amenity": "restaurant", "cuisine": "pizza", "delivery": "yes", "name": "Desiderio Pizzeria", "opening_hours": "Mo, We-Su 12:00-14:00; Mo, We-Su 18:00-01:30", "phone": "+399251950704"}}, {"type": "node", "id": 6904605451, "lat": 37.6473309, "lon": 13.1110468, "tags": {"addr:housenumber": "148", "addr:street": "Corso Umberto I", "amenity": "cafe", "name": "Caff\u00e8 Beccadelli"}}, {"type": "node", "id": 7110754441, "lat": 37.6266969, "lon": 13.4497668, "tags": {"amenity": "restaurant", "name": "Al Divin Porcello"}}, {"type": "node", "id": 7149913828, "lat": 37.8413494, "lon": 13.499926, "tags": {"amenity": "restaurant", "contact:facebook": "https://www.facebook.com/bagliocarcilupo/", "cuisine": "regional", "email": "bagliocarcilupo@hotmail.it", "name": "Baglio Carcilupo", "phone": "+39 320 115 6269"}}, {"type": "node", "id": 7159561405, "lat": 37.8665983, "lon": 13.4671373}, {"type": "node", "id": 7159561406, "lat": 37.8665501, "lon": 13.4671174}, {"type": "node", "id": 7159561407, "lat": 37.8665127, "lon": 13.4671636}, {"type": "node", "id": 7159561408, "lat": 37.8665441, "lon": 13.4672043}, {"type": "node", "id": 7159561414, "lat": 37.8665842, "lon": 13.4671315}, {"type": "node", "id": 7159561425, "lat": 37.866522, "lon": 13.4671756, "tags": {"entrance": "yes"}}, {"type": "node", "id": 7159561537, "lat": 37.866528, "lon": 13.4671835}, {"type": "node", "id": 7159561592, "lat": 37.8659073, "lon": 13.4665103, "tags": {"amenity": "restaurant", "bar": "yes", "cuisine": "pizza;italian", "name": "Marabella Pub", "opening_hours": "We-Mo 15:00-24:00", "phone": "+39 091 820 3819", "wheelchair": "no"}}, {"type": "node", "id": 7204293862, "lat": 37.8643441, "lon": 13.4642325, "tags": {"addr:housenumber": "10", "addr:street": "Piazza Umberto I", "air_conditioning": "yes", "amenity": "cafe", "cuisine": "italian;coffee_shop", "name": "Caff\u00e8 Roma", "phone": "+39 091 8203911", "source": "http://www.mezzojusoecotour.it/Pages/contacts.php"}}, {"type": "node", "id": 7511482381, "lat": 37.9593006, "lon": 13.1759902, "tags": {"amenity": "cafe"}}, {"type": "node", "id": 7622872895, "lat": 37.818911, "lon": 13.2953857, "tags": {"amenity": "restaurant", "cuisine": "pizza", "name": "Gennaro"}}, {"type": "node", "id": 7745084339, "lat": 37.6264701, "lon": 13.489238, "tags": {"amenity": "restaurant", "name": "Bar Pizzeria Spallino"}}, {"type": "node", "id": 8021967077, "lat": 37.8959796, "lon": 13.3040808}, {"type": "node", "id": 8021967078, "lat": 37.8958585, "lon": 13.3040512}, {"type": "node", "id": 8021967079, "lat": 37.8958691, "lon": 13.3039841}, {"type": "node", "id": 8021967080, "lat": 37.8959914, "lon": 13.3040152}, {"type": "node", "id": 8850308447, "lat": 37.9795712, "lon": 13.2664716}, {"type": "node", "id": 8850308448, "lat": 37.9794719, "lon": 13.2665859}, {"type": "node", "id": 8850308449, "lat": 37.9797495, "lon": 13.266974}, {"type": "node", "id": 8850308450, "lat": 37.9798488, "lon": 13.2668597}, {"type": "node", "id": 8850308451, "lat": 37.9779491, "lon": 13.24081}, {"type": "node", "id": 8850308452, "lat": 37.9782985, "lon": 13.2405686}, {"type": "node", "id": 8850308453, "lat": 37.978147, "lon": 13.2402598}, {"type": "node", "id": 9476999362, "lat": 37.8973268, "lon": 13.095886}, {"type": "node", "id": 9476999363, "lat": 37.8971101, "lon": 13.0956411}, {"type": "node", "id": 9602777360, "lat": 37.815982, "lon": 13.301149, "tags": {"addr:city": "Corleone", "addr:housenumber": "66", "addr:postcode": "90034", "addr:street": "Via Francesco Crispi", "amenity": "restaurant", "cuisine": "italian", "name": "Taberna Casa Nostra", "phone": "+39377 392 8440"}}, {"type": "node", "id": 9788678117, "lat": 38.0544229, "lon": 13.5326972, "tags": {"amenity": "restaurant", "name": "Gran", "name:en": "Pizzeria Gran Gormet", "name:it": "Pizzeria Gran Gormet"}}, {"type": "node", "id": 9812080618, "lat": 38.0626008, "lon": 13.5369354, "tags": {"amenity": "restaurant", "name:en": "Il Barone di Munchausen"}}, {"type": "node", "id": 9812080619, "lat": 38.0537279, "lon": 13.5305126, "tags": {"amenity": "cafe", "name:en": "Lia Bar"}}, {"type": "node", "id": 9812080622, "lat": 38.0542215, "lon": 13.5302538, "tags": {"amenity": "cafe", "name:en": "Il Castello"}}, {"type": "node", "id": 9816583884, "lat": 37.6696175, "lon": 13.1381897}, {"type": "node", "id": 9816583885, "lat": 37.6695153, "lon": 13.1385339}, {"type": "node", "id": 9816583886, "lat": 37.6694087, "lon": 13.1384852, "tags": {"entrance": "main"}}, {"type": "node", "id": 9816583887, "lat": 37.6695094, "lon": 13.1381336}, {"type": "node", "id": 9816625445, "lat": 37.6667868, "lon": 13.1270333}, {"type": "node", "id": 9816625446, "lat": 37.6667409, "lon": 13.1274167}, {"type": "node", "id": 9816625447, "lat": 37.6665573, "lon": 13.1273793}, {"type": "node", "id": 9816625448, "lat": 37.6665617, "lon": 13.1270221}, {"type": "node", "id": 9816625449, "lat": 37.6667704, "lon": 13.1271704, "tags": {"entrance": "main"}}, {"type": "node", "id": 9838917085, "lat": 38.0338079, "lon": 13.4505849, "tags": {"addr:city": "Misilmeri", "addr:housenumber": "76b", "addr:postcode": "90036", "addr:province": "Palermo", "addr:state": "Italia", "addr:street": "Corso Vittorio Emanuele", "amenity": "restaurant", "cuisine": "sushi", "email": "info@shansushi.it", "phone": "+39 388 586 0780", "takeaway": "yes", "website": "https://www.shansushi.it/"}}, {"type": "node", "id": 9917143530, "lat": 38.0364292, "lon": 13.1162433, "tags": {"amenity": "restaurant"}}, {"type": "node", "id": 9962793124, "lat": 37.6325093, "lon": 13.4756169, "tags": {"amenity": "restaurant", "contact:phone": "+39 0922 982219", "name": "La Stazione"}}, {"type": "node", "id": 9987854048, "lat": 37.9648077, "lon": 13.1732928, "tags": {"addr:city": "San Cipirello", "addr:street": "Via Giacomo Matteotti", "amenity": "cafe"}}, {"type": "node", "id": 10047426828, "lat": 37.8138142, "lon": 13.2992802, "tags": {"amenity": "restaurant", "building": "yes", "building:levels": "3", "contact:facebook": "https://www.facebook.com/SaporiDiSiciliaDiLeonardoBilleri", "cuisine": "pizza", "drive_through": "no", "name": "Sapori di Sicilia"}}, {"type": "node", "id": 11129325406, "lat": 37.9710329, "lon": 13.1855465, "tags": {"amenity": "restaurant", "name": "Seggio della Montagna"}}, {"type": "node", "id": 11348582776, "lat": 37.7482054, "lon": 13.6007483, "tags": {"addr:city": "Lercara Friddi", "addr:housenumber": "15", "addr:postcode": "90025", "addr:province": "Palermo", "addr:street": "Corso Giulio Sartorio", "amenity": "cafe", "name": "Bar Pasticceria Luigi"}}, {"type": "node", "id": 11348582777, "lat": 37.7485415, "lon": 13.600055, "tags": {"addr:city": "Lercara Friddi", "addr:housenumber": "6", "addr:postcode": "90025", "addr:province": "Palermo", "addr:street": "Piazza Umberto Primo", "amenity": "cafe", "name": "Bar Pasticceria Oriens", "phone": "+39 0918251530"}}, {"type": "node", "id": 11594162346, "lat": 37.7432886, "lon": 13.5935841, "tags": {"amenity": "restaurant"}}, {"type": "node", "id": 11594300109, "lat": 37.8360258, "lon": 13.5354287, "tags": {"amenity": "cafe", "indoor_seating": "yes", "name": "Caff\u00e8 GO", "outdoor_seating": "yes"}}, {"type": "node", "id": 11594579778, "lat": 37.9044178, "lon": 13.4747911, "tags": {"amenity": "cafe", "indoor_seating": "yes", "outdoor_seating": "yes"}}, {"type": "node", "id": 11594727406, "lat": 38.0155214, "lon": 13.4532918, "tags": {"amenity": "cafe"}}, {"type": "node", "id": 11761572363, "lat": 37.884434, "lon": 13.379401}, {"type": "node", "id": 11761572366, "lat": 37.8846569, "lon": 13.3792175}, {"type": "node", "id": 12141483182, "lat": 38.0316648, "lon": 13.4480178, "tags": {"addr:city": "Misilmeri", "addr:postcode": "90036", "addr:street": "Corso Vittorio Emanuele", "amenity": "cafe", "cuisine": "regional;coffee_shop;ice_cream;pastry", "name": "Pasticcerria & Caffetteria Maurizio Amodeo", "outdoor_seating": "yes"}}, {"type": "node", "id": 12323343579, "lat": 37.9971619, "lon": 13.2836059, "tags": {"addr:floor": "0", "addr:housenumber": "4", "addr:street": "Piazza Vittorio Emanuele", "air_conditioning": "yes", "amenity": "cafe", "check_date": "2024-11-08", "level": "0", "name": "Extra Bar", "outdoor_seating": "yes", "payment:cash": "yes", "payment:mastercard": "yes", "payment:visa": "yes", "ref:vatin": "03653850820", "smoking": "outside"}}, {"type": "node", "id": 12367622676, "lat": 37.6481573, "lon": 13.1111226, "tags": {"addr:city": "Sambuca di Sicilia", "addr:housenumber": "24", "addr:postcode": "92017", "addr:street": "Via Roma", "amenity": "restaurant", "cuisine": "italian;burger", "name": "LA' Enobanco", "phone": "+393792918028"}}, {"type": "node", "id": 12371337556, "lat": 37.6463412, "lon": 13.1097712, "tags": {"addr:city": "Sambuca di Sicilia", "addr:housenumber": "100", "addr:postcode": "92017", "addr:street": "Corso Umberto I", "amenity": "restaurant", "cuisine": "wine;snack", "name": "L'enoteca del Re", "phone": "+393206151731"}}, {"type": "node", "id": 12662646300, "lat": 37.6289163, "lon": 13.6474424, "tags": {"addr:city": "San Giovanni Gemini", "addr:housenumber": "1", "addr:postcode": "92022", "addr:street": "Via Padre Girolamo Caruso", "amenity": "restaurant", "check_date": "2020-10-12", "check_date:opening_hours:drive_through": "2020-10-12", "contact:facebook": "https://www.facebook.com/ristorantelarondinesangiovannigemini/", "cuisine": "pizza", "email": "carmen.reina@live.it", "name": "Ristorante-Pizzeria La Rondine", "opening_hours": "12:30-15:00,18:00-24:00; We off", "phone": "+39 0922 909929"}}, {"type": "node", "id": 12670413722, "lat": 37.6382473, "lon": 13.5968834}, {"type": "node", "id": 12670413723, "lat": 37.6382658, "lon": 13.5972029}, {"type": "node", "id": 12670413724, "lat": 37.6384073, "lon": 13.5971898}, {"type": "node", "id": 12670413725, "lat": 37.6383888, "lon": 13.5968704}, {"type": "way", "id": 106403917, "nodes": [1224336759, 1224336709, 1224336720, 1224336713, 1224336744, 1224336743, 1224336759], "tags": {"amenity": "restaurant", "building": "yes", "contact:email": "info@ikebanarestaurant.it", "contact:fax": "+39 091 8737671", "contact:phone": "+39 091 8737668", "contact:website": "http://www.ikebanarestaurant.it/", "name": "Ikebana ricevimenti"}}, {"type": "way", "id": 112395830, "nodes": [1277555347, 1277555339, 1277555361, 1277555378, 9476999363, 1277555389, 1277555304, 1277555336, 1277555359, 9476999362, 1277555377, 1277555375, 1277555347], "tags": {"amenity": "restaurant", "building": "yes", "cuisine": "italian;pizza", "name": "Al Baglio", "ref:it:vat": "05066080820"}}, {"type": "way", "id": 113941330, "nodes": [1291398326, 1291398644, 1291398615, 1291398798, 1291398127, 1291398738, 1291398610, 1291398813, 11761572363, 11761572366, 1291398326], "tags": {"addr:city": "Corleone", "addr:hamlet": "Ficuzza", "addr:postcode": "90034", "addr:street": "Via Vecchia Stazione", "amenity": "restaurant", "building": "hotel", "contact:facebook": "anticastazioneficuzza", "name": "Antica stazione di Ficuzza", "note": "Ex stazione di Ficuzza", "phone": "+39 091 846 0000", "website": "https://www.anticastazione.it/"}}, {"type": "way", "id": 114727315, "nodes": [1298844464, 1298846600, 1298844623, 1298846260, 1298844464], "tags": {"amenity": "restaurant", "building": "yes", "cuisine": "pizza", "note": "Ex Rimessa Locomotive"}}, {"type": "way", "id": 413981304, "nodes": [4151817603, 4151817604, 4151817606, 4151817601, 4151817602, 4151817605, 4151817603], "tags": {"addr:city": "Santo Stefano di Quisquina", "amenity": "restaurant", "building": "yes", "cuisine": "steak_house", "name": "Agriturismo Artistico Lorenzo Reina"}}, {"type": "way", "id": 766571485, "nodes": [7159561405, 7159561414, 7159561406, 7159561407, 7159561425, 7159561537, 7159561408, 7159561405], "tags": {"amenity": "cafe", "building": "yes"}}, {"type": "way", "id": 860672974, "nodes": [8021967077, 8021967080, 8021967079, 8021967078, 5832814745, 8021967077], "tags": {"amenity": "cafe", "building": "yes", "description": "Vende anche souvenir (principalmente religiosi) e tabacchi.", "name": "Sala del Pellegrino"}}, {"type": "way", "id": 956284620, "nodes": [8850308447, 8850308448, 8850308449, 8850308450, 8850308447], "tags": {"amenity": "restaurant", "building": "yes", "name": "Agriturismo Kumeta"}}, {"type": "way", "id": 956284621, "nodes": [5537212617, 8850308451, 8850308452, 8850308453, 5537212617], "tags": {"amenity": "restaurant", "building": "yes", "capacity": "50", "cuisine": "regional", "name": "Agriturismo Portella della Ginestra", "opening_hours": "10:00-22:00", "outdoor_seating": "yes", "website": "https://agriturismoportelladellaginestra.it/"}}, {"type": "way", "id": 1069512634, "nodes": [9816583884, 9816583885, 9816583886, 9816583887, 9816583884], "tags": {"addr:city": "Sambuca di Sicilia", "addr:postcode": "92017", "amenity": "restaurant", "building": "yes", "cuisine": "italian;pizza", "name": "La Panoramica", "phone": "+39925943430", "website": "https://la-panoramica-sicilian-restaurant.business.site"}}, {"type": "way", "id": 1069516008, "nodes": [9816625445, 9816625449, 9816625446, 9816625447, 9816625448, 9816625445], "tags": {"addr:city": "Sambuca di Sicilia", "addr:postcode": "92017", "amenity": "restaurant", "building": "yes", "cuisine": "italian;pizza", "name": "Antico Mulino", "opening_hours": "Tu-Su 13:00-15:30, 19:00-02:00", "phone": "+39925946130"}}, {"type": "way", "id": 1368127127, "nodes": [12670413725, 12670413724, 12670413723, 12670413722, 12670413725], "tags": {"amenity": "restaurant", "building": "yes", "name": "Vecchio Filici"}}]}