{"version": 0.6, "generator": "Overpass API 0.7.62.7 375dc00a", "osm3s": {"timestamp_osm_base": "2025-06-14T13:49:28Z", "copyright": "The data included in this document is from www.openstreetmap.org. The data is made available under ODbL."}, "elements": [{"type": "node", "id": 2134181109, "lat": 7.3192002, "lon": 13.5763774, "tags": {"amenity": "restaurant", "internet_access": "no", "smoking": "yes"}}, {"type": "node", "id": 3116264556, "lat": 7.3204645, "lon": 13.5754021, "tags": {"amenity": "restaurant"}}, {"type": "node", "id": 3393716371, "lat": 7.4184614, "lon": 13.547241}, {"type": "node", "id": 3393716604, "lat": 7.4186126, "lon": 13.5474715}, {"type": "node", "id": 3393716616, "lat": 7.4186784, "lon": 13.5470962}, {"type": "node", "id": 3393716652, "lat": 7.4188296, "lon": 13.5473267}, {"type": "node", "id": 3636641521, "lat": 7.3286516, "lon": 13.5926023, "tags": {"amenity": "restaurant"}}, {"type": "node", "id": 5016359239, "lat": 7.326028, "lon": 13.5809824, "tags": {"amenity": "restaurant", "description": "poisson brais\u00e9 sur le balcon d'une maison", "name": "Poisson brais\u00e9"}}, {"type": "node", "id": 5126016934, "lat": 7.3382129, "lon": 13.5872758, "tags": {"amenity": "restaurant", "name": "Restaurant Riskou Ledimen"}}, {"type": "node", "id": 5126630618, "lat": 7.2676825, "lon": 13.5518716, "tags": {"amenity": "restaurant", "name": "La parisienne"}}, {"type": "node", "id": 5162037380, "lat": 7.322134, "lon": 13.5840395, "tags": {"amenity": "restaurant", "name": "La Gourmandise"}}, {"type": "node", "id": 5377984269, "lat": 7.3118179, "lon": 13.5981354, "tags": {"amenity": "restaurant", "name": "Restaurant CIAEI", "opening_hours": "Mo-Su 06:30-22:00"}}, {"type": "node", "id": 5698742713, "lat": 7.4199275, "lon": 13.5389598, "tags": {"amenity": "restaurant", "name": "La cantine"}}, {"type": "node", "id": 5699469443, "lat": 7.417024, "lon": 13.5414014, "tags": {"amenity": "restaurant"}}, {"type": "node", "id": 5915981721, "lat": 7.4132485, "lon": 13.5490642, "tags": {"amenity": "cafe"}}, {"type": "node", "id": 5915981722, "lat": 7.413571, "lon": 13.5488335, "tags": {"amenity": "cafe"}}, {"type": "node", "id": 5915981723, "lat": 7.4137392, "lon": 13.5489274, "tags": {"amenity": "cafe"}}, {"type": "node", "id": 5916005197, "lat": 7.30575, "lon": 13.59042, "tags": {"amenity": "cafe", "name": "WALDE KOSSAM", "source": "ACAGER"}}, {"type": "node", "id": 5916005198, "lat": 7.3269984, "lon": 13.5920333, "tags": {"amenity": "cafe", "contact:phone": "675774678", "name": "WALDE WOILARE", "source": "ACAGER"}}, {"type": "node", "id": 5916005199, "lat": 7.3305, "lon": 13.5931, "tags": {"amenity": "cafe", "contact:phone": "699799475", "fixme": "SABONGARI GARE", "source": "ACAGER"}}, {"type": "node", "id": 5916005200, "lat": 7.3325, "lon": 13.5934, "tags": {"amenity": "cafe", "contact:phone": "670155277", "name": "Walde kosam NeidakouN", "source": "ACAGER"}}, {"type": "node", "id": 5916005201, "lat": 7.3315783, "lon": 13.5873335, "tags": {"amenity": "cafe", "name": "WALDE WAMGAL", "source": "ACAGER"}}, {"type": "node", "id": 5916005202, "lat": 7.3268219, "lon": 13.5904246, "tags": {"amenity": "cafe", "contact:phone": "674138529", "name": "WALDE KOSSAM", "place": "Mbibar", "source": "ACAGER"}}, {"type": "node", "id": 5916005203, "lat": 7.326873, "lon": 13.585146, "tags": {"amenity": "cafe", "contact:phone": "699146492", "name": "WALDE KOSSAM", "source": "ACAGER"}}, {"type": "node", "id": 5916005204, "lat": 7.293, "lon": 13.5761, "tags": {"amenity": "cafe", "contact:phone": "660467354", "name": "SARE KOSSAM", "source": "ACAGER"}}, {"type": "node", "id": 5916005205, "lat": 7.298385, "lon": 13.577138, "tags": {"amenity": "cafe", "name": "WALDE KOSSAM BARKA", "source": "ACAGER"}}, {"type": "node", "id": 5916005206, "lat": 7.299218, "lon": 13.577368, "tags": {"amenity": "cafe", "name": "NANA", "source": "ACAGER"}}, {"type": "node", "id": 5916005207, "lat": 7.4171512, "lon": 13.5507141, "tags": {"amenity": "cafe", "source": "ACAGER"}}, {"type": "node", "id": 5916005208, "lat": 7.3195312, "lon": 13.5863509, "tags": {"amenity": "cafe", "name": "Kossam Camtel", "source": "ACAGER"}}, {"type": "node", "id": 5916005209, "lat": 7.3208509, "lon": 13.5864438, "tags": {"amenity": "cafe", "contact:phone": "677213370", "name": "Walde Beero Kossam", "source": "ACAGER"}}, {"type": "node", "id": 5916005210, "lat": 7.3201326, "lon": 13.5850891, "tags": {"amenity": "cafe", "contact:phone": "677596361", "name": "Walde Mbela", "source": "ACAGER"}}, {"type": "node", "id": 5916005211, "lat": 7.32313, "lon": 13.5810591, "tags": {"amenity": "cafe", "fixme": "TONGO FALINGO", "name": "Soudou Kossam", "source": "ACAGER"}}, {"type": "node", "id": 5916005212, "lat": 7.3202442, "lon": 13.5756439, "tags": {"amenity": "cafe", "contact:phone": "697338597", "fixme": "CENTRE COMMERCIAL", "name": "Bar Laitier", "source": "ACAGER"}}, {"type": "node", "id": 5916005213, "lat": 7.303382, "lon": 13.600155, "tags": {"amenity": "cafe", "contact:phone": "678 80 17 89", "fixme": "BURKINA", "name": "WALDE KOSSAM", "source": "ACAGER"}}, {"type": "node", "id": 5916005214, "lat": 7.302531, "lon": 13.600524, "tags": {"amenity": "cafe", "contact:phone": "678 29 99 83", "name": "WALDE KOSSAM", "source": "ACAGER"}}, {"type": "node", "id": 5916005215, "lat": 7.294189, "lon": 13.574332, "tags": {"amenity": "cafe", "contact:phone": "677152548", "name": "WALDE SOUREDJI", "source": "ACAGER"}}, {"type": "node", "id": 5916005216, "lat": 7.29405, "lon": 13.5722, "tags": {"amenity": "cafe", "name": "WALDE RISKOU", "source": "ACAGER"}}, {"type": "node", "id": 5916005217, "lat": 7.291711, "lon": 13.5770836, "tags": {"amenity": "cafe", "name": "WALDE KOSSAM HALAL", "source": "ACAGER"}}, {"type": "node", "id": 5916005218, "lat": 7.294179, "lon": 13.5762654, "tags": {"amenity": "cafe", "contact:phone": "690949411", "name": "SUPER KOSSAM", "source": "ACAGER"}}, {"type": "node", "id": 5916005219, "lat": 7.3220495, "lon": 13.5847901, "tags": {"amenity": "cafe", "contact:phone": "673739607", "source": "ACAGER"}}, {"type": "node", "id": 5916005220, "lat": 7.32336, "lon": 13.558803, "tags": {"amenity": "cafe", "contact:phone": "682270104", "source": "ACAGER"}}, {"type": "node", "id": 5916005221, "lat": 7.3204601, "lon": 13.595217, "tags": {"amenity": "cafe", "name": "WALDE KOSSAM SA'ARE HARANDE", "source": "ACAGER"}}, {"type": "node", "id": 5916005222, "lat": 7.3222306, "lon": 13.5950026, "tags": {"amenity": "cafe", "contact:phone": "699861080", "name": "GIC RISKOU LESDIME", "source": "ACAGER"}}, {"type": "node", "id": 5916005223, "lat": 7.3188972, "lon": 13.5887393, "tags": {"amenity": "cafe", "contact:phone": "674247592", "source": "ACAGER"}}, {"type": "node", "id": 5916005224, "lat": 7.3196846, "lon": 13.5922121, "tags": {"amenity": "cafe", "contact:phone": "675408837", "name": "WALDE KOSSAM", "source": "ACAGER"}}, {"type": "node", "id": 5916005225, "lat": 7.3194946, "lon": 13.5909559, "tags": {"amenity": "cafe", "name": "WALDE KOSSAM", "source": "ACAGER"}}, {"type": "node", "id": 5916005226, "lat": 7.3189125, "lon": 13.5938478, "tags": {"amenity": "cafe", "name": "WALDE KOSSAM/RESTAURANT LE DELICE", "source": "ACAGER"}}, {"type": "node", "id": 5916005227, "lat": 7.3172042, "lon": 13.5881539, "tags": {"amenity": "cafe", "fixme": "DJAKBOL", "source": "ACAGER"}}, {"type": "node", "id": 5916005228, "lat": 7.3228977, "lon": 13.5921555, "tags": {"amenity": "cafe", "name": "WALDE KOSSAM", "source": "ACAGER"}}, {"type": "node", "id": 5916005229, "lat": 7.326212, "lon": 13.5926121, "tags": {"amenity": "cafe", "fixme": "BAYANGARI", "source": "ACAGER"}}, {"type": "node", "id": 5916005230, "lat": 7.3592079, "lon": 13.5817316, "tags": {"amenity": "cafe", "source": "ACAGER"}}, {"type": "node", "id": 5916005231, "lat": 7.3567489, "lon": 13.5815269, "tags": {"amenity": "cafe", "fixme": "GADA MABANGA", "source": "ACAGER"}}, {"type": "node", "id": 5916005232, "lat": 7.3561973, "lon": 13.5807111, "tags": {"amenity": "cafe", "contact:phone": "674859498", "source": "ACAGER"}}, {"type": "node", "id": 5916005233, "lat": 7.3384786, "lon": 13.5889626, "tags": {"amenity": "cafe", "source": "ACAGER"}}, {"type": "node", "id": 5940429058, "lat": 7.3201228, "lon": 13.5745968, "tags": {"amenity": "restaurant", "source": "ACAGER"}}, {"type": "node", "id": 5940429071, "lat": 7.315608, "lon": 13.58989, "tags": {"amenity": "restaurant", "contact:phone": "695442772", "name": "FADIMATOU", "source": "ACAGER"}}, {"type": "node", "id": 5940429072, "lat": 7.3040142, "lon": 13.59096, "tags": {"amenity": "restaurant", "contact:phone": "660050455", "name": "SAIDOU BAPPA", "source": "ACAGER"}}, {"type": "node", "id": 5940429073, "lat": 7.3088407, "lon": 13.5906225, "tags": {"amenity": "restaurant", "name": "CAFE RESTO", "source": "ACAGER"}}, {"type": "node", "id": 5940429074, "lat": 7.3207112, "lon": 13.5768245, "tags": {"amenity": "restaurant", "fixme": "BALI", "name": "RESTAURANT LE VERGER", "source": "ACAGER"}}, {"type": "node", "id": 5940429075, "lat": 7.3206962, "lon": 13.5779188, "tags": {"amenity": "restaurant", "contact:phone": "699855151", "fixme": "BALI", "name": "RESTAURANT LA PLAZA", "source": "ACAGER"}}, {"type": "node", "id": 5940429076, "lat": 7.325905, "lon": 13.583789, "tags": {"amenity": "restaurant", "source": "ACAGER"}}, {"type": "node", "id": 5940429077, "lat": 7.33111, "lon": 13.605225, "tags": {"amenity": "restaurant", "contact:phone": "679554425", "name": "Mohamadou", "source": "ACAGER"}}, {"type": "node", "id": 5940429078, "lat": 7.331823, "lon": 13.5901338, "tags": {"amenity": "restaurant", "contact:phone": "677844344", "name": "Aminatou", "place": "SABONGARI", "source": "ACAGER"}}, {"type": "node", "id": 5940429079, "lat": 7.3281961, "lon": 13.5923245, "tags": {"amenity": "restaurant", "contact:phone": "661254364", "name": "Aissatou", "source": "ACAGER"}}, {"type": "node", "id": 5940429080, "lat": 7.3304941, "lon": 13.5878315, "tags": {"amenity": "restaurant", "name": "Fadimatou", "source": "ACAGER"}}, {"type": "node", "id": 5940429081, "lat": 7.3272122, "lon": 13.5911216, "tags": {"amenity": "restaurant", "contact:phone": "697534834", "source": "ACAGER"}}, {"type": "node", "id": 5940429082, "lat": 7.3274071, "lon": 13.590087, "tags": {"amenity": "restaurant", "name": "Hawa", "source": "ACAGER"}}, {"type": "node", "id": 5940429083, "lat": 7.327536, "lon": 13.5897495, "tags": {"amenity": "restaurant", "source": "ACAGER"}}, {"type": "node", "id": 5940429084, "lat": 7.3275634, "lon": 13.589643, "tags": {"amenity": "restaurant", "contact:phone": "693560240", "name": "WALDE CAFE RESTAURANT/ Bouba", "source": "ACAGER"}}, {"type": "node", "id": 5940429485, "lat": 7.329596, "lon": 13.5895745, "tags": {"amenity": "restaurant", "contact:phone": "699475157", "name": "Aissatou", "source": "ACAGER"}}, {"type": "node", "id": 5940429486, "lat": 7.327909, "lon": 13.589316, "tags": {"amenity": "restaurant", "contact:phone": "696764841", "name": "CAFA POPULAIRE/AHMADOU", "source": "ACAGER"}}, {"type": "node", "id": 5940429487, "lat": 7.326943, "lon": 13.590784, "tags": {"amenity": "restaurant", "name": "Aminatou", "source": "ACAGER"}}, {"type": "node", "id": 5940429488, "lat": 7.327079, "lon": 13.583442, "tags": {"amenity": "restaurant", "name": "RESTAURANT ALBATROS", "source": "ACAGER"}}, {"type": "node", "id": 5940429489, "lat": 7.326646, "lon": 13.5848692, "tags": {"amenity": "restaurant", "contact:phone": "661157158", "name": "Inna", "source": "ACAGER"}}, {"type": "node", "id": 5940429490, "lat": 7.3268973, "lon": 13.5835322, "tags": {"amenity": "restaurant", "contact:phone": "661020218", "name": "Hamat Al Habib", "source": "ACAGER"}}, {"type": "node", "id": 5940429491, "lat": 7.323546, "lon": 13.584902, "tags": {"amenity": "restaurant", "contact:phone": "674533150", "fixme": "Tongo", "name": "SUPER WALDE KOSSAM", "source": "ACAGER"}}, {"type": "node", "id": 5940429492, "lat": 7.328355, "lon": 13.586903, "tags": {"amenity": "restaurant", "name": "Oumarou", "source": "ACAGER"}}, {"type": "node", "id": 5940429493, "lat": 7.3277, "lon": 13.5879, "tags": {"amenity": "restaurant", "name": "Aissatou", "source": "ACAGER"}}, {"type": "node", "id": 5940429494, "lat": 7.3299677, "lon": 13.5929519, "tags": {"amenity": "restaurant", "name": "Younoussa", "source": "ACAGER"}}, {"type": "node", "id": 5940429495, "lat": 7.3321748, "lon": 13.5935152, "tags": {"amenity": "restaurant", "name": "Ousmane", "source": "ACAGER"}}, {"type": "node", "id": 5940429496, "lat": 7.3319339, "lon": 13.5932311, "tags": {"amenity": "restaurant", "contact:phone": "652130704", "name": "Ali Abdoulaye", "source": "ACAGER"}}, {"type": "node", "id": 5940429497, "lat": 7.294462, "lon": 13.57325, "tags": {"amenity": "restaurant", "name": "MAIRAMA", "source": "ACAGER"}}, {"type": "node", "id": 5940429498, "lat": 7.2932552, "lon": 13.576805, "tags": {"amenity": "restaurant", "contact:phone": "650915826", "source": "ACAGER"}}, {"type": "node", "id": 5940429499, "lat": 7.2971815, "lon": 13.5763674, "tags": {"amenity": "restaurant", "contact:phone": "691710650", "name": "SALA", "source": "ACAGER"}}, {"type": "node", "id": 5940429500, "lat": 7.2939043, "lon": 13.5761528, "tags": {"amenity": "restaurant", "contact:phone": "666016564", "name": "NAFI", "source": "ACAGER"}}, {"type": "node", "id": 5940429501, "lat": 7.292329, "lon": 13.57712, "tags": {"amenity": "restaurant", "contact:phone": "693371999", "name": "HABIBA", "source": "ACAGER"}}, {"type": "node", "id": 5940429502, "lat": 7.2938, "lon": 13.5761, "tags": {"amenity": "restaurant", "source": "ACAGER"}}, {"type": "node", "id": 5940429503, "lat": 7.294308, "lon": 13.5753524, "tags": {"amenity": "restaurant", "source": "ACAGER"}}, {"type": "node", "id": 5940429504, "lat": 7.294302, "lon": 13.575384, "tags": {"amenity": "restaurant", "source": "ACAGER"}}, {"type": "node", "id": 5940429505, "lat": 7.2943555, "lon": 13.5758951, "tags": {"amenity": "restaurant", "contact:phone": "666592275", "source": "ACAGER"}}, {"type": "node", "id": 5940429506, "lat": 7.3266089, "lon": 13.5821398, "tags": {"amenity": "restaurant", "contact:phone": "676328438", "name": "MAIRAMOU", "source": "ACAGER"}}, {"type": "node", "id": 5940429507, "lat": 7.328223, "lon": 13.5831145, "tags": {"amenity": "restaurant", "contact:phone": "695500827", "name": "ABOUBAKARIBSALI DJOURO", "source": "ACAGER"}}, {"type": "node", "id": 5940429508, "lat": 7.3278501, "lon": 13.581233, "tags": {"amenity": "restaurant", "contact:phone": "699134145", "name": "RESTAURANT MROUA", "source": "ACAGER"}}, {"type": "node", "id": 5940429509, "lat": 7.3280133, "lon": 13.5825027, "tags": {"amenity": "restaurant", "name": "AISSATOU", "source": "ACAGER"}}, {"type": "node", "id": 5940429510, "lat": 7.321732, "lon": 13.5785879, "tags": {"amenity": "restaurant", "contact:phone": "674611484", "fixme": "CENTRE COMMERCIAL", "name": "NOUTCHOUBOUO Epse MEKONGO", "source": "ACAGER"}}, {"type": "node", "id": 5940429511, "lat": 7.3223914, "lon": 13.5739482, "tags": {"amenity": "restaurant", "fixme": "BALADJI 2", "name": "HAMIDOU", "source": "ACAGER"}}, {"type": "node", "id": 5940429512, "lat": 7.3234249, "lon": 13.5744138, "tags": {"amenity": "restaurant", "contact:phone": "696636236", "fixme": "BALADJI 2", "name": "NGOUTANE CLUDE LILIANE", "source": "ACAGER"}}, {"type": "node", "id": 5940429513, "lat": 7.3257541, "lon": 13.5812531, "tags": {"amenity": "restaurant", "contact:phone": "69091123", "fixme": "BALADJI 1", "name": "NGO TEP", "source": "ACAGER"}}, {"type": "node", "id": 5940429514, "lat": 7.4099678, "lon": 13.5486594, "tags": {"amenity": "restaurant", "contact:phone": "677167762", "source": "ACAGER"}}, {"type": "node", "id": 5940429515, "lat": 7.433085, "lon": 13.556078, "tags": {"amenity": "restaurant", "contact:phone": "697646167", "name": "Grace", "source": "ACAGER"}}, {"type": "node", "id": 5940429516, "lat": 7.4394036, "lon": 13.5553723, "tags": {"amenity": "restaurant", "contact:phone": "697504492", "name": "Cool Zone", "source": "ACAGER"}}, {"type": "node", "id": 5940429517, "lat": 7.4384774, "lon": 13.5541913, "tags": {"amenity": "restaurant", "source": "ACAGER"}}, {"type": "node", "id": 5940429518, "lat": 7.4224436, "lon": 13.5533048, "tags": {"amenity": "restaurant", "source": "ACAGER"}}, {"type": "node", "id": 5940429519, "lat": 7.4137426, "lon": 13.5510283, "tags": {"amenity": "restaurant", "contact:phone": "699871109", "name": "Awanda", "source": "ACAGER"}}, {"type": "node", "id": 5940429520, "lat": 7.4155976, "lon": 13.5514613, "tags": {"amenity": "restaurant", "name": "La Simule", "source": "ACAGER"}}, {"type": "node", "id": 5940429521, "lat": 7.4134226, "lon": 13.5505283, "tags": {"amenity": "restaurant", "name": "La Comida", "source": "ACAGER"}}, {"type": "node", "id": 5940429522, "lat": 7.4148476, "lon": 13.551493, "tags": {"amenity": "restaurant", "name": "Ambassade Restaurant", "source": "ACAGER"}}, {"type": "node", "id": 5940429523, "lat": 7.4148571, "lon": 13.551042, "tags": {"amenity": "restaurant", "name": "?a Donne", "source": "ACAGER"}}, {"type": "node", "id": 5940429524, "lat": 7.4123029, "lon": 13.5499949, "tags": {"amenity": "restaurant", "name": "Tonton paul", "source": "ACAGER"}}, {"type": "node", "id": 5940429525, "lat": 7.4124087, "lon": 13.5498271, "tags": {"amenity": "restaurant", "name": "Mama Maiga", "source": "ACAGER"}}, {"type": "node", "id": 5940429526, "lat": 7.4121286, "lon": 13.5497541, "tags": {"amenity": "restaurant", "name": "la sanza", "source": "ACAGER"}}, {"type": "node", "id": 5940429527, "lat": 7.4115623, "lon": 13.5502097, "tags": {"amenity": "restaurant", "source": "ACAGER"}}, {"type": "node", "id": 5940429528, "lat": 7.4114038, "lon": 13.5501869, "tags": {"amenity": "restaurant", "source": "ACAGER"}}, {"type": "node", "id": 5940429529, "lat": 7.434596, "lon": 13.555904, "tags": {"amenity": "restaurant", "contact:phone": "660292028", "name": "Restaurant du centre", "source": "ACAGER"}}, {"type": "node", "id": 5940429530, "lat": 7.297442, "lon": 13.555383, "tags": {"amenity": "restaurant", "fixme": "BEKA", "name": "New style", "source": "ACAGER"}}, {"type": "node", "id": 5940429531, "lat": 7.297459, "lon": 13.555373, "tags": {"amenity": "restaurant", "contact:phone": "661825523", "fixme": "BEKA", "name": "Supercaf?", "source": "ACAGER"}}, {"type": "node", "id": 5940429532, "lat": 7.2976012, "lon": 13.5552534, "tags": {"amenity": "restaurant", "fixme": "BEKA", "name": "Djamade", "source": "ACAGER"}}, {"type": "node", "id": 5940429533, "lat": 7.31082, "lon": 13.547485, "tags": {"amenity": "restaurant", "contact:phone": "676132672", "source": "ACAGER"}}, {"type": "node", "id": 5940429534, "lat": 7.310689, "lon": 13.548956, "tags": {"amenity": "restaurant", "source": "ACAGER"}}, {"type": "node", "id": 5940429535, "lat": 7.30773, "lon": 13.57244, "tags": {"amenity": "restaurant", "contact:phone": "660533580", "source": "ACAGER"}}, {"type": "node", "id": 5940429536, "lat": 7.3189579, "lon": 13.5735609, "tags": {"amenity": "restaurant", "name": "CHOCHO", "source": "ACAGER"}}, {"type": "node", "id": 5940429537, "lat": 7.3188304, "lon": 13.5737245, "tags": {"amenity": "restaurant", "name": "Caf\u00e9 Montana", "source": "ACAGER"}}, {"type": "node", "id": 5940429538, "lat": 7.3176214, "lon": 13.5734265, "tags": {"amenity": "restaurant", "contact:phone": "674522938", "name": "BAHCCUS", "source": "ACAGER"}}, {"type": "node", "id": 5940429539, "lat": 7.31929, "lon": 13.57319, "tags": {"amenity": "restaurant", "fixme": "ONAREF", "name": "LA FOURCHETTE", "source": "ACAGER"}}, {"type": "node", "id": 5940429540, "lat": 7.3165933, "lon": 13.5771816, "tags": {"amenity": "restaurant", "contact:phone": "699851529", "fixme": "ONAREF", "name": "MOHAMAN AWAL MASSA", "source": "ACAGER"}}, {"type": "node", "id": 5940429541, "lat": 7.31862, "lon": 13.57608, "tags": {"amenity": "restaurant", "name": "SAHELIEN", "source": "ACAGER"}}, {"type": "node", "id": 5940429542, "lat": 7.3200134, "lon": 13.5751388, "tags": {"amenity": "restaurant", "fixme": "ONAREF", "name": "MARHABA", "source": "ACAGER"}}, {"type": "node", "id": 5940429543, "lat": 7.321, "lon": 13.58095, "tags": {"amenity": "restaurant", "contact:phone": "677370503", "name": "Caf\u00e9 Restaurant Terminus", "source": "ACAGER"}}, {"type": "node", "id": 5940429544, "lat": 7.3196923, "lon": 13.5802909, "tags": {"amenity": "restaurant", "fixme": "BALI", "source": "ACAGER"}}, {"type": "node", "id": 5940429545, "lat": 7.3206394, "lon": 13.5858072, "tags": {"amenity": "restaurant", "fixme": "GRAND MARCHE", "source": "ACAGER"}}, {"type": "node", "id": 5940429546, "lat": 7.3206886, "lon": 13.5844099, "tags": {"amenity": "restaurant", "source": "ACAGER"}}, {"type": "node", "id": 5940429547, "lat": 7.3205941, "lon": 13.5852806, "tags": {"amenity": "restaurant", "source": "ACAGER"}}, {"type": "node", "id": 5940429548, "lat": 7.3207533, "lon": 13.585324, "tags": {"amenity": "restaurant", "fixme": "GRAND MARCHE", "source": "ACAGER"}}, {"type": "node", "id": 5940429549, "lat": 7.3206334, "lon": 13.5845289, "tags": {"amenity": "restaurant", "contact:phone": "695503756", "name": "BRAISE DU COIN", "source": "ACAGER"}}, {"type": "node", "id": 5940429550, "lat": 7.3204709, "lon": 13.5796296, "tags": {"amenity": "restaurant", "contact:phone": "672222402", "fixme": "BALI", "name": "RESTAURANT PAPA POULET", "source": "ACAGER"}}, {"type": "node", "id": 5940429551, "lat": 7.3213714, "lon": 13.5818295, "tags": {"amenity": "restaurant", "name": "Caf\u00e9 Adamaoua", "source": "ACAGER"}}, {"type": "node", "id": 5940429552, "lat": 7.3214133, "lon": 13.5843724, "tags": {"amenity": "restaurant", "contact:phone": "661766306", "name": "ABOUBAKAR", "source": "ACAGER"}}, {"type": "node", "id": 5940429553, "lat": 7.3213463, "lon": 13.5847425, "tags": {"amenity": "restaurant", "contact:phone": "694204845", "name": "ALBATROS", "source": "ACAGER"}}, {"type": "node", "id": 5940429554, "lat": 7.3194954, "lon": 13.5757805, "tags": {"amenity": "restaurant", "contact:phone": "677280858", "fixme": "CENTRE COMMERCIAL", "name": "Socadis - Concorde", "source": "ACAGER"}}, {"type": "node", "id": 5940429555, "lat": 7.31924, "lon": 13.57647, "tags": {"amenity": "restaurant", "contact:phone": "661001390", "description": "Centre commercial", "name": "Caf\u00e9 Le Meilleur", "source": "ACAGER"}}, {"type": "node", "id": 5940429556, "lat": 7.3228541, "lon": 13.5841447, "tags": {"amenity": "restaurant", "contact:phone": "674780500", "name": "SALI SANDA ALL REDINE", "source": "ACAGER"}}, {"type": "node", "id": 5940429557, "lat": 7.3239373, "lon": 13.58405, "tags": {"amenity": "restaurant", "name": "ABDOULLAHI", "source": "ACAGER"}}, {"type": "node", "id": 5940429558, "lat": 7.3227924, "lon": 13.5793648, "tags": {"amenity": "restaurant", "fixme": "TONGO GALDIMA", "name": "SALIFOU", "source": "ACAGER"}}, {"type": "node", "id": 5940429559, "lat": 7.3226217, "lon": 13.5792214, "tags": {"amenity": "restaurant", "fixme": "TONGO GALDIMA", "name": "LUCAS", "source": "ACAGER"}}, {"type": "node", "id": 5940429560, "lat": 7.3109868, "lon": 13.596991, "tags": {"amenity": "restaurant", "contact:phone": "668 53 66 52", "name": "FADIMATOU MOUSTAPHA", "source": "ACAGER"}}, {"type": "node", "id": 5940429561, "lat": 7.317638, "lon": 13.59, "tags": {"amenity": "restaurant", "contact:phone": "699 31 08 33", "name": "FOUAD", "source": "ACAGER"}}, {"type": "node", "id": 5940429562, "lat": 7.305643, "lon": 13.5996216, "tags": {"amenity": "restaurant", "contact:phone": "653 63 72 40", "name": "MOUSSA", "source": "ACAGER"}}, {"type": "node", "id": 5940429563, "lat": 7.3032317, "lon": 13.6001708, "tags": {"amenity": "restaurant", "contact:phone": "661 23 58 64", "name": "AMINATOU SAMIRA", "source": "ACAGER"}}, {"type": "node", "id": 5940429564, "lat": 7.2980753, "lon": 13.603634, "tags": {"amenity": "restaurant", "name": "OUSMANOU EGUI", "source": "ACAGER"}}, {"type": "node", "id": 5940429565, "lat": 7.3032927, "lon": 13.6051122, "tags": {"amenity": "restaurant", "contact:phone": "678 63 68 28", "name": "SOUMAI PLILOMON", "source": "ACAGER"}}, {"type": "node", "id": 5940429566, "lat": 7.3053036, "lon": 13.5991495, "tags": {"amenity": "restaurant", "contact:phone": "664 86 50 14", "name": "YOUSSOUFA HAMIDOU", "source": "ACAGER"}}, {"type": "node", "id": 5940429567, "lat": 7.2933568, "lon": 13.5774344, "tags": {"amenity": "restaurant", "name": "AISSATOU", "source": "ACAGER"}}, {"type": "node", "id": 5940429568, "lat": 7.293847, "lon": 13.57541, "tags": {"amenity": "restaurant", "name": "DOUDOU", "source": "ACAGER"}}, {"type": "node", "id": 5940429569, "lat": 7.29605, "lon": 13.57261, "tags": {"amenity": "restaurant", "name": "FADIMAOU", "source": "ACAGER"}}, {"type": "node", "id": 5940429570, "lat": 7.2968178, "lon": 13.5695332, "tags": {"amenity": "restaurant", "name": "Aminatou", "source": "ACAGER"}}, {"type": "node", "id": 5940429571, "lat": 7.29402, "lon": 13.57388, "tags": {"amenity": "restaurant", "contact:phone": "699554258", "name": "ADAMA", "source": "ACAGER"}}, {"type": "node", "id": 5940429572, "lat": 7.282189, "lon": 13.5834556, "tags": {"amenity": "restaurant", "name": "NAFISSA", "source": "ACAGER"}}, {"type": "node", "id": 5940429573, "lat": 7.305591, "lon": 13.577889, "tags": {"amenity": "restaurant", "contact:phone": "660682505", "name": "MBAMI YASCHI", "source": "ACAGER"}}, {"type": "node", "id": 5940429574, "lat": 7.3044184, "lon": 13.5775293, "tags": {"amenity": "restaurant", "contact:phone": "661765958", "name": "NANA", "source": "ACAGER"}}, {"type": "node", "id": 5940429575, "lat": 7.3245423, "lon": 13.5897482, "tags": {"amenity": "restaurant", "fixme": "MBOURGA", "name": "RAIHANA", "source": "ACAGER"}}, {"type": "node", "id": 5940429576, "lat": 7.3214112, "lon": 13.5850882, "tags": {"amenity": "restaurant", "contact:phone": "662304819", "name": "JACQUELINE", "source": "ACAGER"}}, {"type": "node", "id": 5940429577, "lat": 7.3222, "lon": 13.58476, "tags": {"amenity": "restaurant", "contact:phone": "660303040", "name": "HADJA BEBBE", "source": "ACAGER"}}, {"type": "node", "id": 5940429578, "lat": 7.32129, "lon": 13.5854913, "tags": {"amenity": "restaurant", "contact:phone": "697656408", "name": "AISSATOU", "source": "ACAGER"}}, {"type": "node", "id": 5940429579, "lat": 7.3212675, "lon": 13.5858077, "tags": {"amenity": "restaurant", "contact:phone": "676211715", "name": "ALIOU", "source": "ACAGER"}}, {"type": "node", "id": 5940429580, "lat": 7.320269, "lon": 13.5904257, "tags": {"amenity": "restaurant", "contact:phone": "660050106", "name": "DJANABOU", "source": "ACAGER"}}, {"type": "node", "id": 5940429581, "lat": 7.3250927, "lon": 13.5895359, "tags": {"amenity": "restaurant", "fixme": "MBOURGA", "name": "ABBDOULAYE", "source": "ACAGER"}}, {"type": "node", "id": 5940429582, "lat": 7.3248553, "lon": 13.5896306, "tags": {"amenity": "restaurant", "name": "ABAKAR", "source": "ACAGER"}}, {"type": "node", "id": 5940429583, "lat": 7.3227153, "lon": 13.5872571, "tags": {"amenity": "restaurant", "contact:phone": "656029216", "name": "DIDDI", "source": "ACAGER"}}, {"type": "node", "id": 5940429584, "lat": 7.3214536, "lon": 13.586432, "tags": {"amenity": "restaurant", "contact:phone": "660142009", "name": "OUSMANOU", "source": "ACAGER"}}, {"type": "node", "id": 5940429885, "lat": 7.318159, "lon": 13.587139, "tags": {"amenity": "restaurant", "contact:phone": "696579092", "fixme": "BOUMDJERE", "name": "MAZOU", "source": "ACAGER"}}, {"type": "node", "id": 5940429886, "lat": 7.32106, "lon": 13.5954316, "tags": {"amenity": "restaurant", "contact:phone": "673892817", "name": "NAMLARAILLE", "source": "ACAGER"}}, {"type": "node", "id": 5940429887, "lat": 7.3209, "lon": 13.59562, "tags": {"amenity": "restaurant", "contact:phone": "667028930", "name": "AISSATOU", "source": "ACAGER"}}, {"type": "node", "id": 5940429888, "lat": 7.3206307, "lon": 13.5954854, "tags": {"amenity": "restaurant", "source": "ACAGER"}}, {"type": "node", "id": 5940429889, "lat": 7.3201986, "lon": 13.5952565, "tags": {"amenity": "restaurant", "name": "MBOMO", "source": "ACAGER"}}, {"type": "node", "id": 5940429890, "lat": 7.3207631, "lon": 13.595668, "tags": {"amenity": "restaurant", "contact:phone": "678555012", "name": "MENDOMO HENGOUNOU", "source": "ACAGER"}}, {"type": "node", "id": 5940429891, "lat": 7.3205427, "lon": 13.5955293, "tags": {"amenity": "restaurant", "contact:phone": "698255672", "name": "HAMADOU", "source": "ACAGER"}}, {"type": "node", "id": 5940429892, "lat": 7.3206193, "lon": 13.5955868, "tags": {"amenity": "restaurant", "contact:phone": "698230057", "source": "ACAGER"}}, {"type": "node", "id": 5940429893, "lat": 7.3206614, "lon": 13.5953933, "tags": {"amenity": "restaurant", "contact:phone": "675461019", "name": "MOHAMADOU SOUDI", "source": "ACAGER"}}, {"type": "node", "id": 5940429894, "lat": 7.319442, "lon": 13.5951826, "tags": {"amenity": "restaurant", "name": "DOUDOU", "source": "ACAGER"}}, {"type": "node", "id": 5940429895, "lat": 7.3228674, "lon": 13.5948743, "tags": {"amenity": "restaurant", "contact:phone": "674312163", "name": "ASTA", "source": "ACAGER"}}, {"type": "node", "id": 5940429896, "lat": 7.3229927, "lon": 13.5948197, "tags": {"amenity": "restaurant", "contact:phone": "694020363", "name": "AWAL/DIDDI", "source": "ACAGER"}}, {"type": "node", "id": 5940429897, "lat": 7.319504, "lon": 13.5953261, "tags": {"amenity": "restaurant", "contact:phone": "693626883", "name": "AISSATOU", "source": "ACAGER"}}, {"type": "node", "id": 5940429898, "lat": 7.3196813, "lon": 13.5947591, "tags": {"amenity": "restaurant", "contact:phone": "683304700", "name": "SALISOU", "source": "ACAGER"}}, {"type": "node", "id": 5940429899, "lat": 7.3198116, "lon": 13.591939, "tags": {"amenity": "restaurant", "contact:phone": "677574817", "name": "JEAN", "source": "ACAGER"}}, {"type": "node", "id": 5940429900, "lat": 7.3169524, "lon": 13.5898828, "tags": {"amenity": "restaurant", "contact:phone": "679017638", "fixme": "DJAKBOL", "name": "SOUAIBOU", "source": "ACAGER"}}, {"type": "node", "id": 5940429901, "lat": 7.316888, "lon": 13.590376, "tags": {"amenity": "restaurant", "contact:phone": "676216040", "fixme": "BOUMDJERE", "name": "FADIMATOU", "source": "ACAGER"}}, {"type": "node", "id": 5940429902, "lat": 7.316678, "lon": 13.5909706, "tags": {"amenity": "restaurant", "contact:phone": "661025267", "name": "FADIMATOU", "source": "ACAGER"}}, {"type": "node", "id": 5940429903, "lat": 7.3172053, "lon": 13.5925044, "tags": {"amenity": "restaurant", "contact:phone": "674741670", "name": "OUMAROU", "source": "ACAGER"}}, {"type": "node", "id": 5940429904, "lat": 7.3181186, "lon": 13.5944947, "tags": {"amenity": "restaurant", "contact:phone": "660706214", "name": "DJIDDA", "source": "ACAGER"}}, {"type": "node", "id": 5940429905, "lat": 7.3181035, "lon": 13.5940188, "tags": {"amenity": "restaurant", "contact:phone": "676581116", "name": "MEYON MELANIE", "source": "ACAGER"}}, {"type": "node", "id": 5940429906, "lat": 7.3198381, "lon": 13.5935858, "tags": {"amenity": "restaurant", "contact:phone": "653501237", "fixme": "AOUDI", "name": "IYA SALIHOU", "source": "ACAGER"}}, {"type": "node", "id": 5940429907, "lat": 7.3196937, "lon": 13.5928055, "tags": {"amenity": "restaurant", "contact:phone": "696750273", "name": "MADELEINE", "source": "ACAGER"}}, {"type": "node", "id": 5940429908, "lat": 7.3187686, "lon": 13.5948635, "tags": {"amenity": "restaurant", "contact:phone": "694138779", "name": "BOUBA HAMAN", "source": "ACAGER"}}, {"type": "node", "id": 5940429909, "lat": 7.31872, "lon": 13.59454, "tags": {"amenity": "restaurant", "contact:phone": "678855152", "name": "MOHAMADOU", "source": "ACAGER"}}, {"type": "node", "id": 5940429910, "lat": 7.3230081, "lon": 13.5927414, "tags": {"amenity": "restaurant", "contact:phone": "694700704", "name": "MOHAMADOU SLLA", "place": "HAOUSSA", "source": "ACAGER"}}, {"type": "node", "id": 5940429911, "lat": 7.3209802, "lon": 13.5929612, "tags": {"amenity": "restaurant", "contact:phone": "666678079", "name": "SOURILLLA", "source": "ACAGER"}}, {"type": "node", "id": 5940429912, "lat": 7.3261139, "lon": 13.5922527, "tags": {"amenity": "restaurant", "name": "AI", "source": "ACAGER"}}, {"type": "node", "id": 5940429913, "lat": 7.3195606, "lon": 13.5954527, "tags": {"amenity": "restaurant", "source": "ACAGER"}}, {"type": "node", "id": 5940429914, "lat": 7.3186666, "lon": 13.5946712, "tags": {"amenity": "restaurant", "contact:phone": "699230765", "name": "AISSATOU", "source": "ACAGER"}}, {"type": "node", "id": 5940429915, "lat": 7.3383329, "lon": 13.5885458, "tags": {"amenity": "restaurant", "name": "Resto-Bar Deux Z?ro", "source": "ACAGER"}}, {"type": "node", "id": 5940429916, "lat": 7.343042, "lon": 13.591583, "tags": {"amenity": "restaurant", "name": "Aissatou", "source": "ACAGER"}}, {"type": "node", "id": 5940429917, "lat": 7.343151, "lon": 13.580073, "tags": {"amenity": "restaurant", "source": "ACAGER"}}, {"type": "node", "id": 5940429918, "lat": 7.3382093, "lon": 13.5873515, "tags": {"amenity": "restaurant", "contact:phone": "675879836", "fixme": "GARE", "name": "Fadimatou", "source": "ACAGER"}}, {"type": "node", "id": 5940429919, "lat": 7.3338281, "lon": 13.5861483, "tags": {"amenity": "restaurant", "contact:phone": "675173039", "name": "Hamadou yaya", "source": "ACAGER"}}, {"type": "node", "id": 5940429920, "lat": 7.3379624, "lon": 13.5891111, "tags": {"amenity": "restaurant", "contact:phone": "674716366", "name": "MTA Cameroun", "source": "ACAGER"}}, {"type": "node", "id": 5940429921, "lat": 7.3563796, "lon": 13.5812328, "tags": {"amenity": "restaurant", "name": "Djoubairou", "source": "ACAGER"}}, {"type": "node", "id": 5940429922, "lat": 7.3570056, "lon": 13.581837, "tags": {"amenity": "restaurant", "contact:phone": "680948377", "name": "MAHAMAT", "source": "ACAGER"}}, {"type": "node", "id": 5940429923, "lat": 7.3563, "lon": 13.58172, "tags": {"amenity": "restaurant", "contact:phone": "660708154", "name": "DJAMILA", "source": "ACAGER"}}, {"type": "node", "id": 5940429924, "lat": 7.3571309, "lon": 13.582673, "tags": {"amenity": "restaurant", "name": "ZEINABOU", "source": "ACAGER"}}, {"type": "node", "id": 5940429925, "lat": 7.3533848, "lon": 13.5783973, "tags": {"amenity": "restaurant", "contact:phone": "679148270", "source": "ACAGER"}}, {"type": "node", "id": 5940429926, "lat": 7.335435, "lon": 13.593814, "tags": {"amenity": "restaurant", "contact:phone": "680250310", "name": "ZOUBEIDA", "source": "ACAGER"}}, {"type": "way", "id": 332260310, "nodes": [3393716616, 3393716652, 3393716604, 3393716371, 3393716616], "tags": {"amenity": "restaurant", "building": "yes", "name": "Restaurant Universitaire", "short_name": "R.U."}}]}