{"version": 0.6, "generator": "Overpass API 0.7.62.7 375dc00a", "osm3s": {"timestamp_osm_base": "2025-06-14T15:38:25Z", "copyright": "The data included in this document is from www.openstreetmap.org. The data is made available under ODbL."}, "elements": [{"type": "node", "id": 1150535970, "lat": 12.03447, "lon": 39.04549, "tags": {"amenity": "restaurant", "name": "Selina Bar and Restaurant", "source": "300TDI"}}, {"type": "node", "id": 1639089954, "lat": 12.0361312, "lon": 39.0470066, "tags": {"amenity": "restaurant", "description": "ferenji prices", "name": "Abay Grocery"}}, {"type": "node", "id": 1639090135, "lat": 12.0379624, "lon": 39.0461351, "tags": {"amenity": "restaurant", "description": "ferenji prices", "microbrewery": "no", "name": "Torpedo Tej Bet", "outdoor_seating": "no"}}, {"type": "node", "id": 2716335976, "lat": 12.0432542, "lon": 39.0370149, "tags": {"amenity": "restaurant", "cuisine": "regional", "email": "info@benabeba.com", "internet_access": "wlan", "internet_access:fee": "customers", "name": "Ben Abeba Restaurant", "outdoor_seating": "yes", "phone": "+251-333-360.215", "toilets": "yes", "website": "http://www.benabeba.com/", "wheelchair": "no", "wikimedia_commons": "Category:Ben Abeba restaurant"}}, {"type": "node", "id": 2985859450, "lat": 12.0393456, "lon": 39.0421933, "tags": {"amenity": "cafe", "name": "Bridge Caf\u00e9"}}, {"type": "node", "id": 2997484158, "lat": 12.0357167, "lon": 39.0466627, "tags": {"amenity": "cafe", "name": "John Cafe"}}, {"type": "node", "id": 3356666344, "lat": 11.6882184, "lon": 38.9234475, "tags": {"amenity": "cafe"}}, {"type": "node", "id": 3356698982, "lat": 11.8302465, "lon": 38.9292139, "tags": {"amenity": "restaurant"}}, {"type": "node", "id": 3903356344, "lat": 12.035898, "lon": 39.0482002, "tags": {"amenity": "restaurant", "cuisine": "regional", "name": "Blue Nile Restaurant", "name:en": "Blulal Restaurant"}}, {"type": "node", "id": 4385068090, "lat": 11.6887897, "lon": 38.9235953, "tags": {"amenity": "cafe", "name:en": "Gashena Caf\u00e9", "name:fr": "Gashena Caf\u00e9"}}, {"type": "node", "id": 4385068091, "lat": 12.035488, "lon": 39.0476314, "tags": {"addr:street": "Lalibela-Geshena-Road", "amenity": "restaurant", "cuisine": "international", "internet_access": "wlan", "name:en": "segenet restaurant"}}, {"type": "node", "id": 4385078493, "lat": 12.0346642, "lon": 39.0491032, "tags": {"amenity": "restaurant", "name:en": "Unique"}}, {"type": "node", "id": 5062423323, "lat": 12.0295028, "lon": 39.0489555, "tags": {"amenity": "cafe", "cuisine": "cake;coffee_shop", "name": "Friends Milk house", "name:am": "Friends Milk house", "name:en": "Friends Milk house"}}, {"type": "node", "id": 5062663022, "lat": 12.02541, "lon": 39.0401433, "tags": {"amenity": "restaurant", "cuisine": "steak_house;fine_dining;pizza;chicken;tea;ethiopian;coffee_shop", "email": "asneretta@yahoo.com", "name": "Kana restaurant", "name:am": "Kana restaurant", "name:en": "Kana restaurant", "phone": "+251911019830"}}, {"type": "node", "id": 5276287937, "lat": 12.0352434, "lon": 39.0473759, "tags": {"amenity": "cafe"}}, {"type": "node", "id": 5276288233, "lat": 12.0362356, "lon": 39.0469172, "tags": {"amenity": "restaurant", "cuisine": "coffee_shop;ethiopian", "diet:vegetarian": "yes", "name": "Sisay", "name:en": "Coffee day's Caf\u00e9 Lalibela"}}, {"type": "node", "id": 5276288234, "lat": 12.0362458, "lon": 39.0470576, "tags": {"amenity": "restaurant", "name:en": "Fresh juice and vegitable house"}}, {"type": "node", "id": 5414440824, "lat": 12.035669, "lon": 39.0474992, "tags": {"amenity": "restaurant", "cuisine": "ethiopian", "name": "Bar Restaurant"}}, {"type": "node", "id": 5418374522, "lat": 12.0353887, "lon": 39.0477669, "tags": {"amenity": "restaurant", "name": "Segenet Cafe and Restaurant", "name:he": "\u05d0\u05d7\u05dc\u05d4 \u05de\u05e7\u05d5\u05dd \u05de\u05e0\u05d4\u05dc\u05ea \u05d7\u05de\u05d5\u05d3\u05d4 \u05d9\u05d5\u05d3\u05e2\u05ea \u05d0\u05e0\u05d2\u05dc\u05d9\u05ea"}}, {"type": "node", "id": 5448172349, "lat": 12.036172, "lon": 39.0470595, "tags": {"amenity": "cafe"}}, {"type": "node", "id": 5448172440, "lat": 12.0355649, "lon": 39.0477914, "tags": {"amenity": "restaurant", "name:en": "Astiroid bar restaurant"}}, {"type": "node", "id": 5484107621, "lat": 12.0348568, "lon": 39.0463586, "tags": {"amenity": "cafe", "name": "M & Y Cafe and Pastry", "name:en": "MY cafe"}}, {"type": "node", "id": 5901715423, "lat": 12.0347228, "lon": 39.0460737, "tags": {"amenity": "cafe"}}, {"type": "node", "id": 5901715431, "lat": 12.0341512, "lon": 39.0418834, "tags": {"amenity": "cafe", "name": "Firie Yab"}}, {"type": "node", "id": 5901715440, "lat": 12.0345233, "lon": 39.0428307, "tags": {"amenity": "cafe"}}, {"type": "node", "id": 5901715444, "lat": 12.0340377, "lon": 39.041667, "tags": {"amenity": "restaurant"}}, {"type": "node", "id": 5901715446, "lat": 12.03374, "lon": 39.0412799, "tags": {"amenity": "restaurant"}}, {"type": "node", "id": 5901731970, "lat": 12.0363034, "lon": 39.0468832, "tags": {"amenity": "restaurant", "name": "Zewditu"}}, {"type": "node", "id": 5901731971, "lat": 12.0363479, "lon": 39.0468077, "tags": {"amenity": "cafe", "name": "Tigi"}}, {"type": "node", "id": 5901731984, "lat": 12.0362803, "lon": 39.0468818, "tags": {"amenity": "cafe", "name": "Coffee Days"}}, {"type": "node", "id": 5901757476, "lat": 12.0359213, "lon": 39.0465697, "tags": {"amenity": "cafe", "name": "Tsigie Ababay"}}, {"type": "node", "id": 5902193336, "lat": 12.0358314, "lon": 39.0466042, "tags": {"amenity": "cafe", "name": "Tsiyon"}}, {"type": "node", "id": 5902193337, "lat": 12.0357619, "lon": 39.0466363, "tags": {"amenity": "cafe", "name": "Kedemt Cafe"}}, {"type": "node", "id": 5902193340, "lat": 12.0358032, "lon": 39.0466213, "tags": {"amenity": "restaurant", "name": "Sebli Snack"}}, {"type": "node", "id": 5902193342, "lat": 12.0377739, "lon": 39.0456284, "tags": {"amenity": "cafe", "name": "Bailanesh Coffee House"}}, {"type": "node", "id": 5905778408, "lat": 12.0394867, "lon": 39.0421249, "tags": {"amenity": "restaurant", "cuisine": "regional"}}, {"type": "node", "id": 5905778417, "lat": 12.0387881, "lon": 39.0442426, "tags": {"amenity": "restaurant"}}, {"type": "node", "id": 6089946285, "lat": 12.0286215, "lon": 39.0423784, "tags": {"amenity": "cafe", "name": "\u1218\u1235\u1240\u120d \u12e8\u1300\u1260\u1293 \u1261\u1293", "name:en": "Meskel Traditional Coffee"}}, {"type": "node", "id": 6180844686, "lat": 12.0254789, "lon": 39.0518649, "tags": {"amenity": "restaurant", "cuisine": "chicken;diner;african;asian;ethiopian;american;coffee_shop;curry", "email": "maedrestaurant1@gmail.com", "internet_access": "wlan", "name": "Ma'ed Lalibela Restaurant", "opening_hours": "24/7", "operator": "Zewdu", "phone": "0911983376", "website": "http://www.maedlalibelarestaurant.com"}}, {"type": "node", "id": 6564386905, "lat": 12.0354308, "lon": 39.044447, "tags": {"amenity": "restaurant", "name": "\u1260\u1208\u12ed\u1290\u123d \u121d\u130d\u1265 \u1264\u1275"}}, {"type": "node", "id": 6589613587, "lat": 12.0364317, "lon": 39.0469587, "tags": {"amenity": "restaurant", "name:en": "Zewuditu restaurant"}}, {"type": "node", "id": 7111352185, "lat": 12.0227645, "lon": 39.0520731, "tags": {"amenity": "cafe", "name:en": "Meden"}}, {"type": "node", "id": 8106322417, "lat": 12.0349663, "lon": 39.0434979, "tags": {"amenity": "restaurant", "name:en": "Bisrat Cafe"}}, {"type": "node", "id": 10816576405, "lat": 12.0347413, "lon": 39.049115, "tags": {"amenity": "restaurant", "name": "Unique Restaurant. Fresh and good Injera. Nice!"}}]}