{"version": 0.6, "generator": "Overpass API 0.7.62.7 375dc00a", "osm3s": {"timestamp_osm_base": "2025-06-14T14:34:11Z", "copyright": "The data included in this document is from www.openstreetmap.org. The data is made available under ODbL."}, "elements": [{"type": "node", "id": 595412825, "lat": 42.1661221, "lon": 20.5689314, "tags": {"amenity": "restaurant", "name": "Restaurant Drini"}}, {"type": "node", "id": 595412826, "lat": 42.1671439, "lon": 20.5722594, "tags": {"amenity": "restaurant", "cuisine": "fish;local;coffee_shop", "internet_access": "wlan", "name": "Restaurant Liqeni", "phone": "+38344186987"}}, {"type": "node", "id": 595412827, "lat": 42.1674934, "lon": 20.5759428, "tags": {"amenity": "restaurant", "name": "Restaurant Iliria"}}, {"type": "node", "id": 595412828, "lat": 42.1664391, "lon": 20.5759053, "tags": {"amenity": "restaurant", "name": "Restaurant Vermica"}}, {"type": "node", "id": 595412829, "lat": 42.1664928, "lon": 20.5777372, "tags": {"amenity": "restaurant", "name": "Restaurant Mifabeli"}}, {"type": "node", "id": 595412830, "lat": 42.1733908, "lon": 20.6205975, "tags": {"addr:housename": "Restaurant Hako", "addr:postcode": "20520", "amenity": "restaurant", "cuisine": "international", "name": "Restaurant Hako"}}, {"type": "node", "id": 595412831, "lat": 42.1766459, "lon": 20.9097216, "tags": {"amenity": "restaurant", "name": "Restaurant Sharr"}}, {"type": "node", "id": 595412833, "lat": 42.1770309, "lon": 20.9124491, "tags": {"amenity": "restaurant", "name": "Restaurant muti"}}, {"type": "node", "id": 595412840, "lat": 42.1909133, "lon": 20.6503595, "tags": {"amenity": "restaurant", "name": "Restaurant K\u00ebshtjella"}}, {"type": "node", "id": 595412841, "lat": 42.1954798, "lon": 20.6577769, "tags": {"amenity": "restaurant", "name": "Hotel Residence"}}, {"type": "node", "id": 595412842, "lat": 42.1985519, "lon": 20.6688273, "tags": {"amenity": "restaurant", "name": "Restaurant Moni"}}, {"type": "node", "id": 597370112, "lat": 42.2718669, "lon": 20.7857037, "tags": {"amenity": "restaurant", "name": "Motel Piknik", "tourism": "motel"}}, {"type": "node", "id": 699653185, "lat": 42.2128412, "lon": 20.7441841, "tags": {"amenity": "restaurant", "name": "Menzil"}}, {"type": "node", "id": 964729610, "lat": 42.0775248, "lon": 20.4173833, "tags": {"amenity": "cafe"}}, {"type": "node", "id": 975747777, "lat": 42.2092569, "lon": 20.7406663}, {"type": "node", "id": 975747780, "lat": 42.2092569, "lon": 20.7407244}, {"type": "node", "id": 975747781, "lat": 42.2092099, "lon": 20.7406554}, {"type": "node", "id": 975747783, "lat": 42.2092125, "lon": 20.7407226}, {"type": "node", "id": 1106860611, "lat": 42.2190145, "lon": 20.7364669, "tags": {"amenity": "restaurant"}}, {"type": "node", "id": 1106860612, "lat": 42.2150033, "lon": 20.7352775, "tags": {"amenity": "restaurant"}}, {"type": "node", "id": 1115815923, "lat": 42.0615462, "lon": 20.6499767, "tags": {"amenity": "restaurant", "name": "Saranda"}}, {"type": "node", "id": 1196429552, "lat": 42.2177495, "lon": 20.7383542, "tags": {"amenity": "restaurant", "name": "Pizzeria Furra \"ALTINA\""}}, {"type": "node", "id": 1575512000, "lat": 42.061718, "lon": 20.6507117, "tags": {"amenity": "cafe", "cuisine": "coffee_shop", "name": "MACHO club caffe", "website": "www.macho-sharr.com"}}, {"type": "node", "id": 1839585310, "lat": 42.0047691, "lon": 20.6264337}, {"type": "node", "id": 1953315340, "lat": 42.2215092, "lon": 20.7415226, "tags": {"amenity": "restaurant"}}, {"type": "node", "id": 2051037096, "lat": 42.211802, "lon": 20.7413455, "tags": {"addr:postcode": "20000", "addr:street": "Adem Jashari", "amenity": "restaurant", "cuisine": "regional", "name": "Sofra", "website": "http://www.facebook.com/restorantsofrapz?ref=stream"}}, {"type": "node", "id": 2051047132, "lat": 42.2176464, "lon": 20.7198664, "tags": {"amenity": "restaurant", "cuisine": "regional", "name": "Salloni dasmave Metropol"}}, {"type": "node", "id": 2051055154, "lat": 42.2209178, "lon": 20.7275332, "tags": {"amenity": "restaurant", "cuisine": "international", "name": "Restaurant SHARRI"}}, {"type": "node", "id": 2134272786, "lat": 42.1707254, "lon": 20.84678, "tags": {"amenity": "restaurant", "internet_access": "wlan", "name": "Restaurant Villa Park"}}, {"type": "node", "id": 2134272819, "lat": 42.1706677, "lon": 20.8486683, "tags": {"amenity": "restaurant", "name": "Restaurant Sht\u00ebpia e Bardh\u00eb", "name:de": "Restaurant Wei\u00dfes Haus", "name:en": "Restaurant White House"}}, {"type": "node", "id": 2300246952, "lat": 42.2102159, "lon": 20.7427593}, {"type": "node", "id": 2300246953, "lat": 42.2102883, "lon": 20.7426531}, {"type": "node", "id": 2300246954, "lat": 42.2103096, "lon": 20.7428759}, {"type": "node", "id": 2300246955, "lat": 42.2103821, "lon": 20.7427697}, {"type": "node", "id": 2385613273, "lat": 42.2103255, "lon": 20.7426993}, {"type": "node", "id": 2385630902, "lat": 42.2093462, "lon": 20.7494745, "tags": {"amenity": "cafe"}}, {"type": "node", "id": 2386152061, "lat": 42.2421243, "lon": 20.7528881}, {"type": "node", "id": 2386152062, "lat": 42.2423482, "lon": 20.7522592}, {"type": "node", "id": 2386152155, "lat": 42.2419171, "lon": 20.7527535}, {"type": "node", "id": 2386152442, "lat": 42.2421409, "lon": 20.7521246}, {"type": "node", "id": 2437246670, "lat": 42.1466539, "lon": 20.5289683}, {"type": "node", "id": 2437246673, "lat": 42.1465196, "lon": 20.5286661}, {"type": "node", "id": 2437246674, "lat": 42.1468472, "lon": 20.528812}, {"type": "node", "id": 2437246676, "lat": 42.1467129, "lon": 20.5285098}, {"type": "node", "id": 2621447826, "lat": 41.9738354, "lon": 20.4029867, "tags": {"amenity": "restaurant"}}, {"type": "node", "id": 2632955112, "lat": 42.0047691, "lon": 20.6263402}, {"type": "node", "id": 2632955113, "lat": 42.004649, "lon": 20.6264391}, {"type": "node", "id": 2632955114, "lat": 42.0046468, "lon": 20.6263453}, {"type": "node", "id": 2632955115, "lat": 42.0039466, "lon": 20.6266281}, {"type": "node", "id": 2632955116, "lat": 42.0040498, "lon": 20.6266332}, {"type": "node", "id": 2632955117, "lat": 42.0040532, "lon": 20.6265057}, {"type": "node", "id": 2632955118, "lat": 42.0039501, "lon": 20.6265006}, {"type": "node", "id": 2632974613, "lat": 42.0511646, "lon": 20.640207}, {"type": "node", "id": 2632974615, "lat": 42.0511838, "lon": 20.6403448}, {"type": "node", "id": 2632974619, "lat": 42.0510628, "lon": 20.6403755}, {"type": "node", "id": 2632974621, "lat": 42.0510435, "lon": 20.6402377}, {"type": "node", "id": 2836143233, "lat": 42.2088821, "lon": 20.7408761, "tags": {"amenity": "restaurant", "check_date": "2023-08-05", "name": "Besimi Beska", "outdoor_seating": "yes"}}, {"type": "node", "id": 2836143250, "lat": 42.2098998, "lon": 20.7432568, "tags": {"addr:floor": "G", "amenity": "restaurant", "check_date": "2023-06-30", "cuisine": "regional", "internet_access": "wlan", "internet_access:fee": "customers", "level": "0", "name": "Ambient", "payment:mastercard": "yes", "payment:visa": "yes", "phone": "+383 44 119 964", "website": "https://www.ambient-ks.com", "wheelchair": "limited"}}, {"type": "node", "id": 2892180939, "lat": 42.2151128, "lon": 20.7321958, "tags": {"amenity": "cafe", "name": "Karamel"}}, {"type": "node", "id": 2892181155, "lat": 42.2154908, "lon": 20.730745}, {"type": "node", "id": 2892181156, "lat": 42.2154093, "lon": 20.7313103}, {"type": "node", "id": 2892181157, "lat": 42.2152953, "lon": 20.7312803}, {"type": "node", "id": 2892181158, "lat": 42.2153769, "lon": 20.730715}, {"type": "node", "id": 3023451287, "lat": 42.3379322, "lon": 20.6423318, "tags": {"amenity": "cafe", "internet_access": "wlan", "name": "Caffeteria \"Mullini\""}}, {"type": "node", "id": 3027045822, "lat": 42.3189842, "lon": 20.6355469, "tags": {"amenity": "cafe"}}, {"type": "node", "id": 3027045825, "lat": 42.3204517, "lon": 20.6359018, "tags": {"amenity": "cafe"}}, {"type": "node", "id": 3027045826, "lat": 42.3217949, "lon": 20.6362287, "tags": {"amenity": "cafe"}}, {"type": "node", "id": 3028070801, "lat": 42.2555414, "lon": 20.6812481, "tags": {"amenity": "restaurant"}}, {"type": "node", "id": 3029217821, "lat": 42.261262, "lon": 20.6825463, "tags": {"amenity": "cafe", "cuisine": "grill", "internet_access": "wlan", "name": "Restaurant Noli", "opening_hours": "Mo-Su 08:00-23:00"}}, {"type": "node", "id": 3029779652, "lat": 42.2256847, "lon": 20.7204981, "tags": {"amenity": "cafe", "name": "Gjini"}}, {"type": "node", "id": 3042882683, "lat": 42.244266, "lon": 20.6973913, "tags": {"amenity": "restaurant", "name": "Lindi Com"}}, {"type": "node", "id": 3042895666, "lat": 42.3108727, "lon": 20.6399055, "tags": {"amenity": "restaurant", "name": "AH Dukagjini"}}, {"type": "node", "id": 3261364849, "lat": 42.0993114, "lon": 20.4195503}, {"type": "node", "id": 3261364850, "lat": 42.0993726, "lon": 20.4196402}, {"type": "node", "id": 3261364851, "lat": 42.0994198, "lon": 20.4194281}, {"type": "node", "id": 3261364852, "lat": 42.0994809, "lon": 20.4195343}, {"type": "node", "id": 3415676701, "lat": 42.3300613, "lon": 20.6043564, "tags": {"addr:street": "107", "amenity": "restaurant", "name": "JAZI", "name:en": "Jazi 2", "name:sq": "Jazi 2", "name:sr": "Jazi 2", "operator": "Besim Gashi"}}, {"type": "node", "id": 3551742487, "lat": 42.2877117, "lon": 20.514055, "tags": {"addr:housenumber": "148", "addr:street": "Kroi i Madh\u00eb", "alt_name": "Villa Kroni", "amenity": "restaurant", "cuisine": "regional", "name": "Restorant Kroni", "opening_hours": "06:00-23:00", "smoking": "yes", "takeaway": "no"}}, {"type": "node", "id": 3634265225, "lat": 42.3311509, "lon": 20.5403752, "tags": {"amenity": "restaurant", "name": "Restaurant P\u00ebrmaja"}}, {"type": "node", "id": 3659174636, "lat": 42.2142779, "lon": 20.7303674, "tags": {"amenity": "cafe"}}, {"type": "node", "id": 3659183589, "lat": 42.2086619, "lon": 20.7507648, "tags": {"amenity": "restaurant", "name": "Park Cafe"}}, {"type": "node", "id": 3671888433, "lat": 42.0113442, "lon": 20.8820185, "tags": {"amenity": "restaurant", "name": "\u041a\u043e\u043d\u0430\u043a"}}, {"type": "node", "id": 3842651834, "lat": 42.2094116, "lon": 20.7394746}, {"type": "node", "id": 3842651835, "lat": 42.2094047, "lon": 20.7396436}, {"type": "node", "id": 3842651836, "lat": 42.2092716, "lon": 20.7396289}, {"type": "node", "id": 3842651837, "lat": 42.2092805, "lon": 20.7394612}, {"type": "node", "id": 3842653150, "lat": 42.2093343, "lon": 20.7407203, "tags": {"amenity": "cafe", "name": "Corner"}}, {"type": "node", "id": 3921774262, "lat": 42.0138371, "lon": 20.8866832, "tags": {"amenity": "restaurant", "cuisine": "italian", "name": "casa leone"}}, {"type": "node", "id": 3922197802, "lat": 42.0109642, "lon": 20.9191431}, {"type": "node", "id": 3922197814, "lat": 42.0110751, "lon": 20.9192493}, {"type": "node", "id": 3922197817, "lat": 42.011086, "lon": 20.9189126}, {"type": "node", "id": 3922197842, "lat": 42.0111969, "lon": 20.9190188}, {"type": "node", "id": 3922197898, "lat": 42.0129999, "lon": 20.8865356}, {"type": "node", "id": 3922197901, "lat": 42.0130561, "lon": 20.8865976}, {"type": "node", "id": 3922197904, "lat": 42.0130663, "lon": 20.8864266}, {"type": "node", "id": 3922197906, "lat": 42.0131225, "lon": 20.8864887}, {"type": "node", "id": 3992584245, "lat": 42.0754753, "lon": 20.4048416, "tags": {"amenity": "restaurant"}}, {"type": "node", "id": 3998837971, "lat": 42.0759678, "lon": 20.4046561, "tags": {"amenity": "restaurant", "name": "Oru\u00e7i"}}, {"type": "node", "id": 4176513191, "lat": 42.2328418, "lon": 20.7107095}, {"type": "node", "id": 4176513192, "lat": 42.2325876, "lon": 20.7104251}, {"type": "node", "id": 4176513193, "lat": 42.2327941, "lon": 20.7100657}, {"type": "node", "id": 4176513194, "lat": 42.2329014, "lon": 20.7101998}, {"type": "node", "id": 4176513195, "lat": 42.2328656, "lon": 20.7102964}, {"type": "node", "id": 4176513197, "lat": 42.2329184, "lon": 20.7103757}, {"type": "node", "id": 4176513201, "lat": 42.2329959, "lon": 20.7104682}, {"type": "node", "id": 4178028054, "lat": 42.3168879, "lon": 20.6309157, "tags": {"amenity": "restaurant", "name": "Le Nar 2 pizzeria", "name:sq": "Le Nar 2 pizzeria"}}, {"type": "node", "id": 4178044390, "lat": 42.2146229, "lon": 20.7288816, "tags": {"amenity": "cafe"}}, {"type": "node", "id": 4178044391, "lat": 42.2145554, "lon": 20.7288923, "tags": {"amenity": "restaurant"}}, {"type": "node", "id": 4178048706, "lat": 42.2133198, "lon": 20.7310618, "tags": {"amenity": "cafe", "name": "Oferta Kitchen"}}, {"type": "node", "id": 4178048707, "lat": 42.2132006, "lon": 20.7310993, "tags": {"amenity": "restaurant", "cuisine": "cake;coffee_shop;tea", "name": "Beskidy"}}, {"type": "node", "id": 4228113090, "lat": 42.1774575, "lon": 20.6910452, "tags": {"amenity": "cafe", "name": "Pavin Caffe"}}, {"type": "node", "id": 4234437054, "lat": 42.208461, "lon": 20.7443003, "tags": {"amenity": "restaurant", "cuisine": "local", "name": "Hotel & Restaurant Trimi Adventure"}}, {"type": "node", "id": 4256239790, "lat": 42.2201962, "lon": 20.7324821, "tags": {"amenity": "restaurant", "internet_access": "wlan", "name": "Eja"}}, {"type": "node", "id": 4256263790, "lat": 42.2202236, "lon": 20.7328602, "tags": {"amenity": "cafe", "internet_access": "wlan", "name": "Kaisi coffee bar"}}, {"type": "node", "id": 4267713191, "lat": 42.3044723, "lon": 20.9131022, "tags": {"amenity": "restaurant"}}, {"type": "node", "id": 4287373822, "lat": 42.292631, "lon": 20.796561, "tags": {"amenity": "restaurant"}}, {"type": "node", "id": 4287376621, "lat": 42.298659, "lon": 20.797259}, {"type": "node", "id": 4287376622, "lat": 42.2985109, "lon": 20.7973182}, {"type": "node", "id": 4287376623, "lat": 42.2984756, "lon": 20.7971568}, {"type": "node", "id": 4287381537, "lat": 42.3322827, "lon": 20.5873643, "tags": {"amenity": "restaurant"}}, {"type": "node", "id": 4298036379, "lat": 42.216132, "lon": 20.7335006, "tags": {"addr:street": "Jusuf Gervalla", "amenity": "restaurant", "cuisine": "balkan", "internet_access": "wlan", "name": "Aurora"}}, {"type": "node", "id": 4298036380, "lat": 42.2158638, "lon": 20.733058, "tags": {"amenity": "cafe"}}, {"type": "node", "id": 4298042305, "lat": 42.2172947, "lon": 20.7252179, "tags": {"amenity": "restaurant"}}, {"type": "node", "id": 4298055529, "lat": 42.2029998, "lon": 20.7002113, "tags": {"amenity": "restaurant"}}, {"type": "node", "id": 4321342194, "lat": 42.2206747, "lon": 20.730769, "tags": {"amenity": "restaurant", "name": "Pizzeria Enigma"}}, {"type": "node", "id": 4378886603, "lat": 42.1978989, "lon": 20.4125466, "tags": {"amenity": "restaurant", "name": "Jupa"}}, {"type": "node", "id": 4378886604, "lat": 42.2055178, "lon": 20.407787, "tags": {"amenity": "restaurant", "cuisine": "chicken", "internet_access": "wlan", "name": "Jupa-2", "opening_hours": "Mo-Su 06:00-22:00", "outdoor_seating": "yes", "owner": "Shyt Jupa", "phone": "+355 69 31 76 050;+355 69 42 38 757"}}, {"type": "node", "id": 4380609373, "lat": 42.0768945, "lon": 20.4176195, "tags": {"amenity": "restaurant", "internet_access": "wlan", "name": "Amerika"}}, {"type": "node", "id": 4380610793, "lat": 42.0781827, "lon": 20.4166101, "tags": {"amenity": "cafe"}}, {"type": "node", "id": 4416246795, "lat": 42.2093809, "lon": 20.7393765, "tags": {"amenity": "cafe", "check_date": "2023-10-11", "name": "Prince Caf\u00e9"}}, {"type": "node", "id": 4416462289, "lat": 42.2100755, "lon": 20.7305677, "tags": {"addr:street": "William Walker", "amenity": "restaurant", "internet_access": "wlan", "name": "Esler Qebaptore", "name:sq": "Esler Qebaptore", "opening_hours": "Mo-Sa 07:00-24:00", "phone": "+38345932833"}}, {"type": "node", "id": 4424646491, "lat": 42.2156852, "lon": 20.7371256, "tags": {"amenity": "cafe", "internet_access": "wlan", "name": "cream", "name:sq": "cream", "opening_hours": "24/7"}}, {"type": "node", "id": 4427251594, "lat": 42.0740633, "lon": 20.4165654, "tags": {"amenity": "restaurant", "internet_access": "yes", "name": "Lugina e Drinit", "opening_hours": "00:00-24:00"}}, {"type": "node", "id": 4452977291, "lat": 42.0540884, "lon": 20.6931359, "tags": {"amenity": "cafe", "internet_access": "wlan", "name": "Pele", "name:sr": "Pele"}}, {"type": "node", "id": 4453039789, "lat": 42.0544368, "lon": 20.6943305, "tags": {"amenity": "restaurant", "internet_access": "wlan", "name": "Kitka", "name:sr": "\u041a\u0438\u0442\u043a\u0430"}}, {"type": "node", "id": 4502450789, "lat": 41.9444009, "lon": 20.9272881, "tags": {"addr:postcode": "1221", "addr:street": "101", "amenity": "restaurant", "name": "Restoran Elita", "name:en": "Restaurant Elita", "name:mk": "Restoran Elita", "name:sq": "Restoranti Elita"}}, {"type": "node", "id": 4502456690, "lat": 41.9405207, "lon": 20.9268824, "tags": {"addr:postcode": "1221", "addr:street": "101", "amenity": "cafe", "name": "Cine 501", "name:en": "Cine 501", "name:mk": "Cine 501", "name:sq": "Cine 501"}}, {"type": "node", "id": 4502463689, "lat": 41.9403239, "lon": 20.9267987, "tags": {"addr:postcode": "1221", "addr:street": "101", "amenity": "cafe", "name": "Sharr 71", "name:en": "Sharr 71", "name:mk": "Sharr 71", "name:sq": "Sharr 71"}}, {"type": "node", "id": 4502488291, "lat": 41.9427811, "lon": 20.9277266, "tags": {"amenity": "cafe", "name": "Mujo", "name:en": "Mujo", "name:mk": "Mujo", "name:sq": "Mujo"}}, {"type": "node", "id": 4506039993, "lat": 42.2171521, "lon": 20.7433474, "tags": {"amenity": "restaurant", "name": "Bahtijar Plus", "name:sq": "Bahtijar Plus"}}, {"type": "node", "id": 4511995189, "lat": 42.2099106, "lon": 20.7383936, "tags": {"amenity": "cafe", "bar": "yes", "check_date": "2023-06-29", "cuisine": "pizza;sandwich;burger;italian;mexican;chicken;american", "name": "Fellas Coffee", "name:tr": "Fellas Kafe", "outdoor_seating": "yes", "payment:mastercard": "yes", "payment:visa": "yes", "smoking": "outside", "source": "survey", "takeaway": "yes", "toilets": "yes", "wheelchair": "yes"}}, {"type": "node", "id": 4668721462, "lat": 42.2089492, "lon": 20.7398002, "tags": {"amenity": "cafe", "check_date": "2023-10-12", "name": "X-Bar", "toilets:wheelchair": "no", "wheelchair": "limited"}}, {"type": "node", "id": 4668721463, "lat": 42.2090566, "lon": 20.7395911, "tags": {"amenity": "cafe", "name": "Corner"}}, {"type": "node", "id": 4674376918, "lat": 42.2037179, "lon": 20.7278577, "tags": {"amenity": "cafe"}}, {"type": "node", "id": 4674376929, "lat": 42.2061725, "lon": 20.7332819, "tags": {"amenity": "restaurant"}}, {"type": "node", "id": 4676232613, "lat": 42.2069762, "lon": 20.7246151, "tags": {"amenity": "cafe"}}, {"type": "node", "id": 4677149328, "lat": 42.3175203, "lon": 20.6298755, "tags": {"amenity": "restaurant", "name": "Restaurant Le-Nar"}}, {"type": "node", "id": 4692190471, "lat": 42.0615254, "lon": 20.6509902, "tags": {"amenity": "restaurant", "name": "Shpella"}}, {"type": "node", "id": 4692190473, "lat": 42.0617861, "lon": 20.6535473, "tags": {"amenity": "cafe", "name": "Valerie"}}, {"type": "node", "id": 4696170489, "lat": 42.2107494, "lon": 20.7413405, "tags": {"amenity": "cafe", "name": "Cafe Udinese", "name:sq": "koha"}}, {"type": "node", "id": 4724820290, "lat": 41.923353, "lon": 20.9163058, "tags": {"addr:postcode": "1220", "addr:street": "102", "amenity": "cafe", "internet_access": "wlan", "name:en": "Passage", "name:sq": "Pasazh", "opening_hours": "Mo-Su 05:30-00:00"}}, {"type": "node", "id": 4749359079, "lat": 42.2091011, "lon": 20.7408111, "tags": {"amenity": "restaurant", "check_date": "2023-10-12", "name": "Centimetri"}}, {"type": "node", "id": 4750359316, "lat": 42.2163058, "lon": 20.7428037, "tags": {"amenity": "restaurant"}}, {"type": "node", "id": 4758072437, "lat": 42.2090721, "lon": 20.7408182, "tags": {"addr:street": "Sheshi Shadervanit", "amenity": "restaurant", "check_date": "2023-10-12", "name": "Piceria Centimetri", "name:sq": "Piceria Centimetri", "opening_hours": "Mo-Su 09:00-00:00", "phone": "+38344466662"}}, {"type": "node", "id": 4762055921, "lat": 42.0757901, "lon": 20.4220474, "tags": {"amenity": "restaurant", "name": "zeneli001", "name:sq": "zeneli001"}}, {"type": "node", "id": 4818600528, "lat": 42.2262724, "lon": 20.7214211, "tags": {"addr:housenumber": "275", "addr:postcode": "20000", "addr:street": "Gani Saramati", "amenity": "cafe", "internet_access": "wlan", "name": "Troy Byty\u00e7i", "name:sq": "Troy Byty\u00e7i"}}, {"type": "node", "id": 4818681702, "lat": 42.2158197, "lon": 20.7384876, "tags": {"amenity": "cafe", "name": "Street Cafe"}}, {"type": "node", "id": 4823120136, "lat": 42.0999582, "lon": 20.7144697, "tags": {"amenity": "cafe"}}, {"type": "node", "id": 4881632022, "lat": 42.2180349, "lon": 20.7312377, "tags": {"addr:street": "Brigada 125", "amenity": "cafe", "name": "Pasti\u00e7eria MEKA", "name:en": "Pastry Shop MEKA", "name:sq": "Pasti\u00e7eria MEKA"}}, {"type": "node", "id": 4885663742, "lat": 42.207118, "lon": 20.7542113, "tags": {"amenity": "restaurant", "name": "Restaurant Natyra", "opening_hours": "Mo-Su 07:00-23:00"}}, {"type": "node", "id": 4927233921, "lat": 42.1769455, "lon": 20.8102534, "tags": {"amenity": "restaurant", "name": "Fuad AS", "name:en": "Fuad AS", "name:sq": "Fuad AS", "name:sr": "Fuad AS"}}, {"type": "node", "id": 4951274386, "lat": 42.2942705, "lon": 20.8014536, "tags": {"amenity": "restaurant", "name": "Electroni"}}, {"type": "node", "id": 4951274444, "lat": 42.33296, "lon": 20.8916093, "tags": {"amenity": "restaurant", "cuisine": "pizza", "name": "V. Loshi"}}, {"type": "node", "id": 4952365521, "lat": 42.207005, "lon": 20.7166653, "tags": {"amenity": "cafe", "name": "lulebora", "name:sq": "lulebora"}}, {"type": "node", "id": 4955479885, "lat": 42.3416946, "lon": 20.5749035, "tags": {"amenity": "restaurant", "internet_access": "wlan", "name": "Kosova-2"}}, {"type": "node", "id": 4958728753, "lat": 42.3232693, "lon": 20.5077812, "tags": {"amenity": "restaurant", "name": "Lendina"}}, {"type": "node", "id": 4973679060, "lat": 42.1223201, "lon": 20.5141263, "tags": {"amenity": "restaurant"}}, {"type": "node", "id": 4973679087, "lat": 42.1190752, "lon": 20.5096377, "tags": {"amenity": "restaurant"}}, {"type": "node", "id": 4975895821, "lat": 42.1086709, "lon": 20.7248532, "tags": {"addr:postcode": "22050", "amenity": "cafe", "internet_access": "wlan", "internet_access:ssid": "IMBISS", "name": "Imbiss", "opening_hours": "Mo-Su 08:00-22:00", "phone": "+38344388980"}}, {"type": "node", "id": 4978907623, "lat": 42.2177864, "lon": 20.7324843, "tags": {"amenity": "restaurant", "name": "Restauranti Otro", "name:sq": "Restauranti Otro"}}, {"type": "node", "id": 5010918895, "lat": 42.1721676, "lon": 20.8253404, "tags": {"amenity": "restaurant", "name": "Restaurant Marlboro"}}, {"type": "node", "id": 5016841523, "lat": 42.1078701, "lon": 20.7261569, "tags": {"amenity": "cafe", "internet_access": "wlan", "name": "Albini", "opening_hours": "Mo-Su 06:00-00:00"}}, {"type": "node", "id": 5025187878, "lat": 42.170771, "lon": 20.8500571, "tags": {"amenity": "restaurant", "name": "Finlandia"}}, {"type": "node", "id": 5050412257, "lat": 42.2643736, "lon": 20.6777814, "tags": {"amenity": "restaurant"}}, {"type": "node", "id": 5059862022, "lat": 42.2098678, "lon": 20.7404801, "tags": {"amenity": "cafe", "check_date": "2023-08-05", "level": "0", "name": "Udinese Caff\u00ea", "outdoor_seating": "yes", "payment:cash": "yes"}}, {"type": "node", "id": 5097095941, "lat": 42.1634127, "lon": 20.7936666, "tags": {"amenity": "restaurant", "name": "Etno Selo \"JASIKA\"", "name:sr": "\u0415\u0442\u043d\u043e \u0441\u0435\u043b\u043e \"\u0408\u0430\u0441\u0438\u043a\u0430\""}}, {"type": "node", "id": 5097095942, "lat": 42.1654469, "lon": 20.7596239, "tags": {"amenity": "restaurant", "internet_access": "wlan", "name": "Restaurant Bjeshka", "name:sr": "\u0420\u0435\u0441\u0442\u043e\u0440\u0430\u043d \u0411\u0458\u0435\u0448\u043a\u0430", "opening_hours": "Mo-Su 08:00-18:00"}}, {"type": "node", "id": 5128079279, "lat": 42.2510391, "lon": 20.7069841, "tags": {"amenity": "restaurant", "name": "Restaurant KAG Oil"}}, {"type": "node", "id": 5168953721, "lat": 42.2192199, "lon": 20.7303008, "tags": {"addr:street": "Brigada 125", "amenity": "cafe", "internet_access": "wlan", "name": "Caffe Bar \u201cChill\u201d"}}, {"type": "node", "id": 5180375009, "lat": 42.1189112, "lon": 20.7284486, "tags": {"addr:postcode": "22050", "amenity": "restaurant", "name": "Dilli", "opening_hours": "Mo-Su 08:00-22:00"}}, {"type": "node", "id": 5208306940, "lat": 42.2081675, "lon": 20.7393081, "tags": {"amenity": "cafe", "internet_access": "wlan", "internet_access:fee": "no", "name": "Kafja Jeme", "opening_hours": "Mo-Su 09:00-01:00", "operator": "Albert", "outdoor_seating": "yes", "payment:cash": "yes", "payment:coins": "yes", "payment:credit_cards": "no", "payment:cryptocurrencies": "no", "payment:debit_cards": "no", "payment:electronic_purses": "no", "payment:notes": "yes", "smoking": "outside"}}, {"type": "node", "id": 5212715921, "lat": 42.1337952, "lon": 20.8070617, "tags": {"addr:street": "Dom", "amenity": "restaurant", "internet_access": "wlan", "name": "Caffe Nedo", "opening_hours": "24/7"}}, {"type": "node", "id": 5237654327, "lat": 42.1962806, "lon": 20.6630646, "tags": {"addr:postcode": "20520", "addr:street": "prizren Vlashnje", "amenity": "cafe", "name": "Te Balia", "opening_hours": "24/7", "phone": "+38344777494"}}, {"type": "node", "id": 5328250421, "lat": 42.2155977, "lon": 20.736649, "tags": {"addr:street": "Zahir Pajaziti", "amenity": "cafe", "name": "Khave Madeni"}}, {"type": "node", "id": 5333387721, "lat": 42.2200978, "lon": 20.7331886, "tags": {"addr:street": "Faik Konica", "amenity": "restaurant", "internet_access": "wlan", "name": "Restaurant \u201cArta\u201d"}}, {"type": "node", "id": 5405188271, "lat": 42.2315184, "lon": 20.7134457}, {"type": "node", "id": 5405188272, "lat": 42.2313927, "lon": 20.7132734}, {"type": "node", "id": 5405188273, "lat": 42.231488, "lon": 20.7131483}, {"type": "node", "id": 5405188274, "lat": 42.231609, "lon": 20.7133272}, {"type": "node", "id": 5405188281, "lat": 42.2314143, "lon": 20.7133021}, {"type": "node", "id": 5419790101, "lat": 41.9520601, "lon": 20.7080883, "tags": {"amenity": "restaurant"}}, {"type": "node", "id": 5434950056, "lat": 42.0912408, "lon": 20.6130027, "tags": {"addr:street": "Kuacevci", "amenity": "cafe", "name": "Bacevec", "opening_hours": "Mo-Su 08:00-23:00"}}, {"type": "node", "id": 5481338321, "lat": 42.3264164, "lon": 20.5814844, "tags": {"addr:street": "Te shelqja", "amenity": "cafe", "internet_access": "wlan", "name": "Sokol Godeni", "name:sq": "Te shelqja"}}, {"type": "node", "id": 5518914828, "lat": 42.2119612, "lon": 20.745869, "tags": {"amenity": "restaurant", "name": "Marashi"}}, {"type": "node", "id": 5543688121, "lat": 41.9443275, "lon": 20.6685397, "tags": {"addr:street": "strecelo (sredselo)", "amenity": "cafe", "cuisine": "balkan;coffee_shop;local;ice_cream;tea;sandwich;hotdog", "internet_access": "wlan", "name": "poslasti\u010dara", "name:it": "pasticeria(numerose)", "name:sq": "ambetore", "opening_hours": "Mo-Su 07:00-23:00"}}, {"type": "node", "id": 5543740921, "lat": 41.943672, "lon": 20.6693539, "tags": {"addr:street": "jedrija\u010d", "amenity": "cafe", "cuisine": "coffee_shop;breakfast;balkan;tea;cake;turkish", "internet_access": "wlan", "name": "ambeltore", "name:it": "pasticeria Mladost", "name:mk": "\u0421\u043b\u0430\u0442\u043a\u0430\u0440\u043d\u0438\u0446\u0430 \u201e\u041c\u043b\u0430\u0434\u043e\u0441\u0442\u201c", "name:sr": "poslasti\u010dara", "opening_hours": "Mo-Su 06:00-21:00"}}, {"type": "node", "id": 5653874921, "lat": 42.20892, "lon": 20.7408392, "tags": {"amenity": "restaurant", "name": "EGO"}}, {"type": "node", "id": 5657183421, "lat": 42.2086908, "lon": 20.7419436, "tags": {"amenity": "cafe", "internet_access": "wlan", "name": "Konaku", "opening_hours": "Mo-Su 08:00-23:00"}}, {"type": "node", "id": 5726418935, "lat": 42.2094193, "lon": 20.7393139, "tags": {"amenity": "restaurant", "check_date": "2023-10-11", "name": "Tomos"}}, {"type": "node", "id": 5732642226, "lat": 42.2013393, "lon": 20.6955358, "tags": {"addr:housenumber": "044254842", "addr:street": "Tahir Sinani", "amenity": "restaurant", "internet_access": "wlan", "name": "Restaurant Durimi", "opening_hours": "24/7", "phone": "+38344254842"}}, {"type": "node", "id": 5833989959, "lat": 42.248015, "lon": 20.7209844, "tags": {"amenity": "restaurant", "name": "Arb\u00ebria Petrol"}}, {"type": "node", "id": 5860547685, "lat": 42.2226128, "lon": 20.7247455, "tags": {"amenity": "restaurant", "name": "Halimi"}}, {"type": "node", "id": 5917177985, "lat": 42.3264099, "lon": 20.5813418, "tags": {"addr:postcode": "50550", "addr:street": "Sokol Godeni", "amenity": "cafe", "cuisine": "coffee_shop", "email": "ylber2@hotmail.com", "internet_access": "wlan", "name": "Te Shelqja", "name:sq": "TeShelqja", "opening_hours": "Mo-Su 06:00-06:00, 23:00-23:00", "phone": "+38349691617"}}, {"type": "node", "id": 5951617747, "lat": 42.1732642, "lon": 20.8740318, "tags": {"addr:city": "prizren", "addr:housenumber": "10", "addr:postcode": "20000", "addr:street": "Novi Pazar", "air_conditioning": "yes", "amenity": "restaurant", "bar": "yes", "capacity": "150", "cuisine": "regional;pizza;burger", "internet_access": "wlan", "name": "Restaurant Bujtina Freskia", "opening_hours": "24/7", "phone": "+38345530402", "website": "https://www.facebook.com/restorantfreskia"}}, {"type": "node", "id": 5958031885, "lat": 42.2079038, "lon": 20.7391212, "tags": {"amenity": "restaurant", "internet_access": "wlan", "name": "Cigk\u00f6fte Evi", "name:sq": "cigk\u00f6fte evi"}}, {"type": "node", "id": 6050919146, "lat": 42.2149048, "lon": 20.7417541, "tags": {"amenity": "restaurant", "cuisine": "Burek;flija;Mantija;krlan;Tradicionalfood", "delivery": "yes", "name": "Sa\u00e7 Burek", "smoking": "no"}}, {"type": "node", "id": 6062752595, "lat": 42.0755372, "lon": 20.4237317, "tags": {"amenity": "restaurant", "cuisine": "balkan;local;coffee_shop;pizza", "internet_access": "wlan", "name": "Xhamlliku", "opening_hours": "Mo-Su 06:00-22:00"}}, {"type": "node", "id": 6160115004, "lat": 42.1060289, "lon": 20.4089435}, {"type": "node", "id": 6160115005, "lat": 42.1060567, "lon": 20.4091151}, {"type": "node", "id": 6160115006, "lat": 42.1059441, "lon": 20.4091483}, {"type": "node", "id": 6160115007, "lat": 42.1059162, "lon": 20.4089767}, {"type": "node", "id": 6238011261, "lat": 42.3306143, "lon": 20.7254812, "tags": {"addr:city": "Mamu\u015fa - Mamush\u00eb", "addr:housenumber": "25", "addr:postcode": "20540", "addr:street": "Cumhuri\u0307yet", "amenity": "restaurant", "cuisine": "turkish", "name": "Gen\u00e7 Osman K\u00f6fteci", "opening_hours": "24/7", "outdoor_seating": "yes"}}, {"type": "node", "id": 6280460193, "lat": 42.2266632, "lon": 20.7533835, "tags": {"addr:city": "PRIZREN", "addr:postcode": "20000", "addr:street": "Uk\u00eb Bytyqi", "amenity": "restaurant", "cuisine": "regional;pizza;coffee_shop;sandwich;international", "fixme": "Children playground = Soon", "internet_access": "wifi", "name": "PONTE COFFEE AND MORE - DARDANIA", "opening_hours": "Mo-Su 09:00-02:00", "outdoor_seating": "yes"}}, {"type": "node", "id": 6309116385, "lat": 42.2176442, "lon": 20.7332296, "tags": {"amenity": "cafe", "internet_access": "wlan", "name": "Qajtore Ardhm\u00ebria", "name:sq": "\u00c7ajtore", "opening_hours": "24/7"}}, {"type": "node", "id": 6422526792, "lat": 42.2079751, "lon": 20.739563, "tags": {"amenity": "restaurant", "name": "Tiffany national restaurant"}}, {"type": "node", "id": 6422527096, "lat": 42.2092335, "lon": 20.7406871, "tags": {"amenity": "restaurant", "check_date": "2023-06-30", "name": "Hyska Grill house"}}, {"type": "node", "id": 6431811129, "lat": 42.2174397, "lon": 20.7436984, "tags": {"amenity": "cafe", "check_date": "2023-07-01", "cuisine": "italian", "name": "Ada", "wheelchair": "limited"}}, {"type": "node", "id": 6582138585, "lat": 42.2091849, "lon": 20.7402881, "tags": {"amenity": "cafe", "check_date": "2023-06-25", "cuisine": "pizza;burger;regional;cake;sandwich;coffee_shop;ice_cream;local", "internet_access": "wlan", "name": "Gatsby", "outdoor_seating": "yes", "wheelchair": "yes"}}, {"type": "node", "id": 6652179887, "lat": 42.2482238, "lon": 20.7168947, "tags": {"amenity": "restaurant", "name": "Restaurant Nafron"}}, {"type": "node", "id": 6652185787, "lat": 42.3396318, "lon": 20.8151847, "tags": {"amenity": "restaurant", "name": "restaurant Lion"}}, {"type": "node", "id": 6652185886, "lat": 42.2612128, "lon": 20.778455, "tags": {"amenity": "restaurant", "name": "restaurant Albes Complex"}}, {"type": "node", "id": 6661462785, "lat": 42.2960442, "lon": 20.7999737}, {"type": "node", "id": 6684957486, "lat": 42.259328, "lon": 20.7771109, "tags": {"amenity": "restaurant", "name": "Blerta"}}, {"type": "node", "id": 6687779486, "lat": 42.1053447, "lon": 20.6511881, "tags": {"amenity": "restaurant", "internet_access": "wlan", "name": "La Ruota", "opening_hours": "Mo-Su 08:00-22:00"}}, {"type": "node", "id": 6698843185, "lat": 42.3364643, "lon": 20.8124995, "tags": {"amenity": "restaurant", "name": "Lami palace"}}, {"type": "node", "id": 6716059986, "lat": 42.1089874, "lon": 20.6626416, "tags": {"amenity": "restaurant", "name": "Dasma"}}, {"type": "node", "id": 6739930186, "lat": 42.233382, "lon": 20.7283277, "tags": {"addr:postcode": "20000", "addr:street": "Enver Hadri", "amenity": "restaurant", "cuisine": "pizza", "name": "ProperPizza", "phone": "+38344803090", "website": "https://www.properpizza.com/"}}, {"type": "node", "id": 6804938782, "lat": 42.216136, "lon": 20.7249814, "tags": {"amenity": "cafe", "name": "Cioccolatitaliani"}}, {"type": "node", "id": 6804938783, "lat": 42.2166479, "lon": 20.7234732, "tags": {"amenity": "restaurant", "name": "Te Halimi"}}, {"type": "node", "id": 6804938784, "lat": 42.2158921, "lon": 20.7246521, "tags": {"amenity": "restaurant", "cuisine": "fish", "name": "Fish House"}}, {"type": "node", "id": 6815041379, "lat": 42.2960676, "lon": 20.8002555}, {"type": "node", "id": 6815041380, "lat": 42.2958724, "lon": 20.8002851}, {"type": "node", "id": 6815041381, "lat": 42.2958489, "lon": 20.8000034}, {"type": "node", "id": 6837771591, "lat": 42.1794001, "lon": 20.6717341, "tags": {"amenity": "cafe", "name": "Poslishti Cafe"}}, {"type": "node", "id": 6863182503, "lat": 42.2174229, "lon": 20.750584}, {"type": "node", "id": 6863182504, "lat": 42.2176995, "lon": 20.7507675}, {"type": "node", "id": 6863182505, "lat": 42.217615, "lon": 20.7509999}, {"type": "node", "id": 6863182506, "lat": 42.2173267, "lon": 20.7508087}, {"type": "node", "id": 6863182507, "lat": 42.2172797, "lon": 20.7507775}, {"type": "node", "id": 6863182508, "lat": 42.2173057, "lon": 20.7507062}, {"type": "node", "id": 6863182509, "lat": 42.2173643, "lon": 20.7507451}, {"type": "node", "id": 6863614085, "lat": 42.2143337, "lon": 20.7373867, "tags": {"addr:postcode": "20000", "addr:street": "Sylejman Rrotlla", "amenity": "cafe", "cuisine": "italian_pizza;chicken;pizza;burger;diner;sandwich;coffee_shop;grill;ice_cream;balkan", "email": "hasipz@hotmail.com", "name": "Lori 2", "name:sq": "Restauran Pizzeria Te Lori 2", "opening_hours": "Mo-Su 06:00-01:00", "phone": "+38344373797"}}, {"type": "node", "id": 6918941998, "lat": 42.2253795, "lon": 20.7415278, "tags": {"addr:postcode": "20000", "addr:street": "Leka i Madh", "amenity": "restaurant", "name": "Caffe Gimi", "opening_hours": "Mo-Su 18:00-00:00"}}, {"type": "node", "id": 6920295199, "lat": 42.21052, "lon": 20.7428439, "tags": {"amenity": "cafe", "check_date": "2023-06-30", "name": "City Lounge", "wheelchair": "limited"}}, {"type": "node", "id": 6920295203, "lat": 42.2095565, "lon": 20.7425983, "tags": {"addr:housenumber": "36", "addr:street": "Vatrat Shqiptare", "amenity": "cafe", "check_date": "2023-06-30", "cuisine": "pizza", "internet_access": "wlan", "internet_access:fee": "customers", "level": "0", "name": "Quattro", "outdoor_seating": "yes", "payment:cards": "no", "payment:credit_cards": "no", "payment:debit_cards": "no", "wheelchair": "limited"}}, {"type": "node", "id": 6920295205, "lat": 42.2109851, "lon": 20.7434612, "tags": {"amenity": "cafe", "check_date": "2023-06-30", "internet_access": "wlan", "internet_access:fee": "customers", "name": "Te Tali", "outdoor_seating": "yes", "payment:cards": "no", "payment:credit_cards": "no", "payment:debit_cards": "no", "wheelchair": "yes"}}, {"type": "node", "id": 6920295206, "lat": 42.2091373, "lon": 20.7410605, "tags": {"amenity": "restaurant", "check_date": "2023-07-02", "cuisine": "turkish", "name": "Konak", "name:sq": "Konak"}}, {"type": "node", "id": 6924225867, "lat": 42.2252943, "lon": 20.7525835, "tags": {"amenity": "cafe"}}, {"type": "node", "id": 6928108338, "lat": 42.2105034, "lon": 20.7405862, "tags": {"amenity": "restaurant", "cuisine": "pizza"}}, {"type": "node", "id": 6928108342, "lat": 42.2100628, "lon": 20.7407042, "tags": {"amenity": "restaurant", "check_date": "2023-08-05", "cuisine": "burger;regional", "level": "0", "name": "Yes. Please", "opening_hours": "07:00-24:00", "outdoor_seating": "yes", "wheelchair": "yes"}}, {"type": "node", "id": 6936816825, "lat": 42.2169139, "lon": 20.7270783, "tags": {"amenity": "cafe"}}, {"type": "node", "id": 6997196637, "lat": 42.2334196, "lon": 20.7388505, "tags": {"amenity": "restaurant", "name": "Classic", "smoking": "yes"}}, {"type": "node", "id": 7006354219, "lat": 42.3313888, "lon": 20.5800242, "tags": {"addr:city": "Rogov\u00eb", "addr:postcode": "50550", "addr:street": "Haxhi Hoti", "amenity": "cafe", "cuisine": "coffee_shop", "internet_access": "yes", "name": "CAFFETERIA'EXPRESSO'"}}, {"type": "node", "id": 7046355422, "lat": 42.2150356, "lon": 20.7245667, "tags": {"amenity": "restaurant", "name": "Sarajeva Grill"}}, {"type": "node", "id": 7046355423, "lat": 42.2149541, "lon": 20.7244648, "tags": {"amenity": "restaurant", "name": "Koha"}}, {"type": "node", "id": 7046355429, "lat": 42.2150197, "lon": 20.7243897, "tags": {"amenity": "restaurant", "cuisine": "pizza", "name": "Sach Pizza"}}, {"type": "node", "id": 7136758810, "lat": 42.331628, "lon": 20.5774195, "tags": {"addr:housenumber": "22", "addr:postcode": "50550", "addr:street": "Besim Berisha", "amenity": "cafe", "internet_access": "wlan", "name": "Kafeteria \"Morina\"", "name:en": "Caffeteria \"Morina\"", "opening_hours": "Mo-Su 07:00-00:00", "operator": "Selamet Morina", "phone": "+38344301241"}}, {"type": "node", "id": 7343354560, "lat": 42.2889978, "lon": 20.5170287, "tags": {"addr:housenumber": "122", "addr:street": "Kroi i Madh\u00eb", "amenity": "restaurant", "name": "Restaurant \"Gurra\""}}, {"type": "node", "id": 7343432055, "lat": 42.2986237, "lon": 20.7970976}, {"type": "node", "id": 7677251785, "lat": 42.2163094, "lon": 20.7239477, "tags": {"addr:postcode": "20000", "addr:street": "Abi Qarshia", "amenity": "cafe", "internet_access": "wlan", "name": "Cafe du Passage"}}, {"type": "node", "id": 7677259885, "lat": 42.21623, "lon": 20.7235257, "tags": {"addr:postcode": "20000", "addr:street": "Abi Qarshia", "amenity": "cafe", "internet_access": "wlan", "name": "Ponte lounge"}}, {"type": "node", "id": 7875136670, "lat": 42.1746132, "lon": 20.8149299, "tags": {"amenity": "cafe", "cuisine": "coffee_shop;pizza;tea", "name": "Adrijano", "opening_hours": "Mo-Su 08:00-23:00"}}, {"type": "node", "id": 7881055785, "lat": 42.2219057, "lon": 20.7416351, "tags": {"addr:postcode": "20000", "addr:street": "Bekim Muhaxheri", "amenity": "cafe", "internet_access": "wlan", "name": "Coffe \"Doku te Uki\"", "name:en": "Te Uki Coffe and more bypondy", "name:sq": "Te Uki Coffe and more bypondy", "name:sr": "Te Uki Coffe and more bypondy", "opening_hours": "Mo-Su 06:30-21:30"}}, {"type": "node", "id": 7923029885, "lat": 42.2174301, "lon": 20.743276, "tags": {"addr:postcode": "20000", "addr:street": "Ahmet Prishtina", "amenity": "restaurant", "cuisine": "chicken;kebab;pizza;sandwich", "internet_access": "wlan", "name": "Pizzeria Linda", "opening_hours": "24/7"}}, {"type": "node", "id": 7923029985, "lat": 42.2184664, "lon": 20.7425304, "tags": {"addr:street": "Xhev\u00eb Lladrovci", "amenity": "cafe", "internet_access": "wlan", "name": "Taverna Jon\u00eb", "opening_hours": "Mo-Su 07:00-23:00"}}, {"type": "node", "id": 7998884311, "lat": 42.1255101, "lon": 20.7785747}, {"type": "node", "id": 7998884312, "lat": 42.1253977, "lon": 20.77851}, {"type": "node", "id": 7998884313, "lat": 42.1254921, "lon": 20.7782116}, {"type": "node", "id": 7998884314, "lat": 42.1256046, "lon": 20.7782763}, {"type": "node", "id": 7998884315, "lat": 42.1232308, "lon": 20.7888473}, {"type": "node", "id": 7998884316, "lat": 42.1231911, "lon": 20.7886441}, {"type": "node", "id": 7998884317, "lat": 42.1229912, "lon": 20.7887151}, {"type": "node", "id": 7998884318, "lat": 42.1230309, "lon": 20.7889183}, {"type": "node", "id": 8075342117, "lat": 42.2051618, "lon": 20.755675, "tags": {"amenity": "cafe"}}, {"type": "node", "id": 8097789717, "lat": 42.2058969, "lon": 20.7180363, "tags": {"addr:street": "Masar Shala", "amenity": "restaurant", "cuisine": "coffee_shop;grill", "internet_access": "wlan", "name": "Gjelltore Sharri", "name:sq": "Gjelltore SHARRI", "opening_hours": "24/7", "phone": "+38349229046"}}, {"type": "node", "id": 8148687730, "lat": 42.2089829, "lon": 20.7391693}, {"type": "node", "id": 8148687731, "lat": 42.2089312, "lon": 20.7391613}, {"type": "node", "id": 8148687732, "lat": 42.2089262, "lon": 20.7392457}, {"type": "node", "id": 8148687733, "lat": 42.2089769, "lon": 20.7392525}, {"type": "node", "id": 8174199490, "lat": 42.2137874, "lon": 20.7266478}, {"type": "node", "id": 8174199491, "lat": 42.2135128, "lon": 20.7266769}, {"type": "node", "id": 8174199492, "lat": 42.2135565, "lon": 20.7268217}, {"type": "node", "id": 8174199493, "lat": 42.2137941, "lon": 20.7268006}, {"type": "node", "id": 8355711400, "lat": 42.3016101, "lon": 20.8001924, "tags": {"addr:housenumber": "123", "addr:street": "Ymer Prizreni", "amenity": "restaurant", "cuisine": "pizza;burger;coffee_shop;sandwich", "name": "LaLuna", "opening_hours": "24/7"}}, {"type": "node", "id": 8355718622, "lat": 42.3016547, "lon": 20.8000194}, {"type": "node", "id": 8355718623, "lat": 42.3017468, "lon": 20.8005535}, {"type": "node", "id": 8355718624, "lat": 42.3015973, "lon": 20.8006202}, {"type": "node", "id": 8355718625, "lat": 42.3014198, "lon": 20.7997902}, {"type": "node", "id": 8355718626, "lat": 42.3015813, "lon": 20.7997794}, {"type": "node", "id": 8355718627, "lat": 42.3016147, "lon": 20.8000266}, {"type": "node", "id": 8356737117, "lat": 42.2110461, "lon": 20.7366752, "tags": {"addr:housenumber": "100", "addr:postcode": "20000", "addr:street": "Sahat Kulla", "amenity": "cafe", "cuisine": "coffee_shop", "internet_access": "wlan", "name": "Moni Cafe", "opening_hours": "Mo-Su 07:00-20:00", "phone": "+38349626567"}}, {"type": "node", "id": 8380992117, "lat": 42.2351624, "lon": 20.6505595, "tags": {"addr:street": "Syzit\u00eb", "amenity": "restaurant", "internet_access": "wlan", "name": "Restaurant Familjar Joni", "name:en": "Restaurant Joni", "opening_hours": "Mo-Su 08:00-22:00"}}, {"type": "node", "id": 8483553870, "lat": 42.2170783, "lon": 20.7442724, "tags": {"amenity": "cafe", "cuisine": "coffee_shop", "internet_access": "yes", "internet_access:fee": "no", "internet_access:ssid": "Avenue", "name": "Avenue Coffee", "opening_hours": "24/7"}}, {"type": "node", "id": 8517856019, "lat": 42.1631051, "lon": 20.55985, "tags": {"amenity": "restaurant", "name": "Restaurant Univers"}}, {"type": "node", "id": 8587895169, "lat": 42.1782711, "lon": 20.6680332, "tags": {"amenity": "restaurant", "name": "Restaurant Burimi Gurr\u00ebs"}}, {"type": "node", "id": 8587928881, "lat": 42.1983798, "lon": 20.668722}, {"type": "node", "id": 8587928882, "lat": 42.1989255, "lon": 20.6686416}, {"type": "node", "id": 8587928883, "lat": 42.1989611, "lon": 20.6690816}, {"type": "node", "id": 8587928884, "lat": 42.1984154, "lon": 20.669162}, {"type": "node", "id": 8587929448, "lat": 42.1795401, "lon": 20.6716828}, {"type": "node", "id": 8587929449, "lat": 42.1792807, "lon": 20.6716747}, {"type": "node", "id": 8587929450, "lat": 42.1792737, "lon": 20.6717726}, {"type": "node", "id": 8587929451, "lat": 42.1795321, "lon": 20.6717538}, {"type": "node", "id": 8587942706, "lat": 42.1962944, "lon": 20.6628473}, {"type": "node", "id": 8587942707, "lat": 42.1963822, "lon": 20.6632478}, {"type": "node", "id": 8587942708, "lat": 42.196285, "lon": 20.6632866}, {"type": "node", "id": 8587942709, "lat": 42.1961972, "lon": 20.6628861}, {"type": "node", "id": 8588011463, "lat": 42.2020024, "lon": 20.6969902, "tags": {"amenity": "restaurant", "name": "NTSH Begi"}}, {"type": "node", "id": 8588083517, "lat": 42.2045073, "lon": 20.7146323}, {"type": "node", "id": 8588083518, "lat": 42.2047081, "lon": 20.7145484}, {"type": "node", "id": 8588083519, "lat": 42.2048013, "lon": 20.7149646}, {"type": "node", "id": 8588083520, "lat": 42.2046914, "lon": 20.7150405}, {"type": "node", "id": 8588083521, "lat": 42.2046862, "lon": 20.7147725, "tags": {"amenity": "restaurant", "name": "Qebaptore Agimi"}}, {"type": "node", "id": 8588105544, "lat": 42.2046236, "lon": 20.7170822, "tags": {"amenity": "restaurant", "name": "Qebaptore Te DUTI"}}, {"type": "node", "id": 8588129529, "lat": 42.2063518, "lon": 20.7219115}, {"type": "node", "id": 8588129530, "lat": 42.2064383, "lon": 20.7218624}, {"type": "node", "id": 8588129531, "lat": 42.206509, "lon": 20.7220338}, {"type": "node", "id": 8588129532, "lat": 42.2063916, "lon": 20.7220876}, {"type": "node", "id": 8588138522, "lat": 42.2052849, "lon": 20.7181703}, {"type": "node", "id": 8588138523, "lat": 42.2054301, "lon": 20.7181063}, {"type": "node", "id": 8588138524, "lat": 42.2054344, "lon": 20.7182712}, {"type": "node", "id": 8588138525, "lat": 42.205328, "lon": 20.7183081}, {"type": "node", "id": 8798666639, "lat": 42.2169381, "lon": 20.7332794, "tags": {"addr:street": "Jusuf Gervalla", "amenity": "cafe", "name": "Blackberry Sweets"}}, {"type": "node", "id": 8799654397, "lat": 42.2063857, "lon": 20.7334196, "tags": {"addr:street": "Avdi Shala", "amenity": "cafe", "name": "Kafe \"Daja\""}}, {"type": "node", "id": 8799893934, "lat": 42.2091499, "lon": 20.7407478, "tags": {"addr:street": "Shadervan", "amenity": "cafe", "check_date": "2023-10-12", "name": "Cafe \"Hemingway\""}}, {"type": "node", "id": 8799934577, "lat": 42.2081585, "lon": 20.7415362, "tags": {"amenity": "cafe", "name": "Kafe \"No Name\""}}, {"type": "node", "id": 8799959265, "lat": 42.2100897, "lon": 20.7414497, "tags": {"addr:street": "Adem Jashari", "amenity": "cafe", "check_date": "2023-06-30", "name": "Turkish Coffee & Restaurant", "opening_hours": "Mo-Su 07:00-23:00"}}, {"type": "node", "id": 8800267798, "lat": 42.2087912, "lon": 20.7417087, "tags": {"amenity": "cafe", "cuisine": "cake;italian_pizza;tea", "name": "Konaku"}}, {"type": "node", "id": 8800523835, "lat": 42.2120387, "lon": 20.7448042, "tags": {"addr:street": "Marash", "amenity": "cafe", "name": "Mullini i Pintollit"}}, {"type": "node", "id": 8800755037, "lat": 42.2164068, "lon": 20.7427874, "tags": {"addr:street": "Bazhdarhane", "amenity": "cafe", "name": "Kafe \"Missini\""}}, {"type": "node", "id": 8801058609, "lat": 42.2128501, "lon": 20.7444328, "tags": {"addr:street": "Hafiz Ismail Hakki", "amenity": "cafe", "check_date": "2023-06-30", "name": "Cajtore Nuridini"}}, {"type": "node", "id": 8801068742, "lat": 42.2125159, "lon": 20.7442437, "tags": {"addr:street": "Hafiz Ismail Hakki", "amenity": "cafe", "check_date": "2023-06-30", "name": "Qajtore \"Ringo\"", "wheelchair": "no"}}, {"type": "node", "id": 8801072480, "lat": 42.2102094, "lon": 20.7426468, "tags": {"addr:street": "Shad\u00ebrvan", "amenity": "cafe", "check_date": "2023-06-30", "name": "Dante"}}, {"type": "node", "id": 8804900775, "lat": 42.2165749, "lon": 20.7250999, "tags": {"amenity": "cafe", "name": "Matisse"}}, {"type": "node", "id": 8804924270, "lat": 42.2195388, "lon": 20.7343571, "tags": {"amenity": "restaurant", "name": "Restaurant Arbri"}}, {"type": "node", "id": 8806513962, "lat": 42.2151427, "lon": 20.7325622, "tags": {"amenity": "restaurant", "name": "te Taverna"}}, {"type": "node", "id": 8810965391, "lat": 42.210149, "lon": 20.7334446, "tags": {"addr:street": "remzi ademaj", "amenity": "cafe", "check_date": "2023-10-11", "name": "Caffee"}}, {"type": "node", "id": 8869546017, "lat": 42.3201203, "lon": 20.6359646, "tags": {"amenity": "cafe", "name": "ANA Coffee & Kitchen"}}, {"type": "node", "id": 8922479817, "lat": 42.2855783, "lon": 20.3849967, "tags": {"amenity": "cafe"}}, {"type": "node", "id": 8982894700, "lat": 42.3342423, "lon": 20.5884354}, {"type": "node", "id": 8982894701, "lat": 42.3340715, "lon": 20.5882627}, {"type": "node", "id": 8982894702, "lat": 42.3339355, "lon": 20.588509}, {"type": "node", "id": 8982894703, "lat": 42.3341063, "lon": 20.5886817}, {"type": "node", "id": 8982894744, "lat": 42.3183518, "lon": 20.6284957, "tags": {"amenity": "restaurant", "name": "Restaurant Xaja"}}, {"type": "node", "id": 8982914808, "lat": 42.3190126, "lon": 20.635288, "tags": {"amenity": "cafe"}}, {"type": "node", "id": 9001554705, "lat": 42.2888839, "lon": 20.9167118}, {"type": "node", "id": 9001554706, "lat": 42.288814, "lon": 20.9166323}, {"type": "node", "id": 9001554707, "lat": 42.2887694, "lon": 20.916704}, {"type": "node", "id": 9001554708, "lat": 42.2888394, "lon": 20.9167834}, {"type": "node", "id": 9021013576, "lat": 42.2138039, "lon": 20.7267365}, {"type": "node", "id": 9052945115, "lat": 42.1812879, "lon": 20.5537542, "tags": {"amenity": "restaurant", "name": "Restaurant Pashtriku"}}, {"type": "node", "id": 9113100165, "lat": 42.3178247, "lon": 20.6375695, "tags": {"amenity": "cafe"}}, {"type": "node", "id": 9113100166, "lat": 42.3168241, "lon": 20.6389841, "tags": {"amenity": "cafe", "name": "Art Caffe +"}}, {"type": "node", "id": 9113100167, "lat": 42.3168794, "lon": 20.6386362, "tags": {"amenity": "cafe", "name": "Taverna e Krush\u00ebs"}}, {"type": "node", "id": 9124938217, "lat": 42.2108388, "lon": 20.7410367, "tags": {"amenity": "restaurant", "name:en": "Fish house"}}, {"type": "node", "id": 9124938222, "lat": 42.2093089, "lon": 20.7299637, "tags": {"amenity": "cafe", "name": "Pavin"}}, {"type": "node", "id": 9124938232, "lat": 42.2152094, "lon": 20.7383515, "tags": {"amenity": "cafe", "name": "Seams"}}, {"type": "node", "id": 9124938234, "lat": 42.2164114, "lon": 20.7431404, "tags": {"amenity": "cafe", "name": "Le mont"}}, {"type": "node", "id": 9124938328, "lat": 42.2155829, "lon": 20.738895, "tags": {"amenity": "restaurant"}}, {"type": "node", "id": 9124938331, "lat": 42.2152262, "lon": 20.745223, "tags": {"amenity": "cafe", "name": "Gold"}}, {"type": "node", "id": 9124938337, "lat": 42.2122901, "lon": 20.7343793, "tags": {"amenity": "cafe", "name": "My time"}}, {"type": "node", "id": 9124938338, "lat": 42.2123286, "lon": 20.7349159, "tags": {"amenity": "cafe", "check_date": "2023-10-12", "name": "Pavin"}}, {"type": "node", "id": 9124938522, "lat": 42.2151298, "lon": 20.7379712, "tags": {"amenity": "restaurant", "name": "Fegato"}}, {"type": "node", "id": 9124938524, "lat": 42.2113699, "lon": 20.7463913, "tags": {"amenity": "restaurant", "name": "Mullini"}}, {"type": "node", "id": 9124938819, "lat": 42.2150985, "lon": 20.7335978, "tags": {"amenity": "cafe", "name": "A2 coffee"}}, {"type": "node", "id": 9124938919, "lat": 42.2068064, "lon": 20.7376773, "tags": {"amenity": "cafe", "name": "Donn"}}, {"type": "node", "id": 9519270445, "lat": 42.2981766, "lon": 20.6035345}, {"type": "node", "id": 9519270446, "lat": 42.2982756, "lon": 20.6039524}, {"type": "node", "id": 9519270447, "lat": 42.2981072, "lon": 20.6040253}, {"type": "node", "id": 9519270448, "lat": 42.2980082, "lon": 20.6036074}, {"type": "node", "id": 9519322539, "lat": 42.2584521, "lon": 20.6642349, "tags": {"addr:city": "Tupec", "addr:street": "Bujaria Hasjane", "amenity": "restaurant", "name": "Restaurant Lisi"}}, {"type": "node", "id": 9519333707, "lat": 42.2577156, "lon": 20.6548427, "tags": {"addr:city": "Tupec", "addr:street": "Bujaria Hasjane", "amenity": "restaurant", "cuisine": "pizza", "name": "Horizonti"}}, {"type": "node", "id": 9560182206, "lat": 42.2497151, "lon": 20.720535, "tags": {"amenity": "restaurant"}}, {"type": "node", "id": 9767696307, "lat": 42.2152091, "lon": 20.7253686, "tags": {"addr:city": "Prizren", "addr:postcode": "20000", "addr:street": "Ekrem Rexha", "air_conditioning": "yes", "amenity": "cafe", "bar": "yes", "brand": "Heb's Kosova", "contact:facebook": "https://www.facebook.com/hebskosova", "cuisine": "ice_cream;coffee_shop", "delivery": "no", "description": "Heb's Premium, Fresh, Extraordinarily Delicious The love for delicious food and the desire to share it with others, has made Heb\u2019s excel in producing fresh food with fresh ingredients. Those components create the perfect taste. Therefore, our slogan \"Love", "diet:halal": "yes", "diet:healthy": "yes", "highchair": "yes", "internet_access": "yes", "internet_access:fee": "no", "level": "0", "name": "Heb's Sweets", "opening_hours": "Mo-Su 08:00-22:00", "operator": "https://www.facebook.com/ONPOINT2142", "outdoor_seating": "no", "payment:cash": "yes", "payment:debit_cards": "yes", "payment:maestro": "yes", "payment:mastercard": "yes", "payment:visa": "yes", "payment:visa_electron": "yes", "phone": "+38343736111", "reservation": "yes", "shop": "confectionery", "smoking": "no", "takeaway": "yes", "website": "https://delivery.hebskosova.com/", "wheelchair": "yes"}}, {"type": "node", "id": 9768058985, "lat": 41.9912039, "lon": 20.7056601, "tags": {"amenity": "cafe", "name": "Kapka"}}, {"type": "node", "id": 9769158117, "lat": 42.0526368, "lon": 20.65921}, {"type": "node", "id": 9769158118, "lat": 42.0525993, "lon": 20.6593727}, {"type": "node", "id": 9769158119, "lat": 42.0526576, "lon": 20.6593972}, {"type": "node", "id": 9769158120, "lat": 42.0526952, "lon": 20.6592345}, {"type": "node", "id": 9843874249, "lat": 42.2171858, "lon": 20.7319796, "tags": {"amenity": "cafe"}}, {"type": "node", "id": 9843874250, "lat": 42.217777, "lon": 20.7327192, "tags": {"addr:city": "Prizren", "addr:postcode": "20000", "addr:street": "Hamit Tha\u00e7i", "amenity": "cafe", "cuisine": "coffee_shop;sandwich;pizza;burger", "name": "The Charm lounge"}}, {"type": "node", "id": 9935154417, "lat": 42.1500527, "lon": 20.3792218, "tags": {"amenity": "restaurant", "cuisine": "local;regional;tea", "name": "Trojet"}}, {"type": "node", "id": 10010699382, "lat": 42.2775965, "lon": 20.5324683, "tags": {"addr:city": "Kushnin", "amenity": "cafe", "internet_access": "wlan", "internet_access:fee": "yes", "name": "Caffee LgjSh", "smoking": "yes"}}, {"type": "node", "id": 10010699383, "lat": 42.2778387, "lon": 20.5325434, "tags": {"addr:city": "Kushnin", "amenity": "restaurant", "cuisine": "regional", "delivery": "no", "name": "Restorant LgjSh", "outdoor_seating": "yes", "smoking": "yes", "takeaway": "no"}}, {"type": "node", "id": 10068842317, "lat": 42.2164921, "lon": 20.7249279, "tags": {"addr:street": "Parkingu i Abi \u00c7arshis", "amenity": "restaurant", "internet_access": "wlan", "name": "Te Syla", "opening_hours": "Mo-Su 09:00-23:00"}}, {"type": "node", "id": 10128002351, "lat": 42.0760972, "lon": 20.4169013, "tags": {"amenity": "cafe", "contact:facebook": "https://www.facebook.com/profile.php?id=100075978193791", "name": "Bar Britania"}}, {"type": "node", "id": 10171747717, "lat": 42.1658449, "lon": 20.7594404, "tags": {"amenity": "restaurant", "name": "Bio farm Restaurant Ermali"}}, {"type": "node", "id": 10174117017, "lat": 42.1788622, "lon": 20.8395311, "tags": {"amenity": "cafe"}}, {"type": "node", "id": 10174117117, "lat": 42.1761119, "lon": 20.834414, "tags": {"amenity": "restaurant", "name": "Restaurant Paris"}}, {"type": "node", "id": 10220647918, "lat": 42.2165651, "lon": 20.7427294, "tags": {"amenity": "restaurant", "name": "Grill HYSKA"}}, {"type": "node", "id": 10723699187, "lat": 42.2252472, "lon": 20.7522078}, {"type": "node", "id": 10723699189, "lat": 42.2256166, "lon": 20.7520536}, {"type": "node", "id": 10723699190, "lat": 42.2255271, "lon": 20.7519131}, {"type": "node", "id": 10723699191, "lat": 42.2251757, "lon": 20.7522802}, {"type": "node", "id": 10723699192, "lat": 42.225272, "lon": 20.7524331}, {"type": "node", "id": 10723699193, "lat": 42.2252633, "lon": 20.7524194}, {"type": "node", "id": 11005469705, "lat": 42.2087494, "lon": 20.7404194, "tags": {"amenity": "cafe", "cuisine": "burger;coffee_shop", "name:en": "galla coffee"}}, {"type": "node", "id": 11010244660, "lat": 42.2119532, "lon": 20.7405628, "tags": {"amenity": "restaurant", "check_date": "2023-06-27", "internet_access": "wlan", "internet_access:fee": "no", "name": "Tava", "payment:cards": "no", "payment:credit_cards": "no", "payment:debit_cards": "no", "website": "https://tele724.com", "wheelchair": "yes"}}, {"type": "node", "id": 11015510063, "lat": 42.212209, "lon": 20.7410345, "tags": {"amenity": "restaurant", "check_date": "2023-06-30", "name": "Qebaptore Hilmi"}}, {"type": "node", "id": 11015732060, "lat": 42.2149551, "lon": 20.7416864, "tags": {"addr:housenumber": "86", "addr:street": "Adem Jashari", "amenity": "restaurant", "check_date": "2023-06-30", "internet_access": "no", "name": "Te Cufi", "wheelchair": "no"}}, {"type": "node", "id": 11016300703, "lat": 42.2170095, "lon": 20.74419, "tags": {"amenity": "cafe", "check_date": "2023-06-30", "name": "Pavin Caffe", "wheelchair": "yes"}}, {"type": "node", "id": 11016485827, "lat": 42.2102501, "lon": 20.7405682, "tags": {"amenity": "restaurant", "check_date": "2023-06-30", "cuisine": "regional", "name": "Hani i vjet\u00ebr", "wheelchair": "no"}}, {"type": "node", "id": 11017461076, "lat": 42.2166716, "lon": 20.7437401, "tags": {"amenity": "cafe", "check_date": "2023-07-01", "name": "Zambaku", "wheelchair": "no"}}, {"type": "node", "id": 11017461088, "lat": 42.217169, "lon": 20.7471852, "tags": {"amenity": "cafe", "check_date": "2023-07-01", "cuisine": "coffee_shop", "name": "My Coffee", "wheelchair": "no"}}, {"type": "node", "id": 11017461096, "lat": 42.2158217, "lon": 20.747242, "tags": {"amenity": "cafe", "check_date": "2023-07-01", "cuisine": "coffee_shop", "wheelchair": "no"}}, {"type": "node", "id": 11030432072, "lat": 42.056395, "lon": 20.661763, "tags": {"amenity": "cafe", "outdoor_seating": "yes"}}, {"type": "node", "id": 11043852927, "lat": 42.2471704, "lon": 20.3751116, "tags": {"amenity": "restaurant"}}, {"type": "node", "id": 11043856215, "lat": 42.2478385, "lon": 20.3800217, "tags": {"amenity": "cafe"}}, {"type": "node", "id": 11043857270, "lat": 42.2468653, "lon": 20.3846046, "tags": {"amenity": "restaurant"}}, {"type": "node", "id": 11043860833, "lat": 42.2514767, "lon": 20.3771573, "tags": {"amenity": "cafe"}}, {"type": "node", "id": 11043861964, "lat": 42.2080789, "lon": 20.4039061, "tags": {"amenity": "cafe"}}, {"type": "node", "id": 11043868019, "lat": 42.2470182, "lon": 20.3815259, "tags": {"amenity": "cafe"}}, {"type": "node", "id": 11043869030, "lat": 42.2584132, "lon": 20.3455377, "tags": {"amenity": "cafe"}}, {"type": "node", "id": 11052826932, "lat": 42.2255451, "lon": 20.7521323}, {"type": "node", "id": 11063906705, "lat": 42.0530248, "lon": 20.8262062, "tags": {"amenity": "restaurant", "name:de": "Restaurant-Guesthouse Bozvill", "name:en": "Restaurant-Guesthouse Bozvill", "phone": "075339222"}}, {"type": "node", "id": 11112414516, "lat": 42.034222, "lon": 20.4096953, "tags": {"amenity": "restaurant", "name": "Shtegu i Gjelb\u00ebr"}}, {"type": "node", "id": 11245684137, "lat": 42.2122986, "lon": 20.7415332, "tags": {"amenity": "cafe", "name": "Cajtore", "opening_hours": "Mo-Su 06:00-22:00"}}, {"type": "node", "id": 11332787213, "lat": 42.1031062, "lon": 20.3938208, "tags": {"amenity": "cafe", "name": "Forest Bar"}}, {"type": "node", "id": 11355345743, "lat": 42.217667, "lon": 20.7507459}, {"type": "node", "id": 11658368465, "lat": 42.2977176, "lon": 20.611091}, {"type": "node", "id": 11658368466, "lat": 42.2976492, "lon": 20.6111854}, {"type": "node", "id": 11658369769, "lat": 42.2977746, "lon": 20.6110202}, {"type": "node", "id": 11658369770, "lat": 42.2977333, "lon": 20.6109655}, {"type": "node", "id": 11658369772, "lat": 42.2975994, "lon": 20.6111503}, {"type": "node", "id": 11658369773, "lat": 42.2976378, "lon": 20.6112012}, {"type": "node", "id": 11658369775, "lat": 42.297766, "lon": 20.6110521}, {"type": "node", "id": 11782837570, "lat": 42.2103807, "lon": 20.7405968, "tags": {"amenity": "restaurant", "name:en": "Hani i Vjeter"}}, {"type": "node", "id": 11807076969, "lat": 42.1080376, "lon": 20.725396, "tags": {"addr:postcode": "22050", "addr:street": "Luft\u00ebtar\u00ebt e Liris\u00eb", "amenity": "cafe", "internet_access": "wlan", "name": "Caffe Edona - Quti", "opening_hours": "Su-Sa 08:00-00:00"}}, {"type": "node", "id": 11809359490, "lat": 42.1083274, "lon": 20.7251369, "tags": {"addr:postcode": "22050", "addr:street": "Luft\u00ebtar\u00ebt e Liris\u00eb", "amenity": "cafe", "internet_access": "wlan", "name": "n'Pik Caffe", "opening_hours": "Su-Sa 08:00-22:00"}}, {"type": "node", "id": 11818380498, "lat": 42.0777872, "lon": 20.4150263, "tags": {"amenity": "cafe"}}, {"type": "node", "id": 11818380499, "lat": 42.077887, "lon": 20.4146795, "tags": {"amenity": "cafe"}}, {"type": "node", "id": 11818387377, "lat": 42.0779424, "lon": 20.4214066, "tags": {"amenity": "restaurant", "name": "Bar Restaurant Kastrati"}}, {"type": "node", "id": 11865475867, "lat": 42.2474609, "lon": 20.7173427, "tags": {"amenity": "restaurant", "name": "Nafron Exclusive"}}, {"type": "node", "id": 11868367284, "lat": 42.0787962, "lon": 20.4180261, "tags": {"amenity": "restaurant", "name": "Sky View Bar Restaurant"}}, {"type": "node", "id": 11936944686, "lat": 42.3353454, "lon": 20.6410029, "tags": {"amenity": "cafe", "name": "Te Adili"}}, {"type": "node", "id": 11941604852, "lat": 42.2064218, "lon": 20.7469004, "tags": {"addr:city": "Prizren", "amenity": "restaurant", "name": "Agroturizem Mrizi i Shqiponjave"}}, {"type": "node", "id": 12031067165, "lat": 42.2172358, "lon": 20.7264958, "tags": {"amenity": "cafe"}}, {"type": "node", "id": 12031385573, "lat": 41.9724614, "lon": 20.4036961, "tags": {"amenity": "cafe"}}, {"type": "node", "id": 12043965450, "lat": 42.2100868, "lon": 20.7419402, "tags": {"addr:city": "Prizren", "addr:street": "Adem Jashari", "amenity": "restaurant", "capacity": "420", "diet:halal": "yes", "diet:vegetarian": "yes", "internet_access": "wlan", "internet_access:fee": "customers", "level": "2", "name": "Monarch", "opening_hours": "07:00-23:00", "smoking": "no"}}, {"type": "node", "id": 12068962391, "lat": 42.3107333, "lon": 20.4404675, "tags": {"addr:city": "Gjakova", "addr:postcode": "50000", "amenity": "restaurant", "name": "Sofra e Zanave", "phone": "+38346151617"}}, {"type": "node", "id": 12092837005, "lat": 42.2128441, "lon": 20.7293571, "tags": {"addr:floor": "G", "amenity": "cafe", "check_date": "2024-08-05", "level": "0", "name": "te Burimi", "outdoor_seating": "yes"}}, {"type": "node", "id": 12221569504, "lat": 42.2328371, "lon": 20.7573923, "tags": {"addr:city": "Prizren", "addr:postcode": "20000", "addr:street": "Rrust\u00eb Kabashi", "air_conditioning": "yes", "amenity": "cafe", "bar": "yes", "contact:facebook": "https://facebook.com/rinecoffeebar", "internet_access": "yes", "internet_access:fee": "no", "name": "Rine Coffee Bar & More", "opening_hours": "Mo-Su 07:00-23:00", "outdoor_seating": "yes", "phone": "+38343889337", "smoking": "outside", "wheelchair": "yes"}}, {"type": "node", "id": 12379796136, "lat": 42.1993514, "lon": 20.6689319}, {"type": "node", "id": 12379796137, "lat": 42.1993425, "lon": 20.6688215}, {"type": "node", "id": 12379796138, "lat": 42.1989537, "lon": 20.6689905}, {"type": "node", "id": 12379796139, "lat": 42.1989448, "lon": 20.6688801}, {"type": "node", "id": 12404840001, "lat": 42.2085221, "lon": 20.7411875, "tags": {"amenity": "restaurant", "name": "Napolitano"}}, {"type": "node", "id": 12812207912, "lat": 42.1962409, "lon": 20.6628687}, {"type": "node", "id": 12890338990, "lat": 42.2515678, "lon": 20.708059, "tags": {"addr:floor": "G", "amenity": "restaurant", "check_date": "2025-06-06", "cuisine": "pizza", "level": "0", "name": "Proper Puzza"}}, {"type": "way", "id": 83810380, "nodes": [975747777, 975747780, 975747783, 975747781, 975747777], "tags": {"amenity": "restaurant", "building": "yes", "cuisine": "turkish", "name": "Hyska"}}, {"type": "way", "id": 220959726, "nodes": [2300246952, 2300246953, 2385613273, 2300246955, 2300246954, 2300246952], "tags": {"addr:city": "Prizren", "addr:postcode": "20000", "addr:street": "Sheshi i Lidhjes", "amenity": "cafe", "building": "yes", "check_date": "2023-06-30", "cuisine": "coffee_shop;regional", "name": "Mulliri", "outdoor_seating": "yes", "wheelchair": "no"}}, {"type": "way", "id": 230086847, "nodes": [2386152062, 2386152442, 2386152155, 2386152061, 2386152062], "tags": {"amenity": "restaurant", "building": "yes", "name": "Alegria"}}, {"type": "way", "id": 235645180, "nodes": [2437246676, 2437246673, 2437246670, 2437246674, 2437246676], "tags": {"amenity": "restaurant", "building": "yes", "name": "Restaurant \"V\u00ebllez\u00ebrit Sylaj\""}}, {"type": "way", "id": 257833470, "nodes": [2632955112, 1839585310, 2632955113, 2632955114, 2632955112], "tags": {"amenity": "restaurant", "building": "yes", "cuisine": "pizza"}}, {"type": "way", "id": 257833472, "nodes": [2632955115, 2632955116, 2632955117, 2632955118, 2632955115], "tags": {"amenity": "restaurant", "building": "yes"}}, {"type": "way", "id": 257834384, "nodes": [2632974613, 2632974615, 2632974619, 2632974621, 2632974613], "tags": {"amenity": "restaurant", "building": "yes"}}, {"type": "way", "id": 285558335, "nodes": [2892181155, 2892181156, 2892181157, 2892181158, 2892181155], "tags": {"amenity": "restaurant", "building": "yes", "cuisine": "regional", "name": "Villa 100"}}, {"type": "way", "id": 319681048, "nodes": [3261364851, 3261364852, 3261364850, 3261364849, 3261364851], "tags": {"addr:city": "Kuk\u00ebs", "addr:housenumber": "106", "addr:postcode": "8501", "addr:street": "Mehmet Hoxhe Bruti", "amenity": "restaurant", "building": "yes", "delivery": "no", "name": "Kulla e Lum\u00ebs", "opening_hours": "Mo-Sa 07:00-22:00", "outdoor_seating": "yes", "smoking": "isolated"}}, {"type": "way", "id": 380978512, "nodes": [3842651834, 3842651835, 3842651836, 3842651837, 3842651834], "tags": {"amenity": "restaurant", "building": "yes", "check_date": "2023-06-30", "name": "Te Syla"}}, {"type": "way", "id": 389055663, "nodes": [3922197906, 3922197901, 3922197898, 3922197904, 3922197906], "tags": {"amenity": "restaurant", "building": "yes", "fixme": "check name", "name": "\u0431\u0430\u0447\u0446\u043b\u043e", "name:en": "Bachclo"}}, {"type": "way", "id": 389055666, "nodes": [3922197817, 3922197842, 3922197814, 3922197802, 3922197817], "tags": {"addr:city": "Tetovo", "amenity": "restaurant", "building": "residential", "cuisine": "albanian", "name": "\u0428\u0430\u0440", "name:en": "Sharr", "name:sq": "Sharri", "smoking": "separated"}}, {"type": "way", "id": 417010752, "nodes": [4176513191, 4176513192, 4176513193, 4176513194, 4176513195, 4176513197, 4176513201, 4176513191], "tags": {"amenity": "restaurant", "building": "yes"}}, {"type": "way", "id": 429580662, "nodes": [7343432055, 4287376621, 4287376622, 4287376623, 7343432055], "tags": {"addr:city": "Suharek\u00eb , Gelanc\u00eb", "addr:housenumber": "198", "addr:street": "Ymer Prizreni", "amenity": "restaurant", "building": "yes", "cuisine": "pizza;burger;coffee_shop;sandwich;steak_house", "name": "Restaurant Freskimi", "opening_hours": "Mo-Su 09:00-21:00", "website": "https://www.facebook.com/pishinafreskimi/"}}, {"type": "way", "id": 560484240, "nodes": [5405188271, 5405188281, 5405188272, 5405188273, 5405188274, 5405188271], "tags": {"addr:city": "prizren", "addr:postcode": "20000", "amenity": "restaurant", "building": "yes", "capacity": "480", "cuisine": "burger;regional;pizza;italian;chicken;coffee_shop;ice_cream;fish_and_chips;international", "delivery": "yes", "name": "Imperial", "opening_hours": "Mo-Sa 08:00-23:00", "outdoor_seating": "yes", "smoking": "yes", "takeaway": "yes"}}, {"type": "way", "id": 657729679, "nodes": [6160115007, 6160115004, 6160115005, 6160115006, 6160115007], "tags": {"amenity": "restaurant", "building": "yes", "name": "Restaurant Natyra"}}, {"type": "way", "id": 727201883, "nodes": [6661462785, 6815041379, 6815041380, 6815041381, 6661462785], "tags": {"amenity": "restaurant", "building": "yes", "name": "Restaurant Estrada"}}, {"type": "way", "id": 732932082, "nodes": [6863182503, 11355345743, 6863182504, 6863182505, 6863182506, 6863182507, 6863182508, 6863182509, 6863182503], "tags": {"addr:floor": "G", "amenity": "restaurant", "building": "yes", "building:levels": "1", "check_date": "2023-06-27", "contact:instagram": "https://www.instagram.com/gadarestaurant", "cuisine": "regional", "diet:vegetarian": "yes", "internet_access": "wlan", "internet_access:fee": "customers", "level": "0", "name": "Gada Restaurant", "outdoor_seating": "yes", "payment:cards": "no", "payment:cash": "yes", "payment:credit_cards": "no", "payment:debit_cards": "no", "phone": "+383 45 216 105", "toilets": "yes", "toilets:wheelchair": "no", "wheelchair": "no"}}, {"type": "way", "id": 857998105, "nodes": [7998884311, 7998884312, 7998884313, 7998884314, 7998884311], "tags": {"addr:city": "Zapluxh\u00eb", "addr:postcode": "20000", "addr:street": "Tetova", "air_conditioning": "yes", "amenity": "restaurant", "bar": "yes", "building": "yes", "contact:facebook": "https://www.facebook.com/profile.php?id=100063492553959", "cuisine": "traditional;chicken;turkish;salad;regional;steak_house", "email": "nbjeshke@gmail.com", "internet_access": "yes", "name": "N'Bjeshk\u00eb Agroturiz\u00ebm", "opening_hours": "Mo-Su 07:30-23:00", "outdoor_seating": "yes", "phone": "+383 49 727 954", "website": "https://www.nbjeshke.net/"}}, {"type": "way", "id": 857998106, "nodes": [7998884315, 7998884316, 7998884317, 7998884318, 7998884315], "tags": {"amenity": "restaurant", "building": "yes", "name": "Restaurant Stanet e Struzh\u00ebs"}}, {"type": "way", "id": 875457328, "nodes": [8148687730, 8148687731, 8148687732, 8148687733, 8148687730], "tags": {"addr:city": "Prizren", "addr:housenumber": "5", "addr:postcode": "20000", "addr:street": "Pushkatar\u00ebt", "amenity": "restaurant", "building": "yes"}}, {"type": "way", "id": 878678025, "nodes": [8174199490, 8174199491, 8174199492, 8174199493, 9021013576, 8174199490], "tags": {"addr:city": "PRIZREN", "addr:postcode": "20000", "addr:street": "Tirana", "air_conditioning": "yes", "amenity": "cafe", "building": "yes", "building:levels": "1", "cafe": "yes", "internet_access": "yes", "internet_access:fee": "no", "internet_access:ssid": "Green Coffee Guest", "name": "Green Coffee & More", "opening_hours": "Mo-Su 06:00-23:00", "outdoor_seating": "yes", "phone": "044 229 919", "takeaway": "yes", "website": "https://eco-meny.com/meny/?id=19"}}, {"type": "way", "id": 899280409, "nodes": [8355718622, 8355718623, 8355718624, 8355718625, 8355718626, 8355718627, 8355718622], "tags": {"addr:city": "Suharek\u00eb , Gelanc\u00eb", "addr:housenumber": "123", "addr:street": "Ymer Prizreni", "amenity": "restaurant", "building": "yes", "cuisine": "burger;pizza;coffee_shop;sandwich", "name": "Laluna", "opening_hours": "24/7"}}, {"type": "way", "id": 925347715, "nodes": [8587929448, 8587929449, 8587929450, 8587929451, 8587929448], "tags": {"amenity": "cafe", "building": "yes", "name": "Poslishti Cafe"}}, {"type": "way", "id": 925349134, "nodes": [8587942706, 8587942707, 8587942708, 8587942709, 12812207912, 8587942706], "tags": {"amenity": "cafe", "building": "yes", "name": "Te Balia"}}, {"type": "way", "id": 925350499, "nodes": [8587928881, 8587928882, 12379796139, 12379796137, 12379796136, 12379796138, 8587928883, 8587928884, 8587928881], "tags": {"amenity": "restaurant", "building": "yes", "name": "Restaurant Moni"}}, {"type": "way", "id": 925359281, "nodes": [8588083517, 8588083518, 8588083519, 8588083520, 8588083517], "tags": {"amenity": "restaurant", "building": "yes", "name": "Qebaptore Agimi"}}, {"type": "way", "id": 925367938, "nodes": [8588138522, 8588138523, 8588138524, 8588138525, 8588138522], "tags": {"amenity": "restaurant", "building": "yes", "name": "Restaurant Diti"}}, {"type": "way", "id": 925369365, "nodes": [8588129529, 8588129530, 8588129531, 8588129532, 8588129529], "tags": {"amenity": "restaurant", "building": "yes", "name": "Natyral Plus"}}, {"type": "way", "id": 970605317, "nodes": [8982894700, 8982894701, 8982894702, 8982894703, 8982894700], "tags": {"amenity": "restaurant", "building": "yes"}}, {"type": "way", "id": 972592043, "nodes": [9001554705, 9001554706, 9001554707, 9001554708, 9001554705], "tags": {"amenity": "restaurant", "building": "yes", "name": "Hotel Restaurant G\u00ebshtenja"}}, {"type": "way", "id": 1033220684, "nodes": [9519270445, 9519270446, 9519270447, 9519270448, 9519270445], "tags": {"addr:city": "Romaj\u00eb", "addr:street": "Jeta e Re", "amenity": "restaurant", "building": "yes", "cuisine": "pizza;coffee_shop", "name": "Restaurant Drini"}}, {"type": "way", "id": 1063535412, "nodes": [9769158117, 9769158118, 9769158119, 9769158120, 9769158117], "tags": {"amenity": "restaurant", "building": "yes", "cuisine": "pizza", "name": "DOF"}}, {"type": "way", "id": 1152958676, "nodes": [10723699189, 10723699190, 10723699187, 10723699191, 10723699193, 10723699192, 11052826932, 10723699189], "tags": {"amenity": "restaurant", "building": "yes"}}, {"type": "way", "id": 1254206374, "nodes": [11658369769, 11658369770, 11658369772, 11658369773, 11658368466, 11658368465, 11658369775, 11658369769], "tags": {"addr:city": "Prizren", "addr:street": "14 Maj", "amenity": "cafe", "building": "yes"}}]}