{"version": 0.6, "generator": "Overpass API 0.7.62.7 375dc00a", "osm3s": {"timestamp_osm_base": "2025-06-14T13:17:00Z", "copyright": "The data included in this document is from www.openstreetmap.org. The data is made available under ODbL."}, "elements": [{"type": "node", "id": 1836769783, "lat": 36.1876912, "lon": 5.4479057, "tags": {"addr:country": "DZ", "amenity": "cafe", "wifi": "no"}}, {"type": "node", "id": 2441056292, "lat": 36.1993858, "lon": 5.3668784}, {"type": "node", "id": 2441056296, "lat": 36.1996396, "lon": 5.3663004}, {"type": "node", "id": 2441056297, "lat": 36.1991888, "lon": 5.3663071}, {"type": "node", "id": 2441056323, "lat": 36.1953447, "lon": 5.3667389}, {"type": "node", "id": 2441056327, "lat": 36.1992256, "lon": 5.3666128}, {"type": "node", "id": 2441056346, "lat": 36.1995753, "lon": 5.3662549}, {"type": "node", "id": 2441056347, "lat": 36.1991239, "lon": 5.3665243}, {"type": "node", "id": 2441056356, "lat": 36.1956975, "lon": 5.3663527}, {"type": "node", "id": 2441056358, "lat": 36.1996717, "lon": 5.3663465}, {"type": "node", "id": 2441056362, "lat": 36.1995763, "lon": 5.3668247}, {"type": "node", "id": 2441056364, "lat": 36.1993945, "lon": 5.3668489}, {"type": "node", "id": 2441056369, "lat": 36.1953598, "lon": 5.3667684}, {"type": "node", "id": 2441056374, "lat": 36.1953533, "lon": 5.366476}, {"type": "node", "id": 2441056377, "lat": 36.1955676, "lon": 5.3662668}, {"type": "node", "id": 2441056378, "lat": 36.195468, "lon": 5.3668408}, {"type": "node", "id": 2441056388, "lat": 36.1952754, "lon": 5.3666316}, {"type": "node", "id": 2441056391, "lat": 36.1956412, "lon": 5.3662883}, {"type": "node", "id": 2441056416, "lat": 36.1992992, "lon": 5.3663607}, {"type": "node", "id": 2441056421, "lat": 36.1952927, "lon": 5.3665324}, {"type": "node", "id": 2441056431, "lat": 36.1957473, "lon": 5.3668811}, {"type": "node", "id": 2441056435, "lat": 36.1993122, "lon": 5.3663285}, {"type": "node", "id": 2441056441, "lat": 36.199494, "lon": 5.366865}, {"type": "node", "id": 2441056445, "lat": 36.1993685, "lon": 5.36635}, {"type": "node", "id": 2441056450, "lat": 36.195691, "lon": 5.3669535}, {"type": "node", "id": 2441056455, "lat": 36.1992819, "lon": 5.3666343}, {"type": "node", "id": 2441056461, "lat": 36.1997061, "lon": 5.3664734}, {"type": "node", "id": 2441056463, "lat": 36.1958425, "lon": 5.3666101}, {"type": "node", "id": 2441056464, "lat": 36.1958165, "lon": 5.366637}, {"type": "node", "id": 2441056465, "lat": 36.1956823, "lon": 5.3669266}, {"type": "node", "id": 2441056475, "lat": 36.1955005, "lon": 5.3669079}, {"type": "node", "id": 2441056479, "lat": 36.1996174, "lon": 5.3667791}, {"type": "node", "id": 2441056506, "lat": 36.1996499, "lon": 5.3667201}, {"type": "node", "id": 2441056508, "lat": 36.1955351, "lon": 5.3669159}, {"type": "node", "id": 2441056519, "lat": 36.1994269, "lon": 5.3661649}, {"type": "node", "id": 2441056526, "lat": 36.1953706, "lon": 5.3667684}, {"type": "node", "id": 2441056527, "lat": 36.19923, "lon": 5.366814}, {"type": "node", "id": 2441056529, "lat": 36.1958252, "lon": 5.3668059}, {"type": "node", "id": 2441056534, "lat": 36.1956347, "lon": 5.3668837}, {"type": "node", "id": 2441056536, "lat": 36.1955893, "lon": 5.3668811}, {"type": "node", "id": 2441056538, "lat": 36.1957256, "lon": 5.3663687}, {"type": "node", "id": 2441056559, "lat": 36.1995776, "lon": 5.366236}, {"type": "node", "id": 2441056560, "lat": 36.1955438, "lon": 5.366299}, {"type": "node", "id": 2441056565, "lat": 36.1958447, "lon": 5.366696}, {"type": "node", "id": 2441056567, "lat": 36.1956585, "lon": 5.3669401}, {"type": "node", "id": 2441056575, "lat": 36.1996975, "lon": 5.3664117}, {"type": "node", "id": 2441056578, "lat": 36.1953409, "lon": 5.3667989}, {"type": "node", "id": 2441056591, "lat": 36.1954009, "lon": 5.3668784}, {"type": "node", "id": 2441056599, "lat": 36.195365, "lon": 5.3668462}, {"type": "node", "id": 2441056611, "lat": 36.195336, "lon": 5.3664465}, {"type": "node", "id": 2441056616, "lat": 36.1954356, "lon": 5.3668435}, {"type": "node", "id": 2441056626, "lat": 36.1955091, "lon": 5.366299}, {"type": "node", "id": 2441056629, "lat": 36.1992321, "lon": 5.366578}, {"type": "node", "id": 2441056633, "lat": 36.199704, "lon": 5.3665216}, {"type": "node", "id": 2441056635, "lat": 36.1953252, "lon": 5.3667255}, {"type": "node", "id": 2816973272, "lat": 36.1903033, "lon": 5.3847898, "tags": {"addr:country": "DZ", "amenity": "restaurant", "name": "Citadelle"}}, {"type": "node", "id": 2818269787, "lat": 36.1888566, "lon": 5.4226611, "tags": {"addr:country": "DZ", "amenity": "restaurant", "name": "Resto", "name:fr": "Resto"}}, {"type": "node", "id": 2818269788, "lat": 36.1888111, "lon": 5.4229857, "tags": {"addr:country": "DZ", "amenity": "cafe"}}, {"type": "node", "id": 2872417304, "lat": 36.1936398, "lon": 5.4014284, "tags": {"addr:country": "DZ", "amenity": "restaurant", "name": "\u0645\u0647\u0631\u0627\u062c\u0627 \u0645\u0637\u0639\u0645 \u0647\u0646\u062f\u064a", "name:ar": "\u0645\u0647\u0631\u0627\u062c\u0627 \u0645\u0637\u0639\u0645 \u0647\u0646\u062f\u064a", "name:en": "mahradja restaurant indien", "name:fr": "mahradja restaurant indien"}}, {"type": "node", "id": 2999935676, "lat": 36.1991994, "lon": 5.4061523, "tags": {"addr:city": "\u0633\u0637\u064a\u0641", "addr:city:ar": "\u0633\u0637\u064a\u0641", "addr:place": "\u062d\u064a 600 \u0645\u0633\u0643\u0646", "addr:place:ar": "\u062d\u064a 600 \u0645\u0633\u0643\u0646", "amenity": "restaurant"}}, {"type": "node", "id": 3052685040, "lat": 36.1964703, "lon": 5.4067297, "tags": {"addr:city": "\u0633\u0637\u064a\u0641", "addr:city:ar": "\u0633\u0637\u064a\u0641", "addr:housename": "\u0643\u062a\u0644\u0629 14", "addr:housename:ar": "\u0643\u062a\u0644\u0629 14", "addr:place": "\u062d\u064a 600 \u0645\u0633\u0643\u0646", "addr:place:ar": "\u062d\u064a 600 \u0645\u0633\u0643\u0646", "amenity": "restaurant", "name": "\u0622\u062b\u064a\u064a\u0646\u062f\u0627", "name:ar": "\u0622\u062b\u064a\u064a\u0646\u062f\u0627", "name:es": "hacienda", "name:fr": "Ath\u00e9na"}}, {"type": "node", "id": 3451645403, "lat": 36.1697879, "lon": 5.2351565, "tags": {"addr:country": "DZ", "amenity": "restaurant", "name": "Resto", "name:fr": "Resto"}}, {"type": "node", "id": 3451663550, "lat": 36.1697829, "lon": 5.2349963, "tags": {"addr:country": "DZ", "amenity": "cafe"}}, {"type": "node", "id": 3451665660, "lat": 36.1704074, "lon": 5.2372542, "tags": {"addr:country": "DZ", "amenity": "cafe"}}, {"type": "node", "id": 3451668044, "lat": 36.170271, "lon": 5.2379569, "tags": {"addr:country": "DZ", "amenity": "cafe"}}, {"type": "node", "id": 3451668447, "lat": 36.1706867, "lon": 5.2371952, "tags": {"addr:country": "DZ", "amenity": "cafe"}}, {"type": "node", "id": 3451673799, "lat": 36.1697629, "lon": 5.23353, "tags": {"addr:country": "DZ", "amenity": "restaurant", "name": "Resto", "name:fr": "Resto"}}, {"type": "node", "id": 3451673947, "lat": 36.169748, "lon": 5.2334191, "tags": {"addr:country": "DZ", "amenity": "cafe"}}, {"type": "node", "id": 3593094686, "lat": 36.1928202, "lon": 5.4295284, "tags": {"addr:country": "DZ", "amenity": "cafe", "name": "Caf\u00e9", "name:ar": "\u0645\u0642\u0647\u0649"}}, {"type": "node", "id": 3744249562, "lat": 36.1900562, "lon": 5.4044536, "tags": {"addr:country": "DZ", "amenity": "restaurant", "name": "Resto", "name:fr": "Resto"}}, {"type": "node", "id": 3744249563, "lat": 36.1894564, "lon": 5.4055533, "tags": {"addr:country": "DZ", "amenity": "restaurant", "name": "Resto", "name:fr": "Resto"}}, {"type": "node", "id": 3796356736, "lat": 35.9199046, "lon": 5.2954422, "tags": {"addr:city": "Ain Oulmane", "addr:country": "DZ", "amenity": "cafe", "name": "\u0645\u0642\u0647\u0649 \u0642\u062f\u0627\u0631\u064a", "name:ar": "\u0645\u0642\u0647\u0649 \u0642\u062f\u0627\u0631\u064a", "name:fr": "Caf\u00e9 Kadari"}}, {"type": "node", "id": 3796356748, "lat": 35.9212752, "lon": 5.295748, "tags": {"addr:city": "Ain Oulmane", "addr:country": "DZ", "amenity": "restaurant", "cuisine": "french;pizza;syrian", "name": "L'Alhambra"}}, {"type": "node", "id": 3796356749, "lat": 35.9183971, "lon": 5.2956756, "tags": {"addr:city": "Ain Oulmane", "addr:country": "DZ", "amenity": "restaurant", "cuisine": "brochettes", "name": "Grillades Ammar Debbabi", "name:ar": "\u0645\u0637\u0639\u0645 \u0639\u0645\u0627\u0631 \u062f\u0628\u0627\u0628\u064a \u0644\u0644\u0634\u0648\u0627\u0621", "name:fr": "Grillades Ammar Debbabi", "takeaway": "yes"}}, {"type": "node", "id": 3994842933, "lat": 36.3340658, "lon": 5.1816095}, {"type": "node", "id": 3994842934, "lat": 36.3340062, "lon": 5.1816804}, {"type": "node", "id": 3994842935, "lat": 36.3339192, "lon": 5.1815807}, {"type": "node", "id": 3994842936, "lat": 36.3339826, "lon": 5.1815008}, {"type": "node", "id": 3994961355, "lat": 36.3340354, "lon": 5.1815671}, {"type": "node", "id": 4003753266, "lat": 36.3339958, "lon": 5.181668}, {"type": "node", "id": 4003753269, "lat": 36.3339396, "lon": 5.1816044}, {"type": "node", "id": 4053420222, "lat": 35.9217191, "lon": 5.2975805, "tags": {"addr:country": "DZ", "amenity": "cafe", "name": "Cafeteria"}}, {"type": "node", "id": 4053420223, "lat": 35.9210978, "lon": 5.2955125, "tags": {"addr:city": "Ain Oulmane", "addr:country": "DZ", "amenity": "cafe", "name": "Relax"}}, {"type": "node", "id": 4053466680, "lat": 35.9255679, "lon": 5.2958827, "tags": {"addr:country": "DZ", "amenity": "cafe", "name": "Cafeteria Sahnoune"}}, {"type": "node", "id": 4053466681, "lat": 35.9269971, "lon": 5.2959122, "tags": {"addr:country": "DZ", "amenity": "restaurant", "name": "Resto", "name:fr": "Resto"}}, {"type": "node", "id": 4053466683, "lat": 35.928626, "lon": 5.2955447, "tags": {"addr:city": "A\u00efn Oulmane", "addr:country": "DZ", "addr:postcode": "19200", "amenity": "cafe", "name": "Cafeteria"}}, {"type": "node", "id": 4060343403, "lat": 35.9172335, "lon": 5.2928636, "tags": {"addr:country": "DZ", "amenity": "cafe"}}, {"type": "node", "id": 4060343404, "lat": 35.917555, "lon": 5.293443, "tags": {"addr:country": "DZ", "amenity": "cafe"}}, {"type": "node", "id": 4060343405, "lat": 35.9175572, "lon": 5.2946634, "tags": {"addr:country": "DZ", "amenity": "cafe"}}, {"type": "node", "id": 4060343406, "lat": 35.9176028, "lon": 5.2956665, "tags": {"addr:country": "DZ", "amenity": "cafe"}}, {"type": "node", "id": 4060343407, "lat": 35.9175572, "lon": 5.2954546, "tags": {"addr:country": "DZ", "amenity": "cafe"}}, {"type": "node", "id": 4060368141, "lat": 35.9215207, "lon": 5.2960216, "tags": {"addr:city": "Ain Oulmane", "addr:country": "DZ", "amenity": "restaurant", "name": "Resto", "name:fr": "Resto"}}, {"type": "node", "id": 4060368142, "lat": 35.9231128, "lon": 5.2971937, "tags": {"addr:country": "DZ", "amenity": "cafe"}}, {"type": "node", "id": 4062209764, "lat": 35.9170212, "lon": 5.2957222, "tags": {"addr:country": "DZ", "amenity": "cafe"}}, {"type": "node", "id": 4062209767, "lat": 35.9217826, "lon": 5.2967843, "tags": {"addr:country": "DZ", "amenity": "cafe"}}, {"type": "node", "id": 4062209769, "lat": 35.9268912, "lon": 5.2944347, "tags": {"addr:city": "A\u00efn Oulmane", "addr:country": "DZ", "addr:postcode": "19200", "amenity": "cafe"}}, {"type": "node", "id": 4089170200, "lat": 35.9160733, "lon": 5.2946697, "tags": {"addr:country": "DZ", "amenity": "cafe", "name": "Halq El Oued", "name:ar": "\u062d\u0644\u0642 \u0627\u0644\u0648\u0627\u062f", "name:fr": "Halq El Oued"}}, {"type": "node", "id": 4089170202, "lat": 35.9162211, "lon": 5.2960645, "tags": {"addr:country": "DZ", "amenity": "cafe"}}, {"type": "node", "id": 4089170203, "lat": 35.9218774, "lon": 5.2930926, "tags": {"addr:country": "DZ", "amenity": "cafe", "name": "\u0645\u0642\u0647\u0649 \u0642\u062f\u0648\u0631 \u0646\u0627\u062c\u064a", "name:ar": "\u0645\u0642\u0647\u0649 \u0642\u062f\u0648\u0631 \u0646\u0627\u062c\u064a", "name:fr": "Caf\u00e9 Kaddour Nadji"}}, {"type": "node", "id": 4089170204, "lat": 35.9213822, "lon": 5.3067504, "tags": {"addr:country": "DZ", "amenity": "cafe"}}, {"type": "node", "id": 4089170205, "lat": 35.9151139, "lon": 5.3071105, "tags": {"addr:country": "DZ", "amenity": "cafe"}}, {"type": "node", "id": 4089170212, "lat": 35.9149438, "lon": 5.2956783, "tags": {"addr:country": "DZ", "amenity": "restaurant", "name": "Resto", "name:fr": "Resto"}}, {"type": "node", "id": 4089170214, "lat": 35.9188929, "lon": 5.2950721, "tags": {"addr:country": "DZ", "amenity": "cafe"}}, {"type": "node", "id": 4100752391, "lat": 36.1904831, "lon": 5.4247922, "tags": {"addr:country": "DZ", "amenity": "cafe", "name": "El Gouffi"}}, {"type": "node", "id": 4102445297, "lat": 36.1940912, "lon": 5.4368969, "tags": {"addr:city": "S\u00e9tif", "addr:city:ar": "\u0633\u0637\u064a\u0641", "addr:city:fr": "S\u00e9tif", "amenity": "restaurant", "name": "Chapati", "name:fr": "Chapati"}}, {"type": "node", "id": 4102509693, "lat": 36.1894774, "lon": 5.4096051, "tags": {"addr:city": "\u0633\u0637\u064a\u0641", "addr:city:ar": "\u0633\u0637\u064a\u0641", "amenity": "cafe"}}, {"type": "node", "id": 4102517190, "lat": 36.1904101, "lon": 5.4301711, "tags": {"addr:country": "DZ", "amenity": "cafe", "name": "\u0645\u0642\u0647\u0649", "name:ar": "\u0645\u0642\u0647\u0649", "name:fr": "Caf\u00e9"}}, {"type": "node", "id": 4102546889, "lat": 36.192413, "lon": 5.424367, "tags": {"addr:country": "DZ", "amenity": "restaurant", "name": "Pizzeria Los Tacos"}}, {"type": "node", "id": 4112523630, "lat": 35.9187586, "lon": 5.2956655, "tags": {"addr:country": "DZ", "amenity": "cafe"}}, {"type": "node", "id": 4112890589, "lat": 36.1875008, "lon": 5.4228562, "tags": {"addr:city": "\u0633\u0637\u064a\u0641", "addr:city:ar": "\u0633\u0637\u064a\u0641", "addr:street": "\u0646\u0647\u062c \u0639\u0645\u0631\u0648\u0634 \u062d\u0633\u064a\u0646", "addr:street:ar": "\u0646\u0647\u062c \u0639\u0645\u0631\u0648\u0634 \u062d\u0633\u064a\u0646", "amenity": "cafe", "brand": "\u0645\u064a\u0634\u0644\u0627\u0646", "brand:ar": "\u0645\u064a\u0634\u0644\u0627\u0646", "brand:wikidata": "Q151107", "brand:wikipedia": "ar:\u0645\u064a\u0634\u0644\u0627\u0646", "brand:wikipedia:ar": "\u0645\u064a\u0634\u0644\u0627\u0646", "language:ar": "main", "name": "\u0645\u064a\u0634\u0644\u0627\u0646", "name:ar": "\u0645\u064a\u0634\u0644\u0627\u0646", "name:en": "Michelin", "name:fr": "Michelin", "shop": "tyres"}}, {"type": "node", "id": 4112890889, "lat": 36.187525, "lon": 5.4224229, "tags": {"addr:city": "\u0633\u0637\u064a\u0641", "addr:city:ar": "\u0633\u0637\u064a\u0641", "addr:street": "\u0646\u0647\u062c \u0639\u0645\u0631\u0648\u0634 \u062d\u0633\u064a\u0646", "addr:street:ar": "\u0646\u0647\u062c \u0639\u0645\u0631\u0648\u0634 \u062d\u0633\u064a\u0646", "amenity": "cafe", "diet:halal": "yes", "language:ar": "main"}}, {"type": "node", "id": 4112890989, "lat": 36.1874987, "lon": 5.4227712, "tags": {"addr:city": "\u0633\u0637\u064a\u0641", "addr:city:ar": "\u0633\u0637\u064a\u0641", "addr:street": "\u0646\u0647\u062c \u0639\u0645\u0631\u0648\u0634 \u062d\u0633\u064a\u0646", "addr:street:ar": "\u0646\u0647\u062c \u0639\u0645\u0631\u0648\u0634 \u062d\u0633\u064a\u0646", "alt_name": "\u062a\u0648\u062a\u0627\u0644", "alt_name:ar": "\u062a\u0648\u062a\u0627\u0644", "amenity": "cafe", "brand": "\u0637\u0648\u0637\u0627\u0644", "brand:ar": "\u0637\u0648\u0637\u0627\u0644", "brand:wikidata": "Q154037", "brand:wikipedia": "ar:\u0637\u0648\u0637\u0627\u0644", "brand:wikipedia:ar": "\u0637\u0648\u0637\u0627\u0644", "language:ar": "main", "name": "\u0637\u0648\u0637\u0627\u0644", "name:ar": "\u0637\u0648\u0637\u0627\u0644", "name:en": "Total", "name:fr": "Total", "shop": "car_repair"}}, {"type": "node", "id": 4296998243, "lat": 36.1886914, "lon": 5.4322832, "tags": {"addr:country": "DZ", "amenity": "restaurant", "cuisine": "pizza", "name": "Pizza Pino", "opening_hours": "10:00-22:00", "phone": "0557902433", "smoking": "no", "takeaway": "yes"}}, {"type": "node", "id": 4297018290, "lat": 36.188601, "lon": 5.4320974, "tags": {"addr:country": "DZ", "addr:postcode": "19000", "amenity": "restaurant", "cuisine": "italian_pizza", "internet_access": "wlan", "name": "Pizza Pino", "name:ar": "\u0628\u064a\u062a\u0632\u0627 \u0628\u064a\u0646\u0648", "opening_hours": "Mo-Su 11:00-23:00"}}, {"type": "node", "id": 4301003394, "lat": 36.2005243, "lon": 5.4110055, "tags": {"addr:country": "DZ", "amenity": "cafe", "name": "Bein"}}, {"type": "node", "id": 4338228117, "lat": 36.183988, "lon": 5.3065575, "tags": {"addr:country": "DZ", "amenity": "restaurant", "name": "Resto", "name:fr": "Resto"}}, {"type": "node", "id": 4338266032, "lat": 36.1841581, "lon": 5.3071818, "tags": {"addr:country": "DZ", "amenity": "restaurant", "name": "Resto", "name:fr": "Resto"}}, {"type": "node", "id": 4338321095, "lat": 36.1868231, "lon": 5.3182275, "tags": {"addr:country": "DZ", "amenity": "cafe", "name": "Khebbaba"}}, {"type": "node", "id": 4364483038, "lat": 36.187548, "lon": 5.4032547, "tags": {"addr:country": "DZ", "amenity": "cafe", "name": "Cafeteria"}}, {"type": "node", "id": 4364950740, "lat": 36.2288323, "lon": 5.3966789, "tags": {"addr:country": "DZ", "amenity": "restaurant", "name": "Resto", "name:fr": "Resto"}}, {"type": "node", "id": 4364950741, "lat": 36.2286707, "lon": 5.3966519, "tags": {"addr:country": "DZ", "amenity": "restaurant", "name": "Resto", "name:fr": "Resto"}}, {"type": "node", "id": 4364950742, "lat": 36.2286266, "lon": 5.3966311, "tags": {"addr:country": "DZ", "amenity": "cafe", "name": "Cafeteria Hossine"}}, {"type": "node", "id": 4364950745, "lat": 36.2278478, "lon": 5.3962547, "tags": {"addr:city": "\u0633\u0637\u064a\u0641", "addr:city:ar": "\u0633\u0637\u064a\u0641", "amenity": "cafe"}}, {"type": "node", "id": 4364950747, "lat": 36.2273564, "lon": 5.3959686, "tags": {"addr:country": "DZ", "amenity": "cafe", "name": "Cafeteria E'ssaleme"}}, {"type": "node", "id": 4364950754, "lat": 36.2263493, "lon": 5.3951032, "tags": {"addr:city": "\u0633\u0637\u064a\u0641", "addr:city:ar": "\u0633\u0637\u064a\u0641", "amenity": "cafe"}}, {"type": "node", "id": 4364950755, "lat": 36.2263154, "lon": 5.3950904, "tags": {"addr:city": "\u0633\u0637\u064a\u0641", "addr:city:ar": "\u0633\u0637\u064a\u0641", "amenity": "cafe"}}, {"type": "node", "id": 4400960952, "lat": 36.1841442, "lon": 5.311545, "tags": {"addr:country": "DZ", "amenity": "cafe"}}, {"type": "node", "id": 4400960953, "lat": 36.1842048, "lon": 5.3118803, "tags": {"addr:country": "DZ", "amenity": "cafe"}}, {"type": "node", "id": 4456914691, "lat": 36.2778852, "lon": 5.1269908, "tags": {"addr:country": "DZ", "amenity": "cafe", "name": "\u0628\u0646 \u0634\u064a\u0628\u0627\u0646", "name:ar": "\u0628\u0646 \u0634\u064a\u0628\u0627\u0646", "name:en": "Benchibane", "name:fr": "Benchibane", "opening_hours": "Mo-Su 06:00-22:00"}}, {"type": "node", "id": 4456926789, "lat": 36.2963125, "lon": 5.129213, "tags": {"addr:country": "DZ", "amenity": "cafe", "name": "\u0627\u0644\u0645\u0631\u062c \u0627\u0644\u0643\u0628\u064a\u0631", "name:ar": "\u0627\u0644\u0645\u0631\u062c \u0627\u0644\u0643\u0628\u064a\u0631", "name:fr": "La grande prairie"}}, {"type": "node", "id": 4457765092, "lat": 36.2963139, "lon": 5.1292687, "tags": {"addr:country": "DZ", "amenity": "cafe", "name": "\u0627\u0644\u0645\u0631\u062c \u0627\u0644\u0643\u0628\u064a\u0631", "name:ar": "\u0627\u0644\u0645\u0631\u062c \u0627\u0644\u0643\u0628\u064a\u0631", "name:fr": "La grande prairie"}}, {"type": "node", "id": 4457766089, "lat": 36.2779387, "lon": 5.1269847, "tags": {"addr:country": "DZ", "amenity": "cafe", "name": "\u0627\u0644\u0634\u0648\u0627\u0628\u0646\u0629", "name:ar": "\u0627\u0644\u0634\u0648\u0627\u0628\u0646\u0629", "name:fr": "Chouabna"}}, {"type": "node", "id": 4457766189, "lat": 36.2823923, "lon": 5.1272468, "tags": {"addr:country": "DZ", "amenity": "cafe", "name": "\u0639\u064a\u0627\u062f\u064a", "name:ar": "\u0639\u064a\u0627\u062f\u064a", "name:fr": "Ayadi"}}, {"type": "node", "id": 4465244593, "lat": 36.1908496, "lon": 5.4146812, "tags": {"addr:country": "DZ", "amenity": "cafe"}}, {"type": "node", "id": 4466302389, "lat": 36.1901186, "lon": 5.4164031, "tags": {"addr:country": "DZ", "amenity": "cafe", "name": "Op\u00e9ra", "name:fr": "Op\u00e9ra"}}, {"type": "node", "id": 4466653392, "lat": 36.1898203, "lon": 5.4142437, "tags": {"addr:country": "DZ", "amenity": "cafe"}}, {"type": "node", "id": 4475761199, "lat": 36.2550515, "lon": 5.2669508}, {"type": "node", "id": 4475761200, "lat": 36.2553148, "lon": 5.2670907}, {"type": "node", "id": 4475761201, "lat": 36.2551697, "lon": 5.2674239}, {"type": "node", "id": 4475761202, "lat": 36.2550461, "lon": 5.2676304}, {"type": "node", "id": 4475761203, "lat": 36.2549226, "lon": 5.2677637}, {"type": "node", "id": 4475761204, "lat": 36.2548151, "lon": 5.2678237}, {"type": "node", "id": 4475761205, "lat": 36.2547345, "lon": 5.2677837}, {"type": "node", "id": 4490686799, "lat": 36.285275, "lon": 5.41236, "tags": {"addr:country": "DZ", "amenity": "restaurant", "name": "\u0627\u0644\u062f\u0648\u0627\u062f\u064a", "name:ar": "\u0627\u0644\u062f\u0648\u0627\u062f\u064a", "name:fr": "Douadi"}}, {"type": "node", "id": 4496780478, "lat": 36.2046456, "lon": 5.3716579}, {"type": "node", "id": 4496780479, "lat": 36.2047624, "lon": 5.3716743}, {"type": "node", "id": 4496780480, "lat": 36.2047643, "lon": 5.3716416}, {"type": "node", "id": 4496780481, "lat": 36.2049452, "lon": 5.3716696}, {"type": "node", "id": 4496780482, "lat": 36.204964, "lon": 5.3715248}, {"type": "node", "id": 4496780483, "lat": 36.2050695, "lon": 5.3715388}, {"type": "node", "id": 4496780484, "lat": 36.2050827, "lon": 5.3714431}, {"type": "node", "id": 4496780485, "lat": 36.2050507, "lon": 5.3714431}, {"type": "node", "id": 4496780486, "lat": 36.2050563, "lon": 5.3713801}, {"type": "node", "id": 4496780487, "lat": 36.2050846, "lon": 5.3713847}, {"type": "node", "id": 4496780488, "lat": 36.2050921, "lon": 5.3712867}, {"type": "node", "id": 4496780489, "lat": 36.2050168, "lon": 5.371289}, {"type": "node", "id": 4496780490, "lat": 36.2050206, "lon": 5.371331}, {"type": "node", "id": 4496780491, "lat": 36.2049829, "lon": 5.3713264}, {"type": "node", "id": 4496780492, "lat": 36.2049961, "lon": 5.371219}, {"type": "node", "id": 4496780493, "lat": 36.2049998, "lon": 5.3711606}, {"type": "node", "id": 4496780494, "lat": 36.2049471, "lon": 5.3711582}, {"type": "node", "id": 4496780495, "lat": 36.2048397, "lon": 5.3711326}, {"type": "node", "id": 4496780496, "lat": 36.2048095, "lon": 5.3711396}, {"type": "node", "id": 4496780497, "lat": 36.2048039, "lon": 5.3711092}, {"type": "node", "id": 4496780498, "lat": 36.2046362, "lon": 5.3711022}, {"type": "node", "id": 4496780499, "lat": 36.2046381, "lon": 5.3711909}, {"type": "node", "id": 4496780500, "lat": 36.2046023, "lon": 5.3712003}, {"type": "node", "id": 4496780501, "lat": 36.2046042, "lon": 5.3712937}, {"type": "node", "id": 4496780502, "lat": 36.2045589, "lon": 5.371289}, {"type": "node", "id": 4496780503, "lat": 36.2045495, "lon": 5.371352}, {"type": "node", "id": 4496780504, "lat": 36.2046268, "lon": 5.3713567}, {"type": "node", "id": 4496780505, "lat": 36.2046098, "lon": 5.3714665}, {"type": "node", "id": 4496780506, "lat": 36.2045853, "lon": 5.3714711}, {"type": "node", "id": 4496780507, "lat": 36.204574, "lon": 5.3715879}, {"type": "node", "id": 4496780508, "lat": 36.2046004, "lon": 5.3715855}, {"type": "node", "id": 4496780509, "lat": 36.2046381, "lon": 5.3715902}, {"type": "node", "id": 4496780510, "lat": 36.2046268, "lon": 5.3716579}, {"type": "node", "id": 4497313889, "lat": 36.1811784, "lon": 5.4152439, "tags": {"addr:country": "DZ", "addr:postcode": "19000", "addr:street": "Rue des ecoles", "amenity": "cafe", "name": "\u0645\u0642\u0647\u0649 \u0633\u0648\u0627\u0644\u0645\u064a", "name:ar": "\u0645\u0642\u0647\u0649 \u0633\u0648\u0627\u0644\u0645\u064a", "name:fr": "caf\u00e9 soualmi"}}, {"type": "node", "id": 4534923291, "lat": 35.9217038, "lon": 5.3028378, "tags": {"addr:country": "DZ", "amenity": "cafe", "name": "Caf\u00e9t\u00e9ria Ferrari", "name:ar": "Caf\u00e9t\u00e9ria Ferrari"}}, {"type": "node", "id": 4601222499, "lat": 36.1810777, "lon": 5.401236, "tags": {"addr:country": "DZ", "amenity": "cafe", "name": "\u0643\u062f\u0627\u062f \u0645\u0642\u0631\u0627\u0646", "name:ar": "\u0643\u062f\u0627\u062f \u0645\u0642\u0631\u0627\u0646", "name:en": "Caf\u00e9 korichi", "name:fr": "Caf\u00e9 korichi"}}, {"type": "node", "id": 4649999190, "lat": 36.1793011, "lon": 5.4121969, "tags": {"addr:country": "DZ", "amenity": "cafe", "name": "\u0645\u0642\u0647\u0649 \u0646\u062c\u064a\u0628", "name:ar": "\u0645\u0642\u0647\u0649 \u0646\u062c\u064a\u0628", "name:en": "Caf\u00e9t\u00e9ria nadjib", "name:fr": "Caf\u00e9t\u00e9ria Nadjib"}}, {"type": "node", "id": 4667120693, "lat": 36.18889, "lon": 5.4231661, "tags": {"addr:country": "DZ", "amenity": "cafe", "name": "Redmoon", "name:en": "Redmoon"}}, {"type": "node", "id": 4743982322, "lat": 36.1955289, "lon": 5.2647568, "tags": {"addr:country": "DZ", "amenity": "cafe", "name": "\u0645\u0642\u0647\u0649 \u0627\u0644\u0647\u0627\u062f\u064a\u060c", "name:ar": "\u0645\u0642\u0647\u0649 \u0627\u0644\u0647\u0627\u062f\u064a\u060c", "name:fr": "Caf\u00e9 Al Hadi"}}, {"type": "node", "id": 4743982324, "lat": 36.1968189, "lon": 5.2663294, "tags": {"addr:country": "DZ", "amenity": "cafe", "name": "\u0645\u0642\u0647\u0649 \u0628\u0648\u0639\u0644\u0627\u0645", "name:ar": "\u0645\u0642\u0647\u0649 \u0628\u0648\u0639\u0644\u0627\u0645", "name:fr": "Caf\u00e9 Boualem"}}, {"type": "node", "id": 4749260821, "lat": 36.1657037, "lon": 5.199531, "tags": {"addr:country": "DZ", "amenity": "cafe"}}, {"type": "node", "id": 4763981723, "lat": 36.2069888, "lon": 5.4264696, "tags": {"addr:country": "DZ", "amenity": "cafe", "name": "\u0645\u0646\u0632\u0644 \u0633\u0645\u064a\u0629", "name:ar": "\u0645\u0646\u0632\u0644 \u0633\u0645\u064a\u0629", "name:en": "Soumia house", "name:fr": "Soumia"}}, {"type": "node", "id": 4800881251, "lat": 36.3225341, "lon": 5.053747}, {"type": "node", "id": 4831142622, "lat": 36.2050482, "lon": 5.4405534, "tags": {"addr:country": "DZ", "amenity": "cafe", "name:fr": "Caf\u00e9 la Piam"}}, {"type": "node", "id": 4838189336, "lat": 36.205075, "lon": 5.4405173, "tags": {"addr:country": "DZ", "amenity": "cafe", "name:fr": "caf\u00e9 la piam"}}, {"type": "node", "id": 4919959621, "lat": 35.9174131, "lon": 5.2934136, "tags": {"addr:city": "Ain Oulmane", "addr:country": "DZ", "addr:postcode": "19200", "amenity": "cafe", "name": "Caf\u00e9 Cherchafa", "name:ar": "\u0645\u0642\u0647\u0649 \u0634\u0631\u0634\u0627\u0641\u0629 (\u0627\u0644\u0635\u0628\u0627\u062d)", "name:fr": "Caf\u00e9 Cherchafa"}}, {"type": "node", "id": 4948364167, "lat": 36.3349945, "lon": 5.1800311, "tags": {"addr:city": "\u062d\u064a \u0635\u0627\u0646\u0639 \u0639\u0645\u0631", "addr:country": "DZ", "addr:street": "AVENUE LAIB AHMED", "amenity": "cafe", "internet_access:fee": "yes", "outdoor_seating": "yes", "smoking": "outside"}}, {"type": "node", "id": 4975104123, "lat": 36.3350157, "lon": 5.1800338, "tags": {"addr:country": "DZ", "amenity": "cafe", "internet_access": "wlan", "name": "\u0645\u0642\u0647\u0649 \u0634\u0648\u0627\u062f\u0631\u0629 \u0632\u0648\u0628\u064a\u0631", "name:ar": "\u0645\u0642\u0647\u0649 \u0634\u0648\u0627\u062f\u0631\u0629 \u0632\u0648\u0628\u064a\u0631", "name:fr": "Cafe chouadra zoubir"}}, {"type": "node", "id": 4975140022, "lat": 36.3371219, "lon": 5.1758169, "tags": {"addr:country": "DZ", "amenity": "cafe"}}, {"type": "node", "id": 4975143821, "lat": 36.3370951, "lon": 5.1757955, "tags": {"addr:country": "DZ", "amenity": "restaurant", "name": "Resto", "name:fr": "Resto"}}, {"type": "node", "id": 4988191121, "lat": 36.2051359, "lon": 5.4492109, "tags": {"addr:country": "DZ", "amenity": "cafe", "name:fr": "Caf\u00e9t\u00e9ria Mennad"}}, {"type": "node", "id": 4991941625, "lat": 36.2054296, "lon": 5.4284126, "tags": {"addr:city": "\u0633\u0637\u064a\u0641", "addr:city:ar": "\u0633\u0637\u064a\u0641", "addr:postcode": "19000", "addr:street": "\u0634\u0627\u0631\u0639 1", "addr:street:ar": "\u0634\u0627\u0631\u0639 1", "amenity": "cafe", "name": "\u0645\u0642\u0647\u0649 \u0627\u0644\u0634\u0627\u0630\u0644\u064a", "name:ar": "\u0645\u0642\u0647\u0649 \u0627\u0644\u0634\u0627\u0630\u0644\u064a", "name:fr": "Caf\u00e9t\u00e9ria Chadli"}}, {"type": "node", "id": 5042019022, "lat": 36.2839265, "lon": 5.4131108, "tags": {"amenity": "restaurant", "name": "\u0645\u0637\u0639\u0645 \u0648\u0645\u0644\u062d\u0645\u0629 \u0628\u0648\u0631\u062e\u064a\u0633", "name:ar": "\u0645\u0637\u0639\u0645 \u0648\u0645\u0644\u062d\u0645\u0629 \u0628\u0648\u0631\u062e\u064a\u0633", "name:fr": "Restaurant et boucherie Bourekhis"}}, {"type": "node", "id": 5042022823, "lat": 36.277831, "lon": 5.4088108}, {"type": "node", "id": 5042022827, "lat": 36.285265, "lon": 5.4123696, "tags": {"addr:country": "DZ", "amenity": "cafe", "name:fr": "Caf\u00e9 Mouyet"}}, {"type": "node", "id": 5042022828, "lat": 36.2858051, "lon": 5.4126}, {"type": "node", "id": 5042022829, "lat": 36.285573, "lon": 5.4127962}, {"type": "node", "id": 5042022830, "lat": 36.2799784, "lon": 5.4108853, "tags": {"addr:country": "DZ", "amenity": "cafe", "name:fr": "Caf\u00e9 vaste terrasse zaabar azeddine"}}, {"type": "node", "id": 5042022922, "lat": 36.2867252, "lon": 5.4123504, "tags": {"addr:country": "DZ", "amenity": "restaurant", "name:fr": "Restaurant Boubachtoula"}}, {"type": "node", "id": 5042022923, "lat": 36.289884, "lon": 5.4108639}, {"type": "node", "id": 5042022925, "lat": 36.2937655, "lon": 5.4101873, "tags": {"addr:country": "DZ", "amenity": "cafe", "name:fr": "Caf\u00e9 et restaurant Hadji Hocine Boudiaf"}}, {"type": "node", "id": 5160491323, "lat": 35.9187421, "lon": 5.2961415, "tags": {"addr:country": "DZ", "amenity": "restaurant", "name:fr": "Ain oulman chewa"}}, {"type": "node", "id": 5180547221, "lat": 36.2046094, "lon": 5.4100037, "tags": {"addr:country": "DZ", "amenity": "cafe", "name": "Eden caf\u00e9"}}, {"type": "node", "id": 5184549621, "lat": 36.2125787, "lon": 5.4483009}, {"type": "node", "id": 5241636619, "lat": 36.1780003, "lon": 5.4993212, "tags": {"addr:country": "DZ", "amenity": "restaurant", "cuisine": "pizza;sandwich;mexican;chicken;burger", "name": "Resraurant Ain Ain Romane"}}, {"type": "node", "id": 5241637840, "lat": 36.17801, "lon": 5.4992112, "tags": {"addr:city": "Ain Romane", "addr:country": "DZ", "addr:postcode": "19136", "addr:street": "Voie Rapide S\u00e9tif - El Eulma", "amenity": "cafe", "cuisine": "cappucino", "internet_access": "yes", "name": "Caf\u00e9 Ain Romane"}}, {"type": "node", "id": 5299984428, "lat": 36.3353635, "lon": 5.1805754, "tags": {"addr:country": "DZ", "amenity": "cafe", "name": "Caf\u00e9 Joki"}}, {"type": "node", "id": 5483239321, "lat": 36.1887269, "lon": 5.4073841, "tags": {"addr:country": "DZ", "amenity": "restaurant", "name": "\u0645\u0647\u0628\u0648\u0644", "name:ar": "\u0645\u0647\u0628\u0648\u0644", "name:fr": "Mahboul"}}, {"type": "node", "id": 5536096322, "lat": 36.1271221, "lon": 5.0788152}, {"type": "node", "id": 5536853224, "lat": 36.1933294, "lon": 5.4022268, "tags": {"addr:country": "DZ", "amenity": "cafe"}}, {"type": "node", "id": 5543392321, "lat": 36.1950049, "lon": 5.4366905, "tags": {"addr:city": "S\u00e9tif", "addr:city:ar": "\u0633\u0637\u064a\u0641", "addr:city:fr": "S\u00e9tif", "amenity": "restaurant"}}, {"type": "node", "id": 5543414323, "lat": 36.1895252, "lon": 5.4235135, "tags": {"addr:country": "DZ", "amenity": "cafe", "name": "\u0634\u0627\u064a \u0634\u0628\u0646\u0642\u0649", "name:ar": "\u0634\u0627\u064a \u0634\u0628\u0646\u0642\u0649", "name:fr": "Tea chban9a"}}, {"type": "node", "id": 5543424521, "lat": 36.1782409, "lon": 5.409559, "tags": {"addr:city": "\u0633\u0637\u064a\u0641", "addr:city:ar": "\u0633\u0637\u064a\u0641", "amenity": "restaurant", "name": "\u0645\u0637\u0639\u0645 \u062e\u0648\u062c\u0629", "name:ar": "\u0645\u0637\u0639\u0645 \u062e\u0648\u062c\u0629", "name:fr": "Restaurant Khoudja"}}, {"type": "node", "id": 5817350253, "lat": 36.2062091, "lon": 5.4041515, "tags": {"amenity": "cafe"}}, {"type": "node", "id": 5818166553, "lat": 36.2066645, "lon": 5.4368115, "tags": {"addr:city": "\u0633\u0637\u064a\u0641", "addr:city:ar": "\u0633\u0637\u064a\u0641", "addr:housenumber": "6-1", "addr:place": "\u062d\u064a \u0627\u0644\u0647\u0636\u0627\u0628", "addr:place:ar": "\u062d\u064a \u0627\u0644\u0647\u0636\u0627\u0628", "addr:street": "\u0634\u0627\u0631\u0639 2", "addr:street:ar": "\u0634\u0627\u0631\u0639 2", "amenity": "restaurant", "cuisine": "pizza;italian_pizza;arab", "name": "\u0628\u064a\u062a\u0632\u0627 \u0623\u0628\u0648\u0644\u064a\u0646", "name:ar": "\u0628\u064a\u062a\u0632\u0627 \u0623\u0628\u0648\u0644\u064a\u0646", "name:fr": "Pizza Apolline", "opening_hours": "Mo-Su 11:30-22:30"}}, {"type": "node", "id": 5867540785, "lat": 36.1871762, "lon": 5.4093981, "tags": {"amenity": "restaurant", "name": "\u0643\u0645\u0627\u0644 \u0627\u0644\u062f\u064a\u0646", "name:ar": "\u0643\u0645\u0627\u0644 \u0627\u0644\u062f\u064a\u0646", "name:fr": "Kamel Eddine", "phone": "055008587"}}, {"type": "node", "id": 6160108786, "lat": 36.1711793, "lon": 5.3268653, "tags": {"amenity": "cafe", "name": "Caf\u00e9t\u00e9ria", "name:en": "Caf\u00e9", "name:fr": "Caf\u00e9t\u00e9ria"}}, {"type": "node", "id": 6160122586, "lat": 36.1710405, "lon": 5.3265021, "tags": {"amenity": "restaurant", "name": "\u0645\u0637\u0639\u0645", "name:ar": "\u0645\u0637\u0639\u0645", "name:en": "Restaurant", "name:fr": "Resto"}}, {"type": "node", "id": 6268666885, "lat": 36.1968556, "lon": 5.3915863, "tags": {"addr:street": "Guessan Lahcen", "amenity": "cafe", "name:fr": "Gosto"}}, {"type": "node", "id": 6268667085, "lat": 36.1966489, "lon": 5.3920103, "tags": {"addr:street": "Guessan Lahcen", "amenity": "cafe", "name": "Le s\u00e9lectionner", "name:en": "The select", "name:fr": "Le s\u00e9lectionner"}}, {"type": "node", "id": 6268667185, "lat": 36.1943295, "lon": 5.3984596, "tags": {"amenity": "restaurant", "name": "\u0627\u0644\u062e\u064a\u0645\u0629", "name:ar": "\u0627\u0644\u062e\u064a\u0645\u0629", "name:fr": "Khaima"}}, {"type": "node", "id": 6421841486, "lat": 36.1903256, "lon": 5.409626, "tags": {"addr:city": "\u0633\u0637\u064a\u0641", "addr:city:ar": "\u0633\u0637\u064a\u0641", "addr:postcode": "19000", "addr:street": "\u0634\u0627\u0631\u0639 \u0645\u0631\u064a\u0645 \u0628\u0648\u0639\u062a\u0648\u0631\u0629", "addr:street:ar": "\u0634\u0627\u0631\u0639 \u0645\u0631\u064a\u0645 \u0628\u0648\u0639\u062a\u0648\u0631\u0629", "amenity": "restaurant", "cuisine": "arab", "name": "\u0628\u0627\u0628 \u0627\u0644\u062d\u0627\u0631\u0629", "name:ar": "\u0628\u0627\u0628 \u0627\u0644\u062d\u0627\u0631\u0629", "name:fr": "Bab El-Hara"}}, {"type": "node", "id": 6540167773, "lat": 36.279611, "lon": 5.4110777, "tags": {"amenity": "restaurant", "name": "caf\u00e9 restaurant Hadji azeddine", "name:ar": "\u0645\u0637\u0639\u0645 \u0648\u0645\u0642\u0647\u0649 \u0627\u0644\u062d\u0627\u062c \u0639\u0632\u062f\u064a\u0646"}}, {"type": "node", "id": 6564887200, "lat": 36.1487509, "lon": 5.2651648, "tags": {"addr:country": "DZ", "amenity": "cafe", "name": "caffeteria \u0645\u0642\u0647\u0649", "name:ar": "caffeteria \u0645\u0642\u0647\u0649", "name:fr": "caffeteria"}}, {"type": "node", "id": 6564952663, "lat": 36.153875, "lon": 5.2658955, "tags": {"addr:country": "DZ", "amenity": "cafe", "name": "caffeteria \u0645\u0642\u0647\u0649", "name:ar": "caffeteria \u0645\u0642\u0647\u0649", "name:fr": "caffeteria"}}, {"type": "node", "id": 6919751208, "lat": 36.1019358, "lon": 5.074166, "tags": {"amenity": "restaurant", "name": "Restaurant et caf\u00e9teria"}}, {"type": "node", "id": 6919751209, "lat": 36.1042723, "lon": 5.074349, "tags": {"amenity": "cafe", "name": "D\u00e9lice"}}, {"type": "node", "id": 7526237948, "lat": 36.1898656, "lon": 5.3931514, "tags": {"addr:city": "\u0633\u0637\u064a\u0641", "addr:city:ar": "\u0633\u0637\u064a\u0641", "addr:postcode": "19000", "addr:street": "\u0646\u0647\u062c \u0633\u0639\u064a\u062f \u0628\u0648\u062e\u0631\u064a\u0633\u0629", "addr:street:ar": "\u0646\u0647\u062c \u0633\u0639\u064a\u062f \u0628\u0648\u062e\u0631\u064a\u0633\u0629", "amenity": "cafe", "drink": "tea", "drink:tea": "yes", "language:ar": "yes", "name": "\u063a\u0631\u0641\u0629 \u0634\u0627\u064a \u0627\u0644\u062e\u0648\u0627\u0644\u064a", "name:ar": "\u063a\u0631\u0641\u0629 \u0634\u0627\u064a \u0627\u0644\u062e\u0648\u0627\u0644\u064a", "name:fr": "Salon de th\u00e9 Khawali", "phone": "+213 661 52 30 97"}}, {"type": "node", "id": 7526237950, "lat": 36.189848, "lon": 5.392044, "tags": {"addr:city": "\u0633\u0637\u064a\u0641", "addr:city:ar": "\u0633\u0637\u064a\u0641", "addr:postcode": "19000", "addr:street": "\u0646\u0647\u062c \u0633\u0639\u064a\u062f \u0628\u0648\u062e\u0631\u064a\u0633\u0629", "addr:street:ar": "\u0646\u0647\u062c \u0633\u0639\u064a\u062f \u0628\u0648\u062e\u0631\u064a\u0633\u0629", "amenity": "cafe", "hookah": "yes", "language:ar": "yes", "name": "\u0645\u0642\u0647\u0649 \u0644\u0627\u0643\u0648\u0644\u0645\u0628", "name:ar": "\u0645\u0642\u0647\u0649 \u0644\u0627\u0643\u0648\u0644\u0645\u0628", "name:fr": "Caf\u00e9 La Colombe", "opening_hours": "06:00-22:00", "smoking": "hookah"}}, {"type": "node", "id": 7995960586, "lat": 36.1843643, "lon": 5.4135412, "tags": {"amenity": "restaurant", "name": "Resto", "name:en": "Ain Oulman", "name:fr": "Resto"}}, {"type": "node", "id": 8583108317, "lat": 36.2825267, "lon": 5.4123251, "tags": {"amenity": "cafe", "name": "\u0645\u0642\u0647\u0649 \u0627\u0644\u062a\u0627\u062c", "name:en": "Coffee tadj"}}, {"type": "node", "id": 8583108517, "lat": 36.281421, "lon": 5.4112357, "tags": {"amenity": "cafe", "name": "\u0645\u0642\u0647\u0649 \u0627\u0644\u0637\u064a\u0627\u0631", "name:en": "Coffee tayar"}}, {"type": "node", "id": 8589351817, "lat": 36.2879218, "lon": 5.4118305, "tags": {"amenity": "cafe", "name": "\u0645\u0642\u0647\u0649 \u0628\u0648\u0637\u0639\u0648\u0634", "name:en": "Boutouch coffee"}}, {"type": "node", "id": 8612346717, "lat": 36.2825989, "lon": 5.41194, "tags": {"amenity": "cafe", "name": "\u0645\u0642\u0647\u0649 \u062c\u062f\u0627\u0648\u0629", "name:en": "Jdawa coffe"}}, {"type": "node", "id": 8837163017, "lat": 36.3694195, "lon": 5.5087252, "tags": {"amenity": "cafe", "name": "\u0645\u0642\u0647\u0649 \u062c\u0648\u062f\u064a", "name:fr": "Caf\u00e9t\u00e9ria Djoudi", "opening_hours": "24/7"}}, {"type": "node", "id": 10914824695, "lat": 36.2122381, "lon": 5.4483448}, {"type": "node", "id": 10914856740, "lat": 36.2126073, "lon": 5.4487244}, {"type": "node", "id": 10914856779, "lat": 36.2121566, "lon": 5.4485117}, {"type": "node", "id": 10914856862, "lat": 36.2122726, "lon": 5.4487668}, {"type": "node", "id": 10914856925, "lat": 36.2124048, "lon": 5.4488519}, {"type": "node", "id": 10914856967, "lat": 36.2122337, "lon": 5.4483291}, {"type": "node", "id": 10914857004, "lat": 36.2124399, "lon": 5.4482162}, {"type": "node", "id": 10914857061, "lat": 36.2123076, "lon": 5.4488933}, {"type": "node", "id": 10914857066, "lat": 36.2127226, "lon": 5.4483498}, {"type": "node", "id": 10914857118, "lat": 36.2127098, "lon": 5.4486808}, {"type": "node", "id": 10914857132, "lat": 36.2122714, "lon": 5.4481589}, {"type": "node", "id": 10914857236, "lat": 36.2121239, "lon": 5.4483934}, {"type": "node", "id": 10914857246, "lat": 36.2121122, "lon": 5.4487123}, {"type": "node", "id": 10914857295, "lat": 36.2125431, "lon": 5.4481723}, {"type": "node", "id": 10914857299, "lat": 36.2125669, "lon": 5.448907}, {"type": "node", "id": 10914857440, "lat": 36.2126762, "lon": 5.4485595}, {"type": "node", "id": 11016010031, "lat": 36.3225575, "lon": 5.0536251}, {"type": "node", "id": 11016010468, "lat": 36.3226393, "lon": 5.0536493}, {"type": "node", "id": 11016011844, "lat": 36.3226159, "lon": 5.0537711}, {"type": "node", "id": 11026862268, "lat": 36.1270184, "lon": 5.0787465}, {"type": "node", "id": 11026866746, "lat": 36.1270483, "lon": 5.0788484}, {"type": "node", "id": 11026876215, "lat": 36.1270923, "lon": 5.0787133}, {"type": "node", "id": 11109699972, "lat": 36.2782075, "lon": 5.4085894}, {"type": "node", "id": 11109699977, "lat": 36.2780478, "lon": 5.4081175}, {"type": "node", "id": 11109700030, "lat": 36.2856215, "lon": 5.4127833}, {"type": "node", "id": 11109700247, "lat": 36.2782889, "lon": 5.4084843}, {"type": "node", "id": 11109700300, "lat": 36.285391, "lon": 5.4127185}, {"type": "node", "id": 11109700301, "lat": 36.2780336, "lon": 5.4086866}, {"type": "node", "id": 11109700692, "lat": 36.2783873, "lon": 5.4082911}, {"type": "node", "id": 11109700710, "lat": 36.2781798, "lon": 5.4081781}, {"type": "node", "id": 11109700787, "lat": 36.2779949, "lon": 5.4087109}, {"type": "node", "id": 11109700812, "lat": 36.2855836, "lon": 5.4128577}, {"type": "node", "id": 11109700999, "lat": 36.2852757, "lon": 5.4129529}, {"type": "node", "id": 11109701122, "lat": 36.278162, "lon": 5.4084666}, {"type": "node", "id": 11109701201, "lat": 36.2780553, "lon": 5.4084026}, {"type": "node", "id": 11109701284, "lat": 36.2859471, "lon": 5.4127248}, {"type": "node", "id": 11109701314, "lat": 36.2853914, "lon": 5.412721}, {"type": "node", "id": 11109701322, "lat": 36.2781406, "lon": 5.4083094}, {"type": "node", "id": 11109701469, "lat": 36.2779834, "lon": 5.4082945}, {"type": "node", "id": 11109701781, "lat": 36.2781352, "lon": 5.4085562}, {"type": "node", "id": 11109701948, "lat": 36.2781169, "lon": 5.4084004}, {"type": "node", "id": 11109702123, "lat": 36.285631, "lon": 5.4128386}, {"type": "node", "id": 11109702304, "lat": 36.2781007, "lon": 5.4083483}, {"type": "node", "id": 11109702671, "lat": 36.2779622, "lon": 5.4087143}, {"type": "node", "id": 11109703012, "lat": 36.278331, "lon": 5.4084799}, {"type": "node", "id": 11109703061, "lat": 36.2856452, "lon": 5.4126509}, {"type": "node", "id": 11109703206, "lat": 36.2781297, "lon": 5.4083572}, {"type": "node", "id": 11109703211, "lat": 36.2781631, "lon": 5.4083934}, {"type": "node", "id": 11109703234, "lat": 36.2852425, "lon": 5.4127605}, {"type": "node", "id": 11109703263, "lat": 36.2782466, "lon": 5.4082265}, {"type": "node", "id": 11109703642, "lat": 36.277949, "lon": 5.408865}, {"type": "node", "id": 11109703787, "lat": 36.2859117, "lon": 5.4125639}, {"type": "node", "id": 11109703923, "lat": 36.2779856, "lon": 5.408327}, {"type": "node", "id": 11109704018, "lat": 36.277958, "lon": 5.4086518}, {"type": "node", "id": 11109704323, "lat": 36.2781097, "lon": 5.4084318}, {"type": "node", "id": 11109704550, "lat": 36.2854287, "lon": 5.4129123}, {"type": "node", "id": 11109704662, "lat": 36.2780553, "lon": 5.4084068}, {"type": "node", "id": 11109704886, "lat": 36.2782245, "lon": 5.4083006}, {"type": "node", "id": 11109704902, "lat": 36.2780087, "lon": 5.4082485}, {"type": "node", "id": 11109705033, "lat": 36.2858404, "lon": 5.4127609}, {"type": "node", "id": 11109705109, "lat": 36.2781683, "lon": 5.4084694}, {"type": "node", "id": 11109705150, "lat": 36.2779652, "lon": 5.4083612}, {"type": "node", "id": 11109705246, "lat": 36.2782777, "lon": 5.408582}, {"type": "node", "id": 11109705367, "lat": 36.2856756, "lon": 5.4128268}, {"type": "node", "id": 11109705703, "lat": 36.2783025, "lon": 5.408499}, {"type": "node", "id": 11109705932, "lat": 36.2854265, "lon": 5.4128995}, {"type": "node", "id": 11109706268, "lat": 36.28954, "lon": 5.4108164}, {"type": "node", "id": 11109706388, "lat": 36.2895614, "lon": 5.410946}, {"type": "node", "id": 11109706505, "lat": 36.2896033, "lon": 5.4108002}, {"type": "node", "id": 11109706506, "lat": 36.2898577, "lon": 5.4107044}, {"type": "node", "id": 11109706514, "lat": 36.2895766, "lon": 5.4106391}, {"type": "node", "id": 11109706538, "lat": 36.2897384, "lon": 5.4105979}, {"type": "node", "id": 11109706574, "lat": 36.2897601, "lon": 5.4107292}, {"type": "node", "id": 11463318229, "lat": 36.1901592, "lon": 5.3846461}, {"type": "node", "id": 11463318230, "lat": 36.1901349, "lon": 5.3849959}, {"type": "node", "id": 11463318231, "lat": 36.1903479, "lon": 5.3850281}, {"type": "node", "id": 11463318232, "lat": 36.1903739, "lon": 5.3846697}, {"type": "node", "id": 11517057782, "lat": 36.1916171, "lon": 5.4073454, "tags": {"amenity": "restaurant"}}, {"type": "node", "id": 11517060083, "lat": 36.1891365, "lon": 5.4047827, "tags": {"amenity": "cafe"}}, {"type": "node", "id": 11738730525, "lat": 36.1942073, "lon": 5.3653711}, {"type": "node", "id": 11738730526, "lat": 36.1942894, "lon": 5.3655725}, {"type": "node", "id": 11738730527, "lat": 36.1942261, "lon": 5.3657971}, {"type": "node", "id": 11738730528, "lat": 36.1940646, "lon": 5.3659127}, {"type": "node", "id": 11738730529, "lat": 36.1938309, "lon": 5.3657461}, {"type": "node", "id": 11738730530, "lat": 36.1937739, "lon": 5.3655755}, {"type": "node", "id": 11738730531, "lat": 36.1938544, "lon": 5.3654632}, {"type": "node", "id": 11738730532, "lat": 36.1938422, "lon": 5.3654291}, {"type": "node", "id": 11738730533, "lat": 36.19404, "lon": 5.3653121}, {"type": "node", "id": 11782636029, "lat": 36.1942567, "lon": 5.3656937}, {"type": "node", "id": 11782636030, "lat": 36.1942397, "lon": 5.3656392}, {"type": "node", "id": 11782636031, "lat": 36.1942015, "lon": 5.3657201}, {"type": "node", "id": 11782636032, "lat": 36.1942755, "lon": 5.365622}, {"type": "node", "id": 11782636033, "lat": 36.1942639, "lon": 5.3655847}, {"type": "node", "id": 11782636034, "lat": 36.1940765, "lon": 5.3658711}, {"type": "node", "id": 11782636035, "lat": 36.1940868, "lon": 5.3658973}, {"type": "node", "id": 11782636036, "lat": 36.1939344, "lon": 5.3658264}, {"type": "node", "id": 11782636037, "lat": 36.1939668, "lon": 5.3658442}, {"type": "node", "id": 11782636038, "lat": 36.1940135, "lon": 5.3658305}, {"type": "node", "id": 11782636039, "lat": 36.1940397, "lon": 5.365843}, {"type": "node", "id": 11782636040, "lat": 36.1938606, "lon": 5.365733}, {"type": "node", "id": 11782636041, "lat": 36.1938689, "lon": 5.365762}, {"type": "node", "id": 11782636042, "lat": 36.1939188, "lon": 5.3657856}, {"type": "node", "id": 11782636043, "lat": 36.1937913, "lon": 5.365566}, {"type": "node", "id": 11782636044, "lat": 36.1938108, "lon": 5.3654909}, {"type": "node", "id": 11782636045, "lat": 36.1940995, "lon": 5.365302}, {"type": "node", "id": 11782636046, "lat": 36.1941729, "lon": 5.3653279}, {"type": "node", "id": 11782636047, "lat": 36.1941873, "lon": 5.365364}, {"type": "node", "id": 11782636048, "lat": 36.1940698, "lon": 5.3653226}, {"type": "node", "id": 11782636049, "lat": 36.1942578, "lon": 5.3655231}, {"type": "node", "id": 11782636050, "lat": 36.1942719, "lon": 5.3655191}, {"type": "node", "id": 11827339617, "lat": 36.1968083, "lon": 5.3842928, "tags": {"amenity": "restaurant", "name": "University restaurant \u0627\u0644\u0645\u0637\u0639\u0645 \u0627\u0644\u062c\u0627\u0645\u0639\u064a"}}, {"type": "node", "id": 11843952245, "lat": 36.1886861, "lon": 5.3907128}, {"type": "node", "id": 11844001963, "lat": 36.1886861, "lon": 5.3910056}, {"type": "node", "id": 11844001964, "lat": 36.1884301, "lon": 5.3909974}, {"type": "node", "id": 11844001965, "lat": 36.1884321, "lon": 5.390721}, {"type": "way", "id": 236029473, "nodes": [2441056519, 2441056559, 2441056346, 2441056296, 2441056358, 2441056575, 2441056461, 2441056633, 2441056506, 2441056479, 2441056362, 2441056441, 2441056364, 2441056292, 2441056527, 2441056455, 2441056327, 2441056629, 2441056347, 2441056297, 2441056416, 2441056435, 2441056445, 2441056519], "tags": {"amenity": "restaurant", "building": "university", "name": "\u0627\u0644\u0645\u0637\u0639\u0645 \u0627\u0644\u0645\u0631\u0643\u0632\u064a \u0623\u062d\u0645\u062f \u0631\u0648\u0627\u0628\u062d", "smoking": "no"}}, {"type": "way", "id": 236029476, "nodes": [2441056388, 2441056421, 2441056374, 2441056611, 2441056626, 2441056560, 2441056377, 2441056391, 2441056356, 2441056538, 2441056463, 2441056464, 2441056565, 2441056529, 2441056431, 2441056465, 2441056450, 2441056567, 2441056534, 2441056536, 2441056508, 2441056475, 2441056378, 2441056616, 2441056591, 2441056599, 2441056578, 2441056526, 2441056369, 2441056323, 2441056635, 2441056388]}, {"type": "way", "id": 396659951, "nodes": [3994842933, 3994842934, 4003753266, 4003753269, 3994842935, 3994842936, 3994961355, 3994842933], "tags": {"addr:city": "\u062d\u064a \u0635\u0627\u0646\u0639 \u0639\u0645\u0631", "addr:street": "Avenue La\u00efb Ahmed", "amenity": "cafe", "building": "yes", "cuisine": "thai", "internet_access": "no", "name": "\u0645\u0642\u0647\u0649", "name:ar": "\u0645\u0642\u0647\u0649", "name:fr": "Cafeteria"}}, {"type": "way", "id": 450656762, "nodes": [4475761199, 4475761200, 4475761201, 4475761202, 4475761203, 4475761204, 4475761205, 4475761199], "tags": {"amenity": "restaurant", "building": "yes", "name": "Brochettes"}}, {"type": "way", "id": 452863774, "nodes": [4496780478, 4496780479, 4496780480, 4496780481, 4496780482, 4496780483, 4496780484, 4496780485, 4496780486, 4496780487, 4496780488, 4496780489, 4496780490, 4496780491, 4496780492, 4496780493, 4496780494, 4496780495, 4496780496, 4496780497, 4496780498, 4496780499, 4496780500, 4496780501, 4496780502, 4496780503, 4496780504, 4496780505, 4496780506, 4496780507, 4496780508, 4496780509, 4496780510, 4496780478], "tags": {"amenity": "cafe", "building": "yes"}}, {"type": "way", "id": 1174639115, "nodes": [10914857246, 10914856862, 10914857061, 10914856925, 10914857299, 10914856740, 10914857118, 10914857440, 10914857066, 5184549621, 10914857295, 10914857004, 10914857132, 10914856967, 10914824695, 10914857236, 10914856779, 10914857246], "tags": {"addr:country": "DZ", "amenity": "restaurant", "building": "yes", "name": "\u0645\u0637\u0639\u0645 \u0645\u0631\u0643\u0632\u064a", "name:ar": "\u0645\u0637\u0639\u0645 \u0645\u0631\u0643\u0632\u064a", "name:fr": "Restaurant centrale", "source": "Algerie Mapper Team"}}, {"type": "way", "id": 1185979230, "nodes": [4800881251, 11016011844, 11016010468, 11016010031, 4800881251], "tags": {"addr:country": "DZ", "amenity": "cafe", "building": "yes", "source": "Bing"}}, {"type": "way", "id": 1187490997, "nodes": [11026876215, 11026862268, 11026866746, 5536096322, 11026876215], "tags": {"addr:country": "DZ", "amenity": "cafe", "building": "yes", "name": "Cafe", "source": "microsoft/BuildingFootprints"}}, {"type": "way", "id": 1197367231, "nodes": [11109703061, 11109700300, 11109701314, 11109703234, 11109700999, 11109704550, 11109705932, 11109700812, 5042022829, 11109700030, 11109702123, 11109705367, 11109703061], "tags": {"addr:country": "DZ", "amenity": "restaurant", "building": "yes", "name:fr": "Restaurant Boudiaf", "source": "microsoft/BuildingFootprints"}}, {"type": "way", "id": 1197367265, "nodes": [5042022823, 11109703642, 11109700787, 11109702671, 11109704018, 11109700301, 11109704323, 11109704662, 11109701948, 11109703206, 11109703211, 11109705109, 11109701122, 11109701781, 11109699972, 11109705246, 11109705703, 11109700247, 11109703012, 11109700692, 11109703263, 11109704886, 11109701322, 11109700710, 11109699977, 11109704902, 11109702304, 11109701469, 11109703923, 11109701201, 11109705150, 5042022823], "tags": {"addr:country": "DZ", "amenity": "cafe", "building": "yes", "internet_access": "wlan", "name:fr": "Caf\u00e9 Haicheur super classe", "source": "microsoft/BuildingFootprints"}}, {"type": "way", "id": 1197367527, "nodes": [11109703787, 5042022828, 11109705033, 11109701284, 11109703787], "tags": {"addr:country": "DZ", "amenity": "restaurant", "building": "yes", "name:fr": "Restaurant fr\u00e8res Benlaouer", "source": "microsoft/BuildingFootprints"}}, {"type": "way", "id": 1197368079, "nodes": [11109706574, 11109706538, 11109706514, 11109706505, 11109706268, 11109706388, 5042022923, 11109706506, 11109706574], "tags": {"addr:country": "DZ", "amenity": "restaurant", "building": "yes", "name:fr": "Restaurant Elnakhil Boudjemline hassani", "source": "microsoft/BuildingFootprints"}}, {"type": "way", "id": 1234969867, "nodes": [11463318229, 11463318230, 11463318231, 11463318232, 11463318229], "tags": {"addr:city": "\u0633\u0637\u064a\u0641", "addr:street": "\u062f\u0648\u0627\u0631 \u0627\u0644\u0645\u0639\u0628\u0648\u062f\u0629", "amenity": "restaurant", "building": "yes", "cuisine": "syrian", "name": "la citadelle"}}, {"type": "way", "id": 1263453900, "nodes": [11738730525, 11782636049, 11782636050, 11738730526, 11782636033, 11782636032, 11782636030, 11782636029, 11782636031, 11738730527, 11782636034, 11782636035, 11738730528, 11782636039, 11782636038, 11782636037, 11782636036, 11782636042, 11782636041, 11782636040, 11738730529, 11738730530, 11782636043, 11782636044, 11738730531, 11738730532, 11738730533, 11782636048, 11782636045, 11782636046, 11782636047, 11738730525], "tags": {"amenity": "restaurant", "building": "yes", "name": "\u0645\u0637\u0639\u0645 \u0627\u0644\u0625\u0642\u0627\u0645\u0629 \u0627\u0644\u062c\u0627\u0645\u0639\u064a\u0629 \u0644\u0645\u064a\u0646 \u062f\u0628\u0627\u063a\u064a\u0646"}}, {"type": "way", "id": 1275643705, "nodes": [11843952245, 11844001963, 11844001964, 11844001965, 11843952245], "tags": {"amenity": "restaurant", "building": "yes"}}, {"type": "relation", "id": 3176155, "members": [{"type": "way", "ref": 236029476, "role": "outer"}], "tags": {"addr:city": "\u0633\u0637\u064a\u0641", "addr:city:ar": "\u0633\u0637\u064a\u0641", "amenity": "restaurant", "building": "university", "name": "\u0627\u0644\u0645\u0637\u0639\u0645 \u0627\u0644\u0645\u0631\u0643\u0632\u064a \u0645\u062d\u0645\u062f \u0644\u0645\u064a\u0646 \u062f\u0628\u0627\u063a\u064a\u0646", "type": "multipolygon"}}]}