{"version": 0.6, "generator": "Overpass API 0.7.62.7 375dc00a", "osm3s": {"timestamp_osm_base": "2025-06-14T13:09:52Z", "copyright": "The data included in this document is from www.openstreetmap.org. The data is made available under ODbL."}, "elements": [{"type": "node", "id": 6433435687, "lat": 8.8288545, "lon": 5.0907433, "tags": {"addr:street": "Yikpata camp", "amenity": "restaurant", "name": "Yikpata Permanent Orientation camp Kwara"}}, {"type": "node", "id": 10027960483, "lat": 8.8972927, "lon": 5.2373346, "tags": {"amenity": "cafe", "source": "nigeriase4all.gov.ng", "source:date": "2022"}}, {"type": "node", "id": 10027960506, "lat": 8.8988335, "lon": 5.2363914, "tags": {"amenity": "cafe", "source": "nigeriase4all.gov.ng", "source:date": "2022"}}, {"type": "node", "id": 10028000019, "lat": 8.8986483, "lon": 5.2364899, "tags": {"amenity": "cafe", "source": "nigeriase4all.gov.ng", "source:date": "2022"}}, {"type": "node", "id": 10028036639, "lat": 8.8870031, "lon": 5.2501717, "tags": {"amenity": "restaurant", "source": "nigeriase4all.gov.ng", "source:date": "2022"}}, {"type": "node", "id": 10028084229, "lat": 8.9550382, "lon": 5.2670459, "tags": {"amenity": "cafe", "source": "nigeriase4all.gov.ng", "source:date": "2022"}}, {"type": "node", "id": 10028084238, "lat": 8.9553633, "lon": 5.2669418, "tags": {"amenity": "cafe", "source": "nigeriase4all.gov.ng", "source:date": "2022"}}, {"type": "node", "id": 10028084241, "lat": 8.9541919, "lon": 5.2668398, "tags": {"amenity": "cafe", "source": "nigeriase4all.gov.ng", "source:date": "2022"}}, {"type": "node", "id": 10028084247, "lat": 8.9549349, "lon": 5.2670867, "tags": {"amenity": "cafe", "source": "nigeriase4all.gov.ng", "source:date": "2022"}}, {"type": "node", "id": 10028084255, "lat": 8.9542179, "lon": 5.2666996, "tags": {"amenity": "cafe", "source": "nigeriase4all.gov.ng", "source:date": "2022"}}]}