{"version": 0.6, "generator": "Overpass API 0.7.62.7 375dc00a", "osm3s": {"timestamp_osm_base": "2025-06-14T13:27:14Z", "copyright": "The data included in this document is from www.openstreetmap.org. The data is made available under ODbL."}, "elements": [{"type": "node", "id": 1128647135, "lat": 37.0590289, "lon": 10.9949519}, {"type": "node", "id": 1128652379, "lat": 37.0589374, "lon": 10.9948284}, {"type": "node", "id": 1128653684, "lat": 37.0590109, "lon": 10.9953289}, {"type": "node", "id": 1128656676, "lat": 37.0590487, "lon": 10.9949289}, {"type": "node", "id": 1128659703, "lat": 37.0587923, "lon": 10.994997}, {"type": "node", "id": 1128663095, "lat": 37.0591256, "lon": 10.9951955}, {"type": "node", "id": 1128665568, "lat": 37.0591904, "lon": 10.9951203}, {"type": "node", "id": 1128671976, "lat": 37.0588096, "lon": 10.9950659}, {"type": "node", "id": 2180298379, "lat": 37.0591265, "lon": 10.9950279}, {"type": "node", "id": 2180486910, "lat": 37.0560186, "lon": 10.9995577}, {"type": "node", "id": 3503786570, "lat": 37.0531017, "lon": 11.0077041, "tags": {"addr:city": "\u0627\u0644\u0647\u0648\u0627\u0631\u064a\u0629", "amenity": "cafe", "smoking": "yes"}}, {"type": "node", "id": 3518231090, "lat": 37.0542726, "lon": 11.0052748}, {"type": "node", "id": 3518231091, "lat": 37.0542019, "lon": 11.005425}, {"type": "node", "id": 3518231092, "lat": 37.0540628, "lon": 11.0052935}, {"type": "node", "id": 3518231293, "lat": 37.0541549, "lon": 11.005146}, {"type": "node", "id": 3823470462, "lat": 37.0457458, "lon": 11.0133886, "tags": {"amenity": "restaurant", "cuisine": "regional", "name": "\u0645\u0637\u0639\u0645 \u0627\u0644\u0628\u0627\u0634\u0627", "name:ar": "\u0645\u0637\u0639\u0645 \u0627\u0644\u0628\u0627\u0634\u0627", "takeaway": "yes"}}, {"type": "node", "id": 4803417799, "lat": 37.0560019, "lon": 10.999233}, {"type": "node", "id": 4803419636, "lat": 37.0560712, "lon": 10.9995711}, {"type": "node", "id": 4803427599, "lat": 37.0561092, "lon": 10.9993789}, {"type": "node", "id": 4803427600, "lat": 37.0562873, "lon": 10.9991697}, {"type": "node", "id": 4803427601, "lat": 37.056077, "lon": 10.9988865}, {"type": "node", "id": 4803427602, "lat": 37.0559897, "lon": 10.9989943}, {"type": "node", "id": 4803446810, "lat": 37.0098034, "lon": 11.058449}, {"type": "node", "id": 4803446811, "lat": 37.0094787, "lon": 11.0585969}, {"type": "node", "id": 4803446812, "lat": 37.009582, "lon": 11.0592254}, {"type": "node", "id": 4803446813, "lat": 37.0099461, "lon": 11.0591392}, {"type": "node", "id": 5060924354, "lat": 37.047814, "lon": 11.0128488, "tags": {"amenity": "restaurant", "cuisine": "pizza", "name": "La Fontaine"}}, {"type": "node", "id": 5060924361, "lat": 37.0502357, "lon": 11.0148621, "tags": {"amenity": "restaurant", "name": "Restaurant Bella Riva"}}, {"type": "node", "id": 6331057638, "lat": 37.040901, "lon": 11.0099668}, {"type": "node", "id": 6331057639, "lat": 37.040581, "lon": 11.0105352}, {"type": "node", "id": 6331057640, "lat": 37.0408013, "lon": 11.0107356}, {"type": "node", "id": 6331057641, "lat": 37.0407357, "lon": 11.0108572}, {"type": "node", "id": 6331057642, "lat": 37.0409928, "lon": 11.0110543}, {"type": "node", "id": 6331057643, "lat": 37.0415016, "lon": 11.0100818}, {"type": "node", "id": 6331057644, "lat": 37.0413127, "lon": 11.0099043}, {"type": "node", "id": 6331057645, "lat": 37.0411029, "lon": 11.0101573}, {"type": "node", "id": 6331057646, "lat": 37.0416332, "lon": 11.0094856, "tags": {"amenity": "restaurant", "name": "Montazeh Dar Emmima"}}, {"type": "node", "id": 6331057647, "lat": 37.0556468, "lon": 11.0013906, "tags": {"amenity": "restaurant", "name": "La Sir\u00e8ne"}}, {"type": "node", "id": 6331057651, "lat": 37.0533929, "lon": 10.9843566, "tags": {"amenity": "restaurant", "name": "La Source"}}, {"type": "node", "id": 6331057656, "lat": 37.0503077, "lon": 10.9762686, "tags": {"amenity": "restaurant", "name": "Dar Depuis"}}, {"type": "node", "id": 6331057657, "lat": 37.0427033, "lon": 11.067313, "tags": {"amenity": "restaurant", "name": "La Garraga"}}, {"type": "node", "id": 6331057658, "lat": 37.0411654, "lon": 11.061898, "tags": {"amenity": "restaurant", "name": "Haouaria Beach"}}, {"type": "node", "id": 6331057659, "lat": 37.0402441, "lon": 11.0618816, "tags": {"amenity": "restaurant", "name": "Le Petit Port"}}, {"type": "node", "id": 6331057664, "lat": 37.0474614, "lon": 11.0734908, "tags": {"addr:city": "\u0627\u0644\u0647\u0648\u0627\u0631\u064a\u0629", "amenity": "restaurant", "name": "\u062e\u0644\u064a\u062c \u0627\u0644\u0645\u062a\u0627\u0631\u064a\u0633", "name:ar": "\u062e\u0644\u064a\u062c \u0627\u0644\u0645\u062a\u0627\u0631\u064a\u0633", "name:fr": "Crique Mteris"}}, {"type": "node", "id": 6354539759, "lat": 37.0467947, "lon": 11.0128986, "tags": {"amenity": "cafe", "name": "Caf\u00e9 Awej"}}, {"type": "node", "id": 6354539775, "lat": 37.0475012, "lon": 11.0124086, "tags": {"amenity": "cafe", "name": "Cofe Il Maheta"}}, {"type": "node", "id": 6354539776, "lat": 37.0472706, "lon": 11.0118944, "tags": {"amenity": "cafe", "name": "Cafe Achiri"}}, {"type": "node", "id": 6643571244, "lat": 37.0561718, "lon": 10.9994681}, {"type": "node", "id": 7247587487, "lat": 37.0113202, "lon": 10.9535659}, {"type": "node", "id": 7247587488, "lat": 37.0114186, "lon": 10.9536737}, {"type": "node", "id": 7247587489, "lat": 37.0114875, "lon": 10.9535844}, {"type": "node", "id": 7247587490, "lat": 37.0114284, "lon": 10.9535258}, {"type": "node", "id": 7247587491, "lat": 37.011394, "lon": 10.953572}, {"type": "node", "id": 7247587492, "lat": 37.0113546, "lon": 10.9535227}, {"type": "node", "id": 10158106935, "lat": 37.0559901, "lon": 10.9990023}, {"type": "node", "id": 10158173130, "lat": 37.058906, "lon": 10.995196}, {"type": "node", "id": 10158173131, "lat": 37.0589322, "lon": 10.9951656}, {"type": "node", "id": 10158173132, "lat": 37.0589602, "lon": 10.9952603}, {"type": "node", "id": 10158173133, "lat": 37.0589828, "lon": 10.995234}, {"type": "node", "id": 10158173134, "lat": 37.058814, "lon": 10.9950263}, {"type": "node", "id": 10158173135, "lat": 37.0587959, "lon": 10.9950473}, {"type": "way", "id": 97468237, "nodes": [1128652379, 1128659703, 10158173134, 10158173135, 1128671976, 10158173130, 10158173131, 10158173133, 10158173132, 1128653684, 1128663095, 1128665568, 2180298379, 1128656676, 1128647135, 1128652379], "tags": {"addr:city": "El Haouaria", "addr:country": "TN", "addr:governorate": "Nabeul", "addr:housename": "Restaurant La Dourade", "addr:postcode": "8045", "amenity": "restaurant", "building": "restaurant", "is_in:city": "El Haouaria", "is_in:country": "Tunisia", "is_in:governorate": "Nabeul", "name": "Restaurant La Daurade", "name:fr": "Restaurant La Daurade"}}, {"type": "way", "id": 345128719, "nodes": [3518231090, 3518231091, 3518231092, 3518231293, 3518231090], "tags": {"addr:city": "\u0627\u0644\u0647\u0648\u0627\u0631\u064a\u0629", "amenity": "restaurant", "building": "yes", "cuisine": "international", "name": "\u0645\u0637\u0639\u0645 \u0644\u0627\u0631\u0627\u0642\u0648\u0633\u062a\u0627", "name:ar": "\u0645\u0637\u0639\u0645 \u0644\u0627\u0631\u0627\u0642\u0648\u0633\u062a\u0627", "name:fr": "Restaurant l'Aragosta", "smoking": "yes"}}, {"type": "way", "id": 487959303, "nodes": [6643571244, 4803427599, 4803427600, 4803427601, 4803427602, 10158106935, 4803417799, 2180486910, 4803419636, 6643571244], "tags": {"addr:city": "El Haouaria", "addr:postcode": "8045", "addr:street": "\u0634\u0627\u0631\u0639 \u0627\u0644\u062d\u0628\u064a\u0628 \u0628\u0648\u0631\u0642\u064a\u0628\u0629", "addr:street:ar": "\u0634\u0627\u0631\u0639 \u0627\u0644\u062d\u0628\u064a\u0628 \u0628\u0648\u0631\u0642\u064a\u0628\u0629", "amenity": "restaurant", "building": "yes", "email": "hotel.les.grottes@gmail.com", "fax": "+216 72 269 070", "name": "Restaurant Les Grottes", "phone": "+216 98 343 538", "website": "www.les-grottes.e-monsite.com", "wheelchair": "yes"}}, {"type": "way", "id": 487961516, "nodes": [4803446810, 4803446811, 4803446812, 4803446813, 4803446810], "tags": {"addr:city": "echraff", "addr:postcode": "8045", "amenity": "restaurant", "building": "yes", "capacity": "50", "cuisine": "fish_and_chips", "email": "hotel.les.grottes@gmail.com", "name": "Les Grottes Beach Club", "opening_hours": "07:00-19:00", "outdoor_seating": "yes", "phone": "+216 98 343 538", "smoking": "yes", "takeaway": "yes", "wheelchair": "limited"}}, {"type": "way", "id": 676026051, "nodes": [6331057638, 6331057639, 6331057640, 6331057641, 6331057642, 6331057643, 6331057644, 6331057645, 6331057638], "tags": {"amenity": "restaurant", "building": "yes", "name": "Les Vagues"}}, {"type": "way", "id": 776755609, "nodes": [7247587487, 7247587488, 7247587489, 7247587490, 7247587491, 7247587492, 7247587487], "tags": {"amenity": "cafe", "building": "yes"}}]}