{"version": 0.6, "generator": "Overpass API 0.7.62.7 375dc00a", "osm3s": {"timestamp_osm_base": "2025-06-14T14:49:31Z", "copyright": "The data included in this document is from www.openstreetmap.org. The data is made available under ODbL."}, "elements": [{"type": "node", "id": 266913508, "lat": 35.2339537, "lon": 25.4677059, "tags": {"addr:city": "Krassi Pediados", "amenity": "restaurant", "cuisine": "regional", "facebook": "https://www.facebook.com/people/Kares-Taverna/100054524916763/", "name": "Taverna Kares", "operator": "Fam. Psarakis - Meier", "phone": "+30 2897 051862", "website": "https://www.facebook.com/people/Kares-Taverna/100054524916763/"}}, {"type": "node", "id": 270738205, "lat": 35.1167416, "lon": 25.7183933, "tags": {"amenity": "cafe"}}, {"type": "node", "id": 410067963, "lat": 35.2210012, "lon": 25.3497767, "tags": {"amenity": "restaurant", "name": "Taverna Paradiso"}}, {"type": "node", "id": 410247733, "lat": 35.2338162, "lon": 25.4693215, "tags": {"amenity": "restaurant"}}, {"type": "node", "id": 410584507, "lat": 35.1645014, "lon": 25.4473976, "tags": {"amenity": "restaurant", "name:en": "Chalavro Kouzina"}}, {"type": "node", "id": 410838557, "lat": 35.3196455, "lon": 25.5646407, "tags": {"amenity": "restaurant", "cuisine": "regional", "int_name": "Psaras", "name": "\u03a8\u03b1\u03c1\u03ac\u03c2"}}, {"type": "node", "id": 418113527, "lat": 35.1804557, "lon": 25.503822, "tags": {"amenity": "restaurant", "cuisine": "greek", "name": "Zorbas"}}, {"type": "node", "id": 448999750, "lat": 35.2913246, "lon": 25.5077359, "tags": {"amenity": "restaurant"}}, {"type": "node", "id": 518600745, "lat": 35.1888878, "lon": 25.7207561, "tags": {"amenity": "restaurant", "name": "Faros"}}, {"type": "node", "id": 518600747, "lat": 35.1895168, "lon": 25.7209855, "tags": {"amenity": "restaurant", "name": "Maistrali"}}, {"type": "node", "id": 518600749, "lat": 35.1894626, "lon": 25.7209066, "tags": {"amenity": "cafe", "name": "Bueno"}}, {"type": "node", "id": 526385695, "lat": 35.2625461, "lon": 25.7224746, "tags": {"amenity": "restaurant", "cuisine": "regional", "name": "Vritomartes", "phone": "+30-2841041325", "website": "https://www.vritomartes.gr/"}}, {"type": "node", "id": 526385713, "lat": 35.2636892, "lon": 25.7213011, "tags": {"amenity": "restaurant", "cuisine": "regional", "name": "To Paradosiako"}}, {"type": "node", "id": 526385717, "lat": 35.2632642, "lon": 25.7215739, "tags": {"amenity": "cafe", "cuisine": "regional"}}, {"type": "node", "id": 526385720, "lat": 35.2631569, "lon": 25.721558, "tags": {"amenity": "restaurant", "cuisine": "regional", "name": "Porto Rino"}}, {"type": "node", "id": 526385724, "lat": 35.2629785, "lon": 25.7215336, "tags": {"amenity": "restaurant", "check_date": "2024-09-13", "cuisine": "regional", "description": "Italian cuisine,Pizzeria", "email": "info@oliorestaurant.gr", "name": "Olio", "phone": "+30 28410 41446", "website": "https://www.oliorestaurant.gr/"}}, {"type": "node", "id": 526385803, "lat": 35.2618927, "lon": 25.7232681, "tags": {"amenity": "cafe", "cuisine": "regional", "name": "Venue cafe"}}, {"type": "node", "id": 526386053, "lat": 35.2602594, "lon": 25.7268998, "tags": {"amenity": "restaurant", "cuisine": "regional", "name": "Ergospasio"}}, {"type": "node", "id": 526386055, "lat": 35.258993, "lon": 25.728629, "tags": {"amenity": "restaurant", "cuisine": "regional", "internet_access:fee": "yes", "name": "Melissos", "outdoor_seating": "yes", "phone": "+30 2841 41888", "smoking": "separated", "takeaway": "yes"}}, {"type": "node", "id": 526386314, "lat": 35.2593125, "lon": 25.7276741, "tags": {"amenity": "restaurant", "cuisine": "regional"}}, {"type": "node", "id": 526514243, "lat": 35.1665024, "lon": 25.7107094, "tags": {"amenity": "restaurant", "name": "Faedra Beach"}}, {"type": "node", "id": 526514246, "lat": 35.187931, "lon": 25.715521, "tags": {"addr:city": "\u0386\u03b3\u03b9\u03bf\u03c2 \u039d\u03b9\u03ba\u03cc\u03bb\u03b1\u03bf\u03c2", "addr:housenumber": "15", "addr:postcode": "72100", "addr:street": "\u039a\u03bf\u03bd\u03c4\u03bf\u03b3\u03b9\u03ac\u03bd\u03bd\u03b7", "amenity": "cafe", "name": "\u039c\u03ad\u03bb\u03b9", "name:de": "Meli", "name:el": "\u039c\u03ad\u03bb\u03b9", "name:en": "Meli"}}, {"type": "node", "id": 526514247, "lat": 35.1875473, "lon": 25.7161355, "tags": {"amenity": "cafe"}}, {"type": "node", "id": 526514249, "lat": 35.189325, "lon": 25.7169848, "tags": {"amenity": "cafe"}}, {"type": "node", "id": 526514250, "lat": 35.1894738, "lon": 25.7170802, "tags": {"addr:city": "\u0386\u03b3\u03b9\u03bf\u03c2 \u039d\u03b9\u03ba\u03cc\u03bb\u03b1\u03bf\u03c2", "addr:postcode": "72100", "addr:street": "\u03a0\u03bb\u03b1\u03c4\u03b5\u03af\u03b1 \u0395\u03bb. \u0392\u03b5\u03bd\u03b9\u03b6\u03ad\u03bb\u03bf\u03c5", "amenity": "restaurant", "int_name": "Potiraki", "name": "\u03a0\u03bf\u03c4\u03b7\u03c1\u03ac\u03ba\u03b9"}}, {"type": "node", "id": 526514251, "lat": 35.1887659, "lon": 25.7167146}, {"type": "node", "id": 526514252, "lat": 35.1893324, "lon": 25.7178369, "tags": {"amenity": "cafe", "name": "Central"}}, {"type": "node", "id": 526514254, "lat": 35.1901037, "lon": 25.7167809}, {"type": "node", "id": 526514255, "lat": 35.190632, "lon": 25.718449, "tags": {"amenity": "restaurant", "name": "Pacifae"}}, {"type": "node", "id": 526514256, "lat": 35.190287, "lon": 25.718198, "tags": {"amenity": "restaurant", "name": "Blue Lagoon"}}, {"type": "node", "id": 526514257, "lat": 35.1900805, "lon": 25.7179183, "tags": {"addr:city": "\u0386\u03b3\u03b9\u03bf\u03c2 \u039d\u03b9\u03ba\u03cc\u03bb\u03b1\u03bf\u03c2", "addr:housenumber": "14", "addr:postcode": "72100", "addr:street": "\u039f\u03bc\u03ae\u03c1\u03bf\u03c5", "amenity": "restaurant", "name": "SKALA", "name:el": "SKALA", "name:en": "SKALA", "phone": "+30 2841022712", "website": "https://skalataverna.gr/"}}, {"type": "node", "id": 526514258, "lat": 35.190553, "lon": 25.7189474, "tags": {"amenity": "cafe", "name": "Asteria"}}, {"type": "node", "id": 526514259, "lat": 35.190969, "lon": 25.7183861, "tags": {"amenity": "cafe", "name": "\u039a\u03b1\u03bd\u03ac\u03bb\u03b9", "name:el": "\u039a\u03b1\u03bd\u03ac\u03bb\u03b9", "name:el-Latn": "Kanali"}}, {"type": "node", "id": 526514260, "lat": 35.1910371, "lon": 25.7182849, "tags": {"amenity": "cafe", "name": "\u0394\u03c9\u03b4\u03ce\u03bd\u03b7", "name:el": "\u0394\u03c9\u03b4\u03ce\u03bd\u03b7", "name:el-Latn": "Dodoni"}}, {"type": "node", "id": 526514261, "lat": 35.1911587, "lon": 25.71814, "tags": {"amenity": "cafe"}}, {"type": "node", "id": 526514263, "lat": 35.1913452, "lon": 25.7208195, "tags": {"amenity": "restaurant"}}, {"type": "node", "id": 526514269, "lat": 35.1887605, "lon": 25.7208246, "tags": {"amenity": "restaurant"}}, {"type": "node", "id": 526514270, "lat": 35.1886614, "lon": 25.7209059, "tags": {"amenity": "restaurant", "name": "The Sailor"}}, {"type": "node", "id": 526514272, "lat": 35.1892812, "lon": 25.7206799, "tags": {"amenity": "cafe", "delivery": "no", "internet_access": "wlan", "internet_access:fee": "no", "level": "0", "name": "Palazzo Caf\u00e9", "outdoor_seating": "yes", "smoking": "outside", "takeaway": "no", "toilets": "yes", "toilets:access": "customers", "toilets:wheelchair": "no", "wheelchair": "limited"}}, {"type": "node", "id": 526514283, "lat": 35.1900855, "lon": 25.7222027, "tags": {"amenity": "restaurant"}}, {"type": "node", "id": 527358032, "lat": 35.299546, "lon": 25.728062, "tags": {"amenity": "restaurant", "int_name": "Thalassa", "name": "\u0398\u03b1\u03bb\u03b1\u03c3\u03c3\u03b1"}}, {"type": "node", "id": 527358033, "lat": 35.298417, "lon": 25.728463, "tags": {"air_conditioning": "yes", "amenity": "restaurant", "name": "Captain Nicolas", "opening_hours": "Mo-Su 09:00-23:30", "smoking": "outside", "toilets": "yes", "toilets:wheelchair": "limited", "wheelchair": "limited"}}, {"type": "node", "id": 527358168, "lat": 35.1099206, "lon": 25.804701, "tags": {"amenity": "restaurant"}}, {"type": "node", "id": 527358169, "lat": 35.1098221, "lon": 25.805339, "tags": {"amenity": "restaurant"}}, {"type": "node", "id": 527358382, "lat": 35.3002342, "lon": 25.7274015, "tags": {"amenity": "restaurant"}}, {"type": "node", "id": 527358383, "lat": 35.3008933, "lon": 25.7270399, "tags": {"amenity": "restaurant", "name": "Taverna Spinalonga", "website": "https://www.tavernaspinalonga.com/"}}, {"type": "node", "id": 527358384, "lat": 35.2982001, "lon": 25.7281226, "tags": {"amenity": "restaurant", "name": "\u0393\u03bf\u03c1\u03b3\u03cc\u03bd\u03b1", "name:el": "\u0393\u03bf\u03c1\u03b3\u03cc\u03bd\u03b1", "name:el-Latn": "Gorgona"}}, {"type": "node", "id": 735565612, "lat": 35.2021477, "lon": 25.7037632, "tags": {"amenity": "cafe", "int_name": "Psaro"}}, {"type": "node", "id": 739395150, "lat": 35.1892821, "lon": 25.7175825, "tags": {"amenity": "cafe", "check_date": "2024-03-21", "name": "Piazza"}}, {"type": "node", "id": 842220668, "lat": 35.1913294, "lon": 25.7172944, "tags": {"wheelchair": "yes"}}, {"type": "node", "id": 908076043, "lat": 35.3055361, "lon": 25.5142746, "tags": {"amenity": "restaurant", "name": "Zach's Welcome"}}, {"type": "node", "id": 963245923, "lat": 35.3358679, "lon": 25.3457665, "tags": {"amenity": "restaurant"}}, {"type": "node", "id": 982718071, "lat": 35.0934002, "lon": 25.6843499, "tags": {"amenity": "restaurant", "cuisine": "regional", "name": "Tavern Pitopoulis"}}, {"type": "node", "id": 989072175, "lat": 35.2758233, "lon": 25.3604206, "tags": {"amenity": "restaurant"}}, {"type": "node", "id": 993842333, "lat": 35.1948877, "lon": 25.4894191, "tags": {"amenity": "restaurant", "check_date": "2024-12-22", "indoor_seating": "yes", "name": "\u039a\u03bf\u03c5\u03c1\u03ae\u03c4\u03b5\u03c2", "outdoor_seating": "yes"}}, {"type": "node", "id": 1255537016, "lat": 35.3296948, "lon": 25.2884708, "tags": {"amenity": "restaurant", "cuisine": "greek"}}, {"type": "node", "id": 1263597710, "lat": 35.3279048, "lon": 25.3073189, "tags": {"amenity": "restaurant", "cuisine": "grill", "name": "Gyros Grillhouse Souvlaki"}}, {"type": "node", "id": 1263597711, "lat": 35.3208892, "lon": 25.3103149, "tags": {"amenity": "restaurant", "cuisine": "greek"}}, {"type": "node", "id": 1263597766, "lat": 35.3363119, "lon": 25.3053558, "tags": {"amenity": "cafe", "name": "Milena Cafe Bar", "outdoor_seating": "yes", "phone": "+302897042252"}}, {"type": "node", "id": 1288318640, "lat": 35.3335474, "lon": 25.3184497, "tags": {"amenity": "cafe", "name": "Kondimar"}}, {"type": "node", "id": 1324094975, "lat": 35.3288185, "lon": 25.3068476, "tags": {"amenity": "cafe", "name": "Onar lounge cafe"}}, {"type": "node", "id": 1334628695, "lat": 35.2559572, "lon": 25.7291727, "tags": {"addr:housenumber": "162", "addr:postcode": "72053", "addr:street": "\u0391\u03bd\u03b4\u03c1\u03ad\u03b1 \u03a0\u03b1\u03c0\u03b1\u03bd\u03b4\u03c1\u03ad\u03bf\u03c5", "amenity": "restaurant", "internet_access": "wlan", "name": "theo", "name:en": "Thea Restaurant", "opening_hours": "Mo-Su 12:00-23:00"}}, {"type": "node", "id": 1334628708, "lat": 35.2554308, "lon": 25.730651, "tags": {"amenity": "restaurant"}}, {"type": "node", "id": 1338608958, "lat": 35.3348777, "lon": 25.3011693, "tags": {"amenity": "restaurant", "name": "Isla by the sea"}}, {"type": "node", "id": 1343029803, "lat": 35.26175, "lon": 25.7240789, "tags": {"amenity": "restaurant", "name": "The Poulis"}}, {"type": "node", "id": 1343029807, "lat": 35.2618407, "lon": 25.7238281, "tags": {"amenity": "restaurant", "name": "Kalidon"}}, {"type": "node", "id": 1343029816, "lat": 35.2619518, "lon": 25.7235183, "tags": {"amenity": "restaurant", "name": "Megaro"}}, {"type": "node", "id": 1343029817, "lat": 35.259139, "lon": 25.7284438, "tags": {"amenity": "restaurant", "cuisine": "regional", "name": "Blue Sea"}}, {"type": "node", "id": 1343029818, "lat": 35.259259, "lon": 25.727952, "tags": {"amenity": "cafe", "name": "Akti Olous"}}, {"type": "node", "id": 1343029821, "lat": 35.2600499, "lon": 25.7269652, "tags": {"amenity": "restaurant", "name": "Katafigio"}}, {"type": "node", "id": 1343086899, "lat": 35.2613002, "lon": 25.7253439, "tags": {"amenity": "restaurant", "name": "Lotus Eaters"}}, {"type": "node", "id": 1343086901, "lat": 35.260089, "lon": 25.726319, "tags": {"amenity": "restaurant", "name": "Mam`s House"}}, {"type": "node", "id": 1449683078, "lat": 35.3319973, "lon": 25.3451645, "tags": {"amenity": "restaurant", "name": "Sirtaki"}}, {"type": "node", "id": 1449683079, "lat": 35.3320618, "lon": 25.3444938, "tags": {"amenity": "restaurant", "cuisine": "pizza", "name": "Volkano"}}, {"type": "node", "id": 1449683101, "lat": 35.3361007, "lon": 25.3475268, "tags": {"amenity": "restaurant", "name": "\u03c4\u03b1\u03b2\u03b5\u03c1\u03bd\u03b1 \u03c4\u03c1\u03b9\u03c4\u03c9\u03bd\u03b1\u03c2"}}, {"type": "node", "id": 1457661429, "lat": 35.2924905, "lon": 25.478051, "tags": {"amenity": "restaurant", "name": "Stavri"}}, {"type": "node", "id": 1480219561, "lat": 35.33602, "lon": 25.3471056, "tags": {"amenity": "restaurant", "name": "\u03a0\u03b5\u03c1\u03b9\u03b3\u03b9\u03b1\u03bb\u03b9"}}, {"type": "node", "id": 1523309244, "lat": 35.2941956, "lon": 25.4722304, "tags": {"addr:city": "Malia", "addr:postcode": "700 07", "addr:street": "Agio Pneuma", "amenity": "restaurant", "cuisine": "greek", "internet_access": "no", "name": "Maliaport Seaside Restaurant", "phone": "+30 28970 33800", "smoking": "separated", "website": "https://maliaport.gr", "wheelchair": "yes"}}, {"type": "node", "id": 1523511864, "lat": 35.2956083, "lon": 25.4245231, "tags": {"amenity": "restaurant", "cuisine": "greek", "name": "taverna"}}, {"type": "node", "id": 1524935977, "lat": 35.2827954, "lon": 25.4607782, "tags": {"amenity": "cafe", "name": "Die Olde Poste Kaffenion"}}, {"type": "node", "id": 1724587298, "lat": 35.2639125, "lon": 25.7213733, "tags": {"amenity": "restaurant", "cuisine": "regional", "internet_access": "wlan", "name": "Marilena"}}, {"type": "node", "id": 1768858428, "lat": 35.3226432, "lon": 25.3908732, "tags": {"addr:housenumber": "20", "addr:postcode": "70014", "addr:street": "Navarchou Nearchou", "amenity": "restaurant", "cuisine": "greek", "name": "Alia"}}, {"type": "node", "id": 1768924363, "lat": 35.3330759, "lon": 25.3839316, "tags": {"addr:city": "\u03a7\u03b5\u03c1\u03c3\u03cc\u03bd\u03b7\u03c3\u03bf\u03c2", "amenity": "restaurant", "cuisine": "seafood", "indoor_seating": "yes", "name": "Saradari", "outdoor_seating": "yes", "website": "http://www.saradari.com/?lang=en"}}, {"type": "node", "id": 1892831034, "lat": 35.336194, "lon": 25.355324, "tags": {"access": "customers", "amenity": "restaurant"}}, {"type": "node", "id": 1892866585, "lat": 35.3351246, "lon": 25.3556549, "tags": {"access": "customers", "amenity": "restaurant"}}, {"type": "node", "id": 1912990005, "lat": 35.1743848, "lon": 25.7073623}, {"type": "node", "id": 1912990007, "lat": 35.174395, "lon": 25.7072597}, {"type": "node", "id": 1912990011, "lat": 35.1745179, "lon": 25.7073836}, {"type": "node", "id": 1912990012, "lat": 35.1745223, "lon": 25.7072898}, {"type": "node", "id": 1912990028, "lat": 35.1771749, "lon": 25.7090102, "tags": {"amenity": "cafe"}}, {"type": "node", "id": 1945324365, "lat": 35.2325706, "lon": 25.4399631, "tags": {"amenity": "restaurant", "cuisine": "greek", "name": "Taverna Gonies"}}, {"type": "node", "id": 2032796939, "lat": 35.1569829, "lon": 25.6465918, "tags": {"amenity": "cafe", "cuisine": "coffee_shop", "name": "\u0391\u03bb\u03ad\u03be\u03b1\u03bd\u03b4\u03c1\u03bf\u03c2 \u039a\u03b1\u03c6\u03b5\u03c4\u03ad\u03c1\u03b9\u03b1", "name:de": "Alexandros Cafeteria", "name:el": "\u0391\u03bb\u03ad\u03be\u03b1\u03bd\u03b4\u03c1\u03bf\u03c2 \u039a\u03b1\u03c6\u03b5\u03c4\u03ad\u03c1\u03b9\u03b1"}}, {"type": "node", "id": 2032797691, "lat": 35.1549172, "lon": 25.64903, "tags": {"amenity": "restaurant", "cuisine": "greek", "name": "\u03a4\u03bf \u039a\u03bf\u03bd\u03ac\u03ba\u03b9"}}, {"type": "node", "id": 2118114807, "lat": 35.1896625, "lon": 25.5220932}, {"type": "node", "id": 2161466626, "lat": 35.319578, "lon": 25.5657365, "tags": {"addr:street": "Paralia Milatos", "alt_name": "Sirines", "amenity": "restaurant", "cuisine": "greek", "name": "No Stress"}}, {"type": "node", "id": 2161469983, "lat": 35.3196095, "lon": 25.565454, "tags": {"addr:street": "Paralia Milatos", "alt_name": "Meraklis Taverna", "amenity": "restaurant", "cuisine": "greek", "name": "\u039f \u039c\u03b5\u03c1\u03b1\u03ba\u03bb\u03ae\u03c2", "outdoor_seating": "yes"}}, {"type": "node", "id": 2296519737, "lat": 35.3308206, "lon": 25.3062841, "tags": {"amenity": "restaurant", "cuisine": "greek", "int_name": "To Kafeneio Tou Peponi", "name": "\u03a4\u03bf \u039a\u03b1\u03c6\u03b5\u03bd\u03b5\u03af\u03bf \u03a4\u03bf\u03c5 \u03a0\u03b5\u03c0\u03cc\u03bd\u03b7"}}, {"type": "node", "id": 2305385015, "lat": 35.147193, "lon": 25.5659806, "tags": {"amenity": "cafe", "cuisine": "regional"}}, {"type": "node", "id": 2305385018, "lat": 35.1475593, "lon": 25.565648, "tags": {"amenity": "cafe", "cuisine": "regional"}}, {"type": "node", "id": 2305385022, "lat": 35.1474255, "lon": 25.5655112, "tags": {"amenity": "cafe", "cuisine": "regional"}}, {"type": "node", "id": 2312669287, "lat": 35.1741957, "lon": 25.4371566, "tags": {"amenity": "restaurant", "name": "Good Morning Lasithi"}}, {"type": "node", "id": 2312675419, "lat": 35.1982902, "lon": 25.4885767, "tags": {"amenity": "restaurant", "name": "Kronio"}}, {"type": "node", "id": 2321953230, "lat": 35.1571066, "lon": 25.6441629, "tags": {"amenity": "restaurant"}}, {"type": "node", "id": 2321953823, "lat": 35.1572505, "lon": 25.6440883, "tags": {"amenity": "restaurant"}}, {"type": "node", "id": 2321956107, "lat": 35.1565139, "lon": 25.6456243, "tags": {"amenity": "restaurant", "indoor_seating": "yes", "outdoor_seating": "yes"}}, {"type": "node", "id": 2322340749, "lat": 35.2999219, "lon": 25.7276049, "tags": {"amenity": "restaurant", "name": "Taverne"}}, {"type": "node", "id": 2358844832, "lat": 35.2693297, "lon": 25.7219759, "tags": {"amenity": "restaurant", "name": "Despina", "name:de": "Despina"}}, {"type": "node", "id": 2358844833, "lat": 35.2633561, "lon": 25.7215862, "tags": {"amenity": "restaurant", "name": "\u039b\u03b5\u03c9\u03bd\u03af\u03b4\u03b1\u03c2"}}, {"type": "node", "id": 2358844834, "lat": 35.2614557, "lon": 25.7248008, "tags": {"amenity": "restaurant", "name": "Olondi"}}, {"type": "node", "id": 2387139325, "lat": 35.2905957, "lon": 25.4433956, "tags": {"amenity": "restaurant", "name": "Sergiani Greek Family Restaurant"}}, {"type": "node", "id": 2391995303, "lat": 35.307118, "lon": 25.406793, "tags": {"amenity": "restaurant", "cuisine": "greek", "delivery": "no", "name": "Anatoli", "outdoor_seating": "no", "smoking": "yes", "source": "survey", "takeaway": "yes"}}, {"type": "node", "id": 2419782757, "lat": 35.3077604, "lon": 25.5195468, "tags": {"amenity": "cafe", "name": "Maxima"}}, {"type": "node", "id": 2419782758, "lat": 35.3080927, "lon": 25.5196731, "tags": {"amenity": "restaurant", "name": "Remezzo"}}, {"type": "node", "id": 2420044307, "lat": 35.0920344, "lon": 25.5451304}, {"type": "node", "id": 2420525661, "lat": 35.3089174, "lon": 25.5191189, "tags": {"amenity": "restaurant", "cuisine": "italian", "name": "Mama Mia"}}, {"type": "node", "id": 2420525729, "lat": 35.3089191, "lon": 25.5193519, "tags": {"amenity": "restaurant", "name": "Avra"}}, {"type": "node", "id": 2488293980, "lat": 35.3196238, "lon": 25.565651, "tags": {"amenity": "restaurant", "name": "\u0391\u03ba\u03c1\u03bf\u03b3\u03b9\u03ac\u03bb\u03b9"}}, {"type": "node", "id": 2488293981, "lat": 35.3195556, "lon": 25.5658154, "tags": {"amenity": "restaurant"}}, {"type": "node", "id": 2488293984, "lat": 35.319332, "lon": 25.5666187, "tags": {"amenity": "restaurant", "name": "Socrates"}}, {"type": "node", "id": 2488293985, "lat": 35.319531, "lon": 25.5677252, "tags": {"amenity": "restaurant", "name": "\u039c\u03b5\u03bb\u03c4\u03ad\u03bc\u03b9"}}, {"type": "node", "id": 2488293989, "lat": 35.3192401, "lon": 25.5614326, "tags": {"amenity": "restaurant"}}, {"type": "node", "id": 2488293990, "lat": 35.319565, "lon": 25.5610805, "tags": {"amenity": "restaurant"}}, {"type": "node", "id": 2491635979, "lat": 35.3244682, "lon": 25.3868784}, {"type": "node", "id": 2491635980, "lat": 35.3244906, "lon": 25.3869621}, {"type": "node", "id": 2491635981, "lat": 35.3245883, "lon": 25.3870617}, {"type": "node", "id": 2491635982, "lat": 35.3246213, "lon": 25.3868062}, {"type": "node", "id": 2491635983, "lat": 35.3246649, "lon": 25.3870762}, {"type": "node", "id": 2491635984, "lat": 35.3246672, "lon": 25.3870156}, {"type": "node", "id": 2491635985, "lat": 35.3246767, "lon": 25.387004}, {"type": "node", "id": 2491635986, "lat": 35.3246884, "lon": 25.3870026}, {"type": "node", "id": 2491635987, "lat": 35.324699, "lon": 25.3870993}, {"type": "node", "id": 2491635988, "lat": 35.3247014, "lon": 25.3869102}, {"type": "node", "id": 2491635989, "lat": 35.3247026, "lon": 25.3870733}, {"type": "node", "id": 2491635990, "lat": 35.3247202, "lon": 25.3870083}, {"type": "node", "id": 2491635991, "lat": 35.3247297, "lon": 25.3869159}, {"type": "node", "id": 2491635992, "lat": 35.3248769, "lon": 25.3870358}, {"type": "node", "id": 2491635993, "lat": 35.3248898, "lon": 25.3871224}, {"type": "node", "id": 2491635994, "lat": 35.3248981, "lon": 25.3870646}, {"type": "node", "id": 2502928978, "lat": 35.0742976, "lon": 25.6575473, "tags": {"amenity": "restaurant"}}, {"type": "node", "id": 2502928985, "lat": 35.0744606, "lon": 25.6571026, "tags": {"amenity": "restaurant"}}, {"type": "node", "id": 2502928994, "lat": 35.0748402, "lon": 25.6562622, "tags": {"amenity": "restaurant"}}, {"type": "node", "id": 2581799037, "lat": 35.1088931, "lon": 25.8103796}, {"type": "node", "id": 2581799038, "lat": 35.1088247, "lon": 25.8104028}, {"type": "node", "id": 2581799039, "lat": 35.1088451, "lon": 25.8105006}, {"type": "node", "id": 2581799040, "lat": 35.1088698, "lon": 25.8104899}, {"type": "node", "id": 2581799041, "lat": 35.1088596, "lon": 25.8104205}, {"type": "node", "id": 2581799042, "lat": 35.1089004, "lon": 25.8104081}, {"type": "node", "id": 2685657508, "lat": 35.303557, "lon": 25.5254286, "tags": {"amenity": "restaurant", "name": "Nero Milos"}}, {"type": "node", "id": 2772300124, "lat": 35.1651129, "lon": 25.4474101}, {"type": "node", "id": 2830088494, "lat": 35.2927062, "lon": 25.4374857, "tags": {"amenity": "restaurant", "check_date": "2025-04-02", "cuisine": "greek", "name": "Creta", "outdoor_seating": "yes", "phone": "+30 28970 33082", "source": "survey"}}, {"type": "node", "id": 2833760534, "lat": 35.2923754, "lon": 25.4711476, "tags": {"addr:city": "Malia", "addr:postcode": "700 07", "addr:street": "Emm. Tsagkaraki St.", "amenity": "restaurant", "cuisine": "greek", "name": "Taverna Eva", "opening_hours": "09:00 - 00:00", "phone": "+30 28970 31817", "website": "http://www.evataverna.gr"}}, {"type": "node", "id": 2835968340, "lat": 35.2900145, "lon": 25.4596065, "tags": {"addr:city": "\u039c\u03ac\u03bb\u03b9\u03b1", "addr:postcode": "70007", "addr:street": "\u039d\u03b9\u03ba\u03bf\u03bb\u03ac\u03bf\u03c5 \u0393\u03c1\u03b1\u03bc\u03bc\u03b1\u03c4\u03b9\u03ba\u03ac\u03ba\u03b7", "air_conditioning": "no", "amenity": "restaurant", "cuisine": "greek", "name": "Taverna Kalispera", "payment:credit_cards": "yes", "payment:debit_cards": "yes", "smoking": "yes"}}, {"type": "node", "id": 2835979306, "lat": 35.2901394, "lon": 25.4604106}, {"type": "node", "id": 2835979307, "lat": 35.2903351, "lon": 25.4604012}, {"type": "node", "id": 2940510536, "lat": 35.3365913, "lon": 25.3587206, "tags": {"access": "customers", "amenity": "restaurant", "name": "Neoria"}}, {"type": "node", "id": 2943518009, "lat": 35.2916658, "lon": 25.4618051}, {"type": "node", "id": 2959918420, "lat": 35.3186387, "lon": 25.3916646, "tags": {"amenity": "cafe", "name": "Hollywood"}}, {"type": "node", "id": 2962459649, "lat": 35.1897518, "lon": 25.5220573}, {"type": "node", "id": 2962459696, "lat": 35.1899446, "lon": 25.5222114}, {"type": "node", "id": 2962459736, "lat": 35.1897197, "lon": 25.5222724}, {"type": "node", "id": 2962459747, "lat": 35.1897069, "lon": 25.5220467}, {"type": "node", "id": 2962459766, "lat": 35.1899198, "lon": 25.5221258}, {"type": "node", "id": 2962459778, "lat": 35.1897903, "lon": 25.5221561}, {"type": "node", "id": 2999405980, "lat": 35.1888123, "lon": 25.7174209, "tags": {"addr:city": "\u0386\u03b3\u03b9\u03bf\u03c2 \u039d\u03b9\u03ba\u03cc\u03bb\u03b1\u03bf\u03c2", "addr:postcode": "72100", "addr:street": "\u039a\u03cd\u03c0\u03c1\u03bf\u03c5", "amenity": "restaurant", "cuisine": "greek", "name": "Roza"}}, {"type": "node", "id": 3018890750, "lat": 35.1663142, "lon": 25.4826294}, {"type": "node", "id": 3018890751, "lat": 35.1663154, "lon": 25.4825429}, {"type": "node", "id": 3018890752, "lat": 35.1664664, "lon": 25.4826325}, {"type": "node", "id": 3018890753, "lat": 35.1664676, "lon": 25.482546}, {"type": "node", "id": 3062795317, "lat": 35.3354315, "lon": 25.3028829, "tags": {"amenity": "restaurant", "name": "Pella Taverna", "smoking": "yes"}}, {"type": "node", "id": 3062795319, "lat": 35.3353486, "lon": 25.3027663, "tags": {"amenity": "restaurant", "name": "Sailing Cafe"}}, {"type": "node", "id": 3062795320, "lat": 35.3355178, "lon": 25.3030008, "tags": {"amenity": "restaurant", "name": "Yacht"}}, {"type": "node", "id": 3062795321, "lat": 35.334876, "lon": 25.3020921, "tags": {"amenity": "restaurant", "cuisine": "greek", "name": "Taverna Zorbas"}}, {"type": "node", "id": 3070057002, "lat": 35.3179985, "lon": 25.3894028, "tags": {"amenity": "cafe", "name": "Quick & Fresh"}}, {"type": "node", "id": 3070097635, "lat": 35.3173069, "lon": 25.3913501, "tags": {"amenity": "restaurant", "cuisine": "sandwich"}}, {"type": "node", "id": 3070097640, "lat": 35.3171428, "lon": 25.3913072, "tags": {"amenity": "restaurant", "name": "\u0440\u0430\u0437\u043d\u044b\u0435 \u0432\u0435\u0449\u0438", "name:el": "\u0440\u0430\u0437\u043d\u044b\u0435 \u0432\u0435\u0449\u0438"}}, {"type": "node", "id": 3070097644, "lat": 35.3171318, "lon": 25.3915593, "tags": {"amenity": "restaurant", "cuisine": "burger", "name": "MDellys"}}, {"type": "node", "id": 3070132196, "lat": 35.3168714, "lon": 25.3916746, "tags": {"amenity": "restaurant", "name": "Tzitziki"}}, {"type": "node", "id": 3070150093, "lat": 35.3160944, "lon": 25.3927019, "tags": {"amenity": "restaurant", "cuisine": "steak_house"}}, {"type": "node", "id": 3070160911, "lat": 35.3156983, "lon": 25.3929755, "tags": {"amenity": "cafe", "name": "Sugar"}}, {"type": "node", "id": 3072916245, "lat": 35.2678905, "lon": 25.7206741, "tags": {"amenity": "restaurant", "capacity": "30", "cuisine": "regional;greek", "name": "Palio Kantouni", "opening_hours": "Mo-Su 18:30-23:00", "phone": "+302841042206", "smoking": "no"}}, {"type": "node", "id": 3088921112, "lat": 35.3154294, "lon": 25.3934135, "tags": {"amenity": "cafe", "indoor_seating": "yes", "name": "Pietra", "outdoor_seating": "yes", "source": "local knowledge"}}, {"type": "node", "id": 3088938296, "lat": 35.3152543, "lon": 25.3938775, "tags": {"amenity": "cafe", "indoor_seating": "yes", "internet_access": "wlan", "name": "Easy player", "outdoor_seating": "no"}}, {"type": "node", "id": 3088984353, "lat": 35.3146021, "lon": 25.394685, "tags": {"amenity": "cafe", "indoor_seating": "yes", "name": "White Lion", "outdoor_seating": "yes"}}, {"type": "node", "id": 3088984668, "lat": 35.3142825, "lon": 25.3950739, "tags": {"amenity": "restaurant", "name": "Wasabe Sushi & Noodle Bar"}}, {"type": "node", "id": 3089018819, "lat": 35.3125926, "lon": 25.396725, "tags": {"amenity": "cafe", "name": "Woddpecker"}}, {"type": "node", "id": 3089018830, "lat": 35.3131062, "lon": 25.3961144, "tags": {"amenity": "cafe", "name": "Island cafe"}}, {"type": "node", "id": 3089018831, "lat": 35.3134925, "lon": 25.3960327, "tags": {"amenity": "cafe", "name": "Milos"}}, {"type": "node", "id": 3089019163, "lat": 35.3124031, "lon": 25.3969077, "tags": {"amenity": "restaurant", "name": "Sweet Home"}}, {"type": "node", "id": 3089026600, "lat": 35.3121134, "lon": 25.3978071, "tags": {"amenity": "cafe", "name": "Derby"}}, {"type": "node", "id": 3089026976, "lat": 35.312571, "lon": 25.3971779, "tags": {"addr:city": "\u039b\u03b9\u03bc\u03ad\u03bd\u03b1\u03c2 \u03a7\u03b5\u03c1\u03c3\u03bf\u03bd\u03ae\u03c3\u03bf\u03c5", "addr:housenumber": "177", "addr:postcode": "70014", "addr:street": "\u0395\u03bb\u03b5\u03c5\u03b8\u03b5\u03c1\u03af\u03bf\u03c5 \u0392\u03b5\u03bd\u03b9\u03b6\u03ad\u03bb\u03bf\u03c5", "air_conditioning": "yes", "amenity": "restaurant", "bar": "yes", "brand": "Cosmhotel", "brewery": "yes;various", "capacity": "50", "cuisine": "burger;pizza;steak_house;salad", "diet:vegetarian": "yes", "email": "info@pelamariahotel.com", "indoor_seating": "yes", "internet_access": "yes", "level": "0", "name": "Downtown Hersonissos", "opening_hours": "Mo-Su 09:00-02:00", "outdoor_seating": "yes", "phone": "+30 28970 22195", "smoking": "outside", "takeaway": "yes", "website": "https://www.downtownhersonissos.com"}}, {"type": "node", "id": 3089034213, "lat": 35.3119253, "lon": 25.3980671, "tags": {"amenity": "restaurant", "name": "Restaurant Soraya"}}, {"type": "node", "id": 3089034217, "lat": 35.3114071, "lon": 25.3983965, "tags": {"amenity": "cafe", "indoor_seating": "yes", "outdoor_seating": "yes"}}, {"type": "node", "id": 3089046493, "lat": 35.310774, "lon": 25.3994994, "tags": {"amenity": "restaurant", "name": "Kantina"}}, {"type": "node", "id": 3089070940, "lat": 35.3098548, "lon": 25.4013367, "tags": {"amenity": "restaurant", "name:ru": "\u042d\u0432\u0430\u043d \u041a\u0435\u043d\u0438\u0441"}}, {"type": "node", "id": 3114896665, "lat": 35.3129056, "lon": 25.3985428}, {"type": "node", "id": 3114896667, "lat": 35.3129677, "lon": 25.3984312}, {"type": "node", "id": 3114896668, "lat": 35.313004, "lon": 25.3986248}, {"type": "node", "id": 3114896669, "lat": 35.313066, "lon": 25.3985132}, {"type": "node", "id": 3116711504, "lat": 35.3040537, "lon": 25.4182677}, {"type": "node", "id": 3116711505, "lat": 35.3041004, "lon": 25.418165}, {"type": "node", "id": 3129249829, "lat": 35.292792, "lon": 25.437146, "tags": {"amenity": "restaurant", "check_date": "2025-04-02", "name": "Kaliana", "outdoor_seating": "yes", "source": "survey"}}, {"type": "node", "id": 3129346329, "lat": 35.2922694, "lon": 25.4381745, "tags": {"amenity": "restaurant", "name": "Lambros"}}, {"type": "node", "id": 3129346330, "lat": 35.2922362, "lon": 25.4383366, "tags": {"amenity": "restaurant", "name": "El Greco"}}, {"type": "node", "id": 3129348729, "lat": 35.2919337, "lon": 25.4385525, "tags": {"amenity": "restaurant", "name": "Mesogiako"}}, {"type": "node", "id": 3129348829, "lat": 35.2919208, "lon": 25.4387214, "tags": {"amenity": "cafe", "name": "Like caf\u00e9"}}, {"type": "node", "id": 3129349729, "lat": 35.291841, "lon": 25.438941, "tags": {"amenity": "restaurant", "name": "Anatolia"}}, {"type": "node", "id": 3129354129, "lat": 35.2917929, "lon": 25.4394993, "tags": {"amenity": "restaurant", "name": "Beachcomber", "outdoor_seating": "yes"}}, {"type": "node", "id": 3130903729, "lat": 35.190196, "lon": 25.718117, "tags": {"amenity": "restaurant", "name": "Local Grill"}}, {"type": "node", "id": 3130905329, "lat": 35.190365, "lon": 25.718317, "tags": {"amenity": "restaurant", "name": "Dyonysos"}}, {"type": "node", "id": 3130905729, "lat": 35.190506, "lon": 25.718375, "tags": {"amenity": "restaurant", "name": "La Casa"}}, {"type": "node", "id": 3130919229, "lat": 35.1897192, "lon": 25.7173557, "tags": {"addr:housenumber": "6", "addr:street": "\u039d\u03b9\u03ba\u03bf\u03bb\u03ac\u03bf\u03c5 \u03a0\u03bb\u03b1\u03c3\u03c4\u03ae\u03c1\u03b1", "amenity": "restaurant", "cuisine": "italian", "name": "La Strada"}}, {"type": "node", "id": 3131131729, "lat": 35.298481, "lon": 25.728479, "tags": {"air_conditioning": "yes", "amenity": "restaurant", "diet:vegetarian": "yes", "indoor_seating": "yes", "name": "Giorgios", "opening_hours": "Mo-Su 11:00-24:00", "outdoor_seating": "yes", "payment:credit_cards": "yes", "payment:debit_cards": "yes", "smoking": "outside", "toilets": "yes", "toilets:wheelchair": "no", "wheelchair": "limited"}}, {"type": "node", "id": 3131132329, "lat": 35.298636, "lon": 25.728459, "tags": {"amenity": "restaurant", "name": "paliria"}}, {"type": "node", "id": 3131163229, "lat": 35.299815, "lon": 25.727716, "tags": {"amenity": "restaurant", "name": "Delphini"}}, {"type": "node", "id": 3131164429, "lat": 35.299647, "lon": 25.72746, "tags": {"addr:city": "Plaka", "addr:postcode": "720 53", "amenity": "cafe", "cuisine": "cafe;bar;grec;sandwich", "name": "Breeze"}}, {"type": "node", "id": 3131177429, "lat": 35.298273, "lon": 25.727917, "tags": {"amenity": "cafe", "name": "The Pine Tree"}}, {"type": "node", "id": 3131177929, "lat": 35.298437, "lon": 25.727898, "tags": {"amenity": "cafe", "cuisine": "greek;seafood", "internet_access": "yes", "internet_access:fee": "customers", "name": "The Carob Tree", "outdoor_seating": "yes"}}, {"type": "node", "id": 3143294676, "lat": 35.1948367, "lon": 25.4410035}, {"type": "node", "id": 3143294677, "lat": 35.1948497, "lon": 25.440948}, {"type": "node", "id": 3143294678, "lat": 35.1948932, "lon": 25.4410234}, {"type": "node", "id": 3143294679, "lat": 35.1949062, "lon": 25.4409678}, {"type": "node", "id": 3143294687, "lat": 35.2039602, "lon": 25.455515, "tags": {"amenity": "restaurant", "cuisine": "greek"}}, {"type": "node", "id": 3253407961, "lat": 35.3357421, "lon": 25.3453377, "tags": {"addr:city": "ANALIPSI", "addr:country": "GR", "amenity": "restaurant", "capacity": "80", "cuisine": "regional", "name": "ATHINA Snack-Bar", "opening_hours": "09:30-23:00", "smoking": "yes"}}, {"type": "node", "id": 3308465115, "lat": 35.1571916, "lon": 25.6441468, "tags": {"amenity": "cafe", "name": "Saridakis"}}, {"type": "node", "id": 3597425838, "lat": 35.2087523, "lon": 25.7140981}, {"type": "node", "id": 3597425839, "lat": 35.2087523, "lon": 25.7142724}, {"type": "node", "id": 3597425841, "lat": 35.2087773, "lon": 25.7140981}, {"type": "node", "id": 3597425842, "lat": 35.208792, "lon": 25.7142724}, {"type": "node", "id": 3597425843, "lat": 35.208792, "lon": 25.7143596}, {"type": "node", "id": 3597425844, "lat": 35.2088452, "lon": 25.7143596}, {"type": "node", "id": 3597425845, "lat": 35.2088452, "lon": 25.7144567}, {"type": "node", "id": 3597425846, "lat": 35.2088691, "lon": 25.7140981}, {"type": "node", "id": 3597425848, "lat": 35.2088947, "lon": 25.7140979}, {"type": "node", "id": 3597425849, "lat": 35.2089121, "lon": 25.7144103}, {"type": "node", "id": 3597425850, "lat": 35.2089398, "lon": 25.7144092}, {"type": "node", "id": 3597425851, "lat": 35.2089398, "lon": 25.7144567}, {"type": "node", "id": 3609428493, "lat": 35.3328311, "lon": 25.3057812, "tags": {"addr:city": "Gouves", "amenity": "restaurant", "cuisine": "greek", "internet_access": "wlan", "name": "Kyknos Family Taverna", "outdoor_seating": "yes", "phone": "+302897041198", "smoking": "yes", "takeaway": "yes"}}, {"type": "node", "id": 3656545584, "lat": 35.2155219, "lon": 25.4608714}, {"type": "node", "id": 3656545586, "lat": 35.2157164, "lon": 25.4609419}, {"type": "node", "id": 3656545587, "lat": 35.2156759, "lon": 25.4611091}, {"type": "node", "id": 3656545592, "lat": 35.2154814, "lon": 25.4610386}, {"type": "node", "id": 3673492162, "lat": 35.1652124, "lon": 25.4476009}, {"type": "node", "id": 3673492164, "lat": 35.1652284, "lon": 25.4474436}, {"type": "node", "id": 3673492165, "lat": 35.1652379, "lon": 25.4474463}, {"type": "node", "id": 3673492167, "lat": 35.1652669, "lon": 25.4472964}, {"type": "node", "id": 3674118435, "lat": 35.208792, "lon": 25.7143449}, {"type": "node", "id": 3674118439, "lat": 35.2088541, "lon": 25.7144567}, {"type": "node", "id": 3683881083, "lat": 35.2945185, "lon": 25.3573298, "tags": {"amenity": "cafe"}}, {"type": "node", "id": 3695853636, "lat": 35.1913045, "lon": 25.7188008, "tags": {"amenity": "restaurant", "cuisine": "greek", "name": "Creta Embassy", "outdoor_seating": "yes", "phone": "+30 28410 83153", "website": "https://www.cretaembassy.com/", "wheelchair": "yes"}}, {"type": "node", "id": 3702099278, "lat": 35.3370421, "lon": 25.3593802, "tags": {"amenity": "restaurant", "contact:facebook": "https://www.facebook.com/CaptainTable1997", "name": "Captain", "phone": "+30 2897 024800"}}, {"type": "node", "id": 3702099281, "lat": 35.3368975, "lon": 25.3605686, "tags": {"amenity": "restaurant", "name": "Mylos Tropical Restaurant"}}, {"type": "node", "id": 3702099954, "lat": 35.3368695, "lon": 25.359074, "tags": {"access": "permissive", "amenity": "restaurant", "cuisine": "greek", "name": "Thalassa"}}, {"type": "node", "id": 3703769505, "lat": 35.3354293, "lon": 25.3522782, "tags": {"amenity": "restaurant", "cuisine": "greek", "level": "0", "name": "Diktamo", "outdoor_seating": "yes", "reservation": "no", "self_service": "yes", "takeaway": "no", "toilets": "yes", "toilets:access": "customers", "wheelchair": "yes"}}, {"type": "node", "id": 3709884835, "lat": 35.2951663, "lon": 25.4876819, "tags": {"amenity": "restaurant", "cuisine": "greek", "description:en": "home-cooke local food & grill", "name": "Taverna Kalyva", "phone": "+30 6942 555845", "website": "https://www.facebook.com/KalyvaMalia"}}, {"type": "node", "id": 3741483470, "lat": 35.3000163, "lon": 25.7275091, "tags": {"amenity": "restaurant", "name": "Marias Terverna"}}, {"type": "node", "id": 3741483482, "lat": 35.3002037, "lon": 25.7273881, "tags": {"amenity": "restaurant", "name": "Taverna Spinalonga"}}, {"type": "node", "id": 3741483490, "lat": 35.1392322, "lon": 25.6597116, "tags": {"amenity": "restaurant", "name": "Taverne von Manolis Stavrakakis"}}, {"type": "node", "id": 3741483491, "lat": 35.2613897, "lon": 25.7250837, "tags": {"amenity": "restaurant", "name": "The Ferryman"}}, {"type": "node", "id": 3741483492, "lat": 35.2667675, "lon": 25.7198478, "tags": {"amenity": "restaurant", "name": "The Hope"}}, {"type": "node", "id": 3749288497, "lat": 35.2006967, "lon": 25.4847856, "tags": {"amenity": "cafe"}}, {"type": "node", "id": 3749562553, "lat": 35.3078236, "lon": 25.5192456, "tags": {"amenity": "restaurant", "cuisine": "greek", "name": "Apostolos"}}, {"type": "node", "id": 3751360646, "lat": 35.1798059, "lon": 25.5027307, "tags": {"amenity": "restaurant", "cuisine": "greek", "name": "\u039a\u03c1\u03c5\u03c3\u03c4\u03b1\u03bb\u03bb\u03ad\u03bd\u03b9\u03b1", "name:el": "\u039a\u03c1\u03c5\u03c3\u03c4\u03b1\u03bb\u03bb\u03ad\u03bd\u03b9\u03b1", "name:en": "KRYSTALLENIA"}}, {"type": "node", "id": 3751584571, "lat": 35.3067901, "lon": 25.3902847, "tags": {"amenity": "restaurant", "cuisine": "asian", "diet:gluten_free": "yes", "name": "Beijing to Balti"}}, {"type": "node", "id": 3751584572, "lat": 35.3070652, "lon": 25.3894891, "tags": {"amenity": "restaurant", "name": "Atrium Bar Restaurant"}}, {"type": "node", "id": 3751584573, "lat": 35.307338, "lon": 25.3891083, "tags": {"amenity": "restaurant", "name": "Pegasus Restaurant"}}, {"type": "node", "id": 3751767928, "lat": 35.3065319, "lon": 25.3938994, "tags": {"addr:housenumber": "10", "addr:street": "Villa Iokasti Varnali", "amenity": "restaurant", "diet:gluten_free": "yes", "name": "iokasti", "opening_hours": "Mo-Su 08:00-02:00", "phone": "+30 2897 022607"}}, {"type": "node", "id": 3752500733, "lat": 35.3063595, "lon": 25.5169565, "tags": {"amenity": "restaurant", "cuisine": "greek", "name": "Pink Flamingo"}}, {"type": "node", "id": 3752503427, "lat": 35.3063182, "lon": 25.5167571, "tags": {"amenity": "restaurant", "cuisine": "regional", "name": "Elia Taverna"}}, {"type": "node", "id": 3752752695, "lat": 35.307305, "lon": 25.5197234, "tags": {"amenity": "restaurant", "cuisine": "greek", "name": "Mike's Place"}}, {"type": "node", "id": 3752782606, "lat": 35.2928605, "lon": 25.4917974, "tags": {"amenity": "cafe"}}, {"type": "node", "id": 3752839415, "lat": 35.3088831, "lon": 25.5195468, "tags": {"amenity": "cafe", "name": "Avra"}}, {"type": "node", "id": 3753178841, "lat": 35.3091865, "lon": 25.5200004, "tags": {"amenity": "restaurant", "name": "Agistri"}}, {"type": "node", "id": 3753178843, "lat": 35.3090553, "lon": 25.5196598, "tags": {"amenity": "restaurant", "name": "Coba"}}, {"type": "node", "id": 3753178844, "lat": 35.3091801, "lon": 25.5198385, "tags": {"amenity": "restaurant", "name": "Paradosiako"}}, {"type": "node", "id": 3755433269, "lat": 35.2908933, "lon": 25.4355892, "tags": {"amenity": "restaurant", "capacity": "50", "check_date": "2025-04-04", "cuisine": "greek", "name": "Katerina", "smoking": "outside", "takeaway": "no"}}, {"type": "node", "id": 3755440002, "lat": 35.2907175, "lon": 25.4355206, "tags": {"amenity": "restaurant", "check_date": "2025-04-04", "cuisine": "pizza", "delivery": "yes", "name": "Di Marinos", "smoking": "outside", "takeaway": "yes"}}, {"type": "node", "id": 3793590545, "lat": 35.2919482, "lon": 25.4503173}, {"type": "node", "id": 3810082412, "lat": 35.3373308, "lon": 25.3812529}, {"type": "node", "id": 3810082413, "lat": 35.3371853, "lon": 25.3812091}, {"type": "node", "id": 3810082414, "lat": 35.3371648, "lon": 25.3813114}, {"type": "node", "id": 3810082415, "lat": 35.3373104, "lon": 25.3813552}, {"type": "node", "id": 3852677264, "lat": 35.3359661, "lon": 25.3040543}, {"type": "node", "id": 3852677265, "lat": 35.3360556, "lon": 25.3042741}, {"type": "node", "id": 3856128847, "lat": 35.1912113, "lon": 25.7182762, "tags": {"amenity": "restaurant", "name": "Cafe 12"}}, {"type": "node", "id": 3856143952, "lat": 35.1849632, "lon": 25.7138295}, {"type": "node", "id": 3856143953, "lat": 35.1848428, "lon": 25.7137879}, {"type": "node", "id": 3856143955, "lat": 35.1848812, "lon": 25.7136214}, {"type": "node", "id": 3856143956, "lat": 35.1850016, "lon": 25.713663}, {"type": "node", "id": 4076401842, "lat": 35.1564014, "lon": 25.6452143, "tags": {"amenity": "cafe", "indoor_seating": "yes", "outdoor_seating": "yes"}}, {"type": "node", "id": 4208762597, "lat": 35.1251776, "lon": 25.7418809, "tags": {"addr:street": "\u0392\u03cc\u03c1\u03b5\u03b9\u03bf\u03c2 \u039f\u03b4\u03b9\u03ba\u03cc\u03c2 \u0386\u03be\u03bf\u03bd\u03b1\u03c2", "amenity": "restaurant", "cuisine": "greek", "name": "Kavos"}}, {"type": "node", "id": 4209040189, "lat": 35.2925022, "lon": 25.4566747, "tags": {"amenity": "cafe", "cuisine": "greek", "name": "Tavern Theodosis"}}, {"type": "node", "id": 4234524995, "lat": 35.3162856, "lon": 25.3927925, "tags": {"amenity": "restaurant", "name": "\u041a\u0440\u0438\u0442 \u0421\u0442\u0435\u0439\u043a \u0425\u0430\u0443\u0441"}}, {"type": "node", "id": 4245048599, "lat": 35.3136095, "lon": 25.397741, "tags": {"amenity": "restaurant", "name": "MED Cafe Cocktail Food", "website": "https://www.medcafe.gr/"}}, {"type": "node", "id": 4254047391, "lat": 35.1258538, "lon": 25.7404913, "tags": {"amenity": "restaurant", "internet_access": "wlan", "name": "Waterland"}}, {"type": "node", "id": 4256099289, "lat": 35.3343457, "lon": 25.3814591, "tags": {"amenity": "restaurant", "indoor_seating": "yes", "internet_access": "wlan", "name": "The lounge", "outdoor_seating": "yes"}}, {"type": "node", "id": 4266680296, "lat": 35.2897622, "lon": 25.4473216, "tags": {"amenity": "restaurant", "name": "Socrates Taverna"}}, {"type": "node", "id": 4271299198, "lat": 35.2133033, "lon": 25.5219443, "tags": {"addr:street": "\u039d\u03b5\u03ac\u03c0\u03bf\u03bb\u03b7\u03c2 - \u03a4\u03b6\u03b5\u03c1\u03bc\u03b9\u03ac\u03b4\u03bf\u03c5", "amenity": "restaurant", "cuisine": "greek;grill", "diet:vegan": "no", "diet:vegetarian": "yes", "name": "Marianna", "outdoor_seating": "yes"}}, {"type": "node", "id": 4288225603, "lat": 35.131272, "lon": 25.7250641, "tags": {"amenity": "cafe"}}, {"type": "node", "id": 4292677918, "lat": 35.2088925, "lon": 25.714355}, {"type": "node", "id": 4292677931, "lat": 35.2088929, "lon": 25.7143133}, {"type": "node", "id": 4292677933, "lat": 35.2090369, "lon": 25.7142158, "tags": {"amenity": "restaurant", "name": "Il Patio"}}, {"type": "node", "id": 4292677937, "lat": 35.2088942, "lon": 25.7141542}, {"type": "node", "id": 4292677939, "lat": 35.2089092, "lon": 25.7142337, "tags": {"amenity": "cafe", "name": "Kafenio Taverna"}}, {"type": "node", "id": 4292677942, "lat": 35.2089117, "lon": 25.7143548}, {"type": "node", "id": 4293231089, "lat": 35.1700411, "lon": 25.443151, "tags": {"amenity": "restaurant", "name": "Taverna Manos", "name:en": "Taverna Manos", "name:ru": "\u0422\u0430\u0432\u0435\u0440\u043d\u0430 \u041c\u0430\u043d\u043e\u0441"}}, {"type": "node", "id": 4297004297, "lat": 35.3083983, "lon": 25.4032539, "tags": {"amenity": "restaurant", "cuisine": "mediterranean;italian;greek", "internet_access": "wlan", "name": "Red&White", "opening_hours": "Mo-Su 10:00-02:00", "phone": "+30 2897025991"}}, {"type": "node", "id": 4314219589, "lat": 35.2828232, "lon": 25.4656516, "tags": {"amenity": "cafe", "name": "Milos", "name:de": "Milos Taverna"}}, {"type": "node", "id": 4314219689, "lat": 35.2914665, "lon": 25.4607503, "tags": {"addr:city": "Malia", "addr:housenumber": "96", "addr:postcode": "70007", "addr:street": "\u0394\u03b7\u03bc\u03bf\u03ba\u03c1\u03b1\u03c4\u03af\u03b1\u03c2", "amenity": "restaurant", "bar": "yes", "brewery": "various;Guinness;Heineken;Krombacher;Paulaner;L\u00f6wenbr\u00e4u;yes", "cuisine": "steak_house;regional;burger;coffee_shop;kebab;chicken;ice_cream;greek;international;seafood", "delivery": "yes", "description": "In Malia and in our hearts since 1999 | BBQ Smokehouse | Steakhouse", "diet:gluten_free": "yes", "diet:meat": "yes", "diet:non-vegetarian": "yes", "diet:pescetarian": "yes", "diet:raw": "yes", "diet:vegetarian": "yes", "email": "info@redlion.gr", "image": "https://redlion.gr/wp-content/uploads/2023/03/out-e1679557789111.jpg", "internet_access": "wlan", "internet_access:fee": "no", "name": "the Red Lion bar & restaurant", "opening_hours": "May-Oct: 11:00-24:00", "outdoor_seating": "yes", "phone": "+30 28970 33803", "reservation": "yes", "start_date": "1999", "takeaway": "yes", "website": "https://www.redlion.gr"}}, {"type": "node", "id": 4325885900, "lat": 35.3285922, "lon": 25.3189424, "tags": {"amenity": "restaurant", "cuisine": "greek_and_international", "name": "Rainbow"}}, {"type": "node", "id": 4325885902, "lat": 35.3321353, "lon": 25.31801, "tags": {"amenity": "restaurant", "cuisine": "greek,_international", "name": "Mylos"}}, {"type": "node", "id": 4330492911, "lat": 35.292174, "lon": 25.5123831, "tags": {"amenity": "restaurant", "cuisine": "greek;grill", "name": "Aetos"}}, {"type": "node", "id": 4330500315, "lat": 35.3081723, "lon": 25.3718379, "tags": {"amenity": "restaurant", "name": "Taverna Margo"}}, {"type": "node", "id": 4330501015, "lat": 35.3077153, "lon": 25.3722693, "tags": {"amenity": "restaurant", "name": "1930"}}, {"type": "node", "id": 4348766257, "lat": 35.2070617, "lon": 25.5883389, "tags": {"amenity": "restaurant", "cuisine": "greek"}}, {"type": "node", "id": 4348766258, "lat": 35.2264563, "lon": 25.6041975, "tags": {"amenity": "restaurant", "cuisine": "greek"}}, {"type": "node", "id": 4353514192, "lat": 35.3295741, "lon": 25.3021228, "tags": {"amenity": "restaurant", "name": "Taverna Asteria", "opening_hours": "Mo-Su 12:00-01:00"}}, {"type": "node", "id": 4374246935, "lat": 35.2821274, "lon": 25.4628847, "tags": {"addr:city": "\u039c\u03ac\u03bb\u03b9\u03b1", "addr:postcode": "700 07", "addr:street": "\u03a0\u03bb\u03b1\u03c4\u03b5\u03af\u03b1 \u0386\u03b3\u03b9\u03bf\u03c2 \u0394\u03b7\u03bc\u03b7\u03c4\u03c1\u03af\u03bf\u03c5", "amenity": "restaurant", "cuisine": "greek", "name": "Elisabeth and Stablos"}}, {"type": "node", "id": 4375151621, "lat": 35.2908517, "lon": 25.4606281, "tags": {"addr:city": "Malia", "addr:housenumber": "127", "addr:street": "Dimokratias", "air_conditioning": "no", "amenity": "restaurant", "capacity": "100", "check_date": "2024-10-28", "check_date:smoking": "2024-10-28", "cuisine": "regional,_pizza,_pasta,_etc", "delivery": "yes", "name": "Sirtaki", "opening_hours": "13:00-03:00", "payment:credit_cards": "yes", "payment:debit_cards": "yes", "smoking": "yes", "takeaway": "no"}}, {"type": "node", "id": 4382568090, "lat": 35.2198516, "lon": 25.460053, "tags": {"addr:street": "Kera, Chersonissos", "amenity": "restaurant", "cuisine": "greek", "email": "food@nikitaverna.gr", "internet_access": "wlan", "name": "Taverna Niki", "name:de": "Taverna Niki", "name:el": "Taberna Niki", "operator": "Marazaki Niki", "phone": "+302897051204", "website": "http://www.nikitaverna.gr"}}, {"type": "node", "id": 4394671526, "lat": 35.3152476, "lon": 25.3969367, "tags": {"amenity": "restaurant", "check_date": "2023-10-03", "name": "Akrogiali", "name:en": "Akrogiali", "opening_hours": "Mo-Su 13:00-01:00"}}, {"type": "node", "id": 4400887819, "lat": 35.1910377, "lon": 25.7164526, "tags": {"addr:city": "\u0386\u03b3\u03b9\u03bf\u03c2 \u039d\u03b9\u03ba\u03cc\u03bb\u03b1\u03bf\u03c2", "addr:housenumber": "10", "addr:postcode": "72100", "addr:street": "\u0394\u03b9\u03bf\u03bd\u03c5\u03c3\u03af\u03bf\u03c5 \u03a3\u03bf\u03bb\u03c9\u03bc\u03bf\u03cd", "amenity": "restaurant", "capacity": "~50", "cuisine": "regional", "delivery": "no", "description": "Takes bookings, Walk-ins welcome, Good for groups or parties, Good for children, Table service and Outdoor seating", "ele": "-1", "internet_access": "wlan", "name": "Gioma meze", "opening_hours": "13:00-01:00", "outdoor_seating": "yes", "smoking": "outside", "takeaway": "no"}}, {"type": "node", "id": 4402775834, "lat": 35.1912262, "lon": 25.7171945}, {"type": "node", "id": 4402775837, "lat": 35.191189, "lon": 25.717252}, {"type": "node", "id": 4402775838, "lat": 35.1912922, "lon": 25.7173519}, {"type": "node", "id": 4406077828, "lat": 35.3197136, "lon": 25.3915303, "tags": {"amenity": "restaurant", "indoor_seating": "yes", "name": "Friet van Piet", "outdoor_seating": "no"}}, {"type": "node", "id": 4406077829, "lat": 35.3196065, "lon": 25.3915347, "tags": {"amenity": "restaurant", "name": "Manias Grill House"}}, {"type": "node", "id": 4406077839, "lat": 35.3042789, "lon": 25.4183741}, {"type": "node", "id": 4406077840, "lat": 35.3043139, "lon": 25.4182697}, {"type": "node", "id": 4406077841, "lat": 35.3056155, "lon": 25.4187759}, {"type": "node", "id": 4406077842, "lat": 35.3056339, "lon": 25.4186559}, {"type": "node", "id": 4406077843, "lat": 35.3057367, "lon": 25.4188104}, {"type": "node", "id": 4406077844, "lat": 35.3057582, "lon": 25.4186862}, {"type": "node", "id": 4406077865, "lat": 35.3070602, "lon": 25.4036305, "tags": {"amenity": "restaurant", "cuisine": "greek", "name": "Tarantella"}}, {"type": "node", "id": 4406077866, "lat": 35.3072087, "lon": 25.40347, "tags": {"amenity": "restaurant", "cuisine": "greek", "name": "Yamas"}}, {"type": "node", "id": 4406182350, "lat": 35.2928652, "lon": 25.4308751, "tags": {"amenity": "restaurant", "name": "Amici"}}, {"type": "node", "id": 4406182353, "lat": 35.2933095, "lon": 25.4279082, "tags": {"amenity": "restaurant", "cuisine": "greek", "name": "Hellas"}}, {"type": "node", "id": 4406182354, "lat": 35.2930044, "lon": 25.4314214, "tags": {"amenity": "restaurant", "cuisine": "chinese", "name": "Jasmin House"}}, {"type": "node", "id": 4406182356, "lat": 35.2974457, "lon": 25.4228158, "tags": {"amenity": "restaurant", "check_date": "2025-04-03", "cuisine": "greek", "name": "Maistrali"}}, {"type": "node", "id": 4406182357, "lat": 35.2935749, "lon": 25.4297458, "tags": {"amenity": "restaurant", "check_date": "2025-04-03", "cuisine": "greek", "name": "Marias House"}}, {"type": "node", "id": 4406182362, "lat": 35.2969999, "lon": 25.423178, "tags": {"amenity": "restaurant", "cuisine": "greek", "name": "Pelagos"}}, {"type": "node", "id": 4406182367, "lat": 35.2938659, "lon": 25.4277136, "tags": {"amenity": "restaurant", "cuisine": "greek;pizza", "name": "Maria's Golden Beach"}}, {"type": "node", "id": 4406183393, "lat": 35.2941044, "lon": 25.4275589, "tags": {"addr:city": "\u03a3\u03c4\u03b1\u03bb\u03af\u03b4\u03b1", "addr:housenumber": "148", "addr:street": "Agiou Ioannou", "amenity": "restaurant", "name": "Finikas Cafe Bar"}}, {"type": "node", "id": 4406183399, "lat": 35.2964109, "lon": 25.423698, "tags": {"amenity": "restaurant", "cuisine": "seafood", "name": "To Koima"}}, {"type": "node", "id": 4408147518, "lat": 35.2932293, "lon": 25.4304892, "tags": {"amenity": "restaurant", "name": "Robin Hood"}}, {"type": "node", "id": 4411611026, "lat": 35.2982888, "lon": 25.4221819, "tags": {"amenity": "cafe", "name": "Electra Cafe Bar"}}, {"type": "node", "id": 4411611028, "lat": 35.2979119, "lon": 25.4226832, "tags": {"amenity": "restaurant", "check_date": "2025-04-03", "cuisine": "greek", "name": "Romantic Corner", "outdoor_seating": "yes"}}, {"type": "node", "id": 4413208440, "lat": 35.2821549, "lon": 25.4624255, "tags": {"amenity": "cafe", "name": "Gianis Cafe Bar"}}, {"type": "node", "id": 4413208441, "lat": 35.2826057, "lon": 25.4615668, "tags": {"amenity": "restaurant", "cuisine": "greek", "name": "Odas", "outdoor_seating": "yes"}}, {"type": "node", "id": 4413208457, "lat": 35.2822417, "lon": 25.4630119, "tags": {"amenity": "restaurant", "cuisine": "greek", "name": "Toto Lotto"}}, {"type": "node", "id": 4416218944, "lat": 35.1885128, "lon": 25.7210375, "tags": {"amenity": "restaurant", "cuisine": "regional", "name": "Ofou to lo", "outdoor_seating": "yes"}}, {"type": "node", "id": 4424584650, "lat": 35.3063965, "lon": 25.4100223}, {"type": "node", "id": 4424584652, "lat": 35.306455, "lon": 25.4095719}, {"type": "node", "id": 4424584655, "lat": 35.3065086, "lon": 25.4100442}, {"type": "node", "id": 4424584657, "lat": 35.3065672, "lon": 25.4095938}, {"type": "node", "id": 4430453249, "lat": 35.188407, "lon": 25.7168933, "tags": {"amenity": "cafe", "name": "Box Cafe"}}, {"type": "node", "id": 4431102489, "lat": 35.3196662, "lon": 25.3901333, "tags": {"amenity": "restaurant"}}, {"type": "node", "id": 4434651691, "lat": 35.3231116, "lon": 25.3892668, "tags": {"amenity": "restaurant", "name:en": "Coast Cafe"}}, {"type": "node", "id": 4436220789, "lat": 35.2639788, "lon": 25.7213931, "tags": {"addr:housenumber": "33", "addr:street": "posidonos bay", "amenity": "restaurant", "cuisine": "regional", "description": "Traditional Greek Restaurant", "name": "Vachus", "name:en": "Vachus", "opening_hours": "Mo-Su 00:00-23:00", "phone": "+30 2841 041380"}}, {"type": "node", "id": 4441946923, "lat": 35.190048, "lon": 25.7168572}, {"type": "node", "id": 4441946924, "lat": 35.1900882, "lon": 25.7169011}, {"type": "node", "id": 4441946925, "lat": 35.1901425, "lon": 25.7168254}, {"type": "node", "id": 4441946927, "lat": 35.1900638, "lon": 25.7169728}, {"type": "node", "id": 4441946928, "lat": 35.1900828, "lon": 25.7169994}, {"type": "node", "id": 4441946929, "lat": 35.1900202, "lon": 25.7170983}, {"type": "node", "id": 4441946930, "lat": 35.1899403, "lon": 25.7170139}, {"type": "node", "id": 4452306017, "lat": 35.3039141, "lon": 25.5251828, "tags": {"amenity": "restaurant", "name": "Liofito"}}, {"type": "node", "id": 4452306018, "lat": 35.3079657, "lon": 25.5205923, "tags": {"amenity": "restaurant", "cuisine": "regional", "name": "Drosia"}}, {"type": "node", "id": 4453387789, "lat": 35.2578842, "lon": 25.6606769, "tags": {"addr:city": "\u03a6\u03bf\u03c5\u03c1\u03bd\u03ae", "addr:postcode": "72400", "amenity": "restaurant", "contact:phone": "+30 2841 031001", "name": "\u03a3\u03c4\u03bf \u039a\u03b1\u03b6\u03ac\u03bd\u03b9", "name:el": "\u03a3\u03c4\u03bf \u039a\u03b1\u03b6\u03ac\u03bd\u03b9"}}, {"type": "node", "id": 4453616497, "lat": 35.1875435, "lon": 25.716953, "tags": {"amenity": "restaurant"}}, {"type": "node", "id": 4455493194, "lat": 35.1883674, "lon": 25.7148994, "tags": {"amenity": "restaurant", "name": "\u0391\u03c1\u03c7\u03bf\u03bd\u03c4\u03b9\u03ba\u03cc"}}, {"type": "node", "id": 4459342507, "lat": 35.1904266, "lon": 25.7183389, "tags": {"amenity": "restaurant", "name:en": "Ntakos Cretan Cuisine"}}, {"type": "node", "id": 4464367301, "lat": 35.2829943, "lon": 25.4609987, "tags": {"amenity": "restaurant", "internet_access": "wlan", "name": "\u03a4\u03b1\u03b2\u03ad\u03c1\u03bd\u03b1 \u0391\u03bb\u03ad\u03be\u03b7\u03c2", "name:de": "Taverna Alexis", "name:el": "\u03a4\u03b1\u03b2\u03ad\u03c1\u03bd\u03b1 \u0391\u03bb\u03ad\u03be\u03b7\u03c2", "name:en": "Taverna Alexis", "opening_hours": "Mo-Su 13:00-24:00"}}, {"type": "node", "id": 4469609789, "lat": 35.2814991, "lon": 25.4615601, "tags": {"amenity": "restaurant", "name": "San Giorgio"}}, {"type": "node", "id": 4506240426, "lat": 35.3084603, "lon": 25.5212775, "tags": {"amenity": "restaurant", "name": "Taverna Anatol"}}, {"type": "node", "id": 4506240430, "lat": 35.3051984, "lon": 25.5124051, "tags": {"amenity": "restaurant", "description:en": "cafe taverna restaurant", "name": "Klimataria Elena"}}, {"type": "node", "id": 4506240432, "lat": 35.3052454, "lon": 25.5140674, "tags": {"amenity": "restaurant", "cuisine": "regional", "name": "Edem"}}, {"type": "node", "id": 4506240434, "lat": 35.3091186, "lon": 25.5202529, "tags": {"amenity": "restaurant", "cuisine": "regional", "name": "Elite"}}, {"type": "node", "id": 4506240435, "lat": 35.3091722, "lon": 25.5201107, "tags": {"amenity": "restaurant", "name": "Fisherman's Place"}}, {"type": "node", "id": 4506240439, "lat": 35.3081758, "lon": 25.5202792, "tags": {"amenity": "cafe", "name": "Flavour", "shop": "bakery"}}, {"type": "node", "id": 4506240440, "lat": 35.3069815, "lon": 25.5219154, "tags": {"amenity": "cafe", "name": "\u039a\u03b1\u03bb\u03b7\u03bc\u03b5\u03c1\u03b1 \u03a3\u03b9\u03c3\u03b9", "name:el": "\u039a\u03b1\u03bb\u03b7\u03bc\u03b5\u03c1\u03b1 \u03a3\u03b9\u03c3\u03b9", "name:en": "Kalimera Sissi"}}, {"type": "node", "id": 4506240444, "lat": 35.3075188, "lon": 25.5211695, "tags": {"amenity": "restaurant", "cuisine": "regional", "name": "Menios"}}, {"type": "node", "id": 4508394173, "lat": 35.3089001, "lon": 25.5198874, "tags": {"amenity": "restaurant", "name": "Fisherman's Place"}}, {"type": "node", "id": 4530782018, "lat": 35.232524, "lon": 25.7281115, "tags": {"addr:city": "Elleniki", "amenity": "restaurant", "capacity": "30", "check_date": "2024-09-13", "cuisine": "regional", "delivery": "no", "name": "Terrassa", "smoking": "outside", "takeaway": "no"}}, {"type": "node", "id": 4567167633, "lat": 35.3265177, "lon": 25.3221497, "tags": {"amenity": "restaurant", "name": "Club Lyda Hotel"}}, {"type": "node", "id": 4572194395, "lat": 35.190704, "lon": 25.7216997, "tags": {"addr:housenumber": "9", "addr:street": "\u0391\u03ba\u03c4\u03ae \u0398\u03b5\u03bc\u03b9\u03c3\u03c4\u03bf\u03ba\u03bb\u03ad\u03bf\u03c5\u03c2", "amenity": "restaurant", "cuisine": "grill;greek;mediterranean", "int_name": "Paradosiako", "internet_access": "wlan", "level": "0", "name": "\u03a0\u03b1\u03c1\u03b1\u03b4\u03bf\u03c3\u03b9\u03b1\u03ba\u03cc", "opening_hours": "Mo-Su 12:00-01:00; Nov-Mar off", "phone": "+302841021666", "start_date": "2003", "website": "https://paradosiako-crete.gr/"}}, {"type": "node", "id": 4657524137, "lat": 35.306248, "lon": 25.4042224}, {"type": "node", "id": 4657524343, "lat": 35.3061668, "lon": 25.4051838, "tags": {"amenity": "restaurant", "cuisine": "greek", "name": "Theodora's Garden", "outdoor_seating": "yes"}}, {"type": "node", "id": 4678004389, "lat": 35.323229, "lon": 25.3891498, "tags": {"addr:city": "Hersonissos", "addr:postcode": "70014", "addr:street": "Navarchou Nearchou", "amenity": "restaurant", "capacity": "140", "cuisine": "greek", "name": "Infinity Blue Restaurant", "opening_hours": "09:00 - 02:00", "outdoor_seating": "yes", "smoking": "outside", "takeaway": "yes"}}, {"type": "node", "id": 4750844840, "lat": 35.3345891, "lon": 25.3479195, "tags": {"amenity": "cafe", "internet_access": "wlan", "name": "Club Caf\u00e9"}}, {"type": "node", "id": 4755502550, "lat": 35.1824102, "lon": 25.7120929}, {"type": "node", "id": 4755502551, "lat": 35.1823155, "lon": 25.7123451}, {"type": "node", "id": 4755502552, "lat": 35.1822069, "lon": 25.7122841}, {"type": "node", "id": 4755502553, "lat": 35.1823016, "lon": 25.7120319}, {"type": "node", "id": 4755502574, "lat": 35.1823458, "lon": 25.712593}, {"type": "node", "id": 4755502575, "lat": 35.1824022, "lon": 25.712631}, {"type": "node", "id": 4755502576, "lat": 35.1823529, "lon": 25.7127405}, {"type": "node", "id": 4755502577, "lat": 35.1824016, "lon": 25.7127733}, {"type": "node", "id": 4755502578, "lat": 35.1823505, "lon": 25.7128869}, {"type": "node", "id": 4755502579, "lat": 35.1822892, "lon": 25.7128456}, {"type": "node", "id": 4755502580, "lat": 35.1823156, "lon": 25.7127871}, {"type": "node", "id": 4755502581, "lat": 35.1822717, "lon": 25.7127576}, {"type": "node", "id": 4763995850, "lat": 35.1568736, "lon": 25.647313, "tags": {"amenity": "cafe"}}, {"type": "node", "id": 4807808623, "lat": 35.319888, "lon": 25.6929761}, {"type": "node", "id": 4807808637, "lat": 35.3201683, "lon": 25.6933914}, {"type": "node", "id": 4807808638, "lat": 35.3199907, "lon": 25.6933051}, {"type": "node", "id": 4807808640, "lat": 35.32, "lon": 25.693204}, {"type": "node", "id": 4807808642, "lat": 35.3199637, "lon": 25.6934763}, {"type": "node", "id": 4807808643, "lat": 35.3198682, "lon": 25.6934683}, {"type": "node", "id": 4808652216, "lat": 35.3349193, "lon": 25.699788}, {"type": "node", "id": 4808652217, "lat": 35.3352145, "lon": 25.699867}, {"type": "node", "id": 4849420507, "lat": 35.1583868, "lon": 25.7165285, "tags": {"amenity": "restaurant", "name": "Blue Aegean"}}, {"type": "node", "id": 4849888240, "lat": 35.1586683, "lon": 25.7161769, "tags": {"amenity": "restaurant", "cuisine": "greek;regional", "name": "Olive Tree"}}, {"type": "node", "id": 4849888241, "lat": 35.1589616, "lon": 25.7160309, "tags": {"amenity": "restaurant", "cuisine": "italian", "name": "Marino Al Mare"}}, {"type": "node", "id": 4851148846, "lat": 35.1583482, "lon": 25.7174039}, {"type": "node", "id": 4851148847, "lat": 35.1583923, "lon": 25.7174301}, {"type": "node", "id": 4851148848, "lat": 35.1584149, "lon": 25.7173731}, {"type": "node", "id": 4851148849, "lat": 35.1583709, "lon": 25.7173469}, {"type": "node", "id": 4851156506, "lat": 35.1583601, "lon": 25.717411}, {"type": "node", "id": 4873944211, "lat": 35.1941708, "lon": 25.7128482}, {"type": "node", "id": 4873944212, "lat": 35.1941335, "lon": 25.7125344}, {"type": "node", "id": 4873944213, "lat": 35.193945, "lon": 25.712757}, {"type": "node", "id": 4873944214, "lat": 35.1940129, "lon": 25.7128106}, {"type": "node", "id": 4873990720, "lat": 35.1886619, "lon": 25.716642}, {"type": "node", "id": 4873991222, "lat": 35.1887016, "lon": 25.7165836}, {"type": "node", "id": 4873991224, "lat": 35.1887807, "lon": 25.716617}, {"type": "node", "id": 4882007139, "lat": 35.191755, "lon": 25.7185988, "tags": {"amenity": "restaurant", "cuisine": "seafood", "diet:vegan": "yes", "diet:vegetarian": "yes", "name": "Pelagos"}}, {"type": "node", "id": 4885184306, "lat": 35.1908492, "lon": 25.7202504, "tags": {"addr:housenumber": "8", "addr:street": "\u0391\u03ba\u03c4\u03ae \u0399\u03c9\u03c3\u03ae\u03c6 \u039a\u03bf\u03cd\u03bd\u03b4\u03bf\u03c5\u03c1\u03bf\u03c5", "amenity": "restaurant", "cuisine": "cretan", "delivery": "no", "ele": "2", "name": "Piato", "outdoor_seating": "yes", "phone": "+30-2841-089494", "website": "https://piato.com.gr/"}}, {"type": "node", "id": 4885711965, "lat": 35.3113557, "lon": 25.7087813, "tags": {"amenity": "restaurant"}}, {"type": "node", "id": 4885711966, "lat": 35.3216301, "lon": 25.7209791, "tags": {"amenity": "cafe"}}, {"type": "node", "id": 4885711967, "lat": 35.3157958, "lon": 25.7324622, "tags": {"amenity": "restaurant"}}, {"type": "node", "id": 4885711968, "lat": 35.3167569, "lon": 25.7334911, "tags": {"amenity": "cafe"}}, {"type": "node", "id": 4885711969, "lat": 35.3165568, "lon": 25.7337817, "tags": {"amenity": "cafe"}}, {"type": "node", "id": 4885711970, "lat": 35.3201832, "lon": 25.6932294}, {"type": "node", "id": 4885711972, "lat": 35.3199762, "lon": 25.6932495}, {"type": "node", "id": 4885711973, "lat": 35.3352617, "lon": 25.6996013}, {"type": "node", "id": 4895782421, "lat": 35.2895697, "lon": 25.4964153, "tags": {"amenity": "restaurant", "cuisine": "greek", "name:en": "Zacharia's taverna"}}, {"type": "node", "id": 4897841414, "lat": 35.2023781, "lon": 25.7036151, "tags": {"amenity": "cafe", "name": "\u0393\u03cd\u03c0\u03b1\u03c2"}}, {"type": "node", "id": 4898319296, "lat": 35.1873468, "lon": 25.7144849, "tags": {"addr:housenumber": "3", "addr:street": "Anapafseos", "amenity": "restaurant", "int_name": "Portes", "name": "\u03a0\u03cc\u03c1\u03c4\u03b5\u03c2", "phone": "+30-2841-028489"}}, {"type": "node", "id": 4898319297, "lat": 35.1875911, "lon": 25.7144768, "tags": {"amenity": "cafe", "cuisine": "greek"}}, {"type": "node", "id": 4898319300, "lat": 35.188186, "lon": 25.7155393, "tags": {"addr:housenumber": "6", "addr:street": "\u03a1\u03bf\u03cd\u03c3\u03c3\u03bf\u03c5 \u039a\u03b1\u03c0\u03b5\u03c4\u03b1\u03bd\u03ac\u03ba\u03b7", "amenity": "cafe", "name": "Caffeine", "outdoor_seating": "yes", "phone": "+302841300902"}}, {"type": "node", "id": 4898319301, "lat": 35.1884115, "lon": 25.7151941, "tags": {"amenity": "restaurant", "cuisine": "italian"}}, {"type": "node", "id": 4898319305, "lat": 35.1887024, "lon": 25.7162449, "tags": {"amenity": "cafe"}}, {"type": "node", "id": 4898319316, "lat": 35.1874042, "lon": 25.7171734, "tags": {"amenity": "restaurant", "cuisine": "pizza", "internet_access": "wlan", "opening_hours": "Mo-Sa 12:00-16:00,18:00-24:00; Su 18:30-24:00", "outdoor_seating": "yes", "reservation": "yes", "wheelchair": "no"}}, {"type": "node", "id": 4898319317, "lat": 35.187746, "lon": 25.7165647, "tags": {"amenity": "cafe"}}, {"type": "node", "id": 4898342288, "lat": 35.1903642, "lon": 25.7134088, "tags": {"amenity": "cafe", "cuisine": "sandwich", "internet_access": "yes", "internet_access:fee": "customers", "name": "Il Cafe", "outdoor_seating": "yes"}}, {"type": "node", "id": 4898342290, "lat": 35.1916742, "lon": 25.7126887, "tags": {"amenity": "cafe"}}, {"type": "node", "id": 4898342294, "lat": 35.1926662, "lon": 25.711719, "tags": {"amenity": "cafe"}}, {"type": "node", "id": 4898342295, "lat": 35.19305, "lon": 25.7115285, "tags": {"amenity": "cafe"}}, {"type": "node", "id": 4898342298, "lat": 35.1943738, "lon": 25.7128271, "tags": {"amenity": "cafe", "name": "\u03a4\u03bf \u03ba\u03b1\u03c6\u03b5\u03bd\u03b5\u03b4\u03ac\u03ba\u03b9"}}, {"type": "node", "id": 4898342299, "lat": 35.1945133, "lon": 25.7128007, "tags": {"addr:city": "\u0386\u03b3\u03b9\u03bf\u03c2 \u039d\u03b9\u03ba\u03cc\u03bb\u03b1\u03bf\u03c2", "addr:country": "GR", "addr:postcode": "72100", "amenity": "cafe", "delivery": "yes", "int_name": "filema", "level": "0", "name": "filema", "name:el": "filema", "takeaway": "yes"}}, {"type": "node", "id": 4898342303, "lat": 35.1953084, "lon": 25.7127112, "tags": {"amenity": "cafe", "name": "\u0392\u03b9\u03c3\u03ba\u03b1\u03b4\u03bf\u03cd\u03c1\u03bf\u03c2"}}, {"type": "node", "id": 4899934678, "lat": 35.1977567, "lon": 25.7102654, "tags": {"amenity": "cafe"}}, {"type": "node", "id": 4899934680, "lat": 35.1975451, "lon": 25.7106742, "tags": {"amenity": "cafe", "name": "\u03a4\u03b1 \u039c\u03c0\u03bf\u03c5\u03b6\u03bf\u03cd\u03ba\u03b9\u03b1", "outdoor_seating": "yes"}}, {"type": "node", "id": 4899934681, "lat": 35.1974709, "lon": 25.710765, "tags": {"amenity": "cafe", "outdoor_seating": "yes"}}, {"type": "node", "id": 4899934696, "lat": 35.1900189, "lon": 25.7180489, "tags": {"amenity": "cafe", "contact:facebook": "https://www.facebook.com/dulaccafebar/", "name": "Du lac", "outdoor_seating": "yes", "phone": "+302841026837"}}, {"type": "node", "id": 4899934707, "lat": 35.1868739, "lon": 25.7153144, "tags": {"amenity": "restaurant", "cuisine": "pizza;international;greek;seafood", "name": "Basilico", "outdoor_seating": "yes", "phone": "+30-284-1026086", "smoking": "no", "takeaway": "yes"}}, {"type": "node", "id": 4899934715, "lat": 35.1867243, "lon": 25.7151876, "tags": {"amenity": "restaurant"}}, {"type": "node", "id": 4899934720, "lat": 35.1919229, "lon": 25.7180064, "tags": {"addr:housenumber": "12", "amenity": "restaurant", "name": "\u0391\u03c5\u03bb\u03ae"}}, {"type": "node", "id": 4899937021, "lat": 35.1924474, "lon": 25.7183869, "tags": {"addr:city": "\u0386\u03b3\u03b9\u03bf\u03c2 \u039d\u03b9\u03ba\u03cc\u03bb\u03b1\u03bf\u03c2", "addr:housenumber": "14;16", "addr:postcode": "72100", "addr:street": "\u039a\u03b1\u03bd\u03c4\u03b1\u03bd\u03bf\u03bb\u03ad\u03bf\u03bd\u03c4\u03bf\u03c2", "amenity": "cafe", "ele": "1", "email": "arodocafe@gmail.com", "internet_access": "wlan", "internet_access:fee": "no", "name": "\u0391\u03c1\u03cc\u03b4\u03bf", "name:el-Latn": "Arodo", "opening_hours": "Mo-Su 11:00-01:00+", "outdoor_seating": "yes", "phone": "+302841181051"}}, {"type": "node", "id": 4899937022, "lat": 35.1925888, "lon": 25.7183657, "tags": {"amenity": "cafe"}}, {"type": "node", "id": 4913483170, "lat": 35.3040265, "lon": 25.5251775}, {"type": "node", "id": 4913483171, "lat": 35.3039794, "lon": 25.5252352}, {"type": "node", "id": 4913483172, "lat": 35.303912, "lon": 25.5251259}, {"type": "node", "id": 4913483173, "lat": 35.3039415, "lon": 25.5251}, {"type": "node", "id": 4913483174, "lat": 35.3039738, "lon": 25.5251457}, {"type": "node", "id": 4913483175, "lat": 35.303997, "lon": 25.525137}, {"type": "node", "id": 4933948523, "lat": 35.3160462, "lon": 25.3923488, "tags": {"amenity": "cafe", "internet_access": "wlan", "name:en": "Yanis cafe (home cuisine)"}}, {"type": "node", "id": 4939268025, "lat": 35.1250803, "lon": 25.7395588, "tags": {"addr:postcode": "72100", "addr:street": "\u0386\u03b3\u03b9\u03bf\u03c2 \u039d\u03b9\u03ba\u03cc\u03bb\u03b1\u03bf\u03c2 - \u03a3\u03b7\u03c4\u03b5\u03af\u03b1", "amenity": "restaurant", "cuisine": "regional", "name": "\u039c\u03b1\u03bc\u03ac \u039b\u03bf\u03c5\u03ba\u03af\u03b1 & \u039b\u03bf\u03c4\u03b6\u03b5\u03c4\u03b1", "name:el": "\u039c\u03b1\u03bc\u03ac \u039b\u03bf\u03c5\u03ba\u03af\u03b1 & \u039b\u03bf\u03c4\u03b6\u03b5\u03c4\u03b1", "name:en": "Mama lukia & Lotzeta", "opening_hours": "Tu-Su 09:00-21:00", "phone": "2841061806"}}, {"type": "node", "id": 4960420322, "lat": 35.3110218, "lon": 25.4012406, "tags": {"addr:city": "Hersonissos", "addr:postcode": "70014", "addr:street": "25is Martiou", "amenity": "restaurant", "bar": "yes", "cuisine": "pizza;regional;burger;italian;greek;fish", "name": "Porto Greco Beach Bar - Restaurant", "opening_hours": "24/7", "outdoor_seating": "yes", "phone": "+30 28970 25031", "website": "https:\\\\www.portogrecovillage.com"}}, {"type": "node", "id": 4960420323, "lat": 35.3116116, "lon": 25.4008079, "tags": {"addr:city": "Hersonissos", "addr:postcode": "70014", "addr:street": "25is Martiou", "amenity": "restaurant", "bar": "yes", "brand": "Cosmhotel", "check_date": "2023-10-03", "cuisine": "pizza;regional;burger;coffee_shop;italian;ice_cream;sushi;greek;international;seafood;fish", "internet_access": "wlan", "name": "King Scorpio Beach Bar - Restaurant", "opening_hours": "24/7", "phone": "+30 28970 25031", "website": "https://www.scorpiobeachbar.com"}}, {"type": "node", "id": 4960420325, "lat": 35.3132184, "lon": 25.3980176, "tags": {"amenity": "restaurant", "level": "0", "name": "Veranda"}}, {"type": "node", "id": 4960420326, "lat": 35.3156339, "lon": 25.3954338, "tags": {"amenity": "restaurant", "name": "fresh sushi bar", "name:en": "Fresh"}}, {"type": "node", "id": 4960420327, "lat": 35.316661, "lon": 25.3934751, "tags": {"amenity": "restaurant", "cuisine": "mediterranean", "name": "\u03a1\u03bf\u03cd\u03c3\u03c4\u03b9\u03ba\u03bf", "name:el": "\u03a1\u03bf\u03cd\u03c3\u03c4\u03b9\u03ba\u03bf", "name:en": "Rustico", "opening_hours": "Mo-Su 10:00-24:00"}}, {"type": "node", "id": 4960430922, "lat": 35.3162398, "lon": 25.3940877, "tags": {"amenity": "cafe"}}, {"type": "node", "id": 4960430923, "lat": 35.3210857, "lon": 25.3915868, "tags": {"amenity": "restaurant", "indoor_seating": "yes", "name:en": "Il camino pizza", "name:ru": "\u041f\u0438\u0446\u0446\u0435\u0440\u0438\u044f \u0418\u043b\u044c \u043a\u0430\u043c\u0438\u043d\u043e", "outdoor_seating": "yes"}}, {"type": "node", "id": 4960431222, "lat": 35.3161082, "lon": 25.3945231, "tags": {"addr:housenumber": "14 25", "addr:street": "martiou", "amenity": "restaurant", "name:en": "Palmera seaside restaurant"}}, {"type": "node", "id": 4960431421, "lat": 35.3139334, "lon": 25.3972926, "tags": {"amenity": "cafe", "name": "le Petit caf\u00e9", "name:en": "Le Petit Cafe"}}, {"type": "node", "id": 4960431424, "lat": 35.3164599, "lon": 25.3935255, "tags": {"amenity": "restaurant", "cuisine": "mediterranean", "name": "Nautica"}}, {"type": "node", "id": 4960431425, "lat": 35.3178962, "lon": 25.3918637, "tags": {"amenity": "restaurant"}}, {"type": "node", "id": 4986799533, "lat": 35.3318991, "lon": 25.34476, "tags": {"amenity": "restaurant", "name": "Taverna Paradissos"}}, {"type": "node", "id": 5001188422, "lat": 35.2617567, "lon": 25.7239491, "tags": {"amenity": "cafe", "cuisine": "ice_cream;cake;coffee_shop", "internet_access": "wlan", "name": "Del Mar", "phone": "+30 2841 042648"}}, {"type": "node", "id": 5023020722, "lat": 35.2900182, "lon": 25.460086, "tags": {"addr:city": "\u039c\u03ac\u03bb\u03b9\u03b1", "addr:postcode": "70007", "addr:street": "\u039d\u03b9\u03ba\u03bf\u03bb\u03ac\u03bf\u03c5 \u0393\u03c1\u03b1\u03bc\u03bc\u03b1\u03c4\u03b9\u03ba\u03ac\u03ba\u03b7", "air_conditioning": "no", "amenity": "restaurant", "cuisine": "greek;italian", "internet_access": "wlan", "name": "Meriem", "opening_hours": "10:00-23:59", "operator": "Angelo", "payment:credit_cards": "yes", "payment:debit_cards": "yes", "smoking": "outside"}}, {"type": "node", "id": 5075215545, "lat": 35.3077866, "lon": 25.3866323, "tags": {"amenity": "restaurant", "name": "Romantika"}}, {"type": "node", "id": 5075215625, "lat": 35.3077696, "lon": 25.3870556, "tags": {"amenity": "restaurant", "name": "Oliva"}}, {"type": "node", "id": 5083832523, "lat": 35.1251661, "lon": 25.7398401, "tags": {"addr:street": "\u0386\u03b3\u03b9\u03bf\u03c2 \u039d\u03b9\u03ba\u03cc\u03bb\u03b1\u03bf\u03c2 - \u03a3\u03b7\u03c4\u03b5\u03af\u03b1", "amenity": "restaurant", "name": "meRaki", "name:el": "meRaki", "name:en": "meRaki", "name:ru": "meRaki"}}, {"type": "node", "id": 5092413722, "lat": 35.3271181, "lon": 25.3653281, "tags": {"amenity": "cafe", "cuisine": "coffee_shop", "internet_access": "wlan", "internet_access:fee": "no", "name": "Nexus coffee&shop", "name:en": "Nexus coffee & shop", "outdoor_seating": "yes"}}, {"type": "node", "id": 5092914621, "lat": 35.3082687, "lon": 25.3720617, "tags": {"addr:street": "Square", "amenity": "restaurant", "name:en": "Zachos Taverna", "opening_hours": "Mo-Su 10:00-00:00", "phone": "+30 2897 024022"}}, {"type": "node", "id": 5105100112, "lat": 35.1990631, "lon": 25.4884207, "tags": {"addr:city": "\u03a4\u03b6\u03b5\u03c1\u03bc\u03b9\u03ac\u03b4\u03bf", "amenity": "restaurant", "cuisine": "greek;regional;local", "description": "Tavern and coffee since 1980", "name": "Tavern Kri-Kri", "outdoor_seating": "yes"}}, {"type": "node", "id": 5105850525, "lat": 35.3170111, "lon": 25.3919175, "tags": {"amenity": "restaurant", "name:en": "Vesuvius"}}, {"type": "node", "id": 5105850526, "lat": 35.3174206, "lon": 25.3923246, "tags": {"amenity": "restaurant", "name:en": "Sokaki"}}, {"type": "node", "id": 5105871621, "lat": 35.3162938, "lon": 25.3904409, "tags": {"amenity": "restaurant", "name:en": "Ktipa Ksilo"}}, {"type": "node", "id": 5105878121, "lat": 35.3161557, "lon": 25.3917145, "tags": {"amenity": "restaurant", "name:en": "Taverna Avli"}}, {"type": "node", "id": 5106009621, "lat": 35.2943831, "lon": 25.4695766, "tags": {"air_conditioning": "no", "amenity": "restaurant", "name": "Blue Sea Tavern", "opening_hours": "off", "payment:credit_cards": "yes", "payment:debit_cards": "yes", "smoking": "yes"}}, {"type": "node", "id": 5106089721, "lat": 35.3131805, "lon": 25.3983727, "tags": {"amenity": "restaurant", "name": "Petalida", "name:en": "Petalida"}}, {"type": "node", "id": 5107977038, "lat": 35.3080605, "lon": 25.3721682, "tags": {"amenity": "restaurant", "name:en": "Taverna Harakas"}}, {"type": "node", "id": 5109584742, "lat": 35.3346809, "lon": 25.315508, "tags": {"amenity": "restaurant", "name": "Limanaki"}}, {"type": "node", "id": 5109584788, "lat": 35.3352006, "lon": 25.3162972}, {"type": "node", "id": 5109584789, "lat": 35.3351377, "lon": 25.3163198}, {"type": "node", "id": 5109584790, "lat": 35.3351435, "lon": 25.3163674}, {"type": "node", "id": 5109584791, "lat": 35.3350145, "lon": 25.3164519}, {"type": "node", "id": 5109584792, "lat": 35.335004, "lon": 25.316351}, {"type": "node", "id": 5109584793, "lat": 35.335063, "lon": 25.3163306}, {"type": "node", "id": 5109584794, "lat": 35.3350457, "lon": 25.3162368}, {"type": "node", "id": 5109584795, "lat": 35.3351756, "lon": 25.3161849}, {"type": "node", "id": 5114115821, "lat": 35.1250075, "lon": 25.7420801, "tags": {"amenity": "restaurant", "cuisine": "greek;seafood;grill", "internet_access": "wlan", "name": "Panorama", "name:en": "Panorama", "name:ru": "\u041f\u0430\u043d\u043e\u0440\u0430\u043c\u0430"}}, {"type": "node", "id": 5121341622, "lat": 35.3338824, "lon": 25.2966659, "tags": {"amenity": "cafe", "cuisine": "pasta;grill;greek;seafood;pizza;mediterranean", "internet_access": "wlan", "name": "Ammos cafe-bar"}}, {"type": "node", "id": 5121349621, "lat": 35.3339796, "lon": 25.2974837, "tags": {"amenity": "cafe", "cuisine": "chicken;burger;sandwich;grill;friture;greek;fish_and_chips;regional;seafood;american;mediterranean;pizza;local", "name": "Smile"}}, {"type": "node", "id": 5141655266, "lat": 35.2755142, "lon": 25.3596586, "tags": {"amenity": "restaurant"}}, {"type": "node", "id": 5144756624, "lat": 35.2013903, "lon": 25.7083532, "tags": {"amenity": "cafe"}}, {"type": "node", "id": 5144756625, "lat": 35.2011559, "lon": 25.7080161, "tags": {"amenity": "cafe"}}, {"type": "node", "id": 5160282596, "lat": 35.1559297, "lon": 25.6555377, "tags": {"amenity": "restaurant", "cuisine": "greek", "name": "\u03a0\u03b1\u03c1\u03ac\u03b4\u03b5\u03b9\u03c3\u03bf\u03c2", "name:el": "\u03a0\u03b1\u03c1\u03ac\u03b4\u03b5\u03b9\u03c3\u03bf\u03c2", "name:en": "Paradise", "outdoor_seating": "yes"}}, {"type": "node", "id": 5160408772, "lat": 35.1755593, "lon": 25.5030821, "tags": {"amenity": "restaurant", "cuisine": "greek", "name": "\u0394\u03af\u03ba\u03c4\u03b7", "name:el": "\u0394\u03af\u03ba\u03c4\u03b7", "name:en": "Dikti"}}, {"type": "node", "id": 5162967211, "lat": 35.2628453, "lon": 25.7214734, "tags": {"addr:street": "Akti Vritomartidos", "amenity": "restaurant", "cuisine": "English,Regional", "description": "Bar,Cafe,Greek,Pub", "name": "Babel", "phone": "+30 2841 042336"}}, {"type": "node", "id": 5167007826, "lat": 35.265185, "lon": 25.7217549, "tags": {"addr:street": "akte poseidonos", "amenity": "restaurant", "description": "Restaurant,Mediterranean,Greek", "name": "Anemomylos", "phone": "+30 2841 042476"}}, {"type": "node", "id": 5167451922, "lat": 35.2900072, "lon": 25.4602012, "tags": {"addr:city": "\u039c\u03ac\u03bb\u03b9\u03b1", "addr:postcode": "70007", "addr:street": "\u039d\u03b9\u03ba\u03bf\u03bb\u03ac\u03bf\u03c5 \u0393\u03c1\u03b1\u03bc\u03bc\u03b1\u03c4\u03b9\u03ba\u03ac\u03ba\u03b7", "air_conditioning": "no", "amenity": "restaurant", "cuisine": "greek", "name": "Sofi", "name:de": "Sofi", "name:en": "Sofy", "opening_hours": "11:00-23:30", "payment:credit_cards": "yes", "payment:debit_cards": "yes", "smoking": "outside"}}, {"type": "node", "id": 5168528986, "lat": 35.2617399, "lon": 25.7229096, "tags": {"amenity": "restaurant", "check_date": "2024-09-13", "name": "Alyggos"}}, {"type": "node", "id": 5168536204, "lat": 35.2618619, "lon": 25.7229702, "tags": {"amenity": "cafe", "description": "outside seating for Alyggos", "name": "Alyggos"}}, {"type": "node", "id": 5173212042, "lat": 35.261422, "lon": 25.7246572, "tags": {"amenity": "cafe", "name": "Mediterranean Snack Bar"}}, {"type": "node", "id": 5173324968, "lat": 35.334811, "lon": 25.3107177, "tags": {"amenity": "restaurant", "name": "2 Friends Taverna"}}, {"type": "node", "id": 5186607121, "lat": 35.109913, "lon": 25.8051429, "tags": {"amenity": "restaurant", "cuisine": "greek;barbecue", "name:en": "Taverna Zorbas", "name:pl": "Taverna Zorbas"}}, {"type": "node", "id": 5187123281, "lat": 35.3338064, "lon": 25.3194595, "tags": {"amenity": "restaurant"}}, {"type": "node", "id": 5187123282, "lat": 35.3339746, "lon": 25.319792, "tags": {"amenity": "restaurant"}}, {"type": "node", "id": 5196416059, "lat": 35.3120304, "lon": 25.5329186, "tags": {"access": "private", "amenity": "restaurant"}}, {"type": "node", "id": 5199504270, "lat": 35.3296774, "lon": 25.3029975, "tags": {"addr:city": "\u039a\u03ac\u03c4\u03c9 \u0393\u03bf\u03cd\u03b2\u03b5\u03c2", "amenity": "restaurant", "cuisine": "greek", "name": "Taverna Asteria"}}, {"type": "node", "id": 5297402130, "lat": 35.336544, "lon": 25.3563692}, {"type": "node", "id": 5297402131, "lat": 35.3365517, "lon": 25.3564338}, {"type": "node", "id": 5297402132, "lat": 35.3365378, "lon": 25.3564363}, {"type": "node", "id": 5297402133, "lat": 35.3365458, "lon": 25.3565036}, {"type": "node", "id": 5297402134, "lat": 35.3365595, "lon": 25.3565011}, {"type": "node", "id": 5297402135, "lat": 35.336571, "lon": 25.356597}, {"type": "node", "id": 5297402136, "lat": 35.336503, "lon": 25.3566093}, {"type": "node", "id": 5297402137, "lat": 35.3365259, "lon": 25.3566677}, {"type": "node", "id": 5297402138, "lat": 35.3364833, "lon": 25.3566748}, {"type": "node", "id": 5297402139, "lat": 35.3364772, "lon": 25.3566231}, {"type": "node", "id": 5297402140, "lat": 35.3364226, "lon": 25.3566328}, {"type": "node", "id": 5297402141, "lat": 35.3363823, "lon": 25.356529}, {"type": "node", "id": 5297402143, "lat": 35.3363644, "lon": 25.3564229}, {"type": "node", "id": 5297402144, "lat": 35.3364297, "lon": 25.3564111}, {"type": "node", "id": 5297402145, "lat": 35.336426, "lon": 25.3563801}, {"type": "node", "id": 5297402146, "lat": 35.336468, "lon": 25.3563725}, {"type": "node", "id": 5297402147, "lat": 35.3364693, "lon": 25.3563827}, {"type": "node", "id": 5297420523, "lat": 35.3365066, "lon": 25.3566396}, {"type": "node", "id": 5297427995, "lat": 35.3364098, "lon": 25.3565244}, {"type": "node", "id": 5334746536, "lat": 35.3364396, "lon": 25.3566491, "tags": {"amenity": "restaurant", "name": "Taverne \"Elia\"", "outdoor_seating": "yes"}}, {"type": "node", "id": 5334747445, "lat": 35.3351966, "lon": 25.3573179, "tags": {"amenity": "restaurant", "cuisine": "regional;international;greek", "name": "La Pergola", "opening_hours:breakfast": "07:30-09:30; 05:00-07:00 \"Fr\u00fches Fr\u00fchst\u00fcck(mit Vorbestellung)\";09:30-11:00 \"Langschl\u00e4fer-Fr\u00fchst\u00fcck \"", "opening_hours:dinner": "19:00-21:30"}}, {"type": "node", "id": 5502003025, "lat": 35.3082762, "lon": 25.3719216, "tags": {"amenity": "restaurant", "cuisine": "greek;grill", "name:en": "Zakos"}}, {"type": "node", "id": 5530023210, "lat": 35.1874555, "lon": 25.7159797, "tags": {"amenity": "cafe"}}, {"type": "node", "id": 5530068427, "lat": 35.190101, "lon": 25.716915}, {"type": "node", "id": 5530342667, "lat": 35.1872063, "lon": 25.7124885, "tags": {"addr:housenumber": "1", "addr:street": "\u039a\u03c1\u03b9\u03c4\u03c3\u03ac\u03c2", "amenity": "cafe", "delivery": "yes", "name": "Drop Coffee", "outdoor_seating": "yes", "phone": "+302841025555", "takeaway": "yes"}}, {"type": "node", "id": 5551443086, "lat": 35.1922495, "lon": 25.7170461, "tags": {"amenity": "restaurant", "name": "\u0391\u03bf\u03c5\u03b1\u03c2"}}, {"type": "node", "id": 5551458887, "lat": 35.1870141, "lon": 25.7118649, "tags": {"amenity": "restaurant", "cuisine": "regional", "name": "\u03a3\u03c0\u03b9\u03c4\u03b9\u03ba\u03ae \u03ba\u03bf\u03c5\u03b6\u03af\u03bd\u03b1 \u03c4\u03b7\u03c2 \u03a3\u03ac\u03bc\u03c5\u03c2"}}, {"type": "node", "id": 5576040130, "lat": 35.1898725, "lon": 25.7198516}, {"type": "node", "id": 5576040131, "lat": 35.1899278, "lon": 25.7199154}, {"type": "node", "id": 5576040132, "lat": 35.189788, "lon": 25.7199517}, {"type": "node", "id": 5576196546, "lat": 35.189877, "lon": 25.7200577}, {"type": "node", "id": 5576196547, "lat": 35.1899491, "lon": 25.7199538}, {"type": "node", "id": 5587832021, "lat": 35.332739, "lon": 25.3455603, "tags": {"amenity": "restaurant", "cuisine": "greek", "internet_access": "wlan", "name:en": "Zorbas", "name:nl": "Zorbas"}}, {"type": "node", "id": 5594336021, "lat": 35.3171486, "lon": 25.3912596, "tags": {"amenity": "cafe", "cuisine": "greek", "internet_access": "wlan", "name": "Pita Point", "name:en": "Pita Point"}}, {"type": "node", "id": 5596902821, "lat": 35.2080211, "lon": 25.579329, "tags": {"amenity": "cafe", "cuisine": "greek", "name:en": "taverna", "name:ru": "\u0442\u0430\u0432\u0435\u0440\u043d\u0430"}}, {"type": "node", "id": 5597856121, "lat": 35.2778646, "lon": 25.3401662, "tags": {"amenity": "cafe", "name:en": "Traditional Tavern", "name:ru": "\u0422\u0430\u0432\u0435\u0440\u043d\u0430"}}, {"type": "node", "id": 5599784422, "lat": 35.3094524, "lon": 25.3853412, "tags": {"amenity": "cafe", "name:en": "Taverna", "name:ru": "\u043a\u0430\u0444\u0435", "opening_hours": "Mo-Su 14:00-00:00"}}, {"type": "node", "id": 5632215921, "lat": 35.2069113, "lon": 25.592178, "tags": {"amenity": "restaurant", "name": "Snack Bar Vangelis"}}, {"type": "node", "id": 5682953921, "lat": 35.3117579, "lon": 25.3131113, "tags": {"amenity": "cafe", "cuisine": "greek", "name:en": "Spiros original Greek Cuisine", "name:ru": "\u0422\u0430\u0432\u0435\u0440\u043d\u0430 \u0421\u043f\u0438\u0440\u043e\u0441", "phone": "(0030)6974420937"}}, {"type": "node", "id": 5696183621, "lat": 35.2837373, "lon": 25.4626654, "tags": {"addr:street": "El.Venizelou 160,Main Road", "amenity": "cafe", "name": "Magirio"}}, {"type": "node", "id": 5696710321, "lat": 35.311126, "lon": 25.3133542, "tags": {"amenity": "cafe", "cuisine": "greek", "name:en": "Ouzery Eukalipt", "name:ru": "\u0423\u0437\u0435\u0440\u0438\u044f \u042d\u0432\u043a\u0430\u043b\u0438\u043f\u0442"}}, {"type": "node", "id": 5696710521, "lat": 35.2625674, "lon": 25.3579692, "tags": {"amenity": "cafe", "cuisine": "greek;grill", "name": "\u039c\u03b1\u03c1\u03b7\u03c3", "name:el": "\u039c\u03b1\u03c1\u03b7\u03c3", "name:en": "Taberna Maris", "name:ru": "\u0422\u0430\u0432\u0435\u0440\u043d\u0430 \u041c\u0430\u0440\u0438\u0441"}}, {"type": "node", "id": 5696717721, "lat": 35.3070832, "lon": 25.3899329, "tags": {"amenity": "cafe", "cuisine": "seafood;greek;international", "name": "Meses", "name:ru": "\u0422\u0430\u0432\u0435\u0440\u043d\u0430 \u041c\u0435\u0437\u0435\u0441"}}, {"type": "node", "id": 5711950621, "lat": 35.2727387, "lon": 25.5640363, "tags": {"amenity": "cafe", "cuisine": "greek;international;coffee_shop;grill", "name": "\u039a\u03b1\u03c6\u03b5 \u039c\u03b5\u03b6\u03b5\u03b4\u03bf\u03c0\u03bf\u03bb\u03b5\u03b9\u03bf"}}, {"type": "node", "id": 5711950622, "lat": 35.2727577, "lon": 25.5640061, "tags": {"amenity": "cafe", "cuisine": "greek;international", "name": "\u039f \u039a\u03c5\u03b2\u03b5\u03c1\u03bd\u03b9\u03c4\u03b7\u03c2"}}, {"type": "node", "id": 5720887724, "lat": 35.1981326, "lon": 25.7121758, "tags": {"amenity": "restaurant", "indoor_seating": "yes", "name": "Avra", "name:de": "Avrs", "outdoor_seating": "yes"}}, {"type": "node", "id": 5739626922, "lat": 35.1874804, "lon": 25.716867, "tags": {"addr:housenumber": "12", "addr:postcode": "72100", "addr:street": "\u039a\u03b1\u03c0\u03b5\u03c4\u03ac\u03bd \u03a4\u03b1\u03b2\u03bb\u03ac", "amenity": "restaurant", "name": "Pittes Gourmandes"}}, {"type": "node", "id": 5739931621, "lat": 35.3083965, "lon": 25.3849273, "tags": {"addr:housenumber": "14", "addr:street": "Piskopiano 700", "amenity": "cafe", "cuisine": "greek", "internet_access": "wlan", "name:en": "David Vegera", "name:ru": "\u0414\u0430\u0432\u0438\u0434 \u0412\u0435\u0433\u0435\u0440\u0430", "opening_hours": "Mo-Su 17:00-00:30", "phone": "+30 2897 021491"}}, {"type": "node", "id": 5745502721, "lat": 35.3131893, "lon": 25.3960261, "tags": {"amenity": "cafe", "cuisine": "greek", "internet_access": "wlan", "name:en": "Island's kafe", "name:ru": "\u0418\u0441\u043b\u0430\u043d\u0434\u0441\u043a\u043e\u0435 \u043a\u0430\u0444\u0435"}}, {"type": "node", "id": 5759176211, "lat": 35.2896624, "lon": 25.4474936, "tags": {"amenity": "restaurant"}}, {"type": "node", "id": 5759176212, "lat": 35.2895232, "lon": 25.4497231, "tags": {"amenity": "restaurant", "cuisine": "fish;seafood", "name": "Kalypso"}}, {"type": "node", "id": 5759177721, "lat": 35.2897433, "lon": 25.4522289, "tags": {"amenity": "restaurant", "cuisine": "greek", "level": "0", "name": "Taverna Paradise"}}, {"type": "node", "id": 5759177722, "lat": 35.2904218, "lon": 25.4461589, "tags": {"amenity": "restaurant", "cuisine": "greek", "level": "0", "name": "Taverna Meltemi", "outdoor_seating": "yes"}}, {"type": "node", "id": 5759177730, "lat": 35.2898843, "lon": 25.4470834, "tags": {"amenity": "cafe", "name": "Medusa"}}, {"type": "node", "id": 5759177732, "lat": 35.2895711, "lon": 25.4519042, "tags": {"amenity": "cafe", "name": "SunSet"}}, {"type": "node", "id": 5759177736, "lat": 35.2901908, "lon": 25.4460152, "tags": {"amenity": "restaurant", "cuisine": "barbecue;pizza", "name": "Mama Mia"}}, {"type": "node", "id": 5759177738, "lat": 35.289475, "lon": 25.4485521, "tags": {"amenity": "restaurant", "cuisine": "fish;pizza", "name": "Angelo"}}, {"type": "node", "id": 5759177739, "lat": 35.2899506, "lon": 25.4468401, "tags": {"amenity": "restaurant", "cuisine": "regional", "name": "Lokal EatGreek"}}, {"type": "node", "id": 5760059121, "lat": 35.319517, "lon": 25.3900402, "tags": {"addr:street": "\u03a3\u0391\u039d\u039f\u03a5\u0394\u0391\u039a\u0397", "amenity": "restaurant", "cuisine": "greek;international", "internet_access": "wlan", "name": "Mythos family taverna", "opening_hours": "Mo-Su 11:00-23:45"}}, {"type": "node", "id": 5760578311, "lat": 35.2905157, "lon": 25.4450129, "tags": {"amenity": "cafe", "level": "0", "name": "The Olive"}}, {"type": "node", "id": 5762067408, "lat": 35.2908931, "lon": 25.4435542, "tags": {"amenity": "restaurant", "cuisine": "greek;pizza", "name": "Eli\u00e1"}}, {"type": "node", "id": 5766364896, "lat": 35.2908542, "lon": 25.4411609, "tags": {"amenity": "restaurant", "name": "Taverna Kostas", "outdoor_seating": "yes", "wheelchair": "yes"}}, {"type": "node", "id": 5766552768, "lat": 35.259255, "lon": 25.6625118, "tags": {"addr:city": "\u03a6\u03bf\u03c5\u03c1\u03bd\u03ae", "addr:postcode": "72400", "air_conditioning": "yes", "amenity": "restaurant", "capacity": "50", "cuisine": "greek;regional;coffee_shop", "delivery": "no", "description": "The company with the distinctive title \"Platanos\" is active in the field of mass catering, with the main characteristics of traditional Cretan cuisine and Cretan diet.", "diet:vegetarian": "no", "ele": "320", "email": "info@platanoscrete.gr", "fax": "2841090776", "name": "\u03a0\u03bb\u03ac\u03c4\u03b1\u03bd\u03bf\u03c2", "name:el": "\u03a0\u03bb\u03ac\u03c4\u03b1\u03bd\u03bf\u03c2", "name:en": "Platanos", "opening_hours": "Mo-Su 10:00-23:30", "outdoor_seating": "yes", "payment:american_express": "yes", "payment:cash": "yes", "payment:credit_cards": "yes", "payment:debit_cards": "yes", "payment:diners_club": "yes", "payment:maestro": "yes", "payment:mastercard": "yes", "payment:visa": "yes", "phone": "2841090776", "smoking": "outside", "start_date": "01-12-2006", "takeaway": "yes", "website": "https://www.platanoscrete.gr/", "wheelchair": "yes"}}, {"type": "node", "id": 5779773235, "lat": 35.2924848, "lon": 25.4567305}, {"type": "node", "id": 5779773238, "lat": 35.2923391, "lon": 25.4564271}, {"type": "node", "id": 5779773239, "lat": 35.2925517, "lon": 25.4567273}, {"type": "node", "id": 5779773242, "lat": 35.2925289, "lon": 25.4563933}, {"type": "node", "id": 5779773249, "lat": 35.2923374, "lon": 25.4564946}, {"type": "node", "id": 5779775558, "lat": 35.2924767, "lon": 25.4565026}, {"type": "node", "id": 5787193245, "lat": 35.2983638, "lon": 25.7283062, "tags": {"amenity": "cafe", "name": "Epico"}}, {"type": "node", "id": 5790364653, "lat": 35.2822176, "lon": 25.4634683, "tags": {"addr:housenumber": "25is", "addr:postcode": "700 07", "addr:street": "\u039f\u03b4\u03bf\u03c2 \u0391\u03b3\u03b9\u03bf\u03c2 \u0394\u03b7\u03bc\u03b7\u03c4\u03c1\u03b9\u03bf\u03c5", "amenity": "restaurant", "cuisine": "greek", "name": "Nostimo", "opening_hours": "Mo-Su 17:30-23:30", "phone": "+30 697 641 5355", "website": "http://facebook.com/nostimomalia"}}, {"type": "node", "id": 5802220497, "lat": 35.3273434, "lon": 25.3862768}, {"type": "node", "id": 5802220498, "lat": 35.3273598, "lon": 25.3865464}, {"type": "node", "id": 5802220499, "lat": 35.3274474, "lon": 25.3865384}, {"type": "node", "id": 5802220500, "lat": 35.327431, "lon": 25.3862688}, {"type": "node", "id": 5822808355, "lat": 35.29242, "lon": 25.4344695, "tags": {"amenity": "restaurant", "name": "\u0386\u03c1\u03c4\u03b5\u03bc\u03b9\u03c2", "name:el": "\u0386\u03c1\u03c4\u03b5\u03bc\u03b9\u03c2", "name:en": "Artemis"}}, {"type": "node", "id": 5827920819, "lat": 35.2180819, "lon": 25.7129521}, {"type": "node", "id": 5827920820, "lat": 35.2180722, "lon": 25.7130343}, {"type": "node", "id": 5827920821, "lat": 35.2179375, "lon": 25.7130104}, {"type": "node", "id": 5827920822, "lat": 35.2179472, "lon": 25.7129282}, {"type": "node", "id": 5829200791, "lat": 35.2182268, "lon": 25.7127198, "tags": {"amenity": "restaurant", "name": "\"Agapi\" Restaurant"}}, {"type": "node", "id": 5862683089, "lat": 35.3348696, "lon": 25.3095351, "tags": {"amenity": "restaurant", "name": "Seaside"}}, {"type": "node", "id": 5862684185, "lat": 35.3363287, "lon": 25.3431391, "tags": {"amenity": "restaurant", "name": "Asterias"}}, {"type": "node", "id": 5875645886, "lat": 35.306824, "lon": 25.4074162, "tags": {"amenity": "restaurant", "cuisine": "fish_and_chips;fish;greek;ice_cream", "internet_access": "wlan", "name:en": "COUNTRY HOUSE", "phone": "+30 699 712 2650"}}, {"type": "node", "id": 5884317020, "lat": 35.3321757, "lon": 25.3782723, "tags": {"amenity": "restaurant", "contact:facebook": "https://www.facebook.com/The-Big-Blue-304844679598602/", "email": "dimparla@otenet.gr", "indoor_seating": "yes", "name": "The Big Blue", "outdoor_seating": "no", "phone": "+30 2870 24098"}}, {"type": "node", "id": 5888756285, "lat": 35.334726, "lon": 25.3455369, "tags": {"amenity": "cafe", "cuisine": "fish;greek;grill;local;pizza", "name:en": "marina"}}, {"type": "node", "id": 5921119585, "lat": 35.3298675, "lon": 25.3042652, "tags": {"amenity": "restaurant", "cuisine": "pizza", "name": "Memories Pizzeria"}}, {"type": "node", "id": 5948782885, "lat": 35.3077875, "lon": 25.4059101, "tags": {"amenity": "restaurant", "name:en": "Cretan Star Taverna"}}, {"type": "node", "id": 5948840609, "lat": 35.308106, "lon": 25.4051732, "tags": {"amenity": "restaurant", "name:en": "Salt Cafe Restaurant"}}, {"type": "node", "id": 5950952585, "lat": 35.307547, "lon": 25.4047061, "tags": {"amenity": "restaurant", "name:en": "Minos Restaurant"}}, {"type": "node", "id": 5951889502, "lat": 35.3064955, "lon": 25.4080899, "tags": {"amenity": "restaurant", "name:en": "Asian Star Restaurant"}}, {"type": "node", "id": 5970004147, "lat": 35.3063647, "lon": 25.3925413, "tags": {"addr:street": "Agiou Vasiliou", "amenity": "restaurant", "name": "The Trap", "opening_hours": "Mo-Su 17:00-03:00", "phone": "+30 697 371 2374"}}, {"type": "node", "id": 5971824184, "lat": 35.306391, "lon": 25.3934792, "tags": {"addr:street": "Varnali Street", "amenity": "restaurant", "name": "Olive Green", "phone": "+30 2897 022515"}}, {"type": "node", "id": 5971824909, "lat": 35.3064362, "lon": 25.3943902, "tags": {"amenity": "cafe", "name": "Kokoriko"}}, {"type": "node", "id": 5971824920, "lat": 35.3064104, "lon": 25.3927052, "tags": {"addr:street": "Plateau Saint Vasileiou", "amenity": "restaurant", "name": "Mythos", "phone": "+30 698 144 5152"}}, {"type": "node", "id": 5981150466, "lat": 35.3067228, "lon": 25.3916775, "tags": {"addr:street": "Xanthoudidou", "amenity": "restaurant", "name": "Oniro", "phone": "+30 2897 023840"}}, {"type": "node", "id": 5981150528, "lat": 35.3062909, "lon": 25.3917559, "tags": {"addr:street": "Alexi Minoti", "amenity": "restaurant", "cuisine": "greek", "email": "Alchemistis@live.com", "name": "The Alchemist", "phone": "+30 2897 025582", "website": "www.thealchemistrestaurant.gr"}}, {"type": "node", "id": 5981150529, "lat": 35.3066847, "lon": 25.3908413, "tags": {"addr:housenumber": "86", "addr:street": "Evropis", "amenity": "cafe", "name": "Rahati", "opening_hours": "Mo-Su 09:00-00:00", "phone": "+30 697 285 3513"}}, {"type": "node", "id": 5981150589, "lat": 35.306722, "lon": 25.3918388, "tags": {"amenity": "restaurant", "cuisine": "greek", "name": "\u03bb\u03b1\u0390\u03bd\u03b9", "name:el": "\u03bb\u03b1\u0390\u03bd\u03b9", "name:en": "Laini", "opening_hours": "Mo-Su 18:00-00:00", "phone": "+30 2897021675"}}, {"type": "node", "id": 5986652420, "lat": 35.2630277, "lon": 25.7210419, "tags": {"amenity": "restaurant", "cuisine": "local;greek;seafood", "name": "Okeanis"}}, {"type": "node", "id": 5986652529, "lat": 35.2611531, "lon": 25.7254911, "tags": {"amenity": "cafe", "name": "Isalos"}}, {"type": "node", "id": 5989979150, "lat": 35.1593531, "lon": 25.4584485, "tags": {"amenity": "restaurant", "internet_access": "wlan", "name": "Family Tavern Dionyssos", "opening_hours": "Mo-Su 11:00-23:00", "outdoor_seating": "yes", "phone": "+302844031672", "tourism": "guest_house"}}, {"type": "node", "id": 5989979299, "lat": 35.1646543, "lon": 25.4516043, "tags": {"amenity": "restaurant"}}, {"type": "node", "id": 5989979606, "lat": 35.164628, "lon": 25.4521908, "tags": {"amenity": "restaurant"}}, {"type": "node", "id": 6008168088, "lat": 35.2109768, "lon": 25.3386254, "tags": {"amenity": "restaurant", "name": "\u0391\u03a0\u039f\u039c\u0395\u03a1\u039f", "name:el": "\u0391\u03a0\u039f\u039c\u0395\u03a1\u039f", "name:en": "Taverna", "phone": "2891031430"}}, {"type": "node", "id": 6008293850, "lat": 35.0840559, "lon": 25.7114663, "tags": {"amenity": "restaurant"}}, {"type": "node", "id": 6025186127, "lat": 35.3350843, "lon": 25.3339496, "tags": {"amenity": "restaurant", "name": "Europa Beach Restaurant", "outdoor_seating": "terrace", "smoking": "no", "takeaway": "no"}}, {"type": "node", "id": 6025186308, "lat": 35.3354185, "lon": 25.3342725, "tags": {"amenity": "restaurant", "name": "Meltemi"}}, {"type": "node", "id": 6032796479, "lat": 35.2090758, "lon": 25.3360422, "tags": {"amenity": "cafe", "description": "fancy  deserts and lunch snacks", "name": "Zaxapias"}}, {"type": "node", "id": 6032796480, "lat": 35.1100206, "lon": 25.8045321, "tags": {"amenity": "restaurant", "description": "beach side resturant open till at least end of October", "name": "beach resturant"}}, {"type": "node", "id": 6032796481, "lat": 35.1100655, "lon": 25.804424, "tags": {"amenity": "cafe", "name": "Cafe"}}, {"type": "node", "id": 6046282477, "lat": 35.1967549, "lon": 25.4621401}, {"type": "node", "id": 6046282478, "lat": 35.1967637, "lon": 25.4623251}, {"type": "node", "id": 6046282479, "lat": 35.1969522, "lon": 25.4623037}, {"type": "node", "id": 6046282480, "lat": 35.1968492, "lon": 25.4621293}, {"type": "node", "id": 6163873101, "lat": 35.3080547, "lon": 25.3854646, "tags": {"addr:city": "\u03a0\u03b9\u03c3\u03ba\u03bf\u03c0\u03b9\u03b1\u03bd\u03cc", "addr:housenumber": "30", "addr:postcode": "700 14", "addr:street": "\u0395\u03c5\u03c1\u03c9\u03c0\u03b7\u03c2", "amenity": "restaurant", "cuisine": "traditional;greek;cafe;regional", "name": "Gevsi Traditional Taverna", "phone": "+30 2897 023386"}}, {"type": "node", "id": 6208298726, "lat": 35.3069732, "lon": 25.3928771, "tags": {"amenity": "cafe", "name": "\u0391\u03c1\u03c7\u03bf\u03bd\u03c4\u03b9\u03ba\u03cc"}}, {"type": "node", "id": 6255367546, "lat": 35.169544, "lon": 25.4387189, "tags": {"amenity": "restaurant", "name": "Tavern Afentis"}}, {"type": "node", "id": 6304247292, "lat": 35.1822681, "lon": 25.7123185, "tags": {"entrance": "yes"}}, {"type": "node", "id": 6304247295, "lat": 35.1823697, "lon": 25.7126091, "tags": {"entrance": "yes"}}, {"type": "node", "id": 6360863764, "lat": 35.2945994, "lon": 25.4235343, "tags": {"amenity": "cafe", "name": "\u0394\u03b9\u03b1\u03bc\u03b1\u03bd\u03c4\u03b1\u03ba\u03b7\u03c2 Bakery"}}, {"type": "node", "id": 6360865133, "lat": 35.2962719, "lon": 25.4238025, "tags": {"amenity": "cafe", "check_date": "2025-04-03", "name": "Sea Side Lounge"}}, {"type": "node", "id": 6450218687, "lat": 35.3108887, "lon": 25.3124563, "tags": {"amenity": "cafe", "cuisine": "greek", "internet_access": "wlan", "name:en": "Alvi"}}, {"type": "node", "id": 6450436197, "lat": 35.2939588, "lon": 25.4288144}, {"type": "node", "id": 6450436198, "lat": 35.2940137, "lon": 25.4286447}, {"type": "node", "id": 6450436199, "lat": 35.2940124, "lon": 25.4284971}, {"type": "node", "id": 6450436200, "lat": 35.29397, "lon": 25.4284814}, {"type": "node", "id": 6450436201, "lat": 35.2938694, "lon": 25.4287754}, {"type": "node", "id": 6465387017, "lat": 35.2939104, "lon": 25.4282251}, {"type": "node", "id": 6465387018, "lat": 35.2937802, "lon": 25.4282135}, {"type": "node", "id": 6465387019, "lat": 35.293778, "lon": 25.4282839}, {"type": "node", "id": 6465387020, "lat": 35.2938079, "lon": 25.4282856}, {"type": "node", "id": 6465387021, "lat": 35.2938071, "lon": 25.4283248}, {"type": "node", "id": 6465387022, "lat": 35.293906, "lon": 25.42834}, {"type": "node", "id": 6467645151, "lat": 35.3047078, "lon": 25.4213938, "tags": {"access": "guests", "amenity": "restaurant", "cuisine": "asian", "name": "Nami", "opening_hours": "Mo-Su 18:15-21:15", "operator": "Nana Golden Beach", "reservation": "required"}}, {"type": "node", "id": 6467645217, "lat": 35.3046575, "lon": 25.4210021, "tags": {"access": "guests", "amenity": "restaurant", "name": "Zorbas", "operator": "Nana Beach"}}, {"type": "node", "id": 6518366085, "lat": 35.3104602, "lon": 25.564606, "tags": {"addr:postcode": "72400", "addr:street": "\u039b\u03b1\u03c4\u03c3\u03af\u03b4\u03b1 - \u039c\u03af\u03bb\u03b1\u03c4\u03bf\u03c2", "amenity": "restaurant", "cuisine": "greek", "name": "\u0422\u043e \u043a\u0443\u0442\u0443\u043a\u0438 \u0442\u0443 \u043d\u0438\u043a\u043e\u043b\u0430", "name:en": "Tavern", "name:ru": "\u0422\u0430\u0432\u0435\u0440\u043d\u0430", "phone": "(+30)6976682015"}}, {"type": "node", "id": 6532101185, "lat": 35.3195662, "lon": 25.5676492, "tags": {"amenity": "restaurant", "name": "Meltemi"}}, {"type": "node", "id": 6646935685, "lat": 35.3117161, "lon": 25.3979751, "tags": {"addr:housenumber": "190", "addr:street": "\u0395\u03bb\u03b5\u03c5\u03b8\u03b5\u03c1\u03af\u03bf\u03c5 \u0392\u03b5\u03bd\u03b9\u03b6\u03ad\u03bb\u03bf\u03c5", "amenity": "cafe", "brand": "Coffee Island", "brand:wikidata": "Q60867333", "cuisine": "coffee_shop", "name": "Coffee Island", "name:en": "Coffee Island", "opening_hours": "Mo-Su 06:00-22:00", "phone": "+30 2897 022663", "takeaway": "yes", "website": "https://www.coffeeisland.gr/"}}, {"type": "node", "id": 6649703285, "lat": 35.1690702, "lon": 25.4461504, "tags": {"amenity": "restaurant", "name": "Zeus"}}, {"type": "node", "id": 6697588421, "lat": 35.2063423, "lon": 25.7138255, "tags": {"amenity": "restaurant"}}, {"type": "node", "id": 6699412710, "lat": 35.1980716, "lon": 25.7123953}, {"type": "node", "id": 6699412711, "lat": 35.1980209, "lon": 25.7126261}, {"type": "node", "id": 6699412713, "lat": 35.1978835, "lon": 25.7124422}, {"type": "node", "id": 6699412714, "lat": 35.1979338, "lon": 25.7124168}, {"type": "node", "id": 6699412715, "lat": 35.1979417, "lon": 25.7123982}, {"type": "node", "id": 6733309944, "lat": 35.2919912, "lon": 25.4502261}, {"type": "node", "id": 6738883580, "lat": 35.3126947, "lon": 25.388349, "tags": {"amenity": "restaurant", "cuisine": "greek", "name": "Areston", "opening_hours": "Mo-Su 12:00-24:00"}}, {"type": "node", "id": 6742521303, "lat": 35.1752082, "lon": 25.5030294, "tags": {"amenity": "restaurant", "name": "\u0392\u03b9\u03bb\u03b1\u03ad\u03c4\u03b9"}}, {"type": "node", "id": 6749938421, "lat": 35.3362056, "lon": 25.3507698, "tags": {"amenity": "restaurant", "name": "Snack Bar Thalassa", "operator": "Lyttos Beach"}}, {"type": "node", "id": 6749938422, "lat": 35.3363096, "lon": 25.3523107, "tags": {"amenity": "restaurant", "cuisine": "asian", "level": "1", "name": "Taste of Asia", "opening_hours": "18:30-21:30", "reservation": "required"}}, {"type": "node", "id": 6749938423, "lat": 35.3362439, "lon": 25.3520317, "tags": {"amenity": "restaurant", "level": "1", "name": "Taverna Kalypso", "operator": "Lyttos Beach"}}, {"type": "node", "id": 6757922136, "lat": 35.2907323, "lon": 25.4626688, "tags": {"addr:city": "Malia", "addr:street": "Tsagaraki Street", "amenity": "restaurant", "bar": "yes", "email": "stonewell1998@hotmail.com", "name": "Stonewell", "outdoor_seating": "yes", "phone": "+30 28970 33486", "start_date": "1998", "wheelchair": "limited"}}, {"type": "node", "id": 6767431117, "lat": 35.1820844, "lon": 25.7121572, "tags": {"amenity": "restaurant", "name": "Meltemi", "outdoor_seating": "yes"}}, {"type": "node", "id": 6769480285, "lat": 35.3384473, "lon": 25.3648664, "tags": {"amenity": "restaurant", "name": "Italian"}}, {"type": "node", "id": 6777044087, "lat": 35.3082418, "lon": 25.3723194, "tags": {"amenity": "restaurant", "name": "Traditional Taverna Myrtios"}}, {"type": "node", "id": 6777044088, "lat": 35.3081004, "lon": 25.3723167, "tags": {"amenity": "cafe", "name": "Diamantakis bakery coffee sweets"}}, {"type": "node", "id": 6788367088, "lat": 35.3174826, "lon": 25.3926155, "tags": {"amenity": "cafe"}}, {"type": "node", "id": 6788367094, "lat": 35.320542, "lon": 25.3914556, "tags": {"amenity": "restaurant", "indoor_seating": "yes", "name:en": "Star Light", "outdoor_seating": "yes"}}, {"type": "node", "id": 6788416186, "lat": 35.3080151, "lon": 25.3719533, "tags": {"amenity": "restaurant", "name": "Sofas"}}, {"type": "node", "id": 6788416189, "lat": 35.3187417, "lon": 25.3914972, "tags": {"amenity": "restaurant", "name": "antico"}}, {"type": "node", "id": 6795912485, "lat": 35.2920471, "lon": 25.4356925, "tags": {"addr:housenumber": "53", "addr:postcode": "700 07", "addr:street": "\u0391\u03b3\u03af\u03bf\u03c5 \u0399\u03c9\u03ac\u03bd\u03bd\u03bf\u03c5", "amenity": "cafe", "cuisine": "tea;crepe;burger;cake;donut;sandwich;breakfast;coffee_shop;ice_cream", "internet_access": "wlan", "name": "Sweet World", "name:en": "Sweet World", "opening_hours": "Mo-Su 07:30-23:30", "website": "https://sweetworld.com.gr/"}}, {"type": "node", "id": 6812313403, "lat": 35.2592183, "lon": 25.6503815, "tags": {"amenity": "restaurant", "name": "\u03a0\u03c1\u03cc\u03b4\u03c1\u03bf\u03bc\u03bf\u03c2"}}, {"type": "node", "id": 6812313405, "lat": 35.2594439, "lon": 25.6495124, "tags": {"amenity": "restaurant"}}, {"type": "node", "id": 6812313406, "lat": 35.2582726, "lon": 25.6617127, "tags": {"addr:city": "\u03a6\u03bf\u03c5\u03c1\u03bd\u03ae", "addr:postcode": "72400", "amenity": "restaurant", "contact:phone": "+30 2841 033052", "name": "\u039f \u03c0\u03b1\u03bb\u03b9\u03cc\u03bc\u03c5\u03bb\u03bf\u03c2", "name:el": "\u039f \u03c0\u03b1\u03bb\u03b9\u03cc\u03bc\u03c5\u03bb\u03bf\u03c2"}}, {"type": "node", "id": 6812313407, "lat": 35.2496079, "lon": 25.6226951, "tags": {"amenity": "restaurant"}}, {"type": "node", "id": 6814443793, "lat": 35.2827619, "lon": 25.4610522, "tags": {"addr:city": "\u039c\u03ac\u03bb\u03b9\u03b1", "addr:housenumber": "2", "addr:postcode": "70007", "addr:street": "28 \u039f\u03ba\u03c4\u03ce\u03b2\u03c1\u03b7 \u03bc\u03b5 \u0391\u03b3\u03af\u03bf\u03c5 \u0399\u03c9\u03ac\u03bd\u03bd\u03bf\u03c5", "air_conditioning": "yes", "amenity": "restaurant", "cuisine": "greek;mediterranean;local;regional", "description": "Cretan and Mediterranean cooking", "diet:gluten_free": "yes", "diet:macrobiotic": "yes", "diet:meat": "yes", "diet:non-vegetarian": "yes", "diet:organic": "yes", "diet:vegetarian": "yes", "internet_access": "yes", "name": "AVLI in Malia", "name:el": "\u0391\u03c5\u03bb\u03ae \u03c4\u03c9\u03bd \u039c\u03b1\u03bb\u03af\u03c9\u03bd", "opening_hours": "Mo-Su 14:00-22:30", "outdoor_seating": "yes", "payment:credit_cards": "yes", "payment:debit_cards": "yes", "phone": "+302897031112", "reservation": "recommended", "smoking": "outside", "takeaway": "yes", "website": "https://avli-malia.gr/", "website:menu": "https://avli-malia.gr/menu/menou/"}}, {"type": "node", "id": 6823925843, "lat": 35.2556417, "lon": 25.6070976}, {"type": "node", "id": 6823925844, "lat": 35.2556929, "lon": 25.6068926}, {"type": "node", "id": 6823925845, "lat": 35.2556129, "lon": 25.6068625}, {"type": "node", "id": 6823925846, "lat": 35.2555616, "lon": 25.6070676}, {"type": "node", "id": 6823925847, "lat": 35.2559837, "lon": 25.6063379}, {"type": "node", "id": 6832646785, "lat": 35.3195889, "lon": 25.5657167, "tags": {"amenity": "restaurant", "cuisine": "greek", "internet_access": "wlan", "name:en": "Kohili"}}, {"type": "node", "id": 6860035885, "lat": 35.2337787, "lon": 25.4685923, "tags": {"amenity": "restaurant", "cuisine": "greek", "name": "Taverna Krassopsyxia", "name:en": "Taverna Krassopsychia"}}, {"type": "node", "id": 6919940188, "lat": 35.2901259, "lon": 25.4578272, "tags": {"addr:city": "\u039c\u03ac\u03bb\u03b9\u03b1", "addr:postcode": "70007", "addr:street": "\u039d\u03b9\u03ba. \u0393\u03c1\u03b1\u03bc\u03bc\u03b1\u03c4\u03b9\u03ba\u03ac\u03ba\u03b7", "air_conditioning": "no", "amenity": "restaurant", "cuisine": "greek;regional", "name": "Pergola Taverna Restaurant", "name:en": "Pergola Taverna Restaurant", "opening_hours": "12:00-23:00", "payment:credit_cards": "yes", "payment:debit_cards": "yes", "phone": "+30 289 7033340", "smoking": "outside", "wheelchair": "yes"}}, {"type": "node", "id": 6927674323, "lat": 35.2001829, "lon": 25.4893509, "tags": {"amenity": "restaurant", "name": "Argoulias"}}, {"type": "node", "id": 6927685835, "lat": 35.2200409, "lon": 25.4602608, "tags": {"amenity": "restaurant", "name": "Taverna Elias"}}, {"type": "node", "id": 6927701338, "lat": 35.2898984, "lon": 25.4571417, "tags": {"amenity": "restaurant", "name": "Captain Hook"}}, {"type": "node", "id": 6927740832, "lat": 35.2899304, "lon": 25.4567171, "tags": {"amenity": "restaurant", "name": "Anemi"}}, {"type": "node", "id": 6927754126, "lat": 35.2900422, "lon": 25.4571266, "tags": {"amenity": "restaurant", "name": "Mezes"}}, {"type": "node", "id": 6987247872, "lat": 35.3199072, "lon": 25.6931417}, {"type": "node", "id": 6987247873, "lat": 35.3199799, "lon": 25.6931291}, {"type": "node", "id": 6987247874, "lat": 35.3199608, "lon": 25.6929635}, {"type": "node", "id": 6989065260, "lat": 35.320034, "lon": 25.6933728}, {"type": "node", "id": 6989065261, "lat": 35.3200396, "lon": 25.6933118}, {"type": "node", "id": 6989065264, "lat": 35.3199024, "lon": 25.6933945}, {"type": "node", "id": 6989065265, "lat": 35.3198724, "lon": 25.693392}, {"type": "node", "id": 6989065266, "lat": 35.3199107, "lon": 25.693244}, {"type": "node", "id": 6989088329, "lat": 35.3349665, "lon": 25.6995224}, {"type": "node", "id": 7034496929, "lat": 35.2312247, "lon": 25.4302474, "tags": {"amenity": "cafe", "name": "\u1f08\u03b2\u03b4\u03bf\u1fe6"}}, {"type": "node", "id": 7034523292, "lat": 35.2319645, "lon": 25.4309223, "tags": {"amenity": "cafe"}}, {"type": "node", "id": 7034523297, "lat": 35.2315895, "lon": 25.4313739, "tags": {"amenity": "restaurant", "name": "\u03a0\u03bb\u03b1\u03c4\u03b9\u03ac"}}, {"type": "node", "id": 7151594918, "lat": 35.1929574, "lon": 25.711965, "tags": {"amenity": "cafe"}}, {"type": "node", "id": 7166757475, "lat": 35.3113308, "lon": 25.4008456}, {"type": "node", "id": 7166757476, "lat": 35.3117897, "lon": 25.4004552}, {"type": "node", "id": 7166757477, "lat": 35.3118541, "lon": 25.4005457}, {"type": "node", "id": 7166757478, "lat": 35.311275, "lon": 25.4009244}, {"type": "node", "id": 7239131908, "lat": 35.2922081, "lon": 25.438543, "tags": {"amenity": "restaurant", "name": "Mesogiako Beach"}}, {"type": "node", "id": 7264274493, "lat": 35.2049368, "lon": 25.7147664, "tags": {"amenity": "restaurant", "name": "\u039a\u03c1\u03b9 \u03ba\u03c1\u03b9"}}, {"type": "node", "id": 7472798494, "lat": 35.1650117, "lon": 25.4496025, "tags": {"amenity": "restaurant", "cuisine": "barbecue"}}, {"type": "node", "id": 7556580503, "lat": 35.2864537, "lon": 25.677081, "tags": {"addr:city": "\u039d\u03b5\u03ac\u03c0\u03bf\u03bb\u03b7", "addr:postcode": "72400", "addr:street": "\u0394\u03c9\u03c1\u03b9\u03ad\u03c2-Dories", "amenity": "restaurant", "cuisine": "greek;Cretan", "internet_access": "wlan", "name": "The Friends - \u03a4\u03b1 \u03a6\u03b9\u03bb\u03b1\u03c1\u03ac\u03ba\u03b9\u03b1", "outdoor_seating": "yes", "phone": "+30 2841 031382", "stars": "5", "website": "https://www.facebook.com/Ta-Filarakia-858943677534477/", "wheelchair": "yes"}}, {"type": "node", "id": 7599003001, "lat": 35.2559005, "lon": 25.6064851}, {"type": "node", "id": 7599003002, "lat": 35.2558315, "lon": 25.6064266}, {"type": "node", "id": 7599003003, "lat": 35.2559149, "lon": 25.6062821}, {"type": "node", "id": 7600875459, "lat": 35.0828141, "lon": 25.5762472, "tags": {"amenity": "restaurant", "cuisine": "greek", "name": "\u1f09\u03b3\u03af\u03b1 \u03a0\u03b1\u03c1\u03b1\u03c3\u03ba\u03b5\u03c5\u03ae"}}, {"type": "node", "id": 7603292554, "lat": 35.3089934, "lon": 25.5195406, "tags": {"amenity": "cafe", "internet_access": "wlan", "internet_access:fee": "no", "level": "0", "name": "\u0386\u03c1\u03c9\u03bc\u03b1", "name:el": "\u0386\u03c1\u03c9\u03bc\u03b1", "name:en": "Aroma", "outdoor_seating": "yes", "smoking": "outside", "wheelchair": "limited"}}, {"type": "node", "id": 7654796277, "lat": 35.1914933, "lon": 25.7176301, "tags": {"amenity": "restaurant", "cuisine": "greek", "level": "0", "name": "\u03a4\u03bf \u039a\u03b1\u03c1\u03bd\u03ac\u03b3\u03b9\u03bf", "name:el-Latn": "To Karnagio", "outdoor_seating": "yes"}}, {"type": "node", "id": 7671501883, "lat": 35.0919885, "lon": 25.5451833}, {"type": "node", "id": 7671501884, "lat": 35.0920318, "lon": 25.5452554}, {"type": "node", "id": 7671502685, "lat": 35.0920868, "lon": 25.5451913}, {"type": "node", "id": 7687964709, "lat": 35.1096429, "lon": 25.8056818, "tags": {"amenity": "restaurant", "cuisine": "greek", "int_name": "Porto Kanaki", "internet_access": "wlan", "name": "\u03a0\u03cc\u03c1\u03c4\u03bf \u039a\u03b1\u03bd\u03ac\u03ba\u03b7", "name:de": "Porto Kanaki", "name:el": "\u03a0\u03cc\u03c1\u03c4\u03bf \u039a\u03b1\u03bd\u03ac\u03ba\u03b7", "name:en": "Porto Kanaki", "name:ru": "\u041f\u043e\u0440\u0442\u043e \u041a\u0430\u043d\u0430\u043a\u0438", "name:uk": "Porto Kanaki", "phone": "2842093231"}}, {"type": "node", "id": 7741710749, "lat": 35.257433, "lon": 25.6071428, "tags": {"addr:housenumber": "7", "addr:street": "Boti Sfakianaki", "amenity": "restaurant", "cuisine": "gyros", "delivery": "yes", "int_name": "Estiades", "name": "\u0395\u03c3\u03c4\u03b9\u03ac\u03b4\u03b5\u03c2", "phone": "+302841033918"}}, {"type": "node", "id": 7770027848, "lat": 35.1985324, "lon": 25.7127248}, {"type": "node", "id": 7770027849, "lat": 35.1986022, "lon": 25.7128051}, {"type": "node", "id": 7770027850, "lat": 35.1984765, "lon": 25.7129685}, {"type": "node", "id": 7770027852, "lat": 35.1984068, "lon": 25.7128883}, {"type": "node", "id": 7782120554, "lat": 35.2999298, "lon": 25.7274476}, {"type": "node", "id": 7782120555, "lat": 35.2998302, "lon": 25.7274945}, {"type": "node", "id": 7782120556, "lat": 35.2997634, "lon": 25.7276729}, {"type": "node", "id": 7782120557, "lat": 35.299782, "lon": 25.7277279}, {"type": "node", "id": 7782120558, "lat": 35.2999725, "lon": 25.7276112}, {"type": "node", "id": 7782120559, "lat": 35.2995938, "lon": 25.727988}, {"type": "node", "id": 7782120560, "lat": 35.2995182, "lon": 25.7280591}, {"type": "node", "id": 7782120561, "lat": 35.2995653, "lon": 25.7281329}, {"type": "node", "id": 7782120562, "lat": 35.2996441, "lon": 25.7280537}, {"type": "node", "id": 7782120563, "lat": 35.2993617, "lon": 25.727862}, {"type": "node", "id": 7782120564, "lat": 35.2993278, "lon": 25.7278955}, {"type": "node", "id": 7782120565, "lat": 35.2993497, "lon": 25.7279371}, {"type": "node", "id": 7782120566, "lat": 35.2992939, "lon": 25.7279827}, {"type": "node", "id": 7782120567, "lat": 35.2992632, "lon": 25.7279357}, {"type": "node", "id": 7782120568, "lat": 35.2992052, "lon": 25.7279867}, {"type": "node", "id": 7782120569, "lat": 35.2992621, "lon": 25.7280873}, {"type": "node", "id": 7782120570, "lat": 35.2994186, "lon": 25.7279478}, {"type": "node", "id": 7782120571, "lat": 35.2994438, "lon": 25.7279116}, {"type": "node", "id": 7782120572, "lat": 35.2994766, "lon": 25.7279719}, {"type": "node", "id": 7782120573, "lat": 35.2995401, "lon": 25.7279183}, {"type": "node", "id": 7782120574, "lat": 35.2995128, "lon": 25.7278553}, {"type": "node", "id": 7782120575, "lat": 35.29911, "lon": 25.7281128}, {"type": "node", "id": 7782120576, "lat": 35.2991669, "lon": 25.7280993}, {"type": "node", "id": 7782120577, "lat": 35.2991942, "lon": 25.7282147}, {"type": "node", "id": 7782120578, "lat": 35.2992982, "lon": 25.7281892}, {"type": "node", "id": 7782120579, "lat": 35.2992687, "lon": 25.7281034}, {"type": "node", "id": 7782120580, "lat": 35.2992577, "lon": 25.728098}, {"type": "node", "id": 7782120581, "lat": 35.299238, "lon": 25.7280658}, {"type": "node", "id": 7782120582, "lat": 35.2991756, "lon": 25.7280739}, {"type": "node", "id": 7782120583, "lat": 35.2991713, "lon": 25.7280524}, {"type": "node", "id": 7782120584, "lat": 35.2991045, "lon": 25.7280672}, {"type": "node", "id": 7782120585, "lat": 35.2990662, "lon": 25.7281691}, {"type": "node", "id": 7782120586, "lat": 35.2989972, "lon": 25.7281771}, {"type": "node", "id": 7782120587, "lat": 35.2990049, "lon": 25.7282428}, {"type": "node", "id": 7782120588, "lat": 35.2990717, "lon": 25.7282227}, {"type": "node", "id": 7782120589, "lat": 35.2983569, "lon": 25.7284293}, {"type": "node", "id": 7782120590, "lat": 35.2983558, "lon": 25.7284909}, {"type": "node", "id": 7782120591, "lat": 35.2984445, "lon": 25.7284883}, {"type": "node", "id": 7782120592, "lat": 35.2984434, "lon": 25.7284279}, {"type": "node", "id": 7782120593, "lat": 35.2984532, "lon": 25.7284252}, {"type": "node", "id": 7782120594, "lat": 35.2984543, "lon": 25.728503}, {"type": "node", "id": 7782120595, "lat": 35.2985364, "lon": 25.728507}, {"type": "node", "id": 7782120596, "lat": 35.2985364, "lon": 25.7284829}, {"type": "node", "id": 7782120597, "lat": 35.2986021, "lon": 25.7284722}, {"type": "node", "id": 7782120598, "lat": 35.2985977, "lon": 25.7284266}, {"type": "node", "id": 7782120599, "lat": 35.298474, "lon": 25.7284346}, {"type": "node", "id": 7782120600, "lat": 35.2986787, "lon": 25.728153}, {"type": "node", "id": 7782120601, "lat": 35.2986054, "lon": 25.7281664}, {"type": "node", "id": 7782120602, "lat": 35.2985091, "lon": 25.7281758}, {"type": "node", "id": 7782120603, "lat": 35.2984981, "lon": 25.7283273}, {"type": "node", "id": 7782120604, "lat": 35.2986623, "lon": 25.7283086}, {"type": "node", "id": 7782120605, "lat": 35.2986612, "lon": 25.7282764}, {"type": "node", "id": 7782120606, "lat": 35.2986962, "lon": 25.728271}, {"type": "node", "id": 7804302764, "lat": 35.1978776, "lon": 25.7126069}, {"type": "node", "id": 7811062991, "lat": 35.1987054, "lon": 25.7135704, "tags": {"amenity": "cafe", "cuisine": "burger;sandwich;ice_cream", "internet_access": "wlan", "internet_access:fee": "no", "name": "\u03a0\u03bf\u03bb\u03cd\u03b4\u03c9\u03c1\u03bf\u03c2", "name:el": "\u03a0\u03bf\u03bb\u03cd\u03b4\u03c9\u03c1\u03bf\u03c2", "name:en": "Polydoros", "outdoor_seating": "yes"}}, {"type": "node", "id": 7856604686, "lat": 35.2919291, "lon": 25.4501707}, {"type": "node", "id": 7856604687, "lat": 35.2918447, "lon": 25.4502763}, {"type": "node", "id": 7869910318, "lat": 35.3116288, "lon": 25.4010068, "tags": {"source": "Landsat imagery"}}, {"type": "node", "id": 7869910319, "lat": 35.3114635, "lon": 25.4010355}, {"type": "node", "id": 7889677090, "lat": 35.2594283, "lon": 25.6496006, "tags": {"amenity": "cafe", "cuisine": "coffee_shop", "name": "\u03a4\u039f \u039b\u0399\u039c\u0391\u039d\u0399"}}, {"type": "node", "id": 7894571655, "lat": 35.2083693, "lon": 25.3371624, "tags": {"addr:city": "\u039a\u03b1\u03c3\u03c4\u03ad\u03bb\u03bb\u03b9", "addr:place": "\u039a\u03b1\u03c3\u03c4\u03ad\u03bb\u03bb\u03b9", "addr:postcode": "70006", "amenity": "cafe", "cuisine": "coffee_shop", "internet_access": "yes", "internet_access:fee": "no", "name": "MR coffee", "outdoor_seating": "yes", "phone": "2891031288"}}, {"type": "node", "id": 7894571657, "lat": 35.2072369, "lon": 25.3386892, "tags": {"amenity": "cafe", "cuisine": "coffee_shop"}}, {"type": "node", "id": 7894571658, "lat": 35.2076223, "lon": 25.3387639, "tags": {"amenity": "cafe", "cuisine": "coffee_shop", "internet_access": "yes", "name": "\u03a3\u0395\u0399\u03a3\u03a4\u03a1\u039f", "outdoor_seating": "yes"}}, {"type": "node", "id": 7894571659, "lat": 35.2079733, "lon": 25.3385912, "tags": {"amenity": "cafe", "cuisine": "coffee_shop;greek", "internet_access": "yes", "name": "\u0392\u0395 \u03a1\u0391\u039a\u0399", "outdoor_seating": "yes"}}, {"type": "node", "id": 7894571660, "lat": 35.2097723, "lon": 25.3376206, "tags": {"amenity": "cafe", "cuisine": "coffee_shop", "internet_access": "yes", "name": "\u0395\u03a0\u0399\u039b\u039f\u0393\u0397", "outdoor_seating": "yes"}}, {"type": "node", "id": 7894571661, "lat": 35.2099586, "lon": 25.3381598, "tags": {"amenity": "cafe", "cuisine": "coffee_shop", "name": "\u03a0\u0391\u039d\u03a4\u0395\u039b\u0397\u03a3"}}, {"type": "node", "id": 7894571662, "lat": 35.2064954, "lon": 25.3396353, "tags": {"amenity": "cafe", "cuisine": "coffee_shop"}}, {"type": "node", "id": 7894571663, "lat": 35.2088648, "lon": 25.3367695, "tags": {"amenity": "restaurant", "name": "\u0392\u0391\u0393\u0393\u0395\u039b\u0397\u03a3", "phone": "2891031650"}}, {"type": "node", "id": 7894571664, "lat": 35.2068008, "lon": 25.3392188, "tags": {"amenity": "restaurant", "name": "\u039a\u0391\u0396\u0399\u039d\u0399\u0395\u03a1\u0397\u03a3", "phone": "2891031300"}}, {"type": "node", "id": 7894571665, "lat": 35.2095148, "lon": 25.337577, "tags": {"amenity": "restaurant", "name": "\u039a\u039f\u03a5\u03a4\u039f\u03a5\u03a6\u0397"}}, {"type": "node", "id": 7894571667, "lat": 35.2110824, "lon": 25.3433497, "tags": {"amenity": "cafe", "cuisine": "coffee_shop"}}, {"type": "node", "id": 7965957731, "lat": 35.3061641, "lon": 25.3924588, "tags": {"amenity": "restaurant", "cuisine": "greek", "name": "Pithari", "outdoor_seating": "yes"}}, {"type": "node", "id": 7975014789, "lat": 35.3061389, "lon": 25.392603, "tags": {"amenity": "restaurant", "cuisine": "greek", "name": "Nikos the Fisherman", "outdoor_seating": "yes"}}, {"type": "node", "id": 7977853738, "lat": 35.3063881, "lon": 25.3913835, "tags": {"amenity": "restaurant", "cuisine": "greek", "name": "Fabrica", "outdoor_seating": "yes", "takeaway": "yes"}}, {"type": "node", "id": 8047080577, "lat": 35.3358386, "lon": 25.304203}, {"type": "node", "id": 8047080578, "lat": 35.3359589, "lon": 25.3042462, "tags": {"amenity": "restaurant", "name": "Main restaurant", "opening_hours": "07:15-10:30,12:30-14:30,19:00-21:30", "operator": "Aphrodite Beach", "outdoor_seating": "yes", "wheelchair": "limited"}}, {"type": "node", "id": 8047795685, "lat": 35.2108118, "lon": 25.542595, "tags": {"amenity": "cafe", "name:en": "Black Jim"}}, {"type": "node", "id": 8049771285, "lat": 35.2827428, "lon": 25.4615461, "tags": {"addr:city": "\u039c\u03ac\u03bb\u03b9\u03b1", "addr:housenumber": "13-15", "addr:postcode": "70007", "addr:street": "Taxiarchon Metaxa", "amenity": "restaurant", "contact:facebook": "https://m.facebook.com/Oliva-Traditional-Restaurant-450205462085161/", "name": "Oliva", "name:de": "Oliva", "opening_hours": "Mo-Su 12:30-00:30", "phone": "+302897029634"}}, {"type": "node", "id": 8050403788, "lat": 35.2818137, "lon": 25.4636231, "tags": {"addr:housenumber": "8", "addr:postcode": "70007", "addr:street": "Omirou", "amenity": "restaurant", "cuisine": "greek", "name": "\u039a\u03b1\u03bb\u03b5\u03c3\u03bc\u03b1", "name:de": "Kalesma", "name:el": "\u039a\u03b1\u03bb\u03b5\u03c3\u03bc\u03b1", "opening_hours": "Mo-Su 18:00-00:30", "phone": "+302897033125", "website": "https://www.kalesma.gr/"}}, {"type": "node", "id": 8120244408, "lat": 35.1874942, "lon": 25.7170035, "tags": {"addr:city": "\u0386\u03b3\u03b9\u03bf\u03c2 \u039d\u03b9\u03ba\u03cc\u03bb\u03b1\u03bf\u03c2", "addr:housenumber": "15", "addr:postcode": "72100", "addr:street": "\u0391\u03ba\u03c4\u03ae \u039d\u03b5\u03ac\u03c1\u03c7\u03bf\u03c5", "amenity": "restaurant", "cuisine": "greek;cafe;breakfast;seafood;steak_house", "delivery": "https://www.kouzinarestaurant.gr/ordering/restaurant/menu?restaurant_uid=26bc38e8-f189-45b0-9042-fab4cc34abdb&dine_in=true", "diet:meat": "yes", "name": "Kouzina", "opening_hours": "Mo-Su 08:00-23:00", "outdoor_seating": "yes", "phone": "+30 2841 028964", "takeaway": "yes", "website": "https://www.kouzinarestaurant.gr", "wheelchair": "limited"}}, {"type": "node", "id": 8279283518, "lat": 35.3085107, "lon": 25.5190051, "tags": {"amenity": "restaurant", "name:de": "Plori"}}, {"type": "node", "id": 8283736272, "lat": 35.1898419, "lon": 25.5222393}, {"type": "node", "id": 8305397204, "lat": 35.1255305, "lon": 25.7538554}, {"type": "node", "id": 8305397205, "lat": 35.1254803, "lon": 25.7541766}, {"type": "node", "id": 8305397206, "lat": 35.1255836, "lon": 25.7542271}, {"type": "node", "id": 8305397207, "lat": 35.1256352, "lon": 25.7539041}, {"type": "node", "id": 8306794930, "lat": 35.1232599, "lon": 25.7346065}, {"type": "node", "id": 8306794931, "lat": 35.1231292, "lon": 25.7347459}, {"type": "node", "id": 8306794932, "lat": 35.1232169, "lon": 25.7348689}, {"type": "node", "id": 8306794933, "lat": 35.1233476, "lon": 25.7347295}, {"type": "node", "id": 8361129028, "lat": 35.3187594, "lon": 25.3876324, "tags": {"amenity": "cafe"}}, {"type": "node", "id": 8386899849, "lat": 35.1941399, "lon": 25.7125883}, {"type": "node", "id": 8386899852, "lat": 35.1941539, "lon": 25.7127059}, {"type": "node", "id": 8386899918, "lat": 35.1941617, "lon": 25.7127714}, {"type": "node", "id": 8415422990, "lat": 35.2466456, "lon": 25.6369625}, {"type": "node", "id": 8415422991, "lat": 35.2465454, "lon": 25.6371718}, {"type": "node", "id": 8415422992, "lat": 35.2465232, "lon": 25.6371393}, {"type": "node", "id": 8415422993, "lat": 35.2464997, "lon": 25.6370509}, {"type": "node", "id": 8415422994, "lat": 35.2464658, "lon": 25.6369571}, {"type": "node", "id": 8415422995, "lat": 35.2465586, "lon": 25.6368578}, {"type": "node", "id": 8418700157, "lat": 35.2985059, "lon": 25.72822}, {"type": "node", "id": 8483061838, "lat": 35.1664334, "lon": 25.7103761, "tags": {"amenity": "cafe"}}, {"type": "node", "id": 8483061839, "lat": 35.1664349, "lon": 25.7103319, "tags": {"amenity": "restaurant", "cuisine": "greek"}}, {"type": "node", "id": 8542192848, "lat": 35.2567591, "lon": 25.7357486, "tags": {"amenity": "restaurant", "name": "\u039a\u03b1\u03bd\u03ac\u03bb\u03b9"}}, {"type": "node", "id": 8651997993, "lat": 35.1666045, "lon": 25.4821924}, {"type": "node", "id": 8651997994, "lat": 35.1667015, "lon": 25.4822435}, {"type": "node", "id": 8651997995, "lat": 35.1667933, "lon": 25.482061}, {"type": "node", "id": 8651997996, "lat": 35.1667161, "lon": 25.4819934}, {"type": "node", "id": 8651997997, "lat": 35.1667036, "lon": 25.482075}, {"type": "node", "id": 8651997998, "lat": 35.1666212, "lon": 25.4820482}, {"type": "node", "id": 8651998938, "lat": 35.1665424, "lon": 25.4831949}, {"type": "node", "id": 8731491727, "lat": 35.1910615, "lon": 25.7163913, "tags": {"amenity": "cafe", "name": "ARC"}}, {"type": "node", "id": 8816520015, "lat": 35.2304076, "lon": 25.7233193, "tags": {"amenity": "restaurant", "int_name": "Gefseis", "level": "0", "name": "\u0393\u03b5\u03cd\u03c3\u03b5\u03b9\u03c2", "outdoor_seating": "yes", "reservation": "no"}}, {"type": "node", "id": 8977384048, "lat": 35.1866705, "lon": 25.7114383, "tags": {"amenity": "cafe", "level": "0", "name": "coffee break", "outdoor_seating": "yes", "takeaway": "yes", "wheelchair": "no"}}, {"type": "node", "id": 8994127182, "lat": 35.1894084, "lon": 25.7208301, "tags": {"amenity": "cafe", "name": "Deja Vu"}}, {"type": "node", "id": 9007647028, "lat": 35.190993, "lon": 25.7183367, "tags": {"amenity": "cafe", "name": "Kosa"}}, {"type": "node", "id": 9060400417, "lat": 35.3144383, "lon": 25.3944987, "tags": {"addr:housenumber": "120", "addr:postcode": "70014", "addr:street": "\u0395\u03bb\u03b5\u03c5\u03b8\u03b5\u03c1\u03af\u03bf\u03c5 \u0392\u03b5\u03bd\u03b9\u03b6\u03ad\u03bb\u03bf\u03c5", "amenity": "restaurant", "cuisine": "chinese;japanese;sushi", "internet_access": "wlan", "name": "Wok Spot", "name:en": "Wok Spot", "opening_hours": "Mo-Su 13:00-01:00", "phone": "+302897025005", "website": "https://www.tripadvisor.com/Restaurant_Review-g503710-d23579910-Reviews-Wok_Spot_Hersonissos-Hersonissos_Crete.html"}}, {"type": "node", "id": 9070060741, "lat": 35.3064051, "lon": 25.41086, "tags": {"amenity": "cafe"}}, {"type": "node", "id": 9074495145, "lat": 35.1581902, "lon": 25.6444769, "tags": {"amenity": "cafe", "name": "Agadiko"}}, {"type": "node", "id": 9083538821, "lat": 35.1101544, "lon": 25.8040996, "tags": {"amenity": "cafe", "name": "\u0391\u03b5\u03c1\u03b9\u03ba\u03cc", "outdoor_seating": "yes", "wheelchair": "no"}}, {"type": "node", "id": 9784589853, "lat": 35.3339976, "lon": 25.2979081, "tags": {"amenity": "restaurant", "name": "Beach Restaurant"}}, {"type": "node", "id": 9799415395, "lat": 35.3046542, "lon": 25.4215454, "tags": {"amenity": "restaurant", "cuisine": "sushi", "name": "Umi", "opening_hours": "Mo-Su 18:15-21:15", "operator": "Nana Golden Beach", "outdoor_seating": "no", "reservation": "required"}}, {"type": "node", "id": 9840754675, "lat": 35.1883512, "lon": 25.7179825, "tags": {"addr:city": "\u0386\u03b3\u03b9\u03bf\u03c2 \u039d\u03b9\u03ba\u03cc\u03bb\u03b1\u03bf\u03c2", "addr:housenumber": "15", "addr:postcode": "72100", "addr:street": "\u039a\u03cd\u03c0\u03c1\u03b9\u03c9\u03bd \u0391\u03b3\u03c9\u03bd\u03b9\u03c3\u03c4\u03ce\u03bd", "amenity": "restaurant", "contact:facebook": "violakafenio", "cuisine": "greek", "name": "\u0392\u03b9\u03cc\u03bb\u03b1", "name:el-Latn": "Viola", "phone": "+302841021266"}}, {"type": "node", "id": 9874669591, "lat": 35.0746567, "lon": 25.6554972, "tags": {"amenity": "restaurant"}}, {"type": "node", "id": 9874669602, "lat": 35.0796687, "lon": 25.5861703, "tags": {"amenity": "cafe"}}, {"type": "node", "id": 9874669604, "lat": 35.0800632, "lon": 25.5844909, "tags": {"amenity": "restaurant"}}, {"type": "node", "id": 9883548149, "lat": 35.1883637, "lon": 25.7163792, "tags": {"amenity": "cafe", "name": "Cuple"}}, {"type": "node", "id": 9891394118, "lat": 35.313747, "lon": 25.3976134, "tags": {"amenity": "restaurant", "name": "Cretan blue restaurant"}}, {"type": "node", "id": 9891419117, "lat": 35.1395738, "lon": 25.6596919, "tags": {"addr:city": "\u039a\u03c1\u03bf\u03cd\u03c3\u03c4\u03b1\u03c2", "addr:postcode": "72100", "amenity": "restaurant", "cuisine": "regional;traditional", "int_name": "Xatheri", "name": "\u039e\u03b1\u03b8\u03ad\u03c1\u03b9", "opening_hours": "Mo-Su 07:00-23:30", "phone": "+302841051064", "website": "https://xatheri.gr"}}, {"type": "node", "id": 9947132169, "lat": 35.3345871, "lon": 25.3158787, "tags": {"amenity": "restaurant", "name": "Hotel's Restaurant"}}, {"type": "node", "id": 9953274654, "lat": 35.2938704, "lon": 25.4281863, "tags": {"amenity": "cafe", "check_date": "2025-04-04", "name": "Sandwich World"}}, {"type": "node", "id": 9953274655, "lat": 35.2938732, "lon": 25.4281199, "tags": {"amenity": "cafe", "name": "Diaman Takis"}}, {"type": "node", "id": 9953274662, "lat": 35.2937199, "lon": 25.4293376, "tags": {"amenity": "restaurant", "name": "Taverna mastoras"}}, {"type": "node", "id": 9953274663, "lat": 35.2941712, "lon": 25.4273324, "tags": {"amenity": "restaurant", "name": "The Greek Grill"}}, {"type": "node", "id": 9953274675, "lat": 35.2935649, "lon": 25.4293482, "tags": {"amenity": "restaurant"}}, {"type": "node", "id": 9957653599, "lat": 35.2923781, "lon": 25.4337916, "tags": {"amenity": "restaurant", "check_date": "2025-04-03", "name": "Old Town Stalis"}}, {"type": "node", "id": 9957653601, "lat": 35.2933269, "lon": 25.4305616, "tags": {"amenity": "restaurant", "check_date": "2025-04-03", "name": "Four Brothers"}}, {"type": "node", "id": 9957653606, "lat": 35.2930948, "lon": 25.4307179, "tags": {"amenity": "restaurant", "check_date": "2025-04-03", "name": "Panorama"}}, {"type": "node", "id": 9957653614, "lat": 35.293343, "lon": 25.4304795, "tags": {"amenity": "cafe", "check_date": "2025-04-03", "name": "Flavour"}}, {"type": "node", "id": 9957667320, "lat": 35.2932703, "lon": 25.4310287, "tags": {"amenity": "restaurant", "name": "Jannis"}}, {"type": "node", "id": 9957667321, "lat": 35.2924474, "lon": 25.4342943, "tags": {"amenity": "restaurant", "name": "Lukas Beach"}}, {"type": "node", "id": 9957667325, "lat": 35.2927164, "lon": 25.4324802, "tags": {"amenity": "restaurant", "check_date": "2025-04-03", "name": "Capricciosa"}}, {"type": "node", "id": 9957667326, "lat": 35.2926115, "lon": 25.4338255, "tags": {"amenity": "restaurant", "name": "Mythos", "wheelchair": "yes"}}, {"type": "node", "id": 9957667327, "lat": 35.292806, "lon": 25.4312062, "tags": {"amenity": "restaurant"}}, {"type": "node", "id": 9957667329, "lat": 35.293152, "lon": 25.4313617, "tags": {"amenity": "restaurant", "name": "Mary's Place"}}, {"type": "node", "id": 9961844165, "lat": 35.2627306, "lon": 25.7208068, "tags": {"amenity": "cafe", "name": "Eleman"}}, {"type": "node", "id": 9961844172, "lat": 35.2623117, "lon": 25.7211253, "tags": {"amenity": "cafe", "name": "Maritsa"}}, {"type": "node", "id": 9961844174, "lat": 35.1561329, "lon": 25.6456174, "tags": {"amenity": "restaurant"}}, {"type": "node", "id": 9961844186, "lat": 35.2628982, "lon": 25.7205472, "tags": {"amenity": "restaurant", "name": "Praktoreio"}}, {"type": "node", "id": 9966275999, "lat": 35.3066822, "lon": 25.3911943, "tags": {"amenity": "restaurant", "name": "Emmanuel Tavern"}}, {"type": "node", "id": 9966276009, "lat": 35.3068207, "lon": 25.3907953, "tags": {"amenity": "restaurant", "name": "Sergiani"}}, {"type": "node", "id": 9966276016, "lat": 35.3070487, "lon": 25.3900551, "tags": {"amenity": "restaurant"}}, {"type": "node", "id": 9966284319, "lat": 35.2952364, "lon": 25.4248662, "tags": {"amenity": "restaurant"}}, {"type": "node", "id": 9966284325, "lat": 35.2950964, "lon": 25.4250903, "tags": {"amenity": "restaurant"}}, {"type": "node", "id": 9966284326, "lat": 35.3062716, "lon": 25.3918791, "tags": {"amenity": "restaurant", "name": "Galini"}}, {"type": "node", "id": 9966284331, "lat": 35.3078234, "lon": 25.3861014, "tags": {"amenity": "restaurant"}}, {"type": "node", "id": 9966284337, "lat": 35.3068459, "lon": 25.391007, "tags": {"amenity": "restaurant", "name": "Retro Diner"}}, {"type": "node", "id": 9966284342, "lat": 35.3061592, "lon": 25.3920533, "tags": {"amenity": "cafe", "name": "Cretans Land"}}, {"type": "node", "id": 9966284344, "lat": 35.3078048, "lon": 25.371351, "tags": {"amenity": "restaurant", "name": "Grill House"}}, {"type": "node", "id": 9966284362, "lat": 35.3081004, "lon": 25.3850455, "tags": {"amenity": "restaurant", "name": "Kostas"}}, {"type": "node", "id": 9966284369, "lat": 35.3068709, "lon": 25.3900489, "tags": {"amenity": "restaurant", "name": "Ariandi"}}, {"type": "node", "id": 9967442099, "lat": 35.33607, "lon": 25.3041798}, {"type": "node", "id": 10029403571, "lat": 35.197313, "lon": 25.7126159, "tags": {"amenity": "restaurant", "cuisine": "regional;mediterranean", "name": "Arismari"}}, {"type": "node", "id": 10029403573, "lat": 35.1974603, "lon": 25.7125225, "tags": {"amenity": "cafe", "name": "Piato"}}, {"type": "node", "id": 10075757660, "lat": 35.1644207, "lon": 25.4472461}, {"type": "node", "id": 10075757661, "lat": 35.1643775, "lon": 25.4472092}, {"type": "node", "id": 10075757662, "lat": 35.1644613, "lon": 25.4472367}, {"type": "node", "id": 10075757663, "lat": 35.1644569, "lon": 25.4471897}, {"type": "node", "id": 10075757664, "lat": 35.1644048, "lon": 25.4471656}, {"type": "node", "id": 10075778610, "lat": 35.1647226, "lon": 25.4475453}, {"type": "node", "id": 10075778611, "lat": 35.1647223, "lon": 25.4475381}, {"type": "node", "id": 10075778612, "lat": 35.1647447, "lon": 25.4475868}, {"type": "node", "id": 10075778613, "lat": 35.1647858, "lon": 25.4475585}, {"type": "node", "id": 10075778614, "lat": 35.1647622, "lon": 25.4475108}, {"type": "node", "id": 10075778616, "lat": 35.1647761, "lon": 25.4475353}, {"type": "node", "id": 10075786535, "lat": 35.1650962, "lon": 25.4475955}, {"type": "node", "id": 10075786537, "lat": 35.1651412, "lon": 25.4472638}, {"type": "node", "id": 10079146920, "lat": 35.2333813, "lon": 25.4691712}, {"type": "node", "id": 10079146921, "lat": 35.2333575, "lon": 25.4691991}, {"type": "node", "id": 10079146922, "lat": 35.2332757, "lon": 25.4690947}, {"type": "node", "id": 10079146923, "lat": 35.2332995, "lon": 25.4690668}, {"type": "node", "id": 10132778010, "lat": 35.3047796, "lon": 25.4213423}, {"type": "node", "id": 10132778011, "lat": 35.3047143, "lon": 25.4212999}, {"type": "node", "id": 10132778012, "lat": 35.3045998, "lon": 25.4216065}, {"type": "node", "id": 10132778013, "lat": 35.3047004, "lon": 25.4216481}, {"type": "node", "id": 10132782712, "lat": 35.3029902, "lon": 25.4211879}, {"type": "node", "id": 10132782713, "lat": 35.302946, "lon": 25.4211481}, {"type": "node", "id": 10132782714, "lat": 35.3029317, "lon": 25.4211719}, {"type": "node", "id": 10132782715, "lat": 35.3028869, "lon": 25.4211315}, {"type": "node", "id": 10132782716, "lat": 35.3028387, "lon": 25.4212118}, {"type": "node", "id": 10132824981, "lat": 35.3030324, "lon": 25.422332}, {"type": "node", "id": 10132824982, "lat": 35.3030894, "lon": 25.4224545}, {"type": "node", "id": 10132824983, "lat": 35.3029604, "lon": 25.4225446}, {"type": "node", "id": 10132824984, "lat": 35.3029202, "lon": 25.4224581}, {"type": "node", "id": 10132824985, "lat": 35.3030327, "lon": 25.4223795}, {"type": "node", "id": 10132824986, "lat": 35.303016, "lon": 25.4223435}, {"type": "node", "id": 10132860817, "lat": 35.3028843, "lon": 25.421253}, {"type": "node", "id": 10132860818, "lat": 35.3028044, "lon": 25.421386}, {"type": "node", "id": 10132860819, "lat": 35.3028478, "lon": 25.4214251}, {"type": "node", "id": 10132860820, "lat": 35.3028986, "lon": 25.4211609, "tags": {"amenity": "restaurant", "name": "Artemis Restaurant", "opening_hours": "Mo-Su 07:15-11:00,13:00-15:00,18:15-21:30"}}, {"type": "node", "id": 10135045115, "lat": 35.3047368, "lon": 25.4208831}, {"type": "node", "id": 10135045116, "lat": 35.3048448, "lon": 25.4206717}, {"type": "node", "id": 10135046917, "lat": 35.3048769, "lon": 25.4206963}, {"type": "node", "id": 10135046918, "lat": 35.304769, "lon": 25.4209077}, {"type": "node", "id": 10147615646, "lat": 35.2831154, "lon": 25.461197, "tags": {"amenity": "restaurant", "cuisine": "regional", "name": "geitonia"}}, {"type": "node", "id": 10147616625, "lat": 35.2899871, "lon": 25.4597728, "tags": {"addr:city": "\u039c\u03ac\u03bb\u03b9\u03b1", "addr:postcode": "70007", "addr:street": "\u039d\u03b9\u03ba\u03bf\u03bb\u03ac\u03bf\u03c5 \u0393\u03c1\u03b1\u03bc\u03bc\u03b1\u03c4\u03b9\u03ba\u03ac\u03ba\u03b7", "air_conditioning": "no", "amenity": "restaurant", "brewery": "yes", "cuisine": "greek", "internet_access": "wlan", "internet_access:fee": "customers", "name": "\u039a\u03bd\u03c9\u03c3\u03cc\u03c2 \u03a4\u03b1\u03b2\u03ad\u03c1\u03bd\u03b1", "name:de": "Knossos Taverna", "name:el": "\u039a\u03bd\u03c9\u03c3\u03cc\u03c2 \u03a4\u03b1\u03b2\u03ad\u03c1\u03bd\u03b1", "name:en": "Knossos Taverna", "opening_hours": "Mo-Su 11:30-23:30", "outdoor_seating": "yes", "payment:cash": "yes", "payment:credit_cards": "yes", "payment:debit_cards": "yes", "reservation": "recommended", "smoking": "outside", "wheelchair": "yes"}}, {"type": "node", "id": 10151306975, "lat": 35.2853073, "lon": 25.4556855, "tags": {"air_conditioning": "no", "amenity": "restaurant", "name": "Kreta Taverna", "payment:credit_cards": "yes", "payment:debit_cards": "yes", "smoking": "outside"}}, {"type": "node", "id": 10152329860, "lat": 35.263459, "lon": 25.4228473}, {"type": "node", "id": 10152329861, "lat": 35.2634546, "lon": 25.4227562}, {"type": "node", "id": 10152329862, "lat": 35.2634379, "lon": 25.4226827}, {"type": "node", "id": 10152329863, "lat": 35.2633391, "lon": 25.4227752}, {"type": "node", "id": 10152329864, "lat": 35.2633369, "lon": 25.4228595}, {"type": "node", "id": 10152329865, "lat": 35.2639044, "lon": 25.4228038}, {"type": "node", "id": 10152329866, "lat": 35.2638661, "lon": 25.4228952}, {"type": "node", "id": 10152329867, "lat": 35.2637675, "lon": 25.4228333}, {"type": "node", "id": 10152329868, "lat": 35.2638058, "lon": 25.4227419}, {"type": "node", "id": 10152329869, "lat": 35.2636833, "lon": 25.4224398}, {"type": "node", "id": 10152329870, "lat": 35.26366, "lon": 25.4225078}, {"type": "node", "id": 10152329871, "lat": 35.2636577, "lon": 25.4226016}, {"type": "node", "id": 10152329872, "lat": 35.2635789, "lon": 25.4226016}, {"type": "node", "id": 10152329873, "lat": 35.2635845, "lon": 25.4224548}, {"type": "node", "id": 10152329874, "lat": 35.2636422, "lon": 25.4224779}, {"type": "node", "id": 10152329875, "lat": 35.2636478, "lon": 25.4224208}, {"type": "node", "id": 10152329876, "lat": 35.2638121, "lon": 25.4226615}, {"type": "node", "id": 10152329877, "lat": 35.2637399, "lon": 25.4225867}, {"type": "node", "id": 10152329878, "lat": 35.2637877, "lon": 25.4225269}, {"type": "node", "id": 10152329879, "lat": 35.2638409, "lon": 25.4225622}, {"type": "node", "id": 10152329880, "lat": 35.2638731, "lon": 25.4226003}, {"type": "node", "id": 10152329881, "lat": 35.263771, "lon": 25.4225228}, {"type": "node", "id": 10152329882, "lat": 35.2637177, "lon": 25.422603}, {"type": "node", "id": 10152329883, "lat": 35.2636785, "lon": 25.4224537}, {"type": "node", "id": 10152329884, "lat": 35.2634734, "lon": 25.4229533}, {"type": "node", "id": 10152329885, "lat": 35.2635413, "lon": 25.4230197}, {"type": "node", "id": 10152329886, "lat": 35.2635028, "lon": 25.4230787}, {"type": "node", "id": 10152329887, "lat": 35.2634349, "lon": 25.4230123}, {"type": "node", "id": 10152471420, "lat": 35.1664276, "lon": 25.4823048, "tags": {"amenity": "cafe", "name": "Maria"}}, {"type": "node", "id": 10152471422, "lat": 35.1665504, "lon": 25.4831262}, {"type": "node", "id": 10152471423, "lat": 35.1664442, "lon": 25.4831077}, {"type": "node", "id": 10152471428, "lat": 35.1664298, "lon": 25.4831753}, {"type": "node", "id": 10152471429, "lat": 35.1664378, "lon": 25.4831066}, {"type": "node", "id": 10155498937, "lat": 35.2928951, "lon": 25.4331867}, {"type": "node", "id": 10155498938, "lat": 35.2928693, "lon": 25.4333293}, {"type": "node", "id": 10155498939, "lat": 35.2927037, "lon": 25.4332566}, {"type": "node", "id": 10155498940, "lat": 35.2927182, "lon": 25.4330838}, {"type": "node", "id": 10155536686, "lat": 35.2631606, "lon": 25.4232263, "tags": {"amenity": "restaurant", "cuisine": "greek", "name": "To \u03a3\u03c4\u03ad\u03ba\u03b9 Tou \u039a\u03b1\u03c8\u03ac\u03bb\u03b9"}}, {"type": "node", "id": 10156753649, "lat": 35.2875841, "lon": 25.4617008, "tags": {"amenity": "restaurant", "cuisine": "sushi", "name": "Wasabi"}}, {"type": "node", "id": 10180771755, "lat": 35.0962951, "lon": 25.3989695, "tags": {"amenity": "restaurant"}}, {"type": "node", "id": 10293310571, "lat": 35.2934495, "lon": 25.4613392}, {"type": "node", "id": 10293310572, "lat": 35.2935649, "lon": 25.461379}, {"type": "node", "id": 10293310573, "lat": 35.2935838, "lon": 25.4612966}, {"type": "node", "id": 10293310574, "lat": 35.2934684, "lon": 25.4612568}, {"type": "node", "id": 10293408878, "lat": 35.2936272, "lon": 25.4608536}, {"type": "node", "id": 10293408879, "lat": 35.2934952, "lon": 25.460828}, {"type": "node", "id": 10293408880, "lat": 35.2934811, "lon": 25.4609369}, {"type": "node", "id": 10293408881, "lat": 35.2936132, "lon": 25.4609625}, {"type": "node", "id": 10308083956, "lat": 35.2858343, "lon": 25.4625799, "tags": {"amenity": "cafe", "name": "Mambo"}}, {"type": "node", "id": 10310275935, "lat": 35.2925978, "lon": 25.4573084, "tags": {"amenity": "restaurant", "cuisine": "greek", "name": "Aeolos Beach Bar"}}, {"type": "node", "id": 10556861976, "lat": 35.2922083, "lon": 25.4498943, "tags": {"amenity": "restaurant", "name": "Ayeri"}}, {"type": "node", "id": 10556861977, "lat": 35.291884, "lon": 25.4495273, "tags": {"amenity": "restaurant", "name": "Main Restaurant"}}, {"type": "node", "id": 10556861978, "lat": 35.2920997, "lon": 25.4479729, "tags": {"amenity": "restaurant", "name": "Sunset Asian"}}, {"type": "node", "id": 10556861979, "lat": 35.2922215, "lon": 25.4497118, "tags": {"amenity": "restaurant", "name": "Veranda"}}, {"type": "node", "id": 10571788095, "lat": 35.283665, "lon": 25.4592461, "tags": {"amenity": "restaurant", "cuisine": "barbecue", "name": "The Draught House"}}, {"type": "node", "id": 10708296764, "lat": 35.2178269, "lon": 25.4215327, "tags": {"amenity": "restaurant", "name": "Velani"}}, {"type": "node", "id": 10744107805, "lat": 35.3194306, "lon": 25.3578836, "tags": {"addr:postcode": "70014", "amenity": "restaurant", "cuisine": "greek", "email": "info@arionstables.com", "internet_access": "wlan", "name:en": "Arion Stables", "opening_hours": "Su-Sa 12:00-23:00", "phone": "6973733825", "website": "http://www.arionstables.com"}}, {"type": "node", "id": 11052164567, "lat": 35.2917306, "lon": 25.4687253, "tags": {"amenity": "restaurant", "name": "Malia Star"}}, {"type": "node", "id": 11053416005, "lat": 35.28998, "lon": 25.4538339, "tags": {"addr:city": "\u039c\u03ac\u03bb\u03b9\u03b1", "addr:housenumber": "77", "addr:postcode": "70007", "addr:street": "\u039d\u03b9\u03ba\u03bf\u03bb\u03ac\u03bf\u03c5 \u0393\u03c1\u03b1\u03bc\u03bc\u03b1\u03c4\u03b9\u03ba\u03ac\u03ba\u03b7", "air_conditioning": "no", "amenity": "restaurant", "cuisine": "greek", "name": "Sofra Family Restaurant", "name:en": "Sofra Family Restaurant", "payment:credit_cards": "yes", "payment:debit_cards": "yes", "phone": "+30 289 7029846", "smoking": "yes"}}, {"type": "node", "id": 11054611114, "lat": 35.2847442, "lon": 25.4641373, "tags": {"amenity": "restaurant", "name": "Queen"}}, {"type": "node", "id": 11054618042, "lat": 35.2828764, "lon": 25.4610123, "tags": {"amenity": "restaurant", "name": "Stone House"}}, {"type": "node", "id": 11054618044, "lat": 35.2823713, "lon": 25.4629676, "tags": {"amenity": "restaurant", "name": "Taverna Platia"}}, {"type": "node", "id": 11054671954, "lat": 35.294975, "lon": 25.4824703, "tags": {"amenity": "restaurant", "name": "Potamos"}}, {"type": "node", "id": 11061134713, "lat": 35.291708, "lon": 25.4505662, "tags": {"amenity": "restaurant", "name": "Tavernaki"}}, {"type": "node", "id": 11099329922, "lat": 35.1255092, "lon": 25.7539917}, {"type": "node", "id": 11099329949, "lat": 35.1258262, "lon": 25.7420215, "tags": {"amenity": "restaurant", "name": "MACRAME"}}, {"type": "node", "id": 11109065005, "lat": 35.2591895, "lon": 25.7278371, "tags": {"addr:postcode": "72053", "addr:street": "\u0391\u03ba\u03c4\u03ae \u039f\u03bb\u03bf\u03cd\u03bd\u03c4\u03bf\u03c2", "amenity": "restaurant", "name:en": "The Rakaki"}}, {"type": "node", "id": 11109074905, "lat": 35.2469864, "lon": 25.725089, "tags": {"addr:postcode": "72100", "addr:street": "\u0391\u03b3\u03af\u03bf\u03c5 \u039d\u03b9\u03ba\u03bf\u03bb\u03ac\u03bf\u03c5 - \u0395\u03bb\u03bf\u03cd\u03bd\u03c4\u03b1\u03c2", "amenity": "restaurant", "name": "\u03a4\u03b1\u03b2\u03ad\u03c1\u03bd\u03b1 \u0391\u03ba\u03c1\u03bf\u03c7\u03ce\u03c1\u03b9\u03b1", "name:el": "\u03a4\u03b1\u03b2\u03ad\u03c1\u03bd\u03b1 \u0391\u03ba\u03c1\u03bf\u03c7\u03ce\u03c1\u03b9\u03b1", "name:en": "Taverna Akrohoria"}}, {"type": "node", "id": 11109511609, "lat": 35.3268704, "lon": 25.3477052, "tags": {"addr:postcode": "70014", "addr:street": "\u039d\u03ad\u03b1\u03c2 \u0391\u03bb\u03b9\u03ba\u03b1\u03c1\u03bd\u03b1\u03c3\u03c3\u03bf\u03cd - \u03a7\u03b5\u03c1\u03c3\u03bf\u03bd\u03ae\u03c3\u03bf\u03c5", "amenity": "restaurant", "name": "\u039a\u03c4\u03b7\u03bc\u03b1 \u0395\u03bc\u03bc\u03b5\u03bb\u03b5\u03b9\u03b1", "name:el": "\u039a\u03c4\u03b7\u03bc\u03b1 \u0395\u03bc\u03bc\u03b5\u03bb\u03b5\u03b9\u03b1", "name:en": "Ktima Emmeleia"}}, {"type": "node", "id": 11131307206, "lat": 35.3091088, "lon": 25.3476017, "tags": {"addr:postcode": "71201", "addr:street": "Agriana", "amenity": "restaurant", "cuisine": "greek", "name": "\u0394\u03af\u03c7\u03b1\u03bb\u03bf \u03a4\u03b1\u03b2\u03ad\u03c1\u03bd\u03b1", "name:el": "\u0394\u03af\u03c7\u03b1\u03bb\u03bf \u03a4\u03b1\u03b2\u03ad\u03c1\u03bd\u03b1", "name:en": "Dihalo Taverna", "opening_hours": "Mo, We-Sa 18:00-00:00; Su 13:00-00:00", "phone": "+302897024000"}}, {"type": "node", "id": 11218307874, "lat": 35.1886031, "lon": 25.7209629, "tags": {"amenity": "restaurant", "name": "Archontiko"}}, {"type": "node", "id": 11232250851, "lat": 35.3366159, "lon": 25.3571105, "tags": {"amenity": "restaurant", "name": "La Veranda", "opening_hours": "12:30-15:00, 16:00-17:00", "outdoor_seating": "terrace"}}, {"type": "node", "id": 11232250852, "lat": 35.336733, "lon": 25.3572943, "tags": {"amenity": "restaurant", "cuisine": "italian", "name": "Peccato Divino", "outdoor_seating": "yes"}}, {"type": "node", "id": 11235584121, "lat": 35.3204548, "lon": 25.3914402, "tags": {"addr:housenumber": "87", "addr:postcode": "70014", "amenity": "restaurant", "cocktails": "yes", "contact:email": "skipperrestaurant@gmail.com", "contact:phone": "+30 2897 021211", "cuisine": "greek", "diet:vegetarian": "yes", "indoor_seating": "yes", "name": "Skipper", "outdoor_seating": "yes", "toilets": "yes", "toilets:access": "customers"}}, {"type": "node", "id": 11303405124, "lat": 35.3259296, "lon": 25.3871752, "tags": {"amenity": "restaurant"}}, {"type": "node", "id": 11303405141, "lat": 35.3247458, "lon": 25.3870814, "tags": {"amenity": "restaurant"}}, {"type": "node", "id": 11303405162, "lat": 35.3246799, "lon": 25.387075}, {"type": "node", "id": 11303405166, "lat": 35.3245335, "lon": 25.3844555, "tags": {"amenity": "restaurant"}}, {"type": "node", "id": 11303447975, "lat": 35.3244088, "lon": 25.3855445, "tags": {"amenity": "restaurant"}}, {"type": "node", "id": 11303447992, "lat": 35.3247416, "lon": 25.3871045}, {"type": "node", "id": 11303447996, "lat": 35.3238529, "lon": 25.3876849, "tags": {"amenity": "restaurant"}}, {"type": "node", "id": 11303448004, "lat": 35.3246517, "lon": 25.3841283, "tags": {"amenity": "restaurant"}}, {"type": "node", "id": 11492741599, "lat": 35.3359183, "lon": 25.3537317}, {"type": "node", "id": 11492741600, "lat": 35.3359203, "lon": 25.3537652}, {"type": "node", "id": 11492741601, "lat": 35.3359138, "lon": 25.3537978}, {"type": "node", "id": 11492741602, "lat": 35.3357581, "lon": 25.3538143}, {"type": "node", "id": 11492741603, "lat": 35.3357464, "lon": 25.3537797}, {"type": "node", "id": 11492741604, "lat": 35.3357451, "lon": 25.3537424}, {"type": "node", "id": 11492741605, "lat": 35.3358995, "lon": 25.3538264}, {"type": "node", "id": 11492741606, "lat": 35.3358788, "lon": 25.3538482}, {"type": "node", "id": 11492741607, "lat": 35.3358536, "lon": 25.3538612}, {"type": "node", "id": 11492741608, "lat": 35.3358263, "lon": 25.3538641}, {"type": "node", "id": 11492741609, "lat": 35.3357996, "lon": 25.3538566}, {"type": "node", "id": 11492741610, "lat": 35.3357761, "lon": 25.3538394}, {"type": "node", "id": 11492741611, "lat": 35.3357542, "lon": 25.3537067}, {"type": "node", "id": 11492741612, "lat": 35.3357727, "lon": 25.353677}, {"type": "node", "id": 11492741613, "lat": 35.3357983, "lon": 25.3536568}, {"type": "node", "id": 11492741614, "lat": 35.335828, "lon": 25.3536485}, {"type": "node", "id": 11492741615, "lat": 35.3358583, "lon": 25.3536531}, {"type": "node", "id": 11492741616, "lat": 35.3358855, "lon": 25.3536701}, {"type": "node", "id": 11492741617, "lat": 35.3359063, "lon": 25.3536974}, {"type": "node", "id": 11539950665, "lat": 35.2629163, "lon": 25.4235585, "tags": {"amenity": "cafe", "name": "\u03a3\u039a\u039f\u03a4\u0395\u0399\u039d\u0399\u0391\u039d\u039f\u03a3", "name:el": "\u03a3\u039a\u039f\u03a4\u0395\u0399\u039d\u0399\u0391\u039d\u039f\u03a3", "name:en": "Skoteinianos"}}, {"type": "node", "id": 11576435645, "lat": 35.335806, "lon": 25.3040724}, {"type": "node", "id": 11576435648, "lat": 35.3359064, "lon": 25.3040341}, {"type": "node", "id": 11576435649, "lat": 35.3359384, "lon": 25.3040867}, {"type": "node", "id": 11576435650, "lat": 35.335955, "lon": 25.3043912}, {"type": "node", "id": 11576435651, "lat": 35.3360499, "lon": 25.3045076}, {"type": "node", "id": 11576435652, "lat": 35.3362009, "lon": 25.3043369}, {"type": "node", "id": 11576435653, "lat": 35.3361017, "lon": 25.3042205}, {"type": "node", "id": 11576435654, "lat": 35.3360596, "lon": 25.3039547}, {"type": "node", "id": 11576435655, "lat": 35.3361707, "lon": 25.3040962}, {"type": "node", "id": 11576435656, "lat": 35.3360833, "lon": 25.3041928}, {"type": "node", "id": 11577013721, "lat": 35.3340149, "lon": 25.3056035, "tags": {"amenity": "restaurant", "cuisine": "greek", "name": "Knossos Greek Taverna"}}, {"type": "node", "id": 11577013740, "lat": 35.3326184, "lon": 25.3060598, "tags": {"amenity": "restaurant", "name": "Dreams Restaurant"}}, {"type": "node", "id": 11577174499, "lat": 35.3304655, "lon": 25.3058345, "tags": {"amenity": "restaurant", "cuisine": "greek", "name": "Taverna Filoxenia"}}, {"type": "node", "id": 11577247661, "lat": 35.3298011, "lon": 25.3067342, "tags": {"amenity": "restaurant", "cuisine": "greek", "name": "TO LYCHNARI", "name:el": "\u03a4\u039f \u039b\u03a5\u03a7\u039d\u0391\u03a1\u0399", "phone": "+302897042268", "website": "https://www.facebook.com/to.lychnari"}}, {"type": "node", "id": 11577274471, "lat": 35.3289603, "lon": 25.3066709, "tags": {"amenity": "cafe", "cuisine": "coffee_shop", "name": "Coffee Market"}}, {"type": "node", "id": 11577274472, "lat": 35.3289066, "lon": 25.3064563, "tags": {"amenity": "cafe", "cuisine": "coffee_shop", "name": "Coffee Cup"}}, {"type": "node", "id": 11577357639, "lat": 35.328335, "lon": 25.3071937, "tags": {"amenity": "cafe", "name": "Salt & sugar"}}, {"type": "node", "id": 11577426281, "lat": 35.329493, "lon": 25.3019417, "tags": {"amenity": "cafe", "name": "Coffee market"}}, {"type": "node", "id": 11577619866, "lat": 35.3353925, "lon": 25.3050813, "tags": {"amenity": "cafe", "cuisine": "coffee_shop", "internet_access": "wlan", "internet_access:fee": "no", "name": "Mr Coffee", "outdoor_seating": "yes", "phone": "+30 697 285 8746"}}, {"type": "node", "id": 11577638868, "lat": 35.3349906, "lon": 25.3122967, "tags": {"amenity": "restaurant", "name": "Maya Restaurant Lounge"}}, {"type": "node", "id": 11577683842, "lat": 35.3344462, "lon": 25.3129217, "tags": {"amenity": "restaurant", "cuisine": "greek", "name": "Philipos Taverna", "phone": "+302897042171", "website": "https://www.facebook.com/philippostavernagouves.crete"}}, {"type": "node", "id": 11577699890, "lat": 35.3350977, "lon": 25.316435}, {"type": "node", "id": 11577699891, "lat": 35.3350931, "lon": 25.3163846}, {"type": "node", "id": 11815520595, "lat": 35.306384, "lon": 25.4042546}, {"type": "node", "id": 11815520596, "lat": 35.3062701, "lon": 25.4041732}, {"type": "node", "id": 11815520597, "lat": 35.3063206, "lon": 25.404393}, {"type": "node", "id": 11826208523, "lat": 35.3364879, "lon": 25.3541064, "tags": {"amenity": "restaurant"}}, {"type": "node", "id": 11832595069, "lat": 35.260397, "lon": 25.726472, "tags": {"amenity": "restaurant", "name:en": "Rakomelo - Cretan Cuisine"}}, {"type": "node", "id": 11910199121, "lat": 35.2979988, "lon": 25.7280518, "tags": {"addr:housenumber": "52", "amenity": "restaurant", "name": "Porta", "phone": "+30-2841041110", "website": "https://portarestobar.gr/"}}, {"type": "node", "id": 11944427942, "lat": 35.2628949, "lon": 25.7209913, "tags": {"amenity": "cafe", "name": "\u039c\u03ad\u03bb\u03b9 & \u039a\u03b1\u03bd\u03ad\u03bb\u03b1"}}, {"type": "node", "id": 11967741677, "lat": 35.2923905, "lon": 25.456276, "tags": {"amenity": "restaurant", "name": "Parthenis Beach"}}, {"type": "node", "id": 11982905734, "lat": 35.2924594, "lon": 25.4563949}, {"type": "node", "id": 11990406066, "lat": 35.2058963, "lon": 25.7181536, "tags": {"access": "customers", "amenity": "restaurant", "cuisine": "local", "name": "The Greek Kafenion", "outdoor_seating": "yes"}}, {"type": "node", "id": 11990431284, "lat": 35.2052475, "lon": 25.718121, "tags": {"access": "customers", "amenity": "restaurant", "name": "Blue Bay", "opening_hours": "Mo-Su 12:00-18:00", "outdoor_seating": "yes"}}, {"type": "node", "id": 11990441651, "lat": 35.2055487, "lon": 25.7176066, "tags": {"access": "customers", "amenity": "restaurant", "name": "The Club House", "opening_hours": "Mo-Su 07:30-10:30"}}, {"type": "node", "id": 11990441653, "lat": 35.2041858, "lon": 25.7172437, "tags": {"access": "customers", "amenity": "restaurant", "name": "The Minotaure", "opening_hours": "Tu,Sa 19:00-22:00"}}, {"type": "node", "id": 11990441656, "lat": 35.2042808, "lon": 25.7172074, "tags": {"access": "customers", "amenity": "restaurant", "name": "Labyrinthos", "opening_hours": "Mo-Su 19:00-21:30"}}, {"type": "node", "id": 11998218583, "lat": 35.2029225, "lon": 25.7151689, "tags": {"amenity": "restaurant", "int_name": "krikri", "name": "\u03ba\u03c1\u03b9\u03ba\u03c1\u03b9"}}, {"type": "node", "id": 12006097464, "lat": 35.3071145, "lon": 25.3706134}, {"type": "node", "id": 12006097465, "lat": 35.3070068, "lon": 25.3706054}, {"type": "node", "id": 12006097466, "lat": 35.3069999, "lon": 25.370745}, {"type": "node", "id": 12006097467, "lat": 35.3071082, "lon": 25.3707537}, {"type": "node", "id": 12039989524, "lat": 35.2914694, "lon": 25.4515905, "tags": {"amenity": "restaurant", "name": "Main Restaurant"}}, {"type": "node", "id": 12039989525, "lat": 35.2910553, "lon": 25.4520186, "tags": {"amenity": "cafe", "name": "Kafenion"}}, {"type": "node", "id": 12051012951, "lat": 35.3087415, "lon": 25.5193673, "tags": {"amenity": "restaurant", "cuisine": "fish", "name": "Kyma"}}, {"type": "node", "id": 12136089653, "lat": 35.307975, "lon": 25.5905393, "tags": {"amenity": "restaurant", "cuisine": "greek", "name": "Taberna to Kounali", "outdoor_seating": "terrace"}}, {"type": "node", "id": 12139161959, "lat": 35.2917667, "lon": 25.4617951}, {"type": "node", "id": 12139161960, "lat": 35.2917503, "lon": 25.4616389}, {"type": "node", "id": 12139161962, "lat": 35.2917627, "lon": 25.4616138}, {"type": "node", "id": 12139161966, "lat": 35.2916573, "lon": 25.4616307}, {"type": "node", "id": 12142392139, "lat": 35.2932705, "lon": 25.4649487}, {"type": "node", "id": 12142392179, "lat": 35.2931128, "lon": 25.4648184}, {"type": "node", "id": 12142392191, "lat": 35.2932518, "lon": 25.4650004}, {"type": "node", "id": 12142392200, "lat": 35.2932316, "lon": 25.4648447}, {"type": "node", "id": 12142629702, "lat": 35.2902217, "lon": 25.461031}, {"type": "node", "id": 12142629703, "lat": 35.2903627, "lon": 25.4610381}, {"type": "node", "id": 12142629704, "lat": 35.2903572, "lon": 25.4613391}, {"type": "node", "id": 12142629705, "lat": 35.2902156, "lon": 25.4613357}, {"type": "node", "id": 12144111901, "lat": 35.2333082, "lon": 25.4671004, "tags": {"amenity": "restaurant", "cuisine": "greek", "name": "Caf\u00e9-Taverna Armi"}}, {"type": "node", "id": 12144853699, "lat": 35.2931601, "lon": 25.4651386}, {"type": "node", "id": 12144853700, "lat": 35.293152, "lon": 25.465101}, {"type": "node", "id": 12144879202, "lat": 35.2931196, "lon": 25.4649826}, {"type": "node", "id": 12144879203, "lat": 35.2930972, "lon": 25.4649897}, {"type": "node", "id": 12144879204, "lat": 35.2930491, "lon": 25.4648861}, {"type": "node", "id": 12144879223, "lat": 35.2930347, "lon": 25.4648453}, {"type": "node", "id": 12144879224, "lat": 35.2931676, "lon": 25.4650967}, {"type": "node", "id": 12144879225, "lat": 35.2932179, "lon": 25.4651248}, {"type": "node", "id": 12144879226, "lat": 35.2932698, "lon": 25.4650898}, {"type": "node", "id": 12144879227, "lat": 35.2932831, "lon": 25.4650773}, {"type": "node", "id": 12146642420, "lat": 35.2934086, "lon": 25.4589809}, {"type": "node", "id": 12146642421, "lat": 35.2933511, "lon": 25.4592298}, {"type": "node", "id": 12146642422, "lat": 35.2931029, "lon": 25.4592304}, {"type": "node", "id": 12146642423, "lat": 35.2931019, "lon": 25.4590416}, {"type": "node", "id": 12146642424, "lat": 35.2931805, "lon": 25.4592904}, {"type": "node", "id": 12146642425, "lat": 35.293105, "lon": 25.4591497}, {"type": "node", "id": 12146690442, "lat": 35.2904275, "lon": 25.4606883}, {"type": "node", "id": 12146690443, "lat": 35.2901631, "lon": 25.4606027}, {"type": "node", "id": 12146690444, "lat": 35.2902032, "lon": 25.4607893}, {"type": "node", "id": 12146690445, "lat": 35.2904455, "lon": 25.4607744}, {"type": "node", "id": 12146690446, "lat": 35.290391, "lon": 25.4604034}, {"type": "node", "id": 12146690447, "lat": 35.2903919, "lon": 25.4605185}, {"type": "node", "id": 12146690448, "lat": 35.2902213, "lon": 25.4608736}, {"type": "node", "id": 12228359302, "lat": 35.3292908, "lon": 25.2996928, "tags": {"amenity": "restaurant", "name": "Basilico"}}, {"type": "node", "id": 12250387678, "lat": 35.3268525, "lon": 25.2918708, "tags": {"amenity": "restaurant", "name": "\u0391\u03b8\u03b9\u03b2\u03bf\u03bb\u03b7"}}, {"type": "node", "id": 12255344671, "lat": 35.3165384, "lon": 25.393778, "tags": {"amenity": "restaurant", "cuisine": "greek", "name": "Marina"}}, {"type": "node", "id": 12255368262, "lat": 35.3212793, "lon": 25.3908581, "tags": {"amenity": "restaurant", "cuisine": "greek", "name": "I avli tis pareas"}}, {"type": "node", "id": 12255379585, "lat": 35.3095355, "lon": 25.4011061, "tags": {"amenity": "restaurant", "cuisine": "greek", "name": "Tzatziki"}}, {"type": "node", "id": 12258249349, "lat": 35.3310215, "lon": 25.3062214, "tags": {"amenity": "restaurant", "name": "3 StrEat"}}, {"type": "node", "id": 12258249350, "lat": 35.3320733, "lon": 25.3061683, "tags": {"amenity": "cafe"}}, {"type": "node", "id": 12293979916, "lat": 35.2870798, "lon": 25.4617074, "tags": {"addr:city": "\u039c\u03ac\u03bb\u03b9\u03b1", "addr:housenumber": "79", "addr:postcode": "70007", "addr:street": "\u0394\u03b7\u03bc\u03bf\u03ba\u03c1\u03b1\u03c4\u03af\u03b1\u03c2", "amenity": "cafe", "name": "Bee"}}, {"type": "node", "id": 12294000028, "lat": 35.2852563, "lon": 25.4623389, "tags": {"addr:city": "\u039c\u03ac\u03bb\u03b9\u03b1", "addr:postcode": "70007", "addr:street": "\u0394\u03b7\u03bc\u03bf\u03ba\u03c1\u03b1\u03c4\u03af\u03b1\u03c2", "amenity": "restaurant", "cuisine": "greek", "name": "\u03a6\u03b1\u03b3\u03bf ... \u03a0\u03bf\u03c4\u03b9"}}, {"type": "node", "id": 12294000034, "lat": 35.2846314, "lon": 25.462657, "tags": {"amenity": "restaurant", "name": "Filling Station"}}, {"type": "node", "id": 12294031846, "lat": 35.2846075, "lon": 25.46124, "tags": {"addr:city": "\u039c\u03ac\u03bb\u03b9\u03b1", "addr:housenumber": "16", "addr:postcode": "70007", "addr:street": "\u039c\u03b1\u03c4\u03b8\u03b1\u03af\u03bf\u03c5 \u0396\u03b1\u03c7\u03b1\u03c1\u03b9\u03ac\u03b4\u03b7", "amenity": "restaurant", "cuisine": "italian", "mobile": "+30 697 2083139", "name": "i Fratelli", "website": "https://ifratelli.gr/"}}, {"type": "node", "id": 12294260975, "lat": 35.2922151, "lon": 25.4598955, "tags": {"addr:city": "\u039c\u03ac\u03bb\u03b9\u03b1", "addr:postcode": "70007", "addr:street": "\u0394\u03b7\u03bc\u03bf\u03ba\u03c1\u03b1\u03c4\u03af\u03b1\u03c2", "amenity": "restaurant", "name": "Charlie's Grill & Cocktail Bar"}}, {"type": "node", "id": 12294260976, "lat": 35.2922676, "lon": 25.4598633, "tags": {"addr:city": "\u039c\u03ac\u03bb\u03b9\u03b1", "addr:postcode": "70007", "addr:street": "\u0394\u03b7\u03bc\u03bf\u03ba\u03c1\u03b1\u03c4\u03af\u03b1\u03c2", "amenity": "cafe", "name": "Primavera Beach"}}, {"type": "node", "id": 12297088932, "lat": 35.2917534, "lon": 25.4617964}, {"type": "node", "id": 12299044882, "lat": 35.2904604, "lon": 25.4622652, "tags": {"addr:city": "\u039c\u03ac\u03bb\u03b9\u03b1", "addr:postcode": "70007", "addr:street": "\u0395\u03bc\u03bc\u03b1\u03bd\u03bf\u03c5\u03ae\u03bb \u03a4\u03c3\u03b1\u03b3\u03ba\u03b1\u03c1\u03ac\u03ba\u03b7", "air_conditioning": "no", "amenity": "restaurant", "name": "Philoxenia", "payment:credit_cards": "yes", "payment:debit_cards": "yes", "smoking": "yes"}}, {"type": "node", "id": 12299570936, "lat": 35.2900714, "lon": 25.4563631, "tags": {"addr:city": "\u039c\u03ac\u03bb\u03b9\u03b1", "addr:postcode": "70007", "addr:street": "\u039d\u03b9\u03ba\u03bf\u03bb\u03ac\u03bf\u03c5 \u0393\u03c1\u03b1\u03bc\u03bc\u03b1\u03c4\u03b9\u03ba\u03ac\u03ba\u03b7", "amenity": "cafe", "name": "Brown Sugar"}}, {"type": "node", "id": 12301427221, "lat": 35.2813521, "lon": 25.4613568, "tags": {"addr:city": "\u039c\u03ac\u03bb\u03b9\u03b1", "addr:housenumber": "26", "addr:postcode": "70007", "addr:street": "\u03a6\u03c1\u03b1\u03b3\u03ba\u03af\u03c3\u03ba\u03bf\u03c5 \u039b\u03b5\u03bf\u03bd\u03c4\u03b1\u03c1\u03b9\u03c4\u03c5", "amenity": "restaurant", "cuisine": "greek", "name": "Petrino Garden"}}, {"type": "node", "id": 12304539691, "lat": 35.283339, "lon": 25.4604482, "tags": {"addr:city": "\u039c\u03ac\u03bb\u03b9\u03b1", "addr:postcode": "70007", "addr:street": "\u0395\u03bb\u03b5\u03c5\u03b8\u03ad\u03c1\u03b9\u03bf\u03c2 \u0392\u03b5\u03bd\u03b9\u03b6\u03ad\u03bb\u03bf\u03c2", "amenity": "cafe", "name": "Central Spot"}}, {"type": "node", "id": 12304539696, "lat": 35.282139, "lon": 25.4627389, "tags": {"addr:city": "\u039c\u03ac\u03bb\u03b9\u03b1", "addr:postcode": "700 07", "addr:street": "\u03a0\u03bb\u03b1\u03c4\u03b5\u03af\u03b1 \u0386\u03b3\u03b9\u03bf\u03c2 \u0394\u03b7\u03bc\u03b7\u03c4\u03c1\u03af\u03bf\u03c5", "amenity": "cafe", "name": "\u039a\u03b1\u03c6\u03b5\u03bd\u03b5\u03af\u03bf"}}, {"type": "node", "id": 12304597295, "lat": 35.2826483, "lon": 25.4616358, "tags": {"addr:city": "\u039c\u03ac\u03bb\u03b9\u03b1", "addr:housenumber": "6", "addr:postcode": "70007", "addr:street": "\u0391\u03b3\u03af\u03bf\u03c5 \u0399\u03c9\u03ac\u03bd\u03bd\u03bf\u03c5", "amenity": "restaurant", "cuisine": "greek", "name": "Classico Restaurant"}}, {"type": "node", "id": 12304597298, "lat": 35.2833741, "lon": 25.4617715, "tags": {"addr:city": "\u039c\u03ac\u03bb\u03b9\u03b1", "addr:postcode": "70007", "addr:street": "\u0395\u03bb\u03b5\u03c5\u03b8\u03ad\u03c1\u03b9\u03bf\u03c2 \u0392\u03b5\u03bd\u03b9\u03b6\u03ad\u03bb\u03bf\u03c2", "amenity": "cafe", "name": "Rebel's"}}, {"type": "node", "id": 12307414847, "lat": 35.2135095, "lon": 25.5219438, "tags": {"addr:floor": "0", "addr:street": "\u039d\u03b5\u03ac\u03c0\u03bf\u03bb\u03b7\u03c2 - \u039f\u03c1\u03bf\u03c0\u03b5\u03b4\u03af\u03bf\u03c5", "amenity": "restaurant", "check_date": "2024-11-02", "check_date:diet:vegan": "2024-11-02", "check_date:diet:vegetarian": "2024-11-02", "cuisine": "regional;greek;grill", "diet:vegan": "no", "diet:vegetarian": "yes", "internet_access": "no", "name": "Taverna", "outdoor_seating": "yes", "wheelchair": "yes"}}, {"type": "node", "id": 12364753767, "lat": 35.2928709, "lon": 25.4278715, "tags": {"amenity": "cafe", "name": "Coffee Break"}}, {"type": "way", "id": 180842522, "nodes": [1912990012, 1912990011, 1912990005, 1912990007, 1912990012], "tags": {"amenity": "restaurant", "building": "yes", "cuisine": "Traditional,_grill", "name": "\u039d\u03b1\u03ca\u03ac\u03b4\u03b5\u03c2", "name:de": "Naiades", "name:el": "\u039d\u03b1\u03ca\u03ac\u03b4\u03b5\u03c2", "name:en": "Naiades"}}, {"type": "way", "id": 241556678, "nodes": [2491635982, 2491635979, 2491635980, 2491635981, 2491635984, 2491635983, 11303405162, 2491635989, 2491635987, 11303447992, 2491635993, 2491635994, 2491635992, 2491635990, 2491635991, 2491635988, 2491635986, 2491635985, 2491635982], "tags": {"amenity": "restaurant", "building": "yes"}}, {"type": "way", "id": 252059850, "nodes": [2581799037, 2581799038, 2581799039, 2581799040, 2581799041, 2581799042, 2581799037], "tags": {"amenity": "restaurant", "building": "yes"}}, {"type": "way", "id": 292712108, "nodes": [2118114807, 2962459747, 2962459649, 2962459778, 2962459766, 2962459696, 8283736272, 2962459736, 2118114807], "tags": {"amenity": "restaurant", "cuisine": "regional", "name": "Skapanis"}}, {"type": "way", "id": 297987580, "nodes": [3018890753, 3018890752, 3018890750, 3018890751, 3018890753], "tags": {"amenity": "restaurant", "cuisine": "greek", "name": "\u039c\u03b1\u03c1\u03af\u03b1", "name:el": "\u039c\u03b1\u03c1\u03af\u03b1", "name:en": "Maria"}}, {"type": "way", "id": 306542818, "nodes": [3114896667, 3114896669, 3114896668, 3114896665, 3114896667], "tags": {"amenity": "restaurant", "building": "yes", "check_date": "2023-10-03", "name": "Karavi"}}, {"type": "way", "id": 309012502, "nodes": [3143294679, 3143294678, 3143294676, 3143294677, 3143294679], "tags": {"amenity": "cafe", "building": "yes"}}, {"type": "way", "id": 353949187, "nodes": [3597425848, 4292677937, 4292677931, 4292677918, 4292677942, 3597425849, 3597425850, 3597425851, 3674118439, 3597425845, 3597425844, 3597425843, 3674118435, 3597425842, 3597425839, 3597425838, 3597425841, 3597425846, 3597425848], "tags": {"amenity": "restaurant", "building": "yes", "name": "Sirens", "name:ru": "\u0421\u0438\u0440\u0435\u043d\u044b"}}, {"type": "way", "id": 361137549, "nodes": [3656545586, 3656545584, 3656545592, 3656545587, 3656545586], "tags": {"amenity": "restaurant", "building": "yes"}}, {"type": "way", "id": 377625393, "nodes": [3810082412, 3810082413, 3810082414, 3810082415, 3810082412], "tags": {"amenity": "restaurant", "building": "yes", "delivery": "no", "indoor_seating": "yes", "name": "Athena - Greek Tavern", "outdoor_seating": "yes"}}, {"type": "way", "id": 382418709, "nodes": [3856143952, 3856143953, 3856143955, 3856143956, 3856143952], "tags": {"amenity": "restaurant", "building": "yes", "internet_access": "wlan", "name": "Kimzu Sea Lounge"}}, {"type": "way", "id": 442603114, "nodes": [4402775834, 4402775837, 4402775838, 842220668, 4402775834], "tags": {"amenity": "cafe", "building": "yes", "building:levels": "1", "check_date": "2024-09-13", "cuisine": "greek;seafood;mediterranean;local", "name": "\u0396\u03c5\u03b3\u03cc\u03c2", "name:el": "\u0396\u03c5\u03b3\u03cc\u03c2", "name:en": "Zygos", "outdoor_seating": "yes"}}, {"type": "way", "id": 442958454, "nodes": [4406077840, 3116711505, 3116711504, 4406077839, 4406077840], "tags": {"amenity": "restaurant", "building": "yes", "cuisine": "greek", "name": "Zorbas"}}, {"type": "way", "id": 442958458, "nodes": [4406077844, 4406077842, 4406077841, 4406077843, 4406077844], "tags": {"amenity": "restaurant", "building": "yes", "name": "Destroyed"}}, {"type": "way", "id": 445001316, "nodes": [4424584657, 4424584652, 4424584650, 4424584655, 4424584657], "tags": {"amenity": "restaurant", "name": "ALEKO'S garden", "outdoor_seating": "yes"}}, {"type": "way", "id": 446990705, "nodes": [526514254, 4441946923, 4441946924, 4441946925, 526514254], "tags": {"amenity": "cafe", "building": "yes", "building:levels": "1", "name": "\u039c\u03b9\u03b3\u03ce\u03bc\u03b7\u03c2 Cafe", "name:el": "\u039c\u03b9\u03b3\u03ce\u03bc\u03b7\u03c2 Cafe", "name:en": "Migomis Cafe"}}, {"type": "way", "id": 446990706, "nodes": [4441946924, 5530068427, 4441946927, 4441946928, 4441946929, 4441946930, 4441946923, 4441946924], "tags": {"amenity": "restaurant", "building": "yes", "building:levels": "1", "name": "\u039c\u03b9\u03b3\u03ce\u03bc\u03b7\u03c2", "name:el": "\u039c\u03b9\u03b3\u03ce\u03bc\u03b7\u03c2", "name:en": "Migomis", "opening_hours": "Mo-Su 12:00-24:00"}}, {"type": "way", "id": 482754155, "nodes": [4755502550, 4755502551, 6304247292, 4755502552, 4755502553, 4755502550], "tags": {"addr:city": "\u0386\u03b3\u03b9\u03bf\u03c2 \u039d\u03b9\u03ba\u03cc\u03bb\u03b1\u03bf\u03c2", "addr:postcode": "72100", "addr:street": "\u0391\u03bd\u03b1\u03c0\u03b1\u03cd\u03c3\u03b5\u03c9\u03c2", "amenity": "restaurant", "building": "yes", "cuisine": "seafood", "name": "\u0393\u03b1\u03c1\u03b3\u03b1\u03b4\u03cc\u03c1\u03bf\u03c2", "name:de": "Gargadoros", "name:el": "\u0393\u03b1\u03c1\u03b3\u03b1\u03b4\u03cc\u03c1\u03bf\u03c2", "name:en": "Gargadoros", "phone": "+302841022599", "smoking": "outside"}}, {"type": "way", "id": 482754168, "nodes": [4755502574, 6304247295, 4755502575, 4755502576, 4755502577, 4755502578, 4755502579, 4755502580, 4755502581, 4755502574], "tags": {"alt_name": "To Botsalo", "amenity": "cafe", "building": "yes", "indoor_seating": "yes", "int_name": "To Votsalo", "name": "\u0392\u03cc\u03c4\u03c3\u03b1\u03bb\u03bf", "name:el": "\u0392\u03cc\u03c4\u03c3\u03b1\u03bb\u03bf", "name:en": "To Votsalo", "outdoor_seating": "yes"}}, {"type": "way", "id": 488492900, "nodes": [6987247874, 6987247873, 6987247872, 4807808623, 6987247874], "tags": {"amenity": "cafe", "building": "yes"}}, {"type": "way", "id": 488492904, "nodes": [4885711970, 4807808637, 6989065260, 6989065261, 4807808638, 4807808640, 4885711970], "tags": {"amenity": "cafe", "building": "yes"}}, {"type": "way", "id": 488492905, "nodes": [4885711972, 4807808642, 4807808643, 6989065265, 6989065264, 6989065266, 4885711972], "tags": {"amenity": "cafe", "building": "yes"}}, {"type": "way", "id": 488573226, "nodes": [4885711973, 6989088329, 4808652216, 4808652217, 4885711973], "tags": {"amenity": "restaurant", "building": "yes"}}, {"type": "way", "id": 493175582, "nodes": [4851148846, 4851156506, 4851148847, 4851148848, 4851148849, 4851148846], "tags": {"amenity": "restaurant", "building": "yes", "name": "Ya mas"}}, {"type": "way", "id": 495661169, "nodes": [4873944211, 8386899918, 8386899852, 8386899849, 4873944212, 4873944213, 4873944214, 4873944211], "tags": {"addr:housenumber": "1", "amenity": "cafe", "building": "yes"}}, {"type": "way", "id": 495666171, "nodes": [4873991222, 4873990720, 526514251, 4873991224, 4873991222], "tags": {"amenity": "cafe", "building": "yes"}}, {"type": "way", "id": 500249374, "nodes": [4913483170, 4913483171, 4913483172, 4913483173, 4913483174, 4913483175, 4913483170], "tags": {"addr:city": "Sisi", "addr:postcode": "72054", "addr:street": "\u0397\u03c1\u03ce\u03c9\u03bd \u03a0\u03bf\u03bb\u03c5\u03c4\u03b5\u03c7\u03bd\u03b5\u03af\u03bf\u03c5", "amenity": "restaurant", "building": "yes", "cuisine": "regional;cretan;mediterranean;greek", "name": "Liofito", "outdoor_seating": "yes"}}, {"type": "way", "id": 525187508, "nodes": [5109584795, 5109584794, 5109584793, 5109584792, 5109584791, 11577699890, 11577699891, 5109584790, 5109584789, 5109584788, 5109584795], "tags": {"amenity": "restaurant", "building": "yes", "cuisine": "regional", "name": "The Island", "outdoor_seating": "yes"}}, {"type": "way", "id": 548340068, "nodes": [5297402130, 5297402131, 5297402132, 5297402133, 5297402134, 5297402135, 5297402136, 5297420523, 5297402137, 5297402138, 5297402139, 5297402140, 5297427995, 5297402141, 5297402143, 5297402144, 5297402145, 5297402146, 5297402147, 5297402130], "tags": {"amenity": "restaurant", "building": "yes"}}, {"type": "way", "id": 583231748, "nodes": [5576040130, 5576040132, 5576196546, 5576196547, 5576040131, 5576040130], "tags": {"addr:housenumber": "1", "addr:street": "\u03a0\u03b1\u03c3\u03b9\u03c6\u03ac\u03b7\u03c2", "amenity": "restaurant", "building": "yes", "building:levels": "2", "building:use": "foodservice", "cuisine": "chinese", "delivery": "yes", "max_level": "1", "min_level": "0", "name": "Jia", "opening_hours": "Mo-Sa 18:00-23:30; PH unknown", "phone": "+30 2841 023891", "reservation": "yes", "roof:material": "roof_tiles", "roof:shape": "hipped", "smoking": "no", "takeaway": "yes", "toilets": "yes", "toilets:access": "customers", "wheelchair": "no"}}, {"type": "way", "id": 610275385, "nodes": [5779773242, 5779773239, 5779773235, 5779775558, 5779773249, 5779773238, 11982905734, 5779773242], "tags": {"amenity": "restaurant", "building": "yes", "name": "Theo Star"}}, {"type": "way", "id": 613120989, "nodes": [5802220500, 5802220499, 5802220498, 5802220497, 5802220500], "tags": {"amenity": "restaurant", "building": "yes", "cuisine": "greek", "name": "Ya seafood restaurant"}}, {"type": "way", "id": 616398308, "nodes": [5827920819, 5827920820, 5827920821, 5827920822, 5827920819], "tags": {"amenity": "restaurant", "building": "yes", "delivery": "no", "name": "\"Fili\" Taverna", "outdoor_seating": "yes", "takeaway": "yes"}}, {"type": "way", "id": 642176737, "nodes": [6046282477, 6046282478, 6046282479, 6046282480, 6046282477], "tags": {"amenity": "restaurant", "building": "yes", "cuisine": "greek", "name": "\u039f\u03c1\u03ad\u03c9\u03bd \u0393\u03b7\u03c2"}}, {"type": "way", "id": 688017444, "nodes": [6450436197, 6450436198, 6450436199, 6450436200, 6450436201, 6450436197], "tags": {"addr:city": "\u03a3\u03c4\u03b1\u03bb\u03af\u03b4\u03b1", "addr:housenumber": "135", "addr:postcode": "700 05", "addr:street": "Agiou Ioanni", "amenity": "restaurant", "building": "yes", "check_date": "2025-04-03", "name": "Akti Restaurant and Bar", "outdoor_seating": "yes"}}, {"type": "way", "id": 689198785, "nodes": [6465387017, 6465387018, 6465387019, 6465387020, 6465387021, 6465387022, 6465387017], "tags": {"amenity": "restaurant", "building": "yes", "check_date": "2025-04-04", "name": "Dimos Restaurant and Drink Bar"}}, {"type": "way", "id": 712549333, "nodes": [6699412710, 6699412711, 7804302764, 6699412713, 6699412714, 6699412715, 6699412710], "tags": {"addr:postcode": "72100", "addr:street": "\u0391\u03ba\u03c4\u03ae \u039a\u03bf\u03cd\u03bd\u03b4\u03bf\u03c5\u03c1\u03bf\u03c5", "amenity": "restaurant", "building": "yes", "cuisine": "burger;sandwich;ice_cream;crepe;coffee_shop;noodles;greek;pizza;fish_and_chips;italian_pizza;fish;breakfast;seafood;local;italian;tapas", "diet:vegetarian": "yes", "email": "info@achinoscrete.gr", "internet_access": "wlan", "name": "\u0391\u03c7\u03b9\u03bd\u03cc\u03c2", "name:el": "\u0391\u03c7\u03b9\u03bd\u03cc\u03c2", "name:en": "Achinos", "opening_hours": "Mo-Su 09:00-00:30", "operator": "\u0396\u03b1\u03c7\u03b1\u03c1\u03b9\u03ac\u03c2 \u0391\u03bb\u03ad\u03be\u03b1\u03bd\u03b4\u03c1\u03bf\u03c2", "outdoor_seating": "yes", "phone": "+30 2841090505"}}, {"type": "way", "id": 728201475, "nodes": [6823925843, 6823925844, 6823925845, 6823925846, 6823925843], "tags": {"amenity": "restaurant", "outdoor_seating": "yes"}}, {"type": "way", "id": 767587951, "nodes": [7166757475, 7166757476, 7166757477, 7869910318, 7869910319, 7166757478, 7166757475], "tags": {"amenity": "restaurant", "building": "yes", "check_date": "2023-10-03", "cuisine": "burger;regional;pizza;chicken;italian", "name": "King Scorpio Beach Bar  Restaurant"}}, {"type": "way", "id": 813511466, "nodes": [6823925847, 7599003001, 7599003002, 7599003003, 6823925847], "tags": {"amenity": "cafe", "building": "yes", "name": "\u039c\u03ae\u03bb\u03bf", "outdoor_seating": "yes"}}, {"type": "way", "id": 821592056, "nodes": [2420044307, 7671501883, 7671501884, 7671502685, 2420044307], "tags": {"amenity": "cafe", "building": "yes", "int_name": "Kafeneio tis Stellas", "name": "\u039a\u03b1\u03c6\u03b5\u03bd\u03b5\u03af\u03bf \u03c4\u03b7\u03c2 \u03a3\u03c4\u03ad\u03bb\u03bb\u03b1\u03c2", "name:el": "\u039a\u03b1\u03c6\u03b5\u03bd\u03b5\u03af\u03bf \u03c4\u03b7\u03c2 \u03a3\u03c4\u03ad\u03bb\u03bb\u03b1\u03c2", "name:en": "Stella's cafe"}}, {"type": "way", "id": 832232823, "nodes": [7770027848, 7770027849, 7770027850, 7770027852, 7770027848], "tags": {"amenity": "cafe", "building": "yes", "cuisine": "regional;greek;sushi", "internet_access": "wlan", "internet_access:fee": "customers", "name": "Amoodi", "opening_hours": "Apr-Oct: Mo-Su 09:00-03:00", "outdoor_seating": "yes"}}, {"type": "way", "id": 833650929, "nodes": [7782120554, 7782120555, 7782120556, 7782120557, 7782120558, 7782120554], "tags": {"amenity": "restaurant", "building": "yes"}}, {"type": "way", "id": 833650930, "nodes": [7782120559, 7782120560, 7782120561, 7782120562, 7782120559], "tags": {"amenity": "restaurant", "building": "yes", "name": "Ta Kymata"}}, {"type": "way", "id": 833650931, "nodes": [7782120563, 7782120564, 7782120565, 7782120566, 7782120567, 7782120568, 7782120569, 7782120570, 7782120563], "tags": {"amenity": "restaurant", "building": "yes", "name": "Ocean"}}, {"type": "way", "id": 833650932, "nodes": [7782120571, 7782120572, 7782120573, 7782120574, 7782120571], "tags": {"amenity": "restaurant", "building": "yes"}}, {"type": "way", "id": 833650933, "nodes": [7782120575, 7782120576, 7782120577, 7782120578, 7782120579, 7782120580, 7782120581, 7782120582, 7782120583, 7782120584, 7782120575], "tags": {"amenity": "restaurant", "building": "yes"}}, {"type": "way", "id": 833650934, "nodes": [7782120585, 7782120586, 7782120587, 7782120588, 7782120585], "tags": {"amenity": "restaurant", "building": "yes"}}, {"type": "way", "id": 833650935, "nodes": [7782120589, 7782120590, 7782120591, 7782120592, 7782120589], "tags": {"air_conditioning": "yes", "amenity": "restaurant", "building": "yes", "smoking": "outside"}}, {"type": "way", "id": 833650936, "nodes": [7782120593, 7782120594, 7782120595, 7782120596, 7782120597, 7782120598, 7782120599, 7782120593], "tags": {"addr:housenumber": "+30 2841041353", "addr:street": "Plaka, Elounda", "air_conditioning": "yes", "amenity": "restaurant", "building": "yes", "description": "Restaurant tr\u00e8s agr\u00e9able, sp\u00e9cialis\u00e9 dans la p\u00eache et avec un tr\u00e8s bon accueil. Il est situ\u00e9 juste au-dessus d'une plage tr\u00e8s agr\u00e9able. Les prix sont par contre assez \u00e9lev\u00e9s.", "diet:vegetarian": "yes", "indoor_seating": "yes", "name": "Giorgos Giovannis", "opening_hours": "Mo-Su 11:00-24:00", "outdoor_seating": "yes", "payment:credit_cards": "yes", "payment:debit_cards": "yes", "smoking": "outside", "toilets": "yes", "toilets:wheelchair": "no", "website": "https://www.giorgos-plaka.gr/", "wheelchair": "limited"}}, {"type": "way", "id": 833650937, "nodes": [7782120600, 7782120601, 7782120602, 8418700157, 7782120603, 7782120604, 7782120605, 7782120606, 7782120600], "tags": {"air_conditioning": "yes", "amenity": "restaurant", "building": "yes", "smoking": "outside"}}, {"type": "way", "id": 842143853, "nodes": [3793590545, 6733309944, 7856604686, 7856604687, 3793590545], "tags": {"amenity": "restaurant", "building": "yes", "name": "Ouzeri Kafenion"}}, {"type": "way", "id": 893622197, "nodes": [8305397204, 11099329922, 8305397205, 8305397206, 8305397207, 8305397204], "tags": {"amenity": "restaurant", "building": "retail"}}, {"type": "way", "id": 893755069, "nodes": [8306794930, 8306794931, 8306794932, 8306794933, 8306794930], "tags": {"amenity": "restaurant", "building": "yes", "cuisine": "regional", "name": "Zygos"}}, {"type": "way", "id": 906215942, "nodes": [8415422990, 8415422991, 8415422992, 8415422993, 8415422994, 8415422995, 8415422990], "tags": {"amenity": "restaurant", "building": "yes", "cuisine": "greek", "name": "Taverna Christinis - \u03a0\u03c1\u03b9\u03bd\u03b9\u03c9\u03c4\u03ac\u03ba\u03b7 \u03a3\u03b1\u03bc\u03c0\u03b9\u03b1"}}, {"type": "way", "id": 933409819, "nodes": [8651997993, 8651997994, 8651997995, 8651997996, 8651997997, 8651997998, 8651997993], "tags": {"amenity": "restaurant", "building": "yes", "cuisine": "greek", "name": "\u03a4\u03cc \u03a3\u03c5\u03bd\u03ac\u03c6\u03b9 \u03c4\u03bf\u1fe6 \u039a\u03c1\u03b9\u03c4\u03c3\u03ce\u03c4\u03b7", "name:el": "\u03a4\u03cc \u03a3\u03c5\u03bd\u03ac\u03c6\u03b9 \u03c4\u03bf\u1fe6 \u039a\u03c1\u03b9\u03c4\u03c3\u03ce\u03c4\u03b7", "name:en": "To Synafi tou Kritsoti"}}, {"type": "way", "id": 1100932589, "nodes": [10075778614, 10075778616, 10075778613, 10075778612, 10075778610, 10075778611, 10075778614], "tags": {"amenity": "restaurant", "building": "yes", "name": "Amalthea the Divine", "takeaway": "yes"}}, {"type": "way", "id": 1100932594, "nodes": [10075786537, 2772300124, 3673492164, 3673492165, 3673492167, 10075786537], "tags": {"amenity": "restaurant", "building": "yes", "name": "Taverna Petros"}}, {"type": "way", "id": 1100932595, "nodes": [2772300124, 10075786535, 3673492162, 3673492164, 2772300124], "tags": {"amenity": "restaurant", "building": "yes"}}, {"type": "way", "id": 1100935706, "nodes": [10075757664, 10075757663, 10075757662, 10075757660, 10075757661, 10075757664], "tags": {"amenity": "restaurant", "name": "Halavro"}}, {"type": "way", "id": 1101385743, "nodes": [10079146923, 10079146922, 10079146921, 10079146920, 10079146923], "tags": {"amenity": "restaurant", "building": "yes"}}, {"type": "way", "id": 1107401142, "nodes": [10132824981, 10132824982, 10132824983, 10132824984, 10132824985, 10132824986, 10132824981], "tags": {"amenity": "restaurant", "building": "yes", "building:levels": "1", "name": "The Poseidon Restaurant", "opening_hours": "Mo-Su 18:15-21:15"}}, {"type": "way", "id": 1107403047, "nodes": [10132778010, 10132778011, 10132778012, 10132778013, 10132778010], "tags": {"amenity": "restaurant", "building": "yes"}}, {"type": "way", "id": 1107405261, "nodes": [10132782712, 10132782713, 10132782714, 10132782715, 10132782716, 10132860817, 10132860818, 10132860819, 10132782712], "tags": {"amenity": "restaurant", "building": "yes", "name": "Artemis", "opening_hours": "Mo-Su 07:15-11:00,13:00-15:00,18:15-21:30"}}, {"type": "way", "id": 1107679854, "nodes": [10135045115, 10135045116, 10135046917, 10135046918, 10135045115], "tags": {"amenity": "restaurant", "building": "yes", "name": "Thalassa", "opening_hours": "Mo-Su 18:15-21:15"}}, {"type": "way", "id": 1109739843, "nodes": [10152329860, 10152329861, 10152329862, 10152329863, 10152329864, 10152329860], "tags": {"amenity": "restaurant", "building": "yes", "name": "\u03bb\u03b9\u03b8\u03bf\u03c2", "name:el": "\u03bb\u03b9\u03b8\u03bf\u03c2", "name:en": "Lithos"}}, {"type": "way", "id": 1109739844, "nodes": [10152329865, 10152329866, 10152329867, 10152329868, 10152329865], "tags": {"amenity": "restaurant", "building": "yes", "cuisine": "greek", "name": "\u039f\u03b4\u03c5\u03c3\u03c3\u03ad\u03b1\u03c2", "name:el": "\u039f\u03b4\u03c5\u03c3\u03c3\u03ad\u03b1\u03c2", "name:en": "Odysseas"}}, {"type": "way", "id": 1109739845, "nodes": [10152329869, 10152329883, 10152329870, 10152329871, 10152329872, 10152329873, 10152329874, 10152329875, 10152329869], "tags": {"amenity": "restaurant", "building": "yes", "name": "\u03a0\u03cc\u03c1\u03c4\u03b5\u03b3\u03bf", "name:el": "\u03a0\u03cc\u03c1\u03c4\u03b5\u03b3\u03bf", "name:en": "P\u00f3rtego"}}, {"type": "way", "id": 1109739846, "nodes": [10152329876, 10152329877, 10152329878, 10152329879, 10152329880, 10152329876], "tags": {"amenity": "restaurant", "building": "yes", "name": "\u0391\u03c1\u03b9\u03c3\u03c4\u03cc\u03b4\u03b7\u03bc\u03bf\u03c2", "name:el": "\u0391\u03c1\u03b9\u03c3\u03c4\u03cc\u03b4\u03b7\u03bc\u03bf\u03c2", "name:en": "Aristodimos"}}, {"type": "way", "id": 1109739847, "nodes": [10152329881, 10152329882, 10152329871, 10152329870, 10152329883, 10152329881], "tags": {"amenity": "restaurant", "building": "yes", "internet_access": "wlan", "name": "\u03a1\u03bf\u03b4\u03bf\u03bc\u03ac\u03bd\u03b8\u03b7\u03c2", "name:el": "\u03a1\u03bf\u03b4\u03bf\u03bc\u03ac\u03bd\u03b8\u03b7\u03c2", "name:en": "Rodomanthis"}}, {"type": "way", "id": 1109739848, "nodes": [10152329884, 10152329885, 10152329886, 10152329887, 10152329884], "tags": {"amenity": "restaurant", "building": "yes", "name": "\u039a\u03b5\u03bb\u03ac\u03c1\u03b9", "name:el": "\u039a\u03b5\u03bb\u03ac\u03c1\u03b9", "name:en": "Kelari"}}, {"type": "way", "id": 1109754433, "nodes": [10152471428, 10152471429, 10152471423, 10152471422, 8651998938, 10152471428], "tags": {"amenity": "restaurant", "building": "yes", "name": "\u0394\u03b9\u03b1\u03c2", "name:el": "\u0394\u03b9\u03b1\u03c2", "name:en": "Dias"}}, {"type": "way", "id": 1110107904, "nodes": [10155498937, 10155498938, 10155498939, 10155498940, 10155498937], "tags": {"amenity": "restaurant", "building": "yes", "name": "Ocean", "wheelchair": "yes"}}, {"type": "way", "id": 1125631747, "nodes": [10293310571, 10293310572, 10293310573, 10293310574, 10293310571], "tags": {"amenity": "restaurant", "building": "yes", "name": "Dolphin Beach Bar", "outdoor_seating": "yes"}}, {"type": "way", "id": 1125640243, "nodes": [10293408878, 10293408879, 10293408880, 10293408881, 10293408878], "tags": {"amenity": "restaurant", "bar": "yes", "brewery": "no", "building": "yes", "building:levels": "2", "building:levels:underground": "0", "capacity": "36", "delivery": "no", "ele": "2m", "min_age": "16", "name": "elia", "outdoor_seating": "yes", "toilets": "yes", "toilets:wheelchair": "no", "website:menu": "https://elia.restaurant/menu", "wheelchair": "limited"}}, {"type": "way", "id": 1237383808, "nodes": [11492741611, 11492741612, 11492741613, 11492741614, 11492741615, 11492741616, 11492741617, 11492741599, 11492741600, 11492741601, 11492741605, 11492741606, 11492741607, 11492741608, 11492741609, 11492741610, 11492741602, 11492741603, 11492741604, 11492741611], "tags": {"amenity": "restaurant", "building": "yes", "cuisine": "asian", "name": "Wok & Chopsticks"}}, {"type": "way", "id": 1245258446, "nodes": [11576435645, 11576435648, 11576435649, 8047080577, 11576435645], "tags": {"amenity": "restaurant"}}, {"type": "way", "id": 1245258447, "nodes": [11576435650, 11576435651, 11576435652, 11576435653, 3852677265, 11576435650], "tags": {"amenity": "restaurant", "building:part": "roof", "layer": "1"}}, {"type": "way", "id": 1245258448, "nodes": [3852677264, 11576435654, 11576435655, 11576435656, 9967442099, 3852677264], "tags": {"amenity": "restaurant", "building": "roof", "layer": "1"}}, {"type": "way", "id": 1272409790, "nodes": [11815520595, 11815520597, 4657524137, 11815520596, 11815520595], "tags": {"addr:postcode": "700 14", "amenity": "restaurant", "building": "yes", "name": "Station 24"}}, {"type": "way", "id": 1295669419, "nodes": [12006097464, 12006097465, 12006097466, 12006097467, 12006097464], "tags": {"amenity": "restaurant", "building": "yes", "cuisine": "greek", "name": "Ta Petrina", "phone": "+30 28970 21976"}}, {"type": "way", "id": 1311425506, "nodes": [12139161959, 12139161960, 12139161962, 12139161966, 2943518009, 12297088932, 12139161959], "tags": {"addr:city": "\u039c\u03ac\u03bb\u03b9\u03b1", "addr:postcode": "70007", "addr:street": "\u0391\u03c1\u03bc\u03c5\u03c1\u03cc\u03bb\u03b1\u03ba\u03bf\u03c5", "air_conditioning": "no", "amenity": "restaurant", "building": "yes", "building:levels": "1", "name": "Stelios Gardens", "payment:credit_cards": "yes", "payment:debit_cards": "yes", "smoking": "yes"}}, {"type": "way", "id": 1311831034, "nodes": [12142629705, 12142629704, 12142629703, 12142629702, 12142629705], "tags": {"addr:city": "\u039c\u03ac\u03bb\u03b9\u03b1", "addr:postcode": "70007", "addr:street": "\u0395\u03bc\u03bc\u03b1\u03bd\u03bf\u03c5\u03ae\u03bb \u03a4\u03c3\u03b1\u03b3\u03ba\u03b1\u03c1\u03ac\u03ba\u03b7", "amenity": "restaurant", "internet_access": "wlan", "name": "The Brasserie", "website": "https://www.brasserie-malia.gr/"}}, {"type": "way", "id": 1312089832, "nodes": [12142392200, 12142392179, 12144879223, 12144879204, 12144879203, 12144879202, 12144879224, 12144853700, 12144853699, 12144879225, 12144879226, 12144879227, 12142392191, 12142392139, 12142392200], "tags": {"amenity": "restaurant", "building": "yes"}}, {"type": "way", "id": 1312296156, "nodes": [12146642420, 12146642423, 12146642425, 12146642422, 12146642424, 12146642421, 12146642420], "tags": {"amenity": "restaurant", "name": "Thalossa Cocktail Bar Restaurant"}}, {"type": "way", "id": 1312304128, "nodes": [2835979306, 12146690443, 12146690444, 12146690448, 12146690445, 12146690442, 12146690447, 12146690446, 2835979307, 2835979306], "tags": {"amenity": "restaurant", "cuisine": "greek", "name": "Drossia Restaurant"}}]}