{"version": 0.6, "generator": "Overpass API 0.7.62.7 375dc00a", "osm3s": {"timestamp_osm_base": "2025-06-14T13:23:06Z", "copyright": "The data included in this document is from www.openstreetmap.org. The data is made available under ODbL."}, "elements": [{"type": "node", "id": 1628610828, "lat": 34.4348095, "lon": 8.8206038, "tags": {"amenity": "restaurant", "cuisine": "pizza"}}, {"type": "node", "id": 2163158657, "lat": 34.4220866, "lon": 8.7830105}, {"type": "node", "id": 2163158667, "lat": 34.4218924, "lon": 8.7830265}, {"type": "node", "id": 2163158683, "lat": 34.4218587, "lon": 8.7828367}, {"type": "node", "id": 2886163476, "lat": 34.3374312, "lon": 8.9584552, "tags": {"amenity": "cafe"}}, {"type": "node", "id": 3175134968, "lat": 34.4183833, "lon": 8.7897377, "tags": {"addr:city": "\u0642\u0641\u0635\u0629", "addr:city:ar": "\u0642\u0641\u0635\u0629", "amenity": "cafe"}}, {"type": "node", "id": 3188672940, "lat": 34.4141148, "lon": 8.7937029, "tags": {"addr:city": "\u0642\u0641\u0635\u0629", "addr:city:ar": "\u0642\u0641\u0635\u0629", "amenity": "cafe"}}, {"type": "node", "id": 3188702078, "lat": 34.4146124, "lon": 8.7933099, "tags": {"addr:city": "\u0642\u0641\u0635\u0629", "addr:city:ar": "\u0642\u0641\u0635\u0629", "amenity": "cafe"}}, {"type": "node", "id": 3188715926, "lat": 34.4167419, "lon": 8.7891158, "tags": {"addr:city": "\u0642\u0641\u0635\u0629", "addr:city:ar": "\u0642\u0641\u0635\u0629", "amenity": "cafe", "internet_access": "no", "name": "Caf\u00e9 Zhiou"}}, {"type": "node", "id": 3188728349, "lat": 34.4169076, "lon": 8.788807, "tags": {"addr:city": "\u0642\u0641\u0635\u0629", "addr:city:ar": "\u0642\u0641\u0635\u0629", "amenity": "restaurant", "name": "Restaurant du sud"}}, {"type": "node", "id": 3188731317, "lat": 34.4176373, "lon": 8.7893793, "tags": {"addr:city": "\u0642\u0641\u0635\u0629", "addr:city:ar": "\u0642\u0641\u0635\u0629", "amenity": "cafe", "name": "cafe Karoui"}}, {"type": "node", "id": 3188764953, "lat": 34.4183392, "lon": 8.7856889, "tags": {"addr:city": "\u0642\u0641\u0635\u0629", "addr:city:ar": "\u0642\u0641\u0635\u0629", "amenity": "cafe"}}, {"type": "node", "id": 3196091569, "lat": 34.4220691, "lon": 8.7828096}, {"type": "node", "id": 3202126340, "lat": 34.4094391, "lon": 8.7969399, "tags": {"addr:city": "Ksar_Gafsa", "amenity": "cafe", "name": "Caf\u00e9 bayech"}}, {"type": "node", "id": 3202219307, "lat": 34.416422, "lon": 8.7860068, "tags": {"addr:city": "\u0642\u0641\u0635\u0629", "addr:city:ar": "\u0642\u0641\u0635\u0629", "amenity": "cafe"}}, {"type": "node", "id": 3203190879, "lat": 34.4163119, "lon": 8.7902826, "tags": {"addr:city": "\u0642\u0641\u0635\u0629", "addr:city:ar": "\u0642\u0641\u0635\u0629", "amenity": "cafe", "name": "caf\u00e9 Elkaouafel"}}, {"type": "node", "id": 3206451895, "lat": 34.4211769, "lon": 8.7707369, "tags": {"amenity": "cafe"}}, {"type": "node", "id": 3206616225, "lat": 34.4200274, "lon": 8.7883329, "tags": {"addr:city": "\u0642\u0641\u0635\u0629", "addr:city:ar": "\u0642\u0641\u0635\u0629", "amenity": "cafe", "name": "caf\u00e9 coin bleu"}}, {"type": "node", "id": 3206623131, "lat": 34.4177558, "lon": 8.789477, "tags": {"addr:city": "\u0642\u0641\u0635\u0629", "addr:city:ar": "\u0642\u0641\u0635\u0629", "amenity": "restaurant"}}, {"type": "node", "id": 3206623373, "lat": 34.4172843, "lon": 8.7894381, "tags": {"addr:city": "\u0642\u0641\u0635\u0629", "addr:city:ar": "\u0642\u0641\u0635\u0629", "amenity": "restaurant", "name": "Restaurant Elanneb"}}, {"type": "node", "id": 3206640978, "lat": 34.4135835, "lon": 8.7938153}, {"type": "node", "id": 3206640979, "lat": 34.4134404, "lon": 8.793603}, {"type": "node", "id": 3206640980, "lat": 34.4128214, "lon": 8.7940701}, {"type": "node", "id": 3206640981, "lat": 34.412947, "lon": 8.7943391}, {"type": "node", "id": 3290560276, "lat": 34.4154491, "lon": 8.7917102, "tags": {"addr:city": "\u0642\u0641\u0635\u0629", "addr:city:ar": "\u0642\u0641\u0635\u0629", "amenity": "cafe", "internet_access": "no"}}, {"type": "node", "id": 3290568253, "lat": 34.4174932, "lon": 8.7859525, "tags": {"addr:city": "\u0642\u0641\u0635\u0629", "addr:city:ar": "\u0642\u0641\u0635\u0629", "amenity": "cafe", "internet_access": "no"}}, {"type": "node", "id": 4534874891, "lat": 34.4194427, "lon": 8.791236, "tags": {"amenity": "cafe", "name": "Cafe El Becha", "name:ar": ""}}, {"type": "node", "id": 7204640485, "lat": 34.3903931, "lon": 8.8098382, "tags": {"addr:city": "\u0642\u0641\u0635\u0629", "addr:city:ar": "\u0642\u0641\u0635\u0629", "amenity": "cafe", "diet:halal": "yes", "language:ar": "main", "name": "\u0645\u0642\u0647\u0649 \u0628\u064a\u0641\u0627\u062a", "name:ar": "\u0645\u0642\u0647\u0649 \u0628\u064a\u0641\u0627\u062a", "name:en": "Maqha Buvette"}}, {"type": "node", "id": 7204640585, "lat": 34.3925653, "lon": 8.8099959, "tags": {"addr:city": "\u0642\u0641\u0635\u0629", "addr:city:ar": "\u0642\u0641\u0635\u0629", "amenity": "cafe", "diet:halal": "yes", "language:ar": "main", "name": "\u0645\u0642\u0647\u0649 \u0628\u064a\u0641\u0627\u062a", "name:ar": "\u0645\u0642\u0647\u0649 \u0628\u064a\u0641\u0627\u062a", "name:en": "Maqha Buvette"}}, {"type": "node", "id": 10008679411, "lat": 34.3327596, "lon": 9.0039178, "tags": {"amenity": "cafe", "name": "Caf\u00e9 El Habib", "name:fr": "Caf\u00e9 El Habib"}}, {"type": "node", "id": 12415344856, "lat": 34.4167311, "lon": 8.7909443, "tags": {"amenity": "restaurant", "name": "76 Caf\u00e9 Resto"}}, {"type": "node", "id": 12553779063, "lat": 34.2957365, "lon": 8.7568867}, {"type": "node", "id": 12553779064, "lat": 34.2956026, "lon": 8.7569677}, {"type": "node", "id": 12553779065, "lat": 34.2955783, "lon": 8.7569471}, {"type": "node", "id": 12553779066, "lat": 34.2955442, "lon": 8.756866}, {"type": "node", "id": 12553779067, "lat": 34.2955442, "lon": 8.7568086}, {"type": "node", "id": 12553779068, "lat": 34.2956111, "lon": 8.7567128}, {"type": "node", "id": 12553779069, "lat": 34.2956903, "lon": 8.7567422}, {"type": "node", "id": 12553779070, "lat": 34.2957329, "lon": 8.7568174}, {"type": "way", "id": 206312341, "nodes": [2163158683, 3196091569, 2163158657, 2163158667, 2163158683], "tags": {"addr:city": "\u0642\u0641\u0635\u0629", "addr:city:ar": "\u0642\u0641\u0635\u0629", "amenity": "cafe", "building": "yes", "name": "Cafeteria"}}, {"type": "way", "id": 314620903, "nodes": [3206640978, 3206640979, 3206640980, 3206640981, 3206640978], "tags": {"addr:city": "\u0642\u0641\u0635\u0629", "addr:city:ar": "\u0642\u0641\u0635\u0629", "amenity": "restaurant", "name": "Restaurant bayech"}}, {"type": "way", "id": 1356393771, "nodes": [12553779063, 12553779064, 12553779065, 12553779066, 12553779067, 12553779068, 12553779069, 12553779070, 12553779063], "tags": {"amenity": "cafe", "building": "yes"}}]}