{"version": 0.6, "generator": "Overpass API 0.7.62.7 375dc00a", "osm3s": {"timestamp_osm_base": "2025-06-14T15:32:14Z", "copyright": "The data included in this document is from www.openstreetmap.org. The data is made available under ODbL."}, "elements": [{"type": "node", "id": 2013004862, "lat": 5.7812028, "lon": 36.5648979, "tags": {"amenity": "restaurant", "name": "Besha Gojo Restaurant"}}, {"type": "node", "id": 2466760475, "lat": 5.7896315, "lon": 36.5651782, "tags": {"amenity": "cafe", "name": "Cafe City Center"}}, {"type": "node", "id": 3740507525, "lat": 5.7758728, "lon": 36.5723123, "tags": {"amenity": "restaurant", "cuisine": "regional", "name": "Ker Yehun Cultual Restaurant", "phone": "+251 910 33 40 56; +251 912 86 89 61"}}, {"type": "node", "id": 3740525155, "lat": 5.7884366, "lon": 36.5679465, "tags": {"amenity": "restaurant", "cuisine": "regional", "name": "Oasis Restaurant"}}, {"type": "node", "id": 4547667193, "lat": 5.785782, "lon": 36.5656007, "tags": {"amenity": "restaurant", "cuisine": "african;ethiopian;burger;cake", "name": "Redu Cafe & Restaurant", "name:am": "Redu Cafe & Restaurant", "name:en": "Redu Cafe & Restaurant"}}]}