{"version": 0.6, "generator": "Overpass API 0.7.62.7 375dc00a", "osm3s": {"timestamp_osm_base": "2025-06-14T15:02:46Z", "copyright": "The data included in this document is from www.openstreetmap.org. The data is made available under ODbL."}, "elements": [{"type": "node", "id": 5856176085, "lat": 40.4517596, "lon": 30.3614627, "tags": {"addr:postcode": "54701", "addr:street": "Il\u0131ca Mahallesi", "amenity": "restaurant", "name": "Il\u0131ca Mahallesi, Do\u011fan Alabal\u0131k", "name:tr": "Do\u011fan Alabal\u0131k"}}, {"type": "node", "id": 5856799087, "lat": 40.4006665, "lon": 30.7861165, "tags": {"amenity": "cafe", "name": "Kule Kahve Evi"}}, {"type": "node", "id": 10858813625, "lat": 40.5689199, "lon": 30.3273747, "tags": {"amenity": "restaurant", "name": "Emir"}}, {"type": "node", "id": 11017570006, "lat": 40.3963919, "lon": 30.4926694, "tags": {"addr:street": "Orhangazi \u00c7ar\u015f\u0131s\u0131", "amenity": "restaurant", "cuisine": "local", "name": "Y\u00f6rem  Sofra Y\u00f6resel \u00dcr\u00fcnler"}}, {"type": "node", "id": 12691459526, "lat": 40.5211867, "lon": 30.2756736, "tags": {"amenity": "restaurant", "name": "\u0130lhan Tan Dinlenme Yeri"}}]}