{"version": 0.6, "generator": "Overpass API 0.7.62.7 375dc00a", "osm3s": {"timestamp_osm_base": "2025-06-14T15:11:57Z", "copyright": "The data included in this document is from www.openstreetmap.org. The data is made available under ODbL."}, "elements": [{"type": "node", "id": 299518735, "lat": 34.7966694, "lon": 33.3464113, "tags": {"amenity": "restaurant", "name": "Georgia"}}, {"type": "node", "id": 299519250, "lat": 34.7977889, "lon": 33.3488198, "tags": {"amenity": "restaurant", "name": "Oasis"}}, {"type": "node", "id": 339838733, "lat": 34.890994, "lon": 33.6375519, "tags": {"amenity": "restaurant", "check_date": "2023-10-28", "check_date:opening_hours": "2024-05-23", "name": "Gorgona", "opening_hours:signed": "no"}}, {"type": "node", "id": 339838762, "lat": 34.8882656, "lon": 33.6368344, "tags": {"addr:postcode": "6027", "amenity": "restaurant", "check_date": "2024-05-23", "name": "Ammos Beach Bar", "opening_hours": "24/7", "phone": "+35724828844"}}, {"type": "node", "id": 339838767, "lat": 34.8875143, "lon": 33.636398, "tags": {"amenity": "restaurant", "check_date:opening_hours": "2024-05-23", "created_by": "Zenon", "name": "Divinus", "opening_hours:signed": "no"}}, {"type": "node", "id": 345359913, "lat": 34.8878427, "lon": 33.6365367, "tags": {"amenity": "restaurant", "check_date:opening_hours": "2024-05-23", "name": "Zakos", "opening_hours:signed": "no"}}, {"type": "node", "id": 370594259, "lat": 34.819782, "lon": 33.3585261, "tags": {"amenity": "cafe"}}, {"type": "node", "id": 370604771, "lat": 34.823201, "lon": 33.3607519, "tags": {"addr:city": "Skarinou", "amenity": "restaurant", "cuisine": "mediterranean;international", "name": "LK at the Olive Restaurant", "website": "www.lkatheolive.com"}}, {"type": "node", "id": 390258838, "lat": 34.8007355, "lon": 33.5070731, "tags": {"amenity": "restaurant"}}, {"type": "node", "id": 395251816, "lat": 34.728145, "lon": 33.3383035, "tags": {"amenity": "restaurant", "check_date": "2024-08-31", "cuisine": "regional", "name": "Santa Elena Taverna"}}, {"type": "node", "id": 395251831, "lat": 34.7278655, "lon": 33.338512, "tags": {"amenity": "restaurant", "cuisine": "regional;seafood;greek", "name": "Captain's Table", "name:ru": "\u041a\u0430\u043f\u0438\u0442\u0430\u043d\u0441\u043a\u0438\u0439 \u0441\u0442\u043e\u043b", "outdoor_seating": "yes", "phone": "24333737", "website": "https://captaintable.com/"}}, {"type": "node", "id": 395251849, "lat": 34.7287218, "lon": 33.3385921, "tags": {"amenity": "restaurant", "check_date": "2024-08-31", "cuisine": "regional", "name": "Fishtaverne"}}, {"type": "node", "id": 705131656, "lat": 34.8212256, "lon": 33.3751089, "tags": {"amenity": "cafe", "name": "Happy Valley"}}, {"type": "node", "id": 944764325, "lat": 34.9130746, "lon": 33.6376475}, {"type": "node", "id": 944764329, "lat": 34.9134623, "lon": 33.6376689}, {"type": "node", "id": 1317044756, "lat": 34.9115292, "lon": 33.6354993, "tags": {"amenity": "cafe", "check_date": "2023-11-02", "name": "Da Vinci"}}, {"type": "node", "id": 1317237206, "lat": 34.9090431, "lon": 33.5662077, "tags": {"amenity": "cafe"}}, {"type": "node", "id": 1595298584, "lat": 34.9107168, "lon": 33.6370255, "tags": {"addr:street": "Touran", "amenity": "restaurant", "name": "Souvlaki-Done Kebab", "source": "Kaart Ground Survey 2017"}}, {"type": "node", "id": 1615700362, "lat": 34.8287847, "lon": 33.5803269, "tags": {"amenity": "restaurant", "cuisine": "indian", "name": "Coast of India", "source": "video"}}, {"type": "node", "id": 1615700375, "lat": 34.8288466, "lon": 33.5798883, "tags": {"amenity": "restaurant", "name": "Pyrgos family restaurant", "name:de": "Perivolia - Pyrgos family restaurant", "name:en": "Perivolia - Pyrgos family restaurant"}}, {"type": "node", "id": 1624343955, "lat": 34.8471587, "lon": 33.5717464, "tags": {"addr:city": "\u039a\u03af\u03c4\u03b9", "addr:housenumber": "15", "addr:street": "Panagias Angeloktistis", "amenity": "cafe", "internet_access": "wlan", "internet_access:fee": "no", "name": "Tamala Cafe"}}, {"type": "node", "id": 1637954469, "lat": 34.7961017, "lon": 33.34563, "tags": {"amenity": "restaurant", "cuisine": "regional", "name": "Vasilikis"}}, {"type": "node", "id": 2094919105, "lat": 34.9177873, "lon": 33.6340734, "tags": {"amenity": "cafe", "brand": "Costa", "brand:wikidata": "Q608845", "brand:wikipedia": "en:Costa Coffee", "cuisine": "coffee_shop", "name": "Costa", "takeaway": "yes"}}, {"type": "node", "id": 2503238258, "lat": 34.8286282, "lon": 33.579853, "tags": {"amenity": "restaurant", "name": "Perivolia - Soutsos Tavern", "name:de": "Perivolia - Soutsos Tavern", "name:en": "Perivolia - Soutsos Tavern"}}, {"type": "node", "id": 2556783036, "lat": 34.8019578, "lon": 33.3844718, "tags": {"amenity": "cafe"}}, {"type": "node", "id": 2556784622, "lat": 34.824136, "lon": 33.4629599, "tags": {"amenity": "cafe"}}, {"type": "node", "id": 2596345202, "lat": 34.9120837, "lon": 33.6365409, "tags": {"addr:city": "Larnaca", "addr:housenumber": "24", "addr:postcode": "6022", "addr:street": "Kleanthi Kalogera", "amenity": "restaurant", "capacity": "50", "cuisine": "american", "name": "Retro", "phone": "+357 24 6222 44", "website": "http://facebook.com/retro.20four"}}, {"type": "node", "id": 2753213918, "lat": 34.9015373, "lon": 33.6363896, "tags": {"addr:city": "Larnaca", "addr:housenumber": "87", "addr:street": "Umm Haram", "amenity": "restaurant", "cuisine": "greek;grill", "name": "Valia's Souvlaki", "opening_hours": "Tu-Sa 11:30-15:00,17:00-22:00; Su,Mo off"}}, {"type": "node", "id": 2753216581, "lat": 34.9079811, "lon": 33.6376496, "tags": {"addr:housenumber": "42", "addr:street": "Piyiale Pasa", "amenity": "restaurant", "check_date": "2025-06-04", "name": "Militzis", "name:lt": "Restoranas", "name:ru": "\u041c\u0438\u043b\u0438\u0442\u0437\u0438\u0441", "opening_hours": "11:30-23:30", "phone": "24655867"}}, {"type": "node", "id": 2817856342, "lat": 34.8165964, "lon": 33.6024071}, {"type": "node", "id": 2817856343, "lat": 34.8167335, "lon": 33.6024132}, {"type": "node", "id": 2817856344, "lat": 34.816803, "lon": 33.6027411}, {"type": "node", "id": 2817856345, "lat": 34.8166796, "lon": 33.6024805, "tags": {"amenity": "restaurant", "check_date": "2023-05-14", "name": "Theta"}}, {"type": "node", "id": 2934089243, "lat": 34.9132174, "lon": 33.6376769, "tags": {"amenity": "cafe", "check_date": "2023-11-02", "name": "Yogartist"}}, {"type": "node", "id": 2941624768, "lat": 34.9153091, "lon": 33.6378319, "tags": {"addr:housenumber": "8", "addr:postcode": "6300", "addr:street": "\u039b\u03b5\u03c9\u03c6\u03cc\u03c1\u03bf\u03c2 \u0391\u03b8\u03b7\u03bd\u03ce\u03bd", "amenity": "restaurant", "brand": "Ocean Basket", "brand:wikidata": "Q62075311", "check_date": "2024-09-25", "cuisine": "seafood", "email": "larnaca@oceanbasket.com", "internet_access": "wlan", "name": "Ocean Basket", "phone": "+35724665400;+357 24 665401", "website": "https://oceanbasket.com/"}}, {"type": "node", "id": 3298549161, "lat": 34.8989336, "lon": 33.6385706, "tags": {"addr:city": "Larnaka", "addr:housenumber": "118", "addr:street": "Piyiale Pasa", "amenity": "restaurant", "cuisine": "seafood;fish", "ele": "0", "name": "Psarolimano - \u03a8\u03b1\u03c1\u03bf\u03bb\u03af\u03bc\u03b1\u03bd\u03bf \u0395\u03c3\u03c4\u03b9\u03b1\u03c4\u03cc\u03c1\u03b9\u03bf", "opening_hours": "11:00-24:00", "phone": "+357 24655408", "smoking": "outside", "website": "https://psarolimano.com/", "wheelchair": "yes"}}, {"type": "node", "id": 3360264876, "lat": 34.9177222, "lon": 33.6363868, "tags": {"amenity": "restaurant", "name": "\u0393\u03c5\u03c1\u03b5\u03c5\u03bf\u03bd\u03c4\u03b1\u03c2 \u0395\u03bb\u03bb\u03b1\u03b4\u03b1 \u03a8\u03b7\u03c4\u03bf\u03c0\u03c9\u03bb\u03b5\u03b9\u03bf"}}, {"type": "node", "id": 3391123022, "lat": 34.915943, "lon": 33.6377702}, {"type": "node", "id": 3453597406, "lat": 34.8215914, "lon": 33.3752643, "tags": {"addr:city": "Skarinou", "amenity": "restaurant", "cuisine": "regional,_British", "name": "Classic Car Restaurant"}}, {"type": "node", "id": 3508833402, "lat": 34.8473037, "lon": 33.5709182, "tags": {"amenity": "cafe"}}, {"type": "node", "id": 3516827350, "lat": 34.8978978, "lon": 33.6381029, "tags": {"addr:city": "Larnaka", "addr:street": "Piyiale Pasa", "amenity": "restaurant", "check_date": "2024-05-15", "cuisine": "fish_and_chips;pasta;greek;turkish;local", "internet_access": "wlan", "name": "Kellari"}}, {"type": "node", "id": 3516827354, "lat": 34.899682, "lon": 33.6382862, "tags": {"addr:city": "Larnaka", "amenity": "restaurant", "check_date": "2025-06-04", "cuisine": "cypriot;fish", "internet_access": "wlan", "name": "Zephyros", "opening_hours": "Mo-Su 11:30-23:00"}}, {"type": "node", "id": 3517142256, "lat": 34.8610528, "lon": 33.5943355, "tags": {"amenity": "restaurant", "check_date": "2024-10-10", "name": "Vatiliotis Tavern"}}, {"type": "node", "id": 3517231448, "lat": 34.8514494, "lon": 33.5790851, "tags": {"amenity": "cafe", "brand": "Mikel", "brand:wikidata": "Q16952021", "cuisine": "coffee_shop", "name": "Mikel", "takeaway": "yes"}}, {"type": "node", "id": 3517231450, "lat": 34.8505273, "lon": 33.5777139, "tags": {"amenity": "cafe", "name": "Durango pub-cafe"}}, {"type": "node", "id": 3517231460, "lat": 34.853115, "lon": 33.5814955, "tags": {"amenity": "cafe"}}, {"type": "node", "id": 3517231466, "lat": 34.8533667, "lon": 33.5813867, "tags": {"amenity": "cafe", "name": "51"}}, {"type": "node", "id": 3517241094, "lat": 34.8472445, "lon": 33.573196, "tags": {"amenity": "restaurant", "cuisine": "pizza", "name": "Al Fredo's pizza"}}, {"type": "node", "id": 3517241097, "lat": 34.8485037, "lon": 33.5748111, "tags": {"amenity": "restaurant", "cuisine": "Cypriot", "source": "Video+GPS"}}, {"type": "node", "id": 3653906093, "lat": 34.904306, "lon": 33.6360155, "tags": {"addr:city": "Larnaka", "addr:housenumber": "56", "addr:street": "Umm Haram", "amenity": "cafe", "cuisine": "gyros", "name": "\u0393\u03cd\u03c1\u03bf\u03c2 \u039f \u03a0\u03c1\u03cc\u03b4\u03c1\u03bf\u03bc\u03bf\u03c2", "website": "https://www.facebook.com/pages/%CE%A0%CE%B1%CF%81%CE%B1%CE%B4%CE%BF%CF%83%CE%B9%CE%B1%CE%BA%CF%8C%CF%82-%CE%93%CF%8D%CF%81%CE%BF%CF%82-%CE%9F-%CE%A0%CF%81%CF%8C%CE%B4%CF%81%CE%BF%CE%BC%CE%BF%CF%82/527129710751758"}}, {"type": "node", "id": 3754987307, "lat": 34.7504943, "lon": 33.4123714, "tags": {"addr:housenumber": "24440101", "amenity": "restaurant", "capacity": "50", "cuisine": "fish_and_chips;fish;seafood;international", "internet_access": "wlan", "name": "Limni Fish Tavern", "opening_hours": "Mo-Su 10:00-00:00", "phone": "24440101"}}, {"type": "node", "id": 3774597564, "lat": 34.8897373, "lon": 33.6372132, "tags": {"amenity": "cafe", "check_date:opening_hours": "2024-05-23", "name": "South Coast", "opening_hours:signed": "no"}}, {"type": "node", "id": 3774598630, "lat": 34.9108194, "lon": 33.6376646, "tags": {"addr:housenumber": "7b", "addr:street": "Ankara", "amenity": "restaurant", "cuisine": "sushi", "description": "Fish tavern", "internet_access": "wlan", "name": "Uni"}}, {"type": "node", "id": 3774598631, "lat": 34.9110375, "lon": 33.6376646, "tags": {"amenity": "restaurant", "check_date": "2023-11-02", "cuisine": "lebanese", "name": "Maqam Al Sultan", "name:en": "Maqam Al Sultan"}}, {"type": "node", "id": 3774598632, "lat": 34.910889, "lon": 33.6376664, "tags": {"amenity": "restaurant", "check_date": "2023-05-27", "cuisine": "steak", "description": "steak house", "name": "Panos", "name:en": "Panos steakhouse"}}, {"type": "node", "id": 3774598634, "lat": 34.9127804, "lon": 33.6376214}, {"type": "node", "id": 3774598681, "lat": 34.8895803, "lon": 33.6371907, "tags": {"amenity": "cafe", "brand": "Caff\u00e8 Nero", "brand:wikidata": "Q675808", "brand:wikipedia": "en:Caff\u00e8 Nero", "check_date:opening_hours": "2024-05-23", "cuisine": "coffee_shop", "indoor_seating": "yes", "name": "Caff\u00e8 Nero", "opening_hours:signed": "no", "outdoor_seating": "yes", "takeaway": "yes", "toilets": "yes"}}, {"type": "node", "id": 3774599228, "lat": 34.8900914, "lon": 33.6373339, "tags": {"amenity": "restaurant", "check_date": "2024-05-02", "cuisine": "burger", "name": "Food Park City"}}, {"type": "node", "id": 3774599708, "lat": 34.9147223, "lon": 33.6373445, "tags": {"amenity": "restaurant", "check_date": "2024-10-29", "cuisine": "steak_house", "description": "Steak House", "name": "Hobos", "name:en": "Hobos Steak House"}}, {"type": "node", "id": 3774600557, "lat": 34.8914105, "lon": 33.637921, "tags": {"addr:city": "Larnaka", "amenity": "restaurant", "check_date": "2023-10-28", "check_date:opening_hours": "2024-05-23", "cuisine": "mediterranean", "email": "info@rebukelounge.com", "fax": "+357 24 626 221", "internet_access": "wlan", "name": "Rebuke Lounge", "opening_hours:signed": "no", "phone": "+357 24 626 212", "website": "https://www.rebukelounge.com/"}}, {"type": "node", "id": 4004933429, "lat": 34.9127127, "lon": 33.6377474}, {"type": "node", "id": 4004933430, "lat": 34.9127146, "lon": 33.63762}, {"type": "node", "id": 4004933431, "lat": 34.9127785, "lon": 33.6377488}, {"type": "node", "id": 4004933445, "lat": 34.9131879, "lon": 33.6377795}, {"type": "node", "id": 4004933446, "lat": 34.9131926, "lon": 33.6376542}, {"type": "node", "id": 4004933457, "lat": 34.9133458, "lon": 33.637765}, {"type": "node", "id": 4004933458, "lat": 34.9133499, "lon": 33.6376623}, {"type": "node", "id": 4004933459, "lat": 34.9134583, "lon": 33.6377715}, {"type": "node", "id": 4004933469, "lat": 34.9137401, "lon": 33.6375841}, {"type": "node", "id": 4004933470, "lat": 34.9137497, "lon": 33.6374586}, {"type": "node", "id": 4004933471, "lat": 34.9139734, "lon": 33.6375959}, {"type": "node", "id": 4004933472, "lat": 34.9139818, "lon": 33.6374734}, {"type": "node", "id": 4004933529, "lat": 34.9151463, "lon": 33.6378404}, {"type": "node", "id": 4004933531, "lat": 34.915153, "lon": 33.637701}, {"type": "node", "id": 4004933534, "lat": 34.9151962, "lon": 33.637844}, {"type": "node", "id": 4004933535, "lat": 34.9152029, "lon": 33.6377046}, {"type": "node", "id": 4004933560, "lat": 34.9154165, "lon": 33.6378909}, {"type": "node", "id": 4004933561, "lat": 34.915415, "lon": 33.6377623}, {"type": "node", "id": 4084655797, "lat": 34.9267793, "lon": 33.4099025, "tags": {"amenity": "cafe"}}, {"type": "node", "id": 4201641889, "lat": 34.9162537, "lon": 33.6236241, "tags": {"addr:street": "Ellispontou", "amenity": "restaurant", "name": "Red Pepper"}}, {"type": "node", "id": 4269360191, "lat": 34.7518345, "lon": 33.4120438, "tags": {"amenity": "cafe", "cuisine": "regional"}}, {"type": "node", "id": 4273078692, "lat": 34.9112822, "lon": 33.6361561, "tags": {"amenity": "cafe", "check_date": "2025-02-02", "cuisine": "regional;greek;breakfast;grill;kebab;coffee_shop", "name": "Special Kebab House Cyprus Food", "opening_hours": "Mo-Su 09:00-22:00", "phone": "97766655"}}, {"type": "node", "id": 4300571389, "lat": 34.9167011, "lon": 33.6360582, "tags": {"addr:housenumber": "6", "addr:street": "Stasinou", "amenity": "restaurant", "name": "Art Cafe 1900", "name:en": "Art Cafe 1900", "opening_hours": "We-Mo 18:00-24:00+", "phone": "+35724653027", "website": "http://artcafe1900.com.cy"}}, {"type": "node", "id": 4316001708, "lat": 34.9116362, "lon": 33.6354547, "tags": {"amenity": "cafe", "internet_access": "wlan", "name": "Da Vinci Cafe", "name:ru": "da Vinci cafe"}}, {"type": "node", "id": 4361248690, "lat": 34.9421505, "lon": 33.4802267, "tags": {"amenity": "cafe", "name": "Ayia Anna taverna"}}, {"type": "node", "id": 4370609090, "lat": 34.930456, "lon": 33.6085197, "tags": {"amenity": "restaurant", "name": "Fig Tree", "name:en": "Fig Tree"}}, {"type": "node", "id": 4378744294, "lat": 34.9125395, "lon": 33.635744, "tags": {"addr:housenumber": "1", "addr:postcode": "6021", "addr:street": "Ifaistou", "amenity": "cafe", "cuisine": "greek;breakfast;burger;coffee_shop", "internet_access": "wlan", "name": "\u03a4\u03bf \u03ba\u03b1\u03c6\u03ad \u03c4\u03b7\u03c2 \u03a7\u03c1\u03c5\u03c3\u03ac\u03bd\u03b8\u03b7\u03c2", "name:el": "\u03a4\u03bf \u03ba\u03b1\u03c6\u03ad \u03c4\u03b7\u03c2 \u03a7\u03c1\u03c5\u03c3\u03ac\u03bd\u03b8\u03b7\u03c2", "name:en": "To Kafe Tis Chrysanthis", "opening_hours": "Mo-Fr 08:00-23:00; Sa-Su 08:00-23:30", "phone": "24256262", "website": "https://www.facebook.com/ToKafeTisChrysanthis/"}}, {"type": "node", "id": 4379274192, "lat": 34.9123981, "lon": 33.6358908, "tags": {"addr:housenumber": "1", "addr:postcode": "6021", "addr:street": "Nikolaou Rossou", "amenity": "cafe", "cuisine": "greek", "email": "info@takiskebabhouse.com", "internet_access": "wlan", "name": "Takis Kebab House", "name:en": "Takis Kebab House", "opening_hours": "Mo-Su 07:00-23:00", "phone": "24653756", "website": "http://www.takiskebabhouse.com/"}}, {"type": "node", "id": 4392599590, "lat": 34.9466382, "lon": 33.5911439, "tags": {"addr:housenumber": "42", "addr:street": "Archiepiskopou Makariou III Avenue", "amenity": "restaurant", "name": "Tasty Fried Chicken", "name:en": "Tasty Fried Chicken", "phone": "24255053", "source": "Kaart Ground Survey 2017"}}, {"type": "node", "id": 4457650089, "lat": 34.9125093, "lon": 33.6370912, "tags": {"addr:housenumber": "6", "addr:street": "Kosma Lysioti", "amenity": "cafe", "name": "Giorgos Snacks", "name:en": "Giorgos Snacks"}}, {"type": "node", "id": 4467737493, "lat": 34.9183284, "lon": 33.6393804, "tags": {"amenity": "restaurant", "internet_access": "wlan", "name": "Larnaca marina CafeBar", "name:en": "Larnaca marina CafeBar"}}, {"type": "node", "id": 4475561498, "lat": 34.9142952, "lon": 33.6376743}, {"type": "node", "id": 4506493691, "lat": 34.9014314, "lon": 33.6378004, "tags": {"amenity": "cafe", "name": "Vacant", "vacant": "yes"}}, {"type": "node", "id": 4508164790, "lat": 34.9157022, "lon": 33.6376714, "tags": {"amenity": "restaurant", "brand": "Pizza Hut", "brand:wikidata": "Q191615", "brand:wikipedia": "en:Pizza Hut", "check_date": "2023-11-02", "cuisine": "pizza", "name": "Pizza Hut", "name:de": "Pizza Hut", "name:en": "Pizza Hut", "name:ru": "\u041f\u0438\u0446\u0446\u0430 \u0425\u0430\u0442"}}, {"type": "node", "id": 4511560090, "lat": 34.9220149, "lon": 33.6278918, "tags": {"amenity": "cafe", "opening_hours": "Mo-Fr 11:00-20:30; Sa-Su 11:00-15:30"}}, {"type": "node", "id": 4549021393, "lat": 34.9226221, "lon": 33.6149676, "tags": {"amenity": "restaurant", "name": "Taverna to Deilino", "name:en": "Taverna to Deilino"}}, {"type": "node", "id": 4721865489, "lat": 34.9147933, "lon": 33.6337399, "tags": {"addr:street": "Kostantinou Kalogera", "amenity": "cafe", "cuisine": "seafood;local", "name": "Kalogera", "name:en": "Kalogera"}}, {"type": "node", "id": 4732243422, "lat": 34.728359, "lon": 33.3377503, "tags": {"amenity": "restaurant", "name": "\u0399 \u03a0\u03bb\u03b1\u03c4\u03b5\u03af\u03b1 \u03bc\u03b1\u03c2 \u0396\u03c5\u03b3\u03b9"}}, {"type": "node", "id": 4752988722, "lat": 34.9151819, "lon": 33.6377813, "tags": {"addr:housenumber": "35", "addr:postcode": "6023", "addr:street": "\u039b\u03b5\u03c9\u03c6\u03cc\u03c1\u03bf\u03c2 \u0391\u03b8\u03b7\u03bd\u03ce\u03bd", "amenity": "restaurant", "cuisine": "greek", "internet_access": "wlan", "phone": "+35770000552"}}, {"type": "node", "id": 4765024221, "lat": 34.9116284, "lon": 33.6376763, "tags": {"addr:housenumber": "103", "addr:postcode": "6022", "addr:street": "\u039b\u03b5\u03c9\u03c6\u03cc\u03c1\u03bf\u03c2 \u0391\u03b8\u03b7\u03bd\u03ce\u03bd", "amenity": "restaurant", "check_date": "2023-11-02", "cuisine": "chinese", "email": "info@taipeitown.com", "name": "Feng's House", "name:en": "Feng's House", "phone": "+357 24 657176", "website": "http://fengshouse.com"}}, {"type": "node", "id": 4769253022, "lat": 34.8547662, "lon": 33.5828162}, {"type": "node", "id": 4776886037, "lat": 34.9144568, "lon": 33.6347927, "tags": {"amenity": "cafe", "name": "illy", "name:en": "Preserve"}}, {"type": "node", "id": 4786706422, "lat": 34.92326, "lon": 33.6274668, "tags": {"amenity": "cafe", "internet_access": "wlan", "name": "Magkali Restaurant", "name:ar": "\u0645\u0637\u0639\u0645 \u0645\u0646\u0642\u0644\u064a", "name:en": "Magkali Restaurant"}}, {"type": "node", "id": 4788377931, "lat": 34.9112534, "lon": 33.6364189, "tags": {"addr:city": "Larnaka", "amenity": "restaurant", "name": "Souvlaki.GR", "name:en": "Souvlaki.GR", "opening_hours": "Mo-Th 12:00-22:00; Fr-Su 12:00-23:00"}}, {"type": "node", "id": 4793074325, "lat": 34.9225589, "lon": 33.6270609, "tags": {"addr:street": "Terrasantas", "amenity": "restaurant", "internet_access": "wlan", "name": "Magkali Restaurant & Bar", "name:ar": "\u0645\u0637\u0639\u0645 \u0645\u0642\u0627\u0644\u064a", "name:en": "Magkali Restaurant & Bar"}}, {"type": "node", "id": 4796491923, "lat": 34.8981465, "lon": 33.6380809, "tags": {"addr:city": "Larnaka", "addr:housenumber": "123", "addr:street": "Piyiale Pasa", "amenity": "restaurant", "check_date": "2024-05-15", "cuisine": "greek", "name": "To Varelli Traditional Tavern", "name:en": "Varelli"}}, {"type": "node", "id": 4796504223, "lat": 34.8983488, "lon": 33.6383334, "tags": {"amenity": "cafe", "check_date": "2024-05-15", "cuisine": "ice_cream", "name": "Pahit-ice", "name:en": "Pahit-ice"}}, {"type": "node", "id": 4853219856, "lat": 34.9143969, "lon": 33.6376815}, {"type": "node", "id": 4853219857, "lat": 34.9143898, "lon": 33.6378315}, {"type": "node", "id": 4853219859, "lat": 34.9141763, "lon": 33.6376791}, {"type": "node", "id": 4856379804, "lat": 34.9213913, "lon": 33.3965198, "tags": {"amenity": "restaurant", "capacity": "200", "cuisine": "pizza", "name": "Pizzaria Florida"}}, {"type": "node", "id": 4856386926, "lat": 34.9109208, "lon": 33.6218367, "tags": {"amenity": "restaurant", "cuisine": "grill", "name": "Vokolida", "outdoor_seating": "yes"}}, {"type": "node", "id": 4887269224, "lat": 34.8510913, "lon": 33.5478074, "tags": {"amenity": "restaurant", "name": "Eucalyptus Panicos", "name:en": "Eucalyptus Panicos", "phone": "99817847"}}, {"type": "node", "id": 4926942721, "lat": 34.920031, "lon": 33.6368093, "tags": {"addr:housenumber": "17", "addr:street": "Makariou III Avenue", "amenity": "cafe", "description": "American Steak Bar", "name": "Jemms", "name:en": "Jemms", "opening_hours": "Mo-Sa 11:00-00:00; Su 18:00-00:00"}}, {"type": "node", "id": 4961530646, "lat": 34.8957734, "lon": 33.6382534, "tags": {"addr:city": "Larnaka", "amenity": "restaurant", "check_date": "2024-05-10", "cuisine": "fish", "name": "Koma tou Yialou", "name:el": "\u039a\u03ce\u03bc\u03b1 \u03c4\u03bf\u03c5 \u0393\u03b9\u03b1\u03bb\u03bf\u03cd"}}, {"type": "node", "id": 4961672185, "lat": 34.9115519, "lon": 33.6367694}, {"type": "node", "id": 4961733176, "lat": 34.9017058, "lon": 33.6377071, "tags": {"addr:city": "Larnaka", "addr:housenumber": "20", "addr:street": "Piyiale Pasa", "amenity": "restaurant", "check_date": "2024-05-29", "name": "Sea Joy", "website": "https://www.seajoyproject.com/"}}, {"type": "node", "id": 4961733187, "lat": 34.9043429, "lon": 33.6375867, "tags": {"addr:city": "Larnaka", "addr:housenumber": "3", "addr:street": "Piyiale Pasa", "amenity": "restaurant", "check_date": "2024-05-15", "cuisine": "seafood;fish", "name": "Vapotaberna Estefanos", "name:en": "Fish Tavern Stefanos"}}, {"type": "node", "id": 4961733193, "lat": 34.9046266, "lon": 33.6375798, "tags": {"amenity": "restaurant", "check_date": "2024-11-03", "description": "Fish Tavern", "name": "To Paradeiako", "name:en": "To Paradeiako"}}, {"type": "node", "id": 5011109506, "lat": 34.9157757, "lon": 33.6379182}, {"type": "node", "id": 5011109507, "lat": 34.9157872, "lon": 33.637754}, {"type": "node", "id": 5022344927, "lat": 34.9112589, "lon": 33.6365233, "tags": {"amenity": "restaurant", "name": "Quick Stop Snack"}}, {"type": "node", "id": 5159018921, "lat": 34.9114798, "lon": 33.6204563, "tags": {"addr:street": "Makedonias", "amenity": "restaurant", "internet_access": "wlan", "name": "Zenon Tavern", "name:en": "Zenon Tavern", "name:ru": "\u0422\u0430\u0432\u0435\u0440\u043d\u0430 \u0417\u0435\u043d\u043e\u043d", "website": "https://taverna-zenon.com/"}}, {"type": "node", "id": 5169538597, "lat": 34.9119521, "lon": 33.634512, "tags": {"addr:housenumber": "37-39", "addr:street": "Agiou Lazarou", "amenity": "cafe", "internet_access": "wlan", "name": "Lazaris", "opening_hours": "Tu-Su 07:30-23:00", "phone": "+35724655700"}}, {"type": "node", "id": 5169540307, "lat": 34.9197781, "lon": 33.6340673, "tags": {"amenity": "restaurant", "cuisine": "armenian", "name": "Nazani", "phone": "24664578"}}, {"type": "node", "id": 5169541124, "lat": 34.9185629, "lon": 33.6332947, "tags": {"addr:street": "Kimonos", "amenity": "cafe", "name": "\u0395\u03cd \u03ba\u03bf\u03c5\u03b6\u03ae\u03bd", "source": "Kaart Ground Survey 2017"}}, {"type": "node", "id": 5169542188, "lat": 34.9199826, "lon": 33.6165175, "tags": {"amenity": "cafe"}}, {"type": "node", "id": 5169542189, "lat": 34.9181012, "lon": 33.6312706, "tags": {"amenity": "cafe", "name": "C. D. A. College Cafeteria"}}, {"type": "node", "id": 5186610239, "lat": 34.924259, "lon": 33.6358678, "tags": {"addr:city": "Larnaca", "addr:street": "Archiepiskopou Kyprianou Avenue", "amenity": "restaurant", "name": "Shawarma House", "phone": "+357 24 400 467", "source": "Kaart Ground Survey 2017"}}, {"type": "node", "id": 5186610241, "lat": 34.9241779, "lon": 33.6357457, "tags": {"addr:street": "Archiepiskopou Kyprianou Avenue", "amenity": "restaurant", "name": "Happy time Lebanese", "source": "Kaart Ground Survey 2017"}}, {"type": "node", "id": 5186875345, "lat": 34.9052517, "lon": 33.6359037}, {"type": "node", "id": 5186875346, "lat": 34.9052564, "lon": 33.6357509}, {"type": "node", "id": 5186875347, "lat": 34.9053382, "lon": 33.6359076}, {"type": "node", "id": 5186875348, "lat": 34.9053429, "lon": 33.6357549}, {"type": "node", "id": 5186875355, "lat": 34.9108282, "lon": 33.6370202, "tags": {"addr:street": "Eski Tsarshi", "amenity": "restaurant", "name": "\u039a\u03b1\u03c3\u03c4\u03c1\u03bf", "source": "Kaart Ground Survey 2017"}}, {"type": "node", "id": 5187138331, "lat": 34.9172253, "lon": 33.6274199, "tags": {"addr:street": "Nicodemou Milona", "amenity": "cafe", "name": "Lasonas", "opening_hours:signed": "no", "source": "Kaart Ground Survey 2017"}}, {"type": "node", "id": 5187182158, "lat": 34.9187953, "lon": 33.6364663, "tags": {"addr:street": "Makariou III Avenue", "amenity": "restaurant", "name": "Flame", "source": "Kaart Ground Survey 2017"}}, {"type": "node", "id": 5187182168, "lat": 34.9182837, "lon": 33.6364719, "tags": {"addr:street": "Makariou III Avenue", "amenity": "restaurant", "check_date": "2025-05-10", "name": "Marzano", "source": "Kaart Ground Survey 2017"}}, {"type": "node", "id": 5187308225, "lat": 34.9161862, "lon": 33.6351727, "tags": {"addr:street": "Lordou Vyronos", "amenity": "restaurant", "cuisine": "greek", "name": "Spileon", "name:en": "Spileon", "source": "Kaart Ground Survey 2017"}}, {"type": "node", "id": 5187308236, "lat": 34.9167637, "lon": 33.6348145, "tags": {"addr:street": "Lordou Vyronos", "amenity": "restaurant", "check_date": "2025-03-02", "name": "\u03a4\u03bf \u0388\u03b4\u03b5\u03c3\u03bc\u03b1 \u03c4\u03bf\u03c5 \u03a0\u03b1\u03c1\u03b1\u03b4\u03b5\u03af\u03c3\u03c0\u03c5", "name:el": "\u03a4\u03bf \u0388\u03b4\u03b5\u03c3\u03bc\u03b1 \u03c4\u03bf\u03c5 \u03a0\u03b1\u03c1\u03b1\u03b4\u03b5\u03af\u03c3\u03c0\u03c5", "source": "Kaart Ground Survey 2017"}}, {"type": "node", "id": 5187313067, "lat": 34.9165745, "lon": 33.6329895, "tags": {"addr:street": "Ermou", "amenity": "cafe", "brand": "Coffee Island", "brand:wikidata": "Q60867333", "brand:wikipedia": "en:Coffee Island", "cuisine": "coffee_shop", "name": "Coffee Island", "source": "Kaart Ground Survey 2017", "takeaway": "yes"}}, {"type": "node", "id": 5188769828, "lat": 34.9123247, "lon": 33.636224, "tags": {"addr:street": "Kleanthi Kalogera", "amenity": "restaurant", "name": "Potiri", "source": "Kaart Ground Survey 2017"}}, {"type": "node", "id": 5188789157, "lat": 34.9132867, "lon": 33.6362309, "tags": {"addr:street": "Zinonos Kitieos", "amenity": "cafe", "name": "Cafe Kouzina", "source": "Kaart Ground Survey 2017"}}, {"type": "node", "id": 5188789163, "lat": 34.9140928, "lon": 33.6363566, "tags": {"addr:street": "Zinonos Kitieos", "amenity": "cafe", "name": "Coffee Brands", "source": "Kaart Ground Survey 2017"}}, {"type": "node", "id": 5188789169, "lat": 34.9144929, "lon": 33.6363729, "tags": {"addr:street": "Zinonos Kitieos", "amenity": "restaurant", "name": "Yummy India Restaurant", "source": "Kaart Ground Survey 2017"}}, {"type": "node", "id": 5188811998, "lat": 34.9155922, "lon": 33.6363345, "tags": {"addr:street": "Zinonos Kitieos", "amenity": "restaurant", "cuisine": "greek;international;pancake;ice_cream;local;coffee_shop", "internet_access": "wlan", "name": "Coffee & Friends"}}, {"type": "node", "id": 5188827319, "lat": 34.9130284, "lon": 33.6366405, "tags": {"addr:street": "Nikolaou Laniti", "amenity": "restaurant", "name": "George's", "source": "Kaart Ground Survey 2017"}}, {"type": "node", "id": 5188828022, "lat": 34.9125179, "lon": 33.636279, "tags": {"addr:housenumber": "4", "addr:street": "Kleanthi Kalogera", "amenity": "cafe", "cuisine": "greek", "indoor_seating": "yes", "name": "\u03a4\u03bf \u0391\u03c1\u03b1\u03be\u03bf\u03b2\u03bf\u03bb\u03b9", "name:en": "To Araxovoli", "outdoor_seating": "yes", "source": "Kaart Ground Survey 2017"}}, {"type": "node", "id": 5188876488, "lat": 34.9155492, "lon": 33.6378383, "tags": {"addr:street": "Athinon Avenue", "amenity": "cafe", "brand": "Gloria Jean's", "brand:wikidata": "Q2666365", "check_date": "2023-05-15", "cuisine": "coffee_shop", "name": "Gloria Jean's", "official_name": "Gloria Jean's Coffees", "source": "Kaart Ground Survey 2017", "takeaway": "yes"}}, {"type": "node", "id": 5188876494, "lat": 34.912139, "lon": 33.6377084, "tags": {"addr:street": "\u039b\u03b5\u03c9\u03c6\u03cc\u03c1\u03bf\u03c2 \u0391\u03b8\u03b7\u03bd\u03ce\u03bd", "amenity": "restaurant", "check_date": "2023-11-02", "name": "Alexander Restaurant", "name:ru": "\u0410\u043b\u0435\u043a\u0441\u0430\u043d\u0434\u0440 \u0440\u0435\u0441\u0442\u043e\u0440\u0430\u043d", "source": "Kaart Ground Survey 2017"}}, {"type": "node", "id": 5188876495, "lat": 34.9117386, "lon": 33.6376808, "tags": {"addr:street": "\u039b\u03b5\u03c9\u03c6\u03cc\u03c1\u03bf\u03c2 \u0391\u03b8\u03b7\u03bd\u03ce\u03bd", "amenity": "restaurant", "check_date": "2023-11-02", "name": "Navy Marine", "source": "Kaart Ground Survey 2017"}}, {"type": "node", "id": 5188876496, "lat": 34.911327, "lon": 33.6376481, "tags": {"addr:street": "\u039b\u03b5\u03c9\u03c6\u03cc\u03c1\u03bf\u03c2 \u0391\u03b8\u03b7\u03bd\u03ce\u03bd", "amenity": "cafe", "brand": "Coffee Island", "brand:wikidata": "Q60867333", "brand:wikipedia": "en:Coffee Island", "check_date": "2024-06-02", "cuisine": "coffee_shop", "name": "Coffee Island", "source": "Kaart Ground Survey 2017", "takeaway": "yes"}}, {"type": "node", "id": 5188876507, "lat": 34.9098033, "lon": 33.6377222, "tags": {"addr:street": "Piyiale Pasa", "amenity": "cafe", "check_date": "2025-05-23", "name": "To Zhnobia", "source": "Kaart Ground Survey 2017"}}, {"type": "node", "id": 5188926868, "lat": 34.9117755, "lon": 33.6350903, "tags": {"addr:street": "Agiou Lazarou", "amenity": "restaurant", "name": "Souvlakia", "source": "Kaart Ground Survey 2017"}}, {"type": "node", "id": 5188926877, "lat": 34.9118422, "lon": 33.6349682, "tags": {"addr:street": "Agiou Lazarou", "amenity": "cafe", "name": "The Secret Garden", "source": "Kaart Ground Survey 2017"}}, {"type": "node", "id": 5188926916, "lat": 34.9173743, "lon": 33.6298831, "tags": {"addr:street": "Gregori Afxentiou Avenue", "amenity": "cafe", "name": "Mario's Coffee House", "opening_hours:signed": "no", "source": "Kaart Ground Survey 2017"}}, {"type": "node", "id": 5188926918, "lat": 34.9174639, "lon": 33.6301285, "tags": {"addr:street": "Gregori Afxentiou Avenue", "amenity": "restaurant", "name": "Trattoria manfredo", "source": "Kaart Ground Survey 2017"}}, {"type": "node", "id": 5188996476, "lat": 34.919825, "lon": 33.629196, "tags": {"addr:street": "Panagias Chrysopolitisas", "amenity": "cafe", "name": "\u039a\u03b1\u03c6\u03b5\u03bd\u03b5\u03b9\u03bf \u0395\u03c3\u03c3\u03bf\u03c2", "source": "Kaart Ground Survey 2017"}}, {"type": "node", "id": 5189001966, "lat": 34.9045837, "lon": 33.6376162, "tags": {"addr:street": "Piyiale Pasa", "amenity": "restaurant", "cuisine": "seafood;fish", "name": "Namare sea food bar", "source": "Kaart Ground Survey 2017"}}, {"type": "node", "id": 5189407115, "lat": 34.9151895, "lon": 33.6283033}, {"type": "node", "id": 5189407116, "lat": 34.9151273, "lon": 33.6284716}, {"type": "node", "id": 5189407117, "lat": 34.9152654, "lon": 33.6285476}, {"type": "node", "id": 5189407118, "lat": 34.9153277, "lon": 33.6283792}, {"type": "node", "id": 5189423321, "lat": 34.9126521, "lon": 33.6346485, "tags": {"addr:street": "Filosof. Aristotelous", "amenity": "cafe", "name": "Mamas Cafe", "source": "Kaart Ground Survey 2017"}}, {"type": "node", "id": 5189441953, "lat": 34.9124933, "lon": 33.6352004, "tags": {"addr:street": "Filosof. Aristotelous", "amenity": "cafe", "name": "The Coffee Shop", "source": "Kaart Ground Survey 2017"}}, {"type": "node", "id": 5189441954, "lat": 34.9124836, "lon": 33.6352955, "tags": {"addr:street": "Filosof. Aristotelous", "amenity": "cafe", "name": "Soulla's Coffee Shop", "source": "Kaart Ground Survey 2017"}}, {"type": "node", "id": 5189464515, "lat": 34.8966257, "lon": 33.638565, "tags": {"addr:street": "Piyiale Pasa", "amenity": "cafe", "check_date": "2024-05-27", "name": "Coffee Berry", "source": "Kaart Ground Survey 2017"}}, {"type": "node", "id": 5189464516, "lat": 34.8965581, "lon": 33.6385776, "tags": {"addr:street": "Piyiale Pasa", "amenity": "cafe", "check_date": "2024-05-15", "name": "Davinci", "source": "Kaart Ground Survey 2017"}}, {"type": "node", "id": 5189478806, "lat": 34.9074019, "lon": 33.637403}, {"type": "node", "id": 5189478807, "lat": 34.907241, "lon": 33.6374114}, {"type": "node", "id": 5189478808, "lat": 34.9072462, "lon": 33.6375608}, {"type": "node", "id": 5189478809, "lat": 34.9074071, "lon": 33.6375525}, {"type": "node", "id": 5189480128, "lat": 34.8930319, "lon": 33.6378788}, {"type": "node", "id": 5189480129, "lat": 34.8928621, "lon": 33.6379513}, {"type": "node", "id": 5189480130, "lat": 34.8928989, "lon": 33.6380795}, {"type": "node", "id": 5189480131, "lat": 34.8929488, "lon": 33.6380991}, {"type": "node", "id": 5189480132, "lat": 34.8930559, "lon": 33.6380973}, {"type": "node", "id": 5189480133, "lat": 34.8930905, "lon": 33.6380826}, {"type": "node", "id": 5191398461, "lat": 34.9112348, "lon": 33.6235252, "tags": {"addr:street": "Leoforos Faneromenis", "amenity": "cafe", "brand": "Coffee Island", "brand:wikidata": "Q60867333", "brand:wikipedia": "en:Coffee Island", "cuisine": "coffee_shop", "name": "Coffee Island", "source": "Kaart Ground Survey 2017", "takeaway": "yes", "website": "https://www.coffeeisland.com.cy/"}}, {"type": "node", "id": 5191629546, "lat": 34.9111893, "lon": 33.622578, "tags": {"addr:street": "Leoforos Faneromenis", "amenity": "restaurant", "name": "La Croissanterie", "source": "Kaart Ground Survey 2017"}}, {"type": "node", "id": 5191747703, "lat": 34.9139955, "lon": 33.6276952, "tags": {"addr:street": "Artemidos Avenue", "amenity": "restaurant", "name": "Creperie Restaurant", "source": "Kaart Ground Survey 2017"}}, {"type": "node", "id": 5191863086, "lat": 34.9173487, "lon": 33.62309, "tags": {"addr:street": "Griva Digeni Avenue", "amenity": "restaurant", "brand": "Pizza Hut", "brand:wikidata": "Q191615", "brand:wikipedia": "en:Pizza Hut", "cuisine": "pizza", "name": "Pizza Hut", "source": "Kaart Ground Survey 2017"}}, {"type": "node", "id": 5191863087, "lat": 34.9173787, "lon": 33.6229618, "tags": {"addr:street": "Griva Digeni Avenue", "amenity": "restaurant", "name": "The Salad Bar", "source": "Kaart Ground Survey 2017"}}, {"type": "node", "id": 5191863100, "lat": 34.9171617, "lon": 33.6187034, "tags": {"addr:street": "1 Apriliou Avenue", "amenity": "restaurant", "name": "Guadalajara", "source": "Kaart Ground Survey 2017"}}, {"type": "node", "id": 5192152338, "lat": 34.9191261, "lon": 33.6177974, "tags": {"addr:street": "Konstantinou Palaiologou Avenue", "amenity": "restaurant", "name": "To Fishiatiko", "source": "Kaart Ground Survey 2017"}}, {"type": "node", "id": 5192152344, "lat": 34.9191244, "lon": 33.6176103, "tags": {"addr:street": "Konstantinou Palaiologou Avenue", "amenity": "restaurant", "name": "Sandwich Factory", "source": "Kaart Ground Survey 2017"}}, {"type": "node", "id": 5194325527, "lat": 34.907839, "lon": 33.593733, "tags": {"addr:street": "Kastalias", "amenity": "cafe", "name": "Barbandos", "source": "Kaart Ground Survey 2017"}}, {"type": "node", "id": 5194325535, "lat": 34.9073995, "lon": 33.5934982, "tags": {"addr:street": "Kastalias", "amenity": "restaurant", "name": "El Milagro", "source": "Kaart Ground Survey 2017"}}, {"type": "node", "id": 5194336749, "lat": 34.9311318, "lon": 33.584613}, {"type": "node", "id": 5194336750, "lat": 34.9310484, "lon": 33.584644}, {"type": "node", "id": 5194336751, "lat": 34.9310654, "lon": 33.5847119}, {"type": "node", "id": 5194336752, "lat": 34.9311487, "lon": 33.584681}, {"type": "node", "id": 5200342777, "lat": 34.9015988, "lon": 33.5788887, "tags": {"addr:street": "Charilaou Trikoupi", "amenity": "restaurant", "name": "Kantina Big Chef", "source": "Kaart Ground Survey 2017"}}, {"type": "node", "id": 5200369989, "lat": 34.928637, "lon": 33.6044657, "tags": {"addr:street": "Griva Digeni Avenue", "amenity": "cafe", "name": "Cafe Route 66", "source": "Kaart Ground Survey 2017"}}, {"type": "node", "id": 5200391964, "lat": 34.9303082, "lon": 33.6214469, "tags": {"addr:street": "Spyrou Kyprianou Avenue", "amenity": "cafe", "name": "Coffee Berry", "source": "Kaart Ground Survey 2017"}}, {"type": "node", "id": 5200667718, "lat": 34.8761047, "lon": 33.5858304}, {"type": "node", "id": 5200667719, "lat": 34.8760823, "lon": 33.5858487}, {"type": "node", "id": 5200667720, "lat": 34.8761646, "lon": 33.58599}, {"type": "node", "id": 5200668321, "lat": 34.8761908, "lon": 33.5859672}, {"type": "node", "id": 5200676266, "lat": 34.876266, "lon": 33.5860117}, {"type": "node", "id": 5200676267, "lat": 34.8762109, "lon": 33.5860461}, {"type": "node", "id": 5200676268, "lat": 34.87624, "lon": 33.5861154}, {"type": "node", "id": 5200676269, "lat": 34.8762951, "lon": 33.5860811}, {"type": "node", "id": 5200728606, "lat": 34.9271346, "lon": 33.6164267, "tags": {"addr:street": "Sintika Hanoum", "amenity": "restaurant", "name": "90's", "source": "Kaart Ground Survey 2017"}}, {"type": "node", "id": 5200728611, "lat": 34.9273224, "lon": 33.6163217, "tags": {"addr:street": "\u039b\u03b5\u03c9\u03c6\u03cc\u03c1\u03bf\u03c2 \u03a3\u03c4\u03c1\u03b1\u03c4\u03b7\u03b3\u03bf\u03cd \u03a4\u03b9\u03bc\u03b1\u03b3\u03af\u03b1", "amenity": "restaurant", "check_date": "2023-10-18", "name": "Taste Habitat", "source": "Kaart Ground Survey 2017"}}, {"type": "node", "id": 5200799041, "lat": 34.927068, "lon": 33.6154038, "tags": {"addr:street": "Polytechneiou", "amenity": "cafe", "name": "Coffee Sweet", "source": "Kaart Ground Survey 2017"}}, {"type": "node", "id": 5200827181, "lat": 34.9295092, "lon": 33.6024437, "tags": {"addr:city": "Larnaca", "addr:street": "Eleftherias Avenue", "amenity": "cafe", "name": "HaMi HaMi", "source": "Kaart Ground Survey 2017"}}, {"type": "node", "id": 5200827187, "lat": 34.9299997, "lon": 33.6014132, "tags": {"addr:city": "Larnaca", "addr:street": "Eleftherias Avenue", "amenity": "cafe", "name": "Salasmaster", "source": "Kaart Ground Survey 2017"}}, {"type": "node", "id": 5200860024, "lat": 34.9457889, "lon": 33.5950208, "tags": {"addr:city": "Aradippou", "addr:street": "Kyriakou Matsi Avenue", "amenity": "restaurant", "name": "\u039c\u03b5\u03c1\u03b1\u03ba\u03bb\u03ae\u03c2", "source": "Kaart Ground Survey 2017"}}, {"type": "node", "id": 5200877251, "lat": 34.876712, "lon": 33.5951446}, {"type": "node", "id": 5200877252, "lat": 34.8767154, "lon": 33.5952894}, {"type": "node", "id": 5200877253, "lat": 34.8765648, "lon": 33.5952946}, {"type": "node", "id": 5200877254, "lat": 34.8765614, "lon": 33.5951499}, {"type": "node", "id": 5200943978, "lat": 34.9385148, "lon": 33.6106766, "tags": {"addr:city": "Larnaca", "addr:street": "Agias Sophias", "amenity": "cafe", "name": "Hell Energyora", "source": "Kaart Ground Survey 2017"}}, {"type": "node", "id": 5200985037, "lat": 34.9409628, "lon": 33.6002507}, {"type": "node", "id": 5200985038, "lat": 34.9407788, "lon": 33.6000211}, {"type": "node", "id": 5200985039, "lat": 34.9406475, "lon": 33.6001777}, {"type": "node", "id": 5200985040, "lat": 34.9408315, "lon": 33.6004074}, {"type": "node", "id": 5201095891, "lat": 34.9448907, "lon": 33.5965049, "tags": {"addr:city": "Aradippou", "addr:street": "Evagorou", "amenity": "restaurant", "name": "\u0396\u03b1\u03c7\u03b1\u03c1\u03bf\u03c0\u03bb\u03b1\u03c3\u03c4\u03b5\u03af\u03bf", "source": "Kaart Ground Survey 2017"}}, {"type": "node", "id": 5202944940, "lat": 34.9424249, "lon": 33.6179032, "tags": {"addr:city": "Larnaca", "addr:street": "Andrea Mouzaki", "amenity": "cafe", "name": "Elcaf\u00e9 \u03a0\u03b5\u03c1\u03af\u03c0\u03c4\u03b5\u03c1\u03bf", "source": "Kaart Ground Survey 2017"}}, {"type": "node", "id": 5204442794, "lat": 34.8573841, "lon": 33.5870293, "tags": {"addr:street": "\u039b\u03b5\u03c9\u03c6\u03cc\u03c1\u03bf\u03c2 \u0391\u03c1\u03c7\u03b9\u03b5\u03c0\u03b9\u03c3\u03ba\u03cc\u03c0\u03bf\u03c5 \u039c\u03b1\u03ba\u03b1\u03c1\u03af\u03bf\u03c5 \u0393\u2019", "amenity": "restaurant", "brand": "Pizza Hut", "brand:wikidata": "Q191615", "cuisine": "pizza", "name": "Pizza Hut", "source": "Kaart Ground Survey 2017"}}, {"type": "node", "id": 5204528069, "lat": 34.8545993, "lon": 33.5829904}, {"type": "node", "id": 5204528070, "lat": 34.8546629, "lon": 33.5830809}, {"type": "node", "id": 5204528071, "lat": 34.8548298, "lon": 33.5829067}, {"type": "node", "id": 5204563648, "lat": 34.8557949, "lon": 33.5850529, "tags": {"addr:street": "\u039b\u03b5\u03c9\u03c6\u03cc\u03c1\u03bf\u03c2 \u0391\u03c1\u03c7\u03b9\u03b5\u03c0\u03b9\u03c3\u03ba\u03cc\u03c0\u03bf\u03c5 \u039c\u03b1\u03ba\u03b1\u03c1\u03af\u03bf\u03c5 \u0393\u2019", "amenity": "restaurant", "name": "Umami", "source": "Kaart Ground Survey 2017"}}, {"type": "node", "id": 5205060791, "lat": 34.9334556, "lon": 33.6146776, "tags": {"addr:street": "\u03a1\u03b1\u03c6\u03b1\u03b7\u03bb \u03a3\u03b1\u03bd\u03c4\u03b7", "amenity": "cafe", "name": "King's", "source": "Kaart Ground Survey 2017"}}, {"type": "node", "id": 5205060803, "lat": 34.9338387, "lon": 33.6143728, "tags": {"addr:street": "\u03a1\u03b1\u03c6\u03b1\u03b7\u03bb \u03a3\u03b1\u03bd\u03c4\u03b7", "amenity": "restaurant", "name": "\u039a\u03b1\u03c6\u03b5\u03c3\u03c4\u03b9\u03b1\u03c4\u03bf\u03c1\u03b9\u03bf \u03a3\u03b5\u03c1\u03ba\u03b7\u03c2", "source": "Kaart Ground Survey 2017"}}, {"type": "node", "id": 5206895402, "lat": 34.9354461, "lon": 33.6208556, "tags": {"addr:street": "\u039b\u03b5\u03c9\u03c6\u03cc\u03c1\u03bf\u03c2 \u03a0\u03b1\u03c0\u03b1\u03bd\u03b9\u03ba\u03bf\u03bb\u03ae", "amenity": "cafe", "brand": "Coffee Time", "brand:wikidata": "Q5140932", "cuisine": "coffee_shop", "name": "Coffee Time", "source": "Kaart Ground Survey 2017", "takeaway": "yes"}}, {"type": "node", "id": 5207200383, "lat": 34.9297521, "lon": 33.6194262}, {"type": "node", "id": 5207200384, "lat": 34.9296407, "lon": 33.6194683}, {"type": "node", "id": 5207200385, "lat": 34.9296758, "lon": 33.6196065}, {"type": "node", "id": 5207200386, "lat": 34.9297872, "lon": 33.6195643}, {"type": "node", "id": 5207246829, "lat": 34.9465003, "lon": 33.5912943, "tags": {"addr:street": "Archiepiskopou Makariou III Avenue", "amenity": "cafe", "name": "All Ages Cafe", "source": "Kaart Ground Survey 2017"}}, {"type": "node", "id": 5207293148, "lat": 34.9392487, "lon": 33.6269619, "tags": {"addr:street": "Kykliki Leoforos Avenue", "amenity": "cafe", "name": "Pavin Cafe", "source": "Kaart Ground Survey 2017"}}, {"type": "node", "id": 5207452332, "lat": 34.9323671, "lon": 33.6321759}, {"type": "node", "id": 5207452333, "lat": 34.9321748, "lon": 33.6322234}, {"type": "node", "id": 5207452334, "lat": 34.9321577, "lon": 33.6321202}, {"type": "node", "id": 5207452335, "lat": 34.93235, "lon": 33.6320727}, {"type": "node", "id": 5208988580, "lat": 34.9306886, "lon": 33.636355, "tags": {"addr:street": "Atlantidon", "amenity": "cafe", "check_date": "2023-10-19", "internet_access": "wlan", "name": "Marantona Sandwich", "source": "Kaart Ground Survey 2017"}}, {"type": "node", "id": 5209808721, "lat": 34.9086243, "lon": 33.6377098, "tags": {"addr:housenumber": "28", "addr:postcode": "6026", "addr:street": "Piyiale Pasa", "amenity": "restaurant", "cuisine": "mexican", "name": "Esperanza C\u00f3ctel Y Cocina"}}, {"type": "node", "id": 5210304843, "lat": 34.9139475, "lon": 33.6377115, "tags": {"amenity": "restaurant", "name": "Royal Ris"}}, {"type": "node", "id": 5210313192, "lat": 34.9141684, "lon": 33.6378124}, {"type": "node", "id": 5210313675, "lat": 34.9140707, "lon": 33.6378038}, {"type": "node", "id": 5210313678, "lat": 34.9140785, "lon": 33.6376705}, {"type": "node", "id": 5212168629, "lat": 34.9202656, "lon": 33.6244074, "tags": {"amenity": "cafe", "name": "Gyros-Souvlaki Sieftalies", "name:en": "Gyros-Souvlaki Sieftalies"}}, {"type": "node", "id": 5302268422, "lat": 34.9517859, "lon": 33.4191105, "tags": {"amenity": "restaurant", "cuisine": "greek;grill", "internet_access": "wlan", "name": "\u03a4\u03bf \u039a\u03bf\u03c5\u03bb\u03c4\u03bf\u03c5\u03c1\u03b9\u03ac\u03c1\u03b9\u03ba\u03bf", "name:el": "\u03a4\u03bf \u039a\u03bf\u03c5\u03bb\u03c4\u03bf\u03c5\u03c1\u03b9\u03ac\u03c1\u03b9\u03ba\u03bf", "name:en": "To Koultouriariko tavern"}}, {"type": "node", "id": 5342514621, "lat": 34.7501755, "lon": 33.4042836, "tags": {"addr:city": "Larnaka", "addr:street": "Agios Theodoros", "amenity": "restaurant", "cuisine": "seafood;fish;mediterranean;regional", "internet_access": "wlan", "name": "Psarotaverna Ouzeri Pentasxoinos", "opening_hours": "Mo-Su 11:00-22:30", "phone": "+35724440044"}}, {"type": "node", "id": 5346934821, "lat": 34.7486619, "lon": 33.398193, "tags": {"amenity": "restaurant", "cuisine": "seafood", "name": "Landa", "name:ru": "Landa", "phone": "24440002"}}, {"type": "node", "id": 5367672322, "lat": 34.9096066, "lon": 33.637711, "tags": {"amenity": "restaurant", "cuisine": "indian", "name": "Masti Indian Bar & Restaurant"}}, {"type": "node", "id": 5402129621, "lat": 34.7556641, "lon": 33.3561688, "tags": {"amenity": "cafe", "cuisine": "cake;mediterranean", "internet_access": "wlan", "name": "The Old Coffee Shop", "name:de": "The Old Coffee Shop", "name:en": "The Old Coffee Shop", "opening_hours": "Fr-Sa 16:00-23:00, Su-Th off"}}, {"type": "node", "id": 5402129722, "lat": 34.7270874, "lon": 33.3363367, "tags": {"amenity": "restaurant", "cuisine": "fish;seafood;greek", "name": "Loizos Koumbaris", "name:en": "Loizos Koumbaris"}}, {"type": "node", "id": 5465229918, "lat": 34.8190484, "lon": 33.5941653, "tags": {"amenity": "restaurant", "cuisine": "fish"}}, {"type": "node", "id": 5467715852, "lat": 34.8322029, "lon": 33.5783042, "tags": {"amenity": "restaurant", "name": "Crown", "phone": "+357 99 918880"}}, {"type": "node", "id": 5469394281, "lat": 34.84743, "lon": 33.573361, "tags": {"amenity": "restaurant", "cuisine": "crepe", "name": "Creperie"}}, {"type": "node", "id": 5469394284, "lat": 34.8476425, "lon": 33.5736536, "tags": {"amenity": "restaurant", "cuisine": "regional", "name": "OPA..."}}, {"type": "node", "id": 5475558021, "lat": 34.9113751, "lon": 33.6367357, "tags": {"addr:housenumber": "14", "addr:street": "Pavlou Valsamaki", "amenity": "restaurant", "name": "To sieradiko"}}, {"type": "node", "id": 5481920122, "lat": 34.8446554, "lon": 33.573005, "tags": {"addr:city": "\u039a\u03af\u03c4\u03b9", "addr:street": "\u039a\u03b9\u03c4\u03b9\u03bf\u03c5", "amenity": "restaurant", "cuisine": "greek", "name": "Diatiriteo. Traditional Tavern", "name:de": "Kiti - Diatiriteo Traditional Tavern", "name:en": "Diatiriteo. Traditional Tavern", "opening_hours": "Mo-Su 18:00-22:30"}}, {"type": "node", "id": 5481952321, "lat": 34.853885, "lon": 33.548209, "tags": {"addr:city": "\u03a4\u03b5\u03c1\u03c3\u03b5\u03c6\u03ac\u03bd\u03bf\u03c5", "addr:street": "Unnamed Rd", "amenity": "restaurant", "name:de": "Tersefanou - Taverna to Patrikon"}}, {"type": "node", "id": 5527020885, "lat": 34.8669697, "lon": 33.5991512, "tags": {"amenity": "cafe", "check_date": "2025-05-07", "name": "Stop Coffee 2 Go", "source": "video"}}, {"type": "node", "id": 5527425674, "lat": 34.7273654, "lon": 33.3361968, "tags": {"amenity": "restaurant", "check_date": "2024-08-31", "name": "Loizos Koumparis Fish Tavern", "source": "video"}}, {"type": "node", "id": 5622229521, "lat": 34.9169826, "lon": 33.6234665, "tags": {"amenity": "cafe", "cuisine": "pizza;ice_cream", "internet_access": "wlan", "name": "Mastiha Karamella", "name:en": "Mastiha Karamella"}}, {"type": "node", "id": 5691762421, "lat": 34.8902364, "lon": 33.637422, "tags": {"amenity": "restaurant", "check_date": "2023-10-28", "check_date:opening_hours": "2024-05-23", "name": "Al Mar", "name:en": "Almar beach bar", "opening_hours:signed": "no"}}, {"type": "node", "id": 5839870432, "lat": 34.922046, "lon": 33.6366841, "tags": {"amenity": "cafe", "name": "Seven"}}, {"type": "node", "id": 5851250383, "lat": 34.8753434, "lon": 33.5898373}, {"type": "node", "id": 5851252190, "lat": 34.8754283, "lon": 33.589804}, {"type": "node", "id": 5851252191, "lat": 34.8754034, "lon": 33.589741}, {"type": "node", "id": 5851252192, "lat": 34.8753613, "lon": 33.5896826}, {"type": "node", "id": 5851252193, "lat": 34.8753134, "lon": 33.5896359}, {"type": "node", "id": 5851252194, "lat": 34.8752617, "lon": 33.5896009}, {"type": "node", "id": 5851252195, "lat": 34.8751946, "lon": 33.5895846}, {"type": "node", "id": 5851252196, "lat": 34.8751985, "lon": 33.5896873}, {"type": "node", "id": 5851252197, "lat": 34.8752521, "lon": 33.589706}, {"type": "node", "id": 5851252198, "lat": 34.8753, "lon": 33.589748}, {"type": "node", "id": 5868560286, "lat": 34.9266909, "lon": 33.6362619, "tags": {"addr:housenumber": "65", "addr:postcode": "6017", "addr:street": "Makariou III Avenue", "amenity": "restaurant", "cuisine": "mediterranean;burger", "diet:vegan": "yes", "internet_access": "wlan", "name": "Holy Cow", "opening_hours": "Mo-Su 07:00-23:00", "phone": "+357 24 650114", "website": "https://www.holycowneocanteen.com/"}}, {"type": "node", "id": 5868560987, "lat": 34.9274853, "lon": 33.6366198, "tags": {"amenity": "cafe", "cuisine": "ice_cream", "name": "Vergnano"}}, {"type": "node", "id": 5923424985, "lat": 34.9151234, "lon": 33.6364149, "tags": {"addr:housenumber": "36", "addr:postcode": "6023", "addr:street": "Zinonos Kitieos", "amenity": "restaurant", "contact:facebook": "https://www.facebook.com/solarkitchenbar", "diet:vegan": "yes", "diet:vegetarian": "yes", "email": "solarkitchenbar@gmail.com", "name": "Solar Kitchen", "opening_hours": "Tu-Sa 11:00-16:00", "phone": "+357 24 040644"}}, {"type": "node", "id": 5938218449, "lat": 34.9342484, "lon": 33.6260197, "tags": {"addr:housenumber": "26", "addr:street": "Agion Anargiron", "amenity": "restaurant", "name": "Xontros & Lignos", "opening_hours": "Mo-Sa 18:00-22:00", "phone": "70002827", "website": "https://xontroslignos.business.site"}}, {"type": "node", "id": 5953190686, "lat": 34.9141604, "lon": 33.6355092, "tags": {"addr:housenumber": "11", "addr:postcode": "6022", "addr:street": "D.N. Dimitriou", "amenity": "restaurant", "cuisine": "italian_pizza;italian;mediterranean;pizza", "internet_access": "wlan", "name": "Pizzeria Napoletana 485", "name:en": "Pizzeria Napoletana 485", "opening_hours": "Tu-Fr 18:00-23:00; Sa-Su 12:00-23:00", "phone": "+357 70 000485"}}, {"type": "node", "id": 5992484789, "lat": 34.9131256, "lon": 33.6362375, "tags": {"addr:housenumber": "112", "addr:street": "Zinonos Kitieos", "amenity": "restaurant", "name": "\u03a3\u03c4\u03bf\u0386\u03bd\u03c9 \u039a\u03ac\u03c4\u03c9", "name:en": "StoAno Kato"}}, {"type": "node", "id": 6017325986, "lat": 34.845461, "lon": 33.5725029, "tags": {"amenity": "cafe", "name": "Green Vaper", "name:en": "Green Vaper"}}, {"type": "node", "id": 6044833206, "lat": 34.916731, "lon": 33.634518, "tags": {"amenity": "restaurant", "cuisine": "regional", "name": "\u039a\u03c5\u03c0\u03c1 \u03a4\u03b1\u03b2\u03ad\u03c1\u03bd\u03b1", "name:en": "Cyprus Taverna"}}, {"type": "node", "id": 6054812685, "lat": 34.9111679, "lon": 33.6350029, "tags": {"addr:city": "Larnaka", "addr:housenumber": "21", "addr:postcode": "6021", "addr:street": "Leoforos Faneromenis", "amenity": "restaurant", "name": "Za'atar Lebanese Bakery", "opening_hours": "Mo-Sa 07:00-22:00; Su off", "phone": "+35724100109"}}, {"type": "node", "id": 6071530189, "lat": 34.9082507, "lon": 33.6377006, "tags": {"amenity": "restaurant", "check_date": "2025-06-04", "cuisine": "greek", "name": "Alasia", "name:ru": "\u0410\u043b\u0430\u0441\u0438\u0430"}}, {"type": "node", "id": 6075525438, "lat": 34.8717485, "lon": 33.6072099, "tags": {"amenity": "cafe", "brand": "Costa", "brand:wikidata": "Q608845", "check_date": "2024-10-06", "cuisine": "coffee_shop", "name": "Costa", "outdoor_seating": "yes", "smoking": "outside", "takeaway": "yes"}}, {"type": "node", "id": 6075526522, "lat": 34.9229607, "lon": 33.3968067, "tags": {"amenity": "cafe"}}, {"type": "node", "id": 6083435186, "lat": 34.9128745, "lon": 33.6365982, "tags": {"amenity": "cafe", "name": "Stou Roushia", "name:en": "Stou Roushia"}}, {"type": "node", "id": 6109484586, "lat": 34.8439402, "lon": 33.5736886, "tags": {"amenity": "cafe", "name": "Jackson Gastro Cafe Bar", "name:en": "Jackson Gastro Cafe Bar", "opening_hours": "Mo-Su 09:00-02:00"}}, {"type": "node", "id": 6200432586, "lat": 34.9120067, "lon": 33.6376993, "tags": {"amenity": "cafe", "check_date": "2024-10-19", "cuisine": "greek;mediterranean;local", "internet_access": "wlan", "name": "Navy Marine Kebab House", "name:en": "Navy Marine Kebab House"}}, {"type": "node", "id": 6241679385, "lat": 34.9113503, "lon": 33.6355023, "tags": {"amenity": "restaurant", "name": "Cyprus Restaurant", "name:en": "Cyprus Restaurant"}}, {"type": "node", "id": 6284603786, "lat": 34.9141005, "lon": 33.6370541, "tags": {"addr:housenumber": "31", "addr:postcode": "6022", "addr:street": "Euanthias Pieridou", "amenity": "restaurant", "cuisine": "barbecue;greek;italian;french;lebanese", "email": "milannadim@hotmail.com", "internet_access": "wlan", "name": "Bistro 961", "name:en": "Bistro 961", "opening_hours": "Tu-Su 00:00-24:00;24/7", "phone": "24644961", "website": "http://Facebook.com"}}, {"type": "node", "id": 6416665204, "lat": 34.8039084, "lon": 33.4877514, "tags": {"amenity": "restaurant", "cuisine": "greek", "name": "Mazotos Tavern", "name:en": "Mazotos Tavern"}}, {"type": "node", "id": 6429920985, "lat": 34.8239442, "lon": 33.6015066, "tags": {"amenity": "restaurant", "name": "Enalia", "name:en": "Enalia"}}, {"type": "node", "id": 6517928689, "lat": 34.9206205, "lon": 33.6245998, "tags": {"addr:street": "Georgiou Matsaki", "amenity": "cafe", "cuisine": "chicken;kebab;buschenschank", "internet_access": "wlan", "name": "Polinos", "name:en": "Polonos", "opening_hours": "Mo-Su 10:00-03:00", "phone": "24828010"}}, {"type": "node", "id": 6708187100, "lat": 34.9291797, "lon": 33.6373087, "tags": {"addr:street": "Makariou III Avenue", "amenity": "cafe", "check_date": "2024-05-17", "internet_access": "wlan", "name": "Shisha Palace Gima Cafe", "name:en": "Shisha Palace Gima Cafe", "name:ru": "\u0428\u0438\u0448\u0430 \u041f\u044d\u043b\u044d\u0441 \u041a\u0430\u043b\u044c\u044f\u043d\u043d\u0430\u044f", "opening_hours": "Mo-Su 08:00-01:00", "phone": "+357 96 473985"}}, {"type": "node", "id": 6763858088, "lat": 34.9163165, "lon": 33.6272571, "tags": {"amenity": "cafe", "cuisine": "ice_cream", "internet_access": "wlan", "name": "Gardiano Cafe", "name:en": "Gardiano Cafe", "name:ru": "\u0413\u0430\u0440\u0434\u0438\u0430\u043d\u043e \u043a\u0430\u0444\u0435", "phone": "24621200"}}, {"type": "node", "id": 7093356585, "lat": 34.9132871, "lon": 33.6376767, "tags": {"amenity": "restaurant", "check_date": "2024-10-19", "cuisine": "italian", "internet_access": "wlan", "name": "Aldente", "name:en": "Aldente"}}, {"type": "node", "id": 7101401885, "lat": 34.9143409, "lon": 33.636068, "tags": {"amenity": "restaurant", "name": "Ithaki Garden", "name:en": "Ithaki Garden"}}, {"type": "node", "id": 7102266166, "lat": 34.796829, "lon": 33.518136}, {"type": "node", "id": 7102266167, "lat": 34.7969098, "lon": 33.5182213}, {"type": "node", "id": 7102266168, "lat": 34.7968937, "lon": 33.518244}, {"type": "node", "id": 7102266169, "lat": 34.7969264, "lon": 33.5182784}, {"type": "node", "id": 7102266170, "lat": 34.7968791, "lon": 33.5183449}, {"type": "node", "id": 7102266171, "lat": 34.7968424, "lon": 33.5183062}, {"type": "node", "id": 7102266172, "lat": 34.7967994, "lon": 33.5183667}, {"type": "node", "id": 7102266173, "lat": 34.7968374, "lon": 33.5184069}, {"type": "node", "id": 7102266174, "lat": 34.7967164, "lon": 33.518577}, {"type": "node", "id": 7102266175, "lat": 34.7966015, "lon": 33.5184557}, {"type": "node", "id": 7115079885, "lat": 34.7294615, "lon": 33.3410694, "tags": {"alt_name": "Iraklis Fish Restaurant", "amenity": "restaurant", "contact:facebook": "https://facebook.com/100064851454185/", "cuisine": "seafood;fish", "name": "\u03a8\u03b1\u03c1\u03bf\u03c4\u03b1\u03b2\u03ad\u03c1\u03bd\u03b1 \u0397\u03c1\u03b1\u03ba\u03bb\u03b7\u03c2", "name:el": "\u03a8\u03b1\u03c1\u03bf\u03c4\u03b1\u03b2\u03ad\u03c1\u03bd\u03b1 \u0397\u03c1\u03b1\u03ba\u03bb\u03b7\u03c2", "name:en": "Hercules Fish Tavern", "outdoor_seating": "yes"}}, {"type": "node", "id": 7166858856, "lat": 34.9130699, "lon": 33.6377729}, {"type": "node", "id": 7221668709, "lat": 34.861638, "lon": 33.594793, "tags": {"addr:city": "Larnaka", "addr:street": "\u039b\u03b5\u03c9\u03c6\u03cc\u03c1\u03bf\u03c2 \u0391\u03c1\u03c7\u03b9\u03b5\u03c0\u03b9\u03c3\u03ba\u03cc\u03c0\u03bf\u03c5 \u039c\u03b1\u03ba\u03b1\u03c1\u03af\u03bf\u03c5 \u0393\u2019", "amenity": "cafe", "check_date": "2023-05-27", "delivery": "yes", "internet_access": "wlan", "internet_access:fee": "no", "name": "Cafe 66", "opening_hours": "Mo-Su 09:00-21:00", "payment:coins": "yes", "payment:cryptocurrencies": "no", "payment:electronic_purses": "no", "payment:mastercard": "yes", "payment:notes": "yes", "payment:visa": "yes", "phone": "+35724100166", "smoking": "separated", "takeaway": "yes", "wheelchair": "limited"}}, {"type": "node", "id": 7369435808, "lat": 34.8907966, "lon": 33.5779765, "tags": {"addr:postcode": "7020", "amenity": "cafe", "name": "My Coffee Cup", "opening_hours": "Mo-Su 7:00-19:00", "outdoor_seating": "no"}}, {"type": "node", "id": 7670050369, "lat": 34.9408116, "lon": 33.5557207}, {"type": "node", "id": 7670050370, "lat": 34.9408478, "lon": 33.5555962}, {"type": "node", "id": 7670050371, "lat": 34.9408744, "lon": 33.5556131}, {"type": "node", "id": 7670050372, "lat": 34.940885, "lon": 33.5555793}, {"type": "node", "id": 7670050373, "lat": 34.9410584, "lon": 33.5556546}, {"type": "node", "id": 7670050374, "lat": 34.9410179, "lon": 33.5558116}, {"type": "node", "id": 8533524217, "lat": 34.9113054, "lon": 33.6353338, "tags": {"addr:housenumber": "11", "addr:postcode": "6025", "addr:street": "Leoforos Faneromenis", "amenity": "restaurant", "indoor_seating": "yes", "name": "Stoa", "outdoor_seating": "yes", "phone": "+35724623240"}}, {"type": "node", "id": 8536933252, "lat": 34.9142088, "lon": 33.3718583}, {"type": "node", "id": 8536933253, "lat": 34.9142255, "lon": 33.3720187}, {"type": "node", "id": 8536933254, "lat": 34.9143256, "lon": 33.3720032}, {"type": "node", "id": 8536933255, "lat": 34.914309, "lon": 33.3718429}, {"type": "node", "id": 8912040254, "lat": 34.9057357, "lon": 33.6359633, "tags": {"amenity": "restaurant", "name": "Leonora Souvlaki", "outdoor_seating": "yes", "takeaway": "yes"}}, {"type": "node", "id": 8912048059, "lat": 34.8932242, "lon": 33.6328211, "tags": {"amenity": "restaurant", "check_date": "2024-10-15", "description": "Serves great Ofton Kleftiko", "name": "Sunset Snack Cafe", "outdoor_seating": "yes", "takeaway": "yes"}}, {"type": "node", "id": 8972583617, "lat": 34.9148682, "lon": 33.63417, "tags": {"addr:housenumber": "82", "addr:postcode": "6023", "addr:street": "Ermou", "amenity": "cafe", "cuisine": "international", "internet_access": "wlan", "name": "DSTRKT", "name:en": "DSTRKT", "opening_hours": "24/7", "phone": "+357 99 639892"}}, {"type": "node", "id": 9038209522, "lat": 34.9144051, "lon": 33.6349518, "tags": {"addr:city": "Larnaca", "addr:housenumber": "35A", "addr:postcode": "6022", "addr:street": "Armenikis Ekklisias", "amenity": "cafe", "contact:facebook": "paulscoffeeroasters", "contact:instagram": "paulscoffeeroasters", "email": "info@paulsroasters.com", "internet_access": "wlan", "name": "Paul's Coffee Roasters", "name:en": "Paul\u2019s Coffee Roasters", "opening_hours": "Mo-Sa 08:00-19:30; Su 10:00-19:30", "outdoor_seating": "yes", "phone": "+357 24 333 206", "website": "https://www.paulsroasters.com/"}}, {"type": "node", "id": 9038209523, "lat": 34.9141166, "lon": 33.635626, "tags": {"amenity": "cafe", "brand": "Starbucks", "brand:wikidata": "Q37158", "brand:wikipedia": "en:Starbucks", "cuisine": "coffee_shop", "name": "Starbucks", "official_name": "Starbucks Coffee", "takeaway": "yes"}}, {"type": "node", "id": 9103743203, "lat": 34.7750877, "lon": 33.4698906, "tags": {"amenity": "cafe"}}, {"type": "node", "id": 9106302591, "lat": 34.7505015, "lon": 33.4089484, "tags": {"amenity": "restaurant", "cuisine": "seafood;fish", "int_name": "Psarotaverna Mamas", "name": "\u03a8\u03b1\u03c1\u03bf\u03c4\u03b1\u03b2\u03ad\u03c1\u03bd\u03b1 \u039c\u03b1\u03bc\u03ac\u03c2", "name:el": "\u03a8\u03b1\u03c1\u03bf\u03c4\u03b1\u03b2\u03ad\u03c1\u03bd\u03b1 \u039c\u03b1\u03bc\u03ac\u03c2", "phone": "99668896"}}, {"type": "node", "id": 9106302643, "lat": 34.7313194, "lon": 33.3648634, "tags": {"amenity": "cafe", "internet_access": "wlan", "toilets": "yes"}}, {"type": "node", "id": 9169165417, "lat": 34.9160559, "lon": 33.6352872, "tags": {"addr:housenumber": "26", "addr:postcode": "6023", "addr:street": "Lordou Vyronos", "amenity": "cafe", "brand": "Mikel", "brand:wikidata": "Q16952021", "cuisine": "coffee_shop", "name": "Mikel", "name:en": "Mikel Coffee", "opening_hours": "Mo-Su 06:30-00:00", "takeaway": "yes", "website": "http://www.mikel.gr"}}, {"type": "node", "id": 9170108286, "lat": 34.9122892, "lon": 33.6376779}, {"type": "node", "id": 9170108287, "lat": 34.9122908, "lon": 33.6377298}, {"type": "node", "id": 9170108288, "lat": 34.912159, "lon": 33.6377417}, {"type": "node", "id": 9170108289, "lat": 34.9121576, "lon": 33.6376842}, {"type": "node", "id": 9170108290, "lat": 34.91222, "lon": 33.6376811}, {"type": "node", "id": 9195228217, "lat": 34.9176927, "lon": 33.6353066, "tags": {"addr:housenumber": "7", "addr:street": "Gregori Afxentiou Avenue", "amenity": "cafe", "name": "The Blue Bird", "name:en": "The Blue Bird", "phone": "24620660"}}, {"type": "node", "id": 9229620618, "lat": 34.9135267, "lon": 33.6362933, "tags": {"addr:housenumber": "112", "addr:postcode": "6022", "addr:street": "Zinonos Kitieos", "amenity": "cafe", "cuisine": "mediterranean", "internet_access": "wlan", "name": "Stoano Kato", "name:en": "Stoano Kato", "opening_hours": "Tu-Su 08:00-00:00", "phone": "+357 24 102449", "website": "http://stoanokato.com"}}, {"type": "node", "id": 9229621019, "lat": 34.9178097, "lon": 33.6362313, "tags": {"addr:postcode": "6023", "addr:street": "Gregori Afxentiou Avenue", "amenity": "cafe", "contact:facebook": "https://www.facebook.com/falafelabudany", "contact:phone": "+357 24 400669", "diet:vegan": "yes", "diet:vegetarian": "yes", "internet_access": "wlan", "name": "Falafel Abu Dany", "name:en": "Falafel Abu Dany", "opening_hours": "Mo-Fr 09:30-19:00"}}, {"type": "node", "id": 9230586917, "lat": 34.9176933, "lon": 33.6353265, "tags": {"addr:housenumber": "7", "addr:postcode": "6023", "addr:street": "Gregori Afxentiou Avenue", "amenity": "cafe", "cuisine": "coffee_shop", "name": "The Bluebird Coffee&Co", "name:en": "The Bluebird Coffee&Co", "opening_hours": "Mo-Fr 07:00-18:30; Sa-Su 08:00-16:30", "phone": "+357 24 620660", "website": "http://facebook.com"}}, {"type": "node", "id": 9432673420, "lat": 34.9246112, "lon": 33.605096, "tags": {"amenity": "restaurant", "branch": "Metropolis Mall", "brand": "TGI Fridays", "brand:wikidata": "Q1524184", "brand:wikipedia": "en:TGI Fridays", "cuisine": "american", "name": "TGI Fridays", "opening_hours": "12:00-23:00"}}, {"type": "node", "id": 9852870606, "lat": 34.7740287, "lon": 33.4611031, "tags": {"access": "private", "amenity": "restaurant", "name": "Beach Restaurant"}}, {"type": "node", "id": 9852870608, "lat": 34.775271, "lon": 33.4616678, "tags": {"access": "private", "amenity": "restaurant", "name": "Main Restaurant"}}, {"type": "node", "id": 10121504888, "lat": 34.9152961, "lon": 33.6340914, "tags": {"addr:city": "Larnaca", "addr:postcode": "6022", "addr:street": "Ermou", "amenity": "cafe", "currency:XBT": "yes", "name": "Tchi Tchi coffee", "opening_hours": "Mo-Su 07:00-20:00", "outdoor_seating": "yes", "payment:onchain": "yes", "phone": "+35796000322", "survey:date": "2022-10-22"}}, {"type": "node", "id": 10129060468, "lat": 34.9366382, "lon": 33.6213127}, {"type": "node", "id": 10129060476, "lat": 34.9366459, "lon": 33.6211492}, {"type": "node", "id": 10129060477, "lat": 34.9366131, "lon": 33.6211469}, {"type": "node", "id": 10129060478, "lat": 34.9366109, "lon": 33.621193}, {"type": "node", "id": 10129060479, "lat": 34.9366017, "lon": 33.621196}, {"type": "node", "id": 10129060480, "lat": 34.9365961, "lon": 33.6213174}, {"type": "node", "id": 10129060481, "lat": 34.9366328, "lon": 33.62132}, {"type": "node", "id": 10129060482, "lat": 34.9366332, "lon": 33.6213124}, {"type": "node", "id": 10138386162, "lat": 34.8668377, "lon": 33.4971488}, {"type": "node", "id": 10138386163, "lat": 34.8672611, "lon": 33.4980734}, {"type": "node", "id": 10138386164, "lat": 34.8670561, "lon": 33.4982649}, {"type": "node", "id": 10138386165, "lat": 34.8667592, "lon": 33.4971931}, {"type": "node", "id": 10235580756, "lat": 34.7270688, "lon": 33.337155, "tags": {"amenity": "restaurant", "cuisine": "fish", "name": "Markos", "phone": "+35724333404"}}, {"type": "node", "id": 10536989513, "lat": 34.9395291, "lon": 33.5729872}, {"type": "node", "id": 10536989514, "lat": 34.9394408, "lon": 33.5729907}, {"type": "node", "id": 10536989515, "lat": 34.9394455, "lon": 33.5731665}, {"type": "node", "id": 10536989516, "lat": 34.9395338, "lon": 33.573163}, {"type": "node", "id": 10738597606, "lat": 34.9176173, "lon": 33.6313663, "tags": {"amenity": "cafe", "name": "Alliance Net Caf\u00e9"}}, {"type": "node", "id": 10926512957, "lat": 34.8165087, "lon": 33.6026212}, {"type": "node", "id": 10929228461, "lat": 34.9235985, "lon": 33.6362054}, {"type": "node", "id": 10929228462, "lat": 34.9234701, "lon": 33.6363372}, {"type": "node", "id": 10929228463, "lat": 34.9234038, "lon": 33.6362411}, {"type": "node", "id": 10929228464, "lat": 34.9235322, "lon": 33.6361094}, {"type": "node", "id": 10961500271, "lat": 34.7547489, "lon": 33.3564761, "tags": {"addr:city": "Maroni", "addr:housenumber": "52", "addr:postcode": "7737", "addr:street": "Agiou Georgiou", "amenity": "restaurant", "contact:instagram": "https://www.instagram.com/editionfinesse", "cuisine": "international;mediterranean", "diet:dairy_free": "yes", "diet:fish": "yes", "diet:gluten_free": "yes", "diet:healthy": "yes", "diet:lactose_free": "yes", "diet:local": "yes", "diet:meat": "yes", "diet:mediterranean": "yes", "diet:non-vegetarian": "yes", "diet:organic": "yes", "diet:raw": "yes", "diet:vegan": "yes", "diet:vegetarian": "yes", "name": "Retreat & Club Edition Finesse", "opening_hours": "Th-Sa 19:30-23:45", "phone": "+35799673453"}}, {"type": "node", "id": 10978707405, "lat": 34.9250368, "lon": 33.60519, "tags": {"addr:housenumber": "5", "addr:postcode": "6043", "addr:street": "European Union Avenue", "amenity": "cafe", "branch": "Metropolis Mall", "brand": "Starbucks", "brand:wikidata": "Q37158", "cuisine": "coffee_shop", "name": "Starbucks", "name:en": "Starbucks", "official_name": "Starbucks Coffee", "opening_hours": "Mo-Su 08:30-22:00", "shop": "coffee", "takeaway": "yes"}}, {"type": "node", "id": 11073085149, "lat": 34.855003, "lon": 33.5470115, "tags": {"amenity": "cafe"}}, {"type": "node", "id": 11073126047, "lat": 34.8704365, "lon": 33.6079933, "tags": {"access": "yes", "amenity": "cafe", "level": "1"}}, {"type": "node", "id": 11073126048, "lat": 34.8703947, "lon": 33.6079156, "tags": {"access": "yes", "amenity": "cafe", "level": "1"}}, {"type": "node", "id": 11081661674, "lat": 34.7296467, "lon": 33.3413804, "tags": {"amenity": "restaurant", "cuisine": "seafood", "name": "\u0391\u03c1\u03c7\u03b9\u03c0\u03b5\u03bb\u03b1\u03b3\u03bf\u03b6\u03c2"}}, {"type": "node", "id": 11215700937, "lat": 34.911342, "lon": 33.595092, "tags": {"addr:housenumber": "21", "addr:street": "Larissis", "amenity": "restaurant", "name": "Gyrogevstiko", "name:en": "Gyrogevstiko"}}, {"type": "node", "id": 11251551311, "lat": 34.8182405, "lon": 33.5961654, "tags": {"amenity": "cafe", "name": "White Flamingo Beach Cafe", "opening_hours": "Mo-Su 09:00-23:00"}}, {"type": "node", "id": 11277301601, "lat": 34.9129577, "lon": 33.6363518, "tags": {"amenity": "cafe", "cuisine": "coffee_shop"}}, {"type": "node", "id": 11327660970, "lat": 34.8516155, "lon": 33.6250213, "tags": {"amenity": "restaurant", "cuisine": "fish", "name": "Fish Tavern Akrogiali", "name:en": "Fish Tavern Akrogiali"}}, {"type": "node", "id": 11335833269, "lat": 34.8182063, "lon": 33.5961361, "tags": {"amenity": "cafe", "name": "White Flamingo", "name:en": "White Flamingo"}}, {"type": "node", "id": 11341518307, "lat": 34.9311743, "lon": 33.3888808}, {"type": "node", "id": 11341518308, "lat": 34.9311908, "lon": 33.3888875}, {"type": "node", "id": 11341518309, "lat": 34.9311754, "lon": 33.3889613}, {"type": "node", "id": 11341518310, "lat": 34.9310479, "lon": 33.3889116}, {"type": "node", "id": 11341518311, "lat": 34.9310654, "lon": 33.3888392}, {"type": "node", "id": 11341518312, "lat": 34.9310962, "lon": 33.3888499}, {"type": "node", "id": 11341518313, "lat": 34.9311083, "lon": 33.3888017}, {"type": "node", "id": 11341518314, "lat": 34.9311864, "lon": 33.3888392}, {"type": "node", "id": 11384967555, "lat": 34.9020801, "lon": 33.6347352, "tags": {"addr:city": "Larnaka", "addr:housenumber": "59", "addr:street": "Tuzhane", "amenity": "cafe", "name": "Bus Stop Cafe", "outdoor_seating": "yes", "payment:cards": "yes", "payment:cash": "yes", "payment:contactless": "yes", "payment:credit_cards": "yes", "payment:debit_cards": "yes"}}, {"type": "node", "id": 11387632269, "lat": 34.9152368, "lon": 33.6365422, "tags": {"amenity": "cafe", "name": "Happy Avocado", "name:en": "Happy Avocado"}}, {"type": "node", "id": 11591319346, "lat": 34.9431874, "lon": 33.6178558}, {"type": "node", "id": 11641020639, "lat": 34.8070429, "lon": 33.4365114, "tags": {"amenity": "cafe"}}, {"type": "node", "id": 11641919907, "lat": 34.730367, "lon": 33.3432836}, {"type": "node", "id": 11641919908, "lat": 34.7302042, "lon": 33.3433936}, {"type": "node", "id": 11641919909, "lat": 34.7301514, "lon": 33.3432779}, {"type": "node", "id": 11641919910, "lat": 34.7303141, "lon": 33.3431678}, {"type": "node", "id": 11641919911, "lat": 34.7302521, "lon": 33.3432542, "tags": {"amenity": "restaurant", "name": "Zygi Park"}}, {"type": "node", "id": 11641958488, "lat": 34.7314203, "lon": 33.3473116, "tags": {"amenity": "cafe"}}, {"type": "node", "id": 11641958497, "lat": 34.7280738, "lon": 33.339857}, {"type": "node", "id": 11641958498, "lat": 34.727912, "lon": 33.3399177}, {"type": "node", "id": 11641958499, "lat": 34.7279404, "lon": 33.3400301}, {"type": "node", "id": 11641958500, "lat": 34.7281022, "lon": 33.3399694}, {"type": "node", "id": 11645697691, "lat": 34.823876, "lon": 33.601433}, {"type": "node", "id": 11645697692, "lat": 34.8238208, "lon": 33.6016577}, {"type": "node", "id": 11645697693, "lat": 34.8241105, "lon": 33.6017634}, {"type": "node", "id": 11645697694, "lat": 34.824216, "lon": 33.6013348}, {"type": "node", "id": 11645697695, "lat": 34.8241002, "lon": 33.6012925}, {"type": "node", "id": 11645697696, "lat": 34.82405, "lon": 33.6014965}, {"type": "node", "id": 11646088919, "lat": 34.8209422, "lon": 33.5893798, "tags": {"amenity": "restaurant", "name": "Surf & Sports Snack Bar"}}, {"type": "node", "id": 11652273989, "lat": 34.8396917, "lon": 33.5055978, "tags": {"amenity": "cafe", "name": "Cafenio Ammochostos"}}, {"type": "node", "id": 11697106194, "lat": 34.9011654, "lon": 33.6378116, "tags": {"amenity": "restaurant", "cuisine": "seafood;steak_house", "name": "Charmers"}}, {"type": "node", "id": 11734955604, "lat": 34.869153, "lon": 33.6104506, "tags": {"amenity": "cafe", "brand": "Segafredo", "brand:wikidata": "Q21282762", "check_date": "2024-10-06", "cuisine": "coffee_shop", "indoor_seating": "yes", "name": "Segafredo", "outdoor_seating": "no", "smoking": "no", "takeaway": "yes", "wheelchair": "yes"}}, {"type": "node", "id": 11849857771, "lat": 34.91772, "lon": 33.6327672, "tags": {"addr:housenumber": "25", "addr:postcode": "6021", "addr:street": "Gregori Afxentiou Avenue", "amenity": "cafe", "name": "Nick's Coffee Bike", "opening_hours": "Mo-Fr 07:00-18:00; Sa 08:00-14:00", "phone": "+357 24 333223"}}, {"type": "node", "id": 11871689368, "lat": 34.8955025, "lon": 33.6383761}, {"type": "node", "id": 11871753869, "lat": 34.8954956, "lon": 33.6382383}, {"type": "node", "id": 11871753870, "lat": 34.8952096, "lon": 33.6382596}, {"type": "node", "id": 11871753871, "lat": 34.8952165, "lon": 33.6383975}, {"type": "node", "id": 11880819269, "lat": 34.9121901, "lon": 33.636186, "tags": {"amenity": "cafe", "brand": "Caff\u00e8 Nero", "brand:wikidata": "Q675808", "cuisine": "coffee_shop", "name": "Caff\u00e8 Nero", "outdoor_seating": "yes", "takeaway": "yes"}}, {"type": "node", "id": 11906744892, "lat": 34.9116707, "lon": 33.6368078}, {"type": "node", "id": 11906744893, "lat": 34.9116281, "lon": 33.6367193}, {"type": "node", "id": 11906744894, "lat": 34.9115819, "lon": 33.6368823}, {"type": "node", "id": 11906756547, "lat": 34.9115222, "lon": 33.6368194, "tags": {"amenity": "restaurant"}}, {"type": "node", "id": 11920242017, "lat": 34.9159315, "lon": 33.6379344}, {"type": "node", "id": 11920242018, "lat": 34.9159412, "lon": 33.6379187}, {"type": "node", "id": 11920242019, "lat": 34.9159527, "lon": 33.6377545}, {"type": "node", "id": 11920242020, "lat": 34.9161085, "lon": 33.6377708}, {"type": "node", "id": 11920242021, "lat": 34.916097, "lon": 33.6379349}, {"type": "node", "id": 11920242022, "lat": 34.9161163, "lon": 33.6379406}, {"type": "node", "id": 11920242023, "lat": 34.9161217, "lon": 33.6378051}, {"type": "node", "id": 11920242024, "lat": 34.9162297, "lon": 33.6378114}, {"type": "node", "id": 11920242025, "lat": 34.9162243, "lon": 33.637947}, {"type": "node", "id": 11920242026, "lat": 34.9162561, "lon": 33.6379557}, {"type": "node", "id": 11920242027, "lat": 34.9162588, "lon": 33.6378671}, {"type": "node", "id": 11920242028, "lat": 34.9163642, "lon": 33.6378719}, {"type": "node", "id": 11920242029, "lat": 34.9163615, "lon": 33.6379605}, {"type": "node", "id": 11940202074, "lat": 34.9300903, "lon": 33.6379104, "tags": {"amenity": "cafe", "name": "To Limani"}}, {"type": "node", "id": 11940202075, "lat": 34.93008, "lon": 33.6380946, "tags": {"amenity": "cafe", "name": "Star"}}, {"type": "node", "id": 11942684431, "lat": 34.914182, "lon": 33.63767}, {"type": "node", "id": 11942684432, "lat": 34.9142501, "lon": 33.6375263, "tags": {"amenity": "cafe", "brand": "Starbucks", "brand:wikidata": "Q37158", "cuisine": "coffee_shop", "name": "Starbucks", "official_name": "Starbucks Coffee", "takeaway": "yes"}}, {"type": "node", "id": 11950611960, "lat": 34.9154494, "lon": 33.6378384, "tags": {"amenity": "restaurant", "cuisine": "pizza", "name": "Pizza Mia"}}, {"type": "node", "id": 12050679497, "lat": 34.8518206, "lon": 33.5791732, "tags": {"amenity": "cafe", "name": "\u03a7\u03c1\u03ae\u03c3\u03c4\u03bf\u03c2 \u03bf \u03a3\u03b1\u03bb\u03bf\u03bd\u03b9\u03ba\u03b9\u03cc\u03c2"}}, {"type": "node", "id": 12064742224, "lat": 34.9197358, "lon": 33.6158357, "tags": {"amenity": "cafe", "cuisine": "coffee_shop", "internet_access": "wlan", "internet_access:fee": "no", "name": "Kawacom's Ipanema Espresso Larnaka (Pattichi)", "opening_hours": "Mo-Su 04:00-17:00", "outdoor_seating": "yes"}}, {"type": "node", "id": 12068861305, "lat": 34.9187576, "lon": 33.6156617, "tags": {"amenity": "cafe", "cuisine": "coffee_shop"}}, {"type": "node", "id": 12219041180, "lat": 34.9243832, "lon": 33.6069977, "tags": {"amenity": "cafe", "brand": "Paul", "brand:wikidata": "Q3370417", "name": "Paul", "outdoor_seating": "yes", "shop": "bakery"}}, {"type": "node", "id": 12219041181, "lat": 34.924934, "lon": 33.6072828, "tags": {"amenity": "restaurant", "name": "Verve", "outdoor_seating": "yes"}}, {"type": "node", "id": 12344012716, "lat": 34.9113605, "lon": 33.6357458, "tags": {"addr:city": "Larnaka", "addr:housenumber": "5", "addr:postcode": "6026", "addr:street": "Mehmet Ali", "amenity": "restaurant", "cuisine": "arab;jordanian", "name": "Watar Ziryab", "website": "https://www.facebook.com/WatarZiryab.cy/"}}, {"type": "node", "id": 12415056143, "lat": 34.8942084, "lon": 33.6388292, "tags": {"amenity": "cafe", "internet_access": "yes", "internet_access:fee": "no", "name": "Coffee Berry"}}, {"type": "node", "id": 12415063083, "lat": 34.8933843, "lon": 33.6385408, "tags": {"amenity": "cafe", "diet:vegetarian": "yes", "internet_access": "yes", "internet_access:fee": "customers", "name": "Liv.Simple Deli", "outdoor_seating": "yes"}}, {"type": "node", "id": 12415090602, "lat": 34.9093771, "lon": 33.6376802, "tags": {"amenity": "restaurant", "cuisine": "asian", "name": "Cam On Asian Cantina"}}, {"type": "node", "id": 12430298735, "lat": 34.8462049, "lon": 33.5725505, "tags": {"amenity": "cafe", "name": "Tamala Express"}}, {"type": "node", "id": 12469108401, "lat": 34.9122372, "lon": 33.6358971, "tags": {"addr:housenumber": "15", "addr:postcode": "6021", "addr:street": "Nikolaou Rossou", "amenity": "cafe", "internet_access": "wlan", "name": "Menta"}}, {"type": "node", "id": 12471309801, "lat": 34.9132755, "lon": 33.6358201, "tags": {"addr:postcode": "6022", "addr:street": "Ermou", "amenity": "cafe", "contact:instagram": "minglecafe", "email": "info@theminglecafe.com", "internet_access": "wlan", "name": "Mingle Caf\u00e9", "phone": "+35724209300", "website": "https://theminglecafe.com/"}}, {"type": "node", "id": 12479131280, "lat": 34.9121902, "lon": 33.6358143, "tags": {"amenity": "restaurant", "name": "Mpoukia Goylia"}}, {"type": "node", "id": 12536802146, "lat": 34.943313, "lon": 33.6178123}, {"type": "node", "id": 12536802147, "lat": 34.9433325, "lon": 33.6178965}, {"type": "node", "id": 12536802148, "lat": 34.9432069, "lon": 33.61794}, {"type": "node", "id": 12544227736, "lat": 34.8704987, "lon": 33.6093627, "tags": {"addr:city": "Larnaka", "addr:postcode": "7020", "amenity": "restaurant", "name": "Skala Lounge", "opening_hours": "24/7", "website": "https://skalaloungecy.com/"}}, {"type": "node", "id": 12570830901, "lat": 34.91349, "lon": 33.6353462, "tags": {"amenity": "cafe", "contact:instagram": "koffea.espresso.room", "name": "Koffea"}}, {"type": "node", "id": 12578763113, "lat": 34.9109824, "lon": 33.6322379, "tags": {"amenity": "restaurant", "name": "Oh my cod"}}, {"type": "node", "id": 12645744479, "lat": 34.7283219, "lon": 33.3348045, "tags": {"amenity": "restaurant", "name": "Fish Tavern Giorgallas"}}, {"type": "node", "id": 12645746536, "lat": 34.7297375, "lon": 33.3404892, "tags": {"amenity": "restaurant", "name": "\u03a0\u03b1\u03c1\u03ad\u03b1 \u039c\u03b5\u03b6\u03b5\u03b4\u03ac\u03ba\u03b9"}}, {"type": "node", "id": 12645801385, "lat": 34.7283107, "lon": 33.3380822, "tags": {"amenity": "restaurant"}}, {"type": "node", "id": 12645804166, "lat": 34.7306668, "lon": 33.3356743, "tags": {"amenity": "restaurant"}}, {"type": "node", "id": 12645804934, "lat": 34.7278592, "lon": 33.334615, "tags": {"amenity": "restaurant"}}, {"type": "node", "id": 12645826010, "lat": 34.7264165, "lon": 33.3351846, "tags": {"amenity": "restaurant"}}, {"type": "node", "id": 12647376059, "lat": 34.9110858, "lon": 33.6345442, "tags": {"amenity": "restaurant", "check_date": "2025-03-09"}}, {"type": "node", "id": 12740641769, "lat": 34.9275861, "lon": 33.5364484, "tags": {"amenity": "restaurant"}}, {"type": "node", "id": 12740697387, "lat": 34.9276362, "lon": 33.5368815, "tags": {"amenity": "cafe"}}, {"type": "node", "id": 12740765163, "lat": 34.9273707, "lon": 33.5367217, "tags": {"amenity": "restaurant"}}, {"type": "node", "id": 12740774711, "lat": 34.9289972, "lon": 33.5323144, "tags": {"amenity": "cafe"}}, {"type": "node", "id": 12746026607, "lat": 34.9224351, "lon": 33.3964223, "tags": {"amenity": "cafe"}}, {"type": "node", "id": 12759398252, "lat": 34.9142881, "lon": 33.6378243}, {"type": "node", "id": 12759398253, "lat": 34.914275, "lon": 33.6376743}, {"type": "node", "id": 12759398254, "lat": 34.9142678, "lon": 33.6378243}, {"type": "node", "id": 12759398255, "lat": 34.9141748, "lon": 33.63782}, {"type": "node", "id": 12814759834, "lat": 34.9249175, "lon": 33.6071228, "tags": {"amenity": "restaurant", "cuisine": "italian", "name": "Wailo's"}}, {"type": "node", "id": 12814826266, "lat": 34.9245, "lon": 33.6071263, "tags": {"amenity": "cafe", "brand": "Caff\u00e8 Nero", "brand:wikidata": "Q675808", "cuisine": "coffee_shop", "name": "Caff\u00e8 Nero", "takeaway": "yes"}}, {"type": "node", "id": 12814833551, "lat": 34.9249258, "lon": 33.6068442, "tags": {"amenity": "restaurant", "cuisine": "asian", "name": "Umami"}}, {"type": "node", "id": 12844413942, "lat": 34.9301558, "lon": 33.6350754, "tags": {"amenity": "cafe", "cuisine": "coffee_shop", "name": "Allois"}}, {"type": "node", "id": 12848927042, "lat": 34.9154788, "lon": 33.6378898}, {"type": "node", "id": 12848927043, "lat": 34.9154773, "lon": 33.6377612}, {"type": "node", "id": 12848927056, "lat": 34.9144355, "lon": 33.6381376}, {"type": "node", "id": 12848927057, "lat": 34.9144289, "lon": 33.6382411}, {"type": "node", "id": 12848927058, "lat": 34.9143326, "lon": 33.638232}, {"type": "node", "id": 12848927059, "lat": 34.9143392, "lon": 33.6381285}, {"type": "node", "id": 12857095611, "lat": 34.8167679, "lon": 33.6028094}, {"type": "node", "id": 12897749908, "lat": 34.9158932, "lon": 33.6354724, "tags": {"amenity": "cafe", "name": "\u0393\u03c1\u03b7\u03b3\u03cc\u03c1\u03b7\u03c2"}}, {"type": "way", "id": 277259095, "nodes": [2817856342, 2817856343, 2817856344, 12857095611, 10926512957, 2817856342], "tags": {"addr:housenumber": "1", "addr:street": "Faros Road", "amenity": "restaurant", "building": "retail", "cuisine": "mediterranean", "name": "Theta Mediterranean", "opening_hours": "Tu-Th 18:00-00:00; Fr-Su 12:00-00:00", "phone": "+357 99 774433", "website": "https://thetamediterranean.com/"}}, {"type": "way", "id": 397715387, "nodes": [4004933535, 4004933531, 4004933529, 4004933534, 4004933535], "tags": {"amenity": "restaurant", "building": "retail"}}, {"type": "way", "id": 397715397, "nodes": [944764329, 4004933459, 4004933457, 4004933458, 944764329], "tags": {"amenity": "restaurant", "building": "roof", "layer": "1", "name": "Vivid"}}, {"type": "way", "id": 397715400, "nodes": [4004933472, 4004933471, 4004933469, 4004933470, 4004933472], "tags": {"addr:housenumber": "24", "addr:street": "\u039b\u03b5\u03c9\u03c6\u03cc\u03c1\u03bf\u03c2 \u0391\u03b8\u03b7\u03bd\u03ce\u03bd", "amenity": "restaurant", "building": "yes", "check_date": "2023-05-27", "cuisine": "greek", "name": "\u03a4\u03bf \u0391\u03c1\u03c7\u03bf\u03bd\u03c4\u03b9\u03ba\u03cc\u03bd", "name:en": "To Archontikon"}}, {"type": "way", "id": 397715410, "nodes": [3774598634, 4004933431, 4004933429, 4004933430, 3774598634], "tags": {"addr:housename": "Kolonaki Apartments", "addr:street": "\u039b\u03b5\u03c9\u03c6\u03cc\u03c1\u03bf\u03c2 \u0391\u03b8\u03b7\u03bd\u03ce\u03bd", "amenity": "cafe", "building": "retail", "check_date": "2023-05-27", "name": "Bay street"}}, {"type": "way", "id": 493402458, "nodes": [4475561498, 4853219856, 4853219857, 12759398252, 4475561498], "tags": {"addr:housename": "Ithaki Carisa", "addr:housenumber": "18", "addr:street": "Athinon Avenue", "amenity": "cafe", "brand": "Caff\u00e8 Nero", "brand:wikidata": "Q675808", "brand:wikipedia": "en:Caff\u00e8 Nero", "building": "retail", "building:levels": "1", "cuisine": "coffee_shop", "internet_access": "wlan", "name": "Caff\u00e8 Nero", "takeaway": "yes"}}, {"type": "way", "id": 534982579, "nodes": [5186875346, 5186875345, 5186875347, 5186875348, 5186875346], "tags": {"addr:street": "Umm Haram", "amenity": "cafe", "building": "yes", "name": "\u03a0\u03bf\u03c3\u03b5\u03b9\u03b4\u03c9\u03bd", "source": "Kaart Ground Survey 2017"}}, {"type": "way", "id": 535354065, "nodes": [5189407115, 5189407116, 5189407117, 5189407118, 5189407115], "tags": {"addr:street": "Stadiou", "amenity": "restaurant", "building": "yes", "name": "Nippon", "source": "Kaart Ground Survey 2017"}}, {"type": "way", "id": 535362488, "nodes": [5189478806, 5189478807, 5189478808, 5189478809, 5189478806], "tags": {"addr:housenumber": "54", "addr:postcode": "6027", "addr:street": "Piyiale Pasa / Tasou Mitsopoulou", "amenity": "restaurant", "building": "yes", "cuisine": "mediterranean", "email": "info@noesislarnaca.com", "name": "Noesis", "opening_hours": "Mo-Su 10:00-02:00", "phone": "+357 24 66 44 11", "source": "Kaart Ground Survey 2017", "website": "https://noesislarnaca.com/", "website:menu": "https://noesislarnaca.com/food-menu"}}, {"type": "way", "id": 535362493, "nodes": [5189480128, 5189480129, 5189480130, 5189480131, 5189480132, 5189480133, 5189480128], "tags": {"addr:street": "Federico Garcia Lorka", "amenity": "restaurant", "building": "yes", "check_date": "2025-05-15", "name": "Salamis", "source": "Kaart Ground Survey 2017"}}, {"type": "way", "id": 536117876, "nodes": [5194336749, 5194336750, 5194336751, 5194336752, 5194336749], "tags": {"addr:street": "Iacovou Patatsou", "amenity": "restaurant", "building": "yes", "name": "Phoebus", "source": "Kaart Ground Survey 2017"}}, {"type": "way", "id": 536977384, "nodes": [5200667718, 5200667719, 5200667720, 5200668321, 5200667718], "tags": {"addr:street": "25is Maritou", "amenity": "cafe", "building": "yes", "name": "\u039a\u03b1\u03c6\u03b5\u03bd\u03b5\u03b9\u03bf \u03a0\u03b1\u03c3\u03c7\u03b1\u03b4\u03b7", "source": "Kaart Ground Survey 2017"}}, {"type": "way", "id": 536978667, "nodes": [5200676266, 5200676267, 5200676268, 5200676269, 5200676266], "tags": {"addr:street": "25is Maritou", "amenity": "cafe", "building": "yes", "name": "\u03a7\u03b1\u03c1\u03b1\u03b4\u03b1\u03bc\u03c0\u03bf\u03c2 \u0392\u03b1\u03c4\u03c4\u03b7\u03c2", "source": "Kaart Ground Survey 2017"}}, {"type": "way", "id": 537004041, "nodes": [5200877251, 5200877252, 5200877253, 5200877254, 5200877251], "tags": {"addr:street": "25is Maritou", "amenity": "cafe", "building": "yes", "cuisine": "burger", "name": "Stalicious", "source": "Kaart Ground Survey 2017"}}, {"type": "way", "id": 537014498, "nodes": [5200985037, 5200985038, 5200985039, 5200985040, 5200985037], "tags": {"addr:city": "Aradippou", "addr:street": "Kyriakou Matsi Avenue", "amenity": "restaurant", "building": "yes", "name": "\u03a6\u03c1\u03bf\u03c5\u03b1 \u039a\u03b1\u03b9 \u039b\u03b1\u03c7\u03b1\u03bd\u03b9\u03ba\u03b1 Eurofresh", "source": "Kaart Ground Survey 2017"}}, {"type": "way", "id": 537463024, "nodes": [4769253022, 5204528069, 5204528070, 5204528071, 4769253022], "tags": {"addr:housenumber": "65", "addr:postcode": "7550", "addr:street": "\u039b\u03b5\u03c9\u03c6\u03cc\u03c1\u03bf\u03c2 \u0391\u03c1\u03c7\u03b9\u03b5\u03c0\u03b9\u03c3\u03ba\u03cc\u03c0\u03bf\u03c5 \u039c\u03b1\u03ba\u03b1\u03c1\u03af\u03bf\u03c5 \u0393\u2019", "amenity": "cafe", "brand": "Coffee Island", "brand:wikidata": "Q60867333", "brand:wikipedia": "en:Coffee Island", "building": "yes", "cuisine": "coffee_shop", "internet_access": "wlan", "name": "Coffee Island", "opening_hours": "Mo-Su 07:00-23:30", "phone": "24422027", "source": "Kaart Ground Survey 2017", "takeaway": "yes", "website": "https://www.coffeeisland.gr/"}}, {"type": "way", "id": 537823963, "nodes": [5207200383, 5207200384, 5207200385, 5207200386, 5207200383], "tags": {"addr:city": "Larnaca", "addr:street": "Spyrou Kyprianou Avenue", "amenity": "restaurant", "building": "yes", "description": "\u039f\u03b9\u03ba\u03bf\u03b3\u03b5\u03bd\u03b5\u03b9\u03b1\u03ba\u03b7 \u03a4\u03b1\u03b2\u03b5\u03c1\u03bd\u03b1", "description:el": "\u039f\u03b9\u03ba\u03bf\u03b3\u03b5\u03bd\u03b5\u03b9\u03b1\u03ba\u03b7 \u03a4\u03b1\u03b2\u03b5\u03c1\u03bd\u03b1", "description:en": "Family Tavern", "internet_access": "wlan", "name": "\u03a4\u03bf \u03a7\u03c9\u03c1\u03b1\u03c6\u03b9", "name:el": "\u03a4\u03bf \u03a7\u03c9\u03c1\u03b1\u03c6\u03b9", "source": "Kaart Ground Survey 2017"}}, {"type": "way", "id": 537851451, "nodes": [5207452332, 5207452333, 5207452334, 5207452335, 5207452332], "tags": {"addr:city": "Larnaca", "addr:street": "Louther King", "amenity": "restaurant", "building": "yes", "name": "Tabepna \u0391\u03c0\u03bf\u03c3\u03c4\u03bf\u03bb\u03bf\u03c2 \u0391\u03bd\u03b4\u03c1\u03b5\u03b1\u03c2", "source": "Kaart Ground Survey 2017"}}, {"type": "way", "id": 538220673, "nodes": [5210313192, 5210313675, 5210313678, 4853219859, 5210313192], "tags": {"amenity": "cafe", "building": "retail", "building:levels": "1", "name": "Coffee Corner"}}, {"type": "way", "id": 619147852, "nodes": [5851252190, 5851252191, 5851252192, 5851252193, 5851252194, 5851252195, 5851252196, 5851252197, 5851252198, 5851250383, 5851252190], "tags": {"addr:city": "Larnaca", "addr:housenumber": "5", "addr:postcode": "7020", "addr:street": "Dim. Severi", "amenity": "cafe", "building": "yes", "internet_access": "wlan", "name": "Teatrale", "outdoor_seating": "yes"}}, {"type": "way", "id": 750251018, "nodes": [5011109506, 5011109507, 3391123022, 11920242017, 5011109506], "tags": {"amenity": "restaurant", "building": "retail", "building:levels": "1", "cuisine": "lebanese", "name": "Habibi"}}, {"type": "way", "id": 760259799, "nodes": [7102266175, 7102266174, 7102266173, 7102266172, 7102266171, 7102266170, 7102266169, 7102266168, 7102266167, 7102266166, 7102266175], "tags": {"addr:city": "Mazotos", "amenity": "restaurant", "building": "yes", "cuisine": "greek", "name": "Akroyiali Restaurant (Tavern)", "name:ru": "\u0420\u044b\u0431\u043d\u044b\u0439 \u0440\u0435\u0441\u0442\u043e\u0440\u0430\u043d", "opening_hours": "11:00 - 21:00", "outdoor_seating": "yes", "phone": "+357 99 634033"}}, {"type": "way", "id": 767603099, "nodes": [944764325, 4004933446, 4004933445, 7166858856, 944764325], "tags": {"addr:housenumber": "38", "addr:postcode": "6022", "addr:street": "\u039b\u03b5\u03c9\u03c6\u03cc\u03c1\u03bf\u03c2 \u0391\u03b8\u03b7\u03bd\u03ce\u03bd", "amenity": "restaurant", "branch": "Phinicoudes", "brand": "TGI Fridays", "brand:wikidata": "Q1524184", "brand:wikipedia": "en:TGI Fridays", "building": "tent", "cuisine": "american", "delivery": "no", "email": "info@fridays.com.cy", "internet_access": "wlan", "name": "TGI Fridays", "opening_hours": "Mo-Su 12:00-00:00", "outdoor_seating": "yes", "payment:cards": "yes", "payment:cash": "yes", "phone": "+35724816666", "takeaway": "yes", "website": "https://fridays.com.cy/"}}, {"type": "way", "id": 821458463, "nodes": [7670050369, 7670050370, 7670050371, 7670050372, 7670050373, 7670050374, 7670050369], "tags": {"amenity": "restaurant", "building": "yes", "name": "\u0397 \u03c4\u03b1\u03b2\u03ad\u03c1\u03bd\u03b1 \u03c4\u03bf\u03c5 \"\u039b\u03c5\u03c1\u03ac\"", "phone": "99010505"}}, {"type": "way", "id": 919190591, "nodes": [8536933252, 8536933253, 8536933254, 8536933255, 8536933252], "tags": {"amenity": "cafe", "building": "yes"}}, {"type": "way", "id": 992522543, "nodes": [9170108286, 9170108287, 9170108288, 9170108289, 9170108290, 9170108286], "tags": {"amenity": "restaurant", "building": "yes", "check_date": "2023-11-02", "cuisine": "chicken;steak_house;kebab", "name": "Kalamaki"}}, {"type": "way", "id": 1106949950, "nodes": [10129060476, 10129060477, 10129060478, 10129060479, 10129060480, 10129060481, 10129060482, 10129060468, 10129060476], "tags": {"amenity": "cafe", "building": "yes"}}, {"type": "way", "id": 1108033162, "nodes": [10138386162, 10138386163, 10138386164, 10138386165, 10138386162], "tags": {"amenity": "restaurant", "building": "yes", "cuisine": "greek", "name": "Kokos tavern"}}, {"type": "way", "id": 1130628967, "nodes": [10536989513, 10536989514, 10536989515, 10536989516, 10536989513], "tags": {"amenity": "cafe", "building": "yes"}}, {"type": "way", "id": 1176290887, "nodes": [10929228461, 10929228462, 10929228463, 10929228464, 10929228461], "tags": {"amenity": "restaurant", "building": "yes"}}, {"type": "way", "id": 1222771628, "nodes": [11341518314, 11341518313, 11341518312, 11341518311, 11341518310, 11341518309, 11341518308, 11341518307, 11341518314], "tags": {"amenity": "restaurant", "building": "yes", "name": "Lumina Botanical Gardens"}}, {"type": "way", "id": 1252484491, "nodes": [11641919907, 11641919908, 11641919909, 11641919910, 11641919907], "tags": {"amenity": "restaurant", "building": "retail", "name": "Zygi Park restaurant"}}, {"type": "way", "id": 1252484507, "nodes": [11641958497, 11641958498, 11641958499, 11641958500, 11641958497], "tags": {"amenity": "cafe", "building": "yes", "internet_access": "yes", "name": "\u039c\u03b1\u03c1\u03b9\u03bd\u03bf\u03c0\u03b1\u03c1\u03ad\u03b1"}}, {"type": "way", "id": 1252885895, "nodes": [11645697691, 11645697692, 11645697693, 11645697694, 11645697695, 11645697696, 11645697691], "tags": {"amenity": "restaurant", "building": "yes"}}, {"type": "way", "id": 1278783304, "nodes": [11871689368, 11871753869, 11871753870, 11871753871, 11871689368], "tags": {"amenity": "restaurant", "building": "yes", "name": "Plira"}}, {"type": "way", "id": 1283217505, "nodes": [11906744892, 11906744894, 4961672185, 11906744893, 11906744892], "tags": {"amenity": "cafe", "building": "yes"}}, {"type": "way", "id": 1284928176, "nodes": [11920242018, 11920242019, 11920242020, 11920242021, 11920242018], "tags": {"amenity": "cafe", "building": "retail", "building:levels": "1", "name": "Evento", "vacant": "yes"}}, {"type": "way", "id": 1284928177, "nodes": [11920242022, 11920242023, 11920242024, 11920242025, 11920242022], "tags": {"amenity": "cafe", "building": "retail", "building:levels": "1", "name": "Plaza cafe"}}, {"type": "way", "id": 1284928178, "nodes": [11920242026, 11920242027, 11920242028, 11920242029, 11920242026], "tags": {"amenity": "cafe", "building": "retail", "building:levels": "1", "name": "Sun Hall cafe"}}, {"type": "way", "id": 1354706636, "nodes": [11591319346, 12536802146, 12536802147, 12536802148, 11591319346], "tags": {"amenity": "cafe", "building": "yes", "cuisine": "coffee_shop", "drive_through": "yes", "outdoor_seating": "yes"}}, {"type": "way", "id": 1378013601, "nodes": [11942684431, 12759398253, 12759398254, 12759398255, 11942684431], "tags": {"addr:housename": "Ithaki Carisa", "addr:housenumber": "18", "addr:street": "Athinon Avenue", "amenity": "cafe", "brand": "Starbucks", "brand:wikidata": "Q37158", "building": "retail", "building:levels": "1", "cuisine": "coffee_shop", "name": "Starbucks", "official_name": "Starbucks Coffee", "takeaway": "yes"}}, {"type": "way", "id": 1388012980, "nodes": [4004933560, 12848927042, 12848927043, 4004933561, 4004933560], "tags": {"amenity": "restaurant", "building": "yes"}}, {"type": "way", "id": 1388012986, "nodes": [12848927056, 12848927057, 12848927058, 12848927059, 12848927056], "tags": {"amenity": "cafe", "building": "yes"}}]}