{"version": 0.6, "generator": "Overpass API 0.7.62.7 375dc00a", "osm3s": {"timestamp_osm_base": "2025-06-14T14:00:42Z", "copyright": "The data included in this document is from www.openstreetmap.org. The data is made available under ODbL."}, "elements": [{"type": "node", "id": 330011541, "lat": 43.0016146, "lon": 17.4824774, "tags": {"amenity": "cafe", "created_by": "Merkaartor 0.13", "name": "Azzurro"}}, {"type": "node", "id": 370311404, "lat": 42.8465738, "lon": 17.7044103, "tags": {"amenity": "restaurant", "name": "Bota \u0160are"}}, {"type": "node", "id": 420088973, "lat": 42.9238556, "lon": 17.6160594, "tags": {"amenity": "restaurant", "cuisine": "regional", "name": "Odmaraliste", "name:ko": "\ud654\uc7a5\uc2e4\uae68\ub057  \uc288\ud37c\uc800\ub834"}}, {"type": "node", "id": 424349254, "lat": 42.9275685, "lon": 17.6163244, "tags": {"amenity": "cafe", "name": "Adriatik"}}, {"type": "node", "id": 424349260, "lat": 42.9284, "lon": 17.6159889, "tags": {"amenity": "cafe"}}, {"type": "node", "id": 424349287, "lat": 42.9265962, "lon": 17.614898, "tags": {"amenity": "restaurant", "name": "Turist"}}, {"type": "node", "id": 424349346, "lat": 42.9280911, "lon": 17.6162501, "tags": {"amenity": "cafe"}}, {"type": "node", "id": 424349351, "lat": 42.9278674, "lon": 17.6182103, "tags": {"amenity": "cafe"}}, {"type": "node", "id": 424349748, "lat": 42.92672, "lon": 17.6147311, "tags": {"amenity": "restaurant", "cuisine": "regional", "name": "Odisej"}}, {"type": "node", "id": 424350649, "lat": 42.9241215, "lon": 17.6138823, "tags": {"amenity": "restaurant", "cuisine": "regional;pizza;fish", "internet_access": "wlan", "name": "Laguna"}}, {"type": "node", "id": 630948297, "lat": 42.9254363, "lon": 17.6131006}, {"type": "node", "id": 630948306, "lat": 42.9253718, "lon": 17.6132948}, {"type": "node", "id": 630948313, "lat": 42.9253712, "lon": 17.6134056}, {"type": "node", "id": 630948319, "lat": 42.9255308, "lon": 17.6132085}, {"type": "node", "id": 631142323, "lat": 42.9254824, "lon": 17.6133565}, {"type": "node", "id": 631142339, "lat": 42.9253329, "lon": 17.6133697}, {"type": "node", "id": 631142346, "lat": 42.9253456, "lon": 17.6132624}, {"type": "node", "id": 631192060, "lat": 42.920569, "lon": 17.6149289}, {"type": "node", "id": 631192063, "lat": 42.9206238, "lon": 17.61485}, {"type": "node", "id": 631192068, "lat": 42.9206897, "lon": 17.6149308}, {"type": "node", "id": 631192076, "lat": 42.9206341, "lon": 17.6150055}, {"type": "node", "id": 749909551, "lat": 42.7689833, "lon": 17.359562, "tags": {"amenity": "restaurant", "cuisine": "regional", "name": "Melita", "opening_hours": "Apr-Nov 08:00-20:00", "website": "https://www.mljet-restoranmelita.com"}}, {"type": "node", "id": 751935409, "lat": 42.7893635, "lon": 17.345008, "tags": {"amenity": "restaurant", "name": "Konoba Barba Ive"}}, {"type": "node", "id": 751935421, "lat": 42.789054, "lon": 17.3448059, "tags": {"amenity": "restaurant", "name": "Konoba Galija"}}, {"type": "node", "id": 751935424, "lat": 42.789486, "lon": 17.3451047, "tags": {"amenity": "restaurant", "name": "Konoba Galicija"}}, {"type": "node", "id": 751935427, "lat": 42.7874726, "lon": 17.3431787, "tags": {"amenity": "restaurant", "cuisine": "pizza", "name": "Forca"}}, {"type": "node", "id": 813880875, "lat": 42.7871984, "lon": 17.3829666, "tags": {"addr:city": "Pola\u010de", "addr:housenumber": "8", "addr:street": "Pola\u010de", "amenity": "restaurant", "name": "Restoran Bourbon"}}, {"type": "node", "id": 813880878, "lat": 42.7872016, "lon": 17.3827212, "tags": {"addr:city": "Pola\u010de", "addr:housenumber": "9", "addr:street": "Pola\u010de", "amenity": "restaurant", "name": "Konoba Joseph"}}, {"type": "node", "id": 813880887, "lat": 42.7866818, "lon": 17.3812222, "tags": {"addr:city": "Pola\u010de", "addr:housenumber": "13", "addr:street": "Pola\u010de", "amenity": "restaurant", "name": "Calypso Grill"}}, {"type": "node", "id": 813880889, "lat": 42.7866034, "lon": 17.3807117, "tags": {"addr:city": "Pola\u010de", "addr:housenumber": "15", "addr:street": "Pola\u010de", "amenity": "restaurant", "name": "Konoba Sponga"}}, {"type": "node", "id": 813880904, "lat": 42.7865073, "lon": 17.3802997, "tags": {"addr:city": "Pola\u010de", "addr:housenumber": "17", "addr:street": "Pola\u010de", "amenity": "restaurant", "name": "Konoba Ogigija"}}, {"type": "node", "id": 813880919, "lat": 42.7858076, "lon": 17.3786032, "tags": {"amenity": "restaurant", "name": "Konoba Ankora"}}, {"type": "node", "id": 813880927, "lat": 42.7856927, "lon": 17.3782593, "tags": {"addr:city": "Pola\u010de", "addr:street": "Pola\u010de", "amenity": "restaurant", "name": "Porto (Pizzeria)"}}, {"type": "node", "id": 813880938, "lat": 42.7858813, "lon": 17.3777057, "tags": {"addr:city": "Pola\u010de", "addr:housenumber": "34", "addr:street": "Pola\u010de", "amenity": "restaurant", "name": "Konoba Antika"}}, {"type": "node", "id": 813904621, "lat": 42.7869122, "lon": 17.3442337, "tags": {"amenity": "restaurant", "name": "Pension-Konoba Matana"}}, {"type": "node", "id": 813904626, "lat": 42.7871, "lon": 17.3435669, "tags": {"amenity": "restaurant", "name": "Pizzeria-Kavana Jeguljica"}}, {"type": "node", "id": 813904631, "lat": 42.7880115, "lon": 17.3427554, "tags": {"amenity": "restaurant", "name": "Pizzeria Levanat"}}, {"type": "node", "id": 813904654, "lat": 42.7878036, "lon": 17.3430034, "tags": {"FIXME": "May actually be part of Restaurant Pomena; needs checking.", "amenity": "restaurant", "name": "Konoba Pomena"}}, {"type": "node", "id": 813904659, "lat": 42.7876417, "lon": 17.3445599, "tags": {"amenity": "restaurant", "name": "Konoba Kiko"}}, {"type": "node", "id": 813904661, "lat": 42.7888476, "lon": 17.3446829, "tags": {"amenity": "restaurant", "name": "Konoba Adio Mare"}}, {"type": "node", "id": 813904662, "lat": 42.788925, "lon": 17.3447181, "tags": {"amenity": "restaurant", "name": "Konoba Nine"}}, {"type": "node", "id": 813904677, "lat": 42.7892281, "lon": 17.3449026, "tags": {"amenity": "restaurant", "name": "Konoba Ana"}}, {"type": "node", "id": 815610298, "lat": 42.7678855, "lon": 17.3816966, "tags": {"amenity": "restaurant", "name": "Konoba Pikala", "name:en": "Konoba Pikala", "name:hr": "Konoba Pikala", "name:it": "Konoba Pikala"}}, {"type": "node", "id": 815610367, "lat": 42.7793201, "lon": 17.3603784, "tags": {"addr:housenumber": "3", "addr:street": "\u0160etali\u0161te Branimira Gu\u0161i\u0107a", "amenity": "restaurant", "name": "Mali Raj"}}, {"type": "node", "id": 817503467, "lat": 42.7867668, "lon": 17.3438399, "tags": {"amenity": "restaurant", "name": "Konoba Dalmatino"}}, {"type": "node", "id": 819027441, "lat": 42.9272068, "lon": 17.6139202, "tags": {"amenity": "cafe", "name": "Val Adria", "shop": "general"}}, {"type": "node", "id": 819027452, "lat": 42.9263759, "lon": 17.6153294, "tags": {"amenity": "restaurant", "cuisine": "pizza;regional", "internet_access": "wlan", "name": "Marinero", "opening_hours": "Mo-Su 08:00-22:00", "smoking": "yes"}}, {"type": "node", "id": 819027453, "lat": 42.9279103, "lon": 17.6151187, "tags": {"amenity": "restaurant", "cuisine": "sandwich", "name": "Domagoj"}}, {"type": "node", "id": 912668014, "lat": 42.8906354, "lon": 17.4541587, "tags": {"addr:street": "Kraj", "amenity": "restaurant", "name": "Bistro Ankor\u0430"}}, {"type": "node", "id": 1831535085, "lat": 42.9060605, "lon": 17.6392128, "tags": {"amenity": "restaurant", "name": "Grill Kamenice"}}, {"type": "node", "id": 1844648969, "lat": 42.81797, "lon": 17.6758979, "tags": {"amenity": "restaurant"}}, {"type": "node", "id": 1885071655, "lat": 42.9442409, "lon": 17.5631093, "tags": {"amenity": "cafe"}}, {"type": "node", "id": 1885071665, "lat": 42.9439262, "lon": 17.5634458, "tags": {"amenity": "restaurant"}}, {"type": "node", "id": 1907034463, "lat": 42.814608, "lon": 17.7821659, "tags": {"amenity": "restaurant", "name": "Konoba Arcimun"}}, {"type": "node", "id": 1999838607, "lat": 42.9437672, "lon": 17.5617704, "tags": {"amenity": "cafe", "name": "Caffe bar"}}, {"type": "node", "id": 1999904403, "lat": 43.0133462, "lon": 17.5518086, "tags": {"amenity": "cafe", "name": "Caffe bar Zona"}}, {"type": "node", "id": 2030495410, "lat": 43.0206324, "lon": 17.5893037}, {"type": "node", "id": 2035374549, "lat": 42.9468137, "lon": 17.5639965, "tags": {"amenity": "restaurant"}}, {"type": "node", "id": 2043482285, "lat": 43.0169182, "lon": 17.5635881, "tags": {"amenity": "cafe", "internet_access": "yes", "internet_access:fee": "no", "internet_access:ssid": "Crveni", "name": "Crveni Patuljak"}}, {"type": "node", "id": 2043593022, "lat": 43.0174545, "lon": 17.5623869, "tags": {"amenity": "cafe"}}, {"type": "node", "id": 2043654170, "lat": 43.0201879, "lon": 17.5894973}, {"type": "node", "id": 2043654172, "lat": 43.0204838, "lon": 17.58916}, {"type": "node", "id": 2043654173, "lat": 43.0201327, "lon": 17.5898615}, {"type": "node", "id": 2043794092, "lat": 43.0165681, "lon": 17.5633702, "tags": {"addr:housenumber": "11", "addr:street": "Nikole Nonkovica", "amenity": "cafe"}}, {"type": "node", "id": 2044461484, "lat": 43.0172287, "lon": 17.5595562, "tags": {"amenity": "restaurant", "name": "Caffe grill Palma"}}, {"type": "node", "id": 2073084547, "lat": 43.0032233, "lon": 17.5326015, "tags": {"amenity": "cafe"}}, {"type": "node", "id": 2192779265, "lat": 42.9433512, "lon": 17.5642594, "tags": {"amenity": "restaurant", "cuisine": "pizza"}}, {"type": "node", "id": 2288593428, "lat": 42.9254794, "lon": 17.6132923}, {"type": "node", "id": 2291822793, "lat": 42.8197482, "lon": 17.6749687}, {"type": "node", "id": 2291822798, "lat": 42.8198114, "lon": 17.6748332}, {"type": "node", "id": 2291822814, "lat": 42.8198786, "lon": 17.6750816}, {"type": "node", "id": 2291822824, "lat": 42.8199418, "lon": 17.674946}, {"type": "node", "id": 2323279903, "lat": 42.7864161, "lon": 17.8892392}, {"type": "node", "id": 2342195456, "lat": 42.8044642, "lon": 17.7427635, "tags": {"addr:city": "Koba\u0161", "addr:postcode": "20230", "addr:street": "Kobas 1A", "amenity": "restaurant", "cuisine": "regional", "description": "Fixed menu (3, 4 or 5 courses). Cash only.", "email": "gastro.kobas@gmail.com", "name": "Gastro Mare", "phone": "+385 977 968008", "website": "https://www.gastromarekobas.com/", "website:menu": "https://www.facebook.com/gastromarekobas/"}}, {"type": "node", "id": 2381764178, "lat": 43.0170489, "lon": 17.5638942}, {"type": "node", "id": 2381764256, "lat": 43.0170937, "lon": 17.5638345}, {"type": "node", "id": 2381764320, "lat": 43.0171135, "lon": 17.5639848}, {"type": "node", "id": 2381764596, "lat": 43.0171583, "lon": 17.5639252}, {"type": "node", "id": 2391984642, "lat": 42.7871281, "lon": 17.8899012, "tags": {"addr:city": "Slano", "addr:housenumber": "5", "addr:postcode": "20232", "addr:street": "Trg Ru\u0111era Bo\u0161kovi\u0107a", "amenity": "restaurant", "cuisine": "pizza;fish;regional", "level": "0", "name": "Maestral", "outdoor_seating": "yes", "payment:cash": "yes", "payment:debit_cards": "yes", "phone": "+385 20 871192"}}, {"type": "node", "id": 2391984669, "lat": 42.7835868, "lon": 17.8777278, "tags": {"amenity": "restaurant", "cuisine": "italian", "name": "Konoba Peronospora", "opening_hours": "May-Oct Mo-Su 08:00-24:00"}}, {"type": "node", "id": 2391984671, "lat": 42.7830934, "lon": 17.8776703}, {"type": "node", "id": 2414440957, "lat": 42.917032, "lon": 17.3989411}, {"type": "node", "id": 2414440963, "lat": 42.9170822, "lon": 17.3990539}, {"type": "node", "id": 2414440968, "lat": 42.9170932, "lon": 17.3988905}, {"type": "node", "id": 2414440987, "lat": 42.9171433, "lon": 17.3990032}, {"type": "node", "id": 2418263430, "lat": 42.8466686, "lon": 17.7042152, "tags": {"amenity": "restaurant", "name": "Kapetanova Ku\u0107a"}}, {"type": "node", "id": 2419926732, "lat": 43.020094, "lon": 17.5898169}, {"type": "node", "id": 2419926735, "lat": 43.0202575, "lon": 17.5896375}, {"type": "node", "id": 2419926736, "lat": 43.0205159, "lon": 17.5892148}, {"type": "node", "id": 2419926737, "lat": 43.020566, "lon": 17.5891717}, {"type": "node", "id": 2427834787, "lat": 42.7755884, "lon": 17.4644147}, {"type": "node", "id": 2427834789, "lat": 42.7756575, "lon": 17.4642683}, {"type": "node", "id": 2427834790, "lat": 42.7756733, "lon": 17.4644891}, {"type": "node", "id": 2427834792, "lat": 42.7757424, "lon": 17.4643427}, {"type": "node", "id": 2435328542, "lat": 42.8386929, "lon": 17.6960503, "tags": {"addr:city": "Ston", "addr:housenumber": "8", "addr:postcode": "20230", "addr:street": "Jurja Dalmatinca", "amenity": "restaurant", "cuisine": "regional;italian", "email": "info@sorgopalace.com", "name": "Sorgo Palace", "outdoor_seating": "yes", "phone": "+385 99 475 4666", "smoking": "outside", "website": "https://sorgopalace.com/"}}, {"type": "node", "id": 2435559794, "lat": 42.8389428, "lon": 17.6962927, "tags": {"amenity": "restaurant", "cuisine": "seafood;local", "name": "Stagnum", "outdoor_seating": "yes"}}, {"type": "node", "id": 2435559795, "lat": 42.8382491, "lon": 17.6964599, "tags": {"addr:city": "Ston", "addr:housenumber": "5", "addr:postcode": "20230", "addr:street": "Iva Vojnovi\u0107a", "amenity": "restaurant", "cuisine": "croatian;grill;local;seafood", "email": "restaurant.bakus@gmail.com", "name": "Bakus", "name:en": "Konoba Bakus", "name:hr": "Konoba Bakus", "phone": "+385 20 754 270;+385 98 296 192;+385 95 905 92 62", "website": "http://www.bakus.hr/"}}, {"type": "node", "id": 2435559796, "lat": 42.8377981, "lon": 17.6964053, "tags": {"amenity": "cafe", "name": "Placa"}}, {"type": "node", "id": 2435559797, "lat": 42.8377801, "lon": 17.6969224, "tags": {"amenity": "restaurant", "name": "Kod Ba\u0107e"}}, {"type": "node", "id": 2435559818, "lat": 42.838512, "lon": 17.6964991, "tags": {"amenity": "restaurant", "name": "Maestral"}}, {"type": "node", "id": 2438402547, "lat": 42.8465218, "lon": 17.7048719, "tags": {"amenity": "restaurant", "name": "Villa Koruna"}}, {"type": "node", "id": 2693507112, "lat": 42.920602, "lon": 17.6149661}, {"type": "node", "id": 2834281318, "lat": 42.9242704, "lon": 17.3444259}, {"type": "node", "id": 2834281320, "lat": 42.924293, "lon": 17.3444917}, {"type": "node", "id": 2834281326, "lat": 42.9243425, "lon": 17.3443796}, {"type": "node", "id": 2834281329, "lat": 42.9243651, "lon": 17.3444454}, {"type": "node", "id": 2975679743, "lat": 42.9468959, "lon": 17.4432469}, {"type": "node", "id": 2975679744, "lat": 42.9468403, "lon": 17.443361}, {"type": "node", "id": 2975679745, "lat": 42.9467627, "lon": 17.4432904}, {"type": "node", "id": 2975679746, "lat": 42.9468184, "lon": 17.4431763}, {"type": "node", "id": 2999345306, "lat": 42.9244322, "lon": 17.4307331}, {"type": "node", "id": 2999345307, "lat": 42.9243548, "lon": 17.4308735}, {"type": "node", "id": 2999345308, "lat": 42.9242739, "lon": 17.4307903}, {"type": "node", "id": 2999345309, "lat": 42.9243117, "lon": 17.4307216}, {"type": "node", "id": 3010281152, "lat": 42.9316296, "lon": 17.4494169, "tags": {"amenity": "restaurant", "capacity": "50", "name": "Dalmatinska ku\u0107a"}}, {"type": "node", "id": 3010281153, "lat": 42.9306285, "lon": 17.4483108, "tags": {"amenity": "cafe", "name": "\u017divko"}}, {"type": "node", "id": 3040005109, "lat": 42.8471916, "lon": 17.7038567, "tags": {"amenity": "restaurant", "name": "Mlinica"}}, {"type": "node", "id": 3052104305, "lat": 42.9395731, "lon": 17.3368821}, {"type": "node", "id": 3052104306, "lat": 42.939625, "lon": 17.3367544}, {"type": "node", "id": 3052104307, "lat": 42.9396334, "lon": 17.3369279}, {"type": "node", "id": 3052104308, "lat": 42.9396854, "lon": 17.3368002}, {"type": "node", "id": 3454383261, "lat": 42.9304153, "lon": 17.448394, "tags": {"amenity": "cafe"}}, {"type": "node", "id": 3687036747, "lat": 42.9241495, "lon": 17.6132726, "tags": {"addr:city": "Neum", "addr:postcode": "88390", "addr:street": "Ulica kralja Tomislava", "amenity": "restaurant", "cuisine": "international", "name": "Restoran Bonaca"}}, {"type": "node", "id": 3792077494, "lat": 42.7832433, "lon": 17.8775302}, {"type": "node", "id": 3792077495, "lat": 42.7832845, "lon": 17.8775123}, {"type": "node", "id": 3792077496, "lat": 42.7832856, "lon": 17.8777111}, {"type": "node", "id": 3792077497, "lat": 42.7833268, "lon": 17.8776933}, {"type": "node", "id": 3792077501, "lat": 42.7833742, "lon": 17.8774735}, {"type": "node", "id": 3792077505, "lat": 42.7834164, "lon": 17.8776544}, {"type": "node", "id": 3792078092, "lat": 42.7840882, "lon": 17.8785339}, {"type": "node", "id": 3792078093, "lat": 42.7840859, "lon": 17.8786443}, {"type": "node", "id": 3792078114, "lat": 42.7841824, "lon": 17.878531}, {"type": "node", "id": 3792078115, "lat": 42.7841848, "lon": 17.878642}, {"type": "node", "id": 3792078650, "lat": 42.7883419, "lon": 17.8878063}, {"type": "node", "id": 3792078651, "lat": 42.7883446, "lon": 17.8876812}, {"type": "node", "id": 3792078660, "lat": 42.7884363, "lon": 17.8878294}, {"type": "node", "id": 3792078661, "lat": 42.7884364, "lon": 17.88781}, {"type": "node", "id": 3792078662, "lat": 42.7884391, "lon": 17.8876849}, {"type": "node", "id": 3792078663, "lat": 42.7884403, "lon": 17.8877304}, {"type": "node", "id": 3792078665, "lat": 42.78848, "lon": 17.8878309}, {"type": "node", "id": 3792078666, "lat": 42.7884817, "lon": 17.8877342}, {"type": "node", "id": 3793232918, "lat": 42.7864013, "lon": 17.8893142}, {"type": "node", "id": 3793232942, "lat": 42.786497, "lon": 17.8893444}, {"type": "node", "id": 3793232954, "lat": 42.7865277, "lon": 17.8893541}, {"type": "node", "id": 3793233157, "lat": 42.7865413, "lon": 17.8892853}, {"type": "node", "id": 4298230900, "lat": 42.9185902, "lon": 17.6200944, "tags": {"amenity": "cafe", "name": "Braco"}}, {"type": "node", "id": 4307792150, "lat": 42.9168424, "lon": 17.3982923, "tags": {"amenity": "restaurant", "cuisine": "regional", "name": "Konoba Maris", "phone": "+385 97 671 8389", "website": "https://www.facebook.com/konoba.maris"}}, {"type": "node", "id": 4308015039, "lat": 42.8037, "lon": 17.7427885, "tags": {"addr:postcode": "20230", "addr:street": "Koba\u0161", "amenity": "restaurant", "cuisine": "mediterranean", "description": "Small restaurant / bar", "email": "lukastaverna@gmail.com", "internet_access": "wlan", "name": "Lukas Taverna Genuine cousine", "name:hr": "Lukas Taverna Genuine cousine", "opening_hours": "24/7", "phone": "00385992014111", "website": "https://www.facebook.com/lukataverna/?fref=ts"}}, {"type": "node", "id": 4308015400, "lat": 42.8028326, "lon": 17.7431918, "tags": {"amenity": "restaurant", "cuisine": "pizza;regional"}}, {"type": "node", "id": 4308044085, "lat": 42.8220391, "lon": 17.7153963, "tags": {"amenity": "restaurant", "cuisine": "regional", "description": "Small local restaurant; mainly fish and shellfish"}}, {"type": "node", "id": 4308068858, "lat": 42.8584564, "lon": 17.6898981, "tags": {"amenity": "restaurant", "cuisine": "regional"}}, {"type": "node", "id": 4308087560, "lat": 42.8170297, "lon": 17.6756954, "tags": {"amenity": "restaurant"}}, {"type": "node", "id": 4327843289, "lat": 42.8904183, "lon": 17.4543743, "tags": {"amenity": "cafe", "name": "Caf\u00e9 \u0160kafet"}}, {"type": "node", "id": 4331001496, "lat": 42.9667564, "lon": 17.3461061, "tags": {"addr:housenumber": "37", "addr:postcode": "20243", "addr:street": "Kuna", "amenity": "restaurant", "cuisine": "local", "email": "info@opgantunovic.hr", "name": "OPG Antunovic", "phone": "+385 98 9987679", "website": "http://www.opgantunovic.hr"}}, {"type": "node", "id": 4349018418, "lat": 42.8584399, "lon": 17.6901367, "tags": {"addr:housenumber": "30", "addr:street": "Hodilje", "amenity": "restaurant", "cuisine": "fish;croatian", "email": "limun_kate@hotmail.com", "name": "Ficovi\u0107 - seosko doma\u0107instvo", "opening_hours": "Mo-Su 11:00-23:00", "phone": "+385 098 165 40 85"}}, {"type": "node", "id": 4373708595, "lat": 42.9302248, "lon": 17.5971462, "tags": {"amenity": "restaurant", "cuisine": "pizza;fish", "name": "Dom"}}, {"type": "node", "id": 4373945690, "lat": 42.929504, "lon": 17.5985203, "tags": {"amenity": "restaurant", "name": "Posejdon"}}, {"type": "node", "id": 4378026499, "lat": 42.92891, "lon": 17.6068845, "tags": {"amenity": "restaurant", "cuisine": "burger, pizza, regional", "name": "Lunch Bar"}}, {"type": "node", "id": 4378117219, "lat": 42.9287089, "lon": 17.6057946, "tags": {"amenity": "restaurant", "cuisine": "regional;pizza", "name": "Amfora"}}, {"type": "node", "id": 4394626134, "lat": 42.916843, "lon": 17.3988546}, {"type": "node", "id": 4394626135, "lat": 42.9168894, "lon": 17.3988121}, {"type": "node", "id": 4394626136, "lat": 42.9169029, "lon": 17.3989766}, {"type": "node", "id": 4394626137, "lat": 42.9169493, "lon": 17.3989341}, {"type": "node", "id": 4937477121, "lat": 42.7898821, "lon": 17.3454868, "tags": {"amenity": "restaurant", "contact:instagram": "restoran_herc", "name:en": "Restaurant Herc", "name:fr": "Restaurant Herc"}}, {"type": "node", "id": 4985237822, "lat": 42.9149092, "lon": 17.4704251, "tags": {"amenity": "restaurant", "name:en": "Svjeze Skoljke Fresh Shells"}}, {"type": "node", "id": 5005795109, "lat": 42.9130671, "lon": 17.627108, "tags": {"amenity": "restaurant", "name": "Adria"}}, {"type": "node", "id": 5007922743, "lat": 42.9115448, "lon": 17.6277868, "tags": {"amenity": "restaurant", "name": "Orka"}}, {"type": "node", "id": 5058295127, "lat": 42.9455285, "lon": 17.5440026, "tags": {"addr:postcode": "20356", "addr:street": "Duboka 112", "amenity": "restaurant", "cuisine": "croatian", "email": "villa_malo_misto@net.hr", "internet_access": "wlan", "name": "Restaurant Villa Malo Misto", "opening_hours": "Mo-Su 08:00-23:00", "phone": "0038520691121"}}, {"type": "node", "id": 5075277029, "lat": 42.7876988, "lon": 17.3431509, "tags": {"amenity": "restaurant", "name": "Konoba Adriatic", "name:en": "Konoba Adriatic", "name:hr": "Konoba Adriatic", "name:it": "Konoba Adriatic"}}, {"type": "node", "id": 5121274321, "lat": 42.8383272, "lon": 17.69693, "tags": {"addr:housenumber": "2", "addr:street": "Zamirje", "amenity": "cafe", "cuisine": "cake;coffee_shop;ice_cream", "name:en": "Il Dolce Momento", "opening_hours": "Mo-Su 08:00-00:00", "phone": "50403918363"}}, {"type": "node", "id": 5121491121, "lat": 42.9411137, "lon": 17.3653998, "tags": {"amenity": "cafe", "name": "Amigo", "name:en": "Amigo"}}, {"type": "node", "id": 5319005030, "lat": 42.9159886, "lon": 17.3983838, "tags": {"amenity": "restaurant", "capacity": "100", "cuisine": "regional;italian;pizza;coffee_shop;sandwich;ice_cream;seafood", "delivery": "yes", "name": "Riva", "opening_hours": "Mo-Su 10:00-22:00", "outdoor_seating": "yes", "smoking": "outside", "takeaway": "yes"}}, {"type": "node", "id": 5319005031, "lat": 42.9156606, "lon": 17.3984341, "tags": {"amenity": "restaurant", "capacity": "100", "cuisine": "regional", "name": "Vitaceae", "opening_hours": "Mo-Su 10:00-22:00", "outdoor_seating": "yes", "smoking": "outside", "takeaway": "no"}}, {"type": "node", "id": 5331885378, "lat": 42.9411402, "lon": 17.365208, "tags": {"amenity": "restaurant", "name": "Amigo"}}, {"type": "node", "id": 5744781621, "lat": 42.9256386, "lon": 17.61536, "tags": {"amenity": "restaurant", "name": "Gracja kavana"}}, {"type": "node", "id": 6449023785, "lat": 42.9168569, "lon": 17.4677938, "tags": {"amenity": "restaurant", "cuisine": "seafood", "name": "Skoljka"}}, {"type": "node", "id": 6703192585, "lat": 42.9232441, "lon": 17.3466773, "tags": {"amenity": "restaurant", "cuisine": "regional", "name": "Braenovi\u0107", "opening_hours": "13:00-22:00", "phone": "+385995054850"}}, {"type": "node", "id": 6774520041, "lat": 42.7858436, "lon": 17.3786709, "tags": {"addr:city": "Pola\u010de", "addr:housenumber": "23", "addr:street": "Pola\u010de", "amenity": "restaurant", "name": "Stella Maris"}}, {"type": "node", "id": 9110262265, "lat": 43.0018795, "lon": 17.4795022}, {"type": "node", "id": 9110262266, "lat": 43.0019776, "lon": 17.4795839}, {"type": "node", "id": 9110262267, "lat": 43.0019165, "lon": 17.4797025}, {"type": "node", "id": 9110262268, "lat": 43.0018198, "lon": 17.479615}, {"type": "node", "id": 9121832117, "lat": 42.9247514, "lon": 17.6226115, "tags": {"addr:housenumber": "32", "addr:postcode": "88390", "addr:street": "Put sv. Ante", "amenity": "cafe", "internet_access": "wlan", "name": "Caffe Bar King"}}, {"type": "node", "id": 9180077837, "lat": 42.7878194, "lon": 17.3758955, "tags": {"addr:city": "Pola\u0107e", "addr:housenumber": "46", "addr:postcode": "20226", "addr:street": "Pola\u0107e", "amenity": "restaurant", "cuisine": "regional", "name": "Konoba Gunduli\u0161te", "phone": "+385996787242"}}, {"type": "node", "id": 9456939743, "lat": 42.9243512, "lon": 17.4306499}, {"type": "node", "id": 9945755982, "lat": 42.9242168, "lon": 17.6126322, "tags": {"amenity": "restaurant", "name": "Galeb"}}, {"type": "node", "id": 9952338051, "lat": 42.9465494, "lon": 17.531444, "tags": {"addr:city": "Komarna", "addr:housenumber": "83", "addr:street": "Komarna", "amenity": "restaurant", "cuisine": "regional", "name": "Restauracja ADRIATICA", "opening_hours": "Mo-Su 09:00-23:00"}}, {"type": "node", "id": 10013369806, "lat": 42.7832589, "lon": 17.8775969}, {"type": "node", "id": 10013369807, "lat": 42.7832704, "lon": 17.877646}, {"type": "node", "id": 10013369808, "lat": 42.7831001, "lon": 17.8777023}, {"type": "node", "id": 10013369809, "lat": 42.7830965, "lon": 17.8776885}, {"type": "node", "id": 10015488368, "lat": 42.7899236, "lon": 17.8933097}, {"type": "node", "id": 10015488369, "lat": 42.7899791, "lon": 17.8933615}, {"type": "node", "id": 10015488370, "lat": 42.7899426, "lon": 17.8933689}, {"type": "node", "id": 10015488371, "lat": 42.7899299, "lon": 17.8933943}, {"type": "node", "id": 10015488372, "lat": 42.7899297, "lon": 17.8934451}, {"type": "node", "id": 10015488373, "lat": 42.7898955, "lon": 17.8934057}, {"type": "node", "id": 10015488374, "lat": 42.7899193, "lon": 17.8933613}, {"type": "node", "id": 10038316294, "lat": 42.8045892, "lon": 17.7427567}, {"type": "node", "id": 10038316295, "lat": 42.8045532, "lon": 17.7428341}, {"type": "node", "id": 10038316296, "lat": 42.8044903, "lon": 17.7427857}, {"type": "node", "id": 10038316297, "lat": 42.8044783, "lon": 17.7427084}, {"type": "node", "id": 10038316298, "lat": 42.8044682, "lon": 17.7426991}, {"type": "node", "id": 10038316299, "lat": 42.8044805, "lon": 17.7426695}, {"type": "node", "id": 10073781133, "lat": 42.8386902, "lon": 17.6961153, "tags": {"amenity": "restaurant", "name": "Natura stone"}}, {"type": "node", "id": 10134096616, "lat": 42.967465, "lon": 17.5170522, "tags": {"amenity": "cafe", "name": "Deak Wines"}}, {"type": "node", "id": 11042605816, "lat": 42.7869788, "lon": 17.8896119, "tags": {"amenity": "restaurant", "contact:facebook": "TrattoriapizzeriaLavanda", "contact:instagram": "pizzerialavanda", "cuisine": "pizza", "name": "Trattoria Pizzeria Lavanda", "outdoor_seating": "yes"}}, {"type": "node", "id": 11161359905, "lat": 42.7896405, "lon": 17.3451557, "tags": {"addr:housenumber": "3a", "addr:postcode": "20226", "addr:street": "Pomena", "amenity": "restaurant", "contact:facebook": "konobaribarmljet", "cuisine": "mediterranean;seafood", "name:en": "Konoba Ribar"}}, {"type": "node", "id": 11387148809, "lat": 42.8908741, "lon": 17.4544799, "tags": {"amenity": "restaurant", "name": "Konoba Solar"}}, {"type": "node", "id": 11934694804, "lat": 42.7883803, "lon": 17.8878078}, {"type": "node", "id": 11934694809, "lat": 42.7884074, "lon": 17.8878089}, {"type": "node", "id": 12014953320, "lat": 43.001416, "lon": 17.4803879, "tags": {"addr:city": "Blace", "addr:postcode": "20357", "amenity": "restaurant", "contact:instagram": "https://www.instagram.com/doro.taste", "name": "Doro", "opening_hours": "Mo-Su 12:00-22:00", "phone": "+385917968550"}}, {"type": "node", "id": 12100530594, "lat": 42.9443044, "lon": 17.5331578, "tags": {"addr:city": "Komarna", "addr:housenumber": "93", "addr:place": "Komarna", "addr:postcode": "20356", "amenity": "restaurant", "contact:instagram": "https://instagram.com/storijakonoba?igshid=YmMyMTA2M2Y=", "name": "Konoba \u0160torija", "opening_hours": "Mo-Su 12:00-24:00", "phone": "+385919118250"}}, {"type": "node", "id": 12463727362, "lat": 43.0017594, "lon": 17.4709796}, {"type": "node", "id": 12463727363, "lat": 43.0017295, "lon": 17.4711024}, {"type": "node", "id": 12463727364, "lat": 43.0018208, "lon": 17.471144}, {"type": "node", "id": 12463727365, "lat": 43.0018507, "lon": 17.4710212}, {"type": "node", "id": 12595478542, "lat": 42.7693763, "lon": 17.3598394, "tags": {"amenity": "cafe"}}, {"type": "way", "id": 49613866, "nodes": [630948297, 630948319, 2288593428, 631142323, 630948313, 631142339, 630948306, 631142346, 630948297], "tags": {"amenity": "restaurant", "building": "yes", "cuisine": "regional", "name": "Humska ku\u0107a"}}, {"type": "way", "id": 49643439, "nodes": [631192060, 631192063, 631192068, 631192076, 2693507112, 631192060], "tags": {"addr:city": "Neum", "addr:postcode": "88390", "addr:street": "Mimoza", "amenity": "restaurant", "building": "yes", "cuisine": "pizza,_fish,_regional", "name": "\u0160koj"}}, {"type": "way", "id": 193858780, "nodes": [2030495410, 2419926737, 2419926736, 2043654172, 2043654170, 2419926735, 2419926732, 2043654173, 2030495410], "tags": {"addr:city": "Krvavac II", "addr:housenumber": "14", "addr:street": "Splitska", "amenity": "restaurant", "building": "yes", "name": "Hotel restaurant Villa Neretva", "tourism": "hotel", "website": "http://hotel-restaurant-villa-neretva.hr"}}, {"type": "way", "id": 220063793, "nodes": [2291822798, 2291822824, 2291822814, 2291822793, 2291822798], "tags": {"amenity": "restaurant", "building": "yes", "name": "Bella Vista"}}, {"type": "way", "id": 229604826, "nodes": [2381764256, 2381764596, 2381764320, 2381764178, 2381764256], "tags": {"addr:city": "Opuzen", "addr:housenumber": "5", "addr:postcode": "20355", "addr:street": "Trg kralja Tomislava", "amenity": "cafe", "building": "yes", "internet_access": "yes", "internet_access:fee": "no", "name": "Caffe Bar DADO"}}, {"type": "way", "id": 233102839, "nodes": [2414440957, 2414440968, 2414440987, 2414440963, 2414440957], "tags": {"amenity": "cafe", "building": "yes", "internet_access": "wlan", "internet_access:fee": "no", "name": "Cafe Felix", "outdoor_seating": "yes", "smoking": "outside"}}, {"type": "way", "id": 234540404, "nodes": [2427834792, 2427834790, 2427834787, 2427834789, 2427834792], "tags": {"addr:housenumber": "1", "addr:street": "Kozarica", "amenity": "restaurant", "building": "yes", "name": "Villa Radulj", "roof:material": "roof_tiles", "roof:shape": "gabled", "tourism": "hotel", "website": "http://www.villaradulj.com/"}}, {"type": "way", "id": 279193285, "nodes": [2834281326, 2834281329, 2834281320, 2834281318, 2834281326], "tags": {"amenity": "restaurant", "building": "yes", "cuisine": "regional", "name": "Matu\u0161ko", "opening_hours": "Mo-Su 12:00-23:00", "phone": "+385997598688"}}, {"type": "way", "id": 293998187, "nodes": [2975679743, 2975679744, 2975679745, 2975679746, 2975679743], "tags": {"addr:city": "Sreser", "amenity": "restaurant", "building": "yes", "cuisine": "pizza;regional", "internet_access": "yes", "internet_access:fee": "no", "name": "Restoran Fortuna", "opening_hours": "12:00-24:00", "smoking": "separated", "takeaway": "yes", "wheelchair": "limited"}}, {"type": "way", "id": 296143181, "nodes": [2999345306, 2999345307, 2999345308, 2999345309, 9456939743, 2999345306], "tags": {"amenity": "restaurant", "building": "yes", "cuisine": "regional", "name": "Domanuta"}}, {"type": "way", "id": 301102956, "nodes": [3052104308, 3052104307, 3052104305, 3052104306, 3052104308], "tags": {"amenity": "restaurant", "building": "retail", "name": "Konoba Portun"}}, {"type": "way", "id": 375866159, "nodes": [3792078114, 3792078115, 3792078093, 3792078092, 3792078114], "tags": {"addr:city": "Slano", "addr:housenumber": "4", "addr:postcode": "20232", "addr:street": "Grguri\u0107i", "amenity": "restaurant", "bar": "yes", "building": "yes", "cuisine": "regional", "delivery": "no", "name": "Mirakul", "opening_hours": "Mo-Su 12:00-24:00", "phone": "+385 20871020"}}, {"type": "way", "id": 375866165, "nodes": [3792078666, 3792078665, 3792078660, 3792078663, 3792078666]}, {"type": "way", "id": 375866189, "nodes": [3792078662, 3792078661, 11934694809, 11934694804, 3792078650, 3792078651, 3792078662]}, {"type": "way", "id": 375983276, "nodes": [3793233157, 3793232954, 3793232942, 3793232918, 2323279903, 3793233157], "tags": {"addr:city": "Slano", "addr:housenumber": "5", "addr:postcode": "20232", "addr:street": "Obala Stjepana Radi\u0107a", "amenity": "restaurant", "building": "yes", "name": "Kolarin", "outdoor_seating": "yes", "tourism": "guest_house"}}, {"type": "way", "id": 441758442, "nodes": [4394626137, 4394626136, 4394626134, 4394626135, 4394626137], "tags": {"amenity": "restaurant", "building": "yes", "name": "Konoba Feral"}}, {"type": "way", "id": 985447438, "nodes": [9110262265, 9110262266, 9110262267, 9110262268, 9110262265], "tags": {"addr:city": "Blace", "addr:housenumber": "33", "addr:postcode": "20357", "addr:street": "Lazetina", "amenity": "restaurant", "building": "yes", "name": "Konoba Mali Ante"}}, {"type": "way", "id": 1093541288, "nodes": [10015488368, 10015488369, 10015488370, 10015488371, 10015488372, 10015488373, 10015488374, 10015488368], "tags": {"addr:city": "Slano", "amenity": "restaurant", "building": "yes", "cuisine": "regional", "email": "gastro.vista@gmail.com", "name": "Gastro Vista", "outdoor_seating": "yes", "phone": "+385 98344439", "reservation": "yes"}}, {"type": "way", "id": 1096159923, "nodes": [10038316294, 10038316295, 10038316296, 10038316297, 10038316298, 10038316299, 10038316294], "tags": {"amenity": "restaurant", "building": "yes", "cuisine": "regional;eclectic;international", "name": "Gastro Mare"}}, {"type": "way", "id": 1173930024, "nodes": [10013369806, 3792077494, 3792077495, 3792077501, 3792077505, 3792077497, 3792077496, 10013369807, 10013369808, 10013369809, 2391984671, 10013369806], "tags": {"addr:city": "Slano", "addr:country": "HR", "addr:housenumber": "57", "addr:postcode": "20232", "addr:street": "Put od Grguri\u0107a", "addr:suburb": "Grguri\u0107i", "amenity": "restaurant", "building": "yes", "cuisine": "regional", "name": "Konoba Ordinacija", "opening_hours": "Mo-Su 09:00-22:00", "phone": "+385 98312906", "website": "https://www.sweetvillagehotelbythesea.com/"}}, {"type": "way", "id": 1347405515, "nodes": [12463727362, 12463727363, 12463727364, 12463727365, 12463727362], "tags": {"amenity": "restaurant", "building": "yes", "name": "Chill Beach Bar", "phone": "+385958524392"}}, {"type": "relation", "id": 14563519, "members": [{"type": "way", "ref": 375866189, "role": "outer"}, {"type": "way", "ref": 375866165, "role": "outer"}], "tags": {"addr:city": "Slano", "addr:housenumber": "1", "addr:postcode": "20232", "addr:street": "Obala Ohmu\u010devi\u0107a", "amenity": "restaurant", "bar": "yes", "building": "commercial", "cuisine": "burger;ice_cream", "name": "Bite Bay", "opening_hours": "Mo-Su 08:00-23:00", "phone": "+385 996542638", "type": "multipolygon", "website": "https://www.facebook.com/Bite-bay-297402067710586/"}}]}