{"version": 0.6, "generator": "Overpass API 0.7.62.7 375dc00a", "osm3s": {"timestamp_osm_base": "2025-06-14T15:17:02Z", "copyright": "The data included in this document is from www.openstreetmap.org. The data is made available under ODbL."}, "elements": [{"type": "node", "id": 33755092, "lat": 28.5044652, "lon": 34.5197831, "tags": {"amenity": "restaurant", "cuisine": "italian", "name": "El Dorado"}}, {"type": "node", "id": 33756452, "lat": 28.4941072, "lon": 34.515848, "tags": {"alt_name": "\u0639\u0631\u0648\u0633\u0629 \u0627\u0644\u0628\u062d\u0631", "amenity": "restaurant", "name": "\u0639\u0631\u0648\u0633\u0629 \u0627\u0644\u0628\u062d\u0631", "name:ar": "\u0639\u0631\u0648\u0633\u0629 \u0627\u0644\u0628\u062d\u0631", "name:en": "Sea Bride"}}, {"type": "node", "id": 280131976, "lat": 28.5732151, "lon": 34.5382018, "tags": {"addr:city": "Dahab", "addr:country": "EG", "amenity": "restaurant", "name": "El Fanar Cafe", "source": "photo"}}, {"type": "node", "id": 280132016, "lat": 28.5731553, "lon": 34.538073, "tags": {"addr:city": "Dahab", "addr:country": "EG", "amenity": "restaurant", "name": "Bedwin Moon", "source": "photo"}}, {"type": "node", "id": 280143832, "lat": 28.5729626, "lon": 34.5375159, "tags": {"addr:city": "Dahab", "addr:country": "EG", "amenity": "restaurant", "name": "Camel Restaurant", "source": "photo"}}, {"type": "node", "id": 280143833, "lat": 28.5729456, "lon": 34.5374609, "tags": {"addr:city": "Dahab", "addr:country": "EG", "amenity": "restaurant", "name": "Aqua Marina Restaurant", "source": "photo"}}, {"type": "node", "id": 280143834, "lat": 28.5728871, "lon": 34.5373242, "tags": {"addr:city": "Dahab", "addr:country": "EG", "amenity": "restaurant", "name": "Titanic Cafe", "source": "photo"}}, {"type": "node", "id": 280143835, "lat": 28.5726927, "lon": 34.5368436, "tags": {"addr:city": "Dahab", "addr:country": "EG", "amenity": "restaurant", "name": "Alcapone Restaurant", "source": "photo"}}, {"type": "node", "id": 280143836, "lat": 28.5725789, "lon": 34.5366441, "tags": {"addr:city": "Dahab", "addr:country": "EG", "amenity": "restaurant", "name": "Sindbad Restaurant", "source": "photo"}}, {"type": "node", "id": 280143838, "lat": 28.57111, "lon": 34.5356114, "tags": {"addr:city": "Dahab", "addr:country": "EG", "amenity": "restaurant", "name": "Restaurant Sun Rise", "source": "photo"}}, {"type": "node", "id": 280144371, "lat": 28.6122724, "lon": 34.5530453, "tags": {"amenity": "restaurant", "name": "The Natur", "source": "photo"}}, {"type": "node", "id": 517381625, "lat": 28.5001952, "lon": 34.5161273, "tags": {"amenity": "cafe", "name": "Leila's Bakery"}}, {"type": "node", "id": 1003341700, "lat": 28.4921372, "lon": 34.5168615, "tags": {"amenity": "restaurant", "name": "Shams"}}, {"type": "node", "id": 1003341704, "lat": 28.4946842, "lon": 34.5177218, "tags": {"amenity": "restaurant", "name": "Meya Meya"}}, {"type": "node", "id": 1003341713, "lat": 28.4932589, "lon": 34.5153214, "tags": {"amenity": "cafe", "cuisine": "regional", "name": "Om Kalthom", "smoking": "yes"}}, {"type": "node", "id": 1003341716, "lat": 28.4931958, "lon": 34.5153124, "tags": {"amenity": "restaurant", "cuisine": "pizza", "name": "Pizza Stars"}}, {"type": "node", "id": 1268698933, "lat": 28.5548172, "lon": 34.5208691, "tags": {"amenity": "restaurant", "cuisine": "regional", "name": "Meya Meya"}}, {"type": "node", "id": 1383424516, "lat": 28.499789, "lon": 34.5198663, "tags": {"amenity": "cafe", "cuisine": "italian", "name": "Athanor Pizza", "name:fr": "Athanor Pizzeria"}}, {"type": "node", "id": 1387270652, "lat": 28.4989309, "lon": 34.5186784, "tags": {"amenity": "cafe", "name": "Yalla Bar"}}, {"type": "node", "id": 1396324381, "lat": 28.4982613, "lon": 34.517791, "tags": {"amenity": "restaurant", "cuisine": "fish;local;seafood", "name": "Shark", "name:fr": "Shark"}}, {"type": "node", "id": 1417442105, "lat": 28.4990578, "lon": 34.5189193, "tags": {"amenity": "cafe", "name": "Planet Coffee"}}, {"type": "node", "id": 1744037643, "lat": 28.5063411, "lon": 34.517018, "tags": {"amenity": "cafe"}}, {"type": "node", "id": 1744037665, "lat": 28.5071336, "lon": 34.5168873, "tags": {"amenity": "cafe"}}, {"type": "node", "id": 1753727759, "lat": 28.4998481, "lon": 34.5178462}, {"type": "node", "id": 1753727760, "lat": 28.4998518, "lon": 34.5177464}, {"type": "node", "id": 1753727763, "lat": 28.5000613, "lon": 34.5178563}, {"type": "node", "id": 1753727764, "lat": 28.500065, "lon": 34.5177565}, {"type": "node", "id": 1755481437, "lat": 28.4952972, "lon": 34.5172591, "tags": {"amenity": "cafe", "name": "Every Day"}}, {"type": "node", "id": 1755481438, "lat": 28.4960332, "lon": 34.5167373, "tags": {"amenity": "cafe", "name": "LavAzza"}}, {"type": "node", "id": 1755481479, "lat": 28.4957871, "lon": 34.5169791}, {"type": "node", "id": 1755481480, "lat": 28.495807, "lon": 34.5170544}, {"type": "node", "id": 1755481482, "lat": 28.495944, "lon": 34.5169253}, {"type": "node", "id": 1755481485, "lat": 28.4959639, "lon": 34.5170006}, {"type": "node", "id": 1757572271, "lat": 28.500278, "lon": 34.5195845, "tags": {"amenity": "restaurant", "name": "Laziz Burgers"}}, {"type": "node", "id": 1758864464, "lat": 28.5031688, "lon": 34.5199573, "tags": {"amenity": "restaurant", "name": "Art Cafe Amanda"}}, {"type": "node", "id": 1758864465, "lat": 28.5046792, "lon": 34.5198744, "tags": {"amenity": "restaurant", "name": "El Garden Stars"}}, {"type": "node", "id": 1758864466, "lat": 28.5035555, "lon": 34.5200293, "tags": {"amenity": "restaurant", "name": "The Arisha"}}, {"type": "node", "id": 1758865543, "lat": 28.501434, "lon": 34.5203929, "tags": {"amenity": "restaurant", "name": "Seaduction"}}, {"type": "node", "id": 1758877560, "lat": 28.5001992, "lon": 34.5197982, "tags": {"amenity": "cafe", "name:an": "Karkor"}}, {"type": "node", "id": 1758877568, "lat": 28.5003173, "lon": 34.5197701, "tags": {"amenity": "cafe"}}, {"type": "node", "id": 1762657574, "lat": 28.4901973, "lon": 34.5160858, "tags": {"amenity": "restaurant", "cuisine": "italian_pizza", "name": "Ramez & Paola"}}, {"type": "node", "id": 1762657576, "lat": 28.4903632, "lon": 34.5161207, "tags": {"amenity": "restaurant", "name": "Penguin"}}, {"type": "node", "id": 1762657577, "lat": 28.4907304, "lon": 34.5162106, "tags": {"amenity": "restaurant", "name": "Palm Beach"}}, {"type": "node", "id": 1762657578, "lat": 28.491117, "lon": 34.516468, "tags": {"amenity": "restaurant", "name": "Happy Land"}}, {"type": "node", "id": 1762657579, "lat": 28.4912867, "lon": 34.5165539, "tags": {"amenity": "restaurant", "name": "New Sphinx"}}, {"type": "node", "id": 1762657580, "lat": 28.4915696, "lon": 34.5166826, "tags": {"amenity": "restaurant", "name": "Sakara"}}, {"type": "node", "id": 1762657581, "lat": 28.4935875, "lon": 34.5173693, "tags": {"amenity": "restaurant", "name": "Dolphin"}}, {"type": "node", "id": 1762657583, "lat": 28.4948321, "lon": 34.5176911, "tags": {"amenity": "restaurant", "name": "Geo Cafe"}}, {"type": "node", "id": 1762657584, "lat": 28.4947473, "lon": 34.5175409, "tags": {"amenity": "restaurant", "name": "Steak House"}}, {"type": "node", "id": 1762657585, "lat": 28.4959825, "lon": 34.5169187, "tags": {"amenity": "restaurant", "name": "Bamboo House"}}, {"type": "node", "id": 1762657586, "lat": 28.4962653, "lon": 34.5168114, "tags": {"amenity": "restaurant", "name": "Caribbean", "name:en": "Carubbean"}}, {"type": "node", "id": 1762657589, "lat": 28.4967934, "lon": 34.5167685, "tags": {"amenity": "restaurant", "name": "Alcapone", "name:en": "Al Capone"}}, {"type": "node", "id": 1762657591, "lat": 28.4968877, "lon": 34.516747, "tags": {"amenity": "restaurant", "name": "Alladin"}}, {"type": "node", "id": 1762657593, "lat": 28.49718, "lon": 34.5168328, "tags": {"amenity": "restaurant", "name": "Elmanar"}}, {"type": "node", "id": 1762657594, "lat": 28.4972648, "lon": 34.5168757, "tags": {"amenity": "restaurant", "name": "Chinese Restaurant"}}, {"type": "node", "id": 1762657596, "lat": 28.4973497, "lon": 34.5169401, "tags": {"amenity": "restaurant", "name": "Ali Baba"}}, {"type": "node", "id": 1762657600, "lat": 28.4976888, "lon": 34.517219, "tags": {"amenity": "restaurant", "name": "Green Valley"}}, {"type": "node", "id": 1762657601, "lat": 28.4978054, "lon": 34.5173416, "tags": {"addr:city": "Dahab", "addr:postcode": "55555", "addr:street": "El Masbat", "amenity": "restaurant", "name": "El Fanar", "phone": "+20 100 307 7173"}}, {"type": "node", "id": 1762657603, "lat": 28.4980383, "lon": 34.5175652, "tags": {"amenity": "restaurant", "cuisine": "fish;seafood", "internet_access": "wlan", "name": "Nemo"}}, {"type": "node", "id": 1762657604, "lat": 28.4981788, "lon": 34.5177009, "tags": {"amenity": "restaurant", "name": "Al Pacino"}}, {"type": "node", "id": 1762657606, "lat": 28.4985605, "lon": 34.5180945, "tags": {"amenity": "restaurant", "cuisine": "breakfast;fish;grill;pasta;pizza;seafood", "internet_access": "wlan", "name": "Sababa"}}, {"type": "node", "id": 1762657607, "lat": 28.499069, "lon": 34.5191048, "tags": {"amenity": "restaurant", "name": "Fresh Fish"}}, {"type": "node", "id": 1762657608, "lat": 28.4990784, "lon": 34.5192229, "tags": {"amenity": "restaurant", "cuisine": "breakfast;indian;local", "name": "Nirvana"}}, {"type": "node", "id": 1763565042, "lat": 28.4891018, "lon": 34.5159143}, {"type": "node", "id": 1763565044, "lat": 28.4891269, "lon": 34.5158045}, {"type": "node", "id": 1763565047, "lat": 28.4893339, "lon": 34.5159829}, {"type": "node", "id": 1763565050, "lat": 28.489359, "lon": 34.5158731}, {"type": "node", "id": 1866018135, "lat": 28.5072119, "lon": 34.5168757, "tags": {"amenity": "restaurant", "cuisine": "seafood", "name": "Marim fur fish"}}, {"type": "node", "id": 2134400609, "lat": 28.5101537, "lon": 34.5154384, "tags": {"amenity": "cafe", "name:en": "Zohbi Chicken"}}, {"type": "node", "id": 2134404815, "lat": 28.5064846, "lon": 34.5179659, "tags": {"amenity": "cafe"}}, {"type": "node", "id": 2134404826, "lat": 28.5072276, "lon": 34.5172673, "tags": {"amenity": "restaurant", "cuisine": "seafood"}}, {"type": "node", "id": 2582238379, "lat": 28.4979084, "lon": 34.517475, "tags": {"amenity": "restaurant", "name": "Friends", "phone": "+20 69 364 0232"}}, {"type": "node", "id": 3236802809, "lat": 28.4952405, "lon": 34.5173203, "tags": {"amenity": "restaurant", "cuisine": "sushi", "name": "Wasabi"}}, {"type": "node", "id": 3236828562, "lat": 28.495379, "lon": 34.517141, "tags": {"amenity": "restaurant", "name": "Castello"}}, {"type": "node", "id": 3236892370, "lat": 28.4973074, "lon": 34.5169094, "tags": {"amenity": "restaurant", "cuisine": "regional", "ele": "1", "name": "Forsha's Egyptian Kitchen", "smoking": "yes"}}, {"type": "node", "id": 3237656861, "lat": 28.5552366, "lon": 34.5211042, "tags": {"amenity": "restaurant", "cuisine": "regional", "name": "Sadiki"}}, {"type": "node", "id": 3238464492, "lat": 28.4908589, "lon": 34.5162713, "tags": {"amenity": "restaurant", "cuisine": "regional", "name": "Funny Mummy", "smoking": "yes"}}, {"type": "node", "id": 3239099350, "lat": 28.4920939, "lon": 34.5156324, "tags": {"amenity": "restaurant", "cuisine": "regional", "name": "King Falafel"}}, {"type": "node", "id": 3239099351, "lat": 28.4919608, "lon": 34.5156069, "tags": {"addr:street": "\u0634\u0627\u0631\u0639 \u0645\u0634\u0631\u0628\u0629", "amenity": "restaurant", "cuisine": "regional", "name": "Yum Yum"}}, {"type": "node", "id": 3239829570, "lat": 28.4925949, "lon": 34.5159194, "tags": {"amenity": "restaurant", "cuisine": "regional", "name": "Yum Yum"}}, {"type": "node", "id": 3239987305, "lat": 28.4973793, "lon": 34.516771, "tags": {"amenity": "restaurant", "cuisine": "thai", "name": "Blue House", "smoking": "yes"}}, {"type": "node", "id": 3283831297, "lat": 28.6122685, "lon": 34.5553682, "tags": {"amenity": "restaurant", "name": "Peace Land"}}, {"type": "node", "id": 3284000507, "lat": 28.4881351, "lon": 34.5137554}, {"type": "node", "id": 3284000508, "lat": 28.4880402, "lon": 34.5139025}, {"type": "node", "id": 3284000509, "lat": 28.4879573, "lon": 34.5138334}, {"type": "node", "id": 3284000510, "lat": 28.4880522, "lon": 34.5136862}, {"type": "node", "id": 3284006564, "lat": 28.4879987, "lon": 34.5138679, "tags": {"entrance": "yes"}}, {"type": "node", "id": 3285315161, "lat": 28.4917389, "lon": 34.5155683, "tags": {"amenity": "restaurant"}}, {"type": "node", "id": 3339531901, "lat": 28.5010731, "lon": 34.5134817, "tags": {"amenity": "cafe"}}, {"type": "node", "id": 3615286103, "lat": 28.4990984, "lon": 34.51938, "tags": {"amenity": "restaurant", "cuisine": "regional", "internet_access": "wlan", "name": "Shells", "smoking": "yes"}}, {"type": "node", "id": 4359241696, "lat": 28.4927926, "lon": 34.515918, "tags": {"amenity": "restaurant", "name": "Portsaid restaurant", "name:ar": "\u0645\u0637\u0639\u0645 \u0627\u0644\u0628\u0648\u0631\u0633\u0639\u064a\u062f\u064a"}}, {"type": "node", "id": 4708808390, "lat": 28.4998527, "lon": 34.5197146, "tags": {"amenity": "restaurant", "cuisine": "italian;russian", "description": "They serve many different types of soup with a changing daily menu.", "internet_access": "wlan", "name": "Red Cat", "name:en": "Red Cat", "opening_hours": "Sa-Th 13:00-16:00, 17:00-22:00", "operator": "Marianna Yakutova", "outdoor_seating": "yes", "phone": "+201091140113", "website": "https://facebook.com/REDCATdahab"}}, {"type": "node", "id": 5493169819, "lat": 28.4991872, "lon": 34.5199483, "tags": {"amenity": "restaurant", "description": "wifi", "name": "Bedouin Son's"}}, {"type": "node", "id": 5497106736, "lat": 28.4990299, "lon": 34.5199446, "tags": {"amenity": "cafe", "name": "Bedouin Son's"}}, {"type": "node", "id": 5497150232, "lat": 28.4990063, "lon": 34.5188192, "tags": {"amenity": "cafe", "name": "NuNu"}}, {"type": "node", "id": 5497150238, "lat": 28.4987309, "lon": 34.5180349, "tags": {"amenity": "cafe", "name": "Tiamo"}}, {"type": "node", "id": 5497204864, "lat": 28.4953253, "lon": 34.516946, "tags": {"amenity": "restaurant", "cuisine": "thai"}}, {"type": "node", "id": 5502076216, "lat": 28.4999001, "lon": 34.520545, "tags": {"amenity": "cafe", "name": "Sindbad"}}, {"type": "node", "id": 5502183515, "lat": 28.4985751, "lon": 34.5179402, "tags": {"amenity": "restaurant", "name": "Tapasina"}}, {"type": "node", "id": 5506714323, "lat": 28.5065144, "lon": 34.5179183, "tags": {"amenity": "restaurant", "name": "Al sharkawy"}}, {"type": "node", "id": 5777003962, "lat": 28.5728761, "lon": 34.5370735, "tags": {"amenity": "restaurant", "name": "Aqua Marina Restaurant"}}, {"type": "node", "id": 5791946453, "lat": 28.490205, "lon": 34.5150561, "tags": {"amenity": "restaurant", "cuisine": "barbecue;grill;local", "name": "Al Masry (Restaurant and BBQ)"}}, {"type": "node", "id": 5919962686, "lat": 28.5003415, "lon": 34.5157548, "tags": {"amenity": "restaurant", "name:en": "Baba Ali", "name:ko": "\ubc14\ubc14\uc54c\ub9ac", "phone": "01286104494"}}, {"type": "node", "id": 6109014786, "lat": 28.4940819, "lon": 34.514692, "tags": {"amenity": "cafe", "cuisine": "regional;arab", "name:en": "Uncle Sandwich"}}, {"type": "node", "id": 6123638186, "lat": 28.4998804, "lon": 34.5198562, "tags": {"amenity": "cafe"}}, {"type": "node", "id": 6131318985, "lat": 28.4941952, "lon": 34.5175209, "tags": {"amenity": "restaurant", "cuisine": "arab;breakfast;coffee_shop;french", "internet_access": "wlan", "name": "Garage restaurant", "name:en": "Garage restaurant (staff is very friendly)", "opening_hours": "Mo-Su 12:00-02:00"}}, {"type": "node", "id": 6131319085, "lat": 28.4952002, "lon": 34.5165068, "tags": {"amenity": "restaurant", "cuisine": "regional", "name:en": "Koshary Alhamdulilah", "opening_hours": "Mo-Su 14:00-22:00", "outdoor_seating": "yes", "phone": "+20 1006072612", "website": "https://www.kosharyalhamdulilah.com"}}, {"type": "node", "id": 6221958485, "lat": 28.500265, "lon": 34.5197086, "tags": {"amenity": "restaurant", "name:en": "Caliente"}}, {"type": "node", "id": 6254514985, "lat": 28.4940966, "lon": 34.5157368, "tags": {"amenity": "restaurant", "cuisine": "regional", "name": "Koshary"}}, {"type": "node", "id": 6324282285, "lat": 28.4929641, "lon": 34.5159103, "tags": {"addr:street": "\u0634\u0627\u0631\u0639 \u0645\u0634\u0631\u0628\u0629", "amenity": "restaurant", "cuisine": "arab;barbecue;chicken", "name": "King Chicken", "opening_hours": "Fr-We 12:00-00:00", "phone": "01009090628"}}, {"type": "node", "id": 6882022686, "lat": 28.4995242, "lon": 34.5196158, "tags": {"amenity": "restaurant", "name:en": "Abo Ahmed Restaurant"}}, {"type": "node", "id": 6883751085, "lat": 28.4995101, "lon": 34.5196705, "tags": {"amenity": "restaurant", "name": "Feteer El Enjekeh", "name:en": "Feteer & Pizza"}}, {"type": "node", "id": 7099718985, "lat": 28.5901301, "lon": 34.5455634, "tags": {"amenity": "cafe", "name:en": "Ibrahim\u2019s Spaceship"}}, {"type": "node", "id": 7164499086, "lat": 28.500421, "lon": 34.5197826, "tags": {"amenity": "restaurant", "name:en": "zanooba slow cooking"}}, {"type": "node", "id": 7167746385, "lat": 28.5001668, "lon": 34.5171034, "tags": {"amenity": "restaurant", "name:en": "Homemade vegetarian Egyptian food"}}, {"type": "node", "id": 7746554269, "lat": 28.5109182, "lon": 34.5154436}, {"type": "node", "id": 7746554270, "lat": 28.510849, "lon": 34.5155178}, {"type": "node", "id": 7746554271, "lat": 28.5109561, "lon": 34.5154863}, {"type": "node", "id": 7746554272, "lat": 28.5109669, "lon": 34.5154599}, {"type": "node", "id": 8148456717, "lat": 28.4011324, "lon": 34.7423553, "tags": {"amenity": "restaurant", "name:en": "Fish Restaurant", "name:ko": "\uc0dd\uc120\uad6c\uc774 \uc2dd\ub2f9"}}, {"type": "node", "id": 8187850917, "lat": 28.5090085, "lon": 34.5161777, "tags": {"amenity": "cafe", "name": "Apaduka"}}, {"type": "node", "id": 8187851017, "lat": 28.4912487, "lon": 34.515416, "tags": {"amenity": "restaurant", "cuisine": "arab;oriental;regional", "name": "Alwad el sheikh"}}, {"type": "node", "id": 8288608578, "lat": 28.4990657, "lon": 34.5197149, "tags": {"amenity": "cafe", "name": "Lindy's"}}, {"type": "node", "id": 8810522317, "lat": 28.4997552, "lon": 34.5195135, "tags": {"amenity": "restaurant", "cuisine": "japanese", "name": "Seaweed Sushi Bar", "opening_hours": "Mo-Su 12:00-23:00"}}, {"type": "node", "id": 8810575317, "lat": 28.5000406, "lon": 34.5195165, "tags": {"amenity": "restaurant", "cuisine": "asian;indonesian", "name": "Box Meal", "name:en": "Box Meal", "opening_hours": "Mo-Su 12:00-00:00"}}, {"type": "node", "id": 8892904868, "lat": 28.5000939, "lon": 34.5206507, "tags": {"amenity": "cafe", "name": "Coffee Wheel"}}, {"type": "node", "id": 8985371918, "lat": 28.5001895, "lon": 34.5170337, "tags": {"amenity": "restaurant", "name:en": "the vegan lab"}}, {"type": "node", "id": 9023380017, "lat": 28.5002457, "lon": 34.5183508, "tags": {"amenity": "restaurant", "name:en": "Namaste"}}, {"type": "node", "id": 9042665517, "lat": 28.4990904, "lon": 34.5194202, "tags": {"amenity": "restaurant", "name:en": "Sea Soul"}}, {"type": "node", "id": 9278232417, "lat": 28.4941214, "lon": 34.5161183, "tags": {"amenity": "restaurant", "name:en": "Bashk-Ha"}}, {"type": "node", "id": 9287931617, "lat": 28.4997237, "lon": 34.5194932, "tags": {"amenity": "restaurant", "name:en": "S-Aweed Sushi"}}, {"type": "node", "id": 9327842917, "lat": 28.5065673, "lon": 34.5170336, "tags": {"amenity": "cafe", "name": "\u041b\u043e\u043a\u0430\u043b\u044c\u043d\u043e\u0435 \u043a\u0430\u0444\u0435", "name:ru": "\u041e\u0447\u0435\u043d\u044c \u0434\u0435\u0448\u0435\u0432\u043e \u0438 \u0432\u043a\u0443\u0441\u043d\u043e"}}, {"type": "node", "id": 9385589017, "lat": 28.4978554, "lon": 34.5174149, "tags": {"amenity": "restaurant", "cuisine": "fish;local;pizza", "name:en": "Blue House"}}, {"type": "node", "id": 9386569417, "lat": 28.4961593, "lon": 34.5168085, "tags": {"amenity": "cafe", "name:en": "Old Every Day"}}, {"type": "node", "id": 9388180018, "lat": 28.5005673, "lon": 34.5158923, "tags": {"amenity": "cafe", "name:en": "Coffee Corner"}}, {"type": "node", "id": 9388705717, "lat": 28.4913923, "lon": 34.5155042, "tags": {"amenity": "cafe", "cuisine": "tea", "name:en": "Tea Garden Cafe", "opening_hours": "Mo-Su 14:00-00:00"}}, {"type": "node", "id": 9417740587, "lat": 28.496728, "lon": 34.516843}, {"type": "node", "id": 9417740588, "lat": 28.4969033, "lon": 34.5168481}, {"type": "node", "id": 9417740589, "lat": 28.496906, "lon": 34.5167281}, {"type": "node", "id": 9417740590, "lat": 28.4967307, "lon": 34.516723}, {"type": "node", "id": 9608289417, "lat": 28.4954403, "lon": 34.5163729, "tags": {"amenity": "restaurant", "name:en": "Si Omar"}}, {"type": "node", "id": 9608289418, "lat": 28.4953215, "lon": 34.5165002, "tags": {"amenity": "restaurant", "name:en": "KFC (not official)"}}, {"type": "node", "id": 10269377909, "lat": 28.508808, "lon": 34.5160503, "tags": {"amenity": "cafe", "cuisine": "dessert", "internet_access": "wlan", "internet_access:fee": "yes", "outdoor_seating": "yes", "survey:date": "2022-12-17", "wheelchair": "limited"}}, {"type": "node", "id": 10303450812, "lat": 28.4885996, "lon": 34.5142216, "tags": {"amenity": "restaurant", "name": "\u0645\u0648\u0645\u0628\u0627\u064a", "name:ar": "\u0645\u0648\u0645\u0628\u0627\u064a", "name:en": "Mumbai"}}, {"type": "node", "id": 10556531638, "lat": 28.5007993, "lon": 34.5160189, "tags": {"amenity": "cafe", "cuisine": "fish;seafood;local", "name": "Prawn House", "phone": "+20 1093810231", "takeaway": "yes"}}, {"type": "node", "id": 10571021409, "lat": 28.4905053, "lon": 34.5152667, "tags": {"amenity": "restaurant", "cuisine": "chinese", "name:en": "Dragon House"}}, {"type": "node", "id": 10571021410, "lat": 28.4906936, "lon": 34.5153478, "tags": {"amenity": "cafe", "cuisine": "tea", "name:en": "Mamali"}}, {"type": "node", "id": 10578858148, "lat": 28.4933071, "lon": 34.5159795, "tags": {"amenity": "cafe", "name:en": "Brooklyn coffee shop"}}, {"type": "node", "id": 10578859741, "lat": 28.4921078, "lon": 34.5130759, "tags": {"amenity": "cafe"}}, {"type": "node", "id": 10578859743, "lat": 28.4939067, "lon": 34.5142813, "tags": {"amenity": "restaurant", "cuisine": "local", "name:en": "Alshaaf", "phone": "01272144019"}}, {"type": "node", "id": 10578859843, "lat": 28.4941196, "lon": 34.5144368, "tags": {"amenity": "cafe", "name:en": "Al Mashraba"}}, {"type": "node", "id": 10578860142, "lat": 28.4940822, "lon": 34.5156176, "tags": {"amenity": "restaurant", "cuisine": "pizza;sandwich", "name:en": "The king"}}, {"type": "node", "id": 10578860441, "lat": 28.4925551, "lon": 34.5154938, "tags": {"amenity": "cafe", "name:en": "Abu Ali"}}, {"type": "node", "id": 10578996041, "lat": 28.48754, "lon": 34.5155124, "tags": {"amenity": "restaurant", "name:en": "Ghazala lounge"}}, {"type": "node", "id": 10578996141, "lat": 28.48777, "lon": 34.515578, "tags": {"amenity": "cafe", "name:en": "Flamingo Seaview"}}, {"type": "node", "id": 10578996541, "lat": 28.4944907, "lon": 34.5176416, "tags": {"amenity": "restaurant", "name:en": "Lindy's"}}, {"type": "node", "id": 10578996542, "lat": 28.4950231, "lon": 34.5175709, "tags": {"amenity": "restaurant", "name:en": "Dahabians house"}}, {"type": "node", "id": 10578996543, "lat": 28.495762, "lon": 34.5169985, "tags": {"amenity": "restaurant", "name:en": "Downtown"}}, {"type": "node", "id": 10702670501, "lat": 28.5729634, "lon": 34.5373915, "tags": {"amenity": "restaurant", "contact:facebook": "https://www.facebook.com/bluestarblueholedahab/", "name": "\u0645\u0637\u0639\u0645 \u0628\u0644\u0648 \u0633\u062a\u0627\u0631", "name:ar": "\u0645\u0637\u0639\u0645 \u0628\u0644\u0648 \u0633\u062a\u0627\u0631", "name:en": "Blue Star Restaurant"}}, {"type": "node", "id": 11649308826, "lat": 28.5065011, "lon": 34.5185304, "tags": {"amenity": "restaurant", "name": "Tina Tent"}}, {"type": "node", "id": 11649308830, "lat": 28.5067017, "lon": 34.5166663}, {"type": "node", "id": 11649308831, "lat": 28.506695, "lon": 34.5168035}, {"type": "node", "id": 11649308832, "lat": 28.5065778, "lon": 34.516805}, {"type": "node", "id": 11649308833, "lat": 28.5065801, "lon": 34.5166564}, {"type": "node", "id": 11649308853, "lat": 28.510431, "lon": 34.515532, "tags": {"amenity": "restaurant", "cuisine": "fish", "name": "Miami Seafood"}}, {"type": "node", "id": 11656294121, "lat": 28.5044755, "lon": 34.515593, "tags": {"amenity": "cafe", "name": "Arabian Tea & Coffee"}}, {"type": "way", "id": 163692820, "nodes": [1753727760, 1753727764, 1753727763, 1753727759, 1753727760], "tags": {"amenity": "restaurant", "building": "yes", "name": "Tota Restaurant"}}, {"type": "way", "id": 163879257, "nodes": [1755481482, 1755481479, 1755481480, 1755481485, 1755481482], "tags": {"amenity": "restaurant", "name": "Same Same But Different"}}, {"type": "way", "id": 164752411, "nodes": [1763565050, 1763565047, 1763565042, 1763565044, 1763565050], "tags": {"addr:city": "Dahab", "addr:street": "\u0645\u0634\u0631\u0628\u0629", "amenity": "restaurant", "building": "roof", "building:levels": "1", "name": "Star Dahab"}}, {"type": "way", "id": 321647020, "nodes": [3284000507, 3284000508, 3284006564, 3284000509, 3284000510, 3284000507], "tags": {"addr:city": "Dahab", "addr:street": "\u0634\u0627\u0631\u0639 \u0645\u0634\u0631\u0628\u0629", "amenity": "restaurant", "building": "yes", "name": "Mona Mama"}}, {"type": "way", "id": 829996140, "nodes": [7746554269, 7746554270, 7746554271, 7746554272, 7746554269], "tags": {"addr:city": "Dahab", "amenity": "cafe", "building": "yes", "internet_access": "yes", "name": "Shanti Cafe"}}, {"type": "way", "id": 1021092742, "nodes": [9417740590, 9417740589, 9417740588, 9417740587, 9417740590], "tags": {"amenity": "restaurant"}}, {"type": "way", "id": 1253297796, "nodes": [11649308830, 11649308831, 11649308832, 11649308833, 11649308830], "tags": {"amenity": "restaurant", "building": "yes", "cuisine": "pizza", "name": "Mama Mia"}}]}