{"version": 0.6, "generator": "Overpass API 0.7.62.7 375dc00a", "osm3s": {"timestamp_osm_base": "2025-06-14T15:26:15Z", "copyright": "The data included in this document is from www.openstreetmap.org. The data is made available under ODbL."}, "elements": [{"type": "node", "id": 2451009842, "lat": 39.1060052, "lon": 39.5481335, "tags": {"amenity": "restaurant", "cuisine": "regional", "name": "Lale"}}, {"type": "node", "id": 4471657382, "lat": 39.1044112, "lon": 39.5448672}, {"type": "node", "id": 4471657383, "lat": 39.1043907, "lon": 39.5449253}, {"type": "node", "id": 4471657384, "lat": 39.1042808, "lon": 39.5448608}, {"type": "node", "id": 4471657385, "lat": 39.1043013, "lon": 39.5448027}, {"type": "node", "id": 4471732457, "lat": 39.1048121, "lon": 39.5456395, "tags": {"amenity": "restaurant", "name": "Celal Do\u011fan Restaurant"}}, {"type": "node", "id": 6288444725, "lat": 39.1816078, "lon": 39.6873039}, {"type": "node", "id": 6288444726, "lat": 39.1816363, "lon": 39.6873535}, {"type": "node", "id": 6288444728, "lat": 39.1815358, "lon": 39.6873839}, {"type": "node", "id": 6288444729, "lat": 39.1815571, "lon": 39.6873284}, {"type": "node", "id": 6288444730, "lat": 39.1815991, "lon": 39.6874298}, {"type": "node", "id": 6288444731, "lat": 39.1815604, "lon": 39.6874176}, {"type": "node", "id": 9550282017, "lat": 39.1050584, "lon": 39.5477763, "tags": {"amenity": "restaurant", "name": "Mojen"}}, {"type": "node", "id": 9721217475, "lat": 39.1042526, "lon": 39.5468904, "tags": {"amenity": "cafe", "name": "OT"}}, {"type": "node", "id": 9721238520, "lat": 39.1064053, "lon": 39.5480433, "tags": {"amenity": "restaurant", "name": "Loqma"}}, {"type": "node", "id": 10672232359, "lat": 39.116299, "lon": 39.6223858, "tags": {"addr:city": "Tunceli", "addr:district": "Merkez", "addr:neighbourhood": "G\u00fcle\u00e7 K\u00f6y\u00fc", "addr:postcode": "62000", "addr:street": "Sinan Mezras\u0131", "amenity": "restaurant", "cuisine": "regional;kebab", "name": "Sinan Play K\u00f6y Lokantas\u0131"}}, {"type": "node", "id": 11202415766, "lat": 39.1103287, "lon": 39.5380584, "tags": {"addr:city": "Tunceli", "addr:district": "Merkez", "addr:housenumber": "17", "addr:postcode": "62000", "air_conditioning": "yes", "amenity": "restaurant", "bar": "yes", "cuisine": "regional", "delivery": "no", "diet:gluten_free": "no", "diet:halal": "yes", "diet:lactose_free": "no", "diet:pescetarian": "no", "diet:vegan": "no", "diet:vegetarian": "no", "internet_access": "no", "microbrewery": "no", "name": "Dikilita\u015f Restaurant", "opening_hours": "Mo-Su 08:00-01:00", "phone": "0428 212 11 33", "smoking": "outside", "wheelchair": "limited"}}, {"type": "node", "id": 11202444937, "lat": 39.1922834, "lon": 39.6917434, "tags": {"addr:city": "tunceli", "addr:neighbourhood": "G\u00f6k\u00e7ek", "addr:street": "Kutudere", "amenity": "restaurant", "cuisine": "burger;regional;chicken;sandwich;alchol", "name": "Kutudere Dinlenme Tesisleri", "outdoor_seating": "yes"}}, {"type": "node", "id": 11265023194, "lat": 39.1066607, "lon": 39.5463816, "tags": {"amenity": "restaurant", "name": "Zembul Kadin Kooperatifi"}}, {"type": "node", "id": 11668866038, "lat": 39.0775887, "lon": 39.5347839, "tags": {"amenity": "cafe", "name": "Helvac\u0131 Ali"}}, {"type": "node", "id": 11780088933, "lat": 39.0776398, "lon": 39.5341799}, {"type": "node", "id": 11780088934, "lat": 39.077763, "lon": 39.5342616}, {"type": "node", "id": 11780088935, "lat": 39.0777068, "lon": 39.5344134}, {"type": "node", "id": 11780088936, "lat": 39.0775763, "lon": 39.5343387}, {"type": "node", "id": 11780088937, "lat": 39.077609, "lon": 39.534257}, {"type": "way", "id": 450242973, "nodes": [4471657382, 4471657383, 4471657384, 4471657385, 4471657382], "tags": {"amenity": "restaurant", "building": "house", "name": "Munzur Baba Restaurant", "roof:colour": "#a36266", "roof:shape": "gabled"}}, {"type": "way", "id": 671523353, "nodes": [6288444725, 6288444726, 6288444730, 6288444731, 6288444728, 6288444729, 6288444725], "tags": {"addr:city": "dersim", "addr:district": "p\u00fcl\u00fcm\u00fcr", "addr:neighbourhood": "P\u00fcl\u00fcm\u00fcr", "amenity": "restaurant", "building": "yes", "cuisine": "bal\u0131k;fish;tavuk;chicken;hamburger", "name": "Kara Haydar\u0131n Yeri", "opening_hours": "Mo-Su 10:00-22:00", "outdoor_seating": "yes"}}, {"type": "way", "id": 1268332185, "nodes": [11780088933, 11780088934, 11780088935, 11780088936, 11780088937, 11780088933], "tags": {"amenity": "cafe", "building": "yes", "name": "Macbear"}}]}