{"version": 0.6, "generator": "Overpass API 0.7.62.7 375dc00a", "osm3s": {"timestamp_osm_base": "2025-06-14T14:50:30Z", "copyright": "The data included in this document is from www.openstreetmap.org. The data is made available under ODbL."}, "elements": [{"type": "node", "id": 1618070654, "lat": 37.6337185, "lon": 26.0879461, "tags": {"amenity": "restaurant", "name:en": "Pashalia", "type": "tavern"}}, {"type": "node", "id": 1800569724, "lat": 37.630316, "lon": 26.1786805, "tags": {"amenity": "cafe", "cuisine": "greek"}}, {"type": "node", "id": 1801817063, "lat": 37.6328904, "lon": 26.0882225, "tags": {"amenity": "cafe", "cuisine": "cake"}}, {"type": "node", "id": 1801939382, "lat": 37.5570596, "lon": 26.1174428, "tags": {"amenity": "restaurant", "name": "\u03a3\u03c4\u03bf \u0393\u03c5\u03b1\u03bb\u03cc \u039a\u03ac\u03bd\u03b5\u03b9 \u03a6\u03bf\u03c5\u03c1\u03c4\u03bf\u03cd\u03bd\u03b1"}}, {"type": "node", "id": 2407973765, "lat": 37.6317831, "lon": 26.102522}, {"type": "node", "id": 2407973767, "lat": 37.6318333, "lon": 26.1023473}, {"type": "node", "id": 2407973768, "lat": 37.631892, "lon": 26.1025719}, {"type": "node", "id": 2407973770, "lat": 37.6319422, "lon": 26.1023972}, {"type": "node", "id": 2904911041, "lat": 37.6303842, "lon": 26.1792846, "tags": {"amenity": "cafe", "name": "Rififi"}}, {"type": "node", "id": 2904911042, "lat": 37.6130973, "lon": 26.2188526, "tags": {"amenity": "restaurant", "name": "Plaka"}}, {"type": "node", "id": 2904911043, "lat": 37.622221, "lon": 26.3047923, "tags": {"amenity": "restaurant", "name:en": "Kritikos"}}, {"type": "node", "id": 2905817773, "lat": 37.6002781, "lon": 26.1013076, "tags": {"amenity": "cafe", "name": "Kantina"}}, {"type": "node", "id": 4357682393, "lat": 37.6151664, "lon": 26.2954446, "tags": {"amenity": "restaurant"}}, {"type": "node", "id": 4357759593, "lat": 37.6228319, "lon": 26.3049805, "tags": {"amenity": "restaurant", "cuisine": "greek"}}, {"type": "node", "id": 4366585646, "lat": 37.6308676, "lon": 26.1696989, "tags": {"amenity": "restaurant", "name": "\u039a\u03b1\u03bb\u03c5\u03c8\u03ce", "name:el": "\u039a\u03b1\u03bb\u03c5\u03c8\u03ce", "name:en": "Calypso"}}, {"type": "node", "id": 4366585652, "lat": 37.6304574, "lon": 26.1708278, "tags": {"amenity": "restaurant", "name": "\u03a0\u03cc\u03c0\u03b7", "name:de": "Popi", "name:el": "\u03a0\u03cc\u03c0\u03b7", "name:en": "Popi"}}, {"type": "node", "id": 4368262447, "lat": 37.6306853, "lon": 26.1042071, "tags": {"amenity": "cafe"}}, {"type": "node", "id": 4368262448, "lat": 37.6306753, "lon": 26.1040947, "tags": {"amenity": "restaurant", "cuisine": "regional"}}, {"type": "node", "id": 4368262449, "lat": 37.6305606, "lon": 26.1038034, "tags": {"amenity": "restaurant", "cuisine": "seafood", "name": "\u039f \u039a\u03b9\u03b1\u03bb\u03ac\u03c1\u03b7\u03c2", "phone": "+30 2275 071227"}}, {"type": "node", "id": 4370155130, "lat": 37.6223215, "lon": 26.3047504, "tags": {"amenity": "restaurant"}}, {"type": "node", "id": 4370155131, "lat": 37.6225052, "lon": 26.3047598, "tags": {"amenity": "restaurant"}}, {"type": "node", "id": 4370155132, "lat": 37.6225531, "lon": 26.3046799, "tags": {"amenity": "cafe"}}, {"type": "node", "id": 4370155133, "lat": 37.6226145, "lon": 26.3046102, "tags": {"amenity": "cafe"}}, {"type": "node", "id": 4370364947, "lat": 37.6336173, "lon": 26.0881334}, {"type": "node", "id": 4370364948, "lat": 37.6335428, "lon": 26.088139}, {"type": "node", "id": 4370364949, "lat": 37.633548, "lon": 26.0882474}, {"type": "node", "id": 4370364950, "lat": 37.6336224, "lon": 26.0882433}, {"type": "node", "id": 4371895823, "lat": 37.6306503, "lon": 26.1040274, "tags": {"amenity": "cafe"}}, {"type": "node", "id": 4406775667, "lat": 37.6010604, "lon": 26.079168, "tags": {"amenity": "cafe", "name:en": "womens cooperative", "shop": "confectionery"}}, {"type": "node", "id": 4406926442, "lat": 37.5169382, "lon": 26.0199414, "tags": {"amenity": "restaurant"}}, {"type": "node", "id": 4857331090, "lat": 37.630857, "lon": 26.0931925, "tags": {"amenity": "restaurant", "name": "Atsachas rooms & restaurant"}}, {"type": "node", "id": 4857415775, "lat": 37.6110289, "lon": 26.0905424, "tags": {"amenity": "restaurant", "cuisine": "\u03a8\u03b7\u03c4\u03bf\u03c0\u03c9\u03bb\u03b5\u03af\u03bf", "name": "\u039f \u039c\u03b7\u03c4\u03c3\u03ac\u03c1\u03b1\u03c2"}}, {"type": "node", "id": 4905167421, "lat": 37.5782201, "lon": 26.4800317, "tags": {"amenity": "cafe", "name": "\u03a4\u03bf \u03b1\u03c1\u03c7\u03bf\u03bd\u03c4\u03b9\u03ba\u03cc \u03c4\u03b7\u03c2 \u03ba\u03bf\u03ba\u03bf\u03bd\u03b1\u03c2"}}, {"type": "node", "id": 4946919820, "lat": 37.6331424, "lon": 26.1810725, "tags": {"amenity": "cafe"}}, {"type": "node", "id": 5039367937, "lat": 37.6223423, "lon": 26.061027, "tags": {"amenity": "restaurant", "name": "Nas"}}, {"type": "node", "id": 5095487221, "lat": 37.6141922, "lon": 26.2944101, "tags": {"amenity": "cafe", "name:en": "NOTOS CAFE"}}, {"type": "node", "id": 6530399085, "lat": 37.5780708, "lon": 26.4801176, "tags": {"amenity": "restaurant", "int_name": "Ta Delfinakia", "internet_access": "wlan", "name": "\u03a4\u03b1 \u03b4\u03b5\u03bb\u03c6\u03b9\u03bd\u03ac\u03ba\u03b9\u03b1"}}, {"type": "node", "id": 6564582087, "lat": 37.6151732, "lon": 26.2948844, "tags": {"amenity": "cafe"}}, {"type": "node", "id": 6564790187, "lat": 37.62245, "lon": 26.304813, "tags": {"amenity": "restaurant", "name:de": "Meltemi"}}, {"type": "node", "id": 9092866583, "lat": 37.5705352, "lon": 26.4769542, "tags": {"amenity": "restaurant"}}, {"type": "node", "id": 11269161653, "lat": 37.6334744, "lon": 26.2174513, "tags": {"amenity": "cafe", "cuisine": "coffee_shop", "internet_access": "wlan", "internet_access:fee": "no", "name": "TA PATARIA", "opening_hours": "Mo-Su 09:00-02:00", "outdoor_seating": "yes", "phone": "+30 2275061590"}}, {"type": "node", "id": 11958178499, "lat": 37.6232092, "lon": 26.0619845}, {"type": "node", "id": 11958178500, "lat": 37.6231576, "lon": 26.0620642}, {"type": "node", "id": 11958178501, "lat": 37.6230867, "lon": 26.061991}, {"type": "node", "id": 11958178502, "lat": 37.6231383, "lon": 26.0619113}, {"type": "node", "id": 11958178503, "lat": 37.6231218, "lon": 26.0618942}, {"type": "node", "id": 11958178504, "lat": 37.6231373, "lon": 26.0618702}, {"type": "node", "id": 11958178505, "lat": 37.6230398, "lon": 26.0617694}, {"type": "node", "id": 11958178506, "lat": 37.6229764, "lon": 26.0618673}, {"type": "node", "id": 11958178507, "lat": 37.6229987, "lon": 26.0618904}, {"type": "node", "id": 11958178508, "lat": 37.6229675, "lon": 26.0619385}, {"type": "node", "id": 11958178509, "lat": 37.6230414, "lon": 26.0620148}, {"type": "node", "id": 11958178510, "lat": 37.6230688, "lon": 26.0619725}, {"type": "node", "id": 12111049302, "lat": 37.6017474, "lon": 26.0798845, "tags": {"amenity": "restaurant", "name": "\u039f\u03b9 \u039c\u03cd\u03bb\u03bf\u03b9"}}, {"type": "node", "id": 12201270069, "lat": 37.6734615, "lon": 26.3525972, "tags": {"amenity": "restaurant", "description": "fish restaurant", "name": "O Leonidas"}}, {"type": "node", "id": 12201471080, "lat": 37.6734756, "lon": 26.3527973, "tags": {"amenity": "restaurant", "description": "O gregoris", "name": "\u039f \u0393\u03a1\u0397\u0393\u039f\u03a1\u0397\u03a3"}}, {"type": "node", "id": 12201487279, "lat": 37.6734924, "lon": 26.3525105, "tags": {"amenity": "restaurant", "name": "O Leonidas"}}, {"type": "node", "id": 12467006354, "lat": 37.588307, "lon": 26.0779598, "tags": {"addr:city": "Kares", "addr:postcode": "83301", "amenity": "restaurant", "cuisine": "greek", "name": "Filitsa", "phone": "+302275041442", "website": "https://facebook.com/FilitsaRestaurant/?tsid=0.4451207931527581"}}, {"type": "way", "id": 232444998, "nodes": [2407973768, 2407973765, 2407973767, 2407973770, 2407973768], "tags": {"amenity": "restaurant", "building": "yes", "name": "\u0394\u03b5\u03b9\u03bb\u03b9\u03bd\u03cc\u03c2"}}, {"type": "way", "id": 439423550, "nodes": [4370364947, 4370364950, 4370364949, 4370364948, 4370364947], "tags": {"amenity": "restaurant", "building": "yes"}}, {"type": "way", "id": 1289625769, "nodes": [11958178499, 11958178500, 11958178501, 11958178502, 11958178499], "tags": {"amenity": "restaurant", "building": "yes", "name": "Anna's Fish Tavern"}}, {"type": "way", "id": 1289625770, "nodes": [11958178502, 11958178503, 11958178504, 11958178505, 11958178506, 11958178507, 11958178508, 11958178509, 11958178510, 11958178501, 11958178502], "tags": {"amenity": "restaurant", "building": "yes", "name": "Naiades"}}]}