{"version": 0.6, "generator": "Overpass API 0.7.62.7 375dc00a", "osm3s": {"timestamp_osm_base": "2025-06-14T15:17:02Z", "copyright": "The data included in this document is from www.openstreetmap.org. The data is made available under ODbL."}, "elements": [{"type": "node", "id": 6367661063, "lat": 38.7213522, "lon": 36.3933793, "tags": {"amenity": "cafe", "level": "1", "source": "survey"}}, {"type": "node", "id": 6367661071, "lat": 38.7216147, "lon": 36.3940962, "tags": {"amenity": "cafe", "source": "survey"}}, {"type": "node", "id": 10195992449, "lat": 38.6296599, "lon": 36.4377931, "tags": {"amenity": "cafe"}}, {"type": "node", "id": 10195992592, "lat": 38.7498033, "lon": 36.4509168, "tags": {"amenity": "cafe", "name": "BK ET Lokantasi"}}, {"type": "node", "id": 10197273704, "lat": 38.7285512, "lon": 36.4025391, "tags": {"amenity": "restaurant", "name": "Onar"}}, {"type": "node", "id": 10197273705, "lat": 38.7282124, "lon": 36.4026878, "tags": {"amenity": "cafe", "name": "Ata\u015flar"}}, {"type": "node", "id": 10197273706, "lat": 38.727452, "lon": 36.4026188, "tags": {"amenity": "cafe"}}, {"type": "node", "id": 10197280341, "lat": 38.7386725, "lon": 36.426866, "tags": {"amenity": "restaurant", "name": "Merdan et bal\u0131k"}}, {"type": "node", "id": 10197280342, "lat": 38.7423898, "lon": 36.4329946, "tags": {"amenity": "restaurant", "name": "Adana Et Lokantasi"}}]}