{"version": 0.6, "generator": "Overpass API 0.7.62.7 375dc00a", "osm3s": {"timestamp_osm_base": "2025-06-14T15:15:01Z", "copyright": "The data included in this document is from www.openstreetmap.org. The data is made available under ODbL."}, "elements": [{"type": "node", "id": 975433342, "lat": 27.8293854, "lon": 33.4490703, "tags": {"amenity": "cafe"}}, {"type": "node", "id": 3760593024, "lat": 27.3878625, "lon": 33.6812985}, {"type": "node", "id": 3760593025, "lat": 27.3878718, "lon": 33.6815051}, {"type": "node", "id": 3760593026, "lat": 27.3879174, "lon": 33.6815025}, {"type": "node", "id": 3760593027, "lat": 27.3879241, "lon": 33.6816499}, {"type": "node", "id": 3760593028, "lat": 27.3880244, "lon": 33.6814963}, {"type": "node", "id": 3760593029, "lat": 27.3880311, "lon": 33.6816438}, {"type": "node", "id": 3760593030, "lat": 27.3880564, "lon": 33.6812875}, {"type": "node", "id": 3760593031, "lat": 27.3880657, "lon": 33.6814939}, {"type": "node", "id": 3774988018, "lat": 27.4363862, "lon": 33.6572751}, {"type": "node", "id": 3774988019, "lat": 27.4366331, "lon": 33.6570937}, {"type": "node", "id": 3774988020, "lat": 27.436855, "lon": 33.6569566}, {"type": "node", "id": 4382568091, "lat": 27.3854867, "lon": 33.685888, "tags": {"amenity": "restaurant", "delivery": "no", "name": "Morgan\u2019s Beach Bistro", "outdoor_seating": "yes"}}, {"type": "node", "id": 4382568290, "lat": 27.3865524, "lon": 33.6852298, "tags": {"amenity": "restaurant", "cuisine": "international", "name": "Marco Polo", "opening_hours": "07:00-10:00, 12:30-15:00, 18:30-21:30", "smoking": "separated", "takeaway": "no"}}, {"type": "node", "id": 4382572590, "lat": 27.3921071, "lon": 33.6864726, "tags": {"amenity": "restaurant", "name": "El Sayadeen"}}, {"type": "node", "id": 4382572593, "lat": 27.3978015, "lon": 33.684565, "tags": {"amenity": "restaurant", "name": "Il Limone"}}, {"type": "node", "id": 4382596089, "lat": 27.396077, "lon": 33.681968, "tags": {"addr:city": "\u0627\u0644\u062c\u0648\u0646\u0629", "amenity": "restaurant"}}, {"type": "node", "id": 4466479074, "lat": 27.4089892, "lon": 33.6764986}, {"type": "node", "id": 4466479075, "lat": 27.4090862, "lon": 33.6765556}, {"type": "node", "id": 4466479076, "lat": 27.4090633, "lon": 33.6766181}, {"type": "node", "id": 4466479077, "lat": 27.4090175, "lon": 33.6765917}, {"type": "node", "id": 4466479078, "lat": 27.4089951, "lon": 33.6766493}, {"type": "node", "id": 4466479079, "lat": 27.4089392, "lon": 33.6766133}, {"type": "node", "id": 4945609186, "lat": 27.4079954, "lon": 33.6741432}, {"type": "node", "id": 4945644213, "lat": 27.3955555, "lon": 33.6763557, "tags": {"addr:city": "El Gouna", "amenity": "restaurant", "cuisine": "grill", "indoor_seating": "yes", "name": "The Grill (former: Oriental Grill)", "outdoor_seating": "yes", "smoking": "outside"}}, {"type": "node", "id": 4945644214, "lat": 27.40687, "lon": 33.6742596}, {"type": "node", "id": 4945644215, "lat": 27.4067965, "lon": 33.6742559}, {"type": "node", "id": 4945644218, "lat": 27.4069072, "lon": 33.6744473}, {"type": "node", "id": 4945644219, "lat": 27.4069105, "lon": 33.6743362}, {"type": "node", "id": 4945645622, "lat": 27.4072501, "lon": 33.6737384}, {"type": "node", "id": 4945645623, "lat": 27.4072408, "lon": 33.6738688}, {"type": "node", "id": 4945645624, "lat": 27.4071773, "lon": 33.6738631}, {"type": "node", "id": 4945645625, "lat": 27.4071866, "lon": 33.6737326}, {"type": "node", "id": 4945645631, "lat": 27.4091673, "lon": 33.6752328}, {"type": "node", "id": 4945645632, "lat": 27.4088891, "lon": 33.6752355}, {"type": "node", "id": 4945645633, "lat": 27.4088977, "lon": 33.6753621}, {"type": "node", "id": 4945645634, "lat": 27.4091705, "lon": 33.6753648}, {"type": "node", "id": 4945645636, "lat": 27.420307, "lon": 33.672858}, {"type": "node", "id": 4945645637, "lat": 27.4203023, "lon": 33.6729412}, {"type": "node", "id": 4945645638, "lat": 27.4202614, "lon": 33.672989}, {"type": "node", "id": 4945645639, "lat": 27.4201553, "lon": 33.6730226}, {"type": "node", "id": 4945645640, "lat": 27.4200932, "lon": 33.6730005}, {"type": "node", "id": 4945645641, "lat": 27.4200437, "lon": 33.6729376}, {"type": "node", "id": 4945645642, "lat": 27.4200429, "lon": 33.6728916}, {"type": "node", "id": 4945645643, "lat": 27.4200877, "lon": 33.6728473}, {"type": "node", "id": 4945645644, "lat": 27.4201545, "lon": 33.6728181}, {"type": "node", "id": 4945645645, "lat": 27.4202599, "lon": 33.672819}, {"type": "node", "id": 6106549086, "lat": 27.4102994, "lon": 33.6761255, "tags": {"amenity": "restaurant", "cuisine": "japanese", "name:en": "Mori Sushi"}}, {"type": "node", "id": 6414254585, "lat": 27.3958937, "lon": 33.6773781, "tags": {"amenity": "restaurant", "indoor_seating": "yes", "name:en": "La Luna Pizzeria", "outdoor_seating": "yes"}}, {"type": "node", "id": 6530747135, "lat": 27.4087177, "lon": 33.6746353, "tags": {"amenity": "restaurant", "name": "Pier 88"}}, {"type": "node", "id": 7238308055, "lat": 27.4081372, "lon": 33.6741751}, {"type": "node", "id": 7238308056, "lat": 27.4080587, "lon": 33.6740186}, {"type": "node", "id": 7238308060, "lat": 27.4066293, "lon": 33.6742812}, {"type": "node", "id": 7238308061, "lat": 27.4067594, "lon": 33.6742675}, {"type": "node", "id": 7238308062, "lat": 27.4066122, "lon": 33.6743363}, {"type": "node", "id": 7398716186, "lat": 27.3959537, "lon": 33.6752033, "tags": {"amenity": "restaurant", "internet_access": "wlan", "name": "bodega"}}, {"type": "node", "id": 8092198247, "lat": 27.4159003, "lon": 33.677158}, {"type": "node", "id": 8092198254, "lat": 27.4156577, "lon": 33.6772986}, {"type": "node", "id": 8092198255, "lat": 27.415901, "lon": 33.6772971}, {"type": "node", "id": 8092198256, "lat": 27.4158997, "lon": 33.6770286}, {"type": "node", "id": 8092198257, "lat": 27.4156564, "lon": 33.67703}, {"type": "node", "id": 8092214414, "lat": 27.3956458, "lon": 33.6753984, "tags": {"amenity": "restaurant", "cuisine": "italian", "name": "Il Forno di Amelia"}}, {"type": "node", "id": 8092214415, "lat": 27.3957244, "lon": 33.6751932, "tags": {"amenity": "restaurant", "cuisine": "latin_american", "name": "Chicha Restaurant & Bar", "opening_hours": "Mo-Su 15:30-23:30", "outdoor_seating": "yes", "payment:cash": "yes", "payment:credit_cards": "yes", "phone": "+20 122 775 5888", "smoking": "separated", "website": "https://www.instagram.com/chicha_latinkitchen/"}}, {"type": "node", "id": 8092218489, "lat": 27.409788, "lon": 33.6766845, "tags": {"amenity": "restaurant", "name": "Malu's Deli", "website": "https://malusdeli.com/"}}, {"type": "node", "id": 8119173287, "lat": 27.4078665, "lon": 33.6747265, "tags": {"amenity": "restaurant", "cuisine": "pizza", "name": "Sotto Sopra"}}, {"type": "node", "id": 8808911396, "lat": 27.4128683, "lon": 33.6724919, "tags": {"addr:city": "El Gouna", "addr:street": "Mosaique Hotel", "amenity": "restaurant", "bar": "yes", "cuisine": "lebanese;bar_and_grill", "name": "Merbey EG", "phone": "+201010506669", "website": "https://www.mer-bey.com/"}}, {"type": "node", "id": 8969263638, "lat": 27.3960452, "lon": 33.6752077, "tags": {"addr:city": "El Gouna", "addr:postcode": "84513", "addr:street": "\u0634\u0627\u0631\u0639 \u0625\u064a\u0646\u0627\u0633 \u0627\u0644\u062f\u063a\u064a\u062f\u0649", "amenity": "restaurant", "contact:facebook": "https://www.facebook.com/thesnackshackelgouna", "cuisine": "american;coffee_shop;fast_food;breakfast", "diet:vegan": "yes", "diet:vegetarian": "yes", "name": "The SnackShack El Gouna", "opening_hours": "08:00-01:00", "phone": "+201270100774"}}, {"type": "node", "id": 9023421554, "lat": 27.3994393, "lon": 33.6735839, "tags": {"amenity": "restaurant", "name": "Sunny Restaurant", "name:en": "Sunny Restaurant"}}, {"type": "node", "id": 9249277427, "lat": 27.396159, "lon": 33.673887, "tags": {"amenity": "restaurant", "name": "Caleo"}}, {"type": "node", "id": 9249277428, "lat": 27.395928, "lon": 33.673954, "tags": {"amenity": "restaurant", "name": "Karibu", "website": "https://www.karibu-elgouna.com/"}}, {"type": "node", "id": 10891429483, "lat": 27.4190858, "lon": 33.6747424}, {"type": "node", "id": 10891429484, "lat": 27.4189409, "lon": 33.6748987}, {"type": "node", "id": 10891429485, "lat": 27.4187979, "lon": 33.6747303}, {"type": "node", "id": 10891429486, "lat": 27.418614, "lon": 33.6749286}, {"type": "node", "id": 10891429487, "lat": 27.4185137, "lon": 33.6748105}, {"type": "node", "id": 10891429488, "lat": 27.4188426, "lon": 33.674456}, {"type": "node", "id": 11063495208, "lat": 27.4068845, "lon": 33.6754218, "tags": {"air_conditioning": "yes", "amenity": "cafe", "indoor_seating": "yes", "name": "Daily Dose", "outdoor_seating": "yes", "smoking": "outside"}}, {"type": "node", "id": 11063506608, "lat": 27.4070474, "lon": 33.6738355, "tags": {"amenity": "restaurant", "diet:vegan": "yes", "diet:vegetarian": "yes", "indoor_seating": "no", "name": "Lychee", "opening_hours": "Mo-Su 08:00-22:00, Fr-Su 08:00-24:00", "outdoor_seating": "pedestrian_zone", "smoking": "outside"}}, {"type": "node", "id": 11063507762, "lat": 27.4071022, "lon": 33.6737926, "tags": {"amenity": "cafe", "cuisine": "coffee_shop", "indoor_seating": "yes", "name": "House of Coffee", "outdoor_seating": "yes"}}, {"type": "node", "id": 11346275769, "lat": 27.4101102, "lon": 33.6761369, "tags": {"amenity": "restaurant", "name:en": "Better Buns"}}, {"type": "node", "id": 11637890121, "lat": 27.393684, "lon": 33.6771063, "tags": {"amenity": "restaurant", "cuisine": "seafood", "name": "Mios"}}, {"type": "node", "id": 11657307919, "lat": 27.3978729, "lon": 33.6844453}, {"type": "node", "id": 11657307920, "lat": 27.3978642, "lon": 33.6847409}, {"type": "node", "id": 11657307921, "lat": 27.3977801, "lon": 33.6847546}, {"type": "node", "id": 11657307922, "lat": 27.3976021, "lon": 33.6847499}, {"type": "node", "id": 11657307923, "lat": 27.3976027, "lon": 33.6844973}, {"type": "node", "id": 11657307924, "lat": 27.397663, "lon": 33.6844234}, {"type": "node", "id": 11657307925, "lat": 27.3981462, "lon": 33.6839342}, {"type": "node", "id": 11657307926, "lat": 27.3983638, "lon": 33.6842315}, {"type": "node", "id": 11657307927, "lat": 27.3981583, "lon": 33.684391}, {"type": "node", "id": 11657307928, "lat": 27.3979555, "lon": 33.6841015}, {"type": "node", "id": 11657307929, "lat": 27.3979399, "lon": 33.6841202}, {"type": "node", "id": 11657307930, "lat": 27.3980634, "lon": 33.6842556}, {"type": "node", "id": 11657307931, "lat": 27.3979104, "lon": 33.6843996}, {"type": "node", "id": 11657307932, "lat": 27.397801, "lon": 33.6842443}, {"type": "node", "id": 11657307933, "lat": 27.3954567, "lon": 33.685836, "tags": {"amenity": "restaurant"}}, {"type": "node", "id": 11657307934, "lat": 27.3949136, "lon": 33.6844744, "tags": {"amenity": "restaurant"}}, {"type": "node", "id": 12770101201, "lat": 27.4084251, "lon": 33.6742638, "tags": {"amenity": "restaurant", "name": "Seventh Star", "opening_hours": "Mo-Su 08:00-23:00"}}, {"type": "node", "id": 12786889901, "lat": 27.3978033, "lon": 33.6847405}, {"type": "node", "id": 12797201005, "lat": 27.4356699, "lon": 33.6565961}, {"type": "node", "id": 12797201006, "lat": 27.4363829, "lon": 33.6559913}, {"type": "node", "id": 12797201007, "lat": 27.436232, "lon": 33.6575797}, {"type": "node", "id": 12797201008, "lat": 27.4369602, "lon": 33.6569369}, {"type": "node", "id": 12797201009, "lat": 27.4365602, "lon": 33.6559282}, {"type": "node", "id": 12797201010, "lat": 27.4362293, "lon": 33.6560623}, {"type": "node", "id": 12797201011, "lat": 27.4360627, "lon": 33.6562139}, {"type": "node", "id": 12797201012, "lat": 27.435846, "lon": 33.6564164}, {"type": "node", "id": 12797201013, "lat": 27.435533, "lon": 33.6568053}, {"type": "node", "id": 12829996992, "lat": 27.3953803, "lon": 33.6741257, "tags": {"addr:city": "El Gouna", "addr:country": "EG", "addr:postcode": "84513", "addr:street": "Downtown El Gouna", "amenity": "restaurant", "cuisine": "middle_eastern", "name": "LUMA", "opening_hours": "Mo-Su 16:00-00:00", "outdoor_seating": "yes", "payment:cash": "yes", "payment:credit_cards": "yes", "phone": "+20 128 888 3307", "smoking": "separated", "website": "https://www.instagram.com/eatatluma/"}}, {"type": "way", "id": 372503634, "nodes": [3760593030, 3760593031, 3760593028, 3760593029, 3760593027, 3760593026, 3760593025, 3760593024, 3760593030], "tags": {"amenity": "restaurant", "building": "yes", "delivery": "no", "name": "La Rotisserie", "outdoor_seating": "no", "smoking": "no", "takeaway": "no", "wheelchair": "no"}}, {"type": "way", "id": 449713214, "nodes": [4466479074, 4466479075, 4466479076, 4466479077, 4466479078, 4466479079, 4466479074], "tags": {"amenity": "restaurant", "building": "yes", "cuisine": "burger", "diet:vegetarian": "yes", "name": "Le Garage", "opening_hours": "Mo-Su 13:00-24:00", "outdoor_seating": "yes", "website": "https://legarage-restaurant.com/", "wheelchair": "no"}}, {"type": "way", "id": 504395626, "nodes": [7238308055, 7238308056, 4945609186, 7238308055], "tags": {"addr:city": "El Gouna", "amenity": "restaurant", "building": "yes", "cuisine": "regional", "name": "3nd Sokrat", "outdoor_seating": "yes"}}, {"type": "way", "id": 504399334, "nodes": [4945644214, 4945644215, 7238308061, 7238308060, 7238308062, 4945644218, 4945644219, 4945644214], "tags": {"amenity": "restaurant", "building": "yes", "cuisine": "indian", "name": "Tandoor"}}, {"type": "way", "id": 504399335, "nodes": [4945645622, 4945645623, 4945645624, 4945645625, 4945645622], "tags": {"addr:city": "El Gouna", "amenity": "restaurant", "building": "yes", "cuisine": "vietnamese", "name": "Saigon Vietnamese Restaurant", "outdoor_seating": "yes"}}, {"type": "way", "id": 504399337, "nodes": [4945645631, 4945645632, 4945645633, 4945645634, 4945645631], "tags": {"amenity": "restaurant", "building": "yes", "name": "Breeze Restaurant Bar"}}, {"type": "way", "id": 504399338, "nodes": [4945645636, 4945645637, 4945645638, 4945645639, 4945645640, 4945645641, 4945645642, 4945645643, 4945645644, 4945645645, 4945645636], "tags": {"amenity": "restaurant", "building": "yes", "cuisine": "international", "name": "Buzzha Beach Restaurant (KBC)"}}, {"type": "way", "id": 868146444, "nodes": [8092198257, 8092198256, 8092198247, 8092198255, 8092198254, 8092198257], "tags": {"amenity": "restaurant", "bar": "yes", "building": "yes", "cuisine": "seafood", "description": "Beach club with loungers, seafood restaurant, and watersports in Mangroovy, El Gouna.", "internet_access": "wlan", "internet_access:fee": "no", "name": "ZOUNI Beach", "opening_hours": "10:00-18:00", "outdoor_seating": "yes", "phone": "+20 121 113 4443", "tourism": "beach_resort", "website": "https://www.instagram.com/zounibeach/"}}, {"type": "way", "id": 1172192998, "nodes": [10891429483, 10891429484, 10891429485, 10891429486, 10891429487, 10891429488, 10891429483], "tags": {"amenity": "restaurant", "building": "yes", "cuisine": "seafood;greek", "description": "Seafood restaurant offering fresh Mediterranean and Red Sea catch, with Greek influences, located by the Red Sea in El Gouna.", "diet:vegetarian": "yes", "name": "El Bahr", "opening_hours": "Mo 14:00-22:00; Tu-Su 13:00-22:00", "outdoor_seating": "yes", "payment:cash": "yes", "payment:credit_cards": "yes", "phone": "+20 127 852 7530", "smoking": "no", "website": "https://www.instagram.com/elbahr.elgouna/"}}, {"type": "way", "id": 1254111216, "nodes": [11657307919, 11657307920, 12786889901, 11657307921, 11657307922, 11657307923, 11657307924, 11657307919], "tags": {"amenity": "restaurant", "building": "yes"}}, {"type": "way", "id": 1254111217, "nodes": [11657307925, 11657307926, 11657307927, 11657307930, 11657307928, 11657307925], "tags": {"amenity": "restaurant", "building": "yes"}}, {"type": "way", "id": 1254111218, "nodes": [11657307929, 11657307930, 11657307931, 11657307932, 11657307929], "tags": {"amenity": "restaurant", "building": "yes"}}, {"type": "way", "id": 1382219087, "nodes": [12797201009, 12797201008, 3774988020, 3774988019, 3774988018, 12797201007, 12797201013, 12797201005, 12797201012, 12797201011, 12797201010, 12797201006, 12797201009], "tags": {"addr:city": "El Gouna", "addr:country": "EG", "amenity": "restaurant", "bar": "yes", "cuisine": "international", "description": "Beach Club with Kitesurfing, Wingfoiling, Restaurant, and Bar.", "email": "info@makanibeachclub.com", "facebook": "https://www.facebook.com/makanibeachelgouna/", "instagram": "https://www.instagram.com/makani_beach_club/", "internet_access": "wlan", "internet_access:fee": "no", "leisure": "beach_resort", "location": "beach", "name": "Makani Beach Club El Gouna", "opening_hours": "08:30-18:00", "payment:cash": "yes", "payment:credit_cards": "yes", "payment:debit_cards": "yes", "phone": "+20 100 099 9090", "sport": "kitesurfing", "sport:1": "surfing", "sport:2": "wingfoiling", "website": "https://www.makanibeachclub.com"}}]}