{"version": 0.6, "generator": "Overpass API 0.7.62.7 375dc00a", "osm3s": {"timestamp_osm_base": "2025-06-14T15:08:54Z", "copyright": "The data included in this document is from www.openstreetmap.org. The data is made available under ODbL."}, "elements": [{"type": "node", "id": 365242915, "lat": 39.1980675, "lon": 33.0930159, "tags": {"amenity": "restaurant", "name": "Kapadokya Dinleme Tesisleri"}}, {"type": "node", "id": 708462388, "lat": 39.0737503, "lon": 33.4126485, "tags": {"amenity": "restaurant"}}, {"type": "node", "id": 708466294, "lat": 39.0749809, "lon": 33.4113037, "tags": {"amenity": "restaurant"}}, {"type": "node", "id": 2523070557, "lat": 39.0758859, "lon": 33.4136313, "tags": {"amenity": "restaurant", "name": "Ba\u015fkent Mola Park Dinlenme Tesisi"}}, {"type": "node", "id": 3987843126, "lat": 39.2702393, "lon": 32.9690116, "tags": {"amenity": "restaurant", "name": "T\u015eOF (T\u00fcrkiye \u015e\u00f6f\u00f6rler ve Otomobilciler Federasyonu)"}}, {"type": "node", "id": 4228599392, "lat": 39.1826407, "lon": 33.1263353, "tags": {"amenity": "restaurant"}}, {"type": "node", "id": 5038483395, "lat": 39.2149168, "lon": 33.059687, "tags": {"amenity": "restaurant"}}, {"type": "node", "id": 9418015203, "lat": 39.0904833, "lon": 33.0802392, "tags": {"amenity": "cafe", "name": "Kulufornia Kafe"}}, {"type": "node", "id": 9418015208, "lat": 39.0908404, "lon": 33.0810355, "tags": {"amenity": "restaurant"}}, {"type": "node", "id": 9920556447, "lat": 39.07528, "lon": 33.4111656}, {"type": "node", "id": 9920556448, "lat": 39.0755149, "lon": 33.4109164}, {"type": "node", "id": 9920556449, "lat": 39.0754731, "lon": 33.4108511}, {"type": "node", "id": 9920556450, "lat": 39.0756427, "lon": 33.4106711}, {"type": "node", "id": 9920556451, "lat": 39.0758528, "lon": 33.4109996}, {"type": "node", "id": 9920556452, "lat": 39.0754482, "lon": 33.4114288}, {"type": "node", "id": 12710020742, "lat": 39.2701128, "lon": 32.9691578, "tags": {"amenity": "restaurant", "brand": "K\u00f6fteci Yusuf", "brand:wikidata": "Q126125081", "cuisine": "turkish", "name": "K\u00f6fteci Yusuf"}}, {"type": "way", "id": 1082471849, "nodes": [9920556452, 9920556451, 9920556450, 9920556449, 9920556448, 9920556447, 9920556452], "tags": {"amenity": "restaurant"}}]}