{"version": 0.6, "generator": "Overpass API 0.7.62.7 375dc00a", "osm3s": {"timestamp_osm_base": "2025-06-14T13:25:11Z", "copyright": "The data included in this document is from www.openstreetmap.org. The data is made available under ODbL."}, "elements": [{"type": "node", "id": 2869393060, "lat": 37.1559961, "lon": 9.7888694, "tags": {"addr:street": "Avenue de l'ind\u00e9pendance", "amenity": "cafe", "name": "Caf\u00e9 blel"}}, {"type": "node", "id": 2869399087, "lat": 37.1565655, "lon": 9.7864472, "tags": {"amenity": "cafe", "name": "Caf\u00e9 Carthage"}}, {"type": "node", "id": 2871425086, "lat": 37.1541662, "lon": 9.7955546, "tags": {"amenity": "cafe", "name": "Caf\u00e9 Ajili"}}, {"type": "node", "id": 2871440861, "lat": 37.1555532, "lon": 9.7951101, "tags": {"amenity": "cafe", "name": "Caf\u00e9 Azzouz"}}, {"type": "node", "id": 2871477465, "lat": 37.1539249, "lon": 9.7966321, "tags": {"amenity": "cafe", "name": "Caf\u00e9 Khelifa"}}, {"type": "node", "id": 2875283148, "lat": 37.1569181, "lon": 9.7892882, "tags": {"amenity": "cafe", "name": "Caf\u00e9 Manoubi"}}, {"type": "node", "id": 4572583492, "lat": 37.0309346, "lon": 9.3040698, "tags": {"amenity": "cafe", "internet_access": "wlan", "name": "\u0645\u0642\u0647\u0649 \u0627\u0644\u0645\u0633\u0627\u0641\u0631", "name:ar": "\u0645\u0642\u0647\u0649 \u0627\u0644\u0645\u0633\u0627\u0641\u0631", "phone": "+216 55 254 736"}}, {"type": "node", "id": 4620424451, "lat": 37.2038813, "lon": 9.7554744}, {"type": "node", "id": 4620424452, "lat": 37.203915, "lon": 9.7555428}, {"type": "node", "id": 4620424453, "lat": 37.2038477, "lon": 9.7555945}, {"type": "node", "id": 4620424454, "lat": 37.2038113, "lon": 9.755518}, {"type": "node", "id": 4620424455, "lat": 37.2029103, "lon": 9.7555923}, {"type": "node", "id": 4620424456, "lat": 37.2027723, "lon": 9.7554511}, {"type": "node", "id": 4620424457, "lat": 37.2027082, "lon": 9.7555499}, {"type": "node", "id": 4620424458, "lat": 37.2028463, "lon": 9.7556911}, {"type": "node", "id": 4620424459, "lat": 37.2043075, "lon": 9.7545957}, {"type": "node", "id": 4620424460, "lat": 37.2042582, "lon": 9.7546302}, {"type": "node", "id": 4620424461, "lat": 37.2041966, "lon": 9.7545194}, {"type": "node", "id": 4620424462, "lat": 37.2042679, "lon": 9.7544564}, {"type": "node", "id": 5055863027, "lat": 37.1512302, "lon": 9.7950681, "tags": {"amenity": "cafe", "name": "Mimouna", "name:fr": "Mimouna"}}, {"type": "node", "id": 5055863029, "lat": 37.1561156, "lon": 9.7928465, "tags": {"amenity": "cafe", "name:fr": "Mahouachi"}}, {"type": "node", "id": 5055867622, "lat": 37.1521256, "lon": 9.7944255, "tags": {"amenity": "cafe", "name:fr": "Flamenco"}}, {"type": "node", "id": 5055873522, "lat": 37.1585685, "lon": 9.7900148, "tags": {"addr:street": "Rue Abou El Kacem Echebbi (ex rue Colbert)", "amenity": "cafe", "internet_access": "wlan", "name": "Mozart", "opening_hours": "Mo-Su 06:00-02:00"}}, {"type": "node", "id": 5055873525, "lat": 37.1565082, "lon": 9.7891433, "tags": {"amenity": "cafe", "name:fr": "Parc des Princes"}}, {"type": "node", "id": 5055873527, "lat": 37.1545628, "lon": 9.7942094, "tags": {"amenity": "cafe", "name:fr": "Bagdad"}}, {"type": "node", "id": 5055873529, "lat": 37.1569779, "lon": 9.7851479, "tags": {"amenity": "cafe", "name": "Borourou", "name:fr": "Borourou"}}, {"type": "node", "id": 5055875822, "lat": 37.156133, "lon": 9.7879521, "tags": {"addr:street": "Avenue de l'ind\u00e9pendance", "amenity": "cafe", "name": "Qsiba", "name:fr": "Qsiba"}}, {"type": "node", "id": 5055875823, "lat": 37.1562379, "lon": 9.7873752, "tags": {"addr:street": "Avenue de l'ind\u00e9pendance", "amenity": "cafe", "name:fr": "Samba"}}, {"type": "node", "id": 5055875824, "lat": 37.1539961, "lon": 9.7931204, "tags": {"amenity": "cafe", "name:fr": "Coin vert"}}, {"type": "node", "id": 5055875825, "lat": 37.1546498, "lon": 9.7944488, "tags": {"amenity": "cafe", "name": "Caf\u00e9 Paris"}}, {"type": "node", "id": 5055875829, "lat": 37.1556197, "lon": 9.7936505, "tags": {"amenity": "cafe", "name:fr": "REX"}}, {"type": "node", "id": 5267818630, "lat": 37.2448807, "lon": 9.3657799}, {"type": "node", "id": 5267818631, "lat": 37.245043, "lon": 9.3660106}, {"type": "node", "id": 5267818632, "lat": 37.2449943, "lon": 9.3660647}, {"type": "node", "id": 5267818633, "lat": 37.244832, "lon": 9.365834}, {"type": "node", "id": 6019179485, "lat": 37.1519719, "lon": 9.2763224, "tags": {"amenity": "cafe", "name:en": "tea 350"}}, {"type": "node", "id": 6309246752, "lat": 37.1532462, "lon": 9.797355, "tags": {"amenity": "cafe", "name": "Caf\u00e9 Galaxy"}}, {"type": "node", "id": 6311357019, "lat": 37.155497, "lon": 9.789588, "tags": {"amenity": "restaurant", "name": "Kenza Food"}}, {"type": "node", "id": 6372742242, "lat": 37.0367137, "lon": 9.6663953, "tags": {"addr:city": "\u0645\u0627\u0637\u0631", "addr:city:ar": "\u0645\u0627\u0637\u0631", "addr:postcode": "7030", "amenity": "cafe", "name": "\u0645\u0642\u0647\u0649 \u0627\u0644\u0635\u0644\u0627\u062d", "name:ar": "\u0645\u0642\u0647\u0649 \u0627\u0644\u0635\u0644\u0627\u062d", "name:fr": "Caf\u00e9 Salah"}}, {"type": "node", "id": 6372742243, "lat": 37.0358774, "lon": 9.6666626, "tags": {"addr:city": "\u0645\u0627\u0637\u0631", "addr:city:ar": "\u0645\u0627\u0637\u0631", "addr:postcode": "7030", "amenity": "restaurant", "name": "\u0645\u0637\u0639\u0645 \u0631\u0648\u062c", "name:ar": "\u0645\u0637\u0639\u0645 \u0631\u0648\u062c", "name:fr": "Restourant Rouje"}}, {"type": "node", "id": 6372742255, "lat": 37.037848, "lon": 9.6744475, "tags": {"addr:city": "\u0645\u0627\u0637\u0631", "addr:city:ar": "\u0645\u0627\u0637\u0631", "amenity": "cafe", "name": "\u0645\u0642\u0647\u0649 20 \u0645\u0627\u0631\u0633", "name:ar": "\u0645\u0642\u0647\u0649 20 \u0645\u0627\u0631\u0633", "name:fr": "Caf\u00e9 20 mars"}}, {"type": "node", "id": 6372742304, "lat": 37.0421412, "lon": 9.6606364, "tags": {"addr:city": "\u0645\u0627\u0637\u0631", "addr:city:ar": "\u0645\u0627\u0637\u0631", "amenity": "cafe", "name": "\u0645\u0642\u0647\u0649 \u0648\u0627\u064a\u0644\u062f \u0633\u064a\u062f\u064a", "name:ar": "\u0645\u0642\u0647\u0649 \u0648\u0627\u064a\u0644\u062f \u0633\u064a\u062f\u064a", "name:fr": "Caf\u00e9 Wild Sidi"}}, {"type": "node", "id": 6372742305, "lat": 37.0426425, "lon": 9.6601121, "tags": {"addr:city": "\u0645\u0627\u0637\u0631", "addr:city:ar": "\u0645\u0627\u0637\u0631", "amenity": "cafe", "name": "\u0645\u0642\u0647\u0649 \u0627\u0628\u0646 \u0639\u0628\u062f \u0627\u0644\u0644\u0647", "name:ar": "\u0645\u0642\u0647\u0649 \u0627\u0628\u0646 \u0639\u0628\u062f \u0627\u0644\u0644\u0647", "name:fr": "Caf\u00e9 Ben Abdallah"}}, {"type": "node", "id": 6372742321, "lat": 37.0430763, "lon": 9.6563981, "tags": {"addr:city": "\u0645\u0627\u0637\u0631", "addr:city:ar": "\u0645\u0627\u0637\u0631", "amenity": "cafe", "name": "\u0623\u0645\u064a\u063a\u0648\u0633", "name:ar": "\u0623\u0645\u064a\u063a\u0648\u0633", "name:es": "Amigos", "name:fr": "Amigos"}}, {"type": "node", "id": 6372742322, "lat": 37.0440464, "lon": 9.6531515, "tags": {"addr:city": "\u0645\u0627\u0637\u0631", "addr:city:ar": "\u0645\u0627\u0637\u0631", "amenity": "cafe", "name": "\u063a\u0648\u0644\u062f\u0646 \u0643\u0641\u064a", "name:ar": "\u063a\u0648\u0644\u062f\u0646 \u0643\u0641\u064a", "name:en": "Golden Coffee", "name:fr": "Golden Coffee"}}, {"type": "node", "id": 6386853835, "lat": 37.0836767, "lon": 9.5355621, "tags": {"addr:city": "\u063a\u0632\u0627\u0644\u0629", "addr:city:ar": "\u063a\u0632\u0627\u0644\u0629", "amenity": "cafe", "name": "\u0645\u0642\u0647\u0649 \u062e\u0645\u064a\u0633", "name:ar": "\u0645\u0642\u0647\u0649 \u062e\u0645\u064a\u0633", "name:fr": "Caf\u00e9 khemais"}}, {"type": "node", "id": 6386853843, "lat": 37.0820089, "lon": 9.5361075, "tags": {"addr:city": "\u063a\u0632\u0627\u0644\u0629", "addr:city:ar": "\u063a\u0632\u0627\u0644\u0629", "amenity": "cafe", "name": "\u0645\u0642\u0647\u0649 \u0639\u0635\u0627\u0645", "name:ar": "\u0645\u0642\u0647\u0649 \u0639\u0635\u0627\u0645", "name:fr": "Caf\u00e9 ISSAM"}}, {"type": "node", "id": 6386853844, "lat": 37.0812126, "lon": 9.5363711, "tags": {"addr:city": "\u063a\u0632\u0627\u0644\u0629", "addr:city:ar": "\u063a\u0632\u0627\u0644\u0629", "amenity": "cafe", "name": "\u0645\u0642\u0647\u0649 \u0627\u0644\u0623\u0641\u0642", "name:ar": "\u0645\u0642\u0647\u0649 \u0627\u0644\u0623\u0641\u0642", "name:fr": "Caf\u00e9 L'horizon"}}, {"type": "node", "id": 6386853845, "lat": 37.0803567, "lon": 9.5377014, "tags": {"amenity": "restaurant", "name": "\u0645\u0637\u0639\u0645 \u0627\u0628\u0646 \u062d\u0645\u0648\u062f\u0629", "name:ar": "\u0645\u0637\u0639\u0645 \u0627\u0628\u0646 \u062d\u0645\u0648\u062f\u0629", "name:fr": "Resturant Ben Hammouda"}}, {"type": "node", "id": 8515570920, "lat": 37.1478556, "lon": 9.78232}, {"type": "node", "id": 8515570921, "lat": 37.1477833, "lon": 9.7822602}, {"type": "node", "id": 8515570922, "lat": 37.1477243, "lon": 9.7823792}, {"type": "node", "id": 8515570923, "lat": 37.147794, "lon": 9.7824377}, {"type": "way", "id": 467422419, "nodes": [4620424451, 4620424452, 4620424453, 4620424454, 4620424451], "tags": {"addr:city": "Farwa - \u0641\u0631\u0648\u0629", "amenity": "cafe", "building": "yes", "cuisine": "regional", "name": "Caf\u00e9 Bassem - \u0642\u0647\u0648\u0629 \u0628\u0633\u0627\u0645"}}, {"type": "way", "id": 467422420, "nodes": [4620424455, 4620424456, 4620424457, 4620424458, 4620424455], "tags": {"addr:city": "Farwa - \u0641\u0631\u0648\u0629", "amenity": "cafe", "building": "yes", "name": "Caf\u00e9 echikh - \u0642\u0647\u0648\u0629 \u062d\u0645\u064a\u062f \"\u0642\u0647\u0648\u0629 \u0627\u0644\u0634\u064a\u062e\""}}, {"type": "way", "id": 467422421, "nodes": [4620424459, 4620424460, 4620424461, 4620424462, 4620424459], "tags": {"addr:city": "Farwa - \u0641\u0631\u0648\u0629", "amenity": "cafe", "building": "yes", "cuisine": "regional", "name": "Caf\u00e9 Hassoun Mathlouthi - \u0642\u0647\u0648\u0629 \u062d\u0633\u0648\u0646"}}, {"type": "way", "id": 544999023, "nodes": [5267818633, 5267818630, 5267818631, 5267818632, 5267818633], "tags": {"amenity": "restaurant", "building": "yes"}}, {"type": "way", "id": 916847484, "nodes": [8515570920, 8515570921, 8515570922, 8515570923, 8515570920], "tags": {"amenity": "cafe", "building": "yes", "name": "\u0645\u0642\u0647\u0649 \u0627\u0644\u0642\u0635\u0631\u064a"}}]}