{"version": 0.6, "generator": "Overpass API 0.7.62.7 375dc00a", "osm3s": {"timestamp_osm_base": "2025-06-14T15:26:15Z", "copyright": "The data included in this document is from www.openstreetmap.org. The data is made available under ODbL."}, "elements": [{"type": "node", "id": 4523482296, "lat": 37.7532889, "lon": 39.3194286, "tags": {"addr:city": "\u015eanl\u0131urfa", "addr:district": "Siverek", "amenity": "restaurant", "name": "Siverek Sofras\u0131"}}, {"type": "node", "id": 4899205778, "lat": 37.7584759, "lon": 39.3258938, "tags": {"addr:city": "\u015eanl\u0131urfa", "addr:district": "Siverek", "amenity": "restaurant", "name": "Manolyam Ci\u011fer Salonu"}}, {"type": "node", "id": 7237481144, "lat": 38.139853, "lon": 39.4486423}, {"type": "node", "id": 7237481145, "lat": 38.1398751, "lon": 39.4483891}, {"type": "node", "id": 7237481146, "lat": 38.1397254, "lon": 39.4483679}, {"type": "node", "id": 7237481147, "lat": 38.1397006, "lon": 39.4486502}, {"type": "node", "id": 7237481148, "lat": 38.1397756, "lon": 39.4486608}, {"type": "node", "id": 7237481149, "lat": 38.1397781, "lon": 39.4486317}, {"type": "node", "id": 9565164290, "lat": 37.896177, "lon": 38.9639656, "tags": {"amenity": "cafe"}}, {"type": "node", "id": 12289888514, "lat": 37.750068, "lon": 39.3430339, "tags": {"amenity": "cafe", "name": "\u00c7ay Bah\u00e7esi"}}, {"type": "node", "id": 12290038501, "lat": 37.7542504, "lon": 39.3188422, "tags": {"amenity": "cafe", "name": "Bali K\u0131rathanesi"}}, {"type": "node", "id": 12290042301, "lat": 37.7540606, "lon": 39.3208569, "tags": {"amenity": "restaurant", "name": "Han 1943"}}, {"type": "way", "id": 775803953, "nodes": [7237481144, 7237481145, 7237481146, 7237481147, 7237481148, 7237481149, 7237481144], "tags": {"amenity": "restaurant", "building": "yes", "name": "Saray \u0130lkokulu"}}]}