{"version": 0.6, "generator": "Overpass API 0.7.62.7 375dc00a", "osm3s": {"timestamp_osm_base": "2025-06-14T14:44:30Z", "copyright": "The data included in this document is from www.openstreetmap.org. The data is made available under ODbL."}, "elements": [{"type": "node", "id": 1905689186, "lat": 40.9753191, "lon": 23.9616623, "tags": {"amenity": "cafe"}}, {"type": "node", "id": 1965261427, "lat": 41.1489219, "lon": 24.1411755, "tags": {"amenity": "cafe", "name": "\u0391\u03c4\u03bb\u03b1\u03bd\u03c4\u03af\u03b4\u03b1 Cafe", "outdoor_seating": "yes"}}, {"type": "node", "id": 1965261435, "lat": 41.1496094, "lon": 24.1426529, "tags": {"amenity": "restaurant", "cuisine": "regional", "name": "\u0395\u03c3\u03c4\u03b9\u03b1\u03c4\u03cc\u03c1\u03b9\u03bf \u039d\u03b7\u03c3\u03ac\u03ba\u03b9"}}, {"type": "node", "id": 2894471352, "lat": 41.1477522, "lon": 24.1480112, "tags": {"amenity": "restaurant", "cuisine": "crepe", "name": "\u0391\u03c5\u03b3\u03cc"}}, {"type": "node", "id": 3296160929, "lat": 40.9637737, "lon": 24.3587482, "tags": {"addr:city": "\u0391\u03bc\u03c5\u03b3\u03b4\u03b1\u03bb\u03b5\u03ce\u03bd\u03b1\u03c2", "addr:postcode": "64012", "amenity": "restaurant", "cuisine": "regional", "name": "\u0393\u03b9\u03ce\u03c1\u03b3\u03bf\u03c2", "phone": "+302510391427"}}, {"type": "node", "id": 3306957657, "lat": 41.0253705, "lon": 24.0108319, "tags": {"amenity": "cafe"}}, {"type": "node", "id": 3508937794, "lat": 41.1501866, "lon": 24.1473543, "tags": {"addr:city": "\u0394\u03c1\u03ac\u03bc\u03b1", "addr:housenumber": "2", "addr:street": "\u0393\u03b5\u03c9\u03c1\u03b3\u03af\u03bf\u03c5 \u0396\u03b5\u03c1\u03b2\u03bf\u03cd", "amenity": "cafe", "brand": "Mikel", "brand:wikidata": "Q16952021", "cuisine": "coffee_shop", "name": "Mikel", "opening_hours": "Mo-Sa 06:00 - 23:00; Su 07:00 - 23:00", "phone": "+302521025210", "takeaway": "yes"}}, {"type": "node", "id": 3783527157, "lat": 40.971032, "lon": 24.1468766, "tags": {"addr:city": "\u0386\u03b3\u03b9\u03bf\u03c2 \u03a7\u03c1\u03b9\u03c3\u03c4\u03cc\u03c6\u03bf\u03c1\u03bf\u03c2", "addr:postcode": "64001", "amenity": "restaurant", "cuisine": "regional", "name": "\u03b3\u03b1\u03c3\u03c4\u03ad\u03c1\u03b1", "phone": "+302592061677"}}, {"type": "node", "id": 3805726524, "lat": 41.1499258, "lon": 24.14739, "tags": {"amenity": "cafe", "name": "Dinos"}}, {"type": "node", "id": 3831443906, "lat": 41.1450883, "lon": 24.1752508, "tags": {"amenity": "restaurant", "cuisine": "greek"}}, {"type": "node", "id": 3841534943, "lat": 41.140715, "lon": 24.1524038, "tags": {"amenity": "restaurant", "cuisine": "greek", "name": "\u039a\u03b1\u03c0\u03b7\u03bb\u03b5\u03b9\u03cc"}}, {"type": "node", "id": 3854085750, "lat": 41.1485538, "lon": 24.1455428, "tags": {"amenity": "restaurant", "check_date": "2024-05-08", "cuisine": "greek", "name": "\u039c\u03b1\u03b3\u03b5\u03b9\u03c1\u03b5\u03c5\u03c4\u03cc \u0393\u03b5\u03c5\u03c3\u03c4\u03b9\u03ba\u03ad\u03c2 \u039b\u03cd\u03c3\u03b5\u03b9\u03c2", "phone": "0032521022293"}}, {"type": "node", "id": 3854090058, "lat": 41.15134, "lon": 24.1463317, "tags": {"amenity": "cafe", "name": "Black Sugar"}}, {"type": "node", "id": 3902482895, "lat": 41.1503876, "lon": 24.1402329, "tags": {"addr:city": "\u0394\u03c1\u03ac\u03bc\u03b1", "addr:housenumber": "13", "addr:postcode": "66100", "addr:street": "\u0391\u03b9\u03b3\u03b1\u03af\u03bf\u03c5 & \u0391\u03b3\u03af\u03b1\u03c2 \u0392\u03b1\u03c1\u03b2\u03ac\u03c1\u03b1\u03c2", "amenity": "restaurant", "name": "\u03a1\u03bf\u03b4\u03cc\u03c3\u03c4\u03b1\u03bc\u03bf", "phone": "+302521033889", "website": "http://www.taverna-rodostamo.gr/"}}, {"type": "node", "id": 3945274966, "lat": 41.1451202, "lon": 24.1468353, "tags": {"amenity": "restaurant", "cuisine": "greek", "name": "\u039c\u03b9\u03bc\u03ac\u03ba\u03bf\u03c2 - \u039c\u03b1\u03b3\u03b5\u03b9\u03c1\u03b5\u03c5\u03c4\u03cc"}}, {"type": "node", "id": 3945904068, "lat": 41.0106054, "lon": 24.2553732, "tags": {"amenity": "restaurant"}}, {"type": "node", "id": 3967770325, "lat": 41.0706513, "lon": 24.3731879}, {"type": "node", "id": 3967770326, "lat": 41.0707035, "lon": 24.3728828}, {"type": "node", "id": 3967770327, "lat": 41.0707977, "lon": 24.373163}, {"type": "node", "id": 3967770328, "lat": 41.0708449, "lon": 24.3729075}, {"type": "node", "id": 3981176722, "lat": 41.1413638, "lon": 24.1470028, "tags": {"addr:housenumber": "103", "addr:street": "\u0395\u03b8\u03bd\u03b9\u03ba\u03ae\u03c2 \u0391\u03bc\u03cd\u03bd\u03b7\u03c2", "amenity": "cafe", "name": "Cave"}}, {"type": "node", "id": 4002843642, "lat": 41.1511146, "lon": 24.1506485, "tags": {"addr:city": "\u0394\u03c1\u03ac\u03bc\u03b1", "addr:housenumber": "21", "addr:street": "\u03a6\u03c9\u03ba\u03af\u03c9\u03bd\u03bf\u03c2", "amenity": "restaurant", "cuisine": "pizza", "delivery": "yes", "name": "\u039c\u03ac\u03ba\u03b7\u03c2", "phone": "+3251021999", "takeaway": "only"}}, {"type": "node", "id": 4013195625, "lat": 41.1492841, "lon": 24.1492128, "tags": {"amenity": "cafe", "internet_access": "yes", "name": "Internet - Action 16"}}, {"type": "node", "id": 4013195628, "lat": 41.1495933, "lon": 24.1484636, "tags": {"amenity": "cafe", "cuisine": "coffee_shop", "name": "\u03a4\u03c3\u03b5"}}, {"type": "node", "id": 4019068035, "lat": 41.0472994, "lon": 24.4488019, "tags": {"amenity": "restaurant", "name": "\u039f\u03c1\u03b5\u03b9\u03bd\u03cc", "phone": "+302510611634"}}, {"type": "node", "id": 4019290195, "lat": 41.1457922, "lon": 24.1483483, "tags": {"amenity": "cafe", "brand": "Coffee Island", "brand:wikidata": "Q60867333", "brand:wikipedia": "en:Coffee Island", "cuisine": "coffee_shop", "name": "Coffee Island", "takeaway": "yes"}}, {"type": "node", "id": 4019290208, "lat": 41.1461528, "lon": 24.14832, "tags": {"amenity": "restaurant", "name": "\u039f\u03b4\u03cc\u03c2 \u03c4\u03c9\u03bd \u0393\u03b5\u03cd\u03c3\u03b5\u03c9\u03bd"}}, {"type": "node", "id": 4019290222, "lat": 41.1467226, "lon": 24.1482917, "tags": {"amenity": "cafe", "name": "Living Room"}}, {"type": "node", "id": 4050811818, "lat": 41.1465603, "lon": 24.1488238, "tags": {"addr:housenumber": "11", "addr:street": "28\u03b7\u03c2 \u039f\u03ba\u03c4\u03c9\u03b2\u03c1\u03af\u03bf\u03c5", "amenity": "cafe", "cuisine": "greek", "name": "\u039c\u03c5\u03c1\u03c3\u03af\u03bd\u03b7"}}, {"type": "node", "id": 4050811822, "lat": 41.1474741, "lon": 24.1532468, "tags": {"addr:housenumber": "32", "addr:street": "\u03a6\u03b9\u03bb\u03af\u03c0\u03c0\u03bf\u03c5", "amenity": "cafe", "internet_access": "terminal", "name": "NET Station"}}, {"type": "node", "id": 4050811827, "lat": 41.1465867, "lon": 24.1500312, "tags": {"addr:street": "28\u03b7\u03c2 \u039f\u03ba\u03c4\u03c9\u03b2\u03c1\u03af\u03bf\u03c5", "amenity": "restaurant", "cuisine": "greek", "name": "\u03a3\u03c0\u03b9\u03c4\u03b9\u03ba\u03cc"}}, {"type": "node", "id": 4066907615, "lat": 41.143481, "lon": 24.1473153, "tags": {"addr:housenumber": "2", "addr:street": "1\u03b7\u03c2 \u0399\u03bf\u03c5\u03bb\u03af\u03bf\u03c5", "amenity": "restaurant", "cuisine": "greek", "name": "\u03a3\u03c0\u03b9\u03c4\u03b9\u03ba\u03ad\u03c2 \u0393\u03b5\u03cd\u03c3\u03b5\u03b9\u03c2", "name:el": "\u03a3\u03c0\u03b9\u03c4\u03b9\u03ba\u03ad"}}, {"type": "node", "id": 4066907629, "lat": 41.147179, "lon": 24.1480247, "tags": {"amenity": "cafe"}}, {"type": "node", "id": 4095151937, "lat": 41.1504484, "lon": 24.1474178, "tags": {"amenity": "cafe", "name": "MONK"}}, {"type": "node", "id": 4103280573, "lat": 41.1491108, "lon": 24.1481777, "tags": {"addr:city": "\u0394\u03c1\u03ac\u03bc\u03b1", "addr:street": "\u0394\u03b9\u03ac\u03ba\u03bf\u03c5", "amenity": "cafe", "internet_access": "wlan", "name": "\u0397 \u0393\u03b5\u03cd\u03c3\u03b7 \u03a4\u03bf\u03c5 \u039a\u03b1\u03c6\u03ad"}}, {"type": "node", "id": 4128428989, "lat": 41.2892739, "lon": 23.9324381, "tags": {"amenity": "restaurant", "cuisine": "greek", "name": "\u03a7\u03b1\u03bd\u03b9"}}, {"type": "node", "id": 4133657484, "lat": 41.1378414, "lon": 24.1762705, "tags": {"amenity": "restaurant", "cuisine": "regional", "name": "\u039b\u03bf\u03c5\u03ba\u03bf\u03cd\u03bb\u03bb\u03bf\u03c2 - \u0394\u03b5\u03be\u03b9\u03ce\u03c3\u03b5\u03b9\u03c2", "phone": "+30251021200"}}, {"type": "node", "id": 4133715371, "lat": 41.1422049, "lon": 24.1571998, "tags": {"addr:street": "\u039a\u03b1\u03c0\u03c0\u03b1\u03b4\u03bf\u03ba\u03af\u03b1\u03c2", "amenity": "cafe", "name": "\u03a3\u03c4\u03bf\u03c5 \u03a0\u03b5\u03c0\u03ad\u03c4\u03bf\u03c5"}}, {"type": "node", "id": 4133715376, "lat": 41.1453454, "lon": 24.1542467, "tags": {"amenity": "cafe", "name": "\u0391\u03bd\u03b1\u03c8\u03c5\u03ba\u03c4\u03ae\u03c1\u03b9\u03bf"}}, {"type": "node", "id": 4133715589, "lat": 41.1418588, "lon": 24.1550806, "tags": {"amenity": "cafe"}}, {"type": "node", "id": 4139197612, "lat": 41.1467154, "lon": 24.145834, "tags": {"amenity": "restaurant", "check_date": "2024-05-06", "cuisine": "pizza", "name": "\u039b\u03bf\u03ba\u03ac\u03bd\u03c4\u03b1"}}, {"type": "node", "id": 4139197615, "lat": 41.1458901, "lon": 24.1466761, "tags": {"amenity": "cafe", "name": "Kid's Club"}}, {"type": "node", "id": 4139197627, "lat": 41.146583, "lon": 24.1462302, "tags": {"amenity": "restaurant", "check_date": "2024-05-06", "cuisine": "fish_and_chips", "name": "\u039c\u03c0\u03b5\u03c2 \u03ba\u03b1\u03b9 \u03a0\u03b9\u03b5\u03c2"}}, {"type": "node", "id": 4139197634, "lat": 41.1465272, "lon": 24.1457894, "tags": {"amenity": "restaurant", "cuisine": "pizza", "name": "Toscana"}}, {"type": "node", "id": 4146182996, "lat": 41.1467608, "lon": 24.1474444, "tags": {"amenity": "cafe", "name": "MAD"}}, {"type": "node", "id": 4173230122, "lat": 41.0235517, "lon": 24.3643083, "tags": {"amenity": "restaurant", "cuisine": "regional", "internet_access": "wlan", "internet_access:fee": "no", "name": "\u039a\u03c4\u03ae\u03bc\u03b1 \u03a0\u03b1\u03c0\u03b1\u03b4\u03cc\u03c0\u03bf\u03c5\u03bb\u03bf\u03c5", "phone": "+306973055434", "website": "www.ktimapapadopoulou.gr"}}, {"type": "node", "id": 4222007303, "lat": 41.1502383, "lon": 24.1453433, "tags": {"addr:postcode": "66133", "addr:street": "\u03c0\u03ac\u03c1\u03bf\u03b4\u03bf\u03c2 \u0391\u03bc\u03cd\u03bd\u03c4\u03b1", "amenity": "cafe", "internet_access": "wlan", "name": "FIKA-cafe bar", "opening_hours": "24/7"}}, {"type": "node", "id": 4238252790, "lat": 41.1492825, "lon": 24.1469008, "tags": {"addr:housenumber": "6", "addr:postcode": "66131", "addr:street": "\u0395\u03b8\u03bd\u03b9\u03ba\u03ae\u03c2 \u0391\u03bc\u03cd\u03bd\u03b7\u03c2", "amenity": "cafe", "cuisine": "coffee_shop;breakfast;donut;greek;hot_dog;ice_cream", "internet_access": "wlan", "name": "Krokodilos", "opening_hours": "Mo-Su 06:00-23:00"}}, {"type": "node", "id": 4253415197, "lat": 41.1436131, "lon": 24.1484147, "tags": {"amenity": "cafe", "name": "onesto"}}, {"type": "node", "id": 4256302017, "lat": 41.1491553, "lon": 24.1427739, "tags": {"amenity": "restaurant", "cuisine": "greek", "name": "\u03a4\u03b1 \u039d\u03b5\u03c1\u03ac \u03c4\u03b7\u03c2 \u0391\u03b3\u03af\u03b1\u03c2 \u0392\u03b1\u03c1\u03b2\u03ac\u03c1\u03b1\u03c2"}}, {"type": "node", "id": 4265679238, "lat": 41.1532317, "lon": 24.1336817, "tags": {"amenity": "restaurant", "cuisine": "greek", "name": "\u03a3\u03c4\u03b7\u03bd \u0391\u03c5\u03bb\u03ae \u03c4\u03bf\u03c5 \u0389\u03b4\u03c9\u03bd\u03b1"}}, {"type": "node", "id": 4377251190, "lat": 41.0126898, "lon": 24.2887086, "tags": {"amenity": "cafe", "name": "\u03a6\u03af\u03bb\u03b9\u03c0\u03c0\u03bf\u03b9", "name:el": "\u03a6\u03af\u03bb\u03b9\u03c0\u03c0\u03bf\u03b9", "name:nl": "Philippi"}}, {"type": "node", "id": 4434056393, "lat": 41.0743913, "lon": 24.242088, "tags": {"amenity": "restaurant", "cuisine": "pizza", "name": "\u039c\u03af\u03bc\u03b7\u03c2"}}, {"type": "node", "id": 4434056405, "lat": 41.07331, "lon": 24.2414059, "tags": {"amenity": "restaurant", "cuisine": "greek", "name": "\u03a7\u03c1\u03ae\u03c3\u03c4\u03bf\u03c2"}}, {"type": "node", "id": 4434056407, "lat": 41.0742091, "lon": 24.2417868, "tags": {"amenity": "restaurant"}}, {"type": "node", "id": 4434056411, "lat": 41.0752298, "lon": 24.2450957, "tags": {"amenity": "restaurant", "name": "\u039a\u03bf\u03c4\u03bf\u03c0\u03bf\u03c5\u03bb\u03ac\u03b4\u03b9\u03ba\u03bf"}}, {"type": "node", "id": 4434056413, "lat": 41.0752496, "lon": 24.2445842, "tags": {"amenity": "cafe", "name": "\u0392\u03bf\u03ca\u03c1\u03ac\u03bd\u03b7"}}, {"type": "node", "id": 4445409451, "lat": 41.0736125, "lon": 24.2411288, "tags": {"amenity": "restaurant", "cuisine": "pizza", "name": "Leggenda - Cafe"}}, {"type": "node", "id": 4445409452, "lat": 41.0747301, "lon": 24.2425241, "tags": {"amenity": "restaurant", "cuisine": "greek", "name": "\u039f \u0398\u03cc\u03b4\u03c9\u03c1\u03bf\u03c2"}}, {"type": "node", "id": 4445409456, "lat": 41.0742514, "lon": 24.2421196, "tags": {"amenity": "cafe", "name": "Internet"}}, {"type": "node", "id": 4445409461, "lat": 41.074198, "lon": 24.242055, "tags": {"amenity": "cafe", "name": "\u03a4\u03bf \u03a3\u03c4\u03ad\u03ba\u03b9"}}, {"type": "node", "id": 4454645390, "lat": 41.0756435, "lon": 24.2457124, "tags": {"amenity": "cafe", "name": "\u039a\u03b1\u03c6\u03b5\u03bd\u03b5\u03af\u03bf"}}, {"type": "node", "id": 4469596203, "lat": 41.1928117, "lon": 23.9101074}, {"type": "node", "id": 4469596204, "lat": 41.1928505, "lon": 23.9102361}, {"type": "node", "id": 4469596206, "lat": 41.1929758, "lon": 23.9100202}, {"type": "node", "id": 4469596207, "lat": 41.1930145, "lon": 23.910149}, {"type": "node", "id": 4640100228, "lat": 41.1472116, "lon": 24.1443184, "tags": {"amenity": "cafe", "check_date": "2024-05-07", "internet_access": "yes", "internet_access:fee": "no", "internet_access:ssid": "Aigaio", "name": "\u0391\u03b9\u03b3\u03b1\u03af\u03bf Cafe-Bar", "outdoor_seating": "yes"}}, {"type": "node", "id": 4758743870, "lat": 40.994747, "lon": 24.3150742, "tags": {"amenity": "restaurant", "name": "Alexandros Palace"}}, {"type": "node", "id": 4763703718, "lat": 41.074581, "lon": 24.2460988, "tags": {"amenity": "restaurant", "name": "\u039c\u03ae\u03c4\u03c3\u03bf\u03c2 (\u03bf\u03c5\u03b6\u03b5\u03c1\u03af)"}}, {"type": "node", "id": 4763923878, "lat": 40.9893137, "lon": 24.3251659, "tags": {"amenity": "restaurant", "cuisine": "greek", "name": "\u039f \u0393\u03b9\u03ce\u03c1\u03b3\u03bf\u03c2"}}, {"type": "node", "id": 4934973937, "lat": 41.1405862, "lon": 24.1250972, "tags": {"addr:city": "\u0391\u03c1\u03ba\u03b1\u03b4\u03b9\u03ba\u03cc\u03c2, \u0394\u03c1\u03ac\u03bc\u03b1", "addr:housenumber": "34", "addr:postcode": "66100", "addr:street": "\u03a0\u03c5\u03b8\u03b1\u03b3\u03cc\u03c1\u03b1", "amenity": "cafe", "internet_access": "wlan", "internet_access:fee": "no", "name": "Cafe Caramela", "outdoor_seating": "yes", "website": "https://www.facebook.com/Cafe-Caramela-608749635990962/"}}, {"type": "node", "id": 5018493775, "lat": 41.072833, "lon": 24.2651543, "tags": {"amenity": "cafe", "name": "\u03a0\u03b7\u03b3\u03ad\u03c2 \u03c4\u03bf\u03c5 \u03a0\u03b1\u03c1\u03b1\u03b4\u03b5\u03af\u03c3\u03bf\u03c5"}}, {"type": "node", "id": 5018493777, "lat": 41.0721764, "lon": 24.2658349, "tags": {"amenity": "restaurant", "cuisine": "greek", "name": "\u03a0\u03b7\u03b3\u03ad\u03c2 \u03c4\u03bf\u03c5 \u03a0\u03b1\u03c1\u03b1\u03b4\u03b5\u03af\u03c3\u03bf\u03c5"}}, {"type": "node", "id": 5199758123, "lat": 41.1500079, "lon": 24.1479082, "tags": {"amenity": "cafe", "name": "\u0391\u0395\u039a", "name:el": "\u0391\u0395\u039a"}}, {"type": "node", "id": 5363701997, "lat": 41.1909862, "lon": 23.933552, "tags": {"amenity": "cafe"}}, {"type": "node", "id": 5363702524, "lat": 41.1902886, "lon": 23.9315319, "tags": {"amenity": "cafe"}}, {"type": "node", "id": 5363702525, "lat": 41.1902459, "lon": 23.9317542, "tags": {"amenity": "cafe", "name": "\u0397 \u039a\u03c1\u03af\u03c3\u03b7"}}, {"type": "node", "id": 5363724479, "lat": 41.1949943, "lon": 23.929942, "tags": {"amenity": "restaurant", "name": "\u0391\u03bc\u03c5\u03b3\u03b4\u03b1\u03bb\u03b9\u03ad\u03c2"}}, {"type": "node", "id": 5363724484, "lat": 41.2120513, "lon": 23.9123613, "tags": {"amenity": "restaurant", "name": "Nostos"}}, {"type": "node", "id": 5363749871, "lat": 41.1102073, "lon": 24.0270512, "tags": {"amenity": "cafe", "name": "\u03a1\u03b5\u03bc\u03ad\u03bd\u03c4\u03b6\u03bf"}}, {"type": "node", "id": 5363749875, "lat": 41.1104946, "lon": 24.028234, "tags": {"amenity": "cafe", "name": "\u0393\u03b1\u03c4\u03af\u03b4\u03b7\u03c2"}}, {"type": "node", "id": 5363749876, "lat": 41.1107575, "lon": 24.0281538, "tags": {"amenity": "cafe", "name": "\u039a\u03b5\u03bd\u03c4\u03c1\u03b9\u03ba\u03cc"}}, {"type": "node", "id": 5363751684, "lat": 41.1113074, "lon": 24.029058, "tags": {"amenity": "cafe", "name": "\u039c\u03c0\u03ac\u03c7\u03b1\u03bb\u03bf"}}, {"type": "node", "id": 5365747412, "lat": 41.1066284, "lon": 24.0869871, "tags": {"amenity": "restaurant", "cuisine": "\u03a8\u03b7\u03c4\u03bf\u03c0\u03c9\u03bb\u03b5\u03af\u03bf;\u039a\u03b1\u03c6\u03ad", "name": "\u0386\u03bd\u03bd\u03b1"}}, {"type": "node", "id": 5365764660, "lat": 41.0980642, "lon": 24.1140889, "tags": {"amenity": "cafe"}}, {"type": "node", "id": 5365764661, "lat": 41.0982561, "lon": 24.1141616, "tags": {"amenity": "cafe"}}, {"type": "node", "id": 5365788605, "lat": 41.1217234, "lon": 24.0443438, "tags": {"amenity": "cafe"}}, {"type": "node", "id": 5365788606, "lat": 41.1215774, "lon": 24.0440208, "tags": {"amenity": "restaurant"}}, {"type": "node", "id": 5370153506, "lat": 41.1099996, "lon": 23.997661, "tags": {"amenity": "cafe"}}, {"type": "node", "id": 5370456666, "lat": 41.1785591, "lon": 23.971699, "tags": {"amenity": "cafe", "name": "\u0392\u03b1\u03bb\u03ba\u03ac\u03bd\u03b9\u03b1"}}, {"type": "node", "id": 5370456670, "lat": 41.1786749, "lon": 23.9700795, "tags": {"amenity": "cafe"}}, {"type": "node", "id": 5370456671, "lat": 41.1782679, "lon": 23.9701531, "tags": {"amenity": "cafe", "internet_access": "wlan", "name": "Animus", "phone": "2522110016"}}, {"type": "node", "id": 5370456674, "lat": 41.1777749, "lon": 23.9698978, "tags": {"amenity": "cafe"}}, {"type": "node", "id": 5370456675, "lat": 41.1778738, "lon": 23.9699416, "tags": {"amenity": "cafe"}}, {"type": "node", "id": 5370456678, "lat": 41.1776391, "lon": 23.9692368, "tags": {"amenity": "cafe"}}, {"type": "node", "id": 5370460973, "lat": 41.1780341, "lon": 23.9692455, "tags": {"amenity": "restaurant", "cuisine": "\u03a8\u03b7\u03c3\u03c4\u03b1\u03c1\u03b9\u03ac", "name": "\u0393\u03cd\u03c1\u03c9 \u0393\u03cd\u03c1\u03c9 \u038c\u03bb\u03bf\u03b9"}}, {"type": "node", "id": 5370460974, "lat": 41.1782267, "lon": 23.9694429, "tags": {"amenity": "cafe", "name": "Villagio"}}, {"type": "node", "id": 5370460975, "lat": 41.1782202, "lon": 23.9695838, "tags": {"amenity": "cafe", "cuisine": "\u039a\u03b1\u03c6\u03ad;\u03a0\u03af\u03c4\u03c3\u03b1", "name": "Monza"}}, {"type": "node", "id": 5370460977, "lat": 41.1781924, "lon": 23.9698397, "tags": {"amenity": "restaurant", "name": "\u0388\u03b4\u03b5\u03c3\u03bc\u03b1"}}, {"type": "node", "id": 5370481098, "lat": 41.1782365, "lon": 23.968686, "tags": {"amenity": "restaurant", "cuisine": "pizza"}}, {"type": "node", "id": 5370481099, "lat": 41.1783801, "lon": 23.9685494, "tags": {"amenity": "restaurant", "name": "\u03a7\u03ac\u03c1\u03b7\u03c2"}}, {"type": "node", "id": 5370481100, "lat": 41.1784046, "lon": 23.9684041, "tags": {"amenity": "cafe", "name": "Mood"}}, {"type": "node", "id": 5370481103, "lat": 41.1784226, "lon": 23.9682458, "tags": {"amenity": "restaurant"}}, {"type": "node", "id": 5370481104, "lat": 41.1782186, "lon": 23.9681786, "tags": {"amenity": "restaurant"}}, {"type": "node", "id": 5370663151, "lat": 41.1463924, "lon": 23.9054107, "tags": {"amenity": "cafe"}}, {"type": "node", "id": 5370663152, "lat": 41.1460362, "lon": 23.9056654, "tags": {"amenity": "cafe"}}, {"type": "node", "id": 5370663163, "lat": 41.1445541, "lon": 23.9066048, "tags": {"amenity": "cafe"}}, {"type": "node", "id": 5370663164, "lat": 41.1445096, "lon": 23.9066519, "tags": {"amenity": "cafe"}}, {"type": "node", "id": 5375450130, "lat": 41.1172052, "lon": 23.9163249, "tags": {"amenity": "restaurant", "name": "\u039f \u03a0\u03bb\u03ac\u03c4\u03b1\u03bd\u03bf\u03c2"}}, {"type": "node", "id": 5375450145, "lat": 41.1172759, "lon": 23.9157623, "tags": {"amenity": "cafe", "name": "\u0386\u03b4\u03c9\u03bd\u03b9\u03c2"}}, {"type": "node", "id": 5375450147, "lat": 41.1172789, "lon": 23.9156146, "tags": {"amenity": "restaurant"}}, {"type": "node", "id": 5375450148, "lat": 41.1167953, "lon": 23.9136249, "tags": {"amenity": "restaurant", "name": "\u0395\u03bd\u03b1\u03bb\u03bb\u03ac\u03be"}}, {"type": "node", "id": 5375450159, "lat": 41.1163224, "lon": 23.9129294, "tags": {"amenity": "restaurant"}}, {"type": "node", "id": 5375450160, "lat": 41.112724, "lon": 23.9154005, "tags": {"amenity": "restaurant", "name": "\u039c\u03b5\u03bd\u03bf\u03b9\u03ba\u03b9\u03bf"}}, {"type": "node", "id": 5375468822, "lat": 41.0915806, "lon": 23.8956353, "tags": {"amenity": "cafe"}}, {"type": "node", "id": 5375468828, "lat": 41.0913324, "lon": 23.8963848, "tags": {"amenity": "restaurant", "name": "\u0391\u03bd\u03b4\u03c1\u03ad\u03b1\u03c2"}}, {"type": "node", "id": 5375605983, "lat": 41.2891633, "lon": 23.9319124, "tags": {"amenity": "restaurant", "name": "\u039f\u03b9\u03bd\u03bf\u03bc\u03b1\u03b3\u03b5\u03b9\u03c1\u03ad\u03bc\u03b1\u03c4\u03b1"}}, {"type": "node", "id": 5375605984, "lat": 41.2894217, "lon": 23.9317016, "tags": {"amenity": "restaurant", "name": "\u03a0\u03b1\u03c1\u03ac\u03b4\u03b5\u03b9\u03c3\u03bf\u03c2"}}, {"type": "node", "id": 5375671744, "lat": 41.4059286, "lon": 23.8951738, "tags": {"amenity": "cafe"}}, {"type": "node", "id": 5375671745, "lat": 41.4055364, "lon": 23.8949882, "tags": {"amenity": "cafe", "name": "\u039f \u039d\u03b5\u03ba\u03c4\u03ac\u03c1\u03b9\u03bf\u03c2"}}, {"type": "node", "id": 5375671746, "lat": 41.4051497, "lon": 23.8949681, "tags": {"amenity": "restaurant", "cuisine": "\u03a8\u03b7\u03c3\u03c4\u03b1\u03c1\u03b9\u03ac", "name": "\u03a4\u03bf \u03a6\u03c1\u03ac\u03b3\u03bc\u03b1"}}, {"type": "node", "id": 5380105048, "lat": 41.1481055, "lon": 24.1495571, "tags": {"addr:city": "\u0394\u03c1\u03ac\u03bc\u03b1", "addr:housenumber": "111", "addr:postcode": "66100", "addr:street": "\u0392\u03b5\u03c1\u03b3\u03af\u03bd\u03b1\u03c2", "amenity": "restaurant", "cuisine": "steak_house;greek;kebab", "delivery": "yes", "name": "\u0391\u03c1\u03b9\u03c3\u03c4\u03bf\u03bc\u03ad\u03bd\u03b7\u03c2", "opening_hours": "Mo-Sa 10:30-22:00", "phone": "2521020173 , 6940209095", "takeaway": "yes"}}, {"type": "node", "id": 5387849721, "lat": 41.1729527, "lon": 24.2133737, "tags": {"amenity": "restaurant", "cuisine": "greek", "name": "\u0391\u03c1\u03b9\u03c3\u03c4\u03bf\u03c4\u03ad\u03bb\u03b7\u03c2", "phone": "+302521098219"}}, {"type": "node", "id": 5387988220, "lat": 41.1654619, "lon": 24.1609524}, {"type": "node", "id": 5387989621, "lat": 41.165484, "lon": 24.1609931}, {"type": "node", "id": 5387989622, "lat": 41.1654926, "lon": 24.160985}, {"type": "node", "id": 5387989623, "lat": 41.1655502, "lon": 24.1611185}, {"type": "node", "id": 5387989624, "lat": 41.1655416, "lon": 24.1611267}, {"type": "node", "id": 5387989625, "lat": 41.165587, "lon": 24.1612081}, {"type": "node", "id": 5387989626, "lat": 41.1655784, "lon": 24.1612162}, {"type": "node", "id": 5387989627, "lat": 41.1655943, "lon": 24.1612488}, {"type": "node", "id": 5387989628, "lat": 41.165457, "lon": 24.1613774}, {"type": "node", "id": 5387989629, "lat": 41.1654264, "lon": 24.1614149}, {"type": "node", "id": 5387989630, "lat": 41.1653553, "lon": 24.1615126}, {"type": "node", "id": 5387989631, "lat": 41.1652413, "lon": 24.161493}, {"type": "node", "id": 5387989632, "lat": 41.1653406, "lon": 24.1613074}, {"type": "node", "id": 5387989633, "lat": 41.165294, "lon": 24.1612146}, {"type": "node", "id": 5387989634, "lat": 41.1653602, "lon": 24.1611446}, {"type": "node", "id": 5387989635, "lat": 41.165321, "lon": 24.1610827}, {"type": "node", "id": 5401579809, "lat": 41.3914161, "lon": 24.098223}, {"type": "node", "id": 5401579810, "lat": 41.3912732, "lon": 24.0981935}, {"type": "node", "id": 5401579811, "lat": 41.3912982, "lon": 24.0979783}, {"type": "node", "id": 5401579812, "lat": 41.3914411, "lon": 24.0980078}, {"type": "node", "id": 5402583010, "lat": 41.3941995, "lon": 24.0992416}, {"type": "node", "id": 5402583011, "lat": 41.3942169, "lon": 24.0991799}, {"type": "node", "id": 5402583012, "lat": 41.394176, "lon": 24.0991585}, {"type": "node", "id": 5402583013, "lat": 41.3941579, "lon": 24.0992199}, {"type": "node", "id": 5402583014, "lat": 41.3943065, "lon": 24.0993488}, {"type": "node", "id": 5402583015, "lat": 41.3941864, "lon": 24.0992859}, {"type": "node", "id": 5402583016, "lat": 41.3942262, "lon": 24.0991485}, {"type": "node", "id": 5402583017, "lat": 41.3943468, "lon": 24.0992117}, {"type": "node", "id": 5410202420, "lat": 41.1947832, "lon": 24.0159919, "tags": {"amenity": "cafe"}}, {"type": "node", "id": 5410202532, "lat": 41.1949251, "lon": 24.0159056, "tags": {"amenity": "cafe", "name": "\u038a\u03c1\u03b9\u03b4\u03b1"}}, {"type": "node", "id": 5410202533, "lat": 41.1949901, "lon": 24.0158385, "tags": {"amenity": "cafe"}}, {"type": "node", "id": 5410204117, "lat": 41.1936068, "lon": 24.0178349, "tags": {"amenity": "cafe"}}, {"type": "node", "id": 5550779313, "lat": 41.1507317, "lon": 24.1455311, "tags": {"amenity": "cafe", "internet_access": "wlan", "internet_access:fee": "no", "name": "Ginger", "outdoor_seating": "yes", "payment:cash": "yes", "payment:coins": "yes", "payment:mastercard": "yes", "payment:visa": "yes", "smoking": "outside"}}, {"type": "node", "id": 5550779314, "lat": 41.1508051, "lon": 24.1455328, "tags": {"amenity": "cafe", "internet_access": "wlan", "internet_access:fee": "no", "name": "Anoi", "outdoor_seating": "no", "smoking": "outside"}}, {"type": "node", "id": 5766941093, "lat": 41.0986582, "lon": 24.1755957, "tags": {"amenity": "cafe", "name": "ETO Sport", "phone": "+30(252) 10 83 066"}}, {"type": "node", "id": 5859513269, "lat": 41.1120887, "lon": 23.9948811, "tags": {"amenity": "restaurant", "cuisine": "regional;greek", "delivery": "no", "outdoor_seating": "yes", "smoking": "yes", "takeaway": "yes"}}, {"type": "node", "id": 5859675322, "lat": 41.1116266, "lon": 23.9958122, "tags": {"amenity": "cafe", "internet_access": "wlan", "outdoor_seating": "yes", "smoking": "outside"}}, {"type": "node", "id": 5859686658, "lat": 41.1101012, "lon": 23.9940084, "tags": {"amenity": "cafe", "internet_access": "wlan", "outdoor_seating": "yes"}}, {"type": "node", "id": 6013821937, "lat": 41.149326, "lon": 24.1432549, "tags": {"addr:city": "\u0394\u03c1\u03ac\u03bc\u03b1", "amenity": "cafe", "internet_access": "wlan", "internet_access:fee": "no", "name": "\u03a6\u03b9\u03bb\u03ad\u03c4\u03bf", "outdoor_seating": "yes", "smoking": "outside"}}, {"type": "node", "id": 6298908985, "lat": 41.0707213, "lon": 24.3731997, "tags": {"entrance": "yes"}}, {"type": "node", "id": 6298908986, "lat": 41.0707476, "lon": 24.3732011}, {"type": "node", "id": 6303143388, "lat": 41.2845991, "lon": 24.2087616, "tags": {"addr:city": "\u039b\u03b9\u03b2\u03b1\u03b4\u03b5\u03c1\u03cc", "addr:postcode": "66150", "amenity": "restaurant", "name": "\u03a0\u03ad\u03c4\u03c1\u03b9\u03bd\u03b7 \u0393\u03c9\u03bd\u03b9\u03ac", "phone": "+302521091388"}}, {"type": "node", "id": 6303564911, "lat": 41.1501323, "lon": 24.1449908, "tags": {"addr:city": "\u0394\u03c1\u03ac\u03bc\u03b1", "addr:housenumber": "56", "addr:postcode": "66100", "addr:street": "\u0391\u03bc\u03cd\u03bd\u03c4\u03b1", "amenity": "restaurant", "cuisine": "greek", "name": "\u0388\u03b9 \u03ba\u03b9\u03c4\u03af", "phone": "+306998443507"}}, {"type": "node", "id": 6342423656, "lat": 41.0263523, "lon": 24.3761019}, {"type": "node", "id": 6342423657, "lat": 41.0265314, "lon": 24.3761341}, {"type": "node", "id": 6342423658, "lat": 41.0265303, "lon": 24.3763232}, {"type": "node", "id": 6342423659, "lat": 41.0263442, "lon": 24.376283}, {"type": "node", "id": 6358281578, "lat": 41.0225997, "lon": 24.3751506, "tags": {"entrance": "main"}}, {"type": "node", "id": 6358281579, "lat": 41.0225598, "lon": 24.375008}, {"type": "node", "id": 6358281580, "lat": 41.0226112, "lon": 24.3751915}, {"type": "node", "id": 6358281581, "lat": 41.0227974, "lon": 24.3750998}, {"type": "node", "id": 6358281582, "lat": 41.0227459, "lon": 24.3749163}, {"type": "node", "id": 6377255372, "lat": 41.0210455, "lon": 24.2946593}, {"type": "node", "id": 6377255373, "lat": 41.0211001, "lon": 24.2947546}, {"type": "node", "id": 6377255374, "lat": 41.0211811, "lon": 24.2947251}, {"type": "node", "id": 6377255375, "lat": 41.0212145, "lon": 24.2948431}, {"type": "node", "id": 6377255376, "lat": 41.0210991, "lon": 24.2950389}, {"type": "node", "id": 6377255377, "lat": 41.0210111, "lon": 24.2952669}, {"type": "node", "id": 6377255378, "lat": 41.0209342, "lon": 24.2952226}, {"type": "node", "id": 6377255379, "lat": 41.0207946, "lon": 24.2950898}, {"type": "node", "id": 6377255380, "lat": 41.0209929, "lon": 24.2946567}, {"type": "node", "id": 6381092771, "lat": 41.0227173, "lon": 24.3751393, "tags": {"entrance": "yes"}}, {"type": "node", "id": 6690505950, "lat": 41.0441349, "lon": 24.1324528, "tags": {"amenity": "cafe"}}, {"type": "node", "id": 7546243531, "lat": 41.0330291, "lon": 24.0311222}, {"type": "node", "id": 7546243532, "lat": 41.032973, "lon": 24.0311493}, {"type": "node", "id": 7546243533, "lat": 41.0329373, "lon": 24.0310185}, {"type": "node", "id": 7546243534, "lat": 41.0329985, "lon": 24.0309914}, {"type": "node", "id": 7872985585, "lat": 41.0184871, "lon": 24.2951832, "tags": {"amenity": "restaurant", "name:de": "Taverna O Naftis"}}, {"type": "node", "id": 7968561223, "lat": 41.0520778, "lon": 24.44526, "tags": {"amenity": "restaurant", "cuisine": "regional", "name": "\u039a\u03bf\u03c1\u03c5\u03c6\u03ad\u03c2", "outdoor_seating": "yes", "phone": "+302510611922"}}, {"type": "node", "id": 7969678740, "lat": 41.1571747, "lon": 24.1521532, "tags": {"addr:housenumber": "34", "addr:postcode": "66100", "addr:street": "\u0391\u03ba\u03c1\u03bf\u03c0\u03cc\u03bb\u03b5\u03c9\u03c2", "amenity": "restaurant", "cuisine": "pizza", "name": "Mama Sia", "phone": "+30 2521 021948", "website": "https://www.e-food.gr/delivery/drama/mamma-sia"}}, {"type": "node", "id": 8072179874, "lat": 41.1481708, "lon": 24.1457745}, {"type": "node", "id": 8072179875, "lat": 41.1482866, "lon": 24.1459275}, {"type": "node", "id": 8072216801, "lat": 41.1483244, "lon": 24.1459325}, {"type": "node", "id": 8072232307, "lat": 41.1483119, "lon": 24.1459332}, {"type": "node", "id": 8072238616, "lat": 41.1481448, "lon": 24.145839}, {"type": "node", "id": 8072251363, "lat": 41.1483116, "lon": 24.1459259}, {"type": "node", "id": 8072254030, "lat": 41.1481508, "lon": 24.1459949}, {"type": "node", "id": 8072254434, "lat": 41.1483667, "lon": 24.1459223}, {"type": "node", "id": 8072259415, "lat": 41.1481724, "lon": 24.1459401}, {"type": "node", "id": 8072260324, "lat": 41.148324, "lon": 24.145925}, {"type": "node", "id": 8072265896, "lat": 41.1482015, "lon": 24.1460468}, {"type": "node", "id": 8072266639, "lat": 41.148293, "lon": 24.1459622}, {"type": "node", "id": 8072271406, "lat": 41.148294, "lon": 24.146007}, {"type": "node", "id": 8072271919, "lat": 41.1483695, "lon": 24.1458592}, {"type": "node", "id": 8072272725, "lat": 41.1481566, "lon": 24.1459466}, {"type": "node", "id": 8072278151, "lat": 41.1483613, "lon": 24.1458933}, {"type": "node", "id": 8231243589, "lat": 41.1464191, "lon": 23.9078545, "tags": {"amenity": "restaurant", "name": "\u03a4\u03b1\u03b2\u03ad\u03c1\u03bd\u03b1 \u0394\u03b9\u03cc\u03bd\u03c5\u03c3\u03bf\u03c2"}}, {"type": "node", "id": 9444025203, "lat": 41.0122097, "lon": 23.9404004}, {"type": "node", "id": 9444025204, "lat": 41.0122455, "lon": 23.9406243}, {"type": "node", "id": 9444025205, "lat": 41.0120602, "lon": 23.9406764}, {"type": "node", "id": 9444025206, "lat": 41.0120243, "lon": 23.9404525}, {"type": "node", "id": 11135922451, "lat": 41.0912343, "lon": 24.2320606}, {"type": "node", "id": 11135922452, "lat": 41.0911791, "lon": 24.2321292}, {"type": "node", "id": 11135922453, "lat": 41.0912607, "lon": 24.2322451}, {"type": "node", "id": 11135922454, "lat": 41.0913167, "lon": 24.2321756}, {"type": "node", "id": 11135922455, "lat": 41.0913033, "lon": 24.2321566}, {"type": "node", "id": 11135922456, "lat": 41.0913239, "lon": 24.232131}, {"type": "node", "id": 11135922457, "lat": 41.0912846, "lon": 24.2320752}, {"type": "node", "id": 11135922458, "lat": 41.0912633, "lon": 24.2321017}, {"type": "node", "id": 11926799243, "lat": 41.1490777, "lon": 24.1432064, "tags": {"amenity": "restaurant", "cuisine": "greek", "name": "\u039d\u03c4\u03b5\u03bb\u03b9\u03ba\u03ac\u03c4\u03bf"}}, {"type": "node", "id": 11969008879, "lat": 41.3659785, "lon": 24.2277347, "tags": {"amenity": "restaurant", "cuisine": "greek", "name": "\u03a4\u0391\u0392\u0395\u03a1\u039d\u0391 '\u03a4\u039f \u039e\u03a5\u039b\u0399\u039d\u039f'", "opening_hours": "Mo off; Tu-Su 10:00-22:00", "phone": "+306979509496"}}, {"type": "node", "id": 12008951670, "lat": 40.9945349, "lon": 23.9832699, "tags": {"amenity": "cafe"}}, {"type": "node", "id": 12015291828, "lat": 41.1486902, "lon": 24.145678, "tags": {"addr:city": "\u0394\u03c1\u03ac\u03bc\u03b1", "addr:housenumber": "18", "addr:postcode": "66100", "addr:street": "\u039a\u03cd\u03c0\u03c1\u03bf\u03c5", "amenity": "cafe", "name": "\u03a0\u03bf\u03bb\u03cd\u03b3\u03b5\u03c5\u03c3\u03c4\u03bf", "operator": "\u03a0\u03b1\u03c0\u03b1\u03b4\u03bf\u03c0\u03bf\u03cd\u03bb\u03bf\u03c5 \u039a\u03c5\u03c1\u03b9\u03b1\u03ba\u03ae", "outdoor_seating": "sidewalk", "ref:vatin": "EL101858841"}}, {"type": "node", "id": 12118532301, "lat": 41.0625299, "lon": 24.2660932, "tags": {"addr:postcode": "66032", "addr:street": "\u0394\u03bf\u03be\u03ac\u03c4\u03bf", "amenity": "restaurant", "cuisine": "greek", "name": "\u03a0\u03bf\u03c4\u03b1\u03bc\u03cc\u03c2", "phone": "2521086300"}}, {"type": "way", "id": 393570207, "nodes": [3967770328, 3967770327, 6298908986, 6298908985, 3967770325, 3967770326, 3967770328], "tags": {"amenity": "restaurant", "cuisine": "greek", "name": "\u0392\u03b1\u03c3\u03af\u03bb\u03b7\u03c2", "phone": "+302510612055"}}, {"type": "way", "id": 450040043, "nodes": [4469596206, 4469596207, 4469596204, 4469596203, 4469596206], "tags": {"amenity": "restaurant"}}, {"type": "way", "id": 558628469, "nodes": [5387988220, 5387989621, 5387989622, 5387989623, 5387989624, 5387989625, 5387989626, 5387989627, 5387989628, 5387989629, 5387989630, 5387989631, 5387989632, 5387989633, 5387989634, 5387989635, 5387988220], "tags": {"amenity": "cafe", "building": "yes", "cuisine": "pizza;burger;sandwich", "internet_access": "wlan", "name": "\u0388\u03bd\u03b1\u03c3\u03c4\u03c1\u03bf\u03bd \u039a\u03bf\u03c1\u03c5\u03bb\u03cc\u03b2\u03bf\u03c5", "outdoor_seating": "yes", "smoking": "outside"}}, {"type": "way", "id": 560122659, "nodes": [5401579812, 5401579809, 5401579810, 5401579811, 5401579812], "tags": {"amenity": "restaurant", "building": "residential", "name": "\u03a4\u03b1\u03b2\u03ad\u03c1\u03bd\u03b1 '\u03a4\u03bf \u0392\u03b5\u03bd\u03b6\u03b9\u03bd\u03ac\u03b4\u03b9\u03ba\u03bf'"}}, {"type": "way", "id": 560212829, "nodes": [5402583011, 5402583016, 5402583017, 5402583014, 5402583015, 5402583010, 5402583013, 5402583012, 5402583011], "tags": {"amenity": "cafe", "building": "residential"}}, {"type": "way", "id": 677355487, "nodes": [6342423659, 6342423658, 6342423657, 6342423656, 6342423659], "tags": {"addr:city": "\u039a\u03c1\u03c5\u03bf\u03bd\u03ad\u03c1\u03b9", "amenity": "restaurant", "building": "yes", "cuisine": "regional", "name": "\u0397 \u03a4\u03b1\u03b2\u03ad\u03c1\u03bd\u03b1 \u03c4\u03bf\u03c5 \u03a7\u03b1\u03c3\u03ac\u03c0\u03b7", "opening_hours": "Mo-We 18:00-00:30; Th-Sa 12:30-00:30; Su 12:30-24:00", "phone": "+302510611449"}}, {"type": "way", "id": 679049315, "nodes": [6358281582, 6358281581, 6381092771, 6358281580, 6358281578, 6358281579, 6358281582], "tags": {"amenity": "restaurant", "cuisine": "greek", "name": "\u039c\u03b5\u03c4\u03cc\u03c7\u03b9", "outdoor_seating": "yes", "phone": "+302510611990"}}, {"type": "way", "id": 681032162, "nodes": [6377255380, 6377255379, 6377255378, 6377255377, 6377255376, 6377255375, 6377255374, 6377255373, 6377255372, 6377255380], "tags": {"addr:housenumber": "1", "addr:postcode": "64003", "addr:street": "\u0391\u03b9\u03cc\u03bb\u03bf\u03c5", "amenity": "restaurant", "name": "\u03a6\u03b9\u03bb\u03af\u03c0\u03c0\u03b5\u03b9\u03bf", "tourism": "hotel", "website": "https://philippeio.gr/new2/", "wikidata": "Q111858198"}}, {"type": "way", "id": 806967115, "nodes": [7546243534, 7546243533, 7546243532, 7546243531, 7546243534], "tags": {"amenity": "restaurant", "building": "yes", "cuisine": "fish", "shop": "seafood"}}, {"type": "way", "id": 866049285, "nodes": [8072271919, 8072278151, 8072254434, 8072260324, 8072216801, 8072232307, 8072251363, 8072179875, 8072266639, 8072271406, 8072265896, 8072254030, 8072272725, 8072259415, 8072238616, 8072179874, 8072271919], "tags": {"amenity": "cafe", "building": "yes", "name": "\u039a\u03ae\u03c0\u03bf\u03c2", "outdoor_seating": "yes"}}, {"type": "way", "id": 1024160380, "nodes": [9444025203, 9444025204, 9444025205, 9444025206, 9444025203], "tags": {"amenity": "cafe", "building": "yes", "cuisine": "coffee_shop", "name": "Riverland"}}, {"type": "way", "id": 1201041571, "nodes": [11135922451, 11135922452, 11135922453, 11135922454, 11135922455, 11135922456, 11135922457, 11135922458, 11135922451], "tags": {"amenity": "cafe", "building": "yes"}}]}