{"version": 0.6, "generator": "Overpass API 0.7.62.7 375dc00a", "osm3s": {"timestamp_osm_base": "2025-06-14T14:55:36Z", "copyright": "The data included in this document is from www.openstreetmap.org. The data is made available under ODbL."}, "elements": [{"type": "node", "id": 6002730385, "lat": 39.2631291, "lon": 28.3034721, "tags": {"amenity": "restaurant", "name": "Poisson"}}, {"type": "node", "id": 11029726832, "lat": 39.3778561, "lon": 27.9567687, "tags": {"amenity": "restaurant", "brand": "K\u00f6fteci Yusuf", "brand:wikidata": "Q126125081", "cuisine": "turkish", "name": "K\u00f6fteci Yusuf"}}, {"type": "node", "id": 12037963270, "lat": 39.4426576, "lon": 27.9250493, "tags": {"amenity": "restaurant", "name": "\u00c7avus Baba"}}, {"type": "node", "id": 12039259869, "lat": 39.4263227, "lon": 27.9392549, "tags": {"amenity": "restaurant", "internet_access": "wlan", "name": "Alkan Et"}}, {"type": "node", "id": 12041850469, "lat": 39.2390039, "lon": 28.1774526, "tags": {"amenity": "restaurant"}}, {"type": "node", "id": 12062820969, "lat": 39.2389769, "lon": 28.1750454, "tags": {"amenity": "cafe", "name": "Zeytindali Meydan Park"}}, {"type": "node", "id": 12063656542, "lat": 39.2100452, "lon": 28.2304505, "tags": {"amenity": "restaurant", "check_date": "2024-08-06", "contact:instagram": "https://www.instagram.com/\u00c7\u0130FTL\u0130\u011e\u0130", "contact:whatsapp": "+5413977985", "cuisine": "turkish;pizza;local;cake;pasta;salad;pancake;breakfast;dessert;bakery;regional;fish;kebab;chicken;juice;barbecue;sandwich", "delivery": "no", "diet:dairy": "yes", "diet:fresh": "yes", "diet:local": "yes", "diet:meat": "yes", "diet:organic": "yes", "diet:seasonal": "yes", "internet_access": "wlan", "internet_access:fee": "customers", "internet_access:ssid": "samanevimciftligi", "name": "Saman Evim \u00c7i\u0307ftli\u0307\u011fi\u0307", "outdoor_seating": "yes", "reservation": "yes", "source": "local knowledge", "toilets": "yes", "toilets:wheelchair": "yes", "wheelchair": "yes"}}, {"type": "node", "id": 12064685069, "lat": 39.2355002, "lon": 28.1627489, "tags": {"amenity": "restaurant", "cuisine": "kebab;sandwich", "name": "K\u00f6ftesi Kamil", "phone": "05383266295"}}, {"type": "node", "id": 12079551369, "lat": 39.2391035, "lon": 28.1773079, "tags": {"amenity": "restaurant", "diet:vegan": "yes", "diet:vegetarian": "yes", "internet_access": "wlan", "name": "Komagene etsiz \u00e7ig k\u00f6fte", "opening_hours": "Mo-Su 11:00-02:00"}}, {"type": "node", "id": 12079551469, "lat": 39.2084823, "lon": 28.2326256, "tags": {"amenity": "cafe", "cuisine": "sandwich;tea"}}, {"type": "node", "id": 12082346969, "lat": 39.2386173, "lon": 28.1740035, "tags": {"amenity": "restaurant"}}, {"type": "node", "id": 12097052301, "lat": 39.2353985, "lon": 28.1640206, "tags": {"amenity": "cafe", "name": "Eren \u00e7ay ocagi"}}, {"type": "node", "id": 12101256501, "lat": 39.2568323, "lon": 28.2095617, "tags": {"amenity": "restaurant"}}, {"type": "node", "id": 12234499985, "lat": 39.238369, "lon": 28.1756626, "tags": {"amenity": "restaurant", "check_date": "2024-08-27", "cuisine": "turkish", "name": "3 Eyl\u00fcl Pide"}}]}