{"version": 0.6, "generator": "Overpass API 0.7.62.7 375dc00a", "osm3s": {"timestamp_osm_base": "2025-06-14T15:02:46Z", "copyright": "The data included in this document is from www.openstreetmap.org. The data is made available under ODbL."}, "elements": [{"type": "node", "id": 308844218, "lat": 39.7912485, "lon": 30.498296, "tags": {"amenity": "restaurant", "name": "Ta\u015f Bina"}}, {"type": "node", "id": 700873133, "lat": 39.8038133, "lon": 30.4197907, "tags": {"amenity": "restaurant", "name": "\u00c7ib\u00f6rek Evi"}}, {"type": "node", "id": 722765947, "lat": 39.7439251, "lon": 30.5070963}, {"type": "node", "id": 722766599, "lat": 39.7440219, "lon": 30.5071514}, {"type": "node", "id": 2506916088, "lat": 39.7915682, "lon": 30.4973768, "tags": {"addr:street": "Anadolu \u00dcniversitesi", "amenity": "cafe", "name": "Bukalemun Kahve D\u00fckk\u00e2n\u0131", "name:en": "Bukalemun Coffee Shop", "operator": "Kadir DER\u0130C\u0130"}}, {"type": "node", "id": 2801886722, "lat": 39.7566747, "lon": 30.491417}, {"type": "node", "id": 2801886725, "lat": 39.75674, "lon": 30.4915597}, {"type": "node", "id": 2801915018, "lat": 39.7718407, "lon": 30.4885383}, {"type": "node", "id": 2801915019, "lat": 39.7716221, "lon": 30.4886242}, {"type": "node", "id": 2801915020, "lat": 39.771717, "lon": 30.4890372}, {"type": "node", "id": 2801915021, "lat": 39.7717665, "lon": 30.4890104}, {"type": "node", "id": 2828427703, "lat": 39.8124815, "lon": 30.3868657}, {"type": "node", "id": 2828427704, "lat": 39.8111793, "lon": 30.3865545}, {"type": "node", "id": 2828427705, "lat": 39.8109815, "lon": 30.3874665}, {"type": "node", "id": 2828427706, "lat": 39.8123166, "lon": 30.3878098}, {"type": "node", "id": 2836861387, "lat": 39.789107, "lon": 30.4904544, "tags": {"amenity": "cafe"}}, {"type": "node", "id": 3016297040, "lat": 39.7565219, "lon": 30.4802198}, {"type": "node", "id": 3145054686, "lat": 39.8195111, "lon": 30.1831138, "tags": {"amenity": "restaurant"}}, {"type": "node", "id": 3333673936, "lat": 39.7825607, "lon": 30.4861993}, {"type": "node", "id": 3333673937, "lat": 39.7823876, "lon": 30.4863611}, {"type": "node", "id": 3333673938, "lat": 39.7824046, "lon": 30.4864055}, {"type": "node", "id": 3333673939, "lat": 39.7823803, "lon": 30.4864214}, {"type": "node", "id": 3333673940, "lat": 39.7824924, "lon": 30.4866435}, {"type": "node", "id": 3333673941, "lat": 39.7827046, "lon": 30.4864753}, {"type": "node", "id": 3683128478, "lat": 39.7624899, "lon": 30.471814}, {"type": "node", "id": 3683128479, "lat": 39.7624079, "lon": 30.4718211}, {"type": "node", "id": 3683128480, "lat": 39.7623734, "lon": 30.4717962}, {"type": "node", "id": 3683128481, "lat": 39.7623697, "lon": 30.4717654}, {"type": "node", "id": 3683128482, "lat": 39.7622978, "lon": 30.4717761}, {"type": "node", "id": 3683128483, "lat": 39.762296, "lon": 30.4718104}, {"type": "node", "id": 3683128484, "lat": 39.7622532, "lon": 30.4718839}, {"type": "node", "id": 3683128485, "lat": 39.7622723, "lon": 30.4719064}, {"type": "node", "id": 3683128486, "lat": 39.7622714, "lon": 30.4719301}, {"type": "node", "id": 3683128487, "lat": 39.7622841, "lon": 30.4719609}, {"type": "node", "id": 3683128488, "lat": 39.7623051, "lon": 30.4719905}, {"type": "node", "id": 3683128489, "lat": 39.7623324, "lon": 30.4720177}, {"type": "node", "id": 3683128490, "lat": 39.762367, "lon": 30.4720201}, {"type": "node", "id": 3683128491, "lat": 39.7623943, "lon": 30.471994}, {"type": "node", "id": 3683128492, "lat": 39.7624098, "lon": 30.4719443}, {"type": "node", "id": 3683128493, "lat": 39.7624963, "lon": 30.4719277}, {"type": "node", "id": 3728740737, "lat": 39.7827797, "lon": 30.499306, "tags": {"amenity": "restaurant", "name": "Harbiye Restaurant"}}, {"type": "node", "id": 3742656391, "lat": 39.7538713, "lon": 30.4901549}, {"type": "node", "id": 3742656392, "lat": 39.7537872, "lon": 30.4904616}, {"type": "node", "id": 3742656393, "lat": 39.7536284, "lon": 30.4903948}, {"type": "node", "id": 3742656394, "lat": 39.7537125, "lon": 30.4900775}, {"type": "node", "id": 3763676112, "lat": 39.7567603, "lon": 30.4801697}, {"type": "node", "id": 3763676113, "lat": 39.7564591, "lon": 30.4801909}, {"type": "node", "id": 3763676114, "lat": 39.7562113, "lon": 30.4803086}, {"type": "node", "id": 3763676115, "lat": 39.7567505, "lon": 30.4804857}, {"type": "node", "id": 3766886530, "lat": 39.7537692, "lon": 30.4901051}, {"type": "node", "id": 3778120336, "lat": 39.7508525, "lon": 30.4828462, "tags": {"amenity": "restaurant", "name": "Akademi Cafe"}}, {"type": "node", "id": 3778126822, "lat": 39.7505704, "lon": 30.4871705, "tags": {"amenity": "cafe", "name": "Me\u015felik Kafe"}}, {"type": "node", "id": 3778126824, "lat": 39.7525416, "lon": 30.488377, "tags": {"amenity": "cafe", "cuisine": "sandwich;turkish", "name": "Bah\u00e7e Cafe&B\u00fcfe", "outdoor_seating": "yes"}}, {"type": "node", "id": 3883739759, "lat": 39.7870604, "lon": 30.5081355, "tags": {"addr:city": "Eski\u015fehir", "addr:neighbourhood": "Yeniba\u011flar Mahallesi", "addr:postcode": "26000", "addr:street": "\u00dcniversite Cad.", "amenity": "cafe", "internet_access": "wlan", "name": "VIP Marrakesh"}}, {"type": "node", "id": 3905271465, "lat": 39.7827963, "lon": 30.5066568, "tags": {"addr:city": "ESK\u0130\u015eEH\u0130R", "addr:housenumber": "102", "addr:postcode": "26170", "amenity": "cafe", "toilets:wheelchair": "no", "website": "http://www.lmk.com.tr", "wheelchair": "limited", "wheelchair:description": "wheelchair accessible"}}, {"type": "node", "id": 4191796601, "lat": 39.7460579, "lon": 30.5348552}, {"type": "node", "id": 4191796602, "lat": 39.7461752, "lon": 30.5349527}, {"type": "node", "id": 4191796603, "lat": 39.7461125, "lon": 30.5350805}, {"type": "node", "id": 4191796604, "lat": 39.7459951, "lon": 30.5349831}, {"type": "node", "id": 4244679098, "lat": 39.7750045, "lon": 30.5114605, "tags": {"amenity": "restaurant", "name": "b\u00f6rek\u00e7i"}}, {"type": "node", "id": 4244682597, "lat": 39.7749843, "lon": 30.5189102, "tags": {"amenity": "restaurant", "name": "Papa\u011fan \u00c7i\u011fb\u00f6rek"}}, {"type": "node", "id": 4244683311, "lat": 39.775539, "lon": 30.5230613, "tags": {"amenity": "restaurant", "name": "ci\u011ferci Ahmet"}}, {"type": "node", "id": 4244720989, "lat": 39.7717225, "lon": 30.519277, "tags": {"amenity": "restaurant", "name": "k\u00f6fte \u015fehabettin", "name:tr": "abd\u00fcsselam kebap"}}, {"type": "node", "id": 4460402692, "lat": 39.7648679, "lon": 30.4899319, "tags": {"addr:housenumber": "14", "addr:street": "Maral Sokak", "amenity": "restaurant", "cuisine": "turkish", "name": "Yusufeli \u00c7oruh D\u00f6ner", "name:en": "Yusufeli \u00c7oruh D\u00f6ner", "name:tr": "Yusufeli \u00c7oruh D\u00f6ner", "opening_hours": "Tu-Su 12:00-19:00", "phone": "02222241008"}}, {"type": "node", "id": 4472394795, "lat": 39.772103, "lon": 30.5559633, "tags": {"amenity": "restaurant", "cuisine": "turkish", "name": "K\u0131r\u0131m \u00c7ib\u00f6rek"}}, {"type": "node", "id": 4490300389, "lat": 39.7793676, "lon": 30.4822609, "tags": {"amenity": "restaurant", "name": "Raykent \u00d6zlem Pide Kebap Salonu", "opening_hours": "Mo-Su 10:00-21:00", "phone": "+902223102518"}}, {"type": "node", "id": 4530419080, "lat": 39.9182632, "lon": 30.3302408}, {"type": "node", "id": 4530419081, "lat": 39.9182611, "lon": 30.3302999}, {"type": "node", "id": 4530419082, "lat": 39.9181643, "lon": 30.3302945}, {"type": "node", "id": 4530419083, "lat": 39.9181643, "lon": 30.3302367}, {"type": "node", "id": 4545219389, "lat": 39.777011, "lon": 30.5160694, "tags": {"addr:postcode": "26700", "addr:street": "porsuk bulvar\u0131 no:11-11b", "amenity": "cafe", "brand": "Starbucks", "brand:wikidata": "Q37158", "brand:wikipedia": "en:Starbucks", "cuisine": "coffee_shop", "name": "Starbucks", "official_name": "Starbucks Coffee", "takeaway": "yes", "wheelchair": "no"}}, {"type": "node", "id": 4590742589, "lat": 39.7650917, "lon": 30.502139, "tags": {"addr:street": "Atat\u00fcrk Bulvar\u0131", "amenity": "cafe", "cuisine": "coffee_shop;ice_cream;mediterranean;tea;turkish", "name": "Amcabey K\u00fcnefe", "name:ar": "\u0645\u0642\u0647\u0649 \u0643\u0646\u0627\u0641\u0629  amcabey hatay tatlilari"}}, {"type": "node", "id": 4604820324, "lat": 39.7813147, "lon": 30.5144016, "tags": {"addr:city": "Eski\u015fehir", "addr:district": "Tepeba\u015f\u0131", "addr:housenumber": "4/d", "addr:postcode": "26000", "addr:street": "O\u011fuz Sokak", "amenity": "cafe", "cuisine": "regional", "internet_access": "wlan", "name": "Pedal Cafe", "note": "Bike friendly. / Bisiklet dostu / Fietser vriendelijk", "smoking": "no", "wheelchair": "yes"}}, {"type": "node", "id": 4757888334, "lat": 39.7864711, "lon": 30.5086942, "tags": {"addr:city": "Eski\u015fehir", "addr:district": "Tepeba\u015f\u0131", "addr:housenumber": "57/B", "addr:neighbourhood": "Yeniba\u011flar Mahallesi", "addr:postcode": "26170", "addr:street": "\u00dcniversite Caddesi", "amenity": "cafe", "name": "Pi BOX Cafe", "opening_hours": "10:00 - 02:00", "outdoor_seating": "no", "toilets:wheelchair": "no", "wheelchair": "limited"}}, {"type": "node", "id": 4757907720, "lat": 39.7857956, "lon": 30.5093614, "tags": {"amenity": "restaurant", "name": "Ma\u015fha"}}, {"type": "node", "id": 4760619131, "lat": 39.7865911, "lon": 30.5091712, "tags": {"addr:city": "Eski\u015fehir", "addr:district": "Tepeba\u015f\u0131", "addr:housenumber": "120", "addr:neighbourhood": "Yeniba\u011flar Mahallesi", "addr:postcode": "26170", "addr:street": "\u00dcniversite Caddesi", "amenity": "restaurant", "brand": "K\u00f6fteci Yusuf", "brand:wikidata": "Q126125081", "cuisine": "turkish", "name": "K\u00f6fteci Yusuf", "opening_hours": "7:30 - 02:00", "toilets:wheelchair": "no", "website": "https://kofteciyusuf.com/", "wheelchair": "limited"}}, {"type": "node", "id": 4760619133, "lat": 39.7860114, "lon": 30.5091625, "tags": {"amenity": "restaurant", "name": "Ci\u011ferci Mahmut"}}, {"type": "node", "id": 4792472559, "lat": 39.7862673, "lon": 30.5094527, "tags": {"addr:city": "Eski\u015fehir", "addr:district": "Tepeba\u015f\u0131", "addr:housenumber": "106", "addr:neighbourhood": "Yeniba\u011flar Mahallesi", "addr:postcode": "26170", "addr:street": "\u00dcniversite Caddesi", "amenity": "restaurant", "cuisine": "burger", "name": "Red Burger House", "phone": "+90 546 733 30 30", "website": "redburgerhouse.com"}}, {"type": "node", "id": 4806214503, "lat": 39.8152317, "lon": 30.5303287}, {"type": "node", "id": 4806215251, "lat": 39.8152319, "lon": 30.5304484}, {"type": "node", "id": 4859407922, "lat": 39.753064, "lon": 30.4827146, "tags": {"amenity": "restaurant", "name": "Papyon", "name:tr": "Papyon"}}, {"type": "node", "id": 4906210418, "lat": 39.7664155, "lon": 30.49641}, {"type": "node", "id": 4906210419, "lat": 39.7662175, "lon": 30.4964985}, {"type": "node", "id": 4906210420, "lat": 39.7662732, "lon": 30.4967185}, {"type": "node", "id": 4906210521, "lat": 39.7664618, "lon": 30.496634}, {"type": "node", "id": 4906210522, "lat": 39.7662461, "lon": 30.4966113}, {"type": "node", "id": 4906210599, "lat": 39.7643095, "lon": 30.4949865}, {"type": "node", "id": 4906210600, "lat": 39.7643896, "lon": 30.4949578}, {"type": "node", "id": 4906210602, "lat": 39.764243, "lon": 30.4952608}, {"type": "node", "id": 4906210603, "lat": 39.7641937, "lon": 30.495028}, {"type": "node", "id": 4929550222, "lat": 39.7885781, "lon": 30.4725343, "tags": {"addr:street": "Liman Caddesi", "amenity": "restaurant", "brand": "K\u00f6fteci Yusuf", "brand:wikidata": "Q126125081", "cuisine": "turkish", "name": "K\u00f6fteci Yusuf", "name:tr": "K\u00f6fteci Yusuf"}}, {"type": "node", "id": 4954411726, "lat": 39.894154, "lon": 30.4067616, "tags": {"amenity": "cafe", "name": "Koy kahvesi"}}, {"type": "node", "id": 4996348433, "lat": 39.7833384, "lon": 30.5065599, "tags": {"amenity": "restaurant"}}, {"type": "node", "id": 5098547821, "lat": 39.7880609, "lon": 30.5072176, "tags": {"amenity": "cafe", "name": "Kahve Ate\u015fi", "name:tr": "Kahve Ate\u015fi"}}, {"type": "node", "id": 5103370135, "lat": 39.7791108, "lon": 30.5137141, "tags": {"amenity": "cafe", "name": "Kahve Ate\u015fi Kanatl\u0131"}}, {"type": "node", "id": 5169445562, "lat": 39.7879473, "lon": 30.4939287, "tags": {"amenity": "restaurant", "name": "Cigerci Aziz Usta"}}, {"type": "node", "id": 5215052532, "lat": 39.7817173, "lon": 30.5102801, "tags": {"addr:city": "Eski\u015fehir", "addr:district": "Tepeba\u015f\u0131", "amenity": "cafe", "brand": "Starbucks", "brand:wikidata": "Q37158", "brand:wikipedia": "en:Starbucks", "cuisine": "coffee_shop", "level": "0", "name": "Starbucks", "official_name": "Starbucks Coffee", "takeaway": "yes", "website": "https://www.starbucks.com.tr/"}}, {"type": "node", "id": 5219640721, "lat": 39.7855775, "lon": 30.5095382, "tags": {"amenity": "restaurant", "name": "Tad\u0131m Tantuni"}}, {"type": "node", "id": 5231788822, "lat": 39.7903725, "lon": 30.4591213, "tags": {"addr:postcode": "26180", "addr:street": "Ulusal Egemenlik Blv.No:23", "amenity": "cafe", "email": "saitbelice04@gmail.com", "internet_access": "wlan", "name": "Bat\u0131kent \u0130nci B\u00f6rek", "opening_hours": "24/7", "operator": "sait belice", "phone": "02223250004"}}, {"type": "node", "id": 5289229757, "lat": 39.7704237, "lon": 30.5174296, "tags": {"amenity": "cafe"}}, {"type": "node", "id": 5296609324, "lat": 39.7822792, "lon": 30.512546, "tags": {"amenity": "cafe", "name": "Kakt\u00fcs Coffee"}}, {"type": "node", "id": 5296609326, "lat": 39.782383, "lon": 30.5123685, "tags": {"amenity": "cafe", "name": "Limon Waffle Coffee"}}, {"type": "node", "id": 5296609344, "lat": 39.7846009, "lon": 30.5102163, "tags": {"amenity": "cafe", "name": "Pi Waffle"}}, {"type": "node", "id": 5296609363, "lat": 39.7855363, "lon": 30.5095862, "tags": {"amenity": "cafe", "name": "Adalar Cafe"}}, {"type": "node", "id": 5296609373, "lat": 39.7821296, "lon": 30.5130185, "tags": {"amenity": "cafe", "name": "Encir Lounge"}}, {"type": "node", "id": 5296609374, "lat": 39.782148, "lon": 30.5129962, "tags": {"amenity": "cafe", "name": "Ala\u00e7at\u0131 Muhallebicisi"}}, {"type": "node", "id": 5296609379, "lat": 39.7831312, "lon": 30.5118589, "tags": {"amenity": "cafe", "name": "Grecka Kafe Kahvalt\u0131"}}, {"type": "node", "id": 5296609381, "lat": 39.7830106, "lon": 30.5119903, "tags": {"amenity": "cafe", "name": "Atlantik Pastanesi"}}, {"type": "node", "id": 5296609384, "lat": 39.7827416, "lon": 30.5123176, "tags": {"amenity": "cafe", "name": "Ala\u00e7at\u0131 Muhallebicisi"}}, {"type": "node", "id": 5296609415, "lat": 39.7862224, "lon": 30.5094959, "tags": {"amenity": "cafe", "name": "Kafe \u0130nn"}}, {"type": "node", "id": 5296609420, "lat": 39.7871911, "lon": 30.5085491, "tags": {"amenity": "restaurant", "name": "Sa\u011fl\u0131k Pide"}}, {"type": "node", "id": 5298103682, "lat": 39.7889866, "lon": 30.5065067, "tags": {"amenity": "cafe", "brand": "Starbucks", "brand:wikidata": "Q37158", "brand:wikipedia": "en:Starbucks", "cuisine": "coffee_shop", "name": "Starbucks", "official_name": "Starbucks Coffee", "takeaway": "yes"}}, {"type": "node", "id": 5298103684, "lat": 39.7888979, "lon": 30.5065764, "tags": {"amenity": "cafe", "name": "Labor"}}, {"type": "node", "id": 5298103686, "lat": 39.7883559, "lon": 30.5070002, "tags": {"amenity": "cafe", "name": "Hat\u0131r Kahvesi"}}, {"type": "node", "id": 5298103687, "lat": 39.7882322, "lon": 30.5071021, "tags": {"amenity": "cafe", "name": "Y\u00fcz\u00fcg\u00fcll\u00fc"}}, {"type": "node", "id": 5298103692, "lat": 39.7900686, "lon": 30.5071343, "tags": {"amenity": "cafe", "name": "T\u00fcrk Kahvesi"}}, {"type": "node", "id": 5298103717, "lat": 39.7874632, "lon": 30.5119052, "tags": {"amenity": "cafe", "name": "Kahvehane"}}, {"type": "node", "id": 5298103924, "lat": 39.7872408, "lon": 30.510302, "tags": {"amenity": "restaurant", "name": "\u00c7\u00f6mlek"}}, {"type": "node", "id": 5298914422, "lat": 39.7576404, "lon": 30.5325087, "tags": {"amenity": "restaurant", "name": "\u015eelale Park Cafe & Restaurant"}}, {"type": "node", "id": 5298914424, "lat": 39.7883415, "lon": 30.5070244, "tags": {"amenity": "cafe", "name": "Hat\u0131r Kahvesi"}}, {"type": "node", "id": 5311979926, "lat": 39.7653087, "lon": 30.490002, "tags": {"amenity": "cafe", "name": "Kafkasor Artvin Yatik Doner"}}, {"type": "node", "id": 5347227921, "lat": 39.7638245, "lon": 30.5257792, "tags": {"addr:street": "B\u00fccelit Sokak", "amenity": "cafe", "name": "Caf\u00e9 Restaurant Rasta", "name:de": "Caf\u00e9 Restaurant Rasta"}}, {"type": "node", "id": 5360464350, "lat": 39.7655212, "lon": 30.5085735, "tags": {"amenity": "cafe", "internet_access": "wlan", "internet_access:fee": "no", "name": "\u0130talyan", "outdoor_seating": "yes"}}, {"type": "node", "id": 5360464351, "lat": 39.7656125, "lon": 30.5085734, "tags": {"amenity": "restaurant", "cuisine": "chicken", "name": "Kanat\u00e7\u0131"}}, {"type": "node", "id": 5540219341, "lat": 39.7539498, "lon": 30.4958337, "tags": {"addr:neighbourhood": "B\u00fcy\u00fckdere Mahallesi", "addr:street": "Millet Caddesi", "amenity": "cafe", "name": "New Globe"}}, {"type": "node", "id": 5574514072, "lat": 39.7822408, "lon": 30.5093903}, {"type": "node", "id": 5574514073, "lat": 39.7821853, "lon": 30.5095206}, {"type": "node", "id": 5574514074, "lat": 39.7820195, "lon": 30.5094011}, {"type": "node", "id": 5574514075, "lat": 39.782075, "lon": 30.5092708}, {"type": "node", "id": 5574514082, "lat": 39.7828656, "lon": 30.510011, "tags": {"addr:city": "Eski\u015fehir", "addr:district": "Tepeba\u015f\u0131", "amenity": "cafe", "name": "Havelka"}}, {"type": "node", "id": 5574514083, "lat": 39.7826363, "lon": 30.5098317, "tags": {"addr:city": "Eski\u015fehir", "addr:district": "Tepeba\u015f\u0131", "amenity": "cafe", "brand": "Kahve D\u00fcnyas\u0131", "brand:wikidata": "Q28008050", "cuisine": "coffee_shop", "internet_access": "wlan", "name": "Kahve D\u00fcnyas\u0131", "takeaway": "yes"}}, {"type": "node", "id": 5598994423, "lat": 39.7827474, "lon": 30.5099123, "tags": {"addr:city": "Eski\u015fehir", "addr:district": "Tepeba\u015f\u0131", "amenity": "restaurant", "name": "Varuna Gezgin"}}, {"type": "node", "id": 5615053124, "lat": 39.7647769, "lon": 30.5159237, "tags": {"amenity": "restaurant", "name": "Eskisehir Ciborek Evi"}}, {"type": "node", "id": 5658523622, "lat": 39.7640085, "lon": 30.5256697, "tags": {"amenity": "restaurant", "name": "Cousine Restaurant"}}, {"type": "node", "id": 5816651695, "lat": 39.8225988, "lon": 30.5035147, "tags": {"addr:city": "Eski\u015fehir", "addr:district": "Tepeba\u015f\u0131", "addr:neighbourhood": "Sakintepe", "amenity": "restaurant", "name": "Albayrak Pide Kebap"}}, {"type": "node", "id": 5816651702, "lat": 39.8234992, "lon": 30.5038863, "tags": {"addr:city": "Eski\u015fehir", "addr:district": "Tepeba\u015f\u0131", "addr:neighbourhood": "Sakintepe", "amenity": "restaurant", "name": "M\u00fclayim Pide Kebap"}}, {"type": "node", "id": 6033487285, "lat": 39.7782358, "lon": 30.5133508, "tags": {"amenity": "restaurant", "name:en": "Sempre Ristorante Italiano"}}, {"type": "node", "id": 6089392885, "lat": 39.7646055, "lon": 30.5057481, "tags": {"amenity": "cafe", "brand": "Starbucks", "brand:wikidata": "Q37158", "brand:wikipedia": "en:Starbucks", "cuisine": "coffee_shop", "name": "Starbucks", "name:en": "Starbucks", "official_name": "Starbucks Coffee", "outdoor_seating": "yes", "takeaway": "yes"}}, {"type": "node", "id": 6173280391, "lat": 39.7540167, "lon": 30.5147356, "tags": {"amenity": "cafe", "name": "K\u0131raathane"}}, {"type": "node", "id": 6173546772, "lat": 39.75344, "lon": 30.5145266, "tags": {"amenity": "restaurant", "name": "Pala Lokantas\u0131"}}, {"type": "node", "id": 6173546776, "lat": 39.7529265, "lon": 30.5143362, "tags": {"amenity": "restaurant"}}, {"type": "node", "id": 6174673819, "lat": 39.772481, "lon": 30.5176419, "tags": {"amenity": "restaurant"}}, {"type": "node", "id": 6179530001, "lat": 39.7667906, "lon": 30.5246556, "tags": {"amenity": "cafe"}}, {"type": "node", "id": 6179530553, "lat": 39.7754426, "lon": 30.5201077, "tags": {"amenity": "cafe"}}, {"type": "node", "id": 6179561817, "lat": 39.7536995, "lon": 30.4904224}, {"type": "node", "id": 6179561851, "lat": 39.7526796, "lon": 30.4925438}, {"type": "node", "id": 6179561852, "lat": 39.7523994, "lon": 30.4925544}, {"type": "node", "id": 6179561853, "lat": 39.7524082, "lon": 30.4929522}, {"type": "node", "id": 6179561854, "lat": 39.7526885, "lon": 30.4929417}, {"type": "node", "id": 6179681796, "lat": 39.8156336, "lon": 30.5363461, "tags": {"amenity": "cafe"}}, {"type": "node", "id": 6179694242, "lat": 39.7912947, "lon": 30.4976812}, {"type": "node", "id": 6179694243, "lat": 39.7910934, "lon": 30.4977219}, {"type": "node", "id": 6179694244, "lat": 39.7911805, "lon": 30.4982545}, {"type": "node", "id": 6179694245, "lat": 39.7913572, "lon": 30.4982032}, {"type": "node", "id": 6422912243, "lat": 39.7514912, "lon": 30.4810371, "tags": {"amenity": "cafe", "cuisine": "turkish", "name": "Cennet Simit", "outdoor_seating": "yes"}}, {"type": "node", "id": 6422912244, "lat": 39.7513789, "lon": 30.480743, "tags": {"amenity": "cafe", "cuisine": "burger;fried_chicken", "name": "Fellas Burger", "outdoor_seating": "yes"}}, {"type": "node", "id": 6440413530, "lat": 39.7491544, "lon": 30.4751651}, {"type": "node", "id": 6440413531, "lat": 39.7491551, "lon": 30.47525}, {"type": "node", "id": 6440413532, "lat": 39.749114, "lon": 30.4752506}, {"type": "node", "id": 6440413533, "lat": 39.7491133, "lon": 30.4751657}, {"type": "node", "id": 6483349285, "lat": 39.7656301, "lon": 30.5061285, "tags": {"amenity": "cafe", "check_date": "2023-01-20", "cuisine": "coffee_shop", "internet_access": "wlan", "name": "'78 Coffee", "payment:mastercard": "yes", "payment:visa": "yes"}}, {"type": "node", "id": 6539072648, "lat": 39.7515294, "lon": 30.4807402, "tags": {"amenity": "restaurant", "cuisine": "regional", "delivery": "no", "name": "Tarhun Ev Yemekleri"}}, {"type": "node", "id": 6539072649, "lat": 39.7517959, "lon": 30.480783, "tags": {"amenity": "cafe", "brand:wikidata": "Q28008050", "name": "Kahve D\u00fcnyas\u0131", "outdoor_seating": "yes"}}, {"type": "node", "id": 6539116921, "lat": 39.7659852, "lon": 30.5134224, "tags": {"amenity": "cafe", "name": "M\u00fcze Kafe"}}, {"type": "node", "id": 6541777528, "lat": 39.7568014, "lon": 30.4913188}, {"type": "node", "id": 6541777529, "lat": 39.7568667, "lon": 30.4914616}, {"type": "node", "id": 6547632117, "lat": 39.7793191, "lon": 30.482119, "tags": {"amenity": "restaurant", "name": "Adana Ocakba\u015f\u0131 Osman Usta"}}, {"type": "node", "id": 6547632137, "lat": 39.7797364, "lon": 30.4830102, "tags": {"amenity": "restaurant", "name": "Lezzet Pide ve Kebap", "phone": "+902223100272"}}, {"type": "node", "id": 6558315616, "lat": 39.7755514, "lon": 30.4718581, "tags": {"amenity": "restaurant", "name": "\u00dc\u00e7 Karde\u015fler Lokantas\u0131"}}, {"type": "node", "id": 6558339328, "lat": 39.7761437, "lon": 30.4708489, "tags": {"amenity": "cafe", "name": "\u00c7amlca Kafe"}}, {"type": "node", "id": 6558339330, "lat": 39.7761094, "lon": 30.4706242, "tags": {"amenity": "restaurant", "cuisine": "turkish", "name": "Komagene"}}, {"type": "node", "id": 6560347505, "lat": 39.7824551, "lon": 30.486298}, {"type": "node", "id": 6560347511, "lat": 39.782618, "lon": 30.4865439}, {"type": "node", "id": 6560537894, "lat": 39.7853669, "lon": 30.4998756, "tags": {"addr:city": "Eski\u015fehir", "addr:district": "Tepeba\u015f\u0131", "addr:neighbourhood": "Ho\u015fnudiye Mahallesi", "addr:postcode": "26130", "addr:street": "\u0130smet \u0130n\u00f6n\u00fc-1 Caddesi", "amenity": "restaurant", "cuisine": "pizza", "name": "Pizza Locale", "website": "https://www.pizzalocale.net/"}}, {"type": "node", "id": 6560560903, "lat": 39.7566359, "lon": 30.4804889}, {"type": "node", "id": 6560560904, "lat": 39.7566322, "lon": 30.4805488}, {"type": "node", "id": 6560560905, "lat": 39.7564348, "lon": 30.4805383}, {"type": "node", "id": 6560560906, "lat": 39.7564336, "lon": 30.4805639}, {"type": "node", "id": 6560560907, "lat": 39.7563512, "lon": 30.4805582}, {"type": "node", "id": 6560560908, "lat": 39.7562932, "lon": 30.4805048}, {"type": "node", "id": 6560560909, "lat": 39.7562984, "lon": 30.4804666}, {"type": "node", "id": 6560560910, "lat": 39.7562415, "lon": 30.4803693}, {"type": "node", "id": 6560560911, "lat": 39.7562333, "lon": 30.4803111}, {"type": "node", "id": 6560560912, "lat": 39.7562143, "lon": 30.4801799}, {"type": "node", "id": 6560560913, "lat": 39.7564599, "lon": 30.4802196}, {"type": "node", "id": 6560560914, "lat": 39.7565612, "lon": 30.4802199}, {"type": "node", "id": 6560560915, "lat": 39.7565634, "lon": 30.4801595}, {"type": "node", "id": 6576033025, "lat": 39.7622827, "lon": 30.4718332}, {"type": "node", "id": 6612073689, "lat": 39.7813619, "lon": 30.5149138, "tags": {"amenity": "restaurant", "cuisine": "regional", "name": "K\u00f6ro\u011flu Ocakba\u015f\u0131"}}, {"type": "node", "id": 6616024485, "lat": 39.7874222, "lon": 30.5078614, "tags": {"amenity": "restaurant", "name": "Mist Lounge"}}, {"type": "node", "id": 6707383581, "lat": 39.7650827, "lon": 30.5012083, "tags": {"amenity": "restaurant", "name": "G\u00fclana"}}, {"type": "node", "id": 6707383582, "lat": 39.7650925, "lon": 30.5017922, "tags": {"amenity": "restaurant", "name": "Kebapname Bulvar"}}, {"type": "node", "id": 6707383583, "lat": 39.7650889, "lon": 30.5015961, "tags": {"amenity": "cafe", "name": "Cafe Macho"}}, {"type": "node", "id": 6708816345, "lat": 39.7644389, "lon": 30.4951907}, {"type": "node", "id": 6722359438, "lat": 39.7771054, "lon": 30.5175711, "tags": {"amenity": "restaurant", "name": "\u0130zol B\u00f6rek"}}, {"type": "node", "id": 6725957079, "lat": 39.775606, "lon": 30.5206983, "tags": {"amenity": "restaurant", "name": "Tad\u0131m Tantuni"}}, {"type": "node", "id": 6728758852, "lat": 39.7722504, "lon": 30.5485019}, {"type": "node", "id": 6728758853, "lat": 39.7721477, "lon": 30.5485044}, {"type": "node", "id": 6728758854, "lat": 39.7721446, "lon": 30.5482908}, {"type": "node", "id": 6728758855, "lat": 39.7720846, "lon": 30.5482923}, {"type": "node", "id": 6728758856, "lat": 39.7720855, "lon": 30.5483492}, {"type": "node", "id": 6728758857, "lat": 39.772067, "lon": 30.5483496}, {"type": "node", "id": 6728758858, "lat": 39.7720677, "lon": 30.5483994}, {"type": "node", "id": 6728758859, "lat": 39.77205, "lon": 30.5483998}, {"type": "node", "id": 6728758860, "lat": 39.7720508, "lon": 30.5484516}, {"type": "node", "id": 6728758861, "lat": 39.7720297, "lon": 30.5484587}, {"type": "node", "id": 6728758862, "lat": 39.7720305, "lon": 30.5485105}, {"type": "node", "id": 6728758863, "lat": 39.7720998, "lon": 30.5485087}, {"type": "node", "id": 6728758864, "lat": 39.7721011, "lon": 30.5485901}, {"type": "node", "id": 6728758865, "lat": 39.7720896, "lon": 30.5485904}, {"type": "node", "id": 6728758866, "lat": 39.7720913, "lon": 30.5486993}, {"type": "node", "id": 6728758867, "lat": 39.7720038, "lon": 30.5487016}, {"type": "node", "id": 6728758868, "lat": 39.7720077, "lon": 30.5489457}, {"type": "node", "id": 6728758869, "lat": 39.772094, "lon": 30.5489433}, {"type": "node", "id": 6728758870, "lat": 39.772097, "lon": 30.5491313}, {"type": "node", "id": 6728758871, "lat": 39.7721555, "lon": 30.5491297}, {"type": "node", "id": 6728758872, "lat": 39.7721553, "lon": 30.5491141}, {"type": "node", "id": 6728758873, "lat": 39.7722201, "lon": 30.5491123}, {"type": "node", "id": 6728758874, "lat": 39.7722204, "lon": 30.5491314}, {"type": "node", "id": 6728758875, "lat": 39.7722584, "lon": 30.5491303}, {"type": "node", "id": 6728758876, "lat": 39.7722559, "lon": 30.5489817}, {"type": "node", "id": 6728758877, "lat": 39.7722079, "lon": 30.5489831}, {"type": "node", "id": 6728758878, "lat": 39.7722073, "lon": 30.5489458}, {"type": "node", "id": 6728758879, "lat": 39.772218, "lon": 30.5489455}, {"type": "node", "id": 6728758880, "lat": 39.7722461, "lon": 30.5488825}, {"type": "node", "id": 6728758881, "lat": 39.7722539, "lon": 30.5488348}, {"type": "node", "id": 6728758882, "lat": 39.772243, "lon": 30.5487707}, {"type": "node", "id": 6728758883, "lat": 39.7722133, "lon": 30.5487036}, {"type": "node", "id": 6728758884, "lat": 39.7721958, "lon": 30.5487041}, {"type": "node", "id": 6728786185, "lat": 39.7721951, "lon": 30.5486545}, {"type": "node", "id": 6728786186, "lat": 39.7722525, "lon": 30.5486531}, {"type": "node", "id": 6764871150, "lat": 39.754822, "lon": 30.4926903, "tags": {"amenity": "restaurant", "name": "Memphis"}}, {"type": "node", "id": 6765958004, "lat": 39.7792952, "lon": 30.4738366}, {"type": "node", "id": 6765958020, "lat": 39.7794654, "lon": 30.4735866}, {"type": "node", "id": 6765958049, "lat": 39.778636, "lon": 30.475874}, {"type": "node", "id": 6765958052, "lat": 39.7788004, "lon": 30.4759978}, {"type": "node", "id": 6765958053, "lat": 39.7786778, "lon": 30.4761157}, {"type": "node", "id": 6765958054, "lat": 39.7786559, "lon": 30.476069}, {"type": "node", "id": 6765958055, "lat": 39.7786223, "lon": 30.4760985}, {"type": "node", "id": 6765958056, "lat": 39.7785684, "lon": 30.4759267}, {"type": "node", "id": 6765958057, "lat": 39.7787051, "lon": 30.47582}, {"type": "node", "id": 6765958058, "lat": 39.7794554, "lon": 30.4735741}, {"type": "node", "id": 6765958059, "lat": 39.7794814, "lon": 30.4736065}, {"type": "node", "id": 6765958060, "lat": 39.7794643, "lon": 30.4736342}, {"type": "node", "id": 6765958061, "lat": 39.7795126, "lon": 30.4736894}, {"type": "node", "id": 6765958062, "lat": 39.7794002, "lon": 30.4738496}, {"type": "node", "id": 6765958063, "lat": 39.7793613, "lon": 30.4738031}, {"type": "node", "id": 6765958064, "lat": 39.7793088, "lon": 30.4738562}, {"type": "node", "id": 6765958065, "lat": 39.7792118, "lon": 30.4737155}, {"type": "node", "id": 6765958066, "lat": 39.7793737, "lon": 30.4735163}, {"type": "node", "id": 6765958067, "lat": 39.7794366, "lon": 30.4736}, {"type": "node", "id": 6815408283, "lat": 39.751671, "lon": 30.480738, "tags": {"amenity": "restaurant", "name": "Breadli"}}, {"type": "node", "id": 6815408284, "lat": 39.7518205, "lon": 30.4810106, "tags": {"amenity": "restaurant", "name": "Lade\u2019s"}}, {"type": "node", "id": 6873037812, "lat": 39.7446995, "lon": 30.4669053, "tags": {"amenity": "restaurant", "name": "Reg\u00fclat\u00f6r Restoran Cafe"}}, {"type": "node", "id": 6875037934, "lat": 39.7426804, "lon": 30.4615194, "tags": {"amenity": "cafe", "name": "Botanik Bah\u00e7esi Cafe"}}, {"type": "node", "id": 7025967004, "lat": 39.7721899, "lon": 30.470137, "tags": {"amenity": "cafe", "name": "\u015eahmeran Cafe"}}, {"type": "node", "id": 7054279343, "lat": 39.7757639, "lon": 30.516874, "tags": {"amenity": "restaurant", "cuisine": "turkish", "name": "goksu"}}, {"type": "node", "id": 7054279344, "lat": 39.7773058, "lon": 30.5155168, "tags": {"amenity": "cafe", "internet_access": "wlan", "internet_access:fee": "no", "name": "marpuc nargile"}}, {"type": "node", "id": 7054279345, "lat": 39.7754586, "lon": 30.521671, "tags": {"amenity": "restaurant", "cuisine": "turkish", "name": "estadim tantuni"}}, {"type": "node", "id": 7054279346, "lat": 39.7777991, "lon": 30.5158341, "tags": {"amenity": "cafe", "internet_access": "wlan", "name": "alfred"}}, {"type": "node", "id": 7218197047, "lat": 39.7777387, "lon": 30.5133219}, {"type": "node", "id": 7237066589, "lat": 39.7664341, "lon": 30.500697, "tags": {"amenity": "cafe"}}, {"type": "node", "id": 7615815180, "lat": 39.7438355, "lon": 30.6212697}, {"type": "node", "id": 7615815181, "lat": 39.7437577, "lon": 30.6214799}, {"type": "node", "id": 7615815182, "lat": 39.7436089, "lon": 30.6213868}, {"type": "node", "id": 7615815183, "lat": 39.7435793, "lon": 30.6211108}, {"type": "node", "id": 8159305617, "lat": 39.7730104, "lon": 30.5168056, "tags": {"amenity": "cafe"}}, {"type": "node", "id": 8229443379, "lat": 39.9079848, "lon": 30.2281608}, {"type": "node", "id": 8229443380, "lat": 39.9079599, "lon": 30.2283305}, {"type": "node", "id": 8229443381, "lat": 39.9078032, "lon": 30.2282838}, {"type": "node", "id": 8229443382, "lat": 39.9078328, "lon": 30.2280917}, {"type": "node", "id": 8340279575, "lat": 39.7799885, "lon": 30.4773761, "tags": {"amenity": "restaurant", "cuisine": "turkish", "name": "Pidem"}}, {"type": "node", "id": 8340279580, "lat": 39.7802623, "lon": 30.4775907, "tags": {"amenity": "restaurant", "cuisine": "turkish", "name": "Usta D\u00f6nerci"}}, {"type": "node", "id": 8340315484, "lat": 39.83104, "lon": 30.4230157}, {"type": "node", "id": 8340315485, "lat": 39.8310816, "lon": 30.4231156}, {"type": "node", "id": 8340315486, "lat": 39.8308848, "lon": 30.4232545}, {"type": "node", "id": 8340315487, "lat": 39.8308432, "lon": 30.4231546}, {"type": "node", "id": 8604702268, "lat": 39.7636786, "lon": 30.5258523}, {"type": "node", "id": 8604702269, "lat": 39.7637182, "lon": 30.5258266}, {"type": "node", "id": 8604702270, "lat": 39.7637335, "lon": 30.5259363}, {"type": "node", "id": 8604702271, "lat": 39.7636949, "lon": 30.5259608}, {"type": "node", "id": 8604702280, "lat": 39.7634729, "lon": 30.5258048}, {"type": "node", "id": 8604702281, "lat": 39.7635048, "lon": 30.5259234}, {"type": "node", "id": 8604702282, "lat": 39.7634605, "lon": 30.5259462}, {"type": "node", "id": 8604702283, "lat": 39.7634311, "lon": 30.5258229}, {"type": "node", "id": 8622712575, "lat": 39.7814294, "lon": 30.5154616, "tags": {"addr:city": "Eski\u015fehir", "addr:district": "TEPEBA\u015eI", "addr:housenumber": "9/D", "addr:neighbourhood": "Eskiba\u011flar mahallesi", "addr:postcode": "26130", "addr:street": "Hatboyu-1 Caddesi", "amenity": "cafe", "cuisine": "coffee_shop;sandwich;coffee;latte;espresso;toast;dessert", "internet_access": "yes", "internet_access:fee": "no", "name": "Walker's Coffee House", "outdoor_seating": "yes", "website": "https://walkers724.com/"}}, {"type": "node", "id": 8625702151, "lat": 39.7644241, "lon": 30.502746, "tags": {"amenity": "cafe", "cuisine": "coffee;dessert;sandwich;salad;frenk;espresso", "internet_access": "yes", "internet_access:fee": "no", "name": "Walker's Bulvar", "outdoor_seating": "yes", "website": "https://walkers724.com/"}}, {"type": "node", "id": 8829803814, "lat": 39.743866, "lon": 30.5072718}, {"type": "node", "id": 8829813927, "lat": 39.7439628, "lon": 30.5073269}, {"type": "node", "id": 9042311690, "lat": 39.7493746, "lon": 30.5106301, "tags": {"addr:housenumber": "11", "addr:street": "Arifiye, Tekiz Sk., 26010 Odunpazar\u0131/Eski\u015fehir", "amenity": "restaurant", "name": "De\u011firmencio\u011flu", "opening_hours": "Mo-Su 07:00-21:00", "phone": "(0222) 230 15 44"}}, {"type": "node", "id": 9088007034, "lat": 39.7840689, "lon": 30.4997862, "tags": {"addr:city": "Eski\u015fehir", "addr:district": "Tepeba\u015f\u0131", "addr:neighbourhood": "Ho\u015fnudiye Mahallesi", "addr:postcode": "26130", "amenity": "restaurant", "brand": "SushiCo", "cuisine": "asian", "diet:vegetarian": "yes", "name": "SushiCo Eski\u015fehir Cassaba Modern", "opening_hours": "Mo-Su 11:30-22:30", "smoking": "separated", "takeaway": "yes", "website": "https://www.sushico.com.tr/"}}, {"type": "node", "id": 9088007035, "lat": 39.783952, "lon": 30.4998982, "tags": {"addr:city": "Eski\u015fehir", "addr:district": "Tepeba\u015f\u0131", "addr:postcode": "26130", "amenity": "restaurant", "cuisine": "pizza", "diet:vegetarian": "yes", "email": "info@pizzailforno.com.tr", "name": "Pizza \u0130l Forno", "opening_hours": "Mo-Su 11:30-22:00", "phone": "+90 222 502 0029", "website": "https://pizzailforno.com.tr/"}}, {"type": "node", "id": 9088007037, "lat": 39.7844247, "lon": 30.5001436, "tags": {"addr:city": "Eski\u015fehir", "addr:district": "Tepeba\u015f\u0131", "amenity": "cafe", "brand": "Starbucks", "brand:wikidata": "Q37158", "brand:wikipedia": "en:Starbucks", "cuisine": "coffee_shop", "internet_access": "wlan", "name": "Starbucks Kahve", "name:en": "Starbucks Coffee", "official_name": "Starbucks Coffee", "takeaway": "yes", "website": "https://www.starbucks.com.tr/"}}, {"type": "node", "id": 9088223322, "lat": 39.785352, "lon": 30.5023847, "tags": {"addr:city": "Eski\u015fehir", "addr:district": "Tepeba\u015f\u0131", "addr:postcode": "26130", "amenity": "cafe", "cuisine": "coffee_shop", "diet:vegetarian": "yes", "internet_access": "wlan", "internet_access:fee": "customers", "name": "Opia Coffee Co.", "opening_hours": "Mo-Fr 08:00-01:00,Sa-Su 09:00-01:00", "payment:cash": "yes", "payment:credit_cards": "yes", "payment:debit_cards": "yes", "phone": "+90 544 934 8018", "takeaway": "yes", "website": "https://www.picuki.com/profile/opiacoffeeco"}}, {"type": "node", "id": 9115847569, "lat": 39.7658524, "lon": 30.5244469, "tags": {"addr:city": "Eski\u015fehir", "addr:district": "Odunpazari", "addr:neighbourhood": "Akcami Mahallesi", "addr:postcode": "26030", "amenity": "restaurant", "name": "K\u00f6ftes Balaban Kebap", "opening_hours": "Mo-Su 10:00-23:00", "website": "https://www.koftesbalaban.com/"}}, {"type": "node", "id": 9115874426, "lat": 39.7794518, "lon": 30.5133765, "tags": {"addr:housenumber": "63", "addr:street": "Ho\u015fnudiye, \u0130smet \u0130n\u00f6n\u00fc-1 Blv, 26130 Tepeba\u015f\u0131/Eski\u015fehir", "amenity": "restaurant", "name": "Ac\u0131kt\u0131m", "opening_hours": "Mo-Su 07:30-00:00", "website": "http://aciktimkafedeyiz.com/"}}, {"type": "node", "id": 9115881525, "lat": 39.7783005, "lon": 30.5163505, "tags": {"addr:housenumber": "4", "addr:street": "Hacet Sk., 26130 Tepeba\u015f\u0131/Eski\u015fehir", "amenity": "restaurant", "name": "De\u011firmencio\u011flu Lokanta", "opening_hours": "Mo-Su 07:00-00:00"}}, {"type": "node", "id": 9372085099, "lat": 39.78226, "lon": 30.5104786, "tags": {"amenity": "cafe", "name": "Serdivan Waffle"}}, {"type": "node", "id": 9372092118, "lat": 39.7825887, "lon": 30.5104493, "tags": {"amenity": "cafe", "name": "Bolulu Hasan Usta", "website": "https://www.bhu.com.tr/tr/"}}, {"type": "node", "id": 9372098135, "lat": 39.7826293, "lon": 30.5104901, "tags": {"amenity": "restaurant", "name": "Bursa \u0130shakbey"}}, {"type": "node", "id": 9372098136, "lat": 39.7824985, "lon": 30.5104018, "tags": {"amenity": "restaurant", "name": "Ziyafe Kayseri Mutfa\u011f\u0131"}}, {"type": "node", "id": 9372099125, "lat": 39.7825463, "lon": 30.5104305, "tags": {"amenity": "restaurant", "name": "Lahmacun Evi"}}, {"type": "node", "id": 9453881615, "lat": 39.785673, "lon": 30.5094537, "tags": {"addr:city": "Eski\u015fehir", "addr:district": "Tepeba\u015f\u0131", "addr:housenumber": "47/A", "addr:neighbourhood": "Yeniba\u011flar Mahallesi", "amenity": "restaurant", "cuisine": "tacos", "name": "Hippo French Tacos", "name:tr": "Hippo Frans\u0131z Tacolar\u0131 Ba\u011flar \u015eubesi", "phone": "+90 222 320 4320", "website": "https://hippofrenchtacos.com/"}}, {"type": "node", "id": 9530069915, "lat": 39.7821702, "lon": 30.5093394, "tags": {"entrance": "yes"}}, {"type": "node", "id": 9530071717, "lat": 39.7820481, "lon": 30.5093339, "tags": {"entrance": "yes"}}, {"type": "node", "id": 9731808565, "lat": 39.7717969, "lon": 30.5155456, "tags": {"amenity": "restaurant", "cuisine": "breakfast", "name": "Doyuran Kahvalti Salonu"}}, {"type": "node", "id": 9732408811, "lat": 39.7735769, "lon": 30.5179465, "tags": {"amenity": "cafe", "name": "Asma Alti \u00c7ay Bah\u00e7esi"}}, {"type": "node", "id": 9732420791, "lat": 39.7729777, "lon": 30.5164313, "tags": {"amenity": "restaurant", "name": "Bolu Lezzet"}}, {"type": "node", "id": 9732420792, "lat": 39.7730593, "lon": 30.5170866, "tags": {"amenity": "restaurant", "cuisine": "turkish", "name": "Yakamoz Yemek"}}, {"type": "node", "id": 9732531136, "lat": 39.7730926, "lon": 30.516941, "tags": {"amenity": "restaurant", "cuisine": "turkish", "name": "Elibol Lokantasi"}}, {"type": "node", "id": 9732636199, "lat": 39.7695969, "lon": 30.5178184, "tags": {"amenity": "cafe", "name": "Cafe Nook"}}, {"type": "node", "id": 9732642708, "lat": 39.770389, "lon": 30.5184121, "tags": {"amenity": "restaurant", "name": "Bozan Lokantasi"}}, {"type": "node", "id": 9732976452, "lat": 39.7728965, "lon": 30.516836, "tags": {"amenity": "cafe", "name": "Filiz"}}, {"type": "node", "id": 9732983729, "lat": 39.7758097, "lon": 30.51548, "tags": {"amenity": "restaurant", "cuisine": "breakfast", "name": "Bal Kahvalti"}}, {"type": "node", "id": 9732983730, "lat": 39.775573, "lon": 30.5147187, "tags": {"amenity": "cafe", "name": "Dead Poets"}}, {"type": "node", "id": 9733223686, "lat": 39.7765772, "lon": 30.5141575, "tags": {"amenity": "cafe", "name": "Splash"}}, {"type": "node", "id": 9733273086, "lat": 39.7772066, "lon": 30.514969, "tags": {"amenity": "restaurant", "name": "Saglik Pide"}}, {"type": "node", "id": 9733283842, "lat": 39.7747947, "lon": 30.5154884, "tags": {"amenity": "cafe", "name": "BSR"}}, {"type": "node", "id": 9733288384, "lat": 39.7763389, "lon": 30.5161551, "tags": {"amenity": "restaurant", "name": "Atesbasi Kebap"}}, {"type": "node", "id": 9733288560, "lat": 39.7750846, "lon": 30.5150692, "tags": {"amenity": "cafe", "name": "Sabah"}}, {"type": "node", "id": 9733293367, "lat": 39.7772979, "lon": 30.5139438, "tags": {"amenity": "cafe", "name": "Wagon Cafe"}}, {"type": "node", "id": 9733293369, "lat": 39.7770028, "lon": 30.5163984, "tags": {"amenity": "cafe", "name": "Puga Coffee"}}, {"type": "node", "id": 9733298819, "lat": 39.7768064, "lon": 30.5141867, "tags": {"amenity": "cafe", "name": "Kim Coffee & Theatre"}}, {"type": "node", "id": 9733298961, "lat": 39.7776513, "lon": 30.5143404, "tags": {"amenity": "cafe", "name": "Harabe Game Cafe"}}, {"type": "node", "id": 9733299330, "lat": 39.7773842, "lon": 30.5165435, "tags": {"amenity": "cafe", "name": "Cafe de Paris"}}, {"type": "node", "id": 9733300558, "lat": 39.7765052, "lon": 30.5141815, "tags": {"amenity": "cafe", "name": "Morph\u00e9e"}}, {"type": "node", "id": 9733301463, "lat": 39.7770064, "lon": 30.5126798, "tags": {"amenity": "cafe", "name": "Cafe Dengi"}}, {"type": "node", "id": 9759292218, "lat": 39.772489, "lon": 30.5194703, "tags": {"amenity": "cafe"}}, {"type": "node", "id": 9779703361, "lat": 39.7682739, "lon": 30.488389}, {"type": "node", "id": 9779703362, "lat": 39.7681517, "lon": 30.4881457}, {"type": "node", "id": 9779703363, "lat": 39.7680628, "lon": 30.4882324}, {"type": "node", "id": 9779703364, "lat": 39.7681906, "lon": 30.4884842}, {"type": "node", "id": 9809655440, "lat": 39.7632916, "lon": 30.5669467, "tags": {"addr:city": "Eski\u015fehir", "addr:district": "Odunpazar\u0131", "addr:housenumber": "97", "addr:neighbourhood": "G\u00fcndo\u011fdu Mahallesi", "addr:postcode": "26100", "addr:street": "\u00c7evre Yolu", "amenity": "restaurant", "cuisine": "turkish;regional;coffee_shop;sandwich;kebab", "name": "Sema Teyze Restaurant F\u0131r\u0131n Cafe", "opening_hours": "Mo-Su 06:00-22:00", "phone": "+905307026026", "website": "https://www.semateyzerestaurant.com"}}, {"type": "node", "id": 10571043703, "lat": 39.7656151, "lon": 30.5059615, "tags": {"amenity": "cafe", "check_date": "2023-01-20", "cuisine": "breakfast", "internet_access": "wlan", "internet_access:fee": "customers", "name": "San Raul Breakfast Club", "payment:mastercard": "yes", "payment:visa": "yes"}}, {"type": "node", "id": 10573209208, "lat": 39.7843054, "lon": 30.5003435, "tags": {"air_conditioning": "yes", "amenity": "restaurant", "bar": "yes", "brewery": "yes", "check_date": "2023-01-21", "cuisine": "bar", "internet_access": "wlan", "internet_access:fee": "customers", "level": "1", "microbrewery": "no", "name": "The Hunger", "outdoor_seating": "yes", "payment:mastercard": "yes", "payment:visa": "yes", "smoking": "separated"}}, {"type": "node", "id": 10657446105, "lat": 39.7846914, "lon": 30.5109157, "tags": {"amenity": "cafe"}}, {"type": "node", "id": 10659836905, "lat": 39.7635075, "lon": 30.5263144, "tags": {"addr:housenumber": "11", "addr:street": "\u015eeyh \u015eemsettin Sokak", "amenity": "restaurant", "name": "Q\u0131r\u0131mtatar \u00e7iberek", "name:en": "Crimeantatar\u2019s restaurant", "opening_hours": "Su,Tu-Sa,Mo 09:00-21:00", "phone": "+905549086974", "website": "https://www.kirimtatarciborek.com/"}}, {"type": "node", "id": 10685833781, "lat": 39.7580394, "lon": 30.4370506, "tags": {"amenity": "restaurant", "cuisine": "regional", "name": "Esbah\u00e7e"}}, {"type": "node", "id": 10688651308, "lat": 39.7717955, "lon": 30.5158283, "tags": {"amenity": "cafe", "name:en": "My Taste of Asia"}}, {"type": "node", "id": 10695023406, "lat": 39.7739624, "lon": 30.5153337, "tags": {"amenity": "cafe", "name": "Monk: cafe & books"}}, {"type": "node", "id": 10744591850, "lat": 39.7720558, "lon": 30.4995565}, {"type": "node", "id": 10744591851, "lat": 39.7720503, "lon": 30.4995969}, {"type": "node", "id": 10744591852, "lat": 39.772035, "lon": 30.4996327}, {"type": "node", "id": 10744591853, "lat": 39.7718681, "lon": 30.4995302}, {"type": "node", "id": 10744591854, "lat": 39.7718793, "lon": 30.4994927}, {"type": "node", "id": 10744591855, "lat": 39.7718991, "lon": 30.4994619}, {"type": "node", "id": 10744591856, "lat": 39.7720114, "lon": 30.49966}, {"type": "node", "id": 10744591857, "lat": 39.7719823, "lon": 30.4996757}, {"type": "node", "id": 10744591858, "lat": 39.7719508, "lon": 30.4996782}, {"type": "node", "id": 10744591859, "lat": 39.7719205, "lon": 30.499667}, {"type": "node", "id": 10744591860, "lat": 39.7718946, "lon": 30.4996436}, {"type": "node", "id": 10744591861, "lat": 39.771876, "lon": 30.4996104}, {"type": "node", "id": 10744591862, "lat": 39.7718669, "lon": 30.4995711}, {"type": "node", "id": 10744591863, "lat": 39.7719255, "lon": 30.499441}, {"type": "node", "id": 10744591864, "lat": 39.7719556, "lon": 30.4994323}, {"type": "node", "id": 10744591865, "lat": 39.7719863, "lon": 30.4994366}, {"type": "node", "id": 10744591866, "lat": 39.7720143, "lon": 30.4994535}, {"type": "node", "id": 10744591867, "lat": 39.7720367, "lon": 30.4994812}, {"type": "node", "id": 10744591868, "lat": 39.772051, "lon": 30.4995168}, {"type": "node", "id": 10744591869, "lat": 39.7720532, "lon": 30.4995758}, {"type": "node", "id": 10812674728, "lat": 39.7714318, "lon": 30.5136487, "tags": {"amenity": "cafe", "outdoor_seating": "yes"}}, {"type": "node", "id": 10858769964, "lat": 39.7634114, "lon": 30.52574, "tags": {"amenity": "restaurant", "name": "K\u0131r\u0131m Tatar \u00c7ib\u00f6rek Evi"}}, {"type": "node", "id": 10858805670, "lat": 39.7675812, "lon": 30.4742867, "tags": {"amenity": "cafe"}}, {"type": "node", "id": 10919473457, "lat": 39.7645853, "lon": 30.5052858, "tags": {"addr:city": "Eski\u015fehir", "addr:housenumber": "165/B", "addr:street": "Atat\u00fcrk Bulvar\u0131", "amenity": "cafe", "cuisine": "coffee_shop;pizza;burger;breakfast", "name": "Yemen Kahvesi", "phone": "+902224080575"}}, {"type": "node", "id": 10935231695, "lat": 39.7606833, "lon": 30.5029373, "tags": {"amenity": "cafe", "name": "Orkide Bah\u00e7e Kafe"}}, {"type": "node", "id": 11042606005, "lat": 39.764629, "lon": 30.5247687, "tags": {"addr:housenumber": "3", "addr:postcode": "26249", "addr:street": "Beyler Sokak", "amenity": "cafe", "cuisine": "turkish", "name": "\u00d6z K\u0131r\u0131m Tatar", "name:tr": "\u00d6z K\u0131r\u0131m Tatar \u00c7ib\u00f6rek ve Mant\u0131 Evi", "opening_hours": "Mo-Tu 09:00-19:00; Su, We, Fr 09:00-19:30; Th 09:00-00:00; Sa 09:00-20:00", "phone": "02222216414"}}, {"type": "node", "id": 11059989104, "lat": 39.7549852, "lon": 30.5355138, "tags": {"amenity": "restaurant", "name": "Kokore\u00e7\u00e7i Hasan Usta"}}, {"type": "node", "id": 11061219114, "lat": 39.7817206, "lon": 30.5156314, "tags": {"amenity": "cafe", "name": "Hey Joe Coffee Co"}}, {"type": "node", "id": 11061234099, "lat": 39.7756067, "lon": 30.5202658, "tags": {"amenity": "restaurant", "name": "Gel - Al Tavuk Tantuni"}}, {"type": "node", "id": 11061582672, "lat": 39.7992634, "lon": 30.5039087, "tags": {"amenity": "cafe", "name": "Bozkurt K\u0131raathanesi"}}, {"type": "node", "id": 11062176513, "lat": 39.7927331, "lon": 30.4419302, "tags": {"amenity": "restaurant", "name": "Terra Pizza"}}, {"type": "node", "id": 11068149968, "lat": 39.754057, "lon": 30.4736602, "tags": {"amenity": "restaurant", "name": "Sakl\u0131 Bah\u00e7e"}}, {"type": "node", "id": 11207767569, "lat": 39.8150952, "lon": 30.5304436}, {"type": "node", "id": 11207767570, "lat": 39.8150977, "lon": 30.5303237}, {"type": "node", "id": 11226007397, "lat": 39.787688, "lon": 30.513184, "tags": {"addr:city": "Eski\u015fehir", "addr:district": "Tepeba\u015f\u0131", "addr:housenumber": "39/B", "addr:neighbourhood": "Bah\u00e7elievler Mahallesi", "addr:street": "Seylap Caddesi", "air_conditioning": "yes", "amenity": "cafe", "contact:facebook": "https://www.facebook.com/profile.php?id=61551716768874", "cuisine": "coffee_shop", "email": "gibikafemutfak@gmail.com", "internet_access": "wlan", "internet_access:fee": "customers", "mobile": "+90 546 646 04 26", "name": "GiBi Kafe", "opening_hours": "Mo-Su 09:00-23:59", "phone": "+905466460426", "ref:vatin": "4830143341", "start_date": "2023-08-29", "website": "https://instagram.com/gibicafe", "website:menu": "https://www.canva.com/design/DAFsXY2JoBE/38ILOIPfuSzJknv-AVyh4A/view?website#4"}}, {"type": "node", "id": 11240920864, "lat": 39.7838349, "lon": 30.4997793, "tags": {"amenity": "cafe", "check_date": "2023-10-05", "name": "Rau"}}, {"type": "node", "id": 11312977607, "lat": 39.7855814, "lon": 30.4893113}, {"type": "node", "id": 11312977608, "lat": 39.7855305, "lon": 30.4893838}, {"type": "node", "id": 11312977609, "lat": 39.7855706, "lon": 30.4894439}, {"type": "node", "id": 11312977610, "lat": 39.7856222, "lon": 30.4893687}, {"type": "node", "id": 11416727070, "lat": 39.7855481, "lon": 30.5046045, "tags": {"addr:street": "Eti Caddesi", "amenity": "restaurant", "contact:instagram": "matbahantakya", "cuisine": "arab;breakfast;chicken;coffee_shop;grill;kebab;mediterranean", "name": "Matbah Antakya Y\u00f6resel Yemekler", "name:en": "Matbah Antakya Regional Meals"}}, {"type": "node", "id": 11417294124, "lat": 39.7640494, "lon": 30.5117656, "tags": {"amenity": "cafe", "name": "Limon Kafe"}}, {"type": "node", "id": 11450099369, "lat": 39.7843569, "lon": 30.4979375, "tags": {"amenity": "restaurant", "cuisine": "breakfast;fine_dining;fish;grill;regional;steak_house;turkish", "name": "Safahat Lokantas\u0131", "name:en": "Safahat Restaurant", "operator": "\u00d6zdilek Holding"}}, {"type": "node", "id": 11481034048, "lat": 39.7949646, "lon": 30.5078852, "tags": {"amenity": "cafe", "name": "S\u0131vac\u0131lar K\u0131raathanesi"}}, {"type": "node", "id": 11494446569, "lat": 39.7711838, "lon": 30.5289894, "tags": {"addr:housenumber": "35", "addr:postcode": "26090", "addr:street": "Ziya Pa\u015fa Caddesi", "amenity": "restaurant", "cuisine": "barbecue;beef_bowl;deli;kebab;local;regional;steak_house", "name": "Es Balaban Kebap\u00e7\u0131 Yunus Usta", "name:en": "Es Balaban Kebab Chef Yusuf", "opening_hours": "Mo-Sa 09:00-19:00", "phone": "+902222211406", "website": "https://eskisehirbalabankebap.com/"}}, {"type": "node", "id": 11521854469, "lat": 39.7749274, "lon": 30.5459766, "tags": {"addr:street": "Sivrihisar-2 Caddesi", "amenity": "restaurant", "cuisine": "fine_dining", "name": "Kent Palace Etkinlik Merkezi", "name:en": "Kent Palace Event Centre"}}, {"type": "node", "id": 11539947354, "lat": 39.7436334, "lon": 30.6213194}, {"type": "node", "id": 11539947355, "lat": 39.7435221, "lon": 30.6212492}, {"type": "node", "id": 11581279869, "lat": 39.7903698, "lon": 30.4953807, "tags": {"amenity": "cafe", "name": "Kare Kahve", "name:en": "Kare Coffee"}}, {"type": "node", "id": 11707181569, "lat": 39.7836647, "lon": 30.5127693, "tags": {"addr:street": "Kumlubel Sokak", "amenity": "cafe", "branch": "Coffee House Collesium", "brand": "% Arabica", "brand:wikidata": "Q107639197", "cuisine": "coffee_shop", "internet_access": "wlan", "name": "% Arabica", "name:en": "Arabica Coffee House", "opening_hours": "Mo-Su 08:00-13:00", "shop": "coffee", "takeaway": "yes", "website": "https://arabicacoffee.com.tr/"}}, {"type": "node", "id": 11707185269, "lat": 39.7837354, "lon": 30.512698, "tags": {"addr:street": "Genez Sokak", "amenity": "cafe", "internet_access": "wlan", "name": "Monti Collesium", "opening_hours": "Mo-Su 11:00-12:30"}}, {"type": "node", "id": 11707186769, "lat": 39.7776545, "lon": 30.5141607, "tags": {"addr:street": "Porsuk Bulvar\u0131", "amenity": "cafe", "brand": "% Arabica", "brand:wikidata": "Q107639197", "cuisine": "coffee_shop", "name": "% Arabica", "name:en": "Arabica Coffee House Porsuk Adalar", "opening_hours": "Mo-Su 09:00-01:00", "shop": "coffee", "takeaway": "yes"}}, {"type": "node", "id": 11707187270, "lat": 39.7573233, "lon": 30.4990505, "tags": {"addr:street": "Mehmet Osman Sokak", "amenity": "restaurant", "cuisine": "beef_bowl;breakfast;chicken;grill;kebab;steak_house;tea", "name": "Ar\u0131 Kebap"}}, {"type": "node", "id": 11805345339, "lat": 39.7776885, "lon": 30.5131466}, {"type": "node", "id": 11805345347, "lat": 39.7779924, "lon": 30.5131842}, {"type": "node", "id": 11805345362, "lat": 39.7779437, "lon": 30.5130115}, {"type": "node", "id": 11898582736, "lat": 39.7521705, "lon": 30.49458, "tags": {"amenity": "restaurant", "name": "Elma Cafe & Bistro"}}, {"type": "node", "id": 11944304870, "lat": 39.7750276, "lon": 30.5189089, "tags": {"amenity": "restaurant", "name": "papa\u011fan \u00e7i\u011f borek"}}, {"type": "node", "id": 11944330369, "lat": 39.7814058, "lon": 30.5088312, "tags": {"amenity": "restaurant", "name": "mazlumlar muhallebicisi"}}, {"type": "node", "id": 11952448597, "lat": 39.8140199, "lon": 30.5331417}, {"type": "node", "id": 11958098869, "lat": 39.7651617, "lon": 30.5028886, "tags": {"amenity": "restaurant", "name": "mazlumlar muhallebicisi"}}, {"type": "node", "id": 11958099070, "lat": 39.7736208, "lon": 30.5206714, "tags": {"amenity": "restaurant", "name": "taninmis helvac\u0131"}}, {"type": "node", "id": 11958099169, "lat": 39.7658504, "lon": 30.5244181, "tags": {"amenity": "restaurant", "name": "balaban kofte"}}, {"type": "node", "id": 12139044012, "lat": 39.864841, "lon": 30.2082134, "tags": {"amenity": "restaurant", "name": "Poyraz Bahar Bah\u00e7esi"}}, {"type": "node", "id": 12142123455, "lat": 39.7945802, "lon": 30.5065703, "tags": {"addr:street": "\u0130stikl\u00e2l Caddesi", "amenity": "restaurant", "name": "\u0130stikl\u00e2l Pide", "phone": "+905308972178"}}, {"type": "node", "id": 12142124977, "lat": 39.79546, "lon": 30.4424429, "tags": {"amenity": "cafe", "name": "Northstar Cafe & Bistro"}}, {"type": "node", "id": 12143429045, "lat": 39.7837023, "lon": 30.500938, "tags": {"amenity": "restaurant", "name": "Sivri Hisar\u0131 Bamya \u00c7orbac\u0131s\u0131 Hakan Usta"}}, {"type": "node", "id": 12145144770, "lat": 39.7810676, "lon": 30.5259098, "tags": {"amenity": "cafe", "name": "Opera \u00c7ay ve Kahvalt\u0131 Salonu"}}, {"type": "node", "id": 12195203052, "lat": 39.8137134, "lon": 30.533118}, {"type": "node", "id": 12195203054, "lat": 39.8137047, "lon": 30.5333996}, {"type": "node", "id": 12195203055, "lat": 39.814006, "lon": 30.5334227}, {"type": "node", "id": 12280773101, "lat": 39.7870308, "lon": 30.5069289, "tags": {"amenity": "cafe", "cuisine": "breakfast;coffee_shop", "internet_access": "wlan", "name": "Cronies Kafe", "name:en": "Cronies Cafe", "website:menu": "https://menu.menutica.com/menu/cronies-eti"}}, {"type": "node", "id": 12450937592, "lat": 39.7948812, "lon": 30.4961503, "tags": {"amenity": "cafe"}}, {"type": "node", "id": 12496759607, "lat": 39.7900359, "lon": 30.4891151, "tags": {"amenity": "restaurant", "name": "Birtat"}}, {"type": "node", "id": 12644796020, "lat": 39.741172, "lon": 30.6210044, "tags": {"addr:district": "Odunpazar\u0131", "addr:housenumber": "37K", "addr:neighbourhood": "Sultandere Mahallesi", "addr:postcode": "26250", "addr:street": "1. Caddesi", "amenity": "restaurant", "contact:facebook": "https://www.facebook.com/share/1M5U9W9XcR/?mibextid=wwXIfr", "cuisine": "kebab;et_d\u00f6ner;turkish;regional;salad", "delivery": "yes", "diet:halal": "yes", "email": "info@donercipehlivan.com.tr", "image": "https://www.facebook.com/share/12DaAFepemQ/?mibextid=wwXIfr", "loc_name": "emko sanayi sitesi", "mobile": "+905402906666", "name": "D\u00f6nerci Pehlivan", "opening_hours": "mo-sa 11:00-19:00", "outdoor_seating": "yes", "payment:cash": "yes", "payment:credit_cards": "yes", "payment:debit_cards": "yes", "payment:mastercard": "yes", "payment:visa": "yes", "phone": "+902222406666", "reservation": "yes", "website": "www.donercipehlivan.com.tr", "website:menu": "https://www.donercipehlivan.com.tr/menu.pdf"}}, {"type": "node", "id": 12710137135, "lat": 39.7505671, "lon": 30.496396, "tags": {"amenity": "restaurant", "brand": "K\u00f6fteci Yusuf", "brand:wikidata": "Q126125081", "cuisine": "turkish", "name": "K\u00f6fteci Yusuf"}}, {"type": "node", "id": 12710137136, "lat": 39.7739272, "lon": 30.5188761, "tags": {"amenity": "restaurant", "brand": "K\u00f6fteci Yusuf", "brand:wikidata": "Q126125081", "cuisine": "turkish", "name": "K\u00f6fteci Yusuf"}}, {"type": "node", "id": 12768575580, "lat": 39.7846949, "lon": 30.50265, "tags": {"amenity": "restaurant", "check_date": "2025-04-19", "cuisine": "steak_house", "name": "Etevim"}}, {"type": "node", "id": 12848422701, "lat": 39.7815148, "lon": 30.5159454, "tags": {"addr:housenumber": "13/A", "addr:street": "Hatboyu-1 Caddesi", "amenity": "cafe", "contact:instagram": "etevim_cafeburger", "cuisine": "burger;coffee_shop", "name": "Etevim Kafe&Burger", "opening_hours": "Mo-Su 12:00-22:00", "phone": "+905322045910"}}, {"type": "way", "id": 275553418, "nodes": [2801915018, 2801915019, 2801915020, 2801915021, 2801915018], "tags": {"amenity": "restaurant", "building": "yes", "name": "K\u00f6fteci Aziz"}}, {"type": "way", "id": 278474621, "nodes": [2828427703, 2828427704, 2828427705, 2828427706, 2828427703], "tags": {"amenity": "restaurant", "building": "no", "name": "Ci\u011ferci Ahmet"}}, {"type": "way", "id": 326694601, "nodes": [3333673936, 6560347505, 3333673937, 3333673938, 3333673939, 3333673940, 6560347511, 3333673941, 3333673936], "tags": {"amenity": "restaurant", "building": "yes", "building:levels": "2", "name": "Ayten Usta"}}, {"type": "way", "id": 364259437, "nodes": [3683128478, 3683128479, 3683128480, 3683128481, 3683128482, 3683128483, 6576033025, 3683128484, 3683128485, 3683128486, 3683128487, 3683128488, 3683128489, 3683128490, 3683128491, 3683128492, 3683128493, 3683128478], "tags": {"amenity": "cafe", "building": "yes", "name": "Kocatepe Kahve Evi"}}, {"type": "way", "id": 370569369, "nodes": [3742656391, 3742656392, 6179561817, 3742656393, 3742656394, 3766886530, 3742656391], "tags": {"addr:city": "Eski\u015fehir", "amenity": "restaurant", "building": "yes"}}, {"type": "way", "id": 372819894, "nodes": [3763676112, 6560560915, 6560560914, 3016297040, 6560560913, 3763676113, 6560560912, 3763676114, 6560560911, 6560560910, 6560560909, 6560560908, 6560560907, 6560560906, 6560560905, 6560560904, 6560560903, 3763676115, 3763676112], "tags": {"amenity": "restaurant", "building": "yes", "name": "Gaga Restaurant"}}, {"type": "way", "id": 418978943, "nodes": [4191796601, 4191796602, 4191796603, 4191796604, 4191796601], "tags": {"amenity": "cafe", "building": "yes", "name": "Kahvehane"}}, {"type": "way", "id": 456806814, "nodes": [4530419080, 4530419081, 4530419082, 4530419083, 4530419080], "tags": {"amenity": "cafe", "building": "yes"}}, {"type": "way", "id": 499336903, "nodes": [4906210418, 4906210419, 4906210522, 4906210420, 4906210521, 4906210418], "tags": {"amenity": "cafe", "building": "yes"}}, {"type": "way", "id": 499336911, "nodes": [4906210600, 6708816345, 4906210602, 4906210603, 4906210599, 4906210600], "tags": {"amenity": "cafe", "building": "yes"}}, {"type": "way", "id": 583015865, "nodes": [5574514072, 5574514073, 5574514074, 9530071717, 5574514075, 9530069915, 5574514072], "tags": {"addr:city": "Eski\u015fehir", "addr:district": "Tepeba\u015f\u0131", "addr:neighbourhood": "Eskiba\u011flar Mahallesi", "amenity": "cafe", "brand": "Kahve D\u00fcnyas\u0131", "brand:wikidata": "Q28008050", "building": "yes", "cuisine": "coffee_shop", "delivery": "no", "name": "Kahve D\u00fcnyas\u0131", "outdoor_seating": "yes", "payment:cash": "yes", "payment:credit_cards": "yes", "payment:debit_cards": "yes", "takeaway": "yes", "website": "https://www.kahvedunyasi.com/"}}, {"type": "way", "id": 660024184, "nodes": [6179561851, 6179561852, 6179561853, 6179561854, 6179561851], "tags": {"amenity": "restaurant", "building": "yes", "name": "Otac\u0131"}}, {"type": "way", "id": 660042187, "nodes": [6179694242, 6179694243, 6179694244, 6179694245, 6179694242], "tags": {"addr:city": "Eski\u015fehir", "addr:district": "Tepeba\u015f\u0131", "addr:neighbourhood": "Ye\u015filtepe", "addr:postcode": "26210", "addr:street": "Anadolu \u00dcniversitesi Yunus Emre Kamp\u00fcs\u00fc", "amenity": "restaurant", "building": "yes", "cuisine": "regional", "name": "Ta\u015f Bina", "opening_hours": "Mo-Sa 08:00-20:00"}}, {"type": "way", "id": 687041641, "nodes": [6440413530, 6440413531, 6440413532, 6440413533, 6440413530], "tags": {"amenity": "cafe", "building": "yes", "name": "Kantin"}}, {"type": "way", "id": 696601832, "nodes": [6541777528, 6541777529, 2801886725, 2801886722, 6541777528], "tags": {"amenity": "restaurant", "building": "yes", "name": "\u0130stasyon Lezzet Dura\u011f\u0131"}}, {"type": "way", "id": 716028080, "nodes": [6728758852, 6728758853, 6728758854, 6728758855, 6728758856, 6728758857, 6728758858, 6728758859, 6728758860, 6728758861, 6728758862, 6728758863, 6728758864, 6728758865, 6728758866, 6728758867, 6728758868, 6728758869, 6728758870, 6728758871, 6728758872, 6728758873, 6728758874, 6728758875, 6728758876, 6728758877, 6728758878, 6728758879, 6728758880, 6728758881, 6728758882, 6728758883, 6728758884, 6728786185, 6728786186, 6728758852], "tags": {"amenity": "restaurant", "building": "yes"}}, {"type": "way", "id": 721125875, "nodes": [6765958052, 6765958053, 6765958054, 6765958055, 6765958056, 6765958049, 6765958057, 6765958052], "tags": {"amenity": "restaurant", "building": "yes", "name": "Kocatepe Kahve Evi"}}, {"type": "way", "id": 721125876, "nodes": [6765958058, 6765958020, 6765958059, 6765958060, 6765958061, 6765958062, 6765958063, 6765958064, 6765958004, 6765958065, 6765958066, 6765958067, 6765958058], "tags": {"amenity": "restaurant", "building": "yes", "name": "Has\u0131r"}}, {"type": "way", "id": 815435623, "nodes": [7615815180, 7615815181, 7615815182, 11539947354, 11539947355, 7615815183, 7615815180], "tags": {"addr:housenumber": "1/A", "addr:neighbourhood": "O.S.B.", "addr:street": "1. Caddesi", "amenity": "restaurant", "building": "yes", "cuisine": "turkish", "name": "Oda Restoran", "opening_hours": "Mo-Fr 09:00-22:00", "phone": "0 (222) 236 00 47", "website": "https://www.odarestoran.com.tr/"}}, {"type": "way", "id": 884953140, "nodes": [8229443379, 8229443380, 8229443381, 8229443382, 8229443379], "tags": {"amenity": "cafe", "building": "yes", "name": "K\u00f6y K\u0131raathanesi"}}, {"type": "way", "id": 897336396, "nodes": [8340315484, 8340315485, 8340315486, 8340315487, 8340315484], "tags": {"amenity": "cafe", "building": "yes"}}, {"type": "way", "id": 927440492, "nodes": [8604702268, 8604702269, 8604702270, 8604702271, 8604702268], "tags": {"amenity": "cafe", "building": "yes"}}, {"type": "way", "id": 927440494, "nodes": [8604702280, 8604702281, 8604702282, 8604702283, 8604702280], "tags": {"addr:neighbourhood": "Pa\u015fa Mahallesi", "addr:street": "\u015eeyh \u015eemsettin Sokak", "amenity": "restaurant", "building": "yes", "name": "Beyaz Konak"}}, {"type": "way", "id": 954003853, "nodes": [722766599, 722765947, 8829803814, 8829813927, 722766599], "tags": {"addr:city": "Eski\u015fehir", "addr:district": "odunpazar\u0131", "addr:neighbourhood": "G\u00fcltepe", "addr:postcode": "26000", "addr:street": "Gen\u00e7lik Bulvar\u0131", "amenity": "cafe", "building": "yes", "internet_access": "no", "layer": "1", "name": "Kent Orman\u0131 K\u0131r Kahvesi", "opening_hours": "Mo-Su 07:00-23:00", "opening_hours:covid19": "Mo-Su 07:00-21:00"}}, {"type": "way", "id": 1064897698, "nodes": [9779703361, 9779703362, 9779703363, 9779703364, 9779703361], "tags": {"addr:city": "Eski\u015fehir", "addr:district": "Odunpazar\u0131", "addr:housenumber": "33", "addr:neighbourhood": "S\u00fcmer Mahallesi", "addr:postcode": "26140", "addr:street": "Darcan Sokak", "amenity": "cafe", "building": "yes", "internet_access": "yes", "internet_access:fee": "customers", "name": "Ordinarius Coffee S\u00fcmer", "outdoor_seating": "yes", "phone": "0(532)322 01 70", "takeaway": "yes", "website": "https://ordinariuscoffee.com/"}}, {"type": "way", "id": 1155362667, "nodes": [10744591863, 10744591864, 10744591865, 10744591866, 10744591867, 10744591868, 10744591850, 10744591869, 10744591851, 10744591852, 10744591856, 10744591857, 10744591858, 10744591859, 10744591860, 10744591861, 10744591862, 10744591853, 10744591854, 10744591855, 10744591863], "tags": {"amenity": "cafe", "building": "yes", "diet:halal": "yes", "name": "Gazebo Cay Evi"}}, {"type": "way", "id": 1209755145, "nodes": [4806215251, 11207767569, 11207767570, 4806214503, 4806215251], "tags": {"amenity": "restaurant", "building": "yes", "cuisine": "regional", "name": "Nosso Station"}}, {"type": "way", "id": 1220886225, "nodes": [11312977607, 11312977608, 11312977609, 11312977610, 11312977607], "tags": {"amenity": "cafe", "building": "yes"}}, {"type": "way", "id": 1271234818, "nodes": [11805345347, 7218197047, 11805345339, 11805345362, 11805345347], "tags": {"amenity": "cafe", "building": "yes"}}, {"type": "way", "id": 1288975632, "nodes": [11952448597, 12195203055, 12195203054, 12195203052, 11952448597], "tags": {"amenity": "restaurant", "building": "yes", "name": "EST\u00dc Akademik Kul\u00fcp"}}]}