{"version": 0.6, "generator": "Overpass API 0.7.62.7 375dc00a", "osm3s": {"timestamp_osm_base": "2025-06-14T13:22:01Z", "copyright": "The data included in this document is from www.openstreetmap.org. The data is made available under ODbL."}, "elements": [{"type": "node", "id": 2840291618, "lat": 5.4772143, "lon": 10.4184728}, {"type": "node", "id": 2840291623, "lat": 5.4772301, "lon": 10.4185036}, {"type": "node", "id": 2840291661, "lat": 5.4773654, "lon": 10.4183751}, {"type": "node", "id": 2840291664, "lat": 5.4773765, "lon": 10.4183914}, {"type": "node", "id": 3926659094, "lat": 5.4781246, "lon": 10.4162543}, {"type": "node", "id": 3926708993, "lat": 5.4778531, "lon": 10.4165128}, {"type": "node", "id": 3926708994, "lat": 5.4779551, "lon": 10.4165684}, {"type": "node", "id": 3926713700, "lat": 5.4780226, "lon": 10.4161988}, {"type": "node", "id": 3926714256, "lat": 5.4790968, "lon": 10.4144402}, {"type": "node", "id": 3926715578, "lat": 5.4788965, "lon": 10.4144569}, {"type": "node", "id": 3926715774, "lat": 5.4789907, "lon": 10.4143478}, {"type": "node", "id": 3926722385, "lat": 5.4790026, "lon": 10.4145493}, {"type": "node", "id": 4241220859, "lat": 5.4715855, "lon": 10.422463}, {"type": "node", "id": 4241220929, "lat": 5.4716475, "lon": 10.4226013}, {"type": "node", "id": 4241220969, "lat": 5.471689, "lon": 10.4224162}, {"type": "node", "id": 4241221115, "lat": 5.471751, "lon": 10.4225545}, {"type": "node", "id": 4258858427, "lat": 5.4664054, "lon": 10.3988098}, {"type": "node", "id": 4258858428, "lat": 5.4664333, "lon": 10.3986884}, {"type": "node", "id": 4258858429, "lat": 5.4665169, "lon": 10.3987071}, {"type": "node", "id": 4258858430, "lat": 5.4664983, "lon": 10.3988332}, {"type": "node", "id": 4258869952, "lat": 5.4670464, "lon": 10.4008621}, {"type": "node", "id": 4258869953, "lat": 5.4669796, "lon": 10.4008755}, {"type": "node", "id": 4258869954, "lat": 5.4669903, "lon": 10.4009425}, {"type": "node", "id": 4258869955, "lat": 5.467017, "lon": 10.4009345}, {"type": "node", "id": 4258869956, "lat": 5.4670491, "lon": 10.4010391}, {"type": "node", "id": 4258869957, "lat": 5.4670998, "lon": 10.4010123}, {"type": "node", "id": 4312380979, "lat": 5.6369234, "lon": 10.6362516}, {"type": "node", "id": 4312380980, "lat": 5.6366289, "lon": 10.6360916}, {"type": "node", "id": 4312380981, "lat": 5.636558, "lon": 10.6362234}, {"type": "node", "id": 4312380982, "lat": 5.6367109, "lon": 10.6363064}, {"type": "node", "id": 4312380983, "lat": 5.6367277, "lon": 10.6362752}, {"type": "node", "id": 4312380984, "lat": 5.6368693, "lon": 10.6363521}, {"type": "node", "id": 4362447789, "lat": 5.4694705, "lon": 10.422325, "tags": {"amenity": "cafe", "name": "Cristal Coffee"}}, {"type": "node", "id": 4880159522, "lat": 5.4770933, "lon": 10.41591, "tags": {"addr:street": "2eme Rue TALOTEL", "amenity": "restaurant", "cuisine": "fine_dining", "name": "Groupe PASSION SARL", "name:fr": "Groupe PASSION SARL", "phone": "699282840", "website": "http://www.grouoepassion.cm"}}, {"type": "node", "id": 6499626271, "lat": 5.3549095, "lon": 10.4277037, "tags": {"addr:postcode": "104", "addr:street": "Nationale 4", "amenity": "restaurant", "name": "Club 100", "phone": "678624969"}}, {"type": "node", "id": 7815404893, "lat": 5.3756584, "lon": 10.4157007, "tags": {"amenity": "restaurant", "name": "Restaurant_la_grace"}}, {"type": "node", "id": 7815404894, "lat": 5.375438, "lon": 10.4154642, "tags": {"amenity": "restaurant", "cuisine": "bavarian", "name": "Restaurant la grace"}}, {"type": "way", "id": 279840112, "nodes": [2840291664, 2840291623, 2840291618, 2840291661, 2840291664], "tags": {"addr:city": "Bafoussam I", "addr:street": "Mont\u00e9e AKWA", "amenity": "restaurant", "building": "yes", "name": "Tourne dos AKWA"}}, {"type": "way", "id": 389507686, "nodes": [3926659094, 3926708994, 3926708993, 3926713700, 3926659094], "tags": {"amenity": "restaurant", "building": "commercial", "name": "Les Arcades de l'Ouest"}}, {"type": "way", "id": 389507742, "nodes": [3926714256, 3926722385, 3926715578, 3926715774, 3926714256], "tags": {"amenity": "restaurant", "building": "yes", "name": "Le Piment Sucr\u00e9"}}, {"type": "way", "id": 424739545, "nodes": [4241220969, 4241221115, 4241220929, 4241220859, 4241220969], "tags": {"amenity": "restaurant", "building": "commercial", "name": "Restaurant le Buffet Bambou"}}, {"type": "way", "id": 426607386, "nodes": [4258858427, 4258858428, 4258858429, 4258858430, 4258858427], "tags": {"amenity": "restaurant", "building": "yes", "cuisine": "regional", "name": "Aide Maman Toket"}}, {"type": "way", "id": 426608364, "nodes": [4258869952, 4258869953, 4258869954, 4258869955, 4258869956, 4258869957, 4258869952], "tags": {"amenity": "restaurant", "building": "yes", "name": "Mere Chaud"}}, {"type": "way", "id": 432070246, "nodes": [4312380979, 4312380980, 4312380981, 4312380982, 4312380983, 4312380984, 4312380979], "tags": {"amenity": "restaurant", "building": "yes", "name": "Petpenoun"}}]}