{"version": 0.6, "generator": "Overpass API 0.7.62.7 375dc00a", "osm3s": {"timestamp_osm_base": "2025-06-14T15:20:06Z", "copyright": "The data included in this document is from www.openstreetmap.org. The data is made available under ODbL."}, "elements": [{"type": "node", "id": 759607728, "lat": 34.0452412, "lon": 36.7329867, "tags": {"alt_name": "\u0645\u0637\u0639\u0645 \u0627\u0644\u062c\u0644\u0627\u0628", "amenity": "restaurant", "name": "\u0645\u0637\u0639\u0645 \u0627\u0644\u062c\u0644\u0627\u0628", "name:ar": "\u0645\u0637\u0639\u0645 \u0627\u0644\u062c\u0644\u0627\u0628", "name:en": "Al Jelab"}}, {"type": "node", "id": 765063818, "lat": 34.015593, "lon": 36.7135778, "tags": {"alt_name": "\u0645\u0637\u0639\u0645 \u0623\u0645 \u0627\u0644\u0642\u0631\u0649", "amenity": "restaurant", "name": "\u0645\u0637\u0639\u0645 \u0623\u0645 \u0627\u0644\u0642\u0631\u0649", "name:ar": "\u0645\u0637\u0639\u0645 \u0623\u0645 \u0627\u0644\u0642\u0631\u0649", "name:en": "Omm Alqura"}}, {"type": "node", "id": 765064972, "lat": 34.014806, "lon": 36.7139415, "tags": {"alt_name": "\u0645\u0637\u0639\u0645 \u0637\u064a\u0628\u0629", "amenity": "restaurant", "name": "\u0645\u0637\u0639\u0645 \u0637\u064a\u0628\u0629", "name:ar": "\u0645\u0637\u0639\u0645 \u0637\u064a\u0628\u0629", "name:en": "Taiba Restaurant"}}, {"type": "node", "id": 765789626, "lat": 34.0497961, "lon": 36.7363919, "tags": {"alt_name": "\u0645\u0637\u0639\u0645 \u0627\u0644\u0641\u0631\u0633\u0627\u0646", "amenity": "restaurant", "name": "\u0645\u0637\u0639\u0645 \u0627\u0644\u0641\u0631\u0633\u0627\u0646", "name:ar": "\u0645\u0637\u0639\u0645 \u0627\u0644\u0641\u0631\u0633\u0627\u0646", "name:en": "Al Forsan"}}, {"type": "node", "id": 1340614401, "lat": 33.9949623, "lon": 36.7233173, "tags": {"amenity": "restaurant", "name": "\u0645\u0637\u0639\u0645 \u0627\u0644\u0645\u0631\u062c\u0627\u0646", "name:en": "Al morjan restaurant"}}, {"type": "node", "id": 1827422566, "lat": 33.9496821, "lon": 36.7105218, "tags": {"amenity": "restaurant", "name": "\u0627\u0633\u062a\u0631\u0627\u062d\u0629"}}, {"type": "node", "id": 1827422953, "lat": 33.9888308, "lon": 36.7244122, "tags": {"amenity": "restaurant", "name": "\u0627\u0633\u062a\u0631\u0627\u062d\u0629"}}, {"type": "node", "id": 1827426080, "lat": 33.9928581, "lon": 36.7206533, "tags": {"amenity": "restaurant", "name": "\u0627\u0633\u062a\u0631\u0627\u062d\u0629"}}, {"type": "node", "id": 5514040822, "lat": 34.0872803, "lon": 36.756018, "tags": {"amenity": "cafe", "cuisine": "burger;sandwich;ice_cream;grill;crepe;asian;coffee_shop;pasta;lebanese;pizza;fish_and_chips;brazilian;arab;chicken;diner;fish;breakfast;french;tea;seafood;friture;american;chinese", "internet_access": "wlan", "name": "\u0641\u0646\u062f\u0642 \u0648\u0645\u0637\u0639\u0645 \u0625\u0644\u0628\u0627\u062a\u064a\u0648", "name:en": "Elpatio Hotel", "phone": "0991493010"}}, {"type": "node", "id": 5835135117, "lat": 34.0475595, "lon": 36.7354193, "tags": {"alt_name": "\u0645\u0637\u0639\u0645 \u0628\u062d\u0628\u0648\u062d", "amenity": "restaurant", "name": "\u0645\u0637\u0639\u0645 \u0628\u062d\u0628\u0648\u062d", "name:ar": "\u0645\u0637\u0639\u0645 \u0628\u062d\u0628\u0648\u062d", "name:en": "Bahbouh"}}, {"type": "node", "id": 8413379518, "lat": 34.0148504, "lon": 36.7142633, "tags": {"addr:street": "\u0637\u0631\u064a\u0642 \u064a\u0628\u0631\u0648\u062f-\u0627\u0644\u0646\u0628\u0643", "amenity": "restaurant", "name": "\u0645\u0637\u0639\u0645 \u0634\u0639\u0627\u0639"}}, {"type": "node", "id": 10156665236, "lat": 33.7393542, "lon": 36.5993329, "tags": {"amenity": "restaurant", "name": "\u0645\u0637\u0639\u0645 \u0627\u0644\u0633\u0644\u0637\u0627\u0646"}}]}