{"version": 0.6, "generator": "Overpass API 0.7.62.7 375dc00a", "osm3s": {"timestamp_osm_base": "2025-06-14T13:51:30Z", "copyright": "The data included in this document is from www.openstreetmap.org. The data is made available under ODbL."}, "elements": [{"type": "node", "id": 2179660505, "lat": 10.5882582, "lon": 14.2914095, "tags": {"amenity": "restaurant", "name": "Safari", "project:eurosha_2012": "yes", "source": "Survey", "source:date": "2013-01-16"}}, {"type": "node", "id": 3174686711, "lat": 10.6048, "lon": 14.3381385}, {"type": "node", "id": 3174686712, "lat": 10.6045396, "lon": 14.3382312}, {"type": "node", "id": 3174686713, "lat": 10.6042776, "lon": 14.3383355}, {"type": "node", "id": 3174686714, "lat": 10.6041865, "lon": 14.3381286}, {"type": "node", "id": 3174686715, "lat": 10.6046292, "lon": 14.3379545}, {"type": "node", "id": 4025578952, "lat": 10.5928393, "lon": 14.2965898}, {"type": "node", "id": 4025578965, "lat": 10.5928417, "lon": 14.2965676}, {"type": "node", "id": 4025578986, "lat": 10.5928464, "lon": 14.2966063}, {"type": "node", "id": 4025579095, "lat": 10.5928493, "lon": 14.2965854}, {"type": "node", "id": 4025580249, "lat": 10.5928734, "lon": 14.296594}, {"type": "node", "id": 4025580254, "lat": 10.5928743, "lon": 14.2965532}, {"type": "node", "id": 4025580277, "lat": 10.5928841, "lon": 14.2966168}, {"type": "node", "id": 4025580710, "lat": 10.5928929, "lon": 14.2965841}, {"type": "node", "id": 4025580740, "lat": 10.592901, "lon": 14.296579}, {"type": "node", "id": 4025581189, "lat": 10.592912, "lon": 14.2966046}, {"type": "node", "id": 4025683957, "lat": 10.5887487, "lon": 14.3133652}, {"type": "node", "id": 4025683971, "lat": 10.588782, "lon": 14.313509}, {"type": "node", "id": 4025683994, "lat": 10.5888588, "lon": 14.3133392}, {"type": "node", "id": 4025684010, "lat": 10.5888921, "lon": 14.3134831}, {"type": "node", "id": 4026420913, "lat": 10.6044683, "lon": 14.3379697}, {"type": "node", "id": 4026421017, "lat": 10.604576, "lon": 14.3378789}, {"type": "node", "id": 4175814814, "lat": 10.4532788, "lon": 14.239917}, {"type": "node", "id": 4175814815, "lat": 10.4532804, "lon": 14.2400042}, {"type": "node", "id": 4175814816, "lat": 10.4533299, "lon": 14.2398913}, {"type": "node", "id": 4175814817, "lat": 10.4533303, "lon": 14.239916}, {"type": "node", "id": 4175814818, "lat": 10.4533832, "lon": 14.2398902}, {"type": "node", "id": 4175814819, "lat": 10.4533853, "lon": 14.2400022}, {"type": "node", "id": 4180530933, "lat": 10.5929386, "lon": 14.3303194}, {"type": "node", "id": 4180530936, "lat": 10.5929444, "lon": 14.3304037}, {"type": "node", "id": 4180530944, "lat": 10.5930704, "lon": 14.33031}, {"type": "node", "id": 4180530945, "lat": 10.5930762, "lon": 14.3303944}, {"type": "node", "id": 4180530958, "lat": 10.5933675, "lon": 14.3328124}, {"type": "node", "id": 4180530960, "lat": 10.5933794, "lon": 14.3328855}, {"type": "node", "id": 4180530965, "lat": 10.5934221, "lon": 14.3328032}, {"type": "node", "id": 4180530966, "lat": 10.5934339, "lon": 14.3328763}, {"type": "node", "id": 4180531548, "lat": 10.5950873, "lon": 14.3271644}, {"type": "node", "id": 4180531552, "lat": 10.5951057, "lon": 14.3271979}, {"type": "node", "id": 4180531557, "lat": 10.5951238, "lon": 14.3271436}, {"type": "node", "id": 4180531561, "lat": 10.5951422, "lon": 14.3271771}, {"type": "node", "id": 4180531580, "lat": 10.5953677, "lon": 14.332254}, {"type": "node", "id": 4180531585, "lat": 10.5954014, "lon": 14.3324996}, {"type": "node", "id": 4180531700, "lat": 10.5957584, "lon": 14.3321642}, {"type": "node", "id": 4180531701, "lat": 10.595825, "lon": 14.3324393}, {"type": "node", "id": 4180769924, "lat": 10.6042303, "lon": 14.3380995}, {"type": "node", "id": 4180769925, "lat": 10.6042523, "lon": 14.3381304}, {"type": "node", "id": 4180769930, "lat": 10.6043569, "lon": 14.338003}, {"type": "node", "id": 4180769931, "lat": 10.6043822, "lon": 14.3380439}, {"type": "node", "id": 4181346785, "lat": 10.6039607, "lon": 14.3293269}, {"type": "node", "id": 4181346787, "lat": 10.6039737, "lon": 14.3292614}, {"type": "node", "id": 4181347193, "lat": 10.6040688, "lon": 14.329349}, {"type": "node", "id": 4181347194, "lat": 10.6040818, "lon": 14.3292836}, {"type": "node", "id": 4181347201, "lat": 10.6041655, "lon": 14.3338155}, {"type": "node", "id": 4181347203, "lat": 10.60418, "lon": 14.3337183}, {"type": "node", "id": 4181347208, "lat": 10.6042125, "lon": 14.3338227}, {"type": "node", "id": 4181347210, "lat": 10.604227, "lon": 14.3337255}, {"type": "node", "id": 4252185191, "lat": 10.5945376, "lon": 14.3217005, "tags": {"addr:street": "Boulevard de domayo", "amenity": "restaurant", "name": "Le Noumou", "opening_hours": "Mo-Su 07:00-23:00"}}, {"type": "node", "id": 4253982589, "lat": 10.5939406, "lon": 14.3167805, "tags": {"addr:street": "Boulevard de domayo", "amenity": "restaurant", "cuisine": "coffee_shop;ice_cream;african;breakfast;pizza;fish;chicken;pasta;sandwich;arab;french;local;cake;burger;tea", "internet_access": "wlan", "name": "Restaurant du coin", "opening_hours": "Mo-Su 08:00-22:00", "phone": "+237699588150"}}, {"type": "node", "id": 4430462498, "lat": 10.5940167, "lon": 14.3146001, "tags": {"addr:street": "Camp sic", "amenity": "restaurant", "cuisine": "african", "name": "RESTAURANT NADA", "name:fr": "RESTAURANT NADA", "opening_hours": "Mo-Sa 07:00-22:00"}}, {"type": "node", "id": 4459266789, "lat": 10.6053666, "lon": 14.3326824, "tags": {"amenity": "restaurant", "name": "Amed Restaurant", "name:fr": "Amed Restaurant"}}, {"type": "node", "id": 4693998989, "lat": 10.5941596, "lon": 14.3220081, "tags": {"addr:street": "Boulevard de Domayo", "amenity": "restaurant", "name": "Fast-food", "name:en": "Fast-food", "name:fr": "La Djaf", "opening_hours": "Mo-Su 08:00-23:00"}}, {"type": "node", "id": 5344773922, "lat": 10.603287, "lon": 14.3294073, "tags": {"addr:street": "Rue Artisanale", "amenity": "restaurant", "name": "RESTAURANT LE PETIT COIN DU MARCH\u00c9", "phone": "695124556"}}, {"type": "node", "id": 5344786829, "lat": 10.5943474, "lon": 14.3209078, "tags": {"addr:street": "Boulevard de Domayo", "amenity": "restaurant", "name": "HALAL"}}, {"type": "node", "id": 6661542188, "lat": 10.5943476, "lon": 14.3151301, "tags": {"addr:street": "Pont Domayo", "amenity": "restaurant", "name": "Fast Food Domayo"}}, {"type": "node", "id": 7175248986, "lat": 10.6041576, "lon": 14.3292994, "tags": {"amenity": "restaurant", "name": "Restaurant Artisans"}}, {"type": "node", "id": 8288080792, "lat": 10.5890094, "lon": 14.290868}, {"type": "node", "id": 8288080793, "lat": 10.5891254, "lon": 14.2911641}, {"type": "node", "id": 8288080794, "lat": 10.5887542, "lon": 14.2913293}, {"type": "node", "id": 8288080795, "lat": 10.5886255, "lon": 14.2910268}, {"type": "way", "id": 311748660, "nodes": [3174686711, 3174686712, 3174686713, 3174686714, 4180769924, 4180769925, 4180769931, 4180769930, 4026420913, 4026421017, 3174686715, 3174686711], "tags": {"amenity": "cafe", "building": "yes"}}, {"type": "way", "id": 399889208, "nodes": [4025580249, 4025578986, 4025578952, 4025579095, 4025578965, 4025580254, 4025580710, 4025580740, 4025581189, 4025580277, 4025580249], "tags": {"amenity": "restaurant", "building": "yes", "cuisine": "regional", "source": "Plan polyvalent Maroua", "standing": "low"}}, {"type": "way", "id": 399899874, "nodes": [4025683994, 4025684010, 4025683971, 4025683957, 4025683994], "tags": {"amenity": "restaurant", "building": "yes", "name": "Restaurant du centre"}}, {"type": "way", "id": 416900250, "nodes": [4175814819, 4175814815, 4175814814, 4175814817, 4175814816, 4175814818, 4175814819], "tags": {"amenity": "restaurant", "building": "commercial", "name": "Au clair de la lune"}}, {"type": "way", "id": 417508551, "nodes": [4180531548, 4180531557, 4180531561, 4180531552, 4180531548], "tags": {"amenity": "restaurant", "building": "yes", "name": "Complexe Sahel clean restaurant"}}, {"type": "way", "id": 417508560, "nodes": [4180530958, 4180530965, 4180530966, 4180530960, 4180530958], "tags": {"amenity": "restaurant", "building": "yes", "name": "Emergence 2035 Bar-restaurant"}}, {"type": "way", "id": 417508562, "nodes": [4180530945, 4180530936, 4180530933, 4180530944, 4180530945], "tags": {"amenity": "restaurant", "building": "yes", "name": "Etoile d'Etat"}}, {"type": "way", "id": 417508591, "nodes": [4180531700, 4180531580, 4180531585, 4180531701, 4180531700], "tags": {"amenity": "restaurant", "name": "Pavillon plus"}}, {"type": "way", "id": 417617555, "nodes": [4181347194, 4181347193, 4181346785, 4181346787, 4181347194], "tags": {"amenity": "restaurant", "building": "yes", "name": "Restaurant Gaston"}}, {"type": "way", "id": 417617562, "nodes": [4181347203, 4181347210, 4181347208, 4181347201, 4181347203], "tags": {"amenity": "restaurant", "building": "yes", "name": "Restaurant le BAOBA"}}, {"type": "way", "id": 891738465, "nodes": [8288080792, 8288080793, 8288080794, 8288080795, 8288080792], "tags": {"amenity": "restaurant", "building": "yes", "name": "Centre Maibinga"}}]}