{"version": 0.6, "generator": "Overpass API 0.7.62.7 375dc00a", "osm3s": {"timestamp_osm_base": "2025-06-14T13:53:29Z", "copyright": "The data included in this document is from www.openstreetmap.org. The data is made available under ODbL."}, "elements": [{"type": "node", "id": 1304125815, "lat": 12.0994704, "lon": 15.0557321}, {"type": "node", "id": 2079390747, "lat": 12.105332, "lon": 15.0557567}, {"type": "node", "id": 2079390748, "lat": 12.1053222, "lon": 15.0560596}, {"type": "node", "id": 2079390756, "lat": 12.1054285, "lon": 15.0557565}, {"type": "node", "id": 2079390757, "lat": 12.1054256, "lon": 15.0560587}, {"type": "node", "id": 2155811644, "lat": 12.0944725, "lon": 15.0573151}, {"type": "node", "id": 2155811645, "lat": 12.0944915, "lon": 15.0571952}, {"type": "node", "id": 2155811646, "lat": 12.094554, "lon": 15.0573254}, {"type": "node", "id": 2155811647, "lat": 12.0945708, "lon": 15.0572043}, {"type": "node", "id": 2571239211, "lat": 12.1053221, "lon": 15.0559986}, {"type": "node", "id": 2571239212, "lat": 12.1053341, "lon": 15.0559969}, {"type": "node", "id": 2587655851, "lat": 12.0940593, "lon": 15.0544832, "tags": {"amenity": "restaurant", "cuisine": "cameroonian", "name": "La Diva"}}, {"type": "node", "id": 2656221825, "lat": 12.0951924, "lon": 15.0572629, "tags": {"amenity": "restaurant", "name": "Selesao"}}, {"type": "node", "id": 2656222040, "lat": 12.0938273, "lon": 15.0754187, "tags": {"amenity": "restaurant", "name": "Le P\u00e9lican"}}, {"type": "node", "id": 2839054400, "lat": 12.0992985, "lon": 15.0556219}, {"type": "node", "id": 2839055221, "lat": 12.0994521, "lon": 15.0557912}, {"type": "node", "id": 2839055223, "lat": 12.0993437, "lon": 15.0556595}, {"type": "node", "id": 2839055226, "lat": 12.0993345, "lon": 15.0556921}, {"type": "node", "id": 2839055272, "lat": 12.0992685, "lon": 15.0557375}, {"type": "node", "id": 2839055273, "lat": 12.0992792, "lon": 15.0556941}, {"type": "node", "id": 2841260913, "lat": 12.0968207, "lon": 15.0780038}, {"type": "node", "id": 2841260914, "lat": 12.0967822, "lon": 15.0780003}, {"type": "node", "id": 2841260915, "lat": 12.0967775, "lon": 15.0780535}, {"type": "node", "id": 2841260916, "lat": 12.096816, "lon": 15.078057}, {"type": "node", "id": 2841260917, "lat": 12.0966503, "lon": 15.0780572}, {"type": "node", "id": 2841260918, "lat": 12.0966503, "lon": 15.0779982}, {"type": "node", "id": 2841260919, "lat": 12.0965402, "lon": 15.0779901}, {"type": "node", "id": 2841260920, "lat": 12.0965376, "lon": 15.0780438}, {"type": "node", "id": 3058725198, "lat": 12.098229, "lon": 15.071589, "tags": {"amenity": "restaurant", "name": "Kirikou"}}, {"type": "node", "id": 3058725200, "lat": 12.1022736, "lon": 15.0767895}, {"type": "node", "id": 3058725201, "lat": 12.1020347, "lon": 15.0768282}, {"type": "node", "id": 3058725202, "lat": 12.1020609, "lon": 15.0769862}, {"type": "node", "id": 3058725203, "lat": 12.1022882, "lon": 15.0769444}, {"type": "node", "id": 3134981522, "lat": 12.0909677, "lon": 15.0874557, "tags": {"addr:city": "\u0627\u0646\u062c\u0645\u064a\u0646\u0627", "amenity": "restaurant", "name": "Hotel Victoria \u0641\u0646\u062f\u0642 \u0641\u064a\u0643\u062a\u0648\u0631\u064a\u0627", "name:ar": "\u0641\u0646\u062f\u0642 \u0641\u064a\u0643\u062a\u0648\u0631\u064a\u0627", "name:fr": "Hotel Victoria", "tourism": "hotel"}}, {"type": "node", "id": 3194635725, "lat": 12.1277333, "lon": 15.0541549, "tags": {"addr:city": "\u0627\u0646\u062c\u0645\u064a\u0646\u0627", "addr:street": "\u0634\u0627\u0631\u0639 40 \u0645\u062a\u0631", "amenity": "restaurant", "name": "Boulevard de 40 Metres \u0634\u0627\u0631\u0639 40 \u0645\u062a\u0631", "name:ar": "\u0627\u0644\u0648\u0627\u062d\u0629", "name:fr": "Boulevard de 40 Metres"}}, {"type": "node", "id": 3247478570, "lat": 11.8437149, "lon": 15.193937, "tags": {"amenity": "restaurant", "internet_access": "no", "name": "restourant chamel", "name:fr": "Restaurant camel de kournari", "opening_hours": "24/7"}}, {"type": "node", "id": 4146090928, "lat": 12.0921405, "lon": 15.0911467, "tags": {"amenity": "restaurant", "name": "La caravelle"}}, {"type": "node", "id": 4931068514, "lat": 12.1199263, "lon": 15.0621057}, {"type": "node", "id": 4931068515, "lat": 12.1198949, "lon": 15.0621057}, {"type": "node", "id": 4931068516, "lat": 12.1198936, "lon": 15.062272}, {"type": "node", "id": 4931068517, "lat": 12.1199263, "lon": 15.0622733}, {"type": "node", "id": 5072790521, "lat": 12.1241799, "lon": 15.0500442, "tags": {"addr:city": "\u0627\u0646\u062c\u0645\u064a\u0646\u0627", "amenity": "restaurant", "name": "Al-Rabha \u0627\u0644\u0631\u0627\u0628\u062d\u0629", "name:ar": "\u0627\u0644\u0631\u0627\u0628\u062d\u0629", "name:fr": "Al-Rabha", "phone": "+23566384745"}}, {"type": "node", "id": 5345032021, "lat": 12.0978203, "lon": 15.0563519, "tags": {"amenity": "cafe", "name": "D\u00e9lice Chez le Grec"}}, {"type": "node", "id": 5595009645, "lat": 12.104993, "lon": 15.0514923, "tags": {"amenity": "restaurant", "name": "Saltana"}}, {"type": "node", "id": 5609675559, "lat": 12.1041349, "lon": 15.0538923, "tags": {"amenity": "restaurant", "name": "Caf\u00e9 Fricass\u00e9 La Banguissoise"}}, {"type": "node", "id": 5609677505, "lat": 12.1035522, "lon": 15.0532787, "tags": {"amenity": "restaurant", "name": "Restaurant S\u00e9n\u00e9galais"}}, {"type": "node", "id": 5609677506, "lat": 12.1037896, "lon": 15.0534321, "tags": {"amenity": "restaurant", "name": "Wadi Choc"}}, {"type": "node", "id": 5609682959, "lat": 12.1141152, "lon": 15.0505408, "tags": {"amenity": "restaurant", "name": "Babal Hara"}}, {"type": "node", "id": 5609683925, "lat": 12.1248281, "lon": 15.050332, "tags": {"amenity": "restaurant", "name": "Rainbows"}}, {"type": "node", "id": 5613665962, "lat": 12.123443, "lon": 15.0504702, "tags": {"amenity": "restaurant", "name": "Salwa", "name:ar": "\u0633\u0644\u0648\u0649", "name:fr": "Salwa"}}, {"type": "node", "id": 5613952412, "lat": 12.0998414, "lon": 15.0782874, "tags": {"amenity": "restaurant", "name": "Omega"}}, {"type": "node", "id": 5678566625, "lat": 12.0936068, "lon": 15.0882499, "tags": {"amenity": "cafe", "name": "5 sur 5"}}, {"type": "node", "id": 5993818487, "lat": 12.0918732, "lon": 15.1074579, "tags": {"amenity": "restaurant", "name": "Pili Pili Resto"}}, {"type": "node", "id": 6123665935, "lat": 12.1230038, "lon": 15.050524, "tags": {"addr:building": "Immeuble BSIC", "addr:building:fr": "Immeuble BSIC", "addr:city": "N'Djam\u00e9na", "addr:city:ar": "\u0627\u0646\u062c\u0645\u064a\u0646\u0627", "addr:city:fr": "N'Djam\u00e9na", "addr:housename": "Immeuble BSIC", "addr:housename:fr": "Immeuble BSIC", "addr:housenumber": "immeuble BISIC", "addr:street": "Avenue Maldoum Bada", "addr:street:fr": "Avenue Maldoum Bada", "amenity": "restaurant", "name": "N'Djam\u00e9na Pr\u00eat-\u00e0-Manger", "name:fr": "N'Djam\u00e9na Pr\u00eat-\u00e0-Manger"}}, {"type": "node", "id": 7184360189, "lat": 12.096117, "lon": 15.0715446, "tags": {"amenity": "restaurant", "name": "Le Cocody"}}, {"type": "node", "id": 7572657196, "lat": 12.0890302, "lon": 15.1324535, "tags": {"amenity": "restaurant", "name": "Auberge Mamira"}}, {"type": "node", "id": 7730094085, "lat": 12.1252815, "lon": 15.0503625, "tags": {"addr:city": "\u0627\u0646\u062c\u0645\u064a\u0646\u0627", "addr:housenumber": "809", "addr:postcode": "0235", "addr:street": "\u0634\u0627\u0631\u0639 \u0627\u0644\u0646\u0645\u064a\u0631\u064a", "amenity": "restaurant", "name": "Zamzam \u0632\u0645\u0632\u0645", "name:ar": "\u0632\u0645\u0632\u0645", "name:de": "Zamzam", "name:es": "Zamzam", "name:fr": "Zamzam", "opening_hours": "24/7"}}, {"type": "node", "id": 8652966419, "lat": 12.0632174, "lon": 15.0716177, "tags": {"addr:street": "Digangali \u062f\u064a\u063a\u0646\u063a\u0627\u0644\u064a", "amenity": "restaurant", "internet_access": "wlan", "name": "Khassam"}}, {"type": "node", "id": 9214008517, "lat": 12.0860726, "lon": 15.1368815, "tags": {"amenity": "cafe", "name": "Auberge restaurant amr"}}, {"type": "node", "id": 9216428617, "lat": 12.1025782, "lon": 15.0532302, "tags": {"amenity": "restaurant", "name": "Resto camerounais Kabalaye"}}, {"type": "node", "id": 9235983417, "lat": 12.0942862, "lon": 15.0697979, "tags": {"amenity": "restaurant", "name": "La main s\u00fbre de Fanny"}}, {"type": "node", "id": 9548143917, "lat": 12.1277111, "lon": 15.0541151, "tags": {"amenity": "restaurant", "name": "Restaurant Centre du Nil", "name:fr": "Restaurant Centre du Nil"}}, {"type": "node", "id": 9601727917, "lat": 12.0918382, "lon": 15.0777833, "tags": {"amenity": "restaurant", "name": "Jardin B\u00e9ni"}}, {"type": "node", "id": 10232886260, "lat": 12.0954786, "lon": 15.0659769, "tags": {"amenity": "restaurant", "name": "Chez Awa"}}, {"type": "node", "id": 10296956410, "lat": 12.0944135, "lon": 15.081018, "tags": {"addr:street": "Avenue Kaltouma Nadjina", "amenity": "restaurant", "name": "D\u00e9lices d'Afrique"}}, {"type": "node", "id": 10690820207, "lat": 12.0920425, "lon": 15.0779476, "tags": {"amenity": "restaurant", "name": "Jardin B\u00e9ni sacr\u00e9 c\u0153ur"}}, {"type": "node", "id": 10709903205, "lat": 12.1283953, "lon": 15.0631977, "tags": {"amenity": "cafe", "name": "Hybah Coffee House"}}, {"type": "node", "id": 11395782083, "lat": 12.0907381, "lon": 15.121762, "tags": {"addr:city": "NDJAMENA", "addr:street": "7047", "amenity": "restaurant", "cuisine": "african;european;asian", "diet:chicken": "yes", "diet:fish": "yes", "diet:halal": "yes", "diet:healthy": "yes", "diet:local": "yes", "diet:meat": "yes", "name": "Kings' & Queens' Restaurant", "opening_hours": "08:00-22:00", "phone": "+23566174372"}}, {"type": "node", "id": 11610245878, "lat": 12.1054285, "lon": 15.1271852, "tags": {"amenity": "cafe", "name": "Caf\u00e9 Nesta"}}, {"type": "node", "id": 11623209071, "lat": 12.1053935, "lon": 15.1253217, "tags": {"amenity": "cafe", "name": "Caf\u00e9 Lapia", "opening_hours": "24/7"}}, {"type": "way", "id": 197729960, "nodes": [2079390747, 2079390756, 2079390757, 2079390748, 2571239211, 2571239212, 2079390747], "tags": {"amenity": "restaurant", "building": "yes", "source": "bing"}}, {"type": "way", "id": 205608858, "nodes": [2155811647, 2155811646, 2155811644, 2155811645, 2155811647], "tags": {"amenity": "restaurant", "building": "yes", "cuisine": "Brochettes", "name": "Espoir", "project:eurosha_2012": "yes", "source": "Bing", "source:date": "2011-01-11"}}, {"type": "way", "id": 279700355, "nodes": [2839055226, 1304125815, 2839055221, 2839055272]}, {"type": "way", "id": 279700359, "nodes": [2839055272, 2839055273, 2839054400, 2839055223, 2839055226]}, {"type": "way", "id": 279945043, "nodes": [2841260913, 2841260914, 2841260915, 2841260916, 2841260913], "tags": {"amenity": "restaurant", "cuisine": "ivorian", "name": "l'Abidjeanaise"}}, {"type": "way", "id": 279945044, "nodes": [2841260917, 2841260918, 2841260919, 2841260920, 2841260917], "tags": {"amenity": "restaurant", "building": "yes", "cuisine": "poisson_brais\u00e9"}}, {"type": "way", "id": 301752458, "nodes": [3058725200, 3058725201, 3058725202, 3058725203, 3058725200], "tags": {"amenity": "restaurant", "building": "yes", "name": "Pogo Village"}}, {"type": "way", "id": 502722860, "nodes": [4931068517, 4931068516, 4931068515, 4931068514, 4931068517], "tags": {"addr:city": "\u0627\u0646\u062c\u0645\u064a\u0646\u0627", "addr:city:ar": "\u0627\u0646\u062c\u0645\u064a\u0646\u0627", "addr:street": "\u0634\u0627\u0631\u0639 \u062c\u0628\u0631\u064a\u0646 \u062e\u064a\u0631 \u0627\u0644\u0644\u0647", "addr:street:ar": "\u0634\u0627\u0631\u0639 \u062c\u0628\u0631\u064a\u0646 \u062e\u064a\u0631 \u0627\u0644\u0644\u0647", "amenity": "restaurant", "language:ar": "main", "name": "\u0627\u0644\u062f\u062c\u0627\u062c \u0648\u0627\u0644\u0633\u0645\u0643", "name:ar": "\u0627\u0644\u062f\u062c\u0627\u062c \u0648\u0627\u0644\u0633\u0645\u0643", "name:fr": "Poulet wa Poisson"}}, {"type": "relation", "id": 3720133, "members": [{"type": "way", "ref": 279700355, "role": "outer"}, {"type": "way", "ref": 279700359, "role": "outer"}], "tags": {"amenity": "restaurant", "building": "yes", "type": "multipolygon"}}]}