{"version": 0.6, "generator": "Overpass API 0.7.62.7 375dc00a", "osm3s": {"timestamp_osm_base": "2025-06-14T14:53:30Z", "copyright": "The data included in this document is from www.openstreetmap.org. The data is made available under ODbL."}, "elements": [{"type": "node", "id": 277408116, "lat": 35.4747862, "lon": 27.190575, "tags": {"amenity": "restaurant", "cuisine": "regional", "name": "Esperida"}}, {"type": "node", "id": 277419065, "lat": 35.5602279, "lon": 27.1044762, "tags": {"amenity": "restaurant", "name": "Pine trees"}}, {"type": "node", "id": 277495343, "lat": 35.5079438, "lon": 27.2136012, "tags": {"amenity": "cafe", "name": "Anoi"}}, {"type": "node", "id": 1181252644, "lat": 35.7417034, "lon": 27.1718699, "tags": {"amenity": "restaurant", "man_made": "windmill", "name": "O Milos", "operator": "Sofia", "phone": "+302245051333"}}, {"type": "node", "id": 1181252773, "lat": 35.4744779, "lon": 27.1905969, "tags": {"amenity": "restaurant", "cuisine": "greek", "name": "4seasons"}}, {"type": "node", "id": 1709725376, "lat": 35.4924064, "lon": 27.1169061, "tags": {"amenity": "restaurant", "cuisine": "greek", "name": "Finiki View Restaurant"}}, {"type": "node", "id": 1974266322, "lat": 35.5432145, "lon": 27.1508347, "tags": {"amenity": "restaurant", "name": "Othitiko", "operational_status": "closed"}}, {"type": "node", "id": 1974266331, "lat": 35.5432722, "lon": 27.1507553, "tags": {"amenity": "restaurant", "name": "Mezzaria"}}, {"type": "node", "id": 1975683858, "lat": 35.5081315, "lon": 27.2064012, "tags": {"amenity": "restaurant", "name": "Kali Kardia"}}, {"type": "node", "id": 1975683866, "lat": 35.5075895, "lon": 27.2101975, "tags": {"amenity": "restaurant", "name": "Esperides"}}, {"type": "node", "id": 1975683869, "lat": 35.5078037, "lon": 27.2103961, "tags": {"amenity": "cafe", "name": "Riviera"}}, {"type": "node", "id": 1975683870, "lat": 35.5079043, "lon": 27.2091987, "tags": {"amenity": "cafe", "name": "Lotus"}}, {"type": "node", "id": 1975683892, "lat": 35.5097639, "lon": 27.2038883, "tags": {"amenity": "restaurant", "name": "El Greco"}}, {"type": "node", "id": 1975683898, "lat": 35.5101298, "lon": 27.2037569, "tags": {"amenity": "restaurant", "name": "Odysseia"}}, {"type": "node", "id": 1975683903, "lat": 35.5102959, "lon": 27.2036763, "tags": {"amenity": "restaurant", "name": "Nisiotiko"}}, {"type": "node", "id": 1975683906, "lat": 35.5104882, "lon": 27.2035475, "tags": {"amenity": "restaurant", "name": "Capari"}}, {"type": "node", "id": 1975683912, "lat": 35.5118686, "lon": 27.2025943, "tags": {"amenity": "restaurant", "name": "Mediterranean House"}}, {"type": "node", "id": 1975684013, "lat": 35.5078283, "lon": 27.2127413, "tags": {"amenity": "restaurant", "name": "La Mirage"}}, {"type": "node", "id": 1975684016, "lat": 35.5078283, "lon": 27.212854, "tags": {"amenity": "restaurant", "name": "Sofia's Place"}}, {"type": "node", "id": 1975684023, "lat": 35.5083528, "lon": 27.2124352, "tags": {"amenity": "restaurant", "name": "Ciao"}}, {"type": "node", "id": 1975684027, "lat": 35.5082654, "lon": 27.2124513, "tags": {"addr:city": "\u039a\u03ac\u03c1\u03c0\u03b1\u03b8\u03bf\u03c2", "addr:postcode": "85700", "amenity": "restaurant", "name": "Odyssey", "outdoor_seating": "yes"}}, {"type": "node", "id": 1975684032, "lat": 35.5079376, "lon": 27.2126553, "tags": {"addr:city": "\u039a\u03ac\u03c1\u03c0\u03b1\u03b8\u03bf\u03c2", "addr:postcode": "85700", "amenity": "restaurant", "cuisine": "regional", "name": "Mesogeios", "outdoor_seating": "yes"}}, {"type": "node", "id": 1975684037, "lat": 35.5080031, "lon": 27.2125855, "tags": {"amenity": "restaurant", "internet_access": "wlan", "internet_access:fee": "no", "name": "Uno"}}, {"type": "node", "id": 1975684040, "lat": 35.50905, "lon": 27.215877, "tags": {"amenity": "restaurant", "name": "I Orea Karpathos"}}, {"type": "node", "id": 1975684164, "lat": 35.5091811, "lon": 27.2158395, "tags": {"amenity": "restaurant", "cuisine": "pizza", "name": "Ciao"}}, {"type": "node", "id": 1975684167, "lat": 35.5092729, "lon": 27.2157965, "tags": {"amenity": "restaurant", "name": "To Kyma"}}, {"type": "node", "id": 1975684170, "lat": 35.5089669, "lon": 27.215877, "tags": {"amenity": "cafe", "name": "Mouragio"}}, {"type": "node", "id": 1975684174, "lat": 35.5080359, "lon": 27.214787, "tags": {"amenity": "restaurant", "name": "GrandE"}}, {"type": "node", "id": 1975684178, "lat": 35.5081309, "lon": 27.2152045, "tags": {"amenity": "restaurant", "cuisine": "brunch;diner", "diet:vegetarian": "yes", "internet_access": "wlan", "internet_access:fee": "no", "name": "Nuevo All Day Restaurant", "opening_hours": "Mo-Su 08:00-23:00", "outdoor_seating": "yes", "website": "https://www.nuevokarpathos.com"}}, {"type": "node", "id": 1975684300, "lat": 35.5080589, "lon": 27.2146649, "tags": {"amenity": "cafe", "name": "En Plo"}}, {"type": "node", "id": 1975684600, "lat": 35.508008, "lon": 27.2137096, "tags": {"amenity": "restaurant", "cuisine": "greek", "email": "thelifeofangels@gmail.com", "name": "I Zoi ton Angelon", "name:en": "The Life of Angels", "phone": "+30 2245 022984"}}, {"type": "node", "id": 1975684625, "lat": 35.5078272, "lon": 27.2130057, "tags": {"amenity": "restaurant", "name": "Anemoussa"}}, {"type": "node", "id": 1975684627, "lat": 35.5080589, "lon": 27.2145468, "tags": {"amenity": "restaurant", "name": "Maxim"}}, {"type": "node", "id": 2472324269, "lat": 35.7745164, "lon": 27.1802247, "tags": {"amenity": "restaurant", "cuisine": "regional", "name": "Taverna Avlona"}}, {"type": "node", "id": 3396610537, "lat": 35.5873456, "lon": 27.0683223, "tags": {"amenity": "restaurant", "name": "Taverna Ammos", "source": "local knowledge"}}, {"type": "node", "id": 3583862298, "lat": 35.4746072, "lon": 27.1923596, "tags": {"amenity": "restaurant", "cuisine": "greek", "email": "idealbbq_restaurant@yahoo.com", "name": "Ideal Barbeque", "phone": "6988 414 170"}}, {"type": "node", "id": 3719296237, "lat": 35.5085342, "lon": 27.2159289, "tags": {"addr:city": "Karpathos", "addr:postcode": "85700", "addr:street": "\u0391\u03c0\u03bf\u03b4\u03ae\u03bc\u03c9\u03bd \u039a\u03b1\u03c1\u03c0\u03b1\u03b8\u03af\u03c9\u03bd", "amenity": "cafe", "cuisine": "italian", "internet_access": "wlan", "name": "Cafe Karpathos - Angolo Italiano", "smoking": "outside"}}, {"type": "node", "id": 3744415008, "lat": 35.5975828, "lon": 27.086518}, {"type": "node", "id": 3744415010, "lat": 35.5975663, "lon": 27.0865978}, {"type": "node", "id": 3744415011, "lat": 35.5976388, "lon": 27.0866205}, {"type": "node", "id": 3744415012, "lat": 35.5976553, "lon": 27.0865407}, {"type": "node", "id": 3744502762, "lat": 35.5850571, "lon": 27.0766379}, {"type": "node", "id": 3744502763, "lat": 35.5850706, "lon": 27.0767609}, {"type": "node", "id": 3744502764, "lat": 35.5850168, "lon": 27.0767219}, {"type": "node", "id": 3744502765, "lat": 35.5851109, "lon": 27.076677}, {"type": "node", "id": 3750759866, "lat": 35.5823771, "lon": 27.0794111, "tags": {"amenity": "restaurant", "name": "Potali Bay Restaurant"}}, {"type": "node", "id": 3785979514, "lat": 35.4793807, "lon": 27.1182476}, {"type": "node", "id": 3785979515, "lat": 35.4793345, "lon": 27.1181321}, {"type": "node", "id": 3785979516, "lat": 35.4791976, "lon": 27.1182146}, {"type": "node", "id": 3785979517, "lat": 35.4792438, "lon": 27.1183301}, {"type": "node", "id": 3785990547, "lat": 35.4780389, "lon": 27.1199468}, {"type": "node", "id": 3785990548, "lat": 35.4780304, "lon": 27.1200498}, {"type": "node", "id": 3785990549, "lat": 35.4779321, "lon": 27.1200376}, {"type": "node", "id": 3785990550, "lat": 35.4779352, "lon": 27.1200002}, {"type": "node", "id": 3785990551, "lat": 35.4779793, "lon": 27.1200057}, {"type": "node", "id": 3785990552, "lat": 35.4779847, "lon": 27.11994}, {"type": "node", "id": 3785990553, "lat": 35.4779117, "lon": 27.1199256}, {"type": "node", "id": 3785990554, "lat": 35.4779062, "lon": 27.1200217}, {"type": "node", "id": 3785990555, "lat": 35.4778162, "lon": 27.1200119}, {"type": "node", "id": 3785990556, "lat": 35.47782, "lon": 27.1199177}, {"type": "node", "id": 3785992646, "lat": 35.4785099, "lon": 27.1199509}, {"type": "node", "id": 3785992647, "lat": 35.4784322, "lon": 27.1199123}, {"type": "node", "id": 3785992648, "lat": 35.4783972, "lon": 27.1200186}, {"type": "node", "id": 3785992649, "lat": 35.4784749, "lon": 27.1200572}, {"type": "node", "id": 3785995357, "lat": 35.4782347, "lon": 27.1200532}, {"type": "node", "id": 3785995358, "lat": 35.4781378, "lon": 27.1200508}, {"type": "node", "id": 3785995359, "lat": 35.4781381, "lon": 27.120033}, {"type": "node", "id": 3785995360, "lat": 35.4780902, "lon": 27.1200318}, {"type": "node", "id": 3785995361, "lat": 35.4780912, "lon": 27.1199715}, {"type": "node", "id": 3785995362, "lat": 35.4781624, "lon": 27.1199733}, {"type": "node", "id": 3785995363, "lat": 35.4781618, "lon": 27.1200052}, {"type": "node", "id": 3785995364, "lat": 35.4781963, "lon": 27.1200061}, {"type": "node", "id": 3785995365, "lat": 35.4781967, "lon": 27.1199836}, {"type": "node", "id": 3785995366, "lat": 35.4782356, "lon": 27.1199995}, {"type": "node", "id": 3786062586, "lat": 35.477757, "lon": 27.1201264}, {"type": "node", "id": 3786062587, "lat": 35.4777497, "lon": 27.1201814}, {"type": "node", "id": 3786062588, "lat": 35.4777629, "lon": 27.1201841}, {"type": "node", "id": 3786062589, "lat": 35.4777615, "lon": 27.1201949}, {"type": "node", "id": 3786062590, "lat": 35.4777516, "lon": 27.120193}, {"type": "node", "id": 3786062591, "lat": 35.4777496, "lon": 27.1202074}, {"type": "node", "id": 3786062592, "lat": 35.4778069, "lon": 27.1202189}, {"type": "node", "id": 3786062593, "lat": 35.4778119, "lon": 27.1201814}, {"type": "node", "id": 3786062594, "lat": 35.4777779, "lon": 27.1201306}, {"type": "node", "id": 3786064033, "lat": 35.4777325, "lon": 27.1199845}, {"type": "node", "id": 3786064034, "lat": 35.4777217, "lon": 27.1200694}, {"type": "node", "id": 3786064035, "lat": 35.4777721, "lon": 27.120088}, {"type": "node", "id": 3786064036, "lat": 35.4777829, "lon": 27.1199969}, {"type": "node", "id": 3786064037, "lat": 35.4777783, "lon": 27.1200359}, {"type": "node", "id": 3786064040, "lat": 35.4778219, "lon": 27.1200144}, {"type": "node", "id": 3788016283, "lat": 35.477818, "lon": 27.1199667}, {"type": "node", "id": 3788868588, "lat": 35.4764262, "lon": 27.118626}, {"type": "node", "id": 3788868589, "lat": 35.4763694, "lon": 27.1185283}, {"type": "node", "id": 3788868590, "lat": 35.4763221, "lon": 27.1185698}, {"type": "node", "id": 3788868591, "lat": 35.4763789, "lon": 27.1186675}, {"type": "node", "id": 3789298195, "lat": 35.4756751, "lon": 27.1180325}, {"type": "node", "id": 3789298196, "lat": 35.4756931, "lon": 27.1180016}, {"type": "node", "id": 3789298197, "lat": 35.4756252, "lon": 27.117942}, {"type": "node", "id": 3789298198, "lat": 35.4755995, "lon": 27.1179862}, {"type": "node", "id": 3789298199, "lat": 35.475625, "lon": 27.1180086}, {"type": "node", "id": 3789298200, "lat": 35.4755891, "lon": 27.1180702}, {"type": "node", "id": 3789298201, "lat": 35.4756173, "lon": 27.1180949}, {"type": "node", "id": 3789298202, "lat": 35.4755887, "lon": 27.118144}, {"type": "node", "id": 3789298203, "lat": 35.4756461, "lon": 27.1181944}, {"type": "node", "id": 3789298204, "lat": 35.4757183, "lon": 27.1180704}, {"type": "node", "id": 3789369895, "lat": 35.4741003, "lon": 27.1124201}, {"type": "node", "id": 3789369902, "lat": 35.4741197, "lon": 27.1125106}, {"type": "node", "id": 3789375947, "lat": 35.4740594, "lon": 27.1125301}, {"type": "node", "id": 3789375948, "lat": 35.4740521, "lon": 27.112496}, {"type": "node", "id": 3789375949, "lat": 35.4740382, "lon": 27.1124314}, {"type": "node", "id": 3789375950, "lat": 35.4740985, "lon": 27.1124119}, {"type": "node", "id": 3994433675, "lat": 35.5865387, "lon": 27.0683875, "tags": {"addr:street": "Lefkos", "amenity": "restaurant", "name": "Captains Home", "operator": "Maria Kostantinos Litas", "phone": "+302245071109"}}, {"type": "node", "id": 3994443160, "lat": 35.5875253, "lon": 27.0688766, "tags": {"amenity": "restaurant", "name": "Blue Sea"}}, {"type": "node", "id": 3994443173, "lat": 35.5883149, "lon": 27.0695847, "tags": {"amenity": "restaurant", "name": "The Three Dolphins", "tourism": "apartment"}}, {"type": "node", "id": 3994750856, "lat": 35.5853608, "lon": 27.0721897}, {"type": "node", "id": 3994762257, "lat": 35.5854162, "lon": 27.0723835}, {"type": "node", "id": 3994762280, "lat": 35.5853425, "lon": 27.0724224}, {"type": "node", "id": 3994762281, "lat": 35.5852606, "lon": 27.07234}, {"type": "node", "id": 3994762286, "lat": 35.5853876, "lon": 27.0723547}, {"type": "node", "id": 3994762303, "lat": 35.5854712, "lon": 27.072301}, {"type": "node", "id": 3994774270, "lat": 35.5876325, "lon": 27.0690992, "tags": {"amenity": "cafe", "name": "White Lefkos"}}, {"type": "node", "id": 3994774284, "lat": 35.5868647, "lon": 27.0683937, "tags": {"amenity": "restaurant", "name": "Dramoyntana"}}, {"type": "node", "id": 3995610356, "lat": 35.5797414, "lon": 27.139509}, {"type": "node", "id": 3995610858, "lat": 35.5798117, "lon": 27.1394905}, {"type": "node", "id": 3995610859, "lat": 35.5798006, "lon": 27.1393164}, {"type": "node", "id": 3995610861, "lat": 35.5798207, "lon": 27.1394315}, {"type": "node", "id": 3995610864, "lat": 35.5796398, "lon": 27.1393268}, {"type": "node", "id": 4003147320, "lat": 35.587574, "lon": 27.0710209}, {"type": "node", "id": 4003147332, "lat": 35.5876302, "lon": 27.0709302}, {"type": "node", "id": 4003147334, "lat": 35.5876602, "lon": 27.0707789}, {"type": "node", "id": 4003147336, "lat": 35.5876249, "lon": 27.0710687}, {"type": "node", "id": 4003147346, "lat": 35.5877515, "lon": 27.0708644}, {"type": "node", "id": 4003147353, "lat": 35.5875899, "lon": 27.0708925}, {"type": "node", "id": 4003217804, "lat": 35.5894087, "lon": 27.0691769, "tags": {"amenity": "restaurant", "name": "Golden Sand"}}, {"type": "node", "id": 4240943697, "lat": 35.5112194, "lon": 27.2023305, "tags": {"amenity": "cafe", "name": "Aeolos"}}, {"type": "node", "id": 4346653098, "lat": 35.4723157, "lon": 27.1940225, "tags": {"amenity": "restaurant", "name": "Capannina Caf\u00e8", "operator": "Federico", "phone": "+302245081163"}}, {"type": "node", "id": 4346653990, "lat": 35.7402958, "lon": 27.1733782, "tags": {"addr:housenumber": "85700", "addr:street": "\u00d3lymbos - Proph\u00edtis Il\u00edas - \u00d3lymbos", "amenity": "restaurant", "name": "Blue Garden", "name:it": "Blue Garden", "operator": "Nikolas", "phone": "+302245051101"}}, {"type": "node", "id": 4353485490, "lat": 35.4877191, "lon": 27.1814961, "tags": {"amenity": "restaurant", "name": "Ex ristorante"}}, {"type": "node", "id": 4428825888, "lat": 35.4704473, "lon": 27.1932602, "tags": {"amenity": "restaurant", "name": "Castellia bay"}}, {"type": "node", "id": 4428847472, "lat": 35.4793533, "lon": 27.1978295}, {"type": "node", "id": 4428847473, "lat": 35.4793103, "lon": 27.1978011}, {"type": "node", "id": 4428847474, "lat": 35.4794261, "lon": 27.1975592}, {"type": "node", "id": 4428847475, "lat": 35.4793632, "lon": 27.1974148}, {"type": "node", "id": 4428847476, "lat": 35.4794543, "lon": 27.1973254}, {"type": "node", "id": 4428847477, "lat": 35.4795403, "lon": 27.1974779}, {"type": "node", "id": 4428847478, "lat": 35.4794741, "lon": 27.1975592}, {"type": "node", "id": 4428856070, "lat": 35.4759025, "lon": 27.1966965}, {"type": "node", "id": 4428856071, "lat": 35.4758825, "lon": 27.1967396}, {"type": "node", "id": 4428856072, "lat": 35.4758448, "lon": 27.196752}, {"type": "node", "id": 4428856073, "lat": 35.4757946, "lon": 27.1967427}, {"type": "node", "id": 4428856074, "lat": 35.4757495, "lon": 27.1966749}, {"type": "node", "id": 4428856075, "lat": 35.4757219, "lon": 27.1966102}, {"type": "node", "id": 4428856076, "lat": 35.4757419, "lon": 27.1965579}, {"type": "node", "id": 4428856077, "lat": 35.4758498, "lon": 27.1964654}, {"type": "node", "id": 4428856078, "lat": 35.4759427, "lon": 27.1965918}, {"type": "node", "id": 4428856615, "lat": 35.4755713, "lon": 27.1964377}, {"type": "node", "id": 4428856616, "lat": 35.4754735, "lon": 27.1963299}, {"type": "node", "id": 4428856617, "lat": 35.4755312, "lon": 27.1962528}, {"type": "node", "id": 4428856618, "lat": 35.4755061, "lon": 27.196222}, {"type": "node", "id": 4428856619, "lat": 35.4755939, "lon": 27.1961204}, {"type": "node", "id": 4428856620, "lat": 35.4756968, "lon": 27.1962713}, {"type": "node", "id": 4428856621, "lat": 35.4755331, "lon": 27.1961908}, {"type": "node", "id": 4428856626, "lat": 35.4755629, "lon": 27.1961562}, {"type": "node", "id": 4428861334, "lat": 35.475839, "lon": 27.1974587}, {"type": "node", "id": 4428861335, "lat": 35.4759018, "lon": 27.1974377}, {"type": "node", "id": 4428861336, "lat": 35.4759151, "lon": 27.1973956}, {"type": "node", "id": 4428861337, "lat": 35.4758733, "lon": 27.1972649}, {"type": "node", "id": 4428861338, "lat": 35.4758466, "lon": 27.1972766}, {"type": "node", "id": 4428861339, "lat": 35.4758581, "lon": 27.1973349}, {"type": "node", "id": 4428861340, "lat": 35.4758276, "lon": 27.197433}, {"type": "node", "id": 5450713875, "lat": 35.7392292, "lon": 27.1741535}, {"type": "node", "id": 5450713876, "lat": 35.7392569, "lon": 27.1741243}, {"type": "node", "id": 5450713877, "lat": 35.7392723, "lon": 27.1742157}, {"type": "node", "id": 5450713880, "lat": 35.7393001, "lon": 27.1741865}, {"type": "node", "id": 5450714131, "lat": 35.7388771, "lon": 27.1746845}, {"type": "node", "id": 5450714132, "lat": 35.7389072, "lon": 27.174764}, {"type": "node", "id": 5450714133, "lat": 35.7390479, "lon": 27.1746831}, {"type": "node", "id": 5450714134, "lat": 35.7390178, "lon": 27.1746036}, {"type": "node", "id": 5696490914, "lat": 35.5079355, "lon": 27.2133132, "tags": {"amenity": "restaurant", "internet_access": "wlan", "internet_access:fee": "no", "name": "Menis", "outdoor_seating": "yes"}}, {"type": "node", "id": 5696492916, "lat": 35.5120933, "lon": 27.2028042, "tags": {"amenity": "restaurant", "name": "sardeles.bbq", "outdoor_seating": "yes"}}, {"type": "node", "id": 5696493134, "lat": 35.5147198, "lon": 27.2005754}, {"type": "node", "id": 5696493135, "lat": 35.5146617, "lon": 27.2003892}, {"type": "node", "id": 5696493136, "lat": 35.5146265, "lon": 27.2006193}, {"type": "node", "id": 5696493137, "lat": 35.5145684, "lon": 27.2004331}, {"type": "node", "id": 5707743511, "lat": 35.5853647, "lon": 27.0723095, "tags": {"amenity": "restaurant", "name": "Krinos Restaurant", "opening_hours": "Mo-Su 18:00-22:00"}}, {"type": "node", "id": 5758390231, "lat": 35.5867276, "lon": 27.1767463}, {"type": "node", "id": 5758390232, "lat": 35.5867058, "lon": 27.1767906}, {"type": "node", "id": 5758390233, "lat": 35.5866883, "lon": 27.1767745}, {"type": "node", "id": 5758390234, "lat": 35.5865989, "lon": 27.1768724}, {"type": "node", "id": 5758390235, "lat": 35.5865335, "lon": 27.1768134}, {"type": "node", "id": 5758390236, "lat": 35.5866807, "lon": 27.1767101}, {"type": "node", "id": 5838019672, "lat": 35.7417588, "lon": 27.1719012, "tags": {"amenity": "restaurant", "cuisine": "greek", "name": "O M\u00edlos"}}, {"type": "node", "id": 5838019673, "lat": 35.7407313, "lon": 27.1728466, "tags": {"amenity": "restaurant", "cuisine": "greek", "name": "O Z\u00e9firos"}}, {"type": "node", "id": 5838019908, "lat": 35.7407846, "lon": 27.1729419, "tags": {"amenity": "restaurant", "cuisine": "greek", "name": "Blue Garden"}}, {"type": "node", "id": 5838019909, "lat": 35.74047, "lon": 27.1731953, "tags": {"amenity": "cafe", "name": "\u0399 \u039a\u03c1\u03ae\u03c4\u03b7", "name:el": "\u0399 \u039a\u03c1\u03ae\u03c4\u03b7", "name:en": "I Kriti"}}, {"type": "node", "id": 5838019910, "lat": 35.7406279, "lon": 27.1731028, "tags": {"amenity": "cafe", "name": "\u03a4\u03c3\u03b1\u03bc\u03c0\u03bf\u03cd\u03bd\u03b1s", "name:el": "\u03a4\u03c3\u03b1\u03bc\u03c0\u03bf\u03cd\u03bd\u03b1s", "name:en": "Tsambounas"}}, {"type": "node", "id": 5838019911, "lat": 35.7407345, "lon": 27.1731189, "tags": {"amenity": "cafe", "name": "\u03a0\u03b1\u03c1\u03b8\u03b5\u03bd\u03ce\u03bd", "name:el": "\u03a0\u03b1\u03c1\u03b8\u03b5\u03bd\u03ce\u03bd", "name:en": "Parthenon"}}, {"type": "node", "id": 5838019912, "lat": 35.7404249, "lon": 27.1733341, "tags": {"amenity": "restaurant", "cuisine": "greek", "name": "Ed\u00e9m"}}, {"type": "node", "id": 5838019916, "lat": 35.7395687, "lon": 27.1738813, "tags": {"amenity": "restaurant", "cuisine": "greek", "name": "\u00d3lymbos"}}, {"type": "node", "id": 5838019923, "lat": 35.7388541, "lon": 27.1749931, "tags": {"amenity": "restaurant", "cuisine": "greek", "name": "Mike's Restaurant"}}, {"type": "node", "id": 5838215222, "lat": 35.7392149, "lon": 27.1746846, "tags": {"amenity": "restaurant", "cuisine": "greek", "name": "To P\u00f3sto"}}, {"type": "node", "id": 6266262722, "lat": 35.5080685, "lon": 27.2125074, "tags": {"addr:city": "\u039a\u03ac\u03c1\u03c0\u03b1\u03b8\u03bf\u03c2", "addr:postcode": "85700", "amenity": "cafe", "cuisine": "coffee_shop;sandwich;ice_cream", "name": "Porto Paradiso", "outdoor_seating": "yes"}}, {"type": "node", "id": 6489238699, "lat": 35.7558805, "lon": 27.2099875, "tags": {"amenity": "restaurant", "internet_access": "wlan", "name": "Chrissi Akti", "name:en": "Restaurant Chrissi Akti Cafe Bar Orfanos Vasilis"}}, {"type": "node", "id": 6489261436, "lat": 35.7548653, "lon": 27.2090463, "tags": {"amenity": "restaurant", "internet_access": "wlan", "name:en": "The Dolphins restaurant bar"}}, {"type": "node", "id": 6602149785, "lat": 35.5082603, "lon": 27.2154247, "tags": {"amenity": "restaurant", "cuisine": "ice_cream", "name": "Yogeat"}}, {"type": "node", "id": 6634125885, "lat": 35.5082367, "lon": 27.2154831, "tags": {"amenity": "restaurant", "cuisine": "ice_cream", "name": "yogeat"}}, {"type": "node", "id": 7467727447, "lat": 35.6039132, "lon": 27.1573226}, {"type": "node", "id": 7467727450, "lat": 35.6039738, "lon": 27.1570887}, {"type": "node", "id": 7467727452, "lat": 35.6040418, "lon": 27.1572266}, {"type": "node", "id": 7467727455, "lat": 35.6038451, "lon": 27.1571847}, {"type": "node", "id": 7801224386, "lat": 35.5073051, "lon": 27.21534, "tags": {"addr:street": "28. \u039f\u03ba\u03c4\u03ce\u03b2\u03c1\u03b9\u03bf\u03c5", "amenity": "restaurant", "cuisine": "greek;kebab", "internet_access": "wlan", "name": "\u03a3\u03c1\u03b1\u03c3\u03bc\u03b9\u03b1\u03c3", "name:el": "\u03a3\u03c1\u03b1\u03c3\u03bc\u03b9\u03b1\u03c3", "name:en": "Erasmias", "phone": "+30 2245 022648", "toilets": "yes"}}, {"type": "node", "id": 8932192864, "lat": 35.471716, "lon": 27.1916323, "tags": {"amenity": "restaurant", "name": "Nina"}}, {"type": "node", "id": 8962008617, "lat": 35.6901634, "lon": 27.1892957, "tags": {"amenity": "restaurant", "name:it": "Taverna Sotiris"}}, {"type": "node", "id": 8962008618, "lat": 35.690257, "lon": 27.189635, "tags": {"amenity": "restaurant", "name:it": "Taverna Anemos"}}, {"type": "node", "id": 10013677594, "lat": 35.5075534, "lon": 27.2148957, "tags": {"amenity": "restaurant", "contact:facebook": "https://www.facebook.com/MikesRestaurantKarpathos", "name": "Mike's Restaurant"}}, {"type": "node", "id": 10049605517, "lat": 35.5075105, "lon": 27.2149041, "tags": {"amenity": "restaurant", "name:en": "Mikes"}}, {"type": "node", "id": 10051686817, "lat": 35.5082348, "lon": 27.2157772, "tags": {"amenity": "restaurant", "cuisine": "greek;regional", "name": "\u03a4\u03bf \u0395\u03bb\u03bb\u03b7\u03bd\u03b9\u03ba\u03cc\u03bd", "name:el": "\u03a4\u03bf \u0395\u03bb\u03bb\u03b7\u03bd\u03b9\u03ba\u03cc\u03bd", "name:en": "Ellinikon"}}, {"type": "node", "id": 10051686818, "lat": 35.5091052, "lon": 27.2069662, "tags": {"amenity": "cafe", "name:en": "Sea side lunch bar"}}, {"type": "node", "id": 10052754718, "lat": 35.507049, "lon": 27.2108156, "tags": {"amenity": "cafe", "name:en": "Asteri vac\u00e9"}}, {"type": "node", "id": 10138303853, "lat": 35.4922179, "lon": 27.116719}, {"type": "node", "id": 10138303854, "lat": 35.4921514, "lon": 27.1167502}, {"type": "node", "id": 10138303855, "lat": 35.4921687, "lon": 27.1168056}, {"type": "node", "id": 10138303856, "lat": 35.4922352, "lon": 27.1167743}, {"type": "node", "id": 10144335430, "lat": 35.5980528, "lon": 27.0946724}, {"type": "node", "id": 10144335431, "lat": 35.5980429, "lon": 27.0947125}, {"type": "node", "id": 10144335432, "lat": 35.5980617, "lon": 27.0947306}, {"type": "node", "id": 10144335433, "lat": 35.5980418, "lon": 27.0948113}, {"type": "node", "id": 10144335434, "lat": 35.5979244, "lon": 27.0947676}, {"type": "node", "id": 10144335435, "lat": 35.5979458, "lon": 27.0946808}, {"type": "node", "id": 10144335436, "lat": 35.5979861, "lon": 27.0946959}, {"type": "node", "id": 10144335437, "lat": 35.597997, "lon": 27.0946516}, {"type": "node", "id": 10144651290, "lat": 35.5876189, "lon": 27.0711197}, {"type": "node", "id": 10144651291, "lat": 35.5875531, "lon": 27.071223}, {"type": "node", "id": 10144651292, "lat": 35.5875013, "lon": 27.0711731}, {"type": "node", "id": 10144651293, "lat": 35.5875671, "lon": 27.0710699}, {"type": "node", "id": 10165829688, "lat": 35.6380806, "lon": 27.14189, "tags": {"amenity": "restaurant", "contact:phone": "+30 22450 71341", "name": "Taverna Folia"}}, {"type": "node", "id": 10169019610, "lat": 35.7550101, "lon": 27.2104035}, {"type": "node", "id": 10169019611, "lat": 35.7550385, "lon": 27.2105305}, {"type": "node", "id": 10169019612, "lat": 35.7549425, "lon": 27.2105631}, {"type": "node", "id": 10169019613, "lat": 35.7549142, "lon": 27.210436}, {"type": "node", "id": 10169019614, "lat": 35.7549754, "lon": 27.210647}, {"type": "node", "id": 10169019615, "lat": 35.7548292, "lon": 27.2107031}, {"type": "node", "id": 10169019616, "lat": 35.7548045, "lon": 27.2106052}, {"type": "node", "id": 10169059117, "lat": 35.7548498, "lon": 27.2105878}, {"type": "node", "id": 10169059118, "lat": 35.7548573, "lon": 27.2106174}, {"type": "node", "id": 10169059119, "lat": 35.7549206, "lon": 27.2105931}, {"type": "node", "id": 10169059120, "lat": 35.7549232, "lon": 27.2106032}, {"type": "node", "id": 10169059121, "lat": 35.7549607, "lon": 27.2105888}, {"type": "node", "id": 10724471395, "lat": 35.4766028, "lon": 27.1966197, "tags": {"amenity": "restaurant"}}, {"type": "node", "id": 10724471396, "lat": 35.4761983, "lon": 27.1963289}, {"type": "node", "id": 10724471397, "lat": 35.4763372, "lon": 27.1963745}, {"type": "node", "id": 10724471398, "lat": 35.4763726, "lon": 27.1962118}, {"type": "node", "id": 10724471399, "lat": 35.4763306, "lon": 27.1961981}, {"type": "node", "id": 10724471400, "lat": 35.4763457, "lon": 27.1961286}, {"type": "node", "id": 10724471401, "lat": 35.4762488, "lon": 27.1960968}, {"type": "node", "id": 10741253887, "lat": 35.4910075, "lon": 27.1688333, "tags": {"amenity": "restaurant", "name": "Taverna Perdika"}}, {"type": "node", "id": 11092991348, "lat": 35.476881, "lon": 27.1194817, "tags": {"amenity": "restaurant", "name": "Mezze"}}, {"type": "node", "id": 11092991352, "lat": 35.4769305, "lon": 27.1196524, "tags": {"amenity": "restaurant", "name": "Taverna Steki o Eylogimenos"}}, {"type": "node", "id": 11092991354, "lat": 35.478133, "lon": 27.1201616, "tags": {"amenity": "cafe", "name": "\u039a\u03b1\u03c6\u03b5\u03bd\u03b5\u03b9\u03bf \u0397 \u03a3\u03c5\u03bd\u03b1\u03bd\u03c4\u03b7\u03c3\u03b7"}}, {"type": "node", "id": 11092991355, "lat": 35.4777544, "lon": 27.1201694, "tags": {"amenity": "restaurant", "name": "To Steki tou Markou"}}, {"type": "node", "id": 11104781662, "lat": 35.756167, "lon": 27.2098919, "tags": {"amenity": "restaurant", "name": "Rahati", "name:el": "\u03a1\u0391\u03a6\u0391\u03a4\u0399"}}, {"type": "node", "id": 11104781663, "lat": 35.7560035, "lon": 27.2097737, "tags": {"amenity": "restaurant", "name": "Anixis", "name:el": "\u0391\u039d\u039f\u0399\u039e\u0397"}}, {"type": "node", "id": 11104781664, "lat": 35.7564587, "lon": 27.2098143, "tags": {"amenity": "restaurant", "name": "Afani", "name:el": "\u0391\u03a6\u0391\u039d\u0399"}}, {"type": "node", "id": 11104788861, "lat": 35.7558, "lon": 27.2100282, "tags": {"amenity": "restaurant", "name": "Blue", "name:en": "Blue Restaurant Caf\u00e9 Bar"}}, {"type": "node", "id": 11104788862, "lat": 35.7557033, "lon": 27.2100526, "tags": {"amenity": "cafe", "name": "To Aktaio"}}, {"type": "node", "id": 11104854363, "lat": 35.7549563, "lon": 27.2107749, "tags": {"amenity": "restaurant", "name": "\u03a4\u039f \u039a\u03a5\u039c\u0391"}}, {"type": "node", "id": 11108094777, "lat": 35.4783307, "lon": 27.1966538, "tags": {"amenity": "restaurant", "name": "Dimitrios Taverna"}}, {"type": "node", "id": 11109216884, "lat": 35.4786764, "lon": 27.1200492, "tags": {"amenity": "cafe", "name": "Sweet Time", "name:en": "Creperie Sweet Time"}}, {"type": "node", "id": 11137839305, "lat": 35.5076111, "lon": 27.2121692, "tags": {"amenity": "cafe", "internet_access": "wlan", "name:en": "Cactus Cafe"}}, {"type": "node", "id": 11139328805, "lat": 35.5105506, "lon": 27.2058416, "tags": {"amenity": "restaurant", "name:en": "Tavernia Limanaki"}}, {"type": "node", "id": 11162404305, "lat": 35.5119978, "lon": 27.202265, "tags": {"addr:postcode": "85700", "amenity": "restaurant", "cuisine": "greek", "name:en": "Thalassa", "opening_hours": "Su-Sa 16:00-00:00", "phone": "2245 023400", "website": "https://thalassa-karpathos.business.site/"}}, {"type": "node", "id": 11197567238, "lat": 35.5079921, "lon": 27.2053649, "tags": {"amenity": "restaurant", "name:en": "Pelagos Bar Greek Music"}}, {"type": "node", "id": 11204482161, "lat": 35.5853981, "lon": 27.0779192}, {"type": "node", "id": 11204482162, "lat": 35.5852936, "lon": 27.077941}, {"type": "node", "id": 11204482163, "lat": 35.5852806, "lon": 27.0778469}, {"type": "node", "id": 11204482164, "lat": 35.5853851, "lon": 27.0778251}, {"type": "node", "id": 11204485557, "lat": 35.587693, "lon": 27.0694085, "tags": {"amenity": "restaurant", "name": "Zorbas Greek Taverna"}}, {"type": "node", "id": 11219343204, "lat": 35.5878564, "lon": 27.0700169, "tags": {"amenity": "restaurant", "name": "Nautilus Snack Bar"}}, {"type": "node", "id": 11243488782, "lat": 35.5863082, "lon": 27.0711879}, {"type": "node", "id": 11243488783, "lat": 35.5862519, "lon": 27.0711548}, {"type": "node", "id": 11243488784, "lat": 35.5862323, "lon": 27.071205}, {"type": "node", "id": 11243488785, "lat": 35.5862887, "lon": 27.0712382}, {"type": "node", "id": 11958360170, "lat": 35.5118068, "lon": 27.2021102, "tags": {"amenity": "restaurant", "name:en": "To Perasma Family"}}, {"type": "node", "id": 11971725669, "lat": 35.629097, "lon": 27.1567206, "tags": {"amenity": "restaurant", "name:it": "Porto Bello"}}, {"type": "node", "id": 11971728469, "lat": 35.6292571, "lon": 27.1560659, "tags": {"amenity": "restaurant", "name:en": "Salt and Pepper"}}, {"type": "node", "id": 11975038369, "lat": 35.5078849, "lon": 27.2131596, "tags": {"amenity": "restaurant", "name:en": "Stacey's Yum-me Kitchen"}}, {"type": "node", "id": 12012351770, "lat": 35.5873396, "lon": 27.0686647, "tags": {"amenity": "restaurant", "name:en": "Fisherman TaVerna o Mihalis"}}, {"type": "node", "id": 12060990000, "lat": 35.4720616, "lon": 27.1903524}, {"type": "node", "id": 12060990001, "lat": 35.4720227, "lon": 27.1904797}, {"type": "node", "id": 12060990002, "lat": 35.4719499, "lon": 27.190426}, {"type": "node", "id": 12060990003, "lat": 35.4719823, "lon": 27.1903226}, {"type": "node", "id": 12215607213, "lat": 35.5078619, "lon": 27.2150941, "tags": {"amenity": "restaurant", "cuisine": "italian", "delivery": "yes", "email": "info@alporto.gr", "name": "Al Porto", "opening_hours": "Mo-Su 18:00-23:30", "outdoor_seating": "yes", "start_date": "2014", "toilets": "yes", "website": "https://www.alporto.gr/"}}, {"type": "node", "id": 12219396663, "lat": 35.5078668, "lon": 27.2126862, "tags": {"amenity": "restaurant", "cuisine": "ice_cream", "name": "Spoon Sweet"}}, {"type": "node", "id": 12219396670, "lat": 35.5073559, "lon": 27.2153972, "tags": {"amenity": "restaurant", "cuisine": "greek", "name": "Apse Svise"}}, {"type": "node", "id": 12230532476, "lat": 35.5082997, "lon": 27.2106417, "tags": {"amenity": "cafe", "name": "Del Mar Cafe Bar"}}, {"type": "node", "id": 12249094571, "lat": 35.5083925, "lon": 27.215939, "tags": {"amenity": "cafe", "name": "Lambrinos", "toilets": "yes"}}, {"type": "node", "id": 12565044392, "lat": 35.5072972, "lon": 27.2098228, "tags": {"amenity": "cafe", "name": "Del Corso"}}, {"type": "node", "id": 12565098743, "lat": 35.5069102, "lon": 27.211151, "tags": {"amenity": "cafe", "name": "Hermanos Cups & Crepes"}}, {"type": "node", "id": 12565098744, "lat": 35.5068837, "lon": 27.2113397, "tags": {"amenity": "cafe", "name": "Non Solo Caff\u00e9"}}, {"type": "node", "id": 12578409673, "lat": 35.5081189, "lon": 27.211174}, {"type": "node", "id": 12578409674, "lat": 35.5080302, "lon": 27.2111495}, {"type": "node", "id": 12578409675, "lat": 35.508015, "lon": 27.2112327}, {"type": "node", "id": 12578409676, "lat": 35.5081037, "lon": 27.2112572}, {"type": "node", "id": 12589883390, "lat": 35.6330599, "lon": 27.1080721, "tags": {"amenity": "cafe"}}, {"type": "node", "id": 12592631135, "lat": 35.557737, "lon": 27.1069973}, {"type": "node", "id": 12592631136, "lat": 35.5577855, "lon": 27.1070666}, {"type": "node", "id": 12592631137, "lat": 35.5576785, "lon": 27.1071799}, {"type": "node", "id": 12592631138, "lat": 35.5576299, "lon": 27.1071105}, {"type": "node", "id": 12628235025, "lat": 35.5282836, "lon": 27.1092653}, {"type": "node", "id": 12628235026, "lat": 35.5282168, "lon": 27.1093274}, {"type": "node", "id": 12628235027, "lat": 35.5282593, "lon": 27.1093966}, {"type": "node", "id": 12628235028, "lat": 35.5283261, "lon": 27.1093344}, {"type": "node", "id": 12777949172, "lat": 35.5798023, "lon": 27.1394363}, {"type": "node", "id": 12777949173, "lat": 35.5797168, "lon": 27.1393385}, {"type": "node", "id": 12777949174, "lat": 35.5797114, "lon": 27.1393079}, {"type": "node", "id": 12777949175, "lat": 35.5796523, "lon": 27.1393989}, {"type": "node", "id": 12777949176, "lat": 35.579719, "lon": 27.1393812}, {"type": "node", "id": 12777949177, "lat": 35.5796885, "lon": 27.1393893}, {"type": "node", "id": 12777949178, "lat": 35.5797358, "lon": 27.1394774}, {"type": "way", "id": 370751516, "nodes": [3744415012, 3744415008, 3744415010, 3744415011, 3744415012], "tags": {"amenity": "restaurant", "building": "yes", "cuisine": "greek", "name": "Eklekton Restaurant"}}, {"type": "way", "id": 370761221, "nodes": [3744502765, 3744502762, 3744502764, 3744502763, 3744502765], "tags": {"amenity": "restaurant", "building": "yes", "cuisine": "greek", "name": "Blue Swan Taverna", "outdoor_seating": "yes", "website": "http://www.blueswankarpathos.gr/"}}, {"type": "way", "id": 375212986, "nodes": [3785979514, 3785979515, 3785979516, 3785979517, 3785979514], "tags": {"amenity": "restaurant", "building": "yes", "name": "Sun-Ray"}}, {"type": "way", "id": 375214237, "nodes": [3785992646, 3785992647, 3785992648, 3785992649, 3785992646], "tags": {"amenity": "restaurant", "building": "house", "name": "Taverna Parthenon"}}, {"type": "way", "id": 375214458, "nodes": [3785990547, 3785990548, 3785990549, 3785990550, 3785990551, 3785990552, 3785990547], "tags": {"amenity": "cafe", "building": "yes"}}, {"type": "way", "id": 375214459, "nodes": [3785990553, 3785990554, 3786064040, 3785990555, 3788016283, 3785990556, 3785990553], "tags": {"amenity": "restaurant", "building": "yes", "name": "Petalouda"}}, {"type": "way", "id": 375214460, "nodes": [3785995357, 3785995358, 3785995359, 3785995360, 3785995361, 3785995362, 3785995363, 3785995364, 3785995365, 3785995366, 3785995357], "tags": {"amenity": "cafe", "building": "yes", "name": "Retro"}}, {"type": "way", "id": 375220481, "nodes": [3786062586, 3786062587, 3786062588, 3786062589, 3786062590, 3786062591, 3786062592, 3786062593, 3786062594, 3786062586], "tags": {"amenity": "restaurant", "building": "detached", "name": "Taka Taka Mam"}}, {"type": "way", "id": 375220724, "nodes": [3786064033, 3786064034, 3786064035, 3786064037, 3786064036, 3786064033], "tags": {"amenity": "restaurant", "building": "yes", "name": "Taka Taka Mam"}}, {"type": "way", "id": 375525675, "nodes": [3788868588, 3788868589, 3788868590, 3788868591, 3788868588], "tags": {"amenity": "restaurant", "building": "yes", "name": "Kipos", "phone": "+302245061465"}}, {"type": "way", "id": 375573516, "nodes": [3789298195, 3789298196, 3789298197, 3789298198, 3789298199, 3789298200, 3789298201, 3789298202, 3789298203, 3789298204, 3789298195], "tags": {"amenity": "restaurant", "building": "yes", "name": "Taverna Avli Karpathos"}}, {"type": "way", "id": 375581006, "nodes": [3789369902, 3789375947, 3789375948, 3789375949, 3789375950, 3789369895, 3789369902], "tags": {"amenity": "restaurant", "building": "yes", "name": "Glaros"}}, {"type": "way", "id": 396652763, "nodes": [3994762303, 3994750856, 3994762281, 3994762280, 3994762286, 3994762257, 3994762303], "tags": {"amenity": "restaurant", "building": "yes", "name": "Krinos Restaurant", "opening_hours": "Mo-Su 18:00-22:00"}}, {"type": "way", "id": 396733281, "nodes": [3995610859, 12777949173, 12777949174, 3995610864, 12777949175, 12777949177, 12777949176, 12777949178, 3995610356, 3995610858, 12777949172, 3995610861, 3995610859], "tags": {"amenity": "restaurant", "building": "yes", "cuisine": "regional", "int_name": "Taverna Kali Limni", "name": "\u03a4\u03b1\u03b2\u03ad\u03c1\u03bd\u03b1 \u039a\u03b1\u03bb\u03ae \u039b\u03af\u03bc\u03bd\u03b7"}}, {"type": "way", "id": 397525299, "nodes": [4003147334, 4003147346, 4003147336, 4003147320, 4003147332, 4003147353, 4003147334], "tags": {"amenity": "restaurant", "building": "yes", "internet_access": "wlan", "internet_access:fee": "customers", "phone": "+30 6972700984", "rooms": "6", "tourism": "apartment", "website": "https://www.karpathos-legrandbleu.com/home"}}, {"type": "way", "id": 445459321, "nodes": [4428847472, 4428847473, 4428847474, 4428847475, 4428847476, 4428847477, 4428847478, 4428847472], "tags": {"amenity": "restaurant", "building": "yes", "name": "Amoopi Nymfes"}}, {"type": "way", "id": 445460406, "nodes": [4428856070, 4428856071, 4428856072, 4428856073, 4428856074, 4428856075, 4428856076, 4428856077, 4428856078, 4428856070], "tags": {"amenity": "restaurant", "building": "yes", "name": "Calypso"}}, {"type": "way", "id": 445460512, "nodes": [4428856615, 4428856616, 4428856617, 4428856618, 4428856621, 4428856626, 4428856619, 4428856620, 4428856615], "tags": {"amenity": "restaurant", "building": "yes"}}, {"type": "way", "id": 445460929, "nodes": [4428861334, 4428861335, 4428861336, 4428861337, 4428861338, 4428861339, 4428861340, 4428861334], "tags": {"amenity": "cafe", "building": "yes", "name": "Caf\u00e9"}}, {"type": "way", "id": 566080403, "nodes": [5450713876, 5450713880, 5450713877, 5450713875, 5450713876], "tags": {"amenity": "restaurant", "name": "I Drosi\u00e1"}}, {"type": "way", "id": 566080444, "nodes": [5450714134, 5450714133, 5450714132, 5450714131, 5450714134], "tags": {"amenity": "restaurant"}}, {"type": "way", "id": 598530187, "nodes": [5696493137, 5696493135, 5696493134, 5696493136, 5696493137], "tags": {"amenity": "restaurant", "building": "yes", "name": "Maistrali", "outdoor_seating": "yes"}}, {"type": "way", "id": 607666975, "nodes": [5758390231, 5758390232, 5758390233, 5758390234, 5758390235, 5758390236, 5758390231], "tags": {"amenity": "restaurant", "building": "yes", "cuisine": "greek", "name": "Sophia's Taverna"}}, {"type": "way", "id": 798438347, "nodes": [7467727450, 7467727452, 7467727447, 7467727455, 7467727450], "tags": {"amenity": "restaurant", "building": "yes", "name": "\u03a4\u03b1\u03b2\u03ad\u03c1\u03bd\u03b1 \u0386\u03c0\u03b5\u03bb\u03bb\u03b1", "name:el": "\u03a4\u03b1\u03b2\u03ad\u03c1\u03bd\u03b1 \u0386\u03c0\u03b5\u03bb\u03bb\u03b1", "name:en": "Taverna Apella", "outdoor_seating": "yes", "website": "https://restaurant-1112771.business.site/?utm_source=gmb&utm_medium=referral"}}, {"type": "way", "id": 1108023293, "nodes": [10138303853, 10138303854, 10138303855, 10138303856, 10138303853], "tags": {"alt_name": "Mama Cuisine", "amenity": "restaurant", "building": "yes", "cuisine": "regional", "name": "KOKONA"}}, {"type": "way", "id": 1108760147, "nodes": [10144335430, 10144335431, 10144335432, 10144335433, 10144335434, 10144335435, 10144335436, 10144335437, 10144335430], "tags": {"amenity": "restaurant", "building": "yes", "name": "\u0388\u03bb\u03bb\u03bf\u03b2\u03bf\u03c2", "name:el": "\u0388\u03bb\u03bb\u03bf\u03b2\u03bf\u03c2", "name:en": "Ellovos Restaurant"}}, {"type": "way", "id": 1108792169, "nodes": [10144651290, 10144651291, 10144651292, 10144651293, 10144651290], "tags": {"amenity": "restaurant", "building": "yes", "name": "LET'S EAT 2", "phone": "+306987533251"}}, {"type": "way", "id": 1111518736, "nodes": [10169019610, 10169019611, 10169019612, 10169019613, 10169019610], "tags": {"amenity": "restaurant", "building": "yes", "internet_access": "wlan", "name": "\u03a4\u03bf \u039a\u03bf\u03c1\u03ac\u03bb\u03b9", "name:el": "\u03a4\u03bf \u039a\u03bf\u03c1\u03ac\u03bb\u03b9", "name:en": "Corali"}}, {"type": "way", "id": 1111518737, "nodes": [10169019614, 10169019615, 10169019616, 10169059117, 10169059118, 10169059119, 10169059120, 10169059121, 10169019614], "tags": {"amenity": "restaurant", "building": "yes", "internet_access": "wlan", "name": "Anemoessa", "name:en": "Anemoessa"}}, {"type": "way", "id": 1153058997, "nodes": [10724471396, 10724471397, 10724471398, 10724471399, 10724471400, 10724471401, 10724471396], "tags": {"amenity": "restaurant", "building": "yes", "name": "Helios Taverna"}}, {"type": "way", "id": 1209308426, "nodes": [11204482161, 11204482162, 11204482163, 11204482164, 11204482161], "tags": {"amenity": "restaurant", "building": "yes", "name": "Small Paradise Restaurant"}}, {"type": "way", "id": 1213591730, "nodes": [11243488782, 11243488783, 11243488784, 11243488785, 11243488782], "tags": {"amenity": "cafe", "building": "yes", "name": "\u0394\u03b9\u03b1\u03c0\u03cc\u03c1\u03b9", "name:el": "\u0394\u03b9\u03b1\u03c0\u03cc\u03c1\u03b9", "name:en": "Diap\u00f3ri"}}, {"type": "way", "id": 1302238003, "nodes": [12060990000, 12060990001, 12060990002, 12060990003, 12060990000], "tags": {"amenity": "restaurant", "building": "yes", "name": "Taverna Kasos"}}, {"type": "way", "id": 1358987788, "nodes": [12578409673, 12578409674, 12578409675, 12578409676, 12578409673], "tags": {"amenity": "restaurant", "building": "yes", "cuisine": "mediterranean", "name": "Antama"}}, {"type": "way", "id": 1360303905, "nodes": [12592631135, 12592631136, 12592631137, 12592631138, 12592631135], "tags": {"amenity": "restaurant", "building": "yes", "cuisine": "regional", "int_name": "Evdoxia", "name": "\u0395\u03c5\u03b4\u03bf\u03be\u03af\u03b1"}}, {"type": "way", "id": 1363822797, "nodes": [12628235025, 12628235026, 12628235027, 12628235028, 12628235025], "tags": {"amenity": "restaurant", "building": "yes", "cuisine": "regional;greek", "name": "Under the Trees"}}]}