{"version": 0.6, "generator": "Overpass API 0.7.62.7 375dc00a", "osm3s": {"timestamp_osm_base": "2025-06-14T14:50:30Z", "copyright": "The data included in this document is from www.openstreetmap.org. The data is made available under ODbL."}, "elements": [{"type": "node", "id": 1390258722, "lat": 36.5450567, "lon": 26.3530699, "tags": {"amenity": "restaurant", "cuisine": "greek", "name": "Barbarossa"}}, {"type": "node", "id": 1390258724, "lat": 36.5454446, "lon": 26.3523299, "tags": {"amenity": "cafe", "cuisine": "greek", "name": "Meltemi"}}, {"type": "node", "id": 1390259184, "lat": 36.5478888, "lon": 26.3527938, "tags": {"amenity": "restaurant", "cuisine": "greek", "name": "\u0391\u03b9\u03b8\u03ad\u03c1\u03b9\u03bf"}}, {"type": "node", "id": 1390259189, "lat": 36.5488697, "lon": 26.3528116, "tags": {"amenity": "restaurant", "cuisine": "greek", "int_name": "Karabo Meze", "name": "\u039a\u03b1\u03c1\u03ac\u03b2\u03bf"}}, {"type": "node", "id": 1390259196, "lat": 36.5454417, "lon": 26.3531201, "tags": {"amenity": "cafe", "name": "\u039f\u03b9 \u039c\u03cd\u03bb\u03bf\u03b9"}}, {"type": "node", "id": 1390259197, "lat": 36.548707, "lon": 26.3527347, "tags": {"amenity": "cafe", "name": "\u03a0\u03bf\u03c1\u03c4\u03bf\u03ba\u03ac\u03bb\u03b9"}}, {"type": "node", "id": 1390301186, "lat": 36.5780727, "lon": 26.386314, "tags": {"amenity": "cafe", "name": "Marinos"}}, {"type": "node", "id": 1390302261, "lat": 36.5769432, "lon": 26.3865184, "tags": {"amenity": "restaurant", "cuisine": "greek", "name": "\u0391\u03bb\u03bc\u03cd\u03c1\u03b1"}}, {"type": "node", "id": 3124834370, "lat": 36.520895, "lon": 26.3017467}, {"type": "node", "id": 3124834371, "lat": 36.5211856, "lon": 26.3026611}, {"type": "node", "id": 3124834372, "lat": 36.5207127, "lon": 26.302888}, {"type": "node", "id": 3124834373, "lat": 36.5205077, "lon": 26.3023067}, {"type": "node", "id": 4881534521, "lat": 36.6203281, "lon": 26.3945297, "tags": {"amenity": "restaurant"}}, {"type": "node", "id": 4881534522, "lat": 36.5781902, "lon": 26.3859008, "tags": {"amenity": "cafe", "name": "\u039a\u03b1\u03c6\u03b5\u03bd\u03ad\u03c2", "name:el": "\u039a\u03b1\u03c6\u03b5\u03bd\u03ad\u03c2", "name:en": "Kafenio"}}, {"type": "node", "id": 4881607623, "lat": 36.5421684, "lon": 26.3419799, "tags": {"amenity": "restaurant", "name:en": "Astropelos"}}, {"type": "node", "id": 4881614521, "lat": 36.5421, "lon": 26.3419061, "tags": {"addr:city": "\u039b\u03b9\u03b2\u03ac\u03b4\u03b9\u03b1", "addr:postcode": "85900", "amenity": "cafe", "cuisine": "greek", "internet_access": "yes", "name": "Allegro", "name:en": "Allegro", "outdoor_seating": "yes"}}, {"type": "node", "id": 7827604385, "lat": 36.5454272, "lon": 26.3523884, "tags": {"amenity": "restaurant", "name": "\u0391\u03b3\u03b5\u03c1\u03b9", "name:el": "\u0391\u03b3\u03b5\u03c1\u03b9", "name:en": "Ageri"}}, {"type": "node", "id": 8060699677, "lat": 36.543125, "lon": 26.3431361, "tags": {"amenity": "restaurant", "cuisine": "greek;seafood", "name": "\u039a\u03c1\u03bf\u03ba\u03cc\u03b4\u03b5\u03b9\u03bb\u03bf\u03c2"}}, {"type": "node", "id": 8060699678, "lat": 36.5430022, "lon": 26.3425981, "tags": {"addr:postcode": "85900", "amenity": "restaurant", "cuisine": "greek", "name": "\u0393\u03b5\u03c1\u03ac\u03bd\u03b9", "name:el": "\u0393\u03b5\u03c1\u03ac\u03bd\u03b9", "name:en": "Gerani", "phone": "2243061484"}}, {"type": "node", "id": 8060699679, "lat": 36.5416529, "lon": 26.3417277, "tags": {"amenity": "cafe", "name": "Island"}}, {"type": "node", "id": 8060699681, "lat": 36.5448293, "lon": 26.3511677, "tags": {"amenity": "cafe", "name": "\u0391\u03c1\u03c7\u03b9\u03c0\u03ad\u03bb\u03b1\u03b3\u03bf\u03c2", "outdoor_seating": "yes"}}, {"type": "node", "id": 8060699684, "lat": 36.545257, "lon": 26.3528577, "tags": {"amenity": "cafe", "internet_access": "wlan", "name": "\u039d\u03cc\u03c4\u03bf\u03c2", "outdoor_seating": "yes"}}, {"type": "node", "id": 8060735387, "lat": 36.5473211, "lon": 26.3535613, "tags": {"amenity": "cafe", "name": "\u039a\u03bf\u03bb\u03bf\u03ba\u03cd\u03b8\u03b1", "outdoor_seating": "yes"}}, {"type": "node", "id": 8060735388, "lat": 36.54475, "lon": 26.3554416, "tags": {"amenity": "restaurant", "cuisine": "greek;seafood", "name": "\u039a\u03b1\u03c1\u03ac\u03b9"}}, {"type": "node", "id": 8587022021, "lat": 36.5490315, "lon": 26.3545651, "tags": {"addr:city": "\u0391\u03c3\u03c4\u03c5\u03c0\u03ac\u03bb\u03b1\u03b9\u03b1", "addr:postcode": "85900", "addr:street": "\u03a0\u03ad\u03c1\u03b1 \u0393\u03c5\u03b1\u03bb\u03cc\u03c2", "amenity": "restaurant", "cuisine": "greek", "name": "antikastro", "opening_hours": "17:00-23:59", "phone": "+30 22430 62316"}}, {"type": "node", "id": 8587144453, "lat": 36.5491351, "lon": 26.3530625, "tags": {"addr:city": "\u0391\u03c3\u03c4\u03c5\u03c0\u03ac\u03bb\u03b1\u03b9\u03b1", "addr:postcode": "85900", "amenity": "restaurant", "name": "Ouzeri Anastasia", "opening_hours": "18:00-23:45"}}, {"type": "node", "id": 8587144454, "lat": 36.5486804, "lon": 26.3527191, "tags": {"amenity": "restaurant", "name": "Safran"}}, {"type": "node", "id": 8587144455, "lat": 36.5491408, "lon": 26.3532032, "tags": {"addr:city": "\u0391\u03c3\u03c4\u03c5\u03c0\u03ac\u03bb\u03b1\u03b9\u03b1", "addr:postcode": "85900", "amenity": "restaurant", "cuisine": "greek;seafood", "name": "\u0391\u03ba\u03c1\u03bf\u03b3\u03b9\u03ac\u03bb\u03b9 \u0391\u03c3\u03c4\u03c5\u03c0\u03ac\u03bb\u03b1\u03b9\u03b1", "opening_hours": "15:00-23:59"}}, {"type": "node", "id": 9004729420, "lat": 36.5478147, "lon": 26.3526257, "tags": {"amenity": "restaurant", "name": "\u039c\u03b1\u03ca\u03c3\u03c4\u03c1\u03ac\u03bb\u03b9", "opening_hours": "Mo-Su,PH 11:00-23:00"}}, {"type": "node", "id": 9004729422, "lat": 36.5481127, "lon": 26.3526889, "tags": {"amenity": "cafe", "name": "Dapia"}}, {"type": "node", "id": 9006783127, "lat": 36.548704, "lon": 26.3505977, "tags": {"amenity": "cafe", "name": "\u0391\u03c1\u03b3\u03cc"}}, {"type": "node", "id": 9006944810, "lat": 36.5493568, "lon": 26.353056, "tags": {"amenity": "restaurant", "name": "\u039a\u03b1\u03c6\u03b5\u03bd\u03b5\u03af\u03bf \u039f \u03a3\u03b1\u03bb\u03ae\u03c2"}}, {"type": "node", "id": 9006954846, "lat": 36.5495192, "lon": 26.3554816, "tags": {"amenity": "cafe", "name": "\u0393\u03bb\u03c5\u03ba\u03b9\u03ac \u0391\u03c3\u03c4\u03c5\u03c0\u03b1\u03bb\u03b1\u03b9\u03ac"}}, {"type": "node", "id": 9006971959, "lat": 36.5495025, "lon": 26.3530884, "tags": {"amenity": "restaurant", "name": "Australia"}}, {"type": "node", "id": 9006974498, "lat": 36.549515, "lon": 26.3533438, "tags": {"amenity": "cafe"}}, {"type": "node", "id": 12180400884, "lat": 36.5276527, "lon": 26.3532574, "tags": {"amenity": "restaurant", "cuisine": "greek"}}, {"type": "node", "id": 12180400885, "lat": 36.5278736, "lon": 26.3535749, "tags": {"amenity": "cafe"}}, {"type": "node", "id": 12184269179, "lat": 36.5201103, "lon": 26.3029428}, {"type": "node", "id": 12184269180, "lat": 36.5201347, "lon": 26.3030315}, {"type": "node", "id": 12184269181, "lat": 36.5202159, "lon": 26.3029969}, {"type": "node", "id": 12184269182, "lat": 36.5201906, "lon": 26.3029064}, {"type": "node", "id": 12184321224, "lat": 36.5201391, "lon": 26.302992, "tags": {"amenity": "restaurant", "name": "Linda`s"}}, {"type": "node", "id": 12184337552, "lat": 36.5458573, "lon": 26.3526657, "tags": {"amenity": "cafe", "name": "B\u014dkan Coffee House"}}, {"type": "node", "id": 12211489881, "lat": 36.5424298, "lon": 26.3423061, "tags": {"addr:city": "\u039b\u03b9\u03b2\u03ac\u03b4\u03b9\u03b1", "addr:postcode": "85900", "amenity": "restaurant", "cuisine": "greek", "name": "Para Thin Alos", "phone": "+30 2243062227"}}, {"type": "way", "id": 307370338, "nodes": [3124834370, 3124834371, 3124834372, 3124834373, 3124834370], "tags": {"amenity": "restaurant", "building": "yes"}}, {"type": "way", "id": 1316414580, "nodes": [12184269180, 12184269181, 12184269182, 12184269179, 12184269180], "tags": {"amenity": "restaurant", "building": "yes", "cuisine": "greek", "name": "Linda`s"}}]}