{"version": 0.6, "generator": "Overpass API 0.7.62.7 375dc00a", "osm3s": {"timestamp_osm_base": "2025-06-14T15:07:54Z", "copyright": "The data included in this document is from www.openstreetmap.org. The data is made available under ODbL."}, "elements": [{"type": "node", "id": 2007901777, "lat": 30.8809472, "lon": 31.453549, "tags": {"amenity": "cafe", "cuisine": "coffee_shop", "name": "Saafan Cafe", "name:en": "Saafan Cafe"}}, {"type": "node", "id": 2618172117, "lat": 31.0536801, "lon": 31.3805626, "tags": {"amenity": "cafe", "internet_access": "no", "name": "Maxim"}}, {"type": "node", "id": 3087178536, "lat": 30.8817932, "lon": 31.4553273, "tags": {"amenity": "cafe", "cuisine": "coffee", "internet_access": "wlan", "name": "Cafeteria Al Asdqaa", "name:ar": "\u0643\u0627\u0641\u0649 \u0634\u0648\u0628 \u0627\u0644\u0627\u0635\u062f\u0642\u0627\u0621", "smoking": "yes"}}, {"type": "node", "id": 3116650263, "lat": 31.0456463, "lon": 31.3574865, "tags": {"amenity": "restaurant", "name": "\u0627\u0644\u0628\u0627\u0631\u0648\u0646", "name:ar": "\u0627\u0644\u0628\u0627\u0631\u0648\u0646", "name:en": "Al-Baroun"}}, {"type": "node", "id": 3116650264, "lat": 31.0455592, "lon": 31.3589377, "tags": {"amenity": "restaurant", "name": "\u062f\u062c\u0627\u062c \u0643\u0646\u062a\u0643\u0649", "name:ar": "\u062f\u062c\u0627\u062c \u0643\u0646\u062a\u0643\u0649", "name:en": "KFC", "opening_hours": "20:00+", "smoking": "no"}}, {"type": "node", "id": 3116650265, "lat": 31.0455513, "lon": 31.3590979, "tags": {"addr:city": "\u0627\u0644\u0645\u0646\u0635\u0648\u0631\u0629", "addr:street": "\u0634\u0627\u0631\u0639 \u0627\u0644\u062c\u0645\u0647\u0648\u0631\u064a\u0629", "amenity": "restaurant", "name": "\u0645\u0627\u0643\u062f\u0648\u0646\u0627\u0644\u062f\u0632", "name:ar": "\u0645\u0627\u0643\u062f\u0648\u0646\u0627\u0644\u062f\u0632", "name:en": "McDonald's"}}, {"type": "node", "id": 3116650266, "lat": 31.0456041, "lon": 31.3589932, "tags": {"amenity": "restaurant", "name": "\u062a\u0643\u0627", "name:ar": "\u062a\u0643\u0627", "name:en": "Tikka"}}, {"type": "node", "id": 3116650267, "lat": 31.0456279, "lon": 31.3590671, "tags": {"amenity": "restaurant", "name": "\u0628\u064a\u062a\u0632\u0627 \u0647\u062a", "name:ar": "\u0628\u064a\u062a\u0632\u0627 \u0647\u062a", "name:en": "Pizza Hut"}}, {"type": "node", "id": 3116650270, "lat": 31.0456306, "lon": 31.3535918, "tags": {"amenity": "restaurant", "name": "\u0641\u0631\u0646\u0634 \u0641\u0631\u0627\u064a\u0632", "name:ar": "\u0641\u0631\u0646\u0634 \u0641\u0631\u0627\u064a\u0632", "name:en": "French&Fries"}}, {"type": "node", "id": 3116650274, "lat": 31.0457202, "lon": 31.3540727, "tags": {"amenity": "restaurant", "name": "Buffalo Burger"}}, {"type": "node", "id": 3116650275, "lat": 31.0456912, "lon": 31.3552928, "tags": {"amenity": "restaurant", "name": "\u062f\u0648\u0645\u064a\u0646\u0648\u0632 \u0628\u064a\u062a\u0632\u0627", "name:ar": "\u062f\u0648\u0645\u064a\u0646\u0648\u0632 \u0628\u064a\u062a\u0632\u0627", "name:en": "Domino's Pizza"}}, {"type": "node", "id": 3116650277, "lat": 31.0456939, "lon": 31.3554746, "tags": {"amenity": "restaurant", "name": "Mo'men"}}, {"type": "node", "id": 3116650282, "lat": 31.0457651, "lon": 31.3552559, "tags": {"amenity": "restaurant", "name": "\u0627\u0644\u062e\u0627\u0646", "name:ar": "\u0627\u0644\u062e\u0627\u0646", "name:en": "Al Khan"}}, {"type": "node", "id": 3116650283, "lat": 31.0456912, "lon": 31.3558105, "tags": {"amenity": "restaurant", "name": "\u0645\u0624\u0645\u0646", "name:ar": "\u0645\u0624\u0645\u0646", "name:en": "Mo'men"}}, {"type": "node", "id": 3116650285, "lat": 31.0457308, "lon": 31.3560046, "tags": {"amenity": "cafe", "name": "Gardino Cafe"}}, {"type": "node", "id": 3116650286, "lat": 31.0457044, "lon": 31.3560816, "tags": {"amenity": "restaurant", "name": "\u0643\u0627\u0628\u062a\u0634\u064a\u0646\u0648", "name:ar": "\u0643\u0627\u0628\u062a\u0634\u064a\u0646\u0648", "name:en": "Cappuccino"}}, {"type": "node", "id": 3116650290, "lat": 31.0456701, "lon": 31.3570768, "tags": {"amenity": "cafe", "name": "Spectra Restaurant & Cafe"}}, {"type": "node", "id": 3116650291, "lat": 31.0456516, "lon": 31.3573078, "tags": {"amenity": "cafe", "name": "Pinci"}}, {"type": "node", "id": 3118454618, "lat": 31.045905, "lon": 31.3597573, "tags": {"amenity": "restaurant", "name": "\u0639\u0644\u0627\u0621 \u0627\u0644\u062f\u064a\u0646", "name:ar": "\u0639\u0644\u0627\u0621 \u0627\u0644\u062f\u064a\u0646", "name:en": "Alaa Al Din"}}, {"type": "node", "id": 3118641496, "lat": 31.040808, "lon": 31.3641445, "tags": {"amenity": "restaurant", "name": "\u0643\u0634\u0631\u0649 \u0627\u0644\u062d\u062c\u0627\u0632", "name:ar": "\u0643\u0634\u0631\u0649 \u0627\u0644\u062d\u062c\u0627\u0632"}}, {"type": "node", "id": 3118641497, "lat": 31.0408239, "lon": 31.3651274, "tags": {"amenity": "restaurant", "name": "\u0645\u0637\u0627\u0639\u0645 \u0627\u0644\u0628\u063a\u0644 \u0627\u0644\u0643\u0628\u0631\u0649", "name:ar": "\u0645\u0637\u0627\u0639\u0645 \u0627\u0644\u0628\u063a\u0644 \u0627\u0644\u0643\u0628\u0631\u0649", "name:en": "El Baghl El Kobra Restaurants", "phone": "+20 50 2218035"}}, {"type": "node", "id": 3118641499, "lat": 31.040581, "lon": 31.3653831, "tags": {"amenity": "cafe", "name": "\u0643\u0648\u0641\u0649 \u0634\u0648\u0628 \u0627\u0644\u062d\u0631\u0627\u0641\u064a\u0634", "name:ar": "\u0643\u0648\u0641\u0649 \u0634\u0648\u0628 \u0627\u0644\u062d\u0631\u0627\u0641\u064a\u0634", "name:en": "Al-Harafeish"}}, {"type": "node", "id": 3119541347, "lat": 31.0493945, "lon": 31.3983758, "tags": {"addr:city": "\u0627\u0644\u0645\u0646\u0635\u0648\u0631\u0629", "addr:street": "\u0634\u0644\u0631\u0639 \u0642\u0646\u0627\u0629 \u0627\u0644\u0633\u0648\u064a\u0633", "amenity": "restaurant", "name": "\u0645\u0637\u0627\u0639\u0645 \u0627\u0644\u0628\u063a\u0644 \u0627\u0644\u0643\u0628\u0631\u0649", "name:ar": "\u0645\u0637\u0627\u0639\u0645 \u0627\u0644\u0628\u063a\u0644 \u0627\u0644\u0643\u0628\u0631\u0649", "name:en": "Al-Baghl"}}, {"type": "node", "id": 3119625079, "lat": 31.0471209, "lon": 31.3804884, "tags": {"amenity": "restaurant", "name": "\u0643\u0634\u0631\u0649 \u0632\u064a\u0632\u0648", "name:ar": "\u0643\u0634\u0631\u0649 \u0632\u064a\u0632\u0648", "name:en": "Zizo"}}, {"type": "node", "id": 3119635527, "lat": 31.0468371, "lon": 31.3731072, "tags": {"addr:street": "\u0634\u0627\u0631\u0639 \u0627\u0644\u062c\u0645\u0647\u0648\u0631\u064a\u0629", "amenity": "restaurant", "name": "\u0631\u0645\u0636\u0627\u0646 \u0627\u0644\u0643\u0628\u0627\u0628\u062c\u0649 \u0627\u0644\u0648\u062d\u064a\u062f", "name:ar": "\u0631\u0645\u0636\u0627\u0646 \u0627\u0644\u0643\u0628\u0627\u0628\u062c\u0649 \u0627\u0644\u0648\u062d\u064a\u062f", "name:en": "Ramadan El Kababgy El Waheed"}}, {"type": "node", "id": 3119635528, "lat": 31.0467131, "lon": 31.3728597, "tags": {"amenity": "restaurant", "name": "\u0648\u0644\u0639\u062a\u064a\u0646", "name:ar": "\u0648\u0644\u0639\u062a\u064a\u0646", "name:en": "Walaaten"}}, {"type": "node", "id": 3119668283, "lat": 31.0491869, "lon": 31.3963439, "tags": {"addr:street": "\u0634\u0627\u0631\u0639 \u0642\u0646\u0627\u0629 \u0627\u0644\u0633\u0648\u064a\u0633", "amenity": "restaurant", "name": "Al Sabahy"}}, {"type": "node", "id": 3119668284, "lat": 31.0492265, "lon": 31.3964733, "tags": {"amenity": "restaurant", "name": "Cook Door"}}, {"type": "node", "id": 3119668288, "lat": 31.0515863, "lon": 31.4008669, "tags": {"amenity": "restaurant", "cuisine": "seafood", "name": "Istacuza"}}, {"type": "node", "id": 3119668291, "lat": 31.0515678, "lon": 31.4007622, "tags": {"amenity": "restaurant", "name": "Panadora"}}, {"type": "node", "id": 3119668292, "lat": 31.0497544, "lon": 31.3993634, "tags": {"amenity": "restaurant", "name": "Cappuccino"}}, {"type": "node", "id": 3119711261, "lat": 31.0462618, "lon": 31.3528641, "tags": {"amenity": "cafe", "name": "Pyramisa"}}, {"type": "node", "id": 4999069123, "lat": 30.7216593, "lon": 31.2551903, "tags": {"addr:street": "\u0634\u0627\u0631\u0639 \u062c\u0633\u0631 \u0627\u0644\u0646\u064a\u0644", "amenity": "restaurant", "cuisine": "friture", "name": "\u0627\u0644\u062d\u0633\u064a\u0646", "name:ar": "\u0627\u0644\u062d\u0633\u064a\u0646", "opening_hours": "24/7", "phone": "0111 792 4192"}}, {"type": "node", "id": 5038729323, "lat": 31.0473273, "lon": 31.37797, "tags": {"amenity": "cafe", "cuisine": "arab", "internet_access": "wlan", "name": "\u0643\u0627\u0641\u064a\u0647 \u0627\u0646\u062f\u0631\u064a\u0627", "name:ar": "\u0643\u0627\u0641\u064a\u0647 \u0627\u0646\u062f\u0631\u064a\u0627", "name:en": "Andria Cafe"}}, {"type": "node", "id": 5306412221, "lat": 31.0465919, "lon": 31.3879794, "tags": {"amenity": "cafe", "internet_access": "wlan", "name": "\u0645\u0642\u0647\u0649 \u0627\u0644\u0628\u062a\u0631\u0627\u0648\u064a", "name:ar": "\u0645\u0642\u0647\u0649 \u0627\u0644\u0628\u062a\u0631\u0627\u0648\u064a", "name:en": "albatrawy cafeshop"}}, {"type": "node", "id": 5550153381, "lat": 31.0477973, "lon": 31.3720072, "tags": {"addr:city": "Mansoura", "addr:street": "\u0634\u0627\u0631\u0639 \u0627\u0644\u0645\u0634\u0627\u064a\u0629 \u0627\u0644\u0633\u0644\u0641\u064a\u0629", "amenity": "restaurant", "name": "Al Dewan"}}, {"type": "node", "id": 5550153493, "lat": 31.0456802, "lon": 31.3539384, "tags": {"amenity": "restaurant", "name": "\u0627\u0644\u0645\u062d\u0645\u062f\u064a", "name:ar": "\u0627\u0644\u0645\u062d\u0645\u062f\u064a", "name:en": "Al Mohamdy"}}, {"type": "node", "id": 5550153494, "lat": 31.0451989, "lon": 31.3531117, "tags": {"amenity": "cafe", "name": "Elghaly", "name:ar": "\u0628\u0646 \u0627\u0644\u063a\u0627\u0644\u064a"}}, {"type": "node", "id": 5550153495, "lat": 31.0454804, "lon": 31.3507687, "tags": {"amenity": "cafe", "name": "Opaa"}}, {"type": "node", "id": 5550153496, "lat": 31.0454683, "lon": 31.3504648, "tags": {"amenity": "cafe", "name": "Coffee Shop Company"}}, {"type": "node", "id": 5550153497, "lat": 31.0450293, "lon": 31.3496061, "tags": {"amenity": "restaurant", "name": "Al Nakhil", "name:ar": "\u0627\u0644\u0646\u062e\u064a\u0644"}}, {"type": "node", "id": 5550242260, "lat": 31.0378736, "lon": 31.3616146, "tags": {"addr:city": "\u0627\u0644\u0645\u0646\u0635\u0648\u0631\u0629", "amenity": "restaurant", "name": "\u0643\u0627\u062a\u0634\u0628", "name:ar": "\u0643\u0627\u062a\u0634\u0628", "name:en": "Katechub"}}, {"type": "node", "id": 5550242261, "lat": 31.0376075, "lon": 31.3622252, "tags": {"addr:city": "\u0627\u0644\u0645\u0646\u0635\u0648\u0631\u0629", "amenity": "restaurant", "name": "\u0627\u0644\u0645\u0627\u0644\u0643\u064a", "name:ar": "\u0627\u0644\u0645\u0627\u0644\u0643\u064a", "name:en": "Al Malky"}}, {"type": "node", "id": 5550242262, "lat": 31.0375386, "lon": 31.3619922, "tags": {"addr:city": "\u0627\u0644\u0645\u0646\u0635\u0648\u0631\u0629", "amenity": "restaurant", "name": "\u0623\u0647\u0644 \u0627\u0644\u0634\u0627\u0645", "name:ar": "\u0623\u0647\u0644 \u0627\u0644\u0634\u0627\u0645", "name:en": "Ahl Al Sham"}}, {"type": "node", "id": 5550242264, "lat": 31.0376127, "lon": 31.3613307, "tags": {"amenity": "restaurant", "name": "Lava"}}, {"type": "node", "id": 5550242265, "lat": 31.0376865, "lon": 31.3614969, "tags": {"amenity": "restaurant", "name": "Chicks"}}, {"type": "node", "id": 5550457079, "lat": 31.0394333, "lon": 31.3533456, "tags": {"amenity": "cafe", "name": "Ivano"}}, {"type": "node", "id": 5555391623, "lat": 30.8873272, "lon": 31.4581129, "tags": {"amenity": "cafe", "name": "Rock"}}, {"type": "node", "id": 5555433567, "lat": 30.8851416, "lon": 31.4544136, "tags": {"amenity": "restaurant", "name": "\u062d\u0627\u062a\u064a \u0645\u062d\u0645\u0648\u062f \u0639\u0628\u062f\u0627\u0644\u0635\u0645\u062f", "name:ar": "\u062d\u0627\u062a\u064a \u0645\u062d\u0645\u0648\u062f \u0639\u0628\u062f\u0627\u0644\u0635\u0645\u062f", "name:en": "Mahmoud Abd Elsamd"}}, {"type": "node", "id": 5555433587, "lat": 30.8904012, "lon": 31.456221, "tags": {"amenity": "restaurant", "name": "\u0645\u0637\u0639\u0645 \u0623\u0628\u0648 \u0633\u0646\u0647 \u0644\u0644\u0645\u0634\u0648\u064a\u0627\u062a \u0648\u0627\u0644\u0645\u0623\u0643\u0648\u0644\u0627\u062a \u0627\u0644\u0628\u062d\u0631\u064a\u0629", "name:ar": "\u0645\u0637\u0639\u0645 \u0623\u0628\u0648 \u0633\u0646\u0647 \u0644\u0644\u0645\u0634\u0648\u064a\u0627\u062a \u0648\u0627\u0644\u0645\u0623\u0643\u0648\u0644\u0627\u062a \u0627\u0644\u0628\u062d\u0631\u064a\u0629"}}, {"type": "node", "id": 5555433595, "lat": 30.8863228, "lon": 31.4586411, "tags": {"amenity": "restaurant", "name": "Hummer"}}, {"type": "node", "id": 5555464524, "lat": 30.8817166, "lon": 31.4585158, "tags": {"amenity": "restaurant", "name": "Abo Leila"}}, {"type": "node", "id": 5555464525, "lat": 30.8817427, "lon": 31.4585858, "tags": {"amenity": "cafe", "name": "Al Anwar"}}, {"type": "node", "id": 5555464553, "lat": 30.8811058, "lon": 31.4565963, "tags": {"amenity": "restaurant", "name": "Location"}}, {"type": "node", "id": 5587373555, "lat": 31.0480642, "lon": 31.394605, "tags": {"amenity": "restaurant", "cuisine": "shawarma;pizza;sandwich", "delivery": "yes", "name": "Ahl Alsham", "outdoor_seating": "yes", "smoking": "outside", "takeaway": "yes"}}, {"type": "node", "id": 5587373828, "lat": 31.0547446, "lon": 31.4098758, "tags": {"amenity": "restaurant", "name": "\u0645\u0637\u0627\u0639\u0645 \u0627\u0644\u0628\u063a\u0644 \u0627\u0644\u0643\u0628\u0631\u064a", "name:ar": "\u0645\u0637\u0627\u0639\u0645 \u0627\u0644\u0628\u063a\u0644 \u0627\u0644\u0643\u0628\u0631\u064a", "name:en": "Al Baghl"}}, {"type": "node", "id": 5587434630, "lat": 31.0310942, "lon": 31.3931677, "tags": {"amenity": "cafe", "name": "Cofee Shop Company"}}, {"type": "node", "id": 5587434632, "lat": 31.0314551, "lon": 31.3930155, "tags": {"amenity": "restaurant", "cuisine": "pizza", "name": "Pizza Hut"}}, {"type": "node", "id": 5587434641, "lat": 31.0318918, "lon": 31.3947178, "tags": {"amenity": "restaurant", "cuisine": "seafood", "name": "Caporia"}}, {"type": "node", "id": 5587434642, "lat": 31.0312397, "lon": 31.3939923, "tags": {"amenity": "restaurant", "name": "Cheif Yousry"}}, {"type": "node", "id": 5587465371, "lat": 31.0502027, "lon": 31.3988691, "tags": {"amenity": "restaurant", "name": "Al Mohamdy"}}, {"type": "node", "id": 5587465372, "lat": 31.0495477, "lon": 31.3986709, "tags": {"amenity": "restaurant", "name": "Al Ta'lab"}}, {"type": "node", "id": 5587465668, "lat": 31.0454099, "lon": 31.350138, "tags": {"amenity": "cafe", "name": "Manhaten"}}, {"type": "node", "id": 5618593621, "lat": 31.0640419, "lon": 31.6587689, "tags": {"amenity": "cafe", "internet_access": "wlan", "name": "\u0627\u0628\u0648 \u0643\u0631\u064a\u0645", "name:ar": "\u0627\u0628\u0648 \u0643\u0631\u064a\u0645", "name:en": "cafe abo karem"}}, {"type": "node", "id": 5793084170, "lat": 31.0449313, "lon": 31.3681485, "tags": {"amenity": "restaurant", "delivery": "yes", "name": "Fattoma", "opening_hours": "10:00-03:00", "takeaway": "yes"}}, {"type": "node", "id": 5880819885, "lat": 31.0893244, "lon": 31.6000223, "tags": {"amenity": "restaurant"}}, {"type": "node", "id": 5900099241, "lat": 31.0500135, "lon": 31.3804916, "tags": {"amenity": "restaurant", "name": "\u0632\u064a\u0632\u0648", "name:ar": "\u0632\u064a\u0632\u0648"}}, {"type": "node", "id": 6045970885, "lat": 31.0318947, "lon": 31.3645176, "tags": {"amenity": "cafe", "name": "\u0643\u0627\u0641\u064a\u0647 \u0639\u0627\u0637\u0641", "name:ar": "\u0643\u0627\u0641\u064a\u0647 \u0639\u0627\u0637\u0641"}}, {"type": "node", "id": 6081071298, "lat": 31.0401745, "lon": 31.3675446, "tags": {"amenity": "cafe", "name": "Hello"}}, {"type": "node", "id": 6960729985, "lat": 31.0922214, "lon": 31.5918356, "tags": {"amenity": "cafe", "name": "\u0645\u062d\u0645\u062f \u0641\u0631\u062c", "name:ar": "\u0645\u062d\u0645\u062f \u0641\u0631\u062c"}}, {"type": "node", "id": 8487110461, "lat": 31.0505787, "lon": 31.3919346, "tags": {"amenity": "cafe", "contact:facebook": "https://www.facebook.com/Vivido-cafe-112520356956370/", "name": "\u06a4\u064a\u06a4\u064a\u062f\u0648 \u0643\u0627\u0641\u064a", "name:ar": "\u06a4\u064a\u06a4\u064a\u062f\u0648 \u0643\u0627\u0641\u064a", "name:en": "V\u00edvido Cafe"}}, {"type": "node", "id": 8689025771, "lat": 31.0478659, "lon": 31.389036}, {"type": "node", "id": 8689025772, "lat": 31.0478584, "lon": 31.3889599}, {"type": "node", "id": 8689025773, "lat": 31.0480509, "lon": 31.3889492}, {"type": "node", "id": 8689025774, "lat": 31.04806, "lon": 31.3890271}, {"type": "node", "id": 9030038762, "lat": 30.9222645, "lon": 31.2814302}, {"type": "node", "id": 9030038763, "lat": 30.9222341, "lon": 31.2815576}, {"type": "node", "id": 9030038764, "lat": 30.9223796, "lon": 31.2816047}, {"type": "node", "id": 9030038765, "lat": 30.92241, "lon": 31.2814773}, {"type": "node", "id": 9036223524, "lat": 31.0350751, "lon": 31.3605036, "tags": {"amenity": "restaurant", "contact:facebook": "https://www.facebook.com/\u0641\u0637\u0627\u0637\u0631\u064a-\u0627\u0644\u062f\u0645\u064a\u0627\u0637\u064a-\u0641\u0631\u0639-\u062d\u064a-\u0627\u0644\u062c\u0627\u0645\u0639\u0647-109243488016586/", "contact:phone": "+20 1554397977;+20 502244460", "name": "\u0641\u0637\u0627\u0637\u0631\u064a \u0627\u0644\u062f\u0645\u064a\u0627\u0637\u064a", "name:ar": "\u0641\u0637\u0627\u0637\u0631\u064a \u0627\u0644\u062f\u0645\u064a\u0627\u0637\u064a", "name:en": "Fatatri Al Domyati"}}, {"type": "node", "id": 9325231293, "lat": 31.0328027, "lon": 31.3700662, "tags": {"amenity": "restaurant", "contact:facebook": "https://www.facebook.com/eldomyate.pizza/", "cuisine": "pizza", "name": "\u0641\u0637\u0627\u0637\u0631\u064a \u0627\u0644\u062f\u0645\u064a\u0627\u0637\u064a", "name:ar": "\u0641\u0637\u0627\u0637\u0631\u064a \u0627\u0644\u062f\u0645\u064a\u0627\u0637\u064a", "name:en": "Fatatry Al Domyati", "phone": "+20 100 165 4034"}}, {"type": "node", "id": 10065115153, "lat": 30.7495622, "lon": 31.4595198, "tags": {"amenity": "restaurant", "contact:facebook": "https://www.facebook.com/fnelshawy/", "name": "\u0645\u0637\u0639\u0645 \u0641\u0646 \u0627\u0644\u0634\u0648\u064a", "name:ar": "\u0645\u0637\u0639\u0645 \u0641\u0646 \u0627\u0644\u0634\u0648\u064a", "name:en": "The Art Of Barbecue Restaurant", "phone": "+20 109 0300781; +20 114 2819520; +20 553776042"}}, {"type": "node", "id": 10171713743, "lat": 30.9416463, "lon": 31.5298503, "tags": {"amenity": "restaurant", "name": "\u0628\u0631\u064a\u0648\u0645\u0632 \u0628\u064a\u062a\u0632\u0627", "name:ar": "\u0628\u0631\u064a\u0648\u0645\u0632 \u0628\u064a\u062a\u0632\u0627", "name:en": "Priom\u2019s Pizza", "phone": "+20 100 3664082"}}, {"type": "node", "id": 11357293669, "lat": 30.9416473, "lon": 31.2937718, "tags": {"amenity": "restaurant", "name": "\u0627\u0644\u0641\u062e\u0631\u0627\u0646\u064a"}}, {"type": "node", "id": 11357297669, "lat": 30.9422135, "lon": 31.2923698, "tags": {"amenity": "restaurant", "name": "\u0627\u0644\u0628\u063a\u0644"}}, {"type": "node", "id": 11357298269, "lat": 30.9419282, "lon": 31.2926247, "tags": {"amenity": "restaurant", "name": "\u0645\u064a\u062f\u0627\u0646 \u0627\u0644\u0645\u062d\u0637\u0629"}}, {"type": "node", "id": 11753095156, "lat": 30.9793926, "lon": 31.3887307, "tags": {"amenity": "restaurant", "cuisine": "tip;japanese;chinese;italian;regional;mexican;indian", "diet:gluten_free": "yes", "diet:vegan": "yes", "name": "Tip Fast Foof", "opening_hours": "24/7"}}, {"type": "way", "id": 937886350, "nodes": [8689025771, 8689025772, 8689025773, 8689025774, 8689025771], "tags": {"amenity": "cafe", "building": "yes"}}, {"type": "way", "id": 975835075, "nodes": [9030038765, 9030038764, 9030038763, 9030038762, 9030038765], "tags": {"amenity": "restaurant", "building": "yes", "name": "\u0627\u0628\u0648 \u0627\u062d\u0645\u062f \u0644\u0644\u0645\u0634\u0648\u064a\u0627\u062a \u0648\u0627\u0644\u0645\u0646\u062f\u064a", "name:ar": "\u0627\u0628\u0648 \u0627\u062d\u0645\u062f \u0644\u0644\u0645\u0634\u0648\u064a\u0627\u062a \u0648\u0627\u0644\u0645\u0646\u062f\u064a", "name:en": "Abo Ahmed Grills and Mandi"}}]}