{"version": 0.6, "generator": "Overpass API 0.7.62.7 375dc00a", "osm3s": {"timestamp_osm_base": "2025-06-14T15:38:25Z", "copyright": "The data included in this document is from www.openstreetmap.org. The data is made available under ODbL."}, "elements": [{"type": "node", "id": 1150652393, "lat": 7.0509528, "lon": 38.4737586, "tags": {"amenity": "restaurant", "name": "Selam Garden Restaurant", "source": "300TDI"}}, {"type": "node", "id": 1445270894, "lat": 7.0472385, "lon": 38.4627464, "tags": {"amenity": "restaurant", "cuisine": "italian", "name": "Venezia Resaurant"}}, {"type": "node", "id": 1692267406, "lat": 7.0479824, "lon": 38.4662491, "tags": {"amenity": "restaurant", "cuisine": "italian", "name": "Dolche", "name:en": "Dolce Pizza Pin"}}, {"type": "node", "id": 1694032953, "lat": 7.0583842, "lon": 38.4930803, "tags": {"amenity": "restaurant", "name": "Lewi Cafe"}}, {"type": "node", "id": 4486589789, "lat": 7.0483104, "lon": 38.4776392, "tags": {"amenity": "cafe", "name:en": "Time cafe"}}, {"type": "node", "id": 4486590690, "lat": 7.047533, "lon": 38.4858449, "tags": {"amenity": "restaurant", "name": "\u1218\u12a0\u12f5", "name:am": "\u1218\u12a0\u12f5", "name:en": "Mead"}}, {"type": "node", "id": 4504594491, "lat": 7.0502819, "lon": 38.4856635, "tags": {"amenity": "restaurant", "name:en": "Lewi Hotel Menehariya"}}, {"type": "node", "id": 4504594492, "lat": 7.0508345, "lon": 38.4855396, "tags": {"amenity": "restaurant", "name:en": "Adane Girma Sport In"}}, {"type": "node", "id": 4504626490, "lat": 7.0380472, "lon": 38.4970122, "tags": {"amenity": "restaurant", "internet_access": "wlan", "name": "Gezehagn Resort", "name:en": "Gezehagn & Elfinesh Resort"}}, {"type": "node", "id": 4518598991, "lat": 7.0552201, "lon": 38.4933184, "tags": {"amenity": "cafe", "cuisine": "coffee_shop"}}, {"type": "node", "id": 4518598992, "lat": 7.0554677, "lon": 38.4937181, "tags": {"amenity": "cafe", "cuisine": "coffee_shop"}}, {"type": "node", "id": 4518598993, "lat": 7.0555901, "lon": 38.493702, "tags": {"amenity": "cafe", "cuisine": "coffee_shop"}}, {"type": "node", "id": 4518598994, "lat": 7.0557152, "lon": 38.4936644, "tags": {"amenity": "cafe", "cuisine": "coffee_shop"}}, {"type": "node", "id": 4518598995, "lat": 7.0563009, "lon": 38.4935384, "tags": {"amenity": "cafe", "cuisine": "coffee_shop"}}, {"type": "node", "id": 4518598996, "lat": 7.0564553, "lon": 38.4935035, "tags": {"amenity": "cafe", "cuisine": "coffee_shop"}}, {"type": "node", "id": 4518598997, "lat": 7.0565617, "lon": 38.4935008, "tags": {"amenity": "cafe", "cuisine": "coffee_shop"}}, {"type": "node", "id": 4553742338, "lat": 7.0500062, "lon": 38.485581, "tags": {"amenity": "cafe", "name:en": "Lewi Cafe"}}, {"type": "node", "id": 4558271589, "lat": 7.0652897, "lon": 38.4765287, "tags": {"amenity": "restaurant", "name:en": "gored gored"}}, {"type": "node", "id": 4601173880, "lat": 7.0468548, "lon": 38.478847, "tags": {"amenity": "cafe", "cuisine": "coffee_shop", "name": "Yemra Cafe", "name:en": "Yemra Cafe"}}, {"type": "node", "id": 4601173882, "lat": 7.0486157, "lon": 38.4772401, "tags": {"amenity": "restaurant", "cuisine": "pizza", "name": "Hani Juice and Pizza", "name:en": "Hani Juice and Pizza"}}, {"type": "node", "id": 4608269190, "lat": 7.0511745, "lon": 38.4947314, "tags": {"amenity": "restaurant", "name": "Zebra Grill"}}, {"type": "node", "id": 4641552989, "lat": 7.0642088, "lon": 38.4762806, "tags": {"amenity": "restaurant", "cuisine": "italian_pizza", "name": "Dolce Italian Restaurant", "name:am": "Dolce Italian Restaurant", "name:en": "Dolce Italian Restaurant"}}, {"type": "node", "id": 4750880129, "lat": 7.0497161, "lon": 38.4645749, "tags": {"amenity": "restaurant", "name": "Hi-Life Restaurant"}}, {"type": "node", "id": 4752382370, "lat": 7.04835, "lon": 38.4778233, "tags": {"amenity": "restaurant", "name": "Time Caf\u00e9"}}, {"type": "node", "id": 4806390022, "lat": 7.0383376, "lon": 38.4842894, "tags": {"amenity": "cafe", "name:en": "Patrida Cafe & Restaurant", "phone": "0916827575"}}, {"type": "node", "id": 5119115023, "lat": 7.0466911, "lon": 38.4789252, "tags": {"amenity": "cafe", "name": "Yemra Cafe Atenet"}}, {"type": "node", "id": 5277497123, "lat": 7.0509821, "lon": 38.4675694, "tags": {"amenity": "cafe", "name:en": "Konjo Buna"}}, {"type": "node", "id": 5658977554, "lat": 7.0436019, "lon": 38.4805157, "tags": {"amenity": "cafe", "name": "\u12a8\u122b\u12f2\u12ee\u1295", "name:en": "Keradiyon"}}, {"type": "node", "id": 5658977706, "lat": 7.0493559, "lon": 38.4695844, "tags": {"amenity": "restaurant", "name:en": "Monica restaurant"}}, {"type": "node", "id": 5995711085, "lat": 7.0572672, "lon": 38.4786367, "tags": {"amenity": "cafe", "name": "\u123b\u12aa\u122d", "name:en": "Shakir"}}, {"type": "node", "id": 6557495185, "lat": 7.0528699, "lon": 38.4692103, "tags": {"amenity": "cafe", "name": "\u134d\u1245\u122d \u1261\u1293", "name:en": "Fikir Buna"}}, {"type": "node", "id": 6637214085, "lat": 7.0634946, "lon": 38.4808177, "tags": {"amenity": "cafe", "cuisine": "ethiopian;breakfast", "name": "\u1263\u12a8\u1276", "name:en": "Baketo", "phone": "+251916828526"}}, {"type": "node", "id": 6837566285, "lat": 7.0530608, "lon": 38.4689415, "tags": {"amenity": "restaurant", "name": "\u1261\u12ab \u1263\u122d", "name:en": "Buka Bar"}}, {"type": "node", "id": 6897683685, "lat": 7.0524279, "lon": 38.4685994, "tags": {"amenity": "restaurant", "name:en": "Tropical Burger"}}, {"type": "node", "id": 7089337485, "lat": 7.0502787, "lon": 38.4851557, "tags": {"amenity": "restaurant", "name:en": "\u1219\u120c \u1263\u122d\u1293 \u122c\u1235\u1276\u122b\u1295\u1275"}}, {"type": "node", "id": 7220552854, "lat": 7.0532068, "lon": 38.4694451, "tags": {"amenity": "restaurant", "cuisine": "ethiopian", "level": "0", "name": "Jubi House"}}, {"type": "node", "id": 7222099363, "lat": 7.0496756, "lon": 38.4752061, "tags": {"amenity": "cafe", "level": "0", "name": "Yerma", "outdoor_seating": "yes", "smoking": "outside"}}, {"type": "node", "id": 8065197285, "lat": 7.049329, "lon": 38.4869343, "tags": {"amenity": "cafe", "name": "\u122e\u121d 1960 \u12ab\u134c", "name:en": "Rome 1960 Kids Cafe"}}, {"type": "node", "id": 8150729718, "lat": 7.0413678, "lon": 38.479206, "tags": {"amenity": "restaurant", "name": "\u12d8\u1265\u122d", "name:en": "Zebir"}}, {"type": "node", "id": 8354675917, "lat": 7.0517076, "lon": 38.4757277, "tags": {"amenity": "cafe", "name:en": "Sancho mic home"}}, {"type": "node", "id": 8712840517, "lat": 7.0435489, "lon": 38.4942104, "tags": {"amenity": "restaurant", "name": "\u130d\u122a\u1295 \u12ab\u134c\u1293 \u122c\u1235\u1276\u122b\u1295\u1275", "name:en": "Green cafe & Restaurant"}}, {"type": "node", "id": 8860508817, "lat": 7.0443835, "lon": 38.4781141, "tags": {"addr:street": "\u1275\u1229\u134b\u1275 \u1308\u1265\u122d\u12a4\u120d", "amenity": "restaurant", "name": "\u12ca\u1290\u122d", "name:en": "Winner"}}, {"type": "node", "id": 9379954538, "lat": 7.0521978, "lon": 38.4709122, "tags": {"amenity": "restaurant"}}, {"type": "node", "id": 9379954539, "lat": 7.0511576, "lon": 38.4708461, "tags": {"amenity": "restaurant"}}, {"type": "node", "id": 9776434702, "lat": 7.0453225, "lon": 38.4921897, "tags": {"amenity": "cafe"}}, {"type": "node", "id": 11209959237, "lat": 7.0585162, "lon": 38.4898343, "tags": {"addr:street": "\u130e\u12f5\u1313\u12f3 \u1230\u1348\u122d", "amenity": "cafe", "cuisine": "ethiopian", "internet_access": "wlan", "name": "\u12dc\u12f5 \u1218\u1243\u121d\u12eb \u1264\u1275", "name:en": "Z Khat Mekamia", "opening_hours": "24/7"}}, {"type": "node", "id": 11215669945, "lat": 7.0545077, "lon": 38.48185, "tags": {"amenity": "restaurant", "name": "\u1200\u1260\u123d \u12e8\u1219\u1235\u120a\u121d  \u122c\u1225\u1276\u122b\u1295\u1275", "name:en": "HABESH MUSLIM RESTAURANT"}}, {"type": "node", "id": 11215670638, "lat": 7.0551026, "lon": 38.4822215, "tags": {"amenity": "restaurant", "name": "\u1301\u1208\u12ed\u1262\u1265 \u12e8\u1219\u1235\u120a\u121d \u122c\u1235\u1276\u122b\u1295\u1275", "name:en": "JULEYBIB MUSLIM RESTAURANT"}}, {"type": "node", "id": 11225190637, "lat": 7.0412701, "lon": 38.4831157, "tags": {"addr:housenumber": "1", "addr:street": "Tirufat Konduminium Street", "amenity": "restaurant", "cuisine": "ethiopian", "name:de": "Funche Shiro", "name:en": "Funche Shiro"}}]}