{"version": 0.6, "generator": "Overpass API 0.7.62.7 375dc00a", "osm3s": {"timestamp_osm_base": "2025-06-14T13:18:00Z", "copyright": "The data included in this document is from www.openstreetmap.org. The data is made available under ODbL."}, "elements": [{"type": "node", "id": 2786915009, "lat": 3.7571892, "lon": 8.7813936}, {"type": "node", "id": 2786915013, "lat": 3.7572299, "lon": 8.7817842}, {"type": "node", "id": 2786915017, "lat": 3.7573226, "lon": 8.7813797}, {"type": "node", "id": 2786915023, "lat": 3.7573856, "lon": 8.7815449}, {"type": "node", "id": 2786915025, "lat": 3.757364, "lon": 8.7817167}, {"type": "node", "id": 2889841221, "lat": 3.7520867, "lon": 8.7794401, "tags": {"amenity": "restaurant", "name": "Acacio Mane Ela"}}, {"type": "node", "id": 2889841224, "lat": 3.753494, "lon": 8.7827771, "tags": {"amenity": "restaurant", "name": "Cachirulo"}}, {"type": "node", "id": 2889841225, "lat": 3.7542714, "lon": 8.780773, "tags": {"addr:city": "Malabo", "amenity": "cafe", "name": "Caf\u00e9 Kristiana", "name:es": "Caf\u00e9 Kristiana", "name:fr": "Caf\u00e9 Kristiana", "phone": "333-09-1330"}}, {"type": "node", "id": 2889841228, "lat": 3.7540026, "lon": 8.7776334, "tags": {"amenity": "restaurant", "name": "Carrefour"}}, {"type": "node", "id": 2889841229, "lat": 3.7549244, "lon": 8.7776345, "tags": {"addr:city": "Malabo", "addr:street": "Avenida de la Independencia", "amenity": "restaurant", "cuisine": "french", "is_in:city": "Malabo", "is_in:country": "Equatorial Guinea", "is_in:state": "Bioko Norte", "name": "Delice de France", "source": "http://www.egvistas.com/"}}, {"type": "node", "id": 2889841237, "lat": 3.7537844, "lon": 8.7796433, "tags": {"addr:city": "Malabo", "amenity": "cafe", "internet_access": "yes", "internet_access:fee": "yes", "name": "Internet", "name:es": "Internet", "name:fr": "Internet"}}, {"type": "node", "id": 2889841238, "lat": 3.7569108, "lon": 8.7789162, "tags": {"addr:housenumber": "271", "addr:street": "Calle de Argelia", "addr:street:fr": "Rue de l'Alg\u00e9rie", "amenity": "restaurant", "name": "La Luna", "name:es": "La Luna", "note": "information used with permission", "phone": "333-09-6096", "source": "http://www.egvistas.com/"}}, {"type": "node", "id": 2889841241, "lat": 3.7535897, "lon": 8.7759698, "tags": {"addr:street": "Avenida de Hasan II", "amenity": "restaurant", "is_in:city": "Malabo", "is_in:country": "Equatorial Guinea", "is_in:state": "Bioko Norte", "name": "Pizza Place", "note": "information used with permission", "source": "http://www.egvistas.com/"}}, {"type": "node", "id": 2889841243, "lat": 3.7529342, "lon": 8.7791834, "tags": {"amenity": "cafe", "internet_access": "yes", "internet_access:fee": "yes", "name": "Proser Net"}}, {"type": "node", "id": 2889841244, "lat": 3.7541848, "lon": 8.7775301, "tags": {"amenity": "restaurant", "name": "Salam"}}, {"type": "node", "id": 2889841248, "lat": 3.7535437, "lon": 8.7778408, "tags": {"amenity": "restaurant", "name": "Terraza Betty"}}, {"type": "node", "id": 3078617747, "lat": 3.7553935, "lon": 8.7778116, "tags": {"addr:city": "Malabo", "addr:housenumber": "493", "addr:street": "Avenida de la Independencia", "amenity": "cafe", "is_in:city": "Malabo", "is_in:country": "Equatorial Guinea", "is_in:state": "Bioko Norte", "name": "Caf\u00e9 Malabo", "name:es": "Caf\u00e9 Malabo", "note": "used with permission", "phone": "333-09-4049", "source": "http://www.egvistas.com/"}}, {"type": "node", "id": 3078617792, "lat": 3.7548476, "lon": 8.7768329, "tags": {"amenity": "restaurant", "cuisine": "pizza"}}, {"type": "node", "id": 3146837641, "lat": 3.7572387, "lon": 8.7817833}, {"type": "node", "id": 3146837642, "lat": 3.757241, "lon": 8.7818052}, {"type": "node", "id": 3146837644, "lat": 3.7573287, "lon": 8.7814386}, {"type": "node", "id": 3146837651, "lat": 3.7573644, "lon": 8.7814349}, {"type": "node", "id": 3146837654, "lat": 3.7573718, "lon": 8.7817916}, {"type": "node", "id": 3146837655, "lat": 3.7573759, "lon": 8.7815459}, {"type": "node", "id": 3146837660, "lat": 3.7574031, "lon": 8.7817126}, {"type": "node", "id": 3151341328, "lat": 3.7556439, "lon": 8.7248036, "tags": {"addr:city": "Malabo", "addr:street": "Carretera del Aeropuerto", "amenity": "restaurant", "is_in:country": "Equatorial Guinea", "is_in:state": "Bioko Norte", "name": "Aqua Bar and Grill", "name:es": "Bar de Agua y Parrilla", "note": "By the pool - Hilton Hotel. Used with permission.", "phone": "333-09-6811", "source": "http://www.egvistas.com/"}}, {"type": "node", "id": 3151341329, "lat": 3.7557342, "lon": 8.7242002, "tags": {"addr:street": "Carretera del Aeropuerto", "amenity": "restaurant", "cuisine": "regional", "name": "Gusto", "name:es": "Gusto", "note": "Lobby area - Hilton Hotel. Used with permission.", "phone": "333-09-6811", "source": "http://www.egvistas.com/"}}, {"type": "node", "id": 3151341330, "lat": 3.7558116, "lon": 8.7245058, "tags": {"addr:street": "Carretera del Aeropuerto", "amenity": "restaurant", "name": "Bar Piano", "name:es": "Bar Piano", "note": "Lobby area - Hilton Hotel. Used with permission.", "phone": "333-09-6811", "source": "http://www.egvistas.com/"}}, {"type": "node", "id": 3151789258, "lat": 3.7524844, "lon": 8.9088137, "tags": {"amenity": "restaurant", "is_in:city": "Sipopo", "is_in:country": "Equatorial Guinea", "is_in:state": "Bioko Norte", "name": "Equatore Restaurant", "note": "Buffet and a la carte. Used with permission.", "phone": "350-09-1010/1", "source": "http://www.egvistas.com/", "website": "www.sofitel.com"}}, {"type": "node", "id": 3151789259, "lat": 3.7526016, "lon": 8.9080339, "tags": {"amenity": "restaurant", "is_in:city": "Sipopo", "is_in:country": "Equatorial Guinea", "is_in:state": "Bioko Norte", "name": "Le Cacaoyer", "note": "Bar and lounge. Used with permission.", "phone": "350-09-1010/1", "source": "http://www.egvistas.com/"}}, {"type": "node", "id": 3151815199, "lat": 3.7258007, "lon": 8.7660721, "tags": {"addr:street": "Carretera Timbabe", "amenity": "restaurant", "email": "flarexhotel@yahoo.es", "name": "Flarex Hotel Restaurant", "note": "Rotonda del Balon (Near the Stadium). Used with permission.", "operator": "Flarex", "phone": "222-21-0159", "source": "http://www.egvistas.com/"}}, {"type": "node", "id": 3151815202, "lat": 3.7574062, "lon": 8.7838575, "tags": {"amenity": "restaurant", "brand": "Sofitel", "brand:fr": "Sofitel", "brand:wikidata": "Q749431", "name": "Restaurant Sofitel", "name:fr": "Restaurant Sofitel", "operator": "Sofitel", "operator:fr": "Sofitel", "operator:wikidata": "Q749431", "phone": "333-09-0061"}}, {"type": "node", "id": 3171523906, "lat": 3.7511928, "lon": 8.7804697, "tags": {"addr:city": "Malabo", "addr:street": "Calle del Rey Malabo", "amenity": "restaurant", "is_in:city": "Malabo", "is_in:country": "Equatorial Guinea", "is_in:state": "Bioko Norte", "name": "Abui\u00f1 Asi", "name:es": "Abui\u00f1 Asi", "note": "used with permission", "source": "http://www.egvistas.com/"}}, {"type": "node", "id": 3171523907, "lat": 3.7506886, "lon": 8.7795555, "tags": {"addr:street": "Calle del Alcalde Abilio Balboa", "amenity": "restaurant", "is_in:city": "Malabo", "is_in:country": "Equatorial Guinea", "is_in:state": "Bioko Norte", "name": "Al\u00ed Bab\u00e1", "name:es": "Al\u00ed Bab\u00e1", "name:fr": "Ali Baba", "note": "used with permission", "source": "http://www.egvistas.com/"}}, {"type": "node", "id": 3171523908, "lat": 3.7525707, "lon": 8.7762182, "tags": {"addr:street": "Calle Mongomo", "amenity": "restaurant", "cuisine": "chinese", "email": "ninazengmin@yahoo.com.cn", "is_in:city": "Malabo", "is_in:country": "Equatorial Guinea", "is_in:state": "Bioko Norte", "name": "Bantu", "note": "used with permission", "phone": "333-09-0738", "phone2": "222-28-0160", "phone3": "222-27-2283", "source": "http://www.egvistas.com/"}}, {"type": "node", "id": 3200765602, "lat": 3.752824, "lon": 8.7790532, "tags": {"addr:housenumber": "138", "addr:street": "Av de la Libertad", "amenity": "restaurant", "is_in:city": "Malabo", "is_in:country": "Equatorial Guinea", "is_in:state": "Bioko Norte", "name": "Bantu Village", "note": "used with permission", "phone": "222-12-1378/9", "source": "http://www.egvistas.com/", "website": "https://www.facebook.com/bantuvillage"}}, {"type": "node", "id": 3200765604, "lat": 3.7508779, "lon": 8.7806768, "tags": {"addr:city": "Malabo", "addr:street": "Calle del Rey Malabo", "amenity": "restaurant", "name": "El Refugio", "name:es": "El Refugio", "source": "http://www.egvistas.com/"}}, {"type": "node", "id": 3213220116, "lat": 3.7502641, "lon": 8.7750832}, {"type": "node", "id": 3291757676, "lat": 3.7547119, "lon": 8.7766434, "tags": {"addr:street": "Av de la Independencia", "amenity": "restaurant", "cuisine": "italian", "is_in:city": "Malabo", "is_in:country": "Equatorial Guinea", "is_in:state": "Bioko Norte", "name": "Bidji Bi\u00f1ia", "note": "used with permission", "phone": "222-11-1999", "source": "http://www.egvistas.com/"}}, {"type": "node", "id": 3291757677, "lat": 3.7567949, "lon": 8.7806004, "tags": {"addr:city": "Malabo", "addr:housenumber": "825", "addr:street": "Avenida de la Independencia", "addr:street:fr": "Avenue de l'Ind\u00e9pendance", "amenity": "restaurant", "name": "Dulcer\u00eda y Pizzer\u00eda", "name:es": "Dulcer\u00eda y Pizzer\u00eda", "name:fr": "Confiserie et Pizzeria", "phone": "333-09-3450"}}, {"type": "node", "id": 3291757678, "lat": 3.7534801, "lon": 8.784408, "tags": {"addr:housenumber": "105", "addr:street": "Calle Hipolito Micha", "amenity": "restaurant", "is_in:city": "Malabo", "is_in:country": "Equatorial Guinea", "is_in:state": "Bioko Norte", "name": "Candy 2", "note": "used with permission", "phone": "333-09-9932", "source": "http://www.egvistas.com/"}}, {"type": "node", "id": 3291757679, "lat": 3.7563068, "lon": 8.7391143, "tags": {"addr:street": "Carretera del Aeropuerto", "amenity": "restaurant", "is_in:city": "Malabo", "is_in:country": "Equatorial Guinea", "is_in:state": "Bioko Norte", "name": "Complejo El Caribe", "note": "used with permission", "phone": "666-59-2231", "source": "http://www.egvistas.com/"}}, {"type": "node", "id": 3298904678, "lat": 3.7556518, "lon": 8.7803328, "tags": {"addr:housenumber": "87", "addr:street": "Calle del Rey Boncoro", "amenity": "restaurant", "is_in:city": "Malabo", "is_in:country": "Equatorial Guinea", "is_in:state": "Bioko Norte", "name": "Consty Bon Appetit", "note": "information used with permission", "phone": "222-558-888", "source": "http://www.egvistas.com/"}}, {"type": "node", "id": 3298904679, "lat": 3.7415303, "lon": 8.7355825, "tags": {"addr:street": "Autovia Malabo II", "amenity": "restaurant", "cuisine": "cuban", "is_in:country": "Equatorial Guinea", "name": "Da Vinci", "note": "Information used with permission. Approximate location.", "phone": "222-53-9063", "source": "http://www.egvistas.com/"}}, {"type": "node", "id": 3298904681, "lat": 3.7531193, "lon": 8.7772333, "tags": {"addr:housenumber": "219", "addr:street": "Calle Mongomo", "amenity": "restaurant", "email": "Donfaustino45@gmail.com", "is_in:city": "Malabo", "is_in:country": "Equatorial Guinea", "is_in:state": "Bioko Norte", "name": "Don Faustino's", "note": "information used with permission", "phone": "333-09-9932", "source": "http://www.egvistas.com/"}}, {"type": "node", "id": 3299210014, "lat": 3.758026, "lon": 8.7162869, "tags": {"amenity": "restaurant", "is_in:city": "Malabo", "is_in:country": "Equatorial Guinea", "is_in:state": "Bioko Norte", "name": "Gran Reserva", "note": "Information used with permission. Actual location at the airport unknown.", "phone": "222-524-219", "source": "http://www.egvistas.com/"}}, {"type": "node", "id": 3299210015, "lat": 3.739062, "lon": 8.7400431, "tags": {"addr:housenumber": "2", "addr:street": "Autopista de Malabo", "amenity": "restaurant", "name": "Restaurante Imagine", "name:es": "Restaurante Imagine", "phone": "222-51-8626", "website": "https://www.restaurante-imagine.com/"}}, {"type": "node", "id": 3299210017, "lat": 3.7482194, "lon": 8.7748966, "tags": {"addr:street": "Avenue Hassan II", "addr:street:fr": "Avenue Hassan II", "amenity": "restaurant", "cuisine": "lebanese", "name": "Layalia", "name:fr": "Layalia"}}, {"type": "node", "id": 3299210019, "lat": 3.754718, "lon": 8.7787792, "tags": {"addr:city": "Malabo", "addr:street": "Calle de Nigeria", "amenity": "restaurant", "is_in:city": "Malabo", "is_in:country": "Equatorial Guinea", "is_in:state": "Bioko Norte", "name": "Pasteler\u00eda Tamara", "name:es": "Pasteler\u00eda Tamara", "note": "information used with permission", "source": "http://www.egvistas.com/"}}, {"type": "node", "id": 3301051290, "lat": 3.7532249, "lon": 8.7791656, "tags": {"addr:city": "Malabo", "addr:city:fr": "Malabo", "addr:housenumber": "143", "addr:street": "Avenida de la Libertad", "addr:street:fr": "Avenue de la Libert\u00e9", "amenity": "restaurant", "cuisine": "bakery;deli", "email": "tivoli.ge@gmail.com", "name": "T\u00edvoli", "name:es": "T\u00edvoli", "name:fr": "Tivoli", "phone": "333-09-3609"}}, {"type": "node", "id": 3301051292, "lat": 3.753703, "lon": 8.7827261, "tags": {"addr:housenumber": "390", "addr:street": "Av del 3 de Agosto", "amenity": "restaurant", "is_in:city": "Malabo", "is_in:country": "Equatorial Guinea", "is_in:state": "Bioko Norte", "name": "Yogui", "note": "information used with permission", "phone": "555-84-8654", "source": "http://www.egvistas.com/"}}, {"type": "node", "id": 4510850691, "lat": 3.740618, "lon": 8.7378468, "tags": {"addr:postcode": "240", "addr:street": "Carretera del Aeropuerto", "amenity": "restaurant", "name:es": "O Yal Chees"}}, {"type": "node", "id": 4914139224, "lat": 3.75049, "lon": 8.7776854, "tags": {"addr:city": "Malabo", "amenity": "restaurant", "name": "El Bistr\u00f3", "name:es": "El Bistr\u00f3"}}, {"type": "node", "id": 4933888734, "lat": 3.7554015, "lon": 8.7246146, "tags": {"addr:city": "Malabo", "addr:street": "Carretera del Aeropuerto", "amenity": "restaurant", "name": "Restaurante Teatro", "name:es": "Restaurante Teatro", "note": "Lower Lobby - Hilton Hotel. Used with permission.", "phone": "333-09-6811", "source": "http://www.egvistas.com/"}}, {"type": "node", "id": 5524503981, "lat": 3.7534151, "lon": 8.7752845, "tags": {"amenity": "restaurant", "cuisine": "japanese", "name": "Yutaka"}}, {"type": "node", "id": 5695491622, "lat": 3.7532456, "lon": 8.779605, "tags": {"amenity": "restaurant", "name:en": "EL Hard Rock"}}, {"type": "node", "id": 5722136621, "lat": 3.744388, "lon": 8.7694778, "tags": {"amenity": "restaurant", "name:en": "Bar Restaurante Tierra de Sabores"}}, {"type": "node", "id": 5794319775, "lat": 3.7518713, "lon": 8.7769597, "tags": {"amenity": "restaurant", "name": "La Valenciana"}}, {"type": "node", "id": 5794332079, "lat": 3.7549466, "lon": 8.7825682, "tags": {"addr:city": "Malabo", "amenity": "restaurant", "name": "El Patio", "name:es": "El Patio", "name:fr": "El Patio"}}, {"type": "node", "id": 5810518253, "lat": 3.738557, "lon": 8.763619, "tags": {"amenity": "restaurant", "cuisine": "african;fish", "name": "Restaurante Salimata Senegalese", "name:es": "Restaurante Salimata Senegalese"}}, {"type": "node", "id": 5836899985, "lat": 3.7501604, "lon": 8.7775927, "tags": {"amenity": "restaurant", "name": "La Bocater\u00eda", "name:es": "La Bocater\u00eda", "phone": "+240222724414"}}, {"type": "node", "id": 5849871589, "lat": 3.7528202, "lon": 8.7806551, "tags": {"amenity": "restaurant", "cuisine": "african", "name:en": "Restaurante Senegal\u00e9s - Wakeur Serigne Touba"}}, {"type": "node", "id": 6308280890, "lat": 3.7600266, "lon": 8.9014648, "tags": {"amenity": "restaurant", "name:en": "La Gaviota"}}, {"type": "node", "id": 6343378885, "lat": 3.6923357, "lon": 8.7722753, "tags": {"amenity": "restaurant", "cuisine": "moroccan", "name:en": "El Rancho", "name:ru": "\u0420\u0430\u043d\u0447\u043e"}}, {"type": "node", "id": 6601381401, "lat": 3.7584124, "lon": 8.9021161, "tags": {"amenity": "restaurant", "name": "La Bola"}}, {"type": "node", "id": 8442143017, "lat": 3.7538424, "lon": 8.7442218, "tags": {"addr:street": "Carretera del Aeropuerto", "amenity": "restaurant", "name:es": "Miramar - Acropole"}}, {"type": "node", "id": 9554184978, "lat": 3.7404675, "lon": 8.7576239, "tags": {"addr:city": "Malabo", "amenity": "cafe", "cuisine": "coffee_shop", "name": "Cafeter\u00eda Muankaba", "outdoor_seating": "no"}}, {"type": "node", "id": 9860329418, "lat": 3.7514698, "lon": 8.7477324, "tags": {"amenity": "restaurant", "internet_access": "wlan", "name": "Restaurante Caf\u00e9 Bar"}}, {"type": "node", "id": 10731442847, "lat": 3.7511314, "lon": 8.7861739, "tags": {"amenity": "restaurant", "name": "T\u00eda Mari"}}, {"type": "node", "id": 10740082113, "lat": 3.7516138, "lon": 8.7703658}, {"type": "node", "id": 10740082114, "lat": 3.7514842, "lon": 8.7703605}, {"type": "node", "id": 10740082115, "lat": 3.7514744, "lon": 8.7705238}, {"type": "node", "id": 10740082116, "lat": 3.7516071, "lon": 8.7705203}, {"type": "node", "id": 10766700492, "lat": 3.7445459, "lon": 8.736399, "tags": {"amenity": "restaurant", "name": "L'Oriental"}}, {"type": "node", "id": 11117417789, "lat": 3.7500919, "lon": 8.7750585}, {"type": "node", "id": 11117417790, "lat": 3.7500858, "lon": 8.7752003}, {"type": "node", "id": 11117417791, "lat": 3.7502579, "lon": 8.7752218}, {"type": "node", "id": 11142029752, "lat": 3.719458, "lon": 8.7480848, "tags": {"amenity": "restaurant", "name": "Caf\u00e9 Malabo"}}, {"type": "node", "id": 11142029755, "lat": 3.7191561, "lon": 8.748012, "tags": {"amenity": "restaurant"}}, {"type": "node", "id": 11142087380, "lat": 3.7364647, "lon": 8.767376, "tags": {"amenity": "restaurant", "name": "Ureka Falls"}}, {"type": "way", "id": 273891914, "nodes": [3146837644, 3146837651, 3146837655, 2786915023, 3146837660, 2786915025, 3146837654, 3146837642, 3146837641, 2786915013, 2786915009, 2786915017, 3146837644], "tags": {"addr:city": "Malabo", "addr:street": "Avenida de la Independencia", "addr:street:fr": "Avenue de l'Ind\u00e9pendance", "amenity": "restaurant", "building": "yes", "name": "Isla del Tesoro", "name:es": "Isla del Tesoro", "name:fr": "Ile au Tr\u00e9sor", "status": "abandoned"}}, {"type": "way", "id": 1154847127, "nodes": [10740082113, 10740082114, 10740082115, 10740082116, 10740082113], "tags": {"amenity": "restaurant", "building": "yes", "name": "Restaurante Terraza D'Ambo"}}, {"type": "way", "id": 1198440879, "nodes": [3213220116, 11117417789, 11117417790, 11117417791, 3213220116], "tags": {"addr:city": "Malabo", "addr:street": "Avda. Hassan II, s/n", "addr:street:fr": "Avenue Hassan II", "amenity": "restaurant", "building": "yes", "name": "Restaurante Afribrasa", "name:fr": "Restaurant Afribrasa"}}]}