{"version": 0.6, "generator": "Overpass API 0.7.62.7 375dc00a", "osm3s": {"timestamp_osm_base": "2025-06-14T14:46:28Z", "copyright": "The data included in this document is from www.openstreetmap.org. The data is made available under ODbL."}, "elements": [{"type": "node", "id": 2394566492, "lat": 36.7617499, "lon": 24.5252425, "tags": {"amenity": "restaurant", "cuisine": "greek", "name": "\u0391\u03c0\u03b1\u03bd\u03b5\u03bc\u03b9\u03ac", "name:el": "\u0391\u03c0\u03b1\u03bd\u03b5\u03bc\u03b9\u03ac", "name:en": "Apanemia"}}, {"type": "node", "id": 2394566495, "lat": 36.7637365, "lon": 24.5271815, "tags": {"amenity": "restaurant", "cuisine": "greek", "name": "\u0393\u03b9\u03b1\u03bb\u03cc\u03c2", "name:el": "\u0393\u03b9\u03b1\u03bb\u03cc\u03c2", "name:en": "Gialos"}}, {"type": "node", "id": 2394566509, "lat": 36.7634768, "lon": 24.5267185, "tags": {"amenity": "cafe", "diet:vegan": "yes", "diet:vegetarian": "yes", "int_name": "Rifaki", "name": "\u03a1\u03b9\u03c6\u03ac\u03ba\u03b9", "source": "survey"}}, {"type": "node", "id": 2394566510, "lat": 36.7635145, "lon": 24.5257274, "tags": {"amenity": "restaurant", "cuisine": "greek", "name": "\u0391\u03c1\u03bc\u03b5\u03bd\u03ac\u03ba\u03b9"}}, {"type": "node", "id": 2394569536, "lat": 36.7603036, "lon": 24.5220495}, {"type": "node", "id": 2394569537, "lat": 36.7603036, "lon": 24.5221483}, {"type": "node", "id": 2394569540, "lat": 36.7603351, "lon": 24.5221483}, {"type": "node", "id": 2394569541, "lat": 36.7603351, "lon": 24.52219}, {"type": "node", "id": 2394569542, "lat": 36.7603667, "lon": 24.5221514}, {"type": "node", "id": 2394569543, "lat": 36.7603667, "lon": 24.52219}, {"type": "node", "id": 2394569544, "lat": 36.7604119, "lon": 24.5220495}, {"type": "node", "id": 2394569545, "lat": 36.7604119, "lon": 24.5221514}, {"type": "node", "id": 2394570819, "lat": 36.7251602, "lon": 24.4466129, "tags": {"addr:district": "\u039c\u03ae\u03bb\u03bf\u03c2", "addr:town": "\u0391\u03b4\u03ac\u03bc\u03b1\u03bd\u03c4\u03b1\u03c2", "amenity": "restaurant", "cuisine": "gyros", "int_name": "Gyros tis Milou", "name": "\u0393\u03cd\u03c1\u03bf\u03c2 \u03c4\u03b7\u03c2 \u039c\u03ae\u03bb\u03bf\u03c5", "name:el": "\u0393\u03cd\u03c1\u03bf\u03c2 \u03c4\u03b7\u03c2 \u039c\u03ae\u03bb\u03bf\u03c5", "name:en": "Gyros of Milos", "official_name": "\u039f \u0393\u03cd\u03c1\u03bf\u03c2 \u03c4\u03b7\u03c2 \u039c\u03ae\u03bb\u03bf\u03c5", "outdoor_seating": "yes", "smoking": "yes", "source": "survey", "takeaway": "yes"}}, {"type": "node", "id": 2394570820, "lat": 36.7247058, "lon": 24.44559, "tags": {"amenity": "cafe", "name": "Milors", "outdoor_seating": "yes", "smoking": "yes", "source": "survey"}}, {"type": "node", "id": 2401737026, "lat": 36.7389405, "lon": 24.4257171, "tags": {"amenity": "restaurant", "cuisine": "greek", "int_name": "Glaronisia", "name": "\u0393\u03bb\u03b1\u03c1\u03bf\u03bd\u03ae\u03c3\u03b9\u03b1"}}, {"type": "node", "id": 2401737027, "lat": 36.7386351, "lon": 24.4260569, "tags": {"addr:city": "\u03a4\u03c1\u03c5\u03c0\u03b7\u03c4\u03ae", "addr:country": "GR", "addr:postcode": "84800", "amenity": "restaurant", "cuisine": "regional", "int_name": "Ergina", "name": "\u0395\u03c1\u03b3\u03af\u03bd\u03b1", "name:el": "\u0395\u03c1\u03b3\u03af\u03bd\u03b1", "name:en": "Ergina's"}}, {"type": "node", "id": 2401737031, "lat": 36.7400932, "lon": 24.4244478, "tags": {"amenity": "restaurant", "cuisine": "regional", "int_name": "Methysmeni Politeia", "name": "\u039c\u03b5\u03b8\u03c5\u03c3\u03bc\u03ad\u03bd\u03b7 \u03a0\u03bf\u03bb\u03b9\u03c4\u03b5\u03af\u03b1"}}, {"type": "node", "id": 2444547876, "lat": 36.6751159, "lon": 24.5166979}, {"type": "node", "id": 2444547878, "lat": 36.6751162, "lon": 24.516752}, {"type": "node", "id": 2444547879, "lat": 36.6751175, "lon": 24.5169301}, {"type": "node", "id": 2444547925, "lat": 36.6752463, "lon": 24.5166964}, {"type": "node", "id": 2444547936, "lat": 36.6752595, "lon": 24.5169285}, {"type": "node", "id": 2444547940, "lat": 36.6752567, "lon": 24.5168502}, {"type": "node", "id": 2449875136, "lat": 36.6701506, "lon": 24.4473971, "tags": {"addr:city": "\u03a0\u03c1\u03bf\u03b2\u03b1\u03c4\u03ac\u03c2", "addr:country": "GR", "addr:postcode": "84800", "amenity": "restaurant", "cuisine": "seafood", "name": "Muses"}}, {"type": "node", "id": 2964755936, "lat": 36.7250836, "lon": 24.446605, "tags": {"addr:district": "\u039c\u03ae\u03bb\u03bf\u03c2", "addr:town": "\u0391\u03b4\u03ac\u03bc\u03b1\u03bd\u03c4\u03b1\u03c2", "amenity": "cafe", "int_name": "Aktaion", "name": "\u0391\u03ba\u03c4\u03b1\u03af\u03bf\u03bd", "name:el": "\u0391\u03ba\u03c4\u03b1\u03af\u03bf\u03bd", "name:en": "Aktaion", "outdoor_seating": "yes", "smoking": "yes", "source": "survey"}}, {"type": "node", "id": 2975736235, "lat": 36.7379657, "lon": 24.4268034, "tags": {"amenity": "cafe", "cuisine": "coffee_shop", "int_name": "Remvi", "name": "\u03a1\u03ad\u03bc\u03b2\u03b7"}}, {"type": "node", "id": 2975736237, "lat": 36.7435019, "lon": 24.4238374, "tags": {"amenity": "restaurant", "contact:phone": "+302287021740", "contact:website": "http://milofatses.wordpress.com/", "cuisine": "mediterranean", "int_name": "Fatses", "name": "\u03a6\u03ac\u03c4\u03c3\u03b5\u03c2"}}, {"type": "node", "id": 2976685207, "lat": 36.7441712, "lon": 24.4223482, "tags": {"amenity": "restaurant", "cuisine": "greek", "int_name": "Foras", "name": "\u03a6\u03cc\u03c1\u03b1\u03c2"}}, {"type": "node", "id": 2979625714, "lat": 36.7441031, "lon": 24.4218505, "tags": {"amenity": "cafe", "cuisine": "dessert", "int_name": "Palaios", "name": "\u03a0\u03b1\u03bb\u03b1\u03b9\u03cc\u03c2", "takeaway": "yes"}}, {"type": "node", "id": 2980391922, "lat": 36.7441307, "lon": 24.421575, "tags": {"amenity": "cafe", "cuisine": "coffee_shop", "name": "Utopia"}}, {"type": "node", "id": 2981357817, "lat": 36.738185, "lon": 24.426719, "tags": {"amenity": "restaurant", "cuisine": "pizza", "int_name": "Stasi", "name": "\u0397 \u03a3\u03c4\u03ac\u03c3\u03b7"}}, {"type": "node", "id": 2981531497, "lat": 36.7442362, "lon": 24.4229711, "tags": {"amenity": "cafe", "int_name": "En Plo", "name": "\u0395\u03bd \u03a0\u03bb\u03c9"}}, {"type": "node", "id": 2993348149, "lat": 36.740144, "lon": 24.4332859, "tags": {"amenity": "cafe", "brand": "Coffee Time", "brand:wikidata": "Q5140932", "cuisine": "coffee_shop", "name": "Coffee Time", "takeaway": "yes"}}, {"type": "node", "id": 3573251526, "lat": 36.7246708, "lon": 24.4460581, "tags": {"amenity": "restaurant", "cuisine": "greek", "name": "\u039c\u03b1\u03c1\u03b9\u03ac\u03bd\u03bd\u03b1", "name:el": "\u039c\u03b1\u03c1\u03b9\u03ac\u03bd\u03bd\u03b1", "name:en": "Marianna", "outdoor_seating": "yes", "smoking": "yes", "source": "survey"}}, {"type": "node", "id": 3573251527, "lat": 36.7246648, "lon": 24.4461516, "tags": {"amenity": "restaurant", "cuisine": "greek", "int_name": "Flisvos", "name": "\u03a6\u03bb\u03bf\u03af\u03c3\u03b2\u03bf\u03c2", "name:el": "\u03a6\u03bb\u03bf\u03af\u03c3\u03b2\u03bf\u03c2", "name:en": "Flisvos", "outdoor_seating": "yes", "smoking": "yes", "source": "survey"}}, {"type": "node", "id": 3573251528, "lat": 36.7246216, "lon": 24.4463709, "tags": {"amenity": "restaurant", "cuisine": "greek", "int_name": "Kynigos", "name": "\u039f \u039a\u03c5\u03bd\u03b7\u03b3\u03cc\u03c2", "name:el": "\u039f \u039a\u03c5\u03bd\u03b7\u03b3\u03cc\u03c2", "name:en": "Kynigos", "outdoor_seating": "yes", "smoking": "yes", "source": "survey"}}, {"type": "node", "id": 3601656823, "lat": 36.7246978, "lon": 24.4457898, "tags": {"amenity": "cafe", "cuisine": "coffee_shop", "name": "Anezina", "outdoor_seating": "yes", "smoking": "yes", "source": "survey"}}, {"type": "node", "id": 3601656824, "lat": 36.7247082, "lon": 24.445716, "tags": {"amenity": "cafe", "name": "Egoist", "outdoor_seating": "yes", "smoking": "yes", "source": "survey"}}, {"type": "node", "id": 3601665803, "lat": 36.7246369, "lon": 24.445453, "tags": {"amenity": "restaurant", "cuisine": "gyros;kebab", "name": "Let's meat", "outdoor_seating": "yes", "smoking": "yes", "source": "survey", "toilets:wheelchair": "no", "was:cuisine": "greek", "was:int_name": "Mileiko", "was:name": "\u039c\u03b7\u03bb\u03ad\u03b9\u03ba\u03bf", "was:name:el": "\u039c\u03b7\u03bb\u03ad\u03b9\u03ba\u03bf", "wheelchair": "yes", "wheelchair:description": "Whole restaurant accesible except toilets"}}, {"type": "node", "id": 3611888316, "lat": 36.7254649, "lon": 24.4470363, "tags": {"addr:country": "GR", "addr:place": "\u0391\u03b4\u03ac\u03bc\u03b1\u03bd\u03c4\u03b1\u03c2", "alt_name": "\u0393\u03b9\u03ac\u03b3\u03ba\u03bf\u03c2", "amenity": "restaurant", "cuisine": "pizza", "name": "Yankos", "name:en": "Yankos", "outdoor_seating": "yes", "smoking": "yes", "source": "survey"}}, {"type": "node", "id": 3617523132, "lat": 36.7244395, "lon": 24.4448916, "tags": {"amenity": "cafe", "cuisine": "coffee_shop", "name": "Mostra", "name:en": "Mostra", "source": "survey"}}, {"type": "node", "id": 3627356816, "lat": 36.7222649, "lon": 24.4585416, "tags": {"addr:country": "GR", "addr:place": "\u0391\u03b4\u03ac\u03bc\u03b1\u03bd\u03c4\u03b1\u03c2", "amenity": "restaurant", "contact:phone": "+302287021672", "contact:website": "http://www.ohamos-milos.gr/", "cuisine": "greek", "int_name": "O! Chamos", "name": "\u03a9! \u03a7\u03b1\u03bc\u03cc\u03c2", "outdoor_seating": "yes", "smoking": "yes", "source": "survey"}}, {"type": "node", "id": 4307664592, "lat": 36.7929356, "lon": 24.5745165, "tags": {"amenity": "restaurant", "cuisine": "greek;local", "email": "sablicity@yahoo.com", "internet_access": "wlan", "name": "\u0397 \u0391\u03c5\u03bb\u03ae \u03c4\u03bf\u03c5 \u03a3\u03ac\u03bc\u03c0\u03bb\u03bf\u03c5", "phone": "2287051666"}}, {"type": "node", "id": 4370907400, "lat": 36.7439728, "lon": 24.421969, "tags": {"amenity": "restaurant", "int_name": "Arhontoula", "name": "\u0391\u03c1\u03c7\u03bf\u03bd\u03c4\u03bf\u03cd\u03bb\u03b1"}}, {"type": "node", "id": 4382111453, "lat": 36.7279123, "lon": 24.4661359, "tags": {"amenity": "restaurant", "name": "\u0391\u03bb\u03b5\u03c5\u03c1\u03cc\u03bc\u03c5\u03bb\u03bf\u03c2", "name:el": "\u0391\u03bb\u03b5\u03c5\u03c1\u03cc\u03bc\u03c5\u03bb\u03bf\u03c2", "name:en": "Alevromilos"}}, {"type": "node", "id": 4382144762, "lat": 36.7100257, "lon": 24.3926346, "tags": {"amenity": "restaurant"}}, {"type": "node", "id": 4382156798, "lat": 36.7512157, "lon": 24.4466017, "tags": {"amenity": "restaurant", "cuisine": "seafood", "name": "Medousa"}}, {"type": "node", "id": 4407930399, "lat": 36.7919376, "lon": 24.5751086, "tags": {"amenity": "restaurant", "cuisine": "greek", "internet_access": "wlan", "internet_access:fee": "no", "level": "0", "name": "Kyklades", "opening_hours": "sunrise-sunset", "outdoor_seating": "yes"}}, {"type": "node", "id": 4441938592, "lat": 36.7416808, "lon": 24.43235, "tags": {"amenity": "restaurant", "cuisine": "greek", "name": "Belivanis"}}, {"type": "node", "id": 4441957357, "lat": 36.7355731, "lon": 24.4195995, "tags": {"amenity": "restaurant", "cuisine": "seafood", "name": "Astakas"}}, {"type": "node", "id": 4877807601, "lat": 36.7863747, "lon": 24.5791858, "tags": {"amenity": "cafe", "name": "Lostromos"}}, {"type": "node", "id": 4877813043, "lat": 36.786381, "lon": 24.5786204, "tags": {"amenity": "restaurant", "name": "\u03a4\u03bf \u039a\u03cd\u03bc\u03b1"}}, {"type": "node", "id": 4877816515, "lat": 36.7860919, "lon": 24.578087, "tags": {"amenity": "restaurant", "name": "\u03a4\u03bf \u03a1\u03b1\u03b2\u03ad\u03bd\u03c4\u03b9"}}, {"type": "node", "id": 4877880744, "lat": 36.7784633, "lon": 24.5574271, "tags": {"amenity": "restaurant", "name": "\u03a3\u03ac\u03c1\u03b4\u03b7\u03c2 (\u03ae \u03c4\u03b7\u03c2 \u039c\u03c0\u03ad\u03bc\u03c0\u03b1\u03c2)"}}, {"type": "node", "id": 4942553822, "lat": 36.7625951, "lon": 24.5255815, "tags": {"amenity": "restaurant", "name": "Jordan's Meat...ing", "name:el": "Jordan's Meat...ing", "name:en": "Jordan's Meat...ing"}}, {"type": "node", "id": 4977179426, "lat": 36.6751886, "lon": 24.5187776, "tags": {"amenity": "cafe", "name": "Pelagos beach bar taverna"}}, {"type": "node", "id": 5077777821, "lat": 36.7439209, "lon": 24.4220915, "tags": {"amenity": "restaurant", "name": "\u0391\u03c5\u03bb\u03ae", "name:el": "\u0391\u03c5\u03bb\u03ae", "name:en": "Avli"}}, {"type": "node", "id": 5085668821, "lat": 36.7283322, "lon": 24.4463951, "tags": {"amenity": "restaurant", "name:en": "BARKO"}}, {"type": "node", "id": 5731158222, "lat": 36.7923647, "lon": 24.5753173, "tags": {"amenity": "cafe", "name": "Sinantisi"}}, {"type": "node", "id": 5733742523, "lat": 36.7798401, "lon": 24.5608154, "tags": {"addr:postcode": "84004", "addr:street": "\u0391\u03bb\u03c5\u03ba\u03ae", "amenity": "cafe", "cuisine": "pizza;coffee_shop;ice_cream", "internet_access": "yes", "name": "\u03a4\u03bf \u03a1\u03b1\u03bd\u03c4\u03b5\u03b2\u03bf\u03cd \u03a4\u03b7\u03c2 \u0391\u03bb\u03c5\u03ba\u03ae\u03c2 \"Kafe - Snack Bar\"", "opening_hours": "Mo-Su 8:30 - 23:30", "outdoor_seating": "yes"}}, {"type": "node", "id": 5764104332, "lat": 36.6750623, "lon": 24.5141331, "tags": {"amenity": "cafe", "name": "Deep Blue"}}, {"type": "node", "id": 5764119071, "lat": 36.6634552, "lon": 24.4284866, "tags": {"amenity": "restaurant", "cuisine": "regional", "name": "Kipos"}}, {"type": "node", "id": 5857214686, "lat": 36.7260203, "lon": 24.4507006, "tags": {"amenity": "restaurant", "cuisine": "seafood", "name": "Mikros Apoplous", "website": "https://mikrosapoplous.com"}}, {"type": "node", "id": 5910249185, "lat": 36.7633498, "lon": 24.5264572, "tags": {"amenity": "restaurant", "cuisine": "greek", "internet_access": "wlan", "name": "\u0391\u03ba\u03c1\u03c9\u03c4\u03ae\u03c1\u03b9", "name:el": "\u0391\u03ba\u03c1\u03c9\u03c4\u03ae\u03c1\u03b9", "name:en": "Akrwthri"}}, {"type": "node", "id": 5927487086, "lat": 36.7440661, "lon": 24.4337687, "tags": {"addr:city": "\u03a4\u03c1\u03b9\u03bf\u03b2\u03ac\u03c3\u03b1\u03bb\u03bf\u03c2", "addr:postcode": "84800", "addr:street": "\u0391\u03b3\u03af\u03bf\u03c5 \u03a3\u03c0\u03c5\u03c1\u03af\u03b4\u03c9\u03bd\u03bf\u03c2", "amenity": "restaurant", "cuisine": "greek;local", "name": "\u039c\u03c0\u03b1\u03ba\u03ac\u03bb\u03b9\u03ba\u03bf\u03bd \u0393\u03b1\u03bb\u03ac\u03bd\u03b7\u03c2", "name:el": "\u039c\u03c0\u03b1\u03ba\u03ac\u03bb\u03b9\u03ba\u03bf\u03bd \u0393\u03b1\u03bb\u03ac\u03bd\u03b7\u03c2", "name:en": "Bakalikon Galanis", "name:it": "Bakalikon Galanis"}}, {"type": "node", "id": 6593160116, "lat": 36.7746764, "lon": 24.5477038}, {"type": "node", "id": 6593160117, "lat": 36.7745772, "lon": 24.5477231}, {"type": "node", "id": 6593160118, "lat": 36.7746035, "lon": 24.5479091}, {"type": "node", "id": 6593160119, "lat": 36.7747013, "lon": 24.5478723}, {"type": "node", "id": 6728230819, "lat": 36.7939453, "lon": 24.5735347, "tags": {"amenity": "restaurant", "cuisine": "fine_dining;diner;greek;regional;barbecue;burger;chicken", "diet:local": "yes", "diet:meat": "yes", "diet:mediterranean": "yes", "name": "\u0397 \u03ba\u03b1\u03bb\u03ae \u03ba\u03b1\u03c1\u03b4\u03b9\u03ac (\u039c\u03c0\u03bf\u03c7\u03ce\u03c1\u03b7\u03c2 - \u03b1\u03c0\u03cc \u03c4\u03bf 1920)", "phone": "+30 22870 51495"}}, {"type": "node", "id": 6728230821, "lat": 36.7928066, "lon": 24.5745741, "tags": {"amenity": "cafe", "name": "\u039a\u03ac\u03bc\u03c0\u03bf\u03c2"}}, {"type": "node", "id": 6733325886, "lat": 36.7858753, "lon": 24.5804526, "tags": {"amenity": "cafe", "phone": "2287051344"}}, {"type": "node", "id": 6733325892, "lat": 36.7923068, "lon": 24.5750103, "tags": {"amenity": "restaurant", "name": "\u03a0\u03b1\u03bd\u03cc\u03c1\u03b1\u03bc\u03b1"}}, {"type": "node", "id": 6733325915, "lat": 36.7916922, "lon": 24.5747762, "tags": {"amenity": "restaurant", "name": "\u03a0\u03b1\u03bb\u03b1\u03b9\u03ac \u0391\u03b3\u03bf\u03c1\u03ac"}}, {"type": "node", "id": 6834008185, "lat": 36.7258377, "lon": 24.4466989, "tags": {"amenity": "restaurant", "name:en": "Ta Pitsounakia"}}, {"type": "node", "id": 6839856257, "lat": 36.7635641, "lon": 24.5270512, "tags": {"amenity": "restaurant", "cuisine": "greek", "name": "Rifaki"}}, {"type": "node", "id": 6839880417, "lat": 36.7618354, "lon": 24.52507, "tags": {"amenity": "cafe", "name": "Mrs. Rose Cafe"}}, {"type": "node", "id": 6839899487, "lat": 36.7437629, "lon": 24.4219513, "tags": {"amenity": "cafe", "name": "Kokkino"}}, {"type": "node", "id": 6839915707, "lat": 36.7633207, "lon": 24.5264246, "tags": {"amenity": "restaurant", "cuisine": "seafood", "name": "Akrotiri"}}, {"type": "node", "id": 7685255987, "lat": 36.7438443, "lon": 24.4221847, "tags": {"addr:street": "\u03a0\u03bb\u03b1\u03c4\u03b5\u03af\u03b1 \u03a0\u03bb\u03ac\u03ba\u03b1\u03c2", "amenity": "restaurant", "name": "Diporto", "name:it": "Diporto"}}, {"type": "node", "id": 7752045987, "lat": 36.7637153, "lon": 24.5261343, "tags": {"amenity": "restaurant", "name:it": "Armenski"}}, {"type": "node", "id": 7839261685, "lat": 36.7256293, "lon": 24.4497245, "tags": {"amenity": "restaurant", "cuisine": "fish", "name": "\u03a4\u03a1\u0391\u03a0\u0391\u03a4\u03a3\u0395\u039b\u0397\u03a3", "name:el": "\u03a4\u03a1\u0391\u03a0\u0391\u03a4\u03a3\u0395\u039b\u0397\u03a3", "name:en": "TRAPATSELIS"}}, {"type": "node", "id": 9098728317, "lat": 36.7379404, "lon": 24.4267913, "tags": {"amenity": "restaurant", "name": "Okto"}}, {"type": "node", "id": 9099581817, "lat": 36.7274105, "lon": 24.4471037, "tags": {"amenity": "cafe", "name": "Aragosta Cafe", "name:en": "Aragosta Coffee Shop", "opening_hours": "Mo-Su 06:00-11:00", "phone": "2287304921"}}, {"type": "node", "id": 9841052186, "lat": 36.7442054, "lon": 24.432734, "tags": {"amenity": "cafe", "name": "\u039a\u03b1\u03c6\u03b5\u03bd\u03b5\u03af\u03bf \u03a0\u03ad\u03c1\u03c1\u03bf\u03c2", "name:el": "\u039a\u03b1\u03c6\u03b5\u03bd\u03b5\u03af\u03bf \u03a0\u03ad\u03c1\u03c1\u03bf\u03c2", "name:en": "Kafeneio Perros", "outdoor_seating": "yes"}}, {"type": "node", "id": 9841054975, "lat": 36.7405444, "lon": 24.4330245, "tags": {"amenity": "restaurant", "cuisine": "greek;local", "name": "\u03a4\u03bf \u03a3\u03c4\u03b5\u03c1\u03bd\u03ac\u03ba\u03b9", "phone": "+302287023370", "website": "https://www.tosternaki.gr/"}}, {"type": "node", "id": 9841054976, "lat": 36.7408282, "lon": 24.433216, "tags": {"amenity": "restaurant", "cuisine": "greek;local", "name": "\u039a\u03b1\u03c1\u03cc\u03b4\u03c1\u03bf\u03bc\u03bf\u03c2", "phone": "+302287023150", "website": "https://restaurant-67731.business.site/?utm_source=gmb&utm_medium=referral"}}, {"type": "node", "id": 9841725878, "lat": 36.7919071, "lon": 24.5759843, "tags": {"amenity": "restaurant", "cuisine": "greek;local", "name": "\u0397 \u03a0\u03b5\u03c1\u03b1\u03bd\u03c4\u03b6\u03ac\u03b4\u03b1"}}, {"type": "node", "id": 9857332391, "lat": 36.7380418, "lon": 24.4268403, "tags": {"amenity": "restaurant", "email": "barriellorestaurant@yahoo.com", "name": "Barriello", "phone": "+306984218360", "website": "https://www.barriello.com/"}}, {"type": "node", "id": 9922491939, "lat": 36.7437012, "lon": 24.4224805, "tags": {"amenity": "restaurant", "name": "Bacalico"}}, {"type": "node", "id": 9926550062, "lat": 36.7638999, "lon": 24.5273231, "tags": {"amenity": "restaurant", "name": "Alkis"}}, {"type": "node", "id": 9957982817, "lat": 36.7252231, "lon": 24.441016, "tags": {"addr:street": "\u03a0\u03b5\u03c1\u03b9\u03c6\u03b5\u03c1\u03b5\u03b9\u03b1\u03ba\u03ae \u0391\u03b4\u03ac\u03bc\u03b1\u03bd\u03c4\u03b1", "amenity": "restaurant", "name": "\u0395\u03bb\u03bb'\u03bf\u03af\u03bd\u03c9\u03bd"}}, {"type": "node", "id": 10090064417, "lat": 36.7663134, "lon": 24.5249508, "tags": {"amenity": "cafe", "name:en": "Opsidianos Art Cafe Bar"}}, {"type": "node", "id": 10090064418, "lat": 36.762837, "lon": 24.5257022, "tags": {"amenity": "restaurant", "cuisine": "greek", "name:en": "Apollonio Grill House"}}, {"type": "node", "id": 10090068117, "lat": 36.7258145, "lon": 24.4491005, "tags": {"amenity": "restaurant", "cuisine": "pizza", "name": "New Malion"}}, {"type": "node", "id": 10090068317, "lat": 36.7258841, "lon": 24.4466444, "tags": {"amenity": "restaurant", "cuisine": "greek"}}, {"type": "node", "id": 10090068417, "lat": 36.6704586, "lon": 24.496607, "tags": {"amenity": "restaurant", "cuisine": "greek", "name:en": "Thalassopetra"}}, {"type": "node", "id": 10090068517, "lat": 36.6754265, "lon": 24.5182476, "tags": {"amenity": "restaurant", "name:en": "Root"}}, {"type": "node", "id": 11105694705, "lat": 36.7443077, "lon": 24.4219878, "tags": {"amenity": "restaurant", "name:en": "Mosaic"}}, {"type": "node", "id": 11262963660, "lat": 36.7918534, "lon": 24.5322675, "tags": {"amenity": "cafe"}}, {"type": "node", "id": 11966501468, "lat": 36.7278167, "lon": 24.4518745, "tags": {"amenity": "restaurant", "cuisine": "greek", "name": "Zygos", "phone": "+30 2287 023120"}}, {"type": "node", "id": 11966512279, "lat": 36.7261967, "lon": 24.4506707, "tags": {"amenity": "restaurant", "cuisine": "seafood", "name": "Mikros Apoplous", "website": "https://mikrosapoplous.com"}}, {"type": "node", "id": 11990722502, "lat": 36.725804, "lon": 24.4502779, "tags": {"amenity": "restaurant", "cuisine": "seafood", "name": "Nostos Seafood Experiance", "website": "https://nostosseafoodexperience.com"}}, {"type": "node", "id": 11990722503, "lat": 36.7259487, "lon": 24.4502276, "tags": {"amenity": "restaurant", "cuisine": "seafood", "name": "Nostos Seafood Experiance", "website": "https://nostosseafoodexperience.com"}}, {"type": "way", "id": 231038609, "nodes": [2394569544, 2394569545, 2394569542, 2394569543, 2394569541, 2394569540, 2394569537, 2394569536, 2394569544], "tags": {"amenity": "restaurant", "building": "yes", "cuisine": "greek", "name": "\u039b\u03b9\u03cc\u03c6\u03c5\u03c4\u03bf", "name:el": "\u039b\u03b9\u03cc\u03c6\u03c5\u03c4\u03bf", "name:en": "Liofuto"}}, {"type": "way", "id": 236418081, "nodes": [2444547925, 2444547876, 2444547878, 2444547879, 2444547936, 2444547940, 2444547925], "tags": {"addr:city": "Paliochori", "amenity": "restaurant", "building": "yes", "name": "Sirocco", "toilets": "yes", "toilets:access": "yes"}}, {"type": "way", "id": 702078993, "nodes": [6593160116, 6593160117, 6593160118, 6593160119, 6593160116], "tags": {"amenity": "restaurant", "building": "yes", "cuisine": "greek;seafood", "name": "Tavern Kalamitsi"}}]}