{"version": 0.6, "generator": "Overpass API 0.7.62.7 375dc00a", "osm3s": {"timestamp_osm_base": "2025-06-14T15:14:02Z", "copyright": "The data included in this document is from www.openstreetmap.org. The data is made available under ODbL."}, "elements": [{"type": "node", "id": 1742550197, "lat": 4.8656803, "lon": 31.5949564, "tags": {"amenity": "restaurant", "email": "reservations@nimule-resorts.com", "name": "Nimule Resort", "phone": "+211 955 000 890", "source": "own GPS survey (garmin etrex 30)", "tourism": "hotel", "website": "https://nimule.net/site/"}}, {"type": "node", "id": 1976331309, "lat": 4.8692896, "lon": 31.595709, "tags": {"amenity": "restaurant", "capacity": "50", "cuisine": "pizza;burger;coffee_shop;regional", "delivery": "no", "name": "Tukul", "source": "own GPS survey (garmin etrex 30)", "takeaway": "yes"}}, {"type": "node", "id": 1980036542, "lat": 4.8564288, "lon": 31.6062765, "tags": {"amenity": "restaurant", "name": "Logali House"}}, {"type": "node", "id": 1980071116, "lat": 4.8399353, "lon": 31.6141179, "tags": {"amenity": "restaurant", "name": "Bedouin Lodge"}}, {"type": "node", "id": 1980071121, "lat": 4.8540352, "lon": 31.6028656, "tags": {"amenity": "restaurant", "name": "Home & Away"}}, {"type": "node", "id": 1981642373, "lat": 4.8420185, "lon": 31.6094418, "tags": {"amenity": "restaurant", "cuisine": "indian", "name": "Spice n'Herbs", "source": "own GPS survey (garmin etrex 30)"}}, {"type": "node", "id": 1995061805, "lat": 4.8558196, "lon": 31.6096951, "tags": {"amenity": "restaurant", "name": "Le Bistro"}}, {"type": "node", "id": 2010116935, "lat": 4.8539854, "lon": 31.6201957, "tags": {"amenity": "restaurant", "cuisine": "chinese", "name": "Summer Palace Business Hotel"}}, {"type": "node", "id": 2032040427, "lat": 4.8522011, "lon": 31.6131164}, {"type": "node", "id": 2032040428, "lat": 4.8522355, "lon": 31.6129084}, {"type": "node", "id": 2032040446, "lat": 4.8523899, "lon": 31.6131478}, {"type": "node", "id": 2032040455, "lat": 4.8524243, "lon": 31.6129399}, {"type": "node", "id": 2035375811, "lat": 4.8250823, "lon": 31.6098849, "tags": {"amenity": "restaurant", "name": "Da Vinci Lodge"}}, {"type": "node", "id": 2086918124, "lat": 4.7972829, "lon": 31.6382748, "tags": {"amenity": "restaurant", "name": "Sunrise Restaurant"}}, {"type": "node", "id": 2124921097, "lat": 4.8677458, "lon": 31.5948054}, {"type": "node", "id": 2124921101, "lat": 4.867836, "lon": 31.5948802}, {"type": "node", "id": 2124921102, "lat": 4.8679285, "lon": 31.5945838}, {"type": "node", "id": 2124921103, "lat": 4.8680187, "lon": 31.5946586}, {"type": "node", "id": 2148930498, "lat": 4.8282023, "lon": 31.5976784, "tags": {"amenity": "restaurant", "cuisine": "chinese", "name": "Si Chuan"}}, {"type": "node", "id": 2215993984, "lat": 4.8655889, "lon": 31.5946365}, {"type": "node", "id": 2215993997, "lat": 4.8654643, "lon": 31.5946417}, {"type": "node", "id": 2215994010, "lat": 4.865459, "lon": 31.5945124}, {"type": "node", "id": 2215994052, "lat": 4.8656193, "lon": 31.5945057}, {"type": "node", "id": 2215994062, "lat": 4.8656223, "lon": 31.5945786}, {"type": "node", "id": 2215994075, "lat": 4.8655866, "lon": 31.5945801}, {"type": "node", "id": 2218613486, "lat": 4.856928, "lon": 31.6188615, "tags": {"amenity": "restaurant", "email": "reservations@jubaraha.com", "name": "Juba Raha", "phone": "+211 955 500 570", "tourism": "hotel", "website": "http://www.jubaraha.com/"}}, {"type": "node", "id": 2376695520, "lat": 4.8598489, "lon": 31.5981997}, {"type": "node", "id": 2376695521, "lat": 4.8598474, "lon": 31.5980679}, {"type": "node", "id": 2376695522, "lat": 4.8599544, "lon": 31.5981984}, {"type": "node", "id": 2376695523, "lat": 4.8599529, "lon": 31.5980667}, {"type": "node", "id": 2567873907, "lat": 4.8411188, "lon": 31.6067777, "tags": {"amenity": "restaurant", "name": "Wonderful"}}, {"type": "node", "id": 2581339331, "lat": 4.8560458, "lon": 31.5949996, "tags": {"amenity": "restaurant", "name": "Aroma"}}, {"type": "node", "id": 2581339337, "lat": 4.8558823, "lon": 31.5947009, "tags": {"amenity": "restaurant", "name": "Il Paradiso"}}, {"type": "node", "id": 2750879926, "lat": 4.8614952, "lon": 31.5991692, "tags": {"amenity": "restaurant"}}, {"type": "node", "id": 2750899967, "lat": 4.8351915, "lon": 31.6160298, "tags": {"amenity": "restaurant", "name": "OASIS Hotel"}}, {"type": "node", "id": 2751329160, "lat": 4.844365, "lon": 31.6197329, "tags": {"amenity": "restaurant", "name": "Star Hotel by the Nile"}}, {"type": "node", "id": 2751330045, "lat": 4.8468749, "lon": 31.6172883, "tags": {"amenity": "restaurant", "name": "Juba Grand"}}, {"type": "node", "id": 2751331456, "lat": 4.8458665, "lon": 31.6178017, "tags": {"amenity": "restaurant", "name": "Adok Rastaurant"}}, {"type": "node", "id": 2751339625, "lat": 4.8462586, "lon": 31.6159215, "tags": {"amenity": "restaurant"}}, {"type": "node", "id": 2751344453, "lat": 4.8570727, "lon": 31.6189492, "tags": {"amenity": "restaurant"}}, {"type": "node", "id": 2842417262, "lat": 4.835812, "lon": 31.6025703, "tags": {"amenity": "restaurant", "cuisine": "turkish", "name": "Istanbul Restaurant"}}, {"type": "node", "id": 2912937639, "lat": 4.8571227, "lon": 31.5916175, "tags": {"amenity": "cafe", "cuisine": "coffee_shop", "name": "Vamp Coffee Shop"}}, {"type": "node", "id": 3040959091, "lat": 4.8523528, "lon": 31.610085}, {"type": "node", "id": 3040959092, "lat": 4.8523553, "lon": 31.6101062}, {"type": "node", "id": 3040959093, "lat": 4.8523578, "lon": 31.6100646}, {"type": "node", "id": 3040959094, "lat": 4.852365, "lon": 31.6101252}, {"type": "node", "id": 3040959095, "lat": 4.8523695, "lon": 31.6100467}, {"type": "node", "id": 3040959097, "lat": 4.8523807, "lon": 31.6101397}, {"type": "node", "id": 3040959098, "lat": 4.8523896, "lon": 31.6100327}, {"type": "node", "id": 3040959100, "lat": 4.8524042, "lon": 31.6101484}, {"type": "node", "id": 3040959101, "lat": 4.8524134, "lon": 31.610028}, {"type": "node", "id": 3040959102, "lat": 4.8524285, "lon": 31.6101467}, {"type": "node", "id": 3040959103, "lat": 4.8524371, "lon": 31.610033}, {"type": "node", "id": 3040959104, "lat": 4.8524508, "lon": 31.6101358}, {"type": "node", "id": 3040959106, "lat": 4.852457, "lon": 31.6100473}, {"type": "node", "id": 3040959108, "lat": 4.8524667, "lon": 31.6101165}, {"type": "node", "id": 3040959109, "lat": 4.8524698, "lon": 31.6100679}, {"type": "node", "id": 3040959110, "lat": 4.8524732, "lon": 31.6100922}, {"type": "node", "id": 3042777114, "lat": 4.8530211, "lon": 31.6118859}, {"type": "node", "id": 3042777123, "lat": 4.8530588, "lon": 31.6117397}, {"type": "node", "id": 3042777141, "lat": 4.8531164, "lon": 31.6119107}, {"type": "node", "id": 3042777146, "lat": 4.8531541, "lon": 31.6117644}, {"type": "node", "id": 3316624619, "lat": 4.8463365, "lon": 31.6158673}, {"type": "node", "id": 3316624620, "lat": 4.8462515, "lon": 31.6161001}, {"type": "node", "id": 3316624621, "lat": 4.84596, "lon": 31.6159928}, {"type": "node", "id": 3316624622, "lat": 4.846045, "lon": 31.61576}, {"type": "node", "id": 3333979521, "lat": 4.8394349, "lon": 31.6037031, "tags": {"amenity": "restaurant", "cuisine": "international", "name": "Holiday restaurant"}}, {"type": "node", "id": 3371595074, "lat": 4.8679253, "lon": 31.5947573, "tags": {"amenity": "restaurant"}}, {"type": "node", "id": 3759234689, "lat": 4.8601996, "lon": 31.604956, "tags": {"amenity": "restaurant", "cuisine": "chinese", "name": "Royal Hotel Chinese Restaurant"}}, {"type": "node", "id": 3761208613, "lat": 4.8599021, "lon": 31.6064487, "tags": {"amenity": "restaurant", "name": "Crown Hotel restaurant"}}, {"type": "node", "id": 3856994674, "lat": 4.8579413, "lon": 31.608283, "tags": {"amenity": "cafe", "name": "Samasim Cafe"}}, {"type": "node", "id": 3967491303, "lat": 4.8537526, "lon": 31.6111951}, {"type": "node", "id": 3967491304, "lat": 4.8538116, "lon": 31.6111434}, {"type": "node", "id": 3967491305, "lat": 4.8538677, "lon": 31.6112104}, {"type": "node", "id": 3967491306, "lat": 4.8537971, "lon": 31.6112634}, {"type": "node", "id": 4873410923, "lat": 4.8387682, "lon": 31.6028147, "tags": {"amenity": "restaurant", "name": "Istanbul", "name:en": "Istanbul"}}, {"type": "node", "id": 4947473222, "lat": 4.8624064, "lon": 31.5974036, "tags": {"amenity": "restaurant", "name": "SICHUAN Restaurant", "name:en": "SICHUAN Restaurant"}}, {"type": "node", "id": 5890514866, "lat": 4.867024, "lon": 31.5952723, "tags": {"amenity": "restaurant", "cuisine": "regional;Nepali_Food", "name": "Nepal House"}}, {"type": "node", "id": 6017494785, "lat": 4.8382361, "lon": 31.6175592, "tags": {"amenity": "restaurant", "name": "AFEX"}}, {"type": "node", "id": 6293939686, "lat": 4.8410759, "lon": 31.5952374, "tags": {"amenity": "cafe", "name": "Juice and Burgers"}}, {"type": "node", "id": 7229793111, "lat": 4.8500229, "lon": 31.5949847, "tags": {"amenity": "restaurant", "cuisine": "steak_house", "description": "Nyami Nyami", "name": "nyami Bassam"}}, {"type": "node", "id": 7244144385, "lat": 4.8469127, "lon": 31.6007868, "tags": {"amenity": "restaurant", "name": "Comrad rest"}}, {"type": "node", "id": 8030975585, "lat": 4.8410584, "lon": 31.6056451, "tags": {"amenity": "restaurant", "name": "Nomad restaurant."}}, {"type": "node", "id": 9793561006, "lat": 4.8452986, "lon": 31.6128262, "tags": {"amenity": "restaurant", "cuisine": "indian", "name": "Spicy Herbs", "phone": "+211 928 220 445"}}, {"type": "node", "id": 9793566217, "lat": 4.845228, "lon": 31.6137625, "tags": {"amenity": "restaurant", "name": "Quality Hotel Restaurant"}}, {"type": "node", "id": 10728362626, "lat": 4.8610858, "lon": 31.6001686, "tags": {"addr:street": "Airport Road", "amenity": "restaurant", "name": "Lily's Cafeteria", "phone": "0922788455"}}, {"type": "node", "id": 10728390508, "lat": 4.8587267, "lon": 31.59791, "tags": {"addr:street": "Airport Road", "amenity": "cafe", "name": "The Coffee Shop"}}, {"type": "node", "id": 11099635470, "lat": 4.8421775, "lon": 31.6092592, "tags": {"amenity": "restaurant", "name": "Selam Ethiopian Restaurant"}}, {"type": "way", "id": 192663023, "nodes": [2032040455, 2032040428, 2032040427, 2032040446, 2032040455], "tags": {"amenity": "restaurant", "building": "yes", "name": "Paradise", "name:en": "Paradise Hotel", "source": "Bing imagery"}}, {"type": "way", "id": 202525284, "nodes": [2124921103, 2124921102, 2124921097, 2124921101, 2124921103], "tags": {"amenity": "restaurant", "building": "yes", "cuisine": "indian", "name": "Monsoon"}}, {"type": "way", "id": 211612888, "nodes": [2215993984, 2215993997, 2215994010, 2215994052, 2215994062, 2215994075, 2215993984], "tags": {"addr:country": "SS", "amenity": "restaurant", "religion": "muslim"}}, {"type": "way", "id": 229030352, "nodes": [2376695523, 2376695522, 2376695520, 2376695521, 2376695523], "tags": {"amenity": "restaurant", "building": "yes", "internet_access": "yes", "name": "Arkel", "smoking": "yes", "source": "Bing 2013 and own survey", "tourism": "hotel"}}, {"type": "way", "id": 299983589, "nodes": [3040959095, 3040959093, 3040959091, 3040959092, 3040959094, 3040959097, 3040959100, 3040959102, 3040959104, 3040959108, 3040959110, 3040959109, 3040959106, 3040959103, 3040959101, 3040959098, 3040959095], "tags": {"abandoned": "yes", "amenity": "restaurant", "building": "yes", "name": "Central Pub"}}, {"type": "way", "id": 300176170, "nodes": [3042777123, 3042777146, 3042777141, 3042777114, 3042777123], "tags": {"amenity": "restaurant", "building": "yes", "cuisine": "regional", "name": "Sisters Restaurant"}}, {"type": "way", "id": 324986729, "nodes": [3316624619, 3316624620, 3316624621, 3316624622, 3316624619], "tags": {"amenity": "restaurant", "building": "yes"}}, {"type": "way", "id": 393546658, "nodes": [3967491303, 3967491304, 3967491305, 3967491306, 3967491303], "tags": {"amenity": "restaurant", "building": "yes", "name": "The Nest", "takeaway": "yes"}}, {"type": "relation", "id": 2838342, "members": [{"type": "way", "ref": 211612888, "role": "outer"}], "tags": {"amenity": "restaurant", "email": "reservations@nimule-resorts.com", "highway": "service", "phone": "+211 955 000 890", "type": "multipolygon", "website": "https://nimule.net/site/"}}]}