{"version": 0.6, "generator": "Overpass API 0.7.62.7 375dc00a", "osm3s": {"timestamp_osm_base": "2025-06-14T13:55:30Z", "copyright": "The data included in this document is from www.openstreetmap.org. The data is made available under ODbL."}, "elements": [{"type": "node", "id": 759587842, "lat": 38.4183047, "lon": 14.9553694}, {"type": "node", "id": 759589323, "lat": 38.487592, "lon": 14.9650124, "tags": {"addr:city": "Canneto", "addr:housenumber": "2", "addr:street": "Via Archimede", "amenity": "restaurant", "cuisine": "italian", "name": "La Brisa"}}, {"type": "node", "id": 759589380, "lat": 38.470239, "lon": 14.9544051, "tags": {"addr:housenumber": "237", "addr:postcode": "98055", "addr:street": "Corso Vittorio Emanuele", "amenity": "restaurant", "bar": "no", "cuisine": "italian", "level": "0", "name": "Chicco Tosto Di Raffaele e Anna Maria"}}, {"type": "node", "id": 759589739, "lat": 38.4707992, "lon": 14.9543083, "tags": {"amenity": "restaurant", "check_date": "2024-07-27", "cuisine": "italian", "name": "Terrazza Sul Mare", "source": "survey"}}, {"type": "node", "id": 759589748, "lat": 38.4651864, "lon": 14.9565533, "tags": {"amenity": "cafe", "name": "Cafe du port"}}, {"type": "node", "id": 759589829, "lat": 38.4946406, "lon": 14.9614789, "tags": {"amenity": "restaurant", "name": "La Calandra"}}, {"type": "node", "id": 759589951, "lat": 38.469579, "lon": 14.9564693, "tags": {"amenity": "restaurant", "cuisine": "italian"}}, {"type": "node", "id": 759590145, "lat": 38.4649275, "lon": 14.9563996, "tags": {"addr:street": "Piazza Ugo di Sant'Onofrio", "amenity": "restaurant", "cuisine": "italian", "name": "Ristorante-Bar Al Pescatore", "phone": "+39 909811537", "website": "https://ristorantealpescatorelipari.business.site"}}, {"type": "node", "id": 759590338, "lat": 38.4686956, "lon": 14.956258, "tags": {"amenity": "restaurant", "cuisine": "italian", "name": "Ristorante Filippino"}}, {"type": "node", "id": 759590406, "lat": 38.4144347, "lon": 14.957059, "tags": {"addr:street": "Via Lentia", "amenity": "restaurant", "cuisine": "w\u0142oska", "name": "Therme Caf\u00e8", "opening_hours": "Mo-Su 06:00-00:00"}}, {"type": "node", "id": 759590465, "lat": 38.4638405, "lon": 14.9567702, "tags": {"addr:street": "Salita San Giuseppe", "amenity": "restaurant", "check_date": "2023-06-15", "contact:email": "alpiratalipari@gmail.com", "contact:facebook": "alpirataseasiderestaurant", "contact:instagram": "ristorante_al_pirata_lipari", "contact:phone": "+390909811796", "contact:website": "https://www.ristorantealpiratalipari.com/", "cuisine": "italian", "name": "Al Pirata", "opening_hours": "Mo off; Tu-Su 12:00-14:30,19:00-22:30"}}, {"type": "node", "id": 759590664, "lat": 38.4148407, "lon": 14.9586425, "tags": {"addr:street": "Via Anna Magnani", "amenity": "cafe", "check_date:opening_hours": "2024-09-19", "name": "Geco Bar", "opening_hours:signed": "no", "phone": "+39 3476074091", "website": "http://www.gecobarvulcano.it"}}, {"type": "node", "id": 1022371038, "lat": 38.4588361, "lon": 14.9572212, "tags": {"amenity": "restaurant", "name": "\"Le Terrazze\" presso Carasco Hotel"}}, {"type": "node", "id": 1022407758, "lat": 38.4586212, "lon": 14.9571394, "tags": {"amenity": "cafe", "name": "Skybar at Carasco Hotel"}}, {"type": "node", "id": 1243789124, "lat": 38.2687743, "lon": 15.2332735, "tags": {"amenity": "restaurant", "cuisine": "italian;pizza", "name": "Il Faro", "phone": "+39 090 9283500"}}, {"type": "node", "id": 1243789126, "lat": 38.2687196, "lon": 15.2333896, "tags": {"amenity": "cafe", "cuisine": "ice_cream", "name": "Il Faro", "operator": "Matteo De Gaetano", "phone": "+39 090 9283500", "toilets:wheelchair": "no", "wheelchair": "yes"}}, {"type": "node", "id": 1515571876, "lat": 38.1868593, "lon": 15.2142396, "tags": {"amenity": "restaurant", "cuisine": "italian", "name": "Al Gabbiano", "phone": "+39 090 9210220"}}, {"type": "node", "id": 1515571879, "lat": 38.2155468, "lon": 15.2313465, "tags": {"amenity": "restaurant", "cuisine": "pizza", "name": "La gobba del cammello", "phone": "+39 090 2403778"}}, {"type": "node", "id": 1515665609, "lat": 38.2414406, "lon": 15.2419507, "tags": {"amenity": "restaurant", "cuisine": "italian", "name": "Marilyn", "phone": "+39 329 0234985"}}, {"type": "node", "id": 1515665633, "lat": 38.2405073, "lon": 15.24147, "tags": {"amenity": "restaurant", "cuisine": "pizza", "name": "Tonnara", "phone": "+39 338 6132226", "wheelchair": "yes"}}, {"type": "node", "id": 1524395586, "lat": 38.2172194, "lon": 15.2405616, "tags": {"amenity": "restaurant", "cuisine": "burger", "diet:vegetarian": "yes", "name": "The Burg"}}, {"type": "node", "id": 1524395605, "lat": 38.2179715, "lon": 15.24013, "tags": {"amenity": "cafe", "name": "Tropical Bar", "operator": "Antonio Cingolani", "phone": "+39 090 9073989"}}, {"type": "node", "id": 1602501302, "lat": 38.2256191, "lon": 15.240988, "tags": {"amenity": "cafe", "name": "Nadir"}}, {"type": "node", "id": 1604878107, "lat": 38.2201777, "lon": 15.2412707, "tags": {"amenity": "cafe", "name": "Scotch Bar", "operator": "Giuseppe Sergente", "phone": "+39 090 9282106"}}, {"type": "node", "id": 1604878113, "lat": 38.2193048, "lon": 15.240808, "tags": {"amenity": "cafe", "name": "Fico"}}, {"type": "node", "id": 1635092299, "lat": 38.4144476, "lon": 14.9598775, "tags": {"amenity": "restaurant", "check_date": "2023-06-13", "name": "Cantine Stevenson"}}, {"type": "node", "id": 1635092303, "lat": 38.4186562, "lon": 14.9563002, "tags": {"amenity": "restaurant"}}, {"type": "node", "id": 1637930471, "lat": 38.4151419, "lon": 14.9583416, "tags": {"amenity": "restaurant", "name": "La Piazzetta", "phone": "+39 090 9852017"}}, {"type": "node", "id": 1749540123, "lat": 38.1815714, "lon": 15.2534898, "tags": {"amenity": "cafe", "name": "Autogrill", "website": "https://www.autogrill.it"}}, {"type": "node", "id": 1776168574, "lat": 38.4665402, "lon": 14.9548133, "tags": {"addr:city": "Lipari", "addr:housenumber": "92", "addr:street": "Corso Vittorio Emanuele", "amenity": "cafe", "check_date": "2023-06-11", "email": "subba1930@gmail.com", "name": "Subba dal 1930", "outdoor_seating": "yes", "phone": "+39 0909811352", "shop": "pastry", "wheelchair": "no"}}, {"type": "node", "id": 1776168575, "lat": 38.4665394, "lon": 14.9550346, "tags": {"amenity": "restaurant", "check_date": "2023-06-14", "highchair": "yes", "name": "La Piazzetta"}}, {"type": "node", "id": 1923265295, "lat": 38.5790051, "lon": 14.8351523, "tags": {"amenity": "restaurant", "name": "Al Cucuncio", "opening_hours": "\"depends on the season\""}}, {"type": "node", "id": 1963189310, "lat": 38.5495486, "lon": 14.8267247, "tags": {"addr:housenumber": "72", "addr:street": "Via Rotabile", "amenity": "restaurant", "cuisine": "pizza", "name": "Pizzeria Le Tre Pietre", "operator": "Melania E. Argentaro", "phone": "+39 090 9809081"}}, {"type": "node", "id": 1963190267, "lat": 38.5549855, "lon": 14.8242136, "tags": {"addr:postcode": "98050", "addr:street": "Via Libert\u00e0", "amenity": "restaurant", "cuisine": "italian", "name": "Bar Chiofalo", "operator": "Salvatore"}}, {"type": "node", "id": 1964965363, "lat": 38.5389824, "lon": 14.8697291, "tags": {"amenity": "restaurant", "email": "piero@alfredoincucina.com", "name": "Alfredo in Cucina", "phone": "+39 090 9843307", "website": "www.alfredoincucina.com"}}, {"type": "node", "id": 1964965366, "lat": 38.538737, "lon": 14.8703903, "tags": {"amenity": "restaurant", "cuisine": "regional", "email": "info@gamberosalina.it", "name": "Il Gambero", "phone": "+39 090 9843049", "website": "https://www.gamberosalina.it/"}}, {"type": "node", "id": 1964965368, "lat": 38.5399824, "lon": 14.8691036, "tags": {"amenity": "restaurant", "name": "La Cannata"}}, {"type": "node", "id": 1966659398, "lat": 38.5476129, "lon": 14.8272059}, {"type": "node", "id": 1966659401, "lat": 38.5476321, "lon": 14.8275422}, {"type": "node", "id": 1966659404, "lat": 38.5477291, "lon": 14.8275435}, {"type": "node", "id": 1966659414, "lat": 38.5477689, "lon": 14.8272863}, {"type": "node", "id": 1966659416, "lat": 38.5477901, "lon": 14.8274579}, {"type": "node", "id": 1966659417, "lat": 38.5477798, "lon": 14.827357}, {"type": "node", "id": 1966659419, "lat": 38.5478256, "lon": 14.8274561}, {"type": "node", "id": 1966659420, "lat": 38.5478242, "lon": 14.8275435}, {"type": "node", "id": 1968500330, "lat": 38.4128078, "lon": 14.9585765, "tags": {"amenity": "restaurant", "name": "Il Cratere"}}, {"type": "node", "id": 1968511927, "lat": 38.2200587, "lon": 15.2414919, "tags": {"amenity": "cafe", "name": "Nettuno", "operator": "Sciotto Rosaria & Co", "phone": "+39 090 9281615"}}, {"type": "node", "id": 2062752715, "lat": 38.2207559, "lon": 15.2418358, "tags": {"amenity": "cafe", "name": "CD"}}, {"type": "node", "id": 2062752717, "lat": 38.2253786, "lon": 15.2427125, "tags": {"amenity": "restaurant", "cuisine": "japanese", "name": "Chan"}}, {"type": "node", "id": 2099146540, "lat": 38.1929981, "lon": 15.2282464, "tags": {"amenity": "cafe", "name": "Blue Sky"}}, {"type": "node", "id": 2099146699, "lat": 38.1897785, "lon": 15.225077}, {"type": "node", "id": 2099146707, "lat": 38.1898092, "lon": 15.2250257}, {"type": "node", "id": 2099146712, "lat": 38.1898502, "lon": 15.2251465}, {"type": "node", "id": 2099146719, "lat": 38.1898809, "lon": 15.2250953}, {"type": "node", "id": 2177129277, "lat": 38.1868328, "lon": 15.2695645, "tags": {"amenity": "cafe", "internet_access": "no", "name": "Bahira", "opening_hours": "Mo-Su 07:30-21:00", "phone": "+39 090 9392911", "smoking": "yes", "wheelchair": "yes"}}, {"type": "node", "id": 2177269896, "lat": 38.2204145, "lon": 15.2404146, "tags": {"amenity": "cafe", "name": "Dama", "operator": "Giuseppa Merrina"}}, {"type": "node", "id": 2177269897, "lat": 38.2151516, "lon": 15.2420251, "tags": {"amenity": "cafe", "name": "Gran Caff\u00e8"}}, {"type": "node", "id": 2177269905, "lat": 38.1886827, "lon": 15.2535363, "tags": {"alt_name": "Hospital bar", "amenity": "cafe", "name": "Cuciti", "phone": "+39 090 9229496"}}, {"type": "node", "id": 2177269909, "lat": 38.2246934, "lon": 15.2404911, "tags": {"amenity": "cafe", "name": "English Bar", "phone": "+39 090 9284788", "toilets:wheelchair": "yes", "wheelchair": "no"}}, {"type": "node", "id": 2177269915, "lat": 38.189246, "lon": 15.2536259, "tags": {"amenity": "cafe", "cuisine": "coffee_shop;ice_cream;donut", "email": "kiwibar@hotmail.it", "name": "Kiwi", "operator": "Francesco La Malfa", "phone": "+39 090 9229110", "website": "http://www.barkiwi.it"}}, {"type": "node", "id": 2177269916, "lat": 38.2233241, "lon": 15.2427439, "tags": {"amenity": "cafe", "name": "Dolce caff\u00e8", "phone": "+39902403543", "toilets": "yes"}}, {"type": "node", "id": 2177269924, "lat": 38.2147406, "lon": 15.240689, "tags": {"amenity": "cafe", "name": "Caff\u00e8 & Parole"}}, {"type": "node", "id": 2177269925, "lat": 38.2130634, "lon": 15.2444368, "tags": {"amenity": "cafe", "name": "Stella del Mare", "operator": "Nastasi"}}, {"type": "node", "id": 2177269926, "lat": 38.1935849, "lon": 15.2425587, "tags": {"amenity": "cafe", "name": "Torre", "start_date": "1972"}}, {"type": "node", "id": 2177269927, "lat": 38.228973, "lon": 15.2459783, "tags": {"amenity": "cafe", "name": "Washington", "operator": "Patti G. & C. s.a.s", "phone": "+39 090 9249045", "tobacco": "yes"}}, {"type": "node", "id": 2259551590, "lat": 38.4146794, "lon": 14.9600614}, {"type": "node", "id": 2259551599, "lat": 38.4143081, "lon": 14.9600396}, {"type": "node", "id": 2259551619, "lat": 38.4147595, "lon": 14.9601186}, {"type": "node", "id": 2259551666, "lat": 38.4147337, "lon": 14.9601773}, {"type": "node", "id": 2259551675, "lat": 38.4143192, "lon": 14.9599962}, {"type": "node", "id": 2259551814, "lat": 38.4141994, "lon": 14.9599506}, {"type": "node", "id": 2259551832, "lat": 38.4139947, "lon": 14.9600268}, {"type": "node", "id": 2259551885, "lat": 38.4140136, "lon": 14.9601006}, {"type": "node", "id": 2317582701, "lat": 38.4659925, "lon": 14.9547744, "tags": {"amenity": "cafe", "check_date": "2023-06-11", "name": "Pasticceria Gelateria Bar", "shop": "confectionery"}}, {"type": "node", "id": 2317584423, "lat": 38.519674, "lon": 14.9495551, "tags": {"amenity": "restaurant", "wheelchair": "no"}}, {"type": "node", "id": 2320159536, "lat": 38.4660306, "lon": 14.9557489, "tags": {"amenity": "restaurant", "name": "Trattoria da Bartolo"}}, {"type": "node", "id": 2320159584, "lat": 38.5192783, "lon": 14.93999, "tags": {"amenity": "restaurant"}}, {"type": "node", "id": 2320159594, "lat": 38.5192951, "lon": 14.9459338, "tags": {"amenity": "restaurant", "name": "Auroria"}}, {"type": "node", "id": 2320159645, "lat": 38.4861622, "lon": 14.9670202, "tags": {"amenity": "restaurant", "name": "La Praia"}}, {"type": "node", "id": 2320159714, "lat": 38.4883614, "lon": 14.9642657, "tags": {"amenity": "restaurant", "name": "Papisca"}}, {"type": "node", "id": 2321234782, "lat": 38.4935505, "lon": 14.9614451, "tags": {"amenity": "cafe", "name": "Bar Blu Caff\u00e9"}}, {"type": "node", "id": 2370292395, "lat": 38.2224194, "lon": 15.2394007, "tags": {"amenity": "restaurant", "cuisine": "pizza", "name": "Andreotti", "operator": "Antonino Andaloro", "phone": "+39 090 9284221", "takeaway": "only"}}, {"type": "node", "id": 2370292404, "lat": 38.2195527, "lon": 15.2393021, "tags": {"amenity": "cafe", "name": "Merrina"}}, {"type": "node", "id": 2435895581, "lat": 38.161182, "lon": 14.8622965, "tags": {"amenity": "cafe"}}, {"type": "node", "id": 2452731891, "lat": 38.2439836, "lon": 15.2419586, "tags": {"amenity": "restaurant", "cuisine": "italian", "diet:vegan": "yes", "diet:vegetarian": "yes", "name": "La Muciara", "phone": "+39 090 9221015"}}, {"type": "node", "id": 2452731892, "lat": 38.2288828, "lon": 15.2457056, "tags": {"amenity": "restaurant", "cuisine": "italian", "name": "Macchianera", "phone": "+39 090 9223249"}}, {"type": "node", "id": 2454252030, "lat": 38.2289857, "lon": 15.2423985, "tags": {"amenity": "restaurant", "cuisine": "italian", "name": "Agor\u00e0", "phone": "+39 090 9283131"}}, {"type": "node", "id": 2476841739, "lat": 38.1759329, "lon": 15.2681812, "tags": {"amenity": "restaurant", "name": "Trocadero", "phone": "+39 090 931885"}}, {"type": "node", "id": 2481228517, "lat": 38.1758571, "lon": 15.2661261, "tags": {"addr:city": "Olivarella", "addr:postcode": "98040", "addr:street": "Via Rocco Chinnici", "amenity": "cafe", "name": "Casanova", "phone": "+39 090 931878"}}, {"type": "node", "id": 2481254549, "lat": 38.1758221, "lon": 15.2646957, "tags": {"amenity": "cafe", "name": "Alacqua"}}, {"type": "node", "id": 2517575578, "lat": 38.2210746, "lon": 15.2426768, "tags": {"amenity": "restaurant", "cuisine": "italian;pizza", "name": "Doppio zero", "phone": "+39 333 9630909"}}, {"type": "node", "id": 2519064934, "lat": 38.1634043, "lon": 14.7505583}, {"type": "node", "id": 2519064935, "lat": 38.1634672, "lon": 14.7507228}, {"type": "node", "id": 2519064936, "lat": 38.1637248, "lon": 14.7503601}, {"type": "node", "id": 2519064937, "lat": 38.1637877, "lon": 14.7505246}, {"type": "node", "id": 2601216088, "lat": 38.2153161, "lon": 15.2422335, "tags": {"amenity": "restaurant", "name": "Naguara"}}, {"type": "node", "id": 2612216508, "lat": 38.22339, "lon": 15.2407648, "tags": {"amenity": "restaurant", "cuisine": "italian;pizza", "name": "Antichi Sapori", "operator": "Carmela Cafeo", "phone": "+39 090 9249096"}}, {"type": "node", "id": 2612216509, "lat": 38.2227674, "lon": 15.2416153, "tags": {"amenity": "cafe", "name": "Chantilly", "phone": "+39 090 9414240", "shop": "confectionery", "website": "https://www.chantillycafe.it/"}}, {"type": "node", "id": 2612637119, "lat": 38.2375514, "lon": 15.248758, "tags": {"amenity": "restaurant", "cuisine": "italian;pizza", "name": "Al Mandorlo", "opening_hours": "Mo-Su 19:00-24:00; Tu off", "outdoor_seating": "yes", "phone": "+39 090 9283261"}}, {"type": "node", "id": 2703924083, "lat": 38.2236442, "lon": 15.2421583, "tags": {"amenity": "restaurant", "cuisine": "italian", "name": "La Casalinga", "phone": "+39 090 9222697", "wheelchair": "no"}}, {"type": "node", "id": 2707260154, "lat": 38.2299759, "lon": 15.2469061, "tags": {"amenity": "restaurant", "cuisine": "italian", "name": "Al Pescatore", "phone": "+39 090 9286595"}}, {"type": "node", "id": 2715485313, "lat": 38.2357828, "lon": 15.2398774}, {"type": "node", "id": 2715485317, "lat": 38.2358109, "lon": 15.2397392}, {"type": "node", "id": 2715485319, "lat": 38.2358574, "lon": 15.239902}, {"type": "node", "id": 2726653653, "lat": 38.2231367, "lon": 15.2372336, "tags": {"amenity": "restaurant", "cuisine": "italian", "name": "Sapori di Pasta", "phone": "+39 090 2403627"}}, {"type": "node", "id": 2736267504, "lat": 38.2286808, "lon": 15.2421918, "tags": {"amenity": "restaurant", "cuisine": "italian", "name": "Mamma Mia", "phone": "+39 338 2771674", "start_date": "2017-10-06"}}, {"type": "node", "id": 2740045331, "lat": 38.2142841, "lon": 15.2435106, "tags": {"amenity": "restaurant", "cuisine": "italian;pizza", "diet:vegan": "no", "diet:vegetarian": "yes", "name": "La Bitta", "phone": "+39 090 9288438"}}, {"type": "node", "id": 2744570259, "lat": 38.2026726, "lon": 15.2257044, "tags": {"amenity": "cafe", "internet_access": "no", "name": "H24", "old_name": "Stella di Ponente", "opening_hours": "24/7", "phone": "+39 090 8884026", "tobacco": "yes", "wheelchair": "yes"}}, {"type": "node", "id": 2747062547, "lat": 38.214947, "lon": 15.2416528, "tags": {"amenity": "cafe", "name": "Elisir", "operator": "Antonia Formica", "phone": "+39 090 9222726", "shop": "pastry", "survey:date": "2017-10-26"}}, {"type": "node", "id": 2747352685, "lat": 38.2284617, "lon": 15.2445431, "tags": {"amenity": "restaurant", "cuisine": "italian;pizza", "name": "Il Giardino di Sicilia", "phone": "+39 090 9222191", "website": "http://www.giardinodisicilia.net"}}, {"type": "node", "id": 2758254966, "lat": 38.2234652, "lon": 15.2415707, "tags": {"amenity": "restaurant", "cuisine": "pizza", "diet:vegan": "yes", "diet:vegetarian": "yes", "name": "Al Duomo", "operator": "Monica Milazzo", "phone": "+39 090 888 3285"}}, {"type": "node", "id": 2758254968, "lat": 38.222096, "lon": 15.2416166, "tags": {"amenity": "restaurant", "name": "Acqua e farina"}}, {"type": "node", "id": 2758286488, "lat": 38.2225245, "lon": 15.242151, "tags": {"amenity": "restaurant", "cuisine": "sushi", "name": "Ma Sushi", "phone": "+39 380 4392371"}}, {"type": "node", "id": 2758286519, "lat": 38.222931, "lon": 15.2424652, "tags": {"amenity": "cafe", "name": "Red Moon Gru\u00e9"}}, {"type": "node", "id": 2759419743, "lat": 38.1739176, "lon": 15.2602896, "tags": {"amenity": "restaurant", "cuisine": "pizza", "name": "Rambla 2.0"}}, {"type": "node", "id": 2761290384, "lat": 38.1771229, "lon": 15.2623485, "tags": {"amenity": "cafe", "name": "Jolly"}}, {"type": "node", "id": 2761708193, "lat": 38.2217267, "lon": 15.2416495, "tags": {"amenity": "restaurant", "cuisine": "pizza", "name": "La Trinacria", "phone": "+39 090 9240353"}}, {"type": "node", "id": 2767156726, "lat": 38.1819371, "lon": 15.2704744, "tags": {"amenity": "cafe", "name": "Il Piccolo Bar", "survey:date": "2014-04-02"}}, {"type": "node", "id": 2770166787, "lat": 38.2371521, "lon": 15.2458836, "tags": {"amenity": "restaurant", "cuisine": "italian", "name": "A pignata", "opening_hours": "Fr-Su 19:45-24:00", "phone": "+39 090 9286821"}}, {"type": "node", "id": 2770166843, "lat": 38.2367988, "lon": 15.2446187, "tags": {"amenity": "restaurant", "email": "info@villahera.it", "name": "Villa Hera", "phone": "+39 328 9716336", "website": "http://www.villahera.it/"}}, {"type": "node", "id": 2776818184, "lat": 38.2173412, "lon": 15.2382494, "tags": {"amenity": "cafe", "name": "Emozioni"}}, {"type": "node", "id": 2776818190, "lat": 38.2114609, "lon": 15.2369195, "tags": {"amenity": "cafe", "name": "On the Run", "operator": "Giovanni Dav\u00ec", "tobacco": "yes"}}, {"type": "node", "id": 2792564688, "lat": 38.2304975, "lon": 15.2431053, "tags": {"amenity": "restaurant", "cuisine": "italian", "email": "alcastellomilazzo@gmail.com", "name": "Al Castello", "operator": "Gino e Nunzia", "phone": "+39 090 9240012"}}, {"type": "node", "id": 2792564690, "lat": 38.2289299, "lon": 15.2423971, "tags": {"amenity": "restaurant", "cuisine": "italian", "name": "Il Saraceno", "phone": "+39 338 9648584"}}, {"type": "node", "id": 2794660681, "lat": 38.2201944, "lon": 15.2417641, "tags": {"amenity": "restaurant", "cuisine": "italian", "name": "Doppio gusto", "phone": "+39 090 9240045"}}, {"type": "node", "id": 2794660685, "lat": 38.2188235, "lon": 15.2405559, "tags": {"amenity": "restaurant", "name": "Terra Pampa", "survey:date": "2024-03-24"}}, {"type": "node", "id": 2794660699, "lat": 38.2196864, "lon": 15.2410968, "tags": {"amenity": "restaurant", "cuisine": "italian", "name": "Hamuri", "survey:date": "2024-03-24"}}, {"type": "node", "id": 2794781104, "lat": 38.2636017, "lon": 15.2436836, "tags": {"amenity": "restaurant", "cuisine": "italian;pizza", "name": "Cirucco", "phone": "+39 090 9284746"}}, {"type": "node", "id": 2794781109, "lat": 38.2297475, "lon": 15.2422737, "tags": {"amenity": "restaurant", "cuisine": "italian", "name": "Degus", "phone": "+39 090 9224612"}}, {"type": "node", "id": 2794781111, "lat": 38.1830308, "lon": 15.2484104, "tags": {"amenity": "restaurant", "cuisine": "italian;pizza", "name": "Green park", "phone": "+39 090 9295268"}}, {"type": "node", "id": 2794781113, "lat": 38.2221658, "lon": 15.2416122, "tags": {"amenity": "restaurant", "cuisine": "italian", "email": "totopassamilolio@gmail.com", "name": "Tot\u00f2 passami l'olio", "website": "https://www.totopassamilolio.it/"}}, {"type": "node", "id": 2794781117, "lat": 38.2214549, "lon": 15.237451, "tags": {"amenity": "restaurant", "cuisine": "pizza", "name": "Mangianapoli", "opening_hours": "Tu-Su 10:00-15:00,19:00-23:00", "phone": "+39 090 2402487"}}, {"type": "node", "id": 2794781125, "lat": 38.1945206, "lon": 15.2461179, "tags": {"amenity": "restaurant", "cuisine": "pizza", "name": "Piccolo regno", "phone": "+39 090 9229150"}}, {"type": "node", "id": 2794781129, "lat": 38.243102, "lon": 15.2517426, "tags": {"amenity": "restaurant", "cuisine": "italian", "name": "Salamone a mare", "phone": "+39 090 9281233"}}, {"type": "node", "id": 2794781133, "lat": 38.2149511, "lon": 15.2427682, "tags": {"amenity": "restaurant", "cuisine": "italian", "name": "Sofia's Bistrot", "phone": "+39 090 9221244"}}, {"type": "node", "id": 2801228608, "lat": 38.2222986, "lon": 15.240097, "tags": {"amenity": "restaurant", "cuisine": "pizza", "name": "U Scheletru", "phone": "+39 090 9240410"}}, {"type": "node", "id": 2803155929, "lat": 38.1601089, "lon": 14.7458133, "tags": {"addr:housenumber": "49", "addr:postcode": "98071", "addr:street": "Via Umberto I", "amenity": "restaurant", "contact:mobile": "+39 339 620 0184", "cuisine": "italian;local;regional", "name": "Le Siciliane", "opening_hours": "Mo-Su 13:00-15:00, 20:00-23:00", "phone": "+39 0941 1902707", "website": "https://le-siciliane.business.site"}}, {"type": "node", "id": 2805493398, "lat": 38.2047811, "lon": 15.2543357, "tags": {"air_conditioning": "yes", "amenity": "restaurant", "cuisine": "pasta;italian;sandwich", "name": "Coffee Mood", "operator": "Caterina Geraci", "phone": "+39 376 238 3461"}}, {"type": "node", "id": 2808461631, "lat": 38.2686056, "lon": 15.2336969, "tags": {"amenity": "cafe", "name": "Il giardino dei capricci"}}, {"type": "node", "id": 2808461632, "lat": 38.2099765, "lon": 15.250984, "tags": {"amenity": "restaurant", "cuisine": "italian", "name": "L'Ugghiularu", "phone": "+39 090 9284384"}}, {"type": "node", "id": 2808461636, "lat": 38.2147114, "lon": 15.2418387, "tags": {"amenity": "restaurant", "cuisine": "italian;pizza", "name": "Hycesia", "phone": "+39 366 8700661"}}, {"type": "node", "id": 2811029007, "lat": 38.2229305, "lon": 15.2423087, "tags": {"amenity": "restaurant", "cuisine": "pizza", "diet:vegetarian": "yes", "name": "Acqua e Farina"}}, {"type": "node", "id": 2811029008, "lat": 38.2273519, "lon": 15.2436863, "tags": {"amenity": "cafe", "name": "Cordial", "phone": "+39 090 9284613", "start_date": "1986"}}, {"type": "node", "id": 2823059097, "lat": 38.2309808, "lon": 15.2465855, "tags": {"amenity": "restaurant", "cuisine": "italian", "name": "L'arte del gusto", "phone": "+39 090 9221992"}}, {"type": "node", "id": 2852902028, "lat": 38.216992, "lon": 15.2376012, "tags": {"amenity": "cafe", "name": "Savoia"}}, {"type": "node", "id": 2892975881, "lat": 38.4130373, "lon": 14.9605222}, {"type": "node", "id": 2892975882, "lat": 38.4130417, "lon": 14.960567}, {"type": "node", "id": 2892975883, "lat": 38.4130519, "lon": 14.9604681}, {"type": "node", "id": 2892975884, "lat": 38.4130578, "lon": 14.9604924}, {"type": "node", "id": 2892975885, "lat": 38.4130841, "lon": 14.9604066}, {"type": "node", "id": 2892975886, "lat": 38.4130841, "lon": 14.9605894}, {"type": "node", "id": 2892975887, "lat": 38.413087, "lon": 14.9604644}, {"type": "node", "id": 2892975888, "lat": 38.4131031, "lon": 14.9606491}, {"type": "node", "id": 2892975889, "lat": 38.4131221, "lon": 14.9604066}, {"type": "node", "id": 2892975890, "lat": 38.4131455, "lon": 14.9604457}, {"type": "node", "id": 2892975891, "lat": 38.4131528, "lon": 14.9606417}, {"type": "node", "id": 2941159478, "lat": 38.5396194, "lon": 14.8698159, "tags": {"addr:housenumber": "5", "addr:street": "Piazza Marina Garibaldi", "amenity": "restaurant", "cuisine": "regional", "email": "info@ildelfinosalina.it", "name": "Il Delfino", "phone": "+39 090 9843024", "website": "www.ildelfinosalina.it"}}, {"type": "node", "id": 2941159491, "lat": 38.5583007, "lon": 14.8716452, "tags": {"amenity": "restaurant", "cuisine": "regional", "name": "Porto Bello"}}, {"type": "node", "id": 2941159492, "lat": 38.5588165, "lon": 14.8717516, "tags": {"addr:postcode": "98050", "amenity": "restaurant", "cuisine": "ice_cream;pasta;pizza", "name": "La Cambusa"}}, {"type": "node", "id": 2941159496, "lat": 38.5593001, "lon": 14.8715653, "tags": {"addr:housenumber": "188", "addr:postcode": "98050", "addr:street": "Via Risorgimento", "amenity": "restaurant", "cuisine": "regional", "email": "nnilausta@hotmail.com", "name": "'nni Lausta", "phone": "+39 090 9843486", "website": "www.isolasalina.com"}}, {"type": "node", "id": 2941160119, "lat": 38.5634845, "lon": 14.8734723, "tags": {"amenity": "restaurant", "cuisine": "regional", "name": "Sale, Amore e Vento Braceria con cucina", "opening_hours": "Mo-Sa 11:30-14:00,19:30-23:30"}}, {"type": "node", "id": 2942589747, "lat": 38.5778047, "lon": 14.8348109, "tags": {"addr:housenumber": "11", "addr:street": "Via San Lorenzo", "amenity": "restaurant", "cuisine": "regional", "name": "A'Lumeredda", "phone": "+39 090 9844130", "source": "Numeri_Civici_CTN2000 83043_Malfa"}}, {"type": "node", "id": 2942589749, "lat": 38.5778645, "lon": 14.8348147, "tags": {"addr:housenumber": "9", "addr:street": "Via San Lorenzo", "amenity": "restaurant", "cuisine": "regional", "name": "Blue Moon", "phone": "+39 090 9844358", "source": "Numeri_Civici_CTN2000 83043_Malfa", "website": "http://www.bluemoonmalfa.it/"}}, {"type": "node", "id": 2942589758, "lat": 38.5783899, "lon": 14.8365394, "tags": {"amenity": "cafe", "internet_access": "wlan", "name": "Irish Caff\u00e8", "opening_hours": "\"depends on the season\"", "tobacco": "yes"}}, {"type": "node", "id": 2984570575, "lat": 38.5762001, "lon": 14.8095656, "tags": {"addr:housenumber": "38", "addr:postcode": "98050", "addr:street": "Via Chiesa", "amenity": "restaurant", "name": "Agriturismo Al Cappero", "website": "https://www.alcappero.it/"}}, {"type": "node", "id": 3012315843, "lat": 38.2192673, "lon": 15.2407796, "tags": {"amenity": "restaurant", "cuisine": "italian", "name": "Panzakina", "phone": "+39 090 9287150"}}, {"type": "node", "id": 3047807969, "lat": 38.4156019, "lon": 14.9587111, "tags": {"amenity": "restaurant", "cuisine": "pizza", "name": "Il Palmento"}}, {"type": "node", "id": 3054106093, "lat": 38.3693637, "lon": 14.993823}, {"type": "node", "id": 3054106094, "lat": 38.3694064, "lon": 14.9938038}, {"type": "node", "id": 3054106096, "lat": 38.3693176, "lon": 14.9938225}, {"type": "node", "id": 3054106097, "lat": 38.3693585, "lon": 14.9938042}, {"type": "node", "id": 3054106098, "lat": 38.3693637, "lon": 14.9939893}, {"type": "node", "id": 3054106099, "lat": 38.3694387, "lon": 14.9939205}, {"type": "node", "id": 3055077501, "lat": 38.4146116, "lon": 14.9586656}, {"type": "node", "id": 3055077507, "lat": 38.4144376, "lon": 14.9586835}, {"type": "node", "id": 3055077523, "lat": 38.4145409, "lon": 14.9585566}, {"type": "node", "id": 3055077526, "lat": 38.4147655, "lon": 14.9584765}, {"type": "node", "id": 3055077527, "lat": 38.4145142, "lon": 14.9587851}, {"type": "node", "id": 3055077529, "lat": 38.4147133, "lon": 14.9584073}, {"type": "node", "id": 3055082034, "lat": 38.4146537, "lon": 14.9601202}, {"type": "node", "id": 3055082038, "lat": 38.4145654, "lon": 14.958589}, {"type": "node", "id": 3055558561, "lat": 38.4182207, "lon": 14.9554531}, {"type": "node", "id": 3055558586, "lat": 38.4181997, "lon": 14.9551929}, {"type": "node", "id": 3055558933, "lat": 38.4181226, "lon": 14.9552742}, {"type": "node", "id": 3055558951, "lat": 38.4182344, "lon": 14.9551669}, {"type": "node", "id": 3055604094, "lat": 38.3832797, "lon": 14.9757385}, {"type": "node", "id": 3055604095, "lat": 38.3832578, "lon": 14.9757116}, {"type": "node", "id": 3055604096, "lat": 38.3832225, "lon": 14.9758142}, {"type": "node", "id": 3055604097, "lat": 38.3832771, "lon": 14.9755285}, {"type": "node", "id": 3055604098, "lat": 38.3831389, "lon": 14.9757114}, {"type": "node", "id": 3055604099, "lat": 38.3833388, "lon": 14.9756044}, {"type": "node", "id": 3058936733, "lat": 38.1628782, "lon": 14.7463672, "tags": {"addr:city": "Capo d'Orlando", "addr:housenumber": "18", "addr:postcode": "98071", "addr:street": "Piazza Francesco Caracciolo", "amenity": "restaurant", "contact:facebook": "ristorantepizzeriaodeon", "contact:mobile": "+39 366 507 0559", "cuisine": "pizza;regional", "diet:vegetarian": "yes", "name": "Ristorante Pizzeria Odeon", "opening_hours": "Mo-Su 12:00-15:00,19:00-24:00; Tu off", "outdoor_seating": "yes", "phone": "+39 0941 901467", "source": "business card, survey", "takeaway": "yes"}}, {"type": "node", "id": 3078883745, "lat": 38.4645523, "lon": 14.956122, "tags": {"addr:housenumber": "31", "addr:street": "Via Roma", "amenity": "restaurant", "name": "A Sfiziusa"}}, {"type": "node", "id": 3081605303, "lat": 38.4713418, "lon": 14.9540787, "tags": {"amenity": "restaurant", "name": "Mela Gusto"}}, {"type": "node", "id": 3082430845, "lat": 38.2237217, "lon": 15.2423639, "tags": {"amenity": "restaurant", "cuisine": "italian", "name": "Panza e presenza", "phone": "+39 090 9281665"}}, {"type": "node", "id": 3087209911, "lat": 38.2210751, "lon": 15.2421735, "tags": {"amenity": "restaurant", "cuisine": "italian", "name": "Cialoma", "phone": "+39 090 9224337"}}, {"type": "node", "id": 3089610898, "lat": 38.4127759, "lon": 14.9587597, "tags": {"addr:housenumber": "45", "addr:street": "Via Porto di Levante", "amenity": "restaurant", "name": "Maurizio"}}, {"type": "node", "id": 3092602404, "lat": 38.2186134, "lon": 15.2410147, "tags": {"amenity": "cafe", "check_date": "2023-06-10", "outdoor_seating": "yes"}}, {"type": "node", "id": 3114825938, "lat": 38.2288084, "lon": 15.2422648, "tags": {"amenity": "restaurant", "cuisine": "italian", "name": "Caff\u00e8 Antico"}}, {"type": "node", "id": 3120540967, "lat": 38.2358855, "lon": 15.2397637}, {"type": "node", "id": 3123771294, "lat": 38.1893629, "lon": 14.9124801, "tags": {"amenity": "restaurant", "cuisine": "italian;pizza;regional"}}, {"type": "node", "id": 3144448058, "lat": 38.1511515, "lon": 14.9695649, "tags": {"addr:city": "Patti", "addr:housenumber": "53", "addr:street": "Via Luca della Robbia", "amenity": "restaurant", "name": "Le Fornaci", "tourism": "guest_house", "website": "http://www.lefornacipatti.com"}}, {"type": "node", "id": 3150444483, "lat": 38.169422, "lon": 14.9487753}, {"type": "node", "id": 3150444485, "lat": 38.1694664, "lon": 14.9488546}, {"type": "node", "id": 3150444486, "lat": 38.1695257, "lon": 14.9486815}, {"type": "node", "id": 3150444487, "lat": 38.1695701, "lon": 14.9487608}, {"type": "node", "id": 3152525761, "lat": 38.1680908, "lon": 14.9501278, "tags": {"amenity": "restaurant", "name": "La Pineta"}}, {"type": "node", "id": 3154830049, "lat": 38.1751339, "lon": 14.9440478, "tags": {"amenity": "cafe", "name": "Saint George Cafe"}}, {"type": "node", "id": 3155453992, "lat": 38.1749505, "lon": 14.9444882, "tags": {"amenity": "cafe", "name": "Bar del Mare"}}, {"type": "node", "id": 3155480865, "lat": 38.1712284, "lon": 14.9452161, "tags": {"addr:city": "San Giorgio", "addr:country": "IT", "addr:housenumber": "52", "addr:postcode": "98063", "addr:street": "Via Sicilia", "amenity": "restaurant", "name": "Saint George Hotel Club", "tourism": "hotel", "website": "http://www.hotelsaintgeorge.it"}}, {"type": "node", "id": 3201370427, "lat": 38.2161678, "lon": 15.234714, "tags": {"amenity": "cafe", "name": "Melasia", "operator": "Vincenzo Zito", "phone": "+39 090 9283288"}}, {"type": "node", "id": 3207417873, "lat": 38.2151739, "lon": 15.2417436, "tags": {"amenity": "cafe", "name": "Atlantic City", "wheelchair": "no"}}, {"type": "node", "id": 3207791522, "lat": 38.2088779, "lon": 15.2523082, "tags": {"amenity": "restaurant", "cuisine": "italian", "name": "Sua Maest\u00e0", "opening_hours": "Mo-Su 11:00-15:00,19:00-24:00; Tu off", "phone": "+39 090 9221599"}}, {"type": "node", "id": 3212823178, "lat": 38.169315, "lon": 15.2737156, "tags": {"amenity": "cafe", "name": "Manna"}}, {"type": "node", "id": 3212823195, "lat": 38.1775724, "lon": 15.2643583, "tags": {"amenity": "cafe", "name": "Atlantic City"}}, {"type": "node", "id": 3317165478, "lat": 38.1869925, "lon": 15.2591449}, {"type": "node", "id": 3317165487, "lat": 38.1870543, "lon": 15.259307}, {"type": "node", "id": 3317165497, "lat": 38.187094, "lon": 15.2592828}, {"type": "node", "id": 3317165503, "lat": 38.1871375, "lon": 15.2592459}, {"type": "node", "id": 3317165506, "lat": 38.1871718, "lon": 15.2594497}, {"type": "node", "id": 3317165512, "lat": 38.1872123, "lon": 15.2594255}, {"type": "node", "id": 3317165521, "lat": 38.1872466, "lon": 15.2589683}, {"type": "node", "id": 3317165527, "lat": 38.1872848, "lon": 15.2591401}, {"type": "node", "id": 3359839531, "lat": 38.177077, "lon": 15.2663004, "tags": {"amenity": "restaurant", "cuisine": "pizza", "name": "Rosticceria da Massimo", "phone": "+39 090 931653"}}, {"type": "node", "id": 3379544455, "lat": 38.4982826, "lon": 14.920196, "tags": {"amenity": "cafe", "name": "Iacono", "tobacco": "yes"}}, {"type": "node", "id": 3379544464, "lat": 38.4991302, "lon": 14.9197247, "tags": {"amenity": "restaurant", "cuisine": "italian", "name": "A menza quartara"}}, {"type": "node", "id": 3379544466, "lat": 38.4993312, "lon": 14.9197817, "tags": {"amenity": "cafe"}}, {"type": "node", "id": 3482565085, "lat": 38.1596591, "lon": 14.7437681, "tags": {"amenity": "cafe", "name": "Bar delle Poste", "phone": "+39 0941 901603"}}, {"type": "node", "id": 3633973825, "lat": 38.2219458, "lon": 15.2428779, "tags": {"amenity": "restaurant", "cuisine": "italian;pizza", "name": "Esposito", "phone": "+39 090 9222012"}}, {"type": "node", "id": 3665913981, "lat": 38.1669992, "lon": 15.2419353, "tags": {"amenity": "restaurant", "cuisine": "italian;pizza", "name": "Traminer", "phone": "+39 090 9763814", "wheelchair": "yes"}}, {"type": "node", "id": 3673127321, "lat": 38.178586, "lon": 15.2056814, "tags": {"amenity": "cafe", "name": "Sofia Caf\u00e8"}}, {"type": "node", "id": 3673160915, "lat": 38.173305, "lon": 15.1981553, "tags": {"amenity": "restaurant"}}, {"type": "node", "id": 3673355799, "lat": 38.172832, "lon": 15.1976947, "tags": {"amenity": "cafe", "name": "Bar Fratelli Barca", "phone": "+39 090 9710335", "start_date": "1951"}}, {"type": "node", "id": 3673355801, "lat": 38.1721615, "lon": 15.1970727, "tags": {"amenity": "cafe", "name": "Calder\u00e0"}}, {"type": "node", "id": 3673355805, "lat": 38.1726463, "lon": 15.1975544, "tags": {"amenity": "cafe", "name": "Il Tramonto", "phone": "+39 090 9711146"}}, {"type": "node", "id": 3673355806, "lat": 38.1730273, "lon": 15.198487, "tags": {"amenity": "restaurant", "cuisine": "pizza", "name": "La Piazzetta", "operator": "Domenico Presti", "outdoor_seating": "yes", "phone": "+39 333 9031904", "takeaway": "yes"}}, {"type": "node", "id": 3673415700, "lat": 38.2691768, "lon": 15.2322453, "tags": {"amenity": "restaurant", "name": "Paradiso", "phone": "+39 090 9224015"}}, {"type": "node", "id": 3687787424, "lat": 38.2680789, "lon": 15.2346629, "tags": {"amenity": "restaurant", "name": "La Baia", "phone": "+39 349 1195673"}}, {"type": "node", "id": 3689580499, "lat": 38.4662763, "lon": 14.955756, "tags": {"amenity": "restaurant", "check_date": "2023-06-15", "name": "La Cambusa", "source": "survey"}}, {"type": "node", "id": 3691002521, "lat": 38.1828458, "lon": 15.2509244, "tags": {"amenity": "restaurant", "name": "Villa Cuciti", "phone": "+39 090 9229496"}}, {"type": "node", "id": 3698609579, "lat": 38.2278379, "lon": 15.244393, "tags": {"amenity": "restaurant", "cuisine": "pizza", "name": "Lo Sfizio", "operator": "Giovanni Ullo", "phone": "+39 090 9221257", "takeaway": "yes"}}, {"type": "node", "id": 3698609580, "lat": 38.2281848, "lon": 15.2448477, "tags": {"amenity": "restaurant", "cuisine": "italian", "diet:vegetarian": "yes", "name": "Trattoria da Filippo", "phone": "+39 090 9281951"}}, {"type": "node", "id": 3711392910, "lat": 38.5565835, "lon": 14.8704182, "tags": {"amenity": "restaurant", "cuisine": "italian", "name": "Riconco"}}, {"type": "node", "id": 3725813461, "lat": 38.2222303, "lon": 15.2427641, "tags": {"amenity": "cafe", "cuisine": "ice_cream", "name": "Yogorino", "outdoor_seating": "yes"}}, {"type": "node", "id": 3914630912, "lat": 38.2184278, "lon": 15.2398697, "tags": {"amenity": "restaurant", "cuisine": "pizza", "name": "Da Tonino", "phone": "+39 090 9221993"}}, {"type": "node", "id": 4058190295, "lat": 38.4696878, "lon": 14.9547285, "tags": {"amenity": "restaurant", "name": "Officina del Cannolo"}}, {"type": "node", "id": 4058190296, "lat": 38.4698069, "lon": 14.9547652, "tags": {"amenity": "restaurant"}}, {"type": "node", "id": 4058412589, "lat": 38.4659051, "lon": 14.9555794, "tags": {"addr:city": "Lipari", "addr:country": "IT", "addr:housenumber": "45", "addr:postcode": "98055", "addr:street": "Vico Selinunte", "amenity": "restaurant", "cuisine": "regional", "email": "kasbahcafe@virgilio.it", "name": "Kasbah Cafe", "outdoor_seating": "yes", "phone": "+39 90 98 11 075", "website": "http://www.kasbahcafe.it/"}}, {"type": "node", "id": 4203096995, "lat": 38.4688479, "lon": 14.9553554, "tags": {"amenity": "restaurant", "cuisine": "italian"}}, {"type": "node", "id": 4203097002, "lat": 38.4690999, "lon": 14.9551838, "tags": {"amenity": "restaurant", "cuisine": "italian"}}, {"type": "node", "id": 4208936528, "lat": 38.4731407, "lon": 14.9514142, "tags": {"addr:city": "Lipari", "addr:postcode": "98055", "addr:street": "Via Giovanni Falcone e Paolo Borsellino", "amenity": "restaurant", "capacity": "200", "cuisine": "fish;italian;regional", "name": "Ristorante Chimera", "phone": "+39 090 9811934", "website": "http://www.ristorantechimera.it", "wheelchair": "yes"}}, {"type": "node", "id": 4208936532, "lat": 38.3712448, "lon": 14.9963024, "tags": {"addr:city": "Vulcano - Lipari", "addr:postcode": "98050", "addr:street": "Contrada Gelso", "amenity": "restaurant", "cuisine": "aeolian;fish;pizza", "delivery": "yes", "name": "AsinoBeach", "phone": "+39 333 3071974", "smoking": "outside", "takeaway": "yes", "website": "http://www.asinobeach.it"}}, {"type": "node", "id": 4222520508, "lat": 38.4672826, "lon": 14.9551477, "tags": {"amenity": "restaurant", "cuisine": "regional"}}, {"type": "node", "id": 4226743645, "lat": 38.4654564, "lon": 14.9552165, "tags": {"amenity": "cafe", "name": "Giardino di Lipari"}}, {"type": "node", "id": 4237640173, "lat": 38.1562978, "lon": 14.8183951, "tags": {"air_conditioning": "yes", "amenity": "cafe", "name": "Bar del Centro", "opening_hours": "Mo-Su 09:00-21:00", "wheelchair": "yes"}}, {"type": "node", "id": 4242825822, "lat": 38.4193145, "lon": 14.9568397, "tags": {"amenity": "restaurant", "cuisine": "italian;salad;sandwich", "name": "Baja Negra", "outdoor_seating": "yes", "self_service": "yes", "takeaway": "yes", "wheelchair": "limited"}}, {"type": "node", "id": 4251166044, "lat": 38.1654667, "lon": 14.8489904, "tags": {"addr:housenumber": "5", "addr:postcode": "98060", "addr:street": "Via del Popolo", "amenity": "restaurant", "contact:facebook": "LaScoglieraHotel", "email": "info@lascoglierahotel.eu", "name": "La Scogliera", "phone": "0941 560813", "website": "https://www.lascoglierahotel.eu/"}}, {"type": "node", "id": 4278782593, "lat": 38.1656069, "lon": 15.1901213, "tags": {"amenity": "cafe", "cuisine": "ice_cream", "level": "0", "name": "Frank Caf\u00e9"}}, {"type": "node", "id": 4280209192, "lat": 38.14859, "lon": 14.8012098, "tags": {"addr:housenumber": "29", "addr:postcode": "98074", "addr:street": "Ponte Naso", "amenity": "cafe", "contact:mobile": "+39 320 972 0067", "cuisine": "coffee_shop;ice_cream;pastry", "name": "Bar Fortunato", "opening_hours": "Mo-Fr 06:30-22:00; Sa,Su 07:00-22:00", "outdoor_seating": "yes"}}, {"type": "node", "id": 4311243062, "lat": 38.2225646, "lon": 15.242697, "tags": {"amenity": "restaurant", "cuisine": "italian;pizza", "name": "La Chinta", "opening_hours": "Mo-Su 18:30-24:00", "outdoor_seating": "yes", "phone": "+39 388 9362169", "smoking": "outside"}}, {"type": "node", "id": 4312265299, "lat": 38.2145689, "lon": 15.2412732, "tags": {"amenity": "restaurant", "cuisine": "pizza", "name": "Al Trancio", "operator": "Marco Garofalo", "phone": "+39 090 9414105", "takeaway": "yes"}}, {"type": "node", "id": 4317162230, "lat": 38.2233807, "lon": 15.241981, "tags": {"amenity": "restaurant", "cuisine": "italian", "name": "Settiti e mancia", "phone": "+39 391 1351789"}}, {"type": "node", "id": 4337151569, "lat": 38.2156641, "lon": 15.2393321, "tags": {"amenity": "cafe", "name": "San Michele", "old_name": "Saverly", "phone": "+39 090 9224994"}}, {"type": "node", "id": 4351226890, "lat": 38.149622, "lon": 14.8320891, "tags": {"amenity": "cafe", "cuisine": "ice_cream;coffee_shop", "name": "Lo Svincolo"}}, {"type": "node", "id": 4351445738, "lat": 38.2228883, "lon": 15.2382611, "tags": {"amenity": "cafe", "contact:phone": "+39 090 9576191", "name": "Gio's Caf\u00e9", "operator": "Giovanni Gerace"}}, {"type": "node", "id": 4381978571, "lat": 38.2191665, "lon": 15.2366243, "tags": {"amenity": "restaurant", "name": "La Fiorentina", "operator": "Emanuele Testa", "phone": "+39 090 9288348", "shop": "butcher"}}, {"type": "node", "id": 4428774266, "lat": 38.2204834, "lon": 15.2391615, "tags": {"amenity": "cafe", "internet_access": "no", "level": "0", "name": "Tiffany's", "smoking": "no", "wheelchair": "no"}}, {"type": "node", "id": 4454509202, "lat": 38.222765, "lon": 15.2422126, "tags": {"amenity": "restaurant", "cuisine": "italian", "name": "Raffaele"}}, {"type": "node", "id": 4455989591, "lat": 38.2189028, "lon": 15.2406141, "tags": {"amenity": "restaurant", "cuisine": "italian", "name": "Zicily", "survey:date": "2024-03"}}, {"type": "node", "id": 4467771265, "lat": 38.1807726, "lon": 15.2662439, "tags": {"amenity": "cafe", "level": "1", "name": "Blue Bar", "smoking": "no"}}, {"type": "node", "id": 4467833117, "lat": 38.1970779, "lon": 15.283255, "tags": {"amenity": "restaurant", "name": "Ritrovo Fratelli Curr\u00f2", "outdoor_seating": "yes"}}, {"type": "node", "id": 4511860438, "lat": 38.1744919, "lon": 14.8975044, "tags": {"addr:housenumber": "1", "addr:street": "Piazza Galliani", "amenity": "cafe", "name": "Bar Centrale", "operator": "Allesandro Sciammetta", "outdoor_seating": "yes", "phone": "+39 0941 302515", "wheelchair": "yes"}}, {"type": "node", "id": 4566862787, "lat": 38.1819082, "lon": 15.2775196, "tags": {"amenity": "restaurant", "name": "Villa Giulia", "phone": "+39 389 8943216"}}, {"type": "node", "id": 4579606900, "lat": 38.1779747, "lon": 15.2481461, "tags": {"amenity": "cafe", "name": "Valenti", "tobacco": "yes"}}, {"type": "node", "id": 4582260079, "lat": 38.217954, "lon": 15.2388236, "tags": {"amenity": "cafe", "email": "torrefazionelarabico@gmail.com", "name": "Caff\u00e8 Larabico", "phone": "+39 090 9282330", "website": "https://larabico.it/"}}, {"type": "node", "id": 4598036175, "lat": 38.1756109, "lon": 15.2595913, "tags": {"amenity": "restaurant", "cuisine": "seafood;italian;pizza", "name": "Simo", "operator": "Simone", "outdoor_seating": "yes", "phone": "+39 349 7837727"}}, {"type": "node", "id": 4666651287, "lat": 38.1709824, "lon": 15.2843086, "tags": {"amenity": "restaurant", "email": "info@valverdesrl.com", "name": "Valverde", "opening_hours": "Mo-Sa 08:30-13:30,16:00-20:30; Su 08:30-13:00", "operator": "Nino Merlino", "phone": "+39 090 930994", "start_date": "1982", "website": "https://valverdesrl.com/"}}, {"type": "node", "id": 4679640105, "lat": 38.2237208, "lon": 15.2422525, "tags": {"amenity": "restaurant", "cuisine": "italian", "email": "lacampagnola63@gmail.com", "name": "La Campagnola", "opening_hours": "Tu-Fr 18:30-24:00; Sa,Su 12:00-24:00", "phone": "+39 348 0560389", "website": "http://www.trattoria-lacampagnola.it"}}, {"type": "node", "id": 4741602640, "lat": 38.2254477, "lon": 15.2429408, "tags": {"amenity": "cafe", "internet_access": "wlan", "internet_access:fee": "no", "name": "Madison gaming lounge", "phone": "+39 090 9282418", "smoking": "separated", "website": "http://www.madisonlounge.it"}}, {"type": "node", "id": 4752165314, "lat": 38.176005, "lon": 15.2653253, "tags": {"amenity": "cafe", "name": "Edit Bar"}}, {"type": "node", "id": 4754902408, "lat": 38.225654, "lon": 15.2386133, "tags": {"amenity": "cafe", "name": "Red Moon"}}, {"type": "node", "id": 4897122335, "lat": 38.2220018, "lon": 15.239086, "tags": {"addr:city": "Milazzo", "addr:country": "IT", "addr:housenumber": "21", "addr:postcode": "98057", "addr:street": "Via Venti Settembre", "amenity": "cafe", "name": "Tot\u00f9"}}, {"type": "node", "id": 4926010393, "lat": 38.216769, "lon": 15.240807, "tags": {"amenity": "restaurant", "cuisine": "sushi", "diet:vegetarian": "no", "name": "Sushi Leye", "start_date": "2017"}}, {"type": "node", "id": 5016251722, "lat": 38.2191789, "lon": 15.2374617, "tags": {"amenity": "cafe", "name": "Gemm", "operator": "Vincenzo Polizzotto", "phone": "+39 347 1312719"}}, {"type": "node", "id": 5023501186, "lat": 38.2212355, "lon": 15.2426233, "tags": {"amenity": "restaurant", "cuisine": "italian;pizza", "name": "Pappafico", "phone": "+39 347 1746900"}}, {"type": "node", "id": 5035255523, "lat": 38.1537783, "lon": 14.9664618, "tags": {"addr:street": "Via Capitano Filippo Zuccarello", "amenity": "restaurant", "name": "Wine bar"}}, {"type": "node", "id": 5035255525, "lat": 38.1533392, "lon": 14.9663545, "tags": {"addr:housenumber": "133", "addr:street": "Via Cristoforo Colombo", "amenity": "restaurant", "cuisine": "pizza", "name": "Pizzeria al castello", "phone": "+39 380 7792380"}}, {"type": "node", "id": 5035279122, "lat": 38.1539519, "lon": 14.9662951, "tags": {"addr:street": "Via Capitano Filippo Zuccarello", "amenity": "restaurant", "name": "Pizzeria senza regole"}}, {"type": "node", "id": 5036932401, "lat": 38.1636631, "lon": 14.8474911, "tags": {"amenity": "restaurant", "cuisine": "pizza", "name": "Il Pizzettaro", "outdoor_seating": "yes", "takeaway": "yes"}}, {"type": "node", "id": 5073780816, "lat": 38.5477901, "lon": 14.8274181}, {"type": "node", "id": 5073780817, "lat": 38.5477836, "lon": 14.8274187}, {"type": "node", "id": 5073780818, "lat": 38.5476816, "lon": 14.827285}, {"type": "node", "id": 5073780819, "lat": 38.5476755, "lon": 14.8271984}, {"type": "node", "id": 5102100449, "lat": 38.221274, "lon": 15.2424215, "tags": {"amenity": "restaurant", "cuisine": "sushi", "name": "Temak\u00ec"}}, {"type": "node", "id": 5136989375, "lat": 38.1519876, "lon": 14.9691475, "tags": {"addr:city": "Patti", "addr:housenumber": "63", "addr:postcode": "98066", "addr:street": "Via Cristoforo Colombo", "amenity": "cafe", "name": "Coffee Break"}}, {"type": "node", "id": 5140311481, "lat": 38.1627176, "lon": 14.9564467}, {"type": "node", "id": 5140311482, "lat": 38.162781, "lon": 14.9566306}, {"type": "node", "id": 5140311483, "lat": 38.1627194, "lon": 14.9566649}, {"type": "node", "id": 5140311484, "lat": 38.1627979, "lon": 14.9568926}, {"type": "node", "id": 5140311485, "lat": 38.1630436, "lon": 14.9567556}, {"type": "node", "id": 5140311486, "lat": 38.1629018, "lon": 14.956344}, {"type": "node", "id": 5165138725, "lat": 38.4654501, "lon": 14.956372, "tags": {"amenity": "restaurant", "name": "La Nassa"}}, {"type": "node", "id": 5165344522, "lat": 38.4646282, "lon": 14.956466, "tags": {"addr:housenumber": "2", "addr:postcode": "98050", "addr:street": "Piazza Ugo di Sant'Onofrio", "amenity": "cafe", "cuisine": "coffee_shop;ice_cream;italian;pizza", "name": "Caffe La Vela", "phone": "+39 909812600", "website": "https://www.lavelacaffe.com"}}, {"type": "node", "id": 5170881421, "lat": 38.4680818, "lon": 14.9545538, "tags": {"addr:housenumber": "191", "addr:postcode": "98055", "addr:street": "Corso Vittorio Emanuele", "amenity": "cafe", "cuisine": "coffee_shop;italian;pasta;sandwich;seafood", "internet_access": "wlan", "name": "Cafe la precchia", "phone": "+39 030 2743 0838"}}, {"type": "node", "id": 5179524434, "lat": 38.1579972, "lon": 14.7445599}, {"type": "node", "id": 5179524435, "lat": 38.1579537, "lon": 14.74458}, {"type": "node", "id": 5179524436, "lat": 38.1579832, "lon": 14.744684}, {"type": "node", "id": 5179524437, "lat": 38.158027, "lon": 14.7446639}, {"type": "node", "id": 5219346895, "lat": 38.2199479, "lon": 15.2384971, "tags": {"amenity": "cafe", "email": "info@tuppo.it", "name": "Tuppo", "phone": "+39 090 2407077"}}, {"type": "node", "id": 5253642995, "lat": 38.2011129, "lon": 15.2471828, "tags": {"amenity": "cafe", "name": "Da Laura", "operator": "Laura Frucella", "tobacco": "yes"}}, {"type": "node", "id": 5271388307, "lat": 38.1625409, "lon": 14.7446435, "tags": {"addr:city": "Capo d'Orlando", "addr:housenumber": "22", "addr:postcode": "98071", "addr:street": "Lungomare Andrea Doria", "amenity": "restaurant", "contact:facebook": "RistoranteICarusi", "cuisine": "seafood", "diet:pescetarian": "yes", "email": "ristoranteicarusi@gmail.com", "name": "I Carusi", "opening_hours": "Mo-Su 12:30-15:30,19:00-23:30", "phone": "+39 0941 914141", "website": "https://ristoranteicarusi.it/"}}, {"type": "node", "id": 5305563808, "lat": 38.1623793, "lon": 14.8424423}, {"type": "node", "id": 5305563809, "lat": 38.1624762, "lon": 14.8427684}, {"type": "node", "id": 5305563810, "lat": 38.1626552, "lon": 14.8426824}, {"type": "node", "id": 5305563811, "lat": 38.1625584, "lon": 14.8423563}, {"type": "node", "id": 5410224269, "lat": 38.1556141, "lon": 14.7653145}, {"type": "node", "id": 5410224270, "lat": 38.1554448, "lon": 14.7655194}, {"type": "node", "id": 5410224271, "lat": 38.1555183, "lon": 14.7656177}, {"type": "node", "id": 5410224272, "lat": 38.1556876, "lon": 14.7654128}, {"type": "node", "id": 5411834955, "lat": 38.1541226, "lon": 14.7700578, "tags": {"addr:city": "Capo d'Orlando", "addr:postcode": "98071", "amenity": "cafe", "name": "Al Porto - Bar e Tabacchi", "opening_hours": "Mo-Su 07:00-22:00", "phone": "+39 0941 328670", "sells:tobacco": "yes"}}, {"type": "node", "id": 5411834957, "lat": 38.1541804, "lon": 14.7711461, "tags": {"addr:city": "Capo d'Orlando", "addr:postcode": "98071", "amenity": "restaurant", "contact:facebook": "masushiconceptstore", "contact:mobile": "+39 392 114 1413", "cuisine": "seafood;sushi", "name": "Ma Sushi", "opening_hours": "Tu-Sa 12:30-15:00,19:00-24:00; Fr 19:00-24:00; Su 13:00-24:00"}}, {"type": "node", "id": 5480574223, "lat": 38.2194853, "lon": 15.2400347, "tags": {"amenity": "restaurant", "name": "Malvasia", "phone": "+39 331 4979643"}}, {"type": "node", "id": 5532571392, "lat": 38.2319304, "lon": 15.2443662, "tags": {"amenity": "restaurant", "cuisine": "italian", "email": "info@ristorantemaurizio.net", "name": "Ristorante Maurizio", "opening_hours": "Mo-Su 13:00-14:30,20:00-23:00; Tu 09:00-17:00; We off", "operator": "Maurizio Di Bella", "phone": "+39 090 9286271;+39 338 2980580", "website": "http://www.ristorantemaurizio.net/"}}, {"type": "node", "id": 5574692439, "lat": 38.1558619, "lon": 14.8254956, "tags": {"amenity": "restaurant", "cuisine": "italian;coffee_shop;pizza;chicken", "level": "0", "name": "Caff\u00e8 Latino", "operator": "Gattignolo Fabio", "takeaway": "yes"}}, {"type": "node", "id": 5580984818, "lat": 38.4722376, "lon": 14.9249311, "tags": {"amenity": "restaurant", "name": "Al Bivio"}}, {"type": "node", "id": 5582169521, "lat": 38.1746442, "lon": 14.897122, "tags": {"amenity": "cafe", "name": "Casa del dolce"}}, {"type": "node", "id": 5636028770, "lat": 38.2166415, "lon": 15.2394191, "tags": {"amenity": "restaurant", "cuisine": "pizza", "diet:vegetarian": "yes", "name": "Non Solo Pizza"}}, {"type": "node", "id": 5651313455, "lat": 38.1614339, "lon": 14.7459337, "tags": {"amenity": "cafe", "name": "Plaza Caf\u00e8", "outdoor_seating": "yes", "smoking": "outside"}}, {"type": "node", "id": 5693133101, "lat": 38.1595151, "lon": 14.7414402, "tags": {"addr:city": "Capo d'Orlando", "addr:housenumber": "52", "addr:postcode": "98071", "addr:street": "Lungomare Andrea Doria", "alt_name": "Passa parola", "amenity": "restaurant", "contact:facebook": "passaparolaristo", "cuisine": "italian_pizza;pasta;sushi;regional;fish;seafood", "name": "Passaparola", "opening_hours": "Mo 12:00-15:00; Tu-Su 12:00-15:00,19:30-23:59", "outdoor_seating": "yes", "phone": "+39 0941 911027", "takeaway": "yes", "website": "http://www.passaparolacapodorlando.it/ristorante/"}}, {"type": "node", "id": 5693135019, "lat": 38.1579639, "lon": 14.7445753}, {"type": "node", "id": 5693135226, "lat": 38.1580152, "lon": 14.7446693}, {"type": "node", "id": 5699334924, "lat": 38.465424, "lon": 14.9545779, "tags": {"addr:street": "Vico Scudo", "amenity": "restaurant", "check_date": "2023-06-11", "name": "Il Corallo", "opening_hours": "19:30-22:00"}}, {"type": "node", "id": 5700345521, "lat": 38.4715639, "lon": 14.9540647, "tags": {"addr:street": "Via Francesco Crispi", "amenity": "cafe", "check_date": "2023-06-11", "name": "Fratelli Laise", "payment:mastercard": "yes", "payment:visa": "yes"}}, {"type": "node", "id": 5700368522, "lat": 38.4678001, "lon": 14.9548878, "tags": {"addr:street": "Corso Vittorio Emanuele", "amenity": "restaurant", "name": "Latteria 581"}}, {"type": "node", "id": 5739547685, "lat": 38.1608601, "lon": 14.7465641, "tags": {"addr:city": "Capo d'Orlando", "addr:housenumber": "25", "addr:postcode": "98071", "addr:street": "Via Giovanni Amendola", "amenity": "cafe", "contact:facebook": "pasticceriagiulio", "cuisine": "pastry;cake;coffee_shop;coffee;ice_cream", "name": "Pasticceria Giulio", "opening_hours": "Mo-Su 07:00-24:00; We off", "outdoor_seating": "yes", "phone": "+39 0941 912546", "takeaway": "yes", "website": "https://www.pasticceriagiulio.com/"}}, {"type": "node", "id": 5759615805, "lat": 38.1851515, "lon": 14.9106915, "tags": {"amenity": "restaurant", "name": "Villa Smeralda"}}, {"type": "node", "id": 5759616015, "lat": 38.1742814, "lon": 14.8956056, "tags": {"amenity": "restaurant", "cuisine": "pizza", "name": "La Piazzetta", "opening_hours": "Mo-Su 11:00-14:30,19:30-00:30; Tu off", "phone": "+39 0941 302940", "smoking": "no", "takeaway": "yes", "wheelchair": "yes"}}, {"type": "node", "id": 6225091398, "lat": 38.1829839, "lon": 15.2685088, "tags": {"amenity": "restaurant", "brand": "Old Wild West", "brand:wikidata": "Q25402475", "cuisine": "american", "name": "Old Wild West"}}, {"type": "node", "id": 6345525907, "lat": 38.1717986, "lon": 14.8933589, "tags": {"addr:city": "Gioiosa Marea", "addr:postcode": "98063", "addr:street": "Via Umberto I", "amenity": "restaurant", "cuisine": "regional;italian;italian_pizza", "name": "Ristorante Pizzeria Rendez Vous", "outdoor_seating": "yes"}}, {"type": "node", "id": 6367331688, "lat": 38.1749846, "lon": 15.259535, "tags": {"amenity": "cafe", "name": "Zanzibar", "operator": "Liboria Giordano"}}, {"type": "node", "id": 6417348789, "lat": 38.1771324, "lon": 15.2632909, "tags": {"amenity": "cafe", "name": "Soleluna"}}, {"type": "node", "id": 6417352018, "lat": 38.1762047, "lon": 15.2643835, "tags": {"amenity": "cafe", "name": "Lion Bar"}}, {"type": "node", "id": 6461223059, "lat": 38.1685174, "lon": 15.2730896, "tags": {"amenity": "cafe", "name": "Rotima"}}, {"type": "node", "id": 6461223060, "lat": 38.168762, "lon": 15.2737212, "tags": {"amenity": "restaurant", "cuisine": "pizza", "name": "Pizzeria del Corso"}}, {"type": "node", "id": 6565590536, "lat": 38.417444, "lon": 14.9581278, "tags": {"amenity": "restaurant", "cuisine": "italian", "name": "Tavole e Favole"}}, {"type": "node", "id": 6565749323, "lat": 38.4137287, "lon": 14.9591506, "tags": {"amenity": "restaurant", "name": "Levante 88"}}, {"type": "node", "id": 6565760406, "lat": 38.4132103, "lon": 14.9546491, "tags": {"amenity": "restaurant", "check_date": "2023-06-13", "name": "Don Piricuddu", "opening_hours": "Mo-Su 11:00-14:30,19:00-23:30"}}, {"type": "node", "id": 6565763330, "lat": 38.4158334, "lon": 14.9589292, "tags": {"amenity": "restaurant", "name": "Il Castello"}}, {"type": "node", "id": 6565783719, "lat": 38.4147143, "lon": 14.9531403, "tags": {"amenity": "restaurant", "check_date": "2023-06-13", "cuisine": "regional;salad", "internet_access": "no", "name": "Malvasia", "outdoor_seating": "yes", "payment:mastercard": "yes", "payment:visa": "yes", "toilets:wheelchair": "no", "website": "https://www.ristorantemalvasiavulcano.it/", "wheelchair": "yes"}}, {"type": "node", "id": 6566520385, "lat": 38.5564956, "lon": 14.8704009, "tags": {"amenity": "restaurant", "cuisine": "mediterranean", "name": "Didyme"}}, {"type": "node", "id": 6762132905, "lat": 38.2689048, "lon": 15.2325366, "tags": {"amenity": "restaurant", "name": "BellaVista", "phone": "+39 349 0865527"}}, {"type": "node", "id": 6856718714, "lat": 38.2185808, "lon": 15.239163, "tags": {"amenity": "cafe", "name": "Glorioso Bar"}}, {"type": "node", "id": 7100755129, "lat": 38.2210235, "lon": 15.2421013, "tags": {"amenity": "restaurant", "cuisine": "italian", "name": "Primo '19"}}, {"type": "node", "id": 7773826685, "lat": 38.4701698, "lon": 14.9545064, "tags": {"addr:street": "Corso Vittorio Emanuele", "amenity": "restaurant", "check_date": "2023-06-11", "cuisine": "italian", "name": "La Tavernella"}}, {"type": "node", "id": 7826326455, "lat": 38.1573317, "lon": 14.8277265, "tags": {"amenity": "cafe"}}, {"type": "node", "id": 7937550885, "lat": 38.4146203, "lon": 14.9592598, "tags": {"amenity": "restaurant", "cuisine": "italian;mediterranean", "name": "Ficodindia"}}, {"type": "node", "id": 8114583860, "lat": 38.1803633, "lon": 15.20724, "tags": {"amenity": "restaurant", "cuisine": "pizza", "name": "Onda Anomala"}}, {"type": "node", "id": 8807065177, "lat": 38.1634475, "lon": 14.7474454, "tags": {"addr:city": "Capo d'Orlando", "addr:housenumber": "47", "addr:postcode": "98071", "addr:street": "Via Libert\u00e0", "amenity": "cafe", "name": "Bar Tre Ruote"}}, {"type": "node", "id": 8808725862, "lat": 38.1606308, "lon": 14.7425825, "tags": {"addr:city": "Capo d'Orlando", "addr:housenumber": "45", "addr:postcode": "98071", "addr:street": "Lungomare Andrea Doria", "amenity": "cafe", "contact:facebook": "barvosse", "cuisine": "pizza;coffee_shop;ice_cream;regional", "description": "Bar, gelateria, ristorante e pizzeria", "description:en": "Cafe, ice cream, restaurant and pizza", "indoor_seating": "yes", "name": "Voss\u00e8", "opening_hours": "Mo-Su 09:00-24:00", "outdoor_seating": "yes", "phone": "+39 0941 1950184", "restaurant": "yes", "takeaway": "yes", "website": "http://vosse.it/"}}, {"type": "node", "id": 8808777329, "lat": 38.1591967, "lon": 14.7411328, "tags": {"addr:city": "Capo d'Orlando", "addr:postcode": "98071", "addr:street": "Lungomare Andrea Doria", "amenity": "cafe", "contact:mobile": "+39 389 510 4704", "cuisine": "coffee_shop;regional;ice_cream", "description": "Bar - Ristorante - Panineria", "description:en": "Bar - Restaurant - Sandwiches", "indoor_seating": "yes", "name": "Paiper", "opening_hours": "Mo-Sa 06:30-24:00; Su 07:30-24:00", "outdoor_seating": "yes", "restaurant": "yes", "website": "https://ristorante-bar-paipdr.business.site/"}}, {"type": "node", "id": 8813775833, "lat": 38.151329, "lon": 14.7854361, "tags": {"addr:city": "Capo d'Orlando", "addr:postcode": "98071", "amenity": "restaurant", "contact:mobile": "+39 339 301 4567", "cuisine": "coffee_shop;burger;regional", "name": "Bar-Trattoria La Sirena", "restaurant": "yes"}}, {"type": "node", "id": 8813914945, "lat": 38.1539945, "lon": 14.7660142, "tags": {"addr:city": "Capo d'Orlando", "addr:postcode": "98071", "addr:street": "Contrada San Gregorio", "amenity": "restaurant", "contact:facebook": "VillaBagnoli", "cuisine": "regional;pizza", "name": "Ristorante Villa Bagnoli", "opening_hours": "Mo-Su 12:30-15:00,18:00-24:00", "phone": "+39 0941 913266"}}, {"type": "node", "id": 8816486981, "lat": 38.1626931, "lon": 14.7466223, "tags": {"amenity": "restaurant", "contact:city": "Capo d'Orlando", "contact:housenumber": "28", "contact:mobile": "+39 333 372 9779", "contact:postcode": "98071", "contact:street": "Piazza Duca degli Abruzzi", "cuisine": "local;pizza", "diet:vegetarian": "yes", "name": "Pizza & Sfizi", "opening_hours": "Mo,Tu,Sa 11:30-15:00,18:30-24:00; We-Fr 11:30-01:00; Su 18:30-24:00", "website": "https://pizzaesfizi.sicilybay.it/"}}, {"type": "node", "id": 8818972363, "lat": 38.3747449, "lon": 15.0044834, "tags": {"amenity": "restaurant", "name": "Agriturismo Punta Aria"}}, {"type": "node", "id": 8819975876, "lat": 38.1624428, "lon": 14.7463459, "tags": {"addr:city": "Capo d'Orlando", "addr:housenumber": "21", "addr:postcode": "98071", "addr:street": "Piazza Duca degli Abruzzi", "amenity": "restaurant", "contact:facebook": "ulettacapodorlando", "contact:mobile": "+39 338 850 2221", "cuisine": "regional;pizza", "name": "Ristorante Pizzeria Uletta", "opening_hours": "Mo-Su 12:00-15:30,19:00-24:00", "phone": "+39 0941 911700"}}, {"type": "node", "id": 8822214617, "lat": 38.1553309, "lon": 14.8270454, "tags": {"amenity": "cafe", "name": "Antonio Raffaele"}}, {"type": "node", "id": 8837815495, "lat": 38.1559686, "lon": 14.7622478, "tags": {"amenity": "restaurant", "contact:mobile": "+39 333 492 0952", "cuisine": "pizza;seafood;local;fish;sushi", "name": "Pizzeria La Tartaruga", "opening_hours": "Tu-Su  12:00-15:00,19:00-24:00; Mo 19:00-24:00", "ref:vatin": "IT03559750835", "website": "https://www.latartarugapizzeria.it/"}}, {"type": "node", "id": 8837828490, "lat": 38.1570421, "lon": 14.760023, "tags": {"addr:city": "Capo d'Orlando", "addr:postcode": "98071", "amenity": "restaurant", "cuisine": "pizza;regional;local;seafood;fish;coffee_shop;cafe", "name": "Bar-Ristorante Da Matteo", "opening_hours": "Mo-Su 08:00-24:00", "outdoor_seating": "yes", "phone": "+39 0941 955029"}}, {"type": "node", "id": 8875854862, "lat": 38.1592943, "lon": 14.7469266}, {"type": "node", "id": 8875854863, "lat": 38.1593134, "lon": 14.746953}, {"type": "node", "id": 8875854864, "lat": 38.1592864, "lon": 14.7469846}, {"type": "node", "id": 8875854865, "lat": 38.1592673, "lon": 14.7469581}, {"type": "node", "id": 8879897317, "lat": 38.1602885, "lon": 14.746012, "tags": {"addr:city": "Capo d'Orlando", "addr:housenumber": "20", "addr:postcode": "98071", "addr:street": "Via Francesco Lo Sardo", "amenity": "restaurant", "contact:facebook": "AmbasciatadeiNebrodi", "cuisine": "italian_pizza;local;pizza", "diet:vegetarian": "yes", "email": "ambasciatadeinebrodi@libero.it", "name": "L'Ambasciata dei Nebrodi", "opening_hours": "Mo-Su 10:00-00:00", "phone": "+39 0941 911454", "ref:vatin": "IT01489060838", "website": "https://ristorantepizzerialambasciata.it"}}, {"type": "node", "id": 8887759389, "lat": 38.1591728, "lon": 14.7446172, "tags": {"addr:city": "Capo d'Orlando", "addr:postcode": "98071", "addr:street": "Via Giovanni Amendola", "amenity": "restaurant", "contact:facebook": "eliospizzasrls", "contact:mobile": "+39 380 646 7747", "cuisine": "pizza", "delivery": "yes", "name": "Elio'S Pizza", "opening_hours": "Tu-Su 17:00-24:00", "takeaway": "yes"}}, {"type": "node", "id": 8968527396, "lat": 38.5615755, "lon": 14.8728893, "tags": {"amenity": "restaurant", "name": "Trattoria Cucinotta"}}, {"type": "node", "id": 8983100923, "lat": 38.4650037, "lon": 14.9563681, "tags": {"amenity": "cafe", "name": "Bar Altamarea"}}, {"type": "node", "id": 8986388318, "lat": 38.158185, "lon": 14.7425731, "tags": {"addr:housenumber": "110", "addr:postcode": "98071", "addr:street": "Via del Piave", "amenity": "restaurant", "name": "Ma Che Bont\u00e0", "name:en": "Ma Che Bont\u00e0", "name:it": "Ma Che Bont\u00e0"}}, {"type": "node", "id": 9063207872, "lat": 38.1513328, "lon": 14.9716924, "tags": {"addr:city": "Patti", "addr:housenumber": "2", "addr:postcode": "98066", "addr:street": "Via Capitano Filippo Zuccarello", "amenity": "restaurant", "indoor_seating": "yes", "name": "Crbonella", "outdoor_seating": "yes", "wheelchair": "yes"}}, {"type": "node", "id": 9063207873, "lat": 38.1516416, "lon": 14.9719124, "tags": {"addr:city": "Patti", "addr:housenumber": "10", "addr:postcode": "98066", "addr:street": "Via Fonderia", "amenity": "restaurant", "name": "La Risacca"}}, {"type": "node", "id": 9176854915, "lat": 38.2211255, "lon": 15.2414006, "tags": {"amenity": "cafe", "name": "Salamandra"}}, {"type": "node", "id": 9307990966, "lat": 38.2222759, "lon": 15.2425944, "tags": {"amenity": "cafe", "name": "Fiumara"}}, {"type": "node", "id": 9394919930, "lat": 38.2195236, "lon": 15.2399429, "tags": {"amenity": "restaurant", "name": "Matto"}}, {"type": "node", "id": 9455105013, "lat": 38.1700167, "lon": 15.2730882, "tags": {"amenity": "cafe", "name": "Manna", "start_date": "1968"}}, {"type": "node", "id": 9854336792, "lat": 38.5758487, "lon": 14.808959, "tags": {"amenity": "restaurant"}}, {"type": "node", "id": 9860800368, "lat": 38.4790528, "lon": 14.9629235, "tags": {"amenity": "restaurant", "name": "Da Leonardo"}}, {"type": "node", "id": 9860817431, "lat": 38.4743019, "lon": 14.9547189, "tags": {"addr:floor": "G", "amenity": "restaurant", "check_date": "2024-07-25", "cuisine": "italian", "level": "0", "name": "Osteria San Bartolo", "opening_hours": "Mo-Tu,Th-Su 12:00-15:00,19:00-24:00", "outdoor_seating": "yes", "payment:cash": "yes", "payment:credit_cards": "yes", "payment:debit_cards": "yes", "phone": "+39 090 896 1317", "source": "survey", "wheelchair": "limited"}}, {"type": "node", "id": 9860847057, "lat": 38.4743792, "lon": 14.9548163, "tags": {"amenity": "cafe", "name": "La bitta"}}, {"type": "node", "id": 9860848415, "lat": 38.4734011, "lon": 14.9543334, "tags": {"amenity": "cafe"}}, {"type": "node", "id": 9860992727, "lat": 38.4847596, "lon": 14.9651886, "tags": {"amenity": "restaurant", "name": "Da Merlo"}}, {"type": "node", "id": 9861052746, "lat": 38.5192641, "lon": 14.9406108, "tags": {"amenity": "restaurant", "cuisine": "italian;local;seafood", "internet_access": "wlan", "name": "Al tramonto", "opening_hours": "\"depends on the season\""}}, {"type": "node", "id": 9861850424, "lat": 38.4895474, "lon": 14.9630359, "tags": {"amenity": "cafe"}}, {"type": "node", "id": 9864218623, "lat": 38.4870337, "lon": 14.9657538, "tags": {"amenity": "cafe", "name": "17 Diciassette"}}, {"type": "node", "id": 9870597689, "lat": 38.4990566, "lon": 14.9614018, "tags": {"amenity": "restaurant", "name": "Blu Lounge"}}, {"type": "node", "id": 9873123838, "lat": 38.493546, "lon": 14.9616187, "tags": {"amenity": "restaurant"}}, {"type": "node", "id": 9874745546, "lat": 38.5177901, "lon": 14.9595996, "tags": {"amenity": "restaurant", "name": "fancappero"}}, {"type": "node", "id": 9890393235, "lat": 38.5810838, "lon": 14.8064018, "tags": {"amenity": "cafe", "name": "Bar"}}, {"type": "node", "id": 9904856617, "lat": 38.4661106, "lon": 14.9550617, "tags": {"addr:housenumber": "25", "addr:postcode": "98055", "addr:street": "Via Maurolico", "amenity": "restaurant", "check_date": "2023-06-15", "name": "Liparo Re"}}, {"type": "node", "id": 9949043124, "lat": 38.2210805, "lon": 15.2413849, "tags": {"amenity": "restaurant", "name": "U cuoppo"}}, {"type": "node", "id": 9976707259, "lat": 38.4965409, "lon": 14.9215549}, {"type": "node", "id": 9976707260, "lat": 38.4964286, "lon": 14.9215246}, {"type": "node", "id": 9976707261, "lat": 38.4964606, "lon": 14.9215653}, {"type": "node", "id": 9976707262, "lat": 38.4965246, "lon": 14.9215895}, {"type": "node", "id": 9992145818, "lat": 38.4676473, "lon": 14.9548365, "tags": {"amenity": "restaurant", "check_date": "2023-06-11", "name": "L'angolo del Pesce", "opening_hours": "Mo-Su 12:00-15:00,19:30-23:00", "wheelchair": "no"}}, {"type": "node", "id": 10814147853, "lat": 38.1564747, "lon": 14.8276348, "tags": {"amenity": "cafe", "name": "Central Bar"}}, {"type": "node", "id": 10968131111, "lat": 38.4660622, "lon": 14.9547504, "tags": {"air_conditioning": "yes", "amenity": "restaurant", "check_date": "2023-06-11", "cuisine": "regional;fish", "name": "'A Sartania", "opening_hours": "Mo-Sa 12:00-14:30,20:00-22:30; Su off", "outdoor_seating": "no", "payment:mastercard": "yes", "payment:visa": "yes", "reservation": "yes", "takeaway": "no"}}, {"type": "node", "id": 10968938603, "lat": 38.4675158, "lon": 14.954615, "tags": {"addr:housenumber": "161", "air_conditioning": "yes", "amenity": "restaurant", "check_date": "2025-04-14", "cuisine": "regional", "internet_access": "no", "level": "0", "name": "Ascialati Food&Drinks", "outdoor_seating": "yes"}}, {"type": "node", "id": 10968964286, "lat": 38.4653285, "lon": 14.9547222, "tags": {"amenity": "restaurant", "check_date": "2023-06-11", "contact:phone": "+39 333 232 1082", "contact:website": "http://www.osterialiparota.it", "name": "Osteria liparota", "opening_hours": "18:30-24:00", "reservation": "yes"}}, {"type": "node", "id": 11184543027, "lat": 38.2287469, "lon": 15.2422361, "tags": {"amenity": "restaurant", "name": "Quinto"}}, {"type": "node", "id": 11228764737, "lat": 38.5613648, "lon": 14.87333, "tags": {"amenity": "restaurant", "name": "Caf\u00e9 du Moari"}}, {"type": "node", "id": 11277827282, "lat": 38.2251919, "lon": 15.2388109, "tags": {"amenity": "restaurant", "cuisine": "pizza", "name": "Dumbolone"}}, {"type": "node", "id": 11422412837, "lat": 38.2241686, "lon": 15.2404715, "tags": {"amenity": "restaurant", "name": "Adagio Adagio"}}, {"type": "node", "id": 11465619960, "lat": 38.2214786, "lon": 15.2411955, "tags": {"amenity": "restaurant", "name": "Lo Scugnizzo"}}, {"type": "node", "id": 11524288126, "lat": 38.161583, "lon": 14.8335936, "tags": {"amenity": "cafe", "indoor_seating": "yes", "name": "NordSud", "outdoor_seating": "yes"}}, {"type": "node", "id": 11524295997, "lat": 38.1600699, "lon": 14.8249606, "tags": {"amenity": "restaurant"}}, {"type": "node", "id": 11524536668, "lat": 38.1592386, "lon": 14.7411647, "tags": {"amenity": "restaurant"}}, {"type": "node", "id": 11524547331, "lat": 38.1623229, "lon": 14.7443455, "tags": {"amenity": "restaurant"}}, {"type": "node", "id": 11524549125, "lat": 38.158702, "lon": 14.740656, "tags": {"amenity": "restaurant"}}, {"type": "node", "id": 11561239801, "lat": 38.5611737, "lon": 14.8009852}, {"type": "node", "id": 11561239802, "lat": 38.5611403, "lon": 14.8009515}, {"type": "node", "id": 11561239803, "lat": 38.5611619, "lon": 14.8009166}, {"type": "node", "id": 11561239804, "lat": 38.5611952, "lon": 14.8009503}, {"type": "node", "id": 11701203274, "lat": 38.1870445, "lon": 15.2674881, "tags": {"air_conditioning": "yes", "amenity": "restaurant", "brand": "Roadhouse", "brand:wikidata": "Q7339591", "cuisine": "steak_house", "indoor_seating": "yes", "name": "Roadhouse", "outdoor_seating": "no", "wheelchair": "yes"}}, {"type": "node", "id": 11916007169, "lat": 38.1909365, "lon": 15.2734328, "tags": {"amenity": "cafe", "level": "0", "wheelchair": "limited"}}, {"type": "node", "id": 12075827329, "lat": 38.5038893, "lon": 14.9278299, "tags": {"amenity": "restaurant", "check_date": "2024-07-26", "cuisine": "italian", "name": "Sangre Rojo", "opening_hours": "Mo-Th,Sa-Su 19:00-22:30; Fr 19:00-22:00", "payment:cash": "yes", "payment:credit_cards": "yes", "payment:debit_cards": "yes", "source": "survey", "website": "http://www.sangrerojo.it/", "wheelchair": "no"}}, {"type": "node", "id": 12104750101, "lat": 38.1600228, "lon": 14.7448797, "tags": {"addr:housenumber": "83", "addr:postcode": "98071", "addr:street": "Via del Piave", "amenity": "restaurant", "contact:facebook": "Cepizzaperteofficial", "cuisine": "italian_pizza", "email": "cepizzapertecapodorlando@gmail.com", "name": "C'\u00e8 pizza per te", "phone": "339 498 6914"}}, {"type": "node", "id": 12194883901, "lat": 38.4179401, "lon": 14.953005, "tags": {"amenity": "restaurant", "name": "Pizza del Sud"}}, {"type": "node", "id": 12195092801, "lat": 38.4655639, "lon": 14.9566704, "tags": {"amenity": "restaurant", "name": "Scirokku"}}, {"type": "node", "id": 12195092901, "lat": 38.4653463, "lon": 14.9566072, "tags": {"amenity": "restaurant", "name": "Julius Meinl"}}, {"type": "node", "id": 12199718906, "lat": 38.562354, "lon": 14.8732002, "tags": {"amenity": "restaurant", "name": "Casa Lo Schiavo"}}, {"type": "node", "id": 12442792326, "lat": 38.1762907, "lon": 14.895927, "tags": {"amenity": "cafe", "name": "Il Canap\u00e8"}}, {"type": "node", "id": 12468684350, "lat": 38.2219087, "lon": 15.2416229, "tags": {"amenity": "cafe", "name": "Baraonda"}}, {"type": "node", "id": 12609212817, "lat": 38.2048048, "lon": 15.2543517, "tags": {"air_conditioning": "yes", "amenity": "cafe", "name": "Coffee Mood", "operator": "Caterina Geraci", "phone": "+39 376 238 3461"}}, {"type": "node", "id": 12641078536, "lat": 38.4140719, "lon": 14.9601009}, {"type": "node", "id": 12641078537, "lat": 38.4140679, "lon": 14.9600798}, {"type": "node", "id": 12648263549, "lat": 38.3694102, "lon": 14.9939684}, {"type": "node", "id": 12648263550, "lat": 38.3694016, "lon": 14.9939372}, {"type": "node", "id": 12752723956, "lat": 38.4697847, "lon": 14.9544955, "tags": {"addr:housenumber": "223", "addr:street": "Corso Vittorio Emanuele", "amenity": "restaurant", "changing_table": "no", "cuisine": "italian;fish;pizza", "email": "info@pescecanelipari.it", "internet_access": "wlan", "internet_access:fee": "no", "level": "0", "name": "Ristorante Bar Pescecane", "opening_hours": "Mo-We,Fr-Su 12:00-14:00,19:00-23:00", "outdoor_seating": "yes", "phone": "+39 090 981 2706", "smoking": "no", "takeaway": "yes", "toilets": "yes", "toilets:access": "customers", "toilets:wheelchair": "no", "website": "https://pescecanelipari.it/", "wheelchair": "no"}}, {"type": "node", "id": 12753816208, "lat": 38.4671594, "lon": 14.9546189, "tags": {"amenity": "restaurant", "cuisine": "regional;italian", "name": "Ciuve Ciuve"}}, {"type": "node", "id": 12770892111, "lat": 38.4674494, "lon": 14.9548266, "tags": {"amenity": "restaurant", "cuisine": "italian", "name": "E Nolie", "outdoor_seating": "yes", "wheelchair": "limited"}}, {"type": "node", "id": 12842060501, "lat": 38.5804081, "lon": 14.8308123, "tags": {"addr:housenumber": "1", "addr:street": "Via Sorgente", "amenity": "restaurant", "name": "La Pinnata del Mons\u00f9", "website": "http://lapinnatadelmonsu.it"}}, {"type": "node", "id": 12842951201, "lat": 38.5790608, "lon": 14.833984, "tags": {"addr:housenumber": "88", "addr:street": "Via Roma", "amenity": "restaurant", "name": "Trattoria A Quadara", "website": "https://www.aquadaratrattoria.it/"}}, {"type": "node", "id": 12867221599, "lat": 38.4735346, "lon": 14.9288454, "tags": {"amenity": "restaurant", "cuisine": "pizza", "name": "Fantasia"}}, {"type": "node", "id": 12879160442, "lat": 38.5039089, "lon": 14.9278479, "tags": {"amenity": "restaurant", "name": "Sangre Rojo", "opening_hours": "Mo, Tu, Th-Su 19:00-23:00"}}, {"type": "way", "id": 185977433, "nodes": [1966659414, 5073780818, 5073780819, 1966659398, 1966659401, 1966659404, 1966659420, 1966659419, 1966659416, 5073780816, 5073780817, 1966659417, 1966659414], "tags": {"addr:housenumber": "18", "addr:postcode": "98050", "addr:street": "Via Rotabile", "amenity": "restaurant", "building": "yes", "cuisine": "pizza", "name": "Pizzeria da Marco", "phone": "+39 090 9809231"}}, {"type": "way", "id": 199924968, "nodes": [2099146699, 2099146712, 2099146719, 2099146707, 2099146699], "tags": {"amenity": "restaurant", "building": "yes", "building:levels": "1"}}, {"type": "way", "id": 216566644, "nodes": [2259551675, 2259551599, 12641078536, 12641078537, 2259551885, 2259551832, 2259551814, 2259551675], "tags": {"amenity": "cafe", "building": "yes", "name": "Bar Remigio"}}, {"type": "way", "id": 244607702, "nodes": [2519064936, 2519064937, 2519064935, 2519064934, 2519064936], "tags": {"amenity": "restaurant", "building": "yes"}}, {"type": "way", "id": 265945943, "nodes": [3120540967, 2715485319, 2715485313, 2715485317, 3120540967], "tags": {"amenity": "restaurant", "building": "yes", "cuisine": "pizza", "name": "Horizon"}}, {"type": "way", "id": 285622718, "nodes": [2892975885, 2892975887, 2892975883, 2892975884, 2892975881, 2892975882, 2892975886, 2892975888, 2892975891, 2892975890, 2892975889, 2892975885], "tags": {"amenity": "restaurant", "building": "yes", "name": "King of Fish"}}, {"type": "way", "id": 301351094, "nodes": [3054106094, 3054106093, 3054106097, 3054106096, 3054106098, 12648263549, 12648263550, 3054106099, 3054106094], "tags": {"amenity": "restaurant", "contact:mobile": "+39 368 668 555", "cuisine": "regional", "name": "Trattoria Da Pina", "wheelchair": "no"}}, {"type": "way", "id": 301451703, "nodes": [3055082034, 2259551666, 2259551619, 2259551590, 3055082034], "tags": {"addr:street": "Via Porto di Levante", "amenity": "cafe", "building": "yes", "check_date": "2023-06-13", "contact:mobile": "+39 346 6745201", "name": "Bar Faraglione", "operator": "Vulcanotours S.n.c", "outdoor_seating": "yes", "owner": "Gaia & Giulio", "ref:vatin": "IT00509910832"}}, {"type": "way", "id": 301451711, "nodes": [3055077501, 3055077526, 3055077529, 3055082038, 3055077523, 3055077507, 3055077527, 3055077501], "tags": {"amenity": "restaurant", "name": "Ristorante Vincenzino"}}, {"type": "way", "id": 301494631, "nodes": [3055558951, 3055558586, 3055558933, 3055558561, 759587842, 3055558951], "tags": {"addr:housenumber": "8", "addr:street": "Via Riccardo Conti", "amenity": "restaurant", "building": "yes", "cuisine": "pizza;regional", "name": "A Zammara", "operator": "Conti Eller Alberghi S.r.l.", "ref:vatin": "IT00518770839"}}, {"type": "way", "id": 301498550, "nodes": [3055604097, 3055604098, 3055604096, 3055604094, 3055604095, 3055604099, 3055604097], "tags": {"addr:housenumber": "38", "addr:street": "Via Provinciale", "amenity": "restaurant", "building": "yes", "contact:email": "maria.tindara@tiscali.it", "contact:fax": "+39 090 9853011", "contact:phone": "+39 090 9853004", "cuisine": "regional", "name": "Ristorante Maria Tindara"}}, {"type": "way", "id": 309712564, "nodes": [3150444487, 3150444485, 3150444483, 3150444486, 3150444487], "tags": {"addr:city": "Gioiosa Marea", "addr:housenumber": "98", "addr:postcode": "98063", "addr:street": "Via Pola", "amenity": "restaurant", "building": "yes", "cuisine": "regional;italian;pizza", "name": "La terrazza del Cicero"}}, {"type": "way", "id": 325043001, "nodes": [3317165521, 3317165527, 3317165503, 3317165512, 3317165506, 3317165497, 3317165487, 3317165478, 3317165521], "tags": {"amenity": "restaurant", "building": "yes", "name": "Al Torchio"}}, {"type": "way", "id": 529080047, "nodes": [5140311481, 5140311482, 5140311483, 5140311484, 5140311485, 5140311486, 5140311481], "tags": {"addr:city": "Gioiosa Marea", "addr:postcode": "98066", "addr:street": "Strada statale Settentrionale Sicula", "amenity": "restaurant", "building": "yes", "cuisine": "regional;italian;pizza", "name": "Roccabianca", "outdoor_seating": "yes"}}, {"type": "way", "id": 533957867, "nodes": [5179524434, 5693135019, 5179524435, 5179524436, 5693135226, 5179524437, 5179524434], "tags": {"addr:city": "Capo d'Orlando", "addr:postcode": "98071", "amenity": "cafe", "building": "yes", "description": "Bar - Tabacchi", "outdoor_seating": "yes", "tobacco": "yes"}}, {"type": "way", "id": 549236910, "nodes": [5305563808, 5305563809, 5305563810, 5305563811, 5305563808], "tags": {"amenity": "restaurant", "building": "yes"}}, {"type": "way", "id": 561046342, "nodes": [5410224269, 5410224270, 5410224271, 5410224272, 5410224269], "tags": {"amenity": "restaurant", "building": "yes", "indoor_seating": "no", "outdoor_seating": "yes"}}, {"type": "way", "id": 959215777, "nodes": [8875854862, 8875854863, 8875854864, 8875854865, 8875854862], "tags": {"amenity": "cafe", "building": "yes", "building:levels": "1", "contact:mobile": "+39 345 420 2613", "name": "Il Kioschetto"}}, {"type": "way", "id": 1089029351, "nodes": [9976707259, 9976707260, 9976707261, 9976707262, 9976707259], "tags": {"amenity": "cafe", "building": "yes"}}, {"type": "way", "id": 1243817460, "nodes": [11561239804, 11561239803, 11561239802, 11561239801, 11561239804], "tags": {"amenity": "restaurant", "building": "yes", "cuisine": "italian", "delivery": "no", "name": "Casa el Comandante o Casa Praiola", "opening_hours:signed": "no", "takeaway": "no", "wheelchair": "no"}}]}