{"version": 0.6, "generator": "Overpass API 0.7.62.7 375dc00a", "osm3s": {"timestamp_osm_base": "2025-06-14T13:12:52Z", "copyright": "The data included in this document is from www.openstreetmap.org. The data is made available under ODbL."}, "elements": [{"type": "node", "id": 433177124, "lat": 39.3258594, "lon": 2.9902582, "tags": {"addr:city": "Col\u00f2nia de Sant Jordi", "addr:postcode": "07638", "addr:street": "Platja dels Estanys", "amenity": "restaurant", "cuisine": "mediterranean", "name": "5 illes", "nohousenumber": "yes", "opening_hours": "Mo-Su 12:00-24:00", "outdoor_seating": "yes", "phone": "+34 971 18 05 58", "website": "https://5illesmallorca.com/restaurante-en-la-playa/"}}, {"type": "node", "id": 433251456, "lat": 39.3406541, "lon": 2.9892302, "tags": {"amenity": "restaurant", "name": "Es Trenc", "name:ca": "Es Trenc", "opening_hours": "Mo-Su 10:00-19:00", "outdoor_seating": "yes"}}, {"type": "node", "id": 458438672, "lat": 39.3171082, "lon": 2.9975221, "tags": {"amenity": "cafe", "cuisine": "regional", "indoor_seating": "yes", "internet_access": "yes", "internet_access:fee": "no", "name": "Tambucho", "outdoor_seating": "yes"}}, {"type": "node", "id": 502313544, "lat": 39.3540236, "lon": 3.12692, "tags": {"addr:city": "Santany\u00ed, Mallorca", "addr:housenumber": "26", "addr:postcode": "07650", "addr:street": "Carrer del Bisbe Verger", "amenity": "restaurant", "bar": "yes", "cuisine": "international;regional;japanese", "name": "East26", "opening_hours": "Mo-Sa 12:00-23:00; We,Sa 11:00-23:00 \"Market days\"", "phone": "+34 871 031 838", "wheelchair": "no"}}, {"type": "node", "id": 502605332, "lat": 39.330616, "lon": 3.1470037, "tags": {"amenity": "restaurant"}}, {"type": "node", "id": 502651625, "lat": 39.3312356, "lon": 3.1700978, "tags": {"amenity": "cafe", "name": "Bon Mot"}}, {"type": "node", "id": 631791764, "lat": 39.4555399, "lon": 2.7526186, "tags": {"amenity": "restaurant", "cuisine": "pizza"}}, {"type": "node", "id": 641937882, "lat": 39.3309386, "lon": 3.1444904, "tags": {"amenity": "restaurant"}}, {"type": "node", "id": 674264630, "lat": 39.3630374, "lon": 2.9444528, "tags": {"addr:city": "Campos", "addr:housenumber": "7", "addr:postcode": "07639", "addr:street": "Avinguda Miramar", "amenity": "restaurant", "cuisine": "spanish;mediterranean;european", "name": "Brisas", "wheelchair": "no"}}, {"type": "node", "id": 675079957, "lat": 39.3642308, "lon": 2.941788, "tags": {"amenity": "restaurant", "name": "s'Oratge", "name:ca": "Bar Amelo"}}, {"type": "node", "id": 675079963, "lat": 39.3643326, "lon": 2.9396605, "tags": {"amenity": "restaurant", "name": "l'Aguait", "name:ca": "l'Aguait", "outdoor_seating": "yes"}}, {"type": "node", "id": 677046356, "lat": 39.4909878, "lon": 2.8913593, "tags": {"amenity": "cafe", "name": "Mundial"}}, {"type": "node", "id": 677046378, "lat": 39.4905736, "lon": 2.8915046, "tags": {"addr:housenumber": "22", "addr:street": "Plaza Espanya", "amenity": "cafe", "cuisine": "regional", "name": "Mercat", "name:ca": "Mercat"}}, {"type": "node", "id": 677046414, "lat": 39.4902864, "lon": 2.8909574, "tags": {"amenity": "cafe", "name": "Sport"}}, {"type": "node", "id": 677086071, "lat": 39.3162402, "lon": 2.9968944, "tags": {"amenity": "cafe"}}, {"type": "node", "id": 679230965, "lat": 39.4024801, "lon": 2.8334087}, {"type": "node", "id": 679230967, "lat": 39.4024547, "lon": 2.8335351}, {"type": "node", "id": 679230968, "lat": 39.4026176, "lon": 2.8334181}, {"type": "node", "id": 679230969, "lat": 39.4025082, "lon": 2.8336028}, {"type": "node", "id": 737173816, "lat": 39.3286778, "lon": 3.1711646, "tags": {"amenity": "restaurant", "cuisine": "regional", "name": "Bei Rafael", "name:ca": "Bei Rafael"}}, {"type": "node", "id": 737173824, "lat": 39.3304859, "lon": 3.1707606, "tags": {"amenity": "restaurant", "indoor_seating": "yes", "name": "La Marina", "name:ca": "La Marina", "opening_hours": "Fr-We 11:00-18:00", "outdoor_seating": "sidewalk", "wheelchair": "no"}}, {"type": "node", "id": 737173828, "lat": 39.3302833, "lon": 3.1717771, "tags": {"addr:housenumber": "88", "addr:postcode": "07659", "addr:street": "Carrer Virgen del Carmen", "amenity": "restaurant", "check_date": "2023-07-31", "contact:tripadvisor": "https://www.tripadvisor.com/Restaurant_Review-g580289-d10642151-Reviews-Restaurante_Pizzeria_Es_Port-Cala_Figuera_Majorca_Balearic_Islands.html?m=19905", "cuisine": "pizza;italian;international", "diet:vegetarian": "yes", "indoor_seating": "yes", "name": "Es Port", "name:es": "Es Port", "opening_hours": "Mo,We-Su 12:00-22:00; Tu off", "outdoor_seating": "sidewalk", "payment:mastercard": "yes", "payment:visa": "yes", "phone": "+34 971 16 51 40", "reservation": "no", "wheelchair": "limited"}}, {"type": "node", "id": 737173829, "lat": 39.3302407, "lon": 3.1712417, "tags": {"amenity": "restaurant", "indoor_seating": "yes", "name": "L'ancada", "opening_hours": "Fr-We 12:30-15:30,18:30-22:30", "outdoor_seating": "sidewalk"}}, {"type": "node", "id": 765318967, "lat": 39.5602909, "lon": 2.9893778}, {"type": "node", "id": 765319018, "lat": 39.5600207, "lon": 2.9895675}, {"type": "node", "id": 765319040, "lat": 39.5600308, "lon": 2.9900313}, {"type": "node", "id": 765319062, "lat": 39.5599719, "lon": 2.9893751}, {"type": "node", "id": 765319068, "lat": 39.560299, "lon": 2.9900208}, {"type": "node", "id": 765319082, "lat": 39.5599739, "lon": 2.9895649}, {"type": "node", "id": 841166316, "lat": 39.3268819, "lon": 3.1695576, "tags": {"addr:city": "Cala Figuera", "addr:housenumber": "25", "addr:postcode": "07659", "addr:street": "carrer des Tomarinar", "amenity": "restaurant", "contact:phone": "+34 971165571", "contact:website": "https://pura-vida-mallorca.com/", "internet_access": "wlan", "name": "Pura Vida", "opening_hours": "10:00-23:00"}}, {"type": "node", "id": 922697714, "lat": 39.3544768, "lon": 3.1292019, "tags": {"amenity": "restaurant", "name": "Sa Cova", "name:ca": "Sa Cova"}}, {"type": "node", "id": 922698241, "lat": 39.3549229, "lon": 3.1290271, "tags": {"amenity": "restaurant", "diet:vegetarian": "yes", "indoor_seating": "yes", "name": "Sa Botiga", "outdoor_seating": "yes", "wheelchair": "no"}}, {"type": "node", "id": 922698247, "lat": 39.3549915, "lon": 3.1298162, "tags": {"amenity": "restaurant", "name": "Pablo"}}, {"type": "node", "id": 922698658, "lat": 39.352204, "lon": 3.125074, "tags": {"amenity": "restaurant", "name": "Es Vinyet", "name:ca": "Es Vinyet"}}, {"type": "node", "id": 922721900, "lat": 39.4690152, "lon": 3.1495536, "tags": {"addr:housenumber": "11", "addr:street": "carrer Major", "amenity": "restaurant", "name": "Ca's Solleric"}}, {"type": "node", "id": 924448366, "lat": 39.4876615, "lon": 2.8871265, "tags": {"amenity": "restaurant", "cuisine": "pizza", "indoor_seating": "yes", "name": "s'Est\u00e0tua", "outdoor_seating": "pedestrian_zone"}}, {"type": "node", "id": 925254546, "lat": 39.3543578, "lon": 3.1289147, "tags": {"addr:city": "Santany\u00ed", "addr:postcode": "07650", "addr:street": "Pla\u00e7a Major", "amenity": "restaurant", "name": "sa Font", "name:ca": "sa Font", "toilets:wheelchair": "no", "wheelchair": "limited", "wheelchair:description": "im Aussenbereich gut Platz, WC im ersten Stock sehr schmal"}}, {"type": "node", "id": 925261698, "lat": 39.3502974, "lon": 3.0115534, "tags": {"amenity": "cafe", "name": "La Sal de La vida", "outdoor_seating": "yes"}}, {"type": "node", "id": 929273263, "lat": 39.3185086, "lon": 2.9986703, "tags": {"amenity": "restaurant", "name": "Strandkorb", "opening_hours": "PH,Tu-Su 11:00-23:00"}}, {"type": "node", "id": 984653836, "lat": 39.3613115, "lon": 2.9509075, "tags": {"amenity": "restaurant", "name": "Sa Cantina", "name:ca": "Sa Cantina", "source": "survey"}}, {"type": "node", "id": 984677068, "lat": 39.3633317, "lon": 2.9553938}, {"type": "node", "id": 984677197, "lat": 39.3635966, "lon": 2.9556202}, {"type": "node", "id": 984677209, "lat": 39.3635659, "lon": 2.9555223}, {"type": "node", "id": 984677284, "lat": 39.3634334, "lon": 2.9557915}, {"type": "node", "id": 984677340, "lat": 39.3635399, "lon": 2.9558435}, {"type": "node", "id": 984677359, "lat": 39.3632702, "lon": 2.9556263}, {"type": "node", "id": 984677473, "lat": 39.3634476, "lon": 2.955712}, {"type": "node", "id": 1078610250, "lat": 39.5222494, "lon": 2.7401411, "tags": {"amenity": "cafe", "cuisine": "german", "wifi": "no"}}, {"type": "node", "id": 1193141184, "lat": 39.5677437, "lon": 2.9822031, "tags": {"amenity": "cafe", "name": "Ca na Poeta"}}, {"type": "node", "id": 1320898983, "lat": 39.4675493, "lon": 3.1459986, "tags": {"addr:city": "Felanitx", "addr:housenumber": "8", "addr:street": "Plaza Espanya", "amenity": "cafe", "cuisine": "spanish", "description": "Bar-Restaurant / Homemade Majorcan Food", "fixme": "Revisar existencia y datos", "internet_access": "wlan", "internet_access:fee": "no", "name": "Ca n'Ussola", "phone": "+34 971 58 00 46", "smoking": "separated", "wheelchair": "yes"}}, {"type": "node", "id": 1348469068, "lat": 39.4263622, "lon": 3.0200949, "tags": {"addr:city": "Campos", "addr:housenumber": "23", "addr:postcode": "07630", "addr:street": "carrer de Nicolau Oliver Fullana", "amenity": "restaurant", "cuisine": "pizza", "name": "ses Forques", "name:ca": "ses Forques"}}, {"type": "node", "id": 1349622598, "lat": 39.4935845, "lon": 3.0450727, "tags": {"access": "designated", "amenity": "restaurant", "note": "Restaurant for guests"}}, {"type": "node", "id": 1416599285, "lat": 39.3289134, "lon": 3.1460103, "tags": {"amenity": "restaurant", "name": "es Pont\u00e0s", "name:ca": "es Pont\u00e0s"}}, {"type": "node", "id": 1452576355, "lat": 39.316874, "lon": 2.9973281, "tags": {"amenity": "restaurant", "cuisine": "spanish", "indoor_seating": "yes", "name": "Marisol", "outdoor_seating": "balcony", "wheelchair": "yes"}}, {"type": "node", "id": 1479365772, "lat": 39.4415407, "lon": 2.7541478, "tags": {"amenity": "restaurant", "name": "Es Rosers"}}, {"type": "node", "id": 1479365788, "lat": 39.4425101, "lon": 2.7543027, "tags": {"amenity": "restaurant", "name": "Torre Blava"}}, {"type": "node", "id": 1497155334, "lat": 39.4906742, "lon": 2.891608, "tags": {"amenity": "cafe", "check_date:opening_hours": "2024-06-12", "name": "Col\u00f3n", "name:ca": "Colom", "opening_hours:signed": "no"}}, {"type": "node", "id": 1568060513, "lat": 39.5745146, "lon": 3.1202798}, {"type": "node", "id": 1568060515, "lat": 39.574595, "lon": 3.1198371}, {"type": "node", "id": 1568060517, "lat": 39.5746111, "lon": 3.1200987}, {"type": "node", "id": 1568060519, "lat": 39.5745907, "lon": 3.1206087}, {"type": "node", "id": 1568060521, "lat": 39.5746561, "lon": 3.1198419}, {"type": "node", "id": 1568060522, "lat": 39.5746135, "lon": 3.120154}, {"type": "node", "id": 1568060523, "lat": 39.5746783, "lon": 3.1199547}, {"type": "node", "id": 1568060524, "lat": 39.5747495, "lon": 3.1205596}, {"type": "node", "id": 1568060525, "lat": 39.5748337, "lon": 3.1202284}, {"type": "node", "id": 1568060526, "lat": 39.5747465, "lon": 3.1205381}, {"type": "node", "id": 1568060529, "lat": 39.5749496, "lon": 3.1201885}, {"type": "node", "id": 1568060530, "lat": 39.5750073, "lon": 3.120483}, {"type": "node", "id": 1698574211, "lat": 39.3177371, "lon": 2.9981139}, {"type": "node", "id": 1698574224, "lat": 39.3177804, "lon": 2.9980242}, {"type": "node", "id": 1698574241, "lat": 39.3177975, "lon": 2.9981625}, {"type": "node", "id": 1698574270, "lat": 39.3178407, "lon": 2.9980728}, {"type": "node", "id": 1700012847, "lat": 39.3147072, "lon": 2.994429}, {"type": "node", "id": 1700012859, "lat": 39.3147745, "lon": 2.9945632}, {"type": "node", "id": 1700012862, "lat": 39.3147844, "lon": 2.9943644}, {"type": "node", "id": 1700012872, "lat": 39.3148516, "lon": 2.9944985}, {"type": "node", "id": 1702689985, "lat": 39.3643038, "lon": 2.9397609, "tags": {"amenity": "cafe", "cuisine": "ice_cream", "internet_access": "yes", "internet_access:fee": "no", "name": "Cardinelli", "outdoor_seating": "yes"}}, {"type": "node", "id": 1704327210, "lat": 39.3149345, "lon": 2.9942263}, {"type": "node", "id": 1704327213, "lat": 39.3150022, "lon": 2.9943692}, {"type": "node", "id": 1704327224, "lat": 39.3150305, "lon": 2.9941504}, {"type": "node", "id": 1704327239, "lat": 39.3150982, "lon": 2.9942933}, {"type": "node", "id": 1707741494, "lat": 39.3163937, "lon": 2.9939585}, {"type": "node", "id": 1707741497, "lat": 39.3164667, "lon": 2.9939021}, {"type": "node", "id": 1707741498, "lat": 39.3164716, "lon": 2.9941265}, {"type": "node", "id": 1707741499, "lat": 39.3164836, "lon": 2.9939386}, {"type": "node", "id": 1707741502, "lat": 39.3165445, "lon": 2.9940701}, {"type": "node", "id": 1707741796, "lat": 39.3210885, "lon": 2.9906517}, {"type": "node", "id": 1707741797, "lat": 39.321105, "lon": 2.9906925}, {"type": "node", "id": 1707741798, "lat": 39.3211155, "lon": 2.9905828}, {"type": "node", "id": 1707741799, "lat": 39.3211316, "lon": 2.9906225}, {"type": "node", "id": 1707741800, "lat": 39.3211318, "lon": 2.9904683}, {"type": "node", "id": 1707741801, "lat": 39.3211456, "lon": 2.9905023}, {"type": "node", "id": 1707741803, "lat": 39.3211936, "lon": 2.9904698}, {"type": "node", "id": 1707741805, "lat": 39.3212127, "lon": 2.9905169}, {"type": "node", "id": 1707741807, "lat": 39.321216, "lon": 2.9904112}, {"type": "node", "id": 1707741809, "lat": 39.3212489, "lon": 2.9904923}, {"type": "node", "id": 1707741811, "lat": 39.3212834, "lon": 2.990469}, {"type": "node", "id": 1707741816, "lat": 39.321316, "lon": 2.9905494}, {"type": "node", "id": 1726620197, "lat": 39.3162245, "lon": 2.9967247, "tags": {"amenity": "restaurant", "cuisine": "chinese", "name": "Gran Muralla"}}, {"type": "node", "id": 1726620227, "lat": 39.3178233, "lon": 2.9981784, "tags": {"amenity": "restaurant", "name": "Pep Serra", "wheelchair": "no"}}, {"type": "node", "id": 1726620270, "lat": 39.3172953, "lon": 2.9977179, "tags": {"air_conditioning": "yes", "amenity": "cafe", "bar": "yes", "check_date": "2023-08-02", "cuisine": "breakfast;pizza;ice_cream;salad;hot_dog", "indoor_seating": "yes", "internet_access": "wlan", "internet_access:fee": "customers", "name": "Es Dol\u00e7", "opening_hours": "08:00-24:00", "outdoor_seating": "yes", "payment:mastercard": "yes", "payment:visa": "yes", "website:menu": "https://onlinemenu.restaurant/es/es-dol%C3%A7", "wheelchair": "yes"}}, {"type": "node", "id": 1726620273, "lat": 39.3201445, "lon": 2.9907602, "tags": {"amenity": "restaurant", "name": "D-2"}}, {"type": "node", "id": 1726620280, "lat": 39.3207422, "lon": 2.9909864, "tags": {"amenity": "restaurant", "cuisine": "pizza", "name": "Berna"}}, {"type": "node", "id": 1726620510, "lat": 39.3172785, "lon": 2.9971728, "tags": {"amenity": "restaurant", "name": "s'Arrosseria"}}, {"type": "node", "id": 1726620513, "lat": 39.315509, "lon": 2.9966899, "tags": {"amenity": "restaurant", "name": "sa Gavina"}}, {"type": "node", "id": 1731906587, "lat": 39.5632699, "lon": 2.9815984, "tags": {"amenity": "restaurant", "check_date": "2025-01-04", "cuisine": "pizza", "name": "Mol\u00ed den Perons"}}, {"type": "node", "id": 1735160023, "lat": 39.319784, "lon": 2.9997548, "tags": {"amenity": "restaurant", "check_date": "2024-07-27", "name": "Es Carb\u00f3", "name:ca": "Can Pascal", "opening_hours": "Mo-Tu,Th-Su 19:00-22:00; We off", "phone": "+34 624 06 53 69"}}, {"type": "node", "id": 1735724385, "lat": 39.3195876, "lon": 2.9879856, "tags": {"amenity": "restaurant", "name": "Antonio"}}, {"type": "node", "id": 1735724389, "lat": 39.3184302, "lon": 2.9885536, "tags": {"amenity": "restaurant", "name": "La Barrala"}}, {"type": "node", "id": 1764220323, "lat": 39.5090074, "lon": 2.7529711, "tags": {"amenity": "cafe", "cuisine": "spanish", "name": "Europa", "name:ca": "Europa"}}, {"type": "node", "id": 1865568368, "lat": 39.3303881, "lon": 3.1472934, "tags": {"amenity": "restaurant", "cuisine": "regional", "name": "Cafeteria Drac"}}, {"type": "node", "id": 1907160710, "lat": 39.5170094, "lon": 3.0224162, "tags": {"amenity": "restaurant", "name": "l'Escrivania", "phone": "+34971647094", "website": "https://www.lescrivaniarestaurant.com/"}}, {"type": "node", "id": 1951023253, "lat": 39.349607, "lon": 3.1851509}, {"type": "node", "id": 1951023257, "lat": 39.3496152, "lon": 3.1852148}, {"type": "node", "id": 1951023288, "lat": 39.3496691, "lon": 3.1851375}, {"type": "node", "id": 1951023290, "lat": 39.3496773, "lon": 3.1852013}, {"type": "node", "id": 1961532522, "lat": 39.5002421, "lon": 2.7496096, "tags": {"addr:housenumber": "1", "addr:postcode": "07600", "addr:street": "carrer de les Roses", "amenity": "restaurant", "cuisine": "seafood", "name": "las Sirenas", "opening_hours": "Mo-Su 13:00-16:30, 19:00-23:45", "phone": "+34971440039"}}, {"type": "node", "id": 2122398503, "lat": 39.5166877, "lon": 2.7462567}, {"type": "node", "id": 2122398517, "lat": 39.5169177, "lon": 2.746177}, {"type": "node", "id": 2122398518, "lat": 39.516619, "lon": 2.7465586}, {"type": "node", "id": 2122398539, "lat": 39.5186554, "lon": 2.7434655}, {"type": "node", "id": 2122398646, "lat": 39.5177896, "lon": 2.7468437}, {"type": "node", "id": 2122398686, "lat": 39.5184918, "lon": 2.7433681}, {"type": "node", "id": 2122398794, "lat": 39.5178699, "lon": 2.7469866}, {"type": "node", "id": 2122398797, "lat": 39.5168156, "lon": 2.745973}, {"type": "node", "id": 2122398807, "lat": 39.5166511, "lon": 2.7461115}, {"type": "node", "id": 2122398823, "lat": 39.5176595, "lon": 2.7471855}, {"type": "node", "id": 2122398864, "lat": 39.5167761, "lon": 2.7463609}, {"type": "node", "id": 2122398866, "lat": 39.5167748, "lon": 2.7464049}, {"type": "node", "id": 2122398890, "lat": 39.5168567, "lon": 2.746293}, {"type": "node", "id": 2122398897, "lat": 39.516532, "lon": 2.7464105}, {"type": "node", "id": 2122398964, "lat": 39.5184017, "lon": 2.7434617}, {"type": "node", "id": 2122398966, "lat": 39.5175791, "lon": 2.7470426}, {"type": "node", "id": 2122398982, "lat": 39.5168339, "lon": 2.7462475}, {"type": "node", "id": 2124153415, "lat": 39.5311642, "lon": 2.7276466}, {"type": "node", "id": 2124153546, "lat": 39.5312666, "lon": 2.7277382}, {"type": "node", "id": 2190109613, "lat": 39.3526001, "lon": 3.12648}, {"type": "node", "id": 2190109634, "lat": 39.3526271, "lon": 3.1265509}, {"type": "node", "id": 2190109667, "lat": 39.3526852, "lon": 3.1265466}, {"type": "node", "id": 2190109668, "lat": 39.3526884, "lon": 3.1264448}, {"type": "node", "id": 2190109677, "lat": 39.352695, "lon": 3.1265679}, {"type": "node", "id": 2190109713, "lat": 39.3527346, "lon": 3.1265332}, {"type": "node", "id": 2190472581, "lat": 39.3509511, "lon": 3.133069}, {"type": "node", "id": 2190472590, "lat": 39.3509654, "lon": 3.1330475}, {"type": "node", "id": 2190472598, "lat": 39.3509831, "lon": 3.1331112}, {"type": "node", "id": 2190472607, "lat": 39.350994, "lon": 3.1330055}, {"type": "node", "id": 2190472613, "lat": 39.3510068, "lon": 3.1331111}, {"type": "node", "id": 2190472623, "lat": 39.3510296, "lon": 3.1330499}, {"type": "node", "id": 2190472629, "lat": 39.3510416, "lon": 3.1330651}, {"type": "node", "id": 2190472640, "lat": 39.3510613, "lon": 3.1329169}, {"type": "node", "id": 2190472650, "lat": 39.3510774, "lon": 3.1332007}, {"type": "node", "id": 2190472696, "lat": 39.3511792, "lon": 3.1330666}, {"type": "node", "id": 2203953677, "lat": 39.3554486, "lon": 3.1290701}, {"type": "node", "id": 2203953721, "lat": 39.3554981, "lon": 3.1290269}, {"type": "node", "id": 2203953733, "lat": 39.3555033, "lon": 3.1291584}, {"type": "node", "id": 2203953738, "lat": 39.3555059, "lon": 3.1291553}, {"type": "node", "id": 2203953748, "lat": 39.3555129, "lon": 3.1290842}, {"type": "node", "id": 2203953774, "lat": 39.3555221, "lon": 3.1290741}, {"type": "node", "id": 2203953790, "lat": 39.3555327, "lon": 3.1292202}, {"type": "node", "id": 2203953804, "lat": 39.3555392, "lon": 3.1292136}, {"type": "node", "id": 2203953816, "lat": 39.3555487, "lon": 3.1292298}, {"type": "node", "id": 2203953868, "lat": 39.3555703, "lon": 3.129268}, {"type": "node", "id": 2203953870, "lat": 39.3555734, "lon": 3.1291761}, {"type": "node", "id": 2203953908, "lat": 39.3555887, "lon": 3.1292471}, {"type": "node", "id": 2203953955, "lat": 39.3556053, "lon": 3.1292245}, {"type": "node", "id": 2209241212, "lat": 39.5206319, "lon": 2.7406013}, {"type": "node", "id": 2209241221, "lat": 39.5206678, "lon": 2.740541}, {"type": "node", "id": 2209241222, "lat": 39.5206688, "lon": 2.7405648}, {"type": "node", "id": 2209241224, "lat": 39.5206899, "lon": 2.7405387}, {"type": "node", "id": 2209241225, "lat": 39.5206901, "lon": 2.7405281}, {"type": "node", "id": 2209241229, "lat": 39.5207057, "lon": 2.740737}, {"type": "node", "id": 2209241230, "lat": 39.5207138, "lon": 2.7407283}, {"type": "node", "id": 2209241231, "lat": 39.5207155, "lon": 2.7405078}, {"type": "node", "id": 2209241232, "lat": 39.5207157, "lon": 2.7405278}, {"type": "node", "id": 2209241233, "lat": 39.5207215, "lon": 2.7407625}, {"type": "node", "id": 2209241237, "lat": 39.5207324, "lon": 2.7407552}, {"type": "node", "id": 2209241240, "lat": 39.5207368, "lon": 2.7404934}, {"type": "node", "id": 2209241241, "lat": 39.5207376, "lon": 2.7405056}, {"type": "node", "id": 2209241244, "lat": 39.5207505, "lon": 2.7404937}, {"type": "node", "id": 2209241247, "lat": 39.5207644, "lon": 2.7404943}, {"type": "node", "id": 2209241248, "lat": 39.520765, "lon": 2.7408016}, {"type": "node", "id": 2209241250, "lat": 39.5207785, "lon": 2.7404979}, {"type": "node", "id": 2209241252, "lat": 39.5207932, "lon": 2.7405033}, {"type": "node", "id": 2209241253, "lat": 39.5208078, "lon": 2.7405107}, {"type": "node", "id": 2209241254, "lat": 39.5208165, "lon": 2.7410628}, {"type": "node", "id": 2209241255, "lat": 39.5208228, "lon": 2.7409599}, {"type": "node", "id": 2209241256, "lat": 39.5208292, "lon": 2.7405278}, {"type": "node", "id": 2209241257, "lat": 39.5208341, "lon": 2.7408507}, {"type": "node", "id": 2209241258, "lat": 39.5208432, "lon": 2.7410337}, {"type": "node", "id": 2209241259, "lat": 39.5208518, "lon": 2.7405526}, {"type": "node", "id": 2209241260, "lat": 39.5208671, "lon": 2.7409108}, {"type": "node", "id": 2209241261, "lat": 39.5209124, "lon": 2.7406455}, {"type": "node", "id": 2209241262, "lat": 39.5209134, "lon": 2.7412185}, {"type": "node", "id": 2209241263, "lat": 39.5209282, "lon": 2.7407515}, {"type": "node", "id": 2209241264, "lat": 39.521103, "lon": 2.7410228}, {"type": "node", "id": 2211353313, "lat": 39.1513271, "lon": 2.9341934}, {"type": "node", "id": 2211353316, "lat": 39.1513405, "lon": 2.93396}, {"type": "node", "id": 2211353321, "lat": 39.1513935, "lon": 2.9341998}, {"type": "node", "id": 2211353323, "lat": 39.1514069, "lon": 2.9339663}, {"type": "node", "id": 2223151009, "lat": 39.5221785, "lon": 2.7508975}, {"type": "node", "id": 2223151010, "lat": 39.5224202, "lon": 2.7508688}, {"type": "node", "id": 2223151018, "lat": 39.5222193, "lon": 2.7509658}, {"type": "node", "id": 2223151025, "lat": 39.5221469, "lon": 2.7509293}, {"type": "node", "id": 2223151027, "lat": 39.5223876, "lon": 2.7512265}, {"type": "node", "id": 2223151029, "lat": 39.522195, "lon": 2.7510098}, {"type": "node", "id": 2223151033, "lat": 39.5222422, "lon": 2.7509832}, {"type": "node", "id": 2223151036, "lat": 39.5226059, "lon": 2.7510273}, {"type": "node", "id": 2223151037, "lat": 39.5224771, "lon": 2.7508117}, {"type": "node", "id": 2223151040, "lat": 39.5223811, "lon": 2.7508033}, {"type": "node", "id": 2223151045, "lat": 39.5224258, "lon": 2.7512081}, {"type": "node", "id": 2223173802, "lat": 39.4827917, "lon": 2.8507254, "tags": {"amenity": "restaurant", "cuisine": "spanish", "name": "Son Noguera", "name:ca": "Son Noguera"}}, {"type": "node", "id": 2239133393, "lat": 39.3299571, "lon": 3.1703462}, {"type": "node", "id": 2239133394, "lat": 39.3299961, "lon": 3.1702877}, {"type": "node", "id": 2239133397, "lat": 39.3300339, "lon": 3.1704306}, {"type": "node", "id": 2239133408, "lat": 39.330044, "lon": 3.1703398}, {"type": "node", "id": 2239133410, "lat": 39.3300554, "lon": 3.170396}, {"type": "node", "id": 2239133413, "lat": 39.3300579, "lon": 3.1703187}, {"type": "node", "id": 2239133414, "lat": 39.3300627, "lon": 3.1703239}, {"type": "node", "id": 2239133416, "lat": 39.3300709, "lon": 3.1704136}, {"type": "node", "id": 2239133418, "lat": 39.3300751, "lon": 3.1703047}, {"type": "node", "id": 2239133428, "lat": 39.3301146, "lon": 3.1703482}, {"type": "node", "id": 2239576277, "lat": 39.3282236, "lon": 3.1711736}, {"type": "node", "id": 2239576297, "lat": 39.3282547, "lon": 3.171224}, {"type": "node", "id": 2239576305, "lat": 39.3282649, "lon": 3.171213}, {"type": "node", "id": 2239576310, "lat": 39.3282687, "lon": 3.1712175}, {"type": "node", "id": 2239576312, "lat": 39.3282717, "lon": 3.1712203}, {"type": "node", "id": 2239576315, "lat": 39.3282765, "lon": 3.1712227}, {"type": "node", "id": 2239576320, "lat": 39.3282823, "lon": 3.1712236}, {"type": "node", "id": 2239576323, "lat": 39.328288, "lon": 3.1712231}, {"type": "node", "id": 2239576326, "lat": 39.328293, "lon": 3.1712206}, {"type": "node", "id": 2239576329, "lat": 39.3282974, "lon": 3.1712175}, {"type": "node", "id": 2239576335, "lat": 39.3283015, "lon": 3.1712113}, {"type": "node", "id": 2239576338, "lat": 39.3283047, "lon": 3.1712055}, {"type": "node", "id": 2239576341, "lat": 39.328306, "lon": 3.1711992}, {"type": "node", "id": 2239576343, "lat": 39.3283061, "lon": 3.1711876}, {"type": "node", "id": 2239576345, "lat": 39.3283067, "lon": 3.1711926}, {"type": "node", "id": 2239576346, "lat": 39.3283166, "lon": 3.1711766}, {"type": "node", "id": 2239576356, "lat": 39.3283443, "lon": 3.1712217}, {"type": "node", "id": 2239576366, "lat": 39.3283672, "lon": 3.1711984}, {"type": "node", "id": 2239576368, "lat": 39.3283683, "lon": 3.1712005}, {"type": "node", "id": 2239576370, "lat": 39.3283734, "lon": 3.1710236}, {"type": "node", "id": 2239576372, "lat": 39.3283826, "lon": 3.1711852}, {"type": "node", "id": 2239576375, "lat": 39.328392, "lon": 3.1711992}, {"type": "node", "id": 2239576376, "lat": 39.3283948, "lon": 3.1710591}, {"type": "node", "id": 2239576378, "lat": 39.328398, "lon": 3.1710556}, {"type": "node", "id": 2239576404, "lat": 39.3284222, "lon": 3.1711285}, {"type": "node", "id": 2239576407, "lat": 39.3284344, "lon": 3.1711159}, {"type": "node", "id": 2239576414, "lat": 39.3284375, "lon": 3.1711541}, {"type": "node", "id": 2249209943, "lat": 39.5223489, "lon": 2.740303, "tags": {"amenity": "cafe", "name": "Tango", "name:ca": "Tango", "website": "http://tangobarplayadepalma.com"}}, {"type": "node", "id": 2275806568, "lat": 39.5276449, "lon": 2.9257234, "tags": {"addr:city": "Algaida", "amenity": "restaurant", "cuisine": "regional", "internet_access": "wlan", "internet_access:fee": "no", "outdoor_seating": "yes", "panoramax": "8b54e1e7-7712-454c-98bc-d171f8ce7f74", "phone": "+34 971 120 260", "source": "Personal visit", "takeaway": "no", "toilets": "yes", "website": "https://www.santuaridecura.com/es/restaurante/", "wheelchair": "yes"}}, {"type": "node", "id": 2300164749, "lat": 39.4554711, "lon": 2.7526395, "tags": {"amenity": "restaurant", "name": "Dimmock's"}}, {"type": "node", "id": 2300164761, "lat": 39.4453137, "lon": 2.7564615, "tags": {"amenity": "cafe", "name": "forn de Campos", "name:ca": "forn de Campos", "wifi": "no"}}, {"type": "node", "id": 2300164781, "lat": 39.455885, "lon": 2.7524492, "tags": {"amenity": "restaurant", "cuisine": "kebab"}}, {"type": "node", "id": 2440067864, "lat": 39.516228, "lon": 2.7453153, "tags": {"addr:housenumber": "45", "addr:street": "carretera de s'Arenal", "amenity": "restaurant", "check_date": "2024-07-24", "contact:facebook": "https://www.facebook.com/xhamanmallorca", "contact:instagram": "https://www.instagram.com/xhamanmallorca/", "contact:tripadvisor": "https://www.tripadvisor.es/Restaurant_Review-g662296-d27515116-Reviews-Xhaman-Playa_de_Palma_Majorca_Balearic_Islands.html?m=19905", "cuisine": "mexican", "email": "info@groupmg.es", "name": "Xhaman", "opening_hours": "10:00-24:00", "outdoor_seating": "yes", "payment:cash": "yes", "payment:credit_cards": "yes", "payment:debit_cards": "yes", "phone": "+34 971 26 00 17", "website": "https://www.xhamanrestaurante.com/", "website:menu": "https://www.xhamanrestaurante.com/cartas/"}}, {"type": "node", "id": 2453032678, "lat": 39.431332, "lon": 3.004985, "tags": {"access": "private", "amenity": "cafe", "opening_hours": "Mo-Fr 08:00-15:00", "source": "survey"}}, {"type": "node", "id": 2477687708, "lat": 39.3622395, "lon": 2.9173047, "tags": {"amenity": "cafe", "name": "Migjorn", "name:ca": "Migjorn"}}, {"type": "node", "id": 2514848228, "lat": 39.5008737, "lon": 2.7505024}, {"type": "node", "id": 2514848232, "lat": 39.500935, "lon": 2.7502277}, {"type": "node", "id": 2514848236, "lat": 39.5010199, "lon": 2.7502595}, {"type": "node", "id": 2514848238, "lat": 39.5010348, "lon": 2.7505628}, {"type": "node", "id": 2514848239, "lat": 39.5010355, "lon": 2.7501899}, {"type": "node", "id": 2514848241, "lat": 39.501046, "lon": 2.7505126}, {"type": "node", "id": 2514848242, "lat": 39.5010742, "lon": 2.7505231}, {"type": "node", "id": 2514848243, "lat": 39.5011398, "lon": 2.7502289}, {"type": "node", "id": 2586371517, "lat": 39.4264737, "lon": 3.0191926, "tags": {"amenity": "restaurant", "name": "Ca'n Calent"}}, {"type": "node", "id": 2645402571, "lat": 39.5197657, "lon": 2.7429998}, {"type": "node", "id": 2645402572, "lat": 39.5197744, "lon": 2.743135}, {"type": "node", "id": 2645402573, "lat": 39.5197868, "lon": 2.7430892}, {"type": "node", "id": 2645402574, "lat": 39.5197993, "lon": 2.7431112}, {"type": "node", "id": 2645402575, "lat": 39.5198061, "lon": 2.7430709}, {"type": "node", "id": 2645402576, "lat": 39.5198116, "lon": 2.742956}, {"type": "node", "id": 2645402577, "lat": 39.5198121, "lon": 2.7432014}, {"type": "node", "id": 2645402578, "lat": 39.5198385, "lon": 2.7430035}, {"type": "node", "id": 2645402580, "lat": 39.5198591, "lon": 2.7429839}, {"type": "node", "id": 2645402581, "lat": 39.519878, "lon": 2.7430576}, {"type": "node", "id": 2645402582, "lat": 39.5198929, "lon": 2.7430434}, {"type": "node", "id": 2645402583, "lat": 39.5199078, "lon": 2.7431101}, {"type": "node", "id": 2711462183, "lat": 39.3609355, "lon": 2.9176394, "tags": {"addr:housenumber": "2", "addr:postcode": "07629", "addr:street": "carrer de Sant Jaume", "amenity": "cafe", "email": "info@canamarola.com", "name": "Ca na Marola", "phone": "+34 971641517", "website": "http://www.canamarola.com"}}, {"type": "node", "id": 2712866684, "lat": 39.3600113, "lon": 2.9174807}, {"type": "node", "id": 2712866685, "lat": 39.360106, "lon": 2.9176015}, {"type": "node", "id": 2712866687, "lat": 39.3600248, "lon": 2.91771}, {"type": "node", "id": 2712866688, "lat": 39.3600487, "lon": 2.9177589}, {"type": "node", "id": 2712866689, "lat": 39.3600414, "lon": 2.9177779}, {"type": "node", "id": 2712866690, "lat": 39.3600223, "lon": 2.9177855}, {"type": "node", "id": 2712866693, "lat": 39.3599477, "lon": 2.9178828}, {"type": "node", "id": 2712866694, "lat": 39.3598392, "lon": 2.9177444}, {"type": "node", "id": 2713821892, "lat": 39.3622959, "lon": 2.9170339, "tags": {"amenity": "cafe", "name": "s'Estany", "name:ca": "s'Estany"}}, {"type": "node", "id": 2769099001, "lat": 39.5747912, "lon": 3.1200412}, {"type": "node", "id": 2769099002, "lat": 39.5745858, "lon": 3.1201612}, {"type": "node", "id": 2769099003, "lat": 39.5746061, "lon": 3.1202428}, {"type": "node", "id": 2769099004, "lat": 39.5746912, "lon": 3.1205749}, {"type": "node", "id": 2933477647, "lat": 39.5633165, "lon": 2.9774363}, {"type": "node", "id": 2933477648, "lat": 39.5632182, "lon": 2.9771757}, {"type": "node", "id": 2933477649, "lat": 39.5630216, "lon": 2.9774931}, {"type": "node", "id": 2933477650, "lat": 39.5631297, "lon": 2.9776366}, {"type": "node", "id": 2933477653, "lat": 39.5632602, "lon": 2.977455}, {"type": "node", "id": 2933477655, "lat": 39.5632927, "lon": 2.9774944}, {"type": "node", "id": 2933477656, "lat": 39.5633266, "lon": 2.9774542}, {"type": "node", "id": 2995699952, "lat": 39.5177854, "lon": 2.74732, "tags": {"addr:country": "ES", "addr:housenumber": "9", "addr:street": "Calle de Bartomeu Salva", "amenity": "restaurant", "cuisine": "german", "email": "conny-donnerbalken@freenet.de", "name": "Donnerbalken", "phone": "+34 971 267225", "website": "http://www.donnerbalken-schinkenstrasse.de/"}}, {"type": "node", "id": 3074009118, "lat": 39.4680334, "lon": 3.1456276, "tags": {"amenity": "cafe", "name": "s'Abeurador"}}, {"type": "node", "id": 3074009119, "lat": 39.4674276, "lon": 3.1458345, "tags": {"amenity": "cafe", "name": "ses Palmeres", "name:ca": "ses Palmeres"}}, {"type": "node", "id": 3074009121, "lat": 39.4676239, "lon": 3.1461835, "tags": {"amenity": "cafe", "name": "Alhambra", "name:ca": "Alhambra"}}, {"type": "node", "id": 3077322109, "lat": 39.4729352, "lon": 3.1441597, "tags": {"amenity": "restaurant"}}, {"type": "node", "id": 3077322110, "lat": 39.473388, "lon": 3.1439145, "tags": {"amenity": "cafe", "name": "Europa"}}, {"type": "node", "id": 3077322111, "lat": 39.4723748, "lon": 3.1447777, "tags": {"addr:housenumber": "18", "addr:street": "passeig de Ramon Llull", "amenity": "restaurant", "name": "s'Estacio", "outdoor_seating": "yes"}}, {"type": "node", "id": 3100062136, "lat": 39.3164845, "lon": 2.9970745, "tags": {"amenity": "restaurant", "indoor_seating": "yes", "name": "Salicornia", "outdoor_seating": "veranda"}}, {"type": "node", "id": 3131062427, "lat": 39.4735663, "lon": 2.8278718}, {"type": "node", "id": 3131062428, "lat": 39.4735622, "lon": 2.8278099}, {"type": "node", "id": 3131065930, "lat": 39.473616, "lon": 2.8278662}, {"type": "node", "id": 3131065932, "lat": 39.4737113, "lon": 2.8279013}, {"type": "node", "id": 3131065943, "lat": 39.4736843, "lon": 2.8278125}, {"type": "node", "id": 3131065944, "lat": 39.4736409, "lon": 2.8279281}, {"type": "node", "id": 3131065947, "lat": 39.4735436, "lon": 2.8278182}, {"type": "node", "id": 3131065949, "lat": 39.4735456, "lon": 2.8277431}, {"type": "node", "id": 3131065951, "lat": 39.4736491, "lon": 2.8278206}, {"type": "node", "id": 3131065952, "lat": 39.4736139, "lon": 2.8277082}, {"type": "node", "id": 3170594588, "lat": 39.4189518, "lon": 2.7485379}, {"type": "node", "id": 3170594589, "lat": 39.4189417, "lon": 2.7486587}, {"type": "node", "id": 3170594590, "lat": 39.4188037, "lon": 2.7486394}, {"type": "node", "id": 3170594591, "lat": 39.4188138, "lon": 2.7485186}, {"type": "node", "id": 3371662583, "lat": 39.3149811, "lon": 2.9976748, "tags": {"addr:city": "Col\u00f2nia de Sant Jordi", "addr:housenumber": "47", "addr:postcode": "07638", "addr:street": "Calle Carrer\u00f3", "amenity": "restaurant", "cuisine": "spanish", "name": "Sal de Coc\u00f3", "source": "survey", "website": "https://www.restaurantsaldecoco.com/en/"}}, {"type": "node", "id": 3372199746, "lat": 39.4025175, "lon": 2.8335563}, {"type": "node", "id": 3372199747, "lat": 39.402581, "lon": 2.8336273}, {"type": "node", "id": 3372199749, "lat": 39.4026364, "lon": 2.8334708}, {"type": "node", "id": 3372199750, "lat": 39.402617, "lon": 2.8335673}, {"type": "node", "id": 3372199751, "lat": 39.4026393, "lon": 2.8335747}, {"type": "node", "id": 3372199752, "lat": 39.4026339, "lon": 2.8336015}, {"type": "node", "id": 3372199753, "lat": 39.4025892, "lon": 2.8335865}, {"type": "node", "id": 3372199754, "lat": 39.4025451, "lon": 2.8334305}, {"type": "node", "id": 3372199755, "lat": 39.4025521, "lon": 2.833396}, {"type": "node", "id": 3410392512, "lat": 39.4925479, "lon": 2.7436829, "tags": {"amenity": "cafe", "name": "M\u00e9s Tert\u00falia", "name:ca": "M\u00e9s Tert\u00falia"}}, {"type": "node", "id": 3410392514, "lat": 39.4928802, "lon": 2.7436962}, {"type": "node", "id": 3410392515, "lat": 39.4929071, "lon": 2.7437016}, {"type": "node", "id": 3410392516, "lat": 39.4929402, "lon": 2.7437687}, {"type": "node", "id": 3410392517, "lat": 39.4928367, "lon": 2.7438438}, {"type": "node", "id": 3410392518, "lat": 39.4927912, "lon": 2.7437579}, {"type": "node", "id": 3410392519, "lat": 39.4928015, "lon": 2.7436828}, {"type": "node", "id": 3410392524, "lat": 39.4928698, "lon": 2.743251, "tags": {"amenity": "cafe", "name": "Caf\u00e8 nou", "name:ca": "Caf\u00e8 nou"}}, {"type": "node", "id": 3546878645, "lat": 39.3548102, "lon": 2.971847}, {"type": "node", "id": 3546878646, "lat": 39.3547234, "lon": 2.9719957}, {"type": "node", "id": 3546878647, "lat": 39.3546366, "lon": 2.9719214}, {"type": "node", "id": 3546878648, "lat": 39.3547223, "lon": 2.9717654}, {"type": "node", "id": 3574995396, "lat": 39.5730602, "lon": 3.1116398}, {"type": "node", "id": 3574995397, "lat": 39.5728283, "lon": 3.1111278}, {"type": "node", "id": 3574995398, "lat": 39.572304, "lon": 3.1115274}, {"type": "node", "id": 3574995399, "lat": 39.572754, "lon": 3.1114988}, {"type": "node", "id": 3577445545, "lat": 39.4385818, "lon": 3.0045384}, {"type": "node", "id": 3577445546, "lat": 39.4382217, "lon": 3.0048095}, {"type": "node", "id": 3577445547, "lat": 39.4381519, "lon": 3.0045675}, {"type": "node", "id": 3577445548, "lat": 39.4385053, "lon": 3.0043402}, {"type": "node", "id": 3596884399, "lat": 39.4633173, "lon": 3.1306008}, {"type": "node", "id": 3596884400, "lat": 39.4635129, "lon": 3.1309555}, {"type": "node", "id": 3596884401, "lat": 39.4636901, "lon": 3.1307915}, {"type": "node", "id": 3596884402, "lat": 39.463667, "lon": 3.1307497}, {"type": "node", "id": 3596884403, "lat": 39.4637003, "lon": 3.1307189}, {"type": "node", "id": 3596884404, "lat": 39.4636509, "lon": 3.1306293}, {"type": "node", "id": 3596884405, "lat": 39.4635232, "lon": 3.1307474}, {"type": "node", "id": 3596884406, "lat": 39.4634001, "lon": 3.1305242}, {"type": "node", "id": 3605986395, "lat": 39.3833871, "lon": 2.938956, "tags": {"addr:hamlet": "Urbanitzaci\u00f3 El Para\u00edso", "addr:street": "carrer de sa Vinyola", "amenity": "cafe"}}, {"type": "node", "id": 3633595054, "lat": 39.5630649, "lon": 2.972327}, {"type": "node", "id": 3633595055, "lat": 39.5630307, "lon": 2.9722561}, {"type": "node", "id": 3633595056, "lat": 39.5628952, "lon": 2.972366}, {"type": "node", "id": 3633595057, "lat": 39.5628821, "lon": 2.9723389}, {"type": "node", "id": 3633595058, "lat": 39.5627477, "lon": 2.9724479}, {"type": "node", "id": 3633595059, "lat": 39.5628134, "lon": 2.9725842}, {"type": "node", "id": 3633595060, "lat": 39.5629408, "lon": 2.9724808}, {"type": "node", "id": 3633595061, "lat": 39.5629474, "lon": 2.9724946}, {"type": "node", "id": 3633595062, "lat": 39.5630007, "lon": 2.9724513}, {"type": "node", "id": 3633595063, "lat": 39.5629757, "lon": 2.9723993}, {"type": "node", "id": 3633619255, "lat": 39.5601414, "lon": 2.995392}, {"type": "node", "id": 3633619256, "lat": 39.5602882, "lon": 2.9953839}, {"type": "node", "id": 3633619257, "lat": 39.560286, "lon": 2.9953164}, {"type": "node", "id": 3633619258, "lat": 39.5603412, "lon": 2.9953133}, {"type": "node", "id": 3633619259, "lat": 39.5603392, "lon": 2.9952538}, {"type": "node", "id": 3633619260, "lat": 39.5603666, "lon": 2.9952523}, {"type": "node", "id": 3633619261, "lat": 39.5603499, "lon": 2.9947324}, {"type": "node", "id": 3633619262, "lat": 39.5601728, "lon": 2.994742}, {"type": "node", "id": 3633619263, "lat": 39.5601844, "lon": 2.995102}, {"type": "node", "id": 3633619264, "lat": 39.5601326, "lon": 2.995126}, {"type": "node", "id": 3633619265, "lat": 39.5696765, "lon": 3.0680287}, {"type": "node", "id": 3633619266, "lat": 39.5697765, "lon": 3.0681701}, {"type": "node", "id": 3633619267, "lat": 39.5696833, "lon": 3.0682765}, {"type": "node", "id": 3633619268, "lat": 39.5696372, "lon": 3.0682867}, {"type": "node", "id": 3633619269, "lat": 39.5694518, "lon": 3.0680229}, {"type": "node", "id": 3633619270, "lat": 39.5696248, "lon": 3.068071}, {"type": "node", "id": 3633619271, "lat": 39.5695361, "lon": 3.0679325}, {"type": "node", "id": 3666105782, "lat": 39.4885792, "lon": 2.8986649}, {"type": "node", "id": 3666105783, "lat": 39.4886717, "lon": 2.8987796}, {"type": "node", "id": 3666105784, "lat": 39.4885282, "lon": 2.8990034}, {"type": "node", "id": 3666105785, "lat": 39.4883986, "lon": 2.8989089}, {"type": "node", "id": 3666131924, "lat": 39.49402, "lon": 2.8963555, "tags": {"addr:city": "Llucmajor", "addr:country": "ES", "addr:housenumber": "63", "addr:postcode": "07620", "addr:street": "Carrer de Gr\u00e0cia", "amenity": "restaurant", "contact:phone": "+34 971 120228", "contact:website": "http://www.canjoanpizzeria.com/", "cuisine": "pizza", "name": "Can Joan", "name:ca": "Can Joan", "opening_hours": "Mo, We-Su 19:00-24:00; Tu off", "outdoor_seating": "yes", "takeaway": "yes"}}, {"type": "node", "id": 3667132325, "lat": 39.329868, "lon": 3.145405, "tags": {"amenity": "restaurant", "name": "Voramar", "opening_hours": "Fr-We 13:00-22:30", "wheelchair": "no"}}, {"type": "node", "id": 3673967254, "lat": 39.5441357, "lon": 3.1378396}, {"type": "node", "id": 3673967257, "lat": 39.5441382, "lon": 3.1380122}, {"type": "node", "id": 3673967259, "lat": 39.5442384, "lon": 3.137619}, {"type": "node", "id": 3673967263, "lat": 39.5440811, "lon": 3.137883}, {"type": "node", "id": 3673967266, "lat": 39.5440823, "lon": 3.1378858}, {"type": "node", "id": 3673967269, "lat": 39.544238, "lon": 3.1377664}, {"type": "node", "id": 3673967272, "lat": 39.5440284, "lon": 3.1377639}, {"type": "node", "id": 3673967281, "lat": 39.5441884, "lon": 3.1376556}, {"type": "node", "id": 3673967284, "lat": 39.5440837, "lon": 3.1377241}, {"type": "node", "id": 3673967286, "lat": 39.5443469, "lon": 3.1378382}, {"type": "node", "id": 3673967289, "lat": 39.5440383, "lon": 3.1377567}, {"type": "node", "id": 3690145898, "lat": 39.5441036, "lon": 3.137934}, {"type": "node", "id": 3697151717, "lat": 39.5141218, "lon": 2.7509399, "tags": {"addr:city": "Palma", "addr:housenumber": "7", "addr:postcode": "07600", "addr:street": "Calle Trobadors", "amenity": "cafe", "internet_access": "yes", "name": "Charleston"}}, {"type": "node", "id": 3719053668, "lat": 39.4988678, "lon": 2.7581245, "tags": {"amenity": "cafe", "name": "Dragonera"}}, {"type": "node", "id": 3745217617, "lat": 39.4805156, "lon": 2.7297946}, {"type": "node", "id": 3745217618, "lat": 39.4806185, "lon": 2.7300647}, {"type": "node", "id": 3745217619, "lat": 39.4808127, "lon": 2.7298825}, {"type": "node", "id": 3745217620, "lat": 39.4807587, "lon": 2.7297404}, {"type": "node", "id": 3745217621, "lat": 39.4806142, "lon": 2.7298327}, {"type": "node", "id": 3745217624, "lat": 39.4805832, "lon": 2.7297514}, {"type": "node", "id": 3773761957, "lat": 39.4903788, "lon": 2.8909895, "tags": {"amenity": "cafe", "name": "Mel-Mel"}}, {"type": "node", "id": 3773761959, "lat": 39.4907783, "lon": 2.8910807, "tags": {"addr:housenumber": "57", "addr:postcode": "07620", "addr:street": "Pla\u00e7a d'Espanya", "amenity": "restaurant", "name": "Caliuet", "phone": "+34871571648", "website": "https://caliuet.eltenedor.rest/"}}, {"type": "node", "id": 3773988346, "lat": 39.3529441, "lon": 3.0161005}, {"type": "node", "id": 3773988347, "lat": 39.353054, "lon": 3.0162185}, {"type": "node", "id": 3773988348, "lat": 39.3529462, "lon": 3.0163553}, {"type": "node", "id": 3773988349, "lat": 39.3528445, "lon": 3.01624}, {"type": "node", "id": 3783835165, "lat": 39.57288, "lon": 3.1117771}, {"type": "node", "id": 3783835166, "lat": 39.5724098, "lon": 3.1117611}, {"type": "node", "id": 3794592104, "lat": 39.3970866, "lon": 2.8247722, "tags": {"amenity": "cafe", "name": "Talaiot"}}, {"type": "node", "id": 3891068143, "lat": 39.4987872, "lon": 2.7695186}, {"type": "node", "id": 3891068147, "lat": 39.499106, "lon": 2.7700972}, {"type": "node", "id": 3891068148, "lat": 39.4989758, "lon": 2.7704355}, {"type": "node", "id": 3891068149, "lat": 39.4987882, "lon": 2.7703741}, {"type": "node", "id": 3891068150, "lat": 39.4988784, "lon": 2.7700021}, {"type": "node", "id": 3891068151, "lat": 39.499455, "lon": 2.7692746}, {"type": "node", "id": 3891068152, "lat": 39.4992678, "lon": 2.7700134}, {"type": "node", "id": 3891068153, "lat": 39.498852, "lon": 2.7692636}, {"type": "node", "id": 3891068154, "lat": 39.499035, "lon": 2.7693095}, {"type": "node", "id": 3891068155, "lat": 39.49908, "lon": 2.769115}, {"type": "node", "id": 3891068156, "lat": 39.4987006, "lon": 2.7699164}, {"type": "node", "id": 3896945612, "lat": 39.5692348, "lon": 3.0820158}, {"type": "node", "id": 3896945613, "lat": 39.5693011, "lon": 3.0821947}, {"type": "node", "id": 3896945614, "lat": 39.5691546, "lon": 3.0822812}, {"type": "node", "id": 3896945615, "lat": 39.5690813, "lon": 3.0821087}, {"type": "node", "id": 3899205723, "lat": 39.4272337, "lon": 3.0174648}, {"type": "node", "id": 3899205724, "lat": 39.4271926, "lon": 3.0175674}, {"type": "node", "id": 3899205725, "lat": 39.4269496, "lon": 3.017407}, {"type": "node", "id": 3899205726, "lat": 39.42699, "lon": 3.0173037}, {"type": "node", "id": 3940130056, "lat": 39.3868172, "lon": 3.164481, "tags": {"amenity": "restaurant", "name": "Bacco"}}, {"type": "node", "id": 3940309783, "lat": 39.3631247, "lon": 2.8367556, "tags": {"amenity": "restaurant", "name": "Cal Reiet", "name:ca": "Cal Reiet"}}, {"type": "node", "id": 3940309784, "lat": 39.3624746, "lon": 2.8358629}, {"type": "node", "id": 3940309785, "lat": 39.3624513, "lon": 2.8359072}, {"type": "node", "id": 3940309786, "lat": 39.3623878, "lon": 2.8358506}, {"type": "node", "id": 3940309787, "lat": 39.3623514, "lon": 2.8359179}, {"type": "node", "id": 3940309788, "lat": 39.362292, "lon": 2.835866}, {"type": "node", "id": 3940309789, "lat": 39.3623202, "lon": 2.8357428}, {"type": "node", "id": 3940324541, "lat": 39.3644177, "lon": 2.8386208}, {"type": "node", "id": 3940324542, "lat": 39.36434, "lon": 2.8386521}, {"type": "node", "id": 3940324543, "lat": 39.3643732, "lon": 2.8387929}, {"type": "node", "id": 3940324544, "lat": 39.3644503, "lon": 2.8387617}, {"type": "node", "id": 3940426746, "lat": 39.4301258, "lon": 3.0137009}, {"type": "node", "id": 3940426747, "lat": 39.4301703, "lon": 3.0137867}, {"type": "node", "id": 3940426748, "lat": 39.4300708, "lon": 3.0138702}, {"type": "node", "id": 3940426749, "lat": 39.4300194, "lon": 3.0137913}, {"type": "node", "id": 3940426752, "lat": 39.4301489, "lon": 3.013988}, {"type": "node", "id": 3940448379, "lat": 39.3238276, "lon": 2.9870122}, {"type": "node", "id": 3941112074, "lat": 39.5265693, "lon": 2.9145622}, {"type": "node", "id": 3941112075, "lat": 39.5267667, "lon": 2.9147182}, {"type": "node", "id": 3941112076, "lat": 39.5267252, "lon": 2.9148372}, {"type": "node", "id": 3941112077, "lat": 39.5265275, "lon": 2.9146932}, {"type": "node", "id": 3953151510, "lat": 39.486373, "lon": 2.8861994, "tags": {"amenity": "cafe", "name": "Sa Ronda"}}, {"type": "node", "id": 3957773860, "lat": 39.528705, "lon": 2.7559426}, {"type": "node", "id": 3957773861, "lat": 39.5286633, "lon": 2.7560896}, {"type": "node", "id": 3957773862, "lat": 39.5285326, "lon": 2.7560273}, {"type": "node", "id": 3957773863, "lat": 39.5285743, "lon": 2.7558804}, {"type": "node", "id": 3964568331, "lat": 39.526196, "lon": 2.7459058}, {"type": "node", "id": 3964568332, "lat": 39.5261171, "lon": 2.7461855}, {"type": "node", "id": 3964568333, "lat": 39.5260102, "lon": 2.7461348}, {"type": "node", "id": 3964568334, "lat": 39.5260891, "lon": 2.7458551}, {"type": "node", "id": 3999533085, "lat": 39.5581731, "lon": 2.9760162}, {"type": "node", "id": 3999533086, "lat": 39.5580185, "lon": 2.9758608}, {"type": "node", "id": 3999533087, "lat": 39.5578395, "lon": 2.9761602}, {"type": "node", "id": 3999533088, "lat": 39.557994, "lon": 2.9763156}, {"type": "node", "id": 4016044938, "lat": 39.4359288, "lon": 3.0167209, "tags": {"amenity": "cafe", "name": "la Parada", "name:ca": "la Parada"}}, {"type": "node", "id": 4016044940, "lat": 39.435774, "lon": 3.0173547, "tags": {"amenity": "cafe", "name": "la Rambla", "name:ca": "la Rambla"}}, {"type": "node", "id": 4016044947, "lat": 39.435668, "lon": 3.0185116}, {"type": "node", "id": 4016044948, "lat": 39.4357738, "lon": 3.0185516}, {"type": "node", "id": 4016044949, "lat": 39.4357475, "lon": 3.0186626}, {"type": "node", "id": 4016044950, "lat": 39.4356425, "lon": 3.0186203}, {"type": "node", "id": 4016044951, "lat": 39.4355043, "lon": 3.0199881}, {"type": "node", "id": 4016044952, "lat": 39.435462, "lon": 3.0202824}, {"type": "node", "id": 4016044953, "lat": 39.4353287, "lon": 3.0202503}, {"type": "node", "id": 4016044954, "lat": 39.4353448, "lon": 3.0201381}, {"type": "node", "id": 4016044955, "lat": 39.4354147, "lon": 3.0201549}, {"type": "node", "id": 4016044956, "lat": 39.4354408, "lon": 3.0199729}, {"type": "node", "id": 4020518498, "lat": 39.3392948, "lon": 3.0557846}, {"type": "node", "id": 4020518499, "lat": 39.33923, "lon": 3.0558672}, {"type": "node", "id": 4020518507, "lat": 39.3392704, "lon": 3.0557525}, {"type": "node", "id": 4020518508, "lat": 39.3391992, "lon": 3.0558267}, {"type": "node", "id": 4020518509, "lat": 39.3390389, "lon": 3.0555717}, {"type": "node", "id": 4067510742, "lat": 39.5199476, "lon": 2.8830331}, {"type": "node", "id": 4067510743, "lat": 39.5199885, "lon": 2.8832479}, {"type": "node", "id": 4067510744, "lat": 39.5196651, "lon": 2.8832607}, {"type": "node", "id": 4067510745, "lat": 39.5196693, "lon": 2.8831377}, {"type": "node", "id": 4075723536, "lat": 39.5279165, "lon": 2.7323221, "tags": {"amenity": "cafe", "name": "Chalet Novantasette"}}, {"type": "node", "id": 4100395280, "lat": 39.5610536, "lon": 3.0620344}, {"type": "node", "id": 4100395281, "lat": 39.5609817, "lon": 3.0621111}, {"type": "node", "id": 4100395282, "lat": 39.5609446, "lon": 3.0620526}, {"type": "node", "id": 4100395283, "lat": 39.5609224, "lon": 3.0620764}, {"type": "node", "id": 4100395284, "lat": 39.5608336, "lon": 3.0619364}, {"type": "node", "id": 4100395285, "lat": 39.5609847, "lon": 3.0617753}, {"type": "node", "id": 4100395286, "lat": 39.5610252, "lon": 3.0618391}, {"type": "node", "id": 4100395287, "lat": 39.5609682, "lon": 3.0618999}, {"type": "node", "id": 4138913046, "lat": 39.3198614, "lon": 2.990915, "tags": {"addr:city": "Col\u00f2nia de Sant Jordi", "addr:housenumber": "50", "addr:postcode": "07638", "addr:street": "Avinguda Primavera", "amenity": "cafe", "cuisine": "german", "name": "Casa Heike"}}, {"type": "node", "id": 4143873540, "lat": 39.4937367, "lon": 2.886042}, {"type": "node", "id": 4143873541, "lat": 39.4936781, "lon": 2.8861654}, {"type": "node", "id": 4143873542, "lat": 39.4935951, "lon": 2.8860989}, {"type": "node", "id": 4143873543, "lat": 39.4936504, "lon": 2.8859765}, {"type": "node", "id": 4172216213, "lat": 39.5585309, "lon": 2.8945152, "tags": {"addr:city": "Algaida", "addr:postcode": "07210", "addr:street": "carrer de Sant Joan", "amenity": "restaurant", "contact:facebook": "https://www.facebook.com/people/Pepe-Nero-Pizzer%C3%ADa/100063750214076/", "cuisine": "pizza", "name": "Pepe Nero"}}, {"type": "node", "id": 4194121390, "lat": 39.5646796, "lon": 2.9761827}, {"type": "node", "id": 4194121391, "lat": 39.5645652, "lon": 2.9762669}, {"type": "node", "id": 4194121392, "lat": 39.5646169, "lon": 2.976385}, {"type": "node", "id": 4194121393, "lat": 39.5647313, "lon": 2.9763007}, {"type": "node", "id": 4194121394, "lat": 39.5610241, "lon": 2.9892436}, {"type": "node", "id": 4194121395, "lat": 39.5610271, "lon": 2.9894826}, {"type": "node", "id": 4194121396, "lat": 39.5608815, "lon": 2.9894857}, {"type": "node", "id": 4194121397, "lat": 39.5608785, "lon": 2.9892466}, {"type": "node", "id": 4197754523, "lat": 39.3586917, "lon": 3.1335563, "tags": {"amenity": "restaurant", "name": "\u00cdndia"}}, {"type": "node", "id": 4208908529, "lat": 39.563412, "lon": 3.0083847, "tags": {"amenity": "restaurant"}}, {"type": "node", "id": 4214208830, "lat": 39.3413643, "lon": 3.0982711, "tags": {"addr:housenumber": "19", "addr:street": "carrer de Son Amer", "amenity": "restaurant", "cuisine": "spanish;mediterranean", "name": "s'Era", "name:ca": "s'Era", "phone": "+34 871906066"}}, {"type": "node", "id": 4215001994, "lat": 39.4268676, "lon": 2.7452234}, {"type": "node", "id": 4215001995, "lat": 39.4269001, "lon": 2.7452208}, {"type": "node", "id": 4215001996, "lat": 39.4268981, "lon": 2.7451785}, {"type": "node", "id": 4215001997, "lat": 39.427043, "lon": 2.7451669}, {"type": "node", "id": 4215001998, "lat": 39.4270501, "lon": 2.7453155}, {"type": "node", "id": 4215001999, "lat": 39.4268626, "lon": 2.7453055}, {"type": "node", "id": 4215002000, "lat": 39.4281583, "lon": 2.7490968}, {"type": "node", "id": 4215002015, "lat": 39.4284394, "lon": 2.7487361}, {"type": "node", "id": 4215002019, "lat": 39.4285119, "lon": 2.7487311}, {"type": "node", "id": 4215002031, "lat": 39.4286081, "lon": 2.7484867}, {"type": "node", "id": 4215002032, "lat": 39.4286183, "lon": 2.7487147}, {"type": "node", "id": 4215002033, "lat": 39.4285455, "lon": 2.7487201}, {"type": "node", "id": 4215002034, "lat": 39.4285354, "lon": 2.7484921}, {"type": "node", "id": 4215002035, "lat": 39.4285023, "lon": 2.748499}, {"type": "node", "id": 4215002036, "lat": 39.4284298, "lon": 2.748504}, {"type": "node", "id": 4215002037, "lat": 39.4281655, "lon": 2.7492396}, {"type": "node", "id": 4215002038, "lat": 39.4279884, "lon": 2.7492545}, {"type": "node", "id": 4215002039, "lat": 39.4279812, "lon": 2.7491118}, {"type": "node", "id": 4215002040, "lat": 39.4278024, "lon": 2.7485938}, {"type": "node", "id": 4215002041, "lat": 39.4276748, "lon": 2.7486007}, {"type": "node", "id": 4215002042, "lat": 39.4276813, "lon": 2.7487616}, {"type": "node", "id": 4215002043, "lat": 39.4278062, "lon": 2.7487132}, {"type": "node", "id": 4215002061, "lat": 39.4290422, "lon": 2.7488771, "tags": {"amenity": "cafe", "name": "Bah\u00eda Grande"}}, {"type": "node", "id": 4217389691, "lat": 39.5177947, "lon": 2.747739, "tags": {"addr:city": "Palma", "addr:housenumber": "12", "addr:postcode": "07600", "addr:street": "Carrer del Pare Bartomeu Salv\u00e0", "amenity": "restaurant", "cuisine": "spanish", "name": "Casa Rufino", "phone": "+34 971 74 35 5 1", "website": "https://www.casarufino.es/"}}, {"type": "node", "id": 4217513272, "lat": 39.518854, "lon": 2.7487814}, {"type": "node", "id": 4217513273, "lat": 39.5188873, "lon": 2.7489687}, {"type": "node", "id": 4217513274, "lat": 39.5188494, "lon": 2.7489879}, {"type": "node", "id": 4217513275, "lat": 39.518754, "lon": 2.7488883}, {"type": "node", "id": 4234002149, "lat": 39.5169951, "lon": 3.0229548, "tags": {"amenity": "cafe", "name": "Can Botera", "name:ca": "Can Botera"}}, {"type": "node", "id": 4234002151, "lat": 39.5170516, "lon": 3.0231414, "tags": {"amenity": "cafe", "name": "sa Fonda"}}, {"type": "node", "id": 4234002152, "lat": 39.5171618, "lon": 3.0228785, "tags": {"amenity": "cafe", "name": "Can Guillem", "name:ca": "Can Guillem"}}, {"type": "node", "id": 4234007623, "lat": 39.5170961, "lon": 3.0222328, "tags": {"amenity": "cafe", "name": "Es Poltre", "phone": "+34 971168293"}}, {"type": "node", "id": 4236742739, "lat": 39.3780462, "lon": 2.7756102}, {"type": "node", "id": 4236742740, "lat": 39.3779886, "lon": 2.7756454}, {"type": "node", "id": 4236742741, "lat": 39.3779438, "lon": 2.7755225}, {"type": "node", "id": 4236742742, "lat": 39.3780014, "lon": 2.7754874}, {"type": "node", "id": 4262120760, "lat": 39.4678671, "lon": 3.1465594, "tags": {"amenity": "cafe", "name": "Cristal"}}, {"type": "node", "id": 4297010328, "lat": 39.4861999, "lon": 2.8882126, "tags": {"amenity": "cafe", "name": "Can Jaume", "name:ca": "Can Jaume"}}, {"type": "node", "id": 4297023311, "lat": 39.4856419, "lon": 2.8936759, "tags": {"addr:city": "Llucmajor", "addr:housenumber": "10", "addr:postcode": "07620", "addr:street": "Ronda de Migjorn", "amenity": "cafe", "name": "Ramis", "name:ca": "Ramis", "phone": "+34971121274"}}, {"type": "node", "id": 4297383052, "lat": 39.3153498, "lon": 2.9942889, "tags": {"amenity": "cafe", "name": "Cala Galiota"}}, {"type": "node", "id": 4307481897, "lat": 39.5187307, "lon": 2.7426654, "tags": {"amenity": "restaurant", "name": "El Chiringuito"}}, {"type": "node", "id": 4307985857, "lat": 39.5185252, "lon": 2.7427702, "tags": {"amenity": "restaurant", "name": "Bonito"}}, {"type": "node", "id": 4307985858, "lat": 39.5199948, "lon": 2.7411621, "tags": {"amenity": "restaurant", "name": "Mikel"}}, {"type": "node", "id": 4316780604, "lat": 39.4883571, "lon": 2.8894562, "tags": {"amenity": "restaurant", "name": "l\u2019Altra Pizza"}}, {"type": "node", "id": 4321927909, "lat": 39.5012625, "lon": 2.7524233, "tags": {"amenity": "cafe", "name": "Moby Dick"}}, {"type": "node", "id": 4329431732, "lat": 39.5114057, "lon": 2.7489385, "tags": {"amenity": "restaurant", "name": "Ocean"}}, {"type": "node", "id": 4329447219, "lat": 39.513857, "lon": 2.750854, "tags": {"addr:city": "Playa de Palma", "addr:housenumber": "5", "addr:postcode": "07600", "addr:street": "Carrer dels Trobadors", "air_conditioning": "yes", "amenity": "cafe", "bar": "yes", "cuisine": "mediterranean;spanish", "internet_access": "yes", "internet_access:fee": "no", "name": "Sports Bar Cabot", "name:ca": "Sports Bar Cabot", "not:name": "las Torres", "outdoor_seating": "yes", "payment:cash": "yes", "payment:credit_cards": "yes", "payment:debit_cards": "yes", "payment:maestro": "yes", "payment:mastercard": "yes", "payment:visa": "yes", "payment:visa_debit": "yes", "payment:visa_electron": "yes", "phone": "+34 615 699 372", "reservation": "yes", "smoking": "outside", "source": "https://www.cabot-hotels.com/es/hoteles/playa-de-palma/cabot-tres-torres-apartments/restaurantes/", "toilets": "yes", "website": "https://www.cabot-hotels.com/es/hoteles/playa-de-palma/cabot-tres-torres-apartments/restaurantes/", "wheelchair": "yes"}}, {"type": "node", "id": 4340930120, "lat": 39.5026274, "lon": 2.7516448, "tags": {"amenity": "restaurant", "breakfast": "yes", "name": "Caf\u00e8 del Sol", "name:ca": "Caf\u00e8 del Sol", "wheelchair": "no"}}, {"type": "node", "id": 4340933047, "lat": 39.5031873, "lon": 2.7517417, "tags": {"amenity": "restaurant", "cuisine": "kebab;pizza;spanish", "name": "Casa de la Pizza", "name:ca": "Casa de la Pizza", "opening_hours": "24/7", "takeaway": "yes", "toilets": "yes", "toilets:wheelchair": "no", "wheelchair": "no"}}, {"type": "node", "id": 4340960089, "lat": 39.3152907, "lon": 2.9950518, "tags": {"addr:housenumber": "2", "addr:street": "Carrer Estanys", "amenity": "cafe", "cuisine": "ice_cream", "indoor_seating": "yes", "name": "Gelateria Colonial", "name:ca": "Gelateria Colonial", "outdoor_seating": "yes"}}, {"type": "node", "id": 4352628824, "lat": 39.5242157, "lon": 2.7362259, "tags": {"amenity": "restaurant", "name": "Mojito"}}, {"type": "node", "id": 4364876029, "lat": 39.3239354, "lon": 3.1385021}, {"type": "node", "id": 4364876030, "lat": 39.3238896, "lon": 3.1385452}, {"type": "node", "id": 4364876031, "lat": 39.3239288, "lon": 3.1386147}, {"type": "node", "id": 4364876033, "lat": 39.3239745, "lon": 3.1385716}, {"type": "node", "id": 4374439008, "lat": 39.354527, "lon": 3.1298274, "tags": {"amenity": "restaurant", "name": "Laudat"}}, {"type": "node", "id": 4375473196, "lat": 39.3157047, "lon": 2.9966832, "tags": {"amenity": "restaurant", "cuisine": "italian", "name": "Cani"}}, {"type": "node", "id": 4377433189, "lat": 39.5318527, "lon": 2.7323165, "tags": {"addr:street": "carrer del Flamenc", "amenity": "restaurant", "name": "El Rancho Picadero", "name:es": "El Rancho Pecadero"}}, {"type": "node", "id": 4379222327, "lat": 39.3190215, "lon": 2.9910655}, {"type": "node", "id": 4379222330, "lat": 39.319079, "lon": 2.991017}, {"type": "node", "id": 4379222332, "lat": 39.3190924, "lon": 2.991472}, {"type": "node", "id": 4379222334, "lat": 39.3191026, "lon": 2.9917501}, {"type": "node", "id": 4379222335, "lat": 39.3191285, "lon": 2.9910101}, {"type": "node", "id": 4379222339, "lat": 39.3192028, "lon": 2.9916815}, {"type": "node", "id": 4379222340, "lat": 39.3192135, "lon": 2.992021}, {"type": "node", "id": 4379222341, "lat": 39.3193231, "lon": 2.9910767}, {"type": "node", "id": 4379222343, "lat": 39.3192758, "lon": 2.9913561}, {"type": "node", "id": 4379222344, "lat": 39.3193929, "lon": 2.9912579}, {"type": "node", "id": 4379222346, "lat": 39.3193137, "lon": 2.9919525}, {"type": "node", "id": 4379222370, "lat": 39.3196858, "lon": 2.9914317}, {"type": "node", "id": 4379222371, "lat": 39.3196888, "lon": 2.9915454}, {"type": "node", "id": 4379222374, "lat": 39.3197198, "lon": 2.9915269}, {"type": "node", "id": 4379222375, "lat": 39.3197343, "lon": 2.9916726}, {"type": "node", "id": 4379222376, "lat": 39.3197455, "lon": 2.9917263}, {"type": "node", "id": 4379222377, "lat": 39.3197602, "lon": 2.991389}, {"type": "node", "id": 4379222378, "lat": 39.3197776, "lon": 2.9915965}, {"type": "node", "id": 4379222380, "lat": 39.319791, "lon": 2.9914789}, {"type": "node", "id": 4379222381, "lat": 39.3198138, "lon": 2.9916813}, {"type": "node", "id": 4379222382, "lat": 39.3198164, "lon": 2.9914599}, {"type": "node", "id": 4379222384, "lat": 39.3198512, "lon": 2.9915464}, {"type": "node", "id": 4379222396, "lat": 39.3202465, "lon": 2.9910639}, {"type": "node", "id": 4379222399, "lat": 39.3203278, "lon": 2.9910095}, {"type": "node", "id": 4379222400, "lat": 39.3203423, "lon": 2.9913031}, {"type": "node", "id": 4379222404, "lat": 39.3204235, "lon": 2.9912487}, {"type": "node", "id": 4381036446, "lat": 39.3229896, "lon": 2.9858433, "tags": {"amenity": "restaurant", "cuisine": "italian", "name": "Berna"}}, {"type": "node", "id": 4398874203, "lat": 39.339026, "lon": 3.051629}, {"type": "node", "id": 4398874205, "lat": 39.3385728, "lon": 3.0534034}, {"type": "node", "id": 4398874211, "lat": 39.4904148, "lon": 2.8910017, "tags": {"amenity": "cafe", "name": "La Dolce Vita"}}, {"type": "node", "id": 4398874212, "lat": 39.490437, "lon": 2.8913557, "tags": {"addr:housenumber": "26", "addr:postcode": "07620", "addr:street": "Pla\u00e7a d'Espanya", "amenity": "restaurant", "cuisine": "coffee_shop;italian;italian_pizza;noodles;pasta;pizza", "name": "Vella Italia", "name:de": "Bella Italia", "name:es": "Bella Italia", "phone": "+34 871 02 09 77"}}, {"type": "node", "id": 4407945781, "lat": 39.3384268, "lon": 3.052525, "tags": {"amenity": "cafe", "name": "sa Punta", "name:ca": "sa Punta"}}, {"type": "node", "id": 4417718781, "lat": 39.4350411, "lon": 3.0200839, "tags": {"amenity": "restaurant", "name": "Rosso Peperone"}}, {"type": "node", "id": 4438162897, "lat": 39.5198886, "lon": 2.7552619}, {"type": "node", "id": 4438162898, "lat": 39.5198427, "lon": 2.7553684}, {"type": "node", "id": 4438162899, "lat": 39.5197462, "lon": 2.7552984}, {"type": "node", "id": 4438162900, "lat": 39.5197696, "lon": 2.7552442}, {"type": "node", "id": 4438162901, "lat": 39.5197281, "lon": 2.7552141}, {"type": "node", "id": 4438162902, "lat": 39.5197507, "lon": 2.7551618}, {"type": "node", "id": 4438190378, "lat": 39.5114128, "lon": 2.7586893}, {"type": "node", "id": 4446464817, "lat": 39.5078177, "lon": 2.7534741, "tags": {"amenity": "restaurant", "name": "Original Europa"}}, {"type": "node", "id": 4449630447, "lat": 39.4372803, "lon": 3.0088513}, {"type": "node", "id": 4449630448, "lat": 39.4372502, "lon": 3.0090473}, {"type": "node", "id": 4449630449, "lat": 39.4371615, "lon": 3.0090245}, {"type": "node", "id": 4449630450, "lat": 39.4371915, "lon": 3.0088286}, {"type": "node", "id": 4465969838, "lat": 39.4845653, "lon": 2.8516074, "tags": {"amenity": "cafe", "name": "la Parada", "name:ca": "la Parada"}}, {"type": "node", "id": 4636851710, "lat": 39.4996429, "lon": 2.754179, "tags": {"amenity": "cafe", "name": "Jard\u00ed"}}, {"type": "node", "id": 4682069630, "lat": 39.4342805, "lon": 2.7555962}, {"type": "node", "id": 4682069631, "lat": 39.4340978, "lon": 2.7556858}, {"type": "node", "id": 4682069632, "lat": 39.434148, "lon": 2.7558574}, {"type": "node", "id": 4682069633, "lat": 39.4342985, "lon": 2.7557279}, {"type": "node", "id": 4682069634, "lat": 39.4342806, "lon": 2.7556668}, {"type": "node", "id": 4682069635, "lat": 39.4342986, "lon": 2.755658}, {"type": "node", "id": 4693513391, "lat": 39.3544837, "lon": 3.1280681, "tags": {"amenity": "restaurant", "diet:halal": "no", "diet:kosher": "no", "diet:vegetarian": "yes", "indoor_seating": "yes", "name": "Can Gelat", "name:ca": "Can Gelat", "outdoor_seating": "pedestrian_zone", "toilets": "yes"}}, {"type": "node", "id": 4725546543, "lat": 39.500563, "lon": 2.7558704, "tags": {"amenity": "cafe", "name": "Aqu\u00ed me quedo"}}, {"type": "node", "id": 4743568396, "lat": 39.5174802, "lon": 3.023317}, {"type": "node", "id": 4743568397, "lat": 39.5174406, "lon": 3.0232136}, {"type": "node", "id": 4743568398, "lat": 39.5172451, "lon": 3.0233578}, {"type": "node", "id": 4743568399, "lat": 39.5172736, "lon": 3.0234678}, {"type": "node", "id": 4743568400, "lat": 39.5174222, "lon": 3.0233758}, {"type": "node", "id": 4806372750, "lat": 39.4993815, "lon": 2.752755, "tags": {"amenity": "restaurant", "name": "Jard\u00edn Torrero"}}, {"type": "node", "id": 4831030062, "lat": 39.4867818, "lon": 2.8840436, "tags": {"amenity": "cafe", "check_date": "2023-05-17", "name": "Es Ca\u00e7adors"}}, {"type": "node", "id": 4831032234, "lat": 39.3181557, "lon": 2.9929903, "tags": {"amenity": "restaurant", "indoor_seating": "yes", "name": "Neue Dorfbeiz", "outdoor_seating": "terrace"}}, {"type": "node", "id": 4831056146, "lat": 39.3229139, "lon": 2.9878436, "tags": {"amenity": "cafe", "name": "Caf\u00e8 i sal", "name:ca": "Caf\u00e8 i sal"}}, {"type": "node", "id": 4834411417, "lat": 39.5080172, "lon": 2.7511778, "tags": {"amenity": "restaurant", "cuisine": "regional", "name": "Meson de Castilla"}}, {"type": "node", "id": 4834785779, "lat": 39.3524177, "lon": 3.1876691, "tags": {"amenity": "restaurant", "level": "0", "name": "Sa Font de n'Al\u00eds", "outdoor_seating": "yes"}}, {"type": "node", "id": 4861534839, "lat": 39.5335546, "lon": 2.7968339}, {"type": "node", "id": 4861534840, "lat": 39.5333619, "lon": 2.7968262}, {"type": "node", "id": 4861534841, "lat": 39.5334348, "lon": 2.7963566}, {"type": "node", "id": 4861534842, "lat": 39.5335339, "lon": 2.7963606}, {"type": "node", "id": 4861534843, "lat": 39.5335254, "lon": 2.7967229}, {"type": "node", "id": 4861534844, "lat": 39.5335572, "lon": 2.7967242}, {"type": "node", "id": 4864679390, "lat": 39.3653077, "lon": 2.9394275, "tags": {"addr:housenumber": "36", "addr:street": "Carrer del Xaloc", "amenity": "restaurant", "name": "Arroceria Xaloc", "name:ca": "Xaloc", "outdoor_seating": "yes", "phone": "+34 971640635"}}, {"type": "node", "id": 4864679398, "lat": 39.363481, "lon": 2.9432424, "tags": {"amenity": "restaurant", "cuisine": "mediterranean", "name": "S'Amarador"}}, {"type": "node", "id": 4882921172, "lat": 39.4876936, "lon": 2.8872576, "tags": {"addr:housenumber": "2", "addr:street": "Passeig de Jaume III", "air_conditioning": "yes", "amenity": "restaurant", "bar": "yes", "check_date": "2024-07-24", "contact:facebook": "https://www.facebook.com/contrabandollucmajor/", "contact:tripadvisor": "https://www.tripadvisor.com/Restaurant_Review-g673340-d12030643-Reviews-Contrabando_Tapas_Bar-Llucmajor_Majorca_Balearic_Islands.html?m=19905", "cuisine": "tapas", "diet:vegetarian": "yes", "highchair": "yes", "indoor_seating": "yes", "name": "Contrabando", "name:es": "Contrabando", "opening_hours": "Mo,We-Su 17:00-22:30; Tu off", "outdoor_seating": "parklet", "payment:credit_cards": "yes", "payment:debit_cards": "yes", "payment:mastercard": "yes", "payment:visa": "yes", "phone": "+34 971 10 16 73", "reservation": "yes", "toilets": "yes", "wheelchair": "yes"}}, {"type": "node", "id": 4884880910, "lat": 39.4311948, "lon": 3.0158058, "tags": {"amenity": "cafe", "name": "Balear"}}, {"type": "node", "id": 4884880913, "lat": 39.4286409, "lon": 3.0152763, "tags": {"amenity": "cafe", "name": "Avenida"}}, {"type": "node", "id": 4893251321, "lat": 39.4912169, "lon": 2.8911351, "tags": {"addr:housenumber": "2", "addr:street": "carrer de la Constituci\u00f3", "amenity": "restaurant", "cuisine": "mediterranean", "name": "Tomates Verdes", "name:es": "Tomates Verdes", "phone": "+34 871 90 43 71"}}, {"type": "node", "id": 4903875141, "lat": 39.4913028, "lon": 2.8910659, "tags": {"amenity": "cafe", "name": "Ar\u00e0bic"}}, {"type": "node", "id": 4920733409, "lat": 39.36104, "lon": 2.9183578, "tags": {"addr:city": "s'Estanyol de Migjorn", "addr:housenumber": "2", "addr:postcode": "07629", "addr:street": "Carrer de la Mare de D\u00e9u del Carme", "amenity": "restaurant", "cuisine": "steak_house;seafood;mediterranean", "name": "es Mollet"}}, {"type": "node", "id": 4972794591, "lat": 39.3238427, "lon": 2.9870772}, {"type": "node", "id": 4972794592, "lat": 39.3238021, "lon": 2.9870893}, {"type": "node", "id": 4972794593, "lat": 39.3237964, "lon": 2.9870572}, {"type": "node", "id": 4972794594, "lat": 39.3236665, "lon": 2.9870794}, {"type": "node", "id": 4972794595, "lat": 39.3236713, "lon": 2.9871448}, {"type": "node", "id": 4972794596, "lat": 39.3236312, "lon": 2.987151}, {"type": "node", "id": 4972794597, "lat": 39.3236235, "lon": 2.9870493}, {"type": "node", "id": 4972794598, "lat": 39.3237629, "lon": 2.9875002, "tags": {"amenity": "restaurant"}}, {"type": "node", "id": 4977942171, "lat": 39.4736509, "lon": 2.7536747, "tags": {"amenity": "cafe", "name": "ses Palmeres", "name:ca": "ses Palmeres"}}, {"type": "node", "id": 4987146723, "lat": 39.3624249, "lon": 2.835846, "tags": {"amenity": "restaurant", "cuisine": "italian_pizza", "name": "Miquelet", "name:es": "Miquelet"}}, {"type": "node", "id": 4990550122, "lat": 39.3169556, "lon": 2.9973845, "tags": {"addr:housenumber": "67", "addr:postcode": "07638", "addr:street": "Carrer Gabriel Roca", "amenity": "restaurant", "indoor_seating": "yes", "name": "port blau", "name:es": "port blau", "opening_hours": "PH,We-Mo 10:00-22:30", "outdoor_seating": "yes", "phone": "+34 971656555", "wheelchair": "yes"}}, {"type": "node", "id": 5000478221, "lat": 39.3641562, "lon": 2.8768504, "tags": {"amenity": "restaurant", "email": "miradorcabrera@gmail.com", "name": "Mirador de Cabrera", "opening_hours": "Tu-Sa 17:00-23:00; Su 12:00-22:00", "phone": "+34 971123338", "website": "https://www.mirador-de-cabrera.com/"}}, {"type": "node", "id": 5028218144, "lat": 39.489788, "lon": 2.8977193, "tags": {"amenity": "cafe", "name": "Can Bernat", "name:ca": "Can Bernat"}}, {"type": "node", "id": 5034521669, "lat": 39.3192976, "lon": 2.9913192}, {"type": "node", "id": 5034521670, "lat": 39.3192278, "lon": 2.991138}, {"type": "node", "id": 5034521677, "lat": 39.3202547, "lon": 2.9906731, "tags": {"amenity": "restaurant", "name": "5 illes"}}, {"type": "node", "id": 5034521685, "lat": 39.3208321, "lon": 2.9911888, "tags": {"amenity": "cafe", "name": "Cristal de Mar"}}, {"type": "node", "id": 5038257151, "lat": 39.4974375, "lon": 2.7548213, "tags": {"amenity": "restaurant", "name": "Tai Tai"}}, {"type": "node", "id": 5071059231, "lat": 39.4183545, "lon": 3.1375464, "tags": {"addr:city": "Cas Concos des Cavaller", "addr:housenumber": "7", "addr:postcode": "07208", "addr:street": "carrer Major", "amenity": "restaurant", "capacity": "50", "name": "Chambao", "opening_hours": "Mo-Su 18:00-23:00; We off", "outdoor_seating": "yes", "smoking": "outside", "takeaway": "yes"}}, {"type": "node", "id": 5071063346, "lat": 39.4189679, "lon": 3.1389627, "tags": {"addr:city": "Cas Concos des Cavaller", "addr:housenumber": "23", "addr:postcode": "07208", "addr:street": "carrer del Metge Obrador", "amenity": "restaurant", "capacity": "50", "cuisine": "regional;mediterranean", "name": "Can Pelat / Rapa Nui", "opening_hours": "Mo-Su 18:00-23:00; We off", "outdoor_seating": "yes", "smoking": "outside", "takeaway": "no"}}, {"type": "node", "id": 5071067646, "lat": 39.4187565, "lon": 3.1381258, "tags": {"addr:city": "Cas Concos des Cavaller", "addr:housenumber": "13", "addr:postcode": "07208", "addr:street": "carrer del Metge Obrador", "amenity": "restaurant", "capacity": "100", "cuisine": "mediterranean", "name": "Viena", "name:ca": "Viena", "opening_hours": "Mo-Su 18:00-23:00; Tu off", "outdoor_seating": "yes", "smoking": "outside", "takeaway": "no"}}, {"type": "node", "id": 5071072629, "lat": 39.4186653, "lon": 3.1383296, "tags": {"addr:city": "Cas Concos des Cavaller", "addr:housenumber": "26", "addr:postcode": "07208", "addr:street": "carrer del Metge Obrador", "amenity": "restaurant", "capacity": "50", "cuisine": "mediterranean", "name": "La Oveja Negra", "opening_hours": "Tu-Su 18:00-23:00", "outdoor_seating": "yes", "smoking": "outside", "takeaway": "yes"}}, {"type": "node", "id": 5157464013, "lat": 39.3549903, "lon": 3.1302437, "tags": {"amenity": "restaurant", "cuisine": "regional", "shop": "deli"}}, {"type": "node", "id": 5176100548, "lat": 39.4901982, "lon": 2.8857028, "tags": {"amenity": "cafe", "name": "Es Xibiu"}}, {"type": "node", "id": 5249403963, "lat": 39.3306304, "lon": 3.1705805, "tags": {"addr:city": "Santany\u00ed", "addr:housenumber": "56", "addr:postcode": "07659", "addr:street": "Carrer Verge del Carme", "amenity": "restaurant", "cuisine": "seafood", "indoor_seating": "yes", "name": "Bar Cala", "opening_hours": "Th-Tu 10:00-24:00", "outdoor_seating": "sidewalk", "wheelchair": "no"}}, {"type": "node", "id": 5264723525, "lat": 39.4345177, "lon": 3.009001}, {"type": "node", "id": 5264723532, "lat": 39.4344334, "lon": 3.0090151}, {"type": "node", "id": 5264723533, "lat": 39.4344765, "lon": 3.009063}, {"type": "node", "id": 5264723534, "lat": 39.4346555, "lon": 3.0091541}, {"type": "node", "id": 5264723535, "lat": 39.4347005, "lon": 3.0090862}, {"type": "node", "id": 5264723536, "lat": 39.4345196, "lon": 3.0088851}, {"type": "node", "id": 5318136569, "lat": 39.4249212, "lon": 3.1652088, "tags": {"amenity": "cafe", "name": "Can Pere Antoni", "name:ca": "Can Pere Antoni"}}, {"type": "node", "id": 5330150233, "lat": 39.5694055, "lon": 3.0884841, "tags": {"amenity": "cafe", "name": "s'Esquitx"}}, {"type": "node", "id": 5330150235, "lat": 39.5693187, "lon": 3.0883339, "tags": {"amenity": "cafe", "name": "es Niu"}}, {"type": "node", "id": 5330150237, "lat": 39.5692318, "lon": 3.0876258, "tags": {"amenity": "cafe", "name": "s'Estanc"}}, {"type": "node", "id": 5335479722, "lat": 39.5225053, "lon": 2.7381664, "tags": {"amenity": "cafe", "indoor_seating": "yes", "name": "Bikkini Beach", "outdoor_seating": "yes"}}, {"type": "node", "id": 5448142621, "lat": 39.5190556, "lon": 2.7436577, "tags": {"amenity": "restaurant", "name": "XII Ap\u00f3stoles", "toilets:wheelchair": "no", "wheelchair": "yes", "wheelchair:description": "Sch\u00f6nes Restaurat, Bar. Sehr g\u00fcnstigen Mittagstisch, freundliches Personal. Zur Toilette zwei Stufen, T\u00fcren zu schmal f\u00fcr einen Rollstuhl."}}, {"type": "node", "id": 5455282320, "lat": 39.4647221, "lon": 3.1467865, "tags": {"amenity": "cafe", "name": "els Arcs", "name:ca": "els Arcs"}}, {"type": "node", "id": 5457567637, "lat": 39.507343, "lon": 2.7535267, "tags": {"addr:city": "Palma", "addr:housenumber": "23", "addr:postcode": "07600", "addr:street": "Carrer del Quarter", "amenity": "restaurant", "contact:email": "info@barandaluz.es", "cuisine": "spanish", "name": "Bar Andaluz", "opening_hours": "Tu-Su 11:00-00:00", "phone": "+34 971 26 80 18", "website": "https://barandaluz.es"}}, {"type": "node", "id": 5465560573, "lat": 39.4292262, "lon": 2.7488649, "tags": {"amenity": "cafe"}}, {"type": "node", "id": 5475958995, "lat": 39.3226054, "lon": 2.9857548, "tags": {"amenity": "cafe", "name": "la Palmera", "name:ca": "la Palmera"}}, {"type": "node", "id": 5499853512, "lat": 39.4267129, "lon": 3.0203355, "tags": {"amenity": "cafe", "name": "l'Alborada"}}, {"type": "node", "id": 5499853513, "lat": 39.4272868, "lon": 3.0221326, "tags": {"amenity": "cafe", "name": "Can Miquel", "name:ca": "Can Miquel"}}, {"type": "node", "id": 5499853514, "lat": 39.4271573, "lon": 3.0223674, "tags": {"amenity": "cafe", "name": "els Pins", "name:ca": "els Pins"}}, {"type": "node", "id": 5508988134, "lat": 39.4863602, "lon": 2.8902018, "tags": {"amenity": "cafe", "name": "Can Nadal", "name:ca": "Can Nadal"}}, {"type": "node", "id": 5518603591, "lat": 39.4852549, "lon": 2.8731802}, {"type": "node", "id": 5518603592, "lat": 39.4852985, "lon": 2.8733006}, {"type": "node", "id": 5518603593, "lat": 39.4853616, "lon": 2.8732622}, {"type": "node", "id": 5518603594, "lat": 39.4853976, "lon": 2.8733616}, {"type": "node", "id": 5518603595, "lat": 39.4853351, "lon": 2.8733995}, {"type": "node", "id": 5518603596, "lat": 39.4853531, "lon": 2.8734494}, {"type": "node", "id": 5518603597, "lat": 39.4852825, "lon": 2.8734923}, {"type": "node", "id": 5518603598, "lat": 39.4852663, "lon": 2.8734474}, {"type": "node", "id": 5518603599, "lat": 39.4851703, "lon": 2.8735057}, {"type": "node", "id": 5518603600, "lat": 39.4851151, "lon": 2.8733531}, {"type": "node", "id": 5518603601, "lat": 39.4851972, "lon": 2.8733033}, {"type": "node", "id": 5518603602, "lat": 39.4851711, "lon": 2.8732311}, {"type": "node", "id": 5518833550, "lat": 39.5015897, "lon": 2.7575588, "tags": {"amenity": "cafe", "name": "X ke no?"}}, {"type": "node", "id": 5518847975, "lat": 39.5027676, "lon": 2.7527281, "tags": {"amenity": "cafe", "name": "San Crist\u00f3bal"}}, {"type": "node", "id": 5520108823, "lat": 39.451106, "lon": 2.7424703}, {"type": "node", "id": 5520108824, "lat": 39.4511577, "lon": 2.7427078}, {"type": "node", "id": 5520108825, "lat": 39.4512613, "lon": 2.74267}, {"type": "node", "id": 5520108826, "lat": 39.4512096, "lon": 2.7424325}, {"type": "node", "id": 5536611993, "lat": 39.4311312, "lon": 3.0194339, "tags": {"amenity": "cafe", "name": "ses Voltes", "name:ca": "ses Voltes"}}, {"type": "node", "id": 5536611996, "lat": 39.4305904, "lon": 3.0176134, "tags": {"amenity": "cafe", "name": "es Rec\u00f3"}}, {"type": "node", "id": 5553330255, "lat": 39.4269574, "lon": 3.0217856, "tags": {"addr:housenumber": "4", "addr:postcode": "07630", "addr:street": "pla\u00e7a des Tres Molins", "amenity": "restaurant", "cuisine": "mediterranean;local", "email": "lucia_murphy_campos@hotmail.com", "opening_hours": "Tu-Su 18:00-23:00", "phone": "+34693761703"}}, {"type": "node", "id": 5599849342, "lat": 39.4279953, "lon": 3.0173289, "tags": {"amenity": "restaurant", "name": "Arrels"}}, {"type": "node", "id": 5599850565, "lat": 39.4278742, "lon": 3.0175818, "tags": {"amenity": "restaurant", "name": "Rukalde"}}, {"type": "node", "id": 5602210795, "lat": 39.3638524, "lon": 2.8367289, "tags": {"amenity": "restaurant", "name": "El Mirador", "name:ca": "El Mirador"}}, {"type": "node", "id": 5689003221, "lat": 39.5101216, "lon": 2.7505956, "tags": {"amenity": "restaurant", "name": "Los Olivos"}}, {"type": "node", "id": 5715345814, "lat": 39.4853226, "lon": 2.7377519}, {"type": "node", "id": 5715345815, "lat": 39.4852397, "lon": 2.7378118}, {"type": "node", "id": 5715345816, "lat": 39.4852086, "lon": 2.7377396}, {"type": "node", "id": 5715345817, "lat": 39.4851783, "lon": 2.7377616}, {"type": "node", "id": 5715345818, "lat": 39.4850822, "lon": 2.7375383}, {"type": "node", "id": 5715345819, "lat": 39.4851491, "lon": 2.7374899}, {"type": "node", "id": 5715345820, "lat": 39.4850518, "lon": 2.737264}, {"type": "node", "id": 5715347121, "lat": 39.4851091, "lon": 2.7372226}, {"type": "node", "id": 5715347122, "lat": 39.4852155, "lon": 2.7374697}, {"type": "node", "id": 5715347123, "lat": 39.4852375, "lon": 2.7374538}, {"type": "node", "id": 5715347124, "lat": 39.4852787, "lon": 2.7375496}, {"type": "node", "id": 5715347125, "lat": 39.4853167, "lon": 2.7375221}, {"type": "node", "id": 5715347126, "lat": 39.4853604, "lon": 2.7376234}, {"type": "node", "id": 5715347127, "lat": 39.4852893, "lon": 2.7376747}, {"type": "node", "id": 5726074428, "lat": 39.3551263, "lon": 3.1275918, "tags": {"addr:city": "Santany\u00ed, Mallorca", "addr:housenumber": "5", "addr:postcode": "07650", "addr:street": "placeta de sa Porta Murada", "amenity": "cafe", "contact:facebook": "https://www.facebook.com/Sublims-Gourmet-383541688894656", "cuisine": "regional;coffee_shop;sandwich", "description": "Im Caf\u00e9 kleines Delikatessen-Gesch\u00e4ft mit lokalen Speziali\u00e4ten", "indoor_seating": "yes", "internet_access": "wlan", "internet_access:fee": "customers", "name": "Sublims Gourmet", "opening_hours": "Mo-Su 08:00-14:00", "outdoor_seating": "yes", "phone": "+34 600547192"}}, {"type": "node", "id": 5773897253, "lat": 39.3595144, "lon": 3.129887, "tags": {"amenity": "restaurant", "brand": "Pomodoro", "brand:website": "https://pomodoro.es", "brand:wikidata": "Q115475288", "cuisine": "italian;pasta;pizza", "name": "Pomodoro"}}, {"type": "node", "id": 5780430729, "lat": 39.3320517, "lon": 3.1461885}, {"type": "node", "id": 5780430730, "lat": 39.33213, "lon": 3.1463622}, {"type": "node", "id": 5780430731, "lat": 39.3320472, "lon": 3.1464245}, {"type": "node", "id": 5780430732, "lat": 39.331969, "lon": 3.1462508}, {"type": "node", "id": 5787890371, "lat": 39.5031852, "lon": 2.7534288, "tags": {"amenity": "cafe", "name": "el Lagar"}}, {"type": "node", "id": 5824636297, "lat": 39.4869679, "lon": 2.8966424}, {"type": "node", "id": 5824636298, "lat": 39.4867251, "lon": 2.8969688}, {"type": "node", "id": 5824636299, "lat": 39.4866261, "lon": 2.89685}, {"type": "node", "id": 5824636300, "lat": 39.4868726, "lon": 2.8965185}, {"type": "node", "id": 5824636309, "lat": 39.4885309, "lon": 2.8986042}, {"type": "node", "id": 5824636310, "lat": 39.4884249, "lon": 2.8987914}, {"type": "node", "id": 5824636311, "lat": 39.4884569, "lon": 2.8988312}, {"type": "node", "id": 5824972653, "lat": 39.3557334, "lon": 2.9699675, "tags": {"amenity": "restaurant", "name": "Ran de mar", "name:ca": "Ran de mar"}}, {"type": "node", "id": 5846723232, "lat": 39.3181069, "lon": 2.991769, "tags": {"amenity": "cafe", "check_date": "2022-09-24", "name": "Bar Madison", "payment:mastercard": "yes", "payment:visa": "yes", "wheelchair": "yes"}}, {"type": "node", "id": 5847058945, "lat": 39.5171601, "lon": 3.0286349, "tags": {"amenity": "cafe", "name": "es Pont", "name:ca": "es Pont", "wheelchair": "no"}}, {"type": "node", "id": 5862053030, "lat": 39.4981566, "lon": 2.7535888, "tags": {"amenity": "restaurant", "name": "Feierei"}}, {"type": "node", "id": 5869332871, "lat": 39.5666372, "lon": 2.9830234, "tags": {"amenity": "cafe", "name": "es Dau", "name:ca": "es Dau"}}, {"type": "node", "id": 5877922231, "lat": 39.4992642, "lon": 2.7539057, "tags": {"amenity": "cafe", "name": "Madrid", "name:ca": "Madrid"}}, {"type": "node", "id": 5916910746, "lat": 39.5007504, "lon": 2.7586751, "tags": {"amenity": "cafe", "name": "Ca n'Andreu"}}, {"type": "node", "id": 5916910747, "lat": 39.5004631, "lon": 2.7586144, "tags": {"amenity": "cafe", "name": "Cu\u00e9llar"}}, {"type": "node", "id": 5960970786, "lat": 39.3534748, "lon": 3.1291145, "tags": {"amenity": "restaurant", "name": "Goli", "wheelchair": "no"}}, {"type": "node", "id": 5978810722, "lat": 39.51411, "lon": 2.7514549}, {"type": "node", "id": 5978810723, "lat": 39.5139685, "lon": 2.7516204}, {"type": "node", "id": 5978810724, "lat": 39.5140673, "lon": 2.7517624}, {"type": "node", "id": 5978810725, "lat": 39.5142088, "lon": 2.7515969}, {"type": "node", "id": 5984198355, "lat": 39.5005097, "lon": 2.7534103, "tags": {"amenity": "cafe", "name": "el Punto"}}, {"type": "node", "id": 5996601624, "lat": 39.3159743, "lon": 2.9945218, "tags": {"amenity": "cafe", "name": "La Torre", "name:ca": "La Torre"}}, {"type": "node", "id": 6022794985, "lat": 39.3583459, "lon": 3.133223, "tags": {"addr:city": "Santany\u00ed", "addr:housenumber": "19", "addr:postcode": "07650", "addr:street": "carrer de Consolaci\u00f3", "amenity": "restaurant", "check_date": "2023-07-23", "check_date:opening_hours": "2023-07-23", "contact:facebook": "https://www.facebook.com/people/Restaurant-Es-Mol%C3%AD-De-Santany%C3%AD/100067846270629/", "contact:tripadvisor": "https://www.tripadvisor.com/Restaurant_Review-g663368-d985495-Reviews-Restaurant_Es_Moli_de_Santanyi-Santanyi_Majorca_Balearic_Islands.html?m=19905", "cuisine": "tapas", "diet:vegetarian": "yes", "indoor_seating": "yes", "name": "Es Mol\u00ed de Santany\u00ed", "opening_hours": "Mo-Su,PH 13:00-23:00; Tu 17:00-23:00", "outdoor_seating": "patio", "payment:credit_cards": "yes", "payment:debit_cards": "yes", "phone": "+34 971 65 36 29", "reservation": "recommended", "source:opening_hours": "survey", "wikidata": "Q134463251"}}, {"type": "node", "id": 6022802785, "lat": 39.3526041, "lon": 3.1260131, "tags": {"amenity": "restaurant", "name": "Anoa Santany\u00ed", "name:ca": "Anoa Santany\u00ed", "phone": "+34971653315"}}, {"type": "node", "id": 6023613187, "lat": 39.4342643, "lon": 2.7557447}, {"type": "node", "id": 6023613188, "lat": 39.4342732, "lon": 2.7557753}, {"type": "node", "id": 6023613189, "lat": 39.4342254, "lon": 2.7557987}, {"type": "node", "id": 6023613191, "lat": 39.4342307, "lon": 2.7558168}, {"type": "node", "id": 6111113264, "lat": 39.4710691, "lon": 3.1439568, "tags": {"amenity": "cafe", "name": "s'Extrem"}}, {"type": "node", "id": 6111113265, "lat": 39.4711586, "lon": 3.1441663, "tags": {"amenity": "cafe", "name": "es Passeig"}}, {"type": "node", "id": 6268609039, "lat": 39.4843347, "lon": 2.8325708}, {"type": "node", "id": 6268609040, "lat": 39.4842161, "lon": 2.8324131}, {"type": "node", "id": 6268609041, "lat": 39.4841277, "lon": 2.8325247}, {"type": "node", "id": 6268609042, "lat": 39.4841391, "lon": 2.8325543}, {"type": "node", "id": 6268609043, "lat": 39.4840733, "lon": 2.8326374}, {"type": "node", "id": 6268609044, "lat": 39.4842033, "lon": 2.8328102}, {"type": "node", "id": 6268609045, "lat": 39.4842974, "lon": 2.8326915}, {"type": "node", "id": 6268609046, "lat": 39.484269, "lon": 2.8326537}, {"type": "node", "id": 6279576743, "lat": 39.4863383, "lon": 2.8917268, "tags": {"amenity": "restaurant", "name": "La Parrilla"}}, {"type": "node", "id": 6344471478, "lat": 39.5090726, "lon": 2.7556455}, {"type": "node", "id": 6344471479, "lat": 39.5091794, "lon": 2.7557099}, {"type": "node", "id": 6344471480, "lat": 39.5092265, "lon": 2.7555787}, {"type": "node", "id": 6344471481, "lat": 39.5091197, "lon": 2.7555143}, {"type": "node", "id": 6386041644, "lat": 39.4274184, "lon": 3.0177601, "tags": {"amenity": "cafe", "name": "s'Estaci\u00f3", "name:ca": "s'Estaci\u00f3"}}, {"type": "node", "id": 6387567101, "lat": 39.4942942, "lon": 2.7943449, "tags": {"addr:city": "Llucmajor", "amenity": "restaurant", "cuisine": "italian;spanish", "phone": "+34 971 44 20 84", "postal_code": "07620", "seats": "130"}}, {"type": "node", "id": 6442252677, "lat": 39.4880791, "lon": 2.8886705, "tags": {"addr:city": "Llucmajor", "addr:housenumber": "92", "addr:postcode": "07620", "addr:street": "Carrer del Bisbe Taixequet", "amenity": "cafe", "name": "Bar Ca na Neus"}}, {"type": "node", "id": 6467557285, "lat": 39.4701704, "lon": 3.1552114, "tags": {"addr:postcode": "07200", "addr:street": "carrer d'Anglesola", "amenity": "cafe", "name": "Parc Caf\u00e9", "name:ca": "Parc Caf\u00e9", "name:en": "Parc Cafe"}}, {"type": "node", "id": 6475213836, "lat": 39.5073582, "lon": 2.7534399, "tags": {"addr:city": "El Arenal", "addr:housenumber": "23", "addr:postcode": "07600", "addr:street": "carrer Quarter", "amenity": "restaurant", "cuisine": "regional;seafood", "name": "El Arriero", "opening_hours": "09:30-23:30"}}, {"type": "node", "id": 6540939861, "lat": 39.354526, "lon": 3.1289432, "tags": {"amenity": "restaurant", "cuisine": "pizza", "name": "sa Pizzeria", "wheelchair": "no"}}, {"type": "node", "id": 6540961972, "lat": 39.3543806, "lon": 3.1286871, "tags": {"amenity": "restaurant", "name": "Alchemy"}}, {"type": "node", "id": 6541024874, "lat": 39.3543254, "lon": 3.1291077, "tags": {"amenity": "restaurant", "name": "Inimi"}}, {"type": "node", "id": 6615156894, "lat": 39.3176272, "lon": 2.9949983, "tags": {"amenity": "cafe", "name": "Chez Mati"}}, {"type": "node", "id": 6641301446, "lat": 39.5003411, "lon": 2.7512737, "tags": {"amenity": "restaurant", "cuisine": "italian", "name": "Piccolo Sogno"}}, {"type": "node", "id": 6660585285, "lat": 39.3626011, "lon": 2.9455225, "tags": {"amenity": "restaurant", "name": "Riva", "opening_hours": "Tu-Su 13:00-23:30", "website": "https://www.riva-sa-rapita.com"}}, {"type": "node", "id": 6660591185, "lat": 39.3642702, "lon": 2.9396783, "tags": {"amenity": "restaurant", "name": "El raco"}}, {"type": "node", "id": 6690411619, "lat": 39.4291083, "lon": 3.0139776, "tags": {"amenity": "cafe", "name": "Oasis", "name:ca": "Oasis"}}, {"type": "node", "id": 6703121385, "lat": 39.3835186, "lon": 2.9389493, "tags": {"amenity": "restaurant", "name": "Chivi"}}, {"type": "node", "id": 6703514404, "lat": 39.5068817, "lon": 2.7532629, "tags": {"amenity": "cafe", "name": "Eclipse"}}, {"type": "node", "id": 6703712509, "lat": 39.4953775, "lon": 2.8867266, "tags": {"amenity": "cafe", "name": "sa Picada"}}, {"type": "node", "id": 6709013577, "lat": 39.5010385, "lon": 2.7535145, "tags": {"amenity": "cafe", "name": "La Taberna"}}, {"type": "node", "id": 6709013579, "lat": 39.5002748, "lon": 2.7533992, "tags": {"amenity": "cafe", "name": "Tot b\u00f3"}}, {"type": "node", "id": 6718228089, "lat": 39.3842521, "lon": 2.9733701}, {"type": "node", "id": 6718228090, "lat": 39.3841529, "lon": 2.973494}, {"type": "node", "id": 6718228091, "lat": 39.3841362, "lon": 2.9734738}, {"type": "node", "id": 6718228092, "lat": 39.3841162, "lon": 2.9734983}, {"type": "node", "id": 6718228093, "lat": 39.3840226, "lon": 2.9733585}, {"type": "node", "id": 6718228094, "lat": 39.3839536, "lon": 2.9733196}, {"type": "node", "id": 6718228095, "lat": 39.3840037, "lon": 2.9732303}, {"type": "node", "id": 6778917676, "lat": 39.5696332, "lon": 3.0875938, "tags": {"amenity": "cafe", "name": "sa Taverna"}}, {"type": "node", "id": 6778979120, "lat": 39.5693854, "lon": 3.0894967, "tags": {"amenity": "cafe", "name": "Can Pujol", "name:ca": "Can Pujol"}}, {"type": "node", "id": 6780941485, "lat": 39.3412558, "lon": 3.0972776, "tags": {"amenity": "restaurant", "name": "Sa Fona"}}, {"type": "node", "id": 6799354029, "lat": 39.365562, "lon": 2.9249885, "tags": {"amenity": "restaurant", "cuisine": "pizza", "name": "Tropipizza"}}, {"type": "node", "id": 6896546785, "lat": 39.5168792, "lon": 2.7444585, "tags": {"addr:city": "Palma", "addr:country": "ES", "addr:housenumber": "1", "addr:postcode": "07610", "addr:street": "carrer de la Missi\u00f3 de Santa B\u00e0rbara", "amenity": "restaurant", "cuisine": "mediterranean", "indoor_seating": "yes", "internet_access": "wlan", "name": "Massilia", "name:en": "Massilia", "outdoor_seating": "yes", "phone": "+34 971266431", "website": "http://www.restaurantemassilia.com"}}, {"type": "node", "id": 6896915585, "lat": 39.516425, "lon": 2.7448466, "tags": {"addr:housenumber": "1", "addr:postcode": "07610", "addr:street": "Calle de Pare Bartomeu Salva", "amenity": "restaurant", "cuisine": "mediterranean", "internet_access": "wlan", "name": "Linos", "name:en": "Linos Grand Cafe de Mar", "opening_hours": "Mo-Su 08:00-03:00", "phone": "+34971491728", "toilets:wheelchair": "yes", "website": "http://linosgrandcafedemar.com", "wheelchair": "yes"}}, {"type": "node", "id": 6896931885, "lat": 39.5157508, "lon": 2.7458574, "tags": {"addr:housenumber": "1", "addr:postcode": "07600", "addr:street": "carrer de la Missi\u00f3 de San Diego", "amenity": "restaurant", "cuisine": "mediterranean", "name": "Chalet Siena", "opening_hours": "Mo-Su 09:00-00:00", "phone": "+34971745690", "website": "http://chaletsiena.com"}}, {"type": "node", "id": 6918271937, "lat": 39.5301272, "lon": 2.7318615}, {"type": "node", "id": 6918271938, "lat": 39.5302772, "lon": 2.732064}, {"type": "node", "id": 6918271939, "lat": 39.5301718, "lon": 2.7321953}, {"type": "node", "id": 6918271940, "lat": 39.5300218, "lon": 2.7319927}, {"type": "node", "id": 6983313210, "lat": 39.4341791, "lon": 3.0116638}, {"type": "node", "id": 6983313211, "lat": 39.4342989, "lon": 3.0118089}, {"type": "node", "id": 6983313212, "lat": 39.4341938, "lon": 3.0120166}, {"type": "node", "id": 6983313213, "lat": 39.434075, "lon": 3.0119217}, {"type": "node", "id": 7021744967, "lat": 39.4701278, "lon": 3.1490255, "tags": {"amenity": "cafe", "name": "Comercial"}}, {"type": "node", "id": 7035334181, "lat": 39.4871268, "lon": 2.886554, "tags": {"amenity": "cafe", "name": "Jaume III"}}, {"type": "node", "id": 7035334182, "lat": 39.4870813, "lon": 2.8864414, "tags": {"amenity": "cafe", "name": "Can Chame"}}, {"type": "node", "id": 7042450513, "lat": 39.4868455, "lon": 2.8849992, "tags": {"addr:city": "Llucmajor", "addr:housenumber": "72", "addr:postcode": "07620", "addr:street": "Ronda de Migjorn", "amenity": "restaurant", "cuisine": "sushi", "name": "DAWEI", "name:es": "DAWEI restaurante sushi", "opening_hours": "Tu-Su 12:00-16:30, Tu-Su 19:00-23:30", "phone": "+34 640070355", "website": "http://business.site"}}, {"type": "node", "id": 7042459526, "lat": 39.4876031, "lon": 2.8878859, "tags": {"amenity": "restaurant", "cuisine": "chinese", "name": "Sushi Chef"}}, {"type": "node", "id": 7130783262, "lat": 39.4860348, "lon": 2.8947819, "tags": {"amenity": "cafe", "name": "Cas Ciclista"}}, {"type": "node", "id": 7218786275, "lat": 39.5276679, "lon": 2.925789, "tags": {"amenity": "cafe"}}, {"type": "node", "id": 7281022418, "lat": 39.4893076, "lon": 2.8986457}, {"type": "node", "id": 7281022419, "lat": 39.48921, "lon": 2.8988983}, {"type": "node", "id": 7281022420, "lat": 39.4891237, "lon": 2.8988119}, {"type": "node", "id": 7281022421, "lat": 39.4890725, "lon": 2.8988968}, {"type": "node", "id": 7281022422, "lat": 39.4889634, "lon": 2.8987888}, {"type": "node", "id": 7281022423, "lat": 39.4889535, "lon": 2.8987016}, {"type": "node", "id": 7281022424, "lat": 39.4890932, "lon": 2.8984989}, {"type": "node", "id": 7362592856, "lat": 39.5224183, "lon": 2.7511957}, {"type": "node", "id": 7362592857, "lat": 39.5222213, "lon": 2.7510041}, {"type": "node", "id": 7362592858, "lat": 39.5222136, "lon": 2.7509912}, {"type": "node", "id": 7362742780, "lat": 39.5113201, "lon": 2.7586415}, {"type": "node", "id": 7362742781, "lat": 39.511377, "lon": 2.7584633}, {"type": "node", "id": 7362742782, "lat": 39.5113966, "lon": 2.7584693}, {"type": "node", "id": 7362742783, "lat": 39.511459, "lon": 2.7582846}, {"type": "node", "id": 7362742784, "lat": 39.5115292, "lon": 2.7583234}, {"type": "node", "id": 7375922864, "lat": 39.5269208, "lon": 2.7335573, "tags": {"amenity": "restaurant", "cuisine": "pizza", "name": "Mar", "name:ca": "Mar", "wheelchair": "limited"}}, {"type": "node", "id": 7386020240, "lat": 39.4806551, "lon": 2.7299832}, {"type": "node", "id": 7386020241, "lat": 39.4806729, "lon": 2.73003}, {"type": "node", "id": 7399814537, "lat": 39.338882, "lon": 3.0550024}, {"type": "node", "id": 7399814538, "lat": 39.3388726, "lon": 3.054949}, {"type": "node", "id": 7399814539, "lat": 39.3389464, "lon": 3.0548937}, {"type": "node", "id": 7399814540, "lat": 39.3389668, "lon": 3.0548902}, {"type": "node", "id": 7399814541, "lat": 39.3389737, "lon": 3.0549013}, {"type": "node", "id": 7399814542, "lat": 39.3389925, "lon": 3.0548946}, {"type": "node", "id": 7399814543, "lat": 39.3390285, "lon": 3.0549551}, {"type": "node", "id": 7399814544, "lat": 39.3390827, "lon": 3.0549104}, {"type": "node", "id": 7399814545, "lat": 39.3391044, "lon": 3.0549476}, {"type": "node", "id": 7399814546, "lat": 39.3389322, "lon": 3.0551094}, {"type": "node", "id": 7399814547, "lat": 39.3390935, "lon": 3.0549575}, {"type": "node", "id": 7399814548, "lat": 39.3391858, "lon": 3.055105}, {"type": "node", "id": 7399814549, "lat": 39.3390495, "lon": 3.0552566}, {"type": "node", "id": 7399814550, "lat": 39.339031, "lon": 3.0552205}, {"type": "node", "id": 7399814551, "lat": 39.3390054, "lon": 3.0552788}, {"type": "node", "id": 7399814552, "lat": 39.3390181, "lon": 3.0553249}, {"type": "node", "id": 7399814553, "lat": 39.3389471, "lon": 3.0553802}, {"type": "node", "id": 7399814554, "lat": 39.3389146, "lon": 3.0553268}, {"type": "node", "id": 7399814555, "lat": 39.3389302, "lon": 3.0553092}, {"type": "node", "id": 7399814556, "lat": 39.3389044, "lon": 3.0552628}, {"type": "node", "id": 7399814557, "lat": 39.3389756, "lon": 3.0551883}, {"type": "node", "id": 7399814558, "lat": 39.3390441, "lon": 3.0551138}, {"type": "node", "id": 7399814559, "lat": 39.3390063, "lon": 3.0550372}, {"type": "node", "id": 7400985796, "lat": 39.3876809, "lon": 3.1647074}, {"type": "node", "id": 7400985797, "lat": 39.3876519, "lon": 3.1646469}, {"type": "node", "id": 7400985798, "lat": 39.3879281, "lon": 3.1644394}, {"type": "node", "id": 7400985799, "lat": 39.3879448, "lon": 3.1644797}, {"type": "node", "id": 7400985800, "lat": 39.3878669, "lon": 3.1645446}, {"type": "node", "id": 7400985801, "lat": 39.3878524, "lon": 3.164523}, {"type": "node", "id": 7400985802, "lat": 39.3878201, "lon": 3.1645489}, {"type": "node", "id": 7400985803, "lat": 39.3878312, "lon": 3.1645748}, {"type": "node", "id": 7400985804, "lat": 39.3877744, "lon": 3.1646224}, {"type": "node", "id": 7400985805, "lat": 39.3877655, "lon": 3.1646008}, {"type": "node", "id": 7400985806, "lat": 39.3877355, "lon": 3.1646224}, {"type": "node", "id": 7400985807, "lat": 39.3877444, "lon": 3.1646483}, {"type": "node", "id": 7400985808, "lat": 39.387809, "lon": 3.1646685}, {"type": "node", "id": 7400985809, "lat": 39.3878535, "lon": 3.1647607}, {"type": "node", "id": 7400985810, "lat": 39.3877466, "lon": 3.1648544}, {"type": "node", "id": 7400985811, "lat": 39.3877065, "lon": 3.1647636}, {"type": "node", "id": 7431160532, "lat": 39.5174644, "lon": 3.0232514}, {"type": "node", "id": 7431160533, "lat": 39.5174508, "lon": 3.0232659}, {"type": "node", "id": 7433935175, "lat": 39.50094, "lon": 2.7565672, "tags": {"amenity": "cafe", "name": "Entre Comillas"}}, {"type": "node", "id": 7433935177, "lat": 39.500753, "lon": 2.7559599, "tags": {"amenity": "restaurant", "cuisine": "sushi", "name": "Genki"}}, {"type": "node", "id": 7492212856, "lat": 39.5013745, "lon": 2.7575156, "tags": {"amenity": "restaurant", "cuisine": "pizza", "name": "Tutti"}}, {"type": "node", "id": 7492212857, "lat": 39.5012198, "lon": 2.7576674, "tags": {"amenity": "restaurant", "name": "Los Nav\u00edos"}}, {"type": "node", "id": 7679017667, "lat": 39.5103216, "lon": 2.7507935}, {"type": "node", "id": 7679017668, "lat": 39.5103409, "lon": 2.7508595}, {"type": "node", "id": 7679017669, "lat": 39.5102685, "lon": 2.750895}, {"type": "node", "id": 7679017670, "lat": 39.5102492, "lon": 2.7508291}, {"type": "node", "id": 7801496354, "lat": 39.4188527, "lon": 2.748524}, {"type": "node", "id": 7803341297, "lat": 39.5276385, "lon": 2.7355119, "tags": {"addr:city": "Ca'n Pastilla", "addr:housenumber": "4", "addr:postcode": "07610", "addr:street": "Carrer de la Fotja", "amenity": "restaurant", "cuisine": "pizza", "name": "Sicilia in Bocca", "opening_hours": "Mo-Su 12:00-02:00", "phone": "+34 971 93 44 34", "website": "https://www.siciliainboccapalma.es/"}}, {"type": "node", "id": 7875266715, "lat": 39.5265466, "lon": 2.9146334}, {"type": "node", "id": 7926277210, "lat": 39.4685969, "lon": 3.1491116, "tags": {"amenity": "cafe", "name": "Mercado"}}, {"type": "node", "id": 7993581536, "lat": 39.490897, "lon": 2.9400073, "tags": {"amenity": "restaurant", "name": "Son Sam\u00e0", "opening_hours": "Mo-Sa 19:00-23:00"}}, {"type": "node", "id": 8023240596, "lat": 39.4877409, "lon": 2.8852901, "tags": {"amenity": "restaurant", "name": "Es Rac\u00f3 de Can Reus"}}, {"type": "node", "id": 8027462331, "lat": 39.5139369, "lon": 2.7585581, "tags": {"amenity": "cafe", "name": "Can Rafel", "name:ca": "Can Rafel"}}, {"type": "node", "id": 8080345517, "lat": 39.3167789, "lon": 2.9972748, "tags": {"amenity": "restaurant", "branch": "Port", "brand": "5illes", "check_date": "2023-08-02", "cuisine": "fish;grill;hotdog;ice_cream;international;italian;japanese", "indoor_seating": "yes", "name": "5illes", "opening_hours": "Mo off; Tu-Su 12:00-24:00", "operator": "Grupo 5illes Mallorca", "outdoor_seating": "yes", "payment:mastercard": "yes", "payment:visa": "yes", "phone": "+34 971 65 64 63", "reservation": "yes", "website": "https://5illesmallorca.com/restaurante-en-el-puerto/", "wheelchair": "yes"}}, {"type": "node", "id": 8093877652, "lat": 39.501649, "lon": 2.7547433, "tags": {"amenity": "cafe", "name": "La Estaci\u00f3n"}}, {"type": "node", "id": 8150809908, "lat": 39.5097116, "lon": 2.8302605}, {"type": "node", "id": 8150809909, "lat": 39.5096276, "lon": 2.8304132}, {"type": "node", "id": 8150809910, "lat": 39.509444, "lon": 2.8302436}, {"type": "node", "id": 8150809911, "lat": 39.509528, "lon": 2.8300909}, {"type": "node", "id": 8195302898, "lat": 39.502397, "lon": 2.7557082}, {"type": "node", "id": 8195302899, "lat": 39.50237, "lon": 2.7558404}, {"type": "node", "id": 8195302900, "lat": 39.5021378, "lon": 2.7557607}, {"type": "node", "id": 8195302901, "lat": 39.5021648, "lon": 2.7556287}, {"type": "node", "id": 8196502345, "lat": 39.5672679, "lon": 2.981873}, {"type": "node", "id": 8196502346, "lat": 39.5673204, "lon": 2.9819196}, {"type": "node", "id": 8196502347, "lat": 39.5671791, "lon": 2.9821878}, {"type": "node", "id": 8196502348, "lat": 39.5671038, "lon": 2.982121}, {"type": "node", "id": 8196502349, "lat": 39.5671323, "lon": 2.9820669}, {"type": "node", "id": 8196502350, "lat": 39.5671551, "lon": 2.982087}, {"type": "node", "id": 8208958162, "lat": 39.5225733, "lon": 2.7394537, "tags": {"amenity": "restaurant", "name": "Sirocco", "wheelchair": "yes"}}, {"type": "node", "id": 8208958177, "lat": 39.5227442, "lon": 2.7396542, "tags": {"amenity": "restaurant", "cuisine": "thai"}}, {"type": "node", "id": 8288140321, "lat": 39.5008245, "lon": 2.7578097, "tags": {"amenity": "restaurant", "name": "La Rotisserie"}}, {"type": "node", "id": 8295027000, "lat": 39.5286983, "lon": 2.7568847, "tags": {"amenity": "cafe", "name": "La Ponderosa", "name:ca": "La Ponderosa"}}, {"type": "node", "id": 8295130234, "lat": 39.5219755, "lon": 2.7552901}, {"type": "node", "id": 8295130235, "lat": 39.5219434, "lon": 2.7553562}, {"type": "node", "id": 8295130236, "lat": 39.5218173, "lon": 2.7552031}, {"type": "node", "id": 8295130237, "lat": 39.5217483, "lon": 2.7553108}, {"type": "node", "id": 8295130238, "lat": 39.5216962, "lon": 2.755268}, {"type": "node", "id": 8295130239, "lat": 39.5217182, "lon": 2.7552226}, {"type": "node", "id": 8295130240, "lat": 39.5216972, "lon": 2.7552057}, {"type": "node", "id": 8295130241, "lat": 39.5217733, "lon": 2.7550825}, {"type": "node", "id": 8295130242, "lat": 39.5218167, "lon": 2.7551306}, {"type": "node", "id": 8295130243, "lat": 39.5218715, "lon": 2.7550584}, {"type": "node", "id": 8295130244, "lat": 39.5218971, "lon": 2.7550882}, {"type": "node", "id": 8295130245, "lat": 39.5218538, "lon": 2.7551581}, {"type": "node", "id": 8296539217, "lat": 39.5147026, "lon": 2.7590281}, {"type": "node", "id": 8296539218, "lat": 39.5146408, "lon": 2.7591861}, {"type": "node", "id": 8296539219, "lat": 39.5146217, "lon": 2.7591735}, {"type": "node", "id": 8296539220, "lat": 39.5145747, "lon": 2.759192}, {"type": "node", "id": 8296539221, "lat": 39.5146505, "lon": 2.7589953}, {"type": "node", "id": 8296539222, "lat": 39.5146063, "lon": 2.7592127}, {"type": "node", "id": 8296539225, "lat": 39.5145979, "lon": 2.7591347}, {"type": "node", "id": 8431980612, "lat": 39.4990535, "lon": 2.7551332, "tags": {"amenity": "restaurant", "name": "Foodee"}}, {"type": "node", "id": 8561864153, "lat": 39.4885341, "lon": 2.8497907, "tags": {"amenity": "restaurant", "name": "Son Noguera II"}}, {"type": "node", "id": 8590069393, "lat": 39.3545227, "lon": 3.1287245, "tags": {"amenity": "cafe", "name": "Can Piquer", "name:ca": "Can Piquer", "wheelchair": "no"}}, {"type": "node", "id": 8617819730, "lat": 39.4995739, "lon": 2.7545615, "tags": {"amenity": "cafe", "name": "El Centro"}}, {"type": "node", "id": 8617819738, "lat": 39.4996246, "lon": 2.7550831, "tags": {"amenity": "cafe", "name": "El Parque"}}, {"type": "node", "id": 8638021533, "lat": 39.4903389, "lon": 2.899435}, {"type": "node", "id": 8638021534, "lat": 39.4902307, "lon": 2.8993578}, {"type": "node", "id": 8638021535, "lat": 39.4902695, "lon": 2.8992671}, {"type": "node", "id": 8638021536, "lat": 39.4903782, "lon": 2.899343}, {"type": "node", "id": 8730947244, "lat": 39.5069847, "lon": 2.7515599}, {"type": "node", "id": 8730947245, "lat": 39.5069717, "lon": 2.7515203}, {"type": "node", "id": 8730947248, "lat": 39.5069586, "lon": 2.7514794}, {"type": "node", "id": 8730947249, "lat": 39.5069176, "lon": 2.7513544}, {"type": "node", "id": 8730947250, "lat": 39.5068787, "lon": 2.7513757}, {"type": "node", "id": 8730947251, "lat": 39.5068895, "lon": 2.7514085}, {"type": "node", "id": 8730947252, "lat": 39.5068747, "lon": 2.7514172}, {"type": "node", "id": 8730947253, "lat": 39.5069468, "lon": 2.7516301}, {"type": "node", "id": 8730947254, "lat": 39.5069567, "lon": 2.7516246}, {"type": "node", "id": 8730947255, "lat": 39.5069432, "lon": 2.7515827}, {"type": "node", "id": 8730947256, "lat": 39.5069275, "lon": 2.7515732}, {"type": "node", "id": 8759714786, "lat": 39.5065092, "lon": 2.7516182, "tags": {"amenity": "restaurant", "name": "1955"}}, {"type": "node", "id": 8763924362, "lat": 39.5675018, "lon": 2.9821861, "tags": {"amenity": "cafe", "check_date": "2023-08-09", "name": "Ca'n Xorri"}}, {"type": "node", "id": 8781190667, "lat": 39.5272286, "lon": 2.7328889, "tags": {"amenity": "restaurant", "name": "Sunset beach"}}, {"type": "node", "id": 8827971194, "lat": 39.5311247, "lon": 2.727966}, {"type": "node", "id": 8827971195, "lat": 39.5310391, "lon": 2.7278941}, {"type": "node", "id": 8827971196, "lat": 39.5312467, "lon": 2.7277502}, {"type": "node", "id": 8889892318, "lat": 39.4306472, "lon": 3.0178183, "tags": {"amenity": "restaurant", "cuisine": "pizza", "name": "Sapore di Napoli"}}, {"type": "node", "id": 8941074228, "lat": 39.3412563, "lon": 3.09745, "tags": {"amenity": "cafe", "name": "Can Rita", "name:ca": "Can Rita"}}, {"type": "node", "id": 9054857683, "lat": 39.499824, "lon": 2.7531477, "tags": {"amenity": "restaurant", "cuisine": "seafood", "name": "casa do Pulpo"}}, {"type": "node", "id": 9054857684, "lat": 39.4998506, "lon": 2.7530195, "tags": {"amenity": "cafe", "name": "R\u00edas de Vigo"}}, {"type": "node", "id": 9066567360, "lat": 39.3302899, "lon": 3.1682639, "tags": {"addr:housenumber": "20", "addr:postcode": "07659", "addr:street": "Carrer Bernareggi", "amenity": "restaurant", "check_date:opening_hours": "2024-10-08", "name": "El Cruce", "opening_hours": "Mo-Su 16:00-02:00", "opening_hours:signed": "no", "website:menu": "https://cartadigital.barmanagerapp.com/site/index/show/ELCRUCE2"}}, {"type": "node", "id": 9074329094, "lat": 39.3518709, "lon": 3.124727, "tags": {"amenity": "restaurant", "cuisine": "international;italian;pizza", "indoor_seating": "yes", "name": "Restaurant Es Vinyet Pizzeria", "outdoor_seating": "yes", "wheelchair": "limited"}}, {"type": "node", "id": 9087437317, "lat": 39.5174813, "lon": 2.7472446, "tags": {"addr:city": "Palma", "addr:housenumber": "10", "addr:postcode": "07600", "addr:street": "Carrer del Pare Bartomeu Salv\u00e0", "amenity": "restaurant", "cuisine": "spanish;tapas", "name": "San Siro", "phone": "+34 971 26 10 79"}}, {"type": "node", "id": 9235493822, "lat": 39.4261628, "lon": 3.019546, "tags": {"amenity": "restaurant", "cuisine": "asian", "name": "Nueva China"}}, {"type": "node", "id": 9243154150, "lat": 39.3548685, "lon": 3.1280317, "tags": {"addr:city": "Santany\u00ed, Mallorca", "addr:housenumber": "1", "addr:postcode": "07650", "addr:street": "placeta de sa Porta Murada", "amenity": "cafe", "cuisine": "coffee_shop", "description": "Concept Store: Medical Beauty & Lifestyle Caf\u00e9 f\u00fcr ganzheitliches Wohlf\u00fchlkonzept", "diet:healthy": "yes", "diet:vegan": "yes", "diet:vegetarian": "yes", "image": "http://resen-mallorca.com/wp-content/uploads/2021/02/resen_Header-2-scaled.jpg", "internet_access": "wlan", "name": "re.sen Beauty Lounge & Caf\u00e9 Mallorca", "opening_hours": "Mo-Sa 10:00-20:00", "outdoor_seating": "yes", "phone": "+34 611 05 60 11", "website": "http://www.resen-mallorca.com/", "wheelchair": "yes"}}, {"type": "node", "id": 9300093917, "lat": 39.3305459, "lon": 3.1693499, "tags": {"addr:city": "Cala Figuera", "addr:housenumber": "10", "addr:postcode": "07659", "addr:street": "Carrer Bernareggi", "amenity": "restaurant", "currency:XBT": "yes", "name": "el momento", "payment:cash": "yes", "payment:lightning": "yes", "payment:lightning_contactless": "yes", "payment:onchain": "yes", "phone": "+34 667971868", "survey:date": "2024-06-02", "website": "http://el-momento.es/"}}, {"type": "node", "id": 9300168105, "lat": 39.3536834, "lon": 3.1285878, "tags": {"amenity": "restaurant", "cuisine": "local", "name": "Terra Origens"}}, {"type": "node", "id": 9300168110, "lat": 39.3540847, "lon": 3.1283949, "tags": {"amenity": "cafe", "indoor_seating": "yes", "name": "Cas Mosson", "outdoor_seating": "yes"}}, {"type": "node", "id": 9432862367, "lat": 39.427546, "lon": 3.0216878, "tags": {"amenity": "cafe", "name": "Can Vermell", "name:ca": "Can Vermell"}}, {"type": "node", "id": 9594315914, "lat": 39.4270295, "lon": 2.7453172}, {"type": "node", "id": 9594315915, "lat": 39.4270311, "lon": 2.7453511}, {"type": "node", "id": 9594315916, "lat": 39.4269391, "lon": 2.7453585}, {"type": "node", "id": 9594340517, "lat": 39.4269378, "lon": 2.7453315}, {"type": "node", "id": 9594340518, "lat": 39.4269102, "lon": 2.7453337}, {"type": "node", "id": 9594340519, "lat": 39.4269004, "lon": 2.7453549}, {"type": "node", "id": 9594340520, "lat": 39.4268887, "lon": 2.745369}, {"type": "node", "id": 9594340521, "lat": 39.4268743, "lon": 2.7453732}, {"type": "node", "id": 9594340522, "lat": 39.4268576, "lon": 2.7453671}, {"type": "node", "id": 9594340523, "lat": 39.4268479, "lon": 2.7453483}, {"type": "node", "id": 9594340524, "lat": 39.4268508, "lon": 2.7453202}, {"type": "node", "id": 9594340525, "lat": 39.4268715, "lon": 2.7453048}, {"type": "node", "id": 9703118332, "lat": 39.5333674, "lon": 2.7965951}, {"type": "node", "id": 9703118333, "lat": 39.5333744, "lon": 2.7964069}, {"type": "node", "id": 9703118334, "lat": 39.5333272, "lon": 2.796405}, {"type": "node", "id": 9703118335, "lat": 39.5333227, "lon": 2.7965933}, {"type": "node", "id": 9703118336, "lat": 39.5333754, "lon": 2.7963644}, {"type": "node", "id": 9703118337, "lat": 39.5334345, "lon": 2.7963668}, {"type": "node", "id": 9720388447, "lat": 39.4925825, "lon": 2.7434996, "tags": {"amenity": "restaurant", "name": "Al Dente"}}, {"type": "node", "id": 9757615103, "lat": 39.5020553, "lon": 2.7525224, "tags": {"amenity": "cafe", "name": "Why not?"}}, {"type": "node", "id": 9858853339, "lat": 39.5026193, "lon": 2.7535087, "tags": {"amenity": "restaurant", "cuisine": "pizza", "name": "La Monumental"}}, {"type": "node", "id": 9868208288, "lat": 39.4871249, "lon": 2.8842166, "tags": {"amenity": "cafe", "name": "Jacky's"}}, {"type": "node", "id": 9869014865, "lat": 39.4737785, "lon": 2.8295857, "tags": {"amenity": "restaurant", "name": "La Terrassa", "name:ca": "La Terrassa", "operator": "Marriott Hotels", "phone": "+34 971-705200 4010", "website": "https://www.marriott.com/hotels/hotel-information/restaurant/pmimc-marriotts-club-son-antem/"}}, {"type": "node", "id": 9869014868, "lat": 39.4758355, "lon": 2.8308785, "tags": {"addr:city": "Llucmajor", "addr:postcode": "07620", "amenity": "restaurant", "name": "La Finca", "name:ca": "La Finca", "phone": "+34 971 10 70 70", "website": "https://mallorca-touristguide.com/llucmajor/la-finca/menu-es"}}, {"type": "node", "id": 9877717592, "lat": 39.4877465, "lon": 2.8873991, "tags": {"addr:city": "Llucmajor", "addr:housenumber": "2A", "addr:postcode": "07620", "addr:street": "Passeig de Jaume III", "amenity": "cafe", "name": "Es Passeig"}}, {"type": "node", "id": 9892915546, "lat": 39.5039623, "lon": 2.7522582, "tags": {"addr:city": "Palma", "addr:housenumber": "3", "addr:postcode": "07600", "addr:street": "Carrer de la Fita", "amenity": "restaurant", "name": "Iron Diner", "opening_hours": "Tu-Sa 12:00-22:00"}}, {"type": "node", "id": 9897657429, "lat": 39.5009633, "lon": 2.7511051, "tags": {"amenity": "restaurant", "name": "Limit"}}, {"type": "node", "id": 9919827815, "lat": 39.4379968, "lon": 3.0153544}, {"type": "node", "id": 9919827816, "lat": 39.437802, "lon": 3.0155472, "tags": {"entrance": "yes"}}, {"type": "node", "id": 9919832417, "lat": 39.4377563, "lon": 3.0155772}, {"type": "node", "id": 9919832418, "lat": 39.43783, "lon": 3.0155288}, {"type": "node", "id": 9919832419, "lat": 39.4380962, "lon": 3.0156084}, {"type": "node", "id": 9919832420, "lat": 39.4378355, "lon": 3.0157794}, {"type": "node", "id": 9919832421, "lat": 39.4378098, "lon": 3.0154772}, {"type": "node", "id": 9919958703, "lat": 39.4378366, "lon": 3.0154546}, {"type": "node", "id": 9920766237, "lat": 39.5632072, "lon": 2.9772317}, {"type": "node", "id": 9920766238, "lat": 39.5631931, "lon": 2.9771977}, {"type": "node", "id": 9920766239, "lat": 39.5633438, "lon": 2.9774069}, {"type": "node", "id": 10035943017, "lat": 39.4492592, "lon": 2.7547785, "tags": {"amenity": "cafe", "name": "Lacafeteria"}}, {"type": "node", "id": 10058009817, "lat": 39.363415, "lon": 2.8369342, "tags": {"amenity": "cafe", "name": "The Pepe\u2019s Corner", "name:en": "The Pepe\u2019s Corner"}}, {"type": "node", "id": 10091454717, "lat": 39.3534936, "lon": 3.1291463, "tags": {"addr:street": "Carrer Portell", "amenity": "restaurant", "contact:instagram": "https://www.instagram.com/amazonique.santanyi/?igshid=YmMyMTA2M2Y%3D", "name": "Restaurant Amazoniq\u00fce"}}, {"type": "node", "id": 10103604209, "lat": 39.523613, "lon": 2.7368718, "tags": {"amenity": "restaurant", "indoor_seating": "yes", "name": "Al Faro Beach", "outdoor_seating": "yes"}}, {"type": "node", "id": 10116894817, "lat": 39.3554946, "lon": 3.126937, "tags": {"addr:housenumber": "13", "addr:postcode": "07650", "addr:street": "Carrer de Palma", "amenity": "restaurant", "cuisine": "italian_pizza;spanish;tapas", "name": "Palma 13", "opening_hours": "Mo-Sa 18:00-23:00", "phone": "+34609202034"}}, {"type": "node", "id": 10200398666, "lat": 39.4999498, "lon": 2.751156, "tags": {"amenity": "restaurant", "name": "Gusto Ib\u00e9rico"}}, {"type": "node", "id": 10713027789, "lat": 39.5266017, "lon": 2.9157079}, {"type": "node", "id": 10713027790, "lat": 39.5265915, "lon": 2.9157807}, {"type": "node", "id": 10713027791, "lat": 39.5266191, "lon": 2.9157858}, {"type": "node", "id": 10713027792, "lat": 39.526612, "lon": 2.9158277}, {"type": "node", "id": 10713027793, "lat": 39.5264013, "lon": 2.915773}, {"type": "node", "id": 10713027794, "lat": 39.5264252, "lon": 2.9156668}, {"type": "node", "id": 10951436800, "lat": 39.519773, "lon": 2.8831131}, {"type": "node", "id": 10951436801, "lat": 39.5197755, "lon": 2.8830887}, {"type": "node", "id": 10951436802, "lat": 39.5198943, "lon": 2.8830782}, {"type": "node", "id": 10951436803, "lat": 39.5198949, "lon": 2.8830487}, {"type": "node", "id": 10960466032, "lat": 39.5278643, "lon": 2.7722649}, {"type": "node", "id": 10960466033, "lat": 39.5277605, "lon": 2.7723803}, {"type": "node", "id": 10960466034, "lat": 39.5276429, "lon": 2.7722024}, {"type": "node", "id": 10960466035, "lat": 39.5277466, "lon": 2.7720871}, {"type": "node", "id": 10960490476, "lat": 39.4757685, "lon": 2.7244671, "tags": {"amenity": "restaurant", "name": "La Fortaleza"}}, {"type": "node", "id": 10970434316, "lat": 39.3634343, "lon": 2.9434564, "tags": {"addr:city": "Campos", "addr:housenumber": "49", "addr:postcode": "07639", "addr:street": "Avinguda Miramar", "amenity": "restaurant", "cuisine": "mediterranean;spanish;european", "name": "S'Oratge Mar", "phone": "+34 971 160 427", "website": "https://soratgemar.com/", "website:menu": "https://soratgemar.com/cartas/"}}, {"type": "node", "id": 11056362814, "lat": 39.3389018, "lon": 3.0517235}, {"type": "node", "id": 11056362824, "lat": 39.3388665, "lon": 3.0517064}, {"type": "node", "id": 11056362825, "lat": 39.3387885, "lon": 3.0516649}, {"type": "node", "id": 11056362828, "lat": 39.3389773, "lon": 3.051639}, {"type": "node", "id": 11056362829, "lat": 39.3389617, "lon": 3.0516598}, {"type": "node", "id": 11056362830, "lat": 39.3389493, "lon": 3.0516598}, {"type": "node", "id": 11056362831, "lat": 39.33892, "lon": 3.0516364}, {"type": "node", "id": 11056362832, "lat": 39.3389187, "lon": 3.0516424}, {"type": "node", "id": 11056362833, "lat": 39.338913, "lon": 3.051639}, {"type": "node", "id": 11056362834, "lat": 39.3389213, "lon": 3.0516102}, {"type": "node", "id": 11056362835, "lat": 39.3388955, "lon": 3.0515944}, {"type": "node", "id": 11056362836, "lat": 39.3388977, "lon": 3.0515861}, {"type": "node", "id": 11056362837, "lat": 39.3388209, "lon": 3.0515415}, {"type": "node", "id": 11056362851, "lat": 39.3389742, "lon": 3.0511361}, {"type": "node", "id": 11056362852, "lat": 39.3389602, "lon": 3.0511854}, {"type": "node", "id": 11056362853, "lat": 39.3389215, "lon": 3.051166}, {"type": "node", "id": 11056362856, "lat": 39.3389342, "lon": 3.0511157}, {"type": "node", "id": 11056362857, "lat": 39.3389627, "lon": 3.0511303}, {"type": "node", "id": 11057573481, "lat": 39.3382562, "lon": 3.0534866}, {"type": "node", "id": 11057573482, "lat": 39.3382682, "lon": 3.0535444}, {"type": "node", "id": 11057573483, "lat": 39.3383525, "lon": 3.053515}, {"type": "node", "id": 11057573484, "lat": 39.3383654, "lon": 3.0535816}, {"type": "node", "id": 11057573490, "lat": 39.3382636, "lon": 3.053484}, {"type": "node", "id": 11057573491, "lat": 39.3383063, "lon": 3.0534696}, {"type": "node", "id": 11057573492, "lat": 39.3383079, "lon": 3.0534781}, {"type": "node", "id": 11057573501, "lat": 39.3384675, "lon": 3.0534308}, {"type": "node", "id": 11057573502, "lat": 39.3384905, "lon": 3.0535414}, {"type": "node", "id": 11057573549, "lat": 39.3386382, "lon": 3.0531908}, {"type": "node", "id": 11057573550, "lat": 39.3386515, "lon": 3.0532536}, {"type": "node", "id": 11057573551, "lat": 39.3386241, "lon": 3.053264}, {"type": "node", "id": 11057573552, "lat": 39.338631, "lon": 3.0532967}, {"type": "node", "id": 11057573553, "lat": 39.3386188, "lon": 3.0533003}, {"type": "node", "id": 11057573554, "lat": 39.3386352, "lon": 3.0533824}, {"type": "node", "id": 11057573575, "lat": 39.3385367, "lon": 3.0532221}, {"type": "node", "id": 11057632838, "lat": 39.3389949, "lon": 3.0552583}, {"type": "node", "id": 11057632839, "lat": 39.3389985, "lon": 3.0552865}, {"type": "node", "id": 11057632840, "lat": 39.3391339, "lon": 3.055022}, {"type": "node", "id": 11057632873, "lat": 39.3391238, "lon": 3.0554803}, {"type": "node", "id": 11057632877, "lat": 39.3390507, "lon": 3.0553952}, {"type": "node", "id": 11057632878, "lat": 39.3389857, "lon": 3.0554654}, {"type": "node", "id": 11057632879, "lat": 39.3389536, "lon": 3.0553752}, {"type": "node", "id": 11057632880, "lat": 39.3389233, "lon": 3.054414}, {"type": "node", "id": 11057632881, "lat": 39.3389344, "lon": 3.0544972}, {"type": "node", "id": 11057632882, "lat": 39.3389886, "lon": 3.05448}, {"type": "node", "id": 11057632883, "lat": 39.3390059, "lon": 3.0545249}, {"type": "node", "id": 11057632884, "lat": 39.3388109, "lon": 3.0545897}, {"type": "node", "id": 11057632885, "lat": 39.3387847, "lon": 3.0544571}, {"type": "node", "id": 11061347898, "lat": 39.3391452, "lon": 3.0508586}, {"type": "node", "id": 11061347899, "lat": 39.339122, "lon": 3.0511172}, {"type": "node", "id": 11061347900, "lat": 39.3391369, "lon": 3.0511048}, {"type": "node", "id": 11061347901, "lat": 39.3391242, "lon": 3.0510792}, {"type": "node", "id": 11061347902, "lat": 39.3391404, "lon": 3.0510667}, {"type": "node", "id": 11061347903, "lat": 39.3390737, "lon": 3.0509423}, {"type": "node", "id": 11061347908, "lat": 39.3390446, "lon": 3.0509735}, {"type": "node", "id": 11061347909, "lat": 39.3390854, "lon": 3.0510516}, {"type": "node", "id": 11061347916, "lat": 39.3391115, "lon": 3.0510976}, {"type": "node", "id": 11061348009, "lat": 39.3389308, "lon": 3.0517406}, {"type": "node", "id": 11061348012, "lat": 39.3389541, "lon": 3.051753}, {"type": "node", "id": 11061348013, "lat": 39.3389645, "lon": 3.0517587}, {"type": "node", "id": 11061348016, "lat": 39.3390066, "lon": 3.0517818}, {"type": "node", "id": 11061348017, "lat": 39.339028, "lon": 3.0517935}, {"type": "node", "id": 11061348018, "lat": 39.3389358, "lon": 3.0517429}, {"type": "node", "id": 11061348020, "lat": 39.3390604, "lon": 3.0517452}, {"type": "node", "id": 11061348023, "lat": 39.3390947, "lon": 3.0516941}, {"type": "node", "id": 11065113144, "lat": 39.339264, "lon": 3.0557441}, {"type": "node", "id": 11068840633, "lat": 39.3390015, "lon": 3.0516687}, {"type": "node", "id": 11070561946, "lat": 39.3558651, "lon": 2.9697198, "tags": {"amenity": "restaurant", "name": "Ses Covetes Beach", "phone": "971 640 150"}}, {"type": "node", "id": 11073163328, "lat": 39.3392177, "lon": 3.0509851}, {"type": "node", "id": 11084040461, "lat": 39.3155773, "lon": 2.9947651, "tags": {"amenity": "restaurant", "cuisine": "tapas", "indoor_seating": "yes", "name": "Okapi", "outdoor_seating": "yes"}}, {"type": "node", "id": 11084266968, "lat": 39.3158404, "lon": 2.9966681, "tags": {"amenity": "restaurant", "name": "la mallorquina"}}, {"type": "node", "id": 11104579508, "lat": 39.3629216, "lon": 2.9447625, "tags": {"amenity": "restaurant", "cuisine": "mediterranean;european", "name": "Bacc\u00f3 de Cabrera"}}, {"type": "node", "id": 11104580806, "lat": 39.4908616, "lon": 2.8909966, "tags": {"amenity": "restaurant", "name:en": "Vinariam"}}, {"type": "node", "id": 11105732366, "lat": 39.5171293, "lon": 2.7448481, "tags": {"addr:city": "Palma", "addr:housenumber": "3", "addr:postcode": "07610", "addr:street": "carrer de la Missi\u00f3 de Santa B\u00e0rbara", "amenity": "restaurant", "contact:facebook": "https://www.facebook.com/AmadorArenal", "name": "Amador", "phone": "+34971490875"}}, {"type": "node", "id": 11105732367, "lat": 39.5173256, "lon": 2.7451094, "tags": {"addr:city": "Palma", "addr:country": "ES", "addr:housenumber": "22", "addr:postcode": "07610", "addr:street": "Carrer del Lla\u00fct", "amenity": "restaurant", "name": "Mama Mu\u00fa Steakhouse", "phone": "+34971263426", "website": "https://mamamuu-steakhouse.com/mama-muu-pizza/"}}, {"type": "node", "id": 11105732368, "lat": 39.5169771, "lon": 2.7443456, "tags": {"addr:city": "Palma", "addr:housenumber": "43", "addr:postcode": "07610", "addr:street": "carretera de s'Arenal", "amenity": "cafe", "contact:facebook": "https://www.facebook.com/kronemallorca", "indoor_seating": "yes", "name": "Cafeteria zur Krone", "outdoor_seating": "yes", "phone": "+34971264425", "wheelchair": "no"}}, {"type": "node", "id": 11105732369, "lat": 39.5169286, "lon": 2.7444093, "tags": {"amenity": "cafe", "indoor_seating": "yes", "name": "Zur Stube", "outdoor_seating": "yes"}}, {"type": "node", "id": 11105732371, "lat": 39.5171607, "lon": 2.7441536, "tags": {"addr:city": "Palma", "addr:country": "ES", "addr:housenumber": "42", "addr:street": "carretera de s'Arenal", "amenity": "restaurant", "indoor_seating": "yes", "name": "Blau", "outdoor_seating": "yes", "phone": "+34971262085", "website": "https://blaurestaurant.com/wp-content/uploads/2023/03/0-CARTA-REST-FEB-23.pdf", "wheelchair": "yes"}}, {"type": "node", "id": 11107711690, "lat": 39.519687, "lon": 2.7422414, "tags": {"addr:city": "Palma", "addr:country": "ES", "addr:housenumber": "6", "addr:postcode": "07610", "addr:street": "Carrer de la Mar Menor", "amenity": "restaurant", "name": "By Nicole Cafe Mohn", "phone": "+34634339925"}}, {"type": "node", "id": 11107719269, "lat": 39.5194225, "lon": 2.7420485}, {"type": "node", "id": 11107719270, "lat": 39.5195201, "lon": 2.741946}, {"type": "node", "id": 11107719271, "lat": 39.5194323, "lon": 2.7418053}, {"type": "node", "id": 11107719272, "lat": 39.5193346, "lon": 2.7419078}, {"type": "node", "id": 11186110429, "lat": 39.4800332, "lon": 3.1397617}, {"type": "node", "id": 11186110430, "lat": 39.4800822, "lon": 3.1401075}, {"type": "node", "id": 11186110431, "lat": 39.4800896, "lon": 3.1401057}, {"type": "node", "id": 11186110432, "lat": 39.4801012, "lon": 3.1401871}, {"type": "node", "id": 11186110433, "lat": 39.4801662, "lon": 3.1401716}, {"type": "node", "id": 11186110434, "lat": 39.480162, "lon": 3.1401425}, {"type": "node", "id": 11186110435, "lat": 39.4801901, "lon": 3.1401358}, {"type": "node", "id": 11186110436, "lat": 39.4801782, "lon": 3.1400521}, {"type": "node", "id": 11186134937, "lat": 39.4801381, "lon": 3.1400616}, {"type": "node", "id": 11186134938, "lat": 39.4800936, "lon": 3.1397473}, {"type": "node", "id": 11239793141, "lat": 39.5185834, "lon": 2.7441573, "tags": {"amenity": "restaurant", "cuisine": "italian", "name": "Verbano", "wheelchair": "yes"}}, {"type": "node", "id": 11239793204, "lat": 39.519499, "lon": 2.7436972}, {"type": "node", "id": 11239793205, "lat": 39.5195235, "lon": 2.7437343}, {"type": "node", "id": 11239793206, "lat": 39.5194294, "lon": 2.7438388}, {"type": "node", "id": 11239793211, "lat": 39.5191663, "lon": 2.743438}, {"type": "node", "id": 11239793212, "lat": 39.5192595, "lon": 2.7433345}, {"type": "node", "id": 11239793213, "lat": 39.5193326, "lon": 2.7434452}, {"type": "node", "id": 11239805269, "lat": 39.5185765, "lon": 2.7434643}, {"type": "node", "id": 11239805270, "lat": 39.5185627, "lon": 2.7434422}, {"type": "node", "id": 11239805271, "lat": 39.5186241, "lon": 2.7434149}, {"type": "node", "id": 11239805272, "lat": 39.5185474, "lon": 2.7434581}, {"type": "node", "id": 11239805273, "lat": 39.5185023, "lon": 2.7436244}, {"type": "node", "id": 11240821796, "lat": 39.4277678, "lon": 2.7487152}, {"type": "node", "id": 11240821797, "lat": 39.4277691, "lon": 2.7487552}, {"type": "node", "id": 11332519535, "lat": 39.5189233, "lon": 2.7421174, "tags": {"amenity": "restaurant", "indoor_seating": "yes", "name": "Aladin", "outdoor_seating": "yes"}}, {"type": "node", "id": 11360739555, "lat": 39.4886499, "lon": 2.8988072}, {"type": "node", "id": 11360739556, "lat": 39.4886674, "lon": 2.8988289}, {"type": "node", "id": 11360739557, "lat": 39.4885136, "lon": 2.8989765}, {"type": "node", "id": 11360739558, "lat": 39.4884773, "lon": 2.8990189}, {"type": "node", "id": 11360739559, "lat": 39.4885098, "lon": 2.898633}, {"type": "node", "id": 11360739560, "lat": 39.4885276, "lon": 2.8986565}, {"type": "node", "id": 11364236274, "lat": 39.4892334, "lon": 2.8988379}, {"type": "node", "id": 11364236282, "lat": 39.4892286, "lon": 2.8988508}, {"type": "node", "id": 11364236387, "lat": 39.4896739, "lon": 2.898577, "tags": {"amenity": "cafe", "name": "12.53"}}, {"type": "node", "id": 11366046332, "lat": 39.4903037, "lon": 2.8994102}, {"type": "node", "id": 11367098228, "lat": 39.5063613, "lon": 2.7539326, "tags": {"addr:city": "s'Arenal", "addr:housenumber": "269", "addr:postcode": "07600", "addr:street": "Carretera Militar", "amenity": "restaurant", "contact:facebook": "https://www.facebook.com/people/La-Taberna-Del-Quijote/100057094014381/", "cuisine": "pizza;coffee_shop;burger", "diet:chicken": "yes", "diet:mediterranean": "yes", "name": "La Taberna del Quijote", "opening_hours": "Mo-Su 07:00-24:00", "phone": "+34 623393350"}}, {"type": "node", "id": 11378121546, "lat": 39.437908, "lon": 3.0154007}, {"type": "node", "id": 11386514706, "lat": 39.4679453, "lon": 3.1416612, "tags": {"amenity": "restaurant", "cuisine": "regional;spanish", "name": "xino xano", "phone": "+34 971580453"}}, {"type": "node", "id": 11394851815, "lat": 39.4340689, "lon": 3.0118887}, {"type": "node", "id": 11394851816, "lat": 39.434247, "lon": 3.0117202}, {"type": "node", "id": 11394851817, "lat": 39.4342311, "lon": 3.0117531}, {"type": "node", "id": 11394851818, "lat": 39.4342837, "lon": 3.0118388}, {"type": "node", "id": 11413366915, "lat": 39.4301906, "lon": 3.0137688}, {"type": "node", "id": 11413366916, "lat": 39.4302503, "lon": 3.013853}, {"type": "node", "id": 11413366917, "lat": 39.4302026, "lon": 3.0139048}, {"type": "node", "id": 11413366918, "lat": 39.4302175, "lon": 3.0139286}, {"type": "node", "id": 11432168363, "lat": 39.4271382, "lon": 3.0175317}, {"type": "node", "id": 11432168364, "lat": 39.4271375, "lon": 3.0174007}, {"type": "node", "id": 11497901135, "lat": 39.3599821, "lon": 2.9175172}, {"type": "node", "id": 11497901136, "lat": 39.3599963, "lon": 2.9175398}, {"type": "node", "id": 11497901137, "lat": 39.3600398, "lon": 2.9177276}, {"type": "node", "id": 11497901138, "lat": 39.3600463, "lon": 2.9177409}, {"type": "node", "id": 11497901139, "lat": 39.3600324, "lon": 2.9177853}, {"type": "node", "id": 11505941940, "lat": 39.509228, "lon": 2.7512424, "tags": {"amenity": "restaurant", "contact:facebook": "https://www.facebook.com/p/Timbol-Tapas-Bar-Caf%C3%A9-100063559329945", "contact:phone": "+34 638 47 19 28", "name": "Timbol Tapas Bar Caf\u00e9", "wheelchair": "yes"}}, {"type": "node", "id": 11535248488, "lat": 39.3623444, "lon": 2.8357648}, {"type": "node", "id": 11535248489, "lat": 39.3624581, "lon": 2.8356719}, {"type": "node", "id": 11535248490, "lat": 39.3623409, "lon": 2.835575}, {"type": "node", "id": 11535248491, "lat": 39.3623626, "lon": 2.8355936}, {"type": "node", "id": 11535248492, "lat": 39.3623724, "lon": 2.8355785}, {"type": "node", "id": 11535248493, "lat": 39.3623985, "lon": 2.8356011}, {"type": "node", "id": 11535248494, "lat": 39.3622932, "lon": 2.8356631}, {"type": "node", "id": 11535248495, "lat": 39.3623402, "lon": 2.8357045}, {"type": "node", "id": 11535248496, "lat": 39.3624995, "lon": 2.8358857}, {"type": "node", "id": 11535248497, "lat": 39.3626091, "lon": 2.8357069}, {"type": "node", "id": 11535248498, "lat": 39.3625476, "lon": 2.8356498}, {"type": "node", "id": 11535248499, "lat": 39.3624926, "lon": 2.835754}, {"type": "node", "id": 11535248500, "lat": 39.362456, "lon": 2.8357218}, {"type": "node", "id": 11535248501, "lat": 39.3624459, "lon": 2.8356953}, {"type": "node", "id": 11535248502, "lat": 39.3624501, "lon": 2.8357012}, {"type": "node", "id": 11535248503, "lat": 39.3624413, "lon": 2.8357183}, {"type": "node", "id": 11535248504, "lat": 39.3624515, "lon": 2.8357278}, {"type": "node", "id": 11535248505, "lat": 39.3624036, "lon": 2.8356239}, {"type": "node", "id": 11535248506, "lat": 39.362384, "lon": 2.835626}, {"type": "node", "id": 11535248507, "lat": 39.3623967, "lon": 2.8356375}, {"type": "node", "id": 11599313205, "lat": 39.5142761, "lon": 2.7487183, "tags": {"amenity": "restaurant"}}, {"type": "node", "id": 11599313212, "lat": 39.5137205, "lon": 2.748139, "tags": {"amenity": "restaurant"}}, {"type": "node", "id": 11599313213, "lat": 39.5132859, "lon": 2.7483294, "tags": {"amenity": "restaurant"}}, {"type": "node", "id": 11672267976, "lat": 39.5138043, "lon": 2.7481379, "tags": {"addr:housenumber": "40", "addr:postcode": "07600", "addr:street": "Carrer del Lla\u00fct", "amenity": "restaurant", "cuisine": "burger", "name": "Cel Blau", "opening_hours": "Th-Mo 13:00-15:30,19:30-22:30"}}, {"type": "node", "id": 11682797414, "lat": 39.4683255, "lon": 3.1458192}, {"type": "node", "id": 11682797415, "lat": 39.4681718, "lon": 3.145936}, {"type": "node", "id": 11682797416, "lat": 39.4683516, "lon": 3.1457988}, {"type": "node", "id": 11682797417, "lat": 39.4683462, "lon": 3.1457743}, {"type": "node", "id": 11682797418, "lat": 39.4681502, "lon": 3.1458461}, {"type": "node", "id": 11682797419, "lat": 39.468143, "lon": 3.1458741}, {"type": "node", "id": 11685923549, "lat": 39.4713078, "lon": 3.1449898, "tags": {"amenity": "cafe", "name": "Can Moix", "name:ca": "Can Moix"}}, {"type": "node", "id": 11697834648, "lat": 39.5747299, "lon": 3.1199441}, {"type": "node", "id": 11697834649, "lat": 39.5747516, "lon": 3.1200592}, {"type": "node", "id": 11697834650, "lat": 39.5745461, "lon": 3.1203898}, {"type": "node", "id": 11697834651, "lat": 39.5745253, "lon": 3.1204026}, {"type": "node", "id": 11697834652, "lat": 39.5746296, "lon": 3.120596}, {"type": "node", "id": 11697834653, "lat": 39.5746816, "lon": 3.1205506}, {"type": "node", "id": 11697834654, "lat": 39.574623, "lon": 3.1205744}, {"type": "node", "id": 11702322505, "lat": 39.5694588, "lon": 3.0854173, "tags": {"amenity": "cafe", "name": "Can Baleto"}}, {"type": "node", "id": 11703522740, "lat": 39.4938129, "lon": 2.752653, "tags": {"addr:city": "S'Arenal", "addr:postcode": "07600", "addr:street": "Carrer Pere Maim\u00f3", "amenity": "cafe", "cuisine": "coffee_shop;sandwich;spanish", "internet_access": "no", "name": "Bar cafeter\u00eda del Instituto IES S'Arenal", "nohousenumber": "yes", "opening_hours": "mo-fr 08:00-14:00", "outdoor_seating": "yes", "wheelchair": "yes"}}, {"type": "node", "id": 11703588831, "lat": 39.4674576, "lon": 3.1458078, "tags": {"addr:city": "Felanitx", "addr:housenumber": "11", "addr:postcode": "07200", "addr:street": "Pla\u00e7a d'Espanya", "amenity": "restaurant", "name": "Can Felia", "phone": "+34971827699"}}, {"type": "node", "id": 11722174620, "lat": 39.4947982, "lon": 2.7539402}, {"type": "node", "id": 11722174621, "lat": 39.4947277, "lon": 2.7539337}, {"type": "node", "id": 11722174622, "lat": 39.4947019, "lon": 2.7541876}, {"type": "node", "id": 11722174623, "lat": 39.4947732, "lon": 2.7542966}, {"type": "node", "id": 11733697157, "lat": 39.4890846, "lon": 2.8985182}, {"type": "node", "id": 11733697158, "lat": 39.4890449, "lon": 2.898491}, {"type": "node", "id": 11739485288, "lat": 39.4892119, "lon": 2.8988938}, {"type": "node", "id": 11786534375, "lat": 39.4302189, "lon": 3.0139275}, {"type": "node", "id": 11863109208, "lat": 39.5190814, "lon": 2.743172, "tags": {"amenity": "restaurant", "name": "Deutsches Eck"}}, {"type": "node", "id": 11887624769, "lat": 39.3627993, "lon": 2.9452036, "tags": {"amenity": "restaurant", "name": "Da Vinci"}}, {"type": "node", "id": 11951622870, "lat": 39.5228614, "lon": 2.7379599, "tags": {"addr:housenumber": "18", "addr:postcode": "07610", "addr:street": "carretera de s'Arenal", "amenity": "restaurant", "name": "Ginger Beach", "opening_hours": "Mo-Su 10:00-00:00", "website": "https://enjoygroup.es/ginger-beach/"}}, {"type": "node", "id": 11954646033, "lat": 39.3310301, "lon": 3.1700859, "tags": {"addr:city": "Cala Figuera", "addr:housenumber": "42", "addr:postcode": "07659", "addr:street": "Carrer Verge del Carme", "amenity": "restaurant", "check_date:currency:XBT": "2024-07-27", "currency:EUR": "yes", "currency:XBT": "yes", "name": "el momento del mar", "payment:cash": "yes", "payment:coinos": "yes", "payment:lightning": "yes", "payment:lightning_contactless": "yes", "payment:onchain": "yes", "phone": "+34 667971868", "survey:date": "2024-06-03"}}, {"type": "node", "id": 11983858022, "lat": 39.4709724, "lon": 3.1549272, "tags": {"amenity": "restaurant", "name": "Estrag\u00f3n"}}, {"type": "node", "id": 12009251229, "lat": 39.4325246, "lon": 3.0187635, "tags": {"addr:city": "Campos", "addr:housenumber": "11", "addr:postcode": "07630", "addr:street": "carrer de sa Creu", "amenity": "restaurant", "cuisine": "pizza", "diet:gluten_free": "yes", "name": "Suky Pizza", "phone": "+34871251701"}}, {"type": "node", "id": 12043450071, "lat": 39.4907947, "lon": 2.8910876, "tags": {"addr:housenumber": "58", "addr:postcode": "07620", "addr:street": "Pla\u00e7a d'Espanya", "amenity": "restaurant", "internet_access": "wlan", "name": "Il Gambero", "phone": "+34971635449"}}, {"type": "node", "id": 12072338306, "lat": 39.513101, "lon": 2.747767, "tags": {"amenity": "cafe", "name": "Levita"}}, {"type": "node", "id": 12073977394, "lat": 39.3861777, "lon": 3.1611353, "tags": {"amenity": "restaurant", "check_date": "2024-07-25", "cuisine": "pizza;italian", "diet:vegetarian": "yes", "name": "L'Aurora", "outdoor_seating": "yes", "phone": "+34 691 84 26 96", "reservation": "recommended", "toilets": "yes"}}, {"type": "node", "id": 12076473661, "lat": 39.3401928, "lon": 3.0960777, "tags": {"amenity": "restaurant", "check_date": "2024-07-27", "cuisine": "tapas;spanish;argentinian;burger", "name": "Perla Negra", "opening_hours": "Mo-Tu,Th-Su 16:00-23:00; We off", "payment:cash": "yes", "payment:credit_cards": "yes", "payment:debit_cards": "yes", "phone": "+34 650 52 17 28", "toilets": "yes"}}, {"type": "node", "id": 12076679334, "lat": 39.4293716, "lon": 3.0202103, "tags": {"addr:housenumber": "10", "addr:street": "Carrer de Santany\u00ed", "amenity": "restaurant", "cuisine": "italian;mediterranean", "email": "arsvivendi@gmx.com", "name": "El Casale", "phone": "+34 686 192 340", "reservation": "yes", "website": "https://www.elcasale-campos.com/"}}, {"type": "node", "id": 12187524737, "lat": 39.5232682, "lon": 2.7396254}, {"type": "node", "id": 12187524738, "lat": 39.5231019, "lon": 2.739795}, {"type": "node", "id": 12187524739, "lat": 39.5230014, "lon": 2.7396294}, {"type": "node", "id": 12187524740, "lat": 39.5231678, "lon": 2.7394598}, {"type": "node", "id": 12187524762, "lat": 39.5139426, "lon": 2.7468861, "tags": {"amenity": "restaurant", "cuisine": "kebab", "name": "Grill La Era"}}, {"type": "node", "id": 12213891733, "lat": 39.4322883, "lon": 2.7559226, "tags": {"addr:city": "llucmajor", "addr:housenumber": "2b", "addr:postcode": "07609", "addr:street": "carrer de Venus", "addr:unit": "2b", "amenity": "cafe", "cuisine": "coffee_shop", "internet_access": "yes", "internet_access:fee": "yes", "name": "Cafeteria Do\u00f1a Pepa", "opening_hours": "Mo-Su 09:00-21:00", "outdoor_seating": "yes", "phone": "+34 66684727", "website": "no tenemos"}}, {"type": "node", "id": 12280966652, "lat": 39.4977403, "lon": 2.754624, "tags": {"addr:city": "s'Arenal", "addr:postcode": "07600", "addr:street": "Avinguda d'Europa", "amenity": "restaurant", "cuisine": "burger", "internet_access": "wlan", "name": "Sa foganya", "outdoor_seating": "yes", "phone": "971 440 931", "takeaway": "yes", "toilets": "yes", "website": "http://safoganya.com/", "website:menu": "http://safoganya.com/nuestra-carta", "wheelchair": "yes"}}, {"type": "node", "id": 12317741292, "lat": 39.4941721, "lon": 2.7531681, "tags": {"amenity": "restaurant"}}, {"type": "node", "id": 12317741293, "lat": 39.4942055, "lon": 2.7531799, "tags": {"amenity": "cafe"}}, {"type": "node", "id": 12323914021, "lat": 39.5089247, "lon": 2.7534993, "tags": {"addr:housenumber": "6", "addr:street": "Carrer Gaspar Rul\u00b7lan", "amenity": "restaurant", "cuisine": "international;colombian", "name": "La fonda chaval"}}, {"type": "node", "id": 12596453716, "lat": 39.5184139, "lon": 2.7443218, "tags": {"addr:city": "Playa de Palma", "addr:housenumber": "23", "addr:postcode": "07610", "addr:street": "Carrer del Lla\u00fct", "amenity": "cafe", "name": "Canela y Az\u00facar", "outdoor_seating": "yes", "website": "https://canelayazucar-palmabeach.com/", "wheelchair": "yes"}}, {"type": "node", "id": 12648227776, "lat": 39.317717, "lon": 2.9923594, "tags": {"addr:housenumber": "23", "addr:street": "Carrer Sa Solta", "amenity": "cafe", "name": "Peponazo", "opening_hours": "Mo-Fr 09:00-17:00", "website": "https://pedimosapp.com/"}}, {"type": "node", "id": 12818991001, "lat": 39.5191583, "lon": 2.7434823}, {"type": "node", "id": 12818991002, "lat": 39.5194087, "lon": 2.7438617}, {"type": "node", "id": 12818991004, "lat": 39.5192495, "lon": 2.743346}, {"type": "way", "id": 53806055, "nodes": [679230968, 3372199749, 3372199750, 3372199751, 3372199752, 3372199753, 3372199747, 679230969, 3372199746, 679230967, 679230965, 3372199754, 3372199755, 679230968], "tags": {"addr:city": "Llucmajor", "addr:country": "ES", "addr:milestone": "km 24", "addr:postcode": "07620", "amenity": "restaurant", "building": "yes", "building:levels": "1", "contact:phone": "+34 971 123002", "cuisine": "regional", "name": "Cas Busso", "opening_hours": "Mo-Su 09:00-23:00", "outdoor_seating": "yes", "toilets:wheelchair": "yes", "wheelchair": "limited"}}, {"type": "way", "id": 61232321, "nodes": [765318967, 765319068, 765319040, 765319018, 765319082, 765319062, 765318967], "tags": {"addr:housenumber": "9", "addr:postcode": "07500", "addr:street": "Via Palma", "amenity": "restaurant", "building": "yes", "check_date": "2025-01-04", "disused:shop": "leather", "name": "Ca n'Antonio", "old_name": "Perpiel", "old_name:en": "Majorca Pearls"}}, {"type": "way", "id": 84802931, "nodes": [984677209, 984677068, 984677359, 984677473, 984677284, 984677340, 984677197, 984677209], "tags": {"amenity": "restaurant", "building": "yes", "name": "Restaurante Club N\u00e0utic de Sa R\u00e0pita", "phone": "+34 971 64 04 13", "source": "ideib WMS layer+cadastre"}}, {"type": "way", "id": 143293507, "nodes": [1568060529, 1568060530, 1568060526, 1568060524, 2769099004, 11697834653, 11697834654, 11697834652, 1568060519, 11697834651, 11697834650, 1568060513, 2769099003, 2769099002, 1568060522, 1568060517, 1568060515, 1568060521, 1568060523, 11697834648, 11697834649, 2769099001, 1568060525, 1568060529], "tags": {"amenity": "restaurant", "building": "yes", "cuisine": "mallorquina", "name": "Es Cruce", "source": "ideib WMS;survey"}}, {"type": "way", "id": 157608900, "nodes": [1698574224, 1698574270, 1698574241, 1698574211, 1698574224], "tags": {"amenity": "cafe", "building": "yes", "indoor_seating": "yes", "name": "Auba Caf\u00e9", "outdoor_seating": "veranda", "wheelchair": "no"}}, {"type": "way", "id": 157748465, "nodes": [1700012859, 1700012847, 1700012862, 1700012872, 1700012859], "tags": {"addr:housenumber": "21", "addr:street": "Carrer Major", "amenity": "restaurant", "building": "yes", "cuisine": "mediterranean;spanish", "name": "Cassai", "website": "https://cassaibeachhouse.com/"}}, {"type": "way", "id": 158199569, "nodes": [1704327213, 1704327210, 1704327224, 1704327239, 1704327213], "tags": {"amenity": "restaurant", "building": "yes", "name": "Playa", "tourism": "hostel"}}, {"type": "way", "id": 158610196, "nodes": [1707741816, 1707741797, 1707741796, 1707741799, 1707741798, 1707741805, 1707741803, 1707741801, 1707741800, 1707741807, 1707741809, 1707741811, 1707741816], "tags": {"amenity": "restaurant", "building": "yes", "cuisine": "spanish", "name": "Sa Pamboleria", "opening_hours": "Mo-Su 13:00-24:00"}}, {"type": "way", "id": 158610261, "nodes": [1707741498, 1707741494, 1707741497, 1707741499, 1707741502, 1707741498], "tags": {"amenity": "restaurant", "building": "yes", "check_date": "2022-09-24", "cuisine": "italian", "indoor_seating": "yes", "internet_access": "wlan", "internet_access:fee": "customers", "name": "Pizzeria Vesuvio", "opening_hours": "Mo-Su 13:00-15:00,19:00-22:00", "outdoor_seating": "terrace", "payment:mastercard": "yes", "payment:visa": "yes", "phone": "+34 971 65 62 41", "website": "https://www.qrtop.eu/vesuvio/cartaal.html", "wheelchair": "no"}}, {"type": "way", "id": 184604707, "nodes": [1951023288, 1951023290, 1951023257, 1951023253, 1951023288], "tags": {"amenity": "cafe", "building": "yes", "check_date:opening_hours": "2024-10-10", "name:signed": "no", "opening_hours:signed": "no"}}, {"type": "way", "id": 202265414, "nodes": [2122398866, 2122398503, 2122398897, 2122398518, 2122398866], "tags": {"amenity": "restaurant", "building": "yes", "name": "Vegas"}}, {"type": "way", "id": 202265417, "nodes": [2122398794, 2122398646, 2122398966, 2122398823, 2122398794], "tags": {"amenity": "cafe", "building": "yes", "name": "Scharfes Eck"}}, {"type": "way", "id": 202265419, "nodes": [2122398517, 2122398797, 2122398807, 2122398864, 2122398890, 2122398982, 2122398517], "tags": {"amenity": "restaurant", "building": "yes", "name": "Grillmeister", "wheelchair": "no"}}, {"type": "way", "id": 208750877, "nodes": [2190109668, 2190109713, 2190109677, 2190109667, 2190109634, 2190109613, 2190109668], "tags": {"amenity": "restaurant", "building": "yes", "name": "es Coc"}}, {"type": "way", "id": 208786600, "nodes": [2190472696, 2190472640, 2190472607, 2190472590, 2190472581, 2190472598, 2190472623, 2190472629, 2190472613, 2190472650, 2190472696], "tags": {"amenity": "restaurant", "building": "yes", "name": "sa Picada"}}, {"type": "way", "id": 210309014, "nodes": [2203953721, 2203953677, 2203953738, 2203953733, 2203953790, 2203953804, 2203953816, 2203953868, 2203953908, 2203953955, 2203953870, 2203953748, 2203953774, 2203953721], "tags": {"amenity": "cafe", "building": "yes", "name": "Can Vadell"}}, {"type": "way", "id": 210894425, "nodes": [2209241261, 2209241259, 2209241256, 2209241253, 2209241252, 2209241250, 2209241247, 2209241244, 2209241240, 2209241241, 2209241231, 2209241232, 2209241225, 2209241224, 2209241221, 2209241222, 2209241212, 2209241230, 2209241229, 2209241233, 2209241237, 2209241248, 2209241261], "tags": {"amenity": "restaurant", "building": "yes", "name": "l'Arcada", "name:ca": "l'Arcada"}}, {"type": "way", "id": 210894429, "nodes": [2209241264, 2209241263, 2209241257, 2209241260, 2209241255, 2209241258, 2209241254, 2209241262, 2209241264], "tags": {"amenity": "restaurant", "building": "yes", "name": "Asadito"}}, {"type": "way", "id": 211132044, "nodes": [2211353321, 2211353313, 2211353316, 2211353323, 2211353321], "tags": {"amenity": "restaurant", "building": "yes", "name": "Cantina", "name:ca": "Cantina"}}, {"type": "way", "id": 212469334, "nodes": [2223151036, 2223151045, 7362592856, 2223151027, 2223151033, 7362592857, 7362592858, 2223151029, 2223151025, 2223151009, 2223151018, 2223151040, 2223151010, 2223151037, 2223151036], "tags": {"addr:street": "Cam\u00ed de les Meravelles", "amenity": "restaurant", "building": "yes", "contact:website": "http://www.cantorrat.com/", "name": "Ca'n Torrat"}}, {"type": "way", "id": 214354004, "nodes": [2239133428, 2239133418, 2239133414, 2239133413, 2239133408, 2239133394, 2239133393, 2239133397, 2239133410, 2239133416, 2239133428], "tags": {"amenity": "restaurant", "building": "yes", "cuisine": "french", "internet_access": "wlan", "internet_access:fee": "no", "name": "Petit Iglesia", "smoking": "yes"}}, {"type": "way", "id": 214410629, "nodes": [2239576404, 2239576407, 2239576378, 2239576376, 2239576370, 2239576277, 2239576297, 2239576305, 2239576310, 2239576312, 2239576315, 2239576320, 2239576323, 2239576326, 2239576329, 2239576335, 2239576338, 2239576341, 2239576345, 2239576343, 2239576346, 2239576356, 2239576366, 2239576368, 2239576372, 2239576375, 2239576414, 2239576404], "tags": {"amenity": "restaurant", "building": "yes", "name": "Con Calma", "name:ca": "Con Calma", "opening_hours": "Sa-Th 18:30-23:30"}}, {"type": "way", "id": 244135380, "nodes": [2514848243, 2514848239, 2514848236, 2514848232, 2514848228, 2514848238, 2514848241, 2514848242, 2514848243], "tags": {"amenity": "restaurant", "building": "yes", "name": "Varadero"}}, {"type": "way", "id": 259184367, "nodes": [2645402576, 2645402578, 2645402580, 2645402582, 2645402581, 2645402583, 2645402577, 2645402572, 2645402574, 2645402573, 2645402575, 2645402571, 2645402576], "tags": {"amenity": "restaurant", "building": "yes", "cuisine": "italian", "name": "Bella Italia", "outdoor_seating": "yes", "wheelchair": "limited"}}, {"type": "way", "id": 265654196, "nodes": [2712866684, 2712866685, 2712866687, 11497901137, 11497901138, 2712866688, 2712866689, 11497901139, 2712866690, 2712866693, 2712866694, 11497901136, 11497901135, 2712866684], "tags": {"amenity": "restaurant", "building": "yes", "name": "Restaurant Club N\u00e0utic s\u2019Estanyol"}}, {"type": "way", "id": 289809261, "nodes": [2933477647, 9920766239, 2933477648, 9920766238, 9920766237, 2933477649, 2933477650, 2933477653, 2933477655, 2933477656, 2933477647], "tags": {"amenity": "restaurant", "building": "yes", "check_date": "2025-01-26", "name": "s'Hostal", "name:ca": "s'Hostal"}}, {"type": "way", "id": 307875589, "nodes": [3131065952, 3131065951, 3131065943, 3131065932, 3131065944, 3131065930, 3131062427, 3131065947, 3131062428, 3131065949, 3131065952], "tags": {"amenity": "restaurant", "building": "yes", "name": "Es Pexinet", "operator": "Son Antem, Autograph Collection", "source": "Bing"}}, {"type": "way", "id": 311421380, "nodes": [3170594588, 3170594589, 3170594590, 3170594591, 7801496354, 3170594588], "tags": {"amenity": "cafe", "building": "yes", "name": "Tolleric", "wikidata": "Q18008356", "wikipedia": "ca:Tolleric (possessi\u00f3)"}}, {"type": "way", "id": 333966703, "nodes": [3410392514, 3410392515, 3410392516, 3410392517, 3410392518, 3410392519, 3410392514], "tags": {"amenity": "restaurant", "building": "yes", "cuisine": "pizza", "name": "Coyote"}}, {"type": "way", "id": 348594209, "nodes": [3546878645, 3546878646, 3546878647, 3546878648, 3546878645], "tags": {"addr:street": "Carrer des Murters", "amenity": "restaurant", "building": "yes", "contact:email": "norteysurmallorca@gmail.com", "name": "Noray", "nohousenumber": "yes", "opening_hours": "Mo-Su 09:00-24:00", "phone": "+34 971 641 065", "website": "https://norayestrenc.com/"}}, {"type": "way", "id": 351683065, "nodes": [3574995396, 3574995397, 3574995398, 3783835166, 3574995399, 3783835165, 3574995396], "tags": {"amenity": "restaurant", "building": "yes", "name": "Los Melones"}}, {"type": "way", "id": 351944845, "nodes": [3577445545, 3577445546, 3577445547, 3577445548, 3577445545], "tags": {"amenity": "restaurant", "building": "yes", "name": "Sa Travessia"}}, {"type": "way", "id": 353897995, "nodes": [3596884399, 3596884400, 3596884401, 3596884402, 3596884403, 3596884404, 3596884405, 3596884406, 3596884399], "tags": {"amenity": "restaurant", "building": "yes", "name": "Son Colom", "name:ca": "Son Colom"}}, {"type": "way", "id": 358442776, "nodes": [3633595054, 3633595055, 3633595056, 3633595057, 3633595058, 3633595059, 3633595060, 3633595061, 3633595062, 3633595063, 3633595054], "tags": {"amenity": "restaurant", "building": "yes", "check_date": "2025-03-16", "name": "Bar restaurant Es Revolt"}}, {"type": "way", "id": 358444266, "nodes": [3633619255, 3633619256, 3633619257, 3633619258, 3633619259, 3633619260, 3633619261, 3633619262, 3633619263, 3633619264, 3633619255], "tags": {"amenity": "restaurant", "building": "yes", "name": "Es Creuers", "opening_hours": "closed"}}, {"type": "way", "id": 358444267, "nodes": [3633619265, 3633619266, 3633619267, 3633619268, 3633619269, 3633619271, 3633619270, 3633619265], "tags": {"amenity": "restaurant", "building": "yes", "name": "Es Sortidor"}}, {"type": "way", "id": 362273330, "nodes": [3666105782, 3666105783, 11360739555, 11360739556, 3666105784, 11360739557, 11360739558, 3666105785, 5824636311, 3666105782], "tags": {"amenity": "restaurant", "building": "yes", "name": "Hollister Bash"}}, {"type": "way", "id": 363221087, "nodes": [3673967259, 3673967286, 3673967257, 3690145898, 3673967266, 3673967263, 3673967272, 3673967289, 3673967284, 3673967254, 3673967269, 3673967281, 3673967259], "tags": {"amenity": "restaurant", "building": "yes", "website": "https://www.safranquesa.com/"}}, {"type": "way", "id": 370843396, "nodes": [3745217617, 3745217618, 7386020241, 7386020240, 3745217619, 3745217620, 3745217621, 3745217624, 3745217617], "tags": {"amenity": "restaurant", "building": "yes", "name": "Panor\u00e0mica"}}, {"type": "way", "id": 373983889, "nodes": [3773988346, 3773988347, 3773988348, 3773988349, 3773988346], "tags": {"amenity": "restaurant", "building": "yes", "cuisine": "regional", "name": "Mol\u00ed de Sal"}}, {"type": "way", "id": 385771917, "nodes": [3891068151, 3891068152, 3891068147, 3891068148, 3891068149, 3891068150, 3891068156, 3891068143, 3891068153, 3891068154, 3891068155, 3891068151], "tags": {"amenity": "restaurant", "name": "Mol\u00ed d'en Pere"}}, {"type": "way", "id": 386374151, "nodes": [3896945612, 3896945613, 3896945614, 3896945615, 3896945612], "tags": {"amenity": "restaurant", "building": "yes", "name": "Ca na Miquela de ses Teuleres"}}, {"type": "way", "id": 386582554, "nodes": [3899205723, 3899205724, 11432168363, 3899205725, 3899205726, 11432168364, 3899205723], "tags": {"addr:city": "Campos", "addr:housenumber": "18", "addr:postcode": "07630", "addr:street": "ronda de l'Estaci\u00f3", "amenity": "restaurant", "building": "yes", "name": "sa Canova"}}, {"type": "way", "id": 390879915, "nodes": [3940309784, 3940309785, 3940309786, 3940309787, 3940309788, 11535248488, 3940309789, 11535248495, 11535248494, 11535248490, 11535248491, 11535248492, 11535248493, 11535248506, 11535248507, 11535248505, 11535248489, 11535248501, 11535248502, 11535248503, 11535248504, 11535248500, 11535248499, 11535248498, 11535248497, 11535248496, 3940309784], "tags": {"amenity": "restaurant", "building": "yes", "name": "Miguel"}}, {"type": "way", "id": 390881591, "nodes": [3940324541, 3940324542, 3940324543, 3940324544, 3940324541], "tags": {"amenity": "restaurant", "building": "yes", "name": "sa Terrassa", "name:es": "Sa Terrassa", "opening_hours": "Su-Fr 12:00-16:00, 19:30-23:55"}}, {"type": "way", "id": 390890707, "nodes": [3940426746, 3940426747, 3940426748, 3940426749, 3940426746], "tags": {"addr:city": "Campos", "addr:housenumber": "46", "addr:postcode": "07630", "addr:street": "carrer de sa R\u00e0pita", "amenity": "cafe", "building": "yes", "name": "Barcel\u00f3", "name:ca": "Barcel\u00f3"}}, {"type": "way", "id": 390890708, "nodes": [3940426747, 11413366915, 11413366916, 11413366917, 11786534375, 11413366918, 3940426752, 3940426748, 3940426747], "tags": {"addr:city": "Campos", "addr:housenumber": "44", "addr:postcode": "07630", "addr:street": "carrer de sa R\u00e0pita", "amenity": "restaurant", "building": "yes", "name": "es Brot"}}, {"type": "way", "id": 390957065, "nodes": [3941112074, 3941112075, 3941112076, 3941112077, 7875266715, 3941112074], "tags": {"amenity": "restaurant", "building": "yes", "check_date": "2023-05-17", "name": "Celler"}}, {"type": "way", "id": 392561448, "nodes": [3957773860, 3957773861, 3957773862, 3957773863, 3957773860], "tags": {"amenity": "cafe", "building": "yes", "name": "Ca s'Arrosser"}}, {"type": "way", "id": 393243565, "nodes": [3964568331, 3964568332, 3964568333, 3964568334, 3964568331], "tags": {"amenity": "restaurant", "building": "yes", "name": "Bonanza"}}, {"type": "way", "id": 397134236, "nodes": [3999533085, 3999533086, 3999533087, 3999533088, 3999533085], "tags": {"amenity": "restaurant", "building": "yes", "check_date": "2025-01-26", "name": "Son Basc\u00f3s", "name:ca": "Son Basc\u00f3s"}}, {"type": "way", "id": 398866420, "nodes": [4016044947, 4016044948, 4016044949, 4016044950, 4016044947], "tags": {"amenity": "cafe", "building": "yes", "name": "Can Bernad\u00ed", "name:ca": "Can Bernad\u00ed"}}, {"type": "way", "id": 398866421, "nodes": [4016044951, 4016044952, 4016044953, 4016044954, 4016044955, 4016044956, 4016044951], "tags": {"amenity": "restaurant", "building": "yes", "name": "mol\u00ed del Bon Profit"}}, {"type": "way", "id": 399316705, "nodes": [4020518498, 4020518499, 4020518508, 11065113144, 4020518507, 4020518498], "tags": {"addr:city": "Ses Salines", "addr:housenumber": "5", "addr:postcode": "07640", "addr:street": "Carrer Sitjar", "amenity": "restaurant", "building": "yes", "name": "Cassai", "website": "https://cassai.es"}}, {"type": "way", "id": 404467956, "nodes": [4067510742, 4067510743, 4067510744, 4067510745, 10951436800, 10951436801, 10951436802, 10951436803, 4067510742], "tags": {"amenity": "restaurant", "building": "yes", "name": "Galdent", "name:ca": "Galdent", "wikidata": "Q11923704", "wikipedia": "ca:Galdent"}}, {"type": "way", "id": 408016826, "nodes": [4100395280, 4100395281, 4100395282, 4100395283, 4100395284, 4100395285, 4100395286, 4100395287, 4100395280], "tags": {"amenity": "restaurant", "building": "yes", "name": "Hortella d'en Cotanet"}}, {"type": "way", "id": 413055870, "nodes": [4143873540, 4143873541, 4143873542, 4143873543, 4143873540], "tags": {"amenity": "cafe", "building": "yes", "check_date": "2023-05-17", "name": "Ca n'Eusebio"}}, {"type": "way", "id": 419322210, "nodes": [4194121390, 4194121391, 4194121392, 4194121393, 4194121390], "tags": {"amenity": "restaurant", "building": "yes", "name": "Cent 80"}}, {"type": "way", "id": 419322211, "nodes": [4194121394, 4194121395, 4194121396, 4194121397, 4194121394], "tags": {"amenity": "restaurant", "building": "yes", "check_date": "2025-01-26", "name": "ses Jardines"}}, {"type": "way", "id": 421752719, "nodes": [4215001994, 4215001995, 4215001996, 4215001997, 4215001998, 9594315914, 9594315915, 9594315916, 9594340517, 9594340518, 9594340519, 9594340520, 9594340521, 9594340522, 9594340523, 9594340524, 4215001999, 9594340525, 4215001994], "tags": {"amenity": "restaurant", "building": "yes", "name": "Bah\u00eda beach club"}}, {"type": "way", "id": 421752728, "nodes": [4215002031, 4215002032, 4215002033, 4215002034, 4215002031], "tags": {"amenity": "restaurant", "building": "yes", "name": "T\u00e1ntalo"}}, {"type": "way", "id": 421752729, "nodes": [4215002035, 4215002019, 4215002015, 4215002036, 4215002035], "tags": {"amenity": "cafe", "building": "yes"}}, {"type": "way", "id": 421752730, "nodes": [4215002037, 4215002038, 4215002039, 4215002000, 4215002037], "tags": {"amenity": "cafe", "building": "yes"}}, {"type": "way", "id": 421752731, "nodes": [4215002040, 4215002041, 4215002042, 11240821797, 11240821796, 4215002043, 4215002040], "tags": {"amenity": "cafe", "building": "yes", "name": "D\u00edver"}}, {"type": "way", "id": 422029349, "nodes": [4217513272, 4217513273, 4217513274, 4217513275, 4217513272], "tags": {"amenity": "restaurant", "building": "yes", "name": "Rinc\u00f3n Gallego"}}, {"type": "way", "id": 424214523, "nodes": [4236742739, 4236742740, 4236742741, 4236742742, 4236742739], "tags": {"amenity": "restaurant", "building": "house", "cuisine": "regional", "name": "es Refugi de s'\u00c0guila", "phone": "+34 608 64 30 33"}}, {"type": "way", "id": 438832444, "nodes": [4364876029, 4364876030, 4364876031, 4364876033, 4364876029], "tags": {"amenity": "restaurant", "bar": "yes", "building": "yes", "check_date": "2024-07-25", "contact:instagram": "https://www.instagram.com/chiringuitopurecalallombards/", "cuisine": "regional;spanish", "highchair": "no", "indoor_seating": "no", "level": "0", "name": "Chiringuito Pure", "opening_hours": "\"when the door is open\"", "outdoor_seating": "yes", "payment:cash": "yes", "payment:credit_cards": "yes", "payment:debit_cards": "yes", "phone": "+34 673 54 88 86", "reservation": "recommended", "takeaway": "yes", "toilets": "yes", "wheelchair": "limited"}}, {"type": "way", "id": 440201908, "nodes": [4379222370, 4379222377, 4379222380, 4379222382, 4379222384, 4379222378, 4379222381, 4379222376, 4379222375, 4379222371, 4379222374, 4379222370], "tags": {"addr:city": "Col\u00f2nia de Sant Jordi", "addr:housenumber": "23", "addr:postcode": "07638", "addr:street": "Avinguda Primavera", "amenity": "restaurant", "building": "yes", "cuisine": "burger;german", "name": "Restaurante Miquel", "opening_hours": "Mo-Su 13:00-23:30; Th off", "phone": "+34971655215"}}, {"type": "way", "id": 440201916, "nodes": [4379222399, 4379222396, 4379222400, 4379222404, 4379222399], "tags": {"amenity": "restaurant", "building": "yes", "cuisine": "mexican", "name": "Bodeguita Cubano"}}, {"type": "way", "id": 440201921, "nodes": [4379222339, 4379222346, 4379222340, 4379222334, 4379222339], "tags": {"addr:housenumber": "31", "addr:street": "Avinguda Primavera", "amenity": "restaurant", "building": "yes", "cuisine": "indian", "name": "Primavera", "name:ca": "Primavera"}}, {"type": "way", "id": 440201922, "nodes": [4379222343, 4379222335, 4379222330, 4379222327, 4379222332, 4379222343], "tags": {"amenity": "restaurant", "building": "yes", "cuisine": "italian", "name": "Monte"}}, {"type": "way", "id": 446572647, "nodes": [4438162897, 4438162898, 4438162899, 4438162900, 4438162901, 4438162902, 4438162897], "tags": {"amenity": "restaurant", "building": "yes", "name": "Rancho Colorado"}}, {"type": "way", "id": 447906384, "nodes": [4449630447, 4449630448, 4449630449, 4449630450, 4449630447], "tags": {"amenity": "cafe", "building": "yes", "name": "es Vici"}}, {"type": "way", "id": 474202004, "nodes": [4682069630, 4682069631, 4682069632, 6023613191, 6023613189, 6023613188, 6023613187, 4682069633, 4682069634, 4682069635, 4682069630], "tags": {"amenity": "cafe", "building": "yes", "name": "Sitt"}}, {"type": "way", "id": 481420296, "nodes": [4743568396, 7431160533, 7431160532, 4743568397, 4743568398, 4743568399, 4743568400, 4743568396], "tags": {"amenity": "restaurant", "building": "yes", "name": "es Centre"}}, {"type": "way", "id": 494393606, "nodes": [4861534839, 4861534840, 9703118332, 9703118335, 9703118334, 9703118333, 9703118336, 9703118337, 4861534841, 4861534842, 4861534843, 4861534844, 4861534839], "tags": {"amenity": "restaurant", "building": "yes", "name": "Don Caracol"}}, {"type": "way", "id": 507854462, "nodes": [3940448379, 4972794591, 4972794592, 4972794593, 4972794594, 4972794595, 4972794596, 4972794597, 3940448379], "tags": {"amenity": "cafe", "building": "yes", "name": "El Coto", "name:ca": "El Coto"}}, {"type": "way", "id": 515540726, "nodes": [4379222341, 5034521670, 5034521669, 4379222344, 4379222341], "tags": {"addr:housenumber": "60", "addr:street": "Avinguda Primavera", "amenity": "restaurant", "building": "yes", "cuisine": "italian", "name": "Pizzeria 44"}}, {"type": "way", "id": 544652305, "nodes": [5264723532, 5264723533, 5264723525, 5264723534, 5264723535, 5264723536, 5264723532], "tags": {"amenity": "cafe", "building": "yes", "name": "Bar Camp d'esports"}}, {"type": "way", "id": 575053384, "nodes": [5518603591, 5518603592, 5518603593, 5518603594, 5518603595, 5518603596, 5518603597, 5518603598, 5518603599, 5518603600, 5518603601, 5518603602, 5518603591], "tags": {"amenity": "restaurant", "building": "yes", "name": "Ca s'Hereu", "name:ca": "Ca s'Hereu"}}, {"type": "way", "id": 575226811, "nodes": [5520108823, 5520108824, 5520108825, 5520108826, 5520108823], "tags": {"amenity": "restaurant", "building": "yes", "name": "Mhares"}}, {"type": "way", "id": 601322058, "nodes": [5715345814, 5715345815, 5715345816, 5715345817, 5715345818, 5715345819, 5715345820, 5715347121, 5715347122, 5715347123, 5715347124, 5715347125, 5715347126, 5715347127, 5715345814], "tags": {"amenity": "restaurant", "building": "yes", "name": "Cala Blava", "name:ca": "Cala Blava", "wikidata": "Q11910853", "wikimedia_commons": "Category:Cala Blava", "wikipedia": "ca:Cala Mosques"}}, {"type": "way", "id": 610327441, "nodes": [5780430729, 5780430730, 5780430731, 5780430732, 5780430729], "tags": {"amenity": "restaurant", "building": "yes", "name": "La Terraza"}}, {"type": "way", "id": 616031761, "nodes": [5824636297, 5824636298, 5824636299, 5824636300, 5824636297], "tags": {"amenity": "restaurant", "building": "yes", "name": "Tropical"}}, {"type": "way", "id": 616031763, "nodes": [3666105782, 5824636309, 11360739559, 11360739560, 5824636310, 5824636311, 3666105782], "tags": {"amenity": "restaurant", "building": "yes", "name": "El Pato Pek\u00edn"}}, {"type": "way", "id": 633374634, "nodes": [5978810722, 5978810723, 5978810724, 5978810725, 5978810722], "tags": {"addr:city": "Playa de Palma", "addr:postcode": "07600", "addr:street": "Avinguda America", "amenity": "restaurant", "building": "yes", "cuisine": "greek;mediterranean;european", "name": "Atenas", "outdoor_seating": "yes", "phone": "+34 971 49 17 58", "wheelchair": "yes"}}, {"type": "way", "id": 669410400, "nodes": [6268609039, 6268609040, 6268609041, 6268609042, 6268609043, 6268609044, 6268609045, 6268609046, 6268609039], "tags": {"amenity": "restaurant", "building": "yes", "name": "Can Pel\u00edn"}}, {"type": "way", "id": 677590431, "nodes": [6344471481, 6344471480, 6344471479, 6344471478, 6344471481], "tags": {"addr:housenumber": "215", "addr:street": "Carretera Militar", "amenity": "restaurant", "cuisine": "regional", "name": "Corb Mar\u00ed", "outdoor_seating": "yes", "phone": "+34 971598345"}}, {"type": "way", "id": 714728098, "nodes": [6718228089, 6718228090, 6718228091, 6718228092, 6718228093, 6718228094, 6718228095, 6718228089], "tags": {"amenity": "restaurant", "building": "yes", "name": "Can Senalla", "name:ca": "Can Senalla"}}, {"type": "way", "id": 738876601, "nodes": [6918271937, 6918271938, 6918271939, 6918271940, 6918271937], "tags": {"amenity": "restaurant", "building": "yes", "name": "Espira de foc"}}, {"type": "way", "id": 746223640, "nodes": [6983313210, 11394851816, 11394851817, 6983313211, 11394851818, 6983313212, 6983313213, 11394851815, 6983313210], "tags": {"amenity": "restaurant", "building": "yes", "name": "Can Toni", "name:ca": "Can Toni"}}, {"type": "way", "id": 779708064, "nodes": [7281022418, 11364236274, 11364236282, 11739485288, 7281022419, 7281022420, 7281022421, 7281022422, 7281022423, 11733697158, 11733697157, 7281022424, 7281022418], "tags": {"amenity": "restaurant", "building": "yes", "check_date": "2023-05-17", "name": "Can Ti\u00e0 Taleca"}}, {"type": "way", "id": 787482902, "nodes": [4438190378, 7362742780, 7362742781, 7362742782, 7362742783, 7362742784, 4438190378], "tags": {"addr:street": "carrer N", "amenity": "restaurant", "building": "yes", "name": "es Mol\u00ed d'en Tem"}}, {"type": "way", "id": 791548268, "nodes": [7399814547, 11057632840, 7399814548, 7399814549, 7399814550, 11057632838, 7399814551, 11057632839, 7399814552, 11057632879, 7399814553, 7399814554, 7399814555, 7399814556, 7399814557, 7399814558, 7399814559, 7399814547], "tags": {"addr:city": "Ses Salines", "addr:housenumber": "4", "addr:postcode": "07640", "addr:street": "Pla\u00e7a Sant Bartomeu", "amenity": "restaurant", "building": "yes", "contact:instagram": "https://www.instagram.com/triplemallorca/", "contact:tripadvisor": "https://www.tripadvisor.com/Restaurant_Review-g616237-d25577909-Reviews-Triple_Restaurant-Ses_Salines_Majorca_Balearic_Islands.html?m=19905", "cuisine": "mediterranean", "email": "contacto@triplerestaurant.com", "name": "Triple", "opening_hours": "12:30-22:30", "phone": "+34 971 09 27 54", "reservation": "yes", "website": "https://triplerestaurant.com/", "website:menu": "https://drive.google.com/file/d/134usJ8ZpPm0iz7lW5xFiKPkTftQjWSI-/view?usp=drive_link"}}, {"type": "way", "id": 791660870, "nodes": [7400985796, 7400985797, 7400985798, 7400985799, 7400985800, 7400985801, 7400985802, 7400985803, 7400985804, 7400985805, 7400985806, 7400985807, 7400985796], "tags": {"amenity": "restaurant", "building": "yes", "name": "Sa Pla\u00e7a", "name:ca": "Sa Pla\u00e7a", "opening_hours": "We-Mo 13:00-22:00+; Tu 17:00-22:00+"}}, {"type": "way", "id": 791660871, "nodes": [7400985808, 7400985809, 7400985810, 7400985811, 7400985808], "tags": {"amenity": "cafe", "building": "yes", "name": "Bar Nou", "name:ca": "Bar Nou"}}, {"type": "way", "id": 822408880, "nodes": [7679017667, 7679017668, 7679017669, 7679017670, 7679017667], "tags": {"amenity": "restaurant", "building": "yes", "cuisine": "steak_house", "name": "Duque's"}}, {"type": "way", "id": 875703390, "nodes": [8150809908, 8150809909, 8150809910, 8150809911, 8150809908], "tags": {"addr:city": "Llucmajor", "addr:postcode": "07620", "addr:street": "Cam\u00ed de Ti\u00f3", "addr:unit": "Poligono 8, Parcela 10", "amenity": "restaurant", "building": "yes", "cuisine": "regional;italian;international", "name": "Riders", "website": "https://www.ridersrestaurant.com/"}}, {"type": "way", "id": 881138414, "nodes": [8195302898, 8195302899, 8195302900, 8195302901, 8195302898], "tags": {"amenity": "restaurant", "building": "yes", "name": "Pata Negra"}}, {"type": "way", "id": 881281258, "nodes": [8196502345, 8196502346, 8196502347, 8196502348, 8196502349, 8196502350, 8196502345], "tags": {"amenity": "cafe", "building": "yes", "name": "Can Pieres", "name:ca": "Can Pieres"}}, {"type": "way", "id": 892490382, "nodes": [8295130234, 8295130235, 8295130236, 8295130237, 8295130238, 8295130239, 8295130240, 8295130241, 8295130242, 8295130243, 8295130244, 8295130245, 8295130234], "tags": {"amenity": "restaurant", "building": "yes", "name": "Can Denix"}}, {"type": "way", "id": 892653109, "nodes": [8296539217, 8296539218, 8296539219, 8296539222, 8296539220, 8296539225, 8296539221, 8296539217], "tags": {"amenity": "restaurant", "building": "yes", "name": "Casa Gonzalo"}}, {"type": "way", "id": 931752735, "nodes": [8638021533, 11366046332, 8638021534, 8638021535, 8638021536, 8638021533], "tags": {"addr:city": "Llucmajor", "addr:housenumber": "140", "addr:postcode": "07620", "addr:street": "Carrer de l'Orient", "amenity": "cafe", "building": "yes"}}, {"type": "way", "id": 942863097, "nodes": [8730947249, 8730947250, 8730947251, 8730947252, 8730947256, 8730947253, 8730947254, 8730947255, 8730947244, 8730947245, 8730947248, 8730947249], "tags": {"addr:city": "Cadenes, Illes Balears, Spain", "addr:country": "ES", "addr:housenumber": "35", "addr:postcode": "07600", "addr:street": "Carrer de Cartago", "amenity": "restaurant", "building": "yes", "damage": "major", "damage:date": "2024-05-23", "name": "Medusa Beach Club", "note": "The Dutch owner did not have a permit, to run a terrace on the roof of the building. \nWith about 20 people on the terrace, the structural integrity of the roof was affected in such a way, that it could not hold the weight load anymore, thus collapsing....", "phone": "+34971178449", "website": "https://mediaredmarketing.com/menu-medusa/"}}, {"type": "way", "id": 953800212, "nodes": [8827971194, 8827971195, 2124153415, 2124153546, 8827971196, 8827971194], "tags": {"addr:housenumber": "101", "addr:street": "Avinguda de Bartomeu Riutort", "amenity": "restaurant", "building": "yes"}}, {"type": "way", "id": 1082389351, "nodes": [9919832419, 9919827815, 11378121546, 9919958703, 9919832421, 9919832418, 9919827816, 9919832417, 9919832420, 9919832419], "tags": {"addr:city": "Campos", "addr:housenumber": "34", "addr:postcode": "07630", "addr:street": "Carrer del Nord", "amenity": "restaurant", "contact:facebook": "https://facebook.com/molideventgrillwine", "contact:instagram": "molidevent_campos", "cuisine": "mediterranean", "name": "Mol\u00ed de Vent", "name:ca": "Mol\u00ed de Vent", "opening_hours": "We-Sa 19:00-24:00; Su,Mo 19:00-23:30; Tu off", "outdoor_seating": "yes", "phone": "+34 670 72 93 71;+34 670 72 93 53;+34 971 59 59 11"}}, {"type": "way", "id": 1151619211, "nodes": [10713027789, 10713027790, 10713027791, 10713027792, 10713027793, 10713027794, 10713027789], "tags": {"amenity": "restaurant", "building": "yes", "name": "Sa Tanqueta", "old_name": "Cas Beato"}}, {"type": "way", "id": 1180095495, "nodes": [10960466032, 10960466033, 10960466034, 10960466035, 10960466032], "tags": {"amenity": "restaurant", "building": "hotel", "name": "Lassala"}}, {"type": "way", "id": 1190777394, "nodes": [11056362856, 11056362853, 11056362852, 11056362851, 11056362857, 11056362856], "tags": {"addr:city": "Ses Salines", "addr:housenumber": "36", "addr:postcode": "07640", "addr:street": "Carrer Morell", "amenity": "restaurant", "building": "yes", "cuisine": "pizza", "name": "Pizzeria Berna", "opening_hours": "We, Th, Su 18:00-22:30; Fr-Sa 18:00-23:00", "phone": "+34 677 43 59 80", "takeaway": "only", "website": "https://www.pizzeria-berna.com/"}}, {"type": "way", "id": 1190916208, "nodes": [11057573501, 11057573502, 11057573484, 11057573483, 11057573482, 11057573481, 11057573490, 11057573491, 11057573492, 11057573501], "tags": {"addr:city": "Ses Salines", "addr:housenumber": "19", "addr:postcode": "07640", "addr:street": "Carrer del Batle Andreu Burguera Mut", "amenity": "restaurant", "building": "yes", "contact:tripadvisor": "https://www.tripadvisor.com/Restaurant_Review-g616237-d10508352-Reviews-Mon_de_Vins-Ses_Salines_Majorca_Balearic_Islands.html?m=19905", "cuisine": "spanish", "email": "llumdesal@llumdesal.es", "name": "M\u00f3n de Vins", "phone": "+34 971 64 97 73", "website": "https://www.llumdesal.es/mondevi"}}, {"type": "way", "id": 1190922188, "nodes": [11057632885, 11057632884, 11057632883, 11057632882, 11057632881, 11057632880, 11057632885], "tags": {"addr:city": "Ses Salines", "addr:housenumber": "2", "addr:postcode": "07640", "addr:street": "Carrer del Batle Andreu Burguera Mut", "amenity": "restaurant", "building": "yes", "check_date": "2023-07-28", "contact:facebook": "https://www.facebook.com/esmestral/", "contact:tripadvisor": "https://www.tripadvisor.com/Restaurant_Review-g616237-d23827745-Reviews-Es_Mestral-Ses_Salines_Majorca_Balearic_Islands.html?m=19905", "cuisine": "mediterranean", "email": "esmestral.restaurante@gmail.com", "indoor_seating": "yes", "name": "Es Mestral", "opening_hours": "Mo-Sa 17:00-24:00; Su off", "opening_hours:kitchen": "Mo-Sa 17:00-23:00; Su off", "outdoor_seating": "garden", "payment:credit_cards": "yes", "payment:debit_cards": "yes", "payment:mastercard": "yes", "payment:visa": "yes", "phone": "+34 691 70 37 88", "reservation": "yes", "website": "https://www.esmestral.com", "wheelchair": "yes"}}, {"type": "way", "id": 1191364947, "nodes": [11061347908, 11061347903, 11061347902, 11061347901, 11061347900, 11061347899, 11061347916, 11061347909, 11061347908], "tags": {"addr:city": "Ses Salines", "addr:housenumber": "9", "addr:postcode": "07640", "addr:street": "Pla\u00e7a Espanya", "amenity": "cafe", "building": "yes", "name": "Bar Orient", "name:ca": "Bar Orient"}}, {"type": "way", "id": 1192357025, "nodes": [4398874203, 11068840633, 11056362828, 11056362829, 11056362830, 11056362831, 11056362832, 11056362833, 11056362834, 11056362835, 11056362836, 11056362837, 11056362825, 11056362824, 11056362814, 11061348009, 11061348018, 11061348012, 11061348013, 11061348016, 11061348017, 11061348020, 11061348023, 4398874203], "tags": {"addr:city": "Ses Salines", "addr:housenumber": "28", "addr:postcode": "07640", "addr:street": "Carrer Morell", "amenity": "restaurant", "check_date": "2023-07-24", "contact:facebook": "https://facebook.com/SafusteriaRestaurantSesSalines", "contact:instagram": "https://www.instagram.com/restaurantsafusteria/", "contact:tripadvisor": "https://www.tripadvisor.com/Restaurant_Review-g616237-d3929381-Reviews-Sa_Fusteria-Ses_Salines_Majorca_Balearic_Islands.html?m=19905", "cuisine": "regional;mediterranean", "diet:vegan": "yes", "diet:vegetarian": "yes", "email": "safusteria.sessalines@gmail.com", "indoor_seating": "yes", "name": "Sa Fusteria", "opening_hours": "Mo-Tu 18:00-23:00; Th-Fr 18:00-23:00; Sa-Su 13:00-23:00", "outdoor_seating": "garden", "payment:credit_cards": "yes", "payment:debit_cards": "yes", "phone": "+34 971 64 29 35", "reservation": "recommended", "takeaway": "yes", "toilets": "yes", "website": "https://www.restaurant-safusteria.com/", "website:menu": "https://www.restaurant-safusteria.com/menu"}}, {"type": "way", "id": 1192357027, "nodes": [11057632877, 11057632873, 4020518509, 11057632878, 11057632877], "tags": {"addr:city": "Ses Salines", "addr:housenumber": "7", "addr:postcode": "07640", "addr:street": "Pla\u00e7a Sant Bartomeu", "amenity": "restaurant", "check_date": "2023-07-27", "contact:facebook": "https://www.facebook.com/estarellas1980/", "contact:instagram": "https://www.instagram.com/barestarellas/", "contact:tripadvisor": "https://www.tripadvisor.com/Restaurant_Review-g616237-d8050305-Reviews-Bar_Estarellas-Ses_Salines_Majorca_Balearic_Islands.html?m=19905", "cuisine": "seafood;mediterranean;burger;tapas", "diet:vegetarian": "yes", "name": "Estarellas", "opening_hours": "10:00-01:00; We off", "outdoor_seating": "yes", "payment:mastercard": "yes", "payment:visa": "yes", "phone": "+34 971 64 96 04", "reservation": "yes", "website:menu": "https://menu-qr.web.app/i/1592293071", "wheelchair": "limited"}}, {"type": "way", "id": 1192736412, "nodes": [7399814538, 7399814537, 7399814546, 7399814559, 7399814547, 7399814545, 7399814544, 7399814543, 7399814542, 7399814541, 7399814540, 7399814539, 7399814538], "tags": {"addr:city": "Ses Salines", "addr:housenumber": "2", "addr:postcode": "07640", "addr:street": "Pla\u00e7a Sant Bartomeu", "amenity": "restaurant", "contact:tripadvisor": "https://www.tripadvisor.com/Restaurant_Review-g616237-d1895435-Reviews-Casa_Manolo-Ses_Salines_Majorca_Balearic_Islands.html?m=19905", "cuisine": "regional", "name": "Casa Manolo - Bodega Barahona", "opening_hours": "Tu-Su 11:00-16:00,19:30-23:00", "phone": "+34 971 64 91 30", "website": "https://bodegabarahona.com", "website:menu": "https://bodegabarahona.com/CasaManoloCarta.pdf"}}, {"type": "way", "id": 1192915823, "nodes": [11061347898, 11061347903, 11061347902, 11073163328, 11061347898], "tags": {"amenity": "cafe", "name": "Ca n'In\u00e9s", "name:ca": "Ca n'In\u00e9s"}}, {"type": "way", "id": 1192915824, "nodes": [4398874205, 11057573554, 11057573553, 11057573552, 11057573551, 11057573550, 11057573549, 11057573575, 4398874205], "tags": {"amenity": "restaurant", "name": "Fat y Salat", "name:ca": "Fat y Salat", "opening_hours": "08:00-21:30; Mo off", "phone": "+34 871 05 08 07", "website": "https://es-magatzem-fat-y-salat.negocio.site/"}}, {"type": "way", "id": 1197088813, "nodes": [11107719269, 11107719270, 11107719271, 11107719272, 11107719269], "tags": {"addr:city": "Palma", "addr:country": "ES", "addr:housenumber": "2", "addr:postcode": "07610", "addr:street": "Carrer de la Mar Menor", "amenity": "restaurant", "building": "yes", "name": "Manselini Beach Bar & Restaurant", "phone": "+34971963663", "takeaway": "yes", "website": "http://manselini.com/"}}, {"type": "way", "id": 1207212242, "nodes": [11186110429, 11186110430, 11186110431, 11186110432, 11186110433, 11186110434, 11186110435, 11186110436, 11186134937, 11186134938, 11186110429], "tags": {"amenity": "restaurant", "building": "yes", "name": "Sa cantina de s'institut"}}, {"type": "way", "id": 1213140072, "nodes": [2122398539, 11239805271, 11239805269, 11239805270, 11239805272, 2122398686, 2122398964, 11239805273, 2122398539], "tags": {"amenity": "restaurant", "building": "apartments", "cuisine": "german", "name": "M\u00fcnchner Kindl", "outdoor_seating": "yes", "reservation": "yes", "wheelchair": "limited"}}, {"type": "way", "id": 1256713472, "nodes": [11682797414, 11682797416, 11682797417, 11682797418, 11682797419, 11682797415, 11682797414], "tags": {"addr:city": "Felanitx", "addr:housenumber": "18", "addr:postcode": "07200", "addr:street": "Pla\u00e7a d'Espanya", "amenity": "restaurant", "building": "commercial", "name": "Batec Restaurant", "opening_hours": "Tu-Sa 11:00-23:00; Su 11:00-17:00", "phone": "+34871253304", "website": "https://www.batecrestaurant.com/"}}, {"type": "way", "id": 1261403436, "nodes": [11722174620, 11722174621, 11722174622, 11722174623, 11722174620], "tags": {"amenity": "cafe", "building": "yes", "name": "Bar Poliesportiu S'Arenal"}}, {"type": "way", "id": 1316848976, "nodes": [12187524737, 12187524738, 12187524739, 12187524740, 12187524737], "tags": {"amenity": "restaurant", "building": "yes", "cuisine": "barbecue", "name": "El Patio"}}, {"type": "way", "id": 1384549024, "nodes": [11239793211, 12818991001, 12818991002, 11239793206, 11239793205, 11239793204, 11239793213, 11239793212, 12818991004, 11239793211], "tags": {"amenity": "restaurant", "name": "Bundi's"}}]}