{"version": 0.6, "generator": "Overpass API 0.7.62.7 375dc00a", "osm3s": {"timestamp_osm_base": "2025-06-14T15:00:45Z", "copyright": "The data included in this document is from www.openstreetmap.org. The data is made available under ODbL."}, "elements": [{"type": "node", "id": 1918553084, "lat": 40.3571454, "lon": 30.0157186, "tags": {"amenity": "restaurant", "name": "Emre B\u00fcfe"}}, {"type": "node", "id": 3995513835, "lat": 40.4851385, "lon": 29.7269208, "tags": {"amenity": "cafe", "name": "Meydan \u00c7ay Bah\u00e7esi"}}, {"type": "node", "id": 4079532009, "lat": 40.4030039, "lon": 29.8683419}, {"type": "node", "id": 4079532010, "lat": 40.4030284, "lon": 29.8684036}, {"type": "node", "id": 4079532011, "lat": 40.4029569, "lon": 29.868476}, {"type": "node", "id": 4079532012, "lat": 40.4029344, "lon": 29.8684116}, {"type": "node", "id": 4086828809, "lat": 40.4148734, "lon": 29.8237859}, {"type": "node", "id": 4086828810, "lat": 40.414892, "lon": 29.8239323}, {"type": "node", "id": 4086828811, "lat": 40.4147837, "lon": 29.8239526}, {"type": "node", "id": 4086828812, "lat": 40.4147651, "lon": 29.8238022}, {"type": "node", "id": 4086833497, "lat": 40.3535115, "lon": 30.0125068}, {"type": "node", "id": 4086833498, "lat": 40.3535641, "lon": 30.0125475}, {"type": "node", "id": 4086833499, "lat": 40.3535765, "lon": 30.0126166}, {"type": "node", "id": 4086833500, "lat": 40.3535626, "lon": 30.0126735}, {"type": "node", "id": 4086833501, "lat": 40.3535084, "lon": 30.0126979}, {"type": "node", "id": 4086833502, "lat": 40.3534634, "lon": 30.0126816}, {"type": "node", "id": 4086833503, "lat": 40.353434, "lon": 30.012639}, {"type": "node", "id": 4086833504, "lat": 40.3534278, "lon": 30.0125902}, {"type": "node", "id": 4086833505, "lat": 40.3534572, "lon": 30.012515}, {"type": "node", "id": 4089721110, "lat": 40.3576667, "lon": 30.0156014, "tags": {"amenity": "cafe"}}, {"type": "node", "id": 4107243229, "lat": 40.429395, "lon": 29.7264204, "tags": {"amenity": "cafe", "name": "Ye\u015fil Cami \u00c7ay Bah\u00e7esi"}}, {"type": "node", "id": 4107458376, "lat": 40.405122, "lon": 29.7675511}, {"type": "node", "id": 4107458377, "lat": 40.4051112, "lon": 29.7676467}, {"type": "node", "id": 4107458378, "lat": 40.4049792, "lon": 29.7676219}, {"type": "node", "id": 4107458379, "lat": 40.4049899, "lon": 29.7675334}, {"type": "node", "id": 4352893391, "lat": 40.2580971, "lon": 30.0209631, "tags": {"amenity": "restaurant", "cuisine": "turkish", "name": "Yuksel Usta"}}, {"type": "node", "id": 4675261646, "lat": 40.6044162, "lon": 29.9286898, "tags": {"addr:city": "Aytepe/Kocaeli", "amenity": "restaurant", "name": "Veysel Day\u0131n\u0131n Yeri"}}, {"type": "node", "id": 4804314521, "lat": 40.5141663, "lon": 30.2359383, "tags": {"amenity": "restaurant", "name": "Tuna Tan", "name:tr": "Tuna Tan"}}, {"type": "node", "id": 4999637223, "lat": 40.2821629, "lon": 29.6563933, "tags": {"amenity": "restaurant", "name": "Y\u0131ld\u0131z \u00c7a\u011f Kebap Salonu", "name:tr": "Y\u0131ld\u0131z \u00c7a\u011f Kebap Salonu"}}, {"type": "node", "id": 5108737723, "lat": 40.4292988, "lon": 29.721614, "tags": {"amenity": "restaurant"}}, {"type": "node", "id": 5263825959, "lat": 40.4274551, "lon": 29.719132, "tags": {"amenity": "restaurant", "brand": "K\u00f6fteci Yusuf", "brand:wikidata": "Q126125081", "cuisine": "turkish", "name": "K\u00f6fteci Yusuf"}}, {"type": "node", "id": 5271936980, "lat": 40.2825109, "lon": 30.0202473, "tags": {"amenity": "cafe"}}, {"type": "node", "id": 5271936989, "lat": 40.2822068, "lon": 30.0204845}, {"type": "node", "id": 5271936990, "lat": 40.282158, "lon": 30.0206519}, {"type": "node", "id": 5271936991, "lat": 40.2820721, "lon": 30.0205996}, {"type": "node", "id": 5271936992, "lat": 40.2821212, "lon": 30.0204387}, {"type": "node", "id": 5306953622, "lat": 40.42945, "lon": 29.7182017, "tags": {"addr:housenumber": "No.54", "addr:street": "K\u0131l\u0131\u00e7aslan Cd", "amenity": "restaurant", "cuisine": "turkish", "name": "Kar\u00e7i\u00e7e\u011fi", "name:en": "Karcicegi", "phone": "7573213"}}, {"type": "node", "id": 5420235849, "lat": 40.497899, "lon": 30.0960275, "tags": {"amenity": "restaurant", "name": "\u00d6zdemir Tesisleri"}}, {"type": "node", "id": 5820465254, "lat": 40.2661193, "lon": 29.6511181, "tags": {"addr:housenumber": "16", "addr:postcode": "16900", "addr:street": "Atat\u00fcrk Cd", "amenity": "restaurant", "cuisine": "breakfast;turkish;local", "internet_access": "wlan", "name": "K\u00f6fe Restoran", "name:tr": "K\u00fcfe Restoran"}}, {"type": "node", "id": 6569485670, "lat": 40.2448598, "lon": 30.021434, "tags": {"amenity": "cafe"}}, {"type": "node", "id": 6569485671, "lat": 40.2447746, "lon": 30.0215101, "tags": {"amenity": "restaurant", "name": "Solmaz Restoran"}}, {"type": "node", "id": 6720458835, "lat": 40.2435763, "lon": 30.024227, "tags": {"amenity": "restaurant", "name": "Vezir K\u00f6fte"}}, {"type": "node", "id": 6993256930, "lat": 40.2429646, "lon": 30.0232397, "tags": {"amenity": "cafe"}}, {"type": "node", "id": 7706861585, "lat": 40.2680527, "lon": 29.6614344, "tags": {"amenity": "restaurant", "name": "K\u00f6fteci Yusuf"}}, {"type": "node", "id": 9054754760, "lat": 40.5083516, "lon": 30.1745581, "tags": {"addr:city": "sakarya", "addr:district": "pamukova", "addr:housenumber": "58", "addr:neighbourhood": "elperek mahallesi", "addr:postcode": "54900", "addr:street": "ankara caddesi", "amenity": "restaurant", "cuisine": "baklava;dondurma;mant\u0131", "name": "Enes Baklava", "opening_hours": "08:00-01:00", "website": "https://www.instagram.com/enes_baklava/"}}, {"type": "node", "id": 9921191917, "lat": 40.4737476, "lon": 29.8043898, "tags": {"amenity": "cafe", "name:en": "mine cafe"}}, {"type": "node", "id": 11986409269, "lat": 40.4333235, "lon": 29.715454, "tags": {"addr:street": "G\u00f6l Sahil Yolu", "amenity": "restaurant", "cuisine": "fish;turkish", "email": "umutrestaurant@hotmail.com", "name": "Umut Restaurant", "phone": "+905465663717;+902247580022;+905325126354", "website": "https://umutrestaurant.com/"}}, {"type": "node", "id": 12619126340, "lat": 40.5062719, "lon": 30.1706476, "tags": {"addr:city": "Pamukova", "addr:district": "Pamukova", "addr:housenumber": "2", "addr:neighbourhood": "Yenice, Abdullah Ate\u015f Sk. No:2", "addr:place": "Yenice", "addr:postcode": "54900", "amenity": "cafe", "cuisine": "pizza;coffee_shop;regional;sandwich;ice_cream;seafood;turkish;pasta", "internet_access": "yes", "internet_access:fee": "no", "name": "K\u00fcnefeci Ahmet Kahvalt\u0131", "outdoor_seating": "yes", "phone": "05425104654"}}, {"type": "node", "id": 12691456119, "lat": 40.4746153, "lon": 30.0583898, "tags": {"amenity": "restaurant", "name": "Mekece I\u015f\u0131k"}}, {"type": "node", "id": 12691456120, "lat": 40.4745225, "lon": 30.058341, "tags": {"amenity": "restaurant", "name": "G\u00f6zleme Evi"}}, {"type": "node", "id": 12691456134, "lat": 40.47622, "lon": 30.0594871, "tags": {"amenity": "restaurant", "name": "Recep Ustan\u0131n Yeri"}}, {"type": "node", "id": 12691456146, "lat": 40.4900551, "lon": 30.0720547, "tags": {"amenity": "restaurant", "name": "Pamukova \u00d6zdemir Tesisleri"}}, {"type": "node", "id": 12691456163, "lat": 40.4999569, "lon": 30.1301377, "tags": {"amenity": "restaurant"}}, {"type": "node", "id": 12708457124, "lat": 40.5090492, "lon": 30.199303, "tags": {"addr:city": "Sakarya", "addr:district": "Pamukova", "addr:neighbourhood": "Turgutlu Mahallesi", "amenity": "restaurant", "brand": "K\u00f6fteci Yusuf", "brand:wikidata": "Q126125081", "cuisine": "turkish", "name": "K\u00f6fteci Yusuf"}}, {"type": "node", "id": 12709884868, "lat": 40.4027556, "lon": 30.0206327, "tags": {"amenity": "restaurant", "name": "Osmaneli Kahvalti Evi"}}, {"type": "node", "id": 12709884899, "lat": 40.2916649, "lon": 30.0313246, "tags": {"amenity": "restaurant", "name": "S\u00fcmela Park Otel"}}, {"type": "way", "id": 405799306, "nodes": [4079532009, 4079532010, 4079532011, 4079532012, 4079532009], "tags": {"amenity": "cafe", "building": "yes", "name": "Bereket K\u00f6y\u00fc K\u0131raathanesi"}}, {"type": "way", "id": 406631915, "nodes": [4086828809, 4086828810, 4086828811, 4086828812, 4086828809], "tags": {"amenity": "cafe", "building": "yes"}}, {"type": "way", "id": 406632397, "nodes": [4086833497, 4086833498, 4086833499, 4086833500, 4086833501, 4086833502, 4086833503, 4086833504, 4086833505, 4086833497], "tags": {"amenity": "cafe", "building": "yes", "name": "Gezi Tepesi"}}, {"type": "way", "id": 408838297, "nodes": [4107458376, 4107458377, 4107458378, 4107458379, 4107458376], "tags": {"amenity": "cafe", "building": "yes"}}, {"type": "way", "id": 545472614, "nodes": [5271936989, 5271936990, 5271936991, 5271936992, 5271936989], "tags": {"amenity": "restaurant", "building": "yes"}}]}