{"version": 0.6, "generator": "Overpass API 0.7.62.7 375dc00a", "osm3s": {"timestamp_osm_base": "2025-06-14T14:39:19Z", "copyright": "The data included in this document is from www.openstreetmap.org. The data is made available under ODbL."}, "elements": [{"type": "node", "id": 785028443, "lat": 39.9923166, "lon": 22.5704943, "tags": {"amenity": "restaurant", "ele": "435.0000000", "name": "Tarchontijko", "wpt_description": "10-JUN-10 18:02:58", "wpt_symbol": "Restaurant"}}, {"type": "node", "id": 785028541, "lat": 39.9913864, "lon": 22.5709543, "tags": {"amenity": "restaurant", "ele": "487.0000000", "int_name": "Mageireion Kathodon", "name": "\u039a\u03b1\u03b8'\u03bf\u03b4\u03cc\u03bd", "wpt_description": "09-JUN-10 17:15:43", "wpt_symbol": "Restaurant"}}, {"type": "node", "id": 1415729861, "lat": 39.97586, "lon": 22.6521769, "tags": {"amenity": "restaurant", "cuisine": "greek", "name": "Platon"}}, {"type": "node", "id": 1732703418, "lat": 40.0267593, "lon": 22.5726476, "tags": {"amenity": "restaurant", "name": "\u03a3\u03ba\u03bf\u03c4\u03af\u03bd\u03b1"}}, {"type": "node", "id": 2527551806, "lat": 39.8597897, "lon": 22.5321424, "tags": {"amenity": "restaurant", "cuisine": "regional", "name": "Orion"}}, {"type": "node", "id": 2630177275, "lat": 39.8141997, "lon": 22.5085009, "tags": {"amenity": "cafe", "contact:phone": "+302495093303", "name": "Flocaf\u00e9", "opening_hours": "24/7", "operator": "Vivartia"}}, {"type": "node", "id": 2630178383, "lat": 39.8153688, "lon": 22.5073486, "tags": {"amenity": "cafe", "contact:phone": "+302495022919", "contact:website": "http://www.goodys.com/", "name": "Flocaf\u00e9", "opening_hours": "24/7", "operator": "Vivartia"}}, {"type": "node", "id": 2634834719, "lat": 40.0837532, "lon": 22.4072253}, {"type": "node", "id": 2634834724, "lat": 40.0837659, "lon": 22.4071591}, {"type": "node", "id": 2634834725, "lat": 40.0837882, "lon": 22.4072367}, {"type": "node", "id": 2634834726, "lat": 40.0837909, "lon": 22.4071121}, {"type": "node", "id": 2634834727, "lat": 40.083794, "lon": 22.4072066}, {"type": "node", "id": 2634834728, "lat": 40.0837942, "lon": 22.4071683}, {"type": "node", "id": 2634834729, "lat": 40.0837993, "lon": 22.407068}, {"type": "node", "id": 2634834730, "lat": 40.0838041, "lon": 22.4071164}, {"type": "node", "id": 2634834731, "lat": 40.0838114, "lon": 22.407072}, {"type": "node", "id": 2634834732, "lat": 40.0838174, "lon": 22.4070407}, {"type": "node", "id": 2634834734, "lat": 40.0838824, "lon": 22.4070619}, {"type": "node", "id": 2634834737, "lat": 40.0838512, "lon": 22.4072253}, {"type": "node", "id": 2634996630, "lat": 40.0799842, "lon": 22.37288, "tags": {"amenity": "restaurant", "opening_hours": "Mo-Su 06:00-21:00; Nov 1 - May 15 off"}}, {"type": "node", "id": 2680285202, "lat": 39.8944238, "lon": 22.18889, "tags": {"addr:city": "\u03b5\u03bb\u03b1\u03c3\u03c3\u03cc\u03bd\u03b1", "addr:postcode": "40200", "addr:street": "6\u03b7\u03c2 \u03bf\u03c4\u03c9\u03b2\u03c1\u03b9\u03bf\u03c5", "amenity": "cafe", "internet_access": "yes", "name": "LEFKO KAFE", "phone": "2493022218", "website": "https://www.facebook.com/pages/LEYKO-KAFE/262455157098995?ref=hl", "wheelchair": "yes"}}, {"type": "node", "id": 2697594881, "lat": 40.0164193, "lon": 22.5891629, "tags": {"amenity": "restaurant", "capacity": "300", "cuisine": "pizza", "name": "San Panteleimon", "name:ru": "\u043f\u0438\u0446\u0446\u0430", "wheelchair": "yes"}}, {"type": "node", "id": 2739360651, "lat": 39.9922675, "lon": 22.5705751, "tags": {"amenity": "restaurant", "cuisine": "greek", "name": "\u03a0\u03ad\u03c4\u03c1\u03b9\u03bd\u03bf"}}, {"type": "node", "id": 3114820719, "lat": 40.0838331, "lon": 22.4070454, "tags": {"entrance": "main"}}, {"type": "node", "id": 3144486894, "lat": 39.645737, "lon": 22.4376496}, {"type": "node", "id": 3144486895, "lat": 39.6457405, "lon": 22.4378831}, {"type": "node", "id": 3144486896, "lat": 39.6458214, "lon": 22.4378817}, {"type": "node", "id": 3144486897, "lat": 39.6458413, "lon": 22.4378331}, {"type": "node", "id": 3144486898, "lat": 39.6458563, "lon": 22.4377763}, {"type": "node", "id": 3144486899, "lat": 39.6458489, "lon": 22.4377215}, {"type": "node", "id": 3144486900, "lat": 39.6458307, "lon": 22.4376763}, {"type": "node", "id": 3144486901, "lat": 39.6458227, "lon": 22.4376537}, {"type": "node", "id": 3378237633, "lat": 40.0095919, "lon": 22.5967294, "tags": {"amenity": "restaurant", "cuisine": "regional", "name": "Nostalgia - Taverna", "name:ru": "\u0442\u0430\u0432\u0435\u0440\u043d\u0430", "opening_hours": "May-Oct", "phone": "+30 23520 43900", "smoking": "outside", "takeaway": "yes"}}, {"type": "node", "id": 3730492389, "lat": 39.6667681, "lon": 22.3908675}, {"type": "node", "id": 3730492390, "lat": 39.6667225, "lon": 22.3908337}, {"type": "node", "id": 3730492391, "lat": 39.6666931, "lon": 22.3909056}, {"type": "node", "id": 3730492392, "lat": 39.6667404, "lon": 22.3909352}, {"type": "node", "id": 3730492393, "lat": 39.6663184, "lon": 22.3914221}, {"type": "node", "id": 3730492394, "lat": 39.6662548, "lon": 22.3913846}, {"type": "node", "id": 3730492395, "lat": 39.6661913, "lon": 22.3915572}, {"type": "node", "id": 3730492396, "lat": 39.6662491, "lon": 22.3915909}, {"type": "node", "id": 3730492397, "lat": 39.6645039, "lon": 22.3968797}, {"type": "node", "id": 3730492398, "lat": 39.6644589, "lon": 22.3968511}, {"type": "node", "id": 3730492399, "lat": 39.6644332, "lon": 22.3969179}, {"type": "node", "id": 3730492400, "lat": 39.66448, "lon": 22.3969405}, {"type": "node", "id": 3730492401, "lat": 39.6653898, "lon": 22.3945133}, {"type": "node", "id": 3730492402, "lat": 39.6653471, "lon": 22.394483}, {"type": "node", "id": 3730492403, "lat": 39.6653302, "lon": 22.3945284}, {"type": "node", "id": 3730492404, "lat": 39.6653742, "lon": 22.3945554}, {"type": "node", "id": 3730492406, "lat": 39.6658606, "lon": 22.3938363}, {"type": "node", "id": 3730492407, "lat": 39.6656359, "lon": 22.3936892}, {"type": "node", "id": 3730492408, "lat": 39.6655136, "lon": 22.3940261}, {"type": "node", "id": 3730492409, "lat": 39.6657327, "lon": 22.3941684}, {"type": "node", "id": 3757441494, "lat": 40.0859818, "lon": 22.4893879}, {"type": "node", "id": 3757441495, "lat": 40.0860108, "lon": 22.4894082}, {"type": "node", "id": 3757441496, "lat": 40.0860404, "lon": 22.4893362}, {"type": "node", "id": 3757441497, "lat": 40.0862293, "lon": 22.4894688}, {"type": "node", "id": 3757441498, "lat": 40.0861376, "lon": 22.4896919}, {"type": "node", "id": 3757441499, "lat": 40.0859197, "lon": 22.4895389}, {"type": "node", "id": 3811041434, "lat": 39.9792324, "lon": 22.6471703, "tags": {"amenity": "restaurant", "cuisine": "greek", "name": "\u0398\u03ac\u03bb\u03b1\u03c3\u03c3\u03b1", "name:el": "\u0398\u03ac\u03bb\u03b1\u03c3\u03c3\u03b1", "name:en": "Thalassa", "name:ro": "Blue Horizon", "smoking": "outside"}}, {"type": "node", "id": 3832443655, "lat": 39.6665842, "lon": 22.3939896, "tags": {"addr:city": "\u0393\u03b9\u03ac\u03bd\u03bd\u03bf\u03c5\u03bb\u03b7", "addr:housenumber": "47", "addr:postcode": "41500", "addr:street": "\u0399\u03bf\u03c5\u03c3\u03c4\u03b9\u03bd\u03b9\u03b1\u03bd\u03bf\u03cd", "amenity": "cafe", "internet_access": "yes", "name": "Creme Cafe Bar"}}, {"type": "node", "id": 3832467938, "lat": 39.6662061, "lon": 22.3951971, "tags": {"addr:city": "\u0393\u03b9\u03ac\u03bd\u03bd\u03bf\u03c5\u03bb\u03b7", "addr:postcode": "41500", "addr:street": "\u0394\u03b7\u03bc\u03b7\u03c4\u03c1\u03af\u03bf\u03c5 \u039a\u03b1\u03c1\u03b1\u03bf\u03bb\u03ae", "amenity": "cafe", "cuisine": "no", "name": "Cafe Ramona"}}, {"type": "node", "id": 3859703658, "lat": 39.8930282, "lon": 22.187491, "tags": {"addr:city": "\u0395\u03bb\u03b1\u03c3\u03c3\u03cc\u03bd\u03b1", "addr:postcode": "40200", "addr:street": "\u039c\u03b7\u03c4\u03c1\u03bf\u03c0\u03bf\u03bb\u03af\u03c4\u03b7 \u0399\u03b1\u03ba\u03ce\u03b2\u03bf\u03c5 \u039c\u03b1\u03ba\u03c1\u03c5\u03b3\u03b9\u03ac\u03bd\u03bd\u03b7", "amenity": "cafe", "internet_access": "yes", "name": "Lo", "smoking": "outside"}}, {"type": "node", "id": 3989446866, "lat": 39.6461044, "lon": 22.4112715}, {"type": "node", "id": 3989446868, "lat": 39.6461933, "lon": 22.4113829}, {"type": "node", "id": 3989446869, "lat": 39.6462023, "lon": 22.4112871}, {"type": "node", "id": 4102090406, "lat": 40.003098, "lon": 22.5939473, "tags": {"amenity": "cafe"}}, {"type": "node", "id": 4102090407, "lat": 40.0031185, "lon": 22.5946447, "tags": {"amenity": "restaurant"}}, {"type": "node", "id": 4102090408, "lat": 40.0026788, "lon": 22.5950578, "tags": {"amenity": "restaurant"}}, {"type": "node", "id": 4423520789, "lat": 40.0282661, "lon": 22.5873665, "tags": {"amenity": "cafe", "name": "Psarou", "name:el": "Psarou", "name:ru": "\u0420\u044b\u0431\u043d\u0430\u044f \u0442\u0430\u0432\u0435\u0440\u043d\u0430"}}, {"type": "node", "id": 4428508725, "lat": 39.9937849, "lon": 22.6212379, "tags": {"addr:city": "\u03a0\u03bb\u03b1\u03c4\u03b1\u03bc\u03ce\u03bd\u03b1\u03c2", "addr:housenumber": "89", "addr:postcode": "60065", "addr:street": "\u039a\u03b1\u03c1\u03b1\u03bc\u03b1\u03bd\u03bb\u03ae", "amenity": "restaurant", "capacity": "80", "cuisine": "mexican", "delivery": "yes", "internet_access": "wlan", "name": "Hasta Luego", "opening_hours": "Mo-Su 09:00-00:00", "outdoor_seating": "yes", "smoking": "outside", "takeaway": "yes", "wheelchair": "yes"}}, {"type": "node", "id": 4451726520, "lat": 40.0235137, "lon": 22.5893573}, {"type": "node", "id": 4451726521, "lat": 40.0237766, "lon": 22.5892618}, {"type": "node", "id": 4451726522, "lat": 40.0236438, "lon": 22.5887008}, {"type": "node", "id": 4451726523, "lat": 40.0233714, "lon": 22.5888229}, {"type": "node", "id": 4826922904, "lat": 40.0615125, "lon": 22.5684376, "tags": {"addr:city": "Leptokaria", "amenity": "cafe", "cuisine": "cafe", "internet_access": "wlan", "internet_access:fee": "no", "internet_access:ssid": "Dinosis Cafe", "name": "Caf\u00e9 Dionisos", "outdoor_seating": "yes"}}, {"type": "node", "id": 4828171903, "lat": 40.066293, "lon": 22.5673232, "tags": {"addr:city": "Leptokaria", "amenity": "cafe", "cuisine": "italian", "internet_access": "wlan", "internet_access:fee": "no", "internet_access:ssid": "Leone", "name": "Leone", "outdoor_seating": "yes"}}, {"type": "node", "id": 4847881926, "lat": 39.9923822, "lon": 22.6255445, "tags": {"addr:city": "\u03a0\u03bb\u03b1\u03c4\u03b1\u03bc\u03ce\u03bd\u03b1\u03c2", "addr:country": "GR", "addr:housenumber": "76", "addr:postcode": "60005", "addr:street": "\u039c\u03c0\u03b1\u03ba\u03bf\u03b3\u03b9\u03ac\u03bd\u03bd\u03b7", "amenity": "restaurant", "cuisine": "fish;fish_and_chips;mediterranean;seafood;greek;chicken;burger;regional", "image": "https://www.xaris-apartments.gr/img/psarotaverna/2.jpg", "name": "\u03a7\u03ac\u03c1\u03b7\u03c2", "outdoor_seating": "yes", "payment:coins": "yes", "payment:maestro": "yes", "payment:mastercard": "yes", "payment:notes": "yes", "payment:visa": "yes", "payment:visa_debit": "yes", "payment:visa_electron": "yes", "phone": "+30 2352041002", "takeaway": "yes", "website": "https://www.xaris-apartments.gr/psarotaverna.html", "wheelchair": "yes"}}, {"type": "node", "id": 4933274816, "lat": 39.8804495, "lon": 22.5859254}, {"type": "node", "id": 4933274817, "lat": 39.8803792, "lon": 22.5860444}, {"type": "node", "id": 4933274818, "lat": 39.8800863, "lon": 22.5857316}, {"type": "node", "id": 4933274819, "lat": 39.8801574, "lon": 22.5856172}, {"type": "node", "id": 5226656799, "lat": 39.796641, "lon": 22.6466358, "tags": {"amenity": "restaurant", "name": "\u039f \u039c\u03ac\u03bd\u03b8\u03bf\u03c2"}}, {"type": "node", "id": 5226658063, "lat": 39.7959948, "lon": 22.6473259, "tags": {"amenity": "restaurant", "name": "\u03a4\u03bf \u039c\u03c0\u03b1\u03bb\u03ba\u03cc\u03bd\u03b9 \u03c4\u03bf\u03c5 \u039a\u03b9\u03c3\u03c3\u03ac\u03b2\u03bf\u03c5"}}, {"type": "node", "id": 5226659825, "lat": 39.7968778, "lon": 22.6467683, "tags": {"amenity": "cafe", "name": "\u039f \u039c\u03ac\u03bd\u03b8\u03bf\u03c2"}}, {"type": "node", "id": 5226660077, "lat": 39.7969582, "lon": 22.6466943, "tags": {"amenity": "restaurant", "name": "\u03a4\u03bf \u039c\u03c0\u03bf\u03c5\u03b3\u03ac\u03b6\u03b9"}}, {"type": "node", "id": 5226697124, "lat": 39.8537693, "lon": 22.556037, "tags": {"amenity": "cafe", "name": "\u039c\u03cd\u03bb\u03bf\u03c2 1931"}}, {"type": "node", "id": 5226709768, "lat": 39.853483, "lon": 22.5562328, "tags": {"amenity": "restaurant", "name": "\u03a0\u03bb\u03ac\u03c4\u03b1\u03bd\u03bf\u03c2"}}, {"type": "node", "id": 5226716465, "lat": 39.8533595, "lon": 22.5551277, "tags": {"amenity": "restaurant", "name": "\u03a4\u03bf \u0391\u03c1\u03c7\u03bf\u03bd\u03c4\u03b9\u03ba\u03cc"}}, {"type": "node", "id": 5442645379, "lat": 39.656708, "lon": 22.4045475, "tags": {"amenity": "cafe"}}, {"type": "node", "id": 5653164228, "lat": 39.6900923, "lon": 22.6311078, "tags": {"amenity": "restaurant", "internet_access": "wlan"}}, {"type": "node", "id": 5653166122, "lat": 39.6767035, "lon": 22.5794067, "tags": {"amenity": "restaurant"}}, {"type": "node", "id": 5653173826, "lat": 39.7574004, "lon": 22.5800033, "tags": {"amenity": "cafe", "internet_access": "wlan"}}, {"type": "node", "id": 5653188921, "lat": 39.7575515, "lon": 22.5802989, "tags": {"amenity": "restaurant"}}, {"type": "node", "id": 5653193523, "lat": 39.7574454, "lon": 22.5796374, "tags": {"amenity": "cafe"}}, {"type": "node", "id": 5666236623, "lat": 39.8626479, "lon": 22.4731947, "tags": {"amenity": "restaurant"}}, {"type": "node", "id": 5666236626, "lat": 39.9795647, "lon": 22.3308717, "tags": {"amenity": "cafe"}}, {"type": "node", "id": 5666236721, "lat": 39.8622262, "lon": 22.4736525, "tags": {"amenity": "cafe"}}, {"type": "node", "id": 5694485304, "lat": 39.6547831, "lon": 22.4095177}, {"type": "node", "id": 5694485305, "lat": 39.6547095, "lon": 22.4095531}, {"type": "node", "id": 5694485306, "lat": 39.6546807, "lon": 22.4094523}, {"type": "node", "id": 5694485307, "lat": 39.6547542, "lon": 22.4094169}, {"type": "node", "id": 5859089985, "lat": 40.0085199, "lon": 22.5984448, "tags": {"amenity": "cafe", "internet_access": "wlan", "name": "\u0393\u03b1\u03bb\u03bb\u03b1\u03c1\u03b9\u03b1", "name:el": "\u0393\u03b1\u03bb\u03bb\u03b1\u03c1\u03b9\u03b1", "name:en": "Galaria"}}, {"type": "node", "id": 5899319642, "lat": 39.9761507, "lon": 22.6552092, "tags": {"amenity": "restaurant", "name": "Olympic Beach"}}, {"type": "node", "id": 6017691112, "lat": 39.9805648, "lon": 22.6430395, "tags": {"amenity": "restaurant"}}, {"type": "node", "id": 6017691170, "lat": 39.979085, "lon": 22.6482886, "tags": {"amenity": "restaurant", "cuisine": "pizza"}}, {"type": "node", "id": 6577285939, "lat": 40.0054256, "lon": 22.6030627, "tags": {"amenity": "cafe", "name": "Dolphin", "outdoor_seating": "yes"}}, {"type": "node", "id": 6581542472, "lat": 39.9455434, "lon": 22.1682964, "tags": {"amenity": "cafe", "int_name": "Sinantisi", "internet_access": "wlan", "name": "Sinantisi", "outdoor_seating": "yes"}}, {"type": "node", "id": 6581574970, "lat": 39.89571, "lon": 22.1869597, "tags": {"amenity": "cafe", "brand": "Mikel", "brand:wikidata": "Q16952021", "cuisine": "coffee_shop", "name": "Mikel", "takeaway": "yes"}}, {"type": "node", "id": 6727568850, "lat": 39.8006068, "lon": 22.3427855}, {"type": "node", "id": 6727568851, "lat": 39.8004731, "lon": 22.342859}, {"type": "node", "id": 6727568852, "lat": 39.8005009, "lon": 22.3429676}, {"type": "node", "id": 6727568853, "lat": 39.8005556, "lon": 22.3429337}, {"type": "node", "id": 6727568854, "lat": 39.8005431, "lon": 22.3428905}, {"type": "node", "id": 6727568855, "lat": 39.8006175, "lon": 22.3428485}, {"type": "node", "id": 6727568860, "lat": 39.8016092, "lon": 22.3428597}, {"type": "node", "id": 6727568861, "lat": 39.8015443, "lon": 22.3428537}, {"type": "node", "id": 6727568862, "lat": 39.801537, "lon": 22.3429896}, {"type": "node", "id": 6727568863, "lat": 39.8016019, "lon": 22.3429955}, {"type": "node", "id": 6727568873, "lat": 39.8042915, "lon": 22.3414938}, {"type": "node", "id": 6727568874, "lat": 39.8041406, "lon": 22.3415132}, {"type": "node", "id": 6727568875, "lat": 39.8041474, "lon": 22.3416336}, {"type": "node", "id": 6727568876, "lat": 39.8042045, "lon": 22.3416283}, {"type": "node", "id": 6727568877, "lat": 39.8042059, "lon": 22.3415911}, {"type": "node", "id": 6727568878, "lat": 39.8042943, "lon": 22.341577}, {"type": "node", "id": 6727689122, "lat": 39.8005379, "lon": 22.3428351, "tags": {"amenity": "restaurant"}}, {"type": "node", "id": 6749648105, "lat": 39.9787067, "lon": 22.64571, "tags": {"amenity": "restaurant", "name": "\u03a8\u03ac\u03b8\u03b1", "name:el": "\u03a8\u03ac\u03b8\u03b1", "name:en": "Psatha"}}, {"type": "node", "id": 6773689225, "lat": 40.0596979, "lon": 22.5688917, "tags": {"amenity": "restaurant", "cuisine": "seafood;regional", "indoor_seating": "yes", "name": "Medusa", "name:el": "\u039c\u03b5\u03b4\u03bf\u03c5\u03c3\u03b1", "opening_hours": "Mo-Su 09:00-24:00", "outdoor_seating": "yes"}}, {"type": "node", "id": 6787674952, "lat": 40.0572637, "lon": 22.5653748, "tags": {"amenity": "cafe", "outdoor_seating": "yes"}}, {"type": "node", "id": 6840700005, "lat": 39.8970021, "lon": 22.186695}, {"type": "node", "id": 6840700006, "lat": 39.8968986, "lon": 22.1867003}, {"type": "node", "id": 6840700007, "lat": 39.8969006, "lon": 22.1868458}, {"type": "node", "id": 6840700008, "lat": 39.8970095, "lon": 22.1868353}, {"type": "node", "id": 6840700219, "lat": 39.8941175, "lon": 22.1863031}, {"type": "node", "id": 6840700220, "lat": 39.893703, "lon": 22.1865003}, {"type": "node", "id": 6840700221, "lat": 39.8937469, "lon": 22.1860287}, {"type": "node", "id": 6840700222, "lat": 39.894089, "lon": 22.1860716}, {"type": "node", "id": 7450243980, "lat": 39.889213, "lon": 22.1937581, "tags": {"addr:city": "\u0395\u03bb\u03b1\u03c3\u03c3\u03cc\u03bd\u03b1", "addr:postcode": "40200", "addr:street": "1\u03b7\u03c2 \u039c\u03b5\u03c1\u03b1\u03c1\u03c7\u03af\u03b1\u03c2", "amenity": "restaurant", "name": "\u03a8\u03b7\u03c4\u03bf\u03c0\u03c9\u03bb\u03b5\u03af\u03bf \"\u039f \u0396\u03ae\u03ba\u03bf\u03c2\"", "phone": "2493 024665"}}, {"type": "node", "id": 7450243981, "lat": 39.8892191, "lon": 22.1941144, "tags": {"addr:street": "\u0395\u03c0\u03b1\u03c1.\u039f\u03b4. \u0395\u03bb\u03b1\u03c3\u03c3\u03cc\u03bd\u03b1\u03c2-\u03a4\u03c3\u03b1\u03c1\u03b9\u03c4\u03c3\u03ac\u03bd\u03b7\u03c2", "amenity": "cafe", "name": "N'JOY", "outdoor_seating": "yes"}}, {"type": "node", "id": 8428909387, "lat": 40.012059, "lon": 22.5937461, "tags": {"addr:city": "Paralia Panteleimonos", "addr:postcode": "600 65", "amenity": "restaurant", "name": "Heraklia Beach Camping Restaurant"}}, {"type": "node", "id": 8593461595, "lat": 39.9121722, "lon": 22.185629, "tags": {"amenity": "restaurant", "name": "Archontar\u00edki"}}, {"type": "node", "id": 8910611617, "lat": 39.9760628, "lon": 22.6566784, "tags": {"addr:city": "Nei Pori", "addr:country": "GR", "addr:housenumber": "3", "addr:postcode": "600 65", "addr:street": "Olympou-Liotopoulou", "amenity": "restaurant", "contact:facebook": "https://www.facebook.com/profile.php?id=100057667080303", "email": "kostasroumpies@gmail.com", "image": "https://kisskarikak.com/Kepek/Egyeb/Avra.jpg", "mobile": "+30 235 204 1870", "name:en": "Avra", "name:ro": "Avra", "opening_hours": "Mo-Su 12:00-24:00", "phone": "+30 697 277 3687"}}, {"type": "node", "id": 9202303591, "lat": 39.646096, "lon": 22.41136}, {"type": "node", "id": 9202303715, "lat": 39.6461373, "lon": 22.4113666}, {"type": "node", "id": 9202303716, "lat": 39.6461366, "lon": 22.4113739}, {"type": "node", "id": 9325036217, "lat": 39.8393758, "lon": 22.1037255, "tags": {"amenity": "cafe", "name:en": "Thomas Caf\u00e9"}}, {"type": "node", "id": 9356086217, "lat": 40.0607107, "lon": 22.5686872, "tags": {"amenity": "restaurant", "name": "Zorbas"}}, {"type": "node", "id": 9908337453, "lat": 39.9942928, "lon": 22.6198244}, {"type": "node", "id": 9908337454, "lat": 39.9943492, "lon": 22.6198679}, {"type": "node", "id": 9908337643, "lat": 39.994297, "lon": 22.6199831}, {"type": "node", "id": 9908355819, "lat": 39.9942406, "lon": 22.6199396}, {"type": "node", "id": 9938919926, "lat": 39.9933026, "lon": 22.6220134}, {"type": "node", "id": 9938920028, "lat": 39.993275, "lon": 22.6219848}, {"type": "node", "id": 9938920129, "lat": 39.9933696, "lon": 22.6220827}, {"type": "node", "id": 9938920132, "lat": 39.9933349, "lon": 22.6218862}, {"type": "node", "id": 9938920322, "lat": 39.9934295, "lon": 22.621984}, {"type": "node", "id": 9938921323, "lat": 39.9933367, "lon": 22.6220487}, {"type": "node", "id": 9938921917, "lat": 39.9932974, "lon": 22.621948}, {"type": "node", "id": 10202979823, "lat": 40.0032464, "lon": 22.5968815}, {"type": "node", "id": 10202979824, "lat": 40.0033576, "lon": 22.5967858}, {"type": "node", "id": 10202980121, "lat": 40.0032543, "lon": 22.596773}, {"type": "node", "id": 10202980217, "lat": 40.0033496, "lon": 22.5968944}, {"type": "node", "id": 10222409717, "lat": 39.9764393, "lon": 22.6568046, "tags": {"amenity": "restaurant", "contact:facebook": "https://www.facebook.com/pages/Paradise-Beach-Bar-Nei-Pori/1435040399887900", "image": "https://kisskarikak.com/Kepek/Egyeb/Paradise.jpg", "name": "Paradise Beach Bar", "phone": "+30 697 730 9186"}}, {"type": "node", "id": 10911033566, "lat": 39.649908, "lon": 22.432616, "tags": {"amenity": "cafe", "name": "Cafe Goal"}}, {"type": "node", "id": 11118338571, "lat": 39.8119924, "lon": 22.540969, "tags": {"amenity": "restaurant"}}, {"type": "node", "id": 11118338576, "lat": 39.8094162, "lon": 22.5346469, "tags": {"amenity": "restaurant"}}, {"type": "node", "id": 11133586646, "lat": 39.988776, "lon": 22.6289771, "tags": {"amenity": "cafe", "brand": "Mikel", "brand:wikidata": "Q16952021", "cuisine": "coffee_shop", "name": "Mikel", "takeaway": "yes"}}, {"type": "node", "id": 11133586647, "lat": 39.9889978, "lon": 22.628809, "tags": {"amenity": "cafe"}}, {"type": "node", "id": 11267611754, "lat": 39.738508, "lon": 22.2889093, "tags": {"addr:city": "\u03a4\u03cd\u03c1\u03bd\u03b1\u03b2\u03bf\u03c2", "addr:housenumber": "6", "addr:postcode": "40100", "addr:street": "\u0391\u03b3\u03af\u03b1\u03c2 \u03a0\u03b1\u03c1\u03b1\u03c3\u03ba\u03b5\u03c5\u03ae\u03c2", "amenity": "restaurant", "cuisine": "greek;regional", "name": "\u03a0\u03ac\u03c1\u03b1\u03c5\u03c4\u03b1 \u039c\u03b5\u03b6\u03b5\u03b4\u03bf\u03c0\u03c9\u03bb\u03b5\u03af\u03bf"}}, {"type": "node", "id": 12165462010, "lat": 39.9435248, "lon": 22.1691825}, {"type": "node", "id": 12165462011, "lat": 39.9434059, "lon": 22.1692241}, {"type": "node", "id": 12165462012, "lat": 39.9433832, "lon": 22.1691141}, {"type": "node", "id": 12165462013, "lat": 39.9433173, "lon": 22.1691371}, {"type": "node", "id": 12165462014, "lat": 39.9433789, "lon": 22.1694372}, {"type": "node", "id": 12165462015, "lat": 39.9435639, "lon": 22.1693725}, {"type": "node", "id": 12211718299, "lat": 40.0332199, "lon": 22.5141231}, {"type": "node", "id": 12211718300, "lat": 40.033266, "lon": 22.5142335}, {"type": "node", "id": 12211735501, "lat": 40.0333641, "lon": 22.5141635}, {"type": "node", "id": 12211735502, "lat": 40.0333179, "lon": 22.5140531}, {"type": "node", "id": 12376214495, "lat": 39.8939535, "lon": 22.188908, "tags": {"amenity": "cafe", "name": "Mikro Cafe"}}, {"type": "node", "id": 12557119337, "lat": 39.7368861, "lon": 22.289415, "tags": {"amenity": "cafe", "indoor_seating": "yes", "name": "DE - TOX", "outdoor_seating": "yes"}}, {"type": "node", "id": 12621409725, "lat": 39.7394889, "lon": 22.2879104, "tags": {"amenity": "cafe", "name": "FRANKLIN"}}, {"type": "node", "id": 12628406258, "lat": 39.7374977, "lon": 22.2902255, "tags": {"amenity": "restaurant", "cuisine": "pizza"}}, {"type": "node", "id": 12633287983, "lat": 39.736023, "lon": 22.2912981, "tags": {"air_conditioning": "yes", "amenity": "cafe", "name": "\u0391\u039d\u0391\u03a8\u03a5\u039a\u03a4\u0397\u03a1\u0399\u039f", "name:el": "\u0391\u039d\u0391\u03a8\u03a5\u039a\u03a4\u0397\u03a1\u0399\u039f", "surveillance": "indoor"}}, {"type": "node", "id": 12705918902, "lat": 39.7384954, "lon": 22.2881768, "tags": {"amenity": "cafe", "name": "ROYAL"}}, {"type": "way", "id": 258070403, "nodes": [2634834734, 2634834737, 2634834727, 2634834725, 2634834719, 2634834724, 2634834728, 2634834730, 2634834726, 2634834729, 2634834731, 2634834732, 3114820719, 2634834734], "tags": {"amenity": "restaurant", "building": "yes", "ele": "1073", "name": "Prionia 1100", "outdoor_seating": "yes", "wpt_description": "10-JUN-10 15:31:30", "wpt_symbol": "Restaurant"}}, {"type": "way", "id": 309130429, "nodes": [3144486894, 3144486895, 3144486896, 3144486897, 3144486898, 3144486899, 3144486900, 3144486901, 3144486894], "tags": {"amenity": "cafe", "building": "commercial", "name": "Baraze", "outdoor_seating": "yes"}}, {"type": "way", "id": 369242263, "nodes": [3730492389, 3730492390, 3730492391, 3730492392, 3730492389], "tags": {"amenity": "cafe", "building": "yes", "name": "\u0392\u039f\u039b\u03a4\u0391", "name:el": "\u0392\u039f\u039b\u03a4\u0391"}}, {"type": "way", "id": 369242266, "nodes": [3730492393, 3730492394, 3730492395, 3730492396, 3730492393], "tags": {"amenity": "cafe", "building": "yes", "name": "selfie", "name:en": "selfie"}}, {"type": "way", "id": 369242269, "nodes": [3730492397, 3730492398, 3730492399, 3730492400, 3730492397], "tags": {"amenity": "cafe", "building": "yes"}}, {"type": "way", "id": 369242272, "nodes": [3730492401, 3730492402, 3730492403, 3730492404, 3730492401], "tags": {"amenity": "cafe", "building": "yes", "indoor_seating": "yes", "name": "mikel", "name:en": "mikel", "outdoor_seating": "yes"}}, {"type": "way", "id": 369242274, "nodes": [3730492406, 3730492407, 3730492408, 3730492409, 3730492406], "tags": {"amenity": "cafe", "building": "yes"}}, {"type": "way", "id": 372206798, "nodes": [3757441494, 3757441495, 3757441496, 3757441497, 3757441498, 3757441499, 3757441494], "tags": {"amenity": "restaurant", "building": "yes"}}, {"type": "way", "id": 396126545, "nodes": [3989446866, 9202303591, 9202303715, 9202303716, 3989446868, 3989446869, 3989446866], "tags": {"amenity": "cafe", "building": "yes", "cuisine": "ice_cream", "delivery": "no", "ice_cream": "yes", "internet_access": "yes", "internet_access:fee": "yes", "outdoor_seating": "yes", "smoking": "no", "takeaway": "yes", "wheelchair": "yes"}}, {"type": "way", "id": 448135710, "nodes": [4451726520, 4451726521, 4451726522, 4451726523, 4451726520], "tags": {"amenity": "cafe", "building": "yes", "internet_access": "yes"}}, {"type": "way", "id": 502970020, "nodes": [4933274816, 4933274817, 4933274818, 4933274819, 4933274816], "tags": {"amenity": "restaurant", "building": "yes", "cuisine": "greek", "name": "\u03a4\u0395\u039c\u03a0\u0397 \u03b5\u03c3\u03c4\u03b9\u03b1\u03c4\u03cc\u03c1\u03b9\u03bf"}}, {"type": "way", "id": 598285031, "nodes": [5694485307, 5694485306, 5694485305, 5694485304, 5694485307], "tags": {"amenity": "cafe", "building": "yes"}}, {"type": "way", "id": 715886122, "nodes": [6727568850, 6727568851, 6727568852, 6727568853, 6727568854, 6727568855, 6727568850], "tags": {"amenity": "restaurant", "building": "yes", "cuisine": "greek", "name": "\u03a4\u03b1\u03b2\u03ad\u03c1\u03bd\u03b1 \u039d\u03c4\u03b9\u03bd\u03c4\u03cc\u03ba\u03b1\u03c2"}}, {"type": "way", "id": 715886124, "nodes": [6727568860, 6727568861, 6727568862, 6727568863, 6727568860], "tags": {"amenity": "restaurant", "building": "yes", "cuisine": "greek", "name": "\u03a0\u03c5\u03c1\u03bf\u03c3\u03c4\u03b9\u03ac"}}, {"type": "way", "id": 715886127, "nodes": [6727568873, 6727568874, 6727568875, 6727568876, 6727568877, 6727568878, 6727568873], "tags": {"amenity": "cafe", "building": "yes", "name": "Le Paris"}}, {"type": "way", "id": 730200474, "nodes": [6840700005, 6840700006, 6840700007, 6840700008, 6840700005], "tags": {"amenity": "cafe", "building": "yes", "name": "1936"}}, {"type": "way", "id": 730202031, "nodes": [6840700219, 6840700220, 6840700221, 6840700222, 6840700219], "tags": {"amenity": "restaurant", "building": "yes", "name": "\u03a6\u03b1\u03bd\u03c4\u03b1\u03c3\u03af\u03b1"}}, {"type": "way", "id": 1081016975, "nodes": [9908337454, 9908337643, 9908355819, 9908337453, 9908337454], "tags": {"addr:street": "\u039a\u03c9\u03bd\u03c3\u03c4\u03b1\u03bd\u03c4\u03af\u03bd\u03bf\u03c5 \u039a\u03b1\u03c1\u03b1\u03bc\u03b1\u03bd\u03bb\u03ae", "amenity": "restaurant", "building": "yes", "cuisine": "greek;grill", "name": "\u03a4\u03bf \u03a4\u03b6\u03b1\u03ba\u03b9", "opening_hours": "Mo-Su 09:00-01:00", "phone": "2352 043400"}}, {"type": "way", "id": 1084601415, "nodes": [9938921323, 9938920129]}, {"type": "way", "id": 1084601416, "nodes": [9938920028, 9938919926]}, {"type": "way", "id": 1084601417, "nodes": [9938921323, 9938919926]}, {"type": "way", "id": 1084601570, "nodes": [9938920028, 9938921917, 9938920132, 9938920322, 9938920129]}, {"type": "way", "id": 1115619207, "nodes": [10202979824, 10202980217, 10202979823, 10202980121, 10202979824], "tags": {"amenity": "cafe", "building": "yes", "name": "Kempap"}}, {"type": "way", "id": 1314361463, "nodes": [12165462010, 12165462011, 12165462012, 12165462013, 12165462014, 12165462015, 12165462010], "tags": {"amenity": "restaurant", "building": "yes", "name": "\u038c\u03bb\u03c5\u03bc\u03c0\u03bf\u03c2", "name:el": "\u038c\u03bb\u03c5\u03bc\u03c0\u03bf\u03c2", "name:en": "\u00d3lympos", "opening_hours": "Mo-Su 08:30-24:00", "phone": "+302493061145"}}, {"type": "way", "id": 1319619471, "nodes": [12211718299, 12211718300, 12211735501, 12211735502, 12211718299], "tags": {"amenity": "cafe", "building": "yes", "name": "\u039a\u03b1\u03c6\u03ad \u039b\u03b5\u03af\u03b2\u03b7\u03b8\u03c1\u03b1", "outdoor_seating": "yes", "phone": "+306934525161"}}, {"type": "relation", "id": 14439909, "members": [{"type": "way", "ref": 1084601415, "role": "outer"}, {"type": "way", "ref": 1084601417, "role": "outer"}, {"type": "way", "ref": 1084601416, "role": "outer"}, {"type": "way", "ref": 1084601570, "role": "outer"}], "tags": {"amenity": "cafe", "building": "yes", "cuisine": "ice_cream", "type": "multipolygon"}}]}