{"version": 0.6, "generator": "Overpass API 0.7.62.7 375dc00a", "osm3s": {"timestamp_osm_base": "2025-06-14T13:14:57Z", "copyright": "The data included in this document is from www.openstreetmap.org. The data is made available under ODbL."}, "elements": [{"type": "node", "id": 479486406, "lat": 39.9173533, "lon": 4.0333417}, {"type": "node", "id": 479486409, "lat": 39.91748, "lon": 4.0330841}, {"type": "node", "id": 1342230432, "lat": 39.9390192, "lon": 3.9375804, "tags": {"amenity": "restaurant", "amenity_1": "cafe", "check_date:opening_hours": "2024-10-11", "name": "Cafe/Restaurant Susy", "opening_hours": "Mo-Su 10:00-19:00", "source": "survey"}}, {"type": "node", "id": 1374558697, "lat": 40.0571293, "lon": 4.1320714, "tags": {"addr:city": "Es Mercadal", "addr:housenumber": "31", "addr:postcode": "07748", "addr:street": "Carrer de ses Escoles", "addr:unit": "Fornells", "amenity": "restaurant", "cuisine": "regional", "name": "Restaurante Es Cranc", "name:ca": "Restaurante Es Cranc", "name:es": "Restaurante El Cangrejo", "phone": "+34 971 37 64 42", "smoking": "no"}}, {"type": "node", "id": 1414792888, "lat": 39.8514705, "lon": 4.172616, "tags": {"amenity": "restaurant", "source": "survey"}}, {"type": "node", "id": 1417399465, "lat": 39.8519643, "lon": 4.1688212, "tags": {"amenity": "restaurant", "cuisine": "regional", "name": "Es Canutells", "phone": "+34 971 18 89 34"}}, {"type": "node", "id": 1470624676, "lat": 39.98757, "lon": 4.0913442, "tags": {"amenity": "restaurant", "name": "Restaurant Es Mol\u00ed", "name:ca": "Restaurant Es Mol\u00ed", "name:es": "Restaurante El Molino"}}, {"type": "node", "id": 1475177962, "lat": 39.8516052, "lon": 4.1724097, "tags": {"amenity": "restaurant", "name": "Chepa`s Bar-Cafe", "source": "survey"}}, {"type": "node", "id": 1511501239, "lat": 39.9943183, "lon": 3.8323137, "tags": {"amenity": "restaurant", "cuisine": "regional", "name": "l Passeig"}}, {"type": "node", "id": 1609227935, "lat": 39.8986258, "lon": 4.0747291}, {"type": "node", "id": 1609227937, "lat": 39.8985635, "lon": 4.0746573}, {"type": "node", "id": 1609227956, "lat": 39.8998325, "lon": 4.0727161}, {"type": "node", "id": 1609227960, "lat": 39.8996846, "lon": 4.0728259}, {"type": "node", "id": 1609227961, "lat": 39.8984622, "lon": 4.0748066}, {"type": "node", "id": 1609228007, "lat": 39.8985246, "lon": 4.0748785}, {"type": "node", "id": 1609228054, "lat": 39.8997615, "lon": 4.0726601}, {"type": "node", "id": 1609228167, "lat": 39.8997556, "lon": 4.0728818}, {"type": "node", "id": 1647551630, "lat": 40.0405488, "lon": 4.1235551}, {"type": "node", "id": 1743095137, "lat": 40.0329736, "lon": 4.1599563}, {"type": "node", "id": 1743095156, "lat": 40.0327342, "lon": 4.1598326}, {"type": "node", "id": 1743095175, "lat": 40.0326749, "lon": 4.1598072}, {"type": "node", "id": 1743095194, "lat": 40.0327939, "lon": 4.1598382}, {"type": "node", "id": 1743095206, "lat": 40.032971, "lon": 4.1599208}, {"type": "node", "id": 1743095234, "lat": 40.0329928, "lon": 4.1598018}, {"type": "node", "id": 1743095249, "lat": 40.0327146, "lon": 4.1599487}, {"type": "node", "id": 1743095256, "lat": 40.0327173, "lon": 4.1599869}, {"type": "node", "id": 1743095264, "lat": 40.032685, "lon": 4.1599522}, {"type": "node", "id": 1743095265, "lat": 40.0330008, "lon": 4.1599173}, {"type": "node", "id": 1757331149, "lat": 39.8712901, "lon": 4.1327939, "tags": {"amenity": "restaurant", "cuisine": "regional"}}, {"type": "node", "id": 1757331151, "lat": 39.8717129, "lon": 4.1326277, "tags": {"amenity": "restaurant", "cuisine": "pizza"}}, {"type": "node", "id": 1758631269, "lat": 39.9847458, "lon": 4.1134617, "tags": {"amenity": "restaurant", "check_date": "2024-07-07", "cuisine": "regional", "name": "Sa Posada del Toro", "outdoor_seating": "yes"}}, {"type": "node", "id": 1758693732, "lat": 40.0552798, "lon": 4.130135, "tags": {"amenity": "restaurant", "cuisine": "regional", "name": "Ca'n Burdo"}}, {"type": "node", "id": 1758693750, "lat": 40.0550534, "lon": 4.1300091, "tags": {"addr:housenumber": "1", "addr:street": "Passeig Mar\u00edtim Gumersind Riera", "amenity": "restaurant", "cuisine": "regional", "name": "El Pescador"}}, {"type": "node", "id": 1758693760, "lat": 40.0526846, "lon": 4.1297721, "tags": {"addr:city": "Es Mercadal", "addr:housenumber": "46", "addr:postcode": "07748", "addr:street": "Passeig Mar\u00edtim Gumersind Riera", "addr:unit": "Fornells", "amenity": "restaurant", "cuisine": "regional;pizza", "name": "Es Mosset de Fornells", "phone": "+34 971 37 63 90"}}, {"type": "node", "id": 1758693831, "lat": 40.0560672, "lon": 4.1309286, "tags": {"addr:city": "Es Mercadal", "addr:housenumber": "33", "addr:postcode": "07748", "addr:street": "Carrer Major", "addr:unit": "Fornells", "amenity": "restaurant", "cuisine": "regional", "name": "La Guapa", "name:ca": "La Guapa"}}, {"type": "node", "id": 1758693832, "lat": 40.0555098, "lon": 4.13, "tags": {"addr:city": "Es Mercadal", "addr:housenumber": "3", "addr:postcode": "07748", "addr:street": "Pla\u00e7a S'Algaret", "addr:unit": "Fornells", "amenity": "restaurant", "cuisine": "regional", "email": "reservas@hostallapalma.com", "name": "La Palma", "name:ca": "La Palma", "phone": "+34 971 37 66 34", "toilets:wheelchair": "yes", "wheelchair": "yes"}}, {"type": "node", "id": 1758694033, "lat": 40.0556384, "lon": 4.1301213, "tags": {"addr:city": "Es Mercadal", "addr:housenumber": "6", "addr:postcode": "07748", "addr:street": "Pla\u00e7a S'Algaret", "addr:unit": "Fornells", "amenity": "restaurant", "cuisine": "regional", "name": "S'Algaret"}}, {"type": "node", "id": 1758694044, "lat": 40.0546904, "lon": 4.1298077, "tags": {"amenity": "restaurant", "cuisine": "regional", "name": "S'Ancora"}}, {"type": "node", "id": 1758694055, "lat": 40.0555759, "lon": 4.131184, "tags": {"addr:city": "Es Mercadal", "addr:housenumber": "12", "addr:postcode": "07748", "addr:street": "Carrer Gabriel Gelabert", "addr:unit": "Fornells", "amenity": "restaurant", "cuisine": "regional", "name": "Sa Llagosta", "phone": "+34 971 37 65 66"}}, {"type": "node", "id": 1758694068, "lat": 40.0565578, "lon": 4.1323684, "tags": {"addr:city": "Es Mercadal", "addr:postcode": "07748", "addr:street": "Carrer de Vivers", "addr:unit": "Fornells", "amenity": "restaurant", "cuisine": "regional", "name": "Sa Nansa"}}, {"type": "node", "id": 1758694100, "lat": 40.0544453, "lon": 4.1296431, "tags": {"addr:housenumber": "13", "addr:street": "Pla\u00e7a de S'Algaret", "amenity": "restaurant", "cuisine": "regional", "name": "Sa Proa"}}, {"type": "node", "id": 1758694106, "lat": 40.0537999, "lon": 4.1296033, "tags": {"addr:city": "Es Mercadal", "addr:housenumber": "26", "addr:postcode": "07748", "addr:street": "Passeig Mar\u00edtim Gumersind Riera", "addr:unit": "Fornells", "amenity": "restaurant", "cuisine": "regional", "name": "Sa Rumbada", "phone": "+34 971 37 67 77"}}, {"type": "node", "id": 1758694112, "lat": 40.055159, "lon": 4.1299522, "tags": {"addr:housenumber": "9", "addr:street": "Carrer del Rosari", "amenity": "restaurant", "cuisine": "regional", "name": "Sa Mitja Lluna", "name:ca": "Sa Mitja Lluna", "name:es": "La Media Luna"}}, {"type": "node", "id": 1762414753, "lat": 40.002076, "lon": 3.8384828, "tags": {"amenity": "restaurant", "cuisine": "regional", "name": "Es Puntet"}}, {"type": "node", "id": 1762415014, "lat": 40.0011693, "lon": 3.8398082, "tags": {"addr:housenumber": "2", "addr:street": "Carrer Sant Onofre", "amenity": "cafe", "name": "Viena", "name:ca": "Viena", "phone": "+34 971 383 400"}}, {"type": "node", "id": 1762575372, "lat": 40.0002141, "lon": 3.8363831, "tags": {"amenity": "restaurant", "cuisine": "chinese", "name": "Asiatico"}}, {"type": "node", "id": 1762840869, "lat": 40.0007626, "lon": 3.8346851, "tags": {"amenity": "restaurant", "cuisine": "regional", "name": "Corb Mari"}}, {"type": "node", "id": 1762840870, "lat": 40.0010936, "lon": 3.8354343, "tags": {"amenity": "restaurant", "cuisine": "regional", "name": "Des Port"}}, {"type": "node", "id": 1762840871, "lat": 40.000637, "lon": 3.8342936, "tags": {"amenity": "restaurant", "cuisine": "regional", "name": "El Ancla"}}, {"type": "node", "id": 1762840872, "lat": 40.000925, "lon": 3.8350988, "tags": {"amenity": "restaurant", "cuisine": "regional", "name": "Es Forat", "name:ca": "Es Forat"}}, {"type": "node", "id": 1762840873, "lat": 40.0004779, "lon": 3.8340654, "tags": {"amenity": "restaurant", "cuisine": "regional", "name": "La Payesa"}}, {"type": "node", "id": 1762840874, "lat": 40.0011947, "lon": 3.8356282, "tags": {"amenity": "restaurant", "cuisine": "regional", "name": "S'Arrosseria"}}, {"type": "node", "id": 1762840875, "lat": 40.0004224, "lon": 3.833877, "tags": {"amenity": "restaurant", "cuisine": "regional", "name": "Sa Foguera"}}, {"type": "node", "id": 1762841658, "lat": 40.0015551, "lon": 3.8358608, "tags": {"amenity": "restaurant", "cuisine": "italian", "name": "Corallo"}}, {"type": "node", "id": 1762841671, "lat": 40.0013583, "lon": 3.8358137, "tags": {"amenity": "cafe", "name": "Tapas del Mar"}}, {"type": "node", "id": 1763249698, "lat": 40.0491261, "lon": 4.0543634, "tags": {"amenity": "restaurant", "cuisine": "regional", "name": "Binimel\u00b7l\u00e0", "name:es": "Binimel\u00b7l\u00e0", "phone": "+34 971 359 275"}}, {"type": "node", "id": 1765013729, "lat": 39.9378758, "lon": 3.9581978, "tags": {"amenity": "restaurant", "cuisine": "regional", "name": "El Mirador", "name:ca": "El Mirador", "phone": "+34 971 154 503"}}, {"type": "node", "id": 1765013733, "lat": 39.9394376, "lon": 3.9576773, "tags": {"amenity": "restaurant", "cuisine": "regional", "name": "Ca'n Toni"}}, {"type": "node", "id": 1765013737, "lat": 39.9398481, "lon": 3.9579939, "tags": {"amenity": "restaurant", "cuisine": "indian", "name": "Escopinya"}}, {"type": "node", "id": 1765014053, "lat": 39.9705543, "lon": 4.000987}, {"type": "node", "id": 1765014069, "lat": 39.9706565, "lon": 4.0007675}, {"type": "node", "id": 1765014075, "lat": 39.9705859, "lon": 4.0009286}, {"type": "node", "id": 1765014083, "lat": 39.970644, "lon": 4.0007161}, {"type": "node", "id": 1765014093, "lat": 39.9706493, "lon": 4.0009866}, {"type": "node", "id": 1765014098, "lat": 39.9707151, "lon": 4.000865}, {"type": "node", "id": 1765014103, "lat": 39.9706852, "lon": 4.0006992}, {"type": "node", "id": 1765014107, "lat": 39.9706883, "lon": 4.0007544}, {"type": "node", "id": 1765014113, "lat": 39.9707419, "lon": 4.0011421}, {"type": "node", "id": 1765014117, "lat": 39.9707688, "lon": 4.0008017}, {"type": "node", "id": 1765014189, "lat": 39.939931, "lon": 3.9586916, "tags": {"amenity": "restaurant", "cuisine": "italian", "name": "Tobogan", "name:ca": "Tobogan", "phone": "+34 971 154 616"}}, {"type": "node", "id": 1766410268, "lat": 39.9174432, "lon": 4.0332037}, {"type": "node", "id": 1766410269, "lat": 39.9174574, "lon": 4.033253}, {"type": "node", "id": 1768403624, "lat": 39.9000922, "lon": 4.0765645, "tags": {"amenity": "restaurant", "cuisine": "spanish", "name": "Asador Restaurante Las Dunas"}}, {"type": "node", "id": 1768403664, "lat": 39.9006704, "lon": 4.0775784, "tags": {"addr:city": "Son Bou", "amenity": "restaurant", "cuisine": "regional", "name": "Compostela"}}, {"type": "node", "id": 1768403665, "lat": 39.9002444, "lon": 4.0764653, "tags": {"addr:postcode": "07730", "amenity": "restaurant", "cuisine": "italian", "name": "Allessandro's Italian Restaurant Pizzeria"}}, {"type": "node", "id": 2424518373, "lat": 39.8992123, "lon": 4.0778201, "tags": {"amenity": "restaurant", "cuisine": "spanish", "name": "Casa Andres"}}, {"type": "node", "id": 2424545779, "lat": 39.915635, "lon": 4.0796063, "tags": {"amenity": "restaurant", "name": "Es Forn de Torre Sol\u00ed Nou", "wheelchair": "no"}}, {"type": "node", "id": 2670770970, "lat": 39.9283303, "lon": 3.833458, "tags": {"amenity": "restaurant", "check_date": "2023-05-15", "name": "Aquarium", "source": "survey"}}, {"type": "node", "id": 2670770973, "lat": 39.9407595, "lon": 3.9567381, "tags": {"amenity": "restaurant", "check_date": "2025-04-21", "name": "Delit", "phone": "+34 971 154 740", "source": "survey"}}, {"type": "node", "id": 2670770974, "lat": 39.9277936, "lon": 3.8364758, "tags": {"amenity": "restaurant", "name": "El Pescador", "source": "survey"}}, {"type": "node", "id": 2670770976, "lat": 39.9283633, "lon": 3.8358551, "tags": {"amenity": "restaurant", "cuisine": "regional", "name": "La Pascana", "source": "survey"}}, {"type": "node", "id": 2882779741, "lat": 40.0013105, "lon": 3.8359308, "tags": {"amenity": "restaurant", "name": "Cas C\u00f2nsol"}}, {"type": "node", "id": 2886285625, "lat": 39.9993075, "lon": 3.835617, "tags": {"amenity": "cafe", "cuisine": "churro", "name": "Churrer\u00eda LaLoLa"}}, {"type": "node", "id": 3054343396, "lat": 39.9389242, "lon": 3.9592827}, {"type": "node", "id": 3054343397, "lat": 39.9389582, "lon": 3.9592536}, {"type": "node", "id": 3054343398, "lat": 39.9389654, "lon": 3.9592679}, {"type": "node", "id": 3054343399, "lat": 39.9389732, "lon": 3.9593802}, {"type": "node", "id": 3054343403, "lat": 39.9390313, "lon": 3.9592116}, {"type": "node", "id": 3054343404, "lat": 39.9390731, "lon": 3.9592948}, {"type": "node", "id": 3095292358, "lat": 39.9333073, "lon": 4.1381373, "tags": {"addr:city": "Alaior", "addr:housenumber": "35", "addr:postcode": "07730", "addr:street": "Carrer des Ramal", "amenity": "restaurant", "cuisine": "pizza", "name": "Pizzeria La Fontana II", "smoking": "outside"}}, {"type": "node", "id": 3095292359, "lat": 39.9334374, "lon": 4.138213, "tags": {"addr:city": "Alaior", "addr:housenumber": "20", "addr:postcode": "07730", "addr:street": "Carrer des Ramal", "amenity": "cafe", "name": "Es Rac\u00f3 d'Alaior", "smoking": "outside"}}, {"type": "node", "id": 3105227550, "lat": 39.9336109, "lon": 4.1396703, "tags": {"addr:city": "Alaior", "addr:postcode": "07730", "addr:street": "Pla\u00e7a de la Constituci\u00f3", "amenity": "restaurant", "name": "Es Casino", "smoking": "outside"}}, {"type": "node", "id": 3105998109, "lat": 39.9337376, "lon": 4.1400749, "tags": {"addr:city": "Alaior", "addr:housenumber": "10B", "addr:postcode": "07730", "addr:street": "Carrer des Forn", "amenity": "cafe", "name": "Caf\u00e8 des Forn", "smoking": "outside"}}, {"type": "node", "id": 3110739606, "lat": 39.9358962, "lon": 4.1425937, "tags": {"addr:city": "Alaior", "addr:housenumber": "73", "addr:postcode": "07730", "addr:street": "Avinguda de la Verge del Toro", "amenity": "restaurant", "name": "Es Pouet Nou", "smoking": "outside"}}, {"type": "node", "id": 3110839822, "lat": 39.9330398, "lon": 4.1432287, "tags": {"addr:city": "Alaior", "addr:housenumber": "4A", "addr:postcode": "07730", "addr:street": "Carrer de Sant Joan Baptista de la Salle", "amenity": "restaurant", "name": "Ca'n Jaumot"}}, {"type": "node", "id": 3125568011, "lat": 39.9305919, "lon": 4.139947, "tags": {"addr:city": "Alaior", "addr:housenumber": "112", "addr:postcode": "07730", "addr:street": "Carretera Nova", "amenity": "cafe", "name": "Buda", "smoking": "no"}}, {"type": "node", "id": 3125568054, "lat": 39.9308544, "lon": 4.1373202, "tags": {"addr:city": "Alaior", "addr:housenumber": "16", "addr:postcode": "07730", "addr:street": "Carretera Nova", "amenity": "restaurant", "name": "Sa Teulera", "name:ca": "Sa Teulera", "smoking": "outside"}}, {"type": "node", "id": 3343895217, "lat": 39.9869954, "lon": 4.1308391}, {"type": "node", "id": 3343895218, "lat": 39.9869611, "lon": 4.1311881}, {"type": "node", "id": 3343895219, "lat": 39.9873236, "lon": 4.1312007}, {"type": "node", "id": 3343895220, "lat": 39.9871106, "lon": 4.1315451}, {"type": "node", "id": 3343895223, "lat": 39.9870614, "lon": 4.1314936}, {"type": "node", "id": 3343895224, "lat": 39.9870397, "lon": 4.1315287}, {"type": "node", "id": 3343895225, "lat": 39.9869797, "lon": 4.1314657}, {"type": "node", "id": 3343895226, "lat": 39.9870616, "lon": 4.1313335}, {"type": "node", "id": 3343895227, "lat": 39.9869764, "lon": 4.1312442}, {"type": "node", "id": 3343895228, "lat": 39.986965, "lon": 4.1312624}, {"type": "node", "id": 3343895229, "lat": 39.9869348, "lon": 4.1312305}, {"type": "node", "id": 3343895230, "lat": 39.9869618, "lon": 4.1311885}, {"type": "node", "id": 3343895231, "lat": 39.9870176, "lon": 4.1312472}, {"type": "node", "id": 3343895232, "lat": 39.9870416, "lon": 4.1312085}, {"type": "node", "id": 3343895233, "lat": 39.9870033, "lon": 4.1311685}, {"type": "node", "id": 3343895234, "lat": 39.9870258, "lon": 4.131132}, {"type": "node", "id": 3343895235, "lat": 39.9870635, "lon": 4.1311711}, {"type": "node", "id": 3343895236, "lat": 39.9871125, "lon": 4.1310912}, {"type": "node", "id": 3343895237, "lat": 39.9869464, "lon": 4.1309191}, {"type": "node", "id": 3372942524, "lat": 39.8992772, "lon": 4.0780702, "tags": {"addr:city": "Son Bou", "amenity": "restaurant", "cuisine": "indian", "name": "Boni Indian Spice"}}, {"type": "node", "id": 3372942528, "lat": 39.8995656, "lon": 4.077042, "tags": {"addr:city": "Son Bou", "addr:postcode": "07730", "addr:street": "Carretera de Son Bou", "amenity": "restaurant", "contact:facebook": "https://www.facebook.com/profile.php?id=100092355282871", "cuisine": "local;fish;burger;mediterranean", "name": "Nautilus caf\u00e9 restaurant"}}, {"type": "node", "id": 3372942530, "lat": 39.8996249, "lon": 4.0778475, "tags": {"addr:city": "Son Bou", "amenity": "restaurant", "cuisine": "chinese", "name": "Hong Kong"}}, {"type": "node", "id": 3372942531, "lat": 39.8999042, "lon": 4.076848, "tags": {"addr:city": "Son Bou", "amenity": "restaurant", "name": "Arthur"}}, {"type": "node", "id": 3372958313, "lat": 39.9681075, "lon": 3.835228, "tags": {"addr:street": "Avinguda de la Cala Blanca", "amenity": "restaurant", "contact:facebook": "https://es-es.facebook.com/pages/Restaurante-Sa-Cova-de-Cala-Blanca/125719194117669", "name": "Sa Cova", "name:ca": "Sa Cova", "phone": "+34 971480147"}}, {"type": "node", "id": 3513583038, "lat": 39.9149863, "lon": 4.0416102}, {"type": "node", "id": 3513583039, "lat": 39.9148263, "lon": 4.0413779}, {"type": "node", "id": 3513583041, "lat": 39.9146902, "lon": 4.0413122}, {"type": "node", "id": 3527084049, "lat": 39.9150336, "lon": 4.041463}, {"type": "node", "id": 3527084050, "lat": 39.9150113, "lon": 4.041552}, {"type": "node", "id": 3527084051, "lat": 39.914771, "lon": 4.041356}, {"type": "node", "id": 3527084052, "lat": 39.9147733, "lon": 4.0413493}, {"type": "node", "id": 3527084077, "lat": 39.9155091, "lon": 4.0403509}, {"type": "node", "id": 3527084078, "lat": 39.9155717, "lon": 4.040479}, {"type": "node", "id": 3527084079, "lat": 39.9155403, "lon": 4.0405017}, {"type": "node", "id": 3527084080, "lat": 39.9155191, "lon": 4.0406203}, {"type": "node", "id": 3527084082, "lat": 39.915374, "lon": 4.0405539}, {"type": "node", "id": 3527084083, "lat": 39.9154336, "lon": 4.0403882}, {"type": "node", "id": 3527117237, "lat": 39.9132839, "lon": 4.0435224}, {"type": "node", "id": 3527117240, "lat": 39.9131456, "lon": 4.0437253}, {"type": "node", "id": 3527117241, "lat": 39.913192, "lon": 4.043706}, {"type": "node", "id": 3527117242, "lat": 39.9132472, "lon": 4.0438985}, {"type": "node", "id": 3527117243, "lat": 39.9133006, "lon": 4.0438727}, {"type": "node", "id": 3527117244, "lat": 39.9132841, "lon": 4.0438153}, {"type": "node", "id": 3527117245, "lat": 39.9133663, "lon": 4.0437588}, {"type": "node", "id": 3527117246, "lat": 39.9133624, "lon": 4.0437453}, {"type": "node", "id": 3527117247, "lat": 39.9133982, "lon": 4.0437281}, {"type": "node", "id": 3527117248, "lat": 39.9133881, "lon": 4.0436929}, {"type": "node", "id": 3527117249, "lat": 39.9134105, "lon": 4.0436822}, {"type": "node", "id": 3527117250, "lat": 39.9133379, "lon": 4.0435907}, {"type": "node", "id": 3527117251, "lat": 39.9133769, "lon": 4.0435719}, {"type": "node", "id": 3531391824, "lat": 39.9165223, "lon": 4.0363224, "tags": {"amenity": "restaurant", "name": "Don Tom\u00e1s"}}, {"type": "node", "id": 3531391826, "lat": 39.915518, "lon": 4.0371096, "tags": {"amenity": "restaurant"}}, {"type": "node", "id": 3531391827, "lat": 39.9149777, "lon": 4.0380197, "tags": {"amenity": "restaurant", "name": "Snackbar Malibu"}}, {"type": "node", "id": 3609727611, "lat": 39.9263019, "lon": 3.8447331, "tags": {"amenity": "restaurant", "cuisine": "regional", "name": "Neptuno"}}, {"type": "node", "id": 3614795236, "lat": 40.0005444, "lon": 3.8342262, "tags": {"amenity": "restaurant", "name": "Club Nautico Ciutadella"}}, {"type": "node", "id": 3731337012, "lat": 39.9860843, "lon": 4.0950312, "tags": {"addr:city": "es Mercadal", "addr:housenumber": "81", "addr:street": "Carrer mirada del toro", "amenity": "restaurant", "cuisine": "regional", "name": "Hostal Jeni", "name:ca": "Hostal Jeni", "name:es": "Hostal Jeni"}}, {"type": "node", "id": 4128049905, "lat": 39.9994906, "lon": 3.8312908, "tags": {"addr:city": "Ciutadella", "addr:postcode": "07760", "addr:street": "Cami de Baix", "amenity": "restaurant", "contact:phone": "+34 971 38 63 75", "contact:website": "http://www.cnciutadella.com/", "name": "Club Nautic"}}, {"type": "node", "id": 4128049910, "lat": 40.0002738, "lon": 3.8397469, "tags": {"addr:city": "Ciutadella", "addr:housenumber": "2", "addr:postcode": "07760", "addr:street": "Pla\u00e7a de Artrutx", "amenity": "cafe", "contact:facebook": "https://es-es.facebook.com/Caf%C3%A8-Ses-Persianes-657474590976439/", "contact:phone": "+34 971 38 14 45", "name": "Ses Persianes"}}, {"type": "node", "id": 4128049911, "lat": 40.0002199, "lon": 3.8393463, "tags": {"addr:city": "Ciutadella", "addr:postcode": "07760", "addr:street": "Pla\u00e7a de Artrutx", "amenity": "restaurant", "name": "Sa Placeta", "name:ca": "Sa Placeta"}}, {"type": "node", "id": 4128049914, "lat": 40.0007505, "lon": 3.8383531, "tags": {"addr:city": "Ciutadella", "addr:street": "Carrer Sant Joan Baptista", "amenity": "restaurant", "cuisine": "regional", "name": "La Guitarra", "name:ca": "La Guitarra"}}, {"type": "node", "id": 4128049917, "lat": 40.0012786, "lon": 3.8398479, "tags": {"addr:city": "Ciutadella", "addr:housenumber": "24", "addr:postcode": "07760", "addr:street": "Pla\u00e7a Llibertat", "amenity": "restaurant", "cuisine": "italian", "name": "Ti Amo"}}, {"type": "node", "id": 4128049918, "lat": 40.0013459, "lon": 3.8398627, "tags": {"addr:city": "Ciutadella", "addr:housenumber": "22", "addr:street": "Pla\u00e7a Llibertat", "amenity": "restaurant", "contact:facebook": "https://www.facebook.com/barulisses", "contact:phone": "+34 971 38 00 31", "cuisine": "regional", "name": "Ulisses"}}, {"type": "node", "id": 4128087347, "lat": 40.0010102, "lon": 3.838229, "tags": {"addr:city": "Ciutadella", "amenity": "restaurant", "cuisine": "regional", "name": "Margot"}}, {"type": "node", "id": 4128087351, "lat": 40.0021583, "lon": 3.8387306, "tags": {"addr:city": "Ciutadella", "amenity": "restaurant", "contact:website": "http://www.recibaria.com/sesvoltes/es/", "cuisine": "regional", "name": "Ses Voltes", "name:ca": "Ses Voltes"}}, {"type": "node", "id": 4128087356, "lat": 40.0022517, "lon": 3.8393774, "tags": {"addr:city": "Ciutadella", "addr:street": "Pla\u00e7a Nova", "amenity": "cafe", "name": "El Arco"}}, {"type": "node", "id": 4128087357, "lat": 40.0024617, "lon": 3.8393975, "tags": {"addr:city": "Ciutadella", "addr:street": "Pla\u00e7a Nova", "amenity": "restaurant", "cuisine": "regional", "name": "Ca's Quintu"}}, {"type": "node", "id": 4128087358, "lat": 40.0024764, "lon": 3.8394861, "tags": {"addr:city": "Ciutadella", "addr:street": "Pla\u00e7a Nova", "amenity": "restaurant", "name": "Questat"}}, {"type": "node", "id": 4128087359, "lat": 40.0024338, "lon": 3.8395799, "tags": {"addr:city": "Ciutadella", "addr:street": "Pla\u00e7a Nova", "amenity": "cafe", "name": "Es Pou", "name:ca": "Es Pou"}}, {"type": "node", "id": 4128087361, "lat": 40.0027644, "lon": 3.8392291, "tags": {"addr:city": "Ciutadella", "addr:housenumber": "9", "addr:postcode": "07760", "addr:street": "Carrer de Sa Carnisseria", "amenity": "restaurant", "contact:facebook": "https://www.facebook.com/es.tastet/info/?tab=overview", "contact:phone": "+34 971 38 47 97", "cuisine": "regional", "name": "Es Tastet"}}, {"type": "node", "id": 4128127717, "lat": 40.0021007, "lon": 3.8396147, "tags": {"addr:city": "Ciutadella", "addr:housenumber": "11", "addr:postcode": "07760", "addr:street": "Carrer Sant Pere", "amenity": "restaurant", "contact:facebook": "https://www.facebook.com/pages/El-Hogar-del-Pollo/142845315779900", "contact:phone": "+34 971 38 33 70", "cuisine": "regional", "name": "Bar Hogar del Pollo", "opening_hours": "Mo-Su 08:00-23:00"}}, {"type": "node", "id": 4128127719, "lat": 40.001741, "lon": 3.8358364, "tags": {"addr:city": "Ciutadella", "addr:housenumber": "42", "addr:postcode": "07760", "addr:street": "Carrer de Pere Capllonch", "amenity": "restaurant", "contact:phone": "+34 971 383 524", "contact:website": "http://www.samarador.com/", "cuisine": "regional", "name": "S'Amarador"}}, {"type": "node", "id": 4128127720, "lat": 40.0020083, "lon": 3.8358936, "tags": {"addr:city": "Ciutadella", "addr:housenumber": "15", "addr:postcode": "07760", "addr:street": "Carrer Pla de Sant Joan", "amenity": "restaurant", "contact:phone": "+34 971 38 00 05", "contact:website": "http://www.cafebalear.com/", "cuisine": "regional", "name": "Caf\u00e9 Balear"}}, {"type": "node", "id": 4234087811, "lat": 40.050971, "lon": 3.8847756, "tags": {"amenity": "restaurant", "name": "Bar-Rest Apartamentos Sa Cala", "smoking": "separated"}}, {"type": "node", "id": 4234503369, "lat": 40.0532876, "lon": 3.8820028}, {"type": "node", "id": 4234503370, "lat": 40.0533118, "lon": 3.8820173}, {"type": "node", "id": 4234503371, "lat": 40.0534548, "lon": 3.8819627}, {"type": "node", "id": 4234503372, "lat": 40.0533217, "lon": 3.8819181}, {"type": "node", "id": 4234503373, "lat": 40.0534556, "lon": 3.8819508}, {"type": "node", "id": 4234503375, "lat": 40.0533553, "lon": 3.8819399}, {"type": "node", "id": 4234503891, "lat": 40.0534698, "lon": 3.8820338}, {"type": "node", "id": 4244218069, "lat": 40.004933, "lon": 3.8103405, "tags": {"amenity": "restaurant", "name": "Restaurante Park"}}, {"type": "node", "id": 4283136489, "lat": 40.0015523, "lon": 3.8387359, "tags": {"addr:housenumber": "18", "addr:street": "Calle Seminari", "amenity": "restaurant", "cuisine": "spanish", "name": "Bistrot es Rodol", "phone": "+34684039014"}}, {"type": "node", "id": 4335027800, "lat": 40.000647, "lon": 3.8368869, "tags": {"amenity": "restaurant", "name": "La reina"}}, {"type": "node", "id": 4335027802, "lat": 40.0035116, "lon": 3.8385539, "tags": {"addr:city": "Ciutadella", "addr:housenumber": "4", "addr:postcode": "07760", "addr:street": "Carrer del Dormidor de les Monges", "amenity": "restaurant", "cuisine": "mediterranean", "name": "Santa Clara", "name:ca": "Santa Clara"}}, {"type": "node", "id": 4345310191, "lat": 39.9676075, "lon": 3.8347264, "tags": {"amenity": "restaurant", "name": "hola ola mediterranean beach"}}, {"type": "node", "id": 4405822704, "lat": 40.0027156, "lon": 3.841127, "tags": {"amenity": "restaurant", "name": "Moli des Comte Asador", "name:es": "Moli des Comte Asador"}}, {"type": "node", "id": 4405905191, "lat": 40.0039184, "lon": 3.8137539, "tags": {"amenity": "restaurant", "name": "Mr. Bep's", "name:es": "Mr. Bep's"}}, {"type": "node", "id": 4407186389, "lat": 39.9705482, "lon": 4.0007833, "tags": {"amenity": "restaurant", "name": "El Gallo", "name:es": "El Gallo"}}, {"type": "node", "id": 4408645026, "lat": 39.9999896, "lon": 3.8379226, "tags": {"amenity": "restaurant", "cuisine": "italian_pizza;italian", "indoor_seating": "yes", "name": "Roma Pizzeria", "name:it": "Roma Pizzeria", "outdoor_seating": "yes", "payment:credit_cards": "yes", "payment:debit_cards": "yes", "phone": "+34971384718", "website": "http://romaciutadella.com"}}, {"type": "node", "id": 4409727992, "lat": 39.9709878, "lon": 3.8441587, "tags": {"amenity": "restaurant", "internet_access": "wlan", "name": "Es Caliu"}}, {"type": "node", "id": 4409728591, "lat": 40.0038852, "lon": 3.813817, "tags": {"amenity": "restaurant", "internet_access": "wlan", "name": "Mr. Bep's", "name:es": "Mr. Bep's"}}, {"type": "node", "id": 4424554082, "lat": 39.9991573, "lon": 3.8423495, "tags": {"addr:city": "Ciutadella", "addr:postcode": "07760", "addr:street": "Pla\u00e7a Jaume II", "amenity": "restaurant", "cuisine": "regional;mediterranean;spanish", "name": "Jaume II", "name:ca": "Jaume II"}}, {"type": "node", "id": 4582752143, "lat": 39.9033213, "lon": 4.0725529}, {"type": "node", "id": 4582752144, "lat": 39.9034556, "lon": 4.0726556}, {"type": "node", "id": 4582752145, "lat": 39.90342, "lon": 4.0727342}, {"type": "node", "id": 4582752156, "lat": 39.9031999, "lon": 4.0730168}, {"type": "node", "id": 4872453526, "lat": 40.0015131, "lon": 3.839633, "tags": {"amenity": "cafe", "name": "Shelby"}}, {"type": "node", "id": 5121611237, "lat": 39.8872312, "lon": 4.1462254}, {"type": "node", "id": 5121611238, "lat": 39.8871147, "lon": 4.1461962}, {"type": "node", "id": 5121611239, "lat": 39.8870333, "lon": 4.1463723}, {"type": "node", "id": 5121611240, "lat": 39.8871895, "lon": 4.1464201}, {"type": "node", "id": 5121611241, "lat": 39.8871107, "lon": 4.1462202}, {"type": "node", "id": 5121611242, "lat": 39.887066, "lon": 4.1462077}, {"type": "node", "id": 5178714721, "lat": 40.0020335, "lon": 3.8395815, "tags": {"addr:housenumber": "16", "addr:postcode": "07760", "addr:street": "Carrer de Sant Pere", "amenity": "restaurant", "cuisine": "mediterranean", "email": "a.hoy666menorka@gmail.com", "internet_access": "wlan", "name": "Ca\u2019n Catapan", "opening_hours": "Mo-Su 11:00-13:00, 14:00-16:00", "phone": "+34 871713309"}}, {"type": "node", "id": 5514117360, "lat": 40.0506544, "lon": 4.1286504, "tags": {"addr:city": "Es Mercadal", "addr:housenumber": "98", "addr:postcode": "07748", "addr:street": "Passeig Mar\u00edtim Gumersind Riera", "addr:unit": "Fornells", "amenity": "restaurant", "cuisine": "regional", "description": "Restaurante Cran Pelut, traduci\u00f3n literal al espa\u00f1ol, Cangrejo peludo pero que hace referencia al nombre en menorqu\u00ed de la especie Eriphia verrucosa que recibe el nombre vern\u00e1culo en espa\u00f1ol de cangrejo peludo, cangrejo de roca, cangrejo moro, ...", "name": "Cranc Pelut", "name:ca": "Cranc Pelut", "name:es": "Restaurante Cangrejo Peludo", "phone": "+34 971 37 67 43", "website": "http://www.crancpelut.com/"}}, {"type": "node", "id": 5527967402, "lat": 40.0558393, "lon": 4.1306786, "tags": {"addr:city": "Es Mercadal", "addr:housenumber": "2", "addr:postcode": "07748", "addr:street": "Carrer Major", "addr:unit": "Fornells", "amenity": "restaurant", "name": "Sa Taula", "name:ca": "Sa Taula", "name:es": "La Taula", "phone": "+34 971 37 68 13"}}, {"type": "node", "id": 5527976616, "lat": 40.055901, "lon": 4.1317311, "tags": {"addr:city": "Es Mercadal", "addr:housenumber": "3", "addr:postcode": "07748", "addr:street": "Pla\u00e7a des Forn", "addr:unit": "Fornells", "amenity": "restaurant", "cuisine": "tapas", "name": "Petit", "smoking": "outside"}}, {"type": "node", "id": 5528385027, "lat": 40.0547887, "lon": 4.1298756, "tags": {"addr:city": "Es Mercadal", "addr:housenumber": "5", "addr:postcode": "07748", "addr:street": "Passeig Mar\u00edtim Gumersind Riera", "addr:unit": "Fornells", "amenity": "restaurant", "cuisine": "regional", "name": "Es Port", "phone": "+34 971 37 64 03"}}, {"type": "node", "id": 5632466849, "lat": 40.0573273, "lon": 4.132197, "tags": {"addr:city": "Es Mercadal", "addr:housenumber": "41", "addr:postcode": "07748", "addr:street": "Carrer de ses Escoles", "addr:unit": "Fornells", "amenity": "restaurant", "cuisine": "regional", "name": "La Cuina del Pep", "name:ca": "La Cuina del Pep", "name:es": "La Cocina de Pepe", "phone": "+34 971 37 68 53"}}, {"type": "node", "id": 5709240588, "lat": 40.001038, "lon": 3.8390223, "tags": {"amenity": "restaurant", "cuisine": "mediterranean", "name": "Maramao"}}, {"type": "node", "id": 5709240589, "lat": 40.001285, "lon": 3.8343479, "tags": {"addr:housenumber": "80", "addr:street": "Passeig des Moll", "amenity": "restaurant", "cuisine": "mediterranean", "name": "Coa", "phone": "+34 971217288"}}, {"type": "node", "id": 5792572882, "lat": 39.9288711, "lon": 3.8347163}, {"type": "node", "id": 5792572883, "lat": 39.9288464, "lon": 3.8348236}, {"type": "node", "id": 5792572884, "lat": 39.9287549, "lon": 3.8347874}, {"type": "node", "id": 5792572885, "lat": 39.9287745, "lon": 3.8347056}, {"type": "node", "id": 5792572886, "lat": 39.9288207, "lon": 3.8347217}, {"type": "node", "id": 5792572887, "lat": 39.9288248, "lon": 3.8347002}, {"type": "node", "id": 6420515302, "lat": 39.9416474, "lon": 3.9569895}, {"type": "node", "id": 6420515313, "lat": 39.9415558, "lon": 3.9570361}, {"type": "node", "id": 6420515330, "lat": 39.941497, "lon": 3.9568469}, {"type": "node", "id": 6420515342, "lat": 39.9415094, "lon": 3.9568404}, {"type": "node", "id": 6420515345, "lat": 39.9414599, "lon": 3.9569268}, {"type": "node", "id": 6420515350, "lat": 39.9415299, "lon": 3.9568516}, {"type": "node", "id": 6420515360, "lat": 39.9414682, "lon": 3.9570078}, {"type": "node", "id": 6420515367, "lat": 39.9416822, "lon": 3.9569009}, {"type": "node", "id": 6420515371, "lat": 39.9414992, "lon": 3.9568458}, {"type": "node", "id": 6420515376, "lat": 39.9415896, "lon": 3.956982}, {"type": "node", "id": 6420515382, "lat": 39.9415072, "lon": 3.9568465}, {"type": "node", "id": 6420515383, "lat": 39.9415038, "lon": 3.9568453}, {"type": "node", "id": 6420516200, "lat": 39.9415937, "lon": 3.9569721}, {"type": "node", "id": 6420516203, "lat": 39.9415805, "lon": 3.9569882}, {"type": "node", "id": 6420516204, "lat": 39.9415671, "lon": 3.9569855}, {"type": "node", "id": 6420516210, "lat": 39.9415014, "lon": 3.9568452}, {"type": "node", "id": 6420516222, "lat": 39.9414927, "lon": 3.956852}, {"type": "node", "id": 6420516232, "lat": 39.9415266, "lon": 3.9568498}, {"type": "node", "id": 6420516234, "lat": 39.9415854, "lon": 3.956986}, {"type": "node", "id": 6420516236, "lat": 39.9414809, "lon": 3.9569412}, {"type": "node", "id": 6420516252, "lat": 39.9415917, "lon": 3.9569784}, {"type": "node", "id": 6420516265, "lat": 39.9416556, "lon": 3.9569464}, {"type": "node", "id": 6420516268, "lat": 39.941495, "lon": 3.9568487}, {"type": "node", "id": 6420516275, "lat": 39.9416725, "lon": 3.956952}, {"type": "node", "id": 6542554672, "lat": 39.9379951, "lon": 3.9607258}, {"type": "node", "id": 6542554673, "lat": 39.9380437, "lon": 3.9608868}, {"type": "node", "id": 6542554674, "lat": 39.9379911, "lon": 3.9608802}, {"type": "node", "id": 6542554675, "lat": 39.9379931, "lon": 3.9606643}, {"type": "node", "id": 6563784385, "lat": 39.9406135, "lon": 3.9588945, "tags": {"amenity": "restaurant", "name": "Lighthouse Pub"}}, {"type": "node", "id": 6563839085, "lat": 39.9379898, "lon": 3.9607933, "tags": {"amenity": "restaurant", "name": "Es Passeig"}}, {"type": "node", "id": 6617298660, "lat": 39.8383492, "lon": 4.1925653, "tags": {"amenity": "restaurant", "check_date": "2025-05-28", "cuisine": "spanish", "diet:vegan": "yes", "diet:vegetarian": "yes", "indoor_seating": "yes", "name": "Binibal\u00ed", "outdoor_seating": "yes", "payment:credit_cards": "yes", "payment:debit_cards": "yes"}}, {"type": "node", "id": 6640665379, "lat": 39.9290504, "lon": 3.8337865, "tags": {"amenity": "restaurant", "cuisine": "pizza;regional", "name": "el Pato", "opening_hours": "09:00-24:00", "outdoor_seating": "yes"}}, {"type": "node", "id": 6641120213, "lat": 39.9280742, "lon": 3.8334562, "tags": {"amenity": "restaurant", "check_date": "2023-05-15", "cuisine": "steak", "name": "Rodizio"}}, {"type": "node", "id": 6641463538, "lat": 39.9295692, "lon": 3.8339812, "tags": {"amenity": "restaurant", "cuisine": "steak", "name": "Toro Negro"}}, {"type": "node", "id": 6644490325, "lat": 39.9283287, "lon": 3.8355884, "tags": {"amenity": "restaurant", "cuisine": "tapas;pizza", "name": "Noray"}}, {"type": "node", "id": 6651531211, "lat": 40.0026986, "lon": 3.8407522, "tags": {"amenity": "restaurant", "name": "Aurora", "outdoor_seating": "yes"}}, {"type": "node", "id": 6654659271, "lat": 39.9885176, "lon": 4.0926977, "tags": {"amenity": "restaurant", "check_date": "2023-05-11", "name": "The Tapas", "outdoor_seating": "yes"}}, {"type": "node", "id": 6654686877, "lat": 39.9435401, "lon": 4.0490199, "tags": {"amenity": "restaurant", "cuisine": "pizza", "name": "S'Auba", "outdoor_seating": "yes"}}, {"type": "node", "id": 6679949393, "lat": 39.9227535, "lon": 3.824466}, {"type": "node", "id": 6679949424, "lat": 39.9230835, "lon": 3.8234485}, {"type": "node", "id": 6679949439, "lat": 39.9234794, "lon": 3.8240534, "tags": {"access": "customers", "barrier": "gate", "bicycle": "yes", "foot": "yes", "motorcar": "yes", "motorcycle": "yes"}}, {"type": "node", "id": 6679949449, "lat": 39.923491, "lon": 3.823992}, {"type": "node", "id": 6679949450, "lat": 39.9234835, "lon": 3.8240284}, {"type": "node", "id": 6679949452, "lat": 39.9229286, "lon": 3.8232312}, {"type": "node", "id": 6679949453, "lat": 39.9226898, "lon": 3.8237428}, {"type": "node", "id": 6679949454, "lat": 39.922602, "lon": 3.8238602}, {"type": "node", "id": 6679949455, "lat": 39.9223817, "lon": 3.8241458}, {"type": "node", "id": 6679949456, "lat": 39.9224376, "lon": 3.8244106}, {"type": "node", "id": 6679949457, "lat": 39.9225356, "lon": 3.8244469}, {"type": "node", "id": 6679949459, "lat": 39.9229644, "lon": 3.824405}, {"type": "node", "id": 6679949460, "lat": 39.9231729, "lon": 3.8245122}, {"type": "node", "id": 6679949461, "lat": 39.9234497, "lon": 3.8242086}, {"type": "node", "id": 6679949462, "lat": 39.923475, "lon": 3.8240793}, {"type": "node", "id": 6689543686, "lat": 39.929504, "lon": 3.834549, "tags": {"amenity": "restaurant", "cuisine": "regional", "name": "La Fontana", "name:ca": "La Fontana", "outdoor_seating": "yes", "wheelchair": "yes"}}, {"type": "node", "id": 6689543687, "lat": 39.9294824, "lon": 3.8346992, "tags": {"amenity": "restaurant", "check_date": "2023-05-14", "cuisine": "chinese", "name": "Long Cheng", "outdoor_seating": "yes"}}, {"type": "node", "id": 6709332531, "lat": 39.9768245, "lon": 3.8397327, "tags": {"amenity": "restaurant", "cuisine": "pizza;regional", "name": "Sa Quadra", "outdoor_seating": "yes"}}, {"type": "node", "id": 6709332580, "lat": 39.9781715, "lon": 3.8395639, "tags": {"amenity": "restaurant", "outdoor_seating": "yes"}}, {"type": "node", "id": 6709379008, "lat": 39.9775163, "lon": 3.8389376}, {"type": "node", "id": 6709379009, "lat": 39.9775335, "lon": 3.8389614}, {"type": "node", "id": 6709379010, "lat": 39.9775517, "lon": 3.838943}, {"type": "node", "id": 6709379011, "lat": 39.9775622, "lon": 3.83896}, {"type": "node", "id": 6709379012, "lat": 39.9776493, "lon": 3.8388804}, {"type": "node", "id": 6709379013, "lat": 39.9776206, "lon": 3.8388484}, {"type": "node", "id": 6715078037, "lat": 40.051767, "lon": 3.8828599}, {"type": "node", "id": 6715078038, "lat": 40.0517665, "lon": 3.8828473}, {"type": "node", "id": 6715078039, "lat": 40.0517466, "lon": 3.8828298}, {"type": "node", "id": 6715078040, "lat": 40.0517442, "lon": 3.8828344}, {"type": "node", "id": 6715078041, "lat": 40.0517205, "lon": 3.882817}, {"type": "node", "id": 6715078042, "lat": 40.0517154, "lon": 3.8828239}, {"type": "node", "id": 6715078043, "lat": 40.0516924, "lon": 3.8828019}, {"type": "node", "id": 6715078044, "lat": 40.0516767, "lon": 3.8828299}, {"type": "node", "id": 6715078045, "lat": 40.0516511, "lon": 3.8828115}, {"type": "node", "id": 6715078046, "lat": 40.0516148, "lon": 3.8829133}, {"type": "node", "id": 6715078047, "lat": 40.0516464, "lon": 3.8829365}, {"type": "node", "id": 6715078048, "lat": 40.051687, "lon": 3.8828429}, {"type": "node", "id": 6715078049, "lat": 40.0517154, "lon": 3.882866}, {"type": "node", "id": 6715078050, "lat": 40.0517209, "lon": 3.882856}, {"type": "node", "id": 6715078051, "lat": 40.051752, "lon": 3.8828841}, {"type": "node", "id": 6723037463, "lat": 39.9952992, "lon": 3.8325137, "tags": {"amenity": "restaurant", "description": "Asian Restaurant", "name": "Nueva Era"}}, {"type": "node", "id": 6723048240, "lat": 39.9952809, "lon": 3.8284973, "tags": {"amenity": "restaurant", "name": "Restaurant Sa Presa"}}, {"type": "node", "id": 6770019127, "lat": 40.0534741, "lon": 3.8819647}, {"type": "node", "id": 6780934185, "lat": 39.9408291, "lon": 3.9616788, "tags": {"addr:street": "Passeig del Riu", "amenity": "restaurant", "cuisine": "spanish;seafood;fish", "internet_access": "wlan", "name": "Fuente de trevi", "phone": "+34 971154502"}}, {"type": "node", "id": 6781116885, "lat": 39.9407899, "lon": 3.9616035, "tags": {"addr:street": "Passeig del Riu", "amenity": "restaurant", "cuisine": "spanish", "name": "Cala Mitjana"}}, {"type": "node", "id": 6788593390, "lat": 39.9998014, "lon": 3.8362859, "tags": {"addr:housenumber": "4", "addr:street": "Pla\u00e7a des Pins", "amenity": "restaurant", "cuisine": "spanish;seafood", "name": "Pinzell"}}, {"type": "node", "id": 6788617423, "lat": 39.9998133, "lon": 3.83528, "tags": {"addr:housenumber": "48", "addr:street": "Pla\u00e7a des Pins", "amenity": "restaurant", "cuisine": "italian_pizza", "name": "Italy"}}, {"type": "node", "id": 6788617496, "lat": 39.9996992, "lon": 3.8353522, "tags": {"addr:housenumber": "46", "addr:street": "Pla\u00e7a des Pins", "amenity": "restaurant", "cuisine": "spanish", "name": "Pins 46"}}, {"type": "node", "id": 6790485049, "lat": 40.0560242, "lon": 4.1311959, "tags": {"addr:housenumber": "16", "addr:street": "Carrer Major", "amenity": "restaurant", "name": "Can Tanu", "opening_hours": "Tu-Su 11:00-15:30,19:30-24:00", "phone": "+34 971 37 64 07", "website": "https://cantanu.com/"}}, {"type": "node", "id": 6796729482, "lat": 39.9885337, "lon": 4.0929926, "tags": {"addr:housenumber": "3", "addr:street": "Carrer Nou", "amenity": "restaurant", "name": "Las Vegas", "opening_hours": "Mo-Su 07:30-00:00", "phone": "+34 971 37 54 01"}}, {"type": "node", "id": 6815457149, "lat": 39.9288609, "lon": 3.833723, "tags": {"amenity": "restaurant", "cuisine": "burger;seafood;pasta;pizza;regional;tapas", "name": "Tropicana"}}, {"type": "node", "id": 6815457150, "lat": 39.9289527, "lon": 3.8337612, "tags": {"amenity": "restaurant", "contact:website": "http://www.piccola-restaurant.com/", "cuisine": "pizza", "name": "Piccola", "outdoor_seating": "yes"}}, {"type": "node", "id": 6815457151, "lat": 39.9289985, "lon": 3.8337802, "tags": {"amenity": "restaurant", "cuisine": "steak_house", "name": "Steak House", "outdoor_seating": "yes"}}, {"type": "node", "id": 6815457152, "lat": 39.9291869, "lon": 3.8338591, "tags": {"amenity": "restaurant", "name": "Las Tapas", "outdoor_seating": "yes"}}, {"type": "node", "id": 6815457153, "lat": 39.929266, "lon": 3.8338924, "tags": {"amenity": "restaurant", "name": "cocktails & snacks", "outdoor_seating": "yes"}}, {"type": "node", "id": 6815488304, "lat": 39.9269607, "lon": 3.8330101, "tags": {"amenity": "restaurant", "name": "Ca'n Joan"}}, {"type": "node", "id": 6815488310, "lat": 39.9267705, "lon": 3.8334835, "tags": {"amenity": "restaurant", "name": "Leli's"}}, {"type": "node", "id": 6970116253, "lat": 39.9174021, "lon": 4.0333112}, {"type": "node", "id": 6970116271, "lat": 39.9174176, "lon": 4.0330473}, {"type": "node", "id": 6970138240, "lat": 39.9173779, "lon": 4.0333106}, {"type": "node", "id": 6970138301, "lat": 39.9174133, "lon": 4.0330497}, {"type": "node", "id": 6970138318, "lat": 39.9173308, "lon": 4.0333207}, {"type": "node", "id": 6970138339, "lat": 39.9174299, "lon": 4.0330545}, {"type": "node", "id": 6970138369, "lat": 39.9174373, "lon": 4.0330332}, {"type": "node", "id": 6970138388, "lat": 39.917326, "lon": 4.0333114}, {"type": "node", "id": 6970138396, "lat": 39.9174364, "lon": 4.0332633}, {"type": "node", "id": 6970138399, "lat": 39.917317, "lon": 4.0332804}, {"type": "node", "id": 6970138402, "lat": 39.9173293, "lon": 4.0332877}, {"type": "node", "id": 6970138417, "lat": 39.9174146, "lon": 4.0330455}, {"type": "node", "id": 6970138426, "lat": 39.9173241, "lon": 4.0333168}, {"type": "node", "id": 6970138433, "lat": 39.9173219, "lon": 4.033309}, {"type": "node", "id": 6970138434, "lat": 39.9174391, "lon": 4.0332013}, {"type": "node", "id": 6970138450, "lat": 39.917425, "lon": 4.033026}, {"type": "node", "id": 6970138467, "lat": 39.9173458, "lon": 4.0330153}, {"type": "node", "id": 6970138474, "lat": 39.9173003, "lon": 4.0333284}, {"type": "node", "id": 6970138476, "lat": 39.9174114, "lon": 4.0330539}, {"type": "node", "id": 6970138488, "lat": 39.9172473, "lon": 4.0332972}, {"type": "node", "id": 6970138489, "lat": 39.9174443, "lon": 4.0332906}, {"type": "node", "id": 6970138494, "lat": 39.9173284, "lon": 4.0333283}, {"type": "node", "id": 6970138512, "lat": 39.9173654, "lon": 4.0333038}, {"type": "node", "id": 6970138525, "lat": 39.9173989, "lon": 4.0333003}, {"type": "node", "id": 6976942874, "lat": 39.8743334, "lon": 4.1368724}, {"type": "node", "id": 6976942875, "lat": 39.8742734, "lon": 4.1369505}, {"type": "node", "id": 6976942876, "lat": 39.8742925, "lon": 4.136974}, {"type": "node", "id": 6976942877, "lat": 39.874256, "lon": 4.1370237}, {"type": "node", "id": 6976942878, "lat": 39.8742366, "lon": 4.1369983}, {"type": "node", "id": 6976942879, "lat": 39.8742488, "lon": 4.1369819}, {"type": "node", "id": 6976942880, "lat": 39.8741367, "lon": 4.1368396}, {"type": "node", "id": 6976942881, "lat": 39.8741453, "lon": 4.1367793}, {"type": "node", "id": 6976942882, "lat": 39.8743242, "lon": 4.1367589}, {"type": "node", "id": 6976942883, "lat": 39.8743788, "lon": 4.1368359}, {"type": "node", "id": 6976942884, "lat": 39.8743863, "lon": 4.1368269}, {"type": "node", "id": 6978005970, "lat": 39.8733729, "lon": 4.1344204}, {"type": "node", "id": 6978005971, "lat": 39.8735182, "lon": 4.1343887}, {"type": "node", "id": 6978005972, "lat": 39.8735303, "lon": 4.134364}, {"type": "node", "id": 6978005973, "lat": 39.8735436, "lon": 4.134358}, {"type": "node", "id": 6978005974, "lat": 39.8735532, "lon": 4.1343445}, {"type": "node", "id": 6978005975, "lat": 39.8735566, "lon": 4.1343266}, {"type": "node", "id": 6978005976, "lat": 39.8735543, "lon": 4.1343122}, {"type": "node", "id": 6978005977, "lat": 39.8735421, "lon": 4.1343003}, {"type": "node", "id": 6978005978, "lat": 39.873545, "lon": 4.134293}, {"type": "node", "id": 6978005979, "lat": 39.8735428, "lon": 4.1342694}, {"type": "node", "id": 6978006045, "lat": 39.873593, "lon": 4.1351362}, {"type": "node", "id": 6978006046, "lat": 39.8735838, "lon": 4.1351487}, {"type": "node", "id": 6978006047, "lat": 39.87354, "lon": 4.1353518}, {"type": "node", "id": 6978006048, "lat": 39.873452, "lon": 4.1353148}, {"type": "node", "id": 6978006049, "lat": 39.8734628, "lon": 4.1352603}, {"type": "node", "id": 6978006050, "lat": 39.8734111, "lon": 4.135243}, {"type": "node", "id": 6978006051, "lat": 39.8734209, "lon": 4.135194}, {"type": "node", "id": 6978006052, "lat": 39.8734606, "lon": 4.1352071}, {"type": "node", "id": 6978006053, "lat": 39.8734888, "lon": 4.1350977}, {"type": "node", "id": 6978006054, "lat": 39.8735417, "lon": 4.1351213}, {"type": "node", "id": 6978006055, "lat": 39.873556, "lon": 4.135086}, {"type": "node", "id": 6979372844, "lat": 39.8742362, "lon": 4.1355257}, {"type": "node", "id": 6979372845, "lat": 39.874228, "lon": 4.1355113}, {"type": "node", "id": 6979372846, "lat": 39.8742097, "lon": 4.135492}, {"type": "node", "id": 6979372847, "lat": 39.8741877, "lon": 4.1354807}, {"type": "node", "id": 6979372848, "lat": 39.8741624, "lon": 4.1354788}, {"type": "node", "id": 6979372849, "lat": 39.8741396, "lon": 4.1354867}, {"type": "node", "id": 6979372850, "lat": 39.8741197, "lon": 4.135503}, {"type": "node", "id": 6979372851, "lat": 39.8740991, "lon": 4.1355401}, {"type": "node", "id": 6979372852, "lat": 39.8740934, "lon": 4.1355697}, {"type": "node", "id": 6979372853, "lat": 39.8740933, "lon": 4.1355851}, {"type": "node", "id": 6979372854, "lat": 39.8741273, "lon": 4.1356623}, {"type": "node", "id": 6979372855, "lat": 39.8741341, "lon": 4.1356672}, {"type": "node", "id": 6979372856, "lat": 39.8741368, "lon": 4.1356635}, {"type": "node", "id": 6979372857, "lat": 39.8741562, "lon": 4.1356871}, {"type": "node", "id": 6979372858, "lat": 39.8741598, "lon": 4.135682}, {"type": "node", "id": 6979372859, "lat": 39.8741651, "lon": 4.1356884}, {"type": "node", "id": 6979372860, "lat": 39.8741867, "lon": 4.1356585}, {"type": "node", "id": 6979372861, "lat": 39.8742142, "lon": 4.1357008}, {"type": "node", "id": 6979372862, "lat": 39.874249, "lon": 4.1356782}, {"type": "node", "id": 6979372863, "lat": 39.874248, "lon": 4.1356282}, {"type": "node", "id": 6979372864, "lat": 39.8742218, "lon": 4.1355962}, {"type": "node", "id": 6979372865, "lat": 39.8742427, "lon": 4.1355672}, {"type": "node", "id": 6979372866, "lat": 39.8742233, "lon": 4.1355436}, {"type": "node", "id": 6979372867, "lat": 39.8740983, "lon": 4.1356149}, {"type": "node", "id": 6979372868, "lat": 39.8741034, "lon": 4.1356288}, {"type": "node", "id": 6979372869, "lat": 39.874118, "lon": 4.1356528}, {"type": "node", "id": 6979372870, "lat": 39.8741508, "lon": 4.1354816}, {"type": "node", "id": 7035494396, "lat": 40.0033383, "lon": 4.1641893}, {"type": "node", "id": 7035494399, "lat": 40.0034755, "lon": 4.1642405}, {"type": "node", "id": 7035494400, "lat": 40.0034611, "lon": 4.1643059}, {"type": "node", "id": 7035494404, "lat": 40.0033239, "lon": 4.1642547}, {"type": "node", "id": 7145698024, "lat": 39.9032435, "lon": 4.0725968}, {"type": "node", "id": 7145698025, "lat": 39.9034063, "lon": 4.0727237}, {"type": "node", "id": 7145698029, "lat": 39.9032755, "lon": 4.0725791}, {"type": "node", "id": 7145698030, "lat": 39.9031622, "lon": 4.0728259}, {"type": "node", "id": 7145698036, "lat": 39.9031855, "lon": 4.0730058}, {"type": "node", "id": 7145698037, "lat": 39.9033326, "lon": 4.0728859}, {"type": "node", "id": 7145698038, "lat": 39.9031455, "lon": 4.072813}, {"type": "node", "id": 7145698043, "lat": 39.9031629, "lon": 4.0730255}, {"type": "node", "id": 7145698044, "lat": 39.9032138, "lon": 4.0730581}, {"type": "node", "id": 7145698049, "lat": 39.9033046, "lon": 4.0729906}, {"type": "node", "id": 7145698054, "lat": 39.9032614, "lon": 4.0726105}, {"type": "node", "id": 7145698058, "lat": 39.9031786, "lon": 4.0730211}, {"type": "node", "id": 7145698062, "lat": 39.9032306, "lon": 4.0730209}, {"type": "node", "id": 7145698066, "lat": 39.9033387, "lon": 4.0728905}, {"type": "node", "id": 7145698069, "lat": 39.9032897, "lon": 4.0725898}, {"type": "node", "id": 7145698070, "lat": 39.9031194, "lon": 4.0729923}, {"type": "node", "id": 7145698073, "lat": 39.9032755, "lon": 4.0726211}, {"type": "node", "id": 7145698074, "lat": 39.9032065, "lon": 4.0730024}, {"type": "node", "id": 7145705189, "lat": 39.9031684, "lon": 4.0730133}, {"type": "node", "id": 7145705190, "lat": 39.9031328, "lon": 4.0729629}, {"type": "node", "id": 7145705192, "lat": 39.9032866, "lon": 4.0726296}, {"type": "node", "id": 7145705196, "lat": 39.9031085, "lon": 4.0729444}, {"type": "node", "id": 7145705197, "lat": 39.9032962, "lon": 4.0729843}, {"type": "node", "id": 7145705229, "lat": 39.9032585, "lon": 4.0730923}, {"type": "node", "id": 7277581362, "lat": 39.8735564, "lon": 4.1343229}, {"type": "node", "id": 7277581376, "lat": 39.8735461, "lon": 4.1342849}, {"type": "node", "id": 7277581377, "lat": 39.8735442, "lon": 4.1342955}, {"type": "node", "id": 7277615586, "lat": 39.8735386, "lon": 4.1343614}, {"type": "node", "id": 7277615589, "lat": 39.8735207, "lon": 4.1343854}, {"type": "node", "id": 7277615596, "lat": 39.8735373, "lon": 4.134262}, {"type": "node", "id": 7277615600, "lat": 39.8735459, "lon": 4.1342877}, {"type": "node", "id": 7277615605, "lat": 39.8735521, "lon": 4.1343068}, {"type": "node", "id": 7277615607, "lat": 39.8735331, "lon": 4.1343634}, {"type": "node", "id": 7277615610, "lat": 39.8734207, "lon": 4.1344124}, {"type": "node", "id": 7277615617, "lat": 39.8735415, "lon": 4.1342672}, {"type": "node", "id": 7277615619, "lat": 39.873546, "lon": 4.1343558}, {"type": "node", "id": 7277615621, "lat": 39.8735561, "lon": 4.134334}, {"type": "node", "id": 7277615625, "lat": 39.87355, "lon": 4.1343506}, {"type": "node", "id": 7277615628, "lat": 39.8734425, "lon": 4.1342092}, {"type": "node", "id": 7277615629, "lat": 39.8733802, "lon": 4.1343981}, {"type": "node", "id": 7277615634, "lat": 39.8735453, "lon": 4.1342769}, {"type": "node", "id": 7277615635, "lat": 39.8735544, "lon": 4.1343411}, {"type": "node", "id": 7277615637, "lat": 39.8735553, "lon": 4.1343156}, {"type": "node", "id": 7289152517, "lat": 39.8744086, "lon": 4.1368529}, {"type": "node", "id": 7289152526, "lat": 39.8741929, "lon": 4.1367739, "tags": {"addr:city": "Alaior", "addr:country": "ES", "addr:housenumber": "67", "addr:postcode": "07730", "addr:street": "Carrer de la Tramuntana", "entrance": "yes"}}, {"type": "node", "id": 7289152535, "lat": 39.8743622, "lon": 4.1369102}, {"type": "node", "id": 7297149014, "lat": 39.8741291, "lon": 4.1354939}, {"type": "node", "id": 7297149017, "lat": 39.8740954, "lon": 4.1355546}, {"type": "node", "id": 7297149023, "lat": 39.87411, "lon": 4.1356415}, {"type": "node", "id": 7297149026, "lat": 39.8741045, "lon": 4.1355264}, {"type": "node", "id": 7297149048, "lat": 39.8741991, "lon": 4.1354854}, {"type": "node", "id": 7297149052, "lat": 39.8741114, "lon": 4.135514}, {"type": "node", "id": 7297149059, "lat": 39.8741742, "lon": 4.1354784}, {"type": "node", "id": 7297149060, "lat": 39.8740949, "lon": 4.1356002}, {"type": "node", "id": 7297149099, "lat": 39.8742194, "lon": 4.1355008}, {"type": "node", "id": 7297149102, "lat": 39.8740963, "lon": 4.1356061, "tags": {"addr:city": "Alaior", "addr:country": "ES", "addr:housenumber": "21", "addr:postcode": "07730", "addr:street": "Carrer de l'Esgl\u00e9sia", "entrance": "yes"}}, {"type": "node", "id": 7297149117, "lat": 39.8742353, "lon": 4.1355234}, {"type": "node", "id": 7302537811, "lat": 40.0047604, "lon": 3.8463193, "tags": {"addr:housenumber": "70", "addr:street": "Carrer Pere Cort\u00e9s", "amenity": "restaurant", "name": "Es Truc"}}, {"type": "node", "id": 7335722029, "lat": 39.9153877, "lon": 4.0392076, "tags": {"amenity": "restaurant", "check_date": "2024-07-10", "name": "Ca'n Berto"}}, {"type": "node", "id": 7335752011, "lat": 39.9156037, "lon": 4.0402885}, {"type": "node", "id": 7335752019, "lat": 39.9154394, "lon": 4.0406094}, {"type": "node", "id": 7335752063, "lat": 39.9155157, "lon": 4.0403659}, {"type": "node", "id": 7340999750, "lat": 39.9148337, "lon": 4.0413548}, {"type": "node", "id": 7340999755, "lat": 39.9146758, "lon": 4.0413568}, {"type": "node", "id": 7340999757, "lat": 39.9146243, "lon": 4.0414588}, {"type": "node", "id": 7340999758, "lat": 39.9145726, "lon": 4.0415115}, {"type": "node", "id": 7340999759, "lat": 39.9145941, "lon": 4.0414709}, {"type": "node", "id": 7340999760, "lat": 39.9145858, "lon": 4.0414686}, {"type": "node", "id": 7340999761, "lat": 39.9148519, "lon": 4.0415375}, {"type": "node", "id": 7340999762, "lat": 39.9146514, "lon": 4.0414091}, {"type": "node", "id": 7340999763, "lat": 39.914658, "lon": 4.0414124}, {"type": "node", "id": 7340999766, "lat": 39.9146346, "lon": 4.0414443}, {"type": "node", "id": 7340999767, "lat": 39.9150113, "lon": 4.0415325}, {"type": "node", "id": 7340999769, "lat": 39.9148175, "lon": 4.041645}, {"type": "node", "id": 7340999770, "lat": 39.915001, "lon": 4.0416172}, {"type": "node", "id": 7340999772, "lat": 39.9146069, "lon": 4.0414708}, {"type": "node", "id": 7340999773, "lat": 39.914613, "lon": 4.041469}, {"type": "node", "id": 7340999774, "lat": 39.9150056, "lon": 4.0416033}, {"type": "node", "id": 7340999776, "lat": 39.9150102, "lon": 4.041578}, {"type": "node", "id": 7341016688, "lat": 39.9133461, "lon": 4.0436195}, {"type": "node", "id": 7341016689, "lat": 39.9131754, "lon": 4.0436477}, {"type": "node", "id": 7341016691, "lat": 39.9133044, "lon": 4.0435856}, {"type": "node", "id": 7341016693, "lat": 39.9131569, "lon": 4.0435852}, {"type": "node", "id": 7341016695, "lat": 39.9133253, "lon": 4.0437944}, {"type": "node", "id": 7341016696, "lat": 39.913318, "lon": 4.043633}, {"type": "node", "id": 7341016697, "lat": 39.9134009, "lon": 4.0436559}, {"type": "node", "id": 7341016702, "lat": 39.9131284, "lon": 4.0436685}, {"type": "node", "id": 7341016703, "lat": 39.913322, "lon": 4.0437802}, {"type": "node", "id": 7341016705, "lat": 39.9134027, "lon": 4.043655}, {"type": "node", "id": 7685513587, "lat": 39.9365017, "lon": 3.9614286, "tags": {"amenity": "restaurant", "name": "Beach House by Cape Nao", "name:ca": "Beach House by Cape Nao"}}, {"type": "node", "id": 7694643800, "lat": 39.9380381, "lon": 3.9607982}, {"type": "node", "id": 7694643819, "lat": 39.9380423, "lon": 3.9606679}, {"type": "node", "id": 7694643920, "lat": 39.9379945, "lon": 3.9607578}, {"type": "node", "id": 7694643931, "lat": 39.9379905, "lon": 3.9607259}, {"type": "node", "id": 7694643938, "lat": 39.9380448, "lon": 3.9607983}, {"type": "node", "id": 7694644017, "lat": 39.9379957, "lon": 3.960758}, {"type": "node", "id": 7721814708, "lat": 40.0402536, "lon": 4.1215923}, {"type": "node", "id": 7721814714, "lat": 40.0402505, "lon": 4.1215792}, {"type": "node", "id": 7721814729, "lat": 40.0404175, "lon": 4.121472}, {"type": "node", "id": 7721814734, "lat": 40.0404501, "lon": 4.1215163}, {"type": "node", "id": 7721814738, "lat": 40.0402561, "lon": 4.1215277}, {"type": "node", "id": 7721814747, "lat": 40.0403251, "lon": 4.1214198}, {"type": "node", "id": 7721814750, "lat": 40.040415, "lon": 4.1214751}, {"type": "node", "id": 7721814758, "lat": 40.040252, "lon": 4.1215866}, {"type": "node", "id": 7721814765, "lat": 40.0403544, "lon": 4.1216274}, {"type": "node", "id": 7721814767, "lat": 40.0402499, "lon": 4.1215521}, {"type": "node", "id": 7721814769, "lat": 40.0403666, "lon": 4.1216437}, {"type": "node", "id": 7721814772, "lat": 40.0403745, "lon": 4.121633}, {"type": "node", "id": 7721814776, "lat": 40.0402626, "lon": 4.1216117}, {"type": "node", "id": 7721814778, "lat": 40.0403481, "lon": 4.1213903}, {"type": "node", "id": 7721854685, "lat": 40.0403404, "lon": 4.1213982}, {"type": "node", "id": 7721854686, "lat": 40.0402572, "lon": 4.1216018}, {"type": "node", "id": 7721854694, "lat": 40.0403269, "lon": 4.1214167}, {"type": "node", "id": 7721854697, "lat": 40.0405064, "lon": 4.1215479}, {"type": "node", "id": 7721854703, "lat": 40.040463, "lon": 4.1215613}, {"type": "node", "id": 7721854706, "lat": 40.0404403, "lon": 4.1215308}, {"type": "node", "id": 7721854707, "lat": 40.0402808, "lon": 4.1216369, "tags": {"addr:housenumber": "24", "addr:postcode": "07740", "addr:street": "Carrer de sa Barrera", "entrance": "yes"}}, {"type": "node", "id": 7721854708, "lat": 40.0404183, "lon": 4.1216894}, {"type": "node", "id": 7721854710, "lat": 40.0402494, "lon": 4.1215596}, {"type": "node", "id": 7721854713, "lat": 40.0402903, "lon": 4.1214718}, {"type": "node", "id": 7721854714, "lat": 40.0404788, "lon": 4.1215826}, {"type": "node", "id": 7721854715, "lat": 40.040312, "lon": 4.1216801}, {"type": "node", "id": 7721854718, "lat": 40.0405148, "lon": 4.1215591}, {"type": "node", "id": 7721854719, "lat": 40.0403333, "lon": 4.121407}, {"type": "node", "id": 7721854720, "lat": 40.0402524, "lon": 4.1215389}, {"type": "node", "id": 7721854728, "lat": 40.040251, "lon": 4.1215446}, {"type": "node", "id": 7721854739, "lat": 40.0402493, "lon": 4.1215672}, {"type": "node", "id": 7724941327, "lat": 40.0406125, "lon": 4.1235485}, {"type": "node", "id": 7724941328, "lat": 40.040553, "lon": 4.123624}, {"type": "node", "id": 7724941330, "lat": 40.0407033, "lon": 4.1236338}, {"type": "node", "id": 7724941331, "lat": 40.0406235, "lon": 4.123784}, {"type": "node", "id": 7724941332, "lat": 40.0406702, "lon": 4.1237627}, {"type": "node", "id": 7724941334, "lat": 40.0403528, "lon": 4.1238019}, {"type": "node", "id": 7724941336, "lat": 40.0405377, "lon": 4.1236525}, {"type": "node", "id": 7724941337, "lat": 40.0403541, "lon": 4.1236661}, {"type": "node", "id": 7724941339, "lat": 40.0407138, "lon": 4.1236328}, {"type": "node", "id": 7724941340, "lat": 40.0405369, "lon": 4.1236255}, {"type": "node", "id": 7724941341, "lat": 40.0406114, "lon": 4.1235297}, {"type": "node", "id": 7724941342, "lat": 40.0406504, "lon": 4.1237638}, {"type": "node", "id": 7724941343, "lat": 40.0406966, "lon": 4.1235214}, {"type": "node", "id": 7724941344, "lat": 40.0406513, "lon": 4.1237822}, {"type": "node", "id": 7724941346, "lat": 40.0407182, "lon": 4.1237602}, {"type": "node", "id": 7731611286, "lat": 40.0328183, "lon": 4.1598226}, {"type": "node", "id": 7731611302, "lat": 40.032793, "lon": 4.1598256}, {"type": "node", "id": 7731611793, "lat": 40.0326793, "lon": 4.1598698, "tags": {"addr:housenumber": "646", "addr:postcode": "07740", "addr:street": "Vial d'Arenal", "entrance": "yes"}}, {"type": "node", "id": 7731612182, "lat": 40.032732, "lon": 4.1598003}, {"type": "node", "id": 7731612341, "lat": 40.0328192, "lon": 4.1598351}, {"type": "node", "id": 7801943885, "lat": 40.0003764, "lon": 3.8339194, "tags": {"amenity": "restaurant", "name": "Aquarium"}}, {"type": "node", "id": 8872442408, "lat": 39.9462467, "lon": 4.0480773, "tags": {"addr:city": "Es Migjorn Gran", "addr:country": "ES", "addr:housenumber": "3", "addr:postcode": "07749", "addr:street": "Carrer Major", "entrance": "yes"}}, {"type": "node", "id": 8872442409, "lat": 39.9463422, "lon": 4.0480616}, {"type": "node", "id": 8872442412, "lat": 39.9463526, "lon": 4.0481323}, {"type": "node", "id": 8872442415, "lat": 39.946349, "lon": 4.0479841}, {"type": "node", "id": 8872547624, "lat": 39.946389, "lon": 4.0480855}, {"type": "node", "id": 8872547638, "lat": 39.9463367, "lon": 4.0481341}, {"type": "node", "id": 8872547661, "lat": 39.9462514, "lon": 4.0480289}, {"type": "node", "id": 8872547681, "lat": 39.9463734, "lon": 4.0480665}, {"type": "node", "id": 8872547770, "lat": 39.9462424, "lon": 4.0481221}, {"type": "node", "id": 8872547791, "lat": 39.9463469, "lon": 4.0479506}, {"type": "node", "id": 8872547840, "lat": 39.9463472, "lon": 4.0479753}, {"type": "node", "id": 8872547843, "lat": 39.946389, "lon": 4.0480762}, {"type": "node", "id": 8872547847, "lat": 39.9463194, "lon": 4.0480383}, {"type": "node", "id": 8872547849, "lat": 39.9463255, "lon": 4.0479711}, {"type": "node", "id": 8872547855, "lat": 39.9463725, "lon": 4.047934}, {"type": "node", "id": 8872547876, "lat": 39.9463737, "lon": 4.0479626}, {"type": "node", "id": 8872547883, "lat": 39.9462825, "lon": 4.0480315}, {"type": "node", "id": 8872547914, "lat": 39.9463464, "lon": 4.0479336}, {"type": "node", "id": 8872547929, "lat": 39.9463677, "lon": 4.047983}, {"type": "node", "id": 8872548031, "lat": 39.9463687, "lon": 4.047963}, {"type": "node", "id": 8872548047, "lat": 39.9463779, "lon": 4.0481042}, {"type": "node", "id": 8872548075, "lat": 39.9463441, "lon": 4.0480423}, {"type": "node", "id": 8874920590, "lat": 39.949764, "lon": 4.0504746, "tags": {"addr:city": "Es Migjorn Gran", "addr:country": "ES", "addr:housenumber": "1", "addr:postcode": "07749", "addr:street": "Avinguda de la Mar", "amenity": "restaurant", "email": "info@canapilar.com", "name": "Ca na Pilar", "opening_hours": "We-Su 13:00-15:00,20:00-22:00", "phone": "+34 971370212", "website": "https://www.canapilar.com/es/inicio"}}, {"type": "node", "id": 9100478337, "lat": 39.999384, "lon": 3.8365366, "tags": {"amenity": "cafe", "name": "La Menorquina 1983", "outdoor_seating": "yes", "website": "http://www.lamenorquina1983.com"}}, {"type": "node", "id": 9246847642, "lat": 40.0000099, "lon": 3.839537, "tags": {"addr:street": "Pla\u00e7a d'Artrutx", "amenity": "cafe", "cuisine": "coffee_shop", "diet:lactose_free": "yes", "diet:vegan": "yes", "diet:vegetarian": "yes", "name": "Nibs Health Bar", "opening_hours": "Mo-Su 09:00-16:00", "outdoor_seating": "yes"}}, {"type": "node", "id": 9762432697, "lat": 39.9414486, "lon": 3.9625146, "tags": {"amenity": "restaurant", "name": "Es Barranc", "name:ca": "Es Barranc", "opening_hours": "Mo-Su 13:00-15:30,19:00-23:00"}}, {"type": "node", "id": 9770649516, "lat": 39.9403796, "lon": 3.9568795, "tags": {"amenity": "restaurant", "check_date": "2025-04-21", "cuisine": "mediterranean;pizza", "name": "Sa Lluna", "outdoor_seating": "yes"}}, {"type": "node", "id": 9789029626, "lat": 40.0003128, "lon": 3.8386609, "tags": {"amenity": "restaurant", "name": "El Pez Lim\u00f3n"}}, {"type": "node", "id": 9793521607, "lat": 39.9999952, "lon": 3.8380449, "tags": {"addr:housenumber": "13", "addr:street": "Carrer de Sant Pere d'Alc\u00e0ntara", "amenity": "restaurant", "name": "Cuk-Cuk"}}, {"type": "node", "id": 9795624548, "lat": 40.0021898, "lon": 3.8382976, "tags": {"amenity": "restaurant", "cuisine": "mexican", "name": "Nopales"}}, {"type": "node", "id": 9798895830, "lat": 39.994638, "lon": 3.8347507, "tags": {"amenity": "cafe", "name": "Bar Nou Fusion"}}, {"type": "node", "id": 9902549434, "lat": 40.0011516, "lon": 3.8369702, "tags": {"amenity": "restaurant", "name": "Moriarty"}}, {"type": "node", "id": 9979315504, "lat": 40.0282533, "lon": 4.1624345, "tags": {"amenity": "restaurant", "cuisine": "pizza;burger", "name": "Paradise Beach"}}, {"type": "node", "id": 10807456205, "lat": 39.9406706, "lon": 3.9567023, "tags": {"addr:housenumber": "24", "addr:postcode": "07750", "addr:street": "Carrer Costa del Mirador", "amenity": "restaurant", "check_date": "2025-04-21", "contact:facebook": "PataNegraMenorca", "contact:instagram": "patanegramenorca", "cuisine": "tapas", "email": "patanegramenorca@hotmail.com", "name": "Pata Negra", "phone": "+34 685 643 541;+34 644 990 501"}}, {"type": "node", "id": 11071007907, "lat": 40.0018495, "lon": 3.8368532, "tags": {"addr:housenumber": "12", "addr:street": "Carrer d'es Forn", "amenity": "restaurant", "name:it": "El Horno"}}, {"type": "node", "id": 11071226107, "lat": 40.0019359, "lon": 3.8402022, "tags": {"addr:housenumber": "22", "addr:street": "Carrer d'Alaior", "amenity": "restaurant", "name:en": "Can Lluis"}}, {"type": "node", "id": 11135856513, "lat": 40.049294, "lon": 4.1093232, "tags": {"amenity": "restaurant", "description": "Tapas-Bar", "name": "La Fra\u00f1ola", "website": "https://lafranolamenorca.com/"}}, {"type": "node", "id": 11151019106, "lat": 40.0015262, "lon": 3.8378762, "tags": {"amenity": "cafe", "name": "Catedral cafe"}}, {"type": "node", "id": 11156589905, "lat": 39.9992736, "lon": 3.8447958, "tags": {"amenity": "restaurant", "name": "D'Angela"}}, {"type": "node", "id": 11157709905, "lat": 40.0013073, "lon": 3.837988, "tags": {"amenity": "restaurant", "name": "Es roseret"}}, {"type": "node", "id": 11161829405, "lat": 40.0018354, "lon": 3.8393021, "tags": {"amenity": "restaurant", "cuisine": "sushi", "name": "Tususiahi"}}, {"type": "node", "id": 11302382070, "lat": 39.9814931, "lon": 4.0114736, "tags": {"addr:housenumber": "1", "addr:street": "Pla\u00e7a Menorca", "amenity": "restaurant", "cuisine": "fish;local;seafood;spanish", "name": "Mes\u00f3n R\u00edas Baixas"}}, {"type": "node", "id": 11906888950, "lat": 39.8991447, "lon": 4.0779999, "tags": {"amenity": "restaurant", "name": "Es jardin"}}, {"type": "node", "id": 11955401755, "lat": 39.9831911, "lon": 4.0099012, "tags": {"addr:city": "Ferreries", "addr:housenumber": "3", "addr:postcode": "07750", "addr:street": "Pla\u00e7a Jaume II", "addr:unit": "A", "amenity": "restaurant", "cuisine": "indian", "email": "majspice.bondhu@gmail.com", "name": "Bondhu", "opening_hours": "Mo-Tu off; We-Su 13:00-16:00,19:30-23:00", "phone": "+34971373473", "website": "https://www.bondhu.es/"}}, {"type": "node", "id": 11955416803, "lat": 40.0044783, "lon": 3.8055401, "tags": {"addr:city": "Ciutadella", "addr:housenumber": "3", "addr:postcode": "07769", "addr:street": "Avinguda Sim\u00f3n de Olivar", "amenity": "restaurant", "name": "Frankie's- Manolo Bar S.L", "opening_hours": "Mo-Su 09:00-24:00", "phone": "+34971389292"}}, {"type": "node", "id": 11965955261, "lat": 39.9832895, "lon": 4.0106379, "tags": {"amenity": "cafe", "internet_access": "wlan", "internet_access:fee": "no", "level": "0", "name": "Bar Feymar", "outdoor_seating": "yes", "smoking": "outside", "toilets:access": "customers"}}, {"type": "node", "id": 11965955262, "lat": 39.9850588, "lon": 4.0134773, "tags": {"amenity": "restaurant", "cuisine": "tapas;pizza", "name": "Nou Vimpi", "outdoor_seating": "yes", "smoking": "outside"}}, {"type": "node", "id": 11965955263, "lat": 39.983558, "lon": 4.0110556, "tags": {"amenity": "cafe", "name": "Isis", "outdoor_seating": "yes", "smoking": "outside"}}, {"type": "node", "id": 12085907181, "lat": 40.0251006, "lon": 4.1616453, "tags": {"amenity": "restaurant", "name": "L'Isola"}}, {"type": "node", "id": 12135887575, "lat": 40.0474243, "lon": 4.1107453, "tags": {"amenity": "restaurant", "name": "Okapi"}}, {"type": "node", "id": 12135887576, "lat": 40.0473935, "lon": 4.1109116, "tags": {"amenity": "restaurant"}}, {"type": "node", "id": 12135887577, "lat": 40.0473709, "lon": 4.1111288, "tags": {"addr:housenumber": "1", "addr:postcode": "07748", "addr:street": "Carrer de Dalt", "amenity": "restaurant", "cuisine": "mediterranean;spanish", "name": "Es Cactus", "opening_hours": "Th-Tu 12:00-23:00", "website": "https://www.restauranteescactus.es/"}}, {"type": "node", "id": 12174817801, "lat": 40.001913, "lon": 3.8404953, "tags": {"amenity": "restaurant", "name": "Ca'n Llu\u00eds"}}, {"type": "node", "id": 12177454901, "lat": 39.9992853, "lon": 3.8393583, "tags": {"amenity": "restaurant", "name": "Primitiu"}}, {"type": "node", "id": 12312788521, "lat": 39.9233211, "lon": 3.823769}, {"type": "node", "id": 12312788547, "lat": 39.9224692, "lon": 3.8244376}, {"type": "node", "id": 12373366063, "lat": 39.9946418, "lon": 3.8320885, "tags": {"addr:city": "Ciutadella", "addr:housenumber": "11", "addr:postcode": "07760", "addr:street": "Carrer de Gabriel Mart\u00ed Bella", "amenity": "restaurant", "cuisine": "mediterranean", "diet:vegan": "yes", "diet:vegetarian": "yes", "name": "Fang i Aram Restaurant Vegetari\u00e0"}}, {"type": "way", "id": 39932921, "nodes": [6970138476, 6970138301, 6970138417, 6970116271, 6970138450, 6970138369, 6970138339, 479486409, 6970138434, 1766410268, 1766410269, 6970138396, 6970138489, 6970116253, 6970138525, 6970138240, 6970138512, 479486406, 6970138494, 6970138318, 6970138426, 6970138388, 6970138433, 6970138402, 6970138399, 6970138474, 6970138488, 6970138467, 6970138476], "tags": {"addr:city": "es Migjorn Gran", "addr:housenumber": "7", "addr:street": "Cap de la Vila", "amenity": "restaurant", "building": "restaurant", "building:levels": "1", "cuisine": "regional", "name": "Es Bruc", "phone": "+34 971 37 04 88"}}, {"type": "way", "id": 147727194, "nodes": [1609227935, 1609228007, 1609227961, 1609227937, 1609227935], "tags": {"amenity": "restaurant", "building": "yes", "name": "Ses Garces"}}, {"type": "way", "id": 147727202, "nodes": [1609227956, 1609228167, 1609227960, 1609228054, 1609227956], "tags": {"amenity": "restaurant", "building": "yes", "name": "Ses Grulles"}}, {"type": "way", "id": 151912145, "nodes": [7724941332, 7724941342, 7724941344, 7724941331, 7724941334, 7724941337, 7724941336, 7724941340, 7724941328, 1647551630, 7724941327, 7724941341, 7724941343, 7724941330, 7724941339, 7724941346, 7724941332], "tags": {"addr:housenumber": "5", "addr:postcode": "07740", "addr:street": "Carrer des Pujolet", "amenity": "restaurant", "building": "retail", "building:levels": "3", "name": "Ses Salines", "name:ca": "Ses Salines", "wikidata": "Q133457150"}}, {"type": "way", "id": 151913887, "nodes": [7721814778, 7721814750, 7721814729, 7721814734, 7721854706, 7721854703, 7721854714, 7721854697, 7721854718, 7721854708, 7721814772, 7721814769, 7721814765, 7721854715, 7721854707, 7721814776, 7721854686, 7721814708, 7721814758, 7721814714, 7721854739, 7721854710, 7721814767, 7721854728, 7721854720, 7721814738, 7721854713, 7721814747, 7721854694, 7721854719, 7721854685, 7721814778], "tags": {"amenity": "restaurant", "building": "retail", "building:levels": "2", "name": "Ca na Marga"}}, {"type": "way", "id": 162403160, "nodes": [1743095156, 7731611302, 1743095194, 7731612341, 7731611286, 1743095234, 1743095265, 1743095206, 1743095137, 1743095256, 1743095249, 1743095264, 7731611793, 1743095175, 7731612182, 1743095156], "tags": {"amenity": "restaurant", "building": "retail", "building:levels": "1", "name": "Es Bruc"}}, {"type": "way", "id": 164894950, "nodes": [1765014083, 1765014103, 1765014117, 1765014113, 1765014053, 1765014075, 1765014093, 1765014098, 1765014107, 1765014069, 1765014083], "tags": {"amenity": "restaurant", "building": "retail", "building:levels": "1"}}, {"type": "way", "id": 301382690, "nodes": [3054343403, 3054343398, 3054343397, 3054343396, 3054343399, 3054343404, 3054343403], "tags": {"amenity": "restaurant", "building": "yes", "cuisine": "regional", "name": "Aquario", "opening_hours": "Mo-Su 09:00-23:00"}}, {"type": "way", "id": 327578902, "nodes": [3343895230, 3343895231, 3343895232, 3343895233, 3343895234, 3343895235, 3343895236, 3343895237, 3343895217, 3343895219, 3343895220, 3343895223, 3343895224, 3343895225, 3343895226, 3343895227, 3343895228, 3343895229, 3343895218, 3343895230], "tags": {"amenity": "restaurant", "building": "retail", "building:levels": "1", "name": "Puig de Sa Roca", "name:ca": "Puig de Sa Roca"}}, {"type": "way", "id": 344609132, "nodes": [7340999761, 7340999769, 7340999758, 7340999760, 7340999759, 7340999772, 7340999773, 7340999757, 7340999766, 7340999762, 7340999763, 7340999755, 3513583041, 3527084051, 3527084052, 3513583039, 7340999750, 3527084049, 7340999767, 3527084050, 7340999776, 7340999774, 7340999770, 3513583038, 7340999761], "tags": {"amenity": "restaurant", "building": "yes", "building:levels": "2"}}, {"type": "way", "id": 346092120, "nodes": [7335752063, 7335752011, 3527084078, 3527084079, 3527084080, 7335752019, 3527084082, 3527084083, 3527084077, 7335752063], "tags": {"amenity": "restaurant", "building": "yes", "building:levels": "1", "name": "Bar-Heladeria Santo Tom\u00e1s"}}, {"type": "way", "id": 346096061, "nodes": [7341016691, 7341016696, 7341016688, 3527117250, 3527117251, 7341016697, 7341016705, 3527117249, 3527117248, 3527117247, 3527117246, 3527117245, 7341016703, 7341016695, 3527117244, 3527117243, 3527117242, 3527117241, 3527117240, 7341016702, 7341016689, 7341016693, 3527117237, 7341016691], "tags": {"addr:city": "Alaior", "addr:country": "ES", "addr:housenumber": "BR2", "addr:place": "Urbanitzaci\u00f3 Santo Tom\u00e0s", "addr:postcode": "07749", "amenity": "restaurant", "building": "retail", "building:levels": "1", "name": "EsPins"}}, {"type": "way", "id": 423946762, "nodes": [4234503371, 6770019127, 4234503891, 4234503370, 4234503369, 4234503372, 4234503375, 4234503373, 4234503371], "tags": {"amenity": "restaurant", "building": "retail", "building:levels": "1"}}, {"type": "way", "id": 462949747, "nodes": [7145698025, 7145698037, 7145698066, 7145705197, 7145698049, 7145705229, 7145698044, 7145698062, 7145698074, 4582752156, 7145698036, 7145698058, 7145705189, 7145698043, 7145698070, 7145705190, 7145705196, 7145698030, 7145698038, 7145698024, 7145698054, 7145698029, 7145698069, 7145698073, 7145705192, 4582752143, 4582752144, 4582752145, 7145698025], "tags": {"amenity": "restaurant", "building": "retail", "building:levels": "3", "name": "Club San Jaime"}}, {"type": "way", "id": 526728260, "nodes": [5121611239, 5121611242, 5121611241, 5121611238, 5121611237, 5121611240, 5121611239], "tags": {"amenity": "restaurant", "building": "retail", "building:levels": "1", "building:levels:underground": "1", "cuisine": "regional", "delivery": "no", "name": "Torralbenc restaurant", "outdoor_seating": "yes", "tourism": "hotel"}}, {"type": "way", "id": 611855213, "nodes": [5792572882, 5792572883, 5792572884, 5792572885, 5792572886, 5792572887, 5792572882], "tags": {"amenity": "restaurant", "building": "yes"}}, {"type": "way", "id": 685196988, "nodes": [6420516232, 6420515350, 6420515367, 6420516275, 6420516265, 6420515302, 6420516200, 6420516252, 6420515376, 6420516234, 6420516203, 6420516204, 6420515313, 6420515360, 6420516236, 6420515345, 6420516222, 6420516268, 6420515330, 6420515371, 6420516210, 6420515383, 6420515382, 6420515342, 6420516232], "tags": {"addr:housenumber": "B13", "addr:street": "Carrer Costa del Mirador", "amenity": "restaurant", "building": "retail", "building:levels": "2", "name": "Mes\u00f3n Murciano", "outdoor_seating": "yes"}}, {"type": "way", "id": 696683276, "nodes": [6542554674, 7694644017, 7694643920, 6542554672, 7694643931, 6542554675, 7694643819, 7694643800, 7694643938, 6542554673, 6542554674], "tags": {"amenity": "cafe", "building": "retail", "building:levels": "1", "name": "Es Passeig"}}, {"type": "way", "id": 713595380, "nodes": [6709379013, 6709379012, 6709379011, 6709379010, 6709379009, 6709379008, 6709379013], "tags": {"amenity": "restaurant", "building": "yes", "cuisine": "regional", "name": "Santandria Beach Club", "outdoor_seating": "yes", "wheelchair": "yes"}}, {"type": "way", "id": 714366057, "nodes": [6715078046, 6715078045, 6715078044, 6715078043, 6715078042, 6715078041, 6715078040, 6715078039, 6715078038, 6715078037, 6715078051, 6715078050, 6715078049, 6715078048, 6715078047, 6715078046], "tags": {"amenity": "restaurant", "building": "retail", "building:levels": "1", "cuisine": "regional", "name": "Troglodita's", "outdoor_seating": "yes", "wheelchair": "no"}}, {"type": "way", "id": 745333813, "nodes": [7289152535, 6976942874, 6976942875, 6976942876, 6976942877, 6976942878, 6976942879, 6976942880, 6976942881, 7289152526, 6976942882, 6976942883, 6976942884, 7289152517, 7289152535], "tags": {"addr:city": "Alaior", "addr:country": "ES", "addr:housenumber": "67", "addr:place": "Illes Balears", "addr:postcode": "07730", "addr:street": "Carrer de la Tramuntana", "amenity": "restaurant", "building": "retail", "building:levels": "1", "name": "Bar Restaurant Pons", "opening_hours": "Mo-Fr 08:00-24:00; Sa-Su 08:00-01:00", "phone": "+34 971 37 70 37", "reservation": "recommended", "wheelchair": "designated"}}, {"type": "way", "id": 745465669, "nodes": [6978005972, 7277615589, 6978005971, 7277615610, 6978005970, 7277615629, 7277615628, 7277615596, 7277615617, 6978005979, 7277615634, 7277581376, 7277615600, 6978005978, 7277581377, 6978005977, 7277615605, 6978005976, 7277615637, 7277581362, 6978005975, 7277615621, 7277615635, 6978005974, 7277615625, 7277615619, 6978005973, 7277615586, 7277615607, 6978005972], "tags": {"addr:housenumber": "11", "addr:postcode": "07730", "addr:street": "Passeig Mar\u00edtim", "amenity": "restaurant", "building": "retail", "building:levels": "1"}}, {"type": "way", "id": 745465685, "nodes": [6978006055, 6978006045, 6978006046, 6978006047, 6978006048, 6978006049, 6978006050, 6978006051, 6978006052, 6978006053, 6978006054, 6978006055], "tags": {"amenity": "restaurant", "building": "yes", "building:levels": "1"}}, {"type": "way", "id": 745654963, "nodes": [6979372866, 6979372865, 6979372864, 6979372863, 6979372862, 6979372861, 6979372860, 6979372859, 6979372858, 6979372857, 6979372856, 6979372855, 6979372854, 6979372869, 7297149023, 6979372868, 6979372867, 7297149102, 7297149060, 6979372853, 6979372852, 7297149017, 6979372851, 7297149026, 7297149052, 6979372850, 7297149014, 6979372849, 6979372870, 6979372848, 7297149059, 6979372847, 7297149048, 6979372846, 7297149099, 6979372845, 7297149117, 6979372844, 6979372866], "tags": {"amenity": "restaurant", "building": "retail", "building:levels": "1"}}, {"type": "way", "id": 752941063, "nodes": [7035494396, 7035494399, 7035494400, 7035494404, 7035494396], "tags": {"amenity": "restaurant", "building": "yes", "building:levels": "1"}}, {"type": "way", "id": 958870176, "nodes": [8872442415, 8872548075, 8872442409, 8872547681, 8872547843, 8872547624, 8872548047, 8872442412, 8872547638, 8872547770, 8872442408, 8872547661, 8872547883, 8872547847, 8872547849, 8872547840, 8872547791, 8872547914, 8872547855, 8872547876, 8872548031, 8872547929, 8872442415], "tags": {"amenity": "restaurant", "building": "retail", "building:levels": "2", "name": "S'Engolidor"}}, {"type": "way", "id": 1330745772, "nodes": [6679949452, 6679949424, 12312788521, 6679949449, 6679949450, 6679949439, 6679949462, 6679949461, 6679949460, 6679949459, 6679949393, 6679949457, 12312788547, 6679949456, 6679949455, 6679949454, 6679949453, 6679949452], "tags": {"amenity": "restaurant", "building": "no", "cuisine": "regional", "name": "Es Far d'Artrutx", "outdoor_seating": "yes", "reservation": "recommended", "smoking": "outside", "website": "https://www.facebook.com/ES-FAR-DARTRUTX-217224248293174/"}}]}