{"version": 0.6, "generator": "Overpass API 0.7.62.7 375dc00a", "osm3s": {"timestamp_osm_base": "2025-06-14T14:00:42Z", "copyright": "The data included in this document is from www.openstreetmap.org. The data is made available under ODbL."}, "elements": [{"type": "node", "id": 472598507, "lat": 40.745322, "lon": 17.7301097, "tags": {"amenity": "restaurant", "name": "Lido Sabbia d'Oro"}}, {"type": "node", "id": 868523149, "lat": 40.7359652, "lon": 17.7246726, "tags": {"addr:city": "Carovigno", "addr:country": "IT", "addr:housenumber": "Km. 31", "addr:street": "S.S. 379", "amenity": "cafe", "operator": "Mele Giuseppe", "phone": "+39 0831 996278", "ref:vatin": "IT00214300741"}}, {"type": "node", "id": 929206588, "lat": 40.733787, "lon": 17.5787702, "tags": {"amenity": "restaurant", "name": "Vispa Teresa", "wheelchair": "no"}}, {"type": "node", "id": 945167214, "lat": 40.7340476, "lon": 17.5783867, "tags": {"amenity": "restaurant", "name": "Sapere & Sapori"}}, {"type": "node", "id": 1609254683, "lat": 40.6605236, "lon": 17.9617249, "tags": {"addr:housenumber": "2", "addr:street": "Via Dardanelli", "amenity": "restaurant", "check_date:opening_hours": "2023-11-08", "cuisine": "fish;pizza", "name": "Ristorante Il Porticciolo", "opening_hours": "Apr-Sep Mo-Su 07:30-00:30; Oct-Mar Mo-Su 07:30-21:00", "outdoor_seating": "yes", "payment:credit_cards": "yes", "payment:debit_cards": "yes", "smoking": "outside", "website": "https://ilporticciolobrindisi.it/", "wheelchair": "yes"}}, {"type": "node", "id": 1665047315, "lat": 40.7432093, "lon": 17.7355569}, {"type": "node", "id": 1665047335, "lat": 40.7432663, "lon": 17.735895}, {"type": "node", "id": 1665047337, "lat": 40.7431094, "lon": 17.7357612}, {"type": "node", "id": 1665047338, "lat": 40.7433039, "lon": 17.7356376}, {"type": "node", "id": 1849574823, "lat": 40.7233284, "lon": 17.5718886, "tags": {"amenity": "cafe", "cuisine": "italian", "name": "H24 Cafe' S.r.l."}}, {"type": "node", "id": 1861701624, "lat": 40.8083188, "lon": 17.5299887, "tags": {"amenity": "cafe"}}, {"type": "node", "id": 2350565098, "lat": 40.5342698, "lon": 17.4276385, "tags": {"amenity": "restaurant", "cuisine": "pizza", "name": "Pizzeria Regina Margherita", "phone": "+39 099 5626184", "wheelchair": "no"}}, {"type": "node", "id": 2352287280, "lat": 40.5494936, "lon": 17.4419435}, {"type": "node", "id": 2352287281, "lat": 40.549783, "lon": 17.4427482}, {"type": "node", "id": 2352287282, "lat": 40.5506594, "lon": 17.4422761}, {"type": "node", "id": 2352287283, "lat": 40.5503802, "lon": 17.4415036}, {"type": "node", "id": 2352287284, "lat": 40.5501702, "lon": 17.4416351}, {"type": "node", "id": 2352287285, "lat": 40.5499236, "lon": 17.4417799}, {"type": "node", "id": 2352287286, "lat": 40.549675, "lon": 17.4418925}, {"type": "node", "id": 2442972872, "lat": 40.8543213, "lon": 17.4449479, "tags": {"addr:street": "SP90", "amenity": "restaurant", "cuisine": "italian", "internet_access": "no", "name": "Ricciolandia", "phone": "+393383573010", "smoking": "no", "website": "https://www.ricciolandiaturismo.com/", "wheelchair": "no"}}, {"type": "node", "id": 2442972878, "lat": 40.8536233, "lon": 17.4454541, "tags": {"amenity": "restaurant", "cuisine": "italian", "name": "Ristorante Forcatella", "operator": "Martellotta Rosa & C. S.A.S.", "phone": "+39 080 4820364", "website": "http://www.ristoranteforcatella.it/"}}, {"type": "node", "id": 2454403423, "lat": 40.5368248, "lon": 17.4415207}, {"type": "node", "id": 2454403425, "lat": 40.5366284, "lon": 17.4414734}, {"type": "node", "id": 2454403428, "lat": 40.5366483, "lon": 17.4413497}, {"type": "node", "id": 2454403430, "lat": 40.5368103, "lon": 17.4413613}, {"type": "node", "id": 2454403433, "lat": 40.5368299, "lon": 17.4413934}, {"type": "node", "id": 2454403439, "lat": 40.5360219, "lon": 17.4409996, "tags": {"amenity": "restaurant", "cuisine": "pizza", "name": "Pizzeria Posto 13"}}, {"type": "node", "id": 2456639910, "lat": 40.5473194, "lon": 17.4337647, "tags": {"amenity": "restaurant", "cuisine": "pizza", "name": "La corte dei sapori"}}, {"type": "node", "id": 2463156045, "lat": 40.5295632, "lon": 17.4410583}, {"type": "node", "id": 2463156046, "lat": 40.5294414, "lon": 17.44119}, {"type": "node", "id": 2463156047, "lat": 40.5295074, "lon": 17.4412957}, {"type": "node", "id": 2463156048, "lat": 40.5296292, "lon": 17.4411641}, {"type": "node", "id": 2463156049, "lat": 40.5299121, "lon": 17.4411912}, {"type": "node", "id": 2463156050, "lat": 40.5297845, "lon": 17.4413274}, {"type": "node", "id": 2463156051, "lat": 40.5296087, "lon": 17.441036}, {"type": "node", "id": 2463156052, "lat": 40.5297243, "lon": 17.4409093}, {"type": "node", "id": 2463156056, "lat": 40.532295, "lon": 17.4384177}, {"type": "node", "id": 2511013172, "lat": 40.729268, "lon": 17.5786575, "tags": {"amenity": "cafe", "name": "Bar Primavera"}}, {"type": "node", "id": 2566971909, "lat": 40.532199, "lon": 17.4382815}, {"type": "node", "id": 2566971914, "lat": 40.5321592, "lon": 17.4382244}, {"type": "node", "id": 2566971915, "lat": 40.5322592, "lon": 17.4381096}, {"type": "node", "id": 2566971916, "lat": 40.5323998, "lon": 17.4383157}, {"type": "node", "id": 2566971953, "lat": 40.5323565, "lon": 17.4382571}, {"type": "node", "id": 2566971955, "lat": 40.5323223, "lon": 17.4382053}, {"type": "node", "id": 2578567521, "lat": 40.5318484, "lon": 17.4336394}, {"type": "node", "id": 2578567524, "lat": 40.5316989, "lon": 17.4340048}, {"type": "node", "id": 2578567525, "lat": 40.5315593, "lon": 17.4337674}, {"type": "node", "id": 2578567526, "lat": 40.5316537, "lon": 17.4335143}, {"type": "node", "id": 2578567528, "lat": 40.5316248, "lon": 17.4335977}, {"type": "node", "id": 2699766557, "lat": 40.7946711, "lon": 17.5488761, "tags": {"amenity": "cafe"}}, {"type": "node", "id": 2701138442, "lat": 40.7931772, "lon": 17.5463354, "tags": {"addr:street": "Via Giulia", "amenity": "cafe", "name": "Caff\u00e8 del Consorzio", "operator": "Teodoro Prudentino"}}, {"type": "node", "id": 2704642901, "lat": 40.7967618, "lon": 17.476152, "tags": {"addr:city": "Fasano", "addr:postcode": "72016", "addr:street": "Contrada Ottava", "amenity": "restaurant", "capacity": "100", "cuisine": "regional", "description:it": "Agriturismo, bed and breakfast, azienda agricola, albergabici.", "name": "Masseria Oasi San Giovanni Battista", "organic": "yes", "phone": "+39 334 8635655", "wheelchair": "yes"}}, {"type": "node", "id": 2869838436, "lat": 40.6392181, "lon": 17.9477337, "tags": {"addr:city": "Brindisi", "addr:housenumber": "91", "addr:postcode": "72100", "addr:street": "Corso Giuseppe Garibaldi", "amenity": "cafe", "description": "Pasticceria, gelateria, rosticceria e piccola cucina", "name": "Caff\u00e8 Ausonia", "opening_hours": "5:00-22:00", "phone": "+39 0831 529719", "smoking": "outside"}}, {"type": "node", "id": 2870041743, "lat": 40.6402651, "lon": 17.9408134, "tags": {"addr:city": "Brindisi", "addr:housenumber": "29", "addr:postcode": "72100", "addr:street": "Via Paolo Thaon di Revel", "amenity": "restaurant", "capacity": "100", "cuisine": "regional", "name": "Antica osteria la sciabica", "opening_hours": "12:00-15:00,19:00-23:00", "outdoor_seating": "yes", "phone": "+39 0831 562870"}}, {"type": "node", "id": 2910626301, "lat": 40.8647041, "lon": 17.4234687, "tags": {"amenity": "restaurant", "cuisine": "fish", "name": "San Domenico a Mare"}}, {"type": "node", "id": 3017624768, "lat": 40.8738227, "lon": 17.4096843, "tags": {"amenity": "restaurant", "cuisine": "italian", "name": "Pizzeria Il veliero"}}, {"type": "node", "id": 3420452453, "lat": 40.6383978, "lon": 17.5045734, "tags": {"amenity": "restaurant", "cuisine": "italian", "name": "Il Fornello a Ricci"}}, {"type": "node", "id": 3442801676, "lat": 40.6450296, "lon": 17.6191865, "tags": {"amenity": "restaurant", "name": "Masseria Palagogna"}}, {"type": "node", "id": 3472952302, "lat": 40.6553227, "lon": 17.5401995}, {"type": "node", "id": 3472952303, "lat": 40.6552728, "lon": 17.5404729}, {"type": "node", "id": 3472952305, "lat": 40.6553591, "lon": 17.5404953}, {"type": "node", "id": 3474032166, "lat": 40.6463723, "lon": 17.5184243, "tags": {"addr:city": "Ceglie Messapica", "addr:housenumber": "7", "addr:postcode": "72013", "addr:street": "Via Chianche di Scarano", "amenity": "restaurant", "cuisine": "regional", "name": "Cibus", "phone": "+39 0831 388980", "website": "http://www.ristorantecibus.it/"}}, {"type": "node", "id": 3475156592, "lat": 40.6393674, "lon": 17.5028385}, {"type": "node", "id": 3475217807, "lat": 40.6394305, "lon": 17.5029411}, {"type": "node", "id": 3475217808, "lat": 40.6393639, "lon": 17.5031436}, {"type": "node", "id": 3475217809, "lat": 40.639261, "lon": 17.503084}, {"type": "node", "id": 3475217811, "lat": 40.6393877, "lon": 17.5027105}, {"type": "node", "id": 3475217813, "lat": 40.6392577, "lon": 17.5025519}, {"type": "node", "id": 3475217814, "lat": 40.6394218, "lon": 17.5026452}, {"type": "node", "id": 3475217816, "lat": 40.6394035, "lon": 17.5026993}, {"type": "node", "id": 3475217820, "lat": 40.6394024, "lon": 17.5028502}, {"type": "node", "id": 3475217821, "lat": 40.6394146, "lon": 17.5028564}, {"type": "node", "id": 3475217822, "lat": 40.6394238, "lon": 17.5028671}, {"type": "node", "id": 3475217823, "lat": 40.6394281, "lon": 17.5028808}, {"type": "node", "id": 3475217824, "lat": 40.6394286, "lon": 17.5028997}, {"type": "node", "id": 3475217825, "lat": 40.6394206, "lon": 17.5029106}, {"type": "node", "id": 3475217826, "lat": 40.6394107, "lon": 17.502929}, {"type": "node", "id": 3475217831, "lat": 40.6390953, "lon": 17.5028127}, {"type": "node", "id": 3475217832, "lat": 40.6391414, "lon": 17.5028553}, {"type": "node", "id": 3475217833, "lat": 40.6391648, "lon": 17.5028218}, {"type": "node", "id": 3475217834, "lat": 40.6392279, "lon": 17.502854}, {"type": "node", "id": 3475217835, "lat": 40.6392992, "lon": 17.5026609}, {"type": "node", "id": 3475217845, "lat": 40.6397093, "lon": 17.5023426, "tags": {"amenity": "restaurant", "name": "Pizzeria La Baita"}}, {"type": "node", "id": 3536070953, "lat": 40.6471891, "lon": 17.5182725, "tags": {"amenity": "restaurant", "cuisine": "regional", "delivery": "no", "name": "Arrosteria Borgo Antico"}}, {"type": "node", "id": 3536086396, "lat": 40.6476662, "lon": 17.5191142, "tags": {"addr:city": "Ceglie Messapica", "addr:housenumber": "4", "addr:postcode": "72013", "addr:street": "Largo Celso", "amenity": "restaurant", "cuisine": "regional;mediterranean", "name": "Ristorante L'Antico Arco"}}, {"type": "node", "id": 3536370975, "lat": 40.6466006, "lon": 17.5193058, "tags": {"amenity": "restaurant", "cuisine": "regional", "name": "Ristorante da Catucci"}}, {"type": "node", "id": 3574351849, "lat": 40.6455462, "lon": 17.5175514, "tags": {"amenity": "restaurant", "cuisine": "regional", "name": "Osteria del Capitolo"}}, {"type": "node", "id": 3705324335, "lat": 40.5363823, "lon": 17.4285313, "tags": {"addr:street": "Via Quinto Ennio", "amenity": "restaurant", "name": "Ristorante da Cataldo"}}, {"type": "node", "id": 3751468392, "lat": 40.5595364, "lon": 17.8093536, "tags": {"amenity": "restaurant", "name": "Trattoria da nonna Cochia", "outdoor_seating": "yes"}}, {"type": "node", "id": 3789024247, "lat": 40.6474632, "lon": 17.5177322, "tags": {"amenity": "restaurant", "cuisine": "regional", "name": "Botrus", "website": "http://www.botrus.it/it/home/"}}, {"type": "node", "id": 3792732408, "lat": 40.644955, "lon": 17.5204196, "tags": {"addr:city": "Ceglie Messapica", "addr:housenumber": "95", "addr:postcode": "72013", "addr:street": "Via Roma", "amenity": "restaurant", "cuisine": "regional;pizza", "name": "Pizzeria Trattoria da Angelo"}}, {"type": "node", "id": 3854610805, "lat": 40.796783, "lon": 17.5599487, "tags": {"amenity": "cafe"}}, {"type": "node", "id": 3854610832, "lat": 40.7958002, "lon": 17.5434423, "tags": {"amenity": "restaurant", "name": "La Taverna Maurizio"}}, {"type": "node", "id": 3854610838, "lat": 40.8002084, "lon": 17.5508533, "tags": {"amenity": "cafe"}}, {"type": "node", "id": 3854691330, "lat": 40.7929253, "lon": 17.5461504, "tags": {"amenity": "cafe"}}, {"type": "node", "id": 3854691336, "lat": 40.7929296, "lon": 17.546094, "tags": {"amenity": "cafe"}}, {"type": "node", "id": 3891394661, "lat": 40.7415559, "lon": 17.426623, "tags": {"addr:housenumber": "3", "addr:postcode": "72014", "addr:street": "Via Duca d'Aosta", "amenity": "restaurant", "cuisine": "barbecue", "diet:gluten_free": "yes", "name": "Zio Pietro", "source": "Bing", "takeaway": "yes"}}, {"type": "node", "id": 4081097203, "lat": 40.6568248, "lon": 17.7022884, "tags": {"addr:housenumber": "87", "addr:street": "Via San Domenico", "amenity": "restaurant", "name": "Broadway ristorante & pizzeria"}}, {"type": "node", "id": 4081234604, "lat": 40.6644966, "lon": 17.6969589, "tags": {"amenity": "restaurant", "name": "Ristorante Pincarieddu"}}, {"type": "node", "id": 4082938816, "lat": 40.6551632, "lon": 17.7029988, "tags": {"amenity": "restaurant", "name": "La Locanda di Nonna Mena"}}, {"type": "node", "id": 4082953994, "lat": 40.6560415, "lon": 17.7069942, "tags": {"amenity": "restaurant", "cuisine": "barbecue;pizza", "name": "Pizza & Grill Natola Di Maurizio Natola"}}, {"type": "node", "id": 4082959095, "lat": 40.6566886, "lon": 17.7032539, "tags": {"amenity": "restaurant", "name": "L'archetto della Brace - Ristorante"}}, {"type": "node", "id": 4171603815, "lat": 40.6565116, "lon": 17.6997014}, {"type": "node", "id": 4171603850, "lat": 40.6565244, "lon": 17.6997628}, {"type": "node", "id": 4171605137, "lat": 40.6565549, "lon": 17.6996858}, {"type": "node", "id": 4171605168, "lat": 40.6565677, "lon": 17.6997471}, {"type": "node", "id": 4175628839, "lat": 40.8253376, "lon": 17.4873767}, {"type": "node", "id": 4175629889, "lat": 40.8254023, "lon": 17.4874178}, {"type": "node", "id": 4175629969, "lat": 40.8254325, "lon": 17.487118}, {"type": "node", "id": 4175630405, "lat": 40.8254468, "lon": 17.4874461}, {"type": "node", "id": 4175630413, "lat": 40.8254499, "lon": 17.4874378}, {"type": "node", "id": 4175630914, "lat": 40.8254831, "lon": 17.4874589}, {"type": "node", "id": 4175631289, "lat": 40.8255065, "lon": 17.4872832}, {"type": "node", "id": 4175631303, "lat": 40.8255093, "lon": 17.4872756}, {"type": "node", "id": 4175631386, "lat": 40.8255388, "lon": 17.4872944}, {"type": "node", "id": 4175631790, "lat": 40.8255398, "lon": 17.4873043}, {"type": "node", "id": 4175631797, "lat": 40.8255428, "lon": 17.4872496}, {"type": "node", "id": 4175631825, "lat": 40.8255529, "lon": 17.4872559}, {"type": "node", "id": 4175631850, "lat": 40.8255611, "lon": 17.4871997}, {"type": "node", "id": 4175772644, "lat": 40.8396154, "lon": 17.468226}, {"type": "node", "id": 4175773004, "lat": 40.8396372, "lon": 17.46819}, {"type": "node", "id": 4175773042, "lat": 40.8396527, "lon": 17.4682654}, {"type": "node", "id": 4175773077, "lat": 40.8396661, "lon": 17.4681988}, {"type": "node", "id": 4175773392, "lat": 40.8396723, "lon": 17.4682333}, {"type": "node", "id": 4182669539, "lat": 40.6453788, "lon": 17.9467143, "tags": {"addr:housenumber": "14", "addr:street": "Viale Duca degli Abruzzi", "amenity": "cafe", "name": "La Capannina", "opening_hours": "Oct-Apr Mo-Sa 07:00-22:00; May-Sep Mo-Sa 07:00-24:00", "operator": "Valentino Caff\u00e9", "outdoor_seating": "yes", "payment:credit_cards": "yes", "payment:debit_cards": "yes", "smoking": "outside", "wheelchair": "limited"}}, {"type": "node", "id": 4182829179, "lat": 40.65871, "lon": 17.9581229, "tags": {"addr:city": "Brindisi", "addr:street": "Via Materdomini", "amenity": "restaurant", "cuisine": "pizza", "name": "La Sciaia a mare", "opening_hours": "We-Mo 12:30-14:30,19:00-24:00", "outdoor_seating": "yes", "wheelchair": "limited"}}, {"type": "node", "id": 4191388087, "lat": 40.6393913, "lon": 17.5028467}, {"type": "node", "id": 4201025002, "lat": 40.7449111, "lon": 17.4246702}, {"type": "node", "id": 4201025059, "lat": 40.7449266, "lon": 17.4246325}, {"type": "node", "id": 4201025062, "lat": 40.7449271, "lon": 17.4246817}, {"type": "node", "id": 4201291908, "lat": 40.7604396, "lon": 17.6934077, "tags": {"amenity": "restaurant", "cuisine": "pizza", "name": "Pizzeria Cucinelli"}}, {"type": "node", "id": 4201333123, "lat": 40.6929251, "lon": 17.7622776}, {"type": "node", "id": 4201333308, "lat": 40.6931213, "lon": 17.7621596}, {"type": "node", "id": 4201333325, "lat": 40.6931645, "lon": 17.7622837}, {"type": "node", "id": 4201425834, "lat": 40.7430361, "lon": 17.7259817}, {"type": "node", "id": 4201425836, "lat": 40.7430459, "lon": 17.7260745}, {"type": "node", "id": 4201425837, "lat": 40.74306, "lon": 17.7258843}, {"type": "node", "id": 4201425838, "lat": 40.7430656, "lon": 17.7259942}, {"type": "node", "id": 4201425843, "lat": 40.743112, "lon": 17.7261026}, {"type": "node", "id": 4201425856, "lat": 40.7431556, "lon": 17.7259248}, {"type": "node", "id": 4201425918, "lat": 40.7432833, "lon": 17.7356795}, {"type": "node", "id": 4201425941, "lat": 40.7433457, "lon": 17.7357327}, {"type": "node", "id": 4201426625, "lat": 40.7446347, "lon": 17.7338609}, {"type": "node", "id": 4201426636, "lat": 40.7446513, "lon": 17.7336796}, {"type": "node", "id": 4201426698, "lat": 40.7448071, "lon": 17.7338882}, {"type": "node", "id": 4201426701, "lat": 40.7448088, "lon": 17.7338689}, {"type": "node", "id": 4201426710, "lat": 40.7448237, "lon": 17.7337068}, {"type": "node", "id": 4203098725, "lat": 40.5572667, "lon": 17.7193905}, {"type": "node", "id": 4203098731, "lat": 40.5572713, "lon": 17.7192466}, {"type": "node", "id": 4203098747, "lat": 40.5572809, "lon": 17.719233}, {"type": "node", "id": 4203098759, "lat": 40.5572897, "lon": 17.7192254}, {"type": "node", "id": 4203098772, "lat": 40.5573003, "lon": 17.7192237}, {"type": "node", "id": 4203098873, "lat": 40.5574485, "lon": 17.7193996}, {"type": "node", "id": 4203098874, "lat": 40.5574487, "lon": 17.7194865}, {"type": "node", "id": 4203098878, "lat": 40.5574511, "lon": 17.7191349}, {"type": "node", "id": 4203098902, "lat": 40.5574778, "lon": 17.7192223}, {"type": "node", "id": 4203098903, "lat": 40.5574781, "lon": 17.7191478}, {"type": "node", "id": 4203098904, "lat": 40.5574798, "lon": 17.7190463}, {"type": "node", "id": 4203098930, "lat": 40.5575286, "lon": 17.7190763}, {"type": "node", "id": 4203098948, "lat": 40.5575579, "lon": 17.7193583}, {"type": "node", "id": 4203098950, "lat": 40.5575586, "lon": 17.7194007}, {"type": "node", "id": 4203098983, "lat": 40.5576116, "lon": 17.7193983}, {"type": "node", "id": 4203098985, "lat": 40.5576145, "lon": 17.7194787}, {"type": "node", "id": 4203099062, "lat": 40.5578022, "lon": 17.719069}, {"type": "node", "id": 4203099068, "lat": 40.5578083, "lon": 17.719352}, {"type": "node", "id": 4203390220, "lat": 40.6312687, "lon": 17.6315455}, {"type": "node", "id": 4203390420, "lat": 40.6313271, "lon": 17.6317084}, {"type": "node", "id": 4203390614, "lat": 40.6313928, "lon": 17.6317112}, {"type": "node", "id": 4203390625, "lat": 40.6313991, "lon": 17.6315456}, {"type": "node", "id": 4205839939, "lat": 40.5262686, "lon": 17.7937404}, {"type": "node", "id": 4205839943, "lat": 40.5262782, "lon": 17.7937024}, {"type": "node", "id": 4205839944, "lat": 40.5262826, "lon": 17.793841}, {"type": "node", "id": 4205839947, "lat": 40.5262991, "lon": 17.7937508}, {"type": "node", "id": 4205840017, "lat": 40.5265631, "lon": 17.7939258}, {"type": "node", "id": 4205840021, "lat": 40.5265797, "lon": 17.7937929}, {"type": "node", "id": 4205924467, "lat": 40.573851, "lon": 17.8102838}, {"type": "node", "id": 4205924470, "lat": 40.5738522, "lon": 17.8102088}, {"type": "node", "id": 4205924515, "lat": 40.5739031, "lon": 17.8102102}, {"type": "node", "id": 4205924517, "lat": 40.5739039, "lon": 17.8101605}, {"type": "node", "id": 4205924742, "lat": 40.5740554, "lon": 17.8101646}, {"type": "node", "id": 4205924744, "lat": 40.5740535, "lon": 17.8102893}, {"type": "node", "id": 4207419337, "lat": 40.6284598, "lon": 17.6314611, "tags": {"amenity": "cafe", "name": "Harris"}}, {"type": "node", "id": 4210039030, "lat": 40.7867926, "lon": 17.5966108}, {"type": "node", "id": 4210039031, "lat": 40.7867961, "lon": 17.5966693}, {"type": "node", "id": 4210039032, "lat": 40.7867979, "lon": 17.5965838}, {"type": "node", "id": 4210039036, "lat": 40.786803, "lon": 17.5966432}, {"type": "node", "id": 4210039042, "lat": 40.7868118, "lon": 17.5966774}, {"type": "node", "id": 4210039045, "lat": 40.7868143, "lon": 17.5967384}, {"type": "node", "id": 4210039047, "lat": 40.7868158, "lon": 17.5966926}, {"type": "node", "id": 4210039048, "lat": 40.7868166, "lon": 17.5965725}, {"type": "node", "id": 4210039050, "lat": 40.786819, "lon": 17.5967117}, {"type": "node", "id": 4210039053, "lat": 40.7868252, "lon": 17.5965432}, {"type": "node", "id": 4210039059, "lat": 40.7868366, "lon": 17.5965366}, {"type": "node", "id": 4210039065, "lat": 40.7868394, "lon": 17.5967412}, {"type": "node", "id": 4210039067, "lat": 40.7868436, "lon": 17.5967242}, {"type": "node", "id": 4210039069, "lat": 40.7868542, "lon": 17.5965344}, {"type": "node", "id": 4210039079, "lat": 40.7868669, "lon": 17.5967057}, {"type": "node", "id": 4210039080, "lat": 40.7868708, "lon": 17.5965383}, {"type": "node", "id": 4210039083, "lat": 40.7868855, "lon": 17.5967153}, {"type": "node", "id": 4210039089, "lat": 40.7868957, "lon": 17.5966823}, {"type": "node", "id": 4210039090, "lat": 40.786899, "lon": 17.5965507}, {"type": "node", "id": 4210039096, "lat": 40.7869147, "lon": 17.5965638}, {"type": "node", "id": 4210039098, "lat": 40.7869155, "lon": 17.5966156}, {"type": "node", "id": 4210039099, "lat": 40.7869173, "lon": 17.5966731}, {"type": "node", "id": 4210039102, "lat": 40.7869235, "lon": 17.596581}, {"type": "node", "id": 4210039103, "lat": 40.7869248, "lon": 17.5966391}, {"type": "node", "id": 4210039104, "lat": 40.786926, "lon": 17.5965885}, {"type": "node", "id": 4210041004, "lat": 40.7886348, "lon": 17.5848928}, {"type": "node", "id": 4210041034, "lat": 40.7886783, "lon": 17.5847461}, {"type": "node", "id": 4210041141, "lat": 40.788778, "lon": 17.5849669}, {"type": "node", "id": 4210041155, "lat": 40.7888697, "lon": 17.584942}, {"type": "node", "id": 4210041165, "lat": 40.7889018, "lon": 17.5848336}, {"type": "node", "id": 4210041190, "lat": 40.7888153, "lon": 17.584817}, {"type": "node", "id": 4212634314, "lat": 40.7066249, "lon": 17.6578907, "tags": {"amenity": "restaurant", "name": "Ristorante Taverna del Castello"}}, {"type": "node", "id": 4212638564, "lat": 40.7074041, "lon": 17.6557979, "tags": {"amenity": "restaurant", "name": "Trattoria Porta Nova"}}, {"type": "node", "id": 4212655021, "lat": 40.7058464, "lon": 17.6572207, "tags": {"amenity": "restaurant", "name": "Ristorante Creativit\u00e0"}}, {"type": "node", "id": 4212659228, "lat": 40.7056064, "lon": 17.6585925, "tags": {"amenity": "restaurant", "name": "Art Caf\u00e9 La Loggia"}}, {"type": "node", "id": 4212667593, "lat": 40.7049623, "lon": 17.6598316, "tags": {"amenity": "restaurant", "name": "Ristorante Pizzeria Fantasy"}}, {"type": "node", "id": 4212801734, "lat": 40.7073504, "lon": 17.6595555, "tags": {"amenity": "restaurant", "name": "K\u00e0rbina Restaurant & Wine Bar"}}, {"type": "node", "id": 4212832275, "lat": 40.7074364, "lon": 17.6591647, "tags": {"amenity": "restaurant", "name": "Trattoria Ristorante La Cantina Di Zurlo Vincenzo"}}, {"type": "node", "id": 4212838530, "lat": 40.706981, "lon": 17.6588807, "tags": {"amenity": "restaurant", "name": "Gi\u00e0 Sotto l\u2019Arco"}}, {"type": "node", "id": 4212845420, "lat": 40.7063621, "lon": 17.6597001, "tags": {"amenity": "restaurant", "name": "Rosticceria La Creta Pizzeria"}}, {"type": "node", "id": 4213460603, "lat": 40.7011784, "lon": 17.667878, "tags": {"amenity": "restaurant", "name": "I Sapori del Mare"}}, {"type": "node", "id": 4213496829, "lat": 40.7039745, "lon": 17.6602893, "tags": {"amenity": "restaurant", "name": "Ristorante Coppularossa"}}, {"type": "node", "id": 4213522229, "lat": 40.7073947, "lon": 17.6629561, "tags": {"amenity": "cafe", "name": "Stone'S Cafe' Di Lanzilotti Giuseppe"}}, {"type": "node", "id": 4213524404, "lat": 40.7082518, "lon": 17.6633995, "tags": {"amenity": "restaurant", "name": "La Dolce Vita"}}, {"type": "node", "id": 4213578689, "lat": 40.7178473, "lon": 17.6627839, "tags": {"amenity": "restaurant", "name": "Ristorante Pizzeria Isola Verde"}}, {"type": "node", "id": 4213600802, "lat": 40.7108076, "lon": 17.6605492, "tags": {"amenity": "restaurant", "name": "Ristorante Pizzeria Chalet"}}, {"type": "node", "id": 4213840937, "lat": 40.7026927, "lon": 17.6544635, "tags": {"amenity": "restaurant", "name": "Ristorante Ippocampo"}}, {"type": "node", "id": 4216305594, "lat": 40.6464429, "lon": 17.5194574, "tags": {"addr:city": "Ceglie Messapica", "addr:housenumber": "41", "addr:postcode": "72013", "addr:street": "Via Porta di Giuso", "amenity": "restaurant", "cuisine": "pizza;italian", "name": "La Locanda"}}, {"type": "node", "id": 4216305597, "lat": 40.6459975, "lon": 17.5179174, "tags": {"amenity": "restaurant", "cuisine": "regional;pizza", "name": "Taverna dei Domenicani"}}, {"type": "node", "id": 4216305598, "lat": 40.6456093, "lon": 17.5164615, "tags": {"addr:city": "Ceglie Messapica", "addr:housenumber": "41", "addr:postcode": "72013", "addr:street": "Largo Osanna", "amenity": "restaurant", "cuisine": "regional", "name": "Trattoria piaceri e tradizioni"}}, {"type": "node", "id": 4216405624, "lat": 40.639413, "lon": 17.5027039}, {"type": "node", "id": 4216428569, "lat": 40.642883, "lon": 17.5111568, "tags": {"addr:housenumber": "33", "addr:street": "Via Maresciallo Vittorio Maggiore", "amenity": "cafe", "entrance": "yes", "name": "Florien Caf\u00e9"}}, {"type": "node", "id": 4216481257, "lat": 40.6552911, "lon": 17.5403246}, {"type": "node", "id": 4216481607, "lat": 40.6553816, "lon": 17.5402297}, {"type": "node", "id": 4216481642, "lat": 40.6553907, "lon": 17.5403332}, {"type": "node", "id": 4216512558, "lat": 40.6662638, "lon": 17.448053}, {"type": "node", "id": 4216512896, "lat": 40.6662873, "lon": 17.4481299}, {"type": "node", "id": 4216512945, "lat": 40.6663116, "lon": 17.4481173}, {"type": "node", "id": 4216512975, "lat": 40.6663291, "lon": 17.4480154}, {"type": "node", "id": 4216513350, "lat": 40.6663598, "lon": 17.4479976}, {"type": "node", "id": 4216513371, "lat": 40.6663696, "lon": 17.4480266}, {"type": "node", "id": 4216513383, "lat": 40.6663734, "lon": 17.4483034}, {"type": "node", "id": 4216513743, "lat": 40.6663994, "lon": 17.4480094}, {"type": "node", "id": 4216513765, "lat": 40.6664135, "lon": 17.4480516}, {"type": "node", "id": 4216513788, "lat": 40.6664257, "lon": 17.4482051}, {"type": "node", "id": 4216514143, "lat": 40.6664457, "lon": 17.4482647}, {"type": "node", "id": 4216514166, "lat": 40.6664586, "lon": 17.448186}, {"type": "node", "id": 4216534029, "lat": 40.6770239, "lon": 17.4276559}, {"type": "node", "id": 4216534061, "lat": 40.6770395, "lon": 17.4273171}, {"type": "node", "id": 4216534115, "lat": 40.6770664, "lon": 17.4273533}, {"type": "node", "id": 4216534116, "lat": 40.6770679, "lon": 17.4273199}, {"type": "node", "id": 4216534291, "lat": 40.6771746, "lon": 17.4273619}, {"type": "node", "id": 4216534294, "lat": 40.6771761, "lon": 17.4273309}, {"type": "node", "id": 4216534450, "lat": 40.677272, "lon": 17.4276756}, {"type": "node", "id": 4216534473, "lat": 40.6772874, "lon": 17.4273414}, {"type": "node", "id": 4217608083, "lat": 40.6291365, "lon": 17.6342606, "tags": {"amenity": "restaurant", "name": "Il Casolare dei Capricci Salentini"}}, {"type": "node", "id": 4217613580, "lat": 40.6310045, "lon": 17.6353052, "tags": {"amenity": "restaurant", "name": "Casa Calamaro - Pescheria Trattoria Friggitoria Fortunato"}}, {"type": "node", "id": 4217630400, "lat": 40.6304569, "lon": 17.6366297, "tags": {"amenity": "restaurant", "cuisine": "pizza", "name": "Kimama Bistrot pizzeria"}}, {"type": "node", "id": 4220935764, "lat": 40.6267207, "lon": 17.947272}, {"type": "node", "id": 4220935873, "lat": 40.6267395, "lon": 17.947369}, {"type": "node", "id": 4220936232, "lat": 40.6268072, "lon": 17.9473441}, {"type": "node", "id": 4220936290, "lat": 40.6268204, "lon": 17.9472333}, {"type": "node", "id": 4220936379, "lat": 40.6268386, "lon": 17.9473159}, {"type": "node", "id": 4221003510, "lat": 40.6410152, "lon": 17.9421838}, {"type": "node", "id": 4221003692, "lat": 40.6410638, "lon": 17.9421243}, {"type": "node", "id": 4221003742, "lat": 40.6410874, "lon": 17.9421576}, {"type": "node", "id": 4221003771, "lat": 40.6410989, "lon": 17.9421435}, {"type": "node", "id": 4221003800, "lat": 40.6411132, "lon": 17.9421793}, {"type": "node", "id": 4221003821, "lat": 40.6411189, "lon": 17.9421715}, {"type": "node", "id": 4221004146, "lat": 40.6411704, "lon": 17.9423908}, {"type": "node", "id": 4221004989, "lat": 40.6412237, "lon": 17.9423213}, {"type": "node", "id": 4226338521, "lat": 40.5306278, "lon": 17.4302028}, {"type": "node", "id": 4226338600, "lat": 40.5306975, "lon": 17.4300998}, {"type": "node", "id": 4226338654, "lat": 40.5307386, "lon": 17.430385}, {"type": "node", "id": 4226338668, "lat": 40.5307526, "lon": 17.4303668}, {"type": "node", "id": 4226338683, "lat": 40.5307652, "lon": 17.4301887}, {"type": "node", "id": 4226338817, "lat": 40.5307914, "lon": 17.4304544}, {"type": "node", "id": 4226338835, "lat": 40.5308099, "lon": 17.4301303}, {"type": "node", "id": 4226338851, "lat": 40.5308338, "lon": 17.4301617}, {"type": "node", "id": 4226338859, "lat": 40.53084, "lon": 17.4301536}, {"type": "node", "id": 4226338995, "lat": 40.5308739, "lon": 17.4301981}, {"type": "node", "id": 4226339021, "lat": 40.5308929, "lon": 17.4302269}, {"type": "node", "id": 4226339024, "lat": 40.5308943, "lon": 17.430225}, {"type": "node", "id": 4226339057, "lat": 40.5309232, "lon": 17.4302667}, {"type": "node", "id": 4226352464, "lat": 40.5367694, "lon": 17.4413756}, {"type": "node", "id": 4226352474, "lat": 40.5367738, "lon": 17.4413518}, {"type": "node", "id": 4226352575, "lat": 40.5368273, "lon": 17.4414235}, {"type": "node", "id": 4226352607, "lat": 40.5368377, "lon": 17.4414271}, {"type": "node", "id": 4226373121, "lat": 40.5505257, "lon": 17.4418474}, {"type": "node", "id": 4242824366, "lat": 40.7183651, "lon": 17.5818114, "tags": {"amenity": "restaurant", "name": "Braceria Esco Sazio"}}, {"type": "node", "id": 4242855800, "lat": 40.7234593, "lon": 17.5815983, "tags": {"amenity": "restaurant", "cuisine": "pizza", "name": "Mystic Pizza S.A.S. Di Giuseppe Leoci"}}, {"type": "node", "id": 4242933114, "lat": 40.7233789, "lon": 17.5795669, "tags": {"amenity": "restaurant", "cuisine": "pizza", "name": "Il Delfino"}}, {"type": "node", "id": 4243121889, "lat": 40.7233918, "lon": 17.5774384, "tags": {"amenity": "restaurant", "name": "Eden"}}, {"type": "node", "id": 4243961379, "lat": 40.7220851, "lon": 17.5734005, "tags": {"amenity": "restaurant", "name": "Rosa Blu"}}, {"type": "node", "id": 4244055697, "lat": 40.7277193, "lon": 17.5684126, "tags": {"amenity": "cafe", "name": "Stefania's Caf\u00e9"}}, {"type": "node", "id": 4244255278, "lat": 40.7339968, "lon": 17.5765965, "tags": {"amenity": "restaurant", "name": "Porta Nova Enoteca"}}, {"type": "node", "id": 4244257016, "lat": 40.7336993, "lon": 17.5759357, "tags": {"amenity": "restaurant", "name": "Ristorante Acquasale"}}, {"type": "node", "id": 4244265364, "lat": 40.7346854, "lon": 17.579192, "tags": {"amenity": "restaurant", "name": "Osteria del Tempo Perso"}}, {"type": "node", "id": 4244268235, "lat": 40.7344312, "lon": 17.5794748, "tags": {"amenity": "restaurant", "name": "Gusto & Gusto"}}, {"type": "node", "id": 4244278119, "lat": 40.7341414, "lon": 17.5796568, "tags": {"amenity": "restaurant", "cuisine": "pizza", "name": "La Gilda;Il Bellavista Pizzeria Bistrot"}}, {"type": "node", "id": 4244278959, "lat": 40.7342078, "lon": 17.5796654, "tags": {"amenity": "restaurant", "cuisine": "pizza", "name": "Il Posto Affianco e Il Pozzo dei Desideri"}}, {"type": "node", "id": 4244385722, "lat": 40.7340956, "lon": 17.5781729, "tags": {"amenity": "restaurant", "name": "Osteria Piazzetta Cattedrale"}}, {"type": "node", "id": 4248305457, "lat": 40.7259525, "lon": 17.5723089, "tags": {"amenity": "restaurant", "cuisine": "pizza", "name": "Golosiamo"}}, {"type": "node", "id": 4253040271, "lat": 40.7248124, "lon": 17.5788381, "tags": {"amenity": "restaurant", "name": "La Bruschetta Dell'Oste"}}, {"type": "node", "id": 4256262526, "lat": 40.7326885, "lon": 17.579795, "tags": {"amenity": "restaurant", "name": "Antica Posada"}}, {"type": "node", "id": 4256301348, "lat": 40.733006, "lon": 17.5791684, "tags": {"amenity": "restaurant", "name": "Pizzeria Notti Bianche"}}, {"type": "node", "id": 4256309545, "lat": 40.7329355, "lon": 17.5786272, "tags": {"amenity": "restaurant", "name": "L'Arco Dei Sapori - Ristorante Pizzeria Di Calamo Daniela"}}, {"type": "node", "id": 4256534849, "lat": 40.7318478, "lon": 17.5778064, "tags": {"amenity": "restaurant", "name": "Epigeo59"}}, {"type": "node", "id": 4256558218, "lat": 40.731155, "lon": 17.5788222, "tags": {"amenity": "restaurant", "name": "Sho Ann"}}, {"type": "node", "id": 4256592826, "lat": 40.7309943, "lon": 17.5789748, "tags": {"amenity": "restaurant", "name": "Ikumi Shoko"}}, {"type": "node", "id": 4256600301, "lat": 40.7305307, "lon": 17.5789607, "tags": {"amenity": "restaurant", "name": "Trattoria del Frantoio"}}, {"type": "node", "id": 4256601608, "lat": 40.7307232, "lon": 17.5782801, "tags": {"amenity": "restaurant", "name": "Officina Dei Sapori"}}, {"type": "node", "id": 4258290789, "lat": 40.7319273, "lon": 17.5740925, "tags": {"amenity": "restaurant", "cuisine": "pizza", "name": "Impasto Napoletano Di Salemme Giovanni & C. Sas"}}, {"type": "node", "id": 4258290790, "lat": 40.7324122, "lon": 17.5754087, "tags": {"amenity": "restaurant", "name": "Al Solito Posto"}}, {"type": "node", "id": 4270156949, "lat": 40.6466936, "lon": 17.9177387, "tags": {"amenity": "restaurant", "name": "Pizzeria Regina Margherita"}}, {"type": "node", "id": 4291054817, "lat": 40.7293739, "lon": 17.5840852, "tags": {"amenity": "restaurant", "entrance": "yes", "name": "Ristorante Ostuni Palace Hotel"}}, {"type": "node", "id": 4298298770, "lat": 40.6353583, "lon": 17.9428178, "tags": {"addr:city": "Brindisi", "addr:housenumber": "12", "addr:street": "Piazza Cairoli", "amenity": "restaurant", "cuisine": "burger", "name": "Burger House"}}, {"type": "node", "id": 4298298771, "lat": 40.6351427, "lon": 17.9421909, "tags": {"amenity": "restaurant", "cuisine": "pizza", "name": "Maccheroni", "outdoor_seating": "no"}}, {"type": "node", "id": 4298327966, "lat": 40.6456267, "lon": 17.9439016, "tags": {"addr:city": "Brindisi", "addr:street": "Via 4 Novembre 1918", "amenity": "restaurant", "check_date": "2023-08-31", "cuisine": "pizza;steak_house", "level": "0", "name": "La Scalinata", "opening_hours": "Fr-We 17:00-23:30", "phone": "+39 338 7046055", "takeaway": "yes", "wheelchair": "limited"}}, {"type": "node", "id": 4298327968, "lat": 40.646354, "lon": 17.9438876, "tags": {"addr:city": "Brindisi", "addr:housenumber": "27", "addr:street": "Via Ruggero Flores", "amenity": "restaurant", "contact:phone": "+39 0831 413601", "cuisine": "italian_pizza", "name": "Da Piero", "opening_hours": "Tu-Fr,Su 17:00-01:00, Sa 17:00-02:00", "outdoor_seating": "yes", "takeaway": "yes"}}, {"type": "node", "id": 4300946690, "lat": 40.853438, "lon": 17.4472983, "tags": {"amenity": "restaurant", "name": "Oasi del riccio"}}, {"type": "node", "id": 4357935220, "lat": 40.6564614, "lon": 17.7064568, "tags": {"amenity": "restaurant", "cuisine": "pizza", "name": "Angolo 78"}}, {"type": "node", "id": 4358136989, "lat": 40.6605605, "lon": 17.7043211, "tags": {"addr:housenumber": "49a", "addr:postcode": "72019", "addr:street": "via carovigno", "amenity": "restaurant", "name": "Il Vulcano", "opening_hours": "24/7", "phone": "+39 333 9294787"}}, {"type": "node", "id": 4360296154, "lat": 40.7488421, "lon": 17.7213038, "tags": {"amenity": "cafe"}}, {"type": "node", "id": 4361997021, "lat": 40.5496528, "lon": 17.713139, "tags": {"addr:city": "Latiano", "addr:postcode": "72022", "addr:street": "Viale Cotrino", "amenity": "restaurant", "name": "Daburghi"}}, {"type": "node", "id": 4381124802, "lat": 40.6464797, "lon": 17.5188133, "tags": {"amenity": "restaurant", "cuisine": "tapas;regional;mediterranean;italian;international", "diet:vegetarian": "yes", "name": "da Franco", "name:it": "da Franco"}}, {"type": "node", "id": 4381346302, "lat": 40.7422516, "lon": 17.4270685, "tags": {"addr:housenumber": "5", "addr:postcode": "72014", "addr:street": "Vico C. Alberto", "amenity": "restaurant", "contact:facebook": "micropuglia", "diet:vegan": "yes", "diet:vegetarian": "yes", "name": "Micro", "name:it": "Micro", "opening_hours": "Mo-Su 10:00-15:00, 18:00-00:00", "phone": "+39 340 531 5463"}}, {"type": "node", "id": 4385101303, "lat": 40.6410132, "lon": 17.9473306, "tags": {"addr:city": "Brindisi", "addr:housenumber": "6", "addr:postcode": "72100", "addr:street": "Viale Regina Margherita", "amenity": "restaurant", "cuisine": "regional", "name": "Betty Cafe", "opening_hours": "Mo-Su 06:00-02:00", "outdoor_seating": "yes", "phone": "+39 0831 563465", "smoking": "outside", "website": "https://www.barbetty.it", "wheelchair": "limited"}}, {"type": "node", "id": 4385101305, "lat": 40.6414779, "lon": 17.9464342, "tags": {"addr:city": "Brindisi", "addr:housenumber": "18", "addr:street": "Viale Regina Margherita", "amenity": "restaurant", "check_date": "2023-07-05", "cuisine": "seafood", "name": "Windsurf", "outdoor_seating": "yes", "smoking": "outside"}}, {"type": "node", "id": 4387206125, "lat": 40.6416647, "lon": 17.9456926, "tags": {"addr:city": "Brindisi", "addr:housenumber": "36", "addr:postcode": "72100", "addr:street": "Viale Regina Margherita", "amenity": "restaurant", "cuisine": "seafood", "name": "Pescheria del Porto"}}, {"type": "node", "id": 4387206126, "lat": 40.6412718, "lon": 17.9447124, "tags": {"addr:city": "Brindisi", "addr:street": "Via Montenegro", "amenity": "restaurant", "check_date": "2023-09-28", "cuisine": "regional", "level": "0", "name": "La Locanda del Porto", "wheelchair": "limited"}}, {"type": "node", "id": 4387206127, "lat": 40.6401474, "lon": 17.9443948, "tags": {"addr:city": "Brindisi", "addr:street": "Via Giovanni Tarantini", "amenity": "restaurant", "check_date": "2023-07-05", "cuisine": "regional", "name": "Il Giardino", "smoking": "outside", "wheelchair": "limited"}}, {"type": "node", "id": 4389473994, "lat": 40.6465878, "lon": 17.9436501, "tags": {"addr:city": "Brindisi", "addr:street": "Via ammiraglio Cagni", "amenity": "restaurant", "check_date:opening_hours": "2023-11-10", "cuisine": "pizza", "name": "Pizzeria Rosticceria Lo Sfizio", "opening_hours": "Mo-Su 17:30-24:00", "smoking": "outside", "website": "https://www.pizzerialosfiziobrindisi.it/"}}, {"type": "node", "id": 4391482781, "lat": 40.6379118, "lon": 17.9472806, "tags": {"addr:city": "Brindisi", "addr:housenumber": "13", "addr:postcode": "72100", "addr:street": "Via Pergola", "amenity": "restaurant", "contact:facebook": "https://www.facebook.com/profile.php?id=100063613658717", "cuisine": "sandwich;piadina", "diet:vegan": "yes", "name": "Piadineria", "opening_hours": "Tu-Fr 19:30-22:00; Sa-Su 19:00-22:00", "outdoor_seating": "yes", "phone": "+39 320 2788321"}}, {"type": "node", "id": 4391482782, "lat": 40.6366456, "lon": 17.9450298, "tags": {"addr:city": "Brindisi", "addr:housenumber": "15", "addr:postcode": "72100", "addr:street": "Corso Umberto I", "amenity": "cafe", "cuisine": "coffee", "name": "Caffe Olympia", "outdoor_seating": "yes", "phone": "+39 0831 562187", "smoking": "outside"}}, {"type": "node", "id": 4409310348, "lat": 40.6346432, "lon": 17.9398748, "tags": {"addr:city": "Brindisi", "addr:housenumber": "140", "addr:postcode": "72100", "addr:street": "Corso Umberto I", "amenity": "cafe", "check_date": "2023-08-24", "cuisine": "coffee_shop", "name": "Bar Chiosco", "operator": "Spinelli Caff\u00e8", "smoking": "outside"}}, {"type": "node", "id": 4423252291, "lat": 40.6476881, "lon": 17.9431276, "tags": {"addr:city": "Brindisi", "addr:housenumber": "51", "addr:postcode": "72100", "addr:street": "Via ammiraglio Cagni", "amenity": "restaurant", "check_date:opening_hours": "2023-11-10", "cuisine": "pizza", "delivery": "no", "name": "L'Angolo Pizzeria", "opening_hours": "We,Fr-Su 19:00-24:00; Th 19:30-24:00; Tu 19:30-23:30", "smoking": "outside", "takeaway": "yes", "wheelchair": "no"}}, {"type": "node", "id": 4423252292, "lat": 40.6469209, "lon": 17.9442166, "tags": {"addr:housenumber": "46", "addr:street": "Via Andrea Bafile", "amenity": "cafe", "check_date": "2022-09-27", "name": "La Nuova Capannina", "opening_hours": "Fr-We 05:30-21:30", "outdoor_seating": "yes", "wheelchair": "limited"}}, {"type": "node", "id": 4423252294, "lat": 40.6458125, "lon": 17.9450211, "tags": {"addr:housenumber": "39", "addr:postcode": "72100", "addr:street": "Via XV Novembre", "air_conditioning": "yes", "amenity": "cafe", "bar": "yes", "check_date": "2023-08-11", "delivery": "no", "drive_through": "no", "highchair": "no", "level": "0", "name": "Dolci Creazioni", "opening_hours": "Tu-Su 06:00-23:00", "operator": "Fabio Ravone", "outdoor_seating": "yes", "payment:mastercard": "yes", "payment:visa": "yes", "phone": "+39 0831 260004", "ref:vatin": "IT02348910742", "reservation": "no", "shop": "pastry", "smoking": "outside", "source": "survey", "takeaway": "yes", "toilets": "yes", "website": "http://www.pasticceriadolcicreazioni.it", "wheelchair": "limited"}}, {"type": "node", "id": 4436751695, "lat": 40.7318336, "lon": 17.5798172, "tags": {"addr:housenumber": "19 - 21", "addr:postcode": "72017", "addr:street": "Corso Vittorio Emanuele II", "amenity": "restaurant", "name": "Tito Schipa"}}, {"type": "node", "id": 4436793992, "lat": 40.6406375, "lon": 17.9417884, "tags": {"addr:housenumber": "1", "addr:postcode": "72100", "addr:street": "Via Paolo Thaon di Revel", "amenity": "restaurant", "cuisine": "italian_pizza;local;grill", "name": "La Nassa", "outdoor_seating": "yes", "phone": "+39 0831 1620305"}}, {"type": "node", "id": 4440485989, "lat": 40.6412843, "lon": 17.5049858, "tags": {"amenity": "restaurant", "cuisine": "pizza", "name": "Ristorante pizzeria da Mimma"}}, {"type": "node", "id": 4487303326, "lat": 40.6589314, "lon": 17.7126581, "tags": {"amenity": "restaurant", "name": "xFood", "outdoor_seating": "yes", "phone": "+39 366 8913041", "website": "http://www.ristorantexfood.com/"}}, {"type": "node", "id": 4487354391, "lat": 40.8415698, "lon": 17.4699837, "tags": {"amenity": "restaurant", "name": "Pizzeria La Rotonda"}}, {"type": "node", "id": 4536076157, "lat": 40.7448363, "lon": 17.4245913}, {"type": "node", "id": 4536076158, "lat": 40.7448832, "lon": 17.4246281}, {"type": "node", "id": 4536076159, "lat": 40.7448551, "lon": 17.4246915}, {"type": "node", "id": 4536076160, "lat": 40.7449221, "lon": 17.4246939}, {"type": "node", "id": 4536076173, "lat": 40.7432719, "lon": 17.425087, "tags": {"amenity": "restaurant", "cuisine": "pizza", "name": "Da Angelo"}}, {"type": "node", "id": 4536077820, "lat": 40.7388154, "lon": 17.4303895, "tags": {"amenity": "restaurant", "name": "Giardini 36"}}, {"type": "node", "id": 4536077838, "lat": 40.7375428, "lon": 17.4268493, "tags": {"amenity": "restaurant", "cuisine": "italian", "name": "Osteria Sant'Anna"}}, {"type": "node", "id": 4536077843, "lat": 40.7418194, "lon": 17.4203498, "tags": {"addr:city": "Cisternino", "addr:postcode": "72014", "amenity": "restaurant", "name": "Il Giardino"}}, {"type": "node", "id": 4538156558, "lat": 40.7424996, "lon": 17.4237586, "tags": {"addr:city": "Cisternino", "addr:postcode": "72014", "addr:street": "Via San Quirico", "amenity": "restaurant", "cuisine": "regional", "name": "S.O.S"}}, {"type": "node", "id": 4538156569, "lat": 40.7458767, "lon": 17.4241766, "tags": {"amenity": "cafe", "name": "Mokadoro"}}, {"type": "node", "id": 4541836904, "lat": 40.7416058, "lon": 17.4262712, "tags": {"addr:city": "Cisternino", "addr:postcode": "72014", "amenity": "restaurant", "cuisine": "steak_house", "name": "Al vecchio fornello"}}, {"type": "node", "id": 4541836905, "lat": 40.7420064, "lon": 17.426625, "tags": {"addr:city": "Cisternino", "addr:postcode": "72014", "amenity": "restaurant", "cuisine": "steak_house", "name": "Demola"}}, {"type": "node", "id": 4541851726, "lat": 40.7424255, "lon": 17.4273591, "tags": {"addr:city": "Cisternino", "addr:housenumber": "142", "addr:postcode": "72014", "addr:street": "Corso Umberto I", "amenity": "restaurant", "cuisine": "pizza", "name": "L'Angoletto", "phone": "0804449121"}}, {"type": "node", "id": 4541872112, "lat": 40.7414884, "lon": 17.4323097, "tags": {"amenity": "restaurant", "cuisine": "pizza", "name": "Happy Point"}}, {"type": "node", "id": 4543236426, "lat": 40.7407118, "lon": 17.4268231, "tags": {"amenity": "cafe", "name": "Bar Mediterraneo"}}, {"type": "node", "id": 4543236427, "lat": 40.7408911, "lon": 17.4260787, "tags": {"amenity": "restaurant", "name": "Fish and Rock"}}, {"type": "node", "id": 4548962123, "lat": 40.7413879, "lon": 17.4256684, "tags": {"amenity": "restaurant", "name": "La Torre"}}, {"type": "node", "id": 4592845346, "lat": 40.6563829, "lon": 17.7060552, "tags": {"addr:city": "San Vito dei Normanni", "addr:postcode": "72019", "addr:street": "Via Don Vincenzo Azzariti", "amenity": "cafe", "name": "Domani smetto"}}, {"type": "node", "id": 4595236932, "lat": 40.5995016, "lon": 17.6434613, "tags": {"amenity": "restaurant", "name": "Ristorante Al Torchietto"}}, {"type": "node", "id": 4595236934, "lat": 40.6066374, "lon": 17.6509502, "tags": {"amenity": "restaurant", "name": "Ristorante Torre San Giacomo"}}, {"type": "node", "id": 4603970589, "lat": 40.734291, "lon": 17.579697, "tags": {"amenity": "restaurant", "name": "La Taverna della Gelosia"}}, {"type": "node", "id": 4637695822, "lat": 40.7320775, "lon": 17.5788763, "tags": {"amenity": "restaurant", "name": "Risto Caff\u00e8 Cavour"}}, {"type": "node", "id": 4675103858, "lat": 40.7324997, "lon": 17.5787611, "tags": {"amenity": "restaurant", "name": "Antica Locanda"}}, {"type": "node", "id": 4675107075, "lat": 40.7324604, "lon": 17.5786046, "tags": {"amenity": "restaurant", "cuisine": "pizza", "name": "Il Gatto Rosso"}}, {"type": "node", "id": 4676992936, "lat": 40.7317567, "lon": 17.5799509, "tags": {"amenity": "cafe", "name": "Dolci Momenti", "operator": "Saicaf"}}, {"type": "node", "id": 4681844871, "lat": 40.7899237, "lon": 17.5859701, "tags": {"amenity": "cafe", "name": "Miramare"}}, {"type": "node", "id": 4683223433, "lat": 40.7894474, "lon": 17.5818109, "tags": {"amenity": "restaurant", "name": "Al Pescatore"}}, {"type": "node", "id": 4691452043, "lat": 40.6562182, "lon": 17.7041762, "tags": {"amenity": "restaurant", "capacity": "30", "cuisine": "regional", "delivery": "yes", "name": "La Chiazza", "outdoor_seating": "yes", "smoking": "outside", "takeaway": "yes"}}, {"type": "node", "id": 4691967001, "lat": 40.6544912, "lon": 17.7016104, "tags": {"amenity": "restaurant", "cuisine": "regional", "name": "Pizzeria la normanna"}}, {"type": "node", "id": 4691967003, "lat": 40.6524852, "lon": 17.7035326, "tags": {"amenity": "restaurant", "name": "L'angolo nascosto di Lo re Maria"}}, {"type": "node", "id": 4691967004, "lat": 40.6584169, "lon": 17.70326, "tags": {"amenity": "restaurant", "name": "L'archetto della brace"}}, {"type": "node", "id": 4691967005, "lat": 40.6583823, "lon": 17.7072162, "tags": {"amenity": "restaurant", "cuisine": "regional", "name": "Stella d'Oro"}}, {"type": "node", "id": 4692315866, "lat": 40.6578746, "lon": 17.7120831, "tags": {"amenity": "cafe", "name": "L'Orchidea", "outdoor_seating": "yes"}}, {"type": "node", "id": 4695631747, "lat": 40.6184516, "lon": 17.9023142, "tags": {"addr:city": "Mesagne", "addr:housename": "Centro Commerciale Le Colonne", "addr:housenumber": "km 711", "addr:postcode": "72100", "addr:street": "Strada Statale 7 Appia", "air_conditioning": "yes", "amenity": "cafe", "check_date": "2023-07-07", "indoor_seating": "yes", "level": "0", "name": "Sandrino", "opening_hours": "Mo-Sa 09:00-21:00; Su 10:00-21:00", "outdoor_seating": "no", "payment:mastercard": "yes", "payment:visa": "yes", "smoking": "no", "wheelchair": "yes"}}, {"type": "node", "id": 4703747846, "lat": 40.6469044, "lon": 17.9439493, "tags": {"amenity": "restaurant", "check_date:opening_hours": "2023-11-10", "cuisine": "brasserie", "name": "La Griglia", "opening_hours": "Tu-Su 20:00-01:00", "outdoor_seating": "yes", "takeaway": "yes"}}, {"type": "node", "id": 4734476959, "lat": 40.7488511, "lon": 17.7212485, "tags": {"amenity": "restaurant", "name": "Torqueda Beach Lido Pantanagianni"}}, {"type": "node", "id": 4773190922, "lat": 40.6582543, "lon": 17.7069249, "tags": {"addr:city": "San Vito dei Normanni", "addr:housenumber": "22", "addr:postcode": "72019", "addr:street": "Via Brindisi", "amenity": "restaurant", "cuisine": "pizza", "delivery": "yes", "name": "Spikio", "opening_hours": "17:00-22:00", "phone:mobile": "+39 346 4353738", "website": "https://www.ristorante.cc/azienda-pizzeria-spikio-di-tari-anna-bianca-san-vito-dei-normanni-25446"}}, {"type": "node", "id": 4785117349, "lat": 40.8400843, "lon": 17.4688937, "tags": {"addr:city": "Fasano", "addr:hamlet": "Torre Canne", "addr:housenumber": "115", "addr:postcode": "72015", "addr:street": "Via Eroi del Mare", "amenity": "restaurant", "cuisine": "italian", "name": "Amare", "phone": "+39 080 4820019"}}, {"type": "node", "id": 4796797373, "lat": 40.7294332, "lon": 17.5771332, "tags": {"addr:housenumber": "11", "addr:street": "Via Ludovico Pepe", "amenity": "restaurant", "contact:phone": "+39 329 6125787", "cuisine": "italian;pizza", "name": "Rosso Pizza", "takeaway": "yes"}}, {"type": "node", "id": 4802406685, "lat": 40.637063, "lon": 17.9388521, "tags": {"addr:housenumber": "81", "addr:street": "Via Cristoforo Colombo", "amenity": "restaurant", "cuisine": "pizza", "name": "Pizzeria Rosticceria Lo Svevo", "takeaway": "yes"}}, {"type": "node", "id": 4814052780, "lat": 40.7321072, "lon": 17.5757144, "tags": {"amenity": "restaurant", "cuisine": "italian", "name": "Da Torino"}}, {"type": "node", "id": 4814053170, "lat": 40.7317208, "lon": 17.5782232, "tags": {"amenity": "restaurant", "cuisine": "italian", "name": "La Grotta degli Avi"}}, {"type": "node", "id": 4814054077, "lat": 40.7288297, "lon": 17.5746057, "tags": {"amenity": "restaurant", "cuisine": "italian;pizza", "name": "Pizza Mania", "takeaway": "yes"}}, {"type": "node", "id": 4823282125, "lat": 40.5348917, "lon": 17.4285184, "tags": {"amenity": "restaurant", "check_date": "2022-11-12", "cuisine": "italian", "name": "La Capasa", "name:it": "La Capasa"}}, {"type": "node", "id": 4851213727, "lat": 40.7277594, "lon": 17.5799542, "tags": {"amenity": "cafe", "name": "Caffe' Pink Lady", "outdoor_seating": "yes"}}, {"type": "node", "id": 4898123321, "lat": 40.733354, "lon": 17.5790163, "tags": {"addr:street": "Via Bixio Continelli", "amenity": "restaurant", "name": "Casa San Giacomo", "name:it": "Casa San Giacomo"}}, {"type": "node", "id": 4954563052, "lat": 40.7962334, "lon": 17.5634384, "tags": {"addr:city": "Ostuni", "addr:postcode": "72017", "addr:street": "Contrada Monticelli Localit\u00e0 Quarto di Monte", "amenity": "restaurant", "name": "White Ostuni Beach Club", "phone:mobile": "+39 393 5313714", "website": "https://www.whiteostuni.it/"}}, {"type": "node", "id": 4959804257, "lat": 40.6929684, "lon": 17.7624017}, {"type": "node", "id": 4970302828, "lat": 40.6462737, "lon": 17.516495, "tags": {"addr:city": "Ceglie Messapica", "addr:housenumber": "10", "addr:postcode": "72013", "addr:street": "Vico I Orto Nannavecchia", "amenity": "restaurant", "contact:phone": "+39 0831 377115", "name": "Osteria Pugliese", "wheelchair": "no"}}, {"type": "node", "id": 4970302829, "lat": 40.7418109, "lon": 17.4266721, "tags": {"amenity": "restaurant", "name": "Rosticceria L'Antico Borgo"}}, {"type": "node", "id": 4970302830, "lat": 40.8728669, "lon": 17.4113755, "tags": {"addr:street": "Via Ticino", "amenity": "restaurant", "name": "La Taverna Di Umberto"}}, {"type": "node", "id": 4970302831, "lat": 40.6468273, "lon": 17.5152608, "tags": {"addr:housenumber": "12", "addr:street": "Via Malta", "amenity": "restaurant", "name": "Osteria da Giuseppe"}}, {"type": "node", "id": 4970302832, "lat": 40.7332829, "lon": 17.5784714, "tags": {"addr:street": "Via Cattedrale", "amenity": "restaurant", "name": "Osteria Piazzetta Cattedrale"}}, {"type": "node", "id": 4970302923, "lat": 40.7320681, "lon": 17.5786468, "tags": {"addr:housenumber": "15", "addr:street": "Piazza della Libert\u00e0", "amenity": "cafe", "name": "Cicinedda fruit bistrot"}}, {"type": "node", "id": 4970302924, "lat": 40.6466931, "lon": 17.5165446, "tags": {"addr:housenumber": "22", "addr:street": "Corso Garibaldi", "amenity": "cafe", "name": "caffe Centrale Pasticceria Gelateria"}}, {"type": "node", "id": 4970302929, "lat": 40.6469525, "lon": 17.5161171, "tags": {"addr:street": "Vico VI Orto Nannavecchia", "amenity": "restaurant", "name": "La cucina della nonna"}}, {"type": "node", "id": 4970329723, "lat": 40.6405162, "lon": 17.507961, "tags": {"amenity": "restaurant", "name": "Da Gino Contrada Montevicoli", "name:it": "Da Gino Contrada Montevicoli"}}, {"type": "node", "id": 4970329724, "lat": 40.7319186, "lon": 17.5783087, "tags": {"addr:street": "Piazza della Libert\u00e0", "amenity": "restaurant", "name": "Garibaldi Ristorante Pizzeria"}}, {"type": "node", "id": 4985330322, "lat": 40.7419579, "lon": 17.4264646, "tags": {"amenity": "restaurant", "cuisine": "fish;sandwich", "name": "Pesc\u00e8"}}, {"type": "node", "id": 4989987327, "lat": 40.733813, "lon": 17.5788467, "tags": {"addr:street": "Via Pietro Vincenti", "amenity": "restaurant", "cuisine": "italian", "name": "Osteria Monacelle", "website": "http://www.osteriamonacelle.com/"}}, {"type": "node", "id": 5060910906, "lat": 40.8535548, "lon": 17.4459554, "tags": {"amenity": "restaurant", "name": "Il principe del mare"}}, {"type": "node", "id": 5072092818, "lat": 40.7565122, "lon": 17.6945216, "tags": {"amenity": "restaurant", "name": "Al Ristoro"}}, {"type": "node", "id": 5092197373, "lat": 40.5096494, "lon": 17.646097, "tags": {"amenity": "restaurant"}}, {"type": "node", "id": 5111639422, "lat": 40.5616357, "lon": 17.8058442, "tags": {"amenity": "cafe", "name": "Golden", "outdoor_seating": "yes"}}, {"type": "node", "id": 5119238497, "lat": 40.6478283, "lon": 17.5188191, "tags": {"amenity": "restaurant"}}, {"type": "node", "id": 5119238498, "lat": 40.6474379, "lon": 17.519208, "tags": {"addr:city": "Ceglie Messapica", "addr:housenumber": "6", "addr:postcode": "72013", "addr:street": "Via Forno Greco", "amenity": "restaurant", "cuisine": "pizza", "name": "Il Borghetto"}}, {"type": "node", "id": 5119238499, "lat": 40.6461459, "lon": 17.5190142, "tags": {"amenity": "restaurant", "entrance": "yes", "name": "Terra di Juso"}}, {"type": "node", "id": 5125882621, "lat": 40.6313285, "lon": 17.6348709, "tags": {"amenity": "cafe", "internet_access": "wlan", "name": "moncaf\u00e9"}}, {"type": "node", "id": 5138621010, "lat": 40.5324651, "lon": 17.4324627, "tags": {"addr:city": "Grottaglie", "addr:housenumber": "37", "addr:postcode": "74023", "addr:street": "Via Santa Sofia", "amenity": "restaurant", "email": "alfredodilbariga@gmail.com", "name": "Alfredo Laboratorio Gastronomico", "phone:mobile": "+39 393 9777956", "website": "http://alfredogastronomie.com"}}, {"type": "node", "id": 5154921081, "lat": 40.6541142, "lon": 17.7072363, "tags": {"amenity": "cafe", "name": "pasticceria  Centrale gelateria"}}, {"type": "node", "id": 5268404521, "lat": 40.8727652, "lon": 17.411866, "tags": {"amenity": "restaurant", "email": "info@pescheria2mari.it", "name": "Pescheria 2 Mari", "phone": "+39 080 4829161", "ref:vatin": "IT00664360740", "website": "https://pescheria2mari.it"}}, {"type": "node", "id": 5268450521, "lat": 40.7415888, "lon": 17.4269787, "tags": {"addr:city": "Cisternino", "addr:housenumber": "29", "addr:postcode": "72014", "addr:street": "Via Duca d'Aosta", "amenity": "restaurant", "name": "Osteria Bell'Italia", "name:de": "Metzgerei Bell\u2019Italia", "name:en": "Casa", "phone": "+39 080 4449036", "website": "http://www.osteriabellitalia.it"}}, {"type": "node", "id": 5269915822, "lat": 40.7330753, "lon": 17.5786711, "tags": {"addr:city": "Ostuni", "addr:housenumber": "15", "addr:postcode": "72017", "addr:street": "Via Pompeo Petrelli", "amenity": "restaurant", "fixme": "Check position, it should be on the \"Via Pompeo Petrelli\" street.", "name": "Kidra Pub", "name:de": "Kidra Pub", "phone:mobile": "+39 392 0496466"}}, {"type": "node", "id": 5309109476, "lat": 40.7582626, "lon": 17.7033388, "tags": {"amenity": "restaurant", "name": "Ristorante Miramare"}}, {"type": "node", "id": 5309109477, "lat": 40.7579355, "lon": 17.7030251, "tags": {"amenity": "restaurant", "name": "La Terrazza"}}, {"type": "node", "id": 5314078941, "lat": 40.7242003, "lon": 17.5927668, "tags": {"amenity": "restaurant", "name": "Work Imperiale"}}, {"type": "node", "id": 5315090225, "lat": 40.7411398, "lon": 17.4271058, "tags": {"addr:city": "Cisternino", "addr:postcode": "72014", "addr:street": "Piazza Pellegrino Rossi", "amenity": "restaurant", "cuisine": "pizza", "name": "Doppio Zero", "phone": "+39 080 4444151"}}, {"type": "node", "id": 5383419057, "lat": 40.7319661, "lon": 17.5791439, "tags": {"amenity": "cafe", "name": "Coffee & more"}}, {"type": "node", "id": 5440539419, "lat": 40.5404388, "lon": 17.4377465, "tags": {"addr:city": "Grottaglie", "addr:housenumber": "38", "addr:postcode": "74023", "addr:street": "Via Vitantonio La Sorte", "amenity": "restaurant", "capacity": "0", "cuisine": "pizza;friggitoria", "delivery": "yes", "name": "Pizzeria \"Anema e Core\" di Rossini Vito", "outdoor_seating": "yes", "takeaway": "only"}}, {"type": "node", "id": 5468178674, "lat": 40.7062475, "lon": 17.658695, "tags": {"amenity": "restaurant", "name": "Pizzeria Le Arcate"}}, {"type": "node", "id": 5468796387, "lat": 40.6377224, "lon": 17.9443468, "tags": {"amenity": "restaurant", "name": "Pizza in Piazza"}}, {"type": "node", "id": 5468796388, "lat": 40.6376131, "lon": 17.9442274, "tags": {"amenity": "restaurant", "name": "Siamo Fritti"}}, {"type": "node", "id": 5468797255, "lat": 40.6372673, "lon": 17.9443338, "tags": {"addr:street": "Piazza Mercato", "amenity": "restaurant", "cuisine": "steak_house", "name": "Escosazio", "outdoor_seating": "yes"}}, {"type": "node", "id": 5468797259, "lat": 40.7342126, "lon": 17.5784769, "tags": {"amenity": "cafe", "cuisine": "ice_cream", "name": "Cremeria Borgo Antico", "operator": "Quarta Caff\u00e9", "outdoor_seating": "yes", "smoking": "outside"}}, {"type": "node", "id": 5468797638, "lat": 40.6377547, "lon": 17.9445529, "tags": {"amenity": "restaurant", "cuisine": "steak_house", "name": "Braceria Semeraro", "outdoor_seating": "yes"}}, {"type": "node", "id": 5506488767, "lat": 40.83648, "lon": 17.4647978, "tags": {"amenity": "restaurant", "cuisine": "pizza", "name": "Marechiaro"}}, {"type": "node", "id": 5506527193, "lat": 40.8300238, "lon": 17.473941, "tags": {"addr:city": "Torre Canne", "addr:housenumber": "32", "addr:postcode": "72016", "addr:street": "Via Appia Antica", "amenity": "restaurant", "cuisine": "italian", "name": "Ristorante T_imo"}}, {"type": "node", "id": 5506542687, "lat": 40.8307332, "lon": 17.4719881, "tags": {"addr:city": "Torre Canne", "addr:housenumber": "17", "addr:street": "Fasano, Via Appia Antica", "amenity": "restaurant", "cuisine": "italian", "name": "Dubonnet"}}, {"type": "node", "id": 5506581026, "lat": 40.8414201, "lon": 17.4688165, "tags": {"addr:housenumber": "192", "addr:postcode": "72016", "addr:street": "Via del Faro", "amenity": "restaurant", "cuisine": "italian", "name": "Bayahibe"}}, {"type": "node", "id": 5506581854, "lat": 40.8431807, "lon": 17.4666808, "tags": {"amenity": "restaurant", "cuisine": "italian", "name": "Ristorante La Rotonda 2"}}, {"type": "node", "id": 5506584797, "lat": 40.8439012, "lon": 17.4642308, "tags": {"amenity": "restaurant", "cuisine": "pizza", "name": "Pizzeria dal Moro"}}, {"type": "node", "id": 5506595991, "lat": 40.842798, "lon": 17.4676846, "tags": {"amenity": "restaurant", "cuisine": "italian;ice_cream;cake", "name": "Il Punto", "outdoor_seating": "yes"}}, {"type": "node", "id": 5506598537, "lat": 40.8426637, "lon": 17.4684237, "tags": {"amenity": "restaurant", "check_date": "2025-05-02", "cuisine": "italian", "name": "Al Buco"}}, {"type": "node", "id": 5564961913, "lat": 40.7902001, "lon": 17.5888315, "tags": {"amenity": "restaurant", "check_date:opening_hours": "2024-06-07", "name:signed": "no", "opening_hours:signed": "no"}}, {"type": "node", "id": 5564961914, "lat": 40.7898895, "lon": 17.5876393, "tags": {"amenity": "restaurant"}}, {"type": "node", "id": 5564961915, "lat": 40.7901056, "lon": 17.5866174, "tags": {"amenity": "restaurant", "name": "#Apulia"}}, {"type": "node", "id": 5564961916, "lat": 40.7899033, "lon": 17.588046, "tags": {"amenity": "restaurant"}}, {"type": "node", "id": 5564968867, "lat": 40.788472, "lon": 17.5941266, "tags": {"amenity": "restaurant"}}, {"type": "node", "id": 5564971454, "lat": 40.7880436, "lon": 17.5966337, "tags": {"amenity": "restaurant", "name": "Il Veliero"}}, {"type": "node", "id": 5564971455, "lat": 40.7882704, "lon": 17.5943363, "tags": {"amenity": "restaurant"}}, {"type": "node", "id": 5564975992, "lat": 40.7852928, "lon": 17.6009075, "tags": {"amenity": "restaurant", "name": "Gli Archi"}}, {"type": "node", "id": 5564980095, "lat": 40.8039665, "lon": 17.5447081, "tags": {"amenity": "restaurant", "name": "Gesti.va Beach"}}, {"type": "node", "id": 5664228621, "lat": 40.7318232, "lon": 17.5792449, "tags": {"amenity": "cafe", "cuisine": "donut;ice_cream;coffee_shop;breakfast;pancake;cake;tea", "internet_access": "wlan", "name": "Ciccio in Piazza"}}, {"type": "node", "id": 5729605182, "lat": 40.8253608, "lon": 17.4488345}, {"type": "node", "id": 5729605183, "lat": 40.8254824, "lon": 17.4489783}, {"type": "node", "id": 5729605184, "lat": 40.8252898, "lon": 17.4492628}, {"type": "node", "id": 5729605185, "lat": 40.8251682, "lon": 17.449119}, {"type": "node", "id": 5760316617, "lat": 40.7212621, "lon": 17.6022495, "tags": {"addr:city": "Ostuni", "addr:street": "Via Bari", "amenity": "cafe", "name": "Artigian Bar"}}, {"type": "node", "id": 5779395528, "lat": 40.7343503, "lon": 17.5796774, "tags": {"addr:city": "Ostuni", "addr:housenumber": "33", "addr:postcode": "72017", "addr:street": "Via Gaetano Tanzarella Vitale", "amenity": "restaurant", "cuisine": "fish", "facebook": "https://www.facebook.com/nudoecrudoFishbar/", "name": "Nudo e Crudo Fishbar", "opening_hours": "Mo-Sa 12:00-00:00; Su 12:00-24:00", "phone:mobile": "+39 380 6863114"}}, {"type": "node", "id": 5799532353, "lat": 40.7319239, "lon": 17.5782075, "tags": {"addr:housenumber": "49", "addr:street": "Piazza della Libert\u00e0", "amenity": "restaurant", "cuisine": "italian;pizza", "name": "Km0"}}, {"type": "node", "id": 5812925993, "lat": 40.7416562, "lon": 17.4262465, "tags": {"addr:city": "Cisternino", "addr:housenumber": "8", "addr:postcode": "72014", "addr:street": "Via Regina Elena", "amenity": "restaurant", "cuisine": "barbecue;regional", "email": "trattoriaberevecchie@gmail.com", "name": "Trattoria B\u00e8re Vecchie", "operator": "Zuma S.r.l.", "phone": "+39 080 4446638", "ref:vatin": "IT02309290746"}}, {"type": "node", "id": 5813316632, "lat": 40.6313554, "lon": 17.6315456, "tags": {"addr:city": "San Michele Salentino", "addr:housenumber": "26", "addr:postcode": "72018", "addr:street": "Via Roma", "entrance": "yes"}}, {"type": "node", "id": 5813316633, "lat": 40.6312674, "lon": 17.6317046}, {"type": "node", "id": 5867115947, "lat": 40.80177, "lon": 17.5459269, "tags": {"amenity": "restaurant", "cuisine": "italian;pizza", "name": "Ristorante Garden Pizzeria", "outdoor_seating": "yes"}}, {"type": "node", "id": 5951250086, "lat": 40.6393085, "lon": 17.9478116, "tags": {"addr:housenumber": "95", "addr:postcode": "72100", "addr:street": "Corso Giuseppe Garibaldi", "amenity": "restaurant", "cuisine": "sandwich", "name": "Levante"}}, {"type": "node", "id": 5951250087, "lat": 40.7410535, "lon": 17.4268035, "tags": {"addr:housenumber": "17", "addr:postcode": "72014", "addr:street": "Via Mezzofanti", "amenity": "restaurant", "cuisine": "pasta;mediterranean;italian", "name": "Mezzofanti", "opening_hours": "Mo-Fr 18:30-24:00; Sa-Su 12:30-24:00", "phone": "+39 080 4448407"}}, {"type": "node", "id": 5998713985, "lat": 40.6391918, "lon": 17.9470514, "tags": {"addr:housenumber": "1", "addr:street": "Salita di Ripalta", "amenity": "restaurant", "name": "Trattoria Pantagruele", "phone": "+39 0831 560605"}}, {"type": "node", "id": 6001025387, "lat": 40.6356906, "lon": 17.9442173, "tags": {"addr:housenumber": "30", "addr:street": "Via Conserva", "amenity": "restaurant", "name": "Rendez-vous", "wheelchair": "limited"}}, {"type": "node", "id": 6001101087, "lat": 40.6397923, "lon": 17.9429482, "tags": {"addr:housenumber": "5", "addr:street": "Piazza Dante", "amenity": "restaurant", "contact:phone": "+39 347 9801956", "name": "Acquapazza", "website": "http://www.acquapazzabrindisi.com/"}}, {"type": "node", "id": 6037070885, "lat": 40.6386015, "lon": 17.9414103, "tags": {"amenity": "restaurant", "name": "Ristorante Cascip\u00f2"}}, {"type": "node", "id": 6037560886, "lat": 40.6371142, "lon": 17.941046, "tags": {"addr:housenumber": "76", "addr:street": "Via Carmine", "amenity": "restaurant", "contact:phone": "+39 338 9077598", "cuisine": "pizza;regional", "name": "Il Boccone", "website": "http://www.ilboccone.it/"}}, {"type": "node", "id": 6042429185, "lat": 40.6373391, "lon": 17.9428901, "tags": {"addr:housenumber": "51", "addr:street": "Via San Lorenzo da Brindisi", "amenity": "restaurant", "check_date": "2023-09-26", "cuisine": "regional", "delivery": "no", "highchair": "no", "level": "0", "microbrewery": "no", "name": "La Brasciola", "outdoor_seating": "no", "payment:credit_cards": "yes", "smoking": "no", "wheelchair": "limited"}}, {"type": "node", "id": 6042652388, "lat": 40.637015, "lon": 17.9464786, "tags": {"addr:housenumber": "3", "addr:street": "Via Santa Lucia", "air_conditioning": "yes", "amenity": "restaurant", "bar": "yes", "brewery": "no", "check_date": "2023-07-21", "cuisine": "pizza;friture", "delivery": "no", "highchair": "yes", "level": "0", "microbrewery": "no", "name": "Romanelli", "operator": "Romanelli s.r.l.", "outdoor_seating": "yes", "payment:mastercard": "yes", "payment:visa": "yes", "phone": "+39 0831 590496", "ref:vatin": "IT02487690741", "reservation": "no", "smoking": "outside", "source": "survey", "start_date": "1949", "takeaway": "no", "toilets": "yes", "wheelchair": "no"}}, {"type": "node", "id": 6042688685, "lat": 40.6371467, "lon": 17.946343, "tags": {"amenity": "restaurant", "cuisine": "regional", "name": "Giubilo", "outdoor_seating": "yes"}}, {"type": "node", "id": 6044550306, "lat": 40.6366493, "lon": 17.9326714, "tags": {"amenity": "restaurant", "name": "Pizzeria Trattoria Nonna Mina"}}, {"type": "node", "id": 6044891246, "lat": 40.6388191, "lon": 17.942657, "tags": {"amenity": "restaurant", "name": "La Terrazza"}}, {"type": "node", "id": 6044891247, "lat": 40.6390261, "lon": 17.9424286, "tags": {"amenity": "restaurant", "cuisine": "pizza", "name": "Cucinelli"}}, {"type": "node", "id": 6044908510, "lat": 40.6388723, "lon": 17.9431433, "tags": {"amenity": "restaurant", "name": "Il Tempio dei sapori", "opening_hours": "Tu-Su 12:00-15:00,19:00-24:00"}}, {"type": "node", "id": 6046996304, "lat": 40.6416426, "lon": 17.9445052, "tags": {"amenity": "restaurant", "check_date": "2023-09-28", "cuisine": "pizza", "level": "0", "name": "Pizzeria Bella Napoli", "wheelchair": "limited"}}, {"type": "node", "id": 6047100985, "lat": 40.6381925, "lon": 17.9487459, "tags": {"amenity": "restaurant", "name": "Al muraglione"}}, {"type": "node", "id": 6047109085, "lat": 40.6382193, "lon": 17.9462811, "tags": {"addr:housenumber": "11", "addr:street": "Via d\u00e8 Terribile", "amenity": "restaurant", "cuisine": "regional", "name": "La Cantina ti l'Artisti", "outdoor_seating": "no", "phone": "+39 329 9180081"}}, {"type": "node", "id": 6047211885, "lat": 40.6399297, "lon": 17.9472925, "tags": {"amenity": "restaurant", "name": "Ristorante Penny"}}, {"type": "node", "id": 6047211986, "lat": 40.6403203, "lon": 17.9467855, "tags": {"addr:housenumber": "16", "addr:street": "Via Guerrieri", "amenity": "restaurant", "check_date": "2023-07-02", "cuisine": "steak_house", "delivery": "no", "level": "0", "name": "Don Angus", "operator": "Andrea Danese", "outdoor_seating": "yes", "payment:mastercard": "yes", "payment:visa": "yes", "phone": "+39 0831 528968", "ref:vatin": "IT02506670740", "reservation": "yes", "smoking": "outside", "source": "survey", "takeaway": "no", "toilets": "yes"}}, {"type": "node", "id": 6047228518, "lat": 40.6396891, "lon": 17.9434893, "tags": {"addr:housenumber": "43", "addr:street": "Via Giovanni Tarantini", "air_conditioning": "yes", "amenity": "restaurant", "check_date": "2024-03-24", "disused": "yes", "wheelchair": "limited"}}, {"type": "node", "id": 6047228519, "lat": 40.6397604, "lon": 17.9432777, "tags": {"amenity": "cafe", "bar": "yes", "check_date": "2023-07-28", "delivery": "no", "drive_through": "no", "level": "0", "name": "Caffetteria Piazza Dante", "outdoor_seating": "yes", "payment:mastercard": "yes", "payment:visa": "yes", "reservation": "no", "smoking": "outside", "source": "survey", "takeaway": "yes", "toilets": "yes", "wheelchair": "no"}}, {"type": "node", "id": 6047229698, "lat": 40.6398528, "lon": 17.9432, "tags": {"addr:housenumber": "8", "addr:street": "Piazza Dante", "air_conditioning": "yes", "amenity": "restaurant", "bar": "yes", "brewery": "yes", "check_date": "2023-07-06", "contact:phone": "+39 320 8918821", "cuisine": "pizza", "delivery": "yes", "internet_access": "wlan", "internet_access:fee": "customers", "internet_access:ssid": "Brunda Pizzeria", "level": "-1", "name": "Pizzeria Brunda", "operator": "Nita Risto S.R.L.S.", "outdoor_seating": "yes", "payment:mastercard": "yes", "payment:visa": "yes", "ref:vatin": "IT02610590743", "reservation": "yes", "smoking": "outside", "source": "survey", "takeaway": "yes", "toilets": "yes", "toilets:wheelchair": "yes", "website": "https://www.brundapizzeria.it", "wheelchair": "no"}}, {"type": "node", "id": 6049611600, "lat": 40.6405362, "lon": 17.94158, "tags": {"addr:city": "Brindisi", "addr:housenumber": "5", "addr:postcode": "72100", "addr:street": "Via Thaon De Revel Paolo", "amenity": "restaurant", "cuisine": "fish", "name": "Diecimiglia Hosteria 2.0", "phone": "+39 344 131 6411", "website": "https://www.facebook.com/diecimigliaHosteria2.0/"}}, {"type": "node", "id": 6049611602, "lat": 40.640506, "lon": 17.9414227, "tags": {"addr:city": "Brindisi", "addr:housenumber": "9", "addr:postcode": "72100", "addr:street": "Via Thaon De Revel Paolo", "amenity": "restaurant", "name": "da Luigi il Capitano", "phone": "+39 0831 198 1589"}}, {"type": "node", "id": 6049689289, "lat": 40.6342647, "lon": 17.9411601, "tags": {"addr:housenumber": "57", "addr:street": "Via Cavour", "amenity": "restaurant", "contact:phone": "+39 366 7114241", "name": "Trattoria La Cucina", "opening_hours": "Mo-Su 12:00-14:30,19:00-23:00"}}, {"type": "node", "id": 6049707886, "lat": 40.6339513, "lon": 17.9431261, "tags": {"amenity": "restaurant", "cuisine": "pizza", "delivery": "yes", "name": "Antico Bar del Corso"}}, {"type": "node", "id": 6050567185, "lat": 40.6405235, "lon": 17.9419167, "tags": {"amenity": "restaurant", "cuisine": "fish", "name": "La Paranza", "seasonal": "summer"}}, {"type": "node", "id": 6051099317, "lat": 40.6364612, "lon": 17.9418554, "tags": {"amenity": "restaurant", "name": "Gusto", "takeaway": "yes"}}, {"type": "node", "id": 6051099318, "lat": 40.6362893, "lon": 17.9419685, "tags": {"amenity": "cafe", "name": "L'angolo del caff\u00e8"}}, {"type": "node", "id": 6052716989, "lat": 40.7074798, "lon": 17.6589423, "tags": {"amenity": "restaurant", "cuisine": "regional", "name": "Trattoria Al caminetto", "phone": "+39 0831 996882"}}, {"type": "node", "id": 6052733887, "lat": 40.7076612, "lon": 17.6592092, "tags": {"addr:housenumber": "111", "addr:postcode": "72012", "addr:street": "Corso Vittorio Emanuele", "amenity": "restaurant", "cuisine": "italian_pizza", "name": "Pizzeria Pucceria La piccola Napoli", "opening_hours": "Tu-Su 18:00-01:30", "outdoor_seating": "yes", "phone": "+39 03895759292"}}, {"type": "node", "id": 6071733465, "lat": 40.6374835, "lon": 17.9295789, "tags": {"addr:housenumber": "157", "addr:street": "Via Provinciale San Vito", "amenity": "restaurant", "cuisine": "pizza", "name": "Pizzeria Little Maira", "outdoor_seating": "no"}}, {"type": "node", "id": 6071736608, "lat": 40.6428228, "lon": 17.9333464, "tags": {"amenity": "restaurant", "cuisine": "seafood", "name": "La lega da Guidone", "opening_hours": "Mo-Su 19:30-01:00"}}, {"type": "node", "id": 6071740687, "lat": 40.6347448, "lon": 17.9389027, "tags": {"air_conditioning": "yes", "amenity": "cafe", "bar": "yes", "capacity": "30", "check_date": "2023-08-05", "cuisine": "breakfast", "delivery": "no", "drive_through": "no", "highchair": "no", "internet_access": "wlan", "internet_access:fee": "customers", "internet_access:ssid": "Bar Buffet Stazione", "level": "0", "name": "Bar tabacchi", "opening_hours": "PH,Mo-Su 06:30-23:00", "outdoor_seating": "yes", "payment:mastercard": "yes", "payment:visa": "yes", "reservation": "no", "shop": "tobacco", "smoking": "outside", "source": "survey", "takeaway": "yes", "toilets": "yes", "wheelchair": "yes"}}, {"type": "node", "id": 6071757147, "lat": 40.637911, "lon": 17.9289988, "tags": {"amenity": "cafe"}}, {"type": "node", "id": 6088437086, "lat": 40.6359648, "lon": 17.9409755, "tags": {"addr:housenumber": "26", "addr:street": "Via Giordano Bruno", "amenity": "restaurant", "cuisine": "sushi", "name": "Iku"}}, {"type": "node", "id": 6089551686, "lat": 40.6408541, "lon": 17.9466749, "tags": {"air_conditioning": "yes", "amenity": "restaurant", "bar": "yes", "brewery": "yes", "check_date": "2023-07-05", "cuisine": "pizza", "name": "Mamm'Anna", "outdoor_seating": "yes", "reservation": "yes", "smoking": "outside", "source": "survey", "toilets": "yes"}}, {"type": "node", "id": 6090394845, "lat": 40.6347801, "lon": 17.9402052, "tags": {"amenity": "cafe"}}, {"type": "node", "id": 6091001616, "lat": 40.6311634, "lon": 17.951109, "tags": {"amenity": "cafe", "name": "Bar Colorado"}}, {"type": "node", "id": 6119732689, "lat": 40.6361696, "lon": 17.9463416, "tags": {"amenity": "restaurant", "cuisine": "pizza", "name": "O sfizzio dda Regina"}}, {"type": "node", "id": 6119732695, "lat": 40.6389972, "lon": 17.943403, "tags": {"amenity": "restaurant", "name": "Braceria La Palma"}}, {"type": "node", "id": 6119743987, "lat": 40.6354357, "lon": 17.9458595, "tags": {"amenity": "restaurant", "cuisine": "pizza", "name": "Dac\u00f2"}}, {"type": "node", "id": 6119743990, "lat": 40.6373243, "lon": 17.9447788, "tags": {"amenity": "restaurant", "cuisine": "pizza", "name": "La Piazzetta", "outdoor_seating": "yes", "takeaway": "yes"}}, {"type": "node", "id": 6122118585, "lat": 40.6361682, "lon": 17.9451879, "tags": {"amenity": "restaurant", "name": "Ristorante Spilusi", "opening_hours": "Mo-Su 12:00-15:00,19:00-23:00; Sa 12:00-15:00,19:00-24:00", "outdoor_seating": "yes", "phone": "+39 339 2023577", "url": "https://spilusi.com/"}}, {"type": "node", "id": 6122332692, "lat": 40.6366821, "lon": 17.9395291, "tags": {"amenity": "restaurant", "cuisine": "sushi", "name": "Hanami", "outdoor_seating": "no"}}, {"type": "node", "id": 6124579192, "lat": 40.6379548, "lon": 17.9384275, "tags": {"amenity": "cafe", "name": "Caff\u00e8 al Castello"}}, {"type": "node", "id": 6127105771, "lat": 40.6290576, "lon": 17.9322919, "tags": {"amenity": "cafe", "name": "Old Dream Caf\u00e8"}}, {"type": "node", "id": 6127136136, "lat": 40.6357972, "lon": 17.9297653, "tags": {"amenity": "cafe", "name": "Sosta caf\u00e8"}}, {"type": "node", "id": 6127136137, "lat": 40.6359306, "lon": 17.9296607, "tags": {"amenity": "restaurant", "cuisine": "pizza", "name": "Pizzeria La Tentazione"}}, {"type": "node", "id": 6127136159, "lat": 40.6313293, "lon": 17.9285952, "tags": {"amenity": "cafe", "name": "Bar Mary"}}, {"type": "node", "id": 6129162386, "lat": 40.6367406, "lon": 17.9387983, "tags": {"addr:housenumber": "10", "addr:street": "Via de' Carpentieri", "amenity": "cafe", "name": "Caff\u00e8 Porta Napoli", "outdoor_seating": "no"}}, {"type": "node", "id": 6135848076, "lat": 40.6245164, "lon": 17.9271226, "tags": {"amenity": "restaurant", "name": "Folie caf\u00e8 et bistrot", "outdoor_seating": "yes"}}, {"type": "node", "id": 6135848079, "lat": 40.6244044, "lon": 17.9274666, "tags": {"amenity": "cafe", "name": "Golden caf\u00e8"}}, {"type": "node", "id": 6148186285, "lat": 40.6353014, "lon": 17.9362306, "tags": {"amenity": "restaurant", "cuisine": "pizza", "name": "Sosta e gusta", "outdoor_seating": "yes"}}, {"type": "node", "id": 6148186288, "lat": 40.6333211, "lon": 17.9326334, "tags": {"addr:housenumber": "19", "addr:street": "Via Schiavone", "amenity": "restaurant", "contact:phone": "+39 0831 526117", "cuisine": "fish", "name": "Cozza nera", "outdoor_seating": "yes", "takeaway": "yes"}}, {"type": "node", "id": 6148186292, "lat": 40.6300149, "lon": 17.9310225, "tags": {"amenity": "cafe", "name": "Megan bar"}}, {"type": "node", "id": 6148186586, "lat": 40.6315971, "lon": 17.9302021, "tags": {"addr:housenumber": "66", "addr:street": "Via Orazio Flacco", "amenity": "restaurant", "cuisine": "pizza", "name": "Pizzeria Il Grillo", "takeaway": "yes"}}, {"type": "node", "id": 6148186590, "lat": 40.631992, "lon": 17.9331127, "tags": {"amenity": "cafe", "name": "Caff\u00e8  Valen"}}, {"type": "node", "id": 6148187185, "lat": 40.6327753, "lon": 17.9313405, "tags": {"amenity": "cafe", "name": "Gran Caff\u00e8"}}, {"type": "node", "id": 6149179289, "lat": 40.6375154, "lon": 17.9292994, "tags": {"amenity": "restaurant", "cuisine": "pizza", "name": "Grano e Uva", "outdoor_seating": "no", "takeaway": "yes"}}, {"type": "node", "id": 6186491680, "lat": 40.6253058, "lon": 17.9313806, "tags": {"amenity": "cafe", "name": "Caf\u00e8 Monik"}}, {"type": "node", "id": 6188577679, "lat": 40.6271109, "lon": 17.9258257, "tags": {"addr:housenumber": "37", "addr:street": "Via Pastrengo", "amenity": "restaurant", "contact:phone": "+39 329 6946896", "name": "Livera's", "outdoor_seating": "yes"}}, {"type": "node", "id": 6190545005, "lat": 40.6343711, "lon": 17.9321894, "tags": {"amenity": "cafe", "name": "Bar Fulvia"}}, {"type": "node", "id": 6190545056, "lat": 40.631195, "lon": 17.9357265, "tags": {"addr:housenumber": "90", "addr:street": "Viale Commenda", "amenity": "restaurant", "name": "Il Pranzo \u00e8 servito", "outdoor_seating": "yes"}}, {"type": "node", "id": 6196319383, "lat": 40.6284621, "lon": 17.9361852, "tags": {"amenity": "restaurant", "cuisine": "pizza;italian;regional", "name": "Pizzeria Il Rifugio", "outdoor_seating": "no"}}, {"type": "node", "id": 6196320398, "lat": 40.6259959, "lon": 17.9247428, "tags": {"amenity": "cafe", "name": "Bar nuovo fiore"}}, {"type": "node", "id": 6196320406, "lat": 40.6248525, "lon": 17.9242498, "tags": {"amenity": "cafe", "name": "Butterfly caffetteria"}}, {"type": "node", "id": 6196560951, "lat": 40.6307023, "lon": 17.9405545, "tags": {"addr:housenumber": "102", "addr:street": "Via Tor Pisana", "amenity": "restaurant", "name": "Trattoria Pizzeria O' Lucianiello", "outdoor_seating": "yes"}}, {"type": "node", "id": 6199235000, "lat": 40.6241199, "lon": 17.9314537, "tags": {"addr:housenumber": "73", "addr:street": "Via Sant'Angelo", "amenity": "cafe", "name": "Caffetteria Denise"}}, {"type": "node", "id": 6199513149, "lat": 40.6299039, "lon": 17.9253088, "tags": {"amenity": "cafe", "name": "Vintage caf\u00e8"}}, {"type": "node", "id": 6199513152, "lat": 40.6267914, "lon": 17.924144, "tags": {"amenity": "cafe"}}, {"type": "node", "id": 6199513178, "lat": 40.620656, "lon": 17.9167083, "tags": {"amenity": "cafe", "name": "Bar Raffaello"}}, {"type": "node", "id": 6199513180, "lat": 40.6206224, "lon": 17.917297, "tags": {"amenity": "restaurant", "cuisine": "pizza", "name": "L'artigiano Panettiere & La Bottega Di Bacco"}}, {"type": "node", "id": 6242549759, "lat": 40.6387068, "lon": 17.8667226, "tags": {"amenity": "restaurant", "contact:phone": "+39 0328 0898063", "name": "La Locanda ti li Spilusi", "opening_hours": "Tu-Su 08:00-12:00", "website": "https://www.lalocandatilispilusi.it/"}}, {"type": "node", "id": 6242613894, "lat": 40.6245907, "lon": 17.9402648, "tags": {"amenity": "cafe"}}, {"type": "node", "id": 6242613900, "lat": 40.6262778, "lon": 17.9421933, "tags": {"amenity": "restaurant", "cuisine": "pizza", "name": "Pizza e Sfizi"}}, {"type": "node", "id": 6256090003, "lat": 40.6559318, "lon": 17.9032597, "tags": {"amenity": "restaurant"}}, {"type": "node", "id": 6286968425, "lat": 40.6363305, "lon": 17.9330674, "tags": {"addr:street": "Piazza Antonino Di Summa", "amenity": "restaurant", "cuisine": "chinese", "name": "Ristorante cinese Il Dragone d'oro"}}, {"type": "node", "id": 6291815785, "lat": 40.6304484, "lon": 17.9401702, "tags": {"amenity": "restaurant", "cuisine": "sushi", "name": "Ristorante Honkaku"}}, {"type": "node", "id": 6296505425, "lat": 40.8733033, "lon": 17.4104361, "tags": {"addr:housenumber": "19", "addr:street": "Piazza del Porto", "amenity": "restaurant", "contact:phone": "+39 080 9950244", "cuisine": "regional;mediterranean;italian;fish", "name": "Osteria del Porto", "operator": "Maria Di Bari", "outdoor_seating": "yes", "stars": "5", "toilets": "yes", "website": "https://osteriasavelletri.it/"}}, {"type": "node", "id": 6327128893, "lat": 40.6353784, "lon": 17.9485387, "tags": {"amenity": "restaurant", "name": "Hamare"}}, {"type": "node", "id": 6333676363, "lat": 40.8716663, "lon": 17.4118602, "tags": {"addr:city": "Fasano", "addr:housenumber": "3/6", "addr:postcode": "72015", "addr:street": "Piazza Roma", "amenity": "restaurant", "cuisine": "fish", "name": "Da Renzina", "phone": "080 4829075"}}, {"type": "node", "id": 6359212760, "lat": 40.6262566, "lon": 17.9340163, "tags": {"amenity": "cafe"}}, {"type": "node", "id": 6396685877, "lat": 40.5349424, "lon": 17.4409063, "tags": {"addr:city": "Grottaglie", "addr:postcode": "74023", "addr:street": "Via Achille Grandi", "amenity": "restaurant", "cuisine": "pizza", "delivery": "yes", "name": "Pizzeria \"Il Top\"", "outdoor_seating": "no", "takeaway": "yes"}}, {"type": "node", "id": 6402395873, "lat": 40.6355043, "lon": 17.9430156, "tags": {"addr:housenumber": "7", "addr:street": "Piazza Cairoli", "amenity": "restaurant", "name": "Ristorante Secca 48"}}, {"type": "node", "id": 6402947679, "lat": 40.6394561, "lon": 17.9452287, "tags": {"amenity": "cafe", "name": "Caffetteria Letteraria Nervegna", "outdoor_seating": "yes", "wheelchair": "yes"}}, {"type": "node", "id": 6404416204, "lat": 40.6361798, "lon": 17.9449076, "tags": {"addr:housenumber": "30", "addr:street": "Corso Roma", "amenity": "restaurant", "cuisine": "sushi", "name": "Sushiro"}}, {"type": "node", "id": 6404875596, "lat": 40.625318, "lon": 17.9273526, "tags": {"amenity": "restaurant", "cuisine": "pizza", "delivery": "yes", "name": "Pizzeria De Matteis", "takeaway": "yes"}}, {"type": "node", "id": 6404875625, "lat": 40.6221696, "lon": 17.9444155, "tags": {"addr:city": "Brindisi", "addr:street": "Via Spagna", "amenity": "restaurant", "cuisine": "sushi;chinese;japanese;asian;thai", "name": "Makoto"}}, {"type": "node", "id": 6409907702, "lat": 40.62672, "lon": 17.927552, "tags": {"addr:housenumber": "81", "addr:street": "Via San Giovanni Bosco", "amenity": "cafe", "name": "Vision Bar"}}, {"type": "node", "id": 6431447093, "lat": 40.635065, "lon": 17.9449772, "tags": {"addr:housenumber": "2a", "addr:street": "Via Lata", "amenity": "restaurant", "name": "L'Antipastoristo"}}, {"type": "node", "id": 6432706794, "lat": 40.6387829, "lon": 17.9475757, "tags": {"addr:housenumber": "90", "addr:street": "Corso Giuseppe Garibaldi", "amenity": "restaurant", "cuisine": "pizza", "name": "Antica focaccia Boscaini"}}, {"type": "node", "id": 6440264109, "lat": 40.6400583, "lon": 17.9434399, "tags": {"addr:housenumber": "10", "addr:street": "Via Annibale De Leo", "amenity": "cafe", "check_date": "2023-09-28", "level": "0", "name": "Art Caf\u00e8", "wheelchair": "no"}}, {"type": "node", "id": 6448029032, "lat": 40.5445017, "lon": 17.9468316, "tags": {"amenity": "cafe", "name": "Domus"}}, {"type": "node", "id": 6470614503, "lat": 40.640858, "lon": 17.9472686, "tags": {"amenity": "restaurant", "name": "Ristorante Skipper"}}, {"type": "node", "id": 6473772511, "lat": 40.637264, "lon": 17.944712, "tags": {"addr:housenumber": "6", "addr:street": "Piazza Mercato", "amenity": "restaurant", "cuisine": "fish", "name": "FAO 37", "outdoor_seating": "yes", "phone": "+39 347 7297260", "takeaway": "yes"}}, {"type": "node", "id": 6502040037, "lat": 40.6352058, "lon": 17.943744, "tags": {"addr:housenumber": "6", "addr:street": "Vico De' Palmieri", "amenity": "restaurant", "cuisine": "sushi", "name": "Bento"}}, {"type": "node", "id": 6507258253, "lat": 40.6371949, "lon": 17.9455776, "tags": {"addr:housenumber": "6", "addr:street": "Piazza della Vittoria", "air_conditioning": "yes", "amenity": "restaurant", "changing_table": "no", "check_date": "2023-07-03", "cuisine": "chinese;japanese", "delivery": "no", "name": "Mova", "opening_hours": "Mo-Su 12:30-15:00, 20:00-00:00", "outdoor_seating": "no", "payment:credit_cards": "yes", "payment:debit_cards": "yes", "payment:mastercard": "yes", "payment:visa": "yes", "reservation": "yes", "smoking": "no", "source": "survey", "start_date": "2020-07-16", "takeaway": "no", "toilets": "yes", "wheelchair": "yes"}}, {"type": "node", "id": 6514144012, "lat": 40.6364089, "lon": 17.9451262, "tags": {"addr:housenumber": "14", "addr:street": "Corso Roma", "amenity": "restaurant", "cuisine": "pizza", "name": "I Tre Moschettieri Pizzeria Selfservice"}}, {"type": "node", "id": 6525193788, "lat": 40.6242681, "lon": 17.9264175, "tags": {"addr:housenumber": "37", "addr:street": "Via Bezzecca", "amenity": "restaurant", "cuisine": "pizza", "name": "Grano & Uva Bakery coffee lab", "website": "https://granoeuvabrindisi.com"}}, {"type": "node", "id": 6539747207, "lat": 40.7337649, "lon": 17.5797566, "tags": {"addr:city": "Ostuni", "addr:housenumber": "34", "addr:postcode": "72017", "addr:street": "Via Gaetano Tanzarella Vitale", "amenity": "restaurant", "cuisine": "regional", "name": "Il Posto Affianco"}}, {"type": "node", "id": 6542893957, "lat": 40.5549162, "lon": 17.8114028, "tags": {"amenity": "restaurant", "cuisine": "pizza", "name": "Pizzeria Al solito posto"}}, {"type": "node", "id": 6549910213, "lat": 40.7713589, "lon": 17.4255796, "tags": {"amenity": "restaurant", "changing_table": "yes", "cuisine": "italian;mediterranean;seafood;pizza;regional", "name": "Il Capriccio", "operator": "Piero", "outdoor_seating": "yes", "smoking": "outside", "takeaway": "yes", "toilets": "yes", "toilets:access": "customers", "wheelchair": "limited"}}, {"type": "node", "id": 6555794285, "lat": 40.6385636, "lon": 17.9471131, "tags": {"amenity": "restaurant", "cuisine": "kebab", "name": "Il Sultano"}}, {"type": "node", "id": 6565842295, "lat": 40.6788273, "lon": 17.9369121, "tags": {"addr:housenumber": "22", "addr:street": "Via di Punta Penne", "amenity": "restaurant", "name": "La nuova Casareccia"}}, {"type": "node", "id": 6594976940, "lat": 40.75709, "lon": 17.7016144, "tags": {"amenity": "restaurant", "cuisine": "mediterranean;fish;fish_and_chips;friture;seafood", "name": "Mr. Fish - buttati a pesce", "outdoor_seating": "yes", "smoking": "outside"}}, {"type": "node", "id": 6597537359, "lat": 40.7586477, "lon": 17.7013243, "tags": {"amenity": "restaurant", "contact:website": "sapuritosantasabina.it", "cuisine": "regional;italian;seafood;friture;fish_and_chips;fish;mediterranean;american;burger;crepe;chicken;sandwich;steak_house", "name": "Sapurito", "outdoor_seating": "yes", "smoking": "outside"}}, {"type": "node", "id": 6600325982, "lat": 40.7573675, "lon": 17.6935956, "tags": {"amenity": "restaurant", "cuisine": "italian;mediterranean;fish;pizza;regional", "name": "Taverna a mare", "outdoor_seating": "yes"}}, {"type": "node", "id": 6680579386, "lat": 40.7287202, "lon": 17.5747985, "tags": {"amenity": "restaurant", "name": "Locanta du Macelliao", "name:en": "Locanta del Macelliao", "name:it": "Locanta du Macelliao"}}, {"type": "node", "id": 6835773817, "lat": 40.6370914, "lon": 17.9464735, "tags": {"Fixme": "Ha chiuso, locale in vendita", "amenity": "restaurant", "name": "Agonera"}}, {"type": "node", "id": 6840422102, "lat": 40.6410936, "lon": 17.9465824, "tags": {"amenity": "restaurant", "name": "Ristorante Piazzetta Colonne"}}, {"type": "node", "id": 6871759015, "lat": 40.6371369, "lon": 17.9411094, "tags": {"addr:housenumber": "68", "addr:street": "Via Carmine", "amenity": "cafe", "name": "Blanc Caf\u00e8"}}, {"type": "node", "id": 6884894479, "lat": 40.5376519, "lon": 17.4377018, "tags": {"addr:city": "Grottaglie", "addr:housenumber": "9", "addr:postcode": "74023", "addr:street": "Via Madonna di Pompei", "addr:unit": "G", "amenity": "restaurant", "cuisine": "japanese", "name": "Miami Sushi"}}, {"type": "node", "id": 6888391740, "lat": 40.5361161, "lon": 17.4386878, "tags": {"addr:city": "Grottaglie", "addr:postcode": "74023", "addr:street": "Viale Giuseppe Di Vittorio", "amenity": "cafe", "name": "Prince - Caf\u00e8 & Bistrot", "outdoor_seating": "yes"}}, {"type": "node", "id": 6906143733, "lat": 40.5403784, "lon": 17.43598, "tags": {"addr:city": "Grottaglie", "addr:housenumber": "27", "addr:postcode": "74023", "addr:street": "Via Lombardia", "addr:unit": "A", "amenity": "restaurant", "cuisine": "pizza", "name": "Nuova Anema & Core di Rossini Vito"}}, {"type": "node", "id": 6927326954, "lat": 40.5338314, "lon": 17.4280553, "tags": {"amenity": "restaurant", "name": "Macchiaviva Bistrot"}}, {"type": "node", "id": 6966742650, "lat": 40.5433142, "lon": 17.435449, "tags": {"amenity": "restaurant", "cuisine": "pizza;italian", "name": "Ristorante Pizzeria Aglio, Olio e Peperoncino"}}, {"type": "node", "id": 7042332716, "lat": 40.5039147, "lon": 17.6485813, "tags": {"amenity": "restaurant", "cuisine": "pizza"}}, {"type": "node", "id": 7058161702, "lat": 40.6586316, "lon": 17.9270074}, {"type": "node", "id": 7058161703, "lat": 40.6585334, "lon": 17.9271133}, {"type": "node", "id": 7058161704, "lat": 40.6584788, "lon": 17.9270254}, {"type": "node", "id": 7058161705, "lat": 40.658577, "lon": 17.9269195}, {"type": "node", "id": 7110069866, "lat": 40.5600884, "lon": 17.8083654, "tags": {"amenity": "restaurant", "name": "L\"Osteria del Vicoletto"}}, {"type": "node", "id": 7110135524, "lat": 40.5598942, "lon": 17.8088926, "tags": {"air_conditioning": "yes", "amenity": "cafe", "check_date": "2024-11-17", "name": "Caff\u00e8 dell'Orologio", "outdoor_seating": "yes"}}, {"type": "node", "id": 7110526866, "lat": 40.6378159, "lon": 17.9448723, "tags": {"amenity": "restaurant", "cuisine": "fish;regional", "name": "Molo 33"}}, {"type": "node", "id": 7115415977, "lat": 40.8724243, "lon": 17.4117434, "tags": {"amenity": "restaurant", "name": "Ristorante Maddalena"}}, {"type": "node", "id": 7115415978, "lat": 40.8730877, "lon": 17.4111167, "tags": {"amenity": "restaurant", "name": "Ristorante al Polpo Re"}}, {"type": "node", "id": 7115415979, "lat": 40.8734127, "lon": 17.4107988, "tags": {"amenity": "restaurant", "name": "Ristorante Luna Rossa"}}, {"type": "node", "id": 7115415980, "lat": 40.8733997, "lon": 17.4105877, "tags": {"amenity": "restaurant", "name": "Sapore di Sale"}}, {"type": "node", "id": 7143022888, "lat": 40.5524452, "lon": 17.9756626, "tags": {"amenity": "cafe", "indoor_seating": "yes", "name": "MyCaf\u00e8", "outdoor_seating": "yes"}}, {"type": "node", "id": 7143223347, "lat": 40.6243815, "lon": 17.896477, "tags": {"amenity": "restaurant", "name": "Antica Masseria Cillarese"}}, {"type": "node", "id": 7143273318, "lat": 40.5985679, "lon": 17.9053035, "tags": {"amenity": "restaurant", "name": "Agriturismo Nonna Mina"}}, {"type": "node", "id": 7152286007, "lat": 40.6369094, "lon": 17.9444727, "tags": {"amenity": "cafe", "name": "Caff\u00e8 Principe", "outdoor_seating": "no"}}, {"type": "node", "id": 7182319520, "lat": 40.633961, "lon": 17.9467337, "tags": {"addr:housenumber": "90", "addr:street": "Via Taranto", "amenity": "restaurant", "cuisine": "pizza", "name": "Pizzeria Il Capriccio", "outdoor_seating": "no"}}, {"type": "node", "id": 7197692579, "lat": 40.5460782, "lon": 17.9471607, "tags": {"addr:housenumber": "80", "addr:street": "Via Vittorio Emanuele", "amenity": "cafe", "name": "Tutorius caf\u00e8"}}, {"type": "node", "id": 7235318535, "lat": 40.642817, "lon": 17.9335946, "tags": {"amenity": "cafe", "name": "Vistamare", "opening_hours": "Mo-Sa 06:45-24:00; Su 07:00-24:00", "outdoor_seating": "yes", "smoking": "outside"}}, {"type": "node", "id": 7237533220, "lat": 40.5525174, "lon": 17.7143422, "tags": {"amenity": "restaurant", "cuisine": "pizza", "name": "Luppolo e farina", "opening_hours": "Mo-Su 19:00-00:00", "phone": "+39  392 4955782", "takeaway": "yes", "website": "https://luppoloefarinapizzeria.it/"}}, {"type": "node", "id": 7237549605, "lat": 40.5532064, "lon": 17.7147403, "tags": {"amenity": "restaurant", "name": "La Taverna di Pascalone", "outdoor_seating": "yes"}}, {"type": "node", "id": 7289670156, "lat": 40.6204732, "lon": 17.9273214, "tags": {"amenity": "cafe", "indoor_seating": "yes", "name": "Caffetteria La Coccinella", "outdoor_seating": "yes"}}, {"type": "node", "id": 7323301399, "lat": 40.6174432, "lon": 17.9554307, "tags": {"amenity": "cafe"}}, {"type": "node", "id": 7537373216, "lat": 40.5375096, "lon": 17.4352561, "tags": {"addr:city": "Grottaglie", "addr:housenumber": "63", "addr:postcode": "74023", "addr:street": "Viale Giacomo Matteotti", "amenity": "restaurant", "cuisine": "pizza", "name": "Antica Pizzeria del Corso di Maurizio Biondi", "outdoor_seating": "yes", "phone": "393 527 2131", "takeaway": "yes"}}, {"type": "node", "id": 7600877722, "lat": 40.7887966, "lon": 17.5849042}, {"type": "node", "id": 7600877723, "lat": 40.7888226, "lon": 17.5847926}, {"type": "node", "id": 7817347387, "lat": 40.7323311, "lon": 17.5783251, "tags": {"amenity": "restaurant", "cuisine": "pizza", "name": "Codice a Barre"}}, {"type": "node", "id": 7817348085, "lat": 40.7321754, "lon": 17.5787821, "tags": {"addr:city": "Ostuni", "addr:country": "IT", "addr:housenumber": "15", "addr:postcode": "72017", "addr:province": "Brindisi", "addr:state": "Italia", "addr:street": "Via Vito Tamborrino", "amenity": "restaurant", "contact:facebook": "https://m.facebook.com/PastasciuttaOstuniviaTamborrini15", "cuisine": "regional", "name": "La Pastasciutta", "phone": "+39 327 695 9647"}}, {"type": "node", "id": 7817348488, "lat": 40.7334161, "lon": 17.5774948, "tags": {"amenity": "restaurant", "cuisine": "italian", "name": "San Pietro"}}, {"type": "node", "id": 7817387585, "lat": 40.7332012, "lon": 17.5785862, "tags": {"amenity": "restaurant", "cuisine": "italian", "name": "Ristorante La Reggia"}}, {"type": "node", "id": 7817526885, "lat": 40.752106, "lon": 17.5809486, "tags": {"amenity": "cafe", "name": "Bar La Stazione", "outdoor_seating": "no"}}, {"type": "node", "id": 7857344985, "lat": 40.7578467, "lon": 17.7026851, "tags": {"amenity": "restaurant", "name": "La Piccola Torre"}}, {"type": "node", "id": 7857345185, "lat": 40.7582834, "lon": 17.7030212, "tags": {"amenity": "restaurant", "name": "Ristorante Pizzeria da Turicchio"}}, {"type": "node", "id": 7882155548, "lat": 40.7416813, "lon": 17.4261631, "tags": {"addr:city": "Cisternino", "addr:country": "IT", "addr:housenumber": "18", "addr:postcode": "72014", "addr:street": "Via Regina Elena", "amenity": "restaurant", "cuisine": "italian", "name": "La Vecchia Trattoria del Centro Storico"}}, {"type": "node", "id": 7900330085, "lat": 40.6474177, "lon": 17.5176643, "tags": {"addr:housenumber": "54", "addr:street": "Via Vitale", "amenity": "restaurant", "name": "AQUA Pizzeria"}}, {"type": "node", "id": 7917891485, "lat": 40.6449795, "lon": 17.520508, "tags": {"addr:housenumber": "95", "addr:street": "Via Roma", "amenity": "restaurant", "name": "Pizzeria Rita", "name:it": "Pizzeria da Rita"}}, {"type": "node", "id": 7920827786, "lat": 40.6360919, "lon": 17.9441621, "tags": {"amenity": "restaurant", "cuisine": "italian;pizza", "name": "C'era una volta..."}}, {"type": "node", "id": 8198367913, "lat": 40.6355289, "lon": 17.9289614, "tags": {"amenity": "cafe", "name": "Bar Lux"}}, {"type": "node", "id": 8365480891, "lat": 40.5519199, "lon": 17.811107, "tags": {"amenity": "restaurant", "name": "Ristorante L'Osteria degli Artisti"}}, {"type": "node", "id": 8369079361, "lat": 40.6020809, "lon": 17.9184893, "tags": {"amenity": "restaurant", "name": "Locanda San Lorenzo"}}, {"type": "node", "id": 8494722958, "lat": 40.7444527, "lon": 17.7140272, "tags": {"amenity": "restaurant", "name": "Ristorante pizzeria Pineta 2000"}}, {"type": "node", "id": 8494722959, "lat": 40.7494049, "lon": 17.7196283, "tags": {"amenity": "restaurant", "name": "Pizzeria ristorante Taverna nuova"}}, {"type": "node", "id": 8567189311, "lat": 40.515162, "lon": 17.454385, "tags": {"addr:city": "Grottaglie", "addr:housenumber": "16", "addr:postcode": "74023", "addr:street": "Via delle Camelie", "amenity": "restaurant", "cuisine": "pizza;regional;coffee_shop;italian;sandwich", "name": "Villa Maria - Ristoro e piscina", "phone": "3883212881"}}, {"type": "node", "id": 8756024381, "lat": 40.5619297, "lon": 17.8051639, "tags": {"amenity": "restaurant", "cuisine": "pizza", "delivery": "yes", "name": "Pizzeria Giusi", "outdoor_seating": "yes"}}, {"type": "node", "id": 8842251799, "lat": 40.5602441, "lon": 17.8081517, "tags": {"amenity": "restaurant", "cuisine": "barbecue;pizza", "name": "Braceria Barbanera", "outdoor_seating": "yes"}}, {"type": "node", "id": 8842309517, "lat": 40.5587585, "lon": 17.8099269, "tags": {"amenity": "restaurant", "name": "Ristowine Sofuso"}}, {"type": "node", "id": 8842309524, "lat": 40.5590991, "lon": 17.8094065, "tags": {"amenity": "restaurant", "cuisine": "burger;sushi", "name": "Il Mangiameduse", "outdoor_seating": "yes"}}, {"type": "node", "id": 8850720608, "lat": 40.5597016, "lon": 17.8075167, "tags": {"amenity": "restaurant", "name": "Golosoasi", "outdoor_seating": "yes"}}, {"type": "node", "id": 8888310323, "lat": 40.7414044, "lon": 17.4271205, "tags": {"addr:city": "Cisternino", "addr:housenumber": "27", "addr:postcode": "72014", "addr:street": "Piazza Pellegrino Rossi", "air_conditioning": "yes", "amenity": "restaurant", "cuisine": "italian", "name": "Osteria Piatti Chiari", "opening_hours": "24/7", "phone": "3792202122", "website": "https://20m2official.it/osteriapiattichiari/", "wheelchair": "yes"}}, {"type": "node", "id": 8909715141, "lat": 40.558567, "lon": 17.8090069, "tags": {"amenity": "restaurant", "name": "XO Caf\u00e8"}}, {"type": "node", "id": 9001200119, "lat": 40.7915926, "lon": 17.4600058, "tags": {"amenity": "restaurant", "name": "Il Cortiletto"}}, {"type": "node", "id": 9026684026, "lat": 40.641648, "lon": 17.9457258, "tags": {"amenity": "restaurant", "cuisine": "fish", "name": "Pescheria del Porto", "outdoor_seating": "yes"}}, {"type": "node", "id": 9044288717, "lat": 40.5440981, "lon": 17.8025562, "tags": {"amenity": "cafe"}}, {"type": "node", "id": 9045062404, "lat": 40.5589918, "lon": 17.8012855, "tags": {"amenity": "cafe"}}, {"type": "node", "id": 9045174472, "lat": 40.559165, "lon": 17.8183812, "tags": {"amenity": "restaurant", "cuisine": "pizza", "name": "Pizzeria La Tegola"}}, {"type": "node", "id": 9045602234, "lat": 40.6563015, "lon": 17.7058139, "tags": {"amenity": "restaurant", "cuisine": "meat", "name": "Braceria del Corso"}}, {"type": "node", "id": 9103671844, "lat": 40.6473182, "lon": 17.5154639, "tags": {"amenity": "restaurant", "cuisine": "regional", "name": "L'Osteria del divin gustare", "outdoor_seating": "yes"}}, {"type": "node", "id": 9118633925, "lat": 40.6381058, "lon": 17.9458299, "tags": {"amenity": "restaurant", "name": "Fermento"}}, {"type": "node", "id": 9127071803, "lat": 40.5544546, "lon": 17.8074887, "tags": {"amenity": "cafe"}}, {"type": "node", "id": 9127071808, "lat": 40.5557588, "lon": 17.8081915, "tags": {"amenity": "restaurant", "cuisine": "pizza", "name": "Pizzeria Napoli"}}, {"type": "node", "id": 9127187319, "lat": 40.5600079, "lon": 17.8083571, "tags": {"amenity": "restaurant", "cuisine": "pizza", "name": "Pizzeria Tipo 1"}}, {"type": "node", "id": 9127187341, "lat": 40.5570335, "lon": 17.8108764, "tags": {"amenity": "restaurant", "cuisine": "pizza", "name": "Pizzeria Da Mino"}}, {"type": "node", "id": 9128663545, "lat": 40.5587675, "lon": 17.8074372, "tags": {"amenity": "restaurant", "cuisine": "regional;pizza", "name": "Ristorante pizzeria L'incontro", "outdoor_seating": "yes", "phone": "+39 0831 778721"}}, {"type": "node", "id": 9132713956, "lat": 40.6332915, "lon": 17.9354995, "tags": {"amenity": "cafe", "name": "Caffetteria Glamour"}}, {"type": "node", "id": 9132793058, "lat": 40.6269102, "lon": 17.9325843, "tags": {"amenity": "cafe", "name": "Bar Pasticceria Zuccaro"}}, {"type": "node", "id": 9141471203, "lat": 40.5594419, "lon": 17.8098665, "tags": {"amenity": "restaurant", "check_date": "2024-11-17", "name": "D'Al\u00e8", "outdoor_seating": "yes"}}, {"type": "node", "id": 9141471210, "lat": 40.5596836, "lon": 17.8086796, "tags": {"amenity": "restaurant", "name": "Osteria del Leone", "outdoor_seating": "yes"}}, {"type": "node", "id": 9142787941, "lat": 40.5129967, "lon": 17.9892741, "tags": {"amenity": "restaurant", "name": "Ristorante pizzeria Sunnari"}}, {"type": "node", "id": 9166331919, "lat": 40.6394593, "lon": 17.9419413, "tags": {"amenity": "restaurant", "cuisine": "steak", "name": "smoke", "outdoor_seating": "yes"}}, {"type": "node", "id": 9166342217, "lat": 40.638842, "lon": 17.9435215, "tags": {"amenity": "restaurant", "cuisine": "pizza", "name": "Spaccanapoli"}}, {"type": "node", "id": 9166342317, "lat": 40.6385844, "lon": 17.9438306, "tags": {"amenity": "restaurant", "name": "Osteria gourmet Entropia 5.0", "outdoor_seating": "yes"}}, {"type": "node", "id": 9178482274, "lat": 40.5453122, "lon": 17.6871114, "tags": {"amenity": "cafe"}}, {"type": "node", "id": 9178482275, "lat": 40.5633797, "lon": 17.7390711, "tags": {"amenity": "restaurant", "name": "Trattoria del Negroamaro"}}, {"type": "node", "id": 9178786133, "lat": 40.5017261, "lon": 17.6453209, "tags": {"amenity": "restaurant", "name": "Ristorante Il Saraceno"}}, {"type": "node", "id": 9181249722, "lat": 40.5313356, "lon": 17.5672077, "tags": {"amenity": "cafe"}}, {"type": "node", "id": 9183625894, "lat": 40.5240278, "lon": 17.5916111, "tags": {"amenity": "cafe"}}, {"type": "node", "id": 9183689126, "lat": 40.5028766, "lon": 17.6341362, "tags": {"amenity": "cafe"}}, {"type": "node", "id": 9183909423, "lat": 40.5585028, "lon": 17.7791485, "tags": {"amenity": "restaurant", "name": "Il Covo dei sapori"}}, {"type": "node", "id": 9233582153, "lat": 40.7357039, "lon": 17.7243832, "tags": {"amenity": "restaurant", "name": "Trattoria Trampoline"}}, {"type": "node", "id": 9249098994, "lat": 40.630413, "lon": 17.6339662, "tags": {"amenity": "restaurant", "name": "Osteria tranquilla", "phone": "+39 328 0530717"}}, {"type": "node", "id": 9251059281, "lat": 40.5563518, "lon": 17.8104606, "tags": {"amenity": "restaurant", "cuisine": "pizza", "name": "Pizzeria Terre neure"}}, {"type": "node", "id": 9251197150, "lat": 40.7058109, "lon": 17.6504494, "tags": {"amenity": "restaurant", "name": "Pizza Express"}}, {"type": "node", "id": 9251197158, "lat": 40.7134323, "lon": 17.6566936, "tags": {"amenity": "restaurant", "name": "Ristorante rosticceria Doppio malto"}}, {"type": "node", "id": 9251197159, "lat": 40.7103816, "lon": 17.6572783, "tags": {"amenity": "cafe"}}, {"type": "node", "id": 9251197186, "lat": 40.7212744, "lon": 17.6672287, "tags": {"amenity": "restaurant", "name": "Ristorante pizzeria La vigna marina", "url": "https://www.vignamarina.it/"}}, {"type": "node", "id": 9251382135, "lat": 40.7259523, "lon": 17.5838207, "tags": {"amenity": "cafe", "name": "Bar Il Seven"}}, {"type": "node", "id": 9251382169, "lat": 40.7095623, "lon": 17.6286551, "tags": {"amenity": "restaurant", "name": "Masseria Nzeta"}}, {"type": "node", "id": 9257876176, "lat": 40.732968, "lon": 17.5769928, "tags": {"amenity": "restaurant", "name": "Badia"}}, {"type": "node", "id": 9257876185, "lat": 40.7312628, "lon": 17.5717997, "tags": {"amenity": "cafe", "name": "Bar Frank"}}, {"type": "node", "id": 9258347172, "lat": 40.6320112, "lon": 17.632087, "tags": {"amenity": "restaurant", "cuisine": "pizza", "name": "Pizzeria da Rocca"}}, {"type": "node", "id": 9269792885, "lat": 40.6233611, "lon": 17.6347679, "tags": {"amenity": "restaurant", "name": "Nouvelle cuisine"}}, {"type": "node", "id": 9283853121, "lat": 40.5524345, "lon": 17.7181556, "tags": {"amenity": "restaurant", "name": "Ristorante Bracer\u00ec"}}, {"type": "node", "id": 9283853122, "lat": 40.5524197, "lon": 17.7184883, "tags": {"amenity": "restaurant", "name": "Ristorante Desiderato"}}, {"type": "node", "id": 9289017478, "lat": 40.7099404, "lon": 17.6639453, "tags": {"amenity": "restaurant", "cuisine": "pizza", "name": "Pizzeria da Mario Il Diavoletto", "outdoor_seating": "yes"}}, {"type": "node", "id": 9289017498, "lat": 40.7069755, "lon": 17.6598144, "tags": {"amenity": "restaurant", "name": "Braceria mamma Lena"}}, {"type": "node", "id": 9289614460, "lat": 40.7039596, "lon": 17.6560807, "tags": {"amenity": "cafe"}}, {"type": "node", "id": 9289614461, "lat": 40.7044954, "lon": 17.6543856, "tags": {"amenity": "cafe", "name": "Trampolines"}}, {"type": "node", "id": 9289614462, "lat": 40.7044811, "lon": 17.6541911, "tags": {"amenity": "cafe", "brand": "Eni", "brand:wikidata": "Q565594", "name": "Eni Caf\u00e8&Shop"}}, {"type": "node", "id": 9289614466, "lat": 40.7073344, "lon": 17.653652, "tags": {"amenity": "restaurant", "fixme": "verificare nome completo", "name": "Braceria"}}, {"type": "node", "id": 9294539439, "lat": 40.6459421, "lon": 17.6091743, "tags": {"amenity": "restaurant"}}, {"type": "node", "id": 9294539453, "lat": 40.6451881, "lon": 17.5224685, "tags": {"amenity": "restaurant"}}, {"type": "node", "id": 9294539460, "lat": 40.6475676, "lon": 17.5132082, "tags": {"amenity": "restaurant", "cuisine": "pizza", "takeaway": "yes"}}, {"type": "node", "id": 9310794903, "lat": 40.6568082, "lon": 17.7136484, "tags": {"addr:street": "Via Citt\u00e0 di Fiume", "amenity": "restaurant", "delivery": "yes", "name": "Pizzeria rosticceria Baccaro", "takeaway": "yes"}}, {"type": "node", "id": 9312694963, "lat": 40.5266323, "lon": 17.5887211, "tags": {"addr:city": "Francavilla Fontana", "addr:housenumber": "89", "addr:postcode": "72021", "addr:street": "Via Capitano Giovanni Di Castri", "amenity": "restaurant", "cuisine": "sushi", "name": "Moku Sushi", "opening_hours": "Mo 18:00-23:45; Tu-Su 18:00-23:45,11:00-15:00", "phone": "+39 345 2303882", "website": "https://www.moku-sushi.com/", "website:menu": "https://irp.cdn-website.com/19356f5f/files/uploaded/menu_moku_sushi%282%29.pdf"}}, {"type": "node", "id": 9383693384, "lat": 40.641723, "lon": 17.945576, "tags": {"amenity": "restaurant", "name": "Empire"}}, {"type": "node", "id": 9547872391, "lat": 40.6327313, "lon": 17.9552557, "tags": {"amenity": "cafe", "name": "Bar Alex"}}, {"type": "node", "id": 9550246398, "lat": 40.5292735, "lon": 17.6085788, "tags": {"amenity": "cafe", "name": "Phoenix caf\u00e8"}}, {"type": "node", "id": 9552142703, "lat": 40.7449509, "lon": 17.4248874, "tags": {"addr:city": "Cisternino", "addr:postcode": "72014", "amenity": "restaurant", "cuisine": "italian", "name": "Rosa Dei Venti"}}, {"type": "node", "id": 9609661282, "lat": 40.5593321, "lon": 17.8088614, "tags": {"amenity": "restaurant", "name": "Benvenuti al Sud", "outdoor_seating": "yes"}}, {"type": "node", "id": 9609661283, "lat": 40.5586864, "lon": 17.8091467, "tags": {"amenity": "restaurant", "cuisine": "pizza", "level": "1", "name": "Pizzeria Steakhouse Baba"}}, {"type": "node", "id": 9609661292, "lat": 40.559125, "lon": 17.8085703, "tags": {"addr:housenumber": "14", "addr:street": "Piazza Commestibili", "amenity": "restaurant", "cuisine": "italian;regional;seafood;sausage;salad;pasta", "indoor_seating": "yes", "name": "Giudamino Cantina", "outdoor_seating": "yes", "website": "https://www.giudaminocantina.it/"}}, {"type": "node", "id": 9682148059, "lat": 40.5606149, "lon": 17.8085643, "tags": {"amenity": "cafe"}}, {"type": "node", "id": 9795181005, "lat": 40.560244, "lon": 17.8079909, "tags": {"amenity": "restaurant", "cuisine": "pizza", "name": "Core verace", "outdoor_seating": "yes"}}, {"type": "node", "id": 9835737093, "lat": 40.6690751, "lon": 17.9476961, "tags": {"amenity": "restaurant", "cuisine": "pizza;pesce", "name": "Hemingway Beach", "seasonal": "summer"}}, {"type": "node", "id": 9873075423, "lat": 40.5587681, "lon": 17.811068, "tags": {"amenity": "restaurant", "cuisine": "pizza", "name": "Core a Core"}}, {"type": "node", "id": 9915848232, "lat": 40.872653, "lon": 17.4116357, "tags": {"amenity": "cafe", "check_date": "2024-08-26", "ice_cream": "yes", "name": "Bar Skipper"}}, {"type": "node", "id": 9936064384, "lat": 40.7358421, "lon": 17.7428388, "tags": {"amenity": "restaurant", "cuisine": "pizza;meat", "name": "Apulian Beach club", "seasonal": "summer"}}, {"type": "node", "id": 9949697535, "lat": 40.6238197, "lon": 17.9482967, "tags": {"amenity": "cafe", "name": "Admiral caf\u00e8"}}, {"type": "node", "id": 9950896311, "lat": 40.6612221, "lon": 17.9601111, "tags": {"addr:housenumber": "2", "addr:street": "Via Torpedineria Climene", "air_conditioning": "yes", "amenity": "restaurant", "bar": "yes", "brewery": "yes", "check_date": "2023-07-06", "cuisine": "seafood;regional;sandwich", "delivery": "no", "internet_access": "wlan", "internet_access:fee": "customers", "internet_access:ssid": "Estoril_AP", "level": "0", "microbrewery": "no", "name": "Estoril", "opening_hours": "Apr-Oct Tu-Su 09:00-00:30", "operator": "Paola Pagano", "outdoor_seating": "yes", "payment:credit_cards": "yes", "payment:debit_cards": "yes", "payment:mastercard": "yes", "payment:visa": "yes", "ref:vatin": "IT02421610748", "reservation": "yes", "smoking": "outside", "source": "survey", "takeaway": "no", "toilets": "yes", "toilets:wheelchair": "yes", "wheelchair": "yes"}}, {"type": "node", "id": 9982856398, "lat": 40.5601942, "lon": 17.8086352, "tags": {"amenity": "restaurant", "cuisine": "pizza", "name": "Pizzeria Rosticceria Lu Sitili"}}, {"type": "node", "id": 9982856399, "lat": 40.5599499, "lon": 17.8093982, "tags": {"air_conditioning": "yes", "amenity": "restaurant", "cuisine": "sushi", "name": "Bisconti restaurant", "smoking": "outside"}}, {"type": "node", "id": 9983219516, "lat": 40.5605361, "lon": 17.809219, "tags": {"amenity": "restaurant", "check_date": "2024-11-17", "name": "Dadario", "outdoor_seating": "yes", "website": "https://www.dadarioristorante.it/"}}, {"type": "node", "id": 9983753334, "lat": 40.5596179, "lon": 17.8072829, "tags": {"amenity": "restaurant", "cuisine": "barbecue", "name": "Mangia fueco"}}, {"type": "node", "id": 9983753368, "lat": 40.5589878, "lon": 17.8091353, "tags": {"amenity": "restaurant", "cuisine": "pizza", "name": "Felicit\u00e0"}}, {"type": "node", "id": 9983753369, "lat": 40.5590593, "lon": 17.8089056, "tags": {"amenity": "restaurant", "name": "Terracotta"}}, {"type": "node", "id": 9995608159, "lat": 40.5435417, "lon": 17.7013537, "tags": {"addr:city": "Latiano", "addr:postcode": "72022", "addr:street": "Contrada Martina", "amenity": "restaurant", "name": "Imo & Stefania Eventi", "phone": "+39 327 303 4205"}}, {"type": "node", "id": 9999352932, "lat": 40.6455057, "lon": 17.9338186, "tags": {"amenity": "cafe", "name": "My way", "opening_hours": "Mo-Su 07:00-24:00+"}}, {"type": "node", "id": 9999766748, "lat": 40.5584253, "lon": 17.7914384, "tags": {"amenity": "restaurant", "name": "Al Rusticone"}}, {"type": "node", "id": 10007227617, "lat": 40.736356, "lon": 17.6854755, "tags": {"addr:housenumber": "1", "addr:postcode": "72012", "addr:street": "Via Stazione", "amenity": "restaurant", "cuisine": "italian", "name": "Casale Ferrovia", "website": "https://www.casaleferrovia.it/"}}, {"type": "node", "id": 10013690355, "lat": 40.5347013, "lon": 17.4768021, "tags": {"amenity": "cafe"}}, {"type": "node", "id": 10015218805, "lat": 40.5366213, "lon": 17.6474715, "tags": {"amenity": "cafe", "name": "Autogrill"}}, {"type": "node", "id": 10015232428, "lat": 40.5319464, "lon": 17.5805021, "tags": {"amenity": "cafe", "name": "Caffetteria del Corso"}}, {"type": "node", "id": 10024895330, "lat": 40.8072801, "lon": 17.4526518, "tags": {"amenity": "restaurant", "name": "La Pupa Bar Pizzeria"}}, {"type": "node", "id": 10030088518, "lat": 40.6268019, "lon": 17.9212053, "tags": {"amenity": "cafe", "name": "Chocoloso"}}, {"type": "node", "id": 10031489583, "lat": 40.656197, "lon": 17.7041226, "tags": {"amenity": "restaurant", "cuisine": "pizza;frites", "name": "La Chiazza", "outdoor_seating": "yes"}}, {"type": "node", "id": 10040076093, "lat": 40.5245424, "lon": 17.5833377, "tags": {"amenity": "cafe", "name": "Avenue coffee bar"}}, {"type": "node", "id": 10040076134, "lat": 40.5319721, "lon": 17.580703, "tags": {"amenity": "restaurant", "name": "Ristorante pizzeria Al Monumento", "phone": "+39 0831 852780"}}, {"type": "node", "id": 10047795534, "lat": 40.7385962, "lon": 17.4701826, "tags": {"amenity": "restaurant", "level": "0", "name": "La Locanda del Ristoro", "outdoor_seating": "yes", "wheelchair": "yes"}}, {"type": "node", "id": 10047812256, "lat": 40.7365529, "lon": 17.4710575, "tags": {"addr:city": "Cisternino", "addr:housenumber": "2", "addr:place": "Piazza Aia Vecchia", "addr:postcode": "72014", "amenity": "restaurant", "cuisine": "pizza;italian", "level": "0", "name": "La Piazetta", "phone": "+39 80 444 1616", "wheelchair": "no"}}, {"type": "node", "id": 10086858970, "lat": 40.5848186, "lon": 17.4732012, "tags": {"amenity": "restaurant", "cuisine": "pizza", "name": "La Sfornata", "outdoor_seating": "yes"}}, {"type": "node", "id": 10087458012, "lat": 40.5486266, "lon": 17.8129189, "tags": {"amenity": "cafe"}}, {"type": "node", "id": 10121103719, "lat": 40.6560084, "lon": 17.956586, "tags": {"amenity": "cafe", "check_date": "2023-04-21", "name": "Avenue's Caf\u00e9", "opening_hours": "Th-Tu 07:00-23:00", "payment:credit_cards": "yes", "payment:debit_cards": "yes", "smoking": "outside"}}, {"type": "node", "id": 10124714420, "lat": 40.5595233, "lon": 17.805063, "tags": {"addr:city": "Mesagne", "addr:housenumber": "45", "addr:postcode": "72023", "addr:street": "Via Sasso", "amenity": "restaurant", "cuisine": "pizza", "name": "Pizzeria Ciao Ciao", "phone": "+390831778908"}}, {"type": "node", "id": 10155529629, "lat": 40.8399809, "lon": 17.4697501, "tags": {"amenity": "restaurant", "cuisine": "fish;sandwich", "name": "La Baia", "outdoor_seating": "yes"}}, {"type": "node", "id": 10178008536, "lat": 40.5341491, "lon": 17.428291, "tags": {"addr:housenumber": "6", "addr:street": "Via Umberto I", "amenity": "restaurant", "check_date": "2022-11-12", "cuisine": "italian", "name": "Osteria nel Borgo", "outdoor_seating": "no", "payment:mastercard": "yes", "payment:visa": "yes", "smoking": "outside", "source": "survey", "wheelchair": "yes"}}, {"type": "node", "id": 10186670296, "lat": 40.5799058, "lon": 17.8380362, "tags": {"air_conditioning": "yes", "amenity": "cafe", "indoor_seating": "yes", "name": "Caff\u00e8 Vergnano", "opening_hours": "Mo-Su 09:00-21:00", "outdoor_seating": "no", "smoking": "no", "wheelchair": "yes"}}, {"type": "node", "id": 10207429338, "lat": 40.6341428, "lon": 17.9336773, "tags": {"addr:housenumber": "120", "addr:street": "Via Appia", "amenity": "restaurant", "cuisine": "barbecue", "name": "Proteine rosse braceria"}}, {"type": "node", "id": 10220359121, "lat": 40.790052, "lon": 17.4642827, "tags": {"amenity": "restaurant", "cuisine": "regional", "name": "Masseria Narducci", "phone": "+39 334 7224485", "reservation": "recommended", "website": "https://www.masserianarducci.it/"}}, {"type": "node", "id": 10221717256, "lat": 40.632385, "lon": 17.9361758, "tags": {"amenity": "cafe", "name": "Mini bar"}}, {"type": "node", "id": 10221718571, "lat": 40.634035, "lon": 17.9334574, "tags": {"amenity": "restaurant", "cuisine": "pizza", "name": "Ghiotto pizza"}}, {"type": "node", "id": 10297962467, "lat": 40.6366156, "lon": 17.9463577, "tags": {"amenity": "restaurant", "name": "Mama trattoria di mare"}}, {"type": "node", "id": 10557367418, "lat": 40.7376348, "lon": 17.7410279, "tags": {"amenity": "restaurant", "name": "ristorante il Timone"}}, {"type": "node", "id": 10573111931, "lat": 40.7023576, "lon": 17.6608399, "tags": {"amenity": "restaurant", "name": "Ristorante Pizzeria Al Boschetto", "phone": "+39 330 326151"}}, {"type": "node", "id": 10574203107, "lat": 40.6361419, "lon": 17.9448476, "tags": {"amenity": "restaurant", "name": "Arabella", "outdoor_seating": "yes"}}, {"type": "node", "id": 10592107546, "lat": 40.5604068, "lon": 17.8045082, "tags": {"amenity": "restaurant", "cuisine": "pizza", "delivery": "yes", "name": "Antica Pizzelleria", "opening_hours": "Mo-Su 19:30-22:30", "outdoor_seating": "yes", "phone": "+39 0831 608098", "takeaway": "yes", "website": "http://www.anticapizzelleria.com/"}}, {"type": "node", "id": 10607999280, "lat": 40.5528096, "lon": 17.809669, "tags": {"amenity": "cafe"}}, {"type": "node", "id": 10616595400, "lat": 40.789949, "lon": 17.5866513, "tags": {"amenity": "cafe", "name": "Bar del Porto"}}, {"type": "node", "id": 10723636505, "lat": 40.5288396, "lon": 17.5842229, "tags": {"addr:housenumber": "45", "addr:postcode": "72021", "addr:street": "Via Regina Elena", "amenity": "restaurant", "cuisine": "italian;italian_pizza", "name": "Pi", "name:en": "Queen's", "name:it": "Queen's", "name:ru": "Queen's", "opening_hours": "Th-Tu 14:00-00:00", "phone": "+393331225962"}}, {"type": "node", "id": 10723642605, "lat": 40.5294817, "lon": 17.5841304, "tags": {"addr:city": "Francavilla Fontana", "addr:housenumber": "45", "addr:postcode": "72021", "addr:street": "Via Regina Elena", "amenity": "restaurant", "contact:facebook": "https://www.facebook.com/people/Pizzeria-Queens/100057766283552/", "cuisine": "italian;italian_pizza", "name": "Queen's", "opening_hours": "14:00-00:00; We off", "phone": "+393331225962"}}, {"type": "node", "id": 10769085448, "lat": 40.5666435, "lon": 17.8185238, "tags": {"air_conditioning": "yes", "amenity": "cafe", "name": "Apulia garden caf\u00e8"}}, {"type": "node", "id": 10778531655, "lat": 40.5515637, "lon": 17.7178144, "tags": {"amenity": "cafe", "name": "Caffetteria gelateria La casa dello Spumone"}}, {"type": "node", "id": 10796849635, "lat": 40.5542319, "lon": 17.7160375, "tags": {"amenity": "restaurant", "name": "Mister grill", "outdoor_seating": "yes"}}, {"type": "node", "id": 10796849645, "lat": 40.5496347, "lon": 17.710727, "tags": {"amenity": "cafe", "name": "Caffetteria Andrea"}}, {"type": "node", "id": 10799256953, "lat": 40.55899, "lon": 17.8012326, "tags": {"amenity": "restaurant", "cuisine": "pizza", "name": "Brooklin 91"}}, {"type": "node", "id": 10799256954, "lat": 40.5499027, "lon": 17.8087154, "tags": {"amenity": "restaurant", "cuisine": "pizza", "name": "Ristorante Pizzeria Gonia", "opening_hours": "We-Mo 19:00-00:00"}}, {"type": "node", "id": 10834352508, "lat": 40.5341539, "lon": 17.4298071, "tags": {"addr:housenumber": "51", "addr:postcode": "74023", "addr:street": "Via Giuseppe Battista", "amenity": "restaurant", "name": "Vico 51", "name:it": "Vico 51 Bistrot", "opening_hours": "Tu-Su 18:00-01:30"}}, {"type": "node", "id": 10982520749, "lat": 40.7412684, "lon": 17.4270057, "tags": {"addr:city": "Cisternino", "addr:housenumber": "11", "addr:postcode": "72014", "addr:street": "Via Gaetano De Amico", "amenity": "restaurant", "cuisine": "pub", "name": "20m2", "opening_hours": "24/7", "phone": "0803218638", "website": "www.20m20fficial.it"}}, {"type": "node", "id": 10994903224, "lat": 40.6393747, "lon": 17.94786, "tags": {"amenity": "cafe", "check_date": "2023-06-21", "name": "Chococaf\u00e9"}}, {"type": "node", "id": 10994931667, "lat": 40.6389328, "lon": 17.9437543, "tags": {"amenity": "restaurant", "check_date": "2023-06-21", "cuisine": "pizza", "name": "SpaccaNapoli"}}, {"type": "node", "id": 11002185277, "lat": 40.7322263, "lon": 17.5791932, "tags": {"addr:housenumber": "14", "addr:street": "Via Giosu\u00e8 Pinto", "air_conditioning": "yes", "amenity": "restaurant", "check_date": "2023-06-23", "cuisine": "regional;seafood", "internet_access": "no", "level": "0", "name": "La Sparacima", "payment:mastercard": "yes", "payment:visa": "yes", "reservation": "yes", "smoking": "outside", "source": "survey", "toilets": "yes", "toilets:wheelchair": "limited", "wheelchair": "limited"}}, {"type": "node", "id": 11012999934, "lat": 40.628164, "lon": 17.9265695, "tags": {"addr:housenumber": "147", "addr:street": "Via San Giovanni Bosco", "amenity": "cafe", "name": "La Gran Pasticceria"}}, {"type": "node", "id": 11013423077, "lat": 40.8110396, "lon": 17.5234338, "tags": {"amenity": "cafe", "name": "Baretto Lido Morelli", "seasonal": "summer"}}, {"type": "node", "id": 11028445042, "lat": 40.6414487, "lon": 17.9466002, "tags": {"amenity": "cafe", "check_date": "2023-07-05", "level": "0", "name": "Al Porto", "payment:mastercard": "yes", "payment:visa": "yes"}}, {"type": "node", "id": 11028445043, "lat": 40.6414606, "lon": 17.9465428, "tags": {"amenity": "restaurant", "check_date": "2023-07-05", "level": "0", "name": "Sapido"}}, {"type": "node", "id": 11033043761, "lat": 40.6185403, "lon": 17.9026881, "tags": {"air_conditioning": "yes", "amenity": "restaurant", "check_date": "2023-07-07", "cuisine": "seafood", "indoor_seating": "yes", "name": "La Baracchina del Porto", "opening_hours": "Mo-Sa 09:00-21:00; Su 10:00-21:00", "outdoor_seating": "no", "smoking": "no", "wheelchair": "yes"}}, {"type": "node", "id": 11033043763, "lat": 40.6184385, "lon": 17.9026387, "tags": {"air_conditioning": "yes", "amenity": "restaurant", "check_date": "2023-07-07", "cuisine": "poke", "indoor_seating": "yes", "level": "0", "name": "I\u2764\ufe0fPoke", "opening_hours": "Mo-Sa 09:00-21:00; Su 10:00-21:00", "outdoor_seating": "no", "payment:mastercard": "yes", "payment:visa": "yes", "smoking": "no", "wheelchair": "yes"}}, {"type": "node", "id": 11033049420, "lat": 40.6185941, "lon": 17.9028902, "tags": {"air_conditioning": "yes", "amenity": "cafe", "bar": "yes", "check_date": "2023-07-07", "delivery": "no", "drive_through": "no", "highchair": "no", "indoor_seating": "yes", "level": "0", "name": "Genius Caf\u00e9", "opening_hours": "Mo-Sa 09:00-21:00; Su 10:00-21:00", "outdoor_seating": "no", "payment:mastercard": "yes", "payment:visa": "yes", "reservation": "no", "smoking": "no", "source": "survey", "takeaway": "no", "toilets": "no", "wheelchair": "yes"}}, {"type": "node", "id": 11033078565, "lat": 40.6182374, "lon": 17.9021853, "tags": {"air_conditioning": "yes", "amenity": "cafe", "bar": "yes", "check_date": "2023-07-07", "delivery": "no", "drive_through": "no", "highchair": "no", "indoor_seating": "yes", "level": "0", "name": "Genius Caf\u00e9", "opening_hours": "Mo-Sa 09:00-21:00; Su 10:00-21:00", "outdoor_seating": "no", "payment:mastercard": "yes", "payment:visa": "yes", "reservation": "no", "smoking": "no", "source": "survey", "takeaway": "no", "toilets": "no", "wheelchair": "yes"}}, {"type": "node", "id": 11062055589, "lat": 40.544523, "lon": 17.9471461, "tags": {"amenity": "cafe", "check_date": "2023-07-22"}}, {"type": "node", "id": 11074385076, "lat": 40.5514059, "lon": 17.7172267, "tags": {"addr:street": "Piazza Bartolo Longo", "amenity": "cafe", "cuisine": "coffee_shop;piazza", "name": "New Bar degli  Amici"}}, {"type": "node", "id": 11083931986, "lat": 40.7324129, "lon": 17.5782512, "tags": {"amenity": "cafe", "name": "Caffe Ayroldi", "outdoor_seating": "yes"}}, {"type": "node", "id": 11098163578, "lat": 40.7870231, "lon": 17.5963439, "tags": {"amenity": "cafe"}}, {"type": "node", "id": 11098420357, "lat": 40.7210308, "lon": 17.773823}, {"type": "node", "id": 11098420358, "lat": 40.7210346, "lon": 17.773857}, {"type": "node", "id": 11098420359, "lat": 40.7210495, "lon": 17.7738763}, {"type": "node", "id": 11098420360, "lat": 40.7210826, "lon": 17.7738731}, {"type": "node", "id": 11098420361, "lat": 40.7210978, "lon": 17.7738509}, {"type": "node", "id": 11098420362, "lat": 40.7210946, "lon": 17.7738112}, {"type": "node", "id": 11098420363, "lat": 40.7210715, "lon": 17.7737908}, {"type": "node", "id": 11098420364, "lat": 40.7210455, "lon": 17.7737951}, {"type": "node", "id": 11102395434, "lat": 40.5738254, "lon": 17.4782413, "tags": {"amenity": "cafe"}}, {"type": "node", "id": 11167186821, "lat": 40.6384642, "lon": 17.9449894, "tags": {"amenity": "restaurant", "check_date": "2023-09-04", "level": "0", "name": "De Diez"}}, {"type": "node", "id": 11169920170, "lat": 40.6349156, "lon": 17.9405103, "tags": {"amenity": "restaurant", "check_date": "2023-11-08", "cuisine": "sushi;poke", "name": "My pok\u00e8"}}, {"type": "node", "id": 11200442337, "lat": 40.7341991, "lon": 17.5774867, "tags": {"amenity": "restaurant", "name": "Spessite"}}, {"type": "node", "id": 11311310240, "lat": 40.5448278, "lon": 17.948678, "tags": {"amenity": "restaurant", "cuisine": "pizza;grill", "name": "Binario 40"}}, {"type": "node", "id": 11373090604, "lat": 40.8733113, "lon": 17.4097355, "tags": {"amenity": "restaurant"}}, {"type": "node", "id": 11373106807, "lat": 40.8514055, "lon": 17.4511186, "tags": {"amenity": "restaurant"}}, {"type": "node", "id": 11373137505, "lat": 40.8206857, "lon": 17.4913765, "tags": {"amenity": "cafe"}}, {"type": "node", "id": 11373159634, "lat": 40.830651, "lon": 17.4728286, "tags": {"amenity": "restaurant"}}, {"type": "node", "id": 11377209988, "lat": 40.6212913, "lon": 17.9102051, "tags": {"amenity": "cafe"}}, {"type": "node", "id": 11389490883, "lat": 40.7076158, "lon": 17.6591272, "tags": {"addr:housenumber": "103", "addr:street": "Corso Vittorio Emanuele", "amenity": "restaurant", "cuisine": "meat", "name": "Braceria pomodoro", "phone": "+39 0831211734"}}, {"type": "node", "id": 11391412960, "lat": 40.6176154, "lon": 17.9131812, "tags": {"addr:housenumber": "5", "addr:street": "Via dei Sarti", "amenity": "restaurant", "cuisine": "regional", "name": "Vieni A Casa Ca Ti Cucinu", "wheelchair": "yes"}}, {"type": "node", "id": 11391876939, "lat": 40.6374751, "lon": 17.9501198, "tags": {"amenity": "cafe"}}, {"type": "node", "id": 11392358107, "lat": 40.6243474, "lon": 17.9142154, "tags": {"amenity": "cafe", "level": "1"}}, {"type": "node", "id": 11411785350, "lat": 40.7389974, "lon": 17.4728539, "tags": {"addr:street": "via brindisi", "amenity": "restaurant", "cuisine": "meat", "name": "Braceria Soleti"}}, {"type": "node", "id": 11510837670, "lat": 40.7334998, "lon": 17.5781966, "tags": {"addr:street": "Via Alfonso Giovine", "amenity": "restaurant", "name": "Osteria Sant'Oronzo"}}, {"type": "node", "id": 11583979706, "lat": 40.6458899, "lon": 17.5165729, "tags": {"amenity": "restaurant", "cuisine": "barbecue", "name": "Zitto e mangia"}}, {"type": "node", "id": 11584081232, "lat": 40.6458467, "lon": 17.5169495, "tags": {"amenity": "restaurant", "name": "Al setaccio"}}, {"type": "node", "id": 11917497713, "lat": 40.5668648, "lon": 17.8176999, "tags": {"air_conditioning": "yes", "amenity": "cafe"}}, {"type": "node", "id": 11917497714, "lat": 40.5630757, "lon": 17.8151176, "tags": {"air_conditioning": "yes", "amenity": "cafe", "name": "Caff\u00e8 Izzo", "payment:credit_cards": "yes", "payment:debit_cards": "yes", "smoking": "outside"}}, {"type": "node", "id": 11959100156, "lat": 40.5052415, "lon": 17.6510583, "tags": {"amenity": "cafe", "name": "Colorado caff\u00e8"}}, {"type": "node", "id": 11959100168, "lat": 40.5312341, "lon": 17.6564225, "tags": {"amenity": "restaurant", "name": "Hortus agrobistrot"}}, {"type": "node", "id": 11962453779, "lat": 40.7901463, "lon": 17.5865374, "tags": {"amenity": "cafe", "name": "Apulia"}}, {"type": "node", "id": 11985833416, "lat": 40.5871327, "lon": 17.4770185, "tags": {"amenity": "restaurant", "cuisine": "pizza", "name": "Iguana"}}, {"type": "node", "id": 12010350070, "lat": 40.7037505, "lon": 17.57273, "tags": {"addr:city": "Ostuni", "addr:housenumber": "167", "addr:postcode": "72017", "addr:street": "Contrada Molillo", "amenity": "restaurant", "cuisine": "regional", "name": "Ristorante Nonno Vittorio", "website": "https://www.masseriavalentina.com/"}}, {"type": "node", "id": 12011843391, "lat": 40.7326693, "lon": 17.5774628, "tags": {"addr:city": "Ostuni", "addr:postcode": "72017", "addr:street": "Via Francesco Tanzarella Vitale", "amenity": "cafe", "cuisine": "cake;dessert", "name": "Bar Pasticceria da Pasquale", "opening_hours": "Mo 05:00-13:00; Tu-Su 05:00-19:00", "phone": "+390831335872"}}, {"type": "node", "id": 12138603104, "lat": 40.8727254, "lon": 17.4115419, "tags": {"amenity": "restaurant", "name": "Braceria Sabatelli"}}, {"type": "node", "id": 12292394267, "lat": 40.6478005, "lon": 17.5189157, "tags": {"amenity": "restaurant", "name": "Braceria dei santi"}}, {"type": "node", "id": 12327252013, "lat": 40.722706, "lon": 17.7363645, "tags": {"amenity": "restaurant"}}, {"type": "node", "id": 12327496368, "lat": 40.5802242, "lon": 17.8365005, "tags": {"amenity": "cafe"}}, {"type": "node", "id": 12346105812, "lat": 40.6491361, "lon": 17.9404841, "tags": {"amenity": "cafe"}}, {"type": "node", "id": 12348587070, "lat": 40.55937, "lon": 17.8087517, "tags": {"addr:street": "Via Albricci", "amenity": "cafe", "cuisine": "bubble_tea", "name": "Bubble Drink"}}, {"type": "node", "id": 12348725750, "lat": 40.5610954, "lon": 17.8084051, "tags": {"amenity": "restaurant", "cuisine": "japanese;fusion;sushi", "name": "Mesushi", "website": "https://www.mesushi.it/"}}, {"type": "node", "id": 12348769113, "lat": 40.6974528, "lon": 17.822096, "tags": {"amenity": "restaurant", "cuisine": "italian;regional", "leisure": "beach_resort", "name": "Boa Gialla", "source": "website;aerial imagery", "website": "https://www.boagialla.it/"}}, {"type": "node", "id": 12441336997, "lat": 40.6324519, "lon": 17.9380989, "tags": {"amenity": "cafe", "name": "Dualbreak"}}, {"type": "node", "id": 12480066987, "lat": 40.8533267, "lon": 17.4438159, "tags": {"amenity": "cafe"}}, {"type": "node", "id": 12529169484, "lat": 40.5269947, "lon": 17.5883603, "tags": {"addr:city": "Francavilla Fontana", "addr:housenumber": "77", "addr:postcode": "72021", "addr:street": "Via Capitano Giovanni Di Castri", "amenity": "restaurant", "cuisine": "pizza", "name": "New Pizza", "opening_hours": "19:30-00:30; We off", "phone": "+39 3899011048"}}, {"type": "node", "id": 12531943233, "lat": 40.5259603, "lon": 17.5840426, "tags": {"addr:city": "Francavilla Fontana", "addr:housenumber": "25", "addr:postcode": "72021", "addr:street": "Viale V. Lilla", "amenity": "restaurant", "cuisine": "sushi", "name": "UMA", "opening_hours": "Mo-Su 12:30-15:30,19:30-23:30; Tu off", "phone": "+39 3280388551", "website": "https://go.ordelivery.shop/#/restaurantPage?string_id=7OOJR", "website:menu": "https://go.ordelivery.shop/#/restaurantPage?string_id=7OOJR"}}, {"type": "node", "id": 12531943243, "lat": 40.5287676, "lon": 17.5829698, "tags": {"addr:city": "Francavilla Fontana", "addr:housenumber": "37", "addr:postcode": "72021", "addr:street": "Via Roma", "amenity": "cafe", "name": "Caffetteria Cito", "opening_hours": "Mo-Sa 05:00-21:30; Su 08:00-12:00", "phone": "+39 0831859974"}}, {"type": "node", "id": 12531943245, "lat": 40.5302527, "lon": 17.5822764, "tags": {"addr:city": "Francavilla Fontana", "addr:housenumber": "1", "addr:postcode": "72021", "addr:street": "Via Immacolata", "amenity": "cafe", "name": "Caff\u00e9 Melileo", "phone": "+39 3515680845"}}, {"type": "node", "id": 12531943246, "lat": 40.5306533, "lon": 17.5825091, "tags": {"addr:city": "Francavilla Fontana", "addr:housenumber": "14", "addr:postcode": "72021", "addr:street": "Piazza Umberto I", "amenity": "cafe", "name": "Vinile Cafe", "opening_hours": "17:30-03:00; We off", "phone": "+39 3339096430", "website": "https://vinilecafe.it/", "website:menu": "https://www.leggimenu.it/menu/vinilecafe"}}, {"type": "node", "id": 12531943247, "lat": 40.5306546, "lon": 17.5825907, "tags": {"addr:city": "Francavilla Fontana", "addr:housenumber": "15", "addr:postcode": "72021", "addr:street": "Piazza Umberto I", "amenity": "restaurant", "cuisine": "pizza", "name": "Suite 77", "opening_hours": "20:00-01:00; Mo off", "phone": "+39 3808335170"}}, {"type": "node", "id": 12536147098, "lat": 40.5310616, "lon": 17.5828708, "tags": {"addr:city": "Francavilla Fontana", "addr:housenumber": "26", "addr:postcode": "72021", "addr:street": "Via San Salvatore", "amenity": "restaurant", "cuisine": "pizza", "name": "Pizzeria Napule", "opening_hours": "19:00-23:00; Tu off", "phone": "+39 3396495948"}}, {"type": "node", "id": 12536147099, "lat": 40.5313173, "lon": 17.58321, "tags": {"addr:city": "Francavilla Fontana", "addr:housenumber": "23", "addr:postcode": "72021", "addr:street": "Via San Salvatore", "amenity": "restaurant", "contact:facebook": "https://www.facebook.com/bracitofrancavilla", "cuisine": "pizza", "email": "ristobracito@gmail.com", "name": "Bracito Pizza & Grill", "opening_hours": "Mo-Sa 19:00-00:00; Su 12:00-00:00", "phone": "+39 0831 198 3977"}}, {"type": "node", "id": 12536147100, "lat": 40.5312545, "lon": 17.5828166, "tags": {"addr:city": "Francavilla Fontana", "addr:housenumber": "2", "addr:postcode": "72021", "addr:street": "Via Sacazzeri", "amenity": "restaurant", "email": "attrattoria@gmail.com", "name": "Attrattoria - cibo e vino", "opening_hours": "Mo off; Tu-Sa 12:00-15:00,19:00-23:00; Su 12:00-15:00", "phone": "+39 320 333 6890"}}, {"type": "node", "id": 12536147103, "lat": 40.5311878, "lon": 17.5820618, "tags": {"addr:city": "Francavilla Fontana", "addr:housenumber": "4", "addr:postcode": "72021", "addr:street": "Via Arco Olimpo", "amenity": "restaurant", "email": "arcolimpio@libero.it", "internet_access": "wlan", "internet_access:ssid": "ArcoOlimpo", "mobile": "+39 0831 843782", "name": "Ristorante Arco Olimpio", "opening_hours": "Mo off; Tu-Sa 20:00-00:00; Su 12:30-15:00,20:00-00:00", "phone": "+39 3288017958", "website": "https://www.ristorantearcolimpio.com/", "website:menu": "https://www.newcreativestudio.com/arco-olimpio/"}}, {"type": "node", "id": 12536956060, "lat": 40.533209, "lon": 17.5851921, "tags": {"addr:city": "Francavilla Fontana", "addr:housenumber": "9", "addr:postcode": "72021", "addr:street": "Piazza Guglielmo Marconi", "amenity": "restaurant", "cuisine": "pizza", "name": "Pizzeria Paninoteca Briciole", "opening_hours": "17:00-00:00; Tu off", "phone": "+39 3387881261"}}, {"type": "node", "id": 12536956062, "lat": 40.5326097, "lon": 17.5851209, "tags": {"addr:city": "Francavilla Fontana", "addr:housenumber": "9", "addr:postcode": "72021", "addr:street": "Via San Lorenzo", "amenity": "restaurant", "cuisine": "pizza", "name": "La Rustichella", "opening_hours": "18:30-02:00; Tu off", "phone": "+39 3280004604"}}, {"type": "node", "id": 12536956064, "lat": 40.5328935, "lon": 17.5859464, "tags": {"addr:city": "Francavilla Fontana", "addr:housenumber": "13", "addr:postcode": "72021", "addr:street": "Via San Vito", "amenity": "cafe", "name": "Caffe Borbone"}}, {"type": "node", "id": 12558488131, "lat": 40.7283804, "lon": 17.5743337, "tags": {"amenity": "cafe", "name": "Bar London"}}, {"type": "node", "id": 12558501893, "lat": 40.6468101, "lon": 17.5160594, "tags": {"amenity": "restaurant", "name": "L'angola del Pesce", "outdoor_seating": "yes"}}, {"type": "node", "id": 12558518963, "lat": 40.7312693, "lon": 17.5801385, "tags": {"addr:housenumber": "48", "addr:street": "Corso Vittorio Emanuele II", "amenity": "restaurant", "contact:email": "info@operaprimaostuni.com", "contact:phone": "+39 0831 369455", "contact:website": "https://www.operaprima-ristorantepizzeria.it/", "cuisine": "pizza;italien", "name": "Operaprima", "opening_hours": "Mo, We-Su 12:30-14:30, 19:00-22:30"}}, {"type": "node", "id": 12558549859, "lat": 40.7262611, "lon": 17.5848478, "tags": {"amenity": "restaurant", "cuisine": "japanese", "name": "Yasaka", "opening_hours": "Mo-Su 12:00-15:00, 19:30-23:30"}}, {"type": "node", "id": 12558555918, "lat": 40.7304719, "lon": 17.5811349, "tags": {"addr:housenumber": "69", "amenity": "restaurant", "name": "Al Cortiletto"}}, {"type": "node", "id": 12559518252, "lat": 40.5299189, "lon": 17.5834138, "tags": {"addr:city": "Francavilla Fontana", "addr:housenumber": "38", "addr:postcode": "72021", "addr:street": "Via Regina Elena", "amenity": "restaurant", "cuisine": "pizza", "name": "La bottega del pizzaiolo", "opening_hours": "18:30-00:00", "phone": "+39 3396318439"}}, {"type": "node", "id": 12563385070, "lat": 40.525156, "lon": 17.5867161, "tags": {"addr:city": "Francavilla Fontana", "addr:housenumber": "41", "addr:postcode": "72021", "addr:street": "Via Qunto Ennio", "amenity": "restaurant", "name": "Quinto Borgo - Ristorante Pizzeria Braceria", "opening_hours": "Mo-Fr,Su 19:00-00:00; Sa 19:00-01:00; We off", "phone": "+39 3287076552"}}, {"type": "node", "id": 12563385071, "lat": 40.528152, "lon": 17.58877, "tags": {"addr:city": "Francavilla Fontana", "addr:housenumber": "64", "addr:postcode": "72021", "addr:street": "Via Gorizia", "amenity": "cafe", "name": "L'angolo caffetteria"}}, {"type": "node", "id": 12565490615, "lat": 40.5351907, "lon": 17.5784695, "tags": {"addr:city": "Francavilla Fontana", "addr:housenumber": "15", "addr:postcode": "72021", "addr:street": "Viale Maria Delle Grazie", "amenity": "restaurant", "cuisine": "pizza", "name": "La Fenice", "opening_hours": "Mo off; Tu-Fr 19:30-00:00; Sa 19:00-00:00; Su 19:00-22:30", "phone": "+39 3773825508"}}, {"type": "node", "id": 12593231284, "lat": 40.5324002, "lon": 17.5889457, "tags": {"addr:city": "Francavilla Fontana", "addr:housenumber": "19", "addr:postcode": "72021", "addr:street": "Via San Lorenzo", "amenity": "restaurant", "cuisine": "pizza", "name": "Pizzeria Giangi's", "opening_hours": "Tu-Su 19:00-00:00; Mo off", "phone": "+39 3426051798"}}, {"type": "node", "id": 12593231292, "lat": 40.5295261, "lon": 17.6052009, "tags": {"addr:city": "Francavilla Fontana", "addr:housenumber": "2", "addr:postcode": "72021", "addr:street": "Via Umberto Terracini", "amenity": "restaurant", "cuisine": "pizza", "name": "Lucignolo", "opening_hours": "Mo-Su 19:00-23:00; Fr off; Tu 19:30-23:00", "phone": "+39 3808985467"}}, {"type": "node", "id": 12618379970, "lat": 40.5318999, "lon": 17.577722, "tags": {"addr:city": "Francavilla Fontana", "addr:postcode": "72021", "addr:street": "Via Giuseppe Di Vagno", "amenity": "restaurant", "contact:facebook": "https://www.facebook.com/solocibobuono/", "email": "solocibobuono@libero.it", "name": "\"di Coste\" Macelleria&Braceria", "opening_hours": "Mo-Fr 07:00-13:30,16:30-23:00; Sa 09:00-13:30,16:30-23:00; Su off", "phone": "+39 339 701 7539", "website": "https://www.tripadvisor.com/Restaurant_Review-g1747526-d12322188-Reviews-Dicoste_Macelleria_braceria-Francavilla_Fontana_Province_of_Brindisi_Puglia.html"}}, {"type": "node", "id": 12620743729, "lat": 40.5334258, "lon": 17.5816313, "tags": {"addr:city": "Francavilla Fontana", "addr:housenumber": "31", "addr:postcode": "72021", "addr:street": "Via Barbaro Forleo", "amenity": "restaurant", "contact:facebook": "https://www.facebook.com/patrespizzeria", "cuisine": "pizza", "email": "patresfrancavilla@gmail.com", "name": "Patres", "opening_hours": "Tu-Su 18:00-00:00; Mo off", "phone": "+39 3488761615", "website": "https://www.instagram.com/patres_pizzaandfood/", "website:menu": "https://issuu.com/patres_pizzeria/docs/menu__patres"}}, {"type": "node", "id": 12645826015, "lat": 40.5299346, "lon": 17.5823696, "tags": {"addr:city": "Francavilla Fontana", "addr:housenumber": "10", "addr:postcode": "72021", "addr:street": "Via Roma", "amenity": "restaurant", "name": "Tavernacolo", "opening_hours": "Mo off; Tu-Fr 09:00-13:00,19:00-00:00; Sa,Su 09:00-13:00,19:00-01:00; ", "phone": "+39 3479592771", "website": "https://francavillafontana.tavernacolo.it/", "website:menu": "https://www.menudigitale.io/vcurr"}}, {"type": "node", "id": 12645826016, "lat": 40.5297219, "lon": 17.5824463, "tags": {"addr:city": "Francavilla Fontana", "addr:postcode": "72021", "addr:street": "Via Roma", "amenity": "restaurant", "name": "'aroma", "opening_hours": "Mo-Sa 20:00-23:30; Su 12:00-15:00; Tu off", "phone": "+39 0831 091355", "website": "https://www.gibaenjoyyourtime.it/aroma/", "website:menu": "https://www.gibaenjoyyourtime.it/aroma/#menu"}}, {"type": "node", "id": 12657003362, "lat": 40.5090037, "lon": 17.5546952, "tags": {"addr:city": "Francavilla Fontana", "addr:postcode": "72021", "addr:street": "Contrada Monte Columeo", "amenity": "restaurant", "contact:facebook": "https://www.facebook.com/CasinaSpina", "email": "info@casinaspina.it", "guest_house": "bed_and_breakfast", "mobile": "+39 330326199", "name": "Casina Spina Agriturismo", "opening_hours": "12:30-23:30", "phone": "+39 3286185480", "website": "https://www.casinaspina.it/", "website:menu": "https://www.casinaspina.it/menu-piatti/"}}, {"type": "node", "id": 12706349525, "lat": 40.7269354, "lon": 17.5799844, "tags": {"amenity": "cafe", "name": "Tuf Tuf"}}, {"type": "node", "id": 12706359524, "lat": 40.7234065, "lon": 17.5785979, "tags": {"amenity": "cafe", "name": "Cafe Nero"}}, {"type": "node", "id": 12706378592, "lat": 40.7267003, "lon": 17.5799105, "tags": {"amenity": "restaurant", "contact:phone": "+39 333 9374497", "cuisine": "pizza;italian;buffet", "name": "Pizzeria da Bruno", "outdoor_seating": "yes"}}, {"type": "node", "id": 12706395376, "lat": 40.731219, "lon": 17.579597, "tags": {"amenity": "restaurant", "cuisine": "italian", "name": "Trattoria Fave e Fogghje"}}, {"type": "node", "id": 12706395805, "lat": 40.7242565, "lon": 17.5768235, "tags": {"amenity": "cafe", "name": "Blue Night Cafe"}}, {"type": "node", "id": 12739336400, "lat": 40.7262665, "lon": 17.5735709, "tags": {"amenity": "cafe", "cuisine": "coffee_shop", "name": "Bar dell'ospedale", "outdoor_seating": "no", "payment:cash": "yes", "payment:credit_cards": "yes", "payment:debit_cards": "yes", "takeaway": "yes"}}, {"type": "node", "id": 12741167665, "lat": 40.5327472, "lon": 17.4303591, "tags": {"addr:city": "Grottaglie", "addr:housenumber": "9", "addr:postcode": "74023", "addr:street": "Via Ciro La Pesa", "amenity": "restaurant", "cuisine": "italian", "name": "Madera", "phone": "3273330929"}}, {"type": "node", "id": 12813042048, "lat": 40.5352507, "lon": 17.4340242, "tags": {"addr:city": "Grottaglie", "addr:housenumber": "30A", "addr:postcode": "74023", "addr:street": "Via Fratelli Bandiera", "air_conditioning": "yes", "amenity": "restaurant", "contact:facebook": "https://www.facebook.com/ilGranaioPizzeria/", "cuisine": "pizza", "delivery": "yes", "diet:gluten_free": "no", "diet:halal": "no", "diet:lactose_free": "limited", "diet:sugar_free": "no", "diet:vegan": "on_demand", "diet:vegetarian": "limited", "name": "Il Granaio", "opening_hours": "Mo-Sa 18:00-00:00; Su 19:00-00:00", "organic": "no", "outdoor_seating": "yes", "payment:bancomat": "yes", "payment:cash": "yes", "payment:coins": "yes", "payment:contactless": "yes", "payment:debit_cards": "yes", "payment:maestro": "yes", "payment:notes": "yes", "payment:visa": "yes", "phone": "+39 324 544 1015", "reservation": "yes", "service:electricity": "no", "smoking": "outside", "takeaway": "yes", "toilets": "yes", "toilets:access": "customers", "toilets:disposal": "bucket", "toilets:fee": "no", "toilets:gender_segregated": "yes", "toilets:handwashing": "yes", "toilets:paper_supplied": "yes", "toilets:position": "seated", "toilets:wheelchair": "yes", "website:menu": "https://www.leggimenu.it/menu/ilgranaiopizzeria-", "wheelchair": "yes"}}, {"type": "node", "id": 12814126068, "lat": 40.8120086, "lon": 17.4146398, "tags": {"addr:city": "Pezze di Greco", "addr:housenumber": "236", "addr:postcode": "72010", "addr:street": "Corso Nazionale", "amenity": "restaurant", "cuisine": "pizza;coffee_shop;regional;italian;breakfast;tea", "diet:vegan": "yes", "name": "Raparossa", "phone": "+393297111947", "toilets": "yes", "website": "https://www.raparossacucinanaturale.it/", "website:menu": "https://www.raparossacucinanaturale.it/menu"}}, {"type": "node", "id": 12853655899, "lat": 40.5324845, "lon": 17.4286229, "tags": {"addr:city": "Grottaglie", "addr:housenumber": "4", "addr:postcode": "74023", "addr:street": "Via Leonardo da Vinci", "amenity": "restaurant", "cuisine": "italian;local", "name": "Trattoria la Luna nel Pozzo"}}, {"type": "node", "id": 12909805743, "lat": 40.5501057, "lon": 17.721794, "tags": {"addr:city": "Latiano", "addr:housenumber": "17", "addr:postcode": "72022", "addr:street": "Via delle Fosse Ardeatine", "amenity": "restaurant", "cuisine": "pizza;coffee_shop;regional", "name": "\"La Fenice\"  Bar -  Trattoria - Pizzeria", "phone": "3290704525"}}, {"type": "node", "id": 12911347629, "lat": 40.5528558, "lon": 17.7223548, "tags": {"addr:city": "Latiano", "addr:housenumber": "2", "addr:postcode": "72022", "addr:street": "Via della Libert\u00e0", "amenity": "restaurant", "cuisine": "pizza;paninoteca", "name": "La Puccia", "phone": "+39 353 210 8283"}}, {"type": "way", "id": 153879266, "nodes": [1665047338, 4201425918, 4201425941, 1665047335, 1665047337, 1665047315, 1665047338], "tags": {"amenity": "restaurant", "building": "yes", "name": "Lido Tiziana", "source": "Bing"}}, {"type": "way", "id": 226392939, "nodes": [2352287280, 2352287281, 2352287282, 4226373121, 2352287283, 2352287284, 2352287285, 2352287286, 2352287280], "tags": {"addr:city": "Grottaglie", "addr:housenumber": "10", "addr:postcode": "74023", "addr:street": "Address     Strada Provinciale Per Villa Castelli", "amenity": "restaurant", "contact:facebook": "https://www.facebook.com/people/Ristorante-Paradiso/100052700845440/", "email": "info@ristoranteparadiso.it", "name": "Ristorante Pizzeria Paradiso", "opening_hours": "Mo-Fr 19:30-01:00; We off; Sa,Su 12:30-15:00,19:30-01:00; ", "phone": "+39 0995638725", "website": "https://www.ristoranteparadiso.it/", "website:menu": "https://www.ristoranteparadiso.it/menu-digitale/"}}, {"type": "way", "id": 237550201, "nodes": [2454403423, 2454403425, 2454403428, 4226352464, 4226352474, 2454403430, 2454403433, 4226352575, 4226352607, 2454403423], "tags": {"amenity": "restaurant", "cuisine": "regional", "name": "Ristorante delle Ceramiche"}}, {"type": "way", "id": 238483109, "nodes": [2463156045, 2463156046, 2463156047, 2463156048, 2463156045], "tags": {"amenity": "restaurant", "cuisine": "pizza", "name": "La Flaca"}}, {"type": "way", "id": 238483110, "nodes": [2463156049, 2463156050, 2463156051, 2463156052, 2463156049], "tags": {"amenity": "restaurant", "cuisine": "pizza", "name": "L'etoile"}}, {"type": "way", "id": 250212431, "nodes": [2463156056, 2566971909, 2566971914, 2566971915, 2566971955, 2566971953, 2566971916, 2463156056], "tags": {"amenity": "restaurant", "building": "yes", "cuisine": "pizza", "name": "Al Solito Posto da Mario"}}, {"type": "way", "id": 251671807, "nodes": [2578567521, 2578567524, 2578567525, 2578567528, 2578567526, 2578567521], "tags": {"amenity": "restaurant", "cuisine": "pizza", "name": "Santa Sofia"}}, {"type": "way", "id": 340087182, "nodes": [4216481607, 3472952302, 4216481257, 3472952303, 3472952305, 4216481642, 4216481607], "tags": {"addr:housenumber": "14", "addr:street": "Via Turco Camarda", "amenity": "restaurant", "contact:phone": "+39 831 379532", "contact:website": "https://www.antimoristorante.com/", "name": "Antimo Ristorante Casino Terramora", "opening_hours": "on request"}}, {"type": "way", "id": 340306263, "nodes": [3475217807, 3475217808, 3475217809, 3475217811, 3475217835, 3475217834, 3475217833, 3475217832, 3475217831, 3475217813, 3475217814, 3475217816, 4216405624, 3475156592, 4191388087, 3475217820, 3475217821, 3475217822, 3475217823, 3475217824, 3475217825, 3475217826, 3475217807], "tags": {"amenity": "restaurant", "cuisine": "italian", "name": "Ristorante Tre Trulli", "website": "https://www.tretrulli.net/ristorante-cegliemessapica-brindisi.asp"}}, {"type": "way", "id": 416418274, "nodes": [4171605137, 4171605168, 4171603850, 4171603815, 4171605137], "tags": {"amenity": "cafe", "building": "shed"}}, {"type": "way", "id": 416916207, "nodes": [4175630405, 4175629889, 4175628839, 4175629969, 4175631850, 4175631797, 4175631825, 4175631386, 4175631303, 4175631289, 4175631790, 4175630914, 4175630413, 4175630405], "tags": {"amenity": "restaurant", "building": "roof", "layer": "1", "name": "Ristorante Lido Bizzarro"}}, {"type": "way", "id": 416955942, "nodes": [4175773042, 4175772644, 4175773004, 4175773077, 4175773392, 4175773042], "tags": {"addr:city": "Fasano", "addr:hamlet": "Torre Canne", "addr:housenumber": "145", "addr:postcode": "72015", "addr:street": "Via Eroi del Mare", "amenity": "restaurant", "building": "yes", "name": "El Chiringuito", "phone:mobile": "+39 320 1425240"}}, {"type": "way", "id": 420163829, "nodes": [4959804257, 4201333123, 4201333308, 4201333325, 4959804257], "tags": {"amenity": "restaurant", "building": "yes", "name": "L'Archetto Braceria"}}, {"type": "way", "id": 420167994, "nodes": [4201426701, 4201426698, 4201426625, 4201426636, 4201426710, 4201426701], "tags": {"amenity": "restaurant", "building": "yes", "name": "Ristorante Dentromare"}}, {"type": "way", "id": 420168893, "nodes": [4201425837, 4201425856, 4201425843, 4201425836, 4201425838, 4201425834, 4201425837], "tags": {"amenity": "restaurant", "building": "yes", "name": "Ristorante Pizzeria La Rosa"}}, {"type": "way", "id": 420375018, "nodes": [4203098948, 4203098950, 4203098983, 4203098985, 4203098874, 4203098873, 4203098725, 4203098731, 4203098747, 4203098759, 4203098772, 4203098902, 4203098903, 4203098878, 4203098904, 4203098930, 4203099062, 4203099068, 4203098948], "tags": {"amenity": "restaurant", "building": "yes", "name": "Ristorante Il Vittoriano"}}, {"type": "way", "id": 420640252, "nodes": [4205839943, 4205840021, 4205840017, 4205839944, 4205839947, 4205839939, 4205839943], "tags": {"alt_name": "Masseria Viscigli", "amenity": "restaurant", "building": "yes", "name": "Tenuta Viscigli"}}, {"type": "way", "id": 420640785, "nodes": [4205924467, 4205924470, 4205924515, 4205924517, 4205924742, 4205924744, 4205924467], "tags": {"amenity": "restaurant", "building": "yes", "cuisine": "italian", "name": "Villa Leta"}}, {"type": "way", "id": 421193341, "nodes": [4210039104, 4210039098, 4210039103, 4210039099, 4210039089, 4210039083, 4210039079, 4210039067, 4210039065, 4210039045, 4210039050, 4210039047, 4210039042, 4210039031, 4210039036, 4210039030, 4210039032, 4210039048, 4210039053, 4210039059, 4210039069, 4210039080, 4210039090, 4210039096, 4210039102, 4210039104], "tags": {"amenity": "restaurant", "building": "yes"}}, {"type": "way", "id": 421198995, "nodes": [4210041165, 4210041155, 7600877722, 4210041141, 4210041004, 4210041034, 4210041190, 7600877723, 4210041165], "tags": {"amenity": "restaurant", "building": "yes", "cuisine": "pizza;italian", "name": "Ristorante Pizzeria Alta Marea"}}, {"type": "way", "id": 421893646, "nodes": [4216534450, 4216534029, 4216534061, 4216534116, 4216534115, 4216534291, 4216534294, 4216534473, 4216534450], "tags": {"amenity": "restaurant", "building": "yes", "name": "Agriturismo Masseria Montedoro", "tourism": "guest_house", "website": "http://masseriamontedoro.weebly.com/"}}, {"type": "way", "id": 421893748, "nodes": [4216514143, 4216513383, 4216512945, 4216512896, 4216512558, 4216512975, 4216513350, 4216513371, 4216513743, 4216513765, 4216514166, 4216513788, 4216514143], "tags": {"amenity": "restaurant", "building": "yes", "building:levels": "2", "historic": "farm", "name": "Masseria Tarturiello", "tourism": "guest_house", "website": "http://www.masseriatarturiello.it/it/home/"}}, {"type": "way", "id": 422365570, "nodes": [4220935873, 4220935764, 4220936290, 4220936379, 4220936232, 4220935873], "tags": {"amenity": "cafe", "building": "yes", "contact:facebook": "https://www.facebook.com/COFFIE80", "name": "Bar Caff\u00e9 80"}}, {"type": "way", "id": 422368707, "nodes": [4221004146, 4221003510, 4221003692, 4221003742, 4221003771, 4221003821, 4221003800, 4221004989, 4221004146], "tags": {"amenity": "restaurant", "building": "yes", "cuisine": "fish", "name": "Marea", "phone": "+39 0831 524084", "website": "https://www.mareabrindisi.com/"}}, {"type": "way", "id": 422909535, "nodes": [4226339057, 4226338817, 4226338654, 4226338668, 4226338521, 4226338600, 4226338683, 4226338835, 4226338851, 4226338859, 4226338995, 4226339024, 4226339021, 4226339057], "tags": {"addr:city": "Grottaglie", "addr:housenumber": "3", "addr:postcode": "74023", "addr:street": "Via Leone XIII", "amenity": "restaurant", "building": "yes", "cuisine": "pizza;italian;pasta", "name": "Hestia - Ristorante Pizzeria Wine Bar", "phone": "3513232714"}}, {"type": "way", "id": 457464712, "nodes": [4201025059, 4536076157, 4536076158, 4536076159, 4536076160, 4201025062, 4201025002, 4201025059], "tags": {"addr:city": "Cisternino", "addr:postcode": "72014", "addr:street": "Via Francesco Clarizia", "amenity": "cafe", "building": "yes", "name": "Baci e Abbracci"}}, {"type": "way", "id": 603580920, "nodes": [5729605182, 5729605183, 5729605184, 5729605185, 5729605182], "tags": {"amenity": "restaurant", "building": "yes"}}, {"type": "way", "id": 614576882, "nodes": [5813316633, 4203390220, 5813316632, 4203390625, 4203390614, 4203390420, 5813316633], "tags": {"amenity": "restaurant", "building": "yes", "name": "Il Brigantino", "phone": "+39 0831 966466"}}, {"type": "way", "id": 755647292, "nodes": [7058161705, 7058161702, 7058161703, 7058161704, 7058161705], "tags": {"amenity": "cafe", "building": "yes", "building:levels": "1", "name:signed": "no"}}, {"type": "way", "id": 1195939171, "nodes": [11098420357, 11098420358, 11098420359, 11098420360, 11098420361, 11098420362, 11098420363, 11098420364, 11098420357], "tags": {"amenity": "cafe", "building": "yes", "fixme": "exact position"}}]}