{"version": 0.6, "generator": "Overpass API 0.7.62.7 375dc00a", "osm3s": {"timestamp_osm_base": "2025-06-14T14:30:01Z", "copyright": "The data included in this document is from www.openstreetmap.org. The data is made available under ODbL."}, "elements": [{"type": "node", "id": 420817791, "lat": 42.3792169, "lon": 18.8321181, "tags": {"amenity": "restaurant", "cuisine": "Montenegrin", "name": "Nevjesta Jadrana", "name:sr": "\u041d\u0435\u0432\u0458\u0435\u0441\u0442\u0430 \u0408\u0430\u0434\u0440\u0430\u043d\u0430", "outdoor_seating": "yes", "source": "https://nevjestajadrana.weebly.com/", "website": "https://nevjestajadrana.weebly.com/", "wheelchair": "limited"}}, {"type": "node", "id": 420824358, "lat": 42.4327004, "lon": 18.8279384, "tags": {"amenity": "restaurant", "name": "Etno Selo \"Kadmi\""}}, {"type": "node", "id": 420834846, "lat": 42.4360953, "lon": 18.8469493, "tags": {"amenity": "cafe", "name": "Kafana Kod Pera na Bukovicu", "note": "Oldest montenegrin cafe"}}, {"type": "node", "id": 421707472, "lat": 42.4255732, "lon": 18.8003947, "tags": {"amenity": "restaurant", "cuisine": "fish;grill", "name": "Konoba Krstac"}}, {"type": "node", "id": 424982901, "lat": 42.3980811, "lon": 18.8399472, "tags": {"air_conditioning": "no", "amenity": "restaurant", "check_date": "2024-08-26", "contact:facebook": "https://www.facebook.com/Vladika-Restoran-100083059702528/", "contact:instagram": "vladika_restoran", "contact:phone": "00382 67 220 141", "cuisine": "regional", "name": "Vladika", "name:sr": "\u0412\u0438\u0434\u0438\u043a\u043e\u0432\u0430\u0446", "outdoor_seating": "yes", "toilets": "yes", "website": "http://vladika-restaurant.com"}}, {"type": "node", "id": 517251340, "lat": 42.4242544, "lon": 18.7710868, "tags": {"amenity": "cafe", "name": "Pisatera"}}, {"type": "node", "id": 517251342, "lat": 42.4252784, "lon": 18.7718394, "tags": {"amenity": "restaurant", "name": "Walker"}}, {"type": "node", "id": 517251343, "lat": 42.4273297, "lon": 18.7722539, "tags": {"amenity": "restaurant", "name": "Bastion 3"}}, {"type": "node", "id": 529471464, "lat": 42.3876787, "lon": 18.9251786, "tags": {"air_conditioning": "yes", "amenity": "restaurant", "check_date": "2024-04-03", "check_date:opening_hours": "2023-06-28", "diet:vegan": "yes", "diet:vegetarian": "yes", "internet_access": "wlan", "name": "Gradska kafana", "opening_hours:signed": "no", "payment:cash": "yes", "payment:credit_cards": "yes", "payment:debit_cards": "yes", "payment:free": "yes", "smoking": "outside", "wheelchair": "yes"}}, {"type": "node", "id": 695865026, "lat": 42.4248083, "lon": 18.7714833, "tags": {"amenity": "restaurant", "check_date": "2024-08-26", "cuisine": "seafood;italian", "internet_access": "wlan", "name": "Kantun"}}, {"type": "node", "id": 695872523, "lat": 42.4492985, "lon": 18.7529953, "tags": {"amenity": "restaurant", "name": "Taverna Kroket"}}, {"type": "node", "id": 695872530, "lat": 42.4488315, "lon": 18.7539659, "tags": {"amenity": "restaurant", "cuisine": "Crno Gorski / Italian", "name": "Konoba Lanterna"}}, {"type": "node", "id": 697788577, "lat": 42.4533164, "lon": 18.7487266, "tags": {"amenity": "cafe", "name": "Cafe Centar Prcanj"}}, {"type": "node", "id": 705223456, "lat": 42.4261359, "lon": 18.7722712, "tags": {"amenity": "restaurant", "check_date": "2024-08-26", "cuisine": "seafood", "internet_access": "wlan", "internet_access:fee": "no", "name": "Bastion", "name:sr": "\u0411\u0430\u0441\u0442\u0438\u043e\u043d"}}, {"type": "node", "id": 777306883, "lat": 42.42721, "lon": 18.5564253, "tags": {"amenity": "restaurant", "cuisine": "seafood", "internet_access": "wlan", "name": "Konoba Adriatic"}}, {"type": "node", "id": 777306889, "lat": 42.4266193, "lon": 18.5560886, "tags": {"amenity": "restaurant", "name": "Konoba Aragosta"}}, {"type": "node", "id": 778239380, "lat": 42.3876086, "lon": 18.9265371, "tags": {"addr:city": "Cetinje", "addr:street": "Ulica Vojvode Batri\u0107a", "amenity": "restaurant", "check_date": "2025-06-01", "comment": "name is \"Caffe\" but it's a restaurant", "internet_access": "wlan", "internet_access:fee": "customers", "name": "Pjat", "payment:cash": "yes", "payment:credit_cards": "yes", "payment:debit_cards": "yes", "wheelchair": "limited"}}, {"type": "node", "id": 971645056, "lat": 42.4302105, "lon": 18.700775, "tags": {"amenity": "restaurant", "name": "Baccus"}}, {"type": "node", "id": 971645292, "lat": 42.4308153, "lon": 18.6992832, "tags": {"amenity": "cafe"}}, {"type": "node", "id": 971645396, "lat": 42.4303934, "lon": 18.6970406, "tags": {"amenity": "cafe", "cuisine": "pizza", "name": "Caffe bar KLM"}}, {"type": "node", "id": 1125555246, "lat": 42.389672, "lon": 18.7393569}, {"type": "node", "id": 1125555286, "lat": 42.3895577, "lon": 18.7391179}, {"type": "node", "id": 1125555643, "lat": 42.3897843, "lon": 18.7392585}, {"type": "node", "id": 1126082064, "lat": 42.392765, "lon": 18.6718487}, {"type": "node", "id": 1126082262, "lat": 42.3927674, "lon": 18.6720688}, {"type": "node", "id": 1126082609, "lat": 42.3926861, "lon": 18.6719776}, {"type": "node", "id": 1126082911, "lat": 42.3928463, "lon": 18.6719399}, {"type": "node", "id": 1255274166, "lat": 42.4171242, "lon": 18.7222368, "tags": {"amenity": "restaurant"}}, {"type": "node", "id": 1357162238, "lat": 42.4419014, "lon": 18.7703022, "tags": {"addr:housename": "SILVER MOON", "addr:housenumber": "12", "addr:postcode": "85330", "addr:street": "SVETA VRACHA", "amenity": "restaurant", "cuisine": "international", "int_name": "SILVER MOON", "name": "SILVER MOON", "source": "+382 32 330322", "website": "www.silver-moon.me"}}, {"type": "node", "id": 1508677751, "lat": 42.428911, "lon": 18.7682283}, {"type": "node", "id": 1508677829, "lat": 42.4289849, "lon": 18.768296}, {"type": "node", "id": 1508677847, "lat": 42.4288336, "lon": 18.7682175}, {"type": "node", "id": 1593371880, "lat": 42.4514576, "lon": 18.5367917}, {"type": "node", "id": 1593371897, "lat": 42.4515073, "lon": 18.5366126}, {"type": "node", "id": 1593371926, "lat": 42.4515245, "lon": 18.5368259}, {"type": "node", "id": 1593371945, "lat": 42.4515743, "lon": 18.5366467}, {"type": "node", "id": 1593372066, "lat": 42.4520606, "lon": 18.5366106}, {"type": "node", "id": 1593372079, "lat": 42.4521363, "lon": 18.5366621}, {"type": "node", "id": 1597914399, "lat": 42.4518221, "lon": 18.5341824, "tags": {"amenity": "restaurant", "name": "Gradska Kafana", "name:sr": "\u0413\u0440\u0430\u0434\u0441\u043a\u0430 \u043a\u0430\u0444\u0430\u043d\u0430", "opening_hours": "Mo-Su 07:00-00:00"}}, {"type": "node", "id": 1720905605, "lat": 42.4504951, "lon": 18.5423112, "tags": {"amenity": "restaurant", "cuisine": "regional", "name": "Aquarius", "smoking": "yes", "wheelchair": "yes"}}, {"type": "node", "id": 1720905610, "lat": 42.4519191, "lon": 18.5370382, "tags": {"amenity": "restaurant", "name": "Pizzeria Lokanda", "name:sr": "\u041f\u0438\u0446\u0435\u0440\u0438\u0458\u0430 \u041b\u043e\u043a\u0430\u043d\u0434\u0430"}}, {"type": "node", "id": 1720905614, "lat": 42.4514056, "lon": 18.5408323, "tags": {"amenity": "restaurant", "cuisine": "regional", "internet_access": "wlan", "name": "Pizzeria Pic-Nic", "opening_hours": "09:00-23:00"}}, {"type": "node", "id": 1720905694, "lat": 42.4508842, "lon": 18.5335707, "tags": {"amenity": "restaurant", "name": "Bluefin Caffe Restaurant Bar Skver"}}, {"type": "node", "id": 1720905696, "lat": 42.4503907, "lon": 18.5356563, "tags": {"amenity": "restaurant", "cuisine": "regional", "name": "Tri Lipe", "name:sr": "\u0422\u0440\u0438 \u041b\u0438\u043f\u0435"}}, {"type": "node", "id": 1721115505, "lat": 42.450436, "lon": 18.5350574, "tags": {"amenity": "restaurant", "cuisine": "regional", "name": "Feral", "name:ru": "\u0424\u0435\u0440\u0430\u043b", "name:sr": "\u0424\u0435\u0440\u0430\u043b"}}, {"type": "node", "id": 1740287626, "lat": 42.4519076, "lon": 18.5345351, "tags": {"amenity": "cafe", "internet_access": "wlan", "name": "Buffet Beograd"}}, {"type": "node", "id": 1744295854, "lat": 42.4513103, "lon": 18.5360471}, {"type": "node", "id": 1744295862, "lat": 42.4513847, "lon": 18.5361953}, {"type": "node", "id": 1744295863, "lat": 42.4514018, "lon": 18.53607}, {"type": "node", "id": 1746648716, "lat": 42.4532052, "lon": 18.5397074}, {"type": "node", "id": 1746648717, "lat": 42.4532184, "lon": 18.5394535}, {"type": "node", "id": 1746648738, "lat": 42.4532983, "lon": 18.5397163}, {"type": "node", "id": 1746648741, "lat": 42.4533114, "lon": 18.5394624}, {"type": "node", "id": 1747804335, "lat": 42.4509425, "lon": 18.5341029}, {"type": "node", "id": 1747804336, "lat": 42.4509802, "lon": 18.5339754}, {"type": "node", "id": 1747804337, "lat": 42.4510285, "lon": 18.5341495}, {"type": "node", "id": 1747804338, "lat": 42.4510662, "lon": 18.534022}, {"type": "node", "id": 1760251962, "lat": 42.4863917, "lon": 18.6978082, "tags": {"amenity": "restaurant", "name": "\u0110ardin"}}, {"type": "node", "id": 1760252308, "lat": 42.4860665, "lon": 18.6982938}, {"type": "node", "id": 1760252329, "lat": 42.4861386, "lon": 18.6981419}, {"type": "node", "id": 1760252361, "lat": 42.4861688, "lon": 18.6980782}, {"type": "node", "id": 1760252367, "lat": 42.4861897, "lon": 18.6984013}, {"type": "node", "id": 1760252445, "lat": 42.486292, "lon": 18.6981857}, {"type": "node", "id": 1760637995, "lat": 42.4852817, "lon": 18.7031251}, {"type": "node", "id": 1760638002, "lat": 42.4853369, "lon": 18.7028834}, {"type": "node", "id": 1760638036, "lat": 42.4856153, "lon": 18.6993105}, {"type": "node", "id": 1760638043, "lat": 42.4856643, "lon": 18.6992273}, {"type": "node", "id": 1760638047, "lat": 42.4856895, "lon": 18.6993908}, {"type": "node", "id": 1760638052, "lat": 42.4857385, "lon": 18.6993077}, {"type": "node", "id": 1763142389, "lat": 42.4509523, "lon": 18.5730861}, {"type": "node", "id": 1763866086, "lat": 42.4504856, "lon": 18.5737567}, {"type": "node", "id": 1763866100, "lat": 42.4505594, "lon": 18.5736921}, {"type": "node", "id": 1766728539, "lat": 42.4568311, "lon": 18.5230435, "tags": {"amenity": "restaurant", "name": "Kantula"}}, {"type": "node", "id": 1768970052, "lat": 42.4566171, "lon": 18.522768, "tags": {"amenity": "restaurant", "name": "Cru\u0161o"}}, {"type": "node", "id": 1768970055, "lat": 42.4496114, "lon": 18.5483664, "tags": {"amenity": "restaurant", "cuisine": "pizza", "level": "0", "microbrewery": "no", "name": "Splendido", "opening_hours": "Mo-Su 08:00-24:00", "outdoor_seating": "yes", "smoking": "yes"}}, {"type": "node", "id": 1838802225, "lat": 42.4490564, "lon": 18.5743687, "tags": {"amenity": "cafe"}}, {"type": "node", "id": 1861317695, "lat": 42.4510928, "lon": 18.5365671}, {"type": "node", "id": 1861317701, "lat": 42.4511253, "lon": 18.5366083}, {"type": "node", "id": 1861317702, "lat": 42.4511267, "lon": 18.5365004}, {"type": "node", "id": 1861317708, "lat": 42.4511875, "lon": 18.5365183}, {"type": "node", "id": 1878437167, "lat": 42.373328, "lon": 18.8689314, "tags": {"amenity": "restaurant"}}, {"type": "node", "id": 1878519280, "lat": 42.4562239, "lon": 18.524812, "tags": {"amenity": "cafe", "name": "More", "name:sr": "\u041c\u043e\u0440\u0435"}}, {"type": "node", "id": 1883132787, "lat": 42.4374081, "lon": 18.6139167, "tags": {"amenity": "cafe", "name": "Biss 9"}}, {"type": "node", "id": 1883132791, "lat": 42.436882, "lon": 18.6129273, "tags": {"amenity": "restaurant", "name": "Fanfani"}}, {"type": "node", "id": 1883132795, "lat": 42.4395894, "lon": 18.6228154, "tags": {"amenity": "cafe", "internet_access": "wlan", "name": "Habibi"}}, {"type": "node", "id": 1883132800, "lat": 42.4349982, "lon": 18.606983, "tags": {"amenity": "cafe", "name": "Nautica"}}, {"type": "node", "id": 1883132803, "lat": 42.4363855, "lon": 18.6110519, "tags": {"amenity": "cafe", "name": "Palma"}}, {"type": "node", "id": 1883132811, "lat": 42.4383039, "lon": 18.616505, "tags": {"amenity": "cafe", "name": "Rivjera"}}, {"type": "node", "id": 1883134825, "lat": 42.4387657, "lon": 18.6183562, "tags": {"amenity": "restaurant", "name": "Papagaj"}}, {"type": "node", "id": 1883600841, "lat": 42.4563594, "lon": 18.5243716, "tags": {"amenity": "cafe", "name": "Ambassada", "name:sr": "\u0410\u043c\u0431\u0430\u0441\u0430\u0434\u0430"}}, {"type": "node", "id": 1883600845, "lat": 42.4497828, "lon": 18.5392093, "tags": {"amenity": "restaurant", "name": "Banja bar", "name:sr": "\u0411\u0430\u045a\u0430 \u0431\u0430\u0440", "name:sr-Latn": "Banja bar"}}, {"type": "node", "id": 1883600846, "lat": 42.4508986, "lon": 18.5343499, "tags": {"addr:city": "Herceg Novi", "addr:housenumber": "24", "addr:street": "Vasa \u0106ukovi\u0107a", "amenity": "cafe", "internet_access": "wlan", "name": "Nautica", "opening_hours": "08:00-01:00"}}, {"type": "node", "id": 1883600849, "lat": 42.4507379, "lon": 18.5344038, "tags": {"amenity": "cafe", "name": "\u017dalo", "name:en": "Stanica", "name:sr": "\u0416\u0430\u043b\u043e"}}, {"type": "node", "id": 1888753390, "lat": 42.3814709, "lon": 18.9434052, "tags": {"amenity": "restaurant", "check_date": "2024-04-30", "cuisine": "regional", "name": "Belveder"}}, {"type": "node", "id": 1889010151, "lat": 42.3517334, "lon": 18.9328496, "tags": {"amenity": "restaurant", "name": "Konak"}}, {"type": "node", "id": 1945396589, "lat": 42.4123484, "lon": 18.7178459, "tags": {"amenity": "cafe", "indoor_seating": "yes", "name": "Cafenegro", "outdoor_seating": "yes"}}, {"type": "node", "id": 1987719957, "lat": 42.4520227, "lon": 18.5367131}, {"type": "node", "id": 1987719969, "lat": 42.4520983, "lon": 18.5367646}, {"type": "node", "id": 2026418140, "lat": 42.3965599, "lon": 18.6719065}, {"type": "node", "id": 2026418146, "lat": 42.3965944, "lon": 18.6718327}, {"type": "node", "id": 2026418161, "lat": 42.39667, "lon": 18.6720008}, {"type": "node", "id": 2026418168, "lat": 42.3967045, "lon": 18.671927}, {"type": "node", "id": 2039887829, "lat": 42.4275013, "lon": 18.699477}, {"type": "node", "id": 2039887836, "lat": 42.4275409, "lon": 18.6995934}, {"type": "node", "id": 2039887844, "lat": 42.4276091, "lon": 18.6994096}, {"type": "node", "id": 2039887848, "lat": 42.4276488, "lon": 18.699526}, {"type": "node", "id": 2039888156, "lat": 42.4289854, "lon": 18.6980682}, {"type": "node", "id": 2039888157, "lat": 42.4289974, "lon": 18.6979649}, {"type": "node", "id": 2039888190, "lat": 42.4291552, "lon": 18.6981044}, {"type": "node", "id": 2039888197, "lat": 42.4291672, "lon": 18.6980011}, {"type": "node", "id": 2050333830, "lat": 42.4563605, "lon": 18.5238372, "tags": {"amenity": "cafe", "name": "Lobelia"}}, {"type": "node", "id": 2050333836, "lat": 42.4527843, "lon": 18.529688, "tags": {"addr:floor": "0", "addr:housenumber": "18A", "addr:street": "Setaliste", "amenity": "cafe", "check_date": "2025-05-24", "description": "Wifi password: volimpeters", "internet_access": "wlan", "internet_access:fee": "customers", "internet_access:password": "volimpeters", "level": "0", "name": "Peter's pie & coffee", "outdoor_seating": "yes", "payment:cash": "yes", "payment:credit_cards": "yes", "phone": "+382(0)679148180", "smoking": "outside", "toilets": "yes", "toilets:menstrual_products": "no", "toilets:wheelchair": "no", "website": "www.peterspie.wordpress.com", "wheelchair": "no"}}, {"type": "node", "id": 2104005686, "lat": 42.4524609, "lon": 18.5300861, "tags": {"amenity": "cafe", "name": "\u0110ir", "name:sr": "\u0402\u0438\u0440"}}, {"type": "node", "id": 2106803657, "lat": 42.4516269, "lon": 18.5367998, "tags": {"amenity": "cafe", "cuisine": "pizza", "name": "\"5\"", "name:sr": "5"}}, {"type": "node", "id": 2161283727, "lat": 42.549782, "lon": 18.7134313, "tags": {"amenity": "cafe", "name": "Kafana Grkavac"}}, {"type": "node", "id": 2169454954, "lat": 42.3564949, "lon": 19.0237085}, {"type": "node", "id": 2169454955, "lat": 42.3563982, "lon": 19.0237185}, {"type": "node", "id": 2169454956, "lat": 42.3564103, "lon": 19.0239304}, {"type": "node", "id": 2169454957, "lat": 42.356507, "lon": 19.0239203}, {"type": "node", "id": 2169454983, "lat": 42.3559433, "lon": 19.0245503}, {"type": "node", "id": 2169454993, "lat": 42.3558649, "lon": 19.0246387}, {"type": "node", "id": 2169455005, "lat": 42.355992, "lon": 19.024551}, {"type": "node", "id": 2169455006, "lat": 42.3560296, "lon": 19.024612}, {"type": "node", "id": 2169455009, "lat": 42.3559228, "lon": 19.0247325}, {"type": "node", "id": 2169455011, "lat": 42.3559635, "lon": 19.0245831}, {"type": "node", "id": 2176814040, "lat": 42.4593816, "lon": 18.6816455}, {"type": "node", "id": 2176814108, "lat": 42.4593377, "lon": 18.6817248}, {"type": "node", "id": 2176814161, "lat": 42.4593899, "lon": 18.6817778}, {"type": "node", "id": 2176814256, "lat": 42.4594338, "lon": 18.6816985}, {"type": "node", "id": 2176928961, "lat": 42.4240562, "lon": 18.7761552}, {"type": "node", "id": 2176928962, "lat": 42.4241201, "lon": 18.7760813}, {"type": "node", "id": 2176928972, "lat": 42.4240391, "lon": 18.7759526}, {"type": "node", "id": 2176928982, "lat": 42.4239752, "lon": 18.7760265}, {"type": "node", "id": 2177310364, "lat": 42.4289664, "lon": 18.7683071}, {"type": "node", "id": 2177310378, "lat": 42.4290656, "lon": 18.7686233}, {"type": "node", "id": 2177310382, "lat": 42.4289842, "lon": 18.7684868}, {"type": "node", "id": 2177749868, "lat": 42.4296443, "lon": 18.6997358, "tags": {"amenity": "restaurant", "cuisine": "regional", "name": "Recoletta", "wheelchair": "yes"}}, {"type": "node", "id": 2178481060, "lat": 42.4309393, "lon": 18.6985719, "tags": {"amenity": "cafe"}}, {"type": "node", "id": 2189776163, "lat": 42.450857, "lon": 18.5479703, "tags": {"amenity": "cafe"}}, {"type": "node", "id": 2189776226, "lat": 42.4554033, "lon": 18.5617841, "tags": {"amenity": "restaurant", "name": "Palma"}}, {"type": "node", "id": 2201798005, "lat": 42.3878268, "lon": 18.925755, "tags": {"addr:housenumber": "24", "addr:street": "Ulica Njego\u0161eva", "amenity": "restaurant", "check_date": "2025-06-01", "cuisine": "local;pizza;breakfast;sandwich;chicken;pasta", "internet_access": "wlan", "name": "Restoran Korzo", "payment:cash": "yes", "payment:credit_cards": "yes", "payment:debit_cards": "yes", "phone": "+382675723", "wheelchair": "limited"}}, {"type": "node", "id": 2214430863, "lat": 42.4312552, "lon": 18.8275064, "tags": {"amenity": "restaurant", "name": "Restoran Zora"}}, {"type": "node", "id": 2222685519, "lat": 42.6883079, "lon": 18.9890212, "tags": {"amenity": "restaurant", "name": "Koliba Bogeti\u0107i"}}, {"type": "node", "id": 2242615494, "lat": 42.3566502, "lon": 19.0316731, "tags": {"amenity": "restaurant", "cuisine": "fish", "name": "Poslednja Luka"}}, {"type": "node", "id": 2278747094, "lat": 42.4583132, "lon": 18.52553, "tags": {"amenity": "cafe", "name": "Crem cafe"}}, {"type": "node", "id": 2278796979, "lat": 42.7749018, "lon": 18.9497831, "tags": {"amenity": "restaurant", "cuisine": "regional", "internet_access": "wlan", "name": "Konoba Portun", "opening_hours": "Mo-Su 08:00-23:00", "phone": "+382 40 212 336"}}, {"type": "node", "id": 2283108222, "lat": 42.4515945, "lon": 18.5374011, "tags": {"addr:housenumber": "2", "addr:street": "Trg Herceg Stjepana", "amenity": "cafe", "email": "vrgolabelavista@gmail.com", "internet_access": "wlan", "internet_access:fee": "customers", "internet_access:password": "belavista2018", "internet_access:ssid": "Belavista", "name": "Belavista", "name:en": "Belavista", "name:sr": "\u0411\u0435\u043b\u0430\u0432\u0438\u0441\u0442\u0430", "phone": "+382 31 200 588"}}, {"type": "node", "id": 2283108224, "lat": 42.451646, "lon": 18.5376249, "tags": {"amenity": "cafe", "internet_access": "wlan", "name": "Stari Grad", "name:sr": "\u0421\u0442\u0430\u0440\u0438 \u0433\u0440\u0430\u0434"}}, {"type": "node", "id": 2283108233, "lat": 42.4512989, "lon": 18.5374354, "tags": {"addr:housenumber": "8", "addr:postcode": "85340", "addr:street": "Trg Herceg Stjepana", "amenity": "cafe", "cuisine": "pizza", "name": "Cappucino", "name:en": "Cafe Rene", "name:sr": "\u041a\u0430\u0444\u0435 \u0420\u0435\u043d\u0435"}}, {"type": "node", "id": 2283108234, "lat": 42.451268, "lon": 18.5376302, "tags": {"amenity": "restaurant", "cuisine": "international", "delivery": "yes", "name": "Portofino", "name:sr": "\u041f\u043e\u0440\u0442\u043e\u0444\u0438\u043d\u043e", "opening_hours": "Mo-Sa 8:00-22:00; Su 9:00-22:00", "operator": "Miodrag Koprivica & Zeljko Koprivica", "outdoor_seating": "yes", "phone": "+382 68 205 323", "smoking": "outside", "takeaway": "yes", "wheelchair": "limited"}}, {"type": "node", "id": 2306706323, "lat": 42.4503829, "lon": 18.5351656, "tags": {"amenity": "restaurant", "name": "Cogo", "name:sr": "\u0426\u043e\u0433\u043e"}}, {"type": "node", "id": 2306706326, "lat": 42.4514527, "lon": 18.5361455, "tags": {"amenity": "restaurant", "name": "Kantina65", "opening_hours": "Mo-Sa 08:00-23:00"}}, {"type": "node", "id": 2306706329, "lat": 42.4512932, "lon": 18.5361724}, {"type": "node", "id": 2306706340, "lat": 42.4511485, "lon": 18.5364688}, {"type": "node", "id": 2311731885, "lat": 42.3948304, "lon": 18.5798799}, {"type": "node", "id": 2311731888, "lat": 42.3948705, "lon": 18.5798092}, {"type": "node", "id": 2311731890, "lat": 42.394898, "lon": 18.5799503}, {"type": "node", "id": 2311731891, "lat": 42.3949381, "lon": 18.5798795}, {"type": "node", "id": 2311731912, "lat": 42.3951567, "lon": 18.6703335}, {"type": "node", "id": 2311731917, "lat": 42.3952142, "lon": 18.6701571}, {"type": "node", "id": 2311731921, "lat": 42.3952733, "lon": 18.6702118}, {"type": "node", "id": 2311731922, "lat": 42.3952786, "lon": 18.6701956}, {"type": "node", "id": 2311731926, "lat": 42.3953413, "lon": 18.6704439}, {"type": "node", "id": 2311731928, "lat": 42.3953935, "lon": 18.6702836}, {"type": "node", "id": 2320443035, "lat": 42.4517406, "lon": 18.5383765, "tags": {"amenity": "restaurant", "diet:vegetarian": "yes", "internet_access": "no", "name": "Konoba Kara\u010da", "name:ru": "\u041a\u043e\u043d\u043e\u0431\u0430 \u041a\u0430\u0440\u0430\u0447\u0430", "name:sr": "\u041a\u043e\u043d\u043e\u0431\u0430 \u041a\u0430\u0440\u0430\u0447\u0430", "outdoor_seating": "yes"}}, {"type": "node", "id": 2331587861, "lat": 42.7720605, "lon": 18.9500736, "tags": {"addr:city": "Nik\u0161i\u0107", "addr:street": "Marka Miljanova", "amenity": "cafe", "cuisine": "cake;pizza", "name": "Pekara", "name:sr": "\u041f\u0435\u043a\u0430\u0440\u0430", "opening_hours": "07:30-20:00", "website": "http://pekara.me/"}}, {"type": "node", "id": 2332121830, "lat": 42.422341, "lon": 18.7698736}, {"type": "node", "id": 2332121850, "lat": 42.422386, "lon": 18.7700084}, {"type": "node", "id": 2332121856, "lat": 42.4224215, "lon": 18.7699312}, {"type": "node", "id": 2332121859, "lat": 42.4224257, "lon": 18.7698217}, {"type": "node", "id": 2332121863, "lat": 42.4224368, "lon": 18.7699772}, {"type": "node", "id": 2332121867, "lat": 42.4224554, "lon": 18.7699104}, {"type": "node", "id": 2338489911, "lat": 42.4532182, "lon": 18.5771241, "tags": {"amenity": "cafe"}}, {"type": "node", "id": 2339074592, "lat": 42.5449586, "lon": 18.9185318}, {"type": "node", "id": 2339074593, "lat": 42.5450526, "lon": 18.9184042}, {"type": "node", "id": 2339074594, "lat": 42.5451226, "lon": 18.9187543}, {"type": "node", "id": 2339074595, "lat": 42.5451458, "lon": 18.9185307}, {"type": "node", "id": 2339074596, "lat": 42.5452712, "lon": 18.9183605}, {"type": "node", "id": 2339074597, "lat": 42.545342, "lon": 18.9184566}, {"type": "node", "id": 2348351826, "lat": 42.4290417, "lon": 18.7686668}, {"type": "node", "id": 2402331377, "lat": 42.4703978, "lon": 18.7651531, "tags": {"amenity": "restaurant", "cuisine": "international", "name": "Kevalin"}}, {"type": "node", "id": 2425646891, "lat": 42.4529167, "lon": 18.5410086}, {"type": "node", "id": 2425646897, "lat": 42.4529908, "lon": 18.5410525}, {"type": "node", "id": 2425646900, "lat": 42.4529982, "lon": 18.5407556}, {"type": "node", "id": 2425646914, "lat": 42.4530723, "lon": 18.5407995}, {"type": "node", "id": 2433846310, "lat": 42.6075913, "lon": 18.686691, "tags": {"amenity": "restaurant", "name": "Dragaljska prica", "phone": "+38268461424"}}, {"type": "node", "id": 2441580351, "lat": 42.4568846, "lon": 18.5292685, "tags": {"amenity": "cafe", "name": "Herc Ogniste"}}, {"type": "node", "id": 2441580426, "lat": 42.4565889, "lon": 18.530105, "tags": {"amenity": "cafe"}}, {"type": "node", "id": 2444635315, "lat": 42.4438925, "lon": 18.7641811}, {"type": "node", "id": 2444635321, "lat": 42.4439171, "lon": 18.7641213}, {"type": "node", "id": 2444635328, "lat": 42.4439413, "lon": 18.7641396}, {"type": "node", "id": 2444635334, "lat": 42.4439626, "lon": 18.7640879}, {"type": "node", "id": 2444635340, "lat": 42.4439836, "lon": 18.76425}, {"type": "node", "id": 2444635342, "lat": 42.4440015, "lon": 18.7642066}, {"type": "node", "id": 2444635345, "lat": 42.4440495, "lon": 18.764243}, {"type": "node", "id": 2444635347, "lat": 42.4440776, "lon": 18.7641749}, {"type": "node", "id": 2446404708, "lat": 42.4506834, "lon": 18.5517812, "tags": {"amenity": "restaurant", "name": "Fontana"}}, {"type": "node", "id": 2470537096, "lat": 42.5136655, "lon": 18.6956819, "tags": {"amenity": "cafe", "name": "MM Park"}}, {"type": "node", "id": 2471241779, "lat": 42.4319422, "lon": 18.6937358, "tags": {"amenity": "restaurant", "name": "One"}}, {"type": "node", "id": 2474444176, "lat": 42.6805325, "lon": 18.9778809}, {"type": "node", "id": 2474444181, "lat": 42.6806072, "lon": 18.9780122}, {"type": "node", "id": 2474444182, "lat": 42.6806971, "lon": 18.9779175}, {"type": "node", "id": 2474444184, "lat": 42.6807371, "lon": 18.9779878}, {"type": "node", "id": 2474444185, "lat": 42.6805806, "lon": 18.9781201}, {"type": "node", "id": 2474444187, "lat": 42.6804774, "lon": 18.977939}, {"type": "node", "id": 2476943860, "lat": 42.4499815, "lon": 18.5528885, "tags": {"amenity": "restaurant", "name": "Savina", "name:sr": "\u0421\u0430\u0432\u0438\u043d\u0430"}}, {"type": "node", "id": 2479810386, "lat": 42.4853656, "lon": 18.7662795, "tags": {"amenity": "restaurant", "check_date": "2023-06-07", "name": "Stari Mlini"}}, {"type": "node", "id": 2504357373, "lat": 42.4513407, "lon": 18.5727995, "tags": {"amenity": "cafe"}}, {"type": "node", "id": 2504357391, "lat": 42.4523365, "lon": 18.5697607}, {"type": "node", "id": 2504357396, "lat": 42.4523827, "lon": 18.5696719}, {"type": "node", "id": 2504357397, "lat": 42.4524243, "lon": 18.5697117}, {"type": "node", "id": 2537042182, "lat": 42.4289485, "lon": 18.7007836}, {"type": "node", "id": 2537042186, "lat": 42.4289646, "lon": 18.7006553}, {"type": "node", "id": 2537042198, "lat": 42.4290173, "lon": 18.7007981}, {"type": "node", "id": 2537042202, "lat": 42.4290324, "lon": 18.7006713}, {"type": "node", "id": 2539521682, "lat": 42.4463551, "lon": 18.6869315, "tags": {"addr:city": "Tivat", "addr:housename": "Eco Hotel Carrubba", "addr:housenumber": "BB", "addr:street": "Donja Lastva", "amenity": "restaurant", "cuisine": "regional", "name": "Carrubba", "name:ru": "\u042d\u043a\u043e \u041e\u0442\u0435\u043b\u044c \u043a\u0430\u0440\u0440\u0443\u0431\u0431\u0430", "official_name": "Eco Hotel Carrubba", "website": "https://www.septemberhotels.com/"}}, {"type": "node", "id": 2589471136, "lat": 42.466863, "lon": 18.6746282, "tags": {"amenity": "cafe", "outdoor_seating": "yes"}}, {"type": "node", "id": 2631675247, "lat": 42.4860506, "lon": 18.6498452, "tags": {"amenity": "restaurant", "name": "\u0106atovi\u0107a Mlini"}}, {"type": "node", "id": 2641164107, "lat": 42.4287293, "lon": 18.7683402}, {"type": "node", "id": 2641164108, "lat": 42.4287465, "lon": 18.7683599}, {"type": "node", "id": 2641164110, "lat": 42.4287765, "lon": 18.7683205}, {"type": "node", "id": 2641164112, "lat": 42.428931, "lon": 18.7685322}, {"type": "node", "id": 2648448666, "lat": 42.4683052, "lon": 18.5654705, "tags": {"amenity": "restaurant", "name": "Etno ku\u0107a"}}, {"type": "node", "id": 2651938871, "lat": 42.5139899, "lon": 18.6951354}, {"type": "node", "id": 2651938872, "lat": 42.5140752, "lon": 18.6950685}, {"type": "node", "id": 2651938873, "lat": 42.5140219, "lon": 18.6949435}, {"type": "node", "id": 2651938874, "lat": 42.5139367, "lon": 18.6950104}, {"type": "node", "id": 2750951909, "lat": 42.4199254, "lon": 18.7944406}, {"type": "node", "id": 2750951911, "lat": 42.4199502, "lon": 18.794563}, {"type": "node", "id": 2750951913, "lat": 42.4200634, "lon": 18.7943893}, {"type": "node", "id": 2750951915, "lat": 42.4200882, "lon": 18.7945116}, {"type": "node", "id": 2764051226, "lat": 42.4506008, "lon": 18.5349726, "tags": {"amenity": "cafe", "name": "Flora Deserts", "note": "unique for Montenegro cafe, hand made chocolate candies, indian tea \"Masala chai\" etc.", "website": "https://www.tripadvisor.com/Restaurant_Review-g304080-d4444624-Reviews-Chocolaterie_Flora_Desserts-Herceg_Novi_Herceg_Novi_Municipality.html"}}, {"type": "node", "id": 2790723739, "lat": 42.4291824, "lon": 18.7005754, "tags": {"amenity": "restaurant", "name": "Mirna Luka"}}, {"type": "node", "id": 2790723758, "lat": 42.4301606, "lon": 18.6958454, "tags": {"amenity": "cafe", "name": "Riva`s"}}, {"type": "node", "id": 2974515706, "lat": 42.4240945, "lon": 18.771215, "tags": {"amenity": "restaurant", "check_date": "2024-08-26", "cuisine": "italian", "indoor_seating": "yes", "name": "Pizzeria Sara", "name:sr": "\u041f\u0438\u0446\u0435\u0440\u0438\u0458\u0430 \u0421\u0430\u0440\u0430", "outdoor_seating": "yes"}}, {"type": "node", "id": 2976536599, "lat": 42.4814102, "lon": 18.5300066}, {"type": "node", "id": 2976536600, "lat": 42.481378, "lon": 18.5300866}, {"type": "node", "id": 2976536601, "lat": 42.4813281, "lon": 18.5300496}, {"type": "node", "id": 2976536602, "lat": 42.4813602, "lon": 18.5299696}, {"type": "node", "id": 2980152558, "lat": 42.406335, "lon": 18.712434, "tags": {"amenity": "restaurant", "name": "Kalardovo", "name:ru": "\u041a\u0430\u043b\u0430\u0440\u0434\u043e\u0432\u043e", "name:sr": "\u041a\u0430\u043b\u0430\u0440\u0434\u043e\u0432\u043e"}}, {"type": "node", "id": 2980306689, "lat": 42.4130548, "lon": 18.7121306, "tags": {"amenity": "restaurant", "cuisine": "fish", "name": "Marina", "name:sr": "\u041c\u0430\u0440\u0438\u043d\u0430"}}, {"type": "node", "id": 2982310333, "lat": 42.4497352, "lon": 18.5482327}, {"type": "node", "id": 2982310334, "lat": 42.4497588, "lon": 18.5480233}, {"type": "node", "id": 2982310335, "lat": 42.4497664, "lon": 18.5482392}, {"type": "node", "id": 2982310336, "lat": 42.44979, "lon": 18.5480298}, {"type": "node", "id": 2995425232, "lat": 42.6691906, "lon": 19.0283253}, {"type": "node", "id": 2995426033, "lat": 42.6691889, "lon": 19.0285163}, {"type": "node", "id": 2995426034, "lat": 42.6690772, "lon": 19.0284926}, {"type": "node", "id": 2995426035, "lat": 42.6690787, "lon": 19.0283235}, {"type": "node", "id": 3008308394, "lat": 42.3545183, "lon": 19.028233}, {"type": "node", "id": 3008308395, "lat": 42.3544862, "lon": 19.0281133}, {"type": "node", "id": 3008308396, "lat": 42.3544298, "lon": 19.028141}, {"type": "node", "id": 3008308397, "lat": 42.3544619, "lon": 19.0282606}, {"type": "node", "id": 3029229545, "lat": 42.4508367, "lon": 18.5345269, "tags": {"addr:city": "Herceg Novi", "addr:housenumber": "22", "addr:postcode": "85340", "addr:street": "Vasa \u0106ukovi\u0107a", "amenity": "cafe", "internet_access": "wlan", "name": "Porto", "name:sr": "\u041f\u043e\u0440\u0442\u043e", "opening_hours": "08:00-01:00"}}, {"type": "node", "id": 3079776509, "lat": 42.4227048, "lon": 18.7693487, "tags": {"amenity": "restaurant", "name": "Galion"}}, {"type": "node", "id": 3079803068, "lat": 42.3895364, "lon": 18.9244894, "tags": {"amenity": "restaurant", "amenity_1": "cafe", "check_date": "2025-06-01", "internet_access": "wlan", "internet_access:fee": "customers", "name": "NYC", "payment:cash": "yes", "payment:credit_cards": "yes", "payment:debit_cards": "yes", "website": "www.caffenyc.me", "wheelchair": "no"}}, {"type": "node", "id": 3081376284, "lat": 42.3974032, "lon": 18.5773003}, {"type": "node", "id": 3081376285, "lat": 42.3972416, "lon": 18.5773691}, {"type": "node", "id": 3081376286, "lat": 42.3973344, "lon": 18.5777686}, {"type": "node", "id": 3081376287, "lat": 42.3974961, "lon": 18.5776998}, {"type": "node", "id": 3102976406, "lat": 42.424474, "lon": 18.7716785, "tags": {"addr:city": "Kotor", "addr:housenumber": "340", "addr:postcode": "85330", "addr:street": "Pjaca od zatvora", "amenity": "restaurant", "cuisine": "italian", "indoor_seating": "yes", "internet_access": "wlan", "name": "La Catedral Pasta Bar", "outdoor_seating": "yes", "phone": "+382 69 360 707"}}, {"type": "node", "id": 3102976407, "lat": 42.4244645, "lon": 18.7702106, "tags": {"addr:housenumber": "369", "addr:postcode": "85330", "addr:street": "Stari grad", "amenity": "restaurant", "check_date": "2024-08-26", "cuisine": "mediterranean;local", "internet_access": "wlan", "name": "MOJA Kafanica", "outdoor_seating": "no", "phone": "+38269049653"}}, {"type": "node", "id": 3102976412, "lat": 42.4250547, "lon": 18.7708128, "tags": {"amenity": "cafe", "check_date": "2023-08-02", "cuisine": "italian;burger", "diet:vegan": "yes", "internet_access": "wlan", "internet_access:ssid": "OMBRACAFFE", "name": "Ombra", "outdoor_seating": "yes", "toilets": "yes"}}, {"type": "node", "id": 3102976414, "lat": 42.4255476, "lon": 18.771615, "tags": {"amenity": "restaurant", "name": "Rendez-Vous"}}, {"type": "node", "id": 3102976415, "lat": 42.4247889, "lon": 18.7701157, "tags": {"amenity": "cafe", "name": "San Giovanni"}}, {"type": "node", "id": 3102976416, "lat": 42.4236236, "lon": 18.7715728, "tags": {"addr:postcode": "85330", "amenity": "restaurant", "cuisine": "coffee_shop;fish;italian;tea", "name": "Scala Santa", "name:en": "Konoba Scala Santa", "name:ru": "\u041a\u043e\u043d\u043e\u0431\u0430 \u0421\u0446\u0430\u043b\u0430 \u0421\u0430\u043d\u0442\u0430", "opening_hours": "Mo-Su 09:00-23:00", "phone": "+382 67 393 458", "website": "https://myguidemontenegro.com/"}}, {"type": "node", "id": 3102976418, "lat": 42.4247158, "lon": 18.7704796, "tags": {"amenity": "restaurant", "name": "Vardar"}}, {"type": "node", "id": 3102976420, "lat": 42.424354, "lon": 18.770538, "tags": {"amenity": "cafe", "check_date": "2024-08-26", "name": "cesare"}}, {"type": "node", "id": 3102980588, "lat": 42.4254563, "lon": 18.7719403, "tags": {"amenity": "cafe", "name:en": "Old Winery", "name:sr": "\u0421\u0442\u0430\u0440\u0430 \u0432\u0438\u043d\u0430\u0440\u0438\u0458\u0430"}}, {"type": "node", "id": 3103056422, "lat": 42.4253235, "lon": 18.770917, "tags": {"addr:city": "Kotor", "addr:postcode": "85330", "addr:street": "Pjaca Sv. Luke", "amenity": "restaurant", "cuisine": "fish", "name": "Cesarica", "outdoor_seating": "yes", "phone": "+382 69 049 733"}}, {"type": "node", "id": 3103056424, "lat": 42.4245033, "lon": 18.7712032, "tags": {"amenity": "restaurant", "check_date": "2023-08-02", "cuisine": "pizza;burger", "diet:vegetarian": "yes", "internet_access": "wlan", "internet_access:fee": "customers", "internet_access:ssid": "CITY 2", "name": "Restaurant City", "outdoor_seating": "yes", "payment:cash": "yes", "toilets": "yes", "toilets:handwashing": "yes", "toilets:wheelchair": "no"}}, {"type": "node", "id": 3103064430, "lat": 42.4251059, "lon": 18.7704954, "tags": {"amenity": "cafe", "name": "Ombra"}}, {"type": "node", "id": 3103064432, "lat": 42.4247419, "lon": 18.7709335, "tags": {"amenity": "cafe", "cuisine": "pizza", "diet:vegetarian": "yes", "indoor_seating": "yes", "name": "Pronto", "name:en": "Pronto Pizza", "outdoor_seating": "no", "smoking": "no", "takeaway": "yes"}}, {"type": "node", "id": 3103064433, "lat": 42.4253608, "lon": 18.771145, "tags": {"addr:street": "Pjaca od Cirkula", "amenity": "restaurant", "cuisine": "fish;pasta;mediterranean;italian;coffee_shop;seafood;regional;ice_cream;juice;pizza", "entrance": "yes", "name": "Scorpion", "outdoor_seating": "yes", "smoking": "outside"}}, {"type": "node", "id": 3103998904, "lat": 42.4251575, "lon": 18.7712514, "tags": {"amenity": "cafe", "cuisine": "balkan", "internet_access": "wlan", "name": "Marinaio", "opening_hours": "Mo-Su 08:00-01:00"}}, {"type": "node", "id": 3252044622, "lat": 42.4514029, "lon": 18.5434175, "tags": {"amenity": "cafe", "name": "Saturnus"}}, {"type": "node", "id": 3377736964, "lat": 42.4508493, "lon": 18.574148, "tags": {"amenity": "restaurant", "name": "Zelenika", "name:en": "Ekspres restoran"}}, {"type": "node", "id": 3411084242, "lat": 42.775147, "lon": 18.949145, "tags": {"amenity": "cafe", "internet_access": "wlan", "name": "Amici"}}, {"type": "node", "id": 3431821243, "lat": 42.3994309, "lon": 18.5805137}, {"type": "node", "id": 3431821244, "lat": 42.399438, "lon": 18.5805788}, {"type": "node", "id": 3431821252, "lat": 42.3993238, "lon": 18.5805152}, {"type": "node", "id": 3431821253, "lat": 42.3993902, "lon": 18.5804914}, {"type": "node", "id": 3431821254, "lat": 42.3993962, "lon": 18.5805264}, {"type": "node", "id": 3431943501, "lat": 42.3984653, "lon": 18.5805834}, {"type": "node", "id": 3431943502, "lat": 42.3984483, "lon": 18.5806922}, {"type": "node", "id": 3431943503, "lat": 42.3982877, "lon": 18.5806471}, {"type": "node", "id": 3431943504, "lat": 42.3983007, "lon": 18.580545}, {"type": "node", "id": 3452449036, "lat": 42.39216, "lon": 18.9214401, "tags": {"addr:city": "Cetinje", "addr:housenumber": "12", "addr:street": "Bulevar Crnogorskih Junaka", "amenity": "restaurant", "check_date": "2025-06-01", "contact:phone": "+382 41 231 640", "cuisine": "regional", "internet_access": "wlan", "name": "Kole", "opening_hours": "Mo-Su 07:00-23:00", "operator": "WiFi: 88888888", "payment:cash": "yes", "payment:free": "yes", "ref:vatin": "02670704", "wheelchair": "limited"}}, {"type": "node", "id": 3499186658, "lat": 42.3981537, "lon": 18.7684838}, {"type": "node", "id": 3499186660, "lat": 42.3981672, "lon": 18.7683651}, {"type": "node", "id": 3499186663, "lat": 42.3982437, "lon": 18.7685026}, {"type": "node", "id": 3499186665, "lat": 42.3982572, "lon": 18.7683839}, {"type": "node", "id": 3609841636, "lat": 42.4891871, "lon": 18.6494736, "tags": {"amenity": "cafe", "cuisine": "fish;regional;international;pizza;local;coffee_shop", "internet_access": "wlan", "name": "Tramontana"}}, {"type": "node", "id": 3635242255, "lat": 42.3324982, "lon": 18.7338432, "tags": {"amenity": "cafe"}}, {"type": "node", "id": 3635306580, "lat": 42.3757616, "lon": 18.7507384}, {"type": "node", "id": 3635306581, "lat": 42.375767, "lon": 18.7511153}, {"type": "node", "id": 3635306582, "lat": 42.3757971, "lon": 18.7512299}, {"type": "node", "id": 3635306583, "lat": 42.3758353, "lon": 18.7507088}, {"type": "node", "id": 3635306584, "lat": 42.3759063, "lon": 18.750816}, {"type": "node", "id": 3635306585, "lat": 42.3759172, "lon": 18.7511596}, {"type": "node", "id": 3635306586, "lat": 42.3759336, "lon": 18.7508197}, {"type": "node", "id": 3635306587, "lat": 42.375939, "lon": 18.7512336}, {"type": "node", "id": 3635306589, "lat": 42.3759773, "lon": 18.7509638}, {"type": "node", "id": 3635306591, "lat": 42.3760455, "lon": 18.7511633}, {"type": "node", "id": 3635306592, "lat": 42.3760673, "lon": 18.7512262}, {"type": "node", "id": 3635308693, "lat": 42.3760919, "lon": 18.7508973}, {"type": "node", "id": 3635308695, "lat": 42.3761683, "lon": 18.7511596}, {"type": "node", "id": 3659211644, "lat": 42.6800636, "lon": 18.9780094}, {"type": "node", "id": 3659211645, "lat": 42.680132, "lon": 18.9778999}, {"type": "node", "id": 3659211646, "lat": 42.6801774, "lon": 18.9781407}, {"type": "node", "id": 3659211647, "lat": 42.6802457, "lon": 18.9780312}, {"type": "node", "id": 3680241851, "lat": 42.4519856, "lon": 18.7651878}, {"type": "node", "id": 3680241852, "lat": 42.4519874, "lon": 18.7653839}, {"type": "node", "id": 3680241855, "lat": 42.4521406, "lon": 18.765185}, {"type": "node", "id": 3680241856, "lat": 42.4521425, "lon": 18.7653812}, {"type": "node", "id": 3680242354, "lat": 42.4600101, "lon": 18.7646842}, {"type": "node", "id": 3680242355, "lat": 42.4600698, "lon": 18.7648646}, {"type": "node", "id": 3680242356, "lat": 42.4600855, "lon": 18.7646383}, {"type": "node", "id": 3680242357, "lat": 42.4601453, "lon": 18.7648187}, {"type": "node", "id": 3680242358, "lat": 42.4606468, "lon": 18.7641529}, {"type": "node", "id": 3680242359, "lat": 42.4606555, "lon": 18.7642439}, {"type": "node", "id": 3680242360, "lat": 42.4606795, "lon": 18.7641471}, {"type": "node", "id": 3680242361, "lat": 42.4606883, "lon": 18.7642382}, {"type": "node", "id": 3680242671, "lat": 42.4666505, "lon": 18.7628802}, {"type": "node", "id": 3680242673, "lat": 42.4666828, "lon": 18.7630936}, {"type": "node", "id": 3680242674, "lat": 42.4671667, "lon": 18.7627885}, {"type": "node", "id": 3680242676, "lat": 42.467177, "lon": 18.762956}, {"type": "node", "id": 3688365045, "lat": 42.4282096, "lon": 18.701759, "tags": {"addr:city": "Tivat", "addr:street": "Kalimanjska", "amenity": "restaurant", "cuisine": "regional", "name": "Mala Barka"}}, {"type": "node", "id": 3710496124, "lat": 42.4516153, "lon": 18.5378887, "tags": {"amenity": "restaurant", "changing_table": "no", "cuisine": "regional;fish", "internet_access": "wlan", "internet_access:fee": "no", "name": "Freska", "name:sr": "\u0424\u0440\u0435\u0441\u043a\u0430", "name:sr-Latn": "Freska", "outdoor_seating": "yes", "toilets": "yes", "wheelchair": "limited"}}, {"type": "node", "id": 3732121771, "lat": 42.4223379, "lon": 18.7117628, "tags": {"amenity": "restaurant", "cuisine": "pancake;breakfast;coffee_shop;pasta;pizza;mediterranean;sandwich", "name": "Exit"}}, {"type": "node", "id": 3758688038, "lat": 42.509812, "lon": 18.6964308}, {"type": "node", "id": 3758688039, "lat": 42.5098347, "lon": 18.6965233}, {"type": "node", "id": 3758688040, "lat": 42.509897, "lon": 18.6964978}, {"type": "node", "id": 3758688041, "lat": 42.509893, "lon": 18.6964737}, {"type": "node", "id": 3758688042, "lat": 42.5098762, "lon": 18.6964053}, {"type": "node", "id": 3773172671, "lat": 42.4898586, "lon": 18.7557748}, {"type": "node", "id": 3773172672, "lat": 42.4898718, "lon": 18.7558986}, {"type": "node", "id": 3773172673, "lat": 42.489843, "lon": 18.75591}, {"type": "node", "id": 3773172674, "lat": 42.489831, "lon": 18.7557781}, {"type": "node", "id": 3810099087, "lat": 42.3602322, "lon": 18.7605026, "tags": {"amenity": "restaurant", "cuisine": "local", "internet_access": "wlan", "name": "Konoba Velji Mlin", "name:ru": "\u0432\u0435\u043b\u044c\u0438 \u043c\u043b\u0438\u043d"}}, {"type": "node", "id": 3810107786, "lat": 42.3787012, "lon": 18.7516888, "tags": {"amenity": "restaurant"}}, {"type": "node", "id": 3810108303, "lat": 42.3808965, "lon": 18.7486418, "tags": {"amenity": "restaurant"}}, {"type": "node", "id": 4009538368, "lat": 42.439224, "lon": 18.6900957, "tags": {"amenity": "cafe", "name": "Caffe Opera"}}, {"type": "node", "id": 4009542478, "lat": 42.4411861, "lon": 18.6870392, "tags": {"amenity": "restaurant", "name": "Caffe-Pizzeria Big-Ben", "opening_hours": "Mo-Su 07:00-01:00", "website": "https://bigbentivat.com/", "website:menu": "https://bigbentivat.com/menu.html"}}, {"type": "node", "id": 4009861830, "lat": 42.4394547, "lon": 18.6856296, "tags": {"amenity": "restaurant", "check_date": "2024-07-19", "contact:facebook": "Ponta", "contact:instagram": "ponta_seljanovo", "email": "isc.ilija@hotmail.com", "internet_access": "wlan", "internet_access:ssid": "Ponta", "name": "Ponta", "opening_hours": "Mo-Su 07:00-24:00", "phone": "+382 69 011 053", "source": "survey"}}, {"type": "node", "id": 4111976792, "lat": 42.3886866, "lon": 18.7400869, "tags": {"amenity": "cafe", "cuisine": "balkan;cake;chicken;coffee_shop;croatian;curry;diner;donut;fish;fish_and_chips;french;german;greek;grill;hungarian;ice_cream;international;italian;local;mediterranean;pancake;pasta;regional;russian;sausage;savory_pancakes;seafood;tea", "diet:vegan": "yes", "diet:vegetarian": "yes", "internet_access": "wlan", "name": "Express Restaurant & Cafe HDL", "opening_hours": "Mo-Su 07:00-22:00"}}, {"type": "node", "id": 4137151492, "lat": 42.452532, "lon": 18.5327406, "tags": {"addr:city": "Herceg Novi", "addr:housenumber": "23", "addr:postcode": "85000", "addr:street": "Njego\u0161eva", "amenity": "restaurant", "check_date": "2025-05-24", "cuisine": "barbecue;chicken;pizza;friture;burger;breakfast;coffee_shop;grill", "name": "Atelier Kafana & Pizzeria", "name:ru": "\u0410\u0442\u0435\u043b\u044c\u0435\u0440 \u041a\u0430\u0444\u0430\u043d\u0430 & \u041f\u0438\u0446\u0446\u0435\u0440\u0438\u044f", "name:sr": "\u0410\u0442\u0435\u043b\u0438\u0435\u0440 \u041a\u0430\u0444\u0430\u043d\u0430 & \u041f\u0438\u0446\u0435\u0440\u0438\u0458\u0430", "opening_hours": "Mo-Su 09:00-00:00", "outdoor_seating": "yes", "phone": "+38267077032", "smoking": "outside"}}, {"type": "node", "id": 4173393793, "lat": 42.4112215, "lon": 18.6452321, "tags": {"amenity": "restaurant", "check_date": "2024-08-26", "name": "Wolfi", "name:sr": "Wolfi"}}, {"type": "node", "id": 4207464824, "lat": 42.398543, "lon": 18.5806685, "tags": {"addr:street": "Zanjic BB", "amenity": "restaurant", "check_date": "2024-08-27", "cuisine": "mediterranean", "internet_access": "wlan", "name": "Cuba libre", "opening_hours": "24/7"}}, {"type": "node", "id": 4207476298, "lat": 42.3983554, "lon": 18.5806234, "tags": {"addr:city": "Lu\u0161tica", "addr:country": "ME", "addr:postcode": "85340", "addr:street": "\u017danjic", "amenity": "restaurant", "capacity": "50", "cuisine": "mediterranean;Boka_Bay;Montenegrin", "description": "Traditional family business, grew up on top of Lu\u0161tica peninsula, catching the heart of \u017danjic beach, the famous one entering Boka Bay gulf. SERVICES: Apartments Restaurant Secret Garden Cocktail Beach Bar Dock Mooring buoys Beach Diving Excursions", "email": "office@portoadriatic.me", "name": "Porto Adriatic", "opening_hours": "24/7", "outdoor_seating": "yes", "smoking": "outside", "takeaway": "yes", "website": "portoadriatic.me"}}, {"type": "node", "id": 4217579493, "lat": 42.3875357, "lon": 18.9256958, "tags": {"addr:housenumber": "69", "addr:postcode": "81250", "addr:street": "Ulica Njego\u0161eva", "amenity": "cafe", "check_date": "2025-03-02", "internet_access": "wlan", "name": "Njegos", "name:cs": "Njego\u0161", "opening_hours": "Mo-Su 07:00-02:00", "wheelchair": "no"}}, {"type": "node", "id": 4225526992, "lat": 42.7453561, "lon": 18.705267, "tags": {"amenity": "cafe", "name": "Cafe Podbozur"}}, {"type": "node", "id": 4249110089, "lat": 42.4307596, "lon": 18.8269695, "tags": {"amenity": "restaurant", "name": "Vale"}}, {"type": "node", "id": 4256747989, "lat": 42.7446183, "lon": 18.7796591, "tags": {"amenity": "restaurant", "check_date": "2024-06-16", "cuisine": "regional", "internet_access": "wlan", "name": "Konoba Krivokapic", "opening_hours": "07:00-23:00", "phone": "+382 68 053 181"}}, {"type": "node", "id": 4257560691, "lat": 42.4287534, "lon": 18.768955, "tags": {"addr:city": "Kotor", "addr:postcode": "85330", "addr:street": "Dobrota", "amenity": "restaurant", "check_date": "2024-09-12", "cuisine": "burger;pizza;pasta;salad;sandwich", "level": "0", "name": "Dobro'ta Steet Food", "name:en": "Dobro'ta Steet Food", "payment:cash": "yes", "payment:credit_cards": "yes", "payment:debit_cards": "yes"}}, {"type": "node", "id": 4273405102, "lat": 42.4284005, "lon": 18.5562683, "tags": {"amenity": "restaurant", "cuisine": "local;steak_house;fish;pasta", "name": "Forte Rose", "name:sr": "\u0424\u043e\u0440\u0442\u0435 \u0420\u043e\u0441\u0435"}}, {"type": "node", "id": 4278763889, "lat": 42.4425933, "lon": 18.6331648, "tags": {"amenity": "cafe", "name": "Barka"}}, {"type": "node", "id": 4290644094, "lat": 42.4359156, "lon": 18.6105639, "tags": {"addr:street": "Jadranska magistrala", "amenity": "cafe", "cuisine": "balkan", "name": "Sidro"}}, {"type": "node", "id": 4290877796, "lat": 42.4399842, "lon": 18.6195923, "tags": {"amenity": "cafe", "name": "Deli Radivoje"}}, {"type": "node", "id": 4294195991, "lat": 42.4273597, "lon": 18.7698759, "tags": {"addr:housenumber": "572", "amenity": "cafe", "internet_access": "wlan", "name": "Fortuna snack bar", "opening_hours": "Mo-Su 07:00-22:00"}}, {"type": "node", "id": 4308356524, "lat": 42.4604611, "lon": 18.7391715, "tags": {"amenity": "restaurant", "cuisine": "regional", "internet_access": "wlan", "name": "Konoba \"Boke\u0161ki Gu\u0161ti\"", "wheelchair": "limited"}}, {"type": "node", "id": 4316649489, "lat": 42.4280319, "lon": 18.7019018, "tags": {"addr:street": "Kalimanjska III", "amenity": "cafe", "cuisine": "grill;mediterranean", "name": "Sidro"}}, {"type": "node", "id": 4319696236, "lat": 42.4214409, "lon": 18.7683009, "tags": {"amenity": "restaurant", "check_date:opening_hours": "2021-10-13", "name": "Ladovina", "opening_hours": "Mo-Su 08:00-01:00"}}, {"type": "node", "id": 4323226289, "lat": 42.4196078, "lon": 18.7700844, "tags": {"amenity": "cafe", "check_date": "2024-09-14", "internet_access": "wlan", "level": "0", "name:cs": "Autobuska", "name:en": "Boka Restaurant", "opening_hours": "Mo-Su 06:00-23:00"}}, {"type": "node", "id": 4335109493, "lat": 42.4449576, "lon": 18.764665, "tags": {"addr:city": "Dobrota", "addr:housenumber": "1689", "addr:postcode": "85330", "addr:street": "Donji put", "amenity": "restaurant", "cuisine": "fish;seafood;regional", "internet_access:fee": "no", "level": "0", "name": "Konoba Portun", "opening_hours": "Mo-Sa 08:00-24:00", "outdoor_seating": "yes", "phone": "+382 68 086 101", "smoking": "yes", "toilets": "yes", "wheelchair": "limited"}}, {"type": "node", "id": 4341903633, "lat": 42.3864496, "lon": 18.6829093, "tags": {"amenity": "restaurant", "cuisine": "regional", "name": "Plaza", "name:sr": "\u041f\u043b\u0430\u0436\u0430"}}, {"type": "node", "id": 4341924980, "lat": 42.4651961, "lon": 18.7322881}, {"type": "node", "id": 4341924981, "lat": 42.4650655, "lon": 18.7322244}, {"type": "node", "id": 4341924982, "lat": 42.4650955, "lon": 18.7321183}, {"type": "node", "id": 4341924983, "lat": 42.465225, "lon": 18.7321834}, {"type": "node", "id": 4341924986, "lat": 42.4629104, "lon": 18.7364921}, {"type": "node", "id": 4341924987, "lat": 42.4628234, "lon": 18.736543}, {"type": "node", "id": 4341924988, "lat": 42.4628654, "lon": 18.7366446}, {"type": "node", "id": 4341925389, "lat": 42.4629494, "lon": 18.7365856}, {"type": "node", "id": 4341925390, "lat": 42.4629989, "lon": 18.7368316, "tags": {"amenity": "restaurant", "name": "Marius"}}, {"type": "node", "id": 4353492290, "lat": 42.5147, "lon": 18.6942064, "tags": {"amenity": "cafe", "cuisine": "local;grill;seafood;pizza;chicken;pasta;sandwich", "name": "Hipnos"}}, {"type": "node", "id": 4359711194, "lat": 42.4395063, "lon": 18.5908411, "tags": {"addr:postcode": "85340", "amenity": "restaurant", "name": "\u0420\u0435\u0441\u0442\u043e\u0440\u0430\u043d \u041e\u043b\u0438\u043c\u043f\u0438\u0458\u0430", "name:en": "Restoran Olimpija", "name:sr": "\u0420\u0435\u0441\u0442\u043e\u0440\u0430\u043d \u041e\u043b\u0438\u043c\u043f\u0438\u0458\u0430", "opening_hours": "Mo-Su 08:00-22:00", "phone": "+38231580235"}}, {"type": "node", "id": 4374434206, "lat": 42.4600071, "lon": 18.6760565}, {"type": "node", "id": 4374434207, "lat": 42.459977, "lon": 18.6760794}, {"type": "node", "id": 4374434208, "lat": 42.4600168, "lon": 18.6761751}, {"type": "node", "id": 4374434209, "lat": 42.4600468, "lon": 18.6761522}, {"type": "node", "id": 4376875916, "lat": 42.4409128, "lon": 18.6865641, "tags": {"addr:postcode": "85320", "addr:street": "Obala Seljanovo", "amenity": "restaurant", "cuisine": "burger;fish;barbecue;regional;pizza;sandwich", "email": "info@waikikibeach-tivat.com", "internet_access": "wlan", "name": "Waikiki Beach Resort", "operator": "Ljubo Arsi\u0107", "phone": "+38269141700", "website": "https://www.waikikibeach-tivat.com/"}}, {"type": "node", "id": 4376879119, "lat": 42.4837421, "lon": 18.7346485, "tags": {"amenity": "restaurant", "cuisine": "fish;fine_dining;local", "name": "Bajova Kula", "name:sr": "\u0411\u0430\u0458\u0438\u043d\u0430 \u043a\u0443\u043b\u0430"}}, {"type": "node", "id": 4379791183, "lat": 42.3943731, "lon": 18.6706365}, {"type": "node", "id": 4379791184, "lat": 42.3942915, "lon": 18.6707151}, {"type": "node", "id": 4379791185, "lat": 42.3943413, "lon": 18.6708097}, {"type": "node", "id": 4379791186, "lat": 42.3944228, "lon": 18.670731}, {"type": "node", "id": 4394842890, "lat": 42.6534052, "lon": 19.0370027, "tags": {"amenity": "restaurant", "name:ru": "Sokoline"}}, {"type": "node", "id": 4397889989, "lat": 42.42195, "lon": 18.7703859, "tags": {"addr:city": "Kotor", "addr:street": "Jadranska magistrala", "amenity": "restaurant", "contact:instagram": "https://www.instagram.com/bbq_tanjga/", "cuisine": "barbecue", "internet_access": "wlan", "name": "BBQ Tanjga", "name:ru": "Grill Tanjga", "opening_hours": "Mo-Fr 11:30-22:00; Sa 08:00-22:00; Su 11:30-22:00", "phone": "+38269863836"}}, {"type": "node", "id": 4400722989, "lat": 42.3891291, "lon": 18.9253768, "tags": {"amenity": "restaurant", "check_date": "2025-03-02", "internet_access": "wlan", "internet_access:fee": "customers", "name": "Crna Gora", "payment:cards": "no", "payment:cash": "yes", "payment:credit_cards": "no", "payment:debit_cards": "no", "wheelchair": "yes"}}, {"type": "node", "id": 4400778590, "lat": 42.3888113, "lon": 18.925649, "tags": {"amenity": "cafe", "check_date": "2025-03-02", "internet_access": "no", "name": "Caffe Talija", "payment:cash": "yes", "payment:free": "yes", "wheelchair": "limited"}}, {"type": "node", "id": 4400790590, "lat": 42.3887423, "lon": 18.925722, "tags": {"amenity": "restaurant", "check_date": "2025-03-02", "internet_access": "no", "name": "Pizzeria Cetinje", "payment:cash": "yes", "payment:credit_cards": "yes", "payment:debit_cards": "yes", "wheelchair": "limited"}}, {"type": "node", "id": 4402125291, "lat": 42.3880771, "lon": 18.9250072, "tags": {"amenity": "cafe", "check_date": "2025-01-11", "internet_access": "wlan", "name:cs": "Napoli"}}, {"type": "node", "id": 4402125292, "lat": 42.3880363, "lon": 18.9249431, "tags": {"amenity": "cafe", "check_date": "2025-01-11", "internet_access": "wlan", "name": "Dvor"}}, {"type": "node", "id": 4406161593, "lat": 42.4351887, "lon": 18.6081912, "tags": {"addr:street": "\u0434\u0436\u0435\u043d\u043e\u0432\u0438\u0447\u0438", "amenity": "restaurant", "internet_access": "wlan", "name:ru": "Konoba Bijeli Andjeo (\u0440\u0435\u0441\u0442\u043e\u0440\u0430\u043d \u0411\u0435\u043b\u044b\u0439 \u0410\u043d\u0433\u0435\u043b)"}}, {"type": "node", "id": 4407814915, "lat": 42.3898863, "lon": 18.9234665, "tags": {"addr:city": "Cetinje", "addr:housenumber": "103", "addr:postcode": "81250", "addr:street": "Ulica Njego\u0161eva", "air_conditioning": "yes", "amenity": "restaurant", "check_date": "2024-04-09", "cuisine": "regional;pizza", "internet_access": "no", "name": "Vinoteka", "name:ru": "\u0412\u0438\u043d\u043e\u0442\u0435\u043a\u0430", "name:sr": "\u0412\u0438\u043d\u043e\u0442\u0435\u043a\u0430", "opening_hours": "Mo-Su 07:30-00:30", "payment:cash": "no", "payment:free": "yes", "phone": "+38269267454", "smoking": "yes", "website": "https://www.instagram.com/vinoteka_cetinje/", "wheelchair": "limited"}}, {"type": "node", "id": 4407815503, "lat": 42.3895954, "lon": 18.923764, "tags": {"amenity": "cafe", "check_date": "2024-09-24", "internet_access": "wlan", "internet_access:fee": "customers", "name:cs": "Cafebar #Tag", "payment:cash": "yes", "payment:credit_cards": "yes", "payment:debit_cards": "yes", "wheelchair": "limited"}}, {"type": "node", "id": 4407816403, "lat": 42.3870839, "lon": 18.9261434, "tags": {"addr:housenumber": "5", "amenity": "cafe", "check_date": "2024-04-13", "name:cs": "Caffe l'Angolo", "name:en": "L'angolo", "opening_hours": "Mo-Su 08:00-00:00"}}, {"type": "node", "id": 4407823111, "lat": 42.389891, "lon": 18.9239997, "tags": {"amenity": "cafe", "check_date": "2024-03-24", "internet_access": "no", "name:cs": "Lipa", "payment:cash": "yes", "payment:credit_cards": "yes", "payment:debit_cards": "yes", "wheelchair": "yes"}}, {"type": "node", "id": 4407829190, "lat": 42.3900661, "lon": 18.9243327, "tags": {"amenity": "cafe", "check_date": "2024-09-24", "internet_access": "wlan", "internet_access:fee": "customers", "name": "Metro", "payment:cash": "yes", "payment:credit_cards": "yes", "payment:debit_cards": "yes", "wheelchair": "limited"}}, {"type": "node", "id": 4407829590, "lat": 42.3899686, "lon": 18.9241593, "tags": {"addr:street": "Bal\u0161i\u0107a pazar", "amenity": "cafe", "check_date": "2024-09-24", "contact:facebook": "100069234376621", "cuisine": "local", "internet_access": "wlan", "internet_access:fee": "customers", "name": "Pe\u0107ina", "name:cs": "Pe\u0107ina", "outdoor_seating": "yes", "payment:cash": "yes", "payment:credit_cards": "yes", "payment:debit_cards": "yes", "phone": "38267235335", "wheelchair": "yes"}}, {"type": "node", "id": 4410025198, "lat": 42.453502, "lon": 18.6533214, "tags": {"addr:housenumber": "82", "addr:street": "Jadranska magistrala", "amenity": "cafe", "internet_access": "wlan", "name": "Lounge bar Giardino", "opening_hours": "Mo-Su 07:00-00:00", "outdoor_seating": "yes"}}, {"type": "node", "id": 4410456393, "lat": 42.7738675, "lon": 18.948185, "tags": {"addr:city": "Nik\u0161i\u0107", "addr:housenumber": "16", "addr:postcode": "81400", "addr:street": "Trg Slobode", "amenity": "restaurant", "cuisine": "breakfast;bavarian;chicken;german;sausage;coffee_shop", "internet_access": "wlan", "name:en": "Oktoberfest Beer House", "opening_hours": "Mo-Su 08:00-00:00", "phone": "+38240226939"}}, {"type": "node", "id": 4413145595, "lat": 42.7744779, "lon": 18.9491759, "tags": {"amenity": "cafe", "name": "Gradska"}}, {"type": "node", "id": 4413196493, "lat": 42.7759794, "lon": 18.9530577, "tags": {"amenity": "cafe", "name": "Eagle"}}, {"type": "node", "id": 4413196495, "lat": 42.7745438, "lon": 18.9491959, "tags": {"amenity": "cafe", "name": "Recesija"}}, {"type": "node", "id": 4413196498, "lat": 42.7739965, "lon": 18.949439, "tags": {"amenity": "cafe", "name": "Fontana 2"}}, {"type": "node", "id": 4413196500, "lat": 42.7715646, "lon": 18.9480852, "tags": {"amenity": "cafe", "name:cs": "Mister", "name:sr": "\u041c\u0438\u0441\u0442\u0435\u0440"}}, {"type": "node", "id": 4413211190, "lat": 42.773328, "lon": 18.9567708, "tags": {"amenity": "restaurant", "cuisine": "regional", "internet_access": "wlan", "name": "Nutricia", "name:cs": "Nutricia", "name:en": "Nutricia", "name:ru": "\u041d\u0443\u0442\u0440\u0438\u0446\u0438\u044f", "name:sr": "\u041d\u0443\u0442\u0440\u0438\u0446\u0438\u0458\u0430"}}, {"type": "node", "id": 4413211193, "lat": 42.7733121, "lon": 18.9484048, "tags": {"amenity": "cafe", "name:cs": "Galerija Forum"}}, {"type": "node", "id": 4413211195, "lat": 42.7702217, "lon": 18.9470417, "tags": {"amenity": "cafe", "name:cs": "D&M"}}, {"type": "node", "id": 4413211197, "lat": 42.7719363, "lon": 18.9478903, "tags": {"amenity": "cafe", "name:cs": "Atrium"}}, {"type": "node", "id": 4413211198, "lat": 42.7720277, "lon": 18.9479392, "tags": {"amenity": "cafe", "name:cs": "D&G"}}, {"type": "node", "id": 4413286490, "lat": 42.7766298, "lon": 18.9530268, "tags": {"amenity": "cafe", "name": "La Perla"}}, {"type": "node", "id": 4413293591, "lat": 42.7705176, "lon": 18.9453999, "tags": {"amenity": "cafe", "name:cs": "Peron", "opening_hours": "Mo-Su 07:00-23:00", "outdoor_seating": "no"}}, {"type": "node", "id": 4413297391, "lat": 42.7747649, "lon": 18.9492735, "tags": {"amenity": "restaurant", "cuisine": "pizza", "name": "Garfield"}}, {"type": "node", "id": 4413297393, "lat": 42.7704528, "lon": 18.9469358, "tags": {"amenity": "restaurant", "name:cs": "Pizzeria Angolo"}}, {"type": "node", "id": 4413297589, "lat": 42.7756437, "lon": 18.952893, "tags": {"amenity": "cafe"}}, {"type": "node", "id": 4413886291, "lat": 42.7740644, "lon": 18.950165, "tags": {"amenity": "cafe", "name": "Bachus"}}, {"type": "node", "id": 4414379296, "lat": 42.4213997, "lon": 18.7701778, "tags": {"amenity": "cafe", "name:cs": "Le Gout"}}, {"type": "node", "id": 4414386892, "lat": 42.4240986, "lon": 18.7705721, "tags": {"amenity": "restaurant", "name": "Hotel Astoria", "name:cs": "Astoria", "name:en": "Astoria", "name:sr": "\u0410\u0441\u0442\u043e\u0440\u0438\u0458\u0430"}}, {"type": "node", "id": 4414393493, "lat": 42.4237452, "lon": 18.7713669, "tags": {"amenity": "restaurant", "cuisine": "local", "indoor_seating": "yes", "name": "Konoba Roma", "opening_hours": "Mo-Su 08:00-01:00", "outdoor_seating": "yes"}}, {"type": "node", "id": 4414393690, "lat": 42.4238481, "lon": 18.7716411, "tags": {"amenity": "cafe", "name": "Perper", "name:cs": "Perper", "name:en": "Perper"}}, {"type": "node", "id": 4414393691, "lat": 42.4241335, "lon": 18.7709173, "tags": {"addr:city": "Kotor", "addr:postcode": "85330", "addr:street": "Pjaca Sv. Tripuna", "amenity": "restaurant", "check_date": "2024-08-26", "name": "The Square Pub"}}, {"type": "node", "id": 4414393890, "lat": 42.42189, "lon": 18.770362, "tags": {"amenity": "cafe", "cuisine": "balkan", "diet:vegetarian": "yes", "name": "Tanjga", "name:cs": "Grill Tanjga", "opening_hours": "Mo-Su 08:30-22:00", "phone": "+38269863836"}}, {"type": "node", "id": 4420368889, "lat": 42.4822694, "lon": 18.6787392, "tags": {"amenity": "restaurant"}}, {"type": "node", "id": 4420726828, "lat": 42.7317989, "lon": 18.9378301, "tags": {"amenity": "cafe"}}, {"type": "node", "id": 4420726911, "lat": 42.7513629, "lon": 18.8828784, "tags": {"amenity": "cafe"}}, {"type": "node", "id": 4425094689, "lat": 42.77336, "lon": 18.9509221, "tags": {"addr:street": "Novice Cerovi\u0107a", "amenity": "restaurant", "cuisine": "regional;mediterranean;international;local", "internet_access": "wlan", "name": "Soko", "name:sr": "\u0421\u043e\u043a\u043e", "opening_hours": "Mo-Su 07:00-22:00"}}, {"type": "node", "id": 4552369422, "lat": 42.4254175, "lon": 18.7690786}, {"type": "node", "id": 4552369423, "lat": 42.4253048, "lon": 18.7692534}, {"type": "node", "id": 4552369424, "lat": 42.4253359, "lon": 18.7693898}, {"type": "node", "id": 4552369425, "lat": 42.4251997, "lon": 18.7694506}, {"type": "node", "id": 4552369426, "lat": 42.425144, "lon": 18.7694404}, {"type": "node", "id": 4552369427, "lat": 42.4251262, "lon": 18.7693722}, {"type": "node", "id": 4552369428, "lat": 42.4252278, "lon": 18.769329}, {"type": "node", "id": 4552369429, "lat": 42.4251921, "lon": 18.7692294}, {"type": "node", "id": 4552369430, "lat": 42.4253729, "lon": 18.76894}, {"type": "node", "id": 4552369431, "lat": 42.4253962, "lon": 18.7690094}, {"type": "node", "id": 4593290390, "lat": 42.7730111, "lon": 18.9485968, "tags": {"amenity": "cafe", "cuisine": "cake;coffee_shop;pizza", "internet_access": "wlan", "name:en": "Fontana", "name:ru": "\u0424\u043e\u043d\u0442\u0430\u043d\u0430"}}, {"type": "node", "id": 4595260289, "lat": 42.4566475, "lon": 18.525632, "tags": {"amenity": "restaurant", "cuisine": "sandwich;pasta;pizza;local", "internet_access": "wlan", "name:en": "Pizzeria Forte", "name:ru": "\u041f\u0438\u0446\u0446\u0435\u0440\u0438\u044f \u0424\u043e\u0440\u0442\u0435"}}, {"type": "node", "id": 4613932750, "lat": 42.4236163, "lon": 18.7771887}, {"type": "node", "id": 4613932751, "lat": 42.4235596, "lon": 18.7771495}, {"type": "node", "id": 4613932752, "lat": 42.4235371, "lon": 18.7772092}, {"type": "node", "id": 4613932753, "lat": 42.4235938, "lon": 18.7772483}, {"type": "node", "id": 4620249489, "lat": 42.7749032, "lon": 18.9526483, "tags": {"addr:postcode": "81400", "addr:street": "Danila Bojovi\u0107a", "amenity": "restaurant", "cuisine": "sandwich;pasta;breakfast;italian;pizza;mexican;mediterranean", "email": "casa.mia047@gmail.com", "internet_access": "wlan", "name": "Picerija Casa Mia", "name:en": "Pizzeria Casa Mia", "name:sr-Latn": "Picerija Casa Mia", "opening_hours": "Mo-Su 07:00-23:00", "phone": "+38260006655"}}, {"type": "node", "id": 4676295590, "lat": 42.425615, "lon": 18.7718256, "tags": {"amenity": "restaurant", "name": "\u0420\u0430\u043d\u0434\u0435\u0432\u0443"}}, {"type": "node", "id": 4781780090, "lat": 42.4877672, "lon": 18.6968852}, {"type": "node", "id": 4781780091, "lat": 42.4876963, "lon": 18.6970002}, {"type": "node", "id": 4781780092, "lat": 42.4875911, "lon": 18.6968809}, {"type": "node", "id": 4781780093, "lat": 42.487662, "lon": 18.6967659}, {"type": "node", "id": 4781780094, "lat": 42.4876487, "lon": 18.6968584, "tags": {"amenity": "restaurant", "diet:vegetarian": "yes", "level": "0", "name": "\u0160ijavoga", "outdoor_seating": "yes", "smoking": "outside"}}, {"type": "node", "id": 4790637550, "lat": 42.4303882, "lon": 18.7019447, "tags": {"amenity": "restaurant", "name": "Restaurant Anagastum"}}, {"type": "node", "id": 4790638778, "lat": 42.4262718, "lon": 18.7019918, "tags": {"amenity": "restaurant", "cuisine": "pizza", "name": "Picerija AS"}}, {"type": "node", "id": 4796332380, "lat": 42.4409904, "lon": 18.6914083, "tags": {"amenity": "restaurant", "check_date": "2024-07-18", "contact:instagram": "steakhousetanjga", "email": "steakhousetanjga@gmail.com", "name": "Trpeza", "name:en": "Steak & BBQ House Tanjga", "phone": "+382 69 596 896"}}, {"type": "node", "id": 4818913821, "lat": 42.4501336, "lon": 18.535423, "tags": {"amenity": "cafe", "check_date": "2024-07-27", "internet_access": "wlan", "name:en": "Citadela", "name:sr": "\u0426\u0438\u0442\u0430\u0434\u0435\u043b\u0430", "opening_hours": "Mo-Su 08:00-00:00"}}, {"type": "node", "id": 4836327223, "lat": 42.4244276, "lon": 18.7710621, "tags": {"amenity": "restaurant", "check_date": "2024-08-26", "cuisine": "italian_pizza;seafood", "indoor_seating": "yes", "internet_access": "wlan", "name": "Pescaria Dekaderon", "outdoor_seating": "yes"}}, {"type": "node", "id": 4845712301, "lat": 42.4061096, "lon": 18.6656417}, {"type": "node", "id": 4845712302, "lat": 42.4060672, "lon": 18.6657093}, {"type": "node", "id": 4845712303, "lat": 42.4061707, "lon": 18.6657971}, {"type": "node", "id": 4845712304, "lat": 42.4062064, "lon": 18.6657195}, {"type": "node", "id": 4881147123, "lat": 42.7712748, "lon": 18.9470072, "tags": {"amenity": "restaurant", "name:en": "Pasend", "name:sr": "\u041f\u0430\u0441\u0435\u043d\u0434"}}, {"type": "node", "id": 4881286421, "lat": 42.7701258, "lon": 18.9482288, "tags": {"amenity": "restaurant", "name:en": "Jerry Loung Bar", "website": "https://montenegroclick.me/item/jerry-lounge-bar/"}}, {"type": "node", "id": 4912901221, "lat": 42.3634102, "lon": 18.7570075, "tags": {"amenity": "cafe"}}, {"type": "node", "id": 4935164321, "lat": 42.7725637, "lon": 18.9473519, "tags": {"addr:street": "Dr Josipa Sladea", "amenity": "cafe", "internet_access": "wlan", "name": "\u041c\u0430\u0448\u0442\u0430", "name:en": "Ma\u0161ta", "name:sr": "\u041c\u0430\u0448\u0442\u0430", "opening_hours": "Mo-Su 07:00-23:00"}}, {"type": "node", "id": 4938064321, "lat": 42.3852017, "lon": 18.9423802, "tags": {"amenity": "restaurant", "check_date": "2024-04-30", "name:en": "Jezersky Vrh"}}, {"type": "node", "id": 4943625716, "lat": 42.4271535, "lon": 18.7717896, "tags": {"addr:city": "Kotor", "addr:housenumber": "556", "addr:postcode": "85330", "addr:street": "Taba\u0107ina", "amenity": "restaurant", "contact:email": "restaurantkotor@gmail.com", "cuisine": "regional", "diet:vegan": "yes", "diet:vegetarian": "yes", "internet_access": "wlan", "internet_access:fee": "no", "name": "Resto Bar Taraca", "opening_hours": "Mo-Su 08:00-00:00", "outdoor_seating": "yes", "payment:cash": "yes", "payment:credit_cards": "yes", "payment:debit_cards": "yes", "phone": "+38267000855", "smoking": "isolated", "takeaway": "yes", "website": "https://www.facebook.com/Resto-Bar-Taraca-101819608703506"}}, {"type": "node", "id": 4955575158, "lat": 42.4803821, "lon": 18.5296006}, {"type": "node", "id": 4955575177, "lat": 42.4803462, "lon": 18.5295443}, {"type": "node", "id": 4955575180, "lat": 42.4802853, "lon": 18.5296154}, {"type": "node", "id": 4955575184, "lat": 42.4803213, "lon": 18.5296718}, {"type": "node", "id": 4958533422, "lat": 42.4787591, "lon": 18.6866374, "tags": {"amenity": "restaurant", "cuisine": "regional", "email": "verige65@gmail.com", "internet_access": "wlan", "name": "Verige65", "opening_hours": "Mo-Su 12:00-01:00", "phone": "+382 67656575", "website": "https://verige65.com/"}}, {"type": "node", "id": 4958878521, "lat": 42.4851574, "lon": 18.7014239, "tags": {"amenity": "cafe", "name": "Bocalibre", "name:en": "Boca Libre"}}, {"type": "node", "id": 4966118621, "lat": 42.4249078, "lon": 18.7697553, "tags": {"amenity": "cafe", "check_date": "2024-08-26", "internet_access": "wlan", "name": "Siempre", "name:en": "Siempre", "toilets": "yes"}}, {"type": "node", "id": 4975928221, "lat": 42.4844423, "lon": 18.728776, "tags": {"amenity": "restaurant", "cuisine": "seafood", "name:en": "Sea Food Milosh", "name:ru": "\u0424\u0435\u0440\u043c\u0430 \u043f\u043e \u0432\u044b\u0440\u0430\u0449\u0438\u0432\u0430\u043d\u0438\u044e \u043c\u0438\u0434\u0438\u0439 \u0438 \u0440\u0435\u0441\u0442\u043e\u0440\u0430\u043d", "opening_hours": "Mo-Su 08:00-20:00", "phone": "+38269585464"}}, {"type": "node", "id": 4983711622, "lat": 42.4842097, "lon": 18.6746166, "tags": {"addr:street": "Jadranska magistrala", "amenity": "restaurant", "cuisine": "fish", "internet_access": "wlan", "name:sr": "Konoba Ribar", "opening_hours": "Mo-Su 11:00-00:00"}}, {"type": "node", "id": 4990823323, "lat": 42.4097175, "lon": 18.6497473, "tags": {"amenity": "cafe", "cuisine": "pizza;seafood", "internet_access": "wlan", "name": "\u041a\u043e\u043d\u043e\u0431\u0430 \u041f\u0430\u045a\u0435\u0433\u0430", "name:en": "Konoba Panjega", "name:sr": "\u041a\u043e\u043d\u043e\u0431\u0430 \u041f\u0430\u045a\u0435\u0433\u0430", "opening_hours": "Mo-Su 10:00-00:00"}}, {"type": "node", "id": 4991836722, "lat": 42.3580582, "lon": 19.1071165, "tags": {"amenity": "cafe"}}, {"type": "node", "id": 4995310723, "lat": 42.4268641, "lon": 18.7068738, "tags": {"addr:housenumber": "11/20", "addr:postcode": "85320", "addr:street": "kalimanji", "amenity": "restaurant", "cuisine": "seafood", "email": "info@apartmaniscepanovic.com", "internet_access": "wlan", "name:en": "Grill Giordino", "opening_hours": "Mo-Su 09:00-23:00", "phone": "38232673823", "website": "http://www.apartmaniscepanovic.com"}}, {"type": "node", "id": 5018083221, "lat": 42.4863453, "lon": 18.6669948, "tags": {"amenity": "restaurant", "internet_access": "wlan", "name": "\u0420\u0435\u0441\u0442\u043e\u0440\u0430\u043d \u041a\u043e\u0441\u0442\u0430\u045a\u0438\u0446\u0430", "name:en": "Restoran Konstanjica", "name:sr": "\u0420\u0435\u0441\u0442\u043e\u0440\u0430\u043d \u041a\u043e\u0441\u0442\u0430\u045a\u0438\u0446\u0430", "opening_hours": "Mo-Su 08:00-23:00"}}, {"type": "node", "id": 5029251622, "lat": 42.4474468, "lon": 18.5759666, "tags": {"amenity": "restaurant", "name:en": "Moretto"}}, {"type": "node", "id": 5039175022, "lat": 42.4247297, "lon": 18.7714457, "tags": {"amenity": "restaurant", "name:en": "Giardino"}}, {"type": "node", "id": 5045438322, "lat": 42.4854933, "lon": 18.7000112, "tags": {"amenity": "restaurant", "email": "info@vilaperast.me", "name": "Vila Perast", "opening_hours": "Mo-Su 08:00-20:00", "outdoor_seating": "no", "phone": "+382 67 319 581", "website": "https://www.vilaperast.me/"}}, {"type": "node", "id": 5046567721, "lat": 42.4293627, "lon": 18.6985604, "tags": {"amenity": "cafe", "cuisine": "ice_cream;coffee_shop;cake;tea", "internet_access": "wlan", "name:en": "Mon Ami", "name:ru": "\u043c\u043e\u043d \u0430\u043c\u0438"}}, {"type": "node", "id": 5046598522, "lat": 42.4555015, "lon": 18.6565075, "tags": {"amenity": "cafe", "cuisine": "local;regional;croatian;balkan", "name:en": "Kafana Djuk Djuk", "name:ru": "\u041a\u0430\u0444\u0430\u043d\u0430", "opening_hours": "Mo-Su 07:00-00:00", "phone": "+38269631844"}}, {"type": "node", "id": 5046601921, "lat": 42.4561764, "lon": 18.6583446, "tags": {"amenity": "restaurant", "cuisine": "balkan;grill;breakfast;coffee_shop;local;international;croatian", "internet_access": "wlan", "name:en": "Piccadilly Kafana", "name:ru": "\u041f\u0438\u043a\u043a\u0430\u0434\u0438\u043b\u043b\u0438", "opening_hours": "Mo-Su 07:00-00:00"}}, {"type": "node", "id": 5046739521, "lat": 42.4542573, "lon": 18.6544752, "tags": {"addr:postcode": "83343", "amenity": "restaurant", "cuisine": "italian;breakfast;coffee_shop;local;pasta;pizza;mediterranean;balkan", "internet_access": "wlan", "name:en": "Zotto Capellino", "name:ru": "\u0417\u043e\u0442\u0442\u043e \u041a\u0430\u043f\u0435\u043b\u043b\u0438\u043d\u043e", "opening_hours": "Mo-Su 07:00-00:00", "phone": "+38267551995"}}, {"type": "node", "id": 5073953323, "lat": 42.4541757, "lon": 18.5639469, "tags": {"amenity": "restaurant", "name:en": "Bistro MORE", "name:sr": "\u0411\u0438\u0441\u0442\u0440\u043e \u041c\u043e\u0440\u0435"}}, {"type": "node", "id": 5073953324, "lat": 42.4545324, "lon": 18.5640642, "tags": {"amenity": "restaurant", "name": "Pod Tisom", "name:sr": "\u041f\u043e\u0434 \u0422\u0438\u0441\u043e\u043c"}}, {"type": "node", "id": 5073953326, "lat": 42.4518906, "lon": 18.5581926, "tags": {"amenity": "restaurant", "name:en": "Levant", "name:sr": "\u041b\u0435\u0432\u0430\u043d\u0442"}}, {"type": "node", "id": 5073970322, "lat": 42.4499165, "lon": 18.552724, "tags": {"amenity": "restaurant", "name:en": "PERLA", "name:sr": "\u041f\u0435\u0440\u043b\u0430"}}, {"type": "node", "id": 5076729121, "lat": 42.4523855, "lon": 18.5696608, "tags": {"amenity": "restaurant", "name": "Plava Ti\u0161ina", "name:en": "Plava Tisina", "name:sr": "Plava Ti\u0161ina"}}, {"type": "node", "id": 5076729122, "lat": 42.452071, "lon": 18.5702628, "tags": {"amenity": "restaurant", "name": "Pizza Marinero", "name:en": "Pizza Marinero"}}, {"type": "node", "id": 5107246622, "lat": 42.4339122, "lon": 18.7672512, "tags": {"addr:city": "Dobrota", "addr:housenumber": "59", "addr:street": "Put I Bokeljske Brigade", "amenity": "cafe", "internet_access": "no", "name": "Ankora", "name:en": "Ankora", "outdoor_seating": "yes"}}, {"type": "node", "id": 5107246624, "lat": 42.4317846, "lon": 18.7675507, "tags": {"addr:city": "Dobrota", "addr:housenumber": "90", "addr:postcode": "85330", "addr:street": "Put I Bokeljske Brigade", "amenity": "cafe", "cuisine": "breakfast;coffee_shop;local;pizza;pasta;seafood", "name": "Che Nova?", "note:name": "Name definitely includes the question-mark", "outdoor_seating": "yes"}}, {"type": "node", "id": 5107253622, "lat": 42.4322624, "lon": 18.7676762, "tags": {"addr:city": "Dobrota", "addr:postcode": "85330", "addr:street": "Put I Bokeljske Brigade", "amenity": "cafe", "name:en": "Padrini", "outdoor_seating": "yes"}}, {"type": "node", "id": 5107253623, "lat": 42.4318476, "lon": 18.76749, "tags": {"addr:city": "Dobrota", "addr:postcode": "85330", "addr:street": "Put I Bokeljske Brigade", "amenity": "restaurant", "cuisine": "seafood", "name:en": "Cafe del Mare", "phone": "+382 67 380 310"}}, {"type": "node", "id": 5107262421, "lat": 42.434009, "lon": 18.7671918, "tags": {"addr:city": "Dobrota", "addr:housenumber": "60", "addr:street": "Put I Bokeljske Brigade", "amenity": "cafe", "internet_access": "wlan", "name": "Brooklyn", "name:en": "Caffe Brooklyn", "opening_hours": "Mo-Su 09:00-01:00", "outdoor_seating": "yes"}}, {"type": "node", "id": 5107262422, "lat": 42.4331979, "lon": 18.7675767, "tags": {"addr:city": "Dobrota", "addr:street": "Put I Bokeljske Brigade", "amenity": "cafe", "name:en": "Jet Ski"}}, {"type": "node", "id": 5107262423, "lat": 42.43239, "lon": 18.7676462, "tags": {"addr:city": "Dobrota", "addr:housenumber": "35-36", "addr:postcode": "85330", "addr:street": "Put I Bokeljske Brigade", "amenity": "cafe", "internet_access": "wlan", "name:en": "Mondo", "outdoor_seating": "yes", "phone": "+382(69)995011"}}, {"type": "node", "id": 5109534623, "lat": 42.4852847, "lon": 18.70295, "tags": {"amenity": "restaurant", "name": "Otok Bronza", "name:sr-Latn": "Otok Bronza"}}, {"type": "node", "id": 5113066096, "lat": 42.456026, "lon": 18.7461688, "tags": {"amenity": "restaurant", "name": "Mademoiselle"}}, {"type": "node", "id": 5113151621, "lat": 42.4270118, "lon": 18.7689276, "tags": {"amenity": "cafe", "name:en": "Lav Gastro Bar"}}, {"type": "node", "id": 5142414823, "lat": 42.7731822, "lon": 18.9491482, "tags": {"amenity": "cafe", "name:en": "CAFFE CAFFE"}}, {"type": "node", "id": 5142414825, "lat": 42.7752647, "lon": 18.9647262, "tags": {"amenity": "cafe", "name": "\u0421\u0430\u043d", "name:en": "SAN", "name:sr": "\u0421\u0430\u043d"}}, {"type": "node", "id": 5145126638, "lat": 42.7754173, "lon": 18.9483108, "tags": {"amenity": "cafe", "name:en": "Akademija"}}, {"type": "node", "id": 5154007187, "lat": 42.4479462, "lon": 18.5756328}, {"type": "node", "id": 5154007188, "lat": 42.4479275, "lon": 18.5756557}, {"type": "node", "id": 5154007189, "lat": 42.4478957, "lon": 18.5756075}, {"type": "node", "id": 5154007190, "lat": 42.4479163, "lon": 18.5755846}, {"type": "node", "id": 5308296166, "lat": 42.4250612, "lon": 18.7696776, "tags": {"addr:city": "Kotor", "addr:postcode": "85330", "addr:street": "Trg od Oru\u017eja", "amenity": "cafe", "check_date": "2024-08-26", "internet_access": "wlan", "name": "Forza", "opening_hours": "Mo-Su 07:00-00:00", "outdoor_seating": "yes", "smoking": "yes"}}, {"type": "node", "id": 5454989722, "lat": 42.4563334, "lon": 18.5246924, "tags": {"amenity": "cafe", "name": "Caffe Bar Jazz", "name:sr": "\u041a\u0430\u0444\u0435 \u0431\u0430\u0440 \u040f\u0435\u0437"}}, {"type": "node", "id": 5573635521, "lat": 42.407507, "lon": 18.767497}, {"type": "node", "id": 5606853421, "lat": 42.4853224, "lon": 18.6996962, "tags": {"amenity": "restaurant", "cuisine": "pasta;italian;seafood;coffee_shop", "name": "Admiral", "name:en": "Restaurant Admiral", "name:ru": "\u0420\u0435\u0441\u0442\u043e\u0440\u0430\u043d \u0410\u0434\u043c\u0438\u0440\u0430\u043b"}}, {"type": "node", "id": 5607413423, "lat": 42.7699205, "lon": 18.9483169, "tags": {"amenity": "restaurant", "name:en": "Central Perk", "opening_hours": "Mo-Su 07:00-23:00"}}, {"type": "node", "id": 5708492003, "lat": 42.4230817, "lon": 18.7717605, "tags": {"amenity": "cafe", "cuisine": "coffee_shop", "indoor_seating": "yes", "name": "O'Clock Coffee", "opening_hours": "Mo-Sa 09:00-18:00", "outdoor_seating": "no"}}, {"type": "node", "id": 5708492731, "lat": 42.4289478, "lon": 18.7686199}, {"type": "node", "id": 5708492732, "lat": 42.4290082, "lon": 18.7687087}, {"type": "node", "id": 5730454021, "lat": 42.4872213, "lon": 18.6972281, "tags": {"amenity": "restaurant", "cuisine": "mediterranean", "internet_access": "wlan", "name": "Armonia", "name:en": "Armonia", "opening_hours": "Mo-Su 08:00-01:00"}}, {"type": "node", "id": 5765816553, "lat": 42.3559908, "lon": 19.0245876, "tags": {"addr:street": "Cetinje - Rijeka Crnojevi\u0107a", "amenity": "restaurant", "cuisine": "local;fish", "int_name": "MOCTNHA", "name:de": "Mostina", "name:en": "Mostina"}}, {"type": "node", "id": 5766258954, "lat": 42.419943, "lon": 18.5978535, "tags": {"amenity": "cafe", "name": "\u0422\u0440\u043e\u0458\u0430", "name:en": "Troja", "name:sr": "\u0422\u0440\u043e\u0458\u0430"}}, {"type": "node", "id": 5799177054, "lat": 42.4904413, "lon": 18.7535464, "tags": {"addr:housenumber": "38", "addr:street": "Jadranska magistrala", "amenity": "restaurant", "check_date": "2023-06-03", "cuisine": "mediterranean", "internet_access": "wlan", "level": "0", "name": "Veranda", "name:en": "Veranda", "name:ru": "\u0412\u0435\u0440\u0430\u043d\u0434\u0430", "name:sr": "\u0412\u0435\u0440\u0430\u043d\u0434\u0430", "opening_hours": "Mo-Su 08:00-22:00", "payment:mastercard": "yes", "payment:visa": "yes", "phone": "069470968"}}, {"type": "node", "id": 5806579139, "lat": 42.4283972, "lon": 18.822021, "tags": {"amenity": "restaurant", "name": "Santa Montagna"}}, {"type": "node", "id": 5808540353, "lat": 42.4276302, "lon": 18.8214753, "tags": {"amenity": "restaurant", "contact:facebook": "https://www.facebook.com/Njeguska-sijela-517642081612900/", "cuisine": "regional", "name": "Konoba Njegu\u0161ka sijela", "phone": "+382 67 527 346"}}, {"type": "node", "id": 5830193685, "lat": 42.4326721, "lon": 18.6936144, "tags": {"amenity": "restaurant", "name:en": "Al Posto Giusto"}}, {"type": "node", "id": 5836658415, "lat": 42.3636119, "lon": 18.7569401, "tags": {"amenity": "restaurant", "name": "Bokeljska Kuzina"}}, {"type": "node", "id": 5843107757, "lat": 42.4255249, "lon": 18.771478, "tags": {"addr:city": "Kotor", "addr:postcode": "85330", "addr:street": "Pjaca od mlijeka", "amenity": "restaurant", "cuisine": "fish", "name": "Konoba Trpeza", "name:sr": "\u041a\u043e\u043d\u043e\u0431\u0430 \u0422\u0440\u043f\u0435\u0437\u0430", "outdoor_seating": "yes", "phone": "+382 69 345 290"}}, {"type": "node", "id": 5846849785, "lat": 42.7747129, "lon": 18.9511578, "tags": {"amenity": "restaurant", "name:en": "Merak", "name:sr": "\u041c\u0435\u0440\u0430\u043a"}}, {"type": "node", "id": 5847763285, "lat": 42.4473009, "lon": 18.687002, "tags": {"addr:street": "Obala Donja Lastva", "amenity": "restaurant", "internet_access": "wlan", "name": "Giardino", "opening_hours": "24/7"}}, {"type": "node", "id": 5884263303, "lat": 42.4576271, "lon": 18.5256234, "tags": {"amenity": "cafe"}}, {"type": "node", "id": 5906194485, "lat": 42.4296849, "lon": 18.6974513, "tags": {"amenity": "cafe", "cuisine": "pizza;burger", "internet_access": "wlan", "name": "Galija", "outdoor_seating": "yes"}}, {"type": "node", "id": 5988504682, "lat": 42.487052, "lon": 18.7650559, "tags": {"amenity": "restaurant", "contact:phone": "069 496 606", "contact:website": "http://skoljkeboke.com", "landuse": "aquaculture", "name": "Clams of Boka", "produce": "oyster"}}, {"type": "node", "id": 6110460886, "lat": 42.453278, "lon": 18.5343696, "tags": {"amenity": "cafe", "name:en": "cafe", "name:ru": "\u043a\u0430\u0444\u0435"}}, {"type": "node", "id": 6120923995, "lat": 42.4309818, "lon": 18.6949069, "tags": {"amenity": "cafe", "brand": "\u041a\u0430\u0444\u0435\u0442\u0435\u0440\u0438\u0458\u0430", "brand:en": "Kafeteria", "brand:sr": "\u041a\u0430\u0444\u0435\u0442\u0435\u0440\u0438\u0458\u0430", "brand:sr-Latn": "Kafeterija", "brand:wikidata": "Q131823194", "cuisine": "coffee_shop", "name": "\u041a\u0430\u0444\u0435\u0442\u0435\u0440\u0438\u0458\u0430", "name:en": "Kafeteria", "name:sr": "\u041a\u0430\u0444\u0435\u0442\u0435\u0440\u0438\u0458\u0430", "name:sr-Latn": "Kafeterija", "takeaway": "yes"}}, {"type": "node", "id": 6241240785, "lat": 42.3877552, "lon": 18.9258182, "tags": {"addr:housenumber": "3", "addr:street": "Dvorski Trg", "amenity": "cafe", "check_date": "2025-06-01", "cuisine": "regional;burger;pizza", "internet_access": "wlan", "internet_access:fee": "customers", "name:en": "Ka'doma", "name:ru": "\u041a\u0430'\u0434\u043e\u043c\u0430", "outdoor_seating": "yes", "payment:cash": "yes", "payment:credit_cards": "yes", "payment:debit_cards": "yes", "wheelchair": "no"}}, {"type": "node", "id": 6280776721, "lat": 42.4075087, "lon": 18.7673639}, {"type": "node", "id": 6280776722, "lat": 42.4076673, "lon": 18.7673779}, {"type": "node", "id": 6280776723, "lat": 42.4076622, "lon": 18.7675157}, {"type": "node", "id": 6327491588, "lat": 42.4421314, "lon": 18.7542412, "tags": {"amenity": "restaurant", "cuisine": "local", "internet_access": "wlan", "name:en": "Bokeljski Dvori", "name:ru": "\u0411\u043e\u043a\u0435\u043b\u044c\u0441\u043a\u0438\u0439 \u0434\u0432\u043e\u0440"}}, {"type": "node", "id": 6395265185, "lat": 42.4215168, "lon": 18.767776, "tags": {"amenity": "restaurant", "name:en": "Ladovina kitchen"}}, {"type": "node", "id": 6420971265, "lat": 42.4400242, "lon": 18.6957738, "tags": {"amenity": "restaurant", "name": "Bakina Kuhinja", "opening_hours": "Mo-Sa 08:00-22:00"}}, {"type": "node", "id": 6429115798, "lat": 42.4870038, "lon": 18.6971627, "tags": {"amenity": "restaurant", "diet:gluten_free": "yes", "name": "Iberostar", "outdoor_seating": "yes"}}, {"type": "node", "id": 6466538285, "lat": 42.4379567, "lon": 18.5994863, "tags": {"addr:street": "Kumbor", "air_conditioning": "yes", "amenity": "restaurant", "check_date": "2023-08-04", "cuisine": "pizza;regional", "diet:vegetarian": "yes", "internet_access": "wlan", "internet_access:fee": "customers", "internet_access:ssid": "Aurora", "name:en": "Aurora", "name:sr": "\u0410\u0443\u0440\u043e\u0440\u0430", "outdoor_seating": "yes", "payment:cash": "yes", "takeaway": "yes", "toilets": "yes", "wheelchair": "limited"}}, {"type": "node", "id": 6479077886, "lat": 42.3978714, "lon": 18.9219455, "tags": {"addr:housenumber": "23", "addr:postcode": "81250", "addr:street": "Ulica Mojkova\u010dka", "amenity": "restaurant", "check_date": "2025-05-30", "cuisine": "regional", "name:en": "Pecenjara Verige", "name:ru": "\u0420\u0435\u0441\u0442\u043e\u0440\u0430\u043d Verige", "payment:cash": "yes", "payment:free": "yes", "wheelchair": "no"}}, {"type": "node", "id": 6491319655, "lat": 42.4250875, "lon": 18.7709994, "tags": {"amenity": "restaurant", "description": "Snack & Winebar", "name": "Marinaio"}}, {"type": "node", "id": 6495267886, "lat": 42.4698475, "lon": 18.670365, "tags": {"amenity": "cafe", "cuisine": "russian", "name:en": "This place false"}}, {"type": "node", "id": 6497630886, "lat": 42.4286034, "lon": 18.6984234, "tags": {"amenity": "restaurant", "name": "La Roche", "name:en": "Bevanda Cucina Montenegriana", "opening_hours": "PH,Mo-Su 07:00-23:00", "phone": "+38267614100", "website": "http://www.bevanda.me/"}}, {"type": "node", "id": 6521179785, "lat": 42.7307881, "lon": 18.5979602, "tags": {"amenity": "restaurant", "check_date": "2024-06-16", "cuisine": "local;pancake;sandwich;ice_cream;fish;regional", "internet_access": "wlan", "internet_access:fee": "customers", "name": "Konoba Timor", "name:en": "Restaurant Timor", "opening_hours": "07:00-23:00", "phone": "+382 67 540 101"}}, {"type": "node", "id": 6555498242, "lat": 42.4445769, "lon": 18.7651723, "tags": {"amenity": "restaurant", "check_date": "2023-05-19", "name": "Dobrotski Dvori", "opening_hours": "Mo-Fr 09:00-22:00", "toilets": "yes"}}, {"type": "node", "id": 6557507270, "lat": 42.4686633, "lon": 18.7634737, "tags": {"amenity": "restaurant", "cuisine": "regional;italian;fish;kebab;noodle", "internet_access": "wlan", "internet_access:fee": "no", "level": "0", "name": "Konoba Barba", "outdoor_seating": "yes", "phone": "+38268479660", "toilets": "yes", "wheelchair": "limited"}}, {"type": "node", "id": 6601702286, "lat": 42.4300542, "lon": 18.6959117, "tags": {"amenity": "cafe", "check_date": "2024-07-21", "cuisine": "pizza;breakfast;sandwich;pasta", "internet_access": "wlan", "internet_access:fee": "customers", "internet_access:ssid": "Roma", "level": "0", "name:en": "pizzeria Roma", "opening_hours": "07:00-01:00; Dec-Feb 07:00-24:00", "operator": "Montespeed doo", "outdoor_seating": "yes"}}, {"type": "node", "id": 6601707785, "lat": 42.3779162, "lon": 18.8409941, "tags": {"amenity": "restaurant", "name:en": "monte rosa"}}, {"type": "node", "id": 6602228785, "lat": 42.4602524, "lon": 18.6833998, "tags": {"addr:postcode": "85330", "addr:street": "Lepetane", "amenity": "restaurant", "cuisine": "burger;pasta;italian;international;grill;local", "internet_access": "wlan", "name": "Restoran Lov\u0107en", "name:en": "Restaurant Lovcen", "name:ru": "\u0420\u0435\u0441\u0442\u043e\u0440\u0430\u043d \u041b\u043e\u0432\u0447\u0435\u043d", "opening_hours": "Mo-Su 09:00-00:00", "phone": "+38269509094"}}, {"type": "node", "id": 6643602586, "lat": 42.4256633, "lon": 18.7718433, "tags": {"amenity": "restaurant", "name:en": "Bocalibre"}}, {"type": "node", "id": 6643616485, "lat": 42.4252639, "lon": 18.7719372, "tags": {"addr:housenumber": "397", "addr:postcode": "85330", "addr:street": "Pjaca od zatvora", "amenity": "restaurant", "cuisine": "breakfast;diner;fish;grill;local;mediterranean;pasta;seafood;steak_house", "diet:vegetarian": "yes", "email": "przunkotor@gmail.com", "internet_access": "wlan", "name:en": "Przun", "phone": "+382 69 343 061", "website": "https://www.przun.me/"}}, {"type": "node", "id": 6656178138, "lat": 42.4253676, "lon": 18.7704784, "tags": {"amenity": "cafe", "name:en": "Cornelia"}}, {"type": "node", "id": 6656178403, "lat": 42.425839, "lon": 18.7715308, "tags": {"amenity": "restaurant", "name": "Bokun", "name:en": "Paparon"}}, {"type": "node", "id": 6656178549, "lat": 42.4228838, "lon": 18.7718677, "tags": {"amenity": "restaurant", "name:en": "Atrism"}}, {"type": "node", "id": 6656178565, "lat": 42.4258043, "lon": 18.7719316, "tags": {"addr:housenumber": "483", "addr:street": "Stari Grad", "amenity": "restaurant", "name": "Delicatesa;Guest House Forza Lux", "name:en": "Rada", "tourism": "guest_house"}}, {"type": "node", "id": 6656188411, "lat": 42.4248841, "lon": 18.7720619, "tags": {"addr:housenumber": "397", "addr:postcode": "85330", "addr:street": "Pjaca od Sv. Josipa", "amenity": "restaurant", "cuisine": "mediterranean;fish;diner;coffee_shop;breakfast;grill;local;pasta;seafood", "diet:vegetarian": "yes", "email": "przunkotor@gmail.com", "internet_access": "wlan", "name": "Pr\u017eun", "phone": "+382 69 343 061", "website": "https://www.przun.me/"}}, {"type": "node", "id": 6656188415, "lat": 42.425846, "lon": 18.7713323, "tags": {"amenity": "restaurant", "name": "Raffi"}}, {"type": "node", "id": 6682085385, "lat": 42.3808864, "lon": 18.7478425, "tags": {"amenity": "cafe", "cuisine": "italian_pizza;grill;balkan", "name:en": "Pizzeria Sunce", "name:ru": "\u041f\u0438\u0446\u0446\u0435\u0440\u0438\u044f \u0421\u0430\u043d\u0446\u0435", "opening_hours": "24/7"}}, {"type": "node", "id": 6687995476, "lat": 42.3561531, "lon": 18.7052985, "tags": {"amenity": "restaurant", "name": "Pod volat"}}, {"type": "node", "id": 6687995477, "lat": 42.3563101, "lon": 18.7045724, "tags": {"amenity": "restaurant", "name": "Grispolis"}}, {"type": "node", "id": 6700779387, "lat": 42.4093738, "lon": 18.7863907, "tags": {"amenity": "cafe", "check_date": "2024-08-26", "contact:instagram": "https://instagram.com/horizontrestaurant", "name": "Horizont", "phone": "+38267324300"}}, {"type": "node", "id": 6736083986, "lat": 42.4244588, "lon": 18.7713559, "tags": {"amenity": "restaurant", "internet_access": "wlan", "name:en": "City Restaurant"}}, {"type": "node", "id": 6769322133, "lat": 42.392007, "lon": 18.9223678, "tags": {"air_conditioning": "yes", "amenity": "restaurant", "check_date": "2024-10-07", "diet:vegan": "yes", "diet:vegetarian": "yes", "internet_access": "wlan", "internet_access:fee": "customers", "name": "Restoran Taverna", "opening_hours": "Mo-Su,PH 08:00-23:00", "payment:cash": "yes", "payment:credit_cards": "yes", "payment:debit_cards": "yes", "payment:free": "yes", "smoking": "outside", "wheelchair": "limited"}}, {"type": "node", "id": 6783107485, "lat": 42.7722774, "lon": 18.9504282, "tags": {"addr:street": "Ivana Milutinovi\u0107a", "amenity": "restaurant", "int_name": "Forest", "name": "\u0424\u043e\u0440\u0435\u0441\u0442", "name:en": "Forest", "name:fr": "Forest", "website": "https://cjenovnik.me/forestbistrobar"}}, {"type": "node", "id": 6784433085, "lat": 42.4688125, "lon": 18.7636725, "tags": {"amenity": "cafe", "cuisine": "coffee_shop;ice_cream", "internet_access": "wlan", "name:en": "Ponta Caffe"}}, {"type": "node", "id": 6802435589, "lat": 42.6491643, "lon": 18.679206, "tags": {"amenity": "restaurant", "name": "Grahovac"}}, {"type": "node", "id": 6807881695, "lat": 42.4878174, "lon": 18.6960104, "tags": {"amenity": "cafe"}}, {"type": "node", "id": 6807909990, "lat": 42.4211928, "lon": 18.7701286, "tags": {"addr:street": "Put prvoboraca", "amenity": "restaurant", "indoor_seating": "yes", "name": "Marenda Grill House", "name:en": "Marenda Grill House", "outdoor_seating": "yes"}}, {"type": "node", "id": 6808737686, "lat": 42.4549855, "lon": 18.5590721, "tags": {"amenity": "cafe"}}, {"type": "node", "id": 6808737788, "lat": 42.4259241, "lon": 18.7714065, "tags": {"amenity": "cafe", "name": "Klub Invalida"}}, {"type": "node", "id": 6808739585, "lat": 42.4548877, "lon": 18.5557095, "tags": {"amenity": "restaurant"}}, {"type": "node", "id": 6812872092, "lat": 42.4539403, "lon": 18.5310331, "tags": {"amenity": "cafe", "name:ru": "San Cafe"}}, {"type": "node", "id": 6812873185, "lat": 42.4535099, "lon": 18.5315758, "tags": {"amenity": "cafe", "name:en": "Kompas"}}, {"type": "node", "id": 6814287488, "lat": 42.4553698, "lon": 18.5272618, "tags": {"amenity": "cafe", "name": "Bumerang", "name:sr": "\u0411\u0443\u043c\u0435\u0440\u0430\u043d\u0433"}}, {"type": "node", "id": 6827953786, "lat": 42.4553868, "lon": 18.559253, "tags": {"amenity": "cafe", "name:ru": "Sabs"}}, {"type": "node", "id": 6827953788, "lat": 42.451685, "lon": 18.5719336, "tags": {"amenity": "cafe", "name:ru": "\u041c3"}}, {"type": "node", "id": 6827954086, "lat": 42.4482666, "lon": 18.5755899, "tags": {"amenity": "cafe"}}, {"type": "node", "id": 6833825185, "lat": 42.4866108, "lon": 18.6491223, "tags": {"addr:postcode": "85338", "amenity": "restaurant", "cuisine": "seafood;balkan", "email": "catovicamlini@t-com.me", "name:en": "Konoba Catovica Mlini", "phone": "+ 382 32 373 030", "website": "http://www.catovica-mlini.com/"}}, {"type": "node", "id": 6877564885, "lat": 42.4453418, "lon": 18.764918, "tags": {"addr:city": "Dobrota", "addr:housenumber": "170", "addr:postcode": "85330", "addr:street": "Donji put", "amenity": "restaurant", "cuisine": "seafood", "email": "banacakotor@gmail.com", "internet_access": "wlan", "name": "Konoba Bonaca", "name:en": "Bonaca", "name:ru": "Bonaca", "opening_hours": "Mo-Su 08:00-23:00", "phone": "+382 69 371217", "website": "http://www.bonaca.ru"}}, {"type": "node", "id": 6918466687, "lat": 42.6689434, "lon": 18.6518858, "tags": {"addr:housenumber": "7", "addr:street": "Grahovo", "amenity": "restaurant", "internet_access": "wlan", "name:en": "Stara ku\u0107a", "opening_hours": "Mo-Su 09:00-18:00"}}, {"type": "node", "id": 7040665385, "lat": 42.7682322, "lon": 18.9506425, "tags": {"amenity": "restaurant", "cuisine": "balkan;cake;coffee_shop;diner;fish;pizza", "internet_access": "wlan", "name:en": "Caffe Restaurant Park", "name:sr": "\u041a\u0430\u0444\u0435 \u0420\u0435\u0441\u0442\u043e\u0440\u0430\u043d \u041f\u0430\u0440\u043a", "name:sr-Latn": "Kafe Restoran Park"}}, {"type": "node", "id": 7086092828, "lat": 42.4564596, "lon": 18.5245256, "tags": {"amenity": "cafe", "internet_access": "wlan", "internet_access:fee": "no", "name": "Teo & Jake cafebar", "opening_hours": "Tu-Su 09:00-13:00,16:00-20:00", "outdoor_seating": "yes", "smoking": "outside", "takeaway": "yes"}}, {"type": "node", "id": 7131226433, "lat": 42.4327571, "lon": 18.6943622, "tags": {"addr:city": "Tivat", "addr:street": "Arsenalska", "amenity": "restaurant", "bar": "yes", "brand": "Gallardo steak house", "capacity": "150", "cuisine": "regional;burger;american;seafood", "delivery": "yes", "internet_access": "wlan", "name": "Gallardo steak house", "opening_hours": "Mo-Su 12:00-23:00", "outdoor_seating": "yes", "phone": "+38267077721", "stars": "5", "start_date": "2018", "website": "@gallardo.montenegro", "wheelchair": "yes"}}, {"type": "node", "id": 7235502386, "lat": 42.6709147, "lon": 19.0258461, "tags": {"amenity": "cafe"}}, {"type": "node", "id": 7296445885, "lat": 42.5166978, "lon": 19.0571165, "tags": {"amenity": "cafe", "name:en": "Katun cafe"}}, {"type": "node", "id": 7385403611, "lat": 42.4715556, "lon": 18.7069555, "tags": {"amenity": "restaurant"}}, {"type": "node", "id": 7834198085, "lat": 42.3316263, "lon": 18.7348772, "tags": {"addr:street": "Glavaticici", "amenity": "restaurant", "cuisine": "fish;local", "name:en": "Tres Olives", "opening_hours": "Mo-Su 10:00-22:00", "phone": "+382 69 634 058"}}, {"type": "node", "id": 7834309589, "lat": 42.4418306, "lon": 18.5832873, "tags": {"addr:street": "Kumbor", "amenity": "restaurant", "name": "\u0410\u043c\u0430\u0440\u043e", "name:en": "Amaro", "name:sr": "\u0410\u043c\u0430\u0440\u043e", "opening_hours": "Mo-Su 08:30-00:30", "phone": "+382 31 684 706"}}, {"type": "node", "id": 7837805285, "lat": 42.4405583, "lon": 18.584184, "tags": {"addr:street": "Kumbor", "amenity": "restaurant", "cuisine": "fish;italian_pizza;local;pizza", "name:en": "Flamingo"}}, {"type": "node", "id": 7927826904, "lat": 42.6523855, "lon": 18.6724609, "tags": {"amenity": "cafe"}}, {"type": "node", "id": 7927826905, "lat": 42.6519634, "lon": 18.6724555, "tags": {"amenity": "cafe"}}, {"type": "node", "id": 7963852013, "lat": 42.6725, "lon": 19.0243551}, {"type": "node", "id": 7963852014, "lat": 42.6726065, "lon": 19.0244886}, {"type": "node", "id": 7963852015, "lat": 42.6727161, "lon": 19.0243271}, {"type": "node", "id": 7963852016, "lat": 42.6726104, "lon": 19.0242673}, {"type": "node", "id": 7963852017, "lat": 42.672583, "lon": 19.0242329}, {"type": "node", "id": 7963852018, "lat": 42.672637, "lon": 19.0242279}, {"type": "node", "id": 7963852019, "lat": 42.6725392, "lon": 19.0242974, "tags": {"entrance": "yes"}}, {"type": "node", "id": 7963930447, "lat": 42.6691178, "lon": 19.0285151}, {"type": "node", "id": 7985483181, "lat": 42.6807048, "lon": 18.9780238}, {"type": "node", "id": 7985483182, "lat": 42.6806462, "lon": 18.9780858}, {"type": "node", "id": 7985483185, "lat": 42.6806092, "lon": 18.9781233}, {"type": "node", "id": 7985483186, "lat": 42.6805939, "lon": 18.9781216, "tags": {"entrance": "yes"}}, {"type": "node", "id": 8007289487, "lat": 42.4310728, "lon": 18.6961966, "tags": {"amenity": "restaurant", "name:en": "Theodorus"}}, {"type": "node", "id": 8241698174, "lat": 42.766732, "lon": 18.9514156, "tags": {"addr:city": "Nik\u0161i\u0107", "addr:street": "Bulevar 13. jul", "amenity": "restaurant", "delivery": "yes", "name": "Konoba Bulevar", "name:sr": "\u041a\u043e\u043d\u043e\u0431\u0430 \u0411\u0443\u043b\u0435\u0432\u0430\u0440", "name:sr-Latn": "Konoba Bulevar", "outdoor_seating": "yes"}}, {"type": "node", "id": 8556604218, "lat": 42.331334, "lon": 18.7351985, "tags": {"amenity": "restaurant", "name:en": "Tres olives"}}, {"type": "node", "id": 8661592977, "lat": 42.4387148, "lon": 18.5871832}, {"type": "node", "id": 8661592979, "lat": 42.4386492, "lon": 18.5869589}, {"type": "node", "id": 8661592980, "lat": 42.438676, "lon": 18.5869885}, {"type": "node", "id": 8661592981, "lat": 42.4386789, "lon": 18.5869828}, {"type": "node", "id": 8661592982, "lat": 42.4387719, "lon": 18.5870929}, {"type": "node", "id": 8684219308, "lat": 42.4385967, "lon": 18.5870386}, {"type": "node", "id": 8841319248, "lat": 42.4313061, "lon": 18.6939212, "tags": {"amenity": "cafe", "description": "Pancakes & Co", "name": "Ma Cherie", "phone": "+38267076587", "website": "https://ma-cherie.me"}}, {"type": "node", "id": 8874377838, "lat": 42.3982202, "lon": 18.5806, "tags": {"addr:city": "Lu\u0161tica", "addr:country": "ME", "addr:postcode": "85340", "addr:street": "\u017danjic", "amenity": "restaurant", "capacity": "50", "check_date": "2024-08-27", "cuisine": "pizza;sandwich", "name": "Contact", "outdoor_seating": "yes", "smoking": "outside", "takeaway": "yes"}}, {"type": "node", "id": 8874378282, "lat": 42.3998058, "lon": 18.5807015}, {"type": "node", "id": 8884078917, "lat": 42.4524873, "lon": 18.5503697, "tags": {"addr:housenumber": "7d", "addr:postcode": "85340", "addr:street": "Branka \u010copi\u0107a", "amenity": "restaurant", "name:en": "Castel Savina Winery", "website": "https://castelsavina.me/"}}, {"type": "node", "id": 8886738117, "lat": 42.4224509, "lon": 18.769965, "tags": {"addr:street": "Njego\u0161eva", "amenity": "restaurant", "name:en": "STEAK HOUSE", "name:ru": "Steak House"}}, {"type": "node", "id": 8890844117, "lat": 42.4660363, "lon": 18.5681177, "tags": {"addr:street": "Sasovi\u0107i 85340, \u0427\u0435\u0440\u043d\u043e\u0433\u043e\u0440\u0438\u044f", "amenity": "restaurant", "name:en": "old wine House", "name:ru": "Old Wibe House (\u0432\u0438\u043d\u043e\u0433\u0440\u0430\u0434\u043d\u0438\u043a+\u0440\u0435\u0441\u0442)", "phone": "+382 69 662 481"}}, {"type": "node", "id": 8895029582, "lat": 42.3824432, "lon": 18.6521397}, {"type": "node", "id": 8895029583, "lat": 42.3823999, "lon": 18.652245}, {"type": "node", "id": 8895029584, "lat": 42.382201, "lon": 18.6520949}, {"type": "node", "id": 8895029585, "lat": 42.3821708, "lon": 18.6521683}, {"type": "node", "id": 8895029586, "lat": 42.3819664, "lon": 18.6520142}, {"type": "node", "id": 8895029587, "lat": 42.3820398, "lon": 18.6518356}, {"type": "node", "id": 8910199317, "lat": 42.4997517, "lon": 18.692458, "tags": {"amenity": "cafe", "name:ru": "\u0424\u0435\u0440\u043c\u0430 \u0443\u0441\u0442\u0440\u0438\u0446 \u0438 \u043c\u0438\u0434\u0438\u0439"}}, {"type": "node", "id": 9016695017, "lat": 42.4420053, "lon": 18.6957554, "tags": {"addr:housenumber": "66", "addr:postcode": "85320", "addr:street": "Podgori\u010dka", "amenity": "restaurant", "name": "Ro\u0161tilj Samard\u017ei\u0107", "opening_hours": "Tu-Su 09:00-21:00", "phone": "+382 69 532 887"}}, {"type": "node", "id": 9044073818, "lat": 42.4495128, "lon": 18.5459885, "tags": {"amenity": "cafe", "name:en": "Ladovina"}}, {"type": "node", "id": 9149797321, "lat": 42.3916674, "lon": 18.9231452, "tags": {"amenity": "cafe", "check_date": "2024-10-07", "name:en": "Sport cafe"}}, {"type": "node", "id": 9165481818, "lat": 42.4679755, "lon": 18.7633872, "tags": {"amenity": "cafe", "name:en": "Forum"}}, {"type": "node", "id": 9171652717, "lat": 42.4507967, "lon": 18.5395167, "tags": {"amenity": "restaurant", "cuisine": "italian", "name": "Pasterija Nautica"}}, {"type": "node", "id": 9177653697, "lat": 42.3435517, "lon": 19.0559798, "tags": {"amenity": "restaurant", "name": "Restoran"}}, {"type": "node", "id": 9213556418, "lat": 42.453254, "lon": 18.5693519, "tags": {"amenity": "cafe", "name": "Vagon", "name:en": "Vagon"}}, {"type": "node", "id": 9260609114, "lat": 42.4051669, "lon": 18.6654287, "tags": {"amenity": "restaurant", "cuisine": "pizza;regional;seafood", "name": "Porto Bjelila", "name:sr-Latn": "\u041f\u043e\u0440\u0442\u043e \u0411\u0458\u0435\u043b\u0438\u043b\u0430", "opening_hours": "08:00-23:00", "outdoor_seating": "yes", "toilets": "yes", "toilets:access": "customers"}}, {"type": "node", "id": 9282711890, "lat": 42.4273689, "lon": 18.7708463, "tags": {"amenity": "cafe", "name": "Sulzer"}}, {"type": "node", "id": 9282711901, "lat": 42.4387159, "lon": 18.5871337, "tags": {"amenity": "restaurant", "name": "Mondo"}}, {"type": "node", "id": 9285665535, "lat": 42.7597416, "lon": 18.9389708, "tags": {"amenity": "cafe"}}, {"type": "node", "id": 9709482417, "lat": 42.4364775, "lon": 18.6978837, "tags": {"addr:housenumber": "1", "addr:street": "Pod Kuk", "amenity": "cafe", "name:en": "Bonjour", "opening_hours": "Mo-Fr 09:00-18:30; Sa 11:00-18:30"}}, {"type": "node", "id": 9715909017, "lat": 42.421765, "lon": 18.7637135, "tags": {"amenity": "cafe", "internet_access": "wlan", "name": "Bahus"}}, {"type": "node", "id": 9848433110, "lat": 42.5143638, "lon": 18.694904, "tags": {"amenity": "restaurant", "name": "Caf\u00e9 Pizzeria Risan", "phone": "032/371-156"}}, {"type": "node", "id": 9857858617, "lat": 42.425359, "lon": 18.771059, "tags": {"addr:street": "Pjaca od Cirkula", "amenity": "restaurant", "cuisine": "fish;pasta;mediterranean;italian;coffee_shop;seafood;regional;pizza", "entrance": "yes", "name": "La piazzetta", "name:en": "La Piazzetta", "outdoor_seating": "yes"}}, {"type": "node", "id": 9896914687, "lat": 42.4317525, "lon": 18.6937774}, {"type": "node", "id": 9896914688, "lat": 42.4317727, "lon": 18.6939126}, {"type": "node", "id": 9896914689, "lat": 42.4318477, "lon": 18.6938903}, {"type": "node", "id": 9896914690, "lat": 42.4318312, "lon": 18.6937571}, {"type": "node", "id": 9896914691, "lat": 42.431901, "lon": 18.6937155}, {"type": "node", "id": 9896914692, "lat": 42.4319165, "lon": 18.6938334}, {"type": "node", "id": 9896914693, "lat": 42.4320802, "lon": 18.6937937}, {"type": "node", "id": 9896914694, "lat": 42.4320457, "lon": 18.6936852}, {"type": "node", "id": 9914995619, "lat": 42.4971675, "lon": 18.6914174, "tags": {"amenity": "restaurant", "cuisine": "fish;seafood", "name": "Pescatore", "phone": "+382 69 447 508"}}, {"type": "node", "id": 9957339006, "lat": 42.452406, "lon": 18.5695109}, {"type": "node", "id": 9957339010, "lat": 42.4522964, "lon": 18.5697224}, {"type": "node", "id": 9957339011, "lat": 42.4524881, "lon": 18.569589}, {"type": "node", "id": 9957339014, "lat": 42.4523135, "lon": 18.5696896}, {"type": "node", "id": 9957359619, "lat": 42.4520046, "lon": 18.5702796}, {"type": "node", "id": 9957359620, "lat": 42.45207, "lon": 18.5701472}, {"type": "node", "id": 9957359621, "lat": 42.4521556, "lon": 18.5702248}, {"type": "node", "id": 9957359622, "lat": 42.4520902, "lon": 18.5703573}, {"type": "node", "id": 9968101019, "lat": 42.5146078, "lon": 18.695027, "tags": {"amenity": "restaurant", "name:en": "Konoba Krivokapic"}}, {"type": "node", "id": 9971791938, "lat": 42.451486, "lon": 18.5367529, "tags": {"addr:city": "Herceg Novi", "addr:housenumber": "2", "addr:postcode": "85340", "addr:street": "Stepeni\u0161te 28. oktobar", "amenity": "restaurant", "cuisine": "p\u00e2tes", "name": "Pasta di Bocca", "phone": "+382 68 544 026"}}, {"type": "node", "id": 9976491765, "lat": 42.5514373, "lon": 19.1053344, "tags": {"amenity": "cafe", "name": "Caffe green garden"}}, {"type": "node", "id": 9976582828, "lat": 42.5518572, "lon": 19.1053054, "tags": {"addr:housenumber": "9", "amenity": "cafe", "name": "Caffe Street"}}, {"type": "node", "id": 9976771606, "lat": 42.618356, "lon": 19.0876705}, {"type": "node", "id": 9976771615, "lat": 42.6183213, "lon": 19.0877737}, {"type": "node", "id": 9976771616, "lat": 42.6182457, "lon": 19.0877271}, {"type": "node", "id": 9976777519, "lat": 42.6182803, "lon": 19.0876235}, {"type": "node", "id": 9983241396, "lat": 42.4594186, "lon": 18.6724177, "tags": {"addr:street": "Kamenari", "amenity": "restaurant", "contact:email": "oystermontenegro@gmail.com", "cuisine": "seafood;regional", "int_name": "Oysters Montenegro", "internet_access": "wlan", "internet_access:fee": "no", "name": "Uzgajali\u0161te \u0160koljki", "opening_hours": "Mo-Su 09:00-19:00", "outdoor_seating": "yes", "phone": "+382 68 751 674", "smoking": "outside", "wheelchair": "no"}}, {"type": "node", "id": 9983571593, "lat": 42.4849718, "lon": 18.7006636, "tags": {"amenity": "restaurant", "cuisine": "regional;seafood;coffee_shop;italian;mediterranean;pasta;fish", "name": "Laguna", "outdoor_seating": "yes", "toilets:access": "customers"}}, {"type": "node", "id": 10005199588, "lat": 42.4116925, "lon": 18.6446786}, {"type": "node", "id": 10005199589, "lat": 42.4116319, "lon": 18.644817}, {"type": "node", "id": 10005199590, "lat": 42.4115005, "lon": 18.6447113}, {"type": "node", "id": 10005199591, "lat": 42.4115611, "lon": 18.6445729}, {"type": "node", "id": 10005213779, "lat": 42.4116859, "lon": 18.6445167}, {"type": "node", "id": 10005213780, "lat": 42.4116473, "lon": 18.6446145}, {"type": "node", "id": 10005213781, "lat": 42.4115689, "lon": 18.6445578}, {"type": "node", "id": 10005213782, "lat": 42.4116075, "lon": 18.64446}, {"type": "node", "id": 10009738023, "lat": 42.4097728, "lon": 18.6498642}, {"type": "node", "id": 10009738024, "lat": 42.4098604, "lon": 18.6497164}, {"type": "node", "id": 10009738025, "lat": 42.4097621, "lon": 18.6496096}, {"type": "node", "id": 10009738026, "lat": 42.4096745, "lon": 18.6497573}, {"type": "node", "id": 10020160619, "lat": 42.4609118, "lon": 18.5441415, "tags": {"amenity": "restaurant", "contact:facebook": "https://www.facebook.com/caffebarpodi", "contact:phone": "+382 68 288 266", "name": "Caffe Bar Podi"}}, {"type": "node", "id": 10085788417, "lat": 42.4248176, "lon": 18.7707958, "tags": {"addr:housenumber": "368", "addr:street": "Stari grad", "amenity": "cafe", "name:en": "Caffe bar \u201cMone\u201d", "name:pl": "Caffe bar \u201cMone\u201d", "opening_hours": "Mo-Su 09:00-23:00"}}, {"type": "node", "id": 10088609617, "lat": 42.4388258, "lon": 18.5872703, "tags": {"addr:street": "Kumbor", "amenity": "restaurant", "internet_access": "wlan", "name": "Mondo"}}, {"type": "node", "id": 10088620917, "lat": 42.4386689, "lon": 18.5872688, "tags": {"addr:street": "Kumbor", "amenity": "restaurant", "cuisine": "barbecue;fish;italian_pizza;local", "email": "mondokumbor@gmail.com", "name": "Mondo", "phone": "+38268701301"}}, {"type": "node", "id": 10160023126, "lat": 42.4401361, "lon": 18.6870404, "tags": {"amenity": "restaurant", "cuisine": "regional", "name": "Ponta Veranda", "phone": "+38267563985"}}, {"type": "node", "id": 10304983985, "lat": 42.4517386, "lon": 18.5356139, "tags": {"addr:housenumber": "13", "addr:street": "Njego\u0161eva", "air_conditioning": "yes", "amenity": "cafe", "check_date": "2024-09-15", "cuisine": "coffee_shop", "indoor_seating": "yes", "name": "Fabrika Coffee", "opening_hours": "Mo-Fr 08:00-19:00; Sa-Su 09:00-19:00", "outdoor_seating": "terrace", "payment:cash": "yes", "payment:credit_cards": "yes", "payment:debit_cards": "yes", "payment:mastercard": "yes", "payment:visa": "yes", "smoking": "outside", "source": "survey", "toilets": "yes", "toilets:wheelchair": "no", "wheelchair": "no"}}, {"type": "node", "id": 10308870409, "lat": 42.452065, "lon": 18.5366383, "tags": {"addr:housenumber": "18", "addr:street": "Ulica Nikole \u0110urkovi\u0107a", "amenity": "restaurant", "cuisine": "balkan;coffee_shop;italian;mediterranean;pasta;regional;seafood", "name:en": "Konoba \"Stara kuca\""}}, {"type": "node", "id": 10308904948, "lat": 42.7718281, "lon": 18.9506754, "tags": {"amenity": "restaurant", "cuisine": "pizza;regional;coffee_shop;sandwich", "name": "Pekara Bistro & Cafe"}}, {"type": "node", "id": 10315102205, "lat": 42.3592412, "lon": 19.1070021}, {"type": "node", "id": 10315102206, "lat": 42.359154, "lon": 19.1071251}, {"type": "node", "id": 10315102207, "lat": 42.359073, "lon": 19.1070198}, {"type": "node", "id": 10315102208, "lat": 42.3591602, "lon": 19.1068968}, {"type": "node", "id": 10702774522, "lat": 42.4343807, "lon": 18.6000849, "tags": {"amenity": "restaurant", "name": "Perla Square Portonovi"}}, {"type": "node", "id": 10707881339, "lat": 42.4348665, "lon": 18.602542, "tags": {"amenity": "restaurant", "cuisine": "middle_eastern", "name": "Square Restaurant"}}, {"type": "node", "id": 10731565703, "lat": 42.4344885, "lon": 18.6017315, "tags": {"amenity": "restaurant", "cuisine": "italian", "name": "Romeo & Juliet"}}, {"type": "node", "id": 10731612809, "lat": 42.4338389, "lon": 18.6013601, "tags": {"amenity": "cafe", "cuisine": "coffee_shop", "name": "Koffein"}}, {"type": "node", "id": 10766378407, "lat": 42.4307263, "lon": 18.6958068, "tags": {"amenity": "restaurant", "name:en": "Big Bite"}}, {"type": "node", "id": 10766398805, "lat": 42.428497, "lon": 18.6985014, "tags": {"amenity": "restaurant", "name:en": "La Roche", "opening_hours": "Mo-Su 08:00-23:00"}}, {"type": "node", "id": 10795022206, "lat": 42.3486918, "lon": 18.7678198, "tags": {"amenity": "restaurant", "name:en": "meat and wine", "opening_hours": "Mo-Su 12:00-21:00"}}, {"type": "node", "id": 10795255605, "lat": 42.4299305, "lon": 18.6972323, "tags": {"amenity": "restaurant", "name:en": "La Boheme", "opening_hours": "Mo-Su 07:00-23:00"}}, {"type": "node", "id": 10936902316, "lat": 42.4314555, "lon": 18.7675866, "tags": {"addr:city": "Dobrota", "addr:housenumber": "23", "addr:postcode": "85330", "addr:street": "Put I Bokeljske Brigade", "amenity": "restaurant", "name": "Bonita 99", "outdoor_seating": "yes"}}, {"type": "node", "id": 10936937949, "lat": 42.4359501, "lon": 18.7654214, "tags": {"addr:city": "Dobrota", "addr:street": "Put I Bokeljske Brigade", "amenity": "restaurant", "name": "Platanus", "opening_hours": "07:00-01:00"}}, {"type": "node", "id": 10936937950, "lat": 42.4320184, "lon": 18.7674846, "tags": {"addr:city": "Dobrota", "addr:postcode": "85330", "addr:street": "Put I Bokeljske Brigade", "amenity": "cafe", "name": "Kadena"}}, {"type": "node", "id": 10939721334, "lat": 42.4278103, "lon": 18.7698848, "tags": {"addr:street": "Trg Mata Petrovi\u0107a", "amenity": "cafe", "level": "1", "name": "Soleil"}}, {"type": "node", "id": 10940201826, "lat": 42.4351602, "lon": 18.7666228, "tags": {"amenity": "cafe", "name": "Venezia", "opening_hours": "Mo-Fr 06:00-23:59"}}, {"type": "node", "id": 10942109360, "lat": 42.4439689, "lon": 18.7641011, "tags": {"addr:city": "Dobrota", "addr:housenumber": "151", "addr:postcode": "85330", "addr:street": "Donji put", "amenity": "restaurant", "cuisine": "turkish", "internet_access": "wlan", "internet_access:fee": "customers", "name": "Tiha No\u0107", "outdoor_seating": "yes", "phone": "+382 32 330880", "smoking": "outside", "website": "https://tihanocrestaurant.com/"}}, {"type": "node", "id": 10951119705, "lat": 42.4195815, "lon": 18.7700867, "tags": {"amenity": "restaurant", "cuisine": "breakfast;chicken;coffee_shop;pasta;sandwich", "internet_access": "wlan", "name": "Boka", "opening_hours": "24/7"}}, {"type": "node", "id": 10983615298, "lat": 42.3853392, "lon": 18.6592295}, {"type": "node", "id": 10983622251, "lat": 42.3854979, "lon": 18.6593207}, {"type": "node", "id": 10983622252, "lat": 42.3852884, "lon": 18.659558}, {"type": "node", "id": 10983622253, "lat": 42.3853179, "lon": 18.6596585}, {"type": "node", "id": 10983622255, "lat": 42.3855031, "lon": 18.6594025}, {"type": "node", "id": 10983956647, "lat": 42.4246559, "lon": 18.7712307, "tags": {"amenity": "restaurant", "description": "Udovoljite svojim \u010dulima u\u017eivaju\u0107i u specijalitetima mediteranske kuhinje u luksuznom ambijentu i okru\u017eenju. Na\u0161 jedinstveni objekat nalazi se u srcu Starog grada u Kotoru, na Trgu od Mlijeka, \u0161to daje poseban pe\u010dat ovoj divnoj pri\u010di.", "name": "Pepe Nero", "website": "https://kod.rs/xgh"}}, {"type": "node", "id": 10989489538, "lat": 42.4255662, "lon": 18.7717897, "tags": {"amenity": "restaurant", "description": "Udovoljite svojim \u010dulima u\u017eivaju\u0107i u specijalitetima mediteranske kuhinje u luksuznom ambijentu i okru\u017eenju. Na\u0161 jedinstveni objekat nalazi se u srcu Starog grada u Kotoru, na Trgu od Mlijeka, \u0161to daje poseban pe\u010dat ovoj divnoj pri\u010di.", "name": "Pepe Nero", "website": "https://kod.rs/xgh/informacije"}}, {"type": "node", "id": 10997187405, "lat": 42.4429247, "lon": 18.693611, "tags": {"amenity": "cafe", "check_date": "2024-07-19", "name:en": "La Strada", "official_name": "La Strada by Bigben"}}, {"type": "node", "id": 11010056798, "lat": 42.42876, "lon": 18.6982802, "tags": {"addr:city": "Tivat", "addr:housenumber": "3", "addr:postcode": "85320", "addr:street": "\u0160etali\u0161te Kapetana Iva Vizina", "air_conditioning": "yes", "amenity": "restaurant", "cuisine": "italian;seafood", "name": "Divino", "opening_hours": "Mo-Su 08:00-24:00", "outdoor_seating": "yes", "phone": "+382 68 570 594", "takeaway": "yes", "website": "https://www.divinorestaurant.me/"}}, {"type": "node", "id": 11025065511, "lat": 42.3854035, "lon": 18.6597031}, {"type": "node", "id": 11032013706, "lat": 42.3918046, "lon": 18.921362, "tags": {"amenity": "cafe", "check_date": "2024-10-07", "name": "Caffe Bar Bulevar"}}, {"type": "node", "id": 11033962805, "lat": 42.4230853, "lon": 18.7311348, "tags": {"amenity": "restaurant", "name:en": "Nadoveza"}}, {"type": "node", "id": 11035846692, "lat": 42.3561872, "lon": 19.0223749, "tags": {"amenity": "restaurant", "bar": "yes", "cuisine": "regional", "name": "Konoba Lesendro", "outdoor_seating": "yes", "phone": "+382 68 888 988", "smoking": "yes", "toilets": "yes"}}, {"type": "node", "id": 11054522170, "lat": 42.4256686, "lon": 18.7691977, "tags": {"amenity": "restaurant", "check_date": "2024-08-26", "name": "Citadela"}}, {"type": "node", "id": 11096968492, "lat": 42.4149777, "lon": 18.7676101, "tags": {"amenity": "restaurant", "name": "INCONTRO bar & food konoba"}}, {"type": "node", "id": 11101909021, "lat": 42.4405946, "lon": 18.6917296, "tags": {"addr:housenumber": "20", "addr:street": "Nikole Tesle", "amenity": "restaurant", "check_date": "2024-07-18", "contact:instagram": "soul_pizza_studio", "cuisine": "pizza", "name": "Soul Pizza Studio", "opening_hours": "Tu-Su 13:00-23:00", "operator": "Picerija Soul Casa Di Pizza e Pasta doo", "phone": "+38269745835"}}, {"type": "node", "id": 11105528786, "lat": 42.3794106, "lon": 18.8363728}, {"type": "node", "id": 11105528787, "lat": 42.3794599, "lon": 18.8363153}, {"type": "node", "id": 11105528788, "lat": 42.3794065, "lon": 18.8362314}, {"type": "node", "id": 11105528789, "lat": 42.3793572, "lon": 18.8362889}, {"type": "node", "id": 11108332415, "lat": 42.6721939, "lon": 19.0245934}, {"type": "node", "id": 11108332416, "lat": 42.6721279, "lon": 19.0246922}, {"type": "node", "id": 11108332417, "lat": 42.6721021, "lon": 19.0246604}, {"type": "node", "id": 11108332418, "lat": 42.6720628, "lon": 19.0247193}, {"type": "node", "id": 11108332419, "lat": 42.672098, "lon": 19.0247628}, {"type": "node", "id": 11108332420, "lat": 42.6720673, "lon": 19.0248087}, {"type": "node", "id": 11108332421, "lat": 42.6719589, "lon": 19.0246747}, {"type": "node", "id": 11108332422, "lat": 42.6720282, "lon": 19.0245709}, {"type": "node", "id": 11108332423, "lat": 42.6719895, "lon": 19.024523}, {"type": "node", "id": 11108332424, "lat": 42.6720562, "lon": 19.0244231}, {"type": "node", "id": 11108644057, "lat": 42.3948555, "lon": 18.5793427}, {"type": "node", "id": 11108644058, "lat": 42.394908, "lon": 18.5794137}, {"type": "node", "id": 11108644059, "lat": 42.3949867, "lon": 18.5792491}, {"type": "node", "id": 11108644060, "lat": 42.395018, "lon": 18.5792528}, {"type": "node", "id": 11108644061, "lat": 42.3949061, "lon": 18.5792394}, {"type": "node", "id": 11108644062, "lat": 42.3949427, "lon": 18.5791375}, {"type": "node", "id": 11108644063, "lat": 42.3950239, "lon": 18.5791402}, {"type": "node", "id": 11109082547, "lat": 42.5990885, "lon": 19.1031981, "tags": {"amenity": "cafe", "indoor_seating": "yes", "outdoor_seating": "yes"}}, {"type": "node", "id": 11109089313, "lat": 42.5995703, "lon": 19.1022993, "tags": {"amenity": "restaurant", "name": "Dobrina"}}, {"type": "node", "id": 11132069548, "lat": 42.3993383, "lon": 18.5806079}, {"type": "node", "id": 11135708322, "lat": 42.3998092, "lon": 18.5805804}, {"type": "node", "id": 11135708323, "lat": 42.399748, "lon": 18.5805799}, {"type": "node", "id": 11135708324, "lat": 42.3997468, "lon": 18.5807125}, {"type": "node", "id": 11140916307, "lat": 42.4240385, "lon": 18.7715161, "tags": {"amenity": "cafe", "coffee": "yes", "diet:vegan": "yes", "diet:vegetarian": "yes", "drink:oat_milk": "yes", "indoor_seating": "yes", "internet_access": "no", "name": "Mon Bistro", "outdoor_seating": "yes"}}, {"type": "node", "id": 11145958783, "lat": 42.4514925, "lon": 18.5368095}, {"type": "node", "id": 11152699659, "lat": 42.5669423, "lon": 19.0761249, "tags": {"amenity": "restaurant", "contact:instagram": "https://www.instagram.com/restoran_mastika_", "contact:phone": "+382 67 170 270", "name": "Restoran Mastika"}}, {"type": "node", "id": 11207464092, "lat": 42.4460204, "lon": 18.6874226}, {"type": "node", "id": 11207464093, "lat": 42.4461129, "lon": 18.6874545}, {"type": "node", "id": 11207464094, "lat": 42.4461286, "lon": 18.6873896}, {"type": "node", "id": 11207464095, "lat": 42.4460376, "lon": 18.6873556}, {"type": "node", "id": 11214802037, "lat": 42.4633397, "lon": 18.6735856, "tags": {"amenity": "restaurant", "contact:instagram": "BocasaBeach", "cuisine": "local;seafood", "internet_access": "wlan", "name:en": "Bocasa", "phone": "+38267600973"}}, {"type": "node", "id": 11214802137, "lat": 42.4602, "lon": 18.6758455, "tags": {"amenity": "restaurant", "cuisine": "local;seafood", "internet_access": "wlan", "name:en": "Adriatica"}}, {"type": "node", "id": 11217165232, "lat": 42.4543315, "lon": 18.7657578, "tags": {"addr:city": "Dobrota", "addr:district": "Kotor", "addr:housenumber": "208", "addr:postcode": "85331", "addr:street": "Kamenarovi\u0107i", "air_conditioning": "no", "amenity": "restaurant", "bar": "yes", "branch": "Nein", "brand": "Keine", "brewery": "yes;various", "capacity": "50", "cuisine": "italian", "delivery": "no", "diet:vegetarian": "yes", "highchair": "yes", "level": "0", "microbrewery": "no", "name": "La Ricetta", "opening_hours": "Mo-Su 15:00-01:00", "outdoor_seating": "no", "payment:cards": "yes", "payment:cash": "yes", "payment:credit_cards": "yes", "payment:debit_cards": "yes", "phone": "+382 69 148 888", "smoking": "outside", "takeaway": "no", "toilets": "yes", "website": "https://laricetta.me", "wheelchair": "limited"}}, {"type": "node", "id": 11301956488, "lat": 42.3669659, "lon": 18.9533943, "tags": {"amenity": "cafe", "name": "Caffe Bar Lipa", "opening_hours": "Mo-Su 10:00-14:00", "phone": "+382 67 003040", "website": "https://business.google.com/photos/l/09359899542083462224"}}, {"type": "node", "id": 11308253462, "lat": 42.4504772, "lon": 18.6476619, "tags": {"amenity": "cafe", "cuisine": "coffee_shop", "outdoor_seating": "yes"}}, {"type": "node", "id": 11308253463, "lat": 42.4526001, "lon": 18.6510184, "tags": {"amenity": "cafe", "name": "Lider"}}, {"type": "node", "id": 11308253464, "lat": 42.4512961, "lon": 18.6511462, "tags": {"amenity": "restaurant"}}, {"type": "node", "id": 11308253465, "lat": 42.4500502, "lon": 18.6503121, "tags": {"amenity": "cafe", "outdoor_seating": "yes"}}, {"type": "node", "id": 11316353269, "lat": 42.4465553, "lon": 18.6429403, "tags": {"amenity": "restaurant", "name:en": "Pretorian"}}, {"type": "node", "id": 11316353270, "lat": 42.4402692, "lon": 18.6262964, "tags": {"amenity": "restaurant", "name:en": "Dva kapetana"}}, {"type": "node", "id": 11316353272, "lat": 42.4501191, "lon": 18.650291, "tags": {"amenity": "cafe", "name": "Insieme"}}, {"type": "node", "id": 11316353469, "lat": 42.4411849, "lon": 18.6300992, "tags": {"amenity": "cafe", "name:en": "Saint-Tropez"}}, {"type": "node", "id": 11316353569, "lat": 42.4410871, "lon": 18.6296813, "tags": {"amenity": "restaurant", "name:en": "Volga-Volga"}}, {"type": "node", "id": 11316353670, "lat": 42.4376893, "lon": 18.6138256, "tags": {"amenity": "cafe", "name:en": "Beach Pub"}}, {"type": "node", "id": 11316355569, "lat": 42.4505333, "lon": 18.6477489, "tags": {"amenity": "cafe", "name:en": "Nije presa"}}, {"type": "node", "id": 11446210069, "lat": 42.4299239, "lon": 18.7019759, "tags": {"addr:housenumber": "6", "addr:postcode": "85320", "addr:street": "Kamelija", "amenity": "cafe", "cuisine": "coffee_shop;donut;tea", "name:en": "Capulus coffee", "opening_hours": "Mo-Su 07:00-21:00"}}, {"type": "node", "id": 11478782669, "lat": 42.4240932, "lon": 18.7711463, "tags": {"amenity": "restaurant", "name:en": "Pizzeria Sara"}}, {"type": "node", "id": 11683979581, "lat": 42.4632642, "lon": 18.546604}, {"type": "node", "id": 11683979582, "lat": 42.4631345, "lon": 18.5464442}, {"type": "node", "id": 11683979583, "lat": 42.4630684, "lon": 18.5465497}, {"type": "node", "id": 11683979584, "lat": 42.4630519, "lon": 18.5469237}, {"type": "node", "id": 11683979585, "lat": 42.4632241, "lon": 18.546978}, {"type": "node", "id": 11690425813, "lat": 42.4852809, "lon": 18.7028598}, {"type": "node", "id": 11690425814, "lat": 42.4852257, "lon": 18.7031016}, {"type": "node", "id": 11703556375, "lat": 42.4506148, "lon": 18.5738014}, {"type": "node", "id": 11703556376, "lat": 42.450541, "lon": 18.5738673}, {"type": "node", "id": 11703556377, "lat": 42.4509436, "lon": 18.5730717}, {"type": "node", "id": 11703556378, "lat": 42.4510015, "lon": 18.5731638}, {"type": "node", "id": 11703556379, "lat": 42.450938, "lon": 18.5732119}, {"type": "node", "id": 11703556380, "lat": 42.4508887, "lon": 18.573128}, {"type": "node", "id": 11703556401, "lat": 42.4505973, "lon": 18.5737646, "tags": {"entrance": "yes"}}, {"type": "node", "id": 11711983755, "lat": 42.3864923, "lon": 18.6630042, "tags": {"amenity": "cafe", "cuisine": "ice_cream", "name": "Ciao Bella Gelateria", "outdoor_seating": "yes"}}, {"type": "node", "id": 11756730541, "lat": 42.4507198, "lon": 18.534864, "tags": {"amenity": "cafe", "name": "Mi\u0161ka / \u041c\u0438\u0448\u043a\u0430"}}, {"type": "node", "id": 11786931155, "lat": 42.4401907, "lon": 18.5844932, "tags": {"amenity": "cafe"}}, {"type": "node", "id": 11805284872, "lat": 42.3910614, "lon": 18.9266107, "tags": {"amenity": "cafe", "check_date": "2024-04-09", "internet_access": "wlan", "internet_access:fee": "customers", "name": "Montenegro", "payment:cash": "yes", "payment:free": "yes", "wheelchair": "limited"}}, {"type": "node", "id": 11805284873, "lat": 42.3901352, "lon": 18.9273849, "tags": {"amenity": "cafe", "check_date": "2024-10-07", "internet_access": "wlan", "internet_access:fee": "customers", "name": "Tara Kod Sulja", "wheelchair": "limited"}}, {"type": "node", "id": 11805284874, "lat": 42.3900593, "lon": 18.926849, "tags": {"air_conditioning": "yes", "amenity": "cafe", "check_date": "2024-10-07", "internet_access": "no", "name": "Jedite Kod Djola", "opening_hours": "Mo-Fr 08:00-21:00; Su 10:00-21:00", "smoking": "no", "wheelchair": "limited"}}, {"type": "node", "id": 11824046336, "lat": 42.3919176, "lon": 18.9208463, "tags": {"amenity": "restaurant", "check_date": "2025-02-12", "cuisine": "pizza", "internet_access": "wlan", "internet_access:fee": "customers", "name": "Obelix", "wheelchair": "no"}}, {"type": "node", "id": 11839064169, "lat": 42.4504483, "lon": 18.5429286, "tags": {"addr:street": "\u0160etali\u0161te 5 Danica", "amenity": "restaurant", "cuisine": "seafood", "name:en": "Copas"}}, {"type": "node", "id": 11843646592, "lat": 42.3846128, "lon": 18.9251072, "tags": {"amenity": "cafe", "check_date": "2024-04-24", "internet_access": "no", "name": "Vinska Kuca", "name:en": "Wine House", "payment:cash": "yes", "payment:free": "yes", "wheelchair": "limited"}}, {"type": "node", "id": 11868571730, "lat": 42.3939864, "lon": 18.9163362, "tags": {"amenity": "cafe", "check_date": "2024-11-16"}}, {"type": "node", "id": 11868601318, "lat": 42.3938739, "lon": 18.9186182, "tags": {"amenity": "cafe", "check_date": "2024-11-16"}}, {"type": "node", "id": 11868601320, "lat": 42.394417, "lon": 18.9191518, "tags": {"amenity": "cafe", "check_date": "2024-04-30"}}, {"type": "node", "id": 11874480587, "lat": 42.3980879, "lon": 18.9175257, "tags": {"amenity": "cafe", "check_date": "2025-05-30", "name": "Konadzija"}}, {"type": "node", "id": 11874505474, "lat": 42.3951961, "lon": 18.9152284, "tags": {"amenity": "cafe", "check_date": "2024-11-16", "name": "Mim", "opening_hours": "Mo-Sa 06:00-23:00"}}, {"type": "node", "id": 11885000540, "lat": 42.435874, "lon": 18.6935561, "tags": {"amenity": "restaurant", "contact:instagram": "https://www.instagram.com/nama_sushiandcoffee/", "cuisine": "asian", "delivery": "yes", "name": "Nama", "opening_hours": "09:00-22:30", "opening_hours:kitchen": "09:00-22:00", "outdoor_seating": "yes", "payment:cash": "yes", "payment:credit_cards": "yes", "payment:debit_cards": "yes", "phone": "+38267188896", "takeaway": "yes", "website": "https://namacg.me/"}}, {"type": "node", "id": 11885000541, "lat": 42.4357778, "lon": 18.693574, "tags": {"amenity": "restaurant", "cuisine": "seafood", "delivery": "yes", "name": "Il Pescatore", "payment:cash": "yes", "payment:credit_cards": "yes", "payment:debit_cards": "yes", "takeaway": "yes"}}, {"type": "node", "id": 11885000542, "lat": 42.4356789, "lon": 18.6935957, "tags": {"amenity": "restaurant", "name": "Lotta", "outdoor_seating": "yes", "payment:cash": "yes", "payment:credit_cards": "yes", "payment:debit_cards": "yes", "takeaway": "yes", "website": "https://lottalife.me/"}}, {"type": "node", "id": 11885000543, "lat": 42.4356007, "lon": 18.693611, "tags": {"amenity": "restaurant", "contact:instagram": "https://www.instagram.com/settimana_urban_food", "cuisine": "italian", "delivery": "yes", "name": "Settimana", "opening_hours": "13:00-22:00", "opening_hours:kitchen": "13:00-21:30", "outdoor_seating": "yes", "payment:cash": "yes", "payment:credit_cards": "yes", "payment:debit_cards": "yes", "phone": "+382 67 420 090", "reservation": "yes", "takeaway": "yes"}}, {"type": "node", "id": 11885000544, "lat": 42.4354602, "lon": 18.6936365, "tags": {"amenity": "cafe", "brand": "\u041a\u0430\u0444\u0435\u0442\u0435\u0440\u0438\u0458\u0430", "brand:en": "Kafeteria", "brand:sr": "\u041a\u0430\u0444\u0435\u0442\u0435\u0440\u0438\u0458\u0430", "brand:sr-Latn": "Kafeterija", "brand:wikidata": "Q131823194", "cuisine": "coffee_shop", "email": "boris.grgic@kafeterija.com", "name": "\u041a\u0430\u0444\u0435\u0442\u0435\u0440\u0438\u0458\u0430", "name:en": "Kafeteria", "name:sr": "\u041a\u0430\u0444\u0435\u0442\u0435\u0440\u0438\u0458\u0430", "name:sr-Latn": "Kafeterija", "opening_hours": "07:00-22:00", "outdoor_seating": "yes", "payment:cash": "yes", "payment:credit_cards": "yes", "payment:debit_cards": "yes", "phone": "+382 32 781756", "smoking": "outside", "takeaway": "yes", "website": "https://kafeterija.com/"}}, {"type": "node", "id": 11889552503, "lat": 42.3920414, "lon": 18.9260702, "tags": {"addr:city": "Cetinje", "amenity": "restaurant", "check_date": "2024-05-08", "internet_access": "wlan", "internet_access:fee": "customers", "payment:cash": "yes", "payment:free": "yes", "wheelchair": "limited"}}, {"type": "node", "id": 11945130426, "lat": 42.4345593, "lon": 18.7694127, "tags": {"amenity": "cafe", "name": "Mone", "opening_hours": "Mo-Su 09:00-20:00", "payment:cash": "yes", "payment:credit_cards": "yes", "payment:debit_cards": "yes", "wheelchair": "yes"}}, {"type": "node", "id": 11958895870, "lat": 42.4656962, "lon": 18.6861056, "tags": {"amenity": "restaurant", "cuisine": "breakfast;chicken;coffee_shop;pasta;seafood", "diet:vegetarian": "yes", "internet_access": "wlan", "name:en": "Amphora", "name:ru": "\u0410\u043c\u0444\u043e\u0440\u0430", "opening_hours": "Su-Sa 09:00-22:00", "website": "https://www.instagram.com/amphora_rest?igsh=dWF2dW9tZTA3bnhw"}}, {"type": "node", "id": 11985660225, "lat": 42.7748323, "lon": 18.9492841, "tags": {"addr:housenumber": "10", "addr:street": "Njego\u0161eva", "amenity": "restaurant", "check_date": "2024-06-16", "cuisine": "cake;pancake;chicken;juice;dessert;breakfast;bakery;crepe;wings;sandwich", "delivery": "yes", "internet_access": "wlan", "internet_access:fee": "customers", "internet_access:ssid": "LaParisienne", "name": "La Parisienne", "opening_hours": "08:00-22:00", "outdoor_seating": "yes", "phone": "+382 67 999 958"}}, {"type": "node", "id": 11985712470, "lat": 42.7735725, "lon": 18.9476351, "tags": {"amenity": "cafe", "name": "Caffe Bar Llama"}}, {"type": "node", "id": 11985829371, "lat": 42.7754728, "lon": 18.9487427, "tags": {"amenity": "cafe"}}, {"type": "node", "id": 11985829373, "lat": 42.7726132, "lon": 18.948434, "tags": {"amenity": "cafe"}}, {"type": "node", "id": 11985829374, "lat": 42.7728266, "lon": 18.9485293, "tags": {"amenity": "cafe"}}, {"type": "node", "id": 11985888172, "lat": 42.7750524, "lon": 18.9448071, "tags": {"amenity": "cafe"}}, {"type": "node", "id": 11985888370, "lat": 42.7751223, "lon": 18.9447805, "tags": {"amenity": "cafe"}}, {"type": "node", "id": 11986026574, "lat": 42.774263, "lon": 18.9461749, "tags": {"amenity": "restaurant", "cuisine": "breakfast;cake;chicken;coffee_shop;grill;pancake", "internet_access": "wlan", "name": "Kastel", "opening_hours": "Mo-Su 06:00-23:00", "phone": "+382 69 543 005"}}, {"type": "node", "id": 12000446843, "lat": 42.5953319, "lon": 18.6752442, "tags": {"amenity": "cafe"}}, {"type": "node", "id": 12000994016, "lat": 42.4498059, "lon": 18.5387463, "tags": {"amenity": "cafe", "name": "Konoba Mala Ku\u017eina", "outdoor_seating": "yes"}}, {"type": "node", "id": 12027909018, "lat": 42.438111, "lon": 18.6917685, "tags": {"amenity": "restaurant", "check_date": "2024-07-19", "name": "Napa Restaurant & Wine bar", "website": "https://portopalace.me/restaurant/"}}, {"type": "node", "id": 12031330559, "lat": 42.3929209, "lon": 18.7925959}, {"type": "node", "id": 12031330560, "lat": 42.3932298, "lon": 18.7922207}, {"type": "node", "id": 12031330561, "lat": 42.3930144, "lon": 18.7926691}, {"type": "node", "id": 12031330562, "lat": 42.3931955, "lon": 18.7925486}, {"type": "node", "id": 12031330563, "lat": 42.3931183, "lon": 18.7921334}, {"type": "node", "id": 12031330564, "lat": 42.3932745, "lon": 18.7923637}, {"type": "node", "id": 12031330565, "lat": 42.3929865, "lon": 18.7927345}, {"type": "node", "id": 12031330566, "lat": 42.3930326, "lon": 18.7927705}, {"type": "node", "id": 12031330567, "lat": 42.3931443, "lon": 18.7925086}, {"type": "node", "id": 12031330568, "lat": 42.3931953, "lon": 18.7923017}, {"type": "node", "id": 12054040779, "lat": 42.4497964, "lon": 18.5479816}, {"type": "node", "id": 12054040780, "lat": 42.449761, "lon": 18.5479786}, {"type": "node", "id": 12054040781, "lat": 42.4497675, "lon": 18.5478395}, {"type": "node", "id": 12054040782, "lat": 42.449803, "lon": 18.5478425}, {"type": "node", "id": 12056090226, "lat": 42.4554107, "lon": 18.6562523, "tags": {"amenity": "restaurant", "cuisine": "pizza", "name": "Pizzeria Marleen"}}, {"type": "node", "id": 12058993799, "lat": 42.6269204, "lon": 19.0767342, "tags": {"amenity": "restaurant", "name": "Gostionica Ostrog Podstijene", "opening_hours": "Mo-Su 07:00-23:00", "phone": "+38269997887"}}, {"type": "node", "id": 12064457069, "lat": 42.4723607, "lon": 18.7086595, "tags": {"amenity": "restaurant", "name": "Konoba Fure\u0161ti"}}, {"type": "node", "id": 12067076817, "lat": 42.429997, "lon": 18.6959421, "tags": {"amenity": "cafe", "check_date": "2024-07-21", "name": "Propela"}}, {"type": "node", "id": 12099369164, "lat": 42.3587726, "lon": 19.1066451, "tags": {"amenity": "restaurant", "name": "Karu\u010dki kr\u0161", "phone": "+38269844123"}}, {"type": "node", "id": 12144227418, "lat": 42.4541431, "lon": 18.6540145, "tags": {"amenity": "cafe", "name": "Cafe&Bar", "survey:date": "2024-08-29"}}, {"type": "node", "id": 12170633323, "lat": 42.4277389, "lon": 18.7702992, "tags": {"addr:city": "Kotor", "addr:street": "Square Mata Petrovi\u0107a", "air_conditioning": "yes", "amenity": "cafe", "bar": "yes", "contact:facebook": "https://www.instagram.com/cave_mne", "cuisine": "coffee_shop", "delivery": "no", "drive_through": "no", "image": "https://maps.app.goo.gl/DVhGLacTjHCyDofGA", "internet_access": "yes", "internet_access:fee": "no", "level": "0", "name": "CAVE coffee", "opening_hours": "07:30-20:00", "outdoor_seating": "yes", "payment:cash": "yes", "payment:credit_cards": "no", "payment:debit_cards": "no", "smoking": "isolated", "source": "local knowledge", "start_date": "2024-06-19", "takeaway": "only", "toilets": "yes", "website": "https://cave-coffee.com"}}, {"type": "node", "id": 12176722132, "lat": 42.4572078, "lon": 18.5244852, "tags": {"amenity": "restaurant", "check_date": "2024-09-14", "cuisine": "georgian", "level": "0", "name": "Amber", "opening_hours": "12:00-22:00", "website": "https://amber-rest.com/"}}, {"type": "node", "id": 12189706758, "lat": 42.3860022, "lon": 18.74247, "tags": {"amenity": "restaurant", "cuisine": "pizza;coffee_shop;italian;steak_house", "name": "Osteria Grano"}}, {"type": "node", "id": 12192608781, "lat": 42.3890007, "lon": 18.7398739, "tags": {"amenity": "restaurant", "cuisine": "burger", "name": "Burger House"}}, {"type": "node", "id": 12192608784, "lat": 42.3896699, "lon": 18.7390194}, {"type": "node", "id": 12221741646, "lat": 42.3563605, "lon": 19.0236143, "tags": {"amenity": "restaurant", "name": "Porat"}}, {"type": "node", "id": 12390134757, "lat": 42.4243413, "lon": 18.7697985, "tags": {"amenity": "cafe", "check_date": "2024-12-02", "cuisine": "bubble_tea", "name": "Bobalicious"}}, {"type": "node", "id": 12430388828, "lat": 42.4364494, "lon": 18.6981842, "tags": {"addr:housenumber": "2", "addr:street": "Pod Kuk", "amenity": "cafe", "internet_access": "wlan", "name": "Coffee Novi", "opening_hours": "Mo-Su 08:00-20:00", "outdoor_seating": "yes", "toilets": "yes"}}, {"type": "node", "id": 12539356864, "lat": 42.4502426, "lon": 18.5353564, "tags": {"amenity": "cafe", "brand": "\u041a\u0430\u0444\u0435\u0442\u0435\u0440\u0438\u0458\u0430", "brand:en": "Kafeteria", "brand:sr": "\u041a\u0430\u0444\u0435\u0442\u0435\u0440\u0438\u0458\u0430", "brand:sr-Latn": "Kafeterija", "brand:wikidata": "Q131823194", "cuisine": "coffee_shop", "name": "\u041a\u0430\u0444\u0435\u0442\u0435\u0440\u0438\u0458\u0430", "name:en": "Kafeteria", "name:sr": "\u041a\u0430\u0444\u0435\u0442\u0435\u0440\u0438\u0458\u0430", "name:sr-Latn": "Kafeterija", "takeaway": "yes"}}, {"type": "node", "id": 12539361617, "lat": 42.4337476, "lon": 18.601284, "tags": {"amenity": "cafe", "brand": "\u041a\u0430\u0444\u0435\u0442\u0435\u0440\u0438\u0458\u0430", "brand:en": "Kafeteria", "brand:sr": "\u041a\u0430\u0444\u0435\u0442\u0435\u0440\u0438\u0458\u0430", "brand:sr-Latn": "Kafeterija", "brand:wikidata": "Q131823194", "cuisine": "coffee_shop", "name": "\u041a\u0430\u0444\u0435\u0442\u0435\u0440\u0438\u0458\u0430", "name:en": "Kafeteria", "name:sr": "\u041a\u0430\u0444\u0435\u0442\u0435\u0440\u0438\u0458\u0430", "name:sr-Latn": "Kafeterija", "takeaway": "yes"}}, {"type": "node", "id": 12619240740, "lat": 42.4384695, "lon": 18.6145799}, {"type": "node", "id": 12619240741, "lat": 42.4383566, "lon": 18.6146617}, {"type": "node", "id": 12619240742, "lat": 42.4383076, "lon": 18.6145377}, {"type": "node", "id": 12619240743, "lat": 42.4384205, "lon": 18.6144559}, {"type": "node", "id": 12741305973, "lat": 42.3897045, "lon": 18.7390905}, {"type": "node", "id": 12741305974, "lat": 42.3897501, "lon": 18.7391864}, {"type": "node", "id": 12775149279, "lat": 42.4518995, "lon": 18.5370818, "tags": {"amenity": "cafe", "name": "Kafe Bar Kino"}}, {"type": "node", "id": 12811393673, "lat": 42.3585686, "lon": 19.0429097, "tags": {"amenity": "restaurant", "name": "Skadar Lake Family Resort", "website": "https://skadarlake.me/skadar-lake-family-resort-montenegrin-restaurant"}}, {"type": "node", "id": 12869492703, "lat": 42.4326919, "lon": 18.8279842, "tags": {"amenity": "restaurant", "name": "Restoran Bastadur"}}, {"type": "node", "id": 12869493001, "lat": 42.4253864, "lon": 18.7719162, "tags": {"amenity": "cafe", "name": "Patisserie", "opening_hours": "08:30-22:00", "payment:cash": "yes", "payment:credit_cards": "yes", "payment:debit_cards": "yes", "website": "https://www.instagram.com/patisserie_kotor/"}}, {"type": "node", "id": 12871120901, "lat": 42.6524988, "lon": 18.6719401, "tags": {"amenity": "cafe"}}, {"type": "way", "id": 97172220, "nodes": [12192608784, 1125555286, 1125555246, 1125555643, 12741305974, 12741305973, 12192608784], "tags": {"amenity": "restaurant", "branch": "Radanovi\u0107i", "brand": "Fresh Corner Restaurant", "brand:wikidata": "Q129256375", "building": "retail", "name": "Fresh Corner Restaurant", "opening_hours": "Mo-Su 06:00-22:00", "shop": "convenience"}}, {"type": "way", "id": 97207781, "nodes": [1126082911, 1126082262, 1126082609, 1126082064, 1126082911], "tags": {"amenity": "restaurant", "building": "yes", "cuisine": "mediterranean", "facebook": "https://www.facebook.com/pages/Restoran%20Astoria%20Radovici/114189999955743", "name": "Resoran Astoria", "opening_hours": "Tu-Su 07:00-23:00"}}, {"type": "way", "id": 146037904, "nodes": [1987719957, 1593372066, 1593372079, 1987719969, 1987719957], "tags": {"amenity": "restaurant", "building": "yes", "cuisine": "regional", "name": "Pod Lozom"}}, {"type": "way", "id": 146037942, "nodes": [1593371945, 1593371926, 11145958783, 1593371880, 1593371897, 1593371945], "tags": {"addr:city": "Herceg Novi", "addr:housenumber": "2", "addr:postcode": "85340", "addr:street": "Stepeni\u0161te 28. oktobar", "amenity": "cafe", "building": "yes", "contact:instagram": "koffein.cg", "name": "Koffein Specialty coffee shop", "opening_hours": "Mo-Su 08:00-20:00"}}, {"type": "way", "id": 162094697, "nodes": [1861317702, 2306706340, 1861317708, 1861317701, 1861317695, 1861317702], "tags": {"addr:city": "Herceg Novi", "addr:housenumber": "10", "addr:postcode": "85340", "addr:street": "Stepeni\u0161te 28 Oktobar", "amenity": "restaurant", "building": "yes", "name": "Touch"}}, {"type": "way", "id": 162566737, "nodes": [2306706329, 1744295854, 1744295863, 1744295862, 2306706329], "tags": {"addr:city": "Herceg Novi", "addr:housenumber": "8", "addr:postcode": "85340", "addr:street": "Save Kova\u010devi\u0107a", "amenity": "restaurant", "building": "yes", "name": "Konoba Risan", "name:sr": "\u041a\u043e\u043d\u043e\u0431\u0430 \u0420\u0438\u0441\u0430\u043d", "opening_hours": "Mo-Su 12:00-23:00"}}, {"type": "way", "id": 162848564, "nodes": [1746648717, 1746648741, 1746648738, 1746648716, 1746648717], "tags": {"addr:city": "Herceg Novi", "addr:housenumber": "2", "addr:postcode": "85340", "addr:street": "Manastirska", "amenity": "restaurant", "building": "yes", "cuisine": "regional", "name": "Belveder"}}, {"type": "way", "id": 163000438, "nodes": [1747804336, 1747804338, 1747804337, 1747804335, 1747804336], "tags": {"amenity": "cafe", "building": "yes", "check_date": "2025-05-24", "indoor_seating": "yes", "internet_access": "wlan", "internet_access:ssid": "DO-DO", "name": "DO-DO", "name:sr": "\u0414\u043e-\u0414\u043e", "outdoor_seating": "yes", "smoking": "outside", "takeaway": "yes", "toilets": "yes", "toilets:menstrual_products": "no", "toilets:wheelchair": "no"}}, {"type": "way", "id": 164382465, "nodes": [1760252445, 1760252367, 1760252308, 1760252329, 1760252361, 1760252445], "tags": {"addr:city": "Perast", "addr:postcode": "85336", "addr:street": "Obala Kapetana Marka Martinovi\u0107a BB", "amenity": "restaurant", "building": "yes", "name": "Restaurant Conte", "opening_hours": "Mo-Su 08:00-24:00", "outdoor_seating": "yes", "website": "https://hotel-conte.com/index.html"}}, {"type": "way", "id": 164426528, "nodes": [1760638036, 1760638043, 1760638052, 1760638047, 1760638036], "tags": {"addr:city": "Perast", "amenity": "restaurant", "building": "yes", "email": "skolji@t-com.me", "internet_access": "wlan", "name": "Konoba Perast", "opening_hours": "Mo-Su 10:00-24:00", "outdoor_seating": "yes", "phone": "+38269419745", "website": "www.skolji.com"}}, {"type": "way", "id": 192084388, "nodes": [2026418140, 2026418146, 2026418168, 2026418161, 2026418140], "tags": {"amenity": "restaurant", "building": "yes", "cuisine": "regional", "name": "\u041a\u0430\u043f\u0435\u0440\u043d\u0430\u0443\u043c"}}, {"type": "way", "id": 193467217, "nodes": [2039887848, 2039887836, 2039887829, 2039887844, 2039887848], "tags": {"amenity": "restaurant", "building": "terrace", "building:levels": "2", "contact:instagram": "https://www.instagram.com/sofi_tivat/", "cuisine": "international", "name": "Sofi", "outdoor_seating": "yes", "takeaway": "yes", "website": "https://sofi-tivat.cafe/"}}, {"type": "way", "id": 193467260, "nodes": [2039888190, 2039888156, 2039888157, 2039888197, 2039888190], "tags": {"amenity": "restaurant", "building": "retail"}}, {"type": "way", "id": 206888419, "nodes": [2169454954, 2169454955, 2169454956, 2169454957, 2169454954], "tags": {"amenity": "restaurant", "building": "yes", "cuisine": "regional", "name": "Stari Most"}}, {"type": "way", "id": 206888427, "nodes": [2169455009, 2169455006, 2169455005, 2169455011, 2169454983, 2169454993, 2169455009], "tags": {"amenity": "restaurant", "building": "yes"}}, {"type": "way", "id": 207426253, "nodes": [2176814256, 2176814040, 2176814108, 2176814161, 2176814256], "tags": {"amenity": "cafe", "building": "yes", "name": "Bongos Bongos"}}, {"type": "way", "id": 207438436, "nodes": [2176928962, 2176928961, 2176928982, 2176928972, 2176928962], "tags": {"addr:city": "Kotor", "addr:postcode": "85330", "addr:street": "\u0160piljari", "amenity": "cafe", "building": "house", "cuisine": "regional", "name": "Franovi\u0107i"}}, {"type": "way", "id": 222191667, "nodes": [2311731885, 2311731888, 2311731891, 2311731890, 2311731885], "tags": {"amenity": "restaurant", "building": "yes"}}, {"type": "way", "id": 222191680, "nodes": [2311731926, 2311731912, 2311731917, 2311731922, 2311731921, 2311731928, 2311731926], "tags": {"amenity": "restaurant", "building": "yes", "cuisine": "regional", "name": "Izlet", "name:sr": "\u0418\u0437\u043b\u0435\u0442"}}, {"type": "way", "id": 224396488, "nodes": [2332121859, 2332121867, 2332121856, 2332121863, 2332121850, 2332121830, 2332121859], "tags": {"addr:street": "Njego\u0161eva", "amenity": "restaurant", "building": "yes", "cuisine": "mediterranean", "internet_access": "wlan", "name:en": "STEAK HOUSE"}}, {"type": "way", "id": 225084608, "nodes": [2339074592, 2339074593, 2339074595, 2339074596, 2339074597, 2339074594, 2339074592], "tags": {"amenity": "cafe", "building": "yes", "outdoor_seating": "yes"}}, {"type": "way", "id": 234302012, "nodes": [2425646897, 2425646891, 2425646900, 2425646914, 2425646897], "tags": {"abandoned": "yes", "amenity": "restaurant", "building": "yes", "cuisine": "regional", "name": "Vidikovac", "smoking": "yes"}}, {"type": "way", "id": 236429136, "nodes": [2444635334, 2444635347, 2444635345, 2444635342, 2444635340, 2444635315, 2444635321, 2444635328, 2444635334], "tags": {"amenity": "restaurant", "building": "yes", "check_date": "2023-05-19", "internet_access": "wlan", "name": "Tiha Noc", "tourism": "apartment"}}, {"type": "way", "id": 239667333, "nodes": [2474444176, 2474444181, 2474444182, 2474444184, 7985483181, 7985483182, 7985483185, 7985483186, 2474444185, 2474444187, 2474444176], "tags": {"amenity": "restaurant", "building": "yes", "cuisine": "regional", "name": "Bogetici", "note": "good price, good quality", "opening_hours": "08:00-23:00", "phone": "+38269222885", "website": "http://konoba.co.me/"}}, {"type": "way", "id": 246698185, "nodes": [2537042202, 2537042198, 2537042182, 2537042186, 2537042202], "tags": {"amenity": "restaurant", "building": "yes", "cuisine": "chicken;breakfast;italian_pizza;italian;seafood;pasta;pizza;regional;fish;mediterranean;sandwich", "internet_access": "wlan", "name": "Volat"}}, {"type": "way", "id": 259740445, "nodes": [2651938871, 2651938872, 2651938873, 2651938874, 2651938871], "tags": {"amenity": "restaurant", "building": "yes", "cuisine": "mediterranean", "name": "Risan"}}, {"type": "way", "id": 269997288, "nodes": [2750951915, 2750951911, 2750951909, 2750951913, 2750951915], "tags": {"amenity": "restaurant", "building": "yes", "cuisine": "regional", "internet_access": "yes", "name": "Nevjesta Jadrana", "opening_hours": "Mo-Su 10:00-19:00", "outdoor_seating": "yes", "payment:credit_cards": "yes", "phone": "+38267227503", "smoking": "yes", "website": "http://www.nevjestajadrana.weebly.com/"}}, {"type": "way", "id": 294084910, "nodes": [2976536599, 2976536600, 2976536601, 2976536602, 2976536599], "tags": {"addr:postcode": "85340", "amenity": "cafe", "building": "apartments", "building:levels": "2", "cuisine": "coffee_shop", "name": "Karakas", "opening_hours": "Mo-Su 9:00-22:00", "phone": "+382 67 9 240 909", "website": "www.facebook.com/pages/Kafe-bar-Karakas/227624017388631"}}, {"type": "way", "id": 294638469, "nodes": [2982310334, 2982310336, 2982310335, 2982310333, 2982310334], "tags": {"amenity": "cafe", "building": "yes", "name": "Splendido", "opening_hours": "Mo-Su 08:00-24:00", "outdoor_seating": "yes"}}, {"type": "way", "id": 295783275, "nodes": [2995425232, 2995426033, 7963930447, 2995426034, 2995426035, 2995425232], "tags": {"amenity": "restaurant", "building": "yes"}}, {"type": "way", "id": 296992323, "nodes": [3008308395, 3008308396, 3008308397, 3008308394, 3008308395], "tags": {"amenity": "restaurant", "building": "yes", "cuisine": "regional"}}, {"type": "way", "id": 303737952, "nodes": [3081376284, 3081376285, 3081376286, 3081376287, 3081376284], "tags": {"amenity": "restaurant", "building": "yes", "cuisine": "fish", "name": "Ribarsko selo"}}, {"type": "way", "id": 336103718, "nodes": [3431821243, 3431821244, 11132069548, 3431821252, 3431821253, 3431821254, 3431821243], "tags": {"amenity": "restaurant", "building": "yes", "name": "\u0420\u0435\u0441\u0442\u043e\u0440\u0430\u043d \u0416\u0430\u045a\u0438\u0446\u0435"}}, {"type": "way", "id": 336116381, "nodes": [3431943501, 3431943502, 3431943503, 3431943504, 3431943501], "tags": {"amenity": "restaurant", "building": "yes", "cuisine": "mediterranean;boka_bay;regional;seafood"}}, {"type": "way", "id": 342987576, "nodes": [3499186665, 3499186663, 3499186658, 3499186660, 3499186665], "tags": {"amenity": "cafe", "building": "yes"}}, {"type": "way", "id": 358627170, "nodes": [3635308695, 3635308693, 3635306589, 3635306586, 3635306584, 3635306583, 3635306580, 3635306581, 3635306582, 3635306585, 3635306587, 3635306591, 3635306592, 3635308695], "tags": {"amenity": "restaurant", "building": "retail", "name": "Zlatnik"}}, {"type": "way", "id": 361447705, "nodes": [3659211647, 3659211646, 3659211644, 3659211645, 3659211647], "tags": {"amenity": "restaurant", "building": "yes", "building:levels": "2", "name": "Apolon", "opening_hours": "07:00-23:00"}}, {"type": "way", "id": 363908312, "nodes": [3680242360, 3680242361, 3680242359, 3680242358, 3680242360], "tags": {"addr:housenumber": "232", "amenity": "restaurant", "building": "yes", "internet_access": "wlan", "name": "Babilon", "name:en": "Apartments Babilon", "name:ru": "Apartments Babilon", "source": "bing", "stars": "3", "tourism": "hotel"}}, {"type": "way", "id": 363908313, "nodes": [3680241855, 3680241856, 3680241852, 3680241851, 3680241855], "tags": {"amenity": "restaurant", "building": "yes", "internet_access": "wlan", "name": "Bella di Mare", "source": "survey", "tourism": "apartment"}}, {"type": "way", "id": 363908314, "nodes": [3680242356, 3680242357, 3680242355, 3680242354, 3680242356], "tags": {"amenity": "restaurant", "building": "yes", "name": "Forza mare", "source": "bing", "stars": "5", "tourism": "hotel"}}, {"type": "way", "id": 363908315, "nodes": [3680242673, 3680242676, 3680242674, 3680242671, 3680242673], "tags": {"amenity": "restaurant", "name": "Premier Plaza", "name:sr": "\u041f\u0440\u0435\u043c\u0438\u0458\u0435\u0440", "source": "bing, survey"}}, {"type": "way", "id": 372316709, "nodes": [3758688042, 3758688038, 3758688039, 3758688040, 3758688041, 3758688042], "tags": {"amenity": "cafe", "building": "yes", "name": "Fashion beach"}}, {"type": "way", "id": 373885948, "nodes": [3773172671, 3773172672, 3773172673, 3773172674, 3773172671], "tags": {"amenity": "cafe", "building": "yes", "name": "Grota"}}, {"type": "way", "id": 436325177, "nodes": [4341924980, 4341924981, 4341924982, 4341924983, 4341924980], "tags": {"amenity": "restaurant", "building": "yes", "cuisine": "regional", "name": "Tavern BARON GAUTSCH"}}, {"type": "way", "id": 436325178, "nodes": [4341924986, 4341924987, 4341924988, 4341925389, 4341924986], "tags": {"amenity": "restaurant", "building": "yes", "cuisine": "regional", "name": "Konoba Marius"}}, {"type": "way", "id": 439757028, "nodes": [4374434206, 4374434207, 4374434208, 4374434209, 4374434206], "tags": {"amenity": "cafe", "building": "yes", "cuisine": "bar"}}, {"type": "way", "id": 440256210, "nodes": [4379791183, 4379791184, 4379791185, 4379791186, 4379791183], "tags": {"amenity": "restaurant", "building": "yes", "cuisine": "regional", "name": "Sloga", "name:sr": "\u0421\u043b\u043e\u0433\u0430"}}, {"type": "way", "id": 459375812, "nodes": [4552369422, 4552369423, 4552369424, 4552369425, 4552369426, 4552369427, 4552369428, 4552369429, 4552369430, 4552369431, 4552369422], "tags": {"addr:city": "Kotor", "addr:postcode": "85330", "addr:street": "Riva", "amenity": "cafe", "building": "yes", "check_date:opening_hours": "2023-06-27", "cuisine": "regional", "description": "Cafe -Restoran Dojmi se nalazi na Rivi, neposredno pored Glavnih vrata Starog grada Kotora i ima kapacitet 200 mjesta na terasi i 70 mjesta unutar restorana. Pored samih srednjevjekovnih zidina, uz miris mora i u hladu prirodnog zelenila, u ovom restoranu", "internet_access": "wlan", "internet_access:fee": "no", "name": "Dojmi", "opening_hours": "Mo-Su 08:00-01:00", "outdoor_seating": "yes", "phone": "+38267258177", "smoking": "yes"}}, {"type": "way", "id": 466633863, "nodes": [4613932750, 4613932751, 4613932752, 4613932753, 4613932750], "tags": {"addr:city": "Kotor", "addr:postcode": "85330", "addr:street": "\u0160piljari", "amenity": "cafe", "building": "house", "building:levels": "1", "coffee": "yes", "diet:vegetarian": "yes", "indoor_seating": "no", "name": "Perovi\u0107i", "outdoor_seating": "yes"}}, {"type": "way", "id": 485407537, "nodes": [4781780090, 4781780091, 4781780092, 4781780093, 4781780090], "tags": {"amenity": "restaurant", "building": "yes", "name": "\u0160ijavoga", "name:en": "Palace Jelena", "opening_hours": "Mo-Su 08:00-00:00"}}, {"type": "way", "id": 492576292, "nodes": [4845712301, 4845712302, 4845712303, 4845712304, 4845712301], "tags": {"amenity": "restaurant", "building": "yes"}}, {"type": "way", "id": 505674120, "nodes": [4955575177, 4955575158, 4955575184, 4955575180, 4955575177], "tags": {"amenity": "cafe", "building": "yes"}}, {"type": "way", "id": 530865464, "nodes": [5154007187, 5154007188, 5154007189, 5154007190, 5154007187], "tags": {"amenity": "cafe", "building": "yes", "name": "Posejdon Zelenika"}}, {"type": "way", "id": 600285343, "nodes": [2177310378, 2348351826, 5708492732, 5708492731, 2641164112, 2641164110, 2641164108, 2641164107, 1508677847, 1508677751, 1508677829, 2177310364, 2177310382, 2177310378], "tags": {"amenity": "restaurant", "cuisine": "fish;grill;local;pizza;pasta;risotto", "diet:vegetarian": "yes", "name": "Little Bay"}}, {"type": "way", "id": 670699816, "nodes": [5573635521, 6280776721, 6280776722, 6280776723, 5573635521], "tags": {"amenity": "restaurant", "building": "yes", "name": "Restoran Vidikovac"}}, {"type": "way", "id": 853859304, "nodes": [7963852013, 7963852014, 7963852015, 7963852018, 7963852016, 7963852017, 7963852019, 7963852013], "tags": {"amenity": "restaurant", "building": "yes", "building:levels": "1"}}, {"type": "way", "id": 934595338, "nodes": [8661592977, 8684219308, 8661592979, 8661592980, 8661592981, 8661592982, 8661592977], "tags": {"addr:city": "Kumbor", "addr:housenumber": "57 bb", "addr:postcode": "85345", "addr:street": "Kumbor", "amenity": "restaurant", "building": "yes", "cuisine": "italian;regional;pizza;coffee_shop;sandwich;seafood;steak_house;barbecue", "name": "CAFE Apartment SM", "phone": "+79060862028", "rent": "rental services", "sale": "sale to the property"}}, {"type": "way", "id": 961599891, "nodes": [8895029582, 8895029583, 8895029584, 8895029585, 8895029586, 8895029587, 8895029582], "tags": {"amenity": "restaurant", "building": "yes"}}, {"type": "way", "id": 1079696875, "nodes": [9896914687, 9896914688, 9896914689, 9896914690, 9896914687], "tags": {"amenity": "restaurant", "building": "yes"}}, {"type": "way", "id": 1079696876, "nodes": [9896914691, 9896914692, 9896914693, 9896914694, 9896914691], "tags": {"amenity": "restaurant", "building": "retail"}}, {"type": "way", "id": 1086733273, "nodes": [2504357391, 9957339010, 9957339014, 9957339006, 9957339011, 2504357397, 2504357396, 2504357391], "tags": {"amenity": "cafe", "building": "yes", "name": "Plava ti\u0161ina"}}, {"type": "way", "id": 1086733278, "nodes": [9957359619, 9957359620, 9957359621, 9957359622, 9957359619], "tags": {"amenity": "cafe", "building": "yes", "building:levels": "1", "name": "Marinero"}}, {"type": "way", "id": 1089038463, "nodes": [9976777519, 9976771606, 9976771615, 9976771616, 9976777519], "tags": {"amenity": "restaurant", "name": "Markovi Konaci"}}, {"type": "way", "id": 1092466893, "nodes": [10005199588, 10005199589, 10005199590, 10005199591, 10005199588], "tags": {"amenity": "restaurant", "building": "yes", "check_date": "2024-08-26", "name": "\u0410\u043d\u0434\u0435\u0440\u0431\u0430", "name:sr": "\u0410\u043d\u0434\u0435\u0440\u0431\u0430", "name:sr-Latn": "Anderba"}}, {"type": "way", "id": 1092473975, "nodes": [10005213779, 10005213780, 10005213781, 10005213782, 10005213779], "tags": {"amenity": "restaurant", "building": "yes", "check_date": "2024-08-26", "name": "\u0412\u043e\u043b\u0430\u0442 2", "name:sr": "\u0412\u043e\u043b\u0430\u0442 2", "name:sr-Latn": "Volat 2"}}, {"type": "way", "id": 1092960663, "nodes": [10009738023, 10009738024, 10009738025, 10009738026, 10009738023], "tags": {"amenity": "restaurant", "building": "yes", "cuisine": "pizza;seafood", "name": "\u041a\u043e\u043d\u043e\u0431\u0430 \u041f\u0430\u045a\u0435\u0433\u0430", "name:sr": "\u041a\u043e\u043d\u043e\u0431\u0430 \u041f\u0430\u045a\u0435\u0433\u0430", "toilets": "yes"}}, {"type": "way", "id": 1128266143, "nodes": [10315102208, 10315102207, 10315102206, 10315102205, 10315102208], "tags": {"amenity": "cafe", "building": "yes"}}, {"type": "way", "id": 1182827616, "nodes": [10983622251, 10983615298, 10983622252, 10983622253, 11025065511, 10983622255, 10983622251], "tags": {"amenity": "cafe", "building": "yes", "name": "Zen Sea Lounge"}}, {"type": "way", "id": 1196863698, "nodes": [11105528787, 11105528786, 11105528789, 11105528788, 11105528787], "tags": {"amenity": "cafe", "name": "Forest"}}, {"type": "way", "id": 1197166917, "nodes": [11108332415, 11108332416, 11108332417, 11108332418, 11108332419, 11108332420, 11108332421, 11108332422, 11108332423, 11108332424, 11108332415], "tags": {"amenity": "restaurant", "building": "yes", "cuisine": "regional", "internet_access": "wlan", "name": "MG Caffe Bar"}}, {"type": "way", "id": 1197228777, "nodes": [11108644059, 11108644058, 11108644057, 11108644061, 11108644059], "tags": {"amenity": "restaurant", "cuisine": "regional", "name": "Restoran Miri\u0161ta", "outdoor_seating": "yes", "website": "https://restoranmirisra.me/"}}, {"type": "way", "id": 1197228778, "nodes": [11108644063, 11108644062, 11108644061, 11108644059, 11108644060, 11108644063], "tags": {"amenity": "restaurant", "cuisine": "regional", "name": "Restoran Miri\u0161ta", "outdoor_seating": "yes", "website": "https://restoranmirisra.me/"}}, {"type": "way", "id": 1201018470, "nodes": [8874378282, 11135708322, 11135708323, 11135708324, 8874378282], "tags": {"amenity": "restaurant", "building": "yes", "check_date": "2024-08-27"}}, {"type": "way", "id": 1209714621, "nodes": [11207464093, 11207464094, 11207464095, 11207464092, 11207464093], "tags": {"amenity": "cafe", "building": "yes"}}, {"type": "way", "id": 1256790508, "nodes": [11683979581, 11683979582, 11683979583, 11683979584, 11683979585, 11683979581], "tags": {"addr:street": "Po\u0111anski put", "amenity": "cafe", "building": "yes", "name": "Caffe Station 23"}}, {"type": "way", "id": 1257397456, "nodes": [1760638002, 11690425813, 11690425814, 1760637995, 1760638002], "tags": {"amenity": "cafe", "building": "yes"}}, {"type": "way", "id": 1258972339, "nodes": [1763866086, 1763866100, 11703556401, 11703556375, 11703556376, 1763866086], "tags": {"amenity": "restaurant", "building": "yes"}}, {"type": "way", "id": 1258972340, "nodes": [11703556377, 1763142389, 11703556378, 11703556379, 11703556380, 11703556377], "tags": {"amenity": "cafe", "building": "yes", "name": "Eks", "name:en": "Cafe Bar Eks"}}, {"type": "way", "id": 1298802429, "nodes": [12031330559, 12031330563, 12031330560, 12031330568, 12031330564, 12031330562, 12031330567, 12031330566, 12031330565, 12031330561, 12031330559], "tags": {"air_conditioning": "yes", "amenity": "restaurant", "building": "yes", "cuisine": "regional", "name": "Forza Kuk", "outdoor_seating": "yes"}}, {"type": "way", "id": 1301392624, "nodes": [12054040779, 12054040780, 12054040781, 12054040782, 12054040779], "tags": {"amenity": "restaurant", "building": "yes", "name": "Taverna \"GALIJA\""}}, {"type": "way", "id": 1362959630, "nodes": [12619240740, 12619240741, 12619240742, 12619240743, 12619240740], "tags": {"amenity": "restaurant", "building": "yes", "name:en": "Pizzeria Galliot"}}]}