{"version": 0.6, "generator": "Overpass API 0.7.62.7 375dc00a", "osm3s": {"timestamp_osm_base": "2025-06-14T14:35:15Z", "copyright": "The data included in this document is from www.openstreetmap.org. The data is made available under ODbL."}, "elements": [{"type": "node", "id": 4177122592, "lat": 32.4928485, "lon": 20.8319451, "tags": {"amenity": "cafe", "cuisine": "crepe;cake;coffee_shop;ice_cream", "internet_access": "wlan"}}, {"type": "node", "id": 4222631520, "lat": 32.5286021, "lon": 20.9010518, "tags": {"addr:street": "\u0627\u0644\u0645\u0631\u062c-\u0627\u0644\u0628\u064a\u0636\u0627\u0621 Al Marj-alBayda", "amenity": "cafe", "name": "Dr.cafe"}}, {"type": "node", "id": 4394270089, "lat": 32.4877444, "lon": 20.8312514, "tags": {"amenity": "restaurant", "name": "\u0645\u0637\u0639\u0645 \u0627\u0644\u0634\u062c\u0631\u0629", "name:ar": "\u0645\u0637\u0639\u0645 \u0627\u0644\u0634\u062c\u0631\u0629", "name:en": "Al-shagara restaurant"}}, {"type": "node", "id": 4453982389, "lat": 32.5281895, "lon": 20.5983443, "tags": {"amenity": "cafe", "name": "\u0627\u0633\u062a\u0631\u0627\u062d\u0629 \u0644\u0627\u0642\u0631\u0648\u062a\u0627", "name:ar": "\u0627\u0633\u062a\u0631\u0627\u062d\u0629 \u0644\u0627\u0642\u0631\u0648\u062a\u0627", "name:en": "Cafe"}}, {"type": "node", "id": 4506846958, "lat": 32.5272637, "lon": 20.6086593, "tags": {"amenity": "restaurant", "name": "\u0645\u0637\u0639\u0645 \u0627\u0644\u062d\u064a\u0637\u0629", "name:ar": "\u0645\u0637\u0639\u0645 \u0627\u0644\u062d\u064a\u0637\u0629", "name:en": "Restaurant"}}, {"type": "node", "id": 5235169921, "lat": 32.4930175, "lon": 20.8370913, "tags": {"addr:street": "\u0634\u0627\u0631\u0639 \u0639\u0634\u0631\u064a\u0646", "amenity": "cafe", "internet_access": "wlan", "opening_hours": "24/7"}}, {"type": "node", "id": 5482990822, "lat": 32.494657, "lon": 20.836907, "tags": {"amenity": "restaurant", "name": "\u0645\u0637\u0639\u0645 \u0627\u0644\u0628\u064a\u0643", "name:ar": "\u0645\u0637\u0639\u0645 \u0627\u0644\u0628\u064a\u0643", "name:en": "AL BAIK Restaurant"}}, {"type": "node", "id": 6801817585, "lat": 32.5124859, "lon": 20.6524816, "tags": {"amenity": "restaurant", "name": "\u0645\u0637\u0639\u0645 \u0646\u0633\u064a\u0645 \u0627\u0644\u0634\u0631\u0642", "name:ar": "\u0645\u0637\u0639\u0645 \u0646\u0633\u064a\u0645 \u0627\u0644\u0634\u0631\u0642", "name:en": "Restaurant"}}, {"type": "node", "id": 6801823586, "lat": 32.5832294, "lon": 20.6772343, "tags": {"amenity": "cafe", "name": "\u0643\u0627\u0641\u064a \u0648\u0627\u0626\u0644", "name:ar": "\u0643\u0627\u0641\u064a \u0648\u0627\u0626\u0644", "name:en": "Cafe"}}, {"type": "node", "id": 7588874697, "lat": 32.4940927, "lon": 20.8247851, "tags": {"amenity": "cafe"}}, {"type": "node", "id": 7588874701, "lat": 32.4941118, "lon": 20.8261779, "tags": {"amenity": "restaurant"}}, {"type": "node", "id": 7588874709, "lat": 32.4937635, "lon": 20.8254793, "tags": {"amenity": "cafe"}}, {"type": "node", "id": 7588874710, "lat": 32.4865095, "lon": 20.82769, "tags": {"amenity": "cafe"}}, {"type": "node", "id": 7588874719, "lat": 32.4925368, "lon": 20.8272026, "tags": {"amenity": "restaurant"}}, {"type": "node", "id": 7693227518, "lat": 32.5304106, "lon": 20.5936225, "tags": {"amenity": "cafe"}}, {"type": "node", "id": 7693236178, "lat": 32.5277546, "lon": 20.5788752, "tags": {"amenity": "cafe"}}, {"type": "node", "id": 7693236180, "lat": 32.532154, "lon": 20.5707873, "tags": {"amenity": "cafe"}}, {"type": "node", "id": 7694172982, "lat": 32.5023716, "lon": 20.7042676, "tags": {"amenity": "restaurant"}}, {"type": "node", "id": 7694196607, "lat": 32.5241302, "lon": 20.5873418, "tags": {"amenity": "cafe"}}, {"type": "node", "id": 7694196613, "lat": 32.5230487, "lon": 20.5873725, "tags": {"amenity": "restaurant"}}, {"type": "node", "id": 7705697561, "lat": 32.5820841, "lon": 20.6745659, "tags": {"amenity": "cafe"}}, {"type": "node", "id": 8573078817, "lat": 32.4647264, "lon": 20.4916199, "tags": {"amenity": "cafe", "name": "\u0643\u0627\u0641\u064a \u0644\u0627\u0643\u0648\u0633\u062a\u0627", "name:en": "La Costa Cafe"}}, {"type": "node", "id": 8573120817, "lat": 32.5100477, "lon": 20.5392999, "tags": {"amenity": "cafe", "name": "KRM Cafe"}}, {"type": "node", "id": 8573136018, "lat": 32.5334168, "lon": 20.5736546, "tags": {"amenity": "restaurant", "name": "\u0643\u0627\u0641\u064a \u0648\u0645\u0637\u0639\u0645 \u062d\u062a\u0627\u0631\u0629", "name:en": "Restaurant", "name:es": "Restaurante"}}, {"type": "node", "id": 8573170817, "lat": 32.527221, "lon": 20.5971963, "tags": {"amenity": "restaurant", "name": "\u0643\u0627\u0641\u064a \u0648\u0645\u0637\u0639\u0645 \u0627\u0644\u0646\u0627\u0641\u0648\u0631\u0629", "name:en": "Restaurant"}}, {"type": "node", "id": 9580929558, "lat": 32.5276289, "lon": 20.5624377, "tags": {"amenity": "restaurant"}}, {"type": "node", "id": 11383877064, "lat": 32.4843716, "lon": 20.8241023, "tags": {"amenity": "cafe"}}, {"type": "node", "id": 11383887804, "lat": 32.4847238, "lon": 20.8236664, "tags": {"amenity": "restaurant"}}]}