{"version": 0.6, "generator": "Overpass API 0.7.62.7 375dc00a", "osm3s": {"timestamp_osm_base": "2025-06-14T13:25:11Z", "copyright": "The data included in this document is from www.openstreetmap.org. The data is made available under ODbL."}, "elements": [{"type": "node", "id": 5483367221, "lat": 34.7826246, "lon": 10.6671372, "tags": {"amenity": "cafe", "name": "Moving Club", "name:fr": "Moving Club"}}, {"type": "node", "id": 6749781385, "lat": 34.7389511, "lon": 10.528653, "tags": {"addr:city": "\u0639\u0642\u0627\u0631\u0628", "amenity": "cafe", "name": "\u0645\u0642\u0647\u0649 \u0628\u0648\u062f\u064a\u0645", "name:ar": "\u0645\u0642\u0647\u0649 \u0628\u0648\u062f\u064a\u0645", "name:fr": "Caf\u00e9 Podium"}}, {"type": "node", "id": 6752658197, "lat": 34.7409841, "lon": 10.5286951, "tags": {"addr:city": "\u0639\u0642\u0627\u0631\u0628", "amenity": "cafe", "name": "\u0645\u0642\u0647\u0649 \u0628\u0646 \u062d\u0641\u0635\u064a\u0629", "name:ar": "\u0645\u0642\u0647\u0649 \u0628\u0646 \u062d\u0641\u0635\u064a\u0629", "name:fr": "Caf\u00e9 ben hafsia"}}, {"type": "node", "id": 7302267337, "lat": 34.8111826, "lon": 10.6672774, "tags": {"amenity": "restaurant", "name": "\u0641\u0636\u0627\u0621 \u064a\u0627\u0633\u0645\u064a\u0646 \u0628\u0627\u0631\u0643", "name:ar": "\u0641\u0636\u0627\u0621 \u064a\u0627\u0633\u0645\u064a\u0646 \u0628\u0627\u0631\u0643", "name:fr": "Espace Yasmine Parc"}}, {"type": "node", "id": 7309142190, "lat": 34.8281267, "lon": 10.6701891, "tags": {"amenity": "cafe", "name": "\u0645\u0642\u0647\u0649 \u0627\u0644\u0643\u0648\u0631\u0646\u064a\u0634", "name:ar": "\u0645\u0642\u0647\u0649 \u0627\u0644\u0643\u0648\u0631\u0646\u064a\u0634", "name:fr": "Caf\u00e9 Corniche"}}, {"type": "node", "id": 7309142191, "lat": 34.8311947, "lon": 10.6658404, "tags": {"amenity": "cafe", "name": "\u0645\u0642\u0647\u0649 \u0627\u0644\u0627\u062e\u0648\u0629", "name:ar": "\u0645\u0642\u0647\u0649 \u0627\u0644\u0627\u062e\u0648\u0629", "name:fr": "Caf\u00e9 Les Fr\u00e8res"}}, {"type": "node", "id": 7309142192, "lat": 34.8323859, "lon": 10.6646536, "tags": {"amenity": "cafe", "name": "\u0645\u0642\u0647\u0649 \u0634\u0642\u0627\u0631", "name:ar": "\u0645\u0642\u0647\u0649 \u0634\u0642\u0627\u0631", "name:fr": "Caf\u00e9 Chaggar"}}, {"type": "node", "id": 7834797672, "lat": 34.7296335, "lon": 10.6505299, "tags": {"amenity": "cafe", "name": "\u0645\u0642\u0647\u0649 \u062a\u0633\u0646\u064a\u0645", "name:ar": "\u0645\u0642\u0647\u0649 \u062a\u0633\u0646\u064a\u0645", "name:fr": "Caf\u00e9 Tasnim"}}, {"type": "node", "id": 7834876660, "lat": 34.7298651, "lon": 10.6552396, "tags": {"amenity": "restaurant", "name": "\u0645\u0634\u0627\u0648\u064a \u062d\u0645\u0632\u0629 \u0646\u0648\u0627\u0631", "name:ar": "\u0645\u0634\u0627\u0648\u064a \u062d\u0645\u0632\u0629 \u0646\u0648\u0627\u0631", "name:fr": "Grillades Hamza Nawar"}}, {"type": "node", "id": 7834876661, "lat": 34.72986, "lon": 10.6571652, "tags": {"amenity": "cafe", "name": "\u0645\u0642\u0647\u0649 \u0627\u0644\u062a\u0642\u0627\u0633\u064a\u0645", "name:ar": "\u0645\u0642\u0647\u0649 \u0627\u0644\u062a\u0642\u0627\u0633\u064a\u0645", "name:fr": "Caf\u00e9 Ettakassim"}}, {"type": "node", "id": 7834876662, "lat": 34.7311537, "lon": 10.66738, "tags": {"amenity": "cafe", "name": "\u0645\u0642\u0647\u0649 \u0623\u0645\u064a\u0642\u0648\u0633", "name:ar": "\u0645\u0642\u0647\u0649 \u0623\u0645\u064a\u0642\u0648\u0633", "name:fr": "Caf\u00e9 Amigos"}}, {"type": "node", "id": 7834876663, "lat": 34.7310257, "lon": 10.6691947, "tags": {"amenity": "cafe", "name": "\u0645\u0642\u0647\u0649 \u0627\u0644\u0643\u0648\u0646\u064a", "name:ar": "\u0645\u0642\u0647\u0649 \u0627\u0644\u0643\u0648\u0646\u064a", "name:fr": "Caf\u00e9 El Kouni"}}, {"type": "node", "id": 7834876667, "lat": 34.7316132, "lon": 10.6729096, "tags": {"amenity": "restaurant", "name": "\u0645\u0634\u0648\u064a \u0639\u0644\u0648\u0634 \u0648\u062f\u0631\u0627\u0646", "name:ar": "\u0645\u0634\u0648\u064a \u0639\u0644\u0648\u0634 \u0648\u062f\u0631\u0627\u0646", "name:fr": "Grillade Ouedrane"}}, {"type": "node", "id": 7834876668, "lat": 34.7319683, "lon": 10.6753743, "tags": {"amenity": "cafe", "name": "\u0645\u0642\u0647\u0649 \u0627\u0644\u062c\u0631\u0628\u0648\u0639\u064a", "name:ar": "\u0645\u0642\u0647\u0649 \u0627\u0644\u062c\u0631\u0628\u0648\u0639\u064a", "name:fr": "Caf\u00e9 Jarboui"}}, {"type": "node", "id": 7835302599, "lat": 34.7328564, "lon": 10.681132, "tags": {"amenity": "cafe", "name": "\u0645\u0642\u0647\u0649 \u0631\u064a\u0627\u0646", "name:ar": "\u0645\u0642\u0647\u0649 \u0631\u064a\u0627\u0646", "name:fr": "Caf\u00e9 Rayen"}}, {"type": "node", "id": 7835302600, "lat": 34.7329138, "lon": 10.6834843, "tags": {"amenity": "cafe", "name": "\u0645\u0642\u0647\u0649 \u0628\u0648\u064a\u0646\u0642", "name:ar": "\u0645\u0642\u0647\u0649 \u0628\u0648\u064a\u0646\u0642", "name:fr": "Caf\u00e9 Boeing"}}, {"type": "node", "id": 7835302601, "lat": 34.7334185, "lon": 10.6857347, "tags": {"amenity": "cafe", "name": "\u0645\u0642\u0647\u0649 \u0635\u0641\u0627\u0621", "name:ar": "\u0645\u0642\u0647\u0649 \u0635\u0641\u0627\u0621", "name:fr": "Caf\u00e9 Safa"}}, {"type": "node", "id": 7835302603, "lat": 34.7344105, "lon": 10.6886798, "tags": {"amenity": "cafe", "name": "\u0645\u0642\u0647\u0649 \u0627\u0644\u062d\u0631\u064a\u0629", "name:ar": "\u0645\u0642\u0647\u0649 \u0627\u0644\u062d\u0631\u064a\u0629", "name:fr": "Caf\u00e9 La Libert\u00e9"}}, {"type": "node", "id": 7837764225, "lat": 34.779625, "lon": 10.6654286, "tags": {"amenity": "restaurant", "name": "Grillade Slim"}}, {"type": "node", "id": 8186462735, "lat": 34.7841298, "lon": 10.6669865, "tags": {"amenity": "cafe", "name": "Caf\u00e9 Bouchanab"}}, {"type": "node", "id": 8186462736, "lat": 34.7287458, "lon": 10.6252008, "tags": {"amenity": "cafe", "name": "Caf\u00e9 Saber"}}, {"type": "node", "id": 8186476765, "lat": 34.7302364, "lon": 10.6066705, "tags": {"amenity": "cafe", "name": "\u0645\u0642\u0647\u0649 \u0639\u0645\u0627\u0631", "name:ar": "\u0645\u0642\u0647\u0649 \u0639\u0645\u0627\u0631", "name:fr": "Caf\u00e9 Ammar"}}, {"type": "node", "id": 8187049484, "lat": 34.7276972, "lon": 10.5142099, "tags": {"amenity": "cafe", "name": "Caf\u00e9 Sami", "name:fr": "Caf\u00e9 Sami"}}, {"type": "node", "id": 8187049487, "lat": 34.7296655, "lon": 10.5164342, "tags": {"amenity": "cafe", "name": "Caf\u00e9 Dan"}}, {"type": "node", "id": 8187049488, "lat": 34.7302166, "lon": 10.5178665, "tags": {"amenity": "cafe", "name": "Caf\u00e9 Chbechba"}}, {"type": "node", "id": 8187111415, "lat": 34.7411408, "lon": 10.3704589, "tags": {"amenity": "cafe", "name": "Caf\u00e9 Bousaa", "name:fr": "Caf\u00e9 Bousaa"}}, {"type": "node", "id": 8187121834, "lat": 34.7536468, "lon": 10.1784627, "tags": {"amenity": "cafe", "name": "Caf\u00e9 Hatem", "name:fr": "Caf\u00e9 Hatem"}}, {"type": "node", "id": 8708672406, "lat": 35.0369768, "lon": 10.3669482, "tags": {"amenity": "cafe", "name": "Caf\u00e9 Nour"}}, {"type": "node", "id": 9059549420, "lat": 35.0794893, "lon": 10.6389797, "tags": {"amenity": "cafe", "name": "Caf\u00e9 Errayhane"}}, {"type": "node", "id": 9868120541, "lat": 34.8238528, "lon": 10.6779936, "tags": {"amenity": "cafe", "name": "Caf\u00e9 Carthage", "name:fr": "Caf\u00e9 Carthage"}}, {"type": "node", "id": 9868120542, "lat": 34.8250643, "lon": 10.6761638, "tags": {"amenity": "cafe", "name": "Caf\u00e9 Tour Eiffel", "name:fr": "Caf\u00e9 Tour Eiffel"}}, {"type": "node", "id": 10006515479, "lat": 35.0151821, "lon": 10.4155343, "tags": {"amenity": "cafe", "name": "Caf\u00e9 Cactus", "name:fr": "Caf\u00e9 Cactus"}}, {"type": "node", "id": 11314970160, "lat": 34.7296138, "lon": 10.650915, "tags": {"amenity": "restaurant", "name": "\u0645\u0634\u0648\u0649 \u0633\u0627\u0645\u064a \u0648\u0641\u0631\u0627\u0633", "name:ar": "\u0645\u0634\u0648\u0649 \u0633\u0627\u0645\u064a \u0648\u0641\u0631\u0627\u0633", "name:fr": "Grillade Sami Et Firas"}}, {"type": "node", "id": 12118934507, "lat": 34.8763735, "lon": 10.6364047, "tags": {"amenity": "cafe", "name": "\u0645\u0642\u0647\u0649 \u0627\u0644\u0631\u064a\u0641", "name:ar": "\u0645\u0642\u0647\u0649 \u0627\u0644\u0631\u064a\u0641", "name:fr": "Caf\u00e9 Errif"}}]}