{"version": 0.6, "generator": "Overpass API 0.7.62.7 375dc00a", "osm3s": {"timestamp_osm_base": "2025-06-14T13:26:15Z", "copyright": "The data included in this document is from www.openstreetmap.org. The data is made available under ODbL."}, "elements": [{"type": "node", "id": 436218746, "lat": 34.7776759, "lon": 10.7262584, "tags": {"amenity": "cafe", "name": "\u0645\u0642\u0647\u0649 \u0627\u0644\u0646\u062e\u0644\u0629", "name:ar": "\u0645\u0642\u0647\u0649 \u0627\u0644\u0646\u062e\u0644\u0629", "name:fr": "Caf\u00e9 La Palme"}}, {"type": "node", "id": 436218908, "lat": 34.7799484, "lon": 10.7243946, "tags": {"amenity": "cafe", "name": "\u0645\u0642\u0647\u0649 \u062d\u0646\u0628\u0639\u0644", "name:ar": "\u0645\u0642\u0647\u0649 \u062d\u0646\u0628\u0639\u0644", "name:fr": "Caf\u00e9 Hannibal"}}, {"type": "node", "id": 438738951, "lat": 34.7346463, "lon": 10.762075, "tags": {"addr:city": "\u0635\u0641\u0627\u0642\u0633", "addr:city:ar": "\u0635\u0641\u0627\u0642\u0633", "amenity": "cafe", "name": "\u0645\u0642\u0647\u0649 \u0628\u0627\u0628 \u0627\u0644\u062f\u064a\u0648\u0627\u0646", "name:ar": "\u0645\u0642\u0647\u0649 \u0628\u0627\u0628 \u0627\u0644\u062f\u064a\u0648\u0627\u0646", "name:fr": "Caf\u00e9 Beb Diwan"}}, {"type": "node", "id": 439797103, "lat": 34.7655072, "lon": 10.7366238, "tags": {"amenity": "cafe", "name": "Caf\u00e9 Al Yosr", "name:fr": "Caf\u00e9 Al Yosr"}}, {"type": "node", "id": 439797526, "lat": 34.7641573, "lon": 10.7380622, "tags": {"amenity": "cafe", "name": "Caf\u00e9 Chams", "name:fr": "Caf\u00e9 Chams"}}, {"type": "node", "id": 439912004, "lat": 34.7330713, "lon": 10.7625562, "tags": {"addr:city": "\u0635\u0641\u0627\u0642\u0633", "addr:city:ar": "\u0635\u0641\u0627\u0642\u0633", "amenity": "cafe", "name": "\u0645\u0642\u0647\u0649 \u0625\u0643\u0633 \u0625\u0643\u0633 \u0625\u0643\u0633", "name:ar": "\u0645\u0642\u0647\u0649 \u0625\u0643\u0633 \u0625\u0643\u0633 \u0625\u0643\u0633", "name:fr": "Caf\u00e9 xxx", "wheelchair": "no"}}, {"type": "node", "id": 506384239, "lat": 34.8016731, "lon": 10.7619888, "tags": {"amenity": "cafe", "name": "\u0643\u0627\u0641\u064a\u062a\u064a\u0631\u064a\u0627 \u0645\u0627\u0632\u064a\u0643\u0627", "name:ar": "\u0643\u0627\u0641\u064a\u062a\u064a\u0631\u064a\u0627 \u0645\u0627\u0632\u064a\u0643\u0627", "name:fr": "Buvette Mazzika"}}, {"type": "node", "id": 521613379, "lat": 34.7476866, "lon": 10.702767, "tags": {"amenity": "cafe"}}, {"type": "node", "id": 553312124, "lat": 34.7286397, "lon": 10.7651188, "tags": {"addr:city": "\u0635\u0641\u0627\u0642\u0633", "addr:city:ar": "\u0635\u0641\u0627\u0642\u0633", "amenity": "restaurant", "name": "\u0639\u0631\u0648\u0633 \u0627\u0644\u0628\u062d\u0631", "name:ar": "\u0639\u0631\u0648\u0633 \u0627\u0644\u0628\u062d\u0631", "name:fr": "La Sir\u00e8ne", "phone": "+216 74 224 691", "smoking": "no"}}, {"type": "node", "id": 582143335, "lat": 34.763434, "lon": 10.7822578, "tags": {"amenity": "cafe", "name": "\u0645\u0642\u0647\u0649 \u0627\u0644\u0632\u064a\u062a\u0648\u0646\u0629", "name:ar": "\u0645\u0642\u0647\u0649 \u0627\u0644\u0632\u064a\u062a\u0648\u0646\u0629", "name:fr": "Caf\u00e9 Zitouna"}}, {"type": "node", "id": 582153977, "lat": 34.7670671, "lon": 10.7854334, "tags": {"addr:street": "Route de Saltnia", "amenity": "cafe", "name": "\u0645\u0642\u0647\u0649 \u0627\u0644\u0639\u0642\u0631\u0628\u064a", "name:ar": "\u0645\u0642\u0647\u0649 \u0627\u0644\u0639\u0642\u0631\u0628\u064a", "name:fr": "Caf\u00e9 Agrebi"}}, {"type": "node", "id": 582919137, "lat": 34.7601191, "lon": 10.7939085, "tags": {"amenity": "restaurant", "name": "\u0645\u0637\u0639\u0645 \u0644\u0628\u0644\u0627\u0646", "name:ar": "\u0645\u0637\u0639\u0645 \u0644\u0628\u0644\u0627\u0646", "name:fr": "Restaurant La Baleine"}}, {"type": "node", "id": 615849554, "lat": 34.728413, "lon": 10.7378398, "tags": {"amenity": "cafe", "name": "Caf\u00e9 Dolce Amaro", "name:ar": ""}}, {"type": "node", "id": 983115208, "lat": 34.7454187, "lon": 10.764806, "tags": {"addr:city": "\u0635\u0641\u0627\u0642\u0633", "addr:city:ar": "\u0635\u0641\u0627\u0642\u0633", "addr:street": "\u0646\u0647\u062c \u0628\u062d\u0632\u064a \u0643\u0648\u064a\u0643\u0629", "amenity": "cafe", "name": "\u0645\u0642\u0647\u0649 \u0627\u0644\u0642\u0644\u0639\u0629", "name:ar": "\u0645\u0642\u0647\u0649 \u0627\u0644\u0642\u0644\u0639\u0629", "name:fr": "Caf\u00e9 El Kalaa"}}, {"type": "node", "id": 983115214, "lat": 34.7478241, "lon": 10.7663936, "tags": {"addr:city": "\u0635\u0641\u0627\u0642\u0633", "addr:city:ar": "\u0635\u0641\u0627\u0642\u0633", "addr:street": "\u0634\u0627\u0631\u0639 \u0627\u0644\u062d\u0628\u064a\u0628 \u0628\u0648\u0642\u0637\u0641\u0629", "amenity": "cafe", "name": "\u0645\u0642\u0647\u0649 \u0627\u0644\u0645\u0646\u0635\u0648\u0631", "name:ar": "\u0645\u0642\u0647\u0649 \u0627\u0644\u0645\u0646\u0635\u0648\u0631", "name:fr": "Caf\u00e9 El Mansour"}}, {"type": "node", "id": 1412841047, "lat": 34.7920364, "lon": 10.7160446, "tags": {"amenity": "cafe", "name": "\u0645\u0642\u0647\u0649 \u0627\u0644\u0643\u0631\u0648\u0627\u0646", "name:ar": "\u0645\u0642\u0647\u0649 \u0627\u0644\u0643\u0631\u0648\u0627\u0646", "name:fr": "Caf\u00e9 Karawen"}}, {"type": "node", "id": 1941535169, "lat": 34.801831, "lon": 10.7608997, "tags": {"amenity": "cafe", "name": "\u0645\u0642\u0647\u0649 \u0627\u0644\u0646\u0635\u0631", "name:ar": "\u0645\u0642\u0647\u0649 \u0627\u0644\u0646\u0635\u0631", "name:fr": "Caf\u00e9 Ennasr"}}, {"type": "node", "id": 1941535170, "lat": 34.7999447, "lon": 10.7608754, "tags": {"amenity": "cafe", "name": "\u0645\u0642\u0647\u0649 \u0632\u064a\u0627\u062f", "name:ar": "\u0645\u0642\u0647\u0649 \u0632\u064a\u0627\u062f", "name:fr": "Caf\u00e9 Zied"}}, {"type": "node", "id": 1941536142, "lat": 34.7994404, "lon": 10.7574992, "tags": {"amenity": "cafe", "cuisine": "coffee_shop", "name": "Salon de Th\u00e9 M\u00e9t\u00e9or"}}, {"type": "node", "id": 1944300912, "lat": 34.8027334, "lon": 10.7602466, "tags": {"addr:city": "\u0633\u0627\u0642\u064a\u0629 \u0627\u0644\u0632\u064a\u062a", "addr:postcode": "3021", "addr:street": "\u0634\u0627\u0631\u0639 \u0627\u0644\u0637\u064a\u0628 \u0627\u0644\u0645\u0647\u064a\u0631\u064a", "amenity": "cafe", "name": "\u0645\u0642\u0647\u0649 \u0644\u0627\u0631\u0648\u0632\u0627", "name:ar": "\u0645\u0642\u0647\u0649 \u0644\u0627\u0631\u0648\u0632\u0627", "name:fr": "Caf\u00e9 La Rosa"}}, {"type": "node", "id": 1985563331, "lat": 34.7700637, "lon": 10.7432545, "tags": {"amenity": "cafe", "cuisine": "coffee_shop", "name": "\u0628\u0631\u064a\u0641\u064a\u0644\u0627\u062c", "name:ar": "\u0628\u0631\u064a\u0641\u064a\u0644\u0627\u062c", "name:fr": "Privilege", "smoking": "yes", "wifi": "free"}}, {"type": "node", "id": 2161950856, "lat": 34.8243111, "lon": 10.7631533, "tags": {"amenity": "cafe"}}, {"type": "node", "id": 2534713693, "lat": 34.7404267, "lon": 10.7593751, "tags": {"amenity": "cafe"}}, {"type": "node", "id": 2593121780, "lat": 34.7663477, "lon": 10.7236082, "tags": {"amenity": "cafe", "name": "\u0645\u0642\u0647\u0649 \u0645\u064a\u0631\u0627\u0643\u0644", "name:ar": "\u0645\u0642\u0647\u0649 \u0645\u064a\u0631\u0627\u0643\u0644", "name:fr": "Caf\u00e9 Miracle"}}, {"type": "node", "id": 2661119547, "lat": 34.7366264, "lon": 10.7499471, "tags": {"addr:city": "\u0635\u0641\u0627\u0642\u0633", "addr:city:ar": "\u0635\u0641\u0627\u0642\u0633", "amenity": "cafe", "name": "\u062a\u0631\u0627\u0633", "name:ar": "\u062a\u0631\u0627\u0633", "name:en": "Terasse"}}, {"type": "node", "id": 3913116590, "lat": 34.7682782, "lon": 10.7425305, "tags": {"amenity": "cafe", "cuisine": "coffee_shop", "name": "\u0644\u0627 \u0645\u0633\u0643\u0648\u062a", "name:ar": "\u0644\u0627 \u0645\u0633\u0643\u0648\u062a", "name:fr": "La Mascotte", "smoking": "yes", "wheelchair": "no"}}, {"type": "node", "id": 4274009793, "lat": 35.0312958, "lon": 10.9661051, "tags": {"amenity": "cafe", "name": "Caf\u00e9teria Hmama Hazeg"}}, {"type": "node", "id": 4307031714, "lat": 35.0338508, "lon": 10.9615082, "tags": {"addr:postcode": "3026", "addr:street": "\u0634\u0627\u0631\u0639 14 \u062c\u0627\u0646\u0641\u064a", "amenity": "cafe", "name": "\u0645\u0642\u0647\u0649 \u0627\u0644\u062d\u0645\u0627\u0645\u0629 \u0628\u062d\u0632\u0642", "name:ar": "\u0645\u0642\u0647\u0649 \u0627\u0644\u062d\u0645\u0627\u0645\u0629 \u0628\u062d\u0632\u0642", "name:fr": "Hmama", "opening_hours": "Mo-Su 05:00-20:00"}}, {"type": "node", "id": 4359381992, "lat": 34.8111105, "lon": 10.7615713, "tags": {"amenity": "cafe", "internet_access": "wlan", "name": "\u0645\u0642\u0647\u0649 \u0643\u0631\u064a\u0645", "name:ar": "\u0645\u0642\u0647\u0649 \u0643\u0631\u064a\u0645", "name:fr": "Caf\u00e9 Karim"}}, {"type": "node", "id": 4389450390, "lat": 34.7703142, "lon": 10.7538588, "tags": {"addr:street": "Centure Bourguiba", "amenity": "cafe", "name": "White Square", "name:fr": "White Square"}}, {"type": "node", "id": 4390540191, "lat": 34.7371258, "lon": 10.7503637, "tags": {"amenity": "cafe", "name": "Caf\u00e9 Belle Vue", "name:en": "Belle Vue Coffee", "name:fr": "Caf\u00e9 Belle Vue"}}, {"type": "node", "id": 4390625089, "lat": 34.7374398, "lon": 10.750025, "tags": {"amenity": "cafe", "name": "Mama Rosa", "name:fr": "Mama Rosa"}}, {"type": "node", "id": 4574838596, "lat": 34.7470411, "lon": 10.7640844, "tags": {"addr:street": "Rue Ahmed Bayrem", "amenity": "cafe", "cuisine": "breakfast;ice_cream;savory_pancakes;crepe;tea;cake;coffee_shop;pancake", "internet_access": "wlan", "name": "\u0642\u0627\u0639\u0629 \u0634\u0627\u064a \u0623\u0628\u0648 \u0646\u0648\u0627\u0633", "name:ar": "\u0642\u0627\u0639\u0629 \u0634\u0627\u064a \u0623\u0628\u0648 \u0646\u0648\u0627\u0633", "name:fr": "Salon de Th\u00e9 Abou Nawas", "opening_hours": "Mo-Su 07:30-24:00", "phone": "+216 29 291 306"}}, {"type": "node", "id": 4574874793, "lat": 34.7464208, "lon": 10.7631782, "tags": {"addr:city": "\u0635\u0641\u0627\u0642\u0633", "addr:city:ar": "\u0635\u0641\u0627\u0642\u0633", "addr:street": "\u0646\u0647\u062c \u0628\u063a\u062f\u0627\u062f", "amenity": "cafe", "name": "\u0645\u0642\u0647\u0649 \u0627\u0644\u0628\u0631\u064a\u0633\u062a\u064a\u062c", "name:ar": "\u0645\u0642\u0647\u0649 \u0627\u0644\u0628\u0631\u064a\u0633\u062a\u064a\u062c", "name:fr": "Caf\u00e9 Prestige"}}, {"type": "node", "id": 4575046691, "lat": 34.7424404, "lon": 10.7556468, "tags": {"addr:street": "Boulevard Elhedi Essousi - Route de Gr\u00e9mda", "amenity": "restaurant", "cuisine": "burger;fish;sandwich;seafood;pizza;arab;chicken;kebab", "internet_access": "wlan", "name": "\u0645\u0637\u0639\u0645 \u0645\u0634\u0645\u0627\u0634\u0629", "name:ar": "\u0645\u0637\u0639\u0645 \u0645\u0634\u0645\u0627\u0634\u0629", "name:fr": "Restaurant Mechmecha", "phone": "+216 25 179 444"}}, {"type": "node", "id": 4575314696, "lat": 34.7478526, "lon": 10.7614112, "tags": {"addr:city": "\u0635\u0641\u0627\u0642\u0633", "addr:city:ar": "\u0635\u0641\u0627\u0642\u0633", "addr:street": "Avenue 5 Ao\u00fbt", "amenity": "restaurant", "cuisine": "fish;burger;sandwich;seafood;pasta;pizza;chicken;spanish;kebab", "internet_access": "wlan", "name": "\u0645\u0637\u0639\u0645 \u0627\u0644\u0645\u0627\u062a\u0627\u062f\u0648\u0631", "name:ar": "\u0645\u0637\u0639\u0645 \u0627\u0644\u0645\u0627\u062a\u0627\u062f\u0648\u0631", "name:fr": "Restaurant Matador", "phone": "+216 26 700 614"}}, {"type": "node", "id": 4575662189, "lat": 34.7420949, "lon": 10.7541043, "tags": {"addr:street": "\u0634\u0627\u0631\u0639 \u0645\u062c\u064a\u062f\u0629 \u0628\u0648\u0644\u064a\u0644\u0629", "amenity": "restaurant", "internet_access": "wlan", "name": "\u0645\u0637\u0639\u0645 \u062a\u0648\u0646 \u062a\u0648\u0646", "name:ar": "\u0645\u0637\u0639\u0645 \u062a\u0648\u0646 \u062a\u0648\u0646", "name:fr": "Restaurant Ton Ton", "opening_hours": "24/7", "website": "https://www.tonton.tn/"}}, {"type": "node", "id": 4575898197, "lat": 34.7516639, "lon": 10.7612362, "tags": {"addr:street": "Route Nationale 1", "amenity": "cafe", "name": "\u0642\u0647\u0648\u0629 \u0634\u064a\u0634\u062e\u0627\u0646", "name:ar": "\u0642\u0647\u0648\u0629 \u0634\u064a\u0634\u062e\u0627\u0646", "name:fr": "Caf\u00e9 Chichkhan"}}, {"type": "node", "id": 4575927491, "lat": 34.7461276, "lon": 10.765992, "tags": {"addr:street": "Avenue Habib Bougafta", "amenity": "cafe", "internet_access": "wlan", "name": "\u0645\u0642\u0647\u0649 \u0645\u0648\u0644\u0627\u0646 \u0631\u0648\u062c", "name:ar": "\u0645\u0642\u0647\u0649 \u0645\u0648\u0644\u0627\u0646 \u0631\u0648\u062c", "name:fr": "Caf\u00e9 Moulin Rouge"}}, {"type": "node", "id": 4575938789, "lat": 34.7498306, "lon": 10.7608452, "tags": {"addr:street": "Route Nationale 1", "amenity": "cafe", "internet_access": "wlan", "name": "\u0645\u0642\u0647\u0649 \u062e\u0627\u0644\u062f", "name:ar": "\u0645\u0642\u0647\u0649 \u062e\u0627\u0644\u062f", "name:fr": "Caf\u00e9 Khaled", "phone": "+216 74 216 733"}}, {"type": "node", "id": 4622215641, "lat": 34.7481485, "lon": 10.7610248, "tags": {"addr:city": "\u0635\u0641\u0627\u0642\u0633", "addr:city:ar": "\u0635\u0641\u0627\u0642\u0633", "addr:street": "Avenue 5 Ao\u00fbt", "amenity": "restaurant", "name": "La Cabane", "name:ar": "\u0644\u0627 \u0643\u0627\u0628\u0627\u0646", "name:fr": "La Cabane", "phone": "+216 74 229 580"}}, {"type": "node", "id": 4639983021, "lat": 34.7313321, "lon": 10.7606155, "tags": {"amenity": "cafe", "name": "Popeye"}}, {"type": "node", "id": 4639983045, "lat": 34.7289517, "lon": 10.7601999, "tags": {"amenity": "restaurant", "name": "Cercina"}}, {"type": "node", "id": 4639983046, "lat": 34.7293573, "lon": 10.7604279, "tags": {"amenity": "restaurant", "name": "La Renaissance"}}, {"type": "node", "id": 4639983047, "lat": 34.7301376, "lon": 10.7606103, "tags": {"amenity": "restaurant", "name": "In Time"}}, {"type": "node", "id": 4639983055, "lat": 34.7315757, "lon": 10.7611284, "tags": {"amenity": "cafe", "name": "Caf\u00e9 Intilaka"}}, {"type": "node", "id": 4639983063, "lat": 34.7310129, "lon": 10.7630186, "tags": {"amenity": "cafe", "name": "Pataya"}}, {"type": "node", "id": 4639983064, "lat": 34.7309142, "lon": 10.7631361, "tags": {"amenity": "cafe", "name": "Donia"}}, {"type": "node", "id": 4639983074, "lat": 34.7296447, "lon": 10.7641539, "tags": {"amenity": "cafe", "name": "Dadi"}}, {"type": "node", "id": 4639983077, "lat": 34.7298916, "lon": 10.7648674, "tags": {"amenity": "cafe", "name": "Tutti Frutti"}}, {"type": "node", "id": 4639983087, "lat": 34.7340709, "lon": 10.761233, "tags": {"addr:city": "\u0635\u0641\u0627\u0642\u0633", "addr:city:ar": "\u0635\u0641\u0627\u0642\u0633", "amenity": "cafe", "name": "\u0627\u0644\u062f\u064a\u0648\u0627\u0646", "name:ar": "\u0627\u0644\u062f\u064a\u0648\u0627\u0646", "name:en": "Diwan"}}, {"type": "node", "id": 4639995392, "lat": 34.7333083, "lon": 10.7622549, "tags": {"amenity": "restaurant", "name": "Le Corail"}}, {"type": "node", "id": 4639995432, "lat": 34.7324073, "lon": 10.764178, "tags": {"addr:city": "\u0635\u0641\u0627\u0642\u0633", "addr:city:ar": "\u0635\u0641\u0627\u0642\u0633", "amenity": "cafe", "name": "\u062c\u0627\u0632", "name:ar": "\u062c\u0627\u0632", "name:en": "Jazz", "outdoor_seating": "no"}}, {"type": "node", "id": 4646766589, "lat": 34.7330341, "lon": 10.7636955, "tags": {"addr:city": "\u0635\u0641\u0627\u0642\u0633", "addr:city:ar": "\u0635\u0641\u0627\u0642\u0633", "amenity": "cafe"}}, {"type": "node", "id": 4699620492, "lat": 34.7359511, "lon": 10.7518932, "tags": {"amenity": "cafe", "name": "Red Moon", "name:fr": "Red Moon"}}, {"type": "node", "id": 4699675990, "lat": 34.7626938, "lon": 10.6918975, "tags": {"addr:street": "Route Manzel Chaker", "amenity": "cafe", "internet_access": "wlan", "name": "\u0645\u0642\u0647\u0649 \u0627\u0644\u0641\u0646\u0648\u0646", "name:ar": "\u0645\u0642\u0647\u0649 \u0627\u0644\u0641\u0646\u0648\u0646", "name:fr": "Caf\u00e9 El Founoun", "opening_hours": "Mo-Su 05:00-24:00"}}, {"type": "node", "id": 5032063023, "lat": 34.7409944, "lon": 10.7528078, "tags": {"amenity": "cafe", "name": "\u0643\u0631\u064a\u0628", "name:ar": "\u0643\u0631\u064a\u0628", "name:fr": "Creep"}}, {"type": "node", "id": 5057353921, "lat": 34.7691162, "lon": 10.741416, "tags": {"amenity": "restaurant", "internet_access": "wlan", "name": "Plan B", "name:fr": "Plan B", "opening_hours": "Mo-Su 12:00-02:00", "phone": "+216 56 600 600"}}, {"type": "node", "id": 5063645721, "lat": 34.7400942, "lon": 10.7595255, "tags": {"amenity": "cafe", "name": "Espace Er-Ribat", "name:en": "Espace Er-Ribat", "name:fr": "Espace Er-Ribat"}}, {"type": "node", "id": 5107888722, "lat": 34.7403325, "lon": 10.7527531, "tags": {"amenity": "cafe", "name": "\u0628\u0648\u0644\u064a\u062a\u064a\u0643\u0627", "name:ar": "\u0628\u0648\u0644\u064a\u062a\u064a\u0643\u0627", "name:fr": "Politika"}}, {"type": "node", "id": 5159455521, "lat": 34.7363153, "lon": 10.7518798, "tags": {"amenity": "cafe", "name": "Ci Gusta", "name:en": "Ci Gusta", "name:fr": "Ci Gusta"}}, {"type": "node", "id": 5159455522, "lat": 34.7263317, "lon": 10.7254918, "tags": {"amenity": "cafe", "name": "Salon de Th\u00e9 - Resto Granini", "name:ar": "", "name:en": "Granini", "name:fr": "Salon de Th\u00e9 - Resto Granini"}}, {"type": "node", "id": 5201639822, "lat": 34.7344258, "lon": 10.7582396, "tags": {"addr:housenumber": "24900220", "addr:postcode": "3000", "addr:street": "\u0646\u0647\u062c \u0628\u0631\u062c \u0627\u0644\u0642\u0635\u0631", "amenity": "cafe", "internet_access": "wlan", "name:fr": "Caf\u00e9 fadi", "phone": "+216 24 900 220"}}, {"type": "node", "id": 5246870229, "lat": 34.7732543, "lon": 10.730468, "tags": {"addr:street": "\u0637\u0631\u064a\u0642 \u0642\u0631\u0645\u062f\u0629", "amenity": "cafe", "internet_access": "wlan", "name": "\u0642\u0647\u0648\u0629 legends", "name:en": "Caf\u00e9 Legends", "name:fr": "Caf\u00e9 Legends", "opening_hours": "24/7"}}, {"type": "node", "id": 5815361928, "lat": 34.7949707, "lon": 10.849005, "tags": {"amenity": "restaurant", "name": "\u062d\u0648\u064a\u062a\u0629", "name:ar": "\u062d\u0648\u064a\u062a\u0629", "name:fr": "Restaurant Hwita", "outdoor_seating": "no", "smoking": "separated"}}, {"type": "node", "id": 6484257625, "lat": 34.7940108, "lon": 10.760239, "tags": {"amenity": "cafe", "name": "\u0645\u0642\u0647\u0649 \u0627\u0643\u0633\u062a\u0631\u0627 \u062a\u0627\u064a\u0645", "name:ar": "\u0645\u0642\u0647\u0649 \u0627\u0643\u0633\u062a\u0631\u0627 \u062a\u0627\u064a\u0645", "name:fr": "Caf\u00e9 Extra Time"}}, {"type": "node", "id": 6484261730, "lat": 34.7962207, "lon": 10.7604346, "tags": {"amenity": "cafe", "name": "\u0645\u0642\u0647\u0649 \u0627\u0644\u0642\u0627\u062f\u0633\u064a\u0629 2", "name:ar": "\u0645\u0642\u0647\u0649 \u0627\u0644\u0642\u0627\u062f\u0633\u064a\u0629 2", "name:fr": "Caf\u00e9 Al Kadisiya 2"}}, {"type": "node", "id": 6484476797, "lat": 34.8011747, "lon": 10.7633449, "tags": {"amenity": "cafe", "name": "\u0645\u0642\u0647\u0649 \u0642\u0627\u0644\u0627\u0631\u064a\u0627", "name:ar": "\u0645\u0642\u0647\u0649 \u0642\u0627\u0644\u0627\u0631\u064a\u0627", "name:fr": "Caf\u00e9 Galeria"}}, {"type": "node", "id": 6484515290, "lat": 34.7914359, "lon": 10.8058934, "tags": {"amenity": "cafe", "name": "\u0645\u0642\u0647\u0649 \u062a\u0631\u064a\u0648", "name:ar": "\u0645\u0642\u0647\u0649 \u062a\u0631\u064a\u0648", "name:fr": "Caf\u00e9 Trio"}}, {"type": "node", "id": 6485127546, "lat": 34.7569816, "lon": 10.788378, "tags": {"amenity": "cafe", "name": "\u0645\u0642\u0647\u0649 \u0642\u0648\u0644\u062f \u0643\u0648\u0641\u064a", "name:ar": "\u0645\u0642\u0647\u0649 \u0642\u0648\u0644\u062f \u0643\u0648\u0641\u064a", "name:fr": "Gold Coffee"}}, {"type": "node", "id": 6485127547, "lat": 34.7578169, "lon": 10.7905006, "tags": {"amenity": "cafe", "name": "\u0645\u0642\u0647\u0649 \u0643\u0648\u0643\u0633\u064a\u0646\u0627\u0644", "name:ar": "\u0645\u0642\u0647\u0649 \u0643\u0648\u0643\u0633\u064a\u0646\u0627\u0644", "name:fr": "Caf\u00e9 Coccinelle"}}, {"type": "node", "id": 6485127548, "lat": 34.7593082, "lon": 10.7930447, "tags": {"amenity": "cafe", "name": "\u0645\u0642\u0647\u0649 \u0641\u064a\u0643\u062a\u0648\u0631\u064a\u0627", "name:ar": "\u0645\u0642\u0647\u0649 \u0641\u064a\u0643\u062a\u0648\u0631\u064a\u0627", "name:fr": "Caf\u00e9 Victoria"}}, {"type": "node", "id": 6485193298, "lat": 34.7610577, "lon": 10.795349, "tags": {"amenity": "cafe", "name": "\u0645\u0642\u0647\u0649 \u0644\u0624\u064a", "name:ar": "\u0645\u0642\u0647\u0649 \u0644\u0624\u064a", "name:fr": "Caf\u00e9 Louay"}}, {"type": "node", "id": 6485193300, "lat": 34.773348, "lon": 10.8028213, "tags": {"amenity": "cafe", "name": "\u0645\u0642\u0647\u0649 \u0627\u0644\u0646\u0627\u0638\u0648\u0631", "name:ar": "\u0645\u0642\u0647\u0649 \u0627\u0644\u0646\u0627\u0638\u0648\u0631", "name:fr": "Caf\u00e9 Ennadhour"}}, {"type": "node", "id": 6485193301, "lat": 34.77102, "lon": 10.8045033, "tags": {"amenity": "cafe", "name": "\u0645\u0642\u0647\u0649 \u0645\u0627\u0631\u064a\u0646\u0627", "name:ar": "\u0645\u0642\u0647\u0649 \u0645\u0627\u0631\u064a\u0646\u0627", "name:fr": "Caf\u00e9 Marina"}}, {"type": "node", "id": 6485238633, "lat": 34.7776139, "lon": 10.8162127, "tags": {"amenity": "cafe", "name": "\u0645\u0642\u0647\u0649 \u0628\u0627\u0628 \u0627\u0644\u062d\u0627\u0631\u0629", "name:ar": "\u0645\u0642\u0647\u0649 \u0628\u0627\u0628 \u0627\u0644\u062d\u0627\u0631\u0629", "name:fr": "Caf\u00e9 Bab El Hara"}}, {"type": "node", "id": 6485251393, "lat": 34.7903292, "lon": 10.8369908, "tags": {"amenity": "cafe", "name": "\u0645\u0642\u0647\u0649 \u0633\u0631\u0633\u064a\u0646\u0627", "name:ar": "\u0645\u0642\u0647\u0649 \u0633\u0631\u0633\u064a\u0646\u0627", "name:fr": "Caf\u00e9 Cercina"}}, {"type": "node", "id": 6486772783, "lat": 34.7639833, "lon": 10.7826322, "tags": {"amenity": "cafe", "name": "\u0643\u0627\u0641\u064a\u062a\u064a\u0631\u064a\u0627 \u0628\u0648\u0632", "name:ar": "\u0643\u0627\u0641\u064a\u062a\u064a\u0631\u064a\u0627 \u0628\u0648\u0632", "name:fr": "Caf\u00e9t\u00e9ria Pause"}}, {"type": "node", "id": 6487521923, "lat": 34.774605, "lon": 10.8081175, "tags": {"amenity": "cafe", "name": "\u0645\u0642\u0647\u0649 \u0643\u0627\u0641\u0627\u0644\u064a", "name:ar": "\u0645\u0642\u0647\u0649 \u0643\u0627\u0641\u0627\u0644\u064a", "name:fr": "Caf\u00e9 Cavalli"}}, {"type": "node", "id": 6487610554, "lat": 34.7935088, "lon": 10.8030958, "tags": {"amenity": "cafe", "name": "\u0645\u0642\u0647\u0649 \u0623\u0645\u064a\u0642\u0648\u0633", "name:ar": "\u0645\u0642\u0647\u0649 \u0623\u0645\u064a\u0642\u0648\u0633", "name:fr": "Caf\u00e9 Amigos"}}, {"type": "node", "id": 6487612199, "lat": 34.7995674, "lon": 10.7946685, "tags": {"amenity": "cafe", "name": "Caf\u00e9 Mi Amore", "name:ar": "\u0645\u0642\u0647\u0649 \u0645\u064a \u0623\u0645\u0648\u0631", "name:fr": "Caf\u00e9 Mi Amore"}}, {"type": "node", "id": 6487613468, "lat": 34.8008102, "lon": 10.793223, "tags": {"amenity": "cafe", "name": "\u0645\u0642\u0647\u0649 \u0627\u0644\u0628\u0627\u0631\u0633\u0627", "name:ar": "\u0645\u0642\u0647\u0649 \u0627\u0644\u0628\u0627\u0631\u0633\u0627", "name:fr": "Caf\u00e9 Bar\u00e7a"}}, {"type": "node", "id": 6487629267, "lat": 34.8115562, "lon": 10.7891382, "tags": {"amenity": "cafe", "name": "\u0645\u0642\u0647\u0649 \u0627\u0644\u0634\u0627\u0628\u064a", "name:ar": "\u0645\u0642\u0647\u0649 \u0627\u0644\u0634\u0627\u0628\u064a", "name:fr": "Caf\u00e9 Chebbi"}}, {"type": "node", "id": 6489446245, "lat": 34.7945939, "lon": 10.80954, "tags": {"amenity": "cafe", "name": "\u0634\u064a\u0646\u0643\u0648 \u0643\u0648\u0641\u064a", "name:ar": "\u0634\u064a\u0646\u0643\u0648 \u0643\u0648\u0641\u064a", "name:fr": "Chinko Coffee"}}, {"type": "node", "id": 6490372018, "lat": 34.7850653, "lon": 10.7782184, "tags": {"amenity": "cafe", "name": "\u0645\u0642\u0647\u0649 \u0627\u0628\u062a\u0633\u0627\u0645", "name:ar": "\u0645\u0642\u0647\u0649 \u0627\u0628\u062a\u0633\u0627\u0645", "name:fr": "Caf\u00e9 Ibtissem"}}, {"type": "node", "id": 6490372019, "lat": 34.7860797, "lon": 10.778603, "tags": {"amenity": "cafe", "name": "\u0642\u0627\u0639\u0629 \u0634\u0627\u064a \u0628\u064a\u0642 \u0628\u0627\u0646", "name:ar": "\u0642\u0627\u0639\u0629 \u0634\u0627\u064a \u0628\u064a\u0642 \u0628\u0627\u0646", "name:fr": "Salon de Th\u00e9 Big Ben"}}, {"type": "node", "id": 6490372020, "lat": 34.7876858, "lon": 10.7792733, "tags": {"amenity": "cafe", "name": "\u0645\u0642\u0647\u0649 \u0623\u0645\u064a\u0645\u0629", "name:ar": "\u0645\u0642\u0647\u0649 \u0623\u0645\u064a\u0645\u0629", "name:fr": "Caf\u00e9 Omaima"}}, {"type": "node", "id": 6491828203, "lat": 34.7902252, "lon": 10.8041089, "tags": {"amenity": "cafe", "name": "\u0645\u0642\u0647\u0649 \u0631\u0648\u062a\u0627\u0646\u0627", "name:ar": "\u0645\u0642\u0647\u0649 \u0631\u0648\u062a\u0627\u0646\u0627", "name:fr": "Caf\u00e9 Rotana"}}, {"type": "node", "id": 6491828204, "lat": 34.7902854, "lon": 10.8046893, "tags": {"amenity": "cafe", "name": "\u0645\u0642\u0647\u0649 \u0627\u0644\u0643\u0648\u0627\u062a\u0631\u0648", "name:ar": "\u0645\u0642\u0647\u0649 \u0627\u0644\u0643\u0648\u0627\u062a\u0631\u0648", "name:fr": "Caf\u00e9 Quatro"}}, {"type": "node", "id": 6491828205, "lat": 34.7899249, "lon": 10.8043238, "tags": {"amenity": "cafe", "name": "\u0645\u0642\u0647\u0649 \u0642\u064a\u0635\u0631", "name:ar": "\u0645\u0642\u0647\u0649 \u0642\u064a\u0635\u0631", "name:fr": "Caf\u00e9 C\u00e9sar"}}, {"type": "node", "id": 6491828206, "lat": 34.7885604, "lon": 10.8021897, "tags": {"addr:postcode": "3067", "amenity": "cafe", "name": "\u0645\u0642\u0647\u0649 \u0623\u0648\u0646\u0648", "name:ar": "\u0645\u0642\u0647\u0649 \u0623\u0648\u0646\u0648", "name:fr": "Caf\u00e9 Uno"}}, {"type": "node", "id": 6495103114, "lat": 34.7721428, "lon": 10.7755232, "tags": {"amenity": "cafe", "name": "\u0645\u0642\u0647\u0649 \u0627\u0644\u0643\u0627\u0628\u064a\u062a\u0648\u0644", "name:ar": "\u0645\u0642\u0647\u0649 \u0627\u0644\u0643\u0627\u0628\u064a\u062a\u0648\u0644", "name:fr": "Caf\u00e9 Capitole"}}, {"type": "node", "id": 6495103116, "lat": 34.7753971, "lon": 10.7764168, "tags": {"amenity": "cafe", "name": "V12 \u0645\u0642\u0647\u0649 \u0628\u0627\u0646\u064a\u0648\u0644\u0627", "name:fr": "Caf\u00e9 Baniola V12"}}, {"type": "node", "id": 6495103135, "lat": 34.7758034, "lon": 10.7769394, "tags": {"amenity": "cafe", "name": "\u0645\u0642\u0647\u0649 \u0643\u0627\u0631\u0627\u0645\u0627\u0644\u0627", "name:ar": "\u0645\u0642\u0647\u0649 \u0643\u0627\u0631\u0627\u0645\u0627\u0644\u0627", "name:fr": "Caf\u00e9 Caramella"}}, {"type": "node", "id": 6495103136, "lat": 34.7785761, "lon": 10.7774773, "tags": {"amenity": "cafe", "name": "\u0645\u0642\u0647\u0649 \u062d\u0627\u062a\u0645", "name:ar": "\u0645\u0642\u0647\u0649 \u062d\u0627\u062a\u0645", "name:fr": "Caf\u00e9 Hatem"}}, {"type": "node", "id": 6495103138, "lat": 34.7792562, "lon": 10.7775739, "tags": {"amenity": "restaurant", "name": "\u0645\u0637\u0639\u0645 \u0634\u0631\u0634\u0648\u0631", "name:ar": "\u0645\u0637\u0639\u0645 \u0634\u0631\u0634\u0648\u0631", "name:fr": "Restaurant Charchour"}}, {"type": "node", "id": 6495193230, "lat": 34.7897385, "lon": 10.7789923, "tags": {"addr:postcode": "3011", "amenity": "cafe", "name": "\u0645\u0642\u0647\u0649 \u0633\u062a\u0627\u062f\u064a\u0648\u0645", "name:ar": "\u0645\u0642\u0647\u0649 \u0633\u062a\u0627\u062f\u064a\u0648\u0645", "name:fr": "Caf\u00e9 Stadium"}}, {"type": "node", "id": 6495193233, "lat": 34.791425, "lon": 10.780646, "tags": {"amenity": "restaurant", "name": "\u0645\u0637\u0639\u0645 \u0627\u0644\u062a\u0642\u062f\u0645", "name:ar": "\u0645\u0637\u0639\u0645 \u0627\u0644\u062a\u0642\u062f\u0645", "name:fr": "Restaurant Le Progr\u00e8s"}}, {"type": "node", "id": 6495193237, "lat": 34.7920047, "lon": 10.7807603, "tags": {"amenity": "cafe", "name": "\u0645\u0642\u0647\u0649 \u0639\u0644\u064a\u0633\u0629", "name:ar": "\u0645\u0642\u0647\u0649 \u0639\u0644\u064a\u0633\u0629", "name:fr": "Caf\u00e9 Elissa"}}, {"type": "node", "id": 6495193238, "lat": 34.7923248, "lon": 10.7808311, "tags": {"amenity": "cafe", "name": "\u0645\u0642\u0647\u0649 \u0643\u0648\u0631\u062a\u0627\u062f\u0648", "name:ar": "\u0645\u0642\u0647\u0649 \u0643\u0648\u0631\u062a\u0627\u062f\u0648", "name:fr": "Caf\u00e9 Cortado"}}, {"type": "node", "id": 6495193262, "lat": 34.7948102, "lon": 10.7815017, "tags": {"amenity": "cafe", "name": "\u0645\u0642\u0647\u0649 \u0639\u0635\u0627\u0645", "name:ar": "\u0645\u0642\u0647\u0649 \u0639\u0635\u0627\u0645", "name:fr": "Caf\u00e9 Issam"}}, {"type": "node", "id": 6495193266, "lat": 34.7961829, "lon": 10.7820432, "tags": {"amenity": "cafe", "name": "\u0645\u0642\u0647\u0649 \u0627\u0644\u062a\u0627\u062c", "name:ar": "\u0645\u0642\u0647\u0649 \u0627\u0644\u062a\u0627\u062c", "name:fr": "Caf\u00e9 Tej"}}, {"type": "node", "id": 6495193267, "lat": 34.7968231, "lon": 10.7817621, "tags": {"amenity": "cafe", "name": "\u0645\u0642\u0647\u0649 \u0642\u0648\u0644\u0641", "name:ar": "\u0645\u0642\u0647\u0649 \u0642\u0648\u0644\u0641", "name:fr": "Caf\u00e9 Golf"}}, {"type": "node", "id": 6495722025, "lat": 34.7999253, "lon": 10.7837047, "tags": {"amenity": "cafe", "name": "\u0645\u0642\u0647\u0649 \u0633\u0645\u064a\u0631", "name:ar": "\u0645\u0642\u0647\u0649 \u0633\u0645\u064a\u0631", "name:fr": "Caf\u00e9 Samir"}}, {"type": "node", "id": 6495722026, "lat": 34.8009271, "lon": 10.7837149, "tags": {"amenity": "cafe", "name": "Caf\u00e9 Les Fr\u00e8res", "name:ar": "\u0645\u0642\u0647\u0649 \u0627\u0644\u0623\u062e\u0648\u0629", "name:fr": "Caf\u00e9 Les Fr\u00e8res"}}, {"type": "node", "id": 6495722027, "lat": 34.804048, "lon": 10.7850014, "tags": {"amenity": "restaurant", "name": "La Storia", "name:ar": "\u0644\u0627 \u0633\u062a\u0648\u0631\u064a\u0627", "name:fr": "La Storia"}}, {"type": "node", "id": 6495722030, "lat": 34.8081137, "lon": 10.7868953, "tags": {"amenity": "cafe", "name": "\u0643\u0627\u0641\u064a\u062a\u064a\u0631\u064a\u0627 \u0644\u062c\u064a\u0646", "name:ar": "\u0643\u0627\u0641\u064a\u062a\u064a\u0631\u064a\u0627 \u0644\u062c\u064a\u0646", "name:fr": "Caf\u00e9t\u00e9ria Loujayn"}}, {"type": "node", "id": 6495722031, "lat": 34.8086799, "lon": 10.7871573, "tags": {"amenity": "cafe", "name": "\u0645\u0642\u0647\u0649 \u0623\u0648\u0628\u0631\u0627", "name:ar": "\u0645\u0642\u0647\u0649 \u0623\u0648\u0628\u0631\u0627", "name:fr": "Caf\u00e9 Opera"}}, {"type": "node", "id": 6495722032, "lat": 34.8139865, "lon": 10.790787, "tags": {"amenity": "cafe", "name": "\u0645\u0642\u0647\u0649 \u0628\u064a\u0627\u0646\u0643\u0648\u0646\u0627\u0631\u0648", "name:ar": "\u0645\u0642\u0647\u0649 \u0628\u064a\u0627\u0646\u0643\u0648\u0646\u0627\u0631\u0648", "name:fr": "Caf\u00e9t\u00e9ria Bianconero"}}, {"type": "node", "id": 6495722034, "lat": 34.8157059, "lon": 10.79198, "tags": {"amenity": "cafe", "name": "\u0645\u0642\u0647\u0649 \u0634\u0627\u0644 \u0648\u062d\u064a\u062f \u0628\u0646 \u0639\u0645\u0631", "name:ar": "\u0645\u0642\u0647\u0649 \u0634\u0627\u0644 \u0648\u062d\u064a\u062f \u0628\u0646 \u0639\u0645\u0631", "name:fr": "Caf\u00e9 Shell Wahid Ben Amor"}}, {"type": "node", "id": 6495722036, "lat": 34.8181668, "lon": 10.7937467, "tags": {"amenity": "cafe", "name": "\u0643\u0627\u0641\u064a\u062a\u064a\u0631\u064a\u0627 \u0641\u064a\u0646\u064a\u0633\u064a\u0627", "name:ar": "\u0643\u0627\u0641\u064a\u062a\u064a\u0631\u064a\u0627 \u0641\u064a\u0646\u064a\u0633\u064a\u0627", "name:fr": "Caf\u00e9t\u00e9ria Venicia"}}, {"type": "node", "id": 6497155787, "lat": 34.7564035, "lon": 10.7628457, "tags": {"amenity": "cafe", "name": "DUO Coffee"}}, {"type": "node", "id": 6497282919, "lat": 34.7927234, "lon": 10.7745304, "tags": {"amenity": "cafe", "name": "\u0645\u0642\u0647\u0649 \u0628\u0627\u0646\u0648\u0631\u0627\u0645\u0627", "name:ar": "\u0645\u0642\u0647\u0649 \u0628\u0627\u0646\u0648\u0631\u0627\u0645\u0627", "name:fr": "Caf\u00e9 Panorama"}}, {"type": "node", "id": 6499458000, "lat": 34.7850928, "lon": 10.7986897, "tags": {"amenity": "cafe", "name": "\u0643\u0627\u0641\u064a\u062a\u064a\u0631\u064a\u0627 \u0631\u0648\u0645\u0627", "name:ar": "\u0643\u0627\u0641\u064a\u062a\u064a\u0631\u064a\u0627 \u0631\u0648\u0645\u0627", "name:fr": "Caf\u00e9t\u00e9ria Roma"}}, {"type": "node", "id": 6499458001, "lat": 34.7825758, "lon": 10.7967606, "tags": {"amenity": "cafe", "name": "\u0645\u0642\u0647\u0649 \u0627\u0644\u0632\u0648\u0627\u0631\u064a", "name:ar": "\u0645\u0642\u0647\u0649 \u0627\u0644\u0632\u0648\u0627\u0631\u064a", "name:fr": "Caf\u00e9 Zouari"}}, {"type": "node", "id": 6499486436, "lat": 34.7770276, "lon": 10.7924672, "tags": {"amenity": "cafe", "name": "\u0645\u0642\u0647\u0649 \u0642\u064a\u0633", "name:ar": "\u0645\u0642\u0647\u0649 \u0642\u064a\u0633", "name:fr": "Caf\u00e9 Kais"}}, {"type": "node", "id": 6499486437, "lat": 34.7757186, "lon": 10.7917046, "tags": {"amenity": "cafe", "name": "\u0645\u0642\u0647\u0649 \u0628\u0627\u0628\u0627 \u0639\u0644\u064a", "name:ar": "\u0645\u0642\u0647\u0649 \u0628\u0627\u0628\u0627 \u0639\u0644\u064a", "name:fr": "Caf\u00e9 Baba Ali"}}, {"type": "node", "id": 6499486438, "lat": 34.7751291, "lon": 10.7917522, "tags": {"amenity": "cafe", "name": "\u0645\u0642\u0647\u0649 \u0628\u0631\u0643\u0627\u062a", "name:ar": "\u0645\u0642\u0647\u0649 \u0628\u0631\u0643\u0627\u062a", "name:fr": "Caf\u00e9 Baraket"}}, {"type": "node", "id": 6499486441, "lat": 34.7730078, "lon": 10.7902193, "tags": {"amenity": "cafe", "name": "\u0645\u0642\u0647\u0649 \u0627\u0644\u0643\u0644\u0627\u0633\u064a\u0643\u0648", "name:ar": "\u0645\u0642\u0647\u0649 \u0627\u0644\u0643\u0644\u0627\u0633\u064a\u0643\u0648", "name:fr": "Caf\u00e9 Classico"}}, {"type": "node", "id": 6499486442, "lat": 34.7717349, "lon": 10.7892382, "tags": {"amenity": "cafe", "name": "\u0645\u0642\u0647\u0649 \u064a\u0648\u0633\u0641", "name:ar": "\u0645\u0642\u0647\u0649 \u064a\u0648\u0633\u0641", "name:fr": "Caf\u00e9 Youssef"}}, {"type": "node", "id": 6499486444, "lat": 34.7690562, "lon": 10.7866063, "tags": {"amenity": "cafe", "name": "\u0645\u0642\u0647\u0649 \u0627\u0644\u0639\u0648\u064a", "name:ar": "\u0645\u0642\u0647\u0649 \u0627\u0644\u0639\u0648\u064a", "name:fr": "Caf\u00e9 Aouay"}}, {"type": "node", "id": 6503281003, "lat": 34.7415827, "lon": 10.7612246, "tags": {"addr:city": "\u0635\u0641\u0627\u0642\u0633", "addr:city:ar": "\u0635\u0641\u0627\u0642\u0633", "amenity": "restaurant", "name": "\u0645\u0637\u0639\u0645 \u0627\u0644\u0632\u064a\u062a\u0648\u0646\u0629", "name:ar": "\u0645\u0637\u0639\u0645 \u0627\u0644\u0632\u064a\u062a\u0648\u0646\u0629", "name:en": "", "name:fr": "Restaurant Zitouna"}}, {"type": "node", "id": 6503295416, "lat": 34.7451674, "lon": 10.7628511, "tags": {"amenity": "restaurant", "name": "\u0645\u0637\u0639\u0645 \u0639\u0628\u064a\u062f", "name:ar": "\u0645\u0637\u0639\u0645 \u0639\u0628\u064a\u062f", "name:fr": "Restaurant Abid"}}, {"type": "node", "id": 6503295417, "lat": 34.7455949, "lon": 10.7633448, "tags": {"amenity": "restaurant", "name": "\u0643\u0648\u064a\u0643 \u062f\u064a\u0646", "name:ar": "\u0643\u0648\u064a\u0643 \u062f\u064a\u0646", "name:fr": "Quick Dine"}}, {"type": "node", "id": 6503295419, "lat": 34.7469451, "lon": 10.7619435, "tags": {"addr:city": "\u0635\u0641\u0627\u0642\u0633", "addr:city:ar": "\u0635\u0641\u0627\u0642\u0633", "addr:street": "Avenue 5 Ao\u00fbt", "amenity": "cafe", "internet_access": "wlan", "name": "\u0645\u0642\u0647\u0649 \u0631\u0648\u0628\u064a\u0633\u062a\u0627", "name:ar": "\u0645\u0642\u0647\u0649 \u0631\u0648\u0628\u064a\u0633\u062a\u0627", "name:fr": "Caf\u00e9 Robusta"}}, {"type": "node", "id": 6503870468, "lat": 34.7456246, "lon": 10.7657318, "tags": {"amenity": "cafe", "name": "\u0645\u0642\u0647\u0649 \u062c\u0644\u0627\u0644", "name:ar": "\u0645\u0642\u0647\u0649 \u062c\u0644\u0627\u0644", "name:fr": "Caf\u00e9 Jalel"}}, {"type": "node", "id": 6503886669, "lat": 34.7457775, "lon": 10.7624784, "tags": {"amenity": "cafe", "name": "\u0645\u0642\u0647\u0649 \u0645\u0639\u0632", "name:ar": "\u0645\u0642\u0647\u0649 \u0645\u0639\u0632", "name:fr": "Caf\u00e9 Moez"}}, {"type": "node", "id": 6507019839, "lat": 34.7654167, "lon": 10.7737909, "tags": {"amenity": "cafe", "name": "\u0645\u0642\u0647\u0649 \u0627\u0644\u062d\u0628\u064a\u0628", "name:ar": "\u0645\u0642\u0647\u0649 \u0627\u0644\u062d\u0628\u064a\u0628", "name:fr": "Caf\u00e9 El Habib"}}, {"type": "node", "id": 6507019840, "lat": 34.7823012, "lon": 10.7778765, "tags": {"addr:postcode": "3011", "amenity": "cafe", "name": "\u0645\u0642\u0647\u0649 \u0631\u0648\u0632\u0627\u0644\u064a\u0646\u0627", "name:ar": "\u0645\u0642\u0647\u0649 \u0631\u0648\u0632\u0627\u0644\u064a\u0646\u0627", "name:fr": "Caf\u00e9 Rosalina"}}, {"type": "node", "id": 6509326033, "lat": 34.7588364, "lon": 10.7873562, "tags": {"amenity": "cafe", "name": "\u0645\u0642\u0647\u0649 \u0643\u0627\u0628\u064a\u062a\u0648", "name:ar": "\u0645\u0642\u0647\u0649 \u0643\u0627\u0628\u064a\u062a\u0648", "name:fr": "Caf\u00e9 Capito"}}, {"type": "node", "id": 6522314378, "lat": 34.8034459, "lon": 10.7881634, "tags": {"amenity": "cafe", "name": "\u0645\u0642\u0647\u0649 \u0622\u0645\u0646\u0629", "name:ar": "\u0645\u0642\u0647\u0649 \u0622\u0645\u0646\u0629", "name:fr": "Caf\u00e9 Emna"}}, {"type": "node", "id": 6528462019, "lat": 34.7950775, "lon": 10.8107879, "tags": {"amenity": "cafe", "name": "\u0634\u0627\u0644\u0627\u0646\u062c \u0643\u0648\u0641\u064a", "name:ar": "\u0634\u0627\u0644\u0627\u0646\u062c \u0643\u0648\u0641\u064a", "name:fr": "Challenge Coffee"}}, {"type": "node", "id": 6535419165, "lat": 34.7310331, "lon": 10.7504826, "tags": {"amenity": "cafe", "name": "\u0645\u0642\u0647\u0649 \u0627\u0644\u062d\u0644\u0645\u064a\u0629", "name:ar": "\u0645\u0642\u0647\u0649 \u0627\u0644\u062d\u0644\u0645\u064a\u0629", "name:fr": "Caf\u00e9 El Helmia"}}, {"type": "node", "id": 6535422893, "lat": 34.7296514, "lon": 10.7537095, "tags": {"amenity": "cafe", "name": "\u0645\u0642\u0647\u0649 \u0627\u0644\u0642\u0627\u062f\u0633\u064a\u0629", "name:ar": "\u0645\u0642\u0647\u0649 \u0627\u0644\u0642\u0627\u062f\u0633\u064a\u0629", "name:fr": "Caf\u00e9 Al Kadisia"}}, {"type": "node", "id": 6548563595, "lat": 34.7888303, "lon": 10.7815583, "tags": {"addr:postcode": "3011", "amenity": "cafe", "name": "\u0645\u0642\u0647\u0649 \u0627\u0644\u0643\u0627\u0628", "name:ar": "\u0645\u0642\u0647\u0649 \u0627\u0644\u0643\u0627\u0628", "name:fr": "Caf\u00e9 Le Cap"}}, {"type": "node", "id": 6550856497, "lat": 34.7611297, "lon": 10.7806719, "tags": {"amenity": "cafe", "name": "\u0645\u0642\u0647\u0649 \u0627\u0644\u0631\u064a\u0627\u0644", "name:ar": "\u0645\u0642\u0647\u0649 \u0627\u0644\u0631\u064a\u0627\u0644", "name:fr": "Caf\u00e9 Real"}}, {"type": "node", "id": 6550867164, "lat": 34.7505922, "lon": 10.7716673, "tags": {"amenity": "cafe", "name": "\u0645\u0642\u0647\u0649 \u0645\u0627\u0641\u064a", "name:ar": "\u0645\u0642\u0647\u0649 \u0645\u0627\u0641\u064a", "name:fr": "Caf\u00e9 Mavie"}}, {"type": "node", "id": 6579567441, "lat": 34.7990656, "lon": 10.7830647, "tags": {"amenity": "cafe", "name": "Amalfi Coffee", "name:ar": "\u0623\u0645\u0627\u0644\u0641\u064a \u0643\u0648\u063a\u064a", "name:fr": "Amalfi Coffee"}}, {"type": "node", "id": 6580525099, "lat": 34.7998002, "lon": 10.7562806, "tags": {"amenity": "cafe", "name": "\u0645\u0642\u0647\u0649 \u0645\u0635\u0641\u0627\u0631", "name:ar": "\u0645\u0642\u0647\u0649 \u0645\u0635\u0641\u0627\u0631", "name:fr": "Caf\u00e9 Mesfar"}}, {"type": "node", "id": 6586684831, "lat": 34.8285778, "lon": 10.7794799, "tags": {"amenity": "cafe", "name": "espace familial"}}, {"type": "node", "id": 6586696438, "lat": 34.730739, "lon": 10.7660945, "tags": {"addr:city": "\u0635\u0641\u0627\u0642\u0633", "addr:city:ar": "\u0635\u0641\u0627\u0642\u0633", "addr:postcode": "3000", "addr:street": "\u0634\u0627\u0631\u0639 \u0627\u0644\u0647\u0627\u062f\u064a \u0634\u0627\u0643\u0631", "addr:street:ar": "\u0634\u0627\u0631\u0639 \u0627\u0644\u0647\u0627\u062f\u064a \u0634\u0627\u0643\u0631", "addr:street:fr": "Avenue Hedi Chaker ", "amenity": "cafe", "cuisine": "coffee_shop", "name": "A bord"}}, {"type": "node", "id": 6627558895, "lat": 34.8034057, "lon": 10.7608688, "tags": {"addr:city": "\u0633\u0627\u0642\u064a\u0629 \u0627\u0644\u0632\u064a\u062a", "addr:postcode": "3021", "amenity": "cafe", "name": "\u0645\u0642\u0647\u0649 \u0645\u0646\u0649", "name:ar": "\u0645\u0642\u0647\u0649 \u0645\u0646\u0649", "name:fr": "Caf\u00e9 Mouna"}}, {"type": "node", "id": 6627558928, "lat": 34.8016378, "lon": 10.7610643, "tags": {"amenity": "restaurant", "name": "\u0643\u0627\u0644\u0645\u0627\u0631\u0648", "name:ar": "\u0643\u0627\u0644\u0645\u0627\u0631\u0648", "name:fr": "Calemero"}}, {"type": "node", "id": 6631048271, "lat": 34.813656, "lon": 10.8312441, "tags": {"amenity": "cafe", "name": "\u0645\u0642\u0647\u0649 \u0627\u0644\u0645\u0644\u0643", "name:ar": "\u0645\u0642\u0647\u0649 \u0627\u0644\u0645\u0644\u0643", "name:fr": "Caf\u00e9 Le Roi"}}, {"type": "node", "id": 6631048272, "lat": 34.8163643, "lon": 10.8336506, "tags": {"amenity": "cafe", "name": "\u0645\u0642\u0647\u0649 \u0623\u0631\u0627\u0628\u064a\u0633\u0643", "name:ar": "\u0645\u0642\u0647\u0649 \u0623\u0631\u0627\u0628\u064a\u0633\u0643", "name:fr": "Caf\u00e9 Arabesque"}}, {"type": "node", "id": 6631048273, "lat": 34.8072678, "lon": 10.8202633, "tags": {"amenity": "restaurant", "name": "\u0641\u0636\u0627\u0621 \u0642\u0645\u0631 \u0644\u0644\u062a\u0631\u0641\u064a\u0647", "name:ar": "\u0641\u0636\u0627\u0621 \u0642\u0645\u0631 \u0644\u0644\u062a\u0631\u0641\u064a\u0647", "name:fr": "Espace Kmar de Loisir"}}, {"type": "node", "id": 6631113538, "lat": 34.7986962, "lon": 10.8151611, "tags": {"amenity": "cafe", "name": "\u0645\u0642\u0647\u0649 \u0628\u0646 \u0639\u0628\u062f \u0627\u0644\u0644\u0647", "name:ar": "\u0645\u0642\u0647\u0649 \u0628\u0646 \u0639\u0628\u062f \u0627\u0644\u0644\u0647", "name:fr": "Caf\u00e9 Ben Abdallah"}}, {"type": "node", "id": 6631902106, "lat": 34.7798343, "lon": 10.7947042, "tags": {"amenity": "cafe", "name": "Caf\u00e9t\u00e9ria amazone"}}, {"type": "node", "id": 6631902167, "lat": 34.7714322, "lon": 10.7890991, "tags": {"amenity": "restaurant", "name": "\u0645\u0637\u0639\u0645 \u0648 \u0628\u064a\u062a\u0632\u0627\u0631\u064a\u0627 \u0627\u0644\u0645\u0644\u0643", "name:ar": "\u0645\u0637\u0639\u0645 \u0648 \u0628\u064a\u062a\u0632\u0627\u0631\u064a\u0627 \u0627\u0644\u0645\u0644\u0643", "name:fr": "Restaurant Pizzeria The King"}}, {"type": "node", "id": 6635557537, "lat": 34.7971425, "lon": 10.7725807, "tags": {"amenity": "cafe", "name": "\u0643\u0627\u0641\u064a\u062a\u064a\u0631\u064a\u0627 \u0641\u0631\u062d", "name:ar": "\u0643\u0627\u0641\u064a\u062a\u064a\u0631\u064a\u0627 \u0641\u0631\u062d", "name:fr": "Caf\u00e9t\u00e9ria Farah"}}, {"type": "node", "id": 6648368619, "lat": 34.7731622, "lon": 10.8083077, "tags": {"amenity": "restaurant", "cuisine": "pizza;sandwich", "name": "\u0643\u0631\u0648\u0643\u064a\u0633", "name:ar": "\u0643\u0631\u0648\u0643\u064a\u0633", "name:fr": "Crocus"}}, {"type": "node", "id": 6648368620, "lat": 34.77354, "lon": 10.8089313, "tags": {"amenity": "restaurant", "cuisine": "pizza;sandwich", "name": "\u0628\u064a\u062a\u0632\u0627\u0631\u064a\u0627 \u0644\u0627 \u0643\u0627\u0644\u0645\u0627", "name:ar": "\u0628\u064a\u062a\u0632\u0627\u0631\u064a\u0627 \u0644\u0627 \u0643\u0627\u0644\u0645\u0627", "name:fr": "Pizzeria La Calma"}}, {"type": "node", "id": 6648368621, "lat": 34.7733112, "lon": 10.8091589, "tags": {"amenity": "cafe", "name": "\u0645\u0642\u0647\u0649 \u0639\u062f\u0646", "name:ar": "\u0645\u0642\u0647\u0649 \u0639\u062f\u0646", "name:fr": "Caf\u00e9 Adan"}}, {"type": "node", "id": 6648368622, "lat": 34.7731713, "lon": 10.8089913, "tags": {"amenity": "restaurant", "cuisine": "sandwich;ice_cream", "name": "\u0633\u0646\u062f\u0648\u064a\u062a\u0634 \u0639\u0645\u0631\u0648\u0634", "name:ar": "\u0633\u0646\u062f\u0648\u064a\u062a\u0634 \u0639\u0645\u0631\u0648\u0634", "name:fr": "Sandwitch Amrouch"}}, {"type": "node", "id": 6648368625, "lat": 34.7753978, "lon": 10.8185043}, {"type": "node", "id": 6648368626, "lat": 34.7751635, "lon": 10.8181722}, {"type": "node", "id": 6648368627, "lat": 34.7747971, "lon": 10.8185405}, {"type": "node", "id": 6648368628, "lat": 34.7750026, "lon": 10.8186033}, {"type": "node", "id": 6648368629, "lat": 34.7750804, "lon": 10.8186087}, {"type": "node", "id": 6648368630, "lat": 34.7752527, "lon": 10.8186566}, {"type": "node", "id": 6653285026, "lat": 34.7482358, "lon": 10.760671, "tags": {"addr:city": "\u0635\u0641\u0627\u0642\u0633", "addr:city:ar": "\u0635\u0641\u0627\u0642\u0633", "addr:street": "Route de Tunis", "amenity": "cafe", "name": "\u0645\u0642\u0647\u0649 \u0627\u0644\u0632\u0632\u0648\u0629", "name:ar": "\u0645\u0642\u0647\u0649 \u0627\u0644\u0632\u0632\u0648\u0629", "name:fr": "Caf\u00e9 Zezoua"}}, {"type": "node", "id": 6656869570, "lat": 34.7866616, "lon": 10.7788808, "tags": {"amenity": "cafe", "name": "\u0645\u0642\u0647\u0649 \u062a\u0648\u0631\u064a\u0646\u0648", "name:ar": "\u0645\u0642\u0647\u0649 \u062a\u0648\u0631\u064a\u0646\u0648", "name:fr": "Caf\u00e9 Torino"}}, {"type": "node", "id": 6723499677, "lat": 34.752629, "lon": 10.7682865, "tags": {"amenity": "restaurant", "cuisine": "pizza", "name": "\u062f\u0627\u0644 \u0641\u0648\u0631\u0646\u0648", "name:ar": "\u062f\u0627\u0644 \u0641\u0648\u0631\u0646\u0648", "name:fr": "Del Forno", "phone": "+216 29 312 091"}}, {"type": "node", "id": 6723512187, "lat": 34.7501869, "lon": 10.7675167, "tags": {"amenity": "cafe", "name": "\u0645\u0642\u0647\u0649 \u062f\u0648\u0631\u0643\u0627\u0633", "name:ar": "\u0645\u0642\u0647\u0649 \u062f\u0648\u0631\u0643\u0627\u0633", "name:fr": "Caf\u00e9 Dorcas", "phone": "+216 22 095 686"}}, {"type": "node", "id": 6723512189, "lat": 34.7504326, "lon": 10.7672646, "tags": {"amenity": "cafe", "name": "\u0645\u0642\u0647\u0649 \u0643\u0627\u064a\u0645\u0627\u0646\u0648", "name:ar": "\u0645\u0642\u0647\u0649 \u0643\u0627\u064a\u0645\u0627\u0646\u0648", "name:fr": "Caf\u00e9 Kaimano"}}, {"type": "node", "id": 6731400320, "lat": 34.7640687, "lon": 10.7826914, "tags": {"amenity": "restaurant", "name": "\u0645\u0637\u0639\u0645 \u062d\u0644\u0642 \u0627\u0644\u0648\u0627\u062f\u064a", "name:ar": "\u0645\u0637\u0639\u0645 \u062d\u0644\u0642 \u0627\u0644\u0648\u0627\u062f\u064a", "name:fr": "Restaurant La Goulette"}}, {"type": "node", "id": 6731400321, "lat": 34.7591333, "lon": 10.7809745, "tags": {"amenity": "restaurant", "name": "\u0645\u0637\u0639\u0645 \u0634\u0643\u0631\u064a", "name:ar": "\u0645\u0637\u0639\u0645 \u0634\u0643\u0631\u064a", "name:fr": "Restaurant Chokri"}}, {"type": "node", "id": 6744430623, "lat": 34.7633311, "lon": 10.728616, "tags": {"amenity": "cafe", "name": "O'Chichi", "name:fr": "O'Chichi"}}, {"type": "node", "id": 6744490244, "lat": 34.7633873, "lon": 10.7291331, "tags": {"amenity": "cafe", "name": "Trocadero"}}, {"type": "node", "id": 6744490249, "lat": 34.7702232, "lon": 10.7192915, "tags": {"amenity": "restaurant", "name": "Pattaya", "name:fr": "Pattaya"}}, {"type": "node", "id": 6744490269, "lat": 34.7745353, "lon": 10.7150512, "tags": {"amenity": "cafe", "name": "\u0645\u0642\u0647\u0649 \u0623\u0648\u0628\u0631\u0627", "name:ar": "\u0645\u0642\u0647\u0649 \u0623\u0648\u0628\u0631\u0627", "name:fr": "Caf\u00e9 Opera"}}, {"type": "node", "id": 6744490281, "lat": 34.7765848, "lon": 10.7124969, "tags": {"amenity": "cafe", "name": "Caf\u00e9 Sallemi", "name:ar": "\u0645\u0642\u0647\u0649 \u0627\u0644\u0633\u0644\u0627\u0645\u064a", "name:fr": "Caf\u00e9 Sallemi"}}, {"type": "node", "id": 6744490282, "lat": 34.7831591, "lon": 10.7065357, "tags": {"amenity": "cafe", "name": "\u0645\u0642\u0647\u0649 \u062f\u0646\u064a\u0627", "name:ar": "\u0645\u0642\u0647\u0649 \u062f\u0646\u064a\u0627", "name:fr": "Caf\u00e9 Donia"}}, {"type": "node", "id": 6744647072, "lat": 34.7870803, "lon": 10.7032748, "tags": {"amenity": "cafe", "name": "\u0645\u0642\u0647\u0649 \u0627\u0644\u062e\u0645\u0633\u0629", "name:ar": "\u0645\u0642\u0647\u0649 \u0627\u0644\u062e\u0645\u0633\u0629", "name:fr": "Caf\u00e9 El Khomsa"}}, {"type": "node", "id": 6744647073, "lat": 34.7882729, "lon": 10.7017107, "tags": {"amenity": "cafe", "name": "Caf\u00e9 Atlas Plus", "name:fr": "Caf\u00e9 Atlas Plus"}}, {"type": "node", "id": 6744647074, "lat": 34.7892346, "lon": 10.7011405, "tags": {"amenity": "cafe", "name": "\u0645\u0642\u0647\u0649 \u062d\u0633\u0627\u0645", "name:ar": "\u0645\u0642\u0647\u0649 \u062d\u0633\u0627\u0645", "name:fr": "Caf\u00e9 Houssem"}}, {"type": "node", "id": 6744647076, "lat": 34.7920371, "lon": 10.6980315, "tags": {"addr:city": "\u0635\u0641\u0627\u0642\u0633", "addr:city:ar": "\u0635\u0641\u0627\u0642\u0633", "amenity": "cafe", "diet:halal": "yes", "language:ar": "main", "name": "\u0645\u0642\u0647\u0649 \u0633\u062a\u0648\u0631\u0629", "name:ar": "\u0645\u0642\u0647\u0649 \u0633\u062a\u0648\u0631\u0629", "name:fr": "Caf\u00e9 Stoura"}}, {"type": "node", "id": 6744647077, "lat": 34.7932365, "lon": 10.6973154, "tags": {"amenity": "cafe", "name": "\u0645\u0642\u0647\u0649 \u0627\u0644\u0632\u064a\u062a\u0648\u0646\u0629", "name:ar": "\u0645\u0642\u0647\u0649 \u0627\u0644\u0632\u064a\u062a\u0648\u0646\u0629", "name:fr": "Caf\u00e9 Ezzitouna"}}, {"type": "node", "id": 6811423668, "lat": 34.789584, "lon": 10.7795559, "tags": {"addr:postcode": "3011", "amenity": "cafe", "name": "\u0645\u0642\u0647\u0649 \u0627\u0644\u0634\u0628\u0627\u0628", "name:ar": "\u0645\u0642\u0647\u0649 \u0627\u0644\u0634\u0628\u0627\u0628", "name:fr": "Caf\u00e9 La Jeunesse"}}, {"type": "node", "id": 6832990026, "lat": 34.7421898, "lon": 10.7560111, "tags": {"amenity": "restaurant", "name": "\u0628\u0631\u064a\u0646\u0642\u0644\u064a\u0633", "name:ar": "\u0628\u0631\u064a\u0646\u0642\u0644\u064a\u0633", "name:fr": "Restaurant Pringless"}}, {"type": "node", "id": 6898611320, "lat": 34.7380707, "lon": 10.7498133}, {"type": "node", "id": 6898611321, "lat": 34.7379542, "lon": 10.749974}, {"type": "node", "id": 6898611322, "lat": 34.7380272, "lon": 10.7500524}, {"type": "node", "id": 6898611323, "lat": 34.7381143, "lon": 10.7500615}, {"type": "node", "id": 6898611324, "lat": 34.73822, "lon": 10.7499735}, {"type": "node", "id": 6898611543, "lat": 34.7393984, "lon": 10.7508482}, {"type": "node", "id": 6898611544, "lat": 34.7393374, "lon": 10.750744}, {"type": "node", "id": 6898611545, "lat": 34.7392239, "lon": 10.7508425}, {"type": "node", "id": 6898611546, "lat": 34.7391432, "lon": 10.7508765}, {"type": "node", "id": 6898611547, "lat": 34.7391475, "lon": 10.7508918}, {"type": "node", "id": 6898611548, "lat": 34.7392644, "lon": 10.7509449}, {"type": "node", "id": 6898611549, "lat": 34.7392862, "lon": 10.750924}, {"type": "node", "id": 6898611550, "lat": 34.7393946, "lon": 10.7509314}, {"type": "node", "id": 6942532053, "lat": 34.7310883, "lon": 10.7518122, "tags": {"amenity": "cafe", "name": "\u0645\u0642\u0647\u0649 \u0645\u062d\u0633\u0646", "name:ar": "\u0645\u0642\u0647\u0649 \u0645\u062d\u0633\u0646", "name:fr": "Caf\u00e9 Mohsen"}}, {"type": "node", "id": 6986924931, "lat": 34.7851357, "lon": 10.7459884, "tags": {"amenity": "cafe", "name": "\u0645\u0642\u0647\u0649 \u0631\u0645\u0632\u064a", "name:ar": "\u0645\u0642\u0647\u0649 \u0631\u0645\u0632\u064a", "name:fr": "Caf\u00e9 Ramzi"}}, {"type": "node", "id": 6987336200, "lat": 34.7975472, "lon": 10.8644325, "tags": {"amenity": "cafe", "name": "\u0645\u0642\u0647\u0649 \u0632\u0631\u0648\u0642", "name:ar": "\u0645\u0642\u0647\u0649 \u0632\u0631\u0648\u0642", "name:fr": "Caf\u00e9 Zarrouk"}}, {"type": "node", "id": 6987336201, "lat": 34.79328, "lon": 10.8422707, "tags": {"amenity": "cafe", "name": "\u0645\u0642\u0647\u0649 \u062f\u0646\u064a\u0627", "name:ar": "\u0645\u0642\u0647\u0649 \u062f\u0646\u064a\u0627", "name:fr": "Caf\u00e9 Donya"}}, {"type": "node", "id": 6987336202, "lat": 34.7931258, "lon": 10.8419005, "tags": {"amenity": "cafe", "name": "\u0645\u0642\u0647\u0649 \u0641\u0627\u0642", "name:ar": "\u0645\u0642\u0647\u0649 \u0641\u0627\u0642", "name:fr": "Caf\u00e9 Vogue"}}, {"type": "node", "id": 6987336203, "lat": 34.7925541, "lon": 10.8409837, "tags": {"amenity": "cafe", "name": "\u0645\u0642\u0647\u0649 \u0641\u0648\u0644 \u062a\u0627\u064a\u0645", "name:ar": "\u0645\u0642\u0647\u0649 \u0641\u0648\u0644 \u062a\u0627\u064a\u0645", "name:fr": "Caf\u00e9 Full Time"}}, {"type": "node", "id": 6987336204, "lat": 34.7929348, "lon": 10.8385429, "tags": {"amenity": "cafe", "name": "\u0645\u0642\u0647\u0649 \u0644\u0627 \u0643\u0627\u0641\u0627\u0644\u064a\u0627\u0631", "name:ar": "\u0645\u0642\u0647\u0649 \u0644\u0627 \u0643\u0627\u0641\u0627\u0644\u064a\u0627\u0631", "name:fr": "Caf\u00e9 La Cavali\u00e8re"}}, {"type": "node", "id": 6987336205, "lat": 34.7909882, "lon": 10.8383722, "tags": {"amenity": "cafe", "name": "\u0645\u0642\u0647\u0649 \u0627\u0644\u0646\u062e\u064a\u0644", "name:ar": "\u0645\u0642\u0647\u0649 \u0627\u0644\u0646\u062e\u064a\u0644", "name:fr": "Caf\u00e9 Ennakhil"}}, {"type": "node", "id": 6987336212, "lat": 34.7896268, "lon": 10.8356191, "tags": {"amenity": "cafe", "name": "\u0645\u0642\u0647\u0649 \u0628\u0627\u0644\u064a\u0646\u064a", "name:ar": "\u0645\u0642\u0647\u0649 \u0628\u0627\u0644\u064a\u0646\u064a", "name:fr": "Caf\u00e9 Pellini"}}, {"type": "node", "id": 6987336213, "lat": 34.7742505, "lon": 10.8105824, "tags": {"amenity": "cafe", "name": "\u0645\u0642\u0647\u0649 \u0644\u0627\u0641\u0627\u064a\u0627\u062a", "name:ar": "\u0645\u0642\u0647\u0649 \u0644\u0627\u0641\u0627\u064a\u0627\u062a", "name:fr": "Caf\u00e9 Lafayette"}}, {"type": "node", "id": 6987336214, "lat": 34.7699726, "lon": 10.8103238}, {"type": "node", "id": 6987336215, "lat": 34.7698558, "lon": 10.809971}, {"type": "node", "id": 6987336216, "lat": 34.7703945, "lon": 10.8095982}, {"type": "node", "id": 6987336217, "lat": 34.7705774, "lon": 10.8099657}, {"type": "node", "id": 6987336219, "lat": 34.7632644, "lon": 10.7991329, "tags": {"amenity": "cafe", "name": "\u0645\u0642\u0647\u0649 \u0627\u0644\u0634\u0627\u0637\u0626", "name:ar": "\u0645\u0642\u0647\u0649 \u0627\u0644\u0634\u0627\u0637\u0626", "name:fr": "Caf\u00e9 La Plage"}}, {"type": "node", "id": 6987336220, "lat": 34.7603322, "lon": 10.7942808, "tags": {"amenity": "cafe", "name": "\u0645\u0642\u0647\u0649 \u0628\u0627\u0644\u0645\u0627", "name:ar": "\u0645\u0642\u0647\u0649 \u0628\u0627\u0644\u0645\u0627", "name:fr": "Caf\u00e9 Palma"}}, {"type": "node", "id": 6987336221, "lat": 34.7602759, "lon": 10.7942233, "tags": {"amenity": "restaurant", "name": "\u062f\u064a\u0627\u0628\u0627\u0632\u0648\u0646", "name:ar": "\u062f\u064a\u0627\u0628\u0627\u0632\u0648\u0646", "name:fr": "Diapason"}}, {"type": "node", "id": 6987336222, "lat": 34.759748, "lon": 10.7937245, "tags": {"amenity": "cafe", "name": "\u0645\u0642\u0647\u0649 \u062a\u0648\u0628 3", "name:ar": "\u0645\u0642\u0647\u0649 \u062a\u0648\u0628 3", "name:fr": "Caf\u00e9 Top 3"}}, {"type": "node", "id": 6987461703, "lat": 34.7573958, "lon": 10.7893804, "tags": {"amenity": "cafe", "name": "\u0645\u0642\u0647\u0649 \u062f\u0643\u0627\u0646\u0629", "name:ar": "\u0645\u0642\u0647\u0649 \u062f\u0643\u0627\u0646\u0629", "name:fr": "Caf\u00e9 Dokena"}}, {"type": "node", "id": 6987461704, "lat": 34.7570484, "lon": 10.7885575, "tags": {"amenity": "restaurant", "cuisine": "fast_food;crepe;sandwich", "name": "\u0630 \u0647\u064a\u0644\u062b\u064a \u0648\u0627\u064a", "name:ar": "\u0630 \u0647\u064a\u0644\u062b\u064a \u0648\u0627\u064a", "name:fr": "The Healthy Way"}}, {"type": "node", "id": 7001458385, "lat": 34.7546282, "lon": 10.7725329, "tags": {"amenity": "cafe", "name": "\u0645\u0642\u0647\u0649 2 \u0645\u0627\u0631\u0633", "name:ar": "\u0645\u0642\u0647\u0649 2 \u0645\u0627\u0631\u0633", "name:fr": "Caf\u00e9 2 Mars"}}, {"type": "node", "id": 7001458386, "lat": 34.757782, "lon": 10.7893452, "tags": {"amenity": "cafe", "name": "\u0645\u0642\u0647\u0649 \u0646\u0633\u0645\u0629", "name:ar": "\u0645\u0642\u0647\u0649 \u0646\u0633\u0645\u0629", "name:fr": "Caf\u00e9 Nessma"}}, {"type": "node", "id": 7001458387, "lat": 34.7462838, "lon": 10.7674312, "tags": {"amenity": "cafe", "name": "\u0645\u0642\u0647\u0649 \u0643\u0627\u0643\u062a\u064a\u0633", "name:ar": "\u0645\u0642\u0647\u0649 \u0643\u0627\u0643\u062a\u064a\u0633", "name:fr": "Caf\u00e9 Cactus"}}, {"type": "node", "id": 7001458388, "lat": 34.746564, "lon": 10.7660732, "tags": {"amenity": "restaurant", "name": "\u0645\u0637\u0639\u0645 \u0627\u0644\u0645\u0646\u0635\u0648\u0631", "name:ar": "\u0645\u0637\u0639\u0645 \u0627\u0644\u0645\u0646\u0635\u0648\u0631", "name:fr": "Restaurant El Mansour"}}, {"type": "node", "id": 7001458389, "lat": 34.7447277, "lon": 10.768359, "tags": {"amenity": "cafe", "name": "\u0645\u0642\u0647\u0649 \u0627\u0644\u0623\u0646\u062f\u0644\u0633", "name:ar": "\u0645\u0642\u0647\u0649 \u0627\u0644\u0623\u0646\u062f\u0644\u0633", "name:fr": "Caf\u00e9 El Andalous"}}, {"type": "node", "id": 7001469657, "lat": 34.7453449, "lon": 10.768791, "tags": {"amenity": "cafe", "name": "\u0645\u0642\u0647\u0649 \u0641\u0631\u064a \u062c\u064a\u0645\u0648", "name:ar": "\u0645\u0642\u0647\u0649 \u0641\u0631\u064a \u062c\u064a\u0645\u0648", "name:fr": "Caf\u00e9 Free Jumeaux"}}, {"type": "node", "id": 7001680403, "lat": 34.7484502, "lon": 10.7690637, "tags": {"amenity": "cafe", "name": "\u0642\u0627\u0639\u0629 \u0634\u0627\u064a \u0641\u0631\u064a\u062f\u0648\u0645", "name:ar": "\u0642\u0627\u0639\u0629 \u0634\u0627\u064a \u0641\u0631\u064a\u062f\u0648\u0645", "name:fr": "Salon de Th\u00e9 Freedom"}}, {"type": "node", "id": 7001680405, "lat": 34.7512063, "lon": 10.7766004, "tags": {"amenity": "restaurant", "cuisine": "coffee_shop;sandwich", "name": "\u064a\u0648\u0631\u0633\u0627\u0644\u0641", "name:ar": "\u064a\u0648\u0631\u0633\u0627\u0644\u0641", "name:fr": "Your Self"}}, {"type": "node", "id": 7001680409, "lat": 34.7464604, "lon": 10.7681795, "tags": {"amenity": "cafe", "name": "\u0645\u0642\u0647\u0649 \u0644\u064a\u062f\u0648\u0633", "name:ar": "\u0645\u0642\u0647\u0649 \u0644\u064a\u062f\u0648\u0633", "name:fr": "Caf\u00e9 Ludo's"}}, {"type": "node", "id": 7001680410, "lat": 34.7479841, "lon": 10.7613427, "tags": {"amenity": "cafe", "name": "\u0633\u064a\u062a\u064a \u0643\u0648\u0641\u064a \u0634\u0648\u0628", "name:ar": "\u0633\u064a\u062a\u064a \u0643\u0648\u0641\u064a \u0634\u0648\u0628", "name:fr": "City Coffee Shop"}}, {"type": "node", "id": 7001680411, "lat": 34.7478625, "lon": 10.7611736, "tags": {"amenity": "cafe", "name": "\u0628\u064a\u0643\u0627\u0633\u0648", "name:ar": "\u0628\u064a\u0643\u0627\u0633\u0648", "name:fr": "Picasso"}}, {"type": "node", "id": 7001680412, "lat": 34.7453487, "lon": 10.7624866, "tags": {"amenity": "cafe", "name": "\u0643\u0627\u0641\u064a\u062a\u064a\u0631\u064a\u0627 \u062a\u0627\u0646\u064a\u062a", "name:ar": "\u0643\u0627\u0641\u064a\u062a\u064a\u0631\u064a\u0627 \u062a\u0627\u0646\u064a\u062a", "name:fr": "Caf\u00e9t\u00e9ria Tanit"}}, {"type": "node", "id": 7001680413, "lat": 34.7452861, "lon": 10.7624889, "tags": {"amenity": "restaurant", "name": "\u0645\u064a\u0633\u062a\u0631 \u0641\u0648\u062f", "name:ar": "\u0645\u064a\u0633\u062a\u0631 \u0641\u0648\u062f", "name:fr": "Mister Food"}}, {"type": "node", "id": 7001680415, "lat": 34.7446917, "lon": 10.7630237, "tags": {"amenity": "cafe", "name": "\u0633\u062a\u0627\u0631\u062a \u0627\u0628", "name:ar": "\u0633\u062a\u0627\u0631\u062a \u0627\u0628", "name:fr": "Start Up"}}, {"type": "node", "id": 7001680416, "lat": 34.744123, "lon": 10.763339, "tags": {"amenity": "cafe", "name": "\u0642\u0627\u0639\u0629 \u0634\u0627\u064a \u0627\u0644\u0645\u0644\u0643", "name:ar": "\u0642\u0627\u0639\u0629 \u0634\u0627\u064a \u0627\u0644\u0645\u0644\u0643", "name:fr": "Salon de Th\u00e9 Le Roi"}}, {"type": "node", "id": 7067951364, "lat": 34.8378877, "lon": 10.7544766}, {"type": "node", "id": 7067951365, "lat": 34.8378514, "lon": 10.7545108}, {"type": "node", "id": 7067951366, "lat": 34.8379175, "lon": 10.7544357}, {"type": "node", "id": 7067951367, "lat": 34.837983, "lon": 10.7542976}, {"type": "node", "id": 7067951368, "lat": 34.8380088, "lon": 10.7541843}, {"type": "node", "id": 7067951369, "lat": 34.838005, "lon": 10.7541353}, {"type": "node", "id": 7067951370, "lat": 34.8380033, "lon": 10.7542319}, {"type": "node", "id": 7067951371, "lat": 34.8379587, "lon": 10.7543579}, {"type": "node", "id": 7067951372, "lat": 34.8379263, "lon": 10.7540307}, {"type": "node", "id": 7067951373, "lat": 34.8379494, "lon": 10.7540461}, {"type": "node", "id": 7067951374, "lat": 34.8378338, "lon": 10.7540166}, {"type": "node", "id": 7067951375, "lat": 34.8378965, "lon": 10.754024}, {"type": "node", "id": 7067951376, "lat": 34.8376764, "lon": 10.7540488}, {"type": "node", "id": 7067951377, "lat": 34.8376037, "lon": 10.754085}, {"type": "node", "id": 7067951378, "lat": 34.8377645, "lon": 10.7540247}, {"type": "node", "id": 7067951379, "lat": 34.837989, "lon": 10.7540917}, {"type": "node", "id": 7067951380, "lat": 34.8377735, "lon": 10.7545747}, {"type": "node", "id": 7067951381, "lat": 34.8375017, "lon": 10.7548036}, {"type": "node", "id": 7067951382, "lat": 34.8374894, "lon": 10.7547819}, {"type": "node", "id": 7067951383, "lat": 34.8374554, "lon": 10.7548104}, {"type": "node", "id": 7067951384, "lat": 34.8374046, "lon": 10.7547207}, {"type": "node", "id": 7067971485, "lat": 34.8374213, "lon": 10.7547067}, {"type": "node", "id": 7067971486, "lat": 34.8373006, "lon": 10.7544939}, {"type": "node", "id": 7067971487, "lat": 34.8372839, "lon": 10.7545079}, {"type": "node", "id": 7067971488, "lat": 34.8372457, "lon": 10.7544406}, {"type": "node", "id": 7067971489, "lat": 34.8373245, "lon": 10.7543743}, {"type": "node", "id": 7067971490, "lat": 34.8373341, "lon": 10.7543103}, {"type": "node", "id": 7067971491, "lat": 34.83753, "lon": 10.7541454}, {"type": "node", "id": 7111838180, "lat": 34.7952757, "lon": 10.7730493, "tags": {"amenity": "cafe", "name": "\u0645\u0642\u0647\u0649 \u0627\u0644\u062f\u064a\u0648\u0627\u0646", "name:ar": "\u0645\u0642\u0647\u0649 \u0627\u0644\u062f\u064a\u0648\u0627\u0646", "name:fr": "Caf\u00e9 Diwan"}}, {"type": "node", "id": 7121825942, "lat": 34.8144836, "lon": 10.7908153, "tags": {"amenity": "cafe", "name": "\u0645\u0642\u0647\u0649 \u0627\u0644\u0642\u0646\u062f\u064a\u0644", "name:ar": "\u0645\u0642\u0647\u0649 \u0627\u0644\u0642\u0646\u062f\u064a\u0644", "name:fr": "Caf\u00e9 El Kandil"}}, {"type": "node", "id": 7176173985, "lat": 34.7716833, "lon": 10.7318916, "tags": {"amenity": "cafe", "name": "Apero", "name:fr": "Apero"}}, {"type": "node", "id": 7176174785, "lat": 34.7664498, "lon": 10.7365066, "tags": {"amenity": "cafe", "name": "El Majles", "name:fr": "El Majles"}}, {"type": "node", "id": 7398516049, "lat": 35.0827648, "lon": 10.9668269, "tags": {"amenity": "cafe", "name": "Caf\u00e9 Adem", "name:fr": "Caf\u00e9 Adem"}}, {"type": "node", "id": 7687571270, "lat": 34.7651376, "lon": 10.6884802, "tags": {"amenity": "cafe", "name": "Caf\u00e9 Brown", "name:fr": "Caf\u00e9 Brown"}}, {"type": "node", "id": 7698981428, "lat": 34.8850523, "lon": 10.8453414, "tags": {"amenity": "cafe", "name": "Caf\u00e9t\u00e9ria Elite", "name:fr": "Caf\u00e9t\u00e9ria Elite"}}, {"type": "node", "id": 7698981429, "lat": 34.8873082, "lon": 10.8465592, "tags": {"amenity": "cafe", "name": "\u0645\u0642\u0647\u0649 \u0627\u0644\u0631\u064a\u0627\u0636", "name:ar": "\u0645\u0642\u0647\u0649 \u0627\u0644\u0631\u064a\u0627\u0636", "name:fr": "Caf\u00e9 Erriadh"}}, {"type": "node", "id": 7698981435, "lat": 34.9701525, "lon": 10.8880965, "tags": {"amenity": "cafe", "name": "Caf\u00e9 La Fortuna", "name:fr": "Caf\u00e9 La Fortuna"}}, {"type": "node", "id": 7786788435, "lat": 34.7858621, "lon": 10.7600401, "tags": {"amenity": "cafe", "name": "My Coffee"}}, {"type": "node", "id": 7786788436, "lat": 34.7810533, "lon": 10.7471999, "tags": {"amenity": "cafe", "name": "\u0645\u0642\u0647\u0649 \u0627\u0644\u0623\u0637\u0644\u0633", "name:ar": "\u0645\u0642\u0647\u0649 \u0627\u0644\u0623\u0637\u0644\u0633", "name:fr": "Caf\u00e9 Atlas"}}, {"type": "node", "id": 7786788437, "lat": 34.7806804, "lon": 10.747607, "tags": {"amenity": "cafe", "name": "My Cup"}}, {"type": "node", "id": 7786788440, "lat": 34.7779535, "lon": 10.7488918, "tags": {"amenity": "cafe", "name": "Brother's Coffee"}}, {"type": "node", "id": 7786788441, "lat": 34.7734013, "lon": 10.7520187, "tags": {"amenity": "cafe", "name": "Caf\u00e9 L'estrada"}}, {"type": "node", "id": 7796306558, "lat": 35.1680827, "lon": 11.0403424, "tags": {"amenity": "cafe", "name": "\u0645\u0642\u0647\u0649 \u0641\u064a\u0646\u064a\u0633\u064a\u0627", "name:ar": "\u0645\u0642\u0647\u0649 \u0641\u064a\u0646\u064a\u0633\u064a\u0627", "name:fr": "Caf\u00e9 Vinissia"}}, {"type": "node", "id": 7798875547, "lat": 35.1571251, "lon": 11.0295761, "tags": {"amenity": "cafe", "name": "Caf\u00e9 Rotana", "name:fr": "Caf\u00e9 Rotana"}}, {"type": "node", "id": 7798875549, "lat": 35.1585559, "lon": 11.0305728, "tags": {"amenity": "cafe", "name": "Caf\u00e9 Ezzitouna", "name:fr": "Caf\u00e9 Ezzitouna"}}, {"type": "node", "id": 7810421009, "lat": 34.8002387, "lon": 10.7666357, "tags": {"amenity": "cafe", "name": "Caf\u00e9 100 Fa 100", "name:fr": "Caf\u00e9 100 Fa 100"}}, {"type": "node", "id": 7811903529, "lat": 34.8245612, "lon": 10.8403541, "tags": {"amenity": "cafe", "name": "\u0645\u0642\u0647\u0649 \u0627\u0644\u0634\u0631\u0642", "name:ar": "\u0645\u0642\u0647\u0649 \u0627\u0644\u0634\u0631\u0642", "name:fr": "Caf\u00e9 Echarq"}}, {"type": "node", "id": 7812291340, "lat": 34.8393746, "lon": 10.7645636, "tags": {"amenity": "restaurant", "cuisine": "barbecue", "diet:halal": "yes", "diet:meat": "yes", "name": "\u0645\u0634\u0648\u064a \u0627\u0644\u0639\u062c\u0645\u064a", "name:ar": "\u0645\u0634\u0648\u064a \u0627\u0644\u0639\u062c\u0645\u064a", "name:fr": "Grillade El Ajmi"}}, {"type": "node", "id": 7812346502, "lat": 34.8315398, "lon": 10.7643098, "tags": {"amenity": "cafe", "name": "Caf\u00e9 Paradiso", "name:fr": "Caf\u00e9 Paradiso"}}, {"type": "node", "id": 7812383459, "lat": 34.8161287, "lon": 10.7619601, "tags": {"amenity": "cafe", "name": "\u0645\u0642\u0647\u0649 \u0623\u064a\u0645\u0646", "name:ar": "\u0645\u0642\u0647\u0649 \u0623\u064a\u0645\u0646", "name:fr": "Caf\u00e9 Ayman"}}, {"type": "node", "id": 7812476765, "lat": 34.8051987, "lon": 10.7613517, "tags": {"amenity": "cafe", "name": "\u0645\u0642\u0647\u0649 \u0644\u0648\u0643\u0648\u0627\u0646", "name:ar": "\u0645\u0642\u0647\u0649 \u0644\u0648\u0643\u0648\u0627\u0646", "name:fr": "Caf\u00e9 Le Coin"}}, {"type": "node", "id": 7812865959, "lat": 34.7800502, "lon": 10.7603766, "tags": {"amenity": "cafe", "name": "Salon de Th\u00e9 Falena", "name:fr": "Salon de Th\u00e9 Falena"}}, {"type": "node", "id": 7815334902, "lat": 34.7591218, "lon": 10.7927612, "tags": {"amenity": "cafe", "name": "\u0645\u0642\u0647\u0649 \u0639\u0631\u0648\u0633 \u0627\u0644\u0628\u062d\u0631", "name:ar": "\u0645\u0642\u0647\u0649 \u0639\u0631\u0648\u0633 \u0627\u0644\u0628\u062d\u0631", "name:fr": "Caf\u00e9 La Sir\u00e8ne"}}, {"type": "node", "id": 7815477906, "lat": 34.7849018, "lon": 10.8258692, "tags": {"amenity": "restaurant", "name": "\u0645\u0646\u062a\u0632\u0647 \u0627\u0644\u0645\u062f\u064a\u0646\u0629", "name:ar": "\u0645\u0646\u062a\u0632\u0647 \u0627\u0644\u0645\u062f\u064a\u0646\u0629", "name:fr": "Montazah El Medina"}}, {"type": "node", "id": 7815496578, "lat": 34.7948393, "lon": 10.8461224, "tags": {"amenity": "restaurant", "name": "\u0645\u0634\u0648\u0649 \u0633\u064a\u062f\u064a \u0645\u0646\u0635\u0648\u0631", "name:ar": "\u0645\u0634\u0648\u0649 \u0633\u064a\u062f\u064a \u0645\u0646\u0635\u0648\u0631", "name:fr": "Grillades Sidi Mansour"}}, {"type": "node", "id": 7815496584, "lat": 34.8015616, "lon": 10.8651001, "tags": {"amenity": "cafe"}}, {"type": "node", "id": 7815536985, "lat": 34.8005896, "lon": 10.8653598, "tags": {"amenity": "cafe"}}, {"type": "node", "id": 7815536986, "lat": 34.8024968, "lon": 10.8652044, "tags": {"amenity": "cafe"}}, {"type": "node", "id": 7831463895, "lat": 34.7919506, "lon": 10.7764774, "tags": {"amenity": "cafe", "name": "Slouma Coffee"}}, {"type": "node", "id": 7831546091, "lat": 34.7930564, "lon": 10.7749558, "tags": {"amenity": "cafe", "name": "\u0645\u0642\u0647\u0649 \u0627\u0644\u0623\u0645\u064a\u0631", "name:ar": "\u0645\u0642\u0647\u0649 \u0627\u0644\u0623\u0645\u064a\u0631", "name:fr": "Caf\u00e9 Le Prince"}}, {"type": "node", "id": 7834797643, "lat": 34.7254109, "lon": 10.7393016, "tags": {"amenity": "cafe", "name": "Caf\u00e9 Bonjour", "name:fr": "Caf\u00e9 Bonjour"}}, {"type": "node", "id": 7834797644, "lat": 34.7288455, "lon": 10.7449847, "tags": {"amenity": "cafe", "name": "Caf\u00e9 Rio", "name:fr": "Caf\u00e9 Rio"}}, {"type": "node", "id": 7834797645, "lat": 34.7337605, "lon": 10.7519505, "tags": {"amenity": "cafe", "name": "\u0645\u0642\u0647\u0649 \u0627\u0644\u0645\u062d\u0637\u0629", "name:ar": "\u0645\u0642\u0647\u0649 \u0627\u0644\u0645\u062d\u0637\u0629", "name:fr": "Caf\u00e9 La Station"}}, {"type": "node", "id": 7834797646, "lat": 34.7342769, "lon": 10.7522055, "tags": {"amenity": "cafe", "name": "\u0645\u0642\u0647\u0649 \u0628\u064a\u0643 \u0641\u064a\u0644 \u0633\u0646\u062a\u0631", "name:ar": "\u0645\u0642\u0647\u0649 \u0628\u064a\u0643 \u0641\u064a\u0644 \u0633\u0646\u062a\u0631", "name:fr": "Caf\u00e9 Pic Ville Center"}}, {"type": "node", "id": 7835753695, "lat": 34.7343332, "lon": 10.7002162, "tags": {"amenity": "cafe", "name": "\u0645\u0642\u0647\u0649 \u064a\u0627\u0633\u0645\u064a\u0646", "name:ar": "\u0645\u0642\u0647\u0649 \u064a\u0627\u0633\u0645\u064a\u0646", "name:fr": "Caf\u00e9 Yesmine"}}, {"type": "node", "id": 7835753698, "lat": 34.7338651, "lon": 10.7023489, "tags": {"amenity": "cafe", "name": "\u0643\u0627\u0641\u064a\u062a\u064a\u0631\u064a\u0627 \u0643\u0627\u0633\u062a\u0627\u0644\u0648", "name:ar": "\u0643\u0627\u0641\u064a\u062a\u064a\u0631\u064a\u0627 \u0643\u0627\u0633\u062a\u0627\u0644\u0648", "name:fr": "Caf\u00e9t\u00e9ria Castello"}}, {"type": "node", "id": 7835753699, "lat": 34.7337707, "lon": 10.7033285, "tags": {"amenity": "cafe", "name": "\u0645\u0642\u0647\u0649 \u0628\u0627\u0646\u0648\u0631\u0627\u0645\u0627", "name:ar": "\u0645\u0642\u0647\u0649 \u0628\u0627\u0646\u0648\u0631\u0627\u0645\u0627", "name:fr": "Caf\u00e9 Panorama"}}, {"type": "node", "id": 7835753700, "lat": 34.7335188, "lon": 10.7051, "tags": {"amenity": "cafe", "name": "\u0645\u0642\u0647\u0649 \u0627\u0644\u063a\u0646\u0648\u0634\u064a", "name:ar": "\u0645\u0642\u0647\u0649 \u0627\u0644\u063a\u0646\u0648\u0634\u064a", "name:fr": "Caf\u00e9 Ghannouchi"}}, {"type": "node", "id": 7835997358, "lat": 34.7337416, "lon": 10.7076569, "tags": {"amenity": "cafe", "name": "Caf\u00e9 Locomotive"}}, {"type": "node", "id": 7835997359, "lat": 34.7333829, "lon": 10.7075377, "tags": {"amenity": "cafe", "name": "\u0645\u0642\u0647\u0649 \u0641\u0636\u0627\u0621 \u0625\u0642\u0628\u0627\u0644", "name:ar": "\u0645\u0642\u0647\u0649 \u0641\u0636\u0627\u0621 \u0625\u0642\u0628\u0627\u0644", "name:fr": "Caf\u00e9 Espace Ikbel"}}, {"type": "node", "id": 7835997363, "lat": 34.7331084, "lon": 10.7175742, "tags": {"amenity": "cafe", "name": "Caf\u00e9 Real", "name:fr": "Caf\u00e9 Real"}}, {"type": "node", "id": 7835997364, "lat": 34.7359105, "lon": 10.738943, "tags": {"amenity": "cafe", "name": "\u0645\u0642\u0647\u0649 \u0627\u0644\u0633\u0646\u062f\u0628\u0627\u062f", "name:ar": "\u0645\u0642\u0647\u0649 \u0627\u0644\u0633\u0646\u062f\u0628\u0627\u062f", "name:fr": "Caf\u00e9 Sindibad"}}, {"type": "node", "id": 7835997365, "lat": 34.7356515, "lon": 10.7457858, "tags": {"amenity": "cafe", "name": "\u0645\u0642\u0647\u0649 \u0627\u0644\u0628\u0627\u0634\u0627 \u0628\u0644\u0648\u0633", "name:ar": "\u0645\u0642\u0647\u0649 \u0627\u0644\u0628\u0627\u0634\u0627 \u0628\u0644\u0648\u0633", "name:fr": "Caf\u00e9 El Becha Plus"}}, {"type": "node", "id": 7836077071, "lat": 34.7355999, "lon": 10.7482673, "tags": {"amenity": "cafe", "name": "Caf\u00e9 Dreams", "name:fr": "Caf\u00e9 Dreams"}}, {"type": "node", "id": 7836077072, "lat": 34.7366617, "lon": 10.7475736, "tags": {"amenity": "cafe", "name": "My Way", "name:fr": "My Way"}}, {"type": "node", "id": 7836077073, "lat": 34.7372504, "lon": 10.7468138, "tags": {"amenity": "cafe", "name": "Caf\u00e9 Jet Set", "name:fr": "Caf\u00e9 Jet Set"}}, {"type": "node", "id": 7836092592, "lat": 34.7383717, "lon": 10.7444621, "tags": {"amenity": "cafe", "name": "Caf\u00e9 Sallem", "name:fr": "Caf\u00e9 Sallem"}}, {"type": "node", "id": 7836092599, "lat": 34.7394644, "lon": 10.7423942, "tags": {"amenity": "cafe", "name": "Caf\u00e9 Neros", "name:fr": "Caf\u00e9 Neros"}}, {"type": "node", "id": 7836092601, "lat": 34.7423115, "lon": 10.7352498, "tags": {"amenity": "cafe", "name": "Caf\u00e9 Havana", "name:fr": "Caf\u00e9 Havana"}}, {"type": "node", "id": 7836092602, "lat": 34.7429444, "lon": 10.7326525, "tags": {"amenity": "cafe", "name": "Caf\u00e9 El Hamra"}}, {"type": "node", "id": 7837253010, "lat": 34.7446789, "lon": 10.7287482, "tags": {"amenity": "cafe", "name": "\u0643\u0627\u0641\u064a\u062a\u064a\u0631\u064a\u0627 \u0627\u0644\u0645\u0648\u0639\u062f", "name:ar": "\u0643\u0627\u0641\u064a\u062a\u064a\u0631\u064a\u0627 \u0627\u0644\u0645\u0648\u0639\u062f", "name:fr": "Caf\u00e9t\u00e9ria Le Rendez-vous"}}, {"type": "node", "id": 7837253014, "lat": 34.7463759, "lon": 10.7250664, "tags": {"amenity": "cafe", "name": "\u0645\u0642\u0647\u0649 \u0642\u0631\u0627\u062c\u0629", "name:ar": "\u0645\u0642\u0647\u0649 \u0642\u0631\u0627\u062c\u0629", "name:fr": "Caf\u00e9 Graja"}}, {"type": "node", "id": 7837253015, "lat": 34.747651, "lon": 10.723553, "tags": {"amenity": "cafe", "name": "Caf\u00e9 Storia", "name:fr": "Caf\u00e9 Storia"}}, {"type": "node", "id": 7837253016, "lat": 34.7494836, "lon": 10.7193993, "tags": {"amenity": "cafe", "name": "\u0645\u0642\u0647\u0649 \u0631\u064a\u0627\u0646", "name:ar": "\u0645\u0642\u0647\u0649 \u0631\u064a\u0627\u0646", "name:fr": "Caf\u00e9 Rayen"}}, {"type": "node", "id": 7837253017, "lat": 34.7505504, "lon": 10.7173353, "tags": {"amenity": "cafe"}}, {"type": "node", "id": 7837253041, "lat": 34.7528756, "lon": 10.713249, "tags": {"amenity": "cafe", "name": "Caf\u00e9 Twins", "name:fr": "Caf\u00e9 Twins"}}, {"type": "node", "id": 7837253042, "lat": 34.7539739, "lon": 10.710701, "tags": {"amenity": "cafe", "name": "Caf\u00e9 Carr\u00e9 d'Or", "name:fr": "Caf\u00e9 Carr\u00e9 d'Or"}}, {"type": "node", "id": 7837253044, "lat": 34.7585113, "lon": 10.7137639, "tags": {"amenity": "cafe", "name": "\u0645\u0642\u0647\u0649 \u0648\u062c\u062f\u064a", "name:ar": "\u0645\u0642\u0647\u0649 \u0648\u062c\u062f\u064a", "name:fr": "Caf\u00e9 Wajdi"}}, {"type": "node", "id": 7837253045, "lat": 34.7544635, "lon": 10.7095482, "tags": {"amenity": "cafe", "name": "\u0645\u0642\u0647\u0649 \u0627\u0644\u0642\u0635\u0627\u0635", "name:ar": "\u0645\u0642\u0647\u0649 \u0627\u0644\u0642\u0635\u0627\u0635", "name:fr": "Caf\u00e9 El Kassas"}}, {"type": "node", "id": 7837764188, "lat": 34.7609039, "lon": 10.7175906, "tags": {"amenity": "cafe", "name": "\u0645\u0642\u0647\u0649 \u0627\u0644\u0623\u0635\u064a\u0644", "name:ar": "\u0645\u0642\u0647\u0649 \u0627\u0644\u0623\u0635\u064a\u0644", "name:fr": "Caf\u00e9 El Assil"}}, {"type": "node", "id": 7837764191, "lat": 34.7577929, "lon": 10.7008069, "tags": {"amenity": "cafe", "name": "\u0645\u0642\u0647\u0649 \u0645\u0639\u0644\u0649", "name:ar": "\u0645\u0642\u0647\u0649 \u0645\u0639\u0644\u0649", "name:fr": "Caf\u00e9 Moalla"}}, {"type": "node", "id": 7837764194, "lat": 34.759458, "lon": 10.697097, "tags": {"amenity": "cafe", "name": "\u0645\u0642\u0647\u0649 \u0639\u0627\u0645\u0631 \u062e\u0634\u0644\u0648\u0641", "name:ar": "\u0645\u0642\u0647\u0649 \u0639\u0627\u0645\u0631 \u062e\u0634\u0644\u0648\u0641", "name:fr": "Caf\u00e9 Ameur Khachlouf"}}, {"type": "node", "id": 7837764195, "lat": 34.7631295, "lon": 10.691149, "tags": {"amenity": "cafe", "name": "\u0645\u0642\u0647\u0649 \u0646\u0648\u0631", "name:ar": "\u0645\u0642\u0647\u0649 \u0646\u0648\u0631", "name:fr": "Caf\u00e9 Nour"}}, {"type": "node", "id": 7837764196, "lat": 34.7645037, "lon": 10.6885467, "tags": {"amenity": "cafe", "name": "Caf\u00e9 Jawhar", "name:fr": "Caf\u00e9 Jawhar"}}, {"type": "node", "id": 7837764238, "lat": 34.7863202, "lon": 10.6914584, "tags": {"amenity": "cafe", "name": "\u0645\u0642\u0647\u0649 \u0627\u0644\u063a\u0631\u064a\u0627\u0646\u064a", "name:ar": "\u0645\u0642\u0647\u0649 \u0627\u0644\u063a\u0631\u064a\u0627\u0646\u064a", "name:fr": "Caf\u00e9 Ghariani"}}, {"type": "node", "id": 7837764241, "lat": 34.7824272, "lon": 10.6953431, "tags": {"amenity": "cafe", "name": "\u0645\u0642\u0647\u0649 \u0627\u0644\u0646\u0627\u0639\u0648\u0631\u0629 \u0627\u0644\u0643\u0628\u0631\u0649", "name:ar": "\u0645\u0642\u0647\u0649 \u0627\u0644\u0646\u0627\u0639\u0648\u0631\u0629 \u0627\u0644\u0643\u0628\u0631\u0649", "name:fr": "Caf\u00e9 Grand Moulin"}}, {"type": "node", "id": 7837764245, "lat": 34.7765581, "lon": 10.7008477, "tags": {"amenity": "cafe", "name": "Caf\u00e9 Abouda", "name:fr": "Caf\u00e9 Abouda"}}, {"type": "node", "id": 7837764246, "lat": 34.7765199, "lon": 10.7008699, "tags": {"amenity": "restaurant", "name": "Pizzeria Abouda", "name:fr": "Pizzeria Abouda"}}, {"type": "node", "id": 7837764248, "lat": 34.774969, "lon": 10.7021269, "tags": {"amenity": "cafe", "name": "Caf\u00e9 Neji", "name:fr": "Caf\u00e9 Neji"}}, {"type": "node", "id": 7837764251, "lat": 34.7728745, "lon": 10.7033578, "tags": {"amenity": "cafe", "name": "Caf\u00e9 Caviana", "name:fr": "Caf\u00e9 Caviana"}}, {"type": "node", "id": 7837764253, "lat": 34.7706529, "lon": 10.7053881, "tags": {"amenity": "cafe", "name": "Caf\u00e9 Freza", "name:fr": "Caf\u00e9 Freza"}}, {"type": "node", "id": 7837764254, "lat": 34.7703195, "lon": 10.7065892, "tags": {"amenity": "cafe", "name": "Caf\u00e9 Paviette", "name:fr": "Caf\u00e9 Paviette"}}, {"type": "node", "id": 7837764255, "lat": 34.7696453, "lon": 10.7057706, "tags": {"amenity": "cafe", "name": "Caf\u00e9 Caramel", "name:fr": "Caf\u00e9 Caramel"}}, {"type": "node", "id": 7837841423, "lat": 34.7640401, "lon": 10.7150131, "tags": {"amenity": "cafe", "name": "Caf\u00e9 Mia Amore", "name:fr": "Caf\u00e9 Mia Amore"}}, {"type": "node", "id": 7837841425, "lat": 34.7623694, "lon": 10.7165054, "tags": {"amenity": "cafe", "name": "Caf\u00e9 The Crown", "name:fr": "Caf\u00e9 The Crown"}}, {"type": "node", "id": 7837841426, "lat": 34.7617687, "lon": 10.7172067, "tags": {"amenity": "cafe", "name": "Caf\u00e9 Victoria", "name:fr": "Caf\u00e9 Victoria"}}, {"type": "node", "id": 7837841427, "lat": 34.7588676, "lon": 10.7202148, "tags": {"amenity": "cafe", "name": "Caf\u00e9 Hammadi", "name:fr": "Caf\u00e9 Hammadi"}}, {"type": "node", "id": 7837841429, "lat": 34.7541843, "lon": 10.7255043, "tags": {"amenity": "cafe", "name": "\u0645\u0642\u0647\u0649 \u0627\u0644\u0632\u064a\u062a\u0648\u0646\u0629 \u0627\u0644\u0632\u0631\u0642\u0627\u0621", "name:ar": "\u0645\u0642\u0647\u0649 \u0627\u0644\u0632\u064a\u062a\u0648\u0646\u0629 \u0627\u0644\u0632\u0631\u0642\u0627\u0621", "name:fr": "Caf\u00e9 L'Olivier Bleu"}}, {"type": "node", "id": 7837841430, "lat": 34.7518075, "lon": 10.7294609, "tags": {"amenity": "cafe", "name": "\u0645\u0642\u0647\u0649 \u0634\u064a\u0634\u062e\u0627\u0646 \u0628\u0644\u0648\u0633", "name:ar": "\u0645\u0642\u0647\u0649 \u0634\u064a\u0634\u062e\u0627\u0646 \u0628\u0644\u0648\u0633", "name:fr": "Caf\u00e9 Chichkhan Plus"}}, {"type": "node", "id": 7837941025, "lat": 34.7504563, "lon": 10.731755, "tags": {"amenity": "restaurant", "name": "Kalimera"}}, {"type": "node", "id": 7837941026, "lat": 34.7503979, "lon": 10.7318531, "tags": {"amenity": "cafe", "name": "Avanti"}}, {"type": "node", "id": 7837941027, "lat": 34.7501238, "lon": 10.732432, "tags": {"amenity": "cafe", "name": "Capello D'Oro"}}, {"type": "node", "id": 7837941031, "lat": 34.7485878, "lon": 10.7358113, "tags": {"amenity": "cafe", "name": "Caf\u00e9 El Alia", "name:fr": "Caf\u00e9 El Alia"}}, {"type": "node", "id": 7837941034, "lat": 34.7450349, "lon": 10.7429706, "tags": {"amenity": "cafe", "name": "Caf\u00e9 Blue Ice", "name:fr": "Caf\u00e9 Blue Ice"}}, {"type": "node", "id": 7837997163, "lat": 34.7441868, "lon": 10.7454392, "tags": {"amenity": "cafe", "name": "Caf\u00e9 Jemal", "name:fr": "Caf\u00e9 Jemal"}}, {"type": "node", "id": 7837997164, "lat": 34.7425223, "lon": 10.7490354, "tags": {"amenity": "cafe", "name": "Caf\u00e9 Palermo", "name:fr": "Caf\u00e9 Palermo"}}, {"type": "node", "id": 7840117178, "lat": 34.7446646, "lon": 10.7518946, "tags": {"amenity": "cafe", "name": "\u0645\u0642\u0647\u0649 \u0633\u0641\u064a\u0627\u0646", "name:ar": "\u0645\u0642\u0647\u0649 \u0633\u0641\u064a\u0627\u0646", "name:fr": "Caf\u00e9 Soufien"}}, {"type": "node", "id": 7840117179, "lat": 34.7449847, "lon": 10.7510974, "tags": {"amenity": "cafe", "name": "\u0645\u0642\u0647\u0649 \u0623\u0645 \u0643\u0644\u062b\u0648\u0645", "name:ar": "\u0645\u0642\u0647\u0649 \u0623\u0645 \u0643\u0644\u062b\u0648\u0645", "name:fr": "Caf\u00e9 Om Kalthoum"}}, {"type": "node", "id": 7840117181, "lat": 34.7460205, "lon": 10.7495841, "tags": {"amenity": "cafe", "name": "Caf\u00e9 Hmani", "name:fr": "Caf\u00e9 Hmani"}}, {"type": "node", "id": 7840117183, "lat": 34.7479053, "lon": 10.747006, "tags": {"amenity": "restaurant", "name": "Fricass\u00e9 Siala", "name:fr": "Fricass\u00e9 Siala"}}, {"type": "node", "id": 7840139886, "lat": 34.7480238, "lon": 10.7467538, "tags": {"amenity": "cafe", "name": "Caf\u00e9 Lassaad", "name:fr": "Caf\u00e9 Lassaad"}}, {"type": "node", "id": 7840139890, "lat": 34.7583065, "lon": 10.7330349, "tags": {"amenity": "cafe", "name": "Caf\u00e9t\u00e9ria Clinique Errachid", "name:fr": "Caf\u00e9t\u00e9ria Clinique Errachid"}}, {"type": "node", "id": 7840139894, "lat": 34.7758336, "lon": 10.7137183, "tags": {"amenity": "cafe", "name": "Le Comptoir", "name:fr": "Le Comptoir"}}, {"type": "node", "id": 7840139900, "lat": 34.8082627, "lon": 10.6989642, "tags": {"amenity": "cafe"}}, {"type": "node", "id": 7840139901, "lat": 34.8034176, "lon": 10.7053015, "tags": {"amenity": "cafe", "name": "Caf\u00e9 Monalisa", "name:fr": "Caf\u00e9 Monalisa"}}, {"type": "node", "id": 7840139902, "lat": 34.8008253, "lon": 10.7077973, "tags": {"amenity": "cafe", "name": "Caf\u00e9 Relax", "name:ar": ""}}, {"type": "node", "id": 7840139903, "lat": 34.7969969, "lon": 10.7123099, "tags": {"amenity": "cafe", "name": "Caf\u00e9 Hassen", "name:fr": "Caf\u00e9 Hassen"}}, {"type": "node", "id": 7841268328, "lat": 34.7922397, "lon": 10.7158765, "tags": {"amenity": "restaurant", "name": "Le Prince", "name:fr": "Le Prince"}}, {"type": "node", "id": 7841268331, "lat": 34.7891532, "lon": 10.7181093, "tags": {"amenity": "restaurant", "name": "Bon Kif", "name:fr": "Bon Kif"}}, {"type": "node", "id": 7841268332, "lat": 34.7868156, "lon": 10.7197793, "tags": {"amenity": "cafe", "name": "Caf\u00e9 El Fawz", "name:fr": "Caf\u00e9 El Fawz"}}, {"type": "node", "id": 7841268336, "lat": 34.781553, "lon": 10.7230178, "tags": {"amenity": "cafe", "name": "Caf\u00e9 Azaiez", "name:fr": "Caf\u00e9 Azaiez"}}, {"type": "node", "id": 7841268337, "lat": 34.7624704, "lon": 10.7390861, "tags": {"amenity": "cafe", "name": "L'Ardoise", "name:fr": "L'Ardoise"}}, {"type": "node", "id": 7841268338, "lat": 34.7607808, "lon": 10.7411795, "tags": {"amenity": "cafe", "name": "Caf\u00e9t\u00e9ria Les Cousins", "name:fr": "Caf\u00e9t\u00e9ria Les Cousins"}}, {"type": "node", "id": 7841268339, "lat": 34.758235, "lon": 10.7433697, "tags": {"amenity": "cafe", "name": "Caf\u00e9 Jazz One", "name:fr": "Caf\u00e9 Jazz One"}}, {"type": "node", "id": 7841268340, "lat": 34.7578268, "lon": 10.7434143, "tags": {"amenity": "cafe", "name": "Caf\u00e9 Abdelhedi", "name:fr": "Caf\u00e9 Abdelhedi"}}, {"type": "node", "id": 7841268350, "lat": 34.7530525, "lon": 10.747114, "tags": {"amenity": "cafe", "name": "Black And White", "name:fr": "Black And White"}}, {"type": "node", "id": 7841268351, "lat": 34.7445322, "lon": 10.7542889, "tags": {"amenity": "cafe", "name": "Caf\u00e9 Casting", "name:fr": "Caf\u00e9 Casting"}}, {"type": "node", "id": 7841268352, "lat": 34.7438997, "lon": 10.7543828, "tags": {"amenity": "cafe", "name": "Caf\u00e9 El Andalib", "name:ar": "\u0645\u0642\u0647\u0649 \u0627\u0644\u0639\u0646\u062f\u0644\u064a\u0628", "name:fr": "Caf\u00e9 El Andalib"}}, {"type": "node", "id": 7841268353, "lat": 34.7423068, "lon": 10.7558558, "tags": {"amenity": "cafe", "name": "Caf\u00e9 Nero"}}, {"type": "node", "id": 7841268354, "lat": 34.7418235, "lon": 10.7560959, "tags": {"amenity": "cafe", "name": "Caf\u00e9 Bon Kif"}}, {"type": "node", "id": 7841268355, "lat": 34.7417731, "lon": 10.7565172, "tags": {"amenity": "cafe", "name": "Caf\u00e9 My Time"}}, {"type": "node", "id": 7841268357, "lat": 34.7412722, "lon": 10.756935, "tags": {"amenity": "cafe", "name": "Holiday", "name:fr": "Holiday"}}, {"type": "node", "id": 7843017587, "lat": 34.7584798, "lon": 10.7509816, "tags": {"amenity": "cafe", "name": "Caf\u00e9 Mosa\u00efque", "name:fr": "Caf\u00e9 Mosa\u00efque"}}, {"type": "node", "id": 7843017589, "lat": 34.7617703, "lon": 10.7490948, "tags": {"amenity": "cafe", "name": "Caf\u00e9 Factory", "name:fr": "Caf\u00e9 Factory"}}, {"type": "node", "id": 7843017591, "lat": 34.7635102, "lon": 10.7464787, "tags": {"amenity": "cafe", "name": "Caf\u00e9 VIP"}}, {"type": "node", "id": 7843017592, "lat": 34.765294, "lon": 10.7450063, "tags": {"amenity": "cafe", "name": "Al Jumeirah", "name:fr": "Al Jumeirah"}}, {"type": "node", "id": 7843017594, "lat": 34.7507482, "lon": 10.7587156, "tags": {"amenity": "cafe", "name": "Caf\u00e9 Misk Ellil"}}, {"type": "node", "id": 7843017595, "lat": 34.7522507, "lon": 10.7581903, "tags": {"amenity": "cafe", "name": "Caf\u00e9 Mosaique"}}, {"type": "node", "id": 7843017597, "lat": 34.7543621, "lon": 10.757489, "tags": {"amenity": "cafe", "name": "Caf\u00e9 Les Oranges"}}, {"type": "node", "id": 7843017600, "lat": 34.7571365, "lon": 10.7562475, "tags": {"amenity": "cafe", "name": "Scood"}}, {"type": "node", "id": 7843017602, "lat": 34.7576165, "lon": 10.7560266, "tags": {"amenity": "cafe", "name": "Craft"}}, {"type": "node", "id": 7843017603, "lat": 34.7583682, "lon": 10.7561982, "tags": {"amenity": "cafe", "name": "Caf\u00e9 El Machmoum"}}, {"type": "node", "id": 7843017606, "lat": 34.7632002, "lon": 10.7550926, "tags": {"amenity": "cafe", "name": "Oxyg\u00e8ne"}}, {"type": "node", "id": 7843017607, "lat": 34.7645365, "lon": 10.7547119, "tags": {"amenity": "cafe", "name": "Caf\u00e9 Select"}}, {"type": "node", "id": 7843017609, "lat": 34.7664729, "lon": 10.7536838, "tags": {"amenity": "cafe", "name": "\u0645\u0642\u0647\u0649 \u0627\u0644\u0645\u0644\u0643\u0629"}}, {"type": "node", "id": 7843017611, "lat": 34.7841001, "lon": 10.7461722, "tags": {"amenity": "cafe", "name": "Caf\u00e9 Dauphin"}}, {"type": "node", "id": 7843017612, "lat": 34.7863007, "lon": 10.7458083, "tags": {"amenity": "cafe", "name": "\u0645\u0642\u0647\u0649 \u0627\u0644\u0645\u0635\u0645\u0648\u062f\u064a", "name:ar": "\u0645\u0642\u0647\u0649 \u0627\u0644\u0645\u0635\u0645\u0648\u062f\u064a", "name:fr": "Caf\u00e9 Masmoudi"}}, {"type": "node", "id": 7843017613, "lat": 34.7874798, "lon": 10.745698, "tags": {"amenity": "cafe", "name": "Caf\u00e9 Olympia"}}, {"type": "node", "id": 7843017614, "lat": 34.790621, "lon": 10.7442595, "tags": {"amenity": "cafe", "name": "Caf\u00e9 Orangina"}}, {"type": "node", "id": 7843017615, "lat": 34.7910946, "lon": 10.744388, "tags": {"amenity": "cafe", "name": "Caf\u00e9 Nesma"}}, {"type": "node", "id": 7843017616, "lat": 34.7943402, "lon": 10.7432929, "tags": {"amenity": "cafe", "name": "Caf\u00e9 Dream"}}, {"type": "node", "id": 7843017617, "lat": 34.7975406, "lon": 10.7422599, "tags": {"amenity": "cafe", "name": "\u0645\u0642\u0647\u0649 \u0627\u0644\u0642\u062f\u0633", "name:ar": "\u0645\u0642\u0647\u0649 \u0627\u0644\u0642\u062f\u0633", "name:fr": "Caf\u00e9 J\u00e9rusalem"}}, {"type": "node", "id": 7843017618, "lat": 34.7992616, "lon": 10.7419448, "tags": {"amenity": "cafe", "name": "Caf\u00e9 La Terrasse", "name:fr": "Caf\u00e9 La Terrasse"}}, {"type": "node", "id": 7843017619, "lat": 34.8004667, "lon": 10.7413715, "tags": {"amenity": "cafe", "name": "Caf\u00e9 Sirius", "name:fr": "Caf\u00e9 Sirius"}}, {"type": "node", "id": 7843017620, "lat": 34.801767, "lon": 10.7408308, "tags": {"amenity": "cafe", "name": "Caf\u00e9 Arabesque"}}, {"type": "node", "id": 7843017621, "lat": 34.803326, "lon": 10.7400015, "tags": {"amenity": "cafe", "name": "Caf\u00e9 Abida", "name:fr": "Caf\u00e9 Abida"}}, {"type": "node", "id": 7843130178, "lat": 34.8059714, "lon": 10.7385739, "tags": {"amenity": "cafe", "name": "Caf\u00e9t\u00e9ria Hannibal"}}, {"type": "node", "id": 7843130179, "lat": 34.8069448, "lon": 10.7384566, "tags": {"amenity": "cafe", "name": "Caf\u00e9 Aziz"}}, {"type": "node", "id": 7843130180, "lat": 34.8079442, "lon": 10.7377369, "tags": {"amenity": "cafe", "name": "Caf\u00e9 Marina"}}, {"type": "node", "id": 7843130181, "lat": 34.8089032, "lon": 10.7373501, "tags": {"amenity": "cafe", "name": "Caf\u00e9 Vinicia"}}, {"type": "node", "id": 7843130182, "lat": 34.813267, "lon": 10.7359939, "tags": {"amenity": "cafe", "name": "Caf\u00e9 Marouen"}}, {"type": "node", "id": 7843130183, "lat": 34.8140948, "lon": 10.7352696, "tags": {"amenity": "cafe", "name": "Caf\u00e9 Lotfi"}}, {"type": "node", "id": 7843130184, "lat": 34.8502352, "lon": 10.7611473, "tags": {"amenity": "restaurant", "cuisine": "barbecue", "name": "\u0645\u0634\u0627\u0648\u064a \u0644\u064a\u0627\u0644\u064a \u0627\u0644\u0623\u0646\u0633", "name:ar": "\u0645\u0634\u0627\u0648\u064a \u0644\u064a\u0627\u0644\u064a \u0627\u0644\u0623\u0646\u0633", "name:fr": "Grillade Layeli El Ons"}}, {"type": "node", "id": 7843154585, "lat": 34.8380137, "lon": 10.7645737, "tags": {"amenity": "cafe", "name": "Caf\u00e9 Trabelsi"}}, {"type": "node", "id": 7843154587, "lat": 34.8263642, "lon": 10.7634056, "tags": {"amenity": "cafe", "name": "Caf\u00e9 Amir"}}, {"type": "node", "id": 7843154588, "lat": 34.8226061, "lon": 10.7630869, "tags": {"amenity": "cafe", "name": "Caf\u00e9 Dolce"}}, {"type": "node", "id": 7843154589, "lat": 34.8203323, "lon": 10.7623111, "tags": {"amenity": "cafe", "name": "Caf\u00e9 Zaphir"}}, {"type": "node", "id": 7843154590, "lat": 34.7884187, "lon": 10.7599546, "tags": {"amenity": "cafe", "name": "Caf\u00e9 Happy"}}, {"type": "node", "id": 7843154591, "lat": 34.7774129, "lon": 10.7606759, "tags": {"amenity": "cafe", "name": "Caf\u00e9 La Fiesta"}}, {"type": "node", "id": 7843199710, "lat": 34.772386, "lon": 10.7595722, "tags": {"amenity": "cafe", "name": "Caf\u00e9 Yassine"}}, {"type": "node", "id": 7843199711, "lat": 34.7648515, "lon": 10.7621788, "tags": {"amenity": "cafe", "name": "Caf\u00e9 Rozario", "name:fr": "Caf\u00e9 Rozario"}}, {"type": "node", "id": 7843642437, "lat": 34.8132099, "lon": 10.7898612, "tags": {"amenity": "cafe", "name": "Caf\u00e9 Parrain", "name:fr": "Caf\u00e9 Parrain"}}, {"type": "node", "id": 7843774702, "lat": 34.7599964, "lon": 10.7719219, "tags": {"amenity": "cafe", "name": "Caf\u00e9t\u00e9ria Imed", "name:fr": "Caf\u00e9t\u00e9ria Imed"}}, {"type": "node", "id": 7843774708, "lat": 34.7521165, "lon": 10.7680076, "tags": {"amenity": "cafe", "name": "La Bocca"}}, {"type": "node", "id": 7843774710, "lat": 34.743597, "lon": 10.763363, "tags": {"amenity": "cafe", "name": "Caf\u00e9 Sabra"}}, {"type": "node", "id": 7843774711, "lat": 34.7430083, "lon": 10.7631417, "tags": {"amenity": "cafe", "name": "Caf\u00e9 Slaiem Bousarsar", "name:ar": "\u0645\u0642\u0647\u0649 \u0633\u0644\u064a\u0651\u0645 \u0628\u0648\u0635\u0631\u0635\u0627\u0631", "name:fr": "Caf\u00e9 Slaiem Bousarsar"}}, {"type": "node", "id": 7846178391, "lat": 34.7504062, "lon": 10.7612088, "tags": {"amenity": "cafe", "name": "Caf\u00e9 Moulin Ville"}}, {"type": "node", "id": 7846178392, "lat": 34.7530821, "lon": 10.7617816, "tags": {"amenity": "cafe", "name": "Caf\u00e9t\u00e9ria 2F", "name:fr": "Caf\u00e9t\u00e9ria 2F"}}, {"type": "node", "id": 7846465016, "lat": 34.8173618, "lon": 10.7620154, "tags": {"amenity": "cafe", "name": "Contessa"}}, {"type": "node", "id": 7846917981, "lat": 34.7612848, "lon": 10.7728583, "tags": {"amenity": "cafe", "name": "Caf\u00e9t\u00e9ria Hamza", "name:fr": "Caf\u00e9t\u00e9ria Hamza"}}, {"type": "node", "id": 7850561499, "lat": 35.0057196, "lon": 10.9432728, "tags": {"amenity": "cafe", "name": "Caf\u00e9 Socopress", "name:fr": "Caf\u00e9 Socopress"}}, {"type": "node", "id": 7866174654, "lat": 34.78405, "lon": 10.7974603, "tags": {"amenity": "cafe", "name": "\u0645\u0627\u064a\u0633\u062a\u0631\u0648 \u0643\u0648\u0641\u064a \u0634\u0648\u0628", "name:ar": "\u0645\u0627\u064a\u0633\u062a\u0631\u0648 \u0643\u0648\u0641\u064a \u0634\u0648\u0628", "name:fr": "Maestro Coffee Shop"}}, {"type": "node", "id": 7877342911, "lat": 34.7495204, "lon": 10.7622361, "tags": {"amenity": "cafe", "name": "\u0645\u0642\u0647\u0649 \u0627\u0644\u0643\u0634\u0648", "name:ar": "\u0645\u0642\u0647\u0649 \u0627\u0644\u0643\u0634\u0648", "name:fr": "Caf\u00e9 Kchaou"}}, {"type": "node", "id": 7877342912, "lat": 34.7490886, "lon": 10.7609255, "tags": {"amenity": "restaurant", "name": "\u0641\u0631\u064a\u0643\u0627\u0633\u0627\u064a \u0627\u0644\u062e\u0631\u0634\u0627\u0646\u064a", "name:ar": "\u0641\u0631\u064a\u0643\u0627\u0633\u0627\u064a \u0627\u0644\u062e\u0631\u0634\u0627\u0646\u064a", "name:fr": "Fricass\u00e9 Khorchani"}}, {"type": "node", "id": 7880617580, "lat": 34.7291876, "lon": 10.7541717, "tags": {"amenity": "cafe", "name": "\u0627\u0644\u0631\u0635\u064a\u0641", "name:ar": "\u0627\u0644\u0631\u0635\u064a\u0641", "name:fr": "Le Quai"}}, {"type": "node", "id": 8044434478, "lat": 34.7985715, "lon": 10.7968975, "tags": {"amenity": "cafe", "name": "Coffee 55", "name:fr": "Coffee 55"}}, {"type": "node", "id": 8157433982, "lat": 34.755309, "lon": 10.7765409, "tags": {"amenity": "cafe", "name": "\u0645\u0642\u0647\u0649 \u0627\u0644\u0633\u064a \u0622\u0633 \u0622\u0633", "name:ar": "\u0645\u0642\u0647\u0649 \u0627\u0644\u0633\u064a \u0622\u0633 \u0622\u0633", "name:fr": "Caf\u00e9 CSS"}}, {"type": "node", "id": 8157433983, "lat": 34.7698125, "lon": 10.7877218, "tags": {"amenity": "cafe", "name": "Caf\u00e9 Patch Work"}}, {"type": "node", "id": 8157740946, "lat": 34.7417036, "lon": 10.7483764, "tags": {"amenity": "cafe", "name": "Caf\u00e9 Azzouz", "name:fr": "Caf\u00e9 Azzouz"}}, {"type": "node", "id": 8157740949, "lat": 34.7418855, "lon": 10.7486314, "tags": {"amenity": "cafe", "name": "Caf\u00e9 Lotfi", "name:fr": "Caf\u00e9 Lotfi"}}, {"type": "node", "id": 8157740950, "lat": 34.7417235, "lon": 10.7514886, "tags": {"amenity": "cafe", "name": "Caf\u00e9 Frero", "name:fr": "Caf\u00e9 Frero"}}, {"type": "node", "id": 8157740951, "lat": 34.7416725, "lon": 10.7533642, "tags": {"amenity": "cafe", "name": "Caf\u00e9 El Borj", "name:fr": "Caf\u00e9 El Borj"}}, {"type": "node", "id": 8157740952, "lat": 34.7422456, "lon": 10.7535701, "tags": {"amenity": "cafe", "name": "Caf\u00e9 Faiez", "name:fr": "Caf\u00e9 Faiez"}}, {"type": "node", "id": 8157740953, "lat": 34.7491599, "lon": 10.7603717, "tags": {"amenity": "cafe", "name": "Caf\u00e9 Relax", "name:fr": "Caf\u00e9 Relax"}}, {"type": "node", "id": 8157740954, "lat": 34.7496789, "lon": 10.7610905, "tags": {"amenity": "restaurant", "name": "Fricass\u00e9 Siala", "name:ar": "\u0641\u0631\u064a\u0643\u0633\u0627\u064a \u0627\u0644\u0633\u064a\u0627\u0644\u0629", "name:fr": "Fricass\u00e9 Siala"}}, {"type": "node", "id": 8178751077, "lat": 34.7868985, "lon": 10.8289369, "tags": {"amenity": "cafe", "cuisine": "coffee_shop;ice_cream;pizza", "name": "\u0642\u0627\u0639\u0629 \u0634\u0627\u064a \u0634\u0647\u0631\u0632\u0627\u062f", "name:ar": "\u0642\u0627\u0639\u0629 \u0634\u0627\u064a \u0634\u0647\u0631\u0632\u0627\u062f", "name:fr": "Salon de Th\u00e9 Shahrazad"}}, {"type": "node", "id": 8178751078, "lat": 34.78425, "lon": 10.8239729, "tags": {"amenity": "restaurant", "cuisine": "coffee_shop;pizza;ice_cream;sandwich", "name": "\u0627\u0644\u062a\u0645\u0633\u0627\u062d", "name:ar": "\u0627\u0644\u062a\u0645\u0633\u0627\u062d", "name:fr": "Le Crocodile"}}, {"type": "node", "id": 8178772787, "lat": 34.7448106, "lon": 10.7638269, "tags": {"amenity": "cafe", "name": "\u0645\u0642\u0647\u0649 \u0627\u0644\u0623\u0647\u0631\u0627\u0645", "name:ar": "\u0645\u0642\u0647\u0649 \u0627\u0644\u0623\u0647\u0631\u0627\u0645", "name:fr": "Caf\u00e9 Les Pyramides"}}, {"type": "node", "id": 8178772788, "lat": 34.7471722, "lon": 10.7646189, "tags": {"amenity": "cafe", "name": "Havana 53", "name:fr": "Havana 53"}}, {"type": "node", "id": 8178772789, "lat": 34.747682, "lon": 10.7647734, "tags": {"amenity": "cafe", "name": "Caf\u00e9 Toumi", "name:ar": "\u0645\u0642\u0647\u0649 \u0627\u0644\u062a\u0648\u0645\u064a", "name:fr": "Caf\u00e9 Toumi"}}, {"type": "node", "id": 8178772790, "lat": 34.74464, "lon": 10.7606447, "tags": {"amenity": "restaurant", "name": "\u0645\u0637\u0639\u0645 \u0627\u0644\u0632\u064a\u062a\u0648\u0646\u0629", "name:ar": "\u0645\u0637\u0639\u0645 \u0627\u0644\u0632\u064a\u062a\u0648\u0646\u0629", "name:fr": "Restaurant Ezzitouna"}}, {"type": "node", "id": 8178772791, "lat": 34.7417325, "lon": 10.7638686, "tags": {"amenity": "cafe", "name": "\u0645\u0642\u0647\u0649 \u0643\u0627\u0631\u062a\u0627\u0642\u0648", "name:ar": "\u0645\u0642\u0647\u0649 \u0643\u0627\u0631\u062a\u0627\u0642\u0648", "name:fr": "Caf\u00e9 Cartago"}}, {"type": "node", "id": 8178772792, "lat": 34.7418978, "lon": 10.7639001, "tags": {"amenity": "restaurant", "name": "\u0645\u0637\u0639\u0645 \u0639\u0627\u062f\u0644", "name:ar": "\u0645\u0637\u0639\u0645 \u0639\u0627\u062f\u0644", "name:fr": "Restaurant Adel"}}, {"type": "node", "id": 8201561772, "lat": 34.9368103, "lon": 10.7437779, "tags": {"amenity": "cafe", "name": "Caf\u00e9 Station Total", "name:fr": "Caf\u00e9 Station Total"}}, {"type": "node", "id": 8201561773, "lat": 34.936685, "lon": 10.7438369, "tags": {"amenity": "cafe", "name": "Caf\u00e9 Jalel"}}, {"type": "node", "id": 8201932241, "lat": 34.9364285, "lon": 10.7437169, "tags": {"amenity": "restaurant", "name": "Restaurant El Baraka"}}, {"type": "node", "id": 8201932250, "lat": 34.9387892, "lon": 10.7441286, "tags": {"amenity": "cafe", "name": "Caf\u00e9 Errayen"}}, {"type": "node", "id": 8201932252, "lat": 34.9395539, "lon": 10.7441508, "tags": {"amenity": "cafe", "name": "Caf\u00e9 Les Arcades", "name:fr": "Caf\u00e9 Les Arcades"}}, {"type": "node", "id": 8201932254, "lat": 34.9416292, "lon": 10.7444482, "tags": {"amenity": "restaurant", "name": "Restaurant Ennasim", "name:fr": "Restaurant Ennasim"}}, {"type": "node", "id": 8201932255, "lat": 34.9423322, "lon": 10.744512, "tags": {"amenity": "cafe", "name": "Caf\u00e9 Essaraya"}}, {"type": "node", "id": 8201932256, "lat": 34.943597, "lon": 10.7450436, "tags": {"amenity": "cafe", "name": "Caf\u00e9 Safsaf", "name:fr": "Caf\u00e9 Safsaf"}}, {"type": "node", "id": 8201932261, "lat": 34.9456385, "lon": 10.7449298, "tags": {"amenity": "cafe", "name": "Caf\u00e9 El Andalous", "name:fr": "Caf\u00e9 El Andalous"}}, {"type": "node", "id": 8201932263, "lat": 34.9488478, "lon": 10.7452446, "tags": {"amenity": "restaurant", "name": "Restaurant El Yasamine"}}, {"type": "node", "id": 8300096128, "lat": 34.7936232, "lon": 10.7339671, "tags": {"amenity": "cafe", "name": "Caf\u00e9 22", "name:fr": "Caf\u00e9 22"}}, {"type": "node", "id": 8614162854, "lat": 34.8179232, "lon": 10.7749879, "tags": {"amenity": "cafe", "name": "Caf\u00e9 Cappuccino", "name:fr": "Caf\u00e9 Cappuccino"}}, {"type": "node", "id": 8614162856, "lat": 34.8208381, "lon": 10.7791884, "tags": {"amenity": "cafe", "name": "Express Midou", "name:fr": "Express Midou"}}, {"type": "node", "id": 8829137357, "lat": 34.8041126, "lon": 10.785037, "tags": {"amenity": "cafe", "name": "\u0645\u0642\u0647\u0649 \u0631\u0628\u0627\u0644", "name:ar": "\u0645\u0642\u0647\u0649 \u0631\u0628\u0627\u0644", "name:fr": "Rebel Cafe"}}, {"type": "node", "id": 8943583970, "lat": 34.8021862, "lon": 10.7599488, "tags": {"amenity": "cafe", "name": "\u0645\u0642\u0647\u0649 \u0627\u0644\u0631\u0627\u0634\u062f\u064a\u0629", "name:ar": "\u0645\u0642\u0647\u0649 \u0627\u0644\u0631\u0627\u0634\u062f\u064a\u0629", "name:fr": "Caf\u00e9 Errachidia"}}, {"type": "node", "id": 8943583972, "lat": 34.7993179, "lon": 10.7568242, "tags": {"amenity": "cafe", "name": "Sosta Coffee"}}, {"type": "node", "id": 8943583973, "lat": 34.7978421, "lon": 10.7538264, "tags": {"amenity": "cafe", "name": "Coach Coffee"}}, {"type": "node", "id": 8943583974, "lat": 34.7931064, "lon": 10.7447542, "tags": {"amenity": "cafe", "name": "Caf\u00e9 Tarek"}}, {"type": "node", "id": 9329093806, "lat": 34.7248362, "lon": 10.7222845, "tags": {"amenity": "cafe", "name": "Salon de Th\u00e9 Cheers", "name:fr": "Salon de Th\u00e9 Cheers", "opening_hours": "Mo-Su 08:00-22:00", "phone": "+216 36 170 070"}}, {"type": "node", "id": 9761105999, "lat": 34.7926201, "lon": 10.8044921, "tags": {"amenity": "cafe", "name": "\u0645\u0642\u0647\u0649 \u0648\u062c\u062f\u064a", "name:ar": "\u0645\u0642\u0647\u0649 \u0648\u062c\u062f\u064a", "name:fr": "Caf\u00e9 Wajdi"}}, {"type": "node", "id": 9815328091, "lat": 34.853456, "lon": 10.7605344, "tags": {"amenity": "restaurant", "cuisine": "barbecue", "name": "\u0645\u0634\u0627\u0648\u064a \u0627\u0644\u0636\u064a\u0639\u0629", "name:ar": "\u0645\u0634\u0627\u0648\u064a \u0627\u0644\u0636\u064a\u0639\u0629", "name:fr": "Grillades La Campagne"}}, {"type": "node", "id": 9838459250, "lat": 34.8241459, "lon": 10.7986582, "tags": {"amenity": "cafe", "name": "Caf\u00e9t\u00e9ria Belhaj"}}, {"type": "node", "id": 9872355305, "lat": 34.8139438, "lon": 10.7832414, "tags": {"amenity": "cafe", "name": "Caf\u00e9t\u00e9ria Errached", "name:fr": "Caf\u00e9t\u00e9ria Errached"}}, {"type": "node", "id": 9872355306, "lat": 34.8127172, "lon": 10.7830992, "tags": {"amenity": "cafe", "name": "Express Caf\u00e9", "name:fr": "Express Caf\u00e9"}}, {"type": "node", "id": 9872355309, "lat": 34.80669, "lon": 10.7814338, "tags": {"amenity": "cafe", "name": "Caf\u00e9 Royal"}}, {"type": "node", "id": 9872355310, "lat": 34.8053599, "lon": 10.7810723, "tags": {"amenity": "cafe", "name": "Caf\u00e9 La Lune"}}, {"type": "node", "id": 9872355311, "lat": 34.7930329, "lon": 10.8074608, "tags": {"amenity": "cafe", "name": "\u0645\u0642\u0647\u0649 \u0628\u0627\u0644\u0645\u0627", "name:ar": "\u0645\u0642\u0647\u0649 \u0628\u0627\u0644\u0645\u0627", "name:fr": "Caf\u00e9 Palma"}}, {"type": "node", "id": 9919119713, "lat": 34.8017596, "lon": 10.8196848, "tags": {"amenity": "cafe", "name": "\u0645\u0642\u0647\u0649 \u0622\u0633\u064a\u0629", "name:ar": "\u0645\u0642\u0647\u0649 \u0622\u0633\u064a\u0629", "name:fr": "Caf\u00e9 Essia"}}, {"type": "node", "id": 9994294987, "lat": 34.7769058, "lon": 10.7773914, "tags": {"amenity": "cafe", "name": "\u0643\u0627\u0628\u0633\u064a\u0644", "name:ar": "\u0643\u0627\u0628\u0633\u064a\u0644", "name:fr": "Capsule"}}, {"type": "node", "id": 10008780631, "lat": 34.8243111, "lon": 10.7996244, "tags": {"amenity": "cafe", "name": "Caf\u00e9 Coin 10", "name:fr": "Caf\u00e9 Coin 10"}}, {"type": "node", "id": 10111118067, "lat": 34.7929169, "lon": 10.8042962, "tags": {"amenity": "restaurant", "name": "\u0631\u064a\u0642\u0627\u0644 \u0641\u0648\u062f", "name:ar": "\u0631\u064a\u0642\u0627\u0644 \u0641\u0648\u062f", "name:fr": "Regal's Food"}}, {"type": "node", "id": 10281800137, "lat": 34.8018788, "lon": 10.7917805, "tags": {"amenity": "cafe", "name": "Caf\u00e9 Nevada", "name:fr": "Caf\u00e9 Nevada"}}, {"type": "node", "id": 10614802603, "lat": 34.7590076, "lon": 10.7811003, "tags": {"amenity": "restaurant", "name": "\u0645\u0637\u0639\u0645 \u0623\u0628\u0648 \u0623\u062d\u0645\u062f \u0644\u0644\u0623\u0643\u0644\u0627\u062a \u0627\u0644\u062e\u0641\u064a\u0641\u0629", "name:ar": "\u0645\u0637\u0639\u0645 \u0623\u0628\u0648 \u0623\u062d\u0645\u062f \u0644\u0644\u0623\u0643\u0644\u0627\u062a \u0627\u0644\u062e\u0641\u064a\u0641\u0629", "name:fr": "Restaurant Abou Ahmed"}}, {"type": "node", "id": 10632846796, "lat": 34.8472231, "lon": 10.7617383, "tags": {"amenity": "restaurant", "cuisine": "barbecue", "name": "\u0645\u0634\u0627\u0648\u064a \u062d\u0645\u0627\u062f\u064a \u0627\u0644\u0631\u0651\u0642\u064a\u0642", "name:ar": "\u0645\u0634\u0627\u0648\u064a \u062d\u0645\u0627\u062f\u064a \u0627\u0644\u0631\u0651\u0642\u064a\u0642", "name:fr": "Grillades Hammadi Rekik", "phone": "+216 58 120 305"}}, {"type": "node", "id": 10678298716, "lat": 34.7451733, "lon": 10.7511366, "tags": {"amenity": "restaurant", "name": "\u062d\u0627\u062a\u0645 \u0644\u0639\u0630\u0627\u0631"}}, {"type": "node", "id": 10889869456, "lat": 34.7369723, "lon": 10.7511167, "tags": {"amenity": "cafe", "name": "takasim"}}, {"type": "node", "id": 10889869457, "lat": 34.7393156, "lon": 10.7509055, "tags": {"amenity": "cafe", "name": "friends"}}, {"type": "node", "id": 10889869458, "lat": 34.7380979, "lon": 10.7499925, "tags": {"amenity": "cafe", "name": "mallorca"}}, {"type": "node", "id": 11085356440, "lat": 34.7710869, "lon": 10.81312}, {"type": "node", "id": 11085356441, "lat": 34.7708798, "lon": 10.8134633}, {"type": "node", "id": 11085356442, "lat": 34.7698795, "lon": 10.8141982}, {"type": "node", "id": 11085356443, "lat": 34.7698355, "lon": 10.8135974}, {"type": "node", "id": 11085356444, "lat": 34.7708798, "lon": 10.8128196}, {"type": "node", "id": 11085356445, "lat": 34.7710473, "lon": 10.8130556}, {"type": "node", "id": 11092966968, "lat": 34.7907293, "lon": 10.7929791, "tags": {"amenity": "cafe", "name": "\u0645\u0642\u0647\u0649 \u0627\u0644\u0641\u0644\u0648\u0643\u0629", "name:fr": "Caf\u00e9 Flouka"}}, {"type": "node", "id": 11148081455, "lat": 34.8035056, "lon": 10.7847237, "tags": {"amenity": "cafe", "name": "Caf\u00e9 Prestige", "name:ar": "\u0645\u0642\u0647\u0649 \u0628\u0631\u0627\u0633\u062a\u064a\u062c", "name:fr": "Caf\u00e9 Prestige"}}, {"type": "node", "id": 11235216588, "lat": 34.8051743, "lon": 10.785833, "tags": {"amenity": "cafe", "name": "SIP Coffee", "name:fr": "SIP Coffee"}}, {"type": "node", "id": 11315565169, "lat": 34.7422711, "lon": 10.7536324, "tags": {"amenity": "restaurant", "internet_access": "wlan", "name:en": "Restaurant Abid Al Omara", "phone": "+216 20 252 999"}}, {"type": "node", "id": 11491236588, "lat": 34.7996648, "lon": 10.7694537, "tags": {"amenity": "cafe", "name": "Bora Bora Caf\u00e9", "name:fr": "Bora Bora Caf\u00e9"}}, {"type": "node", "id": 12006129999, "lat": 34.7962809, "lon": 10.7925148, "tags": {"amenity": "cafe", "name": "Caf\u00e9 Joud", "name:fr": "Caf\u00e9 Joud"}}, {"type": "node", "id": 12018553332, "lat": 34.7934181, "lon": 10.8424069, "tags": {"amenity": "cafe", "name": "Caf\u00e9 Albatros", "name:fr": "Caf\u00e9 Albatros"}}, {"type": "node", "id": 12046379679, "lat": 34.7629909, "lon": 10.7823559, "tags": {"amenity": "cafe", "name": "Galaxy Coffee", "name:fr": "Galaxy Coffee"}}, {"type": "node", "id": 12162264597, "lat": 34.7855823, "lon": 10.7987886, "tags": {"amenity": "cafe", "name": "Doze Caf\u00e9"}}, {"type": "node", "id": 12170503004, "lat": 34.7590049, "lon": 10.7560253, "tags": {"amenity": "restaurant", "cuisine": "barbecue", "name": "Cotelette Grill", "name:fr": "Cotelette Grill", "phone": "+216 24 204 220"}}, {"type": "node", "id": 12172977517, "lat": 34.8002066, "lon": 10.7565834, "tags": {"amenity": "cafe", "name": "Pause Caf\u00e9", "name:fr": "Pause Caf\u00e9"}}, {"type": "node", "id": 12172977519, "lat": 34.800114, "lon": 10.7567908, "tags": {"amenity": "restaurant", "name": "Restaurant The Bucket List", "name:fr": "Restaurant The Bucket List"}}, {"type": "node", "id": 12184583846, "lat": 34.8022051, "lon": 10.7904095, "tags": {"amenity": "cafe", "name": "Caf\u00e9 Vingt Vingt", "name:fr": "Caf\u00e9 Vingt Vingt"}}, {"type": "node", "id": 12294131615, "lat": 34.7914675, "lon": 10.7937561, "tags": {"amenity": "cafe", "name": "Caf\u00e9 Belmondo", "name:fr": "Caf\u00e9 Belmondo"}}, {"type": "node", "id": 12337824901, "lat": 34.731191, "lon": 10.7605085, "tags": {"amenity": "restaurant", "name": "Chaez Aloulou 3002"}}, {"type": "node", "id": 12549628888, "lat": 34.796997, "lon": 10.7843439, "tags": {"amenity": "cafe", "name": "Chippa Shoops", "name:fr": "Chippa Shoops"}}, {"type": "node", "id": 12587529345, "lat": 34.8267389, "lon": 10.756931, "tags": {"amenity": "cafe", "name": "cafe dali"}}, {"type": "node", "id": 12734399106, "lat": 34.7807539, "lon": 10.7949606, "tags": {"amenity": "cafe", "name": "\u0645\u0642\u0647\u0649 \u0641\u064a\u062a\u0627\u0644\u064a\u0627", "name:ar": "\u0645\u0642\u0647\u0649 \u0641\u064a\u062a\u0627\u0644\u064a\u0627", "name:fr": "Coffee Vitalia"}}, {"type": "way", "id": 707482561, "nodes": [6648368625, 6648368626, 6648368627, 6648368628, 6648368629, 6648368630, 6648368625], "tags": {"amenity": "restaurant", "building": "yes", "cuisine": "pizza;coffee_shop;sandwich;ice_cream", "name": "\u0645\u0646\u062a\u0632\u0647 \u062a\u0628\u0631\u0648\u0631\u0629", "name:ar": "\u0645\u0646\u062a\u0632\u0647 \u062a\u0628\u0631\u0648\u0631\u0629", "name:fr": "Montazah Taparoura"}}, {"type": "way", "id": 736841494, "nodes": [6898611320, 6898611321, 6898611322, 6898611323, 6898611324, 6898611320], "tags": {"amenity": "cafe", "building": "yes"}}, {"type": "way", "id": 736841544, "nodes": [6898611543, 6898611544, 6898611545, 6898611546, 6898611547, 6898611548, 6898611549, 6898611550, 6898611543], "tags": {"amenity": "cafe", "building": "yes", "name": "Friends"}}, {"type": "way", "id": 746655218, "nodes": [6987336214, 6987336215, 6987336216, 6987336217, 6987336214], "tags": {"amenity": "restaurant", "building": "yes", "cuisine": "coffee_shop;pizza;ice_cream;sandwich", "name": "\u062f\u0627\u0631 \u0632\u0645\u0627\u0646", "name:ar": "\u062f\u0627\u0631 \u0632\u0645\u0627\u0646", "name:fr": "Dar Zmen"}}, {"type": "way", "id": 756753465, "nodes": [7067971491, 7067971490, 7067971489, 7067971488, 7067971487, 7067971486, 7067971485, 7067951384, 7067951383, 7067951382, 7067951381, 7067951380, 7067951365, 7067951364, 7067951366, 7067951371, 7067951367, 7067951370, 7067951368, 7067951369, 7067951379, 7067951373, 7067951372, 7067951375, 7067951374, 7067951378, 7067951376, 7067951377, 7067971491], "tags": {"amenity": "restaurant", "building": "yes", "name": "\u0627\u0644\u0645\u0637\u0639\u0645 \u0627\u0644\u062c\u0627\u0645\u0639\u064a \u0627\u0644\u0623\u0646\u0633", "name:ar": "\u0627\u0644\u0645\u0637\u0639\u0645 \u0627\u0644\u062c\u0627\u0645\u0639\u064a \u0627\u0644\u0623\u0646\u0633", "name:fr": "Restaurant Universitaire El Ons"}}, {"type": "way", "id": 1194233839, "nodes": [11085356440, 11085356441, 11085356442, 11085356443, 11085356444, 11085356445, 11085356440], "tags": {"amenity": "cafe", "building": "yes", "cuisine": "pizza;sandwich;chicken;regional;steak_house;seafood", "name": "\u0645\u0646\u062a\u0632\u0647 \u0627\u0644\u062d\u0643\u064a\u0645", "name:ar": "\u0645\u0646\u062a\u0632\u0647 \u0627\u0644\u062d\u0643\u064a\u0645", "name:fr": "Atlantis \u0645\u0646\u062a\u0632\u0647 \u0627\u0644\u062d\u0643\u064a\u0645", "outdoor_seating": "yes"}}]}