{"version": 0.6, "generator": "Overpass API 0.7.62.7 375dc00a", "osm3s": {"timestamp_osm_base": "2025-06-14T15:26:15Z", "copyright": "The data included in this document is from www.openstreetmap.org. The data is made available under ODbL."}, "elements": [{"type": "node", "id": 4670656879, "lat": 38.6806285, "lon": 39.1754077, "tags": {"amenity": "cafe", "name": "Balkon cafe"}}, {"type": "node", "id": 5409411488, "lat": 38.7323934, "lon": 39.2805724, "tags": {"amenity": "restaurant", "name": "Buzluk Tesisleri", "opening_hours": "Mo-Su 09:00-20:00", "phone": "0535 544 65 54"}}, {"type": "node", "id": 6580152203, "lat": 38.6646634, "lon": 39.1755052, "tags": {"amenity": "restaurant", "name": "Lahmacun"}}, {"type": "node", "id": 6580152239, "lat": 38.6650149, "lon": 39.1762972, "tags": {"addr:city": "Elaz\u0131\u011f", "amenity": "restaurant", "name": "Erzurum Ca\u011f Kebab\u0131"}}, {"type": "node", "id": 6580152241, "lat": 38.6652419, "lon": 39.1769457, "tags": {"amenity": "restaurant", "name": "Hisar Kebap & Izgara"}}, {"type": "node", "id": 6580231093, "lat": 38.6672189, "lon": 39.1790906, "tags": {"addr:city": "Elaz\u0131\u011f", "amenity": "restaurant", "name": "Yal\u00e7\u0131n Et ve Kavurma"}}, {"type": "node", "id": 6580231095, "lat": 38.6667687, "lon": 39.1769314, "tags": {"amenity": "cafe", "brand": "Mado", "brand:wikidata": "Q17116336", "brand:wikipedia": "en:Mado (food company)", "cuisine": "coffee_shop", "name": "Mado", "takeaway": "yes"}}, {"type": "node", "id": 6580264418, "lat": 38.6664736, "lon": 39.1769061, "tags": {"addr:city": "Elaz\u0131\u011f", "amenity": "cafe", "name": "Kahveland"}}, {"type": "node", "id": 12393432285, "lat": 38.6989524, "lon": 39.2545373, "tags": {"amenity": "restaurant", "name": "Zertaslar Et Lokantasi"}}]}