{"version": 0.6, "generator": "Overpass API 0.7.62.7 375dc00a", "osm3s": {"timestamp_osm_base": "2025-06-14T14:32:03Z", "copyright": "The data included in this document is from www.openstreetmap.org. The data is made available under ODbL."}, "elements": [{"type": "node", "id": 33208740, "lat": 40.3415473, "lon": 19.4787802, "tags": {"amenity": "restaurant", "name": "Pul\u00ebbardha Restaurant"}}, {"type": "node", "id": 1401408685, "lat": 40.5427193, "lon": 19.7373477, "tags": {"amenity": "restaurant"}}, {"type": "node", "id": 2021064940, "lat": 40.1538119, "lon": 19.6125684, "tags": {"amenity": "restaurant"}}, {"type": "node", "id": 2073742248, "lat": 40.0966722, "lon": 19.754018}, {"type": "node", "id": 2073742250, "lat": 40.0966918, "lon": 19.7542105}, {"type": "node", "id": 2073742251, "lat": 40.0968247, "lon": 19.7539914}, {"type": "node", "id": 2073742252, "lat": 40.0968444, "lon": 19.7541839}, {"type": "node", "id": 2073882815, "lat": 40.508608, "lon": 19.7357497, "tags": {"amenity": "restaurant", "internet_access": "wlan"}}, {"type": "node", "id": 2080397201, "lat": 40.09697, "lon": 19.7539461, "tags": {"amenity": "restaurant", "cuisine": "regional", "internet_access": "wlan", "name": "Restaurant Dhima", "phone": "+35522934"}}, {"type": "node", "id": 2109219168, "lat": 40.0998262, "lon": 19.7673109, "tags": {"amenity": "restaurant"}}, {"type": "node", "id": 2282041664, "lat": 40.1166312, "lon": 19.7004902, "tags": {"amenity": "cafe", "name": "B52", "source": "iHARTE.com"}}, {"type": "node", "id": 2282163064, "lat": 40.121715, "lon": 19.6981796}, {"type": "node", "id": 2282163065, "lat": 40.1218298, "lon": 19.6981911}, {"type": "node", "id": 2282163066, "lat": 40.1217109, "lon": 19.6979336}, {"type": "node", "id": 2283605650, "lat": 40.1404501, "lon": 19.6948437, "tags": {"amenity": "cafe", "check_date": "2025-05-19", "check_date:diet:vegetarian": "2025-05-19", "diet:vegetarian": "yes", "indoor_seating": "yes", "name": "Cafe Vuno", "outdoor_seating": "yes", "source": "iHARTE.com"}}, {"type": "node", "id": 2290843104, "lat": 40.121721, "lon": 19.6981943}, {"type": "node", "id": 2357675602, "lat": 40.100746, "lon": 19.7413907, "tags": {"amenity": "restaurant", "name": "Esperia"}}, {"type": "node", "id": 2482160619, "lat": 40.1218282, "lon": 19.6980934}, {"type": "node", "id": 2482160623, "lat": 40.1218244, "lon": 19.6978758}, {"type": "node", "id": 2482160638, "lat": 40.1218253, "lon": 19.6979303}, {"type": "node", "id": 2482160647, "lat": 40.1219861, "lon": 19.6978712}, {"type": "node", "id": 2482232883, "lat": 40.1190774, "lon": 19.70214, "tags": {"amenity": "restaurant"}}, {"type": "node", "id": 2482232893, "lat": 40.1188457, "lon": 19.7021187, "tags": {"amenity": "restaurant"}}, {"type": "node", "id": 2863195618, "lat": 40.427675, "lon": 19.4925329, "tags": {"addr:city": "Vlor\u00eb", "addr:postcode": "9400", "addr:street": "Dhimiter Konomi", "amenity": "restaurant", "cuisine": "regional", "name": "Vila Nika", "smoking": "outside"}}, {"type": "node", "id": 2989823543, "lat": 40.5015427, "lon": 19.4071063}, {"type": "node", "id": 2989823545, "lat": 40.5015585, "lon": 19.4069392}, {"type": "node", "id": 2989823548, "lat": 40.5015643, "lon": 19.4068997}, {"type": "node", "id": 2989823549, "lat": 40.5015669, "lon": 19.4069413}, {"type": "node", "id": 2989823551, "lat": 40.5015916, "lon": 19.4069167}, {"type": "node", "id": 2989823552, "lat": 40.501593, "lon": 19.406907}, {"type": "node", "id": 2989823559, "lat": 40.5016838, "lon": 19.4071422}, {"type": "node", "id": 2989823560, "lat": 40.5016852, "lon": 19.4069405}, {"type": "node", "id": 2989823561, "lat": 40.5016867, "lon": 19.4069308}, {"type": "node", "id": 2989823565, "lat": 40.5017138, "lon": 19.4069377}, {"type": "node", "id": 3178774459, "lat": 40.2040316, "lon": 19.5853683}, {"type": "node", "id": 3178775769, "lat": 40.2039476, "lon": 19.5854634}, {"type": "node", "id": 3178775794, "lat": 40.2039248, "lon": 19.5852882}, {"type": "node", "id": 3178775807, "lat": 40.2039259, "lon": 19.5855134}, {"type": "node", "id": 3178775840, "lat": 40.2038732, "lon": 19.5854081}, {"type": "node", "id": 3178775966, "lat": 40.2039797, "lon": 19.5854869}, {"type": "node", "id": 3178775967, "lat": 40.2038515, "lon": 19.585458}, {"type": "node", "id": 3463177912, "lat": 40.1406766, "lon": 19.6944741, "tags": {"amenity": "restaurant"}}, {"type": "node", "id": 3642154537, "lat": 40.3535921, "lon": 19.4867936, "tags": {"amenity": "restaurant", "name": "Restaurant Denta"}}, {"type": "node", "id": 3642160358, "lat": 40.3769611, "lon": 19.4779815}, {"type": "node", "id": 3642160359, "lat": 40.3770639, "lon": 19.4779892}, {"type": "node", "id": 3642160360, "lat": 40.3770534, "lon": 19.4782294}, {"type": "node", "id": 3642160361, "lat": 40.3769505, "lon": 19.4782216}, {"type": "node", "id": 3669134146, "lat": 40.1105047, "lon": 19.7200962}, {"type": "node", "id": 3669134159, "lat": 40.1106075, "lon": 19.7203107}, {"type": "node", "id": 3669134162, "lat": 40.110624, "lon": 19.72021}, {"type": "node", "id": 3669134164, "lat": 40.1106365, "lon": 19.7201329}, {"type": "node", "id": 3669139039, "lat": 40.1104757, "lon": 19.720274}, {"type": "node", "id": 3669160733, "lat": 40.106762, "lon": 19.7280078}, {"type": "node", "id": 3669160734, "lat": 40.1069007, "lon": 19.727926}, {"type": "node", "id": 3669160735, "lat": 40.1068495, "lon": 19.7282613}, {"type": "node", "id": 3669160736, "lat": 40.1069882, "lon": 19.7281795}, {"type": "node", "id": 3729175642, "lat": 40.0961708, "lon": 19.7538583, "tags": {"amenity": "cafe"}}, {"type": "node", "id": 3750859126, "lat": 40.4029971, "lon": 19.4801285, "tags": {"amenity": "restaurant", "name": "Bar Dion dhe restorant"}}, {"type": "node", "id": 3750864843, "lat": 40.3852791, "lon": 19.4850743, "tags": {"amenity": "restaurant", "cuisine": "pizza", "name": "Bar Piceri Stela"}}, {"type": "node", "id": 3750887790, "lat": 40.3667128, "lon": 19.4813017, "tags": {"amenity": "restaurant", "name": "Black Pearl"}}, {"type": "node", "id": 3811408231, "lat": 40.1966404, "lon": 19.59585}, {"type": "node", "id": 4064604678, "lat": 40.3332524, "lon": 19.4662157}, {"type": "node", "id": 4064604679, "lat": 40.3333471, "lon": 19.4660582}, {"type": "node", "id": 4064604680, "lat": 40.3333114, "lon": 19.4665004}, {"type": "node", "id": 4064604681, "lat": 40.333489, "lon": 19.466205}, {"type": "node", "id": 4064604683, "lat": 40.333499, "lon": 19.4659979}, {"type": "node", "id": 4064604684, "lat": 40.3335226, "lon": 19.4657755}, {"type": "node", "id": 4064604685, "lat": 40.3335408, "lon": 19.4657513}, {"type": "node", "id": 4064604686, "lat": 40.3335462, "lon": 19.4660593}, {"type": "node", "id": 4064604689, "lat": 40.3335955, "lon": 19.4658702}, {"type": "node", "id": 4064604691, "lat": 40.3336111, "lon": 19.4658981}, {"type": "node", "id": 4064604692, "lat": 40.3336322, "lon": 19.4658701}, {"type": "node", "id": 4064604694, "lat": 40.3336398, "lon": 19.4659354}, {"type": "node", "id": 4236472290, "lat": 40.4160125, "lon": 19.483942, "tags": {"amenity": "restaurant", "name": "Miramar"}}, {"type": "node", "id": 4299948193, "lat": 40.1002816, "lon": 19.7340698, "tags": {"amenity": "restaurant", "contact:facebook": "https://www.facebook.com/profile.php?id=1196611140405017", "contact:phone": "+355 69 327 9587", "name": "Kico Meniko", "phone": "+355693279587"}}, {"type": "node", "id": 4321464691, "lat": 40.472005, "lon": 19.4905282, "tags": {"addr:street": "Rruga Reshat Osmani", "amenity": "restaurant", "name": "Sazani"}}, {"type": "node", "id": 4327068794, "lat": 40.4538169, "lon": 19.4868381, "tags": {"amenity": "restaurant", "name": "Bar Piazza"}}, {"type": "node", "id": 4340949290, "lat": 40.1000524, "lon": 19.7476047, "tags": {"amenity": "restaurant", "check_date": "2024-09-02", "cuisine": "pizza;crepe", "name": "Pizzeri Kreperi La Famiglia"}}, {"type": "node", "id": 4340969289, "lat": 40.1012138, "lon": 19.7453585, "tags": {"amenity": "cafe", "name": "Valentino"}}, {"type": "node", "id": 4343081492, "lat": 40.1094847, "lon": 19.7236562, "tags": {"amenity": "restaurant", "name": "Vangjeli restaurant"}}, {"type": "node", "id": 4343145791, "lat": 40.1095498, "lon": 19.7235043, "tags": {"amenity": "restaurant", "name": "Anxelhos"}}, {"type": "node", "id": 4343145890, "lat": 40.1095947, "lon": 19.7233764, "tags": {"addr:postcode": "9425", "amenity": "restaurant", "cuisine": "breakfast;fish;greek;mediterranean", "internet_access": "wlan", "name": "Restorant Odissea"}}, {"type": "node", "id": 4357662808, "lat": 40.2136266, "lon": 19.5793528, "tags": {"amenity": "restaurant", "internet_access": "wlan", "name": "Sofo"}}, {"type": "node", "id": 4374586791, "lat": 40.4519394, "lon": 19.4872529, "tags": {"amenity": "cafe", "name": "Caf\u00e9 del Mar", "name:sq": "Caf\u00e9 del Mar"}}, {"type": "node", "id": 4407351028, "lat": 40.101583, "lon": 19.7454305, "tags": {"amenity": "restaurant", "name": "Lefteri", "name:el": "\u039b\u03b5\u03c6\u03c4\u03b5\u03c1\u03b9\u03c2"}}, {"type": "node", "id": 4466503989, "lat": 40.2567617, "lon": 19.529439, "tags": {"amenity": "restaurant", "name": "Mish Zgare"}}, {"type": "node", "id": 4473360756, "lat": 40.4659145, "lon": 19.4755608, "tags": {"amenity": "restaurant"}}, {"type": "node", "id": 4473360782, "lat": 40.466403, "lon": 19.4650037, "tags": {"amenity": "restaurant"}}, {"type": "node", "id": 4593271025, "lat": 40.4673771, "lon": 19.4829777, "tags": {"addr:city": "Vlor\u00eb", "addr:street": "Rruga Transbalkanika", "amenity": "cafe", "name": "Mini-Bar Cafe"}}, {"type": "node", "id": 4593271026, "lat": 40.4676772, "lon": 19.4829993, "tags": {"addr:city": "Vlor\u00eb", "addr:street": "Rruga Transbalkanika", "amenity": "cafe", "cuisine": "italian", "name": "Sufllaque dori"}}, {"type": "node", "id": 4792099521, "lat": 40.0988945, "lon": 19.751841, "tags": {"amenity": "restaurant", "name": "Red Indian"}}, {"type": "node", "id": 4892465321, "lat": 40.2109696, "lon": 19.5793517, "tags": {"amenity": "restaurant", "cuisine": "regional;noodles;italian", "name": "Alberti", "name:sq": "Alberti", "phone": "+355 69 5798406", "tourism": "hotel"}}, {"type": "node", "id": 4894433823, "lat": 40.3576781, "lon": 19.4832663, "tags": {"amenity": "restaurant", "name": "Mezuraj - Krela", "name:sq": "Mezuraj - Krela"}}, {"type": "node", "id": 4900462222, "lat": 40.4237757, "lon": 19.4898619, "tags": {"amenity": "restaurant", "name": "Piceri Amantia", "name:en": "Restaurant Amantia", "name:fr": "Restaurant Amantia", "name:sq": "Piceri Amantia"}}, {"type": "node", "id": 4919098521, "lat": 40.3269183, "lon": 19.4559767, "tags": {"addr:street": "pashalimani", "amenity": "restaurant", "name": "Restaurant \"Maxola's Dream\"", "name:en": "Restaurant \"Maxola's Dream\"", "name:ru": "\u0420\u0435\u0441\u0442\u043e\u0440\u0430\u043d \"Maxola's Dream\"", "name:sq": "Restaurant \"Maxola's Dream\"", "opening_hours": "Mo-Su 08:00-12:00", "phone": "+355697340399", "website": "http://www.facebook.com/restoranti.maxolasdream"}}, {"type": "node", "id": 4942011022, "lat": 40.4467007, "lon": 19.4941144, "tags": {"addr:street": "Rruga Murat Terba\u00e7i", "amenity": "restaurant", "internet_access": "wlan", "name": "Mustafa", "name:sq": "Mustafa"}}, {"type": "node", "id": 4945655323, "lat": 40.4356688, "lon": 19.4941523, "tags": {"amenity": "cafe", "cuisine": "italian_pizza", "name": "Pizzeria Sunset", "name:sq": "Pizzeria Sunset"}}, {"type": "node", "id": 4968347022, "lat": 40.1011897, "lon": 19.745763, "tags": {"addr:city": "Himar\u00eb", "addr:postcode": "9425", "addr:street": "Rruga Kaonet", "amenity": "restaurant", "cuisine": "grill;greek", "facebook": "tostekixeimarra", "internet_access": "wlan", "menu": "https://ringtravel.al/menu/steqi/", "mobile": "+355683766498", "name": "To Steki sti Gonia", "name:el": "\u03a4\u03bf \u03a3\u03c4\u03ad\u03ba\u03b9 \u03c3\u03c4\u03b7 \u0393\u03c9\u03bd\u03b9\u03ac", "name:sq": "To Steki sti Gonia", "opening_hours": "Mo-Su 11:00-23:30", "phone": "+35539322024", "website": "https://taverna-to-steki.business.site"}}, {"type": "node", "id": 4986927921, "lat": 40.1522415, "lon": 19.6152321, "tags": {"amenity": "restaurant", "internet_access": "wlan", "name": "Ostro restaurant", "name:en": "Ostro restaurant"}}, {"type": "node", "id": 5036295922, "lat": 40.1099626, "lon": 19.7220362, "tags": {"amenity": "restaurant", "name": "Antoni's", "name:en": "Antoni's", "name:sq": "Antoni's"}}, {"type": "node", "id": 5044634021, "lat": 40.4386786, "lon": 19.4956261, "tags": {"addr:city": "Vlor\u00eb", "addr:postcode": "9401", "addr:street": "Rruga Murat T\u00ebrba\u00e7i", "amenity": "restaurant", "cuisine": "italian;mediterranean;seafood;steak_house", "name": "Paradise Beach Restaurant", "opening_hours": "Mo-Su 07:30-23:30", "phone": "+355696000034", "website": "https://paradise-beach-restaurant.com"}}, {"type": "node", "id": 5045249622, "lat": 40.4382453, "lon": 19.4956415, "tags": {"amenity": "restaurant", "cuisine": "seafood;mediterranean;italian", "internet_access": "wlan", "name": "Joni", "name:en": "Joni"}}, {"type": "node", "id": 5045973923, "lat": 40.436354, "lon": 19.4957648, "tags": {"amenity": "restaurant", "name": "Pizzeria Scooby-Doo", "name:en": "Pizzeria Scooby-Doo"}}, {"type": "node", "id": 5047040823, "lat": 40.4434786, "lon": 19.4953855, "tags": {"amenity": "restaurant", "name": "Amed Ros", "name:en": "Amed Ros"}}, {"type": "node", "id": 5051693721, "lat": 40.4413745, "lon": 19.4955619, "tags": {"amenity": "restaurant", "name": "Taverna \"Dangellia\"", "name:en": "Bar-restourant \"Klodi\"", "name:sq": "Taverna \"Dangellia\""}}, {"type": "node", "id": 5052465822, "lat": 40.4376982, "lon": 19.4956603, "tags": {"amenity": "restaurant", "name": "Titanic", "name:en": "Titanic"}}, {"type": "node", "id": 5057042121, "lat": 40.4425217, "lon": 19.4955148, "tags": {"amenity": "restaurant", "name": "The wave", "name:en": "The wave"}}, {"type": "node", "id": 5072879109, "lat": 40.4511832, "lon": 19.4868305, "tags": {"amenity": "restaurant", "name": "Hotel Bologna"}}, {"type": "node", "id": 5105947934, "lat": 40.4363665, "lon": 19.4964098, "tags": {"amenity": "restaurant", "name": "Pizzeria Scooby Doo", "name:en": "Pizzeria Scooby Doo", "name:pl": "Pizzeria Scooby Doo", "name:sq": "Pizzeria Scooby Doo"}}, {"type": "node", "id": 5105947935, "lat": 40.4299724, "lon": 19.4939751, "tags": {"amenity": "restaurant", "name": "Mareluna", "name:en": "Mareluna", "name:pl": "Mareluna", "name:sq": "Mareluna"}}, {"type": "node", "id": 5105947936, "lat": 40.2787173, "lon": 19.5036692, "tags": {"amenity": "cafe"}}, {"type": "node", "id": 5126517513, "lat": 40.2030857, "lon": 19.5876771}, {"type": "node", "id": 5126517514, "lat": 40.2029672, "lon": 19.5876879}, {"type": "node", "id": 5126517515, "lat": 40.2030219, "lon": 19.58776}, {"type": "node", "id": 5126517516, "lat": 40.2030309, "lon": 19.587605}, {"type": "node", "id": 5433513922, "lat": 40.1963516, "lon": 19.5981167, "tags": {"amenity": "restaurant", "name": "Dervishaliu", "phone": "0694862323"}}, {"type": "node", "id": 5546096766, "lat": 40.4574184, "lon": 19.4817041, "tags": {"addr:street": "Rruga Transbalkanika", "amenity": "cafe", "name": "Cafe Napoli"}}, {"type": "node", "id": 5588478122, "lat": 40.3454179, "lon": 19.4835777, "tags": {"amenity": "restaurant", "name": "Bojo restaurant & beach"}}, {"type": "node", "id": 5666135323, "lat": 40.1466498, "lon": 19.634171, "tags": {"amenity": "restaurant", "name": "Tani"}}, {"type": "node", "id": 5719685626, "lat": 40.4470245, "lon": 19.5858426, "tags": {"amenity": "cafe"}}, {"type": "node", "id": 5719685629, "lat": 40.4838576, "lon": 19.512796, "tags": {"amenity": "restaurant"}}, {"type": "node", "id": 5719685631, "lat": 40.4841061, "lon": 19.5125929, "tags": {"amenity": "cafe"}}, {"type": "node", "id": 5719685632, "lat": 40.4825003, "lon": 19.5075778, "tags": {"amenity": "restaurant"}}, {"type": "node", "id": 5844766585, "lat": 40.4469455, "lon": 19.4939852, "tags": {"amenity": "restaurant", "cuisine": "italian;italian_pizza;seafood", "internet_access": "wlan", "name:en": "Patio"}}, {"type": "node", "id": 5848794850, "lat": 40.4423869, "lon": 19.4955159, "tags": {"amenity": "cafe", "internet_access": "wlan", "name": "Hannover"}}, {"type": "node", "id": 5888691085, "lat": 40.1555697, "lon": 19.6330246, "tags": {"amenity": "restaurant", "name": "Drymades", "name:en": "Drymades Village Restaurant"}}, {"type": "node", "id": 5895890171, "lat": 40.0975929, "lon": 19.7535475, "tags": {"amenity": "restaurant", "cuisine": "fish", "name": "Portokalli", "outdoor_seating": "yes", "smoking": "yes"}}, {"type": "node", "id": 5921911886, "lat": 40.4220032, "lon": 19.4919162, "tags": {"amenity": "cafe", "name": "Donatelo"}}, {"type": "node", "id": 5939699487, "lat": 40.1019677, "lon": 19.7442552, "tags": {"amenity": "restaurant", "name": "Restaurant Merkur Merkuri"}}, {"type": "node", "id": 6043557786, "lat": 40.3611715, "lon": 19.4806135, "tags": {"amenity": "restaurant", "name": "Laberia"}}, {"type": "node", "id": 6282980685, "lat": 40.4525941, "lon": 19.4864939, "tags": {"addr:street": "Sheshi Isa Boletini", "amenity": "cafe", "internet_access": "wlan", "name": "Mon Cheri", "opening_hours": "Mo-Su 07:00-23:00"}}, {"type": "node", "id": 6329917586, "lat": 40.165531, "lon": 19.5884535, "tags": {"amenity": "cafe", "name": "Beachside Cafe"}}, {"type": "node", "id": 6397078974, "lat": 40.4763795, "lon": 19.4894278, "tags": {"addr:street": "Rruga Demokracia", "amenity": "restaurant", "name": "Taverna Filipi"}}, {"type": "node", "id": 6401921551, "lat": 40.4558169, "lon": 19.4771896, "tags": {"addr:street": "Rruga Sazani", "amenity": "restaurant", "name": "Mezuraj"}}, {"type": "node", "id": 6401921693, "lat": 40.4549588, "lon": 19.4843784, "tags": {"addr:street": "Rruga Fejzo Gjomema", "amenity": "restaurant", "name": "Taverne Te LILO"}}, {"type": "node", "id": 6401921787, "lat": 40.4552718, "lon": 19.4834571, "tags": {"addr:street": "Rruga Fejzo Gjomema", "amenity": "restaurant", "name": "Marfein"}}, {"type": "node", "id": 6404990327, "lat": 40.2188808, "lon": 19.5795419, "tags": {"amenity": "restaurant", "name": "Sorkadhja"}}, {"type": "node", "id": 6407771822, "lat": 40.1499056, "lon": 19.6342519, "tags": {"amenity": "restaurant", "name": "Restaurant Harmonia"}}, {"type": "node", "id": 6407778396, "lat": 40.1531736, "lon": 19.634554, "tags": {"amenity": "cafe"}}, {"type": "node", "id": 6412273723, "lat": 40.1565551, "lon": 19.6309512, "tags": {"amenity": "restaurant", "name": "Frank Kafe"}}, {"type": "node", "id": 6436877045, "lat": 40.4674116, "lon": 19.4929112, "tags": {"amenity": "restaurant", "check_date:opening_hours": "2025-03-05", "name": "Kuzum Baba Restaurant", "opening_hours:signed": "no"}}, {"type": "node", "id": 6484361885, "lat": 40.437939, "lon": 19.495634, "tags": {"amenity": "restaurant", "internet_access": "wlan", "name": "Bujar"}}, {"type": "node", "id": 6582334085, "lat": 40.1203242, "lon": 19.7020019, "tags": {"amenity": "restaurant", "name:en": "Restaurant"}}, {"type": "node", "id": 6612409185, "lat": 40.45074, "lon": 19.4902568, "tags": {"amenity": "restaurant", "name:en": "Bar & Grill Noel"}}, {"type": "node", "id": 6641089986, "lat": 40.1011608, "lon": 19.7462601, "tags": {"amenity": "restaurant", "name:en": "Bocca"}}, {"type": "node", "id": 6645991087, "lat": 40.101298, "lon": 19.7450677, "tags": {"amenity": "restaurant", "name": "Himara 1928"}}, {"type": "node", "id": 6656930185, "lat": 40.1581268, "lon": 19.6061736, "tags": {"addr:street": "Ruga Perivolo", "amenity": "restaurant", "cuisine": "pizza", "name": "Pizza BEACH", "phone": "+355 68 204 2233"}}, {"type": "node", "id": 6656937985, "lat": 40.1594103, "lon": 19.6020111, "tags": {"addr:street": "Ruga Perivolo", "amenity": "restaurant", "name": "Monkey Beach Drymades"}}, {"type": "node", "id": 6656939985, "lat": 40.1564905, "lon": 19.609895, "tags": {"addr:street": "Ruga Perivolo", "amenity": "restaurant", "name": "Sofra e pashait"}}, {"type": "node", "id": 6658332690, "lat": 40.1443885, "lon": 19.6341397, "tags": {"amenity": "restaurant", "cuisine": "regional", "name": "Piratet Bar & Restaurant", "phone": "+355 68 212 2038"}}, {"type": "node", "id": 6658342286, "lat": 40.1447446, "lon": 19.6308138, "tags": {"amenity": "restaurant", "cuisine": "regional", "name": "Bar Restaurant Shen Nikolla"}}, {"type": "node", "id": 6658349985, "lat": 40.1441946, "lon": 19.6343963, "tags": {"amenity": "restaurant", "bar": "yes", "contact:facebook": "https://www.facebook.com/LucianoDhermi98/", "cuisine": "regional", "email": "luciano_dhermi@hotmail.com", "name": "Restaurant Luciano", "opening_hours": "Mo-Su 07:00-23:00", "outdoor_seating": "yes", "phone": "+355 69 655 9460", "reservation": "yes", "smoking": "yes", "takeaway": "yes", "website": "https://lucianodhermi.al/"}}, {"type": "node", "id": 6660050586, "lat": 40.1444365, "lon": 19.6319655, "tags": {"addr:postcode": "9422", "addr:street": "Rruga e Vilave", "amenity": "restaurant", "cuisine": "regional", "internet_access": "wlan", "name": "Restaurant Pizzeria Queen-Vasilika"}}, {"type": "node", "id": 6661248985, "lat": 40.4426447, "lon": 19.4955095, "tags": {"addr:postcode": "9401", "addr:street": "Rruga Murat Terbaci", "amenity": "cafe", "cuisine": "coffee_shop;breakfast;donut;italian", "internet_access": "wlan", "name": "Alehandro Wine Shop & Roel Coffee", "opening_hours": "Mo-Su 07:00-15:00, 17:00-01:00", "operator": "Ervin Sota", "phone": "0686849745"}}, {"type": "node", "id": 6669957439, "lat": 40.3053272, "lon": 19.5203937, "tags": {"amenity": "restaurant"}}, {"type": "node", "id": 6670032590, "lat": 40.4324513, "lon": 19.5094709, "tags": {"amenity": "restaurant", "name": "Shpella e Fikut", "phone": "+355 69 643 4315"}}, {"type": "node", "id": 6689695387, "lat": 40.1518953, "lon": 19.6161943, "tags": {"addr:street": "Drymades", "amenity": "restaurant", "cuisine": "italian_pizza;seafood;friture;pizza;fish;pasta;italian", "name": "fishOn Drymades", "operator": "Richi", "phone": "+355684046290"}}, {"type": "node", "id": 6708010385, "lat": 40.1083622, "lon": 19.7257087, "tags": {"amenity": "restaurant", "name": "Ammos Livadhi", "operator": "Instituti Kulinar Neranxi"}}, {"type": "node", "id": 6765129048, "lat": 40.4227619, "lon": 19.4894388, "tags": {"amenity": "restaurant", "check_date": "2023-10-06", "name": "Riviera"}}, {"type": "node", "id": 6786398551, "lat": 40.1171426, "lon": 19.7318578, "tags": {"amenity": "cafe", "name": "Caf\u00e9 Butterfly", "outdoor_seating": "yes"}}, {"type": "node", "id": 6796742385, "lat": 40.1013466, "lon": 19.7449061, "tags": {"amenity": "restaurant", "name": "Sapore di Mare"}}, {"type": "node", "id": 6797455587, "lat": 40.0976452, "lon": 19.7534018, "tags": {"amenity": "restaurant", "name": "Cibo Mare e Terre"}}, {"type": "node", "id": 6820803402, "lat": 40.4720581, "lon": 19.4881596, "tags": {"addr:street": "Rruga At Kristo Negovani", "amenity": "restaurant", "name": "Iliria Restorant"}}, {"type": "node", "id": 6838917692, "lat": 40.4761582, "lon": 19.4891855, "tags": {"addr:street": "Rruga Demokracia", "amenity": "cafe", "name": "Rruga E Re"}}, {"type": "node", "id": 6845643699, "lat": 40.4737919, "lon": 19.4939203, "tags": {"addr:street": "Rruga Ali Demi", "amenity": "restaurant", "name": "Piceri Mipi"}}, {"type": "node", "id": 6845667055, "lat": 40.4583369, "lon": 19.4876888, "tags": {"addr:street": "Rruga Pavar\u00ebsia", "amenity": "restaurant", "name": "Sky Pizza"}}, {"type": "node", "id": 6847899188, "lat": 40.4629378, "lon": 19.4889683, "tags": {"addr:street": "Rruga Pavar\u00ebsia", "amenity": "cafe", "name": "Sophie Cafe"}}, {"type": "node", "id": 6860110985, "lat": 40.4558485, "lon": 19.4816019, "tags": {"amenity": "cafe"}}, {"type": "node", "id": 6860174185, "lat": 40.4554352, "lon": 19.4822111, "tags": {"amenity": "cafe", "name": "Gimka"}}, {"type": "node", "id": 6860174187, "lat": 40.4552561, "lon": 19.4829856, "tags": {"amenity": "cafe"}}, {"type": "node", "id": 6860174199, "lat": 40.4580291, "lon": 19.48573, "tags": {"amenity": "cafe", "check_date": "2025-03-06", "name": "BSB"}}, {"type": "node", "id": 6860174206, "lat": 40.4568794, "lon": 19.4822981, "tags": {"amenity": "cafe", "name": "Aroma"}}, {"type": "node", "id": 6860717885, "lat": 40.4589351, "lon": 19.4820459, "tags": {"amenity": "cafe", "name": "Check-in daisy"}}, {"type": "node", "id": 6861399888, "lat": 40.464628, "lon": 19.4892696, "tags": {"amenity": "cafe"}}, {"type": "node", "id": 6861406885, "lat": 40.4620918, "lon": 19.48243, "tags": {"amenity": "cafe", "name": "Gimka"}}, {"type": "node", "id": 6861406888, "lat": 40.4649262, "lon": 19.4872636, "tags": {"amenity": "cafe"}}, {"type": "node", "id": 6861406985, "lat": 40.4622914, "lon": 19.4824847, "tags": {"amenity": "cafe", "name": "Olimp"}}, {"type": "node", "id": 6861406988, "lat": 40.4648686, "lon": 19.4845708, "tags": {"amenity": "cafe", "name": "Norway"}}, {"type": "node", "id": 6861410085, "lat": 40.468849, "lon": 19.4902699, "tags": {"amenity": "cafe"}}, {"type": "node", "id": 6861410187, "lat": 40.4671236, "lon": 19.4905305, "tags": {"amenity": "restaurant", "name": "Cristal"}}, {"type": "node", "id": 6861410188, "lat": 40.4646063, "lon": 19.4896865, "tags": {"amenity": "cafe", "name": "Quaranta"}}, {"type": "node", "id": 6861428191, "lat": 40.4619696, "lon": 19.4831469, "tags": {"amenity": "cafe", "name": "Motta City"}}, {"type": "node", "id": 6861428193, "lat": 40.4612368, "lon": 19.488817, "tags": {"amenity": "cafe", "name": "Liking"}}, {"type": "node", "id": 6862958786, "lat": 40.4671124, "lon": 19.4857268, "tags": {"amenity": "cafe", "name": "Medusa"}}, {"type": "node", "id": 6862958885, "lat": 40.4669142, "lon": 19.4851842, "tags": {"amenity": "cafe"}}, {"type": "node", "id": 6863504192, "lat": 40.474596, "lon": 19.4930311, "tags": {"amenity": "cafe", "name": "Smart"}}, {"type": "node", "id": 6863504201, "lat": 40.4704786, "lon": 19.4883429, "tags": {"amenity": "cafe"}}, {"type": "node", "id": 6863504206, "lat": 40.4533134, "lon": 19.4839682, "tags": {"amenity": "restaurant", "name": "Adriatik"}}, {"type": "node", "id": 6863515085, "lat": 40.4671035, "lon": 19.4862172, "tags": {"amenity": "cafe", "name": "Lian"}}, {"type": "node", "id": 6863519889, "lat": 40.4737517, "lon": 19.493792, "tags": {"amenity": "cafe", "name": "Namnam"}}, {"type": "node", "id": 6863520088, "lat": 40.4734191, "lon": 19.4931823, "tags": {"amenity": "cafe"}}, {"type": "node", "id": 6863520090, "lat": 40.4729472, "lon": 19.491117, "tags": {"amenity": "cafe", "name": "Mon Cheri"}}, {"type": "node", "id": 6863520291, "lat": 40.4740213, "lon": 19.4943165, "tags": {"amenity": "cafe", "name": "Gloria"}}, {"type": "node", "id": 6863520295, "lat": 40.4744975, "lon": 19.4938209, "tags": {"amenity": "cafe"}}, {"type": "node", "id": 6863520885, "lat": 40.4732385, "lon": 19.4929003, "tags": {"amenity": "cafe", "name": "Poli"}}, {"type": "node", "id": 6863520888, "lat": 40.4701004, "lon": 19.4884246, "tags": {"amenity": "restaurant", "name": "Mena's house"}}, {"type": "node", "id": 6863520889, "lat": 40.4550857, "lon": 19.4824103, "tags": {"amenity": "cafe", "name": "Mambo"}}, {"type": "node", "id": 6863520992, "lat": 40.4726519, "lon": 19.4904755, "tags": {"amenity": "cafe"}}, {"type": "node", "id": 6863520993, "lat": 40.4532316, "lon": 19.4846127, "tags": {"amenity": "restaurant", "name": "San Giorgio"}}, {"type": "node", "id": 6863533885, "lat": 40.4674102, "lon": 19.4880745, "tags": {"amenity": "cafe"}}, {"type": "node", "id": 6864756488, "lat": 40.461115, "lon": 19.4803569, "tags": {"amenity": "cafe", "name": "Don"}}, {"type": "node", "id": 6864756489, "lat": 40.4616779, "lon": 19.4806221, "tags": {"amenity": "cafe", "name": "Kei"}}, {"type": "node", "id": 6866308388, "lat": 40.458151, "lon": 19.4688232, "tags": {"amenity": "cafe", "check_date:opening_hours": "2025-02-26", "name": "Varka", "opening_hours:signed": "no"}}, {"type": "node", "id": 6866314087, "lat": 40.4547178, "lon": 19.4778736, "tags": {"amenity": "cafe"}}, {"type": "node", "id": 6866321286, "lat": 40.455812, "lon": 19.4775779, "tags": {"amenity": "cafe", "check_date:opening_hours": "2025-02-26", "name": "Emigres", "opening_hours:signed": "no"}}, {"type": "node", "id": 6866329485, "lat": 40.4586059, "lon": 19.4669559, "tags": {"amenity": "restaurant", "name": "Brazil"}}, {"type": "node", "id": 6866329986, "lat": 40.4737186, "lon": 19.4876183, "tags": {"amenity": "cafe"}}, {"type": "node", "id": 6866329987, "lat": 40.4735124, "lon": 19.4890278, "tags": {"amenity": "cafe", "name": "Buronja"}}, {"type": "node", "id": 6867840286, "lat": 40.4559595, "lon": 19.4765329, "tags": {"amenity": "cafe", "check_date:opening_hours": "2025-02-26", "name": "Medusa", "opening_hours:signed": "no"}}, {"type": "node", "id": 6868194485, "lat": 40.4610605, "lon": 19.492126, "tags": {"amenity": "cafe"}}, {"type": "node", "id": 6875975976, "lat": 40.15413, "lon": 19.6122712}, {"type": "node", "id": 6875975977, "lat": 40.1541545, "lon": 19.6122458}, {"type": "node", "id": 6875975978, "lat": 40.1541405, "lon": 19.6122228}, {"type": "node", "id": 6875975979, "lat": 40.1542498, "lon": 19.6121095}, {"type": "node", "id": 6875975980, "lat": 40.1543028, "lon": 19.612197}, {"type": "node", "id": 6875975981, "lat": 40.154169, "lon": 19.6123357}, {"type": "node", "id": 6876022541, "lat": 40.1595652, "lon": 19.6006879}, {"type": "node", "id": 6876022542, "lat": 40.1595454, "lon": 19.6007995}, {"type": "node", "id": 6876022543, "lat": 40.1596678, "lon": 19.6009104}, {"type": "node", "id": 6876022544, "lat": 40.1596998, "lon": 19.6008499}, {"type": "node", "id": 6876022545, "lat": 40.1597236, "lon": 19.6008714}, {"type": "node", "id": 6876022546, "lat": 40.1597557, "lon": 19.6008107}, {"type": "node", "id": 6876022547, "lat": 40.1596478, "lon": 19.600713}, {"type": "node", "id": 6899827301, "lat": 40.4272305, "lon": 19.4920417, "tags": {"amenity": "restaurant", "name": "Le Palazzine Hotel"}}, {"type": "node", "id": 7195376501, "lat": 40.1576102, "lon": 19.6067842}, {"type": "node", "id": 7195376502, "lat": 40.1575127, "lon": 19.6069432}, {"type": "node", "id": 7195376503, "lat": 40.157581, "lon": 19.607015}, {"type": "node", "id": 7195376504, "lat": 40.1576786, "lon": 19.606856}, {"type": "node", "id": 7519410086, "lat": 40.1571271, "lon": 19.6216547}, {"type": "node", "id": 7519410087, "lat": 40.1570645, "lon": 19.6217719}, {"type": "node", "id": 7519410088, "lat": 40.1569947, "lon": 19.621708}, {"type": "node", "id": 7519410089, "lat": 40.1570573, "lon": 19.6215909}, {"type": "node", "id": 7698945585, "lat": 40.4552406, "lon": 19.4873507, "tags": {"amenity": "restaurant", "name": "Tre Forchette"}}, {"type": "node", "id": 7780785311, "lat": 40.4992781, "lon": 19.4626683, "tags": {"addr:city": "Vlor\u00eb", "addr:street": "Rr. e Tiran\u00ebs", "air_conditioning": "yes", "amenity": "restaurant", "internet_access": "wlan", "name": "Arta & Mario"}}, {"type": "node", "id": 7780788196, "lat": 40.454964, "lon": 19.4865077, "tags": {"addr:city": "Vlor\u00eb", "addr:street": "Bulevardi Ismail Qemali", "amenity": "cafe", "check_date": "2025-03-06", "internet_access": "wlan", "name": "Mulliri i Vjet\u00ebr", "outdoor_seating": "yes", "smoking": "outside"}}, {"type": "node", "id": 7780801935, "lat": 40.4156348, "lon": 19.4842277, "tags": {"addr:city": "Vlor\u00eb", "addr:street": "Rruga Sali Vranishti", "amenity": "restaurant", "name": "Djepi"}}, {"type": "node", "id": 7948998674, "lat": 40.1020487, "lon": 19.7438973, "tags": {"amenity": "restaurant"}}, {"type": "node", "id": 7949028718, "lat": 40.1019962, "lon": 19.7462837, "tags": {"amenity": "cafe"}}, {"type": "node", "id": 7949032377, "lat": 40.1012887, "lon": 19.7451926, "tags": {"amenity": "restaurant", "name": "Piazza", "outdoor_seating": "yes"}}, {"type": "node", "id": 7949055738, "lat": 40.101337, "lon": 19.7449575, "tags": {"amenity": "restaurant", "name": "Hercules"}}, {"type": "node", "id": 7949059397, "lat": 40.1012812, "lon": 19.7452512, "tags": {"amenity": "restaurant", "name": "Enigma"}}, {"type": "node", "id": 7949060597, "lat": 40.1012773, "lon": 19.7461402, "tags": {"amenity": "restaurant"}}, {"type": "node", "id": 7949062393, "lat": 40.0979457, "lon": 19.7531229, "tags": {"amenity": "restaurant", "name": "Kolngji"}}, {"type": "node", "id": 7949065400, "lat": 40.100062, "lon": 19.7478963, "tags": {"amenity": "restaurant", "name": "Arxontiko", "name:el": "\u0391\u03c1\u03c7\u03bf\u03bd\u03c4\u03b9\u03ba\u03cc"}}, {"type": "node", "id": 8026410621, "lat": 40.5074648, "lon": 19.4118427, "tags": {"amenity": "restaurant", "cuisine": "italian", "name": "Markelino"}}, {"type": "node", "id": 8026433070, "lat": 40.4647129, "lon": 19.4664135, "tags": {"amenity": "cafe"}}, {"type": "node", "id": 8026435870, "lat": 40.4573661, "lon": 19.4876985, "tags": {"amenity": "cafe", "check_date": "2025-03-06", "cuisine": "regional;albanian;italian", "delivery": "yes", "name": "Bold Bistro"}}, {"type": "node", "id": 8026440489, "lat": 40.4976689, "lon": 19.4261811, "tags": {"amenity": "restaurant", "name": "Olsi"}}, {"type": "node", "id": 8026449081, "lat": 40.1385871, "lon": 19.6962945, "tags": {"amenity": "restaurant", "cuisine": "mediterranean;barbecue", "name": "Marko"}}, {"type": "node", "id": 8026463657, "lat": 40.4525175, "lon": 19.4876971, "tags": {"amenity": "cafe", "name": "Toscana"}}, {"type": "node", "id": 8026464031, "lat": 40.4573154, "lon": 19.4883144, "tags": {"amenity": "restaurant", "name": "Roma Pizzeria Trattoria"}}, {"type": "node", "id": 8026464033, "lat": 40.4985799, "lon": 19.4239132, "tags": {"addr:city": "Vlore", "addr:housenumber": "20", "addr:postcode": "9414", "addr:street": "Rruga e Pishave", "amenity": "restaurant", "cuisine": "fish;local;mediterranean;meat", "name": "Restorant Alimuca", "opening_hours": "Mo-Su 09:00-21:00", "phone": "+355 68 298 4647", "website": "https://restorant-alimuci.business.site/"}}, {"type": "node", "id": 8026475739, "lat": 40.4586538, "lon": 19.4668214, "tags": {"amenity": "restaurant", "name": "Emiral", "outdoor_seating": "yes"}}, {"type": "node", "id": 8026477932, "lat": 40.4583075, "lon": 19.4692891, "tags": {"amenity": "cafe"}}, {"type": "node", "id": 8026481203, "lat": 40.4576142, "lon": 19.4871936, "tags": {"amenity": "restaurant", "check_date": "2025-03-06", "cuisine": "italian;pizza;grill", "name": "Pizza Time", "phone": "068 87 70 033"}}, {"type": "node", "id": 8026483223, "lat": 40.4525576, "lon": 19.48667, "tags": {"amenity": "cafe", "name": "Pasti\u00e7eri \u00c7u\u00e7aj"}}, {"type": "node", "id": 8026483225, "lat": 40.4483573, "lon": 19.4940134, "tags": {"addr:postcode": "9401", "amenity": "restaurant", "cuisine": "seafood;regional;midterrain", "internet_access": "wlan", "name": "Restorant Tradicional", "opening_hours": "Mo-Su 12:00-22:00", "toilets": "yes"}}, {"type": "node", "id": 8026483824, "lat": 40.1022386, "lon": 19.7461374, "tags": {"amenity": "restaurant", "breakfast": "yes", "cuisine": "regional;mediterranean;seafood", "name": "Vironas", "outdoor_seating": "yes"}}, {"type": "node", "id": 8026483825, "lat": 40.4985065, "lon": 19.4249508, "tags": {"amenity": "restaurant", "name": "Pashaj"}}, {"type": "node", "id": 8026487359, "lat": 40.4515201, "lon": 19.4886647, "tags": {"amenity": "cafe", "name": "Lucas Coffee"}}, {"type": "node", "id": 8026487360, "lat": 40.3613341, "lon": 19.4808252, "tags": {"amenity": "restaurant", "name": "Liberia"}}, {"type": "node", "id": 8026492307, "lat": 40.3616087, "lon": 19.4798729, "tags": {"amenity": "restaurant", "cuisine": "seafood;mediterranean", "name": "Laberia", "outdoor_seating": "yes"}}, {"type": "node", "id": 8026493432, "lat": 40.4573548, "lon": 19.4870734, "tags": {"amenity": "restaurant", "check_date": "2025-03-06", "name": "Natyral"}}, {"type": "node", "id": 8026494299, "lat": 40.4580389, "lon": 19.4684182, "tags": {"amenity": "cafe", "check_date:opening_hours": "2025-02-26", "name": "Furre Buke", "opening_hours:signed": "no"}}, {"type": "node", "id": 8738234003, "lat": 40.1013002, "lon": 19.7450949, "tags": {"amenity": "restaurant", "name": "Pasticeri Himara 1928", "outdoor_seating": "yes"}}, {"type": "node", "id": 8738281351, "lat": 40.4579027, "lon": 19.4686506, "tags": {"amenity": "cafe", "name": "Harli Espresso"}}, {"type": "node", "id": 8910546254, "lat": 40.3650976, "lon": 19.4809803}, {"type": "node", "id": 8910546255, "lat": 40.3649718, "lon": 19.4809463}, {"type": "node", "id": 8910546256, "lat": 40.3649995, "lon": 19.4807692}, {"type": "node", "id": 8910546257, "lat": 40.3651254, "lon": 19.4808032}, {"type": "node", "id": 8910553097, "lat": 40.4579225, "lon": 19.4814537, "tags": {"amenity": "restaurant", "cuisine": "grill;bar_and_grill", "name": "Grill & Beer"}}, {"type": "node", "id": 9035777748, "lat": 40.3280458, "lon": 19.4847572}, {"type": "node", "id": 9035777749, "lat": 40.327982, "lon": 19.4847439}, {"type": "node", "id": 9035777750, "lat": 40.327954, "lon": 19.484948}, {"type": "node", "id": 9035777751, "lat": 40.3280177, "lon": 19.484958}, {"type": "node", "id": 9072878223, "lat": 40.1015524, "lon": 19.7447097, "tags": {"amenity": "restaurant", "name": "Kanda", "opening_hours": "19:00-00:00"}}, {"type": "node", "id": 9153931177, "lat": 40.4583032, "lon": 19.4819009, "tags": {"amenity": "cafe", "name": "Grind"}}, {"type": "node", "id": 9153931181, "lat": 40.4651146, "lon": 19.4826761, "tags": {"amenity": "cafe"}}, {"type": "node", "id": 9153931184, "lat": 40.4683144, "lon": 19.4908247, "tags": {"amenity": "cafe"}}, {"type": "node", "id": 9153931186, "lat": 40.4680248, "lon": 19.4913206, "tags": {"amenity": "cafe", "name": "Elis Club"}}, {"type": "node", "id": 9153931189, "lat": 40.4651154, "lon": 19.4906391, "tags": {"amenity": "cafe"}}, {"type": "node", "id": 9153931198, "lat": 40.4580613, "lon": 19.4824947, "tags": {"amenity": "cafe", "name": "Mon amour"}}, {"type": "node", "id": 9153931207, "lat": 40.4578856, "lon": 19.4824463, "tags": {"amenity": "cafe"}}, {"type": "node", "id": 9153931216, "lat": 40.4594138, "lon": 19.4891521, "tags": {"amenity": "cafe"}}, {"type": "node", "id": 9153938230, "lat": 40.4646518, "lon": 19.4902503, "tags": {"amenity": "cafe", "name": "Kei"}}, {"type": "node", "id": 9153938239, "lat": 40.4611704, "lon": 19.4917982, "tags": {"amenity": "cafe"}}, {"type": "node", "id": 9153938457, "lat": 40.4582796, "lon": 19.4840343, "tags": {"amenity": "cafe"}}, {"type": "node", "id": 9153938460, "lat": 40.4589711, "lon": 19.490419, "tags": {"amenity": "cafe"}}, {"type": "node", "id": 9153938474, "lat": 40.4678218, "lon": 19.4858191, "tags": {"amenity": "cafe"}}, {"type": "node", "id": 9153938476, "lat": 40.4658144, "lon": 19.4856103, "tags": {"amenity": "cafe", "name": "Medusa"}}, {"type": "node", "id": 9153938478, "lat": 40.4644957, "lon": 19.4863443, "tags": {"amenity": "cafe"}}, {"type": "node", "id": 9153938481, "lat": 40.4615573, "lon": 19.4830547, "tags": {"amenity": "cafe"}}, {"type": "node", "id": 9153939461, "lat": 40.4674982, "lon": 19.4899614, "tags": {"amenity": "cafe"}}, {"type": "node", "id": 9153939462, "lat": 40.4685745, "lon": 19.4903234, "tags": {"amenity": "cafe"}}, {"type": "node", "id": 9153939486, "lat": 40.4567306, "lon": 19.4851702, "tags": {"amenity": "cafe", "name": "Sara"}}, {"type": "node", "id": 9153939494, "lat": 40.4574822, "lon": 19.4882472, "tags": {"amenity": "restaurant", "check_date": "2025-03-06", "name": "Esmiani"}}, {"type": "node", "id": 9153939495, "lat": 40.4572799, "lon": 19.4885601, "tags": {"amenity": "cafe"}}, {"type": "node", "id": 9153942923, "lat": 40.4590852, "lon": 19.4905034, "tags": {"amenity": "cafe"}}, {"type": "node", "id": 9153942925, "lat": 40.4683243, "lon": 19.4881122, "tags": {"amenity": "cafe"}}, {"type": "node", "id": 9153942930, "lat": 40.4412748, "lon": 19.5204835, "tags": {"amenity": "restaurant"}}, {"type": "node", "id": 9153948017, "lat": 40.4606476, "lon": 19.4898382, "tags": {"amenity": "cafe"}}, {"type": "node", "id": 9153948018, "lat": 40.4609242, "lon": 19.4904986, "tags": {"amenity": "cafe"}}, {"type": "node", "id": 9153948023, "lat": 40.4612276, "lon": 19.4929386, "tags": {"amenity": "cafe"}}, {"type": "node", "id": 9153948025, "lat": 40.4630008, "lon": 19.491909, "tags": {"amenity": "cafe"}}, {"type": "node", "id": 9153948026, "lat": 40.4641098, "lon": 19.4916702, "tags": {"amenity": "cafe"}}, {"type": "node", "id": 9153948027, "lat": 40.4644835, "lon": 19.4914264, "tags": {"amenity": "cafe"}}, {"type": "node", "id": 9153949021, "lat": 40.4629907, "lon": 19.4860576, "tags": {"amenity": "cafe"}}, {"type": "node", "id": 9155651918, "lat": 40.4587966, "lon": 19.4913431, "tags": {"amenity": "cafe"}}, {"type": "node", "id": 9282711680, "lat": 40.1525572, "lon": 19.6388779, "tags": {"amenity": "restaurant", "name": "Sofia"}}, {"type": "node", "id": 9282711685, "lat": 40.1970314, "lon": 19.5960668, "tags": {"amenity": "restaurant", "name": "Apollonia"}}, {"type": "node", "id": 9282711687, "lat": 40.209844, "lon": 19.5797675, "tags": {"amenity": "restaurant", "name": "Hibraj"}}, {"type": "node", "id": 9282711688, "lat": 40.2098248, "lon": 19.5787977, "tags": {"amenity": "restaurant", "name": "Hamiti"}}, {"type": "node", "id": 9282711690, "lat": 40.2144444, "lon": 19.579061, "tags": {"amenity": "restaurant", "name": "Bego"}}, {"type": "node", "id": 9282711691, "lat": 40.2149296, "lon": 19.5788749, "tags": {"amenity": "restaurant", "name": "Freskia"}}, {"type": "node", "id": 9282711692, "lat": 40.2152549, "lon": 19.5795729, "tags": {"amenity": "restaurant", "cuisine": "steak_house", "name": "Steak House Llogara"}}, {"type": "node", "id": 9282711694, "lat": 40.2156791, "lon": 19.5794154, "tags": {"amenity": "restaurant", "name": "Andoni"}}, {"type": "node", "id": 9282711695, "lat": 40.2160506, "lon": 19.5792101, "tags": {"amenity": "restaurant", "name": "Noeli"}}, {"type": "node", "id": 9282711697, "lat": 40.2340915, "lon": 19.5613695, "tags": {"amenity": "restaurant", "name": "Alegria"}}, {"type": "node", "id": 9282711701, "lat": 40.2537154, "lon": 19.535076, "tags": {"amenity": "restaurant", "name": "Mrizi Pishave"}}, {"type": "node", "id": 9282711704, "lat": 40.4351793, "lon": 19.4956468, "tags": {"amenity": "restaurant", "name": "Piera 6", "opening_hours": "Mo-Su 11:00-23:00", "phone": "+355694816211"}}, {"type": "node", "id": 9282711706, "lat": 40.4343542, "lon": 19.496131, "tags": {"amenity": "restaurant", "name": "Juna"}}, {"type": "node", "id": 9282711715, "lat": 40.4283907, "lon": 19.4919472, "tags": {"amenity": "restaurant", "cuisine": "pizza", "name": "Vila Toto", "opening_hours": "Mo-Su 06:00-24:00"}}, {"type": "node", "id": 9282711718, "lat": 40.4340573, "lon": 19.4962324, "tags": {"amenity": "restaurant", "name": "Itarus"}}, {"type": "node", "id": 9282711730, "lat": 40.4306277, "lon": 19.4943278, "tags": {"amenity": "restaurant", "level": "1", "name": "The Yacht Restaurant", "opening_hours": "Mo-Su 12:00-23:00", "phone": "+355697000002"}}, {"type": "node", "id": 9283006769, "lat": 40.2084943, "lon": 19.5808839, "tags": {"amenity": "restaurant", "name": "Uji i Panjes"}}, {"type": "node", "id": 9297321823, "lat": 40.1966079, "lon": 19.5960255}, {"type": "node", "id": 9297321824, "lat": 40.1966853, "lon": 19.59605}, {"type": "node", "id": 9297321825, "lat": 40.1967177, "lon": 19.5958745}, {"type": "node", "id": 9789013828, "lat": 40.1561057, "lon": 19.6097674}, {"type": "node", "id": 9789013829, "lat": 40.1562954, "lon": 19.609372}, {"type": "node", "id": 9789013830, "lat": 40.1561461, "lon": 19.6092494}, {"type": "node", "id": 9789013831, "lat": 40.1559564, "lon": 19.6096448}, {"type": "node", "id": 9789808176, "lat": 40.1559557, "lon": 19.6088339}, {"type": "node", "id": 9789808177, "lat": 40.1559265, "lon": 19.6089645}, {"type": "node", "id": 9789808178, "lat": 40.1560352, "lon": 19.6090061}, {"type": "node", "id": 9789808179, "lat": 40.1560644, "lon": 19.6088755}, {"type": "node", "id": 9797064868, "lat": 40.5283558, "lon": 19.7282896}, {"type": "node", "id": 9797064869, "lat": 40.5282991, "lon": 19.7282583}, {"type": "node", "id": 9797064870, "lat": 40.5282617, "lon": 19.7283759}, {"type": "node", "id": 9797064871, "lat": 40.5283183, "lon": 19.7284072}, {"type": "node", "id": 9797064872, "lat": 40.5283034, "lon": 19.7283436, "tags": {"amenity": "cafe", "name": "DJ Aragosta"}}, {"type": "node", "id": 9830456617, "lat": 40.2536764, "lon": 19.5351476, "tags": {"amenity": "restaurant"}}, {"type": "node", "id": 9834108958, "lat": 40.1094709, "lon": 19.71882, "tags": {"amenity": "restaurant", "cuisine": "seafood", "name": "Blue Bay", "smoking": "outside", "toilets": "yes", "toilets:access": "customers", "toilets:wheelchair": "no", "wheelchair": "no"}}, {"type": "node", "id": 9926667692, "lat": 40.4152783, "lon": 19.484901}, {"type": "node", "id": 9926667693, "lat": 40.4152123, "lon": 19.4849459}, {"type": "node", "id": 9926667694, "lat": 40.4152598, "lon": 19.4850664}, {"type": "node", "id": 9926667695, "lat": 40.4151633, "lon": 19.4851322}, {"type": "node", "id": 9926667696, "lat": 40.415396, "lon": 19.4857221}, {"type": "node", "id": 9926667697, "lat": 40.4155586, "lon": 19.4856114}, {"type": "node", "id": 9926696846, "lat": 40.4229344, "lon": 19.4894337}, {"type": "node", "id": 9926696847, "lat": 40.4229236, "lon": 19.4894862}, {"type": "node", "id": 9926696848, "lat": 40.4230176, "lon": 19.4895194}, {"type": "node", "id": 9926696849, "lat": 40.4230145, "lon": 19.4895344}, {"type": "node", "id": 9926696850, "lat": 40.4230755, "lon": 19.489556}, {"type": "node", "id": 9926696851, "lat": 40.4230893, "lon": 19.4894884}, {"type": "node", "id": 9955132829, "lat": 40.1088311, "lon": 19.7251634, "tags": {"amenity": "cafe"}}, {"type": "node", "id": 9955538502, "lat": 40.1017311, "lon": 19.743878, "tags": {"amenity": "restaurant", "name": "Bella Italia", "phone": "0683935777"}}, {"type": "node", "id": 10026601717, "lat": 40.4496462, "lon": 19.4916338, "tags": {"addr:street": "Rruga Shyqyri AliMerko", "amenity": "restaurant", "cuisine": "italian_pizza", "name": "Bar Piceri Restaurant \"Anchor\"", "name:en": "Restaurant \"Anchor\""}}, {"type": "node", "id": 10103444717, "lat": 40.4244486, "lon": 19.4907552, "tags": {"addr:postcode": "9405", "addr:street": "Rruga Aleksander Moisiu", "amenity": "restaurant", "internet_access": "wlan", "name:en": "T\u00e9kada Restaurant", "website": "https://instagram.com/tekadavlore"}}, {"type": "node", "id": 10581689868, "lat": 40.1219897, "lon": 19.6980887}, {"type": "node", "id": 10745436613, "lat": 40.4580035, "lon": 19.4669674, "tags": {"addr:city": "Vlor\u00eb", "addr:street": "FF58+6RC", "amenity": "restaurant", "cuisine": "pizza;fish", "name": "Minimal", "opening_hours": "Mo-Su 08:00-23:00", "phone": "+355 693939439", "website": "https://minimal.al"}}, {"type": "node", "id": 10776266105, "lat": 40.1453537, "lon": 19.6287124, "tags": {"amenity": "restaurant", "cuisine": "balkan;fish_and_chips;friture;seafood", "diet:vegan": "yes", "diet:vegetarian": "yes", "name:de": "Pajti Bar Restorant", "name:en": "Pajti Bar Restorant"}}, {"type": "node", "id": 10896801694, "lat": 40.4398893, "lon": 19.4955708, "tags": {"addr:city": "Vlor\u00eb", "addr:postcode": "9401", "addr:street": "SH8", "air_conditioning": "yes", "amenity": "restaurant", "cuisine": "italian;pizza;mediterranean;steak_house", "diet:dairy_free": "yes", "diet:fish": "yes", "diet:healthy": "yes", "diet:meat": "yes", "diet:mediterranean": "yes", "name": "El Mar Restaurant", "phone": "0694453217", "website": "https://www.facebook.com/people/El-Mar-Restorant-Piceri/100067426935862/"}}, {"type": "node", "id": 10896828117, "lat": 40.14082, "lon": 19.641795, "tags": {"addr:street": "Rruga Jaliskari", "amenity": "restaurant", "cuisine": "regional;seafood;italian", "name": "Baha by Nassau", "phone": "+355683210099", "website": "https://www.instagram.com/baha_albania/"}}, {"type": "node", "id": 11052435836, "lat": 40.1016657, "lon": 19.7450637, "tags": {"amenity": "restaurant", "check_date": "2024-08-30", "contact:email": "fredisrestaurant@gmail.com", "contact:instagram": "fredisrestaurant", "contact:phone": "+355 69 624 2570", "contact:website": "https://fredisrestaurant.business.site", "cuisine": "seafood", "diet:fish": "yes", "name": "Fredi\u2019s Seafood", "outdoor_seating": "yes", "payment:cash": "yes", "phone": "+355696242570", "source": "survey", "toilets": "yes", "wheelchair": "limited"}}, {"type": "node", "id": 11084025506, "lat": 40.5000918, "lon": 19.4209372, "tags": {"amenity": "restaurant", "cuisine": "balkan;fish", "internet_access": "wlan", "name": "Restorant Regina", "name:de": "Restaurant Regina", "name:en": "Restaurant Regina"}}, {"type": "node", "id": 11169126932, "lat": 40.3823674, "lon": 19.4010621, "tags": {"amenity": "restaurant", "name": "Zhanpovel"}}, {"type": "node", "id": 11191028539, "lat": 40.4956262, "lon": 19.4275268, "tags": {"amenity": "restaurant", "cuisine": "fish;italian_pizza;pasta;seafood", "name:en": "Planet Beach"}}, {"type": "node", "id": 11236632045, "lat": 40.414922, "lon": 19.4839533, "tags": {"amenity": "restaurant", "name": "Mandarine"}}, {"type": "node", "id": 11236635843, "lat": 40.4150732, "lon": 19.4849473, "tags": {"amenity": "restaurant", "name": "Pano"}}, {"type": "node", "id": 11333213663, "lat": 40.4905284, "lon": 19.4378856, "tags": {"amenity": "restaurant", "name": "Oannas Restaurant"}}, {"type": "node", "id": 11333213664, "lat": 40.4890924, "lon": 19.4415951, "tags": {"amenity": "restaurant"}}, {"type": "node", "id": 11333213665, "lat": 40.4888394, "lon": 19.441123, "tags": {"amenity": "restaurant", "indoor_seating": "yes", "name": "Kaco Fish", "outdoor_seating": "yes"}}, {"type": "node", "id": 11333213666, "lat": 40.4916055, "lon": 19.4477588, "tags": {"amenity": "restaurant", "name": "Malko Fish House"}}, {"type": "node", "id": 11333213667, "lat": 40.5015958, "lon": 19.4609445, "tags": {"amenity": "restaurant", "name": "Barba"}}, {"type": "node", "id": 11333526550, "lat": 40.5136197, "lon": 19.7483647, "tags": {"amenity": "restaurant"}}, {"type": "node", "id": 11353739195, "lat": 40.4742863, "lon": 19.4902245, "tags": {"amenity": "cafe"}}, {"type": "node", "id": 11353765213, "lat": 40.4740344, "lon": 19.4903306, "tags": {"amenity": "cafe"}}, {"type": "node", "id": 11353772344, "lat": 40.474375, "lon": 19.4901937, "tags": {"amenity": "cafe", "name": "Aliko Sevasteri"}}, {"type": "node", "id": 11353773232, "lat": 40.4741357, "lon": 19.4902892, "tags": {"amenity": "cafe"}}, {"type": "node", "id": 11353773405, "lat": 40.474188, "lon": 19.4902792, "tags": {"amenity": "cafe", "name": "Cipini"}}, {"type": "node", "id": 11353775077, "lat": 40.4742404, "lon": 19.4902552, "tags": {"amenity": "cafe"}}, {"type": "node", "id": 11367975172, "lat": 40.1442627, "lon": 19.6341179, "tags": {"amenity": "restaurant", "name": "Luciano"}}, {"type": "node", "id": 11377037943, "lat": 40.1404961, "lon": 19.6927538, "tags": {"amenity": "restaurant", "name": "Mom's Food"}}, {"type": "node", "id": 11377037960, "lat": 40.4225671, "lon": 19.4892485, "tags": {"amenity": "restaurant", "name": "Amantia Pizzeria"}}, {"type": "node", "id": 11377037961, "lat": 40.4723371, "lon": 19.4919044, "tags": {"amenity": "restaurant", "name": "Amos Caf\u00e9"}}, {"type": "node", "id": 11377037962, "lat": 40.4723205, "lon": 19.4919572, "tags": {"amenity": "restaurant", "name": "Foleza Pizzeria"}}, {"type": "node", "id": 11401385869, "lat": 40.3426363, "lon": 19.4800951, "tags": {"amenity": "restaurant", "name:en": "Vela Restaurant"}}, {"type": "node", "id": 11731540069, "lat": 40.4697839, "lon": 19.4865808, "tags": {"amenity": "restaurant", "name:en": "Grill - Hot Zone"}}, {"type": "node", "id": 11755207069, "lat": 40.4719365, "lon": 19.4921542, "tags": {"addr:street": "Justin Godard", "amenity": "cafe", "check_date:opening_hours": "2025-02-26", "cuisine": "cake;coffee_shop;tea", "name": "Komiteti", "opening_hours:signed": "no"}}, {"type": "node", "id": 11840856526, "lat": 40.4618762, "lon": 19.4894153, "tags": {"addr:city": "Vlor\u00eb", "addr:postcode": "9401", "addr:street": "Bulevardi Ismail Qemali", "amenity": "restaurant", "contact:instagram": "https://instagram.com/3_fiori?igshid=l5grjisu7rq0", "cuisine": "pizza;fries;fast_food;sandwich", "name": "3 Fiori", "opening_hours": "Mo-Su 08:00-02:00", "phone": "+355698724333"}}, {"type": "node", "id": 11844968097, "lat": 40.4475547, "lon": 19.4940382, "tags": {"amenity": "restaurant", "name": "TE SKERDI"}}, {"type": "node", "id": 11907299069, "lat": 40.4527666, "lon": 19.4965145, "tags": {"amenity": "restaurant", "cuisine": "italian_pizza;sandwich", "name": "Zio", "name:en": "Pizzeria \"Zio Luti\"", "name:sq": "Zio Luti piceri"}}, {"type": "node", "id": 11907410569, "lat": 40.444407, "lon": 19.4952596, "tags": {"amenity": "restaurant", "cuisine": "italian;italian_pizza", "name:en": "Bellini"}}, {"type": "node", "id": 11907412169, "lat": 40.4442748, "lon": 19.4952925, "tags": {"amenity": "cafe", "name:en": "Broadway"}}, {"type": "node", "id": 12085173524, "lat": 40.4524443, "lon": 19.4883716, "tags": {"addr:city": "Vlor\u00eb", "addr:street": "Rruga \u00c7ameria", "amenity": "restaurant", "name": "Novus Traditional-Food-Restaurant", "opening_hours": "Mo-Sa 12:00-23:00; Su 09:00-23:00", "phone": "+355699969111"}}, {"type": "node", "id": 12097688034, "lat": 40.3333169, "lon": 19.4662825}, {"type": "node", "id": 12097688035, "lat": 40.3332341, "lon": 19.4664203}, {"type": "node", "id": 12120207704, "lat": 40.1104746, "lon": 19.7216541}, {"type": "node", "id": 12120207713, "lat": 40.1103599, "lon": 19.7217444}, {"type": "node", "id": 12120207724, "lat": 40.1104691, "lon": 19.7217545}, {"type": "node", "id": 12120207727, "lat": 40.1103654, "lon": 19.721644}, {"type": "node", "id": 12120742040, "lat": 40.1060309, "lon": 19.7291005, "tags": {"air_conditioning": "no", "amenity": "restaurant", "name": "The Jester\u2019s Taverna", "outdoor_seating": "yes", "reservation": "yes", "website": "https://thejesterstaverna.com/", "website:menu": "https://thejesterstaverna.com"}}, {"type": "node", "id": 12152456925, "lat": 40.0998697, "lon": 19.7477883, "tags": {"amenity": "restaurant", "check_date": "2024-09-02", "name": "Acta"}}, {"type": "node", "id": 12155041880, "lat": 40.3884956, "lon": 19.6056396, "tags": {"amenity": "restaurant", "name": "Bar Restaurant Zanaj"}}, {"type": "node", "id": 12159720602, "lat": 40.2414205, "lon": 19.7024418, "tags": {"amenity": "restaurant", "name": "Bar Restorant Ga\u00e7aj", "opening_hours": "Mo 05:30-24:00; Tu-Su 05:30-00:30", "phone": "+355682979779"}}, {"type": "node", "id": 12165086274, "lat": 40.3282786, "lon": 19.4748232, "tags": {"addr:city": "Orikum", "addr:postcode": "9404", "addr:street": "Bulevardi Princesha Rugjine", "amenity": "cafe", "name": "Pasti\u00e7eri Luani", "opening_hours": "Mo-Su 07:00-23:30", "phone": "+355672185442"}}, {"type": "node", "id": 12290633101, "lat": 40.4565196, "lon": 19.4851773, "tags": {"amenity": "restaurant", "cuisine": "regional", "name": "Sofra e Lakrorit", "opening_hours": "Tu-Su 12:00-16:00, 18:00-21:00", "phone": "+355685107654"}}, {"type": "node", "id": 12299117101, "lat": 40.1274595, "lon": 19.6702006, "tags": {"amenity": "restaurant", "name": "Fresh - Honest - Local"}}, {"type": "node", "id": 12299117201, "lat": 40.1273024, "lon": 19.670607, "tags": {"amenity": "restaurant", "name": "Bar Restaurant SEO"}}, {"type": "node", "id": 12299117301, "lat": 40.1266709, "lon": 19.6711892, "tags": {"amenity": "restaurant"}}, {"type": "node", "id": 12365654521, "lat": 40.415198, "lon": 19.4852601}, {"type": "node", "id": 12456930897, "lat": 40.1427686, "lon": 19.6382039}, {"type": "node", "id": 12456958915, "lat": 40.1454062, "lon": 19.6338642, "tags": {"amenity": "restaurant", "name": "Mr. Chicken", "phone": "0692416174"}}, {"type": "node", "id": 12457166535, "lat": 40.1468983, "lon": 19.6338997, "tags": {"amenity": "restaurant", "name": "Qui si Mangia", "opening_hours": "6.30 - 12.30", "phone": "0693483821"}}, {"type": "node", "id": 12458803515, "lat": 40.1496684, "lon": 19.6341967, "tags": {"amenity": "restaurant", "cuisine": "pizza;italian", "name": "Proper Pizza", "opening_hours": "12.00 - 24.00", "phone": "+35569 777 8888", "website": "https://properpizza.al/"}}, {"type": "node", "id": 12623273001, "lat": 40.3305651, "lon": 19.4625611, "tags": {"addr:street": "Bulevardi Princesha Rugjine", "amenity": "cafe", "check_date:opening_hours": "2025-02-27", "name": "Sunrise", "opening_hours:signed": "no"}}, {"type": "node", "id": 12623330501, "lat": 40.3270743, "lon": 19.4560594, "tags": {"amenity": "restaurant", "name": "Genti"}}, {"type": "node", "id": 12623331431, "lat": 40.3262667, "lon": 19.4541543, "tags": {"amenity": "restaurant", "name": "Oriku Restorant", "opening_hours": "Mo-Sa 10:00-19:00"}}, {"type": "node", "id": 12626243401, "lat": 40.4576251, "lon": 19.4863901, "tags": {"addr:street": "Rruga Gjergj Arianiti", "amenity": "restaurant", "name": "Taverna Del Sol"}}, {"type": "node", "id": 12633466001, "lat": 40.4580265, "lon": 19.4854853, "tags": {"addr:street": "Rruga Gjergj Arianiti", "amenity": "cafe", "name": "CaffePoli"}}, {"type": "node", "id": 12638297696, "lat": 40.4605159, "lon": 19.4898216, "tags": {"amenity": "cafe", "check_date:opening_hours": "2025-03-05", "name": "Kafe Qebaptore", "opening_hours:signed": "no"}}, {"type": "node", "id": 12640454917, "lat": 40.4885025, "lon": 19.4374819, "tags": {"amenity": "restaurant", "name": "Deti Jon Te Ziniu"}}, {"type": "node", "id": 12640495286, "lat": 40.4889102, "lon": 19.4375618, "tags": {"amenity": "restaurant"}}, {"type": "node", "id": 12640657041, "lat": 40.489961, "lon": 19.4312768, "tags": {"amenity": "restaurant", "name": "Zulu"}}, {"type": "node", "id": 12640660416, "lat": 40.4907439, "lon": 19.4311059, "tags": {"amenity": "restaurant", "name": "Karafiril"}}, {"type": "node", "id": 12640721127, "lat": 40.4953143, "lon": 19.4278306, "tags": {"amenity": "restaurant", "name": "Bar Restorant Pizzeri Kapiteni"}}, {"type": "node", "id": 12640815134, "lat": 40.5007028, "lon": 19.4195004, "tags": {"amenity": "restaurant", "name": "Ecuador Resort"}}, {"type": "node", "id": 12641131958, "lat": 40.4582735, "lon": 19.4859669, "tags": {"amenity": "restaurant", "name": "Disney Club"}}, {"type": "node", "id": 12736523620, "lat": 40.4719112, "lon": 19.4831299, "tags": {"addr:city": "Vlor\u00eb", "amenity": "cafe", "cuisine": "coffee_shop", "internet_access": "no", "name": "coffe shop"}}, {"type": "node", "id": 12802602201, "lat": 40.4432418, "lon": 19.4953628, "tags": {"amenity": "restaurant", "cuisine": "crepe;pancake;savory_pancakes", "internet_access": "wlan", "name:fr": "Creperia Dolce"}}, {"type": "node", "id": 12817420951, "lat": 40.1422105, "lon": 19.6387177}, {"type": "node", "id": 12817420952, "lat": 40.1421651, "lon": 19.6388152}, {"type": "node", "id": 12817420953, "lat": 40.1422484, "lon": 19.6388816}, {"type": "node", "id": 12817420954, "lat": 40.1422938, "lon": 19.638784}, {"type": "node", "id": 12817455782, "lat": 40.1430761, "lon": 19.6384621}, {"type": "node", "id": 12817455783, "lat": 40.1431458, "lon": 19.6382023}, {"type": "node", "id": 12817455784, "lat": 40.1428834, "lon": 19.6380035}, {"type": "node", "id": 12817455785, "lat": 40.1423278, "lon": 19.6390149}, {"type": "node", "id": 12817455786, "lat": 40.1424284, "lon": 19.6391072}, {"type": "node", "id": 12817455787, "lat": 40.1424681, "lon": 19.6390331}, {"type": "node", "id": 12817455788, "lat": 40.1423675, "lon": 19.6389408}, {"type": "node", "id": 12895755301, "lat": 40.4720429, "lon": 19.4915117, "tags": {"amenity": "restaurant", "name": "AGORA"}}, {"type": "node", "id": 12895756801, "lat": 40.4722751, "lon": 19.49214, "tags": {"amenity": "restaurant", "name": "Agora"}}, {"type": "way", "id": 197076696, "nodes": [2073742251, 2073742252, 2073742250, 2073742248, 2073742251], "tags": {"amenity": "restaurant", "building": "yes", "name": "Prinos", "tourism": "hotel"}}, {"type": "way", "id": 219010569, "nodes": [2282163064, 2290843104, 2282163065, 2482160619, 10581689868, 2482160647, 2482160623, 2482160638, 2282163066, 2282163064], "tags": {"amenity": "restaurant", "building": "yes", "cuisine": "regional"}}, {"type": "way", "id": 295278911, "nodes": [2989823543, 2989823549, 2989823545, 2989823548, 2989823552, 2989823551, 2989823560, 2989823561, 2989823565, 2989823559, 2989823543], "tags": {"amenity": "restaurant", "building": "yes", "internet_access": "wlan", "internet_access:fee": "no", "name": "Hotel Zv\u00ebrneci", "phone": "+355 69 4702000", "takeaway": "no", "tourism": "hotel"}}, {"type": "way", "id": 312064074, "nodes": [3178775840, 3178775769, 3178775807, 3178775967, 3178775840], "tags": {"amenity": "restaurant", "building": "yes"}}, {"type": "way", "id": 312064076, "nodes": [3178775840, 3178775794, 3178774459, 3178775966, 3178775769, 3178775840], "tags": {"addr:street": "SH8", "amenity": "restaurant", "building": "yes", "cuisine": "regional", "name": "Restaurant Dukan", "name:en": "Restaurant Dukat", "name:sq": "Restaurant Dukat", "phone": "++355 (0)69 5777 333"}}, {"type": "way", "id": 359515377, "nodes": [3642160358, 3642160359, 3642160360, 3642160361, 3642160358], "tags": {"amenity": "restaurant", "building": "yes", "check_date:opening_hours": "2023-08-31", "name": "Restaurant Cekodhima", "opening_hours:signed": "no", "payment:credit_cards": "yes", "payment:debit_cards": "yes"}}, {"type": "way", "id": 362645501, "nodes": [3669134164, 3669134162, 3669134159, 3669139039, 3669134146, 3669134164], "tags": {"amenity": "restaurant", "bar": "yes", "building": "yes", "name": "Bar Restaurant Blue Bay", "outdoor_seating": "yes"}}, {"type": "way", "id": 362648044, "nodes": [3669160736, 3669160735, 3669160733, 3669160734, 3669160736], "tags": {"amenity": "restaurant", "building": "yes", "cuisine": "fish", "name": "Prado Hotel"}}, {"type": "way", "id": 404183195, "nodes": [4064604679, 4064604678, 12097688034, 12097688035, 4064604680, 4064604681, 4064604679], "tags": {"amenity": "restaurant", "building": "yes", "name": "Hotel Alba Ger", "tourism": "hotel"}}, {"type": "way", "id": 404183224, "nodes": [4064604686, 4064604683, 4064604689, 4064604684, 4064604685, 4064604692, 4064604691, 4064604694, 4064604686], "tags": {"amenity": "restaurant", "building": "yes", "leisure": "outdoor_seating"}}, {"type": "way", "id": 527288058, "nodes": [5126517513, 5126517516, 5126517514, 5126517515, 5126517513], "tags": {"amenity": "cafe", "name": "Taverna Semi"}}, {"type": "way", "id": 734233367, "nodes": [6875975976, 6875975977, 6875975978, 6875975979, 6875975980, 6875975981, 6875975976], "tags": {"amenity": "restaurant", "building": "yes"}}, {"type": "way", "id": 734240567, "nodes": [6876022541, 6876022542, 6876022543, 6876022544, 6876022545, 6876022546, 6876022547, 6876022541], "tags": {"amenity": "restaurant", "building": "yes", "name": "Summer Dream"}}, {"type": "way", "id": 770869410, "nodes": [7195376501, 7195376502, 7195376503, 7195376504, 7195376501], "tags": {"amenity": "restaurant", "building": "yes", "name": "Ambel Perivolo"}}, {"type": "way", "id": 803851836, "nodes": [7519410086, 7519410087, 7519410088, 7519410089, 7519410086], "tags": {"amenity": "restaurant", "bar": "yes", "building": "roof", "cuisine": "regional;mediterranean;albanian", "internet_access": "wlan", "name": "Bar/Restaurant Natali", "outdoor_seating": "yes"}}, {"type": "way", "id": 963298475, "nodes": [8910546254, 8910546255, 8910546256, 8910546257, 8910546254], "tags": {"amenity": "cafe", "building": "yes"}}, {"type": "way", "id": 976406316, "nodes": [9035777748, 9035777749, 9035777750, 9035777751, 9035777748], "tags": {"amenity": "restaurant", "building": "yes", "building:levels": "1", "name": "Te Zagolli"}}, {"type": "way", "id": 1007784589, "nodes": [3811408231, 9297321823, 9297321824, 9297321825, 3811408231], "tags": {"amenity": "restaurant", "building": "yes", "cuisine": "regional", "ele": "1027", "name": "Panorama", "name:en": "Panorama", "name:sq": "Panorama"}}, {"type": "way", "id": 1065950398, "nodes": [9789013831, 9789013830, 9789013829, 9789013828, 9789013831], "tags": {"amenity": "restaurant", "name": "Abonor"}}, {"type": "way", "id": 1066046427, "nodes": [9789808179, 9789808178, 9789808177, 9789808176, 9789808179], "tags": {"amenity": "restaurant", "building": "roof", "cuisine": "japanese", "name": "Yamoto"}}, {"type": "way", "id": 1066970288, "nodes": [9797064868, 9797064869, 9797064870, 9797064871, 9797064868], "tags": {"amenity": "cafe", "building": "yes"}}, {"type": "way", "id": 1083162528, "nodes": [9926667692, 9926667693, 9926667694, 9926667695, 12365654521, 9926667696, 9926667697, 9926667692], "tags": {"addr:city": "Vlor\u00eb", "addr:postcode": "9403", "addr:street": "Rruga Sali Vranishti", "amenity": "restaurant", "building": "terrace", "cuisine": "mediterranean", "diet:local": "yes", "diet:vegetarian": "yes", "name": "Eden By Valza", "phone": "00366 696022022", "source": "microsoft/BuildingFootprints;local knowledge;aerial imagery;survey;streetlevel imagery", "website": "https://www.valza.al/"}}, {"type": "way", "id": 1083166275, "nodes": [9926696846, 9926696847, 9926696848, 9926696849, 9926696850, 9926696851, 9926696846], "tags": {"amenity": "restaurant", "building": "yes", "name": "Lagom Pizzeria", "source": "microsoft/BuildingFootprints"}}, {"type": "way", "id": 1308807484, "nodes": [12120207704, 12120207724, 12120207713, 12120207727, 12120207704], "tags": {"amenity": "restaurant", "building": "yes", "name": "Bar Restaurant Corali"}}, {"type": "way", "id": 1384386577, "nodes": [12456930897, 12817455782, 12817455783, 12817455784, 12456930897], "tags": {"air_conditioning": "yes", "amenity": "restaurant", "building": "restaurant", "cuisine": "pizza;seafood;fish;italian", "delivery": "yes", "diet:fish": "yes", "diet:healthy": "yes", "diet:seafood": "yes", "email": "hektorhavana@gmail.com", "internet_access": "yes", "name": "Aloni", "opening_hours": "Mo-Su 08:00-02:00", "outdoor_seating": "yes", "phone": "0672041982", "smoking": "yes", "takeaway": "yes", "toilets": "yes"}}, {"type": "way", "id": 1384386578, "nodes": [12817455785, 12817455786, 12817455787, 12817455788, 12817455785], "tags": {"air_conditioning": "no", "amenity": "restaurant", "bar": "no", "building": "restaurant", "cuisine": "pizza;italian;salad;seafood;fish", "diet:fish": "yes", "diet:seafood": "yes", "internet_access": "yes", "name": "Diego", "opening_hours": "Mo-Su 7:00-15:00,17:00-24:00", "outdoor_seating": "no", "phone": "0696714522", "reservation": "yes", "smoking": "yes", "takeaway": "yes", "toilets": "yes", "toilets:wheelchair": "no", "website": "https://cdn3.me-qr.com/pdf/16457764.pdf?time=1719939496", "wheelchair": "yes"}}, {"type": "way", "id": 1384387283, "nodes": [12817420951, 12817420952, 12817420953, 12817420954, 12817420951], "tags": {"amenity": "cafe", "building": "cafe", "cuisine": "cocktail;coffe_shop", "internet_access": "no", "name": "Salinas Beach Bar", "outdoor_seating": "no", "phone": "0692416174"}}]}