{"version": 0.6, "generator": "Overpass API 0.7.62.7 375dc00a", "osm3s": {"timestamp_osm_base": "2025-06-14T14:54:35Z", "copyright": "The data included in this document is from www.openstreetmap.org. The data is made available under ODbL."}, "elements": [{"type": "node", "id": 3139581006, "lat": 41.1226758, "lon": 28.2445159}, {"type": "node", "id": 3139581007, "lat": 41.1225031, "lon": 28.2444418}, {"type": "node", "id": 3139581008, "lat": 41.1223297, "lon": 28.2449461}, {"type": "node", "id": 3139581009, "lat": 41.1223634, "lon": 28.2449606}, {"type": "node", "id": 3139581011, "lat": 41.1225311, "lon": 28.2451106}, {"type": "node", "id": 3139586826, "lat": 41.1218592, "lon": 28.2287926}, {"type": "node", "id": 3139586827, "lat": 41.1216795, "lon": 28.228839}, {"type": "node", "id": 3139586828, "lat": 41.1217653, "lon": 28.2294247}, {"type": "node", "id": 3139586829, "lat": 41.121945, "lon": 28.2293783}, {"type": "node", "id": 3139597587, "lat": 41.0829578, "lon": 28.3683381, "tags": {"amenity": "restaurant"}}, {"type": "node", "id": 4327986939, "lat": 41.0066531, "lon": 28.5402604, "tags": {"amenity": "restaurant", "cuisine": "kebab", "name": "Kebap\u00e7\u0131 \u00c7etin Usta"}}, {"type": "node", "id": 4511415744, "lat": 40.994348, "lon": 28.5379216}, {"type": "node", "id": 4511415745, "lat": 40.9942718, "lon": 28.5379013}, {"type": "node", "id": 4511415746, "lat": 40.9942619, "lon": 28.5379257}, {"type": "node", "id": 4511415747, "lat": 40.9942509, "lon": 28.5379469}, {"type": "node", "id": 4511415748, "lat": 40.99423, "lon": 28.5379599}, {"type": "node", "id": 4511415749, "lat": 40.9942023, "lon": 28.5379648}, {"type": "node", "id": 4511415750, "lat": 40.9941907, "lon": 28.5379648}, {"type": "node", "id": 4511415751, "lat": 40.9941741, "lon": 28.5380633}, {"type": "node", "id": 4511415752, "lat": 40.9943209, "lon": 28.538104}, {"type": "node", "id": 4511977590, "lat": 41.0781728, "lon": 28.251909, "tags": {"amenity": "cafe", "name": "\u00e7ay bah\u00e7esi", "name:tr": "\u00e7ay bah\u00e7esi"}}, {"type": "node", "id": 4512010189, "lat": 41.0756167, "lon": 28.2526274, "tags": {"amenity": "cafe", "name": "Balkan cafe"}}, {"type": "node", "id": 4512027289, "lat": 41.0744678, "lon": 28.2519487, "tags": {"amenity": "restaurant", "name": "Ta\u015f f\u0131r\u0131n Ekmek", "name:tr": "Ta\u015f f\u0131r\u0131n Ekmek"}}, {"type": "node", "id": 4545543083, "lat": 41.0088263, "lon": 28.5364868, "tags": {"amenity": "cafe", "cuisine": "coffee_shop", "name": "Seyran Cafe Pastane"}}, {"type": "node", "id": 4545544624, "lat": 41.0095512, "lon": 28.5362501, "tags": {"amenity": "cafe", "name": "Dilek Pastane&Cafe"}}, {"type": "node", "id": 4545544999, "lat": 41.0079815, "lon": 28.5368164, "tags": {"amenity": "restaurant", "cuisine": "pizza", "name": "Domino Pizza"}}, {"type": "node", "id": 4545545046, "lat": 41.0080981, "lon": 28.5366011, "tags": {"amenity": "restaurant", "cuisine": "fish_and_chips", "name": "Duru Bal\u0131k"}}, {"type": "node", "id": 4545557785, "lat": 41.010127, "lon": 28.5362626, "tags": {"amenity": "cafe", "name": "Cafe Mafe"}}, {"type": "node", "id": 4545562074, "lat": 41.0077309, "lon": 28.5390591, "tags": {"amenity": "restaurant", "name": "An\u0131l Cafe B\u00f6rek"}}, {"type": "node", "id": 4545583420, "lat": 41.0089981, "lon": 28.5360142, "tags": {"amenity": "restaurant", "name": "Kokore\u00e7ci \u015e\u00fckr\u00fc Usta"}}, {"type": "node", "id": 4545596212, "lat": 41.0069254, "lon": 28.5385183, "tags": {"amenity": "restaurant", "cuisine": "turkish", "name": "Hac\u0131 Sayid Restaurant"}}, {"type": "node", "id": 4545597924, "lat": 41.0071976, "lon": 28.5379934, "tags": {"amenity": "restaurant", "cuisine": "kebab", "name": "Aska D\u00f6ner"}}, {"type": "node", "id": 4545610830, "lat": 41.0084078, "lon": 28.540004, "tags": {"amenity": "restaurant", "cuisine": "kebab", "name": "Urfal\u0131 Kebab\u00e7\u0131m"}}, {"type": "node", "id": 4545633327, "lat": 41.0073416, "lon": 28.5378952, "tags": {"amenity": "restaurant", "name": "Atmacalar Unlu Mam\u00fcller"}}, {"type": "node", "id": 4545656072, "lat": 41.0063794, "lon": 28.5373599, "tags": {"amenity": "cafe", "name": "Le Cafe Restaurant"}}, {"type": "node", "id": 4545657661, "lat": 41.0055216, "lon": 28.5411933, "tags": {"amenity": "cafe", "brand": "Mado", "brand:wikidata": "Q17116336", "brand:wikipedia": "en:Mado (food company)", "cuisine": "coffee_shop", "name": "Mado", "takeaway": "yes"}}, {"type": "node", "id": 4557132274, "lat": 41.0076449, "lon": 28.5380787, "tags": {"amenity": "restaurant", "cuisine": "kebab", "name": "Tosuno\u011flu Kebab"}}, {"type": "node", "id": 4557189677, "lat": 41.0085347, "lon": 28.5366702, "tags": {"amenity": "restaurant", "cuisine": "kebab", "name": "Bursa Kebab Evi"}}, {"type": "node", "id": 4557189681, "lat": 41.008054, "lon": 28.536689, "tags": {"amenity": "restaurant", "cuisine": "kebab", "name": "Adress D\u00f6ner & Kumpir"}}, {"type": "node", "id": 4557318093, "lat": 41.0094991, "lon": 28.535883, "tags": {"amenity": "restaurant", "name": "\u015eampiyon Kokore\u00e7"}}, {"type": "node", "id": 4557318096, "lat": 41.0093291, "lon": 28.5359178, "tags": {"amenity": "restaurant", "name": "Tatl\u0131ses \u00c7i\u011f K\u00f6fte"}}, {"type": "node", "id": 4557318099, "lat": 41.0092077, "lon": 28.5359742, "tags": {"amenity": "restaurant", "name": "Alio\u011flu Bursa \u0130skender"}}, {"type": "node", "id": 4557318100, "lat": 41.0091368, "lon": 28.5359849, "tags": {"amenity": "restaurant", "name": "\u00c7i\u011f K\u00f6ftem"}}, {"type": "node", "id": 4557318104, "lat": 41.0094612, "lon": 28.5362712, "tags": {"amenity": "restaurant", "name": "A\u015fiyan \u0130\u015fkembe"}}, {"type": "node", "id": 4557330419, "lat": 41.0096163, "lon": 28.5362387, "tags": {"amenity": "restaurant", "cuisine": "kebab", "name": "Kebap\u00e7\u0131 \u00c7etin Usta"}}, {"type": "node", "id": 4558663630, "lat": 41.0064411, "lon": 28.5367924, "tags": {"amenity": "restaurant", "cuisine": "chicken", "name": "Oba Mangal"}}, {"type": "node", "id": 4558663632, "lat": 41.0065886, "lon": 28.5370728, "tags": {"amenity": "restaurant", "cuisine": "kebab", "name": "\u00dcnal Kebap Lahmacun"}}, {"type": "node", "id": 4558707685, "lat": 41.0052573, "lon": 28.5345585, "tags": {"amenity": "restaurant", "cuisine": "turkish", "name": "Y\u00f6rem Karadeniz Pidecisi"}}, {"type": "node", "id": 4558716183, "lat": 41.0034801, "lon": 28.5329787, "tags": {"amenity": "restaurant", "cuisine": "kebab", "name": "Gaziantepli \u00d6kke\u015f Usta"}}, {"type": "node", "id": 4571253826, "lat": 41.0068751, "lon": 28.5418063}, {"type": "node", "id": 4571253827, "lat": 41.0068391, "lon": 28.5418137}, {"type": "node", "id": 4571253828, "lat": 41.0068144, "lon": 28.5418291}, {"type": "node", "id": 4571253829, "lat": 41.0068744, "lon": 28.5417084}, {"type": "node", "id": 4571253830, "lat": 41.0068953, "lon": 28.5417492}, {"type": "node", "id": 4571253831, "lat": 41.0068858, "lon": 28.5416554}, {"type": "node", "id": 4571253832, "lat": 41.0068883, "lon": 28.5416568}, {"type": "node", "id": 4571253834, "lat": 41.0066564, "lon": 28.5417413}, {"type": "node", "id": 4571253835, "lat": 41.0067172, "lon": 28.5415575}, {"type": "node", "id": 4574104855, "lat": 41.0068237, "lon": 28.5418046}, {"type": "node", "id": 4574402308, "lat": 41.0012045, "lon": 28.5375667}, {"type": "node", "id": 4574402309, "lat": 41.0012481, "lon": 28.537552}, {"type": "node", "id": 4574402310, "lat": 41.0012572, "lon": 28.5375748}, {"type": "node", "id": 4574402311, "lat": 41.0013159, "lon": 28.5375667}, {"type": "node", "id": 4574402312, "lat": 41.0013331, "lon": 28.5375949}, {"type": "node", "id": 4574402313, "lat": 41.0013442, "lon": 28.5375815}, {"type": "node", "id": 4574402314, "lat": 41.0013887, "lon": 28.5376539}, {"type": "node", "id": 4574402315, "lat": 41.0013918, "lon": 28.537737}, {"type": "node", "id": 4574402316, "lat": 41.0013523, "lon": 28.5377907}, {"type": "node", "id": 4574402317, "lat": 41.0013371, "lon": 28.5378068}, {"type": "node", "id": 4574402318, "lat": 41.0013068, "lon": 28.5377625}, {"type": "node", "id": 4574402319, "lat": 41.0012906, "lon": 28.5377773}, {"type": "node", "id": 4574402320, "lat": 41.0012693, "lon": 28.5377853}, {"type": "node", "id": 4574402321, "lat": 41.0012288, "lon": 28.5377826}, {"type": "node", "id": 4574402322, "lat": 41.0012005, "lon": 28.5377451}, {"type": "node", "id": 4574402323, "lat": 41.0011944, "lon": 28.5376834}, {"type": "node", "id": 4574402324, "lat": 41.0012187, "lon": 28.5376539}, {"type": "node", "id": 4574402325, "lat": 41.0011802, "lon": 28.5376029}, {"type": "node", "id": 4592022004, "lat": 40.9935453, "lon": 28.5380137}, {"type": "node", "id": 4592022005, "lat": 40.9934604, "lon": 28.5378155}, {"type": "node", "id": 4592022006, "lat": 40.9933243, "lon": 28.5379178}, {"type": "node", "id": 4592022007, "lat": 40.9934093, "lon": 28.5381161}, {"type": "node", "id": 4592036565, "lat": 41.0015249, "lon": 28.5381922}, {"type": "node", "id": 4592036566, "lat": 41.0015405, "lon": 28.5382274}, {"type": "node", "id": 4592036567, "lat": 41.0014648, "lon": 28.5382863}, {"type": "node", "id": 4592036568, "lat": 41.0015077, "lon": 28.5383831}, {"type": "node", "id": 4592036569, "lat": 41.0015788, "lon": 28.5383278}, {"type": "node", "id": 4592036570, "lat": 41.0015903, "lon": 28.5383537}, {"type": "node", "id": 4592036571, "lat": 41.0016667, "lon": 28.5382942}, {"type": "node", "id": 4592036572, "lat": 41.0015967, "lon": 28.5381363}, {"type": "node", "id": 4594063103, "lat": 40.99893, "lon": 28.5465714, "tags": {"amenity": "restaurant", "name": "Bat\u0131 Garden Cafe&Restoran", "outdoor_seating": "yes"}}, {"type": "node", "id": 4699131137, "lat": 41.0061521, "lon": 28.5410785, "tags": {"amenity": "cafe", "name": "Jimmy Joker"}}, {"type": "node", "id": 5045043633, "lat": 41.0833025, "lon": 28.3677851, "tags": {"amenity": "restaurant", "name": "Samsun Restaurant"}}, {"type": "node", "id": 5045043820, "lat": 41.0831111, "lon": 28.3678477, "tags": {"amenity": "cafe", "name": "Samsi Simit\u00e7i Cafe"}}, {"type": "node", "id": 5079818825, "lat": 41.0754992, "lon": 28.2419777, "tags": {"amenity": "cafe", "brand": "Mado", "brand:wikidata": "Q17116336", "cuisine": "coffee_shop", "name": "Mado", "name:en": "Mado", "name:tr": "Mado", "takeaway": "yes"}}, {"type": "node", "id": 5094976121, "lat": 41.0758013, "lon": 28.2414041, "tags": {"amenity": "cafe", "name": "Elmas \u00c7ay bah\u00e7esi"}}, {"type": "node", "id": 5094976122, "lat": 41.0762598, "lon": 28.2405815, "tags": {"amenity": "cafe"}}, {"type": "node", "id": 5094976123, "lat": 41.0765351, "lon": 28.2398387, "tags": {"amenity": "cafe"}}, {"type": "node", "id": 5276780265, "lat": 41.1428894, "lon": 28.1029375, "tags": {"amenity": "restaurant", "cuisine": "fish", "name": "G\u00f6lba\u015f\u0131 Et ve Bal\u0131k Restaurant ve Bal\u0131k \u00c7iftli\u011fi K\u0131r Bah\u00e7esi"}}, {"type": "node", "id": 5856690285, "lat": 40.9966949, "lon": 28.5405989, "tags": {"amenity": "cafe", "brand": "Starbucks", "brand:wikidata": "Q37158", "brand:wikipedia": "en:Starbucks", "cuisine": "coffee_shop", "name": "Starbucks", "official_name": "Starbucks Coffee", "takeaway": "yes"}}, {"type": "node", "id": 6116733155, "lat": 41.081836, "lon": 28.0825755, "tags": {"amenity": "restaurant"}}, {"type": "node", "id": 6116733156, "lat": 41.0829884, "lon": 28.0817521, "tags": {"amenity": "restaurant"}}, {"type": "node", "id": 6116733157, "lat": 41.0835868, "lon": 28.0810359, "tags": {"amenity": "restaurant", "cuisine": "pizza"}}, {"type": "node", "id": 6199854763, "lat": 41.0489638, "lon": 28.3896818}, {"type": "node", "id": 6199854764, "lat": 41.0488151, "lon": 28.3895737}, {"type": "node", "id": 6199854765, "lat": 41.04879, "lon": 28.389641}, {"type": "node", "id": 6199854766, "lat": 41.0489266, "lon": 28.3897738}, {"type": "node", "id": 6199854767, "lat": 41.0493168, "lon": 28.3894164}, {"type": "node", "id": 6199854768, "lat": 41.0494073, "lon": 28.3892045}, {"type": "node", "id": 6199854769, "lat": 41.0492788, "lon": 28.3891146}, {"type": "node", "id": 6199854770, "lat": 41.0491737, "lon": 28.389354}, {"type": "node", "id": 6199854771, "lat": 41.0493077, "lon": 28.3894392}, {"type": "node", "id": 6199854776, "lat": 41.0523419, "lon": 28.3757203}, {"type": "node", "id": 6199854777, "lat": 41.0524801, "lon": 28.375613}, {"type": "node", "id": 6199854778, "lat": 41.0525599, "lon": 28.3758093}, {"type": "node", "id": 6199854779, "lat": 41.0524274, "lon": 28.3759124}, {"type": "node", "id": 6199854780, "lat": 41.0526505, "lon": 28.3754558}, {"type": "node", "id": 6199854781, "lat": 41.0526768, "lon": 28.3753834}, {"type": "node", "id": 6199854782, "lat": 41.052523, "lon": 28.3752815}, {"type": "node", "id": 6199854783, "lat": 41.0524603, "lon": 28.3754666}, {"type": "node", "id": 6199854784, "lat": 41.0526201, "lon": 28.3755497}, {"type": "node", "id": 6199854785, "lat": 41.0529873, "lon": 28.3739651}, {"type": "node", "id": 6199854786, "lat": 41.0527441, "lon": 28.3738726}, {"type": "node", "id": 6199854787, "lat": 41.0524621, "lon": 28.374982}, {"type": "node", "id": 6199854788, "lat": 41.0528669, "lon": 28.3749992}, {"type": "node", "id": 6199854789, "lat": 41.0530523, "lon": 28.3745508}, {"type": "node", "id": 6199854790, "lat": 41.0530573, "lon": 28.3742252}, {"type": "node", "id": 6199895957, "lat": 41.0498958, "lon": 28.3960299}, {"type": "node", "id": 6199895958, "lat": 41.0494481, "lon": 28.3960906}, {"type": "node", "id": 6199895959, "lat": 41.0494081, "lon": 28.3957549}, {"type": "node", "id": 6199895960, "lat": 41.0495053, "lon": 28.3954173}, {"type": "node", "id": 6199895961, "lat": 41.0495797, "lon": 28.3954003}, {"type": "node", "id": 6199895962, "lat": 41.0498043, "lon": 28.3953984}, {"type": "node", "id": 6199896191, "lat": 41.0475594, "lon": 28.4031787}, {"type": "node", "id": 6199896192, "lat": 41.0475229, "lon": 28.4031673}, {"type": "node", "id": 6199896193, "lat": 41.0475588, "lon": 28.4030111}, {"type": "node", "id": 6199896194, "lat": 41.0476039, "lon": 28.4030319}, {"type": "node", "id": 6199896195, "lat": 41.0475588, "lon": 28.4032089}, {"type": "node", "id": 6199896196, "lat": 41.0475184, "lon": 28.4031935}, {"type": "node", "id": 6199896197, "lat": 41.047481, "lon": 28.4033417}, {"type": "node", "id": 6199896198, "lat": 41.0475224, "lon": 28.4033618}, {"type": "node", "id": 6307790685, "lat": 41.0771, "lon": 28.2501387, "tags": {"amenity": "cafe", "name": "Biz Bize \u00c7ay Bah\u00e7esi"}}, {"type": "node", "id": 6324367245, "lat": 41.0916494, "lon": 28.2613575, "tags": {"amenity": "cafe"}}, {"type": "node", "id": 6346417885, "lat": 41.1117625, "lon": 28.1123762}, {"type": "node", "id": 6346417886, "lat": 41.1116453, "lon": 28.1123762}, {"type": "node", "id": 6346417887, "lat": 41.1118241, "lon": 28.1123762}, {"type": "node", "id": 6346417888, "lat": 41.1118241, "lon": 28.1124727}, {"type": "node", "id": 6346417889, "lat": 41.1116453, "lon": 28.1124727}, {"type": "node", "id": 6346417890, "lat": 41.1117625, "lon": 28.1124727}, {"type": "node", "id": 6346417891, "lat": 41.1117625, "lon": 28.1123239}, {"type": "node", "id": 6346417892, "lat": 41.1116453, "lon": 28.1123239}, {"type": "node", "id": 6502392072, "lat": 41.0918385, "lon": 28.2600964, "tags": {"amenity": "cafe", "name": "Flora Cafe"}}, {"type": "node", "id": 6502395947, "lat": 41.0919757, "lon": 28.2597735, "tags": {"amenity": "cafe", "name": "Kuzina F\u0131r\u0131n Pasta Cafe"}}, {"type": "node", "id": 6590960547, "lat": 41.0723843, "lon": 28.2534105, "tags": {"addr:street": "Turgut \u00d6zal Bulvar\u0131", "amenity": "restaurant", "name": "D\u00fcr\u00fcmc\u00fc Sait Usta", "phone": "+902127287900"}}, {"type": "node", "id": 6655518581, "lat": 41.0018485, "lon": 28.5392295}, {"type": "node", "id": 6768582677, "lat": 41.0683668, "lon": 28.3011842}, {"type": "node", "id": 6768582679, "lat": 41.0680971, "lon": 28.3013051}, {"type": "node", "id": 6768582680, "lat": 41.0680551, "lon": 28.3015608}, {"type": "node", "id": 6768582681, "lat": 41.0683045, "lon": 28.3018059}, {"type": "node", "id": 6768582682, "lat": 41.0683548, "lon": 28.3017966}, {"type": "node", "id": 6768582683, "lat": 41.0684804, "lon": 28.3012137}, {"type": "node", "id": 7035275450, "lat": 41.1223462, "lon": 28.2450313}, {"type": "node", "id": 7035275451, "lat": 41.1224517, "lon": 28.2446532}, {"type": "node", "id": 7035275452, "lat": 41.1224057, "lon": 28.2446335}, {"type": "node", "id": 7074467295, "lat": 41.0935111, "lon": 28.0013329, "tags": {"amenity": "restaurant", "name": "Gen\u00e7 Osman Lokantas\u0131"}}, {"type": "node", "id": 7553464323, "lat": 41.0685897, "lon": 28.301345}, {"type": "node", "id": 7553464324, "lat": 41.0686488, "lon": 28.3017803}, {"type": "node", "id": 7553464325, "lat": 41.068374, "lon": 28.3018716}, {"type": "node", "id": 7553464326, "lat": 41.0682994, "lon": 28.301842}, {"type": "node", "id": 7553464327, "lat": 41.0682435, "lon": 28.3018385}, {"type": "node", "id": 7553464328, "lat": 41.0681853, "lon": 28.3018152}, {"type": "node", "id": 7553464329, "lat": 41.0681399, "lon": 28.3017851}, {"type": "node", "id": 7553464330, "lat": 41.0681033, "lon": 28.301733}, {"type": "node", "id": 7553464331, "lat": 41.0680757, "lon": 28.3016885}, {"type": "node", "id": 7553464332, "lat": 41.0680526, "lon": 28.3016139}, {"type": "node", "id": 7553464333, "lat": 41.068097, "lon": 28.3015562}, {"type": "node", "id": 7553464334, "lat": 41.0680994, "lon": 28.3014984}, {"type": "node", "id": 7553464335, "lat": 41.0680658, "lon": 28.3014942}, {"type": "node", "id": 7553464336, "lat": 41.0682136, "lon": 28.3013341}, {"type": "node", "id": 7553464337, "lat": 41.068212, "lon": 28.3013038}, {"type": "node", "id": 7553464338, "lat": 41.0682404, "lon": 28.3012521}, {"type": "node", "id": 7553464339, "lat": 41.0682622, "lon": 28.30121}, {"type": "node", "id": 7553464340, "lat": 41.0682946, "lon": 28.3012032}, {"type": "node", "id": 7553464341, "lat": 41.0683976, "lon": 28.3012172}, {"type": "node", "id": 7826695285, "lat": 41.0011232, "lon": 28.5425196, "tags": {"amenity": "restaurant", "name": "Big Chefs"}}, {"type": "node", "id": 7826695385, "lat": 41.0017614, "lon": 28.5427309, "tags": {"amenity": "cafe", "brand": "Mado", "brand:wikidata": "Q17116336", "brand:wikipedia": "en:Mado (food company)", "cuisine": "coffee_shop", "name": "Mado", "takeaway": "yes"}}, {"type": "node", "id": 7876274653, "lat": 41.0987806, "lon": 28.4035505, "tags": {"amenity": "restaurant", "name": "Y\u00fccel Et Mangal"}}, {"type": "node", "id": 7889813779, "lat": 41.1213758, "lon": 28.1095519, "tags": {"amenity": "restaurant", "name": "Son \u00c7are B\u00fcfe"}}, {"type": "node", "id": 7921097920, "lat": 41.204378, "lon": 28.0111005, "tags": {"amenity": "restaurant", "name": "Hafa Dinlenme Tesisi"}}, {"type": "node", "id": 7921116859, "lat": 41.2029746, "lon": 28.009517, "tags": {"amenity": "restaurant", "name": "Hafa Dinlenme Tesisi"}}, {"type": "node", "id": 7996386860, "lat": 41.0764748, "lon": 28.2525035, "tags": {"amenity": "restaurant", "name": "K\u00f6fte Soyaslan Sucuk"}}, {"type": "node", "id": 8285586094, "lat": 41.16505, "lon": 28.4297641, "tags": {"amenity": "restaurant", "name": "Antik K\u00f6y 2"}}, {"type": "node", "id": 8285587389, "lat": 41.1669454, "lon": 28.4529279, "tags": {"amenity": "restaurant", "name": "Pe\u00e7ka Et & Mangal Kahvalt\u0131", "phone": "0533 195 94 77", "website": "http://peckamangalbasi.com/"}}, {"type": "node", "id": 8285588188, "lat": 41.1649215, "lon": 28.4309367, "tags": {"addr:street": "Doktor \u00c7e\u015fme Caddesi", "amenity": "restaurant", "name": "Antik K\u00f6y", "phone": "(0212) 789 61 24", "website": "https://www.antikkoy.com/"}}, {"type": "node", "id": 8285588752, "lat": 41.1643256, "lon": 28.4342779, "tags": {"addr:housenumber": "132", "addr:street": "Doktor \u00c7e\u015fme Caddesi", "amenity": "restaurant", "name": "Tarihi \u00c7\u0131naralt\u0131 Piknik Alan\u0131 & Restaurant", "phone": "0544 320 51 56"}}, {"type": "node", "id": 8562492874, "lat": 41.0192971, "lon": 28.5647164, "tags": {"amenity": "restaurant", "name": "Derya B\u00f6rek & Cafe"}}, {"type": "node", "id": 8562492877, "lat": 41.0192761, "lon": 28.5647864, "tags": {"amenity": "restaurant", "name": "Hamam\u00f6n\u00fc Kasap & Restaurant"}}, {"type": "node", "id": 8758853760, "lat": 41.0563743, "lon": 28.3699498, "tags": {"amenity": "restaurant", "cuisine": "turkish", "name": "Menemenci Haydar \u00c7akall\u0131 Menemeni"}}, {"type": "node", "id": 8788654699, "lat": 41.0755788, "lon": 28.1331227, "tags": {"amenity": "restaurant", "cuisine": "turkish", "name": "Cafe4You Kanepe Restaurant"}}, {"type": "node", "id": 8850142517, "lat": 41.1218405, "lon": 28.2289866, "tags": {"addr:street": "Avrupa Otoyolu", "amenity": "cafe", "name:en": "Starbucks"}}, {"type": "node", "id": 8928802100, "lat": 41.1739137, "lon": 28.1887668, "tags": {"amenity": "restaurant", "name": "B\u00fcy\u00fckk\u0131l\u0131\u00e7l\u0131 Bat\u0131 Restaurant"}}, {"type": "node", "id": 9128752191, "lat": 41.0542613, "lon": 28.3751178, "tags": {"amenity": "restaurant", "name": "Rumeli \u0130\u015fkembecisi"}}, {"type": "node", "id": 9411505917, "lat": 41.1898454, "lon": 28.44404, "tags": {"amenity": "cafe", "name:en": "Flamingo Koy"}}, {"type": "node", "id": 9473390663, "lat": 41.0721957, "lon": 28.2550517, "tags": {"amenity": "cafe", "name": "Cafe Pita"}}, {"type": "node", "id": 9473413399, "lat": 41.0724661, "lon": 28.2528232, "tags": {"amenity": "restaurant", "name": "Titizel B\u00f6rek"}}, {"type": "node", "id": 9473413745, "lat": 41.0722504, "lon": 28.2546565, "tags": {"amenity": "restaurant", "name": "Aile Kasab\u0131 Et & Izgara"}}, {"type": "node", "id": 9473416982, "lat": 41.0729418, "lon": 28.2501921, "tags": {"amenity": "restaurant", "name": "Y\u0131ld\u0131z Pilav"}}, {"type": "node", "id": 9473417205, "lat": 41.0736259, "lon": 28.2443269, "tags": {"amenity": "restaurant", "name": "\u00c7ak\u0131r Bey D\u00f6ner Lahmacun"}}, {"type": "node", "id": 9473418654, "lat": 41.0722424, "lon": 28.2547628, "tags": {"amenity": "restaurant", "name": "Antepli Kebap Pide Lahmacun"}}, {"type": "node", "id": 9473418659, "lat": 41.073838, "lon": 28.2460123, "tags": {"amenity": "restaurant", "name": "B\u00f6rek\u00e7i Salih Usta'n\u0131n Yeri"}}, {"type": "node", "id": 9473421055, "lat": 41.0729434, "lon": 28.2502356, "tags": {"amenity": "restaurant", "name": "Karadeniz B\u00f6rek\u00e7isi"}}, {"type": "node", "id": 9473425747, "lat": 41.0732983, "lon": 28.2437919, "tags": {"amenity": "restaurant", "name": "Kahvalt\u0131c\u0131m"}}, {"type": "node", "id": 9473431129, "lat": 41.0712626, "lon": 28.2416296, "tags": {"amenity": "restaurant", "name": "\u0130skele Bal\u0131k"}}, {"type": "node", "id": 9473434607, "lat": 41.0711462, "lon": 28.2431061, "tags": {"amenity": "restaurant", "name": "K\u00f6fteci Osman"}}, {"type": "node", "id": 9473434608, "lat": 41.0711531, "lon": 28.2418924, "tags": {"amenity": "restaurant", "name": "Poyraz Bal\u0131k\u00e7\u0131 Osman"}}, {"type": "node", "id": 9473441539, "lat": 41.0708302, "lon": 28.2430623, "tags": {"amenity": "restaurant", "name": "Kaptan Baba Bal\u0131k Restaurant"}}, {"type": "node", "id": 9473442038, "lat": 41.0711964, "lon": 28.2417607, "tags": {"amenity": "restaurant", "name": "Halit'in Yeri"}}, {"type": "node", "id": 9473442280, "lat": 41.0711021, "lon": 28.2420433, "tags": {"amenity": "restaurant", "name": "Batt\u0131 Bal\u0131k"}}, {"type": "node", "id": 9473442524, "lat": 41.0737265, "lon": 28.2436433, "tags": {"amenity": "restaurant", "name": "Me\u015fhur Tekirda\u011f K\u00f6ftecisi"}}, {"type": "node", "id": 9473442920, "lat": 41.070884, "lon": 28.2426286, "tags": {"amenity": "restaurant", "name": "S\u0131rr\u0131 Reis Bal\u0131k\u00e7\u0131l\u0131k"}}, {"type": "node", "id": 9473443780, "lat": 41.071639, "lon": 28.243211, "tags": {"amenity": "cafe", "name": "Fes Cafe & Restaurant"}}, {"type": "node", "id": 9473450598, "lat": 41.0738071, "lon": 28.2436315, "tags": {"amenity": "restaurant", "name": "Edirne Tava Ci\u011fercisi"}}, {"type": "node", "id": 9473452282, "lat": 41.0735103, "lon": 28.243722, "tags": {"amenity": "restaurant", "name": "Kar\u0131\u015f\u0131k Pizza & Cafe"}}, {"type": "node", "id": 9473453941, "lat": 41.0730136, "lon": 28.2435798, "tags": {"amenity": "cafe", "name": "\u00c7a\u011fda\u015f Ya\u015fam\u0131 Destekleme Derne\u011fi \u00c7ay Bah\u00e7esi"}}, {"type": "node", "id": 9473459967, "lat": 41.0723593, "lon": 28.2441105, "tags": {"amenity": "cafe", "name": "\u00c2l\u00e2 Cafe & Restaurant"}}, {"type": "node", "id": 9473460020, "lat": 41.0738178, "lon": 28.2433553, "tags": {"amenity": "cafe", "name": "G\u00fcrsu \u00c7ay Bah\u00e7esi"}}, {"type": "node", "id": 9473460219, "lat": 41.0740756, "lon": 28.2433112, "tags": {"amenity": "cafe", "name": "\u015eahip'in Yeri"}}, {"type": "node", "id": 9473460509, "lat": 41.0724852, "lon": 28.244058, "tags": {"amenity": "restaurant", "name": "Kekik"}}, {"type": "node", "id": 9473463964, "lat": 41.0742493, "lon": 28.2433384, "tags": {"amenity": "restaurant", "name": "Me\u015fhur Edirne Tava Ci\u011feri"}}, {"type": "node", "id": 9473470938, "lat": 41.072943, "lon": 28.2438633, "tags": {"amenity": "cafe", "name": "Beka Simit Evi"}}, {"type": "node", "id": 9473472179, "lat": 41.0726003, "lon": 28.2440452, "tags": {"amenity": "cafe", "name": "Moody's"}}, {"type": "node", "id": 9473475595, "lat": 41.0751744, "lon": 28.2437592, "tags": {"amenity": "restaurant", "name": "Ci\u011ferimin K\u00f6\u015fesi Edirne Ci\u011fercisi"}}, {"type": "node", "id": 9473489228, "lat": 41.0750171, "lon": 28.2437889, "tags": {"addr:street": "Ba\u015fkomutan Caddesi", "amenity": "restaurant", "name": "Lokumm"}}, {"type": "node", "id": 9473511202, "lat": 41.074717, "lon": 28.2433193, "tags": {"amenity": "restaurant", "name": "Elezz Et ve Kebap"}}, {"type": "node", "id": 9473515712, "lat": 41.0748968, "lon": 28.2436887, "tags": {"amenity": "restaurant", "name": "Terbiyeli"}}, {"type": "node", "id": 9473515828, "lat": 41.0752132, "lon": 28.2437442, "tags": {"amenity": "restaurant", "name": "Gaziantepli A\u011famo\u011flu Baklava & B\u00f6rek"}}, {"type": "node", "id": 9743004950, "lat": 41.0075078, "lon": 28.539233, "tags": {"amenity": "restaurant", "name": "Ercan Burger"}}, {"type": "node", "id": 9848184128, "lat": 41.1223773, "lon": 28.2449693, "tags": {"amenity": "cafe", "brand": "Starbucks", "brand:wikidata": "Q37158", "cuisine": "coffee_shop", "name": "Starbucks", "official_name": "Starbucks Coffee", "takeaway": "yes"}}, {"type": "node", "id": 9872848817, "lat": 41.063211, "lon": 28.0961629, "tags": {"amenity": "cafe", "name": "\u00c7anta bar restaurant bred"}}, {"type": "node", "id": 9956839995, "lat": 41.1443791, "lon": 28.4668129}, {"type": "node", "id": 9956839996, "lat": 41.1442703, "lon": 28.4668274}, {"type": "node", "id": 9956839997, "lat": 41.1442866, "lon": 28.467008}, {"type": "node", "id": 9956839998, "lat": 41.1443962, "lon": 28.4669894}, {"type": "node", "id": 10019952348, "lat": 41.1424831, "lon": 28.4585573, "tags": {"amenity": "restaurant", "name": "Tarihi \u00c7atalca K\u00f6fte"}}, {"type": "node", "id": 10101012867, "lat": 41.1428463, "lon": 28.4613175, "tags": {"amenity": "restaurant", "name": "K\u00f6y\u00fcm"}}, {"type": "node", "id": 10111184717, "lat": 41.0776419, "lon": 28.1641858, "tags": {"amenity": "cafe"}}, {"type": "node", "id": 10861311887, "lat": 41.0764985, "lon": 28.2532047, "tags": {"amenity": "restaurant", "name": "Kokore\u00e7\u00e7i"}}, {"type": "node", "id": 10861327068, "lat": 41.0813148, "lon": 28.2586722, "tags": {"amenity": "cafe", "name": "S\u00fctl\u00fc S\u0131cak F\u0131r\u0131n"}}, {"type": "node", "id": 10861357933, "lat": 41.0770294, "lon": 28.2536533, "tags": {"amenity": "restaurant", "name": "\u015e\u00f6hret Sa\u00e7 Tava Bal\u0131k"}}, {"type": "node", "id": 10982094520, "lat": 41.0519707, "lon": 28.5176478, "tags": {"amenity": "restaurant", "name": "Alcazar"}}, {"type": "node", "id": 10998582634, "lat": 41.0997131, "lon": 28.0102283, "tags": {"amenity": "cafe"}}, {"type": "node", "id": 11059816705, "lat": 41.0777153, "lon": 28.1641774, "tags": {"amenity": "restaurant", "name:en": "Diamond sushi restaurant"}}, {"type": "node", "id": 11112235505, "lat": 41.112243, "lon": 28.2986084, "tags": {"addr:housenumber": "12", "addr:postcode": "34570", "addr:street": "Gazitepe Mh, Ta\u015fk\u0131nlar \u00c7k Sk", "amenity": "restaurant", "contact:instagram": "zeytndali", "email": "info@zeytindalikirbahcesi.com", "name": "ZeytinDal\u0131 K\u0131r Bah\u00e7esi", "phone": "+90 535 104 60 02", "website": "https://zeytindalikirbahcesi.com"}}, {"type": "node", "id": 11311344299, "lat": 41.1934196, "lon": 28.4494362, "tags": {"amenity": "restaurant", "cuisine": "turkish", "highchair": "yes", "name": "Tahtal\u0131k\u00f6y", "outdoor_seating": "yes", "website": "http://www.tahtalikoy.com.tr/"}}, {"type": "node", "id": 11479354384, "lat": 41.1460046, "lon": 28.4606931, "tags": {"addr:city": "\u0130stanbul", "addr:district": "\u00c7atalca", "addr:housenumber": "6-8", "addr:neighbourhood": "Kalei\u00e7i Mah.", "addr:postcode": "34540", "addr:street": "Mart\u0131 sokak", "amenity": "restaurant", "cuisine": "regional", "internet_access": "yes", "internet_access:fee": "no", "name": "Do\u011fa Cafe Restaurant - Alev Han\u0131m'\u0131n Mutfa\u011f\u0131", "opening_hours": "Mo-Su 09:00-21:00", "outdoor_seating": "yes", "phone": "+90 0531 721 98 71", "website": "https://www.dogacaferestaurant.com.tr/"}}, {"type": "node", "id": 11597971826, "lat": 41.0952537, "lon": 28.4932828, "tags": {"addr:city": "\u0130stanbul", "addr:district": "\u00c7atalca", "addr:housenumber": "103/A", "addr:neighbourhood": "Muratbey Merkez", "addr:postcode": "34540", "addr:street": "Hayrabolu Caddesi", "amenity": "cafe", "mobile": "+90 553 986 4796", "name": "Patriot Mutfak", "outdoor_seating": "no"}}, {"type": "node", "id": 11875781717, "lat": 41.0757457, "lon": 28.2442535, "tags": {"amenity": "cafe", "name": "Kahve Diyar\u0131"}}, {"type": "node", "id": 11875782077, "lat": 41.0769033, "lon": 28.2439226, "tags": {"amenity": "restaurant", "name": "Ba\u015fak K\u00f6fte Salonu"}}, {"type": "node", "id": 11876119843, "lat": 41.1789175, "lon": 28.5061946, "tags": {"amenity": "restaurant", "name": "Catalca Gizli Bahce", "opening_hours": "Mo-Su 09:00-00:00", "phone": "+90 532 137 65 40", "website": "http://www.catalcagizlibahce.com/"}}, {"type": "node", "id": 12003108469, "lat": 41.0711382, "lon": 28.2421611}, {"type": "node", "id": 12003108470, "lat": 41.0711951, "lon": 28.2420363}, {"type": "node", "id": 12003108471, "lat": 41.0711132, "lon": 28.2419707}, {"type": "node", "id": 12003108472, "lat": 41.0710564, "lon": 28.2420956}, {"type": "node", "id": 12003108477, "lat": 41.0712914, "lon": 28.2417685}, {"type": "node", "id": 12003108478, "lat": 41.0712425, "lon": 28.2418896}, {"type": "node", "id": 12003108479, "lat": 41.0711642, "lon": 28.2418339}, {"type": "node", "id": 12003108480, "lat": 41.0712131, "lon": 28.2417128}, {"type": "node", "id": 12012539370, "lat": 41.0693675, "lon": 28.2481094, "tags": {"amenity": "cafe"}}, {"type": "node", "id": 12040713195, "lat": 41.0525089, "lon": 28.3664151, "tags": {"amenity": "cafe"}}, {"type": "node", "id": 12040717648, "lat": 41.0522784, "lon": 28.3769033, "tags": {"amenity": "cafe", "name": "K\u0131y\u0131 Beach"}}, {"type": "node", "id": 12040728698, "lat": 41.0544864, "lon": 28.3685558, "tags": {"amenity": "restaurant", "name": "Pilavc\u0131 Teyze"}}, {"type": "node", "id": 12040730668, "lat": 41.0530759, "lon": 28.3724514, "tags": {"amenity": "cafe", "name": "Dostlar Aile \u00c7ay Bah\u00e7esi"}}, {"type": "node", "id": 12040736645, "lat": 41.0529421, "lon": 28.3669896, "tags": {"amenity": "restaurant", "name": "Sofram Bal\u0131k Restaurant 1978"}}, {"type": "node", "id": 12040739068, "lat": 41.0556605, "lon": 28.3668035, "tags": {"amenity": "restaurant", "name": "Kebap\u00e7\u0131 Hasan Usta"}}, {"type": "node", "id": 12040740272, "lat": 41.0515951, "lon": 28.380176, "tags": {"amenity": "cafe", "name": "RedBlue Cafe"}}, {"type": "node", "id": 12040747986, "lat": 41.0548899, "lon": 28.3699435, "tags": {"amenity": "restaurant", "name": "\u00c7ar\u015f\u0131 Kebap Pide Lahmacun", "phone": "+902127316316"}}, {"type": "node", "id": 12046987021, "lat": 41.1872514, "lon": 28.4043145, "tags": {"amenity": "restaurant", "name": "\u0130nc Kasap & Et Restaurant"}}, {"type": "node", "id": 12163300910, "lat": 41.0802013, "lon": 28.1968986, "tags": {"addr:city": "Istanbul", "addr:district": "Silivri", "addr:housenumber": "No: 3", "addr:neighbourhood": "Mimarsinan Mahallesi", "addr:postcode": "34570", "addr:street": "Fahrettin Berkta\u015f Soka\u011f\u0131", "amenity": "restaurant", "bar": "yes", "changing_table": "yes", "cuisine": "turkish;kebab;breakfast;barbecue;mediterranean;grill;diner", "diet:halal": "yes", "diet:healthy": "yes", "diet:mediterranean": "yes", "diet:organic": "yes", "diet:vegetarian": "yes", "mobile": "+90 532 650 96 96", "name": "Villa Restaurant Silivri", "opening_hours": "Mo-Su 08:30-23:00", "outdoor_seating": "yes", "phone": "+905326509696", "website": "https://www.villarestaurantsilivri.com/"}}, {"type": "node", "id": 12173756439, "lat": 41.0008447, "lon": 28.5382929, "tags": {"amenity": "restaurant", "cuisine": "kebab\u00e7\u0131", "name": "Gaziantepli \u00d6kke\u015f Usta"}}, {"type": "node", "id": 12173756440, "lat": 41.0078914, "lon": 28.5392343, "tags": {"amenity": "restaurant", "cuisine": "regional;kebab", "name": "\u0130tibar K\u00f6z D\u00f6ner"}}, {"type": "node", "id": 12173756445, "lat": 40.9930587, "lon": 28.5438264, "tags": {"amenity": "restaurant", "name": "Bella Costa Cafe"}}, {"type": "node", "id": 12331388987, "lat": 41.0726438, "lon": 28.2639983, "tags": {"amenity": "restaurant", "name": "Gar Lokantas\u0131"}}, {"type": "node", "id": 12331392871, "lat": 41.0597886, "lon": 28.3556649, "tags": {"amenity": "restaurant", "name": "Bah\u00e7em Et Ocakba\u015f\u0131 Bah\u00e7ede Mangal"}}, {"type": "node", "id": 12331393175, "lat": 41.0726563, "lon": 28.2639183, "tags": {"amenity": "cafe", "name": "Dembaba \u00c7ay Evi"}}, {"type": "node", "id": 12331416421, "lat": 41.0713195, "lon": 28.1130781, "tags": {"amenity": "restaurant", "name": "Bado Ca\u011f Kebap"}}, {"type": "node", "id": 12331417506, "lat": 41.0714746, "lon": 28.2784187, "tags": {"amenity": "restaurant", "name": "Tuna Club & Restaurant"}}, {"type": "node", "id": 12331421893, "lat": 41.0715475, "lon": 28.2778031, "tags": {"amenity": "restaurant", "name": "Ehli Keyfi Ocakba\u015f\u0131"}}, {"type": "node", "id": 12645060492, "lat": 40.999052, "lon": 28.512713, "tags": {"amenity": "restaurant", "name": "Yeni Palmiye Kafe Restoran"}}, {"type": "node", "id": 12660006582, "lat": 41.0602804, "lon": 28.3454463, "tags": {"amenity": "cafe", "check_date:opening_hours": "2025-03-13", "name": "H\u00fcsn\u00fc Dondurma & Waffle", "opening_hours:signed": "no"}}, {"type": "node", "id": 12660045707, "lat": 41.0605853, "lon": 28.3406841, "tags": {"amenity": "cafe", "name": "YAKAMOZ B\u00f6rek ve Kahvalt\u0131 Salonu"}}, {"type": "node", "id": 12710217239, "lat": 41.0065621, "lon": 28.513897, "tags": {"amenity": "restaurant", "brand": "K\u00f6fteci Yusuf", "brand:wikidata": "Q126125081", "cuisine": "turkish", "name": "K\u00f6fteci Yusuf"}}, {"type": "node", "id": 12749901480, "lat": 40.9982352, "lon": 28.5122871, "tags": {"amenity": "cafe", "name": "Marin Lokali"}}, {"type": "node", "id": 12749930243, "lat": 40.9994552, "lon": 28.5116602, "tags": {"amenity": "restaurant", "name": "K\u00fc\u00e7\u00fck Ev Et Lokantas\u0131"}}, {"type": "node", "id": 12749978601, "lat": 40.9990319, "lon": 28.5135793, "tags": {"amenity": "restaurant", "cuisine": "kebab", "name": "G\u00fcl\u00fcm  Kilis Pide Kebap ve D\u00fcr\u00fcm Salonu"}}, {"type": "node", "id": 12770529758, "lat": 41.0149004, "lon": 28.5622438, "tags": {"amenity": "restaurant", "cuisine": "fish", "name": "Bal\u0131k Osman Restaurant"}}, {"type": "node", "id": 12770529759, "lat": 41.0144234, "lon": 28.5624, "tags": {"amenity": "restaurant", "cuisine": "fish", "name": "Can Baba Bal\u0131k Lokantas\u0131"}}, {"type": "node", "id": 12770529761, "lat": 41.0151055, "lon": 28.5624845, "tags": {"amenity": "restaurant", "name": "\u0130skele Restaurant"}}, {"type": "node", "id": 12770529764, "lat": 41.0152478, "lon": 28.561802, "tags": {"amenity": "restaurant", "name": "Hemdem Restaurant"}}, {"type": "node", "id": 12777371470, "lat": 41.0019168, "lon": 28.5390476}, {"type": "node", "id": 12777371471, "lat": 41.0021134, "lon": 28.5389857}, {"type": "node", "id": 12777371472, "lat": 41.0019781, "lon": 28.5388844}, {"type": "node", "id": 12777371473, "lat": 41.0019831, "lon": 28.5393251}, {"type": "node", "id": 12796310702, "lat": 41.0818769, "lon": 28.2034767, "tags": {"amenity": "restaurant", "name": "FC Foodie Craft"}}, {"type": "node", "id": 12798341017, "lat": 41.0076344, "lon": 28.5389363, "tags": {"amenity": "restaurant", "cuisine": "d\u00f6ner", "name": "D\u00f6ner Bank"}}, {"type": "node", "id": 12802175901, "lat": 41.1955882, "lon": 28.5690416, "tags": {"amenity": "restaurant", "cuisine": "turkish", "name": "Marmara Nakkas K\u00f6ftecisi"}}, {"type": "node", "id": 12802176001, "lat": 41.1948498, "lon": 28.5696843, "tags": {"amenity": "cafe", "name": "Starbucks"}}, {"type": "way", "id": 308690939, "nodes": [3139581006, 3139581007, 7035275451, 7035275452, 3139581008, 3139581009, 7035275450, 3139581011, 3139581006], "tags": {"amenity": "restaurant", "building": "yes", "cuisine": "turkish", "name": "Karbey"}}, {"type": "way", "id": 308690950, "nodes": [3139586826, 3139586827, 3139586828, 3139586829, 3139586826], "tags": {"amenity": "restaurant", "building": "yes", "cuisine": "turkish", "name": "Karbey"}}, {"type": "way", "id": 454596689, "nodes": [4511415744, 4511415745, 4511415746, 4511415747, 4511415748, 4511415749, 4511415750, 4511415751, 4511415752, 4511415744], "tags": {"amenity": "cafe", "building": "yes", "internet_access": "no", "name": "Cafeteria", "smoking": "outside"}}, {"type": "way", "id": 461652926, "nodes": [4571253835, 4571253831, 4571253832, 4571253829, 4571253830, 4571253826, 4571253827, 4574104855, 4571253828, 4571253834, 4571253835], "tags": {"amenity": "cafe", "building": "yes", "name": "Havuzlu Bah\u00e7e"}}, {"type": "way", "id": 462011270, "nodes": [4574402325, 4574402324, 4574402323, 4574402322, 4574402321, 4574402320, 4574402319, 4574402318, 4574402317, 4574402316, 4574402315, 4574402314, 4574402313, 4574402312, 4574402311, 4574402310, 4574402309, 4574402308, 4574402325], "tags": {"amenity": "restaurant", "building": "yes", "name": "Cook Rosso", "outdoor_seating": "yes"}}, {"type": "way", "id": 464029766, "nodes": [4592022005, 4592022004, 4592022007, 4592022006, 4592022005], "tags": {"amenity": "cafe", "name": "G\u00f6let Cafe&Restoran", "outdoor_seating": "yes"}}, {"type": "way", "id": 464032659, "nodes": [4592036572, 4592036571, 4592036570, 4592036569, 4592036568, 4592036567, 4592036566, 4592036565, 4592036572], "tags": {"amenity": "cafe", "building": "yes", "name": "Yelken Cafe & Restoran", "outdoor_seating": "yes"}}, {"type": "way", "id": 662233953, "nodes": [6199854763, 6199854764, 6199854765, 6199854766, 6199854763], "tags": {"amenity": "cafe", "building": "yes", "name": "r\u0131ht\u0131m cafe"}}, {"type": "way", "id": 662233954, "nodes": [6199854767, 6199854768, 6199854769, 6199854770, 6199854771, 6199854767], "tags": {"amenity": "cafe", "building": "yes", "name": "duruman cafe"}}, {"type": "way", "id": 662233956, "nodes": [6199854776, 6199854777, 6199854778, 6199854779, 6199854776], "tags": {"amenity": "cafe", "building": "yes", "name": "Coast Cafe"}}, {"type": "way", "id": 662233957, "nodes": [6199854780, 6199854781, 6199854782, 6199854783, 6199854784, 6199854780], "tags": {"amenity": "cafe", "building": "yes", "name": "g\u00fcne\u015f kafe"}}, {"type": "way", "id": 662233958, "nodes": [6199854785, 6199854786, 6199854787, 6199854788, 6199854789, 6199854790, 6199854785], "tags": {"amenity": "cafe", "building": "yes", "name": "\u00e7aybah\u00e7esi"}}, {"type": "way", "id": 662238667, "nodes": [6199895957, 6199895958, 6199895959, 6199895960, 6199895961, 6199895962, 6199895957], "tags": {"amenity": "restaurant", "building": "yes"}}, {"type": "way", "id": 662238700, "nodes": [6199896191, 6199896192, 6199896193, 6199896194, 6199896191], "tags": {"amenity": "cafe", "building": "yes"}}, {"type": "way", "id": 662238701, "nodes": [6199896195, 6199896196, 6199896197, 6199896198, 6199896195], "tags": {"amenity": "cafe", "building": "yes"}}, {"type": "way", "id": 677792350, "nodes": [6346417885, 6346417887, 6346417888, 6346417890, 6346417889, 6346417886, 6346417892, 6346417891, 6346417885], "tags": {"amenity": "restaurant", "building": "yes", "name": "\u00c7aml\u0131k Et Lokantas\u0131"}}, {"type": "way", "id": 708288298, "nodes": [12777371472, 12777371470, 6655518581, 12777371473, 12777371471, 12777371472], "tags": {"amenity": "restaurant", "building": "yes", "name": "T\u00fcrkan Saylan Sosyal Tesisi"}}, {"type": "way", "id": 721516655, "nodes": [6768582677, 7553464340, 7553464339, 7553464338, 7553464337, 7553464336, 6768582679, 7553464335, 7553464334, 7553464333, 6768582680, 7553464332, 7553464331, 7553464330, 7553464329, 7553464328, 7553464327, 7553464326, 6768582681, 6768582682, 7553464325, 7553464324, 7553464323, 6768582683, 7553464341, 6768582677], "tags": {"amenity": "restaurant", "building": "yes", "cuisine": "turkish", "name": "Garden Et Lokantas\u0131"}}, {"type": "way", "id": 1086675131, "nodes": [9956839995, 9956839996, 9956839997, 9956839998, 9956839995], "tags": {"amenity": "restaurant", "building": "yes"}}, {"type": "way", "id": 1295323055, "nodes": [12003108469, 12003108470, 12003108471, 12003108472, 12003108469], "tags": {"amenity": "restaurant", "building": "yes", "diet:fish": "yes"}}, {"type": "way", "id": 1295323057, "nodes": [12003108477, 12003108478, 12003108479, 12003108480, 12003108477], "tags": {"amenity": "restaurant", "building": "yes", "name": "Poyraz Bal\u0131k\u00e7\u0131 Osman"}}]}