{"version": 0.6, "generator": "Overpass API 0.7.62.7 375dc00a", "osm3s": {"timestamp_osm_base": "2025-06-14T15:19:03Z", "copyright": "The data included in this document is from www.openstreetmap.org. The data is made available under ODbL."}, "elements": [{"type": "node", "id": 4018332001, "lat": 39.8721729, "lon": 37.6056356, "tags": {"amenity": "restaurant", "cuisine": "bal\u0131k"}}, {"type": "node", "id": 6822679085, "lat": 39.8836669, "lon": 37.6060508, "tags": {"amenity": "restaurant", "name": "Mola"}}, {"type": "node", "id": 7266802369, "lat": 39.8554307, "lon": 37.3929903, "tags": {"amenity": "restaurant", "name": "\u00c7ald\u0131ran Kebap Salonu"}}, {"type": "node", "id": 7266802370, "lat": 39.8554245, "lon": 37.3925116, "tags": {"amenity": "restaurant", "name": "Merakl\u0131 K\u00f6fteci S\u00fclo Day\u0131"}}, {"type": "node", "id": 7266802389, "lat": 39.8550002, "lon": 37.3924655, "tags": {"amenity": "restaurant", "name": "Karde\u015fler Kebap Salonu"}}, {"type": "node", "id": 7266802475, "lat": 39.8548619, "lon": 37.3889871, "tags": {"amenity": "cafe", "name": "Masal Kafe Pastane"}}, {"type": "node", "id": 7266837021, "lat": 39.852863, "lon": 37.3875901, "tags": {"amenity": "cafe", "name": "ARSLANBEY KIRAATHANES\u0130"}}, {"type": "node", "id": 7266837026, "lat": 39.8521643, "lon": 37.3887081, "tags": {"amenity": "restaurant", "name": "Mert Pide Salonu"}}]}