{"version": 0.6, "generator": "Overpass API 0.7.62.7 375dc00a", "osm3s": {"timestamp_osm_base": "2025-06-14T14:33:06Z", "copyright": "The data included in this document is from www.openstreetmap.org. The data is made available under ODbL."}, "elements": [{"type": "node", "id": 1819365109, "lat": 41.6132961, "lon": 20.0159187, "tags": {"amenity": "cafe", "bar": "yes", "outdoor_seating": "yes"}}, {"type": "node", "id": 1819365131, "lat": 41.6151047, "lon": 20.0027253, "tags": {"amenity": "restaurant"}}, {"type": "node", "id": 1819365136, "lat": 41.6252844, "lon": 19.9992413, "tags": {"amenity": "restaurant"}}, {"type": "node", "id": 1819365386, "lat": 41.6722148, "lon": 19.9025535, "tags": {"amenity": "cafe"}}, {"type": "node", "id": 1819463554, "lat": 41.6965391, "lon": 19.8272526, "tags": {"amenity": "cafe"}}, {"type": "node", "id": 1819504087, "lat": 41.6778742, "lon": 19.853263, "tags": {"amenity": "cafe"}}, {"type": "node", "id": 1819504091, "lat": 41.6858469, "lon": 19.8460694, "tags": {"amenity": "cafe"}}, {"type": "node", "id": 2418817694, "lat": 41.506909, "lon": 19.7946405, "tags": {"amenity": "restaurant"}}, {"type": "node", "id": 2799849220, "lat": 41.6143695, "lon": 20.2517106, "tags": {"amenity": "cafe", "name:en": "Kacni", "operational_status": "closed"}}, {"type": "node", "id": 2996147021, "lat": 41.6076732, "lon": 20.0195565}, {"type": "node", "id": 2996147022, "lat": 41.60774, "lon": 20.0197949}, {"type": "node", "id": 2996147025, "lat": 41.6078763, "lon": 20.0194547}, {"type": "node", "id": 2996147027, "lat": 41.6079431, "lon": 20.0196931}, {"type": "node", "id": 3519825624, "lat": 41.8081867, "lon": 20.221851}, {"type": "node", "id": 3519825626, "lat": 41.8082552, "lon": 20.2219831}, {"type": "node", "id": 3519825627, "lat": 41.8082539, "lon": 20.2217883}, {"type": "node", "id": 3519825628, "lat": 41.8083224, "lon": 20.2219204}, {"type": "node", "id": 3996442658, "lat": 41.8682836, "lon": 20.0366067, "tags": {"amenity": "restaurant"}}, {"type": "node", "id": 4036022465, "lat": 41.8605022, "lon": 20.005322, "tags": {"amenity": "restaurant", "check_date": "2023-06-13", "cuisine": "regional", "internet_access": "wlan", "internet_access:fee": "customers", "name": "NBT Oil", "wheelchair": "yes"}}, {"type": "node", "id": 4057066752, "lat": 41.8606196, "lon": 20.0054196, "tags": {"amenity": "cafe", "check_date": "2023-06-13", "internet_access": "yes", "internet_access:fee": "no", "level": "0", "name": "NBT Oil", "opening_hours": "24/7", "operator": "NBT Oil", "outdoor_seating": "yes", "payment:cash": "yes", "wheelchair": "yes"}}, {"type": "node", "id": 4348917789, "lat": 41.5067601, "lon": 19.7948053, "tags": {"amenity": "restaurant", "name": "Restorant Bardhi", "opening_hours": "Mo-Su,PH 08:00-21:00", "outdoor_seating": "yes", "smoking": "separated"}}, {"type": "node", "id": 4486666353, "lat": 41.7448339, "lon": 19.9731953, "tags": {"amenity": "restaurant", "name": "Sofra e Kthell\u00ebs"}}, {"type": "node", "id": 4601600582, "lat": 41.8660042, "lon": 20.0242331, "tags": {"amenity": "restaurant"}}, {"type": "node", "id": 4741507521, "lat": 41.7595562, "lon": 19.7842133, "tags": {"amenity": "restaurant", "internet_access": "wlan", "name": "Do\u00e7i", "name:sq": "Do\u00e7i"}}, {"type": "node", "id": 4781758875, "lat": 41.6823476, "lon": 19.8949759}, {"type": "node", "id": 4781758876, "lat": 41.682403, "lon": 19.8949918}, {"type": "node", "id": 4781758877, "lat": 41.6824312, "lon": 19.8948151}, {"type": "node", "id": 4781758878, "lat": 41.6823347, "lon": 19.8950567}, {"type": "node", "id": 4781758879, "lat": 41.6822564, "lon": 19.8950343}, {"type": "node", "id": 4781758880, "lat": 41.6822975, "lon": 19.8947768}, {"type": "node", "id": 4785089396, "lat": 41.6079272, "lon": 20.0105643}, {"type": "node", "id": 4785089397, "lat": 41.6079968, "lon": 20.0106646}, {"type": "node", "id": 4785089398, "lat": 41.6080986, "lon": 20.0105382}, {"type": "node", "id": 4785089400, "lat": 41.6079365, "lon": 20.0105528}, {"type": "node", "id": 4785089401, "lat": 41.6080289, "lon": 20.0104379}, {"type": "node", "id": 4788901633, "lat": 41.6083018, "lon": 20.0099246}, {"type": "node", "id": 4788901634, "lat": 41.6083699, "lon": 20.0100239}, {"type": "node", "id": 4788901635, "lat": 41.6086606, "lon": 20.0096673}, {"type": "node", "id": 4788901636, "lat": 41.6085925, "lon": 20.0095679}, {"type": "node", "id": 4788901737, "lat": 41.6086538, "lon": 20.0095769}, {"type": "node", "id": 4788901738, "lat": 41.6089068, "lon": 20.0099458}, {"type": "node", "id": 4788901739, "lat": 41.6089833, "lon": 20.009852}, {"type": "node", "id": 4788901740, "lat": 41.6087303, "lon": 20.0094831}, {"type": "node", "id": 4795572982, "lat": 41.608415, "lon": 20.0156077}, {"type": "node", "id": 4795572983, "lat": 41.6084601, "lon": 20.0156748}, {"type": "node", "id": 4795572984, "lat": 41.60851, "lon": 20.0156147}, {"type": "node", "id": 4795572985, "lat": 41.6084649, "lon": 20.0155476}, {"type": "node", "id": 4795667832, "lat": 41.5191443, "lon": 19.8031173}, {"type": "node", "id": 4795667833, "lat": 41.519052, "lon": 19.8032581}, {"type": "node", "id": 4795667834, "lat": 41.5189461, "lon": 19.8031342}, {"type": "node", "id": 4795667835, "lat": 41.5190385, "lon": 19.8029934}, {"type": "node", "id": 4795667836, "lat": 41.5184142, "lon": 19.8034043}, {"type": "node", "id": 4795667837, "lat": 41.5184261, "lon": 19.8034295}, {"type": "node", "id": 4795667838, "lat": 41.5183622, "lon": 19.8034836}, {"type": "node", "id": 4795667839, "lat": 41.5184608, "lon": 19.8033648}, {"type": "node", "id": 4795667840, "lat": 41.5184123, "lon": 19.8032627}, {"type": "node", "id": 4795667841, "lat": 41.5183018, "lon": 19.8033563}, {"type": "node", "id": 4950780577, "lat": 41.5146155, "lon": 19.8095285}, {"type": "node", "id": 4950780578, "lat": 41.5145307, "lon": 19.809589}, {"type": "node", "id": 4950780579, "lat": 41.5145923, "lon": 19.8097431}, {"type": "node", "id": 4950780580, "lat": 41.5146771, "lon": 19.8096827}, {"type": "node", "id": 5040702845, "lat": 41.7825165, "lon": 19.8639565, "tags": {"amenity": "restaurant"}}, {"type": "node", "id": 5043622222, "lat": 41.5081684, "lon": 19.7941031, "tags": {"amenity": "restaurant", "indoor_seating": "yes", "name": "Eli", "name:en": "Eli", "outdoor_seating": "yes"}}, {"type": "node", "id": 5044849819, "lat": 41.8639336, "lon": 20.0128924, "tags": {"alt_name": "Kompleks Sherbimesh", "amenity": "restaurant", "name": "Bar Reastorant \u00c7upi"}}, {"type": "node", "id": 5073366460, "lat": 41.490874, "lon": 20.0972026}, {"type": "node", "id": 5073366461, "lat": 41.4907475, "lon": 20.097051}, {"type": "node", "id": 5073366462, "lat": 41.4906278, "lon": 20.0972289}, {"type": "node", "id": 5073366463, "lat": 41.4907544, "lon": 20.0973805}, {"type": "node", "id": 5138161121, "lat": 41.7696496, "lon": 19.7495887, "tags": {"addr:postcode": "4601", "addr:street": "Katund i Vjeter", "amenity": "restaurant", "cuisine": "grill", "internet_access": "wlan", "name": "Bar Restorant ALEKSI", "name:en": "Bar Restaurant ALEKSI", "opening_hours": "Mo-Su 09:00-22:00", "phone": "+355686439608"}}, {"type": "node", "id": 5291402595, "lat": 41.6095076, "lon": 20.00348, "tags": {"amenity": "cafe", "internet_access": "wlan", "internet_access:fee": "no", "name": "Bar Kafe Ndreu", "outdoor_seating": "yes", "smoking": "outside", "start_date": "1.1.2018", "wheelchair": "limited"}}, {"type": "node", "id": 5293555368, "lat": 41.6084064, "lon": 20.0114192, "tags": {"addr:street": "Rruga Kuvendi Dukagjinit", "amenity": "cafe", "internet_access": "yes", "smoking": "no"}}, {"type": "node", "id": 5293804448, "lat": 41.6102428, "lon": 20.0127387}, {"type": "node", "id": 5293804449, "lat": 41.6103047, "lon": 20.0128302}, {"type": "node", "id": 5293804450, "lat": 41.6101885, "lon": 20.012971}, {"type": "node", "id": 5293804451, "lat": 41.6101266, "lon": 20.0128795}, {"type": "node", "id": 5419884709, "lat": 41.4822438, "lon": 20.1949966}, {"type": "node", "id": 5419884710, "lat": 41.4821855, "lon": 20.1949807}, {"type": "node", "id": 5419884711, "lat": 41.4821577, "lon": 20.1951328}, {"type": "node", "id": 5419884712, "lat": 41.4822173, "lon": 20.1951488}, {"type": "node", "id": 5535482887, "lat": 41.5970069, "lon": 20.0279677, "tags": {"amenity": "restaurant", "cuisine": "regional", "name": "Bar Rastaurant Livadhi i Madh"}}, {"type": "node", "id": 5535840601, "lat": 41.5725807, "lon": 20.0499842, "tags": {"amenity": "cafe", "name": "Fontana Petrol"}}, {"type": "node", "id": 5535840620, "lat": 41.572641, "lon": 20.0495243, "tags": {"amenity": "restaurant", "cuisine": "regional", "name": "Bar Rastaurant Juri"}}, {"type": "node", "id": 5582293821, "lat": 41.487501, "lon": 19.7678629, "tags": {"amenity": "restaurant", "check_date": "2022-10-13", "cuisine": "regional", "description:en": "Restaurant with camping possibilities on the parking and in the backyard.", "internet_access": "wlan", "internet_access:fee": "customers", "name": "Bar Restorant Oaz", "outdoor_seating": "yes", "tourism": "camp_site"}}, {"type": "node", "id": 5776906051, "lat": 41.5204831, "lon": 19.8909738, "tags": {"amenity": "restaurant", "cuisine": "barbecue", "outdoor_seating": "yes"}}, {"type": "node", "id": 5824982072, "lat": 41.4534587, "lon": 20.0750342}, {"type": "node", "id": 5824982073, "lat": 41.4533386, "lon": 20.0750157}, {"type": "node", "id": 5824982074, "lat": 41.4533286, "lon": 20.0751316}, {"type": "node", "id": 5824982075, "lat": 41.4534487, "lon": 20.0751501}, {"type": "node", "id": 5992948087, "lat": 41.4782442, "lon": 19.7519034, "tags": {"amenity": "cafe"}}, {"type": "node", "id": 5992948091, "lat": 41.5141127, "lon": 19.7895981, "tags": {"amenity": "cafe", "name": "Chocolate Bar"}}, {"type": "node", "id": 6099609485, "lat": 41.5075568, "lon": 19.7952115, "tags": {"amenity": "restaurant", "check_date": "2023-07-09", "contact:email": "emilianomerlika@gmail.com", "contact:facebook": "EmilianoMerlika", "contact:phone": "+355672520929", "cuisine": "italian;international;balkan", "internet_access": "wlan", "name": "Bar Restaurant Emiliano", "outdoor_seating": "yes", "payment:cash": "yes", "toilets:wheelchair": "no", "wheelchair": "no"}}, {"type": "node", "id": 6127765977, "lat": 41.7375294, "lon": 20.3116295, "tags": {"amenity": "restaurant", "cuisine": "fish_and_chips", "name": "Fresh Peshke"}}, {"type": "node", "id": 6144763932, "lat": 41.6326042, "lon": 20.1997058, "tags": {"amenity": "cafe", "name:en": "Qafe Murre", "shop": "yes"}}, {"type": "node", "id": 6372531172, "lat": 41.7675964, "lon": 19.7504373, "tags": {"addr:city": "Katund i Vjet\u00ebr", "amenity": "restaurant", "cuisine": "regional", "name": "Restorant Lugina"}}, {"type": "node", "id": 6372531173, "lat": 41.7676261, "lon": 19.7503963}, {"type": "node", "id": 6372531174, "lat": 41.7675849, "lon": 19.7504063}, {"type": "node", "id": 6372531175, "lat": 41.7675939, "lon": 19.7504724}, {"type": "node", "id": 6372531176, "lat": 41.7676351, "lon": 19.7504624}, {"type": "node", "id": 6416136664, "lat": 41.507259, "lon": 19.7951332, "tags": {"amenity": "restaurant", "name": "Merlika"}}, {"type": "node", "id": 6502222289, "lat": 41.6386352, "lon": 20.1418584}, {"type": "node", "id": 6502222290, "lat": 41.6386575, "lon": 20.1419068}, {"type": "node", "id": 6502222291, "lat": 41.6387145, "lon": 20.1418595}, {"type": "node", "id": 6502222292, "lat": 41.6386914, "lon": 20.1418121}, {"type": "node", "id": 6518087198, "lat": 41.4976534, "lon": 20.0931735}, {"type": "node", "id": 6518087199, "lat": 41.4975153, "lon": 20.0930531}, {"type": "node", "id": 6518087200, "lat": 41.4976037, "lon": 20.0928723}, {"type": "node", "id": 6518087201, "lat": 41.4977418, "lon": 20.0929927}, {"type": "node", "id": 6720969185, "lat": 41.5124748, "lon": 19.7920977, "tags": {"amenity": "restaurant", "name": "Panorama", "name:en": "Panorama"}}, {"type": "node", "id": 6761081686, "lat": 41.7869234, "lon": 19.8196648, "tags": {"addr:street": "Rruga Rubik Rreshen", "amenity": "cafe", "internet_access": "wlan", "name:en": "Kafe Simoni", "opening_hours": "Mo-Su 06:00-00:00"}}, {"type": "node", "id": 6844688675, "lat": 41.5099376, "lon": 19.7935157, "tags": {"amenity": "restaurant", "name": "Kupa"}}, {"type": "node", "id": 6844688678, "lat": 41.5122648, "lon": 19.7923281, "tags": {"amenity": "cafe"}}, {"type": "node", "id": 6844883487, "lat": 41.5009299, "lon": 19.7773815, "tags": {"amenity": "restaurant", "name": "Krone"}}, {"type": "node", "id": 7041131433, "lat": 41.5078191, "lon": 19.7937195, "tags": {"amenity": "restaurant", "indoor_seating": "yes", "outdoor_seating": "yes"}}, {"type": "node", "id": 7049102866, "lat": 41.5033305, "lon": 20.2218735, "tags": {"amenity": "restaurant", "name": "Lokal Dasmash Mira", "phone": "+355 68 444 8883"}}, {"type": "node", "id": 7740207385, "lat": 41.5099137, "lon": 19.793837, "tags": {"amenity": "cafe", "name:en": "Hotel Panorama Cafe"}}, {"type": "node", "id": 8928254018, "lat": 41.4511395, "lon": 19.8638483, "tags": {"amenity": "restaurant", "internet_access": "wlan", "name": "Bovilla Restaurant"}}, {"type": "node", "id": 8968918778, "lat": 41.7753645, "lon": 19.785525}, {"type": "node", "id": 9128749748, "lat": 41.4996864, "lon": 19.7766622, "tags": {"amenity": "cafe"}}, {"type": "node", "id": 9134662498, "lat": 41.6276597, "lon": 20.0917233, "tags": {"amenity": "cafe"}}, {"type": "node", "id": 9134662499, "lat": 41.627801, "lon": 20.0916429, "tags": {"amenity": "cafe"}}, {"type": "node", "id": 9138290446, "lat": 41.8598775, "lon": 20.006756, "tags": {"amenity": "restaurant", "name": "NBT Oil"}}, {"type": "node", "id": 9139662013, "lat": 41.6106317, "lon": 20.0121984, "tags": {"amenity": "restaurant", "cuisine": "pizza"}}, {"type": "node", "id": 9139662015, "lat": 41.6108774, "lon": 20.0119318, "tags": {"amenity": "cafe"}}, {"type": "node", "id": 9139662016, "lat": 41.6092937, "lon": 20.0119098, "tags": {"amenity": "cafe"}}, {"type": "node", "id": 9139711517, "lat": 41.6109505, "lon": 20.011817, "tags": {"amenity": "cafe"}}, {"type": "node", "id": 9139711526, "lat": 41.6091985, "lon": 20.0117723, "tags": {"amenity": "cafe"}}, {"type": "node", "id": 9139711528, "lat": 41.6094762, "lon": 20.0121519, "tags": {"amenity": "cafe"}}, {"type": "node", "id": 9139711530, "lat": 41.6081159, "lon": 20.0102303, "tags": {"amenity": "cafe"}}, {"type": "node", "id": 9139711540, "lat": 41.6111384, "lon": 20.0116745, "tags": {"amenity": "cafe"}}, {"type": "node", "id": 9139711541, "lat": 41.6096359, "lon": 20.012405, "tags": {"amenity": "cafe"}}, {"type": "node", "id": 9139711546, "lat": 41.6101638, "lon": 20.0126431, "tags": {"amenity": "cafe"}}, {"type": "node", "id": 9139711550, "lat": 41.6092432, "lon": 20.0118386, "tags": {"amenity": "cafe"}}, {"type": "node", "id": 9139711553, "lat": 41.6111727, "lon": 20.0114219, "tags": {"amenity": "cafe"}}, {"type": "node", "id": 9139711554, "lat": 41.6081924, "lon": 20.0103541, "tags": {"amenity": "cafe"}}, {"type": "node", "id": 9139711557, "lat": 41.6100615, "lon": 20.0127594, "tags": {"amenity": "cafe"}}, {"type": "node", "id": 9139711560, "lat": 41.6091112, "lon": 20.0116456, "tags": {"amenity": "cafe"}}, {"type": "node", "id": 9139711565, "lat": 41.6096649, "lon": 20.0124471, "tags": {"amenity": "cafe"}}, {"type": "node", "id": 9139722571, "lat": 41.6091377, "lon": 20.0154933, "tags": {"amenity": "cafe"}}, {"type": "node", "id": 9139722572, "lat": 41.6090927, "lon": 20.0119697, "tags": {"amenity": "cafe"}}, {"type": "node", "id": 9139722576, "lat": 41.6100822, "lon": 20.0140534, "tags": {"amenity": "cafe"}}, {"type": "node", "id": 9139722579, "lat": 41.6094973, "lon": 20.0150628, "tags": {"amenity": "cafe"}}, {"type": "node", "id": 9139722583, "lat": 41.6090295, "lon": 20.0153913, "tags": {"amenity": "cafe"}}, {"type": "node", "id": 9139722586, "lat": 41.60824, "lon": 20.0106979, "tags": {"amenity": "cafe"}}, {"type": "node", "id": 9139722588, "lat": 41.61021, "lon": 20.0135274, "tags": {"amenity": "cafe"}}, {"type": "node", "id": 9139722595, "lat": 41.6091687, "lon": 20.0152111, "tags": {"amenity": "cafe"}}, {"type": "node", "id": 9139722598, "lat": 41.6102021, "lon": 20.0139115, "tags": {"amenity": "cafe"}}, {"type": "node", "id": 9139722599, "lat": 41.6098757, "lon": 20.0145513, "tags": {"amenity": "cafe"}}, {"type": "node", "id": 9139722603, "lat": 41.6092071, "lon": 20.0154335, "tags": {"amenity": "cafe"}}, {"type": "node", "id": 9139722612, "lat": 41.6097835, "lon": 20.0129592, "tags": {"amenity": "cafe"}}, {"type": "node", "id": 9139722613, "lat": 41.6093023, "lon": 20.0152764, "tags": {"amenity": "cafe"}}, {"type": "node", "id": 9139758263, "lat": 41.611181, "lon": 20.0140294, "tags": {"amenity": "restaurant", "name": "Il Gusto"}}, {"type": "node", "id": 9139758264, "lat": 41.6114164, "lon": 20.0144738, "tags": {"amenity": "cafe"}}, {"type": "node", "id": 9139758266, "lat": 41.610806, "lon": 20.0128891, "tags": {"amenity": "cafe"}}, {"type": "node", "id": 9139758267, "lat": 41.6108023, "lon": 20.0125625, "tags": {"amenity": "cafe"}}, {"type": "node", "id": 9139758268, "lat": 41.6112268, "lon": 20.0142231, "tags": {"amenity": "restaurant"}}, {"type": "node", "id": 9139758270, "lat": 41.610546, "lon": 20.0134137, "tags": {"amenity": "cafe"}}, {"type": "node", "id": 9139799072, "lat": 41.611687, "lon": 20.0119278, "tags": {"amenity": "cafe"}}, {"type": "node", "id": 9139799079, "lat": 41.6136475, "lon": 20.0127397, "tags": {"amenity": "cafe"}}, {"type": "node", "id": 9144019756, "lat": 41.7754626, "lon": 19.7857064}, {"type": "node", "id": 9144019757, "lat": 41.7753562, "lon": 19.7858098}, {"type": "node", "id": 9144019758, "lat": 41.7752581, "lon": 19.7856284}, {"type": "node", "id": 9677518721, "lat": 41.5150027, "lon": 20.283075, "tags": {"amenity": "cafe"}}, {"type": "node", "id": 9695328852, "lat": 41.4469069, "lon": 19.9303033, "tags": {"amenity": "cafe"}}, {"type": "node", "id": 10038535378, "lat": 41.768756, "lon": 19.8760776, "tags": {"amenity": "restaurant", "name": "Arbri Restaurat Hotel"}}, {"type": "node", "id": 10981039913, "lat": 41.5024546, "lon": 20.21697, "tags": {"amenity": "restaurant"}}, {"type": "node", "id": 11035410323, "lat": 41.5099501, "lon": 19.7936211, "tags": {"amenity": "cafe", "check_date": "2023-07-09", "internet_access:fee": "customers", "name": "Pisha", "outdoor_seating": "yes", "payment:cash": "yes", "wheelchair": "limited"}}, {"type": "node", "id": 11052588592, "lat": 41.5006141, "lon": 20.2155135, "tags": {"amenity": "cafe"}}, {"type": "node", "id": 11119130105, "lat": 41.5203024, "lon": 19.7935648, "tags": {"amenity": "restaurant", "name": "Horizont"}}, {"type": "node", "id": 11152354205, "lat": 41.5175791, "lon": 19.7857017, "tags": {"addr:city": "Kruje", "addr:postcode": "1501", "addr:street": "Abaze", "amenity": "restaurant", "cuisine": "coffee_shop;mediterranean", "diet:vegan": "yes", "diet:vegetarian": "yes", "email": "arbilama@gmail.com", "internet_access": "wlan", "name": "Garden Organic Restaurant", "opening_hours": "24/7", "phone": "+355692746600"}}, {"type": "node", "id": 11848177769, "lat": 41.5085987, "lon": 19.7943901, "tags": {"amenity": "restaurant", "name": "Fabiani"}}, {"type": "node", "id": 11899170440, "lat": 41.6319599, "lon": 20.1962359, "tags": {"amenity": "cafe"}}, {"type": "node", "id": 11975119563, "lat": 41.6065448, "lon": 20.0229158}, {"type": "node", "id": 11975119564, "lat": 41.6067144, "lon": 20.0227775}, {"type": "node", "id": 11975119565, "lat": 41.6067707, "lon": 20.0229009}, {"type": "node", "id": 11975119566, "lat": 41.606601, "lon": 20.0230392}, {"type": "node", "id": 12142697140, "lat": 41.5103177, "lon": 19.7928018, "tags": {"amenity": "cafe", "check_date": "2024-08-28", "name": "New Castle"}}, {"type": "node", "id": 12458983600, "lat": 41.5140962, "lon": 19.789148, "tags": {"amenity": "cafe", "internet_access": "yes", "name": "Bar Kafe Visi"}}, {"type": "node", "id": 12645176554, "lat": 41.4975517, "lon": 20.0930848}, {"type": "node", "id": 12645176557, "lat": 41.4976464, "lon": 20.0931674}, {"type": "node", "id": 12806012737, "lat": 41.5172412, "lon": 19.8019159}, {"type": "node", "id": 12806012738, "lat": 41.5172637, "lon": 19.8019352}, {"type": "node", "id": 12806012739, "lat": 41.5172829, "lon": 19.8019664}, {"type": "node", "id": 12806012740, "lat": 41.5172829, "lon": 19.8020189}, {"type": "node", "id": 12806012741, "lat": 41.5172139, "lon": 19.8020404}, {"type": "node", "id": 12806012742, "lat": 41.5171094, "lon": 19.8020597}, {"type": "node", "id": 12806012743, "lat": 41.5171022, "lon": 19.8019363}, {"type": "node", "id": 12836493301, "lat": 41.7799272, "lon": 20.0838454, "tags": {"amenity": "cafe"}}, {"type": "node", "id": 12836979001, "lat": 41.5085813, "lon": 20.0876015, "tags": {"amenity": "cafe"}}, {"type": "node", "id": 12890563622, "lat": 41.78421, "lon": 19.8231866, "tags": {"amenity": "restaurant", "check_date": "2025-06-06", "cuisine": "regional"}}, {"type": "node", "id": 12890563624, "lat": 41.7840014, "lon": 19.8236606, "tags": {"addr:floor": "G", "amenity": "cafe", "check_date": "2025-06-06", "level": "0", "outdoor_seating": "yes", "payment:cash": "yes", "source": "local knowledge", "toilets": "yes", "wheelchair": "yes"}}, {"type": "way", "id": 345295809, "nodes": [3519825627, 3519825628, 3519825626, 3519825624, 3519825627], "tags": {"amenity": "restaurant", "building": "yes", "email": "daniel.hoti@gmail.com", "name": "Hotel Lura", "opening_hours": "24/7", "operator": "Hasan Hoti", "phone": "+355 684546888", "tourism": "hotel"}}, {"type": "way", "id": 485404285, "nodes": [4781758880, 4781758877, 4781758876, 4781758875, 4781758878, 4781758879, 4781758880], "tags": {"amenity": "restaurant", "building": "yes", "cuisine": "albanian"}}, {"type": "way", "id": 485737949, "nodes": [4785089401, 4785089398, 4785089397, 4785089396, 4785089400, 4785089401], "tags": {"addr:city": "Burrel", "addr:street": "Rruga Kuvendi Dukagjinit", "amenity": "cafe", "building": "yes", "internet_access": "yes", "name": "zogu 1", "smoking": "no"}}, {"type": "way", "id": 486213215, "nodes": [4788901636, 4788901635, 4788901634, 4788901633, 4788901636], "tags": {"addr:city": "Burrel", "addr:postcode": "8001", "addr:street": "Formula e Pag\u00ebzimit", "amenity": "cafe", "building": "yes", "building:levels": "3", "internet_access": "yes", "level": "2", "name": "Ballabani", "smoking": "outside"}}, {"type": "way", "id": 486213237, "nodes": [4788901740, 4788901739, 4788901738, 4788901737, 4788901740], "tags": {"amenity": "cafe", "building": "yes", "name": "vila meris"}}, {"type": "way", "id": 487046826, "nodes": [4795667835, 4795667832, 4795667833, 4795667834, 4795667835], "tags": {"addr:city": "Kruj\u00eb", "addr:housenumber": "63", "addr:street": "Rruga e Malit", "amenity": "restaurant", "building": "yes", "cuisine": "traditional", "name": "Dush Kau", "smoking": "yes"}}, {"type": "way", "id": 487046827, "nodes": [4795667841, 4795667840, 4795667839, 4795667836, 4795667837, 4795667838, 4795667841], "tags": {"addr:city": "Kruj\u00eb", "addr:housenumber": "76", "addr:street": "Rruga e Malit", "amenity": "restaurant", "building": "yes", "cuisine": "traditional", "smoking": "yes"}}, {"type": "way", "id": 505036691, "nodes": [4950780580, 4950780579, 4950780578, 4950780577, 4950780580], "tags": {"addr:city": "Kruj\u00eb", "addr:housenumber": "61", "addr:street": "Rruga e Malit", "amenity": "restaurant", "building": "yes", "cuisine": "raditional"}}, {"type": "way", "id": 520540716, "nodes": [5073366460, 5073366461, 5073366462, 5073366463, 5073366460], "tags": {"amenity": "restaurant", "building": "yes"}}, {"type": "way", "id": 547925431, "nodes": [5293804448, 5293804449, 5293804450, 5293804451, 5293804448], "tags": {"addr:city": "Burrel", "addr:street": "Sheshi Demokracia", "amenity": "cafe", "building": "yes", "cuisine": "ice_cream;coffee_shop", "internet_access": "yes", "internet_access:fee": "yes", "name": "Vila Meris", "opening_hours": "08:00-22:00", "outdoor_seating": "yes", "smoking": "no"}}, {"type": "way", "id": 548085002, "nodes": [2996147027, 2996147022, 2996147021, 2996147025, 2996147027], "tags": {"addr:street": "Formula e Pag\u00ebzimit", "amenity": "restaurant", "building": "yes", "capacity": "180", "smoking": "no", "takeaway": "no"}}, {"type": "way", "id": 548088284, "nodes": [11975119565, 11975119566, 11975119563, 11975119564, 11975119565], "tags": {"addr:street": "Formula e Pag\u00ebzimit", "amenity": "restaurant", "building": "yes", "name": "Miku im"}}, {"type": "way", "id": 548354563, "nodes": [4795572985, 4795572982, 4795572983, 4795572984, 4795572985], "tags": {"addr:street": "Qamil Xhika", "amenity": "cafe", "building": "yes", "opening_hours": "Mo-Su 05:00-15:00"}}, {"type": "way", "id": 562181628, "nodes": [5419884709, 5419884710, 5419884711, 5419884712, 5419884709], "tags": {"amenity": "cafe", "building": "yes"}}, {"type": "way", "id": 616070807, "nodes": [5824982072, 5824982073, 5824982074, 5824982075, 5824982072], "tags": {"addr:housenumber": "3", "addr:street": "Koder", "amenity": "cafe", "building": "yes", "cuisine": "coffee_shop", "internet_access": "no", "name": "ILIRIANI CAFE", "outdoor_seating": "yes", "smoking": "yes"}}, {"type": "way", "id": 680572047, "nodes": [6372531173, 6372531174, 6372531175, 6372531176, 6372531173], "tags": {"amenity": "restaurant", "building": "yes"}}, {"type": "way", "id": 692601241, "nodes": [6502222292, 6502222291, 6502222290, 6502222289, 6502222292], "tags": {"amenity": "cafe", "outdoor_seating": "yes"}}, {"type": "way", "id": 694259233, "nodes": [6518087201, 6518087200, 6518087199, 12645176554, 12645176557, 6518087198, 6518087201], "tags": {"addr:housenumber": "41", "addr:street": "Pjeter Budi", "amenity": "restaurant", "building": "yes"}}, {"type": "way", "id": 989306575, "nodes": [8968918778, 9144019756, 9144019757, 9144019758, 8968918778], "tags": {"amenity": "restaurant", "building": "yes", "cuisine": "local", "name": "Europa"}}, {"type": "way", "id": 1383243311, "nodes": [12806012737, 12806012738, 12806012739, 12806012740, 12806012741, 12806012742, 12806012743, 12806012737], "tags": {"amenity": "cafe", "building": "yes"}}]}