{"version": 0.6, "generator": "Overpass API 0.7.62.7 375dc00a", "osm3s": {"timestamp_osm_base": "2025-06-14T15:35:24Z", "copyright": "The data included in this document is from www.openstreetmap.org. The data is made available under ODbL."}, "elements": [{"type": "node", "id": 674093764, "lat": 41.3978819, "lon": 2.1598488, "tags": {"addr:city": "Barcelona", "addr:housenumber": "3", "addr:postcode": "08012", "addr:street": "Carrer de Santa Teresa", "amenity": "apartments", "entrance": "yes", "name": "Apartaments City Center", "phone": "+34 609306826"}}, {"type": "node", "id": 4254483592, "lat": 41.3747874, "lon": 2.1631813, "tags": {"addr:postcode": "08004", "amenity": "dormitory", "name": "Beyoo Poble Sec"}}, {"type": "node", "id": 6064566288, "lat": 41.4001078, "lon": 2.2055874, "tags": {"addr:housenumber": "15", "addr:postcode": "08005", "addr:street": "Carrer de l'Amistat", "amenity": "dormitory", "entrance": "yes", "name": "Associaci\u00f3 In Via"}}, {"type": "node", "id": 6348321460, "lat": 41.3957935, "lon": 2.1831833, "tags": {"addr:housenumber": "101-137", "addr:street": "Carrer de Sardenya", "amenity": "dormitory", "name": "Resid\u00e8ncia Onix"}}, {"type": "node", "id": 6348333044, "lat": 41.397361, "lon": 2.1783144, "tags": {"addr:housenumber": "701", "addr:street": "Gran Via de les Corts Catalanes", "amenity": "dormitory", "name": "Mestral Mar", "name:ca": "Mestral Mar"}}, {"type": "node", "id": 6348339819, "lat": 41.4039472, "lon": 2.1728069, "tags": {"addr:housenumber": "326-328", "addr:street": "Carrer de Sardenya", "amenity": "dormitory", "name": "Barcelona Residencias"}}, {"type": "node", "id": 6359268238, "lat": 41.3856426, "lon": 2.1776138, "tags": {"addr:housenumber": "1", "addr:street": "Carrer Avell\u00e0", "amenity": "dormitory", "name": "Residencia e Instituci\u00f3n Javeriana"}}, {"type": "node", "id": 6359292364, "lat": 41.3947667, "lon": 2.1703471, "tags": {"addr:housenumber": "393", "addr:street": "Carrer del Consell de Cent", "amenity": "dormitory", "name": "Resid\u00e8ncia Estudiants Religiosa Maria Immaculada", "name:ca": "Resid\u00e8ncia Estudiants Religiosa Maria Immaculada"}}, {"type": "node", "id": 6359313119, "lat": 41.3996178, "lon": 2.1636079, "tags": {"addr:housenumber": "390", "addr:street": "Carrer de C\u00f3rsega", "amenity": "dormitory", "name": "Resid\u00e8ncia Estudiants Lumen", "name:ca": "Resid\u00e8ncia Estudiants Lumen"}}]}