{"version": 0.6, "generator": "Overpass API 0.7.62.7 375dc00a", "osm3s": {"timestamp_osm_base": "2025-06-14T13:51:30Z", "copyright": "The data included in this document is from www.openstreetmap.org. The data is made available under ODbL."}, "elements": [{"type": "node", "id": 4681779446, "lat": 22.794244, "lon": 14.0194021}, {"type": "node", "id": 4681779591, "lat": 22.7971836, "lon": 14.0206962}, {"type": "node", "id": 4681779613, "lat": 22.7961925, "lon": 14.0217947}, {"type": "node", "id": 4681779738, "lat": 22.794699, "lon": 14.0200995}, {"type": "node", "id": 4681779741, "lat": 22.7945408, "lon": 14.0203034}, {"type": "node", "id": 4681779927, "lat": 22.7952869, "lon": 14.0187499}, {"type": "node", "id": 9899793017, "lat": 22.6509473, "lon": 14.0912932, "tags": {"addr:postcode": "00218", "alt_name": "Tomou;Tomo", "alt_name:ar": "\u0627\u0644\u062a\u0648\u0645;\u062a\u0648\u0645", "alt_name:fr": "Tomou;Tomo", "amenity": "restaurant", "name": "Toummo", "name:ar": "\u062a\u0648\u0645\u0648", "name:fr": "Toummo"}}, {"type": "way", "id": 474171518, "nodes": [4681779927, 4681779591, 4681779613, 4681779741, 4681779738, 4681779446, 4681779927], "tags": {"alt_name": "Tomou;Tomo", "alt_name:ar": "\u0627\u0644\u062a\u0648\u0645;\u062a\u0648\u0645", "alt_name:fr": "Tomou;Tomo", "amenity": "restaurant", "landuse": "residential", "name": "Toummo", "name:ar": "\u062a\u0648\u0645\u0648", "name:fr": "Toummo", "place": "village"}}]}