{"version": 0.6, "generator": "Overpass API 0.7.62.7 375dc00a", "osm3s": {"timestamp_osm_base": "2025-06-14T15:08:54Z", "copyright": "The data included in this document is from www.openstreetmap.org. The data is made available under ODbL."}, "elements": [{"type": "node", "id": 1537059125, "lat": 36.1147435, "lon": 32.5098336, "tags": {"amenity": "restaurant", "name": "Esentepe Adanal\u0131 Restaurant"}}, {"type": "node", "id": 4396333769, "lat": 36.0483622, "lon": 32.8128987, "tags": {"amenity": "restaurant", "name": "Su Sesi"}}, {"type": "node", "id": 4475252625, "lat": 36.1004768, "lon": 32.5658722}, {"type": "node", "id": 4475252626, "lat": 36.1005048, "lon": 32.5657942}, {"type": "node", "id": 4475252627, "lat": 36.1004128, "lon": 32.5657436}, {"type": "node", "id": 4475252628, "lat": 36.1003848, "lon": 32.5658217}, {"type": "node", "id": 4575321713, "lat": 36.0414852, "lon": 32.7982184, "tags": {"amenity": "restaurant", "cuisine": "turkish", "name": "Anamur \u00d6ren \u00c7om\u00e7a", "name:en": "Anamur Chomcha Restaurant"}}, {"type": "node", "id": 5470884025, "lat": 36.040086, "lon": 32.7051468, "tags": {"amenity": "restaurant", "name": "Tenzile Restaurant"}}, {"type": "node", "id": 5470921024, "lat": 36.0724241, "lon": 32.8362418, "tags": {"amenity": "restaurant", "name": "07 \u0130kram Lokantas\u0131"}}, {"type": "node", "id": 6062628698, "lat": 36.0759354, "lon": 32.8356263, "tags": {"addr:city": "Mersin", "addr:district": "Anamur", "amenity": "cafe", "name": "Anamur Meydan Kafe"}}, {"type": "node", "id": 6268425185, "lat": 36.0845923, "lon": 32.9009766, "tags": {"addr:street": "Ananumur/Mersin", "amenity": "restaurant", "name": "Sonarex", "phone": "05368374393"}}, {"type": "node", "id": 7849257186, "lat": 36.0968272, "lon": 32.6281539, "tags": {"amenity": "cafe"}}, {"type": "node", "id": 9752683691, "lat": 36.0479322, "lon": 32.7862935, "tags": {"addr:city": "Mersin", "addr:district": "Anamur", "addr:housenumber": "6", "addr:neighbourhood": "\u00d6ren Mahallesi", "addr:street": "Ortak\u00f6y Caddesi", "amenity": "cafe", "cuisine": "kebab;coffee_shop;turkish;fast_food", "image": "https://imgyukle.com/f/2022/05/18/RMC2Uf.jpg", "internet_access": "no", "name": "Karak\u0131z Cafe", "opening_hours": "Mo-Su 11:00-23:00", "outdoor_seating": "yes", "payment:cash": "yes", "payment:credit_cards": "yes", "phone": "+905524127566", "smoking": "separated"}}, {"type": "node", "id": 10177681120, "lat": 36.1149574, "lon": 32.5101606, "tags": {"amenity": "restaurant", "name": "Adanali Kemal Usta", "website": "http://adanalikemalusta.com"}}, {"type": "node", "id": 10178074418, "lat": 36.1055638, "lon": 32.975666, "tags": {"amenity": "restaurant"}}, {"type": "node", "id": 10313136209, "lat": 36.0748978, "lon": 32.8306248, "tags": {"addr:housenumber": "401", "addr:postcode": "33640", "addr:street": "Ye\u015filyurt Mah.", "amenity": "cafe", "cuisine": "international;mediterranean;turkish", "internet_access": "wlan", "internet_access:fee": "no", "name": "Park Point", "opening_hours": "Mo-Su 09:00-00:00", "outdoor_seating": "yes", "website": "http://parkpointcafe.com"}}, {"type": "node", "id": 10313186209, "lat": 36.0704519, "lon": 32.8353229, "tags": {"addr:housenumber": "19", "addr:postcode": "33650", "addr:street": "G\u00fczelyurt Mah.", "amenity": "cafe", "cuisine": "international", "internet_access": "wlan", "level": "1", "name": "Noww Croissants & Coffee Anamur", "opening_hours": "Mo-Su 09:00-00:00"}}, {"type": "node", "id": 10578743055, "lat": 36.0750967, "lon": 32.8375582, "tags": {"addr:housenumber": "29", "addr:street": "Ekim Cd karakaya", "amenity": "cafe", "cuisine": "coffee_shop", "internet_access": "wlan", "internet_access:fee": "no", "name": "Orange bean Coffee", "opening_hours": "Mo-Su 08:00-22:00", "outdoor_seating": "yes"}}, {"type": "node", "id": 11092336305, "lat": 36.0764684, "lon": 32.8311804, "tags": {"amenity": "cafe", "name": "Suleyman Usta"}}, {"type": "node", "id": 12324388929, "lat": 36.1269711, "lon": 32.7599073}, {"type": "node", "id": 12324388930, "lat": 36.1270193, "lon": 32.7600162}, {"type": "node", "id": 12324388931, "lat": 36.1269372, "lon": 32.7600719}, {"type": "node", "id": 12324388932, "lat": 36.126889, "lon": 32.759963}, {"type": "way", "id": 450605664, "nodes": [4475252626, 4475252627, 4475252628, 4475252625, 4475252626], "tags": {"amenity": "cafe", "name": "Endee Cafe", "operational_status": "closed"}}, {"type": "way", "id": 1332049593, "nodes": [12324388929, 12324388930, 12324388931, 12324388932, 12324388929], "tags": {"amenity": "cafe", "building": "yes", "name": "K\u00f6\u015fekb\u00fck\u00fc Cafe"}}]}