{"version": 0.6, "generator": "Overpass API 0.7.62.7 375dc00a", "osm3s": {"timestamp_osm_base": "2025-06-14T14:36:09Z", "copyright": "The data included in this document is from www.openstreetmap.org. The data is made available under ODbL."}, "elements": [{"type": "node", "id": 446471700, "lat": 37.8791955, "lon": 21.1141804, "tags": {"amenity": "restaurant", "cuisine": "greek"}}, {"type": "node", "id": 446471711, "lat": 37.8555716, "lon": 21.1531206, "tags": {"amenity": "restaurant", "cuisine": "greek", "name": "\u0391\u0393\u039d\u0391\u039d\u03a4\u0399\u039f", "phone": "+30 2623096034", "website": "https://agnadio.hpage.com"}}, {"type": "node", "id": 446471870, "lat": 37.8900889, "lon": 21.135308, "tags": {"amenity": "restaurant", "cuisine": "greek", "name": "Ickigas"}}, {"type": "node", "id": 446471878, "lat": 37.8900439, "lon": 21.1339168, "tags": {"amenity": "restaurant", "cuisine": "greek", "name": "Klodia"}}, {"type": "node", "id": 446471884, "lat": 37.8898507, "lon": 21.1374579, "tags": {"amenity": "cafe"}}, {"type": "node", "id": 446471885, "lat": 37.8902091, "lon": 21.1380726, "tags": {"amenity": "restaurant", "cuisine": "greek", "name": "Castello"}}, {"type": "node", "id": 446471889, "lat": 37.8899033, "lon": 21.136934, "tags": {"amenity": "restaurant", "cuisine": "greek", "name": "Christina"}}, {"type": "node", "id": 446471898, "lat": 37.8899985, "lon": 21.1372269, "tags": {"amenity": "cafe"}}, {"type": "node", "id": 446471914, "lat": 37.8902751, "lon": 21.1311935, "tags": {"amenity": "restaurant", "cuisine": "greek", "name": "Tornese"}}, {"type": "node", "id": 902651594, "lat": 37.9027021, "lon": 21.1379877, "tags": {"amenity": "restaurant", "name": "Taverna Niko"}}, {"type": "node", "id": 1865465736, "lat": 37.8609443, "lon": 21.207788, "tags": {"amenity": "cafe"}}, {"type": "node", "id": 1865473212, "lat": 37.861463, "lon": 21.2066348, "tags": {"amenity": "cafe"}}, {"type": "node", "id": 1865473222, "lat": 37.8616981, "lon": 21.2062699, "tags": {"amenity": "cafe"}}, {"type": "node", "id": 1865473231, "lat": 37.8626447, "lon": 21.2051595, "tags": {"amenity": "cafe"}}, {"type": "node", "id": 1865473233, "lat": 37.8621469, "lon": 21.2044059, "tags": {"amenity": "cafe", "cuisine": "greek", "internet_access": "wlan", "internet_access:fee": "no"}}, {"type": "node", "id": 1865474386, "lat": 37.8620475, "lon": 21.2052989, "tags": {"amenity": "restaurant", "cuisine": "kebab"}}, {"type": "node", "id": 1865486996, "lat": 37.8615816, "lon": 21.206353, "tags": {"amenity": "restaurant", "cuisine": "kebab"}}, {"type": "node", "id": 2082520803, "lat": 38.0315434, "lon": 21.3639892, "tags": {"amenity": "cafe", "cuisine": "coffee_shop", "internet_access": "wlan", "internet_access:fee": "no", "name": "Art Nouveau"}}, {"type": "node", "id": 2929580610, "lat": 38.0309234, "lon": 21.3635692, "tags": {"amenity": "cafe", "name": "Kentrikon Cafe Bar"}}, {"type": "node", "id": 2994478771, "lat": 37.9362489, "lon": 21.1450953, "tags": {"amenity": "restaurant", "check_date": "2025-02-10", "name": "Ipokampos"}}, {"type": "node", "id": 2994481169, "lat": 37.9351419, "lon": 21.1456605, "tags": {"amenity": "restaurant", "cuisine": "italian", "name": "Pizzaria IL Porto"}}, {"type": "node", "id": 2994483186, "lat": 37.9358944, "lon": 21.1453343, "tags": {"amenity": "restaurant"}}, {"type": "node", "id": 2994486241, "lat": 37.9340692, "lon": 21.1462692, "tags": {"amenity": "cafe"}}, {"type": "node", "id": 4324783355, "lat": 37.8760853, "lon": 21.2668081, "tags": {"amenity": "restaurant", "cuisine": "grill", "name": "\u03a8\u03b7\u03c3\u03c4\u03b1\u03c1\u03b9\u03ac", "smoking": "outside"}}, {"type": "node", "id": 4324783356, "lat": 37.8758037, "lon": 21.266792, "tags": {"amenity": "restaurant", "cuisine": "grill", "name": "\u03a8\u03b7\u03c3\u03c4\u03b1\u03c1\u03b9\u03ac"}}, {"type": "node", "id": 4468655090, "lat": 37.9013267, "lon": 21.3493023, "tags": {"amenity": "restaurant", "name": "\u03a0\u03bb\u03b1\u03c4\u03b1\u03bd\u03bf\u03c2 \u03c4\u03b1\u03b2\u03b5\u03c1\u03bd\u03b1", "name:el": "\u03a0\u03bb\u03b1\u03c4\u03b1\u03bd\u03bf\u03c2 \u03c4\u03b1\u03b2\u03b5\u03c1\u03bd\u03b1"}}, {"type": "node", "id": 5169235819, "lat": 37.8898131, "lon": 21.1362467, "tags": {"addr:place": "Kastro", "addr:postcode": "27050", "amenity": "restaurant", "bar": "no", "check_date": "2024-10-18", "cuisine": "greek", "delivery": "yes", "level": "0", "name": "Dionisos", "outdoor_seating": "yes", "payment:cards": "yes", "payment:cash": "yes", "phone": "+30 2623 095054", "takeaway": "yes", "toilets": "yes"}}, {"type": "node", "id": 5283660269, "lat": 37.8565643, "lon": 21.4566571, "tags": {"amenity": "cafe"}}, {"type": "node", "id": 5283660271, "lat": 37.8566005, "lon": 21.4571529, "tags": {"amenity": "cafe"}}, {"type": "node", "id": 5283675432, "lat": 37.8612441, "lon": 21.4280173, "tags": {"amenity": "cafe"}}, {"type": "node", "id": 5283689122, "lat": 37.8991626, "lon": 21.4092965, "tags": {"amenity": "cafe"}}, {"type": "node", "id": 5283863350, "lat": 37.8751546, "lon": 21.3109937, "tags": {"amenity": "cafe"}}, {"type": "node", "id": 5283944296, "lat": 37.8662151, "lon": 21.347231, "tags": {"amenity": "restaurant", "name": "\u03a4\u03bf \u03a3\u03c5\u03bd\u03c4\u03c1\u03b9\u03b2\u03ac\u03bd\u03b9"}}, {"type": "node", "id": 5719681521, "lat": 37.9612025, "lon": 21.2340321, "tags": {"amenity": "restaurant"}}, {"type": "node", "id": 5843562888, "lat": 37.8910388, "lon": 21.1291684, "tags": {"amenity": "restaurant", "cuisine": "greek", "name": "Aenaon"}}, {"type": "node", "id": 5873620417, "lat": 37.8836205, "lon": 21.3664082, "tags": {"amenity": "restaurant", "cuisine": "greek", "outdoor_seating": "yes"}}, {"type": "node", "id": 5873620418, "lat": 37.882675, "lon": 21.3663567, "tags": {"amenity": "restaurant", "cuisine": "greek", "outdoor_seating": "yes", "toilets": "yes", "wheelchair": "no"}}, {"type": "node", "id": 5895200573, "lat": 38.1764413, "lon": 21.3753565, "tags": {"amenity": "restaurant", "cuisine": "regional", "name": "Taverna", "outdoor_seating": "yes"}}, {"type": "node", "id": 6560570685, "lat": 37.9363383, "lon": 21.1450389, "tags": {"amenity": "restaurant", "name": "Seagarden"}}, {"type": "node", "id": 6591329056, "lat": 37.8858079, "lon": 21.111682, "tags": {"amenity": "restaurant", "opening_hours": "Mo-Su 18:30-21:30"}}, {"type": "node", "id": 6592059101, "lat": 37.8890928, "lon": 21.1114888, "tags": {"amenity": "cafe"}}, {"type": "node", "id": 6592061193, "lat": 37.8868132, "lon": 21.1107923, "tags": {"amenity": "restaurant", "name": "Estiltorio"}}, {"type": "node", "id": 6604037193, "lat": 37.8889683, "lon": 21.1112367, "tags": {"amenity": "restaurant", "name:it": "Taverna Sakis", "opening_hours": "apr-oct; 10:00-22:00"}}, {"type": "node", "id": 6810849586, "lat": 38.1030375, "lon": 21.4463614, "tags": {"amenity": "cafe", "cuisine": "cake;donut;coffee_shop", "name:en": "Aptokaynos", "phone": "2693031839"}}, {"type": "node", "id": 6961349065, "lat": 37.8590982, "lon": 21.4246691, "tags": {"amenity": "cafe"}}, {"type": "node", "id": 7966749308, "lat": 38.1756905, "lon": 21.4896153, "tags": {"amenity": "restaurant", "name": "\u0396\u03bf\u03c1\u03bc\u03c0\u03ac\u03c2", "name:el": "\u0396\u03bf\u03c1\u03bc\u03c0\u03ac\u03c2", "name:en": "Zorbas"}}, {"type": "node", "id": 8837784028, "lat": 37.8617568, "lon": 21.2057227, "tags": {"amenity": "cafe", "name": "\u03a0\u03b1\u03c3\u03c0\u03b1\u03c1\u03b9\u03bf\u03cd \u03ba\u03b1\u03c6\u03ad"}}, {"type": "node", "id": 8909573966, "lat": 37.88998, "lon": 21.1349591, "tags": {"amenity": "restaurant", "name": "Mylos"}}, {"type": "node", "id": 8909575220, "lat": 37.8900039, "lon": 21.1367436, "tags": {"amenity": "restaurant", "name": "The Village"}}, {"type": "node", "id": 9013818112, "lat": 38.3022554, "lon": 21.1488159, "tags": {"amenity": "restaurant", "name": "\u039a\u03b1\u03c4\u03b1\u03c6\u03cd\u03b3\u03b9\u03bf", "opening_hours:signed": "no", "outdoor_seating": "yes"}}, {"type": "node", "id": 9779182438, "lat": 37.897754, "lon": 21.3137101, "tags": {"amenity": "cafe", "name": "Coffee Lobby"}}, {"type": "node", "id": 9779182446, "lat": 37.898462, "lon": 21.3140177, "tags": {"amenity": "cafe", "outdoor_seating": "yes"}}, {"type": "node", "id": 9779182450, "lat": 37.8979303, "lon": 21.3137571, "tags": {"amenity": "cafe", "name": "\u039f \u0393\u03b9\u03ce\u03c1\u03b3\u03bf\u03c2", "outdoor_seating": "yes", "phone": "+30 2623 061166"}}, {"type": "node", "id": 9779182459, "lat": 37.8979478, "lon": 21.313478, "tags": {"amenity": "cafe", "outdoor_seating": "yes"}}, {"type": "node", "id": 9779182472, "lat": 37.89904, "lon": 21.3143305, "tags": {"amenity": "cafe", "internet_access": "wlan", "name": "Passagio", "outdoor_seating": "yes"}}, {"type": "node", "id": 9779182485, "lat": 37.8978188, "lon": 21.3134256, "tags": {"amenity": "cafe", "outdoor_seating": "yes"}}, {"type": "node", "id": 9779182494, "lat": 37.898459, "lon": 21.3142666, "tags": {"amenity": "restaurant", "cuisine": "kebab", "name": "\u0399\u03b8\u03b1\u03ba\u03b7", "outdoor_seating": "yes"}}, {"type": "node", "id": 9779591534, "lat": 38.0520725, "lon": 21.3803948, "tags": {"amenity": "cafe", "internet_access": "wlan", "outdoor_seating": "yes"}}, {"type": "node", "id": 9782019675, "lat": 38.0097273, "lon": 21.3384265, "tags": {"amenity": "cafe", "outdoor_seating": "yes"}}, {"type": "node", "id": 9782019716, "lat": 37.8746925, "lon": 21.3113898, "tags": {"amenity": "cafe", "outdoor_seating": "yes"}}, {"type": "node", "id": 9782042610, "lat": 37.9787753, "lon": 21.3180873, "tags": {"amenity": "cafe", "outdoor_seating": "yes"}}, {"type": "node", "id": 9782055840, "lat": 38.0545457, "lon": 21.3803333, "tags": {"amenity": "cafe", "outdoor_seating": "yes"}}, {"type": "node", "id": 9782055841, "lat": 38.0547865, "lon": 21.3811862, "tags": {"amenity": "cafe", "outdoor_seating": "yes"}}, {"type": "node", "id": 9785244324, "lat": 38.1408507, "lon": 21.4805326, "tags": {"amenity": "cafe", "internet_access": "wlan", "outdoor_seating": "yes"}}, {"type": "node", "id": 11063027336, "lat": 38.160833, "lon": 21.3715143, "tags": {"amenity": "restaurant", "description": "restaurant, grill, cafe, drink, ice cream", "name": "So Simple (by Maria)", "phone": "26930.31.895"}}, {"type": "node", "id": 11072326085, "lat": 38.1603586, "lon": 21.3690744, "tags": {"amenity": "restaurant", "changing_table": "no", "cuisine": "cake;fish;greek;ice_cream;international;juice;pancake;pasta;pizza;regional;seafood;soup", "highchair": "yes", "internet_access": "no", "name": "Kalogria Beach", "opening_hours": "Mo-Su 07:30-09:30,12:30-14:30,19:30-21:30", "opening_hours:kitchen": "Mo-Su 07:30-09:30,12:30-14:30,19:30-21:30", "operator": "Kalogria Beach", "reservation": "no", "self_service": "yes", "smoking": "no", "takeaway": "no", "toilets": "yes", "toilets:access": "customers", "wheelchair": "no"}}, {"type": "node", "id": 11150962505, "lat": 37.8646175, "lon": 21.1549692, "tags": {"amenity": "cafe", "name": "\u03a4\u03bf \u03a4\u03c1\u03af\u03b3\u03c9\u03bd\u03bf"}}, {"type": "node", "id": 12059117068, "lat": 38.0297914, "lon": 21.3632221, "tags": {"addr:city": "\u0392\u03ac\u03c1\u03b4\u03b1", "addr:postcode": "27052", "addr:street": "\u0392\u03bf\u03c1\u03b5\u03af\u03bf\u03c5 \u0397\u03c0\u03b5\u03af\u03c1\u03bf\u03c5", "amenity": "cafe", "name": "CAFE\u0394\u03a1\u039f\u039c\u0395\u0399\u039f", "opening_hours": "Mo-Su 05:00-01:00", "phone": "+306988258299"}}, {"type": "node", "id": 12138337190, "lat": 37.861259, "lon": 21.2063993, "tags": {"amenity": "restaurant", "int_name": "Alati & Piperi", "name": "\u0391\u03bb\u03ac\u03c4\u03b9 \u03ba\u03b1\u03b9 \u03a0\u03b9\u03c0\u03ad\u03c1\u03b9"}}, {"type": "node", "id": 12709886357, "lat": 37.9348239, "lon": 21.1457558}, {"type": "node", "id": 12709886358, "lat": 37.9348567, "lon": 21.1458483}, {"type": "node", "id": 12709886359, "lat": 37.9347911, "lon": 21.1458914}, {"type": "node", "id": 12709886360, "lat": 37.9347546, "lon": 21.1457897}, {"type": "node", "id": 12798206690, "lat": 38.1621356, "lon": 21.3661325, "tags": {"amenity": "cafe", "email": "sandhill.ike.kalogira@gmail.com", "name": "Sandhill - All Day Beach bar", "phone": "+302693031498"}}, {"type": "node", "id": 12800067589, "lat": 38.1030557, "lon": 21.4450188, "tags": {"amenity": "restaurant", "name": "Taverna - Grill - \u039c\u03bf\u03bd\u03c3\u03c4\u03ac\u03ba\u03b1\u03c2"}}, {"type": "node", "id": 12800213695, "lat": 38.0319465, "lon": 21.3639286, "tags": {"amenity": "cafe", "name": "Coffee Island"}}, {"type": "node", "id": 12800435818, "lat": 38.1598445, "lon": 21.3742359, "tags": {"amenity": "restaurant"}}, {"type": "way", "id": 1372672215, "nodes": [12709886357, 12709886358, 12709886359, 12709886360, 12709886357], "tags": {"addr:city": "\u039a\u03c5\u03bb\u03bb\u03ae\u03bd\u03b7", "addr:postcode": "27053", "addr:street": "Lechainon-Kyllinis", "amenity": "restaurant", "building": "yes", "name": "Edem Gefseis"}}]}