{"version": 0.6, "generator": "Overpass API 0.7.62.7 375dc00a", "osm3s": {"timestamp_osm_base": "2025-06-14T14:58:44Z", "copyright": "The data included in this document is from www.openstreetmap.org. The data is made available under ODbL."}, "elements": [{"type": "node", "id": 4847879013, "lat": 38.677137, "lon": 29.4063311, "tags": {"amenity": "restaurant", "cuisine": "turkish", "name": "Ers\u00f6z Pide Salonu"}}, {"type": "node", "id": 4847901198, "lat": 38.6794482, "lon": 29.4037264, "tags": {"amenity": "restaurant", "cuisine": "turkish", "name": "Gediz G\u00f6ve\u00e7cisi"}}, {"type": "node", "id": 4848905000, "lat": 38.6754906, "lon": 29.441304}, {"type": "node", "id": 4849551954, "lat": 38.6790756, "lon": 29.4074534, "tags": {"amenity": "restaurant", "cuisine": "turkish", "name": "Remzi Usta Lokantas\u0131"}}, {"type": "node", "id": 4849571671, "lat": 38.678479, "lon": 29.4084206, "tags": {"amenity": "restaurant", "cuisine": "turkish", "name": "Y\u0131ld\u0131z Lokantas\u0131"}}, {"type": "node", "id": 4849592593, "lat": 38.6783266, "lon": 29.4098271, "tags": {"amenity": "restaurant", "cuisine": "turkish", "name": "\u00d6zdemir Lokantas\u0131"}}, {"type": "node", "id": 4849594453, "lat": 38.6786936, "lon": 29.4087423, "tags": {"amenity": "restaurant", "cuisine": "turkish", "name": "Emek Lokantas\u0131"}}, {"type": "node", "id": 4849614258, "lat": 38.678712, "lon": 29.4102182, "tags": {"amenity": "restaurant", "cuisine": "turkish", "name": "Bal\u0131k Lokantas\u0131"}}, {"type": "node", "id": 4849614594, "lat": 38.6787157, "lon": 29.4104316, "tags": {"amenity": "restaurant", "cuisine": "turkish", "name": "Sarayalt\u0131 Pide Salonu"}}, {"type": "node", "id": 4849772091, "lat": 38.678478, "lon": 29.4052845, "tags": {"amenity": "cafe", "name": "Macbear"}}, {"type": "node", "id": 4849777378, "lat": 38.678255, "lon": 29.405295, "tags": {"amenity": "cafe", "name": "Cafe Lal", "opening_hours": "Mo-Su 08:00-23:00"}}, {"type": "node", "id": 4850153295, "lat": 38.6768526, "lon": 29.4051604, "tags": {"amenity": "cafe", "name": "Terass cafe"}}, {"type": "node", "id": 4850222580, "lat": 38.67506, "lon": 29.4058104, "tags": {"amenity": "cafe", "name": "osmanl\u0131 kahvecisi"}}, {"type": "node", "id": 4850233551, "lat": 38.6748493, "lon": 29.4058642, "tags": {"amenity": "cafe", "name": "Yemen Kahvesi"}}, {"type": "node", "id": 4850303810, "lat": 38.6731451, "lon": 29.4065742, "tags": {"amenity": "cafe", "name": "G\u00fcnebakan Kafe"}}, {"type": "node", "id": 4851255915, "lat": 38.6712441, "lon": 29.4067305}, {"type": "node", "id": 4851255916, "lat": 38.671081, "lon": 29.4067902}, {"type": "node", "id": 4851255917, "lat": 38.6711144, "lon": 29.4069398}, {"type": "node", "id": 4851255918, "lat": 38.6711867, "lon": 29.4069663}, {"type": "node", "id": 4851255919, "lat": 38.6712885, "lon": 29.406929}, {"type": "node", "id": 4851373777, "lat": 38.6747036, "lon": 29.4044051, "tags": {"amenity": "cafe", "name": "Bah\u00e7eNaz Kafe"}}, {"type": "node", "id": 4851409044, "lat": 38.6743981, "lon": 29.4036778, "tags": {"amenity": "cafe", "name": "Terras Garden Kafe"}}, {"type": "node", "id": 4851414638, "lat": 38.6749455, "lon": 29.4037228, "tags": {"amenity": "cafe", "club": "board_games", "name": "Maj\u00f6r Oyun Salonu"}}, {"type": "node", "id": 4851417851, "lat": 38.6755249, "lon": 29.4039634, "tags": {"amenity": "cafe", "name": "101 Oyun Salonu"}}, {"type": "node", "id": 4853537630, "lat": 38.671677, "lon": 29.3998484}, {"type": "node", "id": 4853537632, "lat": 38.6713794, "lon": 29.4003925}, {"type": "node", "id": 4853537633, "lat": 38.6713812, "lon": 29.4002455}, {"type": "node", "id": 4853537634, "lat": 38.6715159, "lon": 29.3997731}, {"type": "node", "id": 4853548385, "lat": 38.670923, "lon": 29.3998013, "tags": {"amenity": "restaurant", "cuisine": "turkish", "name": "Tarhana Baba"}}, {"type": "node", "id": 4853664215, "lat": 38.6743056, "lon": 29.4014475, "tags": {"amenity": "restaurant", "cuisine": "turkish", "name": "Sefa Ustan\u0131n Yeri"}}, {"type": "node", "id": 4855813661, "lat": 38.6779882, "lon": 29.4038979, "tags": {"amenity": "cafe", "name": "Keyif Sanat Kahvesi"}}, {"type": "node", "id": 4855818735, "lat": 38.6776699, "lon": 29.403883, "tags": {"amenity": "restaurant", "cuisine": "turkish", "name": "Dilek Yemek D\u00fcnyas\u0131", "opening_hours": "Mo-Sa 09:00-19:30"}}, {"type": "node", "id": 4856164114, "lat": 38.668174, "lon": 29.3971797, "tags": {"amenity": "cafe", "brand": "\u00d6zs\u00fct", "brand:wikidata": "Q20472928", "cuisine": "coffee_shop", "name": "\u00d6zs\u00fct", "takeaway": "yes"}}, {"type": "node", "id": 4856167662, "lat": 38.6684472, "lon": 29.3971388, "tags": {"amenity": "cafe", "name": "\u00c7ikolota Evim"}}, {"type": "node", "id": 4856169533, "lat": 38.6678458, "lon": 29.3967874, "tags": {"amenity": "cafe", "name": "Limon"}}, {"type": "node", "id": 4856169534, "lat": 38.667662, "lon": 29.3970378, "tags": {"amenity": "restaurant", "cuisine": "pizza", "name": "Sun Brothers S\u0131n\u0131rs\u0131z Pizza"}}, {"type": "node", "id": 4856174497, "lat": 38.6674604, "lon": 29.4005649, "tags": {"amenity": "restaurant", "cuisine": "turkish", "name": "K\u00f6fteci Ramiz-Karun AVM"}}, {"type": "node", "id": 4856186299, "lat": 38.6677596, "lon": 29.4007507, "tags": {"amenity": "restaurant", "cuisine": "pizza", "name": "Pizza Pizza-Karun AVM \u015eubesi"}}, {"type": "node", "id": 4856197144, "lat": 38.6670785, "lon": 29.4035245, "tags": {"amenity": "restaurant", "cuisine": "turkish", "name": "Beren Pide"}}, {"type": "node", "id": 4856204318, "lat": 38.6663833, "lon": 29.4070725, "tags": {"amenity": "restaurant", "cuisine": "turkish", "name": "Urfa Medeniyetler Sofras\u0131"}}, {"type": "node", "id": 4856211696, "lat": 38.6633541, "lon": 29.405765, "tags": {"amenity": "restaurant", "cuisine": "turkish", "name": "\u015eans Mir Pide"}}, {"type": "node", "id": 4856226323, "lat": 38.6613968, "lon": 29.4057299, "tags": {"amenity": "restaurant", "cuisine": "turkish", "name": "Kardelen Pide Salonu"}}, {"type": "node", "id": 4856230334, "lat": 38.660784, "lon": 29.4048023, "tags": {"amenity": "restaurant", "cuisine": "turkish", "name": "Kahvalt\u0131 ve K\u00f6fte Salonu"}}, {"type": "node", "id": 4856231417, "lat": 38.6609609, "lon": 29.4043529, "tags": {"amenity": "restaurant", "cuisine": "turkish", "name": "Bereket Pide Salonu"}}, {"type": "node", "id": 4856245218, "lat": 38.6657001, "lon": 29.3975133, "tags": {"amenity": "restaurant", "cuisine": "turkish", "name": "Beyza Pide Salonu"}}, {"type": "node", "id": 4856300118, "lat": 38.6689308, "lon": 29.3938456, "tags": {"addr:city": "U\u015fak", "addr:district": "Merkez", "addr:housenumber": "96/A", "addr:neighbourhood": "Kemal\u00f6z Mah.", "addr:street": "Mehmet Topa\u00e7 Bulvar\u0131", "amenity": "restaurant", "cuisine": "turkish", "name": "\u0130rem Pide ve Unlu Mam\u00fclleri", "opening_hours": "07:00-23:00", "operator": "\u0130rem Pide ve Unlu Mam\u00fclleri"}}, {"type": "node", "id": 4856392376, "lat": 38.6706323, "lon": 29.388439, "tags": {"amenity": "restaurant", "cuisine": "turkish", "name": "G\u00fcne\u015f Pide"}}, {"type": "node", "id": 4856417113, "lat": 38.6671948, "lon": 29.3821711, "tags": {"amenity": "cafe", "name": "Bonibon \u00c7ocuk E\u011flenme Mekan\u0131"}}, {"type": "node", "id": 4860375508, "lat": 38.6699815, "lon": 29.4075744, "tags": {"amenity": "restaurant", "cuisine": "turkish", "name": "Sezer Pide Salonu", "opening_hours": "Mo-Su 08:00-22:00"}}, {"type": "node", "id": 4860735025, "lat": 38.6797642, "lon": 29.4031232, "tags": {"amenity": "restaurant", "cuisine": "turkish", "name": "\u00d6zlem Pide Salonu"}}, {"type": "node", "id": 4860753972, "lat": 38.6790155, "lon": 29.4013469, "tags": {"amenity": "restaurant", "cuisine": "turkish", "name": "\u00d6zceylan Pide Salonu"}}, {"type": "node", "id": 4860780997, "lat": 38.6801914, "lon": 29.4074283, "tags": {"amenity": "restaurant", "cuisine": "turkish", "name": "Murat Ers\u00f6z Pide Salonu"}}, {"type": "node", "id": 4860783006, "lat": 38.6804054, "lon": 29.4074888, "tags": {"amenity": "restaurant", "cuisine": "turkish", "name": "\u015eahan Pide"}}, {"type": "node", "id": 4864432306, "lat": 38.6802798, "lon": 29.4106896, "tags": {"amenity": "restaurant", "cuisine": "turkish", "name": "U\u015fak Hasbah\u00e7e Polis Evi", "website": "https://www.polisevi.com/usak-polisevi/"}}, {"type": "node", "id": 5174711922, "lat": 38.666543, "lon": 29.3983432, "tags": {"amenity": "cafe", "cuisine": "coffee_shop", "internet_access": "wlan", "name": "Treehouse Co", "opening_hours": "Mo-Su 09:00-01:00"}}, {"type": "node", "id": 5225995221, "lat": 38.6752716, "lon": 29.4063557, "tags": {"addr:housenumber": "0276 224 04 08", "addr:postcode": "64100", "addr:street": "Anna\u00e7 Sokak", "amenity": "restaurant", "cuisine": "turkish", "internet_access": "wlan", "name": "Efsun \u0131zgara & ev yemekleri", "opening_hours": "Mo-Sa 08:00-23:00", "phone": "02762240408"}}, {"type": "node", "id": 6011703185, "lat": 38.5661924, "lon": 29.239848, "tags": {"amenity": "cafe"}}, {"type": "node", "id": 6092650442, "lat": 38.6714869, "lon": 29.4005156}, {"type": "node", "id": 6121511092, "lat": 38.6691511, "lon": 29.3996521}, {"type": "node", "id": 6121511094, "lat": 38.6691841, "lon": 29.3995273}, {"type": "node", "id": 6121539640, "lat": 38.6691057, "lon": 29.3993344}, {"type": "node", "id": 6121539641, "lat": 38.6693192, "lon": 29.3994269}, {"type": "node", "id": 6125578490, "lat": 38.6695431, "lon": 29.3977692, "tags": {"amenity": "cafe", "name": "Chillax", "red_turn:right": "yes"}}, {"type": "node", "id": 6622792368, "lat": 38.6714134, "lon": 29.4004813}, {"type": "node", "id": 8930812917, "lat": 38.6535918, "lon": 29.1456599, "tags": {"amenity": "restaurant", "name": "K\u00f6fteci Sami"}}, {"type": "node", "id": 9107443778, "lat": 38.8064013, "lon": 28.8999695, "tags": {"amenity": "cafe", "cuisine": "coffee_shop", "name": "Kaz\u0131kl\u0131 K\u0131raathane"}}, {"type": "node", "id": 9852970753, "lat": 38.67999, "lon": 29.4042521, "tags": {"amenity": "restaurant", "cuisine": "pide;lahmacun", "name": "Onur Pide", "opening_hours": "Mo-Su 08:00-20:00"}}, {"type": "node", "id": 10182255986, "lat": 38.6749616, "lon": 29.3911467, "tags": {"amenity": "restaurant", "brand": "K\u00f6fteci Yusuf", "brand:wikidata": "Q126125081", "cuisine": "turkish", "name": "K\u00f6fteci Yusuf"}}, {"type": "node", "id": 11332764508, "lat": 38.6267193, "lon": 28.9513038}, {"type": "node", "id": 11332764509, "lat": 38.6266684, "lon": 28.9512949}, {"type": "node", "id": 11332764510, "lat": 38.6266538, "lon": 28.9514316}, {"type": "node", "id": 11332764511, "lat": 38.6267047, "lon": 28.9514405}, {"type": "node", "id": 11396008522, "lat": 38.6266785, "lon": 28.9514359}, {"type": "node", "id": 11539360780, "lat": 38.6685951, "lon": 29.3989936}, {"type": "node", "id": 11539360781, "lat": 38.6684855, "lon": 29.3989194}, {"type": "node", "id": 11539360782, "lat": 38.6683901, "lon": 29.3991505}, {"type": "node", "id": 11539360783, "lat": 38.6684996, "lon": 29.3992247}, {"type": "node", "id": 11978679418, "lat": 38.6667878, "lon": 29.4003681, "tags": {"amenity": "cafe", "brand": "Mado", "brand:wikidata": "Q17116336", "cuisine": "coffee_shop", "name": "Mado", "takeaway": "yes"}}, {"type": "node", "id": 11978711717, "lat": 38.6667878, "lon": 29.398438, "tags": {"amenity": "cafe", "name": "guru"}}, {"type": "node", "id": 11978715858, "lat": 38.6668882, "lon": 29.3982421, "tags": {"amenity": "cafe", "name": "ONYX"}}, {"type": "node", "id": 11978735591, "lat": 38.6668486, "lon": 29.4005277, "tags": {"amenity": "cafe", "name": "Lumberjack"}}, {"type": "node", "id": 11978767294, "lat": 38.6700885, "lon": 29.3989678, "tags": {"amenity": "cafe", "cuisine": "coffee_shop", "name": "Brou"}}, {"type": "node", "id": 11979355652, "lat": 38.6673026, "lon": 29.4012128, "tags": {"amenity": "cafe", "brand": "Kahve D\u00fcnyas\u0131", "brand:wikidata": "Q28008050", "cuisine": "coffee_shop", "name": "Kahve D\u00fcnyas\u0131", "takeaway": "yes"}}, {"type": "node", "id": 11979580060, "lat": 38.6748793, "lon": 29.4051345}, {"type": "node", "id": 11979580061, "lat": 38.6750037, "lon": 29.4052442}, {"type": "node", "id": 11979580062, "lat": 38.6747882, "lon": 29.4052719}, {"type": "node", "id": 11979580063, "lat": 38.6747785, "lon": 29.4051474}, {"type": "node", "id": 11980186581, "lat": 38.669068, "lon": 29.399477}, {"type": "node", "id": 11980381726, "lat": 38.6836387, "lon": 29.3945533, "tags": {"amenity": "restaurant", "cuisine": "turkish", "name": "Pidecim Pide Lahmacun"}}, {"type": "node", "id": 11980417201, "lat": 38.6825726, "lon": 29.3957085, "tags": {"amenity": "restaurant", "cuisine": "turkish", "name": "Sezer Pide 3"}}, {"type": "node", "id": 11980471037, "lat": 38.6775486, "lon": 29.4515399, "tags": {"amenity": "cafe", "name": "Polis Kantini"}}, {"type": "node", "id": 11985793666, "lat": 38.6699648, "lon": 29.4147684, "tags": {"amenity": "restaurant", "cuisine": "turkish", "name": "\u00c7i\u011ferci Bahattin"}}, {"type": "node", "id": 11985947054, "lat": 38.6669083, "lon": 29.4007079, "tags": {"amenity": "cafe", "brand": "Espressolab", "brand:wikidata": "Q97599059", "cuisine": "coffee_shop", "name": "Espressolab", "takeaway": "yes"}}, {"type": "node", "id": 11986028728, "lat": 38.668753, "lon": 29.4016263, "tags": {"amenity": "cafe", "cuisine": "coffee_shop", "name": "Gua"}}, {"type": "node", "id": 11986031070, "lat": 38.6683265, "lon": 29.4016812, "tags": {"amenity": "cafe", "cuisine": "coffee_shop", "name": "Pablo Artisan"}}, {"type": "node", "id": 11986113586, "lat": 38.6749886, "lon": 29.390096, "tags": {"amenity": "cafe", "cuisine": "turkish", "name": "Anadolu Mola"}}, {"type": "node", "id": 11986120312, "lat": 38.6746394, "lon": 29.3910376, "tags": {"amenity": "cafe", "name": "Kamil Ko\u00e7 Dinlenme Tesisi"}}, {"type": "node", "id": 11987416583, "lat": 38.6661392, "lon": 29.3981131, "tags": {"amenity": "cafe", "name": "Peron"}}, {"type": "node", "id": 11987424175, "lat": 38.6667, "lon": 29.4000388, "tags": {"amenity": "cafe"}}, {"type": "node", "id": 11991079658, "lat": 38.6750241, "lon": 29.3982968, "tags": {"amenity": "cafe", "name": "Kamp\u00fcs Kafe"}}, {"type": "node", "id": 11992889325, "lat": 38.6442392, "lon": 29.4028436}, {"type": "node", "id": 11992889326, "lat": 38.6442391, "lon": 29.4026998}, {"type": "node", "id": 11992889327, "lat": 38.644217, "lon": 29.4026998}, {"type": "node", "id": 11992889328, "lat": 38.6442055, "lon": 29.4026448}, {"type": "node", "id": 11992889329, "lat": 38.6440936, "lon": 29.4026451}, {"type": "node", "id": 11992889330, "lat": 38.6440936, "lon": 29.4027042}, {"type": "node", "id": 11992889331, "lat": 38.6440141, "lon": 29.4027043}, {"type": "node", "id": 11992889332, "lat": 38.6440143, "lon": 29.402844}, {"type": "node", "id": 11992895264, "lat": 38.6752966, "lon": 29.4011182, "tags": {"amenity": "restaurant", "cuisine": "pizza", "name": "Panino Pizza"}}, {"type": "node", "id": 11992895265, "lat": 38.6752655, "lon": 29.4009908, "tags": {"amenity": "cafe", "name": "Lotus Kafe"}}, {"type": "node", "id": 11999960874, "lat": 38.6648167, "lon": 29.3899465, "tags": {"amenity": "cafe", "name": "By Demlik"}}, {"type": "node", "id": 12000505299, "lat": 38.6942488, "lon": 29.3889098}, {"type": "node", "id": 12000505300, "lat": 38.6940705, "lon": 29.3887393}, {"type": "node", "id": 12000505301, "lat": 38.693957, "lon": 29.3889342}, {"type": "node", "id": 12000505302, "lat": 38.6941353, "lon": 29.3891047}, {"type": "node", "id": 12012718168, "lat": 38.6667299, "lon": 29.4001838, "tags": {"amenity": "cafe", "cuisine": "coffee_shop", "name": "Treehouse"}}, {"type": "node", "id": 12012722569, "lat": 38.6666481, "lon": 29.3995571, "tags": {"amenity": "restaurant", "cuisine": "pizza", "name": "Pizza Locale"}}, {"type": "node", "id": 12012722570, "lat": 38.6666525, "lon": 29.3992791, "tags": {"amenity": "cafe", "cuisine": "coffee_shop", "name": "Soulmate"}}, {"type": "node", "id": 12015103017, "lat": 38.6746763, "lon": 29.3975754, "tags": {"amenity": "cafe", "name": "Non Name"}}, {"type": "node", "id": 12015178789, "lat": 38.674882, "lon": 29.4051702}, {"type": "node", "id": 12015178790, "lat": 38.6749967, "lon": 29.4051554}, {"type": "node", "id": 12116353080, "lat": 38.6542617, "lon": 29.3375047}, {"type": "node", "id": 12116353081, "lat": 38.6545267, "lon": 29.3377436}, {"type": "node", "id": 12116353082, "lat": 38.654378, "lon": 29.337837}, {"type": "node", "id": 12116353083, "lat": 38.6544688, "lon": 29.3375344}, {"type": "node", "id": 12176663681, "lat": 38.6746578, "lon": 29.4044939, "tags": {"amenity": "restaurant", "cuisine": "turkish", "name": "G\u00fcl\u00e7in Pide"}}, {"type": "node", "id": 12176663682, "lat": 38.6745557, "lon": 29.4044752, "tags": {"amenity": "cafe", "name": "California Cafe"}}, {"type": "node", "id": 12176663684, "lat": 38.674977, "lon": 29.4035839, "tags": {"amenity": "cafe", "name": "Hep Yek Oyun Salonu"}}, {"type": "node", "id": 12243182432, "lat": 38.6758757, "lon": 29.4412269}, {"type": "node", "id": 12243182433, "lat": 38.6758966, "lon": 29.4413905}, {"type": "node", "id": 12243182434, "lat": 38.6755302, "lon": 29.4414764}, {"type": "node", "id": 12248110950, "lat": 38.6785691, "lon": 29.4041492}, {"type": "node", "id": 12248110951, "lat": 38.6784929, "lon": 29.4041737}, {"type": "node", "id": 12248110953, "lat": 38.6785872, "lon": 29.4042156}, {"type": "node", "id": 12300353903, "lat": 38.6742528, "lon": 29.397264, "tags": {"amenity": "cafe", "name": "Old School"}}, {"type": "node", "id": 12332020814, "lat": 38.6792962, "lon": 29.4039753, "tags": {"amenity": "restaurant", "cuisine": "turkish", "name": "Nene Hatun"}}, {"type": "node", "id": 12349004643, "lat": 38.6500271, "lon": 29.3910964, "tags": {"amenity": "restaurant", "cuisine": "sushi", "name": "U\u015fak Sushi"}}, {"type": "node", "id": 12349703882, "lat": 38.6693663, "lon": 29.3975435, "tags": {"amenity": "cafe", "name": "Ak\u0131n \u00d6zen Ekmek"}}, {"type": "node", "id": 12349703891, "lat": 38.6666466, "lon": 29.3994134, "tags": {"amenity": "cafe", "name": "Chocolabs"}}, {"type": "node", "id": 12349703892, "lat": 38.6681746, "lon": 29.4017074, "tags": {"amenity": "cafe", "cuisine": "coffee_shop", "name": "Brew Mood"}}, {"type": "node", "id": 12352308483, "lat": 38.674828, "lon": 29.4025151, "tags": {"amenity": "cafe", "name": "578"}}, {"type": "node", "id": 12361955905, "lat": 38.6434794, "lon": 29.3961398, "tags": {"amenity": "restaurant", "cuisine": "turkish", "name": "G\u00fcne\u015f Pide"}}, {"type": "node", "id": 12363001116, "lat": 38.6511115, "lon": 29.4159105, "tags": {"amenity": "restaurant", "cuisine": "turkish", "name": "K\u0131yak Pide"}}, {"type": "node", "id": 12372953155, "lat": 38.6715247, "lon": 29.3927643, "tags": {"amenity": "restaurant", "cuisine": "turkish", "name": "Cadde \u00c7orbac\u0131s\u0131"}}, {"type": "node", "id": 12563987464, "lat": 38.6661308, "lon": 29.3906866, "tags": {"amenity": "cafe", "name": "Alesta Cafe Kahvalt\u0131 Salonu"}}, {"type": "node", "id": 12564051479, "lat": 38.6703996, "lon": 29.4085457, "tags": {"amenity": "restaurant", "cuisine": "turkish", "name": "Osmanl\u0131 Lokantas\u0131"}}, {"type": "node", "id": 12596262705, "lat": 38.6777768, "lon": 29.3905284, "tags": {"amenity": "cafe", "name": "U\u015fak Belediyesi Dikilita\u015f Sosyal Tesisleri"}}, {"type": "node", "id": 12612839238, "lat": 38.6706487, "lon": 29.3878953, "tags": {"amenity": "restaurant", "cuisine": "turkish", "name": "alis"}}, {"type": "node", "id": 12612839239, "lat": 38.6704662, "lon": 29.3875234, "tags": {"amenity": "restaurant", "cuisine": "turkish", "name": "incir"}}, {"type": "node", "id": 12613607754, "lat": 38.679072, "lon": 29.4030578, "tags": {"amenity": "restaurant", "cuisine": "turkish", "name": "G\u00f6khan Lokantas\u0131"}}, {"type": "node", "id": 12616208857, "lat": 38.6712202, "lon": 29.4074642, "tags": {"amenity": "cafe", "cuisine": "coffee_shop", "name": "Artukbey Kahve"}}, {"type": "node", "id": 12618344958, "lat": 38.6700924, "lon": 29.3994978, "tags": {"amenity": "cafe", "cuisine": "coffee_shop", "name": "Coffy"}}, {"type": "node", "id": 12618365617, "lat": 38.669338, "lon": 29.3997332}, {"type": "node", "id": 12618365618, "lat": 38.6692741, "lon": 29.3995979}, {"type": "node", "id": 12618381090, "lat": 38.6750302, "lon": 29.3981386, "tags": {"amenity": "cafe", "name": "Loca"}}, {"type": "node", "id": 12618503662, "lat": 38.6785361, "lon": 29.3934488, "tags": {"amenity": "restaurant", "cuisine": "turkish", "name": "Konak Pide"}}, {"type": "node", "id": 12618573581, "lat": 38.6675805, "lon": 29.3971656, "tags": {"amenity": "cafe", "name": "Midyeci Yasin"}}, {"type": "node", "id": 12618791063, "lat": 38.6666527, "lon": 29.3996956, "tags": {"amenity": "cafe", "name": "The Bist"}}, {"type": "node", "id": 12618991771, "lat": 38.6748967, "lon": 29.4045967, "tags": {"amenity": "restaurant", "cuisine": "turkish", "name": "pideci Arif"}}, {"type": "node", "id": 12618991778, "lat": 38.6749182, "lon": 29.4039076, "tags": {"amenity": "cafe", "name": "Ala\u00e7at\u0131"}}, {"type": "node", "id": 12624033259, "lat": 38.6769974, "lon": 29.4051977, "tags": {"amenity": "restaurant", "cuisine": "turkish", "name": "Saray K\u00f6fte"}}, {"type": "node", "id": 12628937493, "lat": 38.6771821, "lon": 29.4057788, "tags": {"amenity": "restaurant", "cuisine": "turkish", "name": "Abidin Usta"}}, {"type": "node", "id": 12631837659, "lat": 38.6785102, "lon": 29.4042363}, {"type": "node", "id": 12632078231, "lat": 38.6785358, "lon": 29.4064958, "tags": {"addr:city": "U\u015fak", "addr:district": "Merkez", "addr:housenumber": "19/A", "addr:neighbourhood": "\u0130slice Mahallesi", "addr:street": "1. Vidinli Sokak", "amenity": "restaurant", "cuisine": "turkish", "name": "\u0130lyas Usta Lokantas\u0131"}}, {"type": "node", "id": 12634481566, "lat": 38.6762551, "lon": 29.4055931, "tags": {"amenity": "cafe", "cuisine": "coffee_shop", "name": "Tchibo"}}, {"type": "node", "id": 12634548000, "lat": 38.6747227, "lon": 29.405895, "tags": {"amenity": "restaurant", "cuisine": "turkish"}}, {"type": "node", "id": 12637398408, "lat": 38.6733468, "lon": 29.3960527, "tags": {"amenity": "restaurant", "cuisine": "turkish", "name": "\u00c7orbac\u0131 Kebapc\u0131"}}, {"type": "node", "id": 12644835726, "lat": 38.6721403, "lon": 29.2186836}, {"type": "node", "id": 12644835727, "lat": 38.6719621, "lon": 29.2187551}, {"type": "node", "id": 12644835728, "lat": 38.6720008, "lon": 29.2188954}, {"type": "node", "id": 12644835729, "lat": 38.6721725, "lon": 29.2188183}, {"type": "node", "id": 12716863833, "lat": 38.6640064, "lon": 29.3971554, "tags": {"amenity": "restaurant", "cuisine": "turkish", "name": "Mevsim"}}, {"type": "node", "id": 12748673280, "lat": 38.6760809, "lon": 29.4029721, "tags": {"amenity": "restaurant", "cuisine": "turkish", "name": "mozzo"}}, {"type": "node", "id": 12838398996, "lat": 38.6660593, "lon": 29.3809202, "tags": {"amenity": "restaurant", "cuisine": "turkish", "name": "Kanat\u00e7\u0131zade"}}, {"type": "way", "id": 493190462, "nodes": [4851255915, 4851255916, 4851255917, 4851255918, 4851255919, 4851255915], "tags": {"amenity": "cafe", "building": "yes", "internet_access": "yes", "internet_access:fee": "no", "name": "U\u015fak Belediyesi Sosyal Tesisleri"}}, {"type": "way", "id": 493437082, "nodes": [4853537630, 6092650442, 6622792368, 4853537632, 4853537633, 4853537634, 4853537630], "tags": {"amenity": "restaurant", "building": "yes", "cuisine": "turkish", "internet_access": "wlan", "internet_access:fee": "no", "name": "Ezogelin Kebap Stadyum \u015eube"}}, {"type": "way", "id": 653156066, "nodes": [6121511094, 11980186581, 6121539640, 6121539641, 12618365618, 12618365617, 6121511092, 6121511094], "tags": {"amenity": "cafe", "building": "retail", "name": "Kulealt\u0131"}}, {"type": "way", "id": 1221962395, "nodes": [11332764508, 11332764509, 11332764510, 11396008522, 11332764511, 11332764508], "tags": {"amenity": "cafe", "building": "yes"}}, {"type": "way", "id": 1241871348, "nodes": [11539360780, 11539360781, 11539360782, 11539360783, 11539360780], "tags": {"amenity": "cafe", "building": "yes", "cuisine": "turkish", "name": "U\u015fak Belediyesi Sosyal Tesisleri Atapark", "operator": "U\u015fak Belediyesi"}}, {"type": "way", "id": 1292239429, "nodes": [11979580060, 12015178789, 12015178790, 11979580061, 11979580062, 11979580063, 11979580060], "tags": {"amenity": "cafe", "building": "yes", "name": "U\u015fak Belediyesi Sosyal Tesisleri"}}, {"type": "way", "id": 1293754973, "nodes": [11992889325, 11992889326, 11992889327, 11992889328, 11992889329, 11992889330, 11992889331, 11992889332, 11992889325], "tags": {"amenity": "cafe", "building": "yes", "name": "U\u015fak Belediyesi Sosyal Tesisleri"}}, {"type": "way", "id": 1294940363, "nodes": [12000505299, 12000505300, 12000505301, 12000505302, 12000505299], "tags": {"amenity": "cafe", "building": "yes", "name": "U\u015fak Belediyesi Karaa\u011fa\u00e7 Gen\u00e7lik Park\u0131 Sosyal Tesisleri"}}, {"type": "way", "id": 1308390736, "nodes": [12116353080, 12116353083, 12116353081, 12116353082, 12116353080], "tags": {"amenity": "cafe", "building": "yes", "name": "U\u015fak Ye\u015fil Karaa\u011fa\u00e7 Sosyal Tesisleri"}}, {"type": "way", "id": 1323091961, "nodes": [12243182432, 12243182433, 12243182434, 4848905000, 12243182432], "tags": {"amenity": "restaurant", "brand": "K\u00f6fteci Yusuf", "brand:wikidata": "Q126125081", "building": "yes", "cuisine": "turkish", "name": "K\u00f6fteci Yusuf"}}, {"type": "way", "id": 1323601983, "nodes": [12248110950, 12248110951, 12631837659, 12248110953, 12248110950], "tags": {"amenity": "restaurant", "building": "yes", "cuisine": "turkish", "name": "\u00c7orbac\u0131m \u015eehzade"}}, {"type": "way", "id": 1365470797, "nodes": [12644835726, 12644835727, 12644835728, 12644835729, 12644835726], "tags": {"amenity": "restaurant", "building": "yes", "cuisine": "regional", "diet:halal": "yes", "name": "Arte Mola", "opening_hours": "24/7"}}]}