{"version": 0.6, "generator": "Overpass API 0.7.62.7 375dc00a", "osm3s": {"timestamp_osm_base": "2025-06-14T13:26:15Z", "copyright": "The data included in this document is from www.openstreetmap.org. The data is made available under ODbL."}, "elements": [{"type": "node", "id": 836828904, "lat": 42.3644759, "lon": 9.5299889, "tags": {"addr:postcode": "20230", "amenity": "restaurant", "cuisine": "regional;pizza", "delivery": "yes", "email": "ucatagnu@aol.com", "internet_access": "wlan", "internet_access:fee": "no", "name": "U Catagnu", "note": "the value of the key opening hours is extrapolated from the phrase \"ouvert 7/7 non stop\" in the business card", "opening_hours": "Mo-Su 12:00-14:00,19:00-21:00", "phone": "+33 495 38 52 24", "smoking": "yes", "website": "http://www.ucatagnu.fr", "wheelchair": "yes"}}, {"type": "node", "id": 836828945, "lat": 42.3706428, "lon": 9.5295642, "tags": {"amenity": "restaurant", "cuisine": "pizza", "name": "Costa Verde", "stars": "2", "tourism": "hotel"}}, {"type": "node", "id": 836828979, "lat": 42.3505904, "lon": 9.5325867, "tags": {"amenity": "restaurant", "cuisine": "regional", "name": "Cinderella"}}, {"type": "node", "id": 836828993, "lat": 42.3246161, "lon": 9.5393227, "tags": {"amenity": "cafe", "name": "Cafe Sport"}}, {"type": "node", "id": 836829016, "lat": 42.3417315, "lon": 9.5341257, "tags": {"amenity": "restaurant", "cuisine": "pizza", "name": "Pizzeria Marina"}}, {"type": "node", "id": 836829031, "lat": 42.3925151, "lon": 9.5302875, "tags": {"amenity": "restaurant", "cuisine": "pizza", "name": "Le QG"}}, {"type": "node", "id": 836829082, "lat": 42.3893252, "lon": 9.5332829, "tags": {"addr:street": "Punticchiu", "amenity": "restaurant", "cuisine": "french", "name": "Brise De Mer (SARL)", "phone": "+33 4 95 38 55 37"}}, {"type": "node", "id": 1180397262, "lat": 42.3728947, "lon": 9.528455, "tags": {"amenity": "cafe", "name": "Le Dolce"}}, {"type": "node", "id": 1180399144, "lat": 42.3746711, "lon": 9.5297357, "tags": {"amenity": "cafe"}}, {"type": "node", "id": 1885354600, "lat": 42.375388, "lon": 9.5321536, "tags": {"addr:postcode": "20230", "amenity": "restaurant", "cuisine": "pizza;regional;seafood", "name": "Le Lido", "opening_hours": "Mo-Su 09:00-22:30", "outdoor_seating": "yes", "oven": "wood_fired", "phone": "+33 4 95 38 12 22", "website": "https://www.lido-plage.fr/"}}, {"type": "node", "id": 1900996941, "lat": 42.4329556, "lon": 9.5373367, "tags": {"amenity": "restaurant", "cuisine": "italian"}}, {"type": "node", "id": 1900996942, "lat": 42.4334773, "lon": 9.540941, "tags": {"amenity": "restaurant", "cuisine": "italian", "opening_hours": "Jul-Aug", "smoking": "yes"}}, {"type": "node", "id": 2217613432, "lat": 42.3177555, "lon": 9.5484258, "tags": {"addr:street": "Lieu-dit Pian di Campoloro, Prunete", "amenity": "restaurant", "name": "Le Campoloro", "phone": "+33 4 95 38 05 56", "website": "https://www.lecampoloro.com/fr/14_restaurant.html"}}, {"type": "node", "id": 2358305021, "lat": 42.3265947, "lon": 9.5431748, "tags": {"amenity": "restaurant", "cuisine": "regional", "name": "A Marina"}}, {"type": "node", "id": 2358305031, "lat": 42.3747658, "lon": 9.5315749, "tags": {"addr:street": "Route de la Plage Moriani Plage", "amenity": "restaurant", "check_date": "2023-06-04", "cuisine": "french;pizza;ice_cream", "email": "jmanenti@wanadoo.fr", "name": "\u00c0 l'Abri des Flots", "oven": "wood_fired", "payment:mastercard": "yes", "payment:visa": "yes", "phone": "+33495384076", "website": "https://www.abridesflots.com/", "website:menu": "https://www.whatiseat.com/menu/a-labri-des-flots/"}}, {"type": "node", "id": 2358305039, "lat": 42.375125, "lon": 9.5320794, "tags": {"amenity": "restaurant", "cuisine": "regional", "name": "A pota marina", "outdoor_seating": "yes"}}, {"type": "node", "id": 2358305086, "lat": 42.3749926, "lon": 9.5320596, "tags": {"amenity": "restaurant", "cuisine": "regional", "name": "Bor' di mare", "outdoor_seating": "yes"}}, {"type": "node", "id": 2358305185, "lat": 42.3391665, "lon": 9.5395133, "tags": {"amenity": "cafe", "name": "Dubai"}}, {"type": "node", "id": 2358305251, "lat": 42.3747499, "lon": 9.5312553, "tags": {"amenity": "cafe", "name": "JS Caf\u00e9"}}, {"type": "node", "id": 2358305290, "lat": 42.3733701, "lon": 9.5293981, "tags": {"addr:postcode": "20230", "amenity": "cafe", "name": "L'Ic\u00f4ne Caf\u00e9", "opening_hours": "Mo-Su 08:00-19:00", "phone": "04 95 38 41 49"}}, {"type": "node", "id": 2358305340, "lat": 42.3397025, "lon": 9.5394331, "tags": {"amenity": "restaurant", "cuisine": "regional", "name": "Le Cargo"}}, {"type": "node", "id": 2358305356, "lat": 42.3393856, "lon": 9.5393887, "tags": {"alt_name": "Le Flib", "amenity": "restaurant", "contact:facebook": "https://www.facebook.com/le.flibustier2011", "cuisine": "regional;ice_cream", "email": "liloudelice@laposte.net", "name": "Le Flibustier", "payment:credit_cards": "yes", "phone": "+33 4 95 39 41 49"}}, {"type": "node", "id": 2358305383, "lat": 42.3666709, "lon": 9.5321686, "tags": {"amenity": "restaurant", "cuisine": "pizza", "name": "Le grand bleu", "phone": "+336 21 855 255"}}, {"type": "node", "id": 2358308703, "lat": 42.3755177, "lon": 9.5247723, "tags": {"addr:housenumber": "440", "amenity": "restaurant", "cuisine": "regional", "name": "U Lampione", "phone": "+33495590887", "website": "https://www.facebook.com/RestaurantULampioneMoriani/"}}, {"type": "node", "id": 2523091859, "lat": 42.2261857, "lon": 9.5519762, "tags": {"amenity": "restaurant", "name": "Fior di Macchia"}}, {"type": "node", "id": 3116150269, "lat": 42.2200419, "lon": 9.552858}, {"type": "node", "id": 3116150270, "lat": 42.2197952, "lon": 9.552912}, {"type": "node", "id": 3116150271, "lat": 42.2197845, "lon": 9.5527721}, {"type": "node", "id": 3116150272, "lat": 42.220028, "lon": 9.5527187}, {"type": "node", "id": 3116390713, "lat": 42.2379859, "lon": 9.55236, "tags": {"alt_name": "Chez Rosemarie", "amenity": "restaurant", "cuisine": "regional", "name": "Chez Rose-Marie"}}, {"type": "node", "id": 3397600048, "lat": 42.3198729, "lon": 9.5398273, "tags": {"amenity": "cafe", "name": "Bar des 4 Chemins", "newspaper": "yes", "tobacco": "yes"}}, {"type": "node", "id": 3397607537, "lat": 42.2919977, "lon": 9.5552084, "tags": {"amenity": "restaurant", "contact:facebook": "https://www.facebook.com/profile.php?id=100057561305858", "cuisine": "seafood", "name": "Chez Th\u00e9r\u00e9sa", "payment:cash": "yes", "payment:mastercard": "yes", "payment:visa": "yes", "phone": "+33 4 95 38 02 61;+33 6 37 91 68 04;+33 7 84 08 90 07", "website:menu": "https://www.whatiseat.com/it/menu/chez-theresa/"}}, {"type": "node", "id": 3397673826, "lat": 42.2548246, "lon": 9.5457145, "tags": {"amenity": "cafe", "check_date": "2023-06-05", "name": "L'alistru", "old_name": "Bar des chasseurs"}}, {"type": "node", "id": 3397673827, "lat": 42.2547479, "lon": 9.5456891, "tags": {"amenity": "restaurant", "check_date": "2023-06-05", "cuisine": "pizza", "name": "Brasserie A waraka", "old_name": "Pizzeria du Phare"}}, {"type": "node", "id": 3398890517, "lat": 42.2586686, "lon": 9.5468834, "tags": {"amenity": "cafe", "name": "Bar L'Oasis", "tobacco": "yes"}}, {"type": "node", "id": 3646600165, "lat": 42.3868407, "lon": 9.5260735, "tags": {"addr:street": "Chemin de Valicella", "amenity": "restaurant", "name": "San Fracescu"}}, {"type": "node", "id": 3646607952, "lat": 42.3970411, "lon": 9.5320637, "tags": {"addr:street": "L'Avidanella", "amenity": "restaurant", "cuisine": "french", "name": "Les Arbousiers", "phone": "+33495341473", "website": "http://maquis-plage-corse.com/restaurant-les-arbousiers-en-costa-verde-a-moriani-plage/"}}, {"type": "node", "id": 3754075673, "lat": 42.2552374, "lon": 9.55495, "tags": {"addr:street": "Plage d'Alistro", "amenity": "restaurant", "cuisine": "local;burger;regional;mediterranean", "name": "Costa Marina (Chez Costa)", "outdoor_seating": "yes", "phone": "+33 4 95 38 07 75"}}, {"type": "node", "id": 4792215061, "lat": 42.2245981, "lon": 9.5516702}, {"type": "node", "id": 4792215062, "lat": 42.2246058, "lon": 9.5517718}, {"type": "node", "id": 4792215063, "lat": 42.2244633, "lon": 9.5517917}, {"type": "node", "id": 4792215064, "lat": 42.2245964, "lon": 9.5517732}, {"type": "node", "id": 4792215065, "lat": 42.2244575, "lon": 9.5517158}, {"type": "node", "id": 4792215066, "lat": 42.2243796, "lon": 9.551551}, {"type": "node", "id": 4792215067, "lat": 42.2246627, "lon": 9.5515337}, {"type": "node", "id": 4792215068, "lat": 42.2246724, "lon": 9.5516598}, {"type": "node", "id": 4876638938, "lat": 42.3224965, "lon": 9.545211, "tags": {"amenity": "restaurant", "cuisine": "pizza", "name": "Le Marco Polo"}}, {"type": "node", "id": 4876646774, "lat": 42.3213657, "lon": 9.5452165, "tags": {"amenity": "restaurant", "cuisine": "spanish", "name": "Le San Carlu"}}, {"type": "node", "id": 4876657018, "lat": 42.3187773, "lon": 9.5479979, "tags": {"amenity": "cafe"}}, {"type": "node", "id": 5577609274, "lat": 42.2293103, "lon": 9.5518874, "tags": {"amenity": "restaurant", "name": "La Tropica"}}, {"type": "node", "id": 8089791781, "lat": 42.2243909, "lon": 9.5516984}, {"type": "node", "id": 8089791782, "lat": 42.2244258, "lon": 9.5516935}, {"type": "node", "id": 8089791783, "lat": 42.2244278, "lon": 9.55172}, {"type": "node", "id": 8089791784, "lat": 42.2245778, "lon": 9.5515456}, {"type": "node", "id": 8089791785, "lat": 42.2245761, "lon": 9.5515235}, {"type": "node", "id": 8310650056, "lat": 42.3953786, "lon": 9.5338524, "tags": {"amenity": "restaurant", "contact:facebook": "https://www.facebook.com/lepodgio/", "name": "Restaurant le Podgio"}}, {"type": "node", "id": 9161453492, "lat": 42.3915157, "lon": 9.5341909, "tags": {"amenity": "restaurant"}}, {"type": "node", "id": 9989968735, "lat": 42.2199065, "lon": 9.5527424}, {"type": "node", "id": 9989968736, "lat": 42.2199036, "lon": 9.5527209}, {"type": "node", "id": 9989968737, "lat": 42.2199329, "lon": 9.5527156}, {"type": "node", "id": 9989968738, "lat": 42.2199349, "lon": 9.5527397}, {"type": "node", "id": 10933520362, "lat": 42.2634182, "lon": 9.5488071, "tags": {"amenity": "cafe", "contact:facebook": "https://www.facebook.com/profile.php?id=100063698885066", "cuisine": "coffee_shop;pastry;sandwich", "name": "Maison Straboni", "opening_hours": "Tu-Sa 06:00-20:00; Sa 06:00-13:00", "website": "https://www.maison-straboni.fr/"}}, {"type": "node", "id": 12018532275, "lat": 42.2627087, "lon": 9.5468147, "tags": {"amenity": "cafe", "indoor": "yes", "level": "0", "name": "Le Saint Michel bar"}}, {"type": "node", "id": 12881268635, "lat": 42.3822719, "lon": 9.5298336, "tags": {"amenity": "restaurant", "contact:facebook": "https://www.facebook.com/profile.php?id=61553471014660", "name": "La famiglia", "website": "https://www.la-famiglia-restaurant-santa-lucia-di-moriani.fr/"}}, {"type": "way", "id": 306642090, "nodes": [3116150269, 3116150270, 3116150271, 9989968735, 9989968736, 9989968737, 9989968738, 3116150272, 3116150269], "tags": {"amenity": "restaurant", "building": "yes", "capacity": "50", "cuisine": "regional", "name": "C\u00f4t\u00e9 Mer"}}, {"type": "way", "id": 486639128, "nodes": [4792215068, 4792215067, 8089791784, 8089791785, 4792215066, 8089791781, 8089791782, 8089791783, 4792215065, 4792215063, 4792215064, 4792215062, 4792215061, 4792215068], "tags": {"amenity": "restaurant", "building": "commercial", "cuisine": "regional", "name": "Restaurant Corsicana", "outdoor_seating": "yes", "phone": "+33 4 95 38 85 76", "source": "cadastre-dgi-fr source : Direction G\u00e9n\u00e9rale des Finances Publiques - Cadastre. Mise \u00e0 jour : 2020", "website": "http://www.restaurant-corsicana.com/"}}]}