{"version": 0.6, "generator": "Overpass API 0.7.62.7 375dc00a", "osm3s": {"timestamp_osm_base": "2025-06-14T13:57:32Z", "copyright": "The data included in this document is from www.openstreetmap.org. The data is made available under ODbL."}, "elements": [{"type": "node", "id": 288232094, "lat": 41.9193993, "lon": 15.7996217, "tags": {"amenity": "cafe"}}, {"type": "node", "id": 288233827, "lat": 41.9146745, "lon": 15.6742073, "tags": {"amenity": "cafe"}}, {"type": "node", "id": 288234059, "lat": 41.9181765, "lon": 15.7981178, "tags": {"amenity": "restaurant", "name": "Le due ancore"}}, {"type": "node", "id": 339580873, "lat": 41.8297801, "lon": 15.7728731, "tags": {"amenity": "cafe", "name": "Bar Uria"}}, {"type": "node", "id": 339584675, "lat": 41.8426686, "lon": 15.7627775, "tags": {"amenity": "restaurant", "cuisine": "regional", "name": "La Fontana"}}, {"type": "node", "id": 949621551, "lat": 41.7998392, "lon": 16.1410996, "tags": {"amenity": "restaurant", "name": "Masseria Sgarrazza"}}, {"type": "node", "id": 959169517, "lat": 41.8168396, "lon": 16.1489907, "tags": {"amenity": "restaurant"}}, {"type": "node", "id": 1416138028, "lat": 41.9056368, "lon": 16.150438}, {"type": "node", "id": 1416138030, "lat": 41.9056397, "lon": 16.1506055}, {"type": "node", "id": 1416138034, "lat": 41.9058628, "lon": 16.1504309}, {"type": "node", "id": 1416138042, "lat": 41.9058657, "lon": 16.1505984}, {"type": "node", "id": 2132627752, "lat": 41.9360979, "lon": 15.9470203, "tags": {"amenity": "restaurant", "name": "La Lampara"}}, {"type": "node", "id": 2132627797, "lat": 41.936142, "lon": 15.9850326, "tags": {"amenity": "restaurant", "name": "La Stazione"}}, {"type": "node", "id": 2149104411, "lat": 41.8927898, "lon": 15.9584117, "tags": {"amenity": "restaurant", "contact:phone": "+39-366-3188475", "cuisine": "pizza", "name": "Le Macine"}}, {"type": "node", "id": 2991256166, "lat": 41.8981488, "lon": 15.9570922, "tags": {"addr:housenumber": "58", "addr:street": "Corso Carmine", "amenity": "restaurant", "cuisine": "regional", "name": "L'Artistico"}}, {"type": "node", "id": 3654550467, "lat": 41.9399176, "lon": 16.0748059, "tags": {"amenity": "restaurant", "name": "Enzo & Mina"}}, {"type": "node", "id": 3698555057, "lat": 41.914301, "lon": 16.1213511, "tags": {"amenity": "restaurant", "cuisine": "pizza", "name": "Ristorante Terrazza sul mare", "phone": "+39 0884 705639"}}, {"type": "node", "id": 3698555068, "lat": 41.9145486, "lon": 16.1214458, "tags": {"amenity": "cafe", "delivery": "no", "level": "0", "name": "Onda Golosa", "operator": "Olivieri, Anna & C. sas", "outdoor_seating": "yes", "ref:vatin": "IT03532710716", "takeaway": "yes", "wheelchair": "limited"}}, {"type": "node", "id": 3704993486, "lat": 41.9173313, "lon": 16.115886, "tags": {"amenity": "restaurant", "cuisine": "seafood;sandwich", "name": "Panini di mare", "website": "http://paninidimare.it"}}, {"type": "node", "id": 3704993487, "lat": 41.9167172, "lon": 16.117264, "tags": {"amenity": "restaurant", "cuisine": "pizza"}}, {"type": "node", "id": 3704996158, "lat": 41.9119747, "lon": 16.1320063, "tags": {"amenity": "cafe"}}, {"type": "node", "id": 3704996159, "lat": 41.9119852, "lon": 16.131869, "tags": {"amenity": "restaurant"}}, {"type": "node", "id": 4079244070, "lat": 41.8330949, "lon": 15.5736654}, {"type": "node", "id": 4079244077, "lat": 41.8330996, "lon": 15.5735698}, {"type": "node", "id": 4079244257, "lat": 41.8331876, "lon": 15.573426}, {"type": "node", "id": 4084277606, "lat": 41.8899938, "lon": 16.0735665}, {"type": "node", "id": 4084277607, "lat": 41.8899939, "lon": 16.0735047}, {"type": "node", "id": 4084277623, "lat": 41.8900357, "lon": 16.0735427}, {"type": "node", "id": 4084277624, "lat": 41.8900357, "lon": 16.0735666}, {"type": "node", "id": 4084277625, "lat": 41.8900358, "lon": 16.0735047}, {"type": "node", "id": 4084284200, "lat": 41.8998307, "lon": 16.1521711}, {"type": "node", "id": 4084284212, "lat": 41.8998637, "lon": 16.1523387}, {"type": "node", "id": 4084284240, "lat": 41.8999251, "lon": 16.1522959}, {"type": "node", "id": 4084284242, "lat": 41.899929, "lon": 16.1523157}, {"type": "node", "id": 4084284252, "lat": 41.8999382, "lon": 16.1522584}, {"type": "node", "id": 4084284256, "lat": 41.8999442, "lon": 16.1522891}, {"type": "node", "id": 4084284290, "lat": 41.8999759, "lon": 16.1521182}, {"type": "node", "id": 4084284293, "lat": 41.8999784, "lon": 16.1521434}, {"type": "node", "id": 4084284313, "lat": 41.9000014, "lon": 16.1522362}, {"type": "node", "id": 4084284320, "lat": 41.900011, "lon": 16.152154}, {"type": "node", "id": 4084284348, "lat": 41.9000427, "lon": 16.1523212}, {"type": "node", "id": 4084284365, "lat": 41.9000572, "lon": 16.1520885}, {"type": "node", "id": 4084284475, "lat": 41.9001437, "lon": 16.1522164}, {"type": "node", "id": 4084295971, "lat": 41.9136706, "lon": 16.1233722}, {"type": "node", "id": 4084304174, "lat": 41.91254, "lon": 16.1262094}, {"type": "node", "id": 4084304192, "lat": 41.912561, "lon": 16.1261337}, {"type": "node", "id": 4084304253, "lat": 41.9126095, "lon": 16.1262438}, {"type": "node", "id": 4084304283, "lat": 41.9126305, "lon": 16.1261673}, {"type": "node", "id": 4084305990, "lat": 41.9136841, "lon": 16.1233182}, {"type": "node", "id": 4084305991, "lat": 41.9136853, "lon": 16.1234282}, {"type": "node", "id": 4084306032, "lat": 41.913729, "lon": 16.1231539}, {"type": "node", "id": 4084306039, "lat": 41.9137368, "lon": 16.123158}, {"type": "node", "id": 4084306080, "lat": 41.9137761, "lon": 16.1231787}, {"type": "node", "id": 4084306098, "lat": 41.9137905, "lon": 16.1231863}, {"type": "node", "id": 4084306130, "lat": 41.9138253, "lon": 16.1234955}, {"type": "node", "id": 4084306131, "lat": 41.9138287, "lon": 16.1232064}, {"type": "node", "id": 4084306142, "lat": 41.9138423, "lon": 16.1234317}, {"type": "node", "id": 4084306176, "lat": 41.9138753, "lon": 16.1232309}, {"type": "node", "id": 4084306200, "lat": 41.9138976, "lon": 16.1232997}, {"type": "node", "id": 4084306201, "lat": 41.9139388, "lon": 16.1234988}, {"type": "node", "id": 4084306202, "lat": 41.9139066, "lon": 16.1232474}, {"type": "node", "id": 4084306208, "lat": 41.9139076, "lon": 16.1232674}, {"type": "node", "id": 4084306225, "lat": 41.9139858, "lon": 16.123352}, {"type": "node", "id": 4087306893, "lat": 41.9172436, "lon": 15.8255922}, {"type": "node", "id": 4087306907, "lat": 41.9172496, "lon": 15.8255363}, {"type": "node", "id": 4087306919, "lat": 41.9172591, "lon": 15.8254473}, {"type": "node", "id": 4087306928, "lat": 41.9172628, "lon": 15.8254118}, {"type": "node", "id": 4087306984, "lat": 41.9173084, "lon": 15.8256046}, {"type": "node", "id": 4087306991, "lat": 41.917311, "lon": 15.8255799}, {"type": "node", "id": 4087307004, "lat": 41.9173219, "lon": 15.8256197}, {"type": "node", "id": 4087307007, "lat": 41.917325, "lon": 15.8254236}, {"type": "node", "id": 4087307010, "lat": 41.9173258, "lon": 15.8255827}, {"type": "node", "id": 4087307014, "lat": 41.917328, "lon": 15.8253955}, {"type": "node", "id": 4087307048, "lat": 41.9173754, "lon": 15.8254045}, {"type": "node", "id": 4087307051, "lat": 41.9173773, "lon": 15.8256303}, {"type": "node", "id": 4087307054, "lat": 41.9173805, "lon": 15.8253569}, {"type": "node", "id": 4087307063, "lat": 41.9173911, "lon": 15.8255005}, {"type": "node", "id": 4087307078, "lat": 41.9174109, "lon": 15.8255042}, {"type": "node", "id": 4087307082, "lat": 41.917415, "lon": 15.8253847}, {"type": "node", "id": 4087307083, "lat": 41.9174172, "lon": 15.8253639}, {"type": "node", "id": 4087307123, "lat": 41.9174549, "lon": 15.8255126}, {"type": "node", "id": 4087307137, "lat": 41.9174674, "lon": 15.8253947}, {"type": "node", "id": 4087316807, "lat": 41.9210189, "lon": 15.8252224}, {"type": "node", "id": 4087316984, "lat": 41.9210821, "lon": 15.8252759}, {"type": "node", "id": 4087317134, "lat": 41.9211261, "lon": 15.8252078}, {"type": "node", "id": 4087317144, "lat": 41.9211373, "lon": 15.8250417}, {"type": "node", "id": 4087317156, "lat": 41.9211454, "lon": 15.8250693}, {"type": "node", "id": 4087317290, "lat": 41.9211974, "lon": 15.825125}, {"type": "node", "id": 4087317334, "lat": 41.9212014, "lon": 15.8249944}, {"type": "node", "id": 4087317406, "lat": 41.9212586, "lon": 15.8249562}, {"type": "node", "id": 4087317419, "lat": 41.9212618, "lon": 15.8250668}, {"type": "node", "id": 4087317523, "lat": 41.9213088, "lon": 15.8249228}, {"type": "node", "id": 4087317585, "lat": 41.9213419, "lon": 15.8250171}, {"type": "node", "id": 4087319992, "lat": 41.9224372, "lon": 15.8239538}, {"type": "node", "id": 4087320034, "lat": 41.9224645, "lon": 15.824248}, {"type": "node", "id": 4087320121, "lat": 41.9225158, "lon": 15.8239384}, {"type": "node", "id": 4087320132, "lat": 41.9225212, "lon": 15.8239739}, {"type": "node", "id": 4087320153, "lat": 41.9225327, "lon": 15.8240367}, {"type": "node", "id": 4087320163, "lat": 41.9225429, "lon": 15.8241259}, {"type": "node", "id": 4087320174, "lat": 41.9225461, "lon": 15.8241955}, {"type": "node", "id": 4087320180, "lat": 41.9225521, "lon": 15.824234}, {"type": "node", "id": 4087320197, "lat": 41.9225597, "lon": 15.8239652}, {"type": "node", "id": 4087320210, "lat": 41.922565, "lon": 15.8240773}, {"type": "node", "id": 4087320216, "lat": 41.9225667, "lon": 15.8240301}, {"type": "node", "id": 4087320227, "lat": 41.9225747, "lon": 15.824121}, {"type": "node", "id": 4087320243, "lat": 41.9225831, "lon": 15.8241888}, {"type": "node", "id": 4087333615, "lat": 41.9293097, "lon": 15.8898566}, {"type": "node", "id": 4087333621, "lat": 41.9293104, "lon": 15.8899882}, {"type": "node", "id": 4087333658, "lat": 41.9293322, "lon": 15.889988}, {"type": "node", "id": 4087333692, "lat": 41.9293457, "lon": 15.8899873}, {"type": "node", "id": 4087333693, "lat": 41.9293451, "lon": 15.8898563}, {"type": "node", "id": 4087333722, "lat": 41.9293586, "lon": 15.8901827}, {"type": "node", "id": 4087333798, "lat": 41.929398, "lon": 15.8901823}, {"type": "node", "id": 4087333826, "lat": 41.9294093, "lon": 15.8899867}, {"type": "node", "id": 4087333828, "lat": 41.9294103, "lon": 15.8901822}, {"type": "node", "id": 4089284759, "lat": 41.9460537, "lon": 16.0461789}, {"type": "node", "id": 4090338473, "lat": 41.8509539, "lon": 16.0036039}, {"type": "node", "id": 4090338475, "lat": 41.8509786, "lon": 16.0035211}, {"type": "node", "id": 4090338476, "lat": 41.8509944, "lon": 16.0034683}, {"type": "node", "id": 4090338477, "lat": 41.8510446, "lon": 16.003652}, {"type": "node", "id": 4090338478, "lat": 41.8510516, "lon": 16.0036288}, {"type": "node", "id": 4090338479, "lat": 41.8510633, "lon": 16.0036357}, {"type": "node", "id": 4090338480, "lat": 41.8510707, "lon": 16.0035636}, {"type": "node", "id": 4090338481, "lat": 41.8510842, "lon": 16.0035713}, {"type": "node", "id": 4090338482, "lat": 41.8510846, "lon": 16.0035179}, {"type": "node", "id": 4090362528, "lat": 41.9146044, "lon": 15.9609638}, {"type": "node", "id": 4090362537, "lat": 41.9146393, "lon": 15.9609018}, {"type": "node", "id": 4090362541, "lat": 41.9146524, "lon": 15.961012}, {"type": "node", "id": 4090362549, "lat": 41.9146873, "lon": 15.9609485}, {"type": "node", "id": 4090372325, "lat": 41.9349776, "lon": 15.9383718}, {"type": "node", "id": 4090372330, "lat": 41.9349902, "lon": 15.9384866}, {"type": "node", "id": 4090372383, "lat": 41.9350549, "lon": 15.9383565}, {"type": "node", "id": 4090372403, "lat": 41.9350681, "lon": 15.9384713}, {"type": "node", "id": 4090373556, "lat": 41.9361473, "lon": 15.9457642}, {"type": "node", "id": 4090373580, "lat": 41.936174, "lon": 15.9460135}, {"type": "node", "id": 4090373641, "lat": 41.9362402, "lon": 15.9457464}, {"type": "node", "id": 4090373660, "lat": 41.9362675, "lon": 15.9459956}, {"type": "node", "id": 4090373736, "lat": 41.9363864, "lon": 15.9481807}, {"type": "node", "id": 4090373760, "lat": 41.9364062, "lon": 15.9483756}, {"type": "node", "id": 4090373787, "lat": 41.9364426, "lon": 15.9490155}, {"type": "node", "id": 4090373797, "lat": 41.9364589, "lon": 15.9490949}, {"type": "node", "id": 4090373800, "lat": 41.9364652, "lon": 15.948171}, {"type": "node", "id": 4090373804, "lat": 41.9364743, "lon": 15.9490892}, {"type": "node", "id": 4090373810, "lat": 41.9364795, "lon": 15.9490034}, {"type": "node", "id": 4090373813, "lat": 41.936485, "lon": 15.9483644}, {"type": "node", "id": 4090373814, "lat": 41.9364863, "lon": 15.9491445}, {"type": "node", "id": 4090373825, "lat": 41.936514, "lon": 15.9491346}, {"type": "node", "id": 4090373840, "lat": 41.9365399, "lon": 15.9491012}, {"type": "node", "id": 4090373842, "lat": 41.9365443, "lon": 15.9491239}, {"type": "node", "id": 4090373864, "lat": 41.9365981, "lon": 15.9489645}, {"type": "node", "id": 4090373872, "lat": 41.9366185, "lon": 15.9490748}, {"type": "node", "id": 4350138789, "lat": 41.9072416, "lon": 16.1359804, "tags": {"addr:place": "Localit\u00e0 palude Mezzane", "addr:street": "SP 52", "amenity": "restaurant", "contact:phone": "+39-339-2691112", "cuisine": "barbecue", "level": "0", "name": "Cariglia carni srl", "note": "FIXME: This is a butchery and a grill restaurant", "shop": "butcher"}}, {"type": "node", "id": 4351312625, "lat": 41.9293331, "lon": 15.8901829}, {"type": "node", "id": 4357292887, "lat": 41.9123118, "lon": 16.1242396, "tags": {"amenity": "cafe", "name": "Pagoda", "opening_hours": "PH,Mo-Su 09:00-24:00"}}, {"type": "node", "id": 4360297189, "lat": 41.8196674, "lon": 16.0000813, "tags": {"amenity": "cafe", "name": "Punto Ristoro Baracconi", "wheelchair": "limited"}}, {"type": "node", "id": 4360297190, "lat": 41.8195845, "lon": 16.0001752, "tags": {"amenity": "restaurant", "cuisine": "regional", "name": "Trattoria Foresta Umbra"}}, {"type": "node", "id": 4405554177, "lat": 41.9156635, "lon": 16.0159961, "tags": {"amenity": "restaurant", "name": "Agriturismo pane e vino"}}, {"type": "node", "id": 4413164035, "lat": 41.9461142, "lon": 16.0461284}, {"type": "node", "id": 4413164036, "lat": 41.9460663, "lon": 16.046064}, {"type": "node", "id": 4413164037, "lat": 41.946023, "lon": 16.0461345}, {"type": "node", "id": 4838564523, "lat": 41.9474972, "lon": 16.0302688, "tags": {"amenity": "restaurant", "contact:email": "info@altrabucco.it", "contact:phone": "+39 0884 962556", "contact:website": "https://www.altrabucco.com/", "name": "Da Mim\u00ed Trabucco Ristorante", "name:it": "Da Mim\u00ed Trabucco Ristorante"}}, {"type": "node", "id": 4838580822, "lat": 41.9485453, "lon": 16.0436727, "tags": {"amenity": "restaurant", "name": "Il Trabucco", "name:it": "Il Trabucco", "phone": "+39 0884911009", "website": "https://www.iltrabuccoristorante.it/"}}, {"type": "node", "id": 4922992484, "lat": 41.9224148, "lon": 15.8256715, "tags": {"addr:city": "Rodi Garganico", "addr:housenumber": "11", "addr:postcode": "71012", "addr:street": "Lido del Sole, Piazzale Irium", "amenity": "restaurant", "name": "Restaurant/Pizzeria Lido Diomedee", "smoking": "separated", "website": "https://www.albergodiomedee.com/"}}, {"type": "node", "id": 5116063723, "lat": 41.9295725, "lon": 15.8835509, "tags": {"amenity": "restaurant", "name": "Trattoria Pane e Pomodoro"}}, {"type": "node", "id": 5401252371, "lat": 41.9294491, "lon": 15.8845034, "tags": {"amenity": "cafe"}}, {"type": "node", "id": 5409721683, "lat": 41.9298463, "lon": 15.883871, "tags": {"amenity": "restaurant", "name": "L'angolo della Pizza"}}, {"type": "node", "id": 5468796396, "lat": 41.9468487, "lon": 16.0127129, "tags": {"amenity": "restaurant", "check_date": "2023-07-22", "name": "Il Pescatore"}}, {"type": "node", "id": 5468796397, "lat": 41.9475671, "lon": 16.013497, "tags": {"amenity": "restaurant", "check_date": "2023-07-22", "name": "Da Peppino", "old_name": "La Terrazza"}}, {"type": "node", "id": 5468797647, "lat": 41.9479641, "lon": 16.0134929, "tags": {"amenity": "restaurant", "check_date": "2023-07-22", "name": "Trattoria Fr\u00e0 Stefano"}}, {"type": "node", "id": 5468797648, "lat": 41.9477687, "lon": 16.013704, "tags": {"addr:housenumber": "5", "addr:street": "Corso Garibaldi", "amenity": "restaurant", "check_date": "2023-07-21", "name": "Ristorante Pizzeria Da Celestina"}}, {"type": "node", "id": 6406643739, "lat": 41.8331354, "lon": 15.5733677}, {"type": "node", "id": 6406643740, "lat": 41.833047, "lon": 15.5735101}, {"type": "node", "id": 6406643741, "lat": 41.8330476, "lon": 15.5736122}, {"type": "node", "id": 6406643742, "lat": 41.8329968, "lon": 15.573696}, {"type": "node", "id": 6406643743, "lat": 41.8330444, "lon": 15.5737455}, {"type": "node", "id": 6406730186, "lat": 41.8306402, "lon": 15.5751924}, {"type": "node", "id": 6406730187, "lat": 41.8304679, "lon": 15.5753455}, {"type": "node", "id": 6406730188, "lat": 41.8305285, "lon": 15.5755098}, {"type": "node", "id": 6406730189, "lat": 41.8307139, "lon": 15.5753503}, {"type": "node", "id": 6406730190, "lat": 41.8305374, "lon": 15.5752881}, {"type": "node", "id": 6410916037, "lat": 41.9126361, "lon": 16.1361722, "tags": {"amenity": "restaurant", "name": "Al Tramonto"}}, {"type": "node", "id": 6411000361, "lat": 41.9021978, "lon": 16.1389677, "tags": {"amenity": "restaurant", "cuisine": "seafood", "name": "Gusto Adriatico Friggitoria"}}, {"type": "node", "id": 6494357114, "lat": 41.8876128, "lon": 16.1304982, "tags": {"amenity": "restaurant", "name": "Ristorante Donna Maria", "website": "https://www.tenutapadrepio.com/ristorante/"}}, {"type": "node", "id": 6495072894, "lat": 41.8798739, "lon": 16.1395521, "tags": {"amenity": "restaurant", "name": "Coppola rossa relax B&B"}}, {"type": "node", "id": 6495123902, "lat": 41.9489339, "lon": 16.0112447, "tags": {"amenity": "restaurant", "cuisine": "seafood", "name": "Ristorante bar costamarina"}}, {"type": "node", "id": 6495140782, "lat": 41.9482876, "lon": 16.0103618, "tags": {"amenity": "restaurant", "cuisine": "seafood", "name": "Ristoranti di Peschici"}}, {"type": "node", "id": 6495146188, "lat": 41.9466539, "lon": 16.0090969, "tags": {"amenity": "restaurant", "check_date": "2023-07-27", "name": "Ristorante Sabbia D'Oro"}}, {"type": "node", "id": 6508710074, "lat": 41.9301977, "lon": 15.8850726, "tags": {"addr:city": "Rodi Garganico", "addr:housenumber": "10", "addr:postcode": "71012", "addr:street": "Via Masaniello", "amenity": "restaurant", "cuisine": "seafood", "name": "L'Operetta Osteria di Mare", "phone": "+39 338 2949480"}}, {"type": "node", "id": 6508850650, "lat": 41.9293659, "lon": 15.8911278, "tags": {"addr:city": "Rodi Garganico", "addr:housenumber": "16", "addr:postcode": "71012", "addr:street": "Via Trieste", "amenity": "restaurant", "cuisine": "seafood", "name": "Ristorante Il Gabbiano", "phone": "+39 0884 966182"}}, {"type": "node", "id": 6510507581, "lat": 41.9286756, "lon": 15.8850135, "tags": {"amenity": "restaurant", "cuisine": "pizza", "name": "Pizzeria Helvetia"}}, {"type": "node", "id": 6510516493, "lat": 41.9287935, "lon": 15.8840317, "tags": {"amenity": "restaurant", "cuisine": "seafood", "name": "Ristorante Borgo San Pietro"}}, {"type": "node", "id": 6510521195, "lat": 41.9285572, "lon": 15.8831378, "tags": {"amenity": "restaurant", "cuisine": "seafood", "name": "Gli Archi Ristorante Pizzeria"}}, {"type": "node", "id": 6511208323, "lat": 41.9288884, "lon": 15.8843738, "tags": {"amenity": "restaurant", "cuisine": "regional", "name": "Le Antiche Travi"}}, {"type": "node", "id": 6511213164, "lat": 41.9292268, "lon": 15.8843844, "tags": {"amenity": "cafe", "name": "Bar C'era Una Volta"}}, {"type": "node", "id": 6511242537, "lat": 41.9295269, "lon": 15.8838712, "tags": {"amenity": "restaurant", "name": "Enopolio"}}, {"type": "node", "id": 6511249086, "lat": 41.929752, "lon": 15.8840389, "tags": {"amenity": "restaurant", "cuisine": "pizza", "name": "Pizzeria Il Fornetto"}}, {"type": "node", "id": 6511252649, "lat": 41.9300434, "lon": 15.8842401, "tags": {"amenity": "cafe", "name": "Il Chioschetto Biricchino"}}, {"type": "node", "id": 6511274804, "lat": 41.8234596, "lon": 15.779854, "tags": {"amenity": "restaurant", "name": "Ristorante Al Melograno"}}, {"type": "node", "id": 6511333992, "lat": 41.8238723, "lon": 15.7791934, "tags": {"amenity": "cafe", "name": "Bar Caff\u00e8 Cav\u00f9"}}, {"type": "node", "id": 6511336362, "lat": 41.8242066, "lon": 15.7775281, "tags": {"amenity": "cafe", "name": "Laboratorio dolciario Cake Design Cagnano Varano"}}, {"type": "node", "id": 6511354199, "lat": 41.826967, "lon": 15.7737412, "tags": {"amenity": "restaurant", "cuisine": "pizza", "name": "Bellavista"}}, {"type": "node", "id": 6518292929, "lat": 41.9119872, "lon": 15.6764277, "tags": {"amenity": "restaurant", "cuisine": "seafood", "name": "Ristorante Quo Vadis"}}, {"type": "node", "id": 6518297397, "lat": 41.9082294, "lon": 15.7371607, "tags": {"amenity": "restaurant", "cuisine": "seafood", "name": "Oasi Gargamelle Ittiturismo e Acquacoltura"}}, {"type": "node", "id": 6564534685, "lat": 41.8123118, "lon": 16.1483155, "tags": {"amenity": "restaurant", "cuisine": "italian", "name": "Masseria San Salvatore"}}, {"type": "node", "id": 6875394441, "lat": 41.949576, "lon": 16.0125235, "tags": {"amenity": "restaurant", "check_date": "2023-07-22", "name": "Al Castello"}}, {"type": "node", "id": 6931089965, "lat": 41.9244629, "lon": 15.9621159, "tags": {"amenity": "restaurant", "cuisine": "pizza"}}, {"type": "node", "id": 7801737119, "lat": 41.9021546, "lon": 16.1224658, "tags": {"amenity": "restaurant", "cuisine": "local;grill", "name": "A lume di candela"}}, {"type": "node", "id": 7941486285, "lat": 41.9469454, "lon": 16.0142102, "tags": {"amenity": "cafe"}}, {"type": "node", "id": 7952310985, "lat": 41.9329477, "lon": 16.0331181, "tags": {"addr:postcode": "71010", "addr:street": "Litoranea", "amenity": "restaurant", "cuisine": "friture;italian;local;seafood;steak_house", "name": "Angolo del Break"}}, {"type": "node", "id": 8990347873, "lat": 41.9128237, "lon": 16.12557, "tags": {"amenity": "restaurant", "cuisine": "pizza", "name": "Selva dei Pini", "outdoor_seating": "yes", "takeaway": "no"}}, {"type": "node", "id": 8992576721, "lat": 41.9103418, "lon": 16.1354335, "tags": {"amenity": "restaurant", "cuisine": "seafood;pizza", "name": "Porticello"}}, {"type": "node", "id": 8997615652, "lat": 41.920156, "lon": 16.1130345, "tags": {"amenity": "restaurant", "cuisine": "fish", "name": "Spiaggia Lunga", "outdoor_seating": "yes", "takeaway": "no"}}, {"type": "node", "id": 9034013617, "lat": 41.8604592, "lon": 16.1606469, "tags": {"amenity": "restaurant", "name": "Chalet Degli Ulivi", "phone": "+393464143598"}}, {"type": "node", "id": 9748691817, "lat": 41.9411091, "lon": 16.0211507, "tags": {"addr:street": "Contrada Valle Scinni", "amenity": "restaurant", "cuisine": "italian", "name": "Peschici", "name:it": "Ristorante Alba dei Pini", "phone": "3281091062"}}, {"type": "node", "id": 10736694182, "lat": 41.8242956, "lon": 15.778263, "tags": {"amenity": "cafe", "name": "La Dolce Vita"}}, {"type": "node", "id": 10918289417, "lat": 41.9301443, "lon": 15.9004511}, {"type": "node", "id": 10918289418, "lat": 41.9301702, "lon": 15.9006755}, {"type": "node", "id": 10918289419, "lat": 41.930143, "lon": 15.9006811}, {"type": "node", "id": 10918289420, "lat": 41.9301536, "lon": 15.9007736}, {"type": "node", "id": 10918289421, "lat": 41.9300982, "lon": 15.9007851}, {"type": "node", "id": 10918289422, "lat": 41.9300727, "lon": 15.9005631}, {"type": "node", "id": 10918289423, "lat": 41.9300968, "lon": 15.9005581}, {"type": "node", "id": 10918289424, "lat": 41.9300859, "lon": 15.9004632}, {"type": "node", "id": 10918289438, "lat": 41.9310957, "lon": 15.9086517}, {"type": "node", "id": 10918289439, "lat": 41.9311384, "lon": 15.908921}, {"type": "node", "id": 10918289440, "lat": 41.9310666, "lon": 15.9089416}, {"type": "node", "id": 10918289441, "lat": 41.9310239, "lon": 15.9086723}, {"type": "node", "id": 11003480967, "lat": 41.9109082, "lon": 16.1136033, "tags": {"addr:street": "SP52 bis", "amenity": "restaurant", "description": "Ristorante, pizzeria, piatti da asporto", "name": "La Casupola"}}, {"type": "node", "id": 11051020790, "lat": 41.9493209, "lon": 16.0114336, "tags": {"amenity": "restaurant", "highchair": "2", "name": "Da Nonna Italia", "outdoor_seating": "yes", "toilets:wheelchair": "yes", "wheelchair": "limited"}}, {"type": "node", "id": 11066887088, "lat": 41.9449036, "lon": 16.0140303, "tags": {"amenity": "cafe", "name": "The Q Club"}}, {"type": "node", "id": 11066901582, "lat": 41.946704, "lon": 16.0128753, "tags": {"amenity": "restaurant", "name": "Piccolo Paradiso"}}, {"type": "node", "id": 11066901583, "lat": 41.9467878, "lon": 16.013303, "tags": {"amenity": "restaurant", "cuisine": "pizza", "name": "La Piazzetta"}}, {"type": "node", "id": 11066951482, "lat": 41.94598, "lon": 16.0065281, "tags": {"amenity": "restaurant"}}, {"type": "node", "id": 11069974900, "lat": 41.947216, "lon": 16.013887, "tags": {"amenity": "restaurant", "name": "Da Giorgio"}}, {"type": "node", "id": 11069974901, "lat": 41.9469824, "lon": 16.0137531, "tags": {"amenity": "restaurant", "cuisine": "pizza", "name": "Marianna"}}, {"type": "node", "id": 11069988245, "lat": 41.9462881, "lon": 16.0135671, "tags": {"amenity": "restaurant", "cuisine": "pizza"}}, {"type": "node", "id": 11071387575, "lat": 41.9493752, "lon": 16.0130486, "tags": {"amenity": "restaurant", "name": "porta di basso"}}, {"type": "node", "id": 11073082965, "lat": 41.9484337, "lon": 16.0132114, "tags": {"amenity": "restaurant"}}, {"type": "node", "id": 11073092630, "lat": 41.9480196, "lon": 16.0142962, "tags": {"amenity": "restaurant"}}, {"type": "node", "id": 11073098613, "lat": 41.9480048, "lon": 16.0130996, "tags": {"amenity": "restaurant"}}, {"type": "node", "id": 11078859632, "lat": 41.9453007, "lon": 16.0031148, "tags": {"amenity": "restaurant", "cuisine": "pizza", "name": "Il Pirata"}}, {"type": "node", "id": 11160367280, "lat": 41.9456041, "lon": 16.016036, "tags": {"amenity": "restaurant", "name": "Macelleria braceria Antichi Sapori da francy e maddy", "shop": "butcher"}}, {"type": "node", "id": 11167816905, "lat": 41.9469659, "lon": 16.0140232, "tags": {"amenity": "restaurant", "name": "Enoteca L\u2018Angelo Divino"}}, {"type": "node", "id": 11878699517, "lat": 41.9454147, "lon": 16.032007, "tags": {"amenity": "restaurant", "cuisine": "seafood;italian;regional", "name": "La Paranza da Lina"}}, {"type": "node", "id": 12717863301, "lat": 41.8285479, "lon": 15.7732443, "tags": {"amenity": "restaurant", "name": "Cupido"}}, {"type": "way", "id": 128076425, "nodes": [1416138042, 1416138030, 1416138028, 1416138034, 1416138042], "tags": {"amenity": "restaurant", "cuisine": "italian;pizza", "name": "Mezzaluna"}}, {"type": "way", "id": 406346147, "nodes": [4084284365, 4084284475, 4084284348, 4084284313, 4084284252, 4084284256, 4084284240, 4084284242, 4084284212, 4084284200, 4084284290, 4084284293, 4084284320, 4084284365], "tags": {"amenity": "restaurant", "ref": "D"}}, {"type": "way", "id": 406346430, "nodes": [4084306201, 4084306142, 4084306130, 4084305991, 4084295971, 4084305990, 4084306032, 4084306039, 4084306080, 4084306098, 4084306131, 4084306176, 4084306202, 4084306208, 4084306200, 4084306225, 4084306201], "tags": {"amenity": "restaurant", "building": "yes"}}, {"type": "way", "id": 406351554, "nodes": [4084304192, 4084304283, 4084304253, 4084304174, 4084304192], "tags": {"amenity": "restaurant", "building": "shed", "name": "Vieste Marina"}}, {"type": "way", "id": 406353472, "nodes": [4084277623, 4084277624, 4084277606, 4084277607, 4084277625, 4084277623], "tags": {"amenity": "restaurant", "building": "roof", "cuisine": "regional", "name": "Agriturismo Fara del Falco", "website": "htts://faradelfalco.com"}}, {"type": "way", "id": 406683543, "nodes": [4087333798, 4087333722, 4351312625, 4087333658, 4087333621, 4087333615, 4087333693, 4087333692, 4087333826, 4087333828, 4087333798], "tags": {"addr:city": "Rodi Garganico", "addr:housenumber": "14", "addr:postcode": "71012", "addr:street": "Via Trieste", "amenity": "restaurant", "building": "yes", "building:levels": "1", "name": "Nautilus Beach", "operator": "Giuseppe Albano", "phone": "+39 331 1572355"}}, {"type": "way", "id": 406683774, "nodes": [4087320121, 4087320132, 4087320197, 4087320216, 4087320153, 4087320210, 4087320163, 4087320227, 4087320243, 4087320174, 4087320180, 4087320034, 4087319992, 4087320121], "tags": {"amenity": "restaurant", "building": "yes", "cuisine": "regional", "name": "Spiaggia Azzurra", "operator": "Blu Marine Food Srls", "outdoor_seating": "yes", "ref:vatin": "IT08440220724", "takeaway": "yes"}}, {"type": "way", "id": 406683829, "nodes": [4087317585, 4087317419, 4087317290, 4087317134, 4087316984, 4087316807, 4087317156, 4087317144, 4087317334, 4087317406, 4087317523, 4087317585], "tags": {"amenity": "restaurant", "building": "yes", "layer": "1", "name": "Bistrot Juice Bar Street Fitz"}}, {"type": "way", "id": 406683983, "nodes": [4087307054, 4087307083, 4087307082, 4087307137, 4087307123, 4087307078, 4087307063, 4087307051, 4087307004, 4087307010, 4087306991, 4087306984, 4087306893, 4087306907, 4087306919, 4087306928, 4087307007, 4087307014, 4087307048, 4087307054], "tags": {"amenity": "restaurant", "building": "yes", "contact:website": "https://www.albergoilgiardino.com/", "cuisine": "italian;pizza", "name": "Il Giardino", "outdoor_seating": "yes", "stars": "3", "tourism": "hotel"}}, {"type": "way", "id": 407000095, "nodes": [4090373810, 4090373864, 4090373872, 4090373840, 4090373842, 4090373825, 4090373814, 4090373804, 4090373797, 4090373787, 4090373810], "tags": {"amenity": "restaurant", "building": "yes", "name": "IL Mago"}}, {"type": "way", "id": 407000968, "nodes": [4090362537, 4090362549, 4090362541, 4090362528, 4090362537], "tags": {"amenity": "restaurant", "building": "yes", "cuisine": "italian;fish", "name": "La Pignata", "outdoor_seating": "yes", "phone": "+39 347 923 2470", "reservation": "yes", "toilets": "yes", "toilets:access": "customers", "toilets:wheelchair": "designated", "wheelchair": "limited"}}, {"type": "way", "id": 407001418, "nodes": [4090373736, 4090373800, 4090373813, 4090373760, 4090373736], "tags": {"amenity": "restaurant", "building": "yes", "name": "Lido Nuova PortoAlto"}}, {"type": "way", "id": 407001786, "nodes": [4090373556, 4090373641, 4090373660, 4090373580, 4090373556], "tags": {"amenity": "restaurant", "building": "yes", "name": "Pizzamania"}}, {"type": "way", "id": 407002191, "nodes": [4090372383, 4090372403, 4090372330, 4090372325, 4090372383], "tags": {"amenity": "restaurant", "building": "yes", "layer": "1", "name": "Lido Onda Azzurra"}}, {"type": "way", "id": 407004407, "nodes": [4090338475, 4090338476, 4090338482, 4090338480, 4090338481, 4090338479, 4090338478, 4090338477, 4090338473, 4090338475], "tags": {"addr:city": "Vico del Gargano", "addr:country": "IT", "addr:postcode": "71018", "addr:province": "FG", "addr:region": "Puglia", "addr:street": "Localit\u00e0 Sfilzi", "amenity": "restaurant", "building": "yes", "contact:phone": "3383345544", "cuisine": "regional", "hiking": "yes", "name": "Rifugio Sfilzi Ristorante B&B", "tourism": "guest_house", "website": "https://rifugiosfilzi.com/", "wheelchair": "yes"}}, {"type": "way", "id": 443777471, "nodes": [4413164035, 4413164036, 4413164037, 4089284759, 4413164035], "tags": {"amenity": "restaurant", "building": "yes", "description": "Lido, Ristorante, Bar", "name": "Lido la Rosa dei Venti"}}, {"type": "way", "id": 683918610, "nodes": [6406643739, 6406643740, 4079244077, 4079244257, 6406643739], "tags": {"amenity": "cafe", "name": "Bar La Dolce Vita", "outdoor_seating": "yes"}}, {"type": "way", "id": 683918611, "nodes": [4079244070, 6406643741, 6406643742, 6406643743, 4079244070], "tags": {"amenity": "restaurant", "cuisine": "pizza", "name": "Pizzeria La Casareccia"}}, {"type": "way", "id": 683926324, "nodes": [6406730186, 6406730190, 6406730187, 6406730188, 6406730189, 6406730186], "tags": {"amenity": "restaurant", "name": "La Rosa dei Venti"}}, {"type": "way", "id": 1175036371, "nodes": [10918289417, 10918289418, 10918289419, 10918289420, 10918289421, 10918289422, 10918289423, 10918289424, 10918289417], "tags": {"addr:city": "Rodi Garganico", "addr:postcode": "71012", "amenity": "cafe", "building": "yes", "name": "Cala Paracuru", "phone": "+39 376 0894685"}}, {"type": "way", "id": 1175036374, "nodes": [10918289438, 10918289439, 10918289440, 10918289441, 10918289438], "tags": {"addr:city": "Rodi Garganico", "addr:postcode": "71012", "amenity": "restaurant", "building": "yes", "name": "La bussola", "phone": "+39 0884 965368"}}]}