{"version": 0.6, "generator": "Overpass API 0.7.62.7 375dc00a", "osm3s": {"timestamp_osm_base": "2025-06-14T13:56:34Z", "copyright": "The data included in this document is from www.openstreetmap.org. The data is made available under ODbL."}, "elements": [{"type": "node", "id": 837550761, "lat": 40.2437229, "lon": 15.2726232, "tags": {"amenity": "cafe", "name": "Bar Santa Caterina"}}, {"type": "node", "id": 1050343123, "lat": 40.3980881, "lon": 15.3479756, "tags": {"amenity": "restaurant", "name": "Imperial"}}, {"type": "node", "id": 1307761300, "lat": 40.0902635, "lon": 15.3464648, "tags": {"amenity": "cafe", "name": "Bar Bufet Stazione"}}, {"type": "node", "id": 1308154284, "lat": 40.095671, "lon": 15.4042693, "tags": {"addr:housenumber": "13", "addr:street": "Piazza Umberto I", "amenity": "cafe", "cuisine": "coffee_shop", "name": "Bar di Palma"}}, {"type": "node", "id": 1308154289, "lat": 40.0947107, "lon": 15.4057851, "tags": {"addr:housename": "Bar Kiodo di Battagliese Emiddio", "addr:housenumber": "230", "addr:postcode": "84040", "addr:street": "Via Canonico de Luca", "amenity": "cafe", "cuisine": "italian", "name": "Bar Kiodo di Battagliese Emiddio", "wifi": "no"}}, {"type": "node", "id": 1308725620, "lat": 40.1398726, "lon": 15.5550993, "tags": {"amenity": "cafe"}}, {"type": "node", "id": 1310330278, "lat": 40.0749768, "lon": 15.5914014, "tags": {"amenity": "restaurant"}}, {"type": "node", "id": 1310344078, "lat": 40.1036505, "lon": 15.2265814, "tags": {"addr:city": "Pisciotta", "addr:housenumber": "33", "addr:postcode": "84066", "addr:street": "Via C. Colombo", "amenity": "cafe", "name": "Brace e Brezza", "phone": "+39 342 7176730"}}, {"type": "node", "id": 1314775671, "lat": 40.0741601, "lon": 15.5210683, "tags": {"amenity": "cafe", "name": "Pasticceria Chiara", "phone": "+39 327 7382285", "source": "survey"}}, {"type": "node", "id": 1314907917, "lat": 40.0778074, "lon": 15.6279373, "tags": {"amenity": "cafe", "coffee:brand": "Carusi"}}, {"type": "node", "id": 1314907922, "lat": 40.0774302, "lon": 15.6272072, "tags": {"addr:city": "Sapri", "addr:postcode": "84073", "amenity": "cafe", "coffee:brand": "Trucillo", "internet_access": "no", "name": "dopolavoro ferroviario", "outdoor_seating": "yes", "short_name": "Bar DLF", "smoking": "outside"}}, {"type": "node", "id": 1315927516, "lat": 40.0755984, "lon": 15.5882241, "tags": {"amenity": "restaurant", "name": "U Cazill' i R\u00e8"}}, {"type": "node", "id": 1316712174, "lat": 40.1360616, "lon": 15.5300394, "tags": {"amenity": "cafe"}}, {"type": "node", "id": 1316712175, "lat": 40.1361303, "lon": 15.5304243, "tags": {"amenity": "restaurant", "name": "Ustaria Rosella", "phone": "+39 338 50 23 829", "website": "http://www.ustariarosella.it"}}, {"type": "node", "id": 1319390476, "lat": 40.1223488, "lon": 15.2878471, "tags": {"addr:housenumber": "60", "addr:street": "Via Roma", "amenity": "cafe", "name": "Bar Alimentari San Mauro"}}, {"type": "node", "id": 1319390493, "lat": 40.1221683, "lon": 15.2874501, "tags": {"amenity": "cafe"}}, {"type": "node", "id": 1320141786, "lat": 40.0913891, "lon": 15.2435172, "tags": {"amenity": "cafe", "name": "Eurobar"}}, {"type": "node", "id": 1320623900, "lat": 40.1033572, "lon": 15.2267349, "tags": {"amenity": "restaurant"}}, {"type": "node", "id": 1320631630, "lat": 40.1015405, "lon": 15.2286006, "tags": {"amenity": "restaurant", "name": "Angiolina"}}, {"type": "node", "id": 1320716839, "lat": 40.0941478, "lon": 15.4045636, "tags": {"addr:housename": "Bar Angelo Azzurro", "addr:housenumber": "148", "addr:postcode": "84040", "addr:street": "Via Canonico De Luca", "amenity": "cafe", "cuisine": "italian", "name": "Bar Angelo Azzurro", "wifi": "no"}}, {"type": "node", "id": 1394057530, "lat": 39.994766, "lon": 15.7020601, "tags": {"amenity": "restaurant", "cuisine": "italian", "name": "El Sol"}}, {"type": "node", "id": 1636082990, "lat": 40.0359972, "lon": 15.3040847, "tags": {"amenity": "restaurant"}}, {"type": "node", "id": 1702401324, "lat": 40.0953454, "lon": 15.4041408, "tags": {"addr:housenumber": "41", "addr:postcode": "84040", "addr:street": "Corso umberto I", "amenity": "restaurant", "cuisine": "italian", "name": "Ristorante Dolce e Salato", "website": "dolce_salato@alice.it"}}, {"type": "node", "id": 1704268857, "lat": 40.0945139, "lon": 15.3859069, "tags": {"addr:housenumber": "39", "addr:postcode": "84040", "addr:street": "Via Vittorio Emanuele", "amenity": "restaurant", "cuisine": "italian", "name": "Panoria-Pepe Franco", "phone": "+39 0974 1870830"}}, {"type": "node", "id": 1713498612, "lat": 40.2448715, "lon": 15.5529268, "tags": {"addr:city": "Saza", "addr:housenumber": "63", "addr:postcode": "84030", "addr:street": "Via Val D'Agri", "amenity": "cafe", "name": "Bar Pineta"}}, {"type": "node", "id": 1736921123, "lat": 40.0906275, "lon": 15.3507825, "tags": {"amenity": "restaurant", "name": "Da Giorgio", "phone": "+39 0974 934502", "website": "https://www.facebook.com/DAGIORGIOPANEPASTAPIZZA/"}}, {"type": "node", "id": 1740620940, "lat": 40.1676364, "lon": 15.407506, "tags": {"amenity": "restaurant", "name": "Michele"}}, {"type": "node", "id": 1740621134, "lat": 40.1677594, "lon": 15.4083321, "tags": {"amenity": "restaurant", "name": "Casa Natura"}}, {"type": "node", "id": 1769030203, "lat": 40.1256284, "lon": 15.1807479, "tags": {"amenity": "restaurant", "name": "Lido Montagna"}}, {"type": "node", "id": 2169482474, "lat": 40.1219934, "lon": 15.2209868}, {"type": "node", "id": 2169482476, "lat": 40.1220718, "lon": 15.221066}, {"type": "node", "id": 2169482479, "lat": 40.1221699, "lon": 15.2206883}, {"type": "node", "id": 2169482481, "lat": 40.1222483, "lon": 15.2207675}, {"type": "node", "id": 2172194462, "lat": 40.0392527, "lon": 15.2974878}, {"type": "node", "id": 2172194466, "lat": 40.0393019, "lon": 15.2976085}, {"type": "node", "id": 2172194476, "lat": 40.0392506, "lon": 15.297697}, {"type": "node", "id": 2172194480, "lat": 40.0391869, "lon": 15.2977524}, {"type": "node", "id": 2172194481, "lat": 40.0391212, "lon": 15.2975817}, {"type": "node", "id": 2193105281, "lat": 40.1708109, "lon": 15.4567578}, {"type": "node", "id": 2193105282, "lat": 40.1708027, "lon": 15.4567176}, {"type": "node", "id": 2193105284, "lat": 40.1706408, "lon": 15.4567149}, {"type": "node", "id": 2193105285, "lat": 40.1705834, "lon": 15.456554}, {"type": "node", "id": 2193105287, "lat": 40.1705896, "lon": 15.4566398}, {"type": "node", "id": 2193105289, "lat": 40.1705902, "lon": 15.4569822}, {"type": "node", "id": 2193105290, "lat": 40.170567, "lon": 15.4564225}, {"type": "node", "id": 2193105293, "lat": 40.1707372, "lon": 15.4563045}, {"type": "node", "id": 2193105294, "lat": 40.1704666, "lon": 15.4570234}, {"type": "node", "id": 2193105295, "lat": 40.1705773, "lon": 15.4567578}, {"type": "node", "id": 2193105297, "lat": 40.1708355, "lon": 15.4566854}, {"type": "node", "id": 2193105298, "lat": 40.1706906, "lon": 15.4568132}, {"type": "node", "id": 2193105299, "lat": 40.1706921, "lon": 15.4570582}, {"type": "node", "id": 2193105300, "lat": 40.1706224, "lon": 15.4563555}, {"type": "node", "id": 2193105301, "lat": 40.1705998, "lon": 15.4562911}, {"type": "node", "id": 2193105303, "lat": 40.1709489, "lon": 15.456604}, {"type": "node", "id": 2193105304, "lat": 40.1706982, "lon": 15.456216}, {"type": "node", "id": 2193105305, "lat": 40.1705226, "lon": 15.4570814}, {"type": "node", "id": 2193105306, "lat": 40.1705896, "lon": 15.4563823}, {"type": "node", "id": 2193105307, "lat": 40.1706203, "lon": 15.4566559}, {"type": "node", "id": 2193105309, "lat": 40.1706593, "lon": 15.4569}, {"type": "node", "id": 2193105310, "lat": 40.170565, "lon": 15.4565164}, {"type": "node", "id": 2193105311, "lat": 40.1708171, "lon": 15.4562536}, {"type": "node", "id": 2193105312, "lat": 40.1705978, "lon": 15.4568222}, {"type": "node", "id": 2193105317, "lat": 40.1707378, "lon": 15.4568132}, {"type": "node", "id": 2193105318, "lat": 40.1708566, "lon": 15.4566871}, {"type": "node", "id": 2193105319, "lat": 40.170895, "lon": 15.4566693}, {"type": "node", "id": 2193105321, "lat": 40.170912, "lon": 15.4566362}, {"type": "node", "id": 2193105322, "lat": 40.1707419, "lon": 15.456958}, {"type": "node", "id": 2193105323, "lat": 40.1705588, "lon": 15.4564655}, {"type": "node", "id": 2193105324, "lat": 40.1705793, "lon": 15.4565942}, {"type": "node", "id": 2193105325, "lat": 40.1707249, "lon": 15.4567846}, {"type": "node", "id": 2204275853, "lat": 40.081579, "lon": 15.448904, "tags": {"amenity": "restaurant", "name": "U' Trappitu"}}, {"type": "node", "id": 2229618936, "lat": 40.0006741, "lon": 15.3735454, "tags": {"amenity": "restaurant", "check_date": "2024-10-13", "name": "La Cantina del Marchese", "phone": "+39 0974 355783", "wheelchair": "limited"}}, {"type": "node", "id": 2229659407, "lat": 40.030971, "lon": 15.3723536, "tags": {"amenity": "cafe"}}, {"type": "node", "id": 2229660536, "lat": 40.0305507, "lon": 15.3747282, "tags": {"amenity": "restaurant"}}, {"type": "node", "id": 2229677819, "lat": 40.1527302, "lon": 15.1603098, "tags": {"amenity": "restaurant"}}, {"type": "node", "id": 2230842582, "lat": 40.2117891, "lon": 15.426964, "tags": {"amenity": "cafe"}}, {"type": "node", "id": 2231907121, "lat": 40.0825109, "lon": 15.4483989, "tags": {"addr:city": "Acquavena di Roccagloriosa", "addr:housenumber": "48", "addr:postcode": "84060", "addr:street": "Via Potentissima", "amenity": "cafe", "name": "Bar Caff\u00e8 Nettuno", "operator": "Cavaliari Carmine"}}, {"type": "node", "id": 2234977460, "lat": 40.1608806, "lon": 15.3080374}, {"type": "node", "id": 2239047387, "lat": 40.141944, "lon": 15.5251625}, {"type": "node", "id": 2239047401, "lat": 40.1419808, "lon": 15.5250382}, {"type": "node", "id": 2239047420, "lat": 40.1420624, "lon": 15.5252224}, {"type": "node", "id": 2239047425, "lat": 40.1420992, "lon": 15.5250981}, {"type": "node", "id": 2245033500, "lat": 40.0006722, "lon": 15.374423, "tags": {"amenity": "cafe", "check_date": "2024-10-13", "ice_cream": "yes", "indoor_seating": "yes", "name": "Bar Sirena", "outdoor_seating": "yes", "toilets:wheelchair": "no", "wheelchair": "yes"}}, {"type": "node", "id": 2310953398, "lat": 40.2273275, "lon": 15.2627337}, {"type": "node", "id": 2310953400, "lat": 40.2274074, "lon": 15.2628356}, {"type": "node", "id": 2310953402, "lat": 40.2273603, "lon": 15.2629121}, {"type": "node", "id": 2310953404, "lat": 40.2274146, "lon": 15.2629778}, {"type": "node", "id": 2310953405, "lat": 40.2273511, "lon": 15.263077}, {"type": "node", "id": 2310953406, "lat": 40.2272897, "lon": 15.2630127}, {"type": "node", "id": 2310953407, "lat": 40.2272415, "lon": 15.2630905}, {"type": "node", "id": 2310953408, "lat": 40.227176, "lon": 15.2629657}, {"type": "node", "id": 2366870736, "lat": 40.3458691, "lon": 15.3784991, "tags": {"amenity": "cafe", "name": "Vairo caff\u00e8", "wheelchair": "yes"}}, {"type": "node", "id": 2366870739, "lat": 40.3456677, "lon": 15.3787069, "tags": {"amenity": "cafe", "name": "Cavallino", "wheelchair": "limited"}}, {"type": "node", "id": 2366870743, "lat": 40.3434098, "lon": 15.3693112, "tags": {"amenity": "restaurant", "cuisine": "regional", "email": "ali40@libero.it", "guest_house": "bed_and_breakfast", "internet_access": "wlan", "name": "Osteria la Piazzetta", "phone": "+39 0974 942008", "website": "www.confusimafelici.it", "wheelchair": "no"}}, {"type": "node", "id": 2371341965, "lat": 39.9990997, "lon": 15.3719086, "tags": {"addr:housenumber": "29", "addr:street": "Via S. Alfonso", "amenity": "restaurant", "name": "Albergo Brera Ristorante", "source": "survey", "wheelchair": "limited"}}, {"type": "node", "id": 2372064791, "lat": 39.9991833, "lon": 15.3708869, "tags": {"addr:city": "Marina di Camerota", "addr:housenumber": "39", "addr:street": "Via Simon Bolivar", "amenity": "restaurant", "email": "info@ristoranteanticamarina.com", "name": "Antica Marina", "phone": "+39 097 493 92 86", "takeaway": "yes", "toilets:wheelchair": "no", "website": "https://ristoranteanticamarina.com/", "wheelchair": "yes"}}, {"type": "node", "id": 2377088033, "lat": 39.9975358, "lon": 15.4076382, "tags": {"amenity": "cafe", "cuisine": "regional", "name": "Ristoro Pozzallo"}}, {"type": "node", "id": 2377893522, "lat": 40.0000058, "lon": 15.3734874, "tags": {"amenity": "cafe", "cuisine": "ice_cream", "ice_cream": "yes", "indoor_seating": "yes", "name": "Bella Marina", "outdoor_seating": "yes", "toilets:wheelchair": "no", "wheelchair": "limited"}}, {"type": "node", "id": 2378503935, "lat": 40.2299836, "lon": 15.2488886}, {"type": "node", "id": 2378503941, "lat": 40.2299642, "lon": 15.2487218}, {"type": "node", "id": 2378503943, "lat": 40.2300339, "lon": 15.2488373}, {"type": "node", "id": 2378503945, "lat": 40.2300026, "lon": 15.2489212}, {"type": "node", "id": 2378503949, "lat": 40.2298797, "lon": 15.2487096}, {"type": "node", "id": 2378503952, "lat": 40.2299139, "lon": 15.2487686}, {"type": "node", "id": 2378503954, "lat": 40.2297933, "lon": 15.2488031}, {"type": "node", "id": 2378503956, "lat": 40.2299206, "lon": 15.2489993}, {"type": "node", "id": 2400757044, "lat": 40.1399645, "lon": 15.5537778, "tags": {"amenity": "restaurant", "name": "Osteria dei Compari"}}, {"type": "node", "id": 2413335609, "lat": 40.3011354, "lon": 15.2960224, "tags": {"amenity": "restaurant", "cuisine": "italian", "name": "Da Mario"}}, {"type": "node", "id": 2494559224, "lat": 40.2268173, "lon": 15.2312124, "tags": {"addr:city": "Pattano", "addr:housenumber": "1", "addr:postcode": "84060", "addr:street": "Piazza Santa Maria Assunta", "amenity": "cafe", "name": "Bar Viva"}}, {"type": "node", "id": 2495945055, "lat": 40.1808799, "lon": 15.5395758, "tags": {"amenity": "restaurant", "name": "Zum Sheriff", "source": "survey"}}, {"type": "node", "id": 2503738705, "lat": 40.028777, "lon": 15.2891481}, {"type": "node", "id": 2503738707, "lat": 40.0287185, "lon": 15.2890112}, {"type": "node", "id": 2503738709, "lat": 40.028544, "lon": 15.2891384}, {"type": "node", "id": 2503738710, "lat": 40.0285813, "lon": 15.2892259}, {"type": "node", "id": 2503738711, "lat": 40.0286421, "lon": 15.2891816}, {"type": "node", "id": 2503738712, "lat": 40.0286491, "lon": 15.2892094}, {"type": "node", "id": 2503738713, "lat": 40.0286798, "lon": 15.2891847}, {"type": "node", "id": 2503738714, "lat": 40.0286845, "lon": 15.2892155}, {"type": "node", "id": 2506758604, "lat": 39.9987324, "lon": 15.3708915, "tags": {"amenity": "cafe", "internet_access": "wlan", "internet_access:fee": "no", "name": "Full 90", "source": "survey", "toilets:wheelchair": "yes", "wheelchair": "limited"}}, {"type": "node", "id": 2506772744, "lat": 40.1409279, "lon": 15.1723964, "tags": {"addr:city": "Marina di Ascea", "addr:housenumber": "7", "addr:street": "Piazzale Ferrovia", "amenity": "cafe", "name": "Caffe' Stazione", "note": "biglietteria Unicocampania"}}, {"type": "node", "id": 2506783819, "lat": 40.0906492, "lon": 15.3236293, "tags": {"addr:city": "Foria", "addr:housenumber": "26", "addr:street": "Via Madonna delle Grazie", "amenity": "cafe", "name": "Bar Galietti Renzo", "opening_hours": "Mo-Su 07:00-24:00", "outdoor_seating": "yes"}}, {"type": "node", "id": 2506783842, "lat": 40.0902302, "lon": 15.3233583, "tags": {"amenity": "cafe", "source": "survey"}}, {"type": "node", "id": 2546198774, "lat": 40.3987757, "lon": 15.3461785, "tags": {"amenity": "cafe", "internet_access": "yes", "name": "Central Bar"}}, {"type": "node", "id": 2823332084, "lat": 40.0003476, "lon": 15.3722818, "tags": {"amenity": "restaurant", "check_date": "2024-10-13", "name": "Antica Trattoria Valentone", "toilets:wheelchair": "no", "wheelchair": "no"}}, {"type": "node", "id": 3043846336, "lat": 40.019796, "lon": 15.3872631, "tags": {"addr:city": "Lentiscosa", "addr:postcode": "84059", "addr:street": "Via Infreschi", "amenity": "restaurant", "cuisine": "regional;pizza", "email": "info@locandadelcurato.it", "name": "Locanda del Curato", "oven": "wood_fired", "phone": "+39 0974 936263;+393496477589", "website": "http://www.lalocandadelcurato.it/"}}, {"type": "node", "id": 3072919926, "lat": 40.1734692, "lon": 15.308166, "tags": {"amenity": "restaurant", "name": "Ristorante Pizzeria La Baita"}}, {"type": "node", "id": 3345453755, "lat": 40.1093585, "lon": 15.2227888, "tags": {"amenity": "restaurant", "cuisine": "italian", "name": "Acquabianca"}}, {"type": "node", "id": 3348364238, "lat": 40.0393301, "lon": 15.3111661, "tags": {"amenity": "cafe", "internet_access": "no", "name": "Trivento", "source": "survey"}}, {"type": "node", "id": 3408414345, "lat": 40.1107098, "lon": 15.636016, "tags": {"amenity": "cafe"}}, {"type": "node", "id": 3654849515, "lat": 40.0803647, "lon": 15.5030873, "tags": {"addr:city": "Santa Marina", "addr:postcode": "84070", "amenity": "restaurant", "cuisine": "regional", "delivery": "no", "name": "Da Alfonso", "website": "http://www.ristorantedaalfonso.it/", "wheelchair": "yes"}}, {"type": "node", "id": 3654857409, "lat": 40.0750426, "lon": 15.6260568, "tags": {"addr:city": "Sapri", "addr:postcode": "84073", "addr:street": "Piazza Regina Elena", "amenity": "restaurant", "cuisine": "pizza;italian", "name": "Fratimo", "outdoor_seating": "no", "smoking": "no", "takeaway": "yes"}}, {"type": "node", "id": 3654905416, "lat": 40.0752663, "lon": 15.5907151, "tags": {"addr:city": "Villammare", "addr:housenumber": "77", "addr:street": "Corso Italia", "amenity": "restaurant", "cuisine": "regional", "name": "Taverna portosalvo"}}, {"type": "node", "id": 3655260918, "lat": 40.0988313, "lon": 15.5847622, "tags": {"amenity": "restaurant", "name": "Com'a na' vota", "phone": "+39 3470629983"}}, {"type": "node", "id": 3804778201, "lat": 40.1386411, "lon": 15.3256489, "tags": {"amenity": "cafe"}}, {"type": "node", "id": 3947363733, "lat": 40.3910406, "lon": 15.512901, "tags": {"addr:city": "Teggiano", "addr:housenumber": "25", "addr:postcode": "84039", "addr:street": "Via Anca del Ponte", "amenity": "cafe", "cuisine": "italian", "internet_access": "no", "name": "Pasticceria D'Elia di Mafredi Domenico", "smoking": "outside"}}, {"type": "node", "id": 3959103011, "lat": 40.0574058, "lon": 15.3617054}, {"type": "node", "id": 3959103013, "lat": 40.0574429, "lon": 15.3618197}, {"type": "node", "id": 3959103014, "lat": 40.0574474, "lon": 15.3616787}, {"type": "node", "id": 3959103020, "lat": 40.0574933, "lon": 15.361779}, {"type": "node", "id": 3959103033, "lat": 40.0577167, "lon": 15.3612061}, {"type": "node", "id": 3959103035, "lat": 40.0577445, "lon": 15.3611528}, {"type": "node", "id": 3959103038, "lat": 40.0578082, "lon": 15.3612454}, {"type": "node", "id": 3959103039, "lat": 40.0578094, "lon": 15.3613345}, {"type": "node", "id": 3959103040, "lat": 40.0578224, "lon": 15.3612133}, {"type": "node", "id": 3959103041, "lat": 40.0578428, "lon": 15.361286}, {"type": "node", "id": 3959103056, "lat": 40.0582988, "lon": 15.3585994, "tags": {"amenity": "cafe"}}, {"type": "node", "id": 4078897928, "lat": 40.2457031, "lon": 15.2958614}, {"type": "node", "id": 4078897933, "lat": 40.2457725, "lon": 15.2957369}, {"type": "node", "id": 4078897937, "lat": 40.2457896, "lon": 15.2957495}, {"type": "node", "id": 4078897940, "lat": 40.2457992, "lon": 15.2959747}, {"type": "node", "id": 4078897946, "lat": 40.245859, "lon": 15.2956152}, {"type": "node", "id": 4078897954, "lat": 40.2460213, "lon": 15.2958054}, {"type": "node", "id": 4078897955, "lat": 40.2460715, "lon": 15.295811}, {"type": "node", "id": 4078897957, "lat": 40.2461014, "lon": 15.2956781}, {"type": "node", "id": 4238009105, "lat": 40.1607995, "lon": 15.3080719}, {"type": "node", "id": 4238009106, "lat": 40.1608331, "lon": 15.3082068}, {"type": "node", "id": 4238009108, "lat": 40.1609142, "lon": 15.3081723}, {"type": "node", "id": 4238009133, "lat": 40.161595, "lon": 15.3078952}, {"type": "node", "id": 4238009134, "lat": 40.1616554, "lon": 15.3078491}, {"type": "node", "id": 4238009135, "lat": 40.1616563, "lon": 15.3080327}, {"type": "node", "id": 4238009138, "lat": 40.1617723, "lon": 15.3077599}, {"type": "node", "id": 4238009141, "lat": 40.1618012, "lon": 15.3078248}, {"type": "node", "id": 4238009143, "lat": 40.1618336, "lon": 15.3078975}, {"type": "node", "id": 4239241468, "lat": 40.0730111, "lon": 15.5214549, "tags": {"amenity": "restaurant", "cuisine": "pizza"}}, {"type": "node", "id": 4239241469, "lat": 40.0730274, "lon": 15.5224201, "tags": {"addr:city": "Policastro Bussentino", "addr:housenumber": "23", "addr:postcode": "84070", "addr:street": "Via Tirrenia", "amenity": "cafe", "name": "Fruit Bakery", "operator": "Tripari Michael"}}, {"type": "node", "id": 4361234612, "lat": 40.1576785, "lon": 15.1565907, "tags": {"addr:city": "Marina di Ascea", "addr:postcode": "84046", "addr:street": "Via Porta Rosa", "amenity": "restaurant", "description": "Ristorante Pizzeria", "name": "Porta Rosa"}}, {"type": "node", "id": 4392092793, "lat": 40.0496068, "lon": 15.4515284, "tags": {"addr:housenumber": "13", "addr:street": "Via Roma", "amenity": "restaurant", "cuisine": "italian_pizza;italian", "email": "barubarone@gmail.com", "fixme": "posizione", "indoor_seating": "yes", "name": "U' Barone", "outdoor_seating": "yes", "phone": "+39 0974 983471"}}, {"type": "node", "id": 4393389691, "lat": 40.0516586, "lon": 15.4905533, "tags": {"amenity": "restaurant", "name": "Giggino", "name:en": "Giggino"}}, {"type": "node", "id": 4452508386, "lat": 40.2237469, "lon": 15.2825865, "tags": {"addr:housenumber": "5", "addr:street": "Piazza dei Longobardi", "amenity": "cafe", "name": "Bar Porta Greca", "operator": "Maria Cristina di Polito"}}, {"type": "node", "id": 4455254158, "lat": 40.2293436, "lon": 15.2671485, "tags": {"amenity": "cafe", "name": "Planet Cafe", "operator": "Gaudio Elisa"}}, {"type": "node", "id": 4455254160, "lat": 40.2293062, "lon": 15.2659314, "tags": {"amenity": "cafe"}}, {"type": "node", "id": 4457550462, "lat": 40.1781709, "lon": 15.4261361, "tags": {"amenity": "cafe"}}, {"type": "node", "id": 4457558908, "lat": 40.246317, "lon": 15.2928843, "tags": {"addr:housenumber": "38", "addr:street": "Via Carmine", "amenity": "cafe", "name": "Crazy Cafe di Lombado Ugo", "opening_hours": "Mo-Su 06:00-13:00,14:00-25:00", "wheelchair": "no"}}, {"type": "node", "id": 4457834520, "lat": 40.2820969, "lon": 15.3637704}, {"type": "node", "id": 4457834521, "lat": 40.2821283, "lon": 15.3636592}, {"type": "node", "id": 4457834522, "lat": 40.2822346, "lon": 15.3638372}, {"type": "node", "id": 4457834523, "lat": 40.282266, "lon": 15.363726}, {"type": "node", "id": 4502526268, "lat": 40.029354, "lon": 15.2783735}, {"type": "node", "id": 4502526269, "lat": 40.0293561, "lon": 15.278458}, {"type": "node", "id": 4502526270, "lat": 40.0293972, "lon": 15.2784607}, {"type": "node", "id": 4502526271, "lat": 40.0293931, "lon": 15.2783722}, {"type": "node", "id": 4549716973, "lat": 40.3469911, "lon": 15.6614121, "tags": {"amenity": "cafe", "name": "Box dopo caff\u00e8"}}, {"type": "node", "id": 4816224725, "lat": 39.9971918, "lon": 15.4199257, "tags": {"addr:postcode": "84040", "addr:street": "Degli Infreschi", "amenity": "restaurant", "cuisine": "diner;pasta;italian", "name": "Azienda agricola Oasi Infreschi", "opening_hours": "Mo-Su 09:00-19:00", "phone": "+39 347 906 6482"}}, {"type": "node", "id": 5037578722, "lat": 40.1401693, "lon": 15.1855736, "tags": {"amenity": "restaurant", "indoor_seating": "yes", "name": "Osteria Diabasis", "name:it": "Osteria Diabasis", "outdoor_seating": "yes", "wheelchair": "yes"}}, {"type": "node", "id": 5039747025, "lat": 40.106302, "lon": 15.224485, "tags": {"addr:city": "Marina di Pisciotta", "addr:housenumber": "26", "addr:street": "Via Acquabianca", "amenity": "cafe", "internet_access": "wlan", "internet_access:fee": "no", "name": "Bar Festa", "name:it": "Bar Festa"}}, {"type": "node", "id": 5064723621, "lat": 40.0743131, "lon": 15.6334606, "tags": {"addr:city": "Sapri", "addr:housenumber": "29", "addr:postcode": "84073", "addr:street": "Piazza Plebiscito", "amenity": "restaurant", "cuisine": "pizza", "name": "Real Pizza", "phone": "+39 0973 603722", "takeaway": "yes"}}, {"type": "node", "id": 5074113950, "lat": 40.1106319, "lon": 15.2322583, "tags": {"addr:housenumber": "9", "addr:street": "Via Salerno", "amenity": "restaurant", "indoor_seating": "yes", "name": "Cilen Tiamo", "outdoor_seating": "yes"}}, {"type": "node", "id": 5172900232, "lat": 40.1087388, "lon": 15.4317033, "tags": {"amenity": "cafe"}}, {"type": "node", "id": 5172900233, "lat": 40.1088014, "lon": 15.431254, "tags": {"addr:housenumber": "79", "addr:street": "Corso Umberto I", "amenity": "cafe", "name": "Bar Fistella"}}, {"type": "node", "id": 5187841717, "lat": 40.0772587, "lon": 15.271849, "tags": {"amenity": "cafe", "indoor_seating": "yes", "name": "Bar 3R", "outdoor_seating": "yes"}}, {"type": "node", "id": 5196509264, "lat": 40.2442155, "lon": 15.2930693, "tags": {"addr:housenumber": "6", "addr:street": "Piazza del Popolo", "amenity": "cafe", "changing_table": "no", "name": "Caff\u00e8 della Piazza", "operator": "Assunta Cortazzo", "outdoor_seating": "yes", "toilets": "yes", "wheelchair": "no"}}, {"type": "node", "id": 5196509265, "lat": 40.2290667, "lon": 15.2643603, "tags": {"amenity": "cafe", "name": "Dolci & Vita Pasticceria Lounge Bar", "operator": "Viterale S.A.S."}}, {"type": "node", "id": 5273613922, "lat": 40.0933121, "lon": 15.4356972, "tags": {"addr:postcode": "84060", "addr:street": "Discesa Madonna delle Grazie", "amenity": "restaurant", "cuisine": "local", "name": "Il Casale del gusto"}}, {"type": "node", "id": 5482884814, "lat": 40.1274796, "lon": 15.5325179}, {"type": "node", "id": 5482884815, "lat": 40.1274029, "lon": 15.5326558}, {"type": "node", "id": 5482884816, "lat": 40.1276106, "lon": 15.5328168}, {"type": "node", "id": 5482884817, "lat": 40.1276633, "lon": 15.5327102}, {"type": "node", "id": 5482884818, "lat": 40.1275275, "lon": 15.5326203}, {"type": "node", "id": 5482884819, "lat": 40.1275499, "lon": 15.5325701}, {"type": "node", "id": 5513436158, "lat": 40.0885067, "lon": 15.281332, "tags": {"amenity": "cafe", "name": "Puffos Bar"}}, {"type": "node", "id": 5527449872, "lat": 40.0521036, "lon": 15.4913849, "tags": {"addr:city": "Scario", "addr:housenumber": "39", "addr:postcode": "84070", "addr:street": "Via Lungomare", "amenity": "cafe", "name": "Mos\u00e8", "outdoor_seating": "yes", "ref:vatin": "IT02187200650"}}, {"type": "node", "id": 5545947653, "lat": 40.1239545, "lon": 15.2907935, "tags": {"addr:housenumber": "5", "addr:street": "Via San Costantino", "amenity": "cafe", "name": "Bar Stuzzicheria Siddharta"}}, {"type": "node", "id": 5632758021, "lat": 39.9982443, "lon": 15.3711839, "tags": {"addr:city": "Marina di Camerota", "addr:housenumber": "39", "addr:postcode": "84059", "addr:street": "Via Simon Bolivar", "amenity": "restaurant", "capacity": "70", "cuisine": "regional", "delivery": "yes", "name": "La Lampara", "smoking": "separated", "takeaway": "yes", "toilets:wheelchair": "no", "wheelchair": "limited"}}, {"type": "node", "id": 5679591821, "lat": 40.2294072, "lon": 15.1213741, "tags": {"amenity": "restaurant", "name": "Agriturismo Fornari"}}, {"type": "node", "id": 5692596756, "lat": 40.0750199, "lon": 15.62585, "tags": {"addr:city": "Sapri", "addr:postcode": "84073", "addr:street": "Piazza Regina Elena", "amenity": "restaurant", "capacity": "50", "cuisine": "pizza;italian;regional", "delivery": "no", "name": "Terra Nostra", "outdoor_seating": "yes", "smoking": "no", "takeaway": "yes"}}, {"type": "node", "id": 5692616534, "lat": 40.0746212, "lon": 15.6257797, "tags": {"addr:city": "Sapri", "addr:housenumber": "19", "addr:postcode": "84073", "addr:street": "Corso Italia", "amenity": "restaurant", "capacity": "150", "cuisine": "italian", "delivery": "no", "indoor_seating": "yes", "name": "\"Tintobrace\" Ristorante Braceria", "outdoor_seating": "yes", "payment:american_express": "yes", "payment:cash": "yes", "payment:coins": "yes", "payment:credit_cards": "yes", "payment:debit_cards": "yes", "payment:maestro": "yes", "payment:mastercard": "yes", "payment:prepaid_cards": "yes", "payment:visa": "yes", "phone": "+39 0973 392490", "smoking": "no", "takeaway": "yes"}}, {"type": "node", "id": 5696303122, "lat": 40.0763841, "lon": 15.6273698, "tags": {"addr:city": "Sapri", "addr:housenumber": "95", "addr:postcode": "84073", "addr:street": "Via degli Edili", "amenity": "restaurant", "capacity": "100", "cuisine": "pizza;italian", "delivery": "no", "name": "Jolly", "opening_hours": "Tu-Su 12:00-15:00, Tu-Su 20:00-24:00", "outdoor_seating": "yes", "payment:cash": "yes", "payment:coins": "yes", "phone": "+39 329 601 9757", "smoking": "outside", "takeaway": "yes"}}, {"type": "node", "id": 5705433459, "lat": 40.0738621, "lon": 15.6281881, "tags": {"addr:city": "Sapri", "addr:housenumber": "35", "addr:postcode": "84073", "addr:street": "Corso Italia", "amenity": "restaurant", "indoor_seating": "yes", "name": "Cilento 2.0", "outdoor_seating": "yes"}}, {"type": "node", "id": 5705433461, "lat": 40.0734796, "lon": 15.6289439, "tags": {"addr:city": "Sapri", "addr:postcode": "84073", "addr:street": "Corso Italia", "amenity": "restaurant", "cuisine": "pizza", "delivery": "no", "name": "\"Pizzico by Basco\" Pizzetteria", "outdoor_seating": "yes", "smoking": "no", "takeaway": "only"}}, {"type": "node", "id": 5705477958, "lat": 40.0729393, "lon": 15.629928, "tags": {"addr:city": "Sapri", "addr:postcode": "84073", "addr:street": "Lungomare Italia", "amenity": "restaurant", "cuisine": "pizza", "delivery": "no", "name": "Angolo dello Sfizio", "outdoor_seating": "yes", "payment:cash": "yes", "payment:coins": "yes", "phone": "+39 331 736 6797", "smoking": "no", "takeaway": "only", "wheelchair": "limited"}}, {"type": "node", "id": 5705477959, "lat": 40.0728755, "lon": 15.6300225, "tags": {"addr:city": "Sapri", "addr:postcode": "84073", "addr:street": "Corso Italia", "amenity": "restaurant", "name": "Slowsud", "wheelchair": "limited"}}, {"type": "node", "id": 5705477961, "lat": 40.0726988, "lon": 15.63091, "tags": {"addr:city": "Sapri", "addr:housenumber": "12", "addr:postcode": "84073", "addr:street": "Via Giuseppe Cesarino", "amenity": "restaurant", "cuisine": "pizza;italian;fish", "delivery": "no", "name": "Il Veliero", "outdoor_seating": "no", "payment:american_express": "yes", "payment:cash": "yes", "payment:coins": "yes", "payment:credit_cards": "yes", "payment:debit_cards": "yes", "payment:maestro": "yes", "payment:mastercard": "yes", "payment:prepaid_cards": "yes", "payment:visa": "yes", "phone": "+39 392 831 0921", "smoking": "no", "takeaway": "yes", "website": "https://www.facebook.com/Il-Veliero-1063919250293443/?ref=br_rs", "wheelchair": "yes"}}, {"type": "node", "id": 5764607057, "lat": 40.0764986, "lon": 15.6251725, "tags": {"addr:city": "Sapri", "addr:housenumber": "41-43", "addr:postcode": "84073", "addr:street": "Via John Fitzgerald Kennedy", "amenity": "restaurant", "cuisine": "pizza", "delivery": "yes", "name": "Pizzeria", "outdoor_seating": "yes", "payment:cash": "yes", "payment:coins": "yes", "phone": "+39 346 130 8937", "smoking": "no", "takeaway": "only", "website": "https://www.facebook.com/Pizza-up-235370316601276/?ref=br_rs", "wheelchair": "yes"}}, {"type": "node", "id": 5809412154, "lat": 40.0378351, "lon": 15.2888393, "tags": {"amenity": "restaurant", "name": "Mediteranean Farine Club", "name:ro": "MFC"}}, {"type": "node", "id": 5839695158, "lat": 40.0744154, "lon": 15.6337008, "tags": {"addr:city": "Sapri", "addr:postcode": "84073", "amenity": "restaurant", "cuisine": "regional;italian;fish", "delivery": "no", "email": "cantinamustazzo@libero.it", "name": "'A Cantina 'I Mustazzo", "opening_hours": "12:00-15:00,19:00-24:00", "outdoor_seating": "yes", "phone": "+39 0973 604010", "smoking": "no", "takeaway": "yes", "website": "http://www.cantinamustazzo.com/index.php"}}, {"type": "node", "id": 5839695159, "lat": 40.0743407, "lon": 15.6336448, "tags": {"addr:city": "Sapri", "addr:housenumber": "29", "addr:postcode": "84073", "addr:street": "Piazza del Plebiscito", "amenity": "restaurant", "cuisine": "regional;italian", "delivery": "no", "email": "info@locandaariadelre.it", "fax": "+39 0973 603706", "name": "Cantina Ru Ranco", "outdoor_seating": "yes", "phone": "+39 346 945 1606; +39 0973 603706", "smoking": "no", "takeaway": "yes", "website": "http://www.locandaariadelre.it/"}}, {"type": "node", "id": 5844200036, "lat": 40.0747656, "lon": 15.6332227, "tags": {"addr:city": "Sapri", "addr:postcode": "84073", "addr:street": "Piazza Plebiscito", "amenity": "restaurant", "cuisine": "pizza", "name": "Filippo's Pizza", "outdoor_seating": "yes", "phone": "+39 348 399 1462", "smoking": "no", "takeaway": "yes"}}, {"type": "node", "id": 5853720857, "lat": 40.0749026, "lon": 15.6289004, "tags": {"addr:city": "Sapri", "addr:housenumber": "52", "addr:postcode": "84073", "addr:street": "Corso Garibaldi", "amenity": "restaurant", "cuisine": "regional;pizza;italian", "delivery": "no", "name": "Regina Margherita", "outdoor_seating": "no", "smoking": "no", "takeaway": "yes"}}, {"type": "node", "id": 5971681573, "lat": 40.1578979, "lon": 15.1494246, "tags": {"amenity": "restaurant", "name": "La Ginestra"}}, {"type": "node", "id": 5993241601, "lat": 40.0298695, "lon": 15.296874, "tags": {"amenity": "restaurant", "name": "Lido Marinella"}}, {"type": "node", "id": 6011770355, "lat": 40.1744959, "lon": 15.4273447, "tags": {"amenity": "cafe", "name": "Bar Italia"}}, {"type": "node", "id": 6439798787, "lat": 40.1839763, "lon": 15.1321105, "tags": {"addr:city": "Casal Velino", "addr:postcode": "84040", "addr:street": "SR267/e", "amenity": "restaurant", "cuisine": "pizza;regional;italian", "name": "La Campagnola"}}, {"type": "node", "id": 6446096725, "lat": 40.2777179, "lon": 15.6867023, "tags": {"addr:housenumber": "36", "addr:postcode": "84033", "addr:street": "Via Corso Italia", "amenity": "restaurant", "cuisine": "italian;pizza;regional", "name": "Sinfonia"}}, {"type": "node", "id": 6783547317, "lat": 40.0009833, "lon": 15.3756172, "tags": {"addr:housenumber": "12-14", "addr:street": "Lungomare Trieste", "amenity": "cafe", "check_date": "2024-10-13", "ice_cream": "yes", "indoor_seating": "yes", "name": "Caffe Trieste", "outdoor_seating": "yes", "wheelchair": "no"}}, {"type": "node", "id": 6934925213, "lat": 40.0548514, "lon": 15.4916641, "tags": {"amenity": "cafe", "name": "Al Bivio Caffe'", "operator": "Izzo Arnaldo"}}, {"type": "node", "id": 6934925214, "lat": 40.0940224, "lon": 15.3842899, "tags": {"amenity": "cafe", "name": "Simon's Bar", "operator": "Sorrentino Armando"}}, {"type": "node", "id": 7043964231, "lat": 40.2460698, "lon": 15.292747, "tags": {"amenity": "restaurant", "name": "Pizzeria Del Corso"}}, {"type": "node", "id": 7044177219, "lat": 40.3547441, "lon": 15.2713881}, {"type": "node", "id": 7044177220, "lat": 40.3546681, "lon": 15.27119}, {"type": "node", "id": 7044177221, "lat": 40.3544974, "lon": 15.2713028}, {"type": "node", "id": 7044177222, "lat": 40.3545734, "lon": 15.2715009}, {"type": "node", "id": 7044221755, "lat": 40.3971469, "lon": 15.2769865}, {"type": "node", "id": 7044221756, "lat": 40.3971428, "lon": 15.2771878}, {"type": "node", "id": 7044221757, "lat": 40.3969479, "lon": 15.277181}, {"type": "node", "id": 7044221758, "lat": 40.3969519, "lon": 15.2769798}, {"type": "node", "id": 7044241798, "lat": 40.2831251, "lon": 15.2209055}, {"type": "node", "id": 7044241799, "lat": 40.2830628, "lon": 15.2210484}, {"type": "node", "id": 7044241800, "lat": 40.2829696, "lon": 15.2209787}, {"type": "node", "id": 7044241801, "lat": 40.2830741, "lon": 15.2207391}, {"type": "node", "id": 7044428184, "lat": 40.2854812, "lon": 15.3560198}, {"type": "node", "id": 7044467824, "lat": 40.3396011, "lon": 15.339258}, {"type": "node", "id": 7044467825, "lat": 40.3395049, "lon": 15.3391638}, {"type": "node", "id": 7044467826, "lat": 40.3394621, "lon": 15.3392559}, {"type": "node", "id": 7044467827, "lat": 40.3395626, "lon": 15.3393568}, {"type": "node", "id": 7044470085, "lat": 40.2855931, "lon": 15.3562398}, {"type": "node", "id": 7044470086, "lat": 40.2855347, "lon": 15.3562909}, {"type": "node", "id": 7044470087, "lat": 40.2854228, "lon": 15.3560709}, {"type": "node", "id": 7069852425, "lat": 40.380637, "lon": 15.5393975, "tags": {"addr:city": "Teggiano", "addr:housenumber": "84039", "addr:street": "Via San Cono", "amenity": "restaurant", "cuisine": "Italiana;Fast_food;Bar;Pizza;Pub", "image": "https://www.tripadvisor.it/Restaurant_Review-g673319-d11809379-Reviews-Stuzzico_Teggiano-Teggiano_Cilento_and_Vallo_di_Diano_National_Park_Province_of_.html#photos;aggregationId=&albumid=101&filter=7&ff=270116349", "name": "Stuzzico Teggiano", "phone": "+39 0975 587071"}}, {"type": "node", "id": 7069881134, "lat": 40.3814044, "lon": 15.5384187, "tags": {"addr:city": "Teggiano", "addr:street": "Via Pomponio Leto", "amenity": "restaurant", "cuisine": "italian;pizza", "image": "https://www.tripadvisor.it/Restaurant_Review-g673319-d3484685-Reviews-Caffe_dei_Principi-Teggiano_Cilento_and_Vallo_di_Diano_National_Park_Province_of_.html#photos;aggregationId=&albumid=101&filter=7&ff=418584425", "name": "Caff\u00e8 dei Principi"}}, {"type": "node", "id": 7069884411, "lat": 40.3807749, "lon": 15.5412948, "tags": {"amenity": "restaurant", "cuisine": "italian;mediterranean", "name": "Osteria Il Buon Gusto", "phone": "+39 340 407 6505"}}, {"type": "node", "id": 7069902341, "lat": 40.3796587, "lon": 15.5394246, "tags": {"addr:city": "Teggiano", "addr:housenumber": "13", "addr:postcode": "84039", "addr:street": "Piazza San Cono", "amenity": "restaurant", "cuisine": "italian", "name": "La Dispensa di Casa Amaro Teggiano", "phone": "+39 366 462 0136"}}, {"type": "node", "id": 7069920301, "lat": 40.3779515, "lon": 15.5216458, "tags": {"addr:city": "Teggiano", "addr:postcode": "84039", "addr:street": "Via Valle Cupa", "amenity": "restaurant", "cuisine": "italian;international", "name": "Ristorante Romantica", "phone": "+39 0975 79997"}}, {"type": "node", "id": 7080142281, "lat": 40.139811, "lon": 15.5551467, "tags": {"addr:city": "Morigerati", "addr:street": "Piazza Piano la Porta", "amenity": "restaurant", "cuisine": "italian", "mobile": "+39 347 499 7909", "name": "al Castello", "phone": "+39 0974 982085"}}, {"type": "node", "id": 7105298039, "lat": 40.3767128, "lon": 15.3802746, "tags": {"addr:city": "Sacco", "addr:postcode": "84070", "addr:street": "Corso Vittorio Emanuele III 13 | Valle dell'Angelo", "amenity": "restaurant", "cuisine": "italian;pizza;fish", "name": "L'Uorto"}}, {"type": "node", "id": 7105319837, "lat": 40.3812322, "lon": 15.3724232, "tags": {"addr:city": "Sacco", "addr:housenumber": "1", "addr:postcode": "84070", "addr:street": "via Trinita", "amenity": "restaurant", "cuisine": "pizza;fish;mediterranean", "image": "https://www.tripadvisor.it/Restaurant_Review-g187781-d10293408-Reviews-Le_Scintille-Salerno_Amalfi_Coast_Province_of_Salerno_Campania.html#photos;aggregationId=&albumid=101&filter=7&ff=318824743", "name": "Le Scintille", "phone": "+39 0974 943266"}}, {"type": "node", "id": 7113954234, "lat": 40.1701719, "lon": 15.5424834, "tags": {"addr:city": "Caselle in Pittari", "addr:housenumber": "168", "addr:postcode": "84030", "addr:street": "Via Nazionale", "amenity": "restaurant", "cuisine": "italian", "name": "Agriturismo Pittari di Greco Angelo"}}, {"type": "node", "id": 7113986994, "lat": 40.1738245, "lon": 15.5411872, "tags": {"addr:city": "Caselle in Pittari", "addr:housenumber": "64", "addr:postcode": "84030", "addr:street": "Via Caporra", "amenity": "restaurant", "cuisine": "italian", "name": "Ristorante Pizzeria La Pietra Azzurra", "phone": "+39 339 231 634"}}, {"type": "node", "id": 7113997400, "lat": 40.1724657, "lon": 15.5435971, "tags": {"addr:city": "Caselle in Pittari", "addr:housenumber": "11", "addr:postcode": "84030", "addr:street": "viale Roma", "amenity": "restaurant", "name": "Zi Filumena"}}, {"type": "node", "id": 7114012115, "lat": 40.1738277, "lon": 15.546288, "tags": {"addr:city": "Caselle in Pittari", "addr:postcode": "84030", "addr:street": "Via Indipendenza", "amenity": "restaurant", "cuisine": "pizza;italian", "name": "Forgeat", "phone": "+39 328 865 7533"}}, {"type": "node", "id": 7114015175, "lat": 40.1746087, "lon": 15.5374849, "tags": {"addr:city": "Caselle in Pittari", "addr:housenumber": "1a", "addr:postcode": "84030", "addr:street": "Via Caselle Bosco", "amenity": "restaurant", "cuisine": "italian;pizza;mediterranean", "name": "Agriturismo La Botte", "phone": "+39 0974 192 6540"}}, {"type": "node", "id": 7114042625, "lat": 40.1810408, "lon": 15.5400731, "tags": {"addr:city": "Caselle in Pittari", "addr:housenumber": "24", "addr:postcode": "84030", "addr:street": "Via Sandro Pertini", "amenity": "restaurant", "cuisine": "italian;barbecue", "name": "U zapparieddu", "phone": "+39 0974 988150"}}, {"type": "node", "id": 7118009662, "lat": 40.092759, "lon": 15.6192538}, {"type": "node", "id": 7118009663, "lat": 40.0926541, "lon": 15.6193641}, {"type": "node", "id": 7118009664, "lat": 40.0925784, "lon": 15.619241}, {"type": "node", "id": 7118009665, "lat": 40.0926833, "lon": 15.6191307}, {"type": "node", "id": 7391501719, "lat": 39.9967446, "lon": 15.7058044, "tags": {"amenity": "cafe", "indoor_seating": "yes", "name": "Amadeus", "outdoor_seating": "yes", "source": "map note"}}, {"type": "node", "id": 7437289319, "lat": 40.1283067, "lon": 15.1798434, "tags": {"amenity": "restaurant", "cuisine": "pizza;regional", "name": "Bahia Beach Club", "website": "https://www.facebook.com/bahiabeachclubascea/"}}, {"type": "node", "id": 7626564710, "lat": 40.1728743, "lon": 15.5454395, "tags": {"amenity": "restaurant", "name": "Osteria Tancredi"}}, {"type": "node", "id": 7733709478, "lat": 40.1744633, "lon": 15.4406775, "tags": {"addr:city": "Alfano", "addr:postcode": "84040", "addr:street": "Localit\u00e0 Calanna", "amenity": "restaurant", "bar": "yes", "brewery": "yes", "capacity": "500", "cuisine": "pizza;italian", "internet_access": "yes", "name": "La Taverna del Sole", "outdoor_seating": "yes", "takeaway": "yes", "wheelchair": "yes"}}, {"type": "node", "id": 7776052713, "lat": 39.9986584, "lon": 15.3705814, "tags": {"amenity": "restaurant", "name": "Da Nunzia alla Calanca", "takeaway": "yes", "wheelchair": "limited"}}, {"type": "node", "id": 7783673369, "lat": 40.004201, "lon": 15.3729551, "tags": {"amenity": "restaurant", "name": "Ristopescheria Balena Bianca"}}, {"type": "node", "id": 7788411238, "lat": 39.99843, "lon": 15.37094, "tags": {"amenity": "restaurant", "cuisine": "burger", "name": "Taro"}}, {"type": "node", "id": 7795156530, "lat": 39.9983989, "lon": 15.3722718, "tags": {"amenity": "restaurant", "bar": "yes", "cuisine": "pizza", "name": "Tirreno", "survey:date": "2024-03-20"}}, {"type": "node", "id": 7798859874, "lat": 40.0025778, "lon": 15.3684191, "tags": {"amenity": "restaurant", "name": "Zia Pasqualina"}}, {"type": "node", "id": 7801867135, "lat": 39.9981257, "lon": 15.370445, "tags": {"amenity": "restaurant", "name": "Brezza di Mare", "reservation": "yes"}}, {"type": "node", "id": 7801886545, "lat": 40.0006873, "lon": 15.3748307, "tags": {"amenity": "cafe", "check_date": "2024-10-13", "name": "Caff\u00e8 del Porto", "wheelchair": "limited"}}, {"type": "node", "id": 7804643992, "lat": 39.9984761, "lon": 15.3717943, "tags": {"amenity": "restaurant", "name": "Ristorante San Domenico"}}, {"type": "node", "id": 7807206139, "lat": 40.0011025, "lon": 15.3767793, "tags": {"amenity": "restaurant", "name": "La Locanda di Romeo"}}, {"type": "node", "id": 7807248228, "lat": 40.0007984, "lon": 15.3751231, "tags": {"amenity": "restaurant", "check_date": "2024-10-13", "name": "La Taverna del Mozzo", "wheelchair": "no"}}, {"type": "node", "id": 7807250515, "lat": 40.0017445, "lon": 15.3777221, "tags": {"amenity": "restaurant", "name": "Trattoria Pizzeria maricucciata"}}, {"type": "node", "id": 7808298083, "lat": 40.0012388, "lon": 15.3763045, "tags": {"amenity": "restaurant", "cuisine": "pizza", "name": "Gio's Pizza"}}, {"type": "node", "id": 7829804613, "lat": 40.370936, "lon": 15.2486985, "tags": {"addr:city": "Felitto", "addr:postcode": "84055", "air_conditioning": "yes", "amenity": "cafe", "check_date": "2024-07-27", "contact:phone": "+39 389 8539197", "name": "Pasticceria - Bar \"I dolci di Rosa\"", "operator": "Rosa Mordente", "outdoor_seating": "yes", "payment:cash": "yes", "shop": "pastry", "source": "survey"}}, {"type": "node", "id": 7830796771, "lat": 40.3595833, "lon": 15.58773, "tags": {"addr:city": "Sassano", "addr:housenumber": "16", "addr:postcode": "84038", "addr:street": "Via Largo Silla", "amenity": "restaurant", "cuisine": "pizza", "name": "Pizzeria Da Enzo", "phone": "+39 340 720 2661", "restaurant:type:it": "pizzeria"}}, {"type": "node", "id": 7830805850, "lat": 40.3589155, "lon": 15.5868267, "tags": {"addr:city": "Sassano", "addr:housenumber": "2", "addr:postcode": "84038", "addr:street": "Via Provinciale del Corticato", "amenity": "cafe", "name": "La Villa Caff\u00e8"}}, {"type": "node", "id": 8084062946, "lat": 40.3114541, "lon": 15.2573575}, {"type": "node", "id": 8084062947, "lat": 40.3111913, "lon": 15.2571228}, {"type": "node", "id": 8084062948, "lat": 40.3111391, "lon": 15.2572355}, {"type": "node", "id": 8084062949, "lat": 40.3114367, "lon": 15.2575023}, {"type": "node", "id": 8268489722, "lat": 40.3986347, "lon": 15.5814706}, {"type": "node", "id": 8268489723, "lat": 40.3985732, "lon": 15.5813524}, {"type": "node", "id": 8268489724, "lat": 40.3983296, "lon": 15.5815398}, {"type": "node", "id": 8268489725, "lat": 40.3984086, "lon": 15.5817271}, {"type": "node", "id": 8268489726, "lat": 40.398593, "lon": 15.5815888}, {"type": "node", "id": 8268489727, "lat": 40.3985689, "lon": 15.5815196}, {"type": "node", "id": 8268489745, "lat": 40.3983637, "lon": 15.5797141}, {"type": "node", "id": 8268489746, "lat": 40.398421, "lon": 15.5798731}, {"type": "node", "id": 8268489747, "lat": 40.398147, "lon": 15.5800949}, {"type": "node", "id": 8268489748, "lat": 40.3981597, "lon": 15.5798355}, {"type": "node", "id": 8283473893, "lat": 40.0744584, "lon": 15.6248494}, {"type": "node", "id": 8283473894, "lat": 40.0744694, "lon": 15.6249181}, {"type": "node", "id": 8283473895, "lat": 40.0743072, "lon": 15.6248981}, {"type": "node", "id": 8283473896, "lat": 40.0743182, "lon": 15.624838}, {"type": "node", "id": 8358510491, "lat": 40.1491479, "lon": 15.236802, "tags": {"amenity": "cafe"}}, {"type": "node", "id": 8647908341, "lat": 40.1564144, "lon": 15.2174404, "tags": {"amenity": "cafe"}}, {"type": "node", "id": 8772605106, "lat": 40.0973214, "lon": 15.241282, "tags": {"amenity": "restaurant", "name": "Agriturismo Armo"}}, {"type": "node", "id": 8860923161, "lat": 40.2830764, "lon": 15.220869}, {"type": "node", "id": 8860923162, "lat": 40.2831185, "lon": 15.2207723}, {"type": "node", "id": 8918986403, "lat": 40.033946, "lon": 15.2894018, "tags": {"addr:city": "Palinuro", "addr:postcode": "84051", "addr:street": "Via Capozzoli", "amenity": "restaurant", "cuisine": "pizza", "name": "Prisco", "phone": "+39 3381942185", "ref:vatin": "IT10326670964", "takeaway": "yes", "website": "https://palinuro.pizzaprisco.it/"}}, {"type": "node", "id": 8919012186, "lat": 40.0348188, "lon": 15.2868041, "tags": {"addr:city": "Palinuro", "addr:housenumber": "51", "addr:postcode": "84051", "addr:street": "Corso Carlo Pisacane", "amenity": "restaurant", "cuisine": "seafood", "email": "lapergolapalinuro@gmail.com", "name": "Ristopescheria la pergola", "phone": "+39 0974 931213", "ref:vatin": "IT05660870659", "website": "http://www.ristorantepescepalinuro.sa.it/"}}, {"type": "node", "id": 8935445071, "lat": 40.1086059, "lon": 15.2338258, "tags": {"addr:city": "Pisciotta", "addr:housenumber": "1", "addr:postcode": "84066", "addr:street": "Via Giardini", "amenity": "restaurant", "cuisine": "regional", "email": "CANTINALAMADE@GMAIL.COM", "name": "Cantina Lamad\u00e8", "phone": "+39 3486085838", "reservation": "yes", "website": "https://lamad\u00e8.com/", "wheelchair": "no"}}, {"type": "node", "id": 8938407227, "lat": 40.1079848, "lon": 15.233697, "tags": {"addr:city": "Pisciotta", "addr:housenumber": "17", "addr:postcode": "84066", "addr:street": "Via Roma", "amenity": "restaurant", "cuisine": "regional;fish", "name": "Osteria del borgo", "outdoor_seating": "yes", "phone": "+39 0974970113", "reservation": "recommended", "website": "https://osteriadelborgopisciotta.com/"}}, {"type": "node", "id": 8952361349, "lat": 40.0710118, "lon": 15.3153425, "tags": {"addr:city": "Centola", "addr:housenumber": "46", "addr:postcode": "84051", "addr:street": "via R. Talamo", "amenity": "restaurant", "cuisine": "pizza;italian", "name": "Piripub Flamengo", "outdoor_seating": "yes", "phone": "+39 0974833093", "takeaway": "yes"}}, {"type": "node", "id": 8972355690, "lat": 40.0026705, "lon": 15.3713326, "tags": {"amenity": "restaurant", "name": "La Vecchia Cascina"}}, {"type": "node", "id": 8972355692, "lat": 40.0017287, "lon": 15.3708461, "tags": {"amenity": "restaurant", "cuisine": "mexican", "name": "El Mu\u00f1eko"}}, {"type": "node", "id": 8972355696, "lat": 40.0010148, "lon": 15.3701865, "tags": {"amenity": "restaurant", "name": "Villa Silvia"}}, {"type": "node", "id": 8972379231, "lat": 40.0003614, "lon": 15.372843, "tags": {"amenity": "restaurant", "cuisine": "sushi", "name": "Kai Sushi Bar"}}, {"type": "node", "id": 9076474319, "lat": 40.1750116, "lon": 15.1253884, "tags": {"amenity": "restaurant", "bar": "yes", "name": "Azzurra Mare"}}, {"type": "node", "id": 9076485357, "lat": 40.1748318, "lon": 15.1262907, "tags": {"amenity": "restaurant", "name": "Mamma Angelina"}}, {"type": "node", "id": 9080923558, "lat": 40.1314144, "lon": 15.3898591}, {"type": "node", "id": 9080923559, "lat": 40.1313624, "lon": 15.389843}, {"type": "node", "id": 9080923560, "lat": 40.1313522, "lon": 15.3898993}, {"type": "node", "id": 9080923561, "lat": 40.1312454, "lon": 15.3898662}, {"type": "node", "id": 9080923562, "lat": 40.1312798, "lon": 15.3896767}, {"type": "node", "id": 9080923563, "lat": 40.1314386, "lon": 15.3897259}, {"type": "node", "id": 9081961214, "lat": 40.1372793, "lon": 15.1702962, "tags": {"amenity": "restaurant", "name": "Poseidonia"}}, {"type": "node", "id": 9081988272, "lat": 40.1661435, "lon": 15.1473058, "tags": {"amenity": "restaurant", "name": "L'approdo"}}, {"type": "node", "id": 9082013691, "lat": 40.1689706, "lon": 15.1456489, "tags": {"amenity": "restaurant", "name": "il Forziere", "survey:date": "2024-03-21"}}, {"type": "node", "id": 9082016090, "lat": 40.1405959, "lon": 15.1669023, "tags": {"amenity": "restaurant", "name": "Zucchero & Cannella"}}, {"type": "node", "id": 9137081518, "lat": 40.2452647, "lon": 15.2931482, "tags": {"amenity": "restaurant", "changing_table": "no", "cuisine": "italian;pizza", "highchair": "yes", "name": "Del Corso"}}, {"type": "node", "id": 9142447694, "lat": 40.2478436, "lon": 15.2928363, "tags": {"amenity": "restaurant", "cuisine": "italian;pizza", "name": "Le Radche \"Da Cesare\""}}, {"type": "node", "id": 9180341953, "lat": 40.1090224, "lon": 15.2337858, "tags": {"amenity": "restaurant", "cuisine": "pizza"}}, {"type": "node", "id": 9180341954, "lat": 40.1086147, "lon": 15.2335679, "tags": {"amenity": "restaurant", "cuisine": "pizza"}}, {"type": "node", "id": 9180341955, "lat": 40.1072843, "lon": 15.2335002, "tags": {"amenity": "restaurant", "name": "Malabar"}}, {"type": "node", "id": 9195130940, "lat": 40.029254, "lon": 15.2763766, "tags": {"addr:housenumber": "50", "amenity": "restaurant", "name": "La Taverna del Porto"}}, {"type": "node", "id": 9195136820, "lat": 40.0293942, "lon": 15.2775777, "tags": {"amenity": "restaurant", "name": "O' Guarracino"}}, {"type": "node", "id": 9214700110, "lat": 40.1859836, "lon": 15.128751}, {"type": "node", "id": 9214700111, "lat": 40.1859041, "lon": 15.128687}, {"type": "node", "id": 9214700112, "lat": 40.185854, "lon": 15.1287936}, {"type": "node", "id": 9214700113, "lat": 40.1859335, "lon": 15.1288576}, {"type": "node", "id": 9215433447, "lat": 40.0504742, "lon": 15.2833759, "tags": {"amenity": "restaurant", "name": "MIJEO"}}, {"type": "node", "id": 9215433454, "lat": 40.0641798, "lon": 15.2785653, "tags": {"amenity": "restaurant", "name": "Lido La Torre"}}, {"type": "node", "id": 9744989653, "lat": 40.3188245, "lon": 15.5734907}, {"type": "node", "id": 9744989654, "lat": 40.3187571, "lon": 15.573665}, {"type": "node", "id": 9744989655, "lat": 40.3187121, "lon": 15.5736435}, {"type": "node", "id": 9744989656, "lat": 40.318708, "lon": 15.5736918}, {"type": "node", "id": 9744989657, "lat": 40.318665, "lon": 15.5736677}, {"type": "node", "id": 9744989658, "lat": 40.3186834, "lon": 15.5736301}, {"type": "node", "id": 9744989659, "lat": 40.3186507, "lon": 15.573614}, {"type": "node", "id": 9744989660, "lat": 40.3187325, "lon": 15.5734129}, {"type": "node", "id": 9767749270, "lat": 40.3835028, "lon": 15.2490015}, {"type": "node", "id": 9767749271, "lat": 40.3833516, "lon": 15.2490873}, {"type": "node", "id": 9767749272, "lat": 40.3834742, "lon": 15.249377}, {"type": "node", "id": 9767749273, "lat": 40.3836131, "lon": 15.2492697}, {"type": "node", "id": 9770397017, "lat": 40.0143575, "lon": 15.6792742, "tags": {"addr:street": "Cersuta di Maratea", "amenity": "restaurant", "indoor_seating": "yes", "name": "Da Cesare", "outdoor_seating": "yes", "phone": "+39 0973 871840", "toilets:wheelchair": "designated", "wheelchair": "yes"}}, {"type": "node", "id": 9834115002, "lat": 40.410581, "lon": 15.57258, "tags": {"amenity": "cafe"}}, {"type": "node", "id": 9834115008, "lat": 40.4105299, "lon": 15.5704436, "tags": {"amenity": "cafe"}}, {"type": "node", "id": 9835776085, "lat": 40.0461038, "lon": 15.2983342, "tags": {"addr:city": "Palinuro", "addr:hamlet": "Localit\u00e0 Casaburi", "addr:postcode": "84051", "addr:province": "Salerno", "addr:state": "Italia", "addr:street": "Strada Regionale 562 Diramazione C", "amenity": "restaurant", "contact:phone": "+39 339 174 6846", "contact:website": "https://m.facebook.com/PizzeriaTriventoPalinuro/", "cuisine": "pizza", "name": "Trivento"}}, {"type": "node", "id": 9846428069, "lat": 40.1448772, "lon": 15.3572077, "tags": {"amenity": "cafe"}}, {"type": "node", "id": 9846599801, "lat": 40.1616929, "lon": 15.3647017, "tags": {"amenity": "cafe"}}, {"type": "node", "id": 9847913728, "lat": 40.3458583, "lon": 15.2370957, "tags": {"amenity": "cafe"}}, {"type": "node", "id": 9847913729, "lat": 40.3461516, "lon": 15.2367859, "tags": {"amenity": "cafe"}}, {"type": "node", "id": 9893175918, "lat": 40.0533909, "lon": 15.4923669, "tags": {"amenity": "restaurant", "name": "Moses", "outdoor_seating": "yes"}}, {"type": "node", "id": 9895725622, "lat": 40.0531204, "lon": 15.4921735, "tags": {"amenity": "restaurant", "name": "Maria Luisa", "outdoor_seating": "yes"}}, {"type": "node", "id": 9902639917, "lat": 39.9987896, "lon": 15.3715212, "tags": {"addr:city": "Marina di Camerota", "addr:housenumber": "35", "addr:postcode": "84059", "addr:street": "Via Antonio Infantini", "amenity": "restaurant", "contact:mobile": "+39 349 7221026", "contact:phone": "+39 0974 939326", "cuisine": "fish", "name": "Ittiturismo La Cucina del Saragone", "opening_hours": "Mo-Su 19:30-23:30", "operator": "Saturno Carmelo", "ref:vatin": "IT05577950651", "wheelchair": "yes"}}, {"type": "node", "id": 9903901921, "lat": 39.9894559, "lon": 15.7090342, "tags": {"amenity": "restaurant", "name": "Il Clubbino"}}, {"type": "node", "id": 9964624650, "lat": 40.294774, "lon": 15.5023028, "tags": {"addr:city": "Monte San Giacomo", "addr:postcode": "84030", "addr:street": "Localit\u00e0 Vallicelli", "amenity": "restaurant", "diet:local": "yes", "name": "Casa Del Peraino ospitalit\u00e0 rurale", "note": "Si consiglia la prenotazione", "phone": "+39 3207710591 (Silvia)", "phone_1": "+39 3389833179 (Giuseppe)", "website": "casadelperaino.it"}}, {"type": "node", "id": 9974577912, "lat": 40.1409496, "lon": 15.6030259, "tags": {"amenity": "restaurant", "name": "Eden"}}, {"type": "node", "id": 9974577913, "lat": 40.1427208, "lon": 15.6069585, "tags": {"amenity": "restaurant", "cuisine": "pizza", "name": "Crazy Pizza"}}, {"type": "node", "id": 9983653854, "lat": 40.1431924, "lon": 15.6061789, "tags": {"amenity": "restaurant"}}, {"type": "node", "id": 9983653858, "lat": 40.1425711, "lon": 15.6061832, "tags": {"amenity": "restaurant", "name": "La Tajadera del Lenador"}}, {"type": "node", "id": 10016867091, "lat": 40.2759329, "lon": 15.6760707, "tags": {"amenity": "cafe"}}, {"type": "node", "id": 10052111499, "lat": 40.216652, "lon": 15.335631, "tags": {"amenity": "restaurant", "name": "San Giuseppe"}}, {"type": "node", "id": 10052111500, "lat": 40.2167819, "lon": 15.3361263, "tags": {"amenity": "restaurant"}}, {"type": "node", "id": 10060822275, "lat": 40.0365361, "lon": 15.671323, "tags": {"amenity": "restaurant", "name": "Da Peppe", "survey:date": "2024-03-18"}}, {"type": "node", "id": 10181198263, "lat": 40.2311037, "lon": 15.263795, "tags": {"amenity": "cafe"}}, {"type": "node", "id": 10181198268, "lat": 40.2448768, "lon": 15.2695477, "tags": {"amenity": "cafe"}}, {"type": "node", "id": 10804142791, "lat": 40.3360125, "lon": 15.335579, "tags": {"amenity": "restaurant", "name": "Rosticceria \"S. Lucia\""}}, {"type": "node", "id": 10804142792, "lat": 40.3358939, "lon": 15.3365667, "tags": {"amenity": "restaurant", "name": "Bar - Ristorante \"La Villa\""}}, {"type": "node", "id": 10811450631, "lat": 40.3359639, "lon": 15.3372756, "tags": {"amenity": "cafe", "name": "Bar Jolly"}}, {"type": "node", "id": 10921538307, "lat": 40.0027283, "lon": 15.3713234}, {"type": "node", "id": 10921538308, "lat": 40.0026765, "lon": 15.3714258}, {"type": "node", "id": 10921538309, "lat": 40.0026457, "lon": 15.3714031}, {"type": "node", "id": 10921538310, "lat": 40.0026159, "lon": 15.3714814}, {"type": "node", "id": 10921538311, "lat": 40.0025893, "lon": 15.3714633}, {"type": "node", "id": 10921538312, "lat": 40.0026734, "lon": 15.3712638}, {"type": "node", "id": 11023020279, "lat": 40.0009738, "lon": 15.3869815, "tags": {"amenity": "restaurant"}}, {"type": "node", "id": 11114669732, "lat": 40.3359482, "lon": 15.3365352}, {"type": "node", "id": 11114669733, "lat": 40.3360105, "lon": 15.3365902}, {"type": "node", "id": 11114669734, "lat": 40.3360126, "lon": 15.3366653}, {"type": "node", "id": 11114669735, "lat": 40.3359697, "lon": 15.3367042}, {"type": "node", "id": 11114669736, "lat": 40.3359216, "lon": 15.3367176}, {"type": "node", "id": 11114669737, "lat": 40.3358807, "lon": 15.3367189}, {"type": "node", "id": 11114669738, "lat": 40.335848, "lon": 15.3367015}, {"type": "node", "id": 11146636109, "lat": 40.3228694, "lon": 15.6761009, "tags": {"addr:street": "Via Alvaneta", "amenity": "restaurant", "cuisine": "italian;local", "email": "info@fattoriaalvaneta.it", "name": "Fattoria alvaneta", "operator": "Francesco Barra", "phone": "39 328 7046591", "website": "https://www.fattoriaalvaneta.it/it/dove-siamo.html"}}, {"type": "node", "id": 11147799211, "lat": 40.0722126, "lon": 15.5250656, "tags": {"amenity": "restaurant", "name": "Il Porticciolo", "phone": "+39 339 3548170"}}, {"type": "node", "id": 11218566622, "lat": 40.055181, "lon": 15.4922066, "tags": {"addr:city": "Scario", "addr:housenumber": "24", "addr:postcode": "84070", "addr:street": "via Rione Nuovo", "amenity": "restaurant", "cuisine": "regional", "name": "Quo Vadis ristorante/pizzeria", "phone": "+39 0974 986759"}}, {"type": "node", "id": 11668968044, "lat": 40.2654673, "lon": 15.618617, "tags": {"addr:city": "Buonabitacolo", "addr:housenumber": "4", "addr:postcode": "84032", "addr:street": "via Petrale", "amenity": "restaurant", "cuisine": "regional", "name": "IL Mulino ristorante/pizzeria", "phone": "+39 0975 1963431"}}, {"type": "node", "id": 11669117037, "lat": 40.357458, "lon": 15.5867085, "tags": {"addr:city": "Sassano", "addr:housenumber": "49", "addr:postcode": "84030", "addr:street": "via Trattati di Roma", "amenity": "restaurant", "cuisine": "regional", "name": "La Campagnola Ristorante", "phone": "+39 0975 72078"}}, {"type": "node", "id": 11670208040, "lat": 40.3442855, "lon": 15.54124, "tags": {"addr:city": "Monte San Giacomo", "addr:housenumber": "1", "addr:postcode": "84030", "addr:street": "Piazza Sandro Pertini", "amenity": "restaurant", "cuisine": "regional", "name": "Rezzo Ristorante", "phone": "+39 0975 75395"}}, {"type": "node", "id": 11682845914, "lat": 40.2440421, "lon": 15.6673143}, {"type": "node", "id": 11682845915, "lat": 40.2442848, "lon": 15.6673112}, {"type": "node", "id": 11682845916, "lat": 40.2442908, "lon": 15.6675532}, {"type": "node", "id": 11682845917, "lat": 40.2441833, "lon": 15.6675642}, {"type": "node", "id": 11682845918, "lat": 40.2441773, "lon": 15.6674377}, {"type": "node", "id": 11682845919, "lat": 40.2440457, "lon": 15.6674472}, {"type": "node", "id": 11741305784, "lat": 40.036601, "lon": 15.6710076, "tags": {"amenity": "restaurant"}}, {"type": "node", "id": 11741482721, "lat": 40.0718254, "lon": 15.6315331, "tags": {"amenity": "restaurant", "indoor_seating": "yes", "outdoor_seating": "yes"}}, {"type": "node", "id": 11741545620, "lat": 40.0735525, "lon": 15.6290819, "tags": {"amenity": "restaurant"}}, {"type": "node", "id": 11741569772, "lat": 40.074647, "lon": 15.6252523, "tags": {"amenity": "cafe"}}, {"type": "node", "id": 11741834649, "lat": 40.0751968, "lon": 15.6090367, "tags": {"air_conditioning": "yes", "amenity": "cafe", "indoor_seating": "yes", "outdoor_seating": "yes"}}, {"type": "node", "id": 11741887614, "lat": 40.0748615, "lon": 15.6089846, "tags": {"air_conditioning": "yes", "amenity": "restaurant", "cuisine": "sushi", "indoor_seating": "yes", "name": "Tokyo Sushi", "opening_hours": "Mo-Su 09:00-20:30", "outdoor_seating": "yes", "wheelchair": "yes"}}, {"type": "node", "id": 11743567922, "lat": 40.076042, "lon": 15.5598989, "tags": {"amenity": "restaurant"}}, {"type": "node", "id": 11744938026, "lat": 40.0595643, "lon": 15.4819377, "tags": {"amenity": "restaurant", "name": "La Pietra"}}, {"type": "node", "id": 11745206940, "lat": 40.0536868, "lon": 15.4512923, "tags": {"amenity": "restaurant"}}, {"type": "node", "id": 11745255448, "lat": 40.0510408, "lon": 15.4504582, "tags": {"amenity": "cafe"}}, {"type": "node", "id": 11745776285, "lat": 40.0200552, "lon": 15.386505, "tags": {"amenity": "restaurant", "cuisine": "pizza", "indoor_seating": "yes", "outdoor_seating": "yes"}}, {"type": "node", "id": 11747510965, "lat": 39.9997198, "lon": 15.3733957, "tags": {"amenity": "restaurant"}}, {"type": "node", "id": 11747518130, "lat": 39.9994394, "lon": 15.373298, "tags": {"amenity": "restaurant"}}, {"type": "node", "id": 11747903282, "lat": 40.0397244, "lon": 15.3015488, "tags": {"amenity": "restaurant", "indoor_seating": "yes", "outdoor_seating": "yes"}}, {"type": "node", "id": 11748032452, "lat": 40.066563, "lon": 15.2779397, "tags": {"amenity": "restaurant"}}, {"type": "node", "id": 11748046929, "lat": 40.0676633, "lon": 15.2772937, "tags": {"amenity": "restaurant"}}, {"type": "node", "id": 11750158608, "lat": 40.1502598, "lon": 15.1658182, "tags": {"amenity": "restaurant", "cuisine": "sushi", "indoor_seating": "yes", "name": "Xing Sushi", "outdoor_seating": "yes"}}, {"type": "node", "id": 11750204604, "lat": 40.154544, "lon": 15.163035, "tags": {"amenity": "cafe", "indoor_seating": "yes", "outdoor_seating": "yes"}}, {"type": "node", "id": 11750222705, "lat": 40.1559181, "lon": 15.1602378, "tags": {"amenity": "cafe", "indoor_seating": "yes", "outdoor_seating": "yes"}}, {"type": "node", "id": 11750236861, "lat": 40.1670824, "lon": 15.1456304, "tags": {"amenity": "restaurant", "name": "La Taverna del Conte"}}, {"type": "node", "id": 11750277671, "lat": 40.1674537, "lon": 15.1462677, "tags": {"amenity": "cafe", "indoor_seating": "yes", "name": "Massa", "outdoor_seating": "yes"}}, {"type": "node", "id": 11830002939, "lat": 39.9937345, "lon": 15.7045721, "tags": {"amenity": "restaurant", "contact:facebook": "https://www.facebook.com/litricosristorantemaratea/", "contact:phone": "+39 335 487 804", "name": "Ristorante Litrico's"}}, {"type": "node", "id": 11907045248, "lat": 40.2979867, "lon": 15.6459288, "tags": {"addr:city": "Padula SALERNO", "addr:postcode": "84034", "addr:street": "Via Volta Cammino", "amenity": "restaurant", "cuisine": "italian;napoletana", "diet:vegan": "yes", "diet:vegetarian": "yes", "name": "Ristorante Orizzonte", "opening_hours": "Mo-Su 12:00-22:30", "phone": "0975446451", "website": "https://www.facebook.com/novellinoantonio65/"}}, {"type": "node", "id": 11944929110, "lat": 40.0987655, "lon": 15.5851827, "tags": {"addr:city": "Vibonati", "addr:housenumber": "snc", "addr:postcode": "84079", "addr:street": "Vico Cairoli", "amenity": "restaurant", "cuisine": "italian", "name": "Ma'Uamma Locanda degustativa", "phone": "+390973 252498", "website": "https://www.instagram.com/mauammavibonati/"}}, {"type": "node", "id": 12079122301, "lat": 40.3663616, "lon": 15.2529218}, {"type": "node", "id": 12079122302, "lat": 40.3664511, "lon": 15.2530006}, {"type": "node", "id": 12079122303, "lat": 40.3664105, "lon": 15.2530876}, {"type": "node", "id": 12079122304, "lat": 40.3663921, "lon": 15.2530737}, {"type": "node", "id": 12079122305, "lat": 40.3663497, "lon": 15.2531629}, {"type": "node", "id": 12079122306, "lat": 40.3662757, "lon": 15.2530959}, {"type": "node", "id": 12089618388, "lat": 40.3468862, "lon": 15.3778822, "tags": {"amenity": "restaurant", "name": "Rosticceria Scariati"}}, {"type": "node", "id": 12100691332, "lat": 40.038184, "lon": 15.3124978, "tags": {"addr:city": "Centola", "addr:postcode": "84051", "addr:street": "Localit\u00e0 Palorcio", "amenity": "cafe", "outdoor_seating": "yes"}}, {"type": "node", "id": 12121938772, "lat": 40.3305233, "lon": 15.5914301, "tags": {"addr:city": "Sassano", "addr:housenumber": "3", "addr:postcode": "84038", "addr:street": "via Ponte Fabbriche", "amenity": "restaurant", "cuisine": "pizza;italian", "name": "Lisa Pizzeria & Braceria", "phone": "+39 347 7349904"}}, {"type": "node", "id": 12180408174, "lat": 40.090132, "lon": 15.2456546, "tags": {"amenity": "restaurant", "name": "Mal\u00eda"}}, {"type": "node", "id": 12246427026, "lat": 40.0368512, "lon": 15.6713774, "tags": {"amenity": "cafe", "name": "Bar da Peppe"}}, {"type": "node", "id": 12270662157, "lat": 40.1045394, "lon": 15.5407378, "tags": {"addr:city": "Santa Marina", "addr:housenumber": "5", "addr:street": "Via Provinciale", "amenity": "cafe", "name": "Roxy Bar", "operator": "Giudice Francesca"}}, {"type": "node", "id": 12273347979, "lat": 40.052668, "lon": 15.4917613, "tags": {"amenity": "cafe", "name": "Street Food Alimentari Zu' Petro"}}, {"type": "node", "id": 12273347982, "lat": 40.0721153, "lon": 15.522362, "tags": {"addr:housenumber": "20", "addr:postcode": "84067", "addr:street": "Via Tirrenia", "amenity": "restaurant", "cuisine": "italian", "name": "Perla Marina Pizzeria", "operator": "Scarpitta Caterina Anna", "outdoor_seating": "yes"}}, {"type": "node", "id": 12273347983, "lat": 40.0719849, "lon": 15.5223607, "tags": {"addr:housenumber": "24", "addr:postcode": "84067", "addr:street": "Via Tirrenia", "amenity": "restaurant", "cuisine": "italian", "name": "Bar Cafe Le Port", "operator": "Giudice Rocco", "outdoor_seating": "yes"}}, {"type": "node", "id": 12273347988, "lat": 40.1035567, "lon": 15.2266391, "tags": {"alt_name": "Laboratorio Artigianale Menaica", "amenity": "restaurant", "name": "Tipicoteca Cilentana"}}, {"type": "node", "id": 12286023621, "lat": 40.0740843, "lon": 15.6276924, "tags": {"amenity": "cafe", "indoor_seating": "yes", "name": "Turco", "outdoor_seating": "yes", "wheelchair": "limited"}}, {"type": "node", "id": 12449728290, "lat": 40.1153004, "lon": 15.2221913, "tags": {"amenity": "restaurant", "email": "info@perbacco.it", "name": "perbacco", "outdoor_seating": "yes", "payment:credit_cards": "yes", "phone": "+39 0974 973 889", "website": "http://www.perbacco.it/"}}, {"type": "node", "id": 12889274101, "lat": 40.1506089, "lon": 15.6203918, "tags": {"amenity": "restaurant", "cuisine": "pizza", "name": "L'Oasi del gusto"}}, {"type": "node", "id": 12895368501, "lat": 40.2417096, "lon": 15.5513826, "tags": {"amenity": "restaurant", "name": "Bella 'Mbriana"}}, {"type": "way", "id": 206891604, "nodes": [2169482479, 2169482481, 2169482476, 2169482474, 2169482479], "tags": {"addr:city": "Pisciotta", "addr:postcode": "84066", "addr:street": "Contrada Valleoscura", "addr:unit": "9", "air_conditioning": "yes", "amenity": "restaurant", "building": "apartments", "cuisine": "italian", "ele": "380", "email": "amacilento@gmail.com", "guest_house": "agritourism", "internet_access": "yes", "name": "Agriturismo Principe di Vallescura", "nohousenumber": "yes", "operator": "Roberto", "phone": "+39 0974 1773177", "reservation": "yes", "rooms": "4", "source": "bing;amacilento;booking;B&B;panoramico;breakfast;dinner;holiday;foodporn", "website": "https://www.amacilento.com"}}, {"type": "way", "id": 207094539, "nodes": [2172194462, 2172194466, 2172194476, 2172194480, 2172194481, 2172194462], "tags": {"amenity": "restaurant", "building": "yes", "name": "Isca delle Donne", "source": "bing"}}, {"type": "way", "id": 209081838, "nodes": [2193105311, 2193105303, 2193105321, 2193105319, 2193105318, 2193105297, 2193105282, 2193105281, 2193105317, 2193105325, 2193105298, 2193105309, 2193105322, 2193105299, 2193105289, 2193105305, 2193105294, 2193105312, 2193105295, 2193105284, 2193105307, 2193105287, 2193105324, 2193105285, 2193105310, 2193105323, 2193105290, 2193105306, 2193105300, 2193105301, 2193105304, 2193105293, 2193105311], "tags": {"amenity": "restaurant", "building": "yes", "name": "Il Centauro", "source": "centaurohotel.com", "tourism": "hotel"}}, {"type": "way", "id": 214343316, "nodes": [2239047425, 2239047401, 2239047387, 2239047420, 2239047425], "tags": {"amenity": "restaurant", "building": "yes", "name": "Pizzeria La Fornace", "source": "bing"}}, {"type": "way", "id": 222123305, "nodes": [2310953398, 2310953400, 2310953402, 2310953404, 2310953405, 2310953406, 2310953407, 2310953408, 2310953398], "tags": {"addr:city": "Vallo della Lucania", "addr:postcode": "84078", "addr:street": "via Valenzani", "amenity": "restaurant", "building": "yes", "cuisine": "italian", "name": "Ristorante \"Il Sinodo\""}}, {"type": "way", "id": 229227360, "nodes": [2378503954, 2378503956, 2378503945, 2378503935, 2378503943, 2378503941, 2378503952, 2378503949, 2378503954], "tags": {"amenity": "restaurant", "building": "yes", "cuisine": "pizza", "name": "Eden"}}, {"type": "way", "id": 242933895, "nodes": [2503738705, 2503738707, 2503738709, 2503738710, 2503738711, 2503738712, 2503738713, 2503738714, 2503738705], "tags": {"addr:city": "Palinuro", "addr:street": "Via Belvedere", "amenity": "restaurant", "building": "yes", "capacity": "100", "cuisine": "italian", "name": "Ristorante Core a Core", "smoking": "separated", "takeaway": "yes"}}, {"type": "way", "id": 392722025, "nodes": [3959103011, 3959103014, 3959103020, 3959103013, 3959103011], "tags": {"amenity": "cafe", "building": "yes", "name": "Bar Il Ritrovo"}}, {"type": "way", "id": 392722030, "nodes": [3959103035, 3959103033, 3959103039, 3959103041, 3959103038, 3959103040, 3959103035], "tags": {"amenity": "cafe", "building": "yes"}}, {"type": "way", "id": 405740507, "nodes": [4078897946, 4078897937, 4078897933, 4078897928, 4078897940, 4078897954, 4078897955, 4078897957, 4078897946], "tags": {"amenity": "restaurant", "building": "yes", "cuisine": "italian;pizza", "name": "Locanda La Diga", "tourism": "hotel", "website": "https://www.ladiga.it/"}}, {"type": "way", "id": 424377351, "nodes": [4238009108, 4238009106, 4238009105, 2234977460, 4238009108], "tags": {"amenity": "cafe", "building": "yes", "name": "Bar Red Lake"}}, {"type": "way", "id": 424377360, "nodes": [4238009134, 4238009138, 4238009141, 4238009143, 4238009135, 4238009133, 4238009134], "tags": {"amenity": "cafe", "building": "yes", "name": "KUMBAR"}}, {"type": "way", "id": 448807995, "nodes": [4457834523, 4457834522, 4457834520, 4457834521, 4457834523], "tags": {"amenity": "restaurant", "building": "yes", "name": "IL RIFUGIO DEI BRIGANTI", "operator": "Coop. Oasi del Cilento"}}, {"type": "way", "id": 453529921, "nodes": [4502526271, 4502526270, 4502526269, 4502526268, 4502526271], "tags": {"addr:city": "Centola", "addr:street": "Via Porto", "amenity": "restaurant", "building": "yes", "capacity": "50", "cuisine": "italian", "name": "Embarcadero", "outdoor_seating": "yes", "smoking": "separated", "takeaway": "yes"}}, {"type": "way", "id": 570296936, "nodes": [5482884814, 5482884815, 5482884816, 5482884817, 5482884818, 5482884819, 5482884814], "tags": {"amenity": "restaurant", "building": "yes", "name": "Agriturismo Murik\u00e9"}}, {"type": "way", "id": 753981196, "nodes": [7044177219, 7044177220, 7044177221, 7044177222, 7044177219], "tags": {"addr:city": "Felitto", "addr:postcode": "84055", "addr:street": "Localit\u00e0 Santo Ianni", "amenity": "restaurant", "building": "yes", "cuisine": "regional;pizza;italian;fish", "name": "Ristorante Il Rustico", "outdoor_seating": "yes", "phone": "+39 0828 945438;+39  333 3676338", "reservation": "yes", "website": "http://web.tiscalinet.it/felittonline/it_azi_rustico4.html"}}, {"type": "way", "id": 753983896, "nodes": [7044221755, 7044221756, 7044221757, 7044221758, 7044221755], "tags": {"amenity": "restaurant", "building": "yes", "name": "RISTORANTE LE CAMMAROSE"}}, {"type": "way", "id": 753988658, "nodes": [7044241798, 7044241799, 7044241800, 7044241801, 8860923162, 8860923161, 7044241798], "tags": {"amenity": "restaurant", "building": "yes", "name": "RISTORANTE OASI DELLA PACE"}}, {"type": "way", "id": 754023923, "nodes": [7044428184, 7044470085, 7044470086, 7044470087, 7044428184], "tags": {"amenity": "restaurant", "building": "yes", "name": "RISTORANTE CHALET NICOLETTI"}}, {"type": "way", "id": 754026000, "nodes": [7044467824, 7044467825, 7044467826, 7044467827, 7044467824], "tags": {"amenity": "restaurant", "building": "yes", "name": "PIZZERIA SANT' ANTONIO"}}, {"type": "way", "id": 761839437, "nodes": [7118009665, 7118009664, 7118009663, 7118009662, 7118009665], "tags": {"amenity": "restaurant", "building": "yes", "cuisine": "pizza", "name": "Pizzeria-Cucina Tipica ai cordici"}}, {"type": "way", "id": 867249215, "nodes": [8084062946, 8084062947, 8084062948, 8084062949, 8084062946], "tags": {"addr:housenumber": "20", "addr:postcode": "84075", "addr:street": "Via Contrada Tempa", "amenity": "restaurant", "building": "yes", "cuisine": "pizza;italian;restaurant", "name": "Il Ritrovo", "opening_hours": "We off", "phone": "+39 974990068"}}, {"type": "way", "id": 889395908, "nodes": [8268489722, 8268489723, 8268489724, 8268489725, 8268489726, 8268489727, 8268489722], "tags": {"amenity": "restaurant", "brand": "Autogrill", "brand:wikidata": "Q786790", "brand:wikipedia": "en:Autogrill", "building": "yes", "cuisine": "italian;regional", "name": "Autogrill"}}, {"type": "way", "id": 889395916, "nodes": [8268489745, 8268489746, 8268489747, 8268489748, 8268489745], "tags": {"amenity": "restaurant", "brand": "Autogrill", "brand:wikidata": "Q786790", "brand:wikipedia": "en:Autogrill", "building": "yes", "cuisine": "italian;regional", "name": "Autogrill"}}, {"type": "way", "id": 891221635, "nodes": [8283473893, 8283473894, 8283473895, 8283473896, 8283473893], "tags": {"amenity": "cafe", "building": "yes", "outdoor_seating": "yes", "source": "PCN 2012 - Italy"}}, {"type": "way", "id": 981846394, "nodes": [9080923563, 9080923562, 9080923561, 9080923560, 9080923559, 9080923558, 9080923563], "tags": {"amenity": "restaurant", "building": "yes", "name": "Agriturismo Amaltea"}}, {"type": "way", "id": 997977627, "nodes": [9214700110, 9214700111, 9214700112, 9214700113, 9214700110], "tags": {"addr:housenumber": "24", "addr:street": "Via Chiuse", "amenity": "restaurant", "building": "yes", "contact:website": "http://www.agriturismoziocristoforo.com/", "cuisine": "regional", "diet:vegetarian": "yes", "name": "Agriturismo Zio Christoforo", "outdoor_seating": "yes", "phone": "+39 0974 907552", "tourism": "guest_house"}}, {"type": "way", "id": 1060653105, "nodes": [9744989653, 9744989654, 9744989655, 9744989656, 9744989657, 9744989658, 9744989659, 9744989660, 9744989653], "tags": {"addr:city": "Sassano", "addr:postcode": "84038", "addr:street": "Contrada Melelle", "amenity": "restaurant", "building": "yes", "name": "Agriturismo Orchidea", "phone": "+39 339 618 8802"}}, {"type": "way", "id": 1063349116, "nodes": [9767749270, 9767749271, 9767749272, 9767749273, 9767749270], "tags": {"addr:street": "loc. Difesa Lombi", "amenity": "restaurant", "building": "yes", "name": "Agriturismo L'Occhiano", "phone": "+39 0828 945255"}}, {"type": "way", "id": 1175311745, "nodes": [10921538307, 10921538308, 10921538309, 10921538310, 10921538311, 10921538312, 10921538307], "tags": {"amenity": "restaurant", "building": "yes"}}, {"type": "way", "id": 1198075341, "nodes": [11114669732, 11114669733, 11114669734, 11114669735, 11114669736, 11114669737, 11114669738, 11114669732], "tags": {"amenity": "cafe"}}, {"type": "way", "id": 1256724081, "nodes": [11682845914, 11682845915, 11682845916, 11682845917, 11682845918, 11682845919, 11682845914], "tags": {"addr:city": "Casalbuono", "addr:postcode": "84030", "addr:street": "SS19", "amenity": "restaurant", "building": "yes", "name": "Agriturismo La Locanda del Gallo", "phone": "+39 0975862100", "website": "https://it-it.facebook.com/LaLocandaDelGallo"}}, {"type": "way", "id": 1304335992, "nodes": [12079122301, 12079122302, 12079122303, 12079122304, 12079122305, 12079122306, 12079122301], "tags": {"addr:city": "Felitto", "air_conditioning": "yes", "amenity": "restaurant", "brewery": "various", "building": "yes", "check_date": "2024-07-27", "cuisine": "regional;italian", "internet_access": "wlan", "internet_access:fee": "customers", "name": "Ristorante e Pizzeria Remolino", "opening_hours": "Tu-Su 08:00-00:00", "outdoor_seating": "yes", "reservation": "yes", "source": "survey", "takeaway": "no", "toilets": "yes", "toilets:access": "customers", "toilets:handwashing": "yes", "toilets:num_chambers": "2", "wheelchair": "limited"}}]}