{"version": 0.6, "generator": "Overpass API 0.7.62.7 375dc00a", "osm3s": {"timestamp_osm_base": "2025-06-14T14:33:06Z", "copyright": "The data included in this document is from www.openstreetmap.org. The data is made available under ODbL."}, "elements": [{"type": "node", "id": 534589719, "lat": 39.7423755, "lon": 19.9330884, "tags": {"amenity": "restaurant", "name": "The White House", "tourism": "hotel"}}, {"type": "node", "id": 534607959, "lat": 39.7358524, "lon": 19.9290859, "tags": {"amenity": "restaurant", "cuisine": "greek", "name": "Taverna Nikolas"}}, {"type": "node", "id": 534607964, "lat": 39.7364709, "lon": 19.9292302, "tags": {"amenity": "restaurant", "cuisine": "greek", "name": "Taverna Agni"}}, {"type": "node", "id": 534607989, "lat": 39.7884942, "lon": 19.9193072, "tags": {"amenity": "cafe", "name": "Seasons Cafe"}}, {"type": "node", "id": 534607990, "lat": 39.7884382, "lon": 19.9190805, "tags": {"amenity": "restaurant", "name": "Petrino"}}, {"type": "node", "id": 534607995, "lat": 39.801925, "lon": 19.870367, "tags": {"amenity": "restaurant", "cuisine": "greek", "name": "Taverna Harry's"}}, {"type": "node", "id": 534607996, "lat": 39.8017309, "lon": 19.870482, "tags": {"amenity": "restaurant", "cuisine": "greek", "name": "RESTAURANT"}}, {"type": "node", "id": 534607999, "lat": 39.786849, "lon": 19.8756885, "tags": {"amenity": "restaurant", "cuisine": "greek", "name": "Hatzos Taverna"}}, {"type": "node", "id": 534608000, "lat": 39.8088564, "lon": 19.8657776, "tags": {"amenity": "restaurant", "cuisine": "greek", "name": "Karbouris Taverna"}}, {"type": "node", "id": 921435441, "lat": 39.7274148, "lon": 19.9036105, "tags": {"amenity": "restaurant", "name": "Roumeli"}}, {"type": "node", "id": 929527265, "lat": 39.7898161, "lon": 19.9221929, "tags": {"amenity": "restaurant"}}, {"type": "node", "id": 929527273, "lat": 39.790003, "lon": 19.9220929, "tags": {"amenity": "restaurant"}}, {"type": "node", "id": 929692652, "lat": 39.7187947, "lon": 19.8707218, "tags": {"amenity": "cafe"}}, {"type": "node", "id": 929692658, "lat": 39.719001, "lon": 19.87099, "tags": {"amenity": "cafe"}}, {"type": "node", "id": 1029715511, "lat": 39.647483, "lon": 19.8541431, "tags": {"amenity": "restaurant", "cuisine": "greek"}}, {"type": "node", "id": 1029715515, "lat": 39.6473261, "lon": 19.853848, "tags": {"amenity": "restaurant", "cuisine": "greek"}}, {"type": "node", "id": 1081023587, "lat": 39.8121121, "lon": 19.8369431}, {"type": "node", "id": 1081023597, "lat": 39.8089747, "lon": 19.8336538}, {"type": "node", "id": 1081023604, "lat": 39.8121598, "lon": 19.8369188}, {"type": "node", "id": 1081023609, "lat": 39.812085, "lon": 19.836869}, {"type": "node", "id": 1081023611, "lat": 39.8120821, "lon": 19.8368611}, {"type": "node", "id": 1081023614, "lat": 39.8119379, "lon": 19.8370857}, {"type": "node", "id": 1081023620, "lat": 39.8118984, "lon": 19.8369779}, {"type": "node", "id": 1081023623, "lat": 39.8120463, "lon": 19.836984}, {"type": "node", "id": 1081023626, "lat": 39.8120171, "lon": 19.8369042}, {"type": "node", "id": 1081023637, "lat": 39.8091624, "lon": 19.8334768}, {"type": "node", "id": 1081023639, "lat": 39.8120192, "lon": 19.8369098}, {"type": "node", "id": 1081023644, "lat": 39.8121152, "lon": 19.8369517}, {"type": "node", "id": 1081023648, "lat": 39.8120566, "lon": 19.837012}, {"type": "node", "id": 1081023660, "lat": 39.8121134, "lon": 19.8368479}, {"type": "node", "id": 1081023665, "lat": 39.8090494, "lon": 19.833788}, {"type": "node", "id": 1081097624, "lat": 39.7864971, "lon": 19.835505}, {"type": "node", "id": 1081097643, "lat": 39.8092232, "lon": 19.8336242}, {"type": "node", "id": 1081097689, "lat": 39.7864616, "lon": 19.8354528}, {"type": "node", "id": 1081097844, "lat": 39.7866578, "lon": 19.8353492}, {"type": "node", "id": 1081097877, "lat": 39.7864544, "lon": 19.8354917}, {"type": "node", "id": 1081097916, "lat": 39.8091708, "lon": 19.833492}, {"type": "node", "id": 1081097923, "lat": 39.8092467, "lon": 19.8334204}, {"type": "node", "id": 1081097930, "lat": 39.8093133, "lon": 19.8335398}, {"type": "node", "id": 1081097986, "lat": 39.7864613, "lon": 19.8354527}, {"type": "node", "id": 1081098090, "lat": 39.7864918, "lon": 19.8352949}, {"type": "node", "id": 1081098174, "lat": 39.8092234, "lon": 19.8336247}, {"type": "node", "id": 1081098228, "lat": 39.7866273, "lon": 19.835507}, {"type": "node", "id": 1081098264, "lat": 39.7865042, "lon": 19.8354667}, {"type": "node", "id": 1091417072, "lat": 39.8045212, "lon": 19.8713273}, {"type": "node", "id": 1091417133, "lat": 39.7988123, "lon": 19.8836046}, {"type": "node", "id": 1091417989, "lat": 39.7991769, "lon": 19.8831009}, {"type": "node", "id": 1091418213, "lat": 39.8045815, "lon": 19.8712909}, {"type": "node", "id": 1091419238, "lat": 39.8045396, "lon": 19.8712686}, {"type": "node", "id": 1091419532, "lat": 39.7988568, "lon": 19.8837003}, {"type": "node", "id": 1091419978, "lat": 39.7989126, "lon": 19.8835256}, {"type": "node", "id": 1091420067, "lat": 39.799249, "lon": 19.8832756}, {"type": "node", "id": 1091420983, "lat": 39.804563, "lon": 19.8713496}, {"type": "node", "id": 1091421964, "lat": 39.7989571, "lon": 19.8836213}, {"type": "node", "id": 1091422419, "lat": 39.7992882, "lon": 19.8831729}, {"type": "node", "id": 1091422482, "lat": 39.7991377, "lon": 19.8832036}, {"type": "node", "id": 1105812739, "lat": 39.7673904, "lon": 19.9485162, "tags": {"amenity": "restaurant", "name": "Eucalyptus Taverna"}}, {"type": "node", "id": 1239229025, "lat": 39.7954292, "lon": 19.8113558}, {"type": "node", "id": 1239229036, "lat": 39.7954605, "lon": 19.8116849}, {"type": "node", "id": 1239229053, "lat": 39.7955386, "lon": 19.8116326}, {"type": "node", "id": 1239229065, "lat": 39.7953511, "lon": 19.8114081}, {"type": "node", "id": 1261824478, "lat": 39.7079704, "lon": 19.8443654, "tags": {"amenity": "restaurant", "cuisine": "greek", "name": "\u03a8\u03b7\u03c3\u03c4\u03b1\u03c1\u03b9\u03ac"}}, {"type": "node", "id": 1289494279, "lat": 39.6649957, "lon": 19.8564067}, {"type": "node", "id": 1289494475, "lat": 39.6650373, "lon": 19.8564487}, {"type": "node", "id": 1289494487, "lat": 39.6650987, "lon": 19.8563473}, {"type": "node", "id": 1289494539, "lat": 39.6649523, "lon": 19.8564658}, {"type": "node", "id": 1289494695, "lat": 39.6647, "lon": 19.8561699}, {"type": "node", "id": 1289494706, "lat": 39.6647851, "lon": 19.8559937}, {"type": "node", "id": 1404442341, "lat": 39.7455733, "lon": 20.0182135, "tags": {"amenity": "restaurant"}}, {"type": "node", "id": 1626171052, "lat": 39.7438357, "lon": 19.9333841}, {"type": "node", "id": 1626171208, "lat": 39.7437899, "lon": 19.9334578}, {"type": "node", "id": 1626171209, "lat": 39.7437705, "lon": 19.9333157}, {"type": "node", "id": 1626171387, "lat": 39.7437248, "lon": 19.9333893}, {"type": "node", "id": 1627563544, "lat": 39.7927639, "lon": 19.9199791, "tags": {"addr:postcode": "49100", "addr:street": "\u03a7\u03c9\u03c1\u03af\u03c2 \u038c\u03bd\u03bf\u03bc\u03b1", "amenity": "restaurant", "cuisine": "greek", "int_name": "Trilogia", "name": "\u03a4\u03c1\u03b9\u03bb\u03bf\u03b3\u03af\u03b1", "source": "survey"}}, {"type": "node", "id": 1627594571, "lat": 39.7784836, "lon": 19.9388619, "tags": {"amenity": "restaurant", "building": "yes", "cuisine": "greek", "int_name": "Taverna Cavo Barbaro", "name": "Taverna Cavo Barbaro"}}, {"type": "node", "id": 1646778394, "lat": 39.7905339, "lon": 19.790868}, {"type": "node", "id": 1646778436, "lat": 39.7904803, "lon": 19.7908653}, {"type": "node", "id": 1646778482, "lat": 39.7909979, "lon": 19.7886257}, {"type": "node", "id": 1646778672, "lat": 39.7908887, "lon": 19.7887142}, {"type": "node", "id": 1646778926, "lat": 39.7908681, "lon": 19.7889449}, {"type": "node", "id": 1646778967, "lat": 39.7909567, "lon": 19.7885962}, {"type": "node", "id": 1646778987, "lat": 39.790604, "lon": 19.7905139}, {"type": "node", "id": 1646779032, "lat": 39.7905422, "lon": 19.7907929}, {"type": "node", "id": 1646779289, "lat": 39.7905884, "lon": 19.7907959}, {"type": "node", "id": 1646779425, "lat": 39.7908093, "lon": 19.7888997}, {"type": "node", "id": 1646779454, "lat": 39.790506, "lon": 19.790509}, {"type": "node", "id": 1663249012, "lat": 39.791996, "lon": 19.8169432}, {"type": "node", "id": 1685024904, "lat": 39.7905916, "lon": 19.7896183}, {"type": "node", "id": 1685024918, "lat": 39.7904626, "lon": 19.78957}, {"type": "node", "id": 1685024921, "lat": 39.7906027, "lon": 19.7892535}, {"type": "node", "id": 1685024943, "lat": 39.7904833, "lon": 19.7892774}, {"type": "node", "id": 1685025045, "lat": 39.7905925, "lon": 19.7895724}, {"type": "node", "id": 1685025055, "lat": 39.7904247, "lon": 19.7895861}, {"type": "node", "id": 1685025095, "lat": 39.7905409, "lon": 19.7890899}, {"type": "node", "id": 1685025676, "lat": 39.7906254, "lon": 19.7891302}, {"type": "node", "id": 1685025769, "lat": 39.790367, "lon": 19.7900797}, {"type": "node", "id": 1685025821, "lat": 39.7905567, "lon": 19.7901035}, {"type": "node", "id": 1685025899, "lat": 39.7905946, "lon": 19.789441}, {"type": "node", "id": 1690300121, "lat": 39.7648537, "lon": 19.8750694, "tags": {"amenity": "restaurant", "cuisine": "regional", "name": "FOROS"}}, {"type": "node", "id": 1777279286, "lat": 39.6893652, "lon": 19.8288498, "tags": {"amenity": "restaurant", "name": "JOY'S"}}, {"type": "node", "id": 1980640525, "lat": 39.6833471, "lon": 19.8414582, "tags": {"amenity": "restaurant", "check_date": "2024-06-16", "cuisine": "greek", "name": "Andreas"}}, {"type": "node", "id": 1980640537, "lat": 39.674616, "lon": 19.8391013, "tags": {"amenity": "restaurant", "cuisine": "greek", "name": "La Casa"}}, {"type": "node", "id": 1980640538, "lat": 39.6830013, "lon": 19.8413117, "tags": {"amenity": "restaurant", "check_date": "2024-06-16", "cuisine": "greek;fish", "name": "Ta Diktia"}}, {"type": "node", "id": 1980640544, "lat": 39.6812046, "lon": 19.8407159, "tags": {"amenity": "restaurant", "cuisine": "greek", "name": "Malibu"}}, {"type": "node", "id": 1980644096, "lat": 39.6789831, "lon": 19.838372, "tags": {"amenity": "restaurant", "cuisine": "greek", "name": "Kirki"}}, {"type": "node", "id": 1980644097, "lat": 39.6851303, "lon": 19.8379898, "tags": {"amenity": "restaurant", "check_date": "2024-06-17", "cuisine": "italian;pizza", "name": "La Bonita"}}, {"type": "node", "id": 1980644098, "lat": 39.6810788, "lon": 19.8373134, "tags": {"amenity": "restaurant", "cuisine": "greek", "name": "La Veranda"}}, {"type": "node", "id": 1980644166, "lat": 39.6775791, "lon": 19.8388114, "tags": {"amenity": "restaurant", "cuisine": "greek"}}, {"type": "node", "id": 1980644168, "lat": 39.6850243, "lon": 19.8378815, "tags": {"amenity": "cafe", "name": "\u0391\u03c1\u03c4\u03b9\u03bf\u03bd", "shop": "bakery"}}, {"type": "node", "id": 1980655464, "lat": 39.9069031, "lon": 20.040889, "tags": {"amenity": "restaurant", "name": "Foinike"}}, {"type": "node", "id": 1983913575, "lat": 39.7060824, "lon": 19.8434519, "tags": {"amenity": "restaurant", "cuisine": "greek", "name": "Milto`s"}}, {"type": "node", "id": 1983913576, "lat": 39.6948315, "lon": 19.8378, "tags": {"amenity": "restaurant", "cuisine": "greek", "name": "Asteria"}}, {"type": "node", "id": 1983913577, "lat": 39.6959934, "lon": 19.8378156, "tags": {"amenity": "restaurant", "check_date": "2024-06-25", "cuisine": "greek", "name": "Da Marco", "opening_hours": "12:00-15:30,18:00-23:30"}}, {"type": "node", "id": 1983913581, "lat": 39.6874725, "lon": 19.8430131, "tags": {"amenity": "cafe", "check_date": "2024-06-17", "name": "Mouratoros", "opening_hours": "Mo-Fr 09:00-22:00", "payment:cash": "yes", "payment:credit_cards": "yes", "payment:debit_cards": "yes", "wheelchair": "no"}}, {"type": "node", "id": 1983913582, "lat": 39.7010132, "lon": 19.8399221, "tags": {"amenity": "restaurant", "cuisine": "chinese", "name": "Peking"}}, {"type": "node", "id": 1983913623, "lat": 39.6953457, "lon": 19.8377156, "tags": {"amenity": "cafe"}}, {"type": "node", "id": 1983913627, "lat": 39.6992446, "lon": 19.838865, "tags": {"amenity": "restaurant", "cuisine": "greek", "name": "Naoyza"}}, {"type": "node", "id": 1983913638, "lat": 39.70326, "lon": 19.8412698, "tags": {"amenity": "restaurant", "cuisine": "greek", "name": "Stathis"}}, {"type": "node", "id": 1983921478, "lat": 39.6856316, "lon": 19.8356826, "tags": {"amenity": "restaurant", "name": "Bistro Vinieri"}}, {"type": "node", "id": 1983921479, "lat": 39.6900923, "lon": 19.8167138, "tags": {"amenity": "cafe", "name": "L'Incontro"}}, {"type": "node", "id": 1983921507, "lat": 39.6889047, "lon": 19.8301267, "tags": {"amenity": "restaurant", "cuisine": "greek", "name": "Taverna Limeri"}}, {"type": "node", "id": 1983921508, "lat": 39.6896978, "lon": 19.8335414, "tags": {"amenity": "restaurant", "cuisine": "greek", "name": "Taverna Panorama"}}, {"type": "node", "id": 1987958824, "lat": 39.6628424, "lon": 19.8449497, "tags": {"amenity": "restaurant", "name": "Avalle Bistro", "outdoor_seating": "yes", "website": "https://avallebistro.gr"}}, {"type": "node", "id": 1989297754, "lat": 39.7911898, "lon": 19.8141947, "tags": {"amenity": "restaurant", "cuisine": "greek", "name": "Acharavi Park"}}, {"type": "node", "id": 1993275338, "lat": 39.7180636, "lon": 19.7933167, "tags": {"amenity": "cafe", "name": "Cafe Emilys"}}, {"type": "node", "id": 1993275339, "lat": 39.7477494, "lon": 19.872246, "tags": {"amenity": "cafe", "cuisine": "greek", "int_name": "Pantokrator Cafe Bar", "name": "\u039a\u03b1\u03c6\u03b5\u03c4\u03ad\u03c1\u03b9\u03b1 \u03a0\u03b1\u03bd\u03c4\u03bf\u03ba\u03c1\u03ac\u03c4\u03bf\u03c1\u03b1\u03c2", "outdoor_seating": "yes"}}, {"type": "node", "id": 2073741679, "lat": 40.0625387, "lon": 19.7942604}, {"type": "node", "id": 2073741681, "lat": 40.0625491, "lon": 19.794351}, {"type": "node", "id": 2073741685, "lat": 40.0626257, "lon": 19.7942434}, {"type": "node", "id": 2073741688, "lat": 40.0626361, "lon": 19.7943339}, {"type": "node", "id": 2073741703, "lat": 40.0630634, "lon": 19.7946449, "tags": {"addr:street": "Porto Palermo", "amenity": "restaurant", "cuisine": "regional", "internet_access": "wlan", "name": "Restaurant Porto Palermo", "name:en": "Restorant Porto-Palermo", "phone": "+355 69 701 0999"}}, {"type": "node", "id": 2102266865, "lat": 39.744077, "lon": 19.9405793, "tags": {"amenity": "restaurant", "cuisine": "greek", "name": "Taverna Kouloura", "opening_hours": "Mo-Su 10:00-15:00"}}, {"type": "node", "id": 2321983907, "lat": 39.798169, "lon": 19.884035, "tags": {"amenity": "restaurant", "cuisine": "greek", "internet_access": "wlan", "internet_access:fee": "no", "name": "Dimakos"}}, {"type": "node", "id": 2361670460, "lat": 39.6583799, "lon": 19.8391814, "tags": {"amenity": "restaurant", "cuisine": "regional", "name": "Govina 7", "outdoor_seating": "yes"}}, {"type": "node", "id": 2398411738, "lat": 39.7740987, "lon": 19.8465284, "tags": {"amenity": "cafe", "cuisine": "coffee_shop", "wifi": "no"}}, {"type": "node", "id": 2435132610, "lat": 39.8729299, "lon": 20.0047449, "tags": {"amenity": "cafe", "name": "New Space"}}, {"type": "node", "id": 2435132617, "lat": 39.8730024, "lon": 20.004983, "tags": {"amenity": "restaurant"}}, {"type": "node", "id": 2435275256, "lat": 39.8040586, "lon": 20.0052196, "tags": {"amenity": "restaurant", "delivery": "no", "internet_access": "wlan", "internet_access:fee": "no", "name": "Bar Restraunt Pasqyra", "outdoor_seating": "yes", "smoking": "outside", "takeaway": "yes", "wheelchair": "no"}}, {"type": "node", "id": 2441732525, "lat": 39.9230814, "lon": 20.1916923, "tags": {"amenity": "restaurant", "check_date": "2024-09-02", "cuisine": "regional", "outdoor_seating": "yes", "payment:cash": "yes", "smoking": "outside", "source": "survey", "takeaway": "yes", "toilets": "yes", "toilets:wheelchair": "no", "wheelchair": "limited"}}, {"type": "node", "id": 2441732531, "lat": 39.9250527, "lon": 20.1928335, "tags": {"amenity": "restaurant"}}, {"type": "node", "id": 2483443946, "lat": 40.0806581, "lon": 20.1386873, "tags": {"amenity": "cafe", "name": "Shehu Family Cafe", "outdoor_seating": "yes", "smoking": "no"}}, {"type": "node", "id": 2492765209, "lat": 39.939767, "lon": 20.2231634, "tags": {"amenity": "restaurant", "source": "survey"}}, {"type": "node", "id": 2508589865, "lat": 39.7273696, "lon": 19.9033911, "tags": {"amenity": "restaurant", "cuisine": "greek", "name": "Vitamins"}}, {"type": "node", "id": 2509390651, "lat": 39.7281419, "lon": 19.9134335, "tags": {"amenity": "restaurant", "name": "The Rocks"}}, {"type": "node", "id": 2509394542, "lat": 39.7240592, "lon": 19.8961493, "tags": {"amenity": "restaurant", "cuisine": "greek", "name": "The Olive Press"}}, {"type": "node", "id": 2509394543, "lat": 39.7241009, "lon": 19.8966646, "tags": {"amenity": "restaurant", "cuisine": "greek", "name": "MARY'S LAB"}}, {"type": "node", "id": 2636936214, "lat": 40.074748, "lon": 20.1386018, "tags": {"amenity": "restaurant", "cuisine": "regional", "name": "Kujtimi", "outdoor_seating": "yes"}}, {"type": "node", "id": 2919047129, "lat": 39.7919299, "lon": 19.8163115, "tags": {"amenity": "restaurant", "cuisine": "greek;international;regional", "name": "The Pumphouse", "website": "http://www.pumphousecorfu.com/"}}, {"type": "node", "id": 2919084239, "lat": 39.7919645, "lon": 19.8157743, "tags": {"amenity": "restaurant", "int_name": "Odysseas", "name": "\u039f\u03b4\u03c5\u03c3\u03c3\u03ad\u03b1\u03c2", "name:el": "\u039f\u03b4\u03c5\u03c3\u03c3\u03ad\u03b1\u03c2", "name:en": "Odysseus"}}, {"type": "node", "id": 2919426990, "lat": 39.7909698, "lon": 19.8133039, "tags": {"amenity": "cafe", "internet_access": "wlan", "internet_access:fee": "no", "name": "Adonis"}}, {"type": "node", "id": 2919426992, "lat": 39.7915713, "lon": 19.8132211, "tags": {"amenity": "restaurant", "cuisine": "greek", "internet_access": "wlan", "internet_access:fee": "no", "name": "Apagio", "opening_hours": "17:00+"}}, {"type": "node", "id": 2919431827, "lat": 39.7908805, "lon": 19.8140606, "tags": {"amenity": "cafe", "internet_access": "wlan", "internet_access:fee": "no", "name": "Hovoli", "name:el": "\u03a7\u03cc\u03b2\u03bf\u03bb\u03b7"}}, {"type": "node", "id": 2919535041, "lat": 39.7906792, "lon": 19.8134101, "tags": {"amenity": "restaurant", "cuisine": "italian", "name": "Da Gino"}}, {"type": "node", "id": 2919535042, "lat": 39.7905589, "lon": 19.8129827, "tags": {"amenity": "restaurant", "cuisine": "greek;barbecue", "name": "Filaraki", "name:el": "\u03a6\u03b9\u03bb\u03b1\u03c1\u03ac\u03ba\u03b9", "source": "survey"}}, {"type": "node", "id": 2919535045, "lat": 39.7938594, "lon": 19.8078689, "tags": {"amenity": "restaurant", "internet_access": "wlan", "internet_access:fee": "no", "name": "Navigator"}}, {"type": "node", "id": 2919535133, "lat": 39.7886147, "lon": 19.806967, "tags": {"amenity": "cafe"}}, {"type": "node", "id": 2919535266, "lat": 39.7902809, "lon": 19.8122421, "tags": {"amenity": "cafe"}}, {"type": "node", "id": 2923918202, "lat": 39.7935023, "lon": 19.8072372, "tags": {"amenity": "restaurant", "name": "Nefeli"}}, {"type": "node", "id": 2923918422, "lat": 39.7930543, "lon": 19.805759, "tags": {"amenity": "cafe", "internet_access": "wlan", "internet_access:fee": "no", "name": "12 Gods", "name:el": "12 \u0398\u03b5\u03bf\u03af"}}, {"type": "node", "id": 2925080119, "lat": 39.7948966, "lon": 19.8102132, "tags": {"addr:postcode": "49081", "amenity": "cafe", "cuisine": "greek", "internet_access": "wlan", "name": "\u0391\u03c6\u03c1\u03cc\u03c2 \u03a4\u03b1\u03b2\u03ad\u03c1\u03bd\u03b1", "name:el": "\u0391\u03c6\u03c1\u03cc\u03c2 \u03a4\u03b1\u03b2\u03ad\u03c1\u03bd\u03b1", "name:en": "Afros Taverna", "phone": "2663063501"}}, {"type": "node", "id": 2925080120, "lat": 39.7946612, "lon": 19.8096667, "tags": {"amenity": "restaurant", "cuisine": "greek", "internet_access": "wlan", "internet_access:fee": "no", "name": "Alex's Taverna"}}, {"type": "node", "id": 2925080123, "lat": 39.7950369, "lon": 19.8105287, "tags": {"amenity": "restaurant", "internet_access": "wlan", "internet_access:fee": "no", "name": "Faros"}}, {"type": "node", "id": 2925080125, "lat": 39.7950466, "lon": 19.8106313, "tags": {"amenity": "restaurant", "name": "Woody's"}}, {"type": "node", "id": 2925080682, "lat": 39.7954662, "lon": 19.8114494}, {"type": "node", "id": 2925080683, "lat": 39.7954864, "lon": 19.8115004}, {"type": "node", "id": 2925080684, "lat": 39.7955269, "lon": 19.8114088}, {"type": "node", "id": 2925080685, "lat": 39.795547, "lon": 19.8114598}, {"type": "node", "id": 2925167715, "lat": 39.793219, "lon": 19.8175808, "tags": {"amenity": "cafe", "name": "Almar"}}, {"type": "node", "id": 2925167717, "lat": 39.7924308, "lon": 19.8164396, "tags": {"amenity": "restaurant", "name": "Central"}}, {"type": "node", "id": 2925167723, "lat": 39.7921699, "lon": 19.8159391, "tags": {"amenity": "cafe", "internet_access": "yes", "name": "Internet cafe"}}, {"type": "node", "id": 2925167725, "lat": 39.7910131, "lon": 19.8144757, "tags": {"amenity": "cafe", "name": "Istros"}}, {"type": "node", "id": 2925167736, "lat": 39.7925231, "lon": 19.8165794, "tags": {"amenity": "cafe", "internet_access": "wlan", "internet_access:fee": "no", "name": "Tet a Tet"}}, {"type": "node", "id": 2925167765, "lat": 39.791789, "lon": 19.8161348}, {"type": "node", "id": 2925167766, "lat": 39.7918207, "lon": 19.8162307}, {"type": "node", "id": 2925167767, "lat": 39.7918296, "lon": 19.816112}, {"type": "node", "id": 2925167770, "lat": 39.7918613, "lon": 19.8162079}, {"type": "node", "id": 2926270614, "lat": 39.7932425, "lon": 19.8182275, "tags": {"addr:city": "Acharavi", "addr:postcode": "49081", "amenity": "cafe", "internet_access": "wlan", "name": "Kafeneio"}}, {"type": "node", "id": 3025597031, "lat": 39.8737274, "lon": 20.0082851, "tags": {"amenity": "restaurant", "check_date": "2023-10-08", "name": "Limani"}}, {"type": "node", "id": 3048629931, "lat": 39.7961314, "lon": 19.8128277, "tags": {"amenity": "restaurant", "cuisine": "italian;greek", "name": "Maistro", "smoking": "yes"}}, {"type": "node", "id": 3107990456, "lat": 39.6640774, "lon": 19.849894, "tags": {"amenity": "restaurant", "fixme": "incomplete", "name": "O Mylos", "name:en": "The Mill"}}, {"type": "node", "id": 3109698391, "lat": 39.6641205, "lon": 19.8528735, "tags": {"amenity": "restaurant", "name": "Palegro"}}, {"type": "node", "id": 3122825643, "lat": 39.9491526, "lon": 20.0975959, "tags": {"amenity": "cafe"}}, {"type": "node", "id": 3123556115, "lat": 39.767738, "lon": 19.9983952}, {"type": "node", "id": 3123556116, "lat": 39.7676854, "lon": 19.9984778}, {"type": "node", "id": 3123556117, "lat": 39.7677813, "lon": 19.9986095}, {"type": "node", "id": 3123556118, "lat": 39.7678697, "lon": 19.9986674}, {"type": "node", "id": 3123556119, "lat": 39.7679177, "lon": 19.9985328}, {"type": "node", "id": 3123556120, "lat": 39.7678012, "lon": 19.9984577}, {"type": "node", "id": 3123556123, "lat": 39.7680139, "lon": 19.9987971}, {"type": "node", "id": 3123556124, "lat": 39.7680862, "lon": 19.9986663}, {"type": "node", "id": 3123556125, "lat": 39.7679703, "lon": 19.998573}, {"type": "node", "id": 3140544907, "lat": 39.790451, "lon": 19.9236822, "tags": {"amenity": "restaurant", "name": "Virginia's Place"}}, {"type": "node", "id": 3436558924, "lat": 40.03075, "lon": 19.8699699}, {"type": "node", "id": 3436558950, "lat": 40.0306224, "lon": 19.8696543}, {"type": "node", "id": 3436558971, "lat": 40.0306341, "lon": 19.8700626}, {"type": "node", "id": 3436558992, "lat": 40.0305004, "lon": 19.869747}, {"type": "node", "id": 3588249417, "lat": 40.0757006, "lon": 20.1387639, "tags": {"addr:street": "Rruga e Zejtar\u00ebve", "amenity": "restaurant", "name": "Kodra"}}, {"type": "node", "id": 3618335378, "lat": 39.6526633, "lon": 19.8424096, "tags": {"amenity": "restaurant", "contact:website": "filippas.gr", "cuisine": "regional", "int_name": "Filippas", "name": "\u03a6\u03b9\u03bb\u03b9\u03c0\u03c0\u03b1\u03c2", "outdoor_seating": "yes", "wheelchair": "yes"}}, {"type": "node", "id": 3639901756, "lat": 39.6533855, "lon": 19.8422435, "tags": {"amenity": "restaurant", "name": "BBQ Art"}}, {"type": "node", "id": 3641343698, "lat": 39.6527949, "lon": 19.8424874, "tags": {"amenity": "restaurant", "cuisine": "regional;kebab;barbecue", "name": "Tzoumerka Grill House", "outdoor_seating": "yes"}}, {"type": "node", "id": 3762232611, "lat": 40.0745468, "lon": 20.139319, "tags": {"amenity": "restaurant", "cuisine": "regional;italian", "internet_access": "wlan", "name": "Mapo", "outdoor_seating": "yes"}}, {"type": "node", "id": 3762232612, "lat": 40.0748454, "lon": 20.1394335, "tags": {"amenity": "restaurant", "cuisine": "albanian;italian", "internet_access": "wlan", "name": "El Dorado"}}, {"type": "node", "id": 3762232613, "lat": 40.0747871, "lon": 20.1393807, "tags": {"amenity": "restaurant", "cuisine": "local", "diet:vegetarian": "yes", "name": "Sofra", "name:en": "sofra"}}, {"type": "node", "id": 3762232614, "lat": 40.0746548, "lon": 20.1393579, "tags": {"amenity": "restaurant", "check_date": "2024-08-31", "cuisine": "regional", "diet:vegetarian": "yes", "internet_access": "wlan", "name": "The Park", "outdoor_seating": "yes", "payment:cash": "yes", "source": "survey", "takeaway": "yes", "toilets": "yes", "wheelchair": "limited"}}, {"type": "node", "id": 3765663357, "lat": 39.9755167, "lon": 19.915634, "tags": {"amenity": "restaurant", "cuisine": "italian;regional", "name": "Taverna Dashi"}}, {"type": "node", "id": 4007019497, "lat": 40.0745349, "lon": 20.1382637}, {"type": "node", "id": 4007019498, "lat": 40.0745184, "lon": 20.1383623}, {"type": "node", "id": 4007019499, "lat": 40.0744312, "lon": 20.1383407}, {"type": "node", "id": 4007019500, "lat": 40.0744453, "lon": 20.1382298}, {"type": "node", "id": 4007359481, "lat": 40.0748907, "lon": 20.1394897}, {"type": "node", "id": 4007359482, "lat": 40.0748259, "lon": 20.1395529}, {"type": "node", "id": 4007359483, "lat": 40.0748106, "lon": 20.139556}, {"type": "node", "id": 4007359484, "lat": 40.0748047, "lon": 20.1395313}, {"type": "node", "id": 4007359485, "lat": 40.0748106, "lon": 20.1395159}, {"type": "node", "id": 4007359486, "lat": 40.0748012, "lon": 20.1395021}, {"type": "node", "id": 4007359487, "lat": 40.0748141, "lon": 20.1394712}, {"type": "node", "id": 4007359488, "lat": 40.0748, "lon": 20.1394451}, {"type": "node", "id": 4007360889, "lat": 40.0748625, "lon": 20.1394081}, {"type": "node", "id": 4007360890, "lat": 40.074846, "lon": 20.1393973}, {"type": "node", "id": 4007360891, "lat": 40.0747953, "lon": 20.1393542}, {"type": "node", "id": 4007360892, "lat": 40.0747564, "lon": 20.1393619}, {"type": "node", "id": 4007360893, "lat": 40.0747799, "lon": 20.1394558}, {"type": "node", "id": 4007363189, "lat": 40.0746216, "lon": 20.1383107}, {"type": "node", "id": 4007363190, "lat": 40.0746134, "lon": 20.1384204}, {"type": "node", "id": 4007363191, "lat": 40.0745566, "lon": 20.1384027}, {"type": "node", "id": 4007363192, "lat": 40.0745606, "lon": 20.1383}, {"type": "node", "id": 4007406560, "lat": 40.0752368, "lon": 20.1384036}, {"type": "node", "id": 4007407102, "lat": 40.0753169, "lon": 20.1381997}, {"type": "node", "id": 4007407103, "lat": 40.0752516, "lon": 20.1381852}, {"type": "node", "id": 4007407104, "lat": 40.0752984, "lon": 20.1384036}, {"type": "node", "id": 4170136589, "lat": 39.709883, "lon": 19.8241175, "tags": {"amenity": "restaurant", "cuisine": "greek", "name": "Panorama bar"}}, {"type": "node", "id": 4210976197, "lat": 39.790264, "lon": 19.9216531, "tags": {"amenity": "restaurant", "cuisine": "ice_cream", "name": "Cool & Fresh"}}, {"type": "node", "id": 4210976301, "lat": 39.7903317, "lon": 19.9215138, "tags": {"amenity": "restaurant", "cuisine": "grill;greek", "name": "Thraka - Grill House"}}, {"type": "node", "id": 4230489633, "lat": 39.6525467, "lon": 19.8441619, "tags": {"amenity": "restaurant", "cuisine": "pizza;italian", "name": "Roberto e Fei"}}, {"type": "node", "id": 4280103192, "lat": 39.9704694, "lon": 19.913986, "tags": {"amenity": "restaurant"}}, {"type": "node", "id": 4297063958, "lat": 39.8008176, "lon": 20.0014601, "tags": {"amenity": "restaurant"}}, {"type": "node", "id": 4297201943, "lat": 39.7789646, "lon": 20.0069191, "tags": {"amenity": "restaurant", "name": "Sunset"}}, {"type": "node", "id": 4304650002, "lat": 39.7774974, "lon": 19.786708, "tags": {"amenity": "cafe", "name": "Snack Bar Neon"}}, {"type": "node", "id": 4307616808, "lat": 39.7590556, "lon": 19.8169031, "tags": {"amenity": "cafe", "name": "\u0395\u03c0\u03af\u03c3\u03ba\u03b5\u03c8\u03b7"}}, {"type": "node", "id": 4332304493, "lat": 40.0074387, "lon": 19.904844, "tags": {"amenity": "cafe"}}, {"type": "node", "id": 4333863992, "lat": 40.073948, "lon": 20.1376446, "tags": {"addr:street": "Rruga Ismail Kadare", "amenity": "cafe", "name": "Aluizni"}}, {"type": "node", "id": 4334033790, "lat": 40.074057, "lon": 20.1376554, "tags": {"addr:street": "Rruga Ismail Kadare", "amenity": "restaurant", "name": "Casa flora & Linda", "phone": "5696860130"}}, {"type": "node", "id": 4335330795, "lat": 39.7709906, "lon": 19.9980969, "tags": {"amenity": "restaurant", "name": "Kor\u00e7a bar restaurant"}}, {"type": "node", "id": 4339537163, "lat": 39.7425758, "lon": 20.0188843}, {"type": "node", "id": 4339537164, "lat": 39.7426044, "lon": 20.0187538}, {"type": "node", "id": 4339537165, "lat": 39.7426484, "lon": 20.0187702}, {"type": "node", "id": 4339537166, "lat": 39.7426198, "lon": 20.0189007}, {"type": "node", "id": 4339590341, "lat": 39.7674976, "lon": 20.0026769}, {"type": "node", "id": 4339590342, "lat": 39.7675162, "lon": 20.0028379}, {"type": "node", "id": 4339590343, "lat": 39.7676048, "lon": 20.0028218}, {"type": "node", "id": 4339590344, "lat": 39.7675821, "lon": 20.0026582}, {"type": "node", "id": 4339590378, "lat": 39.7689965, "lon": 20.0017824}, {"type": "node", "id": 4339590379, "lat": 39.7691253, "lon": 20.0018481}, {"type": "node", "id": 4339590380, "lat": 39.7689294, "lon": 20.0020707}, {"type": "node", "id": 4339590381, "lat": 39.7688109, "lon": 20.0019782}, {"type": "node", "id": 4340258778, "lat": 39.7687444, "lon": 20.0023442}, {"type": "node", "id": 4340258779, "lat": 39.7686355, "lon": 20.0022164}, {"type": "node", "id": 4340785542, "lat": 39.7703059, "lon": 20.0037071}, {"type": "node", "id": 4340785543, "lat": 39.7703614, "lon": 20.0036333}, {"type": "node", "id": 4340785544, "lat": 39.7703266, "lon": 20.0035891}, {"type": "node", "id": 4340785545, "lat": 39.7702711, "lon": 20.0036629}, {"type": "node", "id": 4340786096, "lat": 39.7688746, "lon": 20.0036705}, {"type": "node", "id": 4340786097, "lat": 39.7689115, "lon": 20.0034929}, {"type": "node", "id": 4340786126, "lat": 39.768212, "lon": 20.0031408}, {"type": "node", "id": 4340786127, "lat": 39.7682814, "lon": 20.0029379}, {"type": "node", "id": 4340786130, "lat": 39.7680836, "lon": 20.0030665}, {"type": "node", "id": 4340786133, "lat": 39.7681252, "lon": 20.002945}, {"type": "node", "id": 4340834156, "lat": 39.7729798, "lon": 19.9993257}, {"type": "node", "id": 4340834157, "lat": 39.7729396, "lon": 19.9993753}, {"type": "node", "id": 4340834158, "lat": 39.7729809, "lon": 19.9996972}, {"type": "node", "id": 4345669221, "lat": 39.7684765, "lon": 20.0023762}, {"type": "node", "id": 4345669224, "lat": 39.7686042, "lon": 20.0025473}, {"type": "node", "id": 4346246789, "lat": 40.0739276, "lon": 20.1391541, "tags": {"amenity": "restaurant", "name": "Odaja"}}, {"type": "node", "id": 4349481533, "lat": 39.7719034, "lon": 20.0042896}, {"type": "node", "id": 4349481534, "lat": 39.7719254, "lon": 20.0045082}, {"type": "node", "id": 4349504859, "lat": 39.7774587, "lon": 20.0138434}, {"type": "node", "id": 4349504860, "lat": 39.7773494, "lon": 20.0139346}, {"type": "node", "id": 4349504861, "lat": 39.777337, "lon": 20.0138943}, {"type": "node", "id": 4349504862, "lat": 39.7773391, "lon": 20.0138434}, {"type": "node", "id": 4349504863, "lat": 39.7773576, "lon": 20.0138058}, {"type": "node", "id": 4349504864, "lat": 39.7773927, "lon": 20.0137817}, {"type": "node", "id": 4349504865, "lat": 39.7774236, "lon": 20.013779}, {"type": "node", "id": 4349504866, "lat": 39.7774483, "lon": 20.0138058}, {"type": "node", "id": 4349533650, "lat": 39.7765362, "lon": 20.0070262}, {"type": "node", "id": 4349533651, "lat": 39.7764211, "lon": 20.0068936}, {"type": "node", "id": 4349533652, "lat": 39.7763323, "lon": 20.0070241}, {"type": "node", "id": 4349533653, "lat": 39.7764474, "lon": 20.0071567}, {"type": "node", "id": 4349646382, "lat": 39.76941, "lon": 20.0005281, "tags": {"amenity": "restaurant", "cuisine": "pizza", "name": "Piceri Oxhaku", "phone": "+355 69 232 6766"}}, {"type": "node", "id": 4349754089, "lat": 39.7899361, "lon": 19.7948486, "tags": {"amenity": "restaurant", "name": "grill room ammoz"}}, {"type": "node", "id": 4357364264, "lat": 39.7186256, "lon": 19.8705692, "tags": {"amenity": "restaurant", "name": "Taverna Riviera"}}, {"type": "node", "id": 4357368100, "lat": 39.7238534, "lon": 19.8968787, "tags": {"amenity": "restaurant", "cuisine": "italian;greek", "name": "igera", "website": "https://igera.gr"}}, {"type": "node", "id": 4357368103, "lat": 39.7236726, "lon": 19.8839635, "tags": {"amenity": "restaurant", "name": "Glyfa Tavern"}}, {"type": "node", "id": 4357368461, "lat": 39.7891473, "lon": 19.9212099, "tags": {"amenity": "restaurant", "name": "Sousouro"}}, {"type": "node", "id": 4357368519, "lat": 39.7910463, "lon": 19.9222651, "tags": {"amenity": "restaurant", "name": "Wave"}}, {"type": "node", "id": 4361574291, "lat": 40.0710963, "lon": 20.1590911, "tags": {"amenity": "restaurant", "internet_access": "wlan", "name": "kristal", "name:en": "kristal"}}, {"type": "node", "id": 4362590364, "lat": 39.7739657, "lon": 20.0024788}, {"type": "node", "id": 4362590365, "lat": 39.7739776, "lon": 20.0025655}, {"type": "node", "id": 4362590366, "lat": 39.7736956, "lon": 20.0026315}, {"type": "node", "id": 4362590367, "lat": 39.7736836, "lon": 20.0025448}, {"type": "node", "id": 4362590368, "lat": 39.7734484, "lon": 20.0029187}, {"type": "node", "id": 4362590369, "lat": 39.7734341, "lon": 20.0028532}, {"type": "node", "id": 4362590370, "lat": 39.7734098, "lon": 20.0028622}, {"type": "node", "id": 4362590371, "lat": 39.7733945, "lon": 20.0027922}, {"type": "node", "id": 4362590372, "lat": 39.7732666, "lon": 20.0028397}, {"type": "node", "id": 4362590373, "lat": 39.7732786, "lon": 20.0028942}, {"type": "node", "id": 4362590374, "lat": 39.7732629, "lon": 20.0029}, {"type": "node", "id": 4362590375, "lat": 39.7732807, "lon": 20.002981}, {"type": "node", "id": 4362590376, "lat": 39.7726749, "lon": 20.0026607}, {"type": "node", "id": 4362590377, "lat": 39.7726811, "lon": 20.0027278}, {"type": "node", "id": 4362590378, "lat": 39.7726358, "lon": 20.0027358}, {"type": "node", "id": 4362590379, "lat": 39.7726337, "lon": 20.0027653}, {"type": "node", "id": 4362590380, "lat": 39.7725512, "lon": 20.0027787}, {"type": "node", "id": 4362590381, "lat": 39.772543, "lon": 20.0026795}, {"type": "node", "id": 4362590382, "lat": 39.7722576, "lon": 20.0022117}, {"type": "node", "id": 4362590383, "lat": 39.7721926, "lon": 20.0020095}, {"type": "node", "id": 4362590384, "lat": 39.7720962, "lon": 20.0020619}, {"type": "node", "id": 4362590385, "lat": 39.7721612, "lon": 20.0022641}, {"type": "node", "id": 4362590496, "lat": 39.7729355, "lon": 20.0002089}, {"type": "node", "id": 4362590497, "lat": 39.7728151, "lon": 20.0001467}, {"type": "node", "id": 4362590498, "lat": 39.7727712, "lon": 20.0002905}, {"type": "node", "id": 4362590500, "lat": 39.772892, "lon": 20.0003525}, {"type": "node", "id": 4362590508, "lat": 39.7723662, "lon": 19.998407}, {"type": "node", "id": 4362590509, "lat": 39.7724218, "lon": 19.9984758}, {"type": "node", "id": 4362590510, "lat": 39.7723888, "lon": 19.9985536}, {"type": "node", "id": 4362590511, "lat": 39.7722981, "lon": 19.9985911}, {"type": "node", "id": 4362590512, "lat": 39.7722632, "lon": 19.998548}, {"type": "node", "id": 4362590513, "lat": 39.7728565, "lon": 19.9989139}, {"type": "node", "id": 4362590514, "lat": 39.7729184, "lon": 19.998977}, {"type": "node", "id": 4362590515, "lat": 39.7728474, "lon": 19.9990949}, {"type": "node", "id": 4362590516, "lat": 39.7727855, "lon": 19.9990318}, {"type": "node", "id": 4362590517, "lat": 39.76966, "lon": 20.0000815}, {"type": "node", "id": 4362590518, "lat": 39.7695786, "lon": 19.9999738}, {"type": "node", "id": 4362590519, "lat": 39.7695531, "lon": 20.0003105}, {"type": "node", "id": 4362590520, "lat": 39.7697212, "lon": 20.0003154}, {"type": "node", "id": 4362590546, "lat": 39.773118, "lon": 19.9972708}, {"type": "node", "id": 4362590547, "lat": 39.7730093, "lon": 19.9972668}, {"type": "node", "id": 4362590548, "lat": 39.7729812, "lon": 19.9975012}, {"type": "node", "id": 4362590549, "lat": 39.7731359, "lon": 19.9975632}, {"type": "node", "id": 4364570137, "lat": 39.7730029, "lon": 19.9981241}, {"type": "node", "id": 4364570138, "lat": 39.7730639, "lon": 19.9981636}, {"type": "node", "id": 4364570139, "lat": 39.7730728, "lon": 19.9981403}, {"type": "node", "id": 4364570140, "lat": 39.7731053, "lon": 19.9981613}, {"type": "node", "id": 4364570141, "lat": 39.7731222, "lon": 19.9981172}, {"type": "node", "id": 4364570142, "lat": 39.7730981, "lon": 19.9981017}, {"type": "node", "id": 4364570143, "lat": 39.7731061, "lon": 19.9980806}, {"type": "node", "id": 4364570144, "lat": 39.773074, "lon": 19.9980598}, {"type": "node", "id": 4364570145, "lat": 39.7730578, "lon": 19.9981022}, {"type": "node", "id": 4364570146, "lat": 39.7730204, "lon": 19.9980781}, {"type": "node", "id": 4364570147, "lat": 39.7726459, "lon": 19.9977758}, {"type": "node", "id": 4364570148, "lat": 39.7725734, "lon": 19.9976462}, {"type": "node", "id": 4364570149, "lat": 39.7724723, "lon": 19.9977419}, {"type": "node", "id": 4364570150, "lat": 39.7725449, "lon": 19.9978715}, {"type": "node", "id": 4375586020, "lat": 39.8773242, "lon": 20.0057631, "tags": {"amenity": "cafe", "name": "Maliq coffee shop"}}, {"type": "node", "id": 4375746290, "lat": 39.8735342, "lon": 20.0105653, "tags": {"addr:postcode": "9701", "amenity": "restaurant", "name": "Bar-Restorant Qesari", "name:en": "Bar-Restaurant Qesari", "name:sq": "bar restorant Qesari"}}, {"type": "node", "id": 4377354981, "lat": 39.7438496, "lon": 19.8374684, "tags": {"amenity": "restaurant", "name": "Oassis", "name:el": "\u03a4\u03b1\u03b2\u03ad\u03c1\u03bd\u03b1 \u038c\u03b1\u03c3\u03b7\u03c2", "name:en": "Taverna Oasis", "name:ru": "\u0422\u0430\u0432\u0435\u0440\u043d\u0430 \u041e\u0430\u0437\u0438\u0441"}}, {"type": "node", "id": 4380844794, "lat": 39.8686303, "lon": 20.0146511, "tags": {"addr:street": "Rruga Butrinti", "amenity": "restaurant", "internet_access": "wlan", "name": "La Petite", "name:en": "La Petite", "opening_hours": "24/7"}}, {"type": "node", "id": 4381291458, "lat": 39.9334646, "lon": 19.977106}, {"type": "node", "id": 4381291462, "lat": 39.9335239, "lon": 19.9770451}, {"type": "node", "id": 4381291465, "lat": 39.9335479, "lon": 19.9772441}, {"type": "node", "id": 4381291469, "lat": 39.9336072, "lon": 19.9771833}, {"type": "node", "id": 4382435199, "lat": 39.7729116, "lon": 20.0000503, "tags": {"amenity": "restaurant", "name:en": "Korali"}}, {"type": "node", "id": 4384992696, "lat": 40.0299747, "lon": 19.8699134}, {"type": "node", "id": 4384992698, "lat": 40.0300174, "lon": 19.8699541}, {"type": "node", "id": 4384992699, "lat": 40.0300234, "lon": 19.8698329}, {"type": "node", "id": 4384992701, "lat": 40.0300603, "lon": 19.8698736}, {"type": "node", "id": 4407303568, "lat": 39.9497127, "lon": 20.0968677, "tags": {"amenity": "restaurant", "name": "Bo\u00e7i"}}, {"type": "node", "id": 4407354977, "lat": 39.9595617, "lon": 19.9619465, "tags": {"amenity": "restaurant", "phone": "+355 69 280 8268"}}, {"type": "node", "id": 4410392850, "lat": 39.8080865, "lon": 19.8373943, "tags": {"amenity": "restaurant", "name": "Zephyros"}}, {"type": "node", "id": 4412044292, "lat": 39.7178068, "lon": 19.8447625, "tags": {"amenity": "restaurant", "email": "agnadio1994@gmail.com", "name": "Spartilas - Corfu", "name:el": "Spartilas - Corfu", "name:pl": "Agnadio Restaurant"}}, {"type": "node", "id": 4426125091, "lat": 39.7902117, "lon": 19.792319, "tags": {"amenity": "cafe", "internet_access": "wlan", "name:en": "Boathouse"}}, {"type": "node", "id": 4429210413, "lat": 39.7194568, "lon": 19.8702494}, {"type": "node", "id": 4429210414, "lat": 39.7194607, "lon": 19.87036}, {"type": "node", "id": 4429210415, "lat": 39.7194739, "lon": 19.8711764}, {"type": "node", "id": 4429210416, "lat": 39.7194759, "lon": 19.8712327}, {"type": "node", "id": 4429210417, "lat": 39.7194975, "lon": 19.8703579}, {"type": "node", "id": 4429210418, "lat": 39.7194997, "lon": 19.8704217}, {"type": "node", "id": 4429210419, "lat": 39.719502, "lon": 19.870488}, {"type": "node", "id": 4429210420, "lat": 39.7194878, "lon": 19.8707472}, {"type": "node", "id": 4429210423, "lat": 39.7195069, "lon": 19.8708601}, {"type": "node", "id": 4429210424, "lat": 39.7195234, "lon": 19.8710356}, {"type": "node", "id": 4429210425, "lat": 39.7195097, "lon": 19.8707399}, {"type": "node", "id": 4429210426, "lat": 39.7195129, "lon": 19.8707595}, {"type": "node", "id": 4429210427, "lat": 39.7195316, "lon": 19.8709122}, {"type": "node", "id": 4429210428, "lat": 39.719533, "lon": 19.8704862}, {"type": "node", "id": 4429210429, "lat": 39.7195361, "lon": 19.8705764}, {"type": "node", "id": 4429210430, "lat": 39.7195287, "lon": 19.870755}, {"type": "node", "id": 4429210431, "lat": 39.7195568, "lon": 19.8705752}, {"type": "node", "id": 4429210433, "lat": 39.7195447, "lon": 19.8708493}, {"type": "node", "id": 4429210434, "lat": 39.7195647, "lon": 19.8710477}, {"type": "node", "id": 4429210435, "lat": 39.7195648, "lon": 19.8702431}, {"type": "node", "id": 4429210436, "lat": 39.7195712, "lon": 19.8704259}, {"type": "node", "id": 4429210437, "lat": 39.7195733, "lon": 19.8704258}, {"type": "node", "id": 4429210438, "lat": 39.7195739, "lon": 19.8709203}, {"type": "node", "id": 4429210439, "lat": 39.719575, "lon": 19.87123}, {"type": "node", "id": 4429210440, "lat": 39.7195784, "lon": 19.8705739}, {"type": "node", "id": 4429210442, "lat": 39.7196593, "lon": 19.8708596}, {"type": "node", "id": 4429210444, "lat": 39.7196634, "lon": 19.87059}, {"type": "node", "id": 4429210446, "lat": 39.7196611, "lon": 19.8710673}, {"type": "node", "id": 4429210447, "lat": 39.7196714, "lon": 19.8711786}, {"type": "node", "id": 4429210448, "lat": 39.7196724, "lon": 19.8709681}, {"type": "node", "id": 4429210449, "lat": 39.7196794, "lon": 19.8710409}, {"type": "node", "id": 4429210450, "lat": 39.7196817, "lon": 19.8710646}, {"type": "node", "id": 4429210451, "lat": 39.719723, "lon": 19.8709667}, {"type": "node", "id": 4429210452, "lat": 39.7197405, "lon": 19.8711679}, {"type": "node", "id": 4429210455, "lat": 39.7198625, "lon": 19.87059}, {"type": "node", "id": 4429210456, "lat": 39.7198625, "lon": 19.8706386}, {"type": "node", "id": 4429210457, "lat": 39.7198625, "lon": 19.870811}, {"type": "node", "id": 4429210458, "lat": 39.7198625, "lon": 19.8708408}, {"type": "node", "id": 4489582080, "lat": 40.0737158, "lon": 20.1372783, "tags": {"amenity": "restaurant", "name": "Kuka", "wheelchair": "limited", "wheelchair:description": "Outside table area is accessible"}}, {"type": "node", "id": 4489582081, "lat": 40.0748941, "lon": 20.1386474, "tags": {"amenity": "restaurant", "name": "Rrapi", "outdoor_seating": "yes"}}, {"type": "node", "id": 4489582082, "lat": 40.074586, "lon": 20.1386918, "tags": {"amenity": "restaurant", "name": "105", "outdoor_seating": "yes"}}, {"type": "node", "id": 4489583119, "lat": 40.0733973, "lon": 20.1389185, "tags": {"amenity": "cafe"}}, {"type": "node", "id": 4489583294, "lat": 40.0737339, "lon": 20.138097, "tags": {"amenity": "restaurant"}}, {"type": "node", "id": 4497864390, "lat": 40.0614642, "lon": 19.8577099, "tags": {"amenity": "cafe", "cuisine": "balkan;breakfast;coffee_shop", "name": "Bar Kafe Riviera Prodime Zgare", "name:en": "Bar Cafe Riviera", "name:sq": "Bar Kafe Riviera Prodime Zgare"}}, {"type": "node", "id": 4629551916, "lat": 40.078518, "lon": 20.1374526}, {"type": "node", "id": 4629551917, "lat": 40.0786247, "lon": 20.1374928}, {"type": "node", "id": 4629551918, "lat": 40.0785944, "lon": 20.1376303}, {"type": "node", "id": 4629551919, "lat": 40.0784877, "lon": 20.1375901}, {"type": "node", "id": 4708153595, "lat": 39.787024, "lon": 19.7891023, "tags": {"addr:postcode": "49081", "amenity": "restaurant", "cuisine": "italian_pizza", "name": "\u03a0\u03c5\u03be\u03af\u03b4\u03b1", "name:el": "\u03a0\u03c5\u03be\u03af\u03b4\u03b1", "name:en": "Pixida", "opening_hours": "Mo-Su 16:00-23:30", "phone": "2663 063778"}}, {"type": "node", "id": 4710074197, "lat": 40.0619243, "lon": 19.8577348, "tags": {"amenity": "restaurant", "name": "Ujvara e Borshit Restaurant", "name:sq": "Ujvara e Borshit Restaurant", "phone": "+355 69 543 2505"}}, {"type": "node", "id": 4713980589, "lat": 39.8736596, "lon": 20.0110246, "tags": {"amenity": "restaurant", "name": "Taverna Tsaka", "name:sq": "Taverna Tsaka", "phone": "0035585224766"}}, {"type": "node", "id": 4857743022, "lat": 39.8730183, "lon": 20.0050008, "tags": {"amenity": "restaurant", "internet_access": "wlan", "name": "Restaurant Eagle's Wing", "name:sq": "Restaurant Eagle's Wing"}}, {"type": "node", "id": 4895660422, "lat": 40.0306825, "lon": 20.2637633, "tags": {"amenity": "cafe", "name": "Cafe under an ancestral plane tree", "name:en": "Cafe under an ancestral plane tree", "name:fr": "Caf\u00e9 sous le platane ancestral"}}, {"type": "node", "id": 4911483321, "lat": 39.8730109, "lon": 20.0130663, "tags": {"addr:street": "Bulevardi Naim Frash\u00ebri", "amenity": "restaurant", "cuisine": "balkan;steak_house;seafood;regional;pizza;greek;fish", "email": "bi_lo_007@hotmail.com", "internet_access": "wlan", "name": "Restaurant Gostivari Saranda", "name:en": "Restaurant Gostivari Saranda Alb", "opening_hours": "Mo-Su 07:00-24:00", "operator": "Xhevat Ismaili", "phone": "+355696718389", "website": "http://www.restaurant/gostivari/fb"}}, {"type": "node", "id": 4915395222, "lat": 40.0740924, "lon": 20.1385996, "tags": {"amenity": "restaurant", "cuisine": "regional", "name": "Kurveleshi", "name:sq": "Kurveleshi"}}, {"type": "node", "id": 4916681021, "lat": 39.66596, "lon": 19.8536686, "tags": {"amenity": "restaurant", "name": "\u0391\u03c0\u03cc\u03b2\u03c1\u03b1\u03b4\u03bf", "name:el": "\u0391\u03c0\u03cc\u03b2\u03c1\u03b1\u03b4\u03bf", "name:en": "Apovrado", "outdoor_seating": "yes"}}, {"type": "node", "id": 4927350021, "lat": 39.8623979, "lon": 20.0189333, "tags": {"addr:street": "Rruga Butrinti", "amenity": "restaurant", "cuisine": "fish;italian_pizza;breakfast;pizza", "email": "spiroslag.10@hotmail.com", "internet_access": "wlan", "name": "LaYo's", "name:sq": "LaYo's", "phone": "0695308299"}}, {"type": "node", "id": 4956157224, "lat": 39.8622682, "lon": 20.0179451, "tags": {"amenity": "restaurant", "cuisine": "mediterranean;regional;seafood;local", "internet_access": "wlan", "name:en": "Taverna Beqo"}}, {"type": "node", "id": 4969289880, "lat": 40.0524112, "lon": 19.8328951, "tags": {"amenity": "restaurant", "leisure": "resort", "name": "Odhisea", "phone": "+355 69 297 3173"}}, {"type": "node", "id": 4969289887, "lat": 40.0524014, "lon": 19.8323559, "tags": {"addr:postcode": "9425", "addr:street": "SH 8", "amenity": "restaurant", "amenity_1": "mini-market", "cuisine": "balkan", "email": "napolon.complex@gmail.com", "internet_access": "wlan", "leisure": "resort", "name": "Kshira Oasis", "phone": "+39 347 042 8210"}}, {"type": "node", "id": 4970808004, "lat": 39.6949352, "lon": 19.8359442, "tags": {"amenity": "restaurant", "name": "Squirrel"}}, {"type": "node", "id": 4970808005, "lat": 39.7059492, "lon": 19.8434208, "tags": {"amenity": "restaurant", "name": "Moby Dick"}}, {"type": "node", "id": 4970808006, "lat": 39.6767953, "lon": 19.8393778, "tags": {"amenity": "restaurant", "name": "Alexandros"}}, {"type": "node", "id": 4970808555, "lat": 39.6769101, "lon": 19.8393472, "tags": {"amenity": "restaurant", "name": "Vasilis"}}, {"type": "node", "id": 4970808556, "lat": 39.6781687, "lon": 19.8386768, "tags": {"amenity": "restaurant", "name": "Castello"}}, {"type": "node", "id": 4970808562, "lat": 39.6895189, "lon": 19.8286198, "tags": {"amenity": "restaurant", "name": "60 needles", "website": "https://m.facebook.com/pages/60-Needles/834014999948365"}}, {"type": "node", "id": 4970808563, "lat": 39.6824818, "lon": 19.8374956, "tags": {"amenity": "cafe", "brand": "Leonidas", "brand:wikidata": "Q80335", "cuisine": "greek", "name": "Leonidas", "shop": "chocolate"}}, {"type": "node", "id": 4970809034, "lat": 39.6818542, "lon": 19.8376784, "tags": {"amenity": "restaurant", "check_date": "2024-06-18", "name": "Mythos"}}, {"type": "node", "id": 4970809036, "lat": 39.7902327, "lon": 19.9219648, "tags": {"amenity": "restaurant", "name": "The old school"}}, {"type": "node", "id": 4977743907, "lat": 39.6652097, "lon": 19.8504742}, {"type": "node", "id": 4977743909, "lat": 39.6653853, "lon": 19.8502813}, {"type": "node", "id": 4977743910, "lat": 39.665121, "lon": 19.8504346}, {"type": "node", "id": 4977743911, "lat": 39.6651317, "lon": 19.8501887}, {"type": "node", "id": 4977743912, "lat": 39.6652743, "lon": 19.8504965}, {"type": "node", "id": 4977743914, "lat": 39.6652612, "lon": 19.8503357}, {"type": "node", "id": 4977743915, "lat": 39.6653788, "lon": 19.8504461}, {"type": "node", "id": 4977743916, "lat": 39.6653098, "lon": 19.8505364}, {"type": "node", "id": 4977743917, "lat": 39.6653286, "lon": 19.8503696}, {"type": "node", "id": 4977743918, "lat": 39.6653658, "lon": 19.8504598}, {"type": "node", "id": 4977743919, "lat": 39.6652854, "lon": 19.8502342}, {"type": "node", "id": 4977743920, "lat": 39.6651544, "lon": 19.8507263}, {"type": "node", "id": 4977748421, "lat": 39.6652576, "lon": 19.850293}, {"type": "node", "id": 4977748422, "lat": 39.6654361, "lon": 19.8503675}, {"type": "node", "id": 4977748423, "lat": 39.665169, "lon": 19.8502534}, {"type": "node", "id": 4977748424, "lat": 39.6652785, "lon": 19.8505933}, {"type": "node", "id": 4977748425, "lat": 39.6651852, "lon": 19.8500919}, {"type": "node", "id": 4977748426, "lat": 39.6653323, "lon": 19.8504097}, {"type": "node", "id": 4977748427, "lat": 39.6650938, "lon": 19.8506308}, {"type": "node", "id": 4977748428, "lat": 39.6651816, "lon": 19.8502352}, {"type": "node", "id": 4977748429, "lat": 39.665235, "lon": 19.8501384}, {"type": "node", "id": 4977748430, "lat": 39.6652179, "lon": 19.8504979}, {"type": "node", "id": 4984731224, "lat": 39.7885787, "lon": 20.0113545, "tags": {"addr:postcode": "9706", "addr:street": "Rr. Sarand\u00eb-Butrint", "air_conditioning": "no", "amenity": "restaurant", "check_date": "2024-08-17", "cuisine": "seafood", "email": "themusselhouse.al@gmail.com", "name": "The Mussel House Restaurant", "opening_hours": "24/7", "outdoor_seating": "yes", "phone": "00355694412617"}}, {"type": "node", "id": 4986475124, "lat": 39.815411, "lon": 19.8630042, "tags": {"amenity": "restaurant", "cuisine": "greek", "name": "Taverna Hellas"}}, {"type": "node", "id": 4986725621, "lat": 39.8776327, "lon": 20.00377, "tags": {"amenity": "restaurant", "cuisine": "pizza", "name:en": "Savos"}}, {"type": "node", "id": 4987145622, "lat": 39.8732506, "lon": 20.0057821, "tags": {"amenity": "restaurant", "name": "Hotel Klironomi", "name:en": "Klironomi"}}, {"type": "node", "id": 4993347922, "lat": 39.7885449, "lon": 19.9206223, "tags": {"amenity": "restaurant", "name:en": "Bolero"}}, {"type": "node", "id": 4993361121, "lat": 39.7903383, "lon": 19.921813, "tags": {"amenity": "restaurant", "name:en": "Chill & Grill"}}, {"type": "node", "id": 5001139321, "lat": 39.7877412, "lon": 19.9208457, "tags": {"amenity": "restaurant", "name": "Taverna Levanda", "name:en": "Lavender"}}, {"type": "node", "id": 5020287021, "lat": 39.8723388, "lon": 20.0024164, "tags": {"amenity": "cafe", "internet_access": "wlan", "name": "like ...more than a Creperie", "name:en": "like ... more than a Creperie", "opening_hours": "24/7"}}, {"type": "node", "id": 5027722622, "lat": 39.7900844, "lon": 19.8115674, "tags": {"addr:city": "Acharavi", "addr:postcode": "49081", "amenity": "restaurant", "cuisine": "greek", "name": "\u0391\u03bb\u03b5\u03b3\u03c1\u03af\u03b1", "name:de": "Alegria", "name:el": "\u0391\u03bb\u03b5\u03b3\u03c1\u03af\u03b1", "name:en": "Alegria", "opening_hours": "Mo-Su 00:00-01:00,18:00-24:00; Fr 18:00-24:00", "outdoor_seating": "yes", "phone": "+30 2663 064844"}}, {"type": "node", "id": 5032182225, "lat": 39.7681656, "lon": 19.999416, "tags": {"amenity": "cafe", "name": "Palma", "name:sq": "Palma"}}, {"type": "node", "id": 5033045637, "lat": 39.7715512, "lon": 20.002624, "tags": {"amenity": "cafe", "name:en": "Afrimi"}}, {"type": "node", "id": 5037362022, "lat": 39.8019856, "lon": 19.8350082, "tags": {"amenity": "cafe", "name": "Mythos Taverna", "name:el": "Mythos Taverna"}}, {"type": "node", "id": 5038858521, "lat": 39.7727646, "lon": 20.0004757, "tags": {"amenity": "cafe", "name:en": "3 Gjiret"}}, {"type": "node", "id": 5045262342, "lat": 39.726299, "lon": 19.9050862}, {"type": "node", "id": 5045262343, "lat": 39.7262382, "lon": 19.9051586}, {"type": "node", "id": 5045262344, "lat": 39.7261742, "lon": 19.9050513}, {"type": "node", "id": 5045262345, "lat": 39.7261763, "lon": 19.9049091}, {"type": "node", "id": 5045262346, "lat": 39.7262392, "lon": 19.9048206}, {"type": "node", "id": 5045262347, "lat": 39.7263784, "lon": 19.9050567}, {"type": "node", "id": 5046875285, "lat": 40.0580164, "lon": 19.8216573, "tags": {"amenity": "restaurant", "name": "Veranda"}}, {"type": "node", "id": 5051761121, "lat": 39.7718347, "lon": 20.002449, "tags": {"amenity": "restaurant", "name:en": "Afrimi"}}, {"type": "node", "id": 5061840347, "lat": 39.8076391, "lon": 19.8342412}, {"type": "node", "id": 5061840348, "lat": 39.8077365, "lon": 19.8342029}, {"type": "node", "id": 5061840349, "lat": 39.8077695, "lon": 19.8343549}, {"type": "node", "id": 5061840350, "lat": 39.8076732, "lon": 19.8343947}, {"type": "node", "id": 5088839921, "lat": 40.0745611, "lon": 20.1390847, "tags": {"amenity": "restaurant", "cuisine": "regional", "name": "A. Muco", "name:sq": "A. Muco"}}, {"type": "node", "id": 5102976621, "lat": 39.6507007, "lon": 19.8562461, "tags": {"amenity": "restaurant", "cuisine": "fish", "name": "Roula"}}, {"type": "node", "id": 5111290722, "lat": 39.9148438, "lon": 20.1826352, "tags": {"amenity": "restaurant"}}, {"type": "node", "id": 5111290723, "lat": 39.933368, "lon": 20.2064124, "tags": {"amenity": "restaurant"}}, {"type": "node", "id": 5122035321, "lat": 39.6549312, "lon": 19.8383931, "tags": {"amenity": "restaurant", "name:en": "Veranda"}}, {"type": "node", "id": 5135973721, "lat": 39.8155956, "lon": 19.8663643, "tags": {"addr:city": "Corfu", "addr:postcode": "49081", "addr:street": "Agios Spyridon, Perithia", "addr:unit": "1", "amenity": "restaurant", "cuisine": "greek", "email": "menelaos1991@gmail.com", "name": "Ammus Restaurant", "payment:credit_cards": "yes", "smoking": "separated", "takeaway": "yes", "website": "https://www.facebook.com/ammuscorfu/", "wheelchair": "yes"}}, {"type": "node", "id": 5149167221, "lat": 39.8748891, "lon": 20.007822, "tags": {"amenity": "restaurant", "cuisine": "balkan", "name": "Te Bequa"}}, {"type": "node", "id": 5149168022, "lat": 40.0619731, "lon": 19.8573146, "tags": {"amenity": "cafe", "internet_access": "wlan", "name": "Violeta", "operator": "Marim Porosi", "phone": "0692727050"}}, {"type": "node", "id": 5239578152, "lat": 40.0348922, "lon": 20.180062}, {"type": "node", "id": 5239578153, "lat": 40.0348203, "lon": 20.1801183}, {"type": "node", "id": 5239578154, "lat": 40.0347841, "lon": 20.1800394}, {"type": "node", "id": 5239578155, "lat": 40.034856, "lon": 20.1799831}, {"type": "node", "id": 5366399526, "lat": 39.6703888, "lon": 19.818365, "tags": {"amenity": "restaurant", "name:en": "Lucciola"}}, {"type": "node", "id": 5475331422, "lat": 39.9970705, "lon": 20.2151188, "tags": {"amenity": "cafe", "cuisine": "greek;grill;chicken;local;friture;coffee_shop", "internet_access": "wlan", "name": "Xhumba", "name:el": "\u03a4\u03b6\u03bf\u03cd\u03bc\u03c0\u03b1\u03c2", "opening_hours": "Mo-Su 06:00-23:00"}}, {"type": "node", "id": 5516817131, "lat": 39.996768, "lon": 20.2147734, "tags": {"amenity": "cafe", "cuisine": "burger;grill;mediterranean;local;friture", "internet_access": "wlan", "name": "Beshiri", "name:el": "\u039c\u03c0\u03b5\u03c3\u03af\u03c1\u03b7", "opening_hours": "Mo-Su 06:00-23:00"}}, {"type": "node", "id": 5557952297, "lat": 39.8152694, "lon": 19.8657497}, {"type": "node", "id": 5557952298, "lat": 39.8153441, "lon": 19.8657364}, {"type": "node", "id": 5557952299, "lat": 39.8155045, "lon": 19.8659002}, {"type": "node", "id": 5557952300, "lat": 39.8154047, "lon": 19.8659048}, {"type": "node", "id": 5557952301, "lat": 39.815402, "lon": 19.8657244}, {"type": "node", "id": 5557956345, "lat": 39.8156694, "lon": 19.8659645}, {"type": "node", "id": 5557956346, "lat": 39.8156075, "lon": 19.8658197}, {"type": "node", "id": 5557956347, "lat": 39.8156673, "lon": 19.8657821}, {"type": "node", "id": 5557956348, "lat": 39.8157229, "lon": 19.8659323}, {"type": "node", "id": 5578029329, "lat": 39.7947393, "lon": 19.8099326, "tags": {"amenity": "restaurant", "name": "Medusa"}}, {"type": "node", "id": 5578029330, "lat": 39.7903557, "lon": 19.811542, "tags": {"amenity": "restaurant", "name": "Ichnilatis", "name:el": "\u0399\u03c7\u03bd\u03b1\u03bb\u03ac\u03c4\u03b7\u03c2"}}, {"type": "node", "id": 5591947421, "lat": 40.065034, "lon": 20.167204, "tags": {"amenity": "cafe"}}, {"type": "node", "id": 5591947522, "lat": 40.0618895, "lon": 20.1731733, "tags": {"amenity": "cafe"}}, {"type": "node", "id": 5591947524, "lat": 40.0133195, "lon": 20.1994776, "tags": {"amenity": "cafe", "name": "Sweet Shop Kalimera"}}, {"type": "node", "id": 5592000329, "lat": 39.9113164, "lon": 20.1028308, "tags": {"amenity": "restaurant", "name": "Shena"}}, {"type": "node", "id": 5592030821, "lat": 39.9173676, "lon": 20.1353233, "tags": {"amenity": "restaurant"}}, {"type": "node", "id": 5592034022, "lat": 39.9092497, "lon": 20.0922024, "tags": {"amenity": "cafe"}}, {"type": "node", "id": 5592038529, "lat": 39.9008674, "lon": 20.0847552, "tags": {"amenity": "cafe"}}, {"type": "node", "id": 5592038530, "lat": 39.8783698, "lon": 20.0326785, "tags": {"amenity": "cafe"}}, {"type": "node", "id": 5592075021, "lat": 39.8744734, "lon": 20.0070104, "tags": {"amenity": "cafe", "name": "SOS Bas"}}, {"type": "node", "id": 5592112024, "lat": 39.8718952, "lon": 20.0136757, "tags": {"amenity": "restaurant", "name": "Paradise"}}, {"type": "node", "id": 5592126421, "lat": 39.8703798, "lon": 20.0144836, "tags": {"amenity": "restaurant", "name": "Strora", "phone": "+355699535945"}}, {"type": "node", "id": 5592126521, "lat": 39.8673765, "lon": 20.015858, "tags": {"amenity": "restaurant", "name": "Tanis"}}, {"type": "node", "id": 5592126621, "lat": 39.8656986, "lon": 20.0161631, "tags": {"amenity": "restaurant", "name": "Caf\u00e9 Italian"}}, {"type": "node", "id": 5592126721, "lat": 39.8614083, "lon": 20.0199034, "tags": {"amenity": "restaurant", "name": "Aragosta"}}, {"type": "node", "id": 5593793123, "lat": 39.878408, "lon": 20.0029695, "tags": {"amenity": "cafe", "name": "Coffee House"}}, {"type": "node", "id": 5593793126, "lat": 39.8700921, "lon": 20.0189745, "tags": {"amenity": "cafe"}}, {"type": "node", "id": 5593793127, "lat": 39.8687554, "lon": 20.0207715, "tags": {"amenity": "cafe", "name": "Ostria"}}, {"type": "node", "id": 5593815525, "lat": 39.9317069, "lon": 20.0592815, "tags": {"amenity": "cafe"}}, {"type": "node", "id": 5593829622, "lat": 39.9386828, "lon": 20.061824, "tags": {"amenity": "cafe"}}, {"type": "node", "id": 5593892023, "lat": 39.9489321, "lon": 20.0970264, "tags": {"amenity": "cafe"}}, {"type": "node", "id": 5593892921, "lat": 39.9496828, "lon": 20.0975342, "tags": {"amenity": "cafe"}}, {"type": "node", "id": 5594008421, "lat": 39.9213215, "lon": 20.0403716, "tags": {"air_conditioning": "yes", "amenity": "cafe", "check_date": "2024-08-31", "internet_access": "wlan", "name": "Cafe Bosi", "outdoor_seating": "yes", "smoking": "outside", "takeaway": "yes", "toilets": "yes", "toilets:access": "customers", "toilets:wheelchair": "no"}}, {"type": "node", "id": 5596533425, "lat": 40.0740714, "lon": 20.1388851, "tags": {"amenity": "cafe", "name": "Byrektore Dauti"}}, {"type": "node", "id": 5596533436, "lat": 40.0743492, "lon": 20.1390558, "tags": {"amenity": "cafe"}}, {"type": "node", "id": 5596533437, "lat": 40.0744386, "lon": 20.1390285, "tags": {"amenity": "restaurant", "name": "Kashahu"}}, {"type": "node", "id": 5596533623, "lat": 40.0742833, "lon": 20.1388464, "tags": {"amenity": "restaurant", "contact:facebook": "https://facebook.com/Restorant-GJOCA-173460609500706", "name": "Gjoca", "opening_hours": "Mo-Su 10:00-22:00"}}, {"type": "node", "id": 5596534123, "lat": 40.0738858, "lon": 20.1390223, "tags": {"amenity": "cafe", "name": "Bar Grey stone Room"}}, {"type": "node", "id": 5597818921, "lat": 40.0847976, "lon": 20.1442324, "tags": {"amenity": "cafe"}}, {"type": "node", "id": 5597825822, "lat": 40.0840134, "lon": 20.1438138, "tags": {"amenity": "cafe"}}, {"type": "node", "id": 5607474927, "lat": 39.7207597, "lon": 19.8410959, "tags": {"amenity": "cafe", "name": "\u03a4\u039f \u039c\u039f\u03a5\u03a1\u0395\u03a4\u039f", "name:el": "\u03a4\u039f \u039c\u039f\u03a5\u03a1\u0395\u03a4\u039f", "name:en": "The Moureto"}}, {"type": "node", "id": 5613325322, "lat": 39.7177689, "lon": 20.0742438, "tags": {"amenity": "restaurant", "name:fr": "Todi"}}, {"type": "node", "id": 5613329721, "lat": 40.0797194, "lon": 20.1382082, "tags": {"amenity": "cafe"}}, {"type": "node", "id": 5619242621, "lat": 39.7548796, "lon": 19.9428274, "tags": {"amenity": "restaurant", "name": "\u03a4\u03b1\u03b2\u03ad\u03c1\u03bd\u03b1 \u039a\u03b5\u03c1\u03b1\u03c3\u03b9\u03ac", "name:el": "\u03a4\u03b1\u03b2\u03ad\u03c1\u03bd\u03b1 \u039a\u03b5\u03c1\u03b1\u03c3\u03b9\u03ac", "name:en": "KERASIA TAVERNA"}}, {"type": "node", "id": 5625896526, "lat": 40.0798098, "lon": 20.1382435, "tags": {"amenity": "restaurant", "cuisine": "regional", "name": "Taverna Laberia", "opening_hours": "Mo-Su 08:00-23:30", "outdoor_seating": "yes", "phone": "+355692454522"}}, {"type": "node", "id": 5625897022, "lat": 40.08083, "lon": 20.1365407, "tags": {"amenity": "cafe", "internet_access": "wlan", "name": "Imago", "opening_hours": "Mo-Su 07:30-00:00"}}, {"type": "node", "id": 5628867924, "lat": 39.6661538, "lon": 19.8435475, "tags": {"amenity": "restaurant", "cuisine": "pizza;barbecue", "int_name": "Taverna Thomas - Kommeno", "name": "\u03a4\u03b1\u03b2\u03ad\u03c1\u03bd\u03b1 \u0398\u03c9\u03bc\u03ac\u03c2", "name:el": "\u03a4\u03b1\u03b2\u03ad\u03c1\u03bd\u03b1 \u0398\u03c9\u03bc\u03ac\u03c2"}}, {"type": "node", "id": 5630527822, "lat": 39.7077546, "lon": 19.795531, "tags": {"amenity": "cafe", "name:en": "Crescendo"}}, {"type": "node", "id": 5638380745, "lat": 39.666229, "lon": 19.8526456, "tags": {"amenity": "restaurant", "cuisine": "international", "name": "Taverna-Bar Sea View", "outdoor_seating": "yes"}}, {"type": "node", "id": 5638380749, "lat": 39.6669743, "lon": 19.8432706, "tags": {"amenity": "cafe"}}, {"type": "node", "id": 5638380967, "lat": 39.6672582, "lon": 19.8514339, "tags": {"amenity": "restaurant", "cuisine": "crepe", "outdoor_seating": "yes"}}, {"type": "node", "id": 5638381325, "lat": 39.6635097, "lon": 19.8436072, "tags": {"amenity": "restaurant", "cuisine": "greek", "name": "Taverna Greca", "opening_hours": "Tu-Su 19:00-00:30", "payment:credit_cards": "yes", "payment:debit_cards": "yes"}}, {"type": "node", "id": 5638381335, "lat": 39.6623865, "lon": 19.843284, "tags": {"amenity": "cafe", "name": "CAF\u00e9 M\u00e9", "outdoor_seating": "yes", "takeaway": "yes", "wheelchair": "yes"}}, {"type": "node", "id": 5638381340, "lat": 39.6642417, "lon": 19.8442993, "tags": {"amenity": "restaurant", "cuisine": "greek", "name": "Taverna Thomas"}}, {"type": "node", "id": 5642686990, "lat": 39.7150109, "lon": 19.7924555, "tags": {"amenity": "restaurant", "cuisine": "greek", "name": "Taverna Cafe To Kapilio", "outdoor_seating": "yes"}}, {"type": "node", "id": 5683102925, "lat": 39.8709117, "lon": 20.0024767, "tags": {"addr:housenumber": "14", "addr:street": "Rruga Mitat Hoxha", "amenity": "restaurant", "cuisine": "fish;seafood", "internet_access": "wlan", "name": "Lula", "opening_hours": "Mo-Su 07:00-00:00"}}, {"type": "node", "id": 5731012322, "lat": 40.0069733, "lon": 19.8897414, "tags": {"amenity": "restaurant", "name": "Mema", "opening_hours": "\"beach bar only open in summer\""}}, {"type": "node", "id": 5743056522, "lat": 39.9858158, "lon": 19.9035458, "tags": {"amenity": "restaurant", "name": "The old Anchor"}}, {"type": "node", "id": 5746987535, "lat": 39.7906784, "lon": 19.7889257, "tags": {"amenity": "restaurant", "description": "Restaurant, Taverna", "name": "Dolphin Restaurant"}}, {"type": "node", "id": 5760772613, "lat": 39.7991264, "lon": 19.8188934}, {"type": "node", "id": 5760772614, "lat": 39.7993644, "lon": 19.8192635}, {"type": "node", "id": 5760772615, "lat": 39.7994489, "lon": 19.819175}, {"type": "node", "id": 5760772616, "lat": 39.7994242, "lon": 19.8191348}, {"type": "node", "id": 5760772617, "lat": 39.799453, "lon": 19.8191039}, {"type": "node", "id": 5760772618, "lat": 39.7993046, "lon": 19.8188652}, {"type": "node", "id": 5760772619, "lat": 39.7992439, "lon": 19.8187646}, {"type": "node", "id": 5780311553, "lat": 39.8529274, "lon": 20.0217673, "tags": {"amenity": "restaurant", "cuisine": "mediterranean;regional;seafood;local", "internet_access": "wlan", "name:en": "Shpella", "phone": "0682301140"}}, {"type": "node", "id": 5782771454, "lat": 39.8735928, "lon": 20.0122969, "tags": {"addr:street": "Rruga Sk\u00ebnderbeu", "amenity": "restaurant", "cuisine": "mediterranean", "email": "hasaniemanuel@gmail.com", "internet_access": "wlan", "name": "Haxhi", "name:en": "At Haxhi", "name:sq": "Tek Haxhi", "opening_hours": "Mo-Su 12:00-00:00", "operator": "Emanuel Hasani", "phone": "+355696638919", "website": "https://m.facebook.com/RestaurantHaxhi/"}}, {"type": "node", "id": 5785894453, "lat": 39.774069, "lon": 19.8459498, "tags": {"amenity": "restaurant", "cuisine": "barbecue;chicken;buschenschank;grill;balkan", "internet_access": "wlan", "name": "Nefeli", "name:el": "Nefelh", "phone": "2663064743"}}, {"type": "node", "id": 5785894553, "lat": 39.7892792, "lon": 19.7885308, "tags": {"amenity": "restaurant", "cuisine": "greek;seafood;barbecue;fish;fish_and_chips;grill", "diet:vegetarian": "yes", "internet_access": "wlan", "name": "Roda Park", "name:ru": "\u0420\u043e\u0434\u0430 \u041f\u0430\u0440\u043a", "outdoor_seating": "yes"}}, {"type": "node", "id": 5785894853, "lat": 39.7894157, "lon": 19.7886021, "tags": {"amenity": "restaurant", "contact:facebook": "NikosFamilyRestaurant", "contact:instagram": "nikosfamilyrestaurant", "cuisine": "greek;grill;seafood", "email": "nikos.family@hotmail.com", "internet_access": "wlan", "name": "Nikos Family Restaurant", "phone": "+30 26630-63434", "website": "https://nikosfamily.wixsite.com/nikosfamily"}}, {"type": "node", "id": 5785962153, "lat": 39.7888471, "lon": 19.7879594, "tags": {"addr:city": "\u03a1\u03cc\u03b4\u03b1", "addr:postcode": "49081", "amenity": "restaurant", "cuisine": "indian", "diet:gluten_free": "yes", "diet:vegan": "yes", "diet:vegetarian": "yes", "name": "Red Chili", "opening_hours": "14:00-24:00; Dec 05-Jan 31 off", "phone": "+302663063669", "website": "https://redchilliroda.com"}}, {"type": "node", "id": 5797893253, "lat": 39.7916622, "lon": 19.9223807, "tags": {"amenity": "restaurant", "name:en": "Kima Restaurant"}}, {"type": "node", "id": 5814263015, "lat": 40.0459695, "lon": 19.8512234, "tags": {"amenity": "restaurant", "name": "Luna Mare"}}, {"type": "node", "id": 5814263016, "lat": 40.0464951, "lon": 19.8499391, "tags": {"amenity": "restaurant", "name": "Solymar"}}, {"type": "node", "id": 5814263017, "lat": 40.047386, "lon": 19.8487027, "tags": {"amenity": "restaurant", "name": "Pizzeria Bar SunSet"}}, {"type": "node", "id": 5814263018, "lat": 40.0475543, "lon": 19.8474512, "tags": {"amenity": "restaurant", "name": "Bar Cafe Restaurant New Paradise on the beach"}}, {"type": "node", "id": 5820507728, "lat": 39.8664656, "lon": 20.0162031, "tags": {"amenity": "restaurant", "name": "Hotel Maestral"}}, {"type": "node", "id": 5820531572, "lat": 39.8665499, "lon": 20.0161807, "tags": {"amenity": "restaurant", "cuisine": "local", "name": "Maestral"}}, {"type": "node", "id": 5833103185, "lat": 40.0527046, "lon": 19.8269403, "tags": {"amenity": "restaurant", "cuisine": "seafood;friture;steak_house;pasta;local", "name": "Andoni Bar Restorant", "name:fr": "Andoni Bar Restaurant"}}, {"type": "node", "id": 5833103886, "lat": 40.0068981, "lon": 19.9046336, "tags": {"amenity": "restaurant", "cuisine": "seafood;barbecue;pasta;local", "name": "Ansi"}}, {"type": "node", "id": 5840056686, "lat": 39.9859057, "lon": 19.9034736, "tags": {"amenity": "restaurant", "cuisine": "italian", "name": "the old anchor"}}, {"type": "node", "id": 5890249673, "lat": 40.0070031, "lon": 19.8897361, "tags": {"amenity": "restaurant", "description": "Seafood", "name": "Mema", "opening_hours": "Mo-Su 07:00-23:59", "phone": "+355695415236"}}, {"type": "node", "id": 5902766025, "lat": 39.7979652, "lon": 19.8165277, "tags": {"amenity": "restaurant", "cuisine": "greek", "name": "Filorian", "name:el": "\u03a6\u03b9\u03bb\u03bf\u03c1\u03b9\u03b1\u03bd", "opening_hours": "Mo-Su 08:00-24:00", "source": "survey", "website": "https://www.filorian.com/"}}, {"type": "node", "id": 5902766027, "lat": 39.7981609, "lon": 19.8168844, "tags": {"amenity": "restaurant", "name": "Neraida", "source": "survey"}}, {"type": "node", "id": 5902766028, "lat": 39.7982599, "lon": 19.8170775, "tags": {"amenity": "restaurant", "internet_access": "wlan", "internet_access:fee": "no", "source": "survey"}}, {"type": "node", "id": 5902766061, "lat": 39.7915235, "lon": 19.8151041, "tags": {"amenity": "cafe", "cuisine": "burger;greek;pancake;sandwich", "diet:vegan": "yes", "diet:vegetarian": "yes", "name": "ILO-ILO Cafe Snack Bar", "name:en": "Ilo Ilo", "source": "survey"}}, {"type": "node", "id": 5904841151, "lat": 39.8037742, "lon": 19.8344287, "tags": {"amenity": "restaurant", "name": "Stretto", "source": "survey"}}, {"type": "node", "id": 5904841153, "lat": 39.8051754, "lon": 19.8328972, "tags": {"amenity": "restaurant", "internet_access": "wlan", "internet_access:fee": "no", "name": "Island", "source": "survey"}}, {"type": "node", "id": 5929241922, "lat": 39.6517248, "lon": 19.8453462, "tags": {"amenity": "restaurant", "cuisine": "mexican", "name": "3 Monkeys"}}, {"type": "node", "id": 5929242824, "lat": 39.6515026, "lon": 19.8454257, "tags": {"amenity": "restaurant", "cuisine": "thai;chinese", "name": "Sayam"}}, {"type": "node", "id": 5934586503, "lat": 39.6526185, "lon": 19.8439486, "tags": {"addr:city": "\u0393\u03bf\u03c5\u03b2\u03b9\u03ac", "addr:postcode": "49100", "amenity": "restaurant", "cuisine": "indian", "diet:gluten_free": "yes", "diet:halal": "yes", "diet:vegan": "yes", "diet:vegetarian": "yes", "internet_access": "wlan", "name": "Red Chilli", "opening_hours": "13:00-00:30; Dec 05-Jan 31 off", "phone": "+302661099792", "website": "https://indianrestaurantcorfu.com"}}, {"type": "node", "id": 5934586504, "lat": 39.6526696, "lon": 19.8443809, "tags": {"amenity": "restaurant", "name": "9 Muses", "outdoor_seating": "yes"}}, {"type": "node", "id": 5934948963, "lat": 39.6523533, "lon": 19.8447277, "tags": {"amenity": "restaurant", "cuisine": "greek", "name": "Vergina"}}, {"type": "node", "id": 5934948964, "lat": 39.6519423, "lon": 19.8448631, "tags": {"amenity": "restaurant", "cuisine": "indian", "name": "Karnveer"}}, {"type": "node", "id": 5936190087, "lat": 40.0617007, "lon": 19.8576052, "tags": {"amenity": "cafe", "name": "RIVIERA"}}, {"type": "node", "id": 5936875871, "lat": 39.6536168, "lon": 19.8439923, "tags": {"amenity": "restaurant", "name": "Iliada"}}, {"type": "node", "id": 5936882171, "lat": 39.6539488, "lon": 19.8427765, "tags": {"amenity": "restaurant"}}, {"type": "node", "id": 5936891539, "lat": 39.6537166, "lon": 19.8421042, "tags": {"amenity": "restaurant", "cuisine": "greek", "name": "Leon"}}, {"type": "node", "id": 5936896490, "lat": 39.6531653, "lon": 19.8422236, "tags": {"amenity": "cafe", "name": "Yamas Coffee"}}, {"type": "node", "id": 5936903699, "lat": 39.6520349, "lon": 19.8447861, "tags": {"amenity": "restaurant", "cuisine": "grill", "name": "The Best"}}, {"type": "node", "id": 5936903700, "lat": 39.6522074, "lon": 19.844672, "tags": {"amenity": "restaurant", "cuisine": "greek", "name": "Mythos"}}, {"type": "node", "id": 5936903701, "lat": 39.6523644, "lon": 19.8444982, "tags": {"amenity": "restaurant", "cuisine": "greek", "name": "Palmyra"}}, {"type": "node", "id": 5936909852, "lat": 39.6560869, "lon": 19.8401771, "tags": {"amenity": "cafe", "name": "l\u2019Artisan"}}, {"type": "node", "id": 5936909853, "lat": 39.6559884, "lon": 19.8408301, "tags": {"amenity": "restaurant", "cuisine": "greek", "name": "Romeos"}}, {"type": "node", "id": 5936912915, "lat": 39.6547394, "lon": 19.8417337, "tags": {"amenity": "restaurant", "cuisine": "pizza", "name": "Giardini d\u2019Italia"}}, {"type": "node", "id": 5936912916, "lat": 39.6549961, "lon": 19.8414183, "tags": {"amenity": "restaurant", "cuisine": "greek", "name": "La Kantas"}}, {"type": "node", "id": 5937298576, "lat": 39.654078, "lon": 19.8405698, "tags": {"amenity": "cafe", "name": "Sweet & Savory"}}, {"type": "node", "id": 5937298577, "lat": 39.6542951, "lon": 19.8423951, "tags": {"amenity": "restaurant", "cuisine": "greek", "name": "Orpheus"}}, {"type": "node", "id": 5939057041, "lat": 40.0851155, "lon": 20.1427081, "tags": {"addr:city": "Gjirokast\u00ebr", "addr:postcode": "6001", "addr:street": "Rruga Javer Rushiti", "amenity": "restaurant", "contact:facebook": "https://www.facebook.com/PIZZA-EDI-GJirokaster-515087241961194/", "cuisine": "pizza", "name": "Pizza Edi", "phone": "+355699466700", "website": "https://pizza-edi.business.site/"}}, {"type": "node", "id": 5943198789, "lat": 40.0737475, "lon": 20.1377868, "tags": {"amenity": "restaurant", "cuisine": "regional;albanian", "name": "Check In"}}, {"type": "node", "id": 5948728462, "lat": 40.0811178, "lon": 20.142188, "tags": {"addr:housenumber": "6002", "addr:street": "Rruga Rauf Fico", "amenity": "restaurant", "cuisine": "italian", "name": "Pizza Me Gusta", "opening_hours": "Mo-Su 12:00-03:00", "phone": "+355 84 265 555", "website": "https://pizzamegusta.business.site/"}}, {"type": "node", "id": 5973346754, "lat": 40.0070031, "lon": 19.8897361, "tags": {"amenity": "restaurant", "description": "Seafood", "name": "Mema", "opening_hours": "Mo-Su 07:00-23:59", "phone": "+355695415236"}}, {"type": "node", "id": 6037476651, "lat": 39.8737276, "lon": 19.9959927, "tags": {"amenity": "restaurant"}}, {"type": "node", "id": 6037476652, "lat": 39.8738592, "lon": 19.9945883, "tags": {"amenity": "restaurant", "indoor_seating": "yes", "name": "Taverna Peshkatari", "outdoor_seating": "yes"}}, {"type": "node", "id": 6102793686, "lat": 39.8737899, "lon": 19.9961967, "tags": {"addr:street": "Idriz Alidhima", "amenity": "restaurant", "check_date:opening_hours": "2024-05-25", "indoor_seating": "yes", "internet_access": "wlan", "name": "taverna kapiteni", "opening_hours:signed": "no", "outdoor_seating": "yes", "phone": "085223429"}}, {"type": "node", "id": 6163607267, "lat": 39.7179327, "lon": 20.0733455, "tags": {"addr:floor": "1", "air_conditioning": "yes", "amenity": "restaurant", "bar": "yes", "capacity": "100", "check_date": "2024-03-25", "contact:facebook": "https://m.facebook.com/profile.php/?id=100076336723896", "cuisine": "pizza;regional;coffee_shop;fish;chicken;seafood;greek;salad", "diet:chicken": "yes", "diet:fish": "yes", "diet:fresh": "yes", "diet:healthy": "yes", "diet:meat": "yes", "diet:mediterranean": "yes", "diet:organic": "yes", "diet:raw": "yes", "diet:seafood": "yes", "diet:vegetarian": "yes", "level": "0", "name": "Nefeli", "name:de": "Nefeli Caf\u00e9 Restaurant", "name:en": "Nefeli Cafe restaurant", "name:sq": "Nefeli Caf\u00e9 Restaurant", "outdoor_seating": "yes", "payment:cash": "yes", "reservation": "yes", "source": "survey", "toilets": "yes", "toilets:wheelchair": "yes", "wheelchair": "yes"}}, {"type": "node", "id": 6164530685, "lat": 39.8619475, "lon": 20.0194546, "tags": {"amenity": "restaurant", "name": "Restaurant SHIJA E JUGUT"}}, {"type": "node", "id": 6193182785, "lat": 39.8685387, "lon": 19.9997384, "tags": {"addr:street": "Rruga Mitat Hoxha", "amenity": "restaurant", "name:en": "Alban restaurant"}}, {"type": "node", "id": 6219524785, "lat": 39.8739747, "lon": 20.0079938, "tags": {"addr:street": "Rruga E Flamurit", "amenity": "restaurant", "check_date": "2024-03-24", "name": "Anch Anchor Bar & Restorant", "opening_hours": "24/7", "phone": "+355697959999"}}, {"type": "node", "id": 6219524885, "lat": 39.873614, "lon": 19.9899716, "tags": {"addr:street": "Rruga Peshkatari", "amenity": "restaurant", "cuisine": "local;mediterranean;fish;seafood", "indoor_seating": "yes", "name": "Taverna Fish Land", "opening_hours": "Mo-Su 10:00-23:00", "outdoor_seating": "yes", "phone": "+355694330914"}}, {"type": "node", "id": 6319660942, "lat": 39.6958267, "lon": 19.8329864, "tags": {"amenity": "restaurant"}}, {"type": "node", "id": 6335253285, "lat": 39.7696901, "lon": 20.0002008}, {"type": "node", "id": 6335436009, "lat": 39.7731436, "lon": 19.9974454}, {"type": "node", "id": 6335436010, "lat": 39.7731562, "lon": 19.9973003}, {"type": "node", "id": 6335436011, "lat": 39.7730736, "lon": 19.9975793}, {"type": "node", "id": 6335436012, "lat": 39.7729933, "lon": 19.9973311}, {"type": "node", "id": 6335436013, "lat": 39.7729675, "lon": 19.9973404}, {"type": "node", "id": 6335442696, "lat": 39.7729304, "lon": 19.9994611}, {"type": "node", "id": 6335442697, "lat": 39.7730381, "lon": 19.9993988}, {"type": "node", "id": 6335442698, "lat": 39.7730909, "lon": 19.9994769}, {"type": "node", "id": 6335442699, "lat": 39.7731142, "lon": 19.9996501}, {"type": "node", "id": 6335442700, "lat": 39.7729505, "lon": 19.9995564}, {"type": "node", "id": 6343071638, "lat": 39.7693335, "lon": 20.0002887}, {"type": "node", "id": 6343071649, "lat": 39.7694057, "lon": 20.0001083}, {"type": "node", "id": 6343071651, "lat": 39.7693825, "lon": 20.0001546}, {"type": "node", "id": 6343071653, "lat": 39.7694165, "lon": 20.0003095}, {"type": "node", "id": 6343071654, "lat": 39.7694021, "lon": 20.0003639}, {"type": "node", "id": 6343071655, "lat": 39.7693722, "lon": 20.000404}, {"type": "node", "id": 6343071656, "lat": 39.7693376, "lon": 20.0004101}, {"type": "node", "id": 6343071657, "lat": 39.7692942, "lon": 20.0004}, {"type": "node", "id": 6343766117, "lat": 39.7684983, "lon": 20.002705}, {"type": "node", "id": 6343766118, "lat": 39.768357, "lon": 20.002524}, {"type": "node", "id": 6343779221, "lat": 39.7688692, "lon": 20.0022214}, {"type": "node", "id": 6343783859, "lat": 39.7686625, "lon": 20.0024656}, {"type": "node", "id": 6383886010, "lat": 39.6519527, "lon": 20.1570608, "tags": {"amenity": "cafe"}}, {"type": "node", "id": 6404983943, "lat": 39.8734712, "lon": 20.0120946, "tags": {"amenity": "restaurant", "name": "Centrali"}}, {"type": "node", "id": 6404989650, "lat": 39.8734094, "lon": 20.0059045, "tags": {"amenity": "restaurant", "name": "Taverna \"The Garden\""}}, {"type": "node", "id": 6428857842, "lat": 40.0691871, "lon": 19.8265322, "tags": {"amenity": "cafe", "name": "Taverna Xhorxhi"}}, {"type": "node", "id": 6507890042, "lat": 40.036279, "lon": 19.864898}, {"type": "node", "id": 6507890043, "lat": 40.0361551, "lon": 19.865013}, {"type": "node", "id": 6507890044, "lat": 40.0362134, "lon": 19.8651201}, {"type": "node", "id": 6507890045, "lat": 40.0363373, "lon": 19.8650052}, {"type": "node", "id": 6512166825, "lat": 39.9954689, "lon": 20.2155632, "tags": {"amenity": "restaurant", "cuisine": "greek", "name": "\u03a7\u03b1\u03c3\u03b1\u03c0\u03bf\u03c4\u03b1\u03b2\u03b5\u03c1\u03bd\u03b1 \"\u03a3\u03c4\u03b7 \u039b\u03b1\u03b4\u03cc\u03ba\u03bf\u03bb\u03bb\u03b1\""}}, {"type": "node", "id": 6514794312, "lat": 39.6958187, "lon": 19.832914, "tags": {"amenity": "restaurant", "description": "Restaurant", "name": "Dominoes", "phone": "+301661093132"}}, {"type": "node", "id": 6514858486, "lat": 39.7561517, "lon": 19.7870137, "tags": {"amenity": "restaurant", "cuisine": "greek", "diet:meat": "yes", "diet:vegetarian": "yes", "name": "\u039f \u03a0\u03a1\u0391\u03a3\u0399\u039d\u039f\u03a3", "name:el": "\u039f \u03a0\u03a1\u0391\u03a3\u0399\u039d\u039f\u03a3", "name:en": "O Prasinos"}}, {"type": "node", "id": 6528521712, "lat": 39.7448626, "lon": 19.9339253}, {"type": "node", "id": 6528521713, "lat": 39.7447817, "lon": 19.9340021}, {"type": "node", "id": 6528521714, "lat": 39.744721, "lon": 19.9338939}, {"type": "node", "id": 6528521715, "lat": 39.7448019, "lon": 19.9338171}, {"type": "node", "id": 6553860987, "lat": 39.8736538, "lon": 19.9901272, "tags": {"amenity": "restaurant", "cuisine": "fish", "indoor_seating": "yes", "name": "Taverna Peshkatari", "name:ru": "\u0422\u0430\u0432\u0435\u0440\u043d\u0430 Peshkatari", "outdoor_seating": "yes"}}, {"type": "node", "id": 6577165685, "lat": 39.7726081, "lon": 20.0038736, "tags": {"amenity": "restaurant", "name": "Restorant Piceri"}}, {"type": "node", "id": 6578823491, "lat": 39.8717715, "lon": 20.0009919, "tags": {"addr:street": "Rruga Ismail Qemali", "amenity": "restaurant", "cuisine": "fish;seafood", "internet_access": "wlan", "name": "Filipi", "opening_hours": "Mo-Su 08:00-00:00"}}, {"type": "node", "id": 6621271334, "lat": 40.0533238, "lon": 19.8258222, "tags": {"amenity": "restaurant", "name": "Barbarossa Seafood Tavern & Pizza", "phone": "+355 69 286 9254"}}, {"type": "node", "id": 6621325285, "lat": 39.8743991, "lon": 20.007639, "tags": {"amenity": "restaurant", "name:en": "Manhattan"}}, {"type": "node", "id": 6631100385, "lat": 39.7693386, "lon": 20.0008591, "tags": {"amenity": "restaurant", "name": "Villa vista mare"}}, {"type": "node", "id": 6632111385, "lat": 39.8539108, "lon": 20.0222437, "tags": {"amenity": "restaurant", "cuisine": "international", "name:en": "Eval"}}, {"type": "node", "id": 6632111386, "lat": 39.87499, "lon": 20.0090271, "tags": {"amenity": "cafe", "name:en": "my time coffee bar"}}, {"type": "node", "id": 6634235742, "lat": 39.7700344, "lon": 20.0002916, "tags": {"amenity": "restaurant", "name": "Roby e Gioi"}}, {"type": "node", "id": 6634275240, "lat": 39.768289, "lon": 20.0026619, "tags": {"amenity": "restaurant", "name": "Delfini"}}, {"type": "node", "id": 6635806721, "lat": 39.7692267, "lon": 20.0031555, "tags": {"amenity": "restaurant", "name": "Brothers..."}}, {"type": "node", "id": 6642625887, "lat": 39.7662768, "lon": 19.9964726, "tags": {"addr:street": "Plazhi Paradise", "amenity": "restaurant", "name": "Fladeno Beach-Bar Restaurant", "opening_hours": "Mo-Su 11:00-22:00", "phone": "+355 67 510 8562"}}, {"type": "node", "id": 6642702885, "lat": 39.7664084, "lon": 19.9970005, "tags": {"addr:street": "Rruga Riviera", "amenity": "restaurant", "name": "Sunrise", "phone": "+355 68 877 9676"}}, {"type": "node", "id": 6642716286, "lat": 39.7666953, "lon": 19.9969925, "tags": {"addr:postcode": "9706", "addr:street": "Rruga Riviera", "amenity": "restaurant", "name": "Giardino di Zoi", "phone": "+355 69 510 3018"}}, {"type": "node", "id": 6642768485, "lat": 39.7660678, "lon": 19.994391, "tags": {"amenity": "restaurant", "name": "Lori Beach Bar Restaurant"}}, {"type": "node", "id": 6642886691, "lat": 39.7673725, "lon": 19.9981259, "tags": {"addr:street": "Rruga Riviera", "amenity": "restaurant", "cuisine": "regional", "internet_access": "wlan", "name": "Luna", "phone": "+355 66 414 5505"}}, {"type": "node", "id": 6644395564, "lat": 39.7686042, "lon": 19.9996254, "tags": {"addr:street": "Rruga Riviera", "amenity": "restaurant", "check_date": "2023-10-08", "cuisine": "fish", "name": "Ftelea Fish-Shop and Grill", "phone": "+355 69 730 8444"}}, {"type": "node", "id": 6644411085, "lat": 39.7726786, "lon": 19.9982824, "tags": {"addr:postcode": "9706", "addr:street": "Rruga 4 Ishujt", "amenity": "restaurant", "cuisine": "regional", "internet_access": "wlan", "name": "Bianco Lounge Bar", "phone": "+355 69 519 1893"}}, {"type": "node", "id": 6644640900, "lat": 39.7695537, "lon": 20.0037035, "tags": {"amenity": "restaurant", "name": "Restaurant Te Joni"}}, {"type": "node", "id": 6644728890, "lat": 39.7683664, "lon": 20.0019246, "tags": {"amenity": "restaurant", "cuisine": "pizza", "name": "Joni"}}, {"type": "node", "id": 6644731558, "lat": 39.7683736, "lon": 20.0019896, "tags": {"amenity": "restaurant"}}, {"type": "node", "id": 6644791286, "lat": 39.7689239, "lon": 20.0002467, "tags": {"amenity": "restaurant", "cuisine": "regional"}}, {"type": "node", "id": 6646086487, "lat": 39.7489588, "lon": 19.9754794, "tags": {"amenity": "restaurant", "name": "Pema e Thate"}}, {"type": "node", "id": 6647340286, "lat": 39.8717859, "lon": 20.0010719, "tags": {"amenity": "restaurant", "name": "Fish Taverna Filipi"}}, {"type": "node", "id": 6649472375, "lat": 39.7645485, "lon": 19.9961102, "tags": {"addr:street": "Rruga Freskia", "amenity": "restaurant", "internet_access": "wlan", "name": "Lula", "operator": "Mr. Petro", "phone": "+355 69 570 9263", "website": "https://m.facebook.com/hotellulaksamil/"}}, {"type": "node", "id": 6649984388, "lat": 39.7682423, "lon": 20.0027442, "tags": {"addr:postcode": "9706", "addr:street": "Rruga Apollonia", "amenity": "restaurant", "name": "Byrektore Prizreni, Apollonia St, Ksamil 970", "name:en": "Byrektore Prizreni", "name:sq": "Byrektore Prizreni", "phone": "+355 69 670 5954"}}, {"type": "node", "id": 6651380386, "lat": 39.7673548, "lon": 19.9941899, "tags": {"addr:postcode": "9701", "addr:street": "Rruga Riviera", "amenity": "restaurant", "cuisine": "local", "name": "Ohana Beach Bar Ksamil", "name:en": "Ohana Beach Bar Ksamil", "name:sq": "Ohana Beach Bar", "phone": "+355 69 707 0757", "website": "https://ohana-beach-bar.business.site/"}}, {"type": "node", "id": 6651380588, "lat": 39.7729447, "lon": 20.0024044, "tags": {"addr:postcode": "9701", "amenity": "restaurant", "name": "Beach Bar Mango", "name:en": "Beach Bar Club Mango", "name:sq": "Beach Bar Club Mango"}}, {"type": "node", "id": 6651394487, "lat": 39.768648, "lon": 19.9929902, "tags": {"addr:postcode": "9701", "amenity": "restaurant", "cuisine": "local", "name": "Albanien, Ksamil, Sea Breeze Snack Bar", "name:en": "Sea Breeze Snack Bar", "name:sq": "Sea Breeze Snack Bar", "phone": "+355 69 680 3915", "website": "https://www.ksamilboats.com/"}}, {"type": "node", "id": 6651395987, "lat": 39.7686953, "lon": 19.9913288, "tags": {"addr:postcode": "9701", "amenity": "restaurant", "cuisine": "local", "name": "Bar and Beach Reni-Risi", "phone": "+355 69 452 0039"}}, {"type": "node", "id": 6651404186, "lat": 39.7757068, "lon": 20.0012443, "tags": {"addr:postcode": "9701", "amenity": "restaurant", "cuisine": "local", "name": "GUAPALOCA-Beach Bar", "phone": "+355 69 815 6808"}}, {"type": "node", "id": 6651786385, "lat": 39.7928918, "lon": 20.0019317, "tags": {"amenity": "restaurant", "cuisine": "regional", "name": "Restaurant Gjiri i Hartes"}}, {"type": "node", "id": 6657696685, "lat": 39.8699646, "lon": 19.9980652, "tags": {"amenity": "restaurant", "cuisine": "pizza", "name": "Era", "outdoor_seating": "yes"}}, {"type": "node", "id": 6659006185, "lat": 39.8719178, "lon": 20.001034, "tags": {"amenity": "restaurant", "name": "Taverna Fish Filipi"}}, {"type": "node", "id": 6660429365, "lat": 39.9983854, "lon": 19.9074268}, {"type": "node", "id": 6660429366, "lat": 39.9985482, "lon": 19.907661}, {"type": "node", "id": 6660429367, "lat": 39.9984397, "lon": 19.9077965}, {"type": "node", "id": 6660429368, "lat": 39.998265, "lon": 19.9075716}, {"type": "node", "id": 6660483347, "lat": 40.0306054, "lon": 19.8696672}, {"type": "node", "id": 6660483349, "lat": 40.0305071, "lon": 19.8697419}, {"type": "node", "id": 6660661079, "lat": 40.0301996, "lon": 19.8698547}, {"type": "node", "id": 6660661080, "lat": 40.0301981, "lon": 19.8698832}, {"type": "node", "id": 6660661081, "lat": 40.0301848, "lon": 19.8699065}, {"type": "node", "id": 6660661082, "lat": 40.0301732, "lon": 19.8699228}, {"type": "node", "id": 6660661083, "lat": 40.0301553, "lon": 19.869934}, {"type": "node", "id": 6660661084, "lat": 40.0301319, "lon": 19.869936}, {"type": "node", "id": 6660672085, "lat": 40.0301148, "lon": 19.8699238}, {"type": "node", "id": 6660672086, "lat": 40.0300992, "lon": 19.8699045}, {"type": "node", "id": 6660672087, "lat": 40.0300922, "lon": 19.8698832}, {"type": "node", "id": 6660672088, "lat": 40.0300899, "lon": 19.8698669}, {"type": "node", "id": 6660672089, "lat": 40.0300959, "lon": 19.8698391}, {"type": "node", "id": 6660672090, "lat": 40.0301117, "lon": 19.869813}, {"type": "node", "id": 6660672091, "lat": 40.0301335, "lon": 19.8698019}, {"type": "node", "id": 6660672092, "lat": 40.0301638, "lon": 19.8698039}, {"type": "node", "id": 6660672093, "lat": 40.0301794, "lon": 19.86981}, {"type": "node", "id": 6660672094, "lat": 40.0301934, "lon": 19.8698303}, {"type": "node", "id": 6660699049, "lat": 40.0352282, "lon": 19.8657654}, {"type": "node", "id": 6660699050, "lat": 40.0350598, "lon": 19.865925}, {"type": "node", "id": 6660699051, "lat": 40.0350239, "lon": 19.865862}, {"type": "node", "id": 6660699052, "lat": 40.0351923, "lon": 19.8657011}, {"type": "node", "id": 6660699053, "lat": 40.0345916, "lon": 19.8663837}, {"type": "node", "id": 6660699054, "lat": 40.034492, "lon": 19.8664762}, {"type": "node", "id": 6660699055, "lat": 40.0344499, "lon": 19.8664145}, {"type": "node", "id": 6660699056, "lat": 40.0345052, "lon": 19.8663522}, {"type": "node", "id": 6660699057, "lat": 40.0344797, "lon": 19.8663059}, {"type": "node", "id": 6660699058, "lat": 40.0345269, "lon": 19.8662549}, {"type": "node", "id": 6660718493, "lat": 40.0474743, "lon": 19.8486967}, {"type": "node", "id": 6660718494, "lat": 40.0473347, "lon": 19.848571}, {"type": "node", "id": 6660718495, "lat": 40.0472372, "lon": 19.8487639}, {"type": "node", "id": 6660718496, "lat": 40.0473849, "lon": 19.8488878}, {"type": "node", "id": 6665941619, "lat": 39.6821729, "lon": 19.8411775, "tags": {"amenity": "restaurant"}}, {"type": "node", "id": 6670898611, "lat": 39.6836225, "lon": 19.8405701, "tags": {"amenity": "cafe", "bar": "yes", "check_date": "2024-06-16", "name": "Red Dragon"}}, {"type": "node", "id": 6672130083, "lat": 39.689156, "lon": 19.8346348, "tags": {"addr:city": "Dassia", "addr:postcode": "49083", "addr:street": "Kato Korakiana", "amenity": "restaurant", "cuisine": "mediterranean", "email": "info@etrusco.gr", "name": "Etrusco", "opening_hours": "Mo-Su 20:00-24:00", "phone": "+30 26610 93342"}}, {"type": "node", "id": 6684229974, "lat": 39.7207489, "lon": 19.8385084, "tags": {"amenity": "cafe", "name": "Asteras Snack Bar"}}, {"type": "node", "id": 6703440988, "lat": 40.0574876, "lon": 19.8281739, "tags": {"amenity": "restaurant", "name": "Taverna Dhrami"}}, {"type": "node", "id": 6717358885, "lat": 39.8718561, "lon": 20.0009609, "tags": {"addr:street": "Rruga Sk\u00ebnderbeu", "amenity": "restaurant", "cuisine": "local", "internet_access": "wlan", "name:en": "Fish Filipi Taverna"}}, {"type": "node", "id": 6725862933, "lat": 40.0070031, "lon": 19.8897361, "tags": {"amenity": "restaurant", "description": "Seafood", "name": "Mema", "opening_hours": "Mo-Su 07:00-23:59", "phone": "+355695415236"}}, {"type": "node", "id": 6760091903, "lat": 39.9956592, "lon": 19.9150349, "tags": {"amenity": "restaurant"}}, {"type": "node", "id": 6760092985, "lat": 39.9941644, "lon": 19.9149926, "tags": {"amenity": "restaurant", "name": "Joni"}}, {"type": "node", "id": 6768637285, "lat": 39.7666128, "lon": 20.0021426, "tags": {"addr:street": "Rruga Butrint", "amenity": "restaurant", "name": "Family Kitchen Restaurant"}}, {"type": "node", "id": 6800408289, "lat": 39.7932606, "lon": 19.9201706, "tags": {"addr:street": "\u03a7\u03c9\u03c1\u03af\u03c2 \u038c\u03bd\u03bf\u03bc\u03b1", "amenity": "cafe", "check_date:opening_hours": "2022-08-12", "cuisine": "greek;mediterranean;pizza", "name": "Kastro", "name:en": "Kastro", "opening_hours:signed": "no"}}, {"type": "node", "id": 6820700758, "lat": 39.7434794, "lon": 19.8363184, "tags": {"amenity": "restaurant", "name": "\u0391 \u039b\u03b1 \u03a0\u03b1\u03bb\u03b1\u03b9\u03ac", "name:el": "\u0391 \u039b\u03b1 \u03a0\u03b1\u03bb\u03b1\u03b9\u03ac", "name:en": "Taverna a la Palea"}}, {"type": "node", "id": 6829548567, "lat": 39.7489311, "lon": 19.842063, "tags": {"amenity": "restaurant", "description": "Traditional Flavours", "name": "Boozoovey's Caf\u00e9 & Tavern", "phone": "+302663074016"}}, {"type": "node", "id": 6839658940, "lat": 39.7464571, "lon": 20.0208715}, {"type": "node", "id": 6839658941, "lat": 39.7464262, "lon": 20.0209574}, {"type": "node", "id": 6839658942, "lat": 39.7462901, "lon": 20.0208688}, {"type": "node", "id": 6839658943, "lat": 39.7463231, "lon": 20.0207803}, {"type": "node", "id": 6870444887, "lat": 39.8757099, "lon": 20.0053985, "tags": {"amenity": "restaurant"}}, {"type": "node", "id": 6870927295, "lat": 39.8734541, "lon": 20.0006871, "tags": {"amenity": "cafe", "name": "Lori"}}, {"type": "node", "id": 6870927304, "lat": 39.8765461, "lon": 20.0042117, "tags": {"amenity": "restaurant", "name": "Milo:s kitchen"}}, {"type": "node", "id": 6870927385, "lat": 39.875551, "lon": 20.0045048, "tags": {"amenity": "cafe", "name": "Iliria"}}, {"type": "node", "id": 6870927392, "lat": 39.8738925, "lon": 20.0075372, "tags": {"amenity": "restaurant", "name": "Summer"}}, {"type": "node", "id": 6870927596, "lat": 39.8746238, "lon": 20.0093386, "tags": {"amenity": "cafe", "name": "Black light"}}, {"type": "node", "id": 6870927985, "lat": 39.8724147, "lon": 20.0024875, "tags": {"amenity": "cafe", "name": "Baci a Tutti"}}, {"type": "node", "id": 6870928085, "lat": 39.872885, "lon": 20.0040389, "tags": {"amenity": "restaurant", "name": "Caci"}}, {"type": "node", "id": 6870928285, "lat": 39.8737781, "lon": 20.0110301, "tags": {"amenity": "restaurant", "name": "Marini in Saranda"}}, {"type": "node", "id": 6870928786, "lat": 39.8766028, "lon": 20.0008361, "tags": {"amenity": "cafe"}}, {"type": "node", "id": 6870928788, "lat": 39.8734234, "lon": 20.0004201, "tags": {"amenity": "restaurant", "name": "Champlain"}}, {"type": "node", "id": 6870928987, "lat": 39.8761904, "lon": 20.0006568, "tags": {"amenity": "cafe", "name": "Ali Pasha"}}, {"type": "node", "id": 6871682685, "lat": 39.8732405, "lon": 20.003633, "tags": {"amenity": "restaurant", "name": "Cacalli"}}, {"type": "node", "id": 6872145185, "lat": 39.8758, "lon": 20.0085318, "tags": {"amenity": "cafe"}}, {"type": "node", "id": 6872683088, "lat": 39.8749091, "lon": 20.0041475, "tags": {"amenity": "cafe", "name": "Flames"}}, {"type": "node", "id": 6872683089, "lat": 39.8738238, "lon": 20.0045091, "tags": {"amenity": "cafe", "name": "Bo.Sa.Be"}}, {"type": "node", "id": 6872683187, "lat": 39.874086, "lon": 20.0054047, "tags": {"amenity": "cafe", "outdoor_seating": "yes"}}, {"type": "node", "id": 6872683285, "lat": 39.8747892, "lon": 20.0049138, "tags": {"amenity": "restaurant", "name": "Vila Bajrami"}}, {"type": "node", "id": 6872683591, "lat": 39.8727658, "lon": 20.0144227, "tags": {"amenity": "restaurant", "name": "Tunelli"}}, {"type": "node", "id": 6872704388, "lat": 39.8720796, "lon": 20.013604, "tags": {"amenity": "restaurant", "name": "Tetova"}}, {"type": "node", "id": 6872704389, "lat": 39.870853, "lon": 20.0140822, "tags": {"amenity": "restaurant", "name": "Alpha"}}, {"type": "node", "id": 6872704390, "lat": 39.8698786, "lon": 20.0144194, "tags": {"amenity": "restaurant", "name": "Apollo"}}, {"type": "node", "id": 6873530186, "lat": 39.8686082, "lon": 20.0149008, "tags": {"amenity": "restaurant", "name": "Trumeza"}}, {"type": "node", "id": 6873531787, "lat": 39.8731121, "lon": 20.0129282, "tags": {"amenity": "restaurant", "name": "Vetanda"}}, {"type": "node", "id": 6873531800, "lat": 39.8704168, "lon": 19.9986295, "tags": {"amenity": "cafe", "name": "Sunset"}}, {"type": "node", "id": 6873593490, "lat": 39.8735183, "lon": 19.9996559, "tags": {"amenity": "cafe"}}, {"type": "node", "id": 6873593491, "lat": 39.8735392, "lon": 19.9993944, "tags": {"amenity": "restaurant", "cuisine": "pizza", "name": "Nepsi Pizza", "payment:credit_cards": "yes"}}, {"type": "node", "id": 6873593494, "lat": 39.8740368, "lon": 19.9932142, "tags": {"amenity": "cafe", "indoor_seating": "yes", "name:signed": "no", "outdoor_seating": "yes"}}, {"type": "node", "id": 6873593503, "lat": 39.8704627, "lon": 20.0024798, "tags": {"amenity": "cafe", "name": "Magic blue"}}, {"type": "node", "id": 6873593507, "lat": 39.8713854, "lon": 20.0009033, "tags": {"amenity": "cafe", "name": "Friends"}}, {"type": "node", "id": 6873593508, "lat": 39.8732583, "lon": 20.005212, "tags": {"amenity": "restaurant", "name": "Peshku"}}, {"type": "node", "id": 6873593513, "lat": 39.8736502, "lon": 20.0021664, "tags": {"amenity": "restaurant", "name": "Fishtime"}}, {"type": "node", "id": 6873603694, "lat": 39.873615, "lon": 19.9915282, "tags": {"amenity": "restaurant", "name": "Sandri"}}, {"type": "node", "id": 6873603696, "lat": 39.8712757, "lon": 20.0010166, "tags": {"amenity": "cafe", "name": "Valentino"}}, {"type": "node", "id": 6873603887, "lat": 39.8736645, "lon": 19.9979055, "tags": {"amenity": "cafe", "name": "Oro"}}, {"type": "node", "id": 6873603889, "lat": 39.869659, "lon": 19.9996341, "tags": {"addr:city": "Sarand\u00eb", "addr:housenumber": "112", "addr:postcode": "9701", "addr:street": "Rruga Mitat Hoxha", "amenity": "restaurant", "contact:facebook": "https://www.facebook.com/TavernaLaberia/", "contact:instagram": "taverna_laberia", "name": "Taverna Lab\u00ebria", "opening_hours": "Mo-Sa 08:00-00:00; Su 08:00-24:00", "phone": "+355 69 532 2026", "website": "https://taverna-laberia.al/", "website:menu": "https://taverna-laberia.al/menu/"}}, {"type": "node", "id": 6873604085, "lat": 39.8747474, "lon": 20.0040283, "tags": {"amenity": "cafe", "name": "Corner"}}, {"type": "node", "id": 6875025493, "lat": 40.0725329, "lon": 20.1574177, "tags": {"amenity": "restaurant"}}, {"type": "node", "id": 6875025494, "lat": 40.0838897, "lon": 20.1449297, "tags": {"alt_name": "Geraldo", "amenity": "restaurant", "name": "Gerald", "outdoor_seating": "yes"}}, {"type": "node", "id": 6875038193, "lat": 40.0814045, "lon": 20.1449655, "tags": {"amenity": "cafe", "outdoor_seating": "yes"}}, {"type": "node", "id": 6875203386, "lat": 39.8690661, "lon": 19.9985305, "tags": {"amenity": "restaurant", "name:en": "Sunset Saranda Restaurant"}}, {"type": "node", "id": 6875316787, "lat": 40.071022, "lon": 20.1372205, "tags": {"amenity": "restaurant", "contact:phone": "+355 69 366 7830", "contact:website": "https://www.facebook.com/taverna.tradicionale", "name": "Taverna Tradicionale"}}, {"type": "node", "id": 6875316885, "lat": 40.07436, "lon": 20.138592, "tags": {"amenity": "cafe", "name": "Karagjozi", "outdoor_seating": "yes"}}, {"type": "node", "id": 6877456086, "lat": 40.0745809, "lon": 20.1399515, "tags": {"air_conditioning": "yes", "amenity": "cafe", "check_date": "2024-08-31", "cuisine": "crepe", "name": "Kalimera", "outdoor_seating": "yes", "outdoor_seating:comfort": "weather_protection", "smoking": "outside", "source": "survey", "takeaway": "yes", "toilets": "yes", "wheelchair": "no"}}, {"type": "node", "id": 6877456192, "lat": 40.0830163, "lon": 20.1423633, "tags": {"amenity": "cafe", "level": "1", "name": "Modus", "outdoor_seating": "yes"}}, {"type": "node", "id": 6879115185, "lat": 40.0742442, "lon": 20.1363248, "tags": {"amenity": "cafe", "name": "Bake"}}, {"type": "node", "id": 6879358085, "lat": 40.0797495, "lon": 20.1394759, "tags": {"amenity": "cafe"}}, {"type": "node", "id": 6879399388, "lat": 40.0801291, "lon": 20.138409, "tags": {"amenity": "cafe"}}, {"type": "node", "id": 6879418786, "lat": 40.0802779, "lon": 20.1388844, "tags": {"amenity": "restaurant", "name": "Argjiro"}}, {"type": "node", "id": 6881507724, "lat": 40.0800848, "lon": 20.1480068, "tags": {"amenity": "cafe"}}, {"type": "node", "id": 6881507726, "lat": 40.0809694, "lon": 20.1472197, "tags": {"amenity": "cafe", "outdoor_seating": "yes"}}, {"type": "node", "id": 6881507729, "lat": 40.0848367, "lon": 20.1437008, "tags": {"amenity": "cafe", "name": "Buondi"}}, {"type": "node", "id": 6881553286, "lat": 40.0785984, "lon": 20.1356467, "tags": {"amenity": "cafe", "level": "1", "name": "Spring", "wheelchair": "no"}}, {"type": "node", "id": 6881553287, "lat": 40.0743662, "lon": 20.1374659, "tags": {"amenity": "cafe"}}, {"type": "node", "id": 6882167485, "lat": 40.047642, "lon": 19.8703164, "tags": {"amenity": "restaurant", "name:en": "Te Taverna"}}, {"type": "node", "id": 6882197386, "lat": 40.0838408, "lon": 20.1434295, "tags": {"amenity": "cafe"}}, {"type": "node", "id": 6882197388, "lat": 40.0792329, "lon": 20.1380424, "tags": {"amenity": "restaurant", "name": "Tribeca", "outdoor_seating": "yes"}}, {"type": "node", "id": 6882200786, "lat": 40.0793719, "lon": 20.1381087, "tags": {"amenity": "cafe", "name": "Altini Garden", "opening_hours": "Mo-Su 07:30-22:30", "outdoor_seating": "yes", "phone": "+355696920890"}}, {"type": "node", "id": 6882200885, "lat": 40.0784592, "lon": 20.1384462, "tags": {"amenity": "cafe", "name": "Media Club"}}, {"type": "node", "id": 6882200985, "lat": 40.0781716, "lon": 20.1376584, "tags": {"amenity": "restaurant", "name": "Kufoi", "opening_hours": "Mo-Sa 08:00-20:00", "phone": "+355686690751"}}, {"type": "node", "id": 6899507302, "lat": 39.7437619, "lon": 19.8372474, "tags": {"amenity": "cafe", "name": "Snack Bar"}}, {"type": "node", "id": 6987232249, "lat": 39.8154655, "lon": 19.8657227}, {"type": "node", "id": 6987232250, "lat": 39.8154639, "lon": 19.8657744}, {"type": "node", "id": 6987232251, "lat": 39.8154984, "lon": 19.8658179}, {"type": "node", "id": 6987232252, "lat": 39.8152867, "lon": 19.8659137}, {"type": "node", "id": 6987232253, "lat": 39.8153614, "lon": 19.8659004}, {"type": "node", "id": 7004642489, "lat": 39.8018425, "lon": 19.8703064, "tags": {"addr:postcode": "49081", "amenity": "cafe", "internet_access": "wlan"}}, {"type": "node", "id": 7021898512, "lat": 40.0194222, "lon": 19.8786735, "tags": {"amenity": "restaurant", "name": "Ohana's Beach", "opening_hours": "Mo-Su 07:00-22:00", "phone": "+355 685 307 263"}}, {"type": "node", "id": 7021963634, "lat": 40.031218, "lon": 19.8694152, "tags": {"amenity": "restaurant", "name": "Poseidon"}}, {"type": "node", "id": 7166545885, "lat": 39.871531, "lon": 20.0136491, "tags": {"amenity": "restaurant", "name:en": "Paradise"}}, {"type": "node", "id": 7581340085, "lat": 39.8640811, "lon": 20.076078, "tags": {"amenity": "restaurant", "name": "Aliko", "name:el": "\u0391\u03bb\u03cd\u03ba\u03bf"}}, {"type": "node", "id": 7588682085, "lat": 39.7599665, "lon": 19.9338694, "tags": {"amenity": "cafe"}}, {"type": "node", "id": 7752533786, "lat": 39.8545909, "lon": 20.0219975, "tags": {"amenity": "restaurant", "cuisine": "balkan", "name:en": "ZGARA TRADICIONALE"}}, {"type": "node", "id": 7771144586, "lat": 39.771325, "lon": 20.0042814, "tags": {"amenity": "restaurant", "name": "Fourth Island", "opening_hours": "Mo-Su 08:00-00:00", "website": "https://ru.restaurantguru.com/link/68533921"}}, {"type": "node", "id": 7791961185, "lat": 39.77147, "lon": 20.0042323, "tags": {"addr:housenumber": "3", "addr:street": "Rruga Valltaret", "amenity": "restaurant", "cuisine": "balkan;fish;pasta;seafood", "internet_access": "wlan", "name:en": "Fours Island", "website": "https://m.facebook.com/Fourth-Island-1671898946211545/"}}, {"type": "node", "id": 7797127685, "lat": 39.7725137, "lon": 20.0043244, "tags": {"amenity": "restaurant", "name:en": "Zgara traditional", "name:ru": "Zgara traditional"}}, {"type": "node", "id": 7937081785, "lat": 39.8642668, "lon": 20.0172448, "tags": {"amenity": "restaurant", "name": "Manxurane"}}, {"type": "node", "id": 7973020782, "lat": 39.7954941, "lon": 19.7815101}, {"type": "node", "id": 7973020783, "lat": 39.7954284, "lon": 19.7815558}, {"type": "node", "id": 7973020784, "lat": 39.7954529, "lon": 19.7816156}, {"type": "node", "id": 7973035085, "lat": 39.7955186, "lon": 19.7815699}, {"type": "node", "id": 8026463660, "lat": 39.9480043, "lon": 19.9682155, "tags": {"amenity": "restaurant", "name": "Mozhaqi", "phone": "0692245469"}}, {"type": "node", "id": 8026492794, "lat": 39.9591972, "lon": 19.9621222, "tags": {"amenity": "cafe"}}, {"type": "node", "id": 8473593020, "lat": 40.0722579, "lon": 20.1573963, "tags": {"addr:city": "Gjirokast\u00ebr", "addr:street": "Rruga Tepelen\u00eb-Gjirokast\u00ebr", "amenity": "restaurant", "cuisine": "traditional", "name": "Restorant & Evente PERLA", "opening_hours": "24/7", "opening_hours:covid19": "Mo-Sa 08:00-20:00", "phone": "0696926896"}}, {"type": "node", "id": 8497942217, "lat": 39.7701138, "lon": 20.0039177, "tags": {"amenity": "restaurant", "bench": "yes", "bin": "no", "highway": "bus_stop", "lit": "no", "name": "Restorant Ioni", "name:en": "Restaurant Ioni", "shelter": "yes"}}, {"type": "node", "id": 8637243718, "lat": 39.8748407, "lon": 19.9887889, "tags": {"amenity": "restaurant", "name": "Tawerna Erjoni"}}, {"type": "node", "id": 8671261763, "lat": 39.7306351, "lon": 20.0227882, "tags": {"amenity": "cafe"}}, {"type": "node", "id": 8809996717, "lat": 39.8747756, "lon": 20.017442, "tags": {"amenity": "restaurant", "name:en": "Kristiano wine bar"}}, {"type": "node", "id": 8823994017, "lat": 39.7065015, "lon": 19.8437786, "tags": {"amenity": "restaurant", "cuisine": "diner;fine_dining;greek;local;mediterranean", "internet_access": "wlan", "name:en": "Marea"}}, {"type": "node", "id": 8837787782, "lat": 40.0555133, "lon": 19.8647897, "tags": {"amenity": "cafe"}}, {"type": "node", "id": 8892363241, "lat": 40.0835166, "lon": 20.1421847, "tags": {"amenity": "cafe", "name": "Caffe Vergnano"}}, {"type": "node", "id": 8911196217, "lat": 40.0556031, "lon": 19.864764, "tags": {"amenity": "restaurant", "name": "Panorama Borsh"}}, {"type": "node", "id": 8980189889, "lat": 39.9093437, "lon": 20.095012}, {"type": "node", "id": 8980189890, "lat": 39.9092306, "lon": 20.0949787}, {"type": "node", "id": 8980189891, "lat": 39.9091946, "lon": 20.0951861}, {"type": "node", "id": 8980189892, "lat": 39.9093078, "lon": 20.0952194}, {"type": "node", "id": 8993852417, "lat": 39.9353626, "lon": 20.2087307, "tags": {"amenity": "restaurant", "name": "Taverna Muzina"}}, {"type": "node", "id": 8998999480, "lat": 39.8703863, "lon": 20.014759, "tags": {"amenity": "restaurant", "name": "Mare Nostrum"}}, {"type": "node", "id": 9038425618, "lat": 39.8751992, "lon": 20.0103709, "tags": {"addr:postcode": "9701", "amenity": "restaurant", "internet_access": "wlan", "name": "Restorant Isufi", "name:en": "Restaurant Isufi", "name:pl": "Restauracja Isufi"}}, {"type": "node", "id": 9038425717, "lat": 39.8627966, "lon": 20.0187669, "tags": {"amenity": "cafe", "name:en": "Happy Kids Cafe and Playground"}}, {"type": "node", "id": 9045399317, "lat": 39.8722678, "lon": 20.0152724, "tags": {"amenity": "cafe", "name": "Le 5 Stelle"}}, {"type": "node", "id": 9098233922, "lat": 39.7083737, "lon": 19.8477972, "tags": {"amenity": "restaurant", "cuisine": "greek", "name": "Le Grand Balkon Taverna", "outdoor_seating": "yes", "toilets": "yes", "wheelchair": "no"}}, {"type": "node", "id": 9098233930, "lat": 39.7090222, "lon": 19.8462797, "tags": {"amenity": "cafe"}}, {"type": "node", "id": 9104114654, "lat": 39.7100536, "lon": 19.8563683, "tags": {"amenity": "restaurant", "cuisine": "mediterranean;greek;barbecue", "name": "Stefanos Place", "outdoor_seating": "yes", "toilets": "yes"}}, {"type": "node", "id": 9108931380, "lat": 39.7056184, "lon": 19.8431969, "tags": {"amenity": "restaurant", "name": "Thy Mari"}}, {"type": "node", "id": 9130282080, "lat": 39.8646989, "lon": 20.0298111, "tags": {"amenity": "restaurant", "name": "Natura"}}, {"type": "node", "id": 9172104568, "lat": 39.7362154, "lon": 19.9291533, "tags": {"amenity": "restaurant", "cuisine": "seafood;regional", "name": "Toula's Seaside", "phone": "+30 26630 91350", "website": "https://toulaseaside.com/"}}, {"type": "node", "id": 9175010917, "lat": 39.6779035, "lon": 19.8387472, "tags": {"amenity": "restaurant", "name:en": "Akos Farm"}}, {"type": "node", "id": 9193330956, "lat": 40.0335556, "lon": 20.1772217, "tags": {"amenity": "restaurant", "name": "Rustikana"}}, {"type": "node", "id": 9193330965, "lat": 40.0339281, "lon": 20.1792981, "tags": {"amenity": "restaurant", "bar": "yes", "name": "Kolla"}}, {"type": "node", "id": 9193330968, "lat": 40.0339174, "lon": 20.1788457, "tags": {"amenity": "restaurant", "name": "Dropoli Palace"}}, {"type": "node", "id": 9193330972, "lat": 40.0325646, "lon": 20.1762274, "tags": {"amenity": "cafe"}}, {"type": "node", "id": 9199251751, "lat": 40.072278, "lon": 20.257396, "tags": {"amenity": "cafe"}}, {"type": "node", "id": 9263235024, "lat": 39.7179877, "lon": 19.7933687, "tags": {"amenity": "cafe", "name": "Cherry Cafe", "outdoor_seating": "yes"}}, {"type": "node", "id": 9263235028, "lat": 39.765104, "lon": 19.875474, "tags": {"amenity": "restaurant"}}, {"type": "node", "id": 9453806623, "lat": 40.0744088, "lon": 20.1382277}, {"type": "node", "id": 9453806624, "lat": 40.0743712, "lon": 20.1383183}, {"type": "node", "id": 9453806625, "lat": 40.0743317, "lon": 20.1382836}, {"type": "node", "id": 9453806626, "lat": 40.0742643, "lon": 20.1380347}, {"type": "node", "id": 9453806627, "lat": 40.074287, "lon": 20.1380059}, {"type": "node", "id": 9492282851, "lat": 39.7947432, "lon": 19.8097652}, {"type": "node", "id": 9492282852, "lat": 39.7948349, "lon": 19.8100039}, {"type": "node", "id": 9492282853, "lat": 39.7946433, "lon": 19.8101219}, {"type": "node", "id": 9492282854, "lat": 39.7945536, "lon": 19.8098711}, {"type": "node", "id": 9627516372, "lat": 39.7920752, "lon": 19.8169599}, {"type": "node", "id": 9627516373, "lat": 39.792119, "lon": 19.8171674}, {"type": "node", "id": 9627516374, "lat": 39.7919631, "lon": 19.8171616}, {"type": "node", "id": 9627516375, "lat": 39.7919952, "lon": 19.8169993}, {"type": "node", "id": 9627588522, "lat": 39.7922723, "lon": 19.8176905}, {"type": "node", "id": 9627588523, "lat": 39.7923303, "lon": 19.8177351}, {"type": "node", "id": 9627588524, "lat": 39.7922415, "lon": 19.8179061}, {"type": "node", "id": 9627588525, "lat": 39.7921729, "lon": 19.8178522}, {"type": "node", "id": 9627823263, "lat": 39.7942752, "lon": 19.8200003}, {"type": "node", "id": 9627823264, "lat": 39.7943506, "lon": 19.8201173}, {"type": "node", "id": 9627823265, "lat": 39.794438, "lon": 19.8200218}, {"type": "node", "id": 9627823266, "lat": 39.7943626, "lon": 19.8199049}, {"type": "node", "id": 9627848443, "lat": 39.7919939, "lon": 19.8171627}, {"type": "node", "id": 9629191249, "lat": 39.7920494, "lon": 19.8169688}, {"type": "node", "id": 9629191250, "lat": 39.7920352, "lon": 19.8169237}, {"type": "node", "id": 9635360717, "lat": 39.8723226, "lon": 19.9956931, "tags": {"amenity": "cafe", "name:en": "Fox Cafe"}}, {"type": "node", "id": 9648144017, "lat": 39.8714254, "lon": 19.9987356, "tags": {"amenity": "restaurant", "name": "Taverna Oxhaku"}}, {"type": "node", "id": 9674318522, "lat": 39.7902045, "lon": 19.9236951, "tags": {"amenity": "cafe", "name:en": "Kahlva"}}, {"type": "node", "id": 9674318617, "lat": 39.7929658, "lon": 19.8172123, "tags": {"amenity": "restaurant", "name:en": "Pita Pita"}}, {"type": "node", "id": 9674318817, "lat": 39.8017938, "lon": 19.8385796, "tags": {"amenity": "cafe", "name:en": "Betty Garden"}}, {"type": "node", "id": 9674319019, "lat": 39.6760324, "lon": 19.8393311, "tags": {"amenity": "cafe"}}, {"type": "node", "id": 9674319317, "lat": 39.7875397, "lon": 19.9113442, "tags": {"amenity": "restaurant", "name:en": "Fish Taverna"}}, {"type": "node", "id": 9674319318, "lat": 39.7899548, "lon": 19.9234392, "tags": {"amenity": "restaurant"}}, {"type": "node", "id": 9674319417, "lat": 39.787383, "lon": 19.9194872, "tags": {"amenity": "cafe"}}, {"type": "node", "id": 9674319419, "lat": 39.7905831, "lon": 19.9237172, "tags": {"amenity": "restaurant"}}, {"type": "node", "id": 9674319521, "lat": 39.7453346, "lon": 19.9309382, "tags": {"amenity": "restaurant"}}, {"type": "node", "id": 9674319522, "lat": 39.7270946, "lon": 19.8989853, "tags": {"amenity": "restaurant", "cuisine": "greek;pizza", "name": "Music \u0397ouse", "website": "https://www.musichouse.gr/"}}, {"type": "node", "id": 9674319524, "lat": 39.7189182, "lon": 19.8680991, "tags": {"amenity": "restaurant"}}, {"type": "node", "id": 9674319817, "lat": 39.7895928, "lon": 19.9223787, "tags": {"amenity": "restaurant", "name:en": "Dolphins"}}, {"type": "node", "id": 9674320320, "lat": 39.7633274, "lon": 19.9327111, "tags": {"amenity": "cafe", "cuisine": "coffee_shop", "name:en": "Stoubilly"}}, {"type": "node", "id": 9674320519, "lat": 39.7288359, "lon": 19.9112195, "tags": {"amenity": "cafe"}}, {"type": "node", "id": 9674320619, "lat": 39.7186679, "lon": 19.8671601, "tags": {"amenity": "cafe", "cuisine": "coffee_shop", "name:en": "Coffee Lovers"}}, {"type": "node", "id": 9674320621, "lat": 39.7050715, "lon": 19.8427451, "tags": {"amenity": "restaurant"}}, {"type": "node", "id": 9674320921, "lat": 39.7196196, "lon": 19.869755, "tags": {"amenity": "restaurant"}}, {"type": "node", "id": 9674320922, "lat": 39.6979714, "lon": 19.8382427, "tags": {"amenity": "cafe"}}, {"type": "node", "id": 9674321117, "lat": 39.7062156, "lon": 19.8435979, "tags": {"amenity": "restaurant"}}, {"type": "node", "id": 9674321118, "lat": 39.6996397, "lon": 19.8391804, "tags": {"amenity": "restaurant"}}, {"type": "node", "id": 9674321122, "lat": 39.6474878, "lon": 19.8471612, "tags": {"amenity": "restaurant", "name": "Fish & Chips"}}, {"type": "node", "id": 9674321317, "lat": 39.691649, "lon": 19.8378825, "tags": {"amenity": "restaurant"}}, {"type": "node", "id": 9674321419, "lat": 39.6817624, "lon": 19.8374062, "tags": {"amenity": "restaurant"}}, {"type": "node", "id": 9779093631, "lat": 39.7248561, "lon": 20.0601261, "tags": {"amenity": "cafe"}}, {"type": "node", "id": 9811260761, "lat": 39.8726398, "lon": 19.9991149, "tags": {"amenity": "restaurant", "name": "Taverna Rustemi"}}, {"type": "node", "id": 9831246980, "lat": 39.7879172, "lon": 19.9208434, "tags": {"amenity": "restaurant", "name": "Mak Mak Bar"}}, {"type": "node", "id": 9831314930, "lat": 39.7893136, "lon": 19.9241216}, {"type": "node", "id": 9831314931, "lat": 39.7892861, "lon": 19.9241789}, {"type": "node", "id": 9831314932, "lat": 39.7891975, "lon": 19.9241069}, {"type": "node", "id": 9831314933, "lat": 39.789225, "lon": 19.9240497}, {"type": "node", "id": 9838385117, "lat": 39.9376181, "lon": 20.2674987, "tags": {"amenity": "cafe"}}, {"type": "node", "id": 9839717720, "lat": 39.787393, "lon": 19.920864, "tags": {"addr:city": "\u039a\u03b1\u03c3\u03c3\u03b9\u03cc\u03c0\u03b7", "amenity": "restaurant", "name": "Chez Moi"}}, {"type": "node", "id": 9839717733, "lat": 39.7886539, "lon": 19.9208199, "tags": {"addr:city": "\u039a\u03b1\u03c3\u03c3\u03b9\u03cc\u03c0\u03b7", "amenity": "restaurant", "name": "Yasemine"}}, {"type": "node", "id": 9839717756, "lat": 39.7888001, "lon": 19.9214634, "tags": {"amenity": "restaurant", "name": "The Orange Garden"}}, {"type": "node", "id": 9839717888, "lat": 39.7896485, "lon": 19.9231466, "tags": {"amenity": "restaurant", "name": "Harbour Bar"}}, {"type": "node", "id": 9841393894, "lat": 39.959322, "lon": 19.9620559, "tags": {"amenity": "restaurant"}}, {"type": "node", "id": 9939561593, "lat": 40.0396053, "lon": 19.8618953, "tags": {"amenity": "restaurant", "check_date": "2022-07-31", "diet:vegetarian": "yes", "name": "Bar Restorant Solarus"}}, {"type": "node", "id": 9940008997, "lat": 39.8713212, "lon": 19.9941489, "tags": {"addr:city": "Sarand\u00eb", "addr:postcode": "9701", "addr:street": "Walkway to the sea", "amenity": "restaurant", "cuisine": "italian;seafood;pasta;regional;mediterranean;chicken;meat", "description": "Hotel, Private Beach ,Restaurant, Cocktail bar,", "diet:fish": "yes", "diet:fruitarian": "yes", "diet:halal": "yes", "diet:healthy": "yes", "diet:meat": "yes", "diet:mediterranean": "yes", "diet:pescetarian": "yes", "diet:vegan": "yes", "diet:vegetarian": "yes", "indoor_seating": "no", "name": "COCKTAIL DREAMS", "opening_hours": "Mo-Su 07:00-00:00", "outdoor_seating": "yes", "phone": "+355 69 759 4356"}}, {"type": "node", "id": 9944902100, "lat": 40.081732, "lon": 20.1409652, "tags": {"amenity": "cafe", "internet_access": "wlan", "name": "Graci", "outdoor_seating": "yes"}}, {"type": "node", "id": 9944902114, "lat": 40.0825542, "lon": 20.1435273, "tags": {"amenity": "cafe", "name": "Iliria"}}, {"type": "node", "id": 9945148792, "lat": 40.0790268, "lon": 20.1378014, "tags": {"amenity": "cafe", "level": "0;1", "name": "Classic Coffee Bar", "opening_hours": "Mo-Su 07:00-00:00", "outdoor_seating": "yes", "phone": "+355693353313"}}, {"type": "node", "id": 9945572428, "lat": 40.083811, "lon": 20.1450185, "tags": {"amenity": "cafe", "outdoor_seating": "yes"}}, {"type": "node", "id": 9947265250, "lat": 40.0813738, "lon": 20.1396155, "tags": {"amenity": "cafe", "outdoor_seating": "yes"}}, {"type": "node", "id": 9947265264, "lat": 40.081156, "lon": 20.1400872, "tags": {"amenity": "cafe", "level": "1", "name": "Caramel", "opening_hours": "Mo-Su 07:00-00:00", "phone": "+355698886777", "wheelchair": "no"}}, {"type": "node", "id": 9947265266, "lat": 40.0789895, "lon": 20.1364428, "tags": {"amenity": "cafe", "level": "1", "wheelchair": "no"}}, {"type": "node", "id": 9947265275, "lat": 40.0808267, "lon": 20.1389385, "tags": {"amenity": "cafe", "outdoor_seating": "yes"}}, {"type": "node", "id": 9947265278, "lat": 40.0809873, "lon": 20.1392033, "tags": {"amenity": "restaurant", "cuisine": "pizza;regional;sandwich", "internet_access": "wlan", "name": "The First", "outdoor_seating": "yes", "wheelchair": "no"}}, {"type": "node", "id": 9949597344, "lat": 40.0801864, "lon": 20.1379506, "tags": {"amenity": "cafe", "outdoor_seating": "yes"}}, {"type": "node", "id": 9951260511, "lat": 40.0845085, "lon": 20.1452832, "tags": {"amenity": "cafe", "outdoor_seating": "yes"}}, {"type": "node", "id": 9954146103, "lat": 39.9474124, "lon": 20.0406229, "tags": {"amenity": "cafe", "outdoor_seating": "yes"}}, {"type": "node", "id": 9954734753, "lat": 39.8750314, "lon": 20.0088667, "tags": {"amenity": "cafe", "internet_access": "wlan", "name": "Time", "outdoor_seating": "yes"}}, {"type": "node", "id": 9956381310, "lat": 39.8726909, "lon": 20.0139144, "tags": {"amenity": "restaurant", "cuisine": "seafood", "name": "Nam", "outdoor_seating": "yes"}}, {"type": "node", "id": 9956851011, "lat": 39.652777, "lon": 19.8428506, "tags": {"amenity": "restaurant", "cuisine": "regional", "name": "Food for the Soul", "outdoor_seating": "yes"}}, {"type": "node", "id": 9958897733, "lat": 39.6468666, "lon": 19.8486412, "tags": {"amenity": "restaurant", "cuisine": "pizza", "delivery": "yes", "internet_access": "wlan", "name": "O Sole Mio", "outdoor_seating": "yes", "phone": "+30 2661 090316"}}, {"type": "node", "id": 9963597883, "lat": 40.0738731, "lon": 20.1379063, "tags": {"amenity": "cafe", "name": "Kub\u00e8"}}, {"type": "node", "id": 9964719145, "lat": 40.0740324, "lon": 20.138949, "tags": {"amenity": "restaurant", "name": "Edua"}}, {"type": "node", "id": 9998377317, "lat": 39.7660132, "lon": 19.9964117, "tags": {"addr:street": "Rruga Riviera", "amenity": "restaurant", "cuisine": "balkan", "name:en": "Paradise Beach Restaurant"}}, {"type": "node", "id": 10031396095, "lat": 39.7285801, "lon": 19.914113, "tags": {"amenity": "restaurant", "name": "Thalassa Sea Food Taverna"}}, {"type": "node", "id": 10031894717, "lat": 39.7684379, "lon": 19.99973, "tags": {"amenity": "restaurant", "check_date:opening_hours": "2024-05-05", "name": "good vibes only", "opening_hours:signed": "no"}}, {"type": "node", "id": 10034923417, "lat": 40.074053, "lon": 20.1389087, "tags": {"amenity": "restaurant", "name": "edua", "name:en": "edua Healthy shop & restaurant"}}, {"type": "node", "id": 10040200783, "lat": 39.8643431, "lon": 20.0173393, "tags": {"amenity": "restaurant", "name": "Ftelea"}}, {"type": "node", "id": 10040200784, "lat": 39.8641454, "lon": 20.0177309, "tags": {"amenity": "cafe", "name": "Dolce", "shop": "bakery"}}, {"type": "node", "id": 10053749317, "lat": 39.7901518, "lon": 19.7874568, "tags": {"amenity": "restaurant"}}, {"type": "node", "id": 10053751417, "lat": 39.7908963, "lon": 19.7870439, "tags": {"amenity": "restaurant", "cuisine": "greek;italian_pizza", "internet_access": "wlan", "name:en": "Petrino Steki"}}, {"type": "node", "id": 10054163617, "lat": 39.789145, "lon": 19.7925651, "tags": {"amenity": "restaurant", "name:en": "Valentinos Appartements"}}, {"type": "node", "id": 10054555617, "lat": 39.7903177, "lon": 19.7874056, "tags": {"amenity": "restaurant", "contact:facebook": "Agrilia", "contact:instagram": "Agrilia_Roda", "cuisine": "greek;grill", "name": "Agrilia", "phone": "+30 26630 63 822"}}, {"type": "node", "id": 10115835124, "lat": 40.0046199, "lon": 19.8918123, "tags": {"amenity": "restaurant", "name": "Bar Restaurant Bushi"}}, {"type": "node", "id": 10147097791, "lat": 39.7299184, "lon": 19.9179792}, {"type": "node", "id": 10147097792, "lat": 39.7299849, "lon": 19.9180712}, {"type": "node", "id": 10147097793, "lat": 39.7300407, "lon": 19.9180029}, {"type": "node", "id": 10147097794, "lat": 39.7299742, "lon": 19.917911}, {"type": "node", "id": 10172398343, "lat": 39.71775, "lon": 19.7919321}, {"type": "node", "id": 10172398344, "lat": 39.7177347, "lon": 19.7919948}, {"type": "node", "id": 10172398345, "lat": 39.7176864, "lon": 19.7919749}, {"type": "node", "id": 10172398346, "lat": 39.7177016, "lon": 19.7919153}, {"type": "node", "id": 10563405417, "lat": 39.7281483, "lon": 19.9133711}, {"type": "node", "id": 10563405418, "lat": 39.7280908, "lon": 19.9134308}, {"type": "node", "id": 10563405419, "lat": 39.7281427, "lon": 19.9135152}, {"type": "node", "id": 10563405420, "lat": 39.7282002, "lon": 19.9134555}, {"type": "node", "id": 10563405498, "lat": 39.7285761, "lon": 19.9140423}, {"type": "node", "id": 10563405499, "lat": 39.7286351, "lon": 19.9141104}, {"type": "node", "id": 10563405500, "lat": 39.728588, "lon": 19.9141793}, {"type": "node", "id": 10563405501, "lat": 39.728529, "lon": 19.9141112}, {"type": "node", "id": 10731251105, "lat": 39.8938707, "lon": 20.0697645, "tags": {"amenity": "restaurant", "name": "Kantina e Veres 'ISAK'", "website": "https://www.kantinaisak.com/"}}, {"type": "node", "id": 10837350705, "lat": 40.0796583, "lon": 20.1381578, "tags": {"amenity": "restaurant", "name": "Gatime tradicion", "name:en": "Gatime tradicional"}}, {"type": "node", "id": 10844620307, "lat": 39.8749996, "lon": 20.0083888, "tags": {"amenity": "cafe", "internet_access": "wlan", "name": "Caffe Bar Seven"}}, {"type": "node", "id": 10886888598, "lat": 39.7668187, "lon": 19.9478632, "tags": {"amenity": "restaurant", "name": "Taverna Galim"}}, {"type": "node", "id": 10887642659, "lat": 39.7667201, "lon": 19.9476256, "tags": {"amenity": "restaurant", "name": "The Greek Taverna \"to Fagopotion\"", "phone": "2663082020"}}, {"type": "node", "id": 10902088957, "lat": 39.65101, "lon": 19.8605332, "tags": {"amenity": "restaurant", "bar": "*", "name": "Natalie"}}, {"type": "node", "id": 10926185101, "lat": 39.860844, "lon": 20.0189625, "tags": {"addr:street": "Rruga Butrinti", "amenity": "restaurant", "cuisine": "mediterranean;italian;pizza;seafood", "diet:mediterranean": "yes", "name": "Saranda Restorant", "phone": "+355605637431", "website": "https://www.tripadvisor.com/Restaurant_Review-g303165-d25942024-Reviews-Saranda_Restorant-Saranda_Vlore_County.html"}}, {"type": "node", "id": 10977561305, "lat": 40.0739368, "lon": 20.1390125, "tags": {"addr:postcode": "6000", "addr:street": "Rruga Gjin Bue Shpata", "amenity": "restaurant", "name:es": "Vojsava Restaurant"}}, {"type": "node", "id": 11035299335, "lat": 40.0711979, "lon": 20.1370381, "tags": {"amenity": "restaurant", "cuisine": "regional", "diet:vegetarian": "yes", "indoor_seating": "yes", "name": "Taverna lani", "outdoor_seating": "yes"}}, {"type": "node", "id": 11044506031, "lat": 39.8658207, "lon": 20.025562, "tags": {"amenity": "restaurant"}}, {"type": "node", "id": 11044574891, "lat": 39.8028375, "lon": 20.0041747}, {"type": "node", "id": 11044574892, "lat": 39.8027295, "lon": 20.0040818}, {"type": "node", "id": 11044574893, "lat": 39.8027062, "lon": 20.0041753}, {"type": "node", "id": 11044574894, "lat": 39.8028074, "lon": 20.0042468}, {"type": "node", "id": 11044574895, "lat": 39.8026614, "lon": 20.0040005}, {"type": "node", "id": 11044574896, "lat": 39.8025874, "lon": 20.0039542}, {"type": "node", "id": 11044574897, "lat": 39.8025463, "lon": 20.0040033}, {"type": "node", "id": 11044574898, "lat": 39.8026182, "lon": 20.0040691}, {"type": "node", "id": 11050558313, "lat": 39.7911901, "lon": 19.922322, "tags": {"amenity": "restaurant", "cuisine": "burger;greek", "name": "Limani", "outdoor_seating": "yes"}}, {"type": "node", "id": 11070662907, "lat": 39.8096685, "lon": 20.0123966, "tags": {"amenity": "restaurant", "cuisine": "fish", "name": "King Mussel Taverna", "opening_hours": "Mo-Sa 13:00-21:00", "payment:cash": "yes", "payment:coins": "yes", "payment:contactless": "no", "payment:credit_cards": "no", "payment:debit_cards": "no", "payment:maestro": "no", "payment:mastercard": "no", "payment:notes": "yes", "payment:visa": "no", "toilets": "yes"}}, {"type": "node", "id": 11083554707, "lat": 40.0707244, "lon": 20.1370151, "tags": {"amenity": "restaurant", "name": "Taverna Brahimi"}}, {"type": "node", "id": 11113412012, "lat": 40.0576937, "lon": 19.8280654, "tags": {"amenity": "restaurant", "name": "Taverna Dhrami"}}, {"type": "node", "id": 11149863191, "lat": 40.0853947, "lon": 20.142736, "tags": {"addr:city": "Gjirokast\u00ebr", "addr:postcode": "6001", "addr:street": "Rruga Javer Rushiti", "amenity": "restaurant", "cuisine": "regional", "name": "Restorant Tradita", "opening_hours": "24/7", "phone": "+355685002525"}}, {"type": "node", "id": 11154292305, "lat": 40.053204, "lon": 19.8225126, "tags": {"amenity": "restaurant", "name:en": "Super Paradise Qeparo"}}, {"type": "node", "id": 11154425605, "lat": 40.0521381, "lon": 19.8295496, "tags": {"amenity": "restaurant", "name": "Te Stefi Restaurant & Piceri"}}, {"type": "node", "id": 11175458137, "lat": 40.0524162, "lon": 19.8142742, "tags": {"amenity": "restaurant", "cuisine": "fish;friture;greek;grill;mediterranean;seafood", "name:en": "Kantina George"}}, {"type": "node", "id": 11175462737, "lat": 40.0577081, "lon": 19.8227948, "tags": {"addr:street": "Rruga Persefoni Kokedhima", "amenity": "restaurant", "cuisine": "international;seafood", "diet:vegetarian": "yes", "name": "Sur", "name:en": "SUR", "name:sq": "SUR"}}, {"type": "node", "id": 11175465138, "lat": 40.0568173, "lon": 19.8031737, "tags": {"amenity": "restaurant", "cuisine": "seafood", "diet:vegetarian": "yes", "name": "Nemo"}}, {"type": "node", "id": 11175477637, "lat": 40.0685521, "lon": 19.8263074, "tags": {"amenity": "restaurant", "name": "Te Rrapi i Veronik\u00ebs", "name:en": "At Veronika's"}}, {"type": "node", "id": 11209949538, "lat": 39.7686433, "lon": 19.9939013, "tags": {"amenity": "restaurant", "internet_access": "wlan", "name": "Maestro Beach"}}, {"type": "node", "id": 11255272637, "lat": 40.074126, "lon": 20.1383506, "tags": {"amenity": "cafe", "internet_access": "wlan", "name:en": "Bar Kafe Kotoni"}}, {"type": "node", "id": 11307852581, "lat": 39.8710586, "lon": 20.0001421, "tags": {"amenity": "cafe"}}, {"type": "node", "id": 11358542036, "lat": 39.8743086, "lon": 20.008367, "tags": {"amenity": "restaurant", "cuisine": "pasta", "name": "Pastaria"}}, {"type": "node", "id": 11367989469, "lat": 39.7691683, "lon": 20.0035475, "tags": {"amenity": "restaurant", "name:en": "Papu Gyros"}}, {"type": "node", "id": 11367989569, "lat": 39.7698759, "lon": 20.0001456, "tags": {"amenity": "restaurant", "name:en": "Vamosksamil"}}, {"type": "node", "id": 11367989669, "lat": 39.7739495, "lon": 20.0020695, "tags": {"amenity": "restaurant", "name:en": "Ostro Beach Bar & Restaurant"}}, {"type": "node", "id": 11556899549, "lat": 39.7720424, "lon": 20.0044883}, {"type": "node", "id": 11556899550, "lat": 39.7720204, "lon": 20.0042698}, {"type": "node", "id": 11556914558, "lat": 39.7687638, "lon": 20.003441}, {"type": "node", "id": 11556914559, "lat": 39.768727, "lon": 20.0036187}, {"type": "node", "id": 11556914577, "lat": 39.7681662, "lon": 20.0029688}, {"type": "node", "id": 11556914578, "lat": 39.7681941, "lon": 20.0028873}, {"type": "node", "id": 11753867369, "lat": 39.8016565, "lon": 20.0061453, "tags": {"addr:postcode": "9703", "amenity": "restaurant", "brewery": "no", "capacity": "30", "check_date": "2024-03-24", "cuisine": "coffee_shop;local;regional;tea", "diet:fresh": "yes", "diet:local": "yes", "diet:meat": "yes", "diet:mediterranean": "yes", "diet:organic": "yes", "diet:seasonal": "yes", "diet:vegetarian": "yes", "internet_access": "wlan", "internet_access:fee": "no", "name": "Eni Restaurant", "name:de": "Eni Restaurant", "name:en": "Eni Restaurant", "name:sq": "Eni Restaurant", "outdoor_seating": "yes", "payment:cards": "no", "payment:cash": "yes", "payment:credit_cards": "no", "payment:debit_cards": "no", "source": "survey", "toilets": "yes", "toilets:wheelchair": "no", "wheelchair": "no"}}, {"type": "node", "id": 11782567909, "lat": 39.7174159, "lon": 19.8686067}, {"type": "node", "id": 11782567910, "lat": 39.7173115, "lon": 19.8687331}, {"type": "node", "id": 11782567911, "lat": 39.7172067, "lon": 19.8685869}, {"type": "node", "id": 11782567912, "lat": 39.7173111, "lon": 19.8684605}, {"type": "node", "id": 11782567923, "lat": 39.7187945, "lon": 19.8704352}, {"type": "node", "id": 11782567924, "lat": 39.7188289, "lon": 19.8704891}, {"type": "node", "id": 11782567925, "lat": 39.71887, "lon": 19.8704507}, {"type": "node", "id": 11782567926, "lat": 39.7189067, "lon": 19.870505}, {"type": "node", "id": 11782567927, "lat": 39.7187768, "lon": 19.870661}, {"type": "node", "id": 11782567928, "lat": 39.7187569, "lon": 19.8706289}, {"type": "node", "id": 11782567929, "lat": 39.7187338, "lon": 19.8706548}, {"type": "node", "id": 11782567930, "lat": 39.7186616, "lon": 19.8705383}, {"type": "node", "id": 11782567931, "lat": 39.7187175, "lon": 19.8704716}, {"type": "node", "id": 11782567932, "lat": 39.7187438, "lon": 19.8704917}, {"type": "node", "id": 11847161969, "lat": 39.8739863, "lon": 20.0142938, "tags": {"amenity": "cafe", "name": "Paradiso Kafe"}}, {"type": "node", "id": 11865884670, "lat": 39.8718274, "lon": 20.136873, "tags": {"amenity": "restaurant", "cuisine": "balkan;chicken;grill;mediterranean", "diet:vegetarian": "yes", "name": "Ramos Farm", "name:en": "Tamo's Farm", "name:sq": "Tamo's Farm"}}, {"type": "node", "id": 11903057536, "lat": 39.766632, "lon": 19.947305}, {"type": "node", "id": 11903057537, "lat": 39.7665393, "lon": 19.9475584}, {"type": "node", "id": 11903057538, "lat": 39.7664538, "lon": 19.9475185}, {"type": "node", "id": 11903057539, "lat": 39.7665279, "lon": 19.9472366}, {"type": "node", "id": 11932692888, "lat": 39.8748874, "lon": 19.9891429, "tags": {"amenity": "restaurant", "cuisine": "seafood", "indoor_seating": "yes", "name": "Markata Don Peshk", "outdoor_seating": "yes"}}, {"type": "node", "id": 11932702489, "lat": 39.8749555, "lon": 19.9879883, "tags": {"amenity": "restaurant", "cuisine": "barbecue", "indoor_seating": "yes", "name": "La Vista del Marine", "outdoor_seating": "yes"}}, {"type": "node", "id": 11939299712, "lat": 39.7245621, "lon": 19.895594, "tags": {"amenity": "restaurant", "cuisine": "greek", "name": "Nissali Sea View", "website": "https://www.nissakiseaview.gr/"}}, {"type": "node", "id": 11951407677, "lat": 39.9370321, "lon": 20.268658, "tags": {"amenity": "restaurant", "building": "yes", "cuisine": "greek", "diet:fruitarian": "no", "diet:lacto_vegetarian": "no", "diet:ovo_vegetarian": "no", "diet:pescetarian": "no", "diet:raw": "no", "diet:vegan": "no", "diet:vegetarian": "no", "name": "Qiro", "outdoor_seating": "yes", "smoking": "outside", "wheelchair": "limited"}}, {"type": "node", "id": 11978882767, "lat": 39.8739281, "lon": 20.0072555, "tags": {"addr:city": "Sarand\u00eb", "addr:street": "Rruga Ismail Tatzati", "amenity": "restaurant", "name": "La banana", "opening_hours": "Mo-Su 08:30-24:00", "phone": "+355 698 490 419"}}, {"type": "node", "id": 11983502370, "lat": 39.8741823, "lon": 20.0074834, "tags": {"amenity": "restaurant", "name": "Balbi 34"}}, {"type": "node", "id": 11985732777, "lat": 39.6846382, "lon": 19.840717, "tags": {"amenity": "cafe", "check_date": "2024-06-16", "name": "Limun \u017eut"}}, {"type": "node", "id": 11987525224, "lat": 39.685171, "lon": 19.8380364, "tags": {"amenity": "cafe", "check_date": "2024-06-17", "cuisine": "coffee_shop", "name": "Coffeeboss"}}, {"type": "node", "id": 11987896249, "lat": 39.6873827, "lon": 19.8382302, "tags": {"amenity": "restaurant", "check_date": "2024-06-17", "cuisine": "pizza", "name": "Angelo's"}}, {"type": "node", "id": 11988007154, "lat": 39.6852015, "lon": 19.8412914, "tags": {"amenity": "restaurant", "check_date": "2024-06-18", "name": "Karda Camp Restaurant", "opening_hours": "09:00-21:00"}}, {"type": "node", "id": 12009616934, "lat": 39.6969173, "lon": 19.8380012, "tags": {"amenity": "restaurant", "check_date": "2024-06-25", "cuisine": "pizza", "name": "Mamma Rosa"}}, {"type": "node", "id": 12009616936, "lat": 39.6964942, "lon": 19.8379395, "tags": {"amenity": "restaurant", "check_date": "2024-06-25", "cuisine": "greek", "name": "Keken"}}, {"type": "node", "id": 12010056331, "lat": 39.687211, "lon": 19.843285, "tags": {"amenity": "restaurant", "check_date": "2024-06-25", "name": "Fresco"}}, {"type": "node", "id": 12010056334, "lat": 39.6885121, "lon": 19.8460056, "tags": {"amenity": "restaurant", "check_date": "2024-06-25", "name": "Oliva"}}, {"type": "node", "id": 12010056335, "lat": 39.6875104, "lon": 19.8476579, "tags": {"amenity": "restaurant", "check_date": "2024-06-25", "name": "Elia"}}, {"type": "node", "id": 12049483766, "lat": 39.7554671, "lon": 19.785405, "tags": {"amenity": "restaurant", "cuisine": "greek", "name": "\u039d\u03c4\u03ac\u03b3\u03b1\u03c2 \u0393\u03b5\u03cd\u03c3\u03b5\u03b9\u03c2", "name:el": "\u039d\u03c4\u03ac\u03b3\u03b1\u03c2 \u0393\u03b5\u03cd\u03c3\u03b5\u03b9\u03c2", "name:en": "Ntagas"}}, {"type": "node", "id": 12057119089, "lat": 39.7565545, "lon": 20.0491974, "tags": {"amenity": "restaurant", "name": "Green Lake Kalivoj", "phone": "+355686047207"}}, {"type": "node", "id": 12057201506, "lat": 39.755575, "lon": 19.7825674, "tags": {"amenity": "cafe", "name": "\u03a0\u03b1\u03c1\u03b1\u03b4\u03bf\u03c3\u03b9\u03b1\u03ba\u03cc \u039a\u03b1\u03c6\u03b5\u03bd\u03b5\u03af\u03bf \u03a4\u03bf \u039c\u03c0\u03bf\u03c4\u03c3\u03bf\u03bb\u03bf"}}, {"type": "node", "id": 12073014456, "lat": 39.7950697, "lon": 19.7816482}, {"type": "node", "id": 12073014457, "lat": 39.7949512, "lon": 19.781612}, {"type": "node", "id": 12073014458, "lat": 39.7949368, "lon": 19.7815932}, {"type": "node", "id": 12073014459, "lat": 39.7951305, "lon": 19.7815704}, {"type": "node", "id": 12073014460, "lat": 39.7952181, "lon": 19.781675}, {"type": "node", "id": 12073014461, "lat": 39.7950888, "lon": 19.7818528}, {"type": "node", "id": 12073014462, "lat": 39.7949054, "lon": 19.7816348}, {"type": "node", "id": 12073014463, "lat": 39.7949935, "lon": 19.7815496}, {"type": "node", "id": 12073058326, "lat": 39.9878708, "lon": 20.2656069}, {"type": "node", "id": 12073058327, "lat": 39.9878881, "lon": 20.2656745}, {"type": "node", "id": 12073058328, "lat": 39.9879684, "lon": 20.2656039}, {"type": "node", "id": 12073058329, "lat": 39.9879925, "lon": 20.2656167}, {"type": "node", "id": 12073058330, "lat": 39.9880202, "lon": 20.2655795}, {"type": "node", "id": 12073058331, "lat": 39.988024, "lon": 20.265551}, {"type": "node", "id": 12073058332, "lat": 39.9880998, "lon": 20.2654854}, {"type": "node", "id": 12073058333, "lat": 39.9880803, "lon": 20.2654061}, {"type": "node", "id": 12078776832, "lat": 39.8710963, "lon": 20.0022639, "tags": {"amenity": "restaurant", "check_date": "2024-07-28", "indoor_seating": "yes", "name": "Mano", "outdoor_seating": "yes"}}, {"type": "node", "id": 12100236501, "lat": 40.0752975, "lon": 20.1389024, "tags": {"addr:street": "Rruga Alqi Kondi", "amenity": "restaurant", "cuisine": "balkan;chicken;fish;local;pasta;steak_house;turkish", "name": "Bon Appetit", "opening_hours": "Mo-Su 11:30-23:30", "phone": "068 410 3996", "website": "https://bonappetit.al/", "website:menu": "https://menu.bonappetit.al/"}}, {"type": "node", "id": 12101455897, "lat": 40.031859, "lon": 20.2625856, "tags": {"amenity": "restaurant"}}, {"type": "node", "id": 12117224492, "lat": 40.0532215, "lon": 19.8234969, "tags": {"air_conditioning": "no", "amenity": "restaurant", "name": "Jo&Jo Street Food", "outdoor_seating": "yes"}}, {"type": "node", "id": 12123704287, "lat": 39.7450378, "lon": 19.8186928}, {"type": "node", "id": 12123704288, "lat": 39.7450384, "lon": 19.818788}, {"type": "node", "id": 12123704289, "lat": 39.7449314, "lon": 19.8188095}, {"type": "node", "id": 12123704290, "lat": 39.7448728, "lon": 19.8187844}, {"type": "node", "id": 12123704291, "lat": 39.7448527, "lon": 19.8188221}, {"type": "node", "id": 12123704292, "lat": 39.7447803, "lon": 19.8187799}, {"type": "node", "id": 12123704293, "lat": 39.7448017, "lon": 19.8186731}, {"type": "node", "id": 12123704294, "lat": 39.7448452, "lon": 19.8186784}, {"type": "node", "id": 12123704295, "lat": 39.7449508, "lon": 19.8186802}, {"type": "node", "id": 12142895565, "lat": 39.6635209, "lon": 19.8449151}, {"type": "node", "id": 12142895570, "lat": 39.6633656, "lon": 19.8450328}, {"type": "node", "id": 12142895575, "lat": 39.6634299, "lon": 19.8449187}, {"type": "node", "id": 12142895589, "lat": 39.6634518, "lon": 19.8449666}, {"type": "node", "id": 12142910301, "lat": 39.663575, "lon": 19.8448733}, {"type": "node", "id": 12142910312, "lat": 39.6636354, "lon": 19.8451668}, {"type": "node", "id": 12142910315, "lat": 39.6635516, "lon": 19.8448231}, {"type": "node", "id": 12142910320, "lat": 39.6634806, "lon": 19.8452857}, {"type": "node", "id": 12144132520, "lat": 40.0497351, "lon": 19.8505769}, {"type": "node", "id": 12144132521, "lat": 40.049636, "lon": 19.8505069}, {"type": "node", "id": 12144132522, "lat": 40.049548, "lon": 19.8507193}, {"type": "node", "id": 12144132523, "lat": 40.0496471, "lon": 19.8507894}, {"type": "node", "id": 12147802746, "lat": 40.0743259, "lon": 20.1387162, "tags": {"amenity": "cafe", "check_date": "2024-08-31"}}, {"type": "node", "id": 12149524991, "lat": 39.6634356, "lon": 19.844931}, {"type": "node", "id": 12149539589, "lat": 39.6635495, "lon": 19.8448932, "tags": {"entrance": "yes"}}, {"type": "node", "id": 12149539593, "lat": 39.6635659, "lon": 19.8448805, "tags": {"entrance": "yes"}}, {"type": "node", "id": 12151393031, "lat": 39.7116635, "lon": 20.0851134, "tags": {"amenity": "restaurant", "name": "Ulu"}}, {"type": "node", "id": 12155861437, "lat": 39.7018217, "lon": 19.8405297, "tags": {"amenity": "restaurant", "check_date": "2024-09-04", "cuisine": "pizza", "name": "Bella Napoli"}}, {"type": "node", "id": 12157784835, "lat": 39.6526819, "lon": 19.8434607}, {"type": "node", "id": 12157784836, "lat": 39.6526866, "lon": 19.8437962}, {"type": "node", "id": 12157784837, "lat": 39.6525387, "lon": 19.8438164}, {"type": "node", "id": 12157784838, "lat": 39.6525418, "lon": 19.8436871}, {"type": "node", "id": 12157784839, "lat": 39.6526134, "lon": 19.843681}, {"type": "node", "id": 12157784840, "lat": 39.6525932, "lon": 19.843495}, {"type": "node", "id": 12179531327, "lat": 39.647873, "lon": 19.8547688, "tags": {"amenity": "restaurant"}}, {"type": "node", "id": 12179537503, "lat": 39.647923, "lon": 19.8548652, "tags": {"amenity": "restaurant", "name": "Olympia Mare"}}, {"type": "node", "id": 12179551555, "lat": 39.6471232, "lon": 19.8538161, "tags": {"amenity": "cafe", "name": "Caf\u00e9 Maistro"}}, {"type": "node", "id": 12230269489, "lat": 39.7907753, "lon": 19.7890243, "tags": {"amenity": "restaurant", "cuisine": "seafood;sandwich;coffee_shop;local", "internet_access": "wlan", "name": "La Luz"}}, {"type": "node", "id": 12230269490, "lat": 39.7907233, "lon": 19.7892013, "tags": {"amenity": "restaurant", "cuisine": "seafood;greek;grill", "name": "New Port"}}, {"type": "node", "id": 12230269491, "lat": 39.7907346, "lon": 19.7890833, "tags": {"amenity": "restaurant", "name": "\u03a0\u03b1\u03bb\u03b9\u03cc \u03a3\u03c0\u03af\u03c4\u03b9", "name:el": "\u03a0\u03b1\u03bb\u03b9\u03cc \u03a3\u03c0\u03af\u03c4\u03b9", "name:en": "Old House"}}, {"type": "node", "id": 12231458275, "lat": 39.7694188, "lon": 20.0001953}, {"type": "node", "id": 12234825779, "lat": 39.7690724, "lon": 20.0019957}, {"type": "node", "id": 12234825780, "lat": 39.7689395, "lon": 20.0019287}, {"type": "node", "id": 12234825817, "lat": 39.7687373, "lon": 20.0021417}, {"type": "node", "id": 12249090791, "lat": 39.8691488, "lon": 20.0011872, "tags": {"amenity": "restaurant", "name": "Black Marlin"}}, {"type": "node", "id": 12249112711, "lat": 39.8690709, "lon": 20.0014794, "tags": {"amenity": "restaurant", "name": "Pizzeria Maria Magdalena"}}, {"type": "node", "id": 12309328601, "lat": 40.0164812, "lon": 19.8922974, "tags": {"amenity": "cafe"}}, {"type": "node", "id": 12606894501, "lat": 39.8885925, "lon": 20.1358175, "tags": {"amenity": "restaurant", "cuisine": "greek", "name": "Aybena Cafe & Restaurant"}}, {"type": "node", "id": 12638858108, "lat": 39.6524842, "lon": 19.8420499, "tags": {"amenity": "restaurant", "branch": "Gouvia", "cuisine": "indian", "diet:gluten_free": "yes", "diet:vegan": "yes", "diet:vegetarian": "yes", "name": "Red Chilli", "opening_hours": "Mar07-Dec03 13:00-00:30", "phone": "+30 26630 63669", "website": "http://indianrestaurantcorfu.com/"}}, {"type": "node", "id": 12691411401, "lat": 40.0740845, "lon": 20.1386297, "tags": {"amenity": "restaurant", "name:en": "Furra Restaurant"}}, {"type": "node", "id": 12696895301, "lat": 40.0739188, "lon": 20.1389802, "tags": {"amenity": "restaurant", "name:en": "Bar restaurant Vojsava"}}, {"type": "node", "id": 12778488612, "lat": 39.8739539, "lon": 19.9930707, "tags": {"amenity": "restaurant", "cuisine": "Albanian", "fixme": "Freeform tag `cuisine` used, to be doublechecked", "indoor_seating": "yes", "level": "0", "name": "Kreka", "outdoor_seating": "yes", "payment:cards": "no", "payment:cash": "yes", "payment:qr_code": "no", "phone": "+355696217395", "service:electricity": "limited"}}, {"type": "node", "id": 12782487170, "lat": 39.8713361, "lon": 20.0157362, "tags": {"amenity": "cafe", "name": "Vista Verde"}}, {"type": "node", "id": 12782488278, "lat": 39.8712428, "lon": 20.0158309, "tags": {"amenity": "restaurant", "name": "Olive Tree"}}, {"type": "node", "id": 12791773301, "lat": 39.8759802, "lon": 20.0041295, "tags": {"addr:street": "Adem Sheme", "amenity": "restaurant", "name": "Taverna Ftelea Fish"}}, {"type": "node", "id": 12849379724, "lat": 40.0680876, "lon": 20.1367938, "tags": {"addr:street": "Rruga Bule Naipi", "amenity": "restaurant", "name": "Restaurant", "opening_hours": "Tu-Su 11:00-22:00"}}, {"type": "node", "id": 12883847201, "lat": 39.7722359, "lon": 20.0052007, "tags": {"amenity": "restaurant", "cuisine": "balkan;barbecue;breakfast;burger;coffee_shop;crepe;grill", "name": "El Gusto"}}, {"type": "node", "id": 12887353402, "lat": 39.767265, "lon": 20.002376, "tags": {"addr:postcode": "9706", "addr:street": "Rruga Sotira", "amenity": "restaurant", "cuisine": "grill", "name": "Rrapa's Grill Station", "opening_hours": "Su-Fr 10:00-23:00; Sa 10:00-23:30", "outdoor_seating": "yes", "phone": "+355 69 462 6881", "self_service": "no"}}, {"type": "node", "id": 12889027601, "lat": 39.770283, "lon": 20.0001246, "tags": {"addr:postcode": "9706", "addr:street": "Rruga Isdora Dunkan", "amenity": "restaurant", "name": "WG Restaurant Ksamil", "opening_hours": "Mo-Su 08:00-23:30", "outdoor_seating": "yes", "phone": "+355 69 695 5883", "self_service": "no", "website": "https://myqrcode.mobi/qr/ae4e40d6/view"}}, {"type": "node", "id": 12905959742, "lat": 39.877399, "lon": 20.0110991, "tags": {"amenity": "restaurant", "name": "Fish Bar"}}, {"type": "way", "id": 93260778, "nodes": [1081023639, 1081023609, 1081023611, 1081023660, 1081023604, 1081023644, 1081023587, 1081023623, 1081023648, 1081023614, 1081023620, 1081023626, 1081023639], "tags": {"amenity": "restaurant", "building": "yes", "cuisine": "greek", "name": "Taverne Georges"}}, {"type": "way", "id": 93266114, "nodes": [1081097923, 1081097930, 1081098174, 1081097643, 1081023665, 1081023597, 1081023637, 1081097916, 1081097923], "tags": {"amenity": "restaurant", "building": "yes", "cuisine": "greek", "name": "Avra", "tourism": "chalet", "website": "https://www.corfunorth.com/"}}, {"type": "way", "id": 93266122, "nodes": [1081097844, 1081098228, 1081098264, 1081097624, 1081097877, 1081097689, 1081097986, 1081098090, 1081097844], "tags": {"amenity": "restaurant", "building": "yes", "name": "Taverne Sunset"}}, {"type": "way", "id": 93887459, "nodes": [1091422419, 1091417989, 1091422482, 1091420067, 1091422419], "tags": {"amenity": "restaurant", "building": "yes", "cuisine": "greek", "name": "Nikolas"}}, {"type": "way", "id": 93887472, "nodes": [1091419238, 1091417072, 1091420983, 1091418213, 1091419238], "tags": {"amenity": "cafe", "building": "yes", "cuisine": "ice_cream", "name": "Ice Dream"}}, {"type": "way", "id": 93887499, "nodes": [1091419978, 1091421964, 1091419532, 1091417133, 1091419978], "tags": {"amenity": "restaurant", "building": "yes", "cuisine": "greek", "name": "Kalamaki Restaurant"}}, {"type": "way", "id": 107905332, "nodes": [1239229025, 2925080682, 2925080684, 2925080685, 2925080683, 1239229053, 1239229036, 1239229065, 1239229025], "tags": {"amenity": "cafe", "internet_access": "wlan"}}, {"type": "way", "id": 113750332, "nodes": [1289494695, 1289494706, 1289494487, 1289494475, 1289494279, 1289494539, 1289494695], "tags": {"amenity": "restaurant", "building": "yes", "cuisine": "burger;pizza", "name": "Kommeno Bay Bar Caf\u00e9", "opening_hours": "09:00-20:00", "outdoor_seating": "yes"}}, {"type": "way", "id": 149674203, "nodes": [1626171387, 1626171208, 1626171052, 1626171209, 1626171387], "tags": {"amenity": "restaurant", "building": "yes", "name": "Thomas' Place"}}, {"type": "way", "id": 151833460, "nodes": [1646778987, 1646779289, 1646779032, 1646778394, 1646778436, 1646779454, 1646778987], "tags": {"amenity": "cafe", "building": "yes"}}, {"type": "way", "id": 151833480, "nodes": [1646778482, 1646778926, 1646779425, 1646778672, 1646778967, 1646778482], "tags": {"amenity": "restaurant", "building": "yes", "name": "Roxannes"}}, {"type": "way", "id": 156237088, "nodes": [1685025676, 1685024921, 1685025899, 1685025045, 1685024918, 1685024943, 1685025095, 1685025676], "tags": {"amenity": "cafe", "building": "yes"}}, {"type": "way", "id": 156237106, "nodes": [1685024904, 1685025821, 1685025769, 1685025055, 1685024904], "tags": {"amenity": "restaurant", "building": "yes", "name": "New Port"}}, {"type": "way", "id": 197076689, "nodes": [2073741685, 2073741688, 2073741681, 2073741679, 2073741685], "tags": {"amenity": "restaurant", "bar": "yes", "building": "yes", "check_date": "2024-09-03", "cuisine": "fish", "diet:vegetarian": "yes", "name": "Sur", "outdoor_seating": "yes", "smoking": "outside", "source": "survey", "takeaway": "yes", "toilets": "yes", "wheelchair": "no"}}, {"type": "way", "id": 288970138, "nodes": [2925167767, 2925167770, 2925167766, 2925167765, 2925167767], "tags": {"amenity": "restaurant", "building": "yes", "name": "Ginger Cocktail", "outdoor_seating": "no"}}, {"type": "way", "id": 307262162, "nodes": [3123556115, 3123556116, 3123556117, 3123556118, 3123556119, 3123556120, 3123556115], "tags": {"amenity": "restaurant", "building": "yes", "name": "Castle Bar&Restaurant", "name:en": "Hotel-Restaurant Castle", "name:sq": "Hotel-Restaurant Castle", "website": "https://hotelcastle.al/"}}, {"type": "way", "id": 307262164, "nodes": [3123556119, 3123556118, 3123556123, 3123556124, 3123556125, 3123556119], "tags": {"addr:street": "Rruga Riviera", "amenity": "restaurant", "building": "yes", "name": "Bella Vista", "phone": "+355 69 862 3379"}}, {"type": "way", "id": 336612923, "nodes": [3436558992, 3436558971, 3436558924, 3436558950, 6660483347, 6660483349, 3436558992], "tags": {"addr:city": "Borsh", "addr:street": "Rruga Plazhi", "amenity": "restaurant", "building": "yes", "name": "Elisabeta Hotel & Restaurant's", "source": "Bing"}}, {"type": "way", "id": 397927793, "nodes": [4007019497, 4007019498, 4007019499, 4007019500, 4007019497], "tags": {"amenity": "cafe", "building": "yes", "name": "Babameto 2"}}, {"type": "way", "id": 397964092, "nodes": [4007359481, 4007359482, 4007359483, 4007359484, 4007359485, 4007359486, 4007359487, 4007359488, 4007360889, 4007359481], "tags": {"addr:street": "Sheshi \u00c7er\u00e7iz Topulli", "amenity": "restaurant", "building": "yes", "cuisine": "local;regional", "name": "Corner of Bazaar", "opening_hours": "Mo-Su 10:00-23:00"}}, {"type": "way", "id": 397964093, "nodes": [4007360890, 4007360891, 4007360892, 4007360893, 4007360890], "tags": {"amenity": "restaurant", "building": "yes"}}, {"type": "way", "id": 397964322, "nodes": [4007363189, 4007363190, 4007363191, 4007363192, 4007363189], "tags": {"amenity": "cafe", "building": "yes", "name": "Qoshea"}}, {"type": "way", "id": 397969309, "nodes": [4007407102, 4007407103, 4007406560, 4007407104, 4007407102], "tags": {"amenity": "restaurant", "building": "yes", "name": "Fantasy"}}, {"type": "way", "id": 436073991, "nodes": [4339537163, 4339537164, 4339537165, 4339537166, 4339537163], "tags": {"amenity": "cafe", "building": "yes", "check_date": "2024-03-25"}}, {"type": "way", "id": 436080425, "nodes": [4339590341, 4339590342, 4339590343, 4339590344, 4339590341], "tags": {"amenity": "restaurant", "building": "yes", "name": "Rivas"}}, {"type": "way", "id": 436080434, "nodes": [6343779221, 4339590380, 4339590381, 12234825817, 6343779221], "tags": {"amenity": "cafe", "building": "yes", "name": "Bar Vela"}}, {"type": "way", "id": 436147519, "nodes": [4345669221, 4345669224, 6343783859, 4340258778, 4340258779, 4345669221], "tags": {"amenity": "restaurant", "building": "yes"}}, {"type": "way", "id": 436201843, "nodes": [4340785542, 4340785543, 4340785544, 4340785545, 4340785542], "tags": {"amenity": "cafe", "building": "yes", "name": "Kancelari Mondi"}}, {"type": "way", "id": 436201862, "nodes": [4340786130, 4340786126, 4340786127, 11556914578, 11556914577, 4340786133, 4340786130], "tags": {"amenity": "restaurant", "building": "yes", "name": "Crepes Pallacinka"}}, {"type": "way", "id": 436207082, "nodes": [4340834156, 4340834157, 6335442696, 6335442700, 4340834158, 6335442699, 6335442698, 6335442697, 4340834156], "tags": {"amenity": "restaurant", "building": "yes", "internet_access": "wlan", "name": "Guvat"}}, {"type": "way", "id": 436687116, "nodes": [4345669221, 6343766118, 6343766117, 4345669224, 4345669221], "tags": {"amenity": "restaurant", "building": "yes", "name": "Gostivari"}}, {"type": "way", "id": 437119565, "nodes": [4340786097, 11556914558, 11556914559, 4340786096, 4340786097], "tags": {"amenity": "restaurant", "building": "yes", "cuisine": "pizza", "name": "Pizza Ihlas"}}, {"type": "way", "id": 437119576, "nodes": [11556899549, 11556899550, 4349481533, 4349481534, 11556899549], "tags": {"amenity": "restaurant", "building": "yes", "cuisine": "pizza", "name": "Pizza Deti Jon"}}, {"type": "way", "id": 437123961, "nodes": [4349504859, 4349504860, 4349504861, 4349504862, 4349504863, 4349504864, 4349504865, 4349504866, 4349504859], "tags": {"amenity": "restaurant", "building": "yes", "name": "Jimmy Blue Eyes"}}, {"type": "way", "id": 437127339, "nodes": [4349533650, 4349533651, 4349533652, 4349533653, 4349533650], "tags": {"amenity": "restaurant", "building": "yes", "cuisine": "pizza", "name": "Pizza Malasi"}}, {"type": "way", "id": 438521951, "nodes": [4362590364, 4362590365, 4362590366, 4362590367, 4362590364], "tags": {"amenity": "restaurant", "building": "yes", "name": "Alma"}}, {"type": "way", "id": 438521952, "nodes": [4362590368, 4362590369, 4362590370, 4362590371, 4362590372, 4362590373, 4362590374, 4362590375, 4362590368], "tags": {"addr:postcode": "9701", "amenity": "restaurant", "building": "yes", "cuisine": "local", "name": "Stela Beach Restaurant", "phone": "+355 69 296 9128"}}, {"type": "way", "id": 438521953, "nodes": [4362590376, 4362590377, 4362590378, 4362590379, 4362590380, 4362590381, 4362590376], "tags": {"amenity": "restaurant", "building": "yes", "cuisine": "pizza", "name": "Redi"}}, {"type": "way", "id": 438521954, "nodes": [4362590382, 4362590383, 4362590384, 4362590385, 4362590382], "tags": {"amenity": "restaurant", "building": "yes", "name": "Geri"}}, {"type": "way", "id": 438521956, "nodes": [4362590496, 4362590497, 4362590498, 4362590500, 4362590496], "tags": {"amenity": "restaurant", "building": "yes", "name": "Bar Restaurant Korali"}}, {"type": "way", "id": 438521958, "nodes": [4362590508, 4362590509, 4362590510, 4362590511, 4362590512, 4362590508], "tags": {"addr:street": "Rruga Panorama", "amenity": "restaurant", "building": "yes", "building:levels": "1", "cuisine": "chicken;kebab;grill", "internet_access": "wlan", "name": "Just the best Pipuli", "opening_hours": "Mo-Su 09:00-23:00", "operator": "Drini Kroi", "phone": "+355692565258"}}, {"type": "way", "id": 438521959, "nodes": [4362590513, 4362590514, 4362590515, 4362590516, 4362590513], "tags": {"amenity": "restaurant", "building": "yes", "indoor_seating": "yes", "name": "Restorant Piceri Abiori", "outdoor_seating": "yes"}}, {"type": "way", "id": 438521960, "nodes": [4362590517, 4362590518, 4362590519, 4362590520, 6335253285, 4362590517], "tags": {"addr:city": "Ksamil", "addr:housenumber": "8", "addr:postcode": "9706", "addr:street": "Rruga Alida Hisku", "amenity": "restaurant", "building": "yes", "name": "Pizza Rei Rai"}}, {"type": "way", "id": 438521962, "nodes": [4362590546, 4362590547, 6335436012, 6335436013, 4362590548, 6335436011, 4362590549, 6335436009, 6335436010, 4362590546], "tags": {"amenity": "restaurant", "building": "yes", "name": "Bar Restorant 3 Ishujt"}}, {"type": "way", "id": 438791303, "nodes": [4364570137, 4364570138, 4364570139, 4364570140, 4364570141, 4364570142, 4364570143, 4364570144, 4364570145, 4364570146, 4364570137], "tags": {"amenity": "restaurant", "building": "yes", "name": "Restaurant Rilinda"}}, {"type": "way", "id": 438791304, "nodes": [4364570147, 4364570148, 4364570149, 4364570150, 4364570147], "tags": {"amenity": "restaurant", "building": "yes", "name": "Bar Restorant Apollonia"}}, {"type": "way", "id": 440407527, "nodes": [4381291462, 4381291469, 4381291465, 4381291458, 4381291462], "tags": {"amenity": "restaurant", "building": "yes", "outdoor_seating": "yes", "payment:cash": "yes", "payment:coins": "yes", "payment:credit_cards": "no", "payment:cryptocurrencies": "no", "payment:debit_cards": "no", "payment:electronic_purses": "no", "payment:notes": "yes", "smoking": "outside", "source": "bing", "source_ref:url": "https://www.flickr.com/photos/134902422@N04/map?&fLat=41.9559&fLon=19.4337&zl=11&order_by=recent", "takeaway": "yes", "wheelchair": "limited"}}, {"type": "way", "id": 440721066, "nodes": [4384992699, 4384992701, 4384992698, 4384992696, 4384992699], "tags": {"amenity": "restaurant", "building": "yes"}}, {"type": "way", "id": 445501993, "nodes": [4429210458, 4429210442, 4429210444, 4429210455, 4429210456, 4429210457, 4429210458]}, {"type": "way", "id": 445501994, "nodes": [4429210433, 4429210423, 4429210420, 4429210425, 4429210426, 4429210430, 4429210433]}, {"type": "way", "id": 445501995, "nodes": [4429210447, 4429210452, 4429210451, 4429210448, 4429210449, 4429210450, 4429210446, 4429210447]}, {"type": "way", "id": 445501996, "nodes": [4429210429, 4429210428, 4429210419, 4429210418, 4429210417, 4429210414, 4429210413, 4429210435, 4429210436, 4429210437, 4429210440, 4429210431, 4429210429], "tags": {"amenity": "restaurant", "building": "yes", "cuisine": "greek", "name": "Caryatides"}}, {"type": "way", "id": 445501997, "nodes": [4429210439, 4429210416, 4429210415, 4429210424, 4429210427, 4429210438, 4429210434, 4429210439], "tags": {"amenity": "restaurant", "building": "yes", "cuisine": "greek", "name": "Starlight"}}, {"type": "way", "id": 468419609, "nodes": [4629551919, 4629551916, 4629551917, 4629551918, 4629551919], "tags": {"addr:city": "Gjirokast\u00ebr", "addr:postcode": "6001", "addr:street": "Rruga Doktor Vasil Laboviti", "amenity": "restaurant", "bar": "yes", "brewery": "elbar;krosic", "building": "yes", "cuisine": "regional", "internet_access": "wlan", "name": "Te Raqi", "note": "cheap and good traditional cuisin", "outdoor_seating": "yes", "smoking": "yes"}}, {"type": "way", "id": 508469502, "nodes": [4977748421, 4977743907, 4977743910, 4977748423, 4977748421], "tags": {"building": "yes"}}, {"type": "way", "id": 508469503, "nodes": [4977748424, 4977743920, 4977748427, 4977748430, 4977748424], "tags": {"access": "customers", "amenity": "parking", "parking": "surface"}}, {"type": "way", "id": 508469504, "nodes": [4977743918, 4977743916, 4977743912, 4977748426, 4977743918], "tags": {"building": "roof", "layer": "1"}}, {"type": "way", "id": 508469505, "nodes": [4977748425, 4977748429, 4977748428, 4977743911, 4977748425], "tags": {"building": "yes"}}, {"type": "way", "id": 508469506, "nodes": [4977743909, 4977748422, 4977743915, 4977743917, 4977743914, 4977743919, 4977743909], "tags": {"building": "yes"}}, {"type": "way", "id": 516893177, "nodes": [5045262347, 5045262346, 5045262345, 5045262344, 5045262343, 5045262342, 5045262347], "tags": {"amenity": "restaurant", "building": "yes", "name": "Mamma Mia"}}, {"type": "way", "id": 519034674, "nodes": [5061840348, 5061840349, 5061840350, 5061840347, 5061840348], "tags": {"amenity": "restaurant", "building": "yes", "cuisine": "greek", "name": "Liberty's Taverna"}}, {"type": "way", "id": 541901035, "nodes": [5239578155, 5239578152, 5239578153, 5239578154, 5239578155], "tags": {"amenity": "cafe", "building": "yes"}}, {"type": "way", "id": 580650398, "nodes": [6987232253, 6987232252, 5557952297, 5557952298, 6987232253], "tags": {"addr:city": "Corfu", "addr:postcode": "49081", "addr:street": "Agios Spyridon, Perithia", "amenity": "restaurant", "amenity_1": "bar", "amenity_2": "cafe", "building": "yes", "internet_access": "yes", "name": "Pyramid City Restaurant & Bar", "note": "Seaside Restaurant & Bar, with seaside sunbeds and snack service.", "outdoor_seating": "yes", "phone": "+30 26630 98495", "playground": "yes", "website": "https://www.pyramidcitycorfu.com/"}}, {"type": "way", "id": 580651132, "nodes": [5557956345, 5557956346, 5557956347, 5557956348, 5557956345], "tags": {"amenity": "restaurant", "building": "yes"}}, {"type": "way", "id": 607977534, "nodes": [5760772619, 5760772618, 5760772617, 5760772616, 5760772615, 5760772614, 5760772613, 5760772619], "tags": {"amenity": "restaurant", "building": "yes", "building:levels": "1", "height": "5", "name": "Restaurant St. George's Bay Country Club"}}, {"type": "way", "id": 677430575, "nodes": [6343071649, 12231458275, 6343071653, 6343071654, 6343071655, 6343071656, 6343071657, 6343071638, 6343071651, 6343071649], "tags": {"addr:city": "Ksamil", "addr:housenumber": "27", "addr:postcode": "9706", "addr:street": "Rruga Alida Hisku", "amenity": "restaurant", "building": "yes", "cuisine": "pizza", "name": "Hotel Mollyani"}}, {"type": "way", "id": 693168190, "nodes": [6507890042, 6507890043, 6507890044, 6507890045, 6507890042], "tags": {"amenity": "restaurant", "building": "yes", "cuisine": "regional;mediterranean", "internet_access": "wlan", "name": "Ciao Borshi", "name:sq": "Ciao Borshi"}}, {"type": "way", "id": 695016545, "nodes": [6528521712, 6528521713, 6528521714, 6528521715, 6528521712], "tags": {"amenity": "restaurant", "building": "yes", "building:levels": "1", "name": "Cocktails & Dreams"}}, {"type": "way", "id": 708795522, "nodes": [6660429365, 6660429366, 6660429367, 6660429368, 6660429365], "tags": {"amenity": "restaurant", "building": "yes", "name": "Perla"}}, {"type": "way", "id": 708823081, "nodes": [6660661079, 6660661080, 6660661081, 6660661082, 6660661083, 6660661084, 6660672085, 6660672086, 6660672087, 6660672088, 6660672089, 6660672090, 6660672091, 6660672092, 6660672093, 6660672094, 6660661079], "tags": {"amenity": "restaurant", "building": "yes", "name": "Horizonti"}}, {"type": "way", "id": 708828738, "nodes": [6660699049, 6660699050, 6660699051, 6660699052, 6660699049], "tags": {"amenity": "restaurant", "building": "yes"}}, {"type": "way", "id": 708828739, "nodes": [6660699053, 6660699054, 6660699055, 6660699056, 6660699057, 6660699058, 6660699053], "tags": {"amenity": "restaurant", "building": "yes"}}, {"type": "way", "id": 708828769, "nodes": [6660718493, 6660718494, 6660718495, 6660718496, 6660718493], "tags": {"amenity": "restaurant", "building": "yes"}}, {"type": "way", "id": 730107527, "nodes": [6839658940, 6839658941, 6839658942, 6839658943, 6839658940], "tags": {"addr:postcode": "9707", "amenity": "cafe", "building": "yes", "check_date": "2024-06-17", "internet_access": "wlan", "name": "Art Gallery Dea"}}, {"type": "way", "id": 746647674, "nodes": [5557952301, 6987232249, 6987232250, 6987232251, 5557952299, 5557952300, 5557952301], "tags": {"amenity": "restaurant", "building": "yes"}}, {"type": "way", "id": 854893026, "nodes": [7973020782, 7973020783, 7973020784, 7973035085, 7973020782], "tags": {"amenity": "cafe", "building": "yes", "name": "Robolla Beach"}}, {"type": "way", "id": 970392676, "nodes": [8980189889, 8980189890, 8980189891, 8980189892, 8980189889], "tags": {"amenity": "restaurant", "building": "yes", "cuisine": "regional;seafood", "name": "Sotiris", "note": "rooms for rent"}}, {"type": "way", "id": 1025315730, "nodes": [9453806623, 9453806624, 9453806625, 9453806626, 9453806627, 9453806623], "tags": {"amenity": "cafe", "building": "yes", "name": "Gallery Irish Pub"}}, {"type": "way", "id": 1029603956, "nodes": [9492282851, 9492282852, 9492282853, 9492282854, 9492282851], "tags": {"addr:city": "Acharavi", "addr:postcode": "490 81", "addr:street": "Beach Road No 6", "amenity": "restaurant", "building": "yes", "building:levels": "2", "name": "Medusa Seaside Restaurant", "phone": "030 2663 064809", "website": "https://www.facebook.com/MedusaSeaside/"}}, {"type": "way", "id": 1046963322, "nodes": [9627516372, 9627516373, 9627848443, 9627516374, 9627516375, 1663249012, 9629191250, 9629191249, 9627516372], "tags": {"amenity": "restaurant", "building": "yes", "cuisine": "regional", "name": "Rebetika"}}, {"type": "way", "id": 1046969212, "nodes": [9627588522, 9627588523, 9627588524, 9627588525, 9627588522], "tags": {"amenity": "restaurant", "building": "yes", "cuisine": "regional;greek", "name": "Theritas", "name:el": "\u0398\u03b5\u03c1\u03af\u03c4\u03b1\u03c2", "outdoor_seating": "yes", "website": "https://www.theritasrestaurant.com/"}}, {"type": "way", "id": 1047001046, "nodes": [9627823263, 9627823264, 9627823265, 9627823266, 9627823263], "tags": {"amenity": "restaurant", "building": "yes", "name": "See You Coffees"}}, {"type": "way", "id": 1071308195, "nodes": [9831314930, 9831314931, 9831314932, 9831314933, 9831314930], "tags": {"amenity": "cafe", "building": "yes", "name": "Dimas Caffe Bar & Swimming Pool"}}, {"type": "way", "id": 1108996538, "nodes": [10147097791, 10147097792, 10147097793, 10147097794, 10147097791], "tags": {"amenity": "restaurant", "building": "yes", "name": "Yiannis Taverna Krouzeri"}}, {"type": "way", "id": 1111883047, "nodes": [10172398343, 10172398344, 10172398345, 10172398346, 10172398343], "tags": {"amenity": "cafe", "building": "yes", "name": "Varzas", "opening_hours": "Mo-Su 09:00-24:00"}}, {"type": "way", "id": 1132971427, "nodes": [10563405417, 10563405418, 10563405419, 10563405420, 10563405417], "tags": {"amenity": "restaurant", "building": "yes"}}, {"type": "way", "id": 1132971439, "nodes": [10563405498, 10563405499, 10563405500, 10563405501, 10563405498], "tags": {"amenity": "restaurant", "building": "yes"}}, {"type": "way", "id": 1189447460, "nodes": [11044574891, 11044574892, 11044574895, 11044574896, 11044574897, 11044574898, 11044574893, 11044574894, 11044574891], "tags": {"amenity": "restaurant", "bar": "yes", "building": "yes", "microbrewery": "no", "opening_hours": "May-Oct", "outdoor_seating": "yes", "source": "survey", "toilets:wheelchair": "no", "wheelchair": "no"}}, {"type": "way", "id": 1268609083, "nodes": [11782567909, 11782567910, 11782567911, 11782567912, 11782567909], "tags": {"amenity": "restaurant", "building": "yes", "name": "Nautilus Barbati Beach Snack Bar & Restaurant"}}, {"type": "way", "id": 1268609086, "nodes": [11782567923, 11782567924, 11782567925, 11782567926, 11782567927, 11782567928, 11782567929, 11782567930, 11782567931, 11782567932, 11782567923], "tags": {"amenity": "restaurant", "building": "yes", "name": "Bahia Mare"}}, {"type": "way", "id": 1282706890, "nodes": [11903057539, 11903057536, 11903057537, 11903057538, 11903057539], "tags": {"amenity": "restaurant", "building": "yes", "name": "Damianos Lounge Cafe & Cocktail Bar"}}, {"type": "way", "id": 1303638283, "nodes": [12073014463, 12073014456, 12073014459, 12073014460, 12073014461, 12073014462, 12073014458, 12073014457, 12073014463], "tags": {"amenity": "restaurant", "building": "yes", "contact:phone": "+306937928736", "name": "Alexandros Taverna", "website": "https://alexandrostaverna.com"}}, {"type": "way", "id": 1303646208, "nodes": [12073058326, 12073058327, 12073058328, 12073058329, 12073058330, 12073058331, 12073058332, 12073058333, 12073058326], "tags": {"amenity": "cafe", "building": "yes"}}, {"type": "way", "id": 1309219429, "nodes": [12123704287, 12123704288, 12123704289, 12123704290, 12123704291, 12123704292, 12123704293, 12123704294, 12123704295, 12123704287], "tags": {"addr:city": "\u039a\u03ad\u03c1\u03ba\u03c5\u03c1\u03b1", "addr:postcode": "49100", "addr:street": "\u03a0\u03c5\u03c1\u03b3\u03af - \u0395\u03c0\u03af\u03c3\u03ba\u03b5\u03c8\u03b7 - \u0391\u03c7\u03b1\u03c1\u03ac\u03b2\u03b7", "amenity": "restaurant", "building": "yes", "cuisine": "greek", "diet:fish": "yes", "diet:local": "yes", "diet:mediterranean": "yes", "name": "\u03a3\u03c4\u03bf\u03c5 \u03a7\u03b1\u03c1\u03b9\u03bb\u03ac\u03bf\u03c5", "name:el": "\u03a3\u03c4\u03bf\u03c5 \u03a7\u03b1\u03c1\u03b9\u03bb\u03ac\u03bf\u03c5", "name:en": "At Harry's", "opening_hours": "Mo-Su 10:00-24:00", "phone": "+30 26630 92174"}}, {"type": "way", "id": 1311861863, "nodes": [12142910320, 12142910312, 12142895565, 12149539589, 12149539593, 12142910301, 12142910315, 12142895575, 12149524991, 12142895589, 12142895570, 12142910320], "tags": {"amenity": "restaurant", "building": "yes", "building:levels": "1", "name": "Rodostamo Restaurant", "website": "https://rodostamo.gr/rr-rodostamo-restaurant/"}}, {"type": "way", "id": 1312010903, "nodes": [12144132520, 12144132521, 12144132522, 12144132523, 12144132520], "tags": {"amenity": "restaurant", "building": "yes", "name": "Taverna Kaci", "opening_hours": "Mo-Su 08:00-23:00", "phone": "+355682438803"}}, {"type": "way", "id": 1313497944, "nodes": [12157784835, 12157784836, 12157784837, 12157784838, 12157784839, 12157784840, 12157784835], "tags": {"amenity": "restaurant", "building": "yes", "cuisine": "greek", "name": "Moukas"}}, {"type": "way", "id": 1322118100, "nodes": [12234825780, 4339590378, 4339590379, 12234825779, 12234825780], "tags": {"addr:postcode": "9706", "amenity": "restaurant", "building": "yes", "cuisine": "pizza", "name": "Momento Pizza", "phone": "+355 68 600 0858"}}, {"type": "relation", "id": 6625941, "members": [{"type": "way", "ref": 445501994, "role": "outer"}, {"type": "way", "ref": 445501995, "role": "outer"}], "tags": {"amenity": "restaurant", "building": "yes", "cuisine": "greek", "name": "Dionysos", "type": "multipolygon"}}, {"type": "relation", "id": 6625942, "members": [{"type": "way", "ref": 445501993, "role": "outer"}], "tags": {"amenity": "restaurant", "cuisine": "greek;fish", "name": "Lord Byron", "toilets": "yes", "type": "multipolygon", "wheelchair": "no", "wheelchair:description": "many Stairs"}}, {"type": "relation", "id": 7408565, "members": [{"type": "way", "ref": 508469502, "role": "outer"}, {"type": "way", "ref": 508469506, "role": "outer"}, {"type": "way", "ref": 508469505, "role": "outer"}, {"type": "way", "ref": 508469504, "role": "outer"}, {"type": "way", "ref": 508469503, "role": "outer"}], "tags": {"amenity": "restaurant", "name": "Panorama", "type": "multipolygon"}}]}