{"version": 0.6, "generator": "Overpass API 0.7.62.7 375dc00a", "osm3s": {"timestamp_osm_base": "2025-06-14T13:26:15Z", "copyright": "The data included in this document is from www.openstreetmap.org. The data is made available under ODbL."}, "elements": [{"type": "node", "id": 6359139031, "lat": 33.1388671, "lon": 11.2193874, "tags": {"addr:city": "\u0628\u0646\u0642\u0631\u062f\u0627\u0646", "addr:city:ar": "\u0628\u0646\u0642\u0631\u062f\u0627\u0646", "amenity": "cafe", "language:ar": "main", "name": "\u0645\u0642\u0647\u0649 \u0633\u0631\u0627\u064a\u0627", "name:ar": "\u0645\u0642\u0647\u0649 \u0633\u0631\u0627\u064a\u0627", "name:fr": "Cafe Saraya"}}, {"type": "node", "id": 6359139054, "lat": 33.1372405, "lon": 11.2205213, "tags": {"addr:city": "\u0628\u0646\u0642\u0631\u062f\u0627\u0646", "addr:city:ar": "\u0628\u0646\u0642\u0631\u062f\u0627\u0646", "amenity": "cafe", "language:ar": "main", "name": "\u0645\u0642\u0647\u0649 \u0627\u0644\u0645\u063a\u0631\u0628 \u0627\u0644\u0639\u0631\u0628\u064a", "name:ar": "\u0645\u0642\u0647\u0649 \u0627\u0644\u0645\u063a\u0631\u0628 \u0627\u0644\u0639\u0631\u0628\u064a", "name:fr": "Caf\u00e9 Maghreb Arabi"}}, {"type": "node", "id": 6359139055, "lat": 33.137278, "lon": 11.2200961, "tags": {"addr:city": "\u0628\u0646\u0642\u0631\u062f\u0627\u0646", "addr:city:ar": "\u0628\u0646\u0642\u0631\u062f\u0627\u0646", "amenity": "restaurant", "cuisine": "pizza", "language:ar": "main", "name": "\u0645\u0637\u0639\u0645 \u0628\u064a\u062a\u0632\u0627 \u0623\u0648\u0646\u0648", "name:ar": "\u0645\u0637\u0639\u0645 \u0628\u064a\u062a\u0632\u0627 \u0623\u0648\u0646\u0648", "name:fr": "Pizzaria UNO"}}]}