{"version": 0.6, "generator": "Overpass API 0.7.62.7 375dc00a", "osm3s": {"timestamp_osm_base": "2025-06-14T13:14:57Z", "copyright": "The data included in this document is from www.openstreetmap.org. The data is made available under ODbL."}, "elements": [{"type": "node", "id": 2373463896, "lat": 36.0501408, "lon": 4.8019302}, {"type": "node", "id": 2373463899, "lat": 36.0499014, "lon": 4.80178}, {"type": "node", "id": 2373463901, "lat": 36.0498371, "lon": 4.8018705}, {"type": "node", "id": 2373463905, "lat": 36.0497246, "lon": 4.8017733}, {"type": "node", "id": 2373463908, "lat": 36.0495639, "lon": 4.8018484}, {"type": "node", "id": 2373463912, "lat": 36.0495282, "lon": 4.8019258}, {"type": "node", "id": 2373463914, "lat": 36.0495478, "lon": 4.8019589}, {"type": "node", "id": 2373463917, "lat": 36.0495389, "lon": 4.8020031}, {"type": "node", "id": 2373463921, "lat": 36.0495692, "lon": 4.8020782}, {"type": "node", "id": 2373463922, "lat": 36.0496496, "lon": 4.8021268}, {"type": "node", "id": 2373463925, "lat": 36.0496085, "lon": 4.8022394}, {"type": "node", "id": 2373463927, "lat": 36.0499622, "lon": 4.8024846}, {"type": "node", "id": 2373463929, "lat": 36.0500247, "lon": 4.8023742}, {"type": "node", "id": 2373463932, "lat": 36.0501033, "lon": 4.802425}, {"type": "node", "id": 2373463936, "lat": 36.0501872, "lon": 4.8024029}, {"type": "node", "id": 2373463938, "lat": 36.0502015, "lon": 4.8023632}, {"type": "node", "id": 2373463942, "lat": 36.0502247, "lon": 4.8023742}, {"type": "node", "id": 2373463945, "lat": 36.0502551, "lon": 4.802319}, {"type": "node", "id": 2373463947, "lat": 36.050239, "lon": 4.8022836}, {"type": "node", "id": 2373463951, "lat": 36.0502783, "lon": 4.8022218}, {"type": "node", "id": 2373463953, "lat": 36.0502479, "lon": 4.8021312}, {"type": "node", "id": 2373463957, "lat": 36.0501015, "lon": 4.802034}, {"type": "node", "id": 2373464116, "lat": 36.0473144, "lon": 4.7974973}, {"type": "node", "id": 3894680578, "lat": 36.0849089, "lon": 4.7646301}, {"type": "node", "id": 3894680579, "lat": 36.0848959, "lon": 4.7649455}, {"type": "node", "id": 3894680580, "lat": 36.0847949, "lon": 4.7649391}, {"type": "node", "id": 3894680581, "lat": 36.0848078, "lon": 4.7646238}, {"type": "node", "id": 3901501945, "lat": 36.080139, "lon": 4.7757866, "tags": {"addr:country": "DZ", "amenity": "cafe"}}, {"type": "node", "id": 3901501946, "lat": 36.0803211, "lon": 4.7761385, "tags": {"addr:country": "DZ", "amenity": "cafe"}}, {"type": "node", "id": 3902598213, "lat": 36.0722148, "lon": 4.7630303, "tags": {"addr:country": "DZ", "amenity": "restaurant", "name": "Resto", "name:fr": "Resto"}}, {"type": "node", "id": 3902598218, "lat": 36.0721393, "lon": 4.7622416, "tags": {"addr:country": "DZ", "amenity": "cafe"}}, {"type": "node", "id": 3903073332, "lat": 36.0742714, "lon": 4.7497598}, {"type": "node", "id": 3912352800, "lat": 36.0854485, "lon": 4.7807706, "tags": {"addr:country": "DZ", "amenity": "restaurant", "name": "Resto", "name:fr": "Resto"}}, {"type": "node", "id": 3912352801, "lat": 36.085136, "lon": 4.7830752, "tags": {"addr:country": "DZ", "amenity": "cafe"}}, {"type": "node", "id": 3912352802, "lat": 36.0846928, "lon": 4.7829889, "tags": {"addr:country": "DZ", "amenity": "cafe"}}, {"type": "node", "id": 3912352803, "lat": 36.0895017, "lon": 4.7673079, "tags": {"addr:country": "DZ", "amenity": "cafe", "name": "\u0645\u0642\u0647\u0649 \u0628\u0644\u0641\u0627\u0631", "name:ar": "\u0645\u0642\u0647\u0649 \u0628\u0644\u0641\u0627\u0631", "name:fr": "Caf\u00e9 Belvar"}}, {"type": "node", "id": 3912352804, "lat": 36.0883451, "lon": 4.7660431, "tags": {"addr:country": "DZ", "amenity": "restaurant", "name": "Resto", "name:fr": "Resto"}}, {"type": "node", "id": 3912453655, "lat": 36.0891268, "lon": 4.7671013, "tags": {"addr:country": "DZ", "amenity": "restaurant", "name": "Resto", "name:fr": "Resto"}}, {"type": "node", "id": 3912760060, "lat": 36.079336, "lon": 4.7744446, "tags": {"addr:country": "DZ", "amenity": "cafe"}}, {"type": "node", "id": 3912891420, "lat": 36.0863008, "lon": 4.7634056, "tags": {"addr:country": "DZ", "amenity": "cafe", "name": "Salon de th\u00e9", "name:ar": "\u0628\u0633\u0637\u0629", "name:en": "Basta", "name:fr": "Salon de Th\u00e9"}}, {"type": "node", "id": 3916468961, "lat": 36.0801879, "lon": 4.7758788, "tags": {"addr:country": "DZ", "amenity": "restaurant", "name": "Resto", "name:fr": "Resto"}}, {"type": "node", "id": 3916468962, "lat": 36.0806066, "lon": 4.7773115, "tags": {"addr:country": "DZ", "amenity": "restaurant", "name": "Resto", "name:fr": "Resto"}}, {"type": "node", "id": 3916468972, "lat": 36.0840668, "lon": 4.7699828, "tags": {"addr:country": "DZ", "amenity": "cafe", "name": "\u0645\u0642\u0647\u0649 \u0627\u0644\u0633\u0646\u0637\u0627\u0648\u064a", "name:ar": "\u0645\u0642\u0647\u0649 \u0627\u0644\u0633\u0646\u0637\u0627\u0648\u064a", "name:fr": "Caf\u00e9 El Sintawi"}}, {"type": "node", "id": 3918756602, "lat": 36.0782911, "lon": 4.7733593, "tags": {"addr:country": "DZ", "amenity": "restaurant", "name": "Resto", "name:fr": "Resto"}}, {"type": "node", "id": 3918756603, "lat": 36.0786952, "lon": 4.7741012, "tags": {"addr:country": "DZ", "amenity": "restaurant", "name": "Resto", "name:fr": "Resto"}}, {"type": "node", "id": 3918756604, "lat": 36.0785999, "lon": 4.7739081, "tags": {"addr:country": "DZ", "amenity": "restaurant", "name": "Resto", "name:fr": "Resto"}}, {"type": "node", "id": 3918790643, "lat": 36.056537, "lon": 4.7403978}, {"type": "node", "id": 3918790644, "lat": 36.0565374, "lon": 4.7402018}, {"type": "node", "id": 3918790645, "lat": 36.0564226, "lon": 4.7402014}, {"type": "node", "id": 3918790646, "lat": 36.0564222, "lon": 4.7403974}, {"type": "node", "id": 3965736364, "lat": 36.1320858, "lon": 4.6739614, "tags": {"addr:country": "DZ", "amenity": "cafe", "name": "KHELIF"}}, {"type": "node", "id": 4090689380, "lat": 36.0667072, "lon": 4.7401336}, {"type": "node", "id": 4108237089, "lat": 36.0642974, "lon": 4.6227068, "tags": {"addr:country": "DZ", "addr:street": "Voie Rapide Bordj Bou Arreridj - El Achir", "amenity": "cafe", "name": "boho"}}, {"type": "node", "id": 4109300495, "lat": 36.0644122, "lon": 4.6242364, "tags": {"addr:country": "DZ", "amenity": "restaurant", "cuisine": "regional", "name": "salsabil"}}, {"type": "node", "id": 4109300690, "lat": 36.064433, "lon": 4.6244164, "tags": {"addr:country": "DZ", "amenity": "restaurant", "cuisine": "regional", "name": "Bit Cheikh"}}, {"type": "node", "id": 4109310489, "lat": 36.0643997, "lon": 4.6240665}, {"type": "node", "id": 4165310256, "lat": 36.0690243, "lon": 4.7712695, "tags": {"addr:country": "DZ", "amenity": "cafe"}}, {"type": "node", "id": 4207916371, "lat": 36.0637763, "lon": 4.6259447, "tags": {"addr:country": "DZ", "amenity": "cafe", "name": "zizi"}}, {"type": "node", "id": 4207925182, "lat": 36.0634331, "lon": 4.6263739, "tags": {"addr:country": "DZ", "amenity": "restaurant", "name": "aoukli"}}, {"type": "node", "id": 4207928829, "lat": 36.0639282, "lon": 4.6258929, "tags": {"addr:country": "DZ", "amenity": "cafe", "name": "aifa"}}, {"type": "node", "id": 4207928831, "lat": 36.0635394, "lon": 4.6261177, "tags": {"addr:country": "DZ", "amenity": "cafe", "name": "le bleu"}}, {"type": "node", "id": 4209685136, "lat": 36.0635803, "lon": 4.6258898, "tags": {"addr:country": "DZ", "amenity": "restaurant", "name": "echourouk"}}, {"type": "node", "id": 4209701019, "lat": 36.0633636, "lon": 4.6270851, "tags": {"addr:country": "DZ", "amenity": "restaurant", "name": "\u0645\u0633\u0639\u062f\u064a", "name:ar": "\u0645\u0633\u0639\u062f\u064a", "name:fr": "Messaadi"}}, {"type": "node", "id": 4209701022, "lat": 36.0639507, "lon": 4.6226473}, {"type": "node", "id": 4255639195, "lat": 36.063435, "lon": 4.6310868, "tags": {"addr:country": "DZ", "amenity": "restaurant", "name": "\u0627\u062d\u0645\u062f", "name:ar": "\u0627\u062d\u0645\u062f", "name:fr": "Ahmed"}}, {"type": "node", "id": 4255639196, "lat": 36.0634466, "lon": 4.6279996, "tags": {"addr:country": "DZ", "amenity": "cafe", "name": "parisien"}}, {"type": "node", "id": 4255646690, "lat": 36.0643083, "lon": 4.6253225, "tags": {"addr:country": "DZ", "amenity": "cafe", "name": "caf\u00e9t\u00e9ria barabol"}}, {"type": "node", "id": 4413530190, "lat": 36.0722564, "lon": 4.7506309, "tags": {"addr:country": "DZ", "amenity": "cafe"}}, {"type": "node", "id": 4413566689, "lat": 36.0718422, "lon": 4.7509713, "tags": {"addr:country": "DZ", "amenity": "cafe", "name": "salon de th\u00e9-PRESTIGE", "name:fr": "salon de th\u00e9-PRESTIGE"}}, {"type": "node", "id": 4413584495, "lat": 36.0666486, "lon": 4.7483766, "tags": {"addr:country": "DZ", "amenity": "restaurant", "name": "Resto", "name:fr": "Resto"}}, {"type": "node", "id": 4413584693, "lat": 36.0702239, "lon": 4.7487499, "tags": {"addr:country": "DZ", "amenity": "cafe"}}, {"type": "node", "id": 4413586004, "lat": 36.0707807, "lon": 4.7596225}, {"type": "node", "id": 4413586893, "lat": 36.0710744, "lon": 4.7620389, "tags": {"addr:country": "DZ", "amenity": "cafe"}}, {"type": "node", "id": 4413615493, "lat": 36.0682692, "lon": 4.7480982, "tags": {"addr:country": "DZ", "amenity": "restaurant", "name": "Resto", "name:fr": "Resto"}}, {"type": "node", "id": 4413621191, "lat": 36.0673428, "lon": 4.7481945, "tags": {"addr:country": "DZ", "amenity": "restaurant", "name": "Resto", "name:fr": "Resto"}}, {"type": "node", "id": 4413621790, "lat": 36.0668863, "lon": 4.7482169, "tags": {"addr:country": "DZ", "amenity": "restaurant", "name": "Resto", "name:fr": "Resto"}}, {"type": "node", "id": 4413621890, "lat": 36.0680565, "lon": 4.7482536, "tags": {"addr:country": "DZ", "amenity": "restaurant", "name": "Resto", "name:fr": "Resto"}}, {"type": "node", "id": 4413662390, "lat": 36.0761565, "lon": 4.7425955, "tags": {"addr:country": "DZ", "amenity": "cafe", "name": "caf\u00e9 et loisirs", "name:fr": "Caf\u00e9 et Loisirs"}}, {"type": "node", "id": 4417998099, "lat": 36.0689411, "lon": 4.7685431, "tags": {"addr:country": "DZ", "amenity": "restaurant", "name": "Restaurant El Baraka Chez Djamel", "name:fr": "Restaurant El Baraka Chez Djamel"}}, {"type": "node", "id": 4417998100, "lat": 36.0688401, "lon": 4.7683133, "tags": {"addr:country": "DZ", "amenity": "cafe"}}, {"type": "node", "id": 4418030499, "lat": 36.072849, "lon": 4.7467605, "tags": {"addr:country": "DZ", "amenity": "cafe", "name": "\u0645\u0642\u0647\u0649 5 \u062c\u0648\u064a\u0644\u064a\u0629", "name:ar": "\u0645\u0642\u0647\u0649 5 \u062c\u0648\u064a\u0644\u064a\u0629", "name:fr": "Caf\u00e9 du 5 juillet"}}, {"type": "node", "id": 4418030506, "lat": 36.0733456, "lon": 4.7611291, "tags": {"addr:country": "DZ", "amenity": "cafe"}}, {"type": "node", "id": 4418039593, "lat": 36.0763844, "lon": 4.7694899, "tags": {"addr:country": "DZ", "amenity": "restaurant", "name": "Resto", "name:fr": "Resto"}}, {"type": "node", "id": 4418042798, "lat": 36.0738472, "lon": 4.761004, "tags": {"addr:country": "DZ", "amenity": "cafe"}}, {"type": "node", "id": 4418062790, "lat": 36.0781634, "lon": 4.7496708, "tags": {"addr:country": "DZ", "amenity": "restaurant", "name": "Resto", "name:fr": "Resto"}}, {"type": "node", "id": 4418062893, "lat": 36.0765496, "lon": 4.7694473, "tags": {"addr:country": "DZ", "amenity": "restaurant", "name": "Resto", "name:fr": "Resto"}}, {"type": "node", "id": 4418063090, "lat": 36.0713472, "lon": 4.76613}, {"type": "node", "id": 4432550690, "lat": 36.0722204, "lon": 4.7588635}, {"type": "node", "id": 4450636974, "lat": 36.0811378, "lon": 4.7775435, "tags": {"addr:country": "DZ", "amenity": "restaurant", "name": "Resto", "name:fr": "Resto"}}, {"type": "node", "id": 4460324692, "lat": 36.0839528, "lon": 4.7706649, "tags": {"addr:country": "DZ", "amenity": "cafe", "name": "Caf\u00e9 Zaouach", "name:ar": "\u0645\u0642\u0647\u0649 \u0632\u0648\u0627\u0634. \u06a4\u0646\u0648\u0634", "name:fr": "Caf\u00e9 Zaouach"}}, {"type": "node", "id": 4477833290, "lat": 36.0619235, "lon": 4.9669336, "tags": {"addr:country": "DZ", "amenity": "cafe", "name": "\u062d\u0643\u064a\u0645", "name:ar": "\u062d\u0643\u064a\u0645", "name:fr": "Caf\u00e9 Hakim"}}, {"type": "node", "id": 4497476590, "lat": 35.9792421, "lon": 4.7452643, "tags": {"addr:country": "DZ", "amenity": "restaurant", "name": "Istanbul pizzeria", "name:ar": "Istanbul pizzeria"}}, {"type": "node", "id": 4508607396, "lat": 36.1040386, "lon": 4.9144187, "tags": {"addr:city": "\u0633\u064a\u062f\u064a \u0627\u0645\u0628\u0627\u0631\u0643", "addr:city:ar": "\u0633\u064a\u062f\u064a \u0627\u0645\u0628\u0627\u0631\u0643", "amenity": "cafe", "name": "\u0627\u0644\u0641\u062c\u0631", "name:ar": "\u0627\u0644\u0641\u062c\u0631", "name:en": "Al-Fadjr", "name:fr": "Al-Fadjr"}}, {"type": "node", "id": 4509599895, "lat": 36.0662867, "lon": 4.7571377, "tags": {"addr:country": "DZ", "amenity": "restaurant", "name": "\u0627\u0644\u0628\u0631\u0643\u0629", "name:ar": "\u0627\u0644\u0628\u0631\u0643\u0629", "name:fr": "Al Baraka"}}, {"type": "node", "id": 4509599896, "lat": 36.0715239, "lon": 4.7509574, "tags": {"addr:country": "DZ", "amenity": "restaurant", "name": "Resto", "name:fr": "Resto"}}, {"type": "node", "id": 4509629593, "lat": 36.0705626, "lon": 4.7542058, "tags": {"addr:country": "DZ", "amenity": "cafe"}}, {"type": "node", "id": 4509654394, "lat": 36.0678726, "lon": 4.7521055, "tags": {"addr:country": "DZ", "amenity": "cafe"}}, {"type": "node", "id": 4509664491, "lat": 36.0663425, "lon": 4.7573485, "tags": {"addr:country": "DZ", "amenity": "cafe"}}, {"type": "node", "id": 4509682790, "lat": 36.0686672, "lon": 4.7483902, "tags": {"addr:country": "DZ", "amenity": "restaurant", "name": "\u0627\u0644\u0622\u063a\u0627", "name:ar": "\u0627\u0644\u0622\u063a\u0627", "name:fr": "Agha"}}, {"type": "node", "id": 4523983993, "lat": 36.0803489, "lon": 4.74733, "tags": {"addr:country": "DZ", "amenity": "restaurant", "name": "Resto", "name:fr": "Resto"}}, {"type": "node", "id": 4524010690, "lat": 36.072299, "lon": 4.7625268, "tags": {"addr:country": "DZ", "amenity": "restaurant", "name": "Resto", "name:fr": "Resto"}}, {"type": "node", "id": 4541394495, "lat": 36.0732535, "lon": 4.7589744, "tags": {"addr:country": "DZ", "amenity": "cafe"}}, {"type": "node", "id": 4541543089, "lat": 36.0705157, "lon": 4.7507659, "tags": {"addr:country": "DZ", "amenity": "cafe"}}, {"type": "node", "id": 4561968889, "lat": 36.0706718, "lon": 4.7561094, "tags": {"addr:country": "DZ", "amenity": "cafe"}}, {"type": "node", "id": 4591424193, "lat": 36.0643731, "lon": 4.6179553, "tags": {"addr:country": "DZ", "amenity": "cafe"}}, {"type": "node", "id": 4591424503, "lat": 36.0656656, "lon": 4.7557085}, {"type": "node", "id": 4591424504, "lat": 36.0644813, "lon": 4.6186093, "tags": {"addr:country": "DZ", "amenity": "restaurant", "name": "Resto", "name:fr": "Resto"}}, {"type": "node", "id": 4591424602, "lat": 36.0687893, "lon": 4.7624037}, {"type": "node", "id": 4591470496, "lat": 36.075677, "lon": 4.7685633, "tags": {"addr:country": "DZ", "amenity": "restaurant", "name": "Resto", "name:fr": "Resto"}}, {"type": "node", "id": 4591470590, "lat": 36.0773301, "lon": 4.7715632, "tags": {"addr:country": "DZ", "amenity": "restaurant", "name": "\u0627\u0644\u062e\u064a\u0645\u0629-\u0645\u0648\u0646\u064a\u0629", "name:ar": "\u0627\u0644\u062e\u064a\u0645\u0629-\u0645\u0648\u0646\u064a\u0629", "name:fr": "Al-Khaima-Mounia"}}, {"type": "node", "id": 4591470692, "lat": 36.0651506, "lon": 4.6160981}, {"type": "node", "id": 4591470796, "lat": 36.064886, "lon": 4.6170386, "tags": {"addr:country": "DZ", "amenity": "restaurant", "name": "Resto", "name:fr": "Resto"}}, {"type": "node", "id": 4591470894, "lat": 36.070107, "lon": 4.7639273, "tags": {"addr:country": "DZ", "amenity": "cafe"}}, {"type": "node", "id": 4591471098, "lat": 36.0648233, "lon": 4.6185811}, {"type": "node", "id": 4591471099, "lat": 36.0647401, "lon": 4.6175509}, {"type": "node", "id": 4591471100, "lat": 36.0649071, "lon": 4.6167587, "tags": {"addr:country": "DZ", "amenity": "cafe"}}, {"type": "node", "id": 4591494090, "lat": 36.0643045, "lon": 4.6191415, "tags": {"addr:country": "DZ", "amenity": "restaurant", "name": "Resto", "name:fr": "Resto"}}, {"type": "node", "id": 4591494091, "lat": 36.0652794, "lon": 4.6155337}, {"type": "node", "id": 4595153395, "lat": 36.0668643, "lon": 4.7521606}, {"type": "node", "id": 4595192994, "lat": 36.0707549, "lon": 4.7537648}, {"type": "node", "id": 4595203302, "lat": 36.0711852, "lon": 4.7631889}, {"type": "node", "id": 4595246207, "lat": 36.0701255, "lon": 4.7623848, "tags": {"addr:country": "DZ", "amenity": "cafe"}}, {"type": "node", "id": 4595247793, "lat": 36.073637, "lon": 4.7598429, "tags": {"addr:country": "DZ", "amenity": "cafe"}}, {"type": "node", "id": 4595247797, "lat": 36.071834, "lon": 4.7626854, "tags": {"addr:country": "DZ", "amenity": "restaurant", "name": "\u0627\u0644\u062c\u064a\u062c\u0644\u064a", "name:ar": "\u0627\u0644\u062c\u064a\u062c\u0644\u064a", "name:fr": "Jijeli"}}, {"type": "node", "id": 4595249090, "lat": 36.0829923, "lon": 4.7466664, "tags": {"addr:country": "DZ", "amenity": "cafe"}}, {"type": "node", "id": 4595250093, "lat": 36.0834577, "lon": 4.7492502, "tags": {"addr:country": "DZ", "amenity": "cafe"}}, {"type": "node", "id": 4595250095, "lat": 36.0684451, "lon": 4.7584323, "tags": {"addr:country": "DZ", "amenity": "restaurant", "name": "Resto", "name:fr": "Resto"}}, {"type": "node", "id": 4595250102, "lat": 36.0701207, "lon": 4.7622548, "tags": {"addr:country": "DZ", "amenity": "restaurant", "name": "Resto", "name:fr": "Resto"}}, {"type": "node", "id": 4595251292, "lat": 36.0666479, "lon": 4.7579905}, {"type": "node", "id": 4595255089, "lat": 36.0798826, "lon": 4.7628076}, {"type": "node", "id": 4621767390, "lat": 36.0740086, "lon": 4.7831385, "tags": {"addr:country": "DZ", "amenity": "cafe", "name": "Boudaha", "name:fr": "Boudaha"}}, {"type": "node", "id": 4691023991, "lat": 36.0709007, "lon": 4.7584139, "tags": {"addr:country": "DZ", "amenity": "restaurant", "name": "Resto", "name:fr": "Resto"}}, {"type": "node", "id": 4715920797, "lat": 36.0790567, "lon": 4.7746983, "tags": {"addr:country": "DZ", "amenity": "restaurant", "name": "Resto", "name:fr": "Resto"}}, {"type": "node", "id": 4715920799, "lat": 36.0759854, "lon": 4.768731, "tags": {"addr:country": "DZ", "amenity": "cafe"}}, {"type": "node", "id": 4715920802, "lat": 36.0776962, "lon": 4.7492756, "tags": {"addr:country": "DZ", "amenity": "cafe"}}, {"type": "node", "id": 4715920903, "lat": 36.0739348, "lon": 4.7579354}, {"type": "node", "id": 4715920906, "lat": 36.0711472, "lon": 4.761603}, {"type": "node", "id": 4715920912, "lat": 36.0680421, "lon": 4.7604839, "tags": {"addr:country": "DZ", "amenity": "restaurant", "name": "\u062f\u0648\u0628\u0627\u0631\u0629", "name:ar": "\u062f\u0648\u0628\u0627\u0631\u0629", "name:fr": "Dubara"}}, {"type": "node", "id": 4715920995, "lat": 36.0792907, "lon": 4.762692, "tags": {"addr:country": "DZ", "amenity": "cafe"}}, {"type": "node", "id": 4715921012, "lat": 36.0652396, "lon": 4.7486536, "tags": {"addr:country": "DZ", "amenity": "cafe", "name": "caf\u00e9t\u00e9ria marouana", "name:fr": "caf\u00e9t\u00e9ria marouana"}}, {"type": "node", "id": 4715921106, "lat": 36.0822797, "lon": 4.7458186, "tags": {"addr:country": "DZ", "amenity": "cafe"}}, {"type": "node", "id": 4715921128, "lat": 36.0661851, "lon": 4.7568582, "tags": {"addr:country": "DZ", "amenity": "restaurant", "name": "Resto", "name:fr": "Resto"}}, {"type": "node", "id": 4715921129, "lat": 36.0647184, "lon": 4.7595433, "tags": {"addr:country": "DZ", "amenity": "cafe"}}, {"type": "node", "id": 4729483892, "lat": 36.0775023, "lon": 4.7606108, "tags": {"addr:country": "DZ", "amenity": "cafe"}}, {"type": "node", "id": 4733797731, "lat": 36.0714527, "lon": 4.7775823, "tags": {"addr:country": "DZ", "amenity": "cafe"}}, {"type": "node", "id": 4738144423, "lat": 36.067708, "lon": 4.7764294, "tags": {"addr:country": "DZ", "amenity": "cafe", "name": "Caf\u00e9teria", "name:ar": "Caf\u00e9teria", "name:fr": "Caf\u00e9teria Mellali"}}, {"type": "node", "id": 4740350243, "lat": 36.0678772, "lon": 4.7734281}, {"type": "node", "id": 4740350623, "lat": 36.0783596, "lon": 4.7563941}, {"type": "node", "id": 4740350631, "lat": 36.069965, "lon": 4.762187}, {"type": "node", "id": 4740389523, "lat": 36.0707237, "lon": 4.7620481}, {"type": "node", "id": 4745170421, "lat": 36.063468, "lon": 4.6332578, "tags": {"addr:country": "DZ", "addr:street": "\u0646\u0647\u062c \u0627\u0644\u062d\u0631\u064a\u0629 \u0627\u0644\u0637\u0631\u064a\u0642 \u0627\u0644\u0648\u0637\u0646\u064a \u0631\u0642\u0645 5", "amenity": "cafe", "email": "wahabbourahli@gmail.com", "internet_access": "wlan", "phone": "0772184668"}}, {"type": "node", "id": 4751009521, "lat": 36.070662, "lon": 4.7438035, "tags": {"addr:country": "DZ", "amenity": "restaurant", "name": "\u0623\u0643\u0644\u0627\u062a \u062a\u0642\u0644\u064a\u062f\u064a\u0629", "name:ar": "\u0623\u0643\u0644\u0627\u062a \u062a\u0642\u0644\u064a\u062f\u064a\u0629", "name:fr": "La cuisine traditionnelle"}}, {"type": "node", "id": 4751009525, "lat": 36.0811087, "lon": 4.7629054}, {"type": "node", "id": 4751009621, "lat": 36.0705428, "lon": 4.7434476, "tags": {"addr:country": "DZ", "amenity": "cafe"}}, {"type": "node", "id": 4761745722, "lat": 36.0718979, "lon": 4.7509504, "tags": {"addr:country": "DZ", "amenity": "restaurant", "name": "Resto", "name:fr": "Resto"}}, {"type": "node", "id": 4771318725, "lat": 36.0717422, "lon": 4.7641062, "tags": {"addr:country": "DZ", "amenity": "cafe"}}, {"type": "node", "id": 4788360031, "lat": 36.0774661, "lon": 4.7590665, "tags": {"addr:country": "DZ", "amenity": "cafe", "shop": "mobile_phone"}}, {"type": "node", "id": 4788360033, "lat": 36.0792499, "lon": 4.7556332, "tags": {"addr:country": "DZ", "amenity": "cafe"}}, {"type": "node", "id": 4788392821, "lat": 36.069083, "lon": 4.7639769, "tags": {"addr:country": "DZ", "amenity": "cafe"}}, {"type": "node", "id": 4794282621, "lat": 36.0778443, "lon": 4.7716893, "tags": {"addr:country": "DZ", "amenity": "cafe"}}, {"type": "node", "id": 4800018029, "lat": 36.0691376, "lon": 4.7643312, "tags": {"addr:country": "DZ", "amenity": "restaurant", "name": "Resto", "name:fr": "Resto"}}, {"type": "node", "id": 4815874424, "lat": 36.0682399, "lon": 4.7653892, "tags": {"addr:country": "DZ", "amenity": "restaurant", "name": "Resto", "name:fr": "Resto"}}, {"type": "node", "id": 4827813422, "lat": 36.0775236, "lon": 4.769288, "tags": {"addr:country": "DZ", "amenity": "restaurant", "name:fr": "mounia"}}, {"type": "node", "id": 4828385225, "lat": 36.0449875, "lon": 4.819009}, {"type": "node", "id": 4833633721, "lat": 36.0772861, "lon": 4.7592436, "tags": {"addr:country": "DZ", "amenity": "cafe"}}, {"type": "node", "id": 4833633821, "lat": 36.0778976, "lon": 4.7685686, "tags": {"addr:country": "DZ", "amenity": "cafe"}}, {"type": "node", "id": 4842320847, "lat": 36.0810114, "lon": 4.7443913, "tags": {"addr:country": "DZ", "amenity": "cafe", "name": "\u0634\u0627\u064a \u0648 \u0645\u0643\u0633\u0631\u0627\u062a", "name:ar": "\u0634\u0627\u064a \u0648 \u0645\u0643\u0633\u0631\u0627\u062a", "name:fr": "Th\u00e9"}}, {"type": "node", "id": 4842320848, "lat": 36.0780695, "lon": 4.7770209, "tags": {"addr:country": "DZ", "amenity": "cafe", "name": "\u0634\u0627\u064a \u0648 \u062d\u0644\u0648\u064a\u0627\u062a", "name:ar": "\u0634\u0627\u064a \u0648 \u062d\u0644\u0648\u064a\u0627\u062a", "name:fr": "Th\u00e9"}}, {"type": "node", "id": 4894067925, "lat": 35.9508579, "lon": 5.0337329, "tags": {"addr:country": "DZ", "amenity": "restaurant", "name": "\u0645\u0637\u0639\u0645 \u062f\u062c\u0627\u062c", "name:ar": "\u0645\u0637\u0639\u0645 \u062f\u062c\u0627\u062c", "name:en": "Chicken Restaurant", "name:fr": "Chicken"}}, {"type": "node", "id": 4894067927, "lat": 36.0708318, "lon": 4.7571776, "tags": {"addr:country": "DZ", "amenity": "cafe", "name": "\u0634\u0627\u064a \u0648 \u0645\u0643\u0633\u0631\u0627\u062a \u0645\u062d\u0645\u062f \u062a\u064a\u062a\u064a\u0645\u0648\u0646", "name:ar": "\u0634\u0627\u064a \u0648 \u0645\u0643\u0633\u0631\u0627\u062a \u0645\u062d\u0645\u062f \u062a\u064a\u062a\u064a\u0645\u0648\u0646", "name:fr": "Salon de Th\u00e9 Med Timimoune"}}, {"type": "node", "id": 4898600422, "lat": 36.0765223, "lon": 4.771575, "tags": {"addr:country": "DZ", "amenity": "restaurant", "name": "\u062e\u064a\u0645\u0629 \u0634\u062e\u0634\u0648\u062e\u0629", "name:ar": "\u062e\u064a\u0645\u0629 \u0634\u062e\u0634\u0648\u062e\u0629", "name:en": "Khayma Lhadj Atallah", "name:fr": "Khayma Lhadj Atallah"}}, {"type": "node", "id": 5353436388, "lat": 35.964088, "lon": 4.7010874}, {"type": "node", "id": 5353436389, "lat": 35.9638709, "lon": 4.700948}, {"type": "node", "id": 5353436390, "lat": 35.9639549, "lon": 4.7007483}, {"type": "node", "id": 5353436391, "lat": 35.964172, "lon": 4.7008878}, {"type": "node", "id": 5565823722, "lat": 36.0747541, "lon": 4.7669888, "tags": {"addr:country": "DZ", "addr:postcode": "34000", "addr:street": "Rue Righi Said", "amenity": "cafe", "name:fr": "Caf\u00e9 riche"}}, {"type": "node", "id": 5640130242, "lat": 36.066701, "lon": 4.6104857, "tags": {"addr:country": "DZ", "amenity": "restaurant", "name": "Resto", "name:fr": "Resto"}}, {"type": "node", "id": 5640131537, "lat": 36.0646413, "lon": 4.6189495, "tags": {"addr:country": "DZ", "amenity": "restaurant", "name": "Resto", "name:fr": "Resto"}}, {"type": "node", "id": 5640131712, "lat": 36.0664165, "lon": 4.6108906, "tags": {"addr:country": "DZ", "amenity": "restaurant", "name": "Resto", "name:fr": "Resto"}}, {"type": "node", "id": 5686128823, "lat": 36.0672405, "lon": 4.7668192}, {"type": "node", "id": 5825150655, "lat": 36.0738127, "lon": 4.78175, "tags": {"addr:city": "Bordj-Bou-Arreridj", "addr:postcode": "34002", "addr:street": "Rue A", "amenity": "restaurant", "cuisine": "pizza;sandwich", "name": "Emile's Pizza", "opening_hours": "Sa-Th 11:30-22:00"}}, {"type": "node", "id": 5856835685, "lat": 36.0640872, "lon": 4.6216883, "tags": {"amenity": "restaurant", "name": "\u0645\u0637\u0639\u0645", "name:ar": "\u0645\u0637\u0639\u0645", "name:fr": "Resto"}}, {"type": "node", "id": 5875414387, "lat": 35.9435631, "lon": 5.0345661, "tags": {"amenity": "cafe", "name": "\u0645\u0642\u0647\u0649 \u0628\u0644\u062d\u062f\u0627\u062f", "name:ar": "\u0645\u0642\u0647\u0649 \u0628\u0644\u062d\u062f\u0627\u062f", "name:en": "caf\u00e9 belhaded", "name:fr": "caf\u00e9 belhaded"}}, {"type": "node", "id": 6224846991, "lat": 36.1036951, "lon": 4.9177803, "tags": {"amenity": "restaurant", "name": "Resto", "name:fr": "Resto"}}, {"type": "node", "id": 6534562585, "lat": 36.1039103, "lon": 4.9121391, "tags": {"addr:city": "\u0633\u064a\u062f\u064a \u0627\u0645\u0628\u0627\u0631\u0643", "addr:city:ar": "\u0633\u064a\u062f\u064a \u0627\u0645\u0628\u0627\u0631\u0643", "amenity": "restaurant", "name": "Resto", "name:fr": "Resto"}}, {"type": "node", "id": 6564482712, "lat": 36.0644043, "lon": 4.8340301, "tags": {"amenity": "cafe", "name": "caffeteria \u0645\u0642\u0647\u0649 \u0628\u062d\u064a\u0631\u0629 \u0639\u064a\u0646 \u0632\u0627\u062f\u0629", "name:ar": "\u0645\u0642\u0647\u0649 \u0628\u062d\u064a\u0631\u0629 \u0639\u064a\u0646 \u0632\u0627\u062f\u0629", "name:fr": "caffeteria"}}, {"type": "node", "id": 6564496556, "lat": 36.0641655, "lon": 4.8380737, "tags": {"addr:country": "DZ", "amenity": "cafe", "name": "caffeteria \u0645\u0642\u0647\u0649", "name:ar": "caffeteria \u0645\u0642\u0647\u0649", "name:fr": "caffeteria"}}, {"type": "node", "id": 6724655985, "lat": 36.1067525, "lon": 4.7167839, "tags": {"amenity": "restaurant", "name": "\u0642\u0627\u0639\u0629 \u062d\u0641\u0644\u0627\u062a \u0628\u0627\u0628 \u0627\u0644\u062d\u0627\u0631\u0629 \u0628\u0646 \u0633\u0627\u0644\u0645", "name:ar": "\u0642\u0627\u0639\u0629 \u062d\u0641\u0644\u0627\u062a \u0628\u0627\u0628 \u0627\u0644\u062d\u0627\u0631\u0629 \u0628\u0646 \u0633\u0627\u0644\u0645", "name:fr": "Salle des f\u00eates Bab El Hara Ben Salem"}}, {"type": "node", "id": 6736606285, "lat": 36.0664695, "lon": 4.6118923, "tags": {"amenity": "restaurant", "name:fr": "EN NAKHIL"}}, {"type": "node", "id": 7917627987, "lat": 36.0674213, "lon": 4.7767171, "tags": {"amenity": "restaurant", "name": "Khaima chakhchoukha"}}, {"type": "node", "id": 9597973776, "lat": 36.0651516, "lon": 4.7507426, "tags": {"amenity": "restaurant", "name": "Pizza Au Feu de Bois", "phone": "+213 54 092 8987"}}, {"type": "node", "id": 10909082314, "lat": 36.065703, "lon": 4.7553988}, {"type": "node", "id": 10909082828, "lat": 36.0657028, "lon": 4.7553265}, {"type": "node", "id": 10909084443, "lat": 36.0655689, "lon": 4.7553884}, {"type": "node", "id": 10909085496, "lat": 36.065722, "lon": 4.75539}, {"type": "node", "id": 10909087389, "lat": 36.0657438, "lon": 4.7555339}, {"type": "node", "id": 10909087490, "lat": 36.0657856, "lon": 4.7555145}, {"type": "node", "id": 10909090123, "lat": 36.0658223, "lon": 4.755636}, {"type": "node", "id": 11107732430, "lat": 36.0649791, "lon": 4.61853}, {"type": "node", "id": 11107732877, "lat": 36.065177, "lon": 4.6153012}, {"type": "node", "id": 11107733346, "lat": 36.0648423, "lon": 4.6174587}, {"type": "node", "id": 11107733631, "lat": 36.0639419, "lon": 4.6223071}, {"type": "node", "id": 11107734318, "lat": 36.0648541, "lon": 4.6184155}, {"type": "node", "id": 11107734342, "lat": 36.0651492, "lon": 4.6162142}, {"type": "node", "id": 11107734528, "lat": 36.0652754, "lon": 4.6155539}, {"type": "node", "id": 11107734611, "lat": 36.0639246, "lon": 4.6223077}, {"type": "node", "id": 11107734658, "lat": 36.0653549, "lon": 4.6152858}, {"type": "node", "id": 11107735238, "lat": 36.064993, "lon": 4.618455}, {"type": "node", "id": 11107735378, "lat": 36.065362, "lon": 4.6152504}, {"type": "node", "id": 11107735641, "lat": 36.0638053, "lon": 4.622224}, {"type": "node", "id": 11107736765, "lat": 36.0643344, "lon": 4.6238819}, {"type": "node", "id": 11107736855, "lat": 36.0645507, "lon": 4.6241952}, {"type": "node", "id": 11107737016, "lat": 36.065115, "lon": 4.616195}, {"type": "node", "id": 11107737173, "lat": 36.0648246, "lon": 4.6175713}, {"type": "node", "id": 11107737453, "lat": 36.0651691, "lon": 4.6155214}, {"type": "node", "id": 11107738372, "lat": 36.0638164, "lon": 4.6226527}, {"type": "node", "id": 11107738565, "lat": 36.0651705, "lon": 4.6153341}, {"type": "node", "id": 11107738638, "lat": 36.0652044, "lon": 4.6153445}, {"type": "node", "id": 11107743850, "lat": 36.0652261, "lon": 4.6153162}, {"type": "node", "id": 11107743992, "lat": 36.0643559, "lon": 4.624074}, {"type": "node", "id": 11107744656, "lat": 36.0652463, "lon": 4.6152151}, {"type": "node", "id": 11107745477, "lat": 36.0649544, "lon": 4.6185229}, {"type": "node", "id": 11107745679, "lat": 36.0653863, "lon": 4.6152954}, {"type": "node", "id": 11107746440, "lat": 36.0651848, "lon": 4.6161173}, {"type": "node", "id": 11107746698, "lat": 36.0639223, "lon": 4.6222193}, {"type": "node", "id": 11107747410, "lat": 36.0649376, "lon": 4.6186136}, {"type": "node", "id": 11107747486, "lat": 36.0647578, "lon": 4.6174383}, {"type": "node", "id": 11107747566, "lat": 36.0653354, "lon": 4.6155507}, {"type": "node", "id": 11107747844, "lat": 36.0644167, "lon": 4.6242181}, {"type": "node", "id": 11107747911, "lat": 36.0645123, "lon": 4.6238515}, {"type": "node", "id": 11108039580, "lat": 36.0678465, "lon": 4.7731833}, {"type": "node", "id": 11108040815, "lat": 36.067938, "lon": 4.7732253}, {"type": "node", "id": 11108041172, "lat": 36.0677857, "lon": 4.7733861}, {"type": "node", "id": 11108057407, "lat": 36.0472396, "lon": 4.7976779}, {"type": "node", "id": 11108058151, "lat": 36.0470674, "lon": 4.7974497}, {"type": "node", "id": 11108058638, "lat": 36.0470872, "lon": 4.7974622}, {"type": "node", "id": 11108058981, "lat": 36.047123, "lon": 4.797376}, {"type": "node", "id": 11108059294, "lat": 36.0470283, "lon": 4.797544}, {"type": "node", "id": 11108064786, "lat": 36.045164, "lon": 4.8191719}, {"type": "node", "id": 11108065119, "lat": 36.0451279, "lon": 4.8191108}, {"type": "node", "id": 11108065287, "lat": 36.0450448, "lon": 4.8188883}, {"type": "node", "id": 11108072345, "lat": 36.0451875, "lon": 4.8189918}, {"type": "node", "id": 11108075569, "lat": 36.0451156, "lon": 4.8191368}, {"type": "node", "id": 11108076158, "lat": 36.0452411, "lon": 4.8190093}, {"type": "node", "id": 11108076378, "lat": 36.0451951, "lon": 4.8189759}, {"type": "node", "id": 11170610756, "lat": 36.0668932, "lon": 4.7516753}, {"type": "node", "id": 11170610896, "lat": 36.0668518, "lon": 4.7517502}, {"type": "node", "id": 11170611052, "lat": 36.0671054, "lon": 4.7514808}, {"type": "node", "id": 11170611444, "lat": 36.0671051, "lon": 4.7515442}, {"type": "node", "id": 11170611470, "lat": 36.066865, "lon": 4.7519836}, {"type": "node", "id": 11170611620, "lat": 36.0669116, "lon": 4.7519839}, {"type": "node", "id": 11170611705, "lat": 36.0670147, "lon": 4.7516617}, {"type": "node", "id": 11170611960, "lat": 36.0668512, "lon": 4.7518923}, {"type": "node", "id": 11170612154, "lat": 36.066893, "lon": 4.7517504}, {"type": "node", "id": 11170612471, "lat": 36.0670865, "lon": 4.751596}, {"type": "node", "id": 11170612699, "lat": 36.0669488, "lon": 4.7518929}, {"type": "node", "id": 11170613219, "lat": 36.0669469, "lon": 4.7515362}, {"type": "node", "id": 11170613917, "lat": 36.0669486, "lon": 4.7519456}, {"type": "node", "id": 11170614004, "lat": 36.0670447, "lon": 4.7514804}, {"type": "node", "id": 11170614085, "lat": 36.0671025, "lon": 4.7516622}, {"type": "node", "id": 11170614113, "lat": 36.0668534, "lon": 4.7406581}, {"type": "node", "id": 11170614138, "lat": 36.0668495, "lon": 4.740551}, {"type": "node", "id": 11170614432, "lat": 36.0667269, "lon": 4.7406653}, {"type": "node", "id": 11170614471, "lat": 36.0668733, "lon": 4.7405497}, {"type": "node", "id": 11170614520, "lat": 36.0668707, "lon": 4.740481}, {"type": "node", "id": 11170614660, "lat": 36.066827, "lon": 4.7402073}, {"type": "node", "id": 11170614845, "lat": 36.066824, "lon": 4.740127}, {"type": "node", "id": 11170615232, "lat": 36.0669117, "lon": 4.7519454}, {"type": "node", "id": 11170615255, "lat": 36.0668437, "lon": 4.7404826}, {"type": "node", "id": 11170615528, "lat": 36.0669464, "lon": 4.7516756}, {"type": "node", "id": 11170615543, "lat": 36.0670444, "lon": 4.7515367}, {"type": "node", "id": 11170616060, "lat": 36.0668335, "lon": 4.7402069}, {"type": "node", "id": 11170616337, "lat": 36.0670867, "lon": 4.751544}, {"type": "node", "id": 11170616407, "lat": 36.0670128, "lon": 4.7521615}, {"type": "node", "id": 11170616422, "lat": 36.0671028, "lon": 4.7515961}, {"type": "node", "id": 11170616438, "lat": 36.0746804, "lon": 4.7495366}, {"type": "node", "id": 11170617307, "lat": 36.0745905, "lon": 4.7497438}, {"type": "node", "id": 11170617389, "lat": 36.0744994, "lon": 4.7497055}, {"type": "node", "id": 11170617559, "lat": 36.0744273, "lon": 4.7497547}, {"type": "node", "id": 11170617725, "lat": 36.0744258, "lon": 4.7497091}, {"type": "node", "id": 11170618896, "lat": 36.0745008, "lon": 4.7497483}, {"type": "node", "id": 11170619049, "lat": 36.0746868, "lon": 4.7497337}, {"type": "node", "id": 11170619198, "lat": 36.0745904, "lon": 4.7497385}, {"type": "node", "id": 11170619443, "lat": 36.0743645, "lon": 4.7497551}, {"type": "node", "id": 11170619448, "lat": 36.0743631, "lon": 4.749715}, {"type": "node", "id": 11170619693, "lat": 36.0742648, "lon": 4.7495573}, {"type": "node", "id": 11170619917, "lat": 36.0743913, "lon": 4.7497136}, {"type": "node", "id": 11170620011, "lat": 36.0743927, "lon": 4.7497564}, {"type": "node", "id": 11170645766, "lat": 36.0810084, "lon": 4.7628883}, {"type": "node", "id": 11170646039, "lat": 36.0799514, "lon": 4.7628703}, {"type": "node", "id": 11170646494, "lat": 36.07998, "lon": 4.7628278}, {"type": "node", "id": 11170646724, "lat": 36.0809251, "lon": 4.7627609}, {"type": "node", "id": 11170646905, "lat": 36.0799795, "lon": 4.7628787}, {"type": "node", "id": 11170646982, "lat": 36.081026, "lon": 4.7626789}, {"type": "node", "id": 11170647433, "lat": 36.0797894, "lon": 4.7628062}, {"type": "node", "id": 11170647505, "lat": 36.0809143, "lon": 4.7628747}, {"type": "node", "id": 11170647713, "lat": 36.0800017, "lon": 4.7628281}, {"type": "node", "id": 11170647951, "lat": 36.0798821, "lon": 4.7628692}, {"type": "node", "id": 11170647953, "lat": 36.0798551, "lon": 4.7629681}, {"type": "node", "id": 11170648427, "lat": 36.0798966, "lon": 4.7629338}, {"type": "node", "id": 11170649101, "lat": 36.0811287, "lon": 4.7626937}, {"type": "node", "id": 11170649759, "lat": 36.0798962, "lon": 4.7629741}, {"type": "node", "id": 11170649990, "lat": 36.0809472, "lon": 4.7627561}, {"type": "node", "id": 11170650374, "lat": 36.0800003, "lon": 4.7629756}, {"type": "node", "id": 11170650733, "lat": 36.0799513, "lon": 4.7628783}, {"type": "node", "id": 11170650803, "lat": 36.0809465, "lon": 4.762764}, {"type": "node", "id": 11170650820, "lat": 36.0810082, "lon": 4.7628909}, {"type": "node", "id": 11170650961, "lat": 36.0797879, "lon": 4.7629671}, {"type": "node", "id": 11170651053, "lat": 36.0798554, "lon": 4.7629332}, {"type": "node", "id": 11170651611, "lat": 36.0810178, "lon": 4.7627663}, {"type": "node", "id": 11170652447, "lat": 36.0674276, "lon": 4.7669604}, {"type": "node", "id": 11170653115, "lat": 36.0667855, "lon": 4.7578764}, {"type": "node", "id": 11170653823, "lat": 36.0668206, "lon": 4.7579412}, {"type": "node", "id": 11170653847, "lat": 36.0674824, "lon": 4.7669381}, {"type": "node", "id": 11170654499, "lat": 36.066683, "lon": 4.7580553}, {"type": "node", "id": 11170655092, "lat": 36.0674685, "lon": 4.7671144}, {"type": "node", "id": 11170655217, "lat": 36.0673335, "lon": 4.7671693}, {"type": "node", "id": 11170655322, "lat": 36.0674303, "lon": 4.766742}, {"type": "node", "id": 11170662873, "lat": 36.0706606, "lon": 4.7596274}, {"type": "node", "id": 11170663056, "lat": 36.0689944, "lon": 4.7626118}, {"type": "node", "id": 11170663078, "lat": 36.0690505, "lon": 4.762732}, {"type": "node", "id": 11170663172, "lat": 36.0687722, "lon": 4.762708}, {"type": "node", "id": 11170663193, "lat": 36.0712987, "lon": 4.7615957}, {"type": "node", "id": 11170663229, "lat": 36.0710398, "lon": 4.7617048}, {"type": "node", "id": 11170663435, "lat": 36.0711302, "lon": 4.7612686}, {"type": "node", "id": 11170663746, "lat": 36.069057, "lon": 4.7626172}, {"type": "node", "id": 11170663955, "lat": 36.0709295, "lon": 4.7616982}, {"type": "node", "id": 11170664025, "lat": 36.0783416, "lon": 4.756422}, {"type": "node", "id": 11170664205, "lat": 36.068997, "lon": 4.7625664}, {"type": "node", "id": 11170664250, "lat": 36.0713017, "lon": 4.7616922}, {"type": "node", "id": 11170664262, "lat": 36.0784861, "lon": 4.7563862}, {"type": "node", "id": 11170664399, "lat": 36.0711426, "lon": 4.7614557}, {"type": "node", "id": 11170664538, "lat": 36.0706653, "lon": 4.7598873}, {"type": "node", "id": 11170664958, "lat": 36.0711572, "lon": 4.7613692}, {"type": "node", "id": 11170665169, "lat": 36.0711334, "lon": 4.7613703}, {"type": "node", "id": 11170665201, "lat": 36.068984, "lon": 4.7625653}, {"type": "node", "id": 11170665238, "lat": 36.0784872, "lon": 4.7565658}, {"type": "node", "id": 11170665761, "lat": 36.0784876, "lon": 4.7563838}, {"type": "node", "id": 11170665841, "lat": 36.0688927, "lon": 4.7624555}, {"type": "node", "id": 11170666001, "lat": 36.0781881, "lon": 4.7563642}, {"type": "node", "id": 11170666015, "lat": 36.0785591, "lon": 4.7564545}, {"type": "node", "id": 11170666237, "lat": 36.070664, "lon": 4.7597533}, {"type": "node", "id": 11170666725, "lat": 36.0722226, "lon": 4.7589788}, {"type": "node", "id": 11170667269, "lat": 36.0709381, "lon": 4.7620398}, {"type": "node", "id": 11170667468, "lat": 36.0688951, "lon": 4.7624128}, {"type": "node", "id": 11170667471, "lat": 36.0721611, "lon": 4.7589806}, {"type": "node", "id": 11170667504, "lat": 36.0710263, "lon": 4.7612736}, {"type": "node", "id": 11170667678, "lat": 36.0721589, "lon": 4.7588654}, {"type": "node", "id": 11170668207, "lat": 36.0707876, "lon": 4.7598824}, {"type": "node", "id": 11170668353, "lat": 36.0783331, "lon": 4.756368}, {"type": "node", "id": 11170668437, "lat": 36.0706618, "lon": 4.7597534}, {"type": "node", "id": 11170668588, "lat": 36.0782955, "lon": 4.7561979}, {"type": "node", "id": 11170668592, "lat": 36.0707151, "lon": 4.7617065}, {"type": "node", "id": 11170668621, "lat": 36.0782782, "lon": 4.7564531}, {"type": "node", "id": 11170668802, "lat": 36.0711599, "lon": 4.7614549}, {"type": "node", "id": 11170668996, "lat": 36.0689898, "lon": 4.7624639}, {"type": "node", "id": 11170672021, "lat": 36.070684, "lon": 4.7538637}, {"type": "node", "id": 11170674537, "lat": 36.0706868, "lon": 4.7537619}, {"type": "node", "id": 11170675270, "lat": 36.0708452, "lon": 4.7538705}, {"type": "node", "id": 11170678592, "lat": 36.0708482, "lon": 4.7537619}, {"type": "node", "id": 11170680130, "lat": 36.0707551, "lon": 4.753758}, {"type": "node", "id": 11170683545, "lat": 36.0710638, "lon": 4.762787}, {"type": "node", "id": 11170683608, "lat": 36.0739363, "lon": 4.7580679}, {"type": "node", "id": 11170683901, "lat": 36.0716159, "lon": 4.7662254}, {"type": "node", "id": 11170684022, "lat": 36.0741322, "lon": 4.7579453}, {"type": "node", "id": 11170684162, "lat": 36.0713065, "lon": 4.7633293}, {"type": "node", "id": 11170684169, "lat": 36.0740447, "lon": 4.7579978}, {"type": "node", "id": 11170684205, "lat": 36.0715291, "lon": 4.7662028}, {"type": "node", "id": 11170684423, "lat": 36.0713979, "lon": 4.7662345}, {"type": "node", "id": 11170684719, "lat": 36.0710964, "lon": 4.763454}, {"type": "node", "id": 11170684743, "lat": 36.0699636, "lon": 4.7624084}, {"type": "node", "id": 11170684873, "lat": 36.0711893, "lon": 4.7632799}, {"type": "node", "id": 11170684891, "lat": 36.0700633, "lon": 4.7620726}, {"type": "node", "id": 11170684904, "lat": 36.0740261, "lon": 4.7580706}, {"type": "node", "id": 11170685019, "lat": 36.07395, "lon": 4.7579351}, {"type": "node", "id": 11170685099, "lat": 36.0739514, "lon": 4.7580585}, {"type": "node", "id": 11170685105, "lat": 36.0698517, "lon": 4.762269}, {"type": "node", "id": 11170685108, "lat": 36.0712314, "lon": 4.7632769}, {"type": "node", "id": 11170685291, "lat": 36.071092, "lon": 4.7633564}, {"type": "node", "id": 11170685431, "lat": 36.0698935, "lon": 4.7621863}, {"type": "node", "id": 11170685435, "lat": 36.0741336, "lon": 4.7580686}, {"type": "node", "id": 11170685582, "lat": 36.0740634, "lon": 4.7579975}, {"type": "node", "id": 11170685590, "lat": 36.07145, "lon": 4.7660443}, {"type": "node", "id": 11170685614, "lat": 36.0738662, "lon": 4.7578159}, {"type": "node", "id": 11170685676, "lat": 36.0715841, "lon": 4.7662491}, {"type": "node", "id": 11170685907, "lat": 36.0698951, "lon": 4.7622694}, {"type": "node", "id": 11170685909, "lat": 36.0710898, "lon": 4.7633565}, {"type": "node", "id": 11170686149, "lat": 36.071581, "lon": 4.7661535}, {"type": "node", "id": 11170686212, "lat": 36.0715271, "lon": 4.765987}, {"type": "node", "id": 11170686224, "lat": 36.0713286, "lon": 4.7627685}, {"type": "node", "id": 11170686386, "lat": 36.0716008, "lon": 4.7661388}, {"type": "node", "id": 11170686486, "lat": 36.0712391, "lon": 4.763444}, {"type": "node", "id": 11170686730, "lat": 36.0740259, "lon": 4.7580572}, {"type": "node", "id": 11170686845, "lat": 36.0740628, "lon": 4.7579465}, {"type": "node", "id": 11170686859, "lat": 36.0738691, "lon": 4.7580691}, {"type": "node", "id": 11170686884, "lat": 36.069853, "lon": 4.7620705}, {"type": "node", "id": 11170686987, "lat": 36.0740426, "lon": 4.7578128}, {"type": "node", "id": 11170687012, "lat": 36.0698955, "lon": 4.7622131}, {"type": "node", "id": 11170687034, "lat": 36.071553, "lon": 4.766185}, {"type": "node", "id": 11170687138, "lat": 36.0715056, "lon": 4.7661545}, {"type": "node", "id": 11170687275, "lat": 36.0700611, "lon": 4.7624093}, {"type": "node", "id": 11170687302, "lat": 36.0713541, "lon": 4.763326}, {"type": "node", "id": 11170687480, "lat": 36.0712997, "lon": 4.7631809}, {"type": "node", "id": 11170687686, "lat": 36.0714533, "lon": 4.7660512}, {"type": "node", "id": 11170688317, "lat": 36.0698933, "lon": 4.7622131}, {"type": "node", "id": 12438700007, "lat": 36.0633293, "lon": 4.6308093, "tags": {"addr:country": "DZ", "amenity": "restaurant", "name": "Resto", "name:fr": "Resto", "source": "microsoft/BuildingFootprints"}}, {"type": "way", "id": 228684128, "nodes": [2373463896, 2373463899, 2373463901, 2373463905, 2373463908, 2373463912, 2373463914, 2373463917, 2373463921, 2373463922, 2373463925, 2373463927, 2373463929, 2373463932, 2373463936, 2373463938, 2373463942, 2373463945, 2373463947, 2373463951, 2373463953, 2373463957, 2373463896], "tags": {"amenity": "restaurant", "building": "yes", "name": "Restaurant Universitaire", "name:ar": "\u0645\u0637\u0639\u0645 \u062c\u0627\u0645\u0639\u064a", "name:en": "U Resto", "name:fr": "Resto U", "smoking": "no"}}, {"type": "way", "id": 386128644, "nodes": [3894680578, 3894680579, 3894680580, 3894680581, 3894680578], "tags": {"amenity": "restaurant", "building": "yes"}}, {"type": "way", "id": 388713792, "nodes": [3918790643, 3918790644, 3918790645, 3918790646, 3918790643], "tags": {"amenity": "restaurant", "building": "yes", "cuisine": "regional"}}, {"type": "way", "id": 554741352, "nodes": [5353436391, 5353436388, 5353436389, 5353436390, 5353436391], "tags": {"amenity": "restaurant", "building": "yes", "name": "\u0645\u0637\u0639\u0645 \u0645\u0642\u0647\u0649 \u0627\u0644\u0645\u063a\u0631\u0628 \u0627\u0644\u0639\u0631\u0628\u064a", "name:ar": "\u0645\u0637\u0639\u0645 \u0645\u0642\u0647\u0649 \u0627\u0644\u0645\u063a\u0631\u0628 \u0627\u0644\u0639\u0631\u0628\u064a", "name:fr": "Caf\u00e9 Restaurant Maghreb"}}, {"type": "way", "id": 1174047218, "nodes": [10909084443, 4591424503, 10909090123, 10909087490, 10909087389, 10909082314, 10909085496, 10909082828, 10909084443], "tags": {"addr:country": "DZ", "amenity": "restaurant", "building": "yes", "name": "Resto", "name:fr": "Resto", "source": "Algerie Mapper Team"}}, {"type": "way", "id": 1197080666, "nodes": [11107744656, 11107743850, 11107732877, 11107738565, 11107738638, 11107737453, 11107734528, 4591494091, 11107747566, 11107745679, 11107734658, 11107735378, 11107744656], "tags": {"addr:country": "DZ", "amenity": "restaurant", "building": "yes", "name": "Resto", "name:fr": "Resto", "source": "microsoft/BuildingFootprints"}}, {"type": "way", "id": 1197080719, "nodes": [11107747486, 4591471099, 11107737173, 11107733346, 11107747486], "tags": {"addr:country": "DZ", "amenity": "restaurant", "building": "yes", "name": "Resto", "name:fr": "Resto", "source": "microsoft/BuildingFootprints"}}, {"type": "way", "id": 1197080725, "nodes": [11107735238, 11107734318, 4591471098, 11107747410, 11107745477, 11107732430, 11107735238], "tags": {"addr:country": "DZ", "amenity": "restaurant", "building": "yes", "name": "Resto", "name:fr": "Resto", "source": "microsoft/BuildingFootprints"}}, {"type": "way", "id": 1197081545, "nodes": [11107735641, 11107738372, 4209701022, 11107733631, 11107734611, 11107746698, 11107735641], "tags": {"addr:country": "DZ", "amenity": "restaurant", "building": "yes", "name": "El Kayma", "name:ar": "\u0627\u0644\u062e\u064a\u0645\u0629", "source": "microsoft/BuildingFootprints"}}, {"type": "way", "id": 1197081907, "nodes": [11107743992, 4109310489, 11107747844, 11107736855, 11107747911, 11107736765, 11107743992], "tags": {"addr:country": "DZ", "amenity": "restaurant", "building": "yes", "cuisine": "regional", "name": "\u0627\u0644\u0645\u0637\u0639\u0645 \u0627\u0644\u0633\u0648\u0631\u064a", "name:ar": "\u0627\u0644\u0645\u0637\u0639\u0645 \u0627\u0644\u0633\u0648\u0631\u064a", "name:fr": "Restaurant syrien", "source": "microsoft/BuildingFootprints"}}, {"type": "way", "id": 1197082298, "nodes": [11107737016, 11107734342, 11107746440, 4591470692, 11107737016], "tags": {"addr:country": "DZ", "amenity": "restaurant", "building": "yes", "name": "Resto", "name:fr": "Resto", "source": "microsoft/BuildingFootprints"}}, {"type": "way", "id": 1197120285, "nodes": [11108039580, 11108041172, 4740350243, 11108040815, 11108039580], "tags": {"addr:country": "DZ", "amenity": "restaurant", "building": "yes", "name": "Resto", "name:fr": "Resto", "source": "microsoft/BuildingFootprints"}}, {"type": "way", "id": 1197124149, "nodes": [11108059294, 11108057407, 2373464116, 11108058981, 11108058638, 11108058151, 11108059294], "tags": {"addr:country": "DZ", "amenity": "cafe", "building": "yes", "source": "microsoft/BuildingFootprints"}}, {"type": "way", "id": 1197125567, "nodes": [11108072345, 11108065287, 4828385225, 11108065119, 11108075569, 11108064786, 11108076158, 11108076378, 11108072345], "tags": {"addr:country": "DZ", "amenity": "restaurant", "building": "yes", "name": "\u0628\u0648\u0645\u0639\u064a\u0646", "name:ar": "\u0628\u0648\u0645\u0639\u064a\u0646", "name:fr": "boumain", "source": "microsoft/BuildingFootprints"}}, {"type": "way", "id": 1205330335, "nodes": [11170614432, 11170614113, 11170614138, 11170614471, 11170614520, 11170615255, 11170616060, 11170614660, 11170614845, 4090689380, 11170614432], "tags": {"addr:country": "DZ", "amenity": "cafe", "building": "yes", "source": "microsoft/BuildingFootprints"}}, {"type": "way", "id": 1205330911, "nodes": [11170616407, 11170611705, 11170614085, 11170616422, 11170612471, 11170616337, 11170611444, 11170611052, 11170614004, 11170615543, 11170613219, 11170615528, 11170610756, 11170612154, 11170610896, 11170611960, 11170612699, 11170613917, 11170615232, 11170611620, 11170611470, 4595153395, 11170616407], "tags": {"addr:country": "DZ", "amenity": "restaurant", "building": "yes", "name": "restaurant gastronomique", "name:fr": "restaurant gastronomique", "source": "microsoft/BuildingFootprints"}}, {"type": "way", "id": 1205331427, "nodes": [3903073332, 11170619443, 11170619448, 11170619917, 11170620011, 11170617559, 11170617725, 11170617389, 11170618896, 11170617307, 11170619198, 11170619049, 11170616438, 11170619693, 3903073332], "tags": {"addr:country": "DZ", "amenity": "cafe", "building": "yes", "source": "microsoft/BuildingFootprints"}}, {"type": "way", "id": 1205335637, "nodes": [11170650374, 11170647713, 11170646494, 11170646905, 11170650733, 11170646039, 11170647951, 4595255089, 11170647433, 11170650961, 11170647953, 11170651053, 11170648427, 11170649759, 11170650374], "tags": {"addr:country": "DZ", "amenity": "cafe", "building": "yes", "source": "microsoft/BuildingFootprints"}}, {"type": "way", "id": 1205336557, "nodes": [4751009525, 11170649101, 11170646982, 11170651611, 11170649990, 11170650803, 11170646724, 11170647505, 11170645766, 11170650820, 4751009525], "tags": {"addr:country": "DZ", "amenity": "cafe", "building": "yes", "source": "microsoft/BuildingFootprints"}}, {"type": "way", "id": 1205336885, "nodes": [11170653115, 4595251292, 11170654499, 11170653823, 11170653115], "tags": {"addr:country": "DZ", "amenity": "cafe", "building": "yes", "source": "microsoft/BuildingFootprints"}}, {"type": "way", "id": 1205337211, "nodes": [11170655322, 5686128823, 11170655217, 11170655092, 11170652447, 11170653847, 11170655322], "tags": {"addr:country": "DZ", "amenity": "restaurant", "building": "yes", "name": "Resto", "name:fr": "Resto", "source": "microsoft/BuildingFootprints"}}, {"type": "way", "id": 1205338675, "nodes": [11170667678, 11170667471, 11170666725, 4432550690, 11170667678], "tags": {"addr:country": "DZ", "amenity": "cafe", "building": "yes", "source": "microsoft/BuildingFootprints"}}, {"type": "way", "id": 1205339125, "nodes": [4413586004, 11170662873, 11170666237, 11170668437, 11170664538, 11170668207, 4413586004], "tags": {"addr:country": "DZ", "amenity": "restaurant", "building": "yes", "name": "El Tassili", "name:ar": "\u0627\u0644\u0637\u0627\u0633\u064a\u0644\u064a", "name:fr": "El Tassili", "source": "microsoft/BuildingFootprints"}}, {"type": "way", "id": 1205339189, "nodes": [11170663435, 11170667504, 11170663229, 11170664250, 11170663193, 4715920906, 11170664399, 11170668802, 11170664958, 11170665169, 11170663435], "tags": {"addr:country": "DZ", "amenity": "restaurant", "building": "yes", "name": "Resto", "name:fr": "Resto", "source": "microsoft/BuildingFootprints"}}, {"type": "way", "id": 1205339573, "nodes": [11170663078, 11170663746, 11170663056, 11170664205, 11170665201, 11170668996, 11170665841, 11170667468, 4591424602, 11170663172, 11170663078], "tags": {"addr:country": "DZ", "amenity": "restaurant", "building": "yes", "name": "Resto", "name:fr": "Resto", "source": "microsoft/BuildingFootprints"}}, {"type": "way", "id": 1205339689, "nodes": [11170668588, 11170666001, 11170668621, 11170668353, 4740350623, 11170664025, 11170665238, 11170666015, 11170665761, 11170664262, 11170668588], "tags": {"addr:country": "DZ", "amenity": "cafe", "building": "yes", "source": "microsoft/BuildingFootprints"}}, {"type": "way", "id": 1205339707, "nodes": [11170663955, 11170668592, 4740389523, 11170667269, 11170663955], "tags": {"addr:country": "DZ", "amenity": "restaurant", "building": "yes", "name": "Resto", "name:fr": "Resto", "source": "microsoft/BuildingFootprints"}}, {"type": "way", "id": 1205340382, "nodes": [11170672021, 11170675270, 11170678592, 11170680130, 4595192994, 11170674537, 11170672021], "tags": {"addr:country": "DZ", "amenity": "restaurant", "building": "yes", "cuisine": "regional", "name": "\u0645\u0623\u0643\u0648\u0644\u0627\u062a \u062a\u0642\u0644\u064a\u062f\u064a\u0629", "name:ar": "\u0645\u0623\u0643\u0648\u0644\u0627\u062a \u062a\u0642\u0644\u064a\u062f\u064a\u0629", "name:fr": "Restaurant Traditionnel", "source": "microsoft/BuildingFootprints"}}, {"type": "way", "id": 1205341969, "nodes": [11170683545, 11170685909, 11170685291, 11170684719, 11170686486, 11170685108, 11170684873, 4595203302, 11170687480, 11170684162, 11170687302, 11170686224, 11170683545], "tags": {"addr:country": "DZ", "amenity": "cafe", "building": "yes", "source": "microsoft/BuildingFootprints"}}, {"type": "way", "id": 1205342162, "nodes": [11170684891, 11170686884, 11170685105, 11170685907, 11170687012, 11170688317, 11170685431, 4740350631, 11170684743, 11170687275, 11170684891], "tags": {"addr:country": "DZ", "amenity": "restaurant", "building": "yes", "name": "Resto", "name:fr": "Resto", "source": "microsoft/BuildingFootprints"}}, {"type": "way", "id": 1205342521, "nodes": [11170686859, 11170683608, 4715920903, 11170685019, 11170685099, 11170686730, 11170684904, 11170685435, 11170684022, 11170686845, 11170685582, 11170684169, 11170686987, 11170685614, 11170686859], "tags": {"addr:country": "DZ", "amenity": "cafe", "building": "yes", "name": "salon de th\u00e9", "name:fr": "salon de th\u00e9", "source": "microsoft/BuildingFootprints"}}, {"type": "way", "id": 1205342579, "nodes": [11170687686, 4418063090, 11170684423, 11170687138, 11170684205, 11170687034, 11170685676, 11170683901, 11170686149, 11170686386, 11170686212, 11170685590, 11170687686], "tags": {"addr:country": "DZ", "amenity": "cafe", "building": "yes", "source": "microsoft/BuildingFootprints"}}]}