{"version": 0.6, "generator": "Overpass API 0.7.62.7 375dc00a", "osm3s": {"timestamp_osm_base": "2025-06-14T14:53:30Z", "copyright": "The data included in this document is from www.openstreetmap.org. The data is made available under ODbL."}, "elements": [{"type": "node", "id": 288932627, "lat": 36.4148402, "lon": 27.3865158, "tags": {"amenity": "restaurant", "capacity": "50", "cuisine": "greek", "name": "Kritikos", "outdoor_seating": "yes", "smoking": "outside", "takeaway": "no"}}, {"type": "node", "id": 288937791, "lat": 36.4133637, "lon": 27.4027202, "tags": {"amenity": "restaurant", "name": "Faros"}}, {"type": "node", "id": 289424129, "lat": 36.4152994, "lon": 27.3853847, "tags": {"amenity": "restaurant", "cuisine": "kebab", "name": "Kiriakos- souvlaki"}}, {"type": "node", "id": 289424218, "lat": 36.4593892, "lon": 27.3355376, "tags": {"amenity": "cafe"}}, {"type": "node", "id": 289426407, "lat": 36.4136107, "lon": 27.387357, "tags": {"amenity": "restaurant", "capacity": "50", "cuisine": "regional;pizza", "name": "Oasis", "opening_hours": "actual closed (2018)", "outdoor_seating": "yes", "smoking": "outside", "takeaway": "yes"}}, {"type": "node", "id": 289426409, "lat": 36.4126368, "lon": 27.388387, "tags": {"amenity": "restaurant", "capacity": "30", "cuisine": "greek;grill", "name": "Dream", "smoking": "outside"}}, {"type": "node", "id": 289426411, "lat": 36.412768, "lon": 27.3882239, "tags": {"amenity": "restaurant", "capacity": "50", "cuisine": "greek", "name": "Armenon", "smoking": "outside"}}, {"type": "node", "id": 289427016, "lat": 36.4478099, "lon": 27.3053098, "tags": {"amenity": "cafe"}}, {"type": "node", "id": 290172753, "lat": 36.4149852, "lon": 27.3858807, "tags": {"amenity": "restaurant", "capacity": "100", "cuisine": "greek;grill;seafood", "name": "Michalis", "smoking": "outside"}}, {"type": "node", "id": 290173083, "lat": 36.4595333, "lon": 27.3355903, "tags": {"amenity": "restaurant", "cuisine": "fish;greek", "name": "Delfini", "name:el": "\u0394\u03b5\u03bb\u03c6\u03af\u03bd\u03b9", "operator": "\u0391\u03bd\u03c4\u03ce\u03bd\u03b7\u03c2 \u039a\u03b1\u03bc\u03bc\u03ac\u03c2", "outdoor_seating": "yes", "phone": "+302246044252"}}, {"type": "node", "id": 408302956, "lat": 36.7683135, "lon": 27.0273556, "tags": {"amenity": "restaurant", "indoor_seating": "yes", "name": "Magic Beach", "outdoor_seating": "yes"}}, {"type": "node", "id": 412732396, "lat": 36.7575491, "lon": 27.1007797, "tags": {"amenity": "restaurant", "name": "Robinson Club Beach Restaurant", "wheelchair": "yes"}}, {"type": "node", "id": 432473493, "lat": 36.5740668, "lon": 27.1768946, "tags": {"amenity": "restaurant"}}, {"type": "node", "id": 432473494, "lat": 36.5741563, "lon": 27.177293, "tags": {"amenity": "restaurant"}}, {"type": "node", "id": 437310954, "lat": 36.7842093, "lon": 27.1457631, "tags": {"amenity": "restaurant", "cuisine": "greek", "name": "Yianni"}}, {"type": "node", "id": 440885094, "lat": 36.7782948, "lon": 27.1401747, "tags": {"amenity": "restaurant", "cuisine": "fish;greek", "name": "Liotrivi"}}, {"type": "node", "id": 440885095, "lat": 36.7784353, "lon": 27.1403055, "tags": {"amenity": "restaurant", "cuisine": "greek", "name": "Posidonia"}}, {"type": "node", "id": 462112789, "lat": 36.4125331, "lon": 27.3885758, "tags": {"amenity": "restaurant", "capacity": "50", "cuisine": "greek;seafood", "name": "Nautilos", "smoking": "outside"}}, {"type": "node", "id": 506091179, "lat": 36.4157344, "lon": 27.3851306, "tags": {"amenity": "cafe", "name": "Georgios Kafenion"}}, {"type": "node", "id": 506455908, "lat": 36.4162902, "lon": 27.3850733, "tags": {"amenity": "restaurant", "name": "Omonia"}}, {"type": "node", "id": 1246964123, "lat": 36.7829458, "lon": 27.1449597, "tags": {"amenity": "cafe", "name": "Velvet"}}, {"type": "node", "id": 1255665626, "lat": 36.7826931, "lon": 27.1435393, "tags": {"amenity": "restaurant", "cuisine": "regional", "name": "Avli"}}, {"type": "node", "id": 1345118543, "lat": 36.6857114, "lon": 27.3735977}, {"type": "node", "id": 1345118606, "lat": 36.6855907, "lon": 27.3735888}, {"type": "node", "id": 1345118719, "lat": 36.6856694, "lon": 27.3733991}, {"type": "node", "id": 1345118858, "lat": 36.6857588, "lon": 27.3736298}, {"type": "node", "id": 1345118875, "lat": 36.6857535, "lon": 27.3736735}, {"type": "node", "id": 1345119045, "lat": 36.6857704, "lon": 27.3734783}, {"type": "node", "id": 1445401973, "lat": 36.7837442, "lon": 27.1456542, "tags": {"amenity": "restaurant", "name": "Pelagos"}}, {"type": "node", "id": 2517642104, "lat": 36.4172709, "lon": 27.3856217, "tags": {"amenity": "cafe", "internet_access": "wlan", "name": "Rementzo", "outdoor_seating": "yes"}}, {"type": "node", "id": 2922971806, "lat": 36.6123565, "lon": 27.1327064, "tags": {"amenity": "cafe", "internet_access": "wlan", "internet_access:fee": "no", "name": "Tpobeza", "source": "local_knowledge"}}, {"type": "node", "id": 2922971808, "lat": 36.6030545, "lon": 27.1774017, "tags": {"amenity": "restaurant", "cuisine": "greek", "int_name": "Balkoni", "name": "\u03a4\u03bf \u039c\u03c0\u03b1\u03bb\u03ba\u03cc\u03bd\u03b9 \u03c4\u03bf\u03c5 \u0395\u03bc\u03c0\u03bf\u03c1\u03b5\u03b9\u03bf\u03cd", "opening_hours": "Mo-Su 09:00-00:00", "phone": "+302242031607", "website": "https://balkoni-nisiros.com/", "wifi": "no"}}, {"type": "node", "id": 2922971809, "lat": 36.61299, "lon": 27.1349243, "tags": {"amenity": "cafe", "cuisine": "greek", "internet_access": "wlan", "internet_access:fee": "no", "name": "Caf\u00e9 Nosto", "source": "local_knowledge"}}, {"type": "node", "id": 2922971810, "lat": 36.6129309, "lon": 27.1339532, "tags": {"amenity": "cafe", "cuisine": "pizza", "internet_access": "wlan", "internet_access:fee": "no", "name": "Alexandros", "source": "local_knowledge"}}, {"type": "node", "id": 2922971811, "lat": 36.6183844, "lon": 27.1714932, "tags": {"amenity": "restaurant", "cuisine": "greek", "name": "Taverna Salonikios", "phone": "2242031371", "wifi": "free"}}, {"type": "node", "id": 2923050427, "lat": 36.61066, "lon": 27.1327225, "tags": {"amenity": "restaurant", "cuisine": "greek", "internet_access": "wlan", "internet_access:fee": "no", "name": "Irini"}}, {"type": "node", "id": 2923050428, "lat": 36.6106537, "lon": 27.1326402, "tags": {"amenity": "restaurant", "cuisine": "greek", "name": "Vegos"}}, {"type": "node", "id": 2945523809, "lat": 36.6123587, "lon": 27.1552596, "tags": {"amenity": "restaurant", "cuisine": "regional", "name": "\u039b\u03bf\u03c5\u03c4\u03c1\u03ac"}}, {"type": "node", "id": 3655898658, "lat": 36.6856006, "lon": 27.373594}, {"type": "node", "id": 3676150667, "lat": 36.7948894, "lon": 27.1547803, "tags": {"amenity": "restaurant", "name": "Taverna Atlantis"}}, {"type": "node", "id": 3676200626, "lat": 36.7816241, "lon": 27.1434869, "tags": {"addr:street": "Akti Miaouli", "amenity": "restaurant", "name": "Loustros"}}, {"type": "node", "id": 3676202246, "lat": 36.7833975, "lon": 27.1447448, "tags": {"amenity": "cafe"}}, {"type": "node", "id": 3676211883, "lat": 36.7818604, "lon": 27.1437417, "tags": {"addr:street": "Akti Miaouli", "amenity": "restaurant", "name": "Aegean"}}, {"type": "node", "id": 3676213318, "lat": 36.7815747, "lon": 27.1434118, "tags": {"addr:street": "Akti Miaouli", "amenity": "restaurant", "name": "Captains"}}, {"type": "node", "id": 4339696276, "lat": 36.785675, "lon": 27.1471417}, {"type": "node", "id": 4339696279, "lat": 36.785738, "lon": 27.1470562}, {"type": "node", "id": 4339696283, "lat": 36.7857685, "lon": 27.147249}, {"type": "node", "id": 4339696288, "lat": 36.7858315, "lon": 27.1471634}, {"type": "node", "id": 4339697635, "lat": 36.7874073, "lon": 27.1492273}, {"type": "node", "id": 4339697637, "lat": 36.7874392, "lon": 27.1491901}, {"type": "node", "id": 4339697646, "lat": 36.7874777, "lon": 27.1493207}, {"type": "node", "id": 4339697648, "lat": 36.787533, "lon": 27.1490798}, {"type": "node", "id": 4339697662, "lat": 36.7876033, "lon": 27.1491732}, {"type": "node", "id": 4350855890, "lat": 36.7848537, "lon": 27.1463339}, {"type": "node", "id": 4350855892, "lat": 36.7848566, "lon": 27.1461687}, {"type": "node", "id": 4350855897, "lat": 36.78491, "lon": 27.1460991}, {"type": "node", "id": 4350855898, "lat": 36.7849125, "lon": 27.1464041}, {"type": "node", "id": 4350855900, "lat": 36.7849213, "lon": 27.1462439}, {"type": "node", "id": 4350855915, "lat": 36.7850333, "lon": 27.1462465}, {"type": "node", "id": 4361327091, "lat": 36.4539952, "lon": 27.345435, "tags": {"amenity": "restaurant", "name": "To kastro"}}, {"type": "node", "id": 4695661687, "lat": 36.7822076, "lon": 27.1441065, "tags": {"addr:street": "Akti Miaouli", "amenity": "cafe", "name": "\u03a3\u03a4\u0395\u039b\u0399\u039f\u03a3 \u039a\u0391\u03a6\u0395"}}, {"type": "node", "id": 4695662946, "lat": 36.7822226, "lon": 27.1440458, "tags": {"addr:street": "Eleftherias", "amenity": "cafe", "name": "1960"}}, {"type": "node", "id": 4695665850, "lat": 36.7823368, "lon": 27.1442683, "tags": {"addr:street": "Akti Miaouli", "amenity": "restaurant", "name": "\u03a4\u0395\u039f\u03a3"}}, {"type": "node", "id": 4699403080, "lat": 36.7824979, "lon": 27.1422849, "tags": {"addr:street": "\u0394\u03c9\u03b4\u03b5\u03ba\u03b1\u03bd\u03ae\u03c3\u03bf\u03c5", "amenity": "restaurant", "name": "TONY'S RESTAURANT"}}, {"type": "node", "id": 4739790077, "lat": 36.781764, "lon": 27.1435588, "tags": {"addr:street": "Akti Miaouli", "amenity": "restaurant", "name": "SCALA"}}, {"type": "node", "id": 4739794894, "lat": 36.7814488, "lon": 27.1432877, "tags": {"addr:street": "Akti Miaouli", "amenity": "restaurant", "cuisine": "pizza", "name": "PEPERONIS"}}, {"type": "node", "id": 4881510023, "lat": 36.4157484, "lon": 27.3844497, "tags": {"amenity": "restaurant", "cuisine": "greek;seafood", "name": "Trata", "outdoor_seating": "yes", "smoking": "outside"}}, {"type": "node", "id": 4881510024, "lat": 36.4159578, "lon": 27.3854577, "tags": {"amenity": "restaurant", "cuisine": "fish;greek;mediterranean", "int_name": "Nikos", "internet_access": "wlan", "name": "\u03bf \u039d\u0399\u039a\u039f\u03a3", "phone": "+302246044148"}}, {"type": "node", "id": 4881510025, "lat": 36.4544767, "lon": 27.3454678, "tags": {"amenity": "restaurant", "cuisine": "coffee_shop", "name": "\u03a0\u03b1\u03bb\u03b9\u03bf \u03bc\u03b5\u03c1\u03b1\u03ba\u03b9", "name:el": "\u03a0\u03b1\u03bb\u03b9\u03bf \u03bc\u03b5\u03c1\u03b1\u03ba\u03b9", "name:en": "Palio Meraki", "opening_hours": "Mo-Su 06:30-14:00, 18:00-01:00", "phone": "+302246044176"}}, {"type": "node", "id": 4891601324, "lat": 36.612904, "lon": 27.1354925, "tags": {"amenity": "cafe", "cuisine": "sandwich;pizza;ice_cream;coffee_shop", "internet_access": "wlan", "name": "Remezzo", "name:el": "Remezzo", "name:en": "Remezzo"}}, {"type": "node", "id": 4941023444, "lat": 36.6107255, "lon": 27.1333216, "tags": {"amenity": "restaurant", "cuisine": "greek", "name": "Panorama"}}, {"type": "node", "id": 4941023448, "lat": 36.6105909, "lon": 27.1324794, "tags": {"amenity": "restaurant", "cuisine": "greek", "internet_access": "wlan", "internet_access:fee": "no", "name": "Irini"}}, {"type": "node", "id": 4941071985, "lat": 36.6122358, "lon": 27.1325451, "tags": {"amenity": "cafe", "name": "Ta Liotric"}}, {"type": "node", "id": 4941204362, "lat": 36.6139948, "lon": 27.1601343, "tags": {"amenity": "restaurant", "cuisine": "greek", "fax": "+30 6938 777779", "name": "Limenari", "name:en": "Limenari", "outdoor_seating": "yes", "phone": "+30 22420 31239"}}, {"type": "node", "id": 4941204363, "lat": 36.6137859, "lon": 27.1387678, "tags": {"amenity": "cafe"}}, {"type": "node", "id": 4947019690, "lat": 36.612, "lon": 27.1324325, "tags": {"amenity": "restaurant"}}, {"type": "node", "id": 4947019691, "lat": 36.612464, "lon": 27.1326202, "tags": {"amenity": "restaurant"}}, {"type": "node", "id": 4947019692, "lat": 36.6128322, "lon": 27.1330038, "tags": {"amenity": "restaurant"}}, {"type": "node", "id": 4952773423, "lat": 36.6727836, "lon": 27.5062837, "tags": {"amenity": "restaurant", "name": "Payam Restaurant"}}, {"type": "node", "id": 4978125769, "lat": 36.7829593, "lon": 27.1425523, "tags": {"amenity": "cafe"}}, {"type": "node", "id": 5648862175, "lat": 36.6185981, "lon": 27.1703965, "tags": {"amenity": "restaurant", "cuisine": "greek", "name": "Aphrodite"}}, {"type": "node", "id": 5648862180, "lat": 36.6183851, "lon": 27.1712528, "tags": {"amenity": "restaurant", "cuisine": "greek", "name": "Captain\u2018s House", "wifi": "free"}}, {"type": "node", "id": 5649180025, "lat": 36.6183517, "lon": 27.1717422, "tags": {"amenity": "restaurant"}}, {"type": "node", "id": 5677482322, "lat": 36.6123659, "lon": 27.1325624, "tags": {"amenity": "cafe", "name": "\u03c4\u03ac \u03bb\u03b9\u03bf\u03c4\u03c1\u03af\u03b2\u03b9\u03b1", "name:el": "\u03c4\u03ac \u03bb\u03b9\u03bf\u03c4\u03c1\u03af\u03b2\u03b9\u03b1", "name:en": "the liotrivia"}}, {"type": "node", "id": 5722066962, "lat": 36.412226, "lon": 27.3890852, "tags": {"amenity": "restaurant", "cuisine": "crepe;ice_cream;waffle", "name": "Sweet Corner"}}, {"type": "node", "id": 6326101285, "lat": 36.7783413, "lon": 27.052083, "tags": {"amenity": "restaurant", "name": "Taverna Fytorio"}}, {"type": "node", "id": 6582149372, "lat": 36.4159355, "lon": 27.3857472, "tags": {"amenity": "restaurant", "name": "Gorgona"}}, {"type": "node", "id": 6593340838, "lat": 36.5980281, "lon": 27.2027378, "tags": {"amenity": "restaurant", "cuisine": "greek", "name": "\u038c\u03b1\u03c3\u03b9\u03c2", "name:el": "\u038c\u03b1\u03c3\u03b9\u03c2", "name:en": "Oasis"}}, {"type": "node", "id": 6694939585, "lat": 36.6133132, "lon": 27.1363143, "tags": {"addr:street": "Platia Ilikiomeni", "amenity": "restaurant", "cuisine": "greek", "name:en": "Seaview Cafe Bar Pizzeria"}}, {"type": "node", "id": 6711999785, "lat": 36.6116373, "lon": 27.1324188, "tags": {"amenity": "cafe", "name:pl": "Meat Point Coffe and Snacks"}}, {"type": "node", "id": 6788608586, "lat": 36.6164348, "lon": 27.1643745, "tags": {"amenity": "restaurant", "name": "\u03c4\u03bf \u03a0\u03ad\u03c1\u03b1\u03c3\u03bc\u03b1"}}, {"type": "node", "id": 6852776288, "lat": 36.6920466, "lon": 27.4671109, "tags": {"amenity": "cafe"}}, {"type": "node", "id": 7476373376, "lat": 36.4348116, "lon": 27.3494675}, {"type": "node", "id": 7476373377, "lat": 36.4348214, "lon": 27.3495922}, {"type": "node", "id": 7476373378, "lat": 36.434571, "lon": 27.3496217}, {"type": "node", "id": 7476373379, "lat": 36.4345602, "lon": 27.349501}, {"type": "node", "id": 7510065440, "lat": 36.4579856, "lon": 27.3314767, "tags": {"amenity": "restaurant", "cuisine": "greek", "int_name": "Taverna Elpida", "name": "\u03a4\u03b1\u03b2\u03ad\u03c1\u03bd\u03b1 \u0395\u03bb\u03c0\u03af\u03b4\u03b1"}}, {"type": "node", "id": 7736649785, "lat": 36.6108998, "lon": 27.130793, "tags": {"amenity": "restaurant", "name:de": "Oxos"}}, {"type": "node", "id": 8989671117, "lat": 36.6118979, "lon": 27.1323795, "tags": {"addr:postcode": "85303", "amenity": "restaurant", "cuisine": "fish;greek", "name": "\u03a7\u03bf\u03c7\u03bb\u1f70\u03ba\u03bf\u03b9", "name:el": "\u03a7\u03bf\u03c7\u03bb\u1f70\u03ba\u03bf\u03b9", "name:en": "Khokhlakoi Taverna"}}, {"type": "node", "id": 9052920045, "lat": 36.7842047, "lon": 27.1463131, "tags": {"amenity": "restaurant", "contact:phone": "+30 693 228 6013", "contact:website": "https://www.facebook.com/alexanderskos/", "name": "Restaurant Alexander"}}, {"type": "node", "id": 9052924853, "lat": 36.7808807, "lon": 27.1428012, "tags": {"amenity": "restaurant", "contact:phone": "+30 2242 048703", "contact:website": "https://facebook.com/Faros-Greek-Restaurant-1419858248292785/", "indoor_seating": "yes", "name": "Faros Greek Restaurant", "outdoor_seating": "yes"}}, {"type": "node", "id": 9204323038, "lat": 36.6108605, "lon": 27.1325888, "tags": {"amenity": "restaurant", "name": "Vegos"}}, {"type": "node", "id": 11152732630, "lat": 36.6031044, "lon": 27.1773885}, {"type": "node", "id": 11152732631, "lat": 36.6030168, "lon": 27.1773262}, {"type": "node", "id": 11152732632, "lat": 36.6029901, "lon": 27.1774031}, {"type": "node", "id": 11152732633, "lat": 36.6030523, "lon": 27.1774471}, {"type": "node", "id": 11155421944, "lat": 36.5980418, "lon": 27.2026604}, {"type": "node", "id": 11155421945, "lat": 36.5979901, "lon": 27.2026912}, {"type": "node", "id": 11155421946, "lat": 36.5980159, "lon": 27.202769}, {"type": "node", "id": 11155421947, "lat": 36.5980676, "lon": 27.2027395}, {"type": "node", "id": 11182883940, "lat": 36.6808181, "lon": 27.5598923, "tags": {"amenity": "restaurant", "name": "Poyraz"}}, {"type": "node", "id": 11182883941, "lat": 36.6760068, "lon": 27.5106699, "tags": {"amenity": "restaurant", "name": "Aylin"}}, {"type": "node", "id": 11919716463, "lat": 36.6729237, "lon": 27.5064841, "tags": {"amenity": "restaurant", "name": "Badem"}}, {"type": "node", "id": 12245786101, "lat": 36.783202, "lon": 27.1452671, "tags": {"amenity": "restaurant", "cuisine": "breakfast", "name": "Portoeye"}}, {"type": "node", "id": 12245860402, "lat": 36.7827127, "lon": 27.1433386, "tags": {"amenity": "restaurant", "cuisine": "greek", "name": "Avli"}}, {"type": "node", "id": 12265021489, "lat": 36.8006349, "lon": 27.0915352, "tags": {"amenity": "cafe"}}, {"type": "way", "id": 119812038, "nodes": [1345118875, 3655898658, 1345118606, 1345118719, 1345119045, 1345118543, 1345118858, 1345118875], "tags": {"amenity": "restaurant", "building": "yes", "source": "bing"}}, {"type": "way", "id": 436092528, "nodes": [4339697648, 4339697662, 4339697646, 4339697635, 4339697637, 4339697648], "tags": {"amenity": "restaurant", "building": "yes", "cuisine": "greek", "internet_access": "wlan", "name": "Anemos", "opening_hours": "13:00-23:00", "phone": "+302242091606"}}, {"type": "way", "id": 436092534, "nodes": [4339696283, 4339696276, 4339696279, 4339696288, 4339696283], "tags": {"amenity": "restaurant", "building": "yes", "cuisine": "greek;seafood", "name": "Yo-Yo's"}}, {"type": "way", "id": 437267137, "nodes": [4350855915, 4350855898, 4350855890, 4350855900, 4350855892, 4350855897, 4350855915], "tags": {"amenity": "restaurant", "building": "yes", "name": "Taverna Mylos"}}, {"type": "way", "id": 799406117, "nodes": [7476373376, 7476373377, 7476373378, 7476373379, 7476373376], "tags": {"amenity": "restaurant", "building": "yes", "cuisine": "greek;regional", "name": "\u0395\u03bd \u03a0\u03bb\u03c9", "name:el": "\u0395\u03bd \u03a0\u03bb\u03c9", "name:en": "En Plo"}}, {"type": "way", "id": 1203073029, "nodes": [11152732630, 11152732631, 11152732632, 11152732633, 11152732630], "tags": {"amenity": "restaurant", "building": "yes"}}, {"type": "way", "id": 1203413745, "nodes": [11155421944, 11155421945, 11155421946, 11155421947, 11155421944], "tags": {"amenity": "restaurant", "building": "yes"}}]}