{"version": 0.6, "generator": "Overpass API 0.7.62.7 375dc00a", "osm3s": {"timestamp_osm_base": "2025-06-14T15:39:30Z", "copyright": "The data included in this document is from www.openstreetmap.org. The data is made available under ODbL."}, "elements": [{"type": "node", "id": 4453842235, "lat": 12.7336906, "lon": 39.5073659, "tags": {"amenity": "cafe"}}, {"type": "node", "id": 4526514893, "lat": 12.7831382, "lon": 39.5372538, "tags": {"amenity": "restaurant", "cuisine": "ethiopian", "name": "Eden", "name:en": "Eden Resturant"}}, {"type": "node", "id": 6280361185, "lat": 12.7968984, "lon": 39.6446338, "tags": {"amenity": "restaurant", "name": "\u121d\u1215\u12dd\u1290\u1275 \u122c\u1235\u1276\u122b\u1295\u1275", "name:en": "Mhznet Restaurant"}}, {"type": "node", "id": 6394139485, "lat": 12.7829367, "lon": 39.5371663, "tags": {"amenity": "restaurant", "name": "\u1200-\u130d\u12a5\u12dd \u1263\u1205\u120b\u12ca \u1264", "name:am": "\u1200-\u130d\u12a5\u12dd \u1263\u1205\u120b\u12ca \u1264\u1275 \u1265\u120d\u12d2", "name:en": "Ha-Giez Caltural Restaurant"}}, {"type": "node", "id": 6395643586, "lat": 12.784237, "lon": 39.5403955, "tags": {"amenity": "cafe", "name": "\u1230\u121d\u1203\u120d \u12ab\u134c \u121b\u12ed\u1328\u12cd", "name:en": "Semhal Cafe Maichew"}}, {"type": "node", "id": 6400593885, "lat": 12.7857694, "lon": 39.5410553, "tags": {"amenity": "restaurant", "name:en": "Eden Restaurant"}}, {"type": "node", "id": 6499000390, "lat": 12.7832588, "lon": 39.5429172, "tags": {"amenity": "restaurant", "name:en": "Brhan Siga Bet"}}, {"type": "node", "id": 6499000391, "lat": 12.7828794, "lon": 39.5396791, "tags": {"amenity": "cafe", "name:en": "Tsehay Inda Buna"}}, {"type": "node", "id": 8007047385, "lat": 12.7946465, "lon": 39.6424389, "tags": {"amenity": "cafe", "name": "\u12f3 \u1265\u1203\u134d\u1273 \u1261\u1295", "name:en": "best coffee mekoni"}}, {"type": "node", "id": 8007553485, "lat": 12.7948191, "lon": 39.6419359, "tags": {"amenity": "restaurant", "name": "\u1275\u1295\u1233\u12a4 \u122c\u1235\u1276\u122b\u1295\u1275", "name:en": "Tinsae restorant mokoni"}}]}