{"version": 0.6, "generator": "Overpass API 0.7.62.7 375dc00a", "osm3s": {"timestamp_osm_base": "2025-06-14T13:55:30Z", "copyright": "The data included in this document is from www.openstreetmap.org. The data is made available under ODbL."}, "elements": [{"type": "node", "id": 302273312, "lat": 42.2316368, "lon": 14.3906887, "tags": {"addr:postcode": "66034", "amenity": "cafe", "email": "cafeart@alice.it", "internet_access": "yes", "name": "Caffetteria Fenaroli", "outdoor_seating": "yes", "phone": "+39 0872 712072", "website": "https://cafeart.it"}}, {"type": "node", "id": 304969350, "lat": 42.2284512, "lon": 14.3940619, "tags": {"amenity": "restaurant", "cuisine": "pizza", "name": "Pizzeria Grotta Azzurra"}}, {"type": "node", "id": 305218193, "lat": 42.2264844, "lon": 14.3766942, "tags": {"amenity": "restaurant", "name": "Ristorante La Furnacelle", "tourism": "hotel"}}, {"type": "node", "id": 306504511, "lat": 42.2298857, "lon": 14.3999137, "tags": {"amenity": "restaurant", "name": "Ristorante Ribot"}}, {"type": "node", "id": 538062384, "lat": 42.223477, "lon": 14.3851456, "tags": {"amenity": "restaurant", "cuisine": "pizza", "name": "Voglia di pizza... napoletana"}}, {"type": "node", "id": 1705663724, "lat": 42.184834, "lon": 14.3934966, "tags": {"amenity": "restaurant", "name": "Il Pino"}}, {"type": "node", "id": 1927893907, "lat": 42.2822337, "lon": 14.4893786}, {"type": "node", "id": 2058538785, "lat": 42.3940757, "lon": 14.3395671, "tags": {"amenity": "cafe", "cuisine": "coffee;pastry", "outdoor_seating": "no", "shop": "tobacco"}}, {"type": "node", "id": 2203886459, "lat": 42.266159, "lon": 14.3760776, "tags": {"amenity": "restaurant"}}, {"type": "node", "id": 2399536955, "lat": 42.2967155, "lon": 14.4101068, "tags": {"amenity": "restaurant", "cuisine": "italian", "name": "La Valletta"}}, {"type": "node", "id": 2430923374, "lat": 42.2318693, "lon": 14.5471174, "tags": {"amenity": "cafe", "name": "Caf\u00e9 Costa Verde"}}, {"type": "node", "id": 2430923375, "lat": 42.2318176, "lon": 14.5472087, "tags": {"amenity": "restaurant", "name": "Costa Verde"}}, {"type": "node", "id": 2430923377, "lat": 42.2339903, "lon": 14.544649, "tags": {"amenity": "restaurant", "name": "Il Trabocco"}}, {"type": "node", "id": 2561877995, "lat": 42.2280806, "lon": 14.3951958, "tags": {"addr:housenumber": "49", "amenity": "restaurant", "contact:facebook": "https://www.facebook.com/pages/pizzeria-Sir-Daniels/245910048824125", "contact:phone": "+39 342 1963497", "cuisine": "pizza", "name": "Pizzeria Sir Daniel's"}}, {"type": "node", "id": 2601346001, "lat": 42.2271131, "lon": 14.3943576}, {"type": "node", "id": 2771237503, "lat": 42.2783282, "lon": 14.3432802, "tags": {"addr:housenumber": "60", "addr:postcode": "66014", "addr:street": "Via Villa Selciaroli", "amenity": "restaurant", "cuisine": "italian_pizza;italian", "name": "La Marrucina", "opening_hours": "Tu-Su 12:15-14:30, 19:30-22:30", "phone": "+39 0871 941518"}}, {"type": "node", "id": 2976552102, "lat": 42.3710444, "lon": 14.392098}, {"type": "node", "id": 2976552106, "lat": 42.3711315, "lon": 14.3921936}, {"type": "node", "id": 2976552109, "lat": 42.3712201, "lon": 14.3918044}, {"type": "node", "id": 2976552110, "lat": 42.371251, "lon": 14.3919219}, {"type": "node", "id": 2976552113, "lat": 42.371277, "lon": 14.3919505}, {"type": "node", "id": 2976552115, "lat": 42.3712812, "lon": 14.3918714}, {"type": "node", "id": 2986042317, "lat": 42.2188072, "lon": 14.3851316, "tags": {"amenity": "cafe", "name": "Ren\u00e9", "phone": "+39 0872 716744", "shop": "pastry"}}, {"type": "node", "id": 2986067059, "lat": 42.2201115, "lon": 14.3835209}, {"type": "node", "id": 2986067060, "lat": 42.2200442, "lon": 14.3837251}, {"type": "node", "id": 2986067061, "lat": 42.2198303, "lon": 14.3835938}, {"type": "node", "id": 2986067062, "lat": 42.2198956, "lon": 14.3833895}, {"type": "node", "id": 3199933984, "lat": 42.2541968, "lon": 14.4984451}, {"type": "node", "id": 3199933985, "lat": 42.2542134, "lon": 14.4982854}, {"type": "node", "id": 3199933986, "lat": 42.2542649, "lon": 14.498458}, {"type": "node", "id": 3199933987, "lat": 42.2542815, "lon": 14.4982983}, {"type": "node", "id": 3304148589, "lat": 42.2434953, "lon": 14.5229867, "tags": {"addr:city": "Fossacesia", "addr:housename": "Ristorante La Conchiglia", "addr:housenumber": "164", "addr:postcode": "66022", "addr:street": "Via Lungomare", "amenity": "restaurant", "cuisine": "fish;ice_cream", "internet_access": "wlan", "name": "La Conchiglia", "survey:date": "2023-11-19", "website": "http://allaconchiglia.it"}}, {"type": "node", "id": 3495730713, "lat": 42.2618208, "lon": 14.5018298}, {"type": "node", "id": 3495730714, "lat": 42.2618339, "lon": 14.5019668}, {"type": "node", "id": 3495730718, "lat": 42.2618556, "lon": 14.5017848}, {"type": "node", "id": 3495730720, "lat": 42.2618903, "lon": 14.5018376}, {"type": "node", "id": 3495730722, "lat": 42.261912, "lon": 14.5019335}, {"type": "node", "id": 3495730725, "lat": 42.2619685, "lon": 14.5017359}, {"type": "node", "id": 3495730726, "lat": 42.2619801, "lon": 14.5017965}, {"type": "node", "id": 3681989574, "lat": 42.3090437, "lon": 14.4455691, "tags": {"amenity": "restaurant", "name": "Granomare"}}, {"type": "node", "id": 4260153189, "lat": 42.35787, "lon": 14.4054004, "tags": {"addr:housenumber": "88", "addr:postcode": "66026", "addr:street": "Corso Giacomo Matteotti", "amenity": "restaurant", "description": "Pizzeria e qualche posto di cucina tipica", "name": "Cristiano"}}, {"type": "node", "id": 4260153289, "lat": 42.3552359, "lon": 14.4029391, "tags": {"addr:housenumber": "59", "addr:street": "Via Cavour", "amenity": "cafe", "cuisine": "pizza", "name": "Pizzerio Cristiano"}}, {"type": "node", "id": 4362489446, "lat": 42.3142644, "lon": 14.3705627}, {"type": "node", "id": 4362489447, "lat": 42.3142008, "lon": 14.3706984}, {"type": "node", "id": 4362489448, "lat": 42.3140837, "lon": 14.370598}, {"type": "node", "id": 4362489449, "lat": 42.3141473, "lon": 14.3704623}, {"type": "node", "id": 4363019494, "lat": 42.3527345, "lon": 14.4028389, "tags": {"addr:housenumber": "17", "addr:postcode": "66026", "addr:street": "Corso Vittorio Emanuele", "amenity": "cafe", "name": "Yacth Bar", "name:it": "Yacth Bar", "opening_hours": "Th-Tu 08:00-00:00", "phone:mobile": "+39 339 239 6699"}}, {"type": "node", "id": 4363091390, "lat": 42.354395, "lon": 14.4033202, "tags": {"amenity": "cafe", "name": "Novecento", "name:it": "Novecento"}}, {"type": "node", "id": 4363192790, "lat": 42.3523753, "lon": 14.4014188, "tags": {"addr:housenumber": "1", "addr:postcode": "66026", "addr:street": "Via Papa Giovanni XXIII", "amenity": "cafe", "name": "Veronica", "name:it": "Veronica", "opening_hours": "Mo-Sa 05:30-00:00; Su 07:00-00:00"}}, {"type": "node", "id": 4368610645, "lat": 42.353633, "lon": 14.4032389, "tags": {"amenity": "cafe", "craft": "confectionery", "name": "Pasticceria Cantelmi", "shop": "pastry"}}, {"type": "node", "id": 5032987521, "lat": 42.1943908, "lon": 14.6333654, "tags": {"amenity": "restaurant", "name": "A un passo dal mare", "name:it": "A due passi dal mare"}}, {"type": "node", "id": 5478160321, "lat": 42.2455476, "lon": 14.5189701, "tags": {"addr:city": "Fossacesia", "addr:housenumber": "142;145", "addr:postcode": "66022", "addr:street": "Via Lungomare", "amenity": "cafe", "contact:facebook": "https://www.facebook.com/profile.php?id=100063847666238", "indoor_seating": "yes", "name": "La Bussola", "opening_hours": "Mo-Su 07:00-20:30", "outdoor_seating": "yes", "phone": "+390872607569", "wheelchair": "no"}}, {"type": "node", "id": 5496005121, "lat": 42.251869, "lon": 14.5087644, "tags": {"addr:housenumber": "10", "addr:postcode": "66022", "addr:street": "Via Lungomare", "amenity": "restaurant", "indoor_seating": "yes", "name": "Da Rocco", "outdoor_seating": "yes", "phone": "+39 0872 607766", "reservation": "yes", "toilets": "yes", "website": "https://www.ristorantedarocco.it", "website:menu": "https://www.thinksmartmenu.it/menu/S0RUD6R22G"}}, {"type": "node", "id": 5574093046, "lat": 42.1751587, "lon": 14.7080797}, {"type": "node", "id": 5574093047, "lat": 42.1751557, "lon": 14.7081534}, {"type": "node", "id": 5574093048, "lat": 42.1750916, "lon": 14.7081487}, {"type": "node", "id": 5574093049, "lat": 42.1750946, "lon": 14.708075}, {"type": "node", "id": 5585652125, "lat": 42.3565857, "lon": 14.4032451, "tags": {"addr:city": "Ortona", "addr:postcode": "66026", "addr:street": "Piazza degli Eroi Canadese", "amenity": "restaurant", "check_date": "2024-10-27", "cuisine": "regional;pizza;arrosticini", "mobile": "+39 334 7213067", "name": "Da Fabio", "operator": "Zappalorto Fabio", "phone": "+39 085 906 2749", "ref:vatin": "IT02529480697"}}, {"type": "node", "id": 5637142130, "lat": 42.2862313, "lon": 14.4817089, "tags": {"addr:city": "Rocca San Giovanni", "addr:housenumber": "73", "addr:street": "Contrrada Vallev\u00f2", "amenity": "restaurant", "cuisine": "seafood;friture;fish", "name": "Ristorante da Gino", "opening_hours": "Mo-Su 07:15-14:30, 15:30-22:30", "outdoor_seating": "yes", "phone": "+39 0872 609 142", "website": "https://restaurantguru.it/Da-Gino-Vallevo"}}, {"type": "node", "id": 5637149500, "lat": 42.2868837, "lon": 14.4809036, "tags": {"amenity": "restaurant", "cuisine": "pizza", "name": "Pizzeria Barraconda"}}, {"type": "node", "id": 5647472122, "lat": 42.3482563, "lon": 14.4008983, "tags": {"addr:housenumber": "70", "addr:postcode": "66026", "addr:street": "Via Papa Giovanni XXIII", "amenity": "restaurant", "cuisine": "pizza", "name": "La Rustica", "opening_hours": "Tu-Sa 00:00-24:00; Mo 08:00-15:30; Su 12:00-23:30", "phone": "+39 0859062663"}}, {"type": "node", "id": 5745547921, "lat": 42.2280224, "lon": 14.3886414, "tags": {"addr:housenumber": "106", "addr:postcode": "66034", "addr:street": "Corso Roma", "amenity": "restaurant", "cuisine": "italian", "email": "info@naturalbistrotlanciano.it", "internet_access": "wlan", "name": "Natural Bistrot", "phone": "+39 0872630303"}}, {"type": "node", "id": 5884943581, "lat": 42.2406563, "lon": 14.530244, "tags": {"addr:city": "Fossacesia", "addr:housenumber": "168", "addr:postcode": "66022", "addr:street": "Via Lungomare", "amenity": "restaurant", "delivery": "no", "name": "Il Chiosco", "phone": "+39 334 2160068", "takeaway": "yes", "wheelchair": "yes"}}, {"type": "node", "id": 5940441643, "lat": 42.2301967, "lon": 14.3976513}, {"type": "node", "id": 5940441644, "lat": 42.2301874, "lon": 14.3977479}, {"type": "node", "id": 5940441645, "lat": 42.2301041, "lon": 14.3977321}, {"type": "node", "id": 5940441646, "lat": 42.2301111, "lon": 14.3976355}, {"type": "node", "id": 5963971254, "lat": 42.3403571, "lon": 14.3635006}, {"type": "node", "id": 6077444361, "lat": 42.184868, "lon": 14.6392916}, {"type": "node", "id": 6318166947, "lat": 42.276371, "lon": 14.4941888}, {"type": "node", "id": 6318166948, "lat": 42.2763002, "lon": 14.494088}, {"type": "node", "id": 6318166949, "lat": 42.2761386, "lon": 14.4942953}, {"type": "node", "id": 6318166950, "lat": 42.2762094, "lon": 14.4943961}, {"type": "node", "id": 6348244350, "lat": 42.3028997, "lon": 14.424607}, {"type": "node", "id": 6348244351, "lat": 42.3027141, "lon": 14.4245693}, {"type": "node", "id": 6348244352, "lat": 42.3026854, "lon": 14.4248278}, {"type": "node", "id": 6348244353, "lat": 42.302871, "lon": 14.4248655}, {"type": "node", "id": 6348244354, "lat": 42.3028763, "lon": 14.4248175}, {"type": "node", "id": 6350013530, "lat": 42.1850987, "lon": 14.6392192}, {"type": "node", "id": 6350013531, "lat": 42.1848697, "lon": 14.6392105}, {"type": "node", "id": 6350013532, "lat": 42.1848661, "lon": 14.6393839}, {"type": "node", "id": 6350013533, "lat": 42.1850951, "lon": 14.6393925}, {"type": "node", "id": 6553935079, "lat": 42.2881277, "lon": 14.4809439}, {"type": "node", "id": 6553935080, "lat": 42.2880325, "lon": 14.4808795}, {"type": "node", "id": 6553935081, "lat": 42.2879928, "lon": 14.4809868}, {"type": "node", "id": 6553935082, "lat": 42.288092, "lon": 14.4810512}, {"type": "node", "id": 6553935084, "lat": 42.2864193, "lon": 14.4842671}, {"type": "node", "id": 6553935085, "lat": 42.2863617, "lon": 14.4841786}, {"type": "node", "id": 6553935086, "lat": 42.2863002, "lon": 14.484251}, {"type": "node", "id": 6553935087, "lat": 42.2863697, "lon": 14.4843369}, {"type": "node", "id": 6553935088, "lat": 42.2863447, "lon": 14.4841987}, {"type": "node", "id": 6553935090, "lat": 42.2823375, "lon": 14.4894572}, {"type": "node", "id": 6553935091, "lat": 42.2822641, "lon": 14.4893392}, {"type": "node", "id": 6553935092, "lat": 42.2821212, "lon": 14.4895243}, {"type": "node", "id": 6553935093, "lat": 42.2821569, "lon": 14.489586}, {"type": "node", "id": 6553935094, "lat": 42.2821966, "lon": 14.4895296}, {"type": "node", "id": 6553935095, "lat": 42.2822938, "lon": 14.4895779}, {"type": "node", "id": 6553935102, "lat": 42.2880059, "lon": 14.4809514}, {"type": "node", "id": 6553935243, "lat": 42.2691193, "lon": 14.5034427}, {"type": "node", "id": 6553935244, "lat": 42.2690666, "lon": 14.5033502}, {"type": "node", "id": 6553935245, "lat": 42.2691718, "lon": 14.5035984}, {"type": "node", "id": 6553935246, "lat": 42.2691728, "lon": 14.5034481}, {"type": "node", "id": 6553935247, "lat": 42.2691371, "lon": 14.503326}, {"type": "node", "id": 6563051544, "lat": 42.2037552, "lon": 14.5974498, "tags": {"addr:city": "Torino di Sangro", "addr:housenumber": "54", "addr:postcode": "66020", "addr:street": "Contrada Palude", "amenity": "restaurant", "check_date": "2023-07-29", "contact:fax": "+39 0873 911164", "contact:whatsapp": "+393397701555", "cuisine": "regional", "name": "Hotel Ristorante Le Morge", "opening_hours": "Th-Tu 12:00-14:00,20:00-23:00", "phone": "+39 0873 911368", "website": "http://www.hotellemorge.com"}}, {"type": "node", "id": 6579695129, "lat": 42.239813, "lon": 14.5319758, "tags": {"amenity": "restaurant", "name": "La Grotta"}}, {"type": "node", "id": 6579735401, "lat": 42.2399794, "lon": 14.5307371}, {"type": "node", "id": 6579735403, "lat": 42.2398022, "lon": 14.5311593}, {"type": "node", "id": 6579735404, "lat": 42.2402946, "lon": 14.5309954}, {"type": "node", "id": 6579735405, "lat": 42.2401096, "lon": 14.5314091}, {"type": "node", "id": 6579749327, "lat": 42.1628627, "lon": 14.4226316, "tags": {"addr:housenumber": "44", "addr:postcode": "66034", "addr:street": "Contrada Sant'Onofrio", "amenity": "restaurant", "cuisine": "pizza", "name": "La Stella", "phone": "+39 0872 50235"}}, {"type": "node", "id": 6580124570, "lat": 42.2309028, "lon": 14.3908246, "tags": {"addr:city": "Lanciano", "addr:housenumber": "67", "addr:postcode": "66034", "addr:street": "Piazza Plebiscito", "amenity": "cafe", "check_date": "2025-05-29", "cuisine": "coffee_shop", "delivery": "no", "drive_through": "no", "highchair": "no", "level": "0", "name": "Abruzzo Gourmet", "opening_hours": "Mo-Sa 07:30-00:00; Su 08:30-00:00", "outdoor_seating": "yes", "payment:cards": "yes", "payment:contactless": "yes", "payment:credit_cards": "yes", "phone": "+39 0872 466471", "website": "https://abruzzogourmet.it"}}, {"type": "node", "id": 6580980379, "lat": 42.2282218, "lon": 14.3929586, "tags": {"addr:city": "Lanciano", "addr:housenumber": "92", "addr:street": "Corso Trento e Trieste", "amenity": "cafe", "building": "yes", "name": "Perla Nera", "outdoor_seating": "yes", "phone": "+39 0872 716302", "smoking": "outside", "wheelchair": "yes"}}, {"type": "node", "id": 6587115806, "lat": 42.3449684, "lon": 14.3815303, "tags": {"addr:postcode": "66026", "addr:street": "Strada Provinciale Santa Liberata", "amenity": "cafe", "cuisine": "regional", "name": "Cafe Graziani", "opening_hours": "Mo-Su 09:00-20:00", "phone": "+390859064737"}}, {"type": "node", "id": 6592795317, "lat": 42.2354008, "lon": 14.4068798, "tags": {"addr:city": "Lanciano", "addr:housenumber": "53", "addr:postcode": "66034", "addr:street": "Via per Treglio", "amenity": "restaurant", "contact:facebook": "https://www.facebook.com/sushishabushabu3", "cuisine": "japanese", "indoor_seating": "yes", "name": "Shabu Shabu 3", "opening_hours": "Mo-Su 12:00-15:00,19:00-23:30", "outdoor_seating": "no", "phone": "+39 0872 40607", "smoking": "no", "takeaway": "yes"}}, {"type": "node", "id": 6612654666, "lat": 42.1762506, "lon": 14.3997697, "tags": {"addr:city": "Lanciano", "addr:housenumber": "134", "addr:postcode": "66034", "addr:street": "Contrada Sant'Onofrio", "amenity": "restaurant", "cuisine": "regional", "delivery": "no", "email": "info@caniloro.it", "name": "Agriturismo Caniloro", "phone": "+39 0872 50297", "tourism": "hotel", "website": "https://www.caniloro.it/"}}, {"type": "node", "id": 7037701180, "lat": 42.3046827, "lon": 14.3806376, "tags": {"amenity": "cafe", "cuisine": "regional"}}, {"type": "node", "id": 7538442240, "lat": 42.4042, "lon": 14.3204817, "tags": {"addr:city": "Francavilla al Mare", "addr:housenumber": "101", "addr:postcode": "66023", "addr:street": "Via Francesco Paolo Tosti", "amenity": "restaurant", "cuisine": "pizza", "name": "Baramares", "opening_hours": "Tu-Su 16:30-00:00", "phone": "+39 085 817525"}}, {"type": "node", "id": 7668832409, "lat": 42.2260086, "lon": 14.3996251, "tags": {"addr:city": "Lanciano", "addr:housenumber": "92", "addr:postcode": "66034", "addr:street": "Via per Fossacesia", "air_conditioning": "yes", "amenity": "restaurant", "bar": "yes", "brewery": "yes", "changing_table": "yes", "check_date": "2024-07-30", "contact:facebook": "https://www.facebook.com/profile.php?id=100041536491840", "cuisine": "regional", "delivery": "yes", "diet:gluten_free": "yes", "diet:vegan": "no", "diet:vegetarian": "yes", "highchair": "yes", "indoor_seating": "yes", "level": "0", "microbrewery": "no", "name": "Ferramenta Arrosticini & Diversi", "outdoor_seating": "yes", "phone": "+39 0872 466434", "reservation": "accepted", "smoking": "no", "source": "survey", "takeaway": "yes", "toilets": "yes", "toilets:wheelchair": "yes", "website:menu": "https://www.miomenudigitale2.it/ferramenta/"}}, {"type": "node", "id": 7684999242, "lat": 42.2076163, "lon": 14.3843079, "tags": {"addr:city": "Lanciano", "addr:housenumber": "142", "addr:street": "Via Marcianese", "amenity": "cafe", "bar": "yes", "cuisine": "regional", "name": "Diba Bar", "opening_hours": "PH,Tu-Su 07:30-24:00+", "outdoor_seating": "yes"}}, {"type": "node", "id": 7714321671, "lat": 42.2891108, "lon": 14.47662}, {"type": "node", "id": 7714321681, "lat": 42.2890641, "lon": 14.4765273}, {"type": "node", "id": 7714331589, "lat": 42.2890521, "lon": 14.4766034}, {"type": "node", "id": 7714331593, "lat": 42.2891232, "lon": 14.4765432}, {"type": "node", "id": 7846971157, "lat": 42.2319523, "lon": 14.3891185, "tags": {"addr:city": "Lanciano", "addr:housenumber": "1", "addr:postcode": "66034", "addr:street": "Vico X Cavour", "amenity": "restaurant", "name": "Taverna Anxa", "phone": "+39 373 751 0701"}}, {"type": "node", "id": 7862015219, "lat": 42.2504506, "lon": 14.4645418, "tags": {"amenity": "restaurant", "cuisine": "pizza", "name": "Il Coccodrillo"}}, {"type": "node", "id": 7911144086, "lat": 42.3879047, "lon": 14.3516937, "tags": {"amenity": "cafe", "name": "Keep Calm And Drink Coffee", "outdoor_seating": "yes"}}, {"type": "node", "id": 7922135979, "lat": 42.2861888, "lon": 14.4824151, "tags": {"amenity": "restaurant", "name": "Caldora Punta Vallev\u00f2"}}, {"type": "node", "id": 7922139629, "lat": 42.2691024, "lon": 14.503612}, {"type": "node", "id": 7922139630, "lat": 42.2691012, "lon": 14.5035201}, {"type": "node", "id": 7922139631, "lat": 42.2690734, "lon": 14.5034332}, {"type": "node", "id": 7922139632, "lat": 42.2690828, "lon": 14.5033308}, {"type": "node", "id": 7922139633, "lat": 42.2691061, "lon": 14.5034512}, {"type": "node", "id": 7922139634, "lat": 42.2691106, "lon": 14.5035138}, {"type": "node", "id": 7925479382, "lat": 42.3559554, "lon": 14.4033363, "tags": {"amenity": "cafe", "name": "Antico bar"}}, {"type": "node", "id": 7929401081, "lat": 42.356847, "lon": 14.4044135, "tags": {"addr:city": "Ortona", "addr:housenumber": "49", "addr:street": "Via Cavour", "amenity": "cafe", "name": "La Magnolia"}}, {"type": "node", "id": 7969377763, "lat": 42.3375449, "lon": 14.3775488}, {"type": "node", "id": 7969377764, "lat": 42.3374599, "lon": 14.3776513}, {"type": "node", "id": 7969377765, "lat": 42.337373, "lon": 14.3775195}, {"type": "node", "id": 7969377766, "lat": 42.3374581, "lon": 14.377417}, {"type": "node", "id": 7972713669, "lat": 42.3094072, "lon": 14.4447985, "tags": {"addr:city": "Marina di San Vito", "addr:housenumber": "27", "addr:postcode": "66038", "addr:street": "Via Lungomare di Gualdo", "amenity": "restaurant", "facebook": "https://www.facebook.com/tramontoalbasanvito/", "name": "Dal Tramonto all'Alba", "opening_hours": "Mo-Su 20:00-24:00; Th off", "phone": "+39 0872 618602", "website": "https://www.daltramontoallalba.com/"}}, {"type": "node", "id": 7972726258, "lat": 42.3096115, "lon": 14.4443538, "tags": {"addr:city": "Marina di San Vito", "addr:housenumber": "31", "addr:postcode": "66038", "addr:street": "Via Lungomare di Gualdo", "amenity": "restaurant", "contact:mobile": "+39 348 306 0807", "name": "Ristorante Bellavista", "opening_hours": "Mo-Su 10:00-23:00"}}, {"type": "node", "id": 7972733750, "lat": 42.3096765, "lon": 14.4451083, "tags": {"amenity": "restaurant", "check_date": "2025-05-29", "contact:phone": "+39 0872 618206", "name": "Ristorante Esperia", "opening_hours": "Mo-Su 12:00-15:30,19:00-23:00; Tu off", "outdoor_seating": "yes", "takeaway": "yes", "website": "http://www.lidoesperia.com/"}}, {"type": "node", "id": 7989032628, "lat": 42.2302429, "lon": 14.5501712, "tags": {"door": "no", "entrance": "main"}}, {"type": "node", "id": 7989032629, "lat": 42.2301418, "lon": 14.5500614}, {"type": "node", "id": 7989032630, "lat": 42.2299631, "lon": 14.5503618}, {"type": "node", "id": 7989032631, "lat": 42.2300642, "lon": 14.5504716}, {"type": "node", "id": 7989032632, "lat": 42.2298931, "lon": 14.5504783}, {"type": "node", "id": 7989032633, "lat": 42.229994, "lon": 14.5505892}, {"type": "node", "id": 8124840194, "lat": 42.3620727, "lon": 14.3822264, "tags": {"addr:city": "Ortona", "addr:postcode": "66026", "addr:street": "Strada Statale 16 Adriatica", "amenity": "restaurant", "contact:email": "mayla.annalisa@yahoo.com", "contact:phone": "+39 350 566 7658", "cuisine": "italian", "name": "Lino Sapori di Mare e Monti", "nohousenumber": "yes", "website": "https://ristorantelinosapori.it/"}}, {"type": "node", "id": 8371293204, "lat": 42.2298859, "lon": 14.3981258, "tags": {"amenity": "cafe", "indoor_seating": "yes", "name": "Bar Milano", "operator": "BAR MILANO DI VERI' GABRIELE", "outdoor_seating": "yes", "ref:vatin": "IT02673660698"}}, {"type": "node", "id": 8379198673, "lat": 42.4039059, "lon": 14.322393, "tags": {"addr:city": "Ortona", "addr:postcode": "66023", "addr:street": "Contrada Postilli", "amenity": "restaurant", "cuisine": "italian;fish;pizza", "facebook": "https://www.facebook.com/blindbeach/", "name": "Blind Beach", "opening_hours": "PH,Mo-Su 08:30-19:30", "phone": "+39 085 378 203", "phone:mobile": "+39 339 864 5972"}}, {"type": "node", "id": 8602257745, "lat": 42.3929545, "lon": 14.3420263, "tags": {"addr:city": "Ortona", "addr:housenumber": "18", "addr:postcode": "66026", "addr:street": "Contrada Foro", "amenity": "cafe", "cuisine": "pizza;italian", "name": "Bar Lilly", "operator": "https://www.foodyas.com/IT/Ortona-a-Mare/1513959388906143/Bar-Lilly", "outdoor_seating": "yes", "website": "https://www.foodyas.com/IT/Ortona-a-Mare/1513959388906143/Bar-Lilly"}}, {"type": "node", "id": 8689851212, "lat": 42.2270045, "lon": 14.394166}, {"type": "node", "id": 8689851213, "lat": 42.2271202, "lon": 14.3943497}, {"type": "node", "id": 8689851214, "lat": 42.2270713, "lon": 14.3944042}, {"type": "node", "id": 8689851215, "lat": 42.2269585, "lon": 14.3942144}, {"type": "node", "id": 8772430310, "lat": 42.3065494, "lon": 14.3348569, "tags": {"addr:city": "Crecchio", "addr:housenumber": "83", "addr:postcode": "66014", "addr:street": "Via Parco dei Mulini", "addr:suburb": "Villa Bacilli", "amenity": "restaurant", "contact:facebook": "Parco.mulini", "contact:instagram": "parcodeimulini", "cuisine": "italian;pizza;meat;drinks;regional", "name": "Parco dei Mulini", "opening_hours": "Tu-Su 19:30-24:00", "payment:cash": "yes", "payment:mastercard": "yes", "payment:visa": "yes", "phone": "+39 0871 941 461", "ref:vatin": "IT02371580693", "takeaway": "yes", "website:menu": "https://www.facebook.com/Parco.mulini/menu/"}}, {"type": "node", "id": 8883783864, "lat": 42.2281764, "lon": 14.398927, "tags": {"addr:city": "Lanciano", "addr:housenumber": "5", "addr:postcode": "66034", "addr:street": "Viale Sant'Antonio", "amenity": "restaurant", "cuisine": "chinese", "name": "Shang Hai"}}, {"type": "node", "id": 8931205083, "lat": 42.3083496, "lon": 14.4446484, "tags": {"addr:city": "San Vito Chietino", "addr:housenumber": "24", "addr:postcode": "66038", "addr:street": "Via Feltrino", "air_conditioning": "yes", "amenity": "restaurant", "cuisine": "seafood", "diet:pescetarian": "yes", "level": "0", "microbrewery": "no", "name": "La Piazzetta", "outdoor_seating": "yes", "phone": "+39 331 8889559", "ref:vatin": "IT02614780696", "wheelchair": "yes"}}, {"type": "node", "id": 9007272416, "lat": 42.2671434, "lon": 14.5014221}, {"type": "node", "id": 9007290217, "lat": 42.2671152, "lon": 14.5015165}, {"type": "node", "id": 9007290218, "lat": 42.2672046, "lon": 14.5015652}, {"type": "node", "id": 9007290219, "lat": 42.2672328, "lon": 14.5014708}, {"type": "node", "id": 9007885218, "lat": 42.3081655, "lon": 14.4458634, "tags": {"amenity": "restaurant", "check_date": "2022-04-23", "name": "Trattoria Adriatica"}}, {"type": "node", "id": 9008493017, "lat": 42.2448619, "lon": 14.5200715, "tags": {"air_conditioning": "no", "amenity": "restaurant", "bar": "yes", "brewery": "yes", "check_date": "2024-08-06", "delivery": "no", "name": "Da Livio arrosticini", "outdoor_seating": "yes"}}, {"type": "node", "id": 9030999599, "lat": 42.217994, "lon": 14.5727994}, {"type": "node", "id": 9030999600, "lat": 42.2179672, "lon": 14.5728534}, {"type": "node", "id": 9030999601, "lat": 42.2177693, "lon": 14.5732525}, {"type": "node", "id": 9030999602, "lat": 42.2178701, "lon": 14.5733436}, {"type": "node", "id": 9030999603, "lat": 42.2179132, "lon": 14.5732566}, {"type": "node", "id": 9030999604, "lat": 42.2180507, "lon": 14.5733808}, {"type": "node", "id": 9030999605, "lat": 42.2181739, "lon": 14.5731323}, {"type": "node", "id": 9030999606, "lat": 42.218048, "lon": 14.5730185}, {"type": "node", "id": 9030999607, "lat": 42.2181063, "lon": 14.5729009}, {"type": "node", "id": 9044029936, "lat": 42.2932854, "lon": 14.3574746, "tags": {"amenity": "restaurant", "cuisine": "barbecue", "indoor_seating": "yes", "name": "Arrosticini Nino La Quercia", "outdoor_seating": "yes", "phone": "+39 3295359951"}}, {"type": "node", "id": 9044029937, "lat": 42.3026882, "lon": 14.3630308, "tags": {"amenity": "cafe", "ice_cream": "yes", "indoor_seating": "yes", "name": "Ciavalini Point", "outdoor_seating": "yes", "phone": "+39 0859032554", "shop": "pastry", "takeaway": "yes"}}, {"type": "node", "id": 9044375309, "lat": 42.2865254, "lon": 14.4818889, "tags": {"amenity": "restaurant", "cuisine": "seafood;friture;fish", "name": "La Locanda dei Tre Sassi", "outdoor_seating": "yes"}}, {"type": "node", "id": 9076885216, "lat": 42.1999717, "lon": 14.5615337}, {"type": "node", "id": 9076922517, "lat": 42.1999341, "lon": 14.5616335}, {"type": "node", "id": 9076922518, "lat": 42.1999551, "lon": 14.5616479}, {"type": "node", "id": 9076922519, "lat": 42.1998949, "lon": 14.5618071}, {"type": "node", "id": 9076922520, "lat": 42.1998811, "lon": 14.5617976}, {"type": "node", "id": 9076922521, "lat": 42.1998485, "lon": 14.5618839}, {"type": "node", "id": 9076922522, "lat": 42.1997756, "lon": 14.5618338}, {"type": "node", "id": 9076922523, "lat": 42.1998073, "lon": 14.5617498}, {"type": "node", "id": 9076922524, "lat": 42.1997525, "lon": 14.5617121}, {"type": "node", "id": 9076922525, "lat": 42.1998182, "lon": 14.5615382}, {"type": "node", "id": 9076922526, "lat": 42.1998712, "lon": 14.5615747}, {"type": "node", "id": 9076922527, "lat": 42.1999042, "lon": 14.5614873}, {"type": "node", "id": 9124004673, "lat": 42.4014084, "lon": 14.3266097, "tags": {"addr:city": "Ortona", "addr:street": "Via Torre Foro", "amenity": "restaurant", "email": "info@villatamerici.it", "name": "Villa Tamarici", "opening_hours": "24/7", "outdoor_seating": "yes", "phone:mobile": "+39 328 102 9179", "website": "https://www.villatamerici.it"}}, {"type": "node", "id": 9124017225, "lat": 42.3950439, "lon": 14.3393606}, {"type": "node", "id": 9124017226, "lat": 42.3949452, "lon": 14.339207}, {"type": "node", "id": 9124017227, "lat": 42.3950549, "lon": 14.3392215}, {"type": "node", "id": 9124017228, "lat": 42.3949883, "lon": 14.3393837}, {"type": "node", "id": 9124017229, "lat": 42.3949342, "lon": 14.339343}, {"type": "node", "id": 9124017230, "lat": 42.3950008, "lon": 14.3391808}, {"type": "node", "id": 9124017231, "lat": 42.3950715, "lon": 14.3392946}, {"type": "node", "id": 9124017232, "lat": 42.3949222, "lon": 14.3392699}, {"type": "node", "id": 9135536408, "lat": 42.3059169, "lon": 14.4497432, "tags": {"addr:city": "San Vito Chietino", "addr:housenumber": "12", "addr:postcode": "66038", "addr:street": "Via Cristoforo Colombo", "amenity": "restaurant", "cuisine": "fish;italian;wine;bistro", "name": "Ebrezza Bistrot Vista Mare", "phone": "+39 0872 618825"}}, {"type": "node", "id": 9163284760, "lat": 42.2302699, "lon": 14.3898496, "tags": {"addr:city": "Lanciano", "addr:housenumber": "28", "addr:postcode": "66034", "addr:street": "Corso Roma", "amenity": "restaurant", "cuisine": "regional", "name": "La Corona di Ferro", "phone": "+39 324 6269304"}}, {"type": "node", "id": 9170018250, "lat": 42.2264677, "lon": 14.391378, "tags": {"amenity": "restaurant", "bar": "yes", "cuisine": "burger", "level": "0", "microbrewery": "no", "name": "Gramburger", "outdoor_seating": "yes"}}, {"type": "node", "id": 9175227308, "lat": 42.2189866, "lon": 14.4042486, "tags": {"addr:city": "Lanciano", "addr:housenumber": "10", "addr:postcode": "66034", "addr:street": "Via Iconicella", "air_conditioning": "yes", "amenity": "restaurant", "bar": "yes", "check_date": "2024-07-30", "cuisine": "pizza", "delivery": "no", "diet:gluten_free": "yes", "internet_access": "wlan", "internet_access:fee": "customers", "level": "0", "name": "Pizza Insieme", "outdoor_seating": "yes", "payment:account_cards": "yes", "payment:app": "yes", "payment:cards": "yes", "payment:cash": "yes", "payment:contactless": "yes", "payment:credit_cards": "yes", "payment:debit_cards": "yes", "phone": "+39 0872 45438", "reservation": "yes", "smoking": "no", "source": "survey", "takeaway": "yes", "toilets": "yes", "website:menu": "https://menu.pienissimo.com/?hash=ykKO5ER6gFk6vb3xO8sdAYNo7DPo87WL&id=2"}}, {"type": "node", "id": 9269488106, "lat": 42.3083145, "lon": 14.3477511}, {"type": "node", "id": 9269488107, "lat": 42.308131, "lon": 14.3478098}, {"type": "node", "id": 9269488108, "lat": 42.3081439, "lon": 14.3478838}, {"type": "node", "id": 9269488109, "lat": 42.3083275, "lon": 14.3478251}, {"type": "node", "id": 9269488110, "lat": 42.308315, "lon": 14.3478271}, {"type": "node", "id": 9269488113, "lat": 42.3081894, "lon": 14.3478702}, {"type": "node", "id": 9269488116, "lat": 42.3081544, "lon": 14.3478819}, {"type": "node", "id": 9537060993, "lat": 42.2867983, "lon": 14.4813575, "tags": {"amenity": "restaurant", "cuisine": "regional", "name": "Ittiturismo Il Porticciolo", "phone": "+390872609104"}}, {"type": "node", "id": 9882492392, "lat": 42.3550097, "lon": 14.4022813, "tags": {"amenity": "restaurant", "cuisine": "fish", "name": "da Mario"}}, {"type": "node", "id": 9922949558, "lat": 42.1820414, "lon": 14.3856288, "tags": {"addr:city": "Lanciano", "addr:housenumber": "100", "addr:postcode": "66034", "addr:street": "Contrada Fontanelle", "air_conditioning": "yes", "amenity": "restaurant", "bar": "yes", "cuisine": "pizza", "name": "Ruhental", "outdoor_seating": "yes", "payment:cards": "yes", "payment:cash": "yes", "payment:contactless": "yes", "payment:credit_cards": "yes", "phone": "+39 0872 44101"}}, {"type": "node", "id": 9952441909, "lat": 42.2363792, "lon": 14.3985234}, {"type": "node", "id": 9952441910, "lat": 42.2359357, "lon": 14.3988439}, {"type": "node", "id": 9952441911, "lat": 42.2362278, "lon": 14.3982001}, {"type": "node", "id": 9952441912, "lat": 42.2358012, "lon": 14.3985558}, {"type": "node", "id": 9952441913, "lat": 42.2364412, "lon": 14.3987233}, {"type": "node", "id": 9972891317, "lat": 42.206677, "lon": 14.3999055, "tags": {"amenity": "restaurant", "name": "Napule\u00e8 pizzeria"}}, {"type": "node", "id": 10010476502, "lat": 42.1691509, "lon": 14.4757748, "tags": {"amenity": "restaurant", "cuisine": "pizza", "name": "Il Ritrovo", "operator": "Leonelli Srl", "phone": "+39 0872 809869", "takeaway": "yes"}}, {"type": "node", "id": 10019323742, "lat": 42.3083132, "lon": 14.44457, "tags": {"addr:city": "San Vito Chietino", "addr:housenumber": "30", "addr:postcode": "66038", "addr:street": "Via Feltrino", "air_conditioning": "yes", "amenity": "restaurant", "cuisine": "seafood", "name": "La Locanda del Mare", "outdoor_seating": "yes", "phone:mobile": "+39 366 109 1276;+39 338 568 4475", "ref:vatin": "IT02709360693", "wheelchair": "yes"}}, {"type": "node", "id": 10026861846, "lat": 42.3582827, "lon": 14.4080513, "tags": {"addr:city": "Ortona", "addr:country": "IT", "addr:housenumber": "2", "addr:postcode": "66026", "addr:province": "Chieti", "addr:street": "Piazza Caduti del Mare", "air_conditioning": "yes", "amenity": "cafe", "bar": "yes", "contact:phone": "+39 085 906 3281", "name": "Bar Faro", "operator": "Nella Ceci", "outdoor_seating": "yes", "ref:vatin": "IT01236090690", "shop": "tobacco"}}, {"type": "node", "id": 10035667608, "lat": 42.2288707, "lon": 14.3964725, "tags": {"addr:city": "Lanciano", "addr:housenumber": "17", "addr:postcode": "66034", "addr:street": "Via per Fossacesia", "amenity": "cafe", "brand": "Coffee Time", "brand:wikidata": "Q5140932", "cuisine": "coffee_shop", "name": "Coffee Time", "takeaway": "yes"}}, {"type": "node", "id": 10035875225, "lat": 42.2009102, "lon": 14.5629229}, {"type": "node", "id": 10035875226, "lat": 42.2007942, "lon": 14.5628369}, {"type": "node", "id": 10035875227, "lat": 42.2006011, "lon": 14.5633114}, {"type": "node", "id": 10035875228, "lat": 42.2007752, "lon": 14.5634405}, {"type": "node", "id": 10035875229, "lat": 42.2008186, "lon": 14.5633339}, {"type": "node", "id": 10035875230, "lat": 42.2008032, "lon": 14.5633002}, {"type": "node", "id": 10035875231, "lat": 42.2009168, "lon": 14.5630214}, {"type": "node", "id": 10035875232, "lat": 42.2008809, "lon": 14.5629947}, {"type": "node", "id": 10151849498, "lat": 42.3564645, "lon": 14.4036152, "tags": {"amenity": "cafe", "indoor_seating": "yes", "name": "Urban Caf\u00e9", "outdoor_seating": "yes"}}, {"type": "node", "id": 10151849501, "lat": 42.3564304, "lon": 14.4027039, "tags": {"addr:city": "Ortona", "addr:housenumber": "24", "addr:postcode": "66026", "addr:street": "Via Ciampoli", "amenity": "restaurant", "facebook": "https://it-it.facebook.com/lagallina.camminante/", "name": "La Gallina Camminante", "phone": "+39 085 219 1648"}}, {"type": "node", "id": 10159687571, "lat": 42.2991477, "lon": 14.3727576, "tags": {"amenity": "restaurant", "name": "La Berlocca"}}, {"type": "node", "id": 10882817599, "lat": 42.4017899, "lon": 14.3203237, "tags": {"addr:street": "Via Antonella D'Aquino", "amenity": "restaurant", "name": "Il Gatto E La Volpe", "phone": "+393317970851"}}, {"type": "node", "id": 10991497673, "lat": 42.3083395, "lon": 14.4435328, "tags": {"amenity": "restaurant", "cuisine": "italian", "cuisine:specialty": "fish", "name": "Bistro San Giacomo", "outdoor_seating": "yes"}}, {"type": "node", "id": 10991622767, "lat": 42.308608, "lon": 14.4453521, "tags": {"addr:city": "San Vito Chietino", "addr:country": "IT", "addr:housenumber": "19", "addr:postcode": "66038", "addr:street": "Via Sangritana", "amenity": "restaurant", "contact:email": "lascialuppa.sanvito@gmail.com", "contact:phone": "+39 0872 619 048", "cuisine": "italian", "cuisine:specialty": "fish", "indoor_seating": "yes", "name": "Ristorante La Scialuppa", "opening_hours": "Mo-Su 12:30-14:00, 20:00-22:00", "outdoor_seating": "no", "website": "https://ristorantelascialuppa.com", "wheelchair": "yes"}}, {"type": "node", "id": 10991669765, "lat": 42.3083972, "lon": 14.4458212, "tags": {"addr:city": "San Vito Chietino", "addr:country": "IT", "addr:housenumber": "1", "addr:postcode": "66038", "addr:street": "Via Sangritana", "amenity": "restaurant", "indoor_seating": "yes", "name": "L'Angolino", "outdoor_seating": "no"}}, {"type": "node", "id": 11109362997, "lat": 42.3404351, "lon": 14.3631733}, {"type": "node", "id": 11109362998, "lat": 42.3402226, "lon": 14.3636315}, {"type": "node", "id": 11109362999, "lat": 42.3398071, "lon": 14.3636255}, {"type": "node", "id": 11109363000, "lat": 42.3399089, "lon": 14.3629638}, {"type": "node", "id": 11134518696, "lat": 42.2661977, "lon": 14.4341851, "tags": {"amenity": "restaurant", "cuisine": "pizza", "name": "Alla Rotonda"}}, {"type": "node", "id": 11134519485, "lat": 42.2638688, "lon": 14.4321896}, {"type": "node", "id": 11134519486, "lat": 42.2637985, "lon": 14.4321539}, {"type": "node", "id": 11134519487, "lat": 42.2638241, "lon": 14.4320621}, {"type": "node", "id": 11134519488, "lat": 42.2638025, "lon": 14.4320511}, {"type": "node", "id": 11134519489, "lat": 42.2638197, "lon": 14.4319892}, {"type": "node", "id": 11134519490, "lat": 42.2638087, "lon": 14.4319836}, {"type": "node", "id": 11134519491, "lat": 42.2638446, "lon": 14.4318544}, {"type": "node", "id": 11134519492, "lat": 42.2639475, "lon": 14.4319067}, {"type": "node", "id": 11134519594, "lat": 42.2500454, "lon": 14.4237506, "tags": {"amenity": "restaurant", "name": "Vini & Affini"}}, {"type": "node", "id": 11134519663, "lat": 42.2436201, "lon": 14.4147128}, {"type": "node", "id": 11134519664, "lat": 42.2435286, "lon": 14.4145895}, {"type": "node", "id": 11134519665, "lat": 42.2436077, "lon": 14.4144824}, {"type": "node", "id": 11134519666, "lat": 42.2436468, "lon": 14.414535}, {"type": "node", "id": 11134519667, "lat": 42.243658, "lon": 14.4145199}, {"type": "node", "id": 11134519668, "lat": 42.2437104, "lon": 14.4145904}, {"type": "node", "id": 11134519718, "lat": 42.2391302, "lon": 14.4105361, "tags": {"addr:city": "Lanciano", "addr:country": "IT", "addr:housenumber": "300", "addr:postcode": "66034", "addr:street": "Contrada Villa Martelli", "amenity": "restaurant", "cuisine": "fish", "name": "Santopalato", "opening_hours": "Mo,Tu,Th-Sa 18:30-22:30; Su 18:00-22:30", "phone": "+39 347 003 1129"}}, {"type": "node", "id": 11134519907, "lat": 42.2249728, "lon": 14.400342, "tags": {"amenity": "cafe", "indoor_seating": "yes", "name": "Bar Jolly", "outdoor_seating": "yes"}}, {"type": "node", "id": 11279011387, "lat": 42.3647938, "lon": 14.389641, "tags": {"amenity": "restaurant", "name": "La Bottaia de' RoVeri", "outdoor_seating": "yes"}}, {"type": "node", "id": 11378318866, "lat": 42.3081882, "lon": 14.3477854}, {"type": "node", "id": 11384189633, "lat": 42.3107554, "lon": 14.446336}, {"type": "node", "id": 11384189634, "lat": 42.3107046, "lon": 14.4462451}, {"type": "node", "id": 11384189635, "lat": 42.3107813, "lon": 14.4461956}, {"type": "node", "id": 11384189636, "lat": 42.3108136, "lon": 14.4462569}, {"type": "node", "id": 11384189637, "lat": 42.3113726, "lon": 14.4473119}, {"type": "node", "id": 11384189638, "lat": 42.3113112, "lon": 14.4473739}, {"type": "node", "id": 11384189639, "lat": 42.3112525, "lon": 14.4472677}, {"type": "node", "id": 11384189640, "lat": 42.3113139, "lon": 14.4472057}, {"type": "node", "id": 11390324928, "lat": 42.3977475, "lon": 14.3338095, "tags": {"amenity": "restaurant", "name": "Punto Verde"}}, {"type": "node", "id": 11390324945, "lat": 42.3973969, "lon": 14.334421, "tags": {"amenity": "restaurant", "name": "Il Cambusiere"}}, {"type": "node", "id": 11398198786, "lat": 42.3401949, "lon": 14.3630603}, {"type": "node", "id": 11663852242, "lat": 42.3085658, "lon": 14.4450776, "tags": {"amenity": "restaurant", "check_date": "2025-05-29", "name": "La Kantina"}}, {"type": "node", "id": 11663852243, "lat": 42.3090156, "lon": 14.4452988, "tags": {"amenity": "restaurant", "cuisine": "pizza"}}, {"type": "node", "id": 11670094819, "lat": 42.3107987, "lon": 14.4462899}, {"type": "node", "id": 11670094820, "lat": 42.3107492, "lon": 14.4462094}, {"type": "node", "id": 11671833443, "lat": 42.306734, "lon": 14.4428476, "tags": {"amenity": "restaurant", "check_date": "2025-05-29", "contact:facebook": "https://www.facebook.com/mirkosbistrot/?locale=it_IT", "contact:instagram": "https://www.instagram.com/mirkosbistrot/", "contact:tripadvisor": "https://www.tripadvisor.it/Restaurant_Review-g664015-d8495047-Reviews-Mirko_s_Bistrot-San_Vito_Chietino_Province_of_Chieti_Abruzzo.html", "mobile": "+39 327 337 1669", "name": "Mirko's", "phone": "+39 0872 466 429"}}, {"type": "node", "id": 11891593498, "lat": 42.3569236, "lon": 14.403787, "tags": {"addr:city": "Ortona", "addr:postcode": "66026", "addr:street": "Piazza degli Eroi Canadese", "amenity": "restaurant", "cocktails": "yes", "description": "food + mixology", "indoor_seating": "yes", "name": "Unico", "outdoor_seating": "yes"}}, {"type": "node", "id": 12083867508, "lat": 42.2077394, "lon": 14.5972564, "tags": {"addr:city": "Torino di Sangro", "addr:housenumber": "6", "addr:street": "via Lungomare Le Morge", "amenity": "restaurant", "name": "Heidi Oltremare", "phone": "+393292944831", "website": "https://m.facebook.com/p/Heidi-Oltremare-100063648459385/"}}, {"type": "node", "id": 12090592191, "lat": 42.2034866, "lon": 14.6010336, "tags": {"amenity": "restaurant", "name": "Il cavallino azzurro"}}, {"type": "node", "id": 12091614324, "lat": 42.2503953, "lon": 14.4753355, "tags": {"addr:city": "Rocca San Giovanni", "addr:housenumber": "72", "addr:street": "Strada provinciale Via Piano Favaro", "air_conditioning": "yes", "amenity": "restaurant", "bar": "yes", "brewery": "yes", "check_date": "2024-08-03", "cuisine": "regional", "internet_access": "yes", "internet_access:fee": "customers", "level": "0", "microbrewery": "no", "mobile": "+39 349 1302107", "name": "La Taverna Degli Amici", "outdoor_seating": "yes", "phone": "+39 338 2808756", "reservation": "yes", "smoking": "outside", "source": "survey", "takeaway": "yes", "toilets": "yes"}}, {"type": "node", "id": 12100651272, "lat": 42.3429744, "lon": 14.3767102, "tags": {"amenity": "cafe", "name": "Kiko Bar", "outdoor_seating": "yes", "tobacco": "yes"}}, {"type": "node", "id": 12101471218, "lat": 42.2076991, "lon": 14.5945772, "tags": {"addr:city": "Torino di Sangro", "addr:housenumber": "3", "addr:place": "Valle Caterina", "addr:postcode": "66020", "amenity": "restaurant", "name": "Palucci", "phone": "+390873911188"}}, {"type": "node", "id": 12107622293, "lat": 42.2057029, "lon": 14.5947127, "tags": {"addr:city": "Torino di Sangro", "addr:housenumber": "60", "addr:postcode": "66020", "addr:street": "Contrada da Valle Caterina S.S. 16", "amenity": "restaurant", "check_date": "2024-08-13", "contact:email": "info@lasiesta-hotel.it", "contact:facebook": "https://www.facebook.com/hotelristorantelasiesta/", "contact:instagram": "lasiestaristorantehotel", "contact:phone": "+39 0873 915363", "contact:whatsapp": "+39 0873 915363", "cuisine": "regional;fish", "level": "0", "mobile": "+39 347 584 5592", "name": "La Siesta", "outdoor_seating": "yes", "reservation": "yes", "takeaway": "yes", "website": "https://lasiesta-hotel.it/it/ristorante.html"}}, {"type": "node", "id": 12109813102, "lat": 42.2243461, "lon": 14.4004055, "tags": {"addr:city": "Lanciano", "addr:housenumber": "135", "addr:postcode": "66034", "addr:street": "Via per Fossacesia", "air_conditioning": "yes", "amenity": "restaurant", "bar": "yes", "brewery": "yes", "changing_table": "yes", "check_date": "2024-08-13", "contact:phone": "+39 0872 469299", "contact:whatsapp": "+39 377 3565555", "cuisine": "sushi;Asian", "highchair": "yes", "level": "0", "mobile": "+39 377 3565555", "name": "Omo Sushi", "opening_hours": "Mo-Su 12:00-15:00,20:00-24:00", "outdoor_seating": "no", "payment:account_cards": "yes", "payment:app": "yes", "payment:cards": "yes", "payment:cash": "yes", "payment:contactless": "yes", "payment:credit_cards": "yes", "payment:debit_cards": "yes", "reservation": "yes", "smoking": "no", "source": "survey", "takeaway": "yes", "toilets": "yes", "toilets:wheelchair": "yes", "website": "https://www.omosushi.it", "website:menu": "https://www.omosushi.it/il-menu"}}, {"type": "node", "id": 12112908150, "lat": 42.208248, "lon": 14.5961926, "tags": {"air_conditioning": "yes", "amenity": "restaurant", "bar": "yes", "building": "yes", "check_date": "2024-08-15", "contact:whatsapp": "\u202a+39\u00a0328\u00a08755993\u202c", "cuisine": "pizza", "level": "0", "name": "La Rosa dei Venti", "outdoor_seating": "yes", "phone": "+39 338 6459476", "ref:vatin": "IT01931280695", "smoking": "outside", "surveillance": "indoor", "takeaway": "yes", "wheelchair": "yes"}}, {"type": "node", "id": 12116693335, "lat": 42.2293402, "lon": 14.4026236, "tags": {"addr:city": "Lanciano", "addr:postcode": "66034", "addr:street": "Via Bergamo", "air_conditioning": "yes", "amenity": "cafe", "brewery": "yes", "check_date": "2025-05-29", "level": "0", "mobile": "+39 3289058478", "name": "Binario Zero", "outdoor_seating": "yes", "wheelchair": "yes"}}, {"type": "node", "id": 12156013341, "lat": 42.1990681, "lon": 14.3529128, "tags": {"addr:city": "Castel Frentano", "addr:housenumber": "3", "addr:postcode": "66032", "addr:street": "Via Giacomo Matteotti", "amenity": "restaurant", "check_date": "2024-09-04", "contact:phone": "+39 0872 56155", "cuisine": "italian", "mobile": "+39 333 468 8670", "name": "Hotel Ristorante Leon D'Oro", "outdoor_seating": "yes", "ref:vatin": "IT02226070692"}}, {"type": "node", "id": 12179876367, "lat": 42.1850536, "lon": 14.6065609, "tags": {"addr:city": "Casalbordino", "addr:postcode": "66021", "addr:street": "Contrada Piana Sanelli", "amenity": "restaurant", "cuisine": "regional", "name": "Fuoco 26", "phone": "+39 333 508 2126", "website": "https://www.fuoco26.it"}}, {"type": "node", "id": 12195425279, "lat": 42.2147502, "lon": 14.5819353, "tags": {"addr:city": "Torino di Sangro", "addr:housenumber": "70", "addr:postcode": "66020", "addr:street": "Contrada Lago Dragoni", "amenity": "restaurant", "contact:phone": "+39 339 3484009", "name": "Ristoro Punta Le Morge"}}, {"type": "node", "id": 12289750229, "lat": 42.207792, "lon": 14.5937367, "tags": {"amenity": "cafe"}}, {"type": "node", "id": 12293325727, "lat": 42.2001879, "lon": 14.6093356, "tags": {"amenity": "restaurant"}}, {"type": "node", "id": 12301781631, "lat": 42.3528504, "lon": 14.4035777, "tags": {"amenity": "cafe", "leisure": "adult_gaming_centre", "name": "Caff\u00e8 Giardino", "shop": "games"}}, {"type": "node", "id": 12378948565, "lat": 42.3020558, "lon": 14.4456817, "tags": {"amenity": "cafe", "name": "Doona Bianca"}}, {"type": "node", "id": 12471100657, "lat": 42.2397804, "lon": 14.4087309, "tags": {"amenity": "cafe"}}, {"type": "node", "id": 12471100683, "lat": 42.1920634, "lon": 14.3672569, "tags": {"air_conditioning": "yes", "amenity": "cafe", "bar": "yes", "check_date": "2025-04-24", "internet_access": "no", "level": "0", "outdoor_seating": "no", "smoking": "no", "wheelchair": "yes"}}, {"type": "node", "id": 12774535774, "lat": 42.247863, "lon": 14.5146654, "tags": {"amenity": "restaurant", "bar": "yes", "cuisine": "regional", "internet_access": "no", "level": "0", "name": "Bottega 94", "phone": "+39 331 6346032", "website": "https://www.bottega94.com", "website:menu": "https://www.bottega94.com/wp-content/uploads/2024/05/menu_mobile_2024-1.pdf"}}, {"type": "node", "id": 12778890787, "lat": 42.2772324, "lon": 14.4209236, "tags": {"amenity": "restaurant", "name": "La Castellana"}}, {"type": "node", "id": 12786932683, "lat": 42.2286471, "lon": 14.3886693, "tags": {"addr:city": "Lanciano", "addr:housenumber": "12", "addr:postcode": "66034", "addr:street": "Via Icilio De Benedictis", "amenity": "restaurant", "brewery": "yes", "cuisine": "pizza", "internet_access": "no", "level": "0", "name": "Pizzeria Laterna Verde", "outdoor_seating": "no", "payment:account_cards": "yes", "payment:cards": "yes", "payment:contactless": "yes", "payment:credit_cards": "yes", "phone": "+39 0872 714626", "reservation": "yes", "smoking": "no"}}, {"type": "node", "id": 12817060735, "lat": 42.3374433, "lon": 14.3776262, "tags": {"access": "yes", "door": "hinged", "entrance": "yes", "level": "0"}}, {"type": "node", "id": 12858974043, "lat": 42.3546258, "lon": 14.3996924, "tags": {"amenity": "restaurant", "name": "Terramia"}}, {"type": "node", "id": 12872682532, "lat": 42.3012881, "lon": 14.4450929, "tags": {"amenity": "cafe", "check_date": "2025-05-29", "name": "Caff\u00e8 della Piazza"}}, {"type": "node", "id": 12872950395, "lat": 42.2332585, "lon": 14.3890579, "tags": {"amenity": "restaurant", "check_date": "2025-05-29"}}, {"type": "node", "id": 12873001506, "lat": 42.2318445, "lon": 14.3908658, "tags": {"addr:housenumber": "1", "addr:street": "Vico chiuso dei Frentani", "amenity": "restaurant", "check_date": "2025-05-29", "cuisine": "fish;regional", "name": "Taverna del Marinaio", "payment:cash": "yes", "payment:mastercard": "yes", "payment:visa": "yes", "toilets": "yes", "wheelchair": "no"}}, {"type": "node", "id": 12873501151, "lat": 42.2999491, "lon": 14.4445971, "tags": {"amenity": "cafe", "check_date": "2025-05-29", "name": "Bar 22"}}, {"type": "node", "id": 12873566490, "lat": 42.3058092, "lon": 14.4423986, "tags": {"amenity": "restaurant", "check_date": "2025-05-29", "name": "Serafino"}}, {"type": "way", "id": 294085362, "nodes": [2976552109, 2976552115, 2976552110, 2976552113, 2976552106, 2976552102, 2976552109], "tags": {"amenity": "restaurant", "building": "yes", "contact:website": "http://www.ristoranteriparidigiobbe.it/", "name": "Ristorante Ripari di Giobbe"}}, {"type": "way", "id": 294969496, "nodes": [2986067059, 2986067060, 2986067061, 2986067062, 2986067059], "tags": {"amenity": "restaurant", "cuisine": "pizza", "name": "Pizzeria Aneme e Core"}}, {"type": "way", "id": 313950193, "nodes": [3199933987, 3199933986, 3199933984, 3199933985, 3199933987], "tags": {"amenity": "restaurant", "building": "yes", "cuisine": "regional", "level": "0", "outdoor_seating": "yes"}}, {"type": "way", "id": 342606596, "nodes": [3495730725, 3495730726, 3495730720, 3495730722, 3495730714, 3495730713, 3495730718, 3495730725], "tags": {"amenity": "restaurant", "building": "trabucco", "cuisine": "italian", "email": "info@traboccopescepalombo.it", "historic": "building", "name": "Trabocco Pesce Palombo", "phone": "+39 333 3055300", "website": "http://www.traboccopescepalombo.it/", "wheelchair": "no"}}, {"type": "way", "id": 438509611, "nodes": [4362489446, 4362489447, 4362489448, 4362489449, 4362489446], "tags": {"addr:housenumber": "29", "addr:postcode": "66026", "addr:street": "Strada Statale 538", "amenity": "restaurant", "building": "yes", "cuisine": "steak_house", "name": "Ristocarne On The Road", "opening_hours": "We-Su 20:00-23:00", "phone": "+393385824812", "website": "https://m.facebook.com/Ristocarne-on-the-ROAD-601555486556087/?ref=ts"}}, {"type": "way", "id": 582972045, "nodes": [5574093046, 5574093047, 5574093048, 5574093049, 5574093046], "tags": {"amenity": "restaurant", "building": "trabucco", "building:levels": "2", "historic": "building", "name": "Trabocco Trimalcione"}}, {"type": "way", "id": 629190425, "nodes": [5940441643, 5940441644, 5940441645, 5940441646, 5940441643], "tags": {"addr:housenumber": "1", "addr:street": "Via del Mare", "alt_name": "Padiglione G", "amenity": "cafe", "building": "yes", "building:levels": "1", "indoor_seating": "yes", "name": "M&M Caf\u00e8", "opening_hours": "Mo-Th 08:00-18:30; Fr 08:00-15:00; Sa 08:00-13:00; PH off", "operator": "Le Due Emme SRLS", "outdoor_seating": "yes", "ref:vatin": "IT02623490691", "smoking": "isolated"}}, {"type": "way", "id": 674647874, "nodes": [6318166947, 6318166948, 6318166949, 6318166950, 6318166947], "tags": {"amenity": "restaurant", "building": "yes", "cuisine": "italian;fish;seafood", "name": "La Foce"}}, {"type": "way", "id": 677995572, "nodes": [6348244350, 6348244351, 6348244352, 6348244353, 6348244354, 6348244350], "tags": {"addr:city": "San Vito Chietino", "addr:street": "Contrada Pontoni", "amenity": "restaurant", "building": "yes", "cuisine": "italian;regional", "name": "Botttega Culinaria", "website": "http://www.bottegaculinaria.com/"}}, {"type": "way", "id": 678185321, "nodes": [6350013530, 6350013531, 6077444361, 6350013532, 6350013533, 6350013530], "tags": {"addr:city": "Casalbordino", "addr:street": "Contrada Fontemurata", "amenity": "restaurant", "building": "yes", "cuisine": "italian;regional", "name": "Laghi del Sole", "website": "https://www.facebook.com/laghidelsole/"}}, {"type": "way", "id": 697862643, "nodes": [6553935079, 6553935080, 6553935102, 6553935081, 6553935082, 6553935079], "tags": {"amenity": "restaurant", "building": "trabucco", "historic": "building", "name": "Trabocco Punta Tufano"}}, {"type": "way", "id": 697862644, "nodes": [6553935084, 6553935085, 6553935088, 6553935086, 6553935087, 6553935084], "tags": {"amenity": "restaurant", "building": "trabucco", "cuisine": "seafood;friture;fish", "historic": "building", "name": "Trabocco Sasso della Cajana"}}, {"type": "way", "id": 697862645, "nodes": [6553935090, 6553935091, 1927893907, 6553935092, 6553935093, 6553935094, 6553935095, 6553935090], "tags": {"amenity": "restaurant", "building": "trabucco", "historic": "building", "name": "Trabocco Punta Isolata"}}, {"type": "way", "id": 697862672, "nodes": [6553935243, 6553935247, 7922139632, 6553935244, 7922139631, 7922139633, 7922139634, 7922139630, 7922139629, 6553935245, 6553935246, 6553935243], "tags": {"addr:city": "Rocca San Giovanni", "addr:postcode": "66020", "amenity": "restaurant", "building": "trabucco", "historic": "building", "name": "Trabocco Punta Cavalluccio", "phone": "+393385980985"}}, {"type": "way", "id": 700647769, "nodes": [6579735404, 6579735405, 6579735403, 6579735401, 6579735404], "tags": {"amenity": "restaurant", "building": "yes"}}, {"type": "way", "id": 826231142, "nodes": [7714331593, 7714321681, 7714331589, 7714321671, 7714331593], "tags": {"addr:city": "Rocca San Giovanni", "addr:housenumber": "250", "addr:postcode": "66020", "addr:street": "Contrada Vallev\u00f2", "amenity": "restaurant", "check_date": "2023-07-31", "cuisine": "fish;fish_and_chips;mediterranean;friture", "internet_access": "wlan", "level": "0", "name": "Fritteria Stasera Pago Io", "opening_hours": "24/7", "outdoor_seating": "yes", "phone": "+39 0872 609236", "ref:vatin": "IT01506380698", "smoking": "outside", "takeaway": "yes", "wheelchair": "yes"}}, {"type": "way", "id": 854575625, "nodes": [7969377766, 7969377765, 12817060735, 7969377764, 7969377763, 7969377766], "tags": {"addr:postcode": "66026", "amenity": "restaurant", "building": "retail", "building:levels": "1", "contact:facebook": "https://www.facebook.com/p/La-Casetta-di-Tamarete-100046230496463", "cuisine": "regional;pasta", "delivery": "no", "name": "La Casetta di Tamarete", "opening_hours": "Tu-Th,Su 12:00-14:30; Fr,Sa 12:00-14:30,20:00-22:00", "phone": "+39 085 906 8215"}}, {"type": "way", "id": 937971926, "nodes": [8689851212, 8689851213, 2601346001, 8689851214, 8689851215, 8689851212], "tags": {"amenity": "restaurant", "building": "yes", "building:colour": "mediumaquamarine", "building:levels": "1", "contact:facebook": "https://www.facebook.com/ceraunavoltasaporitradizionali", "cuisine": "regional", "name": "C\u2019Era Una Volta", "roof:shape": "flat"}}, {"type": "way", "id": 973173969, "nodes": [9007272416, 9007290217, 9007290218, 9007290219, 9007272416], "tags": {"addr:city": "Rocca San Giovanni", "addr:postcode": "66020", "addr:street": "Strada Statale 16 Adriatica Localita\u2019 Cavalluccio", "amenity": "restaurant", "bar": "yes", "building": "yes", "cuisine": "regional", "delivery": "no", "internet_access": "no", "microbrewery": "no", "name": "Da Masino", "outdoor_seating": "yes", "phone": "+39 338 598 0985", "ref:vatin": "IT02626250696", "reservation": "no", "smoking": "outside", "website": "https://www.traboccopuntacavalluccio.it/damasino", "wheelchair": "yes"}}, {"type": "way", "id": 975880406, "nodes": [9030999607, 9030999606, 9030999605, 9030999604, 9030999603, 9030999602, 9030999601, 9030999600, 9030999599, 9030999607], "tags": {"amenity": "restaurant", "building": "yes", "cuisine": "italian", "name": "Miramare Village", "operator": "Miramare Village Srl", "outdoor_seating": "yes", "phone": "+39 0873 915407", "ref:vatin": "IT02234980692"}}, {"type": "way", "id": 981257883, "nodes": [9076885216, 9076922517, 9076922518, 9076922519, 9076922520, 9076922521, 9076922522, 9076922523, 9076922524, 9076922525, 9076922526, 9076922527, 9076885216], "tags": {"amenity": "cafe", "bar": "yes", "building": "commercial", "check_date": "2022-09-03", "cuisine": "italian", "internet_access": "no", "name": "Sarni", "toilets": "yes", "toilets:wheelchair": "yes"}}, {"type": "way", "id": 987105070, "nodes": [9124017230, 9124017227, 9124017231, 9124017225, 9124017228, 9124017229, 9124017232, 9124017226, 9124017230], "tags": {"addr:city": "Ortona", "addr:postcode": "66026", "addr:street": "Contrada Foro", "amenity": "restaurant", "building": "retail", "contact:facebook": "100057455659008", "description": "Lido, Bar, Restaurant", "name": "Baia Cattleya", "outdoor_seating": "yes", "phone:mobile": "+39 366 3888 666", "roof:shape": "hexagon", "website": "https://baiacattleya.com"}}, {"type": "way", "id": 1004663255, "nodes": [9269488106, 11378318866, 9269488107, 9269488108, 9269488116, 9269488113, 9269488110, 9269488109, 9269488106], "tags": {"amenity": "restaurant", "building": "yes", "building:colour": "white", "building:levels": "2", "roof:material": "roof_tiles", "roof:shape": "gabled"}}, {"type": "way", "id": 1011216895, "nodes": [7989032629, 7989032628, 7989032631, 7989032633, 7989032632, 7989032630, 7989032629], "tags": {"addr:city": "Torino di Sangro", "addr:housenumber": "70", "addr:postcode": "66020", "addr:street": "Viale Costa Verde", "amenity": "restaurant", "colour": "#bef2f4", "contact:facebook": "MareBluTorinoDiSangro", "cuisine": "italian;pizza;fish;bar;cocktails", "drink": "served", "lit": "yes", "name": "Mare Blu", "note": "more tags at https://wiki.openstreetmap.org/wiki/Tag:leisure%3Doutdoor_seating but not known such as outdoor heating in winter time.", "opening_hours": "Mo-Su 08:00-02:00", "outdoor_seating": "terrace", "phone": "+39 0873 915135", "playground": "playhouse", "website": "https://www.mareblutorinodisangro.it", "wheelchair": "yes"}}, {"type": "way", "id": 1086172588, "nodes": [9952441909, 9952441911, 9952441912, 9952441910, 9952441913, 9952441909], "tags": {"amenity": "restaurant", "building": "yes", "name": "Occhio alla Pecora"}}, {"type": "way", "id": 1095844023, "nodes": [10035875225, 10035875226, 10035875227, 10035875228, 10035875229, 10035875230, 10035875231, 10035875232, 10035875225], "tags": {"amenity": "cafe", "building": "commercial", "name": "Sarni"}}, {"type": "way", "id": 1197324766, "nodes": [11109362997, 5963971254, 11109362998, 11109362999, 11109363000, 11398198786, 11109362997], "tags": {"addr:city": "Ortona", "addr:postcode": "66026", "addr:street": "Strada Comunale Villa San Nicola", "amenity": "restaurant", "cuisine": "italian;regional", "layer": "1", "name": "Tavernetta degli Ulivi", "outdoor_seating": "yes"}}, {"type": "way", "id": 1200879994, "nodes": [11134519492, 11134519491, 11134519490, 11134519489, 11134519488, 11134519487, 11134519486, 11134519485, 11134519492], "tags": {"amenity": "restaurant", "building": "yes", "name": "Bistr\u00f2 Asturo", "shop": "tobacco"}}, {"type": "way", "id": 1200880016, "nodes": [11134519668, 11134519667, 11134519666, 11134519665, 11134519664, 11134519663, 11134519668], "tags": {"addr:city": "Lanciano", "addr:country": "IT", "addr:postcode": "66034", "addr:street": "Contrada Villa Martelli", "amenity": "cafe", "building": "yes", "contact:facebook": "https://www.facebook.com/Centro-Sportivo-Bar-Martelli-152485861481082/", "mobile": "+39 339 616 9849", "name": "Bar Martelli", "website": "https://prolocolanciano.jimdofree.com/convenzioni/bar-martelli-centro-sportivo/"}}, {"type": "way", "id": 1227640321, "nodes": [11384189633, 11384189634, 11670094820, 11384189635, 11384189636, 11670094819, 11384189633], "tags": {"amenity": "restaurant", "building": "trabucco", "building:material": "wood", "contact:facebook": "https://www.facebook.com/trabventodiscirocco/", "cuisine": "seafood", "name": "Trabocco Vento di Scirocco"}}, {"type": "way", "id": 1227640322, "nodes": [11384189637, 11384189638, 11384189639, 11384189640, 11384189637], "tags": {"amenity": "restaurant", "building": "trabucco", "building:material": "wood", "contact:facebook": "https://www.facebook.com/traboccosangiacomo", "contact:instagram": "https://www.instagram.com/traboccosangiacomo/", "cuisine": "seafood", "email": "traboccosangiacomo@gmail.com", "name": "Trabocco San Giacomo", "website": "https://www.traboccosangiacomo.it/"}}]}