{"version": 0.6, "generator": "Overpass API 0.7.62.7 375dc00a", "osm3s": {"timestamp_osm_base": "2025-06-14T15:04:49Z", "copyright": "The data included in this document is from www.openstreetmap.org. The data is made available under ODbL."}, "elements": [{"type": "node", "id": 1470782544, "lat": 40.799127, "lon": 32.0485083}, {"type": "node", "id": 1470782558, "lat": 40.7993673, "lon": 32.0487357}, {"type": "node", "id": 1470782571, "lat": 40.7994981, "lon": 32.0478241}, {"type": "node", "id": 1470782585, "lat": 40.799634, "lon": 32.048244}, {"type": "node", "id": 1470782589, "lat": 40.7997177, "lon": 32.0483232}, {"type": "node", "id": 1470782594, "lat": 40.7998221, "lon": 32.0481308}, {"type": "node", "id": 1943565453, "lat": 40.7192953, "lon": 31.5258432}, {"type": "node", "id": 1943565458, "lat": 40.7193162, "lon": 31.5257932}, {"type": "node", "id": 1943565460, "lat": 40.719334, "lon": 31.5257627}, {"type": "node", "id": 1943565461, "lat": 40.7193388, "lon": 31.5258093}, {"type": "node", "id": 1943565463, "lat": 40.7193542, "lon": 31.5257813}, {"type": "node", "id": 1943565464, "lat": 40.7193653, "lon": 31.5256959}, {"type": "node", "id": 1943565471, "lat": 40.7193856, "lon": 31.5257106}, {"type": "node", "id": 1943565480, "lat": 40.7193978, "lon": 31.525687}, {"type": "node", "id": 1943565481, "lat": 40.7194142, "lon": 31.5259387}, {"type": "node", "id": 1943565483, "lat": 40.7194256, "lon": 31.5259176}, {"type": "node", "id": 1943565486, "lat": 40.7194365, "lon": 31.5257173}, {"type": "node", "id": 1943565489, "lat": 40.7194449, "lon": 31.5257021}, {"type": "node", "id": 1943565490, "lat": 40.71946, "lon": 31.5259457}, {"type": "node", "id": 1943565494, "lat": 40.7194882, "lon": 31.5257358}, {"type": "node", "id": 1943565497, "lat": 40.7194895, "lon": 31.5258827}, {"type": "node", "id": 1943565500, "lat": 40.7195004, "lon": 31.5257172}, {"type": "node", "id": 1943565504, "lat": 40.7195043, "lon": 31.5258927}, {"type": "node", "id": 1943565508, "lat": 40.7195186, "lon": 31.5258074}, {"type": "node", "id": 1943565516, "lat": 40.7195315, "lon": 31.5258279}, {"type": "node", "id": 1943565520, "lat": 40.7195441, "lon": 31.5257497}, {"type": "node", "id": 2893586195, "lat": 40.7221305, "lon": 31.4668515, "tags": {"amenity": "restaurant", "cuisine": "regional", "indoor_seating": "yes", "name": "Bayd\u00f6ner", "outdoor_seating": "no", "phone": "+903742501491", "smoking": "no", "wheelchair": "yes"}}, {"type": "node", "id": 2893586196, "lat": 40.7220939, "lon": 31.4670607, "tags": {"amenity": "restaurant", "cuisine": "regional", "indoor_seating": "yes", "name": "\u015eampiyon Kokore\u00e7", "outdoor_seating": "no", "smoking": "no", "wheelchair": "yes"}}, {"type": "node", "id": 2893586199, "lat": 40.7218798, "lon": 31.4684932, "tags": {"amenity": "cafe", "internet_access": "yes", "name": "Palm Cafe", "smoking": "no", "wheelchair": "yes"}}, {"type": "node", "id": 2893589450, "lat": 40.722407, "lon": 31.4668301, "tags": {"amenity": "cafe", "indoor_seating": "yes", "name": "G\u00f6n\u00fcl Kahvesi", "outdoor_seating": "yes", "smoking": "no", "wheelchair": "yes"}}, {"type": "node", "id": 2893589455, "lat": 40.7225756, "lon": 31.4655962, "tags": {"amenity": "cafe", "brand": "Mado", "brand:wikidata": "Q17116336", "brand:wikipedia": "en:Mado (food company)", "cuisine": "coffee_shop", "name": "Mado", "smoking": "no", "takeaway": "yes", "wheelchair": "yes"}}, {"type": "node", "id": 3050736475, "lat": 40.7324615, "lon": 31.6068709, "tags": {"amenity": "cafe", "name": "\u015eey Bilardo Cafe"}}, {"type": "node", "id": 3334035346, "lat": 40.7493924, "lon": 31.565767, "tags": {"amenity": "cafe", "cuisine": "regional", "name": "Kantin - Cafeterya"}}, {"type": "node", "id": 4564313072, "lat": 40.7263215, "lon": 31.6056255}, {"type": "node", "id": 4564313073, "lat": 40.726374, "lon": 31.6054943}, {"type": "node", "id": 4564313074, "lat": 40.726534, "lon": 31.6056025}, {"type": "node", "id": 4564313075, "lat": 40.7264879, "lon": 31.6057388}, {"type": "node", "id": 5253010921, "lat": 40.7424382, "lon": 31.859829}, {"type": "node", "id": 5646579383, "lat": 40.7402043, "lon": 31.5792983, "tags": {"amenity": "cafe", "name": "Deniz Cafe & Bol\u00e7i"}}, {"type": "node", "id": 5648171782, "lat": 40.7309759, "lon": 31.6040535, "tags": {"amenity": "cafe", "name": "Ay\u0131 Kafe"}}, {"type": "node", "id": 5799370855, "lat": 40.7302755, "lon": 31.6021811}, {"type": "node", "id": 5799370862, "lat": 40.7302957, "lon": 31.6021261}, {"type": "node", "id": 5799370863, "lat": 40.7301671, "lon": 31.602226}, {"type": "node", "id": 5799370864, "lat": 40.7301678, "lon": 31.6021166}, {"type": "node", "id": 5799370895, "lat": 40.7298069, "lon": 31.6040373}, {"type": "node", "id": 5799370896, "lat": 40.729683, "lon": 31.6041122}, {"type": "node", "id": 5799370897, "lat": 40.7297791, "lon": 31.6043893}, {"type": "node", "id": 5799370898, "lat": 40.7299031, "lon": 31.6043143}, {"type": "node", "id": 6040042198, "lat": 40.7434079, "lon": 31.6087467, "tags": {"addr:city": "Bolu", "addr:district": "Merkez", "addr:street": "Hekim Sokak", "amenity": "restaurant", "name": "K\u00f6ro\u011flu Pide"}}, {"type": "node", "id": 6040042209, "lat": 40.7434593, "lon": 31.6094413, "tags": {"amenity": "restaurant", "name": "\u00d6zer Pide"}}, {"type": "node", "id": 7026347355, "lat": 40.7310023, "lon": 31.6016055, "tags": {"addr:city": "Bolu", "addr:district": "Merkez", "addr:housenumber": "5/B", "addr:neighbourhood": "Tabaklar Mahallesi", "addr:postcode": "14100", "addr:street": "\u0130zzet Baysal Caddesi", "amenity": "cafe", "cuisine": "coffee_shop", "internet_access": "wlan", "name": "Social Life Playstation", "outdoor_seating": "yes", "phone": "+905535798783", "smoking": "yes"}}, {"type": "node", "id": 9971180617, "lat": 40.7307529, "lon": 31.5876265, "tags": {"amenity": "restaurant", "name": "Et Evi Bolu", "name:en": "Meat House Bolu Farm", "name:tr": "Et Evi Bolu \u00c7iftli\u011fi"}}, {"type": "node", "id": 9971189617, "lat": 40.7367114, "lon": 31.6111389, "tags": {"amenity": "restaurant", "name": "Konyal\u0131 Etli Ekmek", "name:en": "Meat n' Bread of Konya"}}, {"type": "node", "id": 10026853797, "lat": 40.7315103, "lon": 31.6037909, "tags": {"amenity": "restaurant", "name": "Manti"}}, {"type": "node", "id": 10075243030, "lat": 40.7761475, "lon": 32.0374116, "tags": {"amenity": "cafe"}}, {"type": "node", "id": 10807340141, "lat": 40.7316037, "lon": 31.5992085}, {"type": "node", "id": 10807340142, "lat": 40.7315299, "lon": 31.5991191}, {"type": "node", "id": 10807340143, "lat": 40.73138, "lon": 31.5993344}, {"type": "node", "id": 10807340144, "lat": 40.7314539, "lon": 31.5994239}, {"type": "node", "id": 10807340149, "lat": 40.7308655, "lon": 31.5996108}, {"type": "node", "id": 10807340150, "lat": 40.7308605, "lon": 31.5993555}, {"type": "node", "id": 10807340151, "lat": 40.7307714, "lon": 31.5993585}, {"type": "node", "id": 10807340152, "lat": 40.7307763, "lon": 31.5996137}, {"type": "node", "id": 10992418365, "lat": 40.7177941, "lon": 31.4740276, "tags": {"amenity": "restaurant", "name": "Konak Park"}}, {"type": "node", "id": 11016698206, "lat": 40.7736023, "lon": 32.0312386, "tags": {"addr:postcode": "14650", "addr:street": "39. Sokak", "amenity": "cafe", "cuisine": "breakfast", "name": "K\u0131y\u0131 Cafe", "name:en": "K\u0131y\u0131 Caf\u00e9", "phone": "0541 862 00 14"}}, {"type": "node", "id": 11016771905, "lat": 40.7713886, "lon": 32.0314272, "tags": {"addr:street": "Eski\u00e7a\u011fa Caddesi", "amenity": "restaurant", "cuisine": "turkish", "name": "Saray Lokantas\u0131", "opening_hours": "Mo-Sa 07:00-00:00"}}, {"type": "node", "id": 11017330905, "lat": 40.7720656, "lon": 32.0315622, "tags": {"addr:street": "Ya\u015far \u00c7elik Caddesi", "amenity": "cafe", "cuisine": "tea", "name": "Hasan'\u0131n Yeri \u00c7ay Salonu"}}, {"type": "node", "id": 11073920205, "lat": 40.7297267, "lon": 31.5890093, "tags": {"amenity": "cafe", "internet_access": "wlan", "name": "Cafe Abant Kahvecisi"}}, {"type": "node", "id": 11077619053, "lat": 40.7448059, "lon": 31.548535, "tags": {"amenity": "cafe", "name": "Kantin"}}, {"type": "node", "id": 11083307118, "lat": 40.7440672, "lon": 31.5518389, "tags": {"addr:neighbourhood": "K\u00fcrk\u00e7\u00fcler Mh.", "addr:street": "K\u00fcrk\u00e7\u00fcler-3 Sokak", "amenity": "cafe", "cuisine": "Fast food, Breakfast", "name": "\u015eehrazat Cafe"}}, {"type": "node", "id": 11814755174, "lat": 40.7424709, "lon": 31.8602338}, {"type": "node", "id": 11814755175, "lat": 40.7425749, "lon": 31.8603634}, {"type": "node", "id": 11814755176, "lat": 40.7427149, "lon": 31.8603436}, {"type": "node", "id": 11814755177, "lat": 40.7426706, "lon": 31.8597963}, {"type": "node", "id": 11814755179, "lat": 40.7424634, "lon": 31.8598254}, {"type": "node", "id": 11814755180, "lat": 40.7425731, "lon": 31.85981}, {"type": "node", "id": 12495611201, "lat": 40.7333044, "lon": 31.6090789, "tags": {"addr:housenumber": "42", "addr:postcode": "14200", "addr:street": "Tatl\u0131 Karde\u015fim Sokak", "amenity": "restaurant", "cuisine": "turkish", "email": "tashan.bolu@gmail.com", "internet_access": "wlan", "name": "Bolu Ta\u015fhan Cafe & Restaurant", "opening_hours": "Mo-Su 09:00-00:00", "phone": "03742158878"}}, {"type": "node", "id": 12641296887, "lat": 40.7654495, "lon": 31.6392185}, {"type": "node", "id": 12641296888, "lat": 40.765462, "lon": 31.6392676}, {"type": "node", "id": 12641296889, "lat": 40.7655831, "lon": 31.6392142}, {"type": "node", "id": 12641296890, "lat": 40.7656082, "lon": 31.6393132}, {"type": "node", "id": 12641296891, "lat": 40.7656227, "lon": 31.6393067}, {"type": "node", "id": 12641296892, "lat": 40.7656463, "lon": 31.6393995}, {"type": "node", "id": 12641296893, "lat": 40.7656224, "lon": 31.6394101}, {"type": "node", "id": 12641296894, "lat": 40.7656965, "lon": 31.6397024}, {"type": "node", "id": 12641296895, "lat": 40.7655762, "lon": 31.6397556}, {"type": "node", "id": 12641296896, "lat": 40.7655464, "lon": 31.6396381}, {"type": "node", "id": 12641296897, "lat": 40.7654468, "lon": 31.6396821}, {"type": "node", "id": 12641296898, "lat": 40.7653506, "lon": 31.6393025}, {"type": "node", "id": 12641296899, "lat": 40.7653769, "lon": 31.6392909}, {"type": "node", "id": 12641296900, "lat": 40.7653678, "lon": 31.6392546}, {"type": "node", "id": 12641314808, "lat": 40.7660902, "lon": 31.6379422}, {"type": "node", "id": 12641314809, "lat": 40.7661768, "lon": 31.6384451}, {"type": "node", "id": 12641314810, "lat": 40.7663781, "lon": 31.6383847}, {"type": "node", "id": 12641314811, "lat": 40.7663288, "lon": 31.638098}, {"type": "node", "id": 12641314812, "lat": 40.7663671, "lon": 31.6380865}, {"type": "node", "id": 12641314813, "lat": 40.7663547, "lon": 31.6380142}, {"type": "node", "id": 12641314814, "lat": 40.7662355, "lon": 31.6380499}, {"type": "node", "id": 12641314815, "lat": 40.7662107, "lon": 31.637906}, {"type": "node", "id": 12677254793, "lat": 40.7438363, "lon": 31.8587144}, {"type": "node", "id": 12677254794, "lat": 40.7438701, "lon": 31.859249}, {"type": "node", "id": 12677254795, "lat": 40.7439934, "lon": 31.8592327}, {"type": "node", "id": 12677254796, "lat": 40.7439934, "lon": 31.8592124}, {"type": "node", "id": 12677254797, "lat": 40.7440673, "lon": 31.8592002}, {"type": "node", "id": 12677254798, "lat": 40.7440334, "lon": 31.8587693}, {"type": "node", "id": 12677254799, "lat": 40.7439672, "lon": 31.858688}, {"type": "node", "id": 12677270528, "lat": 40.7438508, "lon": 31.8589434}, {"type": "node", "id": 12708457117, "lat": 40.7327367, "lon": 31.6071356, "tags": {"addr:city": "Bolu", "addr:district": "Merkez", "addr:street": "Parti Sokak", "amenity": "restaurant", "brand": "K\u00f6fteci Yusuf", "brand:wikidata": "Q126125081", "cuisine": "turkish", "name": "K\u00f6fteci Yusuf"}}, {"type": "way", "id": 133624464, "nodes": [1470782558, 1470782544, 1470782571, 1470782594, 1470782589, 1470782585, 1470782558], "tags": {"amenity": "restaurant", "building": "yes", "source": "bing"}}, {"type": "way", "id": 183927781, "nodes": [1943565516, 1943565508, 1943565520, 1943565500, 1943565494, 1943565489, 1943565486, 1943565480, 1943565471, 1943565464, 1943565460, 1943565463, 1943565461, 1943565458, 1943565453, 1943565481, 1943565483, 1943565490, 1943565497, 1943565504, 1943565516], "tags": {"amenity": "cafe", "building": "yes", "name": "Kafeterya"}}, {"type": "way", "id": 460831455, "nodes": [4564313072, 4564313073, 4564313074, 4564313075, 4564313072], "tags": {"amenity": "cafe", "building": "yes", "internet_access": "wlan", "name": "Park Cafe", "smoking": "separated"}}, {"type": "way", "id": 612719097, "nodes": [5799370862, 5799370855, 5799370863, 5799370864, 5799370862], "tags": {"amenity": "restaurant", "building": "yes"}}, {"type": "way", "id": 612719109, "nodes": [5799370895, 5799370896, 5799370897, 5799370898, 5799370895], "tags": {"amenity": "cafe", "building": "yes"}}, {"type": "way", "id": 1162049987, "nodes": [10807340141, 10807340142, 10807340143, 10807340144, 10807340141], "tags": {"amenity": "cafe", "brand": "Gloria Jean's", "brand:wikidata": "Q2666365", "building": "yes", "cuisine": "coffee_shop", "name": "Gloria Jean's", "official_name": "Gloria Jean's Coffees", "takeaway": "yes"}}, {"type": "way", "id": 1162049990, "nodes": [10807340149, 10807340150, 10807340151, 10807340152, 10807340149], "tags": {"amenity": "cafe", "building": "yes", "cuisine": "turkish"}}, {"type": "way", "id": 1272337613, "nodes": [5253010921, 11814755174, 11814755175, 11814755176, 11814755177, 11814755180, 11814755179, 5253010921], "tags": {"amenity": "restaurant", "building": "yes", "image": "https://photos.app.goo.gl/qiXLa1FqXBeWCeiZ8", "name": "K\u00f6fteci Remzi"}}, {"type": "way", "id": 1365049506, "nodes": [12641296887, 12641296888, 12641296889, 12641296890, 12641296891, 12641296892, 12641296893, 12641296894, 12641296895, 12641296896, 12641296897, 12641296898, 12641296899, 12641296900, 12641296887], "tags": {"amenity": "restaurant", "building": "yes", "name": "Beyzade"}}, {"type": "way", "id": 1365049507, "nodes": [12641314808, 12641314809, 12641314810, 12641314811, 12641314812, 12641314813, 12641314814, 12641314815, 12641314808], "tags": {"amenity": "restaurant", "building": "yes", "name": "Beyzade"}}, {"type": "way", "id": 1368809886, "nodes": [12677254793, 12677270528, 12677254794, 12677254795, 12677254796, 12677254797, 12677254798, 12677254799, 12677254793], "tags": {"amenity": "restaurant", "building": "yes", "name": "Yedig\u00f6ller Dinlenme Tesisi"}}]}