{"version": 0.6, "generator": "Overpass API 0.7.62.7 375dc00a", "osm3s": {"timestamp_osm_base": "2025-06-14T13:49:28Z", "copyright": "The data included in this document is from www.openstreetmap.org. The data is made available under ODbL."}, "elements": [{"type": "node", "id": 300630932, "lat": 42.0409128, "lon": 11.911822, "tags": {"amenity": "restaurant", "cuisine": "italian", "name": "Vecchia Aurelia"}}, {"type": "node", "id": 486535777, "lat": 42.253869, "lon": 11.7579975, "tags": {"addr:city": "Tarquinia", "addr:housenumber": "9", "addr:street": "Via Felice Cavallotti", "amenity": "restaurant", "name": "Trattoria Bruno Paolacci", "phone": "+39 0766 856414"}}, {"type": "node", "id": 486605923, "lat": 42.296396, "lon": 11.6463015, "tags": {"addr:city": "Tarquinia", "amenity": "restaurant", "name": "La Taverna degli Etruschi", "phone": "+39 0766 814104", "website": "http://www.tavernadeglietruschi.it"}}, {"type": "node", "id": 486626100, "lat": 42.3939252, "lon": 11.4958303, "tags": {"addr:city": "Pescia Romana", "addr:housenumber": "5", "addr:postcode": "01014", "addr:street": "Via della Resistenza", "amenity": "restaurant", "cuisine": "pizza", "name": "Il gatto e la volpe", "phone": "+39 0766 830851"}}, {"type": "node", "id": 886989507, "lat": 42.3235203, "lon": 11.6139819, "tags": {"amenity": "cafe"}}, {"type": "node", "id": 892033018, "lat": 42.3261764, "lon": 11.6201652, "tags": {"amenity": "restaurant", "cuisine": "pizza", "name": "La Piazzetta"}}, {"type": "node", "id": 1132753120, "lat": 42.3346326, "lon": 11.5952872, "tags": {"amenity": "cafe", "description": "Sells train tickets and Telefon cards for TIM, Wind, Vodafone", "name": "Caff\u00e8 Binario", "opening_hours": "5:00-20:00", "shop": "ticket"}}, {"type": "node", "id": 1157618542, "lat": 42.2498076, "lon": 11.7680604}, {"type": "node", "id": 1157618543, "lat": 42.2497824, "lon": 11.7681376}, {"type": "node", "id": 1157618545, "lat": 42.2498328, "lon": 11.7681677}, {"type": "node", "id": 1157618546, "lat": 42.249858, "lon": 11.7680905}, {"type": "node", "id": 1211863729, "lat": 42.0224683, "lon": 11.9527945}, {"type": "node", "id": 1217457911, "lat": 42.020397, "lon": 11.9622089}, {"type": "node", "id": 1217457926, "lat": 42.0204528, "lon": 11.9620807}, {"type": "node", "id": 1217457928, "lat": 42.0204389, "lon": 11.9620457}, {"type": "node", "id": 1217457947, "lat": 42.0204218, "lon": 11.9620276}, {"type": "node", "id": 1217457951, "lat": 42.0205077, "lon": 11.9618805}, {"type": "node", "id": 1217457956, "lat": 42.0202305, "lon": 11.9620327}, {"type": "node", "id": 1217457963, "lat": 42.0203914, "lon": 11.9617573}, {"type": "node", "id": 1217457973, "lat": 42.0204472, "lon": 11.9621229}, {"type": "node", "id": 1218200783, "lat": 42.025785, "lon": 11.9455579}, {"type": "node", "id": 1218200794, "lat": 42.0258497, "lon": 11.9456011}, {"type": "node", "id": 1218200812, "lat": 42.0258614, "lon": 11.9453505}, {"type": "node", "id": 1218200817, "lat": 42.0259261, "lon": 11.9453937}, {"type": "node", "id": 1218200824, "lat": 42.0259205, "lon": 11.94539}, {"type": "node", "id": 1223105432, "lat": 42.0217427, "lon": 11.9477239}, {"type": "node", "id": 1223105440, "lat": 42.0216287, "lon": 11.9476704}, {"type": "node", "id": 1223105460, "lat": 42.0216894, "lon": 11.9474367}, {"type": "node", "id": 1223105461, "lat": 42.0217201, "lon": 11.9473689}, {"type": "node", "id": 1223105479, "lat": 42.0217357, "lon": 11.9477509}, {"type": "node", "id": 1223105516, "lat": 42.021701, "lon": 11.9474422}, {"type": "node", "id": 1223105517, "lat": 42.0218087, "lon": 11.9476907}, {"type": "node", "id": 1223105523, "lat": 42.0217868, "lon": 11.9477749}, {"type": "node", "id": 1223105552, "lat": 42.0231796, "lon": 11.945328, "tags": {"amenity": "restaurant", "name": "Pino al Mare"}}, {"type": "node", "id": 1223150625, "lat": 42.0228256, "lon": 11.9525619}, {"type": "node", "id": 1223150628, "lat": 42.0228229, "lon": 11.9527109}, {"type": "node", "id": 1223150632, "lat": 42.0226207, "lon": 11.9527742}, {"type": "node", "id": 1223150634, "lat": 42.0227636, "lon": 11.9525951}, {"type": "node", "id": 1223150646, "lat": 42.0227702, "lon": 11.9528212}, {"type": "node", "id": 1223150651, "lat": 42.0227684, "lon": 11.9525555}, {"type": "node", "id": 1223150660, "lat": 42.0227203, "lon": 11.9525539}, {"type": "node", "id": 1223150671, "lat": 42.0225151, "lon": 11.952683}, {"type": "node", "id": 1223150673, "lat": 42.0227799, "lon": 11.9525679}, {"type": "node", "id": 1223150677, "lat": 42.0226579, "lon": 11.9529535}, {"type": "node", "id": 1223150681, "lat": 42.0227309, "lon": 11.9527889}, {"type": "node", "id": 1223150682, "lat": 42.0227922, "lon": 11.9525243}, {"type": "node", "id": 1223150684, "lat": 42.0227762, "lon": 11.9526705}, {"type": "node", "id": 1223150688, "lat": 42.0227071, "lon": 11.9528426}, {"type": "node", "id": 1223150694, "lat": 42.0225094, "lon": 11.9527827, "tags": {"amenity": "cafe"}}, {"type": "node", "id": 1242139257, "lat": 42.2498486, "lon": 11.7680849, "tags": {"entrance": "yes"}}, {"type": "node", "id": 1412995456, "lat": 42.3535503, "lon": 11.6039549, "tags": {"amenity": "restaurant", "name": "al campanaccio"}}, {"type": "node", "id": 1412995481, "lat": 42.3540485, "lon": 11.6048945, "tags": {"amenity": "restaurant", "name": "la tana del lupo"}}, {"type": "node", "id": 1412995485, "lat": 42.3538657, "lon": 11.6055508, "tags": {"amenity": "restaurant", "name": "capannini"}}, {"type": "node", "id": 1412995488, "lat": 42.3246906, "lon": 11.5830023, "tags": {"amenity": "restaurant", "name": "Il tempo pieno"}}, {"type": "node", "id": 1412995500, "lat": 42.3285055, "lon": 11.5770096, "tags": {"amenity": "restaurant", "name": "Capriccio di Mare"}}, {"type": "node", "id": 1414434768, "lat": 42.0952951, "lon": 11.7892145, "tags": {"amenity": "restaurant"}}, {"type": "node", "id": 1414434769, "lat": 42.0965072, "lon": 11.7890723, "tags": {"amenity": "restaurant", "name": "la vela d'oro", "name:it": "La Vela d'Oro"}}, {"type": "node", "id": 1414434770, "lat": 42.0941746, "lon": 11.7913736, "tags": {"addr:housenumber": "30", "addr:street": "Via Pietro Manzi", "amenity": "restaurant", "name": "Lo Stuzzichino", "name:it": "Lo Stuzzichino", "opening_hours": "Mo-Su 11:00-14:30, 19:00-00:00", "phone": "+39 0766 32945"}}, {"type": "node", "id": 1474248298, "lat": 42.0383388, "lon": 11.8314304}, {"type": "node", "id": 1474248301, "lat": 42.0383674, "lon": 11.8313913}, {"type": "node", "id": 1474248302, "lat": 42.0384101, "lon": 11.8314479}, {"type": "node", "id": 1474248303, "lat": 42.0384502, "lon": 11.8315783}, {"type": "node", "id": 1474248304, "lat": 42.038478, "lon": 11.8313552}, {"type": "node", "id": 1474248305, "lat": 42.0385468, "lon": 11.8314465}, {"type": "node", "id": 1590284515, "lat": 42.0966621, "lon": 11.7893439, "tags": {"addr:city": "Civitavecchia", "addr:housenumber": "42", "addr:street": "Via Sedici Settembre", "amenity": "cafe", "name": "Bar Vespucci", "operator": "Giorgio Parisi"}}, {"type": "node", "id": 1602428215, "lat": 42.2539293, "lon": 11.7579557, "tags": {"addr:city": "Tarquinia", "addr:housenumber": "5", "addr:street": "Via Felice Cavallotti", "amenity": "restaurant", "cuisine": "pizza"}}, {"type": "node", "id": 1602534567, "lat": 42.2549314, "lon": 11.7560201, "tags": {"amenity": "restaurant", "cuisine": "pizza", "name": "Trattoria Pizzeria Piazza d'Erba", "phone": "+39 0766 857241"}}, {"type": "node", "id": 1606705926, "lat": 42.2533691, "lon": 11.7560362, "tags": {"amenity": "cafe", "name": "Suncity"}}, {"type": "node", "id": 1606814633, "lat": 42.2542752, "lon": 11.7588422, "tags": {"addr:city": "Tarquinia", "addr:country": "IT", "addr:housenumber": "14", "addr:street": "Piazza Giacomo Matteotti", "amenity": "restaurant", "cuisine": "italian", "name": "L'Ambaradam"}}, {"type": "node", "id": 1606814683, "lat": 42.2545284, "lon": 11.7591742, "tags": {"amenity": "restaurant", "name": "Magnata Eklettica"}}, {"type": "node", "id": 1635077105, "lat": 42.0879642, "lon": 11.7972237, "tags": {"amenity": "cafe", "name": "Bar 40"}}, {"type": "node", "id": 1656087648, "lat": 42.0878045, "lon": 11.8047514, "tags": {"amenity": "restaurant", "cuisine": "kebab;pizza", "name": "MG Pizza e Kebab"}}, {"type": "node", "id": 1857972620, "lat": 42.3261973, "lon": 11.6201445, "tags": {"amenity": "cafe", "name": "La Piazzetta"}}, {"type": "node", "id": 1858864429, "lat": 42.3164461, "lon": 11.5934501, "tags": {"amenity": "cafe"}}, {"type": "node", "id": 1930261102, "lat": 42.4165127, "lon": 11.8725837, "tags": {"amenity": "restaurant", "name": "Torre di Lavello"}}, {"type": "node", "id": 1933745343, "lat": 42.0598589, "lon": 11.9435303}, {"type": "node", "id": 1933745347, "lat": 42.0598888, "lon": 11.9433696}, {"type": "node", "id": 1933745353, "lat": 42.0599724, "lon": 11.9435631}, {"type": "node", "id": 1933745354, "lat": 42.059998, "lon": 11.9434093}, {"type": "node", "id": 1935571264, "lat": 42.1499644, "lon": 11.9386926}, {"type": "node", "id": 1935571265, "lat": 42.149995, "lon": 11.9386492}, {"type": "node", "id": 1935571266, "lat": 42.1500069, "lon": 11.9387471}, {"type": "node", "id": 1935571267, "lat": 42.1500375, "lon": 11.9387037}, {"type": "node", "id": 1935674670, "lat": 42.1488615, "lon": 11.9383992, "tags": {"amenity": "cafe", "name": "Bar Blu Moon", "restaurant:type:it": "gastronomia;bar;tabacchi;ricariche", "sell:tobacco": "yes"}}, {"type": "node", "id": 1935697467, "lat": 42.149953, "lon": 11.9389625, "tags": {"addr:city": "Tolfa", "addr:postcode": "00059", "amenity": "restaurant", "cuisine": "regional", "name": "Ristorante L'Edera", "restaurant:type:it": "ristorante"}}, {"type": "node", "id": 1935706086, "lat": 42.1502818, "lon": 11.9390354, "tags": {"addr:city": "Tolfa", "addr:postcode": "00059", "amenity": "restaurant", "cuisine": "regional", "name": "La Taverna del Fico", "restaurant:type:it": "taverna"}}, {"type": "node", "id": 1935714989, "lat": 42.1504965, "lon": 11.9390524, "tags": {"addr:city": "Tolfa", "addr:housenumber": "162", "addr:postcode": "00059", "addr:street": "Via Roma", "amenity": "restaurant", "name": "Ristorante Da Buzzico", "operator": "Antonio Morra", "phone": "+39 0766 92811", "restaurant:type:it": "ristorante"}}, {"type": "node", "id": 1935730654, "lat": 42.1501689, "lon": 11.9382898, "tags": {"addr:city": "Tolfa", "addr:postcode": "00059", "amenity": "cafe", "ice_cream": "yes", "name": "Bar Italia", "restaurant:type:it": "caffetteria;gelateria;bar"}}, {"type": "node", "id": 1935730706, "lat": 42.1503657, "lon": 11.9384875, "tags": {"addr:city": "Tolfa", "addr:postcode": "00059", "amenity": "restaurant", "name": "Ristorante La Caballera", "restaurant:type:it": "ristorante"}}, {"type": "node", "id": 2238903531, "lat": 42.3786173, "lon": 11.4486989, "tags": {"amenity": "restaurant"}}, {"type": "node", "id": 2339474624, "lat": 42.017655, "lon": 11.9562827, "tags": {"amenity": "restaurant", "cuisine": "italian", "name": "Isola dei Pescatori"}}, {"type": "node", "id": 2353521494, "lat": 42.0347349, "lon": 11.9229008, "tags": {"amenity": "restaurant", "name": "Banza Beach"}}, {"type": "node", "id": 2411042595, "lat": 42.0345267, "lon": 11.8618102, "tags": {"amenity": "cafe", "name": "Gigi Bar a mare"}}, {"type": "node", "id": 2411042596, "lat": 42.035772, "lon": 11.8687723, "tags": {"addr:city": "Santa Marinella", "addr:housenumber": "24", "addr:postcode": "00058", "addr:street": "Piazza Civitavecchia", "amenity": "restaurant", "cuisine": "italian", "name": "Il Gabbiano", "phone": "+39 0766 510130"}}, {"type": "node", "id": 2411042597, "lat": 42.035124, "lon": 11.8685847, "tags": {"amenity": "restaurant", "cuisine": "italian", "name": "Ristorante La Piazzetta"}}, {"type": "node", "id": 2411042631, "lat": 42.0348011, "lon": 11.8685186, "tags": {"amenity": "restaurant", "cuisine": "italian"}}, {"type": "node", "id": 2411042633, "lat": 42.0351521, "lon": 11.8690234, "tags": {"addr:housenumber": "29", "amenity": "cafe", "name": "Gli Auteri"}}, {"type": "node", "id": 2411051656, "lat": 42.0343166, "lon": 11.859148, "tags": {"addr:city": "Santa Marinella", "addr:country": "IT", "addr:housenumber": "314", "addr:street": "Via Aurelia", "amenity": "restaurant", "cuisine": "italian", "name": "La Sirenetta", "operator": "la sirenetta s.r.l.", "oven": "wood_fired", "phone": "+39 0766 537092"}}, {"type": "node", "id": 2752068931, "lat": 42.021822, "lon": 11.9476969}, {"type": "node", "id": 2752068933, "lat": 42.0218868, "lon": 11.9474473}, {"type": "node", "id": 2752111485, "lat": 42.0214625, "lon": 11.9490423}, {"type": "node", "id": 2752111486, "lat": 42.0213778, "lon": 11.949004}, {"type": "node", "id": 2752111487, "lat": 42.0212981, "lon": 11.9493118}, {"type": "node", "id": 2752111488, "lat": 42.0212567, "lon": 11.9494754}, {"type": "node", "id": 2752111489, "lat": 42.0212413, "lon": 11.9495385}, {"type": "node", "id": 2752111490, "lat": 42.0212941, "lon": 11.9495633}, {"type": "node", "id": 2752111491, "lat": 42.021311, "lon": 11.9495036}, {"type": "node", "id": 2752111492, "lat": 42.0213604, "lon": 11.9495257}, {"type": "node", "id": 2752111493, "lat": 42.0213967, "lon": 11.9494687}, {"type": "node", "id": 2752111494, "lat": 42.0213559, "lon": 11.9493547}, {"type": "node", "id": 2752111495, "lat": 42.0213828, "lon": 11.9492568}, {"type": "node", "id": 2752111496, "lat": 42.0214356, "lon": 11.9491804}, {"type": "node", "id": 2752111497, "lat": 42.0213683, "lon": 11.9494178}, {"type": "node", "id": 2752111498, "lat": 42.0213788, "lon": 11.9494446}, {"type": "node", "id": 2752111499, "lat": 42.0213604, "lon": 11.9493856}, {"type": "node", "id": 2752111500, "lat": 42.0214057, "lon": 11.9492092}, {"type": "node", "id": 2765224931, "lat": 42.0335746, "lon": 11.8509485, "tags": {"addr:city": "Santa Marinella", "addr:housenumber": "487", "addr:postcode": "00058", "addr:street": "Strada Statale 1 Aurelia", "amenity": "restaurant", "name": "Shar Sporting Club di Barbara Sbaffo Co.", "website": "http://sportingclubsm.altervista.org/"}}, {"type": "node", "id": 2782452958, "lat": 42.0727483, "lon": 11.8094542, "tags": {"amenity": "restaurant"}}, {"type": "node", "id": 2953874508, "lat": 42.031134, "lon": 11.8472902}, {"type": "node", "id": 2953874509, "lat": 42.0312173, "lon": 11.8475628}, {"type": "node", "id": 2953874510, "lat": 42.0310573, "lon": 11.8476514}, {"type": "node", "id": 2953874511, "lat": 42.0309748, "lon": 11.8473816}, {"type": "node", "id": 2953874512, "lat": 42.0310669, "lon": 11.8473306}, {"type": "node", "id": 2953874513, "lat": 42.0310496, "lon": 11.8472741}, {"type": "node", "id": 2953874514, "lat": 42.0310995, "lon": 11.8472464}, {"type": "node", "id": 2953874515, "lat": 42.0311159, "lon": 11.8473002}, {"type": "node", "id": 2955747985, "lat": 42.0346348, "lon": 11.8650474, "tags": {"amenity": "restaurant"}}, {"type": "node", "id": 2956319574, "lat": 42.0356744, "lon": 11.8685202, "tags": {"amenity": "cafe"}}, {"type": "node", "id": 2960222328, "lat": 42.0376196, "lon": 11.8740482}, {"type": "node", "id": 2960222329, "lat": 42.0376329, "lon": 11.8741432}, {"type": "node", "id": 2960222330, "lat": 42.0375425, "lon": 11.8741661}, {"type": "node", "id": 2960222331, "lat": 42.0375292, "lon": 11.8740712}, {"type": "node", "id": 2993648688, "lat": 42.0399203, "lon": 11.8883555, "tags": {"addr:city": "Santa Marinella", "addr:housenumber": "111/B/S", "addr:postcode": "00058", "addr:street": "Via Aurelia", "amenity": "restaurant", "cuisine": "seafood", "name": "Tavola Azurra 2", "operator": "Terra Sarda Srls.", "phone": "+39 0766 510632", "phone:mobile": "+39 389 9739256", "ref:vatin": "IT12848391004"}}, {"type": "node", "id": 3022542821, "lat": 42.2908539, "lon": 11.6427077}, {"type": "node", "id": 3022542825, "lat": 42.2909449, "lon": 11.6428625}, {"type": "node", "id": 3022542826, "lat": 42.2909456, "lon": 11.6426092}, {"type": "node", "id": 3022542828, "lat": 42.2910366, "lon": 11.6427639}, {"type": "node", "id": 3088953349, "lat": 42.0397001, "lon": 11.8869209, "tags": {"amenity": "restaurant"}}, {"type": "node", "id": 3091242166, "lat": 42.0376671, "lon": 11.9196367, "tags": {"amenity": "restaurant", "name": "La Toscana"}}, {"type": "node", "id": 3091242167, "lat": 42.0377747, "lon": 11.9196958, "tags": {"amenity": "cafe", "name": "La Toscana"}}, {"type": "node", "id": 3092071444, "lat": 42.0402043, "lon": 11.8942018}, {"type": "node", "id": 3092071445, "lat": 42.0401783, "lon": 11.8943746}, {"type": "node", "id": 3092071446, "lat": 42.0401385, "lon": 11.8943638}, {"type": "node", "id": 3092071447, "lat": 42.0401665, "lon": 11.8941777}, {"type": "node", "id": 3092071815, "lat": 42.0399643, "lon": 11.8955153}, {"type": "node", "id": 3092071816, "lat": 42.0399179, "lon": 11.8956836}, {"type": "node", "id": 3092071817, "lat": 42.0398686, "lon": 11.8956589}, {"type": "node", "id": 3092071818, "lat": 42.039915, "lon": 11.8954907}, {"type": "node", "id": 3110022230, "lat": 42.10272, "lon": 11.8072799, "tags": {"addr:city": "Civitavecchia", "addr:housenumber": "119", "addr:street": "Via Terme di Traiano", "amenity": "restaurant", "name": "Dolce Vita"}}, {"type": "node", "id": 3182456335, "lat": 42.0871026, "lon": 11.8074714, "tags": {"addr:city": "Civitavecchia", "addr:postcode": "00053", "addr:street": "Via Rodolfo Morandi", "amenity": "restaurant", "name": "Pizzeria Le Terme", "nohousenumber": "yes"}}, {"type": "node", "id": 3190692371, "lat": 42.0412095, "lon": 11.8800285, "tags": {"amenity": "cafe"}}, {"type": "node", "id": 3190715389, "lat": 42.04403, "lon": 11.8789891, "tags": {"addr:city": "Santa Marinella", "addr:housenumber": "15", "addr:postcode": "00058", "addr:street": "Via Lazio", "amenity": "cafe", "name": "Bar Tabacchi"}}, {"type": "node", "id": 3200492927, "lat": 42.0306519, "lon": 11.8436442, "tags": {"addr:city": "Santa Marinella", "addr:housenumber": "97", "addr:postcode": "00058", "addr:street": "Lungomare Guglielmo Marconi", "amenity": "cafe", "name": "Caff\u00e8 Bar - La Gatta a Mare"}}, {"type": "node", "id": 3200527246, "lat": 42.0305742, "lon": 11.8443268, "tags": {"amenity": "restaurant", "name": "Capolinaro Beach", "note": "Stabilimento Balneare, Rimessaggio Barche, Bar e Ristorante"}}, {"type": "node", "id": 3201233252, "lat": 42.0307147, "lon": 11.8419531}, {"type": "node", "id": 3201233386, "lat": 42.030662, "lon": 11.8419066}, {"type": "node", "id": 3201233387, "lat": 42.0306651, "lon": 11.8419283}, {"type": "node", "id": 3201233388, "lat": 42.0306509, "lon": 11.8419316}, {"type": "node", "id": 3201233389, "lat": 42.0306606, "lon": 11.8419906}, {"type": "node", "id": 3201233390, "lat": 42.0307246, "lon": 11.8419729}, {"type": "node", "id": 3202330278, "lat": 42.033271, "lon": 11.8376296, "tags": {"amenity": "restaurant", "cuisine": "pizza"}}, {"type": "node", "id": 3213411697, "lat": 42.0430784, "lon": 11.8277544, "tags": {"amenity": "restaurant"}}, {"type": "node", "id": 3218162479, "lat": 42.0459332, "lon": 11.8308776, "tags": {"amenity": "restaurant"}}, {"type": "node", "id": 3235292020, "lat": 42.0363995, "lon": 11.8515614, "tags": {"amenity": "cafe"}}, {"type": "node", "id": 3235341287, "lat": 42.0363742, "lon": 11.8688744, "tags": {"amenity": "restaurant", "cuisine": "pizza", "name": "La Luna"}}, {"type": "node", "id": 3235362576, "lat": 42.0363443, "lon": 11.8681663, "tags": {"amenity": "restaurant"}}, {"type": "node", "id": 3235367795, "lat": 42.03541, "lon": 11.8685338, "tags": {"addr:city": "Santa Marinella", "addr:housenumber": "2", "addr:postcode": "00058", "addr:street": "Via Antonio Fratti", "amenity": "restaurant", "cuisine": "regional;italian", "name": "Borghetto Bistrot", "outdoor_seating": "yes"}}, {"type": "node", "id": 3235367796, "lat": 42.0352038, "lon": 11.868448, "tags": {"addr:city": "Santa Marinella", "addr:postcode": "00058", "addr:street": "Via della Libert\u00e0", "amenity": "restaurant", "cuisine": "friture", "name": "Frienn magnann"}}, {"type": "node", "id": 3235373655, "lat": 42.0353701, "lon": 11.8684319, "tags": {"addr:city": "Santa Marinella", "addr:housenumber": "6", "addr:postcode": "00058", "addr:street": "Via della Libert\u00e0", "amenity": "restaurant", "cuisine": "italian;fish", "name": "Il Bettolino", "outdoor_seating": "yes"}}, {"type": "node", "id": 3300193529, "lat": 42.0558268, "lon": 11.8196055, "tags": {"amenity": "restaurant"}}, {"type": "node", "id": 3325184760, "lat": 42.0764047, "lon": 11.8080165}, {"type": "node", "id": 3325186161, "lat": 42.0764405, "lon": 11.8079736}, {"type": "node", "id": 3325186162, "lat": 42.0764455, "lon": 11.8078704}, {"type": "node", "id": 3325186163, "lat": 42.076554, "lon": 11.8079387}, {"type": "node", "id": 3325186164, "lat": 42.07656, "lon": 11.80792}, {"type": "node", "id": 3325186165, "lat": 42.0765739, "lon": 11.8079267}, {"type": "node", "id": 3325186166, "lat": 42.0765898, "lon": 11.8078502}, {"type": "node", "id": 3325186167, "lat": 42.0764181, "lon": 11.8077497}, {"type": "node", "id": 3325186168, "lat": 42.0762554, "lon": 11.8077349}, {"type": "node", "id": 3325186169, "lat": 42.0762544, "lon": 11.8078824}, {"type": "node", "id": 3325186170, "lat": 42.0762554, "lon": 11.8079455}, {"type": "node", "id": 3325186171, "lat": 42.0762842, "lon": 11.8079911}, {"type": "node", "id": 3325186172, "lat": 42.0762494, "lon": 11.8080447}, {"type": "node", "id": 3325186173, "lat": 42.0763659, "lon": 11.8081855}, {"type": "node", "id": 3325186174, "lat": 42.0763967, "lon": 11.8081359}, {"type": "node", "id": 3325186175, "lat": 42.0764136, "lon": 11.8081547}, {"type": "node", "id": 3325186176, "lat": 42.0764057, "lon": 11.8081708}, {"type": "node", "id": 3325186177, "lat": 42.0764166, "lon": 11.8081801}, {"type": "node", "id": 3325186178, "lat": 42.0764341, "lon": 11.8081842}, {"type": "node", "id": 3325186179, "lat": 42.076446, "lon": 11.8081815}, {"type": "node", "id": 3325186180, "lat": 42.0764589, "lon": 11.8081734}, {"type": "node", "id": 3325186181, "lat": 42.0764679, "lon": 11.80816}, {"type": "node", "id": 3325186182, "lat": 42.0764749, "lon": 11.8081433}, {"type": "node", "id": 3325186183, "lat": 42.0764783, "lon": 11.8081245}, {"type": "node", "id": 3325186184, "lat": 42.0764759, "lon": 11.8081064}, {"type": "node", "id": 3325186185, "lat": 42.0764719, "lon": 11.8080923}, {"type": "node", "id": 3325186186, "lat": 42.0764649, "lon": 11.8080796}, {"type": "node", "id": 3325186187, "lat": 42.0764579, "lon": 11.8080896}, {"type": "node", "id": 3333899814, "lat": 42.0740521, "lon": 11.8091704, "tags": {"addr:city": "Civitavecchia", "addr:housenumber": "39", "addr:postcode": "00053", "addr:street": "Via Aurelia Sud", "amenity": "cafe", "name": "Caffetteria Antica Aurelia di Fiorentini Mauro"}}, {"type": "node", "id": 3364614103, "lat": 42.0721702, "lon": 11.8099645, "tags": {"amenity": "restaurant", "cuisine": "pizza", "name": "Fuori dal Ghetto"}}, {"type": "node", "id": 3368067378, "lat": 42.0821334, "lon": 11.8062174, "tags": {"addr:city": "Civitavecchia", "addr:housenumber": "7/a", "addr:postcode": "00053", "addr:street": "Strada Statale 1 Aurelia", "amenity": "restaurant", "cuisine": "pizza", "name": "Mastro Titta Pizza - Il chiosco", "website": "http://www.mastrotittapizza.com/punti_vendita-809.html"}}, {"type": "node", "id": 3375683644, "lat": 42.0799405, "lon": 11.8072044}, {"type": "node", "id": 3375683645, "lat": 42.0799534, "lon": 11.807258}, {"type": "node", "id": 3375683646, "lat": 42.0799434, "lon": 11.8072755}, {"type": "node", "id": 3375683647, "lat": 42.0799604, "lon": 11.8073492}, {"type": "node", "id": 3375683648, "lat": 42.0797643, "lon": 11.807419}, {"type": "node", "id": 3375683649, "lat": 42.0797444, "lon": 11.8073211}, {"type": "node", "id": 3375683650, "lat": 42.0797663, "lon": 11.8073117}, {"type": "node", "id": 3375683651, "lat": 42.0797633, "lon": 11.8072848}, {"type": "node", "id": 3375683652, "lat": 42.0797274, "lon": 11.8071641}, {"type": "node", "id": 3375683653, "lat": 42.07983, "lon": 11.807089}, {"type": "node", "id": 3375683654, "lat": 42.0798469, "lon": 11.8071548}, {"type": "node", "id": 3375683655, "lat": 42.0798688, "lon": 11.807144}, {"type": "node", "id": 3375683656, "lat": 42.0798917, "lon": 11.8072258}, {"type": "node", "id": 3375691162, "lat": 42.0797528, "lon": 11.8072741}, {"type": "node", "id": 3375691163, "lat": 42.07972, "lon": 11.807246}, {"type": "node", "id": 3375691164, "lat": 42.0796493, "lon": 11.8074055}, {"type": "node", "id": 3375691165, "lat": 42.0796841, "lon": 11.8074431}, {"type": "node", "id": 3375691166, "lat": 42.0796861, "lon": 11.8074579}, {"type": "node", "id": 3375691167, "lat": 42.0797498, "lon": 11.8074444}, {"type": "node", "id": 3375691168, "lat": 42.0797309, "lon": 11.8073224}, {"type": "node", "id": 3680618867, "lat": 42.2186511, "lon": 11.7072589}, {"type": "node", "id": 3680618868, "lat": 42.2181678, "lon": 11.7075533}, {"type": "node", "id": 3680618869, "lat": 42.2187226, "lon": 11.7074677}, {"type": "node", "id": 3680618870, "lat": 42.2182427, "lon": 11.707772}, {"type": "node", "id": 3723619625, "lat": 42.0909214, "lon": 11.7934473, "tags": {"amenity": "cafe", "name": "Yogorino"}}, {"type": "node", "id": 3763694505, "lat": 42.1475263, "lon": 11.7445624, "tags": {"amenity": "cafe"}}, {"type": "node", "id": 3774717675, "lat": 42.0841867, "lon": 11.802349}, {"type": "node", "id": 3774717676, "lat": 42.0840139, "lon": 11.8021338}, {"type": "node", "id": 3774717677, "lat": 42.0839667, "lon": 11.8021157}, {"type": "node", "id": 3774717678, "lat": 42.0839996, "lon": 11.802176}, {"type": "node", "id": 3774717679, "lat": 42.0841429, "lon": 11.8023987}, {"type": "node", "id": 3823507888, "lat": 42.2547864, "lon": 11.7609242, "tags": {"addr:city": "Tarquinia", "addr:housenumber": "43", "addr:postcode": "01016", "addr:street": "Alberata Dante Alighieri", "amenity": "cafe", "check_date": "2024-01-07", "internet_access": "wlan", "internet_access:fee": "no", "internet_access:ssid": "Vodafone-CAPOLINEA CAFFE'", "loc_name": "Alberata", "name": "Capolinea Caff\u00e8", "outdoor_seating": "yes", "phone": "+39 766 842493", "sidewalk": "yes", "smoking": "outside", "terrace": "roofed", "wheelchair": "limited"}}, {"type": "node", "id": 3838204120, "lat": 42.2538468, "lon": 11.757691, "tags": {"addr:city": "Tarquinia", "addr:housenumber": "12", "addr:postcode": "01016", "addr:street": "Via Giuseppe Garibaldi", "amenity": "cafe", "cuisine": "coffee_shop", "internet_access": "wlan", "internet_access:fee": "no", "internet_access:ssid": "BelleHelene", "kids_area": "no", "name": "Belle Helene", "opening_hours": "07:30-13:00,16:30-20:00; Th off; Su 07:30-13:00,17:00-20:00", "payment:credit_cards": "yes", "payment:debit_cards": "yes", "phone": "+39 766196387", "toilets": "yes", "toilets:wheelchair": "yes", "wheelchair": "yes"}}, {"type": "node", "id": 3865758380, "lat": 42.2533412, "lon": 11.7560583, "tags": {"addr:city": "Tarquinia", "addr:housenumber": "11", "addr:postcode": "01016", "addr:street": "Piazza Cavour", "amenity": "restaurant", "cuisine": "pizza", "name": "Napule \u00e8", "phone": "+39 766 85 00 22", "takeaway": "yes"}}, {"type": "node", "id": 3865995285, "lat": 42.253358, "lon": 11.7564239, "tags": {"addr:city": "Tarquinia", "addr:housenumber": "23", "addr:postcode": "01016", "addr:street": "Via della Caserma", "amenity": "restaurant", "cuisine": "tapas", "name": "La Cadena Taperia", "opening_hours": "12:30-15:00,18:30-24:00; We off; Fr,Sa 12:30-15:00,18:30-01:00", "phone": "+39 766 678 275", "smoking": "outside"}}, {"type": "node", "id": 3881035852, "lat": 42.090237, "lon": 11.7934983, "tags": {"addr:housenumber": "16", "addr:street": "Viale Giuseppe Garibaldi", "amenity": "restaurant", "name": "Ristorante pizzeria da Baffone"}}, {"type": "node", "id": 3881063635, "lat": 42.0921928, "lon": 11.7961571, "tags": {"addr:housenumber": "6", "addr:street": "Via Michelangelo Buonarroti", "amenity": "restaurant", "cuisine": "chinese", "name": "Sun Li Ching"}}, {"type": "node", "id": 3881090993, "lat": 42.0919874, "lon": 11.7995033, "tags": {"addr:housenumber": "50a", "addr:street": "Via Lorenzo Bernini", "amenity": "restaurant", "cuisine": "pizza", "name": "Wow", "name:it": "Pizza in teglia"}}, {"type": "node", "id": 3883449087, "lat": 42.0900049, "lon": 11.8028194, "tags": {"addr:housenumber": "85a", "addr:street": "Viale Guido Baccelli", "amenity": "restaurant", "name": "Via Duca Daosta"}}, {"type": "node", "id": 3883449206, "lat": 42.0886494, "lon": 11.8016231, "tags": {"addr:housenumber": "31", "addr:street": "Via Donato Bramante", "amenity": "cafe", "name": "ExtremeBikeCaf\u00e8"}}, {"type": "node", "id": 3883449229, "lat": 42.0883886, "lon": 11.8028113, "tags": {"addr:housenumber": "20", "addr:street": "Via Romolo Mori", "amenity": "restaurant", "name": "Ndo' Se Beve E Se Magna"}}, {"type": "node", "id": 3883449335, "lat": 42.0890017, "lon": 11.8040545, "tags": {"addr:housenumber": "3", "addr:street": "Via Benci e Gatti", "amenity": "restaurant", "name": "Ristorante Pizzeria AQUA"}}, {"type": "node", "id": 3887433160, "lat": 42.0907044, "lon": 11.7937557, "tags": {"addr:housenumber": "14", "addr:street": "Via Zara", "amenity": "restaurant", "name": "Locanda Magnifico"}}, {"type": "node", "id": 3887433162, "lat": 42.0907074, "lon": 11.7941024, "tags": {"addr:housenumber": "17", "addr:street": "Via Luigi Cadorna", "amenity": "restaurant", "name": "Pizzeria Del Ghetto"}}, {"type": "node", "id": 3887433163, "lat": 42.090511, "lon": 11.793729, "tags": {"addr:city": "Civitavecchia", "addr:housenumber": "1/3/5/7/9", "addr:postcode": "00053", "addr:street": "Via Luigi Cadorna", "amenity": "restaurant", "name": "Mylord - Ristorante il Bivio"}}, {"type": "node", "id": 3887433164, "lat": 42.090366, "lon": 11.7940642, "tags": {"addr:housenumber": "13", "addr:street": "Via Enrico Toti", "amenity": "cafe", "name": "Mama Caf\u00e8"}}, {"type": "node", "id": 3887433165, "lat": 42.0903004, "lon": 11.7940051, "tags": {"addr:housenumber": "7", "addr:street": "Via Enrico Toti", "amenity": "restaurant", "cuisine": "asian", "name": "Seamen's Center The Green Turtle"}}, {"type": "node", "id": 3889129335, "lat": 42.0920442, "lon": 11.7933733, "tags": {"addr:housenumber": "28", "addr:street": "Via Traiana", "amenity": "restaurant", "name": "La Tana"}}, {"type": "node", "id": 3889138897, "lat": 42.0923248, "lon": 11.7938749, "tags": {"addr:housenumber": "44", "addr:street": "Via Traiana", "amenity": "restaurant", "name": "Vizi e Sfizi"}}, {"type": "node", "id": 3889138899, "lat": 42.0924283, "lon": 11.7940573, "tags": {"addr:housenumber": "52", "addr:street": "Via Traiana", "amenity": "restaurant", "name": "Spaghetti House"}}, {"type": "node", "id": 3889138900, "lat": 42.0925895, "lon": 11.7940653, "tags": {"addr:housenumber": "31", "addr:street": "Via Andrea Doria", "amenity": "restaurant", "name": "Pizzeria La Ternana"}}, {"type": "node", "id": 4076592641, "lat": 42.1982373, "lon": 11.8781069}, {"type": "node", "id": 4076592642, "lat": 42.1981724, "lon": 11.8782623}, {"type": "node", "id": 4076592643, "lat": 42.1978189, "lon": 11.8779936}, {"type": "node", "id": 4076592644, "lat": 42.1978837, "lon": 11.8778381}, {"type": "node", "id": 4241336266, "lat": 42.230687, "lon": 11.7006781}, {"type": "node", "id": 4241336269, "lat": 42.2307233, "lon": 11.7007811}, {"type": "node", "id": 4241336280, "lat": 42.2308046, "lon": 11.7006026}, {"type": "node", "id": 4241336281, "lat": 42.2308127, "lon": 11.7006258, "tags": {"amenity": "ice_cream"}}, {"type": "node", "id": 4241336283, "lat": 42.2308182, "lon": 11.7007201}, {"type": "node", "id": 4241336285, "lat": 42.2308308, "lon": 11.700677, "tags": {"entrance": "yes"}}, {"type": "node", "id": 4241336288, "lat": 42.2308409, "lon": 11.7007056}, {"type": "node", "id": 4241336409, "lat": 42.2309622, "lon": 11.7006752}, {"type": "node", "id": 4241336414, "lat": 42.2309742, "lon": 11.7006159}, {"type": "node", "id": 4241336415, "lat": 42.230982, "lon": 11.7007203}, {"type": "node", "id": 4241336418, "lat": 42.2309895, "lon": 11.7008199}, {"type": "node", "id": 4241336421, "lat": 42.230994, "lon": 11.700829}, {"type": "node", "id": 4241336423, "lat": 42.2309967, "lon": 11.7007327}, {"type": "node", "id": 4241336426, "lat": 42.2310009, "lon": 11.700751}, {"type": "node", "id": 4241336434, "lat": 42.2310123, "lon": 11.7005914}, {"type": "node", "id": 4241336436, "lat": 42.2310148, "lon": 11.7008706}, {"type": "node", "id": 4241336440, "lat": 42.2310494, "lon": 11.7006101}, {"type": "node", "id": 4241336444, "lat": 42.2310568, "lon": 11.7007067}, {"type": "node", "id": 4241336446, "lat": 42.2310616, "lon": 11.7008837}, {"type": "node", "id": 4241336447, "lat": 42.2310622, "lon": 11.7007248}, {"type": "node", "id": 4241336449, "lat": 42.2310672, "lon": 11.7006569}, {"type": "node", "id": 4241336455, "lat": 42.2310877, "lon": 11.7007362}, {"type": "node", "id": 4241336460, "lat": 42.2311012, "lon": 11.7008481}, {"type": "node", "id": 4241336466, "lat": 42.2311107, "lon": 11.7007891}, {"type": "node", "id": 4281670252, "lat": 42.0385819, "lon": 11.9392982}, {"type": "node", "id": 4281670253, "lat": 42.0385891, "lon": 11.9394168}, {"type": "node", "id": 4281670254, "lat": 42.0387473, "lon": 11.9392798}, {"type": "node", "id": 4281670255, "lat": 42.0387545, "lon": 11.9393984}, {"type": "node", "id": 4281693725, "lat": 42.0307564, "lon": 11.9630336}, {"type": "node", "id": 4281693727, "lat": 42.0307838, "lon": 11.9627263}, {"type": "node", "id": 4281693751, "lat": 42.0311146, "lon": 11.9630913}, {"type": "node", "id": 4281693753, "lat": 42.0311419, "lon": 11.962784}, {"type": "node", "id": 4296248605, "lat": 42.0438448, "lon": 11.8791778, "tags": {"addr:city": "Santa Marinella", "addr:housenumber": "37", "addr:postcode": "00058", "addr:street": "Via dei Fiori", "amenity": "restaurant", "cuisine": "pizza", "name": "Pizzeria da Jo e Yoseph"}}, {"type": "node", "id": 4316008282, "lat": 42.0377717, "lon": 11.8778839}, {"type": "node", "id": 4316008283, "lat": 42.0377936, "lon": 11.8779335}, {"type": "node", "id": 4316008285, "lat": 42.0378006, "lon": 11.8778608}, {"type": "node", "id": 4316008490, "lat": 42.0378225, "lon": 11.8779104}, {"type": "node", "id": 4370797396, "lat": 42.0891962, "lon": 11.7933579, "tags": {"amenity": "restaurant", "cuisine": "pizza", "name": "Piazza San Josemaria Escriv\u00e0"}}, {"type": "node", "id": 4375213727, "lat": 42.2247202, "lon": 11.7932578, "tags": {"amenity": "restaurant", "name": "AcquaPazza", "website": "ristoranteacquapazza.net"}}, {"type": "node", "id": 4419088699, "lat": 42.2182847, "lon": 11.7074803}, {"type": "node", "id": 4419088700, "lat": 42.2183243, "lon": 11.7074346}, {"type": "node", "id": 4419088701, "lat": 42.2183313, "lon": 11.7074761}, {"type": "node", "id": 4419088702, "lat": 42.2183319, "lon": 11.7076182}, {"type": "node", "id": 4419088703, "lat": 42.2183462, "lon": 11.7074916}, {"type": "node", "id": 4419088704, "lat": 42.2183501, "lon": 11.7073968}, {"type": "node", "id": 4419088705, "lat": 42.2183582, "lon": 11.7076999}, {"type": "node", "id": 4419088706, "lat": 42.2183752, "lon": 11.7077493}, {"type": "node", "id": 4419088707, "lat": 42.21838, "lon": 11.7074017}, {"type": "node", "id": 4419088708, "lat": 42.2183778, "lon": 11.7075898}, {"type": "node", "id": 4419088709, "lat": 42.2183957, "lon": 11.7074264}, {"type": "node", "id": 4419088710, "lat": 42.2183982, "lon": 11.7074404}, {"type": "node", "id": 4419088711, "lat": 42.2184318, "lon": 11.7074214}, {"type": "node", "id": 4419088712, "lat": 42.2184327, "lon": 11.7074365}, {"type": "node", "id": 4419088713, "lat": 42.2184681, "lon": 11.7073718}, {"type": "node", "id": 4419088714, "lat": 42.218514, "lon": 11.7073772}, {"type": "node", "id": 4419088715, "lat": 42.2185363, "lon": 11.7073305}, {"type": "node", "id": 4419088716, "lat": 42.2185445, "lon": 11.7074174}, {"type": "node", "id": 4419088717, "lat": 42.2185637, "lon": 11.7074741}, {"type": "node", "id": 4419088718, "lat": 42.2185815, "lon": 11.7074624}, {"type": "node", "id": 4419088719, "lat": 42.2186228, "lon": 11.7075315}, {"type": "node", "id": 4419088720, "lat": 42.2186413, "lon": 11.7075841}, {"type": "node", "id": 4451439671, "lat": 42.1320905, "lon": 11.9457123, "tags": {"amenity": "restaurant", "cuisine": "regional", "name": "Agriturismo Poggio della Stella", "opening_hours": "Sa; Su \"only during summer\"", "phone": "+393406435519", "website": "http://www.poggiodellastella.it"}}, {"type": "node", "id": 4511106803, "lat": 42.018899, "lon": 11.9541434, "tags": {"amenity": "restaurant", "name": "Il Marinaio"}}, {"type": "node", "id": 4511117051, "lat": 42.0203526, "lon": 11.9518139, "tags": {"amenity": "cafe", "name": "Chiosco Franco"}}, {"type": "node", "id": 4511205388, "lat": 42.0272791, "lon": 11.9400417, "tags": {"amenity": "restaurant", "cuisine": "pizza", "name": "Centro Pizza", "phone": "+39 0766 571238"}}, {"type": "node", "id": 4511206145, "lat": 42.0271834, "lon": 11.9412969, "tags": {"amenity": "cafe", "name": "Carita Morena Drink & Fruit"}}, {"type": "node", "id": 4512633772, "lat": 42.0887635, "lon": 11.8047512, "tags": {"addr:housenumber": "3", "addr:street": "Via Benci e Gatti", "amenity": "restaurant", "cuisine": "italian_pizza", "name": "Aqua"}}, {"type": "node", "id": 4512634006, "lat": 42.0882559, "lon": 11.8064597, "tags": {"addr:housenumber": "12", "addr:street": "Via San Francesco di Paola", "amenity": "restaurant", "cuisine": "italian_pizza", "name": "Red Rose"}}, {"type": "node", "id": 4512745333, "lat": 42.0898772, "lon": 11.8065348, "tags": {"amenity": "cafe"}}, {"type": "node", "id": 4512745397, "lat": 42.0950004, "lon": 11.8154639, "tags": {"addr:housenumber": "18", "addr:street": "Viale Pietro Nenni", "amenity": "restaurant", "cuisine": "italian_pizza", "name": "Pizzeria Far West"}}, {"type": "node", "id": 4517970672, "lat": 42.0906864, "lon": 11.8070503, "tags": {"amenity": "cafe"}}, {"type": "node", "id": 4517992401, "lat": 42.0902008, "lon": 11.8031156, "tags": {"addr:housenumber": "118", "addr:street": "Viale Guido Baccelli", "amenity": "restaurant", "cuisine": "italian_pizza", "name": "La Casa della Pizza", "phone": "+39 0766 545122"}}, {"type": "node", "id": 4517992403, "lat": 42.0902346, "lon": 11.8028796, "tags": {"amenity": "cafe", "name": "Bar Arcobaleno"}}, {"type": "node", "id": 4517992415, "lat": 42.090786, "lon": 11.8023109, "tags": {"addr:housenumber": "108", "addr:street": "Viale Guido Baccelli", "amenity": "restaurant", "name": "Pizzeria L'ancora"}}, {"type": "node", "id": 4518850729, "lat": 42.0976731, "lon": 11.7969867, "tags": {"amenity": "cafe", "name": "Bar Orte"}}, {"type": "node", "id": 4518983683, "lat": 42.0932234, "lon": 11.7990661, "tags": {"amenity": "cafe", "name": "Dolce Amaro"}}, {"type": "node", "id": 4518986389, "lat": 42.0926492, "lon": 11.7994362, "tags": {"amenity": "cafe", "name": "Angolo Caff\u00e8"}}, {"type": "node", "id": 4518986547, "lat": 42.0933891, "lon": 11.8033925, "tags": {"amenity": "restaurant", "cuisine": "italian_pizza", "name": "Lo Zodiaco"}}, {"type": "node", "id": 4519301480, "lat": 42.0892801, "lon": 11.8037824, "tags": {"addr:housenumber": "148", "addr:street": "Viale Guido Baccelli", "amenity": "restaurant", "name": "A Modo Mio", "phone": "+39 0766 29301", "website": "ristoranteamodomio.com"}}, {"type": "node", "id": 4520526758, "lat": 42.0967874, "lon": 11.78972}, {"type": "node", "id": 4548069295, "lat": 42.2542553, "lon": 11.7549211, "tags": {"addr:city": "Tarquinia", "addr:housenumber": "21", "addr:postcode": "01016", "addr:street": "Piazza del Duomo", "alt_name": "Denominazione d'Origine Tarquiniese", "amenity": "cafe", "internet_access": "wlan", "internet_access:fee": "no", "internet_access:ssid": "ERMES DOT", "name": "Dot Caf\u00e8", "opening_hours": "07:00-21:30; Th off; Fr,Sa 07:00-01:00", "phone": "+39 766 858971", "smoking": "outside"}}, {"type": "node", "id": 4548069296, "lat": 42.2542241, "lon": 11.7549623, "tags": {"addr:city": "Tarquinia", "addr:housenumber": "20", "addr:postcode": "01016", "addr:street": "Piazza del Duomo", "amenity": "restaurant", "cuisine": "pizza", "name": "Underground", "phone": "+39 329 092 2589"}}, {"type": "node", "id": 4564218425, "lat": 42.0982655, "lon": 11.7888656, "tags": {"amenity": "cafe", "name": "Navy Bar"}}, {"type": "node", "id": 4577956380, "lat": 42.1429211, "lon": 11.9161585}, {"type": "node", "id": 4577956381, "lat": 42.1427879, "lon": 11.9161826}, {"type": "node", "id": 4577956382, "lat": 42.1427362, "lon": 11.9162014}, {"type": "node", "id": 4577956383, "lat": 42.1426785, "lon": 11.916247}, {"type": "node", "id": 4577956384, "lat": 42.1426447, "lon": 11.916196}, {"type": "node", "id": 4577956385, "lat": 42.1427143, "lon": 11.9161397}, {"type": "node", "id": 4577956386, "lat": 42.1427063, "lon": 11.9161075}, {"type": "node", "id": 4577956387, "lat": 42.1427759, "lon": 11.916078}, {"type": "node", "id": 4577956388, "lat": 42.1427819, "lon": 11.9161129}, {"type": "node", "id": 4577956389, "lat": 42.1429231, "lon": 11.9160941}, {"type": "node", "id": 4712230507, "lat": 42.035727, "lon": 11.8704116, "tags": {"amenity": "restaurant", "name": "Taverna del Pirata"}}, {"type": "node", "id": 4712245258, "lat": 42.3099994, "lon": 11.6027695, "tags": {"amenity": "restaurant", "cuisine": "italian", "name": "Le Murelle"}}, {"type": "node", "id": 4716845308, "lat": 42.2503559, "lon": 11.7573077, "tags": {"amenity": "restaurant", "cuisine": "pizza", "name": "Pizzeria Il Falchetto"}}, {"type": "node", "id": 4716845314, "lat": 42.250612, "lon": 11.7554054, "tags": {"addr:housenumber": "1", "addr:street": "Via Giovan Battista Marzi", "amenity": "restaurant", "name": "Namo Ristobottega", "phone": "+39 0766 731637"}}, {"type": "node", "id": 4716845362, "lat": 42.2479818, "lon": 11.7572514, "tags": {"addr:housenumber": "19", "addr:street": "Via Tuscia", "amenity": "restaurant", "name": "La Capanna del Buttero", "phone": "+39 347 545 8184"}}, {"type": "node", "id": 4716892015, "lat": 42.2461065, "lon": 11.7500738, "tags": {"amenity": "restaurant", "cuisine": "pizza", "name": "Pizzeria Noi del Ghetto"}}, {"type": "node", "id": 4718382416, "lat": 42.247063, "lon": 11.7521127, "tags": {"addr:housenumber": "15", "addr:street": "Via Palmiro Togliatti", "amenity": "restaurant", "name": "All'Olivo", "phone": "+39 0766 857318", "website": "allolivo.it"}}, {"type": "node", "id": 4718422151, "lat": 42.2461258, "lon": 11.7503907, "tags": {"amenity": "cafe", "name": "Baricentro"}}, {"type": "node", "id": 4749607943, "lat": 42.2487815, "lon": 11.7582126, "tags": {"amenity": "cafe", "name": "L'Angolo del Caff\u00e8"}}, {"type": "node", "id": 4820713389, "lat": 42.253989, "lon": 11.7576224, "tags": {"addr:city": "Tarquinia", "addr:housenumber": "15", "addr:postcode": "01016", "addr:street": "Piazza Giacomo Matteotti", "amenity": "cafe", "changing_table": "no", "internet_access": "no", "level": "0", "name": "L'angolo del caff\u00e8", "opening_hours": "Mo-Sa 07:00-21:00", "outdoor_seating": "yes", "smoking": "outside", "takeaway": "yes", "toilets": "yes", "wheelchair": "yes"}}, {"type": "node", "id": 4836518421, "lat": 42.4163278, "lon": 11.8723546, "tags": {"addr:housenumber": "6a", "addr:postcode": "01017", "addr:street": "Largo Torre di Lavello", "amenity": "restaurant", "name": "Il Terziere di Poggio Fiorentino", "name:it": "Il Terziere di Poggio Fiorentino", "phone": "+390761444029"}}, {"type": "node", "id": 4836518521, "lat": 42.4170076, "lon": 11.871437, "tags": {"amenity": "restaurant", "name": "Kyathos", "name:it": "Kyathos"}}, {"type": "node", "id": 4970830542, "lat": 42.0776972, "lon": 11.8083246, "tags": {"amenity": "restaurant", "name": "Amar\u00e9", "phone": "+39 0766 580109", "start_date": "2016-11-21"}}, {"type": "node", "id": 5002914888, "lat": 42.1475717, "lon": 11.9092263}, {"type": "node", "id": 5002914889, "lat": 42.1475188, "lon": 11.9092589}, {"type": "node", "id": 5002914890, "lat": 42.1474935, "lon": 11.9091842}, {"type": "node", "id": 5002914891, "lat": 42.1474325, "lon": 11.9092218}, {"type": "node", "id": 5002914892, "lat": 42.1473968, "lon": 11.9092438}, {"type": "node", "id": 5002914893, "lat": 42.1473441, "lon": 11.9090881}, {"type": "node", "id": 5002914894, "lat": 42.1474938, "lon": 11.908996}, {"type": "node", "id": 5002914895, "lat": 42.1474631, "lon": 11.9090149}, {"type": "node", "id": 5024103849, "lat": 42.2234895, "lon": 11.704817, "tags": {"addr:housenumber": "84", "addr:street": "Lungomare dei Tirreni", "amenity": "restaurant", "name": "Pizzeria 100 Lire"}}, {"type": "node", "id": 5179580551, "lat": 42.0324032, "lon": 11.9395851}, {"type": "node", "id": 5179580552, "lat": 42.0324403, "lon": 11.9394775}, {"type": "node", "id": 5179580553, "lat": 42.0322263, "lon": 11.9393436}, {"type": "node", "id": 5179580554, "lat": 42.0321892, "lon": 11.9394512}, {"type": "node", "id": 5179580557, "lat": 42.0351715, "lon": 11.8683584, "tags": {"addr:city": "Santa Marinella", "addr:housenumber": "5", "addr:postcode": "00058", "addr:street": "Via della Libert\u00e0", "amenity": "restaurant", "cuisine": "pizza", "name": "Pizzeria I peperoncini"}}, {"type": "node", "id": 5183772147, "lat": 42.1568873, "lon": 11.9322093}, {"type": "node", "id": 5183772148, "lat": 42.1569652, "lon": 11.9323608}, {"type": "node", "id": 5183772149, "lat": 42.1568015, "lon": 11.932514}, {"type": "node", "id": 5183772150, "lat": 42.1567236, "lon": 11.9323625}, {"type": "node", "id": 5183772151, "lat": 42.1253925, "lon": 11.8638172}, {"type": "node", "id": 5183772152, "lat": 42.1252887, "lon": 11.8639467}, {"type": "node", "id": 5183772153, "lat": 42.1254938, "lon": 11.8642547}, {"type": "node", "id": 5183772154, "lat": 42.125595, "lon": 11.8641357}, {"type": "node", "id": 5185578306, "lat": 42.1678621, "lon": 11.7872775}, {"type": "node", "id": 5185578307, "lat": 42.1676332, "lon": 11.7873202}, {"type": "node", "id": 5185578308, "lat": 42.1676639, "lon": 11.787619}, {"type": "node", "id": 5185578309, "lat": 42.1677924, "lon": 11.787595}, {"type": "node", "id": 5185578310, "lat": 42.1677862, "lon": 11.7875342}, {"type": "node", "id": 5185578311, "lat": 42.1678865, "lon": 11.7875155}, {"type": "node", "id": 5318689080, "lat": 42.1524039, "lon": 11.9412449, "tags": {"addr:city": "Tolfa", "addr:postcode": "00059", "amenity": "restaurant", "name": "La Loggetta"}}, {"type": "node", "id": 5327484821, "lat": 42.0951021, "lon": 11.7896839, "tags": {"addr:housenumber": "1", "addr:street": "Via Nino Bixio", "amenity": "restaurant", "name": "Osteria Pelagos", "opening_hours": "Mo 09:00-23:00; We-Su 09:00-23:00", "phone": "+39 339 108 4706"}}, {"type": "node", "id": 5327554821, "lat": 42.0918963, "lon": 11.7941388, "tags": {"addr:city": "Civitavecchia", "addr:housenumber": "32", "addr:postcode": "00053", "addr:street": "Corso Centocelle", "amenity": "cafe", "name": "Caff\u00e8 del Corso"}}, {"type": "node", "id": 5327585421, "lat": 42.0927151, "lon": 11.7915589, "tags": {"amenity": "cafe", "name": "Caff\u00e9 dei Portici"}}, {"type": "node", "id": 5327585424, "lat": 42.0940323, "lon": 11.7903997, "tags": {"addr:housenumber": "50", "addr:street": "Corso Guglielmo Marconi", "amenity": "restaurant", "name": "La Bomboniera", "opening_hours": "Tu-Su 12:00-15:00, 19:00-23:00", "phone": "+39 0766 25744", "website": "labomboniera.info"}}, {"type": "node", "id": 5327588022, "lat": 42.0937078, "lon": 11.7903311, "tags": {"addr:housenumber": "137", "addr:street": "Lungoporto Antonio Gramsci", "amenity": "restaurant", "cuisine": "fish", "name": "Il Pesce in Bottiglia", "opening_hours": "Mo-Sa 12:00-15:00, 19:00-22:00; Su 12:00-22:00", "phone": "+39 0766 220699", "website": "ilpesceinbottiglia.com"}}, {"type": "node", "id": 5327607825, "lat": 42.1049889, "lon": 11.7792211, "tags": {"amenity": "cafe", "name": "Molo 24"}}, {"type": "node", "id": 5582484319, "lat": 42.0429796, "lon": 11.8730512, "tags": {"addr:city": "Santa Marinella", "addr:postcode": "00058", "addr:street": "Via Valdambrini", "amenity": "restaurant", "cuisine": "pizza", "name": "Pizza a spicchi", "takeaway": "yes"}}, {"type": "node", "id": 5607177404, "lat": 42.2509457, "lon": 11.7587842, "tags": {"amenity": "cafe", "name": "Crazy Bar"}}, {"type": "node", "id": 5739145798, "lat": 42.1830105, "lon": 11.788548, "tags": {"amenity": "restaurant"}}, {"type": "node", "id": 5764332923, "lat": 42.0938525, "lon": 11.7917679, "tags": {"addr:housenumber": "13", "addr:street": "Via Pietro Manzi", "amenity": "restaurant", "name": "Taverna del Moro", "opening_hours": "Tu-Su 11:00-16:00, 19:00-00:00", "phone": "+39 0766 21820", "website": "ristorantetavernadelmoro.com"}}, {"type": "node", "id": 5764332929, "lat": 42.0937789, "lon": 11.7921072, "tags": {"addr:housenumber": "10", "addr:street": "Piazza Aurelio Saffi", "amenity": "restaurant", "name": "Trattoria Zi Righetta", "phone": "+39 0766 28815"}}, {"type": "node", "id": 5764332930, "lat": 42.0936893, "lon": 11.7919047, "tags": {"addr:housenumber": "3", "addr:street": "Via Pietro Manzi", "amenity": "cafe", "cuisine": "pastry", "name": "La Fontana", "opening_hours": "Mo-Sa 06:00-21:00; Su 06:00-15:00", "phone": "+39 0766 580633", "wheelchair": "no"}}, {"type": "node", "id": 5768972363, "lat": 42.0924806, "lon": 11.7908968, "tags": {"addr:housenumber": "65", "addr:street": "Lungoporto Antonio Gramsci", "amenity": "restaurant", "name": "Ristorante Trattoria Sora Maria", "opening_hours": "Mo-Su 10:00-15:00, 19:00-23:00", "phone": "+39 0766 26397"}}, {"type": "node", "id": 5768972364, "lat": 42.0929404, "lon": 11.7906822, "tags": {"addr:housenumber": "93", "addr:street": "Lungoporto Antonio Gramsci", "amenity": "restaurant", "name": "La Ghiacciaia", "phone": "+39 0766 34248"}}, {"type": "node", "id": 5769052703, "lat": 42.0971183, "lon": 11.7894997, "tags": {"addr:housenumber": "1", "addr:street": "Via Tarquinia", "amenity": "restaurant", "cuisine": "italian_pizza", "name": "Mastro Titta - La casa del boia", "phone": "+39 334 580 4604", "website": "mastrotittapizza.com"}}, {"type": "node", "id": 5769052704, "lat": 42.0967941, "lon": 11.7896988}, {"type": "node", "id": 5769052705, "lat": 42.0968381, "lon": 11.7897241}, {"type": "node", "id": 5769052706, "lat": 42.0968106, "lon": 11.7898107}, {"type": "node", "id": 5769052707, "lat": 42.0967666, "lon": 11.7897854}, {"type": "node", "id": 5769052709, "lat": 42.0966635, "lon": 11.7899369, "tags": {"addr:housenumber": "4", "addr:street": "Via Isonzo", "amenity": "restaurant", "name": "Taverna Del Porto", "phone": "+39 331 776 6201"}}, {"type": "node", "id": 5769108710, "lat": 42.0875529, "lon": 11.7981015, "tags": {"addr:housenumber": "2", "addr:street": "Via Pietro Guglielmotti", "amenity": "restaurant", "cuisine": "fish", "name": "L'angoletto", "phone": "+39 0766 32825", "website": "https://www.ristoranteangoletto.com/"}}, {"type": "node", "id": 5769108712, "lat": 42.0870997, "lon": 11.7983386, "tags": {"addr:housenumber": "12/14", "addr:street": "Via Duca d'Aosta", "amenity": "restaurant", "cuisine": "fish", "name": "CRUDO - Fish Bar", "phone": "+39 0766 35701", "website": "https://crudo-fish-bar.thefork.rest/"}}, {"type": "node", "id": 5769108713, "lat": 42.0869741, "lon": 11.7989064, "tags": {"addr:housenumber": "14", "addr:street": "Lungomare Thaon De Revel", "amenity": "restaurant", "cuisine": "bistro", "name": "La Pecora Nera", "phone": "+39 349 251 3482"}}, {"type": "node", "id": 5769108714, "lat": 42.0869188, "lon": 11.7990124, "tags": {"addr:housenumber": "36", "addr:street": "Via Duca d'Aosta", "amenity": "restaurant", "cuisine": "fish", "name": "Trattoria Il Delfino", "website": "http://www.ildelfinocivitavecchia.it/"}}, {"type": "node", "id": 5769108716, "lat": 42.0870039, "lon": 11.7986272, "tags": {"addr:city": "Civitavecchia", "addr:housenumber": "26", "addr:postcode": "00053", "addr:street": "Via Duca d'Aosta", "amenity": "restaurant", "name": "Vento"}}, {"type": "node", "id": 5769108717, "lat": 42.087179, "lon": 11.7980748, "tags": {"addr:housenumber": "4", "addr:street": "Via Duca d'Aosta", "amenity": "restaurant", "cuisine": "fish;italian_pizza", "name": "Mastro Titta Pizza \"Oltremare\"", "opening_hours": "Mo 12:00-15:00, 19:30-23:30; We-Su 12:00-15:00, 19:30-23:30", "phone": "+39 0766 581826", "website": "mastrotittapizza.com"}}, {"type": "node", "id": 5769108718, "lat": 42.0870428, "lon": 11.7985083, "tags": {"addr:housenumber": "8", "addr:street": "Via Duca d'Aosta", "amenity": "restaurant", "name": "Pyrgo Caf\u00e8"}}, {"type": "node", "id": 5769108719, "lat": 42.087078, "lon": 11.7983932, "tags": {"amenity": "cafe", "name": "Il Salotto"}}, {"type": "node", "id": 5769108721, "lat": 42.086772, "lon": 11.7994911, "tags": {"addr:housenumber": "4", "addr:street": "Lungomare Thaon De Revel", "amenity": "restaurant", "cuisine": "fish", "name": "Caprasecca al Mare", "phone": "+39 334 126 7744"}}, {"type": "node", "id": 5881496988, "lat": 42.1091201, "lon": 11.8008117, "tags": {"addr:city": "Civitavecchia", "addr:housenumber": "6", "addr:postcode": "00053", "addr:street": "Via Don Antonio Rivolta", "amenity": "restaurant", "cuisine": "italian_pizza", "email": "acquaefarinacivitavecchia@gmail.com", "internet_access": "wlan", "name": "Acqua e farina", "opening_hours": "Tu-Su,Fr 19:30-23:59", "phone": "+393246032253", "toilets": "yes", "website": "https://m.facebook.com/acquaefarinacivitavecchia/", "wheelchair": "yes"}}, {"type": "node", "id": 6000549135, "lat": 42.250019, "lon": 11.7565089}, {"type": "node", "id": 6000549140, "lat": 42.2499253, "lon": 11.7564827}, {"type": "node", "id": 6000549141, "lat": 42.249993, "lon": 11.7564377}, {"type": "node", "id": 6000549143, "lat": 42.2499513, "lon": 11.7565539}, {"type": "node", "id": 6161245711, "lat": 42.0919634, "lon": 11.7907724, "tags": {"amenity": "cafe", "name": "Bar Camalli"}}, {"type": "node", "id": 6161245712, "lat": 42.0900677, "lon": 11.7937943, "tags": {"addr:housenumber": "26", "addr:street": "Viale Giuseppe Garibaldi", "amenity": "restaurant", "cuisine": "pizza", "name": "Da Vitale", "outdoor_seating": "yes", "phone": "+3271267886", "wheelchair": "yes"}}, {"type": "node", "id": 6297104945, "lat": 42.0430846, "lon": 11.8725577, "tags": {"addr:city": "Santa Marinella", "addr:postcode": "00058", "addr:street": "Via Valdambrini", "amenity": "cafe", "name": "Cafe Noir"}}, {"type": "node", "id": 6420421987, "lat": 42.2175483, "lon": 11.708201, "tags": {"addr:housenumber": "5", "addr:postcode": "01016", "addr:street": "Lungomare dei Tirreni", "amenity": "restaurant", "cuisine": "italian;fish;seafood;friture", "name": "Falcioni dal 1955", "opening_hours": "Mo-Su 12:30-14:30, 20:00-22:30", "phone": "+39 0766 864692", "website": "https://falcionidal1955.business.site/"}}, {"type": "node", "id": 6518072402, "lat": 42.1504414, "lon": 11.9390126, "tags": {"addr:city": "Tolfa", "addr:housenumber": "164", "addr:postcode": "00059", "addr:street": "Via Roma", "amenity": "cafe", "name": "Bar Peter Pan"}}, {"type": "node", "id": 6561377958, "lat": 42.2954811, "lon": 11.6340116, "tags": {"amenity": "restaurant", "cuisine": "regional", "delivery": "no", "outdoor_seating": "yes", "takeaway": "yes"}}, {"type": "node", "id": 6593021602, "lat": 42.0942306, "lon": 11.7920611, "tags": {"addr:city": "Civitavecchia", "addr:housenumber": "26", "addr:postcode": "00053", "addr:street": "Piazza SaffiI Aurelio", "amenity": "restaurant", "name": "La Luna sul Cucchiaio"}}, {"type": "node", "id": 6687319245, "lat": 42.3257282, "lon": 11.5804597, "tags": {"addr:city": "Montalto di Castro", "addr:housenumber": "32", "addr:street": "Lungomare Harmine", "amenity": "restaurant", "brand": "Slurp!", "contact:facebook": "https://www.facebook.com/GnamPiadineria", "contact:phone": "+39 340 6654501", "contact:tripadvisor": "https://www.tripadvisor.com/Restaurant_Review-g1079102-d10804751", "cuisine": "piadina", "fixme": "Location approximated", "name": "Gnam", "opening_hours": "Mo-Fr 10:30-00:30; Sa 17:00-02:30; Su 09:00-00:30", "operator": "Bivona Patrizia Giuseppina & C.", "ref:vatin": "IT02027660568"}}, {"type": "node", "id": 6687319247, "lat": 42.3268814, "lon": 11.581578, "tags": {"addr:city": "Montalto di Castro", "addr:postcode": "01014", "addr:street": "Via Vulsinia", "air_conditioning": "no", "amenity": "cafe", "delivery": "no", "fixme": "Location approximated", "internet_access": "no", "name": "Il Pinolo", "operator": "Pop Laura", "outdoor_seating": "yes", "ref:vatin": "IT02208510566", "takeaway": "no", "wheelchair": "yes"}}, {"type": "node", "id": 6687319248, "lat": 42.3268497, "lon": 11.5816477, "tags": {"amenity": "restaurant", "fixme": "Location approximated. All data needs to be added"}}, {"type": "node", "id": 6887079659, "lat": 42.3934444, "lon": 11.4954629, "tags": {"addr:city": "Pescia Romana", "addr:postcode": "01014", "addr:street": "Piazza Vecchio Borgo", "amenity": "restaurant", "cuisine": "pizza", "name": "Bifora"}}, {"type": "node", "id": 6887247490, "lat": 42.3916371, "lon": 11.4962675}, {"type": "node", "id": 6887247491, "lat": 42.3915243, "lon": 11.4963057}, {"type": "node", "id": 6887247492, "lat": 42.3915482, "lon": 11.4964702}, {"type": "node", "id": 6887247493, "lat": 42.3916588, "lon": 11.4964232}, {"type": "node", "id": 6887247562, "lat": 42.3840694, "lon": 11.5118687}, {"type": "node", "id": 6887247563, "lat": 42.3838764, "lon": 11.5124122}, {"type": "node", "id": 6887247564, "lat": 42.384399, "lon": 11.5127155}, {"type": "node", "id": 6887247565, "lat": 42.3846141, "lon": 11.5122599}, {"type": "node", "id": 6887247566, "lat": 42.384343, "lon": 11.5121722, "tags": {"amenity": "restaurant", "name": "gli stendardi"}}, {"type": "node", "id": 7304660603, "lat": 42.4022399, "lon": 11.8804744}, {"type": "node", "id": 7304660604, "lat": 42.4020934, "lon": 11.8803129}, {"type": "node", "id": 7304660605, "lat": 42.402003, "lon": 11.8804633}, {"type": "node", "id": 7304660606, "lat": 42.4019519, "lon": 11.8804068}, {"type": "node", "id": 7304660607, "lat": 42.4018437, "lon": 11.8805867}, {"type": "node", "id": 7304660608, "lat": 42.4020222, "lon": 11.8807836}, {"type": "node", "id": 7304660609, "lat": 42.4021264, "lon": 11.8806104}, {"type": "node", "id": 7304660610, "lat": 42.4020618, "lon": 11.8805391}, {"type": "node", "id": 7304660611, "lat": 42.4020969, "lon": 11.8804807}, {"type": "node", "id": 7304660612, "lat": 42.4021806, "lon": 11.880573}, {"type": "node", "id": 7676389712, "lat": 42.339058, "lon": 11.8397786, "tags": {"amenity": "restaurant", "name": "locanda RossoVino", "website": "http://www.locandarossovino.it/"}}, {"type": "node", "id": 8129907825, "lat": 42.3924881, "lon": 11.4845818, "tags": {"amenity": "restaurant", "name": "magic"}}, {"type": "node", "id": 8129907826, "lat": 42.3925467, "lon": 11.4854177}, {"type": "node", "id": 8129907827, "lat": 42.3924829, "lon": 11.4853944}, {"type": "node", "id": 8129907828, "lat": 42.392445, "lon": 11.4855555}, {"type": "node", "id": 8129907829, "lat": 42.3923536, "lon": 11.4855508}, {"type": "node", "id": 8129907830, "lat": 42.392345, "lon": 11.4854597}, {"type": "node", "id": 8129907831, "lat": 42.3923157, "lon": 11.4854551}, {"type": "node", "id": 8129907832, "lat": 42.3922518, "lon": 11.4855695}, {"type": "node", "id": 8129907833, "lat": 42.3920087, "lon": 11.4854971}, {"type": "node", "id": 8129907840, "lat": 42.3926307, "lon": 11.4849198}, {"type": "node", "id": 8129907841, "lat": 42.3921158, "lon": 11.4848446}, {"type": "node", "id": 9472127763, "lat": 42.147547, "lon": 11.9091533}, {"type": "node", "id": 9472127770, "lat": 42.147501, "lon": 11.9092064}, {"type": "node", "id": 9644195117, "lat": 42.1253138, "lon": 11.7706864, "tags": {"addr:postcode": "00053", "addr:street": "Via Dino Marrani", "amenity": "restaurant", "cuisine": "friture;italian_pizza;mediterranean;pasta;pizza;seafood", "internet_access": "wlan", "name": "Pizzeria Special One", "opening_hours": "Mo-Su 08:00-00:00", "phone": "0766 031137"}}, {"type": "node", "id": 9644195118, "lat": 42.1256313, "lon": 11.8164472, "tags": {"addr:housenumber": "4", "addr:postcode": "00053", "addr:street": "Via del Frassinello", "amenity": "restaurant", "cuisine": "fish;italian;mediterranean;pasta", "name": "Il Frassinello", "opening_hours": "Su, Tu-We 20:00-00:00; Th-Sa 12:00-14:00", "phone": "0766 370077"}}, {"type": "node", "id": 9644220417, "lat": 42.1076508, "lon": 11.7805045, "tags": {"addr:postcode": "00053", "addr:street": "Strada Statale 1 Aurelia nord", "amenity": "restaurant", "name": "Pizzeria La Vecchia Locanda"}}, {"type": "node", "id": 9977344405, "lat": 42.4172646, "lon": 11.8722581, "tags": {"amenity": "cafe", "name": "Caff\u00e8 del Duomo"}}, {"type": "node", "id": 10296793953, "lat": 42.3518305, "lon": 11.6110481, "tags": {"addr:city": "Montalto di Castro", "addr:country": "IT", "addr:postcode": "01014", "addr:street": "Via Giulio Cesare", "amenity": "cafe", "name": "Bar Oasi", "nohousenumber": "yes"}}, {"type": "node", "id": 10633135671, "lat": 42.0939798, "lon": 11.7947339, "tags": {"amenity": "restaurant", "name": "Tokyo"}}, {"type": "node", "id": 10652464014, "lat": 42.0990125, "lon": 11.8113121, "tags": {"amenity": "restaurant", "name": "Evergreen", "phone": "+39 388 7980995"}}, {"type": "node", "id": 10829008947, "lat": 42.0903575, "lon": 11.7921643, "tags": {"addr:city": "Civitavecchia", "addr:housenumber": "13", "addr:postcode": "00053", "addr:street": "Viale Giuseppe Garibaldi", "amenity": "restaurant", "name": "The Bone Steakhouse"}}, {"type": "node", "id": 10829008952, "lat": 42.0911809, "lon": 11.79261, "tags": {"addr:city": "Civitavecchia", "addr:housenumber": "2", "addr:postcode": "00053", "addr:street": "Largo Cavour", "amenity": "restaurant", "cuisine": "pizza", "name": "Mastrotitta"}}, {"type": "node", "id": 10829093884, "lat": 42.0908387, "lon": 11.7989046, "tags": {"addr:city": "Civitavecchia", "addr:housenumber": "94", "addr:postcode": "00053", "addr:street": "Via Michelangelo Buonarroti", "amenity": "restaurant", "cuisine": "pizza", "name": "Pizzeria Natale", "name:it": "Seghieri"}}, {"type": "node", "id": 10829093885, "lat": 42.0911539, "lon": 11.7982351, "tags": {"amenity": "cafe", "name": "Caff\u00e8 Bistrot"}}, {"type": "node", "id": 10829093904, "lat": 42.090942, "lon": 11.7944808, "tags": {"addr:city": "Civitavecchia", "addr:housenumber": "33", "addr:postcode": "00053", "addr:street": "Via Enrico Toti", "amenity": "restaurant", "name": "Strada Hamburgheria Gourmet"}}, {"type": "node", "id": 10829096705, "lat": 42.091021, "lon": 11.7945476, "tags": {"addr:city": "Civitavecchia", "addr:housenumber": "37", "addr:postcode": "00053", "addr:street": "Via Enrico Toti", "amenity": "restaurant", "name": "Fuoristrada Pasta&Pizza"}}, {"type": "node", "id": 10829096706, "lat": 42.0908724, "lon": 11.7944231, "tags": {"addr:city": "Civitavecchia", "addr:housenumber": "31", "addr:postcode": "00053", "addr:street": "Via Enrico Toti", "amenity": "restaurant", "name": "Gambero Rosso"}}, {"type": "node", "id": 10829096709, "lat": 42.0905992, "lon": 11.793631, "tags": {"addr:city": "Civitavecchia", "addr:housenumber": "21", "addr:postcode": "00053", "addr:street": "Via Zara", "amenity": "restaurant", "name": "Cosamimangioggi"}}, {"type": "node", "id": 10829096710, "lat": 42.0904519, "lon": 11.7943689, "tags": {"addr:city": "Civitavecchia", "addr:housenumber": "9", "addr:postcode": "00053", "addr:street": "Via Alessandro Cialdi", "amenity": "restaurant", "name": "Sapori di Puglia"}}, {"type": "node", "id": 10829096713, "lat": 42.0909118, "lon": 11.7941687, "tags": {"addr:city": "Civitavecchia", "addr:housenumber": "19", "addr:postcode": "00053", "addr:street": "Piazza Antonio Fratti", "amenity": "restaurant", "cuisine": "pizza", "name": "Red Carpet"}}, {"type": "node", "id": 10829096714, "lat": 42.0911743, "lon": 11.7941903, "tags": {"addr:city": "Civitavecchia", "addr:housenumber": "6", "addr:postcode": "00053", "addr:street": "Piazza Antonio Fratti", "amenity": "restaurant", "name": "Tarta & Company"}}, {"type": "node", "id": 10829096715, "lat": 42.0911368, "lon": 11.7942697, "tags": {"amenity": "restaurant", "cuisine": "seafood", "name": "Dolce&Salato"}}, {"type": "node", "id": 10829096716, "lat": 42.0934235, "lon": 11.7925948, "tags": {"addr:city": "Civitavecchia", "addr:housenumber": "35", "addr:postcode": "00053", "addr:street": "Via Giosu\u00e8 Carducci", "amenity": "restaurant", "cuisine": "pizza", "name": "Pizzeria Margherita"}}, {"type": "node", "id": 10829096717, "lat": 42.0936289, "lon": 11.7922128, "tags": {"addr:city": "Civitavecchia", "addr:housenumber": "6", "addr:postcode": "00053", "addr:street": "Piazza Aurelio Saffi", "amenity": "restaurant", "name": "8.0"}}, {"type": "node", "id": 10829096718, "lat": 42.094156, "lon": 11.7921077, "tags": {"addr:city": "Civitavecchia", "addr:housenumber": "24", "addr:postcode": "00053", "addr:street": "Piazza Aurelio Saffi", "amenity": "restaurant", "cuisine": "seafood", "name": "L'acqua Salata"}}, {"type": "node", "id": 10829096719, "lat": 42.0940827, "lon": 11.792157, "tags": {"addr:city": "Civitavecchia", "addr:housenumber": "28", "addr:postcode": "00053", "addr:street": "Piazza Aurelio Saffi", "amenity": "restaurant", "name": "80 Fame"}}, {"type": "node", "id": 10829096720, "lat": 42.0941353, "lon": 11.7921206, "tags": {"addr:city": "Civitavecchia", "addr:housenumber": "26", "addr:postcode": "00053", "addr:street": "Piazza Aurelio Saffi", "amenity": "restaurant", "name": "La Luna sul cucchiaio"}}, {"type": "node", "id": 10829096723, "lat": 42.0935755, "lon": 11.7931234, "tags": {"addr:city": "Civitavecchia", "addr:housenumber": "6", "addr:postcode": "00053", "addr:street": "Via Monte Grappa", "amenity": "restaurant", "cuisine": "pizza", "name": "Pizzeria Il Cantuccio"}}, {"type": "node", "id": 10829429022, "lat": 42.0865729, "lon": 11.7997498, "tags": {"addr:city": "Civitavecchia", "addr:housenumber": "14", "addr:postcode": "00053", "addr:street": "Lungomare Thaon De Revel", "amenity": "restaurant", "cuisine": "seafood", "name": "La Nassa"}}, {"type": "node", "id": 10829429023, "lat": 42.0865206, "lon": 11.7998256, "tags": {"addr:city": "Civitavecchia", "addr:housenumber": "16", "addr:postcode": "00053", "addr:street": "Lungomare Thaon De Revel", "amenity": "restaurant", "name": "La Lisca"}}, {"type": "node", "id": 10829429024, "lat": 42.0866371, "lon": 11.7996524, "tags": {"addr:city": "Civitavecchia", "addr:housenumber": "10", "addr:postcode": "00053", "addr:street": "Lungomare Thaon De Revel", "amenity": "restaurant", "name": "Osteria del Pirgo"}}, {"type": "node", "id": 10829429025, "lat": 42.0867242, "lon": 11.7995784, "tags": {"addr:city": "Civitavecchia", "addr:housenumber": "6", "addr:postcode": "00053", "addr:street": "Lungomare Thaon De Revel", "amenity": "restaurant", "name": "Scottadito"}}, {"type": "node", "id": 10829429026, "lat": 42.0872759, "lon": 11.797913, "tags": {"addr:city": "Civitavecchia", "addr:housenumber": "6", "addr:postcode": "00053", "addr:street": "Via Duca d'Aosta", "amenity": "restaurant", "cuisine": "seafood", "name": "Fritto Br\u00f9"}}, {"type": "node", "id": 10829429032, "lat": 42.0889003, "lon": 11.7961854, "tags": {"addr:city": "Civitavecchia", "addr:housenumber": "12", "addr:postcode": "00053", "addr:street": "Viale della Repubblica", "amenity": "restaurant", "cuisine": "chinese", "name": "Jinfeng Officina dei Sapori"}}, {"type": "node", "id": 10829429033, "lat": 42.0896587, "lon": 11.7946584, "tags": {"addr:city": "Civitavecchia", "addr:housenumber": "32", "addr:postcode": "00053", "addr:street": "Viale Giuseppe Garibaldi", "addr:unit": "E", "amenity": "restaurant", "cuisine": "japanese", "name": "Lucky Sushi"}}, {"type": "node", "id": 10829429035, "lat": 42.089719, "lon": 11.7944347, "tags": {"addr:city": "Civitavecchia", "addr:housenumber": "32", "addr:postcode": "00053", "addr:street": "Viale Giuseppe Garibaldi", "amenity": "restaurant", "name": "Sorsi&Morsi"}}, {"type": "node", "id": 11544096564, "lat": 42.3736468, "lon": 11.4855253, "tags": {"amenity": "restaurant", "name": "L'Olmo"}}, {"type": "node", "id": 11800314423, "lat": 42.1243124, "lon": 11.7696672, "tags": {"air_conditioning": "yes", "amenity": "restaurant", "indoor_seating": "yes", "level": "1", "name": "Bistr\u00f2", "opening_hours": "Mo-Su 09:00-20:30", "outdoor_seating": "no", "smoking": "no", "wheelchair": "yes"}}, {"type": "node", "id": 11800314448, "lat": 42.1236611, "lon": 11.7694581, "tags": {"air_conditioning": "yes", "amenity": "cafe", "indoor_seating": "yes", "level": "1", "name": "Sushi Daily", "opening_hours": "Mo-Su 09:00-20:30", "outdoor_seating": "no", "smoking": "no", "wheelchair": "yes"}}, {"type": "node", "id": 11801886650, "lat": 42.0730564, "lon": 11.8092304, "tags": {"amenity": "cafe"}}, {"type": "node", "id": 11801939396, "lat": 42.1018629, "lon": 11.786898, "tags": {"amenity": "cafe", "indoor_seating": "yes", "outdoor_seating": "yes"}}, {"type": "node", "id": 11802336155, "lat": 42.3512665, "lon": 11.6068692, "tags": {"amenity": "restaurant", "cuisine": "pizza"}}, {"type": "node", "id": 11802343712, "lat": 42.3525089, "lon": 11.606415, "tags": {"amenity": "cafe"}}, {"type": "node", "id": 11802344619, "lat": 42.3528101, "lon": 11.6056999, "tags": {"amenity": "restaurant", "indoor_seating": "yes", "outdoor_seating": "yes"}}, {"type": "node", "id": 11802348640, "lat": 42.3532991, "lon": 11.6042227, "tags": {"amenity": "restaurant", "indoor_seating": "yes", "outdoor_seating": "yes"}}, {"type": "node", "id": 12003581998, "lat": 42.0948549, "lon": 11.7905429, "tags": {"addr:city": "Civitavecchia", "addr:housenumber": "15", "addr:street": "Piazza Calamatta", "amenity": "restaurant", "cuisine": "italian", "name": "Cibus Hosteria romana"}}, {"type": "node", "id": 12153850953, "lat": 42.3249186, "lon": 11.5816469, "tags": {"amenity": "restaurant", "diet:gluten_free": "yes", "name": "Maremma sul mare"}}, {"type": "node", "id": 12165305324, "lat": 42.3675393, "lon": 11.4882495, "tags": {"amenity": "restaurant"}}, {"type": "node", "id": 12165305325, "lat": 42.3674699, "lon": 11.4880979, "tags": {"amenity": "cafe"}}, {"type": "node", "id": 12183574657, "lat": 42.2863413, "lon": 11.6480708, "tags": {"amenity": "restaurant"}}, {"type": "node", "id": 12697977296, "lat": 42.0937941, "lon": 11.7967313, "tags": {"addr:housenumber": "8", "addr:street": "Via Andrea Costa", "amenity": "restaurant", "name": "Stasera Pizza... e non solo", "opening_hours": "Tu-Su 17:00-00:00", "phone": "0766523864", "website": "https://www.staserapizzaenonsolo.it/"}}, {"type": "node", "id": 12914839148, "lat": 42.0882735, "lon": 11.8116944, "tags": {"amenity": "cafe", "cuisine": "burburella", "name": "Bar Marconi", "outdoor_seating": "yes"}}, {"type": "way", "id": 100145468, "nodes": [1157618546, 1157618545, 1157618543, 1157618542, 1242139257, 1157618546], "tags": {"amenity": "cafe", "building": "yes", "email": "arteo@arteo.it", "name": "L'Abaco", "phone": "+39 0766 840000", "website": "http://www.arteo.it"}}, {"type": "way", "id": 105716086, "nodes": [1217457956, 1217457963, 1217457951, 1217457947, 1217457928, 1217457926, 1217457973, 1217457911, 1217457956], "tags": {"addr:housenumber": "2", "addr:street": "Via del Castello", "amenity": "restaurant", "building": "yes", "name": "Il Maestrale", "opening_hours": "Tu-Su", "phone": "+39 0766 570670", "tobacco:ref": "2", "vending": "public_transport_tickets", "website": "ristorantesantaseverailmaestrale.com"}}, {"type": "way", "id": 105796083, "nodes": [1218200817, 1218200824, 1218200812, 1218200783, 1218200794, 1218200817], "tags": {"amenity": "restaurant", "building": "yes", "cuisine": "regional", "name": "Ristorante la Carretta"}}, {"type": "way", "id": 106271035, "nodes": [2752068933, 2752068931, 1223105517, 1223105523, 1223105479, 1223105432, 1223105440, 1223105460, 1223105516, 1223105461, 2752068933], "tags": {"amenity": "restaurant", "building": "yes", "cuisine": "regional", "description:it": "ristorante, pizzeria", "name": "Il Barracuda"}}, {"type": "way", "id": 106274605, "nodes": [1223150632, 1223150660, 1223150634, 1223150673, 1223150651, 1223150682, 1223150625, 1223150684, 1223150628, 1223150646, 1223150681, 1223150688, 1223150677, 1211863729, 1223150671, 1223150632], "tags": {"addr:city": "Santa Severa", "addr:country": "IT", "addr:housenumber": "18", "addr:postcode": "00050", "addr:street": "Via dei Fenici", "amenity": "restaurant", "building": "yes", "cuisine": "pizza", "description:it": "pasticceria, bar, gelateria, ristorante, pizzeria, birrerira", "name": "L'Angoletto"}}, {"type": "way", "id": 134012941, "nodes": [1474248304, 1474248305, 1474248303, 1474248298, 1474248301, 1474248302, 1474248304], "tags": {"amenity": "restaurant", "name": "Mikonos"}}, {"type": "way", "id": 183009421, "nodes": [1933745353, 1933745343, 1933745347, 1933745354, 1933745353], "tags": {"amenity": "restaurant", "building": "yes"}}, {"type": "way", "id": 183189937, "nodes": [1935571265, 1935571267, 1935571266, 1935571264, 1935571265], "tags": {"amenity": "cafe", "building": "yes", "building:levels": "1", "name": "Caff\u00e8 del T\u00f3cco"}}, {"type": "way", "id": 270139528, "nodes": [2752111485, 2752111486, 2752111487, 2752111488, 2752111489, 2752111490, 2752111491, 2752111492, 2752111493, 2752111498, 2752111497, 2752111499, 2752111494, 2752111495, 2752111500, 2752111496, 2752111485], "tags": {"addr:city": "Santa Severa", "addr:postcode": "00050", "addr:street": "Lungomare Pyrgi", "amenity": "restaurant", "building": "yes", "name": "Ristorante Romeo"}}, {"type": "way", "id": 291876620, "nodes": [2953874508, 2953874509, 2953874510, 2953874511, 2953874512, 2953874513, 2953874514, 2953874515, 2953874508], "tags": {"amenity": "restaurant", "building": "yes", "name": "Cavalluccio Marino"}}, {"type": "way", "id": 292473150, "nodes": [2960222328, 2960222329, 2960222330, 2960222331, 2960222328], "tags": {"addr:city": "Santa Marinella", "addr:housenumber": "196", "addr:postcode": "00058", "addr:street": "Strada Statale 1 Aurelia", "amenity": "restaurant", "building": "yes", "cuisine": "italian;fish", "name": "Ristorante Il Giardino Sul Mare"}}, {"type": "way", "id": 298337873, "nodes": [3022542826, 3022542828, 3022542825, 3022542821, 3022542826], "tags": {"amenity": "restaurant", "building": "yes", "source": "bing"}}, {"type": "way", "id": 304633104, "nodes": [3092071815, 3092071816, 3092071817, 3092071818, 3092071815], "tags": {"amenity": "restaurant", "building": "yes", "name": "AL58", "website": "http://www.al58.it/"}}, {"type": "way", "id": 304633120, "nodes": [3092071444, 3092071445, 3092071446, 3092071447, 3092071444], "tags": {"amenity": "restaurant", "building": "yes", "name": "La Sassola", "website": "http://www.lasassola.com/"}}, {"type": "way", "id": 314082803, "nodes": [3201233386, 3201233387, 3201233388, 3201233389, 3201233390, 3201233252, 3201233386], "tags": {"addr:city": "Santa Marinella", "addr:housenumber": "104", "addr:postcode": "00058", "addr:street": "Lungomare Guglielmo Marconi", "amenity": "restaurant", "building": "yes", "cuisine": "italian", "name": "Mare Sole"}}, {"type": "way", "id": 325895839, "nodes": [3325184760, 3325186161, 3325186162, 3325186163, 3325186164, 3325186165, 3325186166, 3325186167, 3325186168, 3325186169, 3325186170, 3325186171, 3325186172, 3325186173, 3325186174, 3325186175, 3325186176, 3325186177, 3325186178, 3325186179, 3325186180, 3325186181, 3325186182, 3325186183, 3325186184, 3325186185, 3325186186, 3325186187, 3325184760], "tags": {"amenity": "restaurant", "building": "commercial", "name": "Ideale"}}, {"type": "way", "id": 330591736, "nodes": [3375683644, 3375683645, 3375683646, 3375683647, 3375683648, 3375683649, 3375683650, 3375683651, 3375683652, 3375683653, 3375683654, 3375683655, 3375683656, 3375683644], "tags": {"amenity": "restaurant", "building": "yes", "note": "Chiuso"}}, {"type": "way", "id": 330592293, "nodes": [3375691162, 3375691163, 3375691164, 3375691165, 3375691166, 3375691167, 3375691168, 3375691162], "tags": {"amenity": "restaurant", "building": "yes", "note": "Chiuso"}}, {"type": "way", "id": 363955736, "nodes": [3680618869, 4419088719, 4419088720, 4419088706, 4419088705, 3680618870, 3680618868, 4419088699, 4419088702, 4419088708, 4419088703, 4419088701, 4419088700, 4419088704, 4419088707, 4419088709, 4419088710, 4419088712, 4419088711, 4419088713, 4419088714, 4419088716, 4419088717, 4419088718, 4419088715, 3680618867, 3680618869], "tags": {"addr:city": "Tarquinia Lido", "addr:housenumber": "38", "addr:postcode": "01016", "addr:street": "Lungomare dei Tirreni", "amenity": "cafe", "building": "yes", "internet_access": "wlan", "name": "BONITA BEACH CLUB", "opening_hours": "24/7", "phone": "+39 328 005 4683"}}, {"type": "way", "id": 374064396, "nodes": [3774717675, 3774717676, 3774717677, 3774717678, 3774717679, 3774717675], "tags": {"addr:city": "Civitavecchia", "addr:housenumber": "5/7", "addr:postcode": "00053", "addr:street": "Lungomare Thaon De Revel", "amenity": "restaurant", "building": "yes", "name": "Pizza a Volont\u00e0"}}, {"type": "way", "id": 405461289, "nodes": [4076592641, 4076592642, 4076592643, 4076592644, 4076592641], "tags": {"amenity": "restaurant", "building": "yes", "name": "I Granai della Farnesiana"}}, {"type": "way", "id": 424752666, "nodes": [4241336444, 4241336449, 4241336440, 4241336434, 4241336414, 4241336409, 4241336415, 4241336423, 4241336426, 4241336418, 4241336421, 4241336436, 4241336446, 4241336460, 4241336466, 4241336455, 4241336447, 4241336444], "tags": {"amenity": "restaurant", "building": "yes", "cuisine": "pizza", "internet_access": "wlan", "internet_access:fee": "no", "takeaway": "yes", "wheelchair": "yes"}}, {"type": "way", "id": 424752842, "nodes": [4241336266, 4241336280, 4241336281, 4241336285, 4241336288, 4241336283, 4241336269, 4241336266], "tags": {"amenity": "cafe", "building": "yes", "tobacco": "yes"}}, {"type": "way", "id": 429040905, "nodes": [4281670254, 4281670255, 4281670253, 4281670252, 4281670254], "tags": {"amenity": "restaurant", "building": "yes", "name": "Agriturismo Le Tre Streghe"}}, {"type": "way", "id": 429043960, "nodes": [4281693753, 4281693751, 4281693725, 4281693727, 4281693753], "tags": {"amenity": "restaurant", "building": "yes", "internet_access": "yes", "internet_access:fee": "yes", "opening_hours": "24/7", "wheelchair": "yes"}}, {"type": "way", "id": 432598349, "nodes": [4316008285, 4316008490, 4316008283, 4316008282, 4316008285], "tags": {"addr:city": "Santa Marinella", "addr:distance": "60.300", "addr:full": "Via Aurelia km.60,300;Santa Marinella(RM)", "addr:street": "Via Aurelia", "amenity": "cafe", "building": "kiosk", "leisure": "beach_resort", "name": "Le Murgidas", "operator": "Alessandra Rocchi", "outdoor_seating": "yes", "phone": "+39 389 4770158", "ref:vatin": "IT16412291003", "shop": "kiosk"}}, {"type": "way", "id": 462397052, "nodes": [4577956380, 4577956381, 4577956382, 4577956383, 4577956384, 4577956385, 4577956386, 4577956387, 4577956388, 4577956389, 4577956380], "tags": {"addr:city": "Tolfa", "addr:postcode": "00059", "amenity": "restaurant", "building": "yes", "name": "Agriturismo Le Ferriere", "phone": "+39 0766 93521", "tourism": "hotel", "website": "http://www.leferriere.eu/"}}, {"type": "way", "id": 511464084, "nodes": [5002914888, 5002914889, 9472127770, 5002914890, 5002914891, 5002914892, 5002914893, 5002914895, 5002914894, 9472127763, 5002914888], "tags": {"addr:city": "Allumiere", "addr:housenumber": "80", "addr:postcode": "00051", "addr:street": "Via della Repubblica", "amenity": "restaurant", "building": "yes", "cuisine": "regional;italian", "name": "Il Rischio", "phone": "+39 0766 96160"}}, {"type": "way", "id": 533964982, "nodes": [5179580551, 5179580552, 5179580553, 5179580554, 5179580551], "tags": {"addr:city": "Tolfa", "addr:postcode": "00059", "addr:street": "Strada provinciale Santa Severa - Tolfa", "amenity": "restaurant", "building": "yes", "cuisine": "pizza;italian", "name": "Buond\u00ec - Ristorante pasticceria tavola calda"}}, {"type": "way", "id": 534543383, "nodes": [5183772147, 5183772148, 5183772149, 5183772150, 5183772147], "tags": {"addr:city": "Tolfa", "addr:postcode": "00059", "amenity": "restaurant", "building": "yes", "cuisine": "italian", "name": "Agriturismo La Concia"}}, {"type": "way", "id": 534543384, "nodes": [5183772151, 5183772152, 5183772153, 5183772154, 5183772151], "tags": {"addr:city": "Allumiere", "addr:postcode": "00051", "addr:street": "Via Braccianese Claudia", "amenity": "restaurant", "building": "yes", "cuisine": "italian", "name": "Ristorante Tramontana"}}, {"type": "way", "id": 534788122, "nodes": [5185578306, 5185578307, 5185578308, 5185578309, 5185578310, 5185578311, 5185578306], "tags": {"addr:city": "Tarquinia", "addr:postcode": "01016", "addr:street": "Autostrada Azzurra", "amenity": "restaurant", "building": "yes", "cuisine": "italian", "name": "Autogrill Tarquinia"}}, {"type": "way", "id": 609032170, "nodes": [5769052704, 5769052705, 5769052706, 5769052707, 4520526758, 5769052704], "tags": {"amenity": "cafe", "building": "yes", "name": "Milk and caffe bar"}}, {"type": "way", "id": 636294200, "nodes": [6000549140, 6000549143, 6000549135, 6000549141, 6000549140], "tags": {"amenity": "cafe", "name": "Chalet Europa"}}, {"type": "way", "id": 735339325, "nodes": [6887247490, 6887247491, 6887247492, 6887247493, 6887247490], "tags": {"amenity": "restaurant", "building": "yes"}}, {"type": "way", "id": 735339336, "nodes": [6887247562, 6887247563, 6887247564, 6887247565, 6887247562], "tags": {"amenity": "restaurant"}}, {"type": "way", "id": 782268231, "nodes": [7304660603, 7304660604, 7304660605, 7304660606, 7304660607, 7304660608, 7304660609, 7304660610, 7304660611, 7304660612, 7304660603], "tags": {"amenity": "restaurant", "building": "yes", "guest_house": "agritourism", "name": "Agriturismo Casa Caponetti", "tourism": "guest_house", "website": "https://www.casacaponetti.com"}}, {"type": "way", "id": 873059390, "nodes": [8129907840, 8129907841, 8129907833, 8129907832, 8129907831, 8129907830, 8129907829, 8129907828, 8129907827, 8129907826, 8129907840], "tags": {"amenity": "restaurant", "building": "yes"}}]}