{"version": 0.6, "generator": "Overpass API 0.7.62.7 375dc00a", "osm3s": {"timestamp_osm_base": "2025-06-14T14:39:19Z", "copyright": "The data included in this document is from www.openstreetmap.org. The data is made available under ODbL."}, "elements": [{"type": "node", "id": 994839812, "lat": 38.896385, "lon": 22.2758602, "tags": {"amenity": "cafe", "name": "Therma", "source": "GPS"}}, {"type": "node", "id": 994839826, "lat": 38.8937478, "lon": 22.2767939, "tags": {"amenity": "restaurant", "name": "\u039f\u03b9 \u039c\u03bf\u03c5\u03c1\u03b9\u03ad\u03c2", "outdoor_seating": "yes", "phone": "+30 2231 059488", "source": "GPS"}}, {"type": "node", "id": 1772576314, "lat": 39.1563563, "lon": 22.2936318, "tags": {"amenity": "restaurant"}}, {"type": "node", "id": 2329104896, "lat": 38.9964156, "lon": 22.3707861, "tags": {"amenity": "restaurant"}}, {"type": "node", "id": 2427549067, "lat": 38.8744237, "lon": 22.4376874}, {"type": "node", "id": 2427549068, "lat": 38.874662, "lon": 22.4373405}, {"type": "node", "id": 2427549069, "lat": 38.8746695, "lon": 22.4373741}, {"type": "node", "id": 2427549070, "lat": 38.8746928, "lon": 22.4373741}, {"type": "node", "id": 2427549071, "lat": 38.8746938, "lon": 22.4374953}, {"type": "node", "id": 2427549072, "lat": 38.8747545, "lon": 22.4374917}, {"type": "node", "id": 2427549073, "lat": 38.8747526, "lon": 22.4375097}, {"type": "node", "id": 2427549074, "lat": 38.8747526, "lon": 22.4375277}, {"type": "node", "id": 2427549075, "lat": 38.8747498, "lon": 22.4375505}, {"type": "node", "id": 2427549076, "lat": 38.8747452, "lon": 22.4375697}, {"type": "node", "id": 2427549077, "lat": 38.8747414, "lon": 22.4375793}, {"type": "node", "id": 2427549078, "lat": 38.8746994, "lon": 22.4375601}, {"type": "node", "id": 2427549079, "lat": 38.8746938, "lon": 22.4375817}, {"type": "node", "id": 2427549080, "lat": 38.8746863, "lon": 22.4375985}, {"type": "node", "id": 2427549081, "lat": 38.8746807, "lon": 22.4376105}, {"type": "node", "id": 2427549082, "lat": 38.8746685, "lon": 22.4376261}, {"type": "node", "id": 2427549083, "lat": 38.8746442, "lon": 22.4376501}, {"type": "node", "id": 2427549084, "lat": 38.874619, "lon": 22.4376634}, {"type": "node", "id": 2427549085, "lat": 38.8745928, "lon": 22.4376742}, {"type": "node", "id": 2427549086, "lat": 38.8745601, "lon": 22.4376754}, {"type": "node", "id": 2427549087, "lat": 38.8745209, "lon": 22.4376718}, {"type": "node", "id": 2427549088, "lat": 38.8744994, "lon": 22.437757}, {"type": "node", "id": 2881559664, "lat": 38.8759497, "lon": 22.4385553, "tags": {"amenity": "cafe", "cuisine": "coffee_shop", "internet_access": "wlan", "name": "Lamia Plaza"}}, {"type": "node", "id": 3295138161, "lat": 38.8939331, "lon": 22.4366174, "tags": {"addr:city": "\u039b\u03b1\u03bc\u03af\u03b1", "addr:housenumber": "65A", "addr:postcode": "35100", "addr:street": "\u039a\u03cd\u03c0\u03c1\u03bf\u03c5", "amenity": "restaurant", "cuisine": "grill", "name": "\u03a4\u03bf \u03a0\u03b1\u03c1\u03b1\u03b4\u03bf\u03c3\u03b9\u03b1\u03ba\u03cc", "opening_hours": "Su off"}}, {"type": "node", "id": 3295140814, "lat": 38.8968231, "lon": 22.4375766, "tags": {"amenity": "restaurant", "name": "\u039b\u03ad\u03c3\u03c7\u03b7 \u03a6\u03bf\u03b9\u03c4\u03b7\u03c4\u03ce\u03bd \u039b\u03b1\u03bc\u03af\u03b1\u03c2"}}, {"type": "node", "id": 3634339429, "lat": 38.900129, "lon": 22.453217, "tags": {"amenity": "cafe", "internet_access": "wlan", "internet_access:fee": "no", "name": "BAKE HOUSE"}}, {"type": "node", "id": 3818668721, "lat": 39.1588524, "lon": 22.0832334, "tags": {"amenity": "restaurant", "cuisine": "regional", "name": "\u0394\u03c1\u03bf\u03c3\u03bf\u03c3\u03c4\u03b1\u03bb\u03b9\u03ac \u0395\u03c3\u03c4\u03b9\u03b1\u03c4\u03cc\u03c1\u03b9\u03bf \u03a4\u03b1\u03b2\u03ad\u03c1\u03bd\u03b1"}}, {"type": "node", "id": 3836018254, "lat": 38.8997295, "lon": 22.4284672}, {"type": "node", "id": 3836018255, "lat": 38.8996528, "lon": 22.4286952}, {"type": "node", "id": 3836018256, "lat": 38.8994981, "lon": 22.4288384}, {"type": "node", "id": 3836021157, "lat": 38.8994202, "lon": 22.4286351}, {"type": "node", "id": 3836021158, "lat": 38.8994657, "lon": 22.4286074}, {"type": "node", "id": 3836021159, "lat": 38.8995341, "lon": 22.4285103}, {"type": "node", "id": 3836021160, "lat": 38.8995532, "lon": 22.4284364}, {"type": "node", "id": 3836021161, "lat": 38.8995894, "lon": 22.4285384, "tags": {"amenity": "cafe", "name": "Green Loft"}}, {"type": "node", "id": 3838215128, "lat": 38.8886361, "lon": 22.2943364, "tags": {"amenity": "restaurant"}}, {"type": "node", "id": 3840932992, "lat": 38.8034009, "lon": 22.1053023, "tags": {"amenity": "restaurant", "name": "\u0391\u03b3\u03ba\u03c9\u03bd\u03ae"}}, {"type": "node", "id": 3840932993, "lat": 38.8033859, "lon": 22.1053176, "tags": {"amenity": "cafe"}}, {"type": "node", "id": 3859840031, "lat": 38.9167567, "lon": 22.6145327, "tags": {"amenity": "cafe", "name": "Mistral"}}, {"type": "node", "id": 3861711985, "lat": 38.8331793, "lon": 22.3945909, "tags": {"amenity": "restaurant"}}, {"type": "node", "id": 3883453629, "lat": 38.9042668, "lon": 22.4314406, "tags": {"amenity": "cafe"}}, {"type": "node", "id": 4203453530, "lat": 38.9484091, "lon": 22.1213502}, {"type": "node", "id": 4203453531, "lat": 38.9483174, "lon": 22.121329}, {"type": "node", "id": 4203453532, "lat": 38.9483408, "lon": 22.1211505}, {"type": "node", "id": 4203453533, "lat": 38.9484323, "lon": 22.1211733}, {"type": "node", "id": 4207181446, "lat": 38.8975517, "lon": 22.4436135, "tags": {"amenity": "cafe"}}, {"type": "node", "id": 4207185398, "lat": 38.8851905, "lon": 22.4178969, "tags": {"amenity": "cafe"}}, {"type": "node", "id": 4209895037, "lat": 38.9056039, "lon": 22.5911915, "tags": {"amenity": "cafe", "name": "222 IGLOO"}}, {"type": "node", "id": 4444204390, "lat": 38.8740022, "lon": 22.4566725, "tags": {"amenity": "cafe", "contact:email": "travelstoplamias@gmail.com", "contact:facebook": "https://www.facebook.com/TravelStopLamias/", "contact:phone": "2231045041", "name": "Travel Stop \u039b\u03b1\u03bc\u03af\u03b1\u03c2", "name:el": "Travel Stop \u039b\u03b1\u03bc\u03af\u03b1\u03c2", "name:en": "Travel Stop Lamia", "opening_hours": "24/7"}}, {"type": "node", "id": 4497883189, "lat": 38.9123919, "lon": 22.6162293, "tags": {"amenity": "cafe", "name": "\u03a8", "outdoor_seating": "yes"}}, {"type": "node", "id": 4830529828, "lat": 38.8959675, "lon": 22.5854274, "tags": {"amenity": "restaurant", "cuisine": "fish", "name": "\u03a4\u03bf \" \u0386\u03c3\u03c4\u03c1\u03bf\u03bd \"", "phone": "2238023600", "website": "https://www.facebook.com/astron.karanikas/?fref=ts"}}, {"type": "node", "id": 4830531953, "lat": 38.895573, "lon": 22.5852102, "tags": {"amenity": "restaurant", "cuisine": "fish", "name": "Santa Marina"}}, {"type": "node", "id": 4830938825, "lat": 38.8943587, "lon": 22.5846868, "tags": {"amenity": "restaurant", "cuisine": "greek", "name": "\u03a0\u03b1\u03c1\u03ac\u03b3\u03ba\u03b1", "phone": "2238024092", "website": "https://www.facebook.com/%CE%A0%CE%B1%CF%81%CE%AC%CE%B3%CE%BA%CE%B1-%CE%BA%CF%81%CE%AD%CE%B1%CF%84%CE%B1-%CE%BC%CE%B5%CE%B6%CE%AD%CE%B4%CE%B5%CF%82-1419673084996224/"}}, {"type": "node", "id": 4830945327, "lat": 38.8963774, "lon": 22.5854298, "tags": {"amenity": "cafe", "cuisine": "coffee", "name": "\u0393\u03ad\u03c6\u03c5\u03c1\u03b1", "phone": "2238024850", "website": "https://www.facebook.com/%CE%93%CE%AD%CF%86%CF%85%CF%81%CE%B1-Cafe-Bar-776287969114317/?fref=ts"}}, {"type": "node", "id": 4830952127, "lat": 38.8983793, "lon": 22.5875434, "tags": {"amenity": "cafe", "cuisine": "coffee", "name": "\u0395\u03c1\u03b9\u03bd\u03cd\u03b5\u03c2", "phone": "2238024779", "website": "https://www.facebook.com/%CE%95%CF%81%CE%B9%CE%BD%CF%8D%CE%B5%CF%82-%CE%BA%CE%B1%CF%86%CE%AD-%CE%BC%CF%80%CE%B1%CF%81-178269725523861/"}}, {"type": "node", "id": 4866740421, "lat": 38.8936091, "lon": 22.3731599, "tags": {"amenity": "cafe", "cuisine": "tea;sandwich;coffee_shop;breakfast;ice_cream", "internet_access": "wlan", "name": "\u03a6\u039f\u038a\u039d\u0399\u039e", "name:el": "\u03a6\u03bf\u03af\u03bd\u03b9\u03ba\u03b1\u03c2", "name:en": "\"Phoenix\"", "phone": "2231062200"}}, {"type": "node", "id": 4918771523, "lat": 38.8935189, "lon": 22.373175, "tags": {"amenity": "restaurant", "cuisine": "friture;barbecue;greek;diner", "name": "\u03a4\u03bf \u03a3\u03c5\u03bd\u03c4\u03c1\u03b9\u03b2\u03ac\u03bd\u03b9", "name:el": "\u03a4\u03bf \u03a3\u03c5\u03bd\u03c4\u03c1\u03b9\u03b2\u03ac\u03bd\u03b9", "name:en": "\"The fountain\"", "opening_hours": "Mo-Su 11:00-00:00", "phone": "2231 061551"}}, {"type": "node", "id": 4969254431, "lat": 38.9033589, "lon": 22.3511082}, {"type": "node", "id": 4969254432, "lat": 38.9024437, "lon": 22.350824}, {"type": "node", "id": 4969254433, "lat": 38.9026334, "lon": 22.349807}, {"type": "node", "id": 4969254434, "lat": 38.9038047, "lon": 22.350163}, {"type": "node", "id": 4969254499, "lat": 38.9067981, "lon": 22.3511916}, {"type": "node", "id": 4969254500, "lat": 38.9058984, "lon": 22.350896}, {"type": "node", "id": 4969254501, "lat": 38.9064742, "lon": 22.3481005}, {"type": "node", "id": 4969254504, "lat": 38.9073686, "lon": 22.3483973}, {"type": "node", "id": 5318173599, "lat": 38.8032588, "lon": 22.1067008, "tags": {"amenity": "cafe", "name": "\u039f \u0393\u03c1\u03b7\u03b3\u03cc\u03c1\u03b7\u03c2"}}, {"type": "node", "id": 5318399010, "lat": 38.7999503, "lon": 22.1112813, "tags": {"amenity": "cafe", "name": "Aerasclub"}}, {"type": "node", "id": 5318544135, "lat": 38.8129949, "lon": 22.1716961, "tags": {"amenity": "cafe"}}, {"type": "node", "id": 5318564825, "lat": 38.8822425, "lon": 22.1968574, "tags": {"amenity": "restaurant", "name": "\u039f \u0391\u03bb\u03b5\u03be\u03b9\u03ac\u03c2"}}, {"type": "node", "id": 5324077048, "lat": 38.9005876, "lon": 22.440452, "tags": {"amenity": "cafe", "name": "Puerto"}}, {"type": "node", "id": 5327168163, "lat": 39.0360348, "lon": 22.4192943, "tags": {"amenity": "cafe"}}, {"type": "node", "id": 5327214237, "lat": 39.042632, "lon": 22.3510577}, {"type": "node", "id": 5327214238, "lat": 39.0427293, "lon": 22.3512126}, {"type": "node", "id": 5327214239, "lat": 39.0425198, "lon": 22.3514307}, {"type": "node", "id": 5327214240, "lat": 39.0424225, "lon": 22.3512757}, {"type": "node", "id": 5327237921, "lat": 39.0680549, "lon": 22.325596, "tags": {"amenity": "restaurant", "name": "Kanelis Villages"}}, {"type": "node", "id": 5327237957, "lat": 39.1023224, "lon": 22.270572, "tags": {"amenity": "cafe"}}, {"type": "node", "id": 5327237965, "lat": 39.1025888, "lon": 22.270918, "tags": {"amenity": "restaurant"}}, {"type": "node", "id": 5386183325, "lat": 39.0876842, "lon": 22.1553525, "tags": {"amenity": "cafe"}}, {"type": "node", "id": 5569264932, "lat": 38.9953311, "lon": 22.1116004, "tags": {"amenity": "restaurant"}}, {"type": "node", "id": 5573842460, "lat": 39.0312207, "lon": 22.0783466, "tags": {"amenity": "restaurant"}}, {"type": "node", "id": 5590164677, "lat": 38.9029814, "lon": 22.350449}, {"type": "node", "id": 5590164678, "lat": 38.902942, "lon": 22.3504087}, {"type": "node", "id": 5590164679, "lat": 38.9028946, "lon": 22.3503871}, {"type": "node", "id": 5590164680, "lat": 38.9028442, "lon": 22.3503866}, {"type": "node", "id": 5590164681, "lat": 38.9027966, "lon": 22.3504072}, {"type": "node", "id": 5590164682, "lat": 38.9027567, "lon": 22.3504467}, {"type": "node", "id": 5590164683, "lat": 38.9027291, "lon": 22.3505008}, {"type": "node", "id": 5590164684, "lat": 38.9027167, "lon": 22.3505635}, {"type": "node", "id": 5590164685, "lat": 38.902721, "lon": 22.3506279}, {"type": "node", "id": 5590164686, "lat": 38.9027413, "lon": 22.350687}, {"type": "node", "id": 5590164687, "lat": 38.9027752, "lon": 22.3507339}, {"type": "node", "id": 5590164688, "lat": 38.902819, "lon": 22.3507643}, {"type": "node", "id": 5590164689, "lat": 38.9028681, "lon": 22.3507748}, {"type": "node", "id": 5590164690, "lat": 38.9029172, "lon": 22.3507644}, {"type": "node", "id": 5590164691, "lat": 38.9029611, "lon": 22.3507341}, {"type": "node", "id": 5590164692, "lat": 38.902995, "lon": 22.3506872}, {"type": "node", "id": 5590164693, "lat": 38.9030153, "lon": 22.3506288}, {"type": "node", "id": 5590164694, "lat": 38.9030198, "lon": 22.3505651}, {"type": "node", "id": 5590164695, "lat": 38.9030081, "lon": 22.350503}, {"type": "node", "id": 5636099311, "lat": 38.8205894, "lon": 22.4408787}, {"type": "node", "id": 5636099312, "lat": 38.8195549, "lon": 22.440927}, {"type": "node", "id": 5636099313, "lat": 38.8195908, "lon": 22.441916}, {"type": "node", "id": 5636099314, "lat": 38.8206152, "lon": 22.4418838}, {"type": "node", "id": 5938570268, "lat": 38.8977941, "lon": 22.4390155, "tags": {"addr:city": "\u039b\u03b1\u03bc\u03af\u03b1", "addr:housenumber": "22", "addr:street": "\u03a0\u03b1\u03bd\u03bf\u03c5\u03c1\u03b3\u03b9\u03ac", "amenity": "cafe", "name": "\u03a0\u03b5\u03c7\u03bb\u03b9\u03b2\u03ac\u03bd\u03b7\u03c2"}}, {"type": "node", "id": 6033828885, "lat": 38.8697726, "lon": 22.3466811, "tags": {"addr:street": "\u039a\u03bf\u03bc\u03c0\u03bf\u03c4\u03ac\u03b4\u03b5\u03c2 - \u039b\u03bf\u03c5\u03c4\u03c1\u03ac \u03a5\u03c0\u03ac\u03c4\u03b7\u03c2", "amenity": "restaurant", "int_name": "Ta Tzakia", "name": "\u03a4\u03b1 \u03a4\u03b6\u03ac\u03ba\u03b9\u03b1", "outdoor_seating": "yes", "phone": "+30 2231 096171"}}, {"type": "node", "id": 6494864998, "lat": 38.8942682, "lon": 22.2781347, "tags": {"addr:city": "Loutra Ipatis", "addr:postcode": "35016", "addr:street": "\u039b\u03b1\u03bc\u03af\u03b1\u03c2", "amenity": "cafe", "cuisine": "pizza", "int_name": "Argo", "internet_access": "wlan", "name": "\u0391\u03c1\u03b3\u03c9", "name:el": "\u0391\u03c1\u03b3\u03c9", "outdoor_seating": "yes", "phone": "+30 2231 059352"}}, {"type": "node", "id": 6665548791, "lat": 38.8725899, "lon": 22.2455391, "tags": {"amenity": "restaurant", "name": "Ziakas tavern", "website": "https://www.ziakas-hotel.gr/index.php/en/to-xani"}}, {"type": "node", "id": 6753096657, "lat": 38.9014672, "lon": 22.4324294, "tags": {"addr:housenumber": "6", "addr:street": "\u03a0\u03bb\u03b1\u03c4\u03b5\u03af\u03b1 \u0395\u03bb\u03b5\u03c5\u03b8\u03b5\u03c1\u03af\u03b1\u03c2", "amenity": "restaurant", "cuisine": "greek;salad;gyros;barbecue", "delivery": "yes", "drink:coffee": "yes", "name": "Posto \u0393\u03c5\u03c1\u03bf\u03bd\u03bf\u03c3\u03c4\u03b9\u03bc\u03b9\u03ad\u03c2", "opening_hours": "12:00-24:00", "outdoor_seating": "yes", "phone": "+302231042376;+302231032051;+302231047419", "website": "https://posto-lamia.gr"}}, {"type": "node", "id": 6753869558, "lat": 38.7757907, "lon": 22.586748, "tags": {"amenity": "cafe"}}, {"type": "node", "id": 6753869559, "lat": 38.7758472, "lon": 22.5869988, "tags": {"amenity": "restaurant", "cuisine": "barbecue"}}, {"type": "node", "id": 6870411486, "lat": 38.9022608, "lon": 22.432461, "tags": {"amenity": "restaurant", "int_name": "Odos Oneiron", "name": "\u039f\u03b4\u03cc\u03c2 \u039f\u03bd\u03b5\u03af\u03c1\u03c9\u03bd"}}, {"type": "node", "id": 7457138566, "lat": 38.8882134, "lon": 22.4293622, "tags": {"addr:city": "\u039b\u0391\u039c\u0399\u0391", "addr:housenumber": "40", "addr:postcode": "35100", "addr:street": "\u039d\u03b1\u03c5\u03c0\u03ac\u03ba\u03c4\u03bf\u03c5", "amenity": "cafe", "cuisine": "sandwich", "internet_access": "yes", "name": "QUEEN", "opening_hours": "Mo-Su 08:00-23:00", "outdoor_seating": "yes"}}, {"type": "node", "id": 7462686146, "lat": 38.89056, "lon": 22.4055137, "tags": {"amenity": "restaurant"}}, {"type": "node", "id": 7858264214, "lat": 38.8882966, "lon": 22.437061, "tags": {"amenity": "cafe", "brand": "Coffee Lab", "brand:wikidata": "Q109568497", "cuisine": "coffee_shop", "name": "Coffee Lab", "takeaway": "yes"}}, {"type": "node", "id": 7860683127, "lat": 38.8885974, "lon": 22.4388833, "tags": {"amenity": "cafe", "name": "\u03a3\u03ba\u03bb\u03ac\u03b2\u03bf\u03c5"}}, {"type": "node", "id": 7860743808, "lat": 38.8885192, "lon": 22.4388806, "tags": {"amenity": "cafe", "name": "\u0396\u03c9\u03ae \u039c\u03b1\u03bd\u03c4\u03b1\u03c6\u03ac\u03c1\u03b1"}}, {"type": "node", "id": 7860748713, "lat": 38.8891057, "lon": 22.4386066, "tags": {"amenity": "cafe", "name": "Focus"}}, {"type": "node", "id": 8561039278, "lat": 38.8954418, "lon": 22.585116, "tags": {"amenity": "restaurant", "name": "Azure", "phone": "2238023303", "website": "https://www.instagram.com/azure.allday/"}}, {"type": "node", "id": 8916791252, "lat": 38.9036111, "lon": 22.3505736, "tags": {"barrier": "gate"}}, {"type": "node", "id": 9048068006, "lat": 38.8044064, "lon": 22.4468131, "tags": {"amenity": "cafe", "outdoor_seating": "yes"}}, {"type": "node", "id": 9050189518, "lat": 38.9986432, "lon": 22.221018, "tags": {"amenity": "cafe"}}, {"type": "node", "id": 9449442607, "lat": 38.9029814, "lon": 22.1581274}, {"type": "node", "id": 9449442608, "lat": 38.9028941, "lon": 22.1581226}, {"type": "node", "id": 9449442609, "lat": 38.9028888, "lon": 22.1582782}, {"type": "node", "id": 9449442610, "lat": 38.9029761, "lon": 22.1582831}, {"type": "node", "id": 9449550542, "lat": 38.8980115, "lon": 22.1598124}, {"type": "node", "id": 9449550543, "lat": 38.8979048, "lon": 22.15977}, {"type": "node", "id": 9449550544, "lat": 38.8978123, "lon": 22.1598505}, {"type": "node", "id": 9449550545, "lat": 38.8979343, "lon": 22.1599919}, {"type": "node", "id": 9449552249, "lat": 38.8944809, "lon": 22.1639523}, {"type": "node", "id": 9449552250, "lat": 38.8943538, "lon": 22.1643879}, {"type": "node", "id": 9449552251, "lat": 38.8942671, "lon": 22.1643189}, {"type": "node", "id": 9449552252, "lat": 38.8944033, "lon": 22.1638873}, {"type": "node", "id": 9449692442, "lat": 38.8959463, "lon": 22.2111989}, {"type": "node", "id": 9449692443, "lat": 38.895956, "lon": 22.2113894}, {"type": "node", "id": 9449692444, "lat": 38.8958657, "lon": 22.211397}, {"type": "node", "id": 9449692445, "lat": 38.895856, "lon": 22.2112065}, {"type": "node", "id": 9715160172, "lat": 38.9025441, "lon": 22.3508566}, {"type": "node", "id": 9730042281, "lat": 39.1281664, "lon": 22.3085462, "tags": {"amenity": "cafe", "name": "\u039aarapetsa pastry coffee"}}, {"type": "node", "id": 10246134187, "lat": 38.8881838, "lon": 22.4388839, "tags": {"amenity": "cafe", "name": "Bruno"}}, {"type": "node", "id": 10606004688, "lat": 38.8641, "lon": 22.1989741, "tags": {"amenity": "restaurant"}}, {"type": "node", "id": 10606061794, "lat": 38.7991419, "lon": 22.1953626, "tags": {"amenity": "restaurant", "name": "\u03a4\u03bf \u0391\u03bd\u03c4\u03ac\u03bc\u03c9\u03bc\u03b1", "opening_hours": "Only in Summer"}}, {"type": "node", "id": 10606099524, "lat": 38.8953759, "lon": 22.2755023, "tags": {"amenity": "restaurant", "cuisine": "grill", "name": "\u03a4\u03bf \u03a0\u03b5\u03c1\u03b1\u03c3\u03bc\u03b1 \u03c4\u03bf\u03c5 \u0391\u03bd\u03c4\u03ce\u03bd\u03b7", "outdoor_seating": "yes"}}, {"type": "node", "id": 10606100528, "lat": 38.8462431, "lon": 22.2120492, "tags": {"amenity": "restaurant"}}, {"type": "node", "id": 10606145191, "lat": 38.8625164, "lon": 22.1989532, "tags": {"amenity": "restaurant", "cuisine": "mezedes", "name": "Ta Skiourakia"}}, {"type": "node", "id": 10606155523, "lat": 38.8718252, "lon": 22.2408401, "tags": {"amenity": "cafe"}}, {"type": "node", "id": 10606155524, "lat": 38.8718489, "lon": 22.2410899, "tags": {"amenity": "cafe", "name": "Kafeneio O Platanos"}}, {"type": "node", "id": 10606155525, "lat": 38.8720288, "lon": 22.2409381, "tags": {"amenity": "restaurant", "cuisine": "grill"}}, {"type": "node", "id": 10606164112, "lat": 38.9162844, "lon": 22.3029175, "tags": {"amenity": "cafe"}}, {"type": "node", "id": 10606164113, "lat": 38.9164105, "lon": 22.3023916, "tags": {"amenity": "restaurant", "cuisine": "grill"}}, {"type": "node", "id": 10606167207, "lat": 38.9718823, "lon": 22.1657256, "tags": {"amenity": "cafe"}}, {"type": "node", "id": 10606259637, "lat": 38.8501854, "lon": 22.3881741, "tags": {"amenity": "cafe"}}, {"type": "node", "id": 10606317342, "lat": 38.9456574, "lon": 22.2020174, "tags": {"amenity": "cafe"}}, {"type": "node", "id": 10606384252, "lat": 38.9137881, "lon": 22.2113403, "tags": {"amenity": "restaurant"}}, {"type": "node", "id": 10691063618, "lat": 38.9021162, "lon": 22.2491612, "tags": {"amenity": "restaurant", "name": "\u0397 \u039b\u03bf\u03cd\u03c4\u03c3\u03b1", "outdoor_seating": "yes"}}, {"type": "node", "id": 11205736437, "lat": 38.8974447, "lon": 22.4286531, "tags": {"addr:housenumber": "51", "addr:postcode": "35100", "addr:street": "K. \u0388\u03c3\u03bb\u03b9\u03bd", "amenity": "cafe", "internet_access": "wlan", "name:en": "Studio Project Photography"}}, {"type": "node", "id": 11900478969, "lat": 39.0649762, "lon": 22.1832568, "tags": {"amenity": "restaurant"}}, {"type": "node", "id": 12153061356, "lat": 38.9012429, "lon": 22.4322073, "tags": {"amenity": "cafe"}}, {"type": "node", "id": 12734527200, "lat": 38.9163954, "lon": 22.4273211, "tags": {"amenity": "cafe", "name": "Deja Vu"}}, {"type": "node", "id": 12734574289, "lat": 38.9096364, "lon": 22.4297457, "tags": {"amenity": "cafe", "name": "Hood"}}, {"type": "node", "id": 12734589870, "lat": 38.9141643, "lon": 22.4276239, "tags": {"amenity": "restaurant", "cuisine": "meat;fish", "name": "\u03a0\u03b1\u03c1\u03ac\u03b3\u03ba\u03b1"}}, {"type": "node", "id": 12734598796, "lat": 38.9020048, "lon": 22.4326219, "tags": {"amenity": "cafe", "name": "\u03a3\u03b2\u03bf\u03cd\u03c1\u03b1"}}, {"type": "node", "id": 12734600707, "lat": 38.9117987, "lon": 22.4277102, "tags": {"amenity": "cafe", "name": "Cocco"}}, {"type": "node", "id": 12734614723, "lat": 38.9003817, "lon": 22.4327746, "tags": {"amenity": "cafe", "name": "Secret"}}, {"type": "node", "id": 12734616615, "lat": 38.9015396, "lon": 22.4333106, "tags": {"amenity": "restaurant", "name": "\u03a6\u03c5\u03c4\u03b9\u03bb\u03ae\u03c2"}}, {"type": "node", "id": 12734617560, "lat": 38.9098356, "lon": 22.4296664, "tags": {"amenity": "restaurant", "cuisine": "grill", "name": "\u0397 \u0393\u03b5\u03cd\u03c3\u03b7"}}, {"type": "node", "id": 12734619289, "lat": 38.9119722, "lon": 22.4276928, "tags": {"amenity": "restaurant", "name": "\u0392\u03bf\u03c3\u03ba\u03bf\u03c0\u03bf\u03cd\u03bb\u03b1"}}, {"type": "node", "id": 12734619689, "lat": 38.9156031, "lon": 22.4274866, "tags": {"amenity": "cafe", "name": "\u03a0\u03bf\u03b4\u03ae\u03bb\u03b1\u03c4\u03bf"}}, {"type": "node", "id": 12734619746, "lat": 38.9116865, "lon": 22.4277101, "tags": {"amenity": "restaurant", "name": "\u0397 \u03a1\u03b5\u03b6\u03ad\u03c1\u03b2\u03b1"}}, {"type": "node", "id": 12734619747, "lat": 38.9005697, "lon": 22.4327508, "tags": {"amenity": "cafe", "name": "Papagalino"}}, {"type": "node", "id": 12734619838, "lat": 38.9162756, "lon": 22.4273198, "tags": {"amenity": "cafe", "name": "\u0386\u03bb\u03c3\u03bf\u03c2"}}, {"type": "node", "id": 12734620609, "lat": 38.9089341, "lon": 22.4288138, "tags": {"amenity": "cafe", "name": "Stato95"}}, {"type": "node", "id": 12734625315, "lat": 38.9152911, "lon": 22.4275433, "tags": {"amenity": "restaurant", "name": "\u0391\u03c5\u03b3\u03ad\u03c1\u03b7\u03c2"}}, {"type": "node", "id": 12734629315, "lat": 38.9137021, "lon": 22.4272515, "tags": {"amenity": "restaurant", "name": "\u03a4\u03bf \u03a4\u03b1\u03b2\u03b5\u03c1\u03bd\u03ac\u03ba\u03b9 \u03c4\u03bf\u03c5 \u0392\u03b1\u03c3\u03af\u03bb\u03b7"}}, {"type": "node", "id": 12734629318, "lat": 38.9013487, "lon": 22.4334262, "tags": {"amenity": "restaurant", "name": "\u03a4\u03c3\u03b1\u03bb\u03b9\u03b3\u03bf\u03c0\u03bf\u03cd\u03bb\u03b1"}}, {"type": "node", "id": 12734632358, "lat": 38.9011031, "lon": 22.4335203, "tags": {"addr:housenumber": "7", "addr:street": "\u039a\u03b1\u03bb\u03cd\u03b2\u03b1 \u039c\u03c0\u03b1\u03ba\u03bf\u03b3\u03b9\u03ac\u03bd\u03bd\u03b7", "amenity": "cafe", "indoor_seating": "yes", "name": "\u039b\u03bf\u03c5\u03ba\u03bf\u03cd\u03bc\u03b9", "outdoor_seating": "roof", "phone": "+302231222135"}}, {"type": "node", "id": 12734633731, "lat": 38.9143275, "lon": 22.4276042, "tags": {"amenity": "restaurant", "cuisine": "grill", "name": "\u0394\u03b7\u03bc. \u03a3\u03c4. \u03a3\u03c4\u03b1\u03c1\u03b1\u03c0\u03b1\u03c4\u03ac\u03ba\u03b7\u03c2"}}, {"type": "node", "id": 12734662398, "lat": 38.8997162, "lon": 22.4329567, "tags": {"addr:city": "\u039b\u03b1\u03bc\u03af\u03b1", "addr:housenumber": "2", "addr:postcode": "35100", "addr:street": "\u039a\u03b1\u03c1\u03b1\u03b3\u03b9\u03b1\u03bd\u03bd\u03bf\u03c0\u03bf\u03cd\u03bb\u03bf\u03c5", "amenity": "restaurant", "cuisine": "greek;salad;gyros;barbecue", "delivery": "yes", "drink:coffee": "yes", "name": "Posto \u0393\u03c5\u03c1\u03bf\u03bd\u03bf\u03c3\u03c4\u03b9\u03bc\u03b9\u03ad\u03c2", "opening_hours": "Mo-Sa 12:00-24:00", "phone": "+302231051170", "website": "https://posto-lamia.gr"}}, {"type": "node", "id": 12775831702, "lat": 38.8785182, "lon": 22.4540819, "tags": {"amenity": "restaurant", "name": "\u039d\u03ad\u03b1 \u03a1\u03bf\u03cd\u03bc\u03b5\u03bb\u03b7", "name:el": "\u039d\u03ad\u03b1 \u03a1\u03bf\u03cd\u03bc\u03b5\u03bb\u03b7", "name:en": "Nea Roumeli"}}, {"type": "node", "id": 12860630961, "lat": 38.9131493, "lon": 22.6231469, "tags": {"amenity": "restaurant", "name": "\u0391\u03c1\u03c7\u03bf\u03bd\u03c4\u03b9\u03ba\u03cc", "outdoor_seating": "yes", "phone": "+30 2238 023309"}}, {"type": "node", "id": 12860630977, "lat": 38.9122011, "lon": 22.6178108, "tags": {"amenity": "cafe", "name": "Portion", "outdoor_seating": "yes"}}, {"type": "node", "id": 12860736821, "lat": 38.9125736, "lon": 22.6162134, "tags": {"amenity": "cafe", "name": "Day", "outdoor_seating": "yes"}}, {"type": "node", "id": 12860736827, "lat": 38.9123215, "lon": 22.6162406, "tags": {"amenity": "restaurant", "cuisine": "seafood", "name": "\u03a0\u03b9\u03c3\u03c0\u03b9\u03c1\u03af\u03bd\u03ba\u03bf\u03c5", "outdoor_seating": "yes"}}, {"type": "node", "id": 12860736833, "lat": 38.9126336, "lon": 22.6156172, "tags": {"amenity": "cafe", "name": "\u039b\u03c9\u03c4\u03cc\u03c2", "outdoor_seating": "yes"}}, {"type": "node", "id": 12860736843, "lat": 38.9142824, "lon": 22.6159576, "tags": {"amenity": "cafe", "name": "Corner Cafe & More", "outdoor_seating": "yes"}}, {"type": "node", "id": 12860736847, "lat": 38.9132219, "lon": 22.6097752, "tags": {"amenity": "cafe", "bar": "no", "name": "Street Coffee", "outdoor_seating": "yes"}}, {"type": "node", "id": 12860736852, "lat": 38.9124966, "lon": 22.6162366, "tags": {"amenity": "cafe", "name": "Kawa Coffee", "outdoor_seating": "yes"}}, {"type": "node", "id": 12860811035, "lat": 38.9125284, "lon": 22.6071381, "tags": {"amenity": "cafe", "name": "Nuovo", "outdoor_seating": "yes"}}, {"type": "node", "id": 12860817087, "lat": 38.8996081, "lon": 22.4872104, "tags": {"amenity": "cafe", "bar": "no", "outdoor_seating": "yes"}}, {"type": "node", "id": 12860890542, "lat": 38.9003957, "lon": 22.4467135, "tags": {"amenity": "cafe", "outdoor_seating": "yes"}}, {"type": "node", "id": 12860971664, "lat": 38.8700754, "lon": 22.3473028, "tags": {"amenity": "restaurant", "name": "\u03a0\u03b1\u03bd\u03bf-\u03a4\u03c3\u03bf\u03c5\u03bc\u03b1\u03c2", "outdoor_seating": "yes"}}, {"type": "node", "id": 12860989287, "lat": 38.8699965, "lon": 22.3464268, "tags": {"amenity": "cafe", "outdoor_seating": "yes"}}, {"type": "node", "id": 12862442369, "lat": 38.8951942, "lon": 22.2780485, "tags": {"amenity": "restaurant", "int_name": "To Neon", "name": "\u03a4\u03bf \u039d\u03b5\u03bf\u03bd"}}, {"type": "node", "id": 12862518972, "lat": 38.8995469, "lon": 22.2293549, "tags": {"amenity": "cafe", "name": "Oasis", "outdoor_seating": "yes"}}, {"type": "node", "id": 12862527657, "lat": 38.8952578, "lon": 22.2164486, "tags": {"amenity": "restaurant", "name": "\u039a\u03c5\u03c1\u03b9\u03b1\u03b6\u03b7\u03c2", "outdoor_seating": "yes", "phone": "+30 2231 094566"}}, {"type": "node", "id": 12863090039, "lat": 38.8944607, "lon": 22.4778771, "tags": {"amenity": "cafe", "name": "Cosmos", "outdoor_seating": "yes"}}, {"type": "node", "id": 12863090045, "lat": 38.8998287, "lon": 22.4879971, "tags": {"amenity": "cafe", "outdoor_seating": "yes"}}, {"type": "node", "id": 12863264924, "lat": 38.9054198, "lon": 22.1250883, "tags": {"amenity": "cafe", "internet_access": "wlan", "name": "\u0391\u1f76\u03b7\u03bb\u03b7", "outdoor_seating": "yes"}}, {"type": "node", "id": 12863264936, "lat": 38.9046629, "lon": 22.1276798, "tags": {"amenity": "cafe", "name": "Coffee Tree", "outdoor_seating": "yes"}}, {"type": "node", "id": 12863264947, "lat": 38.9051558, "lon": 22.1255478, "tags": {"amenity": "cafe", "outdoor_seating": "yes"}}, {"type": "node", "id": 12863264948, "lat": 38.905227, "lon": 22.125058, "tags": {"amenity": "cafe", "name": "Mania", "outdoor_seating": "yes"}}, {"type": "node", "id": 12864214928, "lat": 38.9056718, "lon": 22.1274051, "tags": {"amenity": "cafe", "bar": "yes", "name": "\u03a6\u03bb\u03b1\u03bc\u03bf\u03c5\u03c1\u03b9\u03b1"}}, {"type": "node", "id": 12864362330, "lat": 38.9047852, "lon": 22.1284559, "tags": {"amenity": "cafe", "outdoor_seating": "yes"}}, {"type": "node", "id": 12873368766, "lat": 38.9052215, "lon": 22.5528054, "tags": {"amenity": "cafe", "outdoor_seating": "yes"}}, {"type": "node", "id": 12875652292, "lat": 38.8843165, "lon": 22.3147854, "tags": {"amenity": "cafe", "name": "\u03a0\u03bb\u03ac\u03c4\u03b1\u03bd\u03bf\u03c2", "outdoor_seating": "yes"}}, {"type": "way", "id": 234511871, "nodes": [2427549067, 2427549068, 2427549069, 2427549070, 2427549071, 2427549072, 2427549073, 2427549074, 2427549075, 2427549076, 2427549077, 2427549078, 2427549079, 2427549080, 2427549081, 2427549082, 2427549083, 2427549084, 2427549085, 2427549086, 2427549087, 2427549088, 2427549067], "tags": {"amenity": "cafe", "building": "yes", "cuisine": "regional", "internet_access": "yes"}}, {"type": "way", "id": 380259083, "nodes": [3836018254, 3836018255, 3836018256, 3836021157, 3836021158, 3836021159, 3836021160, 3836018254], "tags": {"amenity": "restaurant", "building": "yes", "name": "Look Up"}}, {"type": "way", "id": 420416740, "nodes": [4203453530, 4203453531, 4203453532, 4203453533, 4203453530], "tags": {"amenity": "restaurant", "building": "yes", "name": "\u039a\u03c9\u03bb\u03bf\u03c4\u03bf\u03cd\u03bc\u03c0\u03b1\u03c2"}}, {"type": "way", "id": 507415799, "nodes": [4969254431, 9715160172, 4969254432, 4969254433, 4969254434, 8916791252, 4969254431], "tags": {"amenity": "restaurant", "building": "yes", "name": "\u039a\u03c4\u03ae\u03bc\u03b1 \u03a0\u03b1\u03c3\u03b9\u03ac\u03ba\u03bf\u03c5"}}, {"type": "way", "id": 507415806, "nodes": [4969254499, 4969254500, 4969254501, 4969254504, 4969254499], "tags": {"amenity": "restaurant", "building": "yes", "name": "\u0391\u03c1\u03af\u03c9\u03bd Palace"}}, {"type": "way", "id": 551635369, "nodes": [5327214237, 5327214238, 5327214239, 5327214240, 5327214237], "tags": {"addr:housenumber": "24\u03bf \u03c7\u03bb\u03bc", "addr:street": "\u039b\u03b1\u03bc\u03af\u03b1\u03c2 - \u0394\u03bf\u03bc\u03bf\u03ba\u03bf\u03cd", "amenity": "cafe", "building": "yes", "name": "Cafe Zoo-Farm"}}, {"type": "way", "id": 584887088, "nodes": [5590164695, 5590164677, 5590164678, 5590164679, 5590164680, 5590164681, 5590164682, 5590164683, 5590164684, 5590164685, 5590164686, 5590164687, 5590164688, 5590164689, 5590164690, 5590164691, 5590164692, 5590164693, 5590164694, 5590164695], "tags": {"amenity": "restaurant", "building": "yes"}}, {"type": "way", "id": 590281742, "nodes": [5636099311, 5636099312, 5636099313, 5636099314, 5636099311], "tags": {"amenity": "restaurant", "name": "'\u0391\u03c1\u03c7\u03bf\u03bd\u03c4\u03b9\u03ba\u03cc\u03bd' \u03a3\u03ba\u03bf\u03cd\u03c1\u03b1"}}, {"type": "way", "id": 1024780992, "nodes": [9449442607, 9449442608, 9449442609, 9449442610, 9449442607], "tags": {"amenity": "restaurant", "building": "yes", "cuisine": "regional;greek", "name": "\u039a\u03bf\u03b9\u03bd\u03bf\u03c4\u03b9\u03ba\u03cc \u039a\u03b1\u03c4\u03ac\u03c3\u03c4\u03b7\u03bc\u03b1 \u039a\u03ac\u03c4\u03c9 \u039a\u03b1\u03bb\u03bb\u03b9\u03b8\u03ad\u03b1\u03c2"}}, {"type": "way", "id": 1024798382, "nodes": [9449550542, 9449550543, 9449550544, 9449550545, 9449550542], "tags": {"amenity": "restaurant", "building": "yes", "cuisine": "greek", "name": "\u03c4\u03b1\u03b2\u03ad\u03c1\u03bd\u03b1 -\u03c8\u03b7\u03c3\u03c4\u03b1\u03c1\u03b9\u03ac \"\u03a8\u03ac\u03b8\u03b1\"", "phone": "+302236023959"}}, {"type": "way", "id": 1024798856, "nodes": [9449552249, 9449552250, 9449552251, 9449552252, 9449552249], "tags": {"amenity": "restaurant", "building": "yes", "cuisine": "greek", "int_name": "Prinkipessa", "name": "\u03a0\u03c1\u03b9\u03b3\u03ba\u03b9\u03c0\u03ad\u03c3\u03c3\u03b1", "phone": "+30 697 067 2966"}}, {"type": "way", "id": 1024822462, "nodes": [9449692442, 9449692443, 9449692444, 9449692445, 9449692442], "tags": {"amenity": "cafe", "building": "yes", "name": "\u039a\u03b1\u03c6\u03b5\u03bd\u03b5\u03af\u03bf"}}]}