{"version": 0.6, "generator": "Overpass API 0.7.62.7 375dc00a", "osm3s": {"timestamp_osm_base": "2025-06-14T13:52:30Z", "copyright": "The data included in this document is from www.openstreetmap.org. The data is made available under ODbL."}, "elements": [{"type": "node", "id": 444722483, "lat": 41.7120466, "lon": 13.5972152, "tags": {"addr:city": "Sora", "addr:housenumber": "41", "addr:postcode": "03039", "addr:street": "Via Salcetello", "amenity": "restaurant", "cuisine": "pizza", "email": "vecchioforno2015@gmail.com", "name": "Il Vecchio Forno", "phone": "+39 340 2953045"}}, {"type": "node", "id": 476136848, "lat": 41.7253227, "lon": 13.6863279, "tags": {"addr:city": "Campoli Appennino", "addr:housenumber": "29", "addr:postcode": "03030", "addr:street": "Via Treo", "amenity": "restaurant", "cuisine": "regional", "name": "Trattoria La Torre (da Peppe... ol\u00e9 se magna)", "phone": "+39 0776 832799"}}, {"type": "node", "id": 522153016, "lat": 41.867078, "lon": 13.6240777, "tags": {"amenity": "cafe", "name": "Bar Eufemia"}}, {"type": "node", "id": 643029036, "lat": 41.8107272, "lon": 13.7469358}, {"type": "node", "id": 722557295, "lat": 41.8106953, "lon": 13.7469486}, {"type": "node", "id": 722557316, "lat": 41.8106239, "lon": 13.7466282}, {"type": "node", "id": 722557320, "lat": 41.8107588, "lon": 13.7469231}, {"type": "node", "id": 722557325, "lat": 41.8107145, "lon": 13.7467247}, {"type": "node", "id": 722557344, "lat": 41.8107829, "lon": 13.7466972}, {"type": "node", "id": 722557350, "lat": 41.8107557, "lon": 13.7465753}, {"type": "node", "id": 1378423554, "lat": 41.9216105, "lon": 13.3398203}, {"type": "node", "id": 1378423555, "lat": 41.9216598, "lon": 13.3399448}, {"type": "node", "id": 1378423556, "lat": 41.9217107, "lon": 13.3397486}, {"type": "node", "id": 1378423558, "lat": 41.92176, "lon": 13.3398731}, {"type": "node", "id": 1538084147, "lat": 41.6923652, "lon": 13.2416053, "tags": {"amenity": "cafe", "name": "Bar Fashion", "tobacco": "yes"}}, {"type": "node", "id": 1538084155, "lat": 41.6835548, "lon": 13.2572222, "tags": {"amenity": "cafe", "name": "Black Land"}}, {"type": "node", "id": 1538222004, "lat": 41.7097934, "lon": 13.2187598, "tags": {"amenity": "cafe", "gambling": "yes", "name": "Bar Romano", "tobacco": "yes"}}, {"type": "node", "id": 1538222029, "lat": 41.70575, "lon": 13.2247519, "tags": {"amenity": "restaurant", "name": "La Primavera", "tobacco": "yes"}}, {"type": "node", "id": 1667690386, "lat": 41.6784652, "lon": 13.7543317}, {"type": "node", "id": 1709841629, "lat": 41.8627039, "lon": 13.2485641, "tags": {"addr:city": "Trevi nel Lazio", "addr:housenumber": "9", "addr:postcode": "03010", "addr:street": "Via Ventuno Aprile", "amenity": "cafe", "brewery": "no", "name": "Bar Porta Romana"}}, {"type": "node", "id": 1709841651, "lat": 41.8627998, "lon": 13.247223, "tags": {"addr:city": "Trevi nel Lazio", "addr:postcode": "03010", "addr:street": "Viale Cesare Battisti", "air_conditioning": "yes", "amenity": "restaurant", "capacity": "30", "cuisine": "regional;italian", "name": "Il Girasole", "opening_hours": "Tu-Su 12:30-23:00", "phone": "+39 338 528 4855", "website": "https://www.facebook.com/Ristorante-il-Girasole-382333475225099/"}}, {"type": "node", "id": 1709841702, "lat": 41.8629476, "lon": 13.2489718, "tags": {"amenity": "restaurant"}}, {"type": "node", "id": 1709841711, "lat": 41.8628272, "lon": 13.248888, "tags": {"addr:city": "Trevi nel Lazio", "addr:housenumber": "1", "addr:postcode": "03010", "addr:street": "Via dei Fabbri", "amenity": "cafe", "brewery": "no", "name": "Barcollando"}}, {"type": "node", "id": 1709841725, "lat": 41.8624469, "lon": 13.2494816, "tags": {"addr:city": "Trevi nel Lazio", "addr:housenumber": "1", "addr:postcode": "03010", "addr:street": "Piazza Santa Maria Maggiore", "amenity": "cafe", "brewery": "no", "cuisine": "coffee_shop;ice_cream;breakfast", "name": "Sbrebby\u2019s Bar", "outdoor_seating": "yes"}}, {"type": "node", "id": 1709841754, "lat": 41.8628357, "lon": 13.2463218, "tags": {"addr:city": "Trevi nel Lazio", "addr:housenumber": "41", "addr:postcode": "03010", "addr:street": "Viale Cesare Battisti", "air_conditioning": "yes", "amenity": "cafe", "description": "BAR, Pasticceria, Gelateria", "name": "Gemma", "opening_hours": "Mo-Su 05:30-24:00"}}, {"type": "node", "id": 1739703847, "lat": 41.6857938, "lon": 13.2683295, "tags": {"addr:housename": "Il 63", "addr:postcode": "03013", "addr:street": "Via Casilina Sud", "amenity": "cafe", "name": "Il 63"}}, {"type": "node", "id": 1739762066, "lat": 41.6855422, "lon": 13.2679039, "tags": {"addr:housename": "Bar Sandy", "addr:housenumber": "156", "addr:postcode": "03013", "addr:street": "Via Casilina Sud", "amenity": "cafe", "contact:phone": "+39 0775 240032", "name": "Bar Sandy"}}, {"type": "node", "id": 1740108530, "lat": 41.6923664, "lon": 13.2536754, "tags": {"addr:housename": "Wine Bar Matteotti", "addr:postcode": "03013", "addr:street": "Piazza Giacomo Matteotti", "amenity": "cafe", "name": "Wine Bar Matteotti"}}, {"type": "node", "id": 1745562611, "lat": 41.6922381, "lon": 13.2500148, "tags": {"addr:housename": "Bar Flaminio", "addr:housenumber": "2", "addr:postcode": "03013", "addr:street": "Largo Don Guanella", "amenity": "cafe", "contact:phone": "+39 0775 395144", "name": "Bar Flaminio"}}, {"type": "node", "id": 1746354133, "lat": 41.6925704, "lon": 13.2502871, "tags": {"addr:housename": "La Lanterna", "addr:postcode": "03013", "addr:street": "Vicolo Calidario", "amenity": "cafe", "contact:phone": "+39 0775 395270", "cuisine": "pizza", "name": "La Lanterna"}}, {"type": "node", "id": 1751024086, "lat": 41.6912767, "lon": 13.2597892, "tags": {"addr:housename": "Sole e Luna", "amenity": "cafe", "name": "Sole e Luna"}}, {"type": "node", "id": 1751031859, "lat": 41.6834732, "lon": 13.254568, "tags": {"addr:housename": "Jolly Bar", "addr:housenumber": "4", "addr:postcode": "03013", "addr:street": "Via Paolo Borsellino", "amenity": "cafe", "name": "Jolly Bar"}}, {"type": "node", "id": 1751067849, "lat": 41.6886369, "lon": 13.2616179, "tags": {"addr:housename": "Teresa", "addr:housenumber": "44", "addr:postcode": "03013", "addr:street": "Via Casilina Sud", "amenity": "cafe", "cuisine": "pizza", "name": "Teresa"}}, {"type": "node", "id": 1751087146, "lat": 41.6891178, "lon": 13.2614936, "tags": {"addr:housename": "Sixth Sense Tattoo", "addr:housenumber": "22", "addr:postcode": "03013", "addr:street": "Via Casilina Sud", "amenity": "restaurant", "cuisine": "pizza", "name": "Gusto & Sapore"}}, {"type": "node", "id": 1752289028, "lat": 41.6892816, "lon": 13.2539403, "tags": {"addr:housename": "Caffetteria del Borgo", "addr:housenumber": "322", "addr:postcode": "03013", "addr:street": "Via Casilina Sud", "amenity": "cafe", "name": "Caffetteria del Borgo"}}, {"type": "node", "id": 1762159230, "lat": 41.7266699, "lon": 13.3422567, "tags": {"amenity": "cafe", "name": "Caff\u00e8 Venezia"}}, {"type": "node", "id": 1762163910, "lat": 41.7267138, "lon": 13.3417376, "tags": {"amenity": "cafe", "name": "Vanilla Caff\u00e8", "restaurant:type:it": "bar;gelateria;yogurteria"}}, {"type": "node", "id": 1762286035, "lat": 41.7263795, "lon": 13.3431903, "tags": {"amenity": "cafe", "name": "Gran Caff\u00e8 Perrone", "restaurant:type:it": "caff\u00e8"}}, {"type": "node", "id": 1762325437, "lat": 41.7265103, "lon": 13.3436964, "tags": {"amenity": "restaurant", "cuisine": "regional", "name": "Roadhouse", "restaurant:type:it": "spaghetteria"}}, {"type": "node", "id": 1762372125, "lat": 41.7252284, "lon": 13.3436153, "tags": {"amenity": "restaurant", "cuisine": "pizza", "name": "Pizzeria la Rosetta", "operator": "Massimo", "restaurant:type:it": "pizzeria;ristorante", "start_date": "1954"}}, {"type": "node", "id": 1767960409, "lat": 41.6921407, "lon": 13.2504022, "tags": {"amenity": "cafe"}}, {"type": "node", "id": 1768471342, "lat": 41.6922829, "lon": 13.2532356, "tags": {"amenity": "cafe"}}, {"type": "node", "id": 1779452891, "lat": 41.7270992, "lon": 13.3423989, "tags": {"amenity": "restaurant", "name": "La Conca", "restaurant:type:it": "ristorante;pizzeria"}}, {"type": "node", "id": 1779478730, "lat": 41.7271846, "lon": 13.3438086, "tags": {"amenity": "restaurant", "name": "Hostaria Apicius"}}, {"type": "node", "id": 1780600081, "lat": 41.6909081, "lon": 13.35226, "tags": {"amenity": "restaurant", "name": "Osteria Porca Vacca", "restaurant:type:it": "osteria"}}, {"type": "node", "id": 1783325178, "lat": 41.6712061, "lon": 13.4984944, "tags": {"amenity": "restaurant", "name": "Ristorante Abbazia"}}, {"type": "node", "id": 1788714908, "lat": 41.6722969, "lon": 13.4840947, "tags": {"amenity": "restaurant", "name": "Caio Mario Albergo Ristorante", "tourism": "hotel"}}, {"type": "node", "id": 1812472398, "lat": 41.7772285, "lon": 13.3414406, "tags": {"amenity": "cafe", "name": "Bar Pelone", "ref": "RM2512", "restaurant:type:it": "bar;pizzeria;tabacchi;valori_bollati", "sell:ice_cream": "industrial", "shop": "tobacco"}}, {"type": "node", "id": 1812572120, "lat": 41.7777893, "lon": 13.3424859, "tags": {"amenity": "cafe", "name": "Bar Fanti", "restaurant:type:it": "bar"}}, {"type": "node", "id": 1812613198, "lat": 41.7774174, "lon": 13.3425061, "tags": {"amenity": "cafe", "name": "Bar Centrale", "restaurant:type:it": "bar", "sell:ice_cream": "industrial"}}, {"type": "node", "id": 1812759136, "lat": 41.7768875, "lon": 13.341818, "tags": {"amenity": "restaurant", "cuisine": "regional", "name": "La Taverna del Castello", "phone": "+39 349 6381306"}}, {"type": "node", "id": 1813945960, "lat": 41.7043206, "lon": 13.3770614, "tags": {"amenity": "restaurant", "name": "Ristorante Sisto", "restaurant:type:it": "bar;ristorante;fettuccineria", "start_date": "1969"}}, {"type": "node", "id": 1813999130, "lat": 41.6907049, "lon": 13.4179037, "tags": {"amenity": "cafe", "cuisine": "ice_cream", "name": "Caff\u00e8 Verolanum", "restaurant:type:it": "gelateria;caff\u00e8", "shop": "pastry"}}, {"type": "node", "id": 1814010878, "lat": 41.6905003, "lon": 13.4181713}, {"type": "node", "id": 1814018131, "lat": 41.6905982, "lon": 13.4181775}, {"type": "node", "id": 1814029948, "lat": 41.6904769, "lon": 13.4182247}, {"type": "node", "id": 1814029958, "lat": 41.6905041, "lon": 13.4185281}, {"type": "node", "id": 1814029974, "lat": 41.6906656, "lon": 13.4186511}, {"type": "node", "id": 1814029976, "lat": 41.690669, "lon": 13.4185519}, {"type": "node", "id": 1814029978, "lat": 41.6906739, "lon": 13.418243}, {"type": "node", "id": 1814029980, "lat": 41.6907371, "lon": 13.4185153}, {"type": "node", "id": 1814029982, "lat": 41.6907403, "lon": 13.4184284}, {"type": "node", "id": 1814029983, "lat": 41.6907745, "lon": 13.4184302}, {"type": "node", "id": 1814029985, "lat": 41.6907869, "lon": 13.4185142}, {"type": "node", "id": 1814029987, "lat": 41.6908515, "lon": 13.4183144}, {"type": "node", "id": 1814029990, "lat": 41.6908551, "lon": 13.4185512}, {"type": "node", "id": 1814029992, "lat": 41.6908585, "lon": 13.4186265}, {"type": "node", "id": 1814029994, "lat": 41.6908704, "lon": 13.4185501}, {"type": "node", "id": 1814897227, "lat": 41.6921303, "lon": 13.4180472, "tags": {"amenity": "cafe", "name": "Caff\u00e8 de Caris"}}, {"type": "node", "id": 1814897228, "lat": 41.6921403, "lon": 13.4177559, "tags": {"amenity": "restaurant", "cuisine": "regional", "name": "Domus Hernico", "restaurant:type:it": "ristorante"}}, {"type": "node", "id": 1814897230, "lat": 41.6920418, "lon": 13.4178032, "tags": {"amenity": "restaurant", "cuisine": "pizza", "name": "Perbacco!", "restaurant:type:it": "ristorante;pizzeria"}}, {"type": "node", "id": 1819123896, "lat": 41.6881569, "lon": 13.4193047, "tags": {"amenity": "restaurant", "name": "Cantina del Borgo"}}, {"type": "node", "id": 1819144949, "lat": 41.6887021, "lon": 13.4196319, "tags": {"addr:city": "Veroli", "addr:housenumber": "6", "addr:street": "Viale 28 Ottobre", "amenity": "restaurant", "cuisine": "pizza", "name": "Il Tempio della Pizza", "restaurant:type:it": "ristorante;pizzeria"}}, {"type": "node", "id": 1819171545, "lat": 41.6918437, "lon": 13.4175174, "tags": {"amenity": "restaurant", "cuisine": "regional", "name": "Vicolaccio", "restaurant:type:it": "osteria;pub"}}, {"type": "node", "id": 1819193993, "lat": 41.6924347, "lon": 13.41711, "tags": {"amenity": "restaurant", "name": "Domus Hernica", "restaurant:type:it": "ristorante"}}, {"type": "node", "id": 1819193994, "lat": 41.69992, "lon": 13.409893, "tags": {"amenity": "restaurant", "name": "Miravalle", "restaurant:type:it": "hotel;ristorante;bar;pizzeria", "tourism": "hotel"}}, {"type": "node", "id": 1843919924, "lat": 41.7758501, "lon": 13.2731213, "tags": {"amenity": "cafe"}}, {"type": "node", "id": 1927756615, "lat": 41.6532108, "lon": 13.3412408}, {"type": "node", "id": 1927756651, "lat": 41.6532909, "lon": 13.3413186}, {"type": "node", "id": 1927756698, "lat": 41.6532749, "lon": 13.3411925}, {"type": "node", "id": 1927756781, "lat": 41.6532609, "lon": 13.3412247}, {"type": "node", "id": 1927756795, "lat": 41.6530705, "lon": 13.3410584}, {"type": "node", "id": 1927756799, "lat": 41.6532609, "lon": 13.341045}, {"type": "node", "id": 1927756820, "lat": 41.6533932, "lon": 13.341163}, {"type": "node", "id": 1927756840, "lat": 41.6532869, "lon": 13.3410799}, {"type": "node", "id": 1927756847, "lat": 41.6532088, "lon": 13.3411201}, {"type": "node", "id": 1927756873, "lat": 41.6507216, "lon": 13.3440276, "tags": {"addr:city": "Frosinone", "addr:housenumber": "213", "addr:postcode": "03100", "addr:street": "Via Tiburtina", "amenity": "restaurant", "cuisine": "pizza;italiana", "name": "Penelope", "phone": "+39 0775 154 3535"}}, {"type": "node", "id": 1927756882, "lat": 41.653323, "lon": 13.3412864}, {"type": "node", "id": 1927756891, "lat": 41.6529703, "lon": 13.3412622}, {"type": "node", "id": 1927756917, "lat": 41.6531426, "lon": 13.341399}, {"type": "node", "id": 1927756932, "lat": 41.6531687, "lon": 13.3413454}, {"type": "node", "id": 1927756935, "lat": 41.653295, "lon": 13.341053}, {"type": "node", "id": 1928702110, "lat": 41.6506361, "lon": 13.3355043, "tags": {"amenity": "cafe", "name": "Bar Patrizia", "outdoor_seating": "yes"}}, {"type": "node", "id": 1930981701, "lat": 41.6444072, "lon": 13.3462095, "tags": {"addr:city": "Frosinone", "addr:housenumber": "1", "addr:postcode": "03100", "addr:street": "Via Adige", "amenity": "restaurant", "capacity": "50", "cuisine": "pizza;regional;seafood", "name": "Giotto", "opening_hours": "Mo-Su 12:00-15:00,19:00-24:00", "outdoor_seating": "yes", "phone": "+39 0775270221", "takeaway": "yes"}}, {"type": "node", "id": 1939461168, "lat": 41.8341528, "lon": 13.3349111, "tags": {"amenity": "cafe"}}, {"type": "node", "id": 1939461188, "lat": 41.8347544, "lon": 13.337537, "tags": {"amenity": "cafe"}}, {"type": "node", "id": 1939461268, "lat": 41.8348943, "lon": 13.336727, "tags": {"amenity": "restaurant"}}, {"type": "node", "id": 1964162048, "lat": 41.6412111, "lon": 13.3097374, "tags": {"amenity": "cafe"}}, {"type": "node", "id": 1994609513, "lat": 41.6447354, "lon": 13.3470789, "tags": {"addr:city": "Frosinone", "addr:housenumber": "102", "addr:postcode": "03100", "addr:street": "Via Aldo Moro", "amenity": "cafe", "name": "Bagatto", "phone": "+39 0775 871455"}}, {"type": "node", "id": 1994609519, "lat": 41.6421821, "lon": 13.3448164, "tags": {"amenity": "cafe", "name": "Caffetteria All'Angolo"}}, {"type": "node", "id": 2235676265, "lat": 41.8826526, "lon": 13.2131958}, {"type": "node", "id": 2235676268, "lat": 41.8827242, "lon": 13.2133685}, {"type": "node", "id": 2235676270, "lat": 41.882733, "lon": 13.2131287}, {"type": "node", "id": 2235676272, "lat": 41.8828106, "lon": 13.2133041}, {"type": "node", "id": 2272733494, "lat": 41.7578997, "lon": 13.2175696, "tags": {"addr:city": "Ferentino", "addr:postcode": "03013", "addr:street": "Via dei pozzi di Porciano", "amenity": "restaurant", "capacity": "100", "contact:email": "info@daginoristorante.it", "contact:phone": "+39 0775 249219", "cuisine": "italian", "delivery": "no", "name": "Da Gino", "opening_hours": "Mo-Su 11:00-23:00", "outdoor_seating": "yes", "phone": "+39 0775 249219", "takeaway": "no", "website": "https://www.daginoristorante.it/"}}, {"type": "node", "id": 2338289230, "lat": 41.6797014, "lon": 13.5710106, "tags": {"amenity": "cafe"}}, {"type": "node", "id": 2348594783, "lat": 41.6786906, "lon": 13.5392907, "tags": {"amenity": "restaurant", "cuisine": "italian"}}, {"type": "node", "id": 2348596045, "lat": 41.6807159, "lon": 13.5301213, "tags": {"amenity": "cafe"}}, {"type": "node", "id": 2348596046, "lat": 41.67927, "lon": 13.5259078, "tags": {"amenity": "cafe"}}, {"type": "node", "id": 2348596064, "lat": 41.6786253, "lon": 13.53928, "tags": {"amenity": "cafe"}}, {"type": "node", "id": 2348596073, "lat": 41.6772746, "lon": 13.5493948, "tags": {"amenity": "cafe", "name": "Bar Roma"}}, {"type": "node", "id": 2348596425, "lat": 41.6782064, "lon": 13.5517107, "tags": {"amenity": "cafe"}}, {"type": "node", "id": 2412915010, "lat": 42.0570624, "lon": 13.6018055, "tags": {"amenity": "cafe", "name": "Caff\u00e9 Nuova Taverna"}}, {"type": "node", "id": 2619994269, "lat": 41.7219491, "lon": 13.615108, "tags": {"addr:city": "Sora", "addr:postcode": "03039", "addr:street": "Corso Volsci", "amenity": "cafe", "name": "Camilla De\u2019Volsci"}}, {"type": "node", "id": 2816971068, "lat": 41.6713205, "lon": 13.4860817, "tags": {"amenity": "cafe", "ref:vatin": "IT02723850604"}}, {"type": "node", "id": 2818271786, "lat": 41.6719584, "lon": 13.4850942}, {"type": "node", "id": 2818271787, "lat": 41.671998, "lon": 13.4852986}, {"type": "node", "id": 2818271788, "lat": 41.6720749, "lon": 13.4850351}, {"type": "node", "id": 2818271789, "lat": 41.6720805, "lon": 13.4852108}, {"type": "node", "id": 2818271790, "lat": 41.6720896, "lon": 13.4852516}, {"type": "node", "id": 2818271791, "lat": 41.6721178, "lon": 13.4851911}, {"type": "node", "id": 2894356938, "lat": 42.0070112, "lon": 13.279656, "tags": {"addr:city": "Cappadocia", "addr:housenumber": "13", "addr:postcode": "67060", "addr:street": "Largo Vittorio Veneto", "amenity": "cafe", "name": "La Tana dei Lupi", "source": "survey"}}, {"type": "node", "id": 3009459957, "lat": 41.804465, "lon": 13.7419674, "tags": {"amenity": "restaurant", "name": "Rifugio"}}, {"type": "node", "id": 3015288866, "lat": 41.6865076, "lon": 13.2564704}, {"type": "node", "id": 3015288867, "lat": 41.6863914, "lon": 13.256411}, {"type": "node", "id": 3015288868, "lat": 41.6863516, "lon": 13.2565504}, {"type": "node", "id": 3015288869, "lat": 41.6864678, "lon": 13.2566098}, {"type": "node", "id": 3110354903, "lat": 42.0668241, "lon": 13.4085072}, {"type": "node", "id": 3110354906, "lat": 42.0669254, "lon": 13.4082964}, {"type": "node", "id": 3110354907, "lat": 42.066978, "lon": 13.4086415}, {"type": "node", "id": 3110354908, "lat": 42.0670794, "lon": 13.4084307}, {"type": "node", "id": 3256968161, "lat": 41.7278613, "lon": 13.289807, "tags": {"addr:city": "Fumone", "addr:housenumber": "5", "addr:street": "Via Del Ponte", "amenity": "restaurant", "cuisine": "regional", "name": "La Taverna del Barone", "phone": "+39 0775 49655", "website": "http://www.ristorantelatavernadelbarone.com"}}, {"type": "node", "id": 3512011464, "lat": 41.8836059, "lon": 13.5837887, "tags": {"amenity": "restaurant", "name": "Locanda Torre del Parco", "phone": "+39 0863 948532", "website": "http://locandatorredelparco.altervista.org"}}, {"type": "node", "id": 3559070704, "lat": 41.720548, "lon": 13.6134809, "tags": {"addr:city": "Sora", "addr:housenumber": "4", "addr:postcode": "03039", "addr:street": "Piazza Mayer Ross", "amenity": "cafe", "name": "caffetteria Torrevecchia enoteca"}}, {"type": "node", "id": 3559098943, "lat": 41.7219359, "lon": 13.614862, "tags": {"addr:city": "Sora", "addr:housenumber": "8", "addr:street": "Via Amedeo Carnevale", "amenity": "restaurant", "cuisine": "italian", "email": "osteriadeibriganti@gmail.com", "name": "Osteria dei Briganti", "phone": "+39 0776 832209", "website": "http://www.osteriadeibriganti.it/"}}, {"type": "node", "id": 3594312347, "lat": 41.7257981, "lon": 13.6666703, "tags": {"amenity": "restaurant"}}, {"type": "node", "id": 3625284886, "lat": 42.0177204, "lon": 13.2806053, "tags": {"amenity": "cafe", "cuisine": "italian", "name": "Il Grifone", "tobacco": "yes"}}, {"type": "node", "id": 3645089945, "lat": 42.0343076, "lon": 13.4238061, "tags": {"addr:city": "Avezzano", "addr:housenumber": "91", "addr:street": "Via Francesco Crispi", "amenity": "restaurant", "capacity": "50", "name": "La Cattedrale", "phone": "+39 0863 25175", "takeaway": "yes"}}, {"type": "node", "id": 3646212829, "lat": 41.7483193, "lon": 13.6564905, "tags": {"addr:country": "IT", "addr:housenumber": "1", "addr:postcode": "03039", "addr:street": "Via Civitella", "amenity": "restaurant", "name": "La locanda del Borgo", "phone": "+39 0776886333", "website": "http://www.lalocandadelborgo.it/"}}, {"type": "node", "id": 3676281899, "lat": 42.035884, "lon": 13.4286168, "tags": {"amenity": "restaurant", "indoor_seating": "yes", "name": "Garibaldi Caf\u00e8", "outdoor_seating": "yes"}}, {"type": "node", "id": 3691547098, "lat": 41.7026812, "lon": 13.6877693}, {"type": "node", "id": 3691547101, "lat": 41.7027214, "lon": 13.6876608}, {"type": "node", "id": 3691547104, "lat": 41.7027291, "lon": 13.687666}, {"type": "node", "id": 3691547105, "lat": 41.70274, "lon": 13.6876364}, {"type": "node", "id": 3691547106, "lat": 41.7027856, "lon": 13.6878385}, {"type": "node", "id": 3691547107, "lat": 41.7027909, "lon": 13.6877027}, {"type": "node", "id": 3691547108, "lat": 41.7028006, "lon": 13.6876766}, {"type": "node", "id": 3691547109, "lat": 41.702827, "lon": 13.6877267}, {"type": "node", "id": 3704586632, "lat": 41.7200362, "lon": 13.6163627, "tags": {"addr:city": "Sora", "addr:street": "Lungoliri Simoncelli", "amenity": "restaurant", "name": "ristorante pizzeria La ciociara", "phone": "+39 0776 833188", "website": "https://laciociara.it/sito/"}}, {"type": "node", "id": 3718155765, "lat": 42.0329694, "lon": 13.428601, "tags": {"amenity": "restaurant", "name": "Strabacco"}}, {"type": "node", "id": 3731364960, "lat": 42.0333758, "lon": 13.4297916, "tags": {"amenity": "restaurant", "name": "Il Grappino", "shop": "cosmetics"}}, {"type": "node", "id": 3731367694, "lat": 42.0350502, "lon": 13.4271804, "tags": {"amenity": "restaurant", "name": "Gusto"}}, {"type": "node", "id": 3736078748, "lat": 42.0331973, "lon": 13.4280008, "tags": {"amenity": "cafe", "name": "Bar Peppe"}}, {"type": "node", "id": 4022488973, "lat": 42.0369379, "lon": 13.4274183, "tags": {"addr:city": "Avezzano", "addr:housenumber": "95", "addr:postcode": "67051", "addr:street": "Via Monsignore Bagnoli", "amenity": "cafe", "cuisine": "pastry", "name": "il Bigne\u0300", "phone": "+390863399261"}}, {"type": "node", "id": 4034903689, "lat": 41.7192973, "lon": 13.6108323, "tags": {"addr:city": "Sora", "addr:housenumber": "23", "addr:postcode": "03039", "addr:street": "Lungoliri Cavour", "amenity": "cafe", "check_date": "2023-12-05", "contact:instagram": "https://www.instagram.com/deliricafe/?utm_source=ig_web_button_share_sheet&igshid=OGQ5ZDc2ODk2ZA==", "currency:XBT": "yes", "email": "deliricafebistrot@gmail.com", "internet_access": "no", "name": "DeLiri Caf\u00e8&Bistrot", "opening_hours": "Tu-Sa 16:00-02:00", "payment:lightning": "yes", "payment:onchain": "yes", "phone": "+39 320 558 4370", "smoking": "isolated", "website": "https://www.facebook.com/deliricafe"}}, {"type": "node", "id": 4093085255, "lat": 41.7280647, "lon": 13.2897685, "tags": {"addr:city": "Fumone", "addr:country": "IT", "addr:housenumber": "1", "addr:postcode": "03010", "addr:street": "Piazza Porta Romana", "amenity": "restaurant", "contact:facebook": "RistoranteLaRocca", "contact:phone": "+39 0775 49690", "cuisine": "italian", "name": "La Rokka"}}, {"type": "node", "id": 4093210404, "lat": 41.7033549, "lon": 13.2628075}, {"type": "node", "id": 4093210405, "lat": 41.703415, "lon": 13.2627237}, {"type": "node", "id": 4093210406, "lat": 41.703433, "lon": 13.262908}, {"type": "node", "id": 4093210407, "lat": 41.7034931, "lon": 13.2628243}, {"type": "node", "id": 4111985489, "lat": 42.0839156, "lon": 13.5461267, "tags": {"addr:city": "Celano", "addr:housenumber": "30", "addr:postcode": "67043", "addr:street": "Via Michele Carusi", "amenity": "restaurant", "cuisine": "italian", "facebook": "https://www.facebook.com/cittadellaristorante", "name": "Cittadella", "opening_hours": "Mo-Su 11:30-15:00,19:30-23:30", "phone": "+39 0863 791293", "website": "http://www.ristorantecittadella.it/"}}, {"type": "node", "id": 4149924863, "lat": 41.8895062, "lon": 13.3244059}, {"type": "node", "id": 4149924864, "lat": 41.8895412, "lon": 13.3243569}, {"type": "node", "id": 4149924865, "lat": 41.8895344, "lon": 13.3243497}, {"type": "node", "id": 4149924866, "lat": 41.8895465, "lon": 13.3243282}, {"type": "node", "id": 4149924867, "lat": 41.8895268, "lon": 13.3243037}, {"type": "node", "id": 4149924868, "lat": 41.8895648, "lon": 13.3242455}, {"type": "node", "id": 4149924869, "lat": 41.889523, "lon": 13.3241892}, {"type": "node", "id": 4149924870, "lat": 41.8894317, "lon": 13.3243252}, {"type": "node", "id": 4181961517, "lat": 41.8482707, "lon": 13.1941409}, {"type": "node", "id": 4181961518, "lat": 41.8482636, "lon": 13.1943125}, {"type": "node", "id": 4181961519, "lat": 41.8481731, "lon": 13.1942858}, {"type": "node", "id": 4181961520, "lat": 41.848158, "lon": 13.1940216}, {"type": "node", "id": 4181961521, "lat": 41.8481438, "lon": 13.1940163}, {"type": "node", "id": 4181961522, "lat": 41.8481493, "lon": 13.1938767}, {"type": "node", "id": 4181961523, "lat": 41.8482223, "lon": 13.193898}, {"type": "node", "id": 4181961524, "lat": 41.8482223, "lon": 13.1939204}, {"type": "node", "id": 4241809177, "lat": 41.7203209, "lon": 13.611543}, {"type": "node", "id": 4241809178, "lat": 41.7203189, "lon": 13.6114062}, {"type": "node", "id": 4241809179, "lat": 41.7202277, "lon": 13.6113996}, {"type": "node", "id": 4241809180, "lat": 41.7202208, "lon": 13.611446}, {"type": "node", "id": 4241809181, "lat": 41.7202069, "lon": 13.6114421}, {"type": "node", "id": 4241809182, "lat": 41.720195, "lon": 13.6115071}, {"type": "node", "id": 4248381523, "lat": 41.690499, "lon": 13.418312}, {"type": "node", "id": 4318553094, "lat": 41.6622486, "lon": 13.3947042, "tags": {"amenity": "cafe", "name": "Nero Caff\u00e9"}}, {"type": "node", "id": 4318554352, "lat": 41.665146, "lon": 13.4323597, "tags": {"amenity": "restaurant", "cuisine": "pizza", "name": "Le Bont\u00e0 di Patrizia"}}, {"type": "node", "id": 4318561089, "lat": 41.6756537, "lon": 13.4289265, "tags": {"amenity": "restaurant", "cuisine": "pizza"}}, {"type": "node", "id": 4350873190, "lat": 41.6520835, "lon": 13.3412472, "tags": {"addr:city": "Frosinone", "addr:housenumber": "81", "addr:postcode": "03100", "addr:street": "Strada Madonna della Neve", "amenity": "restaurant", "cuisine": "pizza", "name": "Pizzeria Brunella", "phone": "+39 0775 873358"}}, {"type": "node", "id": 4354479237, "lat": 41.7352078, "lon": 13.6234307}, {"type": "node", "id": 4354479241, "lat": 41.735248, "lon": 13.623651}, {"type": "node", "id": 4354479245, "lat": 41.7353518, "lon": 13.6233836}, {"type": "node", "id": 4354479247, "lat": 41.7353619, "lon": 13.6234389}, {"type": "node", "id": 4354479250, "lat": 41.7353926, "lon": 13.6234289}, {"type": "node", "id": 4354479253, "lat": 41.7354227, "lon": 13.6235939}, {"type": "node", "id": 4364484589, "lat": 41.6744691, "lon": 13.675366, "tags": {"amenity": "restaurant", "name": "Tapa", "name:en": "Tapa", "name:it": "Tapa"}}, {"type": "node", "id": 4364636379, "lat": 41.6609934, "lon": 13.3705612, "tags": {"amenity": "restaurant", "cuisine": "regional", "name": "La Sfizeria"}}, {"type": "node", "id": 4367564889, "lat": 41.6762558, "lon": 13.7065643, "tags": {"amenity": "cafe", "name": "Cafe La Plaza", "name:en": "Cafe La Plaza", "name:it": "Cafe La Plaza"}}, {"type": "node", "id": 4393108046, "lat": 41.6790042, "lon": 13.5729379, "tags": {"addr:city": "Isola del Liri", "addr:street": "Largo Berardo", "amenity": "restaurant", "cuisine": "italian", "name": "Osteria al Vicoletto"}}, {"type": "node", "id": 4394426207, "lat": 41.6816552, "lon": 13.5761844, "tags": {"addr:street": "Via Tavernanova", "amenity": "cafe", "name": "L'oasi", "name:it": "L'oasi"}}, {"type": "node", "id": 4425577824, "lat": 41.7911163, "lon": 13.2220862, "tags": {"addr:city": "Fiuggi", "addr:housenumber": "8", "addr:postcode": "03014", "addr:street": "Piazza Martiri di Nassiriya", "amenity": "restaurant", "cuisine": "pizza;italian;regional", "name": "Ristorante Bar della Vecchia Stazione", "opening_hours": "05:00-23:55", "phone": "+39 340 393 6323"}}, {"type": "node", "id": 4425577828, "lat": 41.8494918, "lon": 13.1930767, "tags": {"addr:city": "Altipiani di Arcinazzo", "addr:housenumber": "2/3", "addr:street": "Piazza Meo Passeri", "amenity": "restaurant", "cuisine": "regional;italian", "mobile": "+393332617570", "name": "La dispensa di Memmo di Valentina Pistoia", "phone": "+39 775598762"}}, {"type": "node", "id": 4425577838, "lat": 41.9690821, "lon": 13.3939889, "tags": {"amenity": "restaurant"}}, {"type": "node", "id": 4425577839, "lat": 41.9716885, "lon": 13.3968696, "tags": {"amenity": "restaurant"}}, {"type": "node", "id": 4486676334, "lat": 41.9147419, "lon": 13.4283472, "tags": {"addr:city": "Civitella Roveto", "addr:housenumber": "30", "addr:postcode": "67054", "addr:street": "Via dei Santi", "amenity": "restaurant", "name": "Albergo Ristorante La Perla della Valle", "phone": "+39 0863 97631"}}, {"type": "node", "id": 4509036381, "lat": 41.6841334, "lon": 13.5810067, "tags": {"addr:city": "Isola del Liri", "addr:housenumber": "7", "addr:street": "Via Carnello", "amenity": "restaurant", "email": "info@lefebvre.it", "name": "Ristorante Lefebvre Wine bar", "opening_hours": "We-Su 18:00-24:00", "phone": "+39 0776.814131", "website": "https://www.lefebvre.it/"}}, {"type": "node", "id": 4513500939, "lat": 41.8863508, "lon": 13.472251, "tags": {"amenity": "restaurant"}}, {"type": "node", "id": 4574116682, "lat": 41.7202559, "lon": 13.6115245}, {"type": "node", "id": 4575835619, "lat": 41.7190033, "lon": 13.6129896, "tags": {"amenity": "cafe", "name": "Bar Esedra"}}, {"type": "node", "id": 4575835620, "lat": 41.7189313, "lon": 13.6128233, "tags": {"amenity": "restaurant", "cuisine": "pizza", "name": "La Pizza del Borgo"}}, {"type": "node", "id": 4575835638, "lat": 41.7193837, "lon": 13.6137299, "tags": {"amenity": "cafe", "name": "Jazz Inn"}}, {"type": "node", "id": 4575835641, "lat": 41.7196153, "lon": 13.6141999, "tags": {"amenity": "restaurant", "cuisine": "pizza", "name": "Pizzeria Imperiale"}}, {"type": "node", "id": 4575835643, "lat": 41.7196954, "lon": 13.6142911, "tags": {"amenity": "cafe", "name": "Dolce Mimi"}}, {"type": "node", "id": 4576018265, "lat": 41.720131, "lon": 13.6143084, "tags": {"amenity": "cafe", "name": "Bar Moma"}}, {"type": "node", "id": 4576021049, "lat": 41.721176, "lon": 13.6150943, "tags": {"amenity": "cafe", "name": "Caff\u00e8 Portici"}}, {"type": "node", "id": 4577285611, "lat": 41.7214618, "lon": 13.6161293, "tags": {"addr:housenumber": "10", "addr:street": "Via Firmio", "amenity": "restaurant", "cuisine": "pizza", "name": "Mamma Mia", "phone": "+39 0776 825037"}}, {"type": "node", "id": 4637937217, "lat": 42.030873, "lon": 13.4270783, "tags": {"addr:city": "Avezzano", "addr:housenumber": "9", "addr:postcode": "67051", "addr:street": "Via Colaneri", "amenity": "cafe", "cuisine": "coffee_shop", "description": "Caff\u00e8 Letterario - Vieniviaconme", "internet_access": "yes", "internet_access:fee": "no", "name": "Vieniviaconme", "note": "Libri e caff\u00e8", "outdoor_seating": "yes", "smoking": "no"}}, {"type": "node", "id": 4639775192, "lat": 42.0431081, "lon": 13.4418999, "tags": {"addr:city": "Avezzano", "addr:postcode": "67051", "addr:street": "Via dei Gladioli", "amenity": "cafe", "cuisine": "italian", "internet_access": "no", "name": "Avezzano Rugby Clubhouse", "opening_hours": "15:00 - 22:00", "outdoor_seating": "yes", "smoking": "no"}}, {"type": "node", "id": 4661053088, "lat": 42.025715, "lon": 13.4337851, "tags": {"addr:city": "Avezzano", "addr:postcode": "67051", "addr:street": "Via Giuseppe Garibaldi", "amenity": "restaurant", "delivery": "no", "name": "Mammar\u00f2ssa", "takeaway": "no"}}, {"type": "node", "id": 4664924097, "lat": 42.0430595, "lon": 13.4231481}, {"type": "node", "id": 4664924133, "lat": 42.0430968, "lon": 13.4232793}, {"type": "node", "id": 4664924142, "lat": 42.0429636, "lon": 13.4231976}, {"type": "node", "id": 4664924144, "lat": 42.0430009, "lon": 13.4233288}, {"type": "node", "id": 4681910390, "lat": 41.6811882, "lon": 13.5715099}, {"type": "node", "id": 4681910391, "lat": 41.6812751, "lon": 13.5716058}, {"type": "node", "id": 4681910392, "lat": 41.6811675, "lon": 13.5717803}, {"type": "node", "id": 4681910393, "lat": 41.6810807, "lon": 13.5716844}, {"type": "node", "id": 4681925339, "lat": 41.6796774, "lon": 13.5718227, "tags": {"amenity": "cafe", "name": "Bar del Corso"}}, {"type": "node", "id": 4681925341, "lat": 41.6793629, "lon": 13.5719823, "tags": {"amenity": "cafe", "name": "La Terrazza"}}, {"type": "node", "id": 4681925342, "lat": 41.6792948, "lon": 13.5718844, "tags": {"amenity": "restaurant", "name": "Trattoria Le Scalette"}}, {"type": "node", "id": 4681926444, "lat": 41.6792367, "lon": 13.5713935, "tags": {"amenity": "restaurant", "name": "Ristorante Pizzeria Rugantino", "phone": "+39 0776 807055"}}, {"type": "node", "id": 4687305783, "lat": 41.7180709, "lon": 13.6124347, "tags": {"amenity": "cafe", "name": "Bar Roma"}}, {"type": "node", "id": 4701338456, "lat": 42.0851614, "lon": 13.5458999, "tags": {"addr:city": "Celano", "addr:housenumber": "19", "addr:postcode": "67043", "addr:street": "Via Porta Nuova", "amenity": "restaurant", "cuisine": "regional", "name": "La Locanda Del Castello", "phone": "+39 327 7013313", "takeaway": "no"}}, {"type": "node", "id": 4701339771, "lat": 42.0851129, "lon": 13.54441, "tags": {"amenity": "cafe"}}, {"type": "node", "id": 4705858956, "lat": 41.7163004, "lon": 13.6124184, "tags": {"amenity": "cafe", "name": "Il Papero"}}, {"type": "node", "id": 4705878827, "lat": 41.714934, "lon": 13.6123819, "tags": {"amenity": "cafe", "name": "Bar Vittorio"}}, {"type": "node", "id": 4708424711, "lat": 41.7132524, "lon": 13.6092583, "tags": {"amenity": "cafe", "name": "Bar Pizzeria"}}, {"type": "node", "id": 4712129855, "lat": 41.7200521, "lon": 13.6174549, "tags": {"amenity": "cafe"}}, {"type": "node", "id": 4712129933, "lat": 41.7182452, "lon": 13.6186467, "tags": {"amenity": "restaurant", "name": "La Posta Catering"}}, {"type": "node", "id": 4712228022, "lat": 41.7202273, "lon": 13.6177834, "tags": {"amenity": "cafe", "name": "Bar Italia"}}, {"type": "node", "id": 4735885207, "lat": 41.7932168, "lon": 13.2063923}, {"type": "node", "id": 4735885208, "lat": 41.7931826, "lon": 13.2067278}, {"type": "node", "id": 4735885209, "lat": 41.793396, "lon": 13.2067668}, {"type": "node", "id": 4735885210, "lat": 41.7934092, "lon": 13.2066369}, {"type": "node", "id": 4735885211, "lat": 41.7933358, "lon": 13.2066234}, {"type": "node", "id": 4735885212, "lat": 41.793347, "lon": 13.2065135}, {"type": "node", "id": 4735885213, "lat": 41.7934418, "lon": 13.2065309}, {"type": "node", "id": 4735885214, "lat": 41.7934515, "lon": 13.2064352}, {"type": "node", "id": 4768674957, "lat": 42.0343395, "lon": 13.4225604, "tags": {"addr:city": "Avezzano", "addr:housenumber": "78", "addr:postcode": "67051", "addr:street": "Via Camillo Corradini", "amenity": "restaurant", "cuisine": "pizza", "name": "Granocielo"}}, {"type": "node", "id": 5178412971, "lat": 42.0099361, "lon": 13.3443923, "tags": {"amenity": "restaurant", "capacity": "50", "name": "Agriturismo Le Acacie", "outdoor_seating": "yes"}}, {"type": "node", "id": 5189493034, "lat": 42.0416958, "lon": 13.4410731, "tags": {"amenity": "restaurant", "name": "Le Ginestre"}}, {"type": "node", "id": 5239767104, "lat": 42.0377062, "lon": 13.4371913}, {"type": "node", "id": 5239767105, "lat": 42.0376523, "lon": 13.4370913}, {"type": "node", "id": 5239767106, "lat": 42.0376345, "lon": 13.437109}, {"type": "node", "id": 5239767107, "lat": 42.0376161, "lon": 13.437078}, {"type": "node", "id": 5239767108, "lat": 42.0375951, "lon": 13.4371001}, {"type": "node", "id": 5239767109, "lat": 42.0375611, "lon": 13.4370341}, {"type": "node", "id": 5239767110, "lat": 42.0374045, "lon": 13.4372037}, {"type": "node", "id": 5239767111, "lat": 42.0374499, "lon": 13.4372868}, {"type": "node", "id": 5239767112, "lat": 42.0374356, "lon": 13.4373013}, {"type": "node", "id": 5239767113, "lat": 42.0374854, "lon": 13.4374116}, {"type": "node", "id": 5239767114, "lat": 42.037532, "lon": 13.4373789}, {"type": "node", "id": 5239767115, "lat": 42.0376674, "lon": 13.4372364}, {"type": "node", "id": 5251115910, "lat": 42.0378344, "lon": 13.4449159}, {"type": "node", "id": 5251115911, "lat": 42.0376944, "lon": 13.4449943}, {"type": "node", "id": 5251115912, "lat": 42.0376874, "lon": 13.4449716}, {"type": "node", "id": 5251115913, "lat": 42.0375953, "lon": 13.4450232}, {"type": "node", "id": 5251115914, "lat": 42.0375517, "lon": 13.4448819}, {"type": "node", "id": 5251115915, "lat": 42.0376052, "lon": 13.4448519}, {"type": "node", "id": 5251115916, "lat": 42.0375883, "lon": 13.4447971}, {"type": "node", "id": 5251115917, "lat": 42.0377668, "lon": 13.4446971}, {"type": "node", "id": 5271223285, "lat": 42.0290996, "lon": 13.7179424}, {"type": "node", "id": 5271223286, "lat": 42.0289287, "lon": 13.7178341}, {"type": "node", "id": 5271223287, "lat": 42.0288466, "lon": 13.7180146}, {"type": "node", "id": 5271223288, "lat": 42.0290074, "lon": 13.7181409}, {"type": "node", "id": 5271223289, "lat": 42.0290577, "lon": 13.7180462}, {"type": "node", "id": 5307084596, "lat": 41.6621543, "lon": 13.3783376, "tags": {"amenity": "restaurant", "cuisine": "chinese", "name": "La Primavera", "opening_hours": "Mo-Su 11:00-15:00, 18:00-00:00", "phone": "+39 0775 307018"}}, {"type": "node", "id": 5307084605, "lat": 41.6627374, "lon": 13.3829349, "tags": {"amenity": "restaurant", "name": "Trattoria della Posta", "phone": "+39 0775 308404"}}, {"type": "node", "id": 5307141214, "lat": 41.6627837, "lon": 13.3844859, "tags": {"amenity": "cafe", "name": "Caffe&Lotto", "opening_hours": "Mo-Sa 08:00-20:00", "phone": "+39 0775 308383"}}, {"type": "node", "id": 5628673132, "lat": 41.6450479, "lon": 13.3321357}, {"type": "node", "id": 5628673133, "lat": 41.6449978, "lon": 13.3320924}, {"type": "node", "id": 5628673134, "lat": 41.6449618, "lon": 13.3321844}, {"type": "node", "id": 5628673135, "lat": 41.6450128, "lon": 13.3322216}, {"type": "node", "id": 5645671500, "lat": 41.6526024, "lon": 13.3430298, "tags": {"addr:housenumber": "168", "addr:street": "Via Tiburtina", "amenity": "restaurant", "cuisine": "araba;kebab", "name": "Bella Istanbul", "opening_hours": "Mo,We-Sa 16:00-02:00; Su 16:00-24:00", "phone": "327 183 3244"}}, {"type": "node", "id": 5645671502, "lat": 41.6530041, "lon": 13.3426697, "tags": {"addr:housenumber": "1", "addr:street": "Piazza Madonna della Neve", "amenity": "restaurant", "cuisine": "seafood;italian", "name": "Ristorante \"Sora Giulia\"", "opening_hours": "Tu-Su 10:00-23:30", "phone": "+39 0775 824070"}}, {"type": "node", "id": 5645671943, "lat": 41.654279, "lon": 13.3420707, "tags": {"addr:housenumber": "79", "addr:street": "Via per Fiuggi", "amenity": "restaurant", "cuisine": "chinese;japanese", "name": "Ristorante \"La Grande Muraglia\"", "opening_hours": "Mo-Su 12:00-15:00,18:00-24:00", "phone": "+39 0775 270663"}}, {"type": "node", "id": 5663726921, "lat": 41.6797553, "lon": 13.3496946, "tags": {"addr:city": "Frosinone", "addr:postcode": "03100", "addr:street": "Strada Statale 155 Montelena", "amenity": "restaurant", "cuisine": "regional", "name": "Bacco e Ciacco", "opening_hours": "Tu-Su 12:00-15:00, 19:00-23:00", "phone": "+39 0775 447090"}}, {"type": "node", "id": 5663726922, "lat": 41.6791172, "lon": 13.3548144, "tags": {"addr:city": "Alatri", "addr:housenumber": "120", "addr:postcode": "03011", "addr:street": "Via Montelena Nuova", "amenity": "restaurant", "capacity": "200", "cuisine": "regional;pizza;italian;burger", "name": "Ristorante - Centro Sportivo \"Villa Verde\""}}, {"type": "node", "id": 5677145930, "lat": 41.6497381, "lon": 13.3373832, "tags": {"addr:city": "Frosinone", "addr:housenumber": "21", "addr:postcode": "03100", "addr:street": "Via Casilina", "amenity": "restaurant", "cuisine": "pizza", "name": "Pizza alla Pala", "phone": "+39 338 3353866"}}, {"type": "node", "id": 5717172174, "lat": 41.6951049, "lon": 13.2355003, "tags": {"addr:city": "Ferentino", "addr:housenumber": "21", "addr:postcode": "03013", "addr:street": "Via Casilina", "amenity": "restaurant", "capacity": "0", "cuisine": "pizza;regional", "name": "Tot\u00f2 e Peppino Pizzeria Ristorante", "opening_hours": "Tu-Su 12:00-23:00", "phone": "+39 347 6760340", "takeaway": "yes"}}, {"type": "node", "id": 5718774371, "lat": 42.0511576, "lon": 13.4164676, "tags": {"addr:city": "Avezzano", "addr:postcode": "67051", "addr:street": "Via Giuseppe Di Vittorio", "amenity": "restaurant", "cuisine": "pizza", "name": "Pizzeria Il Sughino"}}, {"type": "node", "id": 5748695099, "lat": 41.6437309, "lon": 13.3464763, "tags": {"addr:city": "Frosinone", "addr:housenumber": "173", "addr:postcode": "03100", "addr:street": "Via Aldo Moro", "amenity": "restaurant", "cuisine": "pizza", "name": "Pizzeria Greco Alessandro", "opening_hours": "Mo-Fr 09:00-02:00, Sa-Su 15:00-02:30", "outdoor_seating": "yes", "phone": "+39 0775 820042", "takeaway": "yes"}}, {"type": "node", "id": 5748713541, "lat": 41.6440014, "lon": 13.3458211, "tags": {"addr:city": "Frosinone", "addr:housenumber": "4", "addr:postcode": "03100", "addr:street": "Via Tagliamento", "amenity": "restaurant", "capacity": "50", "cuisine": "pizza", "delivery": "no", "name": "Frenzy Pizza", "opening_hours": "Tu-Th 10:30-22:30; Fr-Su 16:30-22:30", "outdoor_seating": "no", "phone": "+39 0775 962 455", "takeaway": "yes"}}, {"type": "node", "id": 5753501522, "lat": 41.7190127, "lon": 13.6125298, "tags": {"addr:city": "Sora", "addr:housenumber": "17", "addr:postcode": "03039", "addr:street": "Lungoliri Rosati", "amenity": "restaurant", "cuisine": "italian;regional;seafood;pizza", "name": "IL Grottino", "outdoor_seating": "yes", "takeaway": "yes"}}, {"type": "node", "id": 5754012492, "lat": 41.6459611, "lon": 13.3491748, "tags": {"addr:housenumber": "1/H", "addr:street": "Via Aldo Moro", "amenity": "restaurant", "name": "Glamour Food Station"}}, {"type": "node", "id": 5754715481, "lat": 41.6464281, "lon": 13.3493546, "tags": {"addr:street": "Piazzale De Matthaeis", "amenity": "restaurant", "name": "Loft", "opening_hours": "Mo-Su 12:00-16:30,19:00-02:00", "phone": "+39 0775 824056"}}, {"type": "node", "id": 5758016150, "lat": 41.6525194, "lon": 13.3421426, "tags": {"addr:city": "Frosinone", "addr:housenumber": "10", "addr:postcode": "03100", "addr:street": "Piazza Madonna Delle Neve", "amenity": "restaurant", "cuisine": "regional;italian", "name": "Osteria Panzini", "opening_hours": "Mo-Fr 12:30-15:30, 19:30-23:00; Sa 12:30-15:30, 19:30-23:30", "phone": "+39 0775 823089"}}, {"type": "node", "id": 5758050406, "lat": 41.6440221, "lon": 13.3478457, "tags": {"addr:city": "Frosinone", "addr:housenumber": "131", "addr:postcode": "03100", "addr:street": "Via Aldo Moro", "amenity": "restaurant", "brand": "100 Montaditos", "brand:wikidata": "Q8355805", "brand:wikipedia": "en:Cervecer\u00eda 100 Montaditos", "cuisine": "sandwich", "name": "100 Montaditos", "outdoor_seating": "yes", "phone": "+39 3395646256", "takeaway": "yes"}}, {"type": "node", "id": 5758618458, "lat": 41.6516351, "lon": 13.3442668, "tags": {"addr:city": "Frosinone", "addr:housenumber": "175", "addr:postcode": "03100", "addr:street": "Via Tiburtina", "amenity": "restaurant", "capacity": "100", "cuisine": "italian;pizza", "name": "Pepe Nero", "opening_hours": "Mo-Su 11:00-16:00,17:00-01:00", "outdoor_seating": "yes", "phone": "+39 0775 271184", "takeaway": "yes"}}, {"type": "node", "id": 5761891358, "lat": 41.6922894, "lon": 13.2555324}, {"type": "node", "id": 5761891359, "lat": 41.6922608, "lon": 13.2556736}, {"type": "node", "id": 5761891360, "lat": 41.6920764, "lon": 13.2556141}, {"type": "node", "id": 5761891361, "lat": 41.6921001, "lon": 13.2554735}, {"type": "node", "id": 5767457636, "lat": 41.6832731, "lon": 13.3748292, "tags": {"addr:housenumber": "26", "addr:street": "Via Mole Bisleti", "amenity": "restaurant", "name": "Spanky", "phone": "+39 0775 407276", "website": "http://birreriaspanky.it"}}, {"type": "node", "id": 5779209037, "lat": 41.6428334, "lon": 13.345664, "tags": {"addr:housenumber": "311", "addr:street": "Via Aldo Moro", "amenity": "restaurant", "cuisine": "pizza", "name": "Mystic Pizza", "phone": "+39 0775857641"}}, {"type": "node", "id": 5798725474, "lat": 41.641702, "lon": 13.3448828, "tags": {"addr:city": "Frosinone", "addr:housenumber": "351", "addr:postcode": "03100", "addr:street": "Via Aldo Moro", "amenity": "restaurant", "capacity": "40", "cuisine": "burger;kebab;chips", "name": "Paninoteca Fabrizio - \"Il Buchetto\"", "opening_hours": "Mo-Fr 10:00-02:00; Sa 10:00-04:00; Su 16:00-03:00", "outdoor_seating": "yes", "phone": "+39 0775 1562336", "takeaway": "yes"}}, {"type": "node", "id": 5798725478, "lat": 41.6470914, "lon": 13.3473812, "tags": {"addr:city": "Frosinone", "addr:housenumber": "24/26", "addr:postcode": "03100", "addr:street": "Via Marco Tullio Cicerone", "amenity": "restaurant", "capacity": "50", "cuisine": "pizza;italian", "delivery": "no", "name": "Pizza Italiana A Pezzi", "outdoor_seating": "yes", "phone": "+39 0775 961454", "takeaway": "yes"}}, {"type": "node", "id": 5878345234, "lat": 41.65267, "lon": 13.3424832, "tags": {"addr:city": "Frosinone", "addr:housenumber": "335", "addr:postcode": "03100", "addr:street": "Via Tiburtina", "amenity": "restaurant", "cuisine": "pizza;italian", "name": "Il Gusto In Piazza", "opening_hours": "We-Fr 12:00-15:00,19:00-23:30; Sa 18:00-24:00; Su 12:00-15:00,18:00-24:00; Mo 12:00-15:00,19:00-23:30", "outdoor_seating": "yes", "phone": "+39 0775 189 5550", "takeaway": "yes"}}, {"type": "node", "id": 5880866387, "lat": 41.6464338, "lon": 13.3430153, "tags": {"amenity": "restaurant", "cuisine": "pizza"}}, {"type": "node", "id": 5880866388, "lat": 41.6465784, "lon": 13.342507, "tags": {"addr:city": "Frosinone", "addr:housenumber": "31", "addr:postcode": "03100", "addr:street": "Via Marcello Mastroianni", "amenity": "cafe", "name": "Caff\u00e8 Mastroianni", "outdoor_seating": "yes", "phone": "+390775 961500", "smoking": "outside"}}, {"type": "node", "id": 5884148394, "lat": 41.6644566, "lon": 13.4311628, "tags": {"addr:city": "Veroli", "addr:housenumber": "20", "addr:postcode": "03029", "addr:street": "Via I Lucii", "amenity": "restaurant", "capacity": "50", "cuisine": "pizzeria;regional;italian", "delivery": "no", "name": "Nuvolificio Campano Pizzeria", "opening_hours": "Mo off, Tu-Su 17:00-00:00", "outdoor_seating": "yes", "phone": "+390775 169 5040", "takeaway": "yes"}}, {"type": "node", "id": 5884165140, "lat": 41.6626867, "lon": 13.4297976, "tags": {"addr:city": "Veroli", "addr:housenumber": "157A", "addr:postcode": "03029", "addr:street": "Via Colle Capito", "amenity": "restaurant", "cuisine": "regional;pizza;italian", "name": "Ristorante Pizzeria Lo Chef", "opening_hours": "Mo 09:00-17:00,  Tu-Su 11:00-00:00", "phone": "+39349 814 1477", "takeaway": "yes"}}, {"type": "node", "id": 5944005998, "lat": 41.6463918, "lon": 13.3495115, "tags": {"addr:city": "Frosinone", "addr:postcode": "03100", "addr:street": "Piazzale De Matthaeis", "amenity": "restaurant", "capacity": "50", "cuisine": "japanese", "delivery": "no", "name": "Sak\u00e8", "outdoor_seating": "no", "takeaway": "yes"}}, {"type": "node", "id": 6004378098, "lat": 41.8622266, "lon": 13.439619, "tags": {"addr:city": "Morino", "addr:housenumber": "49", "addr:postcode": "67050", "addr:street": "Via della Vittoria", "amenity": "restaurant", "cuisine": "regional;burger;coffee_shop;sandwich", "name": "Orange Caff\u00e8", "outdoor_seating": "yes", "phone": "+39 0863 978446", "takeaway": "yes"}}, {"type": "node", "id": 6223793782, "lat": 41.6988489, "lon": 13.5832757}, {"type": "node", "id": 6223793783, "lat": 41.6987304, "lon": 13.5832923}, {"type": "node", "id": 6223793784, "lat": 41.6985842, "lon": 13.583066}, {"type": "node", "id": 6223799385, "lat": 41.698785, "lon": 13.582837}, {"type": "node", "id": 6223799386, "lat": 41.6989725, "lon": 13.5831295}, {"type": "node", "id": 6236247287, "lat": 41.720751, "lon": 13.6151155, "tags": {"amenity": "cafe", "name": "Pap\u00e0 Rossi", "outdoor_seating": "yes"}}, {"type": "node", "id": 6305969896, "lat": 41.9670872, "lon": 13.3926612}, {"type": "node", "id": 6305969897, "lat": 41.9672847, "lon": 13.3926438}, {"type": "node", "id": 6305969898, "lat": 41.9671324, "lon": 13.3925406}, {"type": "node", "id": 6339736333, "lat": 41.9583449, "lon": 13.5364875, "tags": {"addr:city": "Trasacco", "addr:housenumber": "20", "addr:postcode": "67059", "addr:street": "Piazza Matteotti", "amenity": "cafe", "brewery": "yes", "name": "Gran Caff\u00e8 Pilato", "outdoor_seating": "yes", "payment:account_cards": "yes", "payment:app": "yes", "payment:cards": "yes", "payment:cash": "yes", "payment:contactless": "yes", "phone": "+39 333 3914196"}}, {"type": "node", "id": 6363098859, "lat": 41.9585528, "lon": 13.5352279, "tags": {"amenity": "cafe", "name": "Gnuff"}}, {"type": "node", "id": 6363098860, "lat": 41.9588408, "lon": 13.5337034, "tags": {"addr:city": "Trasacco", "addr:postcode": "67059", "amenity": "cafe", "name": "Il tempio"}}, {"type": "node", "id": 6363099097, "lat": 41.9588427, "lon": 13.5361806, "tags": {"amenity": "cafe", "name": "La grotta"}}, {"type": "node", "id": 6363119019, "lat": 41.9584697, "lon": 13.538718, "tags": {"amenity": "cafe", "name": "La Basilica"}}, {"type": "node", "id": 6363119021, "lat": 41.9580455, "lon": 13.5389555, "tags": {"amenity": "restaurant", "cuisine": "pizza", "name": "Wilma Marwil"}}, {"type": "node", "id": 6363124397, "lat": 41.9584286, "lon": 13.5355997}, {"type": "node", "id": 6363124398, "lat": 41.9584184, "lon": 13.5357615}, {"type": "node", "id": 6363124399, "lat": 41.9583608, "lon": 13.5357615}, {"type": "node", "id": 6363124400, "lat": 41.958371, "lon": 13.5356316}, {"type": "node", "id": 6363142389, "lat": 41.9607638, "lon": 13.5221867}, {"type": "node", "id": 6363142390, "lat": 41.9608447, "lon": 13.5225119}, {"type": "node", "id": 6363142392, "lat": 41.9605184, "lon": 13.522271}, {"type": "node", "id": 6401011614, "lat": 41.8907648, "lon": 13.324294, "tags": {"addr:city": "Filettino", "addr:housenumber": "1", "addr:street": "Piazza Arcangelo Caraffa", "amenity": "restaurant", "cuisine": "regional", "name": "Le Scalette"}}, {"type": "node", "id": 6401011615, "lat": 41.889449, "lon": 13.3240285, "tags": {"addr:city": "Filettino", "addr:housenumber": "3", "addr:street": "Via del Mercato", "amenity": "restaurant", "cuisine": "regional", "name": "La Galleria"}}, {"type": "node", "id": 6432257728, "lat": 41.6409609, "lon": 13.3264168, "tags": {"addr:city": "Frosinone", "addr:housenumber": "111", "addr:postcode": "03100", "addr:street": "Via Fedele Calvosa", "amenity": "cafe", "name": "Caff\u00e8 Martini", "outdoor_seating": "yes", "phone": "+39 331 599 4304"}}, {"type": "node", "id": 6593100572, "lat": 41.6647573, "lon": 13.3702953, "tags": {"addr:housenumber": "435", "addr:street": "Via Castelmassimo", "amenity": "restaurant", "cuisine": "italian", "name": "L'Aia Antica", "phone": "+39 0775 309115", "website": "https://www.aiaantica.it/"}}, {"type": "node", "id": 6593155520, "lat": 41.6599932, "lon": 13.3639369, "tags": {"amenity": "cafe", "name": "Bar 377", "opening_hours": "Tu-Su 08:00-24:00", "phone": "+39 0775 309118"}}, {"type": "node", "id": 6593155524, "lat": 41.6600914, "lon": 13.3642373, "tags": {"amenity": "restaurant", "cuisine": "seafood", "name": "Il Pescatore", "phone": "+39 0775 308391", "website": "https://www.massimocirilloristoranteveroli.it/"}}, {"type": "node", "id": 6711071036, "lat": 41.778304, "lon": 13.2496767, "tags": {"addr:street": "Strada Regionale 155 di Fiuggi", "amenity": "restaurant", "cuisine": "regional", "name": "La Ripa", "phone": "+39 0775 514294", "website": "https://www.hristorantelaripa.it/ristorante-a-fiuggi/"}}, {"type": "node", "id": 6791173582, "lat": 41.6807553, "lon": 13.2580034, "tags": {"amenity": "restaurant", "description": "ampio spazio all'aperto, un ristorante semplice e genuino all'apparenza ma sperimentale nella proposta dei piatti (la tradizione \u00e8 comunque salvaguardata...)", "name": "Le quattro stagioni"}}, {"type": "node", "id": 6854952170, "lat": 41.7715354, "lon": 13.4882126, "tags": {"amenity": "restaurant", "name": "Ristorante il Faggio"}}, {"type": "node", "id": 6950725583, "lat": 41.9468143, "lon": 13.527986, "tags": {"addr:city": "Trasacco", "addr:postcode": "67059", "addr:street": "Via Garibaldi", "amenity": "restaurant", "cuisine": "pizza", "name": "Pane e olio", "operator": "Valeria Grilli", "phone": "+39 333 5461487"}}, {"type": "node", "id": 7082275935, "lat": 41.6468299, "lon": 13.3437309, "tags": {"addr:city": "Frosinone", "addr:housenumber": "2", "addr:postcode": "03100", "addr:street": "Via Marcello Mastroianni", "amenity": "restaurant", "contact:facebook": "https://www.facebook.com/ristorantesaporesapere/", "name": "Sapore \u00e9 Sapere Ristorante", "phone": "+39 0775 1561428"}}, {"type": "node", "id": 7082405662, "lat": 41.646107, "lon": 13.3433065, "tags": {"addr:city": "Frosinone", "addr:housenumber": "16", "addr:postcode": "03100", "addr:street": "Via Marcello Mastroianni", "amenity": "cafe", "name": "Caff\u00e8 del Parco", "outdoor_seating": "yes", "phone": "+39 0775 873473"}}, {"type": "node", "id": 7107983369, "lat": 42.0270558, "lon": 13.6481027, "tags": {"addr:city": "Pescina", "addr:housenumber": "160", "addr:postcode": "67057", "addr:street": "Via Serafino Rinaldi", "amenity": "cafe", "name": "Caff\u00e8 dei Marsi", "phone": "+39 3389299806"}}, {"type": "node", "id": 7107983370, "lat": 42.0284206, "lon": 13.6460776, "tags": {"addr:city": "Pescina", "addr:housenumber": "326", "addr:postcode": "67057", "addr:street": "Via Serafino Rinaldi", "amenity": "restaurant", "name": "Ristorante Valle Del Giovenco", "opening_hours": "Mo-Su 08:00-23:00", "phone": "+39 0863842191", "website": "http://www.ristorantevalledelgiovenco.it/"}}, {"type": "node", "id": 7108653641, "lat": 42.0284711, "lon": 13.6639358, "tags": {"addr:city": "Pescina", "addr:postcode": "67057", "addr:street": "Via Romolo Tranquilli", "amenity": "restaurant", "name": "Agriturismo Antica Locanda del Giovenco", "opening_hours": "Th-Fr 18:30-23:00; Sa 18:30-23:15; Su 12:30-14:30, 18:30-22:00", "phone": "+39 3339654746"}}, {"type": "node", "id": 7121834785, "lat": 41.6466411, "lon": 13.3432593, "tags": {"addr:city": "Frosinone", "addr:housenumber": "13", "addr:postcode": "03100", "addr:street": "Piazza Federico Fellini", "amenity": "restaurant", "cuisine": "chinese", "name": "Sakura", "opening_hours": "Mo-Su 12:00-15:30, 19:00-23:00", "phone": "+39 393 555 6578"}}, {"type": "node", "id": 7172502286, "lat": 41.8595728, "lon": 13.229835}, {"type": "node", "id": 7172502287, "lat": 41.8594068, "lon": 13.229856}, {"type": "node", "id": 7172502288, "lat": 41.8594174, "lon": 13.2300073}, {"type": "node", "id": 7172502289, "lat": 41.8594584, "lon": 13.2300021}, {"type": "node", "id": 7172502290, "lat": 41.8594612, "lon": 13.2300417}, {"type": "node", "id": 7172502291, "lat": 41.8595232, "lon": 13.2300339}, {"type": "node", "id": 7172502292, "lat": 41.8595191, "lon": 13.2299747}, {"type": "node", "id": 7172502293, "lat": 41.859582, "lon": 13.2299667}, {"type": "node", "id": 7212263479, "lat": 41.8727272, "lon": 13.6152944}, {"type": "node", "id": 7212263480, "lat": 41.8727968, "lon": 13.6153575}, {"type": "node", "id": 7212263481, "lat": 41.8728489, "lon": 13.6154485}, {"type": "node", "id": 7212263482, "lat": 41.8728034, "lon": 13.6155081}, {"type": "node", "id": 7212308352, "lat": 41.9585845, "lon": 13.5346724}, {"type": "node", "id": 7212308353, "lat": 41.9585495, "lon": 13.534839}, {"type": "node", "id": 7212308354, "lat": 41.9584742, "lon": 13.5348104}, {"type": "node", "id": 7212308355, "lat": 41.9585092, "lon": 13.5346438}, {"type": "node", "id": 7212316467, "lat": 41.9597105, "lon": 13.5325429}, {"type": "node", "id": 7212316468, "lat": 41.9597295, "lon": 13.5326497}, {"type": "node", "id": 7212316469, "lat": 41.9596333, "lon": 13.5325678}, {"type": "node", "id": 7216331689, "lat": 41.8726805, "lon": 13.6153338}, {"type": "node", "id": 7216753453, "lat": 41.9596523, "lon": 13.5326746}, {"type": "node", "id": 7335256355, "lat": 41.9569111, "lon": 13.5313171}, {"type": "node", "id": 7335256356, "lat": 41.9570875, "lon": 13.5312247}, {"type": "node", "id": 7335256357, "lat": 41.9571723, "lon": 13.5315051}, {"type": "node", "id": 7335256358, "lat": 41.9569867, "lon": 13.5315883}, {"type": "node", "id": 7335256367, "lat": 41.9577176, "lon": 13.5389458, "tags": {"amenity": "cafe", "name": "l'Annapi"}}, {"type": "node", "id": 7335852313, "lat": 41.9608402, "lon": 13.5225356}, {"type": "node", "id": 7335852317, "lat": 41.9605018, "lon": 13.5223825}, {"type": "node", "id": 7335852318, "lat": 41.9605193, "lon": 13.522471}, {"type": "node", "id": 7335852319, "lat": 41.9602875, "lon": 13.5225538}, {"type": "node", "id": 7335852320, "lat": 41.96027, "lon": 13.5224652}, {"type": "node", "id": 7335878747, "lat": 41.9627253, "lon": 13.5220726}, {"type": "node", "id": 7335878748, "lat": 41.9627394, "lon": 13.5222003}, {"type": "node", "id": 7335878749, "lat": 41.9625713, "lon": 13.5222061}, {"type": "node", "id": 7335878750, "lat": 41.9624847, "lon": 13.5220228}, {"type": "node", "id": 7335878751, "lat": 41.9625575, "lon": 13.5220083}, {"type": "node", "id": 7335878752, "lat": 41.962568, "lon": 13.5221039}, {"type": "node", "id": 7364296454, "lat": 41.8780683, "lon": 13.6183387}, {"type": "node", "id": 7364296455, "lat": 41.8779375, "lon": 13.6185219}, {"type": "node", "id": 7364296456, "lat": 41.8778397, "lon": 13.6183958}, {"type": "node", "id": 7364296457, "lat": 41.8779705, "lon": 13.6182127}, {"type": "node", "id": 7364318275, "lat": 41.8778135, "lon": 13.6109947}, {"type": "node", "id": 7364318276, "lat": 41.8777167, "lon": 13.6112091}, {"type": "node", "id": 7364318277, "lat": 41.8774935, "lon": 13.6110273}, {"type": "node", "id": 7364318278, "lat": 41.8775904, "lon": 13.6108128}, {"type": "node", "id": 7364318281, "lat": 41.8882083, "lon": 13.5823278, "tags": {"amenity": "cafe", "name": "Bar Papillon"}}, {"type": "node", "id": 7392878579, "lat": 42.0704902, "lon": 13.5532068, "tags": {"amenity": "restaurant", "check_date": "2023-09-06", "name": "Il Fortino Ristorante Hotel", "phone": "+393394080595", "tourism": "hotel"}}, {"type": "node", "id": 7392943685, "lat": 41.7127393, "lon": 13.6040699, "tags": {"addr:city": "Sora", "addr:housenumber": "6", "addr:postcode": "03039", "addr:street": "Viale San Domenico", "amenity": "cafe", "name": "Caff\u00e8 Novecento", "opening_hours": "Mo-Sa 06:30-21:30"}}, {"type": "node", "id": 7392958449, "lat": 41.7101063, "lon": 13.5995111, "tags": {"addr:city": "Sora", "addr:housenumber": "33", "addr:postcode": "03039", "addr:street": "Viale San Domenico", "amenity": "cafe", "name": "Caff\u00e8 Del Viale", "opening_hours": "Mo 00:00-02:00,05:00-13:00; Tu-Su 00:00-24:00", "phone": "+390776813535"}}, {"type": "node", "id": 7618309485, "lat": 42.0993437, "lon": 13.5101804, "tags": {"addr:city": "Santa Jona", "addr:postcode": "67046", "addr:street": "Piazza Aia", "amenity": "restaurant", "contact:mobile": "+39 338 976 2410", "facebook": "https://www.facebook.com/LArchetto-di-Rapetti-Agata-558581450831439/", "name": "L'archetto", "opening_hours": "Mo,We-Su 12:00-22:30", "phone": "+39 0863 790218"}}, {"type": "node", "id": 7619172862, "lat": 42.0997469, "lon": 13.509462, "tags": {"addr:city": "Santa Jona", "addr:postcode": "67046", "addr:street": "Piazza Antonio Leonardi", "amenity": "cafe", "name": "Bar Di Giulio Donato", "phone": "+39 0863 790410"}}, {"type": "node", "id": 7640804840, "lat": 41.7429103, "lon": 13.6635646, "tags": {"amenity": "restaurant", "cuisine": "italian;pizza", "name": "Pizzeria Nonno Vincenzo", "phone": "+39 3490025217", "website": "https://www.facebook.com/pizzerianonnovincenzo/"}}, {"type": "node", "id": 7737940172, "lat": 41.7522138, "lon": 13.7283056, "tags": {"amenity": "restaurant", "name": "Il Covo dei Briganti"}}, {"type": "node", "id": 7737943814, "lat": 41.7393639, "lon": 13.7409539, "tags": {"amenity": "restaurant", "name": "Rifugio Belvedere"}}, {"type": "node", "id": 7822428770, "lat": 41.7488099, "lon": 13.2600804}, {"type": "node", "id": 7822428771, "lat": 41.7487278, "lon": 13.2599284}, {"type": "node", "id": 7822428772, "lat": 41.748713, "lon": 13.2599427}, {"type": "node", "id": 7822428773, "lat": 41.7486908, "lon": 13.2599017}, {"type": "node", "id": 7822428774, "lat": 41.7485289, "lon": 13.2600589}, {"type": "node", "id": 7822428775, "lat": 41.7485588, "lon": 13.2601142}, {"type": "node", "id": 7822428776, "lat": 41.7485305, "lon": 13.2601416}, {"type": "node", "id": 7822428777, "lat": 41.7485794, "lon": 13.2602321}, {"type": "node", "id": 7822428778, "lat": 41.7486336, "lon": 13.2601794}, {"type": "node", "id": 7822428779, "lat": 41.7486591, "lon": 13.2602267}, {"type": "node", "id": 7822443335, "lat": 41.7532165, "lon": 13.2462351}, {"type": "node", "id": 7822443336, "lat": 41.7531815, "lon": 13.2461796}, {"type": "node", "id": 7822443337, "lat": 41.7529551, "lon": 13.2464123}, {"type": "node", "id": 7822443338, "lat": 41.7530108, "lon": 13.2465286}, {"type": "node", "id": 7822443339, "lat": 41.7530562, "lon": 13.2465355}, {"type": "node", "id": 7822443340, "lat": 41.7530884, "lon": 13.2465802}, {"type": "node", "id": 7822443341, "lat": 41.7530688, "lon": 13.246601}, {"type": "node", "id": 7822443342, "lat": 41.75317, "lon": 13.2467288}, {"type": "node", "id": 7822443343, "lat": 41.7534739, "lon": 13.2462721}, {"type": "node", "id": 7822443344, "lat": 41.7534056, "lon": 13.2461742}, {"type": "node", "id": 7822443345, "lat": 41.7533648, "lon": 13.2462197}, {"type": "node", "id": 7822443346, "lat": 41.7532929, "lon": 13.2461042}, {"type": "node", "id": 7822455891, "lat": 41.7485732, "lon": 13.2602206}, {"type": "node", "id": 7822455966, "lat": 41.7522448, "lon": 13.257852}, {"type": "node", "id": 7822455967, "lat": 41.7521893, "lon": 13.2576804}, {"type": "node", "id": 7822455968, "lat": 41.7521119, "lon": 13.2577254}, {"type": "node", "id": 7822455969, "lat": 41.7521238, "lon": 13.2577624}, {"type": "node", "id": 7822455970, "lat": 41.7520825, "lon": 13.2577865}, {"type": "node", "id": 7822455971, "lat": 41.752126, "lon": 13.2579211}, {"type": "node", "id": 7822455998, "lat": 41.7485782, "lon": 13.2600111}, {"type": "node", "id": 7822481004, "lat": 41.7530133, "lon": 13.2463525}, {"type": "node", "id": 7976385536, "lat": 41.6441803, "lon": 13.3460816, "tags": {"addr:housenumber": "138", "addr:street": "Via Aldo Moro", "amenity": "restaurant", "name": "Biker Bistrot", "opening_hours": "Mo,We-Su 17:30-02:00", "phone": "392 219 7998"}}, {"type": "node", "id": 7982725602, "lat": 41.6965389, "lon": 13.6937418}, {"type": "node", "id": 7982725603, "lat": 41.6964043, "lon": 13.6936689}, {"type": "node", "id": 7982725604, "lat": 41.6963467, "lon": 13.6938878}, {"type": "node", "id": 7982725605, "lat": 41.6964748, "lon": 13.6939564}, {"type": "node", "id": 8162525325, "lat": 41.804055, "lon": 13.2220599, "tags": {"addr:housenumber": "2", "addr:street": "Via Giuseppe Garibaldi", "amenity": "restaurant", "cuisine": "italian", "name": "La Grotta", "phone": "+39 0775 514072"}}, {"type": "node", "id": 8164781759, "lat": 42.0337352, "lon": 13.4207314, "tags": {"addr:city": "Avezzano", "addr:housenumber": "34", "addr:postcode": "67051", "addr:street": "Via Camillo Corradini", "amenity": "restaurant", "cuisine": "regional;burger", "name": "Il Postaccio Bacaro Marsicano", "outdoor_seating": "pedestrian_zone", "phone": "+39 0863 413319"}}, {"type": "node", "id": 8164781760, "lat": 42.0335481, "lon": 13.4211576, "tags": {"addr:city": "Avezzano", "addr:housenumber": "8", "addr:postcode": "67051", "addr:street": "Via Eleuterio di Gianfilippo", "addr:unit": "A", "amenity": "restaurant", "cuisine": "pizza", "name": "Pizzeria Mister Fanta", "phone": "+39 0863 25932"}}, {"type": "node", "id": 8184803291, "lat": 42.0840979, "lon": 13.5447836, "tags": {"amenity": "restaurant", "cuisine": "italian", "name": "Madonna delle Vigne"}}, {"type": "node", "id": 8200191271, "lat": 42.0427107, "lon": 13.4093748, "tags": {"amenity": "restaurant", "name": "Napoleone"}}, {"type": "node", "id": 8201873875, "lat": 42.0373419, "lon": 13.415091}, {"type": "node", "id": 8201873876, "lat": 42.0371604, "lon": 13.4152668}, {"type": "node", "id": 8201873877, "lat": 42.0368992, "lon": 13.4148168}, {"type": "node", "id": 8201873878, "lat": 42.0370785, "lon": 13.414635}, {"type": "node", "id": 8510648300, "lat": 41.7076713, "lon": 13.5560281, "tags": {"addr:city": "Sora", "addr:housenumber": "25", "addr:postcode": "03039", "addr:street": "Incoronata", "amenity": "cafe", "name": "Bar Incoronata"}}, {"type": "node", "id": 8807799057, "lat": 41.6776829, "lon": 13.7543791}, {"type": "node", "id": 8807799058, "lat": 41.6786628, "lon": 13.7554174}, {"type": "node", "id": 8807799059, "lat": 41.6788871, "lon": 13.7556963}, {"type": "node", "id": 8807799060, "lat": 41.6790955, "lon": 13.7556319}, {"type": "node", "id": 8807799061, "lat": 41.6791596, "lon": 13.7553745}, {"type": "node", "id": 8807799062, "lat": 41.678823, "lon": 13.7546878}, {"type": "node", "id": 8932194173, "lat": 41.7655873, "lon": 13.6101081}, {"type": "node", "id": 8932194178, "lat": 41.7662726, "lon": 13.6099507, "tags": {"entrance": "main"}}, {"type": "node", "id": 8932194183, "lat": 41.7662885, "lon": 13.6098533}, {"type": "node", "id": 8932194184, "lat": 41.7662558, "lon": 13.6098058}, {"type": "node", "id": 8932194185, "lat": 41.766187, "lon": 13.6098338}, {"type": "node", "id": 8932194186, "lat": 41.7660605, "lon": 13.6097276}, {"type": "node", "id": 8932194187, "lat": 41.7660369, "lon": 13.6095934}, {"type": "node", "id": 8932194188, "lat": 41.765998, "lon": 13.6094322}, {"type": "node", "id": 8932194189, "lat": 41.7659806, "lon": 13.6092254}, {"type": "node", "id": 8932194190, "lat": 41.7659042, "lon": 13.6091192}, {"type": "node", "id": 8932194191, "lat": 41.7657576, "lon": 13.6090102}, {"type": "node", "id": 8932194192, "lat": 41.7656165, "lon": 13.6086952}, {"type": "node", "id": 8932194193, "lat": 41.7655324, "lon": 13.6085984}, {"type": "node", "id": 8932194194, "lat": 41.7654824, "lon": 13.6084176}, {"type": "node", "id": 8932194195, "lat": 41.765417, "lon": 13.6082937}, {"type": "node", "id": 8932194196, "lat": 41.7651551, "lon": 13.6086282}, {"type": "node", "id": 8932194197, "lat": 41.765007, "lon": 13.6089058}, {"type": "node", "id": 8932194198, "lat": 41.7650995, "lon": 13.6090744}, {"type": "node", "id": 8932194199, "lat": 41.7645088, "lon": 13.6101897}, {"type": "node", "id": 8932194200, "lat": 41.7648771, "lon": 13.610349}, {"type": "node", "id": 8932194201, "lat": 41.764948, "lon": 13.6102474}, {"type": "node", "id": 8932194202, "lat": 41.7652523, "lon": 13.6095943}, {"type": "node", "id": 8932194203, "lat": 41.7653406, "lon": 13.6096344}, {"type": "node", "id": 8932194204, "lat": 41.7657937, "lon": 13.6105046}, {"type": "node", "id": 8932194205, "lat": 41.76603, "lon": 13.6102754}, {"type": "node", "id": 8932194206, "lat": 41.7659507, "lon": 13.6100015}, {"type": "node", "id": 8932194207, "lat": 41.7658924, "lon": 13.6099502}, {"type": "node", "id": 8932194208, "lat": 41.7658965, "lon": 13.6099232}, {"type": "node", "id": 8932194209, "lat": 41.7659362, "lon": 13.609844}, {"type": "node", "id": 8932194210, "lat": 41.766005, "lon": 13.6098058}, {"type": "node", "id": 8932194211, "lat": 41.7660508, "lon": 13.6098086}, {"type": "node", "id": 8932194212, "lat": 41.7662537, "lon": 13.6099922}, {"type": "node", "id": 8932194213, "lat": 41.7662899, "lon": 13.609913}, {"type": "node", "id": 8998596253, "lat": 42.0661926, "lon": 13.3825443, "tags": {"addr:city": "Cappelle dei Marsi", "addr:housenumber": "63", "addr:postcode": "67068", "addr:street": "Via del Salto", "amenity": "restaurant", "bar": "yes", "cuisine": "pizza", "name": "Bar pizzeria Al Monumento"}}, {"type": "node", "id": 9007791727, "lat": 41.6447925, "lon": 13.3466394, "tags": {"addr:city": "Frosinone", "addr:country": "IT", "addr:housenumber": "12", "addr:postcode": "03100", "addr:street": "Via Tommaso Landolfi", "amenity": "restaurant", "cuisine": "pizza", "name": "Matusa", "outdoor_seating": "yes", "reservation": "yes", "takeaway": "yes"}}, {"type": "node", "id": 9045742729, "lat": 41.721464, "lon": 13.6065341, "tags": {"amenity": "cafe", "name": "Caf\u00e8 Retr\u00f2"}}, {"type": "node", "id": 9045742747, "lat": 41.7227451, "lon": 13.6053, "tags": {"amenity": "restaurant", "name": "Osteria 'La fraschetta fuori mano'"}}, {"type": "node", "id": 9064206997, "lat": 41.9895378, "lon": 13.336449, "tags": {"amenity": "restaurant", "name": "Ristorante Bellavista"}}, {"type": "node", "id": 9161325860, "lat": 41.700027, "lon": 13.676129}, {"type": "node", "id": 9161325861, "lat": 41.6999809, "lon": 13.6763463}, {"type": "node", "id": 9161325862, "lat": 41.6998931, "lon": 13.6763129}, {"type": "node", "id": 9161325863, "lat": 41.6999391, "lon": 13.6760956}, {"type": "node", "id": 9169690772, "lat": 41.6440409, "lon": 13.3461976, "tags": {"addr:city": "Frosinone", "addr:housenumber": "140", "addr:postcode": "03100", "addr:street": "Via Aldo Moro", "amenity": "restaurant", "cuisine": "toast;cocktail", "name": "Tost\u00e9e", "opening_hours": "Su-We 10:30-00:00; Th-Sa 10:30-01:00", "phone": "+39 0775 156 1392"}}, {"type": "node", "id": 9242721319, "lat": 41.9606079, "lon": 13.5226256}, {"type": "node", "id": 9731933155, "lat": 42.0704991, "lon": 13.2546701, "tags": {"amenity": "restaurant", "cuisine": "italian_pizza", "name": "Locomotiva"}}, {"type": "node", "id": 9945038445, "lat": 41.9143903, "lon": 13.4276165}, {"type": "node", "id": 9945038446, "lat": 41.9142757, "lon": 13.4276656}, {"type": "node", "id": 9945038447, "lat": 41.914326, "lon": 13.4278477}, {"type": "node", "id": 9945038448, "lat": 41.9144442, "lon": 13.4277823}, {"type": "node", "id": 9966425417, "lat": 41.955455, "lon": 13.6464696, "tags": {"amenity": "cafe", "outdoor_seating": "yes", "survey:date": "2022-08-26"}}, {"type": "node", "id": 9966624417, "lat": 41.9537313, "lon": 13.6445256, "tags": {"amenity": "cafe", "survey:date": "2022-08-26", "tobacco": "no"}}, {"type": "node", "id": 9966624518, "lat": 41.9533633, "lon": 13.644053, "tags": {"amenity": "cafe", "survey:date": "2022-08-26", "tobacco": "no", "wheelchair": "yes"}}, {"type": "node", "id": 9967554518, "lat": 41.9548449, "lon": 13.6456835, "tags": {"amenity": "cafe", "survey:date": "2022-08-26"}}, {"type": "node", "id": 9975333572, "lat": 41.7142288, "lon": 13.605973, "tags": {"amenity": "cafe", "name": "Caf\u00e9 Noir"}}, {"type": "node", "id": 9975485432, "lat": 41.7177384, "lon": 13.6077666, "tags": {"amenity": "cafe", "name": "Dolce&Caf\u00e9"}}, {"type": "node", "id": 9975879397, "lat": 41.9672395, "lon": 13.3927644}, {"type": "node", "id": 9978741918, "lat": 41.9570674, "lon": 13.6449664, "tags": {"amenity": "cafe", "survey:date": "2022-08-26"}}, {"type": "node", "id": 10040051618, "lat": 41.7013381, "lon": 13.6436753, "tags": {"addr:housenumber": "96", "addr:postcode": "03030", "addr:street": "Strada regionale 627 della Vandra", "amenity": "restaurant", "cuisine": "burger;buschenschank;chicken;diner;fine_dining;fish_and_chips;grill", "email": "giannilupo@gmail.com", "internet_access": "wlan", "name": "Osteria New York", "opening_hours": "Mo-Su 11:00-13:00, 14:00-23:45", "phone": "+39 0776 1938150", "website": "http://Www.osterianewyork.it"}}, {"type": "node", "id": 10162635417, "lat": 41.8341819, "lon": 13.3352821, "tags": {"amenity": "restaurant", "name": "Locanda del Carbonaro"}}, {"type": "node", "id": 10210200139, "lat": 41.6454425, "lon": 13.3526527, "tags": {"amenity": "cafe"}}, {"type": "node", "id": 10634676338, "lat": 41.7209484, "lon": 13.3510803, "tags": {"amenity": "restaurant", "cuisine": "pizza", "name": "La Pezza", "opening_hours": "19:30-22:30; Tu off", "phone": "+39 333 928 2842", "restaurant:type:it": "trattoria"}}, {"type": "node", "id": 10634676493, "lat": 41.7197442, "lon": 13.3510011, "tags": {"amenity": "restaurant", "name": "Retrogusto"}}, {"type": "node", "id": 10679316379, "lat": 41.7256549, "lon": 13.3431071, "tags": {"amenity": "restaurant", "name": "L'Araldo", "restaurant:type:it": "pizzeria;trattoria"}}, {"type": "node", "id": 10679316380, "lat": 41.7254612, "lon": 13.3432288, "tags": {"amenity": "restaurant", "name": "Madreterra", "opening_hours": "Mo-Tu,Fr-Su 12:30-15:00,19:30-22:00", "restaurant:type:it": "ristorante"}}, {"type": "node", "id": 10679422718, "lat": 41.7270802, "lon": 13.3409308, "tags": {"amenity": "cafe", "name": "Brio", "phone": "+39 0775 442 948"}}, {"type": "node", "id": 10679422719, "lat": 41.7269036, "lon": 13.3408657, "tags": {"amenity": "restaurant", "name": "Brio", "phone": "+39 0775 442 948", "restaurant:type:it": "pizzeria"}}, {"type": "node", "id": 10740823542, "lat": 41.8045181, "lon": 13.7419619}, {"type": "node", "id": 10740823543, "lat": 41.8044895, "lon": 13.7420497}, {"type": "node", "id": 10740823544, "lat": 41.8044255, "lon": 13.7420122}, {"type": "node", "id": 10740823545, "lat": 41.8044541, "lon": 13.7419245}, {"type": "node", "id": 10821538767, "lat": 41.961501, "lon": 13.5279726}, {"type": "node", "id": 10821538768, "lat": 41.9616003, "lon": 13.5279889}, {"type": "node", "id": 10821538769, "lat": 41.9615775, "lon": 13.5282404}, {"type": "node", "id": 10821538770, "lat": 41.9614782, "lon": 13.5282241}, {"type": "node", "id": 10908710071, "lat": 41.8861509, "lon": 13.5836197, "tags": {"amenity": "restaurant", "cuisine": "pizza", "name": "Jamaica Pub"}}, {"type": "node", "id": 11024856685, "lat": 41.8895486, "lon": 13.3242934, "tags": {"amenity": "cafe", "name": "La casina da neve Bar", "outdoor_seating": "yes"}}, {"type": "node", "id": 11024856687, "lat": 41.8901756, "lon": 13.3242592, "tags": {"addr:city": "Filettino", "addr:housenumber": "19", "addr:street": "Viale Primo Maggio", "amenity": "restaurant", "cuisine": "pizza", "name": "Pizzeria Del Corso", "phone": "+393471570973"}}, {"type": "node", "id": 11024856692, "lat": 41.8902961, "lon": 13.3241936, "tags": {"addr:city": "Filettino", "addr:housenumber": "6", "addr:street": "Viale Primo Maggio", "amenity": "restaurant", "cuisine": "regional;italian", "name": "La locanda del Gusto"}}, {"type": "node", "id": 11024864531, "lat": 41.8903443, "lon": 13.3283538, "tags": {"amenity": "restaurant", "cuisine": "pizza;regional;italian;pasta", "name": "Ristorante pizzeria Alla Rampa"}}, {"type": "node", "id": 11032290525, "lat": 41.8902617, "lon": 13.3242769, "tags": {"addr:city": "Filettino", "addr:housenumber": "11", "addr:street": "Viale Primo Maggio", "amenity": "restaurant", "cuisine": "pizza;sandwich;regional;italian;burger;fries", "name": "Pizzeria-Rosticceria"}}, {"type": "node", "id": 11062843805, "lat": 41.6771001, "lon": 13.5495824, "tags": {"amenity": "cafe"}}, {"type": "node", "id": 11117269527, "lat": 41.848266, "lon": 13.1939268}, {"type": "node", "id": 11158069081, "lat": 41.6787232, "lon": 13.7544054}, {"type": "node", "id": 11158098414, "lat": 41.6778375, "lon": 13.7542105}, {"type": "node", "id": 11166989450, "lat": 41.9575547, "lon": 13.4775307, "tags": {"addr:city": "Luco dei Marsi", "addr:country": "IT", "addr:housenumber": "11", "addr:postcode": "67056", "addr:street": "Via Martiri di Capistrello", "amenity": "restaurant", "contact:facebook": "https://www.facebook.com/Pizzeria-Ristorante-Marsica-Luco-dei-Marsi-AQ-236598543067147/", "cuisine": "pizza;regional", "name": "Marsica", "phone": "+39 0863 528497", "website": "http://www.ristorantepizzeriamarsica.it/"}}, {"type": "node", "id": 11167355544, "lat": 41.9585686, "lon": 13.5347481}, {"type": "node", "id": 11256669301, "lat": 41.9624966, "lon": 13.5221306}, {"type": "node", "id": 11256669302, "lat": 41.9625203, "lon": 13.5221259}, {"type": "node", "id": 11256669303, "lat": 41.96253, "lon": 13.5222144}, {"type": "node", "id": 11256669304, "lat": 41.9625742, "lon": 13.5222332}, {"type": "node", "id": 11782483587, "lat": 41.6923115, "lon": 13.2555967}, {"type": "node", "id": 11782483588, "lat": 41.6923142, "lon": 13.2556101}, {"type": "node", "id": 11782483589, "lat": 41.6923428, "lon": 13.255588}, {"type": "node", "id": 11782483590, "lat": 41.6923446, "lon": 13.2556017}, {"type": "node", "id": 11782483591, "lat": 41.6922797, "lon": 13.2556051}, {"type": "node", "id": 11782483592, "lat": 41.6923638, "lon": 13.2555158}, {"type": "node", "id": 11782483593, "lat": 41.6923724, "lon": 13.2555816}, {"type": "node", "id": 11891724574, "lat": 41.8048142, "lon": 13.7858311, "tags": {"amenity": "restaurant", "cuisine": "pizza", "name": "La Rotonda", "opening_hours": "Th-Tu 19:30-22:30"}}, {"type": "node", "id": 12019684224, "lat": 42.0650085, "lon": 13.2832879, "tags": {"amenity": "restaurant", "name": "Pizzeria"}}, {"type": "node", "id": 12137422144, "lat": 42.0330656, "lon": 13.4240323, "tags": {"amenity": "restaurant", "cuisine": "pizza", "name": "Pizzeria del tifoso"}}, {"type": "node", "id": 12162386970, "lat": 41.7768401, "lon": 13.2083016, "tags": {"amenity": "restaurant", "cuisine": "italian", "name": "Il locandiere de core e de panza", "phone": "+39 0775 515628"}}, {"type": "node", "id": 12441147977, "lat": 42.0634806, "lon": 13.5845538, "tags": {"amenity": "cafe", "name": "Bar Risorgimento"}}, {"type": "node", "id": 12444556007, "lat": 42.0644498, "lon": 13.5783264, "tags": {"amenity": "restaurant", "name": "Al Castello"}}, {"type": "node", "id": 12484165759, "lat": 41.6784158, "lon": 13.5729544, "tags": {"addr:city": "Isola del Liri", "addr:housenumber": "8", "addr:place": "Piazza Papa Gregorio VII", "addr:postcode": "03036", "amenity": "restaurant", "cuisine": "italian", "name": "Scala Alla Cascata"}}, {"type": "node", "id": 12520944076, "lat": 41.9581049, "lon": 13.5370471, "tags": {"amenity": "restaurant", "cuisine": "pizza", "name": "Ciccitto"}}, {"type": "node", "id": 12520944077, "lat": 41.9581917, "lon": 13.5371919, "tags": {"amenity": "restaurant", "name": "ristorante bar"}}, {"type": "node", "id": 12628255780, "lat": 41.8650894, "lon": 13.2563621}, {"type": "node", "id": 12628255781, "lat": 41.8650744, "lon": 13.2565322}, {"type": "node", "id": 12628255782, "lat": 41.8649643, "lon": 13.2565154}, {"type": "node", "id": 12628255783, "lat": 41.8649787, "lon": 13.2563453}, {"type": "node", "id": 12727081841, "lat": 42.02878, "lon": 13.4287517, "tags": {"addr:city": "Avezzano", "addr:country": "IT", "addr:housenumber": "23", "addr:postcode": "67051", "addr:street": "Via Marco Antonio Colonna", "air_conditioning": "yes", "amenity": "cafe", "indoor_seating": "yes", "name": "Bar 'Volevo dirle tante cose'", "opening_hours": "Mo-Sa 04:00-21:00; Su 04:00-13:00", "outdoor_seating": "yes", "smoking": "outside", "toilets:access": "customers"}}, {"type": "node", "id": 12870901301, "lat": 41.7413471, "lon": 13.696349, "tags": {"amenity": "cafe", "name": "Caff\u00e9 del Colle"}}, {"type": "node", "id": 12912364438, "lat": 41.7533626, "lon": 13.7259474, "tags": {"amenity": "restaurant"}}, {"type": "way", "id": 58262502, "nodes": [722557316, 722557350, 722557344, 722557325, 722557320, 643029036, 722557295, 722557316], "tags": {"amenity": "restaurant", "building": "yes", "source": "PCN ortofoto_colore 2006 - autorizzazione 10687/TRI"}}, {"type": "way", "id": 123691101, "nodes": [1378423556, 1378423558, 1378423555, 1378423554, 1378423556], "tags": {"amenity": "restaurant", "building": "yes", "name": "Lo Chalet", "phone": "+39 0775 581738"}}, {"type": "way", "id": 170249320, "nodes": [1814010878, 1814018131, 1814029978, 1814029987, 1814029994, 1814029990, 1814029992, 1814029974, 1814029976, 1814029958, 4248381523, 1814029948, 1814010878]}, {"type": "way", "id": 170249322, "nodes": [1814029983, 1814029982, 1814029980, 1814029985, 1814029983]}, {"type": "way", "id": 182426690, "nodes": [1927756891, 1927756917, 1927756932, 1927756651, 1927756882, 1927756820, 1927756935, 1927756840, 1927756799, 1927756847, 1927756698, 1927756781, 1927756615, 1927756795, 1927756891], "tags": {"addr:city": "Frosinone", "addr:housenumber": "87", "addr:postcode": "03100", "addr:street": "Via per Fiuggi", "amenity": "restaurant", "building": "yes", "building:levels": "1", "cuisine": "regional", "opening_hours": "12:00-15:00,19:00-23:00"}}, {"type": "way", "id": 213921337, "nodes": [2235676270, 2235676272, 2235676268, 2235676265, 2235676270], "tags": {"amenity": "restaurant", "building": "yes", "cuisine": "regional", "name": "La Noce", "phone": "347 702 5333"}}, {"type": "way", "id": 277294067, "nodes": [2818271788, 2818271791, 2818271789, 2818271790, 2818271787, 2818271786, 2818271788], "tags": {"amenity": "restaurant", "building": "yes", "cuisine": "pizza", "wheelchair": "no"}}, {"type": "way", "id": 297638012, "nodes": [3015288866, 3015288867, 3015288868, 3015288869, 3015288866], "tags": {"amenity": "restaurant", "building": "yes", "cuisine": "pizza", "name": "Al Giardino"}}, {"type": "way", "id": 306190105, "nodes": [3110354908, 3110354907, 3110354903, 3110354906, 3110354908], "tags": {"addr:city": "Antrosano", "addr:country": "IT", "addr:housenumber": "1", "addr:postcode": "67051", "addr:street": "via Fonterio", "amenity": "restaurant", "building": "yes", "cuisine": "italian", "internet_access": "yes", "name": "Fonte Rio", "phone": "+39 0863 412180", "smoking": "yes"}}, {"type": "way", "id": 365110799, "nodes": [3691547109, 3691547106, 3691547098, 3691547101, 3691547104, 3691547105, 3691547108, 3691547107, 3691547109], "tags": {"amenity": "restaurant", "building": "yes", "name": "Smile. birreria gastronom\u00eda"}}, {"type": "way", "id": 407271281, "nodes": [4093210405, 4093210407, 4093210406, 4093210404, 4093210405], "tags": {"amenity": "restaurant", "building": "yes", "name": "Domitilla"}}, {"type": "way", "id": 413726454, "nodes": [4149924863, 4149924864, 4149924865, 4149924866, 4149924867, 4149924868, 4149924869, 4149924870, 4149924863], "tags": {"amenity": "restaurant", "building": "yes", "cuisine": "regional", "level": "2", "name": "La casina da neve Trattoria"}}, {"type": "way", "id": 417696929, "nodes": [11117269527, 4181961517, 4181961518, 4181961519, 4181961520, 4181961521, 4181961522, 4181961523, 4181961524, 11117269527], "tags": {"addr:city": "Altipiani di Arcinazzo", "addr:housenumber": "33;31", "addr:postcode": "03010", "addr:street": "Strada Regionale 411 Sublacense", "amenity": "cafe", "building": "yes", "name": "Abetaia Caff\u00e8", "opening_hours": "PH,Mo-Su 06:30-23:30", "phone": "+39 0775 598062"}}, {"type": "way", "id": 424804938, "nodes": [4241809177, 4241809178, 4241809179, 4241809180, 4241809181, 4241809182, 4574116682, 4241809177], "tags": {"addr:city": "Sora", "addr:housenumber": "28", "addr:postcode": "03039", "addr:street": "Via Giovanni Branca", "amenity": "restaurant", "building": "yes", "cuisine": "regional", "name": "Dal Maresciallo", "takeaway": "no"}}, {"type": "way", "id": 437653421, "nodes": [4354479237, 4354479241, 4354479253, 4354479250, 4354479247, 4354479245, 4354479237], "tags": {"amenity": "restaurant", "building": "yes", "name": "La rosa dei venti"}}, {"type": "way", "id": 472275205, "nodes": [4664924133, 4664924144, 4664924142, 4664924097, 4664924133], "tags": {"amenity": "restaurant", "building": "yes"}}, {"type": "way", "id": 474184675, "nodes": [4681910390, 4681910391, 4681910392, 4681910393, 4681910390], "tags": {"addr:housenumber": "5", "addr:street": "Via Valcatoio", "amenity": "restaurant", "building": "yes", "cuisine": "italian_pizza;burger", "name": "Aqvaliri Pizzeria", "phone": "+39 0776 803193", "website": "https://www.facebook.com/aqvaliri.isoladelliri"}}, {"type": "way", "id": 480612395, "nodes": [4735885214, 4735885213, 4735885212, 4735885211, 4735885210, 4735885209, 4735885208, 4735885207, 4735885214], "tags": {"amenity": "restaurant", "building": "barn", "cuisine": "regional"}}, {"type": "way", "id": 541923135, "nodes": [5239767104, 5239767105, 5239767106, 5239767107, 5239767108, 5239767109, 5239767110, 5239767111, 5239767112, 5239767113, 5239767114, 5239767115, 5239767104], "tags": {"addr:city": "Avezzano", "addr:housenumber": "92", "addr:postcode": "67051", "addr:street": "Via Sante Marie", "amenity": "restaurant", "building": "yes", "name": "L'Officina del gusto"}}, {"type": "way", "id": 543189524, "nodes": [5251115910, 5251115911, 5251115912, 5251115913, 5251115914, 5251115915, 5251115916, 5251115917, 5251115910], "tags": {"addr:city": "Avezzano", "addr:postcode": "67051", "addr:street": "Via Michelangelo Buonarroti", "amenity": "restaurant", "building": "yes", "name": "IL Laghetto"}}, {"type": "way", "id": 545390007, "nodes": [5271223285, 5271223286, 5271223287, 5271223288, 5271223289, 5271223285], "tags": {"addr:city": "Carrito", "addr:street": "Via San Nicola", "addr:unit": "67050", "amenity": "restaurant", "building": "yes", "name": "RistoBar Lo Chalet"}}, {"type": "way", "id": 589453961, "nodes": [5628673132, 5628673133, 5628673134, 5628673135, 5628673132], "tags": {"addr:city": "Frosinone", "addr:postcode": "03100", "addr:street": "Viale Parigi", "amenity": "cafe", "building": "kiosk", "cuisine": "coffee", "name": "Caf\u00e8 Madrid"}}, {"type": "way", "id": 608103683, "nodes": [5761891358, 11782483592, 11782483593, 11782483589, 11782483590, 11782483588, 11782483587, 11782483591, 5761891359, 5761891360, 5761891361, 5761891358], "tags": {"addr:city": "Ferentino", "addr:housenumber": "146", "addr:postcode": "03013", "addr:street": "Via Consolare", "amenity": "restaurant", "building": "yes", "cuisine": "regional;italian", "name": "Trattoria Consolare", "opening_hours": "Tu-Sa 12:30-14:45, 19:30-22:45; Su 12:30-14:45", "outdoor_seating": "no", "phone": "+39 0775 961092"}}, {"type": "way", "id": 664931918, "nodes": [6223799386, 6223799385, 6223793784, 6223793783, 6223793782, 6223799386], "tags": {"amenity": "restaurant", "building": "yes", "cuisine": "italian", "email": "cooperativaparadiso1@gmail.com", "name": "Ristorante Olimpus", "phone": "+39 0776854048", "website": "http://www.ristorantedipesce.sora.fr.it/"}}, {"type": "way", "id": 673364747, "nodes": [6305969896, 9975879397, 6305969897, 6305969898, 6305969896], "tags": {"addr:city": "Capistrello", "addr:housenumber": "139", "addr:postcode": "67053", "addr:street": "Via Roma", "amenity": "restaurant", "building": "yes", "cuisine": "italian;thai", "name": "Nonnam\u00e9 Trattoria Pizzeria dal 1958", "opening_hours": "Mo-Sa 19:00-24:00", "roof:material": "roof_tiles", "roof:shape": "gabled"}}, {"type": "way", "id": 679550574, "nodes": [6363124397, 6363124398, 6363124399, 6363124400, 6363124397], "tags": {"amenity": "cafe", "building": "yes"}}, {"type": "way", "id": 679552343, "nodes": [6363142389, 6363142390, 7335852313, 9242721319, 6363142392, 6363142389], "tags": {"addr:city": "Trasacco", "addr:housenumber": "91", "addr:postcode": "67059", "addr:street": "Via Roma", "amenity": "restaurant", "building": "yes", "contact:facebook": "https://www.facebook.com/OlimpoTrasacco/", "description": "Sala banchetti per matrimoni, cerimonie ed eventi", "name": "L'Olimpo", "phone": "+39 0863 93385"}}, {"type": "way", "id": 768222556, "nodes": [7172502286, 7172502287, 7172502288, 7172502289, 7172502290, 7172502291, 7172502292, 7172502293, 7172502286], "tags": {"addr:city": "Trevi nel Lazio", "addr:postcode": "03010", "addr:street": "Via dei Forestieri", "air_conditioning": "yes", "amenity": "restaurant", "building": "yes", "capacity": "50", "cuisine": "regional;italian", "email": "info@trattoriailcasalelafoce.it", "name": "Trattoria Il Casale La Foce", "phone": "348 3439879", "website": "http://www.trattoriailcasalelafoce.it"}}, {"type": "way", "id": 772491732, "nodes": [7212263479, 7212263480, 7212263481, 7212263482, 7216331689, 7212263479], "tags": {"addr:city": "Villavallelonga", "addr:street": "Via Fonte Vecchia", "amenity": "restaurant", "building": "yes", "name": "la Pineta", "phone": "+39 0863 949174", "website": "http://www.ristorantepineta.com"}}, {"type": "way", "id": 772496559, "nodes": [7212308352, 11167355544, 7212308353, 7212308354, 7212308355, 7212308352], "tags": {"amenity": "restaurant", "building": "yes", "cuisine": "steak_house;barbecue", "name": "al 75"}}, {"type": "way", "id": 772498675, "nodes": [7212316467, 7212316468, 7216753453, 7212316469, 7212316467], "tags": {"addr:city": "Trasacco", "addr:housenumber": "3", "addr:postcode": "67059", "addr:street": "Via Giulio Cesare", "amenity": "restaurant", "building": "yes", "cuisine": "regional;pizza;italian;steak_house;barbecue", "layer": "-1", "mobile": "+39 329 6051540", "name": "De Foglio"}}, {"type": "way", "id": 785114879, "nodes": [7335256355, 7335256356, 7335256357, 7335256358, 7335256355], "tags": {"addr:city": "Trasacco", "addr:housenumber": "49", "addr:postcode": "67059", "addr:street": "Via Quattro Novembre", "amenity": "restaurant", "building": "yes", "cuisine": "fish;traditional", "name": "Il Granaio", "phone": "+39 328 4842787"}}, {"type": "way", "id": 785184667, "nodes": [7335852317, 7335852318, 7335852319, 7335852320, 7335852317], "tags": {"addr:city": "Trasacco", "addr:housenumber": "91", "addr:postcode": "67059", "addr:street": "Via Roma", "amenity": "restaurant", "building": "yes", "cuisine": "pizza", "name": "Numero 2", "phone": "+39 328 7398749"}}, {"type": "way", "id": 785185621, "nodes": [7335878747, 7335878748, 11256669304, 7335878749, 11256669303, 11256669302, 11256669301, 7335878750, 7335878751, 7335878752, 7335878747], "tags": {"addr:city": "Trasacco", "addr:housenumber": "4/c", "addr:postcode": "67059", "addr:street": "Via Roma", "amenity": "restaurant", "building": "yes", "cuisine": "pizza", "name": "Barone"}}, {"type": "way", "id": 787639293, "nodes": [7364296454, 7364296455, 7364296456, 7364296457, 7364296454], "tags": {"addr:city": "Villavallelonga", "addr:postcode": "67050", "addr:street": "via Tratturo Comunale", "amenity": "restaurant", "building": "yes", "cuisine": "regional;italian;pizza", "facebook": "https://www.facebook.com/altorrenterosa", "name": "Pizzeria Trattoria Al Torrente Rosa", "phone": "+39 0863 949530"}}, {"type": "way", "id": 787643946, "nodes": [7364318275, 7364318276, 7364318277, 7364318278, 7364318275], "tags": {"amenity": "restaurant", "building": "yes", "cuisine": "regional;italian;pizza", "name": "La Fenice del Parco", "phone": "+39 0863 949287", "tourism": "hotel"}}, {"type": "way", "id": 838133587, "nodes": [7822428770, 7822428771, 7822428772, 7822428773, 7822455998, 7822428774, 7822428775, 7822428776, 7822455891, 7822428777, 7822428778, 7822428779, 7822428770], "tags": {"addr:city": "Fumone", "addr:housenumber": "103", "addr:postcode": "03010", "addr:street": "Via Vicinale Canterno", "amenity": "restaurant", "building": "yes", "cuisine": "regional;italian", "email": "info@delpescatore.it", "name": "Ristorante del Pescatore", "phone": "+39 0775 499024;+39 0775 49000", "ref:vatin": "IT00365870609", "website": "https://www.delpescatore.it/"}}, {"type": "way", "id": 838133597, "nodes": [7822455966, 7822455967, 7822455968, 7822455969, 7822455970, 7822455971, 7822455966], "tags": {"amenity": "restaurant", "building": "yes", "name": "Casa del Lago"}}, {"type": "way", "id": 838134737, "nodes": [7822443335, 7822443336, 7822481004, 7822443337, 7822443338, 7822443339, 7822443340, 7822443341, 7822443342, 7822443343, 7822443344, 7822443345, 7822443346, 7822443335], "tags": {"addr:city": "Ferentino", "addr:housenumber": "132", "addr:postcode": "03013", "addr:street": "Via del LAgo di Canterno", "amenity": "restaurant", "building": "yes", "cuisine": "italian", "name": "Ristorante La Romana", "phone": "+39 0775 249250"}}, {"type": "way", "id": 856115214, "nodes": [7982725602, 7982725603, 7982725604, 7982725605, 7982725602], "tags": {"amenity": "restaurant", "building": "yes"}}, {"type": "way", "id": 881941841, "nodes": [8201873875, 8201873876, 8201873877, 8201873878, 8201873875], "tags": {"amenity": "restaurant", "brand": "Old Wild West", "brand:wikidata": "Q25402475", "brand:wikipedia": "it:Old Wild West", "building": "yes", "cuisine": "american", "name": "Old Wild West"}}, {"type": "way", "id": 951568341, "nodes": [1667690386, 11158098414, 8807799057, 8807799058, 8807799059, 8807799060, 8807799061, 8807799062, 11158069081, 1667690386], "tags": {"addr:city": "Alvito", "addr:housenumber": "2", "addr:postcode": "03041", "addr:street": "via colle buono serre di conca", "amenity": "restaurant", "cuisine": "italian", "name": "Relais Colle Buono", "opening_hours": "24/7", "phone": "+393272883871", "website": "https://www.collebuono.it/"}}, {"type": "way", "id": 965535087, "nodes": [8932194207, 8932194206, 8932194205, 8932194204, 8932194173]}, {"type": "way", "id": 965535089, "nodes": [8932194173, 8932194203, 8932194202, 8932194201, 8932194200, 8932194199, 8932194198, 8932194197, 8932194196, 8932194195, 8932194194, 8932194193, 8932194192, 8932194191, 8932194190, 8932194189, 8932194188, 8932194187, 8932194186, 8932194185, 8932194184, 8932194183, 8932194213, 8932194178, 8932194212, 8932194211, 8932194210, 8932194209, 8932194208, 8932194207]}, {"type": "way", "id": 991568204, "nodes": [9161325863, 9161325860, 9161325861, 9161325862, 9161325863], "tags": {"amenity": "restaurant", "building": "yes", "name": "Il Mantova del Lago"}}, {"type": "way", "id": 1085334078, "nodes": [9945038445, 9945038446, 9945038447, 9945038448, 9945038445], "tags": {"addr:city": "Civitella Roveto", "addr:housenumber": "5", "addr:postcode": "67054", "addr:street": "Piazza Gran Sasso", "amenity": "restaurant", "building": "yes", "cuisine": "pizza", "name": "Pizzeria Il Cav\u00f2"}}, {"type": "way", "id": 1154925201, "nodes": [10740823542, 10740823543, 10740823544, 10740823545, 10740823542], "tags": {"amenity": "restaurant", "building": "yes", "name": "Rifugio"}}, {"type": "way", "id": 1163580944, "nodes": [10821538767, 10821538768, 10821538769, 10821538770, 10821538767], "tags": {"addr:city": "Trasacco", "addr:housenumber": "52", "addr:postcode": "67059", "addr:street": "Via Roma", "amenity": "restaurant", "building": "yes", "cuisine": "regional;pizza;italian;fish;steak_house", "name": "L'ulivo", "phone": "+39 334 3667470"}}, {"type": "way", "id": 1363825698, "nodes": [12628255780, 12628255781, 12628255782, 12628255783, 12628255780], "tags": {"addr:city": "Trevi nel Lazio", "addr:housenumber": "55", "addr:postcode": "03010", "addr:street": "SP 28", "amenity": "restaurant", "building": "yes", "name": "Colle Mordani", "phone": "+39 328 7208972", "website": "https://www.collemordani.it/"}}, {"type": "relation", "id": 2265813, "members": [{"type": "way", "ref": 170249320, "role": "outer"}, {"type": "way", "ref": 170249322, "role": "inner"}], "tags": {"amenity": "restaurant", "building": "yes", "name": "Antico Palazzo Filonardi", "tourism": "hotel", "type": "multipolygon"}}, {"type": "relation", "id": 12992426, "members": [{"type": "way", "ref": 965535087, "role": "outer"}, {"type": "way", "ref": 965535089, "role": "outer"}], "tags": {"amenity": "restaurant", "mobile": "+39 346 3746429", "name": "Borgo dei Lecci", "type": "multipolygon", "website": "https://www.borgodeilecci.it/"}}]}