{"version": 0.6, "generator": "Overpass API 0.7.62.7 375dc00a", "osm3s": {"timestamp_osm_base": "2025-06-14T14:56:39Z", "copyright": "The data included in this document is from www.openstreetmap.org. The data is made available under ODbL."}, "elements": [{"type": "node", "id": 1457211986, "lat": 41.1773925, "lon": 29.0936969, "tags": {"amenity": "restaurant"}}, {"type": "node", "id": 1457211988, "lat": 41.1776512, "lon": 29.0955312, "tags": {"amenity": "restaurant"}}, {"type": "node", "id": 1457212000, "lat": 41.1779064, "lon": 29.0947642, "tags": {"amenity": "restaurant"}}, {"type": "node", "id": 2201702996, "lat": 41.1689798, "lon": 29.0586933, "tags": {"amenity": "cafe", "name": "Sar\u0131yer Spor Kul\u00fcb\u00fc Kafeteryas\u0131"}}, {"type": "node", "id": 2201704997, "lat": 41.1688849, "lon": 29.0576874, "tags": {"amenity": "cafe", "cuisine": "regional", "name": "Me\u015fhur Sar\u0131yer B\u00f6rek\u00e7isi"}}, {"type": "node", "id": 2201709410, "lat": 41.1675805, "lon": 29.0573066, "tags": {"amenity": "cafe", "cuisine": "regional", "name": "Sar\u0131yer H\u00fcnkar B\u00f6rek\u00e7isi"}}, {"type": "node", "id": 2201709413, "lat": 41.1684831, "lon": 29.057159, "tags": {"amenity": "cafe", "cuisine": "regional", "name": "Tarihi Sar\u0131yer Muhallebicisi"}}, {"type": "node", "id": 2201741096, "lat": 41.1722647, "lon": 29.0659218, "tags": {"amenity": "restaurant", "cuisine": "turkish", "designation": "Military", "name": "Yenimahalle Astsubay Orduevi"}}, {"type": "node", "id": 2585538007, "lat": 41.2039469, "lon": 28.6362945}, {"type": "node", "id": 2585538008, "lat": 41.2039953, "lon": 28.6363857}, {"type": "node", "id": 2585538009, "lat": 41.2039307, "lon": 28.6364769}, {"type": "node", "id": 2585538010, "lat": 41.2038581, "lon": 28.636375}, {"type": "node", "id": 2600613660, "lat": 41.2624274, "lon": 28.6276878, "tags": {"amenity": "cafe", "name": "Boyal\u0131k K\u00f6y Kahvesi"}}, {"type": "node", "id": 2773225910, "lat": 41.1687636, "lon": 29.0578491, "tags": {"amenity": "restaurant", "name": "Aquarius"}}, {"type": "node", "id": 2773225927, "lat": 41.1685623, "lon": 29.0577779, "tags": {"amenity": "restaurant", "cuisine": "seafood", "name": "Dolphin"}}, {"type": "node", "id": 2773226249, "lat": 41.1831753, "lon": 29.075266, "tags": {"addr:city": "Rumeli", "addr:housenumber": "29", "addr:street": "Kavak \u0130skele Cadessi", "amenity": "restaurant", "cuisine": "seafood", "name": "Super Yedig\u00fcn", "phone": "+90 (0212) 271 0084", "smoking": "no"}}, {"type": "node", "id": 2777269814, "lat": 41.2481442, "lon": 29.0708014}, {"type": "node", "id": 2777269816, "lat": 41.24816, "lon": 29.0710062}, {"type": "node", "id": 2777269818, "lat": 41.2479012, "lon": 29.0710415}, {"type": "node", "id": 2777269820, "lat": 41.2478854, "lon": 29.0708367}, {"type": "node", "id": 2847354566, "lat": 41.2058238, "lon": 29.0744085, "tags": {"amenity": "cafe", "brand": "Caff\u00e8 Nero", "brand:wikidata": "Q675808", "brand:wikipedia": "en:Caff\u00e8 Nero", "cuisine": "coffee_shop", "name": "Caff\u00e8 Nero", "opening_hours": "Mo-Fr 08:30-20:00; Sa-Su 09:00-17:00", "takeaway": "yes"}}, {"type": "node", "id": 2847377853, "lat": 41.2033084, "lon": 29.0704392, "tags": {"amenity": "restaurant", "name": "K\u00fc\u00e7\u00fck Evim Ev Yemekleri"}}, {"type": "node", "id": 2847377883, "lat": 41.204818, "lon": 29.0733666, "tags": {"amenity": "restaurant", "name": "Yemekhane"}}, {"type": "node", "id": 2847384011, "lat": 41.2049819, "lon": 29.0736738, "tags": {"amenity": "cafe", "brand": "Caff\u00e8 Nero", "brand:wikidata": "Q675808", "cuisine": "coffee_shop", "name": "Caff\u00e8 Nero", "takeaway": "yes"}}, {"type": "node", "id": 2847384012, "lat": 41.2048823, "lon": 29.0733634, "tags": {"amenity": "cafe", "name": "Mezunlar Derne\u011fi"}}, {"type": "node", "id": 2847384013, "lat": 41.2049719, "lon": 29.0733588, "tags": {"amenity": "restaurant", "name": "Mio"}}, {"type": "node", "id": 2847384015, "lat": 41.2049624, "lon": 29.0734297, "tags": {"amenity": "restaurant", "name": "DOYUYO!"}}, {"type": "node", "id": 2847384016, "lat": 41.2066539, "lon": 29.0726002, "tags": {"amenity": "cafe", "name": "Pi\u015fti"}}, {"type": "node", "id": 2847384021, "lat": 41.2059949, "lon": 29.0748739, "tags": {"amenity": "cafe", "name": "Planet"}}, {"type": "node", "id": 2847384024, "lat": 41.2050621, "lon": 29.0733457, "tags": {"amenity": "restaurant", "name": "Divan Sports Cafe"}}, {"type": "node", "id": 3061369462, "lat": 41.2104687, "lon": 29.0191599}, {"type": "node", "id": 3061369463, "lat": 41.2104586, "lon": 29.019113}, {"type": "node", "id": 3061369464, "lat": 41.2104737, "lon": 29.019109}, {"type": "node", "id": 3061369465, "lat": 41.2104616, "lon": 29.0190446}, {"type": "node", "id": 3061369466, "lat": 41.2104404, "lon": 29.0190553}, {"type": "node", "id": 3061369467, "lat": 41.2104324, "lon": 29.0190178}, {"type": "node", "id": 3061369468, "lat": 41.2103385, "lon": 29.0190553}, {"type": "node", "id": 3061369469, "lat": 41.2103597, "lon": 29.0191881}, {"type": "node", "id": 3123522201, "lat": 41.2095841, "lon": 29.0221212}, {"type": "node", "id": 3123522202, "lat": 41.2094509, "lon": 29.0221576}, {"type": "node", "id": 3123522203, "lat": 41.2094691, "lon": 29.0222553}, {"type": "node", "id": 3123522204, "lat": 41.2096012, "lon": 29.0222312}, {"type": "node", "id": 3188826614, "lat": 41.1744437, "lon": 29.0879115, "tags": {"amenity": "restaurant"}}, {"type": "node", "id": 3600177364, "lat": 41.2063134, "lon": 29.0234019}, {"type": "node", "id": 3600177365, "lat": 41.2062549, "lon": 29.0233362}, {"type": "node", "id": 3600177366, "lat": 41.2061793, "lon": 29.0234569}, {"type": "node", "id": 3600177367, "lat": 41.2062358, "lon": 29.0235253}, {"type": "node", "id": 3713402852, "lat": 41.1877989, "lon": 29.0394948, "tags": {"amenity": "cafe", "name": "pa\u015fab\u00f6rek", "smoking": "isolated"}}, {"type": "node", "id": 4157902090, "lat": 41.1734474, "lon": 29.0884768, "tags": {"amenity": "restaurant"}}, {"type": "node", "id": 4889905027, "lat": 41.2136606, "lon": 29.1099847, "tags": {"addr:city": "\u0130stanbul", "addr:district": "Sar\u0131yer", "addr:street": "\u00c7ar\u015f\u0131 Sokak", "amenity": "restaurant", "cuisine": "breakfast;fish", "name": "Garip\u00e7e Reis Bal\u0131k", "name:en": "Garip\u00e7e Reis Bal\u0131k", "name:tr": "Garip\u00e7e Reis Bal\u0131k"}}, {"type": "node", "id": 5183120423, "lat": 41.232583, "lon": 28.7008902, "tags": {"addr:street": "Fatih Caddesi", "amenity": "restaurant", "cuisine": "breakfast;grill;tea;sausage;beef_bowl;steak_house;chicken;barbecue", "email": "dogakirlokantasi@gmail.com", "internet_access": "wlan", "name": "Do\u011fa k\u0131r lokantas\u0131", "opening_hours": "Mo-Su 09:00-23:00", "phone": "05532266348", "website": "http://dogakirlokantasi.com"}}, {"type": "node", "id": 5254176621, "lat": 41.177522, "lon": 28.887214, "tags": {"addr:street": "Telekom Sk.", "amenity": "restaurant", "name": "Naml\u0131 Gurme", "name:en": "Naml\u0131 Gourmet"}}, {"type": "node", "id": 5683204936, "lat": 41.1778975, "lon": 29.095033, "tags": {"amenity": "restaurant", "name": "Yoros"}}, {"type": "node", "id": 5845648685, "lat": 41.1843292, "lon": 29.0757862, "tags": {"amenity": "restaurant", "name": "Alt\u0131nkum"}}, {"type": "node", "id": 6151656824, "lat": 41.339353, "lon": 28.6799951}, {"type": "node", "id": 6151656825, "lat": 41.3394497, "lon": 28.6800595}, {"type": "node", "id": 6151656826, "lat": 41.3393913, "lon": 28.6802124}, {"type": "node", "id": 6151656827, "lat": 41.3393148, "lon": 28.6801587}, {"type": "node", "id": 6151656828, "lat": 41.3393389, "lon": 28.680081}, {"type": "node", "id": 6151656829, "lat": 41.3393228, "lon": 28.6800675}, {"type": "node", "id": 6151656834, "lat": 41.3398951, "lon": 28.6798865, "tags": {"amenity": "cafe", "name": "\u00c7\u0131nar B\u00f6rek / Kafe"}}, {"type": "node", "id": 6151673089, "lat": 41.3427902, "lon": 28.6847194}, {"type": "node", "id": 6151673090, "lat": 41.3425847, "lon": 28.6848948}, {"type": "node", "id": 6151673091, "lat": 41.3424354, "lon": 28.6845846}, {"type": "node", "id": 6151673092, "lat": 41.3426409, "lon": 28.6844092}, {"type": "node", "id": 6252569556, "lat": 41.1814032, "lon": 28.8842809}, {"type": "node", "id": 6252569557, "lat": 41.1815155, "lon": 28.8844037}, {"type": "node", "id": 6252569558, "lat": 41.1815822, "lon": 28.8842959}, {"type": "node", "id": 6252569559, "lat": 41.1816719, "lon": 28.884394}, {"type": "node", "id": 6252569560, "lat": 41.1816781, "lon": 28.8843839}, {"type": "node", "id": 6252569561, "lat": 41.1817291, "lon": 28.8844396}, {"type": "node", "id": 6252569562, "lat": 41.181794, "lon": 28.8843348}, {"type": "node", "id": 6252569563, "lat": 41.1817755, "lon": 28.8843146}, {"type": "node", "id": 6252569564, "lat": 41.1817938, "lon": 28.8842851}, {"type": "node", "id": 6252569565, "lat": 41.1816677, "lon": 28.8841473}, {"type": "node", "id": 6252569566, "lat": 41.1816762, "lon": 28.8841337}, {"type": "node", "id": 6252569567, "lat": 41.1815678, "lon": 28.8840151}, {"type": "node", "id": 6326679553, "lat": 41.2373793, "lon": 28.9844949, "tags": {"amenity": "restaurant", "name": "K\u00f6fteci \u0130smail"}}, {"type": "node", "id": 6326679555, "lat": 41.23673, "lon": 28.9844777, "tags": {"amenity": "cafe", "name": "G\u00fcm\u00fc\u015fdere Dinlenme \u00c7ay Evi"}}, {"type": "node", "id": 6326679563, "lat": 41.2369877, "lon": 28.9843868, "tags": {"amenity": "cafe", "name": "Efe K\u0131raathanesi"}}, {"type": "node", "id": 6396908285, "lat": 41.2603483, "lon": 28.7430949, "tags": {"amenity": "cafe", "name": "MVNCH"}}, {"type": "node", "id": 6569282776, "lat": 41.2366918, "lon": 28.9845452, "tags": {"amenity": "restaurant", "name": "Avc\u0131 Et Lokantas\u0131"}}, {"type": "node", "id": 6730690738, "lat": 41.2059304, "lon": 29.1321719}, {"type": "node", "id": 6730690739, "lat": 41.2059012, "lon": 29.1321894}, {"type": "node", "id": 6730690740, "lat": 41.2062439, "lon": 29.1321095}, {"type": "node", "id": 6730690741, "lat": 41.2059659, "lon": 29.1322764}, {"type": "node", "id": 6730690742, "lat": 41.2058823, "lon": 29.1321339}, {"type": "node", "id": 6730690743, "lat": 41.2061896, "lon": 29.1319495}, {"type": "node", "id": 6731678521, "lat": 41.2058125, "lon": 29.1319023}, {"type": "node", "id": 6731678522, "lat": 41.2059807, "lon": 29.1318993}, {"type": "node", "id": 6731678523, "lat": 41.205948, "lon": 29.1319037}, {"type": "node", "id": 6731678524, "lat": 41.2058235, "lon": 29.1319485}, {"type": "node", "id": 6746087937, "lat": 41.2171715, "lon": 29.0323907}, {"type": "node", "id": 6746087938, "lat": 41.2171309, "lon": 29.032715}, {"type": "node", "id": 6746087942, "lat": 41.2170343, "lon": 29.0323604}, {"type": "node", "id": 6746087943, "lat": 41.2169938, "lon": 29.0326847}, {"type": "node", "id": 6760075185, "lat": 41.3124888, "lon": 28.6134615, "tags": {"amenity": "cafe", "name": "Balaban"}}, {"type": "node", "id": 6787456752, "lat": 41.2623429, "lon": 28.7467897, "tags": {"amenity": "cafe", "brand": "Starbucks", "brand:wikidata": "Q37158", "brand:wikipedia": "en:Starbucks", "check_date": "2023-09-18", "cuisine": "coffee_shop", "level": "1", "name": "Starbucks", "official_name": "Starbucks Coffee", "outdoor_seating": "no", "takeaway": "yes", "wheelchair": "yes"}}, {"type": "node", "id": 6787479717, "lat": 41.2622009, "lon": 28.7385003, "tags": {"amenity": "cafe", "brand": "Starbucks", "brand:wikidata": "Q37158", "brand:wikipedia": "en:Starbucks", "cuisine": "coffee_shop", "level": "1", "name": "Starbucks", "official_name": "Starbucks Coffee", "takeaway": "yes"}}, {"type": "node", "id": 6789315797, "lat": 41.2612974, "lon": 28.7389247, "tags": {"amenity": "restaurant", "level": "2", "name": "Tickerdaze"}}, {"type": "node", "id": 6794055530, "lat": 41.2621864, "lon": 28.7394748, "tags": {"amenity": "restaurant", "brand": "YO! Sushi", "brand:wikidata": "Q3105441", "brand:wikipedia": "en:YO! Sushi", "cuisine": "sushi", "indoor_seating": "yes", "level": "2", "name": "YO! Sushi", "outdoor_seating": "no"}}, {"type": "node", "id": 6794082496, "lat": 41.261883, "lon": 28.7441411}, {"type": "node", "id": 6794082497, "lat": 41.2618858, "lon": 28.7442298}, {"type": "node", "id": 6794082498, "lat": 41.2618362, "lon": 28.7442543}, {"type": "node", "id": 6794082499, "lat": 41.2618347, "lon": 28.7441487}, {"type": "node", "id": 6794085815, "lat": 41.2617281, "lon": 28.746483, "tags": {"amenity": "restaurant", "level": "2", "name": "Brewmark"}}, {"type": "node", "id": 6815014754, "lat": 41.212774, "lon": 29.0391461}, {"type": "node", "id": 6815014755, "lat": 41.2129572, "lon": 29.0396253}, {"type": "node", "id": 6815014756, "lat": 41.2130843, "lon": 29.0395192}, {"type": "node", "id": 6815014757, "lat": 41.2128981, "lon": 29.0390636}, {"type": "node", "id": 6900852766, "lat": 41.2585264, "lon": 28.7483197, "tags": {"amenity": "cafe", "brand": "Gloria Jean's", "brand:wikidata": "Q2666365", "brand:wikipedia": "en:Gloria Jean's Coffees", "cuisine": "coffee_shop", "name": "Gloria Jean's", "official_name": "Gloria Jean's Coffees", "takeaway": "yes"}}, {"type": "node", "id": 7068105746, "lat": 41.2621761, "lon": 28.7393352, "tags": {"amenity": "cafe", "indoor_seating": "yes", "level": "1", "name": "Caf\u00e9 Illy", "outdoor_seating": "no", "source": "survey"}}, {"type": "node", "id": 7684213588, "lat": 41.2354464, "lon": 29.0558091, "tags": {"amenity": "restaurant", "name": "Loop Food"}}, {"type": "node", "id": 7740260334, "lat": 41.2220796, "lon": 29.0340573, "tags": {"addr:city": "\u0130stanbul", "addr:district": "Sar\u0131yer", "addr:neighbourhood": "Uskumruk\u00f6y Mahallesi", "addr:street": "Kilyos Caddesi", "amenity": "restaurant", "name": "Salih Country"}}, {"type": "node", "id": 7740260343, "lat": 41.2230445, "lon": 29.0339101, "tags": {"addr:city": "\u0130stanbul", "addr:district": "Sar\u0131yer", "addr:neighbourhood": "Uskumruk\u00f6y Mahallesi", "amenity": "restaurant", "name": "G\u00f6kdo\u011fan Garden Restoran"}}, {"type": "node", "id": 7742644039, "lat": 41.2203293, "lon": 29.03301, "tags": {"amenity": "restaurant", "name": "Bolu1 K\u00f6y Kahvalt\u0131s\u0131"}}, {"type": "node", "id": 7742644042, "lat": 41.2211085, "lon": 29.0330815, "tags": {"addr:city": "\u0130stanbul", "amenity": "restaurant", "name": "Ye\u015fil \u00c7iftlik"}}, {"type": "node", "id": 7742666132, "lat": 41.2231768, "lon": 29.035417, "tags": {"addr:city": "\u0130stanbul", "addr:neighbourhood": "Uskumruk\u00f6y Mahallesi", "addr:street": "Kilyos Caddesi", "amenity": "restaurant", "name": "Huzur Bah\u00e7e Restaurant Mangal Ba\u015f\u0131"}}, {"type": "node", "id": 7761144315, "lat": 41.2057079, "lon": 29.1317645}, {"type": "node", "id": 7761144316, "lat": 41.2058966, "lon": 29.131942}, {"type": "node", "id": 7800714224, "lat": 41.2059652, "lon": 29.1318629}, {"type": "node", "id": 7800714225, "lat": 41.2057406, "lon": 29.1319388}, {"type": "node", "id": 7800714226, "lat": 41.2058898, "lon": 29.1316936}, {"type": "node", "id": 7809539861, "lat": 41.2057981, "lon": 29.1317287}, {"type": "node", "id": 7809539862, "lat": 41.2057659, "lon": 29.1313779, "tags": {"addr:city": "\u0130stanbul", "addr:district": "Beykoz", "addr:housenumber": "18A", "addr:neighbourhood": "Poyrazk\u00f6y", "addr:postcode": "34829", "addr:street": "Mendirek Yolu", "amenity": "restaurant", "name": "Poyraz Sahil Bal\u0131k Restaurant"}}, {"type": "node", "id": 7809539866, "lat": 41.2058492, "lon": 29.1318339, "tags": {"addr:city": "\u0130stanbul", "addr:district": "Beykoz", "addr:housenumber": "18A", "addr:neighbourhood": "Poyrazk\u00f6y", "addr:postcode": "34829", "addr:street": "Mendirek Yolu", "amenity": "restaurant", "name": "Poyraz Sahil Bal\u0131k Restaurant"}}, {"type": "node", "id": 7809539867, "lat": 41.206067, "lon": 29.1321094, "tags": {"addr:city": "\u0130stanbul", "addr:district": "Beykoz", "addr:housenumber": "18A", "addr:neighbourhood": "Poyrazk\u00f6y", "addr:postcode": "34829", "addr:street": "Mendirek Yolu", "amenity": "restaurant", "name": "Poyraz Sahil Bal\u0131k Restaurant"}}, {"type": "node", "id": 8080526375, "lat": 41.2242953, "lon": 29.0360282, "tags": {"addr:city": "\u0130stanbul", "addr:district": "Sar\u0131yer", "addr:housenumber": "322", "addr:neighbourhood": "Uskumruk\u00f6y Mahallesi", "addr:street": "Kilyos Caddesi", "amenity": "restaurant", "cuisine": "italian;pizza;european", "name": "Brio \u0130talian \u0130stanbul", "opening_hours": "Mo-Su 12:00-24:00", "phone": "+90 212 202 69 69", "website": "http://www.brioistanbul.com/"}}, {"type": "node", "id": 8318934317, "lat": 41.1852689, "lon": 29.0143199, "tags": {"amenity": "restaurant", "name:en": "Garden Fiesta"}}, {"type": "node", "id": 9235822617, "lat": 41.1737338, "lon": 29.0881893, "tags": {"amenity": "restaurant", "cuisine": "seafood", "name": "Yosun Restorant"}}, {"type": "node", "id": 9553822301, "lat": 41.1684438, "lon": 29.0569302, "tags": {"amenity": "restaurant", "name": "Tarihi Urfa Kebap"}}, {"type": "node", "id": 9553833644, "lat": 41.1681896, "lon": 29.0562442, "tags": {"amenity": "restaurant", "name": "Sar\u0131yer B\u00f6rek & Pide Salonu"}}, {"type": "node", "id": 9812332821, "lat": 41.2165888, "lon": 29.0319726, "tags": {"amenity": "restaurant", "name": "Kuzubeyi Kuzu \u00c7evirme Zekeriyak\u00f6y"}}, {"type": "node", "id": 9939299543, "lat": 41.1790199, "lon": 28.9916817, "tags": {"amenity": "restaurant", "name": "Bah\u00e7e"}}, {"type": "node", "id": 9939299566, "lat": 41.1777486, "lon": 28.9905533, "tags": {"amenity": "restaurant", "name": "Ceviz"}}, {"type": "node", "id": 9939299572, "lat": 41.179176, "lon": 28.9915295, "tags": {"amenity": "restaurant", "name": "Miss K\u00f6fte"}}, {"type": "node", "id": 9939299575, "lat": 41.1781634, "lon": 28.9917527, "tags": {"amenity": "cafe", "name": "A'saftat Anteplio\u011flu"}}, {"type": "node", "id": 9939299578, "lat": 41.1793433, "lon": 28.991538, "tags": {"amenity": "restaurant", "name": "\u00c7ak\u0131l"}}, {"type": "node", "id": 9939299593, "lat": 41.1784627, "lon": 28.9917483, "tags": {"amenity": "restaurant", "name": "Ekinciler Sulu Yemek D\u00f6ner"}}, {"type": "node", "id": 9939299594, "lat": 41.1805202, "lon": 28.9896614, "tags": {"amenity": "cafe", "name": "Bristot"}}, {"type": "node", "id": 9939299598, "lat": 41.1783883, "lon": 28.9917874, "tags": {"amenity": "cafe", "name": "Me\u015fhur Gaziantepli Tan\u0131nm\u0131\u015f Baklavac\u0131"}}, {"type": "node", "id": 9991141747, "lat": 41.1875557, "lon": 29.0492718, "tags": {"amenity": "restaurant", "name": "Adana Kebap\u00e7\u0131s\u0131"}}, {"type": "node", "id": 10054488461, "lat": 41.2072036, "lon": 29.1319187, "tags": {"amenity": "restaurant"}}, {"type": "node", "id": 10278446869, "lat": 41.2172928, "lon": 29.1061789, "tags": {"amenity": "restaurant"}}, {"type": "node", "id": 10568782449, "lat": 41.2050644, "lon": 29.0732709, "tags": {"amenity": "cafe", "name": "K\u00fc\u00e7\u00fck Ev"}}, {"type": "node", "id": 10568788211, "lat": 41.207783, "lon": 29.0750207, "tags": {"amenity": "cafe", "brand": "Caff\u00e8 Nero", "brand:wikidata": "Q675808", "cuisine": "coffee_shop", "name": "Caff\u00e8 Nero", "takeaway": "yes"}}, {"type": "node", "id": 10568788212, "lat": 41.2080817, "lon": 29.0754166, "tags": {"amenity": "cafe", "name": "EspressoLab"}}, {"type": "node", "id": 10589826664, "lat": 41.1968138, "lon": 28.8224858, "tags": {"amenity": "restaurant", "name": "Bin Lezzet"}}, {"type": "node", "id": 10592485257, "lat": 41.2254591, "lon": 28.8315019, "tags": {"amenity": "restaurant", "name": "Tur Park Kafe Restaurant"}}, {"type": "node", "id": 10861306831, "lat": 41.2119455, "lon": 28.6428675, "tags": {"amenity": "restaurant", "name": "\u00c7\u0131rako\u011flu Et Mangal"}}, {"type": "node", "id": 10861306832, "lat": 41.2110708, "lon": 28.6427468, "tags": {"amenity": "restaurant", "mobile": "+905369678183", "name": "Dursunk\u00f6y Surak Kokore\u00e7", "operator": "Rakip Usta"}}, {"type": "node", "id": 10931861936, "lat": 41.1923658, "lon": 29.0738351, "tags": {"amenity": "cafe"}}, {"type": "node", "id": 10931896413, "lat": 41.2339724, "lon": 29.1115203, "tags": {"amenity": "cafe"}}, {"type": "node", "id": 11150023767, "lat": 41.1788949, "lon": 28.8841514, "tags": {"amenity": "cafe", "brand": "Starbucks", "brand:wikidata": "Q37158", "cuisine": "coffee_shop", "name": "Starbucks", "official_name": "Starbucks Coffee", "takeaway": "yes"}}, {"type": "node", "id": 11192330189, "lat": 41.1864814, "lon": 29.0401663, "tags": {"amenity": "restaurant", "cuisine": "turkish", "name": "OSES \u00e7i\u011f k\u00f6fte"}}, {"type": "node", "id": 11200644969, "lat": 41.2624641, "lon": 28.7387454, "tags": {"amenity": "cafe", "check_date": "2023-09-18", "level": "2", "name": "gram", "wheelchair": "yes"}}, {"type": "node", "id": 11200644970, "lat": 41.2625611, "lon": 28.7448154, "tags": {"amenity": "cafe", "check_date": "2023-09-18", "level": "2", "name": "Pierre Hermes", "wheelchair": "yes"}}, {"type": "node", "id": 11200644972, "lat": 41.26238, "lon": 28.7456969, "tags": {"amenity": "cafe", "check_date": "2023-09-18", "level": "2", "name": "The House", "outdoor_seating": "no", "wheelchair": "yes"}}, {"type": "node", "id": 11200644977, "lat": 41.2647937, "lon": 28.7486698, "tags": {"amenity": "cafe", "brand": "Caff\u00e8 Nero", "brand:wikidata": "Q675808", "check_date": "2023-09-18", "cuisine": "coffee_shop", "level": "1", "name": "Caff\u00e8 Nero", "takeaway": "yes", "wheelchair": "yes"}}, {"type": "node", "id": 11212787842, "lat": 41.1701031, "lon": 29.0564159, "tags": {"amenity": "cafe", "name": "Ecco Coffee"}}, {"type": "node", "id": 11228019712, "lat": 41.2359639, "lon": 28.9078478, "tags": {"amenity": "restaurant", "brand": "K\u00f6fteci Yusuf", "brand:wikidata": "Q126125081", "cuisine": "turkish", "name": "K\u00f6fteci Yusuf"}}, {"type": "node", "id": 11228094717, "lat": 41.2366321, "lon": 28.9067048, "tags": {"amenity": "restaurant", "name": "Yemek\u00e7i 7/24"}}, {"type": "node", "id": 11228109859, "lat": 41.2360056, "lon": 28.9076448, "tags": {"amenity": "cafe", "name": "Cotton Coffee"}}, {"type": "node", "id": 11336078686, "lat": 41.1968973, "lon": 28.8258564, "tags": {"addr:city": "\u0130stanbul", "addr:district": "Ey\u00fcpsultan", "addr:neighbourhood": "Pirin\u00e7\u00e7i", "addr:postcode": "34076", "amenity": "cafe", "branch": "Kuzey Marmara Otoyolu Ba\u015fak\u015fehir Do\u011fu", "brand": "Starbucks", "brand:wikidata": "Q37158", "cuisine": "coffee_shop", "name": "Starbucks", "official_name": "Starbucks Coffee", "opening_hours": "07:00-20:00", "outdoor_seating": "no", "phone": "+90 212 206 53 77", "takeaway": "yes"}}, {"type": "node", "id": 11463713308, "lat": 41.2616043, "lon": 28.7390346, "tags": {"amenity": "restaurant", "level": "2", "name": "Crousty Co", "room": "restaurant"}}, {"type": "node", "id": 11463713309, "lat": 41.261915, "lon": 28.7463169, "tags": {"amenity": "cafe", "cuisine": "coffee_shop", "level": "2", "name": "Cups & Clouds", "room": "shop", "takeaway": "yes"}}, {"type": "node", "id": 11494209341, "lat": 41.1730576, "lon": 28.9574082, "tags": {"amenity": "cafe", "barrier": "fence", "fence_type": "metal", "name": "Irmak Cafe"}}, {"type": "node", "id": 11494209342, "lat": 41.1730299, "lon": 28.9574819}, {"type": "node", "id": 11494209343, "lat": 41.1729781, "lon": 28.9574079}, {"type": "node", "id": 11494209344, "lat": 41.1729238, "lon": 28.957475}, {"type": "node", "id": 11494209345, "lat": 41.1729756, "lon": 28.957549}, {"type": "node", "id": 11813403971, "lat": 41.1736104, "lon": 29.0887637, "tags": {"amenity": "restaurant", "cuisine": "fish;turkish", "name": "Ceneviz Balik"}}, {"type": "node", "id": 11959997339, "lat": 41.2138328, "lon": 29.0337614}, {"type": "node", "id": 11959997340, "lat": 41.2137241, "lon": 29.033568}, {"type": "node", "id": 11959997341, "lat": 41.2136799, "lon": 29.0336814}, {"type": "node", "id": 11959997342, "lat": 41.2138637, "lon": 29.0336575}, {"type": "node", "id": 11964159469, "lat": 41.1976183, "lon": 28.728564, "tags": {"addr:housenumber": "2", "addr:postcode": "34275", "addr:street": "\u015e\u00fckr\u00fc Sokak", "amenity": "restaurant", "email": "info@demhotelpremium.com", "name": "Premium Dem Hotel", "opening_hours": "24/7", "phone": "+902125870204", "website": "https://demhotelpremium.com"}}, {"type": "node", "id": 12032118869, "lat": 41.1754586, "lon": 29.072226, "tags": {"addr:housenumber": "88", "addr:street": "Karak\u00fct\u00fck Caddesi", "amenity": "restaurant", "cuisine": "fish", "name": "Gelisli Balik Restaurant"}}, {"type": "node", "id": 12065302769, "lat": 41.1690566, "lon": 29.0566183, "tags": {"addr:housenumber": "19a", "addr:street": "Sar\u0131yer Deresi Soka\u011f\u0131", "amenity": "restaurant", "cuisine": "turkish", "name": "Pideban Sariyer", "opening_hours": "Mo-Su 08:00-22:30"}}, {"type": "node", "id": 12080261269, "lat": 41.1823839, "lon": 29.0736133, "tags": {"amenity": "cafe", "name": "Bo\u011faz Canli Balik Loksntasi"}}, {"type": "node", "id": 12292873479, "lat": 41.2639116, "lon": 28.6861315, "tags": {"amenity": "restaurant", "name": "K\u00f6fteci Kara"}}, {"type": "node", "id": 12643778460, "lat": 41.2652224, "lon": 28.6711374, "tags": {"addr:city": "\u0130stanbul", "addr:district": "Arnavutk\u00f6y", "addr:housenumber": "209 A", "addr:neighbourhood": "Baklal\u0131", "addr:postcode": "34275", "addr:street": "Tayakad\u0131n-Yass\u0131\u00f6ren Cd", "amenity": "restaurant", "cuisine": "kebab", "name": "Erzurum Ca\u011f Kebap Tesisi", "opening_hours": "08:30 - 00:00", "phone": "+90 533 403 94 71"}}, {"type": "node", "id": 12797995301, "lat": 41.2093185, "lon": 28.7211001, "tags": {"amenity": "restaurant", "cuisine": "burger;italian;turkish", "name": "Botanik Caf\u00e9 & Restaurant", "opening_hours": "Mo-Su 08:30-02:00", "phone": "+905051398999"}}, {"type": "node", "id": 12800944002, "lat": 41.2044696, "lon": 28.7285983, "tags": {"amenity": "restaurant", "cuisine": "turkish", "name": "Erzurum Cag Kebab"}}, {"type": "node", "id": 12800950601, "lat": 41.2046695, "lon": 28.7286833, "tags": {"amenity": "restaurant", "cuisine": "turkish"}}, {"type": "node", "id": 12801020702, "lat": 41.2044229, "lon": 28.7293068, "tags": {"amenity": "restaurant", "cuisine": "turkish", "name": "D\u00fcr\u00fcmc\u00fc Mustafa Usta (DMU)", "website:menu": "https://karekodrestaurantmenu.com/menu/19992"}}, {"type": "node", "id": 12840940696, "lat": 41.1659853, "lon": 29.0563827, "tags": {"amenity": "cafe", "internet_access:type": "wifi", "name": "Port of Black"}}, {"type": "node", "id": 12891804656, "lat": 41.1975519, "lon": 28.752665, "tags": {"amenity": "restaurant", "name": "Hicret Kebap"}}, {"type": "way", "id": 252524365, "nodes": [2585538007, 2585538008, 2585538009, 2585538010, 2585538007], "tags": {"amenity": "cafe", "building": "yes", "name": "Dursunk\u00f6y \u00e7ayoca\u011f\u0131"}}, {"type": "way", "id": 272808512, "nodes": [2777269814, 2777269816, 2777269818, 2777269820, 2777269814], "tags": {"amenity": "restaurant", "comment": "popular breakfast", "contact:email": "rezervasyon@uzunya.com", "cuisine": "seafood", "name": "Uzunya", "phone": "+90 0212 2040731", "website": "https://www.uzunya.com/"}}, {"type": "way", "id": 301958668, "nodes": [3061369462, 3061369463, 3061369464, 3061369465, 3061369466, 3061369467, 3061369468, 3061369469, 3061369462], "tags": {"addr:city": "\u0130stanbul", "addr:district": "Sar\u0131yer", "addr:neighbourhood": "Zekeriyakoy", "addr:postcode": "34473", "addr:street": "Hatmi \u00c7\u0131kmaz\u0131", "amenity": "restaurant", "image": "https://i.ibb.co/MZC95Wn/Whats-App-Image-2020-11-24-at-22-15-00.jpg", "name": "Bony Vex"}}, {"type": "way", "id": 307258665, "nodes": [3123522201, 3123522202, 3123522203, 3123522204, 3123522201], "tags": {"addr:city": "\u0130stanbul", "addr:district": "Sar\u0131yer", "addr:housenumber": "1", "addr:neighbourhood": "Zekeriyakoy", "addr:postcode": "34450", "addr:street": "Hercai Menek\u015fe Soka\u011f\u0131", "amenity": "cafe", "building": "yes", "cuisine": "turkish", "name": "No1 Culinaria", "opening_hours": "08:30-22:00", "phone": "+90 0530 936 62 02", "website": "no1firin.com"}}, {"type": "way", "id": 354271422, "nodes": [3600177364, 3600177365, 3600177366, 3600177367, 3600177364], "tags": {"amenity": "cafe", "building": "yes", "name": "Fincan Cafe"}}, {"type": "way", "id": 656735804, "nodes": [6151656824, 6151656825, 6151656826, 6151656827, 6151656828, 6151656829, 6151656824], "tags": {"amenity": "cafe", "building": "yes"}}, {"type": "way", "id": 656737863, "nodes": [6151673092, 6151673089, 6151673090, 6151673091, 6151673092], "tags": {"amenity": "restaurant", "building": "yes", "cuisine": "fish", "delivery": "no", "name": "Han\u0131meli Bal\u0131k Restaurant", "outdoor_seating": "yes", "smoking": "outside"}}, {"type": "way", "id": 667771350, "nodes": [6252569556, 6252569557, 6252569558, 6252569559, 6252569560, 6252569561, 6252569562, 6252569563, 6252569564, 6252569565, 6252569566, 6252569567, 6252569556], "tags": {"amenity": "cafe", "building": "yes"}}, {"type": "way", "id": 716453168, "nodes": [6730690743, 6730690740, 6730690741, 6730690738, 6730690739, 6730690742, 6730690743], "tags": {"addr:city": "\u0130stanbul", "addr:district": "Beykoz", "addr:housenumber": "18A", "addr:neighbourhood": "Poyrazk\u00f6y", "addr:postcode": "34829", "addr:street": "Mendirek Yolu", "amenity": "restaurant", "building": "yes", "cuisine": "fish", "name": "Poyraz Sahil Bal\u0131k Restaurant", "opening_hours": "09:00-24:00", "phone": "+902163201100", "smoking": "outside", "website": "https://www.poyrazsahilbalik.com/"}}, {"type": "way", "id": 716662848, "nodes": [6731678524, 6731678521, 7800714225, 7761144315, 7809539861, 7800714226, 7800714224, 6731678522, 6731678523, 7761144316, 6731678524], "tags": {"addr:city": "\u0130stanbul", "addr:district": "Beykoz", "addr:housenumber": "18A", "addr:neighbourhood": "Poyrazk\u00f6y", "addr:postcode": "34829", "addr:street": "Mendirek Yolu No:", "amenity": "restaurant", "building": "yes", "cuisine": "fish_and_chips", "name": "Poyraz Sahil Bal\u0131k Restaurant", "opening_hours": "09:00-24:00", "phone": "00902163201100", "website": "https://www.poyrazsahilbalik.com/"}}, {"type": "way", "id": 718363243, "nodes": [6746087937, 6746087942, 6746087943, 6746087938, 6746087937], "tags": {"amenity": "cafe", "brand": "Starbucks", "brand:wikidata": "Q37158", "brand:wikipedia": "en:Starbucks", "building": "yes", "cuisine": "coffee_shop", "name": "Starbucks", "official_name": "Starbucks Coffee", "takeaway": "yes"}}, {"type": "way", "id": 724450210, "nodes": [6794082496, 6794082497, 6794082498, 6794082499, 6794082496], "tags": {"amenity": "cafe", "indoor": "room", "level": "2", "name": "Mvnch", "room": "restaurant"}}, {"type": "way", "id": 727195535, "nodes": [6815014754, 6815014755, 6815014756, 6815014757, 6815014754], "tags": {"amenity": "cafe", "brand": "Starbucks", "brand:wikidata": "Q37158", "brand:wikipedia": "en:Starbucks", "building": "yes", "cuisine": "coffee_shop", "name": "Starbucks", "official_name": "Starbucks Coffee", "takeaway": "yes"}}, {"type": "way", "id": 1237504712, "nodes": [11494209342, 11494209343, 11494209344, 11494209345, 11494209342], "tags": {"amenity": "cafe", "building": "yes", "name": "Irmak Cafe", "outdoor_seating": "yes"}}, {"type": "way", "id": 1289848947, "nodes": [11959997342, 11959997340, 11959997341, 11959997339, 11959997342], "tags": {"addr:city": "\u0130stanbul", "addr:district": "Sar\u0131yer", "addr:housenumber": "279", "addr:neighbourhood": "Uskumruk\u00f6y Mahallesi", "addr:street": "Kilyos Caddesi", "amenity": "restaurant", "building": "yes", "name": "Ahali 279", "outdoor_seating": "yes", "phone": "+902122025376", "website": "https://ahali279.com", "website:menu": "https://linktr.ee/originocakbasi"}}]}