{"version": 0.6, "generator": "Overpass API 0.7.62.7 375dc00a", "osm3s": {"timestamp_osm_base": "2025-06-14T15:28:14Z", "copyright": "The data included in this document is from www.openstreetmap.org. The data is made available under ODbL."}, "elements": [{"type": "node", "id": 2278059596, "lat": 15.4602287, "lon": 36.3956686, "tags": {"amenity": "restaurant"}}, {"type": "node", "id": 4534773991, "lat": 15.443688, "lon": 36.3814775, "tags": {"amenity": "restaurant", "name": "Al Baha Cafeteria (Restaurant)", "name:en": "Al Baha Cafeteria (Restaurant)"}}, {"type": "node", "id": 4534805089, "lat": 15.4431896, "lon": 36.3799867, "tags": {"amenity": "restaurant", "name": "Al Daffaf", "name:en": "Al Daffaf"}}, {"type": "node", "id": 4607706691, "lat": 15.4189127, "lon": 36.3613173, "tags": {"amenity": "restaurant", "name": "Abu Jood (Syrian Restuarant) Kassala, Sudan.", "name:en": "Abu Jood (Syrian Restuarant) Kassala, Sudan."}}, {"type": "node", "id": 4801936122, "lat": 15.4568308, "lon": 36.3996043, "tags": {"addr:street": "Near Bus Station", "amenity": "restaurant", "name": "\u062f\u062c\u0627\u062c \u0643\u0648\u0643\u0627\u0643;Lulua", "name:ar": "\u062f\u062c\u0627\u062c \u0643\u0648\u0643\u0627\u0643", "name:en": "COOKAK CHICKEN"}}, {"type": "node", "id": 4860084622, "lat": 15.4567877, "lon": 36.3990769, "tags": {"amenity": "restaurant", "name": "Kookak", "name:en": "Kookak"}}, {"type": "node", "id": 5022520324, "lat": 15.4572768, "lon": 36.3950152, "tags": {"amenity": "restaurant", "name": "\u0643\u0627\u0643\u064a \u0628\u0631\u0648\u0633\u062a \u0648 \u0627\u064a\u0633 \u0643\u0631\u064a\u0645", "name:ar": "\u0643\u0627\u0643\u064a \u0628\u0631\u0648\u0633\u062a \u0648 \u0627\u064a\u0633 \u0643\u0631\u064a\u0645", "name:en": "Kaki Broast & Ice Cream"}}, {"type": "node", "id": 5060604722, "lat": 15.4577975, "lon": 36.39798, "tags": {"amenity": "restaurant", "name": "\u0633\u0627\u0645\u064a \u0644\u0644\u0627\u0633\u0645\u0627\u0643", "name:ar": "\u0633\u0627\u0645\u064a \u0644\u0644\u0627\u0633\u0645\u0627\u0643", "name:en": "FISH POINT (Sami Lil Asmak)"}}, {"type": "node", "id": 5582899825, "lat": 15.4504212, "lon": 36.3970858, "tags": {"amenity": "restaurant", "name": "Rainbow restaurant (Fast Food)"}}, {"type": "node", "id": 5698981861, "lat": 15.417195, "lon": 36.3546467, "tags": {"amenity": "restaurant", "name": "\u0645\u0637\u0639\u0645 \u0648\u0643\u0641\u062a\u0631\u064a\u0627\u0627\u0644\u062d\u0631\u0645\u064a\u0646", "name:ar": "\u0645\u0637\u0639\u0645 \u0648\u0643\u0641\u062a\u0631\u064a\u0627\u0627\u0644\u062d\u0631\u0645\u064a\u0646"}}, {"type": "node", "id": 7077810186, "lat": 15.4452069, "lon": 36.381822, "tags": {"amenity": "restaurant", "cuisine": "coffee_shop;chicken;fish_and_chips", "name": "Moringa", "name:ar": "\u062d\u062f\u0627\u0626\u0642 \u0627\u0644\u0645\u0648\u0631\u064a\u0646\u063a\u0627", "name:en": "moringa gardens", "opening_hours": "Sa-Th 08:00-24:00", "phone": "091 107 8503"}}]}