{"version": 0.6, "generator": "Overpass API 0.7.62.7 375dc00a", "osm3s": {"timestamp_osm_base": "2025-06-14T13:17:00Z", "copyright": "The data included in this document is from www.openstreetmap.org. The data is made available under ODbL."}, "elements": [{"type": "node", "id": 3515675228, "lat": 35.427971, "lon": 5.3175209}, {"type": "node", "id": 3635627270, "lat": 35.3885711, "lon": 5.3717173}, {"type": "node", "id": 3635671877, "lat": 35.3851027, "lon": 5.3647672, "tags": {"addr:country": "DZ", "amenity": "cafe", "name": "Caf\u00e9 Zina", "name:ar": "\u0645\u0642\u0647\u0649 \u0627\u0644\u0632\u064a\u0646\u0629"}}, {"type": "node", "id": 3746246135, "lat": 35.3816011, "lon": 5.3742306}, {"type": "node", "id": 3746246136, "lat": 35.3816916, "lon": 5.3742306}, {"type": "node", "id": 3746246137, "lat": 35.3817298, "lon": 5.3741665}, {"type": "node", "id": 3746246138, "lat": 35.3816444, "lon": 5.3741571}, {"type": "node", "id": 3746246139, "lat": 35.3816266, "lon": 5.3741931}, {"type": "node", "id": 3748188576, "lat": 35.3837189, "lon": 5.3738105}, {"type": "node", "id": 3748188577, "lat": 35.3836892, "lon": 5.3738338}, {"type": "node", "id": 3748188578, "lat": 35.3836345, "lon": 5.373707}, {"type": "node", "id": 3748188579, "lat": 35.3836631, "lon": 5.3736852}, {"type": "node", "id": 3971155073, "lat": 35.2465797, "lon": 5.7006314, "tags": {"addr:country": "DZ", "amenity": "restaurant", "name": "Resto", "name:fr": "Resto"}}, {"type": "node", "id": 3971155074, "lat": 35.2463256, "lon": 5.7006207, "tags": {"addr:country": "DZ", "amenity": "restaurant", "name": "Resto", "name:fr": "Resto"}}, {"type": "node", "id": 3971155075, "lat": 35.2462512, "lon": 5.7006207, "tags": {"addr:country": "DZ", "amenity": "restaurant", "name": "Resto", "name:fr": "Resto"}}, {"type": "node", "id": 4211476174, "lat": 35.3841431, "lon": 5.3730012}, {"type": "node", "id": 4211476175, "lat": 35.3842962, "lon": 5.3729073}, {"type": "node", "id": 4211476176, "lat": 35.3843749, "lon": 5.3731085}, {"type": "node", "id": 4211476177, "lat": 35.3842284, "lon": 5.3732077}, {"type": "node", "id": 4212235203, "lat": 35.3844778, "lon": 5.3702003}, {"type": "node", "id": 4212235204, "lat": 35.3844275, "lon": 5.3700823}, {"type": "node", "id": 4212235205, "lat": 35.3843291, "lon": 5.3701547}, {"type": "node", "id": 4212235206, "lat": 35.3843882, "lon": 5.3702727}, {"type": "node", "id": 4342205089, "lat": 35.4003368, "lon": 5.3511718, "tags": {"addr:country": "DZ", "addr:street": "Rue 1er Novembre", "amenity": "restaurant", "cuisine": "arab", "name": "\u062e\u064a\u0645\u0629 \u0630\u0643\u0631\u0649", "name:ar": "\u062e\u064a\u0645\u0629 \u0630\u0643\u0631\u0649", "name:fr": "khaymat dhikraa"}}, {"type": "node", "id": 4382574890, "lat": 35.123486, "lon": 5.617436, "tags": {"addr:country": "DZ", "amenity": "cafe", "name": "Cafeteria", "name:fr": "Cafeteria"}}, {"type": "node", "id": 4382596191, "lat": 35.1236875, "lon": 5.6170294, "tags": {"addr:country": "DZ", "amenity": "cafe", "name": "\u0645\u0642\u0647\u0649", "name:ar": "\u0645\u0642\u0647\u0649 \u0633\u0646\u0648\u0628\u064a", "name:fr": "Cafeteria"}}, {"type": "node", "id": 4424677689, "lat": 35.3848425, "lon": 5.3672596, "tags": {"addr:country": "DZ", "addr:postcode": "05022", "addr:street": "rue des fr\u00e8res guiri", "amenity": "cafe", "cuisine": "cake;algerian;coffee_shop;crepe", "email": "haithem.pipo@gmail.com", "internet_access": "wlan", "name": "cafe guouaref", "name:ar": "\u0645\u0642\u0647\u0649 \u0642\u0648\u0627\u0631\u0641", "name:en": "cafe guouaref", "phone": "0699823000"}}, {"type": "node", "id": 4461676389, "lat": 35.2287204, "lon": 5.705795, "tags": {"addr:country": "DZ", "alt_name:fr": "Caf\u00e9 Houara", "amenity": "cafe", "name": "Caf\u00e9 les gorges", "name:fr": "Caf\u00e9 les gorges"}}, {"type": "node", "id": 4509375195, "lat": 35.4377742, "lon": 5.5585382, "tags": {"addr:country": "DZ", "amenity": "cafe", "name": "\u0645\u0642\u0647\u0649 \u0627\u0644\u0633\u0627\u064a\u062d \u0628\u0646 \u0628\u0631\u0627\u0647\u064a\u0645", "name:ar": "\u0645\u0642\u0647\u0649 \u0627\u0644\u0633\u0627\u064a\u062d \u0628\u0646 \u0628\u0631\u0627\u0647\u064a\u0645", "name:fr": "Caf\u00e9 Sayah Ben Brahim"}}, {"type": "node", "id": 4509375196, "lat": 35.437398, "lon": 5.5584852, "tags": {"addr:country": "DZ", "amenity": "cafe", "name": "\u0645\u0642\u0647\u0649 \u062d\u0645\u064a\u062f \u0648\u0628\u0639\u064a\u0631", "name:ar": "\u0645\u0642\u0647\u0649 \u062d\u0645\u064a\u062f \u0648\u0628\u0639\u064a\u0631", "name:fr": "Caf\u00e9 Hamid et Bair"}}, {"type": "node", "id": 4509375197, "lat": 35.4354314, "lon": 5.5591305, "tags": {"addr:country": "DZ", "amenity": "cafe", "name": "\u0645\u0642\u0647\u0649 \u0639\u0634\u064a \u0639\u0628\u062f \u0627\u0644\u0639\u0632\u064a\u0632", "name:ar": "\u0645\u0642\u0647\u0649 \u0639\u0634\u064a \u0639\u0628\u062f \u0627\u0644\u0639\u0632\u064a\u0632", "name:fr": "Caf\u00e9 Achi Abdelaziz"}}, {"type": "node", "id": 4509375391, "lat": 35.4374892, "lon": 5.5584645, "tags": {"addr:country": "DZ", "amenity": "cafe", "name": "\u0645\u0642\u0647\u0649 \u0647\u0627\u0631\u062f\u064a \u062f\u064a\u062c\u0627\u0642\u0639 \u0633\u0627\u0628\u0642\u0627", "name:ar": "\u0645\u0642\u0647\u0649 \u0647\u0627\u0631\u062f\u064a \u062f\u064a\u062c\u0627\u0642\u0639 \u0633\u0627\u0628\u0642\u0627", "name:fr": "Caf\u00e9 Hardy"}}, {"type": "node", "id": 4509427089, "lat": 35.4371478, "lon": 5.5585361, "tags": {"addr:country": "DZ", "amenity": "cafe", "name": "\u0645\u0642\u0647\u0649 \u0644\u0632\u0647\u0631 \u0646\u062d\u064a\u0644\u064a", "name:ar": "\u0645\u0642\u0647\u0649 \u0644\u0632\u0647\u0631 \u0646\u062d\u064a\u0644\u064a", "name:fr": "Caf\u00e9 Lazhar Nehili"}}, {"type": "node", "id": 4510122589, "lat": 35.448448, "lon": 5.5498429}, {"type": "node", "id": 4511113992, "lat": 35.2137687, "lon": 5.7068291, "tags": {"addr:country": "DZ", "amenity": "cafe", "name": "Bay", "name:ar": "Bay"}}, {"type": "node", "id": 4511154990, "lat": 35.2133446, "lon": 5.7064305, "tags": {"addr:country": "DZ", "amenity": "cafe", "name": "Debbab", "name:ar": "Debbab"}}, {"type": "node", "id": 4511164290, "lat": 35.2106337, "lon": 5.7038337, "tags": {"addr:country": "DZ", "amenity": "cafe", "name": "Bouhali", "name:ar": "Bouhali"}}, {"type": "node", "id": 4630251266, "lat": 35.3005186, "lon": 5.3037117, "tags": {"addr:country": "DZ", "amenity": "restaurant", "name": "\u0645\u0637\u0639\u0645", "name:ar": "\u0645\u0637\u0639\u0645", "name:fr": "Resto"}}, {"type": "node", "id": 4695410089, "lat": 35.3762819, "lon": 5.3680898, "tags": {"addr:country": "DZ", "addr:street": "\u062d\u064a \u0627\u0644\u0625\u062e\u0648\u0629 \u06a8\u064a\u0631\u064a", "amenity": "cafe", "opening_hours": "24/7"}}, {"type": "node", "id": 4695437690, "lat": 35.3811392, "lon": 5.3740731}, {"type": "node", "id": 4695441291, "lat": 35.3799129, "lon": 5.3829481, "tags": {"addr:country": "DZ", "amenity": "cafe"}}, {"type": "node", "id": 4695461891, "lat": 35.3840834, "lon": 5.3683091, "tags": {"addr:country": "DZ", "amenity": "restaurant", "cuisine": "international", "name": "\u0639\u0644\u064a \u0628\u0627\u0628\u0627 \u0648 \u0627\u0644\u0623\u0631\u0628\u0639\u0648\u0646 \u0637\u0628\u0642", "name:ar": "\u0639\u0644\u064a \u0628\u0627\u0628\u0627 \u0648 \u0627\u0644\u0623\u0631\u0628\u0639\u0648\u0646 \u0637\u0628\u0642", "name:fr": "Ali Baba et quarante plats"}}, {"type": "node", "id": 4695462390, "lat": 35.3755406, "lon": 5.3818521, "tags": {"addr:country": "DZ", "amenity": "cafe"}}, {"type": "node", "id": 4695462391, "lat": 35.3866176, "lon": 5.3674787, "tags": {"addr:country": "DZ", "amenity": "restaurant", "name": "Resto", "name:fr": "Resto"}}, {"type": "node", "id": 4695462394, "lat": 35.3808713, "lon": 5.3797068, "tags": {"addr:country": "DZ", "amenity": "cafe"}}, {"type": "node", "id": 4695541095, "lat": 35.2994347, "lon": 5.3030801, "tags": {"addr:country": "DZ", "amenity": "cafe"}}, {"type": "node", "id": 4695641394, "lat": 35.3937025, "lon": 5.3556239, "tags": {"addr:country": "DZ", "amenity": "cafe"}}, {"type": "node", "id": 4695664197, "lat": 35.3878554, "lon": 5.3708234, "tags": {"addr:country": "DZ", "amenity": "restaurant", "name": "\u0645\u0637\u0639\u0645 \u0632\u0631\u0632\u062d (\u062e\u0627\u0644\u064a \u0645\u064a\u0644\u0648\u062f)", "name:ar": "\u0645\u0637\u0639\u0645 \u0632\u0631\u0632\u062d (\u062e\u0627\u0644\u064a \u0645\u064a\u0644\u0648\u062f)", "name:fr": "Zarzah", "opening_hours": "Mo-Su 08:00-21:00"}}, {"type": "node", "id": 4695681995, "lat": 35.3894744, "lon": 5.4111819, "tags": {"addr:country": "DZ", "amenity": "cafe"}}, {"type": "node", "id": 4695715893, "lat": 35.39215, "lon": 5.3596546, "tags": {"addr:country": "DZ", "amenity": "cafe", "name": "\u0645\u0642\u0647\u0649 \u0627\u0644\u062c\u0632\u0627\u0626\u0631", "name:ar": "\u0645\u0642\u0647\u0649 \u0627\u0644\u062c\u0632\u0627\u0626\u0631", "name:fr": "Caf\u00e9 Alg\u00e9rie"}}, {"type": "node", "id": 4695716389, "lat": 35.3935496, "lon": 5.3514076, "tags": {"addr:country": "DZ", "amenity": "cafe"}}, {"type": "node", "id": 4695716489, "lat": 35.3834053, "lon": 5.3691268, "tags": {"addr:country": "DZ", "amenity": "cafe"}}, {"type": "node", "id": 4701778291, "lat": 35.3870758, "lon": 5.3703238, "tags": {"addr:city": "\u0628\u0631\u064a\u0643\u0629", "addr:country": "DZ", "amenity": "restaurant", "name": "Resto", "name:fr": "Resto"}}, {"type": "node", "id": 4701858593, "lat": 35.3871582, "lon": 5.3706533, "tags": {"addr:city": "\u0628\u0631\u064a\u0643\u0629", "addr:country": "DZ", "amenity": "cafe"}}, {"type": "node", "id": 4747351223, "lat": 35.3769391, "lon": 5.368338}, {"type": "node", "id": 4885424723, "lat": 35.0665477, "lon": 5.5808429, "tags": {"addr:country": "DZ", "addr:street": "Voie rapide Batna-Biskra", "amenity": "restaurant", "name": "\u0645\u0637\u0639\u0645 \u062d\u0643\u064a\u0645 \u0633\u0644\u0627\u0645\u064a", "name:ar": "\u0645\u0637\u0639\u0645 \u062d\u0643\u064a\u0645 \u0633\u0644\u0627\u0645\u064a", "name:fr": "Salami Hakim"}}, {"type": "node", "id": 4888918821, "lat": 35.3074802, "lon": 5.3740558, "tags": {"addr:country": "DZ", "amenity": "restaurant", "name": "\u0645\u0637\u0639\u0645 \u0639\u0628\u062f \u0627\u0644\u0631\u062d\u0645\u0627\u0646", "name:ar": "\u0645\u0637\u0639\u0645 \u0639\u0628\u062f \u0627\u0644\u0631\u062d\u0645\u0627\u0646", "name:fr": "Restaurant Abdel Rahman"}}, {"type": "node", "id": 6058737285, "lat": 35.3876642, "lon": 5.3637575, "tags": {"addr:housenumber": "20", "addr:postcode": "05001", "addr:street": "Rue Colonel Amirouche", "amenity": "cafe", "cuisine": "tea;breakfast;donut;pizza", "internet_access": "wlan", "name": "\u0645\u0642\u0647\u0649 \u0632\u064a\u0646\u0629", "name:ar": "\u0645\u0642\u0647\u0649 \u0632\u064a\u0646\u0629", "name:en": "Cafe zina", "name:fr": "Caf\u00e9 zina", "opening_hours": "Mo-Su 03:00-00:00"}}, {"type": "node", "id": 8426760011, "lat": 35.2456007, "lon": 5.7012168}, {"type": "node", "id": 8426760012, "lat": 35.2454091, "lon": 5.7011934}, {"type": "node", "id": 8426760013, "lat": 35.2454342, "lon": 5.7009895}, {"type": "node", "id": 8426760014, "lat": 35.2453885, "lon": 5.7009859}, {"type": "node", "id": 8426760015, "lat": 35.2453959, "lon": 5.7008758}, {"type": "node", "id": 8426760016, "lat": 35.2455771, "lon": 5.7009065}, {"type": "node", "id": 8426767417, "lat": 35.2455801, "lon": 5.7009823}, {"type": "node", "id": 8426767418, "lat": 35.2456331, "lon": 5.7009841}, {"type": "node", "id": 8429323383, "lat": 35.2465945, "lon": 5.7006279, "tags": {"amenity": "restaurant"}}, {"type": "node", "id": 8429323384, "lat": 35.2463293, "lon": 5.700618, "tags": {"amenity": "restaurant"}}, {"type": "node", "id": 8429323385, "lat": 35.2462575, "lon": 5.7006201, "tags": {"amenity": "restaurant"}}, {"type": "node", "id": 8429323386, "lat": 35.2455017, "lon": 5.7010453, "tags": {"amenity": "restaurant"}}, {"type": "node", "id": 11018145078, "lat": 35.3769625, "lon": 5.3684819}, {"type": "node", "id": 11018345692, "lat": 35.3766656, "lon": 5.3679975}, {"type": "node", "id": 11018353437, "lat": 35.3765282, "lon": 5.3681714}, {"type": "node", "id": 11018353456, "lat": 35.3767713, "lon": 5.3681382}, {"type": "node", "id": 11018353562, "lat": 35.3764875, "lon": 5.3678904}, {"type": "node", "id": 11018354168, "lat": 35.3810895, "lon": 5.3738589}, {"type": "node", "id": 11018354177, "lat": 35.3766772, "lon": 5.3682316}, {"type": "node", "id": 11018354762, "lat": 35.3770031, "lon": 5.3683874}, {"type": "node", "id": 11018354955, "lat": 35.3765066, "lon": 5.3680166}, {"type": "node", "id": 11018354982, "lat": 35.3767039, "lon": 5.3683146}, {"type": "node", "id": 11018355128, "lat": 35.3769652, "lon": 5.3682771}, {"type": "node", "id": 11018355779, "lat": 35.3764142, "lon": 5.3679971}, {"type": "node", "id": 11018355797, "lat": 35.3811993, "lon": 5.3739268}, {"type": "node", "id": 11018356374, "lat": 35.3764498, "lon": 5.3679799}, {"type": "node", "id": 11018356439, "lat": 35.3767832, "lon": 5.368146}, {"type": "node", "id": 11018356458, "lat": 35.3766642, "lon": 5.3681024}, {"type": "node", "id": 11018356792, "lat": 35.3768076, "lon": 5.3680893}, {"type": "node", "id": 11018356857, "lat": 35.3764604, "lon": 5.3678728}, {"type": "node", "id": 11018356861, "lat": 35.3766455, "lon": 5.3680442}, {"type": "node", "id": 11018357218, "lat": 35.3770077, "lon": 5.3683582}, {"type": "node", "id": 11018359193, "lat": 35.3767398, "lon": 5.3682113}, {"type": "node", "id": 11018359635, "lat": 35.3767917, "lon": 5.3681863}, {"type": "node", "id": 11018359664, "lat": 35.3765603, "lon": 5.3681559}, {"type": "node", "id": 11018359757, "lat": 35.3763804, "lon": 5.3680759}, {"type": "node", "id": 11018360066, "lat": 35.3768793, "lon": 5.368243}, {"type": "node", "id": 11018360250, "lat": 35.3764947, "lon": 5.3678736}, {"type": "node", "id": 11018360763, "lat": 35.3769792, "lon": 5.368372}, {"type": "node", "id": 11018361351, "lat": 35.3768604, "lon": 5.3682871}, {"type": "node", "id": 11018361767, "lat": 35.376987, "lon": 5.3683448}, {"type": "node", "id": 11018361788, "lat": 35.3810294, "lon": 5.3740052}, {"type": "node", "id": 11018361812, "lat": 35.3765718, "lon": 5.3680427}, {"type": "node", "id": 11018362055, "lat": 35.3766119, "lon": 5.3679493}, {"type": "node", "id": 11018383760, "lat": 35.448259, "lon": 5.5498442}, {"type": "node", "id": 11018383978, "lat": 35.4483478, "lon": 5.5499594}, {"type": "node", "id": 11018385107, "lat": 35.4483592, "lon": 5.5497277}, {"type": "node", "id": 11114331148, "lat": 35.3885999, "lon": 5.3717684}, {"type": "node", "id": 11114331788, "lat": 35.3886201, "lon": 5.3718024}, {"type": "node", "id": 11114332155, "lat": 35.3887116, "lon": 5.3717021}, {"type": "node", "id": 11114332803, "lat": 35.3886067, "lon": 5.3718144}, {"type": "node", "id": 11114333747, "lat": 35.3886156, "lon": 5.3715784}, {"type": "node", "id": 11114335239, "lat": 35.3887034, "lon": 5.3719776}, {"type": "node", "id": 11114335473, "lat": 35.3887194, "lon": 5.3717943}, {"type": "node", "id": 11114335611, "lat": 35.3885894, "lon": 5.3717778}, {"type": "node", "id": 11114335756, "lat": 35.3886967, "lon": 5.3717153}, {"type": "node", "id": 11114336088, "lat": 35.3885596, "lon": 5.3717275}, {"type": "node", "id": 11114336397, "lat": 35.3885326, "lon": 5.3716524}, {"type": "node", "id": 11114337031, "lat": 35.38875, "lon": 5.371767}, {"type": "node", "id": 11114338212, "lat": 35.388785, "lon": 5.3719049}, {"type": "node", "id": 11114392257, "lat": 35.4278968, "lon": 5.3174376}, {"type": "node", "id": 11114393003, "lat": 35.4280214, "lon": 5.3172703}, {"type": "node", "id": 11114393055, "lat": 35.4280956, "lon": 5.3173536}, {"type": "way", "id": 370966791, "nodes": [3746246135, 3746246136, 3746246137, 3746246138, 3746246139, 3746246135], "tags": {"amenity": "restaurant", "building": "yes", "cuisine": "regional", "name": "\u0645\u0637\u0639\u0645 \u0642\u0648\u0633 \u0642\u0632\u062d", "name:ar": "\u0645\u0637\u0639\u0645 \u0642\u0648\u0633 \u0642\u0632\u062d", "name:fr": "l'arc en ciel"}}, {"type": "way", "id": 371241419, "nodes": [3748188576, 3748188577, 3748188578, 3748188579, 3748188576], "tags": {"amenity": "cafe", "building": "yes", "name": "\u0645\u0642\u0647\u0649 \u0645\u0641\u062a\u0627\u062d \u0628\u0631\u0627\u0646\u064a", "name:ar": "\u0645\u0642\u0647\u0649 \u0645\u0641\u062a\u0627\u062d \u0628\u0631\u0627\u0646\u064a", "name:fr": "Caf\u00e9 Barani Meftah"}}, {"type": "way", "id": 421378107, "nodes": [4211476174, 4211476175, 4211476176, 4211476177, 4211476174], "tags": {"addr:city": "Barika", "addr:postcode": "05001", "amenity": "cafe", "building": "yes", "internet_access": "wlan", "name": "Cafeteria Djezzy"}}, {"type": "way", "id": 421461850, "nodes": [4212235203, 4212235204, 4212235205, 4212235206, 4212235203], "tags": {"addr:city": "Barika", "addr:postcode": "05001", "amenity": "cafe", "building": "yes", "cuisine": "coffee_shop", "name": "Cafeteria Messaoui"}}, {"type": "way", "id": 907514289, "nodes": [8426760011, 8426760012, 8426760013, 8426760014, 8426760015, 8426760016, 8426767417, 8426767418, 8426760011], "tags": {"amenity": "restaurant", "building": "yes"}}, {"type": "way", "id": 1186274882, "nodes": [11018354168, 11018361788, 4695437690, 11018355797, 11018354168], "tags": {"addr:country": "DZ", "amenity": "cafe", "building": "yes", "name": "\u0645\u0642\u0647\u0649 \u0627\u0644\u0625\u062e\u0648\u0629 \u0628\u0631\u0627\u0646\u064a", "name:ar": "\u0645\u0642\u0647\u0649 \u0627\u0644\u0625\u062e\u0648\u0629 \u0628\u0631\u0627\u0646\u064a", "name:fr": "Caf\u00e9 Fr\u00e8res Brani", "source": "FB: Algerie Mapper Team"}}, {"type": "way", "id": 1186274988, "nodes": [11018145078, 11018354762, 11018360763, 11018357218, 11018361767, 11018355128, 4747351223, 11018361351, 11018360066, 11018359635, 11018359193, 11018353456, 11018356439, 11018356792, 11018345692, 11018356861, 11018356458, 11018361812, 11018362055, 11018360250, 11018353562, 11018356857, 11018354955, 11018356374, 11018355779, 11018359757, 11018353437, 11018359664, 11018354177, 11018354982, 11018145078], "tags": {"addr:country": "DZ", "addr:street": "majouj lameri", "amenity": "cafe", "building": "yes", "name": "\u0645\u0642\u0647\u0649 \u0627\u0644\u0627\u062e\u0648\u0629 \u0645\u062f\u0648\u0631", "name:ar": "\u0645\u0642\u0647\u0649 \u0627\u0644\u0627\u062e\u0648\u0629 \u0645\u062f\u0648\u0631", "name:fr": "Caf\u00e9 Fr\u00e8res Meddour", "source": "FB: Algerie Mapper Team"}}, {"type": "way", "id": 1186279642, "nodes": [11018385107, 11018383760, 11018383978, 4510122589, 11018385107], "tags": {"addr:country": "DZ", "amenity": "cafe", "building": "yes", "source": "FB: Algerie Mapper Team"}}, {"type": "way", "id": 1198030631, "nodes": [11114335239, 11114338212, 11114335473, 11114337031, 11114332155, 11114335756, 11114333747, 11114336397, 3635627270, 11114336088, 11114335611, 11114331148, 11114331788, 11114332803, 11114335239], "tags": {"addr:city": "\u0628\u0631\u064a\u0643\u0629", "addr:country": "DZ", "amenity": "cafe", "building": "yes", "source": "microsoft/BuildingFootprints"}}, {"type": "way", "id": 1198039081, "nodes": [11114393003, 11114392257, 3515675228, 11114393055, 11114393003], "tags": {"addr:country": "DZ", "amenity": "restaurant", "building": "yes", "cuisine": "regional", "name": "Aissani", "source": "microsoft/BuildingFootprints"}}]}