{"version": 0.6, "generator": "Overpass API 0.7.62.7 375dc00a", "osm3s": {"timestamp_osm_base": "2025-06-14T14:49:31Z", "copyright": "The data included in this document is from www.openstreetmap.org. The data is made available under ODbL."}, "elements": [{"type": "node", "id": 765088729, "lat": 40.4949011, "lon": 25.6100071, "tags": {"amenity": "restaurant", "cuisine": "greek", "name": "\u03a4\u03bf \u03a0\u03b5\u03c1\u03b9\u03b2\u03cc\u03bb\u03b9 \u03a4' \u039f\u03c5\u03c1\u03b1\u03bd\u03bf\u03cd", "name:el": "\u03a4\u03bf \u03a0\u03b5\u03c1\u03b9\u03b2\u03cc\u03bb\u03b9 \u03a4' \u039f\u03c5\u03c1\u03b1\u03bd\u03bf\u03cd"}}, {"type": "node", "id": 1724466400, "lat": 40.4595975, "lon": 25.6685746, "tags": {"addr:housenumber": "21", "addr:postcode": "68002", "addr:street": "\u0386\u03bd\u03c9 \u039c\u03b5\u03c1\u03b9\u03ac", "amenity": "restaurant", "cuisine": "greek", "name": "\u039a\u03b1\u03c1\u03c5\u03b4\u03b9\u03ad\u03c2", "name:el": "\u039a\u03b1\u03c1\u03c5\u03b4\u03b9\u03ad\u03c2", "name:en": "Karydies", "phone": "+302551098266"}}, {"type": "node", "id": 3068377691, "lat": 40.8464997, "lon": 25.8545077, "tags": {"amenity": "restaurant"}}, {"type": "node", "id": 3068442155, "lat": 40.5013517, "lon": 25.6167421}, {"type": "node", "id": 3068442156, "lat": 40.5012298, "lon": 25.6167445}, {"type": "node", "id": 3068442157, "lat": 40.5012277, "lon": 25.616561}, {"type": "node", "id": 3068442158, "lat": 40.5013496, "lon": 25.6165585}, {"type": "node", "id": 3068462947, "lat": 40.502462, "lon": 25.6020627, "tags": {"amenity": "restaurant"}}, {"type": "node", "id": 3070210241, "lat": 40.4971377, "lon": 25.6033892, "tags": {"amenity": "cafe", "check_date": "2024-05-16", "internet_access": "yes", "internet_access:fee": "no", "internet_access:ssid": "KAFENEIO \"TA THERMA\"", "name": "\u039a\u03b1\u03c6\u03b5\u03bd\u03b5\u03af\u03c9\u03bd \u03c4\u03b1 \u0398\u03ad\u03c1\u03bc\u03b1", "outdoor_seating": "yes", "smoking": "yes", "wheelchair": "no"}}, {"type": "node", "id": 4055487086, "lat": 40.4963024, "lon": 25.6037575}, {"type": "node", "id": 4055487087, "lat": 40.4962332, "lon": 25.6036883}, {"type": "node", "id": 4055487088, "lat": 40.4961385, "lon": 25.6038643}, {"type": "node", "id": 4055490689, "lat": 40.4962122, "lon": 25.6039434}, {"type": "node", "id": 4055490706, "lat": 40.4965124, "lon": 25.6043533}, {"type": "node", "id": 4055490707, "lat": 40.4964196, "lon": 25.6042799}, {"type": "node", "id": 4055490708, "lat": 40.4963566, "lon": 25.6044177}, {"type": "node", "id": 4055490709, "lat": 40.4964493, "lon": 25.6044911}, {"type": "node", "id": 4500503091, "lat": 40.848585, "lon": 25.7511415, "tags": {"amenity": "restaurant", "name": "\u03a4\u03b1 \u03b8\u03b9\u03bb\u03b1\u03c1\u03ac\u03ba\u03b9\u03b1", "name:el": "\u03a4\u03b1 \u03b8\u03b9\u03bb\u03b1\u03c1\u03ac\u03ba\u03b9\u03b1", "name:en": "Filarakia", "name:tr": "Filarakia"}}, {"type": "node", "id": 4584087668, "lat": 40.8434718, "lon": 25.8787613}, {"type": "node", "id": 4584087669, "lat": 40.8433351, "lon": 25.8788603}, {"type": "node", "id": 4584087670, "lat": 40.8435324, "lon": 25.8793365}, {"type": "node", "id": 4584087671, "lat": 40.8435392, "lon": 25.878924}, {"type": "node", "id": 4584408113, "lat": 40.8460685, "lon": 25.8776355}, {"type": "node", "id": 4584408114, "lat": 40.8460481, "lon": 25.8776858}, {"type": "node", "id": 4584408115, "lat": 40.8459786, "lon": 25.8777225}, {"type": "node", "id": 4584408116, "lat": 40.8459517, "lon": 25.8776417}, {"type": "node", "id": 4584408117, "lat": 40.8460491, "lon": 25.8775914}, {"type": "node", "id": 4590791561, "lat": 40.843141, "lon": 25.8740569}, {"type": "node", "id": 4590791562, "lat": 40.8430375, "lon": 25.87412}, {"type": "node", "id": 4590791563, "lat": 40.8428476, "lon": 25.8735758}, {"type": "node", "id": 4590791564, "lat": 40.8429512, "lon": 25.8735126}, {"type": "node", "id": 4659607376, "lat": 40.8438362, "lon": 25.8748113, "tags": {"addr:city": "\u0391\u03bb\u03b5\u03be\u03b1\u03bd\u03b4\u03c1\u03bf\u03cd\u03c0\u03bf\u03bb\u03b7", "addr:housenumber": "22", "addr:postcode": "68100", "addr:street": "\u039b\u03b5\u03c9\u03c6\u03cc\u03c1\u03bf\u03c2 \u039c\u03b5\u03b3. \u0391\u03bb\u03b5\u03be\u03ac\u03bd\u03b4\u03c1\u03bf\u03c5", "amenity": "cafe", "name": "El Gato Negro"}}, {"type": "node", "id": 4659607377, "lat": 40.8439762, "lon": 25.8752087, "tags": {"addr:city": "\u0391\u03bb\u03b5\u03be\u03b1\u03bd\u03b4\u03c1\u03bf\u03cd\u03c0\u03bf\u03bb\u03b7", "addr:housenumber": "50", "addr:postcode": "68100", "addr:street": "\u039b\u03b5\u03c9\u03c6\u03cc\u03c1\u03bf\u03c2 \u039c\u03b5\u03b3. \u0391\u03bb\u03b5\u03be\u03ac\u03bd\u03b4\u03c1\u03bf\u03c5", "amenity": "cafe", "name": "Simio", "opening_hours": "Mo-Su 07:00-24:00; Mo-Su 00:00-02:30", "outdoor_seating": "yes", "phone": "2551 033318", "website": "https://www.facebook.com/simiocafe"}}, {"type": "node", "id": 4659607379, "lat": 40.8441191, "lon": 25.8753691, "tags": {"addr:city": "\u0391\u03bb\u03b5\u03be\u03b1\u03bd\u03b4\u03c1\u03bf\u03cd\u03c0\u03bf\u03bb\u03b7", "addr:housenumber": "3", "addr:postcode": "68100", "addr:street": "\u039c\u03b9\u03b1\u03bf\u03cd\u03bb\u03b7", "amenity": "restaurant", "name": "\u03a4\u03c3\u03af\u03c0\u03bf\u03c5\u03c1\u03bf \u03c3\u03c4\u03bf \u03c6\u03c4\u03b5\u03c1\u03cc", "opening_hours": "Mo-Su 11:30-24:00", "phone": "2551 110383"}}, {"type": "node", "id": 4659607381, "lat": 40.8445905, "lon": 25.8751146, "tags": {"addr:city": "\u0391\u03bb\u03b5\u03be\u03b1\u03bd\u03b4\u03c1\u03bf\u03cd\u03c0\u03bf\u03bb\u03b7", "addr:postcode": "68100", "addr:street": "\u039c\u03b9\u03b1\u03bf\u03cd\u03bb\u03b7", "amenity": "restaurant", "name": "Armenian family restaurant", "phone": "2551 037777"}}, {"type": "node", "id": 4659607382, "lat": 40.8445119, "lon": 25.8755156, "tags": {"addr:city": "\u0391\u03bb\u03b5\u03be\u03b1\u03bd\u03b4\u03c1\u03bf\u03cd\u03c0\u03bf\u03bb\u03b7", "addr:housenumber": "7", "addr:postcode": "68100", "addr:street": "\u039c\u03ac\u03c1\u03ba\u03bf\u03c5 \u039c\u03c0\u03cc\u03c4\u03c3\u03b1\u03c1\u03b7", "amenity": "cafe", "name": "\u03a0\u0391\u0393\u03a9\u039d\u0397\u03a3", "opening_hours": "Mo-Su 06:00-22:00", "phone": "2551 089949"}}, {"type": "node", "id": 4659607383, "lat": 40.8446092, "lon": 25.8756678, "tags": {"addr:city": "\u0391\u03bb\u03b5\u03be\u03b1\u03bd\u03b4\u03c1\u03bf\u03cd\u03c0\u03bf\u03bb\u03b7", "addr:housenumber": "32", "addr:postcode": "68100", "addr:street": "\u0394\u03b9\u03ba\u03b1\u03c3\u03c4\u03b7\u03c1\u03af\u03c9\u03bd", "amenity": "cafe", "name": "\u0391\u03b5\u03c1\u03b9\u03ba\u03cc"}}, {"type": "node", "id": 4659607384, "lat": 40.8443843, "lon": 25.8744356, "tags": {"addr:city": "\u0391\u03bb\u03b5\u03be\u03b1\u03bd\u03b4\u03c1\u03bf\u03cd\u03c0\u03bf\u03bb\u03b7", "addr:housenumber": "12", "addr:postcode": "68100", "addr:street": "\u039a\u03b1\u03bd\u03ac\u03c1\u03b7", "amenity": "cafe", "name": "Dfriend", "opening_hours": "Mo-Sa 08:00-01:30; Su 08:00-24:00", "phone": "2551 031111", "website": "https://www.facebook.com/DfriendcocktailsCoffee"}}, {"type": "node", "id": 4659607385, "lat": 40.8442851, "lon": 25.874354, "tags": {"addr:city": "\u0391\u03bb\u03b5\u03be\u03b1\u03bd\u03b4\u03c1\u03bf\u03cd\u03c0\u03bf\u03bb\u03b7", "addr:housenumber": "9", "addr:postcode": "68100", "addr:street": "\u039a\u03b1\u03bd\u03ac\u03c1\u03b7", "amenity": "cafe", "name": "ALTER EGO", "opening_hours": "Mo-Su 08:00-24:00; Mo-Su 00:00-04:00", "phone": "2551 034339"}}, {"type": "node", "id": 4662894624, "lat": 40.8444344, "lon": 25.8740142, "tags": {"addr:city": "\u0391\u03bb\u03b5\u03be\u03b1\u03bd\u03b4\u03c1\u03bf\u03cd\u03c0\u03bf\u03bb\u03b7", "addr:housenumber": "35", "addr:postcode": "68100", "addr:street": "\u0395\u03b9\u03c1\u03ae\u03bd\u03b7\u03c2", "amenity": "restaurant", "name": "Thomas Kitchen", "opening_hours": "Mo-Su 12:00-18:00", "phone": "2551 033712", "website": "thomaskitchen.gr"}}, {"type": "node", "id": 4662894625, "lat": 40.8444994, "lon": 25.8742253, "tags": {"addr:city": "\u0391\u03bb\u03b5\u03be\u03b1\u03bd\u03b4\u03c1\u03bf\u03cd\u03c0\u03bf\u03bb\u03b7", "addr:housenumber": "11", "addr:postcode": "68100", "addr:street": "\u039a\u03b1\u03bd\u03ac\u03c1\u03b7", "amenity": "restaurant", "name": "Pie Gallery", "opening_hours": "Mo-Su 06:00-24:00", "phone": "2551 082100"}}, {"type": "node", "id": 4662894628, "lat": 40.8440131, "lon": 25.8738936, "tags": {"addr:city": "\u0391\u03bb\u03b5\u03be\u03b1\u03bd\u03b4\u03c1\u03bf\u03cd\u03c0\u03bf\u03bb\u03b7", "addr:housenumber": "42", "addr:postcode": "68100", "addr:street": "\u0394\u03b9\u03ba\u03b1\u03c3\u03c4\u03b7\u03c1\u03af\u03c9\u03bd", "amenity": "cafe", "name": "Biscotto", "phone": "2551 021111"}}, {"type": "node", "id": 4662894630, "lat": 40.8437744, "lon": 25.8740759, "tags": {"addr:city": "\u0391\u03bb\u03b5\u03be\u03b1\u03bd\u03b4\u03c1\u03bf\u03cd\u03c0\u03bf\u03bb\u03b7", "addr:housenumber": "2", "addr:postcode": "68100", "addr:street": "\u03a3\u03bf\u03c5\u03bb\u03af\u03bf\u03c5", "amenity": "cafe", "name": "Rock 'n' Roll", "phone": "694 601 3502"}}, {"type": "node", "id": 4662894633, "lat": 40.8447144, "lon": 25.8739201, "tags": {"addr:city": "\u0391\u03bb\u03b5\u03be\u03b1\u03bd\u03b4\u03c1\u03bf\u03cd\u03c0\u03bf\u03bb\u03b7", "addr:housenumber": "337", "addr:postcode": "68100", "addr:street": "\u0394\u03b7\u03bc\u03bf\u03ba\u03c1\u03b1\u03c4\u03af\u03b1\u03c2", "amenity": "cafe", "brand": "Mikel", "brand:wikidata": "Q16952021", "brand:wikipedia": "el:Mikel Coffee Company", "cuisine": "coffee_shop", "internet_access": "yes", "name": "Mikel", "outdoor_seating": "yes", "phone": "2551 088827", "smoking": "outside", "takeaway": "yes", "website": "mikelcc.gr"}}, {"type": "node", "id": 4662894636, "lat": 40.8454417, "lon": 25.8749297, "tags": {"addr:city": "\u0391\u03bb\u03b5\u03be\u03b1\u03bd\u03b4\u03c1\u03bf\u03cd\u03c0\u03bf\u03bb\u03b7", "addr:housenumber": "300", "addr:postcode": "68100", "addr:street": "\u0394\u03b7\u03bc\u03bf\u03ba\u03c1\u03b1\u03c4\u03af\u03b1\u03c2", "amenity": "cafe", "internet_access": "yes", "name": "S\u03bfH\u03bf", "outdoor_seating": "yes", "phone": "2551 088134", "website": "sohocafe.gr"}}, {"type": "node", "id": 4662894637, "lat": 40.8447759, "lon": 25.8749936, "tags": {"addr:city": "\u0391\u03bb\u03b5\u03be\u03b1\u03bd\u03b4\u03c1\u03bf\u03cd\u03c0\u03bf\u03bb\u03b7", "addr:housenumber": "14", "addr:postcode": "68100", "addr:street": "\u039c\u03b9\u03b1\u03bf\u03cd\u03bb\u03b7", "amenity": "cafe", "name": "T3 Coffee Roasters", "phone": "2551 026057", "website": "3tcoffee.gr"}}, {"type": "node", "id": 4662894638, "lat": 40.8448426, "lon": 25.8751816, "tags": {"addr:city": "\u0391\u03bb\u03b5\u03be\u03b1\u03bd\u03b4\u03c1\u03bf\u03cd\u03c0\u03bf\u03bb\u03b7", "addr:housenumber": "13-15", "addr:postcode": "68100", "addr:street": "\u0395\u03b9\u03c1\u03ae\u03bd\u03b7\u03c2", "amenity": "cafe", "name": "Dedeagac ..."}}, {"type": "node", "id": 4662894639, "lat": 40.8442799, "lon": 25.8760797, "tags": {"addr:city": "\u0391\u03bb\u03b5\u03be\u03b1\u03bd\u03b4\u03c1\u03bf\u03cd\u03c0\u03bf\u03bb\u03b7", "addr:housenumber": "20", "addr:postcode": "68100", "addr:street": "\u039b\u03b5\u03c9\u03c6\u03cc\u03c1\u03bf\u03c2 \u039c\u03b5\u03b3. \u0391\u03bb\u03b5\u03be\u03ac\u03bd\u03b4\u03c1\u03bf\u03c5", "amenity": "restaurant", "name": "\u03a6\u039f\u03a5\u039d\u03a4\u0391", "name:el": "\u03a6\u039f\u03a5\u039d\u03a4\u0391", "name:en": "Fooda", "opening_hours": "Tu-Sa 11:00-24:00; Mo off", "phone": "2551 080880", "website": "https://fooda.gr/"}}, {"type": "node", "id": 4662894641, "lat": 40.844582, "lon": 25.8762986, "tags": {"addr:city": "\u0391\u03bb\u03b5\u03be\u03b1\u03bd\u03b4\u03c1\u03bf\u03cd\u03c0\u03bf\u03bb\u03b7", "addr:housenumber": "12", "addr:postcode": "68100", "addr:street": "\u039a\u03cd\u03c0\u03c1\u03bf\u03c5", "amenity": "restaurant", "name": "\u03a4\u03b1\u03bc\u03ac\u03bc", "name:el": "\u03a4\u03b1\u03bc\u03ac\u03bc", "name:en": "Tamam", "opening_hours": "Mo-Su 12:30-24:00; Mo-Su 00:00-01:00"}}, {"type": "node", "id": 4662894648, "lat": 40.8457249, "lon": 25.8757696, "tags": {"addr:city": "\u0391\u03bb\u03b5\u03be\u03b1\u03bd\u03b4\u03c1\u03bf\u03cd\u03c0\u03bf\u03bb\u03b7", "addr:housenumber": "1", "addr:postcode": "68100", "addr:street": "14\u03b7\u03c2 \u039c\u03b1\u0390\u03bf\u03c5", "amenity": "cafe", "name": "ECCENTRICO", "phone": "2551 080028", "website": "https://www.facebook.com/eccentrico.gr?ref=ts&fref=ts"}}, {"type": "node", "id": 4662894651, "lat": 40.8462776, "lon": 25.87544, "tags": {"addr:city": "\u0391\u03bb\u03b5\u03be\u03b1\u03bd\u03b4\u03c1\u03bf\u03cd\u03c0\u03bf\u03bb\u03b7", "addr:housenumber": "34-44", "addr:postcode": "68100", "addr:street": "\u0395\u03bb. \u0392\u03b5\u03bd\u03b9\u03b6\u03ad\u03bb\u03bf\u03c5", "amenity": "cafe", "name": "The Shot", "opening_hours": "Mo-Su 06:30-21:00", "phone": "2551 115271"}}, {"type": "node", "id": 4662894652, "lat": 40.8460942, "lon": 25.8754542, "tags": {"addr:city": "\u0391\u03bb\u03b5\u03be\u03b1\u03bd\u03b4\u03c1\u03bf\u03cd\u03c0\u03bf\u03bb\u03b7", "addr:housenumber": "31", "addr:postcode": "68100", "addr:street": "\u0395\u03bb. \u0392\u03b5\u03bd\u03b9\u03b6\u03ad\u03bb\u03bf\u03c5", "amenity": "restaurant", "cuisine": "souvlaki", "delivery": "yes", "name": "\u0393\u03b5\u03c5\u03c3\u03b9\u03c4\u03b5\u03bb\u03b5\u03b9\u03b1", "opening_hours": "Mo-Sa 09:30-23:30; Su off", "phone": "2551 023878", "takeaway": "yes", "website": "https://geusiteleia.gr/"}}, {"type": "node", "id": 4663198671, "lat": 40.845712, "lon": 25.8739239, "tags": {"addr:city": "\u0391\u03bb\u03b5\u03be\u03b1\u03bd\u03b4\u03c1\u03bf\u03cd\u03c0\u03bf\u03bb\u03b7", "addr:postcode": "68100", "amenity": "cafe", "name": "\u03a3\u03b9\u03b4\u03b7\u03c1\u03bf\u03c0\u03bf\u03c5\u03bb\u03bf\u03c5"}}, {"type": "node", "id": 4663198672, "lat": 40.8456837, "lon": 25.8724367, "tags": {"addr:city": "\u0391\u03bb\u03b5\u03be\u03b1\u03bd\u03b4\u03c1\u03bf\u03cd\u03c0\u03bf\u03bb\u03b7", "addr:housenumber": "47", "addr:postcode": "68100", "addr:street": "\u03a0\u03b1\u03bb\u03b1\u03b9\u03bf\u03bb\u03cc\u03b3\u03bf\u03c5", "amenity": "restaurant", "name": "\u039c\u03ad\u03bb\u03b9 \u0393\u03ac\u03bb\u03b1", "payment:credit_cards": "yes", "payment:debit_cards": "yes", "phone": "2551 028900"}}, {"type": "node", "id": 4731186325, "lat": 40.8491808, "lon": 25.7566926, "tags": {"amenity": "restaurant", "name:en": "Agios Giorgis"}}, {"type": "node", "id": 4793990622, "lat": 40.8693485, "lon": 25.989943, "tags": {"amenity": "cafe"}}, {"type": "node", "id": 4793990726, "lat": 40.8698003, "lon": 25.9902431, "tags": {"amenity": "cafe"}}, {"type": "node", "id": 4793992226, "lat": 40.8698943, "lon": 25.9918609, "tags": {"amenity": "cafe"}}, {"type": "node", "id": 4794982123, "lat": 40.8436022, "lon": 25.8741457, "tags": {"amenity": "cafe", "check_date": "2024-06-27", "internet_access": "yes", "internet_access:fee": "no", "name": "Zucca Cafe Bar", "name:el": "Zucca Cafe Bar", "name:en": "Zucca", "opening_hours": "08:00-03:00", "outdoor_seating": "yes", "payment:cash": "yes", "payment:credit_cards": "yes", "payment:debit_cards": "yes", "smoking": "outside", "takeaway": "only", "toilets": "yes", "toilets:wheelchair": "yes", "wheelchair": "yes"}}, {"type": "node", "id": 4990283134, "lat": 40.4963628, "lon": 25.6036076, "tags": {"amenity": "restaurant"}}, {"type": "node", "id": 5066837127, "lat": 40.8495024, "lon": 25.8263418, "tags": {"amenity": "cafe", "name": "Janeiro Beach Bar"}}, {"type": "node", "id": 5272091123, "lat": 40.8450458, "lon": 25.8738587, "tags": {"amenity": "cafe", "name:en": "Room 6"}}, {"type": "node", "id": 5301816516, "lat": 40.8540876, "lon": 25.7453243, "tags": {"amenity": "cafe"}}, {"type": "node", "id": 5301816824, "lat": 40.8542067, "lon": 25.7456623, "tags": {"amenity": "restaurant", "name": "\u03a4\u03b1 \u03a6\u03b9\u03bb\u03b1\u03c1\u03ac\u03ba\u03b9\u03b1"}}, {"type": "node", "id": 5301821296, "lat": 40.8540408, "lon": 25.7456606, "tags": {"amenity": "cafe"}}, {"type": "node", "id": 5301821297, "lat": 40.8539738, "lon": 25.7455084, "tags": {"amenity": "cafe"}}, {"type": "node", "id": 5301821298, "lat": 40.854109, "lon": 25.7456783, "tags": {"amenity": "cafe"}}, {"type": "node", "id": 5301826735, "lat": 40.8469301, "lon": 25.7289417, "tags": {"amenity": "cafe"}}, {"type": "node", "id": 5301833588, "lat": 40.8477734, "lon": 25.7263125, "tags": {"amenity": "restaurant", "cuisine": "\u03a8\u03b1\u03c1\u03b9\u03ba\u03ac", "name": "Yo So"}}, {"type": "node", "id": 5301833594, "lat": 40.8479124, "lon": 25.7246131, "tags": {"amenity": "restaurant"}}, {"type": "node", "id": 5301848135, "lat": 40.8647698, "lon": 25.6963633, "tags": {"amenity": "restaurant", "cuisine": "\u03a8\u03b7\u03c4\u03b3\u03bf\u03c0\u03c9\u03bb\u03b5\u03af\u03bf"}}, {"type": "node", "id": 5301852567, "lat": 40.8680369, "lon": 25.6762681, "tags": {"alt_name": "Salih Usta'n\u0131n Yeri", "amenity": "restaurant", "name": "\u039c\u03b5\u03c3\u03b7\u03bc\u03b2\u03c1\u03af\u03b1", "opening_hours": "PH,Mo-Su 11:00-23:00", "phone": "+302551096553"}}, {"type": "node", "id": 5702026144, "lat": 40.841941, "lon": 25.8690732, "tags": {"addr:city": "Alexandroupolis", "addr:housenumber": "2", "addr:postcode": "68100", "addr:street": "Apolloniados", "amenity": "restaurant", "name": "To Pasaliki"}}, {"type": "node", "id": 5745366322, "lat": 40.8430238, "lon": 25.8738015, "tags": {"amenity": "cafe", "name": "\u03a6\u03bb\u03bf\u03b9\u03c3\u03b2\u03bf\u03c2", "phone": "+30 2551 035519"}}, {"type": "node", "id": 5787718153, "lat": 40.496245, "lon": 25.6051233, "tags": {"addr:street": "\u039a\u03b1\u03bc\u03b1\u03c1\u03b9\u03ce\u03c4\u03b9\u03c3\u03c3\u03b1 - \u0398\u03ad\u03c1\u03bc\u03b1", "amenity": "restaurant", "cuisine": "greek", "name": "\u03a4\u03bf \u03a6\u03b5\u03b3\u03b3\u03ac\u03c1\u03b9", "name:de": "Feggari", "name:el": "\u03a4\u03bf \u03a6\u03b5\u03b3\u03b3\u03ac\u03c1\u03b9", "name:en": "Feggari"}}, {"type": "node", "id": 5836886085, "lat": 40.4905584, "lon": 25.6557352, "tags": {"amenity": "restaurant", "name": "\u0397 \u0393\u03ad\u03c6\u03c5\u03c1\u03b1 \u03c4\u03bf\u03c5 \u03a6\u03bf\u03bd\u03b9\u03ac", "name:el": "\u0397 \u0393\u03ad\u03c6\u03c5\u03c1\u03b1 \u03c4\u03bf\u03c5 \u03a6\u03bf\u03bd\u03b9\u03ac", "name:en": "I Gefyra tou Fonia"}}, {"type": "node", "id": 5864261342, "lat": 40.8420433, "lon": 25.8662287}, {"type": "node", "id": 5864261343, "lat": 40.8419854, "lon": 25.8662244}, {"type": "node", "id": 5864261344, "lat": 40.8418954, "lon": 25.8668641}, {"type": "node", "id": 5864261345, "lat": 40.8419637, "lon": 25.866888}, {"type": "node", "id": 5959902006, "lat": 40.8673198, "lon": 25.8791008, "tags": {"amenity": "restaurant", "name": "\u039a\u03c4\u03ae\u03bc\u03b1 \u0392\u03b1\u03c3\u03af\u03bb\u03b7"}}, {"type": "node", "id": 5997410085, "lat": 40.8417672, "lon": 25.8705126, "tags": {"amenity": "cafe", "name": "\u0391\u03c1\u03b3\u03c9"}}, {"type": "node", "id": 6670013388, "lat": 40.4922017, "lon": 25.6120096, "tags": {"amenity": "restaurant", "cuisine": "greek", "name": "\u03a4\u03b1\u03b2\u03ad\u03c1\u03bd\u03b1 \u039e\u03b5\u03bd\u03af\u03b1", "name:el": "\u03a4\u03b1\u03b2\u03ad\u03c1\u03bd\u03b1 \u039e\u03b5\u03bd\u03af\u03b1", "name:en": "Taverna Xenia"}}, {"type": "node", "id": 6763858187, "lat": 40.8430349, "lon": 25.8720609, "tags": {"amenity": "restaurant", "cuisine": "greek", "internet_access": "wlan", "name": "\u039d\u03b7\u03c3\u03b9\u03ce\u03c4\u03b9\u03ba\u03bf", "name:el": "\u039d\u03b7\u03c3\u03b9\u03ce\u03c4\u03b9\u03ba\u03bf", "name:en": "Nisiotiko"}}, {"type": "node", "id": 7257903845, "lat": 40.8437015, "lon": 25.8792141}, {"type": "node", "id": 7260552086, "lat": 40.8449931, "lon": 25.8737001, "tags": {"amenity": "restaurant", "cuisine": "greek", "name": "\u039c\u03c5\u03c3\u03c4\u03b9\u03ba\u03cc \u0391\u03c1\u03ba\u03bf\u03cd\u03b4\u03b9"}}, {"type": "node", "id": 7261698585, "lat": 40.8466039, "lon": 25.8736113, "tags": {"amenity": "restaurant", "cuisine": "italian_pizza;greek", "name": "Furnato"}}, {"type": "node", "id": 7369702368, "lat": 40.8435716, "lon": 25.8789005}, {"type": "node", "id": 7710700511, "lat": 40.8485674, "lon": 25.7514175}, {"type": "node", "id": 7710700512, "lat": 40.84844, "lon": 25.7513419}, {"type": "node", "id": 7710700513, "lat": 40.8485111, "lon": 25.7511323}, {"type": "node", "id": 7710700514, "lat": 40.8486386, "lon": 25.7512079}, {"type": "node", "id": 7777408286, "lat": 40.84553, "lon": 25.8714154, "tags": {"addr:housenumber": "\u03a0\u03b1\u03bb\u03b5\u03b9\u03bf\u03bb\u03bf\u03b3\u03bf\u03c5 66", "addr:postcode": "68100", "amenity": "cafe", "internet_access": "wlan", "name": "\u039a\u03b1\u03c6\u03b5 \u03c4\u03b1\u03af\u03c1\u03b9", "name:el": "\u039a\u03b1\u03c6\u03b5 \u03c4\u03b1\u03af\u03c1\u03b9", "name:en": "Cafeteri", "opening_hours": "Mo-Sa 07:00-21:00; Su 08:00-14:00", "phone": "2551401191", "website": "https://m.facebook.com/CafeTeri-Neighborhood-Coffee-101427044962974/?tsid=0.6127865543445806&source=result"}}, {"type": "node", "id": 9038182227, "lat": 40.8515853, "lon": 25.8276506, "tags": {"addr:city": "\u039d\u03ad\u03b1 \u03a7\u03b7\u03bb\u03ae", "addr:postcode": "68100", "addr:street": "\u039a\u03b1\u03bd\u03ac\u03c1\u03b7", "amenity": "cafe", "name": "\u039f \u03a3\u03ac\u03ba\u03b7\u03c2"}}, {"type": "node", "id": 9041183771, "lat": 40.8484392, "lon": 25.7507474, "tags": {"amenity": "cafe", "name": "\u0391\u03ca \u039d\u03b9\u03ba\u03bf\u03bb\u03b1\u03c2"}}, {"type": "node", "id": 9044763011, "lat": 40.851891, "lon": 25.8299283, "tags": {"amenity": "cafe", "name": "\u0395\u03bb\u03b5\u03bd\u03af\u03b4\u03b7"}}, {"type": "node", "id": 9044780632, "lat": 40.8519798, "lon": 25.8293685, "tags": {"amenity": "cafe", "brand": "Coffee Island", "brand:wikidata": "Q60867333", "cuisine": "coffee_shop", "name": "Coffee Island", "takeaway": "yes"}}, {"type": "node", "id": 9044795437, "lat": 40.8518725, "lon": 25.8300946, "tags": {"amenity": "cafe", "name": "Boh\u00e8me"}}, {"type": "node", "id": 9044798503, "lat": 40.8518596, "lon": 25.8310461, "tags": {"amenity": "cafe", "name": "Funky Cafe"}}, {"type": "node", "id": 9044801366, "lat": 40.8519219, "lon": 25.8296186, "tags": {"amenity": "cafe", "name": "\u0393\u03b5\u03cd\u03c3\u03b7 & \u03a5\u03b3\u03b5\u03af\u03b1"}}, {"type": "node", "id": 9045327678, "lat": 40.8640537, "lon": 26.0326806, "tags": {"amenity": "restaurant", "name": "\u03a4\u03b1\u03b2\u03ad\u03c1\u03bd\u03b1 \u03a3\u03b9\u03b4\u03ad\u03c1\u03b7\u03c2"}}, {"type": "node", "id": 9045446773, "lat": 40.8524157, "lon": 25.8272531, "tags": {"amenity": "restaurant", "cuisine": "pizza", "name": "Pizza Milano", "opening_hours": "Mo-Su 19:30-23:00"}}, {"type": "node", "id": 9047523775, "lat": 40.8488467, "lon": 25.8312967, "tags": {"amenity": "cafe", "name": "\u039a\u03b1\u03c6\u03ad \u039f\u03c1\u03af\u03b6\u03bf\u03bd\u03c4\u03b1\u03c2", "opening_hours": "Mo-Su 09:00-00:00", "phone": "+30 25510 39090"}}, {"type": "node", "id": 9047543310, "lat": 40.8508008, "lon": 25.835055, "tags": {"amenity": "restaurant", "cuisine": "greek", "name": "Scorpios", "opening_hours": "Fr, Sa 12:00-23:00; Tu-Th, Su 12:00-18:00", "phone": "+30 25510 40333"}}, {"type": "node", "id": 9047553037, "lat": 40.8498476, "lon": 25.8273448, "tags": {"addr:housenumber": "1", "addr:street": "\u039a\u03b1\u03bd\u03ac\u03c1\u03b7", "amenity": "restaurant", "cuisine": "greek", "name": "\u0398\u03ad\u03b1 \u0398\u03ac\u03bb\u03b1\u03c3\u03c3\u03b1", "opening_hours": "Mo-Su 11:00-23:00", "phone": "+30 25510 40330"}}, {"type": "node", "id": 9131324172, "lat": 40.849881, "lon": 25.8823387, "tags": {"amenity": "restaurant", "name": "Poul Poul"}}, {"type": "node", "id": 9134427510, "lat": 40.8563309, "lon": 25.9044495, "tags": {"amenity": "cafe", "cuisine": "coffee_shop", "name": "\u0397 \u03a3\u03c4\u03ac\u03c3\u03b9\u03c2"}}, {"type": "node", "id": 9134427511, "lat": 40.854227, "lon": 25.8853522, "tags": {"amenity": "cafe", "cuisine": "coffee_shop"}}, {"type": "node", "id": 9134624348, "lat": 40.8481185, "lon": 25.8733317, "tags": {"amenity": "cafe", "cuisine": "coffee_shop"}}, {"type": "node", "id": 9134624353, "lat": 40.8527669, "lon": 25.8700078, "tags": {"amenity": "cafe"}}, {"type": "node", "id": 9134624354, "lat": 40.8526496, "lon": 25.8697793, "tags": {"amenity": "restaurant", "cuisine": "pizza", "name": "Pizza Rosina"}}, {"type": "node", "id": 9134624361, "lat": 40.8505065, "lon": 25.8747327, "tags": {"amenity": "cafe", "cuisine": "coffee_shop"}}, {"type": "node", "id": 9136880609, "lat": 40.8553288, "lon": 25.8717221, "tags": {"amenity": "cafe", "cuisine": "coffee_shop"}}, {"type": "node", "id": 9136896925, "lat": 40.8536949, "lon": 25.8774064, "tags": {"amenity": "restaurant", "name": "\u039c\u03c0\u03b1\u03ba\u03b1\u03bb\u03cc\u03b3\u03b1\u03c4\u03bf\u03c2"}}, {"type": "node", "id": 9139540666, "lat": 40.8471443, "lon": 25.8808173, "tags": {"amenity": "cafe", "cuisine": "coffee_shop"}}, {"type": "node", "id": 9141102557, "lat": 40.8521909, "lon": 25.8779943, "tags": {"amenity": "restaurant"}}, {"type": "node", "id": 9141102560, "lat": 40.8491266, "lon": 25.8764306, "tags": {"amenity": "cafe"}}, {"type": "node", "id": 9141102563, "lat": 40.84781, "lon": 25.8849541, "tags": {"amenity": "restaurant", "name": "\u039a\u03bf\u03c4\u03bf\u03bb\u03b9\u03c7\u03bf\u03cd\u03b4\u03b7\u03c2"}}, {"type": "node", "id": 9143951550, "lat": 40.8475051, "lon": 25.8858358, "tags": {"amenity": "restaurant"}}, {"type": "node", "id": 9143951552, "lat": 40.8470948, "lon": 25.8831516, "tags": {"amenity": "restaurant"}}, {"type": "node", "id": 9148262356, "lat": 40.8523134, "lon": 25.8779632, "tags": {"amenity": "cafe"}}, {"type": "node", "id": 9148262367, "lat": 40.8475763, "lon": 25.8798347, "tags": {"amenity": "cafe"}}, {"type": "node", "id": 9148262368, "lat": 40.8472156, "lon": 25.8795804, "tags": {"amenity": "cafe", "cuisine": "coffee_shop"}}, {"type": "node", "id": 9148262369, "lat": 40.8471014, "lon": 25.8805381, "tags": {"amenity": "cafe", "cuisine": "coffee_shop"}}, {"type": "node", "id": 9148262375, "lat": 40.8472487, "lon": 25.8718914, "tags": {"amenity": "cafe", "cuisine": "coffee_shop"}}, {"type": "node", "id": 9158389653, "lat": 40.8516517, "lon": 25.8834248, "tags": {"amenity": "cafe", "cuisine": "coffee_shop"}}, {"type": "node", "id": 9158389657, "lat": 40.8507095, "lon": 25.8827592, "tags": {"amenity": "cafe"}}, {"type": "node", "id": 9158389658, "lat": 40.8535633, "lon": 25.8843249, "tags": {"amenity": "restaurant", "name": "\u0397 \u03a3\u03c4\u03ac\u03c3\u03b7"}}, {"type": "node", "id": 9158389662, "lat": 40.8509514, "lon": 25.8754259, "tags": {"amenity": "cafe", "name": "Colazione"}}, {"type": "node", "id": 9159977747, "lat": 40.8465824, "lon": 25.8783301, "tags": {"amenity": "cafe"}}, {"type": "node", "id": 9159977748, "lat": 40.8465464, "lon": 25.8782049, "tags": {"amenity": "cafe"}}, {"type": "node", "id": 9159977749, "lat": 40.8455244, "lon": 25.874277, "tags": {"amenity": "cafe", "name": "Descent"}}, {"type": "node", "id": 9161822000, "lat": 40.847034, "lon": 25.8777007, "tags": {"amenity": "cafe", "cuisine": "coffee_shop"}}, {"type": "node", "id": 9161901219, "lat": 40.8456333, "lon": 25.8708739, "tags": {"amenity": "cafe", "cuisine": "coffee_shop"}}, {"type": "node", "id": 9161901221, "lat": 40.8432871, "lon": 25.8698487, "tags": {"amenity": "cafe", "cuisine": "coffee_shop"}}, {"type": "node", "id": 9161901229, "lat": 40.8497859, "lon": 25.871462, "tags": {"amenity": "restaurant", "cuisine": "pizza"}}, {"type": "node", "id": 9164835768, "lat": 40.8561428, "lon": 25.8692159, "tags": {"amenity": "restaurant", "name": "Grill Express"}}, {"type": "node", "id": 9164835769, "lat": 40.8550578, "lon": 25.8733764, "tags": {"amenity": "restaurant", "name": "\u039b\u03b5\u03cd\u03ba\u03b5\u03c2"}}, {"type": "node", "id": 9164835770, "lat": 40.8489172, "lon": 25.8647814, "tags": {"amenity": "cafe", "cuisine": "coffee_shop"}}, {"type": "node", "id": 9164835771, "lat": 40.84724, "lon": 25.8625879, "tags": {"amenity": "restaurant", "name": "\u039d\u03ad\u03b1 \u03a1\u03ad\u03bc\u03b2\u03b7"}}, {"type": "node", "id": 9166742530, "lat": 40.8554741, "lon": 25.8711643, "tags": {"amenity": "cafe"}}, {"type": "node", "id": 9166742531, "lat": 40.8498521, "lon": 25.8655396, "tags": {"amenity": "restaurant", "cuisine": "pizza", "name": "Pizza All'Italiana"}}, {"type": "node", "id": 9166742540, "lat": 40.8511731, "lon": 25.8722968, "tags": {"amenity": "cafe", "name": "\u0395\u03b4\u03ad\u03bc"}}, {"type": "node", "id": 9168939051, "lat": 40.8519646, "lon": 25.8702992, "tags": {"amenity": "restaurant"}}, {"type": "node", "id": 9171105655, "lat": 40.8460328, "lon": 25.8739368, "tags": {"amenity": "cafe", "brand": "Coffee Island", "brand:wikidata": "Q60867333", "cuisine": "coffee_shop", "name": "Coffee Island", "payment:credit_cards": "yes", "payment:debit_cards": "yes", "takeaway": "yes"}}, {"type": "node", "id": 9171105660, "lat": 40.8422647, "lon": 25.8705533, "tags": {"amenity": "restaurant"}}, {"type": "node", "id": 9171105665, "lat": 40.8433063, "lon": 25.8718507, "tags": {"amenity": "restaurant", "cuisine": "pizza"}}, {"type": "node", "id": 9176309813, "lat": 40.8520979, "lon": 25.8845018, "tags": {"amenity": "restaurant", "name": "\u039b\u03c5\u03c7\u03bd\u03ac\u03c1\u03b9"}}, {"type": "node", "id": 9177849702, "lat": 40.8468497, "lon": 25.8733083, "tags": {"amenity": "restaurant", "name": "\u03a0\u03b5\u03c4\u03b5\u03b9\u03bd\u03cc\u03c2"}}, {"type": "node", "id": 9178053783, "lat": 40.856748, "lon": 25.9046863, "tags": {"amenity": "restaurant", "name": "\u03a4\u03bf \u03a0\u03b1\u03bb\u03b9\u03cc \u03a3\u03c4\u03ad\u03ba\u03b9"}}, {"type": "node", "id": 9179661289, "lat": 40.8484758, "lon": 25.8905639, "tags": {"amenity": "cafe", "name": "C2 coffee"}}, {"type": "node", "id": 9180104015, "lat": 40.8450048, "lon": 25.877891, "tags": {"amenity": "restaurant", "cuisine": "seafood"}}, {"type": "node", "id": 9186462177, "lat": 40.8488426, "lon": 25.872074, "tags": {"addr:city": "\u0391\u03bb\u03b5\u03be\u03b1\u03bd\u03b4\u03c1\u03bf\u03cd\u03c0\u03bf\u03bb\u03b7", "addr:housenumber": "51", "addr:postcode": "68100", "addr:street": "\u039a\u03b1\u03b2\u03cd\u03c1\u03b7", "amenity": "cafe", "branch": "Caffeine \u0391\u039b\u0395\u039e\u0391\u039d\u0394\u03a1\u039f\u03a5\u03a0\u039f\u039b\u0397\u03a3", "name": "Caffeine", "phone": "+302551027270", "website": "https://www.caffeinestores.gr/katastimata/alexandroupoli/"}}, {"type": "node", "id": 9189671186, "lat": 40.84415, "lon": 25.8694985, "tags": {"amenity": "cafe"}}, {"type": "node", "id": 9189671192, "lat": 40.8466479, "lon": 25.878467, "tags": {"amenity": "restaurant"}}, {"type": "node", "id": 9189671193, "lat": 40.8468869, "lon": 25.8791545, "tags": {"amenity": "cafe", "cuisine": "coffee_shop"}}, {"type": "node", "id": 9218114139, "lat": 40.8500062, "lon": 25.865592, "tags": {"amenity": "restaurant"}}, {"type": "node", "id": 10024844218, "lat": 40.49454, "lon": 25.6080474, "tags": {"amenity": "restaurant", "cuisine": "greek", "name": "\u03a4\u03bf \u0393\u03b5\u03c6\u03cd\u03c1\u03b9", "name:el": "\u03a4\u03bf \u0393\u03b5\u03c6\u03cd\u03c1\u03b9"}}, {"type": "node", "id": 10055966317, "lat": 40.8441539, "lon": 25.8744357, "tags": {"amenity": "restaurant", "name:en": "Kellari Whine Bar"}}, {"type": "node", "id": 11146702525, "lat": 40.4943806, "lon": 25.6355421, "tags": {"amenity": "restaurant", "cuisine": "greek", "name": "Small Taverna"}}, {"type": "node", "id": 11147050940, "lat": 40.5030181, "lon": 25.6033733, "tags": {"amenity": "restaurant", "diet:vegan": "yes", "diet:vegetarian": "yes", "name": "Moglis"}}, {"type": "node", "id": 11147050965, "lat": 40.4967512, "lon": 25.6042198, "tags": {"amenity": "restaurant", "cuisine": "greek"}}, {"type": "node", "id": 11147050970, "lat": 40.4942057, "lon": 25.6114476, "tags": {"amenity": "restaurant", "cuisine": "greek", "name": "\u0393\u03c1\u03b9\u03ac \u0392\u03ac\u03b8\u03c1\u03b1", "name:el": "\u0393\u03c1\u03b9\u03ac \u0392\u03ac\u03b8\u03c1\u03b1"}}, {"type": "node", "id": 12014723969, "lat": 40.8465246, "lon": 25.8735343, "tags": {"amenity": "restaurant", "check_date": "2024-06-27", "internet_access": "wlan", "internet_access:fee": "customers", "name": "Maintanos", "name:el": "\u039c\u03b1\u03ca\u03bd\u03c4\u03b1\u03bd\u03cc\u03c2", "opening_hours": "Tu-Su 12:00-22:30", "payment:cash": "yes", "payment:credit_cards": "yes", "payment:debit_cards": "yes", "phone": "+30 2551 110444"}}, {"type": "node", "id": 12120281573, "lat": 40.8584106, "lon": 25.6600858}, {"type": "node", "id": 12120281574, "lat": 40.8583879, "lon": 25.6602442}, {"type": "node", "id": 12120281575, "lat": 40.85831, "lon": 25.6602246}, {"type": "node", "id": 12120281576, "lat": 40.8583327, "lon": 25.6600663}, {"type": "node", "id": 12120282278, "lat": 40.8417332, "lon": 25.870359}, {"type": "node", "id": 12120282279, "lat": 40.841599, "lon": 25.8704444}, {"type": "node", "id": 12120282280, "lat": 40.841737, "lon": 25.8708161}, {"type": "node", "id": 12120282281, "lat": 40.8418764, "lon": 25.8707357}, {"type": "node", "id": 12120282282, "lat": 40.8418523, "lon": 25.8706554}, {"type": "node", "id": 12120282283, "lat": 40.8419346, "lon": 25.8706118}, {"type": "node", "id": 12120282284, "lat": 40.8418485, "lon": 25.8703607}, {"type": "node", "id": 12120282285, "lat": 40.8417472, "lon": 25.8704076}, {"type": "node", "id": 12120282321, "lat": 40.8419227, "lon": 25.8662463}, {"type": "node", "id": 12120282322, "lat": 40.8419537, "lon": 25.8663662}, {"type": "node", "id": 12120282323, "lat": 40.8417481, "lon": 25.8668131}, {"type": "node", "id": 12120282324, "lat": 40.8417055, "lon": 25.867261}, {"type": "node", "id": 12120282325, "lat": 40.8417116, "lon": 25.8674917}, {"type": "node", "id": 12120282326, "lat": 40.8418232, "lon": 25.8679396}, {"type": "node", "id": 12120282328, "lat": 40.8417374, "lon": 25.8669253}, {"type": "node", "id": 12120352556, "lat": 40.8447688, "lon": 25.8635537}, {"type": "node", "id": 12120352557, "lat": 40.8447089, "lon": 25.8638898}, {"type": "node", "id": 12120352558, "lat": 40.844542, "lon": 25.8638378}, {"type": "node", "id": 12120352559, "lat": 40.8446019, "lon": 25.8635017}, {"type": "node", "id": 12120352567, "lat": 40.8445758, "lon": 25.8636483}, {"type": "node", "id": 12376191321, "lat": 40.8490808, "lon": 25.893836, "tags": {"amenity": "cafe", "contact:email": "box.com.gr@gmail.com", "contact:facebook": "https://www.facebook.com/Box.com.gr", "contact:phone": "+30 2551 033700", "name": "Box Coffee Specialist"}}, {"type": "node", "id": 12864386448, "lat": 40.6633535, "lon": 26.0688338, "tags": {"amenity": "cafe", "name": "VADAR"}}, {"type": "node", "id": 12864532950, "lat": 40.6624518, "lon": 26.0683571, "tags": {"amenity": "cafe", "name": "Lotus Moon"}}, {"type": "node", "id": 12864595110, "lat": 40.6622183, "lon": 26.0710753, "tags": {"amenity": "restaurant", "name": "Dogus restaurant"}}, {"type": "way", "id": 302595292, "nodes": [3068442155, 3068442156, 3068442157, 3068442158, 3068442155], "tags": {"amenity": "cafe", "building": "yes"}}, {"type": "way", "id": 403172468, "nodes": [4055487086, 4055487087, 4055487088, 4055490689, 4055487086], "tags": {"air_conditioning": "yes", "amenity": "restaurant", "building": "yes", "cuisine": "greek;italian", "diet:healthy": "yes", "diet:mediterranean": "yes", "diet:vegan": "yes", "diet:vegetarian": "yes", "name": "Galini", "phone": "+302551098215", "website": "https://galini-samothraki.com"}}, {"type": "way", "id": 403172473, "nodes": [4055490706, 4055490707, 4055490708, 4055490709, 4055490706], "tags": {"amenity": "cafe", "building": "yes", "name": "\u03a6\u03b1\u03bb\u03ad\u03ba\u03b1\u03c2", "name:el": "\u03a6\u03b1\u03bb\u03ad\u03ba\u03b1\u03c2"}}, {"type": "way", "id": 463097722, "nodes": [4584087668, 4584087669, 4584087670, 7257903845, 7369702368, 4584087671, 4584087668], "tags": {"addr:city": "\u0391\u03bb\u03b5\u03be\u03b1\u03bd\u03b4\u03c1\u03bf\u03cd\u03c0\u03bf\u03bb\u03b7", "addr:postcode": "68100", "amenity": "cafe", "building": "yes", "cuisine": "coffee_shop", "internet_access": "yes", "internet_access:fee": "no", "name": "N.O.A. Cafe // Yacht club", "outdoor_seating": "yes", "phone": "2551 053226"}}, {"type": "way", "id": 463131312, "nodes": [4584408113, 4584408114, 4584408115, 4584408116, 4584408117, 4584408113], "tags": {"addr:city": "\u0391\u03bb\u03b5\u03be\u03b1\u03bd\u03b4\u03c1\u03bf\u03cd\u03c0\u03bf\u03bb\u03b7", "addr:housenumber": "1", "addr:postcode": "68100", "addr:street": "\u03a4\u03b6\u03b1\u03b2\u03ad\u03bb\u03b1", "amenity": "cafe", "building": "yes", "internet_access": "no", "outdoor_seating": "yes", "phone": "2551 027436", "website": "https://www.coffeeisland.gr/"}}, {"type": "way", "id": 463872693, "nodes": [4590791561, 4590791562, 4590791563, 4590791564, 4590791561], "tags": {"amenity": "restaurant", "building": "roof", "cuisine": "seafood", "name": "Milos", "outdoor_seating": "yes", "phone": "2551 035519", "takeaway": "no"}}, {"type": "way", "id": 620709594, "nodes": [5864261342, 5864261343, 12120282321, 12120282322, 5864261344, 5864261345, 5864261342], "tags": {"amenity": "restaurant", "cuisine": "pizza"}}, {"type": "way", "id": 825829860, "nodes": [7710700511, 7710700512, 7710700513, 7710700514, 7710700511], "tags": {"amenity": "restaurant", "building": "yes"}}, {"type": "way", "id": 1308815208, "nodes": [12120282278, 12120282279, 12120282280, 12120282281, 12120282282, 12120282283, 12120282284, 12120282285, 12120282278], "tags": {"amenity": "cafe", "building": "yes"}}, {"type": "way", "id": 1308815216, "nodes": [5864261345, 5864261344, 12120282323, 12120282328, 12120282324, 12120282325, 12120282326, 5864261345], "tags": {"amenity": "restaurant"}}, {"type": "way", "id": 1308817564, "nodes": [12120281573, 12120281574, 12120281575, 12120281576, 12120281573], "tags": {"amenity": "cafe", "building": "yes"}}, {"type": "way", "id": 1308826701, "nodes": [12120352556, 12120352557, 12120352558, 12120352567, 12120352559, 12120352556], "tags": {"amenity": "cafe", "building": "yes", "name": "Oxygono", "outdoor_seating": "yes"}}]}