{"version": 0.6, "generator": "Overpass API 0.7.62.7 375dc00a", "osm3s": {"timestamp_osm_base": "2025-06-14T13:50:30Z", "copyright": "The data included in this document is from www.openstreetmap.org. The data is made available under ODbL."}, "elements": [{"type": "node", "id": 463491859, "lat": 38.1761476, "lon": 12.7350403, "tags": {"addr:housenumber": "15", "addr:postcode": "91010", "addr:street": "Via Generale Arimondi", "amenity": "restaurant", "name": "Le Barrique", "name:en": "La Cambusa restaurant", "website": "https://www.lacambusasanvito.it"}}, {"type": "node", "id": 463492096, "lat": 38.0977322, "lon": 12.7401113, "tags": {"addr:housenumber": "1", "addr:street": "Viale Cristoforo Colombo", "amenity": "cafe", "name": "Caff\u00e8 Nero Bollente", "old_name": "Goldengate", "operator": "Sciarrino Patrizia", "outdoor_seating": "yes", "phone": "+39 388 3599284", "ref:vatin": "IT02595450814", "takeaway": "yes"}}, {"type": "node", "id": 463520835, "lat": 38.0319453, "lon": 12.8735328, "tags": {"amenity": "restaurant", "cuisine": "italian;pizza", "name": "Quetzal", "outdoor_seating": "yes"}}, {"type": "node", "id": 463677220, "lat": 38.0137344, "lon": 12.5133921, "tags": {"addr:city": "Trapani", "addr:housenumber": "87", "addr:postcode": "91100", "addr:street": "Via Ammiraglio Staiti", "amenity": "restaurant", "cuisine": "fish;italian;regional", "email": "info@angelino.it", "indoor_seating": "yes", "internet_access": "wlan", "internet_access:fee": "yes", "level": "0", "name": "Ristorantino Angelino", "outdoor_seating": "yes", "payment:bancomat": "yes", "payment:cash": "yes", "phone": "+39092326922", "smoking": "no", "website": "https://www.angelino.it/", "wheelchair": "yes"}}, {"type": "node", "id": 463677267, "lat": 38.0175864, "lon": 12.5111284, "tags": {"amenity": "restaurant", "cuisine": "italian", "name": "Taverna Paradiso"}}, {"type": "node", "id": 463677287, "lat": 38.0405895, "lon": 12.5438814, "tags": {"amenity": "restaurant", "cuisine": "italian", "name": "San Cusumano"}}, {"type": "node", "id": 463677297, "lat": 38.0570767, "lon": 12.5568534, "tags": {"amenity": "restaurant", "name": "L'Approdo"}}, {"type": "node", "id": 463677310, "lat": 38.0604411, "lon": 12.6042405, "tags": {"amenity": "restaurant", "cuisine": "pizza", "name": "La Za Nena"}}, {"type": "node", "id": 1073287396, "lat": 38.0149228, "lon": 12.5068713, "tags": {"amenity": "restaurant", "name": "Osteria La Bettolaccia"}}, {"type": "node", "id": 1073287455, "lat": 38.0142664, "lon": 12.5104421, "tags": {"amenity": "restaurant", "cuisine": "italian", "name": "Al Vicoletto", "opening_hours": "Mo-Sa 12:30-15:20,19:00-23:00"}}, {"type": "node", "id": 1073287634, "lat": 38.0139887, "lon": 12.5119928, "tags": {"amenity": "restaurant", "cuisine": "italian", "name": "L'Antica Hosteria", "name:it": "L'Antica Hosteria"}}, {"type": "node", "id": 1073288091, "lat": 38.0163811, "lon": 12.5101778, "tags": {"amenity": "restaurant", "cuisine": "italian", "name": "Tentazioni di Gusto"}}, {"type": "node", "id": 1077277098, "lat": 38.0155049, "lon": 12.5138247, "tags": {"amenity": "restaurant", "cuisine": "italian", "name": "Cantina Siciliana"}}, {"type": "node", "id": 1212039334, "lat": 38.0163534, "lon": 12.5192149, "tags": {"amenity": "cafe", "fixme": "name? opening_hours? tenant?"}}, {"type": "node", "id": 1212084110, "lat": 38.0171543, "lon": 12.5185604, "tags": {"amenity": "cafe", "fixme": "name? opening_hours? tenant?"}}, {"type": "node", "id": 1310576706, "lat": 38.0683625, "lon": 12.8185353, "tags": {"addr:city": "Castellammare del Golfo", "addr:housenumber": "7", "addr:postcode": "91014", "addr:street": "Contrada Scopello", "amenity": "restaurant", "name": "Il Mulino di Scopello", "opening_hours": "12:00-16:00, 18:00-00:00", "phone": "+39 393 310 1214", "website": "http://www.ilmulinodiscopello.it", "wheelchair": "no"}}, {"type": "node", "id": 1310576747, "lat": 38.0732867, "lon": 12.8121087, "tags": {"amenity": "restaurant", "name": "Ristorante Lo Zingaro", "operational_status": "closed"}}, {"type": "node", "id": 1392861800, "lat": 38.1313992, "lon": 12.7403554}, {"type": "node", "id": 1392861801, "lat": 38.1314781, "lon": 12.7404224}, {"type": "node", "id": 1392861802, "lat": 38.1315203, "lon": 12.740125}, {"type": "node", "id": 1392861803, "lat": 38.1315992, "lon": 12.740192}, {"type": "node", "id": 1392861880, "lat": 38.1562689, "lon": 12.7388405}, {"type": "node", "id": 1392861883, "lat": 38.156295, "lon": 12.7391974}, {"type": "node", "id": 1392861885, "lat": 38.1563424, "lon": 12.738828}, {"type": "node", "id": 1392861892, "lat": 38.1563652, "lon": 12.7390501}, {"type": "node", "id": 1392861895, "lat": 38.1564142, "lon": 12.7390397}, {"type": "node", "id": 1392861898, "lat": 38.1564305, "lon": 12.7391767}, {"type": "node", "id": 1394044450, "lat": 38.0181668, "lon": 12.5134942, "tags": {"amenity": "cafe", "name": "Bar Giancarlo"}}, {"type": "node", "id": 1423287542, "lat": 38.0154789, "lon": 12.5093949, "tags": {"amenity": "cafe", "name": "Isola Trovata"}}, {"type": "node", "id": 1423287580, "lat": 38.0145132, "lon": 12.5091964, "tags": {"amenity": "cafe", "name": "Birreria Italia"}}, {"type": "node", "id": 1423289460, "lat": 38.0161192, "lon": 12.5098562, "tags": {"amenity": "cafe", "name": "Pasticceria e Gelateria Colicchia"}}, {"type": "node", "id": 1423293664, "lat": 38.0168672, "lon": 12.5103846, "tags": {"addr:city": "Trapani", "addr:postcode": "91100", "addr:street": "Via Badia Nuova", "amenity": "restaurant", "cuisine": "italian;pizza;seafood", "indoor_seating": "yes", "name": "Vento dal Sud", "outdoor_seating": "yes", "phone": "+39 375 557 5395", "survey:date": "2024-01-27"}}, {"type": "node", "id": 1423293683, "lat": 38.017191, "lon": 12.5106945, "tags": {"amenity": "cafe", "name": "Exclusive Lounge Bar"}}, {"type": "node", "id": 1423316700, "lat": 38.0156669, "lon": 12.5084346, "tags": {"amenity": "restaurant", "check_date": "2025-04-29", "name": "Quartiere San Lorenzo"}}, {"type": "node", "id": 1423374055, "lat": 38.0195725, "lon": 12.5407621, "tags": {"addr:housenumber": "209", "addr:street": "Via Conte Pepoli", "amenity": "cafe", "name": "Al Gambero Rosso"}}, {"type": "node", "id": 1423401098, "lat": 38.0138212, "lon": 12.5118908, "tags": {"amenity": "cafe", "indoor_seating": "yes", "name": "Caff\u00e8 Staiti", "outdoor_seating": "yes"}}, {"type": "node", "id": 1435739939, "lat": 38.0145428, "lon": 12.5082256, "tags": {"amenity": "restaurant", "cuisine": "italian;pizza", "name": "Pizzeria Trattoria Miramare"}}, {"type": "node", "id": 1436731453, "lat": 38.0176344, "lon": 12.5112453, "tags": {"amenity": "restaurant", "cuisine": "italian;pizza", "name": "Pizzeria Amici Miei"}}, {"type": "node", "id": 1454213443, "lat": 38.0382794, "lon": 12.588102, "tags": {"addr:street": "Piazza San Domenico", "amenity": "cafe", "name": "Bar San Domenico"}}, {"type": "node", "id": 1481314057, "lat": 38.0380163, "lon": 12.5871282, "tags": {"addr:city": "Erice", "addr:housenumber": "13", "addr:postcode": "91016", "addr:street": "Piazza della Loggia", "amenity": "restaurant", "indoor_seating": "yes", "name": "MoonTeasy", "outdoor_seating": "yes", "phone": "+39 0923 869716", "website": "https://ristorantelarustichella.com"}}, {"type": "node", "id": 1595011710, "lat": 38.0224325, "lon": 12.5212781, "tags": {"addr:housenumber": "76", "addr:street": "Via Riccardo Passaneto", "amenity": "cafe", "contact:email": "barletoile@libero.it", "contact:phone": "+39 0923 1894019", "name": "L'Etoile", "operator": "Manuguerra Massimo", "ref:vatin": "IT02391950819"}}, {"type": "node", "id": 1724352165, "lat": 38.0381814, "lon": 12.6511116, "tags": {"addr:housenumber": "25", "addr:street": "Via della Rinascita", "entrance": "main"}}, {"type": "node", "id": 1724352570, "lat": 38.0381184, "lon": 12.6511581}, {"type": "node", "id": 1724352580, "lat": 38.038166, "lon": 12.6512718}, {"type": "node", "id": 1724352582, "lat": 38.0381688, "lon": 12.6511972}, {"type": "node", "id": 1724352588, "lat": 38.0381912, "lon": 12.6512523}, {"type": "node", "id": 1724352595, "lat": 38.0382219, "lon": 12.6510818}, {"type": "node", "id": 1724352601, "lat": 38.0382597, "lon": 12.6511315}, {"type": "node", "id": 1731097695, "lat": 38.0767512, "lon": 12.6760297, "tags": {"addr:city": "Custonaci", "addr:housename": "Il Cortile", "addr:housenumber": "67", "addr:postcode": "91015", "addr:street": "Via Scurati", "amenity": "restaurant", "cuisine": "regional", "name": "Il Cortile Restaurant", "website": "https://www.hotelilcortile.it/", "wheelchair": "yes"}}, {"type": "node", "id": 1792044311, "lat": 38.0501529, "lon": 13.0021894, "tags": {"amenity": "restaurant", "name": "Pizzeria Ciro"}}, {"type": "node", "id": 1921712161, "lat": 38.0662322, "lon": 12.5929112, "tags": {"amenity": "restaurant", "name": "Sirena"}}, {"type": "node", "id": 1921712166, "lat": 38.0648638, "lon": 12.5938152, "tags": {"amenity": "restaurant", "name": "Il Piacere"}}, {"type": "node", "id": 1921712262, "lat": 38.066967, "lon": 12.5948478, "tags": {"amenity": "restaurant", "check_date": "2023-05-22", "name": "Saverino"}}, {"type": "node", "id": 1970087454, "lat": 38.1039138, "lon": 12.7354452, "tags": {"amenity": "restaurant", "name": "Ritrovo"}}, {"type": "node", "id": 2018692784, "lat": 38.0161806, "lon": 12.5095072, "tags": {"amenity": "cafe", "name": "Gelateria Terzo Cerchio"}}, {"type": "node", "id": 2018753224, "lat": 38.0163541, "lon": 12.5087027, "tags": {"amenity": "restaurant", "name": "Beccofino"}}, {"type": "node", "id": 2018834824, "lat": 38.0170113, "lon": 12.5098829, "tags": {"amenity": "restaurant", "name": "Take away"}}, {"type": "node", "id": 2175410341, "lat": 38.0287795, "lon": 12.885231}, {"type": "node", "id": 2175410343, "lat": 38.028751, "lon": 12.8851683}, {"type": "node", "id": 2175410349, "lat": 38.0288331, "lon": 12.8852063}, {"type": "node", "id": 2175410352, "lat": 38.0287946, "lon": 12.8852344}, {"type": "node", "id": 2175410353, "lat": 38.0288383, "lon": 12.8851879}, {"type": "node", "id": 2175410360, "lat": 38.0288331, "lon": 12.88515}, {"type": "node", "id": 2175410362, "lat": 38.0288098, "lon": 12.885231}, {"type": "node", "id": 2175410366, "lat": 38.0287796, "lon": 12.8851252}, {"type": "node", "id": 2175410377, "lat": 38.0287662, "lon": 12.8851349}, {"type": "node", "id": 2175410381, "lat": 38.0288383, "lon": 12.8851684}, {"type": "node", "id": 2175410385, "lat": 38.0288099, "lon": 12.8851252}, {"type": "node", "id": 2175410387, "lat": 38.0287563, "lon": 12.8852062}, {"type": "node", "id": 2175410392, "lat": 38.0288232, "lon": 12.885135}, {"type": "node", "id": 2175410393, "lat": 38.028751, "lon": 12.8851878}, {"type": "node", "id": 2175410396, "lat": 38.0287563, "lon": 12.8851499}, {"type": "node", "id": 2175410401, "lat": 38.0287947, "lon": 12.8851218}, {"type": "node", "id": 2175410405, "lat": 38.0288231, "lon": 12.8852212}, {"type": "node", "id": 2175410407, "lat": 38.0287662, "lon": 12.8852212}, {"type": "node", "id": 2522322217, "lat": 38.1748162, "lon": 12.7409731}, {"type": "node", "id": 2522322219, "lat": 38.1748623, "lon": 12.7404313}, {"type": "node", "id": 2522322221, "lat": 38.1750451, "lon": 12.7410047}, {"type": "node", "id": 2522322222, "lat": 38.1750519, "lon": 12.7404575}, {"type": "node", "id": 2522322223, "lat": 38.1750462, "lon": 12.7405243}, {"type": "node", "id": 2522322224, "lat": 38.1750724, "lon": 12.7406839}, {"type": "node", "id": 2522322225, "lat": 38.175089, "lon": 12.7406345}, {"type": "node", "id": 2522322226, "lat": 38.1750978, "lon": 12.7405314}, {"type": "node", "id": 2522322227, "lat": 38.1751332, "lon": 12.7406923}, {"type": "node", "id": 2522322228, "lat": 38.1751376, "lon": 12.7406412}, {"type": "node", "id": 2597429198, "lat": 38.0157723, "lon": 12.5069281, "tags": {"addr:housenumber": "73", "addr:street": "Corso Vittorio Emanuele", "amenity": "restaurant", "indoor_seating": "yes", "name": "Ai Lumi", "outdoor_seating": "yes", "wheelchair": "no"}}, {"type": "node", "id": 2597429218, "lat": 38.0154906, "lon": 12.5065383, "tags": {"addr:housenumber": "71", "addr:street": "Via Nunzio Nasi", "amenity": "restaurant", "contact:phone": "+39 0923 21646", "cuisine": "pizza", "name": "Pizzeria Calvino", "ref:vatin": "IT00819650813"}}, {"type": "node", "id": 2597429230, "lat": 38.0157278, "lon": 12.5071551, "tags": {"addr:housename": "67", "addr:housenumber": "67", "addr:postcode": "91100", "addr:street": "Corso Vittorio Emanuele", "amenity": "restaurant", "indoor_seating": "yes", "name": "I Grilli", "outdoor_seating": "yes"}}, {"type": "node", "id": 2597494939, "lat": 38.0149381, "lon": 12.5093333, "tags": {"addr:housenumber": "19", "addr:street": "Via Torrearsa", "amenity": "cafe", "name": "Piccadilly"}}, {"type": "node", "id": 2597495073, "lat": 38.0163981, "lon": 12.5045063, "tags": {"amenity": "cafe", "indoor_seating": "yes", "name": "Caf\u00e8 del Corso", "outdoor_seating": "yes"}}, {"type": "node", "id": 2627399723, "lat": 38.0700399, "lon": 12.8182746, "tags": {"addr:city": "Castellammare del Golfo", "addr:housenumber": "4", "addr:postcode": "91014", "addr:street": "Baglio Isonzo", "amenity": "restaurant", "cuisine": "regional", "name": "Ristorante Pizzeria Il Baglio", "opening_hours": "12:00-15:00, 18:00-00:00", "phone": "+39 0924541200", "wheelchair": "no"}}, {"type": "node", "id": 2637252186, "lat": 38.0302522, "lon": 12.8813772, "tags": {"amenity": "restaurant", "cuisine": "pizza;seafood", "name": "Luxor", "outdoor_seating": "yes"}}, {"type": "node", "id": 2637252206, "lat": 38.0294641, "lon": 12.8822495, "tags": {"addr:city": "Castellammare del Golfo", "addr:housenumber": "26", "addr:postcode": "91014", "addr:street": "Via Arciprete Salvatore Maria Militelli", "amenity": "restaurant", "cuisine": "italian;pizza", "name": "Ristorante Pizzeria La Timpa", "outdoor_seating": "yes"}}, {"type": "node", "id": 2807200701, "lat": 38.0191413, "lon": 12.5430662, "tags": {"addr:city": "Trapani", "addr:street": "Via Palermo", "amenity": "cafe", "cuisine": "regional", "indoor_seating": "yes", "name": "Svalutation Cafe", "outdoor_seating": "no", "smoking": "outside", "wheelchair": "no"}}, {"type": "node", "id": 2953818639, "lat": 38.0281385, "lon": 12.9341753, "tags": {"amenity": "restaurant", "cuisine": "italian", "name": "Alkamar"}}, {"type": "node", "id": 2953818642, "lat": 38.0277548, "lon": 12.9313182, "tags": {"amenity": "restaurant", "name": "Bandiera Gialla"}}, {"type": "node", "id": 2953818644, "lat": 38.0196392, "lon": 12.718504, "tags": {"amenity": "restaurant", "cuisine": "pizza", "name": "Busith"}}, {"type": "node", "id": 2953818645, "lat": 38.0279309, "lon": 12.9336069, "tags": {"amenity": "restaurant", "cuisine": "italian", "name": "A Tunnara"}}, {"type": "node", "id": 2953856002, "lat": 38.0703907, "lon": 12.8178174, "tags": {"addr:city": "Castellammare del Golfo", "addr:housenumber": "13", "addr:postcode": "91014", "addr:street": "Via Armando Diaz", "amenity": "cafe", "cuisine": "coffee_shop;ice_cream;tea", "email": "barscopello@gmail.com", "internet_access": "wlan", "name": "Bar Pasticceria Scopello", "operator": "Bar Pasticceria Scopello Sas", "outdoor_seating": "yes", "phone": "+39 388 101 0772", "ref:vatin": "IT02139200816", "takeaway": "yes"}}, {"type": "node", "id": 2953856006, "lat": 38.0702235, "lon": 12.818031, "tags": {"amenity": "cafe", "cuisine": "ice_cream", "name": "La Palma", "outdoor_seating": "yes", "takeaway": "yes"}}, {"type": "node", "id": 2953856008, "lat": 38.0123138, "lon": 12.7112168, "tags": {"amenity": "cafe", "name": "P3", "tobacco": "yes"}}, {"type": "node", "id": 2953886130, "lat": 38.1750331, "lon": 12.7355371, "tags": {"addr:city": "San Vito Lo Capo", "addr:housenumber": "70", "addr:postcode": "91010", "addr:street": "Via Regina Margherita", "amenity": "restaurant", "check_date": "2024-03-31", "cuisine": "italian", "name": "Profumi Di Cous Cous", "opening_hours": "Mo-Su 12:30-14:30, 19:30-23:00", "phone": "+39 0923 974155"}}, {"type": "node", "id": 2962230463, "lat": 38.1774317, "lon": 12.7325049, "tags": {"addr:housenumber": "8", "addr:postcode": "91010", "addr:street": "Via Duca degli Abruzzi", "amenity": "restaurant", "cuisine": "italian", "name": "Gn\u00e0 Sara", "opening_hours": "Tu-Su 12:45-15:00, 19:00-23:00; Mo 19:00-23:00", "phone": "+39 0923 972100"}}, {"type": "node", "id": 2962230464, "lat": 38.1770442, "lon": 12.7325664, "tags": {"amenity": "restaurant", "cuisine": "italian", "name": "Il Timone"}}, {"type": "node", "id": 2962230465, "lat": 38.1771235, "lon": 12.7325517, "tags": {"addr:housenumber": "12", "addr:postcode": "91010", "addr:street": "Via Duca degli Abruzzi", "amenity": "restaurant", "cuisine": "italian", "name": "La Carbonella", "opening_hours": "Mo-Sa 12:30-14:30,19:00-24:00", "phone": "+39 0923 621057"}}, {"type": "node", "id": 2962778457, "lat": 38.048058, "lon": 12.5792998, "tags": {"amenity": "restaurant", "cuisine": "italian", "name": "Fontanarossa"}}, {"type": "node", "id": 3097480242, "lat": 38.070597, "lon": 12.6293166, "tags": {"amenity": "restaurant", "name": "Caravella Lido Valderice", "phone": "+39 327 299 5402", "website": "http://facebook.com/caravellalidovalderice"}}, {"type": "node", "id": 3105967519, "lat": 38.1768704, "lon": 12.732325, "tags": {"amenity": "restaurant", "name": "In Questo"}}, {"type": "node", "id": 3105967523, "lat": 38.1767096, "lon": 12.7318874, "tags": {"addr:city": "San Vito Lo Capo", "addr:housenumber": "32", "addr:postcode": "91010", "addr:street": "Via Piersanti Mattarella", "amenity": "restaurant", "cuisine": "regional;fish;seafood;local", "internet_access": "wlan", "name": "Lo stagnone", "opening_hours": "Mo-Su 12:00-22:00", "phone": "+39 333 286 4672", "website": "https://www.lostagnoneristorante.com/"}}, {"type": "node", "id": 3105967527, "lat": 38.1750993, "lon": 12.7341237, "tags": {"addr:housenumber": "49", "addr:postcode": "91010", "addr:street": "Via Regina Margherita", "amenity": "restaurant", "cuisine": "pizza;regional", "name": "Pizzeria da Salvo", "opening_hours": "Mo-Sa 11:30-15:30,16:00-01:00; Su 11:30-15:30,16:00-24:00", "phone": "+39 328 138 7982", "website": "http://www.sicilia-aziende.com/"}}, {"type": "node", "id": 3105967930, "lat": 38.1752124, "lon": 12.7355087, "tags": {"amenity": "restaurant", "cuisine": "regional"}}, {"type": "node", "id": 3105967934, "lat": 38.1749624, "lon": 12.7342905, "tags": {"addr:city": "San Vito Lo Capo", "addr:housenumber": "36", "addr:postcode": "91010", "addr:street": "Via Regina Margherita", "amenity": "restaurant"}}, {"type": "node", "id": 3135966220, "lat": 38.016454, "lon": 12.5026177, "tags": {"amenity": "restaurant", "cuisine": "italian;pizza", "name": "Pizzeria Stefy"}}, {"type": "node", "id": 3334320695, "lat": 38.0292415, "lon": 12.8812338, "tags": {"amenity": "restaurant", "cuisine": "italian", "name": "Salvinius", "outdoor_seating": "yes"}}, {"type": "node", "id": 3334320800, "lat": 38.0291337, "lon": 12.8811372, "tags": {"amenity": "restaurant", "cuisine": "italian", "name": "La Cambusa", "outdoor_seating": "yes"}}, {"type": "node", "id": 3344301970, "lat": 38.0279737, "lon": 12.880638, "tags": {"amenity": "restaurant", "name": "Mirko's"}}, {"type": "node", "id": 3621875715, "lat": 38.1752063, "lon": 12.7381584, "tags": {"addr:city": "San Vito Lo Capo", "addr:housenumber": "40", "addr:postcode": "91010", "addr:street": "Piazza Marinella", "amenity": "cafe", "name": "Blue Marine Caf\u00e8", "phone": "+39 0923 972293"}}, {"type": "node", "id": 3621875717, "lat": 38.1751919, "lon": 12.7379743, "tags": {"addr:city": "San Vito Lo Capo", "addr:housenumber": "40", "addr:postcode": "91010", "addr:street": "Via Litoranea Lungomare", "amenity": "restaurant", "name": "Pepper Jam Caf\u00e8", "phone": "+39 0923 974222"}}, {"type": "node", "id": 3621875719, "lat": 38.1751837, "lon": 12.7376294, "tags": {"addr:housenumber": "19", "addr:postcode": "91010", "addr:street": "Via Litoranea Lungomare", "amenity": "restaurant", "name": "U Sfizziusu", "phone": "+39 348 042 3967"}}, {"type": "node", "id": 3622063373, "lat": 38.1752083, "lon": 12.7354515, "tags": {"addr:housenumber": "87", "addr:postcode": "91010", "addr:street": "Via Regina Margherita", "amenity": "restaurant", "check_date": "2024-03-31", "cuisine": "pizza", "name": "Pizza Flash", "phone": "+39 0923 974344"}}, {"type": "node", "id": 3622211287, "lat": 38.1749015, "lon": 12.7389801, "tags": {"addr:city": "San Vito Lo Capo", "addr:housenumber": "6", "addr:postcode": "91010", "addr:street": "Via Nunzio Maniaci", "amenity": "cafe", "name": "Caff\u00e9 Naif"}}, {"type": "node", "id": 3622211288, "lat": 38.1773112, "lon": 12.7333484, "tags": {"addr:city": "San Vito Lo Capo", "addr:housenumber": "22", "addr:postcode": "91010", "addr:street": "Via Savoia", "amenity": "cafe", "name": "Caff\u00e9 Pino", "opening_hours": "Mo-Su 06:00-02:00", "phone": "+39 346 078 7188", "website": "https://caffe-pino.business.site"}}, {"type": "node", "id": 3719748329, "lat": 38.0152186, "lon": 12.5132292, "tags": {"addr:housenumber": "51", "addr:street": "Corso Italia", "amenity": "restaurant", "contact:phone": "+39 0932 23475", "name": "Trattoria del Corso"}}, {"type": "node", "id": 3738866926, "lat": 38.050139, "lon": 13.003201, "tags": {"addr:housenumber": "72", "addr:street": "Via Madonna del Ponte", "amenity": "cafe", "name": "La Dolce Vita", "outdoor_seating": "yes"}}, {"type": "node", "id": 3739029625, "lat": 38.050495, "lon": 13.00555, "tags": {"amenity": "restaurant"}}, {"type": "node", "id": 3739030025, "lat": 38.050588, "lon": 13.005517, "tags": {"amenity": "restaurant"}}, {"type": "node", "id": 3739030425, "lat": 38.050359, "lon": 13.004951, "tags": {"amenity": "restaurant"}}, {"type": "node", "id": 3739031125, "lat": 38.050538, "lon": 13.004877, "tags": {"amenity": "restaurant"}}, {"type": "node", "id": 3739031525, "lat": 38.050283, "lon": 13.004978, "tags": {"amenity": "cafe", "name": "Bacco's Risto Pub"}}, {"type": "node", "id": 3739084525, "lat": 38.0498172, "lon": 13.0009759, "tags": {"amenity": "cafe", "name": "Nuovo Bar Paradise", "outdoor_seating": "yes"}}, {"type": "node", "id": 3739084526, "lat": 38.0497351, "lon": 13.0015321, "tags": {"addr:housenumber": "84", "amenity": "cafe", "name": "Blue Sky"}}, {"type": "node", "id": 3739087725, "lat": 38.0499865, "lon": 13.0015697, "tags": {"amenity": "cafe", "name": "Caff\u00e8 del Golfo", "outdoor_seating": "yes"}}, {"type": "node", "id": 3739102325, "lat": 38.049282, "lon": 13.000477, "tags": {"addr:housenumber": "100", "amenity": "restaurant", "name": "Frutti di Mare da Giovanni", "outdoor_seating": "yes"}}, {"type": "node", "id": 3739104025, "lat": 38.049152, "lon": 13.000364, "tags": {"addr:housenumber": "102", "amenity": "restaurant", "name": "La Balestra"}}, {"type": "node", "id": 3739237125, "lat": 38.050061, "lon": 13.002925, "tags": {"amenity": "restaurant", "name": "La Buona Forchetta"}}, {"type": "node", "id": 3739407225, "lat": 38.0523179, "lon": 13.004599, "tags": {"amenity": "restaurant", "name": "La Piazzetta", "outdoor_seating": "yes", "smoking": "separated"}}, {"type": "node", "id": 3740298833, "lat": 38.046076, "lon": 12.994911, "tags": {"amenity": "restaurant"}}, {"type": "node", "id": 3740332531, "lat": 38.045485, "lon": 12.995573, "tags": {"amenity": "cafe"}}, {"type": "node", "id": 3740332730, "lat": 38.048148, "lon": 12.998603, "tags": {"amenity": "cafe", "name": "Baia Le Grotte", "outdoor_seating": "yes"}}, {"type": "node", "id": 3740332732, "lat": 38.045582, "lon": 12.995815, "tags": {"amenity": "restaurant"}}, {"type": "node", "id": 3740508933, "lat": 38.052152, "lon": 13.004853, "tags": {"amenity": "restaurant", "cuisine": "italian", "name": "Eo Winebar", "outdoor_seating": "yes", "smoking": "outside", "takeaway": "no"}}, {"type": "node", "id": 3801853731, "lat": 38.0168533, "lon": 12.5023012, "tags": {"amenity": "restaurant", "indoor_seating": "yes", "name": "Salamureci", "outdoor_seating": "no", "wheelchair": "no"}}, {"type": "node", "id": 3813085444, "lat": 38.0659691, "lon": 12.8201301, "tags": {"amenity": "restaurant", "name": "Tenute Plaia", "wheelchair": "yes"}}, {"type": "node", "id": 3825393557, "lat": 38.036059, "lon": 12.5837193, "tags": {"amenity": "restaurant", "name": "Massimo"}}, {"type": "node", "id": 3949990664, "lat": 38.0282501, "lon": 12.8861246, "tags": {"addr:city": "Castellammare del Golfo", "addr:housenumber": "12", "addr:postcode": "91014", "addr:street": "Via del Macello", "amenity": "restaurant", "cuisine": "italian", "name": "Ristorante Pizzeria La Campana", "phone": "+39 0924 30606"}}, {"type": "node", "id": 3949990671, "lat": 38.0278885, "lon": 12.8845398, "tags": {"addr:city": "Castellammare del Golfo", "addr:housenumber": "2", "addr:postcode": "91014", "addr:street": "Via Vittor Pisani", "amenity": "restaurant", "cuisine": "italian", "name": "Petrolo", "opening_hours": "Mo-Su 11:00-01:00", "phone": "+39 329 870 5101"}}, {"type": "node", "id": 3949990672, "lat": 38.0279421, "lon": 12.8843123, "tags": {"amenity": "cafe", "name": "Al Pasha"}}, {"type": "node", "id": 3949990675, "lat": 38.027919, "lon": 12.8830041, "tags": {"amenity": "restaurant", "name": "Sailing"}}, {"type": "node", "id": 3949990676, "lat": 38.0282216, "lon": 12.8825313, "tags": {"amenity": "restaurant", "cuisine": "pizza", "name": "Kalos Pizzaria Bar"}}, {"type": "node", "id": 3949990678, "lat": 38.0277228, "lon": 12.8823018, "tags": {"amenity": "restaurant", "name": "Dallo Zio Andrea"}}, {"type": "node", "id": 3949990703, "lat": 38.0278924, "lon": 12.8816909, "tags": {"amenity": "restaurant", "name": "Antico Arco Ristorante"}}, {"type": "node", "id": 3949990704, "lat": 38.0276373, "lon": 12.8813529, "tags": {"amenity": "restaurant", "cuisine": "pizza", "name": "Pizza Mon Amour"}}, {"type": "node", "id": 3949990706, "lat": 38.0269809, "lon": 12.8812788, "tags": {"amenity": "cafe", "name": "Caffetteria Garibaldi"}}, {"type": "node", "id": 3949990718, "lat": 38.0273305, "lon": 12.8803576, "tags": {"amenity": "restaurant", "name": "Ristorante La Muciara"}}, {"type": "node", "id": 3949990720, "lat": 38.0276532, "lon": 12.8809269, "tags": {"amenity": "cafe", "name": "Caffe Letterario"}}, {"type": "node", "id": 3949990722, "lat": 38.0296188, "lon": 12.882023, "tags": {"amenity": "restaurant", "cuisine": "pizza", "name": "Pizzeria Bellavista", "outdoor_seating": "yes"}}, {"type": "node", "id": 3951413213, "lat": 38.0277415, "lon": 12.8830658, "tags": {"amenity": "restaurant", "name": "Egesta Mare", "phone": "+39 0924 30409", "website": "http://www.egestamare.it"}}, {"type": "node", "id": 3951413232, "lat": 38.0282515, "lon": 12.8791266, "tags": {"addr:city": "Castellammare del Golfo", "addr:housenumber": "5", "addr:postcode": "91014", "addr:street": "Via Don Leonardo Zangara", "amenity": "restaurant", "name": "Ristorante Cozzeria Sole Mare", "outdoor_seating": "yes", "phone": "+39 392 457 0282", "website": "http://www.ristorantecozzeria.it/"}}, {"type": "node", "id": 3951413233, "lat": 38.0282295, "lon": 12.8792154, "tags": {"amenity": "cafe", "name": "Caf\u00e9 Skipper"}}, {"type": "node", "id": 3951413234, "lat": 38.0281596, "lon": 12.8793391, "tags": {"addr:city": "Castellammare del Golfo", "addr:housenumber": "13", "addr:postcode": "91014", "addr:street": "Via Don Leonardo Zangara", "amenity": "restaurant", "name": "Posidonia", "outdoor_seating": "yes", "phone": "+39 0924 32477"}}, {"type": "node", "id": 3955332775, "lat": 38.0396129, "lon": 12.8587225, "tags": {"amenity": "restaurant", "cuisine": "pizza", "name": "Pizzeria and Restaurant"}}, {"type": "node", "id": 3964254618, "lat": 38.0563072, "lon": 12.837906, "tags": {"amenity": "restaurant"}}, {"type": "node", "id": 3964632289, "lat": 38.0611611, "lon": 12.8284152, "tags": {"addr:city": "Castellammare del Golfo", "addr:housenumber": "78", "addr:postcode": "91014", "addr:street": "Contrada Piano Vignazza", "amenity": "restaurant", "check_date": "2024-04-01", "name": "Le Tentazioni", "phone": "+39 329 045 2228"}}, {"type": "node", "id": 3975148707, "lat": 38.0319913, "lon": 12.9517283, "tags": {"amenity": "restaurant", "cuisine": "pizza", "name": "Sunshine", "opening_hours": "Mo-Su 12:00-15:30, 18:30-24:00; We off", "phone": "+39 0924 597872"}}, {"type": "node", "id": 3982256219, "lat": 38.0689356, "lon": 12.8177116, "tags": {"addr:city": "Castellammare del Golfo", "addr:postcode": "91014", "addr:street": "Contrada Scopello", "amenity": "restaurant", "name": "Ristorante Pizzeria Fuego", "opening_hours": "11:30-23:30"}}, {"type": "node", "id": 3982256224, "lat": 38.0706044, "lon": 12.8187949, "tags": {"addr:city": "Castellammare del Golfo", "addr:housenumber": "5", "addr:postcode": "91014", "addr:street": "Via Marco Polo", "amenity": "restaurant", "name": "Ristorante La Terrazza", "opening_hours": "Tu-Su 12:00-15:00, 19:30-22:30", "phone": "+39 0924 541198"}}, {"type": "node", "id": 4198868434, "lat": 38.0185418, "lon": 12.4982245, "tags": {"amenity": "restaurant", "cuisine": "italian;regional", "name": "Costes", "outdoor_seating": "yes"}}, {"type": "node", "id": 4272142089, "lat": 38.0173313, "lon": 12.5152053, "tags": {"addr:city": "Trapani", "addr:housenumber": "4", "addr:postcode": "91100", "addr:street": "Via Palmerio Abate", "amenity": "restaurant", "cuisine": "regional", "indoor_seating": "yes", "internet_access": "wlan", "name": "210 Grammi", "operator": "Sal.Da.Da. / Arancio Salvatore & C. s.a.s.", "outdoor_seating": "yes", "phone": "+39 342 3950873", "smoking": "outside", "website": "http://www.210grammi.com"}}, {"type": "node", "id": 4286151990, "lat": 38.0153645, "lon": 12.5090032, "tags": {"addr:housenumber": "13", "addr:street": "Corso Vittorio Emanuele", "amenity": "cafe", "indoor_seating": "yes", "outdoor_seating": "yes"}}, {"type": "node", "id": 4326699040, "lat": 38.0701298, "lon": 12.8185548, "tags": {"addr:city": "Scopello", "addr:housenumber": "1", "addr:postcode": "91014", "addr:street": "Baglio Isonzo", "amenity": "cafe", "cuisine": "italian", "description": "Bar gelateria e ristorante", "internet_access": "wlan", "name": "Bar Nettuno", "opening_hours": "08:00-02:00", "smoking": "outside"}}, {"type": "node", "id": 4357788000, "lat": 38.0378768, "lon": 12.8050621}, {"type": "node", "id": 4357788001, "lat": 38.037956, "lon": 12.8050179}, {"type": "node", "id": 4357788002, "lat": 38.0379719, "lon": 12.8052794}, {"type": "node", "id": 4357788003, "lat": 38.0380236, "lon": 12.8051574}, {"type": "node", "id": 4357788004, "lat": 38.0380384, "lon": 12.8052284}, {"type": "node", "id": 4357788005, "lat": 38.0380511, "lon": 12.8052459}, {"type": "node", "id": 4357788006, "lat": 38.038069, "lon": 12.8051359}, {"type": "node", "id": 4357788007, "lat": 38.0380975, "lon": 12.805215}, {"type": "node", "id": 4369962294, "lat": 38.0151869, "lon": 12.5046541, "tags": {"amenity": "restaurant", "name": "il Patio -Taverna Siciliana", "name:en": "il Patio -Taverna Siciliana"}}, {"type": "node", "id": 4370090289, "lat": 38.013739, "lon": 12.5131147, "tags": {"amenity": "restaurant", "name": "Osteria Vineria a Casa Mia", "name:en": "Osteria Vineria a Casa Mia", "survey:date": "2024-01-27"}}, {"type": "node", "id": 4370090290, "lat": 38.0172001, "lon": 12.5147884, "tags": {"amenity": "restaurant", "name": "Al Bastioni Ristorante Pizzeria"}}, {"type": "node", "id": 4550998217, "lat": 38.0706439, "lon": 13.0391931, "tags": {"amenity": "restaurant", "name": "Il Veliero"}}, {"type": "node", "id": 4550998244, "lat": 38.0650735, "lon": 13.0359306, "tags": {"amenity": "restaurant", "name": "La Vela"}}, {"type": "node", "id": 4550998268, "lat": 38.0670001, "lon": 13.0368265, "tags": {"amenity": "cafe", "name": "Carlo's Caf\u00e9"}}, {"type": "node", "id": 4550998303, "lat": 38.0685807, "lon": 13.0358027, "tags": {"amenity": "restaurant", "name": "Privilege"}}, {"type": "node", "id": 4550998317, "lat": 38.0671585, "lon": 13.0387657, "tags": {"amenity": "cafe", "name": "Caff\u00e8 Blue Moon"}}, {"type": "node", "id": 4550998338, "lat": 38.0686603, "lon": 13.0360565, "tags": {"amenity": "restaurant", "name": "Le Bistr\u00f2"}}, {"type": "node", "id": 4550998345, "lat": 38.0666417, "lon": 13.035062, "tags": {"amenity": "restaurant"}}, {"type": "node", "id": 4550998347, "lat": 38.0697811, "lon": 13.0384522, "tags": {"amenity": "restaurant", "name": "Lo Buindo"}}, {"type": "node", "id": 4603508929, "lat": 38.1749796, "lon": 12.7405125, "tags": {"amenity": "restaurant", "name": "Cous Cous Fest Pala Bia"}}, {"type": "node", "id": 4779517623, "lat": 38.0140026, "lon": 12.7196158, "tags": {"amenity": "restaurant", "name": "Peppe e Nino"}}, {"type": "node", "id": 4849022325, "lat": 38.0385535, "lon": 12.5872313, "tags": {"amenity": "restaurant", "cuisine": "italian_pizza;italian", "name": "Il Casale Ericino"}}, {"type": "node", "id": 4866804355, "lat": 38.0691952, "lon": 13.0434468, "tags": {"amenity": "cafe", "name": "Caffe Style", "phone": "+39 091 8989161", "website": "https://caffestyletrappeto.wixsite.com/caffestyle"}}, {"type": "node", "id": 4866804356, "lat": 38.0687742, "lon": 13.042521, "tags": {"amenity": "cafe", "name": "Extra Bar"}}, {"type": "node", "id": 4866804402, "lat": 38.068845, "lon": 13.0365973, "tags": {"amenity": "cafe", "name": "Bar Albachiara"}}, {"type": "node", "id": 4866830643, "lat": 38.0702958, "lon": 13.0387699, "tags": {"amenity": "cafe", "name": "Onda del Mare", "opening_hours": "Mo-Su 06:30-13:00,15:00-24:00"}}, {"type": "node", "id": 4922765289, "lat": 38.0681393, "lon": 13.0376279, "tags": {"amenity": "cafe", "indoor_seating": "yes", "name": "Crema & Cioccolato", "outdoor_seating": "yes"}}, {"type": "node", "id": 4957279221, "lat": 38.07918, "lon": 12.66443, "tags": {"amenity": "cafe", "cuisine": "breakfast;ice_cream;tea;cake;local;coffee_shop;italian;donut;deli", "name": "Bar Odissea"}}, {"type": "node", "id": 5050265576, "lat": 38.0568112, "lon": 13.0175477}, {"type": "node", "id": 5050265577, "lat": 38.0566879, "lon": 13.0173018}, {"type": "node", "id": 5050265578, "lat": 38.0565759, "lon": 13.0174156}, {"type": "node", "id": 5050265579, "lat": 38.0565999, "lon": 13.017623}, {"type": "node", "id": 5050265580, "lat": 38.0567248, "lon": 13.0176067}, {"type": "node", "id": 5050265581, "lat": 38.0567984, "lon": 13.0175986}, {"type": "node", "id": 5050267507, "lat": 38.0571505, "lon": 13.0186515}, {"type": "node", "id": 5050267508, "lat": 38.0569312, "lon": 13.0187003}, {"type": "node", "id": 5050267509, "lat": 38.0569696, "lon": 13.0188873}, {"type": "node", "id": 5050267510, "lat": 38.0571969, "lon": 13.0188263}, {"type": "node", "id": 5107377821, "lat": 38.1748537, "lon": 12.733904, "tags": {"addr:housenumber": "87", "addr:postcode": "91010", "addr:street": "Via Matteo Peralta", "amenity": "restaurant", "name": "Morsi e Sorsi", "opening_hours": "Mo-Su 12:00-15:30,18:30-24:00", "phone": "+39 347 914 0811"}}, {"type": "node", "id": 5232841734, "lat": 38.0887511, "lon": 12.6591433, "tags": {"amenity": "restaurant", "cuisine": "regional", "name": "La Capannina sea food"}}, {"type": "node", "id": 5232846354, "lat": 38.0862555, "lon": 12.6618289, "tags": {"amenity": "restaurant", "cuisine": "pizza;regional", "name": "Pizza E Cassatelle"}}, {"type": "node", "id": 5232862587, "lat": 38.0827539, "lon": 12.6644282, "tags": {"amenity": "restaurant", "cuisine": "pizza", "delivery": "no", "description": "Animazione il weekend", "name": "flinstones", "outdoor_seating": "yes", "takeaway": "yes"}}, {"type": "node", "id": 5232890672, "lat": 38.0876809, "lon": 12.6590922, "tags": {"amenity": "restaurant", "cuisine": "pizza", "takeaway": "yes"}}, {"type": "node", "id": 5232908587, "lat": 38.0701832, "lon": 12.6875111, "tags": {"amenity": "restaurant", "cuisine": "italian", "name": "La Tegola"}}, {"type": "node", "id": 5273254157, "lat": 38.0804058, "lon": 12.7141562, "tags": {"amenity": "cafe", "name": "Bar Pasticceria Zicaff\u00e8"}}, {"type": "node", "id": 5409578049, "lat": 38.0178009, "lon": 12.4991799, "tags": {"amenity": "restaurant", "name": "Ristorantino Ligny"}}, {"type": "node", "id": 5412754005, "lat": 38.0273901, "lon": 12.8826375, "tags": {"amenity": "restaurant", "name": "Ristorante Pizzeria La Perla"}}, {"type": "node", "id": 5412754006, "lat": 38.0273647, "lon": 12.882757, "tags": {"amenity": "restaurant", "name": "Ristorante Pizzeria Il Gitano"}}, {"type": "node", "id": 5876066585, "lat": 38.1740015, "lon": 12.742475, "tags": {"addr:housenumber": "7", "addr:postcode": "91010", "addr:street": "Via la Goulette", "amenity": "restaurant", "name": "KM Restaurant", "phone": "+39 331 862 9048", "website": "https://www.krimar.it/ristorante.htm"}}, {"type": "node", "id": 5888831788, "lat": 38.0267357, "lon": 12.8851878, "tags": {"addr:city": "Castellammare del Golfo", "addr:housenumber": "156", "addr:postcode": "91014", "addr:street": "Via Guglielmo Marconi", "amenity": "restaurant", "cuisine": "pizza", "fixme": "Still existing? Name?"}}, {"type": "node", "id": 5907166337, "lat": 38.0282082, "lon": 12.539606, "tags": {"air_conditioning": "yes", "amenity": "cafe", "fixme": "room video slots", "name": "Bar Snoopy", "operator": "Mineo Bartolomeo Alessandro", "outdoor_seating": "yes", "smoking": "outside"}}, {"type": "node", "id": 5968343489, "lat": 38.0674975, "lon": 13.0378745, "tags": {"amenity": "cafe", "name": "Caff\u00e8 Nob\u00e8l"}}, {"type": "node", "id": 5969530886, "lat": 38.1776423, "lon": 12.7333062, "tags": {"addr:housenumber": "10", "addr:postcode": "91010", "addr:street": "Via Savoia", "amenity": "restaurant", "name": "Nimia", "opening_hours": "Mo-Su 11:00-02:00", "phone": "+39 380 140 8909"}}, {"type": "node", "id": 5969539586, "lat": 38.1767366, "lon": 12.7326089, "tags": {"amenity": "restaurant", "name": "Le camere del Th\u00e0am"}}, {"type": "node", "id": 5969539786, "lat": 38.1777842, "lon": 12.7329861, "tags": {"amenity": "restaurant", "name": "Trattoria a Lampara"}}, {"type": "node", "id": 6064376785, "lat": 38.0152562, "lon": 12.5172129, "tags": {"addr:housenumber": "65", "addr:postcode": "91100", "addr:street": "Via Spalti", "amenity": "cafe", "name:en": "Pollero do Roberto"}}, {"type": "node", "id": 6326843387, "lat": 38.0160187, "lon": 12.5129148, "tags": {"amenity": "cafe", "cuisine": "cake;sandwich;coffee_shop", "name": "Bar della Piazzetta"}}, {"type": "node", "id": 6343512297, "lat": 38.0358774, "lon": 12.5880815, "tags": {"addr:housenumber": "53", "addr:street": "Viale Conte Agostino Pepoli", "amenity": "restaurant", "check_date": "2023-05-23", "indoor_seating": "yes", "name": "Gran Caff\u00e8 Venus", "outdoor_seating": "yes", "website": "https://web.facebook.com/venusristorantepizzeria/"}}, {"type": "node", "id": 6469671956, "lat": 38.0187265, "lon": 12.5157267, "tags": {"amenity": "cafe", "name": "La Caffetteria di Marrone", "outdoor_seating": "yes", "takeaway": "yes", "toilets": "yes", "toilets:access": "customers", "wheelchair": "limited"}}, {"type": "node", "id": 6469671957, "lat": 38.0190397, "lon": 12.5161968, "tags": {"amenity": "restaurant", "cuisine": "italian", "name": "Palazzo Platamone", "opening_hours": "12:00-15:30", "self_service": "yes", "takeaway": "yes"}}, {"type": "node", "id": 6564928786, "lat": 38.0380658, "lon": 12.5866611, "tags": {"addr:housenumber": "7", "addr:postcode": "91016", "addr:street": "Vicolo San Rocco", "amenity": "restaurant", "cuisine": "italian", "internet_access": "wlan", "name": "Monte San Giuliano", "opening_hours": "Mo-Su 12:15-15:00, 19:30-22:00", "phone": "+390923869595"}}, {"type": "node", "id": 6566435085, "lat": 38.0683605, "lon": 12.8182616, "tags": {"addr:postcode": "91014", "addr:street": "Contrada Scopello", "amenity": "restaurant", "cuisine": "italian;mediterranean", "name": "La Cialoma", "name:en": "La Cialoma Ristorante", "name:it": "La Cialoma Ristorante", "name:ru": "La Cialoma Ristorante", "opening_hours": "Mo-Su 12:30-15:00, 19:30-23:00", "wheelchair": "no"}}, {"type": "node", "id": 6612082554, "lat": 38.1763363, "lon": 12.7328643, "tags": {"amenity": "restaurant", "cuisine": "peruvian", "name": "Inka Wasi"}}, {"type": "node", "id": 6620918060, "lat": 38.0281582, "lon": 12.8801484, "tags": {"amenity": "restaurant", "name": "La Tonnara", "outdoor_seating": "yes"}}, {"type": "node", "id": 6648290886, "lat": 38.0681742, "lon": 13.0376909, "tags": {"amenity": "cafe", "indoor_seating": "yes", "name": "Arcobaleno", "outdoor_seating": "yes", "wheelchair": "yes"}}, {"type": "node", "id": 6718682585, "lat": 38.0145211, "lon": 12.5150867, "tags": {"addr:street": "Largo Porta Galli", "amenity": "restaurant", "name": "Hostaria San Pietro", "opening_hours": "Th-Tu 12:00-16:00,17:00-02:00", "phone": "+393397198193"}}, {"type": "node", "id": 6718682586, "lat": 38.0156968, "lon": 12.5053326, "tags": {"addr:housenumber": "15/17", "addr:postcode": "91100", "addr:street": "Via Serisso", "amenity": "restaurant", "indoor_seating": "yes", "name": "Maree", "opening_hours": "Tu-Su 12:00-14:30, 18:30-23:00", "outdoor_seating": "yes", "phone": "+393889864456", "website": "https://mareetrapani.com/", "wheelchair": "no"}}, {"type": "node", "id": 6724819866, "lat": 38.0164752, "lon": 12.5034297, "tags": {"amenity": "restaurant", "indoor_seating": "yes", "name": "Pizzeria Jolanda", "outdoor_seating": "yes"}}, {"type": "node", "id": 6724846319, "lat": 38.0164299, "lon": 12.5036393, "tags": {"addr:city": "Trapani", "addr:housenumber": "191", "addr:postcode": "91100", "addr:street": "Corso Vittorio Emanuele", "amenity": "restaurant", "name": "Antichi Sapori", "website": "https://www.antichisaporitrapani.it/"}}, {"type": "node", "id": 6773275817, "lat": 38.0372767, "lon": 12.5857776, "tags": {"amenity": "restaurant", "name": "Il Rifuglio di Enea"}}, {"type": "node", "id": 6822996759, "lat": 38.0873056, "lon": 12.6732426, "tags": {"addr:city": "Scurati", "addr:postcode": "91015", "addr:street": "Contrada Scurati", "amenity": "restaurant", "cuisine": "italian;regional", "name": "Belvedere Parco Scurati", "opening_hours": "Mo-Su 20:00-23:30"}}, {"type": "node", "id": 6846321498, "lat": 38.035487, "lon": 12.5893977, "tags": {"amenity": "cafe", "name": "Caff\u00e8 del Balio", "outdoor_seating": "yes"}}, {"type": "node", "id": 7185063239, "lat": 38.0975439, "lon": 12.7380301, "tags": {"amenity": "restaurant", "cuisine": "pizza", "name": "Pizzeria Number One"}}, {"type": "node", "id": 7274004506, "lat": 38.0169021, "lon": 12.6563889, "tags": {"amenity": "restaurant", "cuisine": "pizza", "name": "Pizzeria Da Franco"}}, {"type": "node", "id": 7274004508, "lat": 38.0170733, "lon": 12.6594412, "tags": {"addr:city": "Chiesanuova", "addr:housenumber": "233", "addr:postcode": "91010", "addr:street": "Via Guglielmo Oberdan", "amenity": "restaurant", "cuisine": "pizza;regional", "name": "La Campagnola - Ristorante Pizzeria Di Leonardo Ruggirello"}}, {"type": "node", "id": 7601829010, "lat": 38.0660026, "lon": 12.5954993, "tags": {"amenity": "restaurant", "name": "Cortile di Venere"}}, {"type": "node", "id": 7741696886, "lat": 38.0162611, "lon": 12.5028188, "tags": {"addr:street": "Viale Duca d'Aosta", "amenity": "restaurant", "cuisine": "italian_pizza", "name": "Antica Pizzeira Aleci"}}, {"type": "node", "id": 7741707285, "lat": 38.0378739, "lon": 12.5866448, "tags": {"addr:street": "Via Vittorio Emanuele", "amenity": "cafe", "name": "Caff\u00e8 Pasticceria Michele"}}, {"type": "node", "id": 7853854585, "lat": 38.1771715, "lon": 12.7336336, "tags": {"addr:housenumber": "19", "addr:postcode": "91010", "addr:street": "Via Savoia", "amenity": "restaurant", "check_date": "2024-03-31", "cuisine": "regional;seafood", "email": "info@dalcozzaro.it", "name": "Dal Cozzaro", "opening_hours": "Mo-Su 12:00-23:00", "phone": "+39 0923 972777", "website": "http://www.dalcozzaro.it"}}, {"type": "node", "id": 7856480785, "lat": 38.1752718, "lon": 12.7364248, "tags": {"addr:housenumber": "2", "addr:postcode": "91010", "addr:street": "Piazza Marinella", "amenity": "cafe", "name": "Marinella Bar", "opening_hours": "Mo-Su 06:00-23:30"}}, {"type": "node", "id": 7856940485, "lat": 38.1752829, "lon": 12.7365964, "tags": {"addr:housenumber": "5", "addr:postcode": "91010", "addr:street": "Piazza Marinella", "amenity": "restaurant", "name": "Ristorante Agor\u00e0", "name:en": "Agor\u00e0 Restaurant", "phone": "+39 0923 97442", "website": "http://www.sicilia-aziende.com/web-link.html?sobi2Task=sobi2Details&catid=2430&sobi2Id=656"}}, {"type": "node", "id": 7881573285, "lat": 38.0149417, "lon": 12.4942078, "tags": {"amenity": "restaurant", "name": "Lo scoglio"}}, {"type": "node", "id": 7881700285, "lat": 38.0152726, "lon": 12.5052961, "tags": {"addr:city": "Trapani", "addr:housenumber": "39", "addr:postcode": "91100", "addr:street": "Via Serisso", "amenity": "restaurant", "name": "'A nassa"}}, {"type": "node", "id": 7887287471, "lat": 38.013733, "lon": 12.5070602, "tags": {"amenity": "cafe", "name": "Bar Peoplw", "operator": "Furente Umberto", "ref:vatin": "IT02373960810", "takeaway": "yes"}}, {"type": "node", "id": 7889307214, "lat": 38.0151686, "lon": 12.5073711, "tags": {"addr:city": "Trapani", "addr:housenumber": "32", "addr:postcode": "91100", "addr:street": "Via San Francesco d'Assisi", "amenity": "restaurant", "name": "Caupona Taverna di Sicilia"}}, {"type": "node", "id": 7921401985, "lat": 38.0156683, "lon": 12.5080908, "tags": {"addr:street": "Via Leonardo Ximenes", "amenity": "restaurant", "cuisine": "italian", "indoor_seating": "yes", "outdoor_seating": "yes"}}, {"type": "node", "id": 7932171085, "lat": 38.088988, "lon": 12.6576937, "tags": {"amenity": "restaurant", "cuisine": "fish;italian", "name": "Sunset"}}, {"type": "node", "id": 8201266517, "lat": 38.0193685, "lon": 12.5241334, "tags": {"addr:street": "Via Giovanbattista Fardella", "amenity": "cafe", "cuisine": "coffee_shop;sandwich", "name": "Zicaff\u00e8"}}, {"type": "node", "id": 8201277318, "lat": 38.019239, "lon": 12.5233024, "tags": {"addr:city": "Trapani", "addr:housenumber": "124", "addr:postcode": "91100", "addr:street": "Via Giovanbattista Fardella", "amenity": "restaurant", "cuisine": "deli;italian;pasta", "name": "Il Tortellino di Oddo Ignazio", "opening_hours": "Mo-Fr 07:30-20:30; Sa 07:30-21:00; Su 07:30-14:00", "phone": "+39 0923 27465", "website": "http://iltortellinotrapani.it"}}, {"type": "node", "id": 8221843217, "lat": 38.0147086, "lon": 12.5060683, "tags": {"addr:street": "Viale Regina Elena", "amenity": "restaurant", "cuisine": "italian;local", "name": "Trattoria Cacio e Pepe", "phone": "+39 338 158 9948"}}, {"type": "node", "id": 8228231644, "lat": 38.0809884, "lon": 12.6863026, "tags": {"addr:housenumber": "100", "addr:postcode": "91015", "addr:street": "Via Santa Lucia", "amenity": "cafe", "cuisine": "coffee_shop;local;tea", "name": "Coffe's Room", "opening_hours": "Mo-Su 06:00-22:30", "phone": "+39 328 866 9252"}}, {"type": "node", "id": 8356216094, "lat": 38.0223468, "lon": 12.5213511, "tags": {"amenity": "restaurant", "cuisine": "pizza", "name": "Che pizza", "opening_hours": "We-Mo 18:30-23:30; Tu off", "phone": "+39 333 949 4004"}}, {"type": "node", "id": 8807544431, "lat": 38.1776085, "lon": 12.7330488, "tags": {"addr:city": "San Vito Lo Capo", "addr:housenumber": "7", "addr:postcode": "91010", "addr:street": "Via Dogana", "amenity": "restaurant", "name": "Lopana - Fish & Drink", "phone": "+39 3395250855", "website": "https://sanvitolocapoloungebar.it/"}}, {"type": "node", "id": 8925728118, "lat": 38.0691129, "lon": 12.6298362, "tags": {"amenity": "restaurant", "name": "Pizzeria L'Ancora Lido Valderice"}}, {"type": "node", "id": 9001196718, "lat": 38.0172062, "lon": 12.5014072, "tags": {"addr:housenumber": "15", "addr:postcode": "91100", "addr:street": "Viale delle Sirene", "amenity": "restaurant", "cuisine": "fish;italian;regional;seafood", "internet_access": "wlan", "name": "Stravento", "name:en": "Restaurant Stravento", "phone": "+39 338 465 5288", "survey:date": "2024-01-28"}}, {"type": "node", "id": 9001200017, "lat": 38.0177723, "lon": 12.4993844, "tags": {"addr:housenumber": "3", "addr:postcode": "91100", "addr:street": "Largo delle Ninfe", "amenity": "restaurant", "name": "Tra i due Mari", "phone": "+39 376 056 8054"}}, {"type": "node", "id": 9083460230, "lat": 38.0192029, "lon": 12.5176137, "tags": {"addr:city": "Trapani", "addr:housenumber": "2", "addr:postcode": "91100", "addr:street": "Via Francesco Crispi", "amenity": "restaurant", "cuisine": "italian;seafood", "name": "Krug", "phone": "+39 333 1929398"}}, {"type": "node", "id": 9085487926, "lat": 38.019037, "lon": 12.5176547, "tags": {"addr:city": "Trapani", "addr:postcode": "91100", "addr:street": "Via Francesco Crispi", "amenity": "cafe", "name": "Sciusci\u00e1 Caf\u00e8", "phone": "+39 347 7908625"}}, {"type": "node", "id": 9349095181, "lat": 38.0151528, "lon": 12.5148585, "tags": {"addr:city": "Trapani", "addr:housenumber": "124", "addr:postcode": "91100", "addr:street": "Corso Italia", "amenity": "cafe", "name": "Bar Italia", "phone": "+39 388 7391297"}}, {"type": "node", "id": 9349125068, "lat": 38.0171337, "lon": 12.5152615, "tags": {"addr:city": "Trapani", "addr:housenumber": "10", "addr:postcode": "91100", "addr:street": "Via Palmerio Abate", "amenity": "restaurant", "cuisine": "italian;burger", "email": "info@seigradisteakhouse.com", "indoor_seating": "yes", "name": "Sei Gradi Steakhouse - Hamburgeria", "outdoor_seating": "yes", "phone": "+39 391 1431616", "website": "https://www.seigradisteakhouse.com/it/"}}, {"type": "node", "id": 9349140516, "lat": 38.0168387, "lon": 12.5152847, "tags": {"addr:city": "Trapani", "addr:housenumber": "20", "addr:postcode": "91100", "addr:street": "Via Palmerio Abate", "amenity": "restaurant", "cuisine": "pizza;grill", "name": "Il Boccone di Azi's", "phone": "+39 0923 27227"}}, {"type": "node", "id": 9349164175, "lat": 38.0138285, "lon": 12.5108347, "tags": {"addr:city": "Trapani", "addr:postcode": "91100", "addr:street": "Via Ammiraglio Staiti", "amenity": "restaurant", "cuisine": "asian;chinese;japanese", "name": "Il Pechino", "phone": "+39 0923 25633"}}, {"type": "node", "id": 9349164656, "lat": 38.0161698, "lon": 12.4994372, "tags": {"addr:city": "Trapani", "addr:housenumber": "6", "addr:postcode": "91100", "addr:street": "Via Cristoforo Colombo", "amenity": "restaurant", "cuisine": "italian;seafood", "indoor_seating": "yes", "name": "Lo Scalo", "outdoor_seating": "yes", "phone": "+39 0923 27114", "survey:date": "2024-01-27"}}, {"type": "node", "id": 9688419755, "lat": 38.0175932, "lon": 12.5187621, "tags": {"amenity": "restaurant", "name": "La pepita"}}, {"type": "node", "id": 9809314286, "lat": 38.015714, "lon": 12.519618, "tags": {"amenity": "cafe", "name": "Maria77"}}, {"type": "node", "id": 9839538517, "lat": 38.0373659, "lon": 12.5877793, "tags": {"amenity": "restaurant", "check_date:opening_hours": "2024-12-18", "cuisine": "fish;local;mediterranean", "name": "La Pentolaccia", "opening_hours:signed": "no"}}, {"type": "node", "id": 9844737517, "lat": 38.0263688, "lon": 12.8796068, "tags": {"amenity": "restaurant", "cuisine": "local;seafood", "name": "Coccio"}}, {"type": "node", "id": 9845249717, "lat": 38.0187927, "lon": 12.5268421, "tags": {"addr:housenumber": "144", "addr:postcode": "91100", "addr:street": "Via Vespri", "amenity": "restaurant", "cuisine": "italian_pizza", "name": "Fuori di Pizza", "opening_hours": "Tu-Su 18:00-23:00", "phone": "+39 327 101 5529"}}, {"type": "node", "id": 10026192303, "lat": 38.0153934, "lon": 12.5145102, "tags": {"addr:housenumber": "77a", "addr:street": "Corso Italia", "amenity": "cafe", "name": "Caf\u00e8 San Pietro", "outdoor_seating": "yes"}}, {"type": "node", "id": 10026242858, "lat": 38.0163004, "lon": 12.5149484, "tags": {"amenity": "cafe", "name": "Aris caff\u00e8", "outdoor_seating": "yes"}}, {"type": "node", "id": 10084929276, "lat": 38.166655, "lon": 12.7358867}, {"type": "node", "id": 10084929277, "lat": 38.1666828, "lon": 12.7361225}, {"type": "node", "id": 10084929278, "lat": 38.1667579, "lon": 12.7361082}, {"type": "node", "id": 10084929279, "lat": 38.1667301, "lon": 12.7358724}, {"type": "node", "id": 10799574333, "lat": 38.1755987, "lon": 12.7335104, "tags": {"addr:housenumber": "86", "addr:street": "Via Savoia", "amenity": "restaurant", "cuisine": "arab", "name": "Syrah Ristorantino di Vito Cipponeri", "phone": "+39 0923 972028", "website": "https://syrah-restaurant.business.site/"}}, {"type": "node", "id": 10804334598, "lat": 38.0265875, "lon": 12.884332, "tags": {"amenity": "restaurant", "name": "La buona forchetta"}}, {"type": "node", "id": 10944335930, "lat": 38.1774361, "lon": 12.733617, "tags": {"amenity": "restaurant", "name": "Trattoria da Mariella"}}, {"type": "node", "id": 10944390883, "lat": 38.1775001, "lon": 12.7336134, "tags": {"amenity": "restaurant", "cuisine": "seafood", "name": "La Battigia"}}, {"type": "node", "id": 10944475664, "lat": 38.0165554, "lon": 12.502542, "tags": {"amenity": "restaurant", "cuisine": "pizza", "name": "La Lampara", "outdoor_seating": "yes"}}, {"type": "node", "id": 10949418833, "lat": 38.175778, "lon": 12.7352887, "tags": {"amenity": "restaurant", "cuisine": "local", "name": "Trattoria du Lantirneri", "outdoor_seating": "yes"}}, {"type": "node", "id": 10949427805, "lat": 38.0472216, "lon": 13.0049078, "tags": {"amenity": "restaurant", "cuisine": "pizza", "name": "Cavallino Bianco"}}, {"type": "node", "id": 10951549206, "lat": 38.0187212, "lon": 12.5160787, "tags": {"amenity": "restaurant", "name": "Fronte Villa"}}, {"type": "node", "id": 10951602335, "lat": 38.0522273, "lon": 13.0044006, "tags": {"amenity": "restaurant", "cuisine": "local", "level": "4", "name": "Siculish", "outdoor_seating": "yes"}}, {"type": "node", "id": 10951642723, "lat": 38.0524885, "lon": 13.0047197, "tags": {"amenity": "restaurant", "cuisine": "regional", "name": "Eccellenze Siciliane", "outdoor_seating": "yes"}}, {"type": "node", "id": 10957038711, "lat": 38.0265796, "lon": 12.8810776, "tags": {"amenity": "restaurant", "cuisine": "local", "name": "La Maidda"}}, {"type": "node", "id": 10957046525, "lat": 38.0264419, "lon": 12.8867585, "tags": {"amenity": "restaurant", "name": "Osteria Qui"}}, {"type": "node", "id": 10963979652, "lat": 38.0261678, "lon": 12.8794706, "tags": {"amenity": "restaurant", "cuisine": "local;pizza", "name": "Le Grazie", "outdoor_seating": "yes"}}, {"type": "node", "id": 10964755641, "lat": 38.0384228, "lon": 12.5872824, "tags": {"amenity": "restaurant", "name": "Nuovo Edelweiss", "survey:date": "2024-02-18"}}, {"type": "node", "id": 10964910305, "lat": 38.0262755, "lon": 12.8799196, "tags": {"addr:housenumber": "44", "addr:street": "Corso Bernardo Mattarella", "amenity": "restaurant", "cuisine": "italian;italian_pizza;local", "name": "Mama Cocha Pizzeria", "phone": "0039092433522"}}, {"type": "node", "id": 10965427105, "lat": 38.035499, "lon": 12.5893997, "tags": {"amenity": "cafe", "name": "Caff\u00e9 del Balio"}}, {"type": "node", "id": 10967284276, "lat": 38.1746088, "lon": 12.7352062, "tags": {"amenity": "restaurant", "name": "Cortile di Cerere"}}, {"type": "node", "id": 10967961105, "lat": 38.0165578, "lon": 12.5038728, "tags": {"amenity": "cafe", "indoor_seating": "yes", "name": "Caff\u00e9 Jolanda", "outdoor_seating": "yes"}}, {"type": "node", "id": 10967961205, "lat": 38.0168674, "lon": 12.5036853, "tags": {"amenity": "restaurant", "name": "Santa Chiara 19"}}, {"type": "node", "id": 10967961206, "lat": 38.0169262, "lon": 12.5190357, "tags": {"amenity": "cafe"}}, {"type": "node", "id": 11010384605, "lat": 38.0187046, "lon": 12.5159034, "tags": {"addr:housenumber": "29", "addr:street": "Viale Regina Margherita", "amenity": "cafe", "name": "Fronte Villa"}}, {"type": "node", "id": 11010910606, "lat": 38.017498, "lon": 12.5118374, "tags": {"addr:housenumber": "57", "addr:street": "Via Giuseppe Garibaldi", "amenity": "restaurant", "name": "Garibaldi Market-Enoteca"}}, {"type": "node", "id": 11012361305, "lat": 38.0370067, "lon": 12.5876766, "tags": {"addr:housenumber": "10", "addr:street": "Via San Carlo", "amenity": "restaurant", "name": "Gli Archi di San Carlo", "wheelchair": "limited"}}, {"type": "node", "id": 11107468961, "lat": 38.0931369, "lon": 12.6705802, "tags": {"addr:postcode": "91015", "amenity": "restaurant", "cuisine": "coffee_shop", "name": "Bar \"A Rutta\""}}, {"type": "node", "id": 11107630611, "lat": 38.0378248, "lon": 12.5866968, "tags": {"amenity": "restaurant", "name": "La Prima Dea"}}, {"type": "node", "id": 11165570987, "lat": 38.0151757, "lon": 12.5090194, "tags": {"addr:city": "Trapani", "addr:housenumber": "12", "addr:postcode": "91100", "addr:province": "TP", "addr:street": "Via Antonino Turretta", "amenity": "restaurant", "contact:facebook": "https://www.facebook.com/ilcuoppodelporto.ristorante.trapani", "contact:instagram": "https://instagram.com/ilcuoppodelporto", "contact:tripadvisor": "https://www.tripadvisor.it/Restaurant_Review-g494955-d10673045-Reviews-Il_Cuoppo_Del_Porto-Trapani_Province_of_Trapani_Sicily.html", "cuisine": "friture;fish;regional", "description": "Ristorante che serve vari piatti tipici trapanesi, tra cui la pietanza principale ovvero il Cuoppo, un misto di frittura di pesce avvolta in un cartoncino", "description:en": "Restaurant serving various typical Trapani dishes, including the main dish Cuoppo, a mixture of fried fish wrapped in a sheet of cardboard", "name": "Il Cuoppo Del Porto", "opening_hours": "Tu-Su 12:00-15:00, 19:00-23:00; Mo off", "outdoor_seating": "yes", "phone": "+39 351 217 8135", "reservation": "yes", "stars": "4", "takeaway": "yes", "toilets": "yes", "toilets:wheelchair": "yes", "wheelchair": "limited"}}, {"type": "node", "id": 11556323841, "lat": 38.0126505, "lon": 12.5693994, "tags": {"amenity": "cafe", "indoor_seating": "yes", "outdoor_seating": "yes"}}, {"type": "node", "id": 11556659317, "lat": 38.0137697, "lon": 12.5127513, "tags": {"amenity": "cafe", "indoor_seating": "yes", "outdoor_seating": "yes"}}, {"type": "node", "id": 11556669212, "lat": 38.0149002, "lon": 12.5198427, "tags": {"amenity": "cafe", "indoor_seating": "yes", "name": "La Caffettiera", "outdoor_seating": "yes"}}, {"type": "node", "id": 11556672394, "lat": 38.0146488, "lon": 12.5178561, "tags": {"amenity": "cafe"}}, {"type": "node", "id": 11556672736, "lat": 38.0170015, "lon": 12.509671, "tags": {"amenity": "cafe"}}, {"type": "node", "id": 11556686820, "lat": 38.0158235, "lon": 12.511057, "tags": {"amenity": "restaurant"}}, {"type": "node", "id": 11556747848, "lat": 38.0168162, "lon": 12.5098311, "tags": {"amenity": "cafe", "indoor_seating": "yes", "outdoor_seating": "yes"}}, {"type": "node", "id": 11556806013, "lat": 38.0165352, "lon": 12.5031964, "tags": {"amenity": "restaurant"}}, {"type": "node", "id": 11556808954, "lat": 38.0154382, "lon": 12.5086444, "tags": {"amenity": "restaurant", "name:en": "Classique"}}, {"type": "node", "id": 11556830859, "lat": 38.017128, "lon": 12.500924, "tags": {"amenity": "restaurant"}}, {"type": "node", "id": 11556830888, "lat": 38.0173726, "lon": 12.4997545, "tags": {"amenity": "restaurant", "cuisine": "sushi", "indoor_seating": "yes", "outdoor_seating": "yes"}}, {"type": "node", "id": 11556831188, "lat": 38.0170127, "lon": 12.4989143, "tags": {"amenity": "cafe", "indoor_seating": "yes", "outdoor_seating": "yes"}}, {"type": "node", "id": 11556838414, "lat": 38.017288, "lon": 12.4993986, "tags": {"amenity": "cafe"}}, {"type": "node", "id": 11556852893, "lat": 38.0158631, "lon": 12.5095191, "tags": {"amenity": "restaurant"}}, {"type": "node", "id": 11556860443, "lat": 38.0159496, "lon": 12.5067642, "tags": {"amenity": "restaurant"}}, {"type": "node", "id": 11556874650, "lat": 38.0156289, "lon": 12.5077237, "tags": {"amenity": "cafe"}}, {"type": "node", "id": 11637650567, "lat": 38.036219, "lon": 12.5837831, "tags": {"amenity": "restaurant", "indoor_seating": "yes", "name": "Postale 17", "outdoor_seating": "yes"}}, {"type": "node", "id": 11637690811, "lat": 38.0384326, "lon": 12.5865466, "tags": {"amenity": "restaurant", "check_date:opening_hours": "2024-02-18", "name": "Ulisse", "opening_hours:signed": "no", "wheelchair": "no"}}, {"type": "node", "id": 11637748942, "lat": 38.0368983, "lon": 12.5882828, "tags": {"amenity": "cafe", "indoor_seating": "yes", "name": "San Giuliano", "outdoor_seating": "no"}}, {"type": "node", "id": 11637803908, "lat": 38.0366938, "lon": 12.5886012, "tags": {"amenity": "restaurant", "indoor_seating": "yes", "name": "Osteria di Venere", "outdoor_seating": "no", "wheelchair": "limited"}}, {"type": "node", "id": 11638183856, "lat": 38.0226278, "lon": 12.549979, "tags": {"amenity": "cafe"}}, {"type": "node", "id": 11638317836, "lat": 38.0141507, "lon": 12.5532446, "tags": {"amenity": "cafe"}}, {"type": "node", "id": 11638361845, "lat": 38.0115081, "lon": 12.5439528, "tags": {"amenity": "cafe", "indoor_seating": "yes", "outdoor_seating": "yes"}}, {"type": "node", "id": 11638382129, "lat": 38.0131274, "lon": 12.5376589, "tags": {"amenity": "restaurant"}}, {"type": "node", "id": 11773860095, "lat": 38.0778206, "lon": 12.6743497, "tags": {"amenity": "restaurant", "name": "La villa"}}, {"type": "node", "id": 11904007200, "lat": 38.0412487, "lon": 12.6738178, "tags": {"amenity": "cafe", "name": "Bar Lentina"}}, {"type": "node", "id": 11936012768, "lat": 38.1350787, "lon": 12.7441366, "tags": {"amenity": "restaurant", "name": "Azzurra Makari"}}, {"type": "node", "id": 11936022917, "lat": 38.1321646, "lon": 12.7417099, "tags": {"amenity": "cafe", "name": "Makari Caf\u00e8"}}, {"type": "node", "id": 11947127853, "lat": 38.1746788, "lon": 12.7351503, "tags": {"amenity": "restaurant", "name": "Cortile di Cerere"}}, {"type": "node", "id": 11947220185, "lat": 38.1748238, "lon": 12.732172, "tags": {"amenity": "restaurant", "name": "Disio"}}, {"type": "node", "id": 11947220186, "lat": 38.1750336, "lon": 12.7355528, "tags": {"amenity": "restaurant", "name": "Profumi di Cous Cous"}}, {"type": "node", "id": 11979133069, "lat": 38.015583, "lon": 12.5148013, "tags": {"addr:housenumber": "78", "addr:street": "Via Giudecca", "amenity": "restaurant", "cuisine": "seafood", "name": "Ristorante Ci Vulia"}}, {"type": "node", "id": 11980375969, "lat": 38.015704, "lon": 12.5109032, "tags": {"addr:housenumber": "2", "amenity": "restaurant", "cuisine": "italian_pizza", "name": "La Carrese"}}, {"type": "node", "id": 12037471339, "lat": 38.1013673, "lon": 12.7352791, "tags": {"amenity": "restaurant", "name": "Oasi da Paolo"}}, {"type": "node", "id": 12112384075, "lat": 38.0424558, "lon": 12.601363, "tags": {"amenity": "restaurant", "name": "FronteVilla Venere di Erice"}}, {"type": "node", "id": 12154285401, "lat": 38.0366173, "lon": 12.6119551, "tags": {"addr:housenumber": "28", "addr:postcode": "91019", "addr:street": "Via Trapani", "amenity": "restaurant", "cuisine": "grill", "name": "Ristorante Miar", "outdoor_seating": "no"}}, {"type": "node", "id": 12168142977, "lat": 38.069971, "lon": 12.8184146, "tags": {"addr:city": "Castellammare del Golfo", "addr:housenumber": "5", "addr:postcode": "91014", "addr:street": "Baglio Isonzo", "amenity": "restaurant", "cuisine": "pizza", "name": "Isonzo Cinque", "opening_hours": "Mo-Su 11:00-24:00", "phone": "+393313985311", "website": "https://isonzocinque.it/"}}, {"type": "node", "id": 12213981329, "lat": 38.177162, "lon": 12.7342027, "tags": {"amenity": "restaurant", "mapillary": "1327348588133235", "name": "Jacaranda"}}, {"type": "node", "id": 12269263103, "lat": 38.0149687, "lon": 12.5100374, "tags": {"amenity": "cafe"}}, {"type": "node", "id": 12270881101, "lat": 38.0207117, "lon": 12.5358451, "tags": {"addr:housenumber": "45", "addr:street": "Corso Piersanti Mattarella", "amenity": "cafe", "internet_access": "wlan", "name": "Tiffany"}}, {"type": "node", "id": 12270881102, "lat": 38.0210968, "lon": 12.5392308, "tags": {"addr:street": "Corso Piersanti Mattarella", "amenity": "cafe", "name": "Catania eighty eight"}}, {"type": "node", "id": 12270881103, "lat": 38.022061, "lon": 12.547449, "tags": {"amenity": "cafe", "name": "Manzoni"}}, {"type": "node", "id": 12271258101, "lat": 38.0385047, "lon": 12.6145402, "tags": {"addr:housenumber": "102", "addr:street": "Via Vespri", "amenity": "cafe", "cuisine": "cake;coffee_shop;ice_cream", "email": "info@cafevenere.it", "name": "Caf\u00e9 Venere", "opening_hours": "Mo-Su 05:30-00:00", "website": "https://www.cafevenere.it/menu"}}, {"type": "node", "id": 12271395801, "lat": 38.041738, "lon": 12.6209228, "tags": {"amenity": "restaurant"}}, {"type": "node", "id": 12271395802, "lat": 38.0421937, "lon": 12.6235454, "tags": {"amenity": "cafe", "name": "Vespri"}}, {"type": "node", "id": 12278494702, "lat": 38.0761006, "lon": 12.69509, "tags": {"amenity": "cafe"}}, {"type": "node", "id": 12311497923, "lat": 38.1717098, "lon": 12.7481316, "tags": {"amenity": "restaurant"}}, {"type": "node", "id": 12323634189, "lat": 38.0703121, "lon": 12.8181726, "tags": {"addr:floor": "0", "addr:housenumber": "22", "addr:street": "Baglio Isonzo", "amenity": "restaurant", "check_date": "2024-11-08", "internet_access": "no", "level": "0", "name": "Made \u2018N Sicilia", "opening_hours": "10:00-23:30", "payment:cash": "yes", "payment:mastercard": "yes", "payment:visa": "yes", "phone": "+39 0924 535004", "ref:vatin": "02650960814", "website": "https://madensicilia.it", "wheelchair": "yes"}}, {"type": "node", "id": 12389792769, "lat": 38.0307677, "lon": 12.9517221, "tags": {"amenity": "cafe", "name": "Paziente"}}, {"type": "node", "id": 12397399687, "lat": 38.1748391, "lon": 12.7329303, "tags": {"amenity": "restaurant", "name": "Al Allantica"}}, {"type": "node", "id": 12397429261, "lat": 38.1828544, "lon": 12.731616, "tags": {"amenity": "restaurant", "name": "Al Faro"}}, {"type": "node", "id": 12442243302, "lat": 38.175769, "lon": 12.7338099, "tags": {"addr:city": "San Vito Lo Capo", "addr:housenumber": "49", "addr:postcode": "91010", "addr:street": "Via Savoia", "amenity": "restaurant", "contact:instagram": "https://instagram.com/trionfo_di_gola?igshid=YmMyMTA2M2Y=", "name": "Trionfo di Gola", "opening_hours": "Mo-Su 12:00-15:00,18:30-24:00", "phone": "+3909231855093"}}, {"type": "node", "id": 12477860509, "lat": 38.0707253, "lon": 12.8180328, "tags": {"amenity": "restaurant", "name": "Torre Bennistra"}}, {"type": "node", "id": 12578405959, "lat": 38.0277264, "lon": 12.8811894, "tags": {"amenity": "restaurant", "name": "Al Burgo", "outdoor_seating": "yes"}}, {"type": "node", "id": 12578405973, "lat": 38.0282377, "lon": 12.8806852, "tags": {"amenity": "restaurant", "name": "Zero", "outdoor_seating": "yes"}}, {"type": "node", "id": 12606984045, "lat": 38.1776375, "lon": 12.7336044, "tags": {"amenity": "restaurant", "check_date": "2025-02-21", "cuisine": "italian;pizza;regional", "diet:vegetarian": "yes", "internet_access": "no", "name": "Cinquanta Passi", "name:it": "Cinquanta Passi", "opening_hours": "Mo-Su 12:00-15:00; Mo-Su 18:30-23:00", "payment:cash": "yes", "payment:credit_cards": "yes", "payment:debit_cards": "yes", "wheelchair": "limited"}}, {"type": "node", "id": 12769796603, "lat": 38.0145178, "lon": 12.5087659, "tags": {"amenity": "restaurant", "name": "Bromu"}}, {"type": "node", "id": 12849055801, "lat": 38.0287707, "lon": 12.8811158, "tags": {"amenity": "restaurant", "cuisine": "burger;italian;pasta;pizza;seafood", "name": "Victus", "name:en": "Victus"}}, {"type": "node", "id": 12898037501, "lat": 38.0150556, "lon": 12.5053172, "tags": {"amenity": "restaurant", "name": "Gli Archi di San Carlo"}}, {"type": "way", "id": 125392025, "nodes": [1392861880, 1392861883, 1392861898, 1392861895, 1392861892, 1392861885, 1392861880], "tags": {"amenity": "restaurant", "cuisine": "italian", "name": "Alfredo"}}, {"type": "way", "id": 125392026, "nodes": [1392861803, 1392861801, 1392861800, 1392861802, 1392861803], "tags": {"amenity": "restaurant", "cuisine": "italian", "name": "Antico Borgo"}}, {"type": "way", "id": 160387884, "nodes": [1724352595, 1724352165, 1724352570, 1724352580, 1724352588, 1724352582, 1724352601, 1724352595], "tags": {"amenity": "cafe", "building": "yes", "contact:phone": "+39 0923 576571", "indoor_seating": "yes", "name": "Royal Bar", "outdoor_seating": "yes", "shop": "confectionery"}}, {"type": "way", "id": 207347603, "nodes": [2175410366, 2175410401, 2175410385, 2175410392, 2175410360, 2175410381, 2175410353, 2175410349, 2175410405, 2175410362, 2175410352, 2175410341, 2175410407, 2175410387, 2175410393, 2175410343, 2175410396, 2175410377, 2175410366], "tags": {"addr:city": "Castellammare del Golfo", "addr:postcode": "91014", "addr:street": "Via Vittor Pisani", "amenity": "restaurant", "building": "yes", "email": "silossilos2015@gmail.com", "name": "Ristorante Silos", "outdoor_seating": "yes", "phone": "+39 0924 1910628", "website": "http://www.silosristorante.com/"}}, {"type": "way", "id": 244964458, "nodes": [2522322222, 2522322219, 2522322217, 2522322221, 2522322224, 2522322227, 2522322228, 2522322225, 2522322226, 2522322223, 2522322222], "tags": {"addr:postcode": "91010", "addr:street": "Via del Secco", "amenity": "restaurant", "building": "yes", "name": "Peppi's Center Fast Food", "opening_hours": "Mo-Su 09:00-00:00", "phone": "+39 0923 418182", "website": "http://www.sicilia-aziende.com/web-link.html?sobi2Task=sobi2Details&catid=2428&sobi2Id=498", "wheelchair": "yes"}}, {"type": "way", "id": 438009448, "nodes": [4357788000, 4357788001, 4357788003, 4357788006, 4357788007, 4357788005, 4357788004, 4357788002, 4357788000], "tags": {"amenity": "restaurant", "cuisine": "italian", "indoor_seating": "yes", "name": "Ristorante Pizzeria Baida", "outdoor_seating": "yes"}}, {"type": "way", "id": 517535045, "nodes": [5050265576, 5050265577, 5050265578, 5050265579, 5050265580, 5050265581, 5050265576], "tags": {"amenity": "restaurant", "building": "yes", "cuisine": "regional;pizza", "name": "Squalo", "opening_hours": "Mo-Su 12:00-15:00,19:00-23:30"}}, {"type": "way", "id": 517535419, "nodes": [5050267507, 5050267508, 5050267509, 5050267510, 5050267507], "tags": {"amenity": "restaurant", "building": "yes", "cuisine": "pizza", "name": "Onda azzurra"}}, {"type": "way", "id": 1102168842, "nodes": [10084929279, 10084929278, 10084929277, 10084929276, 10084929279], "tags": {"addr:housenumber": "3", "addr:street": "Prolungamento, Via Savoia", "amenity": "restaurant", "building": "yes", "cuisine": "pizza", "name": "Le Sorelle"}}]}