{"version": 0.6, "generator": "Overpass API 0.7.62.7 375dc00a", "osm3s": {"timestamp_osm_base": "2025-06-14T14:46:28Z", "copyright": "The data included in this document is from www.openstreetmap.org. The data is made available under ODbL."}, "elements": [{"type": "node", "id": 281612584, "lat": 37.1426826, "lon": 24.5129463, "tags": {"addr:city": "\u039b\u03b9\u03b2\u03ac\u03b4\u03b9", "amenity": "restaurant", "cuisine": "greek", "fixme": "website is down", "int_name": "Metalleio", "name": "\u039c\u03b5\u03c4\u03b1\u03bb\u03bb\u03b5\u03af\u03bf", "phone": "+30 228 1051 755", "source": "https://www.tripadvisor.com/Restaurant_Review-g3360211-d4697011-Reviews-Metalleio-Livadi_Serifos_Cyclades_South_Aegean.html", "website": "https://www.metalleio.gr"}}, {"type": "node", "id": 281612602, "lat": 37.1418891, "lon": 24.5142542, "tags": {"addr:city": "\u039b\u03b9\u03b2\u03ac\u03b4\u03b9", "addr:postcode": "84005", "amenity": "restaurant", "cuisine": "pizza", "int_name": "Kyklopas", "name": "\u039a\u03cd\u03ba\u03bb\u03c9\u03c0\u03b1\u03c2"}}, {"type": "node", "id": 281612605, "lat": 37.141757, "lon": 24.5153969, "tags": {"addr:city": "\u039b\u03b9\u03b2\u03ac\u03b4\u03b9", "addr:postcode": "84005", "amenity": "restaurant", "name": "Tootsie Souvlaki"}}, {"type": "node", "id": 281612610, "lat": 37.1427241, "lon": 24.5140851, "tags": {"addr:city": "Livadi", "addr:postcode": "84005", "amenity": "cafe", "name": "\u039c\u03b5\u03bb\u03b9"}}, {"type": "node", "id": 281612613, "lat": 37.1427976, "lon": 24.5140183, "tags": {"addr:city": "\u039b\u03b9\u03b2\u03ac\u03b4\u03b9", "addr:postcode": "84005", "amenity": "cafe", "name": "\u039a\u03b1\u03c1\u03bd\u03ac\u03b3\u03b9\u03bf"}}, {"type": "node", "id": 281612616, "lat": 37.1428539, "lon": 24.5139859, "tags": {"addr:city": "\u039b\u03b9\u03b2\u03ac\u03b4\u03b9", "addr:postcode": "84005", "amenity": "restaurant", "int_name": "Mpakakaki", "name": "\u03a4\u03bf \u039c\u03c0\u03b1\u03ba\u03b1\u03ba\u03b1\u03ba\u03b9", "shop": "clothes"}}, {"type": "node", "id": 281612618, "lat": 37.1428947, "lon": 24.5139635, "tags": {"addr:city": "\u039b\u03b9\u03b2\u03ac\u03b4\u03b9", "addr:postcode": "84005", "amenity": "restaurant", "name": "\u03a4\u03ac\u03ba\u03b7\u03c2", "phone": "+30 228 1051 159", "source": "https://www.tripadvisor.com/Restaurant_Review-g635609-d3337509-Reviews-Takis-Serifos_Cyclades_South_Aegean.html"}}, {"type": "node", "id": 281612621, "lat": 37.1429842, "lon": 24.5139515, "tags": {"addr:city": "\u039b\u03b9\u03b2\u03ac\u03b4\u03b9", "addr:postcode": "84005", "amenity": "cafe", "name": "\u039c\u03ad\u03bd\u03c4\u03b1"}}, {"type": "node", "id": 281612623, "lat": 37.1430432, "lon": 24.5139147, "tags": {"addr:city": "\u039b\u03b9\u03b2\u03ac\u03b4\u03b9", "addr:postcode": "84005", "amenity": "cafe", "name": "\u0393\u03b1\u03bb\u03ac\u03b6\u03b9\u03bf"}}, {"type": "node", "id": 281612630, "lat": 37.1429261, "lon": 24.5135679, "tags": {"addr:city": "\u039b\u03b9\u03b2\u03ac\u03b4\u03b9", "addr:postcode": "84005", "amenity": "cafe", "internet_access": "yes", "internet_access:fee": "no", "name": "Malabar"}}, {"type": "node", "id": 281612633, "lat": 37.1433399, "lon": 24.5139481, "tags": {"addr:city": "\u039b\u03b9\u03b2\u03ac\u03b4\u03b9", "addr:postcode": "84005", "amenity": "cafe", "name": "Indigo", "source": "https://www.tripadvisor.com/Restaurant_Review-g3360211-d6929577-Reviews-Indigo_Cafe-Livadi_Serifos_Cyclades_South_Aegean.html"}}, {"type": "node", "id": 281612641, "lat": 37.1441452, "lon": 24.5144272, "tags": {"addr:city": "\u039b\u03b9\u03b2\u03ac\u03b4\u03b9", "addr:postcode": "84005", "amenity": "restaurant", "cuisine": "greek", "indoor_seating": "yes", "name": "Yacht Club", "name:ro": "Restaurant Yacht Club", "outdoor_seating": "yes", "phone": "+30 228 1051 888", "source": "https://www.tripadvisor.com/Restaurant_Review-g635609-d3893249-Reviews-Yacht_Club_Serifos-Serifos_Cyclades_South_Aegean.html"}}, {"type": "node", "id": 281613330, "lat": 37.157193, "lon": 24.5039707, "tags": {"addr:city": "Chora", "addr:postcode": "84005", "amenity": "restaurant", "contact:facebook": "plakesserifos", "cuisine": "greek", "int_name": "Plakes", "name": "\u039f\u03b9 \u03a0\u03bb\u03ac\u03ba\u03b5\u03c2", "opening_hours": "18:00-01:00", "phone": "+302281051913"}}, {"type": "node", "id": 281613950, "lat": 37.1395407, "lon": 24.5148901, "tags": {"addr:city": "Livadi", "addr:postcode": "84005", "amenity": "cafe", "indoor_seating": "no", "name": "Skipper", "opening_hours": "09:00-23:30", "outdoor_seating": "yes", "phone": "+30 228 1051 668", "source": "https://www.tripadvisor.com/Restaurant_Review-g3360211-d8309747-Reviews-The_Skipper_s_Dock-Livadi_Serifos_Cyclades_South_Aegean.html"}}, {"type": "node", "id": 460483162, "lat": 36.9744037, "lon": 24.7452641, "tags": {"amenity": "cafe", "indoor_seating": "no", "name": "Remezzo", "outdoor_seating": "yes"}}, {"type": "node", "id": 460483284, "lat": 36.98032, "lon": 24.72474, "tags": {"amenity": "restaurant", "diet:vegan": "yes", "diet:vegetarian": "yes", "indoor_seating": "yes", "name": "Margarita", "outdoor_seating": "yes", "wheelchair": "limited"}}, {"type": "node", "id": 460483301, "lat": 36.9795207, "lon": 24.7268772, "tags": {"amenity": "restaurant", "name": "Lembessis"}}, {"type": "node", "id": 460498984, "lat": 36.9410089, "lon": 24.7531379, "tags": {"amenity": "restaurant"}}, {"type": "node", "id": 460517656, "lat": 36.9325206, "lon": 24.6912476, "tags": {"amenity": "restaurant", "int_name": "Manolis", "name": "\u039c\u03b1\u03bd\u03cc\u03bb\u03b7\u03c2"}}, {"type": "node", "id": 460535512, "lat": 36.9730484, "lon": 24.723807, "tags": {"amenity": "restaurant", "indoor_seating": "yes", "name": "\u03a4\u03bf\u03c5 \u0391\u03c0\u03bf\u03c3\u03c4\u03cc\u03bb\u03b7 \u03c4\u03bf \u039a\u03bf\u03c5\u03c4\u03bf\u03cd\u03ba\u03b9", "outdoor_seating": "yes"}}, {"type": "node", "id": 460535545, "lat": 36.9732274, "lon": 24.7242131, "tags": {"amenity": "restaurant", "int_name": "Adiexodo", "name": "\u0391\u03b4\u03b9\u03ad\u03be\u03bf\u03b4\u03bf"}}, {"type": "node", "id": 460601163, "lat": 36.9319779, "lon": 24.7309198, "tags": {"amenity": "cafe", "name": "\u039a\u03b1\u03bb\u03b7\u03bc\u03ad\u03c1\u03b1"}}, {"type": "node", "id": 460601185, "lat": 36.9321222, "lon": 24.731459, "tags": {"amenity": "cafe", "name": "Palmira"}}, {"type": "node", "id": 760679236, "lat": 36.9801643, "lon": 24.7251398, "tags": {"amenity": "restaurant", "diet:vegan": "yes", "diet:vegetarian": "yes", "indoor_seating": "yes", "name": "\u03a4\u03bf \u03bb\u03b9\u03bf\u03c4\u03c1\u03b9\u03b2\u03b9", "outdoor_seating": "yes", "wheelchair": "limited"}}, {"type": "node", "id": 2059581464, "lat": 37.0341221, "lon": 24.65042, "tags": {"amenity": "restaurant"}}, {"type": "node", "id": 2760753863, "lat": 37.1615333, "lon": 24.5223635}, {"type": "node", "id": 2760753871, "lat": 37.1616184, "lon": 24.5224678}, {"type": "node", "id": 2760753872, "lat": 37.1616429, "lon": 24.5222226}, {"type": "node", "id": 2760753874, "lat": 37.1616466, "lon": 24.5223355}, {"type": "node", "id": 2760753879, "lat": 37.1616848, "lon": 24.5223824}, {"type": "node", "id": 2760753880, "lat": 37.1616898, "lon": 24.52228}, {"type": "node", "id": 2760753916, "lat": 37.1621835, "lon": 24.5226024}, {"type": "node", "id": 2760753920, "lat": 37.1622379, "lon": 24.5224636}, {"type": "node", "id": 2760753923, "lat": 37.1622548, "lon": 24.5226464}, {"type": "node", "id": 2760753934, "lat": 37.1623092, "lon": 24.5225076}, {"type": "node", "id": 2760755809, "lat": 37.1950686, "lon": 24.4741213}, {"type": "node", "id": 2760755811, "lat": 37.1950784, "lon": 24.474329}, {"type": "node", "id": 2760755813, "lat": 37.1951827, "lon": 24.4741128}, {"type": "node", "id": 2760755814, "lat": 37.1951925, "lon": 24.4743205}, {"type": "node", "id": 2760756021, "lat": 37.201602, "lon": 24.5125136}, {"type": "node", "id": 2760756022, "lat": 37.2016243, "lon": 24.5124371}, {"type": "node", "id": 2760756029, "lat": 37.2016785, "lon": 24.5125488}, {"type": "node", "id": 2760756033, "lat": 37.2017008, "lon": 24.5124724}, {"type": "node", "id": 3654116077, "lat": 36.9743366, "lon": 24.7235954, "tags": {"amenity": "restaurant", "cuisine": "greek", "designation": "\u03a3\u03bf\u03c5\u03b2\u03bb\u03b1\u03c4\u03b6\u03af\u03b4\u03b9\u03ba\u03bf", "name": "\u03a0\u03b5\u03c1\u03b1\u03bd\u03c4\u03b6\u03ac\u03b4\u03b1"}}, {"type": "node", "id": 3671704918, "lat": 37.3477738, "lon": 24.4346543, "tags": {"amenity": "restaurant", "name": "\u0391\u03c1\u03c7\u03b9\u03c0\u03ad\u03bb\u03b1\u03b3\u03bf\u03c2"}}, {"type": "node", "id": 3690034752, "lat": 36.943553, "lon": 24.7522894, "tags": {"amenity": "restaurant", "name": "\u03a4\u03bf \u039b\u03b9\u03bc\u03b1\u03bd\u03ac\u03ba\u03b9"}}, {"type": "node", "id": 3690034753, "lat": 36.9438457, "lon": 24.7519455, "tags": {"amenity": "restaurant", "cuisine": "greek", "name": "\u03a6\u03bb\u03b1\u03c1\u03bf\u03c2", "name:el": "\u03a6\u03bb\u03ac\u03c1\u03bf\u03c2", "name:en": "Flaros", "website": "https://flaros.gr/"}}, {"type": "node", "id": 3729928702, "lat": 37.3113884, "lon": 24.37449, "tags": {"amenity": "restaurant", "name": "\u0391\u03ba\u03c1\u03bf\u03b3\u03b9\u03ac\u03bb\u03b9"}}, {"type": "node", "id": 4168183872, "lat": 37.154159, "lon": 24.5056294, "tags": {"addr:city": "Chora", "addr:postcode": "84005", "amenity": "restaurant", "cuisine": "greek", "name": "Marathoriza", "opening_hours": "14:00-01:00", "phone": "+30 228 1052 656", "source": "https://www.tripadvisor.com/Restaurant_Review-g635609-d4556786-Reviews-Marathoriza_Local_Cuisine-Serifos_Cyclades_South_Aegean.html"}}, {"type": "node", "id": 4272395751, "lat": 36.9329239, "lon": 24.6878273, "tags": {"addr:city": "Vathi", "addr:postcode": "84003", "amenity": "restaurant", "contact:phone": "+30 2284071150", "diet:vegetarian": "yes", "indoor_seating": "no", "name": "\u03a4\u03bf \u03a4\u03c3\u03b9\u03ba\u03ac\u03bb\u03b9", "outdoor_seating": "yes"}}, {"type": "node", "id": 4391395889, "lat": 36.9885755, "lon": 24.676179, "tags": {"amenity": "restaurant", "cuisine": "italian", "name": "Camaron"}}, {"type": "node", "id": 4437784593, "lat": 36.9399824, "lon": 24.7454383, "tags": {"amenity": "restaurant", "cuisine": "seafood;greek;mediterranean;coffee_shop", "indoor_seating": "no", "name": "\u0391\u03c0\u03bf\u03ba\u03bf\u03c6\u03c4\u03cc", "name:el": "\u0391\u03c0\u03bf\u03ba\u03bf\u03c6\u03c4\u03cc", "name:en": "\u0391pokophto", "outdoor_seating": "yes"}}, {"type": "node", "id": 4485395230, "lat": 37.1565245, "lon": 24.5054071, "tags": {"amenity": "restaurant", "indoor_seating": "yes", "name": "\u03a6\u03c1\u03cd\u03b3\u03b1\u03bd\u03b1 \u03ba\u03b1\u03b9 \u0398\u03c1\u03cd\u03bc\u03c0\u03b7", "outdoor_seating": "yes"}}, {"type": "node", "id": 4783452843, "lat": 36.932998, "lon": 24.690262, "tags": {"addr:postcode": "84003", "addr:street": "vathy", "amenity": "restaurant", "cuisine": "greek", "email": "anvelentza@yahoo.com", "internet_access": "wlan", "name": "Okeanida", "name:el": "Okeanida", "name:en": "Okeanida", "name:fr": "Okeanida", "opening_hours": "24/7", "operator": "OTE", "phone": "2284071140"}}, {"type": "node", "id": 4841590638, "lat": 37.1425772, "lon": 24.514226, "tags": {"addr:city": "\u039b\u03b9\u03b2\u03ac\u03b4\u03b9", "addr:postcode": "84005", "amenity": "restaurant", "cuisine": "greek;seafood", "int_name": "Kalis Seafood Restaurant", "name": "\u03a8\u03b1\u03c1\u03bf\u03c4\u03b1\u03b2\u03ad\u03c1\u03bd\u03b1 \u03c4\u03b7\u03c2 \u039a\u03b1\u03bb\u03ae\u03c2", "phone": "+30 69 4246 7987", "wheelchair": "limited"}}, {"type": "node", "id": 4857740433, "lat": 36.9441315, "lon": 24.7510519, "tags": {"amenity": "restaurant", "name": "\u039f \u03a6\u03ac\u03c1\u03bf\u03c2"}}, {"type": "node", "id": 4860165108, "lat": 36.9889166, "lon": 24.675399, "tags": {"amenity": "restaurant", "name": "\u039c\u03b5\u03c1\u03cc\u03c0\u03b7"}}, {"type": "node", "id": 4866593036, "lat": 37.1406464, "lon": 24.4318494, "tags": {"amenity": "restaurant", "name": "\u039a\u03cd\u03ba\u03bb\u03c9\u03c0\u03b1\u03c2"}}, {"type": "node", "id": 4866593905, "lat": 37.1407659, "lon": 24.431728, "tags": {"amenity": "restaurant", "name": "\u039c\u03b1\u03c1\u03b4\u03b9\u03c4\u03c3\u03b1"}}, {"type": "node", "id": 4869808299, "lat": 37.3444806, "lon": 24.4363164, "tags": {"amenity": "restaurant", "name": "Cavo Kanala", "outdoor_seating": "yes"}}, {"type": "node", "id": 4869812609, "lat": 37.3471457, "lon": 24.4352703, "tags": {"amenity": "restaurant", "name": "\u039f\u03c6\u03b9\u03bf\u03cd\u03c3\u03b1"}}, {"type": "node", "id": 4960356121, "lat": 36.9753949, "lon": 24.74376, "tags": {"amenity": "restaurant", "name": "Stiadi"}}, {"type": "node", "id": 5067060947, "lat": 36.9740997, "lon": 24.7455316, "tags": {"amenity": "restaurant", "cuisine": "crepe;ice_cream;coffee_shop;pancake;savory_pancakes;greek;breakfast;pasta", "internet_access": "wlan", "name": "Dolce"}}, {"type": "node", "id": 5067110721, "lat": 37.0343852, "lon": 24.651195, "tags": {"amenity": "cafe", "name": "Pouda", "name:en": "Pouda", "name:hu": "Pouda"}}, {"type": "node", "id": 5068116621, "lat": 37.0341297, "lon": 24.6511912, "tags": {"amenity": "restaurant", "cuisine": "greek", "name": "Psarotaverna Ammoudia", "name:en": "Psarotaverna Ammoudia", "name:hu": "Psarotaverna Ammoudia", "website": "https://www.tripadvisor.fr/Restaurant_Review-g6618827-d10541889-Reviews-Psarotaverna_I_Ammoudia-Cherronisos_Sifnos_Cyclades_South_Aegean.html"}}, {"type": "node", "id": 5213732723, "lat": 36.9711852, "lon": 24.7266402, "tags": {"amenity": "cafe", "name": "Kavatza"}}, {"type": "node", "id": 5214086969, "lat": 36.9750528, "lon": 24.7240908, "tags": {"amenity": "cafe", "name": "Vegera"}}, {"type": "node", "id": 5214087712, "lat": 36.9747869, "lon": 24.7240091, "tags": {"amenity": "restaurant", "cuisine": "pizza", "name": "Mama Mia"}}, {"type": "node", "id": 5214095855, "lat": 36.9755201, "lon": 24.7240718, "tags": {"amenity": "cafe"}}, {"type": "node", "id": 5214161071, "lat": 36.9885376, "lon": 24.6768754, "tags": {"amenity": "restaurant", "name": "Pizzeria"}}, {"type": "node", "id": 5214162821, "lat": 36.9887816, "lon": 24.6756103, "tags": {"amenity": "restaurant", "name": "\u039f \u03a3\u03af\u03bc\u03bf\u03c2"}}, {"type": "node", "id": 5214249872, "lat": 36.9320545, "lon": 24.733219, "tags": {"amenity": "restaurant", "name": "\u0397 \u03a3\u03bf\u03c6\u03af\u03b1"}}, {"type": "node", "id": 5214261494, "lat": 36.9321407, "lon": 24.7321631, "tags": {"addr:city": "\u03a0\u03bb\u03b1\u03c4\u03cd\u03c2 \u0393\u03c5\u03b1\u03bb\u03cc\u03c2", "addr:postcode": "840 03", "amenity": "restaurant", "name": "\u03a4\u03bf \u03a3\u03c4\u03ad\u03ba\u03b9", "name:el": "\u03a4\u03bf \u03a3\u03c4\u03ad\u03ba\u03b9", "name:en": "To Steki"}}, {"type": "node", "id": 5214281632, "lat": 36.9320861, "lon": 24.7312959, "tags": {"amenity": "restaurant", "name": "\u03a9 3", "name:el": "\u03a9 3", "name:en": "Omega 3"}}, {"type": "node", "id": 5214351258, "lat": 36.9441912, "lon": 24.7514017, "tags": {"amenity": "restaurant", "name": "\u039b\u03cd\u03c7\u03bd\u03bf\u03c2"}}, {"type": "node", "id": 5538064422, "lat": 36.9739696, "lon": 24.7457416, "tags": {"amenity": "cafe", "cuisine": "greek;steak_house;crepe", "internet_access": "wlan", "name:en": "To Konaki", "name:fr": "To Konaki", "website": "https://m.facebook.com/Konaki-168867339973430/"}}, {"type": "node", "id": 5615642279, "lat": 37.1564071, "lon": 24.5053751, "tags": {"amenity": "cafe", "changing_table": "no", "check_date": "2023-08-04", "drive_through": "no", "indoor_seating": "yes", "name": "Basileas", "name:el": "\u0392\u03b1\u03c3\u03b9\u03bb\u03ad\u03b1\u03c2", "outdoor_seating": "yes", "payment:mastercard": "yes", "payment:visa": "yes", "phone": "+30 2281 051253", "source": "local knowledge", "takeaway": "yes", "toilets": "yes", "toilets:wheelchair": "no", "wheelchair": "no"}}, {"type": "node", "id": 5829168485, "lat": 36.9330499, "lon": 24.6905154, "tags": {"amenity": "restaurant"}}, {"type": "node", "id": 5973041886, "lat": 37.1425138, "lon": 24.514519, "tags": {"addr:city": "\u039b\u03b9\u03b2\u03ac\u03b4\u03b9", "amenity": "restaurant", "int_name": "Thal\u00e1mi", "name": "\u0398\u03b1\u03bb\u03ac\u03bc\u03b9"}}, {"type": "node", "id": 6180004043, "lat": 36.9388679, "lon": 24.7443674}, {"type": "node", "id": 6180004044, "lat": 36.9389244, "lon": 24.7444217}, {"type": "node", "id": 6180004045, "lat": 36.9389386, "lon": 24.7443986}, {"type": "node", "id": 6180004046, "lat": 36.9389813, "lon": 24.7444396}, {"type": "node", "id": 6180004047, "lat": 36.9389088, "lon": 24.7445577}, {"type": "node", "id": 6180004048, "lat": 36.9388096, "lon": 24.7444625}, {"type": "node", "id": 6180004049, "lat": 36.9400206, "lon": 24.7452459}, {"type": "node", "id": 6180004050, "lat": 36.9400831, "lon": 24.745329}, {"type": "node", "id": 6180004051, "lat": 36.9400671, "lon": 24.7453507}, {"type": "node", "id": 6180004052, "lat": 36.9400804, "lon": 24.7453723}, {"type": "node", "id": 6180004053, "lat": 36.9400286, "lon": 24.7454355}, {"type": "node", "id": 6180004054, "lat": 36.9399554, "lon": 24.7453257}, {"type": "node", "id": 6180009529, "lat": 36.941127, "lon": 24.7531722}, {"type": "node", "id": 6180009530, "lat": 36.9412154, "lon": 24.7533115}, {"type": "node", "id": 6180009531, "lat": 36.941116, "lon": 24.7534102}, {"type": "node", "id": 6180009532, "lat": 36.9410776, "lon": 24.7533499}, {"type": "node", "id": 6180009533, "lat": 36.9410565, "lon": 24.7533708}, {"type": "node", "id": 6180009534, "lat": 36.9409964, "lon": 24.753276}, {"type": "node", "id": 6180009535, "lat": 36.9410273, "lon": 24.7532453}, {"type": "node", "id": 6180009536, "lat": 36.9410374, "lon": 24.7532613}, {"type": "node", "id": 6180030664, "lat": 36.9321939, "lon": 24.7317466}, {"type": "node", "id": 6180030665, "lat": 36.9323158, "lon": 24.7317659}, {"type": "node", "id": 6180030666, "lat": 36.9323578, "lon": 24.7318694}, {"type": "node", "id": 6180030667, "lat": 36.9323326, "lon": 24.7319185}, {"type": "node", "id": 6180030668, "lat": 36.93232, "lon": 24.731971}, {"type": "node", "id": 6180030669, "lat": 36.9321891, "lon": 24.7318995}, {"type": "node", "id": 6180071248, "lat": 36.9267396, "lon": 24.7254225}, {"type": "node", "id": 6180071249, "lat": 36.9268793, "lon": 24.7254954}, {"type": "node", "id": 6180071250, "lat": 36.926858, "lon": 24.725559}, {"type": "node", "id": 6180071251, "lat": 36.9268223, "lon": 24.7255403}, {"type": "node", "id": 6180071252, "lat": 36.9268155, "lon": 24.7255606}, {"type": "node", "id": 6180071253, "lat": 36.9267508, "lon": 24.7255268}, {"type": "node", "id": 6180071254, "lat": 36.9267588, "lon": 24.7255027}, {"type": "node", "id": 6180071255, "lat": 36.9267197, "lon": 24.7254822}, {"type": "node", "id": 6206597166, "lat": 36.992666, "lon": 24.6788387, "tags": {"amenity": "cafe"}}, {"type": "node", "id": 6206620599, "lat": 36.9923659, "lon": 24.6790486}, {"type": "node", "id": 6206620600, "lat": 36.992441, "lon": 24.6790677}, {"type": "node", "id": 6206620601, "lat": 36.9924258, "lon": 24.6791896}, {"type": "node", "id": 6206620602, "lat": 36.9923941, "lon": 24.6791838}, {"type": "node", "id": 6206620603, "lat": 36.9923906, "lon": 24.6792102}, {"type": "node", "id": 6206620604, "lat": 36.9923178, "lon": 24.6791911}, {"type": "node", "id": 6206620605, "lat": 36.9923202, "lon": 24.6791441}, {"type": "node", "id": 6206620606, "lat": 36.9923507, "lon": 24.67915}, {"type": "node", "id": 6269821171, "lat": 37.1467374, "lon": 24.5229173}, {"type": "node", "id": 6269821172, "lat": 37.1467929, "lon": 24.5229663}, {"type": "node", "id": 6269821173, "lat": 37.1468117, "lon": 24.5229327}, {"type": "node", "id": 6269821174, "lat": 37.1469473, "lon": 24.5230525}, {"type": "node", "id": 6269821175, "lat": 37.14688, "lon": 24.5231723}, {"type": "node", "id": 6269821176, "lat": 37.1468377, "lon": 24.523135}, {"type": "node", "id": 6269821177, "lat": 37.1468445, "lon": 24.5231227}, {"type": "node", "id": 6269821178, "lat": 37.146736, "lon": 24.5230268}, {"type": "node", "id": 6269821179, "lat": 37.1467456, "lon": 24.5230098}, {"type": "node", "id": 6269821180, "lat": 37.1467054, "lon": 24.5229742}, {"type": "node", "id": 7088565441, "lat": 36.9322707, "lon": 24.7319488}, {"type": "node", "id": 7816196885, "lat": 37.1524416, "lon": 24.5105901, "tags": {"amenity": "restaurant", "name": "Aloni"}}, {"type": "node", "id": 8837008833, "lat": 36.9885039, "lon": 24.6767226, "tags": {"amenity": "restaurant", "name": "Agianemi"}}, {"type": "node", "id": 8837008835, "lat": 36.9897058, "lon": 24.6793592, "tags": {"amenity": "restaurant", "name": "Kafenes"}}, {"type": "node", "id": 8838655415, "lat": 36.9951066, "lon": 24.675694, "tags": {"amenity": "restaurant", "name": "Delfini Hotel Appartments"}}, {"type": "node", "id": 8968342510, "lat": 37.1437207, "lon": 24.514084, "tags": {"addr:city": "\u039b\u03b9\u03b2\u03ac\u03b4\u03b9", "amenity": "cafe", "name": "\u039c\u03ad\u03bb\u03b9", "outdoor_seating": "yes", "wheelchair": "yes"}}, {"type": "node", "id": 8968342511, "lat": 37.1420792, "lon": 24.5149264, "tags": {"addr:city": "\u039b\u03b9\u03b2\u03ac\u03b4\u03b9", "amenity": "restaurant", "name": "Chill & Co", "website": "https://chillandcoserifos.com/"}}, {"type": "node", "id": 8968342512, "lat": 37.1437069, "lon": 24.5139589, "tags": {"addr:city": "\u039b\u03b9\u03b2\u03ac\u03b4\u03b9", "amenity": "restaurant", "int_name": "Ydrolithos", "name": "\u03a5\u03b4\u03c1\u03cc\u03bb\u03b9\u03b8\u03bf\u03c2"}}, {"type": "node", "id": 8969023131, "lat": 37.1435028, "lon": 24.5139588, "tags": {"addr:city": "\u039b\u03b9\u03b2\u03ac\u03b4\u03b9", "addr:street": "Kalou Ampeliou", "amenity": "restaurant", "cuisine": "seafood", "name": "\u039b\u03ad\u03c0\u03b9 \u039b\u03ad\u03c0\u03b9", "opening_hours": "Mo-Su 14:00-24:00; PH closed", "wheelchair": "yes"}}, {"type": "node", "id": 9010160819, "lat": 36.9822008, "lon": 24.7237131, "tags": {"amenity": "restaurant", "indoor_seating": "yes", "name": "To xryso", "outdoor_seating": "yes"}}, {"type": "node", "id": 9972993779, "lat": 36.9745784, "lon": 24.7447761, "tags": {"amenity": "restaurant", "cuisine": "greek", "name": "\u03a4\u03bf\u03b1\u03c3\u03c4\u03c1\u03bf", "toilets": "yes"}}, {"type": "node", "id": 10139568517, "lat": 37.1460433, "lon": 24.5159282, "tags": {"amenity": "restaurant", "diet:vegetarian": "yes", "indoor_seating": "yes", "name": "\u039f \u03a3\u03c4\u03b1\u03bc\u03ac\u03c4\u03b7\u03c2", "name:el": "\u039f \u03a3\u03c4\u03b1\u03bc\u03ac\u03c4\u03b7\u03c2", "name:fr": "Stamatis", "outdoor_seating": "yes"}}, {"type": "node", "id": 10140330717, "lat": 37.1427574, "lon": 24.5140447, "tags": {"addr:city": "\u039b\u03b9\u03b2\u03ac\u03b4\u03b9", "amenity": "restaurant", "bar": "yes", "check_date": "2023-08-04", "delivery": "no", "internet_access": "wlan", "name": "Compasso Serifos", "outdoor_seating": "yes", "payment:mastercard": "yes", "payment:visa": "yes", "phone": "+30 2281 052275", "reservation": "yes", "smoking": "outside", "source": "local knowledge", "takeaway": "yes", "toilets": "yes", "toilets:wheelchair": "no", "website": "https://www.facebook.com/compassorestaurant", "wheelchair": "no"}}, {"type": "node", "id": 10140525217, "lat": 37.1415332, "lon": 24.5168369, "tags": {"amenity": "restaurant", "name": "Taverna Marina", "phone": "+30 2281051553"}}, {"type": "node", "id": 10140633117, "lat": 37.142717, "lon": 24.5140628, "tags": {"addr:city": "\u039b\u03b9\u03b2\u03ac\u03b4\u03b9", "amenity": "restaurant", "name": "\u03a3\u03a6\u0397\u039d\u0391"}}, {"type": "node", "id": 10990002073, "lat": 36.9312277, "lon": 24.7285799, "tags": {"addr:city": "\u03a0\u03bb\u03b1\u03c4\u03cd\u03c2 \u0393\u03b9\u03b1\u03bb\u03cc\u03c2", "addr:postcode": "840 03", "amenity": "restaurant", "cuisine": "seafood;greek", "internet_access": "wlan", "internet_access:fee": "no", "name": "\u039a\u03c5\u03ba\u03bb\u03ac\u03b4\u03b5\u03c2", "name:el": "\u039a\u03c5\u03ba\u03bb\u03ac\u03b4\u03b5\u03c2", "name:en": "Cyclades", "name:fr": "Cyclades", "outdoor_seating": "yes", "toilets": "yes", "toilets:access": "customers", "toilets:wheelchair": "yes", "website": "https://sifnosrestaurant.gr/", "wheelchair": "yes"}}, {"type": "node", "id": 11051771511, "lat": 37.1465886, "lon": 24.5168512, "tags": {"amenity": "restaurant", "diet:vegetarian": "yes", "indoor_seating": "yes", "name": "Calma", "outdoor_seating": "yes"}}, {"type": "node", "id": 11090157629, "lat": 37.1450409, "lon": 24.5148065, "tags": {"amenity": "restaurant", "check_date": "2023-08-04", "cuisine": "beef;mediterranean;seafood", "delivery": "yes", "diet:vegan": "yes", "diet:vegetarian": "yes", "int_name": "Axinos", "name": "\u0391\u03c7\u03b9\u03bd\u03cc\u03c2", "outdoor_seating": "yes", "phone": "+30 697 916 5147", "reservation": "yes", "takeaway": "yes", "toilets": "yes", "toilets:wheelchair": "no", "website": "https://axinos-serifos.gr/", "wheelchair": "no"}}, {"type": "node", "id": 11090454121, "lat": 37.1431878, "lon": 24.5138971, "tags": {"addr:city": "\u039b\u03b9\u03b2\u03ac\u03b4\u03b9", "amenity": "restaurant", "check_date": "2023-08-05", "cuisine": "pizza", "delivery": "no", "name": "Porto Vecchio", "outdoor_seating": "yes", "payment:mastercard": "yes", "payment:visa": "yes", "phone": "+30 2281 052532", "reservation": "yes", "smoking": "outside", "source": "local knowledge", "takeaway": "yes", "toilets": "yes", "toilets:wheelchair": "no", "wheelchair": "no"}}, {"type": "node", "id": 11091008820, "lat": 37.1414152, "lon": 24.5162336, "tags": {"amenity": "cafe", "bar": "yes", "check_date": "2023-08-05", "delivery": "no", "diet:vegetarian": "yes", "internet_access": "wlan", "name": "\u03a6\u03c1\u03b1\u03b3\u03ba\u03cc\u03c3\u03c5\u03ba\u03bf", "outdoor_seating": "yes", "payment:credit_cards": "yes", "payment:debit_cards": "yes", "payment:mastercard": "yes", "payment:visa": "yes", "phone": "+30 2281 052040", "source": "local knowledge", "toilets": "yes", "toilets:wheelchair": "no", "wheelchair": "no"}}, {"type": "node", "id": 11130689761, "lat": 37.1427048, "lon": 24.5142876, "tags": {"addr:city": "\u039b\u03b9\u03b2\u03ac\u03b4\u03b9", "amenity": "restaurant", "name": "Sfina", "phone": "+30 6993374027"}}, {"type": "node", "id": 11161523346, "lat": 36.9321098, "lon": 24.731058, "tags": {"amenity": "restaurant", "name": "Mai\u00f2lica Sifnos", "website": "https://www.maiolicarestaurant.com/"}}, {"type": "node", "id": 11161523347, "lat": 36.9320036, "lon": 24.7308597, "tags": {"amenity": "restaurant", "name": "Yalos Seaside Obsession"}}, {"type": "node", "id": 11161552718, "lat": 36.9309735, "lon": 24.7280466, "tags": {"amenity": "restaurant", "diet:vegetarian": "yes", "name": "NUS"}}, {"type": "node", "id": 11959149212, "lat": 36.9727478, "lon": 24.7461892, "tags": {"amenity": "restaurant", "diet:vegetarian": "yes", "indoor_seating": "yes", "name": "\u039a\u03b1\u03c0\u03b5\u03c4\u03b1\u03bd \u0393\u03b9\u03c9\u03c1\u03b3\u03b9\u03c3", "outdoor_seating": "yes"}}, {"type": "node", "id": 12023073169, "lat": 36.9728637, "lon": 24.723779, "tags": {"amenity": "restaurant", "name:en": "KAFENEIO DRAKAKIS"}}, {"type": "node", "id": 12026430669, "lat": 36.9817805, "lon": 24.722731, "tags": {"amenity": "restaurant", "name:en": "Cafe mosaic"}}, {"type": "node", "id": 12163206901, "lat": 37.3452046, "lon": 24.4358511, "tags": {"addr:postcode": "84006", "amenity": "cafe", "name": "Molo", "outdoor_seating": "yes", "phone": "+30 2281 033145"}}, {"type": "way", "id": 271117880, "nodes": [2760753934, 2760753920, 2760753916, 2760753923, 2760753934], "tags": {"amenity": "restaurant", "building": "yes", "diet:vegan": "yes", "diet:vegetarian": "yes", "indoor_seating": "no", "name": "\u03a3\u03c4\u03b5\u03c6\u03b1\u03bd\u03ac\u03ba\u03bf\u03c2", "name:el": "\u03a3\u03c4\u03b5\u03c6\u03b1\u03bd\u03ac\u03ba\u03bf\u03c2", "name:en": "Stefanakos Tavern", "outdoor_seating": "yes", "payment:credit_cards": "yes", "payment:debit_cards": "yes", "smoking": "yes", "source": "bing", "wheelchair": "no"}}, {"type": "way", "id": 271117889, "nodes": [2760755813, 2760755814, 2760755811, 2760755809, 2760755813], "tags": {"amenity": "restaurant", "building": "yes", "contact:facebook": "https://www.facebook.com/profile.php?id=100054200813956", "name": "\u03a4\u03bf \u0391\u03ba\u03c1\u03bf\u03b3\u03b9\u03ac\u03bb\u03b9 \u03c4\u03bf\u03c5 \u0392\u03ae\u03c4\u03bf\u03c5", "name:el": "\u03a4\u03bf \u0391\u03ba\u03c1\u03bf\u03b3\u03b9\u03ac\u03bb\u03b9 \u03c4\u03bf\u03c5 \u0392\u03ae\u03c4\u03bf\u03c5", "phone": "+30 22810 51289", "source": "bing;survey"}}, {"type": "way", "id": 271117898, "nodes": [2760756033, 2760756022, 2760756021, 2760756029, 2760756033], "tags": {"amenity": "restaurant", "building": "yes", "contact:facebook": "https://www.facebook.com/Nikoulias/", "cuisine": "greek", "name": "\u039d\u03b9\u03ba\u03bf\u03cd\u03bb\u03b9\u03b1\u03c2", "name:el": "\u039d\u03b9\u03ba\u03bf\u03cd\u03bb\u03b9\u03b1\u03c2", "name:en": "Nikoulias", "phone": "+30 22810 52174", "source": "bing;survey"}}, {"type": "way", "id": 271118039, "nodes": [2760753879, 2760753874, 2760753880, 2760753872, 2760753863, 2760753871, 2760753879], "tags": {"amenity": "restaurant", "building": "yes", "name": "\u039f \u039c\u03b1\u03bd\u03ce\u03bb\u03b7\u03c2", "name:el": "\u039f \u039c\u03b1\u03bd\u03ce\u03bb\u03b7\u03c2", "name:en": "Manolis Taverna", "source": "bing"}}, {"type": "way", "id": 660070289, "nodes": [6180004043, 6180004044, 6180004045, 6180004046, 6180004047, 6180004048, 6180004043], "tags": {"amenity": "restaurant", "building": "yes", "diet:vegetarian": "yes", "indoor_seating": "no", "name": "\u0397 \u03a7\u03c1\u03c5\u03c3\u03bf\u03c0\u03b7\u03b3\u03ae", "outdoor_seating": "yes"}}, {"type": "way", "id": 660070290, "nodes": [6180004049, 6180004050, 6180004051, 6180004052, 6180004053, 6180004054, 6180004049], "tags": {"amenity": "restaurant", "building": "yes"}}, {"type": "way", "id": 660070849, "nodes": [6180009529, 6180009530, 6180009531, 6180009532, 6180009533, 6180009534, 6180009535, 6180009536, 6180009529], "tags": {"amenity": "restaurant", "building": "yes"}}, {"type": "way", "id": 660073117, "nodes": [6180030664, 6180030665, 6180030666, 6180030667, 6180030668, 7088565441, 6180030669, 6180030664], "tags": {"amenity": "restaurant", "building": "yes", "cuisine": "italian", "indoor_seating": "yes", "name": "Mamma Mia", "outdoor_seating": "yes", "website": "https://www.mammamiasifnos.com/"}}, {"type": "way", "id": 660076696, "nodes": [6180071248, 6180071249, 6180071250, 6180071251, 6180071252, 6180071253, 6180071254, 6180071255, 6180071248], "tags": {"addr:postcode": "840 03", "amenity": "restaurant", "building": "yes", "name": "\u039b\u0391\u0396\u0391\u03a1\u039f\u03a5", "name:el": "\u039b\u0391\u0396\u0391\u03a1\u039f\u03a5", "name:en": "Lazarou Beach", "website": "https://www.lazaroubeach.com/"}}, {"type": "way", "id": 663026815, "nodes": [6206620599, 6206620600, 6206620601, 6206620602, 6206620603, 6206620604, 6206620605, 6206620606, 6206620599], "tags": {"amenity": "cafe", "building": "yes", "name": "\u03af\u03c3\u03b1\u03bb\u03bf\u03c2"}}, {"type": "way", "id": 669531762, "nodes": [6269821171, 6269821172, 6269821173, 6269821174, 6269821175, 6269821176, 6269821177, 6269821178, 6269821179, 6269821180, 6269821171], "tags": {"amenity": "restaurant", "building": "yes", "name": "\u039c\u03b1\u03c1\u03b3\u03b1\u03c1\u03af\u03c4\u03b1", "name:el": "\u039c\u03b1\u03c1\u03b3\u03b1\u03c1\u03af\u03c4\u03b1", "name:en": "Margarita"}}]}