{"version": 0.6, "generator": "Overpass API 0.7.62.7 375dc00a", "osm3s": {"timestamp_osm_base": "2025-06-14T13:10:55Z", "copyright": "The data included in this document is from www.openstreetmap.org. The data is made available under ODbL."}, "elements": [{"type": "node", "id": 1935060777, "lat": 34.8010978, "lon": 3.1342824, "tags": {"addr:country": "DZ", "amenity": "cafe", "name": "Bengharbi"}}, {"type": "node", "id": 3185666562, "lat": 35.0758416, "lon": 3.02718, "tags": {"addr:city": "Hassi Bahbah", "addr:country": "DZ", "addr:postcode": "17002", "amenity": "cafe", "cuisine": "regional", "name": "Caf\u00e9 Moulin \u00e0 vent"}}, {"type": "node", "id": 3185668509, "lat": 35.0760834, "lon": 3.0278361, "tags": {"addr:city": "Hassi Bahbah", "addr:country": "DZ", "addr:postcode": "17002", "amenity": "cafe", "cuisine": "regional", "name": "Atlas", "name:ar": "\u0627\u0644\u0623\u0637\u0644\u0633", "name:en": "Atlas", "name:fr": "Atlas"}}, {"type": "node", "id": 12026095770, "lat": 35.0814115, "lon": 3.0329137, "tags": {"amenity": "cafe", "cuisine": "arab", "internet_access": "wlan", "name:en": "CIPAR"}}]}