{"version": 0.6, "generator": "Overpass API 0.7.62.7 375dc00a", "osm3s": {"timestamp_osm_base": "2025-06-14T15:20:06Z", "copyright": "The data included in this document is from www.openstreetmap.org. The data is made available under ODbL."}, "elements": [{"type": "node", "id": 323159059, "lat": 33.5126638, "lon": 36.3139166, "tags": {"amenity": "restaurant", "name": "\u0623\u0644\u064a\u0633\u0627\u0631", "name:ar": "\u0623\u0644\u064a\u0633\u0627\u0631", "name:en": "Elissar", "name:fr": "Elissar"}}, {"type": "node", "id": 354566143, "lat": 33.5095252, "lon": 36.3111883, "tags": {"amenity": "restaurant", "name": "\u0646\u0627\u0631\u0646\u062c", "name:ar": "\u0646\u0627\u0631\u0646\u062c", "name:en": "Naranj", "name:fr": "Naranj", "name:he": "\u05e0\u05d0\u05e8\u05e0\u05d2\u05f3"}}, {"type": "node", "id": 544509429, "lat": 33.511848, "lon": 36.3099806, "tags": {"alt_name": "\u0628\u0627\u0628 \u0627\u0644\u062d\u0627\u0631\u0629", "amenity": "restaurant", "ele": "691.0700000", "name": "\u0628\u0627\u0628 \u0627\u0644\u062d\u0627\u0631\u0629", "name:ar": "\u0628\u0627\u0628 \u0627\u0644\u062d\u0627\u0631\u0629", "name:en": "Bab Alhara", "name:fr": "Bab Alhara"}}, {"type": "node", "id": 544509441, "lat": 33.5087707, "lon": 36.3070281, "tags": {"alt_name": "\u0645\u0637\u0639\u0645 \u0627\u0644\u062e\u0648\u0627\u0644\u064a", "amenity": "restaurant", "ele": "730.24", "fixme": "name, name:ar mismatch.", "is_in": "Syria Damascus \u0633\u0648\u0631\u064a\u0627 \u062f\u0645\u0634\u0642", "name": "\u0645\u0637\u0639\u0645 \u0627\u0644\u062e\u0648\u0627\u0644\u064a", "name:ar": "\u0645\u0637\u0639\u0645 \u0627\u0644\u062e\u0648\u0627\u0644\u064a", "name:en": "Al Khawali"}}, {"type": "node", "id": 923877203, "lat": 33.5217372, "lon": 36.3158441, "tags": {"alt_name": "\u0633\u062a\u064a\u062f \u0643\u0627\u0641\u064a\u0647", "amenity": "cafe", "name": "\u0633\u062a\u064a\u062f \u0643\u0627\u0641\u064a\u0647", "name:ar": "\u0633\u062a\u064a\u062f \u0643\u0627\u0641\u064a\u0647", "name:en": "Steed Cafe"}}, {"type": "node", "id": 924756993, "lat": 33.5160797, "lon": 36.3193899, "tags": {"alt_name": "\u0647\u0627\u0631\u0645\u0648\u0646\u064a \u0643\u0627\u0641\u064a\u0647", "amenity": "cafe", "name": "\u0647\u0627\u0631\u0645\u0648\u0646\u064a \u0643\u0627\u0641\u064a\u0647", "name:ar": "\u0647\u0627\u0631\u0645\u0648\u0646\u064a \u0643\u0627\u0641\u064a\u0647", "name:en": "Harmony Cafe", "name:fr": "Caf\u00e9 Harmonie"}}, {"type": "node", "id": 924757400, "lat": 33.5218893, "lon": 36.3134059, "tags": {"air_conditioning": "yes", "alt_name": "\u0633\u064a\u0631\u062c\u0648\u0646", "amenity": "restaurant", "capacity": "60", "contact:facebook": "https://www.facebook.com/sargonrestaurant/", "name": "\u0633\u0631\u062c\u0648\u0646", "name:en": "Sarjon", "phone": "+963 11 444 9742;+963 11 4440621", "source": "http://www.syriatourism.org/ar/page9675/%D8%B3%D8%B1%D8%AC%D9%88%D9%86", "stars": "2"}}, {"type": "node", "id": 1246405121, "lat": 33.5239502, "lon": 36.3129926, "tags": {"amenity": "restaurant", "name": "\u0627\u0644\u0646\u0628\u064a\u0644", "name:ar": "\u0633\u0646\u0627\u0643 \u0627\u0644\u0646\u0628\u064a\u0644"}}, {"type": "node", "id": 1246425087, "lat": 33.5131326, "lon": 36.3147812, "tags": {"addr:city": "\u062f\u0645\u0634\u0642", "amenity": "cafe", "cuisine": "international", "name": "\u0627\u0644\u062f\u0648\u0645\u064a\u0646\u0648", "name:ar": "\u0627\u0644\u062f\u0648\u0645\u064a\u0646\u0648", "name:en": "Domino"}}, {"type": "node", "id": 1247284762, "lat": 33.5125246, "lon": 36.3159828, "tags": {"amenity": "restaurant", "cuisine": "international", "name": "\u0645\u0637\u0639\u0645 \u062d\u0627\u0631\u062a\u0646\u0627", "name:ar": "\u0645\u0637\u0639\u0645 \u062d\u0627\u0631\u062a\u0646\u0627", "name:en": "Haretna", "name:fr": "Restaurant Haretna"}}, {"type": "node", "id": 1252617211, "lat": 33.6807087, "lon": 36.3773192, "tags": {"amenity": "restaurant", "name": "\u0645\u0637\u0639\u0645 \u0627\u0644\u063a\u0627\u0628\u0629", "name:en": "Ghabeh"}}, {"type": "node", "id": 1252618361, "lat": 33.6768794, "lon": 36.3676842, "tags": {"amenity": "restaurant", "name": "Manolia"}}, {"type": "node", "id": 1252619352, "lat": 33.6689141, "lon": 36.3806875, "tags": {"amenity": "restaurant", "name": "Nawras"}}, {"type": "node", "id": 1253060329, "lat": 33.6857151, "lon": 36.3621181, "tags": {"amenity": "restaurant", "name": "\u0645\u0637\u0639\u0645 \u062c\u0646\u0629 \u0635\u064a\u062f\u0646\u0627\u064a\u0627", "name:en": "Jannet Saydnaya"}}, {"type": "node", "id": 1253060531, "lat": 33.6873173, "lon": 36.3716554, "tags": {"amenity": "restaurant", "name": "\u0627\u0644\u062a\u0644\u0627\u0644", "name:en": "Tilal"}}, {"type": "node", "id": 1254063736, "lat": 33.7124771, "lon": 36.3914875, "tags": {"amenity": "restaurant", "name": "\u0623\u0628\u0648 \u0646\u0628\u064a\u0644", "name:en": "Abu Nabeel"}}, {"type": "node", "id": 1255234221, "lat": 33.5107891, "lon": 36.3112952, "tags": {"amenity": "cafe", "name": "\u0642\u0647\u0648\u0629 \u0627\u0644\u062d\u0635\u0646", "name:ar": "\u0642\u0647\u0648\u0629 \u0627\u0644\u062d\u0635\u0646", "name:en": "Hosn Caf\u00e9", "name:fr": "Caf\u00e9 Hosn"}}, {"type": "node", "id": 1255239572, "lat": 33.5247298, "lon": 36.3148135, "tags": {"amenity": "restaurant", "cuisine": "pizza", "name": "\u0628\u064a\u062a\u0632\u0627 \u0627\u0644\u064a\u0627\u0637\u0631", "name:ar": "\u0628\u064a\u062a\u0632\u0627 \u0627\u0644\u064a\u0627\u0637\u0631", "name:en": "Pizza al yater"}}, {"type": "node", "id": 1313383642, "lat": 33.5212233, "lon": 36.3166258, "tags": {"amenity": "cafe", "name": "ENAB CAFE"}}, {"type": "node", "id": 1318764665, "lat": 33.5233303, "lon": 36.3177678, "tags": {"amenity": "cafe", "name": "\u0628\u0631\u064a\u0643 \u0643\u0627\u0641\u064a\u0647", "name:ar": "\u0628\u0631\u064a\u0643 \u0643\u0627\u0641\u064a\u0647", "name:en": "Break Cafe"}}, {"type": "node", "id": 1318906627, "lat": 33.516183, "lon": 36.315802, "tags": {"amenity": "restaurant", "name": "\u0633\u0645\u0643\u0629 \u0627\u0644\u0628\u0631\u062c", "name:ar": "\u0633\u0645\u0643\u0629 \u0627\u0644\u0628\u0631\u062c", "name:en": "Al Burj Fish"}}, {"type": "node", "id": 1318912664, "lat": 33.5153596, "lon": 36.3156195, "tags": {"amenity": "restaurant", "name": "\u0627\u0644\u062c\u0648\u0643\u0631", "name:ar": "\u0627\u0644\u062c\u0648\u0643\u0631", "name:en": "Jocker"}}, {"type": "node", "id": 1319035389, "lat": 33.5232481, "lon": 36.3128622, "tags": {"amenity": "restaurant", "cuisine": "indian", "name": "\u0645\u0647\u0631\u0627\u062c\u0627", "name:ar": "\u0645\u0647\u0631\u0627\u062c\u0627", "name:en": "Mehraja", "name:fr": "Mehraja"}}, {"type": "node", "id": 1319035676, "lat": 33.5213632, "lon": 36.3129646, "tags": {"amenity": "restaurant", "cuisine": "seafood", "name": "\u0627\u0644\u0633\u0646\u0627\u0628\u0644", "name:ar": "\u0627\u0644\u0633\u0646\u0627\u0628\u0644", "name:en": "Alsanabel", "name:fr": "Alsanabel"}}, {"type": "node", "id": 1328313594, "lat": 33.4243559, "lon": 36.413908, "tags": {"amenity": "restaurant", "cuisine": "regional", "name": "\u0623\u0644\u0641 \u0644\u064a\u0644\u0629 \u0648\u0644\u064a\u0644\u0629", "name:ar": "\u0645\u0637\u0639\u0645 \u0623\u0644\u0641 \u0644\u064a\u0644\u0629 \u0648\u0644\u064a\u0644\u0629", "name:en": "1001 Nights"}}, {"type": "node", "id": 1329664451, "lat": 33.5127866, "lon": 36.3123264, "tags": {"amenity": "restaurant", "name:ar": "\u0627\u0644\u0628\u0627\u0628 \u0627\u0644\u0639\u062a\u064a\u0642", "name:en": "albab alateek"}}, {"type": "node", "id": 1329667369, "lat": 33.5127955, "lon": 36.3125302, "tags": {"amenity": "restaurant", "name": "\u0628\u064a\u062a \u0627\u0644\u064a\u0627\u0633\u0645\u064a\u0646", "name:ar": "\u0628\u064a\u062a \u0627\u0644\u064a\u0627\u0633\u0645\u064a\u0646", "name:en": "Beit alyasmeen", "name:he": "\u05d1\u05d9\u05ea \u05d0\u05dc\u05be\u05d9\u05e1\u05de\u05d9\u05df"}}, {"type": "node", "id": 1329669243, "lat": 33.5115883, "lon": 36.3111151, "tags": {"amenity": "cafe", "name": "\u0645\u0648\u0644\u064a\u0627", "name:ar": "\u0645\u0648\u0644\u064a\u0627", "name:en": "moulaya", "name:fr": "Moulaya", "name:he": "\u05de\u05d5\u05dc\u05d9\u05d0"}}, {"type": "node", "id": 1329669985, "lat": 33.5114542, "lon": 36.3111365, "tags": {"amenity": "cafe", "name": "\u063a\u0632\u0644", "name:ar": "\u063a\u0632\u0644", "name:en": "ghazal", "name:fr": "Ghazal"}}, {"type": "node", "id": 1329672579, "lat": 33.5112663, "lon": 36.3109756, "tags": {"amenity": "restaurant", "name": "\u0646\u0639\u0646\u0639", "name:ar": "\u0646\u0639\u0646\u0639", "name:en": "Naanaa", "name:fr": "Naanaa", "name:he": "\u05e0\u05e2\u05e0\u05e2"}}, {"type": "node", "id": 1329673937, "lat": 33.5098256, "lon": 36.3101387, "tags": {"amenity": "restaurant", "name": "\u0642\u0635\u0631 \u0627\u0644\u0646\u0631\u062c\u0633", "name:ar": "\u0642\u0635\u0631 \u0627\u0644\u0646\u0631\u062c\u0633", "name:en": "Narges Palace"}}, {"type": "node", "id": 1329677330, "lat": 33.5103807, "lon": 36.3094092, "tags": {"amenity": "restaurant", "name": "\u0623\u0648\u0631\u0646\u064a\u0646\u0627", "name:ar": "\u0623\u0648\u0631\u0646\u064a\u0646\u0627", "name:en": "Ornina", "name:fr": "Ornina"}}, {"type": "node", "id": 1329678251, "lat": 33.5103087, "lon": 36.3082816, "tags": {"amenity": "restaurant", "name": "\u0628\u064a\u062a \u062c\u062f\u064a", "name:ar": "\u0628\u064a\u062a \u062c\u062f\u064a", "name:en": "Beit Jeddi", "name:fr": "Beit Jeddi"}}, {"type": "node", "id": 1329678253, "lat": 33.5105144, "lon": 36.3084758, "tags": {"amenity": "restaurant", "name": "\u0628\u064a\u062a \u062c\u0628\u0631\u064a", "name:ar": "\u0628\u064a\u062a \u062c\u0628\u0631\u064a", "name:en": "Beit Jabri", "name:fr": "Beit Jabri"}}, {"type": "node", "id": 1329680711, "lat": 33.5123487, "lon": 36.3135494, "tags": {"amenity": "restaurant", "name": "\u0645\u0631\u0645\u0631", "name:ar": "\u0645\u0631\u0645\u0631", "name:en": "marmar", "name:fr": "Marmar", "name:he": "\u05de\u05e8\u05de\u05e8"}}, {"type": "node", "id": 1336727179, "lat": 33.5108213, "lon": 36.3177464, "tags": {"alt_name": "\u0643\u0627\u0632\u0627\u0628\u0644\u0627\u0646\u0643\u0627", "amenity": "restaurant", "name": "\u0627\u0644\u062f\u0627\u0631 \u0627\u0644\u0628\u064a\u0636\u0627\u0621", "name:ar": "\u0627\u0644\u062f\u0627\u0631 \u0627\u0644\u0628\u064a\u0636\u0627\u0621", "name:en": "CasaBlanca"}}, {"type": "node", "id": 1345788808, "lat": 33.5197546, "lon": 36.3157707, "tags": {"amenity": "cafe", "name": "\u062c\u0648'\u0632 \u0643\u0627\u0641\u064a\u0647", "name:ar": "\u062c\u0648'\u0632 \u0643\u0627\u0641\u064a\u0647", "name:en": "Joe's Cafe"}}, {"type": "node", "id": 1426370713, "lat": 33.4383874, "lon": 36.4060588, "tags": {"amenity": "restaurant", "name": "Al Qariya", "name:ar": "Al Qariya \u0645\u0637\u0639\u0645 \u0627\u0644\u0642\u0631\u064a\u0647"}}, {"type": "node", "id": 1426370724, "lat": 33.4391887, "lon": 36.406842, "tags": {"amenity": "restaurant", "name": "Bawabet Demashq", "name:ar": "\u0645\u0637\u0639\u0645 \u0628\u0648\u0627\u0628\u0629 \u062f\u0645\u0634\u0642", "wikidata": "Q4873751", "wikipedia": "en:Bawabet Dimashq"}}, {"type": "node", "id": 1426370725, "lat": 33.4388843, "lon": 36.4115063, "tags": {"amenity": "restaurant", "name": "Set Al Sham Al Rifi"}}, {"type": "node", "id": 1426370726, "lat": 33.4388865, "lon": 36.414835, "tags": {"amenity": "restaurant", "name": "Rayan", "name:ar": "\u0645\u0637\u0639\u0645 \u0627\u0644\u0631\u064a\u0627\u0646 \u0637\u0631\u064a\u0642 \u0627\u0644\u0645\u0637\u0627\u0631"}}, {"type": "node", "id": 1426370727, "lat": 33.4393095, "lon": 36.4105086, "tags": {"amenity": "restaurant", "name": "Nabaa"}}, {"type": "node", "id": 1426370737, "lat": 33.4377405, "lon": 36.4064048, "tags": {"amenity": "restaurant", "name": "Ski Land", "source": "Survey"}}, {"type": "node", "id": 1426370738, "lat": 33.4392446, "lon": 36.4088188, "tags": {"amenity": "restaurant", "name": "Al Seran"}}, {"type": "node", "id": 1426370744, "lat": 33.4423602, "lon": 36.403103, "tags": {"amenity": "restaurant", "name": "Al Arayesh"}}, {"type": "node", "id": 1426391514, "lat": 33.4267042, "lon": 36.3880577, "tags": {"amenity": "restaurant", "name": "Nadi Demashq Al Ayli"}}, {"type": "node", "id": 1426391525, "lat": 33.4326743, "lon": 36.4128676, "tags": {"amenity": "restaurant", "name": "Qrtaj"}}, {"type": "node", "id": 1777870125, "lat": 33.4676443, "lon": 36.4805584, "tags": {"amenity": "restaurant", "cuisine": "regional", "name": "\u0645\u0637\u0639\u0645 \u0627\u0644\u0642\u0631\u064a\u0629", "source": "Survey"}}, {"type": "node", "id": 1777875480, "lat": 33.4668881, "lon": 36.4795606, "tags": {"amenity": "restaurant"}}, {"type": "node", "id": 1777878595, "lat": 33.4114185, "lon": 36.4572475, "tags": {"amenity": "restaurant", "name": "\u0645\u0637\u0639\u0645 \u0632\u0645\u0627\u0646 \u0627\u0644\u062e\u064a\u0631", "source": "Survey"}}, {"type": "node", "id": 1813174229, "lat": 33.5065643, "lon": 36.3182311, "tags": {"amenity": "restaurant", "cuisine": "ice_cream", "name": "\u0628\u0648\u0638\u0629 \u0623\u0645\u064a\u0629", "name:ar": "\u0628\u0648\u0638\u0629 \u0623\u0645\u064a\u0629", "name:en": "Omayah ice cream"}}, {"type": "node", "id": 1816217982, "lat": 33.5485659, "lon": 36.3134146}, {"type": "node", "id": 1818306571, "lat": 33.5560091, "lon": 36.3250615, "tags": {"amenity": "restaurant", "cuisine": "ice_cream", "name": "\u062d\u0644\u0648\u064a\u0627\u062a \u0627\u0644\u0646\u0628\u0639\u0629"}}, {"type": "node", "id": 2402774591, "lat": 33.5128084, "lon": 36.3155782, "tags": {"amenity": "restaurant"}}, {"type": "node", "id": 3261891050, "lat": 33.5094683, "lon": 36.3112292}, {"type": "node", "id": 3261891051, "lat": 33.5094632, "lon": 36.3111194}, {"type": "node", "id": 3261891054, "lat": 33.5095666, "lon": 36.311217}, {"type": "node", "id": 3261891055, "lat": 33.5095547, "lon": 36.3110462}, {"type": "node", "id": 3261891056, "lat": 33.5094547, "lon": 36.3110604}, {"type": "node", "id": 3261891166, "lat": 33.509853, "lon": 36.3100888}, {"type": "node", "id": 3261891167, "lat": 33.509775, "lon": 36.3100949}, {"type": "node", "id": 3261891168, "lat": 33.5097886, "lon": 36.3103449}, {"type": "node", "id": 3261891169, "lat": 33.50987, "lon": 36.3103409}, {"type": "node", "id": 3261891176, "lat": 33.5097876, "lon": 36.3103263}, {"type": "node", "id": 3264079878, "lat": 33.5116245, "lon": 36.3075879, "tags": {"amenity": "cafe", "name": "\u0627\u0644\u0646\u0648\u0641\u0631\u0629", "name:ar": "\u0627\u0644\u0646\u0648\u0641\u0631\u0629", "name:en": "Al Nawfara", "wikidata": "Q12244697", "wikipedia": "ar:\u0645\u0642\u0647\u0649 \u0627\u0644\u0646\u0648\u0641\u0631\u0629"}}, {"type": "node", "id": 3264079879, "lat": 33.511137, "lon": 36.3075589, "tags": {"amenity": "restaurant", "name": "\u0644\u064a\u0644\u0649", "name:ar": "\u0644\u064a\u0644\u0649", "name:en": "Leila's"}}, {"type": "node", "id": 4134450589, "lat": 33.5094513, "lon": 36.3167445, "tags": {"addr:city": "\u062f\u0645\u0634\u0642", "amenity": "restaurant", "cuisine": "lebanese;arab;regional;local;oriental", "internet_access": "wlan", "name": "\u0623\u0645\u064a\u0629"}}, {"type": "node", "id": 4419275389, "lat": 33.5804565, "lon": 36.3570178, "tags": {"addr:street": "\u0637\u0631\u064a\u0642 \u0636\u0627\u062d\u064a\u0629 \u0627\u0644\u0627\u0633\u062f", "amenity": "cafe", "cuisine": "international", "internet_access": "wlan", "name": "\u0643\u0627\u0641\u064a\u0647 \u0628\u0627\u0631\u064a", "name:ar": "\u0643\u0627\u0641\u064a\u0647 \u0628\u0627\u0631\u064a", "name:en": "Bari Caf\u00e9", "opening_hours": "24/7", "phone": "0115351431", "website": "https://www.facebook.com/parimansuor"}}, {"type": "node", "id": 4422892189, "lat": 33.5808556, "lon": 36.361448, "tags": {"addr:street": "\u0637\u0631\u064a\u0642 \u0636\u0627\u062d\u064a\u0629 \u0627\u0644\u0627\u0633\u062f", "amenity": "restaurant", "cuisine": "international", "name": "\u0645\u0637\u0639\u0645 \u0627\u0644\u0645\u0647\u062f\u064a", "phone": "+963115352032"}}, {"type": "node", "id": 4529858991, "lat": 33.511889, "lon": 36.3100064, "tags": {"amenity": "cafe", "name": "\u0645\u0637\u0639\u0645 \u0648\u0643\u0627\u0641\u064a\u0647 \u0628\u0627\u0628 \u0627\u0644\u062d\u0627\u0631\u0629", "name:ar": "\u0645\u0637\u0639\u0645 \u0648\u0643\u0627\u0641\u064a\u0647 \u0628\u0627\u0628 \u0627\u0644\u062d\u0627\u0631\u0629"}}, {"type": "node", "id": 4698081289, "lat": 33.51288, "lon": 36.313262, "tags": {"amenity": "cafe", "internet_access": "wlan", "name": "\u0623\u0646\u062a\u064a\u0643\u0627", "name:ar": "\u0623\u0646\u062a\u064a\u0643\u0627", "name:en": "Antiqa Cafe"}}, {"type": "node", "id": 4793389581, "lat": 33.5560382, "lon": 36.4407087}, {"type": "node", "id": 4793389582, "lat": 33.5560035, "lon": 36.4406054}, {"type": "node", "id": 4793389583, "lat": 33.555888, "lon": 36.4406594}, {"type": "node", "id": 4793389584, "lat": 33.5559201, "lon": 36.440761}, {"type": "node", "id": 4813800324, "lat": 33.5241151, "lon": 36.3135774, "tags": {"amenity": "cafe", "name:en": "Ovale"}}, {"type": "node", "id": 4813807022, "lat": 33.5855195, "lon": 36.3681747, "tags": {"amenity": "cafe", "name": "\u0644\u0645\u0629 \u0634\u0645\u0644", "name:ar": "\u0644\u0645\u0629 \u0634\u0645\u0644"}}, {"type": "node", "id": 5202608722, "lat": 33.5117707, "lon": 36.3094942, "tags": {"amenity": "restaurant", "name": "\u0645\u0637\u0639\u0645 \u0648\u0643\u0627\u0641\u064a\u0647 \u0628\u064a\u062a \u0627\u0644\u0639\u064a\u0644\u0629", "name:ar": "\u0645\u0637\u0639\u0645 \u0648\u0643\u0627\u0641\u064a\u0647 \u0628\u064a\u062a \u0627\u0644\u0639\u064a\u0644\u0629", "name:he": "\u05de\u05e1\u05e2\u05d3\u05d4 \u05d5\u05d1\u05d9\u05ea \u05e7\u05e4\u05d4 \u05d1\u05d9\u05ea \u05e2\u05d9\u05dc\u05d4"}}, {"type": "node", "id": 5305490921, "lat": 33.4836573, "lon": 36.3180311, "tags": {"amenity": "cafe", "name": "\u0641\u0644\u0627\u0641\u0644 \u0627\u0644\u0633\u0639\u062f\u064a"}}, {"type": "node", "id": 5621711526, "lat": 33.5120007, "lon": 36.3127781, "tags": {"amenity": "restaurant", "name": "\u0633\u064a\u0644\u064a\u0646\u0627", "name:ar": "\u0633\u064a\u0644\u064a\u0646\u0627", "name:en": "Selena", "name:fr": "Selena", "name:he": "\u05e1\u05dc\u05e0\u05d4"}}, {"type": "node", "id": 5645378421, "lat": 33.5116456, "lon": 36.3150482, "tags": {"amenity": "cafe", "cuisine": "american"}}, {"type": "node", "id": 5801297354, "lat": 33.527052, "lon": 36.3196352, "tags": {"amenity": "cafe", "name": "\u0628\u0646 \u0646\u0648\u0631 \u0627\u0644\u0634\u0627\u0645"}}, {"type": "node", "id": 5801297453, "lat": 33.5253418, "lon": 36.3100316, "tags": {"amenity": "restaurant", "name": "Sultan Al-Sharq", "name:ar": "\u0633\u0644\u0637\u0627\u0646 \u0627\u0644\u0634\u0631\u0642", "website": "https://www.sultan-alsharq.com/"}}, {"type": "node", "id": 6063560586, "lat": 33.5226423, "lon": 36.31279, "tags": {"amenity": "restaurant", "cuisine": "arab;barbecue;breakfast;chicken;coffee_shop;diner;oriental;grill;ice_cream;kebab;lebanese;sandwich;tea", "internet_access": "wlan", "name": "\u062c\u0645\u0651\u064a\u0632\u0629", "name:en": "jemayze", "opening_hours": "Mo-Su 10:00-02:00", "operator": "Tawfeek Faddoul"}}, {"type": "node", "id": 6237155685, "lat": 33.5113992, "lon": 36.3110211, "tags": {"amenity": "restaurant", "name": "\u0628\u0645\u0627 \u0625\u0646\u0648", "name:ar": "\u0628\u0645\u0627 \u0625\u0646\u0648", "name:en": "Bina Inno"}}, {"type": "node", "id": 6589839685, "lat": 33.7153183, "lon": 36.3895954, "tags": {"amenity": "restaurant", "name": "\u0642\u0645\u0631 \u0627\u0644\u0648\u0627\u062f\u064a", "name:en": "Valley Moon"}}, {"type": "node", "id": 6655648253, "lat": 33.5225894, "lon": 36.3174625, "tags": {"addr:city": "\u062f\u0645\u0645\u0634\u0642", "addr:street": "\u0634\u0627\u0631\u0639 \u0627\u0644\u0642\u0635\u0627\u0639", "amenity": "restaurant", "name": "sam's cafe"}}, {"type": "node", "id": 6655648254, "lat": 33.5223421, "lon": 36.317134, "tags": {"addr:city": "\u062f\u0645\u0645\u0634\u0642", "addr:street": "\u0634\u0627\u0631\u0639 \u0627\u0644\u0642\u0635\u0627\u0639", "amenity": "restaurant"}}, {"type": "node", "id": 6658574187, "lat": 33.5103576, "lon": 36.3155337, "tags": {"addr:street": "\u0634\u0627\u0631\u0639 \u0628\u0627\u0628 \u062a\u0648\u0645\u0627\u202c\u200e", "amenity": "restaurant", "internet_access": "wlan", "name": "\u0645\u0648\u0646\u0627\u0644\u064a\u0632\u0627", "name:ar": "\u0645\u0648\u0646\u0627\u0644\u064a\u0632\u0627", "name:en": "Monaliza", "name:fr": "Monaliza"}}, {"type": "node", "id": 6665206056, "lat": 33.5257573, "lon": 36.3162046, "tags": {"amenity": "cafe", "name": "sport cafe"}}, {"type": "node", "id": 6665277603, "lat": 33.5218637, "lon": 36.3144634, "tags": {"amenity": "cafe", "name": "Cup\u0643\u064a\u0641"}}, {"type": "node", "id": 6716511788, "lat": 33.6313648, "lon": 36.3903709, "tags": {"amenity": "restaurant", "cuisine": "arab", "name": "\u0627\u0628\u0648 \u0637\u0646\u0648\u0633 \u0643\u0628\u0629 \u062d\u064a\u0644\u0643", "name:ar": "\u0627\u0628\u0648 \u0637\u0646\u0648\u0633 \u0643\u0628\u0629 \u062d\u064a\u0644\u0629", "name:en": "abou tannous"}}, {"type": "node", "id": 6793681386, "lat": 33.6947219, "lon": 36.3778872, "tags": {"amenity": "restaurant", "name": "\u0642\u0645\u0631 \u0627\u0644\u0648\u0627\u062f\u064a"}}, {"type": "node", "id": 7773468885, "lat": 33.5488975, "lon": 36.3218818, "tags": {"amenity": "restaurant", "name": "\u0627\u0644\u0637\u0627\u0647\u064a"}}, {"type": "node", "id": 7775397632, "lat": 33.5513324, "lon": 36.3150582, "tags": {"addr:city": "\u062f\u0645\u0634\u0642", "addr:street": "\u0634\u0627\u0631\u0639 \u0627\u0644\u0631\u062d\u0645\u0629", "amenity": "restaurant", "changing_table": "no", "check_date": "2024-07-24", "cuisine": "sandwich;burger;chicken", "internet_access": "no", "name": "\u0645\u0637\u0639\u0645 \u0648\u0643\u0627\u0641\u064a\u0647 \u0627\u0644\u0645\u0644\u0643", "name:ar": "\u0645\u0637\u0639\u0645 \u0648\u0643\u0627\u0641\u064a\u0647 \u0627\u0644\u0645\u0644\u0643", "name:en": "King Restaurant & Cafe", "opening_hours": "Mo-Su 08:00-23:00", "outdoor_seating": "yes", "phone": "+963 11 5138957", "reservation": "yes", "stars": "2", "takeaway": "yes", "toilets": "yes", "wheelchair": "no"}}, {"type": "node", "id": 7822100907, "lat": 33.5485076, "lon": 36.3132732}, {"type": "node", "id": 8018999385, "lat": 33.5187479, "lon": 36.3076416, "tags": {"amenity": "restaurant", "name": "\u0645\u0637\u0639\u0645 \u062f\u062c\u0627\u062c \u0648\u0633\u0645\u0643 \u062c\u0643\u0646 \u0634\u0627\u0631\u0639 \u0628\u063a\u062f\u0627\u062f"}}, {"type": "node", "id": 8142221217, "lat": 33.5065282, "lon": 36.307297, "tags": {"amenity": "restaurant", "name": "\u062f\u0627\u0631 \u0645\u0633\u0643", "opening_hours": "Mo-Su 10:00-23:57"}}, {"type": "node", "id": 8463370417, "lat": 33.4266521, "lon": 36.3806089, "tags": {"amenity": "restaurant", "name:en": "Al Ibya"}}, {"type": "node", "id": 8490234617, "lat": 33.5057074, "lon": 36.3075059, "tags": {"amenity": "cafe", "name": "\u0645\u0642\u0647\u0649 \u0627\u0644\u0633\u0631\u0648\u062c\u064a (\u0623\u0628\u0648 \u0639\u0635\u0627\u0645 \u0627\u0644\u0634\u0646\u0648\u0627\u0646\u064a)"}}, {"type": "node", "id": 8883484076, "lat": 33.4852218, "lon": 36.3333544, "tags": {"amenity": "restaurant", "name": "\u0627\u0644\u062d\u0627\u0631\u0629 \u0627\u0644\u0634\u0627\u0645\u064a\u0629"}}, {"type": "node", "id": 9081036637, "lat": 33.5482672, "lon": 36.3129032, "tags": {"addr:city": "\u062f\u0645\u0634\u0642", "addr:street": "\u0634\u0627\u0631\u0639 \u0628\u062f\u0631", "amenity": "restaurant", "check_date": "2024-08-13", "level": "0", "name": "Carbon Lounge", "outdoor_seating": "yes", "phone": "+963 11 5132244;+963 933801414", "website": "https://www.facebook.com/carbon.lounge.syria"}}, {"type": "node", "id": 9081036638, "lat": 33.5486144, "lon": 36.3132879, "tags": {"addr:city": "\u062f\u0645\u0634\u0642", "addr:street": "\u0634\u0627\u0631\u0639 \u0628\u062f\u0631", "amenity": "restaurant", "contact:facebook": "https://www.facebook.com/SULTAN.PALACE.SYRIA", "level": "1", "name": "\u0645\u0637\u0639\u0645 \u0642\u0635\u0631 \u0627\u0644\u0633\u0644\u0637\u0627\u0646", "name:ar": "\u0645\u0637\u0639\u0645 \u0642\u0635\u0631 \u0627\u0644\u0633\u0644\u0637\u0627\u0646", "name:en": "Al Sultan Palace", "outdoor_seating": "yes", "phone": "+963 994088298;+963 11 5130566;+963 11 5130577"}}, {"type": "node", "id": 9108226297, "lat": 33.5156578, "lon": 36.3159635, "tags": {"amenity": "restaurant", "name": "\u0628\u0633\u0637\u0631\u0645\u0627 \u0646\u0648\u0628\u0627\u0631 \u0623\u0648\u0627\u062f\u064a\u0633 \u062c\u0648\u0644\u0641\u0627\u064a\u0627\u0646", "name:ar": "\u0628\u0633\u0637\u0631\u0645\u0627 \u0646\u0648\u0628\u0627\u0631 \u0623\u0648\u0627\u062f\u064a\u0633 \u062c\u0648\u0644\u0641\u0627\u064a\u0627\u0646"}}, {"type": "node", "id": 9136905307, "lat": 33.5484367, "lon": 36.31331}, {"type": "node", "id": 9136905310, "lat": 33.5485326, "lon": 36.3134194}, {"type": "node", "id": 9136905311, "lat": 33.5484942, "lon": 36.3134167}, {"type": "node", "id": 9136905312, "lat": 33.5484347, "lon": 36.3134001}, {"type": "node", "id": 9136905313, "lat": 33.5483941, "lon": 36.3133824}, {"type": "node", "id": 9136905314, "lat": 33.5483757, "lon": 36.3133416}, {"type": "node", "id": 9139406724, "lat": 33.5085568, "lon": 36.3150559, "tags": {"amenity": "cafe", "name": "\u0642\u0647\u0648\u0629 \u0627\u0644\u0642\u0634\u0644\u0629", "name:ar": "\u0642\u0647\u0648\u0629 \u0627\u0644\u0642\u0634\u0644\u0629", "name:en": "Al Qishla", "outdoor_seating": "yes"}}, {"type": "node", "id": 9583942054, "lat": 33.7107358, "lon": 36.3749136}, {"type": "node", "id": 9583942055, "lat": 33.7107907, "lon": 36.3748294}, {"type": "node", "id": 9583942056, "lat": 33.7108606, "lon": 36.3748953}, {"type": "node", "id": 9583942057, "lat": 33.7107947, "lon": 36.3749962}, {"type": "node", "id": 9583942058, "lat": 33.7107249, "lon": 36.3749304}, {"type": "node", "id": 9667836052, "lat": 33.5112842, "lon": 36.3175703, "tags": {"amenity": "cafe", "name": "Old Cafe"}}, {"type": "node", "id": 9768371368, "lat": 33.4845097, "lon": 36.3434425, "tags": {"amenity": "cafe", "internet_access": "yes", "internet_access:fee": "no", "name": "The Wolf", "opening_hours": "Mo-Su 012:00-2:00", "outdoor_seating": "yes", "phone": "00963932666173", "website": "https://facebook.com/The-Wolf"}}, {"type": "node", "id": 9851935423, "lat": 33.5094428, "lon": 36.3111911, "tags": {"amenity": "restaurant", "name": "\u0645\u0637\u0639\u0645 \u0646\u0627\u0631\u0646\u062c \u0628\u0627\u0628 \u062a\u0648\u0645\u0627", "name:ar": "\u0645\u0637\u0639\u0645 \u0646\u0627\u0631\u0646\u062c \u0628\u0627\u0628 \u062a\u0648\u0645\u0627"}}, {"type": "node", "id": 9903549966, "lat": 33.5543302, "lon": 36.3146674, "tags": {"amenity": "cafe"}}, {"type": "node", "id": 9941768217, "lat": 33.5124439, "lon": 36.316254, "tags": {"amenity": "restaurant", "name": "\u062d\u0627\u0631\u062a\u0646\u0627", "name:ar": "\u062d\u0627\u0631\u062a\u0646\u0627", "name:en": "Hartna", "name:fr": "Hartna"}}, {"type": "node", "id": 9953111218, "lat": 33.5104537, "lon": 36.3080828, "tags": {"amenity": "restaurant", "name": "\u0628\u064a\u062a \u0633\u062a\u064a", "name:ar": "\u0628\u064a\u062a \u0633\u062a\u064a", "name:fr": "Beit Cit\u00e9"}}, {"type": "node", "id": 9953334409, "lat": 33.5128987, "lon": 36.3133192, "tags": {"amenity": "cafe", "contact:facebook": "https://www.facebook.com/WinnereCafeOfficial/", "name": "Winners Cafe", "name:ar": "\u0648\u064a\u0646\u0631\u0632 \u0643\u0627\u0641\u064a\u0647", "name:en": "Winners Cafe", "opening_hours": "Sa-Th 10:00-25:00; Fr 11:00-25:00", "outdoor_seating": "no", "phone": "+963 997190114;+963 936248815"}}, {"type": "node", "id": 9971413236, "lat": 33.51132, "lon": 36.3170406, "tags": {"amenity": "cafe", "name": "\u0643\u0627\u0641\u064a\u0647 \u0627\u0644\u0631\u0643\u0646", "name:ar": "\u0643\u0627\u0641\u064a\u0647 \u0627\u0644\u0631\u0643\u0646", "name:en": "Corner Cafe"}}, {"type": "node", "id": 10018015363, "lat": 33.5300907, "lon": 36.3236894, "tags": {"amenity": "restaurant", "name": "\u0645\u0623\u0643\u0648\u0644\u0627\u062a \u0627\u0644\u0641\u064a\u062d\u0627\u0621"}}, {"type": "node", "id": 10020225784, "lat": 33.529269, "lon": 36.3149566, "tags": {"amenity": "restaurant", "name": "\u062a\u0643\u0629"}}, {"type": "node", "id": 10020306691, "lat": 33.5258547, "lon": 36.3147458, "tags": {"amenity": "restaurant", "name": "\u0645\u0637\u0628\u062e\u0646\u0627"}}, {"type": "node", "id": 10020322492, "lat": 33.5257614, "lon": 36.3158783, "tags": {"amenity": "cafe", "name": "G Sport Cafe"}}, {"type": "node", "id": 10020360039, "lat": 33.5456091, "lon": 36.3263799, "tags": {"amenity": "restaurant", "name": "\u0646\u0627\u062f\u064a \u0627\u0644\u0634\u0631\u0637\u0629 \u0627\u0644\u0631\u064a\u0627\u0636\u064a"}}, {"type": "node", "id": 10020360636, "lat": 33.5461872, "lon": 36.3255539, "tags": {"amenity": "restaurant", "name": "\u0645\u0637\u0639\u0645 \u0627\u0644\u0627\u064a\u0645\u0627\u0646"}}, {"type": "node", "id": 10020392294, "lat": 33.545412, "lon": 36.3228026, "tags": {"amenity": "restaurant", "name": "\u0645\u0637\u0639\u0645 \u0627\u0644\u0631\u0648\u0627\u0628\u064a"}}, {"type": "node", "id": 10020399732, "lat": 33.545877, "lon": 36.3241187, "tags": {"amenity": "restaurant", "name": "\u0645\u0637\u0639\u0645 \u0627\u0628\u0648 \u0637\u0644\u0627\u0644 \u0627\u0644\u0639\u0643\u064a\u0644\u064a"}}, {"type": "node", "id": 10020489720, "lat": 33.5246348, "lon": 36.314821, "tags": {"amenity": "restaurant", "name": "Wakeup"}}, {"type": "node", "id": 10020493917, "lat": 33.524645, "lon": 36.3129306, "tags": {"amenity": "cafe", "name": "Why Cafe"}}, {"type": "node", "id": 10020497461, "lat": 33.5256312, "lon": 36.3125517, "tags": {"amenity": "restaurant", "name": "\u0645\u0637\u0628\u062e \u062a\u064a\u062a\u0627 \u0644\u0637\u064a\u0641\u0629"}}, {"type": "node", "id": 10020507931, "lat": 33.54603, "lon": 36.3201437, "tags": {"amenity": "restaurant", "name": "\u0645\u0637\u0639\u0645 \u062c\u0646\u0629 \u0627\u0644\u0646\u0639\u064a\u0645"}}, {"type": "node", "id": 10020511596, "lat": 33.5244201, "lon": 36.312533, "tags": {"amenity": "restaurant", "name": "\u0628\u064a\u062a \u0631\u0632"}}, {"type": "node", "id": 10020511969, "lat": 33.5243708, "lon": 36.3121688, "tags": {"amenity": "restaurant", "name": "\u062f\u0648\u0628\u0627\u0645\u064a\u0646"}}, {"type": "node", "id": 10020516435, "lat": 33.5458529, "lon": 36.3200976, "tags": {"amenity": "restaurant", "name": "\u0645\u0637\u0639\u0645 \u0627\u0645\u064a\u0629 \u0627\u0644\u0634\u0627\u0645"}}, {"type": "node", "id": 10020524602, "lat": 33.545385, "lon": 36.3201076, "tags": {"amenity": "cafe", "name": "\u0643\u0627\u0641\u064a\u062a\u064a\u0631\u064a\u0627 \u0627\u0644\u0631\u0648\u0636\u0629 \u0627\u0644\u0634\u0627\u0645\u064a\u0629"}}, {"type": "node", "id": 10020525866, "lat": 33.5463135, "lon": 36.3202339, "tags": {"amenity": "restaurant", "name": "\u0645\u0637\u0639\u0645 \u0628\u064a\u062a\u0632\u0627 \u0643\u0648\u0644 \u0628\u0646\u0647\u0645"}}, {"type": "node", "id": 10020539751, "lat": 33.5464227, "lon": 36.3224573, "tags": {"amenity": "restaurant", "name": "\u0627\u0645\u064a\u0629 \u0643\u0644\u0627\u0633"}}, {"type": "node", "id": 10020541620, "lat": 33.5460762, "lon": 36.3190511, "tags": {"amenity": "restaurant", "name": "\u0641\u0631\u0648\u062c \u0627\u0644\u0632\u064a\u0646"}}, {"type": "node", "id": 10020560022, "lat": 33.5460996, "lon": 36.3174792, "tags": {"amenity": "restaurant", "name": "\u0645\u0637\u0639\u0645 \u0627\u0628\u0648 \u0633\u064a\u0641"}}, {"type": "node", "id": 10020563948, "lat": 33.5460728, "lon": 36.3191713, "tags": {"amenity": "restaurant", "name": "\u062d\u0644\u0648\u064a\u0627\u062a \u0646\u0628\u064a\u0644 \u0646\u0641\u064a\u0633\u0629"}}, {"type": "node", "id": 10020579244, "lat": 33.5465791, "lon": 36.3155285, "tags": {"amenity": "restaurant", "name": "\u0645\u0646\u062f\u064a \u062d\u0636\u0631\u0645\u0648\u062a"}}, {"type": "node", "id": 10020582777, "lat": 33.5581362, "lon": 36.3234613, "tags": {"amenity": "restaurant", "name": "\u0645\u0637\u0639\u0645 \u0627\u0644\u062c\u0648\u062f"}}, {"type": "node", "id": 10020588719, "lat": 33.5226722, "lon": 36.3156726, "tags": {"amenity": "restaurant", "name": "Tonino Lamborghini AL GHASSANI Coffee Lounge & Restaurant"}}, {"type": "node", "id": 10020594194, "lat": 33.5465892, "lon": 36.3145321, "tags": {"amenity": "restaurant", "name": "\u0645\u0637\u0639\u0645 \u062f\u064a\u0628\u0648"}}, {"type": "node", "id": 10020597868, "lat": 33.5232634, "lon": 36.3142025, "tags": {"amenity": "cafe", "name": "Caf\u00e9 Manfaluti", "name:ar": "\u0642\u0647\u0648\u0629 \u0627\u0644\u0645\u0646\u0641\u0644\u0648\u0637\u064a", "name:fr": "Caf\u00e9 Manfaluti"}}, {"type": "node", "id": 10020624824, "lat": 33.523399, "lon": 36.3157724, "tags": {"amenity": "cafe", "name": "Moka&More"}}, {"type": "node", "id": 10020626624, "lat": 33.5234408, "lon": 36.3133938, "tags": {"amenity": "cafe", "name": "Pages Caf\u00e9", "name:fr": "Pages Caf\u00e9"}}, {"type": "node", "id": 10020626625, "lat": 33.5235246, "lon": 36.3129399, "tags": {"amenity": "cafe", "name": "Vero Caf\u00e9", "name:fr": "Vero Caf\u00e9"}}, {"type": "node", "id": 10020627217, "lat": 33.522142, "lon": 36.3148316, "tags": {"amenity": "cafe", "name": "\u062e\u0628\u0632\u0629 \u0648\u062c\u0628\u0646\u0629"}}, {"type": "node", "id": 10020632757, "lat": 33.5237949, "lon": 36.3131807, "tags": {"amenity": "cafe", "name": "Caracas Cafe"}}, {"type": "node", "id": 10020648405, "lat": 33.5215487, "lon": 36.3133958, "tags": {"amenity": "cafe", "name": "Cafe Brimo"}}, {"type": "node", "id": 10020650915, "lat": 33.5528599, "lon": 36.319446, "tags": {"amenity": "restaurant", "name": "\u0645\u0637\u0639\u0645 \u0644\u064a\u0644\u0648"}}, {"type": "node", "id": 10020658144, "lat": 33.5227633, "lon": 36.3134037, "tags": {"amenity": "cafe", "name": "Caf\u00e9 d'Or", "name:fr": "Caf\u00e9 d'Or"}}, {"type": "node", "id": 10020667579, "lat": 33.5205241, "lon": 36.3136914, "tags": {"amenity": "restaurant", "name": "Chez Bassam"}}, {"type": "node", "id": 10020672627, "lat": 33.5221336, "lon": 36.3133798, "tags": {"amenity": "restaurant", "name": "\u0645\u0637\u0639\u0645 \u0645\u0634\u0627\u0648\u064a"}}, {"type": "node", "id": 10020683759, "lat": 33.5587047, "lon": 36.324938, "tags": {"amenity": "restaurant", "name": "\u0641\u0631\u0648\u062c \u0627\u0644\u0645\u0644\u0643"}}, {"type": "node", "id": 10020690946, "lat": 33.5612731, "lon": 36.3214615, "tags": {"amenity": "restaurant", "name": "\u0645\u0637\u0639\u0645 \u0643\u0631\u064a\u0633\u0628\u064a \u0628\u0631\u0632\u0629"}}, {"type": "node", "id": 10020728547, "lat": 33.5632913, "lon": 36.3215618, "tags": {"amenity": "restaurant", "name": "\u0645\u0634\u0627\u0648\u064a \u0639\u0644\u0643\u064a\u0641"}}, {"type": "node", "id": 10020768948, "lat": 33.5496524, "lon": 36.3257316, "tags": {"amenity": "restaurant", "name": "\u0645\u0637\u0639\u0645 \u0635\u0637\u0648\u0641"}}, {"type": "node", "id": 10020778031, "lat": 33.522178, "lon": 36.3188453, "tags": {"amenity": "cafe", "name": "\u0643\u0627\u0641\u064a\u0647 \u0631\u0648\u0627\u0621"}}, {"type": "node", "id": 10020875512, "lat": 33.5217, "lon": 36.3161934, "tags": {"amenity": "restaurant", "name": "Crespella"}}, {"type": "node", "id": 10020883715, "lat": 33.5216168, "lon": 36.3165249, "tags": {"amenity": "restaurant", "name": "Hani Pub"}}, {"type": "node", "id": 10020883716, "lat": 33.5215614, "lon": 36.3165764, "tags": {"amenity": "restaurant", "name": "Stories"}}, {"type": "node", "id": 10020902506, "lat": 33.5219095, "lon": 36.3167753, "tags": {"amenity": "restaurant", "name": "Trios Etage"}}, {"type": "node", "id": 10020908826, "lat": 33.5213726, "lon": 36.3162814, "tags": {"amenity": "restaurant", "name": "Saint Michel Cafee"}}, {"type": "node", "id": 10020912161, "lat": 33.5207153, "lon": 36.3162157, "tags": {"amenity": "cafe", "name": "Specturm Cafe"}}, {"type": "node", "id": 10020918194, "lat": 33.5193635, "lon": 36.316609, "tags": {"amenity": "restaurant", "name": "\u0645\u0637\u0639\u0645 \u0627\u0644\u0639\u0643\u064a\u062f"}}, {"type": "node", "id": 10021042501, "lat": 33.5193288, "lon": 36.315141, "tags": {"amenity": "restaurant", "name": "\u0645\u0637\u0639\u0645 \u062c\u0646\u0627\u064a\u0646 \u0627\u0644\u0648\u0631\u062f"}}, {"type": "node", "id": 10021095412, "lat": 33.5195111, "lon": 36.3165983, "tags": {"amenity": "restaurant", "name": "Salameh Resturant"}}, {"type": "node", "id": 10023497450, "lat": 33.5666074, "lon": 36.3180369, "tags": {"amenity": "restaurant", "name": "\u0645\u0637\u0639\u0645 \u0627\u0631\u0645\u062a\u0627\u062c \u0631\u0643\u0646 \u0627\u0644\u062f\u064a\u0646"}}, {"type": "node", "id": 10023499993, "lat": 33.5670315, "lon": 36.3217846, "tags": {"amenity": "restaurant", "contact:facebook": "share/1HLV4KAFx1", "name": "\u0645\u0637\u0639\u0645 \u0627\u0644\u0636\u064a\u0627\u0621"}}, {"type": "node", "id": 10023542415, "lat": 33.5641469, "lon": 36.3213172, "tags": {"amenity": "restaurant", "name": "\u062d\u0644\u0648\u064a\u0627\u062a \u0627\u0644\u0648\u0631\u0648\u062f"}}, {"type": "node", "id": 10023549400, "lat": 33.5452895, "lon": 36.3166872, "tags": {"amenity": "restaurant", "name": "\u0645\u0637\u0628\u062e \u0628\u0633\u0627\u0645 \u0643\u0639\u0643\u0631\u0646\u064a \u0644\u0644\u0643\u0628\u0629 \u0627\u0644\u0634\u0627\u0645\u064a\u0629 \u0648\u0627\u0644\u0628\u0631\u0643"}}, {"type": "node", "id": 10023593759, "lat": 33.5467632, "lon": 36.3140868, "tags": {"amenity": "restaurant", "name": "\u0645\u0637\u0639\u0645 \u0627\u0644\u0627\u063a\u0628\u0631"}}, {"type": "node", "id": 10023738471, "lat": 33.5112277, "lon": 36.3169115, "tags": {"amenity": "restaurant", "name": "\u0645\u0637\u0639\u0645 \u0646\u064a\u0648\u062a\u0631\u0648\u0646"}}, {"type": "node", "id": 10023816296, "lat": 33.5098897, "lon": 36.3163145, "tags": {"amenity": "restaurant", "name": "\u062e\u064a\u0632\u0631\u0627\u0646"}}, {"type": "node", "id": 10023832910, "lat": 33.5094519, "lon": 36.3154502, "tags": {"amenity": "restaurant", "name": "la marionnette pub & pizzeria"}}, {"type": "node", "id": 10023834165, "lat": 33.5104223, "lon": 36.3154213, "tags": {"amenity": "restaurant", "name": "\u0645\u0648\u0646\u0627\u0644\u064a\u0632\u0627", "name:ar": "\u0645\u0648\u0646\u0627\u0644\u064a\u0632\u0627", "name:fr": "Monaliza"}}, {"type": "node", "id": 10023838695, "lat": 33.5103862, "lon": 36.3164643, "tags": {"amenity": "restaurant", "name": "\u0645\u0637\u0639\u0645 \u0632\u064a\u0648\u0633"}}, {"type": "node", "id": 10023852271, "lat": 33.5094775, "lon": 36.3157949, "tags": {"amenity": "restaurant", "name": "Italian countryside Pizza \u0628\u064a\u062a\u0632\u0627 \u0627\u0644\u0631\u064a\u0641 \u0627\u0644\u0625\u064a\u0637\u0627\u0644\u064a\u0629"}}, {"type": "node", "id": 10023854062, "lat": 33.5095949, "lon": 36.315932, "tags": {"amenity": "restaurant", "name": "Mazzika Restaurant & lounge"}}, {"type": "node", "id": 10023879501, "lat": 33.5089735, "lon": 36.3154448, "tags": {"amenity": "cafe", "name": "\u0632\u0627\u0631\u0648\u0628"}}, {"type": "node", "id": 10023885332, "lat": 33.5087915, "lon": 36.3159248, "tags": {"amenity": "restaurant", "name": "\u0645\u0637\u0639\u0645 \u0627\u0644\u0623\u0648\u0631\u064a\u0646\u062a\u0627\u0644"}}, {"type": "node", "id": 10023892684, "lat": 33.5087409, "lon": 36.3127295, "tags": {"addr:city": "\u062f\u0645\u0634\u0642", "amenity": "restaurant", "name": "\u0645\u0634\u0631\u0628\u064a\u0629", "name:ar": "\u0645\u0634\u0631\u0628\u064a\u0629"}}, {"type": "node", "id": 10024521401, "lat": 33.5788778, "lon": 36.3505275, "tags": {"amenity": "restaurant", "name": "\u0645\u0637\u0639\u0645 \u0627\u064a \u0645\u064a\u0631\u064a \u0634\u0648"}}, {"type": "node", "id": 10024536540, "lat": 33.5763578, "lon": 36.3507684, "tags": {"amenity": "restaurant", "name": "\u062a\u0631\u0627\u0633 \u0648\u0645\u0637\u0639\u0645 \u0623\u0644\u0648\u0627\u0646"}}, {"type": "node", "id": 10024555722, "lat": 33.5784541, "lon": 36.3489393, "tags": {"amenity": "restaurant", "name": "\u0645\u0637\u0639\u0645 \u0627\u0644\u062d\u0633\u0646"}}, {"type": "node", "id": 10024556267, "lat": 33.5794725, "lon": 36.3602618, "tags": {"amenity": "cafe", "name": "Rose Cafe"}}, {"type": "node", "id": 10026294135, "lat": 33.4864731, "lon": 36.3051208, "tags": {"amenity": "restaurant", "name": "\u0645\u0646\u062f\u064a \u0627\u0644\u0645\u0643\u0644\u0627"}}, {"type": "node", "id": 10026370433, "lat": 33.5233357, "lon": 36.3095907, "tags": {"amenity": "restaurant", "name": "\u0645\u0637\u0639\u0645 \u0627\u0644\u062b\u0646\u0627\u0621"}}, {"type": "node", "id": 10026635189, "lat": 33.4843826, "lon": 36.3761331, "tags": {"amenity": "restaurant", "name": "\u0641\u0644\u0627\u0641\u0644 \u0627\u0644\u0634\u0631\u064a\u0641"}}, {"type": "node", "id": 10026650254, "lat": 33.4852187, "lon": 36.3773259, "tags": {"amenity": "restaurant", "name": "\u0634\u0627\u0648\u0631\u0645\u0627 \u0627\u0644\u0634\u0627\u0645"}}, {"type": "node", "id": 10026667071, "lat": 33.5145312, "lon": 36.3515833, "tags": {"amenity": "restaurant", "name": "\u0628\u064a\u062a\u0632\u0627 \u0648\u0645\u0639\u062c\u0646\u0627\u062a \u0627\u0644\u0645\u062d\u0628\u0629"}}, {"type": "node", "id": 10026670550, "lat": 33.5150169, "lon": 36.3519911, "tags": {"amenity": "restaurant", "name": "\u0645\u0623\u0643\u0648\u0644\u0627\u062a \u0627\u0644\u0634\u0627\u0645"}}, {"type": "node", "id": 10026820514, "lat": 33.5012119, "lon": 36.3255156, "tags": {"amenity": "restaurant", "name": "\u0645\u0637\u0639\u0645 \u0645\u0648\u0646\u062f\u0648"}}, {"type": "node", "id": 10026832210, "lat": 33.5009038, "lon": 36.3214534, "tags": {"amenity": "restaurant", "name": "\u062d\u0644\u0648\u064a\u0627\u062a \u0627\u0644\u0634\u0644\u0627\u0644"}}, {"type": "node", "id": 10026839436, "lat": 33.5040996, "lon": 36.3197218, "tags": {"amenity": "restaurant", "name": "\u0645\u0623\u0643\u0648\u0644\u0627\u062a \u0627\u0644\u0634\u0627\u0645"}}, {"type": "node", "id": 10026859889, "lat": 33.5024454, "lon": 36.3270912, "tags": {"amenity": "restaurant", "name": "\u0645\u0637\u0639\u0645 \u0627\u0644\u0641\u062e\u0627\u0631\u0629"}}, {"type": "node", "id": 10026861875, "lat": 33.5021982, "lon": 36.3245653, "tags": {"amenity": "restaurant", "name": "\u0645\u0639\u062c\u0646\u0627\u062a \u0627\u0644\u0633\u0627\u062d\u0629"}}, {"type": "node", "id": 10026864316, "lat": 33.499326, "lon": 36.3280189, "tags": {"amenity": "restaurant", "name": "\u0645\u0639\u062c\u0646\u0627\u062a \u0648\u0631\u062f\u0629 \u0627\u0644\u0634\u0627\u0645"}}, {"type": "node", "id": 10026868794, "lat": 33.5015681, "lon": 36.3207673, "tags": {"amenity": "restaurant", "name": "\u0645\u0639\u062c\u0646\u0627\u062a \u0627\u0644\u0637\u0628\u0627\u0644\u0629"}}, {"type": "node", "id": 10026870721, "lat": 33.5034441, "lon": 36.3203761, "tags": {"amenity": "restaurant", "name": "\u0641\u0631\u0648\u062c \u0627\u0644\u0632\u0647\u0631\u0627\u0621"}}, {"type": "node", "id": 10026882912, "lat": 33.4830063, "lon": 36.3560234, "tags": {"amenity": "restaurant", "name": "Stars Avenue"}}, {"type": "node", "id": 10026889174, "lat": 33.4893497, "lon": 36.3385102, "tags": {"amenity": "restaurant", "name": "Miral Cafe"}}, {"type": "node", "id": 10026890203, "lat": 33.493335, "lon": 36.3424829, "tags": {"amenity": "restaurant", "name": "\u0645\u0637\u0639\u0645 \u062f\u0647\u0628 \u0639\u062a\u064a\u0642-Dahab ateeq restaurant \ud83c\udf74"}}, {"type": "node", "id": 10026894755, "lat": 33.4853391, "lon": 36.3499405, "tags": {"amenity": "restaurant", "name": "\u0645\u0637\u0639\u0645 \u0627\u0644\u0633\u0644\u0637\u0627\u0646"}}, {"type": "node", "id": 10026898095, "lat": 33.4851439, "lon": 36.3503397, "tags": {"amenity": "cafe", "name": "\u0643\u0627\u0641\u064a\u0647 \u0645\u0632\u0627\u062c"}}, {"type": "node", "id": 10026900174, "lat": 33.484529, "lon": 36.3546433, "tags": {"amenity": "restaurant", "name": "Alrwaby \u0627\u0644\u0631\u0648\u0627\u0628\u064a"}}, {"type": "node", "id": 10026900975, "lat": 33.4972445, "lon": 36.3348399, "tags": {"amenity": "restaurant", "name": "\u0634\u0627\u0648\u0631\u0645\u0627 \u0634\u064a\u062e \u0627\u0644\u0643\u0627\u0631"}}, {"type": "node", "id": 10026910922, "lat": 33.4973958, "lon": 36.3346102, "tags": {"amenity": "restaurant", "name": "\u0645\u0623\u0643\u0648\u0644\u0627\u062a \u0627\u0644\u0634\u0627\u0645 9 \u0643\u0634\u0643\u0648\u0644"}}, {"type": "node", "id": 10026912038, "lat": 33.4956224, "lon": 36.3442654, "tags": {"amenity": "restaurant", "name": "\u0645\u0646\u062a\u0632\u0647 \u0641\u064a \u0648\u0645\u064a"}}, {"type": "node", "id": 10026922930, "lat": 33.4888013, "lon": 36.3395246, "tags": {"amenity": "restaurant", "name": "\u0645\u0637\u0639\u0645\u0645 \u0645\u0642\u0631\u0645\u0634"}}, {"type": "node", "id": 10026925138, "lat": 33.4887177, "lon": 36.340106, "tags": {"amenity": "restaurant", "name": "\u0645\u0637\u0639\u0645 \u0627\u0644\u062e\u0627\u0644"}}, {"type": "node", "id": 10026930287, "lat": 33.4836586, "lon": 36.3550455, "tags": {"amenity": "restaurant", "name": "\u0645\u0637\u0639\u0645 \u0627\u0644\u0634\u0639\u0644\u0629"}}, {"type": "node", "id": 10026938470, "lat": 33.4862665, "lon": 36.3459361, "tags": {"amenity": "restaurant", "name": "\u0645\u0637\u0639\u0645 \u0644\u0627\u0645\u064a\u0646\u0627\u0631\u0648"}}, {"type": "node", "id": 10026972821, "lat": 33.4871955, "lon": 36.3537949, "tags": {"amenity": "restaurant", "name": "\u0645\u0637\u0639\u0645 \u0627\u0644\u0633\u0628\u0639"}}, {"type": "node", "id": 10026986906, "lat": 33.4878309, "lon": 36.3534922, "tags": {"amenity": "restaurant", "name": "\u0628\u0648\u0638\u0629 \u0627\u0645\u064a\u0629"}}, {"type": "node", "id": 10027005255, "lat": 33.4726117, "lon": 36.3650652, "tags": {"amenity": "cafe", "name": "\u0645\u0642\u0647\u0649 \u0627\u0644\u0634\u0627\u0645"}}, {"type": "node", "id": 10027006663, "lat": 33.4859496, "lon": 36.3369359, "tags": {"amenity": "restaurant", "name": "Popeye Restaurant \u0645\u0637\u0639\u0645 \u0628\u0627\u0628\u0627\u064a"}}, {"type": "node", "id": 10027014700, "lat": 33.4743511, "lon": 36.3028825, "tags": {"amenity": "restaurant", "name": "\u0645\u0637\u0639\u0645 \u0623\u0628\u0648 \u0641\u0624\u0627\u062f"}}, {"type": "node", "id": 10027017328, "lat": 33.4736402, "lon": 36.3030764, "tags": {"amenity": "restaurant", "name": "\u0627\u0644\u0641\u0637\u064a\u0631\u0629 \u0627\u0644\u0633\u0627\u062e\u0646\u0629"}}, {"type": "node", "id": 10027017908, "lat": 33.4739169, "lon": 36.3030407, "tags": {"amenity": "restaurant", "name": "\u0645\u0637\u0639\u0645 \u0627\u0644\u0633\u0645\u0627\u062d"}}, {"type": "node", "id": 10027038888, "lat": 33.4684391, "lon": 36.3051402, "tags": {"amenity": "restaurant", "name": "\u0645\u0637\u0639\u0645 \u0627\u0644\u0628\u0627\u0634\u0627"}}, {"type": "node", "id": 10032906759, "lat": 33.4761953, "lon": 36.3064382, "tags": {"amenity": "restaurant", "name": "\u0645\u0637\u0639\u0645 \u0627\u0644\u064a\u0631\u0645\u0648\u0643"}}, {"type": "node", "id": 10288900260, "lat": 33.5129076, "lon": 36.3143229, "tags": {"amenity": "restaurant", "name": "Winner Restaurant and cafe"}}, {"type": "node", "id": 10723232796, "lat": 33.5113953, "lon": 36.3153065, "tags": {"amenity": "restaurant", "name": "\u0645\u0637\u0639\u0645 \u0627\u0644\u0639\u0627\u0632\u0631\u064a\u0629"}}, {"type": "node", "id": 10723260205, "lat": 33.5094765, "lon": 36.3154497, "tags": {"amenity": "restaurant", "name": "la marionnette pub & pizzeria"}}, {"type": "node", "id": 10723260228, "lat": 33.5117073, "lon": 36.3171307, "tags": {"amenity": "cafe", "name": "Saif w Sheti"}}, {"type": "node", "id": 11008525805, "lat": 33.4908671, "lon": 36.3400947, "tags": {"amenity": "restaurant", "name": "\u0645\u0637\u0639\u0645 \u0623\u0628\u0648 \u0643\u0645\u0627\u0644", "name:en": "Abo Kamal Restaurant"}}, {"type": "node", "id": 11042854876, "lat": 33.4302564, "lon": 36.3911601, "tags": {"amenity": "cafe"}}, {"type": "node", "id": 11042854877, "lat": 33.4303314, "lon": 36.3920623, "tags": {"amenity": "cafe"}}, {"type": "node", "id": 11042854895, "lat": 33.4263091, "lon": 36.3913866, "tags": {"amenity": "cafe"}}, {"type": "node", "id": 11042854896, "lat": 33.4264203, "lon": 36.392756, "tags": {"amenity": "cafe"}}, {"type": "node", "id": 11042854897, "lat": 33.4284004, "lon": 36.3925271, "tags": {"amenity": "cafe"}}, {"type": "node", "id": 11042854898, "lat": 33.4282927, "lon": 36.391141, "tags": {"amenity": "cafe"}}, {"type": "node", "id": 11107632042, "lat": 33.5494208, "lon": 36.3145927}, {"type": "node", "id": 11107632043, "lat": 33.5493697, "lon": 36.3144698}, {"type": "node", "id": 11107632044, "lat": 33.549338, "lon": 36.3144888}, {"type": "node", "id": 11107632045, "lat": 33.5493891, "lon": 36.3146117}, {"type": "node", "id": 11349531644, "lat": 33.5203415, "lon": 36.3118665, "tags": {"amenity": "cafe"}}, {"type": "node", "id": 11395143560, "lat": 33.6003503, "lon": 36.3283158, "tags": {"amenity": "cafe"}}, {"type": "node", "id": 11395155430, "lat": 33.4957599, "lon": 36.3210883, "tags": {"amenity": "cafe"}}, {"type": "node", "id": 11395155469, "lat": 33.4946585, "lon": 36.3166849, "tags": {"amenity": "cafe"}}, {"type": "node", "id": 11455559244, "lat": 33.5401446, "lon": 36.3683177, "tags": {"amenity": "restaurant", "name": "\u0634\u0631\u0643\u0629 \u0627\u0644\u0645\u0636\u064a\u0627\u0641 \u0627\u0644\u0634\u0631\u0642\u064a \u0644\u0644\u0635\u0646\u0627\u0639\u0627\u062a \u0627\u0644\u063a\u0630\u0627\u0626\u064a\u0629"}}, {"type": "node", "id": 11602931777, "lat": 33.4317309, "lon": 36.4085476, "tags": {"amenity": "restaurant", "name": "\u0646\u0633\u0645\u0647 \u0627\u0644\u0634\u0627\u0645"}}, {"type": "node", "id": 12102849469, "lat": 33.6776266, "lon": 36.3641574, "tags": {"amenity": "cafe"}}, {"type": "node", "id": 12590553354, "lat": 33.5103494, "lon": 36.315485, "tags": {"amenity": "cafe", "cuisine": "coffee_shop;sandwich;burger", "internet_access": "wlan", "internet_access:fee": "no", "name": "error cafe", "name:ar": "\u0643\u0627\u0641\u064a\u0647 \u0627\u064a\u0631\u0648\u0631", "opening_hours": "Mo-Sa 10:00-23:59", "phone": "+963940011178", "website": "https://www.instagram.com/error_cafe?igsh=MXFwNnN6ajFia2k5dQ%3D%3D&utm_source=qr"}}, {"type": "way", "id": 319729403, "nodes": [3261891050, 3261891054, 3261891055, 3261891056, 3261891051, 3261891050], "tags": {"amenity": "restaurant", "building": "yes"}}, {"type": "way", "id": 319729406, "nodes": [3261891166, 3261891167, 3261891176, 3261891168, 3261891169, 3261891166], "tags": {"amenity": "restaurant", "building": "yes"}}, {"type": "way", "id": 486782477, "nodes": [4793389581, 4793389582, 4793389583, 4793389584, 4793389581], "tags": {"amenity": "restaurant", "building": "yes", "name": "\u0645\u0637\u0639\u0645 \u0645\u062a\u0646\u0632\u0647 \u0627\u0644\u0634\u0641\u0648\u0646\u064a\u0647"}}, {"type": "way", "id": 988503140, "nodes": [7822100907, 1816217982, 9136905310, 9136905311, 9136905312, 9136905313, 9136905314, 9136905307, 7822100907], "tags": {"addr:city": "\u062f\u0645\u0634\u0642", "addr:street": "\u0634\u0627\u0631\u0639 \u0628\u062f\u0631", "amenity": "cafe", "building": "yes", "check_date": "2024-08-13", "name": "\u0628\u0627\u0633\u0643\u0648\u062a\u0634\u064a \u0643\u0627\u0641\u064a\u0647", "name:ar": "\u0628\u0627\u0633\u0643\u0648\u062a\u0634\u064a \u0643\u0627\u0641\u064a\u0647", "name:en": "Pascucci cafe"}}, {"type": "way", "id": 1040950847, "nodes": [9583942055, 9583942056, 9583942057, 9583942058, 9583942054, 9583942055], "tags": {"amenity": "cafe", "building": "yes", "building:levels": "1", "name": "\u0645\u0642\u0647\u0649 \u0623\u0628\u0648 \u062c\u0648\u0631\u062c", "name:en": "Abu George Caf\u00e9"}}, {"type": "way", "id": 1197066280, "nodes": [11107632042, 11107632043, 11107632044, 11107632045, 11107632042], "tags": {"amenity": "cafe", "building": "yes", "name:signed": "no"}}]}