{"version": 0.6, "generator": "Overpass API 0.7.62.7 375dc00a", "osm3s": {"timestamp_osm_base": "2025-06-14T13:18:00Z", "copyright": "The data included in this document is from www.openstreetmap.org. The data is made available under ODbL."}, "elements": [{"type": "node", "id": 3547647634, "lat": 36.3980962, "lon": 5.909144, "tags": {"addr:country": "DZ", "amenity": "cafe", "name": "CAFE MERMOUL MOURAD"}}, {"type": "node", "id": 3547648818, "lat": 36.3981463, "lon": 5.9091199, "tags": {"addr:country": "DZ", "amenity": "restaurant", "name": "Resto", "name:fr": "Resto"}}, {"type": "node", "id": 3547661754, "lat": 36.3984045, "lon": 5.906064, "tags": {"addr:country": "DZ", "amenity": "cafe", "internet_access": "terminal", "name": "CYBER CAFE"}}, {"type": "node", "id": 3547661937, "lat": 36.3984126, "lon": 5.9062565, "tags": {"addr:country": "DZ", "amenity": "cafe"}}, {"type": "node", "id": 3547661994, "lat": 36.3984158, "lon": 5.9061562, "tags": {"addr:country": "DZ", "amenity": "restaurant", "name": "Resto", "name:fr": "Resto"}}, {"type": "node", "id": 3547662167, "lat": 36.3982157, "lon": 5.9057632, "tags": {"addr:country": "DZ", "amenity": "cafe", "name": "cafe sedira"}}, {"type": "node", "id": 3547679004, "lat": 36.3987932, "lon": 5.900104, "tags": {"addr:country": "DZ", "amenity": "cafe", "name": "lebzir"}}, {"type": "node", "id": 3547679006, "lat": 36.3994241, "lon": 5.8981006, "tags": {"addr:country": "DZ", "amenity": "cafe", "name": "\u0645\u0642\u0647\u0649 \u0627\u0644\u062d\u0643\u0648\u0645\u0629", "name:ar": "\u0645\u0642\u0647\u0649 \u0627\u0644\u062d\u0643\u0648\u0645\u0629", "name:fr": "Caf\u00e9 al Houkouma"}}, {"type": "node", "id": 4109805591, "lat": 36.1200798, "lon": 5.9860781, "tags": {"addr:country": "DZ", "amenity": "cafe", "cuisine": "regional", "name": "Caf\u00e9 Gujil Naguib", "name:ar": "\u0645\u0642\u0647\u0649 \u0642\u0648\u062c\u064a\u0644 \u0646\u062c\u064a\u0628", "name:fr": "Caf\u00e9 Gujil Naguib"}}, {"type": "node", "id": 4141200389, "lat": 36.4251645, "lon": 5.8901907, "tags": {"addr:country": "DZ", "amenity": "cafe", "name": "caf\u00e9 De Aimad"}}, {"type": "node", "id": 4382500592, "lat": 36.4064422, "lon": 5.9387264, "tags": {"addr:country": "DZ", "amenity": "cafe"}}, {"type": "node", "id": 4382563394, "lat": 36.4117246, "lon": 5.9405445, "tags": {"addr:country": "DZ", "amenity": "cafe"}}, {"type": "node", "id": 4382575993, "lat": 36.4067378, "lon": 5.9418933, "tags": {"addr:country": "DZ", "amenity": "cafe"}}, {"type": "node", "id": 4513147590, "lat": 36.4070443, "lon": 5.946405, "tags": {"addr:country": "DZ", "amenity": "cafe", "name": "\u0628\u0648\u0637\u0641\u064a\u0633", "name:ar": "\u0628\u0648\u0637\u0641\u064a\u0633", "name:en": "Boutfis", "name:fr": "Caf\u00e9 Boutfis"}}, {"type": "node", "id": 4513502485, "lat": 36.4533706, "lon": 6.048294, "tags": {"addr:country": "DZ", "amenity": "cafe"}}, {"type": "node", "id": 4522719493, "lat": 36.1542481, "lon": 5.682008, "tags": {"addr:country": "DZ", "addr:street": "Route de Djemila", "amenity": "cafe", "name": "Casper", "name:fr": "Casper"}}, {"type": "node", "id": 4522851990, "lat": 36.1554777, "lon": 5.6805578, "tags": {"addr:country": "DZ", "addr:street": "Route de Djemila", "amenity": "cafe", "name:fr": "Caf\u00e9 Beni Hadjras"}}, {"type": "node", "id": 4547496989, "lat": 36.1594518, "lon": 5.6854366, "tags": {"addr:country": "DZ", "amenity": "cafe", "name": "\u0645\u0642\u0647\u064a \u0639\u0645\u064a \u0644\u062e\u0636\u0631", "name:ar": "\u0645\u0642\u0647\u064a \u0639\u0645\u064a \u0644\u062e\u0636\u0631", "name:fr": "Caf\u00e9 Ami lakhdar"}}, {"type": "node", "id": 4565359891, "lat": 36.1582815, "lon": 5.6930988, "tags": {"addr:country": "DZ", "amenity": "cafe", "name": "\u0645\u0642\u0647\u0649 \u0627\u0644\u0635\u0627\u0641\u064a", "name:ar": "\u0645\u0642\u0647\u0649 \u0627\u0644\u0635\u0627\u0641\u064a", "name:fr": "Caf\u00e9 Safi"}}, {"type": "node", "id": 4594496990, "lat": 36.122806, "lon": 5.9779432, "tags": {"addr:country": "DZ", "addr:street": "Voie Rapide El Eulma - Tadjenanet", "amenity": "restaurant", "cuisine": "regional", "internet_access": "wlan", "name": "\u0645\u0637\u0639\u0645 \u0627\u0644\u0631\u062d\u0645\u0629", "name:ar": "\u0645\u0637\u0639\u0645 \u0627\u0644\u0631\u062d\u0645\u0629", "name:fr": "Restaurant Rahma", "opening_hours": "Mo-Su 08:20-23:06"}}, {"type": "node", "id": 4599700592, "lat": 36.4081469, "lon": 5.9420129, "tags": {"addr:country": "DZ", "amenity": "restaurant", "name": "\u0645\u0637\u0639\u0645 \u0641\u0631\u062c\u064a\u0648\u0629 \u0644\u0644\u0634\u0648\u0627\u0621", "name:ar": "\u0645\u0637\u0639\u0645 \u0641\u0631\u062c\u064a\u0648\u0629 \u0644\u0644\u0634\u0648\u0627\u0621", "name:fr": "Restaurant grill Ferdjioua"}}, {"type": "node", "id": 4599712491, "lat": 36.3136005, "lon": 5.926153, "tags": {"addr:country": "DZ", "amenity": "cafe", "name": "\u0645\u0642\u0647\u0649 \u0632\u0627\u0643\u064a", "name:ar": "\u0645\u0642\u0647\u0649 \u0632\u0627\u0643\u064a", "name:fr": "Caf\u00e9 Zaki"}}, {"type": "node", "id": 4599712689, "lat": 36.365021, "lon": 5.9396736, "tags": {"addr:country": "DZ", "amenity": "cafe", "name": "\u0645\u0642\u0647\u0649 \u0648\u0645\u0637\u0639\u0645 \u0627\u0644\u0631\u064a\u0641", "name:ar": "\u0645\u0642\u0647\u0649 \u0648\u0645\u0637\u0639\u0645 \u0627\u0644\u0631\u064a\u0641", "name:fr": "Caf\u00e9 et restaurant Al Reef"}}, {"type": "node", "id": 4730679523, "lat": 36.1185727, "lon": 5.984532, "tags": {"addr:country": "DZ", "amenity": "restaurant", "cuisine": "pizza", "name": "Pizz\u00e9ria", "name:fr": "Pizz\u00e9ria"}}, {"type": "node", "id": 4755415523, "lat": 36.1525279, "lon": 5.6924247, "tags": {"addr:country": "DZ", "amenity": "cafe", "name": "\u0648\u0627\u0641\u0642", "name:ar": "\u0648\u0627\u0641\u0642", "name:fr": "Ouafek"}}, {"type": "node", "id": 4824270423, "lat": 36.2843103, "lon": 5.607671, "tags": {"addr:country": "DZ", "addr:postcode": "19023", "addr:street": "Rue 1er Novembre 1954", "amenity": "cafe", "internet_access": "wlan", "name": "\u0645\u0642\u0647\u0649 \u0627\u0644\u0646\u0635\u0631 \u0633\u062d\u0646\u0648\u0646 \u0639\u064a\u0633\u0649", "name:ar": "\u0645\u0642\u0647\u0649 \u0627\u0644\u0646\u0635\u0631 \u0633\u062d\u0646\u0648\u0646 \u0639\u064a\u0633\u0649", "name:en": "CAF\u00c9 ENNASR SAHNOUNE", "name:fr": "CAF\u00c9 ENNASR SAHNOUNE", "phone": "+21336460351"}}, {"type": "node", "id": 4939664221, "lat": 36.3887512, "lon": 5.7104823, "tags": {"addr:country": "DZ", "amenity": "cafe", "email": "s.salahkhiari19@gmail.com", "name": "SalahKhiari.net", "name:ar": "SalahKhiari.net"}}, {"type": "node", "id": 5001882321, "lat": 36.2838908, "lon": 5.6110227, "tags": {"addr:country": "DZ", "amenity": "cafe", "name": "\u0645\u0642\u0647\u0649 \u0634\u0631\u0641\u0629", "name:ar": "\u0645\u0642\u0647\u0649 \u0634\u0631\u0641\u0629", "name:fr": "CAF\u00c9 CHOURFA"}}, {"type": "node", "id": 5003017021, "lat": 36.1293533, "lon": 5.8387564, "tags": {"addr:country": "DZ", "amenity": "cafe", "name": "\u0645\u0642\u0647\u0649 \u0628\u0646 \u062f\u0627\u062f\u0629", "name:ar": "\u0645\u0642\u0647\u0649 \u0628\u0646 \u062f\u0627\u062f\u0629", "name:fr": "CAF\u00c9 BEN DADA"}}, {"type": "node", "id": 5022784321, "lat": 36.4086567, "lon": 5.9420794, "tags": {"addr:country": "DZ", "addr:postcode": "28043", "amenity": "restaurant", "cuisine": "arab;barbecue", "name": "\u0645\u0634\u0648\u0627\u0629 \u0628\u0631\u064a\u0647\u0645\u0627\u062a", "name:ar": "\u0645\u0634\u0648\u0627\u0629 \u0628\u0631\u064a\u0647\u0645\u0627\u062a", "name:fr": "brihmat pour le brochet", "opening_hours": "Sa-Th 08:00-18:00"}}, {"type": "node", "id": 5104018321, "lat": 36.1493114, "lon": 5.7039583, "tags": {"addr:country": "DZ", "amenity": "cafe", "name": "Cyber Caf\u00e9", "name:en": "Wifi", "name:fr": "Cyber Caf\u00e9"}}, {"type": "node", "id": 5161266121, "lat": 36.1594301, "lon": 5.6857565, "tags": {"addr:country": "DZ", "amenity": "cafe"}}, {"type": "node", "id": 5469094824, "lat": 36.1528541, "lon": 5.6928614, "tags": {"addr:country": "DZ", "amenity": "cafe", "name:fr": "Plastique"}}, {"type": "node", "id": 5488824223, "lat": 36.1565336, "lon": 5.7009923, "tags": {"addr:country": "DZ", "amenity": "cafe"}}, {"type": "node", "id": 5490674821, "lat": 36.1542156, "lon": 5.6866418, "tags": {"addr:country": "DZ", "amenity": "cafe", "name:fr": "Boudjemaa"}}, {"type": "node", "id": 5490674823, "lat": 36.1528281, "lon": 5.6792872, "tags": {"addr:country": "DZ", "amenity": "cafe", "name:fr": "Grid"}}, {"type": "node", "id": 5490674922, "lat": 36.1527131, "lon": 5.6799744, "tags": {"addr:country": "DZ", "amenity": "cafe", "name:fr": "Kebbabi"}}, {"type": "node", "id": 5490674925, "lat": 36.1515695, "lon": 5.6917321, "tags": {"addr:country": "DZ", "amenity": "cafe", "name:fr": "Sadrati"}}, {"type": "node", "id": 5490792221, "lat": 36.1516048, "lon": 5.691335, "tags": {"addr:country": "DZ", "amenity": "restaurant", "name:fr": "Ben dali"}}, {"type": "node", "id": 5490799721, "lat": 36.1515557, "lon": 5.6910932, "tags": {"addr:country": "DZ", "amenity": "cafe", "name:fr": "Souaber"}}, {"type": "node", "id": 5490799821, "lat": 36.1515497, "lon": 5.6911421, "tags": {"addr:country": "DZ", "amenity": "restaurant", "name": "Resto", "name:fr": "Resto"}}, {"type": "node", "id": 5490836821, "lat": 36.156924, "lon": 5.6777278, "tags": {"addr:country": "DZ", "amenity": "cafe", "name:fr": "Radouane"}}, {"type": "node", "id": 5491073422, "lat": 36.1556333, "lon": 5.6671087, "tags": {"addr:country": "DZ", "addr:street": "Cit\u00e9 Bouchareb Mohamed", "amenity": "cafe"}}, {"type": "node", "id": 5491073423, "lat": 36.1567705, "lon": 5.6672123, "tags": {"addr:country": "DZ", "amenity": "cafe", "name": "\u0645\u0642\u0647\u0649 \u0627\u0644\u0645\u0648\u0646\u062f\u0648", "name:ar": "\u0645\u0642\u0647\u0649 \u0627\u0644\u0645\u0648\u0646\u062f\u0648", "name:en": "CAFE D'EL MONDO", "name:fr": "CAFE D'EL MONDO"}}, {"type": "node", "id": 5491219521, "lat": 36.150777, "lon": 5.6975164, "tags": {"addr:country": "DZ", "amenity": "cafe"}}, {"type": "node", "id": 5493228922, "lat": 36.1543182, "lon": 5.6870255, "tags": {"addr:country": "DZ", "addr:street": "Rue Djilani Hocine", "amenity": "cafe", "name:fr": "Caf\u00e9 Belouel"}}, {"type": "node", "id": 5493470733, "lat": 36.1513566, "lon": 5.6970257, "tags": {"addr:country": "DZ", "amenity": "cafe"}}, {"type": "node", "id": 5493481723, "lat": 36.1516375, "lon": 5.6925231, "tags": {"addr:country": "DZ", "amenity": "cafe", "name:fr": "El Marouani"}}, {"type": "node", "id": 5523040139, "lat": 36.4082886, "lon": 5.9519544, "tags": {"addr:country": "DZ", "amenity": "cafe", "name:fr": "Caf\u00e9 elhadj kesikes"}}, {"type": "node", "id": 5553307729, "lat": 36.4079864, "lon": 5.9505693, "tags": {"addr:country": "DZ", "amenity": "cafe", "name:fr": "Caf\u00e9tirya yahya"}}, {"type": "node", "id": 5583162621, "lat": 36.4124263, "lon": 5.9375929, "tags": {"addr:country": "DZ", "amenity": "cafe"}}, {"type": "node", "id": 5590797223, "lat": 36.4129147, "lon": 5.9394926, "tags": {"addr:country": "DZ", "amenity": "cafe"}}, {"type": "node", "id": 5590797224, "lat": 36.4128334, "lon": 5.9391537, "tags": {"addr:country": "DZ", "amenity": "cafe"}}, {"type": "node", "id": 5593343521, "lat": 36.2870403, "lon": 5.6062634, "tags": {"addr:country": "DZ", "amenity": "cafe", "name": "\u0645\u0642\u0647\u0649 \u0627\u0644\u062d\u0627\u062c \u0645\u0648\u0633\u0649", "name:ar": "\u0645\u0642\u0647\u0649 \u0627\u0644\u062d\u0627\u062c \u0645\u0648\u0633\u0649", "name:en": "CAFE EL HADJ MOUSSA", "name:fr": "CAFE EL HADJ MOUSSA"}}, {"type": "node", "id": 5593344821, "lat": 36.2845994, "lon": 5.606775}, {"type": "node", "id": 5691965521, "lat": 36.1432741, "lon": 5.6774915, "tags": {"amenity": "cafe", "name": "\u0645\u0642\u0647\u0649", "name:ar": "\u0645\u0642\u0647\u0649", "name:en": "CAF\u00c9", "name:fr": "CAF\u00c9"}}, {"type": "node", "id": 5825199555, "lat": 36.1225877, "lon": 5.9836767, "tags": {"addr:postcode": "43220", "addr:street": "Cit\u00e9 08 mai 45 combatan", "amenity": "cafe", "cuisine": "cake;ice_cream;coffee_shop", "internet_access": "wlan", "name": "\u0642\u0627\u0639\u0629 \u0627\u0644\u0634\u0627\u064a \u0632\u0639\u0646\u064a", "name:ar": "\u0642\u0627\u0639\u0629 \u0627\u0644\u0634\u0627\u064a \u0632\u0639\u0646\u064a", "name:fr": "Salon de th\u00e9 zaani djamel", "opening_hours": "Mo-Su 07:00-00:00"}}, {"type": "node", "id": 5907291586, "lat": 36.2844879, "lon": 5.6072781, "tags": {"amenity": "restaurant", "name": "\u0645\u0637\u0639\u0645 \u0634\u062e\u0634\u0648\u062e", "name:ar": "\u0645\u0637\u0639\u0645 \u0634\u062e\u0634\u0648\u062e", "name:en": "Restaurant Chekhchoukh", "name:fr": "Restaurant Chekhchoukh"}}, {"type": "node", "id": 5907299287, "lat": 36.2864721, "lon": 5.6092058, "tags": {"amenity": "cafe", "name": "\u0645\u0642\u0647\u0649", "name:ar": "\u0645\u0642\u0647\u0649", "name:en": "CAFE", "name:fr": "CAFE"}}, {"type": "node", "id": 5910098586, "lat": 36.1299187, "lon": 5.8372342, "tags": {"amenity": "restaurant", "name": "\u0645\u0637\u0639\u0645 \u062a\u0642\u0644\u064a\u062f\u064a \u0627\u0644\u0634\u064a\u062e \u0639\u064a\u0633\u0649", "name:ar": "\u0645\u0637\u0639\u0645 \u062a\u0642\u0644\u064a\u062f\u064a \u0627\u0644\u0634\u064a\u062e \u0639\u064a\u0633\u0649", "name:en": "Restaurant Traditionnel Cheikh aissa", "name:fr": "Restaurant Traditionnel Cheikh Issa"}}, {"type": "node", "id": 5922868850, "lat": 36.2845581, "lon": 5.6067829, "tags": {"amenity": "restaurant", "name": "Restaurant BIBECH"}}, {"type": "node", "id": 5926636186, "lat": 36.1301752, "lon": 5.8388237, "tags": {"amenity": "cafe", "name": "\u0645\u0642\u0627\u0647\u064a", "name:ar": "\u0645\u0642\u0627\u0647\u064a", "name:en": "Caf\u00e9", "name:fr": "Caf\u00e9"}}, {"type": "node", "id": 6051320087, "lat": 36.1220391, "lon": 5.6728869, "tags": {"amenity": "cafe", "cuisine": "coffee_shop", "name": "caf\u00e9 spong bob \u0645\u0642\u0647\u0649 \u0627\u0644\u0628\u0648\u0627\u0633\u062d\u0629", "name:fr": "Caf\u00e9 Bouassiha", "opening_hours": "Mo-Su 06:00-22:00"}}, {"type": "node", "id": 6157358085, "lat": 36.3608172, "lon": 5.960852, "tags": {"addr:street": "\u0637\u0631\u0645\u064a\u0644", "amenity": "cafe", "cuisine": "burger;sandwich;ice_cream;coffee_shop", "name": "\u0643\u0627\u0641\u064a\u062a\u064a\u0631\u064a\u0627 \u0646\u0628\u064a\u0644", "name:ar": "\u0643\u0627\u0641\u064a\u062a\u064a\u0631\u064a\u0627 \u0646\u0628\u064a\u0644", "name:en": "caf\u00e9t\u00e9ria nabile", "name:fr": "caf\u00e9t\u00e9ria nabile", "opening_hours": "24/7", "phone": "0667003572"}}, {"type": "node", "id": 6404091285, "lat": 36.3141478, "lon": 5.7364659, "tags": {"amenity": "restaurant", "name": "Resto", "name:fr": "Resto"}}, {"type": "node", "id": 7280369230, "lat": 36.1519686, "lon": 5.6931496, "tags": {"amenity": "cafe", "name": "Caf\u00e9 Rachid Kaza"}}, {"type": "node", "id": 9920119317, "lat": 36.2862302, "lon": 5.6101265, "tags": {"amenity": "cafe", "name": "\u0645\u0642\u0647\u0649 08 \u0645\u0627\u064a 1945", "name:en": "Caf\u00e9 08 mais 1945", "name:fr": "Caf\u00e9 08 mais 1945"}}, {"type": "node", "id": 11109881073, "lat": 36.2844635, "lon": 5.6065045}, {"type": "node", "id": 11109894264, "lat": 36.2846572, "lon": 5.6066072}, {"type": "node", "id": 11109908701, "lat": 36.2844056, "lon": 5.6066723}, {"type": "way", "id": 1197406496, "nodes": [5593344821, 11109894264, 11109881073, 11109908701, 5593344821], "tags": {"addr:country": "DZ", "amenity": "cafe", "building": "yes", "name": "\u0645\u0642\u0647\u0649", "name:ar": "\u0645\u0642\u0647\u0649", "name:en": "CAFE", "name:fr": "CAFE", "source": "microsoft/BuildingFootprints"}}]}