{"version": 0.6, "generator": "Overpass API 0.7.62.7 375dc00a", "osm3s": {"timestamp_osm_base": "2025-06-14T13:57:32Z", "copyright": "The data included in this document is from www.openstreetmap.org. The data is made available under ODbL."}, "elements": [{"type": "node", "id": 309296263, "lat": 40.857052, "lon": 15.831718, "tags": {"amenity": "restaurant", "name": "Agritur Il Malandrino"}}, {"type": "node", "id": 309296265, "lat": 40.864802, "lon": 15.8448055, "tags": {"addr:city": "Forenza", "addr:postcode": "85023", "amenity": "restaurant", "cuisine": "italian", "name": "Agriturismo Monte Armenia", "smoking": "outside"}}, {"type": "node", "id": 318882206, "lat": 40.6436082, "lon": 16.0480596, "tags": {"amenity": "restaurant", "name": "Ristorante Pizzeria Il Rifugio"}}, {"type": "node", "id": 394953450, "lat": 40.5474626, "lon": 16.0811852, "tags": {"amenity": "restaurant"}}, {"type": "node", "id": 534580319, "lat": 40.5243554, "lon": 15.7841469, "tags": {"amenity": "restaurant", "name": "Agriturismo Il nido del Falco"}}, {"type": "node", "id": 897961170, "lat": 40.646897, "lon": 15.8599768, "tags": {"addr:city": "Potenza", "amenity": "cafe", "name": "Drink Bar", "operator": "Vito Palladino"}}, {"type": "node", "id": 898136464, "lat": 40.6966039, "lon": 16.0191753, "tags": {"addr:city": "Tolve", "addr:housenumber": "20", "addr:postcode": "85017", "addr:street": "Corso Vittorio Emanuele", "amenity": "cafe", "name": "Bar Colosseo", "operator": "Carmela Moles"}}, {"type": "node", "id": 898250127, "lat": 40.742121, "lon": 16.2445919, "tags": {"addr:city": "Irsina", "addr:country": "IT", "addr:housenumber": "6", "addr:street": "Piazza Garibaldi", "amenity": "restaurant", "contact:phone": "+39 0835 628180", "name": "Trattoria Nugent", "operator": "Tarantino Mario e Demuro Maria"}}, {"type": "node", "id": 916697033, "lat": 40.6844723, "lon": 15.886887, "tags": {"amenity": "restaurant", "description": "http://www.dimoracavalieri.it/La_Dimora_dei_Cavalieri/Link.html", "name": "La Dimora dei Cavalieri"}}, {"type": "node", "id": 1840103061, "lat": 40.5632506, "lon": 16.0754376, "tags": {"amenity": "restaurant", "cuisine": "italian", "name": "Ippoturismo"}}, {"type": "node", "id": 1850607183, "lat": 40.4848304, "lon": 15.7115474, "tags": {"amenity": "restaurant"}}, {"type": "node", "id": 2217393443, "lat": 40.6296493, "lon": 15.7921946, "tags": {"amenity": "cafe"}}, {"type": "node", "id": 2229843165, "lat": 40.578613, "lon": 15.734428, "tags": {"amenity": "restaurant", "name": "La fattoria sotto il cielo"}}, {"type": "node", "id": 2229847250, "lat": 40.5075863, "lon": 15.7648705, "tags": {"amenity": "restaurant", "name": "Ristorante La Baita"}}, {"type": "node", "id": 2244845414, "lat": 40.5623974, "lon": 16.0458604, "tags": {"amenity": "restaurant", "name": "La Grotta dell'Eremita"}}, {"type": "node", "id": 2246690765, "lat": 40.6433055, "lon": 15.8233838, "tags": {"addr:city": "Potenza", "addr:postcode": "85100", "addr:street": "Via San Vincenzo De Paoli", "amenity": "restaurant", "contact:facebook": "https://www.facebook.com/artrestaurantpz/", "cuisine": "italian", "name": "Art Restaurant", "phone": "+39 0971 35834"}}, {"type": "node", "id": 2264411587, "lat": 40.6380497, "lon": 15.8023037, "tags": {"air_conditioning": "yes", "amenity": "cafe", "indoor_seating": "yes", "name": "Gran Caff\u00e8 Italia", "outdoor_seating": "no", "wheelchair": "yes"}}, {"type": "node", "id": 2264440274, "lat": 40.6403622, "lon": 15.7772527, "tags": {"addr:city": "Potenza", "addr:postcode": "85100", "addr:street": "Via del Seminario Maggiore", "amenity": "restaurant", "cuisine": "pizza", "name": "Fratelli La Bufala", "opening_hours": "18:30-23:45; 10:30-16:00", "phone": "+39 09711800726", "website": "https://www.fratellilabufala.eu/"}}, {"type": "node", "id": 2512751261, "lat": 40.6052712, "lon": 15.6912769, "tags": {"amenity": "restaurant", "name": "Cargallo"}}, {"type": "node", "id": 2512763248, "lat": 40.5814237, "lon": 15.676811, "tags": {"addr:city": "Tito", "addr:housenumber": "161", "addr:postcode": "85050", "addr:street": "Via Roma", "amenity": "restaurant", "cuisine": "italian;fast_food;pizza", "name": "Be happy social pub", "takeaway": "no"}}, {"type": "node", "id": 2512789565, "lat": 40.6063366, "lon": 15.6974838, "tags": {"amenity": "restaurant", "name": "Sole Luna"}}, {"type": "node", "id": 2513424919, "lat": 40.5850736, "lon": 15.6755218, "tags": {"addr:city": "Tito", "addr:postcode": "85050", "addr:street": "Via San Vito", "amenity": "restaurant", "cuisine": "pizza", "name": "Pizzeria Ascenedda", "outdoor_seating": "yes"}}, {"type": "node", "id": 2513424920, "lat": 40.5870689, "lon": 15.677786, "tags": {"amenity": "restaurant", "cuisine": "pizza"}}, {"type": "node", "id": 2513429909, "lat": 40.581225, "lon": 15.6758412, "tags": {"amenity": "restaurant", "cuisine": "pizza"}}, {"type": "node", "id": 2513434730, "lat": 40.5878802, "lon": 15.6858892, "tags": {"amenity": "restaurant", "name": "Azienda Agrituristica Santa Venere"}}, {"type": "node", "id": 2517198438, "lat": 40.5721703, "lon": 15.6815107, "tags": {"amenity": "restaurant", "name": "Mephitis"}}, {"type": "node", "id": 2640109390, "lat": 40.5731395, "lon": 15.7807684}, {"type": "node", "id": 2640109413, "lat": 40.5730932, "lon": 15.7810345}, {"type": "node", "id": 2640109416, "lat": 40.5730979, "lon": 15.7810313}, {"type": "node", "id": 2640109419, "lat": 40.5731541, "lon": 15.7810408}, {"type": "node", "id": 2640109423, "lat": 40.5732888, "lon": 15.781075}, {"type": "node", "id": 2640117100, "lat": 40.5733238, "lon": 15.7808197}, {"type": "node", "id": 2688309734, "lat": 40.576613, "lon": 15.7788651, "tags": {"amenity": "restaurant", "cuisine": "italian", "microbrewery": "no", "name": "Ristorante Pizzeria Le fiamme", "phone": "+39 0971 421440", "smoking": "separated", "website": "https://www.lefiamme.it/", "wheelchair": "yes"}}, {"type": "node", "id": 2808484391, "lat": 40.5190619, "lon": 16.0630062, "tags": {"amenity": "cafe"}}, {"type": "node", "id": 3154826758, "lat": 40.5305714, "lon": 16.0463791, "tags": {"amenity": "restaurant", "name": "trattoria \"Al Vecchio Scarpone\""}}, {"type": "node", "id": 3163044108, "lat": 40.5626946, "lon": 16.0130809}, {"type": "node", "id": 3163044109, "lat": 40.5627191, "lon": 16.0132501}, {"type": "node", "id": 3163044110, "lat": 40.56279, "lon": 16.0132323}, {"type": "node", "id": 3163044111, "lat": 40.5628002, "lon": 16.0133023}, {"type": "node", "id": 3163044112, "lat": 40.5629323, "lon": 16.0132691}, {"type": "node", "id": 3163044113, "lat": 40.562909, "lon": 16.0131084}, {"type": "node", "id": 3163044114, "lat": 40.5628502, "lon": 16.0131232}, {"type": "node", "id": 3163044115, "lat": 40.5628388, "lon": 16.0130447}, {"type": "node", "id": 3213292479, "lat": 40.8355017, "lon": 15.9060394, "tags": {"amenity": "restaurant", "cuisine": "italian", "diet:gluten_free": "yes", "name": "Masserie Del Falco", "wheelchair": "yes"}}, {"type": "node", "id": 3213319447, "lat": 40.8528395, "lon": 15.8684793, "tags": {"amenity": "restaurant", "cuisine": "italian", "name": "Agriturismo SERRA GIARDINO"}}, {"type": "node", "id": 3213399294, "lat": 40.8594481, "lon": 15.8555538, "tags": {"amenity": "cafe", "cuisine": "italian", "name": "Gran Caffe'", "wifi": "no"}}, {"type": "node", "id": 3553574576, "lat": 40.6784329, "lon": 15.8362265}, {"type": "node", "id": 3553574582, "lat": 40.6784584, "lon": 15.8364767}, {"type": "node", "id": 3553574809, "lat": 40.6785713, "lon": 15.836202}, {"type": "node", "id": 3553574814, "lat": 40.6785971, "lon": 15.8364521}, {"type": "node", "id": 3583625384, "lat": 40.6453011, "lon": 15.803387, "tags": {"addr:city": "Potenza", "addr:housenumber": "23", "addr:postcode": "85100", "addr:street": "Via Sicilia", "amenity": "restaurant", "contact:facebook": "https://www.facebook.com/ilpizzicottopz/", "name": "Il Pizzicotto", "phone": "+39 0971 25508", "wheelchair": "yes"}}, {"type": "node", "id": 3583755377, "lat": 40.632551, "lon": 15.804581, "tags": {"addr:city": "Potenza", "addr:housenumber": "233", "addr:postcode": "85100", "addr:street": "Viale Guglielmo Marconi", "amenity": "restaurant", "cuisine": "italian", "name": "Antica Osteria Marconi", "phone": "+39 0971 56900"}}, {"type": "node", "id": 3583755378, "lat": 40.6324821, "lon": 15.7802285, "tags": {"addr:city": "Potenza", "addr:housenumber": "386", "addr:postcode": "85100", "addr:street": "Contrada Valle Paradiso", "amenity": "restaurant", "name": "C'era una volta", "phone": "+39 0971 601217", "website": "http://www.ceraunavoltapotenza.it/"}}, {"type": "node", "id": 3583755381, "lat": 40.638575, "lon": 15.800915, "tags": {"addr:city": "Potenza", "addr:housenumber": "34", "addr:postcode": "85100", "addr:street": "Via IV Novembre", "amenity": "restaurant", "cuisine": "italian", "name": "Ristorante Fuori Le Mura Srl", "phone": "+39 0971 25409", "smoking": "outside"}}, {"type": "node", "id": 3583755382, "lat": 40.6394772, "lon": 15.8047203, "tags": {"addr:city": "Potenza", "addr:housenumber": "1", "addr:postcode": "85100", "addr:street": "Via Due Torri", "amenity": "restaurant", "cuisine": "italian", "name": "Ristorante La Tettoia", "phone": "+39 0971 24123", "smoking": "outside", "website": "http://www.ristorantelatettoia.it/"}}, {"type": "node", "id": 3583755383, "lat": 40.6532272, "lon": 15.8189848, "tags": {"addr:city": "Potenza", "addr:postcode": "85100", "addr:street": "Via Giovanni XXIII", "amenity": "restaurant", "name": "Singapore Sling wine bar", "phone": "+39 0971 418112", "website": "http://www.singaporesling.eu/"}}, {"type": "node", "id": 3583755384, "lat": 40.6383268, "lon": 15.8044775, "tags": {"addr:city": "Potenza", "addr:housenumber": "115", "addr:postcode": "85100", "addr:street": "Via del Popolo", "amenity": "restaurant", "name": "Sottapera S.R.L.", "phone": "+39 0971 37151", "wheelchair": "no"}}, {"type": "node", "id": 3583755385, "lat": 40.638406, "lon": 15.8360917, "tags": {"addr:city": "Potenza", "addr:postcode": "85100", "addr:street": "Contrada Bucaletto", "amenity": "restaurant", "cuisine": "italian", "name": "Trattoria Triminiedd Srl", "phone": "+39 097155746"}}, {"type": "node", "id": 3583755386, "lat": 40.657836, "lon": 15.799176, "tags": {"amenity": "restaurant", "name": "Trattoria Zi Mingo"}}, {"type": "node", "id": 3583756647, "lat": 40.6325451, "lon": 15.8040434, "tags": {"addr:city": "Potenza", "addr:housenumber": "134", "addr:postcode": "85100", "addr:street": "Viale Guglielmo Marconi", "amenity": "restaurant", "contact:phone": "+39 0971 57993", "contact:website": "https://www.animaepolpa.it", "cuisine": "pizza", "name": "Anima e Polpa - Pizzeria al metro"}}, {"type": "node", "id": 3583842003, "lat": 40.6399228, "lon": 15.7789147, "tags": {"addr:city": "Potenza", "addr:housenumber": "5", "addr:postcode": "85100", "addr:street": "Contrada Dragonara", "amenity": "restaurant", "cuisine": "italian", "name": "Redibis Di Izzo Salvatore & C.", "phone": "+39 0971 51376"}}, {"type": "node", "id": 3583842004, "lat": 40.639957, "lon": 15.804565, "tags": {"addr:city": "Potenza", "addr:housenumber": "32", "addr:postcode": "85100", "amenity": "restaurant", "name": "Ristorante Monticchio", "phone": "+39 0971 24880"}}, {"type": "node", "id": 3583842005, "lat": 40.63666, "lon": 15.79983, "tags": {"addr:city": "Potenza", "addr:housenumber": "2", "addr:postcode": "85100", "addr:street": "Via Orazio Flacco", "amenity": "restaurant", "cuisine": "italian", "name": "Ristorante Taverna Oraziana Di Teresa De Pierro E C. Sas", "phone": "+39 0971 273233"}}, {"type": "node", "id": 3583842006, "lat": 40.637415, "lon": 15.8000408, "tags": {"addr:city": "Potenza", "addr:housenumber": "20", "addr:postcode": "85100", "addr:street": "Via Achille Rosica", "amenity": "restaurant", "name": "Ristorante da Mim\u00ec", "phone": "+39 0971 1940196"}}, {"type": "node", "id": 3583842007, "lat": 40.6311829, "lon": 15.8032934, "tags": {"addr:city": "Potenza", "addr:housenumber": "210-212", "addr:postcode": "85100", "addr:street": "Via Nicola Vaccaro", "amenity": "restaurant", "indoor_seating": "yes", "name": "Trattoria Da Mimmo Il Ciclista", "outdoor_seating": "no", "phone": "+39 0971 54840", "website": "https://www.facebook.com/Trattoriadalciclista/", "wheelchair": "yes"}}, {"type": "node", "id": 3583842008, "lat": 40.642518, "lon": 15.828339, "tags": {"addr:city": "Potenza", "addr:housenumber": "198", "addr:postcode": "85100", "addr:street": "Via Appia", "amenity": "restaurant", "name": "Trattoria Isuccio", "phone": "+39 0971 59029"}}, {"type": "node", "id": 3583842009, "lat": 40.6458681, "lon": 15.7992794, "tags": {"addr:city": "Potenza", "addr:postcode": "85100", "amenity": "restaurant", "cuisine": "italian", "name": "Trattoria Sarricchio Di Gentile Generoso", "phone": "+39 0971 444072", "wheelchair": "no"}}, {"type": "node", "id": 3585369323, "lat": 40.6517804, "lon": 15.834389, "tags": {"addr:city": "Potenza", "addr:postcode": "85100", "addr:street": "Contrada Costa Della Gaveta", "amenity": "restaurant", "name": "Duepi S.A.S. Di Rossella Dipino & C.", "phone": "+39 0971 493632"}}, {"type": "node", "id": 3585369324, "lat": 40.6395186, "lon": 15.8057612, "tags": {"addr:city": "Potenza", "addr:housenumber": "1", "addr:postcode": "85100", "addr:street": "Largo Pignatari", "amenity": "restaurant", "cuisine": "italian", "name": "Il Peperoncino Srl", "phone": "+39 0971 34118"}}, {"type": "node", "id": 3585369325, "lat": 40.643034, "lon": 15.7856255, "tags": {"addr:city": "Potenza", "addr:postcode": "85100", "addr:street": "Via Parigi", "amenity": "restaurant", "cuisine": "italian", "name": "Mister Tagliata Di Antonio Rocco De Rosa", "phone": "+39 0971 469087"}}, {"type": "node", "id": 3585369326, "lat": 40.640345, "lon": 15.8055135, "tags": {"addr:city": "Potenza", "addr:housenumber": "3/5", "addr:postcode": "85100", "addr:street": "Via Manhes", "amenity": "restaurant", "cuisine": "pizza", "name": "Pizza House", "opening_hours": "13:00-15:00; 19:30-24:00", "operator": "Corvino Antonio", "phone": "+39 0971 36649"}}, {"type": "node", "id": 3585369327, "lat": 40.6465845, "lon": 15.8275978, "tags": {"addr:city": "Potenza", "addr:housenumber": "155", "addr:postcode": "85100", "addr:street": "Via Giovanni XXIII", "amenity": "restaurant", "cuisine": "pizza", "name": "Pizzeria - Bar la Frasca", "phone": "+39 0971 36947", "website": "https://www.pizzerialafrasca.it/"}}, {"type": "node", "id": 3585369328, "lat": 40.6353157, "lon": 15.8045524, "tags": {"addr:city": "Potenza", "addr:housenumber": "1-3", "addr:postcode": "85100", "addr:street": "Via Alfredo Viviani", "amenity": "restaurant", "cuisine": "pizza", "indoor_seating": "yes", "name": "Casarsa", "outdoor_seating": "yes", "phone": "+39 0971 56022", "takeaway": "yes", "wheelchair": "yes"}}, {"type": "node", "id": 3585369330, "lat": 40.6408951, "lon": 15.7898773, "tags": {"addr:city": "Potenza", "addr:housenumber": "75/81", "addr:postcode": "85100", "addr:street": "Via Unit\u00e0 d'Italia", "amenity": "restaurant", "cuisine": "italian", "name": "Re Gallo", "opening_hours": "12:30-14:30,19:30-24:00", "phone": "+39 0971 445489", "website": "https://www.regallo.it/"}}, {"type": "node", "id": 3585369331, "lat": 40.6298176, "lon": 15.8046925, "tags": {"addr:city": "Potenza", "addr:housenumber": "192", "addr:postcode": "85100", "addr:street": "Viale Guglielmo Marconi", "amenity": "restaurant", "cuisine": "pizza", "name": "Ristorante Pizzeria Valentino", "phone": "+39 0971 57298"}}, {"type": "node", "id": 3585501695, "lat": 40.631743, "lon": 15.8114843, "tags": {"addr:city": "Potenza", "addr:postcode": "85100", "addr:street": "Viale del Basento", "amenity": "restaurant", "cuisine": "italian", "name": "Lo Spuntino", "phone": "+39 0971 476418"}}, {"type": "node", "id": 3585501698, "lat": 40.639673, "lon": 15.802046, "tags": {"addr:city": "Potenza", "addr:housenumber": "103", "addr:postcode": "85100", "addr:street": "Via Giuseppe Mazzini", "amenity": "restaurant", "cuisine": "pizza", "name": "Pizza Taxi S.R.L.", "phone": "+39 0971 410101", "takeaway": "yes", "website": "http://www.pizzataxipotenza.it/", "wheelchair": "yes"}}, {"type": "node", "id": 3585501699, "lat": 40.6424738, "lon": 15.8084691, "tags": {"addr:city": "Potenza", "addr:postcode": "85100", "addr:street": "Via Cavour", "amenity": "restaurant", "cuisine": "pizza", "delivery": "no", "name": "Pizzeria Sapori In Corso Potenza", "phone": "+39 0971 25224", "takeaway": "yes", "website": "http://www.saporiincorso.it/"}}, {"type": "node", "id": 3585501700, "lat": 40.6413842, "lon": 15.7754856, "tags": {"addr:city": "Potenza", "addr:postcode": "85100", "addr:street": "Via del Seminario Maggiore", "amenity": "restaurant", "cuisine": "italian", "name": "Ristorante Il Cortile", "phone": "+39 0971 59324", "website": "http://www.ristoranteilcortile.com/"}}, {"type": "node", "id": 3585501701, "lat": 40.6335973, "lon": 15.8230101, "tags": {"addr:city": "Potenza", "addr:housenumber": "10", "addr:postcode": "85100", "addr:street": "Via Della Elettronica", "amenity": "restaurant", "name": "Ristorante Pizzeria I Briganti", "phone": "+39 0971 473212", "website": "www.ibriganti2013.it"}}, {"type": "node", "id": 3585615667, "lat": 40.6096823, "lon": 15.8148351, "tags": {"amenity": "restaurant", "name": "Al Cavallino Rosso Di Criscuolo Iolanda & C. S.N.C."}}, {"type": "node", "id": 3585615668, "lat": 40.64334, "lon": 15.82454, "tags": {"amenity": "restaurant", "name": "Gemelli Diversi Snc"}}, {"type": "node", "id": 3585615669, "lat": 40.6566952, "lon": 15.8000531, "tags": {"amenity": "restaurant", "name": "Genovese Camillo S.R.L."}}, {"type": "node", "id": 3585615671, "lat": 40.637514, "lon": 15.821891, "tags": {"addr:city": "Potenza", "addr:housenumber": "44", "addr:postcode": "85100", "addr:street": "Via Ponte Nove Luci", "amenity": "restaurant", "contact:phone": "+39 0971 1563581", "contact:website": "https://www.lefolliedellochef.com/", "cuisine": "italian", "name": "Le follie dello chef"}}, {"type": "node", "id": 3585615672, "lat": 40.64528, "lon": 15.8036139, "tags": {"addr:city": "Potenza", "addr:postcode": "85100", "addr:street": "Via Sicilia", "amenity": "restaurant", "cuisine": "pizza", "name": "Pizz Stop", "phone": "+39 0971 1932801", "takeaway": "yes"}}, {"type": "node", "id": 3585615673, "lat": 40.6351782, "lon": 15.8042391, "tags": {"addr:city": "Potenza", "addr:postcode": "85100", "addr:street": "Via Alfredo Viviani", "amenity": "restaurant", "cuisine": "pizza", "indoor_seating": "yes", "name": "Pizzeria \"La Bella Napoli\"", "outdoor_seating": "yes", "phone": "+39 0971 1800403", "wheelchair": "yes"}}, {"type": "node", "id": 3585615674, "lat": 40.646884, "lon": 15.859948, "tags": {"amenity": "restaurant", "name": "Ristorante \"La Trattoria\" di Palladino Vincenzo"}}, {"type": "node", "id": 3654402424, "lat": 40.6581176, "lon": 15.8046838, "tags": {"amenity": "cafe"}}, {"type": "node", "id": 3930083039, "lat": 40.6235846, "lon": 16.1448435, "tags": {"amenity": "restaurant"}}, {"type": "node", "id": 3933522566, "lat": 40.6188561, "lon": 16.1454085, "tags": {"amenity": "restaurant", "cuisine": "italian", "name": "La Fontana Vecchia"}}, {"type": "node", "id": 3945846715, "lat": 40.7480889, "lon": 15.8788016, "tags": {"amenity": "restaurant", "cuisine": "pizza", "name": "Pizzeria \"La Posada\""}}, {"type": "node", "id": 3955071634, "lat": 40.6197785, "lon": 16.1480251, "tags": {"amenity": "restaurant"}}, {"type": "node", "id": 3957871557, "lat": 40.6406757, "lon": 16.0604172}, {"type": "node", "id": 3957871558, "lat": 40.6407234, "lon": 16.0605098}, {"type": "node", "id": 3957871559, "lat": 40.6404787, "lon": 16.0607287}, {"type": "node", "id": 3957871560, "lat": 40.640431, "lon": 16.0606361}, {"type": "node", "id": 3957871561, "lat": 40.6402998, "lon": 16.061864}, {"type": "node", "id": 3957871562, "lat": 40.6403235, "lon": 16.0622675}, {"type": "node", "id": 3957871563, "lat": 40.6401917, "lon": 16.0622809}, {"type": "node", "id": 3957871564, "lat": 40.6401751, "lon": 16.061996}, {"type": "node", "id": 3957871565, "lat": 40.6402389, "lon": 16.0619895}, {"type": "node", "id": 3957871566, "lat": 40.6402319, "lon": 16.0618709}, {"type": "node", "id": 4317601870, "lat": 40.7582057, "lon": 15.7922367, "tags": {"amenity": "restaurant", "name": "Lost in Dreams"}}, {"type": "node", "id": 4319878856, "lat": 40.5186736, "lon": 16.0610351, "tags": {"amenity": "restaurant", "name": "La Locanda di Pietra"}}, {"type": "node", "id": 4366604890, "lat": 40.8045597, "lon": 15.7330872, "tags": {"amenity": "cafe", "name": "Caff\u00e8 Doria"}}, {"type": "node", "id": 4418554080, "lat": 40.6427536, "lon": 15.8280228, "tags": {"addr:housenumber": "198", "addr:street": "Via Appia", "amenity": "restaurant", "name": "Da Isuccio"}}, {"type": "node", "id": 4473358497, "lat": 40.5192141, "lon": 16.0612996, "tags": {"amenity": "restaurant", "name": "Alberto Il Frantoio"}}, {"type": "node", "id": 4498933192, "lat": 40.6496711, "lon": 15.7954638, "tags": {"addr:city": "Potenza", "addr:housenumber": "1", "addr:postcode": "85100", "addr:street": "Via Domenico Di Giura", "amenity": "restaurant", "contact:phone": "+39 0971 441939", "cuisine": "pizza", "name": "Aladin", "wheelchair": "no"}}, {"type": "node", "id": 4503816689, "lat": 40.6314077, "lon": 15.8023149, "tags": {"addr:city": "Potenza", "addr:postcode": "85100", "addr:province": "Potenza", "addr:street": "Via Edera", "amenity": "restaurant", "contact:phone": "+39 0971 57395", "name": "Centola"}}, {"type": "node", "id": 4731921121, "lat": 40.624553, "lon": 15.792647, "tags": {"addr:city": "Potenza", "addr:postcode": "85100", "addr:province": "Potenza", "addr:street": "Via Centomani", "amenity": "restaurant", "name": "Tre Mari", "phone": "+39 0971 56030"}}, {"type": "node", "id": 4731950023, "lat": 40.628175, "lon": 15.805694, "tags": {"addr:city": "Potenza", "addr:postcode": "85100", "addr:province": "Potenza", "addr:street": "Viale del Basento", "amenity": "restaurant", "name": "Lo Spuntino", "phone": "+39 0971 478418"}}, {"type": "node", "id": 4731960450, "lat": 40.631803, "lon": 15.812636, "tags": {"addr:city": "Potenza", "addr:housenumber": "117", "addr:postcode": "85100", "addr:province": "Potenza", "addr:street": "Via della Chimica", "air_conditioning": "yes", "amenity": "restaurant", "contact:phone": "+39 097155560", "contact:website": "http://tavernaludwig.it", "indoor_seating": "yes", "name": "Taverna Ludwig", "outdoor_seating": "yes", "wheelchair": "yes"}}, {"type": "node", "id": 4860373221, "lat": 40.623878, "lon": 15.798742, "tags": {"addr:city": "Case Pace", "addr:postcode": "85100", "addr:province": "Potenza", "addr:street": "Via della Tecnica", "amenity": "restaurant", "name": "Cuore e Tradizione"}}, {"type": "node", "id": 4881976123, "lat": 40.658749, "lon": 15.791419, "tags": {"addr:city": "Potenza", "addr:housenumber": "16", "addr:postcode": "85100", "addr:province": "Potenza", "addr:street": "Contrada Botte", "amenity": "restaurant", "contact:phone": "+39 0971 445313", "contact:website": "http://www.ristorantelaroulette.it", "name": "Ristorante la Roulette"}}, {"type": "node", "id": 4914717430, "lat": 40.6382541, "lon": 15.8357673, "tags": {"amenity": "restaurant", "cuisine": "pizza", "name": "Pizzeria \"Smile\"", "takeaway": "yes"}}, {"type": "node", "id": 4934322087, "lat": 40.6356291, "lon": 15.784065, "tags": {"addr:city": "Potenza", "addr:housenumber": "33", "addr:postcode": "85100", "addr:street": "Via Isca del Pioppo", "amenity": "restaurant", "name": "Il Posticino"}}, {"type": "node", "id": 4937085238, "lat": 40.7420445, "lon": 15.7979278}, {"type": "node", "id": 4937085239, "lat": 40.7420155, "lon": 15.7979971}, {"type": "node", "id": 4937085240, "lat": 40.7419135, "lon": 15.7979228}, {"type": "node", "id": 4937085241, "lat": 40.7419425, "lon": 15.7978535}, {"type": "node", "id": 4959751676, "lat": 40.6387638, "lon": 15.7845796, "tags": {"addr:city": "Potenza", "addr:housenumber": "17", "addr:postcode": "85100", "addr:street": "Via Vincenzo Verrastro", "amenity": "restaurant", "name": "Shibumi Sushibar & Ristorante Giapponese Potenza"}}, {"type": "node", "id": 5053344522, "lat": 40.642793, "lon": 15.789947, "tags": {"addr:city": "Potenza", "addr:housenumber": "47", "addr:postcode": "85100", "addr:province": "Potenza", "addr:street": "Piazza della Costituzione Italiana", "amenity": "restaurant", "cuisine": "pizza", "name": "Pizza Co"}}, {"type": "node", "id": 5053420821, "lat": 40.64278, "lon": 15.790554, "tags": {"addr:city": "Potenza", "addr:housenumber": "44", "addr:postcode": "85100", "addr:province": "Potenza", "addr:street": "Piazza della Costituzione Italiana", "amenity": "restaurant", "name": "Cib\u00f3"}}, {"type": "node", "id": 5109721121, "lat": 40.636833, "lon": 15.803986, "tags": {"addr:city": "Potenza", "addr:postcode": "85100", "addr:province": "Potenza", "addr:street": "Viale Dante", "amenity": "restaurant", "name": "Dove c \u00e8 gusto"}}, {"type": "node", "id": 5285632187, "lat": 40.7628092, "lon": 15.9816764}, {"type": "node", "id": 5285632188, "lat": 40.7627156, "lon": 15.9815366}, {"type": "node", "id": 5285632189, "lat": 40.7626586, "lon": 15.9815044}, {"type": "node", "id": 5285632190, "lat": 40.7626586, "lon": 15.9814184}, {"type": "node", "id": 5285632191, "lat": 40.7625853, "lon": 15.9813216}, {"type": "node", "id": 5285632192, "lat": 40.7624713, "lon": 15.9812786}, {"type": "node", "id": 5285632193, "lat": 40.762398, "lon": 15.9813861}, {"type": "node", "id": 5285632194, "lat": 40.7623858, "lon": 15.9815581}, {"type": "node", "id": 5285632195, "lat": 40.762626, "lon": 15.9819022}, {"type": "node", "id": 5369986078, "lat": 40.6421387, "lon": 15.799085, "tags": {"addr:city": "Potenza", "addr:postcode": "85100", "addr:street": "Via Palmanova", "amenity": "cafe", "cuisine": "pizza", "name": "Fondovalle Caf\u00e8"}}, {"type": "node", "id": 5468828760, "lat": 40.6375579, "lon": 15.8008249, "tags": {"addr:city": "Potenza", "addr:postcode": "85100", "addr:street": "Vicolo San Michele Arcangelo", "amenity": "restaurant", "name": "Al convento bb"}}, {"type": "node", "id": 5468908582, "lat": 40.6379082, "lon": 15.802217, "tags": {"addr:city": "Potenza", "addr:postcode": "85100", "addr:street": "Via Orazio Petruccelli", "amenity": "restaurant", "name": "sultan"}}, {"type": "node", "id": 5599667522, "lat": 40.8318496, "lon": 15.7157063, "tags": {"addr:city": "Rionero in Vulture", "addr:street": "parcheggio stazione ferroviaria", "amenity": "cafe", "name": "bar white statiom", "toilets:wheelchair": "no", "wheelchair": "yes"}}, {"type": "node", "id": 5600218975, "lat": 40.6568332, "lon": 15.801812}, {"type": "node", "id": 5600218976, "lat": 40.6567748, "lon": 15.8015446}, {"type": "node", "id": 5600218977, "lat": 40.656521, "lon": 15.8015639}, {"type": "node", "id": 5600218978, "lat": 40.6564495, "lon": 15.801935}, {"type": "node", "id": 5600218979, "lat": 40.6567836, "lon": 15.8020523}, {"type": "node", "id": 5600321434, "lat": 40.772452, "lon": 15.7612919}, {"type": "node", "id": 5600321435, "lat": 40.7724509, "lon": 15.7614006}, {"type": "node", "id": 5600321436, "lat": 40.772591, "lon": 15.7614031}, {"type": "node", "id": 5600321437, "lat": 40.7725921, "lon": 15.7612944}, {"type": "node", "id": 5732059440, "lat": 40.5175791, "lon": 16.0618349, "tags": {"amenity": "restaurant", "name": "Le Rocce"}}, {"type": "node", "id": 5868251193, "lat": 40.6294858, "lon": 15.8065573, "tags": {"amenity": "cafe", "name": "Caffe della Stazione", "name:en": "Central station caffe", "name:it": "Caffe della Stazione", "name:ru": "\u041a\u0430\u0444\u0435 \u043d\u0430 \u0446\u0435\u043d\u0442\u0440\u0430\u043b\u044c\u043d\u043e\u043c \u0432\u043e\u043a\u0437\u0430\u043b\u0435"}}, {"type": "node", "id": 5921482061, "lat": 40.6187793, "lon": 16.1485797, "tags": {"amenity": "restaurant"}}, {"type": "node", "id": 5980841041, "lat": 40.6194076, "lon": 16.1482991, "tags": {"amenity": "restaurant", "cuisine": "sandwich"}}, {"type": "node", "id": 6078473035, "lat": 40.5733758, "lon": 15.7859915, "tags": {"addr:city": "Pignola", "addr:housenumber": "7", "addr:postcode": "85010", "addr:street": "Largo Fontana", "amenity": "restaurant", "cuisine": "italian", "name": "Pizzeria Fontana Vecchia", "operator": "italiana", "smoking": "no", "wheelchair": "yes"}}, {"type": "node", "id": 6095887900, "lat": 40.5740362, "lon": 15.7874193, "tags": {"amenity": "cafe", "name": "Caff\u00e8 Pignola"}}, {"type": "node", "id": 6199000388, "lat": 40.5751927, "lon": 15.7689183, "tags": {"amenity": "restaurant", "cuisine": "pizza;regional;italian", "name": "Rocco e i suoi fratelli"}}, {"type": "node", "id": 6199240042, "lat": 40.5814067, "lon": 15.7532945, "tags": {"amenity": "restaurant", "cuisine": "pizza;regional;italian", "name": "L'oasi"}}, {"type": "node", "id": 6281939238, "lat": 40.617997, "lon": 16.1494428, "tags": {"amenity": "restaurant", "cuisine": "pizza"}}, {"type": "node", "id": 6853867278, "lat": 40.5790692, "lon": 15.7646125}, {"type": "node", "id": 6853867279, "lat": 40.5790227, "lon": 15.764737}, {"type": "node", "id": 6853867280, "lat": 40.5790289, "lon": 15.764741}, {"type": "node", "id": 6853867281, "lat": 40.5789932, "lon": 15.7648365}, {"type": "node", "id": 6853867282, "lat": 40.579048, "lon": 15.764872}, {"type": "node", "id": 6853867283, "lat": 40.5790222, "lon": 15.7649409}, {"type": "node", "id": 6853867284, "lat": 40.5788991, "lon": 15.7648611}, {"type": "node", "id": 6853878485, "lat": 40.5789035, "lon": 15.7648494}, {"type": "node", "id": 6853878486, "lat": 40.5788066, "lon": 15.7647866}, {"type": "node", "id": 6853878487, "lat": 40.5788962, "lon": 15.7645472}, {"type": "node", "id": 6853878488, "lat": 40.578923, "lon": 15.7645646}, {"type": "node", "id": 6853878489, "lat": 40.5789372, "lon": 15.7645268}, {"type": "node", "id": 7737022669, "lat": 40.6020029, "lon": 15.6898498, "tags": {"amenity": "restaurant", "name": "Osteria dell'Arrosticino"}}, {"type": "node", "id": 8022382469, "lat": 40.4864123, "lon": 16.2519288, "tags": {"amenity": "cafe"}}, {"type": "node", "id": 8022699705, "lat": 40.4861104, "lon": 16.2496171, "tags": {"amenity": "cafe"}}, {"type": "node", "id": 8022699746, "lat": 40.4866464, "lon": 16.2481081, "tags": {"amenity": "restaurant", "cuisine": "pizza", "name": "American Bar"}}, {"type": "node", "id": 8023542588, "lat": 40.5484323, "lon": 16.2275756, "tags": {"amenity": "cafe", "check_date": "2024-09-18"}}, {"type": "node", "id": 8214131595, "lat": 40.6489956, "lon": 15.7860876, "tags": {"addr:city": "Potenza", "addr:postcode": "85100", "addr:street": "Via Parigi", "amenity": "restaurant", "cuisine": "italian", "diet:meat": "yes", "name": "Mister Tagliata"}}, {"type": "node", "id": 8231370361, "lat": 40.7426242, "lon": 16.2443511, "tags": {"addr:city": "Irsina", "addr:housenumber": "7", "addr:street": "Corso Matteotti", "amenity": "restaurant", "name": "Fuoco di Vino"}}, {"type": "node", "id": 8900096171, "lat": 40.6432338, "lon": 15.8053358, "tags": {"addr:housenumber": "5", "addr:street": "Via Cavour", "amenity": "restaurant", "name": "Sarachella", "wheelchair": "yes"}}, {"type": "node", "id": 8901451606, "lat": 40.6376788, "lon": 15.8044937, "tags": {"addr:housenumber": "22", "addr:street": "Corso Giuseppe Garibaldi", "amenity": "cafe", "indoor_seating": "yes", "name": "Garibaldi", "outdoor_seating": "yes", "wheelchair": "no"}}, {"type": "node", "id": 8949656361, "lat": 40.6345497, "lon": 15.8070936, "tags": {"addr:housenumber": "50", "addr:street": "Via Nazario Sauro", "amenity": "cafe", "name": "Caffetteria Francioso", "wheelchair": "yes"}}, {"type": "node", "id": 9218220835, "lat": 40.4864008, "lon": 16.2521655, "tags": {"amenity": "cafe"}}, {"type": "node", "id": 9407591445, "lat": 40.5878109, "lon": 16.1926668, "tags": {"amenity": "cafe"}}, {"type": "node", "id": 9554828252, "lat": 40.4914209, "lon": 16.1578962, "tags": {"amenity": "restaurant", "name": "Locanda Pezzolla"}}, {"type": "node", "id": 9779872563, "lat": 40.4445931, "lon": 15.8362771, "tags": {"entrance": "yes", "name": "Hotel Ristorante Pietrapanna", "phone": "+39 0971 921495", "tourism": "hotel", "website": "http://www.pietrapanna.it/"}}, {"type": "node", "id": 9779872576, "lat": 40.4446578, "lon": 15.8363851}, {"type": "node", "id": 9779872577, "lat": 40.4445851, "lon": 15.8364603}, {"type": "node", "id": 9779872578, "lat": 40.4445693, "lon": 15.8364339}, {"type": "node", "id": 9779872579, "lat": 40.4445225, "lon": 15.8364824}, {"type": "node", "id": 9779872580, "lat": 40.4444001, "lon": 15.836278}, {"type": "node", "id": 9779872581, "lat": 40.4444508, "lon": 15.8362255}, {"type": "node", "id": 9779872582, "lat": 40.4444572, "lon": 15.8362363}, {"type": "node", "id": 9779872583, "lat": 40.444463, "lon": 15.8362303}, {"type": "node", "id": 9779872584, "lat": 40.44444, "lon": 15.836192}, {"type": "node", "id": 9779872585, "lat": 40.4444789, "lon": 15.8361518}, {"type": "node", "id": 9779872586, "lat": 40.4445046, "lon": 15.8361948}, {"type": "node", "id": 9779872587, "lat": 40.4445288, "lon": 15.8361698}, {"type": "node", "id": 9926096383, "lat": 40.6303397, "lon": 15.8057873, "tags": {"amenity": "restaurant", "check_date": "2022-08-02", "cuisine": "italian;sushi", "name": "Torii"}}, {"type": "node", "id": 10053314555, "lat": 40.6379747, "lon": 15.7836102, "tags": {"amenity": "restaurant", "check_date": "2022-09-26", "cuisine": "pizza", "name": "Verdecrudo"}}, {"type": "node", "id": 10111645350, "lat": 40.6389556, "lon": 15.8043333, "tags": {"amenity": "restaurant", "check_date": "2022-10-18", "cuisine": "pizza", "indoor_seating": "no", "name": "Pizzeria del vicolo", "outdoor_seating": "no", "takeaway": "only", "wheelchair": "no"}}, {"type": "node", "id": 10115786598, "lat": 40.6398493, "lon": 15.806494, "tags": {"amenity": "restaurant", "check_date": "2022-10-20", "cuisine": "italian", "indoor_seating": "yes", "name": "Al duomo", "outdoor_seating": "yes"}}, {"type": "node", "id": 10175922455, "lat": 40.6410367, "lon": 15.7969028, "tags": {"amenity": "restaurant", "check_date": "2022-11-11", "name": "Art restaurant"}}, {"type": "node", "id": 10681162605, "lat": 40.5307158, "lon": 16.0465267, "tags": {"amenity": "restaurant", "check_date": "2024-09-19", "name": "Peperusko"}}, {"type": "node", "id": 10681181906, "lat": 40.5197873, "lon": 16.0598143, "tags": {"amenity": "restaurant", "name": "Baronetto Pizzeria"}}, {"type": "node", "id": 10971425096, "lat": 40.5935138, "lon": 16.2415787, "tags": {"amenity": "cafe", "name": "Il Brigante"}}, {"type": "node", "id": 10996748442, "lat": 40.848676, "lon": 16.0186958}, {"type": "node", "id": 10996748443, "lat": 40.8485661, "lon": 16.0189046}, {"type": "node", "id": 10996748444, "lat": 40.8484464, "lon": 16.0187946}, {"type": "node", "id": 10996748445, "lat": 40.8484245, "lon": 16.0188362}, {"type": "node", "id": 10996748446, "lat": 40.8482122, "lon": 16.0186409}, {"type": "node", "id": 10996748447, "lat": 40.8483306, "lon": 16.0184159}, {"type": "node", "id": 10996748448, "lat": 40.8485418, "lon": 16.0186102}, {"type": "node", "id": 10996748449, "lat": 40.8485552, "lon": 16.0185847}, {"type": "node", "id": 10997675237, "lat": 40.8427306, "lon": 16.012127}, {"type": "node", "id": 10997675238, "lat": 40.8428303, "lon": 16.0120197}, {"type": "node", "id": 10997675239, "lat": 40.8427552, "lon": 16.0119017}, {"type": "node", "id": 10997675240, "lat": 40.8427643, "lon": 16.0118588}, {"type": "node", "id": 10997675241, "lat": 40.8427278, "lon": 16.0118561}, {"type": "node", "id": 10997675242, "lat": 40.8427217, "lon": 16.0118373}, {"type": "node", "id": 10997675243, "lat": 40.8426791, "lon": 16.0118776}, {"type": "node", "id": 10997675244, "lat": 40.8426487, "lon": 16.0118199}, {"type": "node", "id": 10997675245, "lat": 40.8425883, "lon": 16.0118897}, {"type": "node", "id": 11236657501, "lat": 40.5298295, "lon": 16.0462481, "tags": {"addr:city": "Castelmezzano", "addr:housenumber": "7", "addr:postcode": "85010", "addr:street": "Vico I Maglietta", "amenity": "restaurant", "check_date": "2024-09-19", "cuisine": "regional", "diet:mediterranean": "yes", "name": "il Becco Della Civetta -hotel/ristorante", "phone": "+39 0971 986249"}}, {"type": "node", "id": 11359284902, "lat": 40.5186841, "lon": 16.0621258, "tags": {"addr:city": "Pietrapertosa", "addr:housenumber": "47", "addr:street": "Via M. Torraca", "amenity": "cafe", "name": "Bar da Nino", "operator": "Stasi Nino", "phone:mobile": "+39 347 6657104", "ref:vatin": "IT01352480766"}}, {"type": "node", "id": 11410842170, "lat": 40.6419079, "lon": 15.7805538, "tags": {"addr:housenumber": "37", "addr:postcode": "85100", "addr:street": "Via dei Molinari", "amenity": "restaurant", "contact:facebook": "FandangoPotenza", "contact:instagram": "fandango_salvatoregatta", "cuisine": "italian_pizza", "name": "Fandango - Potenza", "opening_hours": "Tu-Su 12:00-14:30, 19:00-23:45", "phone": "0971 281157", "website": "https://www.fandangopizzeria.it/"}}, {"type": "node", "id": 12185619986, "lat": 40.5311041, "lon": 16.0474891, "tags": {"amenity": "restaurant", "check_date": "2024-09-19", "name": "Pizzeria"}}, {"type": "node", "id": 12674057910, "lat": 40.8301663, "lon": 15.7009719, "tags": {"amenity": "cafe", "name": "MC Caf\u00e9"}}, {"type": "node", "id": 12877037301, "lat": 40.5331071, "lon": 16.1167123, "tags": {"amenity": "restaurant", "name": "Lucania Outdoor Park", "website": "http://lucaniaoutdoorpark.it"}}, {"type": "node", "id": 12896504801, "lat": 40.6370658, "lon": 15.8018025, "tags": {"addr:housenumber": "6", "addr:postcode": "85100", "addr:street": "Via Nicola Vaccaro", "amenity": "cafe", "contact:facebook": "STREETFOODPOTENZA", "contact:instagram": "streetfoodpotenza", "cuisine": "burger;coffee_shop", "diet:vegetarian": "yes", "name": "#STREETFOOD Ricercatori del Gusto", "opening_hours": "Mo, We, Fr 12:30-14:30, 19:00-21:30; Tu, Th 12:30-14:30; Sa 18:30-22:00", "phone": "3791124791", "website:menu": "https://www.canva.com/design/DAFG8_upivU/3zkwA0Z9QrCaVcP8J0ylFg/view#1"}}, {"type": "way", "id": 258685234, "nodes": [2640117100, 2640109423, 2640109419, 2640109416, 2640109413, 2640109390, 2640117100], "tags": {"addr:city": "Pignola", "addr:housenumber": "11", "addr:postcode": "85010", "addr:street": "Via Camillo Luigi Coiro", "amenity": "restaurant", "building": "yes", "capacity": "200", "cuisine": "italian", "delivery": "no", "name": "Elios Sala Ricevimenti", "outdoor_seating": "no", "smoking": "no"}}, {"type": "way", "id": 310818037, "nodes": [3163044108, 3163044109, 3163044110, 3163044111, 3163044112, 3163044113, 3163044114, 3163044115, 3163044108], "tags": {"amenity": "restaurant", "building": "yes", "name": "Il Molino della Contessa"}}, {"type": "way", "id": 349502289, "nodes": [3553574814, 3553574582, 3553574576, 3553574809, 3553574814], "tags": {"amenity": "restaurant", "building": "yes", "cuisine": "pizza"}}, {"type": "way", "id": 392573678, "nodes": [3957871557, 3957871558, 3957871559, 3957871560, 3957871557], "tags": {"amenity": "restaurant", "building": "yes"}}, {"type": "way", "id": 392573680, "nodes": [3957871561, 3957871562, 3957871563, 3957871564, 3957871565, 3957871566, 3957871561], "tags": {"amenity": "restaurant", "building": "yes"}}, {"type": "way", "id": 503387823, "nodes": [4937085238, 4937085239, 4937085240, 4937085241, 4937085238], "tags": {"amenity": "restaurant", "building": "yes"}}, {"type": "way", "id": 547012484, "nodes": [5285632187, 5285632188, 5285632189, 5285632190, 5285632191, 5285632192, 5285632193, 5285632194, 5285632195, 5285632187], "tags": {"amenity": "restaurant", "building": "yes", "name": "Antica Fonte"}}, {"type": "way", "id": 586069264, "nodes": [5600218975, 5600218976, 5600218977, 5600218978, 5600218979, 5600218975], "tags": {"addr:city": "Potenza", "addr:postcode": "85100", "addr:street": "Via Adolfo Consolini", "amenity": "restaurant", "building": "yes", "capacity": "50", "cuisine": "burger;pizza;italian", "name": "La Pinta", "smoking": "outside", "takeaway": "yes"}}, {"type": "way", "id": 586074736, "nodes": [5600321437, 5600321436, 5600321435, 5600321434, 5600321437], "tags": {"amenity": "restaurant", "cuisine": "italian", "delivery": "no", "internet_access": "no", "name": "Tana dei Lupi", "opening_hours": "Mo 19:30-24:00; Tu \"start hour unclear, until 24:00\"; We-Su 19:45-24:00", "takeaway": "yes", "wheelchair": "yes"}}, {"type": "way", "id": 731927065, "nodes": [6853867278, 6853867279, 6853867280, 6853867281, 6853867282, 6853867283, 6853867284, 6853878485, 6853878486, 6853878487, 6853878488, 6853878489, 6853867278], "tags": {"addr:city": "Pignola", "addr:housenumber": "13", "addr:postcode": "85010", "addr:street": "Contrada Molino di Capo", "amenity": "restaurant", "building": "yes", "cuisine": "pizza;italian", "name": "Ponte delle Tavole", "phone": "+39971 420181"}}, {"type": "way", "id": 1064912140, "nodes": [9779872587, 9779872586, 9779872585, 9779872584, 9779872583, 9779872582, 9779872581, 9779872580, 9779872579, 9779872578, 9779872577, 9779872576, 9779872563, 9779872587], "tags": {"addr:city": "Calvello", "addr:country": "IT", "addr:postcode": "85010", "addr:street": "Contrada Potentissima", "amenity": "restaurant", "building": "yes", "name": "Hotel Ristorante Pietrapanna", "phone": "+39 0971 921495", "website": "http://www.pietrapanna.it/"}}, {"type": "way", "id": 1184149834, "nodes": [10996748442, 10996748443, 10996748444, 10996748445, 10996748446, 10996748447, 10996748448, 10996748449, 10996748442], "tags": {"amenity": "restaurant", "building": "yes"}}, {"type": "way", "id": 1184244125, "nodes": [10997675237, 10997675238, 10997675239, 10997675240, 10997675241, 10997675242, 10997675243, 10997675244, 10997675245, 10997675237], "tags": {"amenity": "restaurant", "building": "yes"}}]}