{"version": 0.6, "generator": "Overpass API 0.7.62.7 375dc00a", "osm3s": {"timestamp_osm_base": "2025-06-14T13:23:06Z", "copyright": "The data included in this document is from www.openstreetmap.org. The data is made available under ODbL."}, "elements": [{"type": "node", "id": 765041180, "lat": 40.2906561, "lon": 8.4769179, "tags": {"addr:city": "Bosa Marina", "addr:housenumber": "2", "addr:postcode": "08013", "addr:street": "Via Cristoforo Colombo", "amenity": "restaurant", "name": "Miramare"}}, {"type": "node", "id": 860121993, "lat": 39.8798203, "lon": 8.4391435}, {"type": "node", "id": 860122647, "lat": 39.9215633, "lon": 8.4521345, "tags": {"addr:place": "Localit\u00e0 San Salvatore di Sinis", "amenity": "cafe", "contact:phone": "+39 347 1325254", "food": "yes", "indoor_seating": "yes", "name": "Chiosco Bar Trattoria Abraxas", "outdoor_seating": "yes", "payment:cash": "yes"}}, {"type": "node", "id": 860123438, "lat": 39.8790101, "lon": 8.4390083}, {"type": "node", "id": 860123574, "lat": 39.8805769, "lon": 8.4388741}, {"type": "node", "id": 860123707, "lat": 39.8798298, "lon": 8.4390254}, {"type": "node", "id": 860125067, "lat": 39.8792029, "lon": 8.4389195}, {"type": "node", "id": 860126821, "lat": 39.8812901, "lon": 8.4389025}, {"type": "node", "id": 860127044, "lat": 39.880679, "lon": 8.4390922}, {"type": "node", "id": 860130501, "lat": 39.9005223, "lon": 8.5985024, "tags": {"addr:city": "Oristano", "addr:housenumber": "44", "addr:postcode": "09170", "addr:street": "Via Amsicora", "amenity": "cafe", "name": "Bar Due P", "official_name": "Bar Due P di Pinna C. e G. S.n.c.", "ref:vatin": "IT01182470953"}}, {"type": "node", "id": 860131388, "lat": 39.8796507, "lon": 8.4390012}, {"type": "node", "id": 860139595, "lat": 39.9144565, "lon": 8.5092393}, {"type": "node", "id": 860140905, "lat": 39.8796412, "lon": 8.4391193}, {"type": "node", "id": 860144643, "lat": 39.8810809, "lon": 8.4389541}, {"type": "node", "id": 860147122, "lat": 39.8791897, "lon": 8.4390411}, {"type": "node", "id": 860149988, "lat": 39.9263596, "lon": 8.5786229, "tags": {"amenity": "cafe", "name": "Caf\u00e8 Valentina", "official_name": "Caf\u00e8 Valentina di Serra Valentina", "opening_hours": "Mo-Sa 06:00-22:00; Su 07:00-13:00", "phone": "+39 0783 33574", "ref:vatin": "IT01200950952"}}, {"type": "node", "id": 860150159, "lat": 39.8811437, "lon": 8.4390744}, {"type": "node", "id": 860151334, "lat": 39.9141819, "lon": 8.5091919}, {"type": "node", "id": 860151910, "lat": 39.8806562, "lon": 8.4388111}, {"type": "node", "id": 860151995, "lat": 39.8812429, "lon": 8.4388119}, {"type": "node", "id": 860152173, "lat": 39.8807583, "lon": 8.4390291}, {"type": "node", "id": 860153366, "lat": 39.8745796, "lon": 8.4397878, "tags": {"amenity": "restaurant", "check_date": "2024-09-27", "name": "Punto ristoro Penisola del Sinis", "payment:cash": "yes", "payment:credit_cards": "yes", "payment:debit_cards": "yes", "phone": "+39 0783 370019"}}, {"type": "node", "id": 860154757, "lat": 39.9143059, "lon": 8.5090347}, {"type": "node", "id": 860162134, "lat": 39.8790233, "lon": 8.4388867}, {"type": "node", "id": 860163213, "lat": 39.9143341, "lon": 8.5093893}, {"type": "node", "id": 1290375608, "lat": 40.0919981, "lon": 8.4908011, "tags": {"addr:housenumber": "46", "addr:street": "Via Lungomare", "amenity": "restaurant", "bar": "yes", "cuisine": "pizza", "indoor_seating": "yes", "name": "Bar Pizzeria Da Rino", "official_name": "Bar pizzeria Da Rino di Pala Sebastiano & C. S.n.c.", "opening_hours": "Mo-Su 07:45-01:00", "outdoor_seating": "yes", "phone": "+39 0785 38021", "ref:vatin": "IT01016050955", "shop": "tobacco", "takeaway": "yes"}}, {"type": "node", "id": 1290375727, "lat": 40.0911521, "lon": 8.4910858, "tags": {"addr:housenumber": "32", "addr:street": "Via Lungomare", "air_conditioning": "yes", "amenity": "restaurant", "baby_feeding": "no", "bar": "yes", "changing_table": "no", "cuisine": "italian;pizza", "delivery": "no", "internet_access": "wlan", "internet_access:fee": "no", "kids_area": "no", "kids_area:fee": "no", "kids_area:indoor": "no", "kids_area:outdoor": "no", "kids_area:supervised": "no", "level": "0", "name": "Bar Ristorante Morongiu", "official_name": "Bar Centrale di Marongiu M. G. & C. S.n.c.", "opening_hours": "Mo-Su 08:30-24:00", "phone": "+39 0785 38046", "ref:vatin": "IT00528670953", "reservation": "recommended", "smoking": "outside", "takeaway": "yes", "toilets": "yes", "toilets:access": "customers", "toilets:wheelchair": "designated", "wheelchair": "limited"}}, {"type": "node", "id": 1293448251, "lat": 40.1037447, "lon": 8.4908504}, {"type": "node", "id": 1293448446, "lat": 40.1041005, "lon": 8.490801}, {"type": "node", "id": 1293448625, "lat": 40.1050637, "lon": 8.4898728, "tags": {"amenity": "cafe", "name": "Chiosco Manca"}}, {"type": "node", "id": 1293448867, "lat": 40.1047645, "lon": 8.4921035, "tags": {"amenity": "restaurant", "contact:phone": "+39 342 577 8338", "cuisine": "italian;pizza", "name": "Bar Ristorante Asterix"}}, {"type": "node", "id": 1293449622, "lat": 40.1039071, "lon": 8.4906107}, {"type": "node", "id": 1300345121, "lat": 39.9018579, "lon": 8.6038436}, {"type": "node", "id": 1314542676, "lat": 40.0857287, "lon": 8.4926047, "tags": {"amenity": "restaurant", "contact:phone": "+39 328 405 0913", "cuisine": "italian;fish;pizza", "name": "Bar del Capitano"}}, {"type": "node", "id": 1336099013, "lat": 39.998365, "lon": 8.5396009}, {"type": "node", "id": 1336099216, "lat": 39.9986133, "lon": 8.5398792}, {"type": "node", "id": 1336099364, "lat": 39.9986527, "lon": 8.5397465}, {"type": "node", "id": 1336099371, "lat": 39.9983347, "lon": 8.539703}, {"type": "node", "id": 1367812344, "lat": 40.1039508, "lon": 8.4910458}, {"type": "node", "id": 1369020826, "lat": 40.1058097, "lon": 8.4902252, "tags": {"amenity": "restaurant", "cuisine": "pizza", "name": "Ristorante Pizzeria Su Riu"}}, {"type": "node", "id": 1373791459, "lat": 40.0913039, "lon": 8.4908594}, {"type": "node", "id": 1373791465, "lat": 40.0913287, "lon": 8.4909612}, {"type": "node", "id": 1373791487, "lat": 40.0913833, "lon": 8.4908234}, {"type": "node", "id": 1373791489, "lat": 40.0914105, "lon": 8.4909245}, {"type": "node", "id": 1416158648, "lat": 39.905555, "lon": 8.5914003, "tags": {"addr:city": "Oristano", "addr:housenumber": "1", "addr:street": "Piazza Roma", "alt_name": "Caff\u00e9 Roma", "amenity": "cafe", "check_date": "2024-09-13", "name": "The Tower Caff\u00e8", "phone": "+39 0783 777106", "ref:vatin": "IT00115340952", "start_date": "2015-11-20"}}, {"type": "node", "id": 1416158758, "lat": 39.9674448, "lon": 8.4012138, "tags": {"amenity": "restaurant", "name": "Kiosco bar Sole Mare", "official_name": "Kiosco bar Sole Mare S.r.l.", "phone": "+39 0783 290996;+39 348 8926118"}}, {"type": "node", "id": 1416158812, "lat": 39.97874, "lon": 8.5371518, "tags": {"addr:city": "Nurachi", "addr:housenumber": "7", "addr:postcode": "09070", "addr:street": "Viale Antonio Gramsci", "amenity": "restaurant", "cuisine": "pizza", "name": "Pizzeria Il Boscaiolo", "opening_hours": "Mo-Su 19:00-23:00", "operator": "Il Boscaiolo di Spanu Salvatore & C. S.n.c.", "phone": "+39 0783 410396", "ref:vatin": "IT00550860951", "website": "https://trattoriailboscaiolo.it/", "website:menu": "https://trattoriailboscaiolo.it/menu/"}}, {"type": "node", "id": 1416158821, "lat": 39.9167171, "lon": 8.4017133, "tags": {"amenity": "cafe", "name": "S'Acqua Mala - Caff\u00e9 Karlos", "shop": "kiosk"}}, {"type": "node", "id": 1416174848, "lat": 39.895532, "lon": 8.4226061}, {"type": "node", "id": 1416174855, "lat": 39.8956008, "lon": 8.4224728}, {"type": "node", "id": 1416174861, "lat": 39.895653, "lon": 8.4227047}, {"type": "node", "id": 1416174867, "lat": 39.8957365, "lon": 8.4225304}, {"type": "node", "id": 1416182684, "lat": 39.9189599, "lon": 8.4014032}, {"type": "node", "id": 1416182699, "lat": 39.9189862, "lon": 8.4015643}, {"type": "node", "id": 1416182761, "lat": 39.919076, "lon": 8.4013702}, {"type": "node", "id": 1416182769, "lat": 39.919101, "lon": 8.4015332}, {"type": "node", "id": 1416188666, "lat": 39.9295594, "lon": 8.5274209, "tags": {"addr:city": "Cabras", "addr:housenumber": "26", "addr:postcode": "09072", "addr:street": "Via Torino", "amenity": "restaurant", "cuisine": "pizza", "name": "Pizzeria Focus", "restaurant:type:it": "pizzeria"}}, {"type": "node", "id": 1416198285, "lat": 39.968677, "lon": 8.4009562}, {"type": "node", "id": 1416198320, "lat": 39.9687563, "lon": 8.4010675}, {"type": "node", "id": 1416198332, "lat": 39.968767, "lon": 8.400848}, {"type": "node", "id": 1416198408, "lat": 39.9688486, "lon": 8.4009623}, {"type": "node", "id": 1426123940, "lat": 40.1874926, "lon": 8.5647625, "tags": {"amenity": "cafe", "name": "Bar L'Oasi"}}, {"type": "node", "id": 1564391301, "lat": 39.9053147, "lon": 8.5909238, "tags": {"addr:housenumber": "19", "addr:street": "Via Salvator Angelo De Castro", "amenity": "cafe", "check_date": "2024-09-13", "name": "La Dolce Vita", "opening_hours": "Mo-Su 08:00-22:00; PH off"}}, {"type": "node", "id": 1568226041, "lat": 39.9639411, "lon": 8.5422416, "tags": {"amenity": "restaurant", "cuisine": "pizza", "name": "Giangiacomo"}}, {"type": "node", "id": 1574502575, "lat": 40.2009031, "lon": 8.5030796, "tags": {"amenity": "restaurant", "contact:email": "delrio.gianluca@tiscali.it", "contact:facebook": "https://www.facebook.com/La-Rosa-dei-Venti-136993219780946/", "contact:phone": "+39 0783 090 008;+39 349 068 3862", "contact:website": "http://www.larosadeiventiristorante.com", "cuisine": "italian", "name": "La Rosa dei Venti"}}, {"type": "node", "id": 1575632614, "lat": 39.9048927, "lon": 8.5970403, "tags": {"addr:city": "Oristano", "addr:postcode": "09170", "addr:street": "Piazza Mariano IV", "amenity": "restaurant", "cuisine": "kebab", "name": "Ali Bab\u00e0 Kebab"}}, {"type": "node", "id": 1585516898, "lat": 40.2809171, "lon": 8.548243, "tags": {"addr:city": "Suni", "addr:country": "IT", "addr:housenumber": "20", "addr:street": "Via Bosa", "amenity": "cafe", "name": "Evergreen", "operator": "Piras e Ruggiu"}}, {"type": "node", "id": 1585579545, "lat": 40.2961474, "lon": 8.654952, "tags": {"amenity": "cafe", "name": "Caff\u00e9 Sindia"}}, {"type": "node", "id": 1585581793, "lat": 40.2961801, "lon": 8.6559391, "tags": {"amenity": "cafe", "name": "Caf\u00e8 Green"}}, {"type": "node", "id": 1585586965, "lat": 40.2960165, "lon": 8.6576557, "tags": {"amenity": "cafe", "name": "Bar Cossedda"}}, {"type": "node", "id": 1593357317, "lat": 40.0614636, "lon": 8.7305118, "tags": {"amenity": "cafe", "opening_hours": "Mo-Su 08:30-20:00"}}, {"type": "node", "id": 1678061020, "lat": 40.0913925, "lon": 8.4908546}, {"type": "node", "id": 1678061021, "lat": 40.0914052, "lon": 8.490904, "tags": {"entrance": "main"}}, {"type": "node", "id": 1718577404, "lat": 40.2969227, "lon": 8.500837, "tags": {"addr:city": "Bosa", "addr:street": "Piazza Vincenzo Gioberti", "amenity": "cafe", "contact:facebook": "https://www.facebook.com/BarTeatro2020/", "name": "Bar Teatro"}}, {"type": "node", "id": 1763340798, "lat": 40.1111702, "lon": 8.4898452}, {"type": "node", "id": 1763340800, "lat": 40.1111872, "lon": 8.4899152}, {"type": "node", "id": 1763340816, "lat": 40.1112248, "lon": 8.489948}, {"type": "node", "id": 1763340847, "lat": 40.1112919, "lon": 8.4898}, {"type": "node", "id": 1763340863, "lat": 40.1113154, "lon": 8.48991}, {"type": "node", "id": 1803350645, "lat": 40.1643868, "lon": 8.5281491}, {"type": "node", "id": 1803350648, "lat": 40.1644772, "lon": 8.5279463}, {"type": "node", "id": 1803350649, "lat": 40.1645157, "lon": 8.5283624}, {"type": "node", "id": 1803350650, "lat": 40.1645704, "lon": 8.528206}, {"type": "node", "id": 1803350651, "lat": 40.1645919, "lon": 8.5282265}, {"type": "node", "id": 1803350652, "lat": 40.1646329, "lon": 8.5280943}, {"type": "node", "id": 1853376497, "lat": 40.1497909, "lon": 8.5223976, "tags": {"amenity": "restaurant", "contact:email": "s.ispiga@tiscali.it", "contact:facebook": "https://www.facebook.com/Agriturismo-Sispiga-256246981114153/", "contact:phone": "+39 347 302 2768;+39 347 939 2278", "contact:website": "http://www.sispiga.it", "cuisine": "italian", "name": "Agriturismo S'Ispiga", "opening_hours": "Mo-Sa 20:00-23:00; Su 13:00-15:00,20:00-23:00"}}, {"type": "node", "id": 1853968830, "lat": 40.187044, "lon": 8.5655485, "tags": {"amenity": "restaurant", "cuisine": "pizza", "name": "Pizzeria Tavola calda Da Michele"}}, {"type": "node", "id": 1884421161, "lat": 40.2502864, "lon": 8.4759174, "tags": {"amenity": "cafe", "cuisine": "pizza", "name": "Pizza @ Web"}}, {"type": "node", "id": 1884421293, "lat": 40.2679236, "lon": 8.4886374}, {"type": "node", "id": 1884421294, "lat": 40.2680808, "lon": 8.4888946}, {"type": "node", "id": 1884421295, "lat": 40.2680929, "lon": 8.4885458}, {"type": "node", "id": 1884421296, "lat": 40.2681898, "lon": 8.4886893}, {"type": "node", "id": 1884421333, "lat": 40.2872296, "lon": 8.4818913}, {"type": "node", "id": 1884421334, "lat": 40.2872864, "lon": 8.4819846}, {"type": "node", "id": 1884421335, "lat": 40.2873282, "lon": 8.4817879}, {"type": "node", "id": 1884421336, "lat": 40.2873851, "lon": 8.4818812}, {"type": "node", "id": 1889770379, "lat": 39.9175433, "lon": 8.4709292, "tags": {"agritourism": "yes", "amenity": "restaurant", "contact:email": "info@agriturismosacanudera.it", "contact:facebook": "https://www.facebook.com/AgriturismoSaCanud/", "contact:phone": "+39 347 7096220;+39 340 3171628", "contact:website": "http://www.agriturismosacanudera.it", "cuisine": "regional", "email": "info@agriturismosacanudera.it", "internet_access": "wlan", "name": "Agriturismo Sa Canudera", "start_date": "2006-08-01", "tourism": "guest_house", "wheelchair": "yes"}}, {"type": "node", "id": 1889770381, "lat": 39.903365, "lon": 8.4359026, "tags": {"agritourism": "yes", "amenity": "restaurant", "contact:email": "sannoranna@libero.it", "contact:facebook": "https://it-it.facebook.com/Agriturismo-Sannoranna-104888549559081/", "contact:phone": "+39 345 506 8448", "contact:website": "https://www.agriturismosannoranna.it/", "cuisine": "regional", "name": "Agriturismo Sannoranna", "phone": "+39 347 1736532; +39 345 5068448", "rooms": "5", "tourism": "guest_house"}}, {"type": "node", "id": 1889770382, "lat": 39.9451108, "lon": 8.4555891, "tags": {"amenity": "restaurant", "contact:email": "agriturvillagaia@tiscali.it", "contact:facebook": "https://www.facebook.com/Agriturismo-Villa-Gaia-800301040082201/", "contact:phone": "+39 328 269 2435;+39 340 317 0324 ;+39 340 175 3168", "contact:website": "www.agriturvillagaia.it", "cuisine": "regional", "name": "Agriturismo Villa Gaia"}}, {"type": "node", "id": 1889770386, "lat": 40.033278, "lon": 8.399719, "tags": {"addr:city": "Mandriola", "addr:housenumber": "1", "addr:street": "Lungomare Mesu 'e Turris", "amenity": "cafe", "cuisine": "ice_cream", "name": "Bar gelateria La tana delle lepri", "official_name": "Bar gelateria La tana delle lepri S.c.", "opening_hours": "Mo-Su 00:00-01:00,06:00-24:00", "ref:vatin": "IT01136300959"}}, {"type": "node", "id": 1889770497, "lat": 40.0332749, "lon": 8.3973649, "tags": {"addr:city": "Mandriola", "amenity": "cafe", "name": "Chiosco bar Fenu Davide Daniele", "position": "FIXME", "ref:vatin": "IT00678700956"}}, {"type": "node", "id": 1889770609, "lat": 39.9070962, "lon": 8.5162773, "tags": {"addr:city": "Torregrande", "addr:street": "Piazza della Torre", "amenity": "cafe", "name": "Oasi Caff\u00e9", "official_name": "Na' Vi' M.P. e R. Pau & C. S.n.c.", "ref:vatin": "IT01139510950"}}, {"type": "node", "id": 1889770618, "lat": 39.8850759, "lon": 8.6082569, "tags": {"addr:city": "Santa Giusta", "addr:housenumber": "5", "addr:postcode": "09096", "addr:street": "Via Pauli Tabentis", "amenity": "restaurant", "contact:email": "info@ziaberta.it", "contact:phone": "+39 328 5699050", "contact:website": "http://www.ziaberta.it/", "cuisine": "pizza", "name": "Pizzeria Zia Berta", "official_name": "Pizzeria Zia Berta di Melis Mariella & C. S.n.c.", "opening_hours": "Mo 00:00-02:00; Tu 19:00-24:00; We-Su 00:00-02:00,19:00-24:00", "ref:vatin": "IT01041030956", "restaurant:type:it": "pizzeria"}}, {"type": "node", "id": 1889770621, "lat": 39.9064048, "lon": 8.5166113, "tags": {"addr:city": "Torregrande", "addr:housenumber": "6", "addr:street": "Lungomare Eleonora d'Arborea", "amenity": "restaurant", "cuisine": "italian", "name": "Ristorante Il Lido"}}, {"type": "node", "id": 1889770623, "lat": 39.9162735, "lon": 8.4573266, "tags": {"amenity": "restaurant", "contact:email": "info@sapedrera.it", "contact:facebook": "https://www.facebook.com/hotelsapedrera", "contact:fax": "+39 0783 370040", "contact:phone": "+39 0783 370040;+39 0783 370018;+39 392 5366679", "contact:pinterest": "https://it.pinterest.com/HotelSaPedrera/", "contact:twitter": "https://twitter.com/hotelsapedrera", "contact:website": "http://www.sapedrera.it", "contact:youtube": "https://www.youtube.com/channel/UC2ajt_CWF7NzxJheZaQspqQ", "name": "Sa Pedrera", "official_name": "Hotel Sinis vacanze Sa Pedrera", "payment:cash": "yes", "payment:mastercard": "yes", "payment:paypal": "yes", "payment:visa": "yes", "ref:vatin": "IT00604800953", "stars": "3", "tourism": "hotel"}}, {"type": "node", "id": 1889770919, "lat": 39.8955337, "lon": 8.4225327}, {"type": "node", "id": 1889770927, "lat": 39.8955578, "lon": 8.4225523}, {"type": "node", "id": 1889770936, "lat": 39.8955732, "lon": 8.4224503}, {"type": "node", "id": 1889770948, "lat": 39.8956074, "lon": 8.422459}, {"type": "node", "id": 1889770964, "lat": 39.8957048, "lon": 8.4225046}, {"type": "node", "id": 1889797401, "lat": 39.9227349, "lon": 8.5721154}, {"type": "node", "id": 1889797472, "lat": 39.92283, "lon": 8.5719895}, {"type": "node", "id": 1889797498, "lat": 39.9228485, "lon": 8.5720154}, {"type": "node", "id": 1889797543, "lat": 39.9228996, "lon": 8.5723154}, {"type": "node", "id": 1889797546, "lat": 39.9229053, "lon": 8.5719469}, {"type": "node", "id": 1889797583, "lat": 39.9229351, "lon": 8.5722728}, {"type": "node", "id": 1889797609, "lat": 39.9229749, "lon": 8.5720246}, {"type": "node", "id": 1889797614, "lat": 39.923026, "lon": 8.5723599}, {"type": "node", "id": 1889797615, "lat": 39.9230545, "lon": 8.571932}, {"type": "node", "id": 1889797677, "lat": 39.9230956, "lon": 8.5721043}, {"type": "node", "id": 1889797685, "lat": 39.9230956, "lon": 8.5722191}, {"type": "node", "id": 1889797701, "lat": 39.9231098, "lon": 8.5722413}, {"type": "node", "id": 1889797718, "lat": 39.923134, "lon": 8.5720413}, {"type": "node", "id": 1889797737, "lat": 39.923134, "lon": 8.572158}, {"type": "node", "id": 1889804885, "lat": 40.0432835, "lon": 8.3960484}, {"type": "node", "id": 1889804891, "lat": 40.0433005, "lon": 8.395945}, {"type": "node", "id": 1889804911, "lat": 40.0433306, "lon": 8.3959856}, {"type": "node", "id": 1889804921, "lat": 40.0433376, "lon": 8.3959057}, {"type": "node", "id": 1889804929, "lat": 40.0433456, "lon": 8.3961296}, {"type": "node", "id": 1889804946, "lat": 40.0433657, "lon": 8.395945}, {"type": "node", "id": 1889804995, "lat": 40.0433938, "lon": 8.3959096}, {"type": "node", "id": 1889805058, "lat": 40.0434569, "lon": 8.3959908}, {"type": "node", "id": 1892021279, "lat": 40.0731895, "lon": 8.4896086, "tags": {"amenity": "restaurant", "cuisine": "pizza", "name": "Bella Sardinia"}}, {"type": "node", "id": 1937660944, "lat": 39.9493398, "lon": 8.4140157, "tags": {"amenity": "restaurant", "name": "Oasis"}}, {"type": "node", "id": 1974724745, "lat": 40.038838, "lon": 8.4015481}, {"type": "node", "id": 1974724746, "lat": 40.0388649, "lon": 8.4014532}, {"type": "node", "id": 1974724747, "lat": 40.0388804, "lon": 8.4014005}, {"type": "node", "id": 1974724749, "lat": 40.0389375, "lon": 8.4014876}, {"type": "node", "id": 1974724750, "lat": 40.0389524, "lon": 8.4014357}, {"type": "node", "id": 1974724751, "lat": 40.0389841, "lon": 8.4015097}, {"type": "node", "id": 1974724752, "lat": 40.0389999, "lon": 8.4014548}, {"type": "node", "id": 1974724754, "lat": 40.0390295, "lon": 8.4016378}, {"type": "node", "id": 1974724758, "lat": 40.0390719, "lon": 8.4014901}, {"type": "node", "id": 2031543971, "lat": 40.0838206, "lon": 8.7640282, "tags": {"amenity": "cafe", "name": "Bar Vortice"}}, {"type": "node", "id": 2061905252, "lat": 40.0613241, "lon": 8.7309716, "tags": {"amenity": "restaurant", "contact:email": "giancarlodemurtas@alice.it", "contact:phone": "+39 366 383 7941", "cuisine": "italian;pizza", "delivery": "no", "name": "Ristoria da Gianky", "opening_hours": "Mo-Su 12:30-14:30,19:30-22:30; Tu off", "payment:mastercard": "yes", "payment:visa": "yes", "takeaway": "yes", "wheelchair": "yes"}}, {"type": "node", "id": 2133498982, "lat": 39.8956931, "lon": 8.4225289}, {"type": "node", "id": 2306435220, "lat": 40.1894202, "lon": 8.5678082, "tags": {"addr:housenumber": "117", "addr:street": "Corso Umberto Primo di Savoia", "amenity": "cafe", "name": "Antonello Bar Caff\u00e8"}}, {"type": "node", "id": 2306435225, "lat": 40.1892668, "lon": 8.5679462, "tags": {"amenity": "cafe", "name": "Bar Zodiak"}}, {"type": "node", "id": 2306435226, "lat": 40.1887846, "lon": 8.5674307, "tags": {"addr:housenumber": "126", "addr:street": "Corso Umberto Primo di Savoia", "amenity": "cafe", "name": "Bar del Corso"}}, {"type": "node", "id": 2306435252, "lat": 40.1873807, "lon": 8.5671969, "tags": {"amenity": "cafe", "name": "Play bar"}}, {"type": "node", "id": 2306435253, "lat": 40.1898325, "lon": 8.5686398, "tags": {"addr:housenumber": "6", "addr:street": "Vico Cugia", "amenity": "restaurant", "name": "Ristorante Desogos"}}, {"type": "node", "id": 2310429918, "lat": 39.9958467, "lon": 8.5389752, "tags": {"amenity": "cafe", "name": "Bar Gelateria Corda"}}, {"type": "node", "id": 2310429933, "lat": 39.9950849, "lon": 8.5395774, "tags": {"amenity": "cafe", "name": "Sa Barritta"}}, {"type": "node", "id": 2310429935, "lat": 39.995279, "lon": 8.5397453, "tags": {"amenity": "cafe", "name": "Snack Bar Gelateria Da Ivana"}}, {"type": "node", "id": 2310430230, "lat": 39.9353655, "lon": 8.5733309, "tags": {"amenity": "cafe", "name": "Bar e Caff\u00e8 di Ignazio"}}, {"type": "node", "id": 2310430294, "lat": 39.9761365, "lon": 8.5386664, "tags": {"amenity": "cafe", "opening_hours": "Mo-Su 06:00-24:00"}}, {"type": "node", "id": 2338734153, "lat": 40.298422, "lon": 8.495592, "tags": {"addr:city": "Bosa", "addr:housenumber": "23", "addr:postcode": "08013", "addr:street": "Via Domenico Alberto Azuni", "amenity": "cafe", "name": "Gold Bar", "note": "ARST", "shop": "ticket"}}, {"type": "node", "id": 2338734156, "lat": 40.2973167, "lon": 8.5018659, "tags": {"amenity": "restaurant", "check_date": "2024-09-13", "name": "Taverna"}}, {"type": "node", "id": 2376842138, "lat": 40.252176, "lon": 8.5193126, "tags": {"amenity": "restaurant", "cuisine": "italian", "name": "Su Palattedu"}}, {"type": "node", "id": 2376846425, "lat": 40.252438, "lon": 8.5217427, "tags": {"amenity": "restaurant", "cuisine": "italian"}}, {"type": "node", "id": 2376846426, "lat": 40.2580918, "lon": 8.5248326, "tags": {"amenity": "restaurant", "cuisine": "italian", "name": "Pizzeria da Gigi", "opening_hours": "Mo-Su 19:00-23:00"}}, {"type": "node", "id": 2376886173, "lat": 40.2435692, "lon": 8.4758685, "tags": {"amenity": "restaurant", "contact:facebook": "https://www.facebook.com/lidolando/", "contact:phone": "+39 331 904 5907", "cuisine": "italian", "name": "Lidolando", "opening_hours": "Mo-Su 07:00-23:00", "payment:cash": "yes", "payment:mastercard": "yes", "payment:visa": "yes"}}, {"type": "node", "id": 2411387193, "lat": 40.2982273, "lon": 8.4954665, "tags": {"addr:city": "Bosa", "addr:housenumber": "8", "addr:postcode": "08013", "addr:street": "Via Salvatore Parpaglia", "amenity": "restaurant", "cuisine": "pizza", "name": "La Margherita"}}, {"type": "node", "id": 2447392907, "lat": 40.0653456, "lon": 8.4918892}, {"type": "node", "id": 2447392908, "lat": 40.0652774, "lon": 8.4919461}, {"type": "node", "id": 2447392909, "lat": 40.0653713, "lon": 8.4921385}, {"type": "node", "id": 2447392910, "lat": 40.0654396, "lon": 8.4920817}, {"type": "node", "id": 2540221502, "lat": 39.9892832, "lon": 8.6422384}, {"type": "node", "id": 2540221506, "lat": 39.9894383, "lon": 8.6420364}, {"type": "node", "id": 2540221507, "lat": 39.9894678, "lon": 8.6420011}, {"type": "node", "id": 2540221508, "lat": 39.9895709, "lon": 8.6424288}, {"type": "node", "id": 2540221509, "lat": 39.9895887, "lon": 8.6423996}, {"type": "node", "id": 2540221510, "lat": 39.9896126, "lon": 8.6423895}, {"type": "node", "id": 2540221512, "lat": 39.9896334, "lon": 8.6423633}, {"type": "node", "id": 2540221513, "lat": 39.9896365, "lon": 8.6422989}, {"type": "node", "id": 2540221514, "lat": 39.9896512, "lon": 8.6422717}, {"type": "node", "id": 2540221515, "lat": 39.9896527, "lon": 8.6423291}, {"type": "node", "id": 2540221546, "lat": 39.9901374, "lon": 8.6413285}, {"type": "node", "id": 2540221550, "lat": 39.9901929, "lon": 8.6412617}, {"type": "node", "id": 2540221551, "lat": 39.9902071, "lon": 8.6414383}, {"type": "node", "id": 2540221557, "lat": 39.9902846, "lon": 8.6416248}, {"type": "node", "id": 2540221558, "lat": 39.9903217, "lon": 8.6415422}, {"type": "node", "id": 2540221560, "lat": 39.9904024, "lon": 8.6417174}, {"type": "node", "id": 2540221564, "lat": 39.9904952, "lon": 8.6415024}, {"type": "node", "id": 2552333703, "lat": 39.952977, "lon": 8.667075}, {"type": "node", "id": 2552333706, "lat": 39.9530098, "lon": 8.6672275}, {"type": "node", "id": 2552333721, "lat": 39.9530796, "lon": 8.6670374}, {"type": "node", "id": 2552333727, "lat": 39.9531123, "lon": 8.6671899}, {"type": "node", "id": 2552390731, "lat": 39.9532215, "lon": 8.6724544}, {"type": "node", "id": 2552390737, "lat": 39.9532333, "lon": 8.6726892}, {"type": "node", "id": 2552390793, "lat": 39.953378, "lon": 8.6724411}, {"type": "node", "id": 2552390798, "lat": 39.9533898, "lon": 8.6726758}, {"type": "node", "id": 2554132756, "lat": 39.9541674, "lon": 8.6759745}, {"type": "node", "id": 2554132757, "lat": 39.9541933, "lon": 8.6761587}, {"type": "node", "id": 2554132758, "lat": 39.9542574, "lon": 8.675953}, {"type": "node", "id": 2554132760, "lat": 39.9542833, "lon": 8.6761373}, {"type": "node", "id": 2554164806, "lat": 39.9563105, "lon": 8.6749343}, {"type": "node", "id": 2554164813, "lat": 39.9563272, "lon": 8.6751054}, {"type": "node", "id": 2554164842, "lat": 39.9563892, "lon": 8.6749079}, {"type": "node", "id": 2554164847, "lat": 39.9564035, "lon": 8.6749359}, {"type": "node", "id": 2554164849, "lat": 39.9564035, "lon": 8.6750977}, {"type": "node", "id": 2554164853, "lat": 39.956419, "lon": 8.6751366}, {"type": "node", "id": 2554164859, "lat": 39.9564357, "lon": 8.674925}, {"type": "node", "id": 2554164866, "lat": 39.9564488, "lon": 8.6750339}, {"type": "node", "id": 2554164887, "lat": 39.956481, "lon": 8.6750276}, {"type": "node", "id": 2554164890, "lat": 39.9564822, "lon": 8.6751148}, {"type": "node", "id": 2600434976, "lat": 40.2620068, "lon": 8.5000095, "tags": {"amenity": "restaurant", "cuisine": "pizza", "name": "Restaurant Pizzeria St. Lucia da Angelino"}}, {"type": "node", "id": 2600435428, "lat": 40.2636293, "lon": 8.5259606, "tags": {"addr:housenumber": "13", "addr:street": "Via Vittorio Emanuele III", "amenity": "restaurant", "cuisine": "regional", "name": "Trattoria da Riccardo"}}, {"type": "node", "id": 2600441665, "lat": 40.2825808, "lon": 8.5455076, "tags": {"amenity": "restaurant", "name": "L'Iperbole"}}, {"type": "node", "id": 2600485922, "lat": 40.2668473, "lon": 8.5583315, "tags": {"amenity": "restaurant", "name": "Anghelos e Istellas"}}, {"type": "node", "id": 2603603319, "lat": 40.2892077, "lon": 8.4792587, "tags": {"amenity": "restaurant", "name": "Chelo"}}, {"type": "node", "id": 2603603327, "lat": 40.2899504, "lon": 8.4771318, "tags": {"amenity": "restaurant", "contact:facebook": "http://www.facebook.com/pages/Al-Galeone-Lounge-Bar/165808380140455", "contact:phone": "+39 0785 373 525;+39 347 400 0518", "contact:website": "http://algaleone.it", "name": "Al Galeone"}}, {"type": "node", "id": 2603603332, "lat": 40.2896435, "lon": 8.4780062, "tags": {"amenity": "restaurant", "name": "La Bussola"}}, {"type": "node", "id": 2606032128, "lat": 40.2975307, "lon": 8.4901305, "tags": {"amenity": "restaurant", "name": "Ristorante da Giancarlo e Rita"}}, {"type": "node", "id": 2606067991, "lat": 40.2957553, "lon": 8.4840284, "tags": {"addr:city": "Bosa", "addr:housenumber": "10", "addr:postcode": "08013", "addr:street": "Vico secondo Villamari", "amenity": "restaurant", "contact:email": "deviduras@gmail.com", "contact:facebook": "https://www.facebook.com/La-nuova-costa-ristorante-pizzeria-747491315358885/", "contact:phone": "+39 320 605 2543", "contact:website": "http://www.lanuovacosta.com", "cuisine": "italian", "name": "La Nuova Costa"}}, {"type": "node", "id": 2609741640, "lat": 40.2740121, "lon": 8.5276636, "tags": {"amenity": "restaurant", "name": "Sa Cariasa"}}, {"type": "node", "id": 2675708696, "lat": 40.1750494, "lon": 8.656332, "tags": {"amenity": "restaurant", "cuisine": "regional", "name": "S'Olostrighe"}}, {"type": "node", "id": 2687371542, "lat": 40.019433, "lon": 8.5223289, "tags": {"addr:city": "Riola Sardo", "addr:postcode": "09070", "addr:street": "SS292", "amenity": "restaurant", "contact:phone": "+39 348 210 0108;+39 331 886 7520", "cuisine": "italian", "name": "La Fattoria di Agostino Panzali", "phone": "348 210 0108"}}, {"type": "node", "id": 2708792365, "lat": 40.0328954, "lon": 8.3952629, "tags": {"addr:city": "Santeru/San Vero Milis", "addr:housenumber": "34", "addr:postcode": "09070", "addr:street": "Via Zinnibiri", "amenity": "restaurant", "cuisine": "fish", "name": "Il Pescatore Ittiturismo"}}, {"type": "node", "id": 2712981118, "lat": 40.2929172, "lon": 8.4993258, "tags": {"addr:city": "Bosa", "addr:housenumber": "22", "addr:postcode": "08013", "addr:street": "Via Nazionale", "amenity": "restaurant", "name": "Al Gambero Rosso"}}, {"type": "node", "id": 2713014794, "lat": 40.297333, "lon": 8.4824653, "tags": {"amenity": "restaurant", "contact:email": "info@ristorantesascovas.it", "contact:facebook": "https://www.facebook.com/pages/Sas-Covas/249525751748584/", "contact:phone": "+39 0785 37 20 33;+39 328 75 61 689", "contact:website": "http://www.ristorantesascovas.it", "name": "Sas Covas", "opening_hours": "Tu-Su 19:00-23:00"}}, {"type": "node", "id": 2713014799, "lat": 40.2949968, "lon": 8.5034845, "tags": {"addr:city": "Bosa", "addr:housenumber": "13", "addr:postcode": "08013", "addr:street": "Lungo Temo Alcide De Gasperi", "amenity": "restaurant", "check_date": "2024-09-12", "contact:facebook": "https://www.facebook.com/Sa-Nassa-831720176906362/", "contact:phone": "+39 0785 373 834", "cuisine": "italian;fish", "diet:vegan": "yes", "diet:vegetarian": "yes", "name": "Trattoria Sa Nassa"}}, {"type": "node", "id": 2734082615, "lat": 40.2438054, "lon": 8.6654614}, {"type": "node", "id": 2734082616, "lat": 40.2436419, "lon": 8.6656411}, {"type": "node", "id": 2734082617, "lat": 40.2436607, "lon": 8.6655714}, {"type": "node", "id": 2734082621, "lat": 40.243694, "lon": 8.6656653}, {"type": "node", "id": 2734082626, "lat": 40.2437675, "lon": 8.6657045}, {"type": "node", "id": 2734082636, "lat": 40.2437923, "lon": 8.6655097}, {"type": "node", "id": 2734082639, "lat": 40.2437063, "lon": 8.6656194}, {"type": "node", "id": 2734082683, "lat": 40.2436686, "lon": 8.6654523}, {"type": "node", "id": 2734082684, "lat": 40.2438387, "lon": 8.6656563}, {"type": "node", "id": 2734082686, "lat": 40.2437812, "lon": 8.6656541}, {"type": "node", "id": 2734082699, "lat": 40.2438192, "lon": 8.6657284}, {"type": "node", "id": 2734082702, "lat": 40.243867, "lon": 8.6656695}, {"type": "node", "id": 2734082709, "lat": 40.2436391, "lon": 8.6655614}, {"type": "node", "id": 2734082721, "lat": 40.2439101, "lon": 8.6655099}, {"type": "node", "id": 2802037617, "lat": 40.2682302, "lon": 8.4887793}, {"type": "node", "id": 2802037652, "lat": 40.268214, "lon": 8.4886707}, {"type": "node", "id": 2802045282, "lat": 40.2910596, "lon": 8.5126043, "tags": {"amenity": "restaurant", "contact:phone": "+30 339 209 0967", "contact:website": "http://www.agriturismobainasbosa.com", "cuisine": "regional", "name": "Agriturismo Bainas"}}, {"type": "node", "id": 2834298667, "lat": 39.8927398, "lon": 8.5994301}, {"type": "node", "id": 2834302281, "lat": 39.8923274, "lon": 8.6765736}, {"type": "node", "id": 2834302533, "lat": 39.8924324, "lon": 8.6764093}, {"type": "node", "id": 2834302591, "lat": 39.8924784, "lon": 8.6767374}, {"type": "node", "id": 2834302734, "lat": 39.8925834, "lon": 8.6765731}, {"type": "node", "id": 2834303124, "lat": 39.8927921, "lon": 8.5995389}, {"type": "node", "id": 2834303199, "lat": 39.8928683, "lon": 8.599326}, {"type": "node", "id": 2834303230, "lat": 39.8928929, "lon": 8.5993773}, {"type": "node", "id": 2834303251, "lat": 39.8929073, "lon": 8.5993656}, {"type": "node", "id": 2834303274, "lat": 39.8929349, "lon": 8.5994232}, {"type": "node", "id": 2834317935, "lat": 39.898715, "lon": 8.5934384}, {"type": "node", "id": 2834317946, "lat": 39.898718, "lon": 8.5932953}, {"type": "node", "id": 2834318009, "lat": 39.8987473, "lon": 8.5934364}, {"type": "node", "id": 2834318012, "lat": 39.8987489, "lon": 8.5933037}, {"type": "node", "id": 2834318035, "lat": 39.8987597, "lon": 8.5933089}, {"type": "node", "id": 2834318066, "lat": 39.8987801, "lon": 8.5934048}, {"type": "node", "id": 2834340116, "lat": 39.9037191, "lon": 8.5905092}, {"type": "node", "id": 2834340285, "lat": 39.9037789, "lon": 8.5905054}, {"type": "node", "id": 2834340732, "lat": 39.9039151, "lon": 8.6036536}, {"type": "node", "id": 2834340753, "lat": 39.9039221, "lon": 8.6035834}, {"type": "node", "id": 2834340830, "lat": 39.9039471, "lon": 8.6035879}, {"type": "node", "id": 2834340852, "lat": 39.9039559, "lon": 8.6035023}, {"type": "node", "id": 2834341230, "lat": 39.9040515, "lon": 8.6035186}, {"type": "node", "id": 2834341264, "lat": 39.9040615, "lon": 8.6034205}, {"type": "node", "id": 2834341399, "lat": 39.904102, "lon": 8.6035302}, {"type": "node", "id": 2834341400, "lat": 39.9041025, "lon": 8.6034848}, {"type": "node", "id": 2834341413, "lat": 39.9041066, "lon": 8.6034855}, {"type": "node", "id": 2834341417, "lat": 39.9041083, "lon": 8.6034285}, {"type": "node", "id": 2834341550, "lat": 39.9041758, "lon": 8.6036984}, {"type": "node", "id": 2834341559, "lat": 39.9041793, "lon": 8.603664}, {"type": "node", "id": 2834341575, "lat": 39.9041827, "lon": 8.6036192}, {"type": "node", "id": 2834341589, "lat": 39.9041902, "lon": 8.6035454}, {"type": "node", "id": 2834341626, "lat": 39.9042024, "lon": 8.603668}, {"type": "node", "id": 2834341635, "lat": 39.9042069, "lon": 8.6036233}, {"type": "node", "id": 2834341701, "lat": 39.9042342, "lon": 8.6018244}, {"type": "node", "id": 2834341722, "lat": 39.9042471, "lon": 8.601906}, {"type": "node", "id": 2834341747, "lat": 39.9042469, "lon": 8.6018218}, {"type": "node", "id": 2834342215, "lat": 39.9043379, "lon": 8.6017692}, {"type": "node", "id": 2834342258, "lat": 39.9043501, "lon": 8.6017659}, {"type": "node", "id": 2834342300, "lat": 39.9043689, "lon": 8.6018735}, {"type": "node", "id": 2834346078, "lat": 39.9052095, "lon": 8.5974062}, {"type": "node", "id": 2834346097, "lat": 39.9052152, "lon": 8.5974167}, {"type": "node", "id": 2834346286, "lat": 39.9052467, "lon": 8.5973876}, {"type": "node", "id": 2834346307, "lat": 39.9052558, "lon": 8.5971042}, {"type": "node", "id": 2834346402, "lat": 39.9052836, "lon": 8.5974587}, {"type": "node", "id": 2834346411, "lat": 39.9052866, "lon": 8.5973509}, {"type": "node", "id": 2834346502, "lat": 39.905319, "lon": 8.5972336}, {"type": "node", "id": 2834346512, "lat": 39.905322, "lon": 8.5973183}, {"type": "node", "id": 2834346523, "lat": 39.9053251, "lon": 8.5974261}, {"type": "node", "id": 2834353135, "lat": 39.9070064, "lon": 8.5162501}, {"type": "node", "id": 2834354234, "lat": 39.9071739, "lon": 8.5161338}, {"type": "node", "id": 2834354256, "lat": 39.9071828, "lon": 8.5161021}, {"type": "node", "id": 2834354295, "lat": 39.9071958, "lon": 8.516218}, {"type": "node", "id": 2834354586, "lat": 39.9070541, "lon": 8.5160795}, {"type": "node", "id": 2834354776, "lat": 39.9070851, "lon": 8.5160942}, {"type": "node", "id": 2834354795, "lat": 39.9070934, "lon": 8.5160646}, {"type": "node", "id": 2834355247, "lat": 39.9071572, "lon": 8.5161258}, {"type": "node", "id": 2834355271, "lat": 39.9071648, "lon": 8.5160986}, {"type": "node", "id": 2834355423, "lat": 39.9072046, "lon": 8.5161124}, {"type": "node", "id": 2834355433, "lat": 39.9072104, "lon": 8.5160917}, {"type": "node", "id": 2834355484, "lat": 39.9072287, "lon": 8.5161004}, {"type": "node", "id": 2834355674, "lat": 39.9072649, "lon": 8.516373}, {"type": "node", "id": 2834355855, "lat": 39.907295, "lon": 8.5162651}, {"type": "node", "id": 2834358428, "lat": 39.9079379, "lon": 8.6005511}, {"type": "node", "id": 2834358832, "lat": 39.9080172, "lon": 8.6006942}, {"type": "node", "id": 2834359049, "lat": 39.9080909, "lon": 8.6004033}, {"type": "node", "id": 2834359180, "lat": 39.9081463, "lon": 8.6005691}, {"type": "node", "id": 2834359215, "lat": 39.9081583, "lon": 8.6005309}, {"type": "node", "id": 2834359413, "lat": 39.9082241, "lon": 8.6005608}, {"type": "node", "id": 2834359511, "lat": 39.9082462, "lon": 8.6004789}, {"type": "node", "id": 2834372375, "lat": 39.9129199, "lon": 8.5866437}, {"type": "node", "id": 2834373464, "lat": 39.913258, "lon": 8.5891212}, {"type": "node", "id": 2834373500, "lat": 39.9133111, "lon": 8.5892638}, {"type": "node", "id": 2834373603, "lat": 39.9133148, "lon": 8.5892739}, {"type": "node", "id": 2834373615, "lat": 39.9133361, "lon": 8.5890719}, {"type": "node", "id": 2834373619, "lat": 39.9133423, "lon": 8.5890894}, {"type": "node", "id": 2834373641, "lat": 39.9133848, "lon": 8.5892062}, {"type": "node", "id": 2834373645, "lat": 39.913392, "lon": 8.5892255}, {"type": "node", "id": 2834373651, "lat": 39.9133965, "lon": 8.5890344}, {"type": "node", "id": 2834373655, "lat": 39.9134027, "lon": 8.5890517}, {"type": "node", "id": 2834373682, "lat": 39.9134452, "lon": 8.5891684}, {"type": "node", "id": 2834373686, "lat": 39.9134522, "lon": 8.5891878}, {"type": "node", "id": 2834373698, "lat": 39.913474, "lon": 8.5889857}, {"type": "node", "id": 2834373830, "lat": 39.9135308, "lon": 8.5891384}, {"type": "node", "id": 2834377975, "lat": 39.9157339, "lon": 8.5844821}, {"type": "node", "id": 2834378388, "lat": 39.9163287, "lon": 8.6150841}, {"type": "node", "id": 2834378399, "lat": 39.9163459, "lon": 8.6150788}, {"type": "node", "id": 2834378405, "lat": 39.9163598, "lon": 8.6152538}, {"type": "node", "id": 2834378407, "lat": 39.9163626, "lon": 8.6150874}, {"type": "node", "id": 2834378418, "lat": 39.916388, "lon": 8.6151072}, {"type": "node", "id": 2834378426, "lat": 39.9164121, "lon": 8.6151461}, {"type": "node", "id": 2834378430, "lat": 39.9164249, "lon": 8.6151842}, {"type": "node", "id": 2834378432, "lat": 39.9164289, "lon": 8.6152076}, {"type": "node", "id": 2834378435, "lat": 39.9164297, "lon": 8.6152318}, {"type": "node", "id": 2834384623, "lat": 39.92362, "lon": 8.5678043}, {"type": "node", "id": 2834384636, "lat": 39.9236643, "lon": 8.5676875}, {"type": "node", "id": 2834384642, "lat": 39.923693, "lon": 8.5679588}, {"type": "node", "id": 2834384644, "lat": 39.9236983, "lon": 8.5677577}, {"type": "node", "id": 2834384646, "lat": 39.9237013, "lon": 8.5676571}, {"type": "node", "id": 2834384655, "lat": 39.9237321, "lon": 8.5679548}, {"type": "node", "id": 2834384658, "lat": 39.9237477, "lon": 8.5678414}, {"type": "node", "id": 2834384673, "lat": 39.9238251, "lon": 8.567841}, {"type": "node", "id": 2834384677, "lat": 39.9238354, "lon": 8.567745}, {"type": "node", "id": 2843131492, "lat": 39.9285769, "lon": 8.6932529}, {"type": "node", "id": 2843131507, "lat": 39.9286223, "lon": 8.6933861}, {"type": "node", "id": 2843131527, "lat": 39.9287609, "lon": 8.6931463}, {"type": "node", "id": 2843131531, "lat": 39.9288063, "lon": 8.6932796}, {"type": "node", "id": 2903905994, "lat": 40.0311154, "lon": 8.3897849, "tags": {"amenity": "restaurant", "name": "Baia Blu"}}, {"type": "node", "id": 2913717948, "lat": 39.9033546, "lon": 8.523648}, {"type": "node", "id": 2913717951, "lat": 39.9057455, "lon": 8.517562}, {"type": "node", "id": 2913717961, "lat": 39.9057032, "lon": 8.5176922}, {"type": "node", "id": 2913717963, "lat": 39.9056458, "lon": 8.517507}, {"type": "node", "id": 2913717966, "lat": 39.9035295, "lon": 8.5234575}, {"type": "node", "id": 2913717970, "lat": 39.9056035, "lon": 8.5176371}, {"type": "node", "id": 2913717972, "lat": 39.9034183, "lon": 8.523698}, {"type": "node", "id": 2913717973, "lat": 39.9034275, "lon": 8.5233775}, {"type": "node", "id": 2913722853, "lat": 39.8808881, "lon": 8.4385066}, {"type": "node", "id": 2913722854, "lat": 39.8810734, "lon": 8.4385576}, {"type": "node", "id": 2913722855, "lat": 39.8809306, "lon": 8.4386367}, {"type": "node", "id": 2913722856, "lat": 39.8810309, "lon": 8.4384275}, {"type": "node", "id": 2913766912, "lat": 40.0285353, "lon": 8.4076505, "tags": {"addr:street": "Via Benedetto Sanna", "amenity": "restaurant", "cuisine": "italian", "name": "Stella del Mare"}}, {"type": "node", "id": 2913805701, "lat": 40.0349122, "lon": 8.3991722, "tags": {"amenity": "restaurant", "cuisine": "italian", "name": "La Pagoda"}}, {"type": "node", "id": 2913818779, "lat": 40.0333561, "lon": 8.3997163, "tags": {"addr:housenumber": "1", "addr:postcode": "09070", "addr:street": "Lungomare", "amenity": "restaurant", "contact:phone": "+39 0783 52005", "cuisine": "italian;pizza", "name": "Pizzeria Lepori"}}, {"type": "node", "id": 2929585169, "lat": 40.2950241, "lon": 8.5032292, "tags": {"addr:city": "Bosa", "addr:housenumber": "19", "addr:postcode": "08013", "addr:street": "Lungo Temo Alcide De Gasperi", "amenity": "cafe", "cuisine": "italian", "name": "Zio Tore"}}, {"type": "node", "id": 2931557849, "lat": 39.9270306, "lon": 8.4517371}, {"type": "node", "id": 2931557851, "lat": 39.9268126, "lon": 8.4515493}, {"type": "node", "id": 2931557854, "lat": 39.9269853, "lon": 8.4514957}, {"type": "node", "id": 2931557856, "lat": 39.9269051, "lon": 8.4517129}, {"type": "node", "id": 2931557861, "lat": 39.9268846, "lon": 8.4517451}, {"type": "node", "id": 2931557863, "lat": 39.9267673, "lon": 8.4516512}, {"type": "node", "id": 2931557864, "lat": 39.9270979, "lon": 8.4515848}, {"type": "node", "id": 2931557865, "lat": 39.9269586, "lon": 8.4516888}, {"type": "node", "id": 2976928530, "lat": 40.0209939, "lon": 8.6716207}, {"type": "node", "id": 2976928844, "lat": 40.0209414, "lon": 8.6714919}, {"type": "node", "id": 2976928897, "lat": 40.0210977, "lon": 8.6714823}, {"type": "node", "id": 2992603139, "lat": 39.984957, "lon": 8.5607055}, {"type": "node", "id": 2992603140, "lat": 39.9850378, "lon": 8.5608204}, {"type": "node", "id": 2992603142, "lat": 39.985074, "lon": 8.5605655}, {"type": "node", "id": 2992603144, "lat": 39.9850878, "lon": 8.5605852}, {"type": "node", "id": 2992603147, "lat": 39.9851467, "lon": 8.56069}, {"type": "node", "id": 2992603148, "lat": 39.9851625, "lon": 8.5604957}, {"type": "node", "id": 2992603149, "lat": 39.9851662, "lon": 8.5607178}, {"type": "node", "id": 2992603150, "lat": 39.9851821, "lon": 8.5606988}, {"type": "node", "id": 2992603153, "lat": 39.9852481, "lon": 8.5607928}, {"type": "node", "id": 2992603154, "lat": 39.985315, "lon": 8.5607127}, {"type": "node", "id": 2996575151, "lat": 39.8812473, "lon": 8.43894}, {"type": "node", "id": 2996575153, "lat": 39.8812628, "lon": 8.4389698}, {"type": "node", "id": 2996575345, "lat": 39.8829384, "lon": 8.4362663}, {"type": "node", "id": 2996575347, "lat": 39.8829659, "lon": 8.436344}, {"type": "node", "id": 2996581453, "lat": 39.9106435, "lon": 8.5331053}, {"type": "node", "id": 2996581454, "lat": 39.9106551, "lon": 8.5332188}, {"type": "node", "id": 2996581455, "lat": 39.9106648, "lon": 8.5330379}, {"type": "node", "id": 2996581456, "lat": 39.9106987, "lon": 8.5329638}, {"type": "node", "id": 2996581457, "lat": 39.9107427, "lon": 8.5329133}, {"type": "node", "id": 2996581458, "lat": 39.9107705, "lon": 8.5329857}, {"type": "node", "id": 2996581459, "lat": 39.9107869, "lon": 8.5332828}, {"type": "node", "id": 2996581460, "lat": 39.910813, "lon": 8.5329478}, {"type": "node", "id": 2996581463, "lat": 39.9109294, "lon": 8.5331728}, {"type": "node", "id": 2996583431, "lat": 39.9176912, "lon": 8.5461246}, {"type": "node", "id": 2996584039, "lat": 39.9177432, "lon": 8.5462059}, {"type": "node", "id": 2996584048, "lat": 39.9178279, "lon": 8.5459775}, {"type": "node", "id": 2996584051, "lat": 39.9178797, "lon": 8.5460588}, {"type": "node", "id": 2996584672, "lat": 39.9193089, "lon": 8.4926107}, {"type": "node", "id": 2996584675, "lat": 39.9193605, "lon": 8.4924942}, {"type": "node", "id": 2996584678, "lat": 39.9194012, "lon": 8.4926802}, {"type": "node", "id": 2996584682, "lat": 39.9194527, "lon": 8.4925637}, {"type": "node", "id": 2996587169, "lat": 39.9213826, "lon": 8.5638826}, {"type": "node", "id": 2996587170, "lat": 39.9213991, "lon": 8.5639686}, {"type": "node", "id": 2996587175, "lat": 39.9214254, "lon": 8.5639167}, {"type": "node", "id": 2996587176, "lat": 39.9214264, "lon": 8.5637904}, {"type": "node", "id": 2996587188, "lat": 39.9214848, "lon": 8.5640293}, {"type": "node", "id": 2996587205, "lat": 39.9215476, "lon": 8.5638834}, {"type": "node", "id": 2996603329, "lat": 39.9272509, "lon": 8.4575635}, {"type": "node", "id": 2996604428, "lat": 39.9273373, "lon": 8.4573055}, {"type": "node", "id": 2996604956, "lat": 39.9273696, "lon": 8.457631}, {"type": "node", "id": 2996605144, "lat": 39.9274559, "lon": 8.457373}, {"type": "node", "id": 2996622101, "lat": 39.930706, "lon": 8.5321795}, {"type": "node", "id": 2996649843, "lat": 39.9359314, "lon": 8.5282799}, {"type": "node", "id": 2996649854, "lat": 39.9359467, "lon": 8.5287373}, {"type": "node", "id": 2996649866, "lat": 39.9359677, "lon": 8.5282778}, {"type": "node", "id": 2996649868, "lat": 39.9359705, "lon": 8.5283597}, {"type": "node", "id": 2996649888, "lat": 39.9360146, "lon": 8.5285368}, {"type": "node", "id": 2996649893, "lat": 39.9360185, "lon": 8.5286537}, {"type": "node", "id": 2996650150, "lat": 39.9361387, "lon": 8.5285298}, {"type": "node", "id": 2996650152, "lat": 39.9361413, "lon": 8.5286054}, {"type": "node", "id": 2996650155, "lat": 39.9361447, "lon": 8.5286465}, {"type": "node", "id": 2996650157, "lat": 39.9361474, "lon": 8.528726}, {"type": "node", "id": 2996650180, "lat": 39.9362007, "lon": 8.5283464}, {"type": "node", "id": 2996650181, "lat": 39.9362095, "lon": 8.5286014}, {"type": "node", "id": 2996659169, "lat": 39.9516839, "lon": 8.5316411}, {"type": "node", "id": 2996659172, "lat": 39.951776, "lon": 8.5314173}, {"type": "node", "id": 2996659175, "lat": 39.9518298, "lon": 8.5317424}, {"type": "node", "id": 2996659182, "lat": 39.9519292, "lon": 8.5315278}, {"type": "node", "id": 3000579211, "lat": 40.268004, "lon": 8.4888163}, {"type": "node", "id": 3000579218, "lat": 40.2680349, "lon": 8.4887925}, {"type": "node", "id": 3000579223, "lat": 40.2680798, "lon": 8.4885168}, {"type": "node", "id": 3000579340, "lat": 40.2681411, "lon": 8.4885086}, {"type": "node", "id": 3001324993, "lat": 40.2884134, "lon": 8.480528}, {"type": "node", "id": 3001325022, "lat": 40.2885013, "lon": 8.4803827}, {"type": "node", "id": 3001325023, "lat": 40.2885018, "lon": 8.4806199}, {"type": "node", "id": 3001325029, "lat": 40.288519, "lon": 8.4805914}, {"type": "node", "id": 3001325047, "lat": 40.288558, "lon": 8.4804415}, {"type": "node", "id": 3001325056, "lat": 40.2885734, "lon": 8.480648}, {"type": "node", "id": 3001325085, "lat": 40.2886389, "lon": 8.4805396}, {"type": "node", "id": 3001326167, "lat": 40.2898323, "lon": 8.4756532}, {"type": "node", "id": 3001326168, "lat": 40.2898327, "lon": 8.4757407}, {"type": "node", "id": 3001326174, "lat": 40.2898721, "lon": 8.4756626}, {"type": "node", "id": 3001326176, "lat": 40.2898817, "lon": 8.4756042}, {"type": "node", "id": 3001326183, "lat": 40.2899028, "lon": 8.4758828}, {"type": "node", "id": 3001326204, "lat": 40.2899662, "lon": 8.4756295}, {"type": "node", "id": 3001326205, "lat": 40.2899675, "lon": 8.4759147}, {"type": "node", "id": 3001326206, "lat": 40.2899748, "lon": 8.4758725}, {"type": "node", "id": 3001326218, "lat": 40.2899996, "lon": 8.4758788}, {"type": "node", "id": 3001326224, "lat": 40.2900214, "lon": 8.475749}, {"type": "node", "id": 3001353097, "lat": 40.3130965, "lon": 8.4642733}, {"type": "node", "id": 3001353098, "lat": 40.3131393, "lon": 8.4644009}, {"type": "node", "id": 3001353099, "lat": 40.3131596, "lon": 8.4642406}, {"type": "node", "id": 3001353100, "lat": 40.3131609, "lon": 8.4645381}, {"type": "node", "id": 3001353248, "lat": 40.3132022, "lon": 8.4643684}, {"type": "node", "id": 3001353251, "lat": 40.3132274, "lon": 8.4645101}, {"type": "node", "id": 3010031543, "lat": 40.02105, "lon": 8.6713842}, {"type": "node", "id": 3010031544, "lat": 40.0210576, "lon": 8.6713974}, {"type": "node", "id": 3013249124, "lat": 39.9896832, "lon": 8.6431767}, {"type": "node", "id": 3013249126, "lat": 39.98971, "lon": 8.6432784}, {"type": "node", "id": 3013249129, "lat": 39.9897376, "lon": 8.6432407}, {"type": "node", "id": 3013249131, "lat": 39.9897781, "lon": 8.6430395}, {"type": "node", "id": 3013249132, "lat": 39.9898116, "lon": 8.6433969}, {"type": "node", "id": 3013249233, "lat": 39.9898373, "lon": 8.6433596}, {"type": "node", "id": 3013249234, "lat": 39.9898703, "lon": 8.6433982}, {"type": "node", "id": 3013249235, "lat": 39.9898845, "lon": 8.6433778}, {"type": "node", "id": 3013249236, "lat": 39.9899205, "lon": 8.6434199}, {"type": "node", "id": 3013249237, "lat": 39.9899576, "lon": 8.6433456}, {"type": "node", "id": 3013249239, "lat": 39.9899655, "lon": 8.6433548}, {"type": "node", "id": 3013249243, "lat": 39.9899944, "lon": 8.6432924}, {"type": "node", "id": 3013310941, "lat": 40.2247289, "lon": 8.4881264}, {"type": "node", "id": 3013310942, "lat": 40.2247327, "lon": 8.4882852}, {"type": "node", "id": 3013310945, "lat": 40.224829, "lon": 8.4881256}, {"type": "node", "id": 3013310946, "lat": 40.2248306, "lon": 8.4880695}, {"type": "node", "id": 3013310947, "lat": 40.2248874, "lon": 8.4880688}, {"type": "node", "id": 3013310948, "lat": 40.2248884, "lon": 8.4882839}, {"type": "node", "id": 3024667243, "lat": 39.9188559, "lon": 8.5266435, "tags": {"addr:city": "Cabras", "addr:housenumber": "km 1,8", "addr:postcode": "09072", "addr:street": "SP94", "amenity": "restaurant", "cuisine": "pizza", "name": "Pizzeria Bisteccheria Modamusic Summer", "phone:mobile": "+39 349 7902377"}}, {"type": "node", "id": 3024703341, "lat": 39.9362912, "lon": 8.572756, "tags": {"amenity": "restaurant", "cuisine": "pizza"}}, {"type": "node", "id": 3024730135, "lat": 39.93099, "lon": 8.5503017, "tags": {"addr:city": "Solanas", "addr:housenumber": "1", "addr:postcode": "09072", "addr:street": "Via Giovanni Marras", "amenity": "restaurant", "cuisine": "pizza", "name": "Pizzeria Bisteccheria Modamusic Jazz", "opening_hours": "Tu-Su 20:00-24:00", "phone": "+39 0783 391428"}}, {"type": "node", "id": 3025989886, "lat": 40.1643768, "lon": 8.52823}, {"type": "node", "id": 3025989887, "lat": 40.164384, "lon": 8.5280717}, {"type": "node", "id": 3025989888, "lat": 40.1644098, "lon": 8.5281711}, {"type": "node", "id": 3025989889, "lat": 40.1644103, "lon": 8.528025}, {"type": "node", "id": 3025989890, "lat": 40.1644141, "lon": 8.5281005}, {"type": "node", "id": 3025989891, "lat": 40.1644427, "lon": 8.5280076}, {"type": "node", "id": 3025989892, "lat": 40.1644848, "lon": 8.5280962}, {"type": "node", "id": 3025989893, "lat": 40.1645024, "lon": 8.5280647}, {"type": "node", "id": 3028394640, "lat": 40.1422354, "lon": 8.6506327}, {"type": "node", "id": 3028394642, "lat": 40.1422374, "lon": 8.6506991}, {"type": "node", "id": 3028394643, "lat": 40.1422379, "lon": 8.6507159}, {"type": "node", "id": 3028394706, "lat": 40.1422927, "lon": 8.6507104}, {"type": "node", "id": 3028394709, "lat": 40.1422947, "lon": 8.6507327}, {"type": "node", "id": 3028395858, "lat": 40.1423845, "lon": 8.6507301}, {"type": "node", "id": 3028397556, "lat": 40.1424828, "lon": 8.6507272}, {"type": "node", "id": 3028397563, "lat": 40.1424934, "lon": 8.6505982}, {"type": "node", "id": 3028405219, "lat": 40.1772434, "lon": 8.6649205}, {"type": "node", "id": 3028405222, "lat": 40.177284, "lon": 8.6648247}, {"type": "node", "id": 3028405224, "lat": 40.1773165, "lon": 8.6648483}, {"type": "node", "id": 3028405226, "lat": 40.1773491, "lon": 8.6647714}, {"type": "node", "id": 3028405231, "lat": 40.1773905, "lon": 8.6650273}, {"type": "node", "id": 3028405333, "lat": 40.1774026, "lon": 8.6649233}, {"type": "node", "id": 3028405335, "lat": 40.177427, "lon": 8.664941}, {"type": "node", "id": 3028405336, "lat": 40.1774393, "lon": 8.6648368}, {"type": "node", "id": 3028518540, "lat": 40.017328, "lon": 8.6063403}, {"type": "node", "id": 3028518559, "lat": 40.0173719, "lon": 8.6061975}, {"type": "node", "id": 3028518635, "lat": 40.0174763, "lon": 8.6064174}, {"type": "node", "id": 3028518649, "lat": 40.0175202, "lon": 8.6062746}, {"type": "node", "id": 3028520815, "lat": 40.0225065, "lon": 8.4506427}, {"type": "node", "id": 3028520823, "lat": 40.0225355, "lon": 8.4509198}, {"type": "node", "id": 3028521087, "lat": 40.0227062, "lon": 8.4507046}, {"type": "node", "id": 3028521090, "lat": 40.0227253, "lon": 8.4508863}, {"type": "node", "id": 3028521100, "lat": 40.0227574, "lon": 8.4505984}, {"type": "node", "id": 3028521103, "lat": 40.0227674, "lon": 8.4506938}, {"type": "node", "id": 3044509201, "lat": 40.1898546, "lon": 8.5674983, "tags": {"amenity": "cafe", "name": "Caff\u00e8 Tomoka"}}, {"type": "node", "id": 3048960920, "lat": 39.9067672, "lon": 8.5937537, "tags": {"amenity": "restaurant", "cuisine": "seafood", "name": "Da Sid", "opening_hours": "Tu-Th 19:00-22:30; Fr-Su 13:00-14:30,19:00-22:30"}}, {"type": "node", "id": 3048961255, "lat": 39.8973767, "lon": 8.5948494, "tags": {"addr:city": "Oristano", "addr:housenumber": "422", "addr:postcode": "09170", "addr:street": "Via Cagliari", "amenity": "cafe", "name": "Bar Pasticceria La Dolce Vita", "opening_hours": "Mo-Su 07:00-21:00", "operator": "N.G. S.r.l.", "ref:vatin": "IT01155450958"}}, {"type": "node", "id": 3057815549, "lat": 40.2978415, "lon": 8.4986789, "tags": {"amenity": "cafe", "name": "Art Caf\u00e8"}}, {"type": "node", "id": 3099621398, "lat": 39.9493586, "lon": 8.6363719}, {"type": "node", "id": 3099622916, "lat": 39.9614567, "lon": 8.6195485}, {"type": "node", "id": 3099622923, "lat": 39.9615798, "lon": 8.6194107}, {"type": "node", "id": 3099623130, "lat": 39.961646, "lon": 8.6199552}, {"type": "node", "id": 3099623132, "lat": 39.9616622, "lon": 8.6198537}, {"type": "node", "id": 3099623133, "lat": 39.9616765, "lon": 8.6199824}, {"type": "node", "id": 3099623134, "lat": 39.9616876, "lon": 8.6198763}, {"type": "node", "id": 3099623136, "lat": 39.9617071, "lon": 8.6197686}, {"type": "node", "id": 3099623137, "lat": 39.9617108, "lon": 8.6199172}, {"type": "node", "id": 3099623142, "lat": 39.9617665, "lon": 8.6199667}, {"type": "node", "id": 3099623148, "lat": 39.9618052, "lon": 8.6198932}, {"type": "node", "id": 3099623152, "lat": 39.9618492, "lon": 8.6199322}, {"type": "node", "id": 3099623153, "lat": 39.9618689, "lon": 8.6198946}, {"type": "node", "id": 3099623158, "lat": 39.9619018, "lon": 8.6196982}, {"type": "node", "id": 3099623162, "lat": 39.9619216, "lon": 8.6199413}, {"type": "node", "id": 3099623163, "lat": 39.9619247, "lon": 8.6198384}, {"type": "node", "id": 3099623164, "lat": 39.9619487, "lon": 8.6196093}, {"type": "node", "id": 3099623168, "lat": 39.9619593, "lon": 8.6198693}, {"type": "node", "id": 3099623170, "lat": 39.9620146, "lon": 8.6196679}, {"type": "node", "id": 3222895433, "lat": 39.9892544, "lon": 8.7503015}, {"type": "node", "id": 3222895434, "lat": 39.9892823, "lon": 8.7502424}, {"type": "node", "id": 3222895435, "lat": 39.9893369, "lon": 8.7502402}, {"type": "node", "id": 3222895436, "lat": 39.9893576, "lon": 8.7503081}, {"type": "node", "id": 3222895437, "lat": 39.989328, "lon": 8.7503617}, {"type": "node", "id": 3222895438, "lat": 39.9893039, "lon": 8.7503666}, {"type": "node", "id": 3222895439, "lat": 39.9892722, "lon": 8.7503528}, {"type": "node", "id": 3222895452, "lat": 39.9888643, "lon": 8.7500896}, {"type": "node", "id": 3222895453, "lat": 39.9887712, "lon": 8.7499947}, {"type": "node", "id": 3222895454, "lat": 39.9888831, "lon": 8.7498075}, {"type": "node", "id": 3222895455, "lat": 39.9889763, "lon": 8.7499024}, {"type": "node", "id": 3231874846, "lat": 39.9490138, "lon": 8.7326261, "tags": {"addr:country": "IT", "addr:housenumber": "15", "addr:postcode": "09088", "addr:street": "Via Antonio Gramsci", "amenity": "restaurant", "cuisine": "pizza", "name": "Bar Pizzeria Da Lello", "opening_hours": "Mo-Su 08:00-24:00; Th off", "website": "https://www.facebook.com/antonio.delugas.5"}}, {"type": "node", "id": 3231874848, "lat": 39.9521002, "lon": 8.7339409, "tags": {"addr:country": "IT", "addr:housenumber": "49", "addr:postcode": "09088", "addr:street": "Via La Marmora", "amenity": "restaurant", "contact:facebook": "https://www.facebook.com/pages/Pizzeria-Capriccio/183692391672400", "cuisine": "pizza", "name": "Pizzeria Il Capriccio", "opening_hours": "Tu-Su 17:00-24:00", "oven": "wood_fired", "restaurant:type:it": "pizzeria", "takeaway": "yes"}}, {"type": "node", "id": 3233300897, "lat": 39.9302594, "lon": 8.6935873, "tags": {"addr:city": "Simaghis/Simaxis", "addr:country": "IT", "addr:housenumber": "265", "addr:postcode": "09088", "addr:street": "Via San Simaco", "amenity": "cafe", "name": "Caff\u00e8 Costadoro"}}, {"type": "node", "id": 3233849104, "lat": 39.9301747, "lon": 8.6908576, "tags": {"addr:city": "Simaghis/Simaxis", "addr:country": "IT", "addr:housenumber": "2", "addr:postcode": "09088", "addr:street": "Via Roma", "amenity": "cafe", "name": "Velox", "operator": "Dess\u00ec Roberto"}}, {"type": "node", "id": 3233894961, "lat": 39.9305771, "lon": 8.6899128, "tags": {"addr:city": "Simaghis/Simaxis", "addr:country": "IT", "addr:housenumber": "173", "addr:postcode": "09088", "addr:street": "Via San Simaco", "amenity": "cafe", "name": "Bar gelateria"}}, {"type": "node", "id": 3233957423, "lat": 39.9312657, "lon": 8.6868477, "tags": {"addr:city": "Simaghis/Simaxis", "addr:country": "IT", "addr:housenumber": "118", "addr:postcode": "09088", "addr:street": "Via San Simaco", "amenity": "cafe", "name": "Bar Cozzi'$"}}, {"type": "node", "id": 3234066863, "lat": 39.9481322, "lon": 8.6163186}, {"type": "node", "id": 3234066864, "lat": 39.9481964, "lon": 8.6166306}, {"type": "node", "id": 3234066867, "lat": 39.9482369, "lon": 8.6164004}, {"type": "node", "id": 3234066868, "lat": 39.9482569, "lon": 8.6164974}, {"type": "node", "id": 3234066871, "lat": 39.9483194, "lon": 8.616253}, {"type": "node", "id": 3234066872, "lat": 39.9483421, "lon": 8.6163636}, {"type": "node", "id": 3234066873, "lat": 39.9483535, "lon": 8.6164635}, {"type": "node", "id": 3234066874, "lat": 39.948375, "lon": 8.616568}, {"type": "node", "id": 3234066902, "lat": 39.9493235, "lon": 8.6363019}, {"type": "node", "id": 3234066903, "lat": 39.9493266, "lon": 8.6363742}, {"type": "node", "id": 3234066916, "lat": 39.9494697, "lon": 8.6362914}, {"type": "node", "id": 3234066917, "lat": 39.9494728, "lon": 8.6363637}, {"type": "node", "id": 3238667394, "lat": 39.9231719, "lon": 8.7397531}, {"type": "node", "id": 3238667396, "lat": 39.9231995, "lon": 8.7394641}, {"type": "node", "id": 3238667397, "lat": 39.9232131, "lon": 8.7393958}, {"type": "node", "id": 3238667398, "lat": 39.9232278, "lon": 8.7394737}, {"type": "node", "id": 3238667400, "lat": 39.9232846, "lon": 8.7397104}, {"type": "node", "id": 3238667402, "lat": 39.9232885, "lon": 8.7394643}, {"type": "node", "id": 3238667403, "lat": 39.9232965, "lon": 8.7394242}, {"type": "node", "id": 3238667405, "lat": 39.9233144, "lon": 8.7398015}, {"type": "node", "id": 3238667406, "lat": 39.9233163, "lon": 8.7395516}, {"type": "node", "id": 3238667407, "lat": 39.9233295, "lon": 8.7397257}, {"type": "node", "id": 3238667409, "lat": 39.9233605, "lon": 8.7395667}, {"type": "node", "id": 3238667410, "lat": 39.9233751, "lon": 8.7394937}, {"type": "node", "id": 3241163285, "lat": 39.9392457, "lon": 8.6401373, "tags": {"amenity": "cafe", "name": "Sporting Caff\u00e8"}}, {"type": "node", "id": 3245964027, "lat": 39.8905992, "lon": 8.5990868}, {"type": "node", "id": 3245964028, "lat": 39.8906193, "lon": 8.5991354}, {"type": "node", "id": 3245964029, "lat": 39.8906662, "lon": 8.5992416}, {"type": "node", "id": 3245964030, "lat": 39.8906899, "lon": 8.5992986}, {"type": "node", "id": 3245964031, "lat": 39.890696, "lon": 8.5990169}, {"type": "node", "id": 3245964033, "lat": 39.8907863, "lon": 8.599229}, {"type": "node", "id": 3246272151, "lat": 39.8970142, "lon": 8.595086, "tags": {"amenity": "cafe", "name": "Caff\u00e8 Casablanca", "opening_hours": "Mo-Sa 07:30-21:00, Su 11:00-13:00; PH off"}}, {"type": "node", "id": 3247312563, "lat": 39.9008132, "lon": 8.5901965, "tags": {"amenity": "cafe", "name": "Caffetteria Mulas", "opening_hours": "Mo-Sa 07:20-18:00"}}, {"type": "node", "id": 3252031622, "lat": 39.9591848, "lon": 8.7092036}, {"type": "node", "id": 3252031623, "lat": 39.9591866, "lon": 8.7091477}, {"type": "node", "id": 3252031625, "lat": 39.9592071, "lon": 8.7091754}, {"type": "node", "id": 3252031627, "lat": 39.9592329, "lon": 8.7090893}, {"type": "node", "id": 3252031629, "lat": 39.9592459, "lon": 8.709286}, {"type": "node", "id": 3252031633, "lat": 39.9593145, "lon": 8.7091995}, {"type": "node", "id": 3252237869, "lat": 40.0207795, "lon": 8.6038514}, {"type": "node", "id": 3252237870, "lat": 40.0208111, "lon": 8.6036938}, {"type": "node", "id": 3252237873, "lat": 40.0209683, "lon": 8.6037965}, {"type": "node", "id": 3252237874, "lat": 40.0209775, "lon": 8.6037507}, {"type": "node", "id": 3252237875, "lat": 40.0210077, "lon": 8.60381}, {"type": "node", "id": 3252237876, "lat": 40.0210193, "lon": 8.6037522}, {"type": "node", "id": 3252237877, "lat": 40.0210851, "lon": 8.6037748}, {"type": "node", "id": 3252237878, "lat": 40.0210911, "lon": 8.603958}, {"type": "node", "id": 3252237879, "lat": 40.021092, "lon": 8.6037404}, {"type": "node", "id": 3252237880, "lat": 40.021132, "lon": 8.6037541}, {"type": "node", "id": 3254347835, "lat": 39.9065832, "lon": 8.5148299}, {"type": "node", "id": 3254347836, "lat": 39.9066467, "lon": 8.5146017}, {"type": "node", "id": 3254347837, "lat": 39.9066872, "lon": 8.5148791}, {"type": "node", "id": 3254347838, "lat": 39.9067508, "lon": 8.5146509}, {"type": "node", "id": 3254347848, "lat": 39.9078561, "lon": 8.5091415}, {"type": "node", "id": 3254347849, "lat": 39.9078794, "lon": 8.5089726}, {"type": "node", "id": 3254347850, "lat": 39.9079861, "lon": 8.5091721}, {"type": "node", "id": 3254347851, "lat": 39.9080095, "lon": 8.5090032}, {"type": "node", "id": 3255107558, "lat": 39.9593043, "lon": 8.7092124}, {"type": "node", "id": 3265527286, "lat": 39.9055706, "lon": 8.5898046, "tags": {"addr:city": "Oristano", "addr:housenumber": "22", "addr:postcode": "09170", "addr:street": "Via Pietro Riccio", "amenity": "cafe", "name": "Temple Wine Bar", "opening_hours": "Mo-Fr 00:00-02:00, 07:00-24:00, Sa-Su 00:00-03:00, 07:00-24:00; PH off", "outdoor_seating": "yes"}}, {"type": "node", "id": 3265527290, "lat": 39.8955859, "lon": 8.6000619, "tags": {"addr:housenumber": "1", "addr:street": "Via Carbonia", "amenity": "restaurant", "contact:facebook": "https://www.facebook.com/pages/Ristorante-da-Salvatore/463071153754191", "cuisine": "italian", "name": "Ristorante Da Salvatore", "opening_hours": "Mo-Su 12:00-15:00,18:00-24:00; We off"}}, {"type": "node", "id": 3265795139, "lat": 39.8949947, "lon": 8.5944039, "tags": {"addr:housenumber": "25", "addr:street": "Via Gennargentu", "amenity": "restaurant", "cuisine": "pizza", "name": "Bar Pizzeria La Lanterna", "opening_hours": "Mo-Su 07:30-23:00; Tu off", "oven": "wood_fired", "restaurant:type:it": "pizzeria", "takeaway": "yes"}}, {"type": "node", "id": 3265795148, "lat": 39.908488, "lon": 8.5972493, "tags": {"addr:housenumber": "79", "addr:street": "Via Sardegna", "amenity": "restaurant", "cuisine": "pizza", "name": "Pizzeria Bisteccheria L'alchimista", "opening_hours": "Tu-Su 12:00-15:00,19:30-23:00", "oven": "wood_fired", "restaurant:type:it": "pizzeria", "takeaway": "yes", "website": "http://www.lalchimistapizzeria.it/"}}, {"type": "node", "id": 3265795152, "lat": 39.8988935, "lon": 8.5952835, "tags": {"addr:housenumber": "28", "addr:street": "Via Gialeto", "amenity": "restaurant", "cuisine": "pizza", "name": "Pizzeria La Mimosa", "oven": "wood_fired", "restaurant:type:it": "pizzeria", "takeaway": "yes"}}, {"type": "node", "id": 3265795154, "lat": 39.9076424, "lon": 8.5877713, "tags": {"addr:housenumber": "5", "addr:street": "Via Martiri di Belfiore", "amenity": "restaurant", "cuisine": "pizza", "name": "Pizzeria Nababbo", "oven": "wood_fired", "restaurant:type:it": "pizzeria", "takeaway": "yes"}}, {"type": "node", "id": 3265795158, "lat": 39.9116737, "lon": 8.5841714, "tags": {"addr:housenumber": "43", "addr:street": "Via Ernesto Campanelli", "amenity": "restaurant", "contact:facebook": "https://www.facebook.com/pages/IL-Giardino-Del-Cigno/108209349332248", "cuisine": "italian;pizza", "name": "Al Peco", "opening_hours": "Mo-Sa 13:00-22:45"}}, {"type": "node", "id": 3265795159, "lat": 39.8944635, "lon": 8.5891297, "tags": {"amenity": "restaurant", "cuisine": "italian", "name": "Ristorante Pomodoro", "website": "http://www.pomodorooristano.it"}}, {"type": "node", "id": 3266612591, "lat": 39.9060017, "lon": 8.5955706, "tags": {"addr:housenumber": "15", "addr:street": "Via Mariano Quarto d'Arborea", "amenity": "restaurant", "contact:facebook": "https://www.facebook.com/pages/Fantasy-pizzeria/135910053281780", "cuisine": "pizza", "name": "Pizzeria Fantasy", "opening_hours": "Tu-Su 19:00-22:00", "oven": "wood_fired", "restaurant:type:it": "pizzeria"}}, {"type": "node", "id": 3266612592, "lat": 39.9074595, "lon": 8.5200275, "tags": {"addr:city": "Torregrande", "addr:housenumber": "36", "addr:street": "Via della Pineta", "amenity": "restaurant", "contact:facebook": "https://www.facebook.com/Pizzerialapineta79", "cuisine": "pizza", "email": "pizzerialapineta@hotmail.com", "mobile": "+39 351 9554238", "name": "Pizzeria La Pineta", "opening_hours": "Tu-Su 19:30-23:59", "outdoor_seating": "yes", "oven": "wood_fired", "payment:american_express": "yes", "payment:coins": "yes", "payment:mastercard": "yes", "payment:visa": "yes", "ref:vatin": "IT01241670957", "restaurant:type:it": "pizzeria", "takeaway": "yes", "website": "https://www.pizzerialapineta.it/"}}, {"type": "node", "id": 3273338284, "lat": 39.9127424, "lon": 8.5865092}, {"type": "node", "id": 3273338286, "lat": 39.9128184, "lon": 8.5867139}, {"type": "node", "id": 3273338287, "lat": 39.9128549, "lon": 8.5864357}, {"type": "node", "id": 3275103162, "lat": 39.9305606, "lon": 8.5301159, "tags": {"addr:city": "Cabras", "addr:housenumber": "2", "addr:postcode": "09072", "addr:street": "Piazza Domenico Alberto Azuni", "air_conditioning": "yes", "amenity": "restaurant", "brewery": "various;birra_artigianale", "contact:facebook": "https://www.facebook.com/eticoburgeriabisteccheria", "cuisine": "burger;bisteccheria", "diet:meat": "yes", "diet:vegan": "yes", "diet:vegetarian": "yes", "name": "Etico", "oven": "wood_fired", "phone": "+39 379 191 5654", "restaurant:type:it": "pizzeria", "takeaway": "yes"}}, {"type": "node", "id": 3275103164, "lat": 39.9302099, "lon": 8.530595, "tags": {"addr:city": "Cabras", "addr:housenumber": "15", "addr:postcode": "09072", "addr:street": "Piazza Principe di Piemonte", "amenity": "restaurant", "cuisine": "pizza", "name": "Pizzeria 3.P", "oven": "wood_fired", "restaurant:type:it": "pizzeria", "takeaway": "yes"}}, {"type": "node", "id": 3275103165, "lat": 39.9276981, "lon": 8.5331111, "tags": {"addr:city": "Cabras", "addr:housenumber": "56", "addr:postcode": "09072", "addr:street": "Corso Italia", "amenity": "restaurant", "cuisine": "pizza", "name": "Pizzeria Da Sergio", "oven": "wood_fired", "restaurant:type:it": "pizzeria"}}, {"type": "node", "id": 3275103166, "lat": 39.930755, "lon": 8.5320356, "tags": {"addr:city": "Cabras", "addr:housenumber": "31", "addr:postcode": "09072", "addr:street": "Via Giuseppe Garibaldi", "amenity": "restaurant", "cuisine": "steak_house", "name": "Malu Entu", "restaurant:type:it": "bisteccheria"}}, {"type": "node", "id": 3275103169, "lat": 39.9308473, "lon": 8.5295928, "tags": {"addr:city": "Cabras", "addr:housenumber": "8", "addr:postcode": "09072", "addr:street": "Via Cesare Battisti", "amenity": "restaurant", "contact:website": "https://www.ristoranteilcaminettocabras.com", "cuisine": "fish;regional", "name": "Ristorante Il Caminetto", "opening_hours": "Tu-Su 12:45-14:40, 19:40-22:00", "phone": "+39 340 80 41 763", "wheelchair": "no"}}, {"type": "node", "id": 3275103170, "lat": 39.931567, "lon": 8.5349657, "tags": {"addr:city": "Cabras", "addr:housenumber": "43", "addr:postcode": "09072", "addr:street": "Via Amsicora", "alt_name": "Ristorante da Zia Belledda", "amenity": "restaurant", "contact:website": "https://www.ristoranteziabelledda.it", "cuisine": "fish;regional", "name": "Ristorante Zia Belledda", "opening_hours": "Mo-Su 13:00-15:00,20:00-22:30; Tu off", "phone": "+39 0783 290801"}}, {"type": "node", "id": 3275103171, "lat": 39.9306149, "lon": 8.5317899, "tags": {"addr:city": "Cabras", "addr:housenumber": "25", "addr:postcode": "09072", "addr:street": "Via Giuseppe Garibaldi", "amenity": "restaurant", "cuisine": "regional", "name": "Sa Funta'"}}, {"type": "node", "id": 3275103172, "lat": 39.9253567, "lon": 8.532371, "tags": {"addr:city": "Cabras", "addr:housenumber": "53", "addr:postcode": "09072", "addr:street": "Via Giacomo Leopardi", "air_conditioning": "yes", "amenity": "restaurant", "cuisine": "italian;fish;meat;regional", "email": "sazibba@gmail.com", "name": "Ristorante Leopardi", "not:name": "Sa_Zibba", "opening_hours": "Mo-Su 00:00-15:00,19:00-23:00", "phone": "+39 389 762 0863", "takeaway": "yes", "website": "https://www.facebook.com/Leopardicabras", "wheelchair": "yes"}}, {"type": "node", "id": 3275208833, "lat": 39.9082236, "lon": 8.5974589, "tags": {"addr:city": "Oristano", "addr:housenumber": "136", "addr:postcode": "09170", "addr:street": "Via Sardegna", "amenity": "restaurant", "cuisine": "chinese", "name": "La Muraglia"}}, {"type": "node", "id": 3275212213, "lat": 39.9038752, "lon": 8.5916494, "tags": {"addr:city": "Oristano", "addr:housenumber": "1", "addr:postcode": "09170", "addr:street": "Piazza Eleonora d'Arborea", "amenity": "cafe", "name": "Bar Pasticceria Eleonora", "official_name": "Bar Eleonora dei F.lli Arru & C. S.a.s.", "opening_hours": "Mo-Sa 07:00-15:00;Su off", "outdoor_seating": "yes", "phone": "+39 0783 71454", "ref:vatin": "IT00593060957", "shop": "confectionery"}}, {"type": "node", "id": 3275212222, "lat": 39.9027577, "lon": 8.5991097, "tags": {"addr:city": "Oristano", "addr:housenumber": "1", "addr:postcode": "09170", "addr:street": "Piazza Sant'Efisio", "amenity": "cafe", "name": "Mich Bar", "opening_hours": "Mo-Sa 07:00-21:00; Su 10:30-13:30"}}, {"type": "node", "id": 3275212898, "lat": 39.9012161, "lon": 8.5917251, "tags": {"addr:city": "Oristano", "addr:housenumber": "10", "addr:postcode": "09170", "addr:street": "Piazza Giuseppe Manno", "amenity": "cafe", "name": "Porta Mari", "opening_hours": "Mo-Sa 07:00-21:00; Su 07:00-14:00"}}, {"type": "node", "id": 3275213167, "lat": 39.9065567, "lon": 8.5922542, "tags": {"addr:city": "Oristano", "addr:housenumber": "10", "addr:postcode": "09170", "addr:street": "Via Figoli", "amenity": "cafe", "name": "Caf\u00e8 In Centro", "opening_hours": "Mo-Fr 07:00-21:15; Sa 07:00-23:00"}}, {"type": "node", "id": 3275213527, "lat": 39.9018001, "lon": 8.5916343, "tags": {"addr:city": "Oristano", "addr:housenumber": "10", "addr:postcode": "09170", "addr:street": "Vico Episcopio", "amenity": "restaurant", "name": "Osteria del vicolo"}}, {"type": "node", "id": 3275214354, "lat": 39.9034968, "lon": 8.5921951, "tags": {"addr:city": "Oristano", "addr:housenumber": "11", "addr:postcode": "09170", "addr:street": "Piazza Eleonora", "amenity": "cafe", "name": "New Barber Caf\u00e8", "opening_hours": "Mo-Sa 07:00-23:00; Su 18:00-23:00"}}, {"type": "node", "id": 3275214404, "lat": 39.9054974, "lon": 8.5905567, "tags": {"addr:city": "Oristano", "addr:housenumber": "11", "addr:postcode": "09170", "addr:street": "Via Diego Contini", "amenity": "restaurant", "name": "Da Gabriele - Trattoria"}}, {"type": "node", "id": 3275214408, "lat": 39.8948638, "lon": 8.590753, "tags": {"addr:city": "Oristano", "addr:housenumber": "11", "addr:postcode": "09170", "addr:street": "Via Dorando Petri", "amenity": "cafe", "name": "Bar La Fontana", "opening_hours": "Mo-Sa 04:00-20:00; PH off"}}, {"type": "node", "id": 3275214794, "lat": 39.9051393, "lon": 8.5920448, "tags": {"addr:city": "Oristano", "addr:housenumber": "11", "addr:postcode": "09170", "addr:street": "Via Parpaglia", "amenity": "restaurant", "contact:facebook": "https://www.facebook.com/EleBistrot/", "cuisine": "italian", "name": "Ele Bistrot", "opening_hours": "Mo-Su 12:30-15:00,20:00-23:00; We off"}}, {"type": "node", "id": 3275215252, "lat": 39.9051902, "lon": 8.595796, "tags": {"addr:city": "Oristano", "addr:housenumber": "114", "addr:postcode": "09170", "addr:street": "Via Giuseppe Mazzini", "amenity": "restaurant", "cuisine": "italian", "name": "Ristorante Blao", "opening_hours": "Mo-Su 13:00-14:30,20:00-22:30", "website": "http://www.blao.it/"}}, {"type": "node", "id": 3275215287, "lat": 39.9078646, "lon": 8.5898193, "tags": {"addr:city": "Oristano", "addr:housenumber": "116", "addr:postcode": "09170", "addr:street": "Via Tirso", "amenity": "cafe", "name": "Bar 116 Caff\u00e8", "opening_hours": "Mo-Sa 06:30-23:00", "operator": "Maria Giuseppina Sanna", "ref:vatin": "IT01190110955"}}, {"type": "node", "id": 3275215636, "lat": 39.9086502, "lon": 8.5959015, "tags": {"addr:city": "Oristano", "addr:housenumber": "12", "addr:postcode": "09170", "addr:street": "Via Ruggero Leoncavallo", "amenity": "cafe", "name": "Bar Azzurro Pasticceria", "opening_hours": "Mo-Su 06:30-20:30"}}, {"type": "node", "id": 3275215818, "lat": 39.9086587, "lon": 8.5895592, "tags": {"addr:city": "Oristano", "addr:housenumber": "125", "addr:postcode": "09170", "addr:street": "Via Tirso", "amenity": "cafe", "name": "Illy", "opening_hours": "Mo-Sa 07:00-20:00; PH off"}}, {"type": "node", "id": 3275215840, "lat": 39.9093735, "lon": 8.5961366, "tags": {"addr:city": "Oristano", "addr:housenumber": "127", "addr:postcode": "09170", "addr:street": "Via Umbria", "amenity": "cafe", "name": "Barcisio", "opening_hours": "Mo-Sa 06:30-22:00; PH off"}}, {"type": "node", "id": 3275216213, "lat": 39.9064965, "lon": 8.5911947, "tags": {"addr:city": "Oristano", "addr:housenumber": "13", "addr:postcode": "09170", "addr:street": "Via Tirso", "amenity": "restaurant", "contact:phone": "+39 0783 71428", "cuisine": "regional", "name": "Trattoria da Gino"}}, {"type": "node", "id": 3275216431, "lat": 39.9042586, "lon": 8.5876938, "tags": {"addr:city": "Oristano", "addr:housenumber": "13c", "addr:postcode": "09170", "addr:street": "Via Papa Giovanni Ventitreesimo", "amenity": "restaurant", "name": "Ristorante Pane e Olio", "outdoor_seating": "yes", "payment:cash": "yes", "payment:credit_cards": "yes", "payment:debit_cards": "yes", "reservation": "no", "wheelchair": "yes"}}, {"type": "node", "id": 3275216649, "lat": 39.9034946, "lon": 8.6024699, "tags": {"addr:city": "Oristano", "addr:housenumber": "140", "addr:postcode": "09170", "addr:street": "Via Sassari", "amenity": "restaurant", "cuisine": "pizza", "name": "PITZ", "phone": "3519923868", "website": "www.pitzeria.it"}}, {"type": "node", "id": 3275217044, "lat": 39.9054517, "lon": 8.5888669, "tags": {"addr:city": "Oristano", "addr:housenumber": "15", "addr:postcode": "09170", "addr:street": "Via Benedetto Croce", "amenity": "cafe", "name": "Bar Picca Uda", "opening_hours": "Mo-Su 06:00-24:00"}}, {"type": "node", "id": 3275217219, "lat": 39.9084287, "lon": 8.5882309, "tags": {"addr:city": "Oristano", "addr:housenumber": "150", "addr:postcode": "09170", "addr:street": "Via Cagliari", "amenity": "cafe", "name": "Garden Bar", "opening_hours": "Mo-Sa 06:00-21:30; PH off"}}, {"type": "node", "id": 3275217371, "lat": 39.9019842, "lon": 8.6030205, "tags": {"addr:city": "Oristano", "addr:housenumber": "158", "addr:postcode": "09170", "addr:street": "Via Vittorio Veneto", "amenity": "cafe", "name": "La Palma Caf\u00e8", "opening_hours": "Mo-Sa 06:30-24:00; Su 07:00-14:00; PH off", "operator": "Miriam Contini", "ref:vatin": "IT00636210957"}}, {"type": "node", "id": 3275217560, "lat": 39.9063967, "lon": 8.5952328, "tags": {"addr:city": "Oristano", "addr:housenumber": "16", "addr:postcode": "09170", "addr:street": "Via Mariano Quarto d'Arborea", "amenity": "cafe", "name": "Bar Mariano", "opening_hours": "Mo-Sa 06:00-20:30"}}, {"type": "node", "id": 3275217749, "lat": 39.9018877, "lon": 8.6027752, "tags": {"addr:city": "Oristano", "addr:housenumber": "161", "addr:postcode": "09170", "addr:street": "Via Vittorio Veneto", "amenity": "restaurant", "cuisine": "pizza", "name": "Pizzeria Spaghetteria La Pantera", "oven": "wood_fired", "restaurant:type:it": "pizzeria"}}, {"type": "node", "id": 3275217808, "lat": 39.9099917, "lon": 8.5961147, "tags": {"addr:city": "Oristano", "addr:housenumber": "16a", "addr:postcode": "09170", "addr:street": "Via Carnia", "amenity": "cafe", "name": "Barber Caf\u00e8", "opening_hours": "Mo-Sa 07:00-23:00; Su 10:00-23:00; PH off"}}, {"type": "node", "id": 3275218127, "lat": 39.9055896, "lon": 8.592488, "tags": {"addr:city": "Oristano", "addr:housenumber": "17", "addr:postcode": "09170", "addr:street": "Via Giuseppe Garibaldi", "amenity": "cafe", "name": "Dal\u00ec Cafetia", "opening_hours": "Mo-Sa 07:00-24:00"}}, {"type": "node", "id": 3275218961, "lat": 39.9037435, "lon": 8.5835072, "tags": {"addr:city": "Oristano", "addr:housenumber": "18", "addr:postcode": "09170", "addr:street": "Via Vittore Carpaccio", "amenity": "cafe", "name": "Bar Ristorante Frida", "opening_hours": "Mo-Sa 06:30-22:00", "outdoor_seating": "yes"}}, {"type": "node", "id": 3275219009, "lat": 39.9066698, "lon": 8.5882796, "tags": {"addr:city": "Oristano", "addr:housenumber": "184", "addr:postcode": "09170", "addr:street": "Via Cagliari", "amenity": "restaurant", "contact:email": "giannino.197101@gmail.com", "contact:facebook": "https://www.facebook.com/pg/PaneVinoKebabberia/", "contact:phone": "+39 320 051 6789", "contact:website": "http://www.kebabpaneevino.com", "cuisine": "greek;kebab", "name": "Kebab Oristano Pane&Vino"}}, {"type": "node", "id": 3275219038, "lat": 39.9003185, "lon": 8.5994575, "tags": {"addr:city": "Oristano", "addr:housenumber": "18a", "addr:postcode": "09170", "addr:street": "Via Arborea", "amenity": "cafe", "name": "Number One Caffetteria", "opening_hours": "Mo,Tu,Th,Fr 00:00-01:30, 05:00-24:00; Su 00:00-01:30, 05:30-24:00"}}, {"type": "node", "id": 3275219192, "lat": 39.9032571, "lon": 8.5907184, "tags": {"addr:city": "Oristano", "addr:housenumber": "19", "addr:postcode": "09170", "addr:street": "Piazza Duomo", "amenity": "cafe", "name": "Bar Il Duomo", "opening_hours": "Mo-We 06:00-23:00; Th 06:00-23:15; Fr 06:00-24:00; Sa 00:00-02:00, 06:00-24:00; Su 00:00-02:00, 06:00-23:00"}}, {"type": "node", "id": 3275219235, "lat": 39.901767, "lon": 8.5828868, "tags": {"addr:city": "Oristano", "addr:housenumber": "19", "addr:postcode": "09170", "addr:street": "Via Enrico Carboni", "amenity": "cafe", "name": "Bar Giardino", "opening_hours": "Mo-Sa 07:00-22:00; PH off", "terrace": "no"}}, {"type": "node", "id": 3275219249, "lat": 39.9055744, "lon": 8.5925524, "tags": {"addr:city": "Oristano", "addr:housenumber": "19", "addr:postcode": "09170", "addr:street": "Via Giuseppe Garibaldi", "amenity": "cafe", "contact:facebook": "https://www.facebook.com/babaibistrot/", "contact:phone": "+39 342 333 6251", "contact:website": "http://www.babai.bar", "name": "Babai Caff\u00e8 Bistrot", "opening_hours": "Mo 07:00-14:00; Tu-Fr 07:00-14:00,18:00-22:00; Sa 08:00-14:00,18:00-22:00"}}, {"type": "node", "id": 3275219330, "lat": 39.9024945, "lon": 8.5848257, "tags": {"addr:city": "Oristano", "addr:housenumber": "19", "addr:postcode": "09170", "addr:street": "Via Tullio Busachi", "amenity": "cafe", "name": "Caf\u00e8 Opera", "opening_hours": "Mo-Fr 05:30-16:00; Sa 05:30-13:30; PH off"}}, {"type": "node", "id": 3275220287, "lat": 39.900942, "lon": 8.5845062, "tags": {"addr:city": "Oristano", "addr:housenumber": "2", "addr:postcode": "09170", "addr:street": "Via Enrico Mattei", "amenity": "cafe", "name": "Valisa Caf\u00e8", "opening_hours": "Mo-Su 05:30-21:00"}}, {"type": "node", "id": 3275220464, "lat": 39.9020557, "lon": 8.5915404, "tags": {"addr:city": "Oristano", "addr:housenumber": "2", "addr:postcode": "09170", "addr:street": "Vico Episcopio", "amenity": "cafe", "name": "Shardana Drinks", "opening_hours": "Mo-Sa 07:00-20:00"}}, {"type": "node", "id": 3275220471, "lat": 39.9050208, "lon": 8.597354, "tags": {"addr:city": "Oristano", "addr:housenumber": "2", "addr:postcode": "09170", "addr:street": "Vico Mariano Quarto d'Arborea", "amenity": "restaurant", "cuisine": "poke;hawaiian", "name": "Makito", "opening_hours": "Mo-Su 12:00-15:00,18:30-23:00; Tu off"}}, {"type": "node", "id": 3275220559, "lat": 39.9062979, "lon": 8.5901273, "tags": {"addr:city": "Oristano", "addr:housenumber": "27", "addr:postcode": "09170", "addr:street": "Via Tharros", "amenity": "cafe", "contact:email": "alenonnis@tiscali.it", "contact:facebook": "https://www.facebook.com/Tharros-caff%C3%A8-411560315902714/", "contact:website": "https://www.tharroscaffe.it", "name": "Tharros Caff\u00e8", "opening_hours": "Mo-Su 06:30-22:00"}}, {"type": "node", "id": 3275220723, "lat": 39.9078934, "lon": 8.5961361, "tags": {"addr:city": "Oristano", "addr:housenumber": "21", "addr:postcode": "09170", "addr:street": "Via Gioacchino Rossini", "amenity": "cafe", "name": "Rossini Caf\u00e8", "opening_hours": "Mo-Fr 07:00-23:00; Sa 07:00-24:00"}}, {"type": "node", "id": 3275221484, "lat": 39.904809, "lon": 8.5973038, "tags": {"addr:city": "Oristano", "addr:housenumber": "22", "addr:postcode": "09170", "addr:street": "Piazza Mariano Quarto d'Arborea", "amenity": "restaurant", "cuisine": "italian", "name": "Kosmos", "opening_hours": "Mo-Fr 12:30-15:00,19:30-22:30; Sa,Su 19:30-22:30", "website": "https://www.komos.it"}}, {"type": "node", "id": 3275221910, "lat": 39.9039475, "lon": 8.585627, "tags": {"addr:city": "Oristano", "addr:housenumber": "23", "addr:postcode": "09170", "addr:street": "Via Beato Angelico", "amenity": "cafe", "name": "Biblos Bar", "opening_hours": "Mo-Fr 07:00-21:30; Sa 06:00-23:00; PH off"}}, {"type": "node", "id": 3275222354, "lat": 39.9035614, "lon": 8.588231, "tags": {"addr:city": "Oristano", "addr:housenumber": "234f", "addr:postcode": "09170", "addr:street": "Via Cagliari", "amenity": "cafe", "name": "Caffetteria La Terrazza", "opening_hours": "Mo-Su 07:00-24:00"}}, {"type": "node", "id": 3275224376, "lat": 39.9035158, "lon": 8.5956813, "tags": {"addr:city": "Oristano", "addr:housenumber": "26", "addr:postcode": "09170", "addr:street": "Via Solferino", "amenity": "restaurant", "contact:email": "giovannaanna68@hotmail.it", "contact:facebook": "https://www.facebook.com/dalelleoristano/", "contact:phone": "+39 389 927 0432", "contact:website": "http://www.ristorantepizzeria.oristano.it/", "cuisine": "italian;fish;pizza", "name": "Ristorante pizzeria da Lelle", "opening_hours": "Tu-Sa 13:00-15:00,19:00-23:45; Su 13:00-15:00", "payment:cash": "yes", "payment:mastercard": "yes", "payment:visa": "yes", "ref:vatin": "IT01270910910", "restaurant:type:it": "pizzeria"}}, {"type": "node", "id": 3275224996, "lat": 39.9049604, "lon": 8.5906972, "tags": {"addr:city": "Oristano", "addr:housenumber": "28a", "addr:postcode": "09170", "addr:street": "Via Salvator Angelo De Castro", "amenity": "restaurant", "cuisine": "pizza", "name": "Pizzeria Piccola Tremonti", "opening_hours": "Mo-Th 18:30-22:00; Fr 18:30-22:30; Sa 18:00-23:00; PH off"}}, {"type": "node", "id": 3275225045, "lat": 39.9055266, "lon": 8.5928135, "tags": {"addr:city": "Oristano", "addr:housenumber": "29", "addr:postcode": "09170", "addr:street": "Via Giuseppe Garibaldi", "amenity": "restaurant", "contact:website": "https://www.ristorantecologo.com", "cuisine": "italian", "name": "Colog\u00f2", "opening_hours": "Tu-Su 19:30-23:00"}}, {"type": "node", "id": 3275226753, "lat": 39.9069277, "lon": 8.5908466, "tags": {"addr:city": "Oristano", "addr:housenumber": "31", "addr:postcode": "09170", "addr:street": "Via Tirso", "amenity": "restaurant", "cuisine": "italian", "name": "Cocco e Dess\u00ec", "opening_hours": "Mo-Su 12:30-14:30,19:30-23:30", "website": "https://www.coccoedessi.it/", "wheelchair": "yes"}}, {"type": "node", "id": 3275226896, "lat": 39.9056168, "lon": 8.5906827, "tags": {"addr:city": "Oristano", "addr:housenumber": "3", "addr:postcode": "09170", "addr:street": "Via Diego Contini", "amenity": "restaurant", "contact:phone": "+39 0783 300206", "cuisine": "pizza", "name": "Pizzeria La Grotta", "oven": "wood_fired", "restaurant:type:it": "pizzeria", "takeaway": "yes"}}, {"type": "node", "id": 3275226941, "lat": 39.9040716, "lon": 8.587033, "tags": {"addr:city": "Oristano", "addr:housenumber": "3", "addr:postcode": "09170", "addr:street": "Via Papa Giovanni Ventitreesimo", "amenity": "restaurant", "cuisine": "italian", "name": "Ristorante Spaghetteria Da Cosimo"}}, {"type": "node", "id": 3275227460, "lat": 39.9093527, "lon": 8.5902389, "tags": {"addr:city": "Oristano", "addr:housenumber": "30", "addr:postcode": "09170", "addr:street": "Via Lombardia", "amenity": "cafe", "name": "Blu Bar", "opening_hours": "Mo-Sa 05:00-24:00; PH off"}}, {"type": "node", "id": 3275227568, "lat": 39.8935838, "lon": 8.6001705, "tags": {"addr:city": "Oristano", "addr:housenumber": "30", "addr:postcode": "09170", "addr:street": "Via Messina", "amenity": "cafe", "name": "Bar Mattu", "opening_hours": "Mo-Sa 06:00-22:00; PH off"}}, {"type": "node", "id": 3275227644, "lat": 39.9037403, "lon": 8.5908577, "tags": {"addr:city": "Oristano", "addr:housenumber": "31", "addr:postcode": "09170", "addr:street": "Piazza Duomo", "amenity": "cafe", "name": "Caffe La Piazza", "opening_hours": "Mo-Su 00:00-02:00,06:30-24:00"}}, {"type": "node", "id": 3275227679, "lat": 39.9002663, "lon": 8.5920689, "tags": {"addr:city": "Oristano", "addr:housenumber": "316", "addr:postcode": "09170", "addr:street": "Via Cagliari", "alt_name": "Pizzeria Santa Marghe", "amenity": "restaurant", "cuisine": "pizza", "name": "Santa Marghe", "opening_hours": "Tu- Su 19:30-23:00"}}, {"type": "node", "id": 3275227708, "lat": 39.90451, "lon": 8.5915106, "tags": {"addr:city": "Oristano", "addr:housenumber": "32", "addr:postcode": "09170", "addr:street": "Corso Umberto Primo", "amenity": "cafe", "name": "Caff\u00e8 del Corso", "opening_hours": "Mo-Sa 07:00-24:00; Su 08:00-14:00"}}, {"type": "node", "id": 3275227855, "lat": 39.9060634, "lon": 8.5908491, "tags": {"addr:city": "Oristano", "addr:housenumber": "33", "addr:postcode": "09170", "addr:street": "Piazza Roma", "amenity": "cafe", "name": "Fun Games Caf\u00e8"}}, {"type": "node", "id": 3275228559, "lat": 39.9047349, "lon": 8.5905975, "tags": {"addr:city": "Oristano", "addr:housenumber": "34", "addr:postcode": "09170", "addr:street": "Via Salvator Angelo De Castro", "amenity": "restaurant", "cuisine": "italian", "name": "Ristorante Craf Da Banana", "opening_hours": "Mo-Su 12:30-15:00,19:00-23:00"}}, {"type": "node", "id": 3275229954, "lat": 39.905003, "lon": 8.5965265, "tags": {"addr:city": "Oristano", "addr:housenumber": "38", "addr:postcode": "09170", "addr:street": "Piazza Mariano Quarto d'Arborea", "amenity": "cafe", "name": "Al 38 Caf\u00e9", "opening_hours": "Mo-Th 07:00-13:00,16:00-22:00; Fr-Su 07:00-22:00"}}, {"type": "node", "id": 3275230051, "lat": 39.898374, "lon": 8.594104, "tags": {"addr:city": "Oristano", "addr:housenumber": "386", "addr:postcode": "09170", "addr:street": "Via Cagliari", "amenity": "restaurant", "cuisine": "pizza;regional", "name": "Ristorante pizzeria R\u00e0is", "opening_hours": "Mo-Fr 19:30-23:30; PH off"}}, {"type": "node", "id": 3275231278, "lat": 39.9032232, "lon": 8.5851993, "tags": {"addr:city": "Oristano", "addr:housenumber": "40", "addr:postcode": "09170", "addr:street": "Via Filippo Brunelleschi", "amenity": "cafe", "name": "Vivian Caf\u00e8", "opening_hours": "Mo-Fr 07:00-20:00, Sa 07:00-14:00; PH off"}}, {"type": "node", "id": 3275231505, "lat": 39.906615, "lon": 8.5936343, "tags": {"addr:city": "Oristano", "addr:housenumber": "41", "addr:postcode": "09170", "addr:street": "Via Figoli", "amenity": "restaurant", "contact:email": "labrace91@gmail.com", "contact:phone": "+39 0783 73 328", "contact:website": "http://www.ristorante.oristano.it", "cuisine": "barbecue", "name": "La Brace", "opening_hours": "Mo-Su 13:00-14:30,20:00-23:00"}}, {"type": "node", "id": 3275231657, "lat": 39.8924713, "lon": 8.5986778, "tags": {"addr:city": "Oristano", "addr:housenumber": "421", "addr:postcode": "09170", "addr:street": "Via Cagliari", "amenity": "cafe", "name": "Planet Caf\u00e8", "opening_hours": "Mo-Sa 05:00-21:00; PH off"}}, {"type": "node", "id": 3275234521, "lat": 39.9056749, "lon": 8.5920136, "tags": {"addr:city": "Oristano", "addr:housenumber": "5", "addr:postcode": "09170", "addr:street": "Via Giuseppe Garibaldi", "amenity": "restaurant", "name": "Ristorante Kalispera"}}, {"type": "node", "id": 3275235167, "lat": 39.9006004, "lon": 8.5914481, "tags": {"addr:city": "Oristano", "addr:housenumber": "5", "addr:postcode": "09170", "addr:street": "Viale San Martino", "amenity": "cafe", "contact:email": "fumetteriaonepiece@gmail.com", "name": "Bar 4 Mori", "opening_hours": "Mo-Th 06:00-23:00; Fr,Sa 06:00-23:30"}}, {"type": "node", "id": 3275235622, "lat": 39.9065051, "lon": 8.5920423, "tags": {"addr:city": "Oristano", "addr:housenumber": "52", "addr:postcode": "09170", "addr:street": "Piazza Roma", "amenity": "restaurant", "contact:phone": "+39 0783 301494", "cuisine": "italian;pizza", "name": "Ristorante Pizzeria La Torre", "opening_hours": "Tu-Su 12:00-15:00,18:30-23:00", "oven": "wood_fired", "restaurant:type:it": "pizzeria", "takeaway": "yes", "wheelchair": "limited"}}, {"type": "node", "id": 3275236222, "lat": 39.9044581, "lon": 8.5904417, "tags": {"addr:city": "Oristano", "addr:housenumber": "53", "addr:postcode": "09170", "addr:street": "Via Salvator Angelo De Castro", "alt_name": "Mandarin", "amenity": "cafe", "name": "Cafesi\u00f1o", "opening_hours": "Mo-Sa 00:00-04:00,09:00-24:00; Su 00:00-05:00,09:00-24:00"}}, {"type": "node", "id": 3275237218, "lat": 39.9067679, "lon": 8.5936992, "tags": {"addr:city": "Oristano", "addr:housenumber": "56", "addr:postcode": "09170", "addr:street": "Via Figoli", "amenity": "cafe", "name": "Bar Oristano", "opening_hours": "Mo-Su 00:00-00:30, 06:30-24:00"}}, {"type": "node", "id": 3275238332, "lat": 39.9143452, "lon": 8.5880692, "tags": {"addr:city": "Oristano", "addr:housenumber": "5b", "addr:postcode": "09170", "addr:street": "Via dei Muratori", "amenity": "restaurant", "cuisine": "japanese;sushi", "name": "Sakura Sushi"}}, {"type": "node", "id": 3275238662, "lat": 39.9026232, "lon": 8.5993108, "tags": {"addr:city": "Oristano", "addr:housenumber": "6", "addr:postcode": "09170", "addr:street": "Piazza Sant'Efisio", "amenity": "cafe", "name": "Bar su Brugu", "opening_hours": "Mo-Sa 07:00-22:00"}}, {"type": "node", "id": 3275239216, "lat": 39.9054254, "lon": 8.5918225, "tags": {"addr:city": "Oristano", "addr:housenumber": "6", "addr:postcode": "09170", "addr:street": "Via Parpaglia", "amenity": "restaurant", "cuisine": "pizza;aperitivi", "diet:non-vegetarian": "yes", "diet:vegan": "yes", "diet:vegetarian": "yes", "name": "Trigu Casa Eleonora", "opening_hours": "Tu-Su 17:30-23:00", "phone": "+39 370 109 2494", "toilets": "yes", "website": "https://www.trigucasaeleonora.it/"}}, {"type": "node", "id": 3275239615, "lat": 39.9047869, "lon": 8.5955875, "tags": {"addr:city": "Oristano", "addr:housenumber": "6", "addr:postcode": "09170", "addr:street": "Vico Solferino", "amenity": "restaurant", "contact:facebook": "https://www.facebook.com/trattoriaportixedda/", "contact:phone": "+39 327 152 2003", "contact:website": "http://www.trattoria.oristano.it/", "cuisine": "regional", "name": "Trattoria Portixedda", "opening_hours": "Tu-Su 10:00-15:00,20:00-22:00", "ref:vatin": "IT01150930954"}}, {"type": "node", "id": 3275240169, "lat": 39.8961308, "lon": 8.6020315, "tags": {"addr:city": "Oristano", "addr:housenumber": "62", "addr:postcode": "09170", "addr:street": "Viale Risorgimento", "amenity": "cafe", "name": "Da Fabio", "opening_hours": "Mo-Sa 07:00-23:00, Su 07:00-13:30"}}, {"type": "node", "id": 3275240477, "lat": 39.9023684, "lon": 8.6001052, "tags": {"addr:city": "Oristano", "addr:housenumber": "64", "addr:postcode": "09170", "addr:street": "Via Sassari", "amenity": "cafe", "name": "She Bar", "opening_hours": "Mo,We,Fr 07:00-21:00; Tu,Th 07:00-19:30; Su 08:00-13:00; PH off"}}, {"type": "node", "id": 3275240830, "lat": 39.9071465, "lon": 8.599282, "tags": {"addr:city": "Oristano", "addr:housenumber": "67", "addr:postcode": "09170", "addr:street": "Via Ricovero", "amenity": "cafe", "name": "Leeloo Rock Bar", "opening_hours": "Mo-Sa 07:00-15:00, 17:00-21:00; PH off"}}, {"type": "node", "id": 3275241246, "lat": 39.9040052, "lon": 8.5903422, "tags": {"addr:city": "Oristano", "addr:housenumber": "69", "addr:postcode": "09170", "addr:street": "Via Salvator Angelo De Castro", "amenity": "cafe", "cuisine": "teahouse", "name": "Fata Cornelia", "opening_hours": "Mo,Th 17:00-20:00; Tu-Sa 10:00-12:30,17:00-20:00; Su 18:00-20:30"}}, {"type": "node", "id": 3275241646, "lat": 39.9087137, "lon": 8.5978683, "tags": {"addr:city": "Oristano", "addr:housenumber": "6b", "addr:postcode": "09170", "addr:street": "Via La Sila", "amenity": "cafe", "name": "Caffetteria dell'Angolo", "opening_hours": "Mo-Sa 06:00-21:30; Su 07:30-13:30; PH off"}}, {"type": "node", "id": 3275242273, "lat": 39.9036706, "lon": 8.5919969, "tags": {"addr:city": "Oristano", "addr:housenumber": "7", "addr:postcode": "09170", "addr:street": "Piazza Eleonora", "amenity": "cafe", "contact:facebook": "https://www.facebook.com/caffetteria.07/", "contact:phone": "+39 347 843 5501", "name": "Coffee Hour", "opening_hours": "Mo-Fr 06:30-21:00; Sa 06:30-14:00"}}, {"type": "node", "id": 3275244379, "lat": 39.9053346, "lon": 8.5915743, "tags": {"addr:city": "Oristano", "addr:housenumber": "71", "addr:postcode": "09170", "addr:street": "Corso Umberto Primo", "amenity": "cafe", "name": "Cherie Caff\u00e8", "opening_hours": "Mo-Su 07:00-24:00"}}, {"type": "node", "id": 3275245337, "lat": 39.902985, "lon": 8.5866067, "tags": {"addr:city": "Oristano", "addr:housenumber": "77", "addr:postcode": "09170", "addr:street": "Via Armando Diaz", "amenity": "cafe", "name": "Bar Diaz", "opening_hours": "Mo-Fr 03:00-19:00; Sa 03:00-13:00"}}, {"type": "node", "id": 3275246669, "lat": 39.9011072, "lon": 8.5916836, "tags": {"addr:city": "Oristano", "addr:housenumber": "8", "addr:postcode": "09170", "addr:street": "Piazza Giuseppe Manno", "amenity": "cafe", "contact:email": "nino.vacca@tiscali.it", "contact:facebook": "https://www.facebook.com/ninovaccaoristano/", "contact:fax": "+39 0783 70665", "contact:phone": "+39 0783 70665", "contact:website": "http://www.ninovaccapasticceria.com/", "name": "Bar Vacca", "opening_hours": "Mo-Sa 07:00-13:00,16:30-19:30; We 07:00-13:00; Su 09:00-13:00", "ref:vatin": "IT00506530955"}}, {"type": "node", "id": 3275249525, "lat": 39.9090583, "lon": 8.5884763, "tags": {"addr:city": "Oristano", "addr:housenumber": "85", "addr:postcode": "09170", "addr:street": "Via Cagliari", "amenity": "restaurant", "contact:phone": "+39 345 833 7034", "cuisine": "fish", "name": "Cozzeria Campidanese", "opening_hours": "Tu-Su 12:00-14:45,19:30-23:30"}}, {"type": "node", "id": 3275250261, "lat": 39.9082393, "lon": 8.5979022, "tags": {"addr:city": "Oristano", "addr:housenumber": "89", "addr:postcode": "09170", "addr:street": "Via Sardegna", "amenity": "cafe", "name": "Gian Flo", "opening_hours": "Mo-Sa 07:00-22:00; PH off"}}, {"type": "node", "id": 3275250265, "lat": 39.9078194, "lon": 8.5900666, "tags": {"addr:city": "Oristano", "addr:housenumber": "89", "addr:postcode": "09170", "addr:street": "Via Tirso", "amenity": "cafe", "name": "Mio Bar", "opening_hours": "Mo-Su 06:30-24:00", "wheelchair": "no"}}, {"type": "node", "id": 3275251068, "lat": 39.9060812, "lon": 8.5954645, "tags": {"addr:city": "Oristano", "addr:housenumber": "9", "addr:postcode": "09170", "addr:street": "Via Mariano Quarto d'Arborea", "amenity": "cafe", "name": "Pitiko", "opening_hours": "Mo-Sa 06:30-21:00; Su 08:30-13:30"}}, {"type": "node", "id": 3276959648, "lat": 39.9000672, "lon": 8.43183, "tags": {"amenity": "restaurant", "contact:email": "info@agriturismocaposanmarco.it", "contact:facebook": "https://www.facebook.com/agriturismocaposanmarco/", "contact:phone": "+39 347 2115490;+39 0783 391 011", "contact:website": "http://www.agriturismocaposanmarco.it", "cuisine": "regional;sardinian", "name": "Agriturismo Capo San Marco"}}, {"type": "node", "id": 3279145968, "lat": 39.9309272, "lon": 8.7002405, "tags": {"amenity": "restaurant", "cuisine": "regional"}}, {"type": "node", "id": 3280638687, "lat": 39.9042397, "lon": 8.6017641}, {"type": "node", "id": 3280638688, "lat": 39.9043319, "lon": 8.6017318}, {"type": "node", "id": 3284494383, "lat": 40.151206, "lon": 8.6601421, "tags": {"amenity": "restaurant", "cuisine": "regional", "name": "Agriturismo Francadu"}}, {"type": "node", "id": 3284557976, "lat": 39.9246952, "lon": 8.6638908, "tags": {"amenity": "restaurant", "cuisine": "italian"}}, {"type": "node", "id": 3284557977, "lat": 39.9247793, "lon": 8.6640868, "tags": {"amenity": "cafe", "contact:facebook": "https://www.facebook.com/p/Jadan-Bar-Simaxis-ex-Scacco-MaTo-61556121534290/", "contact:instagram": "https://www.instagram.com/JADAN_SIMAXIS", "name": "Jadan Bar", "opening_hours": "Mo-Su 05:30-20:30"}}, {"type": "node", "id": 3294238809, "lat": 39.9043817, "lon": 8.7857811, "tags": {"amenity": "restaurant", "cuisine": "regional", "name": "Agriturismo Grabiolu"}}, {"type": "node", "id": 3294238831, "lat": 40.0031295, "lon": 8.6409473, "tags": {"amenity": "restaurant", "cuisine": "regional", "name": "Agriturismo Serra Maiori"}}, {"type": "node", "id": 3294238842, "lat": 40.0180883, "lon": 8.6709638, "tags": {"amenity": "restaurant", "cuisine": "regional"}}, {"type": "node", "id": 3307716981, "lat": 39.9894956, "lon": 8.6425253}, {"type": "node", "id": 3307932936, "lat": 40.02093, "lon": 8.6715033}, {"type": "node", "id": 3322862393, "lat": 39.9536728, "lon": 8.6760565, "tags": {"addr:housenumber": "10", "addr:street": "Via Antonio Gramsci", "amenity": "cafe", "name": "Bar Cafetteria da Cico"}}, {"type": "node", "id": 3327371413, "lat": 39.9041808, "lon": 8.5924501, "tags": {"addr:city": "Oristano", "addr:housenumber": "14", "addr:postcode": "09170", "addr:street": "Piazza Giuseppe Corrias", "amenity": "cafe", "name": "Lola Mundo", "opening_hours": "Mo-Sa 00:00-02:00, 08:30-24:00; Su 00:00-02:00, 18:00-24:00; PH off", "website": "https://www.facebook.com/Lolamundocafe"}}, {"type": "node", "id": 3337401272, "lat": 39.9888568, "lon": 8.7530269}, {"type": "node", "id": 3337401278, "lat": 39.9888936, "lon": 8.7530798}, {"type": "node", "id": 3337401281, "lat": 39.9889303, "lon": 8.7529369}, {"type": "node", "id": 3337401286, "lat": 39.9889701, "lon": 8.7529946}, {"type": "node", "id": 3366534921, "lat": 39.9507252, "lon": 8.7332329, "tags": {"amenity": "cafe"}}, {"type": "node", "id": 3366534922, "lat": 39.950996, "lon": 8.7333894, "tags": {"amenity": "cafe"}}, {"type": "node", "id": 3586048205, "lat": 39.9340234, "lon": 8.5954422, "tags": {"amenity": "cafe", "name": "Bar Perra"}}, {"type": "node", "id": 3666761485, "lat": 39.9427924, "lon": 8.6043617, "tags": {"amenity": "cafe", "name": "Bar Massama"}}, {"type": "node", "id": 3737308265, "lat": 40.0470373, "lon": 8.5738835, "tags": {"addr:city": "Narbolia", "addr:country": "IT", "addr:housenumber": "15", "addr:postcode": "09070", "addr:street": "Via Umberto I", "amenity": "restaurant", "cuisine": "italian;pizza", "name": "Pizzeria", "smoking": "no", "wheelchair": "yes"}}, {"type": "node", "id": 3780946172, "lat": 39.9984545, "lon": 8.5397988}, {"type": "node", "id": 3780946173, "lat": 39.9984635, "lon": 8.5397683}, {"type": "node", "id": 3780946175, "lat": 39.9985023, "lon": 8.5396704}, {"type": "node", "id": 4011420846, "lat": 40.2885528, "lon": 8.4804501}, {"type": "node", "id": 4121667293, "lat": 39.9299059, "lon": 8.5540168, "tags": {"amenity": "cafe"}}, {"type": "node", "id": 4295111747, "lat": 40.0321997, "lon": 8.3952674, "tags": {"amenity": "cafe", "name": "Bar Lo Scivolo"}}, {"type": "node", "id": 4330644513, "lat": 40.0817689, "lon": 8.6147139, "tags": {"addr:city": "Seneghe", "addr:housenumber": "90", "addr:postcode": "09070", "addr:province": "Oristano", "addr:street": "Corso Umberto", "amenity": "restaurant", "cuisine": "pizza", "email": "sapretza@gmail.com", "name": "Bar Pizzeria Sa Prentza", "opening_hours": "Tu off", "operator": "Ulleri Giovanni", "phone:mobile": "+39 347 6262166;+39 347 4680355", "ref:vatin": "IT01166830958"}}, {"type": "node", "id": 4335593690, "lat": 39.9345843, "lon": 8.4449663, "tags": {"amenity": "restaurant", "contact:email": "samoarxia@gmail.com", "contact:phone": "+39 346 188 5510", "cuisine": "regional;sardinian", "name": "Agriturismo Sa Moarxia"}}, {"type": "node", "id": 4347492293, "lat": 40.2659549, "lon": 8.5396813, "tags": {"addr:city": "Flussio", "addr:housenumber": "7", "addr:postcode": "08010", "addr:street": "Via Santa Rughe", "amenity": "restaurant", "name": "Ristorante Da Cristian", "website": "http://www.ristorantepizzeriadacristian.it/"}}, {"type": "node", "id": 4366148207, "lat": 39.9413392, "lon": 8.436199, "tags": {"amenity": "restaurant", "contact:facebook": "www.facebook.com/AgriturismoMatteCanna", "contact:phone": "+39 346 2140778;+39 347 1233922", "cuisine": "regional;sardinian", "name": "Agriturismo Matte Canna"}}, {"type": "node", "id": 4366148214, "lat": 39.9543153, "lon": 8.4424566, "tags": {"amenity": "restaurant", "contact:email": "sincantesinis@gmail.com", "contact:facebook": "https://www.facebook.com/pg/SincanteSinis/", "contact:phone": "+39 366 295 1365;+39 347 653 7106", "contact:website": "www.sincantu.it", "cuisine": "fish;regional;sardinian", "internet_access": "wlan", "name": "Agriturismo S'Incant'e Sinis"}}, {"type": "node", "id": 4366148220, "lat": 39.9862929, "lon": 8.4837264, "tags": {"amenity": "restaurant", "contact:email": "info@bachilebertula.it", "contact:facebook": "https://www.facebook.com/Agriturismo-Bachile-Bertula-361022517352441/", "contact:phone": "+39 0783 411 277;+39 349 412 8823;+39 347 177 8923", "contact:website": "www.bachilebertula.it", "cuisine": "regional", "name": "Agriturismo Bachile Bertula"}}, {"type": "node", "id": 4432269408, "lat": 40.2959, "lon": 8.5010287, "tags": {"addr:city": "Bosa", "addr:housenumber": "4a", "addr:postcode": "08013", "addr:street": "Piazza Cosituzione", "amenity": "restaurant", "check_date": "2024-09-12", "name": "Isla margarita"}}, {"type": "node", "id": 4432270593, "lat": 40.2956298, "lon": 8.5023049, "tags": {"addr:city": "Bosa", "addr:housenumber": "60", "addr:postcode": "08013", "addr:street": "Corso Vittorio Emanuele II", "amenity": "cafe", "check_date": "2024-09-12", "name": "Bar Campus", "name:it": "Bar Campus"}}, {"type": "node", "id": 4435927690, "lat": 40.2956741, "lon": 8.4999755, "tags": {"addr:housenumber": "4", "addr:postcode": "08013", "addr:street": "Via Vincenzo Gioberti", "amenity": "restaurant", "name": "Sa Cariasa", "name:it": "Sa Cariasa", "phone": "+39 380 1049317"}}, {"type": "node", "id": 4435941289, "lat": 40.2957337, "lon": 8.4999972, "tags": {"addr:housenumber": "4", "addr:postcode": "08013", "addr:street": "Via Vincenzo Gioberti", "amenity": "cafe", "name": "da Fabio", "name:it": "da Fabio"}}, {"type": "node", "id": 4466530084, "lat": 39.92981, "lon": 8.5314343, "tags": {"addr:city": "Cabras", "addr:housenumber": "13", "addr:postcode": "09072", "addr:street": "Piazza Eleonora d'Arborea", "amenity": "cafe", "contact:facebook": "www.facebook.com/bar.aperitivo", "name": "Bar L'aperitivo", "opening_hours": "Mo-Su 00:00-03:00, 06:00-24:00", "terrace": "yes"}}, {"type": "node", "id": 4466530085, "lat": 39.9300031, "lon": 8.5317552, "tags": {"addr:city": "Cabras", "addr:housenumber": "5", "addr:postcode": "09072", "addr:street": "Piazza Don Sturzo", "amenity": "cafe", "delivery": "no", "internet_access": "wlan", "name": "Bar Sole Luna", "opening_hours": "Mo-Su 05:00-24:00", "takeaway": "yes", "toilets": "yes", "toilets:unisex": "yes", "toilets:wheelchair": "yes"}}, {"type": "node", "id": 4466535553, "lat": 39.9303921, "lon": 8.5306828, "tags": {"addr:city": "Cabras", "addr:housenumber": "2", "addr:postcode": "09072", "addr:street": "Piazza Principe di Piemonte", "amenity": "restaurant", "contact:facebook": "www.facebook.com/SA-BELL-E-Crabasa-449748795211492/", "contact:phone": "+39 328 6589725", "cuisine": "fish;regional", "name": "Trattoria Sa bell'e Crabasa", "opening_hours": "Mo-Su 13:00-15:00,20:00-22:00", "website": "https://www.trattoriasabellecrabasa.com/"}}, {"type": "node", "id": 4475204463, "lat": 40.2965102, "lon": 8.5027732, "tags": {"addr:city": "Bosa", "addr:housenumber": "33", "addr:postcode": "08013", "addr:street": "Via Sant'Ignazio", "amenity": "restaurant", "check_date": "2024-09-11", "contact:phone": "+39 0785 374 129", "contact:website": "http://www.ristorantebosa.com", "cuisine": "italian;fish", "name": "Borgo Sant'Ignazio"}}, {"type": "node", "id": 4475204465, "lat": 40.2969665, "lon": 8.5009799, "tags": {"addr:city": "Bosa", "addr:housenumber": "2", "addr:postcode": "08013", "addr:street": "Piazza Vincenzo Gioberti", "amenity": "restaurant", "contact:phone": "+39 0785 373 821", "name": "Estr\u00f2\u00f2 ristoriamo a km. 0"}}, {"type": "node", "id": 4475204467, "lat": 40.2975415, "lon": 8.5007693, "tags": {"addr:city": "Bosa", "addr:housenumber": "13", "addr:postcode": "08013", "addr:street": "Via Vincenzo Gioberti", "amenity": "cafe", "name": "Gray"}}, {"type": "node", "id": 4475205241, "lat": 40.29264, "lon": 8.4966951, "tags": {"addr:city": "Bosa", "addr:housenumber": "40", "addr:postcode": "08013", "addr:street": "Via Nazionale", "amenity": "cafe"}}, {"type": "node", "id": 4475206170, "lat": 40.2951791, "lon": 8.5016034, "tags": {"addr:city": "Bosa", "addr:housenumber": "51", "addr:postcode": "08013", "addr:street": "Lungo Temo Alcide De Gasperi", "amenity": "restaurant", "contact:phone": "+39 0785 373 482", "cuisine": "italian", "name": "Verde Fiume"}}, {"type": "node", "id": 4493636900, "lat": 40.3267738, "lon": 8.6952523, "tags": {"amenity": "restaurant", "cuisine": "regional", "name": "Agriturismo Nuragh'Elighe", "phone": "+393476704534", "website": "https://nuraghelighe.it/"}}, {"type": "node", "id": 4586767263, "lat": 39.903777, "lon": 8.5905225}, {"type": "node", "id": 4590684547, "lat": 39.9039202, "lon": 8.5919909, "tags": {"amenity": "restaurant", "contact:facebook": "https://www.facebook.com/libridoristano/", "contact:phone": "+39 0783 465525", "name": "Librid", "opening_hours": "Mo-Sa 12:30-15:00,18:00-24:00"}}, {"type": "node", "id": 4610452689, "lat": 39.905678, "lon": 8.5910132, "tags": {"addr:floor": "0", "amenity": "cafe", "check_date": "2024-10-01", "level": "0", "name": "Aroma Caff\u00e8", "name:en": "Caff\u00e8 Aroma", "name:it": "Caff\u00e8 Aroma", "opening_hours": "Mo-Su 00:00-00:30,06:30-24:00", "outdoor_seating": "yes", "wheelchair": "yes"}}, {"type": "node", "id": 4752485430, "lat": 40.2748932, "lon": 8.4842474, "tags": {"amenity": "restaurant", "name": "Le4More", "name:de": "Le4More", "name:it": "Le4More"}}, {"type": "node", "id": 4757702671, "lat": 39.9300778, "lon": 8.5301873, "tags": {"addr:city": "Crabas/Cabras", "addr:postcode": "09072", "addr:street": "Via Felice Cavallotti", "amenity": "cafe", "brewery": "yes;Birre_artigianali;Craft_Beer", "name": "Caff\u00e8 Tharros", "opening_hours": "Mo,We 06:00-24:00; Tu 00:00-01:00; Th-Su 00:00-01:00,06:00-24:00", "outdoor_seating": "yes", "wheelchair": "yes"}}, {"type": "node", "id": 4890136578, "lat": 40.1781458, "lon": 8.6640901, "tags": {"addr:city": "San Leonardo", "addr:housenumber": "1", "addr:postcode": "09095", "addr:street": "Via degli Olmi", "amenity": "restaurant", "cuisine": "italian;pizza", "name": "Bar Pizzeria Griglieria da Francesco"}}, {"type": "node", "id": 4973555392, "lat": 40.0714525, "lon": 8.487591, "tags": {"amenity": "restaurant", "description": "Restaurant Pizzeria", "name:en": "Restaurant Is Arenas", "opening_hours": "Mo-Su 19:00-23:30"}}, {"type": "node", "id": 5059961511, "lat": 40.0422415, "lon": 8.5684696, "tags": {"amenity": "restaurant", "contact:email": "info@agriturismosamamaioa.com", "contact:phone": "+39 349 3567999", "contact:website": "http://www.agriturismosamamaioa.com", "name": "Agriturismo Sa Mamaioa"}}, {"type": "node", "id": 5061830698, "lat": 40.2861716, "lon": 8.5749444, "tags": {"amenity": "restaurant", "email": "info@agriturismosaloza.it", "name": "Agriturismo Sa Loza", "phone": "+39 0785 34102;+39 338 7602671;+39 335 1401127", "website": "https://www.agriturismosaloza.it/"}}, {"type": "node", "id": 5077834721, "lat": 39.9295966, "lon": 8.5302334, "tags": {"amenity": "cafe", "name": "Bar Monte Prama", "operator": "Pilo Cinzia", "outdoor_seating": "yes", "ref:vatin": "IT02199840907"}}, {"type": "node", "id": 5141918500, "lat": 39.9156326, "lon": 8.5856611}, {"type": "node", "id": 5141921690, "lat": 39.9156471, "lon": 8.5855966}, {"type": "node", "id": 5141921698, "lat": 39.9157332, "lon": 8.585538}, {"type": "node", "id": 5141921699, "lat": 39.9157736, "lon": 8.5853599}, {"type": "node", "id": 5141921700, "lat": 39.9156187, "lon": 8.5853952}, {"type": "node", "id": 5141921707, "lat": 39.9156657, "lon": 8.5855121}, {"type": "node", "id": 5141921710, "lat": 39.9160313, "lon": 8.5855077}, {"type": "node", "id": 5141921711, "lat": 39.9161655, "lon": 8.5855589}, {"type": "node", "id": 5141922100, "lat": 39.9155464, "lon": 8.5855584}, {"type": "node", "id": 5141922111, "lat": 39.915532, "lon": 8.5856227}, {"type": "node", "id": 5141922143, "lat": 39.9161753, "lon": 8.585516}, {"type": "node", "id": 5141922232, "lat": 39.9160414, "lon": 8.585464}, {"type": "node", "id": 5141922233, "lat": 39.9157076, "lon": 8.5853341}, {"type": "node", "id": 5181972461, "lat": 39.9065274, "lon": 8.5164425, "tags": {"amenity": "cafe", "name": "Sunset Caf\u00e8", "opening_hours": "Mo-Su 09:00-23:30"}}, {"type": "node", "id": 5181972521, "lat": 39.9033553, "lon": 8.5235339}, {"type": "node", "id": 5181972522, "lat": 39.9033935, "lon": 8.5235639}, {"type": "node", "id": 5186422492, "lat": 39.9165706, "lon": 8.4577198, "tags": {"amenity": "restaurant", "contact:email": "info@sapedrera.it", "contact:facebook": "https://www.facebook.com/hotelsapedrera", "contact:fax": "+39 0783 370040", "contact:phone": "+39 0783 370040;+39 0783 370018;+39 392 5366679", "contact:pinterest": "https://it.pinterest.com/HotelSaPedrera/", "contact:twitter": "https://twitter.com/hotelsapedrera", "contact:website": "http://www.sapedrera.it", "contact:youtube": "https://www.youtube.com/channel/UC2ajt_CWF7NzxJheZaQspqQ", "cuisine": "italian;fish", "name": "Sa Pedrera", "official_name": "Hotel Sinis vacanze Sa Pedrera", "payment:cash": "yes", "payment:mastercard": "yes", "payment:paypal": "yes", "payment:visa": "yes", "ref:vatin": "IT00604800953"}}, {"type": "node", "id": 5186422499, "lat": 39.9176815, "lon": 8.4713173, "tags": {"amenity": "restaurant", "contact:email": "info@agriturismosacanudera.it", "contact:facebook": "https://www.facebook.com/AgriturismoSaCanud/", "contact:phone": "+39 347 7096220;+39 340 3171628", "contact:website": "http://www.agriturismosacanudera.it", "cuisine": "regional;sardinian", "internet_access": "wlan", "name": "Agriturismo Sa Canudera", "start_date": "2006-08-01", "wheelchair": "yes"}}, {"type": "node", "id": 5186422520, "lat": 39.9291009, "lon": 8.5529973, "tags": {"amenity": "restaurant", "contact:email": "info@sacrannaccia.com", "contact:facebook": "https://www.facebook.com/sa.crannaccia", "contact:phone": "+39 320 1848 147", "contact:website": "https://www.sacrannaccia.com", "cuisine": "fish;regional", "name": "Agriturismo Sa Crannaccia"}}, {"type": "node", "id": 5186422828, "lat": 39.9185887, "lon": 8.5311547, "tags": {"amenity": "restaurant", "cuisine": "fish;regional"}}, {"type": "node", "id": 5186422889, "lat": 39.9169717, "lon": 8.5064945, "tags": {"amenity": "restaurant", "contact:facebook": "http://www.facebook.com/Agriturismo-Ferrari-Cabras-1411264369138545/", "contact:fax": "+39 0783 290883", "contact:phone": "+39 0783 290094", "contact:website": "http://www.agriturismoferrari.com/", "cuisine": "regional;fish;sardinian", "name": "Agriturismo Ferrari"}}, {"type": "node", "id": 5186422906, "lat": 39.9144069, "lon": 8.509172}, {"type": "node", "id": 5186553721, "lat": 39.9097383, "lon": 8.4225145, "tags": {"amenity": "restaurant", "cuisine": "regional"}}, {"type": "node", "id": 5186553774, "lat": 39.9322729, "lon": 8.530869, "tags": {"amenity": "restaurant", "contact:phone": "+39 0783 391 015;+39 349 41 70 921", "contact:website": "http://www.agriturismopinuccia.it", "cuisine": "fish;regional", "name": "Agriturismo Pala Noeddas da Pinuccia"}}, {"type": "node", "id": 5194261641, "lat": 39.9825348, "lon": 8.4515615, "tags": {"amenity": "restaurant", "contact:email": "info@lalucedelsinis.it", "contact:facebook": "https://www.facebook.com/pages/Agriturismo-La-Luce-del-Sinis/305920506219069", "contact:phone": "+39 347 833 9294", "contact:website": "http://www.lalucedelsinis.it", "cuisine": "fish;regional", "name": "Agriturismo La Luce del Sinis"}}, {"type": "node", "id": 5194426847, "lat": 40.0384862, "lon": 8.5202897, "tags": {"amenity": "restaurant", "contact:facebook": "https://www.facebook.com/AgriturismoMaestrale/", "contact:phone": "+39 0783 57 195;+39 340 989 0474", "contact:website": "http://www.maestraleagriturismo.com", "cuisine": "regional", "name": "Agriturismo Il Maestrale"}}, {"type": "node", "id": 5194427064, "lat": 40.0163666, "lon": 8.4958059, "tags": {"amenity": "restaurant", "contact:email": "info@sanea.it", "contact:facebook": "https://www.facebook.com/AgriturismoSAnea", "contact:instagram": "https://www.instagram.com/agriturismosanea/", "contact:phone": "+39 338 775 82 12", "contact:twitter": "https://twitter.com/SAneAgriturismo", "contact:website": "www.sanea.it", "cuisine": "regional", "name": "Agriturismo S'Anea"}}, {"type": "node", "id": 5195758267, "lat": 39.945682, "lon": 8.6145593, "tags": {"amenity": "restaurant", "contact:email": "info@agriturismoilgiglio.com", "contact:phone": "+39 349 14 47 955", "contact:website": "http://www.agriturismoilgiglio.com/", "cuisine": "regional", "name": "Agriturismo Il giglio"}}, {"type": "node", "id": 5195758269, "lat": 39.9505409, "lon": 8.6307565, "tags": {"amenity": "restaurant", "contact:email": "teresacasu@sulivariu.it", "contact:phone": "+39 0783 34099;328 9378139", "contact:website": "http://www.sulivariu.it/", "cuisine": "regional", "name": "Agriturismo Su Livariu"}}, {"type": "node", "id": 5195758306, "lat": 39.9688112, "lon": 8.6479964, "tags": {"amenity": "restaurant", "contact:email": "serrasdala@gmail.com", "contact:facebook": "https://www.facebook.com/agriturismoserrasdala/", "contact:fax": "+39 0783 333 52", "contact:phone": "+39 328 331 9918 ;+39 329 562 7271", "contact:website": "http://www.serrasdala.com/", "cuisine": "regional", "name": "Agriturismo Serras d'Ala"}}, {"type": "node", "id": 5195758316, "lat": 39.9705374, "lon": 8.7234221, "tags": {"amenity": "restaurant", "contact:email": "info@loliveto.sardegna.it", "contact:facebook": "https://www.facebook.com/Agriturismo-lOliveto-253216541358606/", "contact:phone": "+39 0783 27 205;+39 340 497 7090", "contact:website": "http://www.loliveto.sardegna.it", "cuisine": "regional", "name": "Agriturismo L'Oliveto", "start_date": "1997-08-02"}}, {"type": "node", "id": 5195897153, "lat": 40.0198134, "lon": 8.4562755, "tags": {"amenity": "restaurant", "cuisine": "regional"}}, {"type": "node", "id": 5195897173, "lat": 40.022991, "lon": 8.4445059, "tags": {"amenity": "restaurant", "contact:email": "claudiocaria@virgilio.it", "contact:facebook": "https://www.facebook.com/Agriturismo-La-Mimosa-San-Vero-Milis-487033788164616/", "contact:phone": "+39 0783 411 442;+39 349 534 33 67", "contact:website": "http://www.lamimosaagriturismo.it", "cuisine": "fish;regional", "name": "Agriturismo La Mimosa"}}, {"type": "node", "id": 5196332088, "lat": 40.1107635, "lon": 8.4946713, "tags": {"amenity": "restaurant", "contact:phone": "+39 347 858 4089", "cuisine": "regional", "name": "Agriturismo Pittinuri"}}, {"type": "node", "id": 5197551531, "lat": 40.1498439, "lon": 8.4786169, "tags": {"amenity": "restaurant", "contact:email": "info@pedramanna.it", "contact:phone": "+39 349 551 1354", "contact:website": "http://www.pedramanna.it", "cuisine": "regional", "internet_access": "wlan", "name": "Agriturismo Pedramanna"}}, {"type": "node", "id": 5289590236, "lat": 39.9034547, "lon": 8.4358022, "tags": {"amenity": "restaurant", "contact:email": "sannoranna@libero.it", "contact:facebook": "https://it-it.facebook.com/Agriturismo-Sannoranna-104888549559081/", "contact:phone": "+39 345 506 8448", "contact:website": "https://www.agriturismosannoranna.it/", "cuisine": "regional;sardinian", "name": "Agriturismo Sannoranna"}}, {"type": "node", "id": 5289899716, "lat": 40.0386376, "lon": 8.4127714, "tags": {"amenity": "restaurant", "contact:phone": "+39 0783 58010", "cuisine": "regional;fish;sardinian", "name": "Agriturismo Zenti Arrubia"}}, {"type": "node", "id": 5289899729, "lat": 40.0079212, "lon": 8.4194984, "tags": {"amenity": "restaurant", "contact:email": "info@saboriantigu.it", "contact:facebook": "https://www.facebook.com/AgriturismoSaboriAntigu/", "contact:phone": "+39 327 181 9819", "contact:website": "http://www.saboriantigu.it/", "cuisine": "regional;fish;sardinian", "name": "Agriturismo Sabori Antigu"}}, {"type": "node", "id": 5289899751, "lat": 40.01953, "lon": 8.4259169, "tags": {"amenity": "restaurant", "contact:email": "magginofrancesca@tiscali.it", "contact:phone": "+39 333 5281872", "contact:website": "http://www.agriturismoangoloazzurro.com", "cuisine": "regional;fish;sardinian", "name": "Agriturismo Angolo Azzurro"}}, {"type": "node", "id": 5289899758, "lat": 40.0230229, "lon": 8.4149051, "tags": {"amenity": "restaurant", "contact:email": "info@agriturismoilginepro.it", "contact:phone": "+39 347 44 24 153", "contact:website": "http://agriturismoilginepro.it/", "cuisine": "regional;fish;sardinian", "name": "Agriturismo Il Ginepro"}}, {"type": "node", "id": 5350850509, "lat": 39.905418, "lon": 8.5889005}, {"type": "node", "id": 5350850510, "lat": 39.9054802, "lon": 8.5890039}, {"type": "node", "id": 5350850511, "lat": 39.9053494, "lon": 8.5889743}, {"type": "node", "id": 5350850512, "lat": 39.9054026, "lon": 8.5890693}, {"type": "node", "id": 5350850513, "lat": 39.9037021, "lon": 8.5907084}, {"type": "node", "id": 5350850514, "lat": 39.9037543, "lon": 8.5907212}, {"type": "node", "id": 5412753349, "lat": 39.9156102, "lon": 8.5841558}, {"type": "node", "id": 5450344921, "lat": 40.2954504, "lon": 8.5032413, "tags": {"amenity": "cafe", "name": "Roxy Bar"}}, {"type": "node", "id": 5496798414, "lat": 39.9891101, "lon": 8.5952649, "tags": {"amenity": "cafe"}}, {"type": "node", "id": 5508833252, "lat": 39.9053502, "lon": 8.5972913}, {"type": "node", "id": 5508833253, "lat": 39.9051237, "lon": 8.5972318}, {"type": "node", "id": 5599954597, "lat": 39.8831957, "lon": 8.6049516, "tags": {"amenity": "restaurant", "cuisine": "italian;pizza", "name": "Ristorante Pizzeria Aba Rossa"}}, {"type": "node", "id": 5803595948, "lat": 40.2487972, "lon": 8.4757557, "tags": {"amenity": "restaurant", "name": "Alabe Hotel", "tourism": "hotel"}}, {"type": "node", "id": 5815786454, "lat": 40.2964853, "lon": 8.502027, "tags": {"amenity": "restaurant", "name": "Locanda di Corte Trattoria", "opening_hours": "Mo-Su 19:30-22:30", "phone": "+393402474823"}}, {"type": "node", "id": 5818263496, "lat": 40.2959602, "lon": 8.501448, "tags": {"amenity": "restaurant", "check_date": "2024-09-12", "name": "Trattoria Le 2 Piazze"}}, {"type": "node", "id": 5826470869, "lat": 39.9301661, "lon": 8.6916323, "tags": {"amenity": "restaurant", "contact:facebook": "https://www.facebook.com/Pizzeria-Giangiacomo-3-208863456463444/", "contact:phone": "+39 3662780832", "name": "Pizzeria da Giangiacomo", "restaurant:type:it": "pizzeria"}}, {"type": "node", "id": 6290793760, "lat": 39.9307608, "lon": 8.5303242, "tags": {"addr:city": "Cabras", "addr:housenumber": "8", "addr:postcode": "09072", "addr:street": "Piazza Domenico Alberto Azuni", "amenity": "restaurant", "brewery": "yes", "name": "The Garden - Trattodda", "opening_hours": "Fr-Su 19:30-23:00", "outdoor_seating": "yes"}}, {"type": "node", "id": 6358173641, "lat": 39.930659, "lon": 8.5322426}, {"type": "node", "id": 6358173642, "lat": 39.9306322, "lon": 8.5320687}, {"type": "node", "id": 6358173643, "lat": 39.9306622, "lon": 8.5320523}, {"type": "node", "id": 6428112686, "lat": 39.9109963, "lon": 8.5901388, "tags": {"addr:housenumber": "5", "addr:postcode": "09170", "addr:street": "Via Umbria", "amenity": "restaurant", "cuisine": "italian;mediterranean", "email": "spaghetteria.lozen@gmail.com", "name": "Spagettheria Lo Zen", "opening_hours": "Tu-Sa 13:00-15:00, 20:00-23:00; Su 13:00-15:00", "phone": "0783210440"}}, {"type": "node", "id": 6715511102, "lat": 39.9066279, "lon": 8.5158825, "tags": {"amenity": "cafe", "start_date": "2025-04-12"}}, {"type": "node", "id": 6762280546, "lat": 39.8848945, "lon": 8.4350754, "tags": {"addr:place": "Localit\u00e0 San Giovanni di Sinis", "air_conditioning": "no", "amenity": "cafe", "bar": "yes", "brewery": "yes", "cuisine": "sandwich;italian", "diet:meat": "yes", "diet:vegan": "yes", "diet:vegetarian": "yes", "drink:beer": "draught", "food": "yes", "indoor_seating": "yes", "name": "Bar Focacceria Casas", "outdoor_seating": "yes", "payment:cash": "yes", "payment:credit_cards": "yes", "payment:debit_cards": "yes", "phone": "+39 338 3338671", "reservation": "no", "smoking": "outside", "takeaway": "yes"}}, {"type": "node", "id": 6797152186, "lat": 40.2949109, "lon": 8.499032, "tags": {"amenity": "cafe", "name:fr": "Baravan"}}, {"type": "node", "id": 6821277847, "lat": 40.2964712, "lon": 8.5040721}, {"type": "node", "id": 6821277848, "lat": 40.2964738, "lon": 8.5041499}, {"type": "node", "id": 6821277849, "lat": 40.2964206, "lon": 8.5041569}, {"type": "node", "id": 6821277850, "lat": 40.2964398, "lon": 8.5040721}, {"type": "node", "id": 6855320415, "lat": 40.027312, "lon": 8.4079012, "tags": {"amenity": "restaurant", "contact:phone": "+39 340 228 4786", "name": "Ristorante Da Cesare", "source": "survey", "website": "https://www.hoteldacesare.com/restaurant/"}}, {"type": "node", "id": 6960016710, "lat": 40.092347, "lon": 8.6569624, "tags": {"amenity": "restaurant", "contact:email": "prenotazioni@oldcountry.pizza", "contact:facebook": "https://www.facebook.com/pg/oldcountrypizzeria/", "contact:phone": "+39 0783 56 259", "contact:website": "http://www.oldcountry.pizza", "name": "Pizzeria Old Country", "opening_hours": "Tu-Su 19:00-23:00", "restaurant:type:it": "pizzeria"}}, {"type": "node", "id": 7057503787, "lat": 40.2950489, "lon": 8.5052587, "tags": {"amenity": "restaurant", "name": "Trattoria I\u2019ll Biancospino"}}, {"type": "node", "id": 7682957522, "lat": 39.8834998, "lon": 8.4363326, "tags": {"addr:city": "Crabas/Cabras", "addr:postcode": "09072", "addr:street": "Via Lungomare", "amenity": "restaurant", "cuisine": "pizza", "name": "Tharrae", "phone": "+39 379 234 7182"}}, {"type": "node", "id": 7687695799, "lat": 39.9526218, "lon": 8.4026849, "tags": {"amenity": "cafe", "name": "Chiosco Bar Da Attilio", "opening_hours": "Nov-Mar: Mo-Su off", "outdoor_seating": "only", "payment:cash": "yes", "payment:credit_cards": "yes", "payment:debit_cards": "yes", "ref:vatin": "IT01159100955", "website": "https://www.trattoriadaattilio.com/chioscoisaruttas.php"}}, {"type": "node", "id": 7687695800, "lat": 39.9524896, "lon": 8.4027386, "tags": {"addr:place": "Localit\u00e0 Is Aruttas", "amenity": "restaurant", "cuisine": "fish", "name": "Chiosco Bar Da Attilio Is Aruttas", "opening_hours": "Nov-Mar: Mo-Su off; Apr-Oct: Mo-Su 12:30-15:00,19:00-22:30", "phone": "+39 348 3686293", "website": "https://www.trattoriadaattilio.com/chioscoisaruttas.php"}}, {"type": "node", "id": 7691430407, "lat": 40.007798, "lon": 8.5314658, "tags": {"amenity": "restaurant", "cuisine": "regional"}}, {"type": "node", "id": 7700199084, "lat": 40.0308131, "lon": 8.4057052}, {"type": "node", "id": 7700221985, "lat": 40.0306806, "lon": 8.4058514}, {"type": "node", "id": 7700221986, "lat": 40.0306233, "lon": 8.4057628}, {"type": "node", "id": 7700221987, "lat": 40.0307557, "lon": 8.4056166}, {"type": "node", "id": 7721090862, "lat": 40.0183329, "lon": 8.4142841, "tags": {"amenity": "restaurant", "contact:email": "trattoriamaestrale@tiscali.it", "contact:phone": "+39 339 231 5037", "cuisine": "fish;regional", "name": "Trattoria Bar Maestrale"}}, {"type": "node", "id": 7764764159, "lat": 40.296532, "lon": 8.5007391, "tags": {"amenity": "restaurant", "check_date": "2024-09-12", "cuisine": "fish;regional", "name": "Le Delizie del Borgo"}}, {"type": "node", "id": 7764764167, "lat": 40.2954573, "lon": 8.5028221, "tags": {"amenity": "restaurant", "check_date": "2024-09-12", "indoor_seating": "yes", "name": "Bacco Bistrot", "outdoor_seating": "yes"}}, {"type": "node", "id": 7764764168, "lat": 40.2954365, "lon": 8.5029563, "tags": {"amenity": "cafe"}}, {"type": "node", "id": 7764764180, "lat": 40.2953071, "lon": 8.503359, "tags": {"amenity": "cafe", "name": "Bar Ferralis"}}, {"type": "node", "id": 7765157758, "lat": 40.2941635, "lon": 8.5021795, "tags": {"amenity": "restaurant", "name": "Le Vecchie Conce"}}, {"type": "node", "id": 7765157760, "lat": 40.2946264, "lon": 8.5000927, "tags": {"amenity": "restaurant", "name": "Ponte Vecchio"}}, {"type": "node", "id": 7765157761, "lat": 40.2944617, "lon": 8.5005681, "tags": {"addr:housenumber": "55", "addr:postcode": "08013", "addr:street": "Via Emilio Scherer", "amenity": "restaurant", "name": "Trattoria Il pirata", "phone": "+39 380 104 9317"}}, {"type": "node", "id": 7765553012, "lat": 40.2972572, "lon": 8.4855223, "tags": {"amenity": "restaurant", "name": "Da Mu\u00e0"}}, {"type": "node", "id": 7794809686, "lat": 40.2962871, "lon": 8.5010147, "tags": {"addr:street": "Via Efisio Cugia", "amenity": "restaurant", "name": "Don Carlo Delicatssen"}}, {"type": "node", "id": 7867449985, "lat": 39.9279584, "lon": 8.5326129, "tags": {"addr:housenumber": "34", "addr:street": "Corso Italia", "amenity": "restaurant", "cuisine": "fish;regional", "drink:wine": "served", "indoor_seating": "yes", "name": "Trattoria da Attilio in paese", "opening_hours": "Mo-Sa 12:45-14:45, 19:45-22:30", "outdoor_seating": "yes", "payment:credit_cards": "yes", "payment:debit_cards": "yes", "phone": "+39 348 8180811", "reservation": "recommended", "website": "https://www.trattoriadaattilio.com/daattilioinpaese.php"}}, {"type": "node", "id": 7887561185, "lat": 39.9060225, "lon": 8.5927701, "tags": {"amenity": "restaurant", "name": "Kena"}}, {"type": "node", "id": 7899624971, "lat": 39.9002718, "lon": 8.6015107}, {"type": "node", "id": 7899624972, "lat": 39.9002717, "lon": 8.601585}, {"type": "node", "id": 7899624973, "lat": 39.9000925, "lon": 8.6015843}, {"type": "node", "id": 7899624974, "lat": 39.9000926, "lon": 8.60151}, {"type": "node", "id": 8083818287, "lat": 39.9155744, "lon": 8.5840629}, {"type": "node", "id": 8083818288, "lat": 39.9153763, "lon": 8.5841916}, {"type": "node", "id": 8188049788, "lat": 39.9155361, "lon": 8.5846098}, {"type": "node", "id": 8220719399, "lat": 39.9264802, "lon": 8.4553096, "tags": {"amenity": "restaurant", "contact:email": "agriturismoilsinis@tiscali.it", "contact:facebook": "https://www.facebook.com/pg/ilsinisagriturismosupranu/", "contact:mobile": "+39 328 9312508;+39 329 8925640", "contact:phone": "+39 0783 392653", "contact:website": "https://www.agriturismoilsinis.it/", "cuisine": "regional", "name": "Agriturismo Il Sinis", "operator": "Porcu Salvatore", "outdoor_seating": "yes", "payment:cash": "yes", "payment:credit_cards": "yes", "payment:debit_cards": "yes", "ref:vatin": "IT00122850951"}}, {"type": "node", "id": 9349019565, "lat": 40.1411389, "lon": 8.6540739}, {"type": "node", "id": 9349019566, "lat": 40.1410359, "lon": 8.6539914}, {"type": "node", "id": 9349019567, "lat": 40.1409889, "lon": 8.6540557}, {"type": "node", "id": 9349019568, "lat": 40.1409664, "lon": 8.6540994}, {"type": "node", "id": 9349019569, "lat": 40.1410781, "lon": 8.6542194}, {"type": "node", "id": 9349019570, "lat": 40.1411414, "lon": 8.6541346}, {"type": "node", "id": 9349019571, "lat": 40.141133, "lon": 8.6541007}, {"type": "node", "id": 9349019586, "lat": 40.142936, "lon": 8.6520222}, {"type": "node", "id": 9349019587, "lat": 40.1429928, "lon": 8.6519557}, {"type": "node", "id": 9349019588, "lat": 40.1430162, "lon": 8.6519981}, {"type": "node", "id": 9349019589, "lat": 40.1429444, "lon": 8.6520724}, {"type": "node", "id": 9349019590, "lat": 40.1443501, "lon": 8.6503912}, {"type": "node", "id": 9349019591, "lat": 40.144362, "lon": 8.6505367}, {"type": "node", "id": 9349019592, "lat": 40.1443551, "lon": 8.6505732}, {"type": "node", "id": 9349019593, "lat": 40.1442932, "lon": 8.6505849}, {"type": "node", "id": 9349019595, "lat": 40.1442663, "lon": 8.6504101}, {"type": "node", "id": 9349019596, "lat": 40.1416368, "lon": 8.6508342}, {"type": "node", "id": 9349019597, "lat": 40.141621, "lon": 8.6508789}, {"type": "node", "id": 9349019598, "lat": 40.1415507, "lon": 8.6508563}, {"type": "node", "id": 9349019599, "lat": 40.1415534, "lon": 8.6507968}, {"type": "node", "id": 9570486906, "lat": 39.9076484, "lon": 8.511327}, {"type": "node", "id": 9570486907, "lat": 39.9076149, "lon": 8.5114753}, {"type": "node", "id": 9570486908, "lat": 39.9075075, "lon": 8.5114341}, {"type": "node", "id": 9570486909, "lat": 39.907541, "lon": 8.5112858}, {"type": "node", "id": 9778874454, "lat": 40.2973734, "lon": 8.5006254, "tags": {"addr:city": "Bosa", "addr:street": "Piazza Vincenzo Gioberti", "amenity": "cafe", "name": "Paninoteca Da Jolly", "name:en": "Jolly Bar", "phone": "+39 349 4125990"}}, {"type": "node", "id": 9885455822, "lat": 40.0816874, "lon": 8.6099547, "tags": {"addr:city": "Seneghe", "addr:postcode": "09070", "addr:street": "Via Santa Maria", "amenity": "restaurant", "cuisine": "pizza", "name": "Bar Pizzeria IlNascondino", "phone": "+39 349 06 47 990"}}, {"type": "node", "id": 9930307175, "lat": 40.2951116, "lon": 8.5056193, "tags": {"amenity": "restaurant", "cuisine": "pizza", "name": "Civico Uno Bosa"}}, {"type": "node", "id": 9930320629, "lat": 40.2894516, "lon": 8.4795576, "tags": {"amenity": "cafe", "name": "Ice dream"}}, {"type": "node", "id": 9930331768, "lat": 40.2879621, "lon": 8.4810589, "tags": {"amenity": "cafe", "name": "Tiwi"}}, {"type": "node", "id": 9930340373, "lat": 40.2888475, "lon": 8.4804036, "tags": {"amenity": "restaurant", "cuisine": "fish", "name": "Marina Beach"}}, {"type": "node", "id": 9930343100, "lat": 40.289739, "lon": 8.4777636, "tags": {"amenity": "cafe", "check_date": "2023-10-10", "diet:vegetarian": "yes", "internet_access": "wlan", "internet_access:fee": "customers", "name": "Daisy Summer", "outdoor_seating": "yes", "payment:mastercard": "yes", "payment:twint": "yes", "payment:visa": "yes", "wheelchair": "yes"}}, {"type": "node", "id": 9930347818, "lat": 40.2911482, "lon": 8.4782488, "tags": {"amenity": "cafe", "ice_cream": "yes", "indoor_seating": "yes", "name": "Cafe del Porto", "outdoor_seating": "yes"}}, {"type": "node", "id": 9968193826, "lat": 39.9301768, "lon": 8.530188, "tags": {"addr:housenumber": "19", "addr:street": "Piazza Vittorio Emanuele", "amenity": "cafe", "check_date": "2024-09-26", "cuisine": "sandwich;regional", "food": "yes", "indoor_seating": "yes", "name": "Mami Bar Prosciutteria", "opening_hours": "Mo-Su 10:00-00:00", "outdoor_seating": "yes", "payment:cash": "yes", "payment:credit_cards": "yes", "payment:debit_cards": "yes"}}, {"type": "node", "id": 9983163530, "lat": 39.9304039, "lon": 8.5314494, "tags": {"addr:housenumber": "9", "addr:street": "Via Garibaldi", "amenity": "restaurant", "cuisine": "pizza", "level": "0;1", "name": "Dea Madre", "outdoor_seating": "yes", "oven": "wood_fired", "payment:cash": "yes", "payment:credit_cards": "yes", "payment:debit_cards": "yes", "phone": "+39 366 7307819", "takeaway": "yes"}}, {"type": "node", "id": 10043334717, "lat": 40.1423983, "lon": 8.6516812, "tags": {"amenity": "cafe"}}, {"type": "node", "id": 10316613858, "lat": 40.2799543, "lon": 8.5493579, "tags": {"amenity": "restaurant", "cuisine": "pizza", "facebook": "SaCaselma", "name": "Sa Caselma", "outdoor_seating": "yes"}}, {"type": "node", "id": 11043514928, "lat": 39.9031084, "lon": 8.5297643, "tags": {"amenity": "restaurant", "cuisine": "fish;pizza;regional", "internet_access": "yes", "internet_access:fee": "no", "outdoor_seating": "yes", "takeaway": "yes"}}, {"type": "node", "id": 11255170604, "lat": 40.0707298, "lon": 8.4830449, "tags": {"access": "customers", "amenity": "restaurant"}}, {"type": "node", "id": 11504395283, "lat": 40.2487476, "lon": 8.4757738, "tags": {"amenity": "restaurant", "cuisine": "pizza", "name": "Alabe"}}, {"type": "node", "id": 11645819454, "lat": 40.2956893, "lon": 8.5011081, "tags": {"amenity": "cafe", "check_date": "2024-09-12", "name": "I Portici"}}, {"type": "node", "id": 11764332982, "lat": 39.9300289, "lon": 8.5301862, "tags": {"addr:city": "Crabas/Cabras", "addr:housenumber": "2", "addr:postcode": "09072", "addr:street": "Piazza Vittorio Emanuele III", "air_conditioning": "yes", "amenity": "restaurant", "cuisine": "italian", "name": "Sa Panga - Birra e Cucina", "opening_hours": "Mo-Su 13:00-14:30; Tu off; Fr,Sa 13:00-14:30,20:00-22:00", "phone": "0783 021113", "toilets": "yes"}}, {"type": "node", "id": 11999611669, "lat": 39.9974451, "lon": 8.541399, "tags": {"amenity": "restaurant", "name:nl": "Lascia fare a me"}}, {"type": "node", "id": 11999629370, "lat": 39.9077527, "lon": 8.5166227, "tags": {"amenity": "restaurant", "contact:phone": "+393405684528", "cuisine": "fish;italian;mediterranean;regional", "name": "Ristorante Sestante", "name:nl": "Il Sestante", "opening_hours": "Tu-Su 13:00-15:00,20:00-23:00; Mo off", "reservation": "yes"}}, {"type": "node", "id": 12001523669, "lat": 39.930131, "lon": 8.5312064, "tags": {"amenity": "restaurant", "name:nl": "Trattoria da Giulia"}}, {"type": "node", "id": 12061552471, "lat": 40.2938848, "lon": 8.5031241, "tags": {"addr:housenumber": "8", "addr:postcode": "08013", "addr:street": "Via Sas Conzas", "amenity": "restaurant", "cuisine": "italian", "name": "Restaurant Old Bridge", "opening_hours": "Su-Tu, Th-Fr 12:30-15:30; Sa 12:30-22:00"}}, {"type": "node", "id": 12168404527, "lat": 39.9496371, "lon": 8.4079002, "tags": {"amenity": "restaurant", "cuisine": "pizza"}}, {"type": "node", "id": 12171398752, "lat": 40.2959948, "lon": 8.5012129, "tags": {"amenity": "restaurant", "check_date": "2024-09-12", "cuisine": "pizza", "indoor_seating": "yes", "name": "Don carlos", "outdoor_seating": "yes"}}, {"type": "node", "id": 12171460488, "lat": 40.2961885, "lon": 8.5004112, "tags": {"amenity": "cafe", "check_date": "2024-09-12", "indoor_seating": "yes", "name": "Gioielli", "outdoor_seating": "yes"}}, {"type": "node", "id": 12171460489, "lat": 40.2968275, "lon": 8.4995443, "tags": {"amenity": "cafe", "check_date": "2024-09-12", "name": "Il baretto"}}, {"type": "node", "id": 12171460490, "lat": 40.2965761, "lon": 8.4988731, "tags": {"amenity": "cafe", "check_date": "2024-09-12", "name": "Happy day"}}, {"type": "node", "id": 12171460491, "lat": 40.2966677, "lon": 8.4986791, "tags": {"amenity": "cafe", "check_date": "2024-09-12"}}, {"type": "node", "id": 12171460492, "lat": 40.2965132, "lon": 8.4983513, "tags": {"addr:housenumber": "11", "addr:street": "Via Daniele Manin", "amenity": "restaurant", "check_date": "2024-09-12", "cuisine": "sushi", "name": "Yamaki"}}, {"type": "node", "id": 12171489794, "lat": 40.2957198, "lon": 8.4992799, "tags": {"amenity": "cafe", "check_date": "2024-09-12", "cuisine": "coffee_shop", "name": "La Rosa dei venti"}}, {"type": "node", "id": 12178847255, "lat": 40.0043476, "lon": 8.6480559, "tags": {"addr:city": "Tramatza", "addr:housenumber": "14", "addr:postcode": "09070", "addr:street": "Via Italia", "amenity": "restaurant", "name": "Pizzerie Ale&Ale", "opening_hours": "Mo off; Tu-Su 18:30-23:00", "phone": "+39078350346", "website": "https://pizzainpiazzadialeeale.it/"}}, {"type": "node", "id": 12197426846, "lat": 39.9908575, "lon": 8.5419745, "tags": {"amenity": "restaurant", "name": "Magna Magna", "opening_hours": "Mo-Sa 12:00-14:30,19:30-22:30"}}, {"type": "node", "id": 12204917478, "lat": 39.9309696, "lon": 8.5274937, "tags": {"addr:city": "Cabras", "addr:housenumber": "42", "addr:postcode": "09072", "addr:street": "Via Cesare Battisti", "amenity": "restaurant", "check_date": "2024-09-28", "email": "info@estro-ristorante.it", "name": "Estro", "opening_hours": "08:00-10:00,18:00-22:00", "payment:cash": "yes", "payment:credit_cards": "yes", "payment:debit_cards": "yes", "phone": "+39 345 7739048", "website": "https://www.estro-ristorante.it/", "wheelchair": "no"}}, {"type": "node", "id": 12206719334, "lat": 40.2968304, "lon": 8.4994944, "tags": {"amenity": "cafe", "name": "Il Baretto"}}, {"type": "node", "id": 12241324401, "lat": 39.9047081, "lon": 8.5911683, "tags": {"addr:street": "Vico Umberto Primo di Savoia", "amenity": "restaurant", "name": "Il Localino", "opening_hours": "Mo-Sa 08:30-16:00"}}, {"type": "node", "id": 12469497397, "lat": 39.9064287, "lon": 8.5171133, "tags": {"amenity": "cafe", "name": "Insomnia Caf\u00e8", "opening_hours": "Mo-Su 00:00-03:00,06:00-24:00"}}, {"type": "node", "id": 12495837240, "lat": 39.9148439, "lon": 8.5842746, "tags": {"amenity": "cafe", "name": "Social Caf\u00e8", "opening_hours": "Mo-Fr 07:30-14:00,15:30-19:30; Sa 07:30-14:00"}}, {"type": "node", "id": 12509640117, "lat": 39.9562478, "lon": 8.6685926, "tags": {"amenity": "cafe", "name": "Pausa Caff\u00e8"}}, {"type": "node", "id": 12514890296, "lat": 39.9025854, "lon": 8.5246778}, {"type": "node", "id": 12514890297, "lat": 39.9025113, "lon": 8.5248332}, {"type": "node", "id": 12514890298, "lat": 39.9026342, "lon": 8.5249329}, {"type": "node", "id": 12514890299, "lat": 39.9027084, "lon": 8.5247775}, {"type": "node", "id": 12535679747, "lat": 39.9119468, "lon": 8.5847063, "tags": {"amenity": "cafe", "name": "Bar Caff\u00e8 Nati's", "opening_hours": "Mo-Fr 05:00-20:00; Sa 05:00-12:00; Su 06:30-12:00"}}, {"type": "node", "id": 12536055587, "lat": 39.9019136, "lon": 8.5917832, "tags": {"amenity": "restaurant", "contact:phone": "+39 0783 296006", "cuisine": "italian", "name": "Pepe Nero", "opening_hours": "Mo-Su 12:30-14:30,19:00-22:30", "reservation": "yes"}}, {"type": "node", "id": 12536055588, "lat": 39.9141868, "lon": 8.5839768, "tags": {"amenity": "cafe", "name": "Caffetteria 36", "opening_hours": "Mo-Sa 07:00-21:30"}}, {"type": "node", "id": 12536055589, "lat": 39.9119712, "lon": 8.5861112, "tags": {"amenity": "restaurant", "cuisine": "sushi", "name": "Sushi Nove", "opening_hours": "Mo-Su 12:00-15:00,19:00-23:00"}}, {"type": "node", "id": 12556734797, "lat": 39.9806486, "lon": 8.539183, "tags": {"amenity": "cafe", "name": "Mundo Loco", "opening_hours": "Mo-Su 00:00-03:00,06:00-24:00"}}, {"type": "node", "id": 12565315005, "lat": 40.0027008, "lon": 8.6486188, "tags": {"amenity": "cafe", "name": "Bar Caria Emiliio", "opening_hours": "Mo-Su 08:00-14:00,16:00-24:00"}}, {"type": "node", "id": 12568440560, "lat": 39.98862, "lon": 8.6006118, "tags": {"amenity": "cafe", "name": "Bar Il Parco", "opening_hours": "Mo-Su 07:00-24:00"}}, {"type": "node", "id": 12586964103, "lat": 40.0007129, "lon": 8.6495509, "tags": {"addr:housenumber": "76", "addr:street": "Via Vittorio Veneto", "amenity": "cafe", "name": "Sara Caff\u00e8", "opening_hours": "Mo-Su 00:00-02:00,06:30-24:00"}}, {"type": "node", "id": 12598934486, "lat": 39.901621, "lon": 8.5891987, "tags": {"amenity": "cafe", "name": "Mood bar", "opening_hours": "Mo-Sa 06:00-19:00"}}, {"type": "node", "id": 12609240204, "lat": 39.9059854, "lon": 8.5806905, "tags": {"amenity": "cafe", "name": "Dolce Aroma", "opening_hours": "Mo-Fr 06:00-20:00; Sa-Su 06:30-14:30; PH off", "start_date": "2025-01-19"}}, {"type": "node", "id": 12628257919, "lat": 39.8828346, "lon": 8.4362912}, {"type": "node", "id": 12628257920, "lat": 39.8828731, "lon": 8.4363999}, {"type": "node", "id": 12628257921, "lat": 39.8829274, "lon": 8.4362353}, {"type": "node", "id": 12628257922, "lat": 39.8828488, "lon": 8.4362826}, {"type": "node", "id": 12628257942, "lat": 39.9302483, "lon": 8.5522141, "tags": {"addr:housenumber": "7", "addr:street": "Corso Amerigo Vespucci", "amenity": "cafe", "name": "Bielli's", "opening_hours": "Mo-Su 08:00-18:00"}}, {"type": "node", "id": 12628257943, "lat": 39.9246087, "lon": 8.5261943, "tags": {"addr:housenumber": "155", "addr:street": "Via Tharros", "amenity": "cafe", "name": "Bar Bichi", "opening_hours": "Mo-Su 00:00-01:00,05:00-24:00"}}, {"type": "node", "id": 12628257944, "lat": 39.9299939, "lon": 8.5311506, "tags": {"amenity": "cafe", "name": "Bar Il Pescatore", "opening_hours": "Mo-Su 07:00-22:00"}}, {"type": "node", "id": 12628662954, "lat": 40.2979586, "lon": 8.4981487, "tags": {"amenity": "cafe", "name": "Bar Mouse"}}, {"type": "node", "id": 12646012960, "lat": 39.9018815, "lon": 8.6039443}, {"type": "node", "id": 12646012961, "lat": 39.9017982, "lon": 8.6039777}, {"type": "node", "id": 12646012962, "lat": 39.9017745, "lon": 8.6038772}, {"type": "node", "id": 12704795348, "lat": 39.9220661, "lon": 8.5239329, "tags": {"amenity": "restaurant", "contact:phone": "+39 331 783 3145", "cuisine": "pizza", "name": "Molas Pizzeria", "opening_hours": "Tu-Su 19:00-22:00; PH off"}}, {"type": "node", "id": 12896174701, "lat": 39.9962869, "lon": 8.5396873, "tags": {"addr:housenumber": "36", "addr:postcode": "09070", "addr:street": "Via Giuseppe Garibaldi", "amenity": "restaurant", "cuisine": "italian;mediterranean", "name": "Su Murrai"}}, {"type": "way", "id": 72443770, "nodes": [860151910, 860123574, 860127044, 860152173, 860151910], "tags": {"addr:city": "San Giovanni di Sinis", "amenity": "cafe", "building": "commercial", "contact:facebook": "https://www.facebook.com/Bar-Trattoria-Tequila-167343656636874/", "mobile": "+39 348 8094192, +39 349 6079070", "name": "Bar trattoria Tequila", "opening_hours": "Mo-Su 09:30-19:00; Tu off", "phone:mobile": "+39 348 8094192;+39 349 6079070"}}, {"type": "way", "id": 72444101, "nodes": [860123438, 860162134, 860125067, 860147122, 860123438], "tags": {"addr:city": "Cabras", "addr:place": "San Giovanni di Sinis", "amenity": "restaurant", "building": "yes", "contact:facebook": "https://www.facebook.com/Ristorante-Bar-Da-Marina-San-Giovanni-di-sinis-201715946894343/", "contact:phone": "+39 0783 370065", "name": "Bar Ristorante Da Marina", "opening_hours": "Mo-Su 08:30-23:30", "operator": "Pau Marina", "ref:vatin": "IT00355300955"}}, {"type": "way", "id": 72445687, "nodes": [860126821, 2996575151, 2996575153, 860150159, 860144643, 860151995, 860126821], "tags": {"amenity": "restaurant", "building": "commercial", "contact:email": "mauraboi71@gmail.com", "contact:facebook": "https://www.facebook.com/Genti-Arrubia-139952486134723/", "contact:phone": "+39 393 297 2013", "cuisine": "fish;regional", "name": "Genti Arrubia"}}, {"type": "way", "id": 72446010, "nodes": [860121993, 860140905, 860131388, 860123707, 860121993], "tags": {"addr:city": "Cabras", "addr:place": "San Giovanni di Sinis", "amenity": "cafe", "building": "yes", "contact:facebook": "https://www.facebook.com/La-Playa-Bar-Pizzeria-Tavola-calda-gelateria-artigianale-325239777587186/", "contact:phone": "+39 329 6315355", "cuisine": "coffee_shop;pizza", "food": "yes", "ice_cream": "no", "name": "Bar La Playa", "nohousenumber": "yes", "official_name": "Bar La playa di Sanna Marcello", "opening_hours": "Mo-Su 10:00-22:00; Tu off; Sa 10:00-23:30", "outdoor_seating": "yes", "payment:mastercard": "yes", "payment:visa": "yes", "ref:vatin": "IT01137930952"}}, {"type": "way", "id": 72446018, "nodes": [860151334, 860154757, 5186422906, 860139595, 860163213, 860151334], "tags": {"amenity": "restaurant", "building": "yes", "cuisine": "seafood", "email": "ittiturismo@consorziopontis.it", "facebook": "https://www.facebook.com/consorziopontis/", "fax": "+39 0783 391774", "name": "Ittiturismo Sa Pischera 'e Mar'e Pontis", "opening_hours": "Mo-Fr 13:00-14:30; Sa,Su 13:00-14:30,20:00-21:30", "operator": "Nuovo Consorzio Cooperative Pontis Soc. Coop.", "payment:american_express": "yes", "payment:cash": "yes", "payment:discover_card": "yes", "payment:mastercard": "yes", "payment:visa": "yes", "phone": "+39 0783 391774", "phone:mobile": "+39 335 7497626", "ref:vatin": "IT00653000950", "website": "https://www.consorziopontis.net/"}}, {"type": "way", "id": 114146044, "nodes": [1293448446, 1293449622, 1293448251, 1367812344, 1293448446], "tags": {"addr:city": "Cuglieri", "addr:place": "Santa Caterina di Pittinuri", "addr:postcode": "09073", "addr:street": "Corso Alagon", "amenity": "restaurant", "building": "yes", "cuisine": "italian;pizza", "name": "Hotel Ristorante Pizzeria La Scogliera", "official_name": "Hotel Ristorante Pizzeria La Scogliera S.r.l.", "phone": "+39 0785 38231", "ref:vatin": "IT00581140951", "website": "http://www.lascogliera-ristorante.it/"}}, {"type": "way", "id": 118872752, "nodes": [1336099364, 3780946175, 1336099013, 1336099371, 3780946173, 3780946172, 1336099216, 1336099364], "tags": {"amenity": "restaurant", "cuisine": "pizza", "name": "Is Cumparis"}}, {"type": "way", "id": 123093423, "nodes": [1373791489, 1373791465, 1373791459, 1373791487, 1678061020, 1678061021, 1373791489], "tags": {"addr:housenumber": "36", "addr:postcode": "09073", "addr:street": "Via Lungomare", "amenity": "restaurant", "building": "yes", "check_date:opening_hours": "2024-08-21", "contact:phone": "+39 0785 389021", "cuisine": "italian;pizza", "name": "Altamarea", "opening_hours": "Mo-Su 12:30-15:00,19:00-23:30"}}, {"type": "way", "id": 128089228, "nodes": [1416198285, 1416198332, 1416198408, 1416198320, 1416198285], "tags": {"addr:city": "Cabras", "addr:postcode": "09072", "amenity": "cafe", "building": "retail", "name": "Quarzo Bianco - Sinis Kitesurf Accademy", "operator": "Cabras Futuro S.r.l.", "ref:vatin": "IT01063340952"}}, {"type": "way", "id": 128089237, "nodes": [1416174867, 1889770964, 2133498982, 1889770948, 1416174855, 1889770936, 1889770919, 1889770927, 1416174848, 1416174861, 1416174867], "tags": {"addr:street": "Viale Tharros", "amenity": "cafe", "building": "commercial", "internet_access": "wlan", "name": "Bar Pizzeria Funtana Meiga"}}, {"type": "way", "id": 128089248, "nodes": [1416182769, 1416182699, 1416182684, 1416182761, 1416182769], "tags": {"amenity": "restaurant", "building": "roof", "cuisine": "regional", "name": "Maimoni Caf\u00e8", "website": "https://www.maimonicafe.it/"}}, {"type": "way", "id": 164725474, "nodes": [1763340863, 1763340847, 1763340798, 1763340800, 1763340816, 1763340863], "tags": {"amenity": "cafe", "building": "yes"}}, {"type": "way", "id": 169171663, "nodes": [1803350652, 1803350650, 1803350651, 1803350649, 3025989886, 3025989888, 1803350645, 3025989890, 3025989887, 3025989889, 3025989892, 3025989893, 3025989891, 1803350648, 1803350652], "tags": {"amenity": "restaurant", "building": "yes", "contact:facebook": "https://www.facebook.com/La-Villa-Pedras-Longas-1481891518694909/", "name": "La Villa - Pedras Longas"}}, {"type": "way", "id": 178063251, "nodes": [2802037617, 1884421294, 3000579218, 3000579211, 1884421293, 3000579223, 1884421295, 3000579340, 2802037652, 1884421296, 2802037617], "tags": {"amenity": "restaurant", "building": "yes", "contact:phone": "+39 348 004 3917", "cuisine": "pizza;regional", "name": "Ristorante Pizzeria All'Angelo"}}, {"type": "way", "id": 178063252, "nodes": [1884421334, 1884421333, 1884421335, 1884421336, 1884421334], "tags": {"addr:city": "Bosa", "addr:housenumber": "80", "addr:postcode": "08013", "addr:street": "Lungomare Mediterraneo", "amenity": "cafe", "building": "yes", "name": "Il Localino Bosa Marina", "opening_hours": "Mo-Su 09:00-24:00", "phone": "+393317602986"}}, {"type": "way", "id": 178636342, "nodes": [1889797609, 1889797546, 1889797498, 1889797472, 1889797401, 1889797543, 1889797583, 1889797614, 1889797701, 1889797685, 1889797737, 1889797677, 1889797718, 1889797615, 1889797609], "tags": {"addr:city": "Oristano", "addr:housenumber": "18", "addr:postcode": "09170", "addr:street": "Via Torregrande", "amenity": "restaurant", "building": "yes", "cuisine": "italian;pizza;regional", "name": "Ristorante Pizzeria Ever Green", "operator": "R.M.R. Service S.n.c. di Roccuzzo Andrea & C.", "phone": "+39 0783 298057", "ref:vatin": "IT01179730955", "smoking": "separated"}}, {"type": "way", "id": 178636478, "nodes": [1889805058, 1889804995, 1889804946, 1889804921, 1889804891, 1889804911, 1889804885, 1889804929, 1889805058], "tags": {"amenity": "restaurant", "building": "hut", "name": "Sottovento", "official_name": "SEV Center 2000 di Caddeo Giovanni & C.", "opening_hours": "PH,Mo-Su 12:30-18:00+", "ref:vatin": "IT00644760951"}}, {"type": "way", "id": 186724408, "nodes": [1974724747, 1974724750, 1974724749, 1974724751, 1974724752, 1974724758, 1974724754, 1974724745, 1974724746, 1974724747], "tags": {"addr:city": "Mandriola", "addr:housenumber": "63", "addr:street": "Via Del Bianco", "alt_name": "San Lorenzo", "amenity": "restaurant", "building": "yes", "contact:email": "info@entuesole.it", "contact:mobile": "+39 333 7401655;+39 3458434909", "contact:website": "https://www.entuesole.it/", "cuisine": "italian;pizza", "name": "Entu e Sole", "official_name": "Entu e Sole S.r.l.", "opening_hours": "Mo-Su 10:00-14:00,19:00-24:00", "ref:vatin": "IT01079340954", "takeaway": "yes"}}, {"type": "way", "id": 236760352, "nodes": [2447392907, 2447392908, 2447392909, 2447392910, 2447392907], "tags": {"amenity": "cafe", "building": "yes", "cuisine": "pizza", "name": "West Coast srl"}}, {"type": "way", "id": 247085520, "nodes": [2540221546, 2540221550, 2540221564, 2540221560, 2540221557, 2540221558, 2540221551, 2540221546], "tags": {"amenity": "cafe", "building": "yes", "name": "Autogrill", "operator": "Autogrill"}}, {"type": "way", "id": 248433658, "nodes": [2552333721, 2552333727, 2552333706, 2552333703, 2552333721], "tags": {"addr:housenumber": "3", "addr:street": "Via Is Grazias", "amenity": "restaurant", "building": "commercial", "contact:phone": "+39 0783 374 723", "cuisine": "pizza", "name": "Pizzeria Is Grazias", "opening_hours": "Tu off", "operator": "Luciana Uras", "oven": "wood_fired", "restaurant:type:it": "pizzeria", "start_date": "2000-07-01", "website": "http://web.tiscali.it/isgrazias/"}}, {"type": "way", "id": 248440850, "nodes": [2552390793, 2552390798, 2552390737, 2552390731, 2552390793], "tags": {"addr:city": "Sabarussa/Solarussa", "addr:city:it": "Solarussa", "addr:city:sc": "Sabarussa", "addr:housenumber": "8", "addr:street": "Via Cavour", "amenity": "restaurant", "building": "yes", "contact:facebook": "https://www.facebook.com/Bar-Pizzeria-Holiday-Flli-Muru-Solarussa-180651215457112/", "contact:google_plus": "https://plus.google.com/109222542238015695502", "contact:phone": "+39 0783 374121", "cuisine": "pizza", "name": "Bar pizzeria Holiday", "opening_hours": "Mo off", "operator": "Fratelli Muru", "oven": "wood_fired", "restaurant:type:it": "pizzeria"}}, {"type": "way", "id": 248652911, "nodes": [2554132756, 2554132758, 2554132760, 2554132757, 2554132756], "tags": {"addr:city": "Sabarussa/Solarussa", "addr:housenumber": "24", "addr:postcode": "09077", "addr:street": "Via Antonio Gramsci", "amenity": "restaurant", "building": "commercial", "contact:email": "barmovida@tiscali.it", "contact:facebook": "https://www.facebook.com/pg/MOVIDA-LIVE-BAR-470127325622/", "contact:phone": "+39 347 075 8174", "cuisine": "pizza;regional", "name": "Bar Trattoria Movida", "oven": "wood_fired", "restaurant:type:it": "pizzeria"}}, {"type": "way", "id": 248656366, "nodes": [2554164842, 2554164806, 2554164813, 2554164849, 2554164853, 2554164890, 2554164887, 2554164866, 2554164859, 2554164847, 2554164842], "tags": {"addr:city": "Sabarussa/Solarussa", "addr:city:it": "Solarussa", "addr:city:sc": "Sabarussa", "addr:housenumber": "1", "addr:street": "Via Eleonora D'Arborea", "amenity": "restaurant", "building": "commercial", "contact:facebook": "https://www.facebook.com/Bar-Pizzeria-Holiday-Flli-Muru-Solarussa-180651215457112/", "contact:phone": "+39 348 533 5656", "cuisine": "pizza", "name": "Pizzeria Il quadrifoglio", "operator": "Gilmberto Cominu", "oven": "wood_fired", "restaurant:type:it": "pizzeria", "takeaway": "yes"}}, {"type": "way", "id": 268048543, "nodes": [2734082683, 2734082636, 2734082615, 2734082721, 2734082702, 2734082684, 2734082699, 2734082626, 2734082686, 2734082639, 2734082621, 2734082616, 2734082617, 2734082709, 2734082683], "tags": {"amenity": "restaurant", "building": "yes", "cuisine": "regional", "name": "Agriturismo Montiferru", "phone": "+39 328 1924348"}}, {"type": "way", "id": 279199837, "nodes": [2834373645, 2834373603, 2834373500, 2834373464, 2834373615, 2834373619, 2834373655, 2834373651, 2834373698, 2834373830, 2834373686, 2834373682, 2834373641, 2834373645], "tags": {"amenity": "cafe", "building": "yes", "name": "Freedom Bar", "opening_hours": "Mo-Fr 07:00-21:00; Sa 07:00-14:00"}}, {"type": "way", "id": 279199860, "nodes": [2834355674, 2834353135, 2834354586, 2834354776, 2834354795, 2834355271, 2834355247, 2834354234, 2834354256, 2834355423, 2834355433, 2834355484, 2834354295, 2834355855, 2834355674], "tags": {"addr:city": "Torregrande", "addr:housenumber": "6", "addr:street": "Piazza della Torre", "amenity": "restaurant", "building": "commercial", "contact:email": "entremetie@hotmail.it", "contact:facebook": "https://www.facebook.com/LOasi-Ristorante-e-Pizzeria-458883980872230/", "contact:phone": "+39 0783 22062", "cuisine": "pizza", "name": "Ristorante Pizzeria L'Oasi", "opening_hours": "Mo-Su 12:30-16:00,19:30-24:00", "oven": "wood_fired", "payment:coins": "yes", "payment:mastercard": "yes", "payment:visa": "yes", "restaurant:type:it": "pizzeria"}}, {"type": "way", "id": 279200236, "nodes": [2834341626, 2834341559, 2834341550, 2834340732, 2834340753, 2834340830, 2834340852, 2834341230, 2834341264, 2834341417, 2834341400, 2834341413, 2834341399, 2834341589, 2834341575, 2834341635, 2834341626], "tags": {"amenity": "restaurant", "building": "yes", "cuisine": "italian", "name": "Dopolavoro Ferroviario", "opening_hours": "Mo-Fr 12:00-14:45"}}, {"type": "way", "id": 279201790, "nodes": [2834302591, 2834302281, 2834302533, 2834302734, 2834302591], "tags": {"amenity": "restaurant", "building": "yes", "cuisine": "regional", "name": "Agriturismo Archelao"}}, {"type": "way", "id": 279204675, "nodes": [2834303124, 2834298667, 2834303199, 2834303230, 2834303251, 2834303274, 2834303124], "tags": {"addr:housenumber": "40", "addr:street": "Via Messina", "amenity": "restaurant", "building": "yes", "contact:facebook": "https://www.facebook.com/pages/Mr-Pizza/759897890707689", "cuisine": "pizza;burger;sandwich", "name": "Mr. Pizza", "opening_hours": "Mo-Sa 11:00-14:00,18:00-22:30; Su 18:00-22:30"}}, {"type": "way", "id": 279204704, "nodes": [2834318009, 2834317935, 2834317946, 2834318012, 2834318035, 2834318066, 2834318009], "tags": {"amenity": "restaurant", "building": "yes", "contact:email": "prenota@dagustavo.it", "contact:facebook": "https://www.facebook.com/dagustavospaghetteria/", "contact:phone": "+39 347 344 3274", "cuisine": "noodle", "name": "Spaghetteria Ristorante Da Gustavo", "opening_hours": "Tu-Su 12:00-15:00,19:00-22:30"}}, {"type": "way", "id": 279204864, "nodes": [2834358832, 2834358428, 2834359049, 2834359511, 2834359413, 2834359215, 2834359180, 2834358832], "tags": {"amenity": "restaurant", "building": "yes", "contact:email": "h175725151@icloud.com", "contact:facebook": "https://www.facebook.com/GTSushiWOK/", "contact:phone": "+39 0783 72357", "contact:website": "https://www.gtsushiwok.it", "cuisine": "international;sushi", "name": "Sushi Wok", "opening_hours": "Mo-Su 12:00-15:00,19:30-23:00"}}, {"type": "way", "id": 279205558, "nodes": [2834384655, 2834384642, 2834384623, 2834384644, 2834384636, 2834384646, 2834384677, 2834384673, 2834384658, 2834384655], "tags": {"addr:city": "Oristano", "addr:housenumber": "26", "addr:postcode": "09170", "addr:street": "Via Torregrande", "amenity": "restaurant", "building": "commercial", "contact:facebook": "www.facebook.com/minacountryclub", "contact:phone": "+39 366 8982153", "cuisine": "italian;pizza;sushi", "name": "Mina Country Club", "opening_hours": "Mo 00:00-00:45; Tu 12:30-24:00; We-Su 00:00-00:45,12:30-24:00", "outdoor_seating": "yes", "website": "www.minacountryclub.it"}}, {"type": "way", "id": 279205559, "nodes": [2834378405, 2834378388, 2834378399, 2834378407, 2834378418, 2834378426, 2834378430, 2834378432, 2834378435, 2834378405], "tags": {"amenity": "restaurant", "building": "yes", "cuisine": "pizza", "name": "Pizzeria L'angolo del gusto", "restaurant:type:it": "pizzeria"}}, {"type": "way", "id": 280157772, "nodes": [2843131507, 2843131492, 2843131527, 2843131531, 2843131507], "tags": {"addr:city": "Simaghis/Simaxis", "addr:country": "IT", "addr:housenumber": "9", "addr:postcode": "09088", "addr:street": "Via Olbia", "amenity": "restaurant", "building": "yes", "cuisine": "italian;pizza", "name": "Ristorante Pizzeria Il gambero", "opening_hours": "Mo-Su 08:45-23:00; Tu 08:45-15:00"}}, {"type": "way", "id": 287807443, "nodes": [2913717951, 2913717961, 2913717970, 2913717963, 2913717951], "tags": {"amenity": "cafe", "building": "commercial", "name": "M & M", "opening_hours": "Mo-Sa 00:00-02:00,08:30-24:00; Su 00:00-03:00,08:30-24:00"}}, {"type": "way", "id": 287807445, "nodes": [2913717966, 2913717972, 2913717948, 5181972522, 5181972521, 2913717973, 2913717966], "tags": {"amenity": "cafe", "building": "yes", "contact:facebook": "https://www.facebook.com/EoloRistobarTorregrande/", "contact:phone": "+39 340 247 6904", "name": "Eolo bar caff\u00e9", "opening_hours": "Mo-Su 00:00-01:00,08:00-24:00; We 00:00-01:00,08:00-20:00; Th 08:00-24:00", "payment:coins": "yes", "payment:mastercard": "yes", "payment:visa": "yes"}}, {"type": "way", "id": 287807906, "nodes": [2913722854, 2913722855, 2913722853, 2913722856, 2913722854], "tags": {"amenity": "restaurant", "building": "commercial", "contact:email": "ristoranteledune@gmail.com", "contact:facebook": "https://www.facebook.com/Ristorante-Le-Dune-117124978314103/", "contact:phone": "+39 0783 370 089", "name": "Le Dune", "opening_hours": "Mo-Su 12:00-15:00,19:00-22:30", "payment:mastercard": "yes", "payment:visa": "yes", "terrace": "yes"}}, {"type": "way", "id": 289613890, "nodes": [2931557849, 2931557864, 2931557854, 2931557851, 2931557863, 2931557861, 2931557856, 2931557865, 2931557849], "tags": {"amenity": "restaurant", "building": "yes"}}, {"type": "way", "id": 295527900, "nodes": [2992603139, 2992603142, 2992603144, 2992603148, 2992603154, 2992603153, 2992603150, 2992603149, 2992603147, 2992603140, 2992603139], "tags": {"addr:city": "Baratili San Pietro", "addr:country": "IT", "addr:postcode": "09070", "amenity": "restaurant", "building": "commercial", "cuisine": "regional", "name": "Bentu de Mari"}}, {"type": "way", "id": 295904057, "nodes": [2996650150, 2996649888, 2996649893, 2996650155, 2996650157, 2996649854, 2996649843, 2996649866, 2996649868, 2996650180, 2996650181, 2996650152, 2996650150], "tags": {"addr:street": "Via Tirso", "amenity": "restaurant", "building": "commercial", "contact:google_plus": "https://plus.google.com/102984952021604761164/about?gl=it&hl=it", "cuisine": "italian;pizza", "name": "Ristorante Pizzeria L'oliveto", "oven": "wood_fired", "restaurant:type:it": "pizzeria"}}, {"type": "way", "id": 295904628, "nodes": [2996604956, 2996603329, 2996604428, 2996605144, 2996604956], "tags": {"amenity": "restaurant", "building": "yes", "contact:email": "info@agriturismosaruda.it", "contact:facebook": "https://www.facebook.com/agriturismosaruda/", "contact:google_plus": "https://plus.google.com/+AgriturismosarudaIt", "contact:phone": "+39 328 017 3379", "contact:website": "http://www.agriturismosaruda.it", "cuisine": "regional;sardinian", "name": "Agriturismo Sa Ruda"}}, {"type": "way", "id": 295904839, "nodes": [2996659175, 2996659169, 2996659172, 2996659182, 2996659175], "tags": {"amenity": "restaurant", "building": "commercial", "cuisine": "italian", "name": "Ristorante Su Soi", "website": "https://www.susoi.it/"}}, {"type": "way", "id": 295905022, "nodes": [2996584678, 2996584672, 2996584675, 2996584682, 2996584678], "tags": {"addr:city": "Cabras", "addr:housenumber": "2.5", "addr:postcode": "09072", "addr:street": "SP6", "addr:unit": "km", "amenity": "restaurant", "building": "yes", "contact:email": "m.pinna560@gmail.com", "contact:facebook": "https://www.facebook.com/Ittioturismo-Aquaurchi-916370708407397/", "contact:phone": "+39 0783 392587", "contact:website": "http://www.ittioturismooristano.com", "cuisine": "seafood", "name": "Ittioturismo Aquaurchi", "operator": "Soc. Coop. Pescatori Aquaurchi a r.l.", "phone:mobile": "+39 340 9053472", "ref:vatin": "IT00488840950"}}, {"type": "way", "id": 295905116, "nodes": [2996584039, 2996583431, 2996584048, 2996584051, 2996584039], "tags": {"amenity": "restaurant", "building": "yes", "contact:email": "info@agriturismosusattu.it", "contact:facebook": "https://www.facebook.com/Agriturismo-Su-Sattu-823582321148934/", "contact:phone": "+39 347 717 1747", "contact:website": "http://www.agriturismosusattu.it", "cuisine": "regional"}}, {"type": "way", "id": 295905160, "nodes": [12628257920, 12628257919, 12628257922, 12628257921, 2996575345, 2996575347, 12628257920], "tags": {"addr:city": "Crabas/Cabras", "addr:postcode": "09072", "addr:street": "Via Lungomare", "amenity": "restaurant", "bar": "yes", "building": "commercial", "name": "Vento Maestro", "opening_hours": "Mo-Fr 09:00-19:00; Sa,Su 09:00-20:00", "outdoor_seating": "yes", "phone": "+39 348 1815 815", "website": "https://www.ventomaestro.it/"}}, {"type": "way", "id": 295905903, "nodes": [2996587188, 2996587170, 2996587175, 2996587169, 2996587176, 2996587205, 2996587188], "tags": {"amenity": "restaurant", "building": "commercial", "cuisine": "pizza;regional", "name": "Ristorante Pizzeria La Rosa dei Venti", "oven": "wood_fired", "restaurant:type:it": "pizzeria", "website": "http://www.rosadeiventioristano.it"}}, {"type": "way", "id": 295906317, "nodes": [2996581454, 2996581453, 2996581455, 2996581456, 2996581457, 2996581458, 2996581460, 2996581463, 2996581459, 2996581454], "tags": {"addr:postcode": "09072", "amenity": "restaurant", "building": "yes", "contact:phone": "+39 348 2100108", "contact:website": "https://www.lafattoriadiago.it", "cuisine": "pizza;regional;seafood", "name": "La Fattoria di Ago", "opening_hours": "Mo-Su 12:00-15:00,19:00-22:30; Tu off", "oven": "wood_fired", "restaurant:type:it": "pizzeria", "start_date": "2023-12-08"}}, {"type": "way", "id": 296349418, "nodes": [3001326168, 3001326167, 3001326174, 3001326176, 3001326204, 3001326224, 3001326218, 3001326206, 3001326205, 3001326183, 3001326168], "tags": {"amenity": "cafe", "building": "yes", "contact:facebook": "https://www.facebook.com/pg/BuenaVistaCafeBosaMarina/", "contact:phone": "+39 347 061 0206", "name": "Buena Vista Caf\u00e8"}}, {"type": "way", "id": 296350964, "nodes": [3001353098, 3001353097, 3001353099, 3001353248, 3001353251, 3001353100, 3001353098], "tags": {"amenity": "restaurant", "building": "yes"}}, {"type": "way", "id": 296351666, "nodes": [3001325056, 3001325029, 3001325023, 3001324993, 3001325022, 3001325047, 4011420846, 3001325085, 3001325056], "tags": {"addr:housenumber": "74", "addr:postcode": "08013", "addr:street": "Lungomare Mediterraneo", "amenity": "restaurant", "building": "yes", "capacity": "100", "cuisine": "regional", "name": "Canne al Vento", "opening_hours": "Mo-Su 08:00-23:00", "operator": "Claudia e Orazio", "smoking": "outside", "takeaway": "yes", "website": "http://web.tiscali.it/CannealVento/CannealVento/index.htm"}}, {"type": "way", "id": 297433070, "nodes": [3013249243, 3013249237, 3013249239, 3013249236, 3013249235, 3013249234, 3013249233, 3013249132, 3013249126, 3013249129, 3013249124, 3013249131, 3013249243], "tags": {"amenity": "restaurant", "building": "commercial", "cuisine": "pizza;italian", "name": "Ristorante Pizzeria L'Anfora", "oven": "wood_fired", "restaurant:type:it": "pizzeria"}}, {"type": "way", "id": 297440673, "nodes": [3013310941, 3013310945, 3013310946, 3013310947, 3013310948, 3013310942, 3013310941], "tags": {"amenity": "restaurant", "building": "yes", "contact:phone": "+39 070 671861", "cuisine": "regional", "name": "Agriturismo Columbargia"}}, {"type": "way", "id": 298875337, "nodes": [3028405336, 3028405333, 3028405335, 3028405231, 3028405219, 3028405222, 3028405224, 3028405226, 3028405336], "tags": {"addr:city": "San Leonardo", "addr:postcode": "09095", "addr:street": "Via dei Pisani", "amenity": "restaurant", "building": "commercial", "cuisine": "italian;pizza", "name": "Ristorante Pizzeria Le Sorgenti", "website": "http://www.ristorantelesorgenti.it/"}}, {"type": "way", "id": 298875369, "nodes": [3028394642, 3028394640, 3028397563, 3028397556, 3028395858, 3028394709, 3028394706, 3028394643, 3028394642], "tags": {"addr:housenumber": "106", "addr:street": "Viale Domenico Alberto Azuni", "amenity": "restaurant", "building": "commercial", "cuisine": "pizza", "name": "Ristorante Pizzeria Bellavista"}}, {"type": "way", "id": 298887106, "nodes": [3028518635, 3028518540, 3028518559, 3028518649, 3028518635], "tags": {"amenity": "restaurant", "building": "yes", "cuisine": "regional"}}, {"type": "way", "id": 298887807, "nodes": [3028521103, 3028521087, 3028521090, 3028520823, 3028520815, 3028521100, 3028521103], "tags": {"amenity": "restaurant", "building": "yes", "contact:email": "info@lesalinemeeting.com", "contact:facebook": "https://www.facebook.com/lesalinemeeting", "contact:google_plus": "https://plus.google.com/+Lesalinemeeting", "contact:phone": "+39 331 27 12 460", "contact:website": "http://www.lesalinemeeting.com", "contact:youtube": "https://www.youtube.com/LeSalineMeeting", "cuisine": "italian", "name": "Le Saline"}}, {"type": "way", "id": 305351161, "nodes": [3099623170, 3099623163, 3099623168, 3099623162, 3099623153, 3099623152, 3099623148, 3099623142, 3099623137, 3099623133, 3099623130, 3099623134, 3099623132, 3099623136, 3099622916, 3099622923, 3099623158, 3099623164, 3099623170], "tags": {"addr:city": "Siamajori/Siamaggiore", "addr:housenumber": "km 99", "addr:place": "Sa Turritta", "addr:postcode": "09070", "addr:street": "SS131 Carlo Felice", "amenity": "restaurant", "building": "yes", "capacity": "600", "contact:email": "info@darenzo.it", "contact:facebook": "https://www.facebook.com/darenzoristorantelocanda/", "contact:mobile": "+39 335 5294141", "contact:twitter": "https://twitter.com/RistorDaRenzo", "contact:website": "https://www.darenzo.it/", "cuisine": "italian;fish;regional", "name": "Ristorante Da Renzo", "opening_hours": "Sa 12:30-16:00,20:30-23:30; Su 12:30-16:00", "payment:american_express": "yes", "payment:cash": "yes", "payment:discover_card": "yes", "payment:mastercard": "yes", "payment:visa": "yes", "phone": "+39 0783 33658"}}, {"type": "way", "id": 316175534, "nodes": [3222895433, 3222895434, 3222895435, 3222895436, 3222895437, 3222895438, 3222895439, 3222895433], "tags": {"addr:street": "Viale Trieste", "amenity": "cafe", "building": "yes", "contact:facebook": "https://www.facebook.com/Loasi-di-Andrea-Camedda-870823569728274/", "contact:phone": "+39 324 045 8855", "name": "L'Oasi di Andrea Camedda", "opening_hours": "Tu-Su 19:30-23:30"}}, {"type": "way", "id": 316175537, "nodes": [3222895452, 3222895453, 3222895454, 3222895455, 3222895452], "tags": {"addr:housenumber": "1", "addr:street": "Viale Trieste", "amenity": "restaurant", "building": "yes", "contact:facebook": "https://www.facebook.com/Loasi-di-Andrea-Camedda-870823569728274/", "contact:phone": "+39 324 045 8855", "cuisine": "pizza", "name": "L'Oasi di Andrea Camedda", "opening_hours": "Tu-Su 19:30-23:30", "oven": "wood_fired", "restaurant:type:it": "pizzeria"}}, {"type": "way", "id": 317166386, "nodes": [3234066871, 3234066872, 3234066867, 3234066868, 3234066873, 3234066874, 3234066864, 3234066863, 3234066871], "tags": {"amenity": "restaurant", "cuisine": "italian"}}, {"type": "way", "id": 317166390, "nodes": [3234066917, 3234066916, 3234066902, 3234066903, 3099621398, 3234066917], "tags": {"addr:city": "Siamajori/Siamaggiore", "addr:country": "IT", "addr:postcode": "09070", "addr:street": "Via Roma", "amenity": "cafe", "building": "yes", "name": "Betty Boop Caf\u00e8"}}, {"type": "way", "id": 317584178, "nodes": [3238667397, 3238667403, 3238667402, 3238667410, 3238667409, 3238667406, 3238667400, 3238667407, 3238667405, 3238667394, 3238667398, 3238667396, 3238667397], "tags": {"amenity": "restaurant", "building": "yes", "cuisine": "regional"}}, {"type": "way", "id": 318201835, "nodes": [3245964028, 3245964027, 3245964031, 3245964033, 3245964030, 3245964029, 3245964028], "tags": {"amenity": "cafe", "building": "commercial", "name": "Caf\u00e9 La Virgola", "opening_hours": "Mo-Su 05:30-20:30"}}, {"type": "way", "id": 318824595, "nodes": [3252031622, 3252031625, 3252031623, 3252031627, 3252031633, 3255107558, 3252031629, 3252031622], "tags": {"amenity": "cafe", "building": "commercial", "name": "Sara Caff\u00e8", "terrace": "yes"}}, {"type": "way", "id": 318840190, "nodes": [3252237869, 3252237870, 3252237874, 3252237873, 3252237875, 3252237876, 3252237877, 3252237879, 3252237880, 3252237878, 3252237869], "tags": {"amenity": "restaurant", "building": "commercial", "cuisine": "regional"}}, {"type": "way", "id": 319017831, "nodes": [3254347848, 3254347849, 3254347851, 3254347850, 3254347848], "tags": {"addr:city": "Torregrande", "addr:postcode": "09170", "addr:street": "Lungomare Eleonora d'Arborea", "amenity": "restaurant", "building": "yes", "cafe": "yes", "name": "I Giganti Beach", "official_name": "I Giganti di Pinna Angelo e C. S.a.s.", "opening_hours": "08:00-24:00 \"cafe\"; 13:00-14:30,20:00-23:00 \"restaurant\"", "outdoor_seating": "yes", "phone": "+39 320 7096523", "ref:vatin": "IT01254210956", "website": "https://www.ristoranteigiganti.it/"}}, {"type": "way", "id": 319017832, "nodes": [3254347836, 3254347838, 3254347837, 3254347835, 3254347836], "tags": {"amenity": "cafe", "building": "commercial", "contact:facebook": "https://www.facebook.com/nightanddaytorreg", "name": "Night and Day", "opening_hours": "Mo-Su 00:00-05:00,10:00-24:00; Fr,Sa 00:00-01:00,10:00-24:00"}}, {"type": "way", "id": 320698853, "nodes": [3273338287, 3273338284, 3273338286, 2834372375, 3273338287], "tags": {"addr:housenumber": "30", "addr:street": "Via Cagliari", "amenity": "restaurant", "building": "yes", "cuisine": "chinese", "name": "Grande Cina"}}, {"type": "way", "id": 321323770, "nodes": [3280638688, 2834342215, 2834342258, 2834342300, 2834341722, 2834341701, 2834341747, 3280638687, 3280638688], "tags": {"addr:housenumber": "116a", "addr:street": "Via Lepanto", "amenity": "restaurant", "building": "commercial", "cuisine": "italian", "name": "Ristorante Due Colonne"}}, {"type": "way", "id": 324012849, "nodes": [2540221506, 2540221507, 2540221514, 2540221513, 2540221515, 2540221512, 2540221510, 2540221509, 2540221508, 3307716981, 2540221502, 2540221506], "tags": {"amenity": "restaurant", "brand": "Autogrill", "brand:wikidata": "Q786790", "building": "retail", "cuisine": "italian;regional", "name": "Autogrill"}}, {"type": "way", "id": 324040049, "nodes": [3307932936, 2976928844, 3010031543, 3010031544, 2976928897, 2976928530, 3307932936], "tags": {"amenity": "cafe", "building": "yes", "name": "Nino's Bar", "name:sc": "Tzilleri de Nino"}}, {"type": "way", "id": 327028460, "nodes": [3337401286, 3337401281, 3337401272, 3337401278, 3337401286], "tags": {"addr:housenumber": "53", "addr:street": "Via Brigata Sassari", "amenity": "cafe", "building": "commercial", "name": "Pala Tullio"}}, {"type": "way", "id": 529280131, "nodes": [5141921690, 5141918500, 5141922111, 5141922100]}, {"type": "way", "id": 529280162, "nodes": [5141921690, 5141922100]}, {"type": "way", "id": 529280191, "nodes": [5141922232, 5141921710]}, {"type": "way", "id": 529280203, "nodes": [5141922232, 5141922143, 5141921711]}, {"type": "way", "id": 529280224, "nodes": [5141921700, 5141922233, 5141921699]}, {"type": "way", "id": 529280227, "nodes": [5141921698, 5141921707]}, {"type": "way", "id": 529280248, "nodes": [5141921699, 5141921698]}, {"type": "way", "id": 529280249, "nodes": [5141921700, 5141921707]}, {"type": "way", "id": 529280252, "nodes": [5141921711, 5141921710]}, {"type": "way", "id": 554471426, "nodes": [5350850510, 5350850512, 5350850511, 5350850509, 5350850510], "tags": {"amenity": "restaurant", "building": "yes", "contact:phone": "+39 320 077 7407", "cuisine": "italian;sardinian;fish", "name": "Osteria da Mimmo", "opening_hours": "Mo-Su 09:00-23:30"}}, {"type": "way", "id": 554471428, "nodes": [2834340116, 2834340285, 4586767263, 5350850514, 5350850513, 2834340116], "tags": {"addr:city": "Oristano", "addr:housenumber": "35", "addr:postcode": "09170", "addr:street": "Piazza Eleonora", "amenity": "restaurant", "building": "yes", "contact:facebook": "https://www.facebook.com/pg/pizzeriacivico35/", "contact:phone": "+39 0783 71552", "cuisine": "pizza", "name": "Civico 35", "opening_hours": "Mo-Su 19:30-23:00; PH off", "phone": "0783 71552", "restaurant:type:it": "pizzeria"}}, {"type": "way", "id": 573660953, "nodes": [2834346512, 2834346411, 2834346523, 2834346402, 2834346286, 2834346097, 2834346078, 5508833253, 2834346307, 2834346502, 5508833252, 2834346512], "tags": {"amenity": "restaurant", "building": "yes", "cuisine": "sushi", "name": "Yume Sushi", "opening_hours": "Mo-Su 12:00-15:00,19:00-23:30"}}, {"type": "way", "id": 679043969, "nodes": [2996622101, 6358173641, 6358173642, 6358173643, 2996622101], "tags": {"amenity": "cafe", "building": "yes", "name": "Bar Time", "opening_hours": "Mo 06:00-24:00; Tu-Sa 00:00-00:30,06:00-24:00; Su 00:00-00:30,06:00-14:00", "outdoor_seating": "yes"}}, {"type": "way", "id": 727904100, "nodes": [6821277850, 6821277849, 6821277848, 6821277847, 6821277850], "tags": {"amenity": "cafe", "building": "yes", "name": "Chiosco al Castello", "outdoor_seating": "yes", "source:geometry": "Bing Aerial Imagery"}}, {"type": "way", "id": 824642777, "nodes": [7700221987, 7700199084, 7700221985, 7700221986, 7700221987], "tags": {"amenity": "cafe", "building": "yes", "name": "Barracuda Beach", "opening_hours": "Mo-Su 00:00-02:00,07:00-24:00"}}, {"type": "way", "id": 846665832, "nodes": [7899624971, 7899624972, 7899624973, 7899624974, 7899624971], "tags": {"addr:city": "Oristano", "addr:postcode": "09170", "addr:street": "Piazza Lucio Abis", "amenity": "cafe", "building": "yes", "email": "barkubetto@gmail.com", "mobile": "+39 351 9369250", "name": "Bar Kubetto", "nohousenumber": "yes", "official_name": "Kubetto dei fratelli M. & D. Sanna S.n.c.", "opening_hours": "Mo 07:00-24:00; Tu-Fr 00:00-02:30, 07:00-24:00; Sa 00:00-03:00, 07:00-24:00; Su 00:00-03:00, 08:00-24:00", "ref:vatin": "IT01279490955"}}, {"type": "way", "id": 867226687, "nodes": [8083818287, 8083818288, 8188049788, 2834377975, 5412753349, 8083818287], "tags": {"addr:city": "Oristano", "addr:housenumber": "2", "addr:postcode": "09170", "addr:street": "Via Cagliari", "amenity": "restaurant", "brand": "Old Wild West", "brand:wikidata": "Q25402475", "brand:wikipedia": "it:Old Wild West", "building": "yes", "building:levels": "2", "cuisine": "american", "diet:Carne": "yes", "height": "9", "name": "Old Wild West", "opening_hours": "Mo-Sa 12:00-15:00,18:30-23:00", "phone": "0783 212486"}}, {"type": "way", "id": 1013345612, "nodes": [9349019565, 9349019566, 9349019567, 9349019568, 9349019569, 9349019570, 9349019571, 9349019565], "tags": {"amenity": "restaurant", "building": "yes", "name": "Ristorante \"Sas Benas\""}}, {"type": "way", "id": 1013345614, "nodes": [9349019586, 9349019587, 9349019588, 9349019589, 9349019586], "tags": {"amenity": "restaurant", "building": "yes", "cuisine": "pizza", "name": "Pizzeria \"La Locanda del Convento\""}}, {"type": "way", "id": 1013345615, "nodes": [9349019590, 9349019591, 9349019592, 9349019593, 9349019595, 9349019590], "tags": {"amenity": "restaurant", "building": "yes", "cuisine": "pizza", "name": "Pizzeria \"Eli e Fra\""}}, {"type": "way", "id": 1013345616, "nodes": [9349019596, 9349019597, 9349019598, 9349019599, 9349019596], "tags": {"amenity": "restaurant", "building": "yes", "name": "Su Montigu Di Chessa Maria Pina"}}, {"type": "way", "id": 1039286537, "nodes": [9570486906, 9570486907, 9570486908, 9570486909, 9570486906], "tags": {"amenity": "restaurant", "building": "yes", "cuisine": "fish", "name": "Molas Frontemare"}}, {"type": "way", "id": 1352630006, "nodes": [12514890299, 12514890298, 12514890297, 12514890296, 12514890299], "tags": {"amenity": "restaurant", "building": "roof", "name": "Riva Nord", "opening_hours": "Mo-Su 09:00-23:00"}}, {"type": "way", "id": 1365592785, "nodes": [12646012960, 12646012961, 12646012962, 1300345121, 12646012960], "tags": {"amenity": "cafe", "building": "yes", "name": "Bar Stazione", "opening_hours": "Mo-Su 06:00-22:00"}}, {"type": "relation", "id": 7621394, "members": [{"type": "way", "ref": 529280131, "role": "outer"}, {"type": "way", "ref": 529280162, "role": "outer"}], "tags": {"amenity": "cafe", "ice_cream": "yes", "indoor": "room", "level": "1", "name": "Take Me Caf\u00e8", "official_name": "Anais di Pirisi A. & C. S.a.s.", "opening_hours": "Mo-Su 08:30-21:00", "phone": "+39 0783 213062", "ref": "39", "ref:vatin": "IT01025870955", "type": "multipolygon"}}, {"type": "relation", "id": 7621410, "members": [{"type": "way", "ref": 529280191, "role": "outer"}, {"type": "way", "ref": 529280252, "role": "outer"}, {"type": "way", "ref": 529280203, "role": "outer"}], "tags": {"amenity": "restaurant", "cuisine": "pizza", "indoor": "room", "level": "0", "name": "Pizzeria Da. Fio.", "phone:mobile": "+39 340 9997634", "ref": "1", "type": "multipolygon"}}, {"type": "relation", "id": 7621434, "members": [{"type": "way", "ref": 529280248, "role": "outer"}, {"type": "way", "ref": 529280227, "role": "outer"}, {"type": "way", "ref": 529280249, "role": "outer"}, {"type": "way", "ref": 529280224, "role": "outer"}], "tags": {"amenity": "cafe", "indoor": "room", "level": "0", "name": "Alexander Caff\u00e8", "official_name": "Alexander Caf\u00e8 S.r.l.", "opening_hours": "Mo-Su 08:30-21:00", "phone": "+39 0783 211765", "ref": "30", "ref:vatin": "IT01114120957", "type": "multipolygon"}}]}