{"version": 0.6, "generator": "Overpass API 0.7.62.7 375dc00a", "osm3s": {"timestamp_osm_base": "2025-06-14T15:29:14Z", "copyright": "The data included in this document is from www.openstreetmap.org. The data is made available under ODbL."}, "elements": [{"type": "node", "id": 6263511370, "lat": 3.1225955, "lon": 35.6001411, "tags": {"addr:city": "Lodwar", "addr:street": "Lodwar-Lokichogio Road", "amenity": "restaurant", "check_date": "2023-04-26", "name": "Solmar Gracious Hotel"}}, {"type": "node", "id": 6263511592, "lat": 3.115265, "lon": 35.6046756, "tags": {"addr:city": "Lodwar", "addr:street": "Kapenguria-Lodwar Road", "amenity": "restaurant", "name": "KK Eateries,kwa AJIKON"}}, {"type": "node", "id": 6263511595, "lat": 3.1159269, "lon": 35.5983966, "tags": {"addr:city": "Lodwar", "addr:street": "D347", "amenity": "restaurant", "name": "Pension Restaurant"}}, {"type": "node", "id": 6263511602, "lat": 3.110871, "lon": 35.6124826, "tags": {"addr:city": "Lodwar", "amenity": "restaurant", "name": "White Sand Lodwar"}}, {"type": "node", "id": 6263511605, "lat": 3.1089579, "lon": 35.607183, "tags": {"addr:city": "Lodwar", "addr:street": "Kapenguria-Lodwar Road", "amenity": "restaurant", "name": "Jabulani Coffee Shop"}}, {"type": "node", "id": 6285338499, "lat": 3.1190747, "lon": 35.5980949, "tags": {"amenity": "restaurant", "name": "Salama Hotel"}}, {"type": "node", "id": 7942403630, "lat": 3.1165526, "lon": 35.6099724, "tags": {"addr:city": "Lodwar", "amenity": "restaurant", "name": "Cradle Camp"}}, {"type": "node", "id": 7942403631, "lat": 3.1212245, "lon": 35.6002272, "tags": {"addr:city": "Lodwar", "amenity": "restaurant", "check_date": "2023-04-26", "name": "Erait Fast"}}]}