{"version": 0.6, "generator": "Overpass API 0.7.62.7 375dc00a", "osm3s": {"timestamp_osm_base": "2025-06-14T14:38:18Z", "copyright": "The data included in this document is from www.openstreetmap.org. The data is made available under ODbL."}, "elements": [{"type": "node", "id": 309337035, "lat": 37.3865523, "lon": 21.8243899, "tags": {"amenity": "restaurant", "name": "\u03a0\u03cd\u03c1\u03b3\u03bf\u03c2 \u039c\u03c0\u03b1\u03c1\u03bc\u03c0\u03b1\u03bb\u03ad\u03ba\u03bf\u03c5", "tourism": "viewpoint"}}, {"type": "node", "id": 871767117, "lat": 37.0056846, "lon": 21.660386, "tags": {"amenity": "restaurant", "name": "Taverna Spiros"}}, {"type": "node", "id": 2344418522, "lat": 37.1788946, "lon": 21.9186174}, {"type": "node", "id": 2344418523, "lat": 37.1789128, "lon": 21.9185509}, {"type": "node", "id": 2344418525, "lat": 37.1789873, "lon": 21.9186572}, {"type": "node", "id": 2344418526, "lat": 37.1790055, "lon": 21.9185907}, {"type": "node", "id": 2380528689, "lat": 37.0069738, "lon": 21.6675923, "tags": {"amenity": "restaurant", "cuisine": "greek"}}, {"type": "node", "id": 2395083618, "lat": 36.9604972, "lon": 21.9270587, "tags": {"amenity": "restaurant", "name": "Sti Brisi"}}, {"type": "node", "id": 2838245909, "lat": 37.2168531, "lon": 21.6588874, "tags": {"amenity": "restaurant", "cuisine": "regional", "name": "Mitr\u00f3poulos"}}, {"type": "node", "id": 2917323098, "lat": 37.2507666, "lon": 21.6703197, "tags": {"addr:city": "\u039a\u03c5\u03c0\u03b1\u03c1\u03b9\u03c3\u03c3\u03af\u03b1", "addr:postcode": "24500", "addr:street": "25 Martiou", "amenity": "restaurant", "cuisine": "regional", "name": "Paradosiak\u00f3", "opening_hours": "18:00-24:00"}}, {"type": "node", "id": 2917330501, "lat": 37.2555796, "lon": 21.6628266, "tags": {"addr:city": "Kyparissia", "addr:postcode": "24500", "addr:street": "Lim\u00e1ni - Kypariss\u00edas", "amenity": "restaurant", "capacity": "50", "cuisine": "regional", "name": "\u03bf \u039c\u03cc\u03bb\u03bf\u03c2", "opening_hours": "10:00-23:00", "phone": "2761400076", "smoking": "outside"}}, {"type": "node", "id": 2917568982, "lat": 37.2535221, "lon": 21.6589272, "tags": {"addr:city": "Kypariss\u00eda", "addr:postcode": "24500", "amenity": "restaurant", "cuisine": "regional", "name": "\u0395\u03bd \u03a0\u03bb\u03c9", "name:el": "\u0395\u03bd \u03a0\u03bb\u03c9", "name:en": "En Plo", "opening_hours": "10:00-23:00", "smoking": "outside"}}, {"type": "node", "id": 2926148674, "lat": 37.2534882, "lon": 21.6647253, "tags": {"addr:city": "Kyparissia", "addr:housenumber": "72", "addr:street": "El. Venizelou", "amenity": "restaurant", "capacity": "20", "cuisine": "cr\u00e9pes,p\u00edtas", "name": "Anapsikt\u00edrio", "opening_hours": "10:00-24:00", "smoking": "outside"}}, {"type": "node", "id": 2994504680, "lat": 37.2539443, "lon": 21.6611621}, {"type": "node", "id": 2994504685, "lat": 37.2542069, "lon": 21.6616683}, {"type": "node", "id": 3005027898, "lat": 37.2975484, "lon": 21.6989867}, {"type": "node", "id": 3005027899, "lat": 37.29758, "lon": 21.6990829}, {"type": "node", "id": 3005027900, "lat": 37.2977213, "lon": 21.6988967}, {"type": "node", "id": 3005027901, "lat": 37.297753, "lon": 21.6989928}, {"type": "node", "id": 3014336093, "lat": 37.2977505, "lon": 21.699345, "tags": {"amenity": "cafe"}}, {"type": "node", "id": 3014370257, "lat": 37.3006335, "lon": 21.6955859, "tags": {"amenity": "restaurant", "cuisine": "regional", "name": "Karetta"}}, {"type": "node", "id": 3017222206, "lat": 37.3505329, "lon": 21.6968505}, {"type": "node", "id": 3017222207, "lat": 37.3505521, "lon": 21.6969792}, {"type": "node", "id": 3017222208, "lat": 37.3506363, "lon": 21.696826}, {"type": "node", "id": 3017222209, "lat": 37.3506556, "lon": 21.6969547}, {"type": "node", "id": 3017233916, "lat": 37.3755988, "lon": 21.6909389, "tags": {"amenity": "restaurant", "name": "\u0395\u03bb\u03b1\u03af\u03b1"}}, {"type": "node", "id": 3017233919, "lat": 37.3735426, "lon": 21.6890775, "tags": {"amenity": "restaurant", "name": "\u03a4\u03bf \u0397\u03bb\u03b9\u03bf\u03b2\u03b1\u03c3\u03af\u03bb\u03b5\u03bc\u03b1"}}, {"type": "node", "id": 3018603099, "lat": 37.3935802, "lon": 21.8237185, "tags": {"amenity": "cafe", "cuisine": "sandwich", "name": "\u039a\u03b1\u03bd\u03c4\u03af\u03bd\u03b1"}}, {"type": "node", "id": 3018603102, "lat": 37.3828482, "lon": 21.8241896, "tags": {"amenity": "restaurant", "name": "\u039d\u03ad\u03b4\u03b1"}}, {"type": "node", "id": 3018603103, "lat": 37.3513415, "lon": 21.9803883, "tags": {"amenity": "restaurant", "contact:phone": "+30 2791081201", "contact:website": "www.neromylos-nikola.gr", "name": "\u039f \u039d\u03b5\u03c1\u03cc\u03bc\u03c5\u03bb\u03bf\u03c2 \u03c4\u03bf\u03c5 \u039d\u03b9\u03ba\u03cc\u03bb\u03b1"}}, {"type": "node", "id": 3018603104, "lat": 37.3801929, "lon": 21.8235368, "tags": {"amenity": "restaurant", "name": "\u03a0\u03b1\u03bb\u03b9\u03ac\u03bc\u03c0\u03b5\u03bb\u03bf"}}, {"type": "node", "id": 3018603105, "lat": 37.3830141, "lon": 21.8243839, "tags": {"amenity": "restaurant", "name": "\u03a0\u03b9\u03b8\u03ac\u03c1\u03b9"}}, {"type": "node", "id": 3043781133, "lat": 37.2102942, "lon": 21.6379722, "tags": {"amenity": "restaurant", "capacity": "50", "cuisine": "regional", "name": "Elitsa", "opening_hours": "20:00-24:00", "smoking": "isolated"}}, {"type": "node", "id": 3050741685, "lat": 36.991816, "lon": 21.853995, "tags": {"amenity": "cafe", "cuisine": "italian_pizza;greek", "indoor_seating": "yes", "internet_access": "wlan", "name": "Oasis", "outdoor_seating": "yes", "toilets": "yes", "toilets:wheelchair": "no", "wheelchair": "limited"}}, {"type": "node", "id": 3050741686, "lat": 36.9916136, "lon": 21.8538902, "tags": {"amenity": "cafe"}}, {"type": "node", "id": 3050741687, "lat": 36.9911763, "lon": 21.8533461, "tags": {"amenity": "restaurant", "name": "Kataraktis Tavern", "name:el": "\u039a\u03b1\u03c4\u03b1\u03c1\u03c1\u03ac\u03ba\u03c4\u03b7\u03c2"}}, {"type": "node", "id": 3050741933, "lat": 37.0052154, "lon": 21.9706721}, {"type": "node", "id": 3050741934, "lat": 37.0051684, "lon": 21.9705315}, {"type": "node", "id": 3050741935, "lat": 37.0050396, "lon": 21.970599}, {"type": "node", "id": 3050741936, "lat": 37.0050866, "lon": 21.9707396}, {"type": "node", "id": 3050741941, "lat": 37.0039745, "lon": 21.9692579, "tags": {"amenity": "cafe"}}, {"type": "node", "id": 3051987443, "lat": 36.9956189, "lon": 21.6509638, "tags": {"amenity": "restaurant", "cuisine": "international", "name": "Morias"}}, {"type": "node", "id": 3057822833, "lat": 36.9800565, "lon": 21.6559173}, {"type": "node", "id": 3057822834, "lat": 36.9802897, "lon": 21.6556735}, {"type": "node", "id": 3057822837, "lat": 36.980061, "lon": 21.655667}, {"type": "node", "id": 3057822840, "lat": 36.9802851, "lon": 21.6559238}, {"type": "node", "id": 3068537391, "lat": 37.0091851, "lon": 21.6365909, "tags": {"amenity": "cafe", "name": "Koa Beach Cafe"}}, {"type": "node", "id": 3578936492, "lat": 37.2889655, "lon": 21.8173632, "tags": {"amenity": "restaurant"}}, {"type": "node", "id": 3701127708, "lat": 36.9587696, "lon": 21.9288073, "tags": {"amenity": "restaurant"}}, {"type": "node", "id": 3701144560, "lat": 36.9595191, "lon": 21.9279463, "tags": {"amenity": "restaurant", "cuisine": "pizza", "indoor_seating": "yes", "name": "Benetia", "outdoor_seating": "yes", "smoking": "outside", "wheelchair": "no"}}, {"type": "node", "id": 3701149569, "lat": 36.9592126, "lon": 21.9275037, "tags": {"amenity": "cafe"}}, {"type": "node", "id": 3701149572, "lat": 36.958994, "lon": 21.9271658, "tags": {"amenity": "restaurant", "indoor_seating": "yes", "outdoor_seating": "yes"}}, {"type": "node", "id": 3701149573, "lat": 36.958917, "lon": 21.9270316, "tags": {"amenity": "cafe", "indoor_seating": "yes", "outdoor_seating": "yes"}}, {"type": "node", "id": 3701157778, "lat": 36.9586275, "lon": 21.926868, "tags": {"amenity": "cafe"}}, {"type": "node", "id": 3701160481, "lat": 36.9582932, "lon": 21.9272087, "tags": {"amenity": "cafe", "cuisine": "ice_cream"}}, {"type": "node", "id": 3701162069, "lat": 36.9583772, "lon": 21.9292564, "tags": {"amenity": "cafe", "name": "Petrus"}}, {"type": "node", "id": 3701164574, "lat": 36.9582525, "lon": 21.9281206, "tags": {"amenity": "cafe"}}, {"type": "node", "id": 3701164576, "lat": 36.9584604, "lon": 21.9284318, "tags": {"amenity": "cafe"}}, {"type": "node", "id": 3701164580, "lat": 36.9581132, "lon": 21.9278873, "tags": {"amenity": "cafe"}}, {"type": "node", "id": 4090780841, "lat": 36.9790609, "lon": 21.6567848, "tags": {"addr:city": "Petrochori", "addr:postcode": "24001", "amenity": "restaurant", "cuisine": "greek", "ele": "5", "name": "Ammothines", "phone": "+30 694 837 7606", "smoking": "outside", "website": "https://www.facebook.com/AmmothinesRestaurantBeachBar"}}, {"type": "node", "id": 4307639989, "lat": 37.3411966, "lon": 21.8210589, "tags": {"addr:postcode": "24011", "amenity": "restaurant", "cuisine": "greek;local", "name": "\u0395\u03bd \u03a1\u03af\u03c0\u03b5\u03c3\u03b9", "phone": "2765023046"}}, {"type": "node", "id": 4350935696, "lat": 36.9759235, "lon": 21.664088, "tags": {"amenity": "cafe", "name": "\u0392\u03c1\u03ac\u03c7\u03bf\u03c2 Cafe", "name:el": "\u0392\u03c1\u03ac\u03c7\u03bf\u03c2 Cafe", "name:en": "Vrachos Cafe"}}, {"type": "node", "id": 4400239192, "lat": 36.992806, "lon": 21.6628846, "tags": {"amenity": "cafe"}}, {"type": "node", "id": 4402370817, "lat": 37.0604244, "lon": 21.7304367, "tags": {"addr:city": "\u03a7\u03c9\u03c1\u03b1 \u039c\u03b5\u03c3\u03c3\u03b7\u03bd\u03b9\u03b1\u03c2", "addr:postcode": "24600", "addr:street": "\u03a7\u03c9\u03c1\u03b1 \u039c\u03b5\u03c3\u03c3\u03b7\u03bd\u03b9\u03b1\u03c2", "amenity": "restaurant", "capacity": "100", "cuisine": "greek", "delivery": "yes", "description": "\u0391\u03c0\u03bf\u03bb\u03b1\u03c5\u03c3\u03c4\u03b9\u03ba\u03ac \u03c0\u03b9\u03ac\u03c4\u03b1 \u03bc\u03b1\u03b3\u03b5\u03b9\u03c1\u03b5\u03bc\u03ad\u03bd\u03b1 \u03bc\u03b5 \u03c4\u03bf\u03c0\u03b9\u03ba\u03cc \u03b5\u03bb\u03b1\u03b9\u03cc\u03bb\u03b1\u03b4\u03bf. \u0397 \u03b1\u03af\u03b8\u03bf\u03c5\u03c3\u03b1 \u03ba\u03b1\u03bb\u03cd\u03c0\u03c4\u03b5\u03b9 \u03ba\u03ac\u03b8\u03b5 \u03c3\u03b1\u03c2 \u03b5\u03ba\u03b4\u03ae\u03bb\u03c9\u03c3\u03b7!", "name": "psarakia restaurant", "opening_hours": "08:00-3:00", "smoking": "outside", "takeaway": "yes"}}, {"type": "node", "id": 4632086132, "lat": 37.1353902, "lon": 21.9137659}, {"type": "node", "id": 4632086133, "lat": 37.1353684, "lon": 21.9138914}, {"type": "node", "id": 4632086144, "lat": 37.1354861, "lon": 21.9137906}, {"type": "node", "id": 4632086145, "lat": 37.1354664, "lon": 21.9140384}, {"type": "node", "id": 4632086146, "lat": 37.1353451, "lon": 21.9140242}, {"type": "node", "id": 4632112504, "lat": 37.1356493, "lon": 21.9134286}, {"type": "node", "id": 4632112505, "lat": 37.1356664, "lon": 21.9135114}, {"type": "node", "id": 4632112506, "lat": 37.1355816, "lon": 21.9135468}, {"type": "node", "id": 4632112507, "lat": 37.1355559, "lon": 21.9134555}, {"type": "node", "id": 4909562549, "lat": 37.0067495, "lon": 21.9696181}, {"type": "node", "id": 4909562550, "lat": 37.0067933, "lon": 21.9698694}, {"type": "node", "id": 4909562551, "lat": 37.0066633, "lon": 21.9699137}, {"type": "node", "id": 4909562552, "lat": 37.0066252, "lon": 21.9696535}, {"type": "node", "id": 5005045321, "lat": 37.2549311, "lon": 21.666613, "tags": {"amenity": "cafe", "name:de": "Cubaraki Wifi"}}, {"type": "node", "id": 5077491827, "lat": 37.2469979, "lon": 21.6778129, "tags": {"amenity": "restaurant"}}, {"type": "node", "id": 5077492922, "lat": 37.2474708, "lon": 21.6784362, "tags": {"amenity": "restaurant", "name": "\u0397 \u0391\u03c1\u03ba\u03b1\u03b4\u03b9\u03ac \u03b3\u03b5\u03c5\u03c3\u03b9\u03c0\u03c9\u03bb\u03b5\u03af\u03bf"}}, {"type": "node", "id": 5292185800, "lat": 37.0128759, "lon": 21.6391688}, {"type": "node", "id": 5292185801, "lat": 37.012748, "lon": 21.6391075}, {"type": "node", "id": 5292185802, "lat": 37.0127022, "lon": 21.6391945}, {"type": "node", "id": 5292185803, "lat": 37.0126707, "lon": 21.6393072}, {"type": "node", "id": 5292185804, "lat": 37.0128191, "lon": 21.6394021}, {"type": "node", "id": 5433561429, "lat": 36.9927313, "lon": 21.6632752, "tags": {"amenity": "cafe"}}, {"type": "node", "id": 5433561430, "lat": 36.9926619, "lon": 21.663079, "tags": {"amenity": "cafe", "name": "\u0397 \u039f\u03bc\u03cc\u03bd\u03bf\u03b9\u03b1"}}, {"type": "node", "id": 5433561432, "lat": 36.9928482, "lon": 21.6638086, "tags": {"amenity": "restaurant"}}, {"type": "node", "id": 5433577618, "lat": 36.9998543, "lon": 21.6818774, "tags": {"amenity": "restaurant"}}, {"type": "node", "id": 5433577619, "lat": 36.9997872, "lon": 21.6816753, "tags": {"amenity": "restaurant"}}, {"type": "node", "id": 5433607457, "lat": 36.9808301, "lon": 21.6631903, "tags": {"amenity": "restaurant", "name": "\u038c\u03c0\u03c9\u03c2 \u03c0\u03b1\u03bb\u03b9\u03ac"}}, {"type": "node", "id": 5516547898, "lat": 37.1182128, "lon": 21.5761248, "tags": {"amenity": "restaurant"}}, {"type": "node", "id": 5516547899, "lat": 37.1191893, "lon": 21.575986, "tags": {"amenity": "restaurant", "name": "Restaurant"}}, {"type": "node", "id": 5617442971, "lat": 37.2539752, "lon": 21.6611437}, {"type": "node", "id": 5617442973, "lat": 37.2542308, "lon": 21.6615799}, {"type": "node", "id": 5617442974, "lat": 37.2539827, "lon": 21.6615991}, {"type": "node", "id": 5617442975, "lat": 37.2539231, "lon": 21.6615309}, {"type": "node", "id": 5617442976, "lat": 37.2538529, "lon": 21.6612163}, {"type": "node", "id": 5617516529, "lat": 37.2555966, "lon": 21.6676056, "tags": {"amenity": "restaurant"}}, {"type": "node", "id": 5670471921, "lat": 36.9892039, "lon": 21.6557113, "tags": {"amenity": "restaurant", "name:en": "Katerina's Tavern"}}, {"type": "node", "id": 5832438985, "lat": 36.9803094, "lon": 21.655982, "tags": {"amenity": "restaurant", "name:en": "Grigoris Taverna"}}, {"type": "node", "id": 5914759491, "lat": 37.1354458, "lon": 22.0467132, "tags": {"amenity": "restaurant"}}, {"type": "node", "id": 6010577003, "lat": 37.2645554, "lon": 21.8964962, "tags": {"amenity": "restaurant", "cuisine": "regional", "name": "\u039f \u0391\u03bd\u03c4\u03c1\u03ad\u03b1\u03c2", "phone": "+306974537334"}}, {"type": "node", "id": 6421128320, "lat": 37.3794493, "lon": 22.0482766}, {"type": "node", "id": 6421128321, "lat": 37.3794732, "lon": 22.0484544}, {"type": "node", "id": 6421128322, "lat": 37.3795944, "lon": 22.0484285}, {"type": "node", "id": 6421128323, "lat": 37.3795705, "lon": 22.0482508}, {"type": "node", "id": 6456799845, "lat": 37.1304331, "lon": 21.8739785, "tags": {"amenity": "cafe", "name": "Cafe - \u0391\u03bd\u03b1\u03c8\u03c5\u03ba\u03c4\u03ae\u03c1\u03b9\u03bf \"\u03a5\u03ac\u03bc\u03b5\u03b9\u03b1\""}}, {"type": "node", "id": 6471150320, "lat": 37.1675543, "lon": 21.9243862, "tags": {"amenity": "restaurant", "name": "\u03a4\u03bf \u03c4\u03b7\u03b3\u03b1\u03bd\u03ac\u03ba\u03b9 \u03c4\u03b7\u03c2 \u03a7\u03c1\u03b7\u03c3\u03c4\u03af\u03c4\u03c3\u03b1\u03c2"}}, {"type": "node", "id": 6563336768, "lat": 37.2412262, "lon": 22.0000421, "tags": {"amenity": "cafe"}}, {"type": "node", "id": 6563414697, "lat": 37.2416538, "lon": 21.9998923, "tags": {"amenity": "cafe"}}, {"type": "node", "id": 6564531471, "lat": 37.2518812, "lon": 21.9988556, "tags": {"amenity": "cafe"}}, {"type": "node", "id": 6564553194, "lat": 37.2537902, "lon": 21.9983148, "tags": {"amenity": "cafe"}}, {"type": "node", "id": 6566125199, "lat": 37.2300706, "lon": 22.0335044, "tags": {"amenity": "cafe"}}, {"type": "node", "id": 6566125200, "lat": 37.2300171, "lon": 22.0337422, "tags": {"amenity": "cafe"}}, {"type": "node", "id": 6566130454, "lat": 37.2185748, "lon": 22.0291529, "tags": {"amenity": "cafe"}}, {"type": "node", "id": 6566130455, "lat": 37.2187058, "lon": 22.0290326, "tags": {"amenity": "cafe"}}, {"type": "node", "id": 6566462984, "lat": 37.2321421, "lon": 21.9917312, "tags": {"amenity": "cafe"}}, {"type": "node", "id": 6566507498, "lat": 37.2322441, "lon": 21.9911032, "tags": {"amenity": "cafe"}}, {"type": "node", "id": 6566582612, "lat": 37.2298777, "lon": 21.9713111, "tags": {"amenity": "cafe"}}, {"type": "node", "id": 6584872525, "lat": 37.1681216, "lon": 22.0251968, "tags": {"amenity": "restaurant", "cuisine": "fish", "int_name": "Romantza", "name": "\u03a1\u03bf\u03bc\u03ac\u03bd\u03c4\u03b6\u03b1"}}, {"type": "node", "id": 6597541017, "lat": 37.2562842, "lon": 21.9941411, "tags": {"amenity": "cafe", "cuisine": "greek"}}, {"type": "node", "id": 6630191727, "lat": 37.0142872, "lon": 21.9970335, "tags": {"amenity": "cafe", "name": "Bouka Bouka Mare"}}, {"type": "node", "id": 6635678796, "lat": 37.0010404, "lon": 21.8484778, "tags": {"amenity": "restaurant"}}, {"type": "node", "id": 6637272386, "lat": 37.0996101, "lon": 22.0052384, "tags": {"amenity": "restaurant"}}, {"type": "node", "id": 6637272586, "lat": 37.1000283, "lon": 22.0053952, "tags": {"amenity": "restaurant"}}, {"type": "node", "id": 6637273286, "lat": 37.0765698, "lon": 22.0316631, "tags": {"amenity": "cafe"}}, {"type": "node", "id": 6665818302, "lat": 37.0501644, "lon": 22.0085067, "tags": {"amenity": "restaurant"}}, {"type": "node", "id": 6689123186, "lat": 36.9604594, "lon": 21.927416, "tags": {"amenity": "cafe", "internet_access": "wlan", "name:en": "vamos"}}, {"type": "node", "id": 6689283085, "lat": 36.9582227, "lon": 21.9299067, "tags": {"amenity": "restaurant", "name:en": "argo"}}, {"type": "node", "id": 6750794386, "lat": 37.2989468, "lon": 21.6952873, "tags": {"amenity": "restaurant", "cuisine": "greek;mediterranean;fish", "internet_access": "wlan", "name": "\u03a4\u03bf \u03a0\u03b5\u03ad\u03c4\u03c1\u03b9\u03bd\u03bf \u039c\u03c0\u03b1\u03bb\u03ba\u03cc\u03bd\u03b9", "name:el": "\u03a4\u03bf \u03a0\u03b5\u03ad\u03c4\u03c1\u03b9\u03bd\u03bf \u039c\u03c0\u03b1\u03bb\u03ba\u03cc\u03bd\u03b9", "name:en": "To Petrino Balkoni", "opening_hours": "Mo-Su 10:00-02:00", "website": "https://m.facebook.com/topetrinobalkoni/?ref=ts&fref=ts"}}, {"type": "node", "id": 7023768925, "lat": 37.2292573, "lon": 21.8931971, "tags": {"air_conditioning": "yes", "amenity": "cafe", "bar": "yes", "internet_access": "no", "name": "\u039a\u03b1\u03c6\u03b5\u03bd\u03b5\u03af\u03bf\u03bd", "outdoor_seating": "yes"}}, {"type": "node", "id": 7052143035, "lat": 37.3404729, "lon": 21.8221702}, {"type": "node", "id": 7052143036, "lat": 37.3404686, "lon": 21.8222254}, {"type": "node", "id": 7052143037, "lat": 37.3403228, "lon": 21.822209}, {"type": "node", "id": 7052143038, "lat": 37.3402798, "lon": 21.8221983}, {"type": "node", "id": 7052143039, "lat": 37.3403039, "lon": 21.8221025}, {"type": "node", "id": 7052143040, "lat": 37.3403652, "lon": 21.8221095}, {"type": "node", "id": 7052143041, "lat": 37.3403671, "lon": 21.8221446}, {"type": "node", "id": 7052143042, "lat": 37.3398528, "lon": 21.8220071}, {"type": "node", "id": 7052143043, "lat": 37.3398509, "lon": 21.8220678}, {"type": "node", "id": 7052143044, "lat": 37.3398992, "lon": 21.8220864}, {"type": "node", "id": 7052143045, "lat": 37.3398973, "lon": 21.8221285}, {"type": "node", "id": 7052143046, "lat": 37.3399623, "lon": 21.8221355}, {"type": "node", "id": 7052143047, "lat": 37.3399809, "lon": 21.8221261}, {"type": "node", "id": 7052143048, "lat": 37.3399994, "lon": 21.8220257}, {"type": "node", "id": 7052143049, "lat": 37.34, "lon": 21.8220016}, {"type": "node", "id": 7052143050, "lat": 37.3398608, "lon": 21.8219804}, {"type": "node", "id": 7090383891, "lat": 37.179411, "lon": 21.9225447, "tags": {"amenity": "restaurant", "diet:halal": "no", "diet:kosher": "no", "diet:vegan": "no", "diet:vegetarian": "yes", "indoor_seating": "yes", "internet_access": "wlan", "name": "Ithomi", "outdoor_seating": "yes", "smoking": "outside", "wheelchair": "no"}}, {"type": "node", "id": 7187856564, "lat": 37.0960104, "lon": 21.7172958, "tags": {"amenity": "restaurant", "name": "\u03a4\u03b1\u03b2\u03b5\u03c1\u03bd\u03b1 \u03a4\u03bf \u0395\u03be\u03bf\u03c7\u03b9\u03ba\u03bf\u03bd"}}, {"type": "node", "id": 7368523535, "lat": 37.0358507, "lon": 21.884576, "tags": {"amenity": "cafe"}}, {"type": "node", "id": 7600218664, "lat": 37.2530328, "lon": 21.6919577, "tags": {"amenity": "restaurant", "cuisine": "greek", "name": "\u03a4\u03b1\u03b2\u03ad\u03c1\u03bd\u03b1 \u039a\u03bb\u03b5\u03b9\u03b4\u03ad\u03c1\u03b7\u03c2"}}, {"type": "node", "id": 7843782685, "lat": 37.2509134, "lon": 21.6686727, "tags": {"amenity": "cafe"}}, {"type": "node", "id": 7861404485, "lat": 37.0574569, "lon": 21.5776002, "tags": {"amenity": "restaurant", "name": "Artoinos", "name:en": "Artonios"}}, {"type": "node", "id": 7861587485, "lat": 37.0579174, "lon": 21.5777792, "tags": {"amenity": "cafe", "name:en": "noname"}}, {"type": "node", "id": 7861618286, "lat": 37.0590867, "lon": 21.5746341, "tags": {"amenity": "cafe"}}, {"type": "node", "id": 7865899985, "lat": 36.9807119, "lon": 21.6636132, "tags": {"amenity": "cafe", "name:en": "Voidokilia Cafe"}}, {"type": "node", "id": 7873498285, "lat": 36.989874, "lon": 21.6650517, "tags": {"amenity": "restaurant", "name:en": "Stamoulis and Anna Mageirio", "phone": "+30 2723 041043"}}, {"type": "node", "id": 7877944785, "lat": 37.050746, "lon": 22.0100013, "tags": {"amenity": "restaurant", "name": "\u03c4\u03bf \u03c4\u03c3\u03b9\u03c0\u03bf\u03c5\u03c1\u03ac\u03b4\u03b9\u03ba\u03bf\u03c5"}}, {"type": "node", "id": 7877947186, "lat": 37.05046, "lon": 22.0098602, "tags": {"amenity": "restaurant"}}, {"type": "node", "id": 7878079885, "lat": 37.0504707, "lon": 22.0093229, "tags": {"amenity": "cafe"}}, {"type": "node", "id": 7878176285, "lat": 37.0506294, "lon": 22.0090308, "tags": {"amenity": "cafe"}}, {"type": "node", "id": 7878176385, "lat": 37.0506666, "lon": 22.0091858, "tags": {"amenity": "cafe"}}, {"type": "node", "id": 7878176386, "lat": 37.050718, "lon": 22.0089919, "tags": {"amenity": "cafe"}}, {"type": "node", "id": 7878176387, "lat": 37.0507954, "lon": 22.0089714, "tags": {"amenity": "cafe"}}, {"type": "node", "id": 7878176388, "lat": 37.0508168, "lon": 22.0091182, "tags": {"amenity": "cafe"}}, {"type": "node", "id": 7878176485, "lat": 37.0507445, "lon": 22.0091584, "tags": {"amenity": "cafe"}}, {"type": "node", "id": 8185434765, "lat": 37.2539426, "lon": 21.6615648}, {"type": "node", "id": 8185434768, "lat": 37.2539592, "lon": 21.6615804}, {"type": "node", "id": 8185434769, "lat": 37.2540212, "lon": 21.6616156}, {"type": "node", "id": 8185434770, "lat": 37.2541222, "lon": 21.6616429}, {"type": "node", "id": 8286160275, "lat": 37.2132136, "lon": 21.5949413}, {"type": "node", "id": 8286160276, "lat": 37.2129972, "lon": 21.5948887}, {"type": "node", "id": 8286160277, "lat": 37.2128744, "lon": 21.5949939}, {"type": "node", "id": 8286160278, "lat": 37.2128925, "lon": 21.5950272}, {"type": "node", "id": 8286160279, "lat": 37.2131536, "lon": 21.5951201}, {"type": "node", "id": 8286160284, "lat": 37.2112109, "lon": 21.5941314}, {"type": "node", "id": 8286160285, "lat": 37.2110286, "lon": 21.5940308}, {"type": "node", "id": 8286160286, "lat": 37.2109602, "lon": 21.5942115}, {"type": "node", "id": 8286160287, "lat": 37.2111517, "lon": 21.5942946}, {"type": "node", "id": 8888298017, "lat": 37.2709697, "lon": 21.8847412, "tags": {"amenity": "cafe", "name:ru": "\u041f\u0435\u0441\u0442\u0440\u0430\u044f"}}, {"type": "node", "id": 8948852218, "lat": 36.9861886, "lon": 21.65289, "tags": {"amenity": "restaurant", "name:en": "Kookoonari Beach"}}, {"type": "node", "id": 9023049429, "lat": 37.3730883, "lon": 21.6877759}, {"type": "node", "id": 9023049430, "lat": 37.3731223, "lon": 21.6879579}, {"type": "node", "id": 9023049431, "lat": 37.3729687, "lon": 21.6880033}, {"type": "node", "id": 9023049432, "lat": 37.3729486, "lon": 21.6878956}, {"type": "node", "id": 9023049433, "lat": 37.372997, "lon": 21.6878813}, {"type": "node", "id": 9023049434, "lat": 37.3729831, "lon": 21.6878069}, {"type": "node", "id": 9127861117, "lat": 37.0570168, "lon": 21.5781572, "tags": {"amenity": "restaurant", "name:en": "Panorama"}}, {"type": "node", "id": 9127861118, "lat": 37.2474312, "lon": 21.678383, "tags": {"amenity": "restaurant", "name:en": "Palia Agora"}}, {"type": "node", "id": 9140033865, "lat": 36.9965397, "lon": 21.6538217, "tags": {"amenity": "restaurant", "name": "Flame"}}, {"type": "node", "id": 9609511744, "lat": 37.2411413, "lon": 22.000085, "tags": {"amenity": "cafe"}}, {"type": "node", "id": 9609513018, "lat": 37.2402001, "lon": 22.0117286, "tags": {"amenity": "cafe"}}, {"type": "node", "id": 9688250317, "lat": 37.0590289, "lon": 21.5747838, "tags": {"amenity": "restaurant", "name": "\u03a1\u03b9\u03ba\u03b9", "name:el": "\u03a1\u03b9\u03ba\u03b9", "name:en": "Riki"}}, {"type": "node", "id": 9720253882, "lat": 36.980933, "lon": 21.6632838, "tags": {"amenity": "cafe", "name": "Fortino"}}, {"type": "node", "id": 9843438074, "lat": 37.2507353, "lon": 21.6701055, "tags": {"amenity": "cafe"}}, {"type": "node", "id": 9843548203, "lat": 37.2517791, "lon": 21.6673394, "tags": {"amenity": "restaurant", "name": "\u03a0\u03b1\u03c1\u03b1\u03bc\u03c5\u03b8\u03ac\u03ba\u03b9"}}, {"type": "node", "id": 9844025436, "lat": 37.2514524, "lon": 21.667809, "tags": {"amenity": "restaurant"}}, {"type": "node", "id": 10159331114, "lat": 37.1571169, "lon": 21.5678327, "tags": {"amenity": "cafe", "name": "Almyra"}}, {"type": "node", "id": 10577659685, "lat": 37.1654482, "lon": 21.9824407}, {"type": "node", "id": 10577659686, "lat": 37.1653467, "lon": 21.9824998}, {"type": "node", "id": 10577659687, "lat": 37.1654453, "lon": 21.9825066}, {"type": "node", "id": 10577659688, "lat": 37.1653793, "lon": 21.9824407}, {"type": "node", "id": 10577659689, "lat": 37.1653487, "lon": 21.9824537}, {"type": "node", "id": 10577684418, "lat": 37.1651293, "lon": 21.9823466}, {"type": "node", "id": 10577684421, "lat": 37.1650446, "lon": 21.982503}, {"type": "node", "id": 10577684425, "lat": 37.1650312, "lon": 21.9823148}, {"type": "node", "id": 10577684428, "lat": 37.1651396, "lon": 21.9824923}, {"type": "node", "id": 10584650523, "lat": 37.1649576, "lon": 21.9830776, "tags": {"amenity": "restaurant", "check_date": "2023-01-26", "name": "Kaisares", "name:el": "\u039a\u0391\u0399\u03a3\u0391\u03a1\u0397\u03a3", "opening_hours": "07:00-24:00", "phone": "+30 2724 071694"}}, {"type": "node", "id": 10586986779, "lat": 37.2243552, "lon": 21.9674499, "tags": {"amenity": "cafe", "name": "Bill's Cafe"}}, {"type": "node", "id": 11020159169, "lat": 37.0271417, "lon": 21.6956908, "tags": {"amenity": "cafe", "check_date": "2023-07-02"}}, {"type": "node", "id": 11141426821, "lat": 37.1789307, "lon": 21.9186329}, {"type": "node", "id": 11204799908, "lat": 37.3826987, "lon": 21.8241853, "tags": {"amenity": "restaurant", "cuisine": "regional", "name": "\u03bf \u0391\u03bd\u03c4\u03ce\u03bd\u03b7\u03c2"}}, {"type": "node", "id": 11342034065, "lat": 37.3531002, "lon": 21.9794405, "tags": {"addr:city": "\u0392\u03ac\u03c3\u03c4\u03b1 \u0391\u03c1\u03ba\u03b1\u03b4\u03af\u03b1\u03c2", "addr:postcode": "22200", "amenity": "restaurant", "cuisine": "greek", "name": "\u039f \u03ba\u03ae\u03c0\u03bf\u03c2 \u03c4\u03b7\u03c2 \u0391\u03b3\u03af\u03b1\u03c2", "name:el": "\u039f \u03ba\u03ae\u03c0\u03bf\u03c2 \u03c4\u03b7\u03c2 \u0391\u03b3\u03af\u03b1\u03c2", "phone": "+30 27910 81280", "website": "https://www.okipos-agias.gr/"}}, {"type": "node", "id": 11876794969, "lat": 37.2976334, "lon": 21.699464, "tags": {"addr:postcode": "24500", "amenity": "restaurant", "cuisine": "greek;grill;regional", "name": "\u039a\u03ac\u03ba\u03c4\u03bf\u03c2", "name:de": "Kaktos", "name:el": "\u039a\u03ac\u03ba\u03c4\u03bf\u03c2", "name:en": "Kaktos", "phone": "+30 276 107 1178", "website": "https://www.facebook.com/kaktosgrillbar"}}, {"type": "node", "id": 11876808669, "lat": 37.2996957, "lon": 21.6953407, "tags": {"amenity": "restaurant", "name": "\u0396\u03ad\u03c6\u03c5\u03c1\u03bf\u03c2", "name:de": "Zephyros", "name:el": "\u0396\u03ad\u03c6\u03c5\u03c1\u03bf\u03c2", "name:en": "Zephyros"}}, {"type": "node", "id": 11876831769, "lat": 37.2991717, "lon": 21.6953081, "tags": {"amenity": "restaurant", "name": "\u0391\u03ba\u03c1\u03bf\u03b3\u03b9\u03ac\u03bb\u03b9", "name:de": "Akrogiali", "name:el": "\u0391\u03ba\u03c1\u03bf\u03b3\u03b9\u03ac\u03bb\u03b9", "name:en": "Akrogiali", "survey:date": "2024-10-04"}}, {"type": "node", "id": 11962450061, "lat": 37.2503677, "lon": 21.6716029, "tags": {"amenity": "cafe", "name": "Rose"}}, {"type": "node", "id": 11968808755, "lat": 36.9801639, "lon": 21.6556699}, {"type": "node", "id": 12041596366, "lat": 37.2520472, "lon": 21.6701767, "tags": {"amenity": "restaurant", "cuisine": "greek", "name": "\u03a3\u03c4\u03b1\u03b8\u03bc\u03cc\u03c2", "outdoor_seating": "yes"}}, {"type": "node", "id": 12192864996, "lat": 37.1987131, "lon": 21.8912116, "tags": {"amenity": "restaurant"}}, {"type": "node", "id": 12192867701, "lat": 37.1991296, "lon": 21.8908601, "tags": {"amenity": "cafe"}}, {"type": "way", "id": 225684795, "nodes": [2344418526, 2344418525, 11141426821, 2344418522, 2344418523, 2344418526], "tags": {"amenity": "cafe", "building": "yes", "indoor_seating": "yes", "name": "Ancient Messene", "outdoor_seating": "yes", "wheelchair": "limited"}}, {"type": "way", "id": 296688766, "nodes": [3005027900, 3005027901, 3005027899, 3005027898, 3005027900], "tags": {"addr:postcode": "24500", "amenity": "restaurant", "building": "yes", "cuisine": "greek;grill;regional", "name": "\u03a3\u03c4\u03b1\u03b8\u03bc\u03cc\u03c2", "name:el": "\u03a3\u03c4\u03b1\u03b8\u03bc\u03cc\u03c2", "name:en": "Stathmos", "name:ru": "\u0421\u0442\u0430\u0444\u043c\u043e\u0441"}}, {"type": "way", "id": 297817948, "nodes": [3017222206, 3017222208, 3017222209, 3017222207, 3017222206], "tags": {"addr:postcode": "24500", "amenity": "restaurant", "building": "yes", "check_date": "2025-02-04", "cuisine": "greek;local", "name": "\u03a3\u03c4\u03b1\u03b8\u03bc\u03cc\u03c2 \u0391\u03b3\u03b9\u03b1\u03bd\u03bd\u03ac\u03ba\u03b7", "opening_hours": "Mo-Su 13:00-01:00", "phone": "6977194006", "source": "bing", "website": "http://agiannakis.blogspot.gr"}}, {"type": "way", "id": 300965743, "nodes": [3050741933, 3050741934, 3050741935, 3050741936, 3050741933], "tags": {"amenity": "restaurant", "building": "yes", "name": "\u0391\u03ba\u03c1\u03bf\u03b3\u03b9\u03ac\u03bb\u03b9 \u03c4\u03b7\u03c2 \u03a1\u03bf\u03cd\u03bb\u03b1\u03c2"}}, {"type": "way", "id": 301687970, "nodes": [3057822834, 11968808755, 3057822837, 3057822833, 3057822840, 3057822834], "tags": {"addr:city": "Petrochori", "addr:postcode": "24001", "amenity": "restaurant", "building": "yes", "cuisine": "greek", "ele": "4", "name": "Stella Marina", "operator": "Iliovasilema O Grigoris", "phone": "+30 27230 41332", "smoking": "outside"}}, {"type": "way", "id": 468738124, "nodes": [4632086144, 4632086145, 4632086146, 4632086133, 4632086132, 4632086144], "tags": {"amenity": "cafe"}}, {"type": "way", "id": 468738125, "nodes": [4632112504, 4632112505, 4632112506, 4632112507, 4632112504], "tags": {"amenity": "cafe", "building": "yes"}}, {"type": "way", "id": 499717543, "nodes": [4909562549, 4909562550, 4909562551, 4909562552, 4909562549], "tags": {"amenity": "restaurant", "building": "yes", "outdoor_seating": "yes"}}, {"type": "way", "id": 547730175, "nodes": [5292185800, 5292185801, 5292185802, 5292185803, 5292185804, 5292185800], "tags": {"amenity": "restaurant", "building": "yes", "cuisine": "regional", "delivery": "no", "description": "Super Griechische K\u00fcche ", "name": "Restaurant", "takeaway": "yes", "wheelchair": "yes"}}, {"type": "way", "id": 588118773, "nodes": [5617442971, 5617442973, 2994504685, 8185434770, 8185434769, 5617442974, 8185434768, 8185434765, 5617442975, 5617442976, 2994504680, 5617442971], "tags": {"amenity": "restaurant", "building": "yes", "name": "Ammos"}}, {"type": "way", "id": 685246505, "nodes": [6421128320, 6421128321, 6421128322, 6421128323, 6421128320], "tags": {"amenity": "cafe", "building": "yes"}}, {"type": "way", "id": 754913303, "nodes": [7052143035, 7052143036, 7052143037, 7052143038, 7052143039, 7052143040, 7052143041, 7052143035], "tags": {"amenity": "cafe", "building": "yes"}}, {"type": "way", "id": 754913304, "nodes": [7052143042, 7052143043, 7052143044, 7052143045, 7052143046, 7052143047, 7052143048, 7052143049, 7052143050, 7052143042], "tags": {"amenity": "cafe", "building": "yes"}}, {"type": "way", "id": 891499276, "nodes": [8286160275, 8286160276, 8286160277, 8286160278, 8286160279, 8286160275], "tags": {"amenity": "cafe", "building": "yes"}}, {"type": "way", "id": 891499278, "nodes": [8286160284, 8286160285, 8286160286, 8286160287, 8286160284], "tags": {"amenity": "cafe", "building": "yes"}}, {"type": "way", "id": 975021029, "nodes": [9023049429, 9023049430, 9023049431, 9023049432, 9023049433, 9023049434, 9023049429], "tags": {"amenity": "restaurant", "building": "yes", "name": "\u039f \u039c\u03cd\u03b8\u03bf\u03c2 \u03c4\u03b7\u03c2 \u0395\u03bb\u03b1\u03af\u03b1\u03c2", "phone": "+302761091385"}}, {"type": "way", "id": 1134647534, "nodes": [10577684418, 10577684425, 10577684421, 10577684428, 10577684418], "tags": {"amenity": "cafe", "check_date": "2023-01-26", "name": "Agora Valyra Caf\u00e9", "name:en": "Agora Valyra Caf\u00e9", "opening_hours": "Mo-Su 06:30-00:00", "outdoor_seating": "yes", "payment:mastercard": "yes", "payment:visa": "yes"}}, {"type": "way", "id": 1134647911, "nodes": [10577659685, 10577659688, 10577659689, 10577659686, 10577659687, 10577659685], "tags": {"amenity": "restaurant", "name": "Chagi\u00e1ti", "name:el": "\u03a7\u03b1\u03b3\u03b9\u03ac\u03c4\u03b9"}}]}