{"version": 0.6, "generator": "Overpass API 0.7.62.7 375dc00a", "osm3s": {"timestamp_osm_base": "2025-06-14T14:38:18Z", "copyright": "The data included in this document is from www.openstreetmap.org. The data is made available under ODbL."}, "elements": [{"type": "node", "id": 306474581, "lat": 37.4603573, "lon": 21.9226567, "tags": {"amenity": "cafe"}}, {"type": "node", "id": 1290085758, "lat": 37.4384777, "lon": 21.8306746, "tags": {"amenity": "cafe"}}, {"type": "node", "id": 1385047601, "lat": 37.6427326, "lon": 21.6183731}, {"type": "node", "id": 1385047605, "lat": 37.6428447, "lon": 21.618247}, {"type": "node", "id": 1385047607, "lat": 37.6429198, "lon": 21.6186786}, {"type": "node", "id": 1385047611, "lat": 37.6430096, "lon": 21.6185948}, {"type": "node", "id": 1396540534, "lat": 37.789914, "lon": 21.7212628, "tags": {"amenity": "restaurant", "name": "Kentavroi Restaurant, Foloi"}}, {"type": "node", "id": 1838510645, "lat": 37.80285, "lon": 21.718812, "tags": {"amenity": "restaurant"}}, {"type": "node", "id": 1838511779, "lat": 37.5188541, "lon": 21.8488651, "tags": {"amenity": "cafe"}}, {"type": "node", "id": 2434728882, "lat": 37.4125372, "lon": 21.6713602, "tags": {"amenity": "restaurant", "cuisine": "regional", "name": "Nikos", "opening_hours": "24/7"}}, {"type": "node", "id": 2434728883, "lat": 37.4121332, "lon": 21.6693098, "tags": {"amenity": "restaurant", "cuisine": "greek", "indoor_seating": "yes", "internet_access": "wlan", "name": "Taverna 'Oti'", "outdoor_seating": "yes", "phone": "2625061050", "smoking": "outside", "wheelchair": "limited"}}, {"type": "node", "id": 2747199236, "lat": 37.4106992, "lon": 21.6659171, "tags": {"amenity": "cafe"}}, {"type": "node", "id": 2747199238, "lat": 37.4092819, "lon": 21.6666101, "tags": {"amenity": "cafe", "fee": "no", "indoor_seating": "no", "name": "Seagull Beach Bar", "outdoor_seating": "yes", "smoking": "yes", "tourism": "caravan_site", "wheelchair": "limited"}}, {"type": "node", "id": 2995446507, "lat": 37.650643, "lon": 21.6261171, "tags": {"amenity": "restaurant", "cuisine": "greek", "name": "FILOXENIA", "source": "survey"}}, {"type": "node", "id": 3014336090, "lat": 37.5939727, "lon": 21.9962977, "tags": {"amenity": "cafe", "name": "\u039a\u03b1\u03c6\u03b5\u03bd\u03b5\u03af\u03bf"}}, {"type": "node", "id": 3014336091, "lat": 37.5895519, "lon": 21.9908394, "tags": {"amenity": "restaurant", "cuisine": "greek", "name": "\u03a4\u03b1\u03b2\u03ad\u03c1\u03bd\u03b1 \"\u039f \u039d\u03af\u03ba\u03bf\u03c2\""}}, {"type": "node", "id": 3019077758, "lat": 37.5957654, "lon": 22.0403281, "tags": {"addr:city": "\u0394\u03b7\u03bc\u03b7\u03c4\u03c3\u03ac\u03bd\u03b1", "amenity": "restaurant", "cuisine": "greek", "internet_access": "wlan", "name": "\u03a4\u03b5\u03cd\u03b8\u03b9\u03c2", "name:el": "\u03a4\u03b5\u03cd\u03b8\u03b9\u03c2", "name:en": "Teythis", "phone": "+302795031514", "ref:vatin": "EL800100793"}}, {"type": "node", "id": 3278222479, "lat": 37.4912166, "lon": 21.8182133}, {"type": "node", "id": 3278222480, "lat": 37.4911591, "lon": 21.8181459}, {"type": "node", "id": 3278222481, "lat": 37.4910996, "lon": 21.8182268}, {"type": "node", "id": 3278222482, "lat": 37.4911557, "lon": 21.8182924}, {"type": "node", "id": 3700999852, "lat": 37.581908, "lon": 21.6002022, "tags": {"amenity": "restaurant"}}, {"type": "node", "id": 3700999853, "lat": 37.5821014, "lon": 21.6000064, "tags": {"amenity": "cafe"}}, {"type": "node", "id": 3701023957, "lat": 37.6425784, "lon": 21.6256149, "tags": {"amenity": "restaurant", "name": "Olympia Palace", "note": "Belongs to the hotel. Did not trace the hotel as unsure of the area it covers."}}, {"type": "node", "id": 3701023961, "lat": 37.6441845, "lon": 21.6254168, "tags": {"amenity": "cafe", "name": "Top's", "outdoor_seating": "yes"}}, {"type": "node", "id": 3733003994, "lat": 37.4338798, "lon": 21.6578008, "tags": {"amenity": "cafe", "name": "Caf\u00e9 Ali", "outdoor_seating": "yes"}}, {"type": "node", "id": 3733009425, "lat": 37.4324353, "lon": 21.6538758, "tags": {"amenity": "cafe"}}, {"type": "node", "id": 4034258345, "lat": 37.6610927, "lon": 21.8344858, "tags": {"amenity": "restaurant", "cuisine": "\u03a0\u03b1\u03c1\u03b1\u03b4\u03bf\u03c3\u03b9\u03b1\u03ba\u03ac_\u03c8\u03b7\u03c4\u03ac,_\u03ba\u03b1\u03c6\u03ad", "name": "\u039c\u03c0\u03b5\u03c1\u03c4\u03c3\u03b9\u03ac"}}, {"type": "node", "id": 4262675991, "lat": 37.644686, "lon": 21.6248807, "tags": {"amenity": "restaurant", "name": "Vasilakis"}}, {"type": "node", "id": 4359216889, "lat": 37.4803504, "lon": 21.6778643, "tags": {"amenity": "restaurant", "cuisine": "greek;barbecue;grill;fish;coffee_shop;mediterranean", "name:en": "AntiPeina", "phone": "00302625033035"}}, {"type": "node", "id": 4359227892, "lat": 37.483381, "lon": 21.6478723, "tags": {"amenity": "cafe", "outdoor_seating": "yes"}}, {"type": "node", "id": 4359251492, "lat": 37.4828549, "lon": 21.6484083, "tags": {"amenity": "cafe"}}, {"type": "node", "id": 4359271990, "lat": 37.4833228, "lon": 21.6472214, "tags": {"amenity": "restaurant", "name": "Koukios Grill"}}, {"type": "node", "id": 4359272092, "lat": 37.4831329, "lon": 21.6486886, "tags": {"amenity": "cafe"}}, {"type": "node", "id": 4359272095, "lat": 37.4827545, "lon": 21.6466627, "tags": {"amenity": "cafe", "name:en": "Sugar Touwn"}}, {"type": "node", "id": 4359272096, "lat": 37.4828156, "lon": 21.6475198, "tags": {"amenity": "cafe", "cuisine": "ice_cream"}}, {"type": "node", "id": 4359282589, "lat": 37.4828137, "lon": 21.6474042, "tags": {"amenity": "cafe", "name": "Corretto"}}, {"type": "node", "id": 4359282789, "lat": 37.4829488, "lon": 21.6476657, "tags": {"amenity": "restaurant", "cuisine": "italian"}}, {"type": "node", "id": 4359282889, "lat": 37.4830741, "lon": 21.6475954, "tags": {"amenity": "cafe", "name": "Square Caf\u00e9"}}, {"type": "node", "id": 4363452396, "lat": 37.4835344, "lon": 21.6478508, "tags": {"amenity": "cafe", "internet_access": "wlan", "name": "Esquina"}}, {"type": "node", "id": 4363582292, "lat": 37.5006115, "lon": 21.6328884, "tags": {"amenity": "restaurant", "cuisine": "greek;barbecue;fish", "name:de": "O Stratos"}}, {"type": "node", "id": 4366242591, "lat": 37.481633, "lon": 21.6439462, "tags": {"amenity": "restaurant", "int_name": "Estiatorio Maniatis", "name": "\u0395\u03c3\u03c4\u03b9\u03b1\u03c4\u03cc\u03c1\u03b9\u03bf \u039c\u03b1\u03bd\u03b9\u03ac\u03c4\u03b7\u03c2", "phone": "6944851788"}}, {"type": "node", "id": 4366242596, "lat": 37.4843588, "lon": 21.6466674, "tags": {"amenity": "cafe"}}, {"type": "node", "id": 4366242597, "lat": 37.4838109, "lon": 21.6473664, "tags": {"amenity": "cafe", "internet_access": "wlan", "name": "edo...katse"}}, {"type": "node", "id": 4366313789, "lat": 37.4815832, "lon": 21.6496968, "tags": {"amenity": "restaurant"}}, {"type": "node", "id": 4366313990, "lat": 37.4833305, "lon": 21.6483254, "tags": {"amenity": "restaurant", "internet_access": "wlan", "name": "Kokoriko Grill House", "phone": "2625034880"}}, {"type": "node", "id": 4366690993, "lat": 37.4803437, "lon": 21.641671, "tags": {"amenity": "restaurant", "int_name": "To Petrino", "name": "\u03a4\u03bf \u03a0\u03ad\u03c4\u03c1\u03b9\u03bd\u03bf"}}, {"type": "node", "id": 4366714994, "lat": 37.4865082, "lon": 21.6495103, "tags": {"amenity": "cafe"}}, {"type": "node", "id": 4366758390, "lat": 37.4824642, "lon": 21.6480344, "tags": {"amenity": "cafe", "name": "Aleion"}}, {"type": "node", "id": 4370608990, "lat": 37.4845788, "lon": 21.6492969, "tags": {"amenity": "cafe"}}, {"type": "node", "id": 4370608991, "lat": 37.4845028, "lon": 21.6492032, "tags": {"amenity": "restaurant", "name": "RG\u2019s Grill"}}, {"type": "node", "id": 4449405089, "lat": 37.6435224, "lon": 21.6255086, "tags": {"amenity": "restaurant", "cuisine": "greek", "internet_access": "wlan", "name": "SYMPOSIO", "name:en": "SYMPOSIO"}}, {"type": "node", "id": 4496979192, "lat": 37.6475582, "lon": 21.6229483, "tags": {"amenity": "restaurant", "cuisine": "greek;grill", "name:en": "Touris Club"}}, {"type": "node", "id": 4530028965, "lat": 37.5602472, "lon": 22.0294416, "tags": {"amenity": "restaurant", "name": "\u03a4\u03bf \u03c3\u03c7\u03bf\u03bb\u03b5\u03b9\u03bf"}}, {"type": "node", "id": 4581511851, "lat": 37.6434739, "lon": 21.6244887, "tags": {"addr:city": "Olympia", "addr:postcode": "27065", "addr:street": "Spiliopoulou", "amenity": "restaurant", "cuisine": "greek", "name": "Taverna Orestis"}}, {"type": "node", "id": 4612541089, "lat": 37.6475236, "lon": 21.6842971}, {"type": "node", "id": 5034303123, "lat": 37.6442587, "lon": 21.6252138, "tags": {"amenity": "restaurant", "cuisine": "greek;salad;pasta;pizza", "name": "Kosma's", "outdoor_seating": "yes"}}, {"type": "node", "id": 5034303124, "lat": 37.6442437, "lon": 21.6255317, "tags": {"amenity": "restaurant", "cuisine": "greek", "diet:vegan": "yes", "diet:vegetarian": "yes", "name": "\u0391\u03b9\u03b3\u03b1\u03af\u03bf", "outdoor_seating": "yes"}}, {"type": "node", "id": 5034303132, "lat": 37.6444993, "lon": 21.6256761, "tags": {"amenity": "restaurant", "name": "Family"}}, {"type": "node", "id": 5075507598, "lat": 37.6428898, "lon": 21.6186229}, {"type": "node", "id": 5075507599, "lat": 37.6428138, "lon": 21.6186903}, {"type": "node", "id": 5075507600, "lat": 37.6427289, "lon": 21.6185419}, {"type": "node", "id": 5075507601, "lat": 37.6427893, "lon": 21.6184913}, {"type": "node", "id": 5077486639, "lat": 37.4836035, "lon": 21.6476122, "tags": {"amenity": "cafe"}}, {"type": "node", "id": 5077486641, "lat": 37.4775433, "lon": 21.6273293, "tags": {"amenity": "restaurant", "cuisine": "barbecue;fish;regional", "int_name": "Filoxenia", "name": "\u03a6\u03b9\u03bb\u03bf\u03be\u03b5\u03bd\u1f77\u03b1", "name:el": "\u03a6\u03b9\u03bb\u03bf\u03be\u03b5\u03bd\u1f77\u03b1"}}, {"type": "node", "id": 5084748423, "lat": 37.4555199, "lon": 21.6417581, "tags": {"amenity": "restaurant", "name": "\u0391\u03c1\u03bc\u03cc\u03b4\u03b9\u03bf\u03c2"}}, {"type": "node", "id": 5084748424, "lat": 37.4560801, "lon": 21.6439901, "tags": {"amenity": "cafe", "name": "\u03a4\u03bf \u03a0\u03ad\u03c4\u03c1\u03b9\u03bd\u03bf", "name:el": "\u03a4\u03bf \u03a0\u03ad\u03c4\u03c1\u03b9\u03bd\u03bf", "name:en": "Caf\u00e9 Petrino"}}, {"type": "node", "id": 5084748527, "lat": 37.455066, "lon": 21.6399796, "tags": {"amenity": "restaurant", "name:en": "Oi Mouries-Nikos"}}, {"type": "node", "id": 5084748528, "lat": 37.4552505, "lon": 21.6409185, "tags": {"amenity": "restaurant", "name": "\u039a\u03ac\u03c4\u03b9 \u03a8\u03ad\u03bd\u03b5\u03c4\u03b1\u03b9", "name:el": "\u039a\u03ac\u03c4\u03b9 \u03a8\u03ad\u03bd\u03b5\u03c4\u03b1\u03b9", "name:en": "Kati Psenete"}}, {"type": "node", "id": 5084748531, "lat": 37.4563956, "lon": 21.6448743, "tags": {"amenity": "cafe"}}, {"type": "node", "id": 5084748532, "lat": 37.4560122, "lon": 21.645027, "tags": {"amenity": "cafe", "name": "\u039a\u03b1\u03c6\u03b5\u03bd\u03b5\u03af\u03bf \u0394\u03b1\u03bc\u03b9\u03ba\u03bf\u03cd\u03ba\u03b1\u03c2"}}, {"type": "node", "id": 5084748533, "lat": 37.4560059, "lon": 21.6452352, "tags": {"amenity": "cafe", "name": "Sweet Corner"}}, {"type": "node", "id": 5084756221, "lat": 37.45617, "lon": 21.6451192, "tags": {"amenity": "cafe"}}, {"type": "node", "id": 5197201502, "lat": 37.4855362, "lon": 22.0511655}, {"type": "node", "id": 5197201503, "lat": 37.4856178, "lon": 22.0512192}, {"type": "node", "id": 5197201504, "lat": 37.4855918, "lon": 22.0512892}, {"type": "node", "id": 5197201505, "lat": 37.4855983, "lon": 22.0512962}, {"type": "node", "id": 5197201506, "lat": 37.4855645, "lon": 22.0513768}, {"type": "node", "id": 5197201507, "lat": 37.4854096, "lon": 22.0512898}, {"type": "node", "id": 5197201508, "lat": 37.4855025, "lon": 22.051244}, {"type": "node", "id": 5197201509, "lat": 37.4854375, "lon": 22.0512062}, {"type": "node", "id": 5197870014, "lat": 37.4851489, "lon": 22.042078, "tags": {"amenity": "cafe", "name": "\u0392\u03a1\u0395\u039d\u0398\u0397"}}, {"type": "node", "id": 5279736326, "lat": 37.8484722, "lon": 21.5725511, "tags": {"amenity": "cafe", "name": "Senso Sesto"}}, {"type": "node", "id": 5279744155, "lat": 37.8489096, "lon": 21.5719509, "tags": {"amenity": "cafe", "name": "Difference"}}, {"type": "node", "id": 5279744157, "lat": 37.848764, "lon": 21.5721574, "tags": {"amenity": "cafe", "name": "\u0394\u03b1\u03bd\u03b9\u03ba\u03b1\u03c2"}}, {"type": "node", "id": 5279762098, "lat": 37.8451003, "lon": 21.5319738, "tags": {"amenity": "restaurant", "name": "\u03a0\u03b1\u03c0\u03b1\u03bb\u03b5\u03c9\u03bd\u03af\u03b4\u03b1\u03c2"}}, {"type": "node", "id": 5279803022, "lat": 37.8379667, "lon": 21.523525, "tags": {"amenity": "restaurant"}}, {"type": "node", "id": 5279812947, "lat": 37.8371397, "lon": 21.5260306, "tags": {"amenity": "cafe", "name": "\u03a4\u03bf \u03a3\u03c4\u03ad\u03ba\u03b9 \u03c4\u03b7\u03c2 \u039f\u03b9\u03bd\u03cc\u03b7\u03c2"}}, {"type": "node", "id": 5279812949, "lat": 37.8372835, "lon": 21.5262127, "tags": {"amenity": "restaurant", "name": "\u0394\u03b9\u03cc\u03bd\u03c5\u03c3\u03c3\u03bf\u03c2"}}, {"type": "node", "id": 5283584940, "lat": 37.8321433, "lon": 21.557442, "tags": {"amenity": "cafe", "name": "\u039f \u0391\u03c0\u03bf\u03c3\u03c4\u03cc\u03bb\u03b7\u03c2"}}, {"type": "node", "id": 5283584941, "lat": 37.8319653, "lon": 21.5577666, "tags": {"amenity": "cafe"}}, {"type": "node", "id": 5572620321, "lat": 37.6447584, "lon": 21.6264267, "tags": {"addr:city": "\u0391\u03c1\u03c7\u03b1\u03af\u03b1 \u039f\u03bb\u03c5\u03bc\u03c0\u03af\u03b1", "addr:postcode": "27065", "addr:street": "\u0394\u03bf\u03cd\u03bc\u03b1 & 3\u03b7\u03c2 \u03a0\u03b5\u03c1\u03b9\u03c6\u03b5\u03c1\u03b5\u03b9\u03b1\u03ba\u03ae\u03c2", "amenity": "cafe", "name": "\u03a1\u03cc\u03b4\u03bf cafe", "outdoor_seating": "yes", "phone": "+30 2624 029180", "website": "https://rodopolygefston.com/ypiresies-rodo/"}}, {"type": "node", "id": 6125442833, "lat": 37.4929218, "lon": 21.6169122}, {"type": "node", "id": 6125442834, "lat": 37.4928239, "lon": 21.6170248}, {"type": "node", "id": 6125442835, "lat": 37.4927324, "lon": 21.6170973}, {"type": "node", "id": 6125442836, "lat": 37.4926813, "lon": 21.6169926}, {"type": "node", "id": 6125442837, "lat": 37.4927686, "lon": 21.6169363}, {"type": "node", "id": 6125442838, "lat": 37.4928729, "lon": 21.6168183}, {"type": "node", "id": 6393093186, "lat": 37.5923879, "lon": 21.6210624, "tags": {"amenity": "cafe"}}, {"type": "node", "id": 6393138285, "lat": 37.6262771, "lon": 21.4952182, "tags": {"amenity": "cafe"}}, {"type": "node", "id": 6393922585, "lat": 37.4828979, "lon": 21.6467897, "tags": {"amenity": "restaurant", "name": "\u039c\u0395\u0396\u0395\u0394\u039f\u03a0\u0395\u039d\u0399\u0395\u03a3", "opening_hours": "Mo-Fr 18:00-00:30; Sa-Su 12:00-00:30"}}, {"type": "node", "id": 6436950024, "lat": 37.6452139, "lon": 21.6247389, "tags": {"amenity": "restaurant", "name": "Anesis"}}, {"type": "node", "id": 6438121620, "lat": 37.644207, "lon": 21.6280906, "tags": {"amenity": "cafe", "name": "\u039a\u03bb\u03ac\u03b4\u03b5\u03bf\u03c2", "name:de": "Kladeos", "name:el": "\u039a\u03bb\u03ac\u03b4\u03b5\u03bf\u03c2", "name:en": "Kladeos", "name:fr": "Kladeos", "name:grc": "\u039a\u03bb\u03ac\u03b4\u03b5\u03bf\u03c2"}}, {"type": "node", "id": 6534495785, "lat": 37.6434938, "lon": 21.6257099, "tags": {"amenity": "restaurant", "name": "Mythos", "name:en": "Mythos"}}, {"type": "node", "id": 6554643043, "lat": 37.6441708, "lon": 21.637549, "tags": {"amenity": "cafe", "name": "\u039a\u03b1\u03c6\u03b5\u03c4\u03ad\u03c1\u03b9\u03b1 \u0394.\u039f.\u0391.", "name:el": "\u039a\u03b1\u03c6\u03b5\u03c4\u03ad\u03c1\u03b9\u03b1 \u0394.\u039f.\u0391.", "name:en": "Coffee shop I.O.A."}}, {"type": "node", "id": 6554643045, "lat": 37.6443406, "lon": 21.6374532, "tags": {"amenity": "restaurant", "name": "\u0395\u03c3\u03c4\u03b9\u03b1\u03c4\u03cc\u03c1\u03b9\u03bf - \u0394.\u039f.\u0391.", "name:de": "Restaurant - IOK", "name:el": "\u0395\u03c3\u03c4\u03b9\u03b1\u03c4\u03cc\u03c1\u03b9\u03bf - \u0394.\u039f.\u0391.", "name:en": "Restaurant - I.O.A."}}, {"type": "node", "id": 6635944084, "lat": 37.7616431, "lon": 21.6197643, "tags": {"addr:city": "\u0393\u03bf\u03cd\u03bc\u03b5\u03c1\u03bf", "addr:postcode": "27064", "amenity": "cafe", "name": "Olympiada"}}, {"type": "node", "id": 6635954673, "lat": 37.7628104, "lon": 21.6171055, "tags": {"addr:city": "\u0393\u03bf\u03cd\u03bc\u03b5\u03c1\u03bf", "addr:postcode": "27064", "amenity": "cafe", "internet_access": "wlan", "internet_access:fee": "no", "name": "\u03a3\u03c6\u03c5\u03c1\u03ae\u03c2", "takeaway": "yes"}}, {"type": "node", "id": 6721732230, "lat": 37.5907558, "lon": 22.0227358, "tags": {"amenity": "restaurant", "int_name": "Margarita", "name": "\u039c\u03b1\u03c1\u03b3\u03b1\u03c1\u03af\u03c4\u03b1"}}, {"type": "node", "id": 6721732247, "lat": 37.5973673, "lon": 21.9660817, "tags": {"amenity": "restaurant", "name": "\u039a\u03b1\u03bd\u03ad\u03bb\u03b1"}}, {"type": "node", "id": 6721732281, "lat": 37.6203927, "lon": 21.9472485, "tags": {"amenity": "cafe"}}, {"type": "node", "id": 6732805069, "lat": 37.6350526, "lon": 21.8775143, "tags": {"amenity": "cafe"}}, {"type": "node", "id": 6732805070, "lat": 37.6349658, "lon": 21.8774939, "tags": {"amenity": "restaurant"}}, {"type": "node", "id": 6732805084, "lat": 37.6330182, "lon": 21.8557366, "tags": {"amenity": "cafe"}}, {"type": "node", "id": 6732840348, "lat": 37.6765812, "lon": 21.8152926, "tags": {"amenity": "cafe"}}, {"type": "node", "id": 6732840426, "lat": 37.7011128, "lon": 21.8092518, "tags": {"amenity": "cafe"}}, {"type": "node", "id": 6732840427, "lat": 37.7010745, "lon": 21.8092554, "tags": {"amenity": "restaurant"}}, {"type": "node", "id": 6732840540, "lat": 37.6763272, "lon": 21.7933129, "tags": {"amenity": "cafe"}}, {"type": "node", "id": 6750934780, "lat": 37.646073, "lon": 21.6257184, "tags": {"amenity": "cafe", "bar": "yes", "name": "White Night", "outdoor_seating": "yes"}}, {"type": "node", "id": 6907072999, "lat": 37.668201, "lon": 21.5503487, "tags": {"amenity": "restaurant", "cuisine": "greek", "name": "Piazza", "phone": "2624031333"}}, {"type": "node", "id": 7109327186, "lat": 37.5951825, "lon": 22.0394387, "tags": {"amenity": "cafe", "name:en": "Monasty Coffee & Wine terrace"}}, {"type": "node", "id": 7726699429, "lat": 37.5588809, "lon": 21.9903123, "tags": {"amenity": "restaurant", "description": "Best restaurant of the region", "name": "Taberna Zerzora", "phone": "+30 6932847358"}}, {"type": "node", "id": 7772263156, "lat": 37.4477906, "lon": 21.8570131, "tags": {"amenity": "restaurant", "name": "\u0397 \u03a0\u03b1\u03bd\u03ce\u03b2\u03c1\u03c5\u03c3\u03b7", "outdoor_seating": "yes", "phone": "+30 2626 022032"}}, {"type": "node", "id": 7806876749, "lat": 37.4602363, "lon": 21.6426919, "tags": {"amenity": "restaurant", "name": "\u0397 \u03a6\u03c9\u03bb\u03b9\u03ac \u03c4\u03bf\u03c5 \u0394\u03ac\u03c3\u03bf\u03c5\u03c2", "name:de": "Waldnest", "name:el": "\u0397 \u03a6\u03c9\u03bb\u03b9\u03ac \u03c4\u03bf\u03c5 \u0394\u03ac\u03c3\u03bf\u03c5\u03c2"}}, {"type": "node", "id": 7819341091, "lat": 37.4554897, "lon": 21.6453584, "tags": {"amenity": "restaurant", "name": "\u03a4\u03bf \u03a0\u03b7\u03b3\u03ac\u03b4\u03b9"}}, {"type": "node", "id": 7845366289, "lat": 37.4346383, "lon": 21.6572972, "tags": {"amenity": "restaurant", "name": "\u039f \u039c\u03c0\u03ac\u03bc\u03c0\u03b7\u03c2", "opening_hours": "\"Only open during the summer.\""}}, {"type": "node", "id": 7845490133, "lat": 37.4296534, "lon": 21.6651207, "tags": {"amenity": "cafe"}}, {"type": "node", "id": 7849298887, "lat": 37.5121842, "lon": 21.5967983, "tags": {"amenity": "cafe", "name": "\u03a3\u03c4\u03b1\u03cd\u03c1\u03bf\u03c2"}}, {"type": "node", "id": 7852184885, "lat": 37.4936218, "lon": 21.6161064, "tags": {"amenity": "restaurant", "cuisine": "greek", "name": "\u03a4\u03b1 \u03a0\u03b5\u03c5\u03ba\u03b1", "name:el": "\u03a4\u03b1 \u03a0\u03b5\u03c5\u03ba\u03b1", "name:en": "Ta Pevka"}}, {"type": "node", "id": 7852529485, "lat": 37.7007555, "lon": 21.7910285, "tags": {"amenity": "cafe"}}, {"type": "node", "id": 7852533985, "lat": 37.7006052, "lon": 21.7914301, "tags": {"amenity": "cafe"}}, {"type": "node", "id": 7886623413, "lat": 37.4332603, "lon": 21.6582605, "tags": {"amenity": "restaurant", "cuisine": "regional", "name": "\u0391\u03c5\u03bb\u03ae", "phone": "+30 2625 061385"}}, {"type": "node", "id": 9026534623, "lat": 37.706938, "lon": 21.9216946, "tags": {"amenity": "cafe", "name": "\u03bf \u03a3\u03ba\u03bf\u03bd\u03af\u03c4\u03c3\u03b1\u03c2"}}, {"type": "node", "id": 9127907018, "lat": 37.5954147, "lon": 22.0393047, "tags": {"amenity": "cafe", "name:en": "Aroma Plateias"}}, {"type": "node", "id": 9198121148, "lat": 37.6453169, "lon": 21.6255956, "tags": {"amenity": "restaurant", "cuisine": "regional", "email": "pheidiasgh@gmail.com", "name": "Pheidias Grill House", "phone": "+302624023880", "website": "https://www.instagram.com/pheidias_grill_house/"}}, {"type": "node", "id": 9550259472, "lat": 37.7291739, "lon": 21.956743}, {"type": "node", "id": 9550259473, "lat": 37.7291193, "lon": 21.9567406}, {"type": "node", "id": 9550259474, "lat": 37.7291163, "lon": 21.9568502}, {"type": "node", "id": 9550259475, "lat": 37.7290272, "lon": 21.9568462}, {"type": "node", "id": 9550259476, "lat": 37.7290238, "lon": 21.9569657}, {"type": "node", "id": 9550259477, "lat": 37.7290855, "lon": 21.9569685}, {"type": "node", "id": 9550259478, "lat": 37.7290841, "lon": 21.957018}, {"type": "node", "id": 9550259479, "lat": 37.7291578, "lon": 21.9570213}, {"type": "node", "id": 9550259480, "lat": 37.7291592, "lon": 21.9569701}, {"type": "node", "id": 9550259481, "lat": 37.7292166, "lon": 21.9569726}, {"type": "node", "id": 9550259482, "lat": 37.7292202, "lon": 21.956845}, {"type": "node", "id": 9550259483, "lat": 37.7291711, "lon": 21.9568428}, {"type": "node", "id": 9587466214, "lat": 37.5597228, "lon": 22.0353988}, {"type": "node", "id": 9587466215, "lat": 37.5597803, "lon": 22.0351866}, {"type": "node", "id": 9587466216, "lat": 37.5596353, "lon": 22.035124}, {"type": "node", "id": 9587506817, "lat": 37.5595777, "lon": 22.0353361}, {"type": "node", "id": 9587507023, "lat": 37.5597413, "lon": 22.0350386, "tags": {"amenity": "restaurant", "name": "\u0396\u03ad\u03c1\u03b6\u03bf\u03b2\u03b1"}}, {"type": "node", "id": 9689522417, "lat": 37.4849795, "lon": 22.0422147, "tags": {"amenity": "restaurant", "check_date": "2024-11-10", "name": "\u0391\u03c1\u03ba\u03c4\u03bf\u03c2", "name:el": "\u0391\u03c1\u03ba\u03c4\u03bf\u03c2", "name:en": "Arktos", "outdoor_seating": "yes"}}, {"type": "node", "id": 9761166225, "lat": 37.4836621, "lon": 21.906624, "tags": {"amenity": "cafe", "internet_access": "wlan", "name": "\u039a\u03cc\u03ba\u03ba\u03b9\u03bd\u03bf\u03c2 \u039c\u03cd\u03bb\u03bf\u03c2", "outdoor_seating": "yes"}}, {"type": "node", "id": 9761166229, "lat": 37.4822205, "lon": 21.9129913, "tags": {"amenity": "cafe"}}, {"type": "node", "id": 9762078829, "lat": 37.4838689, "lon": 21.90438, "tags": {"amenity": "restaurant", "name": "\u0395\u03c3\u03c4\u03b9\u03b1\u03c4\u03cc\u03c1\u03b9\u03bf", "outdoor_seating": "yes"}}, {"type": "node", "id": 9762078833, "lat": 37.4420207, "lon": 21.7741514, "tags": {"amenity": "cafe", "outdoor_seating": "yes"}}, {"type": "node", "id": 9762078839, "lat": 37.4417699, "lon": 21.7742559, "tags": {"amenity": "cafe", "internet_access": "wlan", "name": "\u039c\u03c0\u03b5\u03bd\u03b1\u03ba\u03b7\u03c2", "outdoor_seating": "yes"}}, {"type": "node", "id": 9762078847, "lat": 37.4839258, "lon": 21.9059464, "tags": {"amenity": "cafe", "outdoor_seating": "yes"}}, {"type": "node", "id": 9762078857, "lat": 37.484018, "lon": 21.9054489, "tags": {"amenity": "restaurant", "outdoor_seating": "yes"}}, {"type": "node", "id": 9762078876, "lat": 37.4840481, "lon": 21.9046695, "tags": {"amenity": "cafe", "name": "\u0391\u03c1\u03c9\u03bc\u03b1 \u0395\u03c0\u03bf\u03ba\u03ae\u03c2", "outdoor_seating": "yes"}}, {"type": "node", "id": 9762078884, "lat": 37.4381138, "lon": 21.8309222, "tags": {"amenity": "restaurant", "outdoor_seating": "yes"}}, {"type": "node", "id": 9763849279, "lat": 37.4841129, "lon": 21.6485875, "tags": {"amenity": "cafe"}}, {"type": "node", "id": 9764061473, "lat": 37.4419483, "lon": 21.7742562, "tags": {"amenity": "cafe", "name": "\u0397 \u03a0\u03bb\u03b1\u03c4\u03b5\u03af\u03b1"}}, {"type": "node", "id": 9764061476, "lat": 37.4419918, "lon": 21.7725125, "tags": {"amenity": "cafe", "name": "Ada Ms", "outdoor_seating": "yes"}}, {"type": "node", "id": 9764061484, "lat": 37.4418165, "lon": 21.7712542, "tags": {"amenity": "cafe", "internet_access": "wlan", "name": "Centro", "outdoor_seating": "yes"}}, {"type": "node", "id": 9764061487, "lat": 37.4422515, "lon": 21.7731175, "tags": {"amenity": "cafe", "outdoor_seating": "yes"}}, {"type": "node", "id": 9764061488, "lat": 37.4422236, "lon": 21.7709558, "tags": {"amenity": "restaurant", "int_name": "Panorama", "internet_access": "wlan", "name": "\u03a0\u03b1\u03bd\u03cc\u03c1\u03b1\u03bc\u03b1", "outdoor_seating": "yes"}}, {"type": "node", "id": 9764451941, "lat": 37.4403131, "lon": 21.7534826, "tags": {"amenity": "cafe", "name": "\u039f \u039d\u03b9\u03ba\u03bf\u03c2"}}, {"type": "node", "id": 9764485321, "lat": 37.4130652, "lon": 21.6725729, "tags": {"amenity": "cafe", "internet_access": "wlan", "outdoor_seating": "yes"}}, {"type": "node", "id": 9764743900, "lat": 37.4371441, "lon": 21.7208266, "tags": {"amenity": "cafe", "internet_access": "wlan", "name": "\u03a0\u1f71\u03bb\u03c3\u03b1\u03c1", "outdoor_seating": "yes"}}, {"type": "node", "id": 9766385766, "lat": 37.5443691, "lon": 21.5974318, "tags": {"amenity": "cafe", "internet_access": "wlan", "name": "\u03a0\u03ac\u03b3\u03ba\u03b1\u03bb\u03bf\u03c2", "outdoor_seating": "yes", "phone": "+30 2625 071298"}}, {"type": "node", "id": 9767686759, "lat": 37.4561236, "lon": 21.6453141, "tags": {"amenity": "restaurant", "cuisine": "regional", "name": "\u039f \u0393\u03b9\u03b1\u03c4\u03c1\u03cc\u03c2 \u03c4\u03b7\u03c2 \u03c0\u03b5\u03af\u03bd\u03b1\u03c2", "name:el": "\u039f \u0393\u03b9\u03b1\u03c4\u03c1\u03cc\u03c2 \u03c4\u03b7\u03c2 \u03c0\u03b5\u03af\u03bd\u03b1\u03c2", "name:en": "The Doctor Of Hunger"}}, {"type": "node", "id": 9767778318, "lat": 37.5448198, "lon": 21.5959749, "tags": {"amenity": "cafe", "outdoor_seating": "yes"}}, {"type": "node", "id": 9796123517, "lat": 37.6538501, "lon": 21.9316425}, {"type": "node", "id": 9796123518, "lat": 37.6538503, "lon": 21.931733}, {"type": "node", "id": 9796123519, "lat": 37.653742, "lon": 21.9317333}, {"type": "node", "id": 9796123520, "lat": 37.6537419, "lon": 21.9316428}, {"type": "node", "id": 9798675175, "lat": 37.5974779, "lon": 21.9667819, "tags": {"amenity": "cafe"}}, {"type": "node", "id": 9832486307, "lat": 37.4818702, "lon": 21.6496917, "tags": {"amenity": "cafe"}}, {"type": "node", "id": 9835666666, "lat": 37.4935328, "lon": 21.6180015, "tags": {"amenity": "restaurant", "name": "\u03a3\u03c4\u03c1\u03bf\u03c6\u03c5\u03bb\u03b9\u03ac"}}, {"type": "node", "id": 9838494918, "lat": 37.4550829, "lon": 21.6844763, "tags": {"amenity": "restaurant", "name": "\u039f \u0391\u0393\u0393\u0395\u039b\u039f\u03a3"}}, {"type": "node", "id": 9910992630, "lat": 37.6447421, "lon": 21.6129447, "tags": {"amenity": "restaurant"}}, {"type": "node", "id": 9911014368, "lat": 37.6461376, "lon": 21.6133524, "tags": {"amenity": "restaurant"}}, {"type": "node", "id": 9945450917, "lat": 37.6416203, "lon": 21.6287224, "tags": {"amenity": "cafe", "outdoor_seating": "yes"}}, {"type": "node", "id": 9953133581, "lat": 37.6453549, "lon": 21.6253274, "tags": {"addr:city": "\u0391\u03c1\u03c7\u03b1\u03af\u03b1 \u039f\u03bb\u03c5\u03bc\u03c0\u03af\u03b1", "addr:housenumber": "59", "addr:postcode": "27065", "addr:street": "\u03a0\u03c1\u03b1\u03be\u03b9\u03c4\u03ad\u03bb\u03b7 \u039a\u03bf\u03bd\u03b4\u03cd\u03bb\u03b7", "amenity": "restaurant", "name": "Zeus", "phone": "+30 2624 023913", "website": "https://zeus-restaurant-cafe-bar.business.site/"}}, {"type": "node", "id": 9964088636, "lat": 37.5829723, "lon": 22.0471081, "tags": {"amenity": "cafe", "name": "\u039a\u03c5\u03bb\u03b9\u03ba\u03b5\u03af\u03bf", "outdoor_seating": "yes"}}, {"type": "node", "id": 9964210211, "lat": 37.6448787, "lon": 21.6534758, "tags": {"amenity": "cafe"}}, {"type": "node", "id": 9972636465, "lat": 37.6474028, "lon": 21.6836914, "tags": {"amenity": "restaurant"}}, {"type": "node", "id": 10052210994, "lat": 37.6449456, "lon": 21.62624, "tags": {"addr:city": "\u0391\u03c1\u03c7\u03b1\u03af\u03b1 \u039f\u03bb\u03c5\u03bc\u03c0\u03af\u03b1", "addr:postcode": "27065", "addr:street": "\u0394\u03bf\u03cd\u03bc\u03b1 & 3\u03b7\u03c2 \u03a0\u03b5\u03c1\u03b9\u03c6\u03b5\u03c1\u03b5\u03b9\u03b1\u03ba\u03ae\u03c2", "amenity": "restaurant", "cuisine": "greek", "name": "\u03a0\u03bf\u03bb\u03cd\u03b3\u03b5\u03c5\u03c3\u03c4\u03bf\u03bd", "phone": "+30 2624 029181", "website": "https://rodopolygefston.com/services-polygefston/"}}, {"type": "node", "id": 10053905622, "lat": 37.6432429, "lon": 21.6298594, "tags": {"amenity": "cafe", "indoor_seating": "yes", "outdoor_seating": "yes"}}, {"type": "node", "id": 10053905623, "lat": 37.6449055, "lon": 21.626781, "tags": {"addr:city": "\u0391\u03c1\u03c7\u03b1\u03af\u03b1 \u039f\u03bb\u03c5\u03bc\u03c0\u03af\u03b1", "addr:postcode": "27065", "addr:street": "\u0394\u03bf\u03cd\u03bc\u03b1 & 3\u03b7\u03c2 \u03a0\u03b5\u03c1\u03b9\u03c6\u03b5\u03c1\u03b5\u03b9\u03b1\u03ba\u03ae\u03c2", "amenity": "restaurant", "name": "\u0394\u03ae\u03bc\u03b7\u03c4\u03c1\u03b1", "phone": "+30 2624 029183", "website": "https://restaurantdimitra.business.site/"}}, {"type": "node", "id": 10289171003, "lat": 37.5956531, "lon": 22.0396361, "tags": {"addr:city": "\u0394\u03b7\u03bc\u03b7\u03c4\u03c3\u03ac\u03bd\u03b1", "addr:postcode": "22007", "amenity": "cafe", "name": "4 \u03b5\u03c0\u03bf\u03c7\u03ad\u03c2", "phone": "=302795031599"}}, {"type": "node", "id": 10996137991, "lat": 37.7671517, "lon": 21.859652, "tags": {"amenity": "restaurant", "cuisine": "greek", "internet_access": "wlan", "name": "\u039f \u0391\u03c1\u03ac\u03c0\u03b7\u03c2", "operator": "\u03a0\u03b1\u03c0\u03b1\u03bd\u03b1\u03c3\u03c4\u03b1\u03c3\u03b9\u03bf\u03c5\u03bb\u03bf\u03c2 \u039a\u03c9\u03bd\u03c3\u03c4\u03b1\u03bd\u03c4\u03b9\u03bd\u03bf\u03c2 \u03a7\u03c1\u03b9\u03c3\u03c4\u03bf\u03c2", "outdoor_seating": "yes", "phone": "+30 2797 023222", "takeaway": "yes", "toilets": "yes", "wheelchair": "no"}}, {"type": "node", "id": 11110076273, "lat": 37.5903215, "lon": 22.0236894, "tags": {"amenity": "restaurant", "cuisine": "greek", "name": "\u039f\u03cd \u03bc\u03c0\u03bb\u03ad\u03be\u03b5\u03b9\u03c2", "outdoor_seating": "yes"}}, {"type": "node", "id": 11110466955, "lat": 37.6924533, "lon": 21.9756545}, {"type": "node", "id": 11110466958, "lat": 37.6925229, "lon": 21.9755611}, {"type": "node", "id": 11110466959, "lat": 37.6923905, "lon": 21.9756606}, {"type": "node", "id": 11110466961, "lat": 37.6923835, "lon": 21.9755785}, {"type": "node", "id": 11110466963, "lat": 37.6925274, "lon": 21.9756432}, {"type": "node", "id": 11417568415, "lat": 37.6472096, "lon": 21.6840485}, {"type": "node", "id": 11417568420, "lat": 37.6472685, "lon": 21.6841925}, {"type": "node", "id": 11417568427, "lat": 37.6473488, "lon": 21.684285}, {"type": "node", "id": 11417568467, "lat": 37.6474024, "lon": 21.68425}, {"type": "node", "id": 11417611659, "lat": 37.6474431, "lon": 21.6843496}, {"type": "node", "id": 11417611921, "lat": 37.647302, "lon": 21.6841706}, {"type": "node", "id": 11417611925, "lat": 37.6473773, "lon": 21.6839392}, {"type": "node", "id": 11432331368, "lat": 37.4847423, "lon": 22.0417534, "tags": {"addr:city": "\u039a\u03b1\u03c1\u03cd\u03c4\u03b1\u03b9\u03bd\u03b1", "addr:postcode": "22022", "amenity": "restaurant", "check_date": "2024-11-10", "cuisine": "greek", "name": "\u03a4\u03bf \u039a\u03ac\u03c3\u03c4\u03c1\u03bf", "operator": "\u03a0\u03bf\u03bb\u03bb\u03ac\u03bb\u03b7\u03c2 \u03a7\u03b1\u03c1\u03ac\u03bb\u03b1\u03bc\u03c0\u03bf\u03c2", "outdoor_seating": "yes", "ref:vatin": "EL070495175"}}, {"type": "node", "id": 11657947289, "lat": 37.6822283, "lon": 22.0315307, "tags": {"amenity": "restaurant", "wikimedia_commons": "File:Lagadia restaurant 20230923 171543.jpg"}}, {"type": "node", "id": 11657947328, "lat": 37.6818133, "lon": 22.0296136, "tags": {"amenity": "restaurant", "name": "Maniatis Restaurant", "wikimedia_commons": "File:Lagadia restaurant 20230923 170847.jpg"}}, {"type": "node", "id": 11954291771, "lat": 37.5951088, "lon": 22.0395203, "tags": {"amenity": "restaurant"}}, {"type": "node", "id": 11954291772, "lat": 37.5956723, "lon": 22.039277, "tags": {"amenity": "cafe", "name:en": "Arcadian"}}, {"type": "node", "id": 11954291774, "lat": 37.59578, "lon": 22.0395417, "tags": {"amenity": "cafe", "name": "R4 Adaios", "name:en": "R4 Adaios"}}, {"type": "node", "id": 11954292269, "lat": 37.5951922, "lon": 22.039564, "tags": {"amenity": "cafe", "cuisine": "coffee_shop;pancake;tea", "name:en": "Monasty Coffee & Wine"}}, {"type": "node", "id": 11954292270, "lat": 37.5957178, "lon": 22.0393944, "tags": {"amenity": "cafe", "name": "\u0391\u03bd\u03c4\u03af\u03ba\u03b1", "name:el": "\u0391\u03bd\u03c4\u03af\u03ba\u03b1", "name:en": "Antika cafe", "outdoor_seating": "yes", "phone": "+302795031297", "ref:vatin": "EL075884864"}}, {"type": "node", "id": 11954292271, "lat": 37.5957943, "lon": 22.039626, "tags": {"amenity": "restaurant", "name": "Sto Kioupi"}}, {"type": "node", "id": 11954612126, "lat": 37.5980751, "lon": 22.04109, "tags": {"amenity": "restaurant", "name": "\u0397 \u0394\u03b7\u03bc\u03b7\u03c4\u03c3\u03b1\u03bd\u03b1"}}, {"type": "node", "id": 11961182169, "lat": 37.6440151, "lon": 21.6256218, "tags": {"amenity": "cafe"}}, {"type": "node", "id": 12192832767, "lat": 37.5509804, "lon": 21.8201544, "tags": {"amenity": "restaurant"}}, {"type": "node", "id": 12192841500, "lat": 37.5509737, "lon": 21.8208598, "tags": {"amenity": "cafe"}}, {"type": "node", "id": 12749689888, "lat": 37.5923914, "lon": 21.6205428, "tags": {"amenity": "restaurant", "cuisine": "greek", "name": "\u03a3\u03c4\u03c1\u03ac\u03c4\u03b1", "outdoor_seating": "yes", "takeaway": "yes", "toilets": "yes", "wheelchair": "limited"}}, {"type": "way", "id": 124427659, "nodes": [1385047605, 1385047611, 1385047607, 5075507598, 5075507599, 5075507600, 5075507601, 1385047601, 1385047605], "tags": {"amenity": "restaurant", "building": "yes", "name": "The Garden", "source": "Bing"}}, {"type": "way", "id": 321104180, "nodes": [3278222479, 3278222480, 3278222481, 3278222482, 3278222479], "tags": {"amenity": "cafe", "cuisine": "greek", "internet_access": "wlan", "smoking": "yes", "wheelchair": "limited"}}, {"type": "way", "id": 536519630, "nodes": [5197201502, 5197201503, 5197201504, 5197201505, 5197201506, 5197201507, 5197201509, 5197201508, 5197201502], "tags": {"amenity": "restaurant", "building": "yes", "internet_access": "wlan", "name": "\u03a4\u03bf \u03a3\u03c4\u03b1\u03c5\u03c1\u03bf\u03b4\u03c1\u03cc\u03bc\u03b9", "outdoor_seating": "yes"}}, {"type": "way", "id": 653624610, "nodes": [6125442838, 6125442837, 6125442836, 6125442835, 6125442834, 6125442833, 6125442838], "tags": {"amenity": "restaurant", "building": "yes", "cuisine": "greek", "name": "\u03a4\u039f \u03a3\u03a4\u0395\u039a\u0399 \u03a4\u039f\u03a5 \u039c\u0399\u039b\u03a4\u039f\u03a5"}}, {"type": "way", "id": 1036619327, "nodes": [9550259472, 9550259473, 9550259474, 9550259475, 9550259476, 9550259477, 9550259478, 9550259479, 9550259480, 9550259481, 9550259482, 9550259483, 9550259472], "tags": {"amenity": "restaurant", "building": "yes", "cuisine": "greek", "name": "\u03a4\u03bf \u03a0\u03ad\u03c4\u03c1\u03b9\u03bd\u03bf", "outdoor_seating": "yes", "phone": "+30 2797 022697", "takeaway": "yes", "toilets": "yes", "toilets:wheelchair": "yes", "website": "https://www.facebook.com/topetrino17/"}}, {"type": "way", "id": 1041394822, "nodes": [9587466214, 9587466215, 9587466216, 9587506817, 9587466214], "tags": {"amenity": "restaurant", "building": "yes", "name": "\u0396\u03ad\u03c1\u03b6\u03bf\u03b2\u03b1"}}, {"type": "way", "id": 1066851151, "nodes": [9796123517, 9796123518, 9796123519, 9796123520, 9796123517], "tags": {"amenity": "cafe", "building": "yes"}}, {"type": "way", "id": 1197494942, "nodes": [11110466958, 11110466961, 11110466959, 11110466955, 11110466963, 11110466958], "tags": {"amenity": "restaurant", "building": "yes", "cuisine": "barbecue;greek", "name": "\u03a4\u03bf \u03a3\u03c7\u03bf\u03bb\u03b5\u03af\u03bf 1866", "outdoor_seating": "yes", "toilets": "yes"}}, {"type": "way", "id": 1231124994, "nodes": [11417611925, 11417568415, 11417568420, 11417611921, 11417568427, 11417568467, 11417611659, 4612541089, 11417611925], "tags": {"addr:housenumber": "0", "addr:postcode": "27065", "addr:street": "\u03a0\u03b1\u03bb\u03b1\u03b9\u03ac \u0395\u03b8\u03bd\u03b9\u03ba\u03ae \u039f\u03b4\u03cc\u03c2 74", "amenity": "restaurant", "building": "yes", "cuisine": "greek", "internet_access": "wlan", "name": "\u03a4\u03bf \u03c3\u03c0\u03b9\u03c4\u03b9\u03ba\u03cc \u03c4\u03b7\u03c2 \u03a6\u03bf\u03c4\u03b5\u03b9\u03bd\u03ae\u03c2", "name:de": "To Spitiko tis Fotinis", "name:el": "\u03a4\u03bf \u03c3\u03c0\u03b9\u03c4\u03b9\u03ba\u03cc \u03c4\u03b7\u03c2 \u03a6\u03bf\u03c4\u03b5\u03b9\u03bd\u03ae\u03c2", "name:en": "The house of Fotini", "opening_hours": "Mo-Su 12:00-00:00", "phone": "00302624022433", "source": "microsoft/BuildingFootprints"}}]}