{"version": 0.6, "generator": "Overpass API 0.7.62.7 375dc00a", "osm3s": {"timestamp_osm_base": "2025-06-14T13:07:51Z", "copyright": "The data included in this document is from www.openstreetmap.org. The data is made available under ODbL."}, "elements": [{"type": "node", "id": 2453679845, "lat": 7.4189015, "lon": 3.9108621, "tags": {"amenity": "restaurant", "cuisine": "regional", "name": "Mr Bigs"}}, {"type": "node", "id": 2453679847, "lat": 7.4219761, "lon": 3.9103846, "tags": {"amenity": "restaurant", "name": "Tantalizers"}}, {"type": "node", "id": 2639256408, "lat": 7.3667717, "lon": 3.8605083, "tags": {"addr:city": "Ibadan", "addr:street": "Alaafin Avenue", "amenity": "restaurant", "name": "Mr Biggs"}}, {"type": "node", "id": 2639256412, "lat": 7.4005054, "lon": 3.8904498, "tags": {"addr:city": "Mokola, Ibadam", "amenity": "restaurant", "name": "Mr Biggs"}}, {"type": "node", "id": 2883203615, "lat": 7.438318, "lon": 3.8947412, "tags": {"amenity": "restaurant", "cuisine": "regional", "internet_access": "no", "name": "U&I", "operator": "University of Ibadan", "smoking": "no"}}, {"type": "node", "id": 3085023329, "lat": 7.3777827, "lon": 3.9028278, "tags": {"amenity": "restaurant", "name": "Bukateria"}}, {"type": "node", "id": 3085040768, "lat": 7.3671455, "lon": 3.9001585, "tags": {"amenity": "restaurant", "name": "Fast Food"}}, {"type": "node", "id": 3085040942, "lat": 7.3676661, "lon": 3.8981104, "tags": {"amenity": "restaurant"}}, {"type": "node", "id": 5762311048, "lat": 7.3923799, "lon": 3.9611646}, {"type": "node", "id": 5762311049, "lat": 7.3923347, "lon": 3.9612813}, {"type": "node", "id": 5762311050, "lat": 7.3921512, "lon": 3.9611874}, {"type": "node", "id": 5762311051, "lat": 7.3921857, "lon": 3.9610855}, {"type": "node", "id": 6137116552, "lat": 7.4009014, "lon": 3.8936395, "tags": {"addr:city": "Ibadan", "addr:postcode": "234102", "addr:street": "Queen Elizabeth II Road", "amenity": "restaurant", "capacity": "50", "cuisine": "pizza;french;regional", "delivery": "yes", "name": "LADE'S CUISINE", "opening_hours": "Mo-Su 09:00-21:00", "takeaway": "yes"}}, {"type": "node", "id": 7109128187, "lat": 7.4156183, "lon": 3.9153309, "tags": {"amenity": "restaurant", "cuisine": "chinese", "name": "Ibachi"}}, {"type": "node", "id": 7109303287, "lat": 7.4187154, "lon": 3.9145002, "tags": {"amenity": "restaurant", "name": "Oliver's cafe"}}, {"type": "node", "id": 7900756714, "lat": 7.4171043, "lon": 3.9105586}, {"type": "node", "id": 7900756715, "lat": 7.4171012, "lon": 3.9106157}, {"type": "node", "id": 7900756716, "lat": 7.4169866, "lon": 3.9106093}, {"type": "node", "id": 7900756717, "lat": 7.417108, "lon": 3.9104975}, {"type": "node", "id": 7900756718, "lat": 7.4171044, "lon": 3.9105499}, {"type": "node", "id": 7900756719, "lat": 7.4169772, "lon": 3.9105565}, {"type": "node", "id": 7900756720, "lat": 7.4169817, "lon": 3.9104888}, {"type": "node", "id": 8479716525, "lat": 7.3876988, "lon": 3.8915993, "tags": {"addr:city": "Ibadan", "addr:housenumber": "6", "addr:street": "MKO Abiola Way", "amenity": "restaurant", "cuisine": "fish_and_chips;international", "name": "Stone Caf\u00e9 Bar & Grill", "opening_hours": "24/7", "phone": "+2349027727773", "website": "https://www.instagram.com/stonecafeibadan/"}}, {"type": "node", "id": 9899611227, "lat": 7.5971981, "lon": 3.7317575, "tags": {"amenity": "restaurant", "source": "nigeriase4all.gov.ng", "source:date": "2022"}}, {"type": "node", "id": 11904282706, "lat": 7.4328497, "lon": 3.9427164, "tags": {"addr:city": "Ibadan", "addr:postcode": "200222", "addr:street": "Iyana Olopa, Akobo", "amenity": "restaurant", "name": "BiteMore Akobo", "opening_hours": "Mo-Su 09:00-22:00"}}, {"type": "node", "id": 11904302798, "lat": 7.4336631, "lon": 3.9434411, "tags": {"addr:city": "Ibadan", "addr:postcode": "200222", "addr:street": "Iyana-Olopa, Akobo", "amenity": "restaurant", "cuisine": "chicken;ice_cream;donut", "name": "Chicken Republic, Akobo", "opening_hours": "Mo-Su 09:00-22:00"}}, {"type": "node", "id": 11923615507, "lat": 7.4169894, "lon": 3.9105573}, {"type": "node", "id": 11923615508, "lat": 7.4171038, "lon": 3.9105586}, {"type": "way", "id": 608141740, "nodes": [5762311048, 5762311049, 5762311050, 5762311051, 5762311048], "tags": {"addr:city": "Ibadan", "addr:street": "Old Ife Road", "amenity": "restaurant", "building": "yes", "name": "MR BIGGS"}}, {"type": "way", "id": 846775519, "nodes": [7900756717, 7900756718, 11923615508, 7900756714, 7900756715, 7900756716, 11923615507, 7900756719, 7900756720, 7900756717], "tags": {"amenity": "restaurant", "building": "commercial", "building:levels": "2", "level": "1", "name": "Platimum"}}]}