{"version": 0.6, "generator": "Overpass API 0.7.62.7 375dc00a", "osm3s": {"timestamp_osm_base": "2025-06-14T13:55:30Z", "copyright": "The data included in this document is from www.openstreetmap.org. The data is made available under ODbL."}, "elements": [{"type": "node", "id": 24985804, "lat": 41.1639717, "lon": 14.8925471, "tags": {"amenity": "restaurant", "name": "La Stella"}}, {"type": "node", "id": 305283305, "lat": 40.9931706, "lon": 14.7226163, "tags": {"amenity": "restaurant", "name": "La Lanternina"}}, {"type": "node", "id": 406724177, "lat": 40.98385, "lon": 14.7272522, "tags": {"amenity": "restaurant", "name": "Il Buongustaio"}}, {"type": "node", "id": 488870460, "lat": 40.8318056, "lon": 14.5881482, "tags": {"amenity": "restaurant", "name": "Santa Maria"}}, {"type": "node", "id": 659297125, "lat": 41.0680845, "lon": 14.8504811, "tags": {"amenity": "cafe", "name": "Morelli"}}, {"type": "node", "id": 695194116, "lat": 41.0528779, "lon": 14.856208, "tags": {"amenity": "cafe", "name": "GheryBar"}}, {"type": "node", "id": 695305302, "lat": 41.0882741, "lon": 14.5038826, "tags": {"addr:city": "Sant'Agata de' Goti", "addr:postcode": "82030", "addr:street": "Piazza Castello", "amenity": "restaurant", "name": "Fiore 1985"}}, {"type": "node", "id": 695418360, "lat": 41.0838922, "lon": 14.5003163, "tags": {"addr:street": "Via Sant' Antonio Abate", "amenity": "restaurant", "cuisine": "pizza", "name": "La Lampara"}}, {"type": "node", "id": 695422728, "lat": 41.0894931, "lon": 14.5019385, "tags": {"addr:city": "Sant'Agata de' Goti", "addr:postcode": "82030", "addr:street": "Via Panoramica", "amenity": "restaurant", "cuisine": "pizza", "name": "Park Side - Pub"}}, {"type": "node", "id": 920368573, "lat": 40.9273744, "lon": 14.5799558, "tags": {"amenity": "cafe", "name": "Pasticceria Mascolo"}}, {"type": "node", "id": 925435224, "lat": 41.2046326, "lon": 14.5693562, "tags": {"amenity": "restaurant", "cuisine": "pizza"}}, {"type": "node", "id": 1240414585, "lat": 40.8278539, "lon": 14.4835957, "tags": {"amenity": "restaurant", "name": "Il Falangone"}}, {"type": "node", "id": 1335003918, "lat": 40.9331412, "lon": 14.740867, "tags": {"amenity": "restaurant", "cuisine": "regional"}}, {"type": "node", "id": 1632899711, "lat": 41.0304468, "lon": 14.5247318, "tags": {"amenity": "cafe"}}, {"type": "node", "id": 1669305263, "lat": 40.9064731, "lon": 14.7498633, "tags": {"amenity": "restaurant", "cuisine": "italian", "name": "Le Sirene", "wheelchair": "yes"}}, {"type": "node", "id": 1691890194, "lat": 40.9305063, "lon": 14.4882202, "tags": {"amenity": "restaurant", "name": "Il Cavallino"}}, {"type": "node", "id": 1747847124, "lat": 40.9741868, "lon": 14.5392554, "tags": {"amenity": "restaurant", "cuisine": "italian", "description": "Ristorante pizzeria", "name": "Fellino"}}, {"type": "node", "id": 1803706605, "lat": 40.9148354, "lon": 14.8106139}, {"type": "node", "id": 1924180276, "lat": 41.1422906, "lon": 14.4985441}, {"type": "node", "id": 1924180279, "lat": 41.1423603, "lon": 14.4987036}, {"type": "node", "id": 1924180280, "lat": 41.1423976, "lon": 14.4984617}, {"type": "node", "id": 1924180281, "lat": 41.1424673, "lon": 14.4986211}, {"type": "node", "id": 1952218042, "lat": 41.1733436, "lon": 14.6074798, "tags": {"addr:city": "Vitulano", "amenity": "restaurant", "cuisine": "italian", "name": "Rifugio", "operator": "Aperto da giugno a novembre"}}, {"type": "node", "id": 1962425669, "lat": 40.9088129, "lon": 14.8006695, "tags": {"amenity": "cafe", "cuisine": "coffee_shop"}}, {"type": "node", "id": 1962663383, "lat": 40.9135143, "lon": 14.7914941, "tags": {"amenity": "cafe", "cuisine": "coffee_shop", "name": "Caff\u00e8 da Mim\u00ec"}}, {"type": "node", "id": 1962663384, "lat": 40.914106, "lon": 14.7918548, "tags": {"amenity": "cafe", "cuisine": "coffee_shop", "name": "Caff\u00e8 Plaza"}}, {"type": "node", "id": 1968186228, "lat": 40.9281974, "lon": 14.7895139}, {"type": "node", "id": 1968186233, "lat": 40.9282553, "lon": 14.789471}, {"type": "node", "id": 1968186237, "lat": 40.9281578, "lon": 14.7894629}, {"type": "node", "id": 1968186238, "lat": 40.9281487, "lon": 14.7893691}, {"type": "node", "id": 1968186243, "lat": 40.9281852, "lon": 14.7894294}, {"type": "node", "id": 1968186249, "lat": 40.9281842, "lon": 14.7893409}, {"type": "node", "id": 1968186254, "lat": 40.9281811, "lon": 14.7893194}, {"type": "node", "id": 1968186257, "lat": 40.9282146, "lon": 14.7893744}, {"type": "node", "id": 1968186258, "lat": 40.9282065, "lon": 14.7893168}, {"type": "node", "id": 1970094686, "lat": 40.9184672, "lon": 14.7774393, "tags": {"amenity": "cafe", "cuisine": "pizza", "name": "Punto Caff\u00e8"}}, {"type": "node", "id": 1976711306, "lat": 40.9076801, "lon": 14.766149}, {"type": "node", "id": 1976711311, "lat": 40.9077166, "lon": 14.7661049}, {"type": "node", "id": 1976711313, "lat": 40.9077816, "lon": 14.7662959}, {"type": "node", "id": 1976711334, "lat": 40.9078181, "lon": 14.7662518}, {"type": "node", "id": 1976739066, "lat": 40.9077354, "lon": 14.766132}, {"type": "node", "id": 1976739069, "lat": 40.9077973, "lon": 14.7662217}, {"type": "node", "id": 1977905125, "lat": 40.9133714, "lon": 14.7661872}, {"type": "node", "id": 1977905127, "lat": 40.913396, "lon": 14.7664522}, {"type": "node", "id": 1977905129, "lat": 40.9134761, "lon": 14.7661701}, {"type": "node", "id": 1977905131, "lat": 40.9135007, "lon": 14.7664351}, {"type": "node", "id": 1991671557, "lat": 40.9182298, "lon": 14.7730338}, {"type": "node", "id": 1991671560, "lat": 40.9181848, "lon": 14.7730901}, {"type": "node", "id": 1991671572, "lat": 40.9182447, "lon": 14.772949}, {"type": "node", "id": 1991671576, "lat": 40.9182049, "lon": 14.7729988}, {"type": "node", "id": 1991671580, "lat": 40.9182204, "lon": 14.7731399}, {"type": "node", "id": 1991671583, "lat": 40.9183053, "lon": 14.7730338}, {"type": "node", "id": 1997829962, "lat": 41.1274113, "lon": 14.7836148}, {"type": "node", "id": 1997829967, "lat": 41.1274465, "lon": 14.7837612}, {"type": "node", "id": 1997829984, "lat": 41.1275467, "lon": 14.7835574}, {"type": "node", "id": 1997829989, "lat": 41.1275819, "lon": 14.7837039}, {"type": "node", "id": 2045480259, "lat": 41.1342989, "lon": 14.7792701, "tags": {"amenity": "restaurant", "cuisine": "italian", "name": "Con Gusto"}}, {"type": "node", "id": 2045480262, "lat": 41.1302271, "lon": 14.7820918, "tags": {"amenity": "restaurant", "cuisine": "italian;pizza", "name": "Il Tricorno"}}, {"type": "node", "id": 2045480263, "lat": 41.1311468, "lon": 14.7789638, "tags": {"amenity": "restaurant", "cuisine": "italian", "name": "La Bercia"}}, {"type": "node", "id": 2045480267, "lat": 41.1300973, "lon": 14.7764387, "tags": {"amenity": "restaurant", "cuisine": "italian", "name": "Trattoria Nunzia"}}, {"type": "node", "id": 2045480268, "lat": 41.132302, "lon": 14.7785228, "tags": {"amenity": "restaurant", "cuisine": "italian;pizza", "indoor_seating": "yes", "name": "Roseto all'arco", "outdoor_seating": "yes"}}, {"type": "node", "id": 2082769753, "lat": 40.9256191, "lon": 14.7834626, "tags": {"addr:street": "Area di Servizio Irpinia Sud", "amenity": "restaurant", "brand": "Autogrill", "brand:wikidata": "Q786790", "cuisine": "italian;regional", "name": "Autogrill", "operator": "Autogrill"}}, {"type": "node", "id": 2082779730, "lat": 40.9267453, "lon": 14.7826847}, {"type": "node", "id": 2082779731, "lat": 40.926576, "lon": 14.782853}, {"type": "node", "id": 2082779732, "lat": 40.9268684, "lon": 14.7829017}, {"type": "node", "id": 2082779733, "lat": 40.9266991, "lon": 14.78307}, {"type": "node", "id": 2084595493, "lat": 40.9163541, "lon": 14.801326, "tags": {"amenity": "cafe"}}, {"type": "node", "id": 2085990884, "lat": 40.9149208, "lon": 14.810545}, {"type": "node", "id": 2085990939, "lat": 40.9148362, "lon": 14.8106909}, {"type": "node", "id": 2085996725, "lat": 40.9149777, "lon": 14.8106808}, {"type": "node", "id": 2085996727, "lat": 40.9149718, "lon": 14.8105467}, {"type": "node", "id": 2189854975, "lat": 41.0449015, "lon": 14.9996934, "tags": {"amenity": "restaurant", "cuisine": "pizza", "name": "La Maddalena"}}, {"type": "node", "id": 2189866364, "lat": 41.0364943, "lon": 15.0313288}, {"type": "node", "id": 2189866365, "lat": 41.0367282, "lon": 15.0309153}, {"type": "node", "id": 2189866366, "lat": 41.0368673, "lon": 15.0316997}, {"type": "node", "id": 2189866367, "lat": 41.0371012, "lon": 15.0312862}, {"type": "node", "id": 2203458139, "lat": 40.9398069, "lon": 14.5230058, "tags": {"amenity": "cafe", "name": "Caff\u00e8 1951"}}, {"type": "node", "id": 2226195154, "lat": 40.8300513, "lon": 14.7562264, "tags": {"amenity": "restaurant", "name": "Country House Monte degli Ulivi"}}, {"type": "node", "id": 2246056723, "lat": 41.0464925, "lon": 14.8553504, "tags": {"addr:street": "Via Castello", "amenity": "restaurant", "cuisine": "regional", "name": "Il Castello", "old_name": "da Peppino"}}, {"type": "node", "id": 2257566645, "lat": 40.997541, "lon": 14.54346, "tags": {"amenity": "restaurant", "cuisine": "italian", "name": "Palazzo Saraceno"}}, {"type": "node", "id": 2280849450, "lat": 40.9387151, "lon": 14.8250306}, {"type": "node", "id": 2280849454, "lat": 40.9387053, "lon": 14.825267}, {"type": "node", "id": 2280849456, "lat": 40.9386411, "lon": 14.8252618}, {"type": "node", "id": 2280849459, "lat": 40.9386526, "lon": 14.8250262}, {"type": "node", "id": 2420526578, "lat": 41.0280385, "lon": 14.6403393}, {"type": "node", "id": 2421626860, "lat": 41.0278148, "lon": 14.640398}, {"type": "node", "id": 2421626891, "lat": 41.0279728, "lon": 14.6407919}, {"type": "node", "id": 2421626906, "lat": 41.0280835, "lon": 14.6409008}, {"type": "node", "id": 2421626917, "lat": 41.0281815, "lon": 14.6408841}, {"type": "node", "id": 2421626920, "lat": 41.0282289, "lon": 14.6411481}, {"type": "node", "id": 2421626930, "lat": 41.0283981, "lon": 14.641469}, {"type": "node", "id": 2421626954, "lat": 41.0286039, "lon": 14.6415069}, {"type": "node", "id": 2421626959, "lat": 41.0286435, "lon": 14.6406869}, {"type": "node", "id": 2421626962, "lat": 41.0286577, "lon": 14.6409215}, {"type": "node", "id": 2421626965, "lat": 41.0286767, "lon": 14.6404103}, {"type": "node", "id": 2421626991, "lat": 41.0288521, "lon": 14.6413574}, {"type": "node", "id": 2421626999, "lat": 41.0288896, "lon": 14.6414917}, {"type": "node", "id": 2421627017, "lat": 41.0289182, "lon": 14.6413848}, {"type": "node", "id": 2421627019, "lat": 41.0289516, "lon": 14.6414831}, {"type": "node", "id": 2432291540, "lat": 41.0217803, "lon": 14.59011, "tags": {"amenity": "cafe"}}, {"type": "node", "id": 2435908043, "lat": 41.027809, "lon": 14.6403241}, {"type": "node", "id": 2435908044, "lat": 41.0281184, "lon": 14.6404256}, {"type": "node", "id": 2638387794, "lat": 41.0628679, "lon": 14.5603826, "tags": {"addr:city": "Airola", "addr:postcode": "82011", "addr:street": "Via Lavatoio", "amenity": "restaurant"}}, {"type": "node", "id": 2638411740, "lat": 41.0612312, "lon": 14.5592676}, {"type": "node", "id": 2638411741, "lat": 41.061094, "lon": 14.5592508}, {"type": "node", "id": 2638411742, "lat": 41.0610879, "lon": 14.5593385}, {"type": "node", "id": 2638411743, "lat": 41.0610696, "lon": 14.5593362}, {"type": "node", "id": 2638411744, "lat": 41.0610652, "lon": 14.5593987}, {"type": "node", "id": 2638411745, "lat": 41.060979, "lon": 14.5593881}, {"type": "node", "id": 2638411746, "lat": 41.0609683, "lon": 14.5595404}, {"type": "node", "id": 2638411747, "lat": 41.0610464, "lon": 14.55955}, {"type": "node", "id": 2638411748, "lat": 41.0610407, "lon": 14.5596318}, {"type": "node", "id": 2638411749, "lat": 41.061155, "lon": 14.5596459}, {"type": "node", "id": 2638411750, "lat": 41.061144, "lon": 14.5598029}, {"type": "node", "id": 2638411751, "lat": 41.0612303, "lon": 14.5598136}, {"type": "node", "id": 2638411752, "lat": 41.0612411, "lon": 14.5596607}, {"type": "node", "id": 2638411753, "lat": 41.0612602, "lon": 14.5596631}, {"type": "node", "id": 2638411754, "lat": 41.0612815, "lon": 14.5593612}, {"type": "node", "id": 2638411755, "lat": 41.0612715, "lon": 14.5593016}, {"type": "node", "id": 2638411756, "lat": 41.0612292, "lon": 14.5592964}, {"type": "node", "id": 2663720260, "lat": 41.0560101, "lon": 14.5577643, "tags": {"amenity": "restaurant"}}, {"type": "node", "id": 2946224100, "lat": 41.1657309, "lon": 14.8965551, "tags": {"amenity": "restaurant", "cuisine": "italian", "name": "Gallo d'oro"}}, {"type": "node", "id": 3080540278, "lat": 41.100993, "lon": 14.8275459}, {"type": "node", "id": 3080540279, "lat": 41.101152, "lon": 14.8274769}, {"type": "node", "id": 3080540280, "lat": 41.101205, "lon": 14.8276919}, {"type": "node", "id": 3080540281, "lat": 41.1010979, "lon": 14.8277384}, {"type": "node", "id": 3080540282, "lat": 41.1010871, "lon": 14.8276945}, {"type": "node", "id": 3080540283, "lat": 41.1010352, "lon": 14.8277171}, {"type": "node", "id": 3080540459, "lat": 41.1035775, "lon": 14.8232183}, {"type": "node", "id": 3080540460, "lat": 41.1037545, "lon": 14.8235095}, {"type": "node", "id": 3080540461, "lat": 41.1036081, "lon": 14.8236662}, {"type": "node", "id": 3080540462, "lat": 41.1034311, "lon": 14.8233751}, {"type": "node", "id": 3080540463, "lat": 41.104469, "lon": 14.8220901}, {"type": "node", "id": 3080540464, "lat": 41.1046885, "lon": 14.8224781}, {"type": "node", "id": 3080540465, "lat": 41.1045594, "lon": 14.8226066}, {"type": "node", "id": 3080540466, "lat": 41.10434, "lon": 14.8222186}, {"type": "node", "id": 3100137036, "lat": 41.2110622, "lon": 14.5361183, "tags": {"addr:city": "Telese Terme", "addr:housenumber": "4", "addr:postcode": "82037", "addr:street": "Via Panoramica del Lago", "amenity": "restaurant", "name": "Ristorante del Lago"}}, {"type": "node", "id": 3174824003, "lat": 41.2149324, "lon": 14.697175, "tags": {"amenity": "restaurant", "name": "Zotti"}}, {"type": "node", "id": 3174824004, "lat": 41.214771, "lon": 14.69515, "tags": {"amenity": "restaurant", "name": "Pizzeria La Pergoletta"}}, {"type": "node", "id": 3174824028, "lat": 41.2136643, "lon": 14.6989948, "tags": {"amenity": "restaurant", "name": "Osteria Frangiosa"}}, {"type": "node", "id": 3177314857, "lat": 41.2357321, "lon": 14.7251042, "tags": {"amenity": "restaurant", "name": "Agiturismo TIM"}}, {"type": "node", "id": 3177416326, "lat": 41.2528558, "lon": 14.7331081, "tags": {"amenity": "restaurant", "name": "Agriturismo Fontana Puteta"}}, {"type": "node", "id": 3177416330, "lat": 41.2509397, "lon": 14.727652, "tags": {"amenity": "restaurant", "name": "Agriturismo La Botte"}}, {"type": "node", "id": 3177416335, "lat": 41.2530889, "lon": 14.7392966, "tags": {"amenity": "restaurant", "name": "Agriturismo Il Casone"}}, {"type": "node", "id": 3184689601, "lat": 41.2482428, "lon": 14.7470142, "tags": {"amenity": "restaurant", "name": "Agriturismo Nonna Cecilia"}}, {"type": "node", "id": 3184689647, "lat": 41.2174115, "lon": 14.704906, "tags": {"amenity": "restaurant", "name": "Al Rifugio"}}, {"type": "node", "id": 3206005554, "lat": 41.2002264, "lon": 14.4830283}, {"type": "node", "id": 3206005555, "lat": 41.20024, "lon": 14.4831732}, {"type": "node", "id": 3206005557, "lat": 41.2002957, "lon": 14.4830168}, {"type": "node", "id": 3206005558, "lat": 41.2003437, "lon": 14.4831559}, {"type": "node", "id": 3206005559, "lat": 41.2003505, "lon": 14.4832284}, {"type": "node", "id": 3206005661, "lat": 41.2004482, "lon": 14.4831306}, {"type": "node", "id": 3206005662, "lat": 41.2004558, "lon": 14.4832109}, {"type": "node", "id": 3206005663, "lat": 41.2004563, "lon": 14.4829901}, {"type": "node", "id": 3206005666, "lat": 41.2005332, "lon": 14.4829773}, {"type": "node", "id": 3206005668, "lat": 41.2005461, "lon": 14.4831144}, {"type": "node", "id": 3459282401, "lat": 41.0606998, "lon": 14.5539912, "tags": {"addr:city": "Airola", "addr:housenumber": "6", "addr:postcode": "82011", "addr:street": "Via Firenze", "amenity": "restaurant", "cuisine": "pizza", "name": "Pizza E Contorni", "takeaway": "yes"}}, {"type": "node", "id": 3578487965, "lat": 41.0411854, "lon": 14.5612348}, {"type": "node", "id": 3578487966, "lat": 41.0412444, "lon": 14.5614537}, {"type": "node", "id": 3578487967, "lat": 41.04136, "lon": 14.5613989}, {"type": "node", "id": 3578487968, "lat": 41.0413716, "lon": 14.5614421}, {"type": "node", "id": 3578487969, "lat": 41.0415112, "lon": 14.5613759}, {"type": "node", "id": 3578487970, "lat": 41.0414572, "lon": 14.5611757}, {"type": "node", "id": 3578487971, "lat": 41.0414922, "lon": 14.5611591}, {"type": "node", "id": 3578487972, "lat": 41.0414651, "lon": 14.5610586}, {"type": "node", "id": 3578487973, "lat": 41.0413042, "lon": 14.5611349}, {"type": "node", "id": 3578487974, "lat": 41.0413146, "lon": 14.5611736}, {"type": "node", "id": 3578731380, "lat": 41.0538328, "lon": 14.5575592}, {"type": "node", "id": 3578731381, "lat": 41.0538597, "lon": 14.5576924}, {"type": "node", "id": 3578731382, "lat": 41.0537216, "lon": 14.5577415}, {"type": "node", "id": 3578731383, "lat": 41.0537198, "lon": 14.5577328}, {"type": "node", "id": 3578731384, "lat": 41.0536828, "lon": 14.5577459}, {"type": "node", "id": 3578731385, "lat": 41.0536668, "lon": 14.5576666}, {"type": "node", "id": 3578731386, "lat": 41.0537128, "lon": 14.5576502}, {"type": "node", "id": 3578731387, "lat": 41.0537037, "lon": 14.5576051}, {"type": "node", "id": 3578731390, "lat": 41.0616716, "lon": 14.5571551, "tags": {"addr:city": "Airola", "addr:postcode": "82011", "addr:street": "Corso Montella", "amenity": "restaurant", "delivery": "no", "takeaway": "only"}}, {"type": "node", "id": 3588263885, "lat": 41.063806, "lon": 14.5631463, "tags": {"addr:city": "Airola", "addr:postcode": "82011", "addr:street": "Via Lavatoio", "amenity": "restaurant", "cuisine": "pizza", "name": "O' Luzzanese", "phone": "+39 0823 713337", "takeaway": "yes"}}, {"type": "node", "id": 3762480849, "lat": 41.198384, "lon": 14.4923458, "tags": {"addr:street": "via San Giovanni", "amenity": "restaurant", "capacity": "200", "cuisine": "regional", "delivery": "no", "name": "Il Fiasco di Vino di Vittorio Mucciacciaro", "smoking": "outside", "takeaway": "yes"}}, {"type": "node", "id": 3766046523, "lat": 41.1962615, "lon": 14.5486198, "tags": {"amenity": "cafe", "name": "Microbar ottimo caff\u00e8"}}, {"type": "node", "id": 3770234189, "lat": 40.9052776, "lon": 14.7864444, "tags": {"amenity": "cafe", "cuisine": "coffee_shop", "name": "Baffon Bar"}}, {"type": "node", "id": 3923389671, "lat": 41.1700732, "lon": 14.6574403, "tags": {"addr:city": "Vitulano", "addr:street": "Via Case Sparse", "amenity": "cafe", "name": "Bar Ros"}}, {"type": "node", "id": 3923389673, "lat": 41.1634968, "lon": 14.6695905, "tags": {"addr:city": "Foglianise", "addr:postcode": "82030", "addr:street": "Via Silvio Pedicini", "amenity": "cafe", "name": "Caffetteria L'incontro"}}, {"type": "node", "id": 3924572570, "lat": 41.1687892, "lon": 14.6919935, "tags": {"addr:city": "Foglianise", "addr:housenumber": "45", "addr:postcode": "82030", "addr:street": "Via Utile", "amenity": "restaurant", "cuisine": "regional;pizza", "name": "Osteria Pizzeria Da Mario", "smoking": "outside"}}, {"type": "node", "id": 3924691718, "lat": 41.1612358, "lon": 14.6705972, "tags": {"addr:city": "Foglianise", "addr:postcode": "82030", "amenity": "cafe", "name": "Peoples Bar", "smoking": "outside"}}, {"type": "node", "id": 3924691719, "lat": 41.1611904, "lon": 14.6707057, "tags": {"addr:city": "Foglianise", "addr:housenumber": "39", "addr:postcode": "82030", "addr:street": "Via Roma", "amenity": "cafe", "cuisine": "burger", "name": "Granchio Nero Caff\u00e8", "smoking": "outside"}}, {"type": "node", "id": 3931717781, "lat": 41.1596794, "lon": 14.6768924}, {"type": "node", "id": 3931717782, "lat": 41.1596631, "lon": 14.6767292}, {"type": "node", "id": 3931717800, "lat": 41.1596822, "lon": 14.6769206}, {"type": "node", "id": 3931717801, "lat": 41.1595715, "lon": 14.6769401}, {"type": "node", "id": 3931717802, "lat": 41.1595524, "lon": 14.6767486}, {"type": "node", "id": 3933549294, "lat": 41.1599854, "lon": 14.6707992, "tags": {"addr:city": "Foglianise", "addr:postcode": "82030", "addr:street": "Via Roma", "amenity": "restaurant", "cuisine": "pizza", "name": "La Tripolina", "smoking": "outside", "takeaway": "yes"}}, {"type": "node", "id": 3936043435, "lat": 41.1480419, "lon": 14.6440926, "tags": {"amenity": "restaurant"}}, {"type": "node", "id": 3951551848, "lat": 40.8923276, "lon": 14.7992792, "tags": {"addr:city": "Avellino", "addr:housenumber": "2c", "addr:postcode": "83100", "addr:street": "Via Francesco Giancola", "amenity": "cafe", "internet_access": "no", "name": "Bar Stella", "opening_hours": "05:30-13:00,15:00-20:00"}}, {"type": "node", "id": 4067600697, "lat": 40.9162628, "lon": 14.7935366, "tags": {"amenity": "cafe", "cuisine": "italian", "name": "Caffetteria La Vecchia Napoli"}}, {"type": "node", "id": 4087892145, "lat": 41.1316859, "lon": 14.7830342}, {"type": "node", "id": 4087892146, "lat": 41.1316618, "lon": 14.7831972}, {"type": "node", "id": 4087892147, "lat": 41.131726, "lon": 14.7832139}, {"type": "node", "id": 4087892148, "lat": 41.1317501, "lon": 14.7830509}, {"type": "node", "id": 4098065190, "lat": 41.1012357, "lon": 14.8281897}, {"type": "node", "id": 4098065191, "lat": 41.1013158, "lon": 14.8285189}, {"type": "node", "id": 4098065192, "lat": 41.1014331, "lon": 14.8284693}, {"type": "node", "id": 4098065193, "lat": 41.1014838, "lon": 14.8284162}, {"type": "node", "id": 4098065194, "lat": 41.1015131, "lon": 14.8283419}, {"type": "node", "id": 4098065195, "lat": 41.1015024, "lon": 14.8282605}, {"type": "node", "id": 4098065196, "lat": 41.1014731, "lon": 14.8281791}, {"type": "node", "id": 4098065197, "lat": 41.1014331, "lon": 14.8281331}, {"type": "node", "id": 4098065198, "lat": 41.1013664, "lon": 14.828126}, {"type": "node", "id": 4111736303, "lat": 41.2116638, "lon": 14.6429374, "tags": {"addr:street": "Area di servizio Taburno Nord", "amenity": "cafe", "name": "IES Bar"}}, {"type": "node", "id": 4111736393, "lat": 41.2085835, "lon": 14.5630116}, {"type": "node", "id": 4111736394, "lat": 41.208565, "lon": 14.5632679}, {"type": "node", "id": 4111736395, "lat": 41.208452, "lon": 14.5632534}, {"type": "node", "id": 4111736396, "lat": 41.2084705, "lon": 14.5629972}, {"type": "node", "id": 4374579296, "lat": 41.2027096, "lon": 14.7362782, "tags": {"addr:city": "Torrecuso", "addr:postcode": "82030", "addr:street": "Loc. Torrepalazzo", "amenity": "restaurant", "cuisine": "italian", "name": "La Rossella"}}, {"type": "node", "id": 4378851989, "lat": 41.2003101, "lon": 14.7368432, "tags": {"addr:city": "Torrecuso", "addr:postcode": "82030", "addr:street": "Loc. Torrepalazzo", "amenity": "restaurant", "cuisine": "italian_pizza", "name": "Il Ritrovo Pizzeria"}}, {"type": "node", "id": 4395910722, "lat": 41.0995037, "lon": 14.7428178}, {"type": "node", "id": 4395910723, "lat": 41.0994566, "lon": 14.7429343}, {"type": "node", "id": 4395910724, "lat": 41.0992776, "lon": 14.7428069}, {"type": "node", "id": 4395910725, "lat": 41.0993246, "lon": 14.7426904}, {"type": "node", "id": 4420766740, "lat": 41.1320567, "lon": 14.779533}, {"type": "node", "id": 4420766745, "lat": 41.1320824, "lon": 14.7796278}, {"type": "node", "id": 4435257888, "lat": 41.1686226, "lon": 14.6917891, "tags": {"addr:city": "Foglianise", "addr:housenumber": "1", "addr:postcode": "82030", "addr:street": "Via Utile", "amenity": "cafe", "email": "farcsrlfoglianise@gmail.com", "facebook": "https://www.facebook.com/Bar-GIUVI-819177078256654", "name": "Bar Giuv\u00ec", "opening_hours:url": "https://www.facebook.com/Bar-GIUVI-819177078256654", "phone": "+39 0824 387612", "source": "https://www.facebook.com/Bar-GIUVI-819177078256654"}}, {"type": "node", "id": 4435259769, "lat": 41.1601425, "lon": 14.6581692, "tags": {"addr:city": "Vitulano", "addr:postcode": "82038", "addr:street": "Via Sant'Antonio", "amenity": "restaurant", "cuisine": "pizza", "name": "Pizzeria Forgione"}}, {"type": "node", "id": 4618653069, "lat": 40.9908858, "lon": 14.9917311, "tags": {"addr:city": "Luogosano", "addr:street": "Strada Provinciale SP100", "amenity": "restaurant", "capacity": "400", "cuisine": "italian", "delivery": "no", "name": "La Collina Eventi e Ricevimenti", "outdoor_seating": "yes", "smoking": "outside", "takeaway": "no"}}, {"type": "node", "id": 4678490956, "lat": 40.9810799, "lon": 14.9947144, "tags": {"addr:city": "Luogosano", "addr:postcode": "83040", "addr:street": "Strada Provinciale SP100", "amenity": "restaurant", "cuisine": "regional", "delivery": "no", "name": "Ristorante La Vecchia Taverna", "outdoor_seating": "yes", "smoking": "outside", "takeaway": "yes"}}, {"type": "node", "id": 4678492037, "lat": 40.9877787, "lon": 14.9928912, "tags": {"addr:city": "Luogosano", "addr:postcode": "83040", "addr:street": "Via Francesco De Sanctis - SP100", "amenity": "restaurant", "cuisine": "pizza", "delivery": "yes", "name": "Ristorante Pizzeria Il Pizzicotto", "outdoor_seating": "yes", "smoking": "outside", "takeaway": "yes", "wheelchair": "yes"}}, {"type": "node", "id": 4711399527, "lat": 40.9167116, "lon": 14.528309}, {"type": "node", "id": 4711399528, "lat": 40.9167497, "lon": 14.5287747}, {"type": "node", "id": 4711399529, "lat": 40.9164159, "lon": 14.5287603}, {"type": "node", "id": 4711399530, "lat": 40.9164304, "lon": 14.5283018}, {"type": "node", "id": 4758305959, "lat": 40.9237695, "lon": 14.5305865}, {"type": "node", "id": 4758305960, "lat": 40.9237028, "lon": 14.5307218}, {"type": "node", "id": 4758305961, "lat": 40.9236194, "lon": 14.5306498}, {"type": "node", "id": 4758305962, "lat": 40.9236861, "lon": 14.5305145}, {"type": "node", "id": 4903730322, "lat": 40.9532362, "lon": 14.4706726, "tags": {"addr:street": "Autostrada A30 Caserta-Salerno", "amenity": "cafe", "cuisine": "coffee_shop;breakfast;sandwich", "name": "Sarni", "opening_hours": "24/7"}}, {"type": "node", "id": 4903739521, "lat": 40.9515435, "lon": 14.4711946, "tags": {"addr:housenumber": "km 16,4", "addr:postcode": "80034", "addr:street": "Autostrada A30 Caserta-Salerno", "amenity": "cafe", "cuisine": "breakfast;sandwich", "name": "Sarni", "opening_hours": "24/7", "operator": "Maglione San Pietro srl"}}, {"type": "node", "id": 5018011449, "lat": 41.1958241, "lon": 14.6657529, "tags": {"amenity": "cafe", "name": "Caff\u00e8 Fontana", "opening_hours": "We-Mo,PH 06:00-23:00"}}, {"type": "node", "id": 5018013642, "lat": 41.1961591, "lon": 14.666418, "tags": {"amenity": "cafe", "name": "Room 23"}}, {"type": "node", "id": 5018019720, "lat": 41.2084224, "lon": 14.635711, "tags": {"amenity": "restaurant", "cuisine": "regional;pizza", "name": "Bar Pizzeria 1984"}}, {"type": "node", "id": 5018024973, "lat": 41.2084935, "lon": 14.6415701, "tags": {"amenity": "restaurant", "cuisine": "regional", "name": "Osteria A Taccolella"}}, {"type": "node", "id": 5018028089, "lat": 41.2091413, "lon": 14.6302136, "tags": {"amenity": "restaurant", "cuisine": "pizza", "name": "Golden Plaza"}}, {"type": "node", "id": 5018477116, "lat": 41.2117805, "lon": 14.6425773, "tags": {"amenity": "restaurant", "cuisine": "regional", "name": "Locanda San Pietro"}}, {"type": "node", "id": 5046496904, "lat": 40.9394922, "lon": 14.7421218, "tags": {"addr:city": "Ospedaletto d'Alpinolo", "addr:housenumber": "17", "addr:postcode": "83014", "addr:street": "Piazza Demanio", "amenity": "restaurant", "capacity": "100", "cuisine": "pizza;italian;regional", "delivery": "yes", "name": "Hosteria Pizzeria Il Tritone", "opening_hours": "Mo-Su 10:00-22:00", "smoking": "outside", "takeaway": "yes"}}, {"type": "node", "id": 5077390953, "lat": 40.9355664, "lon": 14.7290223, "tags": {"amenity": "restaurant", "capacity": "50", "cuisine": "italian;regional;pizza", "name": "Bar Osteria Del Pellegrino", "opening_hours": "Mo-Sa 08:00-18:00", "smoking": "outside", "takeaway": "no"}}, {"type": "node", "id": 5078418086, "lat": 40.9226712, "lon": 14.5408554}, {"type": "node", "id": 5078418087, "lat": 40.9224551, "lon": 14.5407575}, {"type": "node", "id": 5078422964, "lat": 40.9241728, "lon": 14.5286204}, {"type": "node", "id": 5078422965, "lat": 40.9241371, "lon": 14.5287335}, {"type": "node", "id": 5078426905, "lat": 40.9263473, "lon": 14.5286276}, {"type": "node", "id": 5078426906, "lat": 40.9262788, "lon": 14.5285716}, {"type": "node", "id": 5078426907, "lat": 40.9262289, "lon": 14.5287129}, {"type": "node", "id": 5078426908, "lat": 40.9262674, "lon": 14.5288278}, {"type": "node", "id": 5078428382, "lat": 40.9284462, "lon": 14.5319806}, {"type": "node", "id": 5078428383, "lat": 40.9283572, "lon": 14.5320375}, {"type": "node", "id": 5078428384, "lat": 40.9283913, "lon": 14.5321311}, {"type": "node", "id": 5078428385, "lat": 40.9284803, "lon": 14.5320743}, {"type": "node", "id": 5078434850, "lat": 40.9270761, "lon": 14.5251313}, {"type": "node", "id": 5078434851, "lat": 40.9270056, "lon": 14.5250986}, {"type": "node", "id": 5078434852, "lat": 40.9269789, "lon": 14.5252312}, {"type": "node", "id": 5078434853, "lat": 40.927054, "lon": 14.5252528}, {"type": "node", "id": 5274052037, "lat": 40.9709937, "lon": 14.609368}, {"type": "node", "id": 5274052038, "lat": 40.9707345, "lon": 14.6092489}, {"type": "node", "id": 5274052039, "lat": 40.9706922, "lon": 14.6100312}, {"type": "node", "id": 5274052040, "lat": 40.9708174, "lon": 14.6100662}, {"type": "node", "id": 5274052041, "lat": 40.9709954, "lon": 14.6100382}, {"type": "node", "id": 5274052113, "lat": 40.962156, "lon": 14.5933455}, {"type": "node", "id": 5274052114, "lat": 40.9621746, "lon": 14.5936844}, {"type": "node", "id": 5274052115, "lat": 40.9625376, "lon": 14.5937152}, {"type": "node", "id": 5274052116, "lat": 40.9626656, "lon": 14.5935581}, {"type": "node", "id": 5274052117, "lat": 40.9626935, "lon": 14.5933455}, {"type": "node", "id": 5274052118, "lat": 40.9626074, "lon": 14.5932592}, {"type": "node", "id": 5375737760, "lat": 40.9771922, "lon": 14.6106951}, {"type": "node", "id": 5375737761, "lat": 40.977063, "lon": 14.6106207}, {"type": "node", "id": 5375737762, "lat": 40.9770009, "lon": 14.6108097}, {"type": "node", "id": 5375737763, "lat": 40.9771302, "lon": 14.6108842}, {"type": "node", "id": 5387909519, "lat": 41.255438, "lon": 14.5954124}, {"type": "node", "id": 5387909520, "lat": 41.2554134, "lon": 14.5954465}, {"type": "node", "id": 5387914521, "lat": 41.2553851, "lon": 14.5954978}, {"type": "node", "id": 5387914522, "lat": 41.255436, "lon": 14.5955883}, {"type": "node", "id": 5387914523, "lat": 41.2555334, "lon": 14.5954122}, {"type": "node", "id": 5387914524, "lat": 41.2554585, "lon": 14.5953778}, {"type": "node", "id": 5398684205, "lat": 40.953435, "lon": 14.6066699}, {"type": "node", "id": 5398684206, "lat": 40.9532432, "lon": 14.6066376}, {"type": "node", "id": 5398684207, "lat": 40.9532667, "lon": 14.6063931}, {"type": "node", "id": 5398684208, "lat": 40.9534273, "lon": 14.6064202}, {"type": "node", "id": 5398684209, "lat": 40.9534185, "lon": 14.6065127}, {"type": "node", "id": 5398684210, "lat": 40.9534496, "lon": 14.6065179}, {"type": "node", "id": 5399606205, "lat": 40.9506769, "lon": 14.5531346}, {"type": "node", "id": 5399606206, "lat": 40.9505257, "lon": 14.5531327}, {"type": "node", "id": 5399606207, "lat": 40.9505235, "lon": 14.5534228}, {"type": "node", "id": 5399606208, "lat": 40.9506748, "lon": 14.5534247}, {"type": "node", "id": 5399606209, "lat": 40.9505241, "lon": 14.5533541}, {"type": "node", "id": 5399606210, "lat": 40.9504894, "lon": 14.5533537}, {"type": "node", "id": 5399606211, "lat": 40.9503933, "lon": 14.5533077}, {"type": "node", "id": 5399606212, "lat": 40.9505238, "lon": 14.553385}, {"type": "node", "id": 5399606213, "lat": 40.9504898, "lon": 14.5533089}, {"type": "node", "id": 5399606214, "lat": 40.9503924, "lon": 14.5534364}, {"type": "node", "id": 5399606215, "lat": 40.950487, "lon": 14.5534376}, {"type": "node", "id": 5399606216, "lat": 40.9504874, "lon": 14.5533846}, {"type": "node", "id": 5451353101, "lat": 40.9610168, "lon": 14.6003184, "tags": {"amenity": "restaurant", "cuisine": "pizza", "name": "Pizzeria All'Angolo"}}, {"type": "node", "id": 5484548381, "lat": 41.2554928, "lon": 14.5954874}, {"type": "node", "id": 5484548382, "lat": 41.2555669, "lon": 14.5954874}, {"type": "node", "id": 5484548383, "lat": 41.2554511, "lon": 14.5955597}, {"type": "node", "id": 5484548384, "lat": 41.2555237, "lon": 14.5954312}, {"type": "node", "id": 5494262242, "lat": 40.9446315, "lon": 14.5309241, "tags": {"amenity": "restaurant", "cuisine": "pizza", "name": "Pizzeria Gastone"}}, {"type": "node", "id": 5494315648, "lat": 40.928838, "lon": 14.5233756, "tags": {"amenity": "restaurant", "cuisine": "pizza;seafood", "name": "Pizzeria Il Buco"}}, {"type": "node", "id": 5508529410, "lat": 40.8364459, "lon": 14.8012259, "tags": {"addr:city": "Banzano", "addr:housenumber": "1", "addr:postcode": "83025", "addr:street": "Strada Provinciale 18", "amenity": "restaurant", "capacity": "200", "cuisine": "italian;pizza", "name": "Ristorante O' Tagliero", "outdoor_seating": "yes", "smoking": "separated", "takeaway": "yes", "website": "https://www.ristoranteotagliero.com/"}}, {"type": "node", "id": 5633512287, "lat": 41.1821403, "lon": 14.4536331, "tags": {"amenity": "cafe"}}, {"type": "node", "id": 5865219408, "lat": 41.0261194, "lon": 14.4649381, "tags": {"amenity": "cafe", "name": "Cappu'cino"}}, {"type": "node", "id": 5865624046, "lat": 41.0091869, "lon": 14.4968759, "tags": {"amenity": "restaurant", "cuisine": "italian_pizza", "name": "Pizzeria Number One"}}, {"type": "node", "id": 5891501904, "lat": 41.1963694, "lon": 14.6665075, "tags": {"amenity": "cafe", "internet_access": "wlan", "internet_access:fee": "yes", "name": "Bar Maffei"}}, {"type": "node", "id": 6131183271, "lat": 41.2443563, "lon": 14.4397293}, {"type": "node", "id": 6131183272, "lat": 41.2441177, "lon": 14.4395764}, {"type": "node", "id": 6131183273, "lat": 41.2440394, "lon": 14.4400199}, {"type": "node", "id": 6131183274, "lat": 41.2442112, "lon": 14.44013}, {"type": "node", "id": 6131183276, "lat": 41.2440811, "lon": 14.4399047}, {"type": "node", "id": 6131214973, "lat": 41.2440143, "lon": 14.4398619}, {"type": "node", "id": 6133467514, "lat": 41.2119553, "lon": 14.8055917}, {"type": "node", "id": 6133467515, "lat": 41.2122445, "lon": 14.8060035}, {"type": "node", "id": 6137969907, "lat": 41.2129763, "lon": 14.8056119}, {"type": "node", "id": 6137969908, "lat": 41.212702, "lon": 14.8059269}, {"type": "node", "id": 6137969909, "lat": 41.2123737, "lon": 14.8061528}, {"type": "node", "id": 6137969910, "lat": 41.2116685, "lon": 14.805137}, {"type": "node", "id": 6137969911, "lat": 41.2117223, "lon": 14.8044935}, {"type": "node", "id": 6137969912, "lat": 41.2122148, "lon": 14.8045714}, {"type": "node", "id": 6193651229, "lat": 41.2035144, "lon": 14.9308925}, {"type": "node", "id": 6193651230, "lat": 41.2034194, "lon": 14.9310156}, {"type": "node", "id": 6193651231, "lat": 41.2032597, "lon": 14.9307914}, {"type": "node", "id": 6193651232, "lat": 41.2033547, "lon": 14.9306718}, {"type": "node", "id": 6193651233, "lat": 41.2033692, "lon": 14.9308959, "tags": {"amenity": "restaurant", "name": "ristorante La Piana"}}, {"type": "node", "id": 6195473051, "lat": 41.2033732, "lon": 14.9307043}, {"type": "node", "id": 6447185518, "lat": 41.1176432, "lon": 14.7784671}, {"type": "node", "id": 6585164480, "lat": 41.0643817, "lon": 14.8522523, "tags": {"amenity": "restaurant", "cuisine": "kebab", "name": "Mr. Kebab"}}, {"type": "node", "id": 6585167223, "lat": 41.0655506, "lon": 14.8516783, "tags": {"amenity": "restaurant", "cuisine": "pizza", "name": "Esco Pazzo"}}, {"type": "node", "id": 6585170016, "lat": 41.1306103, "lon": 14.7803114, "tags": {"amenity": "cafe", "check_date": "2024-11-24", "name": "Caf\u00e8 Le Trou"}}, {"type": "node", "id": 6585171018, "lat": 41.0631122, "lon": 14.8516247, "tags": {"amenity": "restaurant", "cuisine": "pizza", "name": "PizzaR\u00e9"}}, {"type": "node", "id": 6585175257, "lat": 41.1304438, "lon": 14.7817044, "tags": {"amenity": "restaurant", "check_date": "2024-11-24", "cuisine": "pizza", "name": "Take Away", "takeaway": "yes"}}, {"type": "node", "id": 6585175308, "lat": 41.0627669, "lon": 14.8530798, "tags": {"amenity": "cafe", "cuisine": "ice_cream", "name": "Fiocchi Di Neve"}}, {"type": "node", "id": 6585177811, "lat": 41.1303716, "lon": 14.7816411, "tags": {"amenity": "cafe", "check_date": "2024-11-24", "name": "Il Funambolo"}}, {"type": "node", "id": 6586145425, "lat": 41.1302013, "lon": 14.779291, "tags": {"amenity": "restaurant", "name": "Cocotte"}}, {"type": "node", "id": 6586149663, "lat": 41.1306326, "lon": 14.7802451, "tags": {"amenity": "restaurant", "name": "Kebaberia Sole"}}, {"type": "node", "id": 6587211273, "lat": 41.1304972, "lon": 14.7779565, "tags": {"amenity": "restaurant", "cuisine": "italian", "name": "Pais\u00e0"}}, {"type": "node", "id": 6587417050, "lat": 41.1296153, "lon": 14.7828287, "tags": {"amenity": "cafe", "name": "Bar Maxim's"}}, {"type": "node", "id": 6587425359, "lat": 41.1296476, "lon": 14.7829494, "tags": {"amenity": "restaurant", "cuisine": "pizza", "name": "Young Piazza", "takeaway": "yes"}}, {"type": "node", "id": 6610868222, "lat": 41.0638377, "lon": 14.8531508, "tags": {"amenity": "cafe", "name": "Kairos"}}, {"type": "node", "id": 6624977329, "lat": 41.0677598, "lon": 14.8510081, "tags": {"amenity": "restaurant", "name": "Maccherone"}}, {"type": "node", "id": 6634234519, "lat": 41.1243644, "lon": 14.7891919, "tags": {"amenity": "restaurant", "name": "Pepe Nero"}}, {"type": "node", "id": 6710462480, "lat": 41.1320253, "lon": 14.778993, "tags": {"amenity": "restaurant", "cuisine": "pizza;italian", "name": "Ristorante Pizzeria Traiano"}}, {"type": "node", "id": 6710494448, "lat": 41.1322393, "lon": 14.7774885, "tags": {"amenity": "restaurant", "name": "Cotton Club"}}, {"type": "node", "id": 6710508018, "lat": 41.0968392, "lon": 14.8309164, "tags": {"amenity": "restaurant", "cuisine": "sushi", "name": "Yami Sushi"}}, {"type": "node", "id": 6710509210, "lat": 41.1316486, "lon": 14.7779262, "tags": {"amenity": "cafe", "cuisine": "bubble_tea", "name": "Bobble Bobble"}}, {"type": "node", "id": 6710526910, "lat": 41.1321461, "lon": 14.7785488, "tags": {"amenity": "restaurant", "check_date": "2024-11-24", "indoor_seating": "yes", "name": "Alimenta", "outdoor_seating": "yes"}}, {"type": "node", "id": 6710544467, "lat": 41.0621023, "lon": 14.8543351, "tags": {"amenity": "cafe", "name": "Caffetteria Del Barone"}}, {"type": "node", "id": 6721165068, "lat": 41.1390364, "lon": 14.6329128, "tags": {"addr:city": "Cautano", "addr:postcode": "82030", "addr:street": "Contrada Asciello", "amenity": "restaurant", "cuisine": "regional;italian", "name": "Al Poggio Antico", "phone": "+390824880630"}}, {"type": "node", "id": 6808044616, "lat": 41.1175744, "lon": 14.7785071}, {"type": "node", "id": 6808044617, "lat": 41.1175773, "lon": 14.7785197}, {"type": "node", "id": 6808044618, "lat": 41.1175828, "lon": 14.7785365}, {"type": "node", "id": 6808044619, "lat": 41.1175934, "lon": 14.7785506}, {"type": "node", "id": 6808044620, "lat": 41.117604, "lon": 14.7785553}, {"type": "node", "id": 6808044621, "lat": 41.1176167, "lon": 14.7785553}, {"type": "node", "id": 6808044622, "lat": 41.1176359, "lon": 14.7785553}, {"type": "node", "id": 6808044623, "lat": 41.1176485, "lon": 14.7785499}, {"type": "node", "id": 6808044624, "lat": 41.1176646, "lon": 14.7785338}, {"type": "node", "id": 6808044625, "lat": 41.1176742, "lon": 14.778515}, {"type": "node", "id": 6808044626, "lat": 41.1176768, "lon": 14.7784956}, {"type": "node", "id": 6808044627, "lat": 41.1176768, "lon": 14.7784768}, {"type": "node", "id": 6808044628, "lat": 41.1176727, "lon": 14.7784614}, {"type": "node", "id": 6808044629, "lat": 41.1176586, "lon": 14.7784312}, {"type": "node", "id": 6808044630, "lat": 41.1176495, "lon": 14.7784205}, {"type": "node", "id": 6808044631, "lat": 41.1176419, "lon": 14.7784185}, {"type": "node", "id": 6808044632, "lat": 41.1176285, "lon": 14.7784225}, {"type": "node", "id": 6834811085, "lat": 40.9240141, "lon": 14.5286681}, {"type": "node", "id": 6834811086, "lat": 40.9240419, "lon": 14.5285496}, {"type": "node", "id": 6834811099, "lat": 40.9223994, "lon": 14.5409488}, {"type": "node", "id": 6834811100, "lat": 40.9225988, "lon": 14.5410914}, {"type": "node", "id": 6836583498, "lat": 40.8191681, "lon": 14.4847198}, {"type": "node", "id": 6836583499, "lat": 40.819142, "lon": 14.4849245}, {"type": "node", "id": 6836583500, "lat": 40.8191061, "lon": 14.4849515}, {"type": "node", "id": 6836583501, "lat": 40.8190975, "lon": 14.4850405}, {"type": "node", "id": 6836583502, "lat": 40.8191338, "lon": 14.4851025}, {"type": "node", "id": 6836583503, "lat": 40.8192961, "lon": 14.4851368}, {"type": "node", "id": 6836583504, "lat": 40.819335, "lon": 14.48476}, {"type": "node", "id": 6854870544, "lat": 40.981541, "lon": 14.5421815}, {"type": "node", "id": 6854870545, "lat": 40.9814684, "lon": 14.5421811}, {"type": "node", "id": 6854870546, "lat": 40.9814709, "lon": 14.5424388}, {"type": "node", "id": 6854870547, "lat": 40.9816174, "lon": 14.5424413}, {"type": "node", "id": 6854870548, "lat": 40.9816192, "lon": 14.5424211}, {"type": "node", "id": 6854870549, "lat": 40.9817008, "lon": 14.5424247}, {"type": "node", "id": 6854870550, "lat": 40.9817127, "lon": 14.5424031}, {"type": "node", "id": 6854870551, "lat": 40.9817249, "lon": 14.5423928}, {"type": "node", "id": 6854870552, "lat": 40.9817361, "lon": 14.5424133}, {"type": "node", "id": 6854870553, "lat": 40.9817626, "lon": 14.5424265}, {"type": "node", "id": 6854870554, "lat": 40.9817819, "lon": 14.542416}, {"type": "node", "id": 6854870555, "lat": 40.9817936, "lon": 14.5423978}, {"type": "node", "id": 6854870556, "lat": 40.9818248, "lon": 14.5424182}, {"type": "node", "id": 6854870557, "lat": 40.9818421, "lon": 14.5424125}, {"type": "node", "id": 6854870558, "lat": 40.9818512, "lon": 14.5423941}, {"type": "node", "id": 6854870559, "lat": 40.9818538, "lon": 14.5423558}, {"type": "node", "id": 6854870560, "lat": 40.9818657, "lon": 14.5423376}, {"type": "node", "id": 6854870561, "lat": 40.9818749, "lon": 14.5423328}, {"type": "node", "id": 6854870562, "lat": 40.9819414, "lon": 14.5423383}, {"type": "node", "id": 6854870563, "lat": 40.9819432, "lon": 14.5423326}, {"type": "node", "id": 6854870564, "lat": 40.9818961, "lon": 14.5422196}, {"type": "node", "id": 6854870565, "lat": 40.9817484, "lon": 14.5422164}, {"type": "node", "id": 6854870566, "lat": 40.9817497, "lon": 14.5421825}, {"type": "node", "id": 6854870567, "lat": 40.9816819, "lon": 14.5421811}, {"type": "node", "id": 6854870568, "lat": 40.9816812, "lon": 14.5422158}, {"type": "node", "id": 6854870569, "lat": 40.9815412, "lon": 14.542211}, {"type": "node", "id": 6855089254, "lat": 40.9184511, "lon": 14.5600988}, {"type": "node", "id": 6855089255, "lat": 40.9184471, "lon": 14.5600812}, {"type": "node", "id": 6855089256, "lat": 40.9183477, "lon": 14.5601111}, {"type": "node", "id": 6855089257, "lat": 40.918363, "lon": 14.5601983}, {"type": "node", "id": 6855089258, "lat": 40.9183837, "lon": 14.560268}, {"type": "node", "id": 6855089259, "lat": 40.9184257, "lon": 14.5602557}, {"type": "node", "id": 6855089260, "lat": 40.9184226, "lon": 14.5602165}, {"type": "node", "id": 6855089261, "lat": 40.9184374, "lon": 14.5602129}, {"type": "node", "id": 6855089262, "lat": 40.918447, "lon": 14.5602752}, {"type": "node", "id": 6855089263, "lat": 40.9184059, "lon": 14.5602877}, {"type": "node", "id": 6855089264, "lat": 40.9184278, "lon": 14.5604141}, {"type": "node", "id": 6855089265, "lat": 40.9186776, "lon": 14.5603481}, {"type": "node", "id": 6855089266, "lat": 40.9187074, "lon": 14.5605077}, {"type": "node", "id": 6855089267, "lat": 40.9187987, "lon": 14.560479}, {"type": "node", "id": 6855089268, "lat": 40.9187743, "lon": 14.5603311}, {"type": "node", "id": 6855089269, "lat": 40.9187163, "lon": 14.5603432}, {"type": "node", "id": 6855089270, "lat": 40.9186946, "lon": 14.5602278}, {"type": "node", "id": 6855089271, "lat": 40.9188061, "lon": 14.5602005}, {"type": "node", "id": 6855089272, "lat": 40.9187774, "lon": 14.5600065}, {"type": "node", "id": 6937299254, "lat": 41.2559235, "lon": 14.4726383, "tags": {"amenity": "restaurant", "cuisine": "pizza;regional;italian", "name": "I Sette Archi", "opening_hours": "Tu off", "phone": "+39 329 1747232"}}, {"type": "node", "id": 6974266438, "lat": 40.9283589, "lon": 14.5110149}, {"type": "node", "id": 6974266439, "lat": 40.9285413, "lon": 14.511031}, {"type": "node", "id": 6974266440, "lat": 40.9285528, "lon": 14.5108017}, {"type": "node", "id": 6974266441, "lat": 40.9283704, "lon": 14.5107856}, {"type": "node", "id": 7126172431, "lat": 41.1308412, "lon": 14.7753889, "tags": {"addr:city": "Benevento", "amenity": "restaurant", "cuisine": "italian", "name": "Capriccio Napoletano"}}, {"type": "node", "id": 7293061408, "lat": 41.1840791, "lon": 14.4529468, "tags": {"amenity": "cafe", "name": "Caff\u00e8 Bukowsky"}}, {"type": "node", "id": 7549334453, "lat": 41.2196651, "lon": 14.5296033, "tags": {"addr:street": "via Caio Ponzio Telesino", "air_conditioning": "yes", "amenity": "restaurant", "diet:vegan": "yes", "diet:vegetarian": "yes", "indoor_seating": "yes", "name": "Pizzeria Rosso vita", "opening_hours": "Tu-Su 19:00-00:00", "outdoor_seating": "yes", "payment:credit_cards": "yes", "payment:debit_cards": "yes", "smoking": "outside", "wheelchair": "no"}}, {"type": "node", "id": 7562868822, "lat": 41.0969253, "lon": 14.4662553, "tags": {"amenity": "restaurant", "cuisine": "regional", "description": "Le tre camere semplici, con arredi d'antiquariato e vista sulla campagna o sui boschi, sono dotate di TV e bagno privato. La struttura comprende un ristorante rustico con pareti in pietra a vista, soffitto con travi in legno e caminetto. Offre inoltre cor", "name": "Agriturismo L'Ape Regina", "phone": "+390823956698"}}, {"type": "node", "id": 7635862112, "lat": 41.1613008, "lon": 14.6710479, "tags": {"addr:city": "Foglianise", "addr:housenumber": "42", "addr:postcode": "82030", "addr:street": "Via Roma", "amenity": "restaurant", "capacity": "15", "cuisine": "pizza", "name": "Peoples Pizz", "smoking": "outside", "takeaway": "only"}}, {"type": "node", "id": 7637745054, "lat": 41.1604, "lon": 14.6829744}, {"type": "node", "id": 7637745055, "lat": 41.160508, "lon": 14.6829309}, {"type": "node", "id": 7637745056, "lat": 41.1605525, "lon": 14.6831258}, {"type": "node", "id": 7637745057, "lat": 41.1604445, "lon": 14.6831694}, {"type": "node", "id": 7677547278, "lat": 41.1971098, "lon": 14.7022661, "tags": {"amenity": "restaurant", "cuisine": "regional;pizza", "name": "L'Oasi dei Sogni"}}, {"type": "node", "id": 7684863847, "lat": 41.1264677, "lon": 14.6273988, "tags": {"addr:city": "Tocco Caudio", "addr:postcode": "82030", "addr:street": "Via La Riola", "amenity": "cafe", "name": "Bar del Borgo", "outdoor_seating": "yes"}}, {"type": "node", "id": 7686155764, "lat": 41.2249513, "lon": 14.5148532}, {"type": "node", "id": 7686155765, "lat": 41.2248051, "lon": 14.5147231}, {"type": "node", "id": 7686155766, "lat": 41.2247586, "lon": 14.5148289}, {"type": "node", "id": 7686155771, "lat": 41.2248919, "lon": 14.5149374}, {"type": "node", "id": 7686189099, "lat": 41.2249374, "lon": 14.5149331}, {"type": "node", "id": 7692945742, "lat": 41.2248355, "lon": 14.5320222}, {"type": "node", "id": 7692945743, "lat": 41.2248968, "lon": 14.5321996}, {"type": "node", "id": 7692945744, "lat": 41.2247233, "lon": 14.5323065}, {"type": "node", "id": 7692945745, "lat": 41.2246505, "lon": 14.5321365}, {"type": "node", "id": 7692945757, "lat": 41.2247692, "lon": 14.5322797}, {"type": "node", "id": 7700248862, "lat": 41.235099, "lon": 14.4967249, "tags": {"amenity": "restaurant", "indoor_seating": "yes", "name": "Luna Rossa pizzeria-rosticceria", "outdoor_seating": "yes"}}, {"type": "node", "id": 7700256268, "lat": 41.2364633, "lon": 14.4988449, "tags": {"air_conditioning": "yes", "amenity": "restaurant", "diet:vegan": "yes", "diet:vegetarian": "yes", "indoor_seating": "yes", "name": "Ristorante pizzeria il Burbero", "opening_hours": "Tu-Su 11:00-15:00,19:00-24:00", "outdoor_seating": "yes", "payment:credit_cards": "yes", "payment:debit_cards": "yes", "smoking": "outside", "wheelchair": "no"}}, {"type": "node", "id": 7706972580, "lat": 41.1003263, "lon": 14.9351755, "tags": {"addr:city": "Calvi", "addr:housenumber": "28", "addr:postcode": "82018", "addr:street": "Via Federico II", "amenity": "restaurant", "cuisine": "regional", "name": "Agriturismo Villa Luisa"}}, {"type": "node", "id": 7707554761, "lat": 41.1092786, "lon": 14.9212219, "tags": {"amenity": "cafe"}}, {"type": "node", "id": 7707597185, "lat": 40.8694374, "lon": 14.5532456, "tags": {"addr:housenumber": "109", "addr:street": "Via Roma", "amenity": "restaurant", "cuisine": "italian;japanese", "email": "info@nonnania.it", "internet_access": "wlan", "name": "Nonna Nia", "phone": "+393920113690", "website": "https://www.nonnania.it/"}}, {"type": "node", "id": 7734517508, "lat": 41.1254829, "lon": 14.9074683, "tags": {"amenity": "restaurant"}}, {"type": "node", "id": 7736732977, "lat": 41.2190157, "lon": 14.9900934, "tags": {"addr:city": "Buonalbergo", "addr:housenumber": "1", "addr:postcode": "82020", "addr:street": "SS90 Bis delle Puglie", "amenity": "restaurant", "cuisine": "italian;italian_pizza;pizza;regional", "email": "info@gianmariaristorante.it", "name": "GianMaria", "opening_hours": "Mo-We 11:30-15:00; Tu-Su 11:30-15:00,18:30-23:30", "outdoor_seating": "yes", "phone": "+39 333 6398222", "ref:vatin": "IT01581350624"}}, {"type": "node", "id": 7736732978, "lat": 41.2191504, "lon": 14.9902626, "tags": {"amenity": "cafe", "contact:city": "Buonalbergo", "contact:housenumber": "1", "contact:postcode": "82020", "contact:street": "SS90 Bis delle Puglie", "outdoor_seating": "yes", "sells:tobacco": "yes"}}, {"type": "node", "id": 7738039049, "lat": 41.2195037, "lon": 14.527432, "tags": {"addr:city": "Telese Terme", "addr:housenumber": "175", "addr:postcode": "82037", "addr:street": "Viale Minieri", "amenity": "restaurant", "name": "Archimagirus", "phone": "+39 380 425 5360", "website": "https://www.ristorantearchimagirus.it/", "wheelchair": "yes"}}, {"type": "node", "id": 7739854594, "lat": 41.2220893, "lon": 14.5291693, "tags": {"air_conditioning": "yes", "amenity": "restaurant", "indoor_seating": "yes", "name": "Ristorante Pizzeria \"La Pineta\"", "opening_hours": "Mo-Su 19:00-24:00, Su 12:00-15:00", "outdoor_seating": "yes", "payment:credit_cards": "yes", "payment:debit_cards": "yes", "smoking": "separated", "wheelchair": "yes"}}, {"type": "node", "id": 7782395771, "lat": 41.2105929, "lon": 14.5344017}, {"type": "node", "id": 7782395772, "lat": 41.2106067, "lon": 14.534518}, {"type": "node", "id": 7782395773, "lat": 41.2103249, "lon": 14.5346207}, {"type": "node", "id": 7782395774, "lat": 41.2103096, "lon": 14.5344957}, {"type": "node", "id": 7783596076, "lat": 41.2130645, "lon": 14.5348063}, {"type": "node", "id": 7795736606, "lat": 41.1985708, "lon": 14.4924593}, {"type": "node", "id": 7795736611, "lat": 41.198493, "lon": 14.4921097}, {"type": "node", "id": 7795736612, "lat": 41.198193, "lon": 14.4922276}, {"type": "node", "id": 7795736613, "lat": 41.1982708, "lon": 14.4925772}, {"type": "node", "id": 7835668993, "lat": 41.1747329, "lon": 14.6016475, "tags": {"addr:city": "Vitulano", "addr:postcode": "82038", "addr:street": "Via Serra del Campo", "amenity": "restaurant", "cuisine": "regional;italian", "name": "Altaquota", "operator": "Non Solo Zucchero SNC"}}, {"type": "node", "id": 7843833947, "lat": 41.0888088, "lon": 14.505042, "tags": {"addr:city": "Sant'Agata de' Goti", "addr:street": "Via Riello", "amenity": "restaurant", "cuisine": "pizza;italian", "name": "Ristorante Pizzeria Il Barbaro"}}, {"type": "node", "id": 7843833948, "lat": 41.088765, "lon": 14.5044271, "tags": {"addr:city": "Sant'Agata de' Goti", "addr:street": "Via Riello", "amenity": "restaurant", "cuisine": "pizza;italian", "name": "Ristorante L'Antico Borgo"}}, {"type": "node", "id": 7859838093, "lat": 41.2570889, "lon": 14.4758797}, {"type": "node", "id": 7859838094, "lat": 41.2570389, "lon": 14.4755465}, {"type": "node", "id": 7867693553, "lat": 41.257376, "lon": 14.4754543}, {"type": "node", "id": 7867693555, "lat": 41.2574269, "lon": 14.4757886}, {"type": "node", "id": 7867693557, "lat": 41.2574126, "lon": 14.4756944}, {"type": "node", "id": 7963833831, "lat": 41.2047056, "lon": 14.5692819}, {"type": "node", "id": 7963833832, "lat": 41.204558, "lon": 14.5693966}, {"type": "node", "id": 7963833833, "lat": 41.2045421, "lon": 14.5693604}, {"type": "node", "id": 7963833834, "lat": 41.2044914, "lon": 14.5693997}, {"type": "node", "id": 7963833835, "lat": 41.2044492, "lon": 14.5693037}, {"type": "node", "id": 7963833836, "lat": 41.2046475, "lon": 14.5691497}, {"type": "node", "id": 8092432233, "lat": 41.2192245, "lon": 14.5272706, "tags": {"amenity": "restaurant", "name": "Sherwood Pizza e Birra"}}, {"type": "node", "id": 8095191016, "lat": 41.2165966, "lon": 14.5268054}, {"type": "node", "id": 8095191017, "lat": 41.2166308, "lon": 14.5269039}, {"type": "node", "id": 8095191019, "lat": 41.2165328, "lon": 14.5268854}, {"type": "node", "id": 8095191020, "lat": 41.2165204, "lon": 14.5268405}, {"type": "node", "id": 8219409126, "lat": 41.0713, "lon": 14.7577951, "tags": {"addr:city": "San Leucio del Sannio", "addr:street": "Via Giacomo Zamparelli", "amenity": "restaurant", "cuisine": "regional;italian", "description": "Location per matrimoni", "name": "Palazzo Peci", "opening_hours": "Mo-Su 16:30-23:00", "phone": "+39082445778", "website": "https://www.palazzopecci.it/"}}, {"type": "node", "id": 8284057874, "lat": 41.2121815, "lon": 14.8059138}, {"type": "node", "id": 8309310350, "lat": 41.2060247, "lon": 14.5038446, "tags": {"addr:city": "Telese Terme", "addr:housenumber": "45", "addr:street": "Via San Giovanni", "amenity": "restaurant", "name": "Princess Royal Palace", "phone": "+390824941364", "stars": "5", "website": "https://www.princessroyalpalace.com"}}, {"type": "node", "id": 8309345582, "lat": 41.0866124, "lon": 14.7410929, "tags": {"addr:city": "Apollosa", "addr:street": "Consorzio Sannio Tech", "amenity": "restaurant", "name": "Epane' Srl"}}, {"type": "node", "id": 8309345584, "lat": 41.1059248, "lon": 14.7455404, "tags": {"amenity": "cafe", "name": "7000 Caff\u00e8"}}, {"type": "node", "id": 8330080569, "lat": 41.1693681, "lon": 14.6606997, "tags": {"addr:city": "Foglianise", "addr:postcode": "82030", "addr:street": "Via Silvio Pedicini", "amenity": "cafe", "cuisine": "pizza", "name": "Moriscaf\u00e8", "outdoor_seating": "yes", "phone": "+39 0824 878523"}}, {"type": "node", "id": 8330080584, "lat": 41.1676659, "lon": 14.6551509, "tags": {"addr:city": "Vitulano", "addr:postcode": "82038", "addr:street": "Via Sant'Antonio", "amenity": "restaurant", "cuisine": "pizza;regional;friture;snackbar;snacks;italian;italian_pizza;coffee;piadina;pinsa", "name": "Choco Pizza", "phone": "+39 0824 1748882"}}, {"type": "node", "id": 8339762280, "lat": 41.0878635, "lon": 14.5059376, "tags": {"amenity": "restaurant", "name": "La Cantina dei Briganti"}}, {"type": "node", "id": 8339775938, "lat": 41.0896975, "lon": 14.5042283, "tags": {"addr:city": "Sant'Agata de' Goti", "addr:street": "Via Roma", "amenity": "restaurant", "cuisine": "regional", "name": "Antica Osteria Zi' Pauluccio"}}, {"type": "node", "id": 8340056476, "lat": 41.1595774, "lon": 14.6826521, "tags": {"addr:city": "Foglianise", "addr:postcode": "82030", "addr:street": "Via Provinciale Vitulanese", "amenity": "restaurant", "name": "Agriturismo CapoLana", "tourism": "guest_house"}}, {"type": "node", "id": 8353438810, "lat": 41.1639326, "lon": 14.6718477, "tags": {"addr:city": "Foglianise", "addr:housenumber": "11", "addr:postcode": "82030", "addr:street": "Via Cosimo Pedicini", "amenity": "restaurant", "cuisine": "regional;italian", "name": "La Locanda Dell'Eremo", "phone": "+39 320 4866433"}}, {"type": "node", "id": 8354953502, "lat": 41.1304497, "lon": 14.8735021, "tags": {"amenity": "cafe", "sells:tobacco": "yes"}}, {"type": "node", "id": 8355251841, "lat": 41.1604377, "lon": 14.6737317, "tags": {"addr:street": "Via Municipio", "amenity": "restaurant", "cuisine": "pizza;regional;friture", "name": "Lo Sfizio"}}, {"type": "node", "id": 8357311721, "lat": 41.1483415, "lon": 14.6392482, "tags": {"amenity": "cafe"}}, {"type": "node", "id": 8371890461, "lat": 41.1566769, "lon": 14.6668836, "tags": {"addr:city": "Foglianise", "addr:postcode": "82030", "addr:street": "Via Ospedale", "amenity": "restaurant", "cuisine": "regional;italian;local", "name": "La Locanda Country House", "phone": "+39 0824 878592"}}, {"type": "node", "id": 8421513533, "lat": 41.2549335, "lon": 14.5283031, "tags": {"amenity": "restaurant", "name": "Agriturismo Marchese"}}, {"type": "node", "id": 8525569624, "lat": 40.9275336, "lon": 14.4803978, "tags": {"addr:city": "San Vitaliano", "addr:housenumber": "145", "addr:postcode": "80036", "addr:street": "Via Nazionale delle Puglie", "air_conditioning": "yes", "amenity": "restaurant", "bar": "yes", "cuisine": "pizza;burger;sandwich;chicken;fish_and_chips", "delivery": "yes", "diet:gluten_free": "yes", "diet:vegan": "yes", "diet:vegetarian": "yes", "image": "https://www.ruahfusion.it/wp-content/uploads/2021/02/cropped-cropped-Logo-Bianco-e1612446308811.png", "internet_access": "wlan", "name": "Ruah", "opening_hours": "Mo-Su 12:00-24:00", "phone": "+39 0810147799", "takeaway": "yes", "website": "https://ruahfusion.it", "wheelchair": "yes"}}, {"type": "node", "id": 8538617990, "lat": 40.9496069, "lon": 14.4863276, "tags": {"addr:city": "Nola", "addr:street": "Centro Commerciale Vulcano Buono", "amenity": "restaurant", "brand": "Old Wild West", "brand:wikidata": "Q25402475", "brand:wikipedia": "it:Old Wild West", "cuisine": "american", "name": "Old Wild West"}}, {"type": "node", "id": 8538617991, "lat": 40.9500703, "lon": 14.4867484, "tags": {"amenity": "restaurant", "brand": "Rossopomodoro", "brand:wikidata": "Q16598843", "cuisine": "pizza;seafood", "name": "Rossopomodoro"}}, {"type": "node", "id": 8538618002, "lat": 40.9493438, "lon": 14.4891032, "tags": {"addr:city": "Nola", "addr:street": "Centro Commerciale Vulcano Buono", "amenity": "cafe", "name": "Corso Cioccolato"}}, {"type": "node", "id": 8538618011, "lat": 40.9498621, "lon": 14.4863229, "tags": {"amenity": "restaurant", "cuisine": "pizza", "name": "Serafina"}}, {"type": "node", "id": 8544474425, "lat": 40.8361841, "lon": 14.7709197, "tags": {"amenity": "restaurant", "name": "Casa Barbato", "operator": "G.B. Agricola S.r.l.", "website": "https://www.gbagricola.it/"}}, {"type": "node", "id": 8557331837, "lat": 41.0448665, "lon": 14.5822495}, {"type": "node", "id": 8557331838, "lat": 41.0449753, "lon": 14.5826058}, {"type": "node", "id": 8557331839, "lat": 41.0447503, "lon": 14.5827266}, {"type": "node", "id": 8557331840, "lat": 41.0446415, "lon": 14.5823703}, {"type": "node", "id": 8569791457, "lat": 41.2642395, "lon": 14.7311961}, {"type": "node", "id": 8569791458, "lat": 41.2642977, "lon": 14.7312751}, {"type": "node", "id": 8569791459, "lat": 41.2641954, "lon": 14.7314085}, {"type": "node", "id": 8569791460, "lat": 41.2641372, "lon": 14.7313295}, {"type": "node", "id": 8721922622, "lat": 41.1427963, "lon": 14.8323246}, {"type": "node", "id": 8721922623, "lat": 41.1426232, "lon": 14.8324533}, {"type": "node", "id": 8721922624, "lat": 41.1426769, "lon": 14.8325807}, {"type": "node", "id": 8721922625, "lat": 41.1427211, "lon": 14.8325479}, {"type": "node", "id": 8721922626, "lat": 41.1427532, "lon": 14.8326242}, {"type": "node", "id": 8721922627, "lat": 41.1428822, "lon": 14.8325284}, {"type": "node", "id": 8753236952, "lat": 41.1312357, "lon": 14.4524999, "tags": {"addr:city": "Dugenta", "addr:postcode": "82030", "addr:street": "Via Nazionale Sannitica", "amenity": "restaurant", "cuisine": "pizza", "name": "Pizzeria La Biga", "opening_hours": "Tu-Su 19:00-00:00", "phone": "+3908241921383"}}, {"type": "node", "id": 8757901843, "lat": 41.096267, "lon": 14.468967, "tags": {"addr:city": "Sant'Agata de' Goti", "addr:street": "Via Palmentata", "amenity": "restaurant", "name": "Agriturismo De Masi", "phone": "+390823717284"}}, {"type": "node", "id": 8757901881, "lat": 41.0935419, "lon": 14.504216}, {"type": "node", "id": 8757901882, "lat": 41.0934323, "lon": 14.5041231}, {"type": "node", "id": 8757901883, "lat": 41.0934609, "lon": 14.5040494}, {"type": "node", "id": 8757901884, "lat": 41.0934923, "lon": 14.5040759}, {"type": "node", "id": 8757901885, "lat": 41.0935041, "lon": 14.5040428}, {"type": "node", "id": 8757901886, "lat": 41.093529, "lon": 14.5040544}, {"type": "node", "id": 8757901887, "lat": 41.0935417, "lon": 14.5040018}, {"type": "node", "id": 8757901888, "lat": 41.0936155, "lon": 14.5040484}, {"type": "node", "id": 8769841021, "lat": 41.0320569, "lon": 14.5046362, "tags": {"addr:city": "Arienzo", "addr:street": "Via Monticello", "amenity": "restaurant", "name": "Ristorante Pizzeria degli Ulivi"}}, {"type": "node", "id": 8785664793, "lat": 41.2327681, "lon": 14.9891392, "tags": {"addr:city": "Casalbore", "addr:housenumber": "28", "addr:postcode": "83034", "addr:street": "Contrada Costa Cardilli", "amenity": "restaurant", "cuisine": "italian;regional;local;pasta;homemade", "email": "info@fattoriadeltratturo.it", "name": "Fattoria del Tratturo", "phone": "+39 333 7439555", "reservation": "recommended", "smoking": "outside", "source": "https://fattoriadeltratturo.it/cucina/", "website": "https://fattoriadeltratturo.it/"}}, {"type": "node", "id": 8785664795, "lat": 41.2399606, "lon": 14.9982273, "tags": {"addr:city": "Casalbore", "addr:postcode": "83034", "amenity": "restaurant", "bar": "yes", "cuisine": "italian;regional;local;pasta;homemade", "ele": "705", "email": "info@agrisantelia.it", "internet_access": "wlan", "name": "Oasi Masseria Sant'Elia", "phone": "+39 333 7737555", "reservation": "recommended", "source": "http://www.agrisantelia.it/web/azienda.html;http://www.agrisantelia.it/web/contatti.html", "website": "http://www.agrisantelia.it/", "wheelchair": "yes"}}, {"type": "node", "id": 8791651579, "lat": 41.0610033, "lon": 14.555664, "tags": {"addr:city": "Airola", "addr:street": "Corso Caudino", "amenity": "cafe", "name": "ROY CAF\u00c8"}}, {"type": "node", "id": 8791651580, "lat": 41.0585584, "lon": 14.5568205, "tags": {"amenity": "restaurant", "cuisine": "pizza", "name": "Pizza Speed"}}, {"type": "node", "id": 8792405257, "lat": 41.0780979, "lon": 14.5001032}, {"type": "node", "id": 8792405258, "lat": 41.0780403, "lon": 14.5002573}, {"type": "node", "id": 8792405259, "lat": 41.0778571, "lon": 14.5001367}, {"type": "node", "id": 8792405260, "lat": 41.0779147, "lon": 14.4999826}, {"type": "node", "id": 8837201344, "lat": 41.2083566, "lon": 14.8697257, "tags": {"addr:city": "Pietrelcina", "addr:street": "Contrada Piana Romana", "amenity": "restaurant", "name": "La Vecchia Fattoria Agriturismo", "phone": "+390824991563", "website": "https://lavecchiafattoriaagriturismo.it/"}}, {"type": "node", "id": 8837201345, "lat": 41.2055379, "lon": 14.8696882, "tags": {"addr:city": "Pietrelcina", "addr:street": "Viale San Pio da Pietrelcina", "amenity": "restaurant", "name": "Ristorante Padre Pio"}}, {"type": "node", "id": 8848593556, "lat": 41.2047376, "lon": 14.8672126, "tags": {"addr:city": "Pietrelcina", "addr:housenumber": "4", "addr:street": "Contrada Piana Romana", "amenity": "restaurant", "name": "Agriturismo La Locanda del Contadino", "phone": "+390824991766"}}, {"type": "node", "id": 8848593557, "lat": 41.2046247, "lon": 14.8662056, "tags": {"addr:city": "Pietrelcina", "addr:housenumber": "6", "addr:street": "Contrada Piana Romana", "amenity": "restaurant", "name": "La Tavernetta del Buon Pastore", "phone": "+390824997632"}}, {"type": "node", "id": 8848593558, "lat": 41.212287, "lon": 14.8652764}, {"type": "node", "id": 8848593559, "lat": 41.2130037, "lon": 14.8662944}, {"type": "node", "id": 8848593560, "lat": 41.2131548, "lon": 14.8663131}, {"type": "node", "id": 8848593561, "lat": 41.2132496, "lon": 14.8662571}, {"type": "node", "id": 8848593562, "lat": 41.213896, "lon": 14.8655986}, {"type": "node", "id": 8848593563, "lat": 41.2133374, "lon": 14.86473}, {"type": "node", "id": 8848593564, "lat": 41.213211, "lon": 14.8647253}, {"type": "node", "id": 8848593565, "lat": 41.2131056, "lon": 14.8646412}, {"type": "node", "id": 8848593566, "lat": 41.2130107, "lon": 14.8644965}, {"type": "node", "id": 8848593567, "lat": 41.2129651, "lon": 14.8644171}, {"type": "node", "id": 8848610539, "lat": 41.1830287, "lon": 14.4535094, "tags": {"addr:city": "Castel Campagnano", "addr:street": "Via Roma", "amenity": "restaurant", "name": "Castello Ducale Castel Campagnano", "phone": "+390823863031", "website": "https://www.castelloducale.com/"}}, {"type": "node", "id": 8871129718, "lat": 40.9330351, "lon": 14.522484, "tags": {"amenity": "restaurant", "cuisine": "pizza", "name": "Ciccio's Corner"}}, {"type": "node", "id": 8892655268, "lat": 41.0583596, "lon": 14.7079934, "tags": {"amenity": "restaurant", "cuisine": "pizza"}}, {"type": "node", "id": 8896134309, "lat": 41.1051111, "lon": 14.6255366, "tags": {"addr:city": "Tocco Caudio", "addr:postcode": "82030", "addr:street": "Strada Provinciale 140 Taburno - Contrada Serra", "amenity": "restaurant", "cuisine": "regional;local;italian", "name": "Serra del Taburno", "phone": "+39 0824 888439", "source": "https://www.serradeltaburno.it/contatti/", "website": "https://www.serradeltaburno.it/"}}, {"type": "node", "id": 8896182227, "lat": 41.1014626, "lon": 14.6326288, "tags": {"addr:city": "Tocco Caudio", "addr:postcode": "82030", "amenity": "restaurant", "cuisine": "italian;regional;local", "facebook": "https://www.facebook.com/Masseria-Valle-Delle-Vie-128859578897044", "name": "Masseria Valle delle Vie", "phone": "+39 0824 888458"}}, {"type": "node", "id": 8911237657, "lat": 41.1979615, "lon": 14.8470125, "tags": {"amenity": "cafe", "check_date": "2024-09-29"}}, {"type": "node", "id": 8911296124, "lat": 41.1986637, "lon": 14.8418253, "tags": {"addr:city": "Pietrelcina", "addr:street": "Viale Cappuccini", "amenity": "restaurant", "check_date": "2024-09-29", "cuisine": "pizza;regional", "name": "Ristorante Pizzeria Il Morgione", "payment:cash": "yes", "payment:mastercard": "yes", "payment:visa": "yes"}}, {"type": "node", "id": 8946723736, "lat": 41.0972049, "lon": 14.4871511, "tags": {"amenity": "restaurant", "name": "Agriturismo Campo Rosa"}}, {"type": "node", "id": 8974487902, "lat": 41.0724526, "lon": 14.6377712, "tags": {"addr:street": "Via Cirignano", "air_conditioning": "yes", "amenity": "restaurant", "cuisine": "italian", "name": "Valle dei Greci", "wheelchair": "yes"}}, {"type": "node", "id": 9088955745, "lat": 40.9308831, "lon": 14.5283581, "tags": {"addr:city": "Nola", "addr:housenumber": "240", "addr:street": "Via Generale Mario de Sena", "amenity": "restaurant", "contact:facebook": "https://www.facebook.com/people/Pizza-Gallery/100053261233700/", "cuisine": "pizza", "name": "Pizza Gallery"}}, {"type": "node", "id": 9105818378, "lat": 40.9257787, "lon": 14.4745153, "tags": {"amenity": "restaurant", "name": "Lo sfizietto"}}, {"type": "node", "id": 9105818379, "lat": 40.9275088, "lon": 14.4794164, "tags": {"addr:housenumber": "100", "addr:street": "Via Torquato Tasso", "amenity": "restaurant", "name": "Per Bacco"}}, {"type": "node", "id": 9105818390, "lat": 40.9291739, "lon": 14.4838342, "tags": {"amenity": "restaurant", "cuisine": "pizza", "name": "Maggie"}}, {"type": "node", "id": 9105876026, "lat": 40.9321984, "lon": 14.4914483, "tags": {"amenity": "restaurant", "name": "Machri"}}, {"type": "node", "id": 9129873711, "lat": 41.0892356, "lon": 14.5039773, "tags": {"addr:city": "Sant'Agata de' Goti", "addr:postcode": "82030", "addr:street": "Via Roma", "amenity": "restaurant", "name": "Agape Ristorante", "phone": "+393382961502", "website": "http://www.agaperistorante.it/"}}, {"type": "node", "id": 9129873715, "lat": 41.0916634, "lon": 14.5038831, "tags": {"addr:city": "Sant'Agata de' Goti", "addr:postcode": "82030", "addr:street": "Piazza Sant'Alfonso", "amenity": "restaurant", "cuisine": "pizza", "name": "Al Civico"}}, {"type": "node", "id": 9129873716, "lat": 41.0919104, "lon": 14.5041544, "tags": {"addr:city": "Sant'Agata de' Goti", "addr:postcode": "82030", "addr:street": "Vico Gioielli", "amenity": "restaurant", "name": "Ristorante L'Antro di Alarico", "operator": "Raffaelina Iannotta", "outdoor_seating": "yes"}}, {"type": "node", "id": 9129873917, "lat": 41.0935541, "lon": 14.5038396, "tags": {"addr:city": "Sant'Agata de' Goti", "addr:postcode": "82030", "addr:street": "Largo Torricella", "amenity": "restaurant", "cuisine": "pizza", "name": "Piazzetta Torricella"}}, {"type": "node", "id": 9207329635, "lat": 41.0466566, "lon": 14.5864244, "tags": {"addr:city": "Paolisi", "addr:street": "Strada Statale 7 Via Appia", "amenity": "restaurant", "cuisine": "pizza", "name": "Pizzeria PortaCapuana"}}, {"type": "node", "id": 9254425762, "lat": 41.0708926, "lon": 14.4879508}, {"type": "node", "id": 9254425763, "lat": 41.0709192, "lon": 14.4880772}, {"type": "node", "id": 9254425764, "lat": 41.0708985, "lon": 14.4880848}, {"type": "node", "id": 9254425765, "lat": 41.0709253, "lon": 14.4882119}, {"type": "node", "id": 9254425766, "lat": 41.0707158, "lon": 14.4882896}, {"type": "node", "id": 9254425767, "lat": 41.0706928, "lon": 14.4881806}, {"type": "node", "id": 9254425768, "lat": 41.0705787, "lon": 14.4882229}, {"type": "node", "id": 9254425769, "lat": 41.0705483, "lon": 14.4880785}, {"type": "node", "id": 9268058755, "lat": 41.0430844, "lon": 14.5741564, "tags": {"addr:city": "Paolisi", "addr:housenumber": "237", "addr:postcode": "82011", "addr:street": "Strada Statale 7 Via Appia", "air_conditioning": "yes", "amenity": "restaurant", "bar": "yes", "delivery": "no", "internet_access": "yes", "internet_access:fee": "customers", "name": "Samnium Resort et Suites", "opening_hours": "Mo-Su 09:30-00:00", "outdoor_seating": "yes", "phone": "+390823950153", "takeaway": "no", "website": "https://www.samniumresort.it", "wheelchair": "yes"}}, {"type": "node", "id": 9381671498, "lat": 41.1082697, "lon": 14.6439795}, {"type": "node", "id": 9381671499, "lat": 41.1085838, "lon": 14.6446588}, {"type": "node", "id": 9381671500, "lat": 41.108382, "lon": 14.6451532}, {"type": "node", "id": 9381671501, "lat": 41.1083556, "lon": 14.6452941}, {"type": "node", "id": 9381671502, "lat": 41.108194, "lon": 14.6452169}, {"type": "node", "id": 9381671503, "lat": 41.1078336, "lon": 14.6443009}, {"type": "node", "id": 9407591231, "lat": 40.9323724, "lon": 14.5182418, "tags": {"addr:city": "Nola", "addr:postcode": "80035", "addr:street": "Via Variante 7 Bis", "amenity": "restaurant", "cuisine": "german", "name": "Bayerischer hof", "phone": "+39 339 857 6881"}}, {"type": "node", "id": 9407591234, "lat": 40.9323464, "lon": 14.5192217, "tags": {"addr:city": "Nola", "addr:housenumber": "102-108", "addr:postcode": "80035", "addr:street": "Via Variante 7 Bis", "amenity": "restaurant", "cuisine": "regional", "email": "prenotazioni@locandabruniana.it", "name": "Locanda Bruniana - cucina contemporanea", "phone": "+39 081 235 9428", "website": "https://www.locandabruniana.it/"}}, {"type": "node", "id": 9407637700, "lat": 40.9329787, "lon": 14.5234719, "tags": {"addr:city": "Nola", "addr:postcode": "80035", "addr:street": "Via Variante 7 Bis", "amenity": "restaurant", "name": "La Pagnotta"}}, {"type": "node", "id": 9410338767, "lat": 40.9148334, "lon": 14.810553}, {"type": "node", "id": 9453804647, "lat": 41.0614062, "lon": 14.5927541, "tags": {"addr:city": "Airola", "addr:postcode": "82030", "addr:street": "Via Gianni De Luca", "amenity": "restaurant", "cuisine": "pizza", "name": "Pizzeria \"Autodromo Gianni De Luca\""}}, {"type": "node", "id": 9453804704, "lat": 41.0554986, "lon": 14.5962524}, {"type": "node", "id": 9453804705, "lat": 41.0555247, "lon": 14.596406}, {"type": "node", "id": 9453804706, "lat": 41.0555735, "lon": 14.5963915}, {"type": "node", "id": 9453804707, "lat": 41.0556017, "lon": 14.5965574}, {"type": "node", "id": 9453804708, "lat": 41.0554997, "lon": 14.5965879}, {"type": "node", "id": 9453804709, "lat": 41.0555107, "lon": 14.5966532}, {"type": "node", "id": 9453804710, "lat": 41.0553665, "lon": 14.5966963}, {"type": "node", "id": 9453804711, "lat": 41.055301, "lon": 14.5963114}, {"type": "node", "id": 9461161924, "lat": 41.1106671, "lon": 14.4829141, "tags": {"addr:city": "Sant'Agata de' Goti", "addr:postcode": "82019", "addr:street": "Via Piana del Mondo", "amenity": "restaurant", "name": "Azienda Agrituristica La Piccola Fattoria", "phone": "+393382327624"}}, {"type": "node", "id": 9461161961, "lat": 41.1121605, "lon": 14.4839033, "tags": {"addr:city": "Sant'Agata de' Goti", "addr:housenumber": "16", "addr:postcode": "82019", "addr:street": "Via Piana del Mondo", "amenity": "restaurant", "name": "Agriturismo Borgo Nuovo"}}, {"type": "node", "id": 9513616512, "lat": 41.2183815, "lon": 14.5351258, "tags": {"amenity": "restaurant", "name": "I sapori di nonna Luisa"}}, {"type": "node", "id": 9621600219, "lat": 41.1295883, "lon": 14.4833734, "tags": {"addr:city": "Dugenta", "addr:postcode": "82030", "addr:street": "Via Piano", "amenity": "restaurant", "name": "La Locanda di Sara"}}, {"type": "node", "id": 9672016548, "lat": 40.9085944, "lon": 14.7672469, "tags": {"amenity": "restaurant", "name": "La Locanda Del Pesce"}}, {"type": "node", "id": 9738316710, "lat": 41.284784, "lon": 14.9014228}, {"type": "node", "id": 9738316711, "lat": 41.2846158, "lon": 14.9011666}, {"type": "node", "id": 9738316712, "lat": 41.284548, "lon": 14.9012713}, {"type": "node", "id": 9738316713, "lat": 41.2845616, "lon": 14.9014698}, {"type": "node", "id": 9738316714, "lat": 41.2846158, "lon": 14.9014192}, {"type": "node", "id": 9738316715, "lat": 41.2846809, "lon": 14.9015419}, {"type": "node", "id": 9749792067, "lat": 41.0285639, "lon": 14.6414877}, {"type": "node", "id": 9844394224, "lat": 41.1388728, "lon": 14.8037586, "tags": {"addr:city": "Benevento", "addr:postcode": "82100", "addr:street": "Via dei Dauni", "amenity": "cafe", "name": "Espressioni Caff\u00e8", "opening_hours": "Mo-Su 09:00-21:00"}}, {"type": "node", "id": 9862877022, "lat": 40.8526784, "lon": 14.480419, "tags": {"amenity": "cafe"}}, {"type": "node", "id": 9862877024, "lat": 40.8518793, "lon": 14.4809323, "tags": {"amenity": "cafe", "outdoor_seating": "yes"}}, {"type": "node", "id": 9901924301, "lat": 41.2555476, "lon": 14.5955375}, {"type": "node", "id": 9902451484, "lat": 41.2553868, "lon": 14.5955447}, {"type": "node", "id": 9902451490, "lat": 41.2553776, "lon": 14.5955359}, {"type": "node", "id": 9902451491, "lat": 41.2553914, "lon": 14.5955053}, {"type": "node", "id": 9913476992, "lat": 41.2136441, "lon": 14.5100907}, {"type": "node", "id": 9913476993, "lat": 41.2136894, "lon": 14.5103157}, {"type": "node", "id": 9913476994, "lat": 41.213579, "lon": 14.5103539}, {"type": "node", "id": 9913476995, "lat": 41.2135583, "lon": 14.5102459}, {"type": "node", "id": 9913476996, "lat": 41.2134643, "lon": 14.5102804}, {"type": "node", "id": 9913476997, "lat": 41.2134491, "lon": 14.5102026}, {"type": "node", "id": 9913477011, "lat": 41.2135477, "lon": 14.5101704}, {"type": "node", "id": 9913477012, "lat": 41.2135397, "lon": 14.5101271}, {"type": "node", "id": 9919717957, "lat": 41.2123877, "lon": 14.5108559}, {"type": "node", "id": 9919717958, "lat": 41.2124214, "lon": 14.5109105}, {"type": "node", "id": 9919717959, "lat": 41.2124091, "lon": 14.5109239}, {"type": "node", "id": 9919717960, "lat": 41.2124385, "lon": 14.5109713}, {"type": "node", "id": 9919717961, "lat": 41.2124307, "lon": 14.5109936}, {"type": "node", "id": 9919717962, "lat": 41.2124548, "lon": 14.5110327}, {"type": "node", "id": 9919717963, "lat": 41.2124675, "lon": 14.5110189}, {"type": "node", "id": 9919717964, "lat": 41.2124948, "lon": 14.511063}, {"type": "node", "id": 9919717965, "lat": 41.2125113, "lon": 14.511045}, {"type": "node", "id": 9919717966, "lat": 41.2125346, "lon": 14.5110828}, {"type": "node", "id": 9919717967, "lat": 41.2123795, "lon": 14.5112519}, {"type": "node", "id": 9919717968, "lat": 41.2123494, "lon": 14.5112031}, {"type": "node", "id": 9919717969, "lat": 41.2123695, "lon": 14.5111812}, {"type": "node", "id": 9919717970, "lat": 41.2122911, "lon": 14.5110543}, {"type": "node", "id": 9919717971, "lat": 41.2122704, "lon": 14.511077}, {"type": "node", "id": 9919717972, "lat": 41.2122361, "lon": 14.5110215}, {"type": "node", "id": 9920677461, "lat": 41.2031585, "lon": 14.4993985}, {"type": "node", "id": 9920677462, "lat": 41.2030579, "lon": 14.499521}, {"type": "node", "id": 9920677463, "lat": 41.2030707, "lon": 14.4995394}, {"type": "node", "id": 9920677464, "lat": 41.2030299, "lon": 14.4995862}, {"type": "node", "id": 9920677465, "lat": 41.2028905, "lon": 14.4993866}, {"type": "node", "id": 9920677466, "lat": 41.2029247, "lon": 14.4993398}, {"type": "node", "id": 9920677467, "lat": 41.2028689, "lon": 14.4992589}, {"type": "node", "id": 9920677468, "lat": 41.2029264, "lon": 14.4991889}, {"type": "node", "id": 9920677469, "lat": 41.2029403, "lon": 14.499209}, {"type": "node", "id": 9920677470, "lat": 41.2029703, "lon": 14.4991724}, {"type": "node", "id": 9920677471, "lat": 41.2030475, "lon": 14.4992843}, {"type": "node", "id": 9920677472, "lat": 41.203067, "lon": 14.4992605}, {"type": "node", "id": 9920677473, "lat": 41.2030785, "lon": 14.4992772}, {"type": "node", "id": 9920677474, "lat": 41.2030709, "lon": 14.4992866}, {"type": "node", "id": 9920677475, "lat": 41.2031026, "lon": 14.4993326}, {"type": "node", "id": 9920677476, "lat": 41.2030888, "lon": 14.4993493}, {"type": "node", "id": 9920677477, "lat": 41.2031155, "lon": 14.499388}, {"type": "node", "id": 9920677478, "lat": 41.203135, "lon": 14.4993643}, {"type": "node", "id": 9920677497, "lat": 41.2028946, "lon": 14.4992277}, {"type": "node", "id": 9925576197, "lat": 41.2103179, "lon": 14.5345507}, {"type": "node", "id": 9925576200, "lat": 41.2103767, "lon": 14.5346102}, {"type": "node", "id": 9925576201, "lat": 41.2103739, "lon": 14.5345961}, {"type": "node", "id": 9925576202, "lat": 41.2103937, "lon": 14.5345927}, {"type": "node", "id": 9925576203, "lat": 41.2103901, "lon": 14.5345595}, {"type": "node", "id": 9925576204, "lat": 41.2104123, "lon": 14.5345532}, {"type": "node", "id": 9925576205, "lat": 41.2104183, "lon": 14.5345803}, {"type": "node", "id": 9925576206, "lat": 41.2105205, "lon": 14.534556}, {"type": "node", "id": 9925576207, "lat": 41.2105183, "lon": 14.5345396}, {"type": "node", "id": 9925576213, "lat": 41.210605, "lon": 14.5345032}, {"type": "node", "id": 9929296662, "lat": 41.2249068, "lon": 14.5149066}, {"type": "node", "id": 9929296665, "lat": 41.2248831, "lon": 14.5147838}, {"type": "node", "id": 9929296666, "lat": 41.2248765, "lon": 14.5148}, {"type": "node", "id": 9929426920, "lat": 41.2249269, "lon": 14.5148362}, {"type": "node", "id": 9931557614, "lat": 41.2021232, "lon": 14.5895348, "tags": {"addr:city": "Solopaca", "addr:housenumber": "1", "addr:postcode": "82036", "addr:street": "Via Cerro del Duca", "amenity": "restaurant", "cuisine": "regional;italian", "name": "La Casella del Duca", "phone": "+393477631591"}}, {"type": "node", "id": 9938045443, "lat": 41.2129983, "lon": 14.5344241}, {"type": "node", "id": 9939182480, "lat": 41.2185532, "lon": 14.5350495}, {"type": "node", "id": 9939182481, "lat": 41.2185543, "lon": 14.5351476}, {"type": "node", "id": 9939182482, "lat": 41.2184861, "lon": 14.5351489}, {"type": "node", "id": 9939182483, "lat": 41.2184868, "lon": 14.535218}, {"type": "node", "id": 9939182484, "lat": 41.2183641, "lon": 14.5352204}, {"type": "node", "id": 9939182485, "lat": 41.2183633, "lon": 14.5351497}, {"type": "node", "id": 9939182486, "lat": 41.2182392, "lon": 14.5351521}, {"type": "node", "id": 9939182487, "lat": 41.2182382, "lon": 14.5350556}, {"type": "node", "id": 9939182489, "lat": 41.2182748, "lon": 14.5350549}, {"type": "node", "id": 9941099407, "lat": 41.2185355, "lon": 14.5350498}, {"type": "node", "id": 9941099408, "lat": 41.2182953, "lon": 14.5350545}, {"type": "node", "id": 9967796024, "lat": 40.9880133, "lon": 14.9491107}, {"type": "node", "id": 9967796025, "lat": 40.9880694, "lon": 14.9491557}, {"type": "node", "id": 9967796026, "lat": 40.9880534, "lon": 14.9491906}, {"type": "node", "id": 9967796027, "lat": 40.9880892, "lon": 14.9492193}, {"type": "node", "id": 9967796028, "lat": 40.9880558, "lon": 14.9492922}, {"type": "node", "id": 9967796029, "lat": 40.9880324, "lon": 14.9492734}, {"type": "node", "id": 9967796030, "lat": 40.9880094, "lon": 14.9493235}, {"type": "node", "id": 9967796031, "lat": 40.9879355, "lon": 14.9492642}, {"type": "node", "id": 9967796032, "lat": 40.9879431, "lon": 14.9492477}, {"type": "node", "id": 9967796033, "lat": 40.9879015, "lon": 14.9492143}, {"type": "node", "id": 9967796034, "lat": 40.9879462, "lon": 14.9491166}, {"type": "node", "id": 9967796035, "lat": 40.9879591, "lon": 14.9491269}, {"type": "node", "id": 9967796036, "lat": 40.987968, "lon": 14.9491073}, {"type": "node", "id": 9967796037, "lat": 40.9880023, "lon": 14.9491348}, {"type": "node", "id": 9982918679, "lat": 41.2131342, "lon": 14.5347152}, {"type": "node", "id": 9982918683, "lat": 41.2130501, "lon": 14.5344066}, {"type": "node", "id": 9982918684, "lat": 41.2131318, "lon": 14.5347411}, {"type": "node", "id": 9986908049, "lat": 41.029304, "lon": 14.4862441}, {"type": "node", "id": 9986908050, "lat": 41.0293197, "lon": 14.4863903}, {"type": "node", "id": 9986908051, "lat": 41.0291758, "lon": 14.4864175}, {"type": "node", "id": 9986908052, "lat": 41.0291601, "lon": 14.4862713}, {"type": "node", "id": 9986916323, "lat": 41.0256227, "lon": 14.4738662, "tags": {"addr:city": "Santa Maria a Vico", "addr:housenumber": "314", "addr:postcode": "81028", "addr:street": "Via Nazionale", "amenity": "restaurant", "cuisine": "pizza", "name": "'O Capuzziello", "phone": "+39 08231608844", "website": "https://www.ocapuzziello.it/"}}, {"type": "node", "id": 10007106882, "lat": 41.2131202, "lon": 14.534755}, {"type": "node", "id": 10007440193, "lat": 41.2130301, "lon": 14.5347188}, {"type": "node", "id": 10007440194, "lat": 41.2130456, "lon": 14.5347861}, {"type": "node", "id": 10007440196, "lat": 41.2130495, "lon": 14.5348008}, {"type": "node", "id": 10007440197, "lat": 41.213053, "lon": 14.5348166}, {"type": "node", "id": 10007440198, "lat": 41.2129953, "lon": 14.534688}, {"type": "node", "id": 10007440200, "lat": 41.2131234, "lon": 14.5347511}, {"type": "node", "id": 10007440201, "lat": 41.2130812, "lon": 14.5347909}, {"type": "node", "id": 10009130235, "lat": 41.0326983, "lon": 14.4968757, "tags": {"addr:city": "Arienzo", "addr:housenumber": "3a", "addr:postcode": "81021", "addr:street": "Strada Statale 7 Via Appia", "amenity": "restaurant", "cuisine": "pizza", "name": "Pizzeria Lo Chef", "phone": "+39 08231300527"}}, {"type": "node", "id": 10013787217, "lat": 41.0359756, "lon": 14.5451986, "tags": {"amenity": "restaurant", "name": "Margherita Ristorante"}}, {"type": "node", "id": 10048983178, "lat": 41.1516768, "lon": 14.5086644}, {"type": "node", "id": 10048983180, "lat": 41.1516378, "lon": 14.5085611}, {"type": "node", "id": 10048983182, "lat": 41.1515902, "lon": 14.5084272}, {"type": "node", "id": 10048983183, "lat": 41.1514555, "lon": 14.508514}, {"type": "node", "id": 10048983184, "lat": 41.1515044, "lon": 14.5086451}, {"type": "node", "id": 10048983185, "lat": 41.1515263, "lon": 14.5086332}, {"type": "node", "id": 10048983186, "lat": 41.1515602, "lon": 14.5087749}, {"type": "node", "id": 10048983187, "lat": 41.1516977, "lon": 14.5087323}, {"type": "node", "id": 10068690766, "lat": 41.0889755, "lon": 14.7780021, "tags": {"amenity": "restaurant", "name": "Pizzeria Il trifoglio"}}, {"type": "node", "id": 10068690768, "lat": 41.0702916, "lon": 14.7561058, "tags": {"amenity": "restaurant"}}, {"type": "node", "id": 10068690770, "lat": 41.0744247, "lon": 14.7597148, "tags": {"amenity": "cafe"}}, {"type": "node", "id": 10068690773, "lat": 41.0749125, "lon": 14.7576285, "tags": {"amenity": "cafe", "name": "Bar dello sport"}}, {"type": "node", "id": 10068690806, "lat": 41.0798142, "lon": 14.7602177, "tags": {"amenity": "cafe", "name": "Bar ristorante Gianni"}}, {"type": "node", "id": 10098411686, "lat": 41.1215827, "lon": 14.76938, "tags": {"amenity": "cafe", "name": "Eni Caf\u00e9 & Shop", "operator": "Eni"}}, {"type": "node", "id": 10137688250, "lat": 40.9709955, "lon": 15.0384264, "tags": {"amenity": "restaurant", "name": "La Coccinella", "phone": "+39 328 957 0398"}}, {"type": "node", "id": 10578906866, "lat": 41.0519322, "lon": 14.6089774, "tags": {"addr:city": "Rotondi", "addr:housenumber": "240", "addr:postcode": "83017", "addr:street": "Strada Statale 7 Via Appia", "amenity": "restaurant", "name": "Roy Show Club", "opening_hours": "Mo-Su 20:00-04:00"}}, {"type": "node", "id": 10747290555, "lat": 41.1083822, "lon": 14.6442229}, {"type": "node", "id": 10747290564, "lat": 41.1081006, "lon": 14.6440963}, {"type": "node", "id": 10747290571, "lat": 41.107822, "lon": 14.6444977}, {"type": "node", "id": 10747290575, "lat": 41.1078463, "lon": 14.6445447}, {"type": "node", "id": 10764114283, "lat": 41.0871507, "lon": 14.4887023}, {"type": "node", "id": 10764114284, "lat": 41.0871481, "lon": 14.4887352}, {"type": "node", "id": 10764114285, "lat": 41.0871985, "lon": 14.4887423}, {"type": "node", "id": 10764114286, "lat": 41.08719, "lon": 14.4888484}, {"type": "node", "id": 10764114287, "lat": 41.0872522, "lon": 14.4888572}, {"type": "node", "id": 10764114288, "lat": 41.0872317, "lon": 14.4891128}, {"type": "node", "id": 10764114289, "lat": 41.0869793, "lon": 14.4890772}, {"type": "node", "id": 10764114290, "lat": 41.0870078, "lon": 14.4887203}, {"type": "node", "id": 10764114291, "lat": 41.0870671, "lon": 14.4887287}, {"type": "node", "id": 10764114292, "lat": 41.0870701, "lon": 14.4886909}, {"type": "node", "id": 10764300095, "lat": 41.0935884, "lon": 14.5041195}, {"type": "node", "id": 10937101934, "lat": 41.0888137, "lon": 14.5033376, "tags": {"amenity": "restaurant", "cuisine": "pizza", "name": "Profumo di Napoli"}}, {"type": "node", "id": 11005388013, "lat": 41.1247985, "lon": 14.7780765, "tags": {"addr:city": "Benevento", "addr:postcode": "82100", "addr:street": "Lungosabato Riccardo Bacchelli", "amenity": "cafe", "name": "Bar della Libreria"}}, {"type": "node", "id": 11020782729, "lat": 41.0395237, "lon": 14.6126129, "tags": {"amenity": "cafe"}}, {"type": "node", "id": 11020782785, "lat": 41.0448169, "lon": 14.5787283, "tags": {"amenity": "cafe", "name": "Bar Princess"}}, {"type": "node", "id": 11020782805, "lat": 41.0365757, "lon": 14.548398, "tags": {"amenity": "cafe"}}, {"type": "node", "id": 11020782819, "lat": 41.0359695, "lon": 14.5272146, "tags": {"amenity": "cafe", "name": "Civico 19"}}, {"type": "node", "id": 11067672673, "lat": 40.9550958, "lon": 14.593585, "tags": {"amenity": "restaurant", "name": "La Fenice"}}, {"type": "node", "id": 11069364721, "lat": 41.1181682, "lon": 14.7561301, "tags": {"addr:city": "Benevento", "addr:postcode": "82100", "addr:street": "Contrada San Vito", "amenity": "restaurant", "cuisine": "regional;pizza", "name": "Sapore Mediterraneo", "operator": "Conad"}}, {"type": "node", "id": 11069364734, "lat": 41.1393669, "lon": 14.7791851, "tags": {"addr:city": "Benevento", "addr:postcode": "82100", "addr:street": "Via dei Longobardi", "amenity": "restaurant", "cuisine": "pizza", "name": "Pizzeria Verace", "phone": "082447684"}}, {"type": "node", "id": 11079038916, "lat": 40.9341998, "lon": 14.4917233}, {"type": "node", "id": 11079038917, "lat": 40.9341901, "lon": 14.4919642}, {"type": "node", "id": 11079038918, "lat": 40.9345563, "lon": 14.49199}, {"type": "node", "id": 11079038919, "lat": 40.934566, "lon": 14.4917491}, {"type": "node", "id": 11083812943, "lat": 41.1976235, "lon": 14.8462252, "tags": {"addr:city": "Pietrelcina", "addr:street": "Via Roma", "amenity": "restaurant", "name": "Ristorante Magu'"}}, {"type": "node", "id": 11122264346, "lat": 41.1446753, "lon": 14.7643239}, {"type": "node", "id": 11122264347, "lat": 41.1447251, "lon": 14.7642216}, {"type": "node", "id": 11122264348, "lat": 41.144815, "lon": 14.7642987}, {"type": "node", "id": 11122264349, "lat": 41.1447652, "lon": 14.764401}, {"type": "node", "id": 11181704309, "lat": 41.2210079, "lon": 14.5240918, "tags": {"addr:city": "Telese Terme", "addr:postcode": "82037", "addr:street": "Via Piave", "amenity": "restaurant", "cuisine": "pizza", "name": "Pizzeria Piave", "phone": "+39 3293569658"}}, {"type": "node", "id": 11181729048, "lat": 41.2182568, "lon": 14.5242461, "tags": {"addr:city": "Telese Terme", "addr:postcode": "82037", "addr:street": "Via Cristoforo Colombo", "amenity": "restaurant", "cuisine": "sushi", "name": "Shimi - Sushi Experience", "phone": "+39 3533136623", "website": "https://shimisushi.it"}}, {"type": "node", "id": 11208382424, "lat": 41.0033313, "lon": 14.9976803, "tags": {"addr:city": "Sant'Angelo all'Esca", "addr:postcode": "83050", "addr:street": "Via Monsignor Reppucci", "amenity": "restaurant", "bar": "yes", "cuisine": "regional;italian;coffee_shop", "name": "La Taverna dei Priori", "phone": "082773106", "toilets": "yes", "wheelchair": "yes"}}, {"type": "node", "id": 11247848016, "lat": 40.9557436, "lon": 14.5641817, "tags": {"amenity": "restaurant", "cuisine": "pizza", "name": "Quattro Spicchi", "website": "https://quattrospicchipizzeria.it/"}}, {"type": "node", "id": 11255844725, "lat": 41.0491942, "lon": 14.5976486, "tags": {"addr:place": "Campizze", "addr:postcode": "83017", "amenity": "restaurant", "cuisine": "pizza", "name": "Pizzeria Vecchia Napoli", "phone": "+39 0824836173"}}, {"type": "node", "id": 11255844731, "lat": 41.0508528, "lon": 14.605429, "tags": {"addr:city": "Rotondi", "addr:postcode": "83017", "addr:street": "Strada Provinciale 227 ex SS374", "amenity": "restaurant", "mobile": "+39 3208718308", "name": "Trisquel\u00e8"}}, {"type": "node", "id": 11255844732, "lat": 41.0507964, "lon": 14.6059609, "tags": {"addr:city": "Rotondi", "addr:postcode": "83017", "addr:street": "Strada Provinciale 227 ex SS374", "amenity": "restaurant", "contact:facebook": "https://www.facebook.com/pizzeriabananarana", "cuisine": "pizza", "name": "Pizzeria Bananarana", "phone": "+390824847573"}}, {"type": "node", "id": 11255882249, "lat": 41.0427237, "lon": 14.5701384, "tags": {"addr:city": "Paolisi", "addr:street": "Strada Statale 7 Via Appia", "amenity": "restaurant", "cuisine": "sushi", "name": "Muran Sushi", "phone": "+3908231321522"}}, {"type": "node", "id": 11255882255, "lat": 41.0350957, "lon": 14.5427969, "tags": {"addr:city": "Arpaia", "addr:street": "Via Appia Ovest", "amenity": "restaurant", "cuisine": "pizza", "mobile": "+39 3479111185", "name": "Pizzeria Di Stora", "website": "https://pizzeriadistora.it/"}}, {"type": "node", "id": 11255882256, "lat": 41.0333054, "lon": 14.5013255, "tags": {"amenity": "restaurant", "cuisine": "pizza", "name": "Ottanta Pizza"}}, {"type": "node", "id": 11288325294, "lat": 41.0535399, "lon": 14.9483786, "tags": {"amenity": "restaurant", "guest_house": "bed_and_breakfast", "name": "Da Renato", "tourism": "guest_house", "website": "https://guias-viajes.com/italy/calore/trattoria-da-renato/"}}, {"type": "node", "id": 11288692367, "lat": 41.2072548, "lon": 14.6953416, "tags": {"addr:city": "Torrecuso", "addr:postcode": "82030", "addr:street": "Contrada Collepiano", "amenity": "restaurant", "cuisine": "pizza", "name": "Pizzeria Barbarossa"}}, {"type": "node", "id": 11291367473, "lat": 41.2385738, "lon": 14.4617373}, {"type": "node", "id": 11291367474, "lat": 41.2386078, "lon": 14.4616235}, {"type": "node", "id": 11291367476, "lat": 41.2386325, "lon": 14.4614935}, {"type": "node", "id": 11291367477, "lat": 41.2385935, "lon": 14.461616}, {"type": "node", "id": 11291367478, "lat": 41.2387363, "lon": 14.4618146}, {"type": "node", "id": 11291367479, "lat": 41.2387689, "lon": 14.4616996}, {"type": "node", "id": 11291367480, "lat": 41.2386977, "lon": 14.4616563}, {"type": "node", "id": 11291367481, "lat": 41.2387177, "lon": 14.461589}, {"type": "node", "id": 11291367482, "lat": 41.2386764, "lon": 14.4615669}, {"type": "node", "id": 11291367483, "lat": 41.2386897, "lon": 14.4615253}, {"type": "node", "id": 11373284963, "lat": 41.1312655, "lon": 14.7767678, "tags": {"addr:city": "Benevento", "addr:postcode": "82100", "addr:street": "Corso Giuseppe Garibaldi", "amenity": "cafe", "name": "Caff\u00e8 delle Streghe", "outdoor_seating": "yes"}}, {"type": "node", "id": 11399264197, "lat": 40.9397344, "lon": 14.5218006, "tags": {"amenity": "cafe", "name": "Chantilly"}}, {"type": "node", "id": 11399264204, "lat": 40.9399668, "lon": 14.5210306, "tags": {"amenity": "restaurant", "contact:facebook": "https://www.facebook.com/BraceriaHamburgheriaILMACELLAIO/", "cuisine": "burger;meat", "name": "Braceria Hamburgheria Il Macellaio", "old_name": "Beefulco", "phone": "+390818231178", "website": "https://www.macelleriabraceriailmacellaio.com/"}}, {"type": "node", "id": 11399264213, "lat": 40.9399938, "lon": 14.5225309, "tags": {"addr:city": "Cimitile", "addr:housenumber": "5", "addr:postcode": "80030", "addr:street": "Via Nazionale delle Puglie", "amenity": "restaurant", "cuisine": "pizza", "name": "Anima di Grano", "phone": "+39 0812789150;+39 3924485587"}}, {"type": "node", "id": 11403277296, "lat": 40.9134285, "lon": 14.7855928, "tags": {"amenity": "cafe"}}, {"type": "node", "id": 11403277312, "lat": 40.9132395, "lon": 14.7886618, "tags": {"addr:city": "Avellino", "addr:postcode": "83100", "addr:street": "Piazzale Amedeo Guarino", "amenity": "restaurant", "name": "T-Bone"}}, {"type": "node", "id": 11412607896, "lat": 40.9112961, "lon": 14.7489984, "tags": {"addr:city": "Mercogliano", "addr:postcode": "83013", "addr:street": "Via Nicola Santangelo", "amenity": "restaurant", "cuisine": "sushi", "name": "Sakura Sushi"}}, {"type": "node", "id": 11412607897, "lat": 40.9113424, "lon": 14.7485841, "tags": {"addr:city": "Mercogliano", "addr:postcode": "83013", "addr:street": "Via Nicola Santangelo", "amenity": "restaurant", "brand": "Old Wild West", "brand:wikidata": "Q25402475", "cuisine": "american", "level": "-1", "name": "Old Wild West"}}, {"type": "node", "id": 11412680441, "lat": 40.9360749, "lon": 14.7290762, "tags": {"amenity": "restaurant", "name": "Ristorante Parthenos"}}, {"type": "node", "id": 11415133559, "lat": 41.1265345, "lon": 14.7968148, "tags": {"amenity": "cafe"}}, {"type": "node", "id": 11455652327, "lat": 40.9307661, "lon": 14.5481494, "tags": {"addr:city": "Casamarciano", "addr:housenumber": "1", "addr:postcode": "80032", "addr:street": "Via Circumvallazione", "amenity": "cafe", "contact:facebook": "https://www.facebook.com/lagardenia1978/", "name": "La Gardenia", "opening_hours": "Mo-Fr 06:00-02:00; Su 06:30-02:00", "outdoor_seating": "no", "phone": "081 823 4377", "shop": "pastry"}}, {"type": "node", "id": 11521441300, "lat": 41.0862529, "lon": 14.5502446}, {"type": "node", "id": 11521441308, "lat": 41.086485, "lon": 14.5503951}, {"type": "node", "id": 11521441321, "lat": 41.08664, "lon": 14.550489}, {"type": "node", "id": 11521441331, "lat": 41.0865102, "lon": 14.5501533}, {"type": "node", "id": 11521441339, "lat": 41.0863381, "lon": 14.5502409}, {"type": "node", "id": 11521441340, "lat": 41.0866647, "lon": 14.5504172}, {"type": "node", "id": 11521441368, "lat": 41.0864399, "lon": 14.5504214}, {"type": "node", "id": 11521443177, "lat": 41.0864752, "lon": 14.5503023}, {"type": "node", "id": 11521443178, "lat": 41.0864462, "lon": 14.5499271}, {"type": "node", "id": 11521443183, "lat": 41.0865237, "lon": 14.5501615}, {"type": "node", "id": 11521443194, "lat": 41.0864164, "lon": 14.5504896}, {"type": "node", "id": 11521443198, "lat": 41.086283, "lon": 14.5503185}, {"type": "node", "id": 11521443215, "lat": 41.0865636, "lon": 14.5499983}, {"type": "node", "id": 11521443231, "lat": 41.0863083, "lon": 14.5503338}, {"type": "node", "id": 11521443245, "lat": 41.0862989, "lon": 14.5502725}, {"type": "node", "id": 11521443247, "lat": 41.0862687, "lon": 14.5501988}, {"type": "node", "id": 11521443264, "lat": 41.0864697, "lon": 14.5504394}, {"type": "node", "id": 11521443277, "lat": 41.0862825, "lon": 14.5504085}, {"type": "node", "id": 11582070666, "lat": 40.8842116, "lon": 14.9771374, "tags": {"amenity": "restaurant", "name": "La foresta: Agriturismo", "website": "https://www.agriturismolaforesta.com/"}}, {"type": "node", "id": 11669828831, "lat": 41.0731545, "lon": 14.6381656, "tags": {"addr:city": "Montesarchio", "addr:street": "Via Cirignano", "amenity": "restaurant", "name": "Xu\u00e8 Eventi"}}, {"type": "node", "id": 11672710706, "lat": 41.0564897, "lon": 14.6275327, "tags": {"addr:city": "Montesarchio", "addr:postcode": "82016", "addr:street": "Via Napoli", "amenity": "restaurant", "cuisine": "pizza", "mobile": "+39 3298760545", "name": "Il Segreto di Pulcinella"}}, {"type": "node", "id": 11672710726, "lat": 41.05971, "lon": 14.6329242, "tags": {"addr:city": "Montesarchio", "addr:postcode": "82016", "addr:street": "Via Napoli", "amenity": "restaurant", "cuisine": "pizza", "mobile": "+39 3495354477", "name": "Scrokkiar\u00e9"}}, {"type": "node", "id": 11672710733, "lat": 41.0599638, "lon": 14.6336811, "tags": {"addr:city": "Montesarchio", "addr:postcode": "82016", "addr:street": "Via Francesco Puchetta", "amenity": "restaurant", "cuisine": "pizza", "mobile": "+39 3471464373", "name": "Pizzeria Reginella", "operator": "Bernardo Nazzaro"}}, {"type": "node", "id": 11672710762, "lat": 41.06282, "lon": 14.6371707, "tags": {"addr:city": "Montesarchio", "addr:postcode": "82016", "addr:street": "Via Napoli", "amenity": "cafe", "name": "Mondo Caffe'", "outdoor_seating": "no"}}, {"type": "node", "id": 11672725373, "lat": 41.0633747, "lon": 14.6384906, "tags": {"amenity": "restaurant", "cuisine": "italian", "name": "Cotto & Mangiato"}}, {"type": "node", "id": 11672725396, "lat": 41.0621921, "lon": 14.6412978, "tags": {"addr:city": "Montesarchio", "addr:postcode": "82016", "addr:street": "Piazza Vittorio Veneto", "amenity": "restaurant", "cuisine": "pizza", "name": "Pizzeria Basilico", "phone": "+39 0824832298"}}, {"type": "node", "id": 11672725409, "lat": 41.061279, "lon": 14.6427555, "tags": {"addr:city": "Montesarchio", "addr:postcode": "82016", "addr:street": "Via Benevento", "amenity": "restaurant", "cuisine": "pizza", "mobile": "+39 3343533161", "name": "Il Cuore di Napoli Gold"}}, {"type": "node", "id": 11672725410, "lat": 41.0608527, "lon": 14.6437158, "tags": {"addr:city": "Montesarchio", "addr:postcode": "82016", "addr:street": "Via Benevento", "amenity": "cafe", "name": "Uptown Caf\u00e8"}}, {"type": "node", "id": 11672725475, "lat": 41.0645202, "lon": 14.6399198, "tags": {"addr:city": "Montesarchio", "addr:postcode": "82016", "addr:street": "Piazza Umberto I", "amenity": "restaurant", "name": "Trallall\u00e0"}}, {"type": "node", "id": 11730395295, "lat": 40.9116688, "lon": 14.7737142, "tags": {"amenity": "restaurant", "cuisine": "pizza", "name": "Daniele Gourmet"}}, {"type": "node", "id": 11769176668, "lat": 40.8649447, "lon": 14.5541283, "tags": {"amenity": "cafe", "indoor_seating": "yes", "outdoor_seating": "no"}}, {"type": "node", "id": 11769206590, "lat": 40.8655923, "lon": 14.5545078, "tags": {"amenity": "cafe"}}, {"type": "node", "id": 11769252741, "lat": 40.8679268, "lon": 14.5542205, "tags": {"amenity": "cafe"}}, {"type": "node", "id": 11769278109, "lat": 40.8742988, "lon": 14.5521771, "tags": {"amenity": "cafe", "indoor_seating": "yes", "outdoor_seating": "yes"}}, {"type": "node", "id": 11769278155, "lat": 40.8785387, "lon": 14.5511004, "tags": {"amenity": "restaurant", "cuisine": "pizza"}}, {"type": "node", "id": 11769294581, "lat": 40.8808723, "lon": 14.5503955, "tags": {"amenity": "restaurant", "cuisine": "pizza"}}, {"type": "node", "id": 11769295228, "lat": 40.8778116, "lon": 14.5512576, "tags": {"amenity": "cafe", "indoor_seating": "yes", "outdoor_seating": "yes"}}, {"type": "node", "id": 11792437812, "lat": 41.0156434, "lon": 14.4642493}, {"type": "node", "id": 11792437813, "lat": 41.0157068, "lon": 14.4645246}, {"type": "node", "id": 11792437814, "lat": 41.0156189, "lon": 14.4645633}, {"type": "node", "id": 11792437815, "lat": 41.0155927, "lon": 14.464458}, {"type": "node", "id": 11792437816, "lat": 41.0156213, "lon": 14.4644455}, {"type": "node", "id": 11792437817, "lat": 41.01558, "lon": 14.4642794}, {"type": "node", "id": 11813581827, "lat": 41.1319023, "lon": 14.7742145, "tags": {"addr:city": "Benevento", "addr:postcode": "82100", "addr:street": "Corso Giuseppe Garibaldi", "amenity": "restaurant", "cuisine": "pizza", "name": "Pizzeria Romana"}}, {"type": "node", "id": 11813582459, "lat": 41.1521693, "lon": 14.7828417, "tags": {"addr:city": "Benevento", "addr:street": "Via San Chirico", "amenity": "restaurant", "name": "Arcadia Ristogarden"}}, {"type": "node", "id": 11825802759, "lat": 40.9161782, "lon": 14.748423, "tags": {"addr:city": "Mercogliano", "addr:housenumber": "27", "addr:postcode": "83013", "addr:street": "Via Nicola Santangelo", "amenity": "restaurant", "contact:email": "siciliabedda.risto@libero.it", "contact:phone": "+39 342 011 7215", "contact:website": "https://siciliabedda.webnode.it/", "name": "Sicilia Bedda"}}, {"type": "node", "id": 11828159837, "lat": 41.1294674, "lon": 14.7952522, "tags": {"addr:city": "Benevento", "addr:postcode": "82100", "addr:street": "Via Alfredo Paolella", "amenity": "restaurant", "name": "Albori"}}, {"type": "node", "id": 11907926233, "lat": 40.9494463, "lon": 14.4891854, "tags": {"amenity": "cafe", "level": "0", "name": "Juez Caf\u00e8", "operator": "D & D development s.r.l.", "phone": "+39 081 224 9643", "ref:vatin": "IT04383280619"}}, {"type": "node", "id": 11927876969, "lat": 40.9468712, "lon": 14.6255183, "tags": {"addr:housenumber": "2", "addr:postcode": "83020", "addr:street": "Viale Michelangelo", "amenity": "restaurant", "contact:facebook": "https://facebook.com/share/8oLeNbdXgVFUTKtG", "contact:instagram": "mandamentostores", "cuisine": "pizza", "name": "0' Primm Ammore", "opening_hours": "Tu-Su 18:00-01:00", "phone": "0818243550"}}, {"type": "node", "id": 12029616376, "lat": 41.2351115, "lon": 14.4991348, "tags": {"amenity": "cafe", "indoor_seating": "yes", "name": "Crystal bar", "outdoor_seating": "yes"}}, {"type": "node", "id": 12029623296, "lat": 41.2344389, "lon": 14.4995584, "tags": {"air_conditioning": "yes", "amenity": "restaurant", "diet:vegetarian": "yes", "indoor_seating": "yes", "name": "Missiu", "opening_hours": "Th-Tu 05:30-02:00+", "outdoor_seating": "yes", "payment:credit_cards": "yes", "payment:debit_cards": "yes", "smoking": "outside", "wheelchair": "no"}}, {"type": "node", "id": 12041980495, "lat": 40.8354364, "lon": 14.4867045, "tags": {"amenity": "restaurant", "name": "Gianfranco Iervolino Pizza&Fritti"}}, {"type": "node", "id": 12073257188, "lat": 41.0282644, "lon": 14.9257972, "tags": {"amenity": "restaurant", "cuisine": "italian", "name": "agriturismo", "opening_hours": "Mo-Su 09:00-21:00", "phone": "3483328310", "website": "https://www.casinorosso.it/"}}, {"type": "node", "id": 12111213124, "lat": 41.132809, "lon": 14.7800063, "tags": {"air_conditioning": "yes", "amenity": "restaurant", "changing_table": "no", "contact:website": "https://lapampanini.it", "cuisine": "pizza", "diet:vegan": "yes", "diet:vegetarian": "yes", "indoor_seating": "yes", "name": "La Pampanini", "opening_hours": "Tu-We 19:30-22:45; Fr 19:30-23:30; Sa 19:15-23:45", "outdoor_seating": "no", "payment:credit_cards": "yes", "payment:debit_cards": "yes", "smoking": "no", "toilets": "yes", "toilets:wheelchair": "limited", "website:menu": "https://menu.lapampanini.it/", "wheelchair": "limited"}}, {"type": "node", "id": 12115185660, "lat": 41.129888, "lon": 14.77885, "tags": {"amenity": "restaurant", "contact:website": "https://www.teresapaparella.it/menu/", "cuisine": "italian;regional", "name": "Teresa Paparella"}}, {"type": "node", "id": 12167128740, "lat": 40.9292911, "lon": 14.8272454}, {"type": "node", "id": 12167128748, "lat": 40.9294668, "lon": 14.8273068}, {"type": "node", "id": 12167128753, "lat": 40.9295487, "lon": 14.8274176}, {"type": "node", "id": 12167128755, "lat": 40.9293519, "lon": 14.8273277}, {"type": "node", "id": 12167128756, "lat": 40.9295603, "lon": 14.8268964}, {"type": "node", "id": 12167128758, "lat": 40.9292821, "lon": 14.8274182}, {"type": "node", "id": 12167128762, "lat": 40.9296695, "lon": 14.827044}, {"type": "node", "id": 12167128763, "lat": 40.9294124, "lon": 14.8275943}, {"type": "node", "id": 12208674628, "lat": 41.1897196, "lon": 14.8316411, "tags": {"amenity": "restaurant", "check_date": "2024-09-29", "cuisine": "pizza;regional", "name": "Da Pietro", "outdoor_seating": "yes"}}, {"type": "node", "id": 12208674629, "lat": 41.1898058, "lon": 14.8312004, "tags": {"amenity": "cafe", "check_date": "2024-09-29"}}, {"type": "node", "id": 12208686267, "lat": 41.1979369, "lon": 14.8475674, "tags": {"amenity": "cafe", "check_date": "2024-09-29"}}, {"type": "node", "id": 12208686268, "lat": 41.1979669, "lon": 14.8477652, "tags": {"amenity": "restaurant", "check_date": "2024-09-29", "name": "Il pozzo di Pulcinella", "outdoor_seating": "yes"}}, {"type": "node", "id": 12208718947, "lat": 41.1976454, "lon": 14.8487089, "tags": {"amenity": "cafe", "check_date": "2024-09-29", "name": "Bar Mil\u00f9"}}, {"type": "node", "id": 12208718949, "lat": 41.1976195, "lon": 14.8490177, "tags": {"amenity": "cafe", "check_date": "2024-09-29", "name": "Orlando Bar"}}, {"type": "node", "id": 12208844316, "lat": 41.1985217, "lon": 14.8415447, "tags": {"amenity": "restaurant", "check_date": "2024-09-29", "name": "Il Sannio"}}, {"type": "node", "id": 12208844322, "lat": 41.1983283, "lon": 14.8486242, "tags": {"amenity": "restaurant", "check_date": "2024-09-29", "name": "Trattoria Da Silvano", "outdoor_seating": "yes"}}, {"type": "node", "id": 12208844323, "lat": 41.1994522, "lon": 14.845235, "tags": {"amenity": "restaurant", "check_date": "2024-09-29", "name": "La Botte", "outdoor_seating": "yes"}}, {"type": "node", "id": 12282718826, "lat": 41.223307, "lon": 14.9799738, "tags": {"amenity": "cafe"}}, {"type": "node", "id": 12309334848, "lat": 41.2430398, "lon": 14.5554816, "tags": {"amenity": "restaurant", "name": "Agriturismo Scompiglio"}}, {"type": "node", "id": 12309343811, "lat": 41.2487592, "lon": 14.548953, "tags": {"amenity": "restaurant", "name": "Ristorante Pizzeria La Casa Bianca"}}, {"type": "node", "id": 12369412992, "lat": 41.1333227, "lon": 14.7803292, "tags": {"amenity": "cafe", "check_date": "2024-11-24"}}, {"type": "node", "id": 12369565999, "lat": 41.1315136, "lon": 14.7807376, "tags": {"amenity": "restaurant", "bar": "yes", "check_date": "2024-11-24", "name": "Da Minos", "outdoor_seating": "yes", "start_date": "2012"}}, {"type": "node", "id": 12369566000, "lat": 41.1315688, "lon": 14.7806935, "tags": {"amenity": "restaurant", "check_date": "2024-11-24", "name": "Bam\u00ec"}}, {"type": "node", "id": 12369571071, "lat": 41.1289926, "lon": 14.7807677, "tags": {"amenity": "restaurant", "check_date": "2024-11-24", "cuisine": "regional", "name": "Trattoria del Cinghiale", "outdoor_seating": "no", "reservation": "yes", "wheelchair": "no"}}, {"type": "node", "id": 12369633014, "lat": 41.1315197, "lon": 14.781304, "tags": {"amenity": "restaurant", "check_date": "2024-11-24", "name": "Osteria Sapori di corte"}}, {"type": "node", "id": 12402989365, "lat": 41.2544775, "lon": 14.6056273, "tags": {"amenity": "restaurant", "cuisine": "pizza", "name": "La Vittoria"}}, {"type": "node", "id": 12403004552, "lat": 41.2606495, "lon": 14.6257711, "tags": {"amenity": "restaurant", "name": "La Terrazza delle Janare"}}, {"type": "node", "id": 12431827901, "lat": 40.9177052, "lon": 14.7948596, "tags": {"addr:housenumber": "82", "addr:postcode": "83100", "addr:street": "Via Circumvallazione", "amenity": "restaurant", "contact:facebook": "pizzeriamadison", "contact:instagram": "madisonpizzaristo", "cuisine": "pizza", "name": "Madison - Pizza & Rist\u00f2", "opening_hours": "Mo-Su 12:00-15:00, 19:00-00:00", "phone": "+39 825 780844", "website": "https://www.pizzeriamadison.it"}}, {"type": "node", "id": 12444166682, "lat": 41.2568578, "lon": 14.599607, "tags": {"addr:city": "Guardia Sanframondi", "addr:housenumber": "10", "addr:postcode": "82034", "addr:street": "Piazza Municipio", "amenity": "restaurant", "cuisine": "italian", "mobile": "328", "name": "Alchimie Bistr\u00f2", "phone": "3533175242"}}, {"type": "node", "id": 12456316769, "lat": 40.8763263, "lon": 14.85531}, {"type": "node", "id": 12457165005, "lat": 40.9143862, "lon": 14.7939853, "tags": {"amenity": "cafe", "description": "Bottega Equo e Solidale", "name": "Bar Sociale Hope"}}, {"type": "node", "id": 12505351802, "lat": 40.8764585, "lon": 14.8554126}, {"type": "node", "id": 12505351803, "lat": 40.8763978, "lon": 14.8555492}, {"type": "node", "id": 12505351804, "lat": 40.8762657, "lon": 14.8554467}, {"type": "node", "id": 12516775501, "lat": 41.0552841, "lon": 14.7031659, "tags": {"addr:postcode": "83016", "amenity": "restaurant", "cuisine": "italian_pizza;pizza", "name": "Bar Pizzeria delle Ville", "opening_hours": "Mo-Su 09:00-23:00", "phone": "+39 0824 840430"}}, {"type": "node", "id": 12522971397, "lat": 40.9301488, "lon": 14.5558194, "tags": {"addr:city": "Casamarciano", "addr:street": "Via San Clemente", "amenity": "cafe", "contact:facebook": "https://www.facebook.com/rues45/", "name": "Rues 45", "outdoor_seating": "yes"}}, {"type": "node", "id": 12526266355, "lat": 41.2545205, "lon": 14.5939333, "tags": {"amenity": "restaurant", "name": "Il Platano"}}, {"type": "node", "id": 12637389737, "lat": 40.8416937, "lon": 14.8015028, "tags": {"addr:city": "Banzano", "addr:postcode": "83025", "addr:street": "Via Nuova", "amenity": "restaurant", "name": "Al fungo velenoso", "phone": "+39 0825 597014"}}, {"type": "node", "id": 12655831239, "lat": 41.1834065, "lon": 14.902569}, {"type": "node", "id": 12655831240, "lat": 41.1834556, "lon": 14.9027134}, {"type": "node", "id": 12655831241, "lat": 41.1835257, "lon": 14.9026668}, {"type": "node", "id": 12655831242, "lat": 41.1835678, "lon": 14.9027833}, {"type": "node", "id": 12655831243, "lat": 41.183361, "lon": 14.9029463}, {"type": "node", "id": 12655831244, "lat": 41.1832804, "lon": 14.9026668}, {"type": "node", "id": 12655831245, "lat": 41.182195, "lon": 14.9014949}, {"type": "node", "id": 12655831246, "lat": 41.1821659, "lon": 14.9015932}, {"type": "node", "id": 12655831247, "lat": 41.1820946, "lon": 14.9015476}, {"type": "node", "id": 12655831248, "lat": 41.1821263, "lon": 14.9014563}, {"type": "node", "id": 12655831249, "lat": 41.1794848, "lon": 14.8993028}, {"type": "node", "id": 12655831250, "lat": 41.1795091, "lon": 14.8993716}, {"type": "node", "id": 12655831251, "lat": 41.1795274, "lon": 14.8993514}, {"type": "node", "id": 12655831252, "lat": 41.1795669, "lon": 14.8994363}, {"type": "node", "id": 12655831253, "lat": 41.1796339, "lon": 14.8996182}, {"type": "node", "id": 12655831254, "lat": 41.1795487, "lon": 14.8997112}, {"type": "node", "id": 12655831255, "lat": 41.1794574, "lon": 14.8995212}, {"type": "node", "id": 12655831256, "lat": 41.1794361, "lon": 14.8995414}, {"type": "node", "id": 12655831257, "lat": 41.1794057, "lon": 14.8994646}, {"type": "node", "id": 12655831258, "lat": 41.17943, "lon": 14.8994363}, {"type": "node", "id": 12655831259, "lat": 41.1793935, "lon": 14.8993716}, {"type": "node", "id": 12655848779, "lat": 41.132044, "lon": 14.7796492}, {"type": "node", "id": 12655848780, "lat": 41.1320481, "lon": 14.7796626}, {"type": "node", "id": 12655848781, "lat": 41.1320835, "lon": 14.7796444}, {"type": "node", "id": 12655848782, "lat": 41.1320855, "lon": 14.779677}, {"type": "node", "id": 12655848783, "lat": 41.1320269, "lon": 14.7797109}, {"type": "node", "id": 12655848784, "lat": 41.1320168, "lon": 14.77968}, {"type": "node", "id": 12655848785, "lat": 41.132039, "lon": 14.7796653}, {"type": "node", "id": 12655848786, "lat": 41.1320339, "lon": 14.7796559}, {"type": "node", "id": 12655848787, "lat": 41.1319945, "lon": 14.7796814}, {"type": "node", "id": 12655848788, "lat": 41.1319622, "lon": 14.7795902}, {"type": "node", "id": 12660487432, "lat": 40.9155026, "lon": 14.7885207, "tags": {"addr:city": "Avellino", "addr:housenumber": "55", "addr:postcode": "83100", "addr:street": "Via Campane", "amenity": "restaurant", "cuisine": "pizza", "name": "I Resilienti", "opening_hours": "Mo-Sa 12:30-14:30,18:30-23:00; Su 18:30-23:00", "phone": "+39 366 256 0356", "website": "https://iresilientipizzaefrittidautore.com/"}}, {"type": "node", "id": 12660645945, "lat": 40.9146987, "lon": 14.7959043, "tags": {"amenity": "restaurant", "cuisine": "pizza", "name": "Lievitum"}}, {"type": "node", "id": 12668868174, "lat": 40.9189685, "lon": 14.7891631, "tags": {"addr:housenumber": "7-8", "addr:street": "Fiazzetta Perna", "amenity": "restaurant", "cuisine": "kebab", "name": "Il Regno del Kebab", "phone": "+393281665829"}}, {"type": "node", "id": 12670749204, "lat": 41.219764, "lon": 14.5279169, "tags": {"addr:city": "Telese Terme", "addr:housenumber": "228", "addr:postcode": "82037", "addr:street": "Viale Minieri", "amenity": "restaurant", "contact:instagram": "https://www.instagram.com/osteria_addoziteresa/", "name": "Osteria Add\u00f3 Zi Teresa"}}, {"type": "node", "id": 12730693359, "lat": 41.0598147, "lon": 15.0122299}, {"type": "node", "id": 12730693360, "lat": 41.0600066, "lon": 15.0123943}, {"type": "node", "id": 12730693361, "lat": 41.0598772, "lon": 15.01268}, {"type": "node", "id": 12730693362, "lat": 41.0596707, "lon": 15.0125304}, {"type": "node", "id": 12730693373, "lat": 41.0597475, "lon": 15.0123701, "tags": {"entrance": "main"}}, {"type": "node", "id": 12745357301, "lat": 41.1381352, "lon": 14.797154, "tags": {"amenity": "restaurant", "cuisine": "italian;italian_pizza;pasta;seafood", "name": "Quisisana Caff\u00e8"}}, {"type": "node", "id": 12819289404, "lat": 41.2547475, "lon": 14.6165521, "tags": {"amenity": "restaurant", "name": "Riflessi Food Experience ristorante"}}, {"type": "node", "id": 12828342857, "lat": 41.078284, "lon": 14.4577428, "tags": {"amenity": "restaurant", "indoor_seating": "yes", "name": "Azienda Agrituristica \"La mela annurca\"", "outdoor_seating": "no", "phone": "+39 0823 717135"}}, {"type": "node", "id": 12879105439, "lat": 41.0533535, "lon": 15.019851}, {"type": "node", "id": 12879105440, "lat": 41.0534842, "lon": 15.0195866}, {"type": "node", "id": 12879105441, "lat": 41.0534816, "lon": 15.0189413}, {"type": "node", "id": 12879105442, "lat": 41.0532036, "lon": 15.0189401}, {"type": "node", "id": 12879105443, "lat": 41.0532058, "lon": 15.0175593}, {"type": "node", "id": 12879105451, "lat": 41.0540454, "lon": 15.0169502}, {"type": "node", "id": 12879105452, "lat": 41.0540397, "lon": 15.0165928}, {"type": "node", "id": 12879105453, "lat": 41.0537135, "lon": 15.0166079}, {"type": "node", "id": 12879105454, "lat": 41.0537107, "lon": 15.0162693}, {"type": "node", "id": 12879105455, "lat": 41.0532994, "lon": 15.0162505}, {"type": "node", "id": 12879105456, "lat": 41.0533022, "lon": 15.0160285}, {"type": "node", "id": 12879105457, "lat": 41.0530384, "lon": 15.0160624}, {"type": "node", "id": 12879105458, "lat": 41.0530157, "lon": 15.0164837}, {"type": "node", "id": 12879105459, "lat": 41.0521476, "lon": 15.0161339}, {"type": "node", "id": 12879105460, "lat": 41.0520427, "lon": 15.0161263}, {"type": "node", "id": 12879105461, "lat": 41.0519093, "lon": 15.0161828}, {"type": "node", "id": 12879105462, "lat": 41.0518753, "lon": 15.0162768}, {"type": "node", "id": 12879105463, "lat": 41.0520256, "lon": 15.0163934}, {"type": "node", "id": 12879105464, "lat": 41.0520994, "lon": 15.016574}, {"type": "node", "id": 12879105465, "lat": 41.0520625, "lon": 15.0180411}, {"type": "node", "id": 12879105466, "lat": 41.0521249, "lon": 15.0181728}, {"type": "node", "id": 12879105467, "lat": 41.0526059, "lon": 15.0177783}, {"type": "node", "id": 12879105468, "lat": 41.0525657, "lon": 15.0176904}, {"type": "node", "id": 12879105469, "lat": 41.0528223, "lon": 15.0174848}, {"type": "node", "id": 12879105470, "lat": 41.0531447, "lon": 15.0174524}, {"type": "node", "id": 12879105471, "lat": 41.0531862, "lon": 15.0174168}, {"type": "node", "id": 12879105472, "lat": 41.0532009, "lon": 15.017339}, {"type": "node", "id": 12879105473, "lat": 41.0532058, "lon": 15.0173131}, {"type": "node", "id": 12879105474, "lat": 41.0533279, "lon": 15.0170799}, {"type": "node", "id": 12879105478, "lat": 41.0522761, "lon": 15.0190137}, {"type": "node", "id": 12879105479, "lat": 41.0528234, "lon": 15.017616}, {"type": "node", "id": 12879105480, "lat": 41.0530284, "lon": 15.0175909}, {"type": "way", "id": 182081891, "nodes": [1924180280, 1924180276, 1924180279, 1924180281, 1924180280], "tags": {"amenity": "restaurant", "building": "yes", "tourism": "guest_house"}}, {"type": "way", "id": 186114423, "nodes": [1968186254, 1968186249, 1968186238, 1968186243, 1968186237, 1968186228, 1968186233, 1968186257, 1968186258, 1968186254], "tags": {"amenity": "cafe", "building": "retail", "cuisine": "coffee_shop"}}, {"type": "way", "id": 186923809, "nodes": [1976711311, 1976711306, 1976711313, 1976711334, 1976739069, 1976739066, 1976711311], "tags": {"amenity": "cafe", "building": "commercial", "name": "Eni Caf\u00e8"}}, {"type": "way", "id": 187038211, "nodes": [1977905129, 1977905125, 1977905127, 1977905131, 1977905129], "tags": {"amenity": "cafe", "building": "commercial"}}, {"type": "way", "id": 188541845, "nodes": [1991671572, 1991671583, 1991671580, 1991671560, 1991671557, 1991671576, 1991671572], "tags": {"amenity": "cafe", "building": "commercial"}}, {"type": "way", "id": 189132720, "nodes": [1997829984, 1997829962, 1997829967, 1997829989, 1997829984], "tags": {"amenity": "cafe", "name": "Bar della Villa", "survey:date": "2025-05-09"}}, {"type": "way", "id": 198095578, "nodes": [2082779730, 2082779731, 2082779733, 2082779732, 2082779730], "tags": {"amenity": "restaurant", "brand": "Autogrill", "brand:wikidata": "Q786790", "building": "commercial", "cuisine": "italian;regional", "name": "Autogrill", "operator": "Autogrill"}}, {"type": "way", "id": 198472135, "nodes": [1803706605, 2085990939, 2085996725, 2085996727, 2085990884, 9410338767, 1803706605], "tags": {"amenity": "cafe", "building": "commercial"}}, {"type": "way", "id": 208721505, "nodes": [2189866367, 2189866365, 2189866364, 2189866366, 2189866367], "tags": {"amenity": "restaurant", "cuisine": "italian"}}, {"type": "way", "id": 218877404, "nodes": [2280849450, 2280849459, 2280849456, 2280849454, 2280849450], "tags": {"amenity": "cafe", "building": "commercial", "name": "Il Ritrovo"}}, {"type": "way", "id": 235552609, "nodes": [2421626860, 2435908043, 2420526578, 2435908044, 2421626965, 2421626959, 2421626962, 2421626991, 2421627017, 2421627019, 2421626999, 2421626954, 9749792067, 2421626930, 2421626920, 2421626917, 2421626906, 2421626891, 2421626860], "tags": {"addr:city": "Cervinara", "addr:postcode": "83012", "addr:street": "Via Variante", "amenity": "restaurant", "name": "Villa Casale", "phone": "+39 3389282971", "website": "http://www.villacasale.org"}}, {"type": "way", "id": 258497405, "nodes": [2638411740, 2638411741, 2638411742, 2638411743, 2638411744, 2638411745, 2638411746, 2638411747, 2638411748, 2638411749, 2638411750, 2638411751, 2638411752, 2638411753, 2638411754, 2638411755, 2638411756, 2638411740], "tags": {"addr:city": "Airola", "addr:housenumber": "11", "addr:postcode": "82011", "addr:street": "Via Caudisi", "amenity": "restaurant", "building": "yes", "cuisine": "pizza;italian;pasta", "name": "Antovin", "parking": "yes", "takeaway": "yes"}}, {"type": "way", "id": 303650393, "nodes": [3080540278, 3080540279, 3080540280, 3080540281, 3080540282, 3080540283, 3080540278], "tags": {"addr:city": "Benevento", "addr:postcode": "82100", "addr:street": "Contrada Piano Cappelle", "amenity": "restaurant", "building": "yes", "cuisine": "regional", "name": "Le Vecchia Carrozze"}}, {"type": "way", "id": 303650405, "nodes": [3080540459, 3080540460, 3080540461, 3080540462, 3080540459], "tags": {"amenity": "restaurant", "building": "yes", "name": "Sala Bufala", "note": "Im not sure about the location and name"}}, {"type": "way", "id": 303650406, "nodes": [3080540463, 3080540464, 3080540465, 3080540466, 3080540463], "tags": {"amenity": "restaurant", "building": "yes", "name": "Gusto Divino", "note": "Im not sure about the location"}}, {"type": "way", "id": 314556335, "nodes": [3206005666, 3206005668, 3206005661, 3206005662, 3206005559, 3206005558, 3206005555, 3206005554, 3206005557, 3206005663, 3206005666], "tags": {"addr:city": "Telese Terme", "addr:street": "Strada statale 265 var di Fondo Valle Isclero", "amenity": "cafe", "building": "yes", "name": "EwaCaf\u00e8", "outdoor_seating": "yes"}}, {"type": "way", "id": 352074677, "nodes": [3578487965, 3578487966, 3578487967, 3578487968, 3578487969, 3578487970, 3578487971, 3578487972, 3578487973, 3578487974, 3578487965], "tags": {"addr:city": "Arpaia", "addr:postcode": "82011", "addr:street": "Via Caracciano", "amenity": "restaurant", "building": "yes", "cuisine": "pizza;local", "name": "Ristorante pizzeria \"La griglia\"", "phone": "+39 0823 951668", "takeaway": "yes"}}, {"type": "way", "id": 352104798, "nodes": [3578731380, 3578731381, 3578731382, 3578731383, 3578731384, 3578731385, 3578731386, 3578731387, 3578731380], "tags": {"addr:city": "Airola", "addr:postcode": "82011", "addr:street": "Via Caracciano", "amenity": "restaurant", "building": "yes", "cuisine": "pizza", "name": "Peccati di gola"}}, {"type": "way", "id": 390011295, "nodes": [3931717800, 3931717801, 3931717802, 3931717782, 3931717781, 3931717800], "tags": {"addr:city": "Foglianise", "addr:postcode": "82030", "addr:street": "Via Provinciale Vitulanese", "amenity": "restaurant", "building": "yes", "cuisine": "pizza", "name": "Pizzeria Pummar\u00f2", "phone": "+39 320 964 7329", "takeaway": "only"}}, {"type": "way", "id": 406753767, "nodes": [4087892145, 4087892146, 4087892147, 4087892148, 4087892145], "tags": {"addr:city": "Benevento", "amenity": "cafe", "building": "yes", "name": "Bar Terminal"}}, {"type": "way", "id": 407775005, "nodes": [4098065190, 4098065191, 4098065192, 4098065193, 4098065194, 4098065195, 4098065196, 4098065197, 4098065198, 4098065190], "tags": {"addr:city": "Benevento", "addr:postcode": "82100", "addr:street": "Contrada Piano Cappelle", "amenity": "restaurant", "building": "yes", "cuisine": "regional", "name": "Le Vecchia Carrozze"}}, {"type": "way", "id": 409269706, "nodes": [4111736393, 4111736394, 4111736395, 4111736396, 4111736393], "tags": {"addr:city": "Solopaca", "addr:street": "Strada Statale 372 Telesina", "amenity": "cafe", "building": "yes", "name": "Bar Tangredi"}}, {"type": "way", "id": 441897188, "nodes": [4395910722, 4395910723, 4395910724, 4395910725, 4395910722], "tags": {"addr:city": "Benevento", "addr:housenumber": "13", "addr:postcode": "82100", "addr:street": "Contrada Epitaffio", "amenity": "restaurant", "building": "yes", "cuisine": "pizza", "name": "L'Oasi dell'Antica Quercia", "opening_hours": "Tu-Su 19:30-24:00", "phone": "+39 0824 360108", "takeaway": "yes", "website": "https://www.oasidellanticaquercia.it/"}}, {"type": "way", "id": 477841688, "nodes": [4711399527, 4711399528, 4711399529, 4711399530, 4711399527], "tags": {"addr:city": "Nola", "addr:housenumber": "183", "addr:postcode": "80035", "addr:street": "Via Circumvallazione per Saviano", "amenity": "restaurant", "building": "yes", "capacity": "60", "cuisine": "regional;italian", "delivery": "no", "name": "AgriPub Terra Mia", "opening_hours": "19:00-24:00", "outdoor_seating": "yes", "phone": "+393335939424", "smoking": "isolated", "takeaway": "no"}}, {"type": "way", "id": 483076224, "nodes": [4758305959, 4758305960, 4758305961, 4758305962, 4758305959], "tags": {"addr:street": "Via Alberto da Nola", "amenity": "restaurant", "capacity": "74", "cuisine": "pizza", "name": "Pizzeria I Bruniani", "outdoor_seating": "yes", "takeaway": "yes"}}, {"type": "way", "id": 521169398, "nodes": [5078418086, 5078418087, 6834811099, 6834811100, 5078418086], "tags": {"amenity": "restaurant", "cuisine": "regional;pizza;italian", "name": "Metamorsi"}}, {"type": "way", "id": 521170322, "nodes": [5078422964, 5078422965, 6834811085, 6834811086, 5078422964], "tags": {"addr:city": "Nola", "addr:street": "Via San Paolino", "amenity": "restaurant", "capacity": "60", "cuisine": "regional;pizza;italian", "delivery": "yes", "name": "La Taverna dei Giglianti", "takeaway": "yes"}}, {"type": "way", "id": 521170887, "nodes": [5078426905, 5078426906, 5078426907, 5078426908, 5078426905], "tags": {"amenity": "restaurant", "building": "yes", "cuisine": "italian_pizza", "name": "Zia Ernestina"}}, {"type": "way", "id": 521171202, "nodes": [5078428382, 5078428383, 5078428384, 5078428385, 5078428382], "tags": {"addr:city": "Nola", "addr:postcode": "80035", "addr:street": "Via Pietro Vivenzio", "amenity": "restaurant", "capacity": "25", "cuisine": "pizza", "delivery": "no", "name": "Primavera 2", "takeaway": "yes"}}, {"type": "way", "id": 521172292, "nodes": [5078434850, 5078434851, 5078434852, 5078434853, 5078434850], "tags": {"addr:city": "Nola", "addr:postcode": "80035", "amenity": "restaurant", "building": "yes", "capacity": "50", "cuisine": "italian", "name": "Ra\u00f9"}}, {"type": "way", "id": 545716803, "nodes": [5274052037, 5274052038, 5274052039, 5274052040, 5274052041, 5274052037], "tags": {"amenity": "restaurant", "building": "yes", "name": "Ristorante Fusaro"}}, {"type": "way", "id": 545716814, "nodes": [5274052113, 5274052114, 5274052115, 5274052116, 5274052117, 5274052118, 5274052113], "tags": {"amenity": "restaurant", "building": "yes", "cuisine": "pizza"}}, {"type": "way", "id": 557398923, "nodes": [5375737760, 5375737761, 5375737762, 5375737763, 5375737760], "tags": {"amenity": "restaurant", "building": "yes"}}, {"type": "way", "id": 558619955, "nodes": [5387914524, 5387914523, 5484548384, 5484548382, 9901924301, 5484548381, 5484548383, 5387914522, 9902451484, 9902451490, 9902451491, 5387914521, 5387909520, 5387909519, 5387914524], "tags": {"amenity": "restaurant", "building": "yes", "name": "Casa Palladino"}}, {"type": "way", "id": 559794158, "nodes": [5398684205, 5398684206, 5398684207, 5398684208, 5398684209, 5398684210, 5398684205], "tags": {"amenity": "restaurant", "building": "yes", "cuisine": "pizza", "name": "Pizzeria Mariseda"}}, {"type": "way", "id": 559890660, "nodes": [5399606205, 5399606206, 5399606209, 5399606210, 5399606213, 5399606211, 5399606214, 5399606215, 5399606216, 5399606212, 5399606207, 5399606208, 5399606205], "tags": {"amenity": "restaurant", "name": "Ristorante Mari e Monti"}}, {"type": "way", "id": 654300251, "nodes": [6131183271, 6131183272, 6131214973, 6131183276, 6131183273, 6131183274, 6131183271], "tags": {"addr:city": "Faicchio", "addr:postcode": "82030", "addr:street": "Strada Statale 372 Telesina", "addr:unit": "Dir.Est", "amenity": "restaurant", "brand": "Autogrill", "building": "commercial", "building:levels": "2", "capacity": "100", "cuisine": "italian;regional;pizza", "description": "Ristorante, market e spazio eventi", "diet:gluten_free": "yes", "diet:local": "yes", "name": "Autogrill Kilometro32", "not:brand:wikidata": "Q786790", "opening_hours": "24/7", "phone": "+39 0824 819077", "website": "https://www.kilometro32.it/"}}, {"type": "way", "id": 655082653, "nodes": [6137969907, 6137969908, 6137969909, 6133467515, 8284057874, 6133467514, 6137969910, 6137969911, 6137969912, 6137969907], "tags": {"amenity": "restaurant", "area": "yes", "name": "Agriturismo Gelso delle Maitine"}}, {"type": "way", "id": 661598051, "nodes": [6193651229, 6193651230, 6193651231, 6193651232, 6195473051, 6193651229], "tags": {"amenity": "restaurant", "building": "yes", "cuisine": "pizza;italian"}}, {"type": "way", "id": 726151522, "nodes": [6808044632, 6808044631, 6808044630, 6808044629, 6808044628, 6808044627, 6808044626, 6808044625, 6808044624, 6808044623, 6808044622, 6808044621, 6808044620, 6808044619, 6808044618, 6808044617, 6808044616, 6447185518, 6808044632], "tags": {"amenity": "cafe", "name": "Bar Terminal"}}, {"type": "way", "id": 729822231, "nodes": [6836583504, 6836583503, 6836583502, 6836583501, 6836583500, 6836583499, 6836583498, 6836583504], "tags": {"addr:city": "Terzigno", "addr:housenumber": "5", "addr:postcode": "80040", "addr:street": "via Vicinale Masseria Mario seconda", "amenity": "restaurant", "building": "yes", "name": "Villa Cortea Relais", "phone": "+39 0815292495", "tourism": "hotel"}}, {"type": "way", "id": 732046401, "nodes": [6854870569, 6854870568, 6854870567, 6854870566, 6854870565, 6854870564, 6854870563, 6854870562, 6854870561, 6854870560, 6854870559, 6854870558, 6854870557, 6854870556, 6854870555, 6854870554, 6854870553, 6854870552, 6854870551, 6854870550, 6854870549, 6854870548, 6854870547, 6854870546, 6854870545, 6854870544, 6854870569], "tags": {"addr:city": "Roccarainola", "addr:housenumber": "12", "addr:postcode": "80030", "addr:street": "Via Veccio", "amenity": "restaurant", "building": "yes", "name": "Torre", "phone": "+39 081 829 3944"}}, {"type": "way", "id": 732073206, "nodes": [6855089272, 6855089271, 6855089270, 6855089269, 6855089268, 6855089267, 6855089266, 6855089265, 6855089264, 6855089263, 6855089262, 6855089261, 6855089260, 6855089259, 6855089258, 6855089257, 6855089256, 6855089255, 6855089254, 6855089272], "tags": {"addr:city": "Nola", "addr:housenumber": "8", "addr:postcode": "80035", "addr:street": "Via Castel Cicala", "amenity": "restaurant", "building": "yes", "name": "Santa Lucia"}}, {"type": "way", "id": 745009472, "nodes": [6974266441, 6974266440, 6974266439, 6974266438, 6974266441], "tags": {"amenity": "restaurant", "building": "yes", "cuisine": "pizza;coffee_shop;italian", "diet:gluten_free": "yes", "name": "Casa Caldarelli"}}, {"type": "way", "id": 817815956, "nodes": [7637745054, 7637745055, 7637745056, 7637745057, 7637745054], "tags": {"amenity": "restaurant", "building": "yes", "contact:facebook": "https://www.facebook.com/Agriturismo-Capolana-1468463280133772/", "cuisine": "barbecue;fried_food;pasta;regional;local;italian;mediterranean"}}, {"type": "way", "id": 823282680, "nodes": [7686155764, 9929426920, 9929296666, 9929296665, 7686155765, 7686155766, 7686155771, 9929296662, 7686189099, 7686155764], "tags": {"amenity": "restaurant", "building": "yes", "name": "Ristorante Grassano"}}, {"type": "way", "id": 823960480, "nodes": [7692945742, 7692945743, 7692945757, 7692945744, 7692945745, 7692945742], "tags": {"amenity": "restaurant", "building": "yes"}}, {"type": "way", "id": 833691527, "nodes": [7782395771, 9925576213, 7782395772, 9925576207, 9925576206, 9925576205, 9925576204, 9925576203, 9925576202, 9925576201, 9925576200, 7782395773, 9925576197, 7782395774, 7782395771], "tags": {"addr:city": "Telese Terme", "addr:postcode": "82037", "addr:street": "Via Panoramica del Lago", "amenity": "restaurant", "building": "yes", "name": "Ristorante La Rimessa"}}, {"type": "way", "id": 835172067, "nodes": [7795736611, 7795736612, 7795736613, 7795736606, 7795736611], "tags": {"amenity": "restaurant", "building": "yes"}}, {"type": "way", "id": 842515710, "nodes": [7867693555, 7859838093, 7859838094, 7867693553, 7867693557, 7867693555], "tags": {"amenity": "restaurant", "building": "yes", "name": "Il Sauro"}}, {"type": "way", "id": 853857760, "nodes": [7963833831, 7963833832, 7963833833, 7963833834, 7963833835, 7963833836, 7963833831], "tags": {"amenity": "restaurant", "building": "yes"}}, {"type": "way", "id": 868476000, "nodes": [8095191016, 8095191017, 8095191019, 8095191020, 8095191016], "tags": {"addr:city": "Telese Terme", "addr:postcode": "82037", "addr:street": "Viale Minieri", "amenity": "restaurant", "building": "yes", "name": "Domino Bar&Bistrot", "website": "https://www.dominotelese.com"}}, {"type": "way", "id": 921729496, "nodes": [8557331837, 8557331838, 8557331839, 8557331840, 8557331837], "tags": {"addr:city": "Paolisi", "addr:postcode": "82011", "addr:street": "Strada Statale 7 Via Appia", "amenity": "restaurant", "building": "yes", "cuisine": "regional;pizza;grill;bar_and_grill;barbecue;italian;steak_house", "name": "KM 237", "operator": "LUCIFERO SNC & C.", "phone": "+390823951598", "website": "https://www.km237.it/"}}, {"type": "way", "id": 923166349, "nodes": [8569791457, 8569791458, 8569791459, 8569791460, 8569791457], "tags": {"amenity": "cafe", "building": "yes"}}, {"type": "way", "id": 941834184, "nodes": [8721922622, 8721922623, 8721922624, 8721922625, 8721922626, 8721922627, 8721922622], "tags": {"addr:city": "Benevento", "addr:postcode": "82100", "addr:street": "Zona Industriale Z5 - Contrada Ponte Valentino", "amenity": "cafe", "building": "yes"}}, {"type": "way", "id": 946029910, "nodes": [8757901881, 8757901882, 8757901883, 8757901884, 8757901885, 8757901886, 8757901887, 8757901888, 10764300095, 8757901881], "tags": {"addr:city": "Sant'Agata de' Goti", "addr:postcode": "82030", "addr:street": "Porta Catalana", "amenity": "restaurant", "building": "yes", "cuisine": "regional", "name": "Finestra Catalana"}}, {"type": "way", "id": 949750272, "nodes": [8792405257, 8792405258, 8792405259, 8792405260, 8792405257], "tags": {"amenity": "restaurant", "building": "yes", "name": "Agriturismo Eden Sant'Agata de' Goti"}}, {"type": "way", "id": 956078957, "nodes": [8848593558, 8848593559, 8848593560, 8848593561, 8848593562, 8848593563, 8848593564, 8848593565, 8848593566, 8848593567, 8848593558], "tags": {"addr:city": "Pietrelcina", "addr:housenumber": "1", "addr:street": "Contrada Piana Romana", "amenity": "restaurant", "name": "Villa Clodia", "outdoor_seating": "yes", "phone": "+390824997390", "stars": "4", "website": "http://www.ricevimentivillaclodia.it/"}}, {"type": "way", "id": 1002776137, "nodes": [9254425762, 9254425763, 9254425764, 9254425765, 9254425766, 9254425767, 9254425768, 9254425769, 9254425762], "tags": {"addr:city": "Sant'Agata de' Goti", "addr:postcode": "82019", "addr:street": "Contrada Deserto Tagliola", "air_conditioning": "yes", "amenity": "restaurant", "building": "yes", "cuisine": "regional;italian", "name": "La Rosa dei Venti", "opening_hours": "Mo-Sa 10:00-00:00", "outdoor_seating": "yes", "phone": "+390823717104", "website": "http://www.agriturismolarosadeiventi.it", "wheelchair": "limited"}}, {"type": "way", "id": 1017120174, "nodes": [9381671498, 10747290555, 9381671499, 9381671500, 9381671501, 9381671502, 10747290575, 10747290571, 9381671503, 10747290564, 9381671498], "tags": {"amenity": "restaurant", "cuisine": "regional", "email": "info@agriturismopietraditocco.it", "name": "Agriturismo Pietra di Tocco", "phone": "+39 082 487 32 83", "phone:mobile": "+39 347 048 36 02", "shop": "deli", "website": "https://www.agriturismopietraditocco.it/"}}, {"type": "way", "id": 1025315177, "nodes": [9453804704, 9453804705, 9453804706, 9453804707, 9453804708, 9453804709, 9453804710, 9453804711, 9453804704], "tags": {"addr:city": "Rotondi", "addr:street": "Strada Vicinale Fonna", "amenity": "restaurant", "building": "yes", "name": "Tenuta Marotta"}}, {"type": "way", "id": 1059944814, "nodes": [9738316710, 9738316711, 9738316712, 9738316713, 9738316714, 9738316715, 9738316710], "tags": {"amenity": "restaurant", "building": "yes"}}, {"type": "way", "id": 1081639915, "nodes": [9913476992, 9913476993, 9913476994, 9913476995, 9913476996, 9913476997, 9913477011, 9913477012, 9913476992], "tags": {"addr:city": "Telese Terme", "addr:housenumber": "20", "addr:postcode": "82037", "addr:street": "Strada Provinciale 182 Sannitica ex SS87", "amenity": "restaurant", "building": "yes", "cuisine": "pizza", "name": "Messaggeri del Vesuvio", "phone": "+390824045788"}}, {"type": "way", "id": 1082380879, "nodes": [9919717957, 9919717958, 9919717959, 9919717960, 9919717961, 9919717962, 9919717963, 9919717964, 9919717965, 9919717966, 9919717967, 9919717968, 9919717969, 9919717970, 9919717971, 9919717972, 9919717957], "tags": {"amenity": "restaurant", "building": "commercial", "name": "Nonna Luisa"}}, {"type": "way", "id": 1082489245, "nodes": [9920677461, 9920677462, 9920677463, 9920677464, 9920677465, 9920677466, 9920677467, 9920677497, 9920677468, 9920677469, 9920677470, 9920677471, 9920677472, 9920677473, 9920677474, 9920677475, 9920677476, 9920677477, 9920677478, 9920677461], "tags": {"amenity": "restaurant", "building": "yes", "name": "Kresios"}}, {"type": "way", "id": 1084635147, "nodes": [9939182480, 9939182481, 9939182482, 9939182483, 9939182484, 9939182485, 9939182486, 9939182487, 9939182489, 9941099408, 9941099407, 9939182480], "tags": {"amenity": "restaurant", "building": "yes"}}, {"type": "way", "id": 1087911536, "nodes": [9967796024, 9967796025, 9967796026, 9967796027, 9967796028, 9967796029, 9967796030, 9967796031, 9967796032, 9967796033, 9967796034, 9967796035, 9967796036, 9967796037, 9967796024], "tags": {"addr:city": "Lapio", "addr:housenumber": "4", "addr:postcode": "83030", "addr:street": "Via Fratte", "amenity": "restaurant", "building": "yes", "email": "info@fattoriamariapetrillo.it", "name": "Fattoria Maria Petrillo", "phone": "+39 3394753881", "website": "https://www.fattoriamariapetrillo.com/"}}, {"type": "way", "id": 1089804275, "nodes": [9982918683, 9982918679, 9982918684, 10007440200, 10007106882, 10007440201, 7783596076, 10007440197, 10007440196, 10007440194, 10007440193, 10007440198, 9938045443, 9982918683], "tags": {"amenity": "cafe", "building": "yes", "check_date": "2024-09-29"}}, {"type": "way", "id": 1090324022, "nodes": [9986908049, 9986908050, 9986908051, 9986908052, 9986908049], "tags": {"addr:city": "Santa Maria a Vico", "addr:street": "Via Nazionale", "amenity": "restaurant", "building": "yes", "cuisine": "pizza", "name": "DeLuxe Pizzeria", "phone": "+39 3471290582", "website": "https://www.facebook.com/DeLuxePizzeria.SantaMaria"}}, {"type": "way", "id": 1097478986, "nodes": [10048983182, 10048983183, 10048983184, 10048983185, 10048983186, 10048983187, 10048983178, 10048983180, 10048983182], "tags": {"amenity": "restaurant", "building": "yes", "name": "Ristorante Pizzeria Il Grottino"}}, {"type": "way", "id": 1157470381, "nodes": [10764114283, 10764114284, 10764114285, 10764114286, 10764114287, 10764114288, 10764114289, 10764114290, 10764114291, 10764114292, 10764114283], "tags": {"addr:city": "Sant'Agata de' Goti", "addr:postcode": "82019", "addr:street": "Via Pennino", "amenity": "restaurant", "building": "yes", "name": "Agriturismo Buro", "phone": "0823717006", "website": "https://www.agriturismoburo.it/"}}, {"type": "way", "id": 1193585663, "nodes": [11079038916, 11079038917, 11079038918, 11079038919, 11079038916], "tags": {"addr:city": "San Vitaliano", "addr:street": "Strada Vicinale Pagliarella", "amenity": "restaurant", "building": "yes", "name": "Ristorante Il Verace", "phone": "3334142787"}}, {"type": "way", "id": 1198987712, "nodes": [11122264346, 11122264347, 11122264348, 11122264349, 11122264346], "tags": {"amenity": "cafe", "building": "yes"}}, {"type": "way", "id": 1218573725, "nodes": [11291367476, 11291367477, 11291367474, 11291367473, 11291367478, 11291367479, 11291367480, 11291367481, 11291367482, 11291367483, 11291367476], "tags": {"addr:city": "Puglianello", "addr:street": "Strada Statale 372 Telesina", "amenity": "cafe", "building": "yes", "name": "Tamoil Caf\u00e8"}}, {"type": "way", "id": 1240107922, "nodes": [11521443215, 11521443178, 11521441339, 11521443247, 11521441300, 11521443245, 11521443198, 11521443231, 11521443277, 11521443194, 11521441368, 11521443264, 11521441308, 11521441321, 11521441340, 11521443177, 11521443183, 11521441331, 11521443215], "tags": {"addr:city": "Moiano", "addr:postcode": "82030", "addr:street": "Strada Provinciale 129 Pontenuovo ex Via Caudina", "amenity": "restaurant", "building": "commercial", "cuisine": "chicken", "name": "Pollo alla Diavola"}}, {"type": "way", "id": 1269968802, "nodes": [11792437812, 11792437813, 11792437814, 11792437815, 11792437816, 11792437817, 11792437812], "tags": {"addr:city": "San Felice a Cancello", "addr:postcode": "81027", "addr:street": "Via Schiavetti", "amenity": "restaurant", "building": "yes", "name": "Donna Rosita Risto & Relax"}}, {"type": "way", "id": 1314522580, "nodes": [12167128756, 12167128762, 12167128748, 12167128753, 12167128763, 12167128758, 12167128755, 12167128740, 12167128756], "tags": {"addr:city": "Atripalda", "addr:housenumber": "112", "addr:postcode": "83042", "addr:street": "Via Pianodardine", "amenity": "restaurant", "building": "yes", "cuisine": "italian;regional", "name": "Valleverde Z\u00ec Pasqualina", "phone": "+39 0825 626115"}}, {"type": "way", "id": 1351655718, "nodes": [12456316769, 12505351804, 12505351803, 12505351802, 12456316769], "tags": {"addr:city": "San Michele di Serino", "addr:housenumber": "3", "addr:postcode": "83020", "addr:street": "Via V. Cotone", "amenity": "restaurant", "building": "yes", "name": "Tavernetta Marinella", "phone": "0825 595128", "source": "microsoft/BuildingFootprints"}}, {"type": "way", "id": 1366530845, "nodes": [12655831239, 12655831240, 12655831241, 12655831242, 12655831243, 12655831244, 12655831239], "tags": {"addr:city": "Paduli", "addr:postcode": "82020", "addr:street": "Contrada Carpinelli", "amenity": "cafe", "building": "yes", "name": "Bar Mastrovito", "outdoor_seating": "yes"}}, {"type": "way", "id": 1366530846, "nodes": [12655831245, 12655831246, 12655831247, 12655831248, 12655831245], "tags": {"addr:city": "Paduli", "addr:postcode": "82020", "addr:street": "Contrada Carpinelli", "amenity": "cafe", "building": "yes", "name": "Bar Ranaldo", "outdoor_seating": "yes"}}, {"type": "way", "id": 1366530847, "nodes": [12655831249, 12655831250, 12655831251, 12655831252, 12655831253, 12655831254, 12655831255, 12655831256, 12655831257, 12655831258, 12655831259, 12655831249], "tags": {"addr:city": "Paduli", "addr:postcode": "82020", "addr:street": "Contrada Carpinelli", "amenity": "restaurant", "building": "yes", "cuisine": "regional;italian", "name": "Trattoria La Bella Vita", "phone": "+390284928327"}}, {"type": "way", "id": 1366534400, "nodes": [4420766740, 4420766745, 12655848779, 12655848780, 12655848781, 12655848782, 12655848783, 12655848784, 12655848785, 12655848786, 12655848787, 12655848788, 4420766740], "tags": {"addr:city": "Benevento", "addr:housenumber": "3", "addr:postcode": "82100", "addr:street": "Via Sant'Agostino", "air_conditioning": "yes", "amenity": "restaurant", "building": "yes", "cuisine": "sandwich;italian;salad;mediterranean;hot_dog;dessert", "diet:gluten_free": "yes", "diet:vegetarian": "yes", "highchair": "yes", "layer": "-1", "name": "The Liffey Irish Pub", "opening_hours": "19:30-24:00", "outdoor_seating": "yes", "payment:american_express": "yes", "payment:cards": "yes", "payment:cash": "yes", "payment:contactless": "yes", "phone": "+393403487291", "takeaway": "yes", "toilets": "yes"}}, {"type": "way", "id": 1374966599, "nodes": [12730693359, 12730693360, 12730693361, 12730693362, 12730693373, 12730693359], "tags": {"addr:city": "Mirabella Eclano", "addr:postcode": "83036", "addr:street": "Via Bosco San Prisco", "amenity": "restaurant", "building": "yes", "email": "info@orsinimood.it", "name": "Orsini Mood", "opening_hours": "Mo-Su 09:00-13:00 15:00-20:00", "phone": "0825.449871", "ref:vatin": "IT01575500648", "website": "https://www.orsinimood.it/"}}, {"type": "way", "id": 1391375252, "nodes": [12879105451, 12879105452, 12879105453, 12879105454, 12879105455, 12879105456, 12879105457, 12879105458, 12879105459, 12879105460, 12879105461, 12879105462, 12879105463, 12879105464, 12879105465, 12879105466, 12879105467, 12879105468, 12879105469, 12879105470, 12879105471, 12879105472, 12879105473, 12879105474, 12879105451], "tags": {"addr:city": "Mirabella Eclano", "addr:street": "Via Appia Antica", "amenity": "restaurant", "area": "yes", "name": "Villa Orsini"}}, {"type": "way", "id": 1391375254, "nodes": [12879105439, 12879105478, 12879105466, 12879105467, 12879105479, 12879105480, 12879105443, 12879105442, 12879105441, 12879105440, 12879105439], "tags": {"addr:city": "Mirabella Eclano", "addr:street": "Via Appia Antica", "amenity": "restaurant", "area": "yes", "name": "Meridiana Ricevimenti"}}]}