{"version": 0.6, "generator": "Overpass API 0.7.62.7 375dc00a", "osm3s": {"timestamp_osm_base": "2025-06-14T14:43:30Z", "copyright": "The data included in this document is from www.openstreetmap.org. The data is made available under ODbL."}, "elements": [{"type": "node", "id": 1755985297, "lat": 37.5006086, "lon": 23.4531805, "tags": {"amenity": "cafe", "bar": "yes", "check_date": "2023-09-22", "name": "Sugar", "outdoor_seating": "yes", "wheelchair": "yes"}}, {"type": "node", "id": 1755994140, "lat": 37.5001933, "lon": 23.453628, "tags": {"amenity": "restaurant", "cuisine": "greek", "name": "Taverna Karavolos", "website": "https://www.poros.com.gr/karavolos-tavern/"}}, {"type": "node", "id": 1755997465, "lat": 37.4995104, "lon": 23.4514325, "tags": {"amenity": "cafe", "cuisine": "coffee_shop", "name": "Asteria"}}, {"type": "node", "id": 1755998255, "lat": 37.4993826, "lon": 23.4514915, "tags": {"amenity": "cafe", "cuisine": "coffee_shop", "name": "Passaggio"}}, {"type": "node", "id": 1756006561, "lat": 37.4990976, "lon": 23.4516919, "tags": {"amenity": "cafe", "check_date": "2023-09-21;2023-09-22", "cuisine": "coffee_shop;regional", "name": "Porto Cafe", "outdoor_seating": "yes"}}, {"type": "node", "id": 1756008280, "lat": 37.4986139, "lon": 23.4524207, "tags": {"amenity": "cafe", "check_date": "2023-09-21", "name": "Clock Caf\u00e9", "outdoor_seating": "yes"}}, {"type": "node", "id": 1756009558, "lat": 37.4988352, "lon": 23.4523992, "tags": {"amenity": "restaurant", "check_date": "2023-09-21", "cuisine": "greek", "name": "Taverna Sti Rota", "outdoor_seating": "yes"}}, {"type": "node", "id": 1756050975, "lat": 37.498543, "lon": 23.4534394, "tags": {"amenity": "cafe", "check_date": "2023-09-21", "cuisine": "coffee_shop", "name": "Mostra Bistro & Caf\u00e9"}}, {"type": "node", "id": 1756137959, "lat": 37.5217655, "lon": 23.4676133, "tags": {"amenity": "restaurant", "name": "Taverna Paradisos", "opening_hours": "24/7"}}, {"type": "node", "id": 1756192042, "lat": 37.4990167, "lon": 23.4518312, "tags": {"amenity": "cafe", "cuisine": "greek", "name": "Kybelia Caf\u00e9"}}, {"type": "node", "id": 1758169326, "lat": 37.512711, "lon": 23.4444913, "tags": {"amenity": "restaurant", "cuisine": "greek", "name": "Mourtzoukos"}}, {"type": "node", "id": 1759396660, "lat": 37.4992282, "lon": 23.4537858, "tags": {"amenity": "restaurant", "cuisine": "greek", "int_name": "O Kipos", "name": "\u039f \u039a\u03ae\u03c0\u03bf\u03c2"}}, {"type": "node", "id": 1759579268, "lat": 37.4985897, "lon": 23.4548524, "tags": {"amenity": "cafe", "cuisine": "coffee_shop", "int_name": "I Plateia", "name": "\u0397 \u03a0\u03bb\u03b1\u03c4\u03b5\u03af\u03b1"}}, {"type": "node", "id": 1759744547, "lat": 37.4984665, "lon": 23.455003, "tags": {"amenity": "cafe", "cuisine": "coffee_shop", "name": "Remezzo"}}, {"type": "node", "id": 1760050222, "lat": 37.5088269, "lon": 23.4675295, "tags": {"amenity": "restaurant", "cuisine": "greek", "name": "Taverna Panorama"}}, {"type": "node", "id": 1761028113, "lat": 37.4985163, "lon": 23.4527091, "tags": {"amenity": "cafe", "cuisine": "coffee_shop", "name": "Caf\u00e9 Kalavria"}}, {"type": "node", "id": 1761050117, "lat": 37.4983929, "lon": 23.4531986, "tags": {"amenity": "cafe", "check_date": "2023-09-21", "cuisine": "coffee_shop", "int_name": "Sofrano", "internet_access": "wlan", "internet_access:fee": "no", "name": "\u03a3\u03bf\u03c6\u03c1\u03ac\u03bd\u03bf", "outdoor_seating": "yes"}}, {"type": "node", "id": 1761221207, "lat": 37.5088312, "lon": 23.4678058, "tags": {"amenity": "cafe", "cuisine": "coffee_shop", "name": "Sail Caf\u00e9"}}, {"type": "node", "id": 1761369471, "lat": 37.4989763, "lon": 23.4519417, "tags": {"amenity": "cafe", "check_date": "2024-10-03", "cuisine": "coffee_shop", "name": "Unique Caf\u00e9", "outdoor_seating": "yes"}}, {"type": "node", "id": 1762274409, "lat": 37.4983732, "lon": 23.4533009, "tags": {"amenity": "cafe", "cuisine": "coffee_shop", "int_name": "To Palio Syntrivani", "name": "\u03a4\u03bf \u03c0\u03b1\u03bb\u03b9\u03cc \u03a3\u03c5\u03bd\u03c4\u03c1\u03b9\u03b2\u03ac\u03bd\u03b9", "outdoor_seating": "yes"}}, {"type": "node", "id": 1762275508, "lat": 37.4982925, "lon": 23.4536102, "tags": {"amenity": "cafe", "check_date": "2023-09-21", "internet_access": "wlan", "internet_access:fee": "customers", "name": "Grande Caf\u00e9", "outdoor_seating": "yes"}}, {"type": "node", "id": 1762285228, "lat": 37.4982904, "lon": 23.4537966, "tags": {"amenity": "restaurant", "check_date": "2023-09-21", "cuisine": "greek", "diet:vegetarian": "yes", "int_name": "Taverna Oasis", "name": "\u03a4\u03b1\u03b2\u03ad\u03c1\u03bd\u03b1 \u038c\u03b1\u03c3\u03b9\u03c2", "outdoor_seating": "yes"}}, {"type": "node", "id": 1762285968, "lat": 37.4983136, "lon": 23.4541914, "tags": {"amenity": "restaurant", "check_date": "2023-09-21", "cuisine": "greek", "name": "Taverna Caravella", "outdoor_seating": "yes"}}, {"type": "node", "id": 2066654331, "lat": 37.7123147, "lon": 23.5214828}, {"type": "node", "id": 2066654332, "lat": 37.7123457, "lon": 23.5215755}, {"type": "node", "id": 2066654335, "lat": 37.7123951, "lon": 23.5214846}, {"type": "node", "id": 2066654336, "lat": 37.7123965, "lon": 23.52144}, {"type": "node", "id": 2066654342, "lat": 37.7124769, "lon": 23.5215738}, {"type": "node", "id": 2066654344, "lat": 37.7124995, "lon": 23.5213633}, {"type": "node", "id": 2066654345, "lat": 37.7125108, "lon": 23.5216344}, {"type": "node", "id": 2066654351, "lat": 37.7125912, "lon": 23.521572}, {"type": "node", "id": 2066654826, "lat": 37.744589, "lon": 23.4273062}, {"type": "node", "id": 2066654828, "lat": 37.7446285, "lon": 23.4272017}, {"type": "node", "id": 2066654833, "lat": 37.7447233, "lon": 23.4273876}, {"type": "node", "id": 2066654834, "lat": 37.7447629, "lon": 23.4272831}, {"type": "node", "id": 2066655312, "lat": 37.7701818, "lon": 23.4552741}, {"type": "node", "id": 2066655314, "lat": 37.7702064, "lon": 23.4553339}, {"type": "node", "id": 2066655318, "lat": 37.7702257, "lon": 23.4553213}, {"type": "node", "id": 2066655325, "lat": 37.7702569, "lon": 23.4552245}, {"type": "node", "id": 2066655326, "lat": 37.7702655, "lon": 23.4554179}, {"type": "node", "id": 2066655328, "lat": 37.7702662, "lon": 23.4553274}, {"type": "node", "id": 2066655335, "lat": 37.7702922, "lon": 23.4553102}, {"type": "node", "id": 2066655336, "lat": 37.7702954, "lon": 23.4553982}, {"type": "node", "id": 2137799928, "lat": 37.5077017, "lon": 23.4522752}, {"type": "node", "id": 2137799930, "lat": 37.5077044, "lon": 23.4522313}, {"type": "node", "id": 2137799932, "lat": 37.5077046, "lon": 23.4523209}, {"type": "node", "id": 2137799933, "lat": 37.5077144, "lon": 23.4521869}, {"type": "node", "id": 2137799937, "lat": 37.5077267, "lon": 23.4521489}, {"type": "node", "id": 2137799953, "lat": 37.5077718, "lon": 23.4523347}, {"type": "node", "id": 2137799958, "lat": 37.507794, "lon": 23.4521627}, {"type": "node", "id": 2867349622, "lat": 37.7466767, "lon": 23.4273106, "tags": {"amenity": "restaurant", "cuisine": "kebab", "name": "\u039a\u03bb\u03b7\u03bc\u03b1\u03c4\u03b1\u03c1\u03b9\u03ac", "phone": "+302297025968"}}, {"type": "node", "id": 2868174207, "lat": 37.6917412, "lon": 23.4513395, "tags": {"amenity": "cafe"}}, {"type": "node", "id": 2868174370, "lat": 37.7418089, "lon": 23.430251, "tags": {"amenity": "cafe", "name": "Inn on the Beach"}}, {"type": "node", "id": 2868174606, "lat": 37.7536743, "lon": 23.5340444, "tags": {"amenity": "cafe", "source": "survey"}}, {"type": "node", "id": 2868452387, "lat": 37.7065441, "lon": 23.5049965, "tags": {"amenity": "restaurant", "name": "\u03a4\u03bf \u03a0\u03ad\u03c4\u03c1\u03b9\u03bd\u03bf", "name:el": "\u03a4\u03bf \u03a0\u03ad\u03c4\u03c1\u03b9\u03bd\u03bf", "name:en": "the Stone", "name:ru": "\u041a\u0430\u043c\u0435\u043d\u044c"}}, {"type": "node", "id": 2869331843, "lat": 37.7478355, "lon": 23.4256874, "tags": {"amenity": "restaurant", "name": "\u0391\u03cd\u03c1\u03b1"}}, {"type": "node", "id": 2869331845, "lat": 37.7483654, "lon": 23.4258368, "tags": {"addr:city": "\u0391\u03af\u03b3\u03b9\u03bd\u03b1", "addr:postcode": "18010", "addr:street": "\u039d. \u039a\u03b1\u03b6\u03b1\u03bd\u03c4\u03b6\u03ac\u03ba\u03b7", "amenity": "restaurant", "name": "\u039a\u03b1\u03b2\u03bf\u03c5\u03c1\u03af\u03bd\u03b1", "name:el": "\u039a\u03b1\u03b2\u03bf\u03c5\u03c1\u03af\u03bd\u03b1", "name:en": "Kavourina", "phone": "+302297026479"}}, {"type": "node", "id": 2869331846, "lat": 37.7477284, "lon": 23.4257329, "tags": {"amenity": "restaurant", "name": "\u039c\u03b1\u03ca\u03c3\u03c4\u03c1\u03ac\u03bb\u03b9"}}, {"type": "node", "id": 2869331847, "lat": 37.7476466, "lon": 23.4257423, "tags": {"amenity": "restaurant", "contact:phone": "+30 2297022527", "name": "\u039c\u03c0\u03ac\u03c4\u03b7\u03c2"}}, {"type": "node", "id": 2869331849, "lat": 37.7480115, "lon": 23.425686, "tags": {"amenity": "restaurant", "name": "\u03a6\u03bb\u03bf\u03af\u03c3\u03b2\u03bf\u03c2"}}, {"type": "node", "id": 3237939319, "lat": 37.5932518, "lon": 23.3394639, "tags": {"amenity": "restaurant", "cuisine": "seafood", "int_name": "Limanaki", "name": "\u039b\u03b9\u03bc\u03b1\u03bd\u03ac\u03ba\u03b9"}}, {"type": "node", "id": 3255386858, "lat": 37.5934894, "lon": 23.3396533, "tags": {"amenity": "cafe", "check_date": "2024-10-25", "name": "Skipper"}}, {"type": "node", "id": 3255389764, "lat": 37.5932912, "lon": 23.3392515, "tags": {"amenity": "restaurant", "cuisine": "seafood"}}, {"type": "node", "id": 3255389765, "lat": 37.5910147, "lon": 23.3414955, "tags": {"amenity": "restaurant", "check_date": "2024-10-25", "cuisine": "seafood", "name": "\u0398\u03b5\u03ce\u03bd\u03b7"}}, {"type": "node", "id": 3255389766, "lat": 37.593362, "lon": 23.3396015, "tags": {"amenity": "restaurant", "check_date": "2024-10-26", "cuisine": "seafood", "name": "\u0391\u03c6\u03b5\u03bd\u03b1"}}, {"type": "node", "id": 3255389767, "lat": 37.6139323, "lon": 23.330632, "tags": {"amenity": "restaurant", "check_date": "2024-10-26", "contact:website": "http://www.methanavolcano.gr/tavern.htm", "int_name": "OINOTHERAPEFTIRIO", "name": "\u039f\u03b9\u03bd\u03bf\u03b8\u03b5\u03c1\u03b1\u03c0\u03b5\u03c5\u03c4\u03ae\u03c1\u03b9\u03bf"}}, {"type": "node", "id": 3255389768, "lat": 37.5940738, "lon": 23.339572, "tags": {"amenity": "restaurant", "contact:website": "http://www.jimmysvathifishtavern.gr/", "cuisine": "seafood", "int_name": "Jimmys", "name": "\u03a4\u03b6\u03af\u03bc\u03b7\u03c2"}}, {"type": "node", "id": 3255456220, "lat": 37.6370661, "lon": 23.3534647, "tags": {"amenity": "restaurant", "cuisine": "seafood"}}, {"type": "node", "id": 3255867285, "lat": 37.5387803, "lon": 23.2081291, "tags": {"addr:city": "\u039a\u03b1\u03c1\u03b1\u03c4\u03b6\u03ac\u03c2", "amenity": "restaurant", "contact:facebook": "https://www.facebook.com/batzavali/", "contact:phone": "+30 2298034230", "name": "\u039c\u03c0\u03b1\u03c4\u03b6\u03ac\u03b2\u03b1\u03bb\u03b7\u03c2", "opening_hours": "Mo-Th off", "outdoor_seating": "yes"}}, {"type": "node", "id": 3256579042, "lat": 37.4420963, "lon": 23.2671601, "tags": {"amenity": "restaurant", "name": "\u03a4\u03bf \u0391\u03c1\u03c7\u03bf\u03bd\u03c4\u03b9\u03ba\u03cc\u03bd"}}, {"type": "node", "id": 3450193157, "lat": 37.5088238, "lon": 23.467386, "tags": {"amenity": "cafe", "name": "Cafe Panorama"}}, {"type": "node", "id": 3450193158, "lat": 37.5088301, "lon": 23.4676462, "tags": {"amenity": "restaurant", "name": "Askeli"}}, {"type": "node", "id": 3452391309, "lat": 37.500812, "lon": 23.4541911, "tags": {"amenity": "restaurant", "check_date": "2023-09-22", "cuisine": "greek;seafood;regional", "internet_access": "wlan", "internet_access:fee": "no", "name": "\u03a0\u03bf\u03c3\u03b5\u03b9\u03b4\u03ce\u03bd", "outdoor_seating": "yes", "toilets": "yes", "toilets:access": "customers", "wheelchair": "limited"}}, {"type": "node", "id": 3697144766, "lat": 37.6907694, "lon": 23.4542983, "tags": {"amenity": "cafe", "name": "Cafe \"\u039b\u03b9\u03bf\u03c4\u03c1\u03af\u03b2\u03b9\""}}, {"type": "node", "id": 3703641885, "lat": 37.5072894, "lon": 23.4857024, "tags": {"amenity": "cafe"}}, {"type": "node", "id": 3778052665, "lat": 37.5795243, "lon": 23.3902392, "tags": {"amenity": "cafe", "check_date:opening_hours": "2023-07-22", "name": "De Laz", "opening_hours:signed": "no"}}, {"type": "node", "id": 3780116252, "lat": 37.6913648, "lon": 23.4525353, "tags": {"amenity": "restaurant"}}, {"type": "node", "id": 3780116371, "lat": 37.6911646, "lon": 23.4532882, "tags": {"amenity": "restaurant", "name": "Argiris"}}, {"type": "node", "id": 3780116966, "lat": 37.691511, "lon": 23.4519814, "tags": {"amenity": "restaurant", "name:en": "Remetzo"}}, {"type": "node", "id": 3815646743, "lat": 37.7736956, "lon": 23.4858995, "tags": {"amenity": "restaurant", "cuisine": "italian", "name": "Namaste"}}, {"type": "node", "id": 3818808604, "lat": 37.5862426, "lon": 23.3481138, "tags": {"amenity": "restaurant", "check_date": "2024-10-25", "cuisine": "seafood", "name": "\u03a0\u03b1\u03bb\u03b1\u03b9\u03cc\u03ba\u03b1\u03c3\u03c4\u03c1\u03bf"}}, {"type": "node", "id": 3900397097, "lat": 37.6914378, "lon": 23.4522876, "tags": {"amenity": "cafe"}}, {"type": "node", "id": 4169330258, "lat": 37.5085739, "lon": 23.4698404, "tags": {"amenity": "restaurant"}}, {"type": "node", "id": 4169330262, "lat": 37.5068324, "lon": 23.4719392, "tags": {"amenity": "restaurant"}}, {"type": "node", "id": 4169330266, "lat": 37.5089739, "lon": 23.470224, "tags": {"amenity": "cafe", "name": "Odyssey Bistro"}}, {"type": "node", "id": 4169330267, "lat": 37.5082058, "lon": 23.4702079, "tags": {"amenity": "cafe", "name": "Once Upon A Time"}}, {"type": "node", "id": 4169457710, "lat": 37.5018708, "lon": 23.4549565, "tags": {"amenity": "cafe", "check_date": "2023-09-22", "name": "Skipper Cafe", "outdoor_seating": "yes"}}, {"type": "node", "id": 4270122122, "lat": 37.7465297, "lon": 23.4285895, "tags": {"amenity": "restaurant", "cuisine": "greek", "name": "\u039a\u03b1\u03c0\u03c0\u03bf\u03c2 \u0395\u03c4\u03c3\u03b9"}}, {"type": "node", "id": 4280017789, "lat": 37.4447774, "lon": 23.2678177, "tags": {"amenity": "restaurant", "name": "Marivon taverna", "phone": "0302754091352"}}, {"type": "node", "id": 4326621892, "lat": 37.746111, "lon": 23.428553, "tags": {"amenity": "cafe", "internet_access": "wlan", "name": "alexandros", "opening_hours": "Mo-Su 10:00-22:00"}}, {"type": "node", "id": 4378802189, "lat": 37.3851682, "lon": 23.2493063, "tags": {"amenity": "restaurant", "int_name": "Ganossis", "internet_access": "wlan", "internet_access:fee": "no", "lastcheck": "2016-09-04", "name": "\u0393\u03b1\u03bd\u03c9\u03c3\u03b7\u03c3", "outdoor_seating": "yes"}}, {"type": "node", "id": 4378802390, "lat": 37.3852095, "lon": 23.2490853, "tags": {"amenity": "restaurant", "check_date": "2023-09-19", "cuisine": "greek", "int_name": "Paradosiako", "internet_access": "wlan", "internet_access:fee": "no", "name": "\u03a0\u03b1\u03c1\u03b1\u03b4\u03bf\u03c3\u03b9\u03b1\u03ba\u03cc", "outdoor_seating": "yes"}}, {"type": "node", "id": 4380262791, "lat": 37.3853, "lon": 23.2487651, "tags": {"amenity": "restaurant", "check_date": "2023-09-19", "name": "Maria's", "outdoor_seating": "yes", "wheelchair": "yes"}}, {"type": "node", "id": 4380310589, "lat": 37.3853901, "lon": 23.2484606, "tags": {"amenity": "cafe", "check_date": "2023-09-19", "name": "Mellos"}}, {"type": "node", "id": 4380330289, "lat": 37.3854842, "lon": 23.2480714, "tags": {"amenity": "cafe", "internet_access": "wlan", "internet_access:fee": "no", "name": "\u039a\u03ac\u03bd\u03b1\u03b4\u03bf\u03c3"}}, {"type": "node", "id": 4397798636, "lat": 37.6910911, "lon": 23.4537837, "tags": {"amenity": "restaurant", "cuisine": "fish", "name": "Nontas", "phone": "22970-61233", "smoking": "outside", "website": "https://nontasfishrestaurant.gr/"}}, {"type": "node", "id": 4936977723, "lat": 37.7194869, "lon": 23.4590415, "tags": {"amenity": "cafe", "cuisine": "greek", "name": "La palma"}}, {"type": "node", "id": 5000332725, "lat": 37.6912425, "lon": 23.4530489, "tags": {"amenity": "restaurant"}}, {"type": "node", "id": 5000513801, "lat": 37.4299133, "lon": 23.1795931, "tags": {"amenity": "restaurant", "name": "\u039c\u03b1\u03c1\u03b9\u03b1 \u0393\u03b5\u03bf\u03c1\u03b3\u03b9\u03bf \u03a6\u03bf\u03c5\u03c1\u03bd\u03b9 \u0391\u03c1\u03b3\u03bf\u03bb\u03b9\u03b4\u03b1", "name:el": "\u039c\u03b1\u03c1\u03b9\u03b1 \u0393\u03b5\u03bf\u03c1\u03b3\u03b9\u03bf \u03a6\u03bf\u03c5\u03c1\u03bd\u03b9 \u0391\u03c1\u03b3\u03bf\u03bb\u03b9\u03b4\u03b1", "name:en": "Maria Georgia Fourni Argolida", "shop": "kiosk"}}, {"type": "node", "id": 5030789456, "lat": 37.6800052, "lon": 23.3410484, "tags": {"addr:street": "Limenaria", "amenity": "restaurant", "description": "Bar restaurant", "name": "\u03a4\u03b1\u03b2\u03ad\u03c1\u03bd\u03b1 \u03bf \u03a4\u03ac\u03c3\u03bf\u03c2", "name:el": "\u03a4\u03b1\u03b2\u03ad\u03c1\u03bd\u03b1 \u03bf \u03a4\u03ac\u03c3\u03bf\u03c2", "name:en": "Tavern O Tasos", "phone": "+30 69736 00315"}}, {"type": "node", "id": 5030789457, "lat": 37.6833301, "lon": 23.3232576, "tags": {"amenity": "restaurant", "name": "\u0391\u03c0\u03cc\u03bd\u03b7\u03c3\u03bf\u03c2 \u03c8\u03b1\u03c1\u03bf\u03c4\u03b1\u03b2\u03ad\u03c1\u03bd\u03b1", "name:el": "\u0391\u03c0\u03cc\u03bd\u03b7\u03c3\u03bf\u03c2 \u03c8\u03b1\u03c1\u03bf\u03c4\u03b1\u03b2\u03ad\u03c1\u03bd\u03b1", "name:en": "Aponisos fish tavern"}}, {"type": "node", "id": 5038413935, "lat": 37.6911683, "lon": 23.4531085, "tags": {"amenity": "cafe"}}, {"type": "node", "id": 5060712730, "lat": 37.7199429, "lon": 23.4587447, "tags": {"amenity": "restaurant", "name": "\u0391\u03ba\u03c1\u03bf\u03b3\u03b9\u03b1\u03bb\u03b9\u03ac"}}, {"type": "node", "id": 5060712731, "lat": 37.7193902, "lon": 23.4590203, "tags": {"amenity": "restaurant", "name": "\u0386\u03bc\u03bc\u03bf\u03c2"}}, {"type": "node", "id": 5060712732, "lat": 37.7192858, "lon": 23.459393, "tags": {"amenity": "restaurant", "name": "\u03a4\u03ac\u03c3\u03c3\u03bf\u03c2"}}, {"type": "node", "id": 5060971531, "lat": 37.7418242, "lon": 23.5350667, "tags": {"amenity": "restaurant", "name": "Tropical Club \u03c0\u03bf\u03bb\u03c5\u03c7\u03ce\u03c1\u03bf\u03c2"}}, {"type": "node", "id": 5060971532, "lat": 37.7422821, "lon": 23.5350497, "tags": {"amenity": "restaurant", "name": "\u03a0\u03b1\u03c1\u03ac\u03b4\u03b5\u03b9\u03c3\u03bf\u03c2"}}, {"type": "node", "id": 5060971533, "lat": 37.74262, "lon": 23.5355376, "tags": {"amenity": "restaurant", "cuisine": "barbecue;coffee_shop;fish;friture;greek;grill;local", "internet_access": "wlan", "name": "\u039d\u03af\u03ba\u03bf\u03c2", "name:en": "Niko's Bar", "opening_hours": "Mo-Su 09:00-23:30"}}, {"type": "node", "id": 5060971535, "lat": 37.743223, "lon": 23.535899, "tags": {"amenity": "restaurant", "name": "\u0394\u03b9\u03bf\u03b3\u03ad\u03bd\u03b7\u03c2"}}, {"type": "node", "id": 5060971536, "lat": 37.7433914, "lon": 23.5361894, "tags": {"amenity": "restaurant", "name": "Afea"}}, {"type": "node", "id": 5060971537, "lat": 37.7433965, "lon": 23.5373672, "tags": {"amenity": "restaurant", "name": "The Sea"}}, {"type": "node", "id": 5060971538, "lat": 37.7441084, "lon": 23.5380545, "tags": {"amenity": "cafe"}}, {"type": "node", "id": 5060971539, "lat": 37.7447794, "lon": 23.5379642, "tags": {"amenity": "restaurant", "name": "\u039a\u03c5\u03c1\u03b9\u03b1\u03ba\u03ac\u03ba\u03b7\u03c2"}}, {"type": "node", "id": 5159411740, "lat": 37.7106877, "lon": 23.3465125, "tags": {"amenity": "restaurant", "name": "Fotis Taverna"}}, {"type": "node", "id": 5535402458, "lat": 37.7279837, "lon": 23.4362856, "tags": {"addr:city": "\u0391\u03af\u03b3\u03b9\u03bd\u03b1", "addr:postcode": "180 10", "addr:street": "Perivola \u03a6\u03ac\u03c1\u03bf\u03c2", "amenity": "restaurant", "bar": "yes", "cuisine": "seafood;mediterranean;greek", "email": "tavernamanitas@gmail.com", "name": "\u039c\u03ac\u03bd\u03b9\u03c4\u03b1\u03c2 \u03c3\u03c4\u03bf \u039a\u03cd\u03bc\u03b1", "name:el": "\u039c\u03ac\u03bd\u03b9\u03c4\u03b1\u03c2 \u03c3\u03c4\u03bf \u039a\u03cd\u03bc\u03b1", "name:en": "Manitas sto Kima", "opening_hours": "Mo-Su 12:00-23:45", "outdoor_seating": "yes", "phone": "+30 2297 022245", "reservation": "yes", "website": "https://manitasaegina.restaurant/", "wheelchair": "yes"}}, {"type": "node", "id": 5596125523, "lat": 37.5787856, "lon": 23.3890342, "tags": {"amenity": "cafe", "name:en": "Gyrovolia"}}, {"type": "node", "id": 5596131123, "lat": 37.5811327, "lon": 23.3917949, "tags": {"amenity": "cafe", "check_date:opening_hours": "2023-07-22", "name": "B&B", "opening_hours:signed": "no"}}, {"type": "node", "id": 5693044216, "lat": 37.7723378, "lon": 23.4885404, "tags": {"amenity": "restaurant", "name": "\u03a4\u03bf \u03a0\u03b5\u03b9\u03c1\u03b1\u03c4\u03b9\u03ba\u03cc"}}, {"type": "node", "id": 5693044219, "lat": 37.7723739, "lon": 23.4886466, "tags": {"amenity": "restaurant", "cuisine": "greek", "name": "\u0398\u03b5\u03cc\u03c6\u03b9\u03bb\u03bf\u03c2"}}, {"type": "node", "id": 5693044220, "lat": 37.7724298, "lon": 23.4889424, "tags": {"amenity": "restaurant", "name": "\u03a4\u03bf \u039b\u03b9\u03bc\u03b1\u03bd\u03ac\u03ba\u03b9"}}, {"type": "node", "id": 5693059117, "lat": 37.7726423, "lon": 23.4891973, "tags": {"amenity": "restaurant", "name": "Archontico"}}, {"type": "node", "id": 5693059119, "lat": 37.7728897, "lon": 23.4892371, "tags": {"amenity": "restaurant", "name": "Gouili grillhouse"}}, {"type": "node", "id": 5693077021, "lat": 37.7731977, "lon": 23.4893486, "tags": {"amenity": "restaurant", "name": "Saronikos"}}, {"type": "node", "id": 5693078945, "lat": 37.7717103, "lon": 23.4906883, "tags": {"amenity": "restaurant", "name": "To Svelto Kouneli"}}, {"type": "node", "id": 5693404589, "lat": 37.7721496, "lon": 23.5122632, "tags": {"amenity": "restaurant", "check_date": "2023-08-15", "cuisine": "pizza;regional", "diet:vegetarian": "yes", "internet_access": "wlan", "internet_access:fee": "customers", "name": "Choreftra", "name:el": "\u03a7\u03bf\u03c1\u03b5\u03cd\u03c4\u03c1\u03b1", "outdoor_seating": "yes", "payment:mastercard": "yes", "payment:visa": "yes", "reservation": "yes", "source": "local knowledge"}}, {"type": "node", "id": 5787335147, "lat": 37.4961813, "lon": 23.4490208, "tags": {"amenity": "cafe", "name": "Montaggio Cafe"}}, {"type": "node", "id": 5809160238, "lat": 37.772675, "lon": 23.4867446, "tags": {"amenity": "cafe", "name": "Cafe NOTOS"}}, {"type": "node", "id": 5852998785, "lat": 37.745682, "lon": 23.5414274, "tags": {"amenity": "cafe", "name": "Sotos Grotto"}}, {"type": "node", "id": 5857086707, "lat": 37.7479203, "lon": 23.4256955, "tags": {"amenity": "restaurant", "name": "Plaza"}}, {"type": "node", "id": 5953258055, "lat": 37.7469673, "lon": 23.5470053, "tags": {"addr:city": "Agia Marina Coastline", "addr:housenumber": "40", "addr:postcode": "18010", "addr:street": "I.Krassas", "amenity": "restaurant", "cuisine": "regional;coffee_shop;sandwich;ice_cream;greek;salad", "description": "Superb location for swimming and snorkeling. \n", "internet_access": "yes", "name": "Kelly's Beach House Cafe'", "outdoor_seating": "yes", "smoking": "outside"}}, {"type": "node", "id": 5954303849, "lat": 37.4882803, "lon": 23.4686511, "tags": {"amenity": "restaurant", "cuisine": "greek", "name": "Galley"}}, {"type": "node", "id": 5976295186, "lat": 37.7470278, "lon": 23.4285854, "tags": {"amenity": "restaurant", "name:en": "Locanda"}}, {"type": "node", "id": 5976295187, "lat": 37.7456894, "lon": 23.4296934, "tags": {"amenity": "restaurant", "name": "\u039c\u03b5\u03b6\u03b5\u03b4\u03bf\u03c0\u03c9\u03bb\u03b5\u03af\u03bf \u00ab\u03a4\u03bf \u03a3\u03c4\u03ad\u03ba\u03b9\u00bb", "name:el": "\u039c\u03b5\u03b6\u03b5\u03b4\u03bf\u03c0\u03c9\u03bb\u03b5\u03af\u03bf \u00ab\u03a4\u03bf \u03a3\u03c4\u03ad\u03ba\u03b9\u00bb", "name:en": "Mezedopole\u00edo \"To Steki\"", "phone": "+302297023910", "website": "https://www.steki-aegina.gr/"}}, {"type": "node", "id": 5976299385, "lat": 37.7458342, "lon": 23.429553, "tags": {"addr:street": "\u03a0\u03b1\u03bd\u03b1\u03b3\u03b9\u03ce\u03c4\u03b7 \u0397\u03c1\u03b5\u03b9\u03ce\u03c4\u03b7", "amenity": "cafe", "name": "Tortuga", "name:en": "Ta Karafakia"}}, {"type": "node", "id": 5976299485, "lat": 37.7456375, "lon": 23.4297324, "tags": {"addr:street": "\u03a0\u03b1\u03bd\u03b1\u03b3\u03b9\u03ce\u03c4\u03b7 \u0397\u03c1\u03b5\u03b9\u03ce\u03c4\u03b7", "amenity": "restaurant", "cuisine": "fish", "name": "\u03a8\u0391\u03a1\u039f\u03a4\u0391\u0392\u0395\u03a1\u039d\u0391 \"\u0397 \u0391\u0393\u039f\u03a1\u0391\" (\u03a3. \u0393\u0395\u039b\u0391\u0394\u0391\u039a\u0397\u03a3)", "name:el": "\u03a8\u0391\u03a1\u039f\u03a4\u0391\u0392\u0395\u03a1\u039d\u0391 \"\u0397 \u0391\u0393\u039f\u03a1\u0391\" (\u03a3. \u0393\u0395\u039b\u0391\u0394\u0391\u039a\u0397\u03a3)", "name:en": "I Agora"}}, {"type": "node", "id": 5976299585, "lat": 37.7465879, "lon": 23.4290913, "tags": {"addr:housenumber": "34", "addr:street": "\u03a3\u03c0\u03cd\u03c1\u03bf\u03c5 \u03a1\u03cc\u03b4\u03b7", "amenity": "restaurant", "name:en": "Ladokolla"}}, {"type": "node", "id": 5976299586, "lat": 37.7466313, "lon": 23.4293479, "tags": {"addr:housenumber": "4", "addr:street": "\u0391\u03af\u03b1\u03bd\u03c4\u03bf\u03c2", "amenity": "restaurant", "name:en": "The Black Cat"}}, {"type": "node", "id": 5987008044, "lat": 37.4636563, "lon": 23.1728187, "tags": {"amenity": "restaurant", "cuisine": "regional"}}, {"type": "node", "id": 5987008045, "lat": 37.4634498, "lon": 23.1725344, "tags": {"amenity": "restaurant", "cuisine": "regional"}}, {"type": "node", "id": 6045514285, "lat": 37.7448977, "lon": 23.4311262, "tags": {"amenity": "cafe"}}, {"type": "node", "id": 6176591519, "lat": 37.7451301, "lon": 23.4295953, "tags": {"amenity": "restaurant", "name": "\u03a0\u03b5\u03bb\u03b1\u0390\u03c3\u03bf\u03c2", "operator": "\u0392\u03b1\u03b3\u03b3\u03ad\u03bb\u03b7\u03c2 \u039a\u03ac\u03c4\u03c3\u03b7\u03c2"}}, {"type": "node", "id": 6176592503, "lat": 37.7434499, "lon": 23.4303459, "tags": {"amenity": "restaurant", "name": "\u03a0\u03b1\u03bd\u03b1\u03b3\u03af\u03c4\u03c3\u03b1", "outdoor_seating": "yes"}}, {"type": "node", "id": 6191165048, "lat": 37.7001438, "lon": 23.4684912, "tags": {"addr:street": "\u0391\u03b9\u03b3\u03b9\u03bd\u03ae\u03c4\u03b9\u03c3\u03c3\u03b1\u03c2", "amenity": "restaurant", "cuisine": "mediterranean;seafood", "name": "\u0391\u03b9\u03b3\u03b9\u03bd\u03ae\u03c4\u03b9\u03c3\u03c3\u03b1", "outdoor_seating": "yes", "phone": "+30 22970 61546", "smoking": "outside"}}, {"type": "node", "id": 6191165184, "lat": 37.7730863, "lon": 23.4893263, "tags": {"amenity": "cafe", "name": "\u03a3\u03ba\u03bf\u03c1\u03c0\u03b9\u03cc\u03c2"}}, {"type": "node", "id": 6349347834, "lat": 37.7697092, "lon": 23.5368529}, {"type": "node", "id": 6349347835, "lat": 37.7695918, "lon": 23.5368175}, {"type": "node", "id": 6349347836, "lat": 37.7695528, "lon": 23.5370248}, {"type": "node", "id": 6349347837, "lat": 37.7696702, "lon": 23.5370601}, {"type": "node", "id": 6350903204, "lat": 37.7569207, "lon": 23.4579749}, {"type": "node", "id": 6350903205, "lat": 37.7569773, "lon": 23.4578308}, {"type": "node", "id": 6350903206, "lat": 37.7569909, "lon": 23.458019}, {"type": "node", "id": 6350903208, "lat": 37.7570232, "lon": 23.4579367}, {"type": "node", "id": 6350903209, "lat": 37.7570285, "lon": 23.45794}, {"type": "node", "id": 6350903210, "lat": 37.7570356, "lon": 23.4578674}, {"type": "node", "id": 6350903212, "lat": 37.7570528, "lon": 23.4578782}, {"type": "node", "id": 6553841862, "lat": 37.5244288, "lon": 23.3513236, "tags": {"amenity": "restaurant", "name": "cianna taverna"}}, {"type": "node", "id": 6690871885, "lat": 37.7130817, "lon": 23.3459902, "tags": {"amenity": "cafe", "cuisine": "seafood", "email": "fotini_fk@hotmail.com", "internet_access": "wlan", "name": "\u039c\u03b1\u03bd\u03c4\u03c1\u03ac\u03ba\u03b9", "name:el": "\u039c\u03b1\u03bd\u03c4\u03c1\u03ac\u03ba\u03b9", "name:en": "Madraki", "opening_hours": "Mo-Su 12:30-23:30", "phone": "22970 91357", "website": "https://agistri.com.gr/madraki/"}}, {"type": "node", "id": 6690871985, "lat": 37.712226, "lon": 23.3469266, "tags": {"amenity": "restaurant", "email": "studiosmeltemi@hotmail.com", "internet_access": "wlan", "name": "\u039c\u03b5\u03bb\u03c4\u03ad\u03bc\u03b9", "opening_hours": "Mo-Su 09:00-01:00", "phone": "+30 229 709 1057", "website": "https://meltemistudios.gr/"}}, {"type": "node", "id": 6691816186, "lat": 37.7129593, "lon": 23.3463, "tags": {"amenity": "restaurant", "name": "\u039c\u0395\u03a1\u0391\u039a\u039b\u0397\u03a3"}}, {"type": "node", "id": 6695035887, "lat": 37.7097443, "lon": 23.3647551, "tags": {"amenity": "cafe", "check_date": "2024-09-29", "cuisine": "pancake;italian;ice_cream;coffee_shop", "email": "info@aquariusappartments-agistri.com", "internet_access": "wlan", "name": "Aquarius", "name:en": "Aquarius", "opening_hours": "24/7", "phone": "+30 2297 091302"}}, {"type": "node", "id": 6695036086, "lat": 37.7096182, "lon": 23.365026, "tags": {"amenity": "cafe", "cuisine": "breakfast;coffee_shop;crepe", "name": "\u039c\u03b5\u03bb\u03b9\u03c1\u03c1\u03c5\u03c4\u03bf\u03bd", "name:el": "\u039c\u03b5\u03bb\u03b9\u03c1\u03c1\u03c5\u03c4\u03bf\u03bd", "name:en": "Melirriton"}}, {"type": "node", "id": 6695037785, "lat": 37.7099483, "lon": 23.3644072, "tags": {"amenity": "cafe", "cuisine": "burger;sandwich;coffee_shop;ice_cream", "email": "sweetisland.agistri@gmail.com", "name": "Sweet Island", "name:en": "Sweet Island", "opening_hours": "24/7", "phone": "+30 693 839 4150"}}, {"type": "node", "id": 6695040986, "lat": 37.7101087, "lon": 23.3641571, "tags": {"amenity": "restaurant", "bar": "yes", "cuisine": "pizza", "name": "Da Carla", "name:en": "Da Carla"}}, {"type": "node", "id": 6695597485, "lat": 37.7101511, "lon": 23.3639201, "tags": {"amenity": "restaurant", "cuisine": "seafood;greek", "name": "\u039b\u03af\u03b3\u03bf \u03ba\u03c1\u03b1\u03c3\u03af \u03bb\u03af\u03b3\u03bf \u03b8\u03ac\u03bb\u03b1\u03c3\u03c3\u03b1"}}, {"type": "node", "id": 6695597586, "lat": 37.7101079, "lon": 23.3636108, "tags": {"amenity": "restaurant", "name": "\u03c4\u03bf \u0391\u03b3\u03ba\u03af\u03c3\u03c4\u03c1\u03b9", "name:el": "\u03c4\u03bf \u0391\u03b3\u03ba\u03af\u03c3\u03c4\u03c1\u03b9", "name:en": "The Agistri"}}, {"type": "node", "id": 6695599286, "lat": 37.7109193, "lon": 23.3513623, "tags": {"amenity": "restaurant", "internet_access": "wlan", "name": "Amaryllis", "name:en": "Amaryllis"}}, {"type": "node", "id": 6697645485, "lat": 37.7091211, "lon": 23.3638662, "tags": {"amenity": "restaurant", "check_date:opening_hours": "2022-08-04", "cuisine": "burger;hotdog;local;kebab;greek", "name": "\u0393\u03c5\u03c1\u03bf\u03ba\u03bf\u03bc\u03b5\u03af\u03bf\u03bd", "name:el": "\u0393\u03c5\u03c1\u03bf\u03ba\u03bf\u03bc\u03b5\u03af\u03bf\u03bd", "name:en": "Girokomion", "opening_hours:signed": "no"}}, {"type": "node", "id": 6698621486, "lat": 37.7120344, "lon": 23.3477039, "tags": {"amenity": "cafe", "cuisine": "sandwich;breakfast;coffee_shop", "name": "Theris", "name:en": "Theris"}}, {"type": "node", "id": 6698623085, "lat": 37.711387, "lon": 23.3493708, "tags": {"amenity": "cafe", "cuisine": "burger;crepe;sandwich", "name": "\u03a1\u03b5\u03bc\u03b5\u03c4\u03b6\u03bf", "name:el": "\u03a1\u03b5\u03bc\u03b5\u03c4\u03b6\u03bf", "name:en": "Pemetzo"}}, {"type": "node", "id": 6924845085, "lat": 37.7430456, "lon": 23.4305749, "tags": {"amenity": "restaurant", "name": "\u0394\u03c1\u03bf\u03bc\u03ac\u03ba\u03b9", "name:el": "\u0394\u03c1\u03bf\u03bc\u03ac\u03ba\u03b9", "name:en": "Dromaki", "opening_hours": "Mo-Su 08:00-12:00"}}, {"type": "node", "id": 7299741259, "lat": 37.4078666, "lon": 23.4159842, "tags": {"amenity": "cafe", "name": "Da vinci"}}, {"type": "node", "id": 7366421458, "lat": 37.6379555, "lon": 23.3958993, "tags": {"amenity": "restaurant", "name": "\u0391\u03b3\u03b9\u03c9\u03c1\u03b3\u03ae\u03c4\u03b9\u03ba\u03bf", "name:el": "\u0391\u03b3\u03b9\u03c9\u03c1\u03b3\u03ae\u03c4\u03b9\u03ba\u03bf", "name:en": "Agiorgitikon"}}, {"type": "node", "id": 7551957198, "lat": 37.7513346, "lon": 23.5085347, "tags": {"amenity": "restaurant", "cuisine": "greek", "name": "\u039a\u03b1\u03c6\u03b5\u03bd\u03b5\u03af\u03bf \u03bf \u03a3\u03ba\u03b1\u03c6\u03ce\u03bd\u03b1\u03c2"}}, {"type": "node", "id": 7730245113, "lat": 37.7427393, "lon": 23.5355658, "tags": {"amenity": "restaurant", "name": "\u0391\u03ba\u03c1\u03bf\u03b3\u03b9\u03ac\u03bb\u03b9"}}, {"type": "node", "id": 7807821186, "lat": 37.7090797, "lon": 23.3638302, "tags": {"amenity": "restaurant", "int_name": "Gyrokomion", "name": "\u0393\u03c5\u03c1\u03bf\u03ba\u03bf\u03bc\u03b5\u03af\u03bf\u03bd", "name:el": "\u0393\u03c5\u03c1\u03bf\u03ba\u03bf\u03bc\u03b5\u03af\u03bf\u03bd", "name:en": "Gyromelon"}}, {"type": "node", "id": 7807821187, "lat": 37.7088493, "lon": 23.3634193, "tags": {"amenity": "restaurant", "cuisine": "greek;seafood", "name:en": "Toxotis"}}, {"type": "node", "id": 7825811812, "lat": 37.767734, "lon": 23.5352462}, {"type": "node", "id": 7825811813, "lat": 37.7676153, "lon": 23.535251}, {"type": "node", "id": 7825811814, "lat": 37.7676398, "lon": 23.5348529}, {"type": "node", "id": 7825811815, "lat": 37.7677366, "lon": 23.534848}, {"type": "node", "id": 7825872992, "lat": 37.7691629, "lon": 23.5341807}, {"type": "node", "id": 7825872993, "lat": 37.7689849, "lon": 23.5341711}, {"type": "node", "id": 7825872994, "lat": 37.7689911, "lon": 23.5339493}, {"type": "node", "id": 7825872995, "lat": 37.7691283, "lon": 23.5339624}, {"type": "node", "id": 7825872996, "lat": 37.7691255, "lon": 23.5340255}, {"type": "node", "id": 7825872997, "lat": 37.7691692, "lon": 23.5340282}, {"type": "node", "id": 7896285160, "lat": 37.7450526, "lon": 23.4301029}, {"type": "node", "id": 7896285162, "lat": 37.7449951, "lon": 23.4303242}, {"type": "node", "id": 7896285163, "lat": 37.7450846, "lon": 23.4302192}, {"type": "node", "id": 8950877380, "lat": 37.7475317, "lon": 23.4260795}, {"type": "node", "id": 8950877381, "lat": 37.7475106, "lon": 23.4259963}, {"type": "node", "id": 8950877382, "lat": 37.7474597, "lon": 23.4260356}, {"type": "node", "id": 8950877383, "lat": 37.7474994, "lon": 23.4260905}, {"type": "node", "id": 8950913073, "lat": 37.746382, "lon": 23.4283934}, {"type": "node", "id": 8950913074, "lat": 37.7462853, "lon": 23.4283495}, {"type": "node", "id": 8950913075, "lat": 37.7462642, "lon": 23.4284154}, {"type": "node", "id": 8950913076, "lat": 37.7463721, "lon": 23.428464}, {"type": "node", "id": 8950940490, "lat": 37.7449495, "lon": 23.4296012, "tags": {"amenity": "restaurant", "name": "\u039c\u03b1\u03c1\u03b9\u03b4\u03ac\u03ba\u03b9", "name:el": "\u039c\u03b1\u03c1\u03b9\u03b4\u03ac\u03ba\u03b9", "name:en": "Maridaki Restaurant", "phone": "+302297025869"}}, {"type": "node", "id": 8950952246, "lat": 37.7450301, "lon": 23.4295401}, {"type": "node", "id": 8950952247, "lat": 37.7450425, "lon": 23.4296263}, {"type": "node", "id": 8950952248, "lat": 37.7449929, "lon": 23.4296404}, {"type": "node", "id": 8950952249, "lat": 37.7449842, "lon": 23.4295448}, {"type": "node", "id": 8950954607, "lat": 37.7446555, "lon": 23.4296624, "tags": {"amenity": "restaurant", "name": "\u039c\u03b5\u03b6\u03b5\u03b4\u03bf\u03c0\u03c9\u03bb\u03b5\u03b9\u03bf-\u039f\u03c5\u03b6\u03b5\u03c1\u03b9 \u03a4\u03c3\u03af\u03b1\u03c2", "phone": "+302297023529", "toilets": "yes", "toilets:wheelchair": "limited", "wheelchair": "limited"}}, {"type": "node", "id": 8951013766, "lat": 37.746252, "lon": 23.428456, "tags": {"amenity": "restaurant", "cuisine": "coffee_shop;ice_cream;crepe;greek;pasta;burger;breakfast", "delivery": "yes", "email": "mrp.stathis@gmail.com", "name": "Panagakis Cr\u00eape \u2022 Caf\u00e9", "name:el": "\u03a0\u03b1\u03bd\u03b1\u03b3\u03ac\u03ba\u03b7\u03c2 - \u039a\u03c1\u03ad\u03c0\u03b1 - \u039a\u03b1\u03c6\u03ad", "outdoor_seating": "yes", "phone": "+302297026654", "takeaway": "yes", "website": "https://www.facebook.com/Panagakis.Aegina/"}}, {"type": "node", "id": 8951072700, "lat": 37.7460242, "lon": 23.4287494, "tags": {"amenity": "restaurant", "name": "Miralice Aegina", "phone": "+302297022330"}}, {"type": "node", "id": 8951073449, "lat": 37.745348, "lon": 23.429896, "tags": {"amenity": "restaurant", "cuisine": "souvlaki", "name": "\u03a8\u03b7\u03c4\u03bf\u03c0\u03c9\u03bb\u03b5\u03af\u03bf \u039c\u03b1\u03cd\u03c1\u03bf\u03c2 \u0393\u03ac\u03c4\u03bf\u03c2", "name:el": "\u03a8\u03b7\u03c4\u03bf\u03c0\u03c9\u03bb\u03b5\u03af\u03bf \u039c\u03b1\u03cd\u03c1\u03bf\u03c2 \u0393\u03ac\u03c4\u03bf\u03c2", "name:en": "Steakhouse Black Cat", "phone": "+302297026452"}}, {"type": "node", "id": 8951075823, "lat": 37.7463285, "lon": 23.427996, "tags": {"amenity": "cafe", "name": "Nisos Cafe Bar", "outdoor_seating": "yes", "phone": "+302297500210"}}, {"type": "node", "id": 8951118829, "lat": 37.7450747, "lon": 23.4298944, "tags": {"amenity": "restaurant", "cuisine": "souvlaki", "name": "\u039f \u03b3\u03cd\u03c1\u03bf\u03c2 \u03c4\u03b7\u03c2 \u0391\u03af\u03b3\u03b9\u03bd\u03b1\u03c2", "phone": "+302297028188"}}, {"type": "node", "id": 8952110595, "lat": 37.7650843, "lon": 23.4372854, "tags": {"amenity": "restaurant", "name": "\u039a\u03b1\u03bb\u03b1\u03bc\u03ac\u03ba\u03b9 \u03c3\u03c4\u03bf \u03a4\u03c3\u03b1\u03ba \u039c\u03b1\u03bc", "outdoor_seating": "yes"}}, {"type": "node", "id": 8961553517, "lat": 37.5001932, "lon": 23.4551441, "tags": {"amenity": "restaurant", "name": "Platanos Taverna"}}, {"type": "node", "id": 8972809836, "lat": 37.4977577, "lon": 23.4582635, "tags": {"addr:city": "\u03a0\u03cc\u03c1\u03bf\u03c2", "addr:housenumber": "4", "addr:postcode": "180 20", "addr:street": "25\u03b7\u03c2 \u039c\u03b1\u03c1\u03c4\u03af\u03bf\u03c5", "amenity": "restaurant", "contact:facebook": "apagiotavernaporos", "contact:phone": "+302298026219", "cuisine": "greek;seafood", "description": "5 stars quality", "diet:mediterranean": "yes", "ele": "0", "int_name": "Apagio", "name": "\u0391\u03c0\u03ac\u03b3\u03ba\u03b9\u03bf", "opening_hours": "Mo-Su 11:30-23:30", "outdoor_seating": "yes"}}, {"type": "node", "id": 9052653250, "lat": 37.7094867, "lon": 23.3654014, "tags": {"amenity": "restaurant", "cuisine": "greek;seafood", "name": "\u039c\u03bf\u03c3\u03c7\u03bf\u03c2", "name:el": "\u039c\u03bf\u03c3\u03c7\u03bf\u03c2", "name:en": "Moschos"}}, {"type": "node", "id": 9055917912, "lat": 37.7093844, "lon": 23.3656834, "tags": {"amenity": "restaurant", "name": "\u03a4\u03b5\u03bb\u03c7\u03b9\u03bd\u03b5\u03c2", "name:el": "\u03a4\u03b5\u03bb\u03c7\u03b9\u03bd\u03b5\u03c2", "name:en": "Telchines"}}, {"type": "node", "id": 9055917913, "lat": 37.708333, "lon": 23.3660388, "tags": {"amenity": "restaurant", "name": "Oasis"}}, {"type": "node", "id": 9055939722, "lat": 37.7082704, "lon": 23.3662842, "tags": {"amenity": "restaurant", "bar": "yes", "name": "Aktaion Beach - Boutique Hotel"}}, {"type": "node", "id": 9055939723, "lat": 37.7081919, "lon": 23.3664935, "tags": {"amenity": "restaurant", "name": "Hotel Alexandra"}}, {"type": "node", "id": 9058226344, "lat": 37.709534, "lon": 23.3652877, "tags": {"amenity": "cafe", "cuisine": "ice_cream;waffle;frozen_yogurt", "name": "OLA ...and more"}}, {"type": "node", "id": 9058226347, "lat": 37.711075, "lon": 23.35027, "tags": {"amenity": "cafe", "cuisine": "snackbar", "name": "Nuevo"}}, {"type": "node", "id": 9064216048, "lat": 37.7580245, "lon": 23.4558557, "tags": {"addr:city": "\u0391\u03af\u03b3\u03b9\u03bd\u03b1", "addr:housenumber": "2", "addr:postcode": "18010", "addr:street": "\u0395\u03c5\u03b1\u03b3\u03b3\u03b5\u03bb\u03b9\u03c3\u03c4\u03c1\u03af\u03b1\u03c2", "addr:unit": "\u039a\u03c5\u03c8\u03ad\u03bb\u03b7", "amenity": "restaurant", "delivery": "yes", "name": "\u03a4\u03bf \u03c3\u03c4\u03ad\u03ba\u03b9 \u03c4\u03b7\u03c2 \u03ba\u03c5\u03c8\u03ad\u03bb\u03b7\u03c2", "opening_hours": "Mo-Su 17:00-24:00", "outdoor_seating": "yes", "phone": "+302297023706", "takeaway": "yes", "website": "https://www.facebook.com/tostekiaegina/", "wheelchair": "yes"}}, {"type": "node", "id": 9064238687, "lat": 37.7581543, "lon": 23.4558903, "tags": {"amenity": "cafe", "name": "Twins Cafe & Snack", "phone": "+302297024222", "website": "https://twins-cafesnack.business.site"}}, {"type": "node", "id": 9565071027, "lat": 37.7449673, "lon": 23.4301297}, {"type": "node", "id": 9823617094, "lat": 37.7463034, "lon": 23.4281121, "tags": {"amenity": "cafe", "name": "Panta rei"}}, {"type": "node", "id": 9823666857, "lat": 37.746194, "lon": 23.4291398, "tags": {"amenity": "restaurant", "name": "\u039a\u03c1\u03b7\u03c4\u03ce\u03bd \u03b3\u03b5\u03cd\u03c3\u03b5\u03b9\u03c2"}}, {"type": "node", "id": 9829046804, "lat": 37.751955, "lon": 23.5132026, "tags": {"amenity": "restaurant", "name": "\u03a4\u03bf \u03ba\u03c1\u03b5\u03bc\u03bc\u03c5\u03b4\u03ac\u03ba\u03b9"}}, {"type": "node", "id": 9864336892, "lat": 37.7460859, "lon": 23.4850132, "tags": {"amenity": "restaurant"}}, {"type": "node", "id": 9942306728, "lat": 37.6839648, "lon": 23.3235296}, {"type": "node", "id": 9942306729, "lat": 37.6839338, "lon": 23.3236472}, {"type": "node", "id": 9942306730, "lat": 37.6838671, "lon": 23.3236192}, {"type": "node", "id": 9942306731, "lat": 37.6838982, "lon": 23.3235015}, {"type": "node", "id": 10055631417, "lat": 37.7476175, "lon": 23.4258985, "tags": {"amenity": "cafe", "name:en": "Le Cafe"}}, {"type": "node", "id": 10564419025, "lat": 37.5408705, "lon": 23.2895392, "tags": {"amenity": "cafe", "name": "Tolis Cafe"}}, {"type": "node", "id": 10564419036, "lat": 37.539465, "lon": 23.2933092}, {"type": "node", "id": 10564419037, "lat": 37.539362, "lon": 23.2932672}, {"type": "node", "id": 10564419038, "lat": 37.5393339, "lon": 23.2933625}, {"type": "node", "id": 10564419039, "lat": 37.5394124, "lon": 23.2933896}, {"type": "node", "id": 10564419040, "lat": 37.539419, "lon": 23.2933672}, {"type": "node", "id": 10564419041, "lat": 37.5394464, "lon": 23.2933802}, {"type": "node", "id": 10564419050, "lat": 37.5460481, "lon": 23.303502}, {"type": "node", "id": 10564419051, "lat": 37.5459242, "lon": 23.3033309}, {"type": "node", "id": 10564419052, "lat": 37.5458676, "lon": 23.30339}, {"type": "node", "id": 10564419053, "lat": 37.5459788, "lon": 23.3035475}, {"type": "node", "id": 10564419065, "lat": 37.5393905, "lon": 23.2933247, "tags": {"amenity": "restaurant", "name": "Dimitra food"}}, {"type": "node", "id": 10564548683, "lat": 37.5394387, "lon": 23.2932985}, {"type": "node", "id": 10595239653, "lat": 37.7045984, "lon": 23.3710749, "tags": {"amenity": "restaurant", "cuisine": "greek", "diet:gluten_free": "yes", "diet:vegan": "yes", "diet:vegetarian": "yes", "fixme": "approximate location", "name": "Rosy's Little Village", "phone": "+302297091610", "source": "https://rosyslittlevillage.com/restaurant.html"}}, {"type": "node", "id": 10752101106, "lat": 37.4989303, "lon": 23.4520839, "tags": {"amenity": "restaurant", "cuisine": "greek", "name": "Taverna Platano"}}, {"type": "node", "id": 11202539811, "lat": 37.3871051, "lon": 23.2462143, "tags": {"amenity": "cafe", "check_date": "2023-09-19", "delivery": "yes", "level": "0", "name": "Coffee Drops", "opening_hours": "Mo-Sa 06:30-20:00", "outdoor_seating": "yes", "takeaway": "yes", "wheelchair": "no"}}, {"type": "node", "id": 11202539812, "lat": 37.3860465, "lon": 23.2474831, "tags": {"amenity": "cafe", "check_date": "2023-09-19"}}, {"type": "node", "id": 11202539814, "lat": 37.3852794, "lon": 23.2494016, "tags": {"amenity": "restaurant", "check_date": "2023-09-19", "name": "Ganossis", "wheelchair": "yes"}}, {"type": "node", "id": 11202539815, "lat": 37.3850917, "lon": 23.2494085, "tags": {"amenity": "restaurant", "check_date": "2023-09-19", "cuisine": "pizza", "name": "Veckio's Pizza"}}, {"type": "node", "id": 11207357425, "lat": 37.499185, "lon": 23.4540048, "tags": {"amenity": "restaurant", "check_date": "2023-09-21", "name": "Taverna Garden"}}, {"type": "node", "id": 11207357430, "lat": 37.4985567, "lon": 23.453047, "tags": {"amenity": "restaurant", "check_date": "2023-09-21", "cuisine": "greek"}}, {"type": "node", "id": 11209571426, "lat": 37.5006052, "lon": 23.453886, "tags": {"amenity": "cafe", "check_date": "2023-09-22", "name": "Morso Cafe", "outdoor_seating": "yes"}}, {"type": "node", "id": 11209571433, "lat": 37.4989405, "lon": 23.4519991, "tags": {"amenity": "cafe", "check_date": "2024-10-03", "name": "Retro Cafe"}}, {"type": "node", "id": 11259890637, "lat": 37.5795625, "lon": 23.3902907, "tags": {"amenity": "cafe", "cuisine": "greek", "name": "\u039a\u0391\u03a6\u0395 \u03a0\u03b1\u03bb\u03b9\u03bf\u03ba\u03b1\u03c4\u03ac\u03c3\u03c4\u03b1\u03c3\u03b7 \u039c\u0395\u0396\u0395\u0394\u039f\u03a0\u03a9\u039b\u0395\u0399\u039f \u039c\u0395\u0398\u0391\u039d\u0391"}}, {"type": "node", "id": 11763176329, "lat": 37.49724, "lon": 23.4477035, "tags": {"addr:floor": "0", "amenity": "cafe", "check_date": "2024-03-26", "name": "La Frianderie", "opening_hours": "06:00-22:00", "outdoor_seating": "yes", "payment:cash": "yes", "payment:credit_cards": "yes", "payment:debit_cards": "yes", "wheelchair": "limited"}}, {"type": "node", "id": 11763192450, "lat": 37.4955935, "lon": 23.4517873, "tags": {"amenity": "restaurant", "check_date": "2024-03-26", "contact:facebook": "https://www.facebook.com/ouzeriVasileris", "contact:instagram": "https://www.instagram.com/ouzeri_vasileris", "cuisine": "greek", "diet:vegan": "yes", "diet:vegetarian": "yes", "name": "Ouzeri Vasileris", "opening_hours": "Mo-Fr 07:30-01:00; Sa-Su 07:30-02:00", "payment:cash": "yes", "payment:credit_cards": "yes", "payment:debit_cards": "yes", "wheelchair": "limited"}}, {"type": "node", "id": 12138480300, "lat": 37.772104, "lon": 23.5288256, "tags": {"amenity": "restaurant", "cuisine": "fish;greek", "int_name": "Panorama", "name": "\u03a0\u03b1\u03bd\u03cc\u03c1\u03b1\u03bc\u03b1"}}, {"type": "node", "id": 12213605965, "lat": 37.7116493, "lon": 23.3466034, "tags": {"amenity": "restaurant", "name": "Ostria"}}, {"type": "node", "id": 12528978351, "lat": 37.7446525, "lon": 23.4321667, "tags": {"amenity": "restaurant", "cuisine": "sandwich", "diet:meat": "yes", "name": "\u03a4\u03bf \u03c6\u03b1\u03b3\u03bf\u03c0\u03cc\u03c4\u03b9", "phone": "2297028335"}}, {"type": "node", "id": 12528988117, "lat": 37.744098, "lon": 23.4323768, "tags": {"amenity": "restaurant", "contact:phone": "+30 2297028560", "cuisine": "pizza", "name": "Pizza \u0393\u03b9\u03ce\u03c4\u03b1\u03c2"}}, {"type": "node", "id": 12593974945, "lat": 37.7457074, "lon": 23.429274, "tags": {"amenity": "restaurant", "cuisine": "regional", "name": "\u03a0\u03ad\u03c4\u03c1\u03b1", "phone": "2297022332"}}, {"type": "node", "id": 12757889001, "lat": 37.7511202, "lon": 23.5495804, "tags": {"amenity": "restaurant", "cuisine": "barbecue;chicken;coffee_shop;fish;friture;greek;grill", "name": "\u0398\u03bf\u03bb\u03cc\u03c2", "name:en": "Tholos"}}, {"type": "node", "id": 12861372601, "lat": 37.637153, "lon": 23.3553471, "tags": {"amenity": "restaurant", "cuisine": "greek;spanish", "name": "Las Olas"}}, {"type": "way", "id": 196323804, "nodes": [2066654834, 2066654833, 2066654826, 2066654828, 2066654834], "tags": {"amenity": "restaurant", "building": "yes", "name": "\u039d\u03b1\u03c5\u03c4\u03b9\u03ba\u03cc\u03c2 \u038c\u03bc\u03b9\u03bb\u03bf\u03c2 \u0391\u03af\u03b3\u03b9\u03bd\u03b1\u03c2"}}, {"type": "way", "id": 196323875, "nodes": [2066655325, 2066655312, 2066655314, 2066655318, 2066655326, 2066655336, 2066655328, 2066655335, 2066655325], "tags": {"amenity": "restaurant", "building": "yes", "name": "Kavouropetra"}}, {"type": "way", "id": 196323876, "nodes": [2066654351, 2066654345, 2066654342, 2066654332, 2066654331, 2066654335, 2066654336, 2066654344, 2066654351], "tags": {"amenity": "restaurant", "building": "yes", "name": "\u0397 \u03a3\u03bf\u03c6\u03af\u03b1", "name:el": "\u0397 \u03a3\u03bf\u03c6\u03af\u03b1", "name:en": "Sophia", "name:ru": "\u0421\u043e\u0444\u0438\u044f"}}, {"type": "way", "id": 203784695, "nodes": [2137799958, 2137799937, 2137799933, 2137799930, 2137799928, 2137799932, 2137799953, 2137799958], "tags": {"amenity": "restaurant", "building": "yes", "int_name": "White Cat", "name": "\u0386\u03c3\u03c0\u03c1\u03bf\u03c2 \u0393\u03ac\u03c4\u03bf\u03c2"}}, {"type": "way", "id": 678116662, "nodes": [6349347834, 6349347835, 6349347836, 6349347837, 6349347834], "tags": {"amenity": "restaurant", "building": "yes", "name": "Dirlantas"}}, {"type": "way", "id": 678262679, "nodes": [6350903210, 6350903212, 6350903209, 6350903208, 6350903206, 6350903204, 6350903205, 6350903210], "tags": {"amenity": "restaurant", "building": "yes", "name": "Il Posto"}}, {"type": "way", "id": 838521501, "nodes": [7825811812, 7825811813, 7825811814, 7825811815, 7825811812], "tags": {"addr:city": "\u0392\u03b1\u03b3\u03af\u03b1", "amenity": "restaurant", "building": "yes", "cuisine": "greek;Souvlaki;fast_food", "name": "\u039f \u039d\u03b9\u03ba\u03cc\u03b4\u03b7\u03bc\u03bf\u03c2", "outdoor_seating": "yes"}}, {"type": "way", "id": 838529464, "nodes": [7825872992, 7825872993, 7825872994, 7825872995, 7825872996, 7825872997, 7825872992], "tags": {"addr:city": "\u0392\u03b1\u03b3\u03af\u03b1", "addr:housenumber": "111", "addr:postcode": "18010", "addr:street": "\u039b\u03b5\u03c9\u03c6. \u0392\u03b1\u03b3\u03af\u03b1\u03c2", "amenity": "restaurant", "building": "yes", "cuisine": "greek", "name": "\u039c\u03b9\u03c7\u03ac\u03bb\u03b7\u03c2 \u03a4\u03b1\u03b2\u03ad\u03c1\u03bd\u03b1", "name:el": "\u039c\u03b9\u03c7\u03ac\u03bb\u03b7\u03c2 \u03a4\u03b1\u03b2\u03ad\u03c1\u03bd\u03b1", "name:en": "Michalis Restaurant", "phone": "+302297071091"}}, {"type": "way", "id": 846354180, "nodes": [7896285160, 9565071027, 7896285162, 7896285163, 7896285160], "tags": {"addr:street": "\u03a0.\u0397\u03c1\u03b5\u03b9\u03ce\u03c4\u03b7 & \u039d\u03b5\u03bf\u03c0\u03c4\u03bf\u03bb\u03ad\u03bc\u03bf\u03c5", "amenity": "restaurant", "building": "yes", "cuisine": "greek;fish", "description": "\u039c\u03b5\u03b6\u03b5\u03b4\u03bf\u03c0\u03c9\u03bb\u03b5\u03af\u03bf - \u03a4\u03c3\u03b9\u03c0\u03bf\u03c5\u03c1\u03ac\u03b4\u03b9\u03ba\u03bf", "name": "\u039c\u03c0\u03b1\u03ba\u03b1\u03bb\u03cc\u03b3\u03b1\u03c4\u03bf\u03c2", "name:el": "\u039c\u03c0\u03b1\u03ba\u03b1\u03bb\u03cc\u03b3\u03b1\u03c4\u03bf\u03c2", "name:en": "Bakalogatos", "outdoor_seating": "yes", "phone": "+302297500501", "website": "https://www.facebook.com/MpakalogatosAigina", "wheelchair": "limited"}}, {"type": "way", "id": 967511211, "nodes": [8950877380, 8950877381, 8950877382, 8950877383, 8950877380], "tags": {"addr:city": "\u0391\u03af\u03b3\u03b9\u03bd\u03b1", "addr:housenumber": "2", "addr:postcode": "18010", "addr:street": "\u039b\u03b5\u03c9\u03c6\u03cc\u03c1\u03bf\u03c2 \u039a\u03b1\u03b6\u03b1\u03bd\u03c4\u03b6\u03ac\u03ba\u03b7 & \u0391\u03b3\u03af\u03bf\u03c5 \u039d\u03b9\u03ba\u03bf\u03bb\u03ac\u03bf\u03c5", "amenity": "restaurant", "building": "yes", "cuisine": "souvlaki", "name": "Streat Grill House", "phone": "+302297023123"}}, {"type": "way", "id": 967515920, "nodes": [8950913073, 8950913074, 8950913075, 8950913076, 8950913073], "tags": {"amenity": "restaurant", "building": "yes", "cuisine": "ice_cream", "name": "\u0391\u03b9\u03ac\u03ba\u03b5\u03b9\u03bf\u03bd", "name:el": "\u0391\u03b9\u03ac\u03ba\u03b5\u03b9\u03bf\u03bd", "name:en": "Ai\u00e1keion", "outdoor_seating": "yes", "phone": "+302297022249", "takeaway": "yes", "website": "https://www.aiakeion.gr/"}}, {"type": "way", "id": 967517960, "nodes": [8950952246, 8950952247, 8950952248, 8950952249, 8950952246], "tags": {"amenity": "restaurant", "building": "yes", "name": "\u039f\u03c5\u03b6\u03b5\u03c1\u03af \u03bf \u03a3\u03ba\u03bf\u03c4\u03ac\u03b4\u03b7\u03c2", "name:el": "\u039f\u03c5\u03b6\u03b5\u03c1\u03af \u03bf \u03a3\u03ba\u03bf\u03c4\u03ac\u03b4\u03b7\u03c2", "name:en": "Ouzeri o Skotadis", "phone": "+302297024014"}}, {"type": "way", "id": 1085063885, "nodes": [9942306728, 9942306729, 9942306730, 9942306731, 9942306728], "tags": {"amenity": "cafe", "building": "retail", "drink:beer": "yes", "drink:coffee": "yes", "drink:gin": "yes", "drink:soft_drink": "yes", "drink:vodka": "yes", "drink:water": "yes", "drink:whisky": "yes", "drink:wine": "yes", "internet_access": "no", "name": "\u039c\u03ad\u03b4\u03bf\u03c5\u03c3\u03b1", "name:el": "\u039c\u03ad\u03b4\u03bf\u03c5\u03c3\u03b1", "name:en": "Medusa", "outdoor_seating": "yes", "smoking": "yes"}}, {"type": "way", "id": 1133065920, "nodes": [10564419036, 10564548683, 10564419037, 10564419038, 10564419039, 10564419040, 10564419041, 10564419036], "tags": {"amenity": "restaurant", "building": "yes"}}, {"type": "way", "id": 1133065923, "nodes": [10564419050, 10564419051, 10564419052, 10564419053, 10564419050], "tags": {"amenity": "restaurant", "building": "yes"}}]}