{"version": 0.6, "generator": "Overpass API 0.7.62.7 375dc00a", "osm3s": {"timestamp_osm_base": "2025-06-14T15:18:02Z", "copyright": "The data included in this document is from www.openstreetmap.org. The data is made available under ODbL."}, "elements": [{"type": "node", "id": 4934356421, "lat": 14.4397569, "lon": 33.556111, "tags": {"addr:street": "Main Qedaref-Khartoum Highway", "amenity": "restaurant", "name": "DANQAVI Restuarant", "name:en": "DANQLAVI Restuarant"}}, {"type": "node", "id": 5071238222, "lat": 14.4313284, "lon": 33.5481328, "tags": {"amenity": "restaurant", "name": "Cafeteria Riyyan", "name:en": "Cafeteria Riyyan"}}, {"type": "node", "id": 5520411421, "lat": 14.5488306, "lon": 33.4410184, "tags": {"amenity": "cafe", "name": "small cafe"}}, {"type": "node", "id": 5894172985, "lat": 14.4381519, "lon": 33.5509325, "tags": {"addr:street": "Khartoum-Port Sudan Highway", "amenity": "restaurant", "name": "ARREYAN", "name:en": "ARREYAN Restaurant"}}, {"type": "node", "id": 5956416385, "lat": 14.3974604, "lon": 33.5199538, "tags": {"amenity": "restaurant", "cuisine": "fish;african;sandwich;chicken;barbecue;local", "diet:vegetarian": "yes", "name": "Shaf Hall for", "name:ar": "\u0634\u0627\u0641 \u0627\u0644\u0647\u0648\u0644 \u0644\u0644\u0641\u0648\u0644 \u0648\u0627\u0644\u0641\u0644\u0627\u0641\u0644", "name:en": "Shaf Al-haoul for Beans and falafel", "opening_hours": "Mo-Su 10:00-22:00"}}, {"type": "node", "id": 7301850744, "lat": 14.3970682, "lon": 33.5201706, "tags": {"amenity": "restaurant"}}, {"type": "node", "id": 7301850746, "lat": 14.4055174, "lon": 33.5243758, "tags": {"amenity": "restaurant"}}, {"type": "node", "id": 7301850752, "lat": 14.3973735, "lon": 33.5202293, "tags": {"amenity": "restaurant"}}]}