{"version": 0.6, "generator": "Overpass API 0.7.62.7 375dc00a", "osm3s": {"timestamp_osm_base": "2025-06-14T13:14:00Z", "copyright": "The data included in this document is from www.openstreetmap.org. The data is made available under ODbL."}, "elements": [{"type": "node", "id": 3720624236, "lat": 36.1963419, "lon": 4.3971761}, {"type": "node", "id": 3720624237, "lat": 36.1964076, "lon": 4.3974089}, {"type": "node", "id": 3720624238, "lat": 36.1960359, "lon": 4.3975699}, {"type": "node", "id": 3720624239, "lat": 36.1959702, "lon": 4.3973371}, {"type": "node", "id": 4092467050, "lat": 36.0530865, "lon": 4.3150986}, {"type": "node", "id": 4092467051, "lat": 36.0531394, "lon": 4.3151694}, {"type": "node", "id": 4092467052, "lat": 36.0531551, "lon": 4.3151553}, {"type": "node", "id": 4092467053, "lat": 36.0532367, "lon": 4.3152544}, {"type": "node", "id": 4092467054, "lat": 36.0531365, "lon": 4.3153712}, {"type": "node", "id": 4092467055, "lat": 36.0530049, "lon": 4.3152031}, {"type": "node", "id": 4358198589, "lat": 35.9171225, "lon": 4.3811962, "tags": {"addr:country": "DZ", "amenity": "cafe", "name": "\u0645\u0642\u0647\u0649 \u0627\u0644\u0645\u0648\u0627\u0639\u064a\u062f", "name:ar": "\u0645\u0642\u0647\u0649 \u0627\u0644\u0645\u0648\u0627\u0639\u064a\u062f", "name:fr": "caf\u00e8 elmawa3id"}}, {"type": "node", "id": 4358198689, "lat": 35.9175692, "lon": 4.3805238, "tags": {"addr:country": "DZ", "amenity": "cafe", "name": "\u0645\u0642\u0647\u0649 \u0627\u0644\u062c\u0648\u0647\u0631\u0629", "name:ar": "\u0645\u0642\u0647\u0649 \u0627\u0644\u062c\u0648\u0647\u0631\u0629", "name:fr": "caf\u00e8 eldjawhara"}}, {"type": "node", "id": 4358964993, "lat": 35.9251592, "lon": 4.3759529, "tags": {"addr:country": "DZ", "amenity": "cafe", "name": "\u0645\u0642\u0647\u0649 \u062e\u0644\u064a\u0641", "name:ar": "\u0645\u0642\u0647\u0649 \u0644\u0639\u0648\u0643\u0644\u064a", "name:fr": "Caf\u00e9 Aokli"}}, {"type": "node", "id": 4449915689, "lat": 35.9307115, "lon": 4.3666758, "tags": {"addr:country": "DZ", "amenity": "restaurant", "name": "\u0645\u0623\u0643\u0648\u0644\u0627\u062a \u062a\u0642\u0644\u064a\u062f\u064a\u0629 \u0634\u062e\u0634\u0648\u062e\u0629 \u0648 \u0645\u0647\u0631\u0627\u0633", "name:ar": "\u0645\u0623\u0643\u0648\u0644\u0627\u062a \u062a\u0642\u0644\u064a\u062f\u064a\u0629 \u0634\u062e\u0634\u0648\u062e\u0629 \u0648 \u0645\u0647\u0631\u0627\u0633", "name:fr": "Restaurant Traditionnel"}}, {"type": "node", "id": 4475628716, "lat": 35.8474319, "lon": 4.4060666, "tags": {"addr:country": "DZ", "amenity": "cafe"}}, {"type": "node", "id": 4797403318, "lat": 35.8175185, "lon": 4.5336306, "tags": {"addr:country": "DZ", "amenity": "cafe"}}, {"type": "node", "id": 4815472823, "lat": 36.118004, "lon": 4.3845458}, {"type": "node", "id": 4815494021, "lat": 36.1183723, "lon": 4.3850243, "tags": {"addr:country": "DZ", "amenity": "cafe", "name:ar": "\u0645\u0642\u0647\u0649 \u0628\u0646 \u0644\u0645\u0632\u064a\u062a\u064a", "name:fr": "Caf\u00e9 belmeziti"}}, {"type": "node", "id": 5304546181, "lat": 36.0691138, "lon": 4.2068428}, {"type": "node", "id": 5304546182, "lat": 36.0692687, "lon": 4.2066599}, {"type": "node", "id": 5304609829, "lat": 36.0690129, "lon": 4.2067122}, {"type": "node", "id": 5304609830, "lat": 36.0691678, "lon": 4.2065292}, {"type": "node", "id": 5304609832, "lat": 36.0691042, "lon": 4.2068303}, {"type": "node", "id": 5304668957, "lat": 36.1285669, "lon": 4.3803512, "tags": {"addr:country": "DZ", "amenity": "cafe", "name": "\u0645\u0642\u0647\u0649", "name:ar": "\u0645\u0642\u0647\u0649", "name:fr": "Cafeteria"}}, {"type": "node", "id": 6130845985, "lat": 36.1963916, "lon": 4.3968639, "tags": {"amenity": "restaurant", "name:fr": "Galou full catering", "phone": "0770983470"}}, {"type": "node", "id": 6563033483, "lat": 36.1991514, "lon": 4.396966, "tags": {"addr:country": "DZ", "amenity": "cafe", "name": "caffeteria \u0645\u0642\u0647\u0649", "name:ar": "caffeteria \u0645\u0642\u0647\u0649", "name:fr": "Caffeteria"}}, {"type": "node", "id": 6563520727, "lat": 36.2025888, "lon": 4.3994134, "tags": {"addr:country": "DZ", "amenity": "cafe", "name": "caffeteria \u0645\u0642\u0647\u0649", "name:ar": "caffeteria \u0645\u0642\u0647\u0649", "name:fr": "Caffeteria"}}, {"type": "node", "id": 7081780167, "lat": 35.9284324, "lon": 4.3710084, "tags": {"addr:city": "\u062d\u0645\u0627\u0645 \u0627\u0644\u0636\u0644\u0639\u0629", "addr:city:ar": "\u062d\u0645\u0627\u0645 \u0627\u0644\u0636\u0644\u0639\u0629", "amenity": "restaurant", "diet:halal": "yes", "language:ar": "main", "name": "\u062e\u064a\u0645\u0629 \u0627\u0644\u062d\u0636\u0646\u0629 \u0644\u0644\u0645\u0623\u0643\u0648\u0644\u0627\u062a \u0627\u0644\u062a\u0642\u0644\u064a\u062f\u064a\u0629", "name:ar": "\u062e\u064a\u0645\u0629 \u0627\u0644\u062d\u0636\u0646\u0629 \u0644\u0644\u0645\u0623\u0643\u0648\u0644\u0627\u062a \u0627\u0644\u062a\u0642\u0644\u064a\u062f\u064a\u0629", "name:fr": "Khaymat Alhadna"}}, {"type": "node", "id": 8563074417, "lat": 36.0791076, "lon": 4.4652029, "tags": {"amenity": "cafe", "internet_access": "wlan", "name": "\u0627\u0644\u0628\u0634\u064a\u0631 \u0627\u0644\u0642\u0647\u0648\u0627\u062c\u064a", "name:en": "Cafetiria elbachir"}}, {"type": "node", "id": 10698815107, "lat": 36.0789831, "lon": 4.4633367, "tags": {"amenity": "cafe", "name:en": "cafeteria degdagui"}}, {"type": "node", "id": 10698818605, "lat": 36.0792416, "lon": 4.4633927, "tags": {"amenity": "cafe", "name": "\u0645\u0642\u0647\u0649 \u062f\u06a8\u062f\u0627\u06a8\u064a"}}, {"type": "node", "id": 11113733872, "lat": 36.1179933, "lon": 4.3845442}, {"type": "node", "id": 11113734533, "lat": 36.1180282, "lon": 4.3842919}, {"type": "node", "id": 11113735733, "lat": 36.1179751, "lon": 4.3847347}, {"type": "node", "id": 11113740302, "lat": 36.1182697, "lon": 4.3843272}, {"type": "node", "id": 11113750770, "lat": 36.1182273, "lon": 4.3847716}, {"type": "way", "id": 368204405, "nodes": [3720624236, 3720624237, 3720624238, 3720624239, 3720624236], "tags": {"amenity": "restaurant", "building": "yes", "name": "cafe restaurant AYRIS"}}, {"type": "way", "id": 407204427, "nodes": [4092467050, 4092467051, 4092467052, 4092467053, 4092467054, 4092467055, 4092467050], "tags": {"amenity": "restaurant", "building": "yes"}}, {"type": "way", "id": 549126503, "nodes": [5304546181, 5304546182, 5304609830, 5304609829, 5304609832, 5304546181], "tags": {"amenity": "restaurant", "building": "yes", "name": "\u0645\u0637\u0639\u0645 \u0627\u0644\u0645\u062f\u0631\u0633\u0629", "name:ar": "\u0645\u0637\u0639\u0645 \u0645\u062f\u0631\u0633\u064a", "name:ber": "Tneccit n u\u0263erbaz", "name:en": "school canteen", "name:fr": "Cantine scolaire"}}, {"type": "way", "id": 1197953742, "nodes": [11113734533, 4815472823, 11113733872, 11113735733, 11113750770, 11113740302, 11113734533], "tags": {"addr:country": "DZ", "amenity": "cafe", "building": "yes", "name:ar": "\u0645\u0642\u0647\u0649 \u0628\u0648\u0637\u063a\u0627\u0646", "name:fr": "Caf\u00e9 les freres boutaghane", "source": "microsoft/BuildingFootprints"}}]}