{"version": 0.6, "generator": "Overpass API 0.7.62.7 375dc00a", "osm3s": {"timestamp_osm_base": "2025-06-14T15:03:48Z", "copyright": "The data included in this document is from www.openstreetmap.org. The data is made available under ODbL."}, "elements": [{"type": "node", "id": 479203077, "lat": 37.4625767, "lon": 30.9103224, "tags": {"amenity": "restaurant"}}, {"type": "node", "id": 1368027783, "lat": 37.4909319, "lon": 30.559404, "tags": {"amenity": "restaurant", "description": "strassenrand", "name": "\u00c7amlaralt\u0131 Dinlenme Tesisi", "phone": "00902483542039"}}, {"type": "node", "id": 1836478158, "lat": 37.7346842, "lon": 30.4897424, "tags": {"amenity": "restaurant", "name": "G\u00f6lc\u00fck Restaurant"}}, {"type": "node", "id": 1862638412, "lat": 37.6492531, "lon": 30.5339447, "tags": {"amenity": "restaurant"}}, {"type": "node", "id": 1862638428, "lat": 37.6493296, "lon": 30.5341378, "tags": {"amenity": "restaurant"}}, {"type": "node", "id": 2428792434, "lat": 37.873168, "lon": 30.8468146, "tags": {"amenity": "cafe", "name": "Baba Keyf"}}, {"type": "node", "id": 2881780305, "lat": 37.8776502, "lon": 30.8241968, "tags": {"amenity": "restaurant"}}, {"type": "node", "id": 2882864163, "lat": 37.881685, "lon": 30.8658053, "tags": {"amenity": "restaurant", "cuisine": "fish", "name": "Big fish"}}, {"type": "node", "id": 2882864164, "lat": 37.8817575, "lon": 30.8658114, "tags": {"amenity": "restaurant", "cuisine": "fish", "name": "The big apple"}}, {"type": "node", "id": 3753197191, "lat": 37.8747413, "lon": 30.8502414, "tags": {"amenity": "restaurant", "name": "Kebap 49"}}, {"type": "node", "id": 3753197223, "lat": 37.874834, "lon": 30.8501416, "tags": {"amenity": "restaurant", "name": "Kebap\u00e7i Yusuf"}}, {"type": "node", "id": 3754019247, "lat": 37.8821505, "lon": 30.8693886, "tags": {"amenity": "restaurant", "name": "Melodi Restaurant"}}, {"type": "node", "id": 3754098312, "lat": 37.8816479, "lon": 30.8666579, "tags": {"amenity": "restaurant", "name": "Kroisos", "tourism": "hotel"}}, {"type": "node", "id": 3830581233, "lat": 37.764896, "lon": 30.5569219, "tags": {"addr:city": "Isparta", "amenity": "cafe", "name": "Park Cafe"}}, {"type": "node", "id": 4035563287, "lat": 37.8822557, "lon": 30.8181262}, {"type": "node", "id": 4035564396, "lat": 37.8823902, "lon": 30.8180828}, {"type": "node", "id": 4035564621, "lat": 37.8824124, "lon": 30.8182764}, {"type": "node", "id": 4035564695, "lat": 37.8822896, "lon": 30.8182389}, {"type": "node", "id": 4355269163, "lat": 37.7717114, "lon": 30.5622566, "tags": {"amenity": "cafe", "name": "\u0130stasyon Park\u0131", "name:tr": "\u0130stasyon Park\u0131"}}, {"type": "node", "id": 4705430795, "lat": 37.764483, "lon": 30.5575727, "tags": {"amenity": "restaurant", "name": "Ferah Kebap Salonu", "phone": "+902462181270"}}, {"type": "node", "id": 5732059322, "lat": 37.6488881, "lon": 30.5135371, "tags": {"addr:street": "Aglasun Burdur Karayolu Uzeri", "amenity": "restaurant", "internet_access": "wlan", "name": "Yaylakent Restaurant", "phone": "05333844117"}}, {"type": "node", "id": 6016294536, "lat": 37.4485184, "lon": 30.9007646}, {"type": "node", "id": 6016294537, "lat": 37.4485508, "lon": 30.9008462}, {"type": "node", "id": 6016294538, "lat": 37.4484213, "lon": 30.9009166}, {"type": "node", "id": 6016294539, "lat": 37.448386, "lon": 30.9008165}, {"type": "node", "id": 6521699708, "lat": 37.7672484, "lon": 30.5387288, "tags": {"amenity": "restaurant", "name": "Sahra Pide"}}, {"type": "node", "id": 6532392886, "lat": 37.7652191, "lon": 30.5533581, "tags": {"amenity": "cafe", "internet_access": "wlan", "name": "Cafe Rasmus", "name:en": "Rasmus cafe", "opening_hours": "Mo-Sa 19:00-23:00"}}, {"type": "node", "id": 6549455685, "lat": 37.8755993, "lon": 30.8504854, "tags": {"amenity": "cafe", "name": "Demlizade Cafe - Bistro"}}, {"type": "node", "id": 6554203485, "lat": 37.8446514, "lon": 30.8486697, "tags": {"amenity": "cafe", "name": "Akp\u0131nar Y\u00f6r\u00fck \u00e7ad\u0131r\u0131"}}, {"type": "node", "id": 6717357460, "lat": 37.7818308, "lon": 30.5657674}, {"type": "node", "id": 6717357461, "lat": 37.7819424, "lon": 30.5657695}, {"type": "node", "id": 6717357484, "lat": 37.7816641, "lon": 30.5656596}, {"type": "node", "id": 6717364485, "lat": 37.7817204, "lon": 30.5656031}, {"type": "node", "id": 6717364486, "lat": 37.7815503, "lon": 30.5654832}, {"type": "node", "id": 6717364487, "lat": 37.7815009, "lon": 30.5655397}, {"type": "node", "id": 6717364488, "lat": 37.7814586, "lon": 30.5655091}, {"type": "node", "id": 6717364489, "lat": 37.7815116, "lon": 30.5654496}, {"type": "node", "id": 6717364490, "lat": 37.7813827, "lon": 30.5651411}, {"type": "node", "id": 6717364491, "lat": 37.7812499, "lon": 30.5653761}, {"type": "node", "id": 6717364492, "lat": 37.7813717, "lon": 30.5653563}, {"type": "node", "id": 6717364493, "lat": 37.7814327, "lon": 30.5651897}, {"type": "node", "id": 6717364499, "lat": 37.781778, "lon": 30.5657332}, {"type": "node", "id": 6717364500, "lat": 37.7818297, "lon": 30.5656742}, {"type": "node", "id": 6717364501, "lat": 37.7818864, "lon": 30.5657029}, {"type": "node", "id": 6717364502, "lat": 37.7819469, "lon": 30.5657029}, {"type": "node", "id": 6717364503, "lat": 37.781981, "lon": 30.5656822}, {"type": "node", "id": 6717364504, "lat": 37.7819915, "lon": 30.5657304}, {"type": "node", "id": 6717364542, "lat": 37.7819239, "lon": 30.5646967}, {"type": "node", "id": 6717364543, "lat": 37.7819744, "lon": 30.5646281}, {"type": "node", "id": 6717364550, "lat": 37.7819099, "lon": 30.5645612}, {"type": "node", "id": 6717364551, "lat": 37.7818269, "lon": 30.56455}, {"type": "node", "id": 6717364552, "lat": 37.78175, "lon": 30.5645787}, {"type": "node", "id": 6717364553, "lat": 37.781779, "lon": 30.5646808}, {"type": "node", "id": 6717364554, "lat": 37.7818596, "lon": 30.5646648}, {"type": "node", "id": 7702270559, "lat": 37.7976833, "lon": 30.5389601, "tags": {"amenity": "restaurant", "cuisine": "turkish", "name": "\u00c7i\u011fk\u00f6ftem"}}, {"type": "node", "id": 7702270564, "lat": 37.7974343, "lon": 30.539326, "tags": {"amenity": "cafe", "cuisine": "cake;coffee_shop", "name": "Gloria Jean\u00b4s Coffees"}}, {"type": "node", "id": 7702270571, "lat": 37.7971998, "lon": 30.5392447, "tags": {"amenity": "restaurant", "brand": "K\u00f6fteci Yusuf", "brand:wikidata": "Q126125081", "cuisine": "turkish", "name": "K\u00f6fteci Yusuf"}}, {"type": "node", "id": 9689333941, "lat": 37.8733478, "lon": 30.8469451}, {"type": "node", "id": 9689333942, "lat": 37.8731626, "lon": 30.8467229}, {"type": "node", "id": 9689333943, "lat": 37.8731098, "lon": 30.8467935}, {"type": "node", "id": 9689333944, "lat": 37.8731715, "lon": 30.8468675}, {"type": "node", "id": 9689333945, "lat": 37.8731301, "lon": 30.8469229}, {"type": "node", "id": 9689333946, "lat": 37.8732536, "lon": 30.847071}, {"type": "node", "id": 9718333601, "lat": 37.8757565, "lon": 30.8483763}, {"type": "node", "id": 9718333602, "lat": 37.8757502, "lon": 30.8484733}, {"type": "node", "id": 9718333603, "lat": 37.8757691, "lon": 30.8484753}, {"type": "node", "id": 9718333604, "lat": 37.8757552, "lon": 30.8486886}, {"type": "node", "id": 9718333605, "lat": 37.8756821, "lon": 30.848681}, {"type": "node", "id": 9718333606, "lat": 37.8756956, "lon": 30.8484744}, {"type": "node", "id": 9718333607, "lat": 37.8756762, "lon": 30.8484723}, {"type": "node", "id": 9718333608, "lat": 37.8756829, "lon": 30.8483686}, {"type": "node", "id": 9739717714, "lat": 37.8793584, "lon": 30.8226726, "tags": {"amenity": "restaurant"}}, {"type": "node", "id": 9762746709, "lat": 37.8798445, "lon": 30.8585247, "tags": {"amenity": "restaurant", "name": "Do\u011fa Restoran"}}, {"type": "node", "id": 9763992368, "lat": 37.8841535, "lon": 30.8697031}, {"type": "node", "id": 9763992369, "lat": 37.8843391, "lon": 30.8696939}, {"type": "node", "id": 9763992370, "lat": 37.8843414, "lon": 30.8697684}, {"type": "node", "id": 9763992371, "lat": 37.8841558, "lon": 30.8697776}, {"type": "node", "id": 9763992382, "lat": 37.8817811, "lon": 30.867837, "tags": {"amenity": "restaurant", "name": "Halikarnas Restoran"}}, {"type": "node", "id": 9764028263, "lat": 37.8828562, "lon": 30.8692304, "tags": {"amenity": "restaurant", "name": "Fahri Bey Kona\u011f\u0131 Lokantas\u0131"}}, {"type": "node", "id": 9764028264, "lat": 37.8833419, "lon": 30.8692981, "tags": {"amenity": "restaurant", "name": "Merve Restoran"}}, {"type": "node", "id": 9764028266, "lat": 37.8834152, "lon": 30.8693479, "tags": {"amenity": "restaurant", "name": "Sunrise Restoran"}}, {"type": "node", "id": 9764028267, "lat": 37.8835018, "lon": 30.869397, "tags": {"amenity": "restaurant", "name": "Ayka"}}, {"type": "node", "id": 9764028268, "lat": 37.883234, "lon": 30.8681335, "tags": {"amenity": "restaurant", "name": "Ye\u015filada Kahvesi"}}, {"type": "node", "id": 9766455926, "lat": 37.8775503, "lon": 30.8556539, "tags": {"amenity": "cafe", "name": "Outdoor Cafe"}}, {"type": "node", "id": 9766456010, "lat": 37.8761732, "lon": 30.8540975, "tags": {"amenity": "restaurant", "name": "Arzava"}}, {"type": "node", "id": 9766537346, "lat": 37.8766822, "lon": 30.8528352, "tags": {"amenity": "cafe", "name": "Eski E\u011firdir Evi Cafe"}}, {"type": "node", "id": 9766537363, "lat": 37.8756725, "lon": 30.8515935, "tags": {"amenity": "cafe", "name": "Keyf-i Al\u00e2 Cafe Bistro"}}, {"type": "node", "id": 9766537364, "lat": 37.8756099, "lon": 30.8514817, "tags": {"amenity": "restaurant", "name": "Hac\u0131 Alaaddin Pide & Kebap Salonu"}}, {"type": "node", "id": 9766537382, "lat": 37.8749344, "lon": 30.852124, "tags": {"amenity": "restaurant", "name": "Lezzet De\u011firmeni \u00c7i\u011f K\u00f6fte"}}, {"type": "node", "id": 9766537403, "lat": 37.8750769, "lon": 30.8531685, "tags": {"amenity": "restaurant", "name": "Tahirin Yeri Et Bal\u0131k Mangal Evi"}}, {"type": "node", "id": 9766548226, "lat": 37.8741775, "lon": 30.8514967, "tags": {"amenity": "restaurant", "name": "OLtogar Fast Food"}}, {"type": "node", "id": 9766548271, "lat": 37.8749653, "lon": 30.8509618, "tags": {"amenity": "restaurant", "name": "Uluda\u011f D\u00f6ner & \u00c7orbac\u0131"}}, {"type": "node", "id": 9766610341, "lat": 37.8752186, "lon": 30.851012, "tags": {"amenity": "restaurant", "name": "Nur Ev Yemekleri"}}, {"type": "node", "id": 9766610344, "lat": 37.8753365, "lon": 30.8513575, "tags": {"amenity": "restaurant", "name": "Bayrakl\u0131 D\u00f6ner"}}, {"type": "node", "id": 9766610388, "lat": 37.8756822, "lon": 30.84926, "tags": {"amenity": "cafe", "name": "E\u011firdir Elma Evi"}}, {"type": "node", "id": 9800891792, "lat": 37.8134124, "lon": 30.5400207, "tags": {"amenity": "restaurant", "name": "Ci\u011ferci Ahmet"}}, {"type": "node", "id": 9800891796, "lat": 37.8157678, "lon": 30.5377805, "tags": {"amenity": "restaurant", "name": "\u0130kra Lezzet Sofras\u0131"}}, {"type": "node", "id": 9800891798, "lat": 37.8138314, "lon": 30.533895, "tags": {"amenity": "restaurant", "name": "Eni\u015fte Pide Kebap"}}, {"type": "node", "id": 9800891799, "lat": 37.8136488, "lon": 30.5339316, "tags": {"amenity": "restaurant", "name": "Ta\u015fo\u011flu Baklavalar\u0131"}}, {"type": "node", "id": 9832983881, "lat": 37.8178782, "lon": 30.5412944, "tags": {"amenity": "restaurant", "name": "Gaziantep Baklavalar\u0131 Hac\u0131ahmeto\u011fullar\u0131"}}, {"type": "node", "id": 9855875199, "lat": 37.8176292, "lon": 30.5393553, "tags": {"amenity": "cafe", "name": "\u0130\u00e7\u00f6zler Undan Cafe"}}, {"type": "node", "id": 9855875201, "lat": 37.8174139, "lon": 30.5385613, "tags": {"amenity": "restaurant", "cuisine": "pizza", "name": "Pizza Romoloo"}}, {"type": "node", "id": 9922854202, "lat": 37.6612249, "lon": 30.525502, "tags": {"air_conditioning": "no", "amenity": "cafe", "bar": "no", "cuisine": "kahvalt\u0131, g\u00f6zleme, mangal", "delivery": "no", "name": "Sagalassos Y\u00f6r\u00fck \u00c7ad\u0131r\u0131", "outdoor_seating": "yes", "phone": "+905447651937"}}, {"type": "node", "id": 9972769042, "lat": 37.7656598, "lon": 30.5257917, "tags": {"amenity": "restaurant", "name": "Se\u00e7il Pide"}}, {"type": "node", "id": 9972769054, "lat": 37.7658697, "lon": 30.525447, "tags": {"amenity": "cafe", "name": "I\u015f\u0131kkent K\u0131raathanesi"}}, {"type": "node", "id": 10027959845, "lat": 37.7838668, "lon": 30.7613786}, {"type": "node", "id": 10027959846, "lat": 37.7838189, "lon": 30.7616962}, {"type": "node", "id": 10027959847, "lat": 37.783686, "lon": 30.7616612}, {"type": "node", "id": 10027959848, "lat": 37.7836269, "lon": 30.7620838}, {"type": "node", "id": 10027959849, "lat": 37.7837764, "lon": 30.7621235}, {"type": "node", "id": 10027959850, "lat": 37.7837653, "lon": 30.7622006}, {"type": "node", "id": 10027959851, "lat": 37.7839056, "lon": 30.7622496}, {"type": "node", "id": 10027959852, "lat": 37.7839259, "lon": 30.7621795}, {"type": "node", "id": 10027959853, "lat": 37.7839517, "lon": 30.7621679}, {"type": "node", "id": 10027959854, "lat": 37.7839683, "lon": 30.7621352}, {"type": "node", "id": 10027959855, "lat": 37.7839831, "lon": 30.7621002}, {"type": "node", "id": 10027959856, "lat": 37.78402, "lon": 30.7620371}, {"type": "node", "id": 10027959857, "lat": 37.7840274, "lon": 30.761855}, {"type": "node", "id": 10027959858, "lat": 37.783996, "lon": 30.7618246}, {"type": "node", "id": 10027959859, "lat": 37.783972, "lon": 30.7617406}, {"type": "node", "id": 10027959860, "lat": 37.7839794, "lon": 30.7616915}, {"type": "node", "id": 10027959861, "lat": 37.7840237, "lon": 30.7614113}, {"type": "node", "id": 10027959862, "lat": 37.7839591, "lon": 30.761395}, {"type": "node", "id": 10588601405, "lat": 37.4733343, "lon": 30.565241, "tags": {"amenity": "cafe", "name": "C\u0131ftl\u0131kten kavurma"}}, {"type": "node", "id": 10743004693, "lat": 37.766885, "lon": 30.5117532, "tags": {"amenity": "restaurant", "name": "Burcum Pide"}}, {"type": "node", "id": 11130215036, "lat": 37.5338302, "lon": 30.4808191}, {"type": "node", "id": 11130215037, "lat": 37.5339352, "lon": 30.4809294}, {"type": "node", "id": 11130215038, "lat": 37.5337449, "lon": 30.4809639}, {"type": "node", "id": 11130215039, "lat": 37.5338477, "lon": 30.48107}, {"type": "node", "id": 11400219969, "lat": 37.4468453, "lon": 30.8971885, "tags": {"amenity": "cafe", "name": "G\u00f6kkaya"}}, {"type": "node", "id": 11952487699, "lat": 37.8732111, "lon": 30.84702}, {"type": "node", "id": 11952487700, "lat": 37.8731522, "lon": 30.8469494}, {"type": "node", "id": 12164495811, "lat": 37.6291907, "lon": 30.8704304, "tags": {"amenity": "restaurant", "cuisine": "turkish", "diet:local": "yes", "name": "Kovada Cafe & Resturant", "name:en": "Kovada Cafe & Resturant"}}, {"type": "node", "id": 12173665994, "lat": 37.8172082, "lon": 30.5487123, "tags": {"amenity": "restaurant", "name": "\u0130ssos"}}, {"type": "node", "id": 12176482956, "lat": 37.8126105, "lon": 30.5383442, "tags": {"amenity": "cafe", "name": "Gizya"}}, {"type": "node", "id": 12176482957, "lat": 37.8126337, "lon": 30.5383927, "tags": {"amenity": "restaurant", "name": "Ad\u0131yaman \u00c7i\u011fk\u00f6fte Noktas\u0131"}}, {"type": "node", "id": 12300182441, "lat": 37.8249478, "lon": 30.5441607, "tags": {"amenity": "restaurant", "name": "Greet Food"}}, {"type": "node", "id": 12300182444, "lat": 37.8247894, "lon": 30.5442644, "tags": {"amenity": "restaurant", "name": "Han\u0131m Ellerinden Lezzetler"}}, {"type": "node", "id": 12300182453, "lat": 37.8255996, "lon": 30.5442634, "tags": {"amenity": "cafe", "name": "Ye\u015fil Kahv6"}}, {"type": "node", "id": 12362587960, "lat": 37.8190737, "lon": 30.5447212, "tags": {"amenity": "cafe", "name": "Work Lab Coffee Shop"}}, {"type": "node", "id": 12382782452, "lat": 37.8167996, "lon": 30.5332757, "tags": {"amenity": "restaurant", "name": "Master Pizza & Usta Pide"}}, {"type": "node", "id": 12382782453, "lat": 37.8168513, "lon": 30.5332383, "tags": {"amenity": "restaurant", "name": "Yes Chef"}}, {"type": "node", "id": 12385237831, "lat": 37.8186114, "lon": 30.5420496, "tags": {"amenity": "restaurant", "name": "Ad\u0131yaman \u00c7i\u011fk\u00f6fte Noktas\u0131"}}, {"type": "node", "id": 12385237929, "lat": 37.8195619, "lon": 30.5406896, "tags": {"amenity": "restaurant", "name": "Aslanbey Mangal Evi"}}, {"type": "node", "id": 12386118419, "lat": 37.8200262, "lon": 30.5459114, "tags": {"amenity": "restaurant", "name": "Payidar Pide & Izgara"}}, {"type": "node", "id": 12398102907, "lat": 37.8250868, "lon": 30.5427347, "tags": {"amenity": "restaurant", "name": "Zeki Usta K\u00f6fte-Kokore\u00e7"}}, {"type": "node", "id": 12398166772, "lat": 37.8246449, "lon": 30.5416895, "tags": {"amenity": "cafe", "name": "Bah\u00e7e Cafe"}}, {"type": "node", "id": 12400373874, "lat": 37.8189738, "lon": 30.5342253, "tags": {"amenity": "restaurant", "name": "Ad\u0131yaman \u00c7i\u011fk\u00f6ftecisi"}}, {"type": "node", "id": 12400373876, "lat": 37.8190021, "lon": 30.5343938, "tags": {"amenity": "restaurant", "name": "Osmanl\u0131 Pide & Izgara Salonu"}}, {"type": "node", "id": 12400373877, "lat": 37.8185722, "lon": 30.5347793, "tags": {"amenity": "restaurant", "name": "\u00c7\u00fcn\u00fcr Pide & Izgara Salonu"}}, {"type": "node", "id": 12404657226, "lat": 37.8186038, "lon": 30.5324916, "tags": {"amenity": "restaurant", "name": "Yol \u00dcst\u00fc K\u00f6fte Kuzu Kokore\u00e7 Izgara"}}, {"type": "node", "id": 12404657227, "lat": 37.8187978, "lon": 30.5326381, "tags": {"amenity": "restaurant", "name": "Oba Pide & Izgara Salonu"}}, {"type": "node", "id": 12404861342, "lat": 37.82424, "lon": 30.5390608, "tags": {"amenity": "restaurant", "name": "Keyfi Et Mangal Evi"}}, {"type": "node", "id": 12404861543, "lat": 37.8234913, "lon": 30.5411408, "tags": {"amenity": "restaurant", "name": "G\u00fcl Bereket"}}, {"type": "node", "id": 12407306050, "lat": 37.8198949, "lon": 30.5406131, "tags": {"amenity": "cafe", "name": "\u00c7alakafe"}}, {"type": "node", "id": 12413843108, "lat": 37.7655199, "lon": 30.5251389, "tags": {"amenity": "cafe", "name": "I\u015f\u0131kkent Aile \u00c7ay Bah\u00e7esi"}}, {"type": "node", "id": 12441852451, "lat": 37.829733, "lon": 30.5349015, "tags": {"amenity": "cafe", "brand": "Gloria Jean's", "brand:wikidata": "Q2666365", "cuisine": "coffee_shop", "name": "Gloria Jean's", "official_name": "Gloria Jean's Coffees", "takeaway": "yes"}}, {"type": "node", "id": 12441852455, "lat": 37.8302098, "lon": 30.5347719, "tags": {"amenity": "restaurant", "name": "World Of Lokma"}}, {"type": "node", "id": 12441852456, "lat": 37.830255, "lon": 30.5347229, "tags": {"amenity": "restaurant", "name": "Pidem"}}, {"type": "node", "id": 12441852457, "lat": 37.8302614, "lon": 30.53464, "tags": {"amenity": "restaurant", "name": "Aliya Mutfak"}}, {"type": "node", "id": 12441852466, "lat": 37.8299958, "lon": 30.5343037, "tags": {"amenity": "cafe", "name": "Mack Bear Coffee Co."}}, {"type": "node", "id": 12441852482, "lat": 37.8291884, "lon": 30.535131, "tags": {"amenity": "restaurant", "name": "Sar\u0131yer B\u00f6rek\u00e7isi Ortak\u00f6y Kumpircisi"}}, {"type": "node", "id": 12441852483, "lat": 37.8295619, "lon": 30.5346026, "tags": {"amenity": "cafe", "name": "Coffe Ground"}}, {"type": "node", "id": 12469328627, "lat": 37.8195951, "lon": 30.5297019, "tags": {"amenity": "restaurant", "name": "Ye\u015fil Elma Lokanta & Kahve"}}, {"type": "node", "id": 12469328723, "lat": 37.8186611, "lon": 30.5303974, "tags": {"amenity": "cafe", "name": "Ay\u0131\u015f\u0131\u011f\u0131 Cafe & Bistro"}}, {"type": "node", "id": 12475334426, "lat": 37.8141535, "lon": 30.5328019, "tags": {"amenity": "restaurant", "name": "A\u00e7l\u0131\u011f\u0131n\u0131 Yat\u0131\u015ft\u0131r Pide & Izgara"}}, {"type": "node", "id": 12497991362, "lat": 37.7706267, "lon": 30.7437318}, {"type": "node", "id": 12497991363, "lat": 37.770672, "lon": 30.7437686}, {"type": "node", "id": 12497991364, "lat": 37.7706224, "lon": 30.7438662}, {"type": "node", "id": 12497991365, "lat": 37.7706924, "lon": 30.743923}, {"type": "node", "id": 12497991366, "lat": 37.7705856, "lon": 30.7441336}, {"type": "node", "id": 12497991367, "lat": 37.7704703, "lon": 30.7440401}, {"type": "node", "id": 12497997101, "lat": 37.773484, "lon": 30.7501137}, {"type": "node", "id": 12497997102, "lat": 37.7735645, "lon": 30.7503683}, {"type": "node", "id": 12497997103, "lat": 37.77329, "lon": 30.7505072}, {"type": "node", "id": 12497997104, "lat": 37.7732095, "lon": 30.7502526}, {"type": "node", "id": 12520323479, "lat": 37.7821479, "lon": 30.7592825, "tags": {"amenity": "cafe", "name": "Ta\u015f Cafe 1", "website": "https://www.isperiahotels.com.tr/category/restoran"}}, {"type": "node", "id": 12526633782, "lat": 37.8210279, "lon": 30.5794474, "tags": {"amenity": "restaurant", "name": "KB Gurme"}}, {"type": "node", "id": 12526633784, "lat": 37.8211727, "lon": 30.5790839, "tags": {"amenity": "restaurant", "name": "Ezgi Pide Izgara ve D\u00f6ner Salonu"}}, {"type": "node", "id": 12536664883, "lat": 37.7821642, "lon": 30.5448657, "tags": {"amenity": "restaurant", "brand": "HD \u0130skender", "brand:wikidata": "Q28940587", "cuisine": "kebab", "name": "HD \u0130skender"}}, {"type": "node", "id": 12536664885, "lat": 37.782337, "lon": 30.5449012, "tags": {"amenity": "restaurant", "cuisine": "pizza", "name": "Pizza Pizza"}}, {"type": "node", "id": 12596458254, "lat": 37.8294139, "lon": 30.5289588, "tags": {"amenity": "cafe", "name": "Ta\u015f Kafe Restaurant"}}, {"type": "node", "id": 12647328151, "lat": 37.831316, "lon": 30.52606}, {"type": "node", "id": 12647328152, "lat": 37.8314211, "lon": 30.5260586}, {"type": "node", "id": 12647328153, "lat": 37.8314225, "lon": 30.526243}, {"type": "node", "id": 12647328154, "lat": 37.8314618, "lon": 30.5262425}, {"type": "node", "id": 12647328155, "lat": 37.8314644, "lon": 30.5265803}, {"type": "node", "id": 12647328156, "lat": 37.8312993, "lon": 30.5265823}, {"type": "node", "id": 12647328157, "lat": 37.8312981, "lon": 30.5264257}, {"type": "node", "id": 12647328158, "lat": 37.8312579, "lon": 30.5264262}, {"type": "node", "id": 12647328159, "lat": 37.8312564, "lon": 30.5262407}, {"type": "node", "id": 12647328160, "lat": 37.8313174, "lon": 30.5262399}, {"type": "node", "id": 12824368705, "lat": 37.75602, "lon": 30.5336454, "tags": {"amenity": "restaurant", "name": "Nur Pide"}}, {"type": "node", "id": 12844181839, "lat": 37.7633716, "lon": 30.5558317, "tags": {"amenity": "restaurant", "name": "Hac\u0131benlio\u011flu Kebap Salonu"}}, {"type": "node", "id": 12844181845, "lat": 37.763501, "lon": 30.5559979, "tags": {"amenity": "restaurant", "name": "Kebap\u00e7\u0131 Kadir"}}, {"type": "node", "id": 12846485399, "lat": 37.7639776, "lon": 30.5571963, "tags": {"amenity": "cafe", "name": "Hamam Kafe & Park"}}, {"type": "node", "id": 12846501869, "lat": 37.7642766, "lon": 30.5549827, "tags": {"amenity": "cafe", "name": "\u00dcz\u00fcm Kafe"}}, {"type": "node", "id": 12846501874, "lat": 37.7639641, "lon": 30.555316, "tags": {"amenity": "restaurant", "name": "Tarihi Sar\u0131yer B\u00f6rek\u00e7isi"}}, {"type": "node", "id": 12846501879, "lat": 37.7640356, "lon": 30.5553411, "tags": {"amenity": "restaurant", "name": "Asmaalt\u0131 Kokore\u00e7"}}, {"type": "way", "id": 401097099, "nodes": [4035564396, 4035563287, 4035564695, 4035564621, 4035564396], "tags": {"amenity": "restaurant", "building": "yes", "name": "Hayalkent"}}, {"type": "way", "id": 638335490, "nodes": [6016294536, 6016294537, 6016294538, 6016294539, 6016294536], "tags": {"amenity": "restaurant", "building": "yes"}}, {"type": "way", "id": 714614606, "nodes": [6717357484, 6717364485, 6717364486, 6717364487, 6717357484], "tags": {"amenity": "cafe", "brand": "Starbucks", "brand:wikidata": "Q37158", "brand:wikipedia": "en:Starbucks", "building": "yes", "cuisine": "coffee_shop", "name": "Starbucks", "official_name": "Starbucks Coffee", "takeaway": "yes"}}, {"type": "way", "id": 714614607, "nodes": [6717364488, 6717364489, 6717364492, 6717364493, 6717364490, 6717364491, 6717364488], "tags": {"amenity": "cafe", "building": "yes", "cuisine": "cafe", "name": "Antre Cafe Kitchen"}}, {"type": "way", "id": 714614609, "nodes": [6717364499, 6717364500, 6717364501, 6717364502, 6717364503, 6717364504, 6717357461, 6717357460, 6717364499], "tags": {"amenity": "restaurant", "building": "yes", "cuisine": "burger;cake;turkish", "drink:coffee": "served", "name": "Ala\u00e7at\u0131 Muhallebicisi"}}, {"type": "way", "id": 714614623, "nodes": [6717364543, 6717364550, 6717364551, 6717364552, 6717364553, 6717364554, 6717364542, 6717364543], "tags": {"amenity": "restaurant", "building": "yes", "layer": "2", "name": "K\u00f6fteci Ramiz"}}, {"type": "way", "id": 1054350599, "nodes": [9689333941, 9689333942, 9689333943, 9689333944, 9689333945, 11952487700, 11952487699, 9689333946, 9689333941], "tags": {"amenity": "cafe", "building": "yes"}}, {"type": "way", "id": 1057654612, "nodes": [9718333601, 9718333602, 9718333603, 9718333604, 9718333605, 9718333606, 9718333607, 9718333608, 9718333601], "tags": {"amenity": "cafe", "building": "yes", "name": "Sahil Cafe"}}, {"type": "way", "id": 1062874706, "nodes": [9763992368, 9763992369, 9763992370, 9763992371, 9763992368], "tags": {"amenity": "restaurant", "building": "yes", "name": "Felekabad Restoran"}}, {"type": "way", "id": 1094979558, "nodes": [10027959845, 10027959846, 10027959847, 10027959848, 10027959849, 10027959850, 10027959851, 10027959852, 10027959853, 10027959854, 10027959855, 10027959856, 10027959857, 10027959858, 10027959859, 10027959860, 10027959861, 10027959862, 10027959845], "tags": {"amenity": "restaurant", "building": "yes", "name": "G\u00fcn\u00fcbirlik Tesisi", "website": "https://ispartadavraz.com"}}, {"type": "way", "id": 1200236453, "nodes": [11130215037, 11130215036, 11130215038, 11130215039, 11130215037], "tags": {"addr:city": "Burdur", "addr:district": "\u00e7eltik\u00e7i", "addr:street": "Antalya - Burdur Yolu", "amenity": "restaurant", "building": "yes", "cuisine": "turkish", "name": "\u00c7eltik\u00e7i Belediyesi \u015eehit Mesut Y\u00f6n Dinlenme Tesisi", "opening_hours": "24/7"}}, {"type": "way", "id": 1350894638, "nodes": [12497991362, 12497991363, 12497991364, 12497991365, 12497991366, 12497991367, 12497991362], "tags": {"amenity": "cafe", "building": "yes", "name": "Davraz Plus Cafe"}}, {"type": "way", "id": 1350894644, "nodes": [12497997101, 12497997102, 12497997103, 12497997104, 12497997101], "tags": {"amenity": "cafe", "building": "yes", "name": "Ta\u015f Cafe 2"}}, {"type": "way", "id": 1365706889, "nodes": [12647328151, 12647328152, 12647328153, 12647328154, 12647328155, 12647328156, 12647328157, 12647328158, 12647328159, 12647328160, 12647328151], "tags": {"amenity": "cafe", "brand": "Starbucks", "brand:wikidata": "Q37158", "building": "yes", "cuisine": "coffee_shop", "name": "Starbucks", "official_name": "Starbucks Coffee", "takeaway": "yes"}}]}