{"version": 0.6, "generator": "Overpass API 0.7.62.7 375dc00a", "osm3s": {"timestamp_osm_base": "2025-06-14T14:49:31Z", "copyright": "The data included in this document is from www.openstreetmap.org. The data is made available under ODbL."}, "elements": [{"type": "node", "id": 420519250, "lat": 36.3862908, "lon": 25.4304809, "tags": {"amenity": "restaurant", "internet_access": "wlan", "name": "Spartakos"}}, {"type": "node", "id": 420519251, "lat": 36.3859734, "lon": 25.4299785, "tags": {"amenity": "restaurant"}}, {"type": "node", "id": 420519256, "lat": 36.385701, "lon": 25.4290471, "tags": {"amenity": "restaurant", "name": "Apollon"}}, {"type": "node", "id": 527776455, "lat": 36.3494209, "lon": 25.4003137}, {"type": "node", "id": 663260711, "lat": 36.4180562, "lon": 25.431406, "tags": {"addr:city": "\u0398\u03ae\u03c1\u03b1", "addr:country": "GR", "addr:postcode": "84700", "amenity": "cafe", "cuisine": "greek", "ele": "220", "int_name": "Cafe Select", "internet_access": "wlan", "internet_access:fee": "no", "name": "Select Cafe", "opening_hours": "Jan-Aug", "smoking": "outside", "terrace": "yes", "website": "www.selectsantorini.com"}}, {"type": "node", "id": 1313178026, "lat": 36.4213109, "lon": 25.429412, "tags": {"amenity": "restaurant", "name": "The Flame of the Volcano"}}, {"type": "node", "id": 1333864189, "lat": 36.3505246, "lon": 25.7673346, "tags": {"amenity": "restaurant", "cuisine": "greek", "int_name": "Astrachan", "name": "\u0391\u03c3\u03c4\u03c1\u03b1\u03c7\u03ac\u03bd"}}, {"type": "node", "id": 1333864460, "lat": 36.3493658, "lon": 25.7960574, "tags": {"amenity": "restaurant", "cuisine": "greek", "name": "Roukounas restaurante", "name:el": "Roukounas restaurante", "name:en": "Roukounas restaurant"}}, {"type": "node", "id": 1333864571, "lat": 36.3441209, "lon": 25.7704165, "tags": {"amenity": "restaurant", "cuisine": "greek", "name": "Akrogiali"}}, {"type": "node", "id": 1333864584, "lat": 36.3512622, "lon": 25.7684048, "tags": {"amenity": "restaurant", "cuisine": "greek", "int_name": "To Steki", "name": "\u03a4\u03bf \u03a3\u03c4\u03ad\u03ba\u03b9"}}, {"type": "node", "id": 1333923489, "lat": 36.3576132, "lon": 25.3665155, "tags": {"amenity": "restaurant", "cuisine": "greek", "name": "Captain Dimitris Restaurant"}}, {"type": "node", "id": 1383979859, "lat": 36.3607802, "lon": 25.4030781, "tags": {"addr:street": "apothikes", "amenity": "restaurant", "name": "Remezzo"}}, {"type": "node", "id": 1383979873, "lat": 36.3545312, "lon": 25.375961, "tags": {"amenity": "restaurant", "int_name": "Mesa Pigadia", "name": "\u039c\u03ad\u03c3\u03b1 \u03a0\u03b7\u03b3\u03ac\u03b4\u03b9\u03b1"}}, {"type": "node", "id": 1465004343, "lat": 36.4037258, "lon": 25.4722299, "tags": {"amenity": "cafe", "name": "Apollo Caf\u00e9 Bar Restaurant"}}, {"type": "node", "id": 2348176327, "lat": 36.3908086, "lon": 25.4388638}, {"type": "node", "id": 2348176328, "lat": 36.3908083, "lon": 25.4389294}, {"type": "node", "id": 2348176329, "lat": 36.3905959, "lon": 25.4389279}, {"type": "node", "id": 2348176330, "lat": 36.3905962, "lon": 25.4388623}, {"type": "node", "id": 2455765939, "lat": 36.3487629, "lon": 25.3982054, "tags": {"amenity": "restaurant", "name": "The Dolphins"}}, {"type": "node", "id": 2455765940, "lat": 36.3486471, "lon": 25.3980475, "tags": {"amenity": "restaurant", "cuisine": "seafood", "diet:vegetarian": "yes", "name": "Asterias", "payment:credit_cards": "yes", "payment:debit_cards": "yes", "wheelchair": "no"}}, {"type": "node", "id": 2455765941, "lat": 36.3493055, "lon": 25.4011105, "tags": {"amenity": "cafe", "internet_access": "wlan", "name": "akrotiri cafe", "opening_hours": "Mo-Su 09:00-21:00", "operator": "anna maria"}}, {"type": "node", "id": 2455765942, "lat": 36.3494835, "lon": 25.3999877, "tags": {"amenity": "restaurant", "name:en": "the cave of nicolas"}}, {"type": "node", "id": 2455765954, "lat": 36.3577536, "lon": 25.3984175, "tags": {"amenity": "restaurant", "name": "Portobello"}}, {"type": "node", "id": 2455765956, "lat": 36.358749, "lon": 25.3990544, "tags": {"amenity": "restaurant", "check_date": "2024-08-25", "name": "Theoffanis Family Tavern"}}, {"type": "node", "id": 2484183297, "lat": 36.4196422, "lon": 25.4310717, "tags": {"amenity": "restaurant", "cuisine": "italian", "name": "Character"}}, {"type": "node", "id": 2484183302, "lat": 36.4178948, "lon": 25.4315208, "tags": {"amenity": "restaurant", "amenity:cafe": "yes", "name": "Classico", "website": "http://www.santorini-classico.gr"}}, {"type": "node", "id": 2484183310, "lat": 36.41901, "lon": 25.431258, "tags": {"amenity": "restaurant", "cuisine": "greek", "email": "info@idolsantorini.gr", "name": "Idol", "phone": "+30 2286 023292", "website": "https://idolsantorini.gr/"}}, {"type": "node", "id": 2484183319, "lat": 36.416695, "lon": 25.4315115, "tags": {"amenity": "restaurant", "name": "Metropolis Str Restaurant", "website": "http://metropolisstr.restaurant"}}, {"type": "node", "id": 2484183378, "lat": 36.4172985, "lon": 25.4314783, "tags": {"amenity": "cafe", "name": "Enigma"}}, {"type": "node", "id": 2485198958, "lat": 36.3833853, "lon": 25.4508239, "tags": {"amenity": "cafe", "name": "Franco's Cafe", "outdoor_seating": "yes", "phone": "+30 22860 33957"}}, {"type": "node", "id": 2485198962, "lat": 36.3820637, "lon": 25.4494174, "tags": {"amenity": "cafe", "email": "johnniecafe@gmail.com", "internet_access": "wlan", "name": "Johnnie Cafe", "phone": "+302286032769"}}, {"type": "node", "id": 2485198966, "lat": 36.3585477, "lon": 25.3990516, "tags": {"amenity": "cafe", "name": "Valentino Cafe"}}, {"type": "node", "id": 2485198981, "lat": 36.3571898, "lon": 25.3613744, "tags": {"amenity": "restaurant", "name": "Taverna Giorgaros, Santorini"}}, {"type": "node", "id": 2485199028, "lat": 36.3827661, "lon": 25.45021, "tags": {"amenity": "cafe"}}, {"type": "node", "id": 2485212188, "lat": 36.3499915, "lon": 25.3996849, "tags": {"amenity": "restaurant", "cuisine": "greek", "name": "\u0393\u03bb\u03b1\u03c1\u03bf\u03c2", "name:el": "\u0393\u03bb\u03b1\u03c1\u03bf\u03c2", "name:en": "Glaros"}}, {"type": "node", "id": 2485263393, "lat": 36.3486714, "lon": 25.4680089, "tags": {"addr:city": "santorini", "addr:postcode": "84703", "addr:street": "perissa beach road", "amenity": "restaurant", "bar": "yes", "brewery": "various", "cuisine": "italian;pizza;burger;seafood;coffee_shop;ice_cream", "email": "locurabeachbar@gmail.com", "internet_access": "wlan", "internet_access:ssid": "locura wifi", "name": "Locura Beach Bar & Restaurant", "opening_hours": "Mo-Su 10:00-24:00", "outdoor_seating": "yes", "phone": "+302286085128", "reservation": "yes", "takeaway": "yes", "website": "http://locurabeach.com", "wheelchair": "yes"}}, {"type": "node", "id": 2485263394, "lat": 36.3450202, "lon": 25.4635132, "tags": {"amenity": "cafe", "name": "Alkyonida"}}, {"type": "node", "id": 2485263399, "lat": 36.3458526, "lon": 25.464557, "tags": {"amenity": "restaurant", "name": "Charlina"}}, {"type": "node", "id": 2485263401, "lat": 36.3446438, "lon": 25.463005, "tags": {"amenity": "restaurant", "name": "Kouzina"}}, {"type": "node", "id": 2485263403, "lat": 36.3431013, "lon": 25.4602285, "tags": {"amenity": "restaurant", "name": "Piazza Souvlaki"}}, {"type": "node", "id": 2485263404, "lat": 36.3437921, "lon": 25.461511, "tags": {"amenity": "restaurant", "cuisine": "greek;mediterranean;local;thai", "internet_access": "wlan", "name": "Pleasure"}}, {"type": "node", "id": 2517734943, "lat": 36.3580879, "lon": 25.3986143, "tags": {"amenity": "restaurant", "check_date": "2024-08-25", "name": "Zafora"}}, {"type": "node", "id": 2517743987, "lat": 36.4183776, "lon": 25.4318339, "tags": {"amenity": "restaurant", "name": "\u03a4\u03b1\u03b2\u03ad\u03c1\u03bd\u03b1 \u0395\u03bb\u03b9\u03ac", "name:el": "\u03a4\u03b1\u03b2\u03ad\u03c1\u03bd\u03b1 \u0395\u03bb\u03b9\u03ac", "name:en": "Elia Tavern", "website": "https://eliasantorini.com/"}}, {"type": "node", "id": 2517743988, "lat": 36.419176, "lon": 25.4315954, "tags": {"amenity": "restaurant", "level": "1", "name": "Stani", "website": "https://stani.gr/"}}, {"type": "node", "id": 2782612019, "lat": 36.418882, "lon": 25.4308518, "tags": {"amenity": "restaurant", "name": "Niki", "phone": "02286025273"}}, {"type": "node", "id": 3065015217, "lat": 36.3730699, "lon": 25.4259733, "tags": {"amenity": "restaurant", "name": "Athermi"}}, {"type": "node", "id": 3065022209, "lat": 36.3739374, "lon": 25.4298211, "tags": {"amenity": "restaurant", "name": "\u0393\u03b5\u03c1\u03bf\u03bc\u03b1\u03bd\u03c9\u03bb\u03b7\u03c2", "name:el": "\u0393\u03b5\u03c1\u03bf\u03bc\u03b1\u03bd\u03c9\u03bb\u03b7\u03c2", "name:en": "Geromanolis"}}, {"type": "node", "id": 3065022210, "lat": 36.37561, "lon": 25.4322722, "tags": {"amenity": "restaurant", "name": "\u0391\u03bb\u03ac\u03c4\u03b9", "name:el": "\u0391\u03bb\u03ac\u03c4\u03b9", "name:en": "Alati"}}, {"type": "node", "id": 3065031700, "lat": 36.3807489, "lon": 25.4257647, "tags": {"amenity": "restaurant", "name": "Raki", "name:en": "Raki"}}, {"type": "node", "id": 3065031701, "lat": 36.3759552, "lon": 25.431746, "tags": {"amenity": "restaurant", "name": "\u039c\u03b1\u03c1\u03bc\u03af\u03c4\u03b1", "name:el": "\u039c\u03b1\u03c1\u03bc\u03af\u03c4\u03b1", "name:en": "Marmita"}}, {"type": "node", "id": 3065031702, "lat": 36.3752695, "lon": 25.4316297, "tags": {"amenity": "restaurant", "name": "Feggera"}}, {"type": "node", "id": 3065031703, "lat": 36.3754689, "lon": 25.4318098, "tags": {"amenity": "restaurant", "name": "\u0391\u03c5\u03bb\u03cc\u03b3\u03c5\u03c1\u03bf\u03c2", "name:el": "\u0391\u03c5\u03bb\u03cc\u03b3\u03c5\u03c1\u03bf\u03c2", "name:en": "Avlogyros"}}, {"type": "node", "id": 3065054976, "lat": 36.4002922, "lon": 25.4572893, "tags": {"amenity": "cafe", "brand": "Coffee Time", "brand:wikidata": "Q5140932", "brand:wikipedia": "en:Coffee Time", "cuisine": "coffee_shop", "name": "Coffee Time", "takeaway": "yes"}}, {"type": "node", "id": 3065067941, "lat": 36.4184953, "lon": 25.4312235, "tags": {"amenity": "restaurant", "level": "1", "name": "Louis Restaurant"}}, {"type": "node", "id": 3065067943, "lat": 36.4210508, "lon": 25.4319205, "tags": {"amenity": "restaurant", "cuisine": "greek", "name": "Salt And Pepper", "phone": "+30 22860 22747"}}, {"type": "node", "id": 3074840846, "lat": 36.4201948, "lon": 25.431216, "tags": {"amenity": "restaurant", "cuisine": "greek", "diet:vegan": "yes", "name": "5 Senses", "opening_hours": "12:00-22:00", "outdoor_seating": "yes", "phone": "+302286021707", "website": "https://5senses.com.gr/", "wheelchair": "no"}}, {"type": "node", "id": 3074840847, "lat": 36.4202429, "lon": 25.4310772, "tags": {"amenity": "restaurant", "amenity:cafe": "yes", "cuisine": "greek", "int_name": "The Greeks", "name": "\u039f\u03b9 \u0388\u03bb\u03bb\u03b7\u03bd\u03b5\u03c2"}}, {"type": "node", "id": 3074863857, "lat": 36.4172287, "lon": 25.4326703, "tags": {"amenity": "restaurant", "cuisine": "greek", "name": "Mama's House"}}, {"type": "node", "id": 3098395799, "lat": 36.394636, "lon": 25.4609489, "tags": {"amenity": "restaurant", "cuisine": "greek", "smoking": "yes"}}, {"type": "node", "id": 3587333835, "lat": 36.4250733, "lon": 25.4288577, "tags": {"amenity": "restaurant", "cuisine": "greek", "name": "Aktaion"}}, {"type": "node", "id": 3750432855, "lat": 36.4172866, "lon": 25.4320613, "tags": {"amenity": "restaurant", "cuisine": "greek;seafood", "level": "1", "name": "Ouzeri", "website": "https://toouzerisantorini.com"}}, {"type": "node", "id": 3750435753, "lat": 36.4187954, "lon": 25.4310133, "tags": {"amenity": "restaurant", "cuisine": "greek;seafood", "level": "1", "name": "Argo by Constantin", "phone": "+302286022594", "website": "https://www.argo-restaurant-santorini.com/"}}, {"type": "node", "id": 3751696264, "lat": 36.3986187, "lon": 25.4509039, "tags": {"amenity": "restaurant", "cuisine": "greek", "outdoor_seating": "yes"}}, {"type": "node", "id": 3751798323, "lat": 36.4240201, "lon": 25.4283922, "tags": {"amenity": "restaurant", "cuisine": "greek", "name": "Mama Thira"}}, {"type": "node", "id": 3751802933, "lat": 36.421441, "lon": 25.4290525, "tags": {"amenity": "cafe", "contact:facebook": "IrinisCafeSantorini", "cuisine": "greek", "int_name": "Irini", "name": "\u0395\u03b9\u03c1\u03ae\u03bd\u03b7", "outdoor_seating": "yes", "phone": "+30 22860 23066"}}, {"type": "node", "id": 3751802951, "lat": 36.4238747, "lon": 25.4282844, "tags": {"amenity": "cafe"}}, {"type": "node", "id": 3752038556, "lat": 36.4190102, "lon": 25.4307292, "tags": {"amenity": "restaurant", "cuisine": "greek", "name": "Fanari"}}, {"type": "node", "id": 3752038558, "lat": 36.4162061, "lon": 25.4313585, "tags": {"amenity": "restaurant", "cuisine": "greek", "name": "Naoussa"}}, {"type": "node", "id": 3815057605, "lat": 36.4182271, "lon": 25.4329596, "tags": {"amenity": "restaurant", "cuisine": "greek", "name": "El Greco"}}, {"type": "node", "id": 3816166490, "lat": 36.3585478, "lon": 25.3980091, "tags": {"amenity": "restaurant", "name": "Carlos"}}, {"type": "node", "id": 3820534634, "lat": 36.3570527, "lon": 25.4759416, "tags": {"amenity": "restaurant", "name": "Corner"}}, {"type": "node", "id": 3820534635, "lat": 36.3559913, "lon": 25.47527, "tags": {"addr:street": "Perissa", "amenity": "restaurant", "name": "Pleasure Restaurant and Rooms"}}, {"type": "node", "id": 3820536296, "lat": 36.3532394, "lon": 25.4727362, "tags": {"amenity": "restaurant", "cuisine": "grill", "name": "Pepito"}}, {"type": "node", "id": 3822259356, "lat": 36.4174025, "lon": 25.4341771, "tags": {"amenity": "cafe", "brand": "Coffee Island", "brand:wikidata": "Q60867333", "brand:wikipedia": "en:Coffee Island", "cuisine": "coffee_shop", "name": "Coffee Island", "outdoor_seating": "yes", "takeaway": "yes", "toilets": "yes"}}, {"type": "node", "id": 3845887921, "lat": 36.4182607, "lon": 25.4333155, "tags": {"addr:postcode": "84007", "addr:street": "Danezi M., Fira 840 07 Greece", "amenity": "cafe", "contact:email": "lukumumsantorini@gmail.com", "contact:phone": "+30 22860 24672", "name": "Lukumum", "opening_hours": "Mo-Su 08:00-17:30", "source": "survey", "website": "https://www.lukumum.gr"}}, {"type": "node", "id": 4121096989, "lat": 36.3879521, "lon": 25.457357, "tags": {"amenity": "restaurant", "description": "One of the most famous restaurants on the island. Reservation needed.", "email": "info@santorini-metaximas.gr", "name": "\u039c\u03b5\u03c4\u03b1\u03be\u03cd \u039c\u03b1\u03c2", "name:el": "\u039c\u03b5\u03c4\u03b1\u03be\u03cd \u039c\u03b1\u03c2", "name:en": "Metaxi Mas", "opening_hours": "Mo-Su 14:30-23:30", "phone": "+30 22860 31323", "website": "https://www.santorini-metaximas.gr/"}}, {"type": "node", "id": 4123939841, "lat": 36.3612299, "lon": 25.4097737, "tags": {"amenity": "restaurant", "name": "Panorama Restaurant"}}, {"type": "node", "id": 4123939845, "lat": 36.357206, "lon": 25.3988877, "tags": {"amenity": "restaurant", "check_date": "2024-08-25", "name": "Taverna Misteli"}}, {"type": "node", "id": 4126773089, "lat": 36.4174361, "lon": 25.4336529, "tags": {"addr:street": "\u03a6\u03b7\u03c1\u03ac Bus Terminal", "amenity": "cafe", "cuisine": "greek", "internet_access": "wlan", "name": "Magma City Cafe", "opening_hours": "Mo-Sa 07:30-00:00; Su 08:30-00:00", "phone": "+302286025805"}}, {"type": "node", "id": 4174489748, "lat": 36.3625878, "lon": 25.3870344, "tags": {"amenity": "restaurant", "cuisine": "greek", "name": "Aeolos Taverna"}}, {"type": "node", "id": 4174489752, "lat": 36.3575888, "lon": 25.3986253, "tags": {"amenity": "cafe", "name": "Cafe Restaurant"}}, {"type": "node", "id": 4174489753, "lat": 36.3629119, "lon": 25.3855082, "tags": {"amenity": "restaurant", "cuisine": "greek", "name": "Caldera Romantica Restaurant"}}, {"type": "node", "id": 4190029214, "lat": 36.4158048, "lon": 25.4342655, "tags": {"amenity": "restaurant", "name": "Chef's Garden"}}, {"type": "node", "id": 4197064189, "lat": 36.4190812, "lon": 25.4308191, "tags": {"amenity": "restaurant", "name": "Lithos"}}, {"type": "node", "id": 4222406211, "lat": 36.3806466, "lon": 25.4499127, "tags": {"amenity": "restaurant", "name": "Selene, Santorini", "phone": "+302286022249", "website": "www.selene.gr"}}, {"type": "node", "id": 4252792489, "lat": 36.4184666, "lon": 25.4324633, "tags": {"alt_name": "Pizza House", "amenity": "restaurant", "cafe": "yes", "cuisine": "pizza", "ice_cream": "yes", "name": "The Family Pizzeria"}}, {"type": "node", "id": 4292610193, "lat": 36.419031, "lon": 25.4308421, "tags": {"amenity": "restaurant", "email": "info@volcanoblue.gr", "name": "Volcano Blue", "phone": "+302286022850"}}, {"type": "node", "id": 4300946994, "lat": 36.3996106, "lon": 25.4507891, "tags": {"amenity": "restaurant", "name": "Sergaina"}}, {"type": "node", "id": 4300980895, "lat": 36.4189976, "lon": 25.4317513, "tags": {"amenity": "restaurant", "diet:vegetarian": "yes", "name": "Dionysos In Atlantis", "wheelchair": "yes"}}, {"type": "node", "id": 4301001790, "lat": 36.4007245, "lon": 25.4445387, "tags": {"amenity": "restaurant", "name": "Sergaina"}}, {"type": "node", "id": 4301002290, "lat": 36.3537902, "lon": 25.4675248, "tags": {"addr:street": "\u039c\u03b5\u03b3\u03b1\u03bb\u03bf\u03c7\u03ce\u03c1\u03b9 - \u03a0\u03b5\u03c1\u03af\u03c3\u03c3\u03b1", "amenity": "restaurant", "name": "Gyros Time"}}, {"type": "node", "id": 4301002691, "lat": 36.4007349, "lon": 25.4510153, "tags": {"amenity": "restaurant", "name": "Gyros POLLO"}}, {"type": "node", "id": 4312634426, "lat": 36.3824746, "lon": 25.4491324, "tags": {"amenity": "restaurant", "cuisine": "greek", "name": "\u039c\u03c0\u03c1\u03bf\u03cd\u03c3\u03ba\u03bf", "name:el": "\u039c\u03c0\u03c1\u03bf\u03cd\u03c3\u03ba\u03bf", "name:en": "Brusco", "outdoor_seating": "yes"}}, {"type": "node", "id": 4312634427, "lat": 36.3824897, "lon": 25.4490667, "tags": {"addr:city": "\u03a0\u03cd\u03c1\u03b3\u03bf\u03c2", "addr:postcode": "84600", "amenity": "restaurant", "cuisine": "greek", "internet_access": "wlan", "name": "\u03a4\u03bf \u039a\u03b1\u03bd\u03c4\u03bf\u03cd\u03bd\u03b9", "outdoor_seating": "yes", "phone": "+302286033474", "website": "https://kantounirestaurant.com"}}, {"type": "node", "id": 4312634463, "lat": 36.3837273, "lon": 25.4465405, "tags": {"amenity": "restaurant", "cuisine": "greek", "outdoor_seating": "yes"}}, {"type": "node", "id": 4312634474, "lat": 36.383527, "lon": 25.4501535, "tags": {"addr:city": "Santorini", "addr:country": "GR", "addr:place": "Pyrgos", "addr:postcode": "84701", "amenity": "restaurant", "cuisine": "greek", "email": "info@rosemarysantorini.gr", "name": "Rosamary", "outdoor_seating": "yes", "phone": "+30 22860 31262", "website": "https://www.rosemarysantorini.gr/"}}, {"type": "node", "id": 4335441290, "lat": 36.343412, "lon": 25.4612881, "tags": {"amenity": "restaurant", "name": "Ammos seafood restaurant"}}, {"type": "node", "id": 4343830992, "lat": 36.3568612, "lon": 25.4442471, "tags": {"amenity": "cafe", "internet_access": "wlan", "name": "Cafe Zygos"}}, {"type": "node", "id": 4344062590, "lat": 36.3375348, "lon": 25.4358332, "tags": {"addr:city": "\u0392\u03bb\u03c5\u03c7\u03ac\u03b4\u03b1", "addr:country": "GR", "addr:postcode": "84703", "amenity": "restaurant", "contact:facebook": "Taverna Vlichada Dimitris", "contact:instagram": "tadimitris_vlichada", "cuisine": "seafood;greek;breakfast;local", "email": "info@vlichada-dimitris.gr", "mobile": "+30 697 2974116", "name": "Dimitris Greek Tavern", "opening_hours": "Mo-Su 10:00-24:00", "outdoor_seating": "yes", "phone": "+30 22860 82532", "website": "https://www.vlichada-dimitris.com/"}}, {"type": "node", "id": 4344549892, "lat": 36.350584, "lon": 25.46992, "tags": {"amenity": "restaurant", "cuisine": "mexican;coffee_shop;local", "diet:vegan": "yes", "diet:vegetarian": "only", "name": "Tranquilo", "opening_hours": "Nov-Mar off", "phone": "+302286085230", "website": "http://tranquilo.gr/"}}, {"type": "node", "id": 4345310590, "lat": 36.3530314, "lon": 25.4725867, "tags": {"amenity": "restaurant", "cuisine": "pasta;greek;pizza;mediterranean;local", "name": "The Volcano", "phone": "+302286081239", "website": "http://www.the-volcano.com"}}, {"type": "node", "id": 4345323390, "lat": 36.3534252, "lon": 25.4677138, "tags": {"amenity": "restaurant", "cuisine": "greek;mediterranean;local", "name": "God's Garden", "phone": "+302286083027"}}, {"type": "node", "id": 4345472543, "lat": 36.417255, "lon": 25.4314369, "tags": {"amenity": "cafe", "cuisine": "ice_cream", "name": "Iriana Cafe"}}, {"type": "node", "id": 4346813769, "lat": 36.4098227, "lon": 25.4411564, "tags": {"amenity": "restaurant", "name": "Tobasco"}}, {"type": "node", "id": 4346814137, "lat": 36.4101737, "lon": 25.4435395, "tags": {"amenity": "restaurant", "name": "Katerina's"}}, {"type": "node", "id": 4346814599, "lat": 36.4106387, "lon": 25.4454604, "tags": {"amenity": "restaurant", "name": "Skaramagas"}}, {"type": "node", "id": 4347073691, "lat": 36.3507828, "lon": 25.4701286, "tags": {"amenity": "restaurant", "cuisine": "pasta;greek;pizza;mediterranean;local", "internet_access": "wlan", "name": "Apollon", "phone": "+302286085340"}}, {"type": "node", "id": 4350033395, "lat": 36.351339, "lon": 25.4706928, "tags": {"amenity": "restaurant", "cuisine": "pasta;greek;pizza;mediterranean;local", "internet_access": "wlan", "name": "Atlantis Island", "opening_hours": "Mo-Su 10:00-23:30", "phone": "+302286081473"}}, {"type": "node", "id": 4350046811, "lat": 36.3452844, "lon": 25.4245753, "tags": {"amenity": "cafe", "internet_access": "wlan", "name": "Eros Theros"}}, {"type": "node", "id": 4351256091, "lat": 36.3509146, "lon": 25.4702784, "tags": {"amenity": "restaurant", "cuisine": "burger;breakfast;mediterranean;local;pasta;greek;pizza;chicken", "email": "acropolisrestaurant@hotmail.gr", "internet_access": "wlan", "name": "Acropolis", "phone": "+302286081458", "website": "http://www.acropolisrestaurant.wix.com"}}, {"type": "node", "id": 4361424201, "lat": 36.3831454, "lon": 25.4496337, "tags": {"amenity": "restaurant", "cuisine": "mediterranean", "internet_access": "wlan", "name:en": "Cava Alta", "opening_hours": "Mo-Su 12:00-23:30", "phone": "2286033932", "website": "http://www.cavaalta.gr"}}, {"type": "node", "id": 4381378816, "lat": 36.3719438, "lon": 25.4810532, "tags": {"amenity": "restaurant", "name": "Poco Loco"}}, {"type": "node", "id": 4381378946, "lat": 36.3721153, "lon": 25.4812069, "tags": {"amenity": "restaurant", "name": "Taverna Andreas"}}, {"type": "node", "id": 4393097791, "lat": 36.4156617, "lon": 25.4342893, "tags": {"amenity": "cafe", "internet_access": "yes", "internet_access:fee": "yes", "name": "Epidemic Internet Cafe", "tourism": "attraction"}}, {"type": "node", "id": 4394170300, "lat": 36.3709204, "lon": 25.4813576, "tags": {"amenity": "restaurant"}}, {"type": "node", "id": 4394170304, "lat": 36.3712815, "lon": 25.4815783, "tags": {"amenity": "restaurant"}}, {"type": "node", "id": 4394170306, "lat": 36.3714215, "lon": 25.4816253, "tags": {"amenity": "restaurant", "diet:vegan": "yes", "level": "1", "name": "Sky Lounge", "website": "https://santorini-skylounge.com"}}, {"type": "node", "id": 4394170307, "lat": 36.3714943, "lon": 25.4805667, "tags": {"amenity": "restaurant"}}, {"type": "node", "id": 4394170308, "lat": 36.371679, "lon": 25.4818339, "tags": {"amenity": "restaurant"}}, {"type": "node", "id": 4394170309, "lat": 36.3717882, "lon": 25.4819156, "tags": {"amenity": "restaurant"}}, {"type": "node", "id": 4401493276, "lat": 36.3722038, "lon": 25.4810129, "tags": {"amenity": "restaurant", "name": "Amalthia Taverna"}}, {"type": "node", "id": 4401532690, "lat": 36.3511236, "lon": 25.7683112, "tags": {"amenity": "cafe", "int_name": "Tholos", "name": "\u0398\u03cc\u03bb\u03bf\u03c2"}}, {"type": "node", "id": 4402522191, "lat": 36.3517038, "lon": 25.7688725, "tags": {"amenity": "restaurant", "cuisine": "greek", "int_name": "To Liotrivi", "name": "\u039b\u03b9\u03bf\u03c4\u03c1\u03af\u03b2\u03b9"}}, {"type": "node", "id": 4405551741, "lat": 36.3494351, "lon": 25.4002104}, {"type": "node", "id": 4405551742, "lat": 36.3495203, "lon": 25.4003347}, {"type": "node", "id": 4405551743, "lat": 36.3495345, "lon": 25.4002315}, {"type": "node", "id": 4409161033, "lat": 36.4214657, "lon": 25.4286093, "tags": {"amenity": "cafe", "amenity:cinema": "yes", "name": "Volkan on the Rocks", "website": "http://www.volkanontherockscafe.com/"}}, {"type": "node", "id": 4411693878, "lat": 36.4174588, "lon": 25.4319762, "tags": {"amenity": "restaurant", "fixme": "Guideposted from the square east of this point, don't know exactly where this is.", "name": "Assyrtico"}}, {"type": "node", "id": 4411871753, "lat": 36.4178891, "lon": 25.432038, "tags": {"amenity": "restaurant", "name": "China Famous Foods"}}, {"type": "node", "id": 4412072673, "lat": 36.3765774, "lon": 25.4855292, "tags": {"amenity": "restaurant", "cuisine": "greek", "name": "Mango Restaurant Bar"}}, {"type": "node", "id": 4412072676, "lat": 36.3768626, "lon": 25.4842497, "tags": {"amenity": "restaurant"}}, {"type": "node", "id": 4412072677, "lat": 36.3769313, "lon": 25.4840666, "tags": {"amenity": "restaurant"}}, {"type": "node", "id": 4412072684, "lat": 36.3770335, "lon": 25.4837484, "tags": {"amenity": "restaurant", "cuisine": "pizza"}}, {"type": "node", "id": 4425720235, "lat": 36.3823382, "lon": 25.4495864, "tags": {"amenity": "restaurant", "cuisine": "greek", "internet_access": "wlan", "name": "\u039a\u03b1\u03bb\u03bb\u03af\u03c3\u03c4\u03b7", "name:el": "\u039a\u03b1\u03bb\u03bb\u03af\u03c3\u03c4\u03b7", "name:en": "Kallisti"}}, {"type": "node", "id": 4496438989, "lat": 36.3762012, "lon": 25.4839681, "tags": {"amenity": "restaurant", "contact:facebook": "https://www.facebook.com/AmeliaKamari", "contact:phone": "+30 2286 034076", "name": "Amelia Tavern"}}, {"type": "node", "id": 4756019621, "lat": 36.3509946, "lon": 25.4704163, "tags": {"addr:street": "\u039c\u03b5\u03b3\u03b1\u03bb\u03bf\u03c7\u03ce\u03c1\u03b9 - \u03a0\u03b5\u03c1\u03af\u03c3\u03c3\u03b1", "amenity": "restaurant", "name": "Chocolat creperie"}}, {"type": "node", "id": 4779729138, "lat": 36.3889393, "lon": 25.4588982, "tags": {"addr:postcode": "84700", "amenity": "restaurant", "name": "Meze Tavern", "name:es": "Anemoloos"}}, {"type": "node", "id": 4832843523, "lat": 36.4185574, "lon": 25.4309331, "tags": {"amenity": "restaurant", "bar": "yes", "name": "Franco\u2019s"}}, {"type": "node", "id": 4833902821, "lat": 36.4244641, "lon": 25.4300454, "tags": {"amenity": "restaurant", "cuisine": "greek", "internet_access": "wlan", "name:en": "Romantica"}}, {"type": "node", "id": 4865621322, "lat": 36.4185032, "lon": 25.4310398, "tags": {"amenity": "restaurant", "name": "La Scala", "website": "https://lascala-santorini.com"}}, {"type": "node", "id": 4891525223, "lat": 36.3453805, "lon": 25.7763011}, {"type": "node", "id": 4891525224, "lat": 36.3454167, "lon": 25.7762245}, {"type": "node", "id": 4891525225, "lat": 36.3454852, "lon": 25.7762743}, {"type": "node", "id": 4891525226, "lat": 36.345449, "lon": 25.7763509}, {"type": "node", "id": 4891528500, "lat": 36.3454486, "lon": 25.7759515}, {"type": "node", "id": 4891528501, "lat": 36.3454996, "lon": 25.7760896}, {"type": "node", "id": 4891528502, "lat": 36.3454465, "lon": 25.7761198}, {"type": "node", "id": 4891528503, "lat": 36.3454294, "lon": 25.7760733}, {"type": "node", "id": 4891528504, "lat": 36.3454029, "lon": 25.7760884}, {"type": "node", "id": 4891528505, "lat": 36.3453691, "lon": 25.7759967}, {"type": "node", "id": 4893420048, "lat": 36.3448086, "lon": 25.7712187, "tags": {"amenity": "cafe", "name": "Floarans cafe"}}, {"type": "node", "id": 4893423545, "lat": 36.3509201, "lon": 25.768703, "tags": {"amenity": "restaurant", "name": "\u0391\u03c1\u03bc\u03b5\u03bd\u03ac\u03ba\u03b9"}}, {"type": "node", "id": 4905144922, "lat": 36.4165212, "lon": 25.4316303, "tags": {"amenity": "cafe", "amenity:bar": "yes", "level": "0", "name": "Atlantis Cafe Bar"}}, {"type": "node", "id": 4937852526, "lat": 36.3749806, "lon": 25.4287119, "tags": {"addr:housenumber": "20", "addr:street": "\u039c\u03b5\u03b3\u03b1\u03bb\u03bf\u03c7\u03ce\u03c1\u03b9 - \u03a0\u03b5\u03c1\u03af\u03c3\u03c3\u03b1", "amenity": "restaurant", "cuisine": "greek", "email": "taverntznakis@gmail.com", "internet_access": "wlan", "name:en": "Tavern Tzanakis", "name:pt": "Taverna Tznakis", "opening_hours": "Mo-Su 08:00-23:55", "phone": "2286081929"}}, {"type": "node", "id": 4947560625, "lat": 36.3402007, "lon": 25.45476, "tags": {"amenity": "restaurant", "name": "Ta dihtia", "name:el": "Ta dixtia", "name:en": "The nets", "name:es": "Las redes"}}, {"type": "node", "id": 4947575921, "lat": 36.3427361, "lon": 25.4597894, "tags": {"amenity": "restaurant", "name:en": "o Perivolos"}}, {"type": "node", "id": 4947576021, "lat": 36.3425822, "lon": 25.4595374, "tags": {"amenity": "restaurant", "name:en": "Fish Tavern"}}, {"type": "node", "id": 4965966210, "lat": 36.350714, "lon": 25.7674591, "tags": {"amenity": "cafe", "cuisine": "greek", "description": "cafe mezedo glykopoleion", "fax": "+306946951798", "int_name": "Endochora", "name": "\u0395\u03bd\u03b4\u03bf\u03c7\u03ce\u03c1\u03b1", "outdoor_seating": "yes", "phone": "+302286061312"}}, {"type": "node", "id": 4970302838, "lat": 36.4246341, "lon": 25.428466, "tags": {"amenity": "cafe", "name:en": "Golden Sunset Cafe"}}, {"type": "node", "id": 4970329725, "lat": 36.4196721, "lon": 25.4306242, "tags": {"amenity": "cafe", "name:en": "Cafe Patisserie"}}, {"type": "node", "id": 4999880424, "lat": 36.3805826, "lon": 25.4855994, "tags": {"amenity": "cafe", "name:en": "Lolos", "opening_hours": "Mo-Su 09:00-00:00", "phone": "+30 2286 032767", "website": "http://lolos-restaurant.com"}}, {"type": "node", "id": 5026556921, "lat": 36.3564615, "lon": 25.4754668, "tags": {"amenity": "restaurant", "name": "Tavern Perissa", "name:el": "Tavern Perissa"}}, {"type": "node", "id": 5026557021, "lat": 36.3563348, "lon": 25.4753895, "tags": {"amenity": "restaurant", "name": "Porto Castello", "name:el": "Porto Castello"}}, {"type": "node", "id": 5109319281, "lat": 36.3499459, "lon": 25.4692483, "tags": {"amenity": "restaurant", "cuisine": "pasta;greek;pizza;mediterranean;local", "name": "Poseidon", "phone": "+30 2286 085080", "website": "http://poseidonsantorini.com/perissa/"}}, {"type": "node", "id": 5312239800, "lat": 36.3720209, "lon": 25.4821752, "tags": {"amenity": "restaurant", "name": "Taverna Saliveros"}}, {"type": "node", "id": 5500171523, "lat": 36.3725043, "lon": 25.480326, "tags": {"addr:street": "\u039c\u03b5\u03b3\u03b1\u03bb\u03bf\u03c5 \u0391\u03bb\u03b5\u03be\u03b1\u03bd\u03b4\u03c1\u03bf\u03c5", "amenity": "cafe", "cuisine": "coffee_shop;mediterranean;diner;breakfast;sandwich", "diet:vegan": "yes", "internet_access": "wlan", "name": "JuiceMe", "name:en": "juiceme", "phone": "+30 2286 030667"}}, {"type": "node", "id": 5625092821, "lat": 36.4181555, "lon": 25.4318293, "tags": {"alt_name": "Parea Restaurant", "amenity": "restaurant", "level": "1", "name": "\u0395\u03c3\u03c4\u03b9\u03b1\u03c4\u03bf\u03c1\u03b9\u03bf \u03a0\u03b1\u03c1\u03b5\u03b1", "name:el": "\u0395\u03c3\u03c4\u03b9\u03b1\u03c4\u03bf\u03c1\u03b9\u03bf \u03a0\u03b1\u03c1\u03b5\u03b1", "name:en": "Parea Restaurant", "website": "https://parearestaurant.gr"}}, {"type": "node", "id": 5628343226, "lat": 36.3728492, "lon": 25.4830805, "tags": {"amenity": "restaurant", "name:fr": "Kor Das"}}, {"type": "node", "id": 5628343632, "lat": 36.3733096, "lon": 25.4834373, "tags": {"amenity": "restaurant", "name:fr": "Elia"}}, {"type": "node", "id": 5628343633, "lat": 36.3726579, "lon": 25.4829085, "tags": {"amenity": "restaurant", "name:fr": "Mesogaia"}}, {"type": "node", "id": 5656026522, "lat": 36.4175129, "lon": 25.4317848, "tags": {"amenity": "restaurant", "cuisine": "greek", "int_name": "Koukoumavlos", "level": "1", "name": "\u039a\u03bf\u03c5\u03ba\u03bf\u03cd\u03bc\u03b1\u03b2\u03bb\u03bf\u03c2", "phone": "+302286023807", "website": "http://koukoumavlos.com"}}, {"type": "node", "id": 5656044223, "lat": 36.4183662, "lon": 25.4327663, "tags": {"amenity": "restaurant", "cuisine": "regional", "int_name": "Pelican Kipos", "name": "Pelican Kipos", "name:en": "Pelican Kipos", "phone": "+302286023433", "website": "https://www.pelicankipos.com"}}, {"type": "node", "id": 5658584921, "lat": 36.4243544, "lon": 25.4302075, "tags": {"amenity": "cafe", "cuisine": "greek", "internet_access": "wlan", "name:en": "No Name Cafe"}}, {"type": "node", "id": 5706123472, "lat": 36.3586663, "lon": 25.4451644, "tags": {"amenity": "cafe", "name": "Cafe The Old Barber Shop"}}, {"type": "node", "id": 5706123474, "lat": 36.3567475, "lon": 25.4442455, "tags": {"amenity": "restaurant", "name": "Cafe Plateia"}}, {"type": "node", "id": 5706123606, "lat": 36.3567883, "lon": 25.4443304, "tags": {"amenity": "cafe", "name": "Valentino Caffe"}}, {"type": "node", "id": 5706124014, "lat": 36.356774, "lon": 25.4442984, "tags": {"amenity": "restaurant", "name": "Restauracja Creta Taste"}}, {"type": "node", "id": 5709316646, "lat": 36.3399343, "lon": 25.4539367, "tags": {"amenity": "restaurant", "name": "Forty one"}}, {"type": "node", "id": 5709787522, "lat": 36.3400632, "lon": 25.4541897, "tags": {"amenity": "restaurant", "name": "Fougaro", "name:el": "41 forty one", "name:en": "41 forty one"}}, {"type": "node", "id": 5712011422, "lat": 36.340329, "lon": 25.4548854, "tags": {"amenity": "restaurant", "name": "Terra Nera"}}, {"type": "node", "id": 5712066921, "lat": 36.340145, "lon": 25.4544114, "tags": {"amenity": "restaurant", "name": "Afros"}}, {"type": "node", "id": 5747707221, "lat": 36.3542477, "lon": 25.4700099, "tags": {"amenity": "restaurant", "internet_access": "wlan", "name": "Hellas"}}, {"type": "node", "id": 5892782086, "lat": 36.3856991, "lon": 25.4296879, "tags": {"amenity": "restaurant", "cuisine": "greek", "internet_access": "wlan", "name:de": "Athinios", "name:en": "Athinios Souvlaki Restaurant Cafe - Grilled Chicken"}}, {"type": "node", "id": 5895004186, "lat": 36.3583562, "lon": 25.4386811, "tags": {"addr:street": "Emporio 847 03", "amenity": "restaurant", "cuisine": "greek", "email": "giannissigalas@Yahoo.gr", "name:en": "Laurel & Hardy", "opening_hours": "Mo-Su 13:00-23:30", "operator": "Giannis Sigalas", "phone": "2286082353", "website": "https://m.facebook.com/xontroslygnos"}}, {"type": "node", "id": 5895595285, "lat": 36.3567664, "lon": 25.4460273, "tags": {"amenity": "cafe", "cuisine": "coffee_shop;breakfast;donut;greek", "email": "giannissigalas@Yahoo.gr", "internet_access": "wlan", "name:en": "Desiderio - Cafe Snack Bar", "operator": "Giannis Sigalas", "phone": "2286085137"}}, {"type": "node", "id": 5896663177, "lat": 36.4254937, "lon": 25.4287959, "tags": {"amenity": "restaurant", "name": "Ginger Sushi Lounge"}}, {"type": "node", "id": 5896699179, "lat": 36.4254052, "lon": 25.4286879, "tags": {"amenity": "restaurant", "name": "Vanilia Restaurant"}}, {"type": "node", "id": 5906668799, "lat": 36.3386381, "lon": 25.451877, "tags": {"entrance": "main"}}, {"type": "node", "id": 5906668800, "lat": 36.3386018, "lon": 25.4517967}, {"type": "node", "id": 5906668801, "lat": 36.3386678, "lon": 25.451943}, {"type": "node", "id": 5906668802, "lat": 36.33882, "lon": 25.4518371}, {"type": "node", "id": 5906668803, "lat": 36.3387541, "lon": 25.4516909}, {"type": "node", "id": 5908280665, "lat": 36.3396248, "lon": 25.4534703, "tags": {"entrance": "main"}}, {"type": "node", "id": 5908280666, "lat": 36.3396664, "lon": 25.4533178}, {"type": "node", "id": 5908280667, "lat": 36.3397896, "lon": 25.4534106}, {"type": "node", "id": 5908280671, "lat": 36.3396671, "lon": 25.4535676}, {"type": "node", "id": 5908280672, "lat": 36.3398148, "lon": 25.4534686}, {"type": "node", "id": 5908280673, "lat": 36.3397305, "lon": 25.4532748}, {"type": "node", "id": 5908280674, "lat": 36.3395828, "lon": 25.4533738}, {"type": "node", "id": 5908280683, "lat": 36.3388903, "lon": 25.4522667, "tags": {"entrance": "main"}}, {"type": "node", "id": 5908280684, "lat": 36.3388585, "lon": 25.4522146}, {"type": "node", "id": 5908281185, "lat": 36.338926, "lon": 25.4523254}, {"type": "node", "id": 5908281186, "lat": 36.3391702, "lon": 25.452096}, {"type": "node", "id": 5908281187, "lat": 36.3391027, "lon": 25.4519853}, {"type": "node", "id": 5919401372, "lat": 36.4181383, "lon": 25.4322533, "tags": {"amenity": "restaurant", "cuisine": "indian;thai", "name": "momo"}}, {"type": "node", "id": 5919401375, "lat": 36.4181541, "lon": 25.4320061, "tags": {"amenity": "restaurant", "cuisine": "italian;pizza", "level": "1", "name": "Convivium"}}, {"type": "node", "id": 5919401396, "lat": 36.4179199, "lon": 25.4322476, "tags": {"amenity": "cafe", "ice_cream": "yes", "level": "0", "name": "Crema Latte"}}, {"type": "node", "id": 5919401460, "lat": 36.4182383, "lon": 25.4321028, "tags": {"amenity": "restaurant", "cuisine": "italian;pizza", "name": "Convivium"}}, {"type": "node", "id": 5922446767, "lat": 36.4179905, "lon": 25.4325744, "tags": {"amenity": "cafe", "level": "1", "name": "Diverso"}}, {"type": "node", "id": 5922446769, "lat": 36.4180263, "lon": 25.4325764, "tags": {"amenity": "cafe", "level": "1", "name": "Vithos", "name:el": "\u039d\u03b9\u03b8\u03bf\u03c2"}}, {"type": "node", "id": 5922446770, "lat": 36.4179308, "lon": 25.432612, "tags": {"amenity": "restaurant", "cuisine": "greek", "level": "1", "name": "\u0395\u03bb\u03bb\u03b9\u03bd\u03b9\u03ba\u03bf\u03bd", "name:el": "\u0395\u03bb\u03bb\u03b9\u03bd\u03b9\u03ba\u03bf\u03bd", "name:en": "Ellinikon"}}, {"type": "node", "id": 5926544223, "lat": 36.4184081, "lon": 25.4324926, "tags": {"amenity": "restaurant", "cuisine": "chinese", "level": "1", "name": "Fu Li Hua", "name:en": "Fu Li Hua", "name:zh": "\u5bcc\u7acb\u83ef"}}, {"type": "node", "id": 5928675736, "lat": 36.4188091, "lon": 25.4318676, "tags": {"amenity": "cafe", "name": "Lava Internet Cafe"}}, {"type": "node", "id": 5930515918, "lat": 36.4183293, "lon": 25.4320807, "tags": {"amenity": "restaurant", "name": "\u03a4\u03b1\u03b2\u03ad\u03c1\u03bd\u03b1 \u0395\u03bb\u03b9\u03ac", "name:el": "\u03a4\u03b1\u03b2\u03ad\u03c1\u03bd\u03b1 \u0395\u03bb\u03b9\u03ac", "name:en": "Elia Tavern", "website": "https://eliasantorini.com/"}}, {"type": "node", "id": 5935522885, "lat": 36.3572544, "lon": 25.4756814, "tags": {"amenity": "restaurant", "name:en": "The magic bus"}}, {"type": "node", "id": 5940791203, "lat": 36.417124, "lon": 25.431895, "tags": {"amenity": "cafe", "amenity:bar": "yes", "level": "0", "name": "Lila cafe wine bar"}}, {"type": "node", "id": 5941416650, "lat": 36.4174024, "lon": 25.4318422, "tags": {"amenity": "restaurant", "name": "ampelos"}}, {"type": "node", "id": 5951430689, "lat": 36.4182224, "lon": 25.4315499, "tags": {"amenity": "cafe", "name": "Yes Cafe"}}, {"type": "node", "id": 5951480685, "lat": 36.418173, "lon": 25.4315614, "tags": {"amenity": "restaurant"}}, {"type": "node", "id": 5954077727, "lat": 36.4185112, "lon": 25.4316237, "tags": {"amenity": "cafe"}}, {"type": "node", "id": 5954093000, "lat": 36.418671, "lon": 25.4313913, "tags": {"amenity": "cafe", "name": "Arcobaleno"}}, {"type": "node", "id": 5964329386, "lat": 36.4185185, "lon": 25.4316772, "tags": {"amenity": "cafe", "ice_cream": "yes", "name": "\u0396\u03ce\u03c4\u03bf\u03c2", "name:el": "\u0396\u03ce\u03c4\u03bf\u03c2", "name:en": "Zotos Cafe", "shop:confectionery": "yes", "website": "https://m.facebook.com/zotoscafesantorini"}}, {"type": "node", "id": 5966932527, "lat": 36.4202055, "lon": 25.4312572, "tags": {"amenity": "restaurant", "cuisine": "chinese", "level": "1", "name": "China Restaurant", "name:en": "China Restaurant", "owner": "Guan Eng Khor", "phone": "6932582018", "website": "http://www.chinasantorini.com"}}, {"type": "node", "id": 5966932532, "lat": 36.4201615, "lon": 25.4303855, "tags": {"amenity": "cafe", "cuisine": "greek", "name": "Zafora"}}, {"type": "node", "id": 5967854917, "lat": 36.4195459, "lon": 25.4316032, "tags": {"amenity": "restaurant", "level": "1", "name": "Camille Stefani", "website": "http://www.camillestefani.com"}}, {"type": "node", "id": 5970743085, "lat": 36.4200647, "lon": 25.430466, "tags": {"amenity": "restaurant", "cuisine": "greek", "name": "Kastro Cafe"}}, {"type": "node", "id": 5970743086, "lat": 36.4194156, "lon": 25.4311313, "tags": {"amenity": "restaurant", "cuisine": "sushi", "name": "Miji Sushi Bar"}}, {"type": "node", "id": 5982587865, "lat": 36.4198206, "lon": 25.4317001, "tags": {"amenity": "restaurant", "cuisine": "italian", "name": "Cacio e Pepe", "name:it": "Cacio e Pepe", "website": "https://www.cacioepepe.gr/"}}, {"type": "node", "id": 5982587866, "lat": 36.420227, "lon": 25.4320847, "tags": {"amenity": "restaurant", "name": "Triana Taverna"}}, {"type": "node", "id": 5991860915, "lat": 36.4200363, "lon": 25.4313882, "tags": {"alt_name": "Daphne Tavern", "amenity": "restaurant", "cuisine": "greek", "level": "1", "loc_name": "Daphne Traditional Restaurant", "name": "Daphne Casserole Family Tavern", "name:en": "Daphne Casserole Family Tavern", "website": "https://m.facebook.com/DaphneTavern"}}, {"type": "node", "id": 5993384934, "lat": 36.4200038, "lon": 25.4313321, "tags": {"amenity": "restaurant", "cuisine": "italian", "internet_access": "wlan", "internet_access:fee": "no", "level": "1", "name": "Cesare Ristorante", "name:it": "Cesare Ristorante"}}, {"type": "node", "id": 5993442076, "lat": 36.4193691, "lon": 25.4315086, "tags": {"amenity": "restaurant", "level": "1", "name": "Stani", "website": "https://stani.gr/"}}, {"type": "node", "id": 6002758332, "lat": 36.4205697, "lon": 25.431191, "tags": {"amenity": "restaurant", "level": "1", "name": "Cafe Restaurant with a Sea View"}}, {"type": "node", "id": 6047492020, "lat": 36.4185967, "lon": 25.4310139, "tags": {"amenity": "cafe", "name": "Aestas"}}, {"type": "node", "id": 6047552404, "lat": 36.4186925, "lon": 25.4309827, "tags": {"amenity": "restaurant", "amenity:bar": "yes", "amenity:cafe": "yes", "name": "Rastoni", "website": "https://rastonisantorini.com/"}}, {"type": "node", "id": 6047552405, "lat": 36.4195154, "lon": 25.4307058, "tags": {"amenity": "restaurant", "name": "Katrin"}}, {"type": "node", "id": 6047552411, "lat": 36.4188113, "lon": 25.4306514, "tags": {"amenity": "restaurant", "cuisine": "regional", "name": "La Colline", "website": "https://www.villabordeaux-santorini.com/la-colline-restaurant"}}, {"type": "node", "id": 6047552416, "lat": 36.4193645, "lon": 25.430738, "tags": {"amenity": "restaurant", "name": "Nefeles"}}, {"type": "node", "id": 6047552417, "lat": 36.4192007, "lon": 25.4306761, "tags": {"amenity": "cafe", "amenity:bar": "yes", "name": "Porto Carra Cafe Bar"}}, {"type": "node", "id": 6047552420, "lat": 36.4194362, "lon": 25.4307148, "tags": {"amenity": "restaurant", "name": "Don Angelo"}}, {"type": "node", "id": 6048963468, "lat": 36.4184502, "lon": 25.4279963, "tags": {"amenity": "cafe", "name": "Nalagos"}}, {"type": "node", "id": 6048963475, "lat": 36.4181534, "lon": 25.4278821, "tags": {"amenity": "cafe", "name": "Cafe Ilios"}}, {"type": "node", "id": 6048963479, "lat": 36.4169277, "lon": 25.4284289, "tags": {"amenity": "cafe", "name:en": "Aroma Cafe"}}, {"type": "node", "id": 6048964690, "lat": 36.4179733, "lon": 25.4280023, "tags": {"amenity": "restaurant", "name": "Taverna Syrtaki", "outdoor_seating": "yes"}}, {"type": "node", "id": 6048964695, "lat": 36.417353, "lon": 25.4283282, "tags": {"amenity": "restaurant", "cuisine": "seafood", "name": "\u039b\u03bf\u03bc\u03b2\u03c1\u03ac\u03bd\u03bf\u03c2 \u03a4\u03b1\u03b2\u03ad\u03c1\u03bd\u03b1 \u0398\u03ae\u03c1\u03b1", "name:el": "\u039b\u03bf\u03bc\u03b2\u03c1\u03ac\u03bd\u03bf\u03c2 \u03a4\u03b1\u03b2\u03ad\u03c1\u03bd\u03b1 \u0398\u03ae\u03c1\u03b1", "name:en": "Lombranos Fish Tavern Old Port"}}, {"type": "node", "id": 6048964699, "lat": 36.4185042, "lon": 25.4279479, "tags": {"amenity": "cafe", "name": "Nikolas Art Gallery Cafe", "shop": "art"}}, {"type": "node", "id": 6048964710, "lat": 36.4181001, "lon": 25.4280927, "tags": {"amenity": "cafe"}}, {"type": "node", "id": 6048964722, "lat": 36.4178294, "lon": 25.4282733, "tags": {"amenity": "cafe", "name": "Market Cafe"}}, {"type": "node", "id": 6049944397, "lat": 36.4187776, "lon": 25.4269992, "tags": {"amenity": "cafe", "cuisine": "seafood", "name": "Captain Nikolas Seafood Snack Bar"}}, {"type": "node", "id": 6239915051, "lat": 36.4207469, "lon": 25.4298937, "tags": {"amenity": "restaurant", "cuisine": "greek", "name": "da Costa", "website": "http://www.dacosta.gr"}}, {"type": "node", "id": 6239915054, "lat": 36.4211089, "lon": 25.429614, "tags": {"amenity": "restaurant", "cuisine": "greek", "name": "Lava Suites & Lounge", "tourism": "hotel"}}, {"type": "node", "id": 6240551771, "lat": 36.4240069, "lon": 25.4304764, "tags": {"amenity": "restaurant", "name": "\u03a4\u03b1\u03b2\u03b5\u03c1\u03bd\u03b1 \u03a3\u03b9\u03bc\u03bf\u03c2", "name:de": "Simos Taverne", "name:el": "\u03a4\u03b1\u03b2\u03b5\u03c1\u03bd\u03b1 \u03a3\u03b9\u03bc\u03bf\u03c2", "name:en": "Tavern Simos", "start_date": "1989", "website": "https://tavernasimos.gr/"}}, {"type": "node", "id": 6240600033, "lat": 36.4253979, "lon": 25.4286292, "tags": {"amenity": "restaurant", "check_date": "2023-04-30", "name": "Remvi Restaurant"}}, {"type": "node", "id": 6473272390, "lat": 36.4114706, "lon": 25.4822538, "tags": {"amenity": "restaurant", "name:en": "Captain loizos"}}, {"type": "node", "id": 6491658986, "lat": 36.4157963, "lon": 25.4330164, "tags": {"amenity": "restaurant", "cuisine": "greek", "name": "Ladocolla"}}, {"type": "node", "id": 6491659686, "lat": 36.4207042, "lon": 25.4318835, "tags": {"amenity": "restaurant", "name": "Kapari"}}, {"type": "node", "id": 6515540685, "lat": 36.344822, "lon": 25.4632537, "tags": {"amenity": "restaurant", "cuisine": "greek", "name:en": "Safran Restaurant", "name:fr": "Safran Restaurant"}}, {"type": "node", "id": 6515540785, "lat": 36.3844056, "lon": 25.444112, "tags": {"amenity": "restaurant", "cuisine": "greek", "name": "Pyrgos", "name:en": "Pyrgos restaurant", "name:fr": "Pyrgos restaurant", "survey:date": "2023-09-03", "website": "https://www.pyrgos-santorini.com/", "website:menu": "https://app.mintqr.com/places/00a6bda6-5344-4238-b482-ac36ba4de897#/"}}, {"type": "node", "id": 6588737689, "lat": 36.4227173, "lon": 25.4317075, "tags": {"addr:street": "25\u03b7\u03c2 \u039c\u03b1\u03c1\u03c4\u03af\u03bf\u03c5", "amenity": "restaurant", "internet_access": "wlan", "name": "Kokkaao", "name:en": "Kokkalo Restaurant", "name:zh": "\u5bc7\u5361\u7f57\u9910\u5385", "opening_hours": "Mo-Su 14:00-00:00", "phone": "+30 2286 025407", "survey:date": "2023-09-04", "website": "https://kokkalosantorini.com/"}}, {"type": "node", "id": 6698435785, "lat": 36.3833245, "lon": 25.4468652, "tags": {"amenity": "restaurant", "name": "Mythos", "name:en": "Mythos Grill House", "survey:date": "2023-09-03"}}, {"type": "node", "id": 6708298987, "lat": 36.3761764, "lon": 25.4841099, "tags": {"amenity": "restaurant", "contact:facebook": "https://www.facebook.com/eliasgril/", "contact:phone": "+30 2286 028152", "name": "Elias Grill"}}, {"type": "node", "id": 6711596985, "lat": 36.3495196, "lon": 25.3998269, "tags": {"amenity": "restaurant", "name:en": "Cave of Stolidas"}}, {"type": "node", "id": 6711843186, "lat": 36.410504, "lon": 25.4409055, "tags": {"addr:housenumber": "847 00", "addr:street": "\u0398\u03ae\u03c1\u03b1 - \u039c\u03b5\u03c3\u03b1\u03c1\u03b9\u03ac", "amenity": "restaurant", "cuisine": "indian", "internet_access": "wlan", "name": "Jaipur Palace Santorini", "phone": "+306947117453"}}, {"type": "node", "id": 6718602887, "lat": 36.4183826, "lon": 25.4331822, "tags": {"amenity": "restaurant", "name:en": "Corner"}}, {"type": "node", "id": 6718654189, "lat": 36.3435596, "lon": 25.4610987, "tags": {"amenity": "restaurant", "name:en": "Margarita"}}, {"type": "node", "id": 6828444486, "lat": 36.4175394, "lon": 25.4340621, "tags": {"amenity": "cafe", "name:en": "Tsiporaudiko"}}, {"type": "node", "id": 6837399285, "lat": 36.3964016, "lon": 25.4862237, "tags": {"amenity": "restaurant", "cuisine": "fish", "name": "Galini Taverna"}}, {"type": "node", "id": 6839904617, "lat": 36.4246953, "lon": 25.4285312, "tags": {"amenity": "cafe", "email": "Info@hotelgalini.gr", "name": "Galini", "phone": "+302286022095", "website": "https://hotelgalini.gr/"}}, {"type": "node", "id": 6839910943, "lat": 36.3566392, "lon": 25.4756521, "tags": {"amenity": "restaurant", "name": "Aquarius"}}, {"type": "node", "id": 6839915706, "lat": 36.3531646, "lon": 25.4727207, "tags": {"amenity": "cafe", "cuisine": "ice_cream", "name": "Vienna"}}, {"type": "node", "id": 7694688385, "lat": 36.3773548, "lon": 25.4830664, "tags": {"addr:postcode": "84700", "addr:street": "\u03a0\u03b1\u03bd\u03b1\u03b3\u03af\u03b1\u03c2 \u039c\u03c5\u03c1\u03c4\u03b9\u03b4\u03b9\u03ce\u03c4\u03b9\u03c3\u03c3\u03b1\u03c2", "amenity": "restaurant", "cuisine": "greek", "name:en": "To Pinakio", "phone": "00302286032280"}}, {"type": "node", "id": 7694722986, "lat": 36.3726878, "lon": 25.4794309, "tags": {"amenity": "restaurant", "cuisine": "greek", "name": "Taverna Sellada", "phone": "0030228603345"}}, {"type": "node", "id": 7766327985, "lat": 36.3732963, "lon": 25.4816043, "tags": {"addr:postcode": "84700", "addr:street": "\u039c\u03b1\u03ba\u03b5\u03b4\u03bf\u03bd\u03af\u03b1\u03c2", "amenity": "restaurant", "cuisine": "greek", "internet_access": "wlan", "name": "Fistikies", "opening_hours": "Mo-Su 12:00-00:00"}}, {"type": "node", "id": 7803584685, "lat": 36.3494574, "lon": 25.3998982, "tags": {"amenity": "restaurant", "name": "Wave Tavern"}}, {"type": "node", "id": 7852980885, "lat": 36.4120792, "lon": 25.4818645, "tags": {"amenity": "restaurant", "name": "Taverna", "name:el": "Taverna Skaramagkas", "name:en": "Taverna Skaramagkas", "name:it": "Taverna Skaramagkas"}}, {"type": "node", "id": 7865507085, "lat": 36.4040577, "lon": 25.4873144, "tags": {"addr:street": "Agia Paraskevi a Monolithos", "amenity": "restaurant", "cuisine": "greek", "name": "Mario No 1", "name:en": "Mario No1", "name:it": "Mario No1"}}, {"type": "node", "id": 7904647685, "lat": 36.3761033, "lon": 25.4852676, "tags": {"amenity": "restaurant", "name:de": "Vinsanto"}}, {"type": "node", "id": 8093164218, "lat": 36.4033938, "lon": 25.472891, "tags": {"amenity": "cafe", "check_date": "2023-04-30", "level": "1", "name": "Coffee !", "survey:date": "2023-09-05"}}, {"type": "node", "id": 8592432419, "lat": 36.4166311, "lon": 25.4310216, "tags": {"addr:postcode": "84700", "addr:street": "Agiou Mina", "amenity": "restaurant", "cuisine": "fine_dining;greek;mediterranean", "email": "reservations@esperisma.com", "internet_access": "wlan", "name": "Esperisma", "opening_hours": "Mo-Su 12:30-01:00", "phone": "+302286024910", "website": "https://www.esperisma.com/"}}, {"type": "node", "id": 8773055817, "lat": 36.3799246, "lon": 25.4867919, "tags": {"addr:postcode": "84700", "amenity": "restaurant", "cuisine": "greek;mediterranean;seafood", "name": "Gia Mas", "opening_hours": "9:00-12:00", "phone": "+302286033007", "website": "https://www.giamassantorini.com/"}}, {"type": "node", "id": 8773055917, "lat": 36.3800743, "lon": 25.4868165, "tags": {"addr:street": "\u039d\u03c5\u03bc\u03c6\u03ce\u03bd", "amenity": "restaurant", "cuisine": "greek;mediterranean;seafood", "name": "Almira", "phone": "+302286030208"}}, {"type": "node", "id": 8773056017, "lat": 36.3804298, "lon": 25.4868835, "tags": {"addr:postcode": "84700", "amenity": "restaurant", "cuisine": "greek", "diet:vegan": "yes", "diet:vegetarian": "yes", "name:en": "Santo Athiri Restaurant", "opening_hours": "10:00 - 23:45", "phone": "+306992971580"}}, {"type": "node", "id": 8777107618, "lat": 36.4148665, "lon": 25.434769, "tags": {"addr:postcode": "84700", "amenity": "restaurant", "cuisine": "greek;grill;mediterranean", "name:en": "MeRaki", "opening_hours": "1:00 - 11:45", "phone": "+302286023225"}}, {"type": "node", "id": 8777107619, "lat": 36.3838074, "lon": 25.4460156, "tags": {"addr:postcode": "84700", "amenity": "restaurant", "cuisine": "international;mediterranean", "name:en": "Agaze Bistro Restaurant", "opening_hours": "08:00 - 15:00 ; 18:00 - 24:00", "phone": "+302286031003"}}, {"type": "node", "id": 8777107717, "lat": 36.4176394, "lon": 25.4316259, "tags": {"addr:postcode": "84700", "amenity": "restaurant", "cuisine": "international;mediterranean;seafood", "name:en": "Kaliya Reimagined Food & Drinks", "opening_hours": "8:00 - 12:00", "phone": "+302286023807", "website": "https://sevenrooms.com/"}}, {"type": "node", "id": 8817452217, "lat": 36.3759379, "lon": 25.431818, "tags": {"amenity": "restaurant", "name:en": "Raki"}}, {"type": "node", "id": 8887608779, "lat": 36.4103445, "lon": 25.4402755, "tags": {"amenity": "cafe", "name": "\u039a\u03b1\u03b8\u03bf\u03b4\u03cc\u03bd", "phone": "2286028549"}}, {"type": "node", "id": 8993822019, "lat": 36.3773798, "lon": 25.4828991, "tags": {"amenity": "cafe", "name": "The Finch"}}, {"type": "node", "id": 9141358017, "lat": 36.3767665, "lon": 25.4856889, "tags": {"amenity": "cafe", "name:en": "Cafe Dolce"}}, {"type": "node", "id": 9152161717, "lat": 36.3398602, "lon": 25.4546351, "tags": {"amenity": "restaurant"}}, {"type": "node", "id": 9282711297, "lat": 36.3761586, "lon": 25.4321324, "tags": {"amenity": "restaurant", "facebook": "https://www.facebook.com/Alisachni-Art-Wine-Gallery-580379659114748/", "name": "Alisachni Art & Wine Gallery", "opening_hours": "Mo-Su 09:00-02:00", "phone": "+302286082267"}}, {"type": "node", "id": 9282711347, "lat": 36.3725637, "lon": 25.4792193, "tags": {"amenity": "restaurant", "name": "Taverna Danas"}}, {"type": "node", "id": 9603911717, "lat": 36.3544727, "lon": 25.4705479, "tags": {"amenity": "restaurant", "cuisine": "greek", "name:de": "Aris Grill", "name:en": "Aris Grillhouse"}}, {"type": "node", "id": 9609330617, "lat": 36.4184961, "lon": 25.4310203, "tags": {"amenity": "restaurant", "diet:vegan": "yes", "name": "Ohh boy"}}, {"type": "node", "id": 9633296374, "lat": 36.337947, "lon": 25.4372862}, {"type": "node", "id": 9633296375, "lat": 36.3379038, "lon": 25.4374069}, {"type": "node", "id": 9633296376, "lat": 36.3376648, "lon": 25.437275}, {"type": "node", "id": 9633296377, "lat": 36.337708, "lon": 25.4371543}, {"type": "node", "id": 9697534817, "lat": 36.3379899, "lon": 25.4350475, "tags": {"amenity": "restaurant", "name": "To Psaraki", "opening_hours": "Mo-Su 13:30-22:30", "phone": "+30 22860 82783", "website": "http://topsaraki.gr"}}, {"type": "node", "id": 9837018118, "lat": 36.3770448, "lon": 25.4836893, "tags": {"amenity": "restaurant", "name:en": "Il Forno Pizza & Pasta"}}, {"type": "node", "id": 9837045118, "lat": 36.3772406, "lon": 25.4830083, "tags": {"amenity": "restaurant", "name:en": "Juicy Burger"}}, {"type": "node", "id": 9891497621, "lat": 36.3366308, "lon": 25.4492653, "tags": {"amenity": "restaurant", "cuisine": "greek;seafood", "name:en": "Lava"}}, {"type": "node", "id": 9891516617, "lat": 36.3386166, "lon": 25.4515757, "tags": {"amenity": "restaurant", "cuisine": "greek;seafood", "internet_access": "wlan", "name:en": "Savvas Popeye"}}, {"type": "node", "id": 9953438754, "lat": 36.3372035, "lon": 25.4355718, "tags": {"amenity": "cafe"}}, {"type": "node", "id": 10087144506, "lat": 36.3518156, "lon": 25.7682851, "tags": {"amenity": "restaurant", "cuisine": "greek", "int_name": "Anemos", "name": "\u0386\u03bd\u03b5\u03bc\u03bf\u03c2"}}, {"type": "node", "id": 10087220805, "lat": 36.3513052, "lon": 25.7685154, "tags": {"amenity": "cafe", "int_name": "Argo", "name": "\u0391\u03c1\u03b3\u03ce"}}, {"type": "node", "id": 10090375775, "lat": 36.3514365, "lon": 25.7683803, "tags": {"amenity": "cafe", "int_name": "Katafigio", "name": "\u039a\u03b1\u03c4\u03b1\u03c6\u03cd\u03b3\u03b9\u03bf"}}, {"type": "node", "id": 10090481893, "lat": 36.3526797, "lon": 25.769181, "tags": {"amenity": "cafe", "name": "Ta Plagia"}}, {"type": "node", "id": 10091948773, "lat": 36.350955, "lon": 25.767862, "tags": {"amenity": "cafe", "name": "\u039a\u03ac\u03c0\u03bf\u03c5 \u03c3\u03c4\u03bf \u0391\u03b9\u03b3\u03b1\u03af\u03bf"}}, {"type": "node", "id": 10092539681, "lat": 36.3523502, "lon": 25.7692547, "tags": {"amenity": "cafe", "int_name": "Vithos", "name": "\u0392\u03c5\u03b8\u03cc\u03c2"}}, {"type": "node", "id": 10093416584, "lat": 36.3513965, "lon": 25.7685278, "tags": {"amenity": "cafe", "int_name": "Odos Irinis", "name": "\u039f\u03b4\u03cc\u03c2 \u0395\u03b9\u03c1\u03ae\u03bd\u03b7\u03c2"}}, {"type": "node", "id": 10110164352, "lat": 36.3741708, "lon": 25.4838623, "tags": {"amenity": "restaurant", "cuisine": "greek", "name": "Zorba"}}, {"type": "node", "id": 10110164365, "lat": 36.3772622, "lon": 25.4859155, "tags": {"amenity": "restaurant", "cuisine": "greek", "name": "Perigiali"}}, {"type": "node", "id": 10110164366, "lat": 36.3775732, "lon": 25.4860067, "tags": {"amenity": "restaurant", "cuisine": "greek", "name": "Syrtaki"}}, {"type": "node", "id": 10846415720, "lat": 36.4158679, "lon": 25.4329793, "tags": {"amenity": "cafe", "name": "Chara"}}, {"type": "node", "id": 10846415721, "lat": 36.4159, "lon": 25.4329777, "tags": {"amenity": "restaurant", "name": "Med Food"}}, {"type": "node", "id": 10858094844, "lat": 36.4032685, "lon": 25.4732413, "tags": {"amenity": "cafe", "level": "0"}}, {"type": "node", "id": 10870709207, "lat": 36.3756171, "lon": 25.4847771, "tags": {"amenity": "restaurant", "name": "Prince Lounge Restaurant"}}, {"type": "node", "id": 10875534505, "lat": 36.3755285, "lon": 25.4847695, "tags": {"amenity": "restaurant", "name": "Prince"}}, {"type": "node", "id": 10875571205, "lat": 36.375463, "lon": 25.4834092, "tags": {"amenity": "restaurant", "cuisine": "chinese", "name": "Kiwi"}}, {"type": "node", "id": 10876055005, "lat": 36.377384, "lon": 25.4827181, "tags": {"amenity": "restaurant", "cuisine": "asian", "name": "Take a Wok"}}, {"type": "node", "id": 11051018416, "lat": 36.3818727, "lon": 25.4495421, "tags": {"amenity": "restaurant", "cuisine": "greek", "name": "Rymidi", "phone": "+30 2286 031040", "website": "https://www.facebook.com/Rymidi/"}}, {"type": "node", "id": 11059708448, "lat": 36.3527406, "lon": 25.453467, "tags": {"addr:city": "Emporeio", "addr:postcode": "84703", "amenity": "restaurant", "cuisine": "greek", "name": "Platis Grill House", "phone": "+30 2286 082014", "website": "https://www.facebook.com/people/Platis-Grill-House/100064234471188/"}}, {"type": "node", "id": 11167048726, "lat": 36.3857328, "lon": 25.4289397, "tags": {"addr:city": "Athinios Dou Thiras", "amenity": "restaurant", "bar": "yes", "name": "Makis Cafe Bar", "outdoor_seating": "yes"}}, {"type": "node", "id": 11169372437, "lat": 36.4201326, "lon": 25.4320287, "tags": {"amenity": "restaurant", "internet_access": "wlan", "internet_access:fee": "no", "internet_access:ssid": "Triana tavern", "name": "Triana tavern", "survey:date": "2023-09-04"}}, {"type": "node", "id": 11169372438, "lat": 36.4219484, "lon": 25.4318539, "tags": {"amenity": "restaurant", "name": "Tholoth\u00f4", "survey:date": "2023-09-04"}}, {"type": "node", "id": 11172635597, "lat": 36.3568372, "lon": 25.4757305, "tags": {"amenity": "restaurant", "contact:email": "eirinikatsipi25@gmail.com", "name": "Fratzeskos", "phone": "+30 22860 83488"}}, {"type": "node", "id": 11175159139, "lat": 36.3538963, "lon": 25.4686036, "tags": {"amenity": "restaurant", "name": "Grandma's Recipes"}}, {"type": "node", "id": 11195985537, "lat": 36.4143335, "lon": 25.4351169, "tags": {"amenity": "cafe", "name:en": "Coffee Shop Vales"}}, {"type": "node", "id": 11300842142, "lat": 36.357063, "lon": 25.361326}, {"type": "node", "id": 11300842143, "lat": 36.3571617, "lon": 25.3612112}, {"type": "node", "id": 11300842144, "lat": 36.3572247, "lon": 25.3612948}, {"type": "node", "id": 11300842145, "lat": 36.3572435, "lon": 25.3612729}, {"type": "node", "id": 11300842146, "lat": 36.3573564, "lon": 25.3613113}, {"type": "node", "id": 11300842147, "lat": 36.3574091, "lon": 25.3613811}, {"type": "node", "id": 11300842148, "lat": 36.3572469, "lon": 25.3615698}, {"type": "node", "id": 11306733821, "lat": 36.3469133, "lon": 25.4387371, "tags": {"amenity": "cafe", "email": "caramelacafebarsunset@gmail.com", "facebook": "https://www.facebook.com/p/Caramela-cafe-bar-Sunset-100083707357995/", "name": "Caramela cafe bar Sunset", "phone": "+30 6981759685"}}, {"type": "node", "id": 11559765769, "lat": 36.4007468, "lon": 25.4582529, "tags": {"amenity": "cafe", "name:en": "La Douceur"}}, {"type": "node", "id": 11568629689, "lat": 36.4178336, "lon": 25.4340306}, {"type": "node", "id": 11568629690, "lat": 36.4178196, "lon": 25.4339708}, {"type": "node", "id": 11568629691, "lat": 36.4177766, "lon": 25.4340512}, {"type": "node", "id": 11568629692, "lat": 36.4177626, "lon": 25.4339914}, {"type": "node", "id": 11978951997, "lat": 36.3576859, "lon": 25.398371, "tags": {"addr:city": "\u0391\u03ba\u03c1\u03c9\u03c4\u03ae\u03c1\u03b9", "addr:postcode": "84700", "amenity": "restaurant", "facebook": "https://www.facebook.com/akrothiri/", "name": "Akrothiri", "opening_hours": "Mo-Su 08:00-01:30", "phone": "+302286081457", "website": "https://akrothiri.gr/"}}, {"type": "node", "id": 12273327206, "lat": 36.3569538, "lon": 25.4424765, "tags": {"amenity": "restaurant", "name": "Bakaliarakia", "opening_hours": "Mo-Su 12:00-23:00", "phone": "+302286085363"}}, {"type": "node", "id": 12601768826, "lat": 36.3643963, "lon": 25.382387}, {"type": "node", "id": 12601768827, "lat": 36.3644453, "lon": 25.3822604}, {"type": "node", "id": 12601768828, "lat": 36.3645095, "lon": 25.3822988}, {"type": "node", "id": 12601768829, "lat": 36.3644829, "lon": 25.3823676}, {"type": "node", "id": 12601768830, "lat": 36.3645083, "lon": 25.3823828}, {"type": "node", "id": 12601768831, "lat": 36.364486, "lon": 25.3824405}, {"type": "way", "id": 225977180, "nodes": [2348176327, 2348176328, 2348176329, 2348176330, 2348176327], "tags": {"amenity": "restaurant", "building": "yes", "cuisine": "mexican", "facebook": "https://facebook.com/SenorZorba/", "fixme": "Is this still on? their fb is inactive", "name": "Zorbas"}}, {"type": "way", "id": 442905618, "nodes": [527776455, 4405551741, 4405551743, 4405551742, 527776455], "tags": {"amenity": "restaurant", "building": "yes", "internet_access": "wlan", "internet_access:fee": "no", "name": "Melina's Tavern", "outdoor_seating": "yes", "payment:cash": "yes", "payment:credit_cards": "yes", "payment:debit_cards": "yes", "payment:mastercard": "no", "payment:visa": "no", "payment:visa_electron": "yes", "phone": "+33(2)286082764"}}, {"type": "way", "id": 497616353, "nodes": [4891525223, 4891525224, 4891525225, 4891525226, 4891525223], "tags": {"amenity": "restaurant", "building": "yes", "cuisine": "regional", "name": "\u03a4\u03bf \u039a\u03bb\u03b5\u03b9\u03c3\u03af\u03b4\u03b9"}}, {"type": "way", "id": 497616722, "nodes": [4891528500, 4891528501, 4891528502, 4891528503, 4891528504, 4891528505, 4891528500], "tags": {"amenity": "restaurant", "building": "yes", "cuisine": "greek", "name": "Margarita"}}, {"type": "way", "id": 625593826, "nodes": [5906668803, 5906668802, 5906668801, 5906668799, 5906668800, 5906668803], "tags": {"addr:postcode": "84703", "amenity": "restaurant", "building": "yes", "cuisine": "greek", "diet:vegan": "no", "diet:vegetarian": "no", "internet_access": "wlan", "name:en": "Sea Side", "phone": "2286082801", "website": "http://www.seaside-restaurant.gr"}}, {"type": "way", "id": 625786018, "nodes": [5908280674, 5908280666, 5908280673, 5908280667, 5908280672, 5908280671, 5908280665, 5908280674], "tags": {"amenity": "restaurant", "building": "yes", "diet:vegetarian": "yes", "name": "Savvas Popeye", "source": "bing"}}, {"type": "way", "id": 625786021, "nodes": [5908281187, 5908281186, 5908281185, 5908280683, 5908280684, 5908281187], "tags": {"amenity": "restaurant", "building": "yes", "diet:vegan": "no", "diet:vegetarian": "no", "name": "Ta Kavourakia"}}, {"type": "way", "id": 1047620641, "nodes": [9633296377, 9633296374, 9633296375, 9633296376, 9633296377], "tags": {"amenity": "restaurant", "building": "yes"}}, {"type": "way", "id": 1219608955, "nodes": [11300842142, 11300842143, 11300842144, 11300842145, 11300842146, 11300842147, 11300842148, 11300842142], "tags": {"amenity": "restaurant", "building": "yes"}}, {"type": "way", "id": 1244523851, "nodes": [11568629691, 11568629692, 11568629690, 11568629689, 11568629691], "tags": {"amenity": "cafe", "building": "yes", "cuisine": "coffee_shop", "name": "Kaffeine", "outdoor_seating": "yes", "takeaway": "yes", "toilets": "yes"}}, {"type": "way", "id": 1361246671, "nodes": [12601768826, 12601768827, 12601768828, 12601768829, 12601768830, 12601768831, 12601768826], "tags": {"amenity": "restaurant", "building": "yes", "name": "Good Heart"}}]}