{"version": 0.6, "generator": "Overpass API 0.7.62.7 375dc00a", "osm3s": {"timestamp_osm_base": "2025-06-14T13:52:30Z", "copyright": "The data included in this document is from www.openstreetmap.org. The data is made available under ODbL."}, "elements": [{"type": "node", "id": 2080906767, "lat": 12.1148718, "lon": 15.0359212}, {"type": "node", "id": 2080906768, "lat": 12.1149001, "lon": 15.036046}, {"type": "node", "id": 2080906772, "lat": 12.1151902, "lon": 15.0358455}, {"type": "node", "id": 2080906774, "lat": 12.1152185, "lon": 15.0359703}, {"type": "node", "id": 2163877061, "lat": 12.1242857, "lon": 15.0323163, "tags": {"addr:city": "\u0627\u0646\u062c\u0645\u064a\u0646\u0627", "amenity": "restaurant", "cuisine": "lebanese", "internet_access": "yes", "microbrewery": "yes", "name": "Layalina \u0644\u064a\u0627\u0644\u064a\u0646\u0627", "name:ar": "\u0644\u064a\u0627\u0644\u064a\u0646\u0627", "name:en": "Layalina", "name:fr": "Layalina", "opening_hours": "24/7", "smoking": "yes", "wheelchair": "no"}}, {"type": "node", "id": 2163877387, "lat": 12.1241937, "lon": 15.0324159}, {"type": "node", "id": 2163877391, "lat": 12.1242105, "lon": 15.0321975}, {"type": "node", "id": 2163877404, "lat": 12.1243393, "lon": 15.0324277}, {"type": "node", "id": 2163877406, "lat": 12.1243561, "lon": 15.0322092}, {"type": "node", "id": 2165143919, "lat": 12.1189481, "lon": 15.036261, "tags": {"amenity": "cafe", "cuisine": "ice_cream", "internet_access": "wlan", "internet_access:fee": "yes", "name": "Karikou Amba", "opening_hours": "Mo-Fr 08:30-20:00", "smoking": "yes", "wheelchair": "yes"}}, {"type": "node", "id": 2166656952, "lat": 12.1191373, "lon": 15.0364496}, {"type": "node", "id": 2166656956, "lat": 12.1191893, "lon": 15.036559}, {"type": "node", "id": 2166656968, "lat": 12.1192763, "lon": 15.0364149}, {"type": "node", "id": 2166656970, "lat": 12.1193063, "lon": 15.0365283}, {"type": "node", "id": 2166656987, "lat": 12.1194185, "lon": 15.0353804}, {"type": "node", "id": 2199391951, "lat": 12.1135648, "lon": 15.0383633, "tags": {"addr:city": "\u0627\u0646\u062c\u0645\u064a\u0646\u0627", "amenity": "restaurant", "denomination": "sunni", "name": "Madregal \u0645\u0627\u062f\u0631\u063a\u0627\u0644", "name:ar": "\u0645\u0627\u062f\u0631\u063a\u0627\u0644", "name:fr": "Madregal", "opening_hours": "24/7", "religion": "muslim", "tourism": "hotel"}}, {"type": "node", "id": 2370366472, "lat": 12.1213371, "lon": 15.0247917}, {"type": "node", "id": 2370366473, "lat": 12.1212292, "lon": 15.0247871}, {"type": "node", "id": 2370366474, "lat": 12.1211928, "lon": 15.0251147}, {"type": "node", "id": 2370366475, "lat": 12.1213029, "lon": 15.0251286}, {"type": "node", "id": 2422158099, "lat": 12.1206609, "lon": 15.0348699}, {"type": "node", "id": 2422158120, "lat": 12.1207111, "lon": 15.0350698}, {"type": "node", "id": 2422158123, "lat": 12.1208195, "lon": 15.0348301}, {"type": "node", "id": 2422158131, "lat": 12.1207667, "lon": 15.0350439}, {"type": "node", "id": 2422158145, "lat": 12.1208679, "lon": 15.0350199}, {"type": "node", "id": 2422158156, "lat": 12.1208811, "lon": 15.0351802}, {"type": "node", "id": 2422158160, "lat": 12.1209069, "lon": 15.0351265}, {"type": "node", "id": 2538488356, "lat": 12.1144318, "lon": 15.0429355}, {"type": "node", "id": 2538488360, "lat": 12.114505, "lon": 15.0428118}, {"type": "node", "id": 2538488365, "lat": 12.1145417, "lon": 15.0430036}, {"type": "node", "id": 2538488368, "lat": 12.1146149, "lon": 15.0428799}, {"type": "node", "id": 2540310695, "lat": 12.113361, "lon": 15.0429642}, {"type": "node", "id": 2540310696, "lat": 12.1133961, "lon": 15.0429067}, {"type": "node", "id": 2540310698, "lat": 12.1134414, "lon": 15.0430156}, {"type": "node", "id": 2540310700, "lat": 12.1134737, "lon": 15.0430122}, {"type": "node", "id": 2540310702, "lat": 12.1134765, "lon": 15.0429581}, {"type": "node", "id": 2540310706, "lat": 12.1135139, "lon": 15.0432269}, {"type": "node", "id": 2540310708, "lat": 12.1135457, "lon": 15.0429981}, {"type": "node", "id": 2540310710, "lat": 12.1135859, "lon": 15.0432128}, {"type": "node", "id": 2579814565, "lat": 12.1247371, "lon": 15.0345776, "tags": {"amenity": "restaurant", "internet_access": "yes", "name": "Le Resto"}}, {"type": "node", "id": 2587913980, "lat": 12.1158099, "lon": 15.0370516, "tags": {"amenity": "restaurant", "cuisine": "senegalese", "name": "La Terranga"}}, {"type": "node", "id": 2589268608, "lat": 12.1185159, "lon": 15.0367667, "tags": {"amenity": "restaurant", "cuisine": "lebanese", "name": "Ali Baba"}}, {"type": "node", "id": 2589310257, "lat": 12.1177624, "lon": 15.0368341, "tags": {"addr:city": "\u0627\u0646\u062c\u0645\u064a\u0646\u0627", "amenity": "cafe", "name": "Salon de Th\u00e9 \u0645\u0642\u0647\u0649 \u0634\u0627\u064a", "name:ar": "\u0645\u0642\u0647\u0649 \u0634\u0627\u064a", "name:fr": "Salon de Th\u00e9", "phone": "666569168", "source": "bing"}}, {"type": "node", "id": 2596966998, "lat": 12.1191454, "lon": 15.0364928}, {"type": "node", "id": 2596966999, "lat": 12.1191731, "lon": 15.0364901}, {"type": "node", "id": 2653804668, "lat": 12.1189203, "lon": 15.0250792}, {"type": "node", "id": 2653804671, "lat": 12.1189324, "lon": 15.0248416}, {"type": "node", "id": 2653804707, "lat": 12.1191454, "lon": 15.0250911}, {"type": "node", "id": 2653804708, "lat": 12.1191575, "lon": 15.0248535}, {"type": "node", "id": 2844362330, "lat": 12.1189271, "lon": 15.024946}, {"type": "node", "id": 2885478771, "lat": 12.1220322, "lon": 15.026391}, {"type": "node", "id": 2885478772, "lat": 12.1219432, "lon": 15.0263864}, {"type": "node", "id": 2885478773, "lat": 12.1219523, "lon": 15.0262673}, {"type": "node", "id": 2885478774, "lat": 12.1218656, "lon": 15.0262603}, {"type": "node", "id": 2885478775, "lat": 12.1218793, "lon": 15.0261202}, {"type": "node", "id": 2885478776, "lat": 12.1219455, "lon": 15.0261248}, {"type": "node", "id": 2885478777, "lat": 12.12195, "lon": 15.0260968}, {"type": "node", "id": 2885478778, "lat": 12.1220505, "lon": 15.0261038}, {"type": "node", "id": 2885478779, "lat": 12.1220482, "lon": 15.0261435}, {"type": "node", "id": 2885478780, "lat": 12.1221075, "lon": 15.0261482}, {"type": "node", "id": 2885478781, "lat": 12.1221464, "lon": 15.0261669}, {"type": "node", "id": 2885478782, "lat": 12.1221669, "lon": 15.0262112}, {"type": "node", "id": 2885478783, "lat": 12.1221555, "lon": 15.0262533}, {"type": "node", "id": 2885478784, "lat": 12.1221327, "lon": 15.026279}, {"type": "node", "id": 2885478785, "lat": 12.1220938, "lon": 15.026279}, {"type": "node", "id": 2885478786, "lat": 12.1220413, "lon": 15.0262743}, {"type": "node", "id": 2886645944, "lat": 12.120498, "lon": 15.0295199}, {"type": "node", "id": 2886645945, "lat": 12.1203813, "lon": 15.029522}, {"type": "node", "id": 2886645946, "lat": 12.120396, "lon": 15.0293675}, {"type": "node", "id": 2886645947, "lat": 12.1204954, "lon": 15.0293718}, {"type": "node", "id": 2886645948, "lat": 12.120379, "lon": 15.0294533}, {"type": "node", "id": 2886645949, "lat": 12.1203606, "lon": 15.0294533}, {"type": "node", "id": 2886645950, "lat": 12.1203082, "lon": 15.0294734}, {"type": "node", "id": 2886645951, "lat": 12.1202243, "lon": 15.0293916}, {"type": "node", "id": 2886645952, "lat": 12.1203488, "lon": 15.0295431}, {"type": "node", "id": 2886645953, "lat": 12.1203056, "lon": 15.0295713}, {"type": "node", "id": 2886645954, "lat": 12.1202269, "lon": 15.0293125}, {"type": "node", "id": 2886645955, "lat": 12.1203069, "lon": 15.0293165}, {"type": "node", "id": 2886645956, "lat": 12.1203305, "lon": 15.0293487}, {"type": "node", "id": 2886645957, "lat": 12.1203764, "lon": 15.0293259}, {"type": "node", "id": 3095684013, "lat": 12.1174428, "lon": 15.0364971, "tags": {"amenity": "restaurant", "cuisine": "europeean_food", "name": "C\u00f4t\u00e9 Jardin"}}, {"type": "node", "id": 3191746419, "lat": 12.1092005, "lon": 15.0445297, "tags": {"amenity": "restaurant", "name": "Tchadiana Go\u00fbt"}}, {"type": "node", "id": 3589608099, "lat": 12.1172466, "lon": 15.0365461, "tags": {"amenity": "restaurant", "cuisine": "pizza", "name": "Au bout des doigts"}}, {"type": "node", "id": 3589608105, "lat": 12.1194914, "lon": 15.0356442}, {"type": "node", "id": 3589608107, "lat": 12.1192497, "lon": 15.0356929}, {"type": "node", "id": 3589608108, "lat": 12.1194397, "lon": 15.0353761}, {"type": "node", "id": 3589608109, "lat": 12.1193042, "lon": 15.0354034}, {"type": "node", "id": 3589608110, "lat": 12.1193118, "lon": 15.035443}, {"type": "node", "id": 3589608111, "lat": 12.1194151, "lon": 15.0354221}, {"type": "node", "id": 3589608112, "lat": 12.1194495, "lon": 15.0356003}, {"type": "node", "id": 3589608113, "lat": 12.1193592, "lon": 15.0356185}, {"type": "node", "id": 3589608114, "lat": 12.1193319, "lon": 15.0354769}, {"type": "node", "id": 3589608115, "lat": 12.1192127, "lon": 15.0355009}, {"type": "node", "id": 3997990146, "lat": 12.126036, "lon": 14.9915568, "tags": {"addr:city": "\u0627\u0646\u062c\u0645\u064a\u0646\u0627", "amenity": "cafe", "name": "\u0645\u0627\u0643\u064a \u0627\u0644\u0645\u062c\u0627\u0648\u0631 Maquis d'\u00e0 c\u00f4t\u00e9", "name:ar": "\u0645\u0627\u0643\u064a \u0627\u0644\u0645\u062c\u0627\u0648\u0631", "name:fr": "Maquis d'\u00e0 c\u00f4t\u00e9"}}, {"type": "node", "id": 4021955177, "lat": 12.0708001, "lon": 15.0341585}, {"type": "node", "id": 4021955193, "lat": 12.0708093, "lon": 15.0342323}, {"type": "node", "id": 4021955247, "lat": 12.0708441, "lon": 15.0341528}, {"type": "node", "id": 4021955267, "lat": 12.0708533, "lon": 15.0342266}, {"type": "node", "id": 4132773398, "lat": 12.1111703, "lon": 15.0390635, "tags": {"amenity": "restaurant", "name": "La Place", "name:fr": "La Place"}}, {"type": "node", "id": 4161566797, "lat": 12.0906355, "lon": 15.002599}, {"type": "node", "id": 4161566798, "lat": 12.0906552, "lon": 15.0026554}, {"type": "node", "id": 4161566799, "lat": 12.0906754, "lon": 15.0025845}, {"type": "node", "id": 4161566800, "lat": 12.090695, "lon": 15.0026408}, {"type": "node", "id": 4443881489, "lat": 12.1167067, "lon": 15.0434759, "tags": {"amenity": "restaurant", "cuisine": "african;lebanese", "internet_access": "wlan", "name": "Chez Pierre", "name:fr": "Chez Pierre", "opening_hours": "24/7", "phone": "+23565556500"}}, {"type": "node", "id": 5435817773, "lat": 12.1177885, "lon": 15.034961, "tags": {"amenity": "restaurant", "name": "La belle chinoise"}}, {"type": "node", "id": 5538607021, "lat": 12.1176922, "lon": 15.0348179, "tags": {"amenity": "restaurant", "name": "La belle chinoise"}}, {"type": "node", "id": 5595008591, "lat": 12.1114711, "lon": 15.0446318, "tags": {"amenity": "restaurant", "name": "Dambajodya"}}, {"type": "node", "id": 5757094821, "lat": 12.1294821, "lon": 15.0374814, "tags": {"amenity": "restaurant", "name": "Va et vient"}}, {"type": "node", "id": 7184363595, "lat": 12.1114801, "lon": 15.0452491, "tags": {"amenity": "restaurant", "name": "Resto s\u00e9n\u00e9galais Borom Porokhane"}}, {"type": "node", "id": 7313130186, "lat": 12.1094082, "lon": 15.042474, "tags": {"amenity": "cafe", "name": "Cyber neighbor of cyclo"}}, {"type": "node", "id": 11670135469, "lat": 12.1343491, "lon": 15.0362988, "tags": {"addr:street": "moursal avenue kondon", "amenity": "restaurant", "name": "Restaurant Youpougan"}}, {"type": "way", "id": 197892324, "nodes": [2080906767, 2080906772, 2080906774, 2080906768, 2080906767], "tags": {"amenity": "cafe", "building": "yes", "cuisine": "regional;pastry", "name": "La Marquise", "source": "bing"}}, {"type": "way", "id": 206380787, "nodes": [2163877406, 2163877404, 2163877387, 2163877391, 2163877406], "tags": {"amenity": "restaurant", "building": "yes"}}, {"type": "way", "id": 206629954, "nodes": [2166656968, 2166656970, 2166656956, 2596966999, 2596966998, 2166656952, 2166656968], "tags": {"addr:city": "N'Djam\u00e9na", "addr:street": "Rue du Havre", "amenity": "cafe", "building": "yes", "cuisine": "regional", "name": "L'amandine"}}, {"type": "way", "id": 228359793, "nodes": [2370366472, 2370366473, 2370366474, 2370366475, 2370366472], "tags": {"addr:city": "\u0627\u0646\u062c\u0645\u064a\u0646\u0627", "addr:street": "\u0632\u0646\u0642\u0629 \u0628\u0631\u0648\u0633\u064a\u062a", "amenity": "restaurant", "building": "yes", "cuisine": "camel", "name": "Grillades (viande de dromadaire) / \u0627\u0644\u0644\u062d\u0648\u0645 \u0627\u0644\u0645\u0634\u0648\u064a\u0629 (\u0644\u062d\u0645 \u0627\u0644\u0625\u0628\u0644)", "name:ar": "\u0627\u0644\u0644\u062d\u0648\u0645 \u0627\u0644\u0645\u0634\u0648\u064a\u0629 (\u0644\u062d\u0645 \u0627\u0644\u0625\u0628\u0644)", "name:fr": "Grillades (viande de dromadaire)"}}, {"type": "way", "id": 233898957, "nodes": [2422158145, 2422158131, 2422158160, 2422158156, 2422158120, 2422158099, 2422158123, 2422158145], "tags": {"air_conditioning": "yes", "amenity": "restaurant", "bar": "yes", "brewery": "yes", "building": "yes", "contact:facebook": "https://www.facebook.com/zenzibar235", "cuisine": "chinese;japanese", "delivery": "yes", "description": "Your Chinese and Japanese Restaurant in Ndjamena. Dine-in, take away or delivery.", "diet:fish": "yes", "diet:halal": "yes", "diet:healthy": "yes", "diet:meat": "yes", "diet:vegan": "yes", "diet:vegetarian": "yes", "internet_access": "wlan", "name": "ZENZIBAR", "opening_hours": "Mo-Su 08:00-22:00", "outdoor_seating": "yes", "phone": "+235 69 00 70 00", "source": "bing", "sport": "billiards;darts", "takeaway": "yes", "website": "https://chat.whatsapp.com/JxJOCLa42kjAo9iwwVN7bI", "website:menu": "https://chat.whatsapp.com/JxJOCLa42kjAo9iwwVN7bI"}}, {"type": "way", "id": 246874476, "nodes": [2538488368, 2538488365, 2538488356, 2538488360, 2538488368], "tags": {"amenity": "restaurant", "building": "yes", "capacity": "50", "cuisine": "Erythr\u00e9en", "name": "Asmara", "smoking": "yes", "source": "Bing", "source:date": "02/08/2013"}}, {"type": "way", "id": 247093649, "nodes": [2540310708, 2540310710, 2540310706, 2540310700, 2540310708], "tags": {"addr:city": "\u0627\u0646\u062c\u0645\u064a\u0646\u0627", "addr:street": "\u0632\u0646\u0642\u0629 \u0663\u0660\u0661\u0667", "amenity": "restaurant", "building": "yes", "cuisine": "regional", "source": "bing"}}, {"type": "way", "id": 247093656, "nodes": [2540310696, 2540310702, 2540310698, 2540310695, 2540310696], "tags": {"addr:city": "\u0627\u0646\u062c\u0645\u064a\u0646\u0627", "addr:street": "\u0632\u0646\u0642\u0629 \u0663\u0660\u0661\u0667", "amenity": "restaurant", "building": "yes", "cuisine": "regional", "source": "bing"}}, {"type": "way", "id": 259919544, "nodes": [2653804708, 2653804707, 2653804668, 2844362330, 2653804671, 2653804708], "tags": {"addr:city": "\u0627\u0646\u062c\u0645\u064a\u0646\u0627", "amenity": "restaurant", "building": "yes", "cuisine": "occidentale", "name": "novotel \u0646\u0648\u0641\u0648\u062a\u064a\u0644", "name:ar": "\u0646\u0648\u0641\u0648\u062a\u064a\u0644", "name:fr": "novotel", "source": "Bing", "source:date": "04/02/2014"}}, {"type": "way", "id": 284840825, "nodes": [2885478771, 2885478772, 2885478773, 2885478774, 2885478775, 2885478776, 2885478777, 2885478778, 2885478779, 2885478780, 2885478781, 2885478782, 2885478783, 2885478784, 2885478785, 2885478786, 2885478771], "tags": {"addr:city": "\u0627\u0646\u062c\u0645\u064a\u0646\u0627", "amenity": "restaurant", "building": "yes", "name": "Cit\u00e9 Lamy \u062d\u064a \u0644\u0627\u0645\u064a", "name:ar": "\u062d\u064a \u0644\u0627\u0645\u064a", "name:fr": "Cit\u00e9 Lamy"}}, {"type": "way", "id": 284961749, "nodes": [2886645944, 2886645945, 2886645948, 2886645949, 2886645950, 2886645952, 2886645953, 2886645951, 2886645954, 2886645955, 2886645956, 2886645957, 2886645946, 2886645947, 2886645944], "tags": {"addr:city": "\u0627\u0646\u062c\u0645\u064a\u0646\u0627", "alt_name:ar": "\u0644\u0627 \u063a\u064a\u062a\u0627\u0646", "amenity": "restaurant", "building": "yes", "cuisine": "pizza", "name": "la Gitane \u0627\u0644\u063a\u062c\u0631", "name:ar": "\u0627\u0644\u063a\u062c\u0631", "name:fr": "la Gitane"}}, {"type": "way", "id": 353199278, "nodes": [3589608107, 3589608105, 3589608108, 2166656987, 3589608109, 3589608110, 3589608111, 3589608112, 3589608113, 3589608114, 3589608115, 3589608107], "tags": {"amenity": "restaurant", "building": "yes", "name": "Le central"}}, {"type": "way", "id": 399452019, "nodes": [4021955177, 4021955247, 4021955267, 4021955193, 4021955177], "tags": {"amenity": "restaurant", "building": "yes"}}, {"type": "way", "id": 415082214, "nodes": [4161566797, 4161566799, 4161566800, 4161566798, 4161566797], "tags": {"amenity": "restaurant", "building": "yes", "name": "Bonbon bar plus"}}]}