{"version": 0.6, "generator": "Overpass API 0.7.62.7 375dc00a", "osm3s": {"timestamp_osm_base": "2025-06-14T13:59:38Z", "copyright": "The data included in this document is from www.openstreetmap.org. The data is made available under ODbL."}, "elements": [{"type": "node", "id": 1258188811, "lat": 39.0663796, "lon": 17.1312449}, {"type": "node", "id": 1258188933, "lat": 39.0662984, "lon": 17.1312721}, {"type": "node", "id": 1258189778, "lat": 39.0662774, "lon": 17.1311683}, {"type": "node", "id": 1258190783, "lat": 39.0663586, "lon": 17.131141}, {"type": "node", "id": 1258297044, "lat": 39.0735201, "lon": 17.1298378}, {"type": "node", "id": 1258297085, "lat": 39.0735197, "lon": 17.1299702}, {"type": "node", "id": 1258297351, "lat": 39.0733448, "lon": 17.1298344}, {"type": "node", "id": 1258297663, "lat": 39.0732591, "lon": 17.1299802}, {"type": "node", "id": 1258297912, "lat": 39.0733448, "lon": 17.1297991}, {"type": "node", "id": 1258297919, "lat": 39.0732602, "lon": 17.1297964}, {"type": "node", "id": 1260790257, "lat": 39.0781372, "lon": 17.137353}, {"type": "node", "id": 1260790287, "lat": 39.0780964, "lon": 17.1374016}, {"type": "node", "id": 1260790316, "lat": 39.0780475, "lon": 17.137228}, {"type": "node", "id": 1260790338, "lat": 39.0780067, "lon": 17.1372766}, {"type": "node", "id": 1281618279, "lat": 39.0836549, "lon": 17.1258905}, {"type": "node", "id": 1281618281, "lat": 39.0836166, "lon": 17.1258144}, {"type": "node", "id": 1281618395, "lat": 39.0836969, "lon": 17.1258555}, {"type": "node", "id": 1281618437, "lat": 39.0836587, "lon": 17.1257794}, {"type": "node", "id": 1283372822, "lat": 39.0784138, "lon": 17.1331411}, {"type": "node", "id": 1283372845, "lat": 39.0784698, "lon": 17.1330693}, {"type": "node", "id": 1283372861, "lat": 39.0785698, "lon": 17.133343}, {"type": "node", "id": 1283372938, "lat": 39.0786258, "lon": 17.1332712}, {"type": "node", "id": 1306971909, "lat": 39.0685637, "lon": 17.1305001, "tags": {"amenity": "restaurant", "cuisine": "pizza", "name": "Solero"}}, {"type": "node", "id": 1306971947, "lat": 39.0804952, "lon": 17.1257515, "tags": {"amenity": "restaurant", "cuisine": "pizza", "name": "Pizzeria Italia"}}, {"type": "node", "id": 1306971955, "lat": 39.0772157, "lon": 17.1315301, "tags": {"alt_name": "Da Giancarlo", "amenity": "restaurant", "cuisine": "pizza", "name": "La Gola"}}, {"type": "node", "id": 1306971998, "lat": 39.0752949, "lon": 17.1299524, "tags": {"amenity": "restaurant", "cuisine": "fish", "name": "Piper"}}, {"type": "node", "id": 1306972003, "lat": 39.0688538, "lon": 17.1288846, "tags": {"amenity": "cafe", "cuisine": "italian", "name": "Tiramis\u00f9"}}, {"type": "node", "id": 1306972004, "lat": 39.071554, "lon": 17.1283704, "tags": {"amenity": "restaurant", "cuisine": "italian", "name": "Briz\u00f2"}}, {"type": "node", "id": 1306972006, "lat": 39.0682432, "lon": 17.1305588, "tags": {"amenity": "restaurant", "cuisine": "pizza", "gazebo": "yes", "name": "Mea Culpa"}}, {"type": "node", "id": 1306972015, "lat": 39.0799705, "lon": 17.1255421, "tags": {"amenity": "cafe", "cuisine": "coffee_shop", "name": "Punto d'Incontro"}}, {"type": "node", "id": 1306972029, "lat": 39.0801995, "lon": 17.1257204, "tags": {"amenity": "restaurant", "cuisine": "regional", "gazebo": "yes", "name": "Zz\u00e0 Ros\u00ec"}}, {"type": "node", "id": 1306972043, "lat": 39.0795082, "lon": 17.1265774, "tags": {"amenity": "cafe", "cuisine": "coffee_shop", "name": "La Dolceria"}}, {"type": "node", "id": 1306972044, "lat": 39.0740262, "lon": 17.128126, "tags": {"amenity": "cafe", "name": "Sacher"}}, {"type": "node", "id": 1306972056, "lat": 39.0799288, "lon": 17.1268282, "tags": {"amenity": "restaurant", "gazebo": "yes", "name": "Marcellino pane e vino"}}, {"type": "node", "id": 1306972093, "lat": 39.0782797, "lon": 17.132504, "tags": {"amenity": "restaurant", "cuisine": "italian", "gazebo": "yes", "name": "Mamma Mia"}}, {"type": "node", "id": 1306972120, "lat": 39.0733588, "lon": 17.127635, "tags": {"amenity": "cafe", "name": "Federico"}}, {"type": "node", "id": 1306972125, "lat": 39.0729453, "lon": 17.1295188, "tags": {"amenity": "restaurant", "cuisine": "regional", "name": "Da Ercole"}}, {"type": "node", "id": 1307004763, "lat": 39.0796962, "lon": 17.1278788, "tags": {"amenity": "restaurant", "cuisine": "italian", "name": "Le Scalette"}}, {"type": "node", "id": 1307004767, "lat": 39.0817008, "lon": 17.1264642, "tags": {"amenity": "cafe", "cuisine": "coffee_shop", "name": "La Siciliana II"}}, {"type": "node", "id": 1307004774, "lat": 39.0804209, "lon": 17.123277, "tags": {"amenity": "restaurant", "cuisine": "italian", "name": "Le Rose"}}, {"type": "node", "id": 1307004778, "lat": 39.0770991, "lon": 17.1271929, "tags": {"amenity": "cafe", "cuisine": "coffee_shop", "name": "Golden Bar"}}, {"type": "node", "id": 1307004779, "lat": 39.0787347, "lon": 17.129277, "tags": {"amenity": "cafe", "name": "Nick Bar"}}, {"type": "node", "id": 1307004780, "lat": 39.0822019, "lon": 17.1235257, "tags": {"amenity": "restaurant", "cuisine": "italian", "name": "Bag\u00f2"}}, {"type": "node", "id": 1307004805, "lat": 39.0813217, "lon": 17.1241889, "tags": {"amenity": "restaurant", "cuisine": "regional", "name": "Da Zio Emilio"}}, {"type": "node", "id": 1307004810, "lat": 39.0810677, "lon": 17.1254281, "tags": {"amenity": "cafe", "cuisine": "italian", "gazebo": "yes", "name": "Scerra e Palermo"}}, {"type": "node", "id": 1307004814, "lat": 39.0781498, "lon": 17.1269812, "tags": {"amenity": "cafe", "cuisine": "coffee_shop", "name": "Queen Caf\u00e9"}}, {"type": "node", "id": 1307004816, "lat": 39.0807187, "lon": 17.1286285, "tags": {"amenity": "cafe", "name": "L'Olimpo"}}, {"type": "node", "id": 1307004817, "lat": 39.0780465, "lon": 17.1313772, "tags": {"amenity": "cafe", "cuisine": "regional", "gazebo": "yes", "name": "Bar Morelli"}}, {"type": "node", "id": 1307017478, "lat": 39.0783235, "lon": 17.1260584, "tags": {"amenity": "cafe", "cuisine": "coffee_shop", "name": "Bar Lux"}}, {"type": "node", "id": 1307017535, "lat": 39.0782243, "lon": 17.1206766, "tags": {"amenity": "cafe", "name": "Nicoletta"}}, {"type": "node", "id": 1307017567, "lat": 39.0786838, "lon": 17.118866, "tags": {"amenity": "cafe", "name": "Aladin"}}, {"type": "node", "id": 1307017571, "lat": 39.0789221, "lon": 17.1204244, "tags": {"amenity": "cafe", "name": "Junior"}}, {"type": "node", "id": 1307017583, "lat": 39.0787431, "lon": 17.1253702, "tags": {"amenity": "restaurant", "cuisine": "pizza", "name": "Spacca Napoli"}}, {"type": "node", "id": 1307017601, "lat": 39.0809381, "lon": 17.1192371, "tags": {"amenity": "cafe", "name": "Saint Honor\u00e8", "opening_hours": "PH,Mo-Sa 06:30-19:00"}}, {"type": "node", "id": 1307017620, "lat": 39.0777998, "lon": 17.1212639, "tags": {"amenity": "cafe"}}, {"type": "node", "id": 1307017670, "lat": 39.0824094, "lon": 17.1213255, "tags": {"amenity": "cafe", "name": "Bar Morris"}}, {"type": "node", "id": 1307017672, "lat": 39.0807171, "lon": 17.1276618, "tags": {"amenity": "restaurant", "cuisine": "regional", "name": "Ara Gghjazza"}}, {"type": "node", "id": 1307017677, "lat": 39.0784259, "lon": 17.1225433, "tags": {"amenity": "cafe", "name": "Chicco d'Oro"}}, {"type": "node", "id": 1307017696, "lat": 39.0783497, "lon": 17.1301997, "tags": {"amenity": "cafe", "cuisine": "coffee_shop", "name": "Bar dello Sport"}}, {"type": "node", "id": 1307017725, "lat": 39.07853, "lon": 17.1228419, "tags": {"amenity": "cafe", "name": "Bar Kroton"}}, {"type": "node", "id": 1307017781, "lat": 39.0778862, "lon": 17.119766, "tags": {"amenity": "cafe", "name": "Bar Torino"}}, {"type": "node", "id": 1307031638, "lat": 39.0827649, "lon": 17.1179353, "tags": {"amenity": "cafe", "cuisine": "coffee_shop"}}, {"type": "node", "id": 1307031660, "lat": 39.0833163, "lon": 17.1184731, "tags": {"amenity": "cafe", "name": "Creme Caramel"}}, {"type": "node", "id": 1307031672, "lat": 39.0849481, "lon": 17.1144091, "tags": {"amenity": "cafe", "name": "Gerace"}}, {"type": "node", "id": 1307045645, "lat": 39.0664327, "lon": 17.1129899}, {"type": "node", "id": 1307045691, "lat": 39.0664308, "lon": 17.1128212}, {"type": "node", "id": 1307045764, "lat": 39.0665215, "lon": 17.1128196}, {"type": "node", "id": 1307045806, "lat": 39.079462, "lon": 17.1089987, "tags": {"amenity": "cafe", "name": "Scerra e Palermo"}}, {"type": "node", "id": 1307045973, "lat": 39.0763849, "lon": 17.122188, "tags": {"amenity": "cafe", "name": "Gerace"}}, {"type": "node", "id": 1307045979, "lat": 39.0665234, "lon": 17.1129882}, {"type": "node", "id": 1309982793, "lat": 39.0820552, "lon": 17.1345895, "tags": {"amenity": "cafe", "name": "Sirena Blu del Mare"}}, {"type": "node", "id": 1310731249, "lat": 39.0828974, "lon": 17.1289489, "tags": {"amenity": "restaurant", "cuisine": "regional", "name": "The Maida"}}, {"type": "node", "id": 1323434123, "lat": 38.9079389, "lon": 17.022559, "tags": {"amenity": "restaurant", "cuisine": "italian", "name": "Il Greco"}}, {"type": "node", "id": 1323434146, "lat": 38.9083951, "lon": 17.0220942, "tags": {"amenity": "cafe", "cuisine": "ice_cream", "name": "Il Pescatore"}}, {"type": "node", "id": 1323434322, "lat": 38.9078075, "lon": 17.0222855, "tags": {"addr:city": "Le Castella", "addr:housenumber": "2", "addr:postcode": "88841", "addr:street": "Via Duomo", "addr:unit": "1", "amenity": "restaurant", "name": "Salotto Aragonese", "phone": "3314683049"}}, {"type": "node", "id": 1347103591, "lat": 39.0794031, "lon": 17.1338663, "tags": {"amenity": "restaurant", "cuisine": "pizza", "name": "Lievito Madre"}}, {"type": "node", "id": 1347133461, "lat": 39.0807238, "lon": 17.118062, "tags": {"amenity": "cafe"}}, {"type": "node", "id": 1347171842, "lat": 39.0817114, "lon": 17.1355064, "tags": {"amenity": "cafe", "name": "Bar del Pescatore"}}, {"type": "node", "id": 1347608464, "lat": 39.0837583, "lon": 17.1216674, "tags": {"amenity": "cafe", "name": "Bar Sant'Antonio"}}, {"type": "node", "id": 1347630889, "lat": 39.0790952, "lon": 17.1250705, "tags": {"amenity": "cafe", "name": "Bar Excelsior"}}, {"type": "node", "id": 1349069841, "lat": 39.0569185, "lon": 17.1346894}, {"type": "node", "id": 1349069851, "lat": 39.0571935, "lon": 17.1345584}, {"type": "node", "id": 1349069876, "lat": 39.0569728, "lon": 17.1349179}, {"type": "node", "id": 1349069885, "lat": 39.0571837, "lon": 17.1345516}, {"type": "node", "id": 1349069889, "lat": 39.0571351, "lon": 17.1345462}, {"type": "node", "id": 1349069893, "lat": 39.0571606, "lon": 17.1345418}, {"type": "node", "id": 1349069900, "lat": 39.057205, "lon": 17.1346841}, {"type": "node", "id": 1349069901, "lat": 39.0572094, "lon": 17.134581, "tags": {"entrance": "main"}}, {"type": "node", "id": 1349069919, "lat": 39.057236, "lon": 17.1347535}, {"type": "node", "id": 1349069946, "lat": 39.0571723, "lon": 17.1345452}, {"type": "node", "id": 1349069952, "lat": 39.0571491, "lon": 17.1345419}, {"type": "node", "id": 1349069959, "lat": 39.0572023, "lon": 17.1345688}, {"type": "node", "id": 1349124933, "lat": 39.0817909, "lon": 17.1274429, "tags": {"amenity": "cafe", "cuisine": "regional", "name": "La Scaletta"}}, {"type": "node", "id": 1349206784, "lat": 39.0802882, "lon": 17.127784, "tags": {"amenity": "cafe", "name": "Bar Augello"}}, {"type": "node", "id": 1349208072, "lat": 39.0797303, "lon": 17.1214361, "tags": {"amenity": "cafe", "name": "Bar Lucky"}}, {"type": "node", "id": 1352954994, "lat": 39.0460297, "lon": 17.1462525}, {"type": "node", "id": 1374507720, "lat": 39.0799799, "lon": 17.1133011, "tags": {"amenity": "cafe", "gazebo": "yes", "name": "Tropical Bar"}}, {"type": "node", "id": 1407850568, "lat": 39.0792361, "lon": 17.1276338, "tags": {"amenity": "cafe", "name": "Federico"}}, {"type": "node", "id": 1435431739, "lat": 39.0817371, "lon": 17.1260534, "tags": {"amenity": "restaurant", "cuisine": "sushi", "name": "MySushi"}}, {"type": "node", "id": 1435483422, "lat": 39.0836328, "lon": 17.1132745, "tags": {"amenity": "cafe", "cuisine": "coffee_shop", "name": "Antico Caff\u00e9"}}, {"type": "node", "id": 1435483454, "lat": 39.0760872, "lon": 17.1286187, "tags": {"amenity": "cafe", "name": "I Dolci di Hera"}}, {"type": "node", "id": 1435485634, "lat": 39.0739189, "lon": 17.1281206, "tags": {"amenity": "restaurant", "cuisine": "italian", "name": "Buon Appetito"}}, {"type": "node", "id": 1435499225, "lat": 38.9353586, "lon": 17.1070065, "tags": {"amenity": "restaurant", "name": "Ruris"}}, {"type": "node", "id": 1435499272, "lat": 38.9403657, "lon": 17.1013095, "tags": {"amenity": "restaurant", "name": "10 HP"}}, {"type": "node", "id": 1459924320, "lat": 39.1159023, "lon": 17.0936352, "tags": {"amenity": "cafe", "gazebo": "yes", "name": "Akropolis"}}, {"type": "node", "id": 1459924329, "lat": 39.1147609, "lon": 17.092188, "tags": {"amenity": "cafe", "name": "Bar Passovecchio"}}, {"type": "node", "id": 1477598075, "lat": 39.0540667, "lon": 17.116334, "tags": {"amenity": "restaurant", "cuisine": "pizza"}}, {"type": "node", "id": 1529442854, "lat": 39.0626065, "lon": 17.1139076, "tags": {"amenity": "cafe", "name": "Happy Days"}}, {"type": "node", "id": 1531491906, "lat": 39.0808906, "lon": 17.1123919, "tags": {"amenity": "cafe"}}, {"type": "node", "id": 1531506533, "lat": 39.0794206, "lon": 17.1239921, "tags": {"amenity": "cafe", "name": "Green Bar"}}, {"type": "node", "id": 1545964333, "lat": 39.0835568, "lon": 17.1285358}, {"type": "node", "id": 1545964365, "lat": 39.083573, "lon": 17.1285277}, {"type": "node", "id": 1545964373, "lat": 39.0835792, "lon": 17.1285049}, {"type": "node", "id": 1545964380, "lat": 39.0835622, "lon": 17.1285602}, {"type": "node", "id": 1545964399, "lat": 39.0835584, "lon": 17.1284754}, {"type": "node", "id": 1545964405, "lat": 39.0835336, "lon": 17.1285059}, {"type": "node", "id": 1545964420, "lat": 39.0835407, "lon": 17.1284842}, {"type": "node", "id": 1545964437, "lat": 39.0835271, "lon": 17.1285071}, {"type": "node", "id": 1545964458, "lat": 39.0835409, "lon": 17.1285684}, {"type": "node", "id": 1545964497, "lat": 39.0835747, "lon": 17.1284844}, {"type": "node", "id": 1635378118, "lat": 39.0386583, "lon": 17.1592373}, {"type": "node", "id": 1635378120, "lat": 39.0386269, "lon": 17.1592402}, {"type": "node", "id": 1635378125, "lat": 39.0385754, "lon": 17.1592402}, {"type": "node", "id": 1635378127, "lat": 39.0385351, "lon": 17.1592835}, {"type": "node", "id": 1635378129, "lat": 39.0385012, "lon": 17.1594106}, {"type": "node", "id": 1635378131, "lat": 39.0385309, "lon": 17.1595172}, {"type": "node", "id": 1635378134, "lat": 39.0385943, "lon": 17.1595903}, {"type": "node", "id": 1635378138, "lat": 39.0386762, "lon": 17.1595864}, {"type": "node", "id": 1635378140, "lat": 39.0387502, "lon": 17.1595114}, {"type": "node", "id": 1635378143, "lat": 39.0387771, "lon": 17.1595172}, {"type": "node", "id": 1635378146, "lat": 39.0388017, "lon": 17.1593845}, {"type": "node", "id": 1635378147, "lat": 39.0387569, "lon": 17.1592864}, {"type": "node", "id": 1635378148, "lat": 39.0387009, "lon": 17.1592229}, {"type": "node", "id": 1635378149, "lat": 39.0386561, "lon": 17.1592085}, {"type": "node", "id": 1635430030, "lat": 39.0424173, "lon": 17.1526337}, {"type": "node", "id": 1635430031, "lat": 39.042356, "lon": 17.1527481}, {"type": "node", "id": 1635430036, "lat": 39.0425381, "lon": 17.1529097}, {"type": "node", "id": 1635430037, "lat": 39.0425994, "lon": 17.1527953}, {"type": "node", "id": 1635434494, "lat": 39.0437498, "lon": 17.1504153}, {"type": "node", "id": 1635434498, "lat": 39.0436196, "lon": 17.150624}, {"type": "node", "id": 1635434503, "lat": 39.04376, "lon": 17.1507694}, {"type": "node", "id": 1635434505, "lat": 39.0438903, "lon": 17.1505606}, {"type": "node", "id": 1636573954, "lat": 39.0822786, "lon": 17.125075, "tags": {"amenity": "cafe", "cuisine": "coffee_shop", "name": "Bar Lory"}}, {"type": "node", "id": 1636767966, "lat": 39.0773612, "lon": 17.131814}, {"type": "node", "id": 1636767967, "lat": 39.077383, "lon": 17.1318245}, {"type": "node", "id": 1636767968, "lat": 39.0773862, "lon": 17.131845}, {"type": "node", "id": 1636767969, "lat": 39.0773717, "lon": 17.1318606}, {"type": "node", "id": 1636767970, "lat": 39.0773505, "lon": 17.1318507}, {"type": "node", "id": 1636767971, "lat": 39.0773457, "lon": 17.1318283}, {"type": "node", "id": 1690252302, "lat": 39.0803119, "lon": 17.1281242, "tags": {"amenity": "cafe", "name": "Bar Mercato"}}, {"type": "node", "id": 1728772411, "lat": 38.9153292, "lon": 17.0725312, "tags": {"addr:city": "Isola di Capo Rizzuto", "addr:postcode": "88841", "addr:street": "Localit\u00e0 Capo Piccolo", "amenity": "cafe", "cuisine": "sandwich", "internet_access": "wlan", "internet_access:fee": "no", "name": "Aloha Beach", "website": "https://www.aloha-beach.it/", "wheelchair": "yes"}}, {"type": "node", "id": 1769560819, "lat": 39.1057461, "lon": 17.0998589}, {"type": "node", "id": 1769560883, "lat": 39.1056591, "lon": 17.0996589}, {"type": "node", "id": 1769560884, "lat": 39.1052711, "lon": 17.0999392}, {"type": "node", "id": 1769561111, "lat": 39.1053581, "lon": 17.1001392}, {"type": "node", "id": 1772586858, "lat": 39.0553502, "lon": 17.1376649}, {"type": "node", "id": 1772586877, "lat": 39.055355, "lon": 17.1376266}, {"type": "node", "id": 1772586892, "lat": 39.0552881, "lon": 17.1379166}, {"type": "node", "id": 1772586904, "lat": 39.0551152, "lon": 17.1378467}, {"type": "node", "id": 1772586911, "lat": 39.0552632, "lon": 17.1375497}, {"type": "node", "id": 1772586933, "lat": 39.0550812, "lon": 17.1377257}, {"type": "node", "id": 1772586937, "lat": 39.0552749, "lon": 17.1375457}, {"type": "node", "id": 1772586942, "lat": 39.0551072, "lon": 17.1377036}, {"type": "node", "id": 1772586950, "lat": 39.0551324, "lon": 17.1378312}, {"type": "node", "id": 1772586959, "lat": 39.0551959, "lon": 17.138007}, {"type": "node", "id": 1772586963, "lat": 39.0553677, "lon": 17.1377097}, {"type": "node", "id": 1772586966, "lat": 39.05524, "lon": 17.1375034}, {"type": "node", "id": 1772587006, "lat": 39.0550724, "lon": 17.1376267}, {"type": "node", "id": 1772644802, "lat": 39.046288, "lon": 17.1463564}, {"type": "node", "id": 1772644804, "lat": 39.0463432, "lon": 17.145958}, {"type": "node", "id": 1772644812, "lat": 39.0460995, "lon": 17.1463778}, {"type": "node", "id": 1772644816, "lat": 39.0463942, "lon": 17.1460519}, {"type": "node", "id": 1772644847, "lat": 39.0460651, "lon": 17.1463362}, {"type": "node", "id": 1772644848, "lat": 39.046087, "lon": 17.1463188}, {"type": "node", "id": 1772644849, "lat": 39.0461055, "lon": 17.1463641}, {"type": "node", "id": 1772644858, "lat": 39.0461693, "lon": 17.1464247}, {"type": "node", "id": 1772644865, "lat": 39.0461974, "lon": 17.1462035}, {"type": "node", "id": 1772644879, "lat": 39.0461044, "lon": 17.146399}, {"type": "node", "id": 1772644882, "lat": 39.0460505, "lon": 17.1462129}, {"type": "node", "id": 1772644889, "lat": 39.0461536, "lon": 17.146115}, {"type": "node", "id": 1772644893, "lat": 39.0461359, "lon": 17.1463926}, {"type": "node", "id": 1814624149, "lat": 39.0504014, "lon": 17.1411562}, {"type": "node", "id": 1814624691, "lat": 39.0503171, "lon": 17.1413038}, {"type": "node", "id": 1835844948, "lat": 39.0733611, "lon": 17.128804, "tags": {"amenity": "restaurant", "cuisine": "regional", "name": "La Figlia di Annibale"}}, {"type": "node", "id": 1887125994, "lat": 39.0877498, "lon": 17.1061553}, {"type": "node", "id": 1887126020, "lat": 39.0877999, "lon": 17.105998}, {"type": "node", "id": 1887126053, "lat": 39.0878263, "lon": 17.1061298}, {"type": "node", "id": 1887126056, "lat": 39.0878313, "lon": 17.1059875}, {"type": "node", "id": 1887126066, "lat": 39.0875572, "lon": 17.1058794}, {"type": "node", "id": 1887126090, "lat": 39.087657, "lon": 17.106238}, {"type": "node", "id": 1887126100, "lat": 39.0877889, "lon": 17.1063502}, {"type": "node", "id": 1887126102, "lat": 39.0876863, "lon": 17.1063843}, {"type": "node", "id": 1887126133, "lat": 39.0877939, "lon": 17.1058007}, {"type": "node", "id": 1887126136, "lat": 39.0876308, "lon": 17.1062467}, {"type": "node", "id": 1890243282, "lat": 39.0243157, "lon": 17.1882299}, {"type": "node", "id": 1890243593, "lat": 39.0242949, "lon": 17.1878123}, {"type": "node", "id": 1890243597, "lat": 39.0242154, "lon": 17.1881954}, {"type": "node", "id": 1890243631, "lat": 39.0243952, "lon": 17.1878468}, {"type": "node", "id": 1890268941, "lat": 39.0168184, "lon": 17.1581741}, {"type": "node", "id": 1890268960, "lat": 39.0169703, "lon": 17.157836}, {"type": "node", "id": 1890269000, "lat": 39.0167684, "lon": 17.1582304}, {"type": "node", "id": 1890269002, "lat": 39.0170051, "lon": 17.1578768}, {"type": "node", "id": 1890269013, "lat": 39.0169298, "lon": 17.1577886}, {"type": "node", "id": 1890269026, "lat": 39.0169947, "lon": 17.1578047}, {"type": "node", "id": 1890269037, "lat": 39.0166788, "lon": 17.1581097}, {"type": "node", "id": 1890269050, "lat": 39.017028, "lon": 17.1578449}, {"type": "node", "id": 1890269051, "lat": 39.017116, "lon": 17.1580188}, {"type": "node", "id": 1890269052, "lat": 39.0169164, "lon": 17.1582868}, {"type": "node", "id": 1904385161, "lat": 39.08272, "lon": 17.1246819}, {"type": "node", "id": 1904385166, "lat": 39.082659, "lon": 17.1246706}, {"type": "node", "id": 1904385167, "lat": 39.0825735, "lon": 17.1246545}, {"type": "node", "id": 1904385232, "lat": 39.0825891, "lon": 17.1245287}, {"type": "node", "id": 1904385243, "lat": 39.0827354, "lon": 17.1245577}, {"type": "node", "id": 1912962895, "lat": 39.0534024, "lon": 17.1391928}, {"type": "node", "id": 1912962924, "lat": 39.0535365, "lon": 17.1388673}, {"type": "node", "id": 1912962962, "lat": 39.0533307, "lon": 17.1390749}, {"type": "node", "id": 1912970202, "lat": 39.0243892, "lon": 17.1657996}, {"type": "node", "id": 1912970249, "lat": 39.0244975, "lon": 17.165628}, {"type": "node", "id": 1912970310, "lat": 39.0239328, "lon": 17.1654107}, {"type": "node", "id": 1912970316, "lat": 39.0245017, "lon": 17.1657191}, {"type": "node", "id": 1912970334, "lat": 39.023912, "lon": 17.1656548}, {"type": "node", "id": 1912970382, "lat": 39.0243829, "lon": 17.1656226}, {"type": "node", "id": 1912970388, "lat": 39.0243934, "lon": 17.1657299}, {"type": "node", "id": 1912970396, "lat": 39.0242225, "lon": 17.1655824}, {"type": "node", "id": 1912970398, "lat": 39.0241829, "lon": 17.165754}, {"type": "node", "id": 1912970408, "lat": 39.0240829, "lon": 17.1655073}, {"type": "node", "id": 1912972256, "lat": 39.0278182, "lon": 17.1724653}, {"type": "node", "id": 1912972258, "lat": 39.0277814, "lon": 17.1725051}, {"type": "node", "id": 1912972260, "lat": 39.0278127, "lon": 17.1732669}, {"type": "node", "id": 1912972271, "lat": 39.0279287, "lon": 17.1728274}, {"type": "node", "id": 1912972274, "lat": 39.0280544, "lon": 17.1727304}, {"type": "node", "id": 1912972285, "lat": 39.0279544, "lon": 17.1726339}, {"type": "node", "id": 1912972290, "lat": 39.0281266, "lon": 17.1723419}, {"type": "node", "id": 1912972292, "lat": 39.0282099, "lon": 17.1722802}, {"type": "node", "id": 1912972294, "lat": 39.02841, "lon": 17.1727147}, {"type": "node", "id": 1912972300, "lat": 39.0279307, "lon": 17.1726236}, {"type": "node", "id": 1912972302, "lat": 39.027639, "lon": 17.1726075}, {"type": "node", "id": 1912972304, "lat": 39.0281002, "lon": 17.1722798}, {"type": "node", "id": 1912972309, "lat": 39.0282232, "lon": 17.1729343}, {"type": "node", "id": 1912972314, "lat": 39.027894, "lon": 17.1726312}, {"type": "node", "id": 1912972327, "lat": 39.0280565, "lon": 17.1722771}, {"type": "node", "id": 1912972333, "lat": 39.0278315, "lon": 17.173055}, {"type": "node", "id": 1912972336, "lat": 39.0277689, "lon": 17.1731757}, {"type": "node", "id": 1912972340, "lat": 39.0278231, "lon": 17.173122}, {"type": "node", "id": 1912972341, "lat": 39.0281933, "lon": 17.172881}, {"type": "node", "id": 1912972342, "lat": 39.0278002, "lon": 17.1730764}, {"type": "node", "id": 1912972344, "lat": 39.0279981, "lon": 17.1726097}, {"type": "node", "id": 1921595255, "lat": 39.0284849, "lon": 17.2052005}, {"type": "node", "id": 1921595270, "lat": 39.028407, "lon": 17.2050848}, {"type": "node", "id": 1921595303, "lat": 39.0284093, "lon": 17.2052055}, {"type": "node", "id": 1921595363, "lat": 39.0284801, "lon": 17.2050798}, {"type": "node", "id": 1926871387, "lat": 39.0800893, "lon": 17.1203861}, {"type": "node", "id": 1926871399, "lat": 39.0800508, "lon": 17.1203176}, {"type": "node", "id": 1926871403, "lat": 39.0800431, "lon": 17.1203759}, {"type": "node", "id": 1926871439, "lat": 39.0800971, "lon": 17.1203277}, {"type": "node", "id": 1954683874, "lat": 38.9633589, "lon": 17.0821792}, {"type": "node", "id": 1954683875, "lat": 38.9630356, "lon": 17.0823428}, {"type": "node", "id": 1954683879, "lat": 38.9630752, "lon": 17.0825171}, {"type": "node", "id": 1954683881, "lat": 38.9633276, "lon": 17.0824501}, {"type": "node", "id": 1954683883, "lat": 38.9632463, "lon": 17.0824501}, {"type": "node", "id": 1954683885, "lat": 38.9630273, "lon": 17.0822355}, {"type": "node", "id": 1954683886, "lat": 38.9633318, "lon": 17.0823052}, {"type": "node", "id": 1954683891, "lat": 38.963335, "lon": 17.0821525}, {"type": "node", "id": 1954683893, "lat": 38.9630648, "lon": 17.0821738}, {"type": "node", "id": 1954683895, "lat": 38.963361, "lon": 17.0823052}, {"type": "node", "id": 1960295022, "lat": 39.0092471, "lon": 17.1759137}, {"type": "node", "id": 1960295030, "lat": 39.0091978, "lon": 17.1758307}, {"type": "node", "id": 1960295043, "lat": 39.0093593, "lon": 17.1758034}, {"type": "node", "id": 1960295073, "lat": 39.00931, "lon": 17.1757204}, {"type": "node", "id": 2041709286, "lat": 38.9707481, "lon": 17.1581346, "tags": {"amenity": "restaurant", "name": "Agriturismo Cavallaro"}}, {"type": "node", "id": 2071336008, "lat": 39.0795151, "lon": 17.1339899, "tags": {"amenity": "cafe", "cuisine": "coffee_shop", "gazebo": "yes", "name": "Gassa d'Amante"}}, {"type": "node", "id": 2168747916, "lat": 39.0823228, "lon": 17.1200141, "tags": {"amenity": "restaurant", "cuisine": "steak_house", "name": "Il Boss delle Carni"}}, {"type": "node", "id": 2265645098, "lat": 39.0842136, "lon": 17.1065924, "tags": {"amenity": "cafe", "name": "Break Caf\u00e8"}}, {"type": "node", "id": 2294487343, "lat": 39.0539809, "lon": 17.1388825}, {"type": "node", "id": 2294487344, "lat": 39.0540036, "lon": 17.1387402}, {"type": "node", "id": 2294487345, "lat": 39.0540485, "lon": 17.138806}, {"type": "node", "id": 2294487346, "lat": 39.053936, "lon": 17.1388166}, {"type": "node", "id": 2294706936, "lat": 39.0402413, "lon": 17.1565705}, {"type": "node", "id": 2294706944, "lat": 39.0401249, "lon": 17.1563284}, {"type": "node", "id": 2294706950, "lat": 39.0402032, "lon": 17.1562659}, {"type": "node", "id": 2294706966, "lat": 39.0403197, "lon": 17.1565081}, {"type": "node", "id": 2295909240, "lat": 39.0797993, "lon": 17.1283324, "tags": {"amenity": "cafe"}}, {"type": "node", "id": 2296011797, "lat": 39.0769989, "lon": 17.119794, "tags": {"amenity": "cafe"}}, {"type": "node", "id": 2303887454, "lat": 39.0491927, "lon": 17.1405259}, {"type": "node", "id": 2303887473, "lat": 39.0491896, "lon": 17.1403131}, {"type": "node", "id": 2303887515, "lat": 39.049062, "lon": 17.1405289}, {"type": "node", "id": 2303887555, "lat": 39.049059, "lon": 17.1403162}, {"type": "node", "id": 2303912377, "lat": 39.0797722, "lon": 17.1263253, "tags": {"amenity": "cafe", "name": "To.Go"}}, {"type": "node", "id": 2314277450, "lat": 39.025729, "lon": 17.1937693, "tags": {"amenity": "restaurant", "name": "Don Pedro de Toledo"}}, {"type": "node", "id": 2326735176, "lat": 38.9115898, "lon": 17.0231581, "tags": {"amenity": "restaurant", "cuisine": "regional", "name": "La Brace"}}, {"type": "node", "id": 2326735177, "lat": 38.9111098, "lon": 17.0237053, "tags": {"amenity": "restaurant", "cuisine": "regional", "name": "La Calabrese"}}, {"type": "node", "id": 2326737019, "lat": 38.9087409, "lon": 17.0219511, "tags": {"amenity": "restaurant", "cuisine": "regional", "name": "Nicomare"}}, {"type": "node", "id": 2326739411, "lat": 38.90744, "lon": 17.0231785, "tags": {"amenity": "cafe", "cuisine": "ice_cream", "indoor_seating": "yes", "level": "0", "name": "Il Caribe", "operator": "Il Caribe di Proietto Donato Luigi", "outdoor_seating": "yes", "ref:vatin": "IT02816150797", "takeaway": "yes", "toilets:access": "customers"}}, {"type": "node", "id": 2326739422, "lat": 38.9075617, "lon": 17.0228496, "tags": {"addr:city": "Le Castella", "addr:housenumber": "8", "addr:postcode": "88841", "addr:street": "Piazza Uccial\u00ec", "amenity": "restaurant", "cuisine": "italian;fish", "indoor_seating": "yes", "name": "Vista Restaurant", "opening_hours": "Mo-Su 09:00-23:00", "outdoor_seating": "yes", "phone": "09621723475", "website": "https://www.instagram.com/vista.restaurant/"}}, {"type": "node", "id": 2331650200, "lat": 39.0588811, "lon": 17.0942637}, {"type": "node", "id": 2331650201, "lat": 39.0588728, "lon": 17.094328}, {"type": "node", "id": 2331650210, "lat": 39.0587104, "lon": 17.0943966}, {"type": "node", "id": 2331650227, "lat": 39.0586313, "lon": 17.0940693}, {"type": "node", "id": 2331650260, "lat": 39.0589041, "lon": 17.0939701}, {"type": "node", "id": 2331650277, "lat": 39.0589729, "lon": 17.0942249}, {"type": "node", "id": 2339276735, "lat": 39.0835257, "lon": 17.1186881}, {"type": "node", "id": 2339276744, "lat": 39.0836698, "lon": 17.1187375}, {"type": "node", "id": 2339276745, "lat": 39.0836838, "lon": 17.1187109}, {"type": "node", "id": 2339276751, "lat": 39.0835715, "lon": 17.1185978}, {"type": "node", "id": 2380890206, "lat": 39.0830171, "lon": 17.1164193}, {"type": "node", "id": 2380890219, "lat": 39.0830039, "lon": 17.1165011}, {"type": "node", "id": 2380890221, "lat": 39.0832284, "lon": 17.1150769}, {"type": "node", "id": 2380890222, "lat": 39.083136, "lon": 17.1150538}, {"type": "node", "id": 2380890226, "lat": 39.0829167, "lon": 17.1164779}, {"type": "node", "id": 2380890227, "lat": 39.0831991, "lon": 17.1152717}, {"type": "node", "id": 2380890231, "lat": 39.0829297, "lon": 17.1163961}, {"type": "node", "id": 2380890237, "lat": 39.0831066, "lon": 17.1152486}, {"type": "node", "id": 2385455613, "lat": 39.0814206, "lon": 17.1236559, "tags": {"amenity": "cafe", "cuisine": "coffee_shop", "gazebo": "yes", "name": "Excellent Caf\u00e8"}}, {"type": "node", "id": 2443140501, "lat": 38.9155725, "lon": 17.1091119}, {"type": "node", "id": 2443140503, "lat": 38.9155976, "lon": 17.1088253}, {"type": "node", "id": 2443140519, "lat": 38.9158355, "lon": 17.1091499}, {"type": "node", "id": 2443140521, "lat": 38.9158489, "lon": 17.1090135}, {"type": "node", "id": 2443140524, "lat": 38.9158565, "lon": 17.108894}, {"type": "node", "id": 2443140525, "lat": 38.9158606, "lon": 17.1088633}, {"type": "node", "id": 2503554923, "lat": 39.0607783, "lon": 17.1152493, "tags": {"amenity": "restaurant", "cuisine": "pizza", "name": "Da L\u00f9"}}, {"type": "node", "id": 2504007023, "lat": 39.0796947, "lon": 17.1342466, "tags": {"amenity": "cafe", "gambling": "yes", "gazebo": "yes", "name": "La Vela", "tobacco": "yes"}}, {"type": "node", "id": 2530841419, "lat": 39.0790638, "lon": 17.128914, "tags": {"amenity": "cafe", "cuisine": "coffee_shop", "name": "Bar Morelli"}}, {"type": "node", "id": 2578065043, "lat": 39.0798895, "lon": 17.128992}, {"type": "node", "id": 2578065048, "lat": 39.0799254, "lon": 17.1289301}, {"type": "node", "id": 2578065050, "lat": 39.0799584, "lon": 17.1289621}, {"type": "node", "id": 2578065052, "lat": 39.0799203, "lon": 17.1290217}, {"type": "node", "id": 2579273366, "lat": 39.0805017, "lon": 17.1242328, "tags": {"amenity": "cafe"}}, {"type": "node", "id": 2582255812, "lat": 39.0782125, "lon": 17.1222291, "tags": {"amenity": "cafe", "cuisine": "coffee_shop", "name": "Toffe Caf\u00e9"}}, {"type": "node", "id": 2582404892, "lat": 39.0460271, "lon": 17.1156597, "tags": {"amenity": "cafe", "name": "Caf\u00e8 Puertorico"}}, {"type": "node", "id": 2671137279, "lat": 38.9786161, "lon": 17.0784912}, {"type": "node", "id": 2671137280, "lat": 38.9786087, "lon": 17.0784287}, {"type": "node", "id": 2671137281, "lat": 38.9783609, "lon": 17.078528}, {"type": "node", "id": 2671137282, "lat": 38.9786078, "lon": 17.0785465}, {"type": "node", "id": 2671137283, "lat": 38.9785111, "lon": 17.0785653}, {"type": "node", "id": 2671137285, "lat": 38.9785999, "lon": 17.0784872}, {"type": "node", "id": 2671137287, "lat": 38.9786179, "lon": 17.0786721}, {"type": "node", "id": 2671137295, "lat": 38.9785343, "lon": 17.0784103}, {"type": "node", "id": 2671137298, "lat": 38.978606, "lon": 17.0787512}, {"type": "node", "id": 2671137299, "lat": 38.9783467, "lon": 17.078623}, {"type": "node", "id": 2671137301, "lat": 38.9784575, "lon": 17.0786505}, {"type": "node", "id": 2671137303, "lat": 38.9786013, "lon": 17.0785903}, {"type": "node", "id": 2671137308, "lat": 38.9784483, "lon": 17.0787121}, {"type": "node", "id": 2671137311, "lat": 38.9786041, "lon": 17.0786687}, {"type": "node", "id": 2671137312, "lat": 38.9786153, "lon": 17.0785938}, {"type": "node", "id": 2671168688, "lat": 38.9593122, "lon": 17.0956835, "tags": {"addr:city": "Isola di Capo Rizzuto", "addr:postcode": "88841", "addr:street": "Via Santissima Annunziata", "amenity": "cafe", "name": "Calabria"}}, {"type": "node", "id": 2731254935, "lat": 38.9070582, "lon": 17.0230444}, {"type": "node", "id": 2731254941, "lat": 38.9070811, "lon": 17.0231356}, {"type": "node", "id": 2731254986, "lat": 38.9069392, "lon": 17.0230873}, {"type": "node", "id": 2731254988, "lat": 38.907054, "lon": 17.0232574}, {"type": "node", "id": 2731254991, "lat": 38.9069413, "lon": 17.0233046}, {"type": "node", "id": 2731254994, "lat": 38.9068933, "lon": 17.0231367}, {"type": "node", "id": 2731255007, "lat": 38.907029, "lon": 17.0231571}, {"type": "node", "id": 2731257011, "lat": 38.9074691, "lon": 17.0247501}, {"type": "node", "id": 2731257016, "lat": 38.9073672, "lon": 17.0248346}, {"type": "node", "id": 2731257018, "lat": 38.9073122, "lon": 17.0249534}, {"type": "node", "id": 2731257042, "lat": 38.9074976, "lon": 17.025032}, {"type": "node", "id": 2731257044, "lat": 38.9073967, "lon": 17.0247195}, {"type": "node", "id": 2731257046, "lat": 38.9073451, "lon": 17.0248252}, {"type": "node", "id": 2731257049, "lat": 38.9075505, "lon": 17.0248258}, {"type": "node", "id": 2731257051, "lat": 38.9074595, "lon": 17.0247873}, {"type": "node", "id": 2739081929, "lat": 39.055701, "lon": 17.1059616, "tags": {"amenity": "cafe", "cuisine": "coffee_shop", "name": "Helios"}}, {"type": "node", "id": 2749541092, "lat": 39.0806586, "lon": 17.1357679}, {"type": "node", "id": 2749541112, "lat": 39.0808094, "lon": 17.1354394}, {"type": "node", "id": 2749541135, "lat": 39.0808136, "lon": 17.1357646}, {"type": "node", "id": 2749541146, "lat": 39.0806538, "lon": 17.1354427}, {"type": "node", "id": 2769297068, "lat": 39.0812754, "lon": 17.1284938, "tags": {"amenity": "cafe", "cuisine": "coffee_shop", "name": "Gran Caff\u00e9 Duomo"}}, {"type": "node", "id": 2883611607, "lat": 38.9073624, "lon": 17.023434, "tags": {"amenity": "restaurant", "cuisine": "regional", "name": "Premi\u00e8re"}}, {"type": "node", "id": 2883611608, "lat": 38.9099588, "lon": 17.0256012, "tags": {"amenity": "cafe"}}, {"type": "node", "id": 2893836633, "lat": 38.9244558, "lon": 17.1234735}, {"type": "node", "id": 2893836634, "lat": 38.9244585, "lon": 17.1236444}, {"type": "node", "id": 2893836635, "lat": 38.9245838, "lon": 17.1234696}, {"type": "node", "id": 2893836636, "lat": 38.92459, "lon": 17.1236395}, {"type": "node", "id": 2897180680, "lat": 39.057053, "lon": 17.1348622}, {"type": "node", "id": 2935216142, "lat": 39.1242386, "lon": 17.1097582, "tags": {"amenity": "cafe", "name": "Lioner"}}, {"type": "node", "id": 2952588991, "lat": 39.051224, "lon": 17.1168936, "tags": {"amenity": "cafe", "cuisine": "coffee_shop", "name": "Bim Bum Bar"}}, {"type": "node", "id": 2969914934, "lat": 38.921167, "lon": 17.1210354, "tags": {"amenity": "restaurant"}}, {"type": "node", "id": 2972652930, "lat": 38.9212755, "lon": 17.1211024, "tags": {"amenity": "cafe"}}, {"type": "node", "id": 3012660483, "lat": 38.8941389, "lon": 17.0928024, "tags": {"amenity": "restaurant", "cuisine": "seafood", "name": "L'Ancora"}}, {"type": "node", "id": 3032447353, "lat": 38.9058238, "lon": 17.1003347, "tags": {"amenity": "cafe"}}, {"type": "node", "id": 3049119231, "lat": 38.9593719, "lon": 17.0977249}, {"type": "node", "id": 3049120638, "lat": 38.959084, "lon": 17.0977031}, {"type": "node", "id": 3105230157, "lat": 38.9568427, "lon": 17.0934366}, {"type": "node", "id": 3105231230, "lat": 38.9568414, "lon": 17.0933524}, {"type": "node", "id": 3105234374, "lat": 38.9567635, "lon": 17.0933561}, {"type": "node", "id": 3105234375, "lat": 38.9567644, "lon": 17.0934398}, {"type": "node", "id": 3108089800, "lat": 38.905433, "lon": 17.0993869}, {"type": "node", "id": 3108089801, "lat": 38.9054292, "lon": 17.0994623}, {"type": "node", "id": 3108089802, "lat": 38.9054747, "lon": 17.0994661}, {"type": "node", "id": 3108089803, "lat": 38.9054644, "lon": 17.0996728}, {"type": "node", "id": 3108089804, "lat": 38.9052157, "lon": 17.0996524}, {"type": "node", "id": 3108089805, "lat": 38.9052266, "lon": 17.0994344}, {"type": "node", "id": 3108089806, "lat": 38.9052006, "lon": 17.0994323}, {"type": "node", "id": 3108089807, "lat": 38.9052038, "lon": 17.099368}, {"type": "node", "id": 3108159582, "lat": 38.8939778, "lon": 17.0936078}, {"type": "node", "id": 3108159583, "lat": 38.8939742, "lon": 17.0936964}, {"type": "node", "id": 3108159584, "lat": 38.8939106, "lon": 17.0936948}, {"type": "node", "id": 3108159585, "lat": 38.8938279, "lon": 17.0937488}, {"type": "node", "id": 3108159586, "lat": 38.8938231, "lon": 17.093775}, {"type": "node", "id": 3108159587, "lat": 38.8938639, "lon": 17.0937703}, {"type": "node", "id": 3108159588, "lat": 38.8938603, "lon": 17.093872}, {"type": "node", "id": 3108159589, "lat": 38.8937056, "lon": 17.0938674}, {"type": "node", "id": 3108159590, "lat": 38.893708, "lon": 17.0937241}, {"type": "node", "id": 3108159591, "lat": 38.8936948, "lon": 17.0936918}, {"type": "node", "id": 3108159592, "lat": 38.8936492, "lon": 17.0936902}, {"type": "node", "id": 3108159593, "lat": 38.8936504, "lon": 17.0936097}, {"type": "node", "id": 3118834238, "lat": 38.9592542, "lon": 17.0978313}, {"type": "node", "id": 3118837894, "lat": 38.959372, "lon": 17.0977723}, {"type": "node", "id": 3118837895, "lat": 38.9592584, "lon": 17.0977576}, {"type": "node", "id": 3118837896, "lat": 38.9590352, "lon": 17.0979064}, {"type": "node", "id": 3118837897, "lat": 38.9590498, "lon": 17.0976583}, {"type": "node", "id": 3118837898, "lat": 38.9590853, "lon": 17.0976597}, {"type": "node", "id": 3120262466, "lat": 38.9539652, "lon": 17.0936975}, {"type": "node", "id": 3120262467, "lat": 38.9539875, "lon": 17.0937455}, {"type": "node", "id": 3120262468, "lat": 38.9540093, "lon": 17.0937288}, {"type": "node", "id": 3120262469, "lat": 38.9540429, "lon": 17.0938013}, {"type": "node", "id": 3120262470, "lat": 38.9540166, "lon": 17.0938215}, {"type": "node", "id": 3120262471, "lat": 38.954028, "lon": 17.0938462}, {"type": "node", "id": 3120262472, "lat": 38.9539162, "lon": 17.0939321}, {"type": "node", "id": 3120262473, "lat": 38.9538488, "lon": 17.0937869}, {"type": "node", "id": 3124299978, "lat": 38.9601886, "lon": 17.0967801}, {"type": "node", "id": 3124299979, "lat": 38.960224, "lon": 17.0968957}, {"type": "node", "id": 3124299980, "lat": 38.9602902, "lon": 17.096856}, {"type": "node", "id": 3124299981, "lat": 38.9602993, "lon": 17.0968817}, {"type": "node", "id": 3124299982, "lat": 38.9603692, "lon": 17.096849}, {"type": "node", "id": 3124299983, "lat": 38.9603365, "lon": 17.0967731}, {"type": "node", "id": 3124299984, "lat": 38.9602912, "lon": 17.0967918}, {"type": "node", "id": 3124299985, "lat": 38.9602503, "lon": 17.0967416}, {"type": "node", "id": 3124341051, "lat": 38.9593881, "lon": 17.0951326}, {"type": "node", "id": 3124347400, "lat": 38.9592777, "lon": 17.0950599}, {"type": "node", "id": 3124347401, "lat": 38.9592627, "lon": 17.0951971}, {"type": "node", "id": 3124347402, "lat": 38.9593796, "lon": 17.0952184}, {"type": "node", "id": 3124347403, "lat": 38.9593944, "lon": 17.0950869}, {"type": "node", "id": 3124441335, "lat": 38.959319, "lon": 17.0952074}, {"type": "node", "id": 3129016716, "lat": 38.9601597, "lon": 17.0970501}, {"type": "node", "id": 3129016717, "lat": 38.9602068, "lon": 17.0971627}, {"type": "node", "id": 3129018376, "lat": 38.9600953, "lon": 17.0970917}, {"type": "node", "id": 3129018377, "lat": 38.9601445, "lon": 17.0972057}, {"type": "node", "id": 3129047979, "lat": 38.959633, "lon": 17.0974972, "tags": {"amenity": "restaurant"}}, {"type": "node", "id": 3140708519, "lat": 38.939116, "lon": 17.1027247, "tags": {"addr:city": "Isola di Capo Rizzuto", "addr:postcode": "88841", "addr:street": "Via Capo Rizzuto", "amenity": "restaurant", "name": "La Rustica"}}, {"type": "node", "id": 3140709554, "lat": 38.938365, "lon": 17.1033414, "tags": {"addr:city": "Isola di Capo Rizzuto", "addr:postcode": "88841", "addr:street": "via Capo Rizzuto", "amenity": "restaurant", "name": "Il Caminetto"}}, {"type": "node", "id": 3140710231, "lat": 38.9315667, "lon": 17.1326618, "tags": {"amenity": "restaurant", "name": "I Cavallucci"}}, {"type": "node", "id": 3140772004, "lat": 38.9585394, "lon": 17.0899084}, {"type": "node", "id": 3140772005, "lat": 38.9583872, "lon": 17.089962}, {"type": "node", "id": 3140772006, "lat": 38.9584007, "lon": 17.0900693}, {"type": "node", "id": 3140772007, "lat": 38.958554, "lon": 17.090021}, {"type": "node", "id": 3141952113, "lat": 38.9925679, "lon": 17.1104132}, {"type": "node", "id": 3141952114, "lat": 38.9925057, "lon": 17.1106597}, {"type": "node", "id": 3141952115, "lat": 38.9922226, "lon": 17.1105414}, {"type": "node", "id": 3141952116, "lat": 38.9922847, "lon": 17.110295}, {"type": "node", "id": 3142021464, "lat": 38.970866, "lon": 17.1577739}, {"type": "node", "id": 3142021465, "lat": 38.9708779, "lon": 17.1579405}, {"type": "node", "id": 3142021466, "lat": 38.9707068, "lon": 17.1579607}, {"type": "node", "id": 3142021467, "lat": 38.9706949, "lon": 17.1577941}, {"type": "node", "id": 3142044508, "lat": 38.9059889, "lon": 17.0997603}, {"type": "node", "id": 3142044509, "lat": 38.905996, "lon": 17.0999867}, {"type": "node", "id": 3142044510, "lat": 38.9058479, "lon": 17.0999943}, {"type": "node", "id": 3142044511, "lat": 38.9058408, "lon": 17.099768}, {"type": "node", "id": 3142113254, "lat": 38.9010258, "lon": 17.0926983}, {"type": "node", "id": 3142113255, "lat": 38.9010219, "lon": 17.0929376}, {"type": "node", "id": 3142113256, "lat": 38.9007829, "lon": 17.0929312}, {"type": "node", "id": 3142113257, "lat": 38.9007868, "lon": 17.0926919}, {"type": "node", "id": 3142183130, "lat": 38.9280277, "lon": 17.102563}, {"type": "node", "id": 3142183131, "lat": 38.9280647, "lon": 17.102577}, {"type": "node", "id": 3142183132, "lat": 38.9280897, "lon": 17.1024678}, {"type": "node", "id": 3142183133, "lat": 38.9277687, "lon": 17.1023465}, {"type": "node", "id": 3142183134, "lat": 38.9277406, "lon": 17.1024694}, {"type": "node", "id": 3142183135, "lat": 38.9277978, "lon": 17.102491}, {"type": "node", "id": 3142183136, "lat": 38.9277537, "lon": 17.1026839}, {"type": "node", "id": 3142183137, "lat": 38.9279805, "lon": 17.1027695}, {"type": "node", "id": 3153376161, "lat": 38.9610463, "lon": 17.0915195, "tags": {"amenity": "restaurant", "name": "Pizzeria la Tegola"}}, {"type": "node", "id": 3156624369, "lat": 38.9611662, "lon": 17.0913054, "tags": {"amenity": "restaurant", "name": "Pizzeria Bella Napoli"}}, {"type": "node", "id": 3161838657, "lat": 38.9532264, "lon": 17.116264, "tags": {"amenity": "restaurant", "name": "La Campagnola"}}, {"type": "node", "id": 3206608711, "lat": 38.9322111, "lon": 17.0177396, "tags": {"amenity": "restaurant", "coffee": "yes", "cuisine": "regional", "name": "Il tegamino"}}, {"type": "node", "id": 3206608749, "lat": 38.9407943, "lon": 17.0062061, "tags": {"amenity": "restaurant", "cuisine": "regional", "name": "L'Orizzonte"}}, {"type": "node", "id": 3284142595, "lat": 38.9197483, "lon": 17.0140357, "tags": {"amenity": "restaurant", "name": "Ristorante Hotel La Decanata"}}, {"type": "node", "id": 3284158189, "lat": 38.9116232, "lon": 17.0239306, "tags": {"amenity": "restaurant", "cuisine": "regional", "name": "Hostaria Trattoria da Mario"}}, {"type": "node", "id": 3284166461, "lat": 38.9097234, "lon": 17.0227917, "tags": {"amenity": "restaurant", "cuisine": "sandwich", "name": "Paninoteca Bar il Cammello"}}, {"type": "node", "id": 3284176919, "lat": 38.907794, "lon": 17.0248799, "tags": {"amenity": "restaurant", "cuisine": "pizza", "name": "Pizzeria l'Alba"}}, {"type": "node", "id": 3401583931, "lat": 39.0815702, "lon": 17.1344691, "tags": {"amenity": "restaurant", "cuisine": "sushi", "name": "Zen-Zero"}}, {"type": "node", "id": 3401583938, "lat": 39.0794793, "lon": 17.1327126, "tags": {"amenity": "cafe"}}, {"type": "node", "id": 3519598646, "lat": 39.0788446, "lon": 17.1330168, "tags": {"amenity": "restaurant", "cuisine": "italian", "name": "Vinilico", "shop": "deli"}}, {"type": "node", "id": 3620781935, "lat": 38.9085837, "lon": 17.0254606, "tags": {"addr:street": "Via del Porto", "amenity": "restaurant", "cuisine": "regional", "indoor_seating": "yes", "name": "Da Mimmo", "operator": "Mimmo", "outdoor_seating": "yes", "phone": "+39 324 834 4416"}}, {"type": "node", "id": 3620781958, "lat": 38.9091119, "lon": 17.0224893, "tags": {"amenity": "restaurant"}}, {"type": "node", "id": 3620781978, "lat": 38.9097783, "lon": 17.0230262, "tags": {"amenity": "restaurant", "name": "Annibale"}}, {"type": "node", "id": 3620781983, "lat": 38.909793, "lon": 17.0259069, "tags": {"amenity": "restaurant"}}, {"type": "node", "id": 3620782696, "lat": 38.9088642, "lon": 17.0226265, "tags": {"amenity": "cafe"}}, {"type": "node", "id": 3620782705, "lat": 38.9090167, "lon": 17.0255992, "tags": {"amenity": "restaurant", "cuisine": "regional", "name": "La Posidonia"}}, {"type": "node", "id": 3758597817, "lat": 39.0734432, "lon": 17.1299858}, {"type": "node", "id": 3758597819, "lat": 39.0732245, "lon": 17.1299798}, {"type": "node", "id": 3758598026, "lat": 39.0732862, "lon": 17.1301061}, {"type": "node", "id": 3758598027, "lat": 39.073442, "lon": 17.130104}, {"type": "node", "id": 3758598029, "lat": 39.0732602, "lon": 17.1298218}, {"type": "node", "id": 3758598037, "lat": 39.0732845, "lon": 17.1300801}, {"type": "node", "id": 3887054241, "lat": 39.0535821, "lon": 17.1169922, "tags": {"amenity": "cafe", "cuisine": "coffee_shop", "name": "Nick Bar"}}, {"type": "node", "id": 3980987890, "lat": 39.1374878, "lon": 17.1038407}, {"type": "node", "id": 3980987899, "lat": 39.1375169, "lon": 17.104176}, {"type": "node", "id": 3980987904, "lat": 39.1374649, "lon": 17.1037978}, {"type": "node", "id": 3980987905, "lat": 39.1374025, "lon": 17.1037871}, {"type": "node", "id": 3980987906, "lat": 39.1374896, "lon": 17.1041712}, {"type": "node", "id": 3980987907, "lat": 39.1375086, "lon": 17.1038112}, {"type": "node", "id": 3980987908, "lat": 39.1375523, "lon": 17.1038836}, {"type": "node", "id": 3980987924, "lat": 39.137363, "lon": 17.1041492}, {"type": "node", "id": 4261190289, "lat": 39.0776866, "lon": 17.1309487, "tags": {"amenity": "cafe"}}, {"type": "node", "id": 4297137364, "lat": 39.0627035, "lon": 17.1326471, "tags": {"amenity": "cafe"}}, {"type": "node", "id": 4299191666, "lat": 39.0506411, "lon": 17.1412428}, {"type": "node", "id": 4299191667, "lat": 39.0504858, "lon": 17.1412548}, {"type": "node", "id": 4299191668, "lat": 39.0504987, "lon": 17.1415129}, {"type": "node", "id": 4299191669, "lat": 39.0505458, "lon": 17.1411395}, {"type": "node", "id": 4318713161, "lat": 39.0244712, "lon": 17.1950089}, {"type": "node", "id": 4318713162, "lat": 39.0246014, "lon": 17.1949588}, {"type": "node", "id": 4318713166, "lat": 39.02448, "lon": 17.1949254}, {"type": "node", "id": 4318713176, "lat": 39.0245937, "lon": 17.1950504}, {"type": "node", "id": 4347737177, "lat": 38.9202415, "lon": 17.0452663}, {"type": "node", "id": 4347737180, "lat": 38.9201533, "lon": 17.0460438}, {"type": "node", "id": 4347737390, "lat": 38.9201434, "lon": 17.0454166}, {"type": "node", "id": 4347737424, "lat": 38.9201446, "lon": 17.0452651}, {"type": "node", "id": 4347737434, "lat": 38.920192, "lon": 17.0460438}, {"type": "node", "id": 4347737445, "lat": 38.920192, "lon": 17.0461224}, {"type": "node", "id": 4347737472, "lat": 38.9202403, "lon": 17.0454178}, {"type": "node", "id": 4347737478, "lat": 38.9201533, "lon": 17.0461224}, {"type": "node", "id": 4492934700, "lat": 39.0821649, "lon": 17.1246171, "tags": {"amenity": "cafe", "name": "Jolly Caf\u00e9"}}, {"type": "node", "id": 4493029943, "lat": 39.0831152, "lon": 17.1273864, "tags": {"amenity": "cafe", "name": "Dolci Creazioni"}}, {"type": "node", "id": 4497225809, "lat": 39.1331829, "lon": 17.1098135}, {"type": "node", "id": 4497225813, "lat": 39.133085, "lon": 17.1098055}, {"type": "node", "id": 4497225820, "lat": 39.1331006, "lon": 17.1094878}, {"type": "node", "id": 4497225827, "lat": 39.1331985, "lon": 17.1094958}, {"type": "node", "id": 4548108577, "lat": 39.0802455, "lon": 17.1286561, "tags": {"amenity": "restaurant", "cuisine": "sushi", "name": "Kintsugi"}}, {"type": "node", "id": 4626911380, "lat": 39.1125498, "lon": 17.0995366}, {"type": "node", "id": 4626911382, "lat": 39.1124998, "lon": 17.099168}, {"type": "node", "id": 4626911383, "lat": 39.1128943, "lon": 17.099459}, {"type": "node", "id": 4626911384, "lat": 39.1128442, "lon": 17.0990904}, {"type": "node", "id": 4656541106, "lat": 39.0586108, "lon": 17.0955468, "tags": {"amenity": "cafe", "cuisine": "italian", "name": "On The Road"}}, {"type": "node", "id": 4683574097, "lat": 39.0821522, "lon": 17.129091, "tags": {"amenity": "restaurant", "cuisine": "regional", "name": "Da Nonna Chiara"}}, {"type": "node", "id": 4693597209, "lat": 39.0355954, "lon": 16.9761257, "tags": {"amenity": "cafe", "name": "Willy Bar"}}, {"type": "node", "id": 4740598823, "lat": 39.0872508, "lon": 17.1117194, "tags": {"amenity": "cafe", "cuisine": "coffee_shop", "name": "La Pausa"}}, {"type": "node", "id": 4791700748, "lat": 38.9943661, "lon": 17.1041523}, {"type": "node", "id": 4791700749, "lat": 38.9943819, "lon": 17.1046849}, {"type": "node", "id": 4791700750, "lat": 38.9943459, "lon": 17.105147}, {"type": "node", "id": 4791700751, "lat": 38.9940704, "lon": 17.1051488}, {"type": "node", "id": 4791700758, "lat": 38.9942958, "lon": 17.1041432}, {"type": "node", "id": 4791700764, "lat": 38.9943252, "lon": 17.1046775}, {"type": "node", "id": 4791700765, "lat": 38.9942612, "lon": 17.104587}, {"type": "node", "id": 4791700766, "lat": 38.9942941, "lon": 17.1051776}, {"type": "node", "id": 4791700768, "lat": 38.994297, "lon": 17.1051407}, {"type": "node", "id": 4791700769, "lat": 38.9941156, "lon": 17.1045682}, {"type": "node", "id": 4841333240, "lat": 39.0847573, "lon": 17.1143742, "tags": {"amenity": "restaurant", "cuisine": "pizza", "name": "Pizzami"}}, {"type": "node", "id": 4904784273, "lat": 39.0805685, "lon": 17.1239547, "tags": {"amenity": "cafe", "cuisine": "coffee_shop", "name": "Time Out"}}, {"type": "node", "id": 4913111107, "lat": 39.0757989, "lon": 17.1309807}, {"type": "node", "id": 4913111110, "lat": 39.075682, "lon": 17.1311115}, {"type": "node", "id": 4913111113, "lat": 39.0757807, "lon": 17.1309286}, {"type": "node", "id": 4913111114, "lat": 39.0756276, "lon": 17.1310487}, {"type": "node", "id": 4913111115, "lat": 39.0756511, "lon": 17.1310892}, {"type": "node", "id": 4913111117, "lat": 39.0756317, "lon": 17.1309428}, {"type": "node", "id": 4913111118, "lat": 39.0757242, "lon": 17.1311157}, {"type": "node", "id": 4913111119, "lat": 39.0757343, "lon": 17.1308888}, {"type": "node", "id": 4913111120, "lat": 39.0757936, "lon": 17.1310445}, {"type": "node", "id": 4913112421, "lat": 39.0757989, "lon": 17.1310211}, {"type": "node", "id": 4913112422, "lat": 39.0757031, "lon": 17.1308849}, {"type": "node", "id": 4913112423, "lat": 39.07562, "lon": 17.1309904}, {"type": "node", "id": 4913112425, "lat": 39.0757669, "lon": 17.1310912}, {"type": "node", "id": 4913112426, "lat": 39.0756621, "lon": 17.1309022}, {"type": "node", "id": 4913112427, "lat": 39.0757545, "lon": 17.1308938}, {"type": "node", "id": 4938202989, "lat": 39.0755799, "lon": 17.1300944, "tags": {"addr:city": "Crotone", "addr:postcode": "88900", "addr:street": "Viale Antonio Gramsci", "amenity": "restaurant", "name": "l'insOlito", "phone": "+39 0962420229", "ref:vatin": "03593850799"}}, {"type": "node", "id": 5055874969, "lat": 39.078424, "lon": 17.1208306, "tags": {"amenity": "cafe"}}, {"type": "node", "id": 5141844312, "lat": 39.0823611, "lon": 17.1197824, "tags": {"amenity": "restaurant", "cuisine": "sushi", "name": "Wei"}}, {"type": "node", "id": 5167787775, "lat": 39.0599424, "lon": 17.114682, "tags": {"amenity": "cafe", "cuisine": "coffee_shop"}}, {"type": "node", "id": 5641481587, "lat": 39.0825279, "lon": 17.128212, "tags": {"amenity": "restaurant", "name": "Anima Urban"}}, {"type": "node", "id": 5675916129, "lat": 39.0832248, "lon": 17.1276958, "tags": {"amenity": "restaurant", "cuisine": "regional;fish", "name": "La Pignata"}}, {"type": "node", "id": 5675916130, "lat": 39.0833061, "lon": 17.1278442, "tags": {"amenity": "restaurant", "cuisine": "regional", "name": "Orfeo"}}, {"type": "node", "id": 5736935151, "lat": 39.076727, "lon": 17.12533, "tags": {"amenity": "restaurant", "cuisine": "japanese", "name": "Wei 2"}}, {"type": "node", "id": 5751395204, "lat": 39.0765089, "lon": 17.1305585, "tags": {"amenity": "restaurant", "cuisine": "sushi", "name": "Uramare"}}, {"type": "node", "id": 5873565235, "lat": 39.1090227, "lon": 17.0951456, "tags": {"amenity": "cafe", "cuisine": "italian", "name": "Mirror"}}, {"type": "node", "id": 6075040591, "lat": 39.08007, "lon": 17.1203525, "tags": {"amenity": "cafe"}}, {"type": "node", "id": 6259909452, "lat": 39.0772376, "lon": 17.1248185, "tags": {"amenity": "restaurant", "name": "Quasi Margherita"}}, {"type": "node", "id": 6344772205, "lat": 39.079613, "lon": 17.1268455, "tags": {"amenity": "restaurant", "cuisine": "seafood", "name": "Kairos"}}, {"type": "node", "id": 6435529060, "lat": 39.0036421, "lon": 17.1215096}, {"type": "node", "id": 6435529061, "lat": 39.0036787, "lon": 17.1215364}, {"type": "node", "id": 6435529062, "lat": 39.0034412, "lon": 17.1215334}, {"type": "node", "id": 6435529063, "lat": 39.0035029, "lon": 17.1215787}, {"type": "node", "id": 6435529064, "lat": 39.0037305, "lon": 17.1214196}, {"type": "node", "id": 6435529065, "lat": 39.0036559, "lon": 17.1213648}, {"type": "node", "id": 6435529066, "lat": 39.0036093, "lon": 17.1215836}, {"type": "node", "id": 6435529067, "lat": 39.0035274, "lon": 17.1215235}, {"type": "node", "id": 6435529068, "lat": 39.0035763, "lon": 17.1213978}, {"type": "node", "id": 6435529069, "lat": 39.0035527, "lon": 17.121451}, {"type": "node", "id": 6435529070, "lat": 39.0036253, "lon": 17.1214338}, {"type": "node", "id": 6435529072, "lat": 39.0034962, "lon": 17.1214095}, {"type": "node", "id": 6684949140, "lat": 38.9099287, "lon": 17.0228912, "tags": {"amenity": "restaurant", "cuisine": "japanese", "name": "Sushi Garden"}}, {"type": "node", "id": 7269396985, "lat": 39.0789528, "lon": 17.1262753, "tags": {"amenity": "cafe", "cuisine": "coffee_shop", "name": "Bar Bo"}}, {"type": "node", "id": 7270067803, "lat": 39.0837798, "lon": 17.1237737, "tags": {"amenity": "cafe"}}, {"type": "node", "id": 7270154207, "lat": 39.0824945, "lon": 17.1256013, "tags": {"amenity": "cafe", "cuisine": "coffee_shop", "name": "Guglielmo Store"}}, {"type": "node", "id": 7270542566, "lat": 39.0871361, "lon": 17.1080226, "tags": {"amenity": "cafe", "name": "Bar \u00ec l'\u00e8ssu"}}, {"type": "node", "id": 9223117802, "lat": 39.0819659, "lon": 17.1274994, "tags": {"amenity": "restaurant", "cuisine": "pizza"}}, {"type": "node", "id": 9433718318, "lat": 39.0725333, "lon": 17.1295084, "tags": {"amenity": "cafe", "name": "Sotto Zero"}}, {"type": "node", "id": 9455553391, "lat": 39.0774667, "lon": 17.1271068, "tags": {"amenity": "cafe", "name": "Caf\u00e8 do Brasil"}}, {"type": "node", "id": 9665411582, "lat": 39.076461, "lon": 17.1161003, "tags": {"amenity": "cafe"}}, {"type": "node", "id": 9743911780, "lat": 39.0773675, "lon": 17.1312602, "tags": {"amenity": "restaurant", "name": "T-Bone"}}, {"type": "node", "id": 9743984395, "lat": 39.073149, "lon": 17.1300361, "tags": {"amenity": "restaurant", "cuisine": "pizza", "name": "L'Antica Pizzeria da Michele"}}, {"type": "node", "id": 10110013764, "lat": 38.9399129, "lon": 16.961393}, {"type": "node", "id": 10110013765, "lat": 38.9398373, "lon": 16.9616908}, {"type": "node", "id": 10110013766, "lat": 38.9397094, "lon": 16.9616371}, {"type": "node", "id": 10110013767, "lat": 38.9397305, "lon": 16.9615543}, {"type": "node", "id": 10110013768, "lat": 38.9396908, "lon": 16.9615376}, {"type": "node", "id": 10110013769, "lat": 38.9397316, "lon": 16.9613771}, {"type": "node", "id": 10110013770, "lat": 38.9397577, "lon": 16.9613881}, {"type": "node", "id": 10110013771, "lat": 38.9397716, "lon": 16.9613337}, {"type": "node", "id": 10110049794, "lat": 38.9342391, "lon": 17.0441675}, {"type": "node", "id": 10110049795, "lat": 38.9342631, "lon": 17.0444713}, {"type": "node", "id": 10110049796, "lat": 38.9341512, "lon": 17.044486}, {"type": "node", "id": 10110049797, "lat": 38.9341272, "lon": 17.0441821}, {"type": "node", "id": 10237458216, "lat": 39.0770606, "lon": 17.1293546, "tags": {"amenity": "cafe", "name": "Bakery Time"}}, {"type": "node", "id": 10237460932, "lat": 39.0762785, "lon": 17.1279236, "tags": {"amenity": "restaurant", "cuisine": "pizza", "name": "In"}}, {"type": "node", "id": 10246995934, "lat": 39.0727586, "lon": 17.12952, "tags": {"amenity": "restaurant", "cuisine": "pizza", "name": "Kyma"}}, {"type": "node", "id": 10669315260, "lat": 39.0677532, "lon": 17.1306336, "tags": {"amenity": "restaurant", "cuisine": "pizza", "name": "Storie Dipinte"}}, {"type": "node", "id": 11012207009, "lat": 38.9077483, "lon": 17.0223287, "tags": {"addr:city": "Le Castella", "addr:housenumber": "2", "addr:postcode": "88841", "addr:street": "Via Duomo", "addr:unit": "2", "amenity": "restaurant", "cuisine": "pizza;regional;fish", "name": "Terrazza Aragonese", "opening_hours": "Mo-Su 11:00-23:00", "phone": "3314683049", "website": "https://www.terrazzaragonese.it/"}}, {"type": "node", "id": 11063377081, "lat": 39.0784281, "lon": 17.1326865, "tags": {"amenity": "restaurant", "name": "Perseus Wave"}}, {"type": "node", "id": 11063386633, "lat": 39.0765261, "lon": 17.1288142, "tags": {"amenity": "cafe"}}, {"type": "node", "id": 11063386634, "lat": 39.0769577, "lon": 17.1314183, "tags": {"amenity": "restaurant", "name": "Mara Bistr\u00f2"}}, {"type": "node", "id": 11171473976, "lat": 39.1128501, "lon": 17.0905302, "tags": {"amenity": "restaurant", "cuisine": "sushi", "name": "Kanan"}}, {"type": "node", "id": 11205021520, "lat": 39.0800761, "lon": 17.134462, "tags": {"amenity": "restaurant", "cuisine": "fish", "name": "Karma"}}, {"type": "node", "id": 11205165408, "lat": 39.0335202, "lon": 16.9814789, "tags": {"amenity": "cafe"}}, {"type": "node", "id": 11205165409, "lat": 39.033305, "lon": 16.9810456, "tags": {"amenity": "cafe"}}, {"type": "node", "id": 11205165412, "lat": 39.0338117, "lon": 16.9813497, "tags": {"amenity": "restaurant", "cuisine": "regional", "name": "Locanda, ingredienti e fantasia"}}, {"type": "node", "id": 11243149015, "lat": 39.1162168, "lon": 17.0131131, "tags": {"amenity": "restaurant"}}, {"type": "node", "id": 11364974862, "lat": 39.073453, "lon": 17.1299706}, {"type": "node", "id": 11364974863, "lat": 39.0734528, "lon": 17.1299869}, {"type": "node", "id": 11364974864, "lat": 39.0732212, "lon": 17.1300804}, {"type": "node", "id": 11364981569, "lat": 39.0788015, "lon": 17.1201794, "tags": {"amenity": "cafe", "name": "Zungri Caf\u00e8"}}, {"type": "node", "id": 11417615309, "lat": 38.9367797, "lon": 17.0555106, "tags": {"amenity": "cafe"}}, {"type": "node", "id": 11417902435, "lat": 38.9635027, "lon": 17.0879488, "tags": {"amenity": "cafe", "indoor_seating": "yes", "name": "Bar", "outdoor_seating": "yes", "wheelchair": "yes"}}, {"type": "node", "id": 11468813198, "lat": 39.0809382, "lon": 17.126254, "tags": {"amenity": "cafe", "name": "La sfogliatella di Pulcinella"}}, {"type": "node", "id": 11499816975, "lat": 39.0536082, "lon": 17.1389853}, {"type": "node", "id": 11499816980, "lat": 39.0533481, "lon": 17.1391036}, {"type": "node", "id": 11546063047, "lat": 39.0804902, "lon": 17.1282612, "tags": {"amenity": "restaurant", "cuisine": "regional", "name": "Pane e Vino"}}, {"type": "node", "id": 11802239577, "lat": 38.9685104, "lon": 17.081402}, {"type": "node", "id": 11802239578, "lat": 38.968707, "lon": 17.0816521}, {"type": "node", "id": 11802239579, "lat": 38.9688087, "lon": 17.0815198}, {"type": "node", "id": 11802239580, "lat": 38.9686122, "lon": 17.0812697}, {"type": "node", "id": 11824487573, "lat": 39.0741418, "lon": 17.129577, "tags": {"addr:city": "Crotone", "addr:housenumber": "80", "addr:postcode": "88900", "addr:street": "Viale Antonio Gramsci", "amenity": "restaurant", "cuisine": "pizza", "name": "Mom\u00f2"}}, {"type": "node", "id": 11888673269, "lat": 39.073645, "lon": 17.1295901, "tags": {"addr:city": "Crotone", "addr:housenumber": "104", "addr:postcode": "88900", "addr:street": "Viale Antonio Gramsci", "amenity": "cafe", "name": "Natural Break"}}, {"type": "node", "id": 11953984311, "lat": 39.0556582, "lon": 17.0861385, "tags": {"amenity": "cafe"}}, {"type": "node", "id": 11987304488, "lat": 39.0553173, "lon": 17.1375521}, {"type": "node", "id": 12015370874, "lat": 39.0675529, "lon": 17.1135061, "tags": {"amenity": "cafe"}}, {"type": "node", "id": 12015430106, "lat": 39.0780691, "lon": 17.1372581, "tags": {"entrance": "main"}}, {"type": "node", "id": 12015441076, "lat": 39.1146398, "lon": 17.0932934, "tags": {"amenity": "restaurant", "cuisine": "steak_house", "name": "Rosso Fuoco"}}, {"type": "node", "id": 12083491366, "lat": 39.0721321, "lon": 17.0292923, "tags": {"amenity": "cafe", "name": "Centrale"}}, {"type": "node", "id": 12083557059, "lat": 39.056895, "lon": 17.1347264}, {"type": "node", "id": 12083557060, "lat": 39.056925, "lon": 17.1347068}, {"type": "node", "id": 12083557061, "lat": 39.0570601, "lon": 17.1348802}, {"type": "node", "id": 12083603485, "lat": 39.0571493, "lon": 17.1348157}, {"type": "node", "id": 12083603488, "lat": 39.0572292, "lon": 17.1347577}, {"type": "node", "id": 12083603492, "lat": 39.0572146, "lon": 17.1345929}, {"type": "node", "id": 12083603493, "lat": 39.0572178, "lon": 17.1346082}, {"type": "node", "id": 12083603494, "lat": 39.0572191, "lon": 17.1346221}, {"type": "node", "id": 12083603495, "lat": 39.0572189, "lon": 17.1346378}, {"type": "node", "id": 12083603496, "lat": 39.0572176, "lon": 17.1346533}, {"type": "node", "id": 12083603497, "lat": 39.0572149, "lon": 17.1346667}, {"type": "node", "id": 12083603498, "lat": 39.0572114, "lon": 17.1346765}, {"type": "node", "id": 12083603499, "lat": 39.0572146, "lon": 17.1347055, "tags": {"entrance": "yes"}}, {"type": "node", "id": 12207365801, "lat": 38.9091309, "lon": 17.0244935, "tags": {"amenity": "restaurant", "indoor_seating": "yes", "name": "Busalla", "outdoor_seating": "yes"}}, {"type": "node", "id": 12213702677, "lat": 39.0765756, "lon": 17.1304788, "tags": {"amenity": "restaurant", "cuisine": "regional", "name": "Calabraus"}}, {"type": "node", "id": 12231711478, "lat": 39.0806127, "lon": 17.1251206, "tags": {"amenity": "restaurant", "cuisine": "pizza"}}, {"type": "node", "id": 12240734026, "lat": 38.9152574, "lon": 17.0275118, "tags": {"amenity": "restaurant"}}, {"type": "node", "id": 12240853576, "lat": 38.9306662, "lon": 17.1312114, "tags": {"amenity": "restaurant"}}, {"type": "node", "id": 12361259072, "lat": 39.0817682, "lon": 17.1217742, "tags": {"amenity": "restaurant", "cuisine": "chinese", "name": "Hokkaido"}}, {"type": "node", "id": 12397350363, "lat": 38.91912, "lon": 17.0078493, "tags": {"amenity": "restaurant"}}, {"type": "node", "id": 12551623638, "lat": 39.0805873, "lon": 17.1349577, "tags": {"amenity": "cafe", "name": "Bar Jonio"}}, {"type": "node", "id": 12731502273, "lat": 39.0758616, "lon": 17.1305666, "tags": {"amenity": "restaurant", "cuisine": "pizza", "name": "In"}}, {"type": "way", "id": 110044948, "nodes": [1258190783, 1258188811, 1258188933, 1258189778, 1258190783], "tags": {"amenity": "cafe", "building": "yes", "name": "Bar del Pescatore"}}, {"type": "way", "id": 110391845, "nodes": [1260790316, 12015430106, 1260790257, 1260790287, 1260790338, 1260790316], "tags": {"amenity": "restaurant", "building": "yes", "cuisine": "regional", "name": "Al LanterNino"}}, {"type": "way", "id": 112809122, "nodes": [1281618437, 1281618281, 1281618279, 1281618395, 1281618437], "tags": {"amenity": "cafe", "building": "yes", "cuisine": "coffee_shop", "name": "Bar Nettuno", "wifi": "no"}}, {"type": "way", "id": 113063081, "nodes": [1283372845, 1283372822, 1283372861, 1283372938, 1283372845], "tags": {"amenity": "restaurant", "building": "yes", "cuisine": "pizza", "name": "Cos'\u00e9 Pazz"}}, {"type": "way", "id": 115771920, "nodes": [1307045691, 1307045645, 1307045979, 1307045764, 1307045691], "tags": {"amenity": "restaurant", "building": "yes", "cuisine": "pizza", "name": "Pizzeria San Paolo"}}, {"type": "way", "id": 120285074, "nodes": [1349069841, 12083557060, 12083557059, 1349069876, 2897180680, 12083557061, 12083603485, 12083603488, 1349069919, 12083603499, 1349069900, 12083603498, 12083603497, 12083603496, 12083603495, 12083603494, 12083603493, 12083603492, 1349069901, 1349069959, 1349069851, 1349069885, 1349069946, 1349069893, 1349069952, 1349069889, 1349069841], "tags": {"amenity": "restaurant", "building": "yes"}}, {"type": "way", "id": 141226242, "nodes": [1545964333, 1545964380, 1545964458, 1545964437, 1545964405, 1545964420, 1545964399, 1545964497, 1545964373, 1545964365, 1545964333], "tags": {"amenity": "cafe", "building": "yes", "name": "Il Chiosco"}}, {"type": "way", "id": 150640511, "nodes": [1635378118, 1635378120, 1635378125, 1635378127, 1635378129, 1635378131, 1635378134, 1635378138, 1635378140, 1635378143, 1635378146, 1635378147, 1635378148, 1635378149, 1635378118], "tags": {"amenity": "restaurant", "building": "yes", "name": "Don Antonio"}}, {"type": "way", "id": 150645491, "nodes": [1635430030, 1635430031, 1635430036, 1635430037, 1635430030], "tags": {"amenity": "restaurant", "building": "yes", "cuisine": "regional", "name": "A' Quadara"}}, {"type": "way", "id": 150645724, "nodes": [1635434494, 1635434498, 1635434503, 1635434505, 1635434494], "tags": {"amenity": "restaurant", "building": "yes", "cuisine": "regional"}}, {"type": "way", "id": 150801558, "nodes": [1636767966, 1636767967, 1636767968, 1636767969, 1636767970, 1636767971, 1636767966], "tags": {"alt_name": "U Petrolaru", "amenity": "cafe", "building": "yes", "name": "Bar Feudale"}}, {"type": "way", "id": 165407371, "nodes": [1769560883, 1769560884, 1769561111, 1769560819, 1769560883], "tags": {"amenity": "restaurant", "building": "yes", "name": "Sushi Panda"}}, {"type": "way", "id": 165718506, "nodes": [1772586966, 1772587006, 1772586942, 1772586933, 1772586950, 1772586904, 1772586959, 1772586892, 1772586963, 1772586858, 1772586877, 11987304488, 1772586937, 1772586911, 1772586966], "tags": {"amenity": "restaurant", "building": "yes", "name": "San Leonardo"}}, {"type": "way", "id": 165724622, "nodes": [1772644804, 1772644889, 1772644882, 1352954994, 1772644847, 1772644848, 1772644849, 1772644812, 1772644879, 1772644893, 1772644858, 1772644802, 1772644865, 1772644816, 1772644804], "tags": {"amenity": "restaurant", "building": "yes", "cuisine": "regional", "name": "Il Piccantino"}}, {"type": "way", "id": 178354393, "nodes": [1887126133, 1887126056, 1887126020, 1887126053, 1887125994, 1887126100, 1887126102, 1887126090, 1887126136, 1887126066, 1887126133], "tags": {"amenity": "restaurant", "building": "yes", "cuisine": "regional", "name": "Antico Borgo"}}, {"type": "way", "id": 178677177, "nodes": [1890243631, 1890243282, 1890243597, 1890243593, 1890243631], "tags": {"amenity": "restaurant", "building": "yes", "cuisine": "steak_house", "name": "Old Saloon"}}, {"type": "way", "id": 178678622, "nodes": [1890269037, 1890269013, 1890268960, 1890269026, 1890269050, 1890269002, 1890269051, 1890269052, 1890268941, 1890269000, 1890269037], "tags": {"amenity": "restaurant", "building": "yes", "name": "Il Giglio"}}, {"type": "way", "id": 179991289, "nodes": [1904385243, 1904385161, 1904385166, 1904385167, 1904385232, 1904385243], "tags": {"amenity": "restaurant", "building": "yes", "cuisine": "italian", "name": "S\u00f2 Sazio"}}, {"type": "way", "id": 180837820, "nodes": [1912962895, 11499816975, 1912962924, 1912962962, 11499816980, 1912962895], "tags": {"amenity": "restaurant", "building": "yes", "name": "Maristella"}}, {"type": "way", "id": 180840272, "nodes": [1912970310, 1912970334, 1912970398, 1912970202, 1912970388, 1912970316, 1912970249, 1912970382, 1912970396, 1912970408, 1912970310], "tags": {"amenity": "restaurant", "building": "yes", "name": "Le 7 Torri"}}, {"type": "way", "id": 180840514, "nodes": [1912972327, 1912972256, 1912972314, 1912972300, 1912972285, 1912972344, 1912972274, 1912972271, 1912972258, 1912972302, 1912972333, 1912972342, 1912972340, 1912972336, 1912972260, 1912972309, 1912972341, 1912972294, 1912972292, 1912972290, 1912972304, 1912972327], "tags": {"amenity": "restaurant", "building": "yes", "name": "Il Convivio di Hera"}}, {"type": "way", "id": 181729697, "nodes": [1921595363, 1921595255, 1921595303, 1921595270, 1921595363], "tags": {"amenity": "cafe", "building": "yes", "cuisine": "coffee_shop", "name": "La Colonna", "operator": "Leone Mafalda", "toilets": "yes"}}, {"type": "way", "id": 182331894, "nodes": [1926871399, 1926871439, 1926871387, 1926871403, 1926871399], "tags": {"amenity": "cafe", "building": "yes", "cuisine": "coffee_shop"}}, {"type": "way", "id": 184893448, "nodes": [1954683874, 1954683895, 1954683886, 1954683881, 1954683883, 1954683879, 1954683875, 1954683885, 1954683893, 1954683891, 1954683874], "tags": {"amenity": "restaurant", "building": "yes", "name": "Il Pino"}}, {"type": "way", "id": 185428488, "nodes": [1960295073, 1960295030, 1960295022, 1960295043, 1960295073], "tags": {"amenity": "cafe", "building": "yes"}}, {"type": "way", "id": 220314525, "nodes": [2294487344, 2294487345, 2294487343, 2294487346, 2294487344], "tags": {"amenity": "restaurant", "building": "yes", "name": "Garden"}}, {"type": "way", "id": 220340543, "nodes": [2294706950, 2294706966, 2294706936, 2294706944, 2294706950], "tags": {"amenity": "restaurant", "building": "yes", "name": "The Maida"}}, {"type": "way", "id": 221361201, "nodes": [2303887473, 2303887454, 2303887515, 2303887555, 2303887473], "tags": {"amenity": "restaurant", "building": "yes", "name": "El Carnicero"}}, {"type": "way", "id": 224345362, "nodes": [2331650260, 2331650227, 2331650210, 2331650201, 2331650200, 2331650277, 2331650260], "tags": {"amenity": "restaurant", "building": "yes", "cuisine": "pizza", "name": "Le Lanterne"}}, {"type": "way", "id": 225104621, "nodes": [2339276735, 2339276751, 2339276745, 2339276744, 2339276735], "tags": {"amenity": "cafe", "building": "yes", "name": "New York"}}, {"type": "way", "id": 229499706, "nodes": [2380890226, 2380890231, 2380890206, 2380890219, 2380890226], "tags": {"amenity": "cafe", "building": "yes"}}, {"type": "way", "id": 229499715, "nodes": [2380890222, 2380890237, 2380890227, 2380890221, 2380890222], "tags": {"amenity": "restaurant", "building": "yes", "cuisine": "italian", "name": "Santa Maria"}}, {"type": "way", "id": 236263440, "nodes": [2443140503, 2443140501, 2443140519, 2443140521, 2443140524, 2443140525, 2443140503], "tags": {"amenity": "restaurant", "building": "restaurant"}}, {"type": "way", "id": 251613393, "nodes": [2578065052, 2578065050, 2578065048, 2578065043, 2578065052], "tags": {"amenity": "cafe", "building": "yes", "name": "White Sands"}}, {"type": "way", "id": 261504106, "nodes": [2671137281, 2671137299, 2671137301, 2671137308, 2671137298, 2671137287, 2671137311, 2671137312, 2671137303, 2671137282, 2671137279, 2671137285, 2671137280, 2671137295, 2671137283, 2671137281], "tags": {"amenity": "restaurant", "building": "yes", "name": "Pagus"}}, {"type": "way", "id": 267704658, "nodes": [2731254935, 2731254986, 2731254994, 2731254991, 2731254988, 2731255007, 2731254941, 2731254935], "tags": {"amenity": "restaurant", "building": "yes", "cuisine": "pizza", "name": "Pizzeria 3000"}}, {"type": "way", "id": 267704691, "nodes": [2731257044, 2731257016, 2731257046, 2731257018, 2731257042, 2731257049, 2731257051, 2731257011, 2731257044], "tags": {"amenity": "restaurant", "building": "yes", "cuisine": "regional", "name": "La Scogliera"}}, {"type": "way", "id": 269823907, "nodes": [2749541112, 2749541135, 2749541092, 2749541146, 2749541112], "tags": {"amenity": "restaurant", "building": "yes", "cuisine": "fish", "name": "Al Porto Vecchio"}}, {"type": "way", "id": 285744030, "nodes": [2893836635, 2893836633, 2893836634, 2893836636, 2893836635], "tags": {"amenity": "restaurant", "building": "yes", "name": "Ristorante Pizzo Greco"}}, {"type": "way", "id": 305837905, "nodes": [3105231230, 3105234374, 3105234375, 3105230157, 3105231230], "tags": {"amenity": "restaurant", "building": "yes", "cuisine": "pizza"}}, {"type": "way", "id": 306035941, "nodes": [3108089800, 3108089801, 3108089802, 3108089803, 3108089804, 3108089805, 3108089806, 3108089807, 3108089800], "tags": {"amenity": "restaurant", "building": "yes", "name": "Marechiaro"}}, {"type": "way", "id": 306039858, "nodes": [3108159582, 3108159583, 3108159584, 3108159585, 3108159586, 3108159587, 3108159588, 3108159589, 3108159590, 3108159591, 3108159592, 3108159593, 3108159582], "tags": {"amenity": "restaurant", "building": "yes", "name": "El Cocos"}}, {"type": "way", "id": 306864667, "nodes": [3049119231, 3118837894, 3118837895, 3118834238, 3118837896, 3118837897, 3118837898, 3049120638, 3049119231], "tags": {"addr:city": "Isola di Capo Rizzuto", "addr:postcode": "88841", "addr:street": "Largo Traiano", "amenity": "restaurant", "building": "yes", "name": "Vecchia Locanda"}}, {"type": "way", "id": 306982886, "nodes": [3120262466, 3120262467, 3120262468, 3120262469, 3120262470, 3120262471, 3120262472, 3120262473, 3120262466], "tags": {"addr:city": "Isola di Capo Rizzuto", "addr:postcode": "88841", "addr:street": "Via Capo Rizzuto", "amenity": "restaurant", "building": "yes", "name": "La Quercia"}}, {"type": "way", "id": 307326209, "nodes": [3124299978, 3124299979, 3124299980, 3124299981, 3124299982, 3124299983, 3124299984, 3124299985, 3124299978], "tags": {"addr:city": "Isola di Capo Rizzuto", "addr:postcode": "88841", "addr:street": "Via Galliano", "amenity": "restaurant", "building": "yes", "name": "fantasy"}}, {"type": "way", "id": 307330651, "nodes": [3124347400, 3124347401, 3124441335, 3124347402, 3124341051, 3124347403, 3124347400], "tags": {"amenity": "restaurant", "building": "yes", "name": "Pizzeria La Rucola"}}, {"type": "way", "id": 307698887, "nodes": [3129016716, 3129016717, 3129018377, 3129018376, 3129016716], "tags": {"addr:city": "Isola di Capo Rizzuto", "addr:postcode": "88841", "addr:street": "Piazza del POPOLO", "amenity": "restaurant", "building": "yes", "name": "Per Bacco"}}, {"type": "way", "id": 308801311, "nodes": [3140772004, 3140772005, 3140772006, 3140772007, 3140772004], "tags": {"amenity": "restaurant", "area": "yes", "building": "yes", "name": "La piccola lanterna"}}, {"type": "way", "id": 308904959, "nodes": [3141952113, 3141952114, 3141952115, 3141952116, 3141952113], "tags": {"amenity": "restaurant", "building": "yes", "name": "Agriturismo Il Volpone"}}, {"type": "way", "id": 308911159, "nodes": [3142021464, 3142021465, 3142021466, 3142021467, 3142021464], "tags": {"amenity": "restaurant", "building": "yes"}}, {"type": "way", "id": 308917196, "nodes": [3142044508, 3142044509, 3142044510, 3142044511, 3142044508], "tags": {"addr:city": "Isola di Capo Rizzuto", "addr:postcode": "88841", "addr:street": "Via Mons. P. Bagarotti", "amenity": "restaurant", "building": "yes", "name": "Orchidea Blu"}}, {"type": "way", "id": 308922430, "nodes": [3142113254, 3142113255, 3142113256, 3142113257, 3142113254], "tags": {"amenity": "restaurant", "building": "yes", "name": "Baia Blu"}}, {"type": "way", "id": 308926853, "nodes": [3142183130, 3142183131, 3142183132, 3142183133, 3142183134, 3142183135, 3142183136, 3142183137, 3142183130], "tags": {"amenity": "restaurant", "building": "yes", "name": "Park Hotel"}}, {"type": "way", "id": 372305667, "nodes": [3758598037, 11364974864, 3758597819, 1258297663, 3758598029, 1258297919, 1258297912, 1258297351, 1258297044, 1258297085, 11364974862, 11364974863, 3758597817, 3758598027, 3758598026, 3758598037], "tags": {"amenity": "restaurant", "building": "yes", "cuisine": "regional", "name": "Nove Zero Due", "old_name": "Lido Aurora"}}, {"type": "way", "id": 395191045, "nodes": [3980987908, 3980987899, 3980987906, 3980987924, 3980987905, 3980987904, 3980987890, 3980987907, 3980987908], "tags": {"amenity": "restaurant", "building": "yes", "cuisine": "pizza", "name": "Sesto Senso"}}, {"type": "way", "id": 430657508, "nodes": [4299191666, 4299191668, 1814624691, 1814624149, 4299191667, 4299191669, 4299191666], "tags": {"amenity": "restaurant", "building": "yes", "name": "Ai 4.20"}}, {"type": "way", "id": 432946514, "nodes": [4318713166, 4318713162, 4318713176, 4318713161, 4318713166], "tags": {"amenity": "restaurant", "building": "yes", "cuisine": "pizza"}}, {"type": "way", "id": 436923688, "nodes": [4347737424, 4347737177, 4347737472, 4347737390, 4347737424], "tags": {"amenity": "restaurant", "building": "yes", "name": "Another Beach Project"}}, {"type": "way", "id": 436923693, "nodes": [4347737434, 4347737445, 4347737478, 4347737180, 4347737434], "tags": {"amenity": "cafe", "building": "yes"}}, {"type": "way", "id": 452909907, "nodes": [4497225820, 4497225827, 4497225809, 4497225813, 4497225820], "tags": {"amenity": "restaurant", "building": "yes", "name": "Al Porticato"}}, {"type": "way", "id": 468132855, "nodes": [4626911384, 4626911383, 4626911380, 4626911382, 4626911384], "tags": {"amenity": "restaurant", "building": "yes", "name": "Fantasylandia"}}, {"type": "way", "id": 486580287, "nodes": [4791700748, 4791700764, 4791700749, 4791700750, 4791700768, 4791700766, 4791700751, 4791700769, 4791700765, 4791700758, 4791700748], "tags": {"amenity": "restaurant", "building": "yes", "cuisine": "regional"}}, {"type": "way", "id": 500202259, "nodes": [4913111107, 4913112421, 4913111120, 4913112425, 4913111118, 4913111110, 4913111115, 4913111114, 4913112423, 4913111117, 4913112426, 4913112422, 4913111119, 4913112427, 4913111113, 4913111107], "tags": {"alt_name": "Da Sergio", "amenity": "restaurant", "building": "yes", "cuisine": "regional", "name": "Gambero Rosso"}}, {"type": "way", "id": 686590687, "nodes": [6435529064, 6435529061, 6435529060, 6435529066, 6435529067, 6435529063, 6435529062, 6435529072, 6435529069, 6435529068, 6435529070, 6435529065, 6435529064], "tags": {"amenity": "restaurant", "building": "yes", "cuisine": "regional", "name": "Borgo Salica"}}, {"type": "way", "id": 1104805885, "nodes": [10110049794, 10110049795, 10110049796, 10110049797, 10110049794], "tags": {"amenity": "restaurant", "building": "yes", "name": "Mood"}}, {"type": "way", "id": 1104808887, "nodes": [10110013764, 10110013765, 10110013766, 10110013767, 10110013768, 10110013769, 10110013770, 10110013771, 10110013764], "tags": {"amenity": "restaurant", "building": "yes", "name": "Il Pescatore"}}, {"type": "way", "id": 1270900529, "nodes": [11802239577, 11802239578, 11802239579, 11802239580, 11802239577], "tags": {"amenity": "restaurant", "building": "yes", "name": "L'isolitana"}}]}