{"version": 0.6, "generator": "Overpass API 0.7.62.7 375dc00a", "osm3s": {"timestamp_osm_base": "2025-06-14T15:38:25Z", "copyright": "The data included in this document is from www.openstreetmap.org. The data is made available under ODbL."}, "elements": [{"type": "node", "id": 1538051412, "lat": 8.1435422, "lon": 38.8137348, "tags": {"amenity": "restaurant", "name": "Bush Hotel"}}, {"type": "node", "id": 1592292034, "lat": 8.1500663, "lon": 38.8202549, "tags": {"amenity": "cafe", "contact:phone": "+251 (0) 911 90 31 72", "name": "Harmony Cafe and Restaurant", "name:am": "\u1200\u122d\u121e\u1292 \u12ab\u134c\u1293 \u122c\u1235\u1276\u122b\u1295\u1275", "source": "GPS,Photo"}}, {"type": "node", "id": 3307243223, "lat": 7.9216625, "lon": 38.71432, "tags": {"amenity": "restaurant", "name": "Castel Winery Restaurant"}}, {"type": "node", "id": 5416124423, "lat": 7.9327593, "lon": 38.7157413, "tags": {"amenity": "cafe", "name:en": "Right Cafe"}}, {"type": "node", "id": 5486101921, "lat": 7.932846, "lon": 38.7158664, "tags": {"amenity": "restaurant", "name:en": "Fekenga"}}, {"type": "node", "id": 7138566485, "lat": 7.925538, "lon": 38.7248827, "tags": {"amenity": "restaurant", "name:en": "Asa Tibs Bet"}}]}