{"version": 0.6, "generator": "Overpass API 0.7.62.7 375dc00a", "osm3s": {"timestamp_osm_base": "2025-06-14T13:58:38Z", "copyright": "The data included in this document is from www.openstreetmap.org. The data is made available under ODbL."}, "elements": [{"type": "node", "id": 314769360, "lat": 40.2622236, "lon": 16.2993815, "tags": {"amenity": "restaurant", "name": "Grillo", "operator": "De Marco, Salvatore", "phone": "+39 0973 619360"}}, {"type": "node", "id": 538992970, "lat": 40.0364178, "lon": 16.3060349, "tags": {"addr:full": "Piazza Plebiscito, San Costantino Albanese (PZ)", "amenity": "restaurant", "cuisine": "regional", "name": "Tre Kartuce", "operator": "Tufaro Filomena", "phone": "+39 0973 91285"}}, {"type": "node", "id": 1762641857, "lat": 40.3898389, "lon": 16.5556254, "tags": {"amenity": "cafe", "name": "Relax Bar"}}, {"type": "node", "id": 1762641870, "lat": 40.3902501, "lon": 16.5577432, "tags": {"amenity": "cafe", "name": "Bar Vena"}}, {"type": "node", "id": 2581122504, "lat": 40.3889716, "lon": 16.5626405, "tags": {"amenity": "restaurant", "cuisine": "pizza", "name": "La lanterna"}}, {"type": "node", "id": 2581122505, "lat": 40.3904734, "lon": 16.558198, "tags": {"addr:city": "Pisticci", "addr:housenumber": "28", "addr:postcode": "75015", "addr:street": "Via Mario Pagano", "amenity": "restaurant", "cuisine": "pizza", "name": "Napul'\u00e8", "opening_hours": "Mo off; Tu-Su 19:00-24:00", "phone": "+390835581074"}}, {"type": "node", "id": 2955844842, "lat": 40.2485453, "lon": 16.7493851, "tags": {"amenity": "restaurant", "name": "Coconuts Discopub"}}, {"type": "node", "id": 3080828964, "lat": 40.1240397, "lon": 16.6495731}, {"type": "node", "id": 3080828965, "lat": 40.124193, "lon": 16.6497721}, {"type": "node", "id": 3080828966, "lat": 40.1240684, "lon": 16.6499363}, {"type": "node", "id": 3080828967, "lat": 40.1239151, "lon": 16.6497372}, {"type": "node", "id": 3080829262, "lat": 40.12177, "lon": 16.6468349}, {"type": "node", "id": 3080829263, "lat": 40.1218806, "lon": 16.6468431}, {"type": "node", "id": 3080829264, "lat": 40.1218779, "lon": 16.6469058}, {"type": "node", "id": 3080829265, "lat": 40.1219385, "lon": 16.6469102}, {"type": "node", "id": 3080829266, "lat": 40.1219298, "lon": 16.6471106}, {"type": "node", "id": 3080829267, "lat": 40.1218996, "lon": 16.6471083}, {"type": "node", "id": 3080829268, "lat": 40.1218968, "lon": 16.6471724}, {"type": "node", "id": 3080829269, "lat": 40.1217964, "lon": 16.6471649}, {"type": "node", "id": 3080829270, "lat": 40.1218026, "lon": 16.647023}, {"type": "node", "id": 3080829271, "lat": 40.121762, "lon": 16.64702}, {"type": "node", "id": 3080902809, "lat": 40.1214513, "lon": 16.6438867}, {"type": "node", "id": 3080902810, "lat": 40.1213024, "lon": 16.6440472}, {"type": "node", "id": 3080902811, "lat": 40.1211712, "lon": 16.6438495}, {"type": "node", "id": 3080902812, "lat": 40.1213191, "lon": 16.643691}, {"type": "node", "id": 3127480626, "lat": 40.1493427, "lon": 16.2874855, "tags": {"amenity": "restaurant"}}, {"type": "node", "id": 3127502973, "lat": 40.1498938, "lon": 16.2872017, "tags": {"amenity": "restaurant"}}, {"type": "node", "id": 3634022606, "lat": 40.0498512, "lon": 16.6000209, "tags": {"amenity": "restaurant", "cuisine": "italian", "tobacco": "yes"}}, {"type": "node", "id": 3784834118, "lat": 40.4069123, "lon": 16.6864332, "tags": {"amenity": "restaurant", "cuisine": "italian", "name": "Zelmira 77", "takeaway": "yes"}}, {"type": "node", "id": 4798773523, "lat": 40.360336, "lon": 16.836903, "tags": {"addr:city": "Bernalda", "addr:postcode": "75012", "addr:province": "Matera", "addr:street": "Viale delle Sirene", "amenity": "restaurant", "name": "Terrazzino degli dei - da vito"}}, {"type": "node", "id": 4852611121, "lat": 40.373326, "lon": 16.809511, "tags": {"addr:city": "Metaponto", "addr:postcode": "75012", "addr:province": "Matera", "addr:street": "Via Laveran", "amenity": "restaurant", "contact:phone": "+39 328 2815681", "name": "Il Guerriero"}}, {"type": "node", "id": 4892368221, "lat": 40.358711, "lon": 16.834671, "tags": {"addr:city": "Metaponto Lido", "addr:postcode": "75012", "addr:province": "Matera", "addr:street": "Viale delle Nereidi", "amenity": "restaurant", "name": "Ristorante Pizzeria Internazionale"}}, {"type": "node", "id": 4894335321, "lat": 40.40329, "lon": 16.688503, "tags": {"addr:city": "Bernalda", "addr:postcode": "75012", "addr:province": "Matera", "addr:street": "Via Redi", "amenity": "restaurant", "name": "Ristorante alle Porte"}}, {"type": "node", "id": 4973582134, "lat": 40.1779083, "lon": 16.6596017, "tags": {"addr:city": "Policoro", "addr:housenumber": "75", "addr:postcode": "75025", "addr:street": "Via Nazionale", "amenity": "restaurant", "name": "Red Restaurant", "phone": "+39 334 360 9110"}}, {"type": "node", "id": 4975353277, "lat": 40.1021515, "lon": 16.6082476, "tags": {"amenity": "restaurant", "name": "Parsifal"}}, {"type": "node", "id": 4975353278, "lat": 40.102378, "lon": 16.6072278, "tags": {"amenity": "restaurant", "name": "Konnubio"}}, {"type": "node", "id": 5009811622, "lat": 40.3901794, "lon": 16.5523377, "tags": {"addr:housenumber": "2", "addr:postcode": "75015", "addr:street": "Via Risorgimento", "amenity": "restaurant", "cuisine": "italian_pizza;local;regional", "name": "Incontro", "name:it": "Incontro", "opening_hours": "Tu-Su 12:00-15:00, 19:00-23:00", "phone": "+39 0835 582467"}}, {"type": "node", "id": 5015352121, "lat": 40.248379, "lon": 16.701139, "tags": {"addr:city": "Scanzano Jonico", "addr:postcode": "75020", "addr:province": "Matera", "addr:street": "Via Adua", "amenity": "restaurant", "name": "Marlin Blue"}}, {"type": "node", "id": 5015353321, "lat": 40.24851, "lon": 16.700707, "tags": {"addr:city": "Scanzano Jonico", "addr:housenumber": "2", "addr:postcode": "75020", "addr:province": "Matera", "addr:street": "Via Antonio Gramsci", "amenity": "restaurant", "name": "Le delizie del Borgo"}}, {"type": "node", "id": 5015353422, "lat": 40.248068, "lon": 16.700447, "tags": {"addr:city": "Scanzano Jonico", "addr:postcode": "75020", "addr:province": "Matera", "addr:street": "Via C. Ascalesi", "amenity": "restaurant", "name": "Alla grande Lucania"}}, {"type": "node", "id": 5020647322, "lat": 40.362182, "lon": 16.834756, "tags": {"addr:city": "Metaponto Lido", "addr:postcode": "75012", "addr:province": "Matera", "addr:street": "Viale Magna Grecia", "amenity": "restaurant", "name": "La Barchetta", "phone": "+39 0835 7419601", "phone:mobile": "+39 335 1615603"}}, {"type": "node", "id": 5923944865, "lat": 40.3927361, "lon": 16.525992, "tags": {"addr:street": "Contrada Santa Lucia", "amenity": "restaurant", "description": "Agriturismo con cucina tipica lucana.", "email": "agriturismo@ilcalanco.it", "name": "Agriturismo Il Calanco", "phone": "+39 0835462191"}}, {"type": "node", "id": 6216736003, "lat": 40.1876974, "lon": 16.4235499, "tags": {"amenity": "cafe"}}, {"type": "node", "id": 6310596362, "lat": 40.1832788, "lon": 16.7127846, "tags": {"amenity": "restaurant", "name": "La Capannina"}}, {"type": "node", "id": 6840222678, "lat": 40.1891215, "lon": 16.7187528}, {"type": "node", "id": 6840222679, "lat": 40.188988, "lon": 16.7189497}, {"type": "node", "id": 6840222680, "lat": 40.188739, "lon": 16.7187404}, {"type": "node", "id": 6840222681, "lat": 40.1885925, "lon": 16.7186003}, {"type": "node", "id": 6840222682, "lat": 40.1887421, "lon": 16.7182534}, {"type": "node", "id": 7062984915, "lat": 40.4096893, "lon": 16.6865882, "tags": {"addr:city": "Bernalda", "addr:housenumber": "25", "addr:postcode": "75012", "addr:street": "Via Eduardo De Filippo", "amenity": "restaurant", "cuisine": "braceria", "name": "Boutique della carne CARLUCCI Antonio", "opening_hours": "Mo-Su 07:30-13:00,17:00-23:00", "phone": "+39 392 297 8809"}}, {"type": "node", "id": 7129246770, "lat": 40.1100885, "lon": 16.5795703, "tags": {"amenity": "cafe", "name": "Enigma Caf\u00e9"}}, {"type": "node", "id": 7129246772, "lat": 40.1101769, "lon": 16.5791608, "tags": {"amenity": "restaurant", "name": "Palazzo Pucci"}}, {"type": "node", "id": 7129263873, "lat": 40.1286338, "lon": 16.6386014, "tags": {"amenity": "restaurant", "cuisine": "pizza", "name": "I Due Ghiottoni"}}, {"type": "node", "id": 8406710105, "lat": 40.4107605, "lon": 16.6896607, "tags": {"addr:housenumber": "196", "addr:street": "Corso Umberto Primo", "amenity": "cafe", "name": "Bar Pasticceria del Corso", "phone": "+39 0835 542593", "website": "http://scorzetta.it/", "wheelchair": "yes"}}, {"type": "node", "id": 8418614724, "lat": 40.3907819, "lon": 16.5582281, "tags": {"amenity": "cafe", "name": "Bar Pisticci (bar/pasticceria)"}}, {"type": "node", "id": 8418614726, "lat": 40.39058, "lon": 16.5591412, "tags": {"amenity": "restaurant", "name": "Panificio Centrale"}}, {"type": "node", "id": 8418661964, "lat": 40.3636862, "lon": 16.6865667, "tags": {"addr:city": "Marconia", "addr:housenumber": "10", "addr:postcode": "75020", "addr:street": "Via Lucania", "air_conditioning": "yes", "amenity": "restaurant", "contact:facebook": "https://www.facebook.com/30esto/", "cuisine": "pizza;italian", "diet:vegan": "yes", "diet:vegetarian": "yes", "name": "30&Sto di Laviola Nicola", "opening_hours": "Mo 18:00-23:00; Tu 18:00-23:00; We 18:00-23:00; Fr 18:00-23:00; Sa 11:00-15:00,18:00-23:00; Su 11:00-15:00,18:00-23:00", "phone": "+390835680746", "wheelchair": "yes"}}, {"type": "node", "id": 8425980827, "lat": 40.4084529, "lon": 16.6876236, "tags": {"addr:city": "Bernalda", "addr:housenumber": "93", "addr:postcode": "75012", "addr:street": "Corso Umberto Primo", "amenity": "restaurant", "cuisine": "pizza;italian;seafood", "name": "Ristorante I Pitagorici", "phone": "+393515904811"}}, {"type": "node", "id": 8597809565, "lat": 40.0360848, "lon": 16.4582312}, {"type": "node", "id": 8597809566, "lat": 40.036035, "lon": 16.4584385}, {"type": "node", "id": 8597809567, "lat": 40.0358731, "lon": 16.4583938}, {"type": "node", "id": 8597809568, "lat": 40.0359447, "lon": 16.4581783}, {"type": "node", "id": 8828026236, "lat": 40.4083272, "lon": 16.6884021, "tags": {"addr:housenumber": "6", "addr:postcode": "75012", "addr:street": "Via Anacreonte", "amenity": "restaurant", "brewery": "Guinness;Paulaner;various;Heineken", "contact:facebook": "https://www.facebook.com/MemphisBernalda", "cuisine": "pizza;burger;aperitivo;crepes", "diet:gluten_free": "yes", "diet:vegan": "yes", "diet:vegetarian": "yes", "name": "Memphis Pub Pizzeria", "opening_hours": "Mo-Su 18:00-03:00", "phone": "+39 0835 542931", "website": "https://www.memphispub.com/", "wheelchair": "yes"}}, {"type": "node", "id": 8947136519, "lat": 40.3209118, "lon": 16.8019594, "tags": {"amenity": "restaurant", "name": "Lido Cuba Libre"}}, {"type": "node", "id": 8948120027, "lat": 40.1885582, "lon": 16.718538}, {"type": "node", "id": 8950013621, "lat": 40.0473233, "lon": 16.3516942, "tags": {"addr:city": "Cersosimo", "addr:postcode": "85030", "amenity": "restaurant", "building": "yes", "cuisine": "regional;pizza;italian", "layer": "1"}}, {"type": "node", "id": 8951564947, "lat": 40.2483694, "lon": 16.493496, "tags": {"addr:city": "Tursi", "addr:postcode": "75028", "addr:street": "Contrada Acqua Salsa", "amenity": "restaurant", "cuisine": "italian", "name": "Il Limoncello Villa Mariagrazia"}}, {"type": "node", "id": 9028595748, "lat": 40.2130122, "lon": 16.6736348, "tags": {"addr:city": "Policoro", "addr:country": "IT", "addr:housenumber": "49", "addr:postcode": "75025", "addr:street": "Viale Salerno", "amenity": "cafe", "cuisine": "coffee_shop;dessert;ice_cream", "name": "Caff\u00e8 Lo Spuntino da Elio", "outdoor_seating": "yes", "phone": "+390835972457"}}, {"type": "node", "id": 9526582164, "lat": 40.2455964, "lon": 16.4684737, "tags": {"amenity": "cafe"}}, {"type": "node", "id": 9531865606, "lat": 40.2463836, "lon": 16.4685558, "tags": {"amenity": "cafe"}}, {"type": "node", "id": 9968652547, "lat": 40.3334448, "lon": 16.8145935, "tags": {"amenity": "restaurant", "name": "La Battigia", "phone": "+39 370 124 5441"}}, {"type": "node", "id": 10783390015, "lat": 40.14248, "lon": 16.6319271}, {"type": "node", "id": 10783390016, "lat": 40.1423581, "lon": 16.6318798}, {"type": "node", "id": 10783390017, "lat": 40.1423209, "lon": 16.6320181}, {"type": "node", "id": 10783390018, "lat": 40.1424404, "lon": 16.6320649}, {"type": "node", "id": 10946300115, "lat": 40.1900836, "lon": 16.3513741}, {"type": "node", "id": 10946300116, "lat": 40.1900453, "lon": 16.3515205}, {"type": "node", "id": 10946300117, "lat": 40.1900186, "lon": 16.3515118}, {"type": "node", "id": 10946300118, "lat": 40.1900025, "lon": 16.3515429}, {"type": "node", "id": 10946300119, "lat": 40.1900407, "lon": 16.3515529}, {"type": "node", "id": 10946300120, "lat": 40.1899942, "lon": 16.351727}, {"type": "node", "id": 10946300121, "lat": 40.1899665, "lon": 16.351835}, {"type": "node", "id": 10946300122, "lat": 40.1899312, "lon": 16.351821}, {"type": "node", "id": 10946300123, "lat": 40.1899171, "lon": 16.3518932}, {"type": "node", "id": 10946300124, "lat": 40.1898457, "lon": 16.3518791}, {"type": "node", "id": 10946300125, "lat": 40.1898921, "lon": 16.3516645}, {"type": "node", "id": 10946300126, "lat": 40.189855, "lon": 16.3516539}, {"type": "node", "id": 10946300127, "lat": 40.1898962, "lon": 16.3514789}, {"type": "node", "id": 10946300128, "lat": 40.1899881, "lon": 16.3515163}, {"type": "node", "id": 10946300129, "lat": 40.1900341, "lon": 16.3513407}, {"type": "node", "id": 10965420364, "lat": 40.4231973, "lon": 16.5418727, "tags": {"addr:housenumber": "Km 77.500", "addr:street": "SS 407 Basentana", "amenity": "restaurant", "name": "Marbe s.r.l.", "phone": "+311212210775"}}, {"type": "node", "id": 11053711405, "lat": 40.4634929, "lon": 16.8064433, "tags": {"addr:street": "Contrada Pantano 74013 Ginosa", "amenity": "restaurant", "name": "Arco Antico"}}, {"type": "node", "id": 11199761641, "lat": 40.4262366, "lon": 16.5398247}, {"type": "node", "id": 11199761642, "lat": 40.4261439, "lon": 16.539877}, {"type": "node", "id": 11199761643, "lat": 40.4260171, "lon": 16.5399309}, {"type": "node", "id": 11199761644, "lat": 40.4260216, "lon": 16.5399489}, {"type": "node", "id": 11199761645, "lat": 40.4259157, "lon": 16.539994}, {"type": "node", "id": 11199761646, "lat": 40.4259215, "lon": 16.5400176}, {"type": "node", "id": 11199761647, "lat": 40.4258766, "lon": 16.5400367}, {"type": "node", "id": 11199761648, "lat": 40.4259509, "lon": 16.5403097}, {"type": "node", "id": 11199761649, "lat": 40.4259951, "lon": 16.5402909}, {"type": "node", "id": 11199761650, "lat": 40.4259568, "lon": 16.5401369}, {"type": "node", "id": 11199761651, "lat": 40.4260553, "lon": 16.540095}, {"type": "node", "id": 11199761652, "lat": 40.4260734, "lon": 16.5401679}, {"type": "node", "id": 11199761653, "lat": 40.4262981, "lon": 16.5400723}, {"type": "node", "id": 11244259737, "lat": 40.1100795, "lon": 16.579505, "tags": {"amenity": "restaurant", "name": "La Casa Incantada"}}, {"type": "node", "id": 11270684598, "lat": 40.2128171, "lon": 16.6723444, "tags": {"amenity": "cafe", "name": "Caff\u00e8 Napoli"}}, {"type": "node", "id": 11270696457, "lat": 40.2128194, "lon": 16.6722341, "tags": {"amenity": "restaurant", "name": "Sostera"}}, {"type": "node", "id": 11409133900, "lat": 40.3612502, "lon": 16.8375835, "tags": {"amenity": "restaurant", "name": "L'oasi"}}, {"type": "node", "id": 11410386252, "lat": 40.3754367, "lon": 16.7868063, "tags": {"amenity": "restaurant", "cuisine": "italian;pizza", "guest_house": "agritourism", "tourism": "guest_house"}}, {"type": "node", "id": 11411731860, "lat": 40.2481097, "lon": 16.6994852, "tags": {"amenity": "cafe", "indoor_seating": "yes", "outdoor_seating": "yes"}}, {"type": "node", "id": 11412126560, "lat": 40.0869737, "lon": 16.6045535, "tags": {"amenity": "restaurant", "name": "Villhour"}}, {"type": "node", "id": 11412237733, "lat": 40.0616467, "lon": 16.601999, "tags": {"amenity": "restaurant", "name": "Due Scogli", "survey:date": "2023-12-12"}}, {"type": "node", "id": 12014794075, "lat": 40.3903016, "lon": 16.5578606, "tags": {"addr:city": "Pisticci", "addr:housenumber": "7", "addr:place": "Piazza Umberto Primo", "addr:postcode": "75015", "amenity": "cafe", "name": "Caff\u00e8 della Piazza", "opening_hours": "Mo-We 06:30-22:00; Th off; Fr-Su 06:30-22:00", "phone": "+393286741824"}}, {"type": "node", "id": 12244332155, "lat": 40.3676081, "lon": 16.8415053, "tags": {"amenity": "restaurant", "cuisine": "pizza;italian"}}, {"type": "node", "id": 12492517463, "lat": 40.1829021, "lon": 16.6794293}, {"type": "node", "id": 12492517464, "lat": 40.1827573, "lon": 16.6793669}, {"type": "node", "id": 12492517465, "lat": 40.1826927, "lon": 16.679592}, {"type": "node", "id": 12492517466, "lat": 40.1828391, "lon": 16.6796544}, {"type": "way", "id": 303680675, "nodes": [3080828964, 3080828965, 3080828966, 3080828967, 3080828964], "tags": {"amenity": "restaurant", "name": "La Trappola"}}, {"type": "way", "id": 303680711, "nodes": [3080829262, 3080829263, 3080829264, 3080829265, 3080829266, 3080829267, 3080829268, 3080829269, 3080829270, 3080829271, 3080829262], "tags": {"amenity": "restaurant", "building": "yes"}}, {"type": "way", "id": 303687172, "nodes": [3080902809, 3080902810, 3080902811, 3080902812, 3080902809], "tags": {"amenity": "restaurant", "name": "Castroboleto Village"}}, {"type": "way", "id": 730162573, "nodes": [6840222678, 6840222679, 6840222680, 6840222681, 8948120027, 6840222682, 6840222678], "tags": {"amenity": "restaurant", "building": "yes", "name": "Lido La Stiva"}}, {"type": "way", "id": 926518191, "nodes": [8597809565, 8597809566, 8597809567, 8597809568, 8597809565], "tags": {"amenity": "cafe", "building": "yes"}}, {"type": "way", "id": 1159539792, "nodes": [10783390015, 10783390016, 10783390017, 10783390018, 10783390015], "tags": {"amenity": "restaurant", "building": "yes"}}, {"type": "way", "id": 1178324895, "nodes": [10946300115, 10946300116, 10946300117, 10946300118, 10946300119, 10946300120, 10946300121, 10946300122, 10946300123, 10946300124, 10946300125, 10946300126, 10946300127, 10946300128, 10946300129, 10946300115], "tags": {"amenity": "restaurant", "building": "yes", "cuisine": "regional;italian", "email": "info@tenutafortunato.com", "name": "Tenuta Fortunato", "phone": "+393391825956", "website": "https://www.tenutafortunato.com/"}}, {"type": "way", "id": 1208765705, "nodes": [11199761653, 11199761652, 11199761651, 11199761650, 11199761649, 11199761648, 11199761647, 11199761646, 11199761645, 11199761644, 11199761643, 11199761642, 11199761641, 11199761653], "tags": {"amenity": "restaurant", "building": "commercial"}}, {"type": "way", "id": 1350383650, "nodes": [12492517463, 12492517464, 12492517465, 12492517466, 12492517463], "tags": {"addr:city": "Policoro", "addr:housenumber": "26", "addr:postcode": "75025", "addr:street": "Via Giuseppe Verdi", "amenity": "restaurant", "building": "yes", "name": "Il Trovatore", "phone": "+39 338 526 2245"}}]}