{"version": 0.6, "generator": "Overpass API 0.7.62.7 375dc00a", "osm3s": {"timestamp_osm_base": "2025-06-14T15:00:45Z", "copyright": "The data included in this document is from www.openstreetmap.org. The data is made available under ODbL."}, "elements": [{"type": "node", "id": 1810394402, "lat": 39.9436846, "lon": 29.6492523, "tags": {"amenity": "restaurant", "cuisine": "turkish"}}, {"type": "node", "id": 1810394956, "lat": 39.944721, "lon": 29.6523851, "tags": {"amenity": "restaurant", "cuisine": "turkish"}}, {"type": "node", "id": 4022415382, "lat": 40.1391074, "lon": 29.9887996, "tags": {"addr:city": "Bilecik", "addr:postcode": "11130", "addr:street": "Ertu\u011frulgazi,Bilecik Kent Orman\u0131,", "amenity": "cafe", "name": "\u00c7ay Bah\u00e7esi"}}, {"type": "node", "id": 4352932191, "lat": 39.9090976, "lon": 30.0192529, "tags": {"amenity": "restaurant", "brand": "K\u00f6fteci Yusuf", "brand:wikidata": "Q126125081", "cuisine": "turkish", "name": "K\u00f6fteci Yusuf"}}, {"type": "node", "id": 4373242185, "lat": 40.1438389, "lon": 29.9872247, "tags": {"amenity": "cafe"}}, {"type": "node", "id": 4438018332, "lat": 40.1149292, "lon": 30.0560012, "tags": {"amenity": "cafe"}}, {"type": "node", "id": 4438018333, "lat": 40.1146856, "lon": 30.0560897, "tags": {"amenity": "cafe"}}, {"type": "node", "id": 4449782889, "lat": 39.8568092, "lon": 29.631202, "tags": {"amenity": "restaurant", "cuisine": "turkish", "name": "Murat Aga", "name:tr": "Murat Aga"}}, {"type": "node", "id": 4598551783, "lat": 40.0137894, "lon": 30.1830307}, {"type": "node", "id": 4598551784, "lat": 40.0138109, "lon": 30.1830844}, {"type": "node", "id": 4598551785, "lat": 40.0137268, "lon": 30.1831148}, {"type": "node", "id": 4598551786, "lat": 40.0137143, "lon": 30.1830704}, {"type": "node", "id": 5003183822, "lat": 40.0716246, "lon": 30.0162642, "tags": {"amenity": "restaurant", "name": "Cennet Vadisi", "name:en": "Valley of Paradise", "name:tr": "Cennet Vadisi"}}, {"type": "node", "id": 5105075722, "lat": 39.9160862, "lon": 30.0140878, "tags": {"amenity": "cafe", "name:en": "Starbucks"}}, {"type": "node", "id": 6052580886, "lat": 39.8837231, "lon": 29.6514989, "tags": {"amenity": "restaurant", "name": "Koy Evi Restaurant"}}, {"type": "node", "id": 6720454792, "lat": 40.1086552, "lon": 30.0049984, "tags": {"amenity": "restaurant", "name": "\u015eeker Et"}}, {"type": "node", "id": 6728916472, "lat": 40.0234873, "lon": 29.6310386, "tags": {"amenity": "restaurant", "name": "Murat \u0130neg\u00f6l K\u00f6fte"}}, {"type": "node", "id": 6880643685, "lat": 39.996435, "lon": 29.9031591, "tags": {"amenity": "restaurant"}}, {"type": "node", "id": 6880978185, "lat": 40.1404261, "lon": 29.6623777, "tags": {"amenity": "cafe"}}, {"type": "node", "id": 7071995837, "lat": 40.0349559, "lon": 29.6622495, "tags": {"amenity": "restaurant", "name": "A\u015fiyan Yemek Salonu"}}, {"type": "node", "id": 8336017022, "lat": 39.901424, "lon": 30.0418772}, {"type": "node", "id": 8336017023, "lat": 39.9014218, "lon": 30.0419937}, {"type": "node", "id": 8336017024, "lat": 39.9014491, "lon": 30.0419946}, {"type": "node", "id": 8336017025, "lat": 39.9014462, "lon": 30.0421481}, {"type": "node", "id": 8336017026, "lat": 39.9014101, "lon": 30.0422224}, {"type": "node", "id": 8336017027, "lat": 39.901381, "lon": 30.042224}, {"type": "node", "id": 8336017028, "lat": 39.901342, "lon": 30.0421595}, {"type": "node", "id": 8336017029, "lat": 39.9013451, "lon": 30.0419983}, {"type": "node", "id": 8336017030, "lat": 39.9013677, "lon": 30.041999}, {"type": "node", "id": 8336017031, "lat": 39.9013701, "lon": 30.0418754}, {"type": "node", "id": 8339900622, "lat": 39.8906359, "lon": 30.0663298}, {"type": "node", "id": 8339900623, "lat": 39.8906095, "lon": 30.0662761}, {"type": "node", "id": 8339900624, "lat": 39.8905569, "lon": 30.0662525}, {"type": "node", "id": 8339900625, "lat": 39.8905009, "lon": 30.0662911}, {"type": "node", "id": 8339900626, "lat": 39.8904861, "lon": 30.0663619}, {"type": "node", "id": 8339900627, "lat": 39.8905124, "lon": 30.0664285}, {"type": "node", "id": 8339900628, "lat": 39.8905684, "lon": 30.0664585}, {"type": "node", "id": 8339900629, "lat": 39.8906244, "lon": 30.0664156}, {"type": "node", "id": 8980125494, "lat": 40.1432714, "lon": 29.9785411, "tags": {"amenity": "cafe", "name": "Mr Sweet"}}, {"type": "node", "id": 8980125502, "lat": 40.1445208, "lon": 29.9805089, "tags": {"amenity": "cafe", "name": "Konak Kafe"}}, {"type": "node", "id": 8982649763, "lat": 40.1471131, "lon": 29.9761795, "tags": {"amenity": "cafe", "name": "\u015eelale Kafe"}}, {"type": "node", "id": 8982649782, "lat": 40.1425095, "lon": 29.98168, "tags": {"amenity": "restaurant", "cuisine": "pizza", "name": "Passaport Pizza"}}, {"type": "node", "id": 8982649786, "lat": 40.1384382, "lon": 29.9747174, "tags": {"amenity": "cafe", "name": "Royal Butik Patisserie"}}, {"type": "node", "id": 9368139765, "lat": 40.0834114, "lon": 30.0153565, "tags": {"amenity": "restaurant", "name": "\u015eato Et Mangal"}}, {"type": "node", "id": 9368139783, "lat": 40.09011, "lon": 30.0106236, "tags": {"amenity": "restaurant", "name": "Ba\u015faran Dinlenme Tesisleri"}}, {"type": "node", "id": 9368139784, "lat": 40.0900663, "lon": 30.0106687, "tags": {"amenity": "restaurant", "name": "Me\u015fhur \u00c7orbac\u0131"}}, {"type": "node", "id": 9368139803, "lat": 40.0934951, "lon": 30.0042334, "tags": {"amenity": "restaurant", "name": "Er\u015fan Et Ve Et \u00dcr\u00fcnleri Hayvan Bar\u0131na\u011f\u0131"}}, {"type": "node", "id": 9368139833, "lat": 40.1015338, "lon": 29.9982038, "tags": {"amenity": "restaurant", "name": "Acar Restaurant"}}, {"type": "node", "id": 9901191617, "lat": 39.9057303, "lon": 30.0339956, "tags": {"amenity": "cafe"}}, {"type": "node", "id": 11018489205, "lat": 40.1428272, "lon": 29.9775041, "tags": {"amenity": "restaurant", "cuisine": "local;turkish", "name": "Zeytin Et Lokantas\u0131", "phone": "02282125505"}}, {"type": "node", "id": 12077333142, "lat": 39.8158008, "lon": 30.1404367, "tags": {"amenity": "cafe", "cuisine": "coffee_shop", "name": "K\u0131raathane"}}, {"type": "node", "id": 12077333153, "lat": 39.8153245, "lon": 30.1420058, "tags": {"amenity": "restaurant", "cuisine": "turkish", "name": "Doyum Tantuni"}}, {"type": "node", "id": 12077333154, "lat": 39.8153398, "lon": 30.1419177, "tags": {"amenity": "cafe", "name": "Meydan K\u0131raathanesi"}}, {"type": "node", "id": 12077350678, "lat": 39.817069, "lon": 30.1432571, "tags": {"amenity": "restaurant", "cuisine": "turkish", "name": "Erba\u015f Karde\u015fler Pide Salonu"}}, {"type": "node", "id": 12077350688, "lat": 39.8164399, "lon": 30.1407006, "tags": {"amenity": "cafe", "name": "G\u00f6kku\u015fa\u011f\u0131 Kafe"}}, {"type": "node", "id": 12145174830, "lat": 40.023184, "lon": 29.6301638, "tags": {"amenity": "restaurant", "name": "K\u00f6fteci Sadri"}}, {"type": "node", "id": 12145206774, "lat": 39.9749334, "lon": 29.6578764, "tags": {"amenity": "restaurant", "name": "Vahit Usta \u0130neg\u00f6l K\u00f6fte"}}, {"type": "node", "id": 12670934954, "lat": 39.9154588, "lon": 30.0161263, "tags": {"amenity": "restaurant", "brand": "K\u00f6fteci Yusuf", "brand:wikidata": "Q126125081", "cuisine": "turkish", "name": "K\u00f6fteci Yusuf"}}, {"type": "node", "id": 12709914328, "lat": 40.0066045, "lon": 30.0155315, "tags": {"amenity": "restaurant", "name": "Fehmibey Restoran"}}, {"type": "node", "id": 12709914334, "lat": 39.9833199, "lon": 30.0004797, "tags": {"amenity": "restaurant", "name": "Damak Restaurant"}}, {"type": "node", "id": 12790442515, "lat": 39.9067987, "lon": 30.0400315, "tags": {"addr:neighbourhood": "Yeni Mahallesi", "addr:postcode": "11300", "amenity": "restaurant", "cuisine": "kebab;juice;salad;dessert;turkish;regional;ice_cream", "diet:halal": "yes", "diet:healthy": "yes", "diet:local": "yes", "diet:meat": "yes", "diet:non-vegetarian": "yes", "diet:organic": "yes", "name": "Kirazo\u011flu Etli Ekmek Salonu", "opening_hours": "sunrise-sunset", "phone": "+90 228 314 3242"}}, {"type": "node", "id": 12790469324, "lat": 39.9060181, "lon": 30.0500916}, {"type": "node", "id": 12790469325, "lat": 39.9059878, "lon": 30.0501337}, {"type": "node", "id": 12790469326, "lat": 39.9059438, "lon": 30.0501406}, {"type": "node", "id": 12790469327, "lat": 39.9059067, "lon": 30.0501091}, {"type": "node", "id": 12790469328, "lat": 39.9058939, "lon": 30.0500538}, {"type": "node", "id": 12790469329, "lat": 39.9059113, "lon": 30.0500007}, {"type": "node", "id": 12790469330, "lat": 39.9059508, "lon": 30.0499746}, {"type": "node", "id": 12790469331, "lat": 39.9059939, "lon": 30.0499878}, {"type": "node", "id": 12790469332, "lat": 39.9060205, "lon": 30.050034}, {"type": "way", "id": 464783620, "nodes": [4598551783, 4598551784, 4598551785, 4598551786, 4598551783], "tags": {"amenity": "cafe", "building": "yes", "name": "Cafeteria"}}, {"type": "way", "id": 896786914, "nodes": [8336017022, 8336017023, 8336017024, 8336017025, 8336017026, 8336017027, 8336017028, 8336017029, 8336017030, 8336017031, 8336017022], "tags": {"amenity": "cafe", "building": "yes"}}, {"type": "way", "id": 897288962, "nodes": [8339900622, 8339900623, 8339900624, 8339900625, 8339900626, 8339900627, 8339900628, 8339900629, 8339900622], "tags": {"amenity": "cafe", "building": "yes"}}, {"type": "way", "id": 1381541167, "nodes": [12790469332, 12790469331, 12790469330, 12790469329, 12790469328, 12790469327, 12790469326, 12790469325, 12790469324, 12790469332], "tags": {"amenity": "cafe", "building": "yes"}}]}