{"version": 0.6, "generator": "Overpass API 0.7.62.7 375dc00a", "osm3s": {"timestamp_osm_base": "2025-06-14T15:17:02Z", "copyright": "The data included in this document is from www.openstreetmap.org. The data is made available under ODbL."}, "elements": [{"type": "node", "id": 431636903, "lat": 32.4457048, "lon": 35.1754498, "tags": {"amenity": "restaurant", "name": "Al-bayara restaurant", "name:ar": "\u0645\u0637\u0639\u0645 \u0627\u0644\u0628\u064a\u0627\u0631\u0629", "name:en": "Al-bayara restaurant"}}, {"type": "node", "id": 431708612, "lat": 32.3275133, "lon": 35.364572, "tags": {"amenity": "restaurant", "name": "Bab Al-Hara Restaurant", "name:ar": "\u0645\u0637\u0639\u0645 \u0628\u0627\u0628 \u0627\u0644\u062d\u0627\u0631\u0629"}}, {"type": "node", "id": 431708614, "lat": 32.3185875, "lon": 35.3719884, "tags": {"amenity": "restaurant", "name": "Al-Manar Restaurant", "name:ar": "\u0645\u0637\u0639\u0645 \u0627\u0644\u0645\u0646\u0627\u0631"}}, {"type": "node", "id": 431708632, "lat": 32.3252885, "lon": 35.3668856, "tags": {"amenity": "restaurant", "name": "Al Anees", "name:ar": "\u0645\u0637\u0639\u0645 \u0627\u0644\u0627\u0646\u064a\u0633"}}, {"type": "node", "id": 431708639, "lat": 32.3225626, "lon": 35.3710653, "tags": {"amenity": "restaurant", "name": "Ala Kaifak Restaurant", "name:ar": "\u0645\u0637\u0639\u0645 \u0639\u0644\u0649 \u0643\u064a\u0641\u0643"}}, {"type": "node", "id": 431708647, "lat": 32.2834665, "lon": 35.3837342, "tags": {"amenity": "restaurant", "name": "Ayam Zaman Restaurant", "name:ar": "\u0645\u0637\u0639\u0645 \u0627\u064a\u0627\u0645 \u0632\u0645\u0627\u0646"}}, {"type": "node", "id": 431708671, "lat": 32.3131237, "lon": 35.3711162, "tags": {"amenity": "restaurant", "name": "Al Diwan Restaurant", "name:ar": "\u0645\u0637\u0639\u0645 \u0627\u0644\u062f\u064a\u0648\u0627\u0646"}}, {"type": "node", "id": 431708687, "lat": 32.2817314, "lon": 35.3858803, "tags": {"amenity": "restaurant", "name": "Al Awdah Restaurant", "name:ar": "\u0645\u0637\u0639\u0645 \u0627\u0644\u0639\u0648\u062f\u0629"}}, {"type": "node", "id": 431708689, "lat": 32.3125437, "lon": 35.3706849, "tags": {"amenity": "restaurant", "name": "Al'arz Restaurant", "name:ar": "\u0645\u0637\u0639\u0645 \u0627\u0644\u0623\u0631\u0632"}}, {"type": "node", "id": 431708699, "lat": 32.3237009, "lon": 35.3682822, "tags": {"amenity": "restaurant", "name": "Abu Zohair Restaurant", "name:ar": "\u0645\u0637\u0639\u0645 \u0627\u0628\u0648 \u0632\u0647\u064a\u0631"}}, {"type": "node", "id": 431708725, "lat": 32.3132379, "lon": 35.371304, "tags": {"amenity": "restaurant", "name": "Zikraiat Restaurant", "name:ar": "\u0645\u0637\u0639\u0645 \u0630\u0643\u0631\u064a\u0627\u062a"}}, {"type": "node", "id": 431708741, "lat": 32.3212075, "lon": 35.3713393, "tags": {"amenity": "restaurant", "name": "Turki Shawerma", "name:ar": "\u062a\u0631\u0643\u064a \u0634\u0627\u0648\u0631\u0645\u0627"}}, {"type": "node", "id": 431708745, "lat": 32.2803884, "lon": 35.3845446, "tags": {"amenity": "restaurant", "name": "Allou'lo'a Restaurant", "name:ar": "\u0645\u0637\u0639\u0645 \u0627\u0644\u0644\u0624\u0644\u0624\u0629"}}, {"type": "node", "id": 431708750, "lat": 32.3247324, "lon": 35.3671926, "tags": {"amenity": "restaurant", "name": "Al Masri Restaurant", "name:ar": "\u0645\u0637\u0639\u0645 \u0648 \u0627\u0633\u062a\u0631\u0627\u062d\u0629 \u0627\u0644\u0645\u0635\u0631\u064a"}}, {"type": "node", "id": 431708756, "lat": 32.3122478, "lon": 35.3710402, "tags": {"amenity": "cafe", "name": "Coffee Shop", "name:ar": "\u0643\u0648\u0641\u064a \u0634\u0648\u0628"}}, {"type": "node", "id": 431708812, "lat": 32.3205606, "lon": 35.3691657, "tags": {"amenity": "restaurant", "name": "Ala Kaifak", "name:ar": "\u0645\u0637\u0639\u0645 \u0639\u0644\u0649 \u0643\u064a\u0641\u0643"}}, {"type": "node", "id": 431724263, "lat": 32.466059, "lon": 35.3054507, "tags": {"amenity": "restaurant", "name": "Alhathnawi Restaurant", "name:ar": "\u0645\u0637\u0639\u0645 \u0627\u0644\u062d\u062b\u0646\u0627\u0648\u064a"}}, {"type": "node", "id": 431772462, "lat": 32.4662432, "lon": 35.3055306, "tags": {"amenity": "restaurant", "name": "Baghdad Restaurant", "name:ar": "\u0645\u0637\u0639\u0645 \u0628\u063a\u062f\u0627\u062f"}}, {"type": "node", "id": 431777315, "lat": 32.4875572, "lon": 35.2328479, "tags": {"amenity": "restaurant", "name": "Al-Salam Restaurant", "name:ar": "\u0645\u0637\u0639\u0645 \u0627\u0644\u0633\u0644\u0627\u0645"}}, {"type": "node", "id": 431777453, "lat": 32.4636316, "lon": 35.3042404, "tags": {"amenity": "cafe", "name": "Cafe", "name:ar": "\u0643\u0648\u0641\u064a \u0634\u0648\u0628"}}, {"type": "node", "id": 431782823, "lat": 32.4680711, "lon": 35.3041502, "tags": {"amenity": "restaurant", "name": "Al-Manqal Restaurant", "name:ar": "\u0645\u0637\u0639\u0645 \u0627\u0644\u0645\u0646\u0642\u0644", "wheelchair": "yes"}}, {"type": "node", "id": 431928034, "lat": 32.209499, "lon": 35.1919781, "tags": {"amenity": "restaurant", "name": "Sarrah", "name:ar": "\u0645\u0637\u0639\u0645 \u0635\u0631\u0629"}}, {"type": "node", "id": 431933651, "lat": 32.307425, "lon": 35.1647679, "tags": {"amenity": "restaurant", "name": "Palestine Restaurant", "name:ar": "\u0645\u0637\u0639\u0645 \u0641\u0644\u0633\u0637\u064a\u0646"}}, {"type": "node", "id": 431935526, "lat": 32.3077448, "lon": 35.1568617, "tags": {"amenity": "cafe", "name": "Bab Al Harah", "name:ar": "\u0628\u0627\u0628 \u0627\u0644\u062d\u0627\u0631\u0629 \u0643\u0627\u0641\u064a\u0647"}}, {"type": "node", "id": 431942614, "lat": 32.210208, "lon": 35.3266745, "tags": {"amenity": "restaurant", "name": "Alhana", "name:ar": "\u0645\u0637\u0639\u0645 \u0627\u0644\u0647\u0646\u0649"}}, {"type": "node", "id": 431947519, "lat": 32.2224282, "lon": 35.258586, "tags": {"addr:city": "\u0646\u0627\u0628\u0644\u0633", "amenity": "restaurant", "name": "Khames", "name:ar": "\u0645\u0637\u0639\u0645 \u062e\u0645\u064a\u0633", "website": "www.tajawl.com"}}, {"type": "node", "id": 431950395, "lat": 32.1422241, "lon": 35.2818306, "tags": {"amenity": "restaurant", "name": "Prosted", "name:ar": "\u0645\u0637\u0639\u0645 \u0628\u0631\u0648\u0633\u062a\u064a\u062f"}}, {"type": "node", "id": 431950829, "lat": 32.2513021, "lon": 35.2680975, "tags": {"amenity": "cafe", "name": "Asirah", "name:ar": "\u0639\u0635\u064a\u0631\u0629"}}, {"type": "node", "id": 431950920, "lat": 32.2138636, "lon": 35.2891115, "tags": {"amenity": "restaurant", "name": "Al Ghawi", "name:ar": "\u0645\u0637\u0639\u0645 \u0627\u0644\u063a\u0627\u0648\u064a"}}, {"type": "node", "id": 431953022, "lat": 32.2246282, "lon": 35.2310453, "tags": {"amenity": "cafe", "cuisine": "ice_cream", "name": "Fakhfakhina", "name:ar": "\u0641\u062e\u0641\u062e\u064a\u0646\u0627 \u0644\u0644\u0643\u0648\u0643\u062a\u064a\u0644"}}, {"type": "node", "id": 431978504, "lat": 32.2180536, "lon": 35.2349482, "tags": {"amenity": "cafe", "name": "Qasir Al Nile Cafe", "name:ar": "\u0642\u0635\u0631 \u0627\u0644\u0646\u064a\u0644 \u0643\u0627\u0641\u064a\u0647"}}, {"type": "node", "id": 431981516, "lat": 32.1761515, "lon": 35.3358538, "tags": {"amenity": "restaurant", "name": "Raja'e", "name:ar": "\u0645\u0637\u0639\u0645 \u0631\u062c\u0627\u0626\u064a"}}, {"type": "node", "id": 431984461, "lat": 32.2296215, "lon": 35.2531807, "tags": {"amenity": "restaurant", "name": "Trwe'at Al Jabal", "name:ar": "\u0645\u0637\u0639\u0645 \u062a\u0631\u0648\u064a\u0642\u0629 \u0627\u0644\u062c\u0628\u0644"}}, {"type": "node", "id": 431993090, "lat": 32.1370144, "lon": 35.2624557, "tags": {"amenity": "restaurant", "name": "Abu Khalil", "name:ar": "\u0645\u0637\u0639\u0645 \u0627\u0628\u0648 \u062e\u0644\u064a\u0644", "name:en": "Abu Khalil"}}, {"type": "node", "id": 431998744, "lat": 32.1624563, "lon": 35.2858859, "tags": {"amenity": "restaurant", "name": "Abo Shaqra", "name:ar": "\u0645\u0637\u0639\u0645 \u0627\u0628\u0648 \u0634\u0642\u0631\u0629"}}, {"type": "node", "id": 431999675, "lat": 32.2508337, "lon": 35.2675233, "tags": {"amenity": "cafe", "name": "Cafe", "name:ar": "\u0643\u0627\u0641\u064a\u0629"}}, {"type": "node", "id": 432003841, "lat": 32.1535505, "lon": 35.259194, "tags": {"amenity": "restaurant", "name": "Fried Checken", "name:ar": "\u0645\u0637\u0639\u0645 \u062f\u062c\u0627\u062c"}}, {"type": "node", "id": 432004820, "lat": 32.2239133, "lon": 35.2600367, "tags": {"amenity": "restaurant", "name": "Baladna", "name:ar": "\u0645\u0634\u0648\u064a\u0627\u062a \u0628\u0644\u062f\u0646\u0627", "name:en": "Baladna BBQ resturant", "website": "www.tajawl.com"}}, {"type": "node", "id": 432004981, "lat": 32.2734137, "lon": 35.2165485, "tags": {"amenity": "restaurant", "name": "Habaibe Al Falahen", "name:ar": "\u062d\u0628\u0627\u064a\u0628 \u0627\u0644\u0641\u0644\u0627\u062d\u064a\u0646"}}, {"type": "node", "id": 432036547, "lat": 32.2265748, "lon": 35.2343195, "tags": {"amenity": "cafe", "name": "Al Jam'a Cafe", "name:ar": "\u0642\u0647\u0648\u0629 \u0627\u0644\u062c\u0627\u0645\u0639\u0629"}}, {"type": "node", "id": 432039164, "lat": 32.1264403, "lon": 35.3450833, "tags": {"amenity": "restaurant", "name": "Al Zaeem", "name:ar": "\u0645\u0637\u0639\u0645 \u0627\u0644\u0632\u0639\u064a\u0645"}}, {"type": "node", "id": 432040843, "lat": 32.2226479, "lon": 35.241873, "tags": {"amenity": "cafe", "name": "Al Madafeh", "name:ar": "\u0627\u0644\u0645\u0636\u0627\u0641\u0629"}}, {"type": "node", "id": 432046678, "lat": 32.2107801, "lon": 35.2821352, "tags": {"amenity": "restaurant", "name": "\u0643\u0648\u0643\u062a\u064a\u0644 \u0628\u0631\u062f\u0649", "name:ar": "\u0645\u0637\u0639\u0645 \u062c\u0631\u064a\u0631\u064a", "name:en": "borda koktel", "name:it": "Borda Koktel"}}, {"type": "node", "id": 432049153, "lat": 32.101136, "lon": 35.2700456, "tags": {"amenity": "restaurant", "name": "Al Reem", "name:ar": "\u0645\u0637\u0639\u0645 \u0627\u0644\u0631\u064a\u0645"}}, {"type": "node", "id": 432057496, "lat": 32.2513114, "lon": 35.2679458, "tags": {"amenity": "restaurant"}}, {"type": "node", "id": 432059705, "lat": 32.1392152, "lon": 35.2794024, "tags": {"amenity": "restaurant", "name": "Abu Rabi'", "name:ar": "\u0645\u0637\u0639\u0645 \u0627\u0628\u0648 \u0631\u0628\u064a\u0639"}}, {"type": "node", "id": 432076933, "lat": 32.1262794, "lon": 35.3451511, "tags": {"amenity": "restaurant", "name": "Al Baiader", "name:ar": "\u0645\u0637\u0639\u0645 \u0627\u0644\u0628\u064a\u0627\u062f\u0631"}}, {"type": "node", "id": 432088260, "lat": 32.1620439, "lon": 35.2887455, "tags": {"amenity": "restaurant", "name": "Awarta Restaurant", "name:ar": "\u0645\u0637\u0639\u0645 \u0639\u0648\u0631\u062a\u0627"}}, {"type": "node", "id": 432100639, "lat": 32.2240685, "lon": 35.2430157, "tags": {"amenity": "cafe", "name": "Panorama Cafe", "name:ar": "\u0643\u0648\u0641\u064a \u0634\u0648\u0628 \u0628\u0627\u0646\u0648\u0631\u0627\u0645\u0627"}}, {"type": "node", "id": 432104903, "lat": 32.2760844, "lon": 35.1924446, "tags": {"amenity": "restaurant", "name": "Holy Land Sun Restaurant", "name:ar": "\u0645\u0637\u0639\u0645 \u0647\u0648\u0644\u064a \u0644\u0627\u0646\u062f", "name:en": "Holy Land Sun Restaurant"}}, {"type": "node", "id": 432109164, "lat": 32.3073226, "lon": 35.1640202, "tags": {"amenity": "restaurant", "name": "Al Basha", "name:ar": "\u0645\u0637\u0639\u0645 \u0627\u0644\u0628\u0627\u0634\u0627"}}, {"type": "node", "id": 432114872, "lat": 32.1323138, "lon": 35.2095865, "tags": {"amenity": "restaurant", "name": "Al Manar", "name:ar": "\u0645\u0637\u0639\u0645 \u0627\u0644\u0645\u0646\u0627\u0631"}}, {"type": "node", "id": 432115367, "lat": 32.2209215, "lon": 35.2510257, "tags": {"amenity": "cafe", "name": "Fawanes", "name:ar": "\u0641\u0648\u0627\u0646\u064a\u0633 \u0643\u0627\u0641\u064a\u0647"}}, {"type": "node", "id": 432117998, "lat": 32.222994, "lon": 35.2349659, "tags": {"amenity": "restaurant", "name": "Golden Table", "name:ar": "\u0627\u0644\u0645\u0627\u0626\u062f\u0629 \u0627\u0644\u0630\u0647\u0628\u064a\u0629"}}, {"type": "node", "id": 432137033, "lat": 32.2056605, "lon": 35.2837137, "tags": {"addr:street": "Al-Quds Street", "amenity": "restaurant", "name": "Otlah", "name:ar": "\u0645\u0637\u0639\u0645 \u0639\u0637\u0627\u0627\u0644\u0644\u0647", "name:en": "Atallah Restaurant", "name:it": "Atallah"}}, {"type": "node", "id": 432145982, "lat": 32.142185, "lon": 35.2837811, "tags": {"amenity": "restaurant", "name": "Al Taieh", "name:ar": "\u0645\u0637\u0639\u0645 \u0627\u0644\u062a\u0627\u064a\u0629"}}, {"type": "node", "id": 432148765, "lat": 32.2355485, "lon": 35.2092949, "tags": {"amenity": "restaurant", "name": "Al Sanabil", "name:ar": "\u0645\u0637\u0639\u0645 \u0627\u0644\u0633\u0646\u0627\u0628\u0644"}}, {"type": "node", "id": 432150881, "lat": 32.222625, "lon": 35.2628583, "tags": {"amenity": "restaurant", "name": "Salim Afandi", "name:ar": "\u0645\u0637\u0639\u0645 \u0633\u0644\u064a\u0645 \u0627\u0641\u0646\u062f\u064a"}}, {"type": "node", "id": 432170578, "lat": 32.1454625, "lon": 35.2391025, "tags": {"amenity": "restaurant", "name": "Abu Tariq", "name:ar": "\u0645\u0637\u0639\u0645 \u0627\u0628\u0648 \u0637\u0627\u0631\u0642"}}, {"type": "node", "id": 432170962, "lat": 32.2216876, "lon": 35.2391283, "tags": {"amenity": "restaurant", "name": "Khamies", "name:ar": "\u0645\u0637\u0639\u0645 \u062e\u0645\u064a\u0633", "name:it": "Khamees", "name:ja": "\u30ec\u30b9\u30c8\u30e9\u30f3\u30cf\u30df\u30fc\u30b9"}}, {"type": "node", "id": 432173738, "lat": 32.2221884, "lon": 35.2391766, "tags": {"amenity": "cafe", "name": "Al za'bob", "name:ar": "\u0627\u0644\u0632\u0639\u0628\u0648\u0628 \u0643\u0627\u0641\u064a\u0629"}}, {"type": "node", "id": 432182352, "lat": 32.2226939, "lon": 35.2421826, "tags": {"amenity": "restaurant", "name": "Bait Al Tayibat", "name:ar": "\u0645\u0637\u0639\u0645 \u0628\u064a\u062a \u0627\u0644\u0637\u064a\u0628\u0627\u062a"}}, {"type": "node", "id": 432184887, "lat": 32.2209566, "lon": 35.2384603, "tags": {"amenity": "restaurant", "name": "Ayam Zman", "name:ar": "\u0645\u0637\u0639\u0645 \u0627\u064a\u0627\u0645 \u0632\u0645\u0627\u0646"}}, {"type": "node", "id": 432187315, "lat": 32.220798, "lon": 35.26376, "tags": {"amenity": "restaurant", "name": "Abu Mohaned", "name:ar": "\u0645\u0637\u0639\u0645 \u0627\u0628\u0648 \u0645\u0647\u0646\u062f"}}, {"type": "node", "id": 432307132, "lat": 32.1769207, "lon": 35.0512202, "tags": {"amenity": "restaurant", "name": "Al Ameir", "name:ar": "\u0627\u0644\u0627\u0645\u064a\u0631"}}, {"type": "node", "id": 432314408, "lat": 32.1766733, "lon": 35.0589645, "tags": {"amenity": "restaurant", "name": "Al-Kamal", "name:ar": "\u0627\u0644\u0643\u0645\u0627\u0644"}}, {"type": "node", "id": 432315432, "lat": 32.2029659, "lon": 35.1316055, "tags": {"amenity": "restaurant", "name": "\u0645\u0637\u0639\u0645 \u0627\u0628\u0648 \u0645\u0631\u0627\u062f", "name:ar": "\u0645\u0637\u0639\u0645 \u062d\u062c\u0629"}}, {"type": "node", "id": 432318042, "lat": 32.1527105, "lon": 35.0468769, "tags": {"amenity": "restaurant", "name": "Ajyal Restaurant", "name:ar": "\u0645\u0637\u0639\u0645 \u0627\u062c\u064a\u0627\u0644", "name:en": "Ajyal Restaurant"}}, {"type": "node", "id": 432319271, "lat": 32.1911062, "lon": 35.1369936, "tags": {"amenity": "restaurant", "name": "Al Silawi", "name:ar": "\u0645\u0637\u0639\u0645 \u0627\u0644\u0633\u064a\u0644\u0627\u0648\u064a", "name:en": "Al Silawi"}}, {"type": "node", "id": 432329086, "lat": 32.1896911, "lon": 35.1362059, "tags": {"amenity": "restaurant", "name": "Fast Food", "name:ar": "\u0645\u0637\u0639\u0645 \u0627\u0644\u0648\u062c\u0628\u0629 \u0627\u0644\u0633\u0631\u064a\u0639\u0629", "name:en": "Fast Food"}}, {"type": "node", "id": 432362486, "lat": 32.3700329, "lon": 35.1060402, "tags": {"amenity": "restaurant", "name": "Bab Al Harah", "name:ar": "\u0645\u0637\u0639\u0645 \u0628\u0627\u0628 \u0627\u0644\u062d\u0627\u0631\u0629"}}, {"type": "node", "id": 432374935, "lat": 32.3661432, "lon": 35.0704203, "tags": {"amenity": "restaurant", "name": "Al Noor", "name:ar": "\u0645\u0637\u0639\u0645 \u0627\u0644\u0646\u0648\u0631"}}, {"type": "node", "id": 432376731, "lat": 32.2633481, "lon": 35.130919, "tags": {"amenity": "restaurant", "name": "Al Sha'b", "name:ar": "\u0645\u0637\u0639\u0645 \u0627\u0644\u0634\u0639\u0628"}}, {"type": "node", "id": 432381485, "lat": 32.3330213, "lon": 35.1089876, "tags": {"amenity": "restaurant", "name": "Arar", "name:ar": "\u0639\u0631\u0627\u0631"}}, {"type": "node", "id": 432405926, "lat": 32.2602727, "lon": 35.1321464, "tags": {"amenity": "restaurant", "name": "Al Quds", "name:ar": "\u0645\u0637\u0639\u0645 \u0627\u0644\u0642\u062f\u0633"}}, {"type": "node", "id": 432407446, "lat": 32.2618855, "lon": 35.1114319, "tags": {"amenity": "restaurant", "name": "Al Ameer", "name:ar": "\u0645\u0637\u0639\u0645 \u0627\u0644\u0627\u0645\u064a\u0631"}}, {"type": "node", "id": 432420560, "lat": 32.3167641, "lon": 35.1274498, "tags": {"amenity": "restaurant", "name": "Al Baiader", "name:ar": "\u0645\u0637\u0639\u0645 \u0627\u0644\u0628\u064a\u0627\u062f\u0631"}}, {"type": "node", "id": 432423794, "lat": 32.3091845, "lon": 35.113402, "tags": {"amenity": "cafe", "name": "Cafe Shop", "name:ar": "\u0643\u0648\u0641\u064a \u0634\u0648\u0628"}}, {"type": "node", "id": 432424330, "lat": 32.3089429, "lon": 35.114361, "tags": {"amenity": "restaurant", "name": "Hashim Restaurant", "name:ar": "\u0645\u0637\u0639\u0645 \u0647\u0627\u0634\u0645"}}, {"type": "node", "id": 432424586, "lat": 32.3308248, "lon": 35.1180972, "tags": {"amenity": "restaurant", "name": "Al Shaik", "name:ar": "\u0627\u0633\u062a\u0631\u0627\u062d\u0629 \u0627\u0644\u0634\u0627\u064a\u0642"}}, {"type": "node", "id": 432532930, "lat": 32.3711446, "lon": 35.1077186, "tags": {"amenity": "restaurant", "name": "Al Balad", "name:ar": "\u0645\u0642\u0647\u0649 \u0627\u0644\u0628\u0644\u062f"}}, {"type": "node", "id": 432542264, "lat": 32.3068367, "lon": 35.1159498, "tags": {"amenity": "restaurant", "name": "Al Amal", "name:ar": "\u0645\u0637\u0639\u0645 \u0627\u0644\u0627\u0645\u0644"}}, {"type": "node", "id": 432544886, "lat": 32.4099043, "lon": 35.2793392, "tags": {"amenity": "restaurant", "name": "Alshalal Restaurant", "name:ar": "\u0645\u0637\u0639\u0645 \u0627\u0644\u0634\u0644\u0627\u0644"}}, {"type": "node", "id": 432545130, "lat": 32.4663983, "lon": 35.2969387, "tags": {"amenity": "restaurant", "name": "Alibaba Restaurant", "name:ar": "\u0645\u0637\u0639\u0645 \u0639\u0644\u064a \u0628\u0627\u0628\u0627"}}, {"type": "node", "id": 432545205, "lat": 32.4772629, "lon": 35.3004132, "tags": {"amenity": "restaurant", "cuisine": "pizza", "name": "Pizza Hut", "name:ar": "\u0628\u064a\u062a\u0632\u0627 \u0647\u062a", "name:en": "Pizza Hut"}}, {"type": "node", "id": 907262486, "lat": 32.335924, "lon": 35.5187635, "tags": {"amenity": "cafe", "name": "\u05e4\u05e8\u05d7 \u05d1\u05e8", "name:ar": "\u0641\u0631\u0627\u062d \u0628\u0627\u0631", "name:en": "Perach Bar", "name:he": "\u05e4\u05e8\u05d7 \u05d1\u05e8"}}, {"type": "node", "id": 2185362480, "lat": 32.2227796, "lon": 35.2340336, "tags": {"amenity": "restaurant", "name": "titos"}}, {"type": "node", "id": 2274140275, "lat": 32.5312557, "lon": 35.1518496, "tags": {"amenity": "restaurant", "name": "\u0627\u0644\u0634\u0648\u0627\u0621 \u0648\u0627\u0644\u0637\u0627\u0628\u0648\u0646", "name:ar": "\u0627\u0644\u0634\u0648\u0627\u0621 \u0648\u0627\u0644\u0637\u0627\u0628\u0648\u0646", "name:he": "\u05d4\u05de\u05e0\u05d2\u05dc \u05d5\u05d4\u05d8\u05d1\u05d5\u05df"}}, {"type": "node", "id": 2274140309, "lat": 32.5314677, "lon": 35.1508884, "tags": {"amenity": "cafe", "name": "\u0633\u0646 \u0631\u0627\u064a\u0632", "name:ar": "\u0633\u0646 \u0631\u0627\u064a\u0632", "name:en": "Sunrise", "name:he": "\u05e1\u05d0\u05df \u05e8\u05d9\u05d9\u05d6"}}, {"type": "node", "id": 2274140312, "lat": 32.5325205, "lon": 35.1482923, "tags": {"amenity": "restaurant", "name": "\u0645\u0637\u0639\u0645 \u0639\u0627\u0644\u0645\u064a", "name:ar": "\u0645\u0637\u0639\u0645 \u0639\u0627\u0644\u0645\u064a", "name:en": "Chalami", "name:he": "\u05de\u05e1\u05e2\u05d3\u05ea \u05d7\u05dc\u05de\u05d9"}}, {"type": "node", "id": 2282009080, "lat": 32.2034885, "lon": 35.2697475, "tags": {"amenity": "restaurant", "name": "Paradise", "name:ja": "\u30d1\u30e9\u30c0\u30a4\u30b9"}}, {"type": "node", "id": 2282009084, "lat": 32.2029458, "lon": 35.2708225, "tags": {"amenity": "restaurant", "name": "Super Market"}}, {"type": "node", "id": 2510069500, "lat": 32.2203708, "lon": 35.2580995, "tags": {"addr:city": "Nablus", "addr:street": "Khaled Ibn Al-Waleed Street", "amenity": "cafe", "cuisine": "coffee_shop", "internet_access": "yes", "name": "Trabeesh"}}, {"type": "node", "id": 2511280641, "lat": 32.4629543, "lon": 35.2971547, "tags": {"amenity": "restaurant", "name": "Beit al Beit..."}}, {"type": "node", "id": 2520141481, "lat": 32.2280665, "lon": 35.2370416, "tags": {"addr:city": "Nablus", "addr:housename": "Palestine", "addr:postcode": "+970", "addr:street": "Tunis Street", "amenity": "restaurant", "name": "\u0645\u0646\u062a\u062c\u0639 \u062d\u064a\u0627\u0629 \u0646\u0627\u0628\u0644\u0633", "name:en": "Hyatt Nablus Resort", "note": "\u062c\u0648\u0644\u0629 \u062b\u0644\u0627\u062b\u064a\u0629 \u0627\u0644\u0623\u0628\u0639\u0627\u062f http://tajawl.com/flash/hayat-nablus/hayat-nablus.html", "phone": "+97092347788", "website": "http://www.hayat-nablus.ps"}}, {"type": "node", "id": 2544777299, "lat": 32.3853186, "lon": 35.3243803, "tags": {"amenity": "restaurant", "name": "\u0645\u0637\u0639\u0645 \u0627\u0644\u0633\u0644\u0637\u0627\u0646 \u0627\u0628\u0631\u0627\u0647\u064a\u0645"}}, {"type": "node", "id": 2587655864, "lat": 32.385325, "lon": 35.3231192, "tags": {"amenity": "cafe", "name": "Marina cafe"}}, {"type": "node", "id": 2587662977, "lat": 32.3854637, "lon": 35.3231071, "tags": {"amenity": "restaurant", "name": "\u0645\u0637\u0639\u0645 \u0627\u0628\u0648 \u064a\u0648\u0633\u0641 \u0627\u0644\u0634\u0639\u0628\u064a"}}, {"type": "node", "id": 2650182119, "lat": 32.2217183, "lon": 35.260587, "tags": {"addr:city": "nablus", "addr:housename": "\u0646\u0627\u0628\u0644\u0633\u060c \u0648\u0633\u0637 \u0627\u0644\u0628\u0644\u062f", "addr:postcode": "00970", "amenity": "cafe", "cuisine": "\u0643\u0627\u0641\u0629_\u0627\u0646\u0648\u0627\u0639_\u0627\u0644\u0623\u0631\u0627\u062c\u064a\u0644_\u0648\u0627\u0644\u0645\u0634\u0631\u0648\u0628\u0627\u062a_\u0627\u0644\u0633\u0627\u062e\u0646\u0629_\u0648\u0627\u0644\u0628\u0627\u0631\u062f\u0629", "name": "\u0643\u0648\u0641\u064a \u0634\u0648\u0628 \u0642\u0635\u0631 \u0627\u0644\u0646\u064a\u064a\u0644", "name:en": "Nile Palace Coffee Shop", "name:it": "Nile Palace", "opening_hours": "10:00-23:00", "website": "http://www.tajawl.com"}}, {"type": "node", "id": 2683931488, "lat": 32.4618336, "lon": 35.2978567, "tags": {"amenity": "restaurant", "name": "Bonjour Restaurant"}}, {"type": "node", "id": 2683932285, "lat": 32.4617341, "lon": 35.2984789, "tags": {"amenity": "restaurant", "name": "Restaurant Proust fresh"}}, {"type": "node", "id": 2683937516, "lat": 32.4613991, "lon": 35.2993051, "tags": {"amenity": "restaurant", "name": "Glory Restaurant"}}, {"type": "node", "id": 2683943249, "lat": 32.4618246, "lon": 35.2972129, "tags": {"amenity": "restaurant", "name": "A+ Restaurant"}}, {"type": "node", "id": 2683954463, "lat": 32.4615711, "lon": 35.2973417, "tags": {"amenity": "restaurant", "name": "Uttar Restaurant"}}, {"type": "node", "id": 2683959766, "lat": 32.4612719, "lon": 35.3008752, "tags": {"amenity": "restaurant", "name": "Restaurant Aqsa"}}, {"type": "node", "id": 2684026203, "lat": 32.4610732, "lon": 35.3010753, "tags": {"amenity": "restaurant", "name": "Restaurant Alambashi"}}, {"type": "node", "id": 2684028622, "lat": 32.4613991, "lon": 35.301365, "tags": {"amenity": "restaurant", "name": "Restaurant Zidane"}}, {"type": "node", "id": 2728364933, "lat": 32.3843048, "lon": 35.3252468, "tags": {"amenity": "cafe", "name": "Arena Resturant& Cafe"}}, {"type": "node", "id": 2728364961, "lat": 32.3844543, "lon": 35.3249947, "tags": {"amenity": "cafe", "name": "\u0642\u0647\u0648\u0629"}}, {"type": "node", "id": 2728364965, "lat": 32.386536, "lon": 35.3228661, "tags": {"amenity": "restaurant", "cuisine": "regional", "name": "\u0645\u0637\u0639\u0645 \u0635\u0628\u0627\u0628\u0627"}}, {"type": "node", "id": 2769100000, "lat": 32.3865597, "lon": 35.3246605, "tags": {"amenity": "cafe"}}, {"type": "node", "id": 2774680614, "lat": 32.3856942, "lon": 35.3229742, "tags": {"amenity": "cafe", "name": "\u0643\u0648\u0641\u064a \u0634\u0648\u0628 \u0645\u0648\u0631\u0648"}}, {"type": "node", "id": 2776683210, "lat": 32.3851982, "lon": 35.3246106, "tags": {"amenity": "restaurant", "name": "3 in 1 Resturant"}}, {"type": "node", "id": 2776847252, "lat": 32.3859164, "lon": 35.3228875, "tags": {"amenity": "cafe"}}, {"type": "node", "id": 2776847255, "lat": 32.3849241, "lon": 35.3260348, "tags": {"amenity": "restaurant", "name": "\u0645\u0637\u0639\u0645 \u0641\u064a\u0646\u0648\u0633"}}, {"type": "node", "id": 2776886058, "lat": 32.3855948, "lon": 35.3262914, "tags": {"amenity": "restaurant"}}, {"type": "node", "id": 2778861049, "lat": 32.3840897, "lon": 35.3258717, "tags": {"addr:street": "Main way between Villages", "amenity": "restaurant", "name": "\u0628\u0631\u0627\u062f\u0627\u064a\u0633 \u0627\u0643\u0633 \u0628\u0648\u0643\u0633", "name:en": "Paradice xbox"}}, {"type": "node", "id": 2778864974, "lat": 32.384947, "lon": 35.3240169, "tags": {"amenity": "restaurant"}}, {"type": "node", "id": 2778864975, "lat": 32.3849708, "lon": 35.3239593, "tags": {"amenity": "restaurant"}}, {"type": "node", "id": 2778867213, "lat": 32.3841428, "lon": 35.3244702, "tags": {"amenity": "restaurant"}}, {"type": "node", "id": 2778892239, "lat": 32.3850229, "lon": 35.3240451, "tags": {"amenity": "restaurant"}}, {"type": "node", "id": 2779013898, "lat": 32.384614, "lon": 35.3246607, "tags": {"amenity": "restaurant"}}, {"type": "node", "id": 2779041912, "lat": 32.3848956, "lon": 35.3241249, "tags": {"amenity": "cafe"}}, {"type": "node", "id": 3272923661, "lat": 32.222019, "lon": 35.233781, "tags": {"amenity": "restaurant", "internet_access": "wlan", "internet_access:fee": "yes", "name": "Al Amaken Restaurant", "smoking": "yes"}}, {"type": "node", "id": 3323782092, "lat": 32.2233381, "lon": 35.2293921, "tags": {"amenity": "restaurant", "name": "\u0645\u0637\u0639\u0645 \u0646\u0627\u0628\u0644\u0633", "name:en": "Nablus Restaurant"}}, {"type": "node", "id": 3491343946, "lat": 32.1283063, "lon": 35.0495878, "tags": {"amenity": "restaurant"}}, {"type": "node", "id": 3491614353, "lat": 32.1282859, "lon": 35.0499081, "tags": {"amenity": "cafe"}}, {"type": "node", "id": 3492960483, "lat": 32.1283969, "lon": 35.0456539, "tags": {"amenity": "restaurant", "name": "\u062d\u0644\u0648\u064a\u0627\u062a \u0627\u0644\u0634\u0647\u062f", "phone": "0597917707"}}, {"type": "node", "id": 3565273993, "lat": 32.3273355, "lon": 35.2900846, "tags": {"amenity": "restaurant", "name": "\u0645\u0637\u0639\u0645 \u0627\u0644\u0631\u0634\u064a\u062f - \u0627\u0628\u0648 \u0627\u0644\u0637\u0627\u0647\u0631", "name:en": "Al-Rasheed Restaurant"}}, {"type": "node", "id": 3578304928, "lat": 32.3287032, "lon": 35.2933336, "tags": {"amenity": "restaurant", "name": "\u0645\u0637\u0639\u0645 \u0628\u0627\u0633\u0644 \u0627\u0644\u0645\u0639\u0627\u064a\u0637\u0629", "name:ar": "\u0645\u0637\u0639\u0645 \u0628\u0627\u0633\u0644 \u0627\u0644\u0645\u0639\u0627\u064a\u0637\u0629", "name:en": "Basel Maayta Restaurant"}}, {"type": "node", "id": 3648436591, "lat": 32.3296962, "lon": 35.2916132}, {"type": "node", "id": 3648436592, "lat": 32.329673, "lon": 35.2916514}, {"type": "node", "id": 3648436593, "lat": 32.3296146, "lon": 35.2916018}, {"type": "node", "id": 3648436594, "lat": 32.329639, "lon": 35.2915636}, {"type": "node", "id": 3662223058, "lat": 32.2447884, "lon": 35.2279522, "tags": {"amenity": "cafe", "internet_access": "wired", "name": "\u0627\u0644\u0641\u0631\u064a\u062f \u0644\u0644\u0643\u0645\u0628\u064a\u0648\u062a\u0631 \u0648\u0627\u0644\u0627\u0646\u062a\u0631\u0646\u062a", "name:en": "Alfred Computers and Internet", "smoking": "separated"}}, {"type": "node", "id": 3699885725, "lat": 32.2192521, "lon": 35.2435149, "tags": {"addr:city": "Nablus", "addr:postcode": "00972", "addr:street": "Ibrahim Hashim Street", "amenity": "restaurant", "cuisine": "\u062c\u0627\u062a\u0648\u0647", "name": "Smile Cake"}}, {"type": "node", "id": 3867690492, "lat": 32.3471831, "lon": 35.2703715, "tags": {"amenity": "restaurant"}}, {"type": "node", "id": 4023691957, "lat": 32.2293425, "lon": 35.237728, "tags": {"amenity": "restaurant", "name": "\u0645\u0637\u0639\u0645 \u0627\u0644\u0641 \u0644\u064a\u0644\u0629 \u0648\u0644\u064a\u0644\u0629", "name:en": "Alf Lila O lila Reestaurant"}}, {"type": "node", "id": 4050646188, "lat": 32.3291497, "lon": 35.2924392, "tags": {"amenity": "restaurant", "name": "\u0645\u0637\u0639\u0645 \u0627\u0644\u0627\u0635\u062f\u0642\u0627\u0621 - \u0646\u0648\u0631", "name:en": "Al-Asdeqaa Restaurant - Nour"}}, {"type": "node", "id": 4114284089, "lat": 32.2244694, "lon": 35.2455338, "tags": {"addr:street": "Rafedya Street", "amenity": "cafe", "name": "Strike Bowling"}}, {"type": "node", "id": 4133310990, "lat": 32.2236454, "lon": 35.2522919, "tags": {"addr:city": "\u0646\u0627\u0628\u0644\u0633", "amenity": "restaurant", "cuisine": "chicken", "internet_access": "wlan", "name": "\u0627\u0644\u062f\u062c\u0627\u062c \u0627\u0644\u0623\u0645\u0631\u064a\u0643\u064a \u0628\u0631\u0648\u0633\u062a", "name:en": "American Chicken Brost", "opening_hours": "Mo-Su 12:00-00:00", "phone": "092332077"}}, {"type": "node", "id": 4169748470, "lat": 32.4485234, "lon": 35.261772, "tags": {"addr:city": "Burqin", "addr:street": "Al-Shuhadaa Street", "amenity": "cafe", "cuisine": "coffee_shop", "internet_access": "wlan", "name": "Al-Lotes Cafe", "name:ar": "\u0645\u0642\u0647\u0649 \u0627\u0644\u0644\u0648\u062a\u0633", "smoking": "yes"}}, {"type": "node", "id": 4169768483, "lat": 32.4472063, "lon": 35.2617032, "tags": {"addr:city": "Burqin", "addr:street": "Al-Shuhadaa Street", "amenity": "cafe", "cuisine": "coffee_shop", "internet_access": "wlan", "name": "Al-Basha Cafe", "name:ar": "\u0645\u0642\u0647\u0649 \u0648\u0628\u0644\u064a\u0627\u0631\u062f\u0648 \u0627\u0644\u0628\u0627\u0634\u0627", "smoking": "yes"}}, {"type": "node", "id": 4176150992, "lat": 32.2257824, "lon": 35.2327205, "tags": {"addr:street": "\u0634\u0627\u0631\u0639 \u0631\u0641\u064a\u062f\u064a\u0627", "amenity": "cafe", "cuisine": "coffee_shop;ice_cream;tea", "internet_access": "wlan", "name": "\u0643\u0644\u0627\u0633\u064a\u0643 \u062f\u0631\u0627\u064a \u0643\u0644\u064a\u0646 \u0662", "name:en": "Bazooka Internet and Xbox", "opening_hours": "24/7"}}, {"type": "node", "id": 4193788914, "lat": 32.2222142, "lon": 35.2568508, "tags": {"addr:city": "\u0646\u0627\u0628\u0644\u0633", "addr:street": "Sufian Street", "amenity": "cafe", "name": "\u0645\u0642\u0647\u0649 \u0627\u0644\u0647\u0645\u0648\u0632", "name:en": "Al Hamouz Cafe"}}, {"type": "node", "id": 4223758967, "lat": 32.2765899, "lon": 35.1928713, "tags": {"amenity": "restaurant", "name": "Bab Al Saha"}}, {"type": "node", "id": 4249000889, "lat": 32.223341, "lon": 35.2344645, "tags": {"amenity": "restaurant", "cuisine": "arab", "diet:vegetarian": "yes", "internet_access": "wlan", "name": "\u0645\u0637\u0639\u0645 \u0627\u0644\u0631\u0648\u0632\u0646\u0629", "name:en": "Al-Ruzneh Restaurant"}}, {"type": "node", "id": 4257508493, "lat": 32.3527795, "lon": 35.2484227, "tags": {"amenity": "cafe", "name": "\u0627\u0644\u064a\u0645\u0646\u064a"}}, {"type": "node", "id": 4271114089, "lat": 32.4589781, "lon": 35.299865, "tags": {"addr:street": "Almalek Fysal street", "amenity": "cafe", "name": "\u0645\u0642\u0647\u0649 \u062f\u0645\u0634\u0642", "name:en": "Damascus Cafe"}}, {"type": "node", "id": 4275525089, "lat": 32.2394989, "lon": 35.1842477, "tags": {"addr:street": "\u0642\u0648\u0635\u064a\u0646 \u0642\u0631\u0628 \u0646\u0627\u062f\u064a \u0642\u0648\u0635\u064a\u0646 \u0627\u0644\u0631\u064a\u0627\u0636\u064a", "amenity": "restaurant", "email": "jafer_salman@yahoo.com", "name": "\u0632\u0631\u0628 \u0627\u0644\u0628\u0644\u062f", "opening_hours": "24/7", "phone": "0598631468", "website": "http://ernest_jafer@hotmail.com"}}, {"type": "node", "id": 4275553520, "lat": 32.4507623, "lon": 35.2629561, "tags": {"amenity": "cafe", "name": "Traveler's Coffee"}}, {"type": "node", "id": 4316200591, "lat": 32.2209452, "lon": 35.2407261, "tags": {"addr:housenumber": "9-2344811", "addr:street": "Omar Ibn Al-Khattab Street", "amenity": "cafe", "internet_access": "wlan", "name": "SASNET", "name:it": "Sasnet", "phone": "09-2344811"}}, {"type": "node", "id": 4317881589, "lat": 32.3870116, "lon": 35.3242992, "tags": {"amenity": "restaurant", "name": "\u0645\u0637\u0639\u0645 \u0637\u0631\u0628\u0648\u0634"}}, {"type": "node", "id": 4319854315, "lat": 32.2245013, "lon": 35.2477985}, {"type": "node", "id": 4319854323, "lat": 32.2245104, "lon": 35.2480989}, {"type": "node", "id": 4319854329, "lat": 32.2245149, "lon": 35.2476751}, {"type": "node", "id": 4319854338, "lat": 32.224524, "lon": 35.247879}, {"type": "node", "id": 4319854379, "lat": 32.2245981, "lon": 35.2481065}, {"type": "node", "id": 4319854593, "lat": 32.2246118, "lon": 35.2478865}, {"type": "node", "id": 4319854640, "lat": 32.2246866, "lon": 35.2478271}, {"type": "node", "id": 4319854649, "lat": 32.2247002, "lon": 35.2477037}, {"type": "node", "id": 4325956389, "lat": 32.2297021, "lon": 35.2362851, "tags": {"amenity": "restaurant", "name": "\u0627\u0644\u0641 \u0644\u064a\u0644\u0629 \u0648\u0644\u064a\u0644\u0629", "name:en": "Restaurant Alf lelah we lelah", "name:it": "Alf Lelah We Lelah"}}, {"type": "node", "id": 4336833089, "lat": 32.2177618, "lon": 35.2653716, "tags": {"amenity": "cafe", "name": "\u0627\u0628\u0648 \u062e\u0644\u062f\u0648\u0646 \u0639\u0644\u064a\u0648\u064a", "name:en": "Abu Khaldoun Alawi"}}, {"type": "node", "id": 4337600189, "lat": 32.3684895, "lon": 35.0730569, "tags": {"amenity": "restaurant", "name": "\u0645\u0637\u0639\u0645 \u0635\u0627\u0644\u062d"}}, {"type": "node", "id": 4337600389, "lat": 32.3692538, "lon": 35.0729221, "tags": {"amenity": "cafe", "name": "\u0645\u0642\u0647\u0649 \u0627\u0644\u062d\u0627\u0643\u0648\u0631\u0629"}}, {"type": "node", "id": 4338616089, "lat": 32.220073, "lon": 35.2427635, "tags": {"addr:street": "university street", "amenity": "restaurant", "name": "Ilmw cafe", "name:ar": "\u0627\u0644\u0645\u0648 \u0643\u0627\u0641\u064a\u0647", "name:it": "Ilmw Caf\u00e8"}}, {"type": "node", "id": 4370953319, "lat": 32.4626166, "lon": 35.2988062, "tags": {"addr:street": "Abu Baker Street", "amenity": "cafe", "internet_access": "wlan", "name": "\u0643\u0627\u0644\u0632\u0627\u0631 \u0643\u0627\u0641\u064a\u0647", "name:ar": "\u0643\u0627\u0644\u0632\u0627\u0631 \u0643\u0627\u0641\u064a\u0647", "name:en": "KALAZAR Caffe"}}, {"type": "node", "id": 4404198182, "lat": 32.4986058, "lon": 35.5039577, "tags": {"amenity": "restaurant", "name": "\u05d1\u05e8\u05d1\u05d5\u05e0\u05d9\u05d4", "name:en": "Barbunia", "name:he": "\u05d1\u05e8\u05d1\u05d5\u05e0\u05d9\u05d4"}}, {"type": "node", "id": 4404198183, "lat": 32.4991358, "lon": 35.5046501, "tags": {"amenity": "cafe", "brand": "\u05e7\u05e4\u05d4 \u05d2\u05e8\u05d2", "brand:en": "Greg Cafe", "brand:he": "\u05e7\u05e4\u05d4 \u05d2\u05e8\u05d2", "brand:wikidata": "Q43295499", "cuisine": "coffee_shop", "name": "\u05e7\u05e4\u05d4 \u05d2\u05e8\u05d2", "name:en": "Greg Cafe", "name:he": "\u05e7\u05e4\u05d4 \u05d2\u05e8\u05d2", "takeaway": "yes"}}, {"type": "node", "id": 4404198185, "lat": 32.4974149, "lon": 35.5034944, "tags": {"amenity": "restaurant", "name": "\u05e8\u05d5\u05d6\u05dc\u05d9\u05d4", "name:en": "Rozeliya", "name:he": "\u05e8\u05d5\u05d6\u05dc\u05d9\u05d4"}}, {"type": "node", "id": 4404811793, "lat": 32.226548, "lon": 35.2225353, "tags": {"amenity": "cafe", "name": "break time"}}, {"type": "node", "id": 4428020789, "lat": 32.2203767, "lon": 35.2963848, "tags": {"amenity": "restaurant", "name": "\u062f\u0648\u0646 \u0628\u064a\u062a\u0632\u0627", "name:ar": "\u062f\u0648\u0646 \u0628\u064a\u062a\u0632\u0627"}}, {"type": "node", "id": 4442514493, "lat": 32.2198435, "lon": 35.2430612, "tags": {"amenity": "cafe", "name:en": "Royal cafe", "name:it": "Royal"}}, {"type": "node", "id": 4442539093, "lat": 32.2238938, "lon": 35.2518448, "tags": {"addr:street": "Rafedya Street", "amenity": "cafe", "internet_access": "wlan", "name": "\u0646\u0648\u0634\u0627 \u0643\u0627\u0641\u064a\u0647", "name:ar": "\u0645\u0639\u0631\u0636 \u0627\u0628\u0648 \u0627\u0644\u0633\u0639\u0648\u062f \u0644\u0644\u0641\u0631\u0634 \u0627\u0644\u0645\u0646\u0632\u0644\u064a", "name:en": "tiyde hoose", "name:it": "Tiyde Hoose", "phone": "09-2386832"}}, {"type": "node", "id": 4442539094, "lat": 32.2197782, "lon": 35.242816, "tags": {"amenity": "cafe", "name:en": "Lol cafe"}}, {"type": "node", "id": 4442549790, "lat": 32.2260958, "lon": 35.2252305, "tags": {"addr:street": "Rafedya Street", "amenity": "cafe", "name:en": "POPEYES - NABLUS"}}, {"type": "node", "id": 4442549792, "lat": 32.2198852, "lon": 35.2472587, "tags": {"amenity": "restaurant", "name": "Shashtari restaurant", "name:en": "Shashtari restaurant"}}, {"type": "node", "id": 4442702190, "lat": 32.2232049, "lon": 35.2347128, "tags": {"addr:street": "Rafedya Street", "amenity": "restaurant", "name": "\u0645\u0637\u0639\u0645 \u0648\u0631\u062f", "name:ar": "\u0645\u0637\u0639\u0645 \u0648\u0631\u062f", "name:en": "Ward Restaurant"}}, {"type": "node", "id": 4442777590, "lat": 32.2237455, "lon": 35.2344718, "tags": {"addr:street": "Tunis Street", "amenity": "restaurant", "name:en": "Queens Restaurant"}}, {"type": "node", "id": 4447384194, "lat": 32.2223268, "lon": 35.2580739, "tags": {"addr:city": "\u0646\u0627\u0628\u0644\u0633", "amenity": "cafe", "name": "\u0645\u0633\u0627\u064a\u0627 coffe", "name:ar": "\u0645\u0633\u0627\u064a\u0627 coffe", "name:en": "Masaya coffe", "name:it": "Masaya"}}, {"type": "node", "id": 4474447391, "lat": 32.4621111, "lon": 35.3002311, "tags": {"amenity": "cafe", "name": "\u0627\u0644\u0642\u0644\u0639\u0629", "name:ar": "\u0627\u0644\u0642\u0644\u0639\u0629"}}, {"type": "node", "id": 4489873690, "lat": 32.2233142, "lon": 35.234049, "tags": {"amenity": "restaurant", "name": "\u0645\u0637\u0639\u0645 \u0644\u064a\u0645\u0648\u0646 \u0648\u0646\u0639\u0646\u0639", "name:ar": "\u0645\u0637\u0639\u0645 \u0644\u064a\u0645\u0648\u0646 \u0648\u0646\u0639\u0646\u0639", "name:en": "Lemon and Mint Restaurant"}}, {"type": "node", "id": 4493075789, "lat": 32.221307, "lon": 35.2379659, "tags": {"amenity": "cafe", "internet_access": "wlan", "name": "\u0623\u0647\u0648\u0646\u062c\u064a", "name:ar": "\u0623\u0647\u0648\u0646\u062c\u064a"}}, {"type": "node", "id": 4516173389, "lat": 32.2275038, "lon": 35.2372125, "tags": {"amenity": "restaurant", "cuisine": "arab;burger;italian_pizza;kebab;lebanese", "email": "aljabi1@gmail.com", "internet_access": "wlan", "name": "\u0645\u0637\u0639\u0645 \u0631\u0648\u0632\u0645\u0627\u0631\u064a-\u062d\u064a\u0627\u0629 \u0646\u0627\u0628\u0644\u0633", "name:en": "Rosmemary Restaurant -Hayat Nablus", "opening_hours": "Mo-Su 10:00-00:00", "phone": "0599291107"}}, {"type": "node", "id": 4528873690, "lat": 32.4851991, "lon": 35.2306682, "tags": {"amenity": "restaurant", "name": "\u0645\u0637\u0639\u0645 \u0627\u0628\u0648 \u0634\u0627\u0647\u0631", "name:ar": "\u0645\u0637\u0639\u0645 \u0627\u0628\u0648 \u0634\u0627\u0647\u0631", "name:en": "Abu Shahir Restaurant"}}, {"type": "node", "id": 4528877489, "lat": 32.4855952, "lon": 35.2271847, "tags": {"amenity": "restaurant", "name": "\u0645\u0637\u0639\u0645 \u0627\u0628\u0648 \u0634\u0627\u0647\u0631", "name:ar": "\u0645\u0637\u0639\u0645 \u0627\u0628\u0648 \u0634\u0627\u0647\u0631", "name:en": "Abu Shahir Restaurant"}}, {"type": "node", "id": 4579382092, "lat": 32.2208744, "lon": 35.2404092, "tags": {"amenity": "restaurant", "name:en": "Pizza house"}}, {"type": "node", "id": 4590991705, "lat": 32.3208957, "lon": 35.3782258, "tags": {"amenity": "cafe", "name": "\u0623\u0628\u0648 \u0631\u0627\u0634\u062f", "name:ar": "\u0623\u0628\u0648 \u0631\u0627\u0634\u062f", "name:en": "Abu Rashid"}}, {"type": "node", "id": 4592067289, "lat": 32.4650629, "lon": 35.3288662, "tags": {"amenity": "restaurant", "internet_access": "wlan", "name": "\u0645\u0644\u062d\u0645\u0629 \u0648\u0645\u0634\u0627\u0648\u064a \u0627\u0644\u0628\u0627\u062f\u064a\u0629", "name:ar": "\u0645\u0644\u062d\u0645\u0629 \u0648\u0645\u0634\u0627\u0648\u064a \u0627\u0644\u0628\u0627\u062f\u064a\u0629", "opening_hours": "Mo-Su 16:00-04:00"}}, {"type": "node", "id": 4592990589, "lat": 32.3208862, "lon": 35.3782547, "tags": {"amenity": "cafe", "name": "\u0623\u0628\u0648 \u0631\u0627\u0634\u062f", "name:ar": "\u0623\u0628\u0648 \u0631\u0627\u0634\u062f", "name:en": "Abu Rashid"}}, {"type": "node", "id": 4596053793, "lat": 32.1763273, "lon": 35.3355696, "tags": {"addr:street": "\u0628\u064a\u062a \u0641\u0648\u0631\u064a\u0643 \u0634\u0631\u0642\u064a \u0646\u0627\u0628\u0644\u0633 - \u062d\u0627\u0631\u0629 \u0627\u0644\u0628\u0644\u062f\u0629 \u0627\u0644\u0642\u062f\u064a\u0645\u0629", "amenity": "restaurant", "name": "\u0645\u0637\u0639\u0645", "name:ar": "\u0645\u0637\u0639\u0645", "name:en": "Restaurant"}}, {"type": "node", "id": 4597716489, "lat": 32.2097927, "lon": 35.2967902, "tags": {"amenity": "restaurant", "name": "\u0645\u0635\u0646\u0639 \u0627\u0644\u0643\u0631\u0648\u0627\u0646 \u0644\u0644\u0637\u062d\u064a\u0646\u0629", "name:ar": "\u0645\u0635\u0646\u0639 \u0627\u0644\u0643\u0631\u0648\u0627\u0646 \u0644\u0644\u0637\u062d\u064a\u0646\u0629", "phone": "092311646"}}, {"type": "node", "id": 4603736189, "lat": 32.2170678, "lon": 35.2699944, "tags": {"addr:street": "Salah Al-Deen Street", "amenity": "restaurant", "name": "\u0645\u0637\u0639\u0645 \u062a\u0627\u064a\u062a\u0646\u0643", "name:en": "Restaurant Titanic", "name:it": "Titanic"}}, {"type": "node", "id": 4604664389, "lat": 32.2508892, "lon": 35.2691676, "tags": {"amenity": "cafe", "name": "Coffee and Cake", "name:ar": "Coffee and Cake", "name:en": "Coffee and Cake"}}, {"type": "node", "id": 4613863490, "lat": 32.2209606, "lon": 35.2400681, "tags": {"amenity": "cafe", "name": "\u062a\u064a\u0643 \u0628\u0631\u064a\u0643 \u0643\u0648\u0641\u064a \u0634\u0648\u0628", "name:ar": "\u062a\u064a\u0643 \u0628\u0631\u064a\u0643 \u0643\u0648\u0641\u064a \u0634\u0648\u0628", "name:it": "Take a Break"}}, {"type": "node", "id": 4642737289, "lat": 32.2211689, "lon": 35.2426861, "tags": {"addr:postcode": "00970", "addr:street": "Al-Jamaa' str.", "amenity": "restaurant", "cuisine": "burger;hot_dog;lebanese;mediterranean;deli;kebab;breakfast;arab;sandwich", "email": "zincpalestine@gmail.com", "internet_access": "wlan", "name": "\u0632\u0646\u0643 - \u0633\u0646\u062f\u0648\u064a\u0634\u0629 \u0627\u0644\u0628\u064a\u062a", "name:en": "zinc", "name:it": "Zinc", "opening_hours": "Sa-Th 09:00-23:00", "operator": "Zinc", "phone": "092347901", "website": "http://www.zinc.ps"}}, {"type": "node", "id": 4668846205, "lat": 32.2210007, "lon": 35.2394265, "tags": {"amenity": "cafe", "cuisine": "arab;tea;coffee_shop", "internet_access": "wlan", "name:en": "Ilikan"}}, {"type": "node", "id": 4694463791, "lat": 32.2255777, "lon": 35.2292636, "tags": {"amenity": "restaurant", "cuisine": "burger;arab;coffee_shop", "internet_access": "wlan", "name:en": "Almankal"}}, {"type": "node", "id": 4694493889, "lat": 32.223334, "lon": 35.2413675, "tags": {"amenity": "cafe", "cuisine": "ice_cream", "name:en": "Fakhfakhina"}}, {"type": "node", "id": 4717111892, "lat": 32.1333415, "lon": 35.2111444, "tags": {"amenity": "restaurant", "name": "\u0645\u0644\u062d\u0645\u0629 \u062d\u0645\u0648\u062f\u0647", "name:ar": "\u0645\u0644\u062d\u0645\u0629 \u062d\u0645\u0648\u062f\u0647"}}, {"type": "node", "id": 4719877189, "lat": 32.2247757, "lon": 35.2287236, "tags": {"addr:postcode": "00972", "addr:street": "Paltel Street", "amenity": "restaurant", "internet_access": "wlan", "name": "\u0645\u0637\u0639\u0645 \u0622\u0631\u0627\u0645", "name:ar": "\u0645\u0637\u0639\u0645 \u0622\u0631\u0627\u0645", "name:en": "Araam restaurant", "name:it": "Araam", "phone": "09-2348999"}}, {"type": "node", "id": 4720530289, "lat": 32.2275831, "lon": 35.2361364, "tags": {"amenity": "restaurant", "name": "Tanoreen", "name:ar": "Tanoreen", "name:en": "Tanoreen"}}, {"type": "node", "id": 4731173821, "lat": 32.2211895, "lon": 35.2611904, "tags": {"amenity": "restaurant", "name": "\u0645\u0637\u0639\u0645 \u0634\u0631\u0641", "name:ar": "\u0645\u0637\u0639\u0645 \u0634\u0631\u0641", "name:en": "Sharaf restaurant", "name:it": "Sharaf"}}, {"type": "node", "id": 4741358623, "lat": 32.2248616, "lon": 35.2313741, "tags": {"addr:street": "Rafedya Street", "amenity": "restaurant", "name": "\u0634\u0648\u0631\u0645\u0627 \u0639\u0643\u064a\u0641\u0643", "name:ar": "\u0634\u0648\u0631\u0645\u0627 \u0639\u0643\u064a\u0641\u0643", "name:en": "Shawarma akeefak"}}, {"type": "node", "id": 4746746922, "lat": 32.222849, "lon": 35.2349091, "tags": {"addr:postcode": "00972", "addr:street": "Rafedya Street", "amenity": "restaurant", "name": "\u0645\u0637\u0639\u0645 \u0644\u064a\u0645\u0648\u0646 \u0648 \u0646\u0639\u0646\u0639", "name:en": "lemon w na3na3", "opening_hours": "Mo-Su 09:00-01:00"}}, {"type": "node", "id": 4746747422, "lat": 32.2227761, "lon": 35.2348516, "tags": {"addr:street": "Rafedya Street", "amenity": "restaurant", "name": "\u0642\u0627\u0639\u0629 \u0627\u0641\u0631\u0627\u062d \u0645\u0631\u062c\u0627\u0646\u0647", "name:en": "murjanah for weddings"}}, {"type": "node", "id": 4747650623, "lat": 32.2891566, "lon": 35.1527734, "tags": {"amenity": "cafe", "name": "\u0642\u0647\u0648\u0629 \u0627\u0644\u0646\u0635\u0631", "name:ar": "\u0642\u0647\u0648\u0629 \u0627\u0644\u0646\u0635\u0631"}}, {"type": "node", "id": 4751827721, "lat": 32.2208318, "lon": 35.2381689, "tags": {"amenity": "cafe", "name:en": "berlin", "name:it": "Berlin"}}, {"type": "node", "id": 4763995653, "lat": 32.1597446, "lon": 35.2610546, "tags": {"addr:street": "Ramalla-Nablus Road", "amenity": "restaurant", "name": "KFC HOWARA"}}, {"type": "node", "id": 4769471490, "lat": 32.4618265, "lon": 35.297462, "tags": {"amenity": "cafe", "internet_access": "wlan", "name": "\u062f\u064a\u0644\u064a\u0643\u064a\u062a", "name:ar": "\u062f\u064a\u0644\u064a\u0643\u064a\u062a"}}, {"type": "node", "id": 4774170035, "lat": 32.2267601, "lon": 35.2222499, "tags": {"addr:street": "Rafedya Street", "amenity": "restaurant", "name": "Amore", "name:ar": "Amore"}}, {"type": "node", "id": 4774170037, "lat": 32.2265251, "lon": 35.2222511, "tags": {"amenity": "restaurant", "name": "7days", "name:ar": "7days"}}, {"type": "node", "id": 4784266021, "lat": 32.2332855, "lon": 35.4183434, "tags": {"addr:street": "street alwhede", "amenity": "restaurant", "name": "\u0627\u0633\u062a\u0631\u0627\u062d\u0629 \u0627\u0644\u063a\u0648\u0627\u0644\u064a", "name:ar": "\u0627\u0633\u062a\u0631\u0627\u062d\u0629 \u0627\u0644\u063a\u0648\u0627\u0644\u064a", "name:en": "Ghawali Rest", "opening_hours": "24/7"}}, {"type": "node", "id": 4863295621, "lat": 32.2230004, "lon": 35.2345073, "tags": {"addr:street": "Rafedya Street", "amenity": "cafe", "cuisine": "crepe;italian_pizza;italian;coffee_shop", "internet_access": "wlan", "name:en": "Valentina", "opening_hours": "Mo-Su 10:00-00:00; Fr 16:00-00:00"}}, {"type": "node", "id": 4864554322, "lat": 32.2241627, "lon": 35.2503447, "tags": {"addr:street": "Rafedya Street", "amenity": "restaurant", "cuisine": "arab", "internet_access": "wlan", "name:en": "Jafra", "opening_hours": "Sa-Th 11:00-23:00; Fr"}}, {"type": "node", "id": 4929435723, "lat": 32.2218571, "lon": 35.259072, "tags": {"addr:street": "Palestine Street", "amenity": "cafe", "internet_access": "wlan", "name": "\u0643\u0648\u0641\u064a \u0634\u0648\u0628 \u0627\u0644\u0633\u0644\u0637\u0627\u0646", "name:en": "al sultan", "name:it": "Al Sultan", "phone": "0599092959"}}, {"type": "node", "id": 4938810021, "lat": 32.462823, "lon": 35.2969776, "tags": {"amenity": "restaurant", "name": "\u0634\u0627\u0648\u0631\u0645\u0627 \u0627\u0644\u0648\u0627\u0643\u062f", "name:ar": "\u0634\u0627\u0648\u0631\u0645\u0627 \u0627\u0644\u0648\u0627\u0643\u062f", "name:en": "Shawrma alwaked"}}, {"type": "node", "id": 4939139823, "lat": 32.3201892, "lon": 35.3768043, "tags": {"addr:street": "Ath Thaghra - Al Malih", "amenity": "restaurant", "internet_access": "wlan", "name": "\u0645\u0637\u0639\u0645 \u0648\u0627\u0633\u062a\u0631\u0627\u062d\u0629 \u0641\u0646\u062a\u0627\u0632\u064a\u0627", "name:en": "Fantasia restaurant and rest"}}, {"type": "node", "id": 4939629521, "lat": 32.2241324, "lon": 35.2313647, "tags": {"amenity": "restaurant", "cuisine": "italian_pizza;pizza", "internet_access": "wlan", "name": "Pizza Time", "name:ar": "Pizza Time", "opening_hours": "Mo-Su 11:00-00:00"}}, {"type": "node", "id": 4939629822, "lat": 32.2243266, "lon": 35.2439182, "tags": {"addr:street": "Rafedya Street", "amenity": "cafe", "cuisine": "donut;coffee_shop", "name": "\u0639 \u0627\u0644\u0637\u0631\u064a\u0642", "name:ar": "\u0639 \u0627\u0644\u0637\u0631\u064a\u0642", "name:en": "Altariq", "opening_hours": "Mo-Su 07:00-23:00", "website": "https://www.facebook.com/%D8%B9-%D8%A7%D9%84%D8%B7%D8%B1%D9%8A%D9%82-310986885591823/"}}, {"type": "node", "id": 4939634221, "lat": 32.2224212, "lon": 35.2403028, "tags": {"addr:street": "Rafedya Street", "amenity": "restaurant", "cuisine": "seafood", "internet_access": "wlan", "name:en": "Sea Caf\u00e9", "opening_hours": "Mo-Su 11:00-00:00", "phone": "+970 9 2380943", "website": "https://www.facebook.com/Sea-Caf%C3%A9-565805186793018/"}}, {"type": "node", "id": 5039862621, "lat": 32.2394568, "lon": 35.2351837, "tags": {"addr:street": "Extension Of Al-Sekah Street", "amenity": "restaurant", "name": "\u0628\u064a\u062a\u0632\u0627 \u0648\u0645\u0639\u062c\u0646\u0627\u062a \u0627\u0644\u062c\u0627\u0645\u0639\u0629", "name:ar": "\u0628\u064a\u062a\u0632\u0627 \u0648\u0645\u0639\u062c\u0646\u0627\u062a \u0627\u0644\u062c\u0627\u0645\u0639\u0629"}}, {"type": "node", "id": 5045260623, "lat": 32.3250613, "lon": 35.3715142, "tags": {"amenity": "cafe", "name": "\u0645\u0642\u0647\u0649 \u0644\u064a\u0627\u0644\u064a \u0637\u0648\u0628\u0627\u0633", "name:ar": "\u0645\u0642\u0647\u0649 \u0644\u064a\u0627\u0644\u064a \u0637\u0648\u0628\u0627\u0633", "name:en": "layaly tubass cafe"}}, {"type": "node", "id": 5057692221, "lat": 32.4109304, "lon": 35.2827846, "tags": {"amenity": "cafe", "name": "\u0642\u0647\u0648\u0629 \u0639\u064a\u0627\u062f \u0627\u0644\u062f\u064a\u062d\u0627\u0646", "name:ar": "\u0642\u0647\u0648\u0629 \u0639\u064a\u0627\u062f \u0627\u0644\u062f\u064a\u062d\u0627\u0646"}}, {"type": "node", "id": 5057692721, "lat": 32.4115429, "lon": 35.2824821, "tags": {"amenity": "cafe", "name": "\u0642\u0647\u0648\u0629 \u0642\u0628\u0627\u0637\u064a\u0629", "name:ar": "\u0642\u0647\u0648\u0629 \u0627\u0644\u0633\u0643\u0633"}}, {"type": "node", "id": 5057692722, "lat": 32.4108444, "lon": 35.2829927, "tags": {"amenity": "cafe", "name": "\u0642\u0647\u0648\u0629 \u0627\u0644\u0633\u064a\u0643\u0648", "name:ar": "\u0642\u0647\u0648\u0629 \u0627\u0644\u0633\u064a\u0643\u0648"}}, {"type": "node", "id": 5059696222, "lat": 32.3397364, "lon": 35.3603835, "tags": {"amenity": "restaurant", "internet_access": "wlan", "name": "\u0645\u0637\u0639\u0645 \u0627\u0644\u0646\u062e\u064a\u0644", "name:en": "Alnakhel restaurant"}}, {"type": "node", "id": 5077760222, "lat": 32.2160958, "lon": 35.2717137, "tags": {"amenity": "cafe", "name": "\u0645\u0642\u0647\u0649 \u0627\u0628\u0648 \u062c\u0627\u0628\u0631", "name:en": "abu Janet coffee shop", "name:it": "Abu Janet"}}, {"type": "node", "id": 5077760223, "lat": 32.2159309, "lon": 35.2717911, "tags": {"amenity": "cafe", "name": "abu Jaber coffee shop", "name:ar": "abu Jaber coffee shop"}}, {"type": "node", "id": 5095074221, "lat": 32.3882395, "lon": 35.1232738, "tags": {"amenity": "cafe", "name": "\u0643\u0648\u0641\u064a \u0634\u0648\u0628 \u0644\u064a\u0627\u0644\u064a\u0646\u0627", "name:ar": "\u0643\u0648\u0641\u064a \u0634\u0648\u0628 \u0644\u064a\u0627\u0644\u064a\u0646\u0627", "name:en": "Layalina Cafe"}}, {"type": "node", "id": 5110579721, "lat": 32.3244625, "lon": 35.3681433, "tags": {"amenity": "restaurant", "name": "\u0645\u0637\u0639\u0645 \u0627\u0628\u0648 \u062f\u0648\u0627\u0633", "name:en": "Abu Dawas Restaurant"}}, {"type": "node", "id": 5112625030, "lat": 32.2206689, "lon": 35.2430224, "tags": {"amenity": "cafe", "name": "Sabah Al-Khir Cafeteria", "name:ar": "\u0643\u0641\u062a\u064a\u0631\u064a\u0627 \u0635\u0628\u0627\u062d \u0627\u0644\u062e\u064a\u0631"}}, {"type": "node", "id": 5112625031, "lat": 32.2197845, "lon": 35.2429833, "tags": {"amenity": "cafe", "name": "Campus Cafe", "name:ar": "\u0643\u0627\u0645\u0628\u0648\u0633 \u0643\u0627\u0641\u064a\u0647"}}, {"type": "node", "id": 5139922622, "lat": 32.2246713, "lon": 35.2058756, "tags": {"amenity": "cafe", "name:en": "Jasmine Cafe"}}, {"type": "node", "id": 5181464822, "lat": 32.2107343, "lon": 35.2825111, "tags": {"amenity": "restaurant", "name": "\u0643\u0648\u0643\u062a\u064a\u0644 \u0641\u062e\u0641\u062e\u064a\u0646\u0627", "name:ar": "\u0643\u0648\u0643\u062a\u064a\u0644 \u0641\u062e\u0641\u062e\u064a\u0646\u0627"}}, {"type": "node", "id": 5182381021, "lat": 32.323542, "lon": 35.3686754, "tags": {"addr:city": "\u0627\u0644\u0628\u0644\u062f\u0629 \u0627\u0644\u0642\u062f\u064a\u0645\u0629", "addr:street": "Tubas Main Street;\u0627\u0644\u0628\u0644\u062f\u0647 \u0627\u0644\u0642\u062f\u064a\u0645\u0629", "amenity": "restaurant", "capacity": "0", "cuisine": "\u0644\u062d\u0648\u0645_\u0639\u062c\u0644;\u0644\u062d\u0648\u0645_\u0633\u062e\u0644;\u0644\u062d\u0648\u0645_\u062e\u0627\u0631\u0648\u0641", "delivery": "yes", "internet_access": "wlan", "name": "\u0645\u0644\u062d\u0645\u0629 \u0648\u0645\u0634\u0627\u0648\u064a \u0627\u0644\u0630\u064a\u0628", "opening_hours": "Mo-Su 09:00-12:00;Mo-Su 09:00-21:00", "phone": "+972568608501", "shop": "butcher", "smoking": "outside"}}, {"type": "node", "id": 5221484321, "lat": 32.2262149, "lon": 35.2224685, "tags": {"amenity": "cafe", "name": "\u0633\u064a\u0641\u064a\u0646 \u062f\u0627\u064a\u0632 \u0643\u0627\u0641\u064a\u0647", "name:ar": "\u0633\u064a\u0641\u064a\u0646 \u062f\u0627\u064a\u0632 \u0643\u0627\u0641\u064a\u0647", "name:en": "Seven days cafe"}}, {"type": "node", "id": 5278270321, "lat": 32.3886767, "lon": 35.3253786, "tags": {"amenity": "restaurant", "name": "\u0645\u0637\u0639\u0645 \u0627\u0633\u0643\u0627\u062f\u0646\u064a\u0627", "name:en": "askadenia"}}, {"type": "node", "id": 5296899421, "lat": 32.4590442, "lon": 35.2994392, "tags": {"addr:street": "\u0634\u0627\u0631\u0639 \u0646\u0627\u0628\u0644\u0633-\u062c\u0646\u064a\u0646", "amenity": "cafe", "internet_access": "wlan", "name": "\u0645\u0642\u0647\u0649 \u0627\u0644\u062c\u0632\u0627\u0626\u0631", "name:en": "Algeria caffe"}}, {"type": "node", "id": 5306935523, "lat": 32.5192625, "lon": 35.1436057, "tags": {"addr:city": "\u0623\u0645 \u0627\u0644\u0641\u062d\u0645", "amenity": "cafe"}}, {"type": "node", "id": 5324212224, "lat": 32.153113, "lon": 35.0486922, "tags": {"amenity": "restaurant"}}, {"type": "node", "id": 5343400623, "lat": 32.2241321, "lon": 35.2541486, "tags": {"addr:city": "\u0646\u0627\u0628\u0644\u0633", "amenity": "restaurant", "name": "\u0628\u064a\u062a\u0632\u0627 \u0627\u0644\u0639\u0637\u0639\u0648\u0637", "name:it": "Ato'ot"}}, {"type": "node", "id": 5347793623, "lat": 32.2243506, "lon": 35.2434154, "tags": {"amenity": "restaurant", "internet_access": "wlan", "name:en": "Khamees", "opening_hours": "Mo-Su 07:00-01:00", "phone": "092387251"}}, {"type": "node", "id": 5349668521, "lat": 32.2250536, "lon": 35.2291092, "tags": {"amenity": "restaurant", "internet_access": "wlan", "name:en": "Sole", "name:it": "Sole", "phone": "092344772"}}, {"type": "node", "id": 5352367228, "lat": 32.2207335, "lon": 35.2608647, "tags": {"amenity": "restaurant", "name:en": "Al Rawsheh"}}, {"type": "node", "id": 5384279525, "lat": 32.2218999, "lon": 35.2391444, "tags": {"amenity": "cafe", "name": "\u062a\u0634\u0631\u064a\u0646", "name:en": "tishreen"}}, {"type": "node", "id": 5405719421, "lat": 32.2183596, "lon": 35.2743973, "tags": {"addr:street": "Ibn Rushed Street", "amenity": "cafe", "cuisine": "arab;burger;cake;coffee_shop;grill;ice_cream;italian;lebanese;mexican;pizza;sandwich;sausage", "internet_access": "wlan", "name": "\u0645\u0642\u0647\u0649 \u0627\u0644\u0623\u0635\u062f\u0642\u0627\u0621", "name:en": "Friends cafe", "opening_hours": "Mo-Su 09:00-01:00", "operator": "Yazan Ghazal", "phone": "0595161621"}}, {"type": "node", "id": 5462561223, "lat": 32.3634358, "lon": 35.0696074, "tags": {"addr:street": "Attil - Deir Al Ghusun", "amenity": "restaurant", "internet_access": "wlan", "name": "\u0645\u0634\u0627\u0648\u064a \u0627\u0644\u0633\u0644\u0637\u0627\u0646", "name:en": "Al Sultan Grills"}}, {"type": "node", "id": 5508806121, "lat": 32.4620611, "lon": 35.2988849, "tags": {"amenity": "restaurant", "name": "\u0645\u0637\u0639\u0645 \u0647\u0646\u064a \u0647\u0646\u064a", "name:en": "Huny Huny Resturant"}}, {"type": "node", "id": 5650682021, "lat": 32.2233743, "lon": 35.2337628, "tags": {"addr:housenumber": "3", "addr:postcode": "00972", "addr:street": "Rafedya Street", "amenity": "restaurant", "cuisine": "barbecue", "email": "Mhmd--Ennab@Hotmail.com", "internet_access": "wlan", "name": "\u0631\u0641\u064a\u062f\u064a\u0627", "name:en": "rafedya", "opening_hours": "24/7", "operator": "\u0645\u0637\u0639\u0645 \u0639\u0646\u0627\u0628", "phone": "092340660"}}, {"type": "node", "id": 5728443067, "lat": 32.5347875, "lon": 35.148592, "tags": {"amenity": "restaurant", "name": "\u05de\u05e1\u05e2\u05d3\u05ea \u05d4\u05e9\u05d9\u05d9\u05d7", "name:he": "\u05de\u05e1\u05e2\u05d3\u05ea \u05d4\u05e9\u05d9\u05d9\u05d7"}}, {"type": "node", "id": 5757097121, "lat": 32.4039741, "lon": 35.2082543, "tags": {"amenity": "cafe", "name": "\u0628\u0644\u064a\u0627\u0631\u062f\u0648 \u0627\u0644\u062d\u0648\u062a", "name:ar": "\u0628\u0644\u064a\u0627\u0631\u062f\u0648 \u0627\u0644\u062d\u0648\u062a"}}, {"type": "node", "id": 5783968255, "lat": 32.1259891, "lon": 35.3446963, "tags": {"amenity": "restaurant", "name": "\u0645\u0637\u0639\u0645 \u062c\u0627\u0633\u0645"}}, {"type": "node", "id": 5784503554, "lat": 32.2236992, "lon": 35.1950931, "tags": {"amenity": "cafe", "name": "\u0631\u0648\u0632", "name:en": "Rose"}}, {"type": "node", "id": 5801482453, "lat": 32.084729, "lon": 35.3622234, "tags": {"amenity": "restaurant", "name": "\u0645\u0637\u0639\u0645 \u0623\u0628\u0648 \u062c\u0646\u0649", "name:en": "Abou Jana Restaurant"}}, {"type": "node", "id": 5807223556, "lat": 32.4699066, "lon": 35.3038027, "tags": {"addr:street": "Almalek Fysal street - \u05db\u05d1\u05d9\u05e9 \u05e2\u05e4\u05d5\u05dc\u05d4 \u05d1\u05d0\u05e8-\u05e9\u05d1\u05e2", "amenity": "restaurant", "cuisine": "sandwich;breakfast;grill;asian;steak_house;beef_bowl;arab;chicken;diner;kebab;curry;barbecue", "internet_access": "wlan", "name": "\u0645\u0637\u0628\u062e \u0627\u0644\u0634\u064a\u0641 \u0645\u062c\u062f", "opening_hours": "24/7", "phone": "+970 569 770 876"}}, {"type": "node", "id": 5865317285, "lat": 32.2262596, "lon": 35.2221674, "tags": {"addr:street": "\u0634\u0627\u0631\u0639 \u0631\u0641\u064a\u062f\u064a\u0627", "amenity": "restaurant", "cuisine": "pizza", "internet_access": "wlan", "name": "\u0628\u064a\u062a\u0632\u0627 \u0648\u0645\u0639\u062c\u0646\u0627\u062a \u0627\u0644\u0646\u062c\u0627\u062d", "name:en": "pizzaa al najah", "opening_hours": "Sa-Th 07:00-22:00", "phone": "0565545354", "website": "http://www.pizzaalnajah.com"}}, {"type": "node", "id": 5917880386, "lat": 32.2158624, "lon": 35.2372869, "tags": {"amenity": "restaurant", "cuisine": "arab", "facebook": "https://www.facebook.com/wardelshamcafe/", "name": "Caf\u00e9 Ward Alsham", "takeaway": "yes"}}, {"type": "node", "id": 5932207585, "lat": 32.4684083, "lon": 35.2947765, "tags": {"addr:street": "Palestine street", "amenity": "cafe", "cuisine": "arab;american;cake;coffee_shop;breakfast;ice_cream;sandwich;tea", "internet_access": "wlan", "name": "\u0646\u064a\u0631\u0648", "name:ar": "\u0667 \u0646\u064a\u0631\u0648", "name:en": "7Nero", "opening_hours": "Mo-Su 07:30-01:00", "operator": "Osama Alsadi", "phone": "0097042508233", "website": "https://m.facebook.com/7nero.cafe/"}}, {"type": "node", "id": 6013018695, "lat": 32.2230779, "lon": 35.2569231, "tags": {"amenity": "cafe", "name": "\u0645\u0642\u0647\u0649 \u0627\u064a\u0647\u0627\u0628"}}, {"type": "node", "id": 6110672985, "lat": 32.225168, "lon": 35.2266394, "tags": {"amenity": "restaurant", "name": "\u0628\u0631\u0644\u064a\u0646 \u0628\u064a\u062a\u0632\u0627", "name:en": "berlin"}}, {"type": "node", "id": 6237963285, "lat": 32.2518931, "lon": 35.1865897, "tags": {"amenity": "restaurant", "name": "\u0623\u0628\u0648 \u0635\u0627\u0644\u062d\u0629", "name:ar": "\u0623\u0628\u0648 \u0635\u0627\u0644\u062d\u0629", "name:en": "Abu Salah Kebab"}}, {"type": "node", "id": 6248202902, "lat": 32.2266464, "lon": 35.2231266, "tags": {"addr:street": "Rafidia", "amenity": "cafe", "name": "Caf\u00e9 Shams"}}, {"type": "node", "id": 6356601698, "lat": 32.4955555, "lon": 35.5785392, "tags": {"amenity": "cafe"}}, {"type": "node", "id": 6357665686, "lat": 32.4587665, "lon": 35.2994943, "tags": {"amenity": "cafe", "name:en": "Halab Cafe"}}, {"type": "node", "id": 6381099710, "lat": 32.2209258, "lon": 35.2591823, "tags": {"addr:city": "Nablus", "addr:street": "Ghernata Street", "amenity": "restaurant", "cuisine": "dessert_shop;arabic_sweets;pastries", "delivery": "yes", "name": "AbuSeir Shahrazad", "opening_hours": "08:00-21:00", "phone": "+97092331440", "takeaway": "yes", "website": "https://www.facebook.com/AbuSeir1854/"}}, {"type": "node", "id": 6443269185, "lat": 32.2336771, "lon": 35.2311861, "tags": {"amenity": "cafe", "name": "\u0642\u0627\u0639\u0629 \u062f\u0628\u064a \u0644\u0644\u0627\u0641\u0631\u0627\u062d"}}, {"type": "node", "id": 6479999585, "lat": 32.2329663, "lon": 35.1930033, "tags": {"amenity": "restaurant", "name": "\u0645\u0646\u062a\u062c\u0639 \u0627\u0644\u062c\u0627\u0631\u062f\u0646\u0632", "name:en": "gardens resort"}}, {"type": "node", "id": 6484742987, "lat": 32.2249701, "lon": 35.2268589, "tags": {"addr:housenumber": "0", "addr:postcode": "00972", "addr:street": "Alaa adeen", "amenity": "restaurant", "cuisine": "italian_pizza;seafood;chicken;hotdog;noodles;fish_and_chips;american;italian;sandwich;coffee_shop;ice_cream;tea;pizza;burger;cake;fish;pasta;kebab;grill;arab", "internet_access": "wlan", "name": "\u0645\u0637\u0639\u0645 \u0628\u0631\u0644\u064a\u0646", "name:en": "Berlin Restaurant", "opening_hours": "Mo-Su 09:00-12:00", "phone": "09234666"}}, {"type": "node", "id": 6533798586, "lat": 32.2206376, "lon": 35.2631361, "tags": {"amenity": "restaurant", "name": "\u0645\u0634\u0627 \u0648\u064a \u0639\u0648\u0643\u0644", "name:en": "BBQ"}}, {"type": "node", "id": 6578603209, "lat": 32.202689, "lon": 35.2891841, "tags": {"amenity": "cafe", "name": "\u062d\u062f\u064a\u0642\u0629 \u0627\u0644\u0641\u064a\u0646\u064a\u0642 - \u0645\u062e\u064a\u0645 \u0628\u0644\u0627\u0637\u0629"}}, {"type": "node", "id": 6586690404, "lat": 32.3222033, "lon": 35.1917683, "tags": {"amenity": "cafe", "name": "\u0642\u0647\u0648\u0629 \u0627\u0644\u0628\u0644\u062f. \u0633\u064a\u0644\u0629 \u0627\u0644\u0638\u0647\u0631"}}, {"type": "node", "id": 6696175485, "lat": 32.3758862, "lon": 35.1572743, "tags": {"addr:housenumber": "042466913", "addr:postcode": "072", "addr:street": "Kofur Ra'i", "amenity": "cafe", "email": "smjma24396@gemail.com", "internet_access": "wlan", "name": "\u0641\u0646\u062c\u0627\u0646\u064a \u0643\u0627\u0641\u064a\u0647", "name:en": "Fenjani cafe", "opening_hours": "24/7", "phone": "0597110826"}}, {"type": "node", "id": 6700589487, "lat": 32.2234356, "lon": 35.2415117, "tags": {"amenity": "cafe", "name": "\u0641\u062e\u0641\u062e\u064a\u0646\u0627 \u0643\u0648\u0643\u062a\u064a\u0644"}}, {"type": "node", "id": 6703548286, "lat": 32.2268464, "lon": 35.209467, "tags": {"amenity": "restaurant", "name": "\u0645\u0637\u0639\u0645 \u0648\u0631\u062f \u0627\u0644\u062c\u062f\u064a\u062f", "name:en": "Ward Restaurant new"}}, {"type": "node", "id": 6761725491, "lat": 32.2201777, "lon": 35.2429867, "tags": {"amenity": "restaurant", "cuisine": "arab;pizza;tea", "name": "\u0645\u0639\u062c\u0646\u0627\u062a \u0648\u0643\u0627\u0641\u062a\u064a\u0631\u064a\u0627 \u0627\u0644\u0627\u0642\u0635\u0649", "name:en": "kafiterea al-aqsa", "opening_hours": "Su-Th 08:00-16:00"}}, {"type": "node", "id": 6779026308, "lat": 32.105474, "lon": 35.173631, "tags": {"amenity": "restaurant", "name": "\u05e4\u05d9\u05e6\u05d4 \u05d0\u05e9", "name:he": "\u05e4\u05d9\u05e6\u05d4 \u05d0\u05e9", "phone": "+972-3-9060880"}}, {"type": "node", "id": 6792070839, "lat": 32.3072315, "lon": 35.1640717, "tags": {"addr:street": "\u062f\u0648\u0627\u0631 \u0628\u0632\u0627\u0631\u064a\u0627", "amenity": "restaurant", "name": "\u0641\u0644\u0627\u0641\u0644 \u0628\u0632\u0627\u0631\u064a\u0627"}}, {"type": "node", "id": 6813755886, "lat": 32.183693, "lon": 35.3294575, "tags": {"amenity": "cafe", "name": "\u0645\u0642\u0647\u0626 \u0627\u0644\u0643\u0644\u0627\u0633\u064a\u0643\u0648"}}, {"type": "node", "id": 6895673965, "lat": 32.2213457, "lon": 35.2558525, "tags": {"addr:city": "\u0646\u0627\u0628\u0644\u0633", "amenity": "cafe", "name": "The Gate Caf\u00e9"}}, {"type": "node", "id": 6906139586, "lat": 32.3264831, "lon": 35.1612768, "tags": {"addr:street": "\u0627\u0644\u0639\u0637\u0627\u0631\u0647 \u0648\u0633\u0637 \u0627\u0644\u0628\u0644\u062f", "amenity": "restaurant", "name": "\u0641\u0624\u0627\u062f \u0627\u0628\u0648 \u062f\u064a\u0627\u0643"}}, {"type": "node", "id": 6946231785, "lat": 32.2267038, "lon": 35.2230438, "tags": {"addr:city": "Nablus", "addr:postcode": "970", "addr:street": "\u0634\u0627\u0631\u0639 \u0631\u0641\u064a\u062f\u064a\u0627", "amenity": "restaurant", "capacity": "60", "cuisine": "french;cake;breakfast;donut;diner;hotdog;italian_pizza;lebanese;sandwich;coffee_shop", "delivery": "yes", "ele": "No need", "email": "SnackBestnak@gmail.com", "internet_access": "wlan", "name": "\u0633\u0646\u0627\u0643 \u0628\u0633\u062a\u0646\u0627\u0643 - Snack Bestnak", "name:en": "Snack Bestnak", "note": "French pastries", "opening_hours": "Sa-Th 07:00-22:00; Fr 09:00-11:35", "operator": "Abdullah Qadri", "outdoor_seating": "yes", "phone": "+97092355322", "smoking": "outside", "takeaway": "yes", "website": "https://www.fb.com/SnackBestnak", "wheelchair": "yes"}}, {"type": "node", "id": 7088897185, "lat": 32.22378, "lon": 35.231346, "tags": {"amenity": "restaurant", "name": "\u0627\u0648\u0631\u062c\u0627\u062f\u0627", "name:en": "orgada"}}, {"type": "node", "id": 7120042886, "lat": 32.2244452, "lon": 35.2342321, "tags": {"amenity": "cafe", "name": "\u0633\u0641\u0646 \u0646\u064a\u0631\u0648", "name:en": "Seven nero"}}, {"type": "node", "id": 7249085385, "lat": 32.3186516, "lon": 35.1849902, "tags": {"amenity": "restaurant", "name": "\u0627\u0628\u0648 \u0639\u0627\u0634\u0648\u0631"}}, {"type": "node", "id": 7315613153, "lat": 32.2227455, "lon": 35.2332305, "tags": {"amenity": "restaurant", "name": "Pizza time"}}, {"type": "node", "id": 7562248771, "lat": 32.4620313, "lon": 35.2991836, "tags": {"amenity": "restaurant", "name": "Cafeteria Jerusalem"}}, {"type": "node", "id": 7580204185, "lat": 32.2273334, "lon": 35.2357126, "tags": {"amenity": "restaurant", "name": "\u0645\u0637\u0639\u0645 \u062a\u0646\u0648\u0631\u064a\u0646", "name:en": "Tanoten Restaurant"}}, {"type": "node", "id": 7642071048, "lat": 32.2269461, "lon": 35.2144331, "tags": {"amenity": "restaurant", "name": "\u0645\u0637\u0639\u0645 \u0642\u0635\u0631 \u064a\u0644\u062f\u0632"}}, {"type": "node", "id": 7771019085, "lat": 32.2248087, "lon": 35.2427779, "tags": {"addr:street": "AL-Mrej Street", "amenity": "cafe", "internet_access": "wlan", "name": "\u0641\u0631\u0646\u062f\u0629 \u0643\u0627\u0641\u064a\u0647", "name:en": "Vernda Cafe", "opening_hours": "Mo-Su 09:00-01:00"}}, {"type": "node", "id": 7852845185, "lat": 32.1454984, "lon": 35.0335356, "tags": {"amenity": "cafe", "name": "\u0645\u0633\u0628\u062d \u0648\u0645\u0646\u062a\u0632\u0647 \u0627\u0644\u0633\u0639\u0627\u062f\u0629", "name:ar": "\u0645\u0633\u0628\u062d \u0648\u0645\u0646\u062a\u0632\u0647 \u0627\u0644\u0633\u0639\u0627\u062f\u0629", "name:en": "al saadah park and swimming pool", "opening_hours": "Mo-Su 10:00-00:00", "operator": "\u0632\u0643\u064a \u0638\u0627\u0647\u0631", "phone": "0599272012", "website": "https://m.facebook.com/\u0645\u0633\u0628\u062d-\u0648\u0645\u0646\u062a\u0632\u0647-\u0648\u0635\u0627\u0644\u0629-\u0627\u0644\u0633\u0639\u0627\u062f\u0629-226727068699644/"}}, {"type": "node", "id": 7880477564, "lat": 32.511357, "lon": 35.4420959, "tags": {"amenity": "restaurant", "diet:vegan": "limited", "diet:vegetarian": "yes", "name": "\u05d0\u05e8\u05d8\u05d9\u05e9\u05d5\u05e7", "name:he": "\u05d0\u05e8\u05d8\u05d9\u05e9\u05d5\u05e7", "outdoor_seating": "yes", "toilets": "yes"}}, {"type": "node", "id": 7912818785, "lat": 32.4497297, "lon": 35.2975958, "tags": {"amenity": "restaurant", "name": "\u0628\u064a\u062a \u0632\u0645\u0627\u0646", "name:en": "bait zaman"}}, {"type": "node", "id": 7917792186, "lat": 32.221399, "lon": 35.2577873, "tags": {"amenity": "cafe", "name": "\u0645\u0642\u0647\u0649 \u0627\u0644\u062d\u0627\u062c \u0639\u0648\u0646\u064a"}}, {"type": "node", "id": 8012504985, "lat": 32.3160632, "lon": 35.1900312, "tags": {"amenity": "restaurant", "name": "\u0645\u0637\u0639\u0645 \u0648\u0645\u0639\u062c\u0646\u0627\u062a \u0627\u0644\u0627\u0642\u0635\u0649 \u0662", "name:en": "restaurant", "phone": "059-7494134"}}, {"type": "node", "id": 8117797517, "lat": 32.224714, "lon": 35.2447078, "tags": {"addr:street": "\u0634\u0627\u0631\u0639 \u0631\u0641\u064a\u062f\u064a\u0627", "amenity": "restaurant", "cuisine": "arab;beef_bowl;local;sandwich", "name": "\u0634\u0648\u0631\u0645\u0627 \u0643\u062d\u0644\u0648\u0646", "name:ar": "\u0634\u0627\u0648\u0631\u0645\u0627 \u0643\u062d\u0644\u0648\u0646", "name:en": "Shawarma kahloun", "phone": "+970 9 233 1754", "website": "https://www.facebook.com/Shawarmakahloun/"}}, {"type": "node", "id": 8132367417, "lat": 32.2247019, "lon": 35.1962441, "tags": {"addr:street": "\u0634\u0627\u0631\u0639  \u0635\u0631\u0629", "amenity": "restaurant", "cuisine": "american", "internet_access": "wlan", "name": "\u0627\u0633\u0627\u062f\u0648 \u0645\u0637\u0639\u0645 \u0648 \u0643\u0627\u0641\u064a\u0647", "name:en": "Asado restaurant & cafe", "phone": "0599291107", "website": "https://www.facebook.com/asadonablus/"}}, {"type": "node", "id": 8232254302, "lat": 32.2035351, "lon": 35.2702288, "tags": {"addr:city": "\u05e7\u05e8\u05d9\u05d9\u05ea \u05dc\u05d5\u05d6\u05d4", "addr:housenumber": "4483500", "addr:postcode": "4483500", "addr:street": "Samaritan", "amenity": "cafe", "internet_access": "yes", "internet_access:fee": "no", "internet_access:ssid": "Yahoo.Cafe", "name": "Yahoo Cafe", "phone": "+9720522240016"}}, {"type": "node", "id": 8315361517, "lat": 32.12847, "lon": 35.0464043, "tags": {"amenity": "restaurant", "name": "\u0643\u062a\u0627\u0628\u0629"}}, {"type": "node", "id": 8401981318, "lat": 32.2973442, "lon": 35.3436514, "tags": {"amenity": "cafe", "internet_access": "wlan", "name": "\u0645\u0646\u062a\u0632\u0647 \u0627\u0644\u0648\u062c\u062f \u0644\u0644\u0639\u0627\u0626\u0644\u0627\u062a/ \u0645\u062e\u064a\u0645 \u0627\u0644\u0641\u0627\u0631\u0639\u0629", "name:ar": "\u0645\u0646\u062a\u0632\u0647 \u0627\u0644\u0648\u062c\u062f \u0644\u0644\u0639\u0627\u0626\u0644\u0627\u062a/ \u0645.\u0627\u0644\u0641\u0627\u0631\u0639\u0629", "name:en": "Al wajd Resort - Al Faraa", "phone": "00972569407722"}}, {"type": "node", "id": 8418883617, "lat": 32.1178958, "lon": 35.158669, "tags": {"amenity": "restaurant", "name": "\u0627\u0628\u0648 \u0643\u0631\u0645"}}, {"type": "node", "id": 8435219117, "lat": 32.2973087, "lon": 35.3436026, "tags": {"addr:postcode": "00972", "addr:street": "Al Wajd Street", "amenity": "cafe", "cuisine": "arab", "email": "tayeh32@gmail.com", "internet_access": "wlan", "name": "\u0645\u0646\u062a\u0632\u0647 \u0627\u0644\u0648\u062c\u062f \u0644\u0644\u0639\u0627\u0626\u0644\u0627\u062a", "name:en": "Al Wajd Resort for families", "opening_hours": "24/7", "phone": "00972569407722"}}, {"type": "node", "id": 8488477717, "lat": 32.4696641, "lon": 35.3040259, "tags": {"amenity": "restaurant", "name": "\u0643\u0631\u0634\u0627\u062a"}}, {"type": "node", "id": 8614413717, "lat": 32.3595084, "lon": 35.0828512, "tags": {"addr:street": "\u0639\u062a\u064a\u0644", "amenity": "cafe", "name": "\u0645\u0646\u062a\u0632\u0647 \u0648\u062d\u062f\u0627\u0626\u0642 \u0627\u0644\u0646\u062e\u064a\u0644", "name:en": "Palm park and gardens"}}, {"type": "node", "id": 8740978317, "lat": 32.4468699, "lon": 35.171223, "tags": {"addr:street": "Ya'bad", "amenity": "cafe", "name:en": "Shadi coffee shop"}}, {"type": "node", "id": 8837243117, "lat": 32.3538092, "lon": 35.1968684, "tags": {"amenity": "restaurant", "internet_access": "wlan", "name": "\u0645\u0637\u0639\u0645 \u0642\u0631\u0646\u0641\u0644", "name:en": "Koronfol restaurant", "opening_hours": "24/7"}}, {"type": "node", "id": 8990715517, "lat": 32.2016835, "lon": 35.1322036, "tags": {"amenity": "restaurant", "name": "\u0645\u0637\u0639\u0645 \u062a\u0644\u0630\u0648\u0627\u0642", "name:en": "Al thawaq restaurant", "opening_hours": "24/7"}}, {"type": "node", "id": 9180426617, "lat": 32.5192944, "lon": 35.4267378, "tags": {"amenity": "restaurant"}}, {"type": "node", "id": 9330595717, "lat": 32.2244247, "lon": 35.2467408, "tags": {"addr:street": "\u0634\u0627\u0631\u0639 \u0631\u0641\u064a\u062f\u064a\u0627", "amenity": "restaurant", "cuisine": "turkish", "name": "\u0627\u0644\u0628\u0637\u0627\u0637\u0627 \u0627\u0644\u062a\u0631\u0643\u064a\u0629", "name:en": "Turkish potato Nablus", "opening_hours": "Mo-Su 10:00-00:00", "phone": "+970 599 844 610"}}, {"type": "node", "id": 9548164691, "lat": 32.4719283, "lon": 35.2994785, "tags": {"amenity": "restaurant", "name": "\u0642\u0635\u0631 \u0639\u0644\u064a \u0628\u0627\u0628\u0627"}}, {"type": "node", "id": 9555019719, "lat": 32.4623276, "lon": 35.2984661, "tags": {"amenity": "restaurant", "name": "\u0641\u0648\u0627\u0646\u064a\u0633"}}, {"type": "node", "id": 9860324848, "lat": 32.3396484, "lon": 35.302162}, {"type": "node", "id": 9860324849, "lat": 32.339566, "lon": 35.3022352}, {"type": "node", "id": 9860324870, "lat": 32.3400559, "lon": 35.302487}, {"type": "node", "id": 9860324871, "lat": 32.3400128, "lon": 35.3026024}, {"type": "node", "id": 9860324872, "lat": 32.3399007, "lon": 35.3025326}, {"type": "node", "id": 9860324873, "lat": 32.3399448, "lon": 35.3024213}, {"type": "node", "id": 9860394289, "lat": 32.3402023, "lon": 35.3022847}, {"type": "node", "id": 9860394290, "lat": 32.3400488, "lon": 35.3022169}, {"type": "node", "id": 9860394291, "lat": 32.3401281, "lon": 35.3019561}, {"type": "node", "id": 9860394292, "lat": 32.3402839, "lon": 35.3020178}, {"type": "node", "id": 9882420282, "lat": 32.339624, "lon": 35.3021484}, {"type": "node", "id": 9882420283, "lat": 32.3396119, "lon": 35.3022613}, {"type": "node", "id": 9882420284, "lat": 32.3396036, "lon": 35.302137}, {"type": "node", "id": 9902526417, "lat": 32.1977511, "lon": 35.0503119, "tags": {"amenity": "restaurant", "name": "\u0645\u0637\u0639\u0645 \u0627\u0628\u0648 \u0627\u0646\u0633 \u0644\u0644\u0633\u0645\u0643"}}, {"type": "node", "id": 9902526817, "lat": 32.2259341, "lon": 35.2063235, "tags": {"amenity": "restaurant", "name:en": "bubbles"}}, {"type": "node", "id": 9919152834, "lat": 32.475639, "lon": 35.0890697}, {"type": "node", "id": 9919152835, "lat": 32.4756578, "lon": 35.0891361}, {"type": "node", "id": 9919152836, "lat": 32.475588, "lon": 35.0891639}, {"type": "node", "id": 9919152837, "lat": 32.4755692, "lon": 35.0890975}, {"type": "node", "id": 9919683525, "lat": 32.4758522, "lon": 35.0882632, "tags": {"amenity": "restaurant", "cuisine": "italian;pizza", "diet:halal": "yes", "facebook": "https://www.facebook.com/PizzaNapoli12", "name": "\u0628\u064a\u062a\u0633\u0627 \u0646\u0627\u0628\u0648\u0644\u064a", "name:ar": "\u0628\u064a\u062a\u0633\u0627 \u0646\u0627\u0628\u0648\u0644\u064a", "name:en": "Pizza Napoli", "phone": "04-647-6949"}}, {"type": "node", "id": 9919830013, "lat": 32.4767116, "lon": 35.0937984, "tags": {"amenity": "restaurant", "cuisine": "burger", "facebook": "https://www.facebook.com/crispyburgerc/", "name": "\u0643\u0631\u0633\u0628\u064a", "name:ar": "\u0643\u0631\u0633\u0628\u064a \u0628\u0648\u0631\u062c\u0631", "phone": "04-630-1222", "website": "https://www.crispybc.co.il/"}}, {"type": "node", "id": 9919881089, "lat": 32.4766808, "lon": 35.0887146, "tags": {"amenity": "restaurant", "cuisine": "pizza;italian", "diet:halal": "yes", "facebook": "https://www.facebook.com/LBestoIL", "name": "L Besto", "name:ar": "\u0644\u0628\u064a\u0633\u062a\u0648", "name:en": "L Besto"}}, {"type": "node", "id": 9921870983, "lat": 32.4752735, "lon": 35.0930401, "tags": {"amenity": "restaurant", "facebook": "https://www.facebook.com/profile.php?id=100063861437287", "name": "\u0627\u0644\u0645\u0637\u0628\u062e \u0627\u0644\u0634\u0627\u0645\u064a", "phone": "050-687-3587"}}, {"type": "node", "id": 9927481169, "lat": 32.469058, "lon": 35.0902452, "tags": {"amenity": "restaurant", "name": "\u0645\u0637\u0639\u0645 \u0627\u0644\u0627\u0642\u0635\u0649"}}, {"type": "node", "id": 9960132788, "lat": 32.4712979, "lon": 35.0904124, "tags": {"amenity": "restaurant", "name": "\u0647\u0627\u0646\u064a \u0647\u0627\u0646\u064a"}}, {"type": "node", "id": 10014274317, "lat": 32.3401377, "lon": 35.3021288, "tags": {"amenity": "cafe", "name": "\u0645\u0642\u0647\u0649 \u0648\u0627\u0633\u062a\u0631\u0627\u062d\u0629 \u0627\u0644\u0643\u064a\u0646\u0627", "name:en": "Alkena cafee"}}, {"type": "node", "id": 10804414908, "lat": 32.4912456, "lon": 35.5995805}, {"type": "node", "id": 10804414909, "lat": 32.4915299, "lon": 35.5996095}, {"type": "node", "id": 10804414910, "lat": 32.4915172, "lon": 35.5997844}, {"type": "node", "id": 10804414911, "lat": 32.4912329, "lon": 35.5997555}, {"type": "node", "id": 10949931405, "lat": 32.2357332, "lon": 35.3065746, "tags": {"amenity": "restaurant", "name": "\u0637\u064a\u0627\u0631\u0629 \u0627\u0644\u0635\u064a\u0631\u0641\u064a", "name:en": "Alserafe plan"}}, {"type": "node", "id": 10981752105, "lat": 32.44175, "lon": 35.1779417, "tags": {"addr:street": "Ya'bad", "amenity": "restaurant", "cuisine": "friture", "name": "\u0645\u0637\u0639\u0645 \u0648\u0628\u064a\u062a\u0632\u0627 \u0633\u0631\u0641\u0627\u0646\u0627", "name:en": "sirvana", "opening_hours": "Mo-Su 11:00-14:00"}}, {"type": "node", "id": 11084635605, "lat": 32.46885, "lon": 35.305609, "tags": {"addr:street": "Al-Sultan Abd Ahameed", "amenity": "restaurant", "cuisine": "barbecue;chicken;grill;kebab;sandwich;steak_house", "internet_access": "wlan", "name": "\u0645\u0634\u0627\u0648\u064a \u0627\u0644\u0628\u0627\u0634\u0627", "opening_hours": "Fr-We 09:00-18:00", "phone": "0569871580"}}, {"type": "node", "id": 11130211405, "lat": 32.4120039, "lon": 35.2822219, "tags": {"amenity": "restaurant", "name": "\u0645\u0637\u0639\u0645 \u0627\u0644\u0634\u064a\u0641 \u0648\u0644\u064a\u062f"}}, {"type": "node", "id": 11708855669, "lat": 32.2233358, "lon": 35.2602433, "tags": {"addr:street": "Sufian", "amenity": "restaurant", "cuisine": "chicken;pizza;sandwich", "internet_access": "wlan", "name": "\u0627\u0644\u0645\u0644\u0643\u064a \u0628\u0631\u0648\u0633\u062a", "name:en": "Malaky Broast", "opening_hours": "Su-Sa 09:00-01:00", "phone": "1700250250"}}, {"type": "node", "id": 11708855670, "lat": 32.2170094, "lon": 35.2716017, "tags": {"addr:street": "\u0634\u0627\u0631\u0639 \u0641\u064a\u0635\u0644", "amenity": "restaurant", "cuisine": "chicken;pizza;sandwich", "internet_access": "wlan", "name": "\u0645\u0644\u0643\u064a \u0628\u0631\u0648\u0633\u062a \u0662", "name:en": "Malaky Broast 2", "opening_hours": "Su-Sa 09:00-01:00", "phone": "1700250250"}}, {"type": "node", "id": 12481135432, "lat": 32.2321028, "lon": 35.2432127, "tags": {"addr:city": "\u0646\u0627\u0628\u0644\u0633", "addr:street": "\u0627\u0644\u0645\u0639\u0627\u062c\u064a\u0646", "air_conditioning": "yes", "amenity": "restaurant", "contact:facebook": "https://www.facebook.com/share/15Tk4Hb37R/", "cuisine": "barbecue;pizza;burger;kebab;arab;middle_eastern;fries;wings", "delivery": "yes", "internet_access": "wlan", "mobile": "+972599292990", "name": "Neran \u0646\u064a\u0631\u0627\u0646", "outdoor_seating": "yes", "phone": "+972599292990", "reservation": "yes", "smoking": "yes", "takeaway": "yes", "toilets": "yes"}}, {"type": "node", "id": 12496659701, "lat": 32.3670651, "lon": 35.0703283, "tags": {"addr:postcode": "+972", "addr:street": "Attil - Deir Al Ghusun", "amenity": "restaurant", "cuisine": "american;arab;coffee_shop;hotdog;italian_pizza;pasta;pizza", "internet_access": "wlan", "name": "\u0645\u0637\u0639\u0645 \u0639\u0646\u062c\u062f \u0632\u0627\u0643\u064a", "name:en": "anjad zaky", "opening_hours": "24/7", "phone": "00972598791381"}}, {"type": "node", "id": 12496659801, "lat": 32.3671018, "lon": 35.0703308, "tags": {"addr:postcode": "00972", "addr:street": "Attil - Deir Al Ghusun", "amenity": "restaurant", "cuisine": "american;arab;burger;chicken;coffee_shop;hotdog;italian_pizza", "internet_access": "wlan", "name": "\u0645\u0637\u0639\u0645 \u0639\u0646\u062c\u062f \u0632\u0627\u0643\u064a", "name:en": "Anjd Zaki Restaurant", "opening_hours": "24/7", "phone": "00972598791381"}}, {"type": "node", "id": 12762051383, "lat": 32.1497698, "lon": 35.1085367, "tags": {"amenity": "cafe", "cuisine": "coffee_shop", "name": "\u05e7\u05d5\u05e4\u05d9\u05e7\u05d9\u05e0\u05d4", "name:he": "\u05e7\u05d5\u05e4\u05d9\u05e7\u05d9\u05e0\u05d4"}}, {"type": "node", "id": 12871721801, "lat": 32.4794448, "lon": 35.4561246, "tags": {"amenity": "cafe", "image": "https://upload.wikimedia.org/wikipedia/commons/6/6a/IHM_\u05e7\u05e4\u05d4_\u05de\u05d5\u05d3\u05e2.jpeg", "name": "\u05e7\u05e4\u05d4 \u05de\u05d5\u05d3\u05e2", "name:he": "\u05e7\u05e4\u05d4 \u05de\u05d5\u05d3\u05e2", "opening_hours": "Su-Sa 09:00-19:00"}}, {"type": "way", "id": 360262696, "nodes": [3648436591, 3648436592, 3648436593, 3648436594, 3648436591], "tags": {"amenity": "restaurant", "building": "yes", "name": "\u0645\u0637\u0639\u0645 \u0633\u064a\u0631\u064a\u0633", "name:en": "SirisRestaurant"}}, {"type": "way", "id": 433076235, "nodes": [4319854329, 4319854649, 4319854640, 4319854315, 4319854329], "tags": {"amenity": "restaurant", "building": "yes", "name": "\u062d\u0644\u0648\u064a\u0627\u062a \u0627\u0644\u062a\u0648\u0641\u064a\u0642"}}, {"type": "way", "id": 433076399, "nodes": [4319854338, 4319854593, 4319854379, 4319854323, 4319854338], "tags": {"amenity": "restaurant", "building": "yes", "name": "\u0645\u0637\u0639\u0645 \u0643\u0627\u0646 \u064a\u0627 \u0645\u0643\u0627\u0646", "name:ar": "\u0641\u0646\u062f\u0642 \u0627\u0644\u0627\u062c\u0646\u062d\u0629 \u0627\u0644\u0645\u0644\u0643\u064a\u0629"}}, {"type": "way", "id": 1075099570, "nodes": [9860324848, 9882420283, 9860324849, 9882420284, 9882420282, 9860324848], "tags": {"amenity": "restaurant", "building": "yes", "name": "\u0645\u0637\u0639\u0645 \u0627\u0644\u0632\u0627\u062a\u0634\u064a"}}, {"type": "way", "id": 1075099579, "nodes": [9860324870, 9860324871, 9860324872, 9860324873, 9860324870], "tags": {"amenity": "restaurant", "building": "yes", "name": "\u0645\u0637\u0639\u0645 \u0627\u0644\u0632\u0627\u062a\u0634\u064a"}}, {"type": "way", "id": 1075113425, "nodes": [9860394289, 9860394290, 9860394291, 9860394292, 9860394289], "tags": {"amenity": "cafe", "building": "yes", "cuisine": "coffee_shop", "internet_access": "yes", "internet_access:fee": "no", "name": "\u0645\u0642\u0647\u0649 \u0648\u0627\u0633\u062a\u0631\u0627\u062d\u0647 \u0627\u0644\u0643\u064a\u0646\u0627", "opening_hours": "24/7", "outdoor_seating": "yes", "phone": "0594412301", "website": "https://m.facebook.com/alkenakafee/"}}, {"type": "way", "id": 1082322004, "nodes": [9919152834, 9919152835, 9919152836, 9919152837, 9919152834], "tags": {"amenity": "restaurant", "building": "yes", "cuisine": "regional;kebab", "diet:halal": "yes", "facebook": "https://www.facebook.com/%D9%85%D8%B7%D8%B9%D9%85-%D9%88%D9%85%D8%B7%D8%A8%D8%AE-%D8%A7%D9%84%D8%B5%D8%A7%D9%81%D9%8A-241651143033743", "name": "\u0645\u0637\u0639\u0645 \u0648\u0645\u0637\u0628\u062e \u0627\u0644\u0635\u0627\u0641\u064a", "name:ar": "\u0645\u0637\u0639\u0645 \u0648\u0645\u0637\u0628\u062e \u0627\u0644\u0635\u0627\u0641\u064a", "name:en": "Alsafe Resaurant", "phone": "04-629-9335"}}, {"type": "way", "id": 1161675458, "nodes": [10804414908, 10804414909, 10804414910, 10804414911, 10804414908], "tags": {"amenity": "restaurant", "building": "yes", "name": "\u0628\u0648\u0627\u0628\u0629 \u0646\u0647\u0631 \u0627\u0644\u0627\u0631\u062f\u0646", "name:en": "Jordan River Gate"}}]}