{"version": 0.6, "generator": "Overpass API 0.7.62.7 375dc00a", "osm3s": {"timestamp_osm_base": "2025-06-14T14:55:36Z", "copyright": "The data included in this document is from www.openstreetmap.org. The data is made available under ODbL."}, "elements": [{"type": "node", "id": 860331599, "lat": 37.838395, "lon": 27.845943, "tags": {"amenity": "restaurant", "name": "Beyti Kebap"}}, {"type": "node", "id": 1829601193, "lat": 37.8470356, "lon": 27.8428995, "tags": {"addr:housename": "Vak\u0131fhan", "addr:housenumber": "30", "addr:postcode": "09020", "addr:street": "Cumhuriyet Mahallesi Mithat Pa\u015fa Caddesi", "amenity": "cafe", "cuisine": "coffee_shop", "internet_access": "wlan", "internet_access:fee": "no", "name": "Cafedemi", "website": "http://facebook.com/cafedemi"}}, {"type": "node", "id": 2321343183, "lat": 37.8872869, "lon": 28.1811604, "tags": {"amenity": "cafe", "cuisine": "coffee_shop", "name": "Devrant K\u0131raathanesi"}}, {"type": "node", "id": 2339215300, "lat": 37.9096964, "lon": 28.2082047, "tags": {"amenity": "cafe"}}, {"type": "node", "id": 2457573119, "lat": 37.8795239, "lon": 28.2299895, "tags": {"amenity": "cafe"}}, {"type": "node", "id": 2524793210, "lat": 37.8900232, "lon": 28.2338993, "tags": {"amenity": "restaurant", "name": "Marla Restaurant"}}, {"type": "node", "id": 3689096379, "lat": 37.7239309, "lon": 27.9033429}, {"type": "node", "id": 3689096380, "lat": 37.7239291, "lon": 27.9035192}, {"type": "node", "id": 3689096381, "lat": 37.7238437, "lon": 27.9035284}, {"type": "node", "id": 3689096382, "lat": 37.7238437, "lon": 27.9033471}, {"type": "node", "id": 4174393492, "lat": 37.8425504, "lon": 27.8418403, "tags": {"amenity": "restaurant", "name": "can pide4"}}, {"type": "node", "id": 4174613991, "lat": 37.8081095, "lon": 27.8385479, "tags": {"amenity": "restaurant", "name": "cafe marin"}}, {"type": "node", "id": 4174658390, "lat": 37.8460354, "lon": 27.8335845, "tags": {"amenity": "restaurant", "name": "can pide2"}}, {"type": "node", "id": 4174658391, "lat": 37.8424572, "lon": 27.8402389, "tags": {"amenity": "restaurant", "name": "can pide3"}}, {"type": "node", "id": 4174658491, "lat": 37.8491444, "lon": 27.8264468, "tags": {"amenity": "restaurant", "name": "can pide"}}, {"type": "node", "id": 4174658990, "lat": 37.8436336, "lon": 27.8276178, "tags": {"amenity": "restaurant", "name": "\u015felale pide"}}, {"type": "node", "id": 4174659089, "lat": 37.8442203, "lon": 27.8263832, "tags": {"amenity": "restaurant", "name": "efeler \u00e7orba"}}, {"type": "node", "id": 4181862991, "lat": 38.089162, "lon": 27.7322073, "tags": {"amenity": "restaurant", "name": "ege bir restorant"}}, {"type": "node", "id": 4181894990, "lat": 38.0877324, "lon": 27.7326573, "tags": {"amenity": "restaurant", "name": "hakan ev yemekleri"}}, {"type": "node", "id": 4204437376, "lat": 38.0872139, "lon": 27.734654, "tags": {"amenity": "restaurant", "name": "yeni kebap salonu"}}, {"type": "node", "id": 4204471690, "lat": 38.0875857, "lon": 27.7325838, "tags": {"amenity": "restaurant", "name": "karde\u015f bal\u0131k\u00e7\u0131l\u0131k"}}, {"type": "node", "id": 4386725790, "lat": 38.0873766, "lon": 27.7314747, "tags": {"amenity": "cafe", "internet_access": "wlan", "name": "Tire \u00d6\u011fretmenevi"}}, {"type": "node", "id": 5051529048, "lat": 37.8435182, "lon": 27.8564627}, {"type": "node", "id": 5051529049, "lat": 37.8433176, "lon": 27.8564516}, {"type": "node", "id": 5051529200, "lat": 37.8435106, "lon": 27.856683}, {"type": "node", "id": 5051529202, "lat": 37.8435009, "lon": 27.8569642}, {"type": "node", "id": 5051529251, "lat": 37.8434581, "lon": 27.8564593}, {"type": "node", "id": 5051529252, "lat": 37.8433004, "lon": 27.8569531}, {"type": "node", "id": 5058273206, "lat": 37.8838642, "lon": 28.206692}, {"type": "node", "id": 5058273207, "lat": 37.8838992, "lon": 28.2071185}, {"type": "node", "id": 5058273208, "lat": 37.8840267, "lon": 28.2071017}, {"type": "node", "id": 5058273209, "lat": 37.8839918, "lon": 28.2066753}, {"type": "node", "id": 5303620824, "lat": 38.0886292, "lon": 27.7380076, "tags": {"addr:housenumber": "102-C", "addr:postcode": "35900", "addr:street": "G\u00fcm\u00fc\u015fpala Caddesi", "amenity": "restaurant", "cuisine": "turkish", "internet_access": "wlan", "name": "\u00d6zmert Kokore\u00e7 ve S\u00f6\u011f\u00fc\u015f", "name:en": "Kokorech and Sogush", "opening_hours": "Mo-Su 10:30-03:00", "operator": "Ramazan Erten", "phone": "+902325000407", "website": "http://ozmertkokorec.com.tr"}}, {"type": "node", "id": 5658523721, "lat": 37.9317026, "lon": 28.0147742, "tags": {"addr:housenumber": "02564761085", "addr:postcode": "09570", "addr:street": "Ayd\u0131n \u00f6demi\u015f yolu. Egrikavak mah", "amenity": "restaurant", "cuisine": "seafood;chicken;regional;beef_bowl;pancake;barbecue;tea;friture;steak_house;turkish;fish;kebab;breakfast;grill", "email": "info@basdegirmenaydin.com", "internet_access": "wlan", "name": "Ba\u015fde\u011firmen Et Bal\u0131k restoran", "name:en": "Basdegirmen steak and fish restaurant", "opening_hours": "Mo-Su 09:00-23:50", "operator": "Karaelmas sosyal hizmetler", "phone": "02564761021", "website": "http://basdegirmenaydin.com"}}, {"type": "node", "id": 6785143512, "lat": 37.8535946, "lon": 28.0516094, "tags": {"amenity": "restaurant", "name": "K\u00f6fteci"}}, {"type": "node", "id": 8227182171, "lat": 37.8596913, "lon": 27.8227741}, {"type": "node", "id": 8227182172, "lat": 37.8595154, "lon": 27.8228288}, {"type": "node", "id": 8227182173, "lat": 37.8595445, "lon": 27.8229504}, {"type": "node", "id": 8227182174, "lat": 37.8597165, "lon": 27.8228807}, {"type": "node", "id": 8308760796, "lat": 38.097011, "lon": 27.7186041}, {"type": "node", "id": 8308760797, "lat": 38.0969633, "lon": 27.718426}, {"type": "node", "id": 8308760798, "lat": 38.0968281, "lon": 27.7184845}, {"type": "node", "id": 8308760799, "lat": 38.0968758, "lon": 27.7186626}, {"type": "node", "id": 9373383418, "lat": 37.8519411, "lon": 27.8105013, "tags": {"amenity": "restaurant", "name:en": "Onat Pide"}}, {"type": "node", "id": 10029295539, "lat": 37.8821252, "lon": 28.1454771, "tags": {"amenity": "cafe", "check_date": "2022-09-16"}}, {"type": "node", "id": 10030391967, "lat": 37.8711623, "lon": 28.127072, "tags": {"amenity": "cafe", "check_date": "2022-09-16"}}, {"type": "node", "id": 10224601503, "lat": 37.6652767, "lon": 28.0178875, "tags": {"amenity": "cafe"}}, {"type": "node", "id": 10792378980, "lat": 37.845041, "lon": 27.8335632, "tags": {"addr:city": "Ayd\u0131n", "addr:housenumber": "61", "addr:street": "Atat\u00fcrk Bulvar\u0131", "amenity": "restaurant", "name": "YEN\u0130 PAZARLI OKAN USTA"}}, {"type": "node", "id": 10799066031, "lat": 37.8452368, "lon": 27.8455076, "tags": {"addr:city": "Ayd\u0131n", "addr:district": "Efeler", "addr:neighbourhood": "G\u00fczelhisar Mah.", "addr:street": "39. Sokak", "amenity": "restaurant", "contact:phone": "+90 5433 430 950", "cuisine": "kebab", "name": "Aperatifin Elli Tonu"}}, {"type": "node", "id": 11300018023, "lat": 37.8480193, "lon": 27.8537357, "tags": {"amenity": "cafe", "name": "Cadde Plus Cafe"}}, {"type": "node", "id": 11300040830, "lat": 37.8456844, "lon": 27.8607804, "tags": {"amenity": "cafe", "brand": "Starbucks", "brand:wikidata": "Q37158", "cuisine": "coffee_shop", "name": "Starbucks", "official_name": "Starbucks Coffee", "takeaway": "yes"}}, {"type": "node", "id": 11300040833, "lat": 37.8458263, "lon": 27.8615743, "tags": {"amenity": "restaurant", "cuisine": "turkish", "name": "Konya Sefas\u0131"}}, {"type": "node", "id": 11891310169, "lat": 37.8274537, "lon": 27.8422312, "tags": {"amenity": "cafe", "cuisine": "chicken;tea", "internet_access": "wlan"}}, {"type": "node", "id": 12175455331, "lat": 37.8425604, "lon": 27.8361181, "tags": {"amenity": "restaurant", "name": "Yeni Menderes Pide"}}, {"type": "node", "id": 12175834404, "lat": 37.8414697, "lon": 27.8446448, "tags": {"addr:city": "Ayd\u0131n", "addr:district": "Efeler", "addr:housenumber": "no: 66", "addr:neighbourhood": "Kurtulu\u015f Mahallesi", "addr:street": "Adnan Menderes Bulvar\u0131", "amenity": "restaurant", "cuisine": "kebab", "name": "Donas Ayd\u0131n", "opening_hours": "Mo-Su 10:00-22:00", "phone": "+90 256 214 8551"}}, {"type": "node", "id": 12230342715, "lat": 37.8387758, "lon": 27.8442076, "tags": {"addr:city": "Kurtulu\u015f Mahallesi", "addr:district": "Efeler", "addr:housenumber": "No: 20E", "addr:neighbourhood": "Kurtulu\u015f Mah.", "addr:postcode": "09020", "addr:street": "2010. Sk.", "amenity": "cafe", "cuisine": "coffee_shop;sandwich;cake;pastry;dessert;salad", "internet_access": "yes", "internet_access:fee": "customers", "name": "Koza Coffee Shop", "opening_hours": "Mo-Su 09:00-23:00", "outdoor_seating": "yes", "phone": "+90 531 303 47 82", "website": "https://www.instagram.com/kozacoffeeshop/", "website:menu": "https://menu.instalacarte.com/menu/s/en/Koza-Coffee-Shop/"}}, {"type": "node", "id": 12237314609, "lat": 37.8867152, "lon": 28.2209289, "tags": {"addr:city": "Ayd\u0131n", "addr:district": "Sultanhisar", "addr:neighbourhood": "At\u00e7a", "addr:street": "Kurtulu\u015f Caddesi", "amenity": "restaurant", "name": "G\u00f6n\u00fcl Han\u0131"}}, {"type": "node", "id": 12237314610, "lat": 37.8859393, "lon": 28.2214507, "tags": {"addr:city": "Ayd\u0131n", "addr:district": "Sultanhisar", "addr:neighbourhood": "At\u00e7a", "addr:street": "At\u00e7a - Nazilli Karayolu", "amenity": "cafe", "name": "Yol \u00dcst\u00fc Coffee & Tea Garden", "outdoor_seating": "yes"}}, {"type": "node", "id": 12675705736, "lat": 38.0978997, "lon": 27.7200521, "tags": {"addr:district": "Tire", "addr:housenumber": "No:13B", "addr:neighbourhood": "Fatih Mh.", "addr:postcode": "35900", "addr:street": "Sevin\u00e7 Sk.", "amenity": "cafe", "cuisine": "coffee_shop", "internet_access": "yes", "name": "Perla Coffee", "opening_hours": "09.00-00.00", "phone": "0537 213 92 96"}}, {"type": "node", "id": 12679715012, "lat": 38.0909746, "lon": 27.7216817, "tags": {"addr:city": "Fatih Mahallesi", "addr:district": "Tire", "addr:neighbourhood": "Fatih Mahallesi", "addr:postcode": "35910", "addr:street": "Turgut \u00d6zal Bulvar\u0131", "amenity": "cafe", "cuisine": "coffee_shop", "internet_access": "yes", "name": "Tu\u011fra Cafe", "outdoor_seating": "yes"}}, {"type": "node", "id": 12679722929, "lat": 38.0869441, "lon": 27.7335219, "tags": {"addr:district": "Tire", "addr:housenumber": "No:24/50", "addr:neighbourhood": "Yeni Mahallesi", "addr:postcode": "35900", "addr:street": "Atat\u00fcrk Cd.", "amenity": "cafe", "name": "Limoon Butik Lezzetler"}}, {"type": "node", "id": 12679743982, "lat": 38.0984891, "lon": 27.7198571, "tags": {"addr:city": "Tire/\u0130zmir", "addr:district": "Tire", "addr:neighbourhood": "Fatih Mh.", "addr:postcode": "35900", "addr:street": "Turgut \u00d6zal Bulvar\u0131", "amenity": "restaurant", "cuisine": "regional", "name": "Ramiz K\u00f6fte Salonu"}}, {"type": "node", "id": 12809407995, "lat": 38.0979075, "lon": 27.7188356, "tags": {"amenity": "cafe", "name": "LAOS"}}, {"type": "node", "id": 12827799801, "lat": 37.8470714, "lon": 27.8426247, "tags": {"amenity": "restaurant", "name": "G\u00fcldeste"}}, {"type": "way", "id": 364882710, "nodes": [3689096379, 3689096380, 3689096381, 3689096382, 3689096379], "tags": {"amenity": "cafe", "building": "yes", "cuisine": "turkish", "name": "Edis"}}, {"type": "way", "id": 517699866, "nodes": [5051529202, 5051529200, 5051529048, 5051529251, 5051529049, 5051529252, 5051529202], "tags": {"amenity": "restaurant", "cuisine": "italian", "name": "Venezia", "source": "bing"}}, {"type": "way", "id": 518575975, "nodes": [5058273209, 5058273208, 5058273207, 5058273206, 5058273209], "tags": {"addr:city": "At\u00e7a, Ayd\u0131n", "addr:postcode": "09650", "addr:street": "\u00c7evreyolu Sokak", "amenity": "cafe", "building": "yes", "name": "AD\u00dc At\u00e7a MYO Kafeterya", "source": "bing"}}, {"type": "way", "id": 884673861, "nodes": [8227182171, 8227182172, 8227182173, 8227182174, 8227182171], "tags": {"amenity": "cafe", "building": "yes", "name": "Kantin"}}, {"type": "way", "id": 893955105, "nodes": [8308760796, 8308760797, 8308760798, 8308760799, 8308760796], "tags": {"amenity": "restaurant", "building": "yes", "cuisine": "turkish", "name": "\u00d6demi\u015f Kebap"}}]}