{"version": 0.6, "generator": "Overpass API 0.7.62.7 375dc00a", "osm3s": {"timestamp_osm_base": "2025-06-14T14:31:02Z", "copyright": "The data included in this document is from www.openstreetmap.org. The data is made available under ODbL."}, "elements": [{"type": "node", "id": 308048952, "lat": 42.4419396, "lon": 19.2372925, "tags": {"amenity": "restaurant", "name": "Studentska menza", "name:sr": "\u0421\u0442\u0443\u0434\u0435\u043d\u0442\u0441\u043a\u0430 \u043c\u0435\u043d\u0437\u0430"}}, {"type": "node", "id": 308733751, "lat": 42.4233904, "lon": 19.2673637, "tags": {"amenity": "restaurant", "name": "13. Jul Plantaze"}}, {"type": "node", "id": 308872209, "lat": 42.4268142, "lon": 19.2755216, "tags": {"amenity": "cafe", "created_by": "Potlatch 0.10f", "name": "Max"}}, {"type": "node", "id": 308968230, "lat": 42.4410053, "lon": 19.2655964, "tags": {"amenity": "cafe", "created_by": "Potlatch 0.10f", "name": "Benz"}}, {"type": "node", "id": 308968251, "lat": 42.4415247, "lon": 19.2638798, "tags": {"amenity": "cafe", "ice_cream": "yes", "internet_access": "wlan", "name": "Forum"}}, {"type": "node", "id": 308971139, "lat": 42.4421889, "lon": 19.2453198, "tags": {"addr:street": "Rimski trg", "amenity": "restaurant", "name": "Dali"}}, {"type": "node", "id": 308971198, "lat": 42.4423874, "lon": 19.24561, "tags": {"amenity": "cafe", "created_by": "Potlatch 0.10f", "name": "Haos"}}, {"type": "node", "id": 308971212, "lat": 42.4433438, "lon": 19.2460392, "tags": {"amenity": "cafe", "created_by": "Potlatch 0.10f"}}, {"type": "node", "id": 308971218, "lat": 42.4432341, "lon": 19.2490065, "tags": {"amenity": "cafe", "name": "Alpe bar", "opening_hours": "Mo-Fr 07:00-01:00, Sa,Su 07:30-01:00"}}, {"type": "node", "id": 308971873, "lat": 42.4418744, "lon": 19.2456959, "tags": {"amenity": "restaurant", "created_by": "Potlatch 0.10f", "name": "Primizia"}}, {"type": "node", "id": 308972694, "lat": 42.4423939, "lon": 19.260952, "tags": {"amenity": "cafe", "name": "Thalia"}}, {"type": "node", "id": 308978841, "lat": 42.4376938, "lon": 19.266321, "tags": {"amenity": "cafe", "layer": "-1", "name": "Karver"}}, {"type": "node", "id": 310022454, "lat": 42.4420838, "lon": 19.261845, "tags": {"addr:city": "Podgorica", "addr:housenumber": "4", "addr:postcode": "81000", "addr:street": "Boke\u0161ka", "amenity": "cafe", "internet_access": "wlan", "internet_access:fee": "no", "name": "Dobri stari W.W.W.", "opening_hours": "Mo-Su 07:00-00:00", "operator": "D.O.O. \"4ASA\"", "outdoor_seating": "yes"}}, {"type": "node", "id": 310504040, "lat": 42.4454029, "lon": 19.244614, "tags": {"amenity": "cafe", "created_by": "xybot", "name": "Fidel Kastro"}}, {"type": "node", "id": 310504048, "lat": 42.4452836, "lon": 19.244596, "tags": {"amenity": "cafe", "name": "Vuk"}}, {"type": "node", "id": 310504115, "lat": 42.4449912, "lon": 19.2447427, "tags": {"amenity": "cafe", "created_by": "Potlatch 0.10f", "name": "Ko to zna"}}, {"type": "node", "id": 387450615, "lat": 42.4406405, "lon": 19.2510344, "tags": {"amenity": "restaurant", "cuisine": "pizza", "name": "Maestro"}}, {"type": "node", "id": 420290938, "lat": 42.7125129, "lon": 19.6834352, "tags": {"amenity": "restaurant", "capacity": "40", "name": "Restoran", "name:sr": "\u0440\u0435\u0441\u0442\u043e\u0440\u0430\u043d", "operator": "Op\u0161tina Andrijevica", "source": "GPS, Bing"}}, {"type": "node", "id": 514140098, "lat": 42.4416704, "lon": 19.2632876, "tags": {"amenity": "cafe", "name": "Trendy"}}, {"type": "node", "id": 514140099, "lat": 42.4417781, "lon": 19.2636824, "tags": {"amenity": "cafe", "name": "Carine"}}, {"type": "node", "id": 939240925, "lat": 42.4381272, "lon": 19.2815973, "tags": {"amenity": "restaurant", "name": "Pod Orah"}}, {"type": "node", "id": 1774641192, "lat": 42.4345734, "lon": 19.2767984}, {"type": "node", "id": 1962301871, "lat": 42.4422535, "lon": 19.2462858, "tags": {"amenity": "cafe", "cuisine": "pizza"}}, {"type": "node", "id": 2038235738, "lat": 42.439716, "lon": 19.2555991}, {"type": "node", "id": 2038235741, "lat": 42.4400589, "lon": 19.2557748}, {"type": "node", "id": 2056845040, "lat": 42.4569899, "lon": 19.2804855, "tags": {"addr:street": "Iva Andri\u0107a", "amenity": "restaurant", "cuisine": "regional", "name": "Stara Ku\u0107a"}}, {"type": "node", "id": 2075250497, "lat": 42.4407536, "lon": 19.2467589}, {"type": "node", "id": 2075250498, "lat": 42.4408084, "lon": 19.2465765}, {"type": "node", "id": 2075250499, "lat": 42.4408835, "lon": 19.2468305}, {"type": "node", "id": 2075250500, "lat": 42.4409382, "lon": 19.246648}, {"type": "node", "id": 2075250607, "lat": 42.4474638, "lon": 19.2477957}, {"type": "node", "id": 2075250615, "lat": 42.4475408, "lon": 19.2475789}, {"type": "node", "id": 2075250618, "lat": 42.4475908, "lon": 19.2478786}, {"type": "node", "id": 2075250627, "lat": 42.4476679, "lon": 19.2476619}, {"type": "node", "id": 2159512071, "lat": 42.7637063, "lon": 19.3893026, "tags": {"amenity": "cafe"}}, {"type": "node", "id": 2165142106, "lat": 42.3842547, "lon": 19.2793745}, {"type": "node", "id": 2165142109, "lat": 42.3839526, "lon": 19.2793318}, {"type": "node", "id": 2165142153, "lat": 42.3840226, "lon": 19.2791793}, {"type": "node", "id": 2165142156, "lat": 42.3841847, "lon": 19.2795271}, {"type": "node", "id": 2203123298, "lat": 42.4680138, "lon": 19.2564347}, {"type": "node", "id": 2203123299, "lat": 42.4680169, "lon": 19.2565482}, {"type": "node", "id": 2203123300, "lat": 42.4679053, "lon": 19.2564401}, {"type": "node", "id": 2203123301, "lat": 42.4679083, "lon": 19.2565535}, {"type": "node", "id": 2203152568, "lat": 42.4458556, "lon": 19.2662992}, {"type": "node", "id": 2203152569, "lat": 42.4459429, "lon": 19.2662219}, {"type": "node", "id": 2203152570, "lat": 42.4458638, "lon": 19.2661119}, {"type": "node", "id": 2203152571, "lat": 42.4461189, "lon": 19.2665299}, {"type": "node", "id": 2203152572, "lat": 42.445818, "lon": 19.2660364}, {"type": "node", "id": 2203152573, "lat": 42.4459586, "lon": 19.2661651}, {"type": "node", "id": 2203152574, "lat": 42.4457903, "lon": 19.2661785}, {"type": "node", "id": 2203152575, "lat": 42.4458853, "lon": 19.2662885}, {"type": "node", "id": 2203152576, "lat": 42.4460676, "lon": 19.266592}, {"type": "node", "id": 2203152577, "lat": 42.446016, "lon": 19.2658406}, {"type": "node", "id": 2203152578, "lat": 42.446107, "lon": 19.2660122}, {"type": "node", "id": 2218009328, "lat": 42.4332481, "lon": 19.2671181, "tags": {"amenity": "cafe", "cuisine": "pizza", "internet_access": "wlan", "name": "Salvador"}}, {"type": "node", "id": 2270743842, "lat": 42.4439204, "lon": 19.2467265, "tags": {"amenity": "cafe", "name": "Dimond cafe"}}, {"type": "node", "id": 2270743870, "lat": 42.4422637, "lon": 19.2496352, "tags": {"addr:city": "Podgorica", "addr:housenumber": "99", "addr:postcode": "81000", "addr:street": "Bulevar Svetog Petra Cetinjskog", "amenity": "cafe", "cuisine": "plant", "diet:vegan": "only", "internet_access": "wlan", "internet_access:fee": "no", "internet_access:ssid": "Paradise", "name": "Paradise Food", "opening_hours": "Mo-Th 08:00-20:00; Fr 08:00-16:00; Su 10:00-18:00", "outdoor_seating": "no"}}, {"type": "node", "id": 2270743874, "lat": 42.4424898, "lon": 19.2443174, "tags": {"amenity": "cafe", "name": "Vien cafe"}}, {"type": "node", "id": 2270744203, "lat": 42.4435795, "lon": 19.2479011, "tags": {"amenity": "cafe"}}, {"type": "node", "id": 2301671879, "lat": 42.4469737, "lon": 19.2527503}, {"type": "node", "id": 2301671880, "lat": 42.4469816, "lon": 19.2527281}, {"type": "node", "id": 2301671883, "lat": 42.4469865, "lon": 19.2527944}, {"type": "node", "id": 2301671884, "lat": 42.4469893, "lon": 19.2526779}, {"type": "node", "id": 2301671885, "lat": 42.4469969, "lon": 19.2527129}, {"type": "node", "id": 2301671889, "lat": 42.4470156, "lon": 19.2527987}, {"type": "node", "id": 2301671890, "lat": 42.4470233, "lon": 19.2528342}, {"type": "node", "id": 2334284413, "lat": 42.3840393, "lon": 19.2794695}, {"type": "node", "id": 2334284414, "lat": 42.3840608, "lon": 19.2794227}, {"type": "node", "id": 2334284415, "lat": 42.3841272, "lon": 19.2795435}, {"type": "node", "id": 2334284416, "lat": 42.3841487, "lon": 19.2794967}, {"type": "node", "id": 2387585505, "lat": 42.5397862, "lon": 19.3345395, "tags": {"amenity": "restaurant", "name": "Potoci"}}, {"type": "node", "id": 2415865123, "lat": 42.3897407, "lon": 19.7263113, "tags": {"addr:country": "AL", "addr:postcode": "4009", "addr:street": "Qaf\u00eb Thore", "amenity": "restaurant", "cuisine": "albanian", "delivery": "no", "internet_access": "yes", "internet_access:fee": "no", "name": "Buni i Bajraktarit", "outdoor_seating": "yes", "parking": "yes", "payment:coins": "yes", "payment:credit_cards": "no", "payment:cryptocurrencies": "no", "payment:debit_cards": "no", "payment:electronic_purses": "no", "payment:notes": "yes", "phone": "+355 67 303 6146", "smoking": "outside", "takeaway": "yes", "wheelchair": "yes"}}, {"type": "node", "id": 2430539391, "lat": 42.436649, "lon": 19.2626866, "tags": {"amenity": "cafe"}}, {"type": "node", "id": 2430539392, "lat": 42.4351891, "lon": 19.2597516, "tags": {"amenity": "restaurant", "cuisine": "regional", "diet:vegetarian": "no", "internet_access": "wlan", "name": "Pod Volat", "opening_hours": "Mo-Su 07:00-00:00"}}, {"type": "node", "id": 2430539393, "lat": 42.4363364, "lon": 19.2618979, "tags": {"addr:city": "Podgorica", "addr:housenumber": "2", "addr:postcode": "81000", "addr:street": "Trg Bo\u017eane Vu\u010dini\u0107", "amenity": "restaurant", "cuisine": "regional", "name": "Texas Ranch", "name:sr": "\u0422\u0435\u043a\u0441\u0430\u0441 \u0420\u0430\u043d\u0447"}}, {"type": "node", "id": 2430546969, "lat": 42.4428368, "lon": 19.2626732, "tags": {"addr:city": "Podgorica", "addr:housenumber": "42", "addr:postcode": "81000", "addr:street": "Njego\u0161eva", "amenity": "restaurant", "cuisine": "italian", "internet_access": "yes", "name": "La Scala"}}, {"type": "node", "id": 2430546971, "lat": 42.4409148, "lon": 19.2542913, "tags": {"amenity": "restaurant", "cuisine": "indian", "name": "Mantra"}}, {"type": "node", "id": 2430553519, "lat": 42.4365976, "lon": 19.2322945, "tags": {"addr:housename": "Zgrada Mili\u0107", "addr:street": "Cetinjski put", "amenity": "restaurant", "cuisine": "regional", "name": "Nostalgija", "website": "https://www.nostalgija.me/"}}, {"type": "node", "id": 2452110733, "lat": 42.4348075, "lon": 19.2788273, "tags": {"amenity": "cafe", "name": "Boss"}}, {"type": "node", "id": 2494762568, "lat": 42.4439509, "lon": 19.2641886, "tags": {"amenity": "restaurant", "cuisine": "regional", "internet_access": "wlan", "internet_access:fee": "no", "name": "Savojo", "name:sr": "\u0421\u0430\u0432\u043e\u0458\u043e", "name:sr-Latn": "Savojo"}}, {"type": "node", "id": 2831596351, "lat": 42.4398724, "lon": 19.2343358, "tags": {"addr:city": "Podgorica", "addr:housenumber": "31", "addr:postcode": "81000", "addr:street": "Vojvode Ma\u0161a \u0110urovi\u0107a", "amenity": "restaurant", "capacity": "55", "cuisine": "chinese", "name": "Zheng He", "opening_hours": "Mo-Su 10:00-24:00", "phone": "+382 20 223 551", "website": "http://zheng-he.me"}}, {"type": "node", "id": 2859673819, "lat": 42.4312393, "lon": 19.2964809, "tags": {"amenity": "restaurant", "cuisine": "pizza", "name": "Start"}}, {"type": "node", "id": 2859673820, "lat": 42.4429879, "lon": 19.2623524, "tags": {"amenity": "cafe"}}, {"type": "node", "id": 2865884723, "lat": 42.4111322, "lon": 19.3477978, "tags": {"addr:city": "Dino\u0161a", "amenity": "restaurant", "cuisine": "burger", "name": "Edo (Ljuljanovi\u0107a Kafana)"}}, {"type": "node", "id": 2865884738, "lat": 42.4112312, "lon": 19.3397408, "tags": {"addr:city": "Dino\u0161a", "amenity": "restaurant", "cuisine": "regional", "name": "Zidine", "name:sr": "\u0417\u0438\u0434\u0438\u043d\u0435"}}, {"type": "node", "id": 3020527233, "lat": 42.4422165, "lon": 19.2620169, "tags": {"addr:street": "Njego\u0161eva", "amenity": "restaurant", "cuisine": "international", "internet_access": "wlan", "name": "Hemera", "opening_hours": "24/7", "source": "survey", "wheelchair": "no"}}, {"type": "node", "id": 3072013115, "lat": 42.4396654, "lon": 19.2642019, "tags": {"amenity": "cafe"}}, {"type": "node", "id": 3427493294, "lat": 42.4406184, "lon": 19.2614933, "tags": {"addr:city": "Podgorica", "addr:housenumber": "14", "addr:street": "Njego\u0161eva", "amenity": "cafe", "name": "Forma", "smoking": "yes"}}, {"type": "node", "id": 3427517696, "lat": 42.4413872, "lon": 19.2600493, "tags": {"addr:city": "Podgorica", "addr:housenumber": "14", "addr:postcode": "81000", "addr:street": "Bulevar Stanka Dragojevi\u0107a", "amenity": "restaurant", "cuisine": "chinese", "name": "Shangai"}}, {"type": "node", "id": 3435556380, "lat": 42.4346727, "lon": 19.2768575}, {"type": "node", "id": 3435556381, "lat": 42.4346938, "lon": 19.2767918}, {"type": "node", "id": 3435556382, "lat": 42.4345651, "lon": 19.2767157}, {"type": "node", "id": 3435556383, "lat": 42.434544, "lon": 19.2767814}, {"type": "node", "id": 3713546820, "lat": 42.3991715, "lon": 19.6479601}, {"type": "node", "id": 3713546822, "lat": 42.3991742, "lon": 19.648042}, {"type": "node", "id": 3713547655, "lat": 42.3992854, "lon": 19.6479534}, {"type": "node", "id": 3713547656, "lat": 42.399288, "lon": 19.6480353}, {"type": "node", "id": 3723211067, "lat": 42.4470303, "lon": 19.251396, "tags": {"addr:city": "Podgorica", "addr:street": "13. jula", "amenity": "cafe", "cuisine": "regional", "internet_access": "yes", "name": "West pub", "smoking": "separated"}}, {"type": "node", "id": 3724308723, "lat": 42.4388426, "lon": 19.2684256, "tags": {"addr:street": "Obala Ribnice", "amenity": "restaurant", "cuisine": "regional", "name": "Restoran Ribnica"}}, {"type": "node", "id": 3724613000, "lat": 42.4803306, "lon": 19.1506169}, {"type": "node", "id": 3724613001, "lat": 42.4802225, "lon": 19.150679}, {"type": "node", "id": 3724613002, "lat": 42.4802947, "lon": 19.1509098}, {"type": "node", "id": 3724613003, "lat": 42.4804359, "lon": 19.1508287}, {"type": "node", "id": 3724771202, "lat": 42.4422421, "lon": 19.2614214, "tags": {"addr:street": "Boke\u0161ka", "amenity": "cafe", "cuisine": "regional", "name": "Galerija"}}, {"type": "node", "id": 3728880313, "lat": 42.4422253, "lon": 19.261515, "tags": {"addr:city": "Podgorica", "addr:street": "Boke\u0161ka", "amenity": "cafe", "cuisine": "regional", "internet_access": "yes", "name": "Sejdefa", "smoking": "outside"}}, {"type": "node", "id": 3729178914, "lat": 42.4627302, "lon": 19.5615649, "tags": {"amenity": "restaurant"}}, {"type": "node", "id": 3729178915, "lat": 42.4630791, "lon": 19.5617328, "tags": {"amenity": "cafe"}}, {"type": "node", "id": 3758977962, "lat": 42.7353683, "lon": 19.6847698, "tags": {"amenity": "restaurant"}}, {"type": "node", "id": 3912790912, "lat": 42.7469821, "lon": 19.6204016, "tags": {"amenity": "cafe"}}, {"type": "node", "id": 4195261021, "lat": 42.4499537, "lon": 19.2595837, "tags": {"addr:city": "Podgorica", "addr:housenumber": "20", "addr:street": "Serdara Jola Pileti\u0107a", "amenity": "cafe", "cuisine": "mexican;pizza", "internet_access": "wlan", "name": "Me gusta", "opening_hours": "Mo-Su 07:00-00:00", "phone": "+38220241777", "smoking": "isolated"}}, {"type": "node", "id": 4244921367, "lat": 42.7315212, "lon": 19.3810809}, {"type": "node", "id": 4244921368, "lat": 42.7315669, "lon": 19.3811676}, {"type": "node", "id": 4244921369, "lat": 42.7316081, "lon": 19.3809961}, {"type": "node", "id": 4244921370, "lat": 42.7316537, "lon": 19.3810829}, {"type": "node", "id": 4335712842, "lat": 42.7793406, "lon": 19.3931633, "tags": {"amenity": "cafe", "cuisine": "regional", "name": "POCINAK"}}, {"type": "node", "id": 4345470131, "lat": 42.4436817, "lon": 19.2612535, "tags": {"amenity": "cafe", "cuisine": "coffee_shop", "internet_access": "yes", "name": "Copy Cafe Gemelli", "note": "A copy shop and a cafe.", "smoking": "separated"}}, {"type": "node", "id": 4397752292, "lat": 42.443282, "lon": 19.2653464, "tags": {"addr:housenumber": "60/1", "addr:postcode": "81000", "addr:street": "Bulevar Ivana Crnojevi\u0107a", "amenity": "restaurant", "cuisine": "international", "internet_access": "wlan", "name": "Bajka", "opening_hours": "Mo-Sa 07:00-24:00; Su 10:00-24:00", "phone": "069331818"}}, {"type": "node", "id": 4398130791, "lat": 42.4421985, "lon": 19.2616161, "tags": {"amenity": "cafe", "name": "Soba"}}, {"type": "node", "id": 4398162799, "lat": 42.4425391, "lon": 19.2624791, "tags": {"addr:city": "Podgorica", "addr:housenumber": "34", "addr:postcode": "81000", "addr:street": "Njego\u0161eva", "amenity": "restaurant", "check_date": "2023-06-11", "cuisine": "regional;bavarian", "internet_access": "wlan", "internet_access:fee": "no", "level": "0", "name": "Marienplatz", "payment:mastercard": "yes", "payment:visa": "yes", "website": "https://marienplatz.me"}}, {"type": "node", "id": 4398162801, "lat": 42.4419803, "lon": 19.2623865, "tags": {"amenity": "restaurant", "cuisine": "italian", "name": "Lupo di Mare"}}, {"type": "node", "id": 4398175091, "lat": 42.4426417, "lon": 19.2622293, "tags": {"amenity": "cafe", "name": "Marselan"}}, {"type": "node", "id": 4398175790, "lat": 42.4423847, "lon": 19.2620755, "tags": {"amenity": "restaurant", "cuisine": "pizza", "name": "Corto Maltese"}}, {"type": "node", "id": 4400725792, "lat": 42.4396989, "lon": 19.2661379, "tags": {"amenity": "cafe", "name": "Pri\u010da"}}, {"type": "node", "id": 4400732590, "lat": 42.4337793, "lon": 19.267891, "tags": {"amenity": "restaurant", "check_date": "2025-06-11", "cuisine": "regional", "internet_access": "wlan", "name": "Ro\u0161tilj Nino Jankovi\u0107", "name:en": "Rostilj Nino Jankovic", "opening_hours": "Mo-Fr 07:00-22:00"}}, {"type": "node", "id": 4400738189, "lat": 42.4346731, "lon": 19.2641339, "tags": {"addr:housenumber": "91", "addr:street": "Oktobarske revolucije", "amenity": "restaurant", "check_date": "2023-05-20", "cuisine": "local;pizza;regional", "internet_access": "wlan", "level": "0", "name": "Doma\u0107i ukus", "name:sr": "\u0414\u043e\u043c\u0430\u045b\u0438 \u0443\u043a\u0443\u0441", "payment:mastercard": "yes", "payment:visa": "yes"}}, {"type": "node", "id": 4401263991, "lat": 42.4433907, "lon": 19.2635857, "tags": {"amenity": "cafe", "name": "Fontana"}}, {"type": "node", "id": 4401290091, "lat": 42.4440239, "lon": 19.2647219, "tags": {"amenity": "cafe", "name": "M Place"}}, {"type": "node", "id": 4401310489, "lat": 42.4407797, "lon": 19.2628053, "tags": {"amenity": "cafe", "bar": "yes", "name": "Art Gallery and Coffee"}}, {"type": "node", "id": 4401310589, "lat": 42.4403877, "lon": 19.2613663, "tags": {"amenity": "cafe", "name": "Caffe Bis"}}, {"type": "node", "id": 4401310691, "lat": 42.443949, "lon": 19.2644199, "tags": {"amenity": "cafe", "internet_access": "wlan", "name": "Prague", "opening_hours": "Mo-Sa 07:00-24:00; Su 08:00-24:00", "wheelchair": "no"}}, {"type": "node", "id": 4401310692, "lat": 42.4439882, "lon": 19.2645734, "tags": {"amenity": "restaurant"}}, {"type": "node", "id": 4401310789, "lat": 42.4433304, "lon": 19.2638223, "tags": {"amenity": "restaurant", "name": "Konoba Dank", "name:sr": "\u041a\u043e\u043d\u043e\u0431\u0430 \u0414\u0430\u043d\u043a"}}, {"type": "node", "id": 4401310791, "lat": 42.4441058, "lon": 19.2651387, "tags": {"amenity": "cafe", "name": "Club Moda"}}, {"type": "node", "id": 4403772068, "lat": 42.7594662, "lon": 19.389717, "tags": {"amenity": "cafe", "name": "Svetigora"}}, {"type": "node", "id": 4408438171, "lat": 42.4009889, "lon": 19.6544652}, {"type": "node", "id": 4408438172, "lat": 42.4009374, "lon": 19.6544383}, {"type": "node", "id": 4408438173, "lat": 42.4009493, "lon": 19.6543418}, {"type": "node", "id": 4408438174, "lat": 42.4008958, "lon": 19.6543096}, {"type": "node", "id": 4408438175, "lat": 42.400878, "lon": 19.6544196}, {"type": "node", "id": 4408438176, "lat": 42.4008205, "lon": 19.6543901}, {"type": "node", "id": 4408438177, "lat": 42.4008027, "lon": 19.6545429}, {"type": "node", "id": 4408438178, "lat": 42.4009592, "lon": 19.6546368}, {"type": "node", "id": 4415177492, "lat": 42.4400833, "lon": 19.2469662, "tags": {"amenity": "restaurant", "name:cs": "Anovi"}}, {"type": "node", "id": 4415185591, "lat": 42.4405249, "lon": 19.2436289, "tags": {"amenity": "restaurant", "check_date": "2023-10-31", "level": "0", "name": "Elit", "name:cs": "Elit"}}, {"type": "node", "id": 4510972492, "lat": 42.4398865, "lon": 19.2342582, "tags": {"addr:housenumber": "14", "addr:postcode": "81000", "addr:street": "Vojvode Ma\u0161a \u0110urovi\u0107a", "amenity": "restaurant"}}, {"type": "node", "id": 4529394893, "lat": 42.4412581, "lon": 19.285241, "tags": {"addr:housenumber": "18", "addr:postcode": "81000", "addr:street": "Medunska", "amenity": "restaurant", "cuisine": "balkan;barbecue", "name:sr": "Stari mlin", "phone": "+38268273373"}}, {"type": "node", "id": 4590949426, "lat": 42.4237358, "lon": 19.2747751, "tags": {"addr:city": "Podgorica", "addr:postcode": "81000", "addr:street": "Petra Dedi\u0107a", "amenity": "cafe", "internet_access": "wlan", "internet_access:fee": "no", "name": "Cafe Aquarium", "outdoor_seating": "no", "smoking": "yes"}}, {"type": "node", "id": 4591004356, "lat": 42.4355101, "lon": 19.275866, "tags": {"addr:city": "Podgorica", "addr:postcode": "81000", "addr:street": "Bulevar Pera \u0106etkovi\u0107a", "amenity": "cafe", "cuisine": "coffee_shop", "internet_access": "wlan", "internet_access:fee": "no", "name": "\u0160eta\u010d", "outdoor_seating": "sidewalk", "smoking": "yes"}}, {"type": "node", "id": 4591160541, "lat": 42.4357692, "lon": 19.2757337, "tags": {"addr:city": "Podgorica", "addr:postcode": "81000", "addr:street": "Bulevar Peka Dap\u010devi\u0107a", "amenity": "cafe", "internet_access": "wlan", "internet_access:fee": "no", "name": "Mr.Bean", "outdoor_seating": "sidewalk", "smoking": "yes"}}, {"type": "node", "id": 4591160542, "lat": 42.4358851, "lon": 19.2757973, "tags": {"addr:city": "Podgorica", "addr:postcode": "81000", "addr:street": "Bulevar Peka Dap\u010devi\u0107a", "amenity": "cafe", "internet_access": "wlan", "internet_access:fee": "no", "name": "BB 27", "outdoor_seating": "sidewalk", "smoking": "yes"}}, {"type": "node", "id": 4591160543, "lat": 42.4354786, "lon": 19.2760128, "tags": {"addr:city": "Podgorica", "addr:postcode": "81000", "addr:street": "Bulevar Pera \u0106etkovi\u0107a", "amenity": "cafe", "internet_access": "wlan", "internet_access:fee": "no", "name": "Moskwa", "outdoor_seating": "sidewalk", "smoking": "yes"}}, {"type": "node", "id": 4591356908, "lat": 42.4389118, "lon": 19.2531435, "tags": {"addr:city": "Podgorica", "addr:postcode": "81000", "addr:street": "Ivana Milutinovi\u0107a", "amenity": "cafe", "internet_access": "wlan", "name": "Menuet", "outdoor_seating": "patio", "smoking": "yes"}}, {"type": "node", "id": 4591356911, "lat": 42.4390195, "lon": 19.2526583, "tags": {"addr:city": "Podgorica", "addr:postcode": "81000", "addr:street": "Bulevar Revolucije", "amenity": "cafe", "name": "Kavana Kavana"}}, {"type": "node", "id": 4591389449, "lat": 42.4436922, "lon": 19.2449944, "tags": {"addr:city": "Podgorica", "addr:postcode": "81000", "addr:street": "Bulevar Mihaila Lali\u0107a", "amenity": "restaurant", "cuisine": "international", "delivery": "no", "name": "Garden", "outdoor_seating": "sidewalk", "smoking": "yes", "takeaway": "no"}}, {"type": "node", "id": 4738112524, "lat": 42.4398752, "lon": 19.2484924, "tags": {"addr:postcode": "81000", "addr:street": "Dragana Radulovi\u0107a", "amenity": "restaurant", "name:sr": "Restoran GALERIJA"}}, {"type": "node", "id": 4738112525, "lat": 42.4304814, "lon": 19.2584311, "tags": {"addr:postcode": "81000", "addr:street": "Bracana Bracanovi\u0107a", "amenity": "restaurant", "name": "Kristal", "name:sr": "\u041a\u0440\u0438\u0441\u0442\u0430\u043b"}}, {"type": "node", "id": 4738118523, "lat": 42.4430176, "lon": 19.2520524, "tags": {"addr:postcode": "81000", "addr:street": "Svetozara Markovi\u0107a", "amenity": "cafe", "name:sr": "El Comandante"}}, {"type": "node", "id": 4738128522, "lat": 42.4448634, "lon": 19.2449884, "tags": {"addr:postcode": "81000", "addr:street": "Vijenci Kosovskih junaka", "amenity": "cafe", "name:sr": "Chaplin"}}, {"type": "node", "id": 4738128523, "lat": 42.4298361, "lon": 19.2569626, "tags": {"addr:postcode": "81000", "addr:street": "Kralja Nikole", "amenity": "cafe", "name": "Caffe bar IN"}}, {"type": "node", "id": 4738135821, "lat": 42.4248279, "lon": 19.2526773, "tags": {"amenity": "cafe", "name:sr": "Caffe bar RIBNICA"}}, {"type": "node", "id": 4742981622, "lat": 42.4436715, "lon": 19.2477451, "tags": {"addr:housenumber": "108", "addr:postcode": "81000", "addr:street": "Bulevar D\u017eord\u017ea Va\u0161ingtona", "amenity": "cafe", "name:en": "Pause Caffe", "opening_hours": "Mo-Su 08:00-00:00", "phone": "+382 69 321 111"}}, {"type": "node", "id": 4836607097, "lat": 42.438728, "lon": 19.234603, "tags": {"addr:city": "Podgorica", "addr:postcode": "81000", "addr:street": "Radoja Daki\u0107a", "amenity": "restaurant", "cuisine": "regional", "name": "Ulix Gastro Bar", "opening_hours": "Mo-Su 08:00-24:00"}}, {"type": "node", "id": 4836607099, "lat": 42.4389881, "lon": 19.2349172, "tags": {"addr:city": "Podgorica", "addr:housenumber": "14", "addr:postcode": "81000", "addr:street": "Radoja Daki\u0107a", "amenity": "restaurant", "cuisine": "regional", "name": "Plan B", "opening_hours": "Mo-Su 08:00-00:00"}}, {"type": "node", "id": 4836607100, "lat": 42.4388738, "lon": 19.2352046, "tags": {"addr:city": "Podgorica", "addr:postcode": "81000", "addr:street": "Radoja Daki\u0107a", "amenity": "cafe", "name": "Kvart", "opening_hours": "Mo-Su 08:00-00:00"}}, {"type": "node", "id": 4836607101, "lat": 42.4394109, "lon": 19.2360105, "tags": {"addr:city": "Podgorica", "addr:housenumber": "16", "addr:postcode": "81000", "addr:street": "Pera \u0160o\u0107a", "amenity": "cafe", "check_date": "2024-04-11", "cuisine": "regional", "name": "Atipico", "opening_hours": "07:00-24:00", "outdoor_seating": "yes", "smoking": "isolated", "toilets": "yes"}}, {"type": "node", "id": 4836607102, "lat": 42.4387493, "lon": 19.2365026, "tags": {"addr:city": "Podgorica", "addr:housenumber": "10", "addr:postcode": "81000", "addr:street": "Bulevar knjaza Danila Petrovi\u0107a", "amenity": "cafe", "name": "Selfie Lounge Bar", "opening_hours": "Mo-Su 07:00-00:00", "outdoor_seating": "yes"}}, {"type": "node", "id": 4836607103, "lat": 42.441325, "lon": 19.2375242, "tags": {"addr:city": "Podgorica", "addr:postcode": "81000", "amenity": "cafe", "name": "The Cabinet"}}, {"type": "node", "id": 4836607104, "lat": 42.4409976, "lon": 19.2373364, "tags": {"addr:city": "Podgorica", "addr:postcode": "81000", "amenity": "cafe", "name": "Warhol Caffe"}}, {"type": "node", "id": 4836607105, "lat": 42.4408866, "lon": 19.2375245, "tags": {"addr:city": "Podgorica", "addr:postcode": "81000", "amenity": "cafe", "name": "Bar SHOOTka", "opening_hours": "Mo-Su 08:00-24:00"}}, {"type": "node", "id": 4836607106, "lat": 42.4407251, "lon": 19.2371852, "tags": {"addr:city": "Podgorica", "addr:postcode": "81000", "amenity": "cafe", "name": "Wall Street Caffe"}}, {"type": "node", "id": 4836607107, "lat": 42.4403197, "lon": 19.2372038, "tags": {"addr:city": "Podgorica", "addr:postcode": "81000", "amenity": "cafe", "check_date": "2024-04-11", "cuisine": "coffee_shop", "name": "Marnat-Cafe", "opening_hours": "07:00-22:00", "outdoor_seating": "yes"}}, {"type": "node", "id": 4836607108, "lat": 42.4408346, "lon": 19.2359651, "tags": {"addr:city": "Podgorica", "addr:postcode": "81000", "addr:street": "Studentska", "amenity": "cafe", "name": "Hunter", "opening_hours": "Mo-Su 07:00-24:00"}}, {"type": "node", "id": 4915112124, "lat": 42.4219938, "lon": 19.2613373, "tags": {"amenity": "cafe", "name:en": "ogi"}}, {"type": "node", "id": 4915144825, "lat": 42.4246675, "lon": 19.2526965, "tags": {"amenity": "cafe", "name:en": "sicilia"}}, {"type": "node", "id": 4993144722, "lat": 42.4494826, "lon": 19.2675245, "tags": {"air_conditioning": "no", "amenity": "cafe", "bar": "yes", "check_date": "2023-05-29", "internet_access": "wlan", "internet_access:fee": "no", "name": "\u0160to \u010cini\u0161", "outdoor_seating": "yes", "smoking": "outside", "toilets": "yes"}}, {"type": "node", "id": 5003839826, "lat": 42.4348751, "lon": 19.2810905, "tags": {"amenity": "cafe", "internet_access": "wlan", "name:en": "Pizzeria Kvart", "opening_hours": "Mo-Su 07:00-00:00"}}, {"type": "node", "id": 5003863321, "lat": 42.4349766, "lon": 19.2826179, "tags": {"addr:city": "Podgorica", "addr:housenumber": "118", "addr:postcode": "81000", "addr:street": "Avda Me\u0111edovi\u0107a", "amenity": "cafe", "internet_access": "yes", "internet_access:fee": "no", "name:en": "Intermezzo", "opening_hours": "Mo-Su 08:00-00:00", "outdoor_seating": "yes", "phone": "067 500 045"}}, {"type": "node", "id": 5005172122, "lat": 42.4347586, "lon": 19.2806635, "tags": {"addr:housenumber": "127-129", "amenity": "cafe", "cuisine": "coffee_shop;italian_pizza", "email": "info@panevivo.me", "name:en": "Sicilia"}}, {"type": "node", "id": 5044713022, "lat": 42.4380785, "lon": 19.2318634, "tags": {"amenity": "restaurant", "name": "Voli"}}, {"type": "node", "id": 5059587973, "lat": 42.3500101, "lon": 19.3317355, "tags": {"amenity": "restaurant", "name": "Troja"}}, {"type": "node", "id": 5097914722, "lat": 42.525327, "lon": 19.3460424, "tags": {"amenity": "restaurant", "cuisine": "croatian", "name:en": "Tany", "name:ru": "\u0422\u0430\u043d\u0438"}}, {"type": "node", "id": 5179420921, "lat": 42.447108, "lon": 19.2528004}, {"type": "node", "id": 5350080921, "lat": 42.4356584, "lon": 19.2414763, "tags": {"addr:housenumber": "10", "addr:postcode": "81000", "addr:street": "Dr Vuka\u0161ina Markovi\u0107a", "amenity": "cafe", "internet_access": "wlan", "name": "Petrus", "opening_hours": "Mo-Su 08:00-00:00", "operator": "Stefan Radojevic"}}, {"type": "node", "id": 5381254523, "lat": 42.4273577, "lon": 19.255744, "tags": {"addr:housenumber": "208", "addr:street": "Kralja Nikole", "amenity": "cafe", "internet_access": "wlan", "name:en": "TIMEOUT", "opening_hours": "Mo-Su 08:00-23:00"}}, {"type": "node", "id": 5411178005, "lat": 42.4652455, "lon": 19.2970673}, {"type": "node", "id": 5411178007, "lat": 42.4651014, "lon": 19.2970778}, {"type": "node", "id": 5411178009, "lat": 42.465256, "lon": 19.2970768}, {"type": "node", "id": 5411178010, "lat": 42.4652076, "lon": 19.2969135}, {"type": "node", "id": 5411178011, "lat": 42.4652967, "lon": 19.2969936}, {"type": "node", "id": 5457439155, "lat": 42.432159, "lon": 19.2668558, "tags": {"amenity": "restaurant", "name:en": "Rostilj Beli"}}, {"type": "node", "id": 5462588808, "lat": 42.4540682, "lon": 19.2198532, "tags": {"addr:street": "Andrije Lainovi\u0107a", "amenity": "restaurant", "name": "Bianka"}}, {"type": "node", "id": 5484447629, "lat": 42.4420499, "lon": 19.2456711, "tags": {"addr:housenumber": "2", "addr:street": "Rimski Trg", "amenity": "cafe", "cuisine": "coffee_shop", "internet_access": "wlan", "name:en": "ZRNO", "opening_hours": "Mo-Fr 07:30-00:00; Sa-Su 09:00-00:00", "operator": "indigo co. d.o.o.", "website": "http://www.zrno.me"}}, {"type": "node", "id": 5502117321, "lat": 42.4346849, "lon": 19.2817157, "tags": {"amenity": "cafe", "name:en": "Burbon"}}, {"type": "node", "id": 5524897367, "lat": 42.4415635, "lon": 19.2521157, "tags": {"addr:city": "Podgorica", "addr:housenumber": "34", "addr:postcode": "81000", "addr:street": "Bulevar Svetog Petra Cetinjskog", "amenity": "restaurant", "cuisine": "regional", "name": "\u041c\u0430\u0448\u0430"}}, {"type": "node", "id": 5524898334, "lat": 42.4405663, "lon": 19.251546, "tags": {"addr:city": "Podgorica", "addr:housenumber": "36", "addr:postcode": "81000", "addr:street": "Ivana Vujo\u0161evi\u0107a", "amenity": "restaurant", "cuisine": "breakfast;salad;sandwich", "internet_access": "wlan", "internet_access:fee": "no", "name": "Mami\u010dka", "opening_hours": "Mo-Fr 07:00-00:00; Sa-Su 08:00-23:00", "outdoor_seating": "yes", "phone": "+382 67 006 399", "smoking": "yes", "website": "https://mamicka.digitalnimeni.me/"}}, {"type": "node", "id": 5562718622, "lat": 42.3625, "lon": 19.2256, "tags": {"amenity": "cafe", "name:en": "Pecenjara", "name:ru": "\u041f\u0435\u0447\u0435\u043d\u044f\u0440\u0430"}}, {"type": "node", "id": 5623886624, "lat": 42.4492525, "lon": 19.2593692, "tags": {"amenity": "restaurant", "cuisine": "sushi", "internet_access": "wlan", "name:en": "Bahus Bistro", "name:ru": "\u0411\u0430\u0445\u0443\u0441 \u0411\u0438\u0441\u0442\u0440\u043e", "opening_hours": "Mo-Su 08:00-00:00", "phone": "+382020246370"}}, {"type": "node", "id": 5628227133, "lat": 42.5322472, "lon": 19.7189768, "tags": {"amenity": "cafe", "name": "Bar Tonini"}}, {"type": "node", "id": 5632581722, "lat": 42.3622225, "lon": 19.2254955, "tags": {"amenity": "restaurant", "internet_access": "wlan", "name:en": "Pecenjara", "name:ru": "\u041f\u0435\u0447\u0435\u043d\u044f\u0440\u0430"}}, {"type": "node", "id": 5776608448, "lat": 42.5045361, "lon": 19.5979123}, {"type": "node", "id": 5776608810, "lat": 42.5044078, "lon": 19.5975634}, {"type": "node", "id": 5776608828, "lat": 42.5044714, "lon": 19.5971872}, {"type": "node", "id": 5776608835, "lat": 42.5046521, "lon": 19.5974344, "tags": {"barrier": "gate"}}, {"type": "node", "id": 5776608879, "lat": 42.5046708, "lon": 19.5974757}, {"type": "node", "id": 5776608880, "lat": 42.5048847, "lon": 19.5977459}, {"type": "node", "id": 5776608881, "lat": 42.5049742, "lon": 19.5977676}, {"type": "node", "id": 5776608882, "lat": 42.5049381, "lon": 19.5978202}, {"type": "node", "id": 5776608883, "lat": 42.5049983, "lon": 19.5978619}, {"type": "node", "id": 5776608884, "lat": 42.5049796, "lon": 19.5979054}, {"type": "node", "id": 5776608885, "lat": 42.5049114, "lon": 19.5978782}, {"type": "node", "id": 5776608886, "lat": 42.5048406, "lon": 19.5979961}, {"type": "node", "id": 5776608887, "lat": 42.504775, "lon": 19.5979743}, {"type": "node", "id": 5776608888, "lat": 42.5047443, "lon": 19.5979816}, {"type": "node", "id": 5776608889, "lat": 42.5046561, "lon": 19.5979816}, {"type": "node", "id": 5776608890, "lat": 42.5045678, "lon": 19.5979562}, {"type": "node", "id": 5776608891, "lat": 42.5044997, "lon": 19.5978619}, {"type": "node", "id": 5776608892, "lat": 42.5043887, "lon": 19.5975754}, {"type": "node", "id": 5776608893, "lat": 42.5044261, "lon": 19.5975518}, {"type": "node", "id": 5776608894, "lat": 42.5044088, "lon": 19.5972708}, {"type": "node", "id": 5776608895, "lat": 42.5044876, "lon": 19.5971656}, {"type": "node", "id": 5776608896, "lat": 42.5045237, "lon": 19.5971982}, {"type": "node", "id": 5776608897, "lat": 42.5045451, "lon": 19.5972671}, {"type": "node", "id": 5776608898, "lat": 42.5045919, "lon": 19.5972291}, {"type": "node", "id": 5776608899, "lat": 42.5046387, "lon": 19.597405}, {"type": "node", "id": 5870942610, "lat": 42.4877106, "lon": 19.2318879, "tags": {"amenity": "restaurant", "name": "Restaurant Sala\u0161 23"}}, {"type": "node", "id": 5890164497, "lat": 42.536333, "lon": 19.6891235, "tags": {"amenity": "cafe", "name": "Suka Mkushit"}}, {"type": "node", "id": 5890165102, "lat": 42.4454236, "lon": 19.2329146, "tags": {"amenity": "cafe"}}, {"type": "node", "id": 5894658241, "lat": 42.5918425, "lon": 19.685688, "tags": {"amenity": "restaurant", "name": "Peraj Restaurant"}}, {"type": "node", "id": 5996029586, "lat": 42.4397407, "lon": 19.2623069, "tags": {"amenity": "restaurant", "name": "Steak house"}}, {"type": "node", "id": 5996038670, "lat": 42.4398355, "lon": 19.2620925, "tags": {"amenity": "restaurant", "name": "Republic of good food", "opening_hours": "Mo-Sa 08:00-00:00"}}, {"type": "node", "id": 6000774887, "lat": 42.4409517, "lon": 19.2481602, "tags": {"amenity": "cafe", "name:en": "Lumberjack"}}, {"type": "node", "id": 6042725010, "lat": 42.3634494, "lon": 19.2267893, "tags": {"amenity": "restaurant", "internet_access": "yes"}}, {"type": "node", "id": 6072936486, "lat": 42.4443422, "lon": 19.2487754, "tags": {"addr:housenumber": "87", "addr:street": "Moskovska", "amenity": "restaurant", "cuisine": "italian", "name:en": "Pasta Mania", "name:sr": "Konte Mare DOO", "opening_hours": "Mo-Sa 13:00-22:00", "phone": "+38220511505"}}, {"type": "node", "id": 6124008699, "lat": 42.4513944, "lon": 19.226022, "tags": {"amenity": "restaurant", "name": "Restoran Tolo\u0161i", "name:sr": "\u0420\u0435\u0441\u0442\u043e\u0440\u0430\u043d \u0422\u043e\u043b\u043e\u0448\u0438"}}, {"type": "node", "id": 6135401885, "lat": 42.4425649, "lon": 19.2631026, "tags": {"addr:housenumber": "42", "addr:street": "Hercegova\u010dka", "amenity": "cafe", "internet_access": "wlan", "name:en": "Selin's Art Cafe", "opening_hours": "Mo-Su 09:00-22:00", "phone": "+38269027668"}}, {"type": "node", "id": 6244631485, "lat": 42.4436045, "lon": 19.2489254, "tags": {"addr:housenumber": "44", "amenity": "cafe", "cuisine": "cake;coffee_shop;sandwich;regional", "internet_access": "wlan", "name:en": "Nonna", "opening_hours": "Mo-Sa 07:00-20:00; Su 08:00-15:00", "phone": "+382068815155", "website": "https://instagram.com/nonna_podgorica"}}, {"type": "node", "id": 6311095223, "lat": 42.4459685, "lon": 19.2545113, "tags": {"addr:housenumber": "54", "addr:street": "Svetozara Markovi\u0107a", "amenity": "restaurant", "internet_access": "wlan", "name:en": "Taormina Cafe Pizzeria"}}, {"type": "node", "id": 6321157785, "lat": 42.4378059, "lon": 19.2330092, "tags": {"addr:postcode": "81000", "addr:street": "Cetinjski put", "amenity": "restaurant", "cuisine": "turkish;balkan", "internet_access": "wlan", "name": "Treasures", "opening_hours": "Mo-Su 06:00-00:00", "phone": "020336969", "website": "http://www.chefs-treasures.me"}}, {"type": "node", "id": 6387956985, "lat": 42.4327672, "lon": 19.2569381, "tags": {"amenity": "cafe", "name": "Red caffe", "name:en": "Red caffe"}}, {"type": "node", "id": 6388016586, "lat": 42.4307463, "lon": 19.2667802, "tags": {"amenity": "cafe", "name:en": "PIT-STOP"}}, {"type": "node", "id": 6388655485, "lat": 42.4319017, "lon": 19.2660484, "tags": {"addr:street": "Mitra Baki\u0107a", "amenity": "cafe", "internet_access": "wlan", "name:en": "Ta\u0161", "opening_hours": "Mo-Su 06:00-23:00"}}, {"type": "node", "id": 6388820085, "lat": 42.4440651, "lon": 19.2650882, "tags": {"amenity": "cafe", "name": "Sketch caffe bar", "opening_hours": "Mo-Su 07:00-24:00"}}, {"type": "node", "id": 6421749185, "lat": 42.4563083, "lon": 19.185286, "tags": {"amenity": "restaurant", "cuisine": "regional;breakfast;international;coffee_shop", "name:en": "Konoba Ogniste", "name:ru": "\u041d\u0430\u0446\u0438\u043e\u043d\u0430\u043b\u044c\u043d\u044b\u0439 \u0440\u0435\u0441\u0442\u043e\u0440\u0430\u043d \u041e\u0433\u043d\u0438\u0448\u0442\u0435"}}, {"type": "node", "id": 6444004388, "lat": 42.4460034, "lon": 19.2665272, "tags": {"addr:housenumber": "23", "addr:postcode": "81000", "addr:street": "19. Decembra", "amenity": "cafe", "internet_access": "wlan", "name:sr": "Klub Bo\u0107ara", "opening_hours": "Mo-Su 08:00-00:00", "operator": "D.O.O. \"Lucky Lady\""}}, {"type": "node", "id": 6497077794, "lat": 42.4486134, "lon": 19.2571867, "tags": {"amenity": "restaurant", "name:en": "marquez"}}, {"type": "node", "id": 6497079507, "lat": 42.4434023, "lon": 19.2400581, "tags": {"amenity": "restaurant", "name:en": "desetka"}}, {"type": "node", "id": 6506627387, "lat": 42.4439117, "lon": 19.246966, "tags": {"addr:housenumber": "118", "addr:street": "Bulevar Svetog Petra Cetinjskog", "amenity": "cafe", "cuisine": "cake;crepe;pancake", "name:de": "Carolija Cafe", "name:en": "\u010carolija"}}, {"type": "node", "id": 6573324385, "lat": 42.4413933, "lon": 19.235068, "tags": {"addr:housenumber": "45", "addr:street": "Studentska", "amenity": "restaurant", "cuisine": "italian_pizza", "internet_access": "wlan", "name:en": "Sole Italiano", "name:ru": "Sole Italiano", "name:sr": "Sunce Italije", "opening_hours": "Mo-Su 08:00-23:00", "phone": "+38220333375"}}, {"type": "node", "id": 6577456987, "lat": 42.443261, "lon": 19.2654186, "tags": {"amenity": "cafe", "name": "Caffeine Coffee Shop C2"}}, {"type": "node", "id": 6765096202, "lat": 42.4629052, "lon": 19.5613518, "tags": {"amenity": "restaurant", "name": "Bar Restorant Tamara"}}, {"type": "node", "id": 6765139446, "lat": 42.4627445, "lon": 19.5613188, "tags": {"amenity": "restaurant", "name": "Bar & Restaurant"}}, {"type": "node", "id": 6796356885, "lat": 42.4434021, "lon": 19.2626622, "tags": {"addr:housenumber": "47", "addr:postcode": "81000", "addr:street": "Njego\u0161eva", "amenity": "cafe", "name": "Bicycle Club"}}, {"type": "node", "id": 6806430486, "lat": 42.4401284, "lon": 19.2507083, "tags": {"amenity": "cafe", "name:en": "Unico"}}, {"type": "node", "id": 6815501187, "lat": 42.4417474, "lon": 19.2479969, "tags": {"addr:housenumber": "2-9", "addr:street": "Moskovska", "amenity": "restaurant", "cuisine": "balkan;grill;pasta;regional", "diet:vegetarian": "yes", "name": "Beer Academy", "opening_hours": "Mo-Su 06:30-00:00"}}, {"type": "node", "id": 7023775121, "lat": 42.4446824, "lon": 19.2451805, "tags": {"amenity": "cafe", "name": "D\u017eada"}}, {"type": "node", "id": 7161326005, "lat": 42.439431, "lon": 19.2340701, "tags": {"amenity": "cafe", "cuisine": "coffee_shop", "internet_access": "wlan", "internet_access:fee": "no", "name": "Caffeine", "name:en": "Caffeine Coffee Shop C1", "opening_hours": "Mo-Sa 08:00-24:00, Su 09:00-24:00", "outdoor_seating": "yes"}}, {"type": "node", "id": 7619603994, "lat": 42.7748365, "lon": 19.5442551, "tags": {"amenity": "restaurant", "email": "cepic.v@t-com.me", "name:en": "Konoba AmaneT", "name:ru": "\u041a\u043e\u043d\u043e\u0431\u0430 \u0410\u043c\u0430\u043d\u0435\u0422", "name:sr": "Konoba AmaneT", "phone": "068140140"}}, {"type": "node", "id": 7619791104, "lat": 42.4505265, "lon": 19.2363396, "tags": {"addr:street": "Sava \u010celebi\u0107a", "amenity": "restaurant", "name": "Sicilia"}}, {"type": "node", "id": 7650088955, "lat": 42.4405902, "lon": 19.2653981}, {"type": "node", "id": 7650088956, "lat": 42.4404823, "lon": 19.2653439}, {"type": "node", "id": 7650088957, "lat": 42.4404607, "lon": 19.2654228}, {"type": "node", "id": 7650088958, "lat": 42.4405685, "lon": 19.2654771}, {"type": "node", "id": 7756135887, "lat": 42.3994154, "lon": 19.6486098, "tags": {"amenity": "cafe", "cuisine": "coffee_shop", "name": "Ulaj"}}, {"type": "node", "id": 7853228708, "lat": 42.4236004, "lon": 19.2362389, "tags": {"amenity": "restaurant", "name": "Restaurant Laguna"}}, {"type": "node", "id": 7998202260, "lat": 42.4624905, "lon": 19.5612834, "tags": {"amenity": "restaurant", "name": "Te Gusti", "phone": "+355 693114521", "tourism": "hotel"}}, {"type": "node", "id": 8464048328, "lat": 42.4473935, "lon": 19.2569112, "tags": {"addr:postcode": "81000", "addr:street": "Serdara Jola Pileti\u0107a", "amenity": "cafe", "internet_access": "wlan", "name:en": "Sicilia", "name:ru": "\u0421\u0438\u0446\u0438\u043b\u0438\u044f", "opening_hours": "Mo-Su 06:30-00:00", "website": "http://www.pekarasicilia.me/"}}, {"type": "node", "id": 8868109945, "lat": 42.4139718, "lon": 19.193324, "tags": {"amenity": "restaurant", "name": "Konoba Ksenija"}}, {"type": "node", "id": 8929087466, "lat": 42.43689, "lon": 19.2601524, "tags": {"addr:city": "Podgorica", "addr:housenumber": "36", "addr:postcode": "81000", "addr:street": "Kralja Nikole", "air_conditioning": "yes", "amenity": "restaurant", "cuisine": "pizza;italian;regional", "delivery": "yes", "diet:meat": "yes", "diet:vegetarian": "yes", "email": "lanternapg@gmail.com", "internet_access": "wlan", "internet_access:fee": "customers", "name": "Konoba Lanterna", "opening_hours": "Mo-Fr 08:00-23:00; Sa-Su 12:00-23:00", "outdoor_seating": "yes", "payment:credit_cards": "yes", "phone": "+382 67 361 981", "smoking": "outside", "takeaway": "yes", "website": "https://lanterna.me"}}, {"type": "node", "id": 8929270875, "lat": 42.4435859, "lon": 19.2612296, "tags": {"addr:housenumber": "40", "addr:street": "Bulevar Stanka Dragojevi\u0107a", "alt_name": "Restoran Porto Podgorica", "amenity": "restaurant", "contact:facebook": "https://www.facebook.com/portopodgorica/", "contact:instagram": "https://www.instagram.com/portopodgorica/", "cuisine": "fish", "internet_access": "wlan", "name": "Porto", "opening_hours": "Mo-Su 10:00-00:00", "phone": "+382 20 221 071", "website": "https://www.restoranportopg.me"}}, {"type": "node", "id": 9073265771, "lat": 42.3897396, "lon": 19.7261902}, {"type": "node", "id": 9073265772, "lat": 42.3896627, "lon": 19.726262}, {"type": "node", "id": 9073265773, "lat": 42.389723, "lon": 19.7263806}, {"type": "node", "id": 9073265774, "lat": 42.3898, "lon": 19.7263088}, {"type": "node", "id": 9464243895, "lat": 42.4651049, "lon": 19.2971424}, {"type": "node", "id": 9464243896, "lat": 42.4651258, "lon": 19.2970997}, {"type": "node", "id": 9464243897, "lat": 42.465152, "lon": 19.2970271}, {"type": "node", "id": 9464243898, "lat": 42.4651341, "lon": 19.297011}, {"type": "node", "id": 9464243899, "lat": 42.465177, "lon": 19.2972072}, {"type": "node", "id": 9496033689, "lat": 42.4589408, "lon": 19.2965291}, {"type": "node", "id": 9496033690, "lat": 42.4589955, "lon": 19.2965885}, {"type": "node", "id": 9496033691, "lat": 42.4589849, "lon": 19.2965768}, {"type": "node", "id": 9496033692, "lat": 42.4590494, "lon": 19.2964985}, {"type": "node", "id": 9496033693, "lat": 42.4588814, "lon": 19.2967496}, {"type": "node", "id": 9496033694, "lat": 42.4588377, "lon": 19.2967015}, {"type": "node", "id": 9496033695, "lat": 42.458995, "lon": 19.2964386}, {"type": "node", "id": 9496718986, "lat": 42.4612727, "lon": 19.2904011}, {"type": "node", "id": 9496718987, "lat": 42.4611802, "lon": 19.2903253}, {"type": "node", "id": 9496718988, "lat": 42.4612221, "lon": 19.2902313}, {"type": "node", "id": 9496718989, "lat": 42.4613146, "lon": 19.2903071}, {"type": "node", "id": 9592378403, "lat": 42.4374573, "lon": 19.2391456, "tags": {"addr:housenumber": "65", "addr:street": "Marka Radovi\u0107a", "amenity": "cafe", "name": "Consulate", "opening_hours": "Mo-Su 07:00-24:00"}}, {"type": "node", "id": 9598380553, "lat": 42.447506, "lon": 19.2476769}, {"type": "node", "id": 9598380554, "lat": 42.4476806, "lon": 19.24785}, {"type": "node", "id": 9598380555, "lat": 42.4476328, "lon": 19.2478188}, {"type": "node", "id": 9598380556, "lat": 42.4476142, "lon": 19.247871}, {"type": "node", "id": 9598380557, "lat": 42.447713, "lon": 19.2477588}, {"type": "node", "id": 9598380558, "lat": 42.4475974, "lon": 19.24786}, {"type": "node", "id": 9598380559, "lat": 42.4476484, "lon": 19.2477166}, {"type": "node", "id": 9627180448, "lat": 42.4447591, "lon": 19.263624, "tags": {"amenity": "cafe", "indoor_seating": "yes", "name": "Kafoteka", "outdoor_seating": "yes"}}, {"type": "node", "id": 9876431348, "lat": 42.4469732, "lon": 19.2527591}, {"type": "node", "id": 9876431349, "lat": 42.4470055, "lon": 19.2528024}, {"type": "node", "id": 9876431350, "lat": 42.4469928, "lon": 19.2527995}, {"type": "node", "id": 9876431351, "lat": 42.4469745, "lon": 19.2527705}, {"type": "node", "id": 9876431352, "lat": 42.4469767, "lon": 19.252738}, {"type": "node", "id": 9876431353, "lat": 42.4469989, "lon": 19.2528023}, {"type": "node", "id": 9876431354, "lat": 42.446981, "lon": 19.2527872}, {"type": "node", "id": 9876431355, "lat": 42.4469766, "lon": 19.252778}, {"type": "node", "id": 9876431356, "lat": 42.446988, "lon": 19.2527204}, {"type": "node", "id": 9876431357, "lat": 42.447074, "lon": 19.2526441}, {"type": "node", "id": 9879452117, "lat": 42.6654172, "lon": 19.5145012, "tags": {"amenity": "restaurant", "cuisine": "balkan;fish;local;regional", "name": "Restoran Ribnjak"}}, {"type": "node", "id": 9888683580, "lat": 42.4882602, "lon": 19.5328746, "tags": {"amenity": "cafe", "name": "Konoba Plus"}}, {"type": "node", "id": 9896999137, "lat": 42.4246492, "lon": 19.4578185, "tags": {"amenity": "cafe", "name": "Cemi holiday resort"}}, {"type": "node", "id": 9922419519, "lat": 42.437935, "lon": 19.2425617, "tags": {"amenity": "cafe", "name": "Cafe bar 04", "opening_hours": "Mo-Su 06:30-23:00"}}, {"type": "node", "id": 9937992889, "lat": 42.4396015, "lon": 19.2340064, "tags": {"addr:city": "Podgorica", "addr:housenumber": "35", "addr:postcode": "81000", "addr:street": "Radoja Daki\u0107a", "amenity": "restaurant", "cuisine": "italian;pizza;european;coffee;sandwich;burger", "name": "Spago", "opening_hours": "Mo-Su 08:00-24:00", "phone": "020 653 419", "website": "https://spagopodgorica.me/"}}, {"type": "node", "id": 9939652034, "lat": 42.426699, "lon": 19.2573259, "tags": {"amenity": "restaurant", "name": "Primo Passo"}}, {"type": "node", "id": 9945982710, "lat": 42.4475366, "lon": 19.2454486, "tags": {"amenity": "cafe", "cuisine": "ice_cream", "internet_access": "no", "name:en": "Ruski Bar", "name:ru": "\u0420\u0443\u0441\u043a\u0438 \u0411\u0430\u0440", "name:sr": "\u0420\u0443\u0441\u043a\u0438 \u0411\u0430\u0440", "name:sr-Latn": "Ruski Bar", "opening_hours": "Mo-Fr 09:00-18:00", "outdoor_seating": "no"}}, {"type": "node", "id": 9947440841, "lat": 42.4327555, "lon": 19.2671869, "tags": {"amenity": "cafe", "name": "\u0110esi \u0110esi"}}, {"type": "node", "id": 9959136320, "lat": 42.4366462, "lon": 19.2596424, "tags": {"amenity": "cafe", "craft": "brewery", "cuisine": "montenegrin;coffee;tea;snack", "name:en": "Kaldrma", "opening_hours": "Mo-Fr 10:00-16:00, 18:00-23:00; Sa 10:00-16:00, 18:00-23:55", "shop": "souvenir", "website": "https://kaldrma.art/"}}, {"type": "node", "id": 9960370067, "lat": 42.4288418, "lon": 19.271653, "tags": {"amenity": "restaurant", "name": "Bar 12", "operator": "Voli"}}, {"type": "node", "id": 9975423730, "lat": 42.397051, "lon": 19.6948066}, {"type": "node", "id": 9975423731, "lat": 42.396944, "lon": 19.6948467}, {"type": "node", "id": 9975423732, "lat": 42.3970929, "lon": 19.6955765}, {"type": "node", "id": 9975423733, "lat": 42.3972585, "lon": 19.6955146}, {"type": "node", "id": 9975423734, "lat": 42.3971555, "lon": 19.6950097}, {"type": "node", "id": 9975423735, "lat": 42.397097, "lon": 19.6950316}, {"type": "node", "id": 10044336460, "lat": 42.3644211, "lon": 19.6319021, "tags": {"amenity": "cafe"}}, {"type": "node", "id": 10061232371, "lat": 42.4387329, "lon": 19.2323548, "tags": {"addr:city": "Podgorica", "addr:street": "Petra Sinanovi\u0107a Nagiba", "amenity": "restaurant", "name": "City Garden", "opening_hours": "Mo-Sa 08:00-24:00"}}, {"type": "node", "id": 10125015318, "lat": 42.4405747, "lon": 19.2348451, "tags": {"addr:city": "Podgorica", "addr:housenumber": "18", "addr:postcode": "81000", "addr:street": "Vojvode Ma\u0161a \u0110urovi\u0107a", "amenity": "cafe", "cuisine": "emirati", "diet:vegan": "yes", "name": "Arabian Tea House", "opening_hours": "Mo-Su 08:00-24:00", "outdoor_seating": "yes", "phone": "+382067147147", "website": "https://arabianteahouse.me"}}, {"type": "node", "id": 10125023641, "lat": 42.4407513, "lon": 19.2664408, "tags": {"addr:city": "Podgorica", "addr:housenumber": "57", "addr:postcode": "81000", "addr:street": "Miljana Vukova", "amenity": "restaurant", "cuisine": "pizza;balkan", "diet:vegan": "limited", "internet_access": "no", "name": "Pizzeria Calabria", "opening_hours": "Mo-Fr 08:00-24:00; Sa-Su 12:00-24:00", "outdoor_seating": "yes", "phone": "+382 69 183 000", "website": "https://calabriapodgorica.business.site"}}, {"type": "node", "id": 10140041117, "lat": 42.4556512, "lon": 19.2637324, "tags": {"amenity": "restaurant", "name": "Protokol", "opening_hours": "Mo-Su 08:00-00:00"}}, {"type": "node", "id": 10143586748, "lat": 42.7285408, "lon": 19.3403561, "tags": {"amenity": "restaurant", "cuisine": "regional", "name": "Mijovi\u0107"}}, {"type": "node", "id": 10156887265, "lat": 42.440342, "lon": 19.2418734, "tags": {"addr:city": "Podgorica", "addr:housenumber": "13/3", "addr:postcode": "81000", "addr:street": "Bulevar knjaza Danila Petrovi\u0107a", "amenity": "restaurant", "name": "Cioccolatitaliani", "opening_hours": "Mo-Su 08:00-00:00"}}, {"type": "node", "id": 10158072317, "lat": 42.4466622, "lon": 19.2523397, "tags": {"amenity": "restaurant", "cuisine": "italian", "name:en": "Lazaro"}}, {"type": "node", "id": 10158072417, "lat": 42.44739, "lon": 19.2567204, "tags": {"amenity": "restaurant", "cuisine": "mexican", "name:en": "Marquez"}}, {"type": "node", "id": 10158072517, "lat": 42.4437991, "lon": 19.2476318, "tags": {"amenity": "restaurant", "name:en": "Mayka"}}, {"type": "node", "id": 10158072518, "lat": 42.4321596, "lon": 19.2581915, "tags": {"amenity": "restaurant", "name:en": "Hotel Union"}}, {"type": "node", "id": 10158087318, "lat": 42.4398196, "lon": 19.2362043, "tags": {"addr:housenumber": "15", "addr:street": "Studentska", "amenity": "cafe", "check_date:opening_hours": "2024-12-22", "name": "Macchiato", "name:en": "Macchiato", "opening_hours": "Mo-Su 08:00-24:00"}}, {"type": "node", "id": 10269658401, "lat": 42.4550042, "lon": 19.2635711, "tags": {"addr:housenumber": "7/1", "addr:street": "II Crnogorskog bataljona", "amenity": "cafe", "name": "Moloko", "opening_hours": "Mo-Su 07:00-24:00"}}, {"type": "node", "id": 10270980063, "lat": 42.4356931, "lon": 19.2636558, "tags": {"amenity": "cafe", "name": "Bilijar club Div", "sport": "billiards"}}, {"type": "node", "id": 10279614801, "lat": 42.4399703, "lon": 19.2433656, "tags": {"amenity": "restaurant", "check_date": "2023-10-31", "level": "0", "name": "Babi"}}, {"type": "node", "id": 10282147024, "lat": 42.4503307, "lon": 19.2363867, "tags": {"amenity": "cafe", "name": "Krem"}}, {"type": "node", "id": 10541982409, "lat": 42.4475551, "lon": 19.2572183, "tags": {"addr:housenumber": "1b", "addr:postcode": "81000", "addr:street": "Serdara Jola Pileti\u0107a", "amenity": "restaurant", "cuisine": "fine_dining;international", "email": "restoran.tresbien@gmail.com", "internet_access": "wlan", "name": "Tr\u00e8s Bien", "name:en": "Podgorica", "opening_hours": "Mo-Su 08:00-00:00", "phone": "+38269855855"}}, {"type": "node", "id": 10572386209, "lat": 42.4421647, "lon": 19.2475678, "tags": {"amenity": "cafe", "name:en": "Fabrika Coffee"}}, {"type": "node", "id": 10572400909, "lat": 42.4474522, "lon": 19.2571205, "tags": {"amenity": "cafe", "name:en": "La Parisienne"}}, {"type": "node", "id": 10586678107, "lat": 42.4421741, "lon": 19.2476597, "tags": {"addr:street": "Moskovska", "amenity": "cafe", "name:en": "Fabrika"}}, {"type": "node", "id": 10652683305, "lat": 42.4305906, "lon": 19.2725169, "tags": {"amenity": "cafe", "name:en": "Caffeine Coffee Shop C7"}}, {"type": "node", "id": 10691482620, "lat": 42.4420435, "lon": 19.2455901, "tags": {"addr:city": "Podgorica", "addr:housenumber": "59", "addr:street": "Rimski trg", "amenity": "restaurant", "cuisine": "chinese;japanese;korean;vietnamese;taiwanese;asian", "diet:vegetarian": "yes", "name": "Chi Le Ma", "opening_hours": "Mo-Su 11:30-23:30", "outdoor_seating": "yes"}}, {"type": "node", "id": 10699702448, "lat": 42.4215221, "lon": 19.225055, "tags": {"amenity": "restaurant", "name": "Restoran Gracija"}}, {"type": "node", "id": 10763724156, "lat": 42.4902287, "lon": 19.2302848}, {"type": "node", "id": 10763724157, "lat": 42.4901332, "lon": 19.2304136}, {"type": "node", "id": 10763724158, "lat": 42.4900489, "lon": 19.2302987}, {"type": "node", "id": 10763724159, "lat": 42.4901444, "lon": 19.23017}, {"type": "node", "id": 10765782555, "lat": 42.4802648, "lon": 19.1506547}, {"type": "node", "id": 10765782556, "lat": 42.4804011, "lon": 19.1507176}, {"type": "node", "id": 10765782557, "lat": 42.480368, "lon": 19.1507366}, {"type": "node", "id": 10797172643, "lat": 42.4401108, "lon": 19.2386774, "tags": {"addr:city": "Podgorica", "addr:street": "Vladike Visariona Borilovi\u0107a", "amenity": "cafe", "cuisine": "coffee_shop;dessert;ice_cream", "name": "Goddo", "name:cnr": "Goddo", "opening_hours": "Mo-Su 08:00-22:00", "outdoor_seating": "yes"}}, {"type": "node", "id": 10879730205, "lat": 42.4254396, "lon": 19.2598573, "tags": {"addr:housenumber": "105", "addr:postcode": "81000", "addr:street": "4. jula", "amenity": "cafe", "cuisine": "japanese", "name:en": "Sakura sushi", "name:ru": "\u0421\u0430\u043a\u0443\u0440\u0430 \u0441\u0443\u0448\u0438", "opening_hours": "Mo-Su 11:00-21:00", "phone": "+382 68 369 885", "website": "https://www.instagram.com/p/ClQ_GwPIbkS/?igshid=YzdkMWQ2MWU="}}, {"type": "node", "id": 10923780415, "lat": 42.4429164, "lon": 19.2503229, "tags": {"amenity": "cafe", "cuisine": "regional", "name": "Gurman"}}, {"type": "node", "id": 10936749556, "lat": 42.4433244, "lon": 19.2581379}, {"type": "node", "id": 10936749557, "lat": 42.4433217, "lon": 19.2581905}, {"type": "node", "id": 10936749558, "lat": 42.4433555, "lon": 19.2581407}, {"type": "node", "id": 10936749559, "lat": 42.4433528, "lon": 19.2581933}, {"type": "node", "id": 10940380395, "lat": 42.4396861, "lon": 19.2509398, "tags": {"amenity": "cafe", "name": "Caffeine Coffee Shop", "name:en": "Caffeine Coffee Shop C5"}}, {"type": "node", "id": 10958098253, "lat": 42.4421488, "lon": 19.2650789, "tags": {"addr:city": "Podgorica", "addr:housenumber": "61", "addr:postcode": "81000", "addr:street": "Hercegova\u010dka", "amenity": "cafe", "name": "\u041a\u0430\u0444\u0430\u043d\u0430", "name:en": "Kafana"}}, {"type": "node", "id": 10963661615, "lat": 42.4425281, "lon": 19.2621423, "tags": {"addr:city": "Podgorica", "addr:housenumber": "27", "addr:postcode": "81000", "addr:street": "Njego\u0161eva", "amenity": "restaurant", "cuisine": "regional", "name": "\u0414\u0443\u0445\u043e\u0432\u043d\u0438 \u0426\u0435\u043d\u0442\u0430\u0440", "name:de": "Spirituelles Zentrum", "name:en": "Spiritual centre", "opening_hours": "Mo-Sa 08:00-22:00", "phone": "+382 67243528"}}, {"type": "node", "id": 10976295906, "lat": 42.3641114, "lon": 19.2270266, "tags": {"amenity": "cafe", "name:en": "Linsa Cafe", "opening_hours": "Su-Sa 08:00-23:00", "phone": "+38267133030"}}, {"type": "node", "id": 11011762984, "lat": 42.4377724, "lon": 19.2382298, "tags": {"addr:housenumber": "11A", "addr:street": "Marka Radovi\u0107a", "amenity": "restaurant", "name": "Kod Zofa", "opening_hours": "Mo-Su 08:00-00:00"}}, {"type": "node", "id": 11011814007, "lat": 42.4386424, "lon": 19.2362478, "tags": {"addr:housenumber": "14", "addr:street": "Bulevar knjaza Danila Petrovi\u0107a", "amenity": "restaurant", "name": "Trastevere Restobar", "opening_hours": "Mo-Su 07:00-00:00"}}, {"type": "node", "id": 11014712790, "lat": 42.5113561, "lon": 19.3398267, "tags": {"amenity": "restaurant", "name": "Amnia"}}, {"type": "node", "id": 11015354792, "lat": 42.4374852, "lon": 19.2384351, "tags": {"addr:housenumber": "25", "addr:street": "Marka Radovi\u0107a", "amenity": "restaurant", "name": "Kristal Central", "opening_hours": "Mo-Su 08:00-24:00"}}, {"type": "node", "id": 11015392870, "lat": 42.4374368, "lon": 19.2384701, "tags": {"addr:housenumber": "27", "addr:street": "Marka Radovi\u0107a", "amenity": "restaurant", "name": "Zdrawi Kola\u010di", "opening_hours": "Mo-Sa 08:00-22:00"}}, {"type": "node", "id": 11016432451, "lat": 42.4394003, "lon": 19.2346462, "tags": {"addr:housenumber": "22", "addr:street": "Radoja Daki\u0107a", "amenity": "restaurant", "name": "Manufaktura"}}, {"type": "node", "id": 11016474949, "lat": 42.4392654, "lon": 19.2347435, "tags": {"addr:housenumber": "18", "addr:street": "Radoja Daki\u0107a", "air_conditioning": "no", "amenity": "restaurant", "check_date": "2024-04-12", "cuisine": "coffee_shop;pizza;regional;sandwich;burger;italian;chicken;french;cake;juice;pasta;crepe;bakery;breakfast;italian_pizza;local;salad", "diet:local": "yes", "diet:meat": "yes", "diet:non-vegetarian": "yes", "diet:vegetarian": "yes", "internet_access": "wlan", "internet_access:fee": "no", "internet_access:ssid": "La Parisienne", "name": "La Parisienne", "outdoor_seating": "yes", "payment:cash": "yes", "payment:credit_cards": "yes", "payment:debit_cards": "yes", "smoking": "outside", "takeaway": "yes", "toilets": "yes", "toilets:wheelchair": "no", "wheelchair": "limited"}}, {"type": "node", "id": 11021660640, "lat": 42.4493921, "lon": 19.2384454, "tags": {"addr:street": "\u0110oka Mira\u0161evi\u0107a", "amenity": "cafe", "name": "Minimo"}}, {"type": "node", "id": 11021676043, "lat": 42.4449673, "lon": 19.2372843, "tags": {"addr:housenumber": "19", "addr:street": "Baku", "amenity": "restaurant", "name": "Kensington", "opening_hours": "Mo-Su 07:30-00:00"}}, {"type": "node", "id": 11021685080, "lat": 42.4450695, "lon": 19.2373283, "tags": {"addr:housenumber": "16", "addr:street": "Baku", "amenity": "cafe", "name": "\u0160umica", "opening_hours": "Mo-Su 08:00-00:00"}}, {"type": "node", "id": 11049299432, "lat": 42.489468, "lon": 19.5305433, "tags": {"amenity": "cafe", "name": "Restoran Dubirog"}}, {"type": "node", "id": 11049481446, "lat": 42.4377709, "lon": 19.2389803, "tags": {"addr:housenumber": "53", "addr:street": "Marka Radovi\u0107a", "amenity": "restaurant", "name": "Ka\u0161ika", "opening_hours": "Mo-Su 08:00-00:00"}}, {"type": "node", "id": 11050790990, "lat": 42.4380699, "lon": 19.2374304, "tags": {"amenity": "restaurant", "bar": "yes", "cuisine": "barbecue", "level": "3", "name": "Walter", "opening_hours": "Mo-Su 09:00-23:00", "repeat_on": "2-3"}}, {"type": "node", "id": 11050805074, "lat": 42.4382059, "lon": 19.2327194, "tags": {"amenity": "cafe", "name": "Munchen Sport Pub", "opening_hours": "Mo-Sa 07:00-00:00"}}, {"type": "node", "id": 11054396903, "lat": 42.4437764, "lon": 19.251625, "tags": {"addr:city": "Podgorica", "addr:postcode": "81000", "addr:street": "Svetozara Markovi\u0107a", "amenity": "restaurant", "cuisine": "indian", "name": "Masala Art", "nohousenumber": "yes", "opening_hours": "Mo-Su 10:30-22:30", "outdoor_seating": "yes", "website": "https://masalaart.me"}}, {"type": "node", "id": 11057234771, "lat": 42.4894623, "lon": 19.5309035, "tags": {"amenity": "cafe", "cuisine": "local", "name": "Kafana Cikago"}}, {"type": "node", "id": 11061849606, "lat": 42.4405516, "lon": 19.2614511, "tags": {"amenity": "restaurant", "name:en": "Al Centro"}}, {"type": "node", "id": 11113797505, "lat": 42.7494083, "lon": 19.7032023, "tags": {"addr:housenumber": "31", "addr:street": "Gnjili Potok", "amenity": "cafe", "name": "Radmilica", "name:en": "Radmilica - Enjoy the View", "name:sr": "\u0420\u0430\u0434\u043c\u0438\u043b\u0438\u0446\u0430", "name:sr-Latn": "Radmilica", "opening_hours": "Mo-Su 08:30-20:00", "outdoor_seating": "yes", "phone": "+382 68 564456", "website": "http://radmilica.me"}}, {"type": "node", "id": 11114319842, "lat": 42.4421692, "lon": 19.2476306, "tags": {"addr:street": "Moskovska", "amenity": "cafe", "description": "cafe", "name": "Fabrika coffee"}}, {"type": "node", "id": 11137149305, "lat": 42.4452782, "lon": 19.2560472, "tags": {"amenity": "cafe", "name:en": "Cafe Mimosa"}}, {"type": "node", "id": 11137149405, "lat": 42.4457881, "lon": 19.2553238, "tags": {"amenity": "cafe", "cuisine": "pizza", "internet_access": "wlan", "name:en": "Pizzeria Langolo"}}, {"type": "node", "id": 11147267686, "lat": 42.3839708, "lon": 19.2792922}, {"type": "node", "id": 11174928957, "lat": 42.4398501, "lon": 19.2646402, "tags": {"amenity": "cafe", "name": "Mona Lisa"}}, {"type": "node", "id": 11174928958, "lat": 42.4416233, "lon": 19.2624854, "tags": {"amenity": "restaurant", "brand": "Hard Rock Cafe", "brand:wikidata": "Q918151", "cuisine": "american", "name": "Hard Rock Cafe"}}, {"type": "node", "id": 11196004146, "lat": 42.4496783, "lon": 19.2615979, "tags": {"amenity": "restaurant", "name:en": "The garden on Mora\u010da", "name:sr": "Ba\u0161ta na Mora\u010di"}}, {"type": "node", "id": 11201660867, "lat": 42.4400406, "lon": 19.2558405}, {"type": "node", "id": 11201660868, "lat": 42.4396977, "lon": 19.2556648}, {"type": "node", "id": 11281231178, "lat": 42.4396178, "lon": 19.2339267, "tags": {"addr:street": "Radoja Daki\u0107a", "amenity": "restaurant", "name": "Goodfellas", "opening_hours": "Mo-Su 09:00-24:00"}}, {"type": "node", "id": 11371104933, "lat": 42.4388791, "lon": 19.2337849, "tags": {"amenity": "restaurant", "name": "Sicilia"}}, {"type": "node", "id": 11371118246, "lat": 42.4382575, "lon": 19.2341455, "tags": {"addr:housenumber": "50", "amenity": "restaurant", "name": "Cascada", "opening_hours": "Mo-Su 07:00-00:00"}}, {"type": "node", "id": 11371127111, "lat": 42.4394746, "lon": 19.2333402, "tags": {"amenity": "cafe", "name": "Na\u0161 Cafe"}}, {"type": "node", "id": 11432098596, "lat": 42.4404364, "lon": 19.2421006, "tags": {"addr:housenumber": "13/1", "amenity": "cafe", "name": "Gloria Jean's", "opening_hours": "Mo-Su 08:00-00:00"}}, {"type": "node", "id": 11445836869, "lat": 42.4403866, "lon": 19.2420478, "tags": {"addr:housenumber": "13", "addr:postcode": "81000", "addr:street": "Zgrada Oaza, Sasa Capital, 13, 1 Cetinjski Put", "amenity": "cafe", "cuisine": "coffee_shop", "name:en": "Gloria Jean\u2019s Coffee Podgorica", "opening_hours": "Sa-Su 08:00-22:00; Mo-Fr 07:00-22:00"}}, {"type": "node", "id": 11445857069, "lat": 42.4436397, "lon": 19.2451282, "tags": {"amenity": "restaurant", "name:en": "Slatka Magija", "opening_hours": "Mo-Sa 08:00-00:00; Su 09:00-00:00", "website": "https://slatkamagija.com/"}}, {"type": "node", "id": 11513508665, "lat": 42.4510176, "lon": 19.237314, "tags": {"addr:city": "Podgorica", "addr:housenumber": "59", "addr:postcode": "81000", "addr:street": "\u0110oka Mira\u0161evi\u0107a", "amenity": "restaurant", "cuisine": "coffee_shop;pizza;regional", "name": "Baltazar Cafe", "opening_hours": "Mo-Sa 07:00-24:00"}}, {"type": "node", "id": 11716139784, "lat": 42.4371963, "lon": 19.4105871}, {"type": "node", "id": 11716139785, "lat": 42.4371033, "lon": 19.4106542}, {"type": "node", "id": 11716139786, "lat": 42.4370692, "lon": 19.4105673}, {"type": "node", "id": 11716139787, "lat": 42.4371622, "lon": 19.4105002}, {"type": "node", "id": 11775353869, "lat": 42.4211926, "lon": 19.2563716, "tags": {"amenity": "restaurant", "name": "Bar 61", "name:en": "Bar 61 restoraunt", "name:ru": "Bar 61 \u0440\u0435\u0441\u0442\u043e\u0440\u0430\u043d", "opening_hours": "Mo-Su 07:00-23:00"}}, {"type": "node", "id": 12022954734, "lat": 42.4332738, "lon": 19.2835678, "tags": {"amenity": "restaurant", "diet:halal": "yes", "name": "Palata"}}, {"type": "node", "id": 12192423416, "lat": 42.4408729, "lon": 19.2616295, "tags": {"addr:city": "Podgorica", "addr:housenumber": "16", "addr:street": "Njego\u0161eva ulica", "air_conditioning": "yes", "amenity": "restaurant", "baby_feeding": "no", "bar": "no", "changing_table": "no", "cuisine": "waffle;breakfast;dessert;salad", "internet_access": "wlan", "internet_access:fee": "no", "level": "0", "name": "Your Time", "opening_hours": "Mo-Su 09:00-20:00", "outdoor_seating": "yes", "phone": "+382 67 162 300", "takeaway": "yes", "toilets": "yes", "toilets:access": "customers", "toilets:wheelchair": "no", "website": "https://yourtime.me/", "wheelchair": "no"}}, {"type": "node", "id": 12234890435, "lat": 42.4403276, "lon": 19.2513184, "tags": {"addr:city": "Podgorica", "addr:housenumber": "1", "addr:street": "Ivana Vujo\u0161evi\u0107a", "amenity": "restaurant", "cuisine": "chinese;japanese", "name": "Chi Le Ma", "outdoor_seating": "yes", "takeaway": "yes"}}, {"type": "node", "id": 12287990971, "lat": 42.4414604, "lon": 19.2606196, "tags": {"addr:city": "Podgorica", "addr:postcode": "81000", "addr:street": "Vu\u010dedolska", "amenity": "restaurant", "cuisine": "sandwich;breakfast;coffee_shop;dumplings;soup", "internet_access": "wlan", "internet_access:fee": "no", "level": "0", "name": "Branch Cafe", "toilets:wheelchair": "no", "wheelchair": "no"}}, {"type": "node", "id": 12346428433, "lat": 42.4776739, "lon": 19.6873297, "tags": {"amenity": "cafe", "internet_access": "wlan", "name": "Bar Cafe Luli"}}, {"type": "node", "id": 12386832259, "lat": 42.3677084, "lon": 19.2467194, "tags": {"amenity": "cafe", "name": "Coffee cake bakery", "opening_hours": "Mo-Su 06:00-24:00"}}, {"type": "node", "id": 12551146348, "lat": 42.4413393, "lon": 19.2654814, "tags": {"air_conditioning": "yes", "amenity": "restaurant", "cuisine": "coffee_shop;breakfast;cake;pancake;russian", "internet_access": "wlan", "internet_access:fee": "no", "level": "0", "name": "SIP", "opening_hours": "Mo-Su 08:30-20:00", "outdoor_seating": "yes", "smoking": "no", "takeaway": "yes", "toilets": "yes", "toilets:access": "customers", "toilets:wheelchair": "no", "wheelchair": "no"}}, {"type": "node", "id": 12596417050, "lat": 42.4430483, "lon": 19.2619628, "tags": {"addr:city": "Podgorica", "addr:housenumber": "15", "addr:street": "Hercegova\u010dka", "air_conditioning": "yes", "amenity": "restaurant", "cuisine": "pizza;coffee_shop;italian", "diet:meat": "yes", "diet:vegan": "yes", "internet_access": "wlan", "name": "NOA Pizzeria & Caffe", "opening_hours": "Mo-Su 08:00-00:00", "outdoor_seating": "yes", "payment:cash": "yes", "payment:debit_cards": "yes", "phone": "+382 67 309 137"}}, {"type": "node", "id": 12652189593, "lat": 42.4410495, "lon": 19.2391452, "tags": {"amenity": "restaurant", "cuisine": "seafood", "delivery": "yes", "diet:vegetarian": "limited", "internet_access": "wlan", "internet_access:fee": "no", "name": "Malo Ribarsko selo", "opening_hours": "07:30-00:00", "payment:cards": "yes", "payment:cash": "yes", "payment:qr_code": "no", "phone": "+382 69 212 222", "reservation": "recommended", "service:electricity": "limited", "smoking": "yes", "takeaway": "yes"}}, {"type": "node", "id": 12833494586, "lat": 42.4931776, "lon": 19.3891163, "tags": {"amenity": "cafe"}}, {"type": "node", "id": 12833496621, "lat": 42.4928295, "lon": 19.3888023, "tags": {"amenity": "cafe"}}, {"type": "node", "id": 12852998987, "lat": 42.513397, "lon": 19.3441134, "tags": {"amenity": "restaurant", "name": "Restoran Mijovi\u010d"}}, {"type": "node", "id": 12853670311, "lat": 42.4351433, "lon": 19.2597502, "tags": {"amenity": "restaurant"}}, {"type": "node", "id": 12909652540, "lat": 42.4497572, "lon": 19.2359022, "tags": {"air_conditioning": "yes", "amenity": "cafe", "changing_table": "no", "cuisine": "asian", "delivery": "yes", "drive_through": "no", "highchair": "no", "name": "Koneko Asian Garden Cafe", "opening_hours": "Mo-Sa 11:00-22:00", "smoking": "no", "takeaway": "yes", "toilets": "yes", "website": "https://www.instagram.com/konekoasiancafe", "wheelchair": "limited"}}, {"type": "way", "id": 197250251, "nodes": [2075250499, 2075250497, 2075250498, 2075250500, 2075250499], "tags": {"amenity": "cafe", "building": "yes", "building:levels": "2", "cuisine": "coffee_shop", "internet_access": "wlan", "name": "And1"}}, {"type": "way", "id": 197250260, "nodes": [2075250607, 9598380553, 2075250615, 2075250627, 9598380559, 9598380557, 9598380554, 9598380555, 9598380556, 9598380558, 2075250618, 2075250607], "tags": {"addr:city": "Podgorica", "addr:housenumber": "24", "addr:postcode": "81000", "addr:street": "Dalmatinska", "amenity": "restaurant", "building": "yes", "name": "Vuk", "name:sr-Latn": "Vuk", "opening_hours": "Mo-Su 08:00-24:00", "phone": "+38268588888;+38267484373"}}, {"type": "way", "id": 206505347, "nodes": [2165142106, 2165142156, 2334284416, 2334284415, 2334284413, 2334284414, 2165142109, 11147267686, 2165142153, 2165142106], "tags": {"amenity": "restaurant", "building": "yes", "cuisine": "regional", "name": "Niagara"}}, {"type": "way", "id": 210212836, "nodes": [2203123298, 2203123300, 2203123301, 2203123299, 2203123298], "tags": {"amenity": "restaurant", "building": "residential", "name": "Restoran Stefan"}}, {"type": "way", "id": 210216239, "nodes": [2203152574, 2203152568, 2203152575, 2203152576, 2203152571, 2203152569, 2203152573, 2203152578, 2203152577, 2203152572, 2203152570, 2203152574], "tags": {"addr:city": "Podgorica", "addr:postcode": "81000", "addr:street": "Vasilija \u0110urovi\u0107a", "amenity": "cafe", "building": "yes", "check_date": "2023-05-29", "internet_access": "wlan", "internet_access:fee": "no", "name": "Bo\u0107ari", "outdoor_seating": "yes", "smoking": "outside"}}, {"type": "way", "id": 221106507, "nodes": [5179420921, 2301671890, 2301671889, 9876431349, 9876431353, 9876431350, 2301671883, 9876431354, 9876431355, 9876431351, 9876431348, 2301671879, 9876431352, 2301671880, 9876431356, 2301671885, 2301671884, 9876431357, 5179420921], "tags": {"addr:street": "13. jula", "amenity": "restaurant", "building": "yes", "cuisine": "balkan", "name:en": "Ba\u0161\u010dar\u0161ija", "opening_hours": "Mo-Su 07:00-23:00", "website": "https://foodbook.me/en/profile/bascarsija"}}, {"type": "way", "id": 336519678, "nodes": [3435556380, 3435556381, 3435556382, 3435556383, 1774641192, 3435556380], "tags": {"addr:city": "Podgorica", "addr:postcode": "81000", "addr:street": "Lamela", "amenity": "cafe", "building": "yes", "cuisine": "pizza", "internet_access": "wlan", "name": "Atelje", "outdoor_seating": "patio", "smoking": "yes"}}, {"type": "way", "id": 367429835, "nodes": [3713547655, 3713547656, 3713546822, 3713546820, 3713547655], "tags": {"addr:country": "AL", "amenity": "cafe", "building": "yes", "source": "bing;mapbox-satellite;survey;gps;knowledge;local-info", "source_ref:url": "https://www.flickr.com/photos/openstreetmap-albania"}}, {"type": "way", "id": 368609082, "nodes": [3724613000, 10765782555, 3724613001, 3724613002, 3724613003, 10765782556, 10765782557, 3724613000], "tags": {"addr:city": "Bandi\u0107i", "amenity": "restaurant", "building": "house", "capacity": "150", "cuisine": "regional", "name": "Konoba Bandi\u0107i", "smoking": "outside"}}, {"type": "way", "id": 425187626, "nodes": [4244921367, 4244921369, 4244921370, 4244921368, 4244921367], "tags": {"amenity": "restaurant", "building": "yes", "cuisine": "balkan", "name": "Konoba Me\u0111urije\u010dje"}}, {"type": "way", "id": 443226896, "nodes": [4408438171, 4408438172, 4408438173, 4408438174, 4408438175, 4408438176, 4408438177, 4408438178, 4408438171], "tags": {"addr:country": "AL", "amenity": "cafe", "building": "yes", "source": "bing;mapbox-satellite;survey;gps;knowledge;local-info", "source_ref:url": "https://www.flickr.com/photos/openstreetmap-albania"}}, {"type": "way", "id": 561119266, "nodes": [5411178011, 5411178009, 5411178005, 9464243899, 9464243895, 9464243896, 5411178007, 9464243898, 9464243897, 5411178010, 5411178011], "tags": {"addr:housenumber": "50", "addr:street": "Pljevaljska", "amenity": "restaurant", "building": "hotel", "name": "Tri Bora", "opening_hours": "Mo-Su 06:00-24:00", "tourism": "hotel"}}, {"type": "way", "id": 609905404, "nodes": [5776608899, 5776608898, 5776608897, 5776608896, 5776608895, 5776608828, 5776608894, 5776608893, 5776608810, 5776608892, 5776608891, 5776608448, 5776608890, 5776608889, 5776608888, 5776608887, 5776608886, 5776608885, 5776608884, 5776608883, 5776608882, 5776608881, 5776608880, 5776608879, 5776608835, 5776608899], "tags": {"amenity": "cafe", "barrier": "fence", "check_date": "2023-09-09", "delivery": "no", "fence_type": "wire", "internet_access": "wlan", "internet_access:fee": "no", "name": "Cafe & Camping \"Selca-Cem\"", "opening_hours": "24/7", "outdoor_seating": "yes", "payment:coins": "yes", "payment:notes": "yes", "smoking": "outside", "takeaway": "yes", "wheelchair": "limited"}}, {"type": "way", "id": 819172302, "nodes": [7650088955, 7650088956, 7650088957, 7650088958, 7650088955], "tags": {"addr:city": "Podgorica", "addr:housenumber": "18", "addr:postcode": "81000", "addr:street": "Bal\u0161i\u0107a", "amenity": "restaurant", "building": "yes", "check_date": "2023-06-05", "cuisine": "regional;balkan", "internet_access": "wlan", "internet_access:fee": "customers", "layer": "-1", "name": "Radov\u010de", "opening_hours": "Mo-Sa 08:00-23:00", "outdoor_seating": "yes", "payment:cash": "yes", "payment:credit_cards": "yes", "phone": "+352 20 231987", "smoking": "isolated", "takeaway": "yes", "wheelchair": "yes"}}, {"type": "way", "id": 980854619, "nodes": [9073265771, 9073265772, 9073265773, 9073265774, 9073265771], "tags": {"amenity": "cafe", "building": "yes", "name": "Buni i Bajraktarit"}}, {"type": "way", "id": 1030118518, "nodes": [9496033695, 9496033692, 9496033690, 9496033691, 9496033693, 9496033694, 9496033689, 9496033695], "tags": {"amenity": "restaurant", "building": "yes", "name": "Lovac"}}, {"type": "way", "id": 1030203523, "nodes": [9496718989, 9496718986, 9496718987, 9496718988, 9496718989], "tags": {"amenity": "cafe", "building": "yes", "name": "Cross Park Caffe", "outdoor_seating": "yes"}}, {"type": "way", "id": 1088867904, "nodes": [9975423730, 9975423731, 9975423732, 9975423733, 9975423734, 9975423735, 9975423730], "tags": {"amenity": "cafe", "building": "yes", "name": "Hotel Spa Kulla e Bajraktarit", "tourism": "hotel"}}, {"type": "way", "id": 1157424592, "nodes": [10763724159, 10763724156, 10763724157, 10763724158, 10763724159], "tags": {"amenity": "restaurant", "building": "yes", "name": "Restoran \u0110edovina"}}, {"type": "way", "id": 1177228163, "nodes": [10936749558, 10936749556, 10936749557, 10936749559, 10936749558], "tags": {"amenity": "cafe", "building": "yes", "int_name": "Na Moracu", "name": "Na Mora\u010du", "name:sr": "\u041d\u0430 \u041c\u043e\u0440\u0430\u0447\u0443"}}, {"type": "way", "id": 1208993315, "nodes": [2038235741, 2038235738, 11201660868, 11201660867, 2038235741], "tags": {"addr:street": "Milovana \u0110ilasa", "air_conditioning": "yes", "amenity": "restaurant", "bar": "yes", "building:part": "yes", "name": "21 MNE Urban Bistro", "opening_hours": "Mo-Sa 08:00-03:00", "payment:cash": "yes", "payment:credit_cards": "yes", "payment:debit_cards": "yes", "smoking": "separated", "takeaway": "yes", "toilets": "yes", "website": "https://www.instagram.com/21mneurbanbistro/"}}, {"type": "way", "id": 1260529859, "nodes": [11716139787, 11716139784, 11716139785, 11716139786, 11716139787], "tags": {"amenity": "restaurant", "building": "yes", "name": "Konoba Stara Pjesma"}}]}