{"version": 0.6, "generator": "Overpass API 0.7.62.7 375dc00a", "osm3s": {"timestamp_osm_base": "2025-06-14T14:58:44Z", "copyright": "The data included in this document is from www.openstreetmap.org. The data is made available under ODbL."}, "elements": [{"type": "node", "id": 481334082, "lat": 41.1743114, "lon": 29.6037947, "tags": {"amenity": "cafe"}}, {"type": "node", "id": 3494711179, "lat": 41.173594, "lon": 29.6065206, "tags": {"amenity": "cafe", "name": "Stella's", "wheelchair": "yes"}}, {"type": "node", "id": 3494713226, "lat": 41.1758865, "lon": 29.6099729}, {"type": "node", "id": 3494713227, "lat": 41.1758017, "lon": 29.6101928}, {"type": "node", "id": 3494713228, "lat": 41.1758602, "lon": 29.6102358}, {"type": "node", "id": 3494713229, "lat": 41.1759168, "lon": 29.6101043}, {"type": "node", "id": 3494713230, "lat": 41.1759612, "lon": 29.6101365}, {"type": "node", "id": 3494713231, "lat": 41.1759935, "lon": 29.6100426}, {"type": "node", "id": 3494930694, "lat": 41.1732344, "lon": 29.6079783, "tags": {"amenity": "restaurant"}}, {"type": "node", "id": 4159512380, "lat": 41.1763331, "lon": 29.617355}, {"type": "node", "id": 4159512381, "lat": 41.176382, "lon": 29.6175001}, {"type": "node", "id": 4159512382, "lat": 41.176276, "lon": 29.6175607}, {"type": "node", "id": 4159512383, "lat": 41.1762027, "lon": 29.6173788}, {"type": "node", "id": 4159512384, "lat": 41.1762597, "lon": 29.6172337}, {"type": "node", "id": 4159512385, "lat": 41.1763429, "lon": 29.6172532}, {"type": "node", "id": 4159512386, "lat": 41.176589, "lon": 29.6173745}, {"type": "node", "id": 4159512387, "lat": 41.1764782, "lon": 29.6174459}, {"type": "node", "id": 4159512388, "lat": 41.1764162, "lon": 29.617303}, {"type": "node", "id": 4159512389, "lat": 41.1764798, "lon": 29.6172012}, {"type": "node", "id": 4258274790, "lat": 41.1461244, "lon": 29.6566647, "tags": {"amenity": "restaurant", "name": "Akaya "}}, {"type": "node", "id": 4397187592, "lat": 41.1765877, "lon": 29.6103106, "tags": {"amenity": "restaurant", "cuisine": "fish;local"}}, {"type": "node", "id": 4397231390, "lat": 41.1768004, "lon": 29.6104562, "tags": {"amenity": "restaurant", "cuisine": "local", "name": "Cadde", "name:tr": "Cadde"}}, {"type": "node", "id": 4397231593, "lat": 41.176867, "lon": 29.6105086, "tags": {"amenity": "restaurant", "cuisine": "local", "name": "Marina", "name:tr": "Marina"}}, {"type": "node", "id": 4397256589, "lat": 41.1762544, "lon": 29.6102594, "tags": {"amenity": "restaurant", "cuisine": "local"}}, {"type": "node", "id": 4397257589, "lat": 41.1766819, "lon": 29.6103883, "tags": {"amenity": "restaurant", "cuisine": "local;fish", "name": "DEN\u0130Z", "name:tr": "DEN\u0130Z"}}, {"type": "node", "id": 4545405762, "lat": 41.1938354, "lon": 29.4381399}, {"type": "node", "id": 4545405763, "lat": 41.1937022, "lon": 29.4381037}, {"type": "node", "id": 4545405764, "lat": 41.193676, "lon": 29.4382552}, {"type": "node", "id": 4545405765, "lat": 41.1938011, "lon": 29.4383169}, {"type": "node", "id": 4546563579, "lat": 41.1933632, "lon": 29.4397865, "tags": {"amenity": "restaurant"}}, {"type": "node", "id": 4997296222, "lat": 41.190481, "lon": 29.2317103, "tags": {"amenity": "restaurant", "cuisine": "turkish", "name": "Dus bahcesi", "name:tr": "Dus bahcesi"}}, {"type": "node", "id": 6680018088, "lat": 41.1605873, "lon": 29.5903498, "tags": {"addr:street": "\u00dcsk\u00fcdar Caddesi", "amenity": "restaurant", "name": "Umut Kebap"}}, {"type": "node", "id": 6974293301, "lat": 41.1753335, "lon": 29.6238611, "tags": {"addr:city": "istanbul", "addr:district": "\u015file", "addr:housenumber": "17", "addr:neighbourhood": "A\u011flayan kaya beach", "addr:postcode": "34980", "amenity": "cafe", "bar": "yes", "capacity": "400", "cuisine": "burger", "description": "A\u011flayan Kaya Beach,kafe \u015eile A\u011flayankaya Plaj\u0131nda 20 y\u0131l\u0131 a\u015fk\u0131n bir s\u00fcredir hizmet vermektedir. \u015fezlon\u011f \u015femsiye du\u015f kabin tek fiyat d\u0131r ", "email": "aglayankayabeach1@gmail.com", "internet_access": "yes", "internet_access:fee": "yes", "name": "A\u011flayan kaya beach", "opening_hours": "00/7", "outdoor_seating": "yes", "phone": "+905367839689", "smoking": "dedicated", "source": "aerial imagery;gps;streetlevel imagery", "website": "https://www.instagram.com/aglayankayabeach_/"}}, {"type": "node", "id": 8543387708, "lat": 41.1707987, "lon": 29.5180944}, {"type": "node", "id": 8543387709, "lat": 41.170641, "lon": 29.5181468}, {"type": "node", "id": 8543387710, "lat": 41.1706665, "lon": 29.5182515}, {"type": "node", "id": 8543387711, "lat": 41.1708172, "lon": 29.5182207}, {"type": "node", "id": 8543387712, "lat": 41.169779, "lon": 29.5204376, "tags": {"addr:neighbourhood": "K\u0131z\u0131lca", "addr:postcode": "34980", "amenity": "restaurant", "contact:instagram": "https://www.instagram.com/kocakusmesire/", "contact:mobile": "+90 538 559 09 49", "cuisine": "turkish", "name": "Kocaku\u015f Mesire"}}, {"type": "node", "id": 8543447582, "lat": 41.1675292, "lon": 29.5412165, "tags": {"amenity": "cafe", "name": "Petronet Cafe / Plaj mazemeleri"}}, {"type": "node", "id": 9254010159, "lat": 41.1685619, "lon": 29.5652279}, {"type": "node", "id": 9269571058, "lat": 41.1678178, "lon": 29.5653937}, {"type": "node", "id": 9269571165, "lat": 41.1682862, "lon": 29.5631723}, {"type": "node", "id": 9269571166, "lat": 41.1682821, "lon": 29.563301}, {"type": "node", "id": 9269571167, "lat": 41.1682074, "lon": 29.5632983}, {"type": "node", "id": 9269571202, "lat": 41.1686226, "lon": 29.5650673}, {"type": "node", "id": 9269571203, "lat": 41.1685354, "lon": 29.5652004}, {"type": "node", "id": 9269571204, "lat": 41.1687053, "lon": 29.5653955}, {"type": "node", "id": 9269571205, "lat": 41.1687886, "lon": 29.5652655}, {"type": "node", "id": 9269571226, "lat": 41.1682488, "lon": 29.5631629}, {"type": "node", "id": 9269571227, "lat": 41.1682441, "lon": 29.563072}, {"type": "node", "id": 9269571228, "lat": 41.1681693, "lon": 29.5630797}, {"type": "node", "id": 9269571229, "lat": 41.1681769, "lon": 29.5632075}, {"type": "node", "id": 9269571230, "lat": 41.1682012, "lon": 29.5632052}, {"type": "node", "id": 9269571343, "lat": 41.1678, "lon": 29.5653578}, {"type": "node", "id": 9269571344, "lat": 41.1677692, "lon": 29.5653897}, {"type": "node", "id": 9269571345, "lat": 41.1678036, "lon": 29.5654436}, {"type": "node", "id": 9269571346, "lat": 41.1678345, "lon": 29.5654136}, {"type": "node", "id": 9269587436, "lat": 41.1682045, "lon": 29.5632545}, {"type": "node", "id": 9269587481, "lat": 41.168444, "lon": 29.5659584, "tags": {"amenity": "restaurant", "name": "By Bado"}}, {"type": "node", "id": 9269587482, "lat": 41.1682823, "lon": 29.5664908, "tags": {"amenity": "cafe"}}, {"type": "node", "id": 9269587485, "lat": 41.1686751, "lon": 29.5661674, "tags": {"amenity": "restaurant"}}, {"type": "node", "id": 9269587486, "lat": 41.1686338, "lon": 29.566116, "tags": {"amenity": "restaurant"}}, {"type": "node", "id": 9290980315, "lat": 41.1685532, "lon": 29.5651733}, {"type": "node", "id": 9642611817, "lat": 41.1730729, "lon": 29.5674497, "tags": {"amenity": "restaurant", "cuisine": "local", "name": "Rokethane"}}, {"type": "node", "id": 9992033517, "lat": 41.2251765, "lon": 29.2231484, "tags": {"amenity": "restaurant", "cuisine": "regional;turkish", "name": "Aisa Caf\u00e9 Restaurant"}}, {"type": "node", "id": 10012924553, "lat": 41.1639034, "lon": 29.5925666, "tags": {"amenity": "restaurant", "cuisine": "turkish"}}, {"type": "node", "id": 10132320239, "lat": 41.1762992, "lon": 29.4914815, "tags": {"amenity": "restaurant", "cuisine": "regional", "name": "Sofular K\u00f6ftecisi", "website": "https://www.instagram.com/sofularkoftecisi/?hl=en"}}, {"type": "node", "id": 11917007025, "lat": 41.1717588, "lon": 29.6035543, "tags": {"amenity": "cafe", "name": "\u00dctopya"}}, {"type": "node", "id": 11917139085, "lat": 41.1706692, "lon": 29.6324403, "tags": {"amenity": "restaurant", "cuisine": "balkan", "name": "Balkan kefana"}}, {"type": "node", "id": 11919723190, "lat": 41.1734509, "lon": 29.6281875, "tags": {"amenity": "restaurant", "name": "Sile balik\u00e7isi"}}, {"type": "node", "id": 11919749312, "lat": 41.1814138, "lon": 29.6069851, "tags": {"amenity": "restaurant"}}, {"type": "node", "id": 11919772980, "lat": 41.1781849, "lon": 29.6169927, "tags": {"amenity": "cafe"}}, {"type": "node", "id": 12144433698, "lat": 41.176112, "lon": 29.6099279, "tags": {"amenity": "cafe", "name": "Vanilya", "website": "https://qr-menu.simprasuite.com/vanilya-sile-2/2"}}, {"type": "node", "id": 12207077573, "lat": 41.168152, "lon": 29.584873}, {"type": "node", "id": 12207077574, "lat": 41.1681075, "lon": 29.5849802}, {"type": "node", "id": 12207077575, "lat": 41.168015, "lon": 29.584902}, {"type": "node", "id": 12207077576, "lat": 41.1680654, "lon": 29.5847959}, {"type": "node", "id": 12214352103, "lat": 41.1674348, "lon": 29.5759918}, {"type": "node", "id": 12214352104, "lat": 41.1672875, "lon": 29.5762829}, {"type": "node", "id": 12214352105, "lat": 41.1672075, "lon": 29.5762043}, {"type": "node", "id": 12214352106, "lat": 41.1672515, "lon": 29.5761381}, {"type": "node", "id": 12214352107, "lat": 41.1672353, "lon": 29.5761181}, {"type": "node", "id": 12214352108, "lat": 41.1673663, "lon": 29.5759609}, {"type": "node", "id": 12645938589, "lat": 41.1797305, "lon": 29.6129881, "tags": {"addr:city": "\u0130stanbul", "addr:district": "\u015eile", "addr:housenumber": "No:3", "addr:neighbourhood": "Balibey Mahallesi", "addr:postcode": "34980", "addr:street": "Fener Caddesi", "amenity": "restaurant", "cuisine": "kebab;barbecue;coffee_shop;chicken", "diet:halal": "yes", "diet:healthy": "yes", "diet:organic": "yes", "internet_access": "yes", "name": "Amara \u015eile Ocakba\u015f\u0131 Restoran", "opening_hours": "09:00-02:00", "outdoor_seating": "yes", "phone": "02167114236", "reservation": "yes", "website": "https://amarasile.com"}}, {"type": "node", "id": 12750032727, "lat": 41.1711682, "lon": 29.6145384, "tags": {"amenity": "restaurant", "diet:halal": "only", "drink:beer": "no", "name": "\u00c7aml\u0131k Mercan K\u00f6\u015fk Sosyal Tesisi", "wheelchair": "yes"}}, {"type": "way", "id": 414813770, "nodes": [4159512380, 4159512381, 4159512382, 4159512383, 4159512384, 4159512385, 4159512380], "tags": {"amenity": "restaurant", "building": "yes"}}, {"type": "way", "id": 414813771, "nodes": [4159512386, 4159512387, 4159512388, 4159512389, 4159512386], "tags": {"amenity": "cafe", "building": "yes"}}, {"type": "way", "id": 458556409, "nodes": [4545405762, 4545405763, 4545405764, 4545405765, 4545405762], "tags": {"addr:housenumber": "7/9", "amenity": "cafe", "building": "yes", "name": "K\u0131raathane"}}, {"type": "way", "id": 920025914, "nodes": [8543387708, 8543387709, 8543387710, 8543387711, 8543387708], "tags": {"addr:postcode": "34983", "amenity": "restaurant", "building": "yes", "cuisine": "turkish", "name": "Polonez Park \u015eile"}}, {"type": "way", "id": 1004670927, "nodes": [9269571202, 9290980315, 9269571203, 9254010159, 9269571204, 9269571205, 9269571202], "tags": {"amenity": "cafe", "brand": "Kahve D\u00fcnyas\u0131", "brand:wikidata": "Q28008050", "building": "yes", "cuisine": "coffee_shop", "internet_access": "wlan", "internet_access:fee": "no", "name": "Kahve D\u00fcnyas\u0131", "outdoor_seating": "yes", "takeaway": "yes"}}, {"type": "way", "id": 1004670934, "nodes": [9269571165, 9269571226, 9269571227, 9269571228, 9269571229, 9269571230, 9269587436, 9269571167, 9269571166, 9269571165], "tags": {"amenity": "cafe", "building": "yes", "name": "Lavazza"}}, {"type": "way", "id": 1004670958, "nodes": [9269571343, 9269571344, 9269571345, 9269571346, 9269571058, 9269571343], "tags": {"amenity": "restaurant", "building": "yes", "cuisine": "noodle;rice", "name": "Pilavc\u0131"}}, {"type": "way", "id": 1319014340, "nodes": [12207077573, 12207077574, 12207077575, 12207077576, 12207077573], "tags": {"amenity": "cafe", "building": "yes"}}, {"type": "way", "id": 1319896749, "nodes": [12214352103, 12214352104, 12214352105, 12214352106, 12214352107, 12214352108, 12214352103], "tags": {"amenity": "restaurant", "building": "yes"}}, {"type": "way", "id": 1361785480, "nodes": [3494713231, 3494713230, 3494713229, 3494713228, 3494713227, 3494713226, 3494713231], "tags": {"addr:city": "\u0130stanbul", "addr:district": "\u015eile", "addr:housenumber": "71", "addr:neighbourhood": "Hac\u0131kas\u0131m Mahallesi", "addr:postcode": "34980", "addr:street": "\u00dcsk\u00fcdar Caddesi", "amenity": "cafe", "building": "yes", "cuisine": "turkish;i\u0307rmik_helvas\u0131", "internet_access": "yes", "internet_access:fee": "no", "layer": "-1", "name": "Helvac\u0131 Ali \u015eile", "opening_hours": "11:00-23:00", "outdoor_seating": "yes", "phone": "+905071226836", "website": "https://www.helvaciali.com/"}}]}