{"version": 0.6, "generator": "Overpass API 0.7.62.7 375dc00a", "osm3s": {"timestamp_osm_base": "2025-06-14T14:47:30Z", "copyright": "The data included in this document is from www.openstreetmap.org. The data is made available under ODbL."}, "elements": [{"type": "node", "id": 764925864, "lat": 40.4975803, "lon": 25.5831036, "tags": {"amenity": "cafe", "name": "Palakidi"}}, {"type": "node", "id": 764925865, "lat": 40.4978013, "lon": 25.5832407, "tags": {"amenity": "restaurant", "name": "Mezedopolio"}}, {"type": "node", "id": 764948074, "lat": 40.5080046, "lon": 25.5551634, "tags": {"amenity": "restaurant", "cuisine": "greek", "name": "\u0392\u03b1\u03c3\u03b9\u03bb\u03b9\u03ba\u03cc\u03c2", "name:el": "\u0392\u03b1\u03c3\u03b9\u03bb\u03b9\u03ba\u03cc\u03c2", "name:en": "Vasilikos"}}, {"type": "node", "id": 765088727, "lat": 40.4936507, "lon": 25.4945293, "tags": {"amenity": "cafe", "name": "Jazzy Blue Bar & Caf\u00e9"}}, {"type": "node", "id": 1724471496, "lat": 40.4670541, "lon": 25.527602, "tags": {"amenity": "restaurant", "name": "\u03a3\u03c9\u03c4\u03ae\u03c1\u03b1", "name:el": "\u03a3\u03c9\u03c4\u03ae\u03c1\u03b1", "operational_status": "closed"}}, {"type": "node", "id": 1724471502, "lat": 40.4741804, "lon": 25.5247052, "tags": {"amenity": "cafe", "name": "\u039b\u03b5\u03c5\u03ba\u03cc\u03c2 \u03a0\u03cd\u03c1\u03b3\u03bf\u03c2", "name:el": "\u039b\u03b5\u03c5\u03ba\u03cc\u03c2 \u03a0\u03cd\u03c1\u03b3\u03bf\u03c2", "name:en": "Leukos Pyrgos"}}, {"type": "node", "id": 1724473207, "lat": 40.4756513, "lon": 25.5261889, "tags": {"amenity": "cafe", "contact:facebook": "https://www.facebook.com/kafe.o.pirgos/", "contact:instagram": "https://www.instagram.com/cafe.o.pirgos/", "name": "\u039f \u03a0\u03cd\u03c1\u03b3\u03bf\u03c2", "name:el": "\u039f \u03a0\u03cd\u03c1\u03b3\u03bf\u03c2", "name:en": "O Pyrgos"}}, {"type": "node", "id": 1770677006, "lat": 40.8743557, "lon": 25.5098486, "tags": {"amenity": "restaurant", "cuisine": "greek;fish", "name": "Stratos"}}, {"type": "node", "id": 1770677008, "lat": 40.9073709, "lon": 25.5201679, "tags": {"amenity": "restaurant", "name": "Lola", "name:el": "\u039b\u03cc\u03bb\u03b1"}}, {"type": "node", "id": 1774427452, "lat": 40.8870282, "lon": 25.4849507, "tags": {"amenity": "restaurant", "cuisine": "greek", "internet_access": "no", "name": "\u03a5\u03b4\u03c1\u03af\u03b1", "outdoor_seating": "yes", "smoking": "outside", "wheelchair": "yes"}}, {"type": "node", "id": 1880460328, "lat": 40.9034642, "lon": 25.5176248, "tags": {"amenity": "restaurant", "name": "Stratos", "name:el": "\u03a3\u03c4\u03c1\u03ac\u03c4\u03bf\u03c2"}}, {"type": "node", "id": 1887828657, "lat": 40.9072442, "lon": 25.5194259, "tags": {"amenity": "restaurant", "name": "Moschos", "name:el": "\u039c\u03cc\u03c3\u03c7\u03bf\u03c2"}}, {"type": "node", "id": 2442415363, "lat": 40.9077874, "lon": 25.519847, "tags": {"amenity": "restaurant", "cuisine": "pizza", "name": "Maron", "name:el": "\u039c\u03ac\u03c1\u03c9\u03bd"}}, {"type": "node", "id": 2442428223, "lat": 40.9018581, "lon": 25.4323539, "tags": {"amenity": "restaurant", "name": "\u0398\u03ad\u03b1", "name:el": "\u0398\u03ad\u03b1", "name:en": "Thea"}}, {"type": "node", "id": 2470055403, "lat": 40.9140937, "lon": 25.3763783, "tags": {"amenity": "cafe"}}, {"type": "node", "id": 3287666122, "lat": 40.5002094, "lon": 25.5129024}, {"type": "node", "id": 3287666125, "lat": 40.5002614, "lon": 25.5128686}, {"type": "node", "id": 3287666126, "lat": 40.5002711, "lon": 25.5130664}, {"type": "node", "id": 3287666130, "lat": 40.5003231, "lon": 25.5130326}, {"type": "node", "id": 3443773702, "lat": 40.4749557, "lon": 25.4735746}, {"type": "node", "id": 3443773708, "lat": 40.4750009, "lon": 25.4733681}, {"type": "node", "id": 3443773717, "lat": 40.4750897, "lon": 25.4736253}, {"type": "node", "id": 3443773723, "lat": 40.4751349, "lon": 25.4734189}, {"type": "node", "id": 3736293631, "lat": 40.4745246, "lon": 25.5245869, "tags": {"amenity": "restaurant"}}, {"type": "node", "id": 3758163689, "lat": 40.474336, "lon": 25.5250349, "tags": {"amenity": "cafe", "name": "\u03a4\u03c1\u03ac\u03c0\u03b5\u03b6\u03b1", "name:el": "\u03a4\u03c1\u03ac\u03c0\u03b5\u03b6\u03b1", "outdoor_seating": "yes"}}, {"type": "node", "id": 4359376289, "lat": 40.5088568, "lon": 25.5704302, "tags": {"addr:street": "\u039a\u03b1\u03bc\u03b1\u03c1\u03b9\u03ce\u03c4\u03b9\u03c3\u03c3\u03b1 - \u0398\u03ad\u03c1\u03bc\u03b1", "amenity": "restaurant", "cuisine": "greek", "internet_access": "wlan", "name": "\u03b1\u03c3\u03c0\u03c1\u03bf\u03b2\u03b1\u03bb\u03c4\u03b1", "name:el": "\u03b1\u03c3\u03c0\u03c1\u03bf\u03b2\u03b1\u03bb\u03c4\u03b1", "name:it": "asproval\u03c4a"}}, {"type": "node", "id": 5659484700, "lat": 40.9084556, "lon": 25.4342179}, {"type": "node", "id": 5659484701, "lat": 40.9083238, "lon": 25.4341132}, {"type": "node", "id": 5659484702, "lat": 40.9083782, "lon": 25.4339933}, {"type": "node", "id": 5659484703, "lat": 40.9085099, "lon": 25.4340979}, {"type": "node", "id": 5784807653, "lat": 40.8674314, "lon": 25.6033019, "tags": {"amenity": "cafe", "name:en": "Beachbar"}}, {"type": "node", "id": 5936957091, "lat": 40.8879311, "lon": 25.4842307}, {"type": "node", "id": 5936957092, "lat": 40.8880567, "lon": 25.4844302}, {"type": "node", "id": 5936957093, "lat": 40.8881603, "lon": 25.4843161}, {"type": "node", "id": 5936957094, "lat": 40.8880347, "lon": 25.4841165}, {"type": "node", "id": 6612910394, "lat": 40.9068997, "lon": 25.5193556, "tags": {"amenity": "cafe", "name": "Avli", "name:el": "\u0391\u03c5\u03bb\u03ae"}}, {"type": "node", "id": 6715298460, "lat": 40.4764155, "lon": 25.4730533, "tags": {"amenity": "cafe", "name": "Scholeio", "name:el": "\u03a3\u03c7\u03bf\u03bb\u03b5\u03af\u03bf"}}, {"type": "node", "id": 6715298461, "lat": 40.4763404, "lon": 25.4730362, "tags": {"amenity": "cafe", "name": "\u03a4\u03bf\u03c4\u03b5\u03bc", "name:el": "\u03a4\u03bf\u03c4\u03b5\u03bc"}}, {"type": "node", "id": 6732770837, "lat": 40.4731148, "lon": 25.4710226, "tags": {"amenity": "restaurant", "name": "\u03a7\u03b1\u03c1\u03ac\u03bd\u03b1", "name:el": "\u03a7\u03b1\u03c1\u03ac\u03bd\u03b1"}}, {"type": "node", "id": 7846574369, "lat": 40.8767809, "lon": 25.5100763, "tags": {"amenity": "restaurant", "cuisine": "greek;fish", "name": "Gianna-Roula"}}, {"type": "node", "id": 8997543561, "lat": 40.9083363, "lon": 25.4341656}, {"type": "node", "id": 8997543562, "lat": 40.9083743, "lon": 25.4342052}, {"type": "node", "id": 8997543563, "lat": 40.9083946, "lon": 25.4341711}, {"type": "node", "id": 9041603317, "lat": 40.4742409, "lon": 25.5254468, "tags": {"amenity": "restaurant", "cuisine": "greek", "name": "\u03a4\u03b1\u03b2\u03ad\u03c1\u03bd\u03b1 \u039f\u03c5\u03b6\u03b5\u03c1\u03af 1900", "name:el": "\u03a4\u03b1\u03b2\u03ad\u03c1\u03bd\u03b1 \u039f\u03c5\u03b6\u03b5\u03c1\u03af 1900"}}, {"type": "node", "id": 10056606517, "lat": 40.474326, "lon": 25.5259966, "tags": {"amenity": "cafe", "cuisine": "greek", "internet_access": "wlan", "name": "Meltemi", "outdoor_seating": "yes"}}, {"type": "node", "id": 10969669270, "lat": 40.9074199, "lon": 25.5202266}, {"type": "node", "id": 10969669271, "lat": 40.9074022, "lon": 25.5201029}, {"type": "node", "id": 10969669272, "lat": 40.9073035, "lon": 25.5201276}, {"type": "node", "id": 10969669273, "lat": 40.9073213, "lon": 25.5202514}, {"type": "node", "id": 11159053569, "lat": 40.4750601, "lon": 25.4721162, "tags": {"amenity": "restaurant", "cuisine": "greek", "name": "\u039f \u03a3\u03c0\u03cd\u03c1\u03bf\u03c2", "name:el": "\u039f \u03a3\u03c0\u03cd\u03c1\u03bf\u03c2"}}, {"type": "node", "id": 11208683404, "lat": 40.4741098, "lon": 25.5259102, "tags": {"amenity": "restaurant", "contact:facebook": "https://www.facebook.com/profile.php?id=100063493932692", "cuisine": "greek", "name": "\u039a\u03b5\u03c3\u03bc\u03ad\u03c2", "name:el": "\u039a\u03b5\u03c3\u03bc\u03ad\u03c2"}}, {"type": "node", "id": 11208683405, "lat": 40.4741386, "lon": 25.5257394, "tags": {"amenity": "cafe", "cuisine": "greek", "name": "To Kalnterimi", "outdoor_seating": "yes"}}, {"type": "node", "id": 11208683423, "lat": 40.4747876, "lon": 25.525008, "tags": {"amenity": "restaurant", "internet_access": "wlan", "name": "Cafe 1967"}}, {"type": "node", "id": 11208683431, "lat": 40.4742194, "lon": 25.5251288, "tags": {"amenity": "restaurant", "cuisine": "greek"}}, {"type": "node", "id": 11208683436, "lat": 40.4738551, "lon": 25.5243497, "tags": {"amenity": "restaurant", "cuisine": "greek", "name": "To Stenaki"}}, {"type": "node", "id": 11208683437, "lat": 40.4738956, "lon": 25.5245336, "tags": {"amenity": "cafe"}}, {"type": "node", "id": 11208685346, "lat": 40.4745009, "lon": 25.5262691, "tags": {"amenity": "restaurant", "cuisine": "greek", "name": "\u0397 \u0391\u03c1\u03ad\u03c4\u03c3\u03b1", "name:el": "\u0397 \u0391\u03c1\u03ad\u03c4\u03c3\u03b1"}}, {"type": "way", "id": 322000324, "nodes": [3287666125, 3287666130, 3287666126, 3287666122, 3287666125], "tags": {"addr:street": "\u039a\u03b1\u03bc\u03b1\u03c1\u03b9\u03ce\u03c4\u03b9\u03c3\u03c3\u03b1 - \u0398\u03ad\u03c1\u03bc\u03b1", "amenity": "restaurant", "building": "yes", "cuisine": "greek", "internet_access": "wlan", "internet_access:fee": "no", "name": "K\u03cd\u03bc\u03b1\u03c4\u03b1", "name:el": "K\u03cd\u03bc\u03b1\u03c4\u03b1", "name:en": "Kymata", "outdoor_seating": "yes", "smoking": "outside"}}, {"type": "way", "id": 337266464, "nodes": [3443773723, 3443773717, 3443773702, 3443773708, 3443773723], "tags": {"amenity": "restaurant", "building": "yes", "cuisine": "greek", "name": "\u03a3\u03c4\u03b1 \u039a\u03b1\u03bb\u03ac \u039a\u03b1\u03b8\u03bf\u03cd\u03bc\u03b5\u03bd\u03b1", "name:el": "\u03a3\u03c4\u03b1 \u039a\u03b1\u03bb\u03ac \u039a\u03b1\u03b8\u03bf\u03cd\u03bc\u03b5\u03bd\u03b1", "name:en": "Sta Kala Kathoumena", "outdoor_seating": "yes"}}, {"type": "way", "id": 593168252, "nodes": [5659484703, 5659484700, 8997543563, 8997543562, 8997543561, 5659484701, 5659484702, 5659484703], "tags": {"amenity": "restaurant", "building": "yes", "building:levels": "1", "cuisine": "pizza;breakfast", "diet:local": "yes", "opening_hours": "24/7", "phone": "+306944275629"}}, {"type": "way", "id": 628817420, "nodes": [5936957094, 5936957093, 5936957092, 5936957091, 5936957094], "tags": {"amenity": "restaurant", "building": "yes", "cuisine": "Greek - fish", "name": "\u0393\u03b5\u03c1\u03ac\u03c3\u03b9\u03bc\u03bf\u03c2", "name:el": "\u0393\u03b5\u03c1\u03ac\u03c3\u03b9\u03bc\u03bf\u03c2", "name:en": "Gerasimos"}}, {"type": "way", "id": 1181195805, "nodes": [10969669270, 10969669271, 10969669272, 10969669273, 10969669270], "tags": {"amenity": "restaurant", "building": "yes", "cuisine": "greek"}}]}