{"version": 0.6, "generator": "Overpass API 0.7.62.7 375dc00a", "osm3s": {"timestamp_osm_base": "2025-06-14T13:54:29Z", "copyright": "The data included in this document is from www.openstreetmap.org. The data is made available under ODbL."}, "elements": [{"type": "node", "id": 1966454994, "lat": 32.3737821, "lon": 15.0891393, "tags": {"addr:street": "\u0634\u0627\u0631\u0639 \u0631\u0645\u0636\u0627\u0646 \u0627\u0644\u0633\u0648\u064a\u062d\u0644\u064a", "amenity": "restaurant", "cuisine": "arab;burger;chicken;kebab;lebanese;sandwich", "name": "\u0623\u0647\u0644\u0627 \u0648\u0633\u0647\u0644\u0627", "name:ar": "\u0623\u0647\u0644\u0627 \u0648\u0633\u0647\u0644\u0627", "name:en": "Ahlan Wa Sahlan Restaurant", "opening_hours": "Sa-Th 09:00-22:00"}}, {"type": "node", "id": 1966455309, "lat": 32.3733978, "lon": 15.0884573, "tags": {"amenity": "cafe"}}, {"type": "node", "id": 1966455419, "lat": 32.373556, "lon": 15.0898326, "tags": {"amenity": "restaurant"}}, {"type": "node", "id": 2591529734, "lat": 32.3319295, "lon": 15.1203346, "tags": {"amenity": "cafe"}}, {"type": "node", "id": 2710150980, "lat": 32.3719231, "lon": 15.0958041, "tags": {"amenity": "cafe", "name": "\u0645\u0642\u0647\u0649 \u0627\u0644\u062f\u064a\u0648\u0627\u0646\u064a\u0629", "name:ar": "\u0645\u0642\u0647\u0649 \u0627\u0644\u062f\u064a\u0648\u0627\u0646\u064a\u0629", "name:en": "Dewaniya Cafe"}}, {"type": "node", "id": 2710620157, "lat": 32.3740042, "lon": 15.0913231, "tags": {"amenity": "cafe"}}, {"type": "node", "id": 2710720027, "lat": 32.383703, "lon": 14.9856067, "tags": {"amenity": "restaurant"}}, {"type": "node", "id": 2735411909, "lat": 32.3320625, "lon": 14.9339542, "tags": {"amenity": "cafe", "name": "\u062f\u0627\u0631 \u0627\u0644\u0635\u0639\u064a\u062f\u0649", "name:ar": "\u062f\u0627\u0631 \u0627\u0644\u0635\u0639\u064a\u062f\u0649"}}, {"type": "node", "id": 3461491980, "lat": 32.3441853, "lon": 15.092823, "tags": {"addr:street": "\u0627\u0644\u0637\u0631\u064a\u0642 \u0627\u0644\u0633\u0627\u062d\u0644\u064a \u0645\u0635\u0631\u0627\u062a\u0647-\u0633\u0631\u062a Misrata-Sirte", "amenity": "restaurant", "cuisine": "regional", "name": "\u0645\u0637\u0639\u0645 \u0627\u0644\u0637\u0627\u0632\u062c", "name:ar": "\u0645\u0637\u0639\u0645 \u0627\u0644\u0637\u0627\u0632\u062c", "name:en": "Fresh Restaurant", "opening_hours": "Mo-Su 11:00-23:00"}}, {"type": "node", "id": 3810987761, "lat": 32.3745551, "lon": 15.0919537, "tags": {"amenity": "cafe", "internet_access": "yes", "name": "\u0645\u0642\u0647\u0649 \u0627\u0644\u0645\u062f\u064a\u0646\u0629", "name:ar": "\u0645\u0642\u0647\u0649 \u0627\u0644\u0645\u062f\u064a\u0646\u0629", "name:en": "Almadeena Cafe", "opening_hours": "6:30-23:00", "smoking": "separated"}}, {"type": "node", "id": 3813738357, "lat": 32.3766152, "lon": 15.0961347}, {"type": "node", "id": 3813738358, "lat": 32.3765436, "lon": 15.0962055}, {"type": "node", "id": 3813738359, "lat": 32.3765059, "lon": 15.0961301}, {"type": "node", "id": 3813738360, "lat": 32.3765709, "lon": 15.0960669}, {"type": "node", "id": 3815943157, "lat": 32.3742519, "lon": 15.0951026, "tags": {"amenity": "cafe", "name": "\u0645\u0642\u0647\u0649 \u0627\u0644\u0631\u0634\u064a\u062f", "name:ar": "\u0645\u0642\u0647\u0649 \u0627\u0644\u0631\u0634\u064a\u062f", "name:en": "ARRASHEED cafe"}}, {"type": "node", "id": 4101650629, "lat": 32.3583396, "lon": 15.0993768, "tags": {"amenity": "restaurant", "cuisine": "arab;lebanese", "opening_hours": "Mo-Su 11:00-22:00"}}, {"type": "node", "id": 4110077792, "lat": 32.3786416, "lon": 14.9928649, "tags": {"amenity": "restaurant", "name": "\u0645\u0637\u0639\u0645 \u0643\u0627\u0641\u0644\u0627\u064a", "name:ar": "\u0645\u0637\u0639\u0645 \u0643\u0627\u0641\u0644\u0627\u064a"}}, {"type": "node", "id": 4119178092, "lat": 32.3698873, "lon": 15.0925704, "tags": {"addr:street": "\u0634\u0627\u0631\u0639 \u0643\u0644\u064a\u0629 \u0627\u0644\u0627\u062f\u0627\u0628 \u0645\u0635\u0631\u0627\u062a\u0647", "amenity": "cafe", "cuisine": "barbecue;burger;cake;friture;pizza;sandwich", "internet_access": "wlan", "name": "\u0627\u0643\u0627\u0643\u0648\u0633", "name:ar": "\u0645\u0637\u0639\u0645 \u0627\u0643\u0627\u0643\u0648\u0633 \u0644\u0644\u0648\u062c\u0628\u0627\u062a \u0627\u0644\u0633\u0631\u064a\u0639\u0629", "name:en": "Acacus Cafe and restaurant", "opening_hours": "Mo-Su 08:30-23:00", "phone": "0913886769"}}, {"type": "node", "id": 4123995690, "lat": 32.3759255, "lon": 15.0917471, "tags": {"addr:street": "\u0634\u0627\u0631\u0639 \u0639\u0628\u062f\u0627\u0644\u0631\u062d\u0645\u0646 \u0639\u0632\u0627\u0645 (\u0627\u0644\u0628\u0644\u062f\u064a\u0629 ) \u0640", "amenity": "cafe"}}, {"type": "node", "id": 4123999589, "lat": 32.3408286, "lon": 15.036879, "tags": {"amenity": "cafe"}}, {"type": "node", "id": 4124002689, "lat": 32.3400279, "lon": 15.0373143, "tags": {"amenity": "cafe", "name": "\u0645\u0642\u0647\u0649 \u0627\u0644\u0623\u0645\u0644", "name:ar": "\u0645\u0642\u0647\u0649 \u0627\u0644\u0623\u0645\u0644", "name:en": "Amal Cafe"}}, {"type": "node", "id": 4124657192, "lat": 32.3823852, "lon": 15.087439, "tags": {"amenity": "restaurant", "name": "\u0627\u0644\u062f\u0645\u0634\u0642\u064a", "name:ar": "\u0627\u0644\u062f\u0645\u0634\u0642\u064a"}}, {"type": "node", "id": 4127124391, "lat": 32.4072477, "lon": 15.0329963, "tags": {"amenity": "cafe", "internet_access": "wlan", "name": "\u0645\u0642\u0647\u064a \u0627\u0644\u062c\u0632\u064a\u0631\u0629", "name:ar": "\u0645\u0642\u0647\u064a \u0627\u0644\u062c\u0632\u064a\u0631\u0629", "name:en": "\u0645\u0642\u0647\u0649 \u0627\u0644\u062c\u0632\u064a\u0631\u0629"}}, {"type": "node", "id": 4127145389, "lat": 32.4089721, "lon": 15.0304528, "tags": {"amenity": "restaurant", "name": "\u0645\u0637\u0639\u0645 \u0627\u0644\u0631\u0627\u0642\u064a \u0627\u0644\u0639\u0627\u0626\u0644\u064a", "name:ar": "\u0645\u0637\u0639\u0645 \u0627\u0644\u0631\u0627\u0642\u064a \u0627\u0644\u0639\u0627\u0626\u0644\u064a"}}, {"type": "node", "id": 4127234218, "lat": 32.415811, "lon": 14.7938041, "tags": {"amenity": "restaurant", "name": "\u0645\u0637\u0639\u0645 \u0645\u0623\u0643\u0648\u0644\u0627\u062a \u0634\u0639\u0628\u064a\u0629", "name:ar": "\u0645\u0637\u0639\u0645 \u0645\u0623\u0643\u0648\u0644\u0627\u062a \u0634\u0639\u0628\u064a\u0629", "name:en": "Traditional Libya Food"}}, {"type": "node", "id": 4128467736, "lat": 32.3743388, "lon": 15.0872132, "tags": {"addr:street": "\u0634\u0627\u0631\u0639 \u0627\u0644\u0645\u062f\u0627\u0631", "amenity": "cafe", "name": "\u0645\u0642\u0647\u0649 \u0632\u0639\u0628\u0648\u0631", "name:ar": "\u0645\u0642\u0647\u0649 \u0632\u0639\u0628\u0648\u0631"}}, {"type": "node", "id": 4128472123, "lat": 32.369944, "lon": 15.083741, "tags": {"amenity": "cafe"}}, {"type": "node", "id": 4128475931, "lat": 32.3741656, "lon": 15.0868604, "tags": {"amenity": "restaurant"}}, {"type": "node", "id": 4128475932, "lat": 32.37417, "lon": 15.0871408, "tags": {"amenity": "cafe", "name": "\u0645\u0642\u0647\u0649 \u062a\u0634\u0646\u062a\u0631\u0648", "name:ar": "\u0645\u0642\u0647\u0649 \u062a\u0634\u0646\u062a\u0631\u0648"}}, {"type": "node", "id": 4128481794, "lat": 32.3787765, "lon": 15.0840589, "tags": {"amenity": "cafe", "name": "\u0645\u0642\u0647\u064a \u0627\u0644\u062b\u0627\u0645\u0646\u0629", "name:ar": "\u0645\u0642\u0647\u064a \u0627\u0644\u062b\u0627\u0645\u0646\u0629"}}, {"type": "node", "id": 4128481795, "lat": 32.3790698, "lon": 15.0826239, "tags": {"amenity": "cafe"}}, {"type": "node", "id": 4128508332, "lat": 32.3699008, "lon": 15.0924698, "tags": {"amenity": "restaurant", "internet_access": "wlan", "name": "\u0645\u0637\u0639\u0645 \u0648\u0645\u0642\u0647\u0649 \u0627\u0643\u0627\u0643\u0648\u0633", "name:ar": "\u0645\u0637\u0639\u0645 \u0648\u0645\u0642\u0647\u0649 \u0627\u0643\u0627\u0643\u0648\u0633", "phone": "0913886769"}}, {"type": "node", "id": 4128508333, "lat": 32.3699273, "lon": 15.0920372, "tags": {"amenity": "cafe", "name": "\u0645\u0642\u0647\u0649 \u0627\u0644\u0632\u064a\u0646 1", "name:ar": "\u0645\u0642\u0647\u0649 \u0627\u0644\u0632\u064a\u0646 1"}}, {"type": "node", "id": 4128508334, "lat": 32.3698833, "lon": 15.0921528, "tags": {"amenity": "cafe", "internet_access": "wlan", "name": "\u0645\u0642\u0647\u0649 \u0627\u0644\u0632\u064a\u0646 \u0631\u062c\u0627\u0644 \u0627\u0639\u0645\u0627\u0644", "name:ar": "\u0645\u0642\u0647\u0649 \u0627\u0644\u0632\u064a\u0646", "name:en": "Zain Caf\u00e9", "opening_hours": "Mo-Su 10:00-01:00"}}, {"type": "node", "id": 4129106729, "lat": 32.4154656, "lon": 14.792712, "tags": {"amenity": "cafe"}}, {"type": "node", "id": 4130744589, "lat": 32.3719178, "lon": 15.0915154, "tags": {"amenity": "cafe", "internet_access": "wlan", "name": "\u0645\u0642\u0647\u0649 \u0628\u0648\u0641\u0627", "name:ar": "\u0645\u0642\u0647\u0649 \u0628\u0648\u0641\u0627", "name:en": "Pofa Cafe"}}, {"type": "node", "id": 4133835230, "lat": 32.3667236, "lon": 15.0973964, "tags": {"amenity": "cafe", "name": "\u0643\u0627\u0641\u064a \u0644\u0627\u062a\u064a", "name:ar": "\u0643\u0627\u0641\u064a \u0644\u0627\u062a\u064a", "name:en": "Latte Cafe"}}, {"type": "node", "id": 4133836089, "lat": 32.3787899, "lon": 15.0818868, "tags": {"amenity": "cafe", "name": "\u0645\u0642\u0647\u0649", "name:ar": "\u0645\u0642\u0647\u0649", "name:en": "Cafe"}}, {"type": "node", "id": 4133913142, "lat": 32.3698891, "lon": 15.0838102, "tags": {"amenity": "cafe"}}, {"type": "node", "id": 4133983566, "lat": 32.3744394, "lon": 15.0871305, "tags": {"amenity": "restaurant", "name": "\u0645\u0637\u0639\u0645 \u0633\u0648\u0631\u064a", "name:ar": "\u0645\u0637\u0639\u0645 \u0633\u0648\u0631\u064a"}}, {"type": "node", "id": 4133983567, "lat": 32.3745969, "lon": 15.0865391, "tags": {"amenity": "cafe"}}, {"type": "node", "id": 4134544865, "lat": 32.3692114, "lon": 15.0918519, "tags": {"amenity": "cafe", "name": "\u0645\u0642\u0647\u0649 \u0627\u0644\u0646\u0648\u0631\u0633", "name:ar": "\u0645\u0642\u0647\u0649 \u0627\u0644\u0646\u0648\u0631\u0633"}}, {"type": "node", "id": 4134544867, "lat": 32.3698514, "lon": 15.093126, "tags": {"amenity": "cafe", "name": "\u0645\u0642\u0647\u064a \u0646\u0648\u0631 \u0627\u0644\u0635\u0628\u0627\u062d", "name:ar": "\u0645\u0642\u0647\u064a \u0646\u0648\u0631 \u0627\u0644\u0635\u0628\u0627\u062d", "name:en": "Noor Alsabah Cafe"}}, {"type": "node", "id": 4136882791, "lat": 32.3742175, "lon": 15.0870147, "tags": {"amenity": "restaurant", "name": "\u0645\u0637\u0639\u0645 \u0627\u0644\u0643\u0646\u0627\u0631\u064a", "name:ar": "\u0645\u0637\u0639\u0645 \u0627\u0644\u0643\u0646\u0627\u0631\u064a"}}, {"type": "node", "id": 4140420025, "lat": 32.4083691, "lon": 15.0327032, "tags": {"amenity": "cafe", "name": "\u0645\u0642\u0647\u0649 \u0646\u0633\u0645\u0629", "name:ar": "\u0645\u0642\u0647\u0649 \u0646\u0633\u0645\u0629"}}, {"type": "node", "id": 4141343523, "lat": 32.3752294, "lon": 15.0907463, "tags": {"amenity": "cafe", "name:en": "Morganti"}}, {"type": "node", "id": 4141343524, "lat": 32.3760189, "lon": 15.0907798, "tags": {"amenity": "cafe", "name": "\u0628\u0631\u0627\u0632\u064a\u0644\u064a\u0627", "name:ar": "\u0628\u0631\u0627\u0632\u064a\u0644\u064a\u0627"}}, {"type": "node", "id": 4141343525, "lat": 32.3756995, "lon": 15.0917199, "tags": {"amenity": "cafe"}}, {"type": "node", "id": 4141720895, "lat": 32.3756166, "lon": 15.0768055, "tags": {"amenity": "restaurant", "name": "Pizza House"}}, {"type": "node", "id": 4141720896, "lat": 32.3592535, "lon": 15.0995109, "tags": {"amenity": "restaurant", "name": "Palace Marrakech Restaurant"}}, {"type": "node", "id": 4143188989, "lat": 32.3666167, "lon": 15.0936951, "tags": {"amenity": "cafe", "name": "Veturia Cafe"}}, {"type": "node", "id": 4206265893, "lat": 32.3688574, "lon": 15.0916925, "tags": {"amenity": "cafe", "name": "\u0627\u0644\u0646\u0642\u0631\u064a\u0634", "name:ar": "\u0627\u0644\u0646\u0642\u0631\u064a\u0634"}}, {"type": "node", "id": 4210334593, "lat": 32.3706959, "lon": 15.094371, "tags": {"addr:street": "\u0634\u0627\u0631\u0639 \u0639\u064e\u0644\u0650\u064a \u0627\u0644\u0631\u064e\u0651\u0627\u064a\u0650\u0633\u0652 ( \u0628\u0646\u063a\u0627\u0632\u064a )", "amenity": "cafe", "name": "\u0627\u0633\u0628\u0643\u062a\u0631\u0627", "name:ar": "\u0627\u0633\u0628\u0643\u062a\u0631\u0627"}}, {"type": "node", "id": 4212154800, "lat": 32.3697929, "lon": 15.0930493, "tags": {"addr:street": "\u0634\u0627\u0631\u0639 \u0643\u0644\u064a\u0629 \u0627\u0644\u0623\u062f\u0627\u0628", "amenity": "cafe", "internet_access": "wlan", "name": "\u0646\u0648\u0631 \u0627\u0644\u0635\u0628\u0627\u062d", "name:ar": "\u0646\u0648\u0631 \u0627\u0644\u0635\u0628\u0627\u062d", "opening_hours": "24/7"}}, {"type": "node", "id": 4227379389, "lat": 32.373426, "lon": 15.0893228, "tags": {"addr:street": "\u0634\u0627\u0631\u0639 \u0637\u0631\u0627\u0628\u0644\u0633", "amenity": "restaurant", "cuisine": "sandwich", "name": "\u0645\u0637\u0639\u0645 \u0628\u0631\u0648\u0633\u062a\u062f \u0627\u0644\u0623\u0645\u062a\u064a\u0627\u0632", "name:ar": "\u0645\u0637\u0639\u0645 \u0628\u0631\u0648\u0633\u062a\u062f \u0627\u0644\u0623\u0645\u062a\u064a\u0627\u0632", "name:en": "Broasted Restaurant"}}, {"type": "node", "id": 4231923992, "lat": 32.3544852, "lon": 15.0982349, "tags": {"amenity": "cafe", "name": "\u0645\u0642\u0647\u0649 \u0627\u0644\u062c\u0644\u0633\u0629", "name:ar": "\u0645\u0642\u0647\u0649 \u0627\u0644\u062c\u0644\u0633\u0629", "name:en": "Jalsa Cafe"}}, {"type": "node", "id": 4272365689, "lat": 32.3580837, "lon": 15.0667597, "tags": {"amenity": "cafe", "name": "Al-Sultan Coffee Shop", "name:ar": "\u0645\u0642\u0647\u0649 \u0627\u0644\u0633\u0644\u0637\u0627\u0646"}}, {"type": "node", "id": 4331622300, "lat": 32.3750321, "lon": 15.0946945, "tags": {"addr:street": "\u0634\u0627\u0631\u0639 \u0633\u0646\u0627\u0621 \u0645\u062d\u064a\u062f\u0644\u0649", "amenity": "cafe", "brand": "Lavazza", "brand:wikidata": "Q543750", "cuisine": "coffee_shop", "internet_access": "wlan", "name": "Lavazza", "opening_hours": "Mo-Su 07:00-22:00", "takeaway": "yes"}}, {"type": "node", "id": 4350016990, "lat": 32.3793786, "lon": 15.0932037, "tags": {"addr:street": "\u0627\u0644\u062f\u0627\u0626\u0631\u064a \u0627\u0644\u0627\u0648\u0644", "amenity": "cafe", "name": "\u0645\u0642\u0647\u0649 \u062c\u0645\u064a\u0644", "name:ar": "\u0645\u0642\u0647\u0649 \u062c\u0645\u064a\u0644", "name:en": "Jamel Cafe"}}, {"type": "node", "id": 4358140891, "lat": 32.3673013, "lon": 15.0807677, "tags": {"addr:street": "\u0634\u0627\u0631\u0639 \u0631\u064e\u0645\u064e\u0636\u064e\u0627\u0646\u0652 \u0627\u0644\u0633\u0651\u0648\u0650\u064a\u062d\u0652\u0644\u0650\u064a ( \u0637\u0631\u0627\u0628\u0644\u0633)", "amenity": "cafe", "name": "\u0641\u0631\u0627\u062a\u064a\u0644\u064a", "name:ar": "\u0641\u0631\u0627\u062a\u064a\u0644\u064a"}}, {"type": "node", "id": 4367840491, "lat": 32.3764075, "lon": 15.0880934, "tags": {"addr:street": "First Ring Road \u0627\u0644\u062f\u0627\u0626\u0631\u064a \u0627\u0644\u0623\u0648\u0644", "amenity": "cafe", "cuisine": "cake;coffee_shop;tea", "internet_access": "wlan", "name": "\u0645\u0642\u0647\u064a \u0628\u064a\u0631\u0648\u062a", "name:ar": "\u0645\u0642\u0647\u064a \u0628\u064a\u0631\u0648\u062a", "name:en": "Beirut Cafe", "opening_hours": "Sa-Th 08:00-23:00; Fr 15:00-23:00"}}, {"type": "node", "id": 4368075289, "lat": 32.3738121, "lon": 15.093202, "tags": {"addr:street": "\u0634\u0627\u0631\u0639 \u0639\u0628\u062f\u0627\u0644\u0631\u062d\u0645\u0646 \u0639\u0632\u0627\u0645 (\u0627\u0644\u0628\u0644\u062f\u064a\u0629 ) \u0640", "amenity": "cafe", "internet_access": "wlan", "internet_access:fee": "yes", "name": "\u0645\u0642\u0647\u0649 \u0623\u0645\u0627\u0637\u064a\u0646", "name:ar": "\u0645\u0642\u0647\u0649 \u0623\u0645\u0627\u0637\u064a\u0646", "name:en": "Emmaten Cafe", "outdoor_seating": "yes", "smoking": "yes"}}, {"type": "node", "id": 4393491489, "lat": 32.3716475, "lon": 15.096551, "tags": {"addr:street": "\u0634\u0627\u0631\u0639 \u0633\u0639\u062f\u0648\u0646 \u0627\u0644\u0633\u0648\u064a\u062d\u0644\u064a", "amenity": "cafe", "cuisine": "coffee_shop", "name": "\u0645\u0642\u0647\u064a \u0627\u0644\u0637\u0627\u0631\u0642", "name:ar": "\u0645\u0642\u0647\u064a \u0627\u0644\u0637\u0627\u0631\u0642", "name:en": "Tareq Cafe"}}, {"type": "node", "id": 4393536589, "lat": 32.359077, "lon": 15.0547251, "tags": {"addr:street": "\u0637\u0631\u064a\u0642 \u0645\u0646 \u0627\u0644\u062c\u0632\u064a\u0631\u0629 \u0627\u0644\u0649 \u0627\u0644\u062e\u0631\u0648\u0628\u0629", "amenity": "cafe", "name": "\u0645\u0631\u0633\u0644\u064a\u0627", "name:ar": "\u0645\u0631\u0633\u0644\u064a\u0627", "name:en": "marselia"}}, {"type": "node", "id": 4399535395, "lat": 32.375257, "lon": 15.0851243, "tags": {"addr:street": "\u0634\u0627\u0631\u0639 \u0639\u0628\u062f \u0627\u0644\u0644\u0647 \u0627\u0644\u063a\u0631\u064a\u0628", "amenity": "restaurant", "cuisine": "chicken;fish;fish_and_chips;steak_house", "name": "\u0645\u0637\u0639\u0645 \u0643\u062a\u0627\u0643\u064a\u062a", "name:ar": "\u0645\u0637\u0639\u0645 \u0643\u062a\u0627\u0643\u064a\u062a", "name:en": "KataKeet Restaurant", "opening_hours": "Sa-Th 10:00-24:00; Fr 16:00-24:00"}}, {"type": "node", "id": 4400526792, "lat": 32.335668, "lon": 15.0771277, "tags": {"amenity": "cafe", "internet_access": "wlan", "name": "\u0645\u0642\u0647\u0649 \u0643\u0627\u0632\u0627 \u0628\u0644\u0627\u0646\u0643\u0627", "name:ar": "\u0645\u0642\u0647\u0649 \u0643\u0627\u0632\u0627 \u0628\u0644\u0627\u0646\u0643\u0627"}}, {"type": "node", "id": 4401892292, "lat": 32.3646942, "lon": 15.0982921, "tags": {"amenity": "cafe", "name": "\u0645\u0642\u0647\u0649 \u0645\u062d\u0633\u0646", "name:ar": "\u0645\u0642\u0647\u0649 \u0645\u062d\u0633\u0646", "name:en": "Mohsen Caf\u00e9'"}}, {"type": "node", "id": 4410328290, "lat": 32.3845785, "lon": 15.0890132, "tags": {"addr:street": "\u0627\u0644\u062f\u0627\u0626\u0631\u064a \u0627\u0644\u062b\u0627\u0646\u064a", "amenity": "cafe", "internet_access": "wlan", "name": "\u0645\u0642\u0647\u064a \u0628\u0644\u0627\u0644", "name:ar": "\u0645\u0642\u0647\u064a \u0628\u0644\u0627\u0627\u0644", "name:en": "Bilal coffee"}}, {"type": "node", "id": 4413849492, "lat": 32.3816304, "lon": 15.1040804, "tags": {"amenity": "cafe", "name": "\u0642\u0647\u0648\u0629 \u0639\u0628\u062f\u0627\u0644\u0644\u0647", "name:ar": "\u0642\u0647\u0648\u0629 \u0639\u0628\u062f\u0627\u0644\u0644\u0647"}}, {"type": "node", "id": 4419543389, "lat": 32.3767413, "lon": 15.0917289, "tags": {"amenity": "cafe", "name": "\u0627\u0644\u0645\u0648\u0639\u062f", "name:ar": "\u0627\u0644\u0645\u0648\u0639\u062f"}}, {"type": "node", "id": 4427433395, "lat": 32.3920309, "lon": 15.0668495, "tags": {"amenity": "cafe", "name": "\u0645\u0642\u0647\u0649", "name:ar": "\u0645\u0642\u0647\u0649", "name:en": "Cafe"}}, {"type": "node", "id": 4427455200, "lat": 32.3917953, "lon": 15.066721, "tags": {"amenity": "cafe", "name": "cafe", "name:ar": "cafe", "name:en": "\u0645\u0642\u0647\u0649"}}, {"type": "node", "id": 4427506190, "lat": 32.383026, "lon": 15.0826598, "tags": {"amenity": "restaurant", "name": "\u0645\u0637\u0639\u0645 \u0627\u0644\u0645\u0634\u0648\u064a", "name:ar": "\u0645\u0637\u0639\u0645 \u0627\u0644\u0645\u0634\u0648\u064a", "name:en": "Mashwee resteurant"}}, {"type": "node", "id": 4427722794, "lat": 32.3718509, "lon": 15.0866413, "tags": {"addr:street": "\u0634\u0627\u0631\u0639 \u0631\u064e\u0645\u064e\u0636\u064e\u0627\u0646\u0652 \u0627\u0644\u0633\u0651\u0648\u0650\u064a\u062d\u0652\u0644\u0650\u064a ( \u0637\u0631\u0627\u0628\u0644\u0633)", "amenity": "cafe", "cuisine": "pizza;burger;coffee_shop;deli;donut;pancake;savory_pancakes;sandwich;tea;breakfast;crepe;cake", "internet_access": "wlan", "name": "\u0645\u0642\u0647\u0649 \u0645\u062d\u0633\u0646", "name:ar": "\u0645\u0642\u0647\u0649 \u0645\u062d\u0633\u0646", "name:en": "Mohsen Cafe", "opening_hours": "Mo-Su 08:00-23:00"}}, {"type": "node", "id": 4432217991, "lat": 32.3687367, "lon": 15.0826001, "tags": {"addr:housenumber": "0914382000", "addr:street": "\u0634\u0627\u0631\u0639 \u0631\u0645\u0636\u0627\u0646 \u0627\u0644\u0633\u0648\u064a\u062d\u0644\u064a Ramadan Swihle St.", "amenity": "restaurant", "name": "\u0628\u0631\u062c\u0631 \u0647\u0627\u0648\u0633", "name:ar": "\u0635\u064a\u062f\u0644\u064a\u0629 \u0627\u0644\u0634\u0647\u064a\u0631\u0629", "name:en": "Burger House", "opening_hours": "Mo-Su 11:00-23:30"}}, {"type": "node", "id": 4459035689, "lat": 32.3539887, "lon": 15.0994888, "tags": {"amenity": "restaurant", "name": "\u0645\u0637\u0639\u0645 \u0643\u0648\u062f\u0648", "name:ar": "\u0645\u0637\u0639\u0645 \u0643\u0648\u062f\u0648", "name:en": "Kudo Restaurant", "phone": "0913930300"}}, {"type": "node", "id": 4461285291, "lat": 32.3752391, "lon": 15.084703, "tags": {"amenity": "restaurant", "name": "\u0643\u064a\u0646\u062c \u0645\u0634\u0627\u0648\u064a", "name:ar": "\u0643\u064a\u0646\u062c \u0645\u0634\u0627\u0648\u064a"}}, {"type": "node", "id": 4461285292, "lat": 32.3754291, "lon": 15.0846202, "tags": {"amenity": "restaurant", "name": "\u0627\u0644\u0623\u0646\u062f\u0644\u0633\u064a\u0629", "name:ar": "\u0627\u0644\u0623\u0646\u062f\u0644\u0633\u064a\u0629"}}, {"type": "node", "id": 4461318489, "lat": 32.3755693, "lon": 15.0854711, "tags": {"amenity": "cafe", "name": "\u0642\u0647\u0648\u0629 \u0627\u0644\u0628\u0648\u0641\u064a", "name:ar": "\u0642\u0647\u0648\u0629 \u0627\u0644\u0642\u0631\u0645\u0629", "name:en": "coffee"}}, {"type": "node", "id": 4465660190, "lat": 32.3781096, "lon": 15.0740629, "tags": {"addr:street": "\u0627\u0644\u062f\u0627\u0626\u0631\u064a \u0627\u0644\u062b\u0627\u0644\u062b", "amenity": "restaurant", "cuisine": "donut;deli;diner;pancake;savory_pancakes;burger;pizza;chicken;sandwich;tea;steak_house;grill;breakfast;bagel;cake;ice_cream;hot_dog;coffee_shop;friture", "internet_access": "wlan", "name": "\u062a\u0634\u0643\u0646 \u0643\u0648\u062a\u062c", "name:ar": "\u062a\u0634\u0643\u0646 \u0643\u0648\u062a\u062c", "name:en": "Chicken Cottage"}}, {"type": "node", "id": 4501213689, "lat": 32.360929, "lon": 15.1122673, "tags": {"amenity": "cafe", "name": "\u0645\u0642\u0647\u0649 \u0633\u0646\u062a\u0631\u0627\u0644", "name:ar": "\u0645\u0642\u0647\u0649 \u0633\u0646\u062a\u0631\u0627\u0644", "name:en": "Central Cafe"}}, {"type": "node", "id": 4510973196, "lat": 32.4027226, "lon": 15.0441018, "tags": {"addr:street": "\u0637\u0631\u064a\u0642 \u0627\u0644\u062c\u0632\u064a\u0631\u0629 \u0627\u0644\u0645\u0632\u062f\u0648\u062c", "amenity": "cafe", "name": "\u0643\u0641\u064a\u0640\u0647716", "name:ar": "\u0643\u0641\u064a\u0647716"}}, {"type": "node", "id": 4536060191, "lat": 32.3500767, "lon": 15.0755218, "tags": {"addr:street": "4th Ring Road", "amenity": "cafe", "name": "\u0645\u0642\u0647\u0649 \u0627\u0644\u0645\u0630\u0627\u0642", "name:ar": "\u0645\u0642\u0647\u0649 \u0627\u0644\u0645\u0630\u0627\u0642", "opening_hours": "24/7"}}, {"type": "node", "id": 4538156092, "lat": 32.3899493, "lon": 14.9707727, "tags": {"addr:street": "\u0637\u0631\u064a\u0642 \u0633\u0648\u0642 \u0627\u0644\u062c\u0645\u0639\u0629", "amenity": "cafe", "name": "\u0642\u0647\u0648\u0629 \u0637\u0627\u0631\u0642", "name:ar": "\u0642\u0647\u0648\u0629 \u0637\u0627\u0631\u0642", "name:en": "Tareq cafe", "opening_hours": "Sa-Th 08:30-20:30; Fr 14:00-20:00"}}, {"type": "node", "id": 4550458747, "lat": 32.350971, "lon": 15.0997741, "tags": {"addr:city": "\u0645\u0635\u0631\u0627\u062a\u0629", "amenity": "restaurant", "capacity": "50", "cuisine": "regional", "delivery": "no", "name": "\u0645\u0637\u0639\u0645 \u0628\u0627\u0628 \u0627\u0644\u0634\u0631\u0642", "name:ar": "\u0645\u0637\u0639\u0645 \u0628\u0627\u0628 \u0627\u0644\u0634\u0631\u0642", "takeaway": "yes"}}, {"type": "node", "id": 4558799489, "lat": 32.3796903, "lon": 15.0928949, "tags": {"amenity": "cafe", "name": "\u0645\u0642\u0647\u0649 \u0637\u0639\u0645\u0629", "name:ar": "\u0645\u0642\u0647\u0649 \u0637\u0639\u0645\u0629"}}, {"type": "node", "id": 4593638689, "lat": 32.3696459, "lon": 15.091715, "tags": {"amenity": "cafe", "internet_access": "wlan", "name": "\u0645\u0642\u0647\u064a \u0627\u0644\u062e\u0627\u0644", "name:ar": "\u0645\u0642\u0647\u064a \u0627\u0644\u062e\u0627\u0644", "name:en": "Al Khal cafe"}}, {"type": "node", "id": 4626483292, "lat": 32.3780734, "lon": 15.0969064, "tags": {"amenity": "cafe", "name": "\u0645\u0642\u0647\u0649 \u0627\u0644\u0631\u0627\u064a\u0633", "name:ar": "\u0645\u0642\u0647\u0649 \u0627\u0644\u0631\u0627\u064a\u0633"}}, {"type": "node", "id": 4646630793, "lat": 32.3435714, "lon": 15.1349273, "tags": {"addr:street": "\u0637\u0631\u064a\u0642 \u0627\u0644\u0646\u0642\u0644 \u0627\u0644\u062b\u0642\u064a\u0644", "amenity": "cafe", "name": "\u0645\u0642\u0647\u0649 \u0631\u0627\u0646\u0634\u064a\u0644\u0644\u0648", "name:ar": "\u0645\u0642\u0647\u0649 \u0631\u0627\u0646\u0634\u064a\u0644\u0644\u0648", "name:en": "Ranchillo"}}, {"type": "node", "id": 4681287489, "lat": 32.3545902, "lon": 15.0989454, "tags": {"addr:housenumber": "B1", "addr:street": "\u0634\u0627\u0631\u0639 \u0628\u0646\u063a\u0627\u0632\u064a Benghazi Street", "amenity": "cafe", "cuisine": "tea;breakfast;crepe;cake;coffee_shop", "email": "osama@alemtysz.ly", "internet_access": "wlan", "name": "\u0645\u0642\u0647\u0649 \u0627\u0644\u0627\u0645\u062a\u064a\u0627\u0632 \u0644\u0631\u062c\u0627\u0644 \u0627\u0644\u0627\u0639\u0645\u0627\u0644", "name:ar": "\u0645\u0642\u0647\u0649 \u0627\u0644\u0627\u0645\u062a\u064a\u0627\u0632 \u0644\u0631\u062c\u0627\u0644 \u0627\u0644\u0627\u0639\u0645\u0627\u0644", "name:en": "Alemtysz Businessmen cafe", "opening_hours": "Mo-Su 08:00-14:30, 16:00-23:55", "phone": "00218912131153"}}, {"type": "node", "id": 4693827593, "lat": 32.357019, "lon": 15.0991384, "tags": {"amenity": "restaurant", "name": "\u0645\u0637\u0639\u0645 \u0642\u0635\u0631 \u0645\u0631\u0627\u0643\u0634", "name:ar": "\u0645\u0637\u0639\u0645 \u0642\u0635\u0631 \u0645\u0631\u0627\u0643\u0634", "name:en": "Gasr Marakesh restaurant"}}, {"type": "node", "id": 4704803117, "lat": 32.3412121, "lon": 15.0901925, "tags": {"amenity": "restaurant", "name": "\u0645\u0637\u0639\u0645 \u0639\u0628\u062f\u0627\u0644\u0644\u0637\u064a\u0641", "name:ar": "\u0645\u0637\u0639\u0645 \u0639\u0628\u062f\u0627\u0644\u0644\u0637\u064a\u0641"}}, {"type": "node", "id": 4708146494, "lat": 32.3616681, "lon": 15.1000555, "tags": {"amenity": "cafe", "name": "Coffee Time", "name:en": "Maki cafe"}}, {"type": "node", "id": 4708146555, "lat": 32.3803501, "lon": 15.1127074, "tags": {"amenity": "restaurant"}}, {"type": "node", "id": 4715547690, "lat": 32.4054869, "lon": 15.0353545, "tags": {"addr:street": "\u0637\u0631\u064a\u0642 \u0627\u0644\u062c\u0632\u064a\u0631\u0629 \u0627\u0644\u0645\u0632\u062f\u0648\u062c", "amenity": "cafe", "name": "\u0645\u0642\u0647\u0649 716", "name:ar": "\u0645\u0642\u0647\u0649 716", "name:en": "Caffe 716"}}, {"type": "node", "id": 4717002301, "lat": 32.339798, "lon": 15.0911608, "tags": {"amenity": "cafe"}}, {"type": "node", "id": 4735534724, "lat": 32.3616505, "lon": 15.1000436, "tags": {"addr:street": "\u0634\u0627\u0631\u0639 \u0633\u064e\u0639\u0652\u062f\u064f\u0648\u0646\u0652 \u0627\u0644\u0633\u0651\u0648\u064a\u062d\u0652\u0644\u0650\u064a", "amenity": "cafe", "name": "\u0645\u0643\u064a", "name:ar": "\u0645\u0643\u064a", "name:en": "making"}}, {"type": "node", "id": 4761806221, "lat": 32.3758313, "lon": 15.0962384, "tags": {"addr:street": "\u0634\u0627\u0631\u0639 \u0633\u0646\u0627\u0621 \u0645\u062d\u064a\u062f\u0644\u0649", "amenity": "cafe", "cuisine": "breakfast;tea;cake;pancake;donut;deli;buschenschank", "internet_access": "wlan", "name": "\ud83c\udfb1\u0645\u0642\u0647\u064a \u0627\u0644\u0634\u0647\u064a\u062f\ud83c\udfb1", "name:en": "coffee", "opening_hours": "Mo-Su 07:50-01:00"}}, {"type": "node", "id": 4809667024, "lat": 32.3858366, "lon": 14.9557964, "tags": {"amenity": "restaurant", "name": "\u0645\u0637\u0639\u0645 \u0627\u0644\u0646\u062c\u0639", "name:ar": "\u0645\u0637\u0639\u0645 \u0627\u0644\u0646\u062c\u0639"}}, {"type": "node", "id": 4813334221, "lat": 32.372513, "lon": 15.07205, "tags": {"amenity": "restaurant", "name": "\u062a\u0645\u0643\u0646 \u0643\u0631\u0633\u0628\u064a", "name:ar": "\u062a\u0634\u0643\u0646 \u0643\u0631\u0633\u0628\u064a", "name:en": "\u062a\u0634\u0643\u0646 \u0643\u0631\u0633\u0628\u064a"}}, {"type": "node", "id": 4868552023, "lat": 32.3743453, "lon": 15.0898422, "tags": {"amenity": "cafe", "name": "\u0643\u0648\u0641\u064a \u0633\u0646\u062a\u0631", "name:ar": "\u0643\u0648\u0641\u064a \u0633\u0646\u062a\u0631", "name:en": "Coffee center"}}, {"type": "node", "id": 4868586521, "lat": 32.3739289, "lon": 15.0893518, "tags": {"amenity": "restaurant", "name": "\u063a\u0631\u0646\u0627\u0637\u0629", "name:ar": "\u063a\u0631\u0646\u0627\u0637\u0629", "name:en": "Cordoba Restaurant", "phone": "092-5715411"}}, {"type": "node", "id": 4871957222, "lat": 32.3755067, "lon": 15.093581, "tags": {"amenity": "cafe", "name": "\u0645\u0642\u0647\u064a \u0627\u062f\u062c\u064a\u0645", "name:ar": "\u0645\u0642\u0647\u064a \u0627\u062f\u062c\u064a\u0645", "name:en": "\u0645\u0642\u0647\u0649 \u0627\u062f\u062c\u064a\u0645"}}, {"type": "node", "id": 4893682923, "lat": 32.3802746, "lon": 15.0885357, "tags": {"amenity": "cafe", "name": "\u0645\u0637\u0639\u0645 \u0643\u0628\u062f\u0627 \u0645\u0627\u062a\u0641\u0647\u0645 \u0634\u064a\u0621", "name:ar": "\u0645\u0637\u0639\u0645 \u0643\u0628\u062f\u0627 \u0645\u0627\u062a\u0641\u0647\u0645 \u0634\u064a\u0621"}}, {"type": "node", "id": 4929271431, "lat": 32.3667366, "lon": 15.0802403, "tags": {"addr:street": "\u0634\u0627\u0631\u0639 \u0631\u064e\u0645\u064e\u0636\u064e\u0627\u0646\u0652 \u0627\u0644\u0633\u0651\u0648\u0650\u064a\u062d\u0652\u0644\u0650\u064a ( \u0637\u0631\u0627\u0628\u0644\u0633)", "amenity": "cafe", "internet_access": "wlan"}}, {"type": "node", "id": 4929805221, "lat": 32.3508562, "lon": 15.1002964, "tags": {"addr:street": "\u0634\u0627\u0631\u0639 \u0628\u0646\u063a\u0627\u0632\u064a Benghazi Street", "amenity": "restaurant", "name": "\u0645\u0637\u0639\u0645 \u0633\u0631 \u0627\u0644\u0646\u0643\u0647\u0629", "name:ar": "\u0645\u0637\u0639\u0645 \u0633\u0631 \u0627\u0644\u0646\u0643\u0647\u0629"}}, {"type": "node", "id": 4982997024, "lat": 32.3869764, "lon": 15.0943659, "tags": {"amenity": "cafe", "name": "\u0645\u0642\u0647\u0649 \u0648\u0646\u0627\u0633\u0647", "name:ar": "\u0645\u0642\u0647\u0649 \u0648\u0646\u0627\u0633\u0647"}}, {"type": "node", "id": 4989560323, "lat": 32.3776794, "lon": 15.0848319, "tags": {"amenity": "cafe", "name": "\u0645\u0648\u0632\u0627\u0631\u0627\u062a", "name:ar": "\u0645\u0648\u0632\u0627\u0631\u0627\u062a"}}, {"type": "node", "id": 5007169721, "lat": 32.4048984, "lon": 15.1089676, "tags": {"amenity": "cafe"}}, {"type": "node", "id": 5018058027, "lat": 32.3415577, "lon": 15.1123097, "tags": {"amenity": "restaurant", "name": "\u0645\u0637\u0639\u0645 \u0627\u0644\u062d\u0631\u064a\u0629 2", "name:ar": "\u0645\u0637\u0639\u0645 \u0627\u0644\u062d\u0631\u064a\u0629 2", "name:en": "Freedom restaurant 2"}}, {"type": "node", "id": 5022156821, "lat": 32.3570081, "lon": 15.0991522, "tags": {"amenity": "restaurant", "cuisine": "lebanese", "name": "Palace Marrakesh Restaurant"}}, {"type": "node", "id": 5073863325, "lat": 32.350766, "lon": 15.1002419, "tags": {"addr:street": "\u0634\u0627\u0631\u0639 \u0628\u0646\u063a\u0627\u0632\u064a Benghazi Street", "amenity": "restaurant", "cuisine": "barbecue", "name": "\u0645\u0637\u0639\u0645 \u0633\u0631 \u0627\u0644\u0646\u0643\u0647\u0629", "name:ar": "\u0645\u0637\u0639\u0645 \u0633\u0631 \u0627\u0644\u0646\u0643\u0647\u0629", "name:en": "Ser Annakha restaurant", "opening_hours": "Mo-Su 10:00-24:00"}}, {"type": "node", "id": 5118329521, "lat": 32.3774785, "lon": 15.1004968, "tags": {"amenity": "cafe", "name": "\u0645\u0642\u0647\u064a \u0623\u0641\u0646\u062f\u064a\u0646\u0627", "name:ar": "\u0645\u0642\u0647\u064a \u0623\u0641\u0646\u062f\u064a\u0646\u0627", "name:en": "cafe afandina"}}, {"type": "node", "id": 5144050222, "lat": 32.349501, "lon": 14.6416663, "tags": {"addr:street": "Aljihad \u0627\u0644\u062c\u0647\u0627\u062f", "amenity": "cafe", "name:en": "\u0645\u0633\u062c\u062f \u0627\u0644\u0641\u0631\u062c\u0627\u0646\u064a"}}, {"type": "node", "id": 5195121221, "lat": 32.3739215, "lon": 15.0899486, "tags": {"addr:street": "\u0634\u0627\u0631\u0639 \u0631\u064e\u0645\u064e\u0636\u064e\u0627\u0646\u0652 \u0627\u0644\u0633\u0651\u0648\u0650\u064a\u062d\u0652\u0644\u0650\u064a ( \u0637\u0631\u0627\u0628\u0644\u0633)", "amenity": "restaurant", "cuisine": "barbecue;burger;chicken;diner;grill;hotdog;lebanese", "internet_access": "wlan", "name": "\u0645\u0637\u0639\u0645 \u062a\u0634\u064a\u0643\u0646 \u0647\u0627\u0648\u0633 \u0644\u0644\u0648\u062c\u0628\u0627\u062a \u0627\u0644\u0633\u0631\u064a\u0639\u0629", "name:ar": "\u0645\u0637\u0639\u0645 \u062a\u0634\u064a\u0643\u0646 \u0647\u0627\u0648\u0633 \u0644\u0644\u0648\u062c\u0628\u0627\u062a \u0627\u0644\u0633\u0631\u064a\u0639\u0629", "name:en": "CHICKEN House", "opening_hours": "24/7", "operator": "Altaher Almabarok family", "phone": "0927708030", "website": "http://www.facebook.com/chickenmisurata"}}, {"type": "node", "id": 5195124221, "lat": 32.3760783, "lon": 15.0917849, "tags": {"addr:street": "\u0634\u0627\u0631\u0639 \u0639\u0628\u062f\u0627\u0644\u0631\u062d\u0645\u0646 \u0639\u0632\u0627\u0645", "amenity": "cafe", "internet_access": "wlan", "name:en": "Time Cafe", "opening_hours": "24/7", "phone": "0913225558"}}, {"type": "node", "id": 5200582521, "lat": 32.3744735, "lon": 15.0689551, "tags": {"addr:street": "\u0637\u0631\u064a\u0642 \u0627\u0644\u0635\u0648\u0627\u0644\u062d", "amenity": "cafe", "name": "\u0645\u0642\u0647\u0649 \u0627\u0644\u0645\u064a\u0627\u062f\u064a\u0646", "name:ar": "\u0645\u0642\u0647\u0649 \u0627\u0644\u0645\u064a\u0627\u062f\u064a\u0646", "name:en": "al myadeen"}}, {"type": "node", "id": 5284395121, "lat": 32.377628, "lon": 15.1007338, "tags": {"addr:street": "\u0634\u0627\u0631\u0639 \u0642\u0635\u0631 \u0623\u062d\u0645\u062f", "amenity": "cafe", "cuisine": "donut;pancake;crepe;coffee_shop", "internet_access": "wlan", "name": "\u0645\u0642\u0647\u0649 \u0623\u0641\u0646\u062f\u064a\u0646\u0627", "name:ar": "\u0645\u0642\u0647\u0649 \u0627\u0644\u0641\u064a\u0631\u0648\u0632", "name:en": "\u0645\u0642\u0647\u0649 \u0627\u0644\u0641\u064a\u0631\u0648\u0632"}}, {"type": "node", "id": 5347810023, "lat": 32.3915342, "lon": 15.0949926, "tags": {"amenity": "restaurant", "name": "\u0645\u0637\u0639\u0645 \u0628\u0627\u0628 \u062c\u0646\u0651\u0627\u062a", "name:ar": "\u0645\u0637\u0639\u0645 \u0628\u0627\u0628 \u062c\u0646\u0651\u0627\u062a"}}, {"type": "node", "id": 5367809521, "lat": 32.3830941, "lon": 15.1093418, "tags": {"amenity": "cafe", "name": "\u0645\u0642\u0647\u0649 \u0627\u0644\u0645\u0639\u062a\u0645\u062f", "name:ar": "\u0645\u0642\u0647\u0649 \u0627\u0644\u0645\u0639\u062a\u0645\u062f"}}, {"type": "node", "id": 5369150223, "lat": 32.3532869, "lon": 15.0589899, "tags": {"addr:street": "\u0627\u0644\u0637\u0631\u064a\u0642 \u0627\u0644\u0633\u0627\u062d\u0644\u064a \u0645\u0635\u0631\u0627\u062a\u0647-\u0633\u0631\u062a Misrata-Sirte", "amenity": "cafe", "internet_access": "wlan", "name": "\u0645\u0642\u0647\u0649 \u0639\u0642\u0628\u0629", "name:ar": "\u0645\u0642\u0647\u0649 \u0639\u0642\u0628\u0629", "name:en": "Caffe OKBA", "opening_hours": "Mo-Su 08:00-12:00"}}, {"type": "node", "id": 5369166621, "lat": 32.390035, "lon": 14.9918937, "tags": {"addr:street": "\u0637\u0631\u064a\u0642 \u0633\u0648\u0642 \u0627\u0644\u062c\u0645\u0639\u0629", "amenity": "cafe", "name": "\u0645\u0642\u0647\u0649 \u0627\u0644\u064a\u0648\u0645", "name:ar": "\u0645\u0642\u0647\u0649 \u0627\u0644\u064a\u0648\u0645", "opening_hours": "Sa-Th 06:00-20:00; Fr 15:30-20:00", "phone": "00218913291904"}}, {"type": "node", "id": 5390212021, "lat": 32.3737568, "lon": 15.095009, "tags": {"addr:street": "\u0634\u0627\u0631\u0639 \u0639\u0628\u062f\u0627\u0644\u0631\u062d\u0645\u0646 \u0639\u0632\u0627\u0645 (\u0627\u0644\u0628\u0644\u062f\u064a\u0629 ) \u0640", "amenity": "cafe", "name": "\u0646\u0639\u0645\u0629", "name:ar": "\u0646\u0639\u0645\u0629", "name:en": "Neama"}}, {"type": "node", "id": 5448662421, "lat": 32.3733296, "lon": 15.0908724, "tags": {"addr:street": "\u0634\u0627\u0631\u0639 \u0645\u0627\u0637\u0648\u0633", "amenity": "restaurant", "name": "\u062a\u0634\u0627\u0648 \u0628\u064a\u062a\u0632\u0627", "name:ar": "\u062a\u0634\u0627\u0648 \u0628\u064a\u062a\u0632\u0627", "name:en": "Ciao pizza", "opening_hours": "Mo-Su 17:00-24:00"}}, {"type": "node", "id": 5448662521, "lat": 32.373293, "lon": 15.0908353, "tags": {"addr:street": "\u0634\u0627\u0631\u0639 \u0645\u0627\u0637\u0648\u0633", "amenity": "restaurant", "name": "\u0643\u0628\u0627\u0628 \u0645\u0631\u062d\u0628\u0627", "name:ar": "\u0643\u0628\u0627\u0628 \u0645\u0631\u062d\u0628\u0627"}}, {"type": "node", "id": 5459749421, "lat": 32.3777076, "lon": 15.0434543, "tags": {"amenity": "cafe", "name": "\u0645\u0642\u0647\u064a", "name:ar": "\u0645\u0642\u0647\u064a", "name:en": "coffee"}}, {"type": "node", "id": 5516887423, "lat": 32.3963167, "lon": 15.1256455, "tags": {"addr:street": "\u0634\u0627\u0631\u0639 \u0627\u0644\u062f\u064e\u0645", "amenity": "cafe", "name": "\u0645\u0642\u0647\u0649 \u0639\u0644\u064a\u0648\u0627", "name:ar": "\u0645\u0642\u0647\u0649 \u0639\u0644\u064a\u0648\u0627", "name:en": "Aleewa cafe"}}, {"type": "node", "id": 5537158021, "lat": 32.3609441, "lon": 15.0993085, "tags": {"amenity": "cafe", "internet_access": "wlan", "name": "\u0627\u0644\u0628\u0627\u0634\u0627", "name:ar": "\u0627\u0644\u0628\u0627\u0634\u0627"}}, {"type": "node", "id": 5547860753, "lat": 32.3695549, "lon": 15.0955831, "tags": {"addr:street": "\u0634\u0627\u0631\u0639 \u0628\u0646\u063a\u0627\u0632\u064a", "amenity": "cafe", "cuisine": "deli;donut;breakfast;crepe;cake;coffee_shop", "internet_access": "wlan", "name": "\u0627\u0646\u062a\u0631\u0641\u0627\u0644\u0648", "name:ar": "\u0627\u0646\u062a\u0631\u0641\u0627\u0644\u0648", "name:en": "intervallo"}}, {"type": "node", "id": 5588598821, "lat": 32.3742997, "lon": 15.0897567, "tags": {"amenity": "restaurant", "name": "\u0628\u0644\u0646\u0633\u064a\u0627", "name:ar": "\u0628\u0644\u0646\u0633\u064a\u0627"}}, {"type": "node", "id": 5590255122, "lat": 32.3865339, "lon": 15.1192663, "tags": {"amenity": "restaurant", "name": "\u0628\u0642\u0644\u0627\u0648\u0629 \u0627\u0633\u0637\u0646\u0628\u0648\u0644", "name:ar": "\u0628\u0642\u0644\u0627\u0648\u0629 \u0627\u0633\u0637\u0646\u0628\u0648\u0644"}}, {"type": "node", "id": 5646276721, "lat": 32.4040209, "lon": 15.0871632, "tags": {"addr:street": "\u0637\u0631\u064a\u0642 \u062c\u0646\u0627\u062a", "amenity": "cafe", "cuisine": "pancake;donut;tea;breakfast;cake;coffee_shop", "internet_access": "wlan", "name": "\u0643\u0627\u0641\u064a \u0646\u062a", "name:ar": "\u0643\u0627\u0641\u064a \u0646\u062a", "opening_hours": "Mo-Su 07:00-23:55"}}, {"type": "node", "id": 5690791521, "lat": 32.377685, "lon": 15.1028779, "tags": {"addr:housenumber": "0922222930", "amenity": "cafe", "name": "\u062a\u0631\u064a\u0633\u062a\u0627 \u0644\u0644\u0628\u0646", "name:ar": "\u062a\u0631\u064a\u0633\u062a\u0627 \u0644\u0644\u0628\u0646", "name:en": "Trieste Coffe", "operator": "Coffee", "phone": "0919647434"}}, {"type": "node", "id": 5722520921, "lat": 32.3830497, "lon": 15.0953998, "tags": {"amenity": "cafe", "name": "\u0645\u0642\u0647\u0649 \u0641\u062c\u0631 \u0627\u0644\u0623\u0648\u062f\u064a\u0633\u0627", "name:ar": "\u0645\u0642\u0647\u0649 \u0641\u062c\u0631 \u0627\u0644\u0623\u0648\u062f\u064a\u0633\u0627"}}, {"type": "node", "id": 5754128222, "lat": 32.3670028, "lon": 15.0935099, "tags": {"addr:city": "\u0645\u0635\u0631\u0627\u062a\u0629", "addr:city:ar": "\u0645\u0635\u0631\u0627\u062a\u0629", "addr:street": "\u0627\u0644\u0637\u0631\u064a\u0642 \u0627\u0644\u062f\u0627\u0626\u0631\u064a \u0627\u0644\u062b\u0627\u0646\u064a", "addr:street:ar": "\u0627\u0644\u0637\u0631\u064a\u0642 \u0627\u0644\u062f\u0627\u0626\u0631\u064a \u0627\u0644\u062b\u0627\u0646\u064a", "amenity": "cafe", "internet_access": "yes", "internet_access:fee": "yes", "name": "\u0641\u0648\u0631 \u0643\u064a \u0627\u0633\u0628\u0648\u0631", "name:ar": "\u0641\u0648\u0631 \u0643\u064a \u0627\u0633\u0628\u0648\u0631", "name:en": "4Kspor", "opening_hours": "Mo-Su 09:00-22:00"}}, {"type": "node", "id": 5790143553, "lat": 32.3725059, "lon": 15.1434462, "tags": {"addr:street": "\u0627\u0644\u0632\u0651\u064e\u0631\u0651\u064f\u0648\u0642\u0652", "amenity": "restaurant", "cuisine": "sandwich;barbecue;friture", "internet_access": "wlan", "name": "\u0647\u0645 \u0647\u0645", "name:ar": "\u0647\u0645 \u0647\u0645", "name:en": "hum hum", "opening_hours": "Mo-Su 14:00-23:55", "phone": "0922605040"}}, {"type": "node", "id": 5902125509, "lat": 32.3718973, "lon": 15.1425806, "tags": {"addr:city": "\u0645\u0635\u0631\u0627\u062a\u0647", "addr:state": "\u0628\u0644\u062f\u064a\u0629 \u0645\u0635\u0631\u0627\u062a\u0629", "addr:street": "\u0627\u0644\u0637\u0631\u064a\u0642 \u0627\u0644\u062f\u0627\u0626\u0631\u064a \u0627\u0644\u0631\u0627\u0628\u0639", "amenity": "restaurant", "name": "\u0645\u0637\u0639\u0645 \u0648\u062c\u0628\u062a\u064a", "name:ar": "\u0645\u0637\u0639\u0645 \u0648\u062c\u0628\u062a\u064a", "name:en": "My Meal Restaurant"}}, {"type": "node", "id": 5935531887, "lat": 32.4164431, "lon": 14.7914512, "tags": {"addr:street": "\u0627\u0644\u0637\u0631\u064a\u0642 \u0627\u0644\u0633\u0627\u062d\u0644\u0649", "amenity": "restaurant", "name": "\u0627\u0633\u062a\u0631\u0627\u062d\u0629 \u0627\u0644\u0633\u0631\u064a\u0639", "name:ar": "\u0627\u0633\u062a\u0631\u0627\u062d\u0629 \u0627\u0644\u0633\u0631\u064a\u0639", "name:en": "Restaurant Highway"}}, {"type": "node", "id": 5968375487, "lat": 32.3776978, "lon": 15.1479796, "tags": {"amenity": "cafe", "internet_access": "wlan", "name": "\u0645\u0642\u0647\u064a \u0646\u0627\u062f\u064a \u0627\u0644\u0623\u0647\u0644\u064a \u0627\u0644\u0645\u0635\u0631\u0627\u062a\u064a", "name:ar": "\u0645\u0642\u0647\u064a \u0646\u0627\u062f\u064a \u0627\u0644\u0623\u0647\u0644\u064a \u0627\u0644\u0645\u0635\u0631\u0627\u062a\u064a", "opening_hours": "Mo-Su 07:00-23:00", "phone": "0910460056"}}, {"type": "node", "id": 5998182386, "lat": 32.3869594, "lon": 15.093975, "tags": {"addr:street": "\u062c\u0632\u064a\u0631\u0629 \u0627\u0644\u0645\u0646\u0642\u0648\u0634", "amenity": "cafe", "name": "\u0645\u0642\u0647\u0649 \u0648\u0646\u0627\u0633\u0629", "name:ar": "\u0645\u0642\u0647\u0649 \u0648\u0646\u0627\u0633\u0629", "name:en": "Wanasah Cafe", "opening_hours": "Mo-Su 08:00-24:00"}}, {"type": "node", "id": 6016951585, "lat": 32.3268122, "lon": 15.098232, "tags": {"addr:street": "\u0645\u0632\u062f\u0648\u062c \u0642\u0632\u064a\u0631", "amenity": "cafe", "name": "\u0628\u0631\u0648\u0646\u062a\u0648 \u0641\u0627\u0645\u064a\u0644\u064a\u0627", "name:ar": "\u0628\u0631\u0648\u0646\u062a\u0648 \u0641\u0627\u0645\u064a\u0644\u064a\u0627", "name:en": "Bronto familia"}}, {"type": "node", "id": 6045834385, "lat": 32.3692213, "lon": 15.1439951, "tags": {"amenity": "cafe", "name": "\u0645\u0642\u0647\u0649 \u0627\u0644\u0636\u064a\u0627\u0641\u0629", "name:ar": "\u0645\u0642\u0647\u0649 \u0627\u0644\u0636\u064a\u0627\u0641\u0629"}}, {"type": "node", "id": 6128117787, "lat": 32.3824484, "lon": 15.1054374, "tags": {"amenity": "restaurant", "name": "\u062a\u0634\u0627\u0631\u0643\u064a\u0629 \u0627\u0635\u0627\u0644\u0629 \u0644\u0644\u0645\u0646\u0627\u0633\u0628\u0627\u062a", "name:ar": "\u062a\u0634\u0627\u0631\u0643\u064a\u0629 \u0627\u0635\u0627\u0644\u0629 \u0644\u0644\u0645\u0646\u0627\u0633\u0628\u0627\u062a"}}, {"type": "node", "id": 6164403285, "lat": 32.3625532, "lon": 15.0744318, "tags": {"addr:street": "\u0634\u0627\u0631\u0639 \u0637\u0631\u0627\u0628\u0644\u0633", "amenity": "restaurant", "name": "\u0645\u0637\u0639\u0645 \u0634\u0648\u064a\u0647", "name:ar": "\u0634\u0648\u0627\u064a\u0627 \u0633\u062a\u064a\u0643 \u0647\u0627\u0648\u0633", "name:en": "Shwaya steakhouse", "opening_hours": "Mo-Su 10:45-13:00"}}, {"type": "node", "id": 6237999285, "lat": 32.3750657, "lon": 15.084809, "tags": {"amenity": "restaurant", "name": "\u0645\u0637\u0639\u0645 \u0633\u0645\u0631\u0642\u0646\u062f", "name:ar": "\u0645\u0637\u0639\u0645 \u0633\u0645\u0631\u0642\u0646\u062f", "name:en": "Samrkand Restaurant"}}, {"type": "node", "id": 6244823085, "lat": 32.3842924, "lon": 15.0448721, "tags": {"amenity": "cafe", "name": "\u0627\u0644\u0645\u0644\u0627\u0639\u0628", "name:ar": "\u0627\u0644\u0645\u0644\u0627\u0639\u0628"}}, {"type": "node", "id": 6255364186, "lat": 32.3562143, "lon": 15.0780402, "tags": {"addr:street": "\u0634\u0627\u0631\u0639 \u0627\u0644\u0632\u0648\u0627\u0628\u064a", "amenity": "cafe", "internet_access": "wlan", "name": "\u0642\u0631\u0627\u0646\u062f \u0643\u0641\u064a", "name:ar": "\u0642\u0631\u0627\u0646\u062f \u0643\u0641\u064a", "name:en": "GRAND CAFE"}}, {"type": "node", "id": 6300927586, "lat": 32.3750465, "lon": 15.082037, "tags": {"amenity": "restaurant", "name": "\u0645\u0637\u0639\u0645 \u0641\u0642\u0639 -\u0627\u0633\u0639\u0627\u0631\u0647 \u0643\u0648\u064a\u0633\u0627", "name:ar": "\u0645\u0637\u0639\u0645 \u0641\u0642\u0639 -\u0627\u0633\u0639\u0627\u0631\u0647 \u0643\u0648\u064a\u0633\u0627"}}, {"type": "node", "id": 6347426087, "lat": 32.374015, "lon": 15.0872092, "tags": {"addr:housenumber": "0945814000", "amenity": "restaurant", "name": "\u062a\u0648\u0631\u064a\u0646\u0648", "name:ar": "\u062a\u0648\u0631\u064a\u0646\u0648", "name:en": "toreno", "phone": "0945814000"}}, {"type": "node", "id": 6372916188, "lat": 32.3871574, "lon": 15.0454345, "tags": {"amenity": "restaurant", "name": "\u0627\u0644\u0645\u062d\u064a\u0634\u064a \u0644\u0644\u0645\u0634\u0627\u0648\u064a \u0627\u0644\u0633\u0631\u064a\u0639\u0629 \u0648\u0627\u0644\u0648\u062c\u0628\u0627\u062a \u0627\u0644\u062e\u0641\u064a\u0641\u0629", "name:ar": "\u0627\u0644\u0645\u062d\u064a\u0634\u064a \u0644\u0644\u0645\u0634\u0627\u0648\u064a \u0627\u0644\u0633\u0631\u064a\u0639\u0629 \u0648\u0627\u0644\u0648\u062c\u0628\u0627\u062a \u0627\u0644\u062e\u0641\u064a\u0641\u0629", "opening_hours": "Mo-Su 09:00-23:55"}}, {"type": "node", "id": 6412669372, "lat": 32.3694689, "lon": 15.0926406, "tags": {"addr:street": "\u0634\u0627\u0631\u0639 \u0628\u0646\u063a\u0627\u0632\u064a", "amenity": "cafe", "name": "I play"}}, {"type": "node", "id": 6440856885, "lat": 32.3750336, "lon": 15.1336614, "tags": {"addr:street": "\u0637\u0631\u064a\u0642 \u0642\u0635\u0631 \u0623\u062d\u0645\u062f Gaser Ahmed Road", "amenity": "cafe", "cuisine": "donut;pancake;coffee_shop", "internet_access": "wlan", "name": "\u0627\u0644\u0623\u0646\u0633", "name:ar": "\u0627\u0644\u0623\u0646\u0633", "name:en": "Alons"}}, {"type": "node", "id": 6705447285, "lat": 32.3574214, "lon": 15.0616361, "tags": {"amenity": "restaurant", "name": "\u0628\u0627\u0628 \u0627\u0644\u0628\u062d\u0631", "name:ar": "\u0628\u0627\u0628 \u0627\u0644\u0628\u062d\u0631"}}, {"type": "node", "id": 6806448392, "lat": 32.3629108, "lon": 15.1367309, "tags": {"addr:street": "Fourth Ring Road \u0627\u0644\u0637\u0631\u064a\u0642 \u0627\u0644\u062f\u0627\u0626\u0631\u064a \u0627\u0644\u0631\u0627\u0628\u0639", "amenity": "restaurant", "cuisine": "pizza", "name": "\u0627\u0644\u0628\u064a\u0643 \u0644\u0644\u0628\u064a\u062a\u0632\u0627 \u0648\u0627\u0644\u062d\u0644\u0648\u064a\u0627\u062a", "name:ar": "\u0627\u0644\u0628\u064a\u0643 \u0644\u0644\u0628\u064a\u062a\u0632\u0627 \u0648\u0627\u0644\u062d\u0644\u0648\u064a\u0627\u062a", "opening_hours": "Sa-Th 13:05-23:55; Fr 17:00-23:55", "phone": "0917388775"}}, {"type": "node", "id": 6872307986, "lat": 32.3646325, "lon": 15.0931133, "tags": {"amenity": "cafe"}}, {"type": "node", "id": 6952725885, "lat": 32.3567084, "lon": 15.0578314, "tags": {"amenity": "restaurant", "name": "\u0628\u0627\u0628 \u0627\u0644\u063a\u0631\u0628", "name:ar": "\u0628\u0627\u0628 \u0627\u0644\u063a\u0631\u0628"}}, {"type": "node", "id": 7040448385, "lat": 32.3767286, "lon": 15.0851431, "tags": {"addr:postcode": "00218512", "addr:street": "\u0631\u064e\u0627\u0633\u0652 \u0639\u064e\u0645\u0651\u064e\u0627\u0631\u0652", "amenity": "cafe", "cuisine": "local;donut;pancake;cake;deli;tea;breakfast;crepe;coffee_shop", "internet_access": "wlan", "name": "\u0643\u0631\u0645 \u0643\u0627\u0641\u064a", "name:ar": "\u0643\u0631\u0645 \u0643\u0627\u0641\u064a", "name:en": "caram cafe", "opening_hours": "Sa-Th 08:00-22:00; Fr 16:00-22:00", "phone": "+21892-6310202", "website": "https://www.facebook.com/919500711508051"}}, {"type": "node", "id": 7056624085, "lat": 32.3834476, "lon": 15.112112, "tags": {"addr:street": "Third Ring Road \u0627\u0644\u0637\u0631\u064a\u0642 \u0627\u0644\u062f\u0627\u0626\u0631\u064a \u0627\u0644\u062b\u0627\u0644\u062b", "amenity": "cafe", "cuisine": "deli;donut;pancake;burger;pizza;sandwich;tea;breakfast;cake;crepe;coffee_shop", "internet_access": "wlan", "name": "\u0627\u0644\u0639\u0645\u062f\u0647", "name:ar": "\u0627\u0644\u0639\u0645\u062f\u0647", "name:en": "Alomda caffe", "opening_hours": "Mo-Su 09:00-23:00"}}, {"type": "node", "id": 7106669889, "lat": 32.4023544, "lon": 15.0376451, "tags": {"amenity": "restaurant"}}, {"type": "node", "id": 7151724887, "lat": 32.341779, "lon": 15.0282119, "tags": {"addr:street": "\u0627\u0644\u063a\u064a\u0631\u0627\u0646", "amenity": "cafe", "name": "\u0628\u0631\u0646\u062a\u0648", "name:ar": "\u0646\u0627\u0628\u0648\u0644\u064a", "name:en": "NAPOLI CAFE"}}, {"type": "node", "id": 7308984685, "lat": 32.3932454, "lon": 14.9751209, "tags": {"amenity": "restaurant", "name": "\u0645\u0637\u0639\u0645 \u0648\u0645\u0642\u0647\u0649 TCOSTA", "name:ar": "\u0645\u0637\u0639\u0645 \u0648\u0645\u0642\u0647\u0649 TCOSTA", "name:en": "TCOSTA"}}, {"type": "node", "id": 7685488885, "lat": 32.3684242, "lon": 15.0911907, "tags": {"addr:street": "\u0634\u0627\u0631\u0639 \u0643\u0644\u064a\u0629 \u0627\u0644\u0623\u062f\u0627\u0628 \u0645\u0642\u0627\u0628\u0644 \u0645\u062f\u0631\u0633\u0629 \u0627\u0644\u0643\u0631\u0627\u0645\u0629", "amenity": "restaurant", "name": "\u0645\u0637\u0639\u0645 \u0639\u0628\u0633\u064a", "name:ar": "\u0645\u0637\u0639\u0645 \u0639\u0628\u0633\u064a", "phone": "0944680102"}}, {"type": "node", "id": 7732255688, "lat": 32.3884374, "lon": 15.0718832, "tags": {"amenity": "restaurant"}}, {"type": "node", "id": 8220730102, "lat": 32.3683826, "lon": 15.0994381, "tags": {"addr:city": "\u0645\u0635\u0631\u0627\u062a\u0629", "addr:housenumber": "379154", "addr:street": "\u0627\u0644\u0647\u0644\u0627\u0644", "amenity": "cafe", "name": "\u0643\u0627\u0641\u064a \u0634\u0648\u0628"}}, {"type": "node", "id": 8363582417, "lat": 32.4039576, "lon": 15.0337069, "tags": {"addr:street": "\u0645\u0642\u0627\u0628\u0644 \u062c\u0627\u0645\u0639 \u0632\u064a\u062f \u0627\u0628\u0646 \u062d\u0627\u0631\u062b\u0629", "amenity": "cafe", "name": "\u0645\u0642\u0647\u0649 \u0627\u0644\u0631\u064a\u0627\u0646"}}, {"type": "node", "id": 8393492818, "lat": 32.3707208, "lon": 15.1005758, "tags": {"amenity": "restaurant"}}, {"type": "node", "id": 8393538017, "lat": 32.3709113, "lon": 15.1006753, "tags": {"addr:street": "\u0634\u0627\u0631\u0639 \u0627\u0644\u0647\u0644\u0627\u0644", "amenity": "restaurant", "cuisine": "friture;pizza", "name": "\u0628\u064a\u062a \u0627\u0644\u0642\u0631\u0645\u0634\u0629", "name:en": "crunch home", "opening_hours": "Sa-Th 08:30-23:30; Fr 00:00-24:00", "phone": "0944666860"}}, {"type": "node", "id": 8713478617, "lat": 32.3503704, "lon": 15.090319, "tags": {"addr:street": "\u0627\u0644\u0637\u0631\u064a\u0642 \u0627\u0644\u062f\u0627\u0626\u0631\u064a \u0627\u0644\u0631\u0627\u0628\u0639", "amenity": "cafe", "cuisine": "breakfast;coffee_shop;deli;donut;ice_cream;pancake", "internet_access": "wlan", "name": "\u0645\u0642\u0647\u0649 \u0633\u0648 \u0628\u0631\u064a\u062a\u0634", "name:en": "so british cafe"}}, {"type": "node", "id": 8773278817, "lat": 32.373109, "lon": 15.0888907, "tags": {"addr:street": "\u0634\u0627\u0631\u0639 \u0631\u0645\u0636\u0627\u0646 \u0627\u0644\u0633\u0648\u064a\u062d\u0644\u064a Ramadan Swihle St.", "amenity": "restaurant", "cuisine": "chicken;friture;grill;sandwich", "name": "\u0645\u0637\u0639\u0645 \u0627\u0644\u0645\u0646\u0633\u0641", "opening_hours": "Mo-Su 10:00-23:00", "phone": "0927607192", "website": "https://www.facebook.com/MANSEF.MUSRATA/"}}, {"type": "node", "id": 8826048717, "lat": 32.3700163, "lon": 15.0931348, "tags": {"addr:street": "\u0634\u0627\u0631\u0639 \u0643\u0644\u064a\u0629 \u0627\u0644\u0627\u062f\u0627\u0628", "amenity": "cafe", "cuisine": "breakfast;cake;coffee_shop;crepe;donut;ice_cream;pancake", "name": "\u0645\u0627\u0641\u064a\u0646\u0649", "name:ar": "\u0643\u0627\u0641\u064a\u0646\u0648", "name:en": "CAF EINO", "opening_hours": "Mo-Su 00:00-08:00", "website": "https://www.facebook.com/cafeino.ly/"}}, {"type": "node", "id": 8880088917, "lat": 32.3524314, "lon": 15.0996866, "tags": {"amenity": "restaurant", "name": "\u0627\u0646\u0642\u0631\u0629 \u0644\u0644\u0645\u0623\u0643\u0648\u0644\u0627\u062a \u0627\u0644\u062a\u0631\u0643\u064a\u0629"}}, {"type": "node", "id": 8880089117, "lat": 32.3758259, "lon": 15.0739388, "tags": {"amenity": "cafe", "name": "\u0643\u064a\u0646\u062c"}}, {"type": "node", "id": 9057478417, "lat": 32.3537172, "lon": 15.0915167, "tags": {"addr:street": "\u0645\u062c\u0645\u0639 \u0669 \u064a\u0648\u0644\u064a\u0648", "amenity": "cafe", "internet_access": "wlan", "name": "\u0645\u0642\u0647\u0649 \u0627\u0644\u0636\u064a\u0627\u0641\u0647", "opening_hours": "Mo-Su 09:00-00:00"}}, {"type": "node", "id": 9301298895, "lat": 32.346931, "lon": 15.0771066, "tags": {"amenity": "cafe", "name": "Shnaboo Cafe"}}, {"type": "node", "id": 9722317417, "lat": 32.3649038, "lon": 15.0810141, "tags": {"addr:street": "\u0627\u0644\u0637\u0631\u064a\u0642 \u0627\u0644\u062f\u0627\u0626\u0631\u064a \u0627\u0644\u062b\u0627\u0644\u062b", "amenity": "restaurant", "cuisine": "arab;turkish", "name": "\u0645\u0637\u0639\u0645 \u0628\u0631\u064a\u0633\u062a\u064a\u062c", "name:en": "Prestige Restaurant", "opening_hours": "24/7", "phone": "+218 92 422 1593"}}, {"type": "node", "id": 9822390717, "lat": 32.3351257, "lon": 15.1041358, "tags": {"addr:street": "\u0642\u0631\u0628 \u0633\u064a\u0645\u0627\u0641\u0631\u0648 \u0643\u0631\u0632\u0627\u0632", "amenity": "cafe", "name": "\u0645\u0642\u0647\u0649 \u0633\u0644\u0645\u0627\u0646", "name:en": "Cafe salman"}}, {"type": "node", "id": 10276622852, "lat": 32.40402, "lon": 15.0337853, "tags": {"amenity": "restaurant", "name": "\u0645\u0637\u0639\u0645 \u0627\u0644\u0631\u064a\u0627\u0646"}}, {"type": "node", "id": 10723013906, "lat": 32.3375561, "lon": 15.0917163, "tags": {"amenity": "cafe", "name": "\u062a\u0631\u0648\u0628\u064a\u0646\u0647 \u0643\u0627\u0641\u064a"}}, {"type": "way", "id": 377967106, "nodes": [3813738357, 3813738358, 3813738359, 3813738360, 3813738357], "tags": {"addr:street": "\u0634\u0627\u0631\u0639 \u0627\u0644\u0639\u064f\u0645\u0651\u064e\u0627\u0644\u0652", "amenity": "restaurant", "name": "\u0645\u0637\u0639\u0645 \u0628\u0646 \u0635\u0644\u0627\u062d \u0644\u0644\u0645\u0623\u0643\u0648\u0644\u0627\u062a \u0627\u0644\u0634\u0639\u0628\u064a\u0629", "name:ar": "\u0645\u0637\u0639\u0645 \u0628\u0646 \u0635\u0644\u0627\u062d \u0644\u0644\u0645\u0623\u0643\u0648\u0644\u0627\u062a \u0627\u0644\u0634\u0639\u0628\u064a\u0629", "opening_hours": "12:00-15:00"}}]}