{"version": 0.6, "generator": "Overpass API 0.7.62.7 375dc00a", "osm3s": {"timestamp_osm_base": "2025-06-14T15:11:00Z", "copyright": "The data included in this document is from www.openstreetmap.org. The data is made available under ODbL."}, "elements": [{"type": "node", "id": 377951525, "lat": 22.337842, "lon": 31.6239066, "tags": {"addr:city": "\u0623\u0628\u0648 \u0633\u0645\u0628\u0644", "amenity": "cafe", "name": "Nefertari"}}, {"type": "node", "id": 11540360920, "lat": 22.3458222, "lon": 31.6144324, "tags": {"amenity": "restaurant", "cuisine": "fish", "name": "Elmodesh restaurant"}}, {"type": "node", "id": 11540360921, "lat": 22.3456832, "lon": 31.6143286, "tags": {"amenity": "restaurant", "name": "Pharaos Restaurant"}}, {"type": "node", "id": 11540360929, "lat": 22.3456272, "lon": 31.6152878, "tags": {"amenity": "cafe"}}, {"type": "node", "id": 11540360938, "lat": 22.344942, "lon": 31.6148055, "tags": {"amenity": "restaurant", "name": "New Abou Simbel Restaurant"}}, {"type": "node", "id": 12189856476, "lat": 22.3384104, "lon": 31.6142166, "tags": {"amenity": "restaurant", "name": "Toshka", "source": "survey"}}, {"type": "node", "id": 12189856481, "lat": 22.3468446, "lon": 31.6185243, "tags": {"amenity": "restaurant", "name": "Kabbara", "phone": "0127 47 07 770", "source": "survey"}}]}