{"version": 0.6, "generator": "Overpass API 0.7.62.7 375dc00a", "osm3s": {"timestamp_osm_base": "2025-06-14T14:36:09Z", "copyright": "The data included in this document is from www.openstreetmap.org. The data is made available under ODbL."}, "elements": [{"type": "node", "id": 623284623, "lat": 42.9153156, "lon": 21.1912027, "tags": {"amenity": "cafe", "internet_access": "yes", "internet_access:fee": "no", "name": "Sky Cafe"}}, {"type": "node", "id": 2198175605, "lat": 43.0430294, "lon": 21.409269, "tags": {"amenity": "restaurant", "int_name": "Krcma Boziji raj", "name": "\u041a\u0440\u0447\u043c\u0430 \u0411\u043e\u0436\u0438\u0458\u0438 \u0440\u0430\u0458", "name:sr": "\u041a\u0440\u0447\u043c\u0430 \u0411\u043e\u0436\u0438\u0458\u0438 \u0440\u0430\u0458", "name:sr-Latn": "Kr\u010dma Bo\u017eiji raj"}}, {"type": "node", "id": 2198184795, "lat": 42.9888276, "lon": 21.3949461, "tags": {"amenity": "restaurant"}}, {"type": "node", "id": 2520283425, "lat": 42.8563898, "lon": 20.9327238, "tags": {"amenity": "cafe", "internet_access": "wlan", "name": "Cafe \"Te Baci\"", "phone": "+38349412325"}}, {"type": "node", "id": 2583709127, "lat": 42.816618, "lon": 21.3381859, "tags": {"amenity": "restaurant", "name": "Restaurant Mileniumi i Ri"}}, {"type": "node", "id": 3898825486, "lat": 42.8228818, "lon": 20.9598471}, {"type": "node", "id": 3898825487, "lat": 42.8228514, "lon": 20.9598095}, {"type": "node", "id": 3898825488, "lat": 42.8228268, "lon": 20.9598431}, {"type": "node", "id": 3898825489, "lat": 42.82281, "lon": 20.9598229}, {"type": "node", "id": 3898825490, "lat": 42.8227982, "lon": 20.9598551}, {"type": "node", "id": 3898825491, "lat": 42.8227648, "lon": 20.9598484}, {"type": "node", "id": 3898825492, "lat": 42.8227323, "lon": 20.9598404}, {"type": "node", "id": 3898825493, "lat": 42.8227127, "lon": 20.9600536}, {"type": "node", "id": 3898825494, "lat": 42.8227589, "lon": 20.9600563}, {"type": "node", "id": 3898825495, "lat": 42.8227618, "lon": 20.9601569}, {"type": "node", "id": 3898825496, "lat": 42.8227933, "lon": 20.9601502}, {"type": "node", "id": 3898825497, "lat": 42.8228405, "lon": 20.9601005}, {"type": "node", "id": 3898825498, "lat": 42.822872, "lon": 20.9600402}, {"type": "node", "id": 3898825499, "lat": 42.8228818, "lon": 20.9599919}, {"type": "node", "id": 3898825500, "lat": 42.8228838, "lon": 20.9599128}, {"type": "node", "id": 3898825501, "lat": 42.8228573, "lon": 20.9598632}, {"type": "node", "id": 3898825505, "lat": 42.8227224, "lon": 20.9599485}, {"type": "node", "id": 4316651994, "lat": 42.864223, "lon": 21.1842808, "tags": {"amenity": "restaurant", "name": "Qypolli", "name:en": "Restaurant QYPOLLI", "name:sq": "Restaurant QYPOLLI"}}, {"type": "node", "id": 4316656791, "lat": 42.8866149, "lon": 21.1822333, "tags": {"amenity": "restaurant", "name": "Restaurant Nobel"}}, {"type": "node", "id": 4316662589, "lat": 42.8871599, "lon": 21.1810288, "tags": {"amenity": "restaurant", "name": "Qershiat"}}, {"type": "node", "id": 4336629091, "lat": 42.8932961, "lon": 21.1353118, "tags": {"amenity": "restaurant", "internet_access": "wlan", "name": "Restaurant Lugu"}}, {"type": "node", "id": 4410495196, "lat": 42.8218425, "lon": 20.9701035, "tags": {"amenity": "cafe", "name": "Gusto Coffee and Sweets", "name:en": "Gusto Coffee and Sweets", "name:sq": "Gusto Coffee and Sweets"}}, {"type": "node", "id": 4410495390, "lat": 42.8222722, "lon": 20.9682696, "tags": {"amenity": "cafe", "name": "Morena Smile Group", "name:en": "Morena Smile Group", "name:sq": "Morena Smile Group"}}, {"type": "node", "id": 4594503933, "lat": 42.8212059, "lon": 20.9637468, "tags": {"amenity": "restaurant", "name": "Te Shaqa"}}, {"type": "node", "id": 4607895217, "lat": 42.959214, "lon": 21.0039748, "tags": {"amenity": "restaurant", "name": "Restaurant \"Kodra\""}}, {"type": "node", "id": 4620811129, "lat": 42.8179115, "lon": 21.3259164, "tags": {"amenity": "restaurant", "name": "Restaurant Liqeni"}}, {"type": "node", "id": 4653451694, "lat": 42.8225465, "lon": 20.9682639, "tags": {"amenity": "cafe", "name": "Coco Coffee"}}, {"type": "node", "id": 4663427700, "lat": 42.822283, "lon": 20.968914, "tags": {"addr:city": "Vushtrri", "addr:postcode": "42000", "addr:street": "Pandeli Sotiri", "amenity": "restaurant", "name": "Pizza Passion", "opening_hours": "Mo-Su 09:00-21:00"}}, {"type": "node", "id": 4663427701, "lat": 42.8222062, "lon": 20.9690881, "tags": {"addr:city": "Vushtrri", "addr:postcode": "42000", "addr:street": "Pandeli Sotiri", "amenity": "cafe", "name": "Irish Pub", "opening_hours": "Mo-Su 09:00-21:00"}}, {"type": "node", "id": 4663427703, "lat": 42.8218323, "lon": 20.9687967, "tags": {"amenity": "cafe", "name": "D ORO Caffe"}}, {"type": "node", "id": 4663427706, "lat": 42.8211881, "lon": 20.9704877, "tags": {"amenity": "restaurant", "name": "Romansa"}}, {"type": "node", "id": 4716660746, "lat": 42.8235811, "lon": 20.9564963}, {"type": "node", "id": 4716660747, "lat": 42.8234364, "lon": 20.9565551}, {"type": "node", "id": 4751103740, "lat": 42.9107102, "lon": 21.1908944, "tags": {"amenity": "restaurant", "name": "Parku"}}, {"type": "node", "id": 4751103741, "lat": 42.9105609, "lon": 21.1908078, "tags": {"amenity": "cafe", "name": "Centrum"}}, {"type": "node", "id": 4751103755, "lat": 42.9110131, "lon": 21.189687, "tags": {"amenity": "cafe", "name": "Hookah House"}}, {"type": "node", "id": 4751103762, "lat": 42.9078852, "lon": 21.1927291, "tags": {"addr:city": "Podujev\u00eb", "addr:postcode": "11000", "addr:street": "Deshmoret e Kombit Boulevard", "amenity": "cafe", "internet_access": "yes", "internet_access:fee": "customers", "name": "Pranvera"}}, {"type": "node", "id": 4985215455, "lat": 42.8191076, "lon": 21.3227314}, {"type": "node", "id": 4985215456, "lat": 42.8189637, "lon": 21.3227711}, {"type": "node", "id": 4985215457, "lat": 42.8189346, "lon": 21.322596}, {"type": "node", "id": 4985215458, "lat": 42.8191042, "lon": 21.3225213}, {"type": "node", "id": 4985215459, "lat": 42.819135, "lon": 21.3226567}, {"type": "node", "id": 4985215460, "lat": 42.8191042, "lon": 21.322673}, {"type": "node", "id": 4986968025, "lat": 42.8223131, "lon": 20.968576, "tags": {"addr:housenumber": "57", "addr:postcode": "42000", "addr:street": "Pandeli Sotiri", "amenity": "cafe", "name": "HOT Caffe", "name:sq": "HOT Caffe"}}, {"type": "node", "id": 4995086372, "lat": 42.8233525, "lon": 20.9633681, "tags": {"amenity": "restaurant"}}, {"type": "node", "id": 4999872898, "lat": 42.8235147, "lon": 20.9561855}, {"type": "node", "id": 4999872899, "lat": 42.8233672, "lon": 20.9563498}, {"type": "node", "id": 4999872907, "lat": 42.8233901, "lon": 20.9646278, "tags": {"amenity": "cafe", "cuisine": "turkish_tea", "name": "Cajtore", "outdoor_seating": "yes", "smoking": "outside"}}, {"type": "node", "id": 5082467121, "lat": 42.8208277, "lon": 20.963518, "tags": {"addr:city": "Vushtrri", "addr:housenumber": "22", "addr:street": "Zenullah Begu", "amenity": "restaurant", "name": "Te Ilka", "opening_hours": "Mo-Su 07:00-22:00", "phone": "+38349587537", "website": "https://m.facebook.com/1533649726867517/"}}, {"type": "node", "id": 5132915722, "lat": 42.8217537, "lon": 20.9683128, "tags": {"addr:city": "Boulevardi Adem Jashari", "addr:postcode": "42000", "amenity": "cafe", "name": "SIMPLE"}}, {"type": "node", "id": 5294330324, "lat": 42.8219423, "lon": 20.9691495, "tags": {"addr:postcode": "42000", "addr:street": "pandeli sotiri", "amenity": "cafe", "internet_access": "wlan", "name": "Irish bub", "name:sq": "Irish bub", "opening_hours": "Mo-Su 07:00-12:00", "phone": "+38344208208"}}, {"type": "node", "id": 5331054021, "lat": 42.8220399, "lon": 20.9692936, "tags": {"addr:postcode": "420000", "addr:street": "Pandeli Sotiri", "amenity": "cafe", "internet_access": "wlan", "name": "IrishPUB", "opening_hours": "Mo-Su 07:00-00:00", "phone": "+38344208208"}}, {"type": "node", "id": 5552497893, "lat": 42.8224873, "lon": 20.9655446}, {"type": "node", "id": 5552497894, "lat": 42.8225227, "lon": 20.9655849}, {"type": "node", "id": 5552497895, "lat": 42.8224735, "lon": 20.9656787}, {"type": "node", "id": 5552497896, "lat": 42.8224892, "lon": 20.9657002}, {"type": "node", "id": 5552497897, "lat": 42.8224223, "lon": 20.9658209}, {"type": "node", "id": 5552497898, "lat": 42.8223397, "lon": 20.9657458}, {"type": "node", "id": 5552497899, "lat": 42.8224125, "lon": 20.9656197}, {"type": "node", "id": 5552497900, "lat": 42.8224322, "lon": 20.9656412}, {"type": "node", "id": 5776518460, "lat": 42.8223751, "lon": 20.9634721}, {"type": "node", "id": 5776518461, "lat": 42.822217, "lon": 20.9634644}, {"type": "node", "id": 5776518462, "lat": 42.8222129, "lon": 20.9636224}, {"type": "node", "id": 5776518463, "lat": 42.8223709, "lon": 20.9636301}, {"type": "node", "id": 5813433153, "lat": 42.8489331, "lon": 21.1826348, "tags": {"addr:street": "M25", "amenity": "restaurant", "name": "Zeka Restaurant"}}, {"type": "node", "id": 5836744028, "lat": 42.9256853, "lon": 21.2314775, "tags": {"amenity": "restaurant", "name": "ORA"}}, {"type": "node", "id": 5837795012, "lat": 42.9361259, "lon": 21.2369203, "tags": {"amenity": "restaurant", "name": "TROYAN Centar"}}, {"type": "node", "id": 5838315022, "lat": 42.9356656, "lon": 21.2388425, "tags": {"amenity": "restaurant", "name": "Restaurant - Pizzeri Metropol"}}, {"type": "node", "id": 6383091387, "lat": 42.8944999, "lon": 21.1738504, "tags": {"amenity": "restaurant", "name": "Artela"}}, {"type": "node", "id": 6399305495, "lat": 42.8903247, "lon": 21.0282814}, {"type": "node", "id": 6399305496, "lat": 42.8903316, "lon": 21.0284299}, {"type": "node", "id": 6399305497, "lat": 42.8902696, "lon": 21.0284457}, {"type": "node", "id": 6399305498, "lat": 42.8902753, "lon": 21.0284876}, {"type": "node", "id": 6399305499, "lat": 42.8900765, "lon": 21.0285384}, {"type": "node", "id": 6399305500, "lat": 42.8900555, "lon": 21.0283846}, {"type": "node", "id": 6399305501, "lat": 42.8902028, "lon": 21.0283605}, {"type": "node", "id": 6399305502, "lat": 42.8901969, "lon": 21.028309}, {"type": "node", "id": 6399305503, "lat": 42.8903451, "lon": 21.0279085}, {"type": "node", "id": 6399305504, "lat": 42.8902785, "lon": 21.0279165}, {"type": "node", "id": 6399305505, "lat": 42.8902726, "lon": 21.0278253}, {"type": "node", "id": 6399305506, "lat": 42.8903392, "lon": 21.0278172}, {"type": "node", "id": 6399305507, "lat": 42.890341, "lon": 21.0279402}, {"type": "node", "id": 6399305508, "lat": 42.8903115, "lon": 21.027951}, {"type": "node", "id": 6399305509, "lat": 42.8903004, "lon": 21.0280717}, {"type": "node", "id": 6399305510, "lat": 42.8900325, "lon": 21.0283972}, {"type": "node", "id": 6399305511, "lat": 42.8900044, "lon": 21.028155}, {"type": "node", "id": 6399305512, "lat": 42.8900305, "lon": 21.0281494}, {"type": "node", "id": 6399305514, "lat": 42.8900686, "lon": 21.0280482}, {"type": "node", "id": 6399305515, "lat": 42.8900601, "lon": 21.0280241}, {"type": "node", "id": 6443179985, "lat": 42.9778508, "lon": 21.3827796, "tags": {"amenity": "restaurant", "cuisine": "balkan", "int_name": "Etno krcma \"Dva ambara\"", "name": "\u0415\u0442\u043d\u043e \u043a\u0440\u0447\u043c\u0430 \"\u0414\u0432\u0430 \u0430\u043c\u0431\u0430\u0440\u0430\"", "name:ru": "\u042d\u0442\u043d\u043e-\u043a\u043e\u0440\u0447\u043c\u0430 \"\u0414\u0432\u0430 \u0430\u043c\u0431\u0430\u0440\u0430\"", "opening_hours": "Mo-Su 10:00-19:00"}}, {"type": "node", "id": 6606019885, "lat": 42.9102571, "lon": 21.2180759, "tags": {"amenity": "restaurant", "name": "Restaurant Europa"}}, {"type": "node", "id": 6625017409, "lat": 42.9040779, "lon": 21.1938091, "tags": {"addr:city": "Podujev\u00eb", "addr:postcode": "11000", "addr:street": "Zahir Pajaziti", "amenity": "restaurant", "name": "Rolls Pizza"}}, {"type": "node", "id": 6985701130, "lat": 42.9106872, "lon": 21.1896387, "tags": {"amenity": "cafe", "name": "Time out"}}, {"type": "node", "id": 6985701131, "lat": 42.9107718, "lon": 21.1894573, "tags": {"amenity": "cafe", "name": "Caffe bar Charlie"}}, {"type": "node", "id": 6985731356, "lat": 42.9014028, "lon": 21.195053, "tags": {"addr:city": "Podujev\u00eb", "addr:postcode": "11000", "addr:street": "Zahir Pajaziti", "amenity": "cafe", "name": "Caffe bar KRON"}}, {"type": "node", "id": 6988480550, "lat": 42.8804298, "lon": 21.1820617, "tags": {"amenity": "restaurant", "name": "Alb-Petrol"}}, {"type": "node", "id": 7086827585, "lat": 42.8216827, "lon": 20.9700163, "tags": {"addr:street": "Adem Jashari", "amenity": "cafe", "internet_access": "wlan", "name": "Mondo", "name:en": "Mondo", "opening_hours": "Mo-Su 08:00-23:00"}}, {"type": "node", "id": 7340191651, "lat": 42.8217583, "lon": 20.9676463, "tags": {"addr:housenumber": "64", "addr:street": "Adem Jashari"}}, {"type": "node", "id": 7342793112, "lat": 42.8574276, "lon": 20.9299104, "tags": {"addr:housenumber": "3", "addr:street": "Mahmut Berisha", "amenity": "restaurant", "name": "Mama Mia"}}, {"type": "node", "id": 7342890224, "lat": 42.9115151, "lon": 21.1911447, "tags": {"addr:housenumber": "17", "addr:street": "Ilir Konushevci", "amenity": "cafe", "name": "Caffe Bar RROTA"}}, {"type": "node", "id": 7343689787, "lat": 42.8234262, "lon": 20.9643082, "tags": {"addr:housenumber": "9", "addr:street": "Ruzhdi Hyseni"}}, {"type": "node", "id": 7343767455, "lat": 42.8917567, "lon": 21.1828994, "tags": {"addr:housenumber": "78", "addr:street": "Sk\u00ebnderbeu", "amenity": "cafe", "name": "Caffe BAR TIANI"}}, {"type": "node", "id": 7344162051, "lat": 42.8230043, "lon": 20.9659845, "tags": {"addr:housenumber": "16", "addr:street": "Xhevat Jusufi"}}, {"type": "node", "id": 7344259363, "lat": 42.9037801, "lon": 21.1938772, "tags": {"addr:city": "Podujev\u00eb", "addr:housenumber": "328", "addr:postcode": "11000", "addr:street": "Zahir Pajaziti", "amenity": "cafe", "cuisine": "coffee_shop", "internet_access": "yes", "internet_access:fee": "no", "level": "1", "name": "Rolex Caffe", "opening_hours": "Mo-Su 08:00-23:00", "outdoor_seating": "yes"}}, {"type": "node", "id": 7344259510, "lat": 42.9073457, "lon": 21.1925902, "tags": {"addr:city": "Podujev\u00eb", "addr:housenumber": "124", "addr:postcode": "11000", "addr:street": "Zahir Pajaziti", "amenity": "cafe", "bar": "yes", "internet_access": "yes", "name": "Cafe Eli", "opening_hours": "Mo-Su 07:00-23:00"}}, {"type": "node", "id": 7417089763, "lat": 42.8453373, "lon": 20.9882616}, {"type": "node", "id": 7417089765, "lat": 42.8452356, "lon": 20.9880085}, {"type": "node", "id": 7566059786, "lat": 42.8239211, "lon": 20.9686455, "tags": {"amenity": "cafe", "name": "one click"}}, {"type": "node", "id": 7913942685, "lat": 42.8517152, "lon": 21.1826985, "tags": {"addr:street": "Gryka e Llapit", "amenity": "restaurant", "cuisine": "burger;coffee_shop;sandwich;regional;ice_cream;kebab", "name": "Restaurant A1"}}, {"type": "node", "id": 7918164185, "lat": 42.9105496, "lon": 21.1897874, "tags": {"amenity": "cafe", "name": "Prive"}}, {"type": "node", "id": 7918164285, "lat": 42.9104307, "lon": 21.1899631, "tags": {"amenity": "cafe", "name": "Passion"}}, {"type": "node", "id": 7918164385, "lat": 42.9103472, "lon": 21.1901139, "tags": {"amenity": "cafe", "name": "Corner Bar"}}, {"type": "node", "id": 8132841158, "lat": 42.8870008, "lon": 21.1819464}, {"type": "node", "id": 8132841159, "lat": 42.8870144, "lon": 21.1822122}, {"type": "node", "id": 8132841160, "lat": 42.8864991, "lon": 21.1822553}, {"type": "node", "id": 8132841161, "lat": 42.8864826, "lon": 21.1819976}, {"type": "node", "id": 8293378639, "lat": 42.9078129, "lon": 21.1923166, "tags": {"addr:city": "Podujevo", "addr:postcode": "11000", "addr:street": "Deshmoret e Kombit Boulevard", "air_conditioning": "yes", "amenity": "cafe", "bar": "yes", "cuisine": "coffee_shop", "delivery": "yes", "internet_access": "yes", "internet_access:fee": "no", "name": "KOHA", "opening_hours": "Mo-Sa 08:00-20:00", "outdoor_seating": "no"}}, {"type": "node", "id": 8293415057, "lat": 42.9083018, "lon": 21.1912727, "tags": {"amenity": "cafe", "name": "BAMBOO SHISHA BAR", "outdoor_seating": "yes"}}, {"type": "node", "id": 8293441792, "lat": 42.9082259, "lon": 21.192172, "tags": {"addr:city": "Podujev\u00eb", "addr:postcode": "11000", "addr:street": "Deshmoret e Kombit Boulevard", "amenity": "cafe", "internet_access": "yes", "name": "Baroon", "opening_hours": "Mo-Su 09:00-21:00"}}, {"type": "node", "id": 8541402784, "lat": 42.8184122, "lon": 20.9819041}, {"type": "node", "id": 8541402785, "lat": 42.8183598, "lon": 20.9819347}, {"type": "node", "id": 8541402786, "lat": 42.8184721, "lon": 20.9820061}, {"type": "node", "id": 8541402787, "lat": 42.8185002, "lon": 20.9819653}, {"type": "node", "id": 8541428143, "lat": 42.8233949, "lon": 20.9642448}, {"type": "node", "id": 8541428144, "lat": 42.8234361, "lon": 20.9643101}, {"type": "node", "id": 8541428145, "lat": 42.8234305, "lon": 20.9643154}, {"type": "node", "id": 8541428146, "lat": 42.8233899, "lon": 20.9642479}, {"type": "node", "id": 8541472110, "lat": 42.8230956, "lon": 20.9645514}, {"type": "node", "id": 8541472111, "lat": 42.8230731, "lon": 20.9645496}, {"type": "node", "id": 8541472112, "lat": 42.8230784, "lon": 20.964574}, {"type": "node", "id": 8541472113, "lat": 42.8230976, "lon": 20.9645875}, {"type": "node", "id": 8541481131, "lat": 42.8237016, "lon": 20.9652174}, {"type": "node", "id": 8541481132, "lat": 42.8236827, "lon": 20.9652378}, {"type": "node", "id": 8541481133, "lat": 42.8237071, "lon": 20.9652711}, {"type": "node", "id": 8541481134, "lat": 42.8237233, "lon": 20.9652561}, {"type": "node", "id": 8541500259, "lat": 42.8221527, "lon": 20.9666642}, {"type": "node", "id": 8541500260, "lat": 42.8220844, "lon": 20.9666298}, {"type": "node", "id": 8541500261, "lat": 42.8220414, "lon": 20.9667969}, {"type": "node", "id": 8541500262, "lat": 42.8221041, "lon": 20.9668173}, {"type": "node", "id": 8541503436, "lat": 42.821601, "lon": 20.9658742}, {"type": "node", "id": 8541503437, "lat": 42.8215437, "lon": 20.9659738}, {"type": "node", "id": 8541503438, "lat": 42.8215866, "lon": 20.9660198}, {"type": "node", "id": 8541503439, "lat": 42.821644, "lon": 20.9659203}, {"type": "node", "id": 8541566490, "lat": 42.823046, "lon": 20.9660553}, {"type": "node", "id": 8541566491, "lat": 42.8228776, "lon": 20.9660896}, {"type": "node", "id": 8541566492, "lat": 42.8229429, "lon": 20.9662452}, {"type": "node", "id": 8541566493, "lat": 42.8229862, "lon": 20.9662205}, {"type": "node", "id": 8541566494, "lat": 42.8229799, "lon": 20.9661336}, {"type": "node", "id": 8541566495, "lat": 42.823009, "lon": 20.966095}, {"type": "node", "id": 8541567033, "lat": 42.8217212, "lon": 20.9699777}, {"type": "node", "id": 8541567034, "lat": 42.82167, "lon": 20.9699487}, {"type": "node", "id": 8541567035, "lat": 42.8216519, "lon": 20.9699745}, {"type": "node", "id": 8541567036, "lat": 42.8216307, "lon": 20.9699595}, {"type": "node", "id": 8541567037, "lat": 42.8216122, "lon": 20.9700625}, {"type": "node", "id": 8541567038, "lat": 42.821635, "lon": 20.97007}, {"type": "node", "id": 8541567039, "lat": 42.8216299, "lon": 20.9701295}, {"type": "node", "id": 8541567040, "lat": 42.821681, "lon": 20.9701392}, {"type": "node", "id": 8541567041, "lat": 42.821705, "lon": 20.9700984}, {"type": "node", "id": 8541567042, "lat": 42.8217275, "lon": 20.9700222}, {"type": "node", "id": 8541608562, "lat": 42.8246131, "lon": 20.9676945}, {"type": "node", "id": 8541608563, "lat": 42.8245832, "lon": 20.9677359}, {"type": "node", "id": 8541608564, "lat": 42.8245682, "lon": 20.9677053}, {"type": "node", "id": 8541608565, "lat": 42.8245116, "lon": 20.9677927}, {"type": "node", "id": 8541608566, "lat": 42.8244727, "lon": 20.9677104}, {"type": "node", "id": 8541608567, "lat": 42.8245252, "lon": 20.9676109}, {"type": "node", "id": 8541608568, "lat": 42.8245663, "lon": 20.9676224}, {"type": "node", "id": 8541608569, "lat": 42.8245869, "lon": 20.9676364}, {"type": "node", "id": 8541837093, "lat": 42.8230088, "lon": 20.968354}, {"type": "node", "id": 8541837094, "lat": 42.8229298, "lon": 20.9683395}, {"type": "node", "id": 8541837095, "lat": 42.8229186, "lon": 20.9684336}, {"type": "node", "id": 8541837096, "lat": 42.8229799, "lon": 20.9685504}, {"type": "node", "id": 8541837097, "lat": 42.8230366, "lon": 20.9684435}, {"type": "node", "id": 8541853088, "lat": 42.8280059, "lon": 20.9688631}, {"type": "node", "id": 8541853089, "lat": 42.8279853, "lon": 20.9689001}, {"type": "node", "id": 8541853090, "lat": 42.8279881, "lon": 20.9689499}, {"type": "node", "id": 8541853091, "lat": 42.8280321, "lon": 20.9689984}, {"type": "node", "id": 8541853092, "lat": 42.8280106, "lon": 20.9690417}, {"type": "node", "id": 8541853093, "lat": 42.8279619, "lon": 20.9689856}, {"type": "node", "id": 8541853094, "lat": 42.827888, "lon": 20.9689945}, {"type": "node", "id": 8541853095, "lat": 42.8278374, "lon": 20.969015}, {"type": "node", "id": 8541853096, "lat": 42.827814, "lon": 20.9689409}, {"type": "node", "id": 8541853097, "lat": 42.827785, "lon": 20.9689461}, {"type": "node", "id": 8541853098, "lat": 42.8277794, "lon": 20.9689677}, {"type": "node", "id": 8541853099, "lat": 42.8279352, "lon": 20.9692152}, {"type": "node", "id": 8541853100, "lat": 42.8279759, "lon": 20.9691234}, {"type": "node", "id": 8541853101, "lat": 42.8280761, "lon": 20.9689601}, {"type": "node", "id": 8541853102, "lat": 42.8280611, "lon": 20.9689052}, {"type": "node", "id": 8541853952, "lat": 42.8214901, "lon": 20.9734078}, {"type": "node", "id": 8541853953, "lat": 42.821371, "lon": 20.9733302}, {"type": "node", "id": 8541853954, "lat": 42.8213631, "lon": 20.9736405}, {"type": "node", "id": 8541853955, "lat": 42.8215484, "lon": 20.9736622}, {"type": "node", "id": 8541853956, "lat": 42.8216, "lon": 20.9734691}, {"type": "node", "id": 8541855023, "lat": 42.827846, "lon": 20.9680627}, {"type": "node", "id": 8541855024, "lat": 42.8278208, "lon": 20.967976}, {"type": "node", "id": 8541855025, "lat": 42.8277759, "lon": 20.9681087}, {"type": "node", "id": 8541895717, "lat": 42.8232576, "lon": 20.9684169}, {"type": "node", "id": 8541895718, "lat": 42.8231348, "lon": 20.9685347}, {"type": "node", "id": 8541895719, "lat": 42.8230516, "lon": 20.9683502}, {"type": "node", "id": 8541895720, "lat": 42.8231056, "lon": 20.9683099}, {"type": "node", "id": 8541895721, "lat": 42.8231206, "lon": 20.9683532}, {"type": "node", "id": 8541895722, "lat": 42.8231507, "lon": 20.9683327}, {"type": "node", "id": 8541895723, "lat": 42.8231601, "lon": 20.9683479}, {"type": "node", "id": 8541895724, "lat": 42.8232102, "lon": 20.9683259}, {"type": "node", "id": 8543781076, "lat": 42.8229025, "lon": 20.9646628}, {"type": "node", "id": 8543781077, "lat": 42.8229504, "lon": 20.9647349}, {"type": "node", "id": 8543781078, "lat": 42.8229164, "lon": 20.9648032}, {"type": "node", "id": 8543781079, "lat": 42.8228524, "lon": 20.9647159}, {"type": "node", "id": 8543825045, "lat": 42.822779, "lon": 20.9645847}, {"type": "node", "id": 8543825046, "lat": 42.822754, "lon": 20.9646135}, {"type": "node", "id": 8543825047, "lat": 42.8228185, "lon": 20.9646894}, {"type": "node", "id": 8543825048, "lat": 42.8228419, "lon": 20.9646605}, {"type": "node", "id": 8546895270, "lat": 42.8218487, "lon": 20.9674948}, {"type": "node", "id": 8546895271, "lat": 42.8217935, "lon": 20.9674987}, {"type": "node", "id": 8546895272, "lat": 42.8218263, "lon": 20.9676658}, {"type": "node", "id": 8546900701, "lat": 42.8330614, "lon": 20.9607164}, {"type": "node", "id": 8546900702, "lat": 42.8330314, "lon": 20.9608544}, {"type": "node", "id": 8546900703, "lat": 42.8329957, "lon": 20.9608408}, {"type": "node", "id": 8546900704, "lat": 42.8329846, "lon": 20.9608211}, {"type": "node", "id": 8546900705, "lat": 42.8329601, "lon": 20.9608362}, {"type": "node", "id": 8546900706, "lat": 42.8329023, "lon": 20.960812}, {"type": "node", "id": 8546900707, "lat": 42.8329268, "lon": 20.9606739}, {"type": "node", "id": 8546915805, "lat": 42.8218834, "lon": 20.9672384}, {"type": "node", "id": 8546915806, "lat": 42.8218207, "lon": 20.9672141}, {"type": "node", "id": 8546915807, "lat": 42.8217926, "lon": 20.9673124}, {"type": "node", "id": 8546915808, "lat": 42.8218609, "lon": 20.9673264}, {"type": "node", "id": 8546925434, "lat": 42.8219152, "lon": 20.9670789}, {"type": "node", "id": 8546925435, "lat": 42.8218263, "lon": 20.9670483}, {"type": "node", "id": 8546925436, "lat": 42.8218197, "lon": 20.967172}, {"type": "node", "id": 8546925437, "lat": 42.8219021, "lon": 20.9672244}, {"type": "node", "id": 8546939225, "lat": 42.8453852, "lon": 20.9881371}, {"type": "node", "id": 8546939227, "lat": 42.8451861, "lon": 20.988148}, {"type": "node", "id": 8546939228, "lat": 42.8453986, "lon": 20.9881272}, {"type": "node", "id": 8546939817, "lat": 42.821764, "lon": 20.9686421}, {"type": "node", "id": 8546939818, "lat": 42.821754, "lon": 20.9687149}, {"type": "node", "id": 8546939819, "lat": 42.8217084, "lon": 20.9687043}, {"type": "node", "id": 8546939820, "lat": 42.8217273, "lon": 20.9686315}, {"type": "node", "id": 8555204487, "lat": 42.8210145, "lon": 20.9685229}, {"type": "node", "id": 8555204488, "lat": 42.8209274, "lon": 20.9685944}, {"type": "node", "id": 8555204489, "lat": 42.8209808, "lon": 20.9687118}, {"type": "node", "id": 8555204490, "lat": 42.8210697, "lon": 20.9686071}, {"type": "node", "id": 8555257846, "lat": 42.8223195, "lon": 20.9679072}, {"type": "node", "id": 8555257847, "lat": 42.8222129, "lon": 20.9678855}, {"type": "node", "id": 8555257848, "lat": 42.8221951, "lon": 20.9680424}, {"type": "node", "id": 8555257849, "lat": 42.8223186, "lon": 20.9680578}, {"type": "node", "id": 8555277466, "lat": 42.8233759, "lon": 20.9642289}, {"type": "node", "id": 8555277467, "lat": 42.8232481, "lon": 20.9643737}, {"type": "node", "id": 8555277468, "lat": 42.8231747, "lon": 20.9641976}, {"type": "node", "id": 8555277469, "lat": 42.8233005, "lon": 20.9640873}, {"type": "node", "id": 8555304230, "lat": 42.8212503, "lon": 20.9694684}, {"type": "node", "id": 8555304231, "lat": 42.8212119, "lon": 20.9693357}, {"type": "node", "id": 8555304232, "lat": 42.8211221, "lon": 20.9693471}, {"type": "node", "id": 8555304233, "lat": 42.8211249, "lon": 20.9694722}, {"type": "node", "id": 8555310052, "lat": 42.8212503, "lon": 20.96949}, {"type": "node", "id": 8555310053, "lat": 42.8211296, "lon": 20.9694977}, {"type": "node", "id": 8555310054, "lat": 42.8211371, "lon": 20.9695589}, {"type": "node", "id": 8555310055, "lat": 42.8212559, "lon": 20.9695462}, {"type": "node", "id": 8566878352, "lat": 42.8223111, "lon": 20.9680569}, {"type": "node", "id": 8567170238, "lat": 42.822049, "lon": 20.9667672}, {"type": "node", "id": 8703159918, "lat": 42.9114924, "lon": 21.1911118, "tags": {"addr:street": "Ilir Konushevci", "amenity": "cafe", "name": "Caffe Bar GURI", "name:sq": "Caffe BAR Guri"}}, {"type": "node", "id": 8703194487, "lat": 42.9079339, "lon": 21.1940569, "tags": {"addr:city": "Podujev\u00eb", "addr:postcode": "11000", "addr:street": "19 Qershori", "amenity": "cafe", "internet_access": "yes", "internet_access:fee": "no", "name": "Art Caffe"}}, {"type": "node", "id": 8703194488, "lat": 42.8974332, "lon": 21.1968912, "tags": {"addr:city": "Podujev\u00eb", "addr:postcode": "11000", "addr:street": "Salih Bu\u00e7a", "amenity": "cafe", "name": "PALLMA Caffe"}}, {"type": "node", "id": 8755595224, "lat": 42.9119011, "lon": 21.1897892, "tags": {"amenity": "cafe", "name": "KAON Bar"}}, {"type": "node", "id": 8793031524, "lat": 42.9064463, "lon": 21.1956456, "tags": {"amenity": "cafe", "cuisine": "coffee_shop", "name": "Piano Lounge"}}, {"type": "node", "id": 8807364118, "lat": 42.9039482, "lon": 21.1944543, "tags": {"addr:city": "Podujev\u00eb", "addr:postcode": "11000", "addr:street": "Zahir Pajaziti", "amenity": "restaurant", "level": "2", "name": "Flux Restaurant"}}, {"type": "node", "id": 8815447509, "lat": 42.9147254, "lon": 21.2192096}, {"type": "node", "id": 8815447510, "lat": 42.9146302, "lon": 21.2191933}, {"type": "node", "id": 8815447511, "lat": 42.9146458, "lon": 21.2190238}, {"type": "node", "id": 8815447512, "lat": 42.9147411, "lon": 21.2190402}, {"type": "node", "id": 8815447513, "lat": 42.9149227, "lon": 21.2181656}, {"type": "node", "id": 8815447514, "lat": 42.9146447, "lon": 21.218093}, {"type": "node", "id": 8815447515, "lat": 42.9145527, "lon": 21.2187501}, {"type": "node", "id": 8825725044, "lat": 42.9146959, "lon": 21.2187559}, {"type": "node", "id": 8825725045, "lat": 42.9147114, "lon": 21.2186457}, {"type": "node", "id": 8825725046, "lat": 42.9148464, "lon": 21.2186811}, {"type": "node", "id": 8825725047, "lat": 42.914635, "lon": 21.21874}, {"type": "node", "id": 8825725048, "lat": 42.9148841, "lon": 21.2184415}, {"type": "node", "id": 8825725049, "lat": 42.9148731, "lon": 21.2184906}, {"type": "node", "id": 8825725050, "lat": 42.914766, "lon": 21.2184626}, {"type": "node", "id": 8825725051, "lat": 42.914773, "lon": 21.2184125}, {"type": "node", "id": 8829789235, "lat": 42.9176975, "lon": 21.1806753}, {"type": "node", "id": 8829789236, "lat": 42.9175293, "lon": 21.1802477}, {"type": "node", "id": 8829789237, "lat": 42.9173382, "lon": 21.180367}, {"type": "node", "id": 8829789238, "lat": 42.9174849, "lon": 21.1808157}, {"type": "node", "id": 8838922300, "lat": 42.8908357, "lon": 21.184294}, {"type": "node", "id": 8838922301, "lat": 42.8908222, "lon": 21.1840286}, {"type": "node", "id": 8838922302, "lat": 42.8903683, "lon": 21.1840682}, {"type": "node", "id": 8838922303, "lat": 42.8903842, "lon": 21.1843329}, {"type": "node", "id": 9278101206, "lat": 42.9114417, "lon": 21.1897818, "tags": {"amenity": "cafe", "name": "Dream Cake & Coffee Shop", "opening_hours": "Mo-Sa 08:00-21:30"}}, {"type": "node", "id": 9562639716, "lat": 42.9027198, "lon": 21.213515}, {"type": "node", "id": 9562639717, "lat": 42.9027703, "lon": 21.2140788}, {"type": "node", "id": 9562639718, "lat": 42.902539, "lon": 21.2141178}, {"type": "node", "id": 9562639719, "lat": 42.9025263, "lon": 21.2139674}, {"type": "node", "id": 9562639720, "lat": 42.9024406, "lon": 21.2139789}, {"type": "node", "id": 9562639721, "lat": 42.9024372, "lon": 21.2139192}, {"type": "node", "id": 9562639722, "lat": 42.9023539, "lon": 21.2139318}, {"type": "node", "id": 9562639723, "lat": 42.9023245, "lon": 21.2135782}, {"type": "node", "id": 9562639724, "lat": 42.9024338, "lon": 21.2135632}, {"type": "node", "id": 9562639725, "lat": 42.9024293, "lon": 21.2134746}, {"type": "node", "id": 9562639726, "lat": 42.9025852, "lon": 21.2134519}, {"type": "node", "id": 9562639727, "lat": 42.9025874, "lon": 21.2135324}, {"type": "node", "id": 9562639735, "lat": 42.9262243, "lon": 21.2313916}, {"type": "node", "id": 9562639736, "lat": 42.9257819, "lon": 21.231255}, {"type": "node", "id": 9562639737, "lat": 42.9258206, "lon": 21.2314544}, {"type": "node", "id": 9562639738, "lat": 42.9257681, "lon": 21.2313854}, {"type": "node", "id": 9562639739, "lat": 42.9256235, "lon": 21.2314992}, {"type": "node", "id": 9562639740, "lat": 42.9258374, "lon": 21.2315511}, {"type": "node", "id": 9562639741, "lat": 42.925844, "lon": 21.2315122}, {"type": "node", "id": 9562639742, "lat": 42.9258841, "lon": 21.2315212}, {"type": "node", "id": 9562639743, "lat": 42.925871, "lon": 21.2315969}, {"type": "node", "id": 9562639744, "lat": 42.9258301, "lon": 21.231587}, {"type": "node", "id": 9562639745, "lat": 42.9258038, "lon": 21.2317255}, {"type": "node", "id": 9562639746, "lat": 42.9257535, "lon": 21.2317126}, {"type": "node", "id": 9562639747, "lat": 42.9257688, "lon": 21.2318511}, {"type": "node", "id": 9562639748, "lat": 42.9258155, "lon": 21.2318601}, {"type": "node", "id": 9562639749, "lat": 42.9258038, "lon": 21.2319379}, {"type": "node", "id": 9562639750, "lat": 42.9261965, "lon": 21.2320525}, {"type": "node", "id": 9562639751, "lat": 42.9262294, "lon": 21.2318651}, {"type": "node", "id": 9562639752, "lat": 42.926171, "lon": 21.2318501}, {"type": "node", "id": 9562639753, "lat": 42.9261885, "lon": 21.2317564}, {"type": "node", "id": 9562639754, "lat": 42.9261732, "lon": 21.2317495}, {"type": "node", "id": 9562639755, "lat": 42.926187, "lon": 21.2316697}, {"type": "node", "id": 9562639775, "lat": 42.9257637, "lon": 21.2314433}, {"type": "node", "id": 9562639776, "lat": 42.9257097, "lon": 21.2313768}, {"type": "node", "id": 9562639777, "lat": 42.9257103, "lon": 21.2313557}, {"type": "node", "id": 9562639778, "lat": 42.9256556, "lon": 21.2313542}, {"type": "node", "id": 9562639779, "lat": 42.9256521, "lon": 21.2313767}, {"type": "node", "id": 9562639780, "lat": 42.9255731, "lon": 21.2313586}, {"type": "node", "id": 9562639781, "lat": 42.9255569, "lon": 21.2312992}, {"type": "node", "id": 9562639782, "lat": 42.9255182, "lon": 21.2314613}, {"type": "node", "id": 9562639783, "lat": 42.9254822, "lon": 21.2313611}, {"type": "node", "id": 9562699093, "lat": 42.9088235, "lon": 21.1913117, "tags": {"amenity": "cafe", "name": "Clips Cafe"}}, {"type": "node", "id": 9562699095, "lat": 42.9096702, "lon": 21.1912023, "tags": {"amenity": "cafe", "name": "Boem"}}, {"type": "node", "id": 9583745623, "lat": 42.890752, "lon": 21.184299}, {"type": "node", "id": 9583745624, "lat": 42.8907528, "lon": 21.1843161}, {"type": "node", "id": 9583745625, "lat": 42.8905529, "lon": 21.1843373}, {"type": "node", "id": 9583745626, "lat": 42.8905545, "lon": 21.1843995}, {"type": "node", "id": 9583745627, "lat": 42.8904317, "lon": 21.1844061}, {"type": "node", "id": 9583745628, "lat": 42.8904273, "lon": 21.1843311}, {"type": "node", "id": 9592737524, "lat": 42.917547, "lon": 21.1802926}, {"type": "node", "id": 9610370172, "lat": 42.8547168, "lon": 20.9395505}, {"type": "node", "id": 9610370173, "lat": 42.8546723, "lon": 20.9397282}, {"type": "node", "id": 9610370174, "lat": 42.8544923, "lon": 20.9396534}, {"type": "node", "id": 9610370175, "lat": 42.8545335, "lon": 20.9395085}, {"type": "node", "id": 9610370176, "lat": 42.8546157, "lon": 20.9395482}, {"type": "node", "id": 9610370177, "lat": 42.8546226, "lon": 20.9395038}, {"type": "node", "id": 9625310237, "lat": 42.8181334, "lon": 20.9684296}, {"type": "node", "id": 9625310238, "lat": 42.8180525, "lon": 20.9684933}, {"type": "node", "id": 9625310239, "lat": 42.8179816, "lon": 20.9683807}, {"type": "node", "id": 9625310240, "lat": 42.8180708, "lon": 20.9682989}, {"type": "node", "id": 9625310241, "lat": 42.8180858, "lon": 20.9683307}, {"type": "node", "id": 9625310242, "lat": 42.8180992, "lon": 20.9683591}, {"type": "node", "id": 9625310243, "lat": 42.8180171, "lon": 20.968437}, {"type": "node", "id": 9625327054, "lat": 42.8177532, "lon": 20.9681272}, {"type": "node", "id": 9625327055, "lat": 42.8177865, "lon": 20.9682443}, {"type": "node", "id": 9625327056, "lat": 42.8178415, "lon": 20.9682398}, {"type": "node", "id": 9625327057, "lat": 42.8178065, "lon": 20.9681068}, {"type": "node", "id": 9646169236, "lat": 42.8293468, "lon": 20.9621268}, {"type": "node", "id": 9646169237, "lat": 42.8293968, "lon": 20.9622564}, {"type": "node", "id": 9646169238, "lat": 42.8292034, "lon": 20.9624019}, {"type": "node", "id": 9646169239, "lat": 42.8291567, "lon": 20.9622677}, {"type": "node", "id": 9885745125, "lat": 43.0437779, "lon": 21.3998623, "tags": {"amenity": "cafe"}}, {"type": "node", "id": 9891543156, "lat": 42.817562, "lon": 20.9807007, "tags": {"addr:city": "Vushtrri", "addr:postcode": "42000", "addr:street": "Martir\u00ebt e Liris\u00eb", "amenity": "restaurant", "cuisine": "pizza;coffee_shop;burger;regional", "name": "Monate"}}, {"type": "node", "id": 10142496937, "lat": 42.8454347, "lon": 20.9881589}, {"type": "node", "id": 10142496938, "lat": 42.8453337, "lon": 20.9882841}, {"type": "node", "id": 10142496939, "lat": 42.8453697, "lon": 20.9883104}, {"type": "node", "id": 10142496966, "lat": 42.8453635, "lon": 20.9881184}, {"type": "node", "id": 10142496973, "lat": 42.8454153, "lon": 20.9881419}, {"type": "node", "id": 10166405968, "lat": 42.8237194, "lon": 20.9652593, "tags": {"addr:city": "Vushtrri", "addr:postcode": "42000", "addr:street": "Ismail Qemajli", "amenity": "restaurant", "cuisine": "pizza;coffee_shop;burger;sandwich", "name": "Room Caffe", "opening_hours": "Mo-Su 10:00-22:00"}}, {"type": "node", "id": 10176417116, "lat": 42.833369, "lon": 20.9848904}, {"type": "node", "id": 10176421117, "lat": 42.8333386, "lon": 20.9850031}, {"type": "node", "id": 10176421118, "lat": 42.8335284, "lon": 20.9851104}, {"type": "node", "id": 10176421119, "lat": 42.8335569, "lon": 20.9850004}, {"type": "node", "id": 10176421120, "lat": 42.8335104, "lon": 20.9851749}, {"type": "node", "id": 10176421121, "lat": 42.8334686, "lon": 20.9851565}, {"type": "node", "id": 10176421122, "lat": 42.8334884, "lon": 20.9850912}, {"type": "node", "id": 10210846890, "lat": 42.8363218, "lon": 20.9599591}, {"type": "node", "id": 10210846891, "lat": 42.8361128, "lon": 20.9597502}, {"type": "node", "id": 10210846892, "lat": 42.8360843, "lon": 20.9598051}, {"type": "node", "id": 10210846893, "lat": 42.8359961, "lon": 20.9596936}, {"type": "node", "id": 10210846894, "lat": 42.8358935, "lon": 20.9597467}, {"type": "node", "id": 10210846895, "lat": 42.8359312, "lon": 20.9598847}, {"type": "node", "id": 10210846896, "lat": 42.8359558, "lon": 20.9598723}, {"type": "node", "id": 10210846897, "lat": 42.8360506, "lon": 20.9599625}, {"type": "node", "id": 10210846898, "lat": 42.8360648, "lon": 20.9599378}, {"type": "node", "id": 10210846899, "lat": 42.8362426, "lon": 20.96012}, {"type": "node", "id": 10250550486, "lat": 42.8261402, "lon": 20.9711725}, {"type": "node", "id": 10250550487, "lat": 42.8260359, "lon": 20.9713764}, {"type": "node", "id": 10250550488, "lat": 42.8258353, "lon": 20.971143}, {"type": "node", "id": 10250550489, "lat": 42.8259336, "lon": 20.9709499}, {"type": "node", "id": 10250550490, "lat": 42.8260949, "lon": 20.9711237}, {"type": "node", "id": 10250550491, "lat": 42.8259851, "lon": 20.9713173}, {"type": "node", "id": 10536295051, "lat": 42.8264, "lon": 20.9697642, "tags": {"addr:city": "Vushtrri", "addr:postcode": "42000", "addr:street": "Ismail Qemajli", "amenity": "cafe", "internet_access": "yes", "name": "Ohana"}}, {"type": "node", "id": 10682014005, "lat": 42.8229666, "lon": 20.9660903, "tags": {"addr:housenumber": "20", "addr:postcode": "42000", "addr:street": "Xhevat Jusufi", "amenity": "restaurant", "internet_access": "wlan", "name:en": "Friends Lounge", "opening_hours": "24/7", "phone": "+38344699969"}}, {"type": "node", "id": 10762120092, "lat": 42.841219, "lon": 20.9840178}, {"type": "node", "id": 10762120093, "lat": 42.8415572, "lon": 20.9842109}, {"type": "node", "id": 10762120094, "lat": 42.8415258, "lon": 20.9847366}, {"type": "node", "id": 10762120095, "lat": 42.8409987, "lon": 20.9866034}, {"type": "node", "id": 10762120096, "lat": 42.8405739, "lon": 20.9864103}, {"type": "node", "id": 10766762764, "lat": 43.057579, "lon": 21.2519832, "tags": {"addr:city": "\u041a\u0443\u0440\u0448\u0443\u043c\u043b\u0438\u0458\u0441\u043a\u0430 \u0411\u0430\u045a\u0430", "addr:postcode": "18435", "amenity": "restaurant", "cuisine": "regional;juice;dessert", "name": "Planinka", "note": "Na ulazu ima kafe podeljen u dva dela, za pusace i ne pusace, prvi ispred je za ne pusaci a drugi tamo dalje je za pusace. Restoran se nalazi odmah sa ulaza na desnoj strani.", "opening_hours": "Mo-Su 00:00-24:00", "smoking": "separated"}}, {"type": "node", "id": 11259593744, "lat": 42.8183528, "lon": 20.9681743}, {"type": "node", "id": 11259593745, "lat": 42.818281, "lon": 20.9682011}, {"type": "node", "id": 11259593746, "lat": 42.8183056, "lon": 20.9682789}, {"type": "node", "id": 11259593747, "lat": 42.8183194, "lon": 20.9683526}, {"type": "node", "id": 11259593748, "lat": 42.8183046, "lon": 20.9683714}, {"type": "node", "id": 11259593749, "lat": 42.8183243, "lon": 20.968413}, {"type": "node", "id": 11259593750, "lat": 42.8183971, "lon": 20.9683741}, {"type": "node", "id": 11259593751, "lat": 42.8183961, "lon": 20.9683459}, {"type": "node", "id": 11259593752, "lat": 42.8183931, "lon": 20.9682842}, {"type": "node", "id": 11259593753, "lat": 42.8183804, "lon": 20.9682252}, {"type": "node", "id": 11470036147, "lat": 42.8210245, "lon": 20.9773324}, {"type": "node", "id": 11470036148, "lat": 42.8209619, "lon": 20.9772412}, {"type": "node", "id": 11470036149, "lat": 42.8208005, "lon": 20.9774262}, {"type": "node", "id": 11470036150, "lat": 42.8208596, "lon": 20.9775197}, {"type": "node", "id": 11985728912, "lat": 43.0571382, "lon": 21.2542386, "tags": {"addr:housenumber": "16", "addr:street": "\u041d\u0443\u0448\u0438\u045b\u0435\u0432\u0430", "amenity": "restaurant", "ref:RS:kucni_broj": "6575833"}}, {"type": "node", "id": 12012070331, "lat": 42.9076376, "lon": 21.1934533}, {"type": "node", "id": 12012070332, "lat": 42.9076434, "lon": 21.1936136}, {"type": "node", "id": 12012070333, "lat": 42.9074659, "lon": 21.1936349}, {"type": "node", "id": 12012070334, "lat": 42.9074613, "lon": 21.1935272}, {"type": "way", "id": 386542767, "nodes": [3898825486, 3898825487, 3898825488, 3898825489, 3898825490, 3898825491, 3898825492, 3898825505, 3898825493, 3898825494, 3898825495, 3898825496, 3898825497, 3898825498, 3898825499, 3898825500, 3898825501, 3898825486], "tags": {"amenity": "restaurant", "building": "yes", "name": "Ura e Gurit"}}, {"type": "way", "id": 509269909, "nodes": [4985215455, 4985215456, 4985215457, 4985215458, 4985215459, 4985215460, 4985215455], "tags": {"amenity": "restaurant", "building": "yes", "name": "Restaurant Adriatiku"}}, {"type": "way", "id": 511054695, "nodes": [4999872898, 4716660746, 4716660747, 4999872899, 4999872898], "tags": {"amenity": "restaurant", "building": "yes", "cuisine": "italian;regional;ice_cream;fish_and_chips;sandwich", "name": "Agona Pizzeria", "smoking": "outside", "takeaway": "yes"}}, {"type": "way", "id": 579854872, "nodes": [5552497893, 5552497894, 5552497895, 5552497896, 5552497897, 5552497898, 5552497899, 5552497900, 5552497893], "tags": {"addr:city": "Vushtrri", "addr:postcode": "42000", "addr:street": "Hasan Prishtina", "amenity": "cafe", "building": "yes", "name": "Embeltore Rinia"}}, {"type": "way", "id": 609893223, "nodes": [5776518460, 5776518461, 5776518462, 5776518463, 5776518460], "tags": {"addr:city": "Vushtrri / Vu\u010ditrn", "addr:postcode": "42000", "addr:street": "Basri Beqiri", "amenity": "restaurant", "building": "yes", "cuisine": "burger;pizza;regional;coffee_shop", "name": "Agona"}}, {"type": "way", "id": 683222526, "nodes": [6399305495, 6399305496, 6399305497, 6399305498, 6399305499, 6399305500, 6399305501, 6399305502, 6399305495], "tags": {"amenity": "restaurant", "building": "yes", "layer": "-1", "name": "Fshati Turistik Skroma"}}, {"type": "way", "id": 683222527, "nodes": [6399305503, 6399305504, 6399305505, 6399305506, 6399305503], "tags": {"amenity": "restaurant", "building": "yes"}}, {"type": "way", "id": 683222528, "nodes": [6399305503, 6399305507, 6399305508, 6399305509, 6399305495, 6399305502, 6399305501, 6399305510, 6399305511, 6399305512, 6399305514, 6399305515, 6399305505, 6399305504, 6399305503], "tags": {"amenity": "restaurant", "building": "yes", "name": "Fshati Turistik Skroma"}}, {"type": "way", "id": 873313132, "nodes": [8132841158, 8132841159, 8132841160, 8132841161, 8132841158], "tags": {"amenity": "restaurant", "building": "yes"}}, {"type": "way", "id": 919770913, "nodes": [8541402784, 8541402785, 8541402786, 8541402787, 8541402784], "tags": {"addr:city": "Vushtrri", "addr:postcode": "42000", "addr:street": "Tahir Sinani", "amenity": "restaurant", "building": "yes", "name": "Kalaja Lounge"}}, {"type": "way", "id": 919775213, "nodes": [8541428143, 8541428144, 8541428145, 7343689787, 8541428146, 8541428143], "tags": {"addr:city": "Vushtrri / Vu\u010ditrn", "addr:postcode": "42000", "addr:street": "Blerim Zuqaku", "amenity": "restaurant", "building": "yes", "cuisine": "burger;pizza;sandwich;kebab", "name": "ARI lounge"}}, {"type": "way", "id": 919777597, "nodes": [8541472110, 8541472111, 8541472112, 8541472113, 8541472110], "tags": {"addr:city": "Vushtrri / Vu\u010ditrn", "addr:postcode": "42000", "addr:street": "Hasan Prishtina", "amenity": "cafe", "brand": "Coffeeshop Company", "brand:wikidata": "Q873767", "brand:wikipedia": "en:Coffeeshop Company", "building": "yes", "cuisine": "coffee_shop", "name": "Cannzoe", "takeaway": "yes"}}, {"type": "way", "id": 919778708, "nodes": [8541481131, 8541481132, 8541481133, 8541481134, 8541481131], "tags": {"addr:city": "Vushtrri / Vu\u010ditrn", "addr:postcode": "42000", "addr:street": "Ismail Qemajli", "amenity": "cafe", "brand": "Coffeeshop Company", "brand:wikidata": "Q873767", "brand:wikipedia": "en:Coffeeshop Company", "building": "yes", "cuisine": "coffee_shop", "name": "Room Coffee", "takeaway": "yes"}}, {"type": "way", "id": 919781643, "nodes": [8541503436, 8541503437, 8541503438, 8541503439, 8541503436], "tags": {"addr:city": "Vushtrri", "addr:housenumber": "48", "addr:postcode": "42000", "addr:street": "Galip Badivuku", "amenity": "restaurant", "building": "yes", "cuisine": "coffee_shop", "name": "Charlie Lounge", "opening_hours": "Mo-Su 07:00-22:00"}}, {"type": "way", "id": 919782467, "nodes": [8541500259, 8541500260, 8567170238, 8541500261, 8541500262, 8541500259], "tags": {"addr:city": "Vushtrri", "addr:postcode": "42000", "addr:street": "Adem Jashari", "amenity": "restaurant", "building": "yes", "cuisine": "coffee_shop", "name": "Ameline"}}, {"type": "way", "id": 919790862, "nodes": [8541566490, 7344162051, 8541566491, 8541566492, 8541566493, 8541566494, 8541566495, 8541566490], "tags": {"addr:city": "Vushtrri / Vu\u010ditrn", "addr:postcode": "42000", "addr:street": "Xhevat Jusufi", "amenity": "restaurant", "building": "yes", "cuisine": "regional;coffee_shop", "name": "Garden House"}}, {"type": "way", "id": 919791794, "nodes": [8541567033, 8541567034, 8541567035, 8541567036, 8541567037, 8541567038, 8541567039, 8541567040, 8541567041, 8541567042, 8541567033], "tags": {"addr:city": "Boulevardi Adem Jashari", "addr:postcode": "420000", "addr:street": "Adem Jashari", "amenity": "cafe", "name": "Mondo"}}, {"type": "way", "id": 919824048, "nodes": [8541608562, 8541608563, 8541608564, 8541608565, 8541608566, 8541608567, 8541608568, 8541608569, 8541608562], "tags": {"addr:city": "Vushtrri", "addr:postcode": "42000", "addr:street": "Ismail Qemajli", "amenity": "restaurant", "building": "yes", "cuisine": "regional;coffee_shop", "name": "Sueno", "opening_hours": "sunrise-sunset"}}, {"type": "way", "id": 919826226, "nodes": [8541855023, 8541855024, 8541855025, 8541855023], "tags": {"addr:city": "Vushtrri", "addr:postcode": "42000", "addr:street": "Ana Lin", "amenity": "cafe", "building": "yes", "cuisine": "coffee_shop", "name": "Bamboo Lounge", "opening_hours": "sunrise-sunset"}}, {"type": "way", "id": 919826499, "nodes": [8541853088, 8541853089, 8541853090, 8541853091, 8541853092, 8541853093, 8541853094, 8541853095, 8541853096, 8541853097, 8541853098, 8541853099, 8541853100, 8541853101, 8541853102, 8541853088], "tags": {"addr:city": "Vushtrri", "addr:postcode": "42000", "addr:street": "Nazmi Hyseni Popova", "amenity": "restaurant", "building": "yes", "cuisine": "coffee_shop;regional", "name": "Prestige Restaurant"}}, {"type": "way", "id": 919829035, "nodes": [8541853952, 8541853953, 8541853954, 8541853955, 8541853956, 8541853952], "tags": {"addr:city": "Vushtrri", "addr:postcode": "42000", "addr:street": "D\u00ebshmor\u00ebt e Kombit", "amenity": "cafe", "building": "yes", "cuisine": "coffee_shop", "name": "Golden Bar", "opening_hours": "Mo-Sa 08:00-20:00"}}, {"type": "way", "id": 919830404, "nodes": [8541895717, 8541895718, 8541895719, 8541895720, 8541895721, 8541895722, 8541895723, 8541895724, 8541895717], "tags": {"addr:city": "Vushtrri", "addr:postcode": "42000", "addr:street": "Hoxh\u00eb Kadri Prishtina", "amenity": "cafe", "building": "yes", "cuisine": "coffee_shop", "name": "MADOX", "opening_hours": "Mo-Su 10:00-22:00"}}, {"type": "way", "id": 919830750, "nodes": [8541837093, 8541837094, 8541837095, 8541837096, 8541837097, 8541837093], "tags": {"addr:city": "Vushtrri", "addr:postcode": "42000", "addr:street": "Hoxh\u00eb Kadri Prishtina", "amenity": "cafe", "building": "yes", "name": "Duos"}}, {"type": "way", "id": 920081575, "nodes": [8543825045, 8543825046, 8543825047, 8543825048, 8543825045], "tags": {"addr:city": "Vushtrri / Vu\u010ditrn", "addr:postcode": "42000", "addr:street": "Hasan Prishtina", "amenity": "restaurant", "building": "yes", "cuisine": "regional", "name": "UNO"}}, {"type": "way", "id": 920081625, "nodes": [8543781076, 8543781077, 8543781078, 8543781079, 8543781076], "tags": {"addr:city": "Vushtrri / Vu\u010ditrn", "addr:postcode": "42000", "addr:street": "Hasan Prishtina", "amenity": "restaurant", "building": "yes", "name": "Charlie 2"}}, {"type": "way", "id": 920545151, "nodes": [8546895270, 8546895271, 7340191651, 8546895272, 8546895270], "tags": {"addr:city": "Boulevardi Adem Jashari", "addr:postcode": "42000", "addr:street": "Adem Jashari", "amenity": "restaurant", "building": "yes", "name": "Otro"}}, {"type": "way", "id": 920545465, "nodes": [8546915805, 8546915806, 8546915807, 8546915808, 8546915805], "tags": {"addr:city": "Boulevardi Adem Jashari", "addr:postcode": "42000", "addr:street": "Adem Jashari", "amenity": "cafe", "building": "yes"}}, {"type": "way", "id": 920545686, "nodes": [8546925434, 8546925435, 8546925436, 8546925437, 8546925434], "tags": {"addr:city": "Boulevardi Adem Jashari", "addr:postcode": "42000", "addr:street": "Adem Jashari", "amenity": "restaurant", "building": "yes", "name": "Pallma Restaurant"}}, {"type": "way", "id": 920546927, "nodes": [8546939817, 8546939818, 8546939819, 8546939820, 8546939817], "tags": {"addr:city": "Boulevardi Adem Jashari", "addr:postcode": "42000", "addr:street": "Adem Jashari", "amenity": "restaurant", "building": "yes", "name": "Simple"}}, {"type": "way", "id": 920547752, "nodes": [8546939225, 10142496966, 7417089765, 8546939227, 7417089763, 10142496938, 10142496939, 10142496937, 10142496973, 8546939228, 8546939225], "tags": {"addr:street": "Shala e Bajgor\u00ebs", "amenity": "restaurant", "building": "yes", "name": "The Village"}}, {"type": "way", "id": 920548724, "nodes": [8546900701, 8546900702, 8546900703, 8546900704, 8546900705, 8546900706, 8546900707, 8546900701], "tags": {"addr:city": "Vushtrri", "addr:postcode": "42000", "addr:street": "Gjergj Kastrioti Sk\u00ebnderbeu", "amenity": "restaurant", "building": "yes", "name": "Piano"}}, {"type": "way", "id": 921503524, "nodes": [8555257846, 8555257847, 8555257848, 8566878352, 8555257849, 8555257846], "tags": {"addr:city": "Vushtrri", "addr:postcode": "42000", "addr:street": "Hoxh\u00eb Kadri Prishtina", "amenity": "cafe", "building": "yes", "name": "Castello"}}, {"type": "way", "id": 921504243, "nodes": [8555277466, 8555277467, 8555277468, 8555277469, 8555277466], "tags": {"addr:city": "Vushtrri / Vu\u010ditrn", "addr:postcode": "42000", "addr:street": "Ruzhdi Hyseni", "amenity": "restaurant", "building": "yes", "name": "Pallma"}}, {"type": "way", "id": 921505940, "nodes": [8555304230, 8555304231, 8555304232, 8555304233, 8555304230], "tags": {"addr:city": "Boulevardi Adem Jashari", "addr:postcode": "42000", "addr:street": "Ahmet Selaci", "amenity": "cafe", "building": "yes", "name": "Merci Coffe"}}, {"type": "way", "id": 921505996, "nodes": [8555310052, 8555310053, 8555310054, 8555310055, 8555310052], "tags": {"addr:street": "Muharrem Berisha", "amenity": "restaurant", "building": "yes", "name": "Rinia"}}, {"type": "way", "id": 921506165, "nodes": [8555204487, 8555204488, 8555204489, 8555204490, 8555204487], "tags": {"amenity": "cafe", "building": "yes", "name": "Doppio"}}, {"type": "way", "id": 952446260, "nodes": [8815447509, 8815447510, 8815447511, 8815447512, 8815447509], "tags": {"amenity": "restaurant", "building": "yes", "name": "Restaurant ERA"}}, {"type": "way", "id": 952446261, "nodes": [8815447513, 8815447514, 8815447515, 8825725047, 8825725044, 8825725045, 8825725046, 8825725049, 8825725050, 8825725051, 8825725048, 8815447513], "tags": {"amenity": "restaurant", "building": "yes", "contact:facebook": "https://www.facebook.com/hotelrestaurantera/", "name": "Hotel ERA"}}, {"type": "way", "id": 954000621, "nodes": [8829789235, 9592737524, 8829789236, 8829789237, 8829789238, 8829789235], "tags": {"amenity": "restaurant", "building": "yes", "name": "Arizona"}}, {"type": "way", "id": 954960975, "nodes": [8838922300, 8838922301, 8838922302, 8838922303, 9583745628, 9583745627, 9583745626, 9583745625, 9583745624, 9583745623, 8838922300], "tags": {"amenity": "restaurant", "building": "yes"}}, {"type": "way", "id": 1038255917, "nodes": [9562639716, 9562639717, 9562639718, 9562639719, 9562639720, 9562639721, 9562639722, 9562639723, 9562639724, 9562639725, 9562639726, 9562639727, 9562639716], "tags": {"amenity": "restaurant", "building": "yes", "name": "Restaurant \"Iliria\""}}, {"type": "way", "id": 1038255919, "nodes": [9562639735, 9562639736, 9562639737, 9562639775, 9562639738, 9562639776, 9562639777, 9562639778, 9562639779, 9562639780, 9562639781, 9562639783, 9562639782, 9562639739, 9562639740, 9562639741, 9562639742, 9562639743, 9562639744, 9562639745, 9562639746, 9562639747, 9562639748, 9562639749, 9562639750, 9562639751, 9562639752, 9562639753, 9562639754, 9562639755, 9562639735], "tags": {"amenity": "restaurant", "building": "yes", "name": "Restaurant \"ORA\""}}, {"type": "way", "id": 1044427114, "nodes": [9610370172, 9610370173, 9610370174, 9610370175, 9610370176, 9610370177, 9610370172], "tags": {"addr:city": "Vushtrri", "addr:housenumber": "57", "addr:postcode": "42000", "addr:street": "Rizah Veseli", "amenity": "restaurant", "building": "yes", "name": "Safari Restaurant & Pastiqeri", "phone": "+38345333200"}}, {"type": "way", "id": 1046712478, "nodes": [9625310237, 9625310238, 9625310243, 9625310239, 9625310240, 9625310241, 9625310242, 9625310237], "tags": {"addr:city": "Vushtrri", "addr:housenumber": "139", "addr:postcode": "42000", "addr:street": "Shemsi Istrefi", "amenity": "cafe", "building": "yes", "name": "\u00c7ajtore Bajgora", "opening_hours": "Mo-Su 08:00-22:00"}}, {"type": "way", "id": 1046715431, "nodes": [9625327054, 9625327055, 9625327056, 9625327057, 9625327054], "tags": {"addr:city": "Vushtrri", "addr:housenumber": "140", "addr:postcode": "42000", "addr:street": "Shemsi Istrefi", "amenity": "cafe", "building": "yes", "name": "Te Burimi"}}, {"type": "way", "id": 1049656969, "nodes": [9646169236, 9646169237, 9646169238, 9646169239, 9646169236], "tags": {"amenity": "restaurant", "building": "yes", "name": "\u00c7aj n'Bah\u00e7e"}}, {"type": "way", "id": 1112341245, "nodes": [10176417116, 10176421117, 10176421122, 10176421121, 10176421120, 10176421118, 10176421119, 10176417116], "tags": {"addr:city": "Begaj", "addr:postcode": "42000", "addr:street": "Bekim Berisha Abeja", "amenity": "restaurant", "building": "yes", "cuisine": "pizza;coffee_shop;chicken;regional", "name": "Restaurant La Fontana"}}, {"type": "way", "id": 1116399296, "nodes": [10210846890, 10210846891, 10210846892, 10210846893, 10210846894, 10210846895, 10210846896, 10210846897, 10210846898, 10210846899, 10210846890], "tags": {"amenity": "restaurant", "building": "yes", "name": "AME Pizzeria"}}, {"type": "way", "id": 1120744441, "nodes": [10250550486, 10250550487, 10250550491, 10250550488, 10250550489, 10250550490, 10250550486], "tags": {"addr:city": "Vushtrri", "addr:postcode": "42000", "addr:street": "Rrustem Hyseni Historiani", "amenity": "restaurant", "building": "yes", "name": "ABI"}}, {"type": "way", "id": 1157279961, "nodes": [10762120092, 10762120093, 10762120094, 10762120095, 10762120096, 10762120092], "tags": {"addr:city": "Vushtrri", "addr:street": "Bahri Kuqi", "amenity": "restaurant", "building": "yes", "name": "Cazza Mia Terrazza"}}, {"type": "way", "id": 1215295742, "nodes": [11259593744, 11259593745, 11259593746, 11259593747, 11259593748, 11259593749, 11259593750, 11259593751, 11259593752, 11259593753, 11259593744], "tags": {"addr:city": "Vushtrri", "addr:postcode": "42000", "addr:street": "Faruk Beqiri", "amenity": "restaurant", "building": "yes", "cuisine": "burger;regional;coffee_shop;pizza", "name": "SoCo Lounge", "opening_hours": "Mo-Su 09:00-22:00"}}, {"type": "way", "id": 1235564523, "nodes": [11470036147, 11470036148, 11470036149, 11470036150, 11470036147], "tags": {"amenity": "restaurant", "building": "yes", "name": "Coffe food and more"}}, {"type": "way", "id": 1296323082, "nodes": [12012070331, 12012070332, 12012070333, 12012070334, 12012070331], "tags": {"amenity": "cafe", "building": "yes", "cuisine": "coffee_shop"}}]}