{"version": 0.6, "generator": "Overpass API 0.7.62.7 375dc00a", "osm3s": {"timestamp_osm_base": "2025-06-14T13:25:11Z", "copyright": "The data included in this document is from www.openstreetmap.org. The data is made available under ODbL."}, "elements": [{"type": "node", "id": 1855115767, "lat": 36.3399685, "lon": 10.2505613, "tags": {"amenity": "cafe", "cuisine": "coffee_shop"}}, {"type": "node", "id": 1855117280, "lat": 36.3523527, "lon": 10.2092089, "tags": {"amenity": "cafe", "name": "Caf\u00e9 EL Hadika"}}, {"type": "node", "id": 1855117281, "lat": 36.3531503, "lon": 10.2091035, "tags": {"amenity": "cafe", "name": "Caf\u00e9 Abdelaziz"}}, {"type": "node", "id": 2017770272, "lat": 36.351679, "lon": 10.2085791, "tags": {"amenity": "cafe", "internet_access": "no", "name": "Caf\u00e9 Mesk Ellil"}}, {"type": "node", "id": 2965807178, "lat": 36.3549905, "lon": 10.210114}, {"type": "node", "id": 2965807179, "lat": 36.3548541, "lon": 10.210396}, {"type": "node", "id": 2965807180, "lat": 36.3547661, "lon": 10.2103304}, {"type": "node", "id": 2965807181, "lat": 36.3549362, "lon": 10.2100735}, {"type": "node", "id": 2965807182, "lat": 36.3502698, "lon": 10.2065831}, {"type": "node", "id": 2965807183, "lat": 36.3501747, "lon": 10.2066759}, {"type": "node", "id": 2965807184, "lat": 36.350132, "lon": 10.2066032}, {"type": "node", "id": 2965807185, "lat": 36.3502273, "lon": 10.20651}, {"type": "node", "id": 2965814581, "lat": 36.3568061, "lon": 10.2081384}, {"type": "node", "id": 2965814582, "lat": 36.35674, "lon": 10.2082492}, {"type": "node", "id": 2965814583, "lat": 36.3566592, "lon": 10.208175}, {"type": "node", "id": 2965814584, "lat": 36.3567253, "lon": 10.2080642}, {"type": "node", "id": 4791816049, "lat": 36.4147173, "lon": 10.1232282}, {"type": "node", "id": 4791816050, "lat": 36.4145447, "lon": 10.1231584}, {"type": "node", "id": 4791816051, "lat": 36.4146029, "lon": 10.1229331}, {"type": "node", "id": 4791816052, "lat": 36.4147799, "lon": 10.1229975}, {"type": "node", "id": 5764218903, "lat": 36.4132219, "lon": 10.135497, "tags": {"addr:city": "\u0632\u063a\u0648\u0627\u0646", "addr:city:ar": "\u0632\u063a\u0648\u0627\u0646", "amenity": "cafe", "language:ar": "main", "name": "\u0644\u0627\u0631\u062a \u062f\u0648\u064a", "name:ar": "\u0644\u0627\u0631\u062a \u062f\u0648\u064a", "name:fr": "L'Art'doiz"}}, {"type": "node", "id": 5840025485, "lat": 36.3951132, "lon": 10.376497, "tags": {"addr:postcode": "1132", "addr:street": "Zaghoun Hammam Bent Djedidi", "amenity": "cafe", "name": "Caf\u00e9 ranime hammam Bent Djedidi Hammamet"}}, {"type": "node", "id": 6129214785, "lat": 36.3880033, "lon": 10.1292383, "tags": {"amenity": "restaurant", "name:fr": "Restaurant Temple des Eaux"}}, {"type": "node", "id": 6356477170, "lat": 36.1370876, "lon": 10.3834808, "tags": {"addr:city": "\u0627\u0644\u0646\u0641\u064a\u0636\u0629", "amenity": "cafe", "name": "\u0645\u0642\u0647\u0649 \u062f\u0645\u0634\u0642", "name:ar": "\u0645\u0642\u0647\u0649 \u062f\u0645\u0634\u0642", "name:fr": "Caf\u00e9 Damas"}}, {"type": "node", "id": 6356477698, "lat": 36.1348862, "lon": 10.3801266, "tags": {"amenity": "cafe", "name": "Caf\u00e9 Elbehi"}}, {"type": "node", "id": 6356477702, "lat": 36.1342276, "lon": 10.3799066, "tags": {"addr:city": "\u0627\u0644\u0646\u0641\u064a\u0636\u0629", "amenity": "restaurant", "name": "\u0645\u0637\u0639\u0645 \u0627\u0644\u0631\u064a\u0633", "name:ar": "\u0645\u0637\u0639\u0645 \u0627\u0644\u0631\u064a\u0633", "name:en": "", "name:fr": "Restaurant Rais"}}, {"type": "node", "id": 6356477723, "lat": 36.1340822, "lon": 10.37501, "tags": {"addr:city": "\u0627\u0644\u0646\u0641\u064a\u0636\u0629", "amenity": "cafe", "name": "\u0645\u0642\u0647\u0649 \u0628\u0646 \u0639\u0644\u064a", "name:ar": "\u0645\u0642\u0647\u0649 \u0628\u0646 \u0639\u0644\u064a", "name:fr": "Caf\u00e9 Ben Ali"}}, {"type": "node", "id": 6356477733, "lat": 36.1347166, "lon": 10.3763836, "tags": {"addr:city": "\u0627\u0644\u0646\u0641\u064a\u0636\u0629", "amenity": "cafe", "name": "\u0645\u0642\u0647\u0649 \u0641\u0627\u0631\u0648\u0642", "name:ar": "\u0645\u0642\u0647\u0649 \u0641\u0627\u0631\u0648\u0642", "name:fr": "Caf\u00e9 Farouk"}}, {"type": "node", "id": 6356477734, "lat": 36.1349045, "lon": 10.3760312, "tags": {"amenity": "restaurant", "name": "Bombonera"}}, {"type": "node", "id": 6356477736, "lat": 36.1329941, "lon": 10.3781237, "tags": {"addr:city": "\u0627\u0644\u0646\u0641\u064a\u0636\u0629", "amenity": "cafe", "name": "\u0645\u064a\u0644\u0627\u0646\u0648", "name:ar": "\u0645\u064a\u0644\u0627\u0646\u0648", "name:it": "Milano"}}, {"type": "node", "id": 6356477738, "lat": 36.132963, "lon": 10.3790269, "tags": {"addr:city": "\u0627\u0644\u0646\u0641\u064a\u0636\u0629", "amenity": "cafe", "name": "\u0645\u0642\u0647\u0649 \u0639\u0628\u064a\u062f", "name:ar": "\u0645\u0642\u0647\u0649 \u0639\u0628\u064a\u062f"}}, {"type": "node", "id": 6356477739, "lat": 36.1338822, "lon": 10.3801427, "tags": {"amenity": "cafe", "name": "CAFE TAHAR JEGHAM"}}, {"type": "node", "id": 6852999805, "lat": 36.4108667, "lon": 10.1447255}, {"type": "node", "id": 6852999806, "lat": 36.4108197, "lon": 10.1448246}, {"type": "node", "id": 6852999807, "lat": 36.4107727, "lon": 10.1447909}, {"type": "node", "id": 6852999808, "lat": 36.410804, "lon": 10.1447042}, {"type": "node", "id": 6852999809, "lat": 36.4108254, "lon": 10.1447007}, {"type": "node", "id": 6852999810, "lat": 36.4107841, "lon": 10.1448954}, {"type": "node", "id": 6852999811, "lat": 36.4107463, "lon": 10.1448632}, {"type": "node", "id": 6852999814, "lat": 36.4108542, "lon": 10.1447519}, {"type": "node", "id": 7512455114, "lat": 36.3991781, "lon": 10.1495842, "tags": {"amenity": "restaurant", "name": "La Source"}}, {"type": "node", "id": 7512455133, "lat": 36.3997279, "lon": 10.1462576, "tags": {"addr:city": "\u0632\u063a\u0648\u0627\u0646", "addr:city:ar": "\u0632\u063a\u0648\u0627\u0646", "amenity": "cafe", "language:ar": "main", "name": "\u0645\u064a\u0644\u0627\u0646\u0648", "name:ar": "\u0645\u064a\u0644\u0627\u0646\u0648", "name:etymology": "\u0645\u064a\u0644\u0627\u0646\u0648", "name:etymology:wikidata": "Q490", "name:etymology:wikipedia": "ar:\u0645\u064a\u0644\u0627\u0646\u0648", "name:fr": "Milano"}}, {"type": "node", "id": 7512455145, "lat": 36.4028281, "lon": 10.1420034, "tags": {"amenity": "cafe", "name": "\u0644\u0627\u062c\u0648\u0643\u0646\u062f\u0627", "name:ar": "\u0644\u0627\u062c\u0648\u0643\u0646\u062f\u0627", "name:etymology": "\u0644\u0627\u062c\u0648\u0643\u0646\u062f\u0627", "name:etymology:wikidata": "Q12418", "name:etymology:wikipedia": "ar:\u0645\u0648\u0646\u0627\u0644\u064a\u0632\u0627", "name:fr": "La Joconde"}}, {"type": "node", "id": 7512455151, "lat": 36.4020794, "lon": 10.140888, "tags": {"addr:city": "\u0632\u063a\u0648\u0627\u0646", "addr:city:ar": "\u0632\u063a\u0648\u0627\u0646", "amenity": "cafe", "language:ar": "main", "name": "\u0643\u0631\u0648\u0629", "name:ar": "\u0643\u0631\u0648\u0629", "name:fr": "Kraoua"}}, {"type": "node", "id": 8213732131, "lat": 36.1374426, "lon": 10.2995712, "tags": {"amenity": "cafe", "name": "Caf\u00e9 Belgacem"}}, {"type": "node", "id": 8482720925, "lat": 36.3428668, "lon": 10.201809, "tags": {"addr:city": "zriba hammem", "addr:postcode": "1152", "amenity": "cafe", "cuisine": "coffee_shop", "internet_access": "yes", "internet_access:fee": "no", "name": "l'opera caffe", "opening_hours": "24/7", "outdoor_seating": "yes"}}, {"type": "node", "id": 9176511190, "lat": 36.3582407, "lon": 10.2130019}, {"type": "node", "id": 9176511191, "lat": 36.3581414, "lon": 10.2129187}, {"type": "node", "id": 9176511192, "lat": 36.3580947, "lon": 10.2129992}, {"type": "node", "id": 9176511193, "lat": 36.3581863, "lon": 10.2130807}, {"type": "node", "id": 9177826962, "lat": 36.3608156, "lon": 10.2156687}, {"type": "node", "id": 9177826963, "lat": 36.3605594, "lon": 10.2154599}, {"type": "node", "id": 9177826964, "lat": 36.3607294, "lon": 10.2151638}, {"type": "node", "id": 9177826965, "lat": 36.3608242, "lon": 10.2152445}, {"type": "node", "id": 9177826966, "lat": 36.3607718, "lon": 10.215341}, {"type": "node", "id": 9177826967, "lat": 36.3608016, "lon": 10.2153688}, {"type": "node", "id": 9177826968, "lat": 36.3608628, "lon": 10.2154516}, {"type": "node", "id": 9177826969, "lat": 36.3608741, "lon": 10.2155661}, {"type": "node", "id": 9196996435, "lat": 36.3138942, "lon": 10.2105496}, {"type": "node", "id": 9196996436, "lat": 36.3139655, "lon": 10.2103929}, {"type": "node", "id": 9196996437, "lat": 36.3140776, "lon": 10.2104716}, {"type": "node", "id": 9196996438, "lat": 36.3140463, "lon": 10.2105403}, {"type": "node", "id": 9196996439, "lat": 36.313983, "lon": 10.2104959}, {"type": "node", "id": 9196996440, "lat": 36.313943, "lon": 10.2105838}, {"type": "node", "id": 9217279372, "lat": 36.3517504, "lon": 10.20865}, {"type": "node", "id": 9217279373, "lat": 36.3516382, "lon": 10.2084709}, {"type": "node", "id": 9217279374, "lat": 36.351546, "lon": 10.20856}, {"type": "node", "id": 9217279375, "lat": 36.3516582, "lon": 10.2087391}, {"type": "node", "id": 9218272574, "lat": 36.3493411, "lon": 10.2081323}, {"type": "node", "id": 9218272575, "lat": 36.3492897, "lon": 10.2080563}, {"type": "node", "id": 9218272576, "lat": 36.3492259, "lon": 10.2081309}, {"type": "node", "id": 9218272577, "lat": 36.3492606, "lon": 10.2081757}, {"type": "node", "id": 9218272578, "lat": 36.3492765, "lon": 10.2081589}, {"type": "node", "id": 9218272579, "lat": 36.3492927, "lon": 10.2081829}, {"type": "node", "id": 9232984899, "lat": 36.3548655, "lon": 10.2102198}, {"type": "node", "id": 9232984902, "lat": 36.3547984, "lon": 10.2102636}, {"type": "node", "id": 9232984903, "lat": 36.3548321, "lon": 10.2102887}, {"type": "node", "id": 9233704583, "lat": 36.3608316, "lon": 10.2153182}, {"type": "node", "id": 9233704584, "lat": 36.3609027, "lon": 10.2153811}, {"type": "node", "id": 9233704585, "lat": 36.3608256, "lon": 10.2155153}, {"type": "node", "id": 9233704586, "lat": 36.3607655, "lon": 10.2151925}, {"type": "node", "id": 9252846313, "lat": 36.3139872, "lon": 10.2105595, "tags": {"amenity": "restaurant"}}, {"type": "node", "id": 9518973717, "lat": 36.3959441, "lon": 10.1415078, "tags": {"amenity": "restaurant", "internet_access": "wlan", "name:en": "La Vall\u00e9e", "opening_hours": "Mo-Su 09:00-20:00", "phone": "+216 92 575 792"}}, {"type": "node", "id": 11865797564, "lat": 36.3915484, "lon": 10.1364065, "tags": {"amenity": "cafe", "name": "The Bungalow Coffee Shop"}}, {"type": "node", "id": 11865833324, "lat": 36.3972762, "lon": 10.1352662, "tags": {"amenity": "cafe", "name": "Cafe le Rendez Vous"}}, {"type": "node", "id": 11865853391, "lat": 36.4023223, "lon": 10.1330906, "tags": {"amenity": "cafe", "name": "\u0645\u0642\u0647\u0649 \u062d\u0645\u062f\u064a"}}, {"type": "node", "id": 11865929809, "lat": 36.4019744, "lon": 10.1330777, "tags": {"amenity": "cafe", "name": "Cafe Hamdi"}}, {"type": "node", "id": 11865939473, "lat": 36.4095679, "lon": 10.1373795, "tags": {"amenity": "cafe", "name": "cafe Bouallague"}}, {"type": "node", "id": 12871327701, "lat": 36.4266484, "lon": 10.1203439, "tags": {"addr:street": "\u0627\u0644\u0637\u0631\u064a\u0642 \u0627\u0644\u062c\u0647\u0648\u064a\u0629 \u0645\u062c\u0627\u0632 \u0627\u0644\u0628\u0627\u0628 - \u0646\u0627\u0628\u0644", "amenity": "restaurant", "cuisine": "steak_house", "name": "\u0645\u0634\u0627\u0648\u064a \u0627\u0633\u062a\u0631\u0627\u062d\u0629 \u0627\u0644\u0639\u0644\u0648\u0634"}}, {"type": "node", "id": 12871327801, "lat": 36.4267238, "lon": 10.1202893, "tags": {"addr:street": "\u0627\u0644\u0637\u0631\u064a\u0642 \u0627\u0644\u062c\u0647\u0648\u064a\u0629 \u0645\u062c\u0627\u0632 \u0627\u0644\u0628\u0627\u0628 - \u0646\u0627\u0628\u0644", "amenity": "restaurant", "cuisine": "steak_house", "name": "\u0645\u0634\u0627\u0648\u064a \u0627\u0633\u062a\u0631\u0627\u062d\u0629 \u0627\u0644\u0639\u0644\u0648\u0634"}}, {"type": "way", "id": 293025515, "nodes": [2965807178, 2965807179, 2965807180, 9232984902, 9232984903, 9232984899, 2965807181, 2965807178], "tags": {"amenity": "cafe", "building": "yes", "internet_access": "yes", "name": "Caf\u00e9 El Maouel", "smoking": "yes", "wheelchair": "yes"}}, {"type": "way", "id": 293025517, "nodes": [2965807182, 2965807183, 2965807184, 2965807185, 2965807182], "tags": {"amenity": "cafe", "building": "yes", "name": "Caf\u00e9 Plus"}}, {"type": "way", "id": 293028288, "nodes": [2965814581, 2965814582, 2965814583, 2965814584, 2965814581], "tags": {"amenity": "cafe", "building": "yes", "internet_access": "no", "name": "Caf\u00e9 EL MALOUF", "smoking": "yes"}}, {"type": "way", "id": 486595038, "nodes": [4791816052, 4791816051, 4791816050, 4791816049, 4791816052], "tags": {"amenity": "restaurant", "building": "yes", "cuisine": "regional", "name": "Dar Zaghouan", "tourism": "hotel"}}, {"type": "way", "id": 731809598, "nodes": [6852999805, 6852999814, 6852999806, 6852999807, 6852999808, 6852999809, 6852999805], "tags": {"addr:city": "Zaghouan", "addr:housenumber": "En face du service des mines", "addr:postcode": "1100", "addr:street": "Zone industrielle", "amenity": "cafe", "building": "yes", "building:levels": "1", "internet_access": "no", "name": "\u0643\u0627\u0641\u064a\u062a\u064a\u0631\u064a\u0627 \u0628\u0646 \u062e\u0627\u0644\u062f", "name:ar": "\u0643\u0627\u0641\u064a\u062a\u064a\u0631\u064a\u0627 \u0628\u0646 \u062e\u0627\u0644\u062f", "name:fr": "Caf\u00e9t\u00e9ria BEN KHALED", "outdoor_seating": "yes"}}, {"type": "way", "id": 731809599, "nodes": [6852999806, 6852999810, 6852999811, 6852999807, 6852999806], "tags": {"addr:city": "Zaghouan", "addr:housenumber": "En face du service des mines", "addr:postcode": "1100", "addr:street": "Zone industrielle", "amenity": "restaurant", "building": "yes", "cuisine": "regional;sandwich", "name": "\u0645\u0637\u0639\u0645 \u0628\u0646 \u062e\u0627\u0644\u062f", "name:ar": "\u0645\u0637\u0639\u0645 \u0628\u0646 \u062e\u0627\u0644\u062f", "name:fr": "Restaurant BEN KHALED"}}, {"type": "way", "id": 993275406, "nodes": [9176511190, 9176511191, 9176511192, 9176511193, 9176511190], "tags": {"amenity": "restaurant", "building": "yes", "cuisine": "tacos;pizza;burger;sandwich;chicken;seafood;coffee_shop", "diet:meat": "yes", "name": "Onze 52", "phone": "+216 22 666 106"}}, {"type": "way", "id": 993411844, "nodes": [9177826962, 9177826963, 9177826964, 9233704586, 9177826965, 9177826966, 9177826967, 9233704583, 9233704584, 9177826968, 9233704585, 9177826969, 9177826962], "tags": {"amenity": "cafe", "building": "yes", "name": "L'escale", "phone": "+216 98 478 836"}}, {"type": "way", "id": 996004206, "nodes": [9196996435, 9196996436, 9196996437, 9196996438, 9196996439, 9196996440, 9196996435], "tags": {"addr:city": "Zriba", "addr:postcode": "1122", "amenity": "restaurant", "building": "yes"}}, {"type": "way", "id": 998264078, "nodes": [9217279372, 9217279373, 9217279374, 9217279375, 9217279372], "tags": {"amenity": "cafe", "building": "yes", "cuisine": "coffee_shop"}}, {"type": "way", "id": 998380183, "nodes": [9218272574, 9218272575, 9218272576, 9218272577, 9218272578, 9218272579, 9218272574], "tags": {"amenity": "cafe", "building": "yes", "cuisine": "coffee_shop", "internet_access": "wlan", "internet_access:fee": "no", "name": "anis", "opening_hours": "5:00-22:00"}}]}