{"version": 0.6, "generator": "Overpass API 0.7.62.7 375dc00a", "osm3s": {"timestamp_osm_base": "2025-06-14T13:22:01Z", "copyright": "The data included in this document is from www.openstreetmap.org. The data is made available under ODbL."}, "elements": [{"type": "node", "id": 4119305457, "lat": 35.3690341, "lon": 8.2404914, "tags": {"addr:city": "\u0628\u0643\u0627\u0631\u064a\u0629", "addr:city:ar": "\u0628\u0643\u0627\u0631\u064a\u0629", "amenity": "cafe", "name": "\u0645\u0642\u0647\u0649 \u0641\u0631\u062d", "name:ar": "\u0645\u0642\u0647\u0649 \u0641\u0631\u062d", "name:fr": "Caf\u00e9 Farah"}}, {"type": "node", "id": 4126341013, "lat": 35.3705095, "lon": 8.2407495, "tags": {"addr:city": "\u0628\u0643\u0627\u0631\u064a\u0629", "addr:city:ar": "\u0628\u0643\u0627\u0631\u064a\u0629", "amenity": "cafe"}}, {"type": "node", "id": 4126349092, "lat": 35.3704381, "lon": 8.242615, "tags": {"addr:city": "\u0628\u0643\u0627\u0631\u064a\u0629", "addr:city:ar": "\u0628\u0643\u0627\u0631\u064a\u0629", "amenity": "cafe"}}, {"type": "node", "id": 4127864129, "lat": 35.3758094, "lon": 8.2399167, "tags": {"addr:city": "\u0628\u0643\u0627\u0631\u064a\u0629", "addr:city:ar": "\u0628\u0643\u0627\u0631\u064a\u0629", "amenity": "restaurant", "name": "Resto", "name:fr": "Resto"}}, {"type": "node", "id": 5890732085, "lat": 35.2925802, "lon": 8.27983, "tags": {"addr:postcode": "12041", "addr:street": "Route de Bouchebka - Fronti\u00e8re Alg\u00e9ro Tunisienne", "amenity": "cafe", "name": "\u0645\u0642\u0647\u0649 \u0627\u0644\u062c\u0648\u0627\u0644\u0629", "name:ar": "\u0645\u0642\u0647\u0649 \u0627\u0644\u062c\u0648\u0627\u0644\u0629", "name:en": "Cafeteria eldjawala", "name:fr": "Caf\u00e9 al Jawala"}}, {"type": "node", "id": 6180695005, "lat": 35.375106, "lon": 8.2404758, "tags": {"addr:city": "\u0628\u0643\u0627\u0631\u064a\u0629", "addr:city:ar": "\u0628\u0643\u0627\u0631\u064a\u0629", "amenity": "cafe", "name": "\u0645\u0642\u0647\u0649 \u0627\u0644\u062d\u062f\u064a\u0642\u0629", "name:ar": "\u0645\u0642\u0647\u0649 \u0627\u0644\u062d\u062f\u064a\u0642\u0629", "name:fr": "Le Garden Cafe", "opening_hours": "09:00-22:00"}}, {"type": "node", "id": 6262709786, "lat": 35.3759137, "lon": 8.2369729, "tags": {"amenity": "restaurant", "name": "Resto", "name:fr": "Resto"}}, {"type": "node", "id": 6262709793, "lat": 35.3756097, "lon": 8.2405348, "tags": {"amenity": "cafe"}}]}