{"version": 0.6, "generator": "Overpass API 0.7.62.7 375dc00a", "osm3s": {"timestamp_osm_base": "2025-06-14T14:35:15Z", "copyright": "The data included in this document is from www.openstreetmap.org. The data is made available under ODbL."}, "elements": [{"type": "node", "id": 273099588, "lat": 37.7059038, "lon": 20.772327, "tags": {"amenity": "restaurant", "name": "Cave Damianos", "opening_hours": "18:00-23:00", "website": "https://www.cavedamianoszante.com/"}}, {"type": "node", "id": 904436616, "lat": 37.819957, "lon": 20.8624583, "tags": {"amenity": "restaurant", "name": "Stamnes"}}, {"type": "node", "id": 904436685, "lat": 37.8194129, "lon": 20.862414, "tags": {"amenity": "restaurant", "cuisine": "regional", "name": "The Old Village"}}, {"type": "node", "id": 904436695, "lat": 37.8187297, "lon": 20.8624048, "tags": {"amenity": "restaurant", "cuisine": "indian", "name": "Taj Mahal"}}, {"type": "node", "id": 913721090, "lat": 37.8163847, "lon": 20.8641161, "tags": {"amenity": "restaurant", "name": "The Med"}}, {"type": "node", "id": 913721102, "lat": 37.8171731, "lon": 20.8636811, "tags": {"amenity": "restaurant", "description": "Fish & Chips Bar", "name": "The Golden Fish"}}, {"type": "node", "id": 913721103, "lat": 37.8180638, "lon": 20.8629665, "tags": {"amenity": "cafe", "name": "Cafe/Pastry Shop"}}, {"type": "node", "id": 913721104, "lat": 37.8158942, "lon": 20.8647605, "tags": {"amenity": "cafe", "description": "Crepes/Waffles/Ice"}}, {"type": "node", "id": 913721108, "lat": 37.8179257, "lon": 20.8629772, "tags": {"amenity": "restaurant", "cuisine": "regional", "name": "The Olde Vineyard"}}, {"type": "node", "id": 913721122, "lat": 37.8158101, "lon": 20.8643475, "tags": {"amenity": "restaurant", "name": "Drosia"}}, {"type": "node", "id": 913721129, "lat": 37.8213136, "lon": 20.8637936, "tags": {"amenity": "restaurant", "cuisine": "regional", "name": "Avgoustis"}}, {"type": "node", "id": 913820722, "lat": 37.6823392, "lon": 20.8359328, "tags": {"amenity": "restaurant", "name": "\u03a4\u0396\u0391\u039d\u0395\u03a4\u039f\u03a3"}}, {"type": "node", "id": 913820766, "lat": 37.6868637, "lon": 20.8366414, "tags": {"amenity": "restaurant", "name": "Poseidon"}}, {"type": "node", "id": 913821204, "lat": 37.6837102, "lon": 20.8299876, "tags": {"amenity": "restaurant"}}, {"type": "node", "id": 913821690, "lat": 37.6865295, "lon": 20.8354109, "tags": {"amenity": "restaurant", "cuisine": "regional", "name": "Patari"}}, {"type": "node", "id": 913821800, "lat": 37.6826474, "lon": 20.8359145, "tags": {"amenity": "cafe", "name": "Rock Cafe"}}, {"type": "node", "id": 913822077, "lat": 37.6830748, "lon": 20.8358351, "tags": {"amenity": "restaurant", "description": "Free WLAN Internet", "name": "Taverna Keri"}}, {"type": "node", "id": 913822179, "lat": 37.682966, "lon": 20.8358423, "tags": {"amenity": "restaurant", "name": "Tzanetos"}}, {"type": "node", "id": 913949909, "lat": 37.7900815, "lon": 20.8941131, "tags": {"amenity": "cafe"}}, {"type": "node", "id": 913949920, "lat": 37.79086, "lon": 20.8946109, "tags": {"amenity": "cafe", "name": "The Best"}}, {"type": "node", "id": 925527734, "lat": 37.8155127, "lon": 20.8650429, "tags": {"amenity": "restaurant", "name": "Zeus"}}, {"type": "node", "id": 925527736, "lat": 37.8130372, "lon": 20.8681044, "tags": {"amenity": "restaurant", "name": "Obelix"}}, {"type": "node", "id": 925527738, "lat": 37.8149777, "lon": 20.8659408, "tags": {"amenity": "cafe", "name": "Pipi's Internet Bar"}}, {"type": "node", "id": 925527747, "lat": 37.8156392, "lon": 20.8651594, "tags": {"amenity": "restaurant", "name": "Giorgio's"}}, {"type": "node", "id": 925527748, "lat": 37.8154382, "lon": 20.8655577, "tags": {"amenity": "cafe", "name": "Warm&Fresh"}}, {"type": "node", "id": 925527767, "lat": 37.8130722, "lon": 20.86834, "tags": {"amenity": "restaurant", "name": "Red Lion"}}, {"type": "node", "id": 925527769, "lat": 37.8164795, "lon": 20.8643943, "tags": {"amenity": "restaurant", "cuisine": "italian", "name": "Il Gusto"}}, {"type": "node", "id": 925527775, "lat": 37.8186804, "lon": 20.8618735, "tags": {"amenity": "restaurant", "name": "Grill House"}}, {"type": "node", "id": 925527776, "lat": 37.8153703, "lon": 20.8653537, "tags": {"amenity": "restaurant", "description": "Grill House", "name": "Two Brothers"}}, {"type": "node", "id": 925527778, "lat": 37.8140812, "lon": 20.8671077, "tags": {"amenity": "restaurant", "name": "Nemesis Taverna"}}, {"type": "node", "id": 925527785, "lat": 37.8154917, "lon": 20.8653905, "tags": {"amenity": "restaurant", "cuisine": "asian", "name": "Aasian Feast"}}, {"type": "node", "id": 925527797, "lat": 37.8135823, "lon": 20.8675304, "tags": {"amenity": "restaurant", "name": "Taverna Tsilivi"}}, {"type": "node", "id": 925527802, "lat": 37.8134201, "lon": 20.8677307, "tags": {"amenity": "restaurant", "name": "Taverna Nefeli"}}, {"type": "node", "id": 925527804, "lat": 37.8160223, "lon": 20.8643199, "tags": {"amenity": "restaurant", "cuisine": "asian", "name": "Asian Palace"}}, {"type": "node", "id": 925692387, "lat": 37.80926, "lon": 20.8723947, "tags": {"amenity": "restaurant", "name": "Nostros"}}, {"type": "node", "id": 925692392, "lat": 37.808822, "lon": 20.8738759, "tags": {"amenity": "cafe", "cuisine": "coffee_shop", "internet_access": "wlan", "name": "Kali Mera", "name:el": "Kali Mera", "name:en": "Kali Mera", "name:nl": "Kali Mera"}}, {"type": "node", "id": 925692394, "lat": 37.8131417, "lon": 20.8723396, "tags": {"amenity": "restaurant", "name": "Steakhouse-BBQ", "name:en": "Yum Yum"}}, {"type": "node", "id": 925692398, "lat": 37.8137865, "lon": 20.8724118, "tags": {"amenity": "cafe", "name": "Coffee Corner"}}, {"type": "node", "id": 925692399, "lat": 37.8155918, "lon": 20.8687462}, {"type": "node", "id": 925692400, "lat": 37.815684, "lon": 20.8722226, "tags": {"amenity": "restaurant", "name": "Trenta Nove"}}, {"type": "node", "id": 925692403, "lat": 37.8098986, "lon": 20.8715312, "tags": {"amenity": "restaurant", "name": "Apollon"}}, {"type": "node", "id": 925692412, "lat": 37.8168326, "lon": 20.8665909, "tags": {"amenity": "restaurant", "name": "Dionisios Grill"}}, {"type": "node", "id": 925692415, "lat": 37.812575, "lon": 20.871387, "tags": {"amenity": "cafe", "name": "Red Point"}}, {"type": "node", "id": 925692432, "lat": 37.818575, "lon": 20.8663547, "tags": {"amenity": "restaurant", "name": "Intermezzo"}}, {"type": "node", "id": 925692453, "lat": 37.8180277, "lon": 20.8677157, "tags": {"amenity": "restaurant", "name": "Boomerang"}}, {"type": "node", "id": 925692455, "lat": 37.8105219, "lon": 20.8724152, "tags": {"amenity": "restaurant", "name": "Zorbas"}}, {"type": "node", "id": 925692459, "lat": 37.8161594, "lon": 20.8678923, "tags": {"amenity": "cafe", "name": "Bolero"}}, {"type": "node", "id": 925692461, "lat": 37.8128218, "lon": 20.8725453, "tags": {"amenity": "restaurant", "name": "Benikos Taverna"}}, {"type": "node", "id": 925692470, "lat": 37.8188478, "lon": 20.8663909, "tags": {"amenity": "restaurant"}}, {"type": "node", "id": 925692474, "lat": 37.8130505, "lon": 20.8702282, "tags": {"amenity": "restaurant", "name": "Romios"}}, {"type": "node", "id": 925692483, "lat": 37.8106107, "lon": 20.8723468, "tags": {"amenity": "restaurant", "name": "Bejing"}}, {"type": "node", "id": 925692484, "lat": 37.8106543, "lon": 20.8717732, "tags": {"amenity": "restaurant", "name": "The Olive Tree"}}, {"type": "node", "id": 925692485, "lat": 37.8098658, "lon": 20.8722703, "tags": {"amenity": "restaurant", "name": "Calypso"}}, {"type": "node", "id": 925692489, "lat": 37.8122951, "lon": 20.87182, "tags": {"amenity": "cafe", "cuisine": "international", "name": "CZone"}}, {"type": "node", "id": 925692497, "lat": 37.8130975, "lon": 20.8728291, "tags": {"amenity": "restaurant", "name": "Tsilivino"}}, {"type": "node", "id": 925692500, "lat": 37.817913, "lon": 20.8664755, "tags": {"amenity": "restaurant", "name": "Menir"}}, {"type": "node", "id": 925692503, "lat": 37.8101903, "lon": 20.8721201, "tags": {"amenity": "restaurant", "name": "Family"}}, {"type": "node", "id": 925692505, "lat": 37.8124791, "lon": 20.8721028, "tags": {"amenity": "restaurant", "name": "Gyroland"}}, {"type": "node", "id": 925692510, "lat": 37.8112755, "lon": 20.8721331, "tags": {"amenity": "cafe", "name": "Ice Cream Cafe Bar"}}, {"type": "node", "id": 925692511, "lat": 37.8127506, "lon": 20.873058, "tags": {"amenity": "restaurant", "brand": "Olive Garden", "brand:wikidata": "Q3045312", "brand:wikipedia": "en:Olive Garden", "cuisine": "italian", "name": "Olive Garden"}}, {"type": "node", "id": 925692520, "lat": 37.8128471, "lon": 20.8723786, "tags": {"amenity": "restaurant", "name": "Billy's Place"}}, {"type": "node", "id": 925692521, "lat": 37.8115887, "lon": 20.8720189, "tags": {"amenity": "restaurant", "name": "Athena"}}, {"type": "node", "id": 925692526, "lat": 37.8105251, "lon": 20.8719538, "tags": {"amenity": "restaurant", "name": "Piero's"}}, {"type": "node", "id": 925692532, "lat": 37.8159707, "lon": 20.8727674, "tags": {"amenity": "restaurant", "name": "Moby Dick"}}, {"type": "node", "id": 925692535, "lat": 37.812885, "lon": 20.8715363, "tags": {"amenity": "restaurant", "name": "Koukos"}}, {"type": "node", "id": 925692537, "lat": 37.8139522, "lon": 20.8672545, "tags": {"amenity": "restaurant", "cuisine": "italian", "name": "Romeo & Juliet"}}, {"type": "node", "id": 925692543, "lat": 37.8090755, "lon": 20.872569, "tags": {"amenity": "cafe", "description": "Internet Cafe", "name": "Space"}}, {"type": "node", "id": 925692547, "lat": 37.8127247, "lon": 20.8723937, "tags": {"amenity": "restaurant", "cuisine": "asian", "name": "Passage To Asia"}}, {"type": "node", "id": 925692550, "lat": 37.8131038, "lon": 20.8726024, "tags": {"amenity": "restaurant", "name": "Sweet Revenge"}}, {"type": "node", "id": 925692555, "lat": 37.8110274, "lon": 20.8720516, "tags": {"amenity": "restaurant", "name": "Majestic"}}, {"type": "node", "id": 925692567, "lat": 37.8110363, "lon": 20.8717336, "tags": {"amenity": "restaurant", "name": "Kolovos"}}, {"type": "node", "id": 925692569, "lat": 37.8184191, "lon": 20.8663876, "tags": {"amenity": "restaurant", "name": "Lamai"}}, {"type": "node", "id": 925692572, "lat": 37.8172774, "lon": 20.8696159, "tags": {"amenity": "restaurant", "name": "The Boat House"}}, {"type": "node", "id": 925692573, "lat": 37.8123883, "lon": 20.8716376, "tags": {"amenity": "restaurant", "name": "Contessina"}}, {"type": "node", "id": 925728084, "lat": 37.7371278, "lon": 20.9064873, "tags": {"amenity": "restaurant", "name": "Peluzo Restaurant", "opening_hours": "Mo-Su 10:00-00:30"}}, {"type": "node", "id": 925728117, "lat": 37.7374386, "lon": 20.9034302, "tags": {"amenity": "restaurant", "name": "Stani Taverna"}}, {"type": "node", "id": 925728121, "lat": 37.7178625, "lon": 20.8610671, "tags": {"amenity": "restaurant", "name": "Beach Point"}}, {"type": "node", "id": 925728144, "lat": 37.7181351, "lon": 20.8610908, "tags": {"amenity": "restaurant", "name": "Patio"}}, {"type": "node", "id": 925972410, "lat": 37.7816441, "lon": 20.8954414, "tags": {"amenity": "cafe", "name": "Dolce Cafe"}}, {"type": "node", "id": 926650036, "lat": 37.8413402, "lon": 20.7684642, "tags": {"amenity": "restaurant", "name": "Taverna Asteria"}}, {"type": "node", "id": 926650049, "lat": 37.8413258, "lon": 20.7685556, "tags": {"amenity": "restaurant", "name": "Ambrosia"}}, {"type": "node", "id": 926650050, "lat": 37.8413396, "lon": 20.7684068, "tags": {"amenity": "restaurant", "name": "Pita Break"}}, {"type": "node", "id": 926650066, "lat": 37.8439174, "lon": 20.7652806, "tags": {"amenity": "restaurant", "name": "Akrogiali"}}, {"type": "node", "id": 926650079, "lat": 37.8415335, "lon": 20.7675595, "tags": {"amenity": "restaurant", "contact:phone": "+30 2695 083100", "contact:website": "https://www.facebook.com/pages/Maestro-Restaurant-Alykes-Zakynthos-Greece/45206394410", "name": "Maestro", "source": "Bing"}}, {"type": "node", "id": 926650080, "lat": 37.842847, "lon": 20.7668752, "tags": {"amenity": "restaurant", "contact:email": "renesist@otenet.gr", "contact:phone": "+30 26950 83158", "contact:website": "http://www.alykes.com/tavernas/anatolikos/", "name": "Anatolikos"}}, {"type": "node", "id": 926650109, "lat": 37.8410276, "lon": 20.7695329, "tags": {"amenity": "restaurant", "contact:email": "ponderosa@otenet.gr", "contact:phone": "+30 26950 84023", "contact:website": "http://www.alykes.com/tavernas/ponderosa/index.php", "name": "Ponderosa"}}, {"type": "node", "id": 926650118, "lat": 37.8411441, "lon": 20.7679711, "tags": {"amenity": "restaurant", "name": "Denni's Dinner"}}, {"type": "node", "id": 926650130, "lat": 37.8415768, "lon": 20.7680074, "tags": {"amenity": "cafe", "name": "The Garden"}}, {"type": "node", "id": 926650169, "lat": 37.8415621, "lon": 20.7699191, "tags": {"amenity": "restaurant", "name": "Paporo"}}, {"type": "node", "id": 926650171, "lat": 37.8410575, "lon": 20.7676311, "tags": {"amenity": "restaurant", "name": "The vineleaf"}}, {"type": "node", "id": 926650177, "lat": 37.8409538, "lon": 20.7695747, "tags": {"amenity": "cafe", "name": "Corina"}}, {"type": "node", "id": 926650183, "lat": 37.8410973, "lon": 20.7693509, "tags": {"amenity": "restaurant", "contact:email": "fideliozante@gmail.com", "contact:phone": "+30 26950 83765", "contact:website": "http://www.fidelio.com.gr", "name": "Fidelio"}}, {"type": "node", "id": 926650228, "lat": 37.8412783, "lon": 20.7681317, "tags": {"amenity": "restaurant", "contact:website": "http://www.tripadvisor.co.uk/Restaurant_Review-g1093546-d2194482-Reviews-Zorba_s_Taverna-Alykes_Zakynthos_Ionian_Islands.html", "name": "Zorbas"}}, {"type": "node", "id": 926650255, "lat": 37.8418344, "lon": 20.7690709, "tags": {"amenity": "restaurant", "name": "Asteria"}}, {"type": "node", "id": 943199921, "lat": 37.7937818, "lon": 20.7268646, "tags": {"amenity": "restaurant", "cuisine": "greek"}}, {"type": "node", "id": 943199938, "lat": 37.7151147, "lon": 20.8595104, "tags": {"amenity": "restaurant", "cuisine": "greek", "name": "El Greco"}}, {"type": "node", "id": 943199940, "lat": 37.7378478, "lon": 20.9057277, "tags": {"amenity": "restaurant", "cuisine": "greek", "name": "Zepos"}}, {"type": "node", "id": 1561543425, "lat": 37.816064, "lon": 20.8785242}, {"type": "node", "id": 1561543428, "lat": 37.8160709, "lon": 20.8786716}, {"type": "node", "id": 1561543445, "lat": 37.8161282, "lon": 20.8785194}, {"type": "node", "id": 1561543446, "lat": 37.8161301, "lon": 20.8785611}, {"type": "node", "id": 1561543461, "lat": 37.8161929, "lon": 20.8785564}, {"type": "node", "id": 1561543463, "lat": 37.8161978, "lon": 20.8786621}, {"type": "node", "id": 1644014804, "lat": 37.672086, "lon": 20.8478685, "tags": {"amenity": "restaurant", "cuisine": "greek", "name": "To Votsalo"}}, {"type": "node", "id": 2301049949, "lat": 37.8259829, "lon": 20.8465352, "tags": {"amenity": "restaurant", "cuisine": "greek", "name": "Acrogiali"}}, {"type": "node", "id": 2301409893, "lat": 37.8376623, "lon": 20.8125549, "tags": {"amenity": "restaurant", "cuisine": "greek", "name": "Armonia"}}, {"type": "node", "id": 2301410959, "lat": 37.8407416, "lon": 20.8070702, "tags": {"amenity": "restaurant", "cuisine": "greek", "name": "\u0391\u03c7\u03af\u03bb\u03bb\u03b5\u03b9\u03bf\u03bd", "name:el": "\u0391\u03c7\u03af\u03bb\u03bb\u03b5\u03b9\u03bf\u03bd", "name:en": "Axilion Grill House"}}, {"type": "node", "id": 2301410963, "lat": 37.7905893, "lon": 20.7730867, "tags": {"amenity": "restaurant", "cuisine": "greek", "name": "\u03a4\u03b1\u03b2\u03ad\u03c1\u03bd\u03b1 \u0392\u03c1\u03ac\u03c7\u03bf\u03c2"}}, {"type": "node", "id": 2352151682, "lat": 37.8411624, "lon": 20.7691731, "tags": {"amenity": "restaurant", "contact:phone": "+30 26950 83455", "name": "Relax restaurant - bar", "source": "survey"}}, {"type": "node", "id": 2354764287, "lat": 37.8389182, "lon": 20.772273, "tags": {"amenity": "restaurant", "contact:email": "info@paradosiako.com.gr", "contact:phone": "+30 26950 83412", "contact:website": "http://www.paradosiako.com.gr", "name": "To Paradosiako"}}, {"type": "node", "id": 2381682794, "lat": 37.7474422, "lon": 20.9043256}, {"type": "node", "id": 2381682816, "lat": 37.7474503, "lon": 20.9042529}, {"type": "node", "id": 2381682820, "lat": 37.7472852, "lon": 20.9043143}, {"type": "node", "id": 2381682825, "lat": 37.7421445, "lon": 20.8945657}, {"type": "node", "id": 2381682844, "lat": 37.7472194, "lon": 20.9042154}, {"type": "node", "id": 2381682846, "lat": 37.7474293, "lon": 20.9042595}, {"type": "node", "id": 2381682848, "lat": 37.7472773, "lon": 20.9041973}, {"type": "node", "id": 2381682851, "lat": 37.7473014, "lon": 20.904397}, {"type": "node", "id": 2381682853, "lat": 37.74229, "lon": 20.8945245}, {"type": "node", "id": 2381682854, "lat": 37.7472671, "lon": 20.9041452}, {"type": "node", "id": 2381682855, "lat": 37.7473408, "lon": 20.9043573}, {"type": "node", "id": 2381682856, "lat": 37.7474199, "lon": 20.9040974}, {"type": "node", "id": 2381682862, "lat": 37.7421873, "lon": 20.8948077}, {"type": "node", "id": 2381682870, "lat": 37.7423328, "lon": 20.8947665}, {"type": "node", "id": 2381682875, "lat": 37.7473459, "lon": 20.9043831}, {"type": "node", "id": 2381682878, "lat": 37.7472414, "lon": 20.9043279}, {"type": "node", "id": 2416694764, "lat": 37.8441075, "lon": 20.7629508, "tags": {"amenity": "restaurant", "cuisine": "regional", "name": "Paolo's"}}, {"type": "node", "id": 2416694769, "lat": 37.8406041, "lon": 20.7646942, "tags": {"amenity": "restaurant", "cuisine": "international", "name": "Paradise"}}, {"type": "node", "id": 2416694771, "lat": 37.844471, "lon": 20.7610668, "tags": {"amenity": "restaurant", "name": "Apollo"}}, {"type": "node", "id": 2790641138, "lat": 37.7802148, "lon": 20.6787292, "tags": {"addr:city": "\u039a\u03b1\u03bc\u03c0\u03af", "addr:postcode": "29100", "amenity": "restaurant", "contact:email": "info@kampitavernastavros.gr", "contact:phone": "+30 2695048481", "contact:website": "www.kampitavernastavros.gr", "name": "\u03a4\u03b1\u03b2\u03ad\u03c1\u03bd\u03b1 \u03a3\u03c4\u03b1\u03c5\u03c1\u03cc\u03c2", "name:el": "\u03a4\u03b1\u03b2\u03ad\u03c1\u03bd\u03b1 \u03a3\u03c4\u03b1\u03c5\u03c1\u03cc\u03c2", "name:en": "Cross Tavern"}}, {"type": "node", "id": 2790641144, "lat": 37.7393104, "lon": 20.700746}, {"type": "node", "id": 2790641147, "lat": 37.7393876, "lon": 20.7005989}, {"type": "node", "id": 2790641149, "lat": 37.7394161, "lon": 20.7008059}, {"type": "node", "id": 2790641151, "lat": 37.7394835, "lon": 20.7006676}, {"type": "node", "id": 2869969323, "lat": 37.7660512, "lon": 20.9173906}, {"type": "node", "id": 2869969327, "lat": 37.7661103, "lon": 20.9175429}, {"type": "node", "id": 2869969331, "lat": 37.7662046, "lon": 20.9172954}, {"type": "node", "id": 2869969334, "lat": 37.7662637, "lon": 20.9174477}, {"type": "node", "id": 2873247335, "lat": 37.7650494, "lon": 20.9217818}, {"type": "node", "id": 2873247336, "lat": 37.765073, "lon": 20.9216714}, {"type": "node", "id": 2873251805, "lat": 37.7621407, "lon": 20.9285106}, {"type": "node", "id": 2873251806, "lat": 37.7621603, "lon": 20.9283743}, {"type": "node", "id": 2873251807, "lat": 37.7622834, "lon": 20.9285433}, {"type": "node", "id": 2873251808, "lat": 37.7623029, "lon": 20.9284069}, {"type": "node", "id": 2873258054, "lat": 37.7650063, "lon": 20.9219984}, {"type": "node", "id": 2873258055, "lat": 37.7650574, "lon": 20.9218105}, {"type": "node", "id": 2891963392, "lat": 37.8367797, "lon": 20.7775268, "tags": {"amenity": "restaurant", "name": "Poporo"}}, {"type": "node", "id": 2891963394, "lat": 37.8382406, "lon": 20.7757817, "tags": {"amenity": "restaurant", "cuisine": "regional,_british,_international, greek, american", "name": "The Cosy Corner", "website": "http://www.shortieweb.com/thecosycorner.htm"}}, {"type": "node", "id": 2891981346, "lat": 37.8423997, "lon": 20.7814264, "tags": {"amenity": "restaurant", "name": "Neraida"}}, {"type": "node", "id": 2891981347, "lat": 37.8372376, "lon": 20.7808659, "tags": {"amenity": "restaurant", "name": "En Elladi"}}, {"type": "node", "id": 2891981745, "lat": 37.8367906, "lon": 20.7789546, "tags": {"amenity": "restaurant", "name": "Horio"}}, {"type": "node", "id": 2891981747, "lat": 37.8366253, "lon": 20.7788476, "tags": {"amenity": "restaurant", "name": "Beriki's Family BBQ House"}}, {"type": "node", "id": 2891981749, "lat": 37.8366301, "lon": 20.7786701, "tags": {"amenity": "restaurant", "name": "Chinese and Indian"}}, {"type": "node", "id": 2891986370, "lat": 37.8364199, "lon": 20.7808229, "tags": {"amenity": "restaurant", "name": "La Caretta", "website": "https://www.zakynthoslacaretta.com/"}}, {"type": "node", "id": 2892002917, "lat": 37.8376253, "lon": 20.7769042, "tags": {"amenity": "restaurant", "name": "Elia"}}, {"type": "node", "id": 2892012308, "lat": 37.8365894, "lon": 20.7805822, "tags": {"amenity": "restaurant", "name": "Greco's"}}, {"type": "node", "id": 2892012802, "lat": 37.8407677, "lon": 20.7721715, "tags": {"amenity": "restaurant", "name": "\u039a\u03ce\u03c3\u03c4\u03b1\u03c2 \u03a0\u03bf\u03c5\u03bb\u03b9\u03ad\u03b6\u03bf\u03c2"}}, {"type": "node", "id": 2892012803, "lat": 37.8403271, "lon": 20.7745506, "tags": {"amenity": "restaurant", "name": "Oasis Beach Bar"}}, {"type": "node", "id": 2892013315, "lat": 37.8400083, "lon": 20.7776162, "tags": {"amenity": "cafe"}}, {"type": "node", "id": 2892029929, "lat": 37.8377857, "lon": 20.7769317, "tags": {"amenity": "restaurant", "name": "No Comment"}}, {"type": "node", "id": 2907803945, "lat": 37.8414717, "lon": 20.804064, "tags": {"amenity": "restaurant", "name": "Taverna Amoudi"}}, {"type": "node", "id": 2907803948, "lat": 37.8411773, "lon": 20.8047811, "tags": {"amenity": "restaurant", "name": "Kritamo"}}, {"type": "node", "id": 2907803950, "lat": 37.8403078, "lon": 20.8055374, "tags": {"amenity": "restaurant", "name": "Ovelix Grill House"}}, {"type": "node", "id": 2923811146, "lat": 37.7203731, "lon": 20.8617264, "tags": {"amenity": "restaurant", "cuisine": "regional", "name": "Pierros"}}, {"type": "node", "id": 2923823813, "lat": 37.7242786, "lon": 20.8646856, "tags": {"amenity": "restaurant", "name": "Mr. Dallas"}}, {"type": "node", "id": 2925520730, "lat": 37.7232095, "lon": 20.864845}, {"type": "node", "id": 2925520732, "lat": 37.7233074, "lon": 20.8647646}, {"type": "node", "id": 2925520733, "lat": 37.7233205, "lon": 20.8650348}, {"type": "node", "id": 2925520737, "lat": 37.7234265, "lon": 20.8649503}, {"type": "node", "id": 2925520738, "lat": 37.7234429, "lon": 20.8650898}, {"type": "node", "id": 2926606068, "lat": 37.7201567, "lon": 20.8351074}, {"type": "node", "id": 2926606069, "lat": 37.7201662, "lon": 20.8349595}, {"type": "node", "id": 2926606070, "lat": 37.7202488, "lon": 20.8351176}, {"type": "node", "id": 2926606071, "lat": 37.7202584, "lon": 20.8349697}, {"type": "node", "id": 2926667288, "lat": 37.7201554, "lon": 20.8345305}, {"type": "node", "id": 2926667289, "lat": 37.7202048, "lon": 20.8344939}, {"type": "node", "id": 2926667290, "lat": 37.7202484, "lon": 20.8346598}, {"type": "node", "id": 2926667291, "lat": 37.7202448, "lon": 20.8344975}, {"type": "node", "id": 2926667292, "lat": 37.7202712, "lon": 20.834548}, {"type": "node", "id": 2926667293, "lat": 37.7202935, "lon": 20.8345315}, {"type": "node", "id": 2926667294, "lat": 37.7203341, "lon": 20.8346193}, {"type": "node", "id": 2930818009, "lat": 37.7299757, "lon": 20.8753654}, {"type": "node", "id": 2930818020, "lat": 37.7302114, "lon": 20.8755575}, {"type": "node", "id": 2933321984, "lat": 37.7243513, "lon": 20.8667462}, {"type": "node", "id": 2933321985, "lat": 37.7244239, "lon": 20.866694}, {"type": "node", "id": 2933321986, "lat": 37.7244808, "lon": 20.8669548}, {"type": "node", "id": 2933321987, "lat": 37.7244864, "lon": 20.866739}, {"type": "node", "id": 2933321988, "lat": 37.7244992, "lon": 20.8667659}, {"type": "node", "id": 2933321989, "lat": 37.7245362, "lon": 20.866739}, {"type": "node", "id": 2933321990, "lat": 37.7245448, "lon": 20.8667587}, {"type": "node", "id": 2933321991, "lat": 37.7245618, "lon": 20.8667462}, {"type": "node", "id": 2933321992, "lat": 37.724613, "lon": 20.8668469}, {"type": "node", "id": 2933734620, "lat": 37.7314037, "lon": 20.8685296, "tags": {"amenity": "restaurant", "cuisine": "indian", "name": "Taj Mahal"}}, {"type": "node", "id": 2938805120, "lat": 37.72328, "lon": 20.8650743}, {"type": "node", "id": 2938805121, "lat": 37.7233251, "lon": 20.8651746}, {"type": "node", "id": 2938805122, "lat": 37.7233978, "lon": 20.8649895}, {"type": "node", "id": 2939341220, "lat": 37.7259695, "lon": 20.8692864, "tags": {"amenity": "restaurant", "cuisine": "greek", "name": "Giannis taverna", "phone": "+30 26950 53313"}}, {"type": "node", "id": 2939657255, "lat": 37.7257038, "lon": 20.8689858, "tags": {"amenity": "restaurant", "cuisine": "regional", "name": "The Isles"}}, {"type": "node", "id": 2940042960, "lat": 37.7309247, "lon": 20.8710115, "tags": {"amenity": "restaurant", "name": "Apollon"}}, {"type": "node", "id": 2943710894, "lat": 37.8198826, "lon": 20.6759443}, {"type": "node", "id": 2943710895, "lat": 37.8201009, "lon": 20.6758376}, {"type": "node", "id": 2943710896, "lat": 37.8200366, "lon": 20.6756269}, {"type": "node", "id": 2943710897, "lat": 37.8199443, "lon": 20.675672}, {"type": "node", "id": 2943710898, "lat": 37.8199589, "lon": 20.67572}, {"type": "node", "id": 2943710899, "lat": 37.8198329, "lon": 20.6757816}, {"type": "node", "id": 2945722825, "lat": 37.8169206, "lon": 20.8806889, "tags": {"amenity": "restaurant", "name": "Balcony"}}, {"type": "node", "id": 2945722936, "lat": 37.8130228, "lon": 20.8752469}, {"type": "node", "id": 2945722937, "lat": 37.8130614, "lon": 20.8755026}, {"type": "node", "id": 2945722938, "lat": 37.8128118, "lon": 20.8755579}, {"type": "node", "id": 2945722939, "lat": 37.8127706, "lon": 20.8753756}, {"type": "node", "id": 2961401375, "lat": 37.7657183, "lon": 20.9207302, "tags": {"amenity": "cafe", "name": "Bakery", "shop": "confectionery"}}, {"type": "node", "id": 2961401382, "lat": 37.7220676, "lon": 20.8633837, "tags": {"amenity": "restaurant", "name": "Kahuna"}}, {"type": "node", "id": 2961401383, "lat": 37.7253808, "lon": 20.868396, "tags": {"amenity": "restaurant", "name": "Little Ariel"}}, {"type": "node", "id": 2961401387, "lat": 37.7238444, "lon": 20.8659004, "tags": {"amenity": "restaurant", "internet_access": "wlan", "name": "Sea Side"}}, {"type": "node", "id": 2961401389, "lat": 37.7235648, "lon": 20.8655383, "tags": {"amenity": "restaurant", "name": "Tasos taverna"}}, {"type": "node", "id": 3104062335, "lat": 37.7228565, "lon": 20.8643687, "tags": {"amenity": "cafe", "cuisine": "sandwich", "internet_access": "wlan", "name": "Kafenio", "smoking": "yes", "website": "http://www.virtualzakynthos.gr/laganas/beach-bars/kafenio.html"}}, {"type": "node", "id": 3118357335, "lat": 37.8401666, "lon": 20.7710738, "tags": {"addr:city": "Alykes", "addr:postcode": "29090", "addr:street": "main str", "amenity": "cafe", "internet_access": "yes", "name": "Riverside", "opening_hours": "09:00-18:00", "smoking": "outside"}}, {"type": "node", "id": 3602839200, "lat": 37.825113, "lon": 20.8450721}, {"type": "node", "id": 3602839201, "lat": 37.8250628, "lon": 20.8452219}, {"type": "node", "id": 3602839202, "lat": 37.8251768, "lon": 20.8452831}, {"type": "node", "id": 3602839203, "lat": 37.825227, "lon": 20.8451332}, {"type": "node", "id": 3640902180, "lat": 37.7063263, "lon": 20.7727055}, {"type": "node", "id": 3640902183, "lat": 37.7063853, "lon": 20.772799}, {"type": "node", "id": 3640902185, "lat": 37.7063997, "lon": 20.7727747}, {"type": "node", "id": 3640902186, "lat": 37.7064105, "lon": 20.7725632}, {"type": "node", "id": 3640902187, "lat": 37.7064249, "lon": 20.7728364}, {"type": "node", "id": 3640902188, "lat": 37.7064473, "lon": 20.772661}, {"type": "node", "id": 3640902189, "lat": 37.7064575, "lon": 20.7727812}, {"type": "node", "id": 3640902190, "lat": 37.7064712, "lon": 20.7726206}, {"type": "node", "id": 3640902191, "lat": 37.7064718, "lon": 20.7727946}, {"type": "node", "id": 3640904694, "lat": 37.7065137, "lon": 20.7727237}, {"type": "node", "id": 3646780166, "lat": 37.7654921, "lon": 20.9202221}, {"type": "node", "id": 3646780174, "lat": 37.7655594, "lon": 20.9200313}, {"type": "node", "id": 3646780187, "lat": 37.7656985, "lon": 20.9203387}, {"type": "node", "id": 3646780695, "lat": 37.7657659, "lon": 20.9201478}, {"type": "node", "id": 3660331624, "lat": 37.764976, "lon": 20.9216003}, {"type": "node", "id": 3660331729, "lat": 37.7650112, "lon": 20.9214717}, {"type": "node", "id": 3660331733, "lat": 37.7650895, "lon": 20.9220341}, {"type": "node", "id": 3660331738, "lat": 37.7652055, "lon": 20.9217273}, {"type": "node", "id": 3660331741, "lat": 37.7652459, "lon": 20.9215145}, {"type": "node", "id": 3660331742, "lat": 37.7652694, "lon": 20.9215624}, {"type": "node", "id": 3788787647, "lat": 37.654565, "lon": 20.8101573, "tags": {"amenity": "restaurant", "name": "\"\u039f \u03c6\u03ac\u03c1\u03bf\u03c2 \u03c4\u03bf\u03c5 \u039a\u03b5\u03c1\u03b9\u03bf\u03cd\"", "name:el": "\"\u039f \u03c6\u03ac\u03c1\u03bf\u03c2 \u03c4\u03bf\u03c5 \u039a\u03b5\u03c1\u03b9\u03bf\u03cd\"", "name:en": "Mizithres View Bar"}}, {"type": "node", "id": 4231270732, "lat": 37.729353, "lon": 20.7096623, "tags": {"amenity": "restaurant"}}, {"type": "node", "id": 4231278228, "lat": 37.7286699, "lon": 20.7096266, "tags": {"amenity": "cafe", "cuisine": "coffee_shop", "internet_access": "no", "opening_hours": "Saison, 10 Uhr bis Sonnenuntergang"}}, {"type": "node", "id": 4231278229, "lat": 37.7287179, "lon": 20.7098098, "tags": {"amenity": "cafe", "cuisine": "coffee_shop", "internet_access": "no", "opening_hours": "Saison, 10 Uhr bis Sonnenuntergang"}}, {"type": "node", "id": 4231388101, "lat": 37.8262599, "lon": 20.8479777}, {"type": "node", "id": 4231388102, "lat": 37.8261962, "lon": 20.8479694}, {"type": "node", "id": 4231388103, "lat": 37.8262553, "lon": 20.8470577}, {"type": "node", "id": 4231388104, "lat": 37.8263827, "lon": 20.846926}, {"type": "node", "id": 4231388105, "lat": 37.8264242, "lon": 20.8470567}, {"type": "node", "id": 4231388106, "lat": 37.8264251, "lon": 20.8472819}, {"type": "node", "id": 4245894394, "lat": 37.7908327, "lon": 20.8948172, "tags": {"amenity": "restaurant", "name": "Latas Restaurant"}}, {"type": "node", "id": 4280510255, "lat": 37.778594, "lon": 20.8979171, "tags": {"amenity": "restaurant", "name": "Porto di Ammos"}}, {"type": "node", "id": 4311716955, "lat": 37.7584405, "lon": 20.9215444}, {"type": "node", "id": 4311716956, "lat": 37.7583299, "lon": 20.921463}, {"type": "node", "id": 4311716957, "lat": 37.7582763, "lon": 20.9215795}, {"type": "node", "id": 4311716958, "lat": 37.7583868, "lon": 20.9216609}, {"type": "node", "id": 4311716965, "lat": 37.7583912, "lon": 20.9215081}, {"type": "node", "id": 4314010395, "lat": 37.8424172, "lon": 20.7665126, "tags": {"amenity": "cafe", "name": "Coffe shop the Terrace"}}, {"type": "node", "id": 4317831485, "lat": 37.7582973, "lon": 20.921534}, {"type": "node", "id": 4333652011, "lat": 37.7914098, "lon": 20.8999178, "tags": {"amenity": "cafe", "name": "Plaz Cafe"}}, {"type": "node", "id": 4417314390, "lat": 37.8200681, "lon": 20.8503365, "tags": {"amenity": "restaurant", "cuisine": "greek", "internet_access": "wlan", "name:be": "\u041f\u0430\u043bi\u044f\u043a\u0430\u043bi\u0432\u0430", "name:en": "Paliokaliva Village Restaurant", "name:ru": "\u041f\u0430\u043b\u0438\u043e\u043a\u0430\u043b\u0438\u0432\u0430", "opening_hours": "Mo-Su 10:00-23:00", "website": "https://www.paliokaliva.gr/pool-bar-zakynthos"}}, {"type": "node", "id": 4585345189, "lat": 37.8357747, "lon": 20.827956, "tags": {"amenity": "restaurant", "name:en": "fish taverna Porto roulis"}}, {"type": "node", "id": 4603474873, "lat": 37.7884115, "lon": 20.8990425, "tags": {"addr:city": "Zakynthos", "addr:postcode": "29100", "amenity": "cafe", "internet_access": "yes", "internet_access:fee": "no", "name": "San Marco Cafe", "outdoor_seating": "pedestrian_zone", "phone": "+30 26950 45701"}}, {"type": "node", "id": 4603474874, "lat": 37.7884978, "lon": 20.8989647, "tags": {"addr:city": "Zakynthos", "addr:postcode": "29100", "amenity": "cafe", "internet_access": "yes", "internet_access:fee": "no", "name": "Casino Cafe", "name:el": "Senso Cafe", "name:en": "Senso Cafe", "opening_hours": "09:00-03:00", "outdoor_seating": "pedestrian_zone", "phone": "+30 26950 29107"}}, {"type": "node", "id": 4603514538, "lat": 37.7871334, "lon": 20.900355, "tags": {"amenity": "cafe"}}, {"type": "node", "id": 4729493190, "lat": 37.825764, "lon": 20.6438798, "tags": {"addr:housenumber": "290 91", "addr:street": "Elation", "amenity": "restaurant", "cuisine": "greek", "name:en": "Aeras Taverna", "name:ru": "\u0422\u0430\u0432\u0435\u0440\u043d\u0430 \u0410\u0435\u0440\u0430\u0441", "opening_hours": "Mo-Su 11:30-22:30", "phone": "+306974193801"}}, {"type": "node", "id": 4729520992, "lat": 37.8261833, "lon": 20.6438037, "tags": {"amenity": "restaurant", "cuisine": "greek", "name:en": "Aeras Taverna", "name:ru": "\u0422\u0430\u0432\u0435\u0440\u043d\u0430 \u0410\u0435\u0440\u0430\u0441"}}, {"type": "node", "id": 4737579026, "lat": 37.7104878, "lon": 20.8548866, "tags": {"amenity": "restaurant", "name:en": "Ole Ole", "name:nl": "ok\u00e9 ok\u00e9 restaurant", "opening_hours": "Mo-Su 10:00-01:00"}}, {"type": "node", "id": 4741682240, "lat": 37.7108072, "lon": 20.8548459, "tags": {"amenity": "restaurant", "name:nl": "adelfia taverna"}}, {"type": "node", "id": 4741682242, "lat": 37.7152076, "lon": 20.8602227, "tags": {"amenity": "restaurant", "name:nl": "Boziki's"}}, {"type": "node", "id": 4741682525, "lat": 37.7105827, "lon": 20.856972, "tags": {"amenity": "restaurant", "name": "Syrtaki", "name:nl": "Syrtaki"}}, {"type": "node", "id": 4741682628, "lat": 37.7142346, "lon": 20.8555731, "tags": {"amenity": "restaurant", "name:nl": "Bougainville Zakynthos"}}, {"type": "node", "id": 4934321521, "lat": 37.761379, "lon": 20.9324901, "tags": {"amenity": "restaurant", "name:en": "Anadalis"}}, {"type": "node", "id": 4934324822, "lat": 37.762693, "lon": 20.9234889, "tags": {"amenity": "cafe", "name:en": "24/7"}}, {"type": "node", "id": 4937875821, "lat": 37.7869437, "lon": 20.8980584, "tags": {"addr:housenumber": "9", "addr:street": "El. Venizelou", "amenity": "restaurant", "cuisine": "greek", "name": "Mythos Grill House", "name:el": "Mythos Grill House", "name:en": "Mythos Grill House", "name:pt": "Mythos Grill House", "opening_hours": "Mo-Su 12:00-00:00", "phone": "2695025858"}}, {"type": "node", "id": 4943999435, "lat": 37.7880654, "lon": 20.899996, "tags": {"amenity": "restaurant", "name:en": "Prosilio restaurant"}}, {"type": "node", "id": 4944020427, "lat": 37.7400281, "lon": 20.8972718, "tags": {"amenity": "restaurant", "name": "Four Bridges"}}, {"type": "node", "id": 4944020428, "lat": 37.7426927, "lon": 20.9022116, "tags": {"amenity": "restaurant", "name:en": "Tazie's restaurant"}}, {"type": "node", "id": 4944020429, "lat": 37.8161364, "lon": 20.8678236, "tags": {"amenity": "restaurant", "name:en": "The halfway house"}}, {"type": "node", "id": 4944024428, "lat": 37.8414258, "lon": 20.7702455, "tags": {"amenity": "restaurant", "name:en": "Porto paradiso beach bar"}}, {"type": "node", "id": 4944024429, "lat": 37.7313165, "lon": 20.8665628, "tags": {"amenity": "restaurant", "name:en": "Panos"}}, {"type": "node", "id": 4944024430, "lat": 37.7792009, "lon": 20.8974852, "tags": {"amenity": "restaurant", "name:en": "Nostimon imar"}}, {"type": "node", "id": 4944169921, "lat": 37.7239248, "lon": 20.8662346, "tags": {"amenity": "restaurant", "name:en": "Seaside"}}, {"type": "node", "id": 4944230623, "lat": 37.7427349, "lon": 20.8997587, "tags": {"amenity": "restaurant", "name": "Ambrosia"}}, {"type": "node", "id": 4944238022, "lat": 37.7614273, "lon": 20.9318532, "tags": {"amenity": "restaurant", "name:en": "Andalis"}}, {"type": "node", "id": 4977125465, "lat": 37.844215, "lon": 20.6463323, "tags": {"amenity": "restaurant", "cuisine": "regional", "name": "Taverna Jorgos"}}, {"type": "node", "id": 5036073921, "lat": 37.8363854, "lon": 20.7805034, "tags": {"addr:city": "\u0391\u03bb\u03c5\u03ba\u03b1\u03bd\u03ac\u03c2", "amenity": "restaurant", "internet_access": "yes", "name": "Levante Taverna", "name:en": "Levante Taverna", "smoking": "yes"}}, {"type": "node", "id": 5174264422, "lat": 37.7836868, "lon": 20.8981635, "tags": {"amenity": "cafe", "name:en": "Madisons"}}, {"type": "node", "id": 5174680221, "lat": 37.6933296, "lon": 20.8299234, "tags": {"amenity": "cafe", "name": "The Windmill Taverna"}}, {"type": "node", "id": 5177927523, "lat": 37.7804922, "lon": 20.8951465, "tags": {"amenity": "cafe"}}, {"type": "node", "id": 5178217124, "lat": 37.7826381, "lon": 20.8958802, "tags": {"amenity": "cafe", "name:en": "Capu"}}, {"type": "node", "id": 5178217127, "lat": 37.7842348, "lon": 20.8969612, "tags": {"amenity": "cafe"}}, {"type": "node", "id": 5178217128, "lat": 37.7874938, "lon": 20.898023, "tags": {"amenity": "cafe"}}, {"type": "node", "id": 5178217129, "lat": 37.7875677, "lon": 20.8980874, "tags": {"amenity": "cafe", "cuisine": "ice_cream", "name:en": "Chillbox"}}, {"type": "node", "id": 5178217131, "lat": 37.7873593, "lon": 20.8980379, "tags": {"amenity": "cafe"}}, {"type": "node", "id": 5178217134, "lat": 37.7881683, "lon": 20.8991356, "tags": {"amenity": "cafe", "name": "Avant Garde", "name:en": "Avant Garde"}}, {"type": "node", "id": 5178217322, "lat": 37.7844503, "lon": 20.8970256, "tags": {"amenity": "cafe"}}, {"type": "node", "id": 5178217324, "lat": 37.7874541, "lon": 20.8980971, "tags": {"addr:housenumber": "23", "amenity": "cafe", "name:en": "Bliss"}}, {"type": "node", "id": 5178217423, "lat": 37.7755577, "lon": 20.8941686, "tags": {"amenity": "cafe"}}, {"type": "node", "id": 5178276422, "lat": 37.7881433, "lon": 20.899341, "tags": {"amenity": "cafe", "name:en": "Base"}}, {"type": "node", "id": 5178276522, "lat": 37.78815, "lon": 20.8988983, "tags": {"amenity": "restaurant", "cuisine": "italian_pizza;italian", "name": "Marpesa"}}, {"type": "node", "id": 5178276523, "lat": 37.7879977, "lon": 20.898373, "tags": {"amenity": "cafe", "cuisine": "greek", "name:en": "Op\u00e1ka"}}, {"type": "node", "id": 5178276621, "lat": 37.7881389, "lon": 20.8987861, "tags": {"amenity": "restaurant", "cuisine": "pasta;italian", "name": "Alesta"}}, {"type": "node", "id": 5178312223, "lat": 37.6612194, "lon": 20.816136, "tags": {"amenity": "cafe"}}, {"type": "node", "id": 5178312225, "lat": 37.6612679, "lon": 20.8160666, "tags": {"amenity": "cafe"}}, {"type": "node", "id": 5178326423, "lat": 37.7880938, "lon": 20.8995061, "tags": {"amenity": "cafe", "name:en": "Locos"}}, {"type": "node", "id": 5178326424, "lat": 37.7878517, "lon": 20.8994466, "tags": {"amenity": "cafe", "name:en": "Tsikoudia"}}, {"type": "node", "id": 5178346222, "lat": 37.7880162, "lon": 20.8993379, "tags": {"amenity": "cafe", "name:en": "Victoria"}}, {"type": "node", "id": 5178346223, "lat": 37.7880337, "lon": 20.899623, "tags": {"amenity": "cafe", "name:en": "Mesathes"}}, {"type": "node", "id": 5178350521, "lat": 37.7878498, "lon": 20.8990643, "tags": {"amenity": "cafe", "name:en": "Rakomeladiko"}}, {"type": "node", "id": 5178350523, "lat": 37.7875764, "lon": 20.8996988, "tags": {"amenity": "restaurant", "name:en": "Alektor"}}, {"type": "node", "id": 5181649124, "lat": 37.7881445, "lon": 20.8984984, "tags": {"amenity": "cafe", "name": "\u03b4\u03c9\u03b4\u03ce\u03bd\u03b7"}}, {"type": "node", "id": 5183390926, "lat": 37.7868827, "lon": 20.8950861, "tags": {"amenity": "cafe"}}, {"type": "node", "id": 5183557321, "lat": 37.7072118, "lon": 20.7767896, "tags": {"amenity": "cafe", "name": "Lagadi", "opening_hours": "Mo-Su 08:30-00:10", "phone": "+306976780400"}}, {"type": "node", "id": 5183632821, "lat": 37.7870523, "lon": 20.8981301, "tags": {"amenity": "cafe", "brand": "Coffee Island", "brand:wikidata": "Q60867333", "cuisine": "coffee_shop", "name": "Coffee Island", "name:en": "Coffee Island", "shop": "coffee", "takeaway": "yes", "website": "https://www.coffeeisland.gr/"}}, {"type": "node", "id": 5183806632, "lat": 37.7763762, "lon": 20.8999001, "tags": {"amenity": "cafe"}}, {"type": "node", "id": 5184021421, "lat": 37.6623966, "lon": 20.8176776, "tags": {"amenity": "restaurant", "name:en": "Taverna Sunset"}}, {"type": "node", "id": 5185921221, "lat": 37.7865682, "lon": 20.8984527, "tags": {"amenity": "cafe"}}, {"type": "node", "id": 5186523621, "lat": 37.675323, "lon": 20.8121961, "tags": {"amenity": "restaurant", "cuisine": "regional", "name:en": "Apelati", "tourism": "guest_house"}}, {"type": "node", "id": 5186543922, "lat": 37.6610759, "lon": 20.8158081, "tags": {"amenity": "cafe", "name": "Katerina\u2019s homemade food"}}, {"type": "node", "id": 5186566321, "lat": 37.7777645, "lon": 20.899767, "tags": {"amenity": "cafe"}}, {"type": "node", "id": 5187742831, "lat": 37.7544524, "lon": 20.8871121, "tags": {"amenity": "cafe", "name:en": "Air Canteen"}}, {"type": "node", "id": 5187742833, "lat": 37.7561774, "lon": 20.8881395}, {"type": "node", "id": 5187847521, "lat": 37.7758427, "lon": 20.898415, "tags": {"amenity": "cafe"}}, {"type": "node", "id": 5196423733, "lat": 37.7543024, "lon": 20.8867162, "tags": {"amenity": "cafe", "level": "0"}}, {"type": "node", "id": 5198012879, "lat": 37.7905607, "lon": 20.8942054, "tags": {"amenity": "restaurant"}}, {"type": "node", "id": 5339735498, "lat": 37.7778399, "lon": 20.9002587, "tags": {"amenity": "restaurant", "name": "\u039f \u039a\u03cc\u03bc\u03b7\u03c2"}}, {"type": "node", "id": 5715557421, "lat": 37.7127359, "lon": 20.8598069, "tags": {"amenity": "restaurant", "name:en": "Ifalos Beach Bar"}}, {"type": "node", "id": 5719290822, "lat": 37.7449837, "lon": 20.9175258}, {"type": "node", "id": 5719290823, "lat": 37.7451406, "lon": 20.9175286}, {"type": "node", "id": 5719290824, "lat": 37.7451395, "lon": 20.9176211}, {"type": "node", "id": 5719290825, "lat": 37.7449826, "lon": 20.9176184}, {"type": "node", "id": 5779836851, "lat": 37.7439889, "lon": 20.9055305}, {"type": "node", "id": 5779836852, "lat": 37.7438763, "lon": 20.9053705}, {"type": "node", "id": 5779836853, "lat": 37.7438954, "lon": 20.9053625}, {"type": "node", "id": 5779836854, "lat": 37.743871, "lon": 20.9052807}, {"type": "node", "id": 5779836855, "lat": 37.7439134, "lon": 20.9052606}, {"type": "node", "id": 5779836856, "lat": 37.7439325, "lon": 20.905337}, {"type": "node", "id": 5779836857, "lat": 37.7439484, "lon": 20.9053303}, {"type": "node", "id": 5779836858, "lat": 37.7439304, "lon": 20.9052632}, {"type": "node", "id": 5779836859, "lat": 37.7439611, "lon": 20.9052512}, {"type": "node", "id": 5779836860, "lat": 37.7439887, "lon": 20.9053786}, {"type": "node", "id": 5779836861, "lat": 37.7439527, "lon": 20.9053947}, {"type": "node", "id": 5779836862, "lat": 37.7440152, "lon": 20.9056294}, {"type": "node", "id": 5779836863, "lat": 37.7439601, "lon": 20.9056481}, {"type": "node", "id": 5779836864, "lat": 37.7439208, "lon": 20.9055006}, {"type": "node", "id": 5779836865, "lat": 37.7438784, "lon": 20.9055194}, {"type": "node", "id": 5779836866, "lat": 37.743819, "lon": 20.9053015}, {"type": "node", "id": 5779845705, "lat": 37.7438543, "lon": 20.9052865}, {"type": "node", "id": 5779845706, "lat": 37.7439747, "lon": 20.9056432}, {"type": "node", "id": 5780825132, "lat": 37.7378589, "lon": 20.9055501}, {"type": "node", "id": 5780825133, "lat": 37.7378659, "lon": 20.9056249}, {"type": "node", "id": 5780825134, "lat": 37.7378674, "lon": 20.9057163}, {"type": "node", "id": 5780825135, "lat": 37.7378702, "lon": 20.9056854}, {"type": "node", "id": 5780825136, "lat": 37.7378809, "lon": 20.9057424}, {"type": "node", "id": 5780825137, "lat": 37.7378881, "lon": 20.9056639}, {"type": "node", "id": 5780825138, "lat": 37.7379046, "lon": 20.9057513}, {"type": "node", "id": 5780825139, "lat": 37.7379127, "lon": 20.9056621}, {"type": "node", "id": 5780825140, "lat": 37.7379146, "lon": 20.9055424}, {"type": "node", "id": 5780825141, "lat": 37.7379225, "lon": 20.905615}, {"type": "node", "id": 5780825142, "lat": 37.7379272, "lon": 20.9057389}, {"type": "node", "id": 5780825143, "lat": 37.7379325, "lon": 20.9056806}, {"type": "node", "id": 5780825144, "lat": 37.7379383, "lon": 20.905711}, {"type": "node", "id": 5780825145, "lat": 37.7379451, "lon": 20.9055325}, {"type": "node", "id": 5780825146, "lat": 37.737959, "lon": 20.9057537}, {"type": "node", "id": 5780825151, "lat": 37.738073, "lon": 20.9055028}, {"type": "node", "id": 5780825152, "lat": 37.7380756, "lon": 20.9055446}, {"type": "node", "id": 5780826553, "lat": 37.7380991, "lon": 20.9056943}, {"type": "node", "id": 5780826554, "lat": 37.7381016, "lon": 20.9057265}, {"type": "node", "id": 5780826555, "lat": 37.7381209, "lon": 20.9055347}, {"type": "node", "id": 5780826556, "lat": 37.7381252, "lon": 20.9055854}, {"type": "node", "id": 5780826557, "lat": 37.7381411, "lon": 20.9056697}, {"type": "node", "id": 5780826558, "lat": 37.7381417, "lon": 20.9056877}, {"type": "node", "id": 5780826559, "lat": 37.7381675, "lon": 20.9055811}, {"type": "node", "id": 5780826560, "lat": 37.7381731, "lon": 20.905658}, {"type": "node", "id": 5782043940, "lat": 37.7432026, "lon": 20.9013246}, {"type": "node", "id": 5782043941, "lat": 37.743037, "lon": 20.9013203}, {"type": "node", "id": 5782043942, "lat": 37.743037, "lon": 20.9010937}, {"type": "node", "id": 5782043943, "lat": 37.7432066, "lon": 20.9010979}, {"type": "node", "id": 5920877185, "lat": 37.8411751, "lon": 20.7689328, "tags": {"amenity": "restaurant", "name:ru": "\u0442\u0430\u0432\u0435\u0440\u043d\u0430"}}, {"type": "node", "id": 6655128459, "lat": 37.8258038, "lon": 20.8499767, "tags": {"amenity": "restaurant", "name": "Camping Restaurant Zante"}}, {"type": "node", "id": 6691261012, "lat": 37.6832684, "lon": 20.8357376, "tags": {"amenity": "cafe", "name": "Aelia"}}, {"type": "node", "id": 6691261022, "lat": 37.6865012, "lon": 20.8363733, "tags": {"amenity": "restaurant", "contact:email": "georgeremezzo@gmail.com", "contact:phone": "+302695048784", "name": "Taverna Remezzo"}}, {"type": "node", "id": 6691872986, "lat": 37.8127394, "lon": 20.8725546, "tags": {"amenity": "restaurant", "name": "Ideal"}}, {"type": "node", "id": 6739299904, "lat": 37.8154861, "lon": 20.868876}, {"type": "node", "id": 6742560513, "lat": 37.8155998, "lon": 20.8686892}, {"type": "node", "id": 6742560514, "lat": 37.8155789, "lon": 20.8686486}, {"type": "node", "id": 6742560515, "lat": 37.8154023, "lon": 20.8685368}, {"type": "node", "id": 6742560516, "lat": 37.8153653, "lon": 20.8685368}, {"type": "node", "id": 6742560517, "lat": 37.8152962, "lon": 20.8686178}, {"type": "node", "id": 6756968085, "lat": 37.7825026, "lon": 20.6819021, "tags": {"amenity": "restaurant", "name:en": "Taverna"}}, {"type": "node", "id": 6759243585, "lat": 37.7348397, "lon": 20.8937043, "tags": {"amenity": "restaurant", "check_date": "2024-09-28", "name": "Belesis Kalamaki Beach", "opening_hours": "09:00-17:00"}}, {"type": "node", "id": 6779223538, "lat": 37.7819859, "lon": 20.8416951, "tags": {"amenity": "restaurant"}}, {"type": "node", "id": 6807019766, "lat": 37.8197947, "lon": 20.7999769}, {"type": "node", "id": 6807019767, "lat": 37.819791, "lon": 20.7999325}, {"type": "node", "id": 6807019768, "lat": 37.8197467, "lon": 20.7998835}, {"type": "node", "id": 6807019769, "lat": 37.819684, "lon": 20.7998975}, {"type": "node", "id": 6807019770, "lat": 37.8196637, "lon": 20.7999302}, {"type": "node", "id": 6807019771, "lat": 37.8196674, "lon": 20.7999698}, {"type": "node", "id": 6807019772, "lat": 37.8196324, "lon": 20.7999862}, {"type": "node", "id": 6807019773, "lat": 37.8196471, "lon": 20.8000422}, {"type": "node", "id": 6807019780, "lat": 37.8197695, "lon": 20.799988}, {"type": "node", "id": 6807231462, "lat": 37.7560095, "lon": 20.8880263}, {"type": "node", "id": 6807231463, "lat": 37.7558164, "lon": 20.8881112}, {"type": "node", "id": 6807231464, "lat": 37.7558248, "lon": 20.8881537}, {"type": "node", "id": 6807231465, "lat": 37.7560151, "lon": 20.8882138}, {"type": "node", "id": 6817462884, "lat": 37.7820899, "lon": 20.8974652, "tags": {"amenity": "restaurant", "cuisine": "seafood", "name": "Spartacus"}}, {"type": "node", "id": 6822508726, "lat": 37.6901308, "lon": 20.8395195, "tags": {"amenity": "restaurant", "cuisine": "greek", "name": "Taverna \"Finale\"", "outdoor_seating": "yes"}}, {"type": "node", "id": 6857213989, "lat": 37.8510368, "lon": 20.6935057, "tags": {"amenity": "restaurant", "name:en": "Botega", "phone": "6972357638"}}, {"type": "node", "id": 6948435718, "lat": 37.7868823, "lon": 20.8991943}, {"type": "node", "id": 6948435719, "lat": 37.7870075, "lon": 20.899369}, {"type": "node", "id": 6948435720, "lat": 37.7870733, "lon": 20.8992988}, {"type": "node", "id": 6948435721, "lat": 37.7869205, "lon": 20.8990902}, {"type": "node", "id": 7700080086, "lat": 37.781575, "lon": 20.6803908, "tags": {"amenity": "restaurant", "cuisine": "greek", "name": "\u0397\u03bb\u03b9\u03bf\u03b2\u03b1\u03c3\u03af\u03bb\u03b5\u03bc\u03b1 \u03a4\u03b1\u03b2\u03ad\u03c1\u03bd\u03b1 \u03c4\u03bf\u03c5 \u039c\u03b9\u03c7\u03ac\u03bb\u03b7", "name:el": "\u0397\u03bb\u03b9\u03bf\u03b2\u03b1\u03c3\u03af\u03bb\u03b5\u03bc\u03b1 \u03a4\u03b1\u03b2\u03ad\u03c1\u03bd\u03b1 \u03c4\u03bf\u03c5 \u039c\u03b9\u03c7\u03ac\u03bb\u03b7", "name:en": "Sunset Michali\u2018s Taverna"}}, {"type": "node", "id": 7779258457, "lat": 37.7075091, "lon": 20.7780045, "tags": {"amenity": "cafe", "payment:cash": "yes", "payment:credit_cards": "yes", "payment:visa": "yes", "shop": "convenience"}}, {"type": "node", "id": 7779305887, "lat": 37.7295308, "lon": 20.7095225, "tags": {"amenity": "restaurant"}}, {"type": "node", "id": 7779306807, "lat": 37.707534, "lon": 20.7778872, "tags": {"amenity": "cafe", "internet_access": "no", "outdoor_seating": "yes"}}, {"type": "node", "id": 7779349069, "lat": 37.768344, "lon": 20.7208146, "tags": {"amenity": "restaurant"}}, {"type": "node", "id": 7779358607, "lat": 37.7947546, "lon": 20.9006903, "tags": {"amenity": "restaurant"}}, {"type": "node", "id": 7779358615, "lat": 37.8020963, "lon": 20.9035844}, {"type": "node", "id": 7779358616, "lat": 37.8019076, "lon": 20.9034905}, {"type": "node", "id": 7779358617, "lat": 37.8018822, "lon": 20.9036005}, {"type": "node", "id": 7779358618, "lat": 37.8020814, "lon": 20.9036916}, {"type": "node", "id": 7779358619, "lat": 37.8019479, "lon": 20.903579, "tags": {"amenity": "cafe"}}, {"type": "node", "id": 7812395262, "lat": 37.7471045, "lon": 20.7742673, "tags": {"amenity": "restaurant", "name": "Grill my Day"}}, {"type": "node", "id": 7817545887, "lat": 37.7412591, "lon": 20.8924303, "tags": {"amenity": "restaurant", "name": "Paolo"}}, {"type": "node", "id": 7831352486, "lat": 37.7836898, "lon": 20.8972585, "tags": {"amenity": "restaurant"}}, {"type": "node", "id": 7876337785, "lat": 37.7838963, "lon": 20.8976488, "tags": {"addr:housenumber": "42", "addr:street": "\u03a6\u03b9\u03bb\u03b9\u03c4\u03ac", "amenity": "restaurant", "brewery": "yes", "check_date": "2024-09-30", "cuisine": "greek", "highchair": "yes", "name": "Stathmos", "name:en": "Stathmos Restaurant", "outdoor_seating": "yes", "payment:cash": "yes", "payment:visa": "yes", "payment:visa_contactless": "yes", "toilets": "yes", "toilets:wheelchair": "no", "wheelchair": "limited"}}, {"type": "node", "id": 9063122517, "lat": 37.8292376, "lon": 20.828063, "tags": {"amenity": "restaurant", "cuisine": "barbecue;greek", "name:en": "crossroad", "phone": "2695065020"}}, {"type": "node", "id": 9063126717, "lat": 37.8332048, "lon": 20.8327957, "tags": {"amenity": "restaurant", "cuisine": "greek", "name:en": "Vardiola Tsi Kipselis Restaurant"}}, {"type": "node", "id": 9122869917, "lat": 37.8374433, "lon": 20.7770662, "tags": {"amenity": "restaurant", "name:en": "Carissimo"}}, {"type": "node", "id": 9155850517, "lat": 37.7772783, "lon": 20.894918, "tags": {"amenity": "restaurant", "cuisine": "greek", "name": "Guyros & Souvlaki"}}, {"type": "node", "id": 9219283339, "lat": 37.788389, "lon": 20.8996172, "tags": {"amenity": "restaurant", "name": "Dell Arte", "opening_hours": "Mo-Fr 08:45-14:15, 17:30-21:00; Sa 09:00-13:00"}}, {"type": "node", "id": 9648174754, "lat": 37.7313044, "lon": 20.8647257, "tags": {"amenity": "restaurant", "contact:facebook": "https://www.facebook.com/sizzlebangzante", "contact:instagram": "https://www.instagram.com/sizzlebang_zante", "cuisine": "regional;greek;international", "diet:fish": "yes", "diet:meat": "yes", "diet:vegan": "yes", "diet:vegetarian": "yes", "name": "SizzleBang House", "phone": "+30 6987076330"}}, {"type": "node", "id": 9732396717, "lat": 37.7845283, "lon": 20.8984559, "tags": {"amenity": "restaurant", "name:fr": "Varkarola"}}, {"type": "node", "id": 9732396917, "lat": 37.8427068, "lon": 20.781509, "tags": {"amenity": "restaurant", "name:fr": "Akti Restaurant"}}, {"type": "node", "id": 9812466317, "lat": 37.7411755, "lon": 20.9003131, "tags": {"amenity": "restaurant"}}, {"type": "node", "id": 9812490117, "lat": 37.740377, "lon": 20.9066693, "tags": {"amenity": "restaurant", "name": "Georgia's"}}, {"type": "node", "id": 9884724356, "lat": 37.8476762, "lon": 20.6486586, "tags": {"amenity": "restaurant", "contact:phone": "+30 2695 031501", "name": "Margarita Tavern", "website": "https://margarita-tavern.business.site/"}}, {"type": "node", "id": 9904158765, "lat": 37.7400925, "lon": 20.8895938}, {"type": "node", "id": 9904158766, "lat": 37.739982, "lon": 20.8896743}, {"type": "node", "id": 9904158767, "lat": 37.7399442, "lon": 20.8895913}, {"type": "node", "id": 9904158768, "lat": 37.7400547, "lon": 20.8895109}, {"type": "node", "id": 9938164611, "lat": 37.7056702, "lon": 20.7719225, "tags": {"amenity": "restaurant", "name": "Sunset Agalas", "outdoor_seating": "yes"}}, {"type": "node", "id": 9938194928, "lat": 37.7101554, "lon": 20.8565032}, {"type": "node", "id": 9938194929, "lat": 37.7101455, "lon": 20.8565025}, {"type": "node", "id": 9938194930, "lat": 37.7101521, "lon": 20.8565832}, {"type": "node", "id": 9938194931, "lat": 37.709967, "lon": 20.8565709}, {"type": "node", "id": 9938194932, "lat": 37.7099746, "lon": 20.8563894}, {"type": "node", "id": 9938194933, "lat": 37.7101104, "lon": 20.8563984}, {"type": "node", "id": 9938194934, "lat": 37.7101096, "lon": 20.8564191}, {"type": "node", "id": 9938194935, "lat": 37.7101489, "lon": 20.8564217}, {"type": "node", "id": 9938194936, "lat": 37.7101537, "lon": 20.8565452}, {"type": "node", "id": 9946021154, "lat": 37.7290914, "lon": 20.8757907}, {"type": "node", "id": 9946021155, "lat": 37.729168, "lon": 20.8760123}, {"type": "node", "id": 9946021156, "lat": 37.7293397, "lon": 20.8759174}, {"type": "node", "id": 9946021157, "lat": 37.729263, "lon": 20.8756958}, {"type": "node", "id": 9946021167, "lat": 37.7292348, "lon": 20.8745522}, {"type": "node", "id": 9946021168, "lat": 37.7291683, "lon": 20.8743909}, {"type": "node", "id": 9946021169, "lat": 37.7290135, "lon": 20.8743842}, {"type": "node", "id": 9946021170, "lat": 37.7290029, "lon": 20.8744352}, {"type": "node", "id": 9946021171, "lat": 37.7289594, "lon": 20.8744942}, {"type": "node", "id": 9946021172, "lat": 37.7288989, "lon": 20.8745089}, {"type": "node", "id": 9946021173, "lat": 37.7288416, "lon": 20.8744834}, {"type": "node", "id": 9946021174, "lat": 37.7287944, "lon": 20.8744271}, {"type": "node", "id": 9946021175, "lat": 37.7287854, "lon": 20.874352}, {"type": "node", "id": 9946021176, "lat": 37.7288024, "lon": 20.8742782}, {"type": "node", "id": 9946021177, "lat": 37.7287865, "lon": 20.8742648}, {"type": "node", "id": 9946021178, "lat": 37.72883, "lon": 20.8741777}, {"type": "node", "id": 9946021179, "lat": 37.7289085, "lon": 20.8741401}, {"type": "node", "id": 9946021180, "lat": 37.7289965, "lon": 20.8741736}, {"type": "node", "id": 9946021181, "lat": 37.7290506, "lon": 20.8742514}, {"type": "node", "id": 9946021182, "lat": 37.7290644, "lon": 20.8743064}, {"type": "node", "id": 9946021183, "lat": 37.729198, "lon": 20.8743037}, {"type": "node", "id": 9946021187, "lat": 37.7292855, "lon": 20.8745187}, {"type": "node", "id": 9946021208, "lat": 37.7302258, "lon": 20.8755256}, {"type": "node", "id": 9946021209, "lat": 37.7302613, "lon": 20.875552}, {"type": "node", "id": 9946021210, "lat": 37.7302028, "lon": 20.8756669}, {"type": "node", "id": 9946021211, "lat": 37.7299338, "lon": 20.8754476}, {"type": "node", "id": 9948078674, "lat": 37.7298143, "lon": 20.8753702, "tags": {"access": "customers", "amenity": "restaurant", "cuisine": "greek", "description": "Traditional Greek restaurant Meze", "level": "0"}}, {"type": "node", "id": 9949922081, "lat": 37.7291457, "lon": 20.8757607}, {"type": "node", "id": 9958639425, "lat": 37.8190851, "lon": 20.678347}, {"type": "node", "id": 9958639426, "lat": 37.8190788, "lon": 20.678457}, {"type": "node", "id": 9958639427, "lat": 37.8191931, "lon": 20.6784676}, {"type": "node", "id": 9958639428, "lat": 37.8191995, "lon": 20.6783576}, {"type": "node", "id": 10290000377, "lat": 37.7801144, "lon": 20.6786981}, {"type": "node", "id": 10290000378, "lat": 37.7801615, "lon": 20.6788378}, {"type": "node", "id": 10290000379, "lat": 37.7803097, "lon": 20.6787602}, {"type": "node", "id": 10290000380, "lat": 37.7802767, "lon": 20.6786479}, {"type": "node", "id": 10290000381, "lat": 37.7802493, "lon": 20.6786324}, {"type": "node", "id": 10290000382, "lat": 37.7801814, "lon": 20.6786658}, {"type": "node", "id": 10290000383, "lat": 37.7801625, "lon": 20.6786241}, {"type": "node", "id": 10290000384, "lat": 37.7801578, "lon": 20.678482}, {"type": "node", "id": 10290000385, "lat": 37.7801115, "lon": 20.6784784}, {"type": "node", "id": 10290000386, "lat": 37.7815697, "lon": 20.6804413}, {"type": "node", "id": 10290000387, "lat": 37.7815593, "lon": 20.6803267}, {"type": "node", "id": 10290000388, "lat": 37.7815395, "lon": 20.68023}, {"type": "node", "id": 10290000389, "lat": 37.7815876, "lon": 20.6802085}, {"type": "node", "id": 10290000390, "lat": 37.7816197, "lon": 20.6802992}, {"type": "node", "id": 10290000391, "lat": 37.7816631, "lon": 20.6802921}, {"type": "node", "id": 10290000392, "lat": 37.7816839, "lon": 20.6804258}, {"type": "node", "id": 10817103920, "lat": 37.7238533, "lon": 20.8643104}, {"type": "node", "id": 10817103921, "lat": 37.7238325, "lon": 20.8641586}, {"type": "node", "id": 10817103922, "lat": 37.723629, "lon": 20.8642032}, {"type": "node", "id": 10817103923, "lat": 37.7236498, "lon": 20.8643549}, {"type": "node", "id": 10936881883, "lat": 37.7638199, "lon": 20.9231397, "tags": {"amenity": "restaurant", "diet:chicken": "yes", "diet:dairy_free": "yes", "diet:egg_free": "yes", "diet:fish": "yes", "diet:fruitarian": "yes", "diet:healthy": "yes", "diet:kosher": "yes", "diet:lactose_free": "yes", "diet:local": "yes", "diet:meat": "yes", "diet:mediterranean": "yes", "diet:nut_free": "yes", "diet:organic": "yes", "diet:pescetarian": "yes", "diet:raw": "yes", "diet:seafood": "yes", "diet:sugar_free": "yes", "diet:vegan": "yes", "diet:vegetarian": "yes", "name": "Posidon"}}, {"type": "node", "id": 11002189706, "lat": 37.7866216, "lon": 20.8975979, "tags": {"addr:housenumber": "9", "addr:postcode": "29100", "addr:street": "\u0391\u03bb\u03b5\u03be\u03ac\u03bd\u03b4\u03c1\u03bf\u03c5 \u03a1\u03ce\u03bc\u03b1", "amenity": "cafe", "cuisine": "mediterranean", "name:en": "Tasty Corner", "opening_hours": "Su 06:40-00:30; Mo-Sa 05:30-00:30", "phone": "+302695023683"}}, {"type": "node", "id": 11058559466, "lat": 37.6609776, "lon": 20.8159565, "tags": {"amenity": "cafe", "name": "Locale at Keri"}}, {"type": "node", "id": 11058730849, "lat": 37.6609569, "lon": 20.8160403, "tags": {"amenity": "cafe", "check_date:opening_hours": "2024-10-10", "name": "Nitzis Cafe", "opening_hours:signed": "no"}}, {"type": "node", "id": 11062116682, "lat": 37.7313253, "lon": 20.8638408, "tags": {"amenity": "restaurant", "name": "Grecos"}}, {"type": "node", "id": 11063020482, "lat": 37.7698739, "lon": 20.7166558, "tags": {"amenity": "restaurant", "name": "The Garden of Tastes"}}, {"type": "node", "id": 11069341711, "lat": 37.765155, "lon": 20.92296, "tags": {"amenity": "restaurant", "name": "Restaurant Athina"}}, {"type": "node", "id": 11069360005, "lat": 37.765611, "lon": 20.9232525, "tags": {"amenity": "restaurant", "name": "Castello"}}, {"type": "node", "id": 11069629632, "lat": 37.7649506, "lon": 20.9223614, "tags": {"amenity": "restaurant", "name": "elia"}}, {"type": "node", "id": 11157620593, "lat": 37.8470027, "lon": 20.6506131, "tags": {"amenity": "cafe"}}, {"type": "node", "id": 11157620595, "lat": 37.8472012, "lon": 20.6505008, "tags": {"amenity": "cafe"}}, {"type": "node", "id": 11157685710, "lat": 37.6803268, "lon": 20.8375057, "tags": {"amenity": "restaurant", "bar": "yes", "name": "Mythos", "outdoor_seating": "yes"}}, {"type": "node", "id": 11157685712, "lat": 37.6753814, "lon": 20.845998, "tags": {"amenity": "restaurant", "name": "Marathias star"}}, {"type": "node", "id": 11892239352, "lat": 37.8407997, "lon": 20.78127, "tags": {"amenity": "restaurant", "name": "The Mill", "website": "https://www.millbar.co.uk/"}}, {"type": "node", "id": 11896811766, "lat": 37.8378642, "lon": 20.7741606}, {"type": "node", "id": 11896811767, "lat": 37.8379048, "lon": 20.7742664}, {"type": "node", "id": 11896811768, "lat": 37.83806, "lon": 20.7741709}, {"type": "node", "id": 11896811769, "lat": 37.8380027, "lon": 20.7740216}, {"type": "node", "id": 11913248727, "lat": 37.8355385, "lon": 20.7822268}, {"type": "node", "id": 11913248728, "lat": 37.8355904, "lon": 20.7823166}, {"type": "node", "id": 11913248729, "lat": 37.8356259, "lon": 20.7822838}, {"type": "node", "id": 11913248730, "lat": 37.835574, "lon": 20.782194}, {"type": "node", "id": 11913248773, "lat": 37.8362557, "lon": 20.7802123}, {"type": "node", "id": 11913248774, "lat": 37.8364057, "lon": 20.7802385}, {"type": "node", "id": 11913248775, "lat": 37.8363929, "lon": 20.780356}, {"type": "node", "id": 11913248776, "lat": 37.8364272, "lon": 20.780362}, {"type": "node", "id": 11913248777, "lat": 37.8364478, "lon": 20.7801729}, {"type": "node", "id": 11913248778, "lat": 37.8362635, "lon": 20.7801408}, {"type": "node", "id": 11950703770, "lat": 37.7423429, "lon": 20.8967585, "tags": {"amenity": "restaurant", "name": "Vintage"}}, {"type": "node", "id": 11950703773, "lat": 37.7420643, "lon": 20.8954884, "tags": {"amenity": "restaurant", "cuisine": "indian", "name": "Maharaja"}}, {"type": "node", "id": 11950716369, "lat": 37.7410389, "lon": 20.8971021, "tags": {"amenity": "restaurant", "name": "Iguana"}}, {"type": "node", "id": 11950716370, "lat": 37.7426891, "lon": 20.8969069, "tags": {"amenity": "restaurant", "cuisine": "italian", "name": "Bon amici"}}, {"type": "node", "id": 11950716371, "lat": 37.7421169, "lon": 20.8959412, "tags": {"amenity": "restaurant", "name": "Olive tree"}}, {"type": "node", "id": 11952201376, "lat": 37.7428889, "lon": 20.8985684, "tags": {"amenity": "restaurant", "name": "Bullhorn steakhouse"}}, {"type": "node", "id": 11952213770, "lat": 37.742274, "lon": 20.8950668, "tags": {"amenity": "cafe", "name": "All day"}}, {"type": "node", "id": 11952213970, "lat": 37.7425786, "lon": 20.8969006, "tags": {"amenity": "restaurant", "name": "sizzle n grill"}}, {"type": "node", "id": 11952256169, "lat": 37.7400521, "lon": 20.9066772, "tags": {"amenity": "restaurant", "name": "Nectar kitchen"}}, {"type": "node", "id": 11952490769, "lat": 37.7418668, "lon": 20.8948415, "tags": {"amenity": "restaurant", "name": "Zorbas taverna"}}, {"type": "node", "id": 11952490869, "lat": 37.7419431, "lon": 20.8950746, "tags": {"amenity": "restaurant", "name": "Family Greek cousine"}}, {"type": "node", "id": 11952490971, "lat": 37.742577, "lon": 20.8981512, "tags": {"amenity": "restaurant", "name": "Artigiano"}}, {"type": "node", "id": 11952491075, "lat": 37.7429605, "lon": 20.8995291, "tags": {"amenity": "restaurant", "name": "Parthenon"}}, {"type": "node", "id": 11952496669, "lat": 37.7430564, "lon": 20.9003423, "tags": {"amenity": "restaurant", "name": "Ellie\u2019s place"}}, {"type": "node", "id": 11952506269, "lat": 37.742709, "lon": 20.9018534, "tags": {"amenity": "restaurant", "name": "Pandora"}}, {"type": "node", "id": 11953711969, "lat": 37.7499045, "lon": 20.8954695, "tags": {"amenity": "cafe", "cuisine": "coffee_shop", "name": "Hand pickers specialty coffees"}}, {"type": "node", "id": 11954513786, "lat": 37.8423841, "lon": 20.7678066, "tags": {"amenity": "restaurant", "name": "Fish\u03b1\u03bb\u03af\u03b4\u03b1"}}, {"type": "node", "id": 11954513792, "lat": 37.8379024, "lon": 20.774137}, {"type": "node", "id": 11954513793, "lat": 37.8378857, "lon": 20.7740936}, {"type": "node", "id": 11954513795, "lat": 37.836906, "lon": 20.7790889, "tags": {"amenity": "restaurant", "cuisine": "regional;greek;grill", "name": "Gyro Gyro"}}, {"type": "node", "id": 11954513803, "lat": 37.8365738, "lon": 20.7809454}, {"type": "node", "id": 11954513804, "lat": 37.8366522, "lon": 20.7809266}, {"type": "node", "id": 11954513805, "lat": 37.8366554, "lon": 20.7809763}, {"type": "node", "id": 11954513806, "lat": 37.8365802, "lon": 20.7809991}, {"type": "node", "id": 11954513807, "lat": 37.8365759, "lon": 20.7809696}, {"type": "node", "id": 11954513808, "lat": 37.8365092, "lon": 20.7809883}, {"type": "node", "id": 11954513809, "lat": 37.836488, "lon": 20.7808556}, {"type": "node", "id": 11954513810, "lat": 37.8365579, "lon": 20.7808435}, {"type": "node", "id": 11954513813, "lat": 37.8360972, "lon": 20.7812686, "tags": {"amenity": "restaurant", "name": "Rua Mat"}}, {"type": "node", "id": 11955457592, "lat": 37.7056272, "lon": 20.8462119, "tags": {"amenity": "restaurant", "cuisine": "regional;greek", "name": "Leeda's Restaurant"}}, {"type": "node", "id": 11956293269, "lat": 37.7398554, "lon": 20.8968545, "tags": {"amenity": "restaurant", "cuisine": "greek", "name": "Escape"}}, {"type": "node", "id": 11956370169, "lat": 37.7407234, "lon": 20.9066388, "tags": {"amenity": "restaurant", "name": "Vinaz"}}, {"type": "node", "id": 11963082269, "lat": 37.8177178, "lon": 20.8032152, "tags": {"amenity": "restaurant", "name": "Taverna Lofos"}}, {"type": "node", "id": 11968810069, "lat": 37.840921, "lon": 20.8057279, "tags": {"amenity": "restaurant", "name": "Alexander Restaurant/Bar"}}, {"type": "node", "id": 11970046269, "lat": 37.8357465, "lon": 20.7827405, "tags": {"amenity": "restaurant", "name": "Greek Acropolis Taverna"}}, {"type": "node", "id": 11973789271, "lat": 37.7412768, "lon": 20.9067318, "tags": {"amenity": "restaurant", "cuisine": "greek", "name": "Lambros Taverna"}}, {"type": "node", "id": 11973804369, "lat": 37.7495233, "lon": 20.9043571, "tags": {"amenity": "restaurant", "name": "Elia restaurant"}}, {"type": "node", "id": 11973804469, "lat": 37.7455814, "lon": 20.905142, "tags": {"amenity": "restaurant", "name": "Rainbow"}}, {"type": "node", "id": 11973805869, "lat": 37.7435335, "lon": 20.9055965, "tags": {"amenity": "restaurant", "name": "Stoupento #family (musical) #restaurant"}}, {"type": "node", "id": 11973847370, "lat": 37.7400852, "lon": 20.9068544, "tags": {"amenity": "restaurant", "cuisine": "greek", "name": "Nectar Kitchen"}}, {"type": "node", "id": 11975378869, "lat": 37.7436795, "lon": 20.9042422, "tags": {"amenity": "restaurant", "cuisine": "breakfast;burger;crepe;pizza", "name": "Daisy"}}, {"type": "node", "id": 11978606369, "lat": 37.6830454, "lon": 20.835837, "tags": {"amenity": "restaurant", "name": "Isalos"}}, {"type": "node", "id": 11978606370, "lat": 37.6829267, "lon": 20.8358625, "tags": {"amenity": "restaurant", "name": "The wave"}}, {"type": "node", "id": 11981141970, "lat": 37.7425465, "lon": 20.8984217, "tags": {"amenity": "restaurant", "cuisine": "greek", "name": "Greek Stories"}}, {"type": "node", "id": 12208747099, "lat": 37.7934868, "lon": 20.7239927, "tags": {"amenity": "cafe", "check_date": "2024-09-29", "name": "Snack Cafe", "outdoor_seating": "yes", "payment:cards": "no", "payment:cash": "yes", "payment:credit_cards": "no", "payment:debit_cards": "no", "toilets": "yes", "wheelchair": "no"}}, {"type": "node", "id": 12211718645, "lat": 37.7307075, "lon": 20.8712417, "tags": {"amenity": "restaurant", "name": "Avanti", "opening_hours": "Mo-Su 11:00-23:30", "phone": "+302695051817"}}, {"type": "node", "id": 12364731734, "lat": 37.7179334, "lon": 20.7290657, "tags": {"amenity": "restaurant", "name": "Korakonisi"}}, {"type": "node", "id": 12400138051, "lat": 37.7827742, "lon": 20.8961389, "tags": {"addr:city": "\u0396\u03ac\u03ba\u03c5\u03bd\u03b8\u03bf\u03c2", "addr:postcode": "29100", "addr:street": "\u03a4\u03b6\u03bf\u03c5\u03bb\u03ac\u03c4\u03b7", "amenity": "restaurant", "cuisine": "gyros", "name": "\u03a8\u03b7\u03c4\u03bf\u03c0\u03c9\u03bb\u03b5\u03af\u03bf \u039b\u03ac\u03b4\u03b9 \u03a1\u03af\u03b3\u03b1\u03bd\u03b7 & \u0391\u03bb\u03ac\u03c4\u03b9", "name:el": "\u03a8\u03b7\u03c4\u03bf\u03c0\u03c9\u03bb\u03b5\u03af\u03bf \u039b\u03ac\u03b4\u03b9 \u03a1\u03af\u03b3\u03b1\u03bd\u03b7 & \u0391\u03bb\u03ac\u03c4\u03b9", "name:en": "Ladi Rigani & Alati Psitopolio Grill House", "opening_hours": "Mo-Fr 14:00-24:00; Sa-Su 14:00-01:00", "phone": "+302695401315"}}, {"type": "way", "id": 142693058, "nodes": [1561543445, 1561543425, 1561543428, 1561543463, 1561543461, 1561543446, 1561543445], "tags": {"amenity": "restaurant", "building": "yes", "name": "Taverna Paradise"}}, {"type": "way", "id": 229597810, "nodes": [2381682844, 2381682848, 2381682854, 2381682856, 2381682816, 2381682846, 2381682794, 2381682855, 2381682875, 2381682851, 2381682820, 2381682878, 2381682844], "tags": {"amenity": "restaurant", "building": "yes", "cuisine": "greek", "name": "Michaelos", "opening_hours": "Mo-Su 18:00-00:00"}}, {"type": "way", "id": 229597811, "nodes": [2381682853, 2381682825, 2381682862, 2381682870, 2381682853], "tags": {"amenity": "restaurant", "building": "yes", "cuisine": "greek", "name": "Pandesia", "source": "Bing"}}, {"type": "way", "id": 274309348, "nodes": [2790641151, 2790641149, 2790641144, 2790641147, 2790641151], "tags": {"amenity": "cafe", "building": "yes", "cuisine": "regional", "name": "Porto limnionas", "outdoor_seating": "yes", "source": "bing"}}, {"type": "way", "id": 283084884, "nodes": [2869969334, 2869969327, 2869969323, 2869969331, 2869969334], "tags": {"amenity": "restaurant", "building": "yes", "cuisine": "greek", "diet:gluten_free": "yes", "diet:vegetarian": "yes", "name": "Peppermint", "opening_hours": "Dec-Apr Th,Fr,Sa 19:00-24:00; May-Oct 18:00-24:00", "website": "https://pepper-rest.com/"}}, {"type": "way", "id": 283464728, "nodes": [2873251808, 2873251807, 2873251805, 2873251806, 2873251808], "tags": {"amenity": "restaurant", "building": "yes", "cuisine": "greek", "name": "Come to the Grill"}}, {"type": "way", "id": 289002407, "nodes": [2925520732, 2925520730, 2925520733, 2925520737, 2925520732], "tags": {"amenity": "restaurant", "building": "yes", "name": "Mouria"}}, {"type": "way", "id": 289109711, "nodes": [2926606068, 2926606069, 2926606071, 2926606070, 2926606068], "tags": {"amenity": "restaurant", "name": "Dennis Taverna"}}, {"type": "way", "id": 289117691, "nodes": [2926667293, 2926667294, 2926667290, 2926667288, 2926667289, 2926667291, 2926667292, 2926667293], "tags": {"amenity": "cafe", "building": "yes", "name": "Relax"}}, {"type": "way", "id": 289792014, "nodes": [2933321984, 2933321986, 2933321992, 2933321991, 2933321990, 2933321989, 2933321988, 2933321987, 2933321985, 2933321984], "tags": {"amenity": "restaurant", "building": "yes", "cuisine": "mediterranean", "name": "Balsamico", "phone": "26950 52517, 6977310691", "website": "http://balsamicozante.gr"}}, {"type": "way", "id": 290333705, "nodes": [2925520738, 2938805121, 2938805120, 2938805122, 2925520738], "tags": {"amenity": "cafe", "building": "yes", "name": "Turtle"}}, {"type": "way", "id": 290864713, "nodes": [2943710894, 2943710895, 2943710896, 2943710897, 2943710898, 2943710899, 2943710894], "tags": {"amenity": "restaurant", "building": "yes"}}, {"type": "way", "id": 291136086, "nodes": [2945722936, 2945722937, 2945722938, 2945722939, 2945722936], "tags": {"amenity": "restaurant", "building": "yes", "name": "Premier"}}, {"type": "way", "id": 354602338, "nodes": [3602839200, 3602839201, 3602839202, 3602839203, 3602839200], "tags": {"amenity": "restaurant", "building": "yes", "cuisine": "greek", "name": "Teo Cafe Snack Bar"}}, {"type": "way", "id": 359363007, "nodes": [3640902190, 3640902186, 3640902180, 3640902185, 3640902183, 3640902187, 3640902189, 3640902191, 3640904694, 3640902188, 3640902190], "tags": {"amenity": "restaurant", "building": "yes", "cuisine": "greek", "outdoor_seating": "yes"}}, {"type": "way", "id": 360077801, "nodes": [3646780166, 3646780187, 3646780695, 3646780174, 3646780166], "tags": {"amenity": "restaurant", "building": "yes", "cuisine": "greek", "internet_access": "wlan", "name": "\u0422\u0430verna Star"}}, {"type": "way", "id": 361578428, "nodes": [3660331738, 3660331742, 3660331741, 3660331729, 3660331624, 2873247336, 3660331738], "tags": {"amenity": "restaurant", "building": "yes", "cuisine": "greek", "name": "Artemis"}}, {"type": "way", "id": 361578429, "nodes": [2873258054, 2873258055, 2873247335, 2873247336, 3660331738, 3660331733, 2873258054], "tags": {"amenity": "restaurant", "building": "yes", "cuisine": "greek", "name": "Ethnic", "outdoor_seating": "yes"}}, {"type": "way", "id": 423553992, "nodes": [4231388101, 4231388102, 4231388103, 4231388104, 4231388105, 4231388106, 4231388101], "tags": {"addr:city": "Zakynthos - Tragaki", "addr:postcode": "29100", "addr:street": "Amboula Beach", "amenity": "restaurant", "building": "yes", "capacity": "40", "cuisine": "greek", "name": "Ladofanaro on the Beach", "phone": "+302695065180", "smoking": "outside", "takeaway": "no"}}, {"type": "way", "id": 431955621, "nodes": [4311716955, 4311716965, 4311716956, 4317831485, 4311716957, 4311716958, 4311716955], "tags": {"amenity": "restaurant", "building": "yes", "name": "Target"}}, {"type": "way", "id": 465374513, "nodes": [6948435718, 6948435719, 6948435720, 6948435721, 6948435718], "tags": {"addr:city": "Zakynthos", "addr:housenumber": "2", "addr:postcode": "29100", "addr:street": "Dionysios Solomos Square", "amenity": "cafe", "building": "yes", "internet_access": "yes", "internet_access:fee": "no", "outdoor_seating": "sidewalk"}}, {"type": "way", "id": 601926535, "nodes": [5719290822, 5719290823, 5719290824, 5719290825, 5719290822], "tags": {"amenity": "restaurant", "building": "yes", "name": "Kanalos"}}, {"type": "way", "id": 610279974, "nodes": [5779836866, 5779836865, 5779836864, 5779836863, 5779845706, 5779836862, 5779836851, 5779836861, 5779836860, 5779836859, 5779836858, 5779836857, 5779836856, 5779836855, 5779836854, 5779836853, 5779836852, 5779845705, 5779836866], "tags": {"amenity": "restaurant", "building": "commercial", "name": "Essence", "phone": "+30 697 856 52 32", "website": "https://www.restaurant-essence.com/"}}, {"type": "way", "id": 610385684, "nodes": [5780825145, 5780825146, 5780826554, 5780826553, 5780826558, 5780826557, 5780826560, 5780826559, 5780826556, 5780826555, 5780825152, 5780825151, 5780825145], "tags": {"addr:city": "Kalamaki", "addr:country": "GR", "amenity": "restaurant", "building": "commercial", "email": "mail@zepostaverna.com", "name": "Zepos", "phone": "+30 2695042028", "website": "http://zepostaverna.com"}}, {"type": "way", "id": 610385687, "nodes": [5780825140, 5780825132, 5780825133, 5780825141, 5780825140], "tags": {"addr:city": "Kalamaki", "addr:country": "GR", "amenity": "restaurant", "building": "commercial", "email": "mail@zepostaverna.com", "name": "Zepos", "phone": "+30 2695042028", "website": "http://zepostaverna.com"}}, {"type": "way", "id": 610385690, "nodes": [5780825143, 5780825139, 5780825137, 5780825135, 5780825134, 5780825136, 5780825138, 5780825142, 5780825144, 5780825143], "tags": {"addr:city": "Kalamaki", "addr:country": "GR", "amenity": "restaurant", "building": "commercial", "email": "mail@zepostaverna.com", "name": "Zepos", "phone": "+30 2695042028", "website": "http://zepostaverna.com"}}, {"type": "way", "id": 610563276, "nodes": [5782043943, 5782043942, 5782043941, 5782043940, 5782043943], "tags": {"addr:city": "Kalamaki", "addr:country": "GR", "amenity": "restaurant", "cuisine": "greek;international;mediterranean", "name": "Heaven's Kitchen", "phone": "+302695037022"}}, {"type": "way", "id": 717934994, "nodes": [925692399, 6742560513, 6742560514, 6742560515, 6742560516, 6742560517, 6739299904, 925692399], "tags": {"amenity": "restaurant", "building": "yes", "name": "Summertime"}}, {"type": "way", "id": 726036920, "nodes": [6807019766, 6807019767, 6807019768, 6807019769, 6807019770, 6807019771, 6807019772, 6807019773, 6807019780, 6807019766], "tags": {"amenity": "restaurant", "building": "yes"}}, {"type": "way", "id": 726047893, "nodes": [5187742833, 6807231462, 6807231463, 6807231464, 6807231465, 5187742833], "tags": {"amenity": "cafe", "building": "yes", "name:en": "Checkin", "name:es": "Checkin"}}, {"type": "way", "id": 833342028, "nodes": [7779358615, 7779358616, 7779358617, 7779358618, 7779358615], "tags": {"amenity": "cafe", "building": "yes"}}, {"type": "way", "id": 1080544902, "nodes": [9904158766, 9904158767, 9904158768, 9904158765, 9904158766], "tags": {"amenity": "cafe", "building": "yes", "name": "Airport Caf\u00e9", "outdoor_seating": "yes", "toilets": "yes"}}, {"type": "way", "id": 1084520438, "nodes": [9938194936, 9938194928, 9938194929, 9938194935, 9938194934, 9938194933, 9938194932, 9938194931, 9938194930, 9938194936], "tags": {"amenity": "restaurant", "building": "yes", "cuisine": "greek", "name": "aperitto", "outdoor_seating": "yes", "website": "https://www.aperitto.eu/"}}, {"type": "way", "id": 1085451477, "nodes": [9946021157, 9946021156, 9946021155, 9946021154, 9949922081, 9946021157], "tags": {"access": "customers", "amenity": "restaurant", "building": "yes", "description": "Beach bar & restaurant Caretta"}}, {"type": "way", "id": 1085451479, "nodes": [9946021187, 9946021183, 9946021182, 9946021181, 9946021180, 9946021179, 9946021178, 9946021177, 9946021176, 9946021175, 9946021174, 9946021173, 9946021172, 9946021171, 9946021170, 9946021169, 9946021168, 9946021167, 9946021187], "tags": {"access": "customers", "amenity": "restaurant", "building": "yes", "cuisine": "international", "description": "Pool bar & restaurant Lianolia"}}, {"type": "way", "id": 1085451484, "nodes": [2930818009, 9946021211, 9946021210, 9946021209, 9946021208, 2930818020, 2930818009], "tags": {"access": "customers", "amenity": "restaurant", "building": "yes", "building:levels": "1", "description": "Main buffet restaurant Monachus"}}, {"type": "way", "id": 1086875976, "nodes": [9958639428, 9958639427, 9958639426, 9958639425, 9958639428], "tags": {"amenity": "restaurant", "building": "yes", "cuisine": "greek", "name": "Olive Tree", "outdoor_seating": "yes", "smoking": "yes"}}, {"type": "way", "id": 1125242867, "nodes": [10290000377, 10290000378, 10290000379, 10290000380, 10290000381, 10290000382, 10290000383, 10290000384, 10290000385, 10290000377], "tags": {"amenity": "restaurant", "building": "yes", "cuisine": "greek"}}, {"type": "way", "id": 1125242868, "nodes": [10290000386, 10290000387, 10290000388, 10290000389, 10290000390, 10290000391, 10290000392, 10290000386], "tags": {"amenity": "restaurant", "building": "yes", "cuisine": "greek"}}, {"type": "way", "id": 1163121696, "nodes": [10817103920, 10817103921, 10817103922, 10817103923, 10817103920], "tags": {"amenity": "restaurant", "building": "yes", "name": "Carpe Diem", "opening_hours": "Mar 30 - Aug 31 09:00-02:00", "phone": "+302695052970", "website": "https://carpediemzante.com/"}}, {"type": "way", "id": 1281948775, "nodes": [11896811769, 11896811768, 11896811767, 11896811766, 11954513792, 11954513793, 11896811769], "tags": {"amenity": "restaurant", "building": "yes", "name": "Potami"}}, {"type": "way", "id": 1284101776, "nodes": [11913248730, 11913248729, 11913248728, 11913248727, 11913248730], "tags": {"amenity": "restaurant", "building": "yes", "cuisine": "greek", "name": "Alkyonis"}}, {"type": "way", "id": 1284101787, "nodes": [11913248778, 11913248777, 11913248776, 11913248775, 11913248774, 11913248773, 11913248778], "tags": {"amenity": "restaurant", "building": "yes", "cuisine": "greek", "name": "Mantalena"}}, {"type": "way", "id": 1289204462, "nodes": [11954513810, 11954513809, 11954513808, 11954513807, 11954513806, 11954513805, 11954513804, 11954513803, 11954513810], "tags": {"amenity": "restaurant", "building": "yes", "name": "bosco"}}]}