{"version": 0.6, "generator": "Overpass API 0.7.62.7 375dc00a", "osm3s": {"timestamp_osm_base": "2025-06-14T13:09:52Z", "copyright": "The data included in this document is from www.openstreetmap.org. The data is made available under ODbL."}, "elements": [{"type": "node", "id": 4678926238, "lat": 7.2586209, "lon": 5.1286671}, {"type": "node", "id": 4678926239, "lat": 7.2586116, "lon": 5.1286872}, {"type": "node", "id": 4678926240, "lat": 7.2585797, "lon": 5.1286872}, {"type": "node", "id": 4678926241, "lat": 7.2585903, "lon": 5.1286618, "tags": {"advertising": "billboard"}}, {"type": "node", "id": 4678935289, "lat": 7.2577882, "lon": 5.1296013}, {"type": "node", "id": 4678935290, "lat": 7.2577769, "lon": 5.1296313}, {"type": "node", "id": 4678935291, "lat": 7.2577344, "lon": 5.129615}, {"type": "node", "id": 4678935292, "lat": 7.2577458, "lon": 5.1295851}, {"type": "node", "id": 6694620274, "lat": 7.3069291, "lon": 5.1388832}, {"type": "node", "id": 6694620275, "lat": 7.3067152, "lon": 5.1388065}, {"type": "node", "id": 6694620276, "lat": 7.3067756, "lon": 5.1386355}, {"type": "node", "id": 6694620277, "lat": 7.3069894, "lon": 5.1387121}, {"type": "node", "id": 6694639663, "lat": 7.3076123, "lon": 5.1390105}, {"type": "node", "id": 6694639664, "lat": 7.3076043, "lon": 5.1390414}, {"type": "node", "id": 6694639665, "lat": 7.30747, "lon": 5.1394799}, {"type": "node", "id": 6694639666, "lat": 7.3073343, "lon": 5.1394625}, {"type": "node", "id": 6694639667, "lat": 7.3073862, "lon": 5.1393324}, {"type": "node", "id": 6694639668, "lat": 7.3075259, "lon": 5.138977}, {"type": "node", "id": 6694639669, "lat": 7.3075964, "lon": 5.1389891}, {"type": "node", "id": 7400942456, "lat": 7.3045049, "lon": 5.1395845, "tags": {"addr:city": "Akure", "addr:postcode": "704", "addr:street": "SUB BUILDING", "amenity": "restaurant", "capacity": "20", "check_date": "2024-05-26", "cuisine": "chicken;Jollof_rice;Fried_RIce;Drinks", "internet_access": "wlan", "name": "SWEET SAVOUR", "opening_hours": "Mo-Fr 09:00-17:00", "payment:bank_transfer": "yes", "payment:cash": "yes", "payment:debit_cards": "yes", "smoking": "no", "wheelchair": "no"}}, {"type": "node", "id": 7400942457, "lat": 7.3044145, "lon": 5.1395068, "tags": {"addr:city": "Akure", "addr:postcode": "704", "addr:street": "SUB BUILDING,FUTA", "air_conditioning": "no", "amenity": "restaurant", "bar": "no", "capacity": "20", "check_date": "2024-05-25", "cuisine": "chicken;Jollif_Rice;fried_Rice;Fufu;beans;Turkey;salad;Spag;dodo", "highchair": "no", "internet_access": "no", "microbrewery": "no", "name": "MEGA", "opening_hours": "Mo-Sa 08:00-20:00", "outdoor_seating": "no", "payment:bank_transfer": "yes", "payment:cash": "yes", "smoking": "no", "source": "local knowledge", "takeaway": "yes", "toilets": "no", "wheelchair": "yes"}}, {"type": "node", "id": 7400942459, "lat": 7.3043267, "lon": 5.1394826, "tags": {"addr:city": "Akure", "addr:postcode": "704", "addr:street": "Sub building,Futa", "amenity": "restaurant", "capacity": "20", "cuisine": "bread;beans;fufu;eba;rice;drinks", "internet_access": "no", "name": "MEGA EATERY", "opening_hours": "Mo-Sa 08:00-18:00", "smoking": "no", "wheelchair": "yes"}}, {"type": "node", "id": 7416109910, "lat": 7.3024979, "lon": 5.1402081, "tags": {"amenity": "restaurant", "check_date": "2024-05-28", "currency:NGN": "yes", "name": "Tinas Eatery", "payment:cash": "yes", "source": "local knowledge"}}, {"type": "node", "id": 7704075081, "lat": 7.2370911, "lon": 5.2190403, "tags": {"addr:city": "Akure", "addr:postcode": "340223", "addr:street": "Igbatoro road", "air_conditioning": "yes", "amenity": "restaurant", "bar": "yes", "check_date:opening_hours": "2023-08-06", "cuisine": "international;african", "delivery": "yes", "email": "lahproducts@gmail.com", "internet_access": "yes", "name": "LAH Kitchen and Lounge", "opening_hours": "Mo-Su 09:00-21:00", "outdoor_seating": "yes", "phone": "+2347087789926", "reservation": "yes", "takeaway": "yes", "wheelchair": "yes"}}, {"type": "node", "id": 9897828200, "lat": 6.9829584, "lon": 5.098491, "tags": {"amenity": "restaurant", "source": "nigeriase4all.gov.ng", "source:date": "2022"}}, {"type": "node", "id": 11932560313, "lat": 7.292202, "lon": 5.1496841, "tags": {"amenity": "restaurant", "check_date": "2024-05-25", "description": "Apatapiti street, FUTA South Gate", "internet_access": "no", "name": "Restaurant", "name:en": "Simple Eateries", "opening_hours": "Mo-Sa 07:00-20:00", "payment:cash": "yes", "payment:credit_cards": "yes", "payment:debit_cards": "yes", "phone": "+234 810 825 5898", "wheelchair": "no"}}, {"type": "node", "id": 11933439744, "lat": 7.2935297, "lon": 5.1499679, "tags": {"air_conditioning": "no", "amenity": "restaurant", "bar": "no", "brewery": "no", "capacity": "50", "check_date": "2024-05-25", "delivery": "yes", "highchair": "no", "internet_access": "no", "name": "Chapter", "outdoor_seating": "no", "reservation": "yes", "smoking": "no", "takeaway": "yes", "toilets": "no", "toilets:wheelchair": "no", "wheelchair": "yes"}}, {"type": "node", "id": 11934152644, "lat": 7.2933571, "lon": 5.1538401, "tags": {"air_conditioning": "no", "amenity": "restaurant", "bar": "no", "check_date": "2024-05-26", "cuisine": "american", "highchair": "no", "internet_access": "no", "microbrewery": "no", "name": "Favorite Restaurant", "payment:bank_transfer": "yes", "payment:cash": "yes", "smoking": "no", "source": "local knowledge", "wheelchair": "limited"}}, {"type": "node", "id": 11937545211, "lat": 7.302658, "lon": 5.1350287, "tags": {"air_conditioning": "no", "amenity": "restaurant", "bar": "no", "check_date": "2024-05-27", "cuisine": "fufu;jollof rice;white rice;rice", "delivery": "no", "description": "Located Behind Lecture Theater 1(LT1)", "internet_access": "no", "name": "Toppers Restaurant", "outdoor_seating": "no", "payment:bank_transfer": "yes", "payment:cash": "yes", "smoking": "no", "source": "local knowledge", "takeaway": "yes", "toilets:wheelchair": "no", "wheelchair": "yes"}}, {"type": "node", "id": 11938830955, "lat": 7.2881824, "lon": 5.1504521, "tags": {"amenity": "restaurant", "check_date": "2024-05-28", "name": "Dec Super Food", "name:en": "Dec Super Food", "opening_hours": "24/7"}}, {"type": "node", "id": 11938939744, "lat": 7.2857257, "lon": 5.1526538, "tags": {"amenity": "restaurant", "check_date": "2024-05-28", "name": "De Foreigner", "name:en": "De Foreigner", "opening_hours": "24/7"}}, {"type": "node", "id": 11939659264, "lat": 7.2966761, "lon": 5.1463906, "tags": {"amenity": "restaurant", "check_date": "2024-05-28", "internet_access": "yes", "name": "EWM Hospitality Restaurant and Catering Services", "payment:bank_transfer": "yes", "payment:cash": "yes", "source": "local knowledge"}}, {"type": "node", "id": 11939767143, "lat": 7.3043404, "lon": 5.1393948, "tags": {"air_conditioning": "no", "amenity": "restaurant", "bar": "no", "check_date": "2024-05-28", "cuisine": "rice;Amala", "internet_access": "no", "name": "Zion Gate", "payment:bank_transfer": "yes", "payment:cash": "yes", "wheelchair": "yes"}}, {"type": "way", "id": 473856744, "nodes": [4678926238, 4678926239, 4678926240, 4678926241, 4678926238], "tags": {"amenity": "restaurant", "building": "yes"}}, {"type": "way", "id": 473857890, "nodes": [4678935289, 4678935290, 4678935291, 4678935292, 4678935289], "tags": {"amenity": "restaurant", "building": "yes"}}, {"type": "way", "id": 711995939, "nodes": [6694620277, 6694620274, 6694620275, 6694620276, 6694620277], "tags": {"addr:city": "Akure", "addr:postcode": "704", "addr:street": "Usman Dan Fodio Road", "air_conditioning": "no", "amenity": "restaurant", "building": "yes", "capacity": "50", "check_date": "2024-05-26", "cuisine": "chicken;Pounded_Yam;african", "internet_access": "no", "name": "IYA BOLA RESTAURANT", "opening_hours": "Mo-Sa 08:00-20:00", "payment:bank_transfer": "yes", "payment:cash": "yes", "smoking": "no", "source": "local knowledge", "takeaway": "yes", "toilets": "yes"}}, {"type": "way", "id": 711998141, "nodes": [6694639669, 6694639668, 6694639667, 6694639666, 6694639665, 6694639664, 6694639663, 6694639669], "tags": {"amenity": "restaurant"}}]}