{"version": 0.6, "generator": "Overpass API 0.7.62.7 375dc00a", "osm3s": {"timestamp_osm_base": "2025-06-14T14:50:30Z", "copyright": "The data included in this document is from www.openstreetmap.org. The data is made available under ODbL."}, "elements": [{"type": "node", "id": 566640005, "lat": 40.180931, "lon": 26.360901, "tags": {"amenity": "restaurant"}}, {"type": "node", "id": 2674648886, "lat": 40.1507754, "lon": 26.4036152}, {"type": "node", "id": 2674648887, "lat": 40.1508118, "lon": 26.4036685}, {"type": "node", "id": 2674648891, "lat": 40.1508507, "lon": 26.4037227}, {"type": "node", "id": 2674648896, "lat": 40.1509653, "lon": 26.4037131}, {"type": "node", "id": 2674648898, "lat": 40.1509316, "lon": 26.4034329}, {"type": "node", "id": 2674648901, "lat": 40.150968, "lon": 26.4034862}, {"type": "node", "id": 2674648902, "lat": 40.1510379, "lon": 26.4038715}, {"type": "node", "id": 2674648903, "lat": 40.1510044, "lon": 26.4035368}, {"type": "node", "id": 2674648907, "lat": 40.1510536, "lon": 26.4036064}, {"type": "node", "id": 2674648908, "lat": 40.1510962, "lon": 26.4036641}, {"type": "node", "id": 2674648914, "lat": 40.1511463, "lon": 26.4037371}, {"type": "node", "id": 3051154788, "lat": 40.1116509, "lon": 26.4169883, "tags": {"amenity": "cafe", "name": "Cafe Deyim"}}, {"type": "node", "id": 3051154790, "lat": 40.1116229, "lon": 26.4154153, "tags": {"amenity": "cafe", "name": "Bilgi Cafe"}}, {"type": "node", "id": 3051375033, "lat": 40.1135135, "lon": 26.4219496, "tags": {"amenity": "cafe", "name:tr": "Hancock"}}, {"type": "node", "id": 3051375034, "lat": 40.114583, "lon": 26.421425, "tags": {"amenity": "cafe"}}, {"type": "node", "id": 3051375035, "lat": 40.1114356, "lon": 26.4173556, "tags": {"amenity": "restaurant", "cuisine": "regional", "name": "Yemekhane"}}, {"type": "node", "id": 3051375222, "lat": 40.1104181, "lon": 26.4178076, "tags": {"amenity": "cafe", "name": "\u0130nsan ve Toplum Bilimleri Fak\u00fcltesi Kantin"}}, {"type": "node", "id": 3051375224, "lat": 40.1093336, "lon": 26.4165055, "tags": {"amenity": "cafe"}}, {"type": "node", "id": 3163232001, "lat": 40.1845786, "lon": 26.3590555, "tags": {"amenity": "restaurant", "cuisine": "fish"}}, {"type": "node", "id": 4228748493, "lat": 40.1373754, "lon": 26.413749, "tags": {"addr:street": "Troya Caddesi", "amenity": "cafe", "cuisine": "pizza", "internet_access": "wlan", "name": "Pizza Vita", "opening_hours": "24/7", "operator": "Betul Cilingir"}}, {"type": "node", "id": 4241060290, "lat": 40.1361142, "lon": 26.4134578, "tags": {"addr:street": "Troya Caddesi", "amenity": "cafe", "cuisine": "breakfast", "internet_access": "wlan", "name": "Orkide Kahvalt\u0131 Salonu", "opening_hours": "24/7"}}, {"type": "node", "id": 4553149948, "lat": 40.14656, "lon": 26.4181077}, {"type": "node", "id": 4553149949, "lat": 40.1464388, "lon": 26.4185711}, {"type": "node", "id": 4553149950, "lat": 40.1462259, "lon": 26.4184695}, {"type": "node", "id": 4553149951, "lat": 40.1463378, "lon": 26.4179979}, {"type": "node", "id": 4567895287, "lat": 40.0932916, "lon": 26.3896895}, {"type": "node", "id": 4567895288, "lat": 40.0933647, "lon": 26.389785}, {"type": "node", "id": 4567895489, "lat": 40.0933199, "lon": 26.3898528}, {"type": "node", "id": 4567895490, "lat": 40.0932445, "lon": 26.3897573}, {"type": "node", "id": 4567895534, "lat": 40.0968109, "lon": 26.3906839, "tags": {"amenity": "restaurant", "name": "As Cafe-Restaurant"}}, {"type": "node", "id": 4567895549, "lat": 40.0969173, "lon": 26.3913477, "tags": {"amenity": "restaurant", "name": "Ali Ustan\u0131n Yeri"}}, {"type": "node", "id": 4567895551, "lat": 40.0967244, "lon": 26.3912076, "tags": {"amenity": "restaurant", "name": "K\u00f6fte Dura\u011f\u0131"}}, {"type": "node", "id": 4569383649, "lat": 40.1508998, "lon": 26.4037923}, {"type": "node", "id": 4569383651, "lat": 40.150986, "lon": 26.4038054}, {"type": "node", "id": 4569383653, "lat": 40.1510078, "lon": 26.4037759}, {"type": "node", "id": 4569737135, "lat": 40.1565638, "lon": 26.409359}, {"type": "node", "id": 4569737136, "lat": 40.1566437, "lon": 26.4097211}, {"type": "node", "id": 4569737137, "lat": 40.156164, "lon": 26.4098525}, {"type": "node", "id": 4569737138, "lat": 40.1561333, "lon": 26.4094743}, {"type": "node", "id": 4569737177, "lat": 40.151086, "lon": 26.4119714, "tags": {"amenity": "restaurant", "name": "K\u00f6fteci"}}, {"type": "node", "id": 4572143799, "lat": 40.1554564, "lon": 26.411648, "tags": {"amenity": "cafe", "name": "Aheste Kafe"}}, {"type": "node", "id": 4913496616, "lat": 40.1104276, "lon": 26.4125598}, {"type": "node", "id": 4913496617, "lat": 40.1104625, "lon": 26.4124204}, {"type": "node", "id": 4913496618, "lat": 40.110512, "lon": 26.4124475}, {"type": "node", "id": 4913496619, "lat": 40.1105066, "lon": 26.4124096}, {"type": "node", "id": 4913496620, "lat": 40.1105203, "lon": 26.4125049}, {"type": "node", "id": 4913497408, "lat": 40.1103926, "lon": 26.4124078}, {"type": "node", "id": 4913498086, "lat": 40.110382, "lon": 26.4123343}, {"type": "node", "id": 4913498087, "lat": 40.1104478, "lon": 26.4123182}, {"type": "node", "id": 4913498088, "lat": 40.1103223, "lon": 26.4125068}, {"type": "node", "id": 4913498322, "lat": 40.1103332, "lon": 26.4125829}, {"type": "node", "id": 4913498421, "lat": 40.1105295, "lon": 26.4125026}, {"type": "node", "id": 4913498422, "lat": 40.1105339, "lon": 26.4125336}, {"type": "node", "id": 4913498423, "lat": 40.1105828, "lon": 26.4125216}, {"type": "node", "id": 4913498424, "lat": 40.110443, "lon": 26.4126668}, {"type": "node", "id": 4913498425, "lat": 40.1105982, "lon": 26.4126287}, {"type": "node", "id": 4913620273, "lat": 40.1136484, "lon": 26.4240701}, {"type": "node", "id": 4913620274, "lat": 40.1134405, "lon": 26.4238416}, {"type": "node", "id": 4913620275, "lat": 40.1133282, "lon": 26.4238581}, {"type": "node", "id": 4913620769, "lat": 40.1134828, "lon": 26.4238585}, {"type": "node", "id": 4913620770, "lat": 40.1134405, "lon": 26.4238584}, {"type": "node", "id": 4913620771, "lat": 40.1133282, "lon": 26.423874}, {"type": "node", "id": 4913620772, "lat": 40.1136483, "lon": 26.4241251}, {"type": "node", "id": 4913620773, "lat": 40.1136292, "lon": 26.4242719}, {"type": "node", "id": 4913620774, "lat": 40.1134733, "lon": 26.4242867}, {"type": "node", "id": 4913620775, "lat": 40.1133282, "lon": 26.4240765}, {"type": "node", "id": 4913620776, "lat": 40.1136292, "lon": 26.424287}, {"type": "node", "id": 4913620991, "lat": 40.113381, "lon": 26.4238414}, {"type": "node", "id": 4913620992, "lat": 40.113381, "lon": 26.4238583}, {"type": "node", "id": 4913620993, "lat": 40.1136605, "lon": 26.4241251}, {"type": "node", "id": 4913620994, "lat": 40.1136482, "lon": 26.4242025}, {"type": "node", "id": 4913620995, "lat": 40.1134733, "lon": 26.4242617}, {"type": "node", "id": 4913620996, "lat": 40.1134082, "lon": 26.4242866}, {"type": "node", "id": 4913620997, "lat": 40.1133089, "lon": 26.4240765}, {"type": "node", "id": 4913621179, "lat": 40.1133087, "lon": 26.4242864}, {"type": "node", "id": 4913621397, "lat": 40.1136604, "lon": 26.4242026}, {"type": "node", "id": 4913621398, "lat": 40.1136481, "lon": 26.424272}, {"type": "node", "id": 4913621399, "lat": 40.1134082, "lon": 26.4242615}, {"type": "node", "id": 4913621400, "lat": 40.1133281, "lon": 26.4241788}, {"type": "node", "id": 4913621401, "lat": 40.1133088, "lon": 26.4241787}, {"type": "node", "id": 4913621402, "lat": 40.1133092, "lon": 26.423874}, {"type": "node", "id": 5222641921, "lat": 40.1473876, "lon": 26.4030068, "tags": {"amenity": "cafe", "cuisine": "seafood", "name": "Sardalye"}}, {"type": "node", "id": 5506911867, "lat": 40.1490392, "lon": 26.379413, "tags": {"amenity": "cafe", "name": "Alemka Cafe & Restaurant"}}, {"type": "node", "id": 5506911932, "lat": 40.0449966, "lon": 26.1905971, "tags": {"amenity": "cafe", "name": "Asu Dem Cafe"}}, {"type": "node", "id": 5555489327, "lat": 40.3477942, "lon": 26.685029, "tags": {"amenity": "cafe", "name": "Kahveland"}}, {"type": "node", "id": 5868488673, "lat": 40.1514688, "lon": 26.4044472, "tags": {"amenity": "cafe", "name": "Do\u011fan Pastanesi"}}, {"type": "node", "id": 5986558771, "lat": 40.127708, "lon": 26.4106084, "tags": {"amenity": "cafe", "brand": "Starbucks", "brand:wikidata": "Q37158", "brand:wikipedia": "en:Starbucks", "cuisine": "coffee_shop", "name": "Starbucks", "official_name": "Starbucks Coffee", "takeaway": "yes", "wheelchair": "yes"}}, {"type": "node", "id": 6424045487, "lat": 40.1498335, "lon": 26.4024089, "tags": {"amenity": "restaurant", "name": "\u00dcnl\u00fc Mersin Tantuni"}}, {"type": "node", "id": 6424067586, "lat": 40.1500011, "lon": 26.4019454, "tags": {"amenity": "restaurant", "check_date": "2024-07-01", "cuisine": "fish;fish_and_chips;salad;seafood", "internet_access": "wlan", "internet_access:fee": "customers", "name": "Sea Side Cafe - Restaurant", "payment:cash": "yes", "payment:credit_cards": "yes", "payment:debit_cards": "yes", "phone": "+902862142726"}}, {"type": "node", "id": 6424080891, "lat": 40.1496206, "lon": 26.402507, "tags": {"amenity": "restaurant", "name": "\u0130skender Pa\u015fa Kona\u011f\u0131 Pide & Kebap Salonu"}}, {"type": "node", "id": 6424085887, "lat": 40.1496344, "lon": 26.4025663, "tags": {"amenity": "restaurant", "name": "Chick'nRoll"}}, {"type": "node", "id": 6424089587, "lat": 40.149589, "lon": 26.4034688, "tags": {"amenity": "cafe", "brand": "Mado", "brand:wikidata": "Q17116336", "brand:wikipedia": "en:Mado (food company)", "cuisine": "coffee_shop", "name": "Mado", "takeaway": "yes", "wheelchair": "yes"}}, {"type": "node", "id": 6506622886, "lat": 40.1762518, "lon": 26.3638555, "tags": {"amenity": "restaurant", "name": "Maydos"}}, {"type": "node", "id": 6506623986, "lat": 40.1494015, "lon": 26.4002657, "tags": {"amenity": "restaurant", "name": "Yalova"}}, {"type": "node", "id": 6537106787, "lat": 40.1561831, "lon": 26.4099836, "tags": {"addr:street": "Gazi Bulvar\u0131", "amenity": "cafe", "cuisine": "savory_pancakes;tea;cake;sandwich;breakfast;coffee_shop;bagel;ice_cream", "internet_access": "wlan", "name": "Meydani", "opening_hours": "Mo-Su 08:00-00:00", "website": "http://www.meydani.com"}}, {"type": "node", "id": 6537118186, "lat": 40.156326, "lon": 26.4101885, "tags": {"addr:housenumber": "02862144014", "addr:street": "Gazi Bulvar\u0131", "amenity": "restaurant", "cuisine": "italian_pizza;chicken;hotdog;sandwich;coffee_shop;curry;tea;pizza;friture;burger;turkish;pasta;grill", "diet:vegetarian": "yes", "internet_access": "wlan", "name": "Milanos Pizza", "name:en": "Italy sapore pizzare", "opening_hours": "Mo-Su 10:30-23:30", "phone": "+90 286 214 40 10"}}, {"type": "node", "id": 7590966880, "lat": 40.260673, "lon": 26.5871232, "tags": {"amenity": "restaurant"}}, {"type": "node", "id": 7671126287, "lat": 40.1307821, "lon": 26.409008, "tags": {"amenity": "restaurant", "name:en": "Pizza Little Chesars and Dominions"}}, {"type": "node", "id": 7773152492, "lat": 40.1419913, "lon": 26.4000706, "tags": {"amenity": "cafe"}}, {"type": "node", "id": 8050670585, "lat": 40.140162, "lon": 26.400651, "tags": {"amenity": "cafe", "name:en": "Mega Beach"}}, {"type": "node", "id": 8050670685, "lat": 40.1496274, "lon": 26.4007605, "tags": {"amenity": "cafe", "name:en": "Veranda Cafe & Breakfast"}}, {"type": "node", "id": 8467796917, "lat": 40.0456643, "lon": 26.1914905, "tags": {"amenity": "restaurant", "cuisine": "turkish", "name": "Begonwilla Pansiyon"}}, {"type": "node", "id": 8994102762, "lat": 40.202617, "lon": 26.3387781, "tags": {"amenity": "restaurant", "description": "Bad food, overpriced", "name": "\u015eelale K\u0131r Lokantas\u0131"}}, {"type": "node", "id": 9040206319, "lat": 40.152157, "lon": 26.4063042, "tags": {"addr:housenumber": "1", "addr:postcode": "17100", "addr:street": "Ziver Pa\u015fa Sokak", "amenity": "restaurant", "cuisine": "turkish", "name": "Ziveriye Ocakba\u015f\u0131", "opening_hours": "Mo-Sa 11:00-02:00"}}, {"type": "node", "id": 9202622080, "lat": 40.1641472, "lon": 26.4081011}, {"type": "node", "id": 9202622081, "lat": 40.1641237, "lon": 26.4082079}, {"type": "node", "id": 9202622082, "lat": 40.1640396, "lon": 26.4081761}, {"type": "node", "id": 9202622083, "lat": 40.1640643, "lon": 26.4080698}, {"type": "node", "id": 9202622084, "lat": 40.163924, "lon": 26.4082582}, {"type": "node", "id": 9202622085, "lat": 40.1638956, "lon": 26.4081896}, {"type": "node", "id": 9202646263, "lat": 40.1674661, "lon": 26.420639}, {"type": "node", "id": 9202646264, "lat": 40.1674772, "lon": 26.4206624}, {"type": "node", "id": 9202646265, "lat": 40.167489, "lon": 26.4206801}, {"type": "node", "id": 9202646266, "lat": 40.1675751, "lon": 26.4205942}, {"type": "node", "id": 9202646267, "lat": 40.1675654, "lon": 26.4205763}, {"type": "node", "id": 9202646268, "lat": 40.1675538, "lon": 26.4205584}, {"type": "node", "id": 9202646269, "lat": 40.1675074, "lon": 26.4206888}, {"type": "node", "id": 9202646270, "lat": 40.1675269, "lon": 26.4206838}, {"type": "node", "id": 9202646271, "lat": 40.1675441, "lon": 26.4206749}, {"type": "node", "id": 9202646272, "lat": 40.1675609, "lon": 26.4206656}, {"type": "node", "id": 9202646273, "lat": 40.1675677, "lon": 26.4206444}, {"type": "node", "id": 9202646274, "lat": 40.1675726, "lon": 26.4206188}, {"type": "node", "id": 9202646275, "lat": 40.1675375, "lon": 26.42054}, {"type": "node", "id": 9202646276, "lat": 40.1675185, "lon": 26.4205409}, {"type": "node", "id": 9202646277, "lat": 40.1675001, "lon": 26.4205439}, {"type": "node", "id": 9202646278, "lat": 40.1674823, "lon": 26.4205513}, {"type": "node", "id": 9202646279, "lat": 40.167471, "lon": 26.4205732}, {"type": "node", "id": 9202646280, "lat": 40.1674643, "lon": 26.4205962}, {"type": "node", "id": 9202646281, "lat": 40.167459, "lon": 26.4206179}, {"type": "node", "id": 9455058401, "lat": 40.1563199, "lon": 26.4159271, "tags": {"amenity": "restaurant", "name": "Zeytin Dal\u0131 Ev Yemekleri"}}, {"type": "node", "id": 10049548315, "lat": 40.1808136, "lon": 26.3606798, "tags": {"amenity": "restaurant", "name": "Ada Restaurant"}}, {"type": "node", "id": 10049569619, "lat": 40.1492555, "lon": 26.4012293, "tags": {"addr:housenumber": "12/B", "addr:street": "Fetvane Sokak", "amenity": "restaurant", "name": "Cevahir Ev Yemekleri", "operator": "Ozan Aykut"}}, {"type": "node", "id": 10050010885, "lat": 40.1808585, "lon": 26.3607038, "tags": {"amenity": "restaurant", "name": "Ada Restaurant"}}, {"type": "node", "id": 10050018052, "lat": 40.1809641, "lon": 26.3606272, "tags": {"amenity": "cafe", "name": "Durak Cafe"}}, {"type": "node", "id": 10050024730, "lat": 40.1800998, "lon": 26.3611881, "tags": {"amenity": "cafe", "name": "Eceabat Belediyesi Sosyal Tesisleri"}}, {"type": "node", "id": 10050030375, "lat": 40.1808544, "lon": 26.3612836, "tags": {"amenity": "cafe", "name": "Papatya Aile \u00c7ay Bah\u00e7esi"}}, {"type": "node", "id": 10050031328, "lat": 40.1810161, "lon": 26.3606226, "tags": {"amenity": "cafe", "name": "Ali\u015f Pasta & B\u00f6rek Salonu"}}, {"type": "node", "id": 10050032600, "lat": 40.1779694, "lon": 26.3624653, "tags": {"amenity": "restaurant", "name": "Fors Cafe & Restaurant"}}, {"type": "node", "id": 10056726317, "lat": 40.1489785, "lon": 26.4000687, "tags": {"amenity": "restaurant", "name:en": "Mr. Koala"}}, {"type": "node", "id": 10058844017, "lat": 40.1490886, "lon": 26.3999392, "tags": {"amenity": "cafe", "name:en": "Mr. Koala"}}, {"type": "node", "id": 10799688517, "lat": 40.1448912, "lon": 26.4124629, "tags": {"amenity": "restaurant", "cuisine": "turkish", "name": "K\u00fcnefe-i zade K\u00fcnefe, Katmer"}}, {"type": "node", "id": 11374246569, "lat": 40.1259409, "lon": 26.4091021, "tags": {"addr:street": "\u00c7anakkale Vali Kona\u011f\u0131", "amenity": "cafe", "cuisine": "burger;coffee_shop;pancake;sandwich;savory_pancakes;tea", "name": "Bar\u0131\u015f Kafe", "name:en": "Bar\u0131\u015f Cafe", "operator": "\u00c7anakkale Belediyesi"}}, {"type": "node", "id": 11432477608, "lat": 40.1332795, "lon": 26.4060048, "tags": {"addr:city": "\u00c7anakkale", "addr:district": "Merkez", "addr:housenumber": "1", "addr:neighbourhood": "Barbaros", "addr:postcode": "17020", "addr:street": "\u015eehit Pilot Tefik Tatarer Sokak", "amenity": "cafe", "cuisine": "coffee_shop;pizza;burger;sandwich;seafood", "internet_access": "yes", "internet_access:fee": "no", "name": "MackBear Coffee", "opening_hours": "Mo-Su 09:00-24:00", "website": "https://www.instagram.com/mackbearcanakkale/"}}, {"type": "node", "id": 11762567837, "lat": 40.0928202, "lon": 26.2244344, "tags": {"amenity": "restaurant", "name": "M\u00fcze Restaurant"}}, {"type": "node", "id": 12003988855, "lat": 40.4062757, "lon": 26.6722593, "tags": {"addr:city": "\u00c7anakkale", "addr:district": "Gelibolu", "addr:housenumber": "2/B", "addr:neighbourhood": "Camiikebir", "addr:postcode": "17500", "addr:street": "Z\u00fcbeyde Han\u0131m Caddesi", "amenity": "restaurant", "cuisine": "turkish", "name": "Valide Sultan 2", "opening_hours": "06:00-00:00", "owner": "Halil Bilgin", "phone": "+90 286 566 1763"}}, {"type": "node", "id": 12007026137, "lat": 40.4060315, "lon": 26.6724837}, {"type": "node", "id": 12007026138, "lat": 40.4060022, "lon": 26.6726413}, {"type": "node", "id": 12007026139, "lat": 40.4059046, "lon": 26.6726099}, {"type": "node", "id": 12007026140, "lat": 40.4059339, "lon": 26.6724524}, {"type": "node", "id": 12025295670, "lat": 40.2721379, "lon": 26.4878657, "tags": {"amenity": "restaurant", "cuisine": "breakfast"}}, {"type": "node", "id": 12031011471, "lat": 40.0463516, "lon": 26.3489001, "tags": {"amenity": "restaurant", "name": "Leb-i Derya Cafe", "opening_hours": "Mo-Su 11:00-02:00", "phone": "+90 533 412 95 69"}}, {"type": "node", "id": 12031011472, "lat": 40.0458944, "lon": 26.348229, "tags": {"amenity": "restaurant", "name": "Raja Restaurant", "phone": "+90 286 217 42 18"}}, {"type": "node", "id": 12031011473, "lat": 40.0458124, "lon": 26.3481527, "tags": {"amenity": "restaurant", "name": "Yali", "phone": "+90 535 820 96 32"}}, {"type": "node", "id": 12031011671, "lat": 40.0470665, "lon": 26.3491948, "tags": {"amenity": "restaurant", "cuisine": "breakfast;cake;coffee_shop;ice_cream", "name": "Do\u011fan Pastanesi G\u00fczelyali", "phone": "+90 537 657 10 78"}}, {"type": "node", "id": 12031011672, "lat": 40.0446292, "lon": 26.3471538, "tags": {"amenity": "restaurant", "cuisine": "pizza", "name": "Sait's Usta G\u00fczelyal\u0131 Pide ve Pizza"}}, {"type": "node", "id": 12031011871, "lat": 40.0457571, "lon": 26.348233, "tags": {"amenity": "restaurant", "cuisine": "cake;ice_cream", "name": "Bayir", "phone": "+90 549 286 12 86"}}, {"type": "node", "id": 12031011970, "lat": 40.0452729, "lon": 26.3474771, "tags": {"amenity": "restaurant", "name": "Cafe Du Port", "opening_hours": "Mo-Su 10:00-00:00", "phone": "+90 545 460 82 30"}}, {"type": "node", "id": 12052070199, "lat": 40.2654016, "lon": 26.5931064, "tags": {"amenity": "restaurant", "name": "Etki Ekmek \u00c7orba F\u0131r\u0131n Izgara"}}, {"type": "node", "id": 12071760673, "lat": 40.2378488, "lon": 26.6024401, "tags": {"amenity": "cafe"}}, {"type": "node", "id": 12228458083, "lat": 40.1492591, "lon": 26.4019534, "tags": {"addr:neighbourhood": "Kemalpa\u015fa Mahallesi", "amenity": "restaurant", "name": "K\u00f6fteci M\u00fcmin", "phone": "02862138036"}}, {"type": "node", "id": 12710156472, "lat": 40.1281531, "lon": 26.4107898, "tags": {"amenity": "restaurant", "brand": "K\u00f6fteci Yusuf", "brand:wikidata": "Q126125081", "cuisine": "turkish", "name": "K\u00f6fteci Yusuf"}}, {"type": "node", "id": 12802766901, "lat": 40.1522285, "lon": 26.4062134, "tags": {"amenity": "restaurant", "cuisine": "fish;seafood;turkish", "name": "Sayka Restaurant"}}, {"type": "node", "id": 12804165501, "lat": 40.1495525, "lon": 26.4022563, "tags": {"amenity": "restaurant", "cuisine": "pizza", "name": "di napoli pizza", "phone": "+902125051"}}, {"type": "node", "id": 12873862981, "lat": 40.3502595, "lon": 26.4298364, "tags": {"amenity": "cafe"}}, {"type": "node", "id": 12876556056, "lat": 40.1943027, "lon": 26.536223, "tags": {"amenity": "cafe"}}, {"type": "node", "id": 12876589988, "lat": 40.2088294, "lon": 26.5475637, "tags": {"amenity": "cafe"}}, {"type": "node", "id": 12876591971, "lat": 40.2089356, "lon": 26.5475674, "tags": {"amenity": "cafe"}}, {"type": "node", "id": 12876596098, "lat": 40.2089377, "lon": 26.5476244, "tags": {"amenity": "cafe"}}, {"type": "way", "id": 261843593, "nodes": [2674648908, 2674648907, 2674648896, 4569383653, 2674648908], "tags": {"amenity": "cafe", "building": "yes"}}, {"type": "way", "id": 261843594, "nodes": [2674648914, 2674648908, 4569383651, 2674648902, 2674648914], "tags": {"amenity": "cafe", "building": "yes"}}, {"type": "way", "id": 261843595, "nodes": [2674648901, 2674648898, 2674648886, 2674648887, 2674648901], "tags": {"amenity": "restaurant", "building": "yes", "name": "Kavala Bal\u0131k Restaurant"}}, {"type": "way", "id": 261843627, "nodes": [2674648907, 2674648903, 2674648891, 4569383649, 2674648896, 2674648907], "tags": {"amenity": "cafe", "building": "yes"}}, {"type": "way", "id": 459466394, "nodes": [4553149948, 4553149949, 4553149950, 4553149951, 4553149948], "tags": {"amenity": "cafe", "building": "yes", "cuisine": "regional", "internet_access": "wlan", "name": "\u00c7ataltepeliler Dernek Lokali", "smoking": "no"}}, {"type": "way", "id": 461261616, "nodes": [4567895287, 4567895288, 4567895489, 4567895490, 4567895287], "tags": {"amenity": "cafe", "building": "yes", "name": "\u015eakirin Yeri"}}, {"type": "way", "id": 461490983, "nodes": [4569737135, 4569737136, 4569737137, 4569737138, 4569737135], "tags": {"amenity": "cafe", "building": "yes", "name": "Golf \u00c7ay Bah\u00e7esi", "outdoor_seating": "yes", "toilets": "yes", "toilets:access": "customers", "wheelchair": "yes"}}, {"type": "way", "id": 500250131, "nodes": [4913498425, 4913498424, 4913496616, 4913498322, 4913498088, 4913497408, 4913498086, 4913498087, 4913496617, 4913496619, 4913496618, 4913496620, 4913498421, 4913498422, 4913498423, 4913498425], "tags": {"addr:city": "\u00c7anakkale", "amenity": "restaurant", "building": "yes", "cuisine": "regional", "name": "Yama\u00e7 Restoran", "source": "\u00d6zcan Zafer AYAN"}}, {"type": "way", "id": 500263089, "nodes": [4913621402, 4913620997, 4913620775, 4913621400, 4913621401, 4913621179, 4913620996, 4913621399, 4913620995, 4913620774, 4913620776, 4913620773, 4913621398, 4913620994, 4913621397, 4913620993, 4913620772, 4913620273, 4913620769, 4913620770, 4913620274, 4913620991, 4913620992, 4913620275, 4913620771, 4913621402], "tags": {"amenity": "restaurant", "building": "yes", "cuisine": "regional", "name": "Ardes Sosyal Tesisleri", "smoking": "outside", "source": "\u00d6zcan Zafer AYAN"}}, {"type": "way", "id": 996637588, "nodes": [9202622080, 9202622081, 9202622082, 9202622084, 9202622085, 9202622083, 9202622080], "tags": {"addr:city": "\u00c7anakkale", "addr:neighbourhood": "Esenler", "amenity": "cafe", "building": "yes", "internet_access": "wlan", "name": "\u00d6zg\u00fcrl\u00fck Park\u0131", "outdoor_seating": "yes"}}, {"type": "way", "id": 996640706, "nodes": [9202646268, 9202646275, 9202646276, 9202646277, 9202646278, 9202646279, 9202646280, 9202646281, 9202646263, 9202646264, 9202646265]}, {"type": "way", "id": 996640707, "nodes": [9202646265, 9202646269, 9202646270, 9202646271, 9202646272, 9202646273, 9202646274, 9202646266, 9202646267]}, {"type": "way", "id": 996640708, "nodes": [9202646267, 9202646268]}, {"type": "way", "id": 1295769181, "nodes": [12007026137, 12007026138, 12007026139, 12007026140, 12007026137], "tags": {"addr:city": "\u00c7anakkale", "addr:district": "Gelibolu", "addr:housenumber": "16", "addr:neighbourhood": "Camiikebir", "addr:postcode": "17500", "addr:street": "Atat\u00fcrk Caddesi", "amenity": "restaurant", "building": "yes", "cuisine": "turkish", "name": "Valide Sultan", "owner": "Halil Bilgin", "phone": "+90 286 566 1720"}}, {"type": "relation", "id": 13372139, "members": [{"type": "way", "ref": 996640706, "role": "outer"}, {"type": "way", "ref": 996640707, "role": "outer"}, {"type": "way", "ref": 996640708, "role": "outer"}], "tags": {"amenity": "cafe", "building": "yes", "type": "multipolygon"}}]}