{"version": 0.6, "generator": "Overpass API 0.7.62.7 375dc00a", "osm3s": {"timestamp_osm_base": "2025-06-14T14:39:19Z", "copyright": "The data included in this document is from www.openstreetmap.org. The data is made available under ODbL."}, "elements": [{"type": "node", "id": 444695367, "lat": 41.8339517, "lon": 22.6230389, "tags": {"amenity": "restaurant", "name": "Ribnik Blatec"}}, {"type": "node", "id": 444695368, "lat": 41.833525, "lon": 22.624069, "tags": {"amenity": "restaurant"}}, {"type": "node", "id": 461655652, "lat": 41.4392415, "lon": 22.6502444, "tags": {"amenity": "restaurant", "name": "Luna 2"}}, {"type": "node", "id": 461659372, "lat": 41.4389263, "lon": 22.6389491, "tags": {"amenity": "cafe", "name": "City Cafe"}}, {"type": "node", "id": 461659456, "lat": 41.4390994, "lon": 22.6390517, "tags": {"amenity": "cafe", "name": "Inside Cafe"}}, {"type": "node", "id": 461659572, "lat": 41.4390286, "lon": 22.6390002, "tags": {"amenity": "cafe", "name": "Inside Cafe"}}, {"type": "node", "id": 461660689, "lat": 41.4397692, "lon": 22.637799, "tags": {"amenity": "cafe", "name": "Extreme Cafe"}}, {"type": "node", "id": 461660729, "lat": 41.4397043, "lon": 22.6377556, "tags": {"amenity": "cafe", "name": "PR Cafe"}}, {"type": "node", "id": 461660842, "lat": 41.4395247, "lon": 22.6378848, "tags": {"amenity": "cafe", "name": "Cafe 19"}}, {"type": "node", "id": 990397203, "lat": 41.7427284, "lon": 22.1926393, "tags": {"amenity": "cafe", "name": "Angel's Caffe"}}, {"type": "node", "id": 1088079193, "lat": 41.8823767, "lon": 22.3331186, "tags": {"amenity": "restaurant"}}, {"type": "node", "id": 2406002719, "lat": 41.4378354, "lon": 22.6452777, "tags": {"addr:city": "\u0421\u0442\u0440\u0443\u043c\u0438\u0446\u0430", "addr:housename": "\u0412\u043a\u0443\u0441", "addr:postcode": "2400", "addr:street": "\u0413\u043e\u0446\u0435 \u0414\u0435\u043b\u0447\u0435\u0432", "amenity": "restaurant", "cuisine": "regional", "name": "\u0412\u043a\u0443\u0441"}}, {"type": "node", "id": 3162735662, "lat": 41.638261, "lon": 22.461401, "tags": {"addr:city": "Radovis", "addr:country": "MK", "addr:postcode": "2420", "addr:street": "\u041a\u043e\u0441\u0442\u0430 \u0421\u0443\u0441\u0438\u043d\u043e\u0432", "amenity": "cafe", "cuisine": "coffee_shop", "internet_access": "wlan", "internet_access:fee": "yes", "name": "Ti-Amo", "outdoor_seating": "yes", "smoking": "no", "takeaway": "no", "wheelchair": "limited"}}, {"type": "node", "id": 3162746561, "lat": 41.639759, "lon": 22.460188, "tags": {"addr:city": "Radovis", "addr:country": "MK", "addr:postcode": "2420", "addr:street": "\u0410\u043d\u0430 \u041f\u043e\u0446\u043a\u043e\u0432\u0430", "amenity": "restaurant", "cuisine": "italian", "drive_in": "no", "microbrewery": "no", "name": "Target", "organic": "no", "outdoor_seating": "yes", "smoking": "no", "takeaway": "no", "wheelchair": "no"}}, {"type": "node", "id": 3162749461, "lat": 41.640957, "lon": 22.460412, "tags": {"addr:city": "Radovis", "addr:country": "MK", "addr:postcode": "2420", "addr:street": "\u041a\u0435\u0458 8\u043c\u0438 \u0421\u0435\u043f\u0442\u0435\u043c\u0432\u0440\u0438", "amenity": "restaurant", "cuisine": "italian", "drive_in": "no", "internet_access": "wlan", "internet_access:fee": "yes", "microbrewery": "no", "name": "Jocker pizza", "organic": "no", "outdoor_seating": "yes", "smoking": "no", "takeaway": "yes", "wheelchair": "no"}}, {"type": "node", "id": 3162751061, "lat": 41.640184, "lon": 22.461378, "tags": {"addr:city": "Radovis", "addr:country": "MK", "addr:postcode": "2420", "addr:street": "\u041a\u0435\u0458 8\u043c\u0438 \u0421\u0435\u043f\u0442\u0435\u043c\u0432\u0440\u0438", "amenity": "restaurant", "cuisine": "italian", "drive_in": "no", "name": "Getsbi pizza", "organic": "no", "outdoor_seating": "yes", "smoking": "no", "takeaway": "yes", "wheelchair": "no"}}, {"type": "node", "id": 3162751062, "lat": 41.636975, "lon": 22.462999, "tags": {"addr:city": "Radovis", "addr:country": "MK", "addr:postcode": "2420", "addr:street": "22 \u041e\u043a\u0442\u043e\u043c\u0432\u0440\u0438", "amenity": "cafe", "cuisine": "coffee_shop", "internet_access": "wlan", "internet_access:fee": "yes", "name": "Virus", "outdoor_seating": "yes", "smoking": "no", "takeaway": "no", "wheelchair": "no"}}, {"type": "node", "id": 3162755761, "lat": 41.634656, "lon": 22.465724, "tags": {"addr:city": "Radovis", "addr:country": "MK", "addr:postcode": "2420", "addr:street": "\u0421\u0430\u043c\u0443\u0438\u043b\u043e\u0432\u0430", "amenity": "restaurant", "cuisine": "barbecue", "drive_in": "no", "internet_access": "no", "internet_access:fee": "no", "microbrewery": "no", "name": "Vrteska", "organic": "no", "outdoor_seating": "no", "smoking": "no", "takeaway": "no", "wheelchair": "no"}}, {"type": "node", "id": 3162763261, "lat": 41.6332038, "lon": 22.4648612, "tags": {"amenity": "restaurant", "cuisine": "barbecue", "drive_in": "no", "internet_access": "no", "internet_access:fee": "no", "microbrewery": "no", "name": "Gone", "organic": "no", "outdoor_seating": "no", "smoking": "no", "takeaway": "yes", "wheelchair": "yes"}}, {"type": "node", "id": 3162772765, "lat": 41.633496, "lon": 22.46449, "tags": {"amenity": "restaurant", "drive_in": "no"}}, {"type": "node", "id": 3162773865, "lat": 41.635577, "lon": 22.46373, "tags": {"amenity": "restaurant", "cuisine": "barbecue", "drive_in": "no", "internet_access": "no", "internet_access:fee": "no", "microbrewery": "no", "organic": "no", "outdoor_seating": "no", "smoking": "no", "takeaway": "yes", "wheelchair": "no"}}, {"type": "node", "id": 3162778861, "lat": 41.636566, "lon": 22.462943, "tags": {"amenity": "restaurant", "cuisine": "barbecue", "drive_in": "no", "microbrewery": "no", "name": "Karagjoz", "organic": "no", "outdoor_seating": "yes", "smoking": "no", "takeaway": "yes", "wheelchair": "limited"}}, {"type": "node", "id": 3162791061, "lat": 41.629596, "lon": 22.44631, "tags": {"amenity": "restaurant", "cuisine": "barbecue", "drive_in": "no", "microbrewery": "no", "name": "Magmar", "outdoor_seating": "no", "smoking": "no"}}, {"type": "node", "id": 3162794862, "lat": 41.639065, "lon": 22.461327, "tags": {"amenity": "restaurant", "cuisine": "barbecue", "drive_in": "no", "microbrewery": "no", "name": "Beverli hils", "organic": "no", "outdoor_seating": "no", "smoking": "no", "takeaway": "yes"}}, {"type": "node", "id": 3162794863, "lat": 41.639133, "lon": 22.462186, "tags": {"amenity": "restaurant", "cuisine": "barbecue", "drive_in": "no", "internet_access": "no", "internet_access:fee": "no", "microbrewery": "no", "name": "Shona", "organic": "no", "outdoor_seating": "yes", "smoking": "no", "takeaway": "yes"}}, {"type": "node", "id": 3162794961, "lat": 41.633895, "lon": 22.456789, "tags": {"amenity": "restaurant", "cuisine": "italian", "name": "Santa Maria pizza"}}, {"type": "node", "id": 3162795861, "lat": 41.637611, "lon": 22.463272, "tags": {"amenity": "restaurant", "cuisine": "regional", "drive_in": "no", "internet_access": "no", "internet_access:fee": "no", "microbrewery": "no", "name": "Makedonsko Sonce", "organic": "no", "outdoor_seating": "no", "smoking": "no", "takeaway": "yes"}}, {"type": "node", "id": 3162796461, "lat": 41.63925, "lon": 22.462199, "tags": {"amenity": "restaurant", "cuisine": "barbecue", "microbrewery": "no", "name": "Lastik", "outdoor_seating": "no", "smoking": "no", "takeaway": "yes"}}, {"type": "node", "id": 3187744343, "lat": 41.63951, "lon": 22.46373, "tags": {"amenity": "restaurant", "cuisine": "barbecue", "drive_in": "no", "internet_access": "wlan", "internet_access:fee": "no", "microbrewery": "no", "organic": "no", "outdoor_seating": "no", "smoking": "no", "takeaway": "yes"}}, {"type": "node", "id": 3187744351, "lat": 41.637782, "lon": 22.465528, "tags": {"amenity": "restaurant", "cuisine": "barbecue", "drive_in": "no", "internet_access": "no", "internet_access:fee": "no", "microbrewery": "no", "name": "Lipa", "organic": "no", "outdoor_seating": "yes", "smoking": "no", "takeaway": "yes"}}, {"type": "node", "id": 3187745933, "lat": 41.638767, "lon": 22.46306, "tags": {"amenity": "restaurant", "cuisine": "barbecue", "drive_in": "no", "internet_access": "no", "internet_access:fee": "no", "microbrewery": "no", "name": "Maslac", "organic": "no", "outdoor_seating": "yes", "smoking": "no", "takeaway": "yes"}}, {"type": "node", "id": 3187746716, "lat": 41.639155, "lon": 22.460143, "tags": {"amenity": "cafe", "cuisine": "coffee_shop", "internet_access": "wlan", "internet_access:fee": "no", "name": "Escape", "outdoor_seating": "yes", "smoking": "no", "takeaway": "no", "wheelchair": "no"}}, {"type": "node", "id": 3187758521, "lat": 41.638283, "lon": 22.460403, "tags": {"amenity": "restaurant", "cuisine": "barbecue", "drive_in": "no", "internet_access": "no", "internet_access:fee": "no", "microbrewery": "no", "organic": "no", "outdoor_seating": "no", "smoking": "no", "takeaway": "yes"}}, {"type": "node", "id": 3664638120, "lat": 41.6245987, "lon": 22.3171977, "tags": {"amenity": "restaurant", "name": "\u041f\u0438\u043b\u0430\u0432 \u0422\u0435\u043f\u0435", "name:en": "Pilav Tepe"}}, {"type": "node", "id": 3784770415, "lat": 41.5162501, "lon": 22.6153456, "tags": {"amenity": "restaurant", "name": "\u0408\u0430\u0432\u043e\u0440\u0428\u043f\u0435\u0434"}}, {"type": "node", "id": 3786106943, "lat": 41.6337365, "lon": 22.2451062, "tags": {"amenity": "restaurant", "name": "\u0420\u0438\u0431\u043d\u0438\u043a"}}, {"type": "node", "id": 4161400696, "lat": 41.886544, "lon": 22.5058453, "tags": {"addr:street": "\u041a\u043e\u0447\u043e \u0420\u0430\u0446\u0438\u043d", "amenity": "cafe", "name": "Pancir Cafe"}}, {"type": "node", "id": 4161427291, "lat": 41.8865523, "lon": 22.50587, "tags": {"addr:street": "\u041a\u043e\u0447\u043e \u0420\u0430\u0446\u0438\u043d", "amenity": "cafe", "name": "\u041f\u0430\u043d\u0446\u0438\u0440 \u041a\u0430\u0444\u0435"}}, {"type": "node", "id": 4240294389, "lat": 41.73738, "lon": 22.1938869, "tags": {"amenity": "cafe", "name": "Vami Cafe 1"}}, {"type": "node", "id": 4247199848, "lat": 41.7375454, "lon": 22.1911884, "tags": {"amenity": "restaurant", "cuisine": "sandwich;balkan;breakfast;pizza;kebab;local;pasta;coffee_shop;ice_cream", "internet_access": "wlan", "name": "Classic Restaurant", "opening_hours": "Mo-Su 07:00-00:00"}}, {"type": "node", "id": 4356193798, "lat": 41.7388546, "lon": 22.1966748, "tags": {"amenity": "restaurant", "name": "\u041a\u0435\u0431\u0430\u043f\u0447\u0438\u043b\u043d\u0438\u0446\u0430 \u0422\u0430\u0441\u0435", "name:mk": "\u041a\u0435\u0431\u0430\u043f\u0447\u0438\u043b\u043d\u0438\u0446\u0430 \u0422\u0430\u0441\u0435"}}, {"type": "node", "id": 4356215591, "lat": 41.7388923, "lon": 22.1957213, "tags": {"amenity": "cafe", "name": "\u041d\u043e\u0432\u0430 \u041a\u0430\u0444\u0435"}}, {"type": "node", "id": 4357166290, "lat": 41.7378263, "lon": 22.1941525, "tags": {"amenity": "cafe"}}, {"type": "node", "id": 4360780391, "lat": 41.7369559, "lon": 22.1926047, "tags": {"amenity": "restaurant", "cuisine": "regional", "name": "\u0414\u043e\u043c\u0430\u0448\u043d\u0430 \u041a\u0443\u0458\u043d\u0430 \u041f\u0440\u0435\u0446\u0438\u0437", "name:mk": "\u0414\u043e\u043c\u0430\u0448\u043d\u0430 \u041a\u0443\u0458\u043d\u0430 \u041f\u0440\u0435\u0446\u0438\u0437", "website": "https://www.facebook.com/DomasnakujnaPreciz-109208438394027/"}}, {"type": "node", "id": 4360802894, "lat": 41.7441882, "lon": 22.1981705, "tags": {"amenity": "cafe"}}, {"type": "node", "id": 4363534190, "lat": 41.7376508, "lon": 22.190421, "tags": {"amenity": "restaurant"}}, {"type": "node", "id": 4422009904, "lat": 41.7368023, "lon": 22.1919015}, {"type": "node", "id": 4422597873, "lat": 41.7433079, "lon": 22.1878953}, {"type": "node", "id": 4422597876, "lat": 41.7431262, "lon": 22.1881971}, {"type": "node", "id": 4423436049, "lat": 41.737683, "lon": 22.1985395}, {"type": "node", "id": 4425413439, "lat": 41.7373083, "lon": 22.1941197}, {"type": "node", "id": 4425413440, "lat": 41.737357, "lon": 22.1942543}, {"type": "node", "id": 4425413441, "lat": 41.7373001, "lon": 22.1942913}, {"type": "node", "id": 4425413442, "lat": 41.7372513, "lon": 22.1941567}, {"type": "node", "id": 4429148221, "lat": 41.7368747, "lon": 22.1947196}, {"type": "node", "id": 4429148222, "lat": 41.7368997, "lon": 22.1948032}, {"type": "node", "id": 4429148223, "lat": 41.7369512, "lon": 22.1947755}, {"type": "node", "id": 4429148224, "lat": 41.7369262, "lon": 22.1946919}, {"type": "node", "id": 4432762845, "lat": 41.7440172, "lon": 22.1860918}, {"type": "node", "id": 4432762846, "lat": 41.7440132, "lon": 22.1862983}, {"type": "node", "id": 4432762847, "lat": 41.7441033, "lon": 22.1863104}, {"type": "node", "id": 4432762848, "lat": 41.7442984, "lon": 22.1860448}, {"type": "node", "id": 4432762849, "lat": 41.7443044, "lon": 22.1859308}, {"type": "node", "id": 4432762850, "lat": 41.7442474, "lon": 22.1859496}, {"type": "node", "id": 4432762851, "lat": 41.7442294, "lon": 22.1859992}, {"type": "node", "id": 4432762852, "lat": 41.7441343, "lon": 22.1859925}, {"type": "node", "id": 4433089213, "lat": 41.7471001, "lon": 22.1846023}, {"type": "node", "id": 4433120967, "lat": 41.7473937, "lon": 22.1843791}, {"type": "node", "id": 4433120968, "lat": 41.7474633, "lon": 22.1845435}, {"type": "node", "id": 4433120969, "lat": 41.7471697, "lon": 22.1847667}, {"type": "node", "id": 4433121114, "lat": 41.7481901, "lon": 22.1836779}, {"type": "node", "id": 4433121115, "lat": 41.7483333, "lon": 22.1838775}, {"type": "node", "id": 4433121116, "lat": 41.7484428, "lon": 22.1837365}, {"type": "node", "id": 4433121117, "lat": 41.7482996, "lon": 22.1835368}, {"type": "node", "id": 4433121182, "lat": 41.7514161, "lon": 22.1788881}, {"type": "node", "id": 4433121183, "lat": 41.7515382, "lon": 22.1786172}, {"type": "node", "id": 4433121186, "lat": 41.7516389, "lon": 22.1786479}, {"type": "node", "id": 4433121189, "lat": 41.7515684, "lon": 22.1785606}, {"type": "node", "id": 4433121190, "lat": 41.7516484, "lon": 22.1786274}, {"type": "node", "id": 4433121191, "lat": 41.7516844, "lon": 22.1786858}, {"type": "node", "id": 4433121192, "lat": 41.7515416, "lon": 22.1789931}, {"type": "node", "id": 4433944695, "lat": 41.7479293, "lon": 22.1812375}, {"type": "node", "id": 4433944696, "lat": 41.7480039, "lon": 22.1814456}, {"type": "node", "id": 4433944697, "lat": 41.7481158, "lon": 22.1813735}, {"type": "node", "id": 4433944698, "lat": 41.7480412, "lon": 22.1811654}, {"type": "node", "id": 4433960934, "lat": 41.7475667, "lon": 22.1833112}, {"type": "node", "id": 4433960935, "lat": 41.7476833, "lon": 22.1835353}, {"type": "node", "id": 4433960936, "lat": 41.7475851, "lon": 22.183627}, {"type": "node", "id": 4433960937, "lat": 41.7474685, "lon": 22.1834029}, {"type": "node", "id": 4448736389, "lat": 41.4433529, "lon": 22.6433683, "tags": {"amenity": "restaurant", "name": "\u0427\u0430\u043c\u043e\u0432\u0441\u043a\u0438", "name:en": "Chamovski", "name:mk": "\u0427\u0430\u043c\u043e\u0432\u0441\u043a\u0438"}}, {"type": "node", "id": 4988000122, "lat": 41.6341662, "lon": 22.4648163, "tags": {"amenity": "cafe", "internet_access": "wlan", "internet_access:fee": "no", "name": "Coffe House Downtown", "outdoor_seating": "yes", "smoking": "outside"}}, {"type": "node", "id": 5058440823, "lat": 41.738556, "lon": 22.1959414, "tags": {"addr:housenumber": "6", "addr:postcode": "2000", "addr:street": "\u041a\u0435\u0458 \u041c\u0430\u0440\u0448\u0430\u043b \u0422\u0438\u0442\u043e", "amenity": "cafe", "internet_access": "wlan", "name": "\u041a\u043e\u0444\u0438 \u041b\u0430\u0431", "name:en": "Coffee Lab", "opening_hours": "Su-Th 08:00-00:00; Fr-Sa 08:00-01:00"}}, {"type": "node", "id": 5075885521, "lat": 41.4409617, "lon": 22.6388602, "tags": {"amenity": "restaurant", "name": "Salomon fud", "name:mk": "Salomon fud"}}, {"type": "node", "id": 5407742721, "lat": 41.4372542, "lon": 22.6382644, "tags": {"amenity": "cafe", "internet_access": "wlan", "name": "BU Coffee to go"}}, {"type": "node", "id": 5618221222, "lat": 41.4403734, "lon": 22.6383287, "tags": {"amenity": "cafe", "name": "Conept Cafe", "name:en": "Concept Cafe", "name:mk": "Concept Cafe"}}, {"type": "node", "id": 6347445707, "lat": 41.7390109, "lon": 22.1928555, "tags": {"amenity": "restaurant", "name": "\u0412\u0435\u0440\u043e\u043d\u0430"}}, {"type": "node", "id": 6348113843, "lat": 41.7385497, "lon": 22.1921453, "tags": {"amenity": "restaurant", "name": "\u0413\u0443\u0440\u043c\u0430\u043d \u040c\u043e\u0448\u0435", "name:en": "Gurman Kjoshe"}}, {"type": "node", "id": 6348113849, "lat": 41.7384195, "lon": 22.1935924, "tags": {"amenity": "cafe"}}, {"type": "node", "id": 6348172157, "lat": 41.73743, "lon": 22.1991187, "tags": {"amenity": "cafe"}}, {"type": "node", "id": 6348292352, "lat": 41.744575, "lon": 22.1905697, "tags": {"amenity": "cafe"}}, {"type": "node", "id": 6352179003, "lat": 41.7474621, "lon": 22.1835986}, {"type": "node", "id": 6352179004, "lat": 41.7473697, "lon": 22.1836872}, {"type": "node", "id": 6352179005, "lat": 41.7474146, "lon": 22.1837715}, {"type": "node", "id": 6352179006, "lat": 41.7475071, "lon": 22.1836829}, {"type": "node", "id": 6635746831, "lat": 41.8845742, "lon": 22.5072573, "tags": {"amenity": "restaurant", "name": "Rusticana"}}, {"type": "node", "id": 6638915744, "lat": 41.8854176, "lon": 22.5090351, "tags": {"amenity": "restaurant"}}, {"type": "node", "id": 6638917286, "lat": 41.8852945, "lon": 22.5078812, "tags": {"amenity": "restaurant", "name": "Roma pizza"}}, {"type": "node", "id": 7373066578, "lat": 41.7497668, "lon": 22.2005392, "tags": {"amenity": "cafe", "name": "Timeout"}}, {"type": "node", "id": 7373084433, "lat": 41.7482188, "lon": 22.1979387, "tags": {"amenity": "restaurant", "name": "Tornado Lounge Bar"}}, {"type": "node", "id": 7616810671, "lat": 41.44113, "lon": 22.6389131}, {"type": "node", "id": 7616810672, "lat": 41.4412627, "lon": 22.6389654}, {"type": "node", "id": 7616810673, "lat": 41.4413603, "lon": 22.6386033}, {"type": "node", "id": 7616810674, "lat": 41.4412637, "lon": 22.6385215}, {"type": "node", "id": 8537993721, "lat": 41.7384976, "lon": 22.1942725, "tags": {"amenity": "restaurant"}}, {"type": "node", "id": 8537993725, "lat": 41.7373425, "lon": 22.1941644, "tags": {"amenity": "restaurant", "cuisine": "turkish"}}, {"type": "node", "id": 9851535957, "lat": 41.7384344, "lon": 22.1921625, "tags": {"amenity": "restaurant", "cuisine": "pizza", "name": "\u0410\u043b\u0431\u0435\u0440\u0442\u0430"}}, {"type": "node", "id": 9863519778, "lat": 41.7373661, "lon": 22.1942451, "tags": {"amenity": "restaurant"}}, {"type": "node", "id": 10067830817, "lat": 41.6336665, "lon": 22.4706069, "tags": {"amenity": "restaurant", "name": "Marfi"}}, {"type": "node", "id": 10177783533, "lat": 41.885721, "lon": 22.50867, "tags": {"amenity": "cafe", "name": "Park Caf\u00e9"}}, {"type": "node", "id": 10199996732, "lat": 41.73646, "lon": 22.2027912}, {"type": "node", "id": 10199996733, "lat": 41.7363223, "lon": 22.2026975}, {"type": "node", "id": 10199996735, "lat": 41.7364108, "lon": 22.202921}, {"type": "node", "id": 10199996736, "lat": 41.7362731, "lon": 22.2028273}, {"type": "node", "id": 10777709559, "lat": 41.7437994, "lon": 22.1863441}, {"type": "node", "id": 10777709560, "lat": 41.743469, "lon": 22.1863802}, {"type": "node", "id": 10777709561, "lat": 41.7435534, "lon": 22.1877729}, {"type": "node", "id": 10777709564, "lat": 41.7434326, "lon": 22.1880318}, {"type": "node", "id": 10777709565, "lat": 41.7432688, "lon": 22.1883296}, {"type": "node", "id": 10777709566, "lat": 41.7436689, "lon": 22.1877603}, {"type": "node", "id": 10777709567, "lat": 41.7436557, "lon": 22.1875715}, {"type": "node", "id": 10777709568, "lat": 41.7435421, "lon": 22.1875859}, {"type": "node", "id": 10777709574, "lat": 41.7472061, "lon": 22.1883014}, {"type": "node", "id": 10777709575, "lat": 41.7472387, "lon": 22.1884992}, {"type": "node", "id": 10777709576, "lat": 41.7468511, "lon": 22.1886139}, {"type": "node", "id": 10777709577, "lat": 41.7468185, "lon": 22.1884162}, {"type": "node", "id": 10777709582, "lat": 41.7468348, "lon": 22.188515, "tags": {"entrance": "yes"}}, {"type": "node", "id": 10777796932, "lat": 41.7368945, "lon": 22.191866}, {"type": "node", "id": 10777796933, "lat": 41.7369174, "lon": 22.1919818}, {"type": "node", "id": 10777796934, "lat": 41.7368265, "lon": 22.192014}, {"type": "node", "id": 10830764435, "lat": 41.7440913, "lon": 22.1899663}, {"type": "node", "id": 10830764436, "lat": 41.7440804, "lon": 22.1900309}, {"type": "node", "id": 10830764437, "lat": 41.7439311, "lon": 22.1899859}, {"type": "node", "id": 10830764438, "lat": 41.7439419, "lon": 22.1899214}, {"type": "node", "id": 10830764439, "lat": 41.7440744, "lon": 22.190047}, {"type": "node", "id": 10830764440, "lat": 41.7438429, "lon": 22.1899712}, {"type": "node", "id": 10830764441, "lat": 41.74383, "lon": 22.1900424}, {"type": "node", "id": 10830764442, "lat": 41.7440614, "lon": 22.1901182}, {"type": "node", "id": 10830764443, "lat": 41.7440642, "lon": 22.1901032, "tags": {"entrance": "yes"}}, {"type": "node", "id": 10830764444, "lat": 41.7440842, "lon": 22.1900085, "tags": {"entrance": "yes"}}, {"type": "node", "id": 11884174691, "lat": 41.8761995, "lon": 22.5878097, "tags": {"amenity": "restaurant", "name": "Rusticana"}}, {"type": "node", "id": 11884717367, "lat": 41.8860766, "lon": 22.5104123, "tags": {"amenity": "cafe", "name": "Gala"}}, {"type": "node", "id": 12066202333, "lat": 41.7377321, "lon": 22.1984378}, {"type": "node", "id": 12066202334, "lat": 41.7377841, "lon": 22.1984829}, {"type": "node", "id": 12066202335, "lat": 41.737735, "lon": 22.1985846}, {"type": "node", "id": 12090279837, "lat": 41.7436939, "lon": 22.1865853}, {"type": "node", "id": 12090279838, "lat": 41.7438145, "lon": 22.1865732}, {"type": "node", "id": 12090279853, "lat": 41.7434836, "lon": 22.1866041}, {"type": "node", "id": 12090279856, "lat": 41.7436051, "lon": 22.1865914}, {"type": "node", "id": 12139311650, "lat": 41.7377232, "lon": 22.1998805}, {"type": "node", "id": 12139311651, "lat": 41.7376681, "lon": 22.1998748}, {"type": "node", "id": 12139311652, "lat": 41.7376652, "lon": 22.1999252}, {"type": "node", "id": 12139311653, "lat": 41.7377203, "lon": 22.1999309}, {"type": "node", "id": 12152160068, "lat": 41.752055, "lon": 22.1777149, "tags": {"amenity": "restaurant"}}, {"type": "node", "id": 12245982783, "lat": 41.4534841, "lon": 22.6453448, "tags": {"amenity": "restaurant", "check_date": "2024-10-12", "name": "\u041d\u0430\u043f\u043e\u043b\u0435\u043e\u043d", "name:fr": "Napol\u00e9on", "name:mk": "\u041d\u0430\u043f\u043e\u043b\u0435\u043e\u043d", "phone": "+389 78 253 538", "website": "https://napoleon.com.mk/"}}, {"type": "node", "id": 12246004001, "lat": 41.4530748, "lon": 22.6449336, "tags": {"amenity": "restaurant", "check_date": "2024-10-12", "name": "Royal Park"}}, {"type": "node", "id": 12246058995, "lat": 41.4528921, "lon": 22.6451043, "tags": {"amenity": "restaurant", "check_date": "2024-10-12", "name": "Amor Garden"}}, {"type": "node", "id": 12246093591, "lat": 41.4513474, "lon": 22.6442111, "tags": {"amenity": "restaurant", "check_date": "2024-10-12", "name": "\u0421\u0422\u0410\u0420\u0410 \u041a\u0423\u040c\u0410 \u0421\u0442\u0440\u0443\u043c\u0438\u0446\u0430", "name:la": "Stara Kuka Strumica", "name:mk": "\u0421\u0422\u0410\u0420\u0410 \u041a\u0423\u040c\u0410 \u0421\u0442\u0440\u0443\u043c\u0438\u0446\u0430"}}, {"type": "node", "id": 12247857947, "lat": 41.4430211, "lon": 22.6466283, "tags": {"amenity": "restaurant", "check_date": "2024-10-13", "name": "Concept Food & Caf\u00e9 Bar"}}, {"type": "node", "id": 12765528813, "lat": 41.8758262, "lon": 22.2952652, "tags": {"amenity": "cafe"}}, {"type": "way", "id": 445087610, "nodes": [4425413439, 4425413440, 4425413441, 4425413442, 4425413439], "tags": {"amenity": "restaurant", "building": "yes", "cuisine": "turkish"}}, {"type": "way", "id": 445493746, "nodes": [4429148221, 4429148222, 4429148223, 4429148224, 4429148221], "tags": {"amenity": "restaurant", "building": "yes", "building:levels": "3", "cuisine": "pizza"}}, {"type": "way", "id": 445927536, "nodes": [4432762845, 4432762846, 4432762847, 4432762848, 4432762849, 4432762850, 4432762851, 4432762852, 4432762845], "tags": {"amenity": "restaurant", "building": "yes", "building:levels": "2", "name": "\u041c\u0430\u043b-\u041e\u0434\u043c\u043e\u0440", "name:en": "Mal-Odmor"}}, {"type": "way", "id": 445976256, "nodes": [4433120967, 4433120968, 4433120969, 4433089213, 4433120967], "tags": {"amenity": "restaurant", "building": "yes", "name": "\u0415\u0441\u043d\u0430\u0444"}}, {"type": "way", "id": 445976288, "nodes": [4433121114, 4433121115, 4433121116, 4433121117, 4433121114], "tags": {"amenity": "restaurant", "building": "yes", "name": "\u041d\u0415\u0426\u041a\u041e 2"}}, {"type": "way", "id": 445976306, "nodes": [4433121183, 4433121189, 4433121190, 4433121186, 4433121191, 4433121192, 4433121182, 4433121183], "tags": {"amenity": "restaurant", "building": "yes", "capacity": "200", "name": "\u0420\u0435\u0441\u0442\u043e\u0440\u0430\u043d \u0412\u0430\u0433\u043e", "smoking": "separated"}}, {"type": "way", "id": 446059947, "nodes": [4433944695, 4433944696, 4433944697, 4433944698, 4433944695], "tags": {"amenity": "restaurant", "building": "yes", "name": "\u041c\u0435\u0430\u043d\u0430 \u0437\u0430 \u041c\u0435\u0440\u0430\u043a"}}, {"type": "way", "id": 446062753, "nodes": [4433960934, 4433960935, 4433960936, 4433960937, 4433960934], "tags": {"amenity": "restaurant", "building": "yes", "name": "\u0424\u0438\u043b\u0438\u0442\u0435\u0430 2", "name:en": "Filitea 2"}}, {"type": "way", "id": 678397093, "nodes": [6352179003, 6352179004, 6352179005, 6352179006, 6352179003], "tags": {"amenity": "restaurant", "building": "yes", "name": "\u0411\u0438\u0441\u0435\u0440 \u041c\u0438\u0442\u0440\u0435"}}, {"type": "way", "id": 815560726, "nodes": [7616810671, 7616810672, 7616810673, 7616810674, 7616810671], "tags": {"amenity": "restaurant", "cuisine": "regional;pizza;pasta;dessert;sushi;fish;meat;chicken;pastrmajlija", "name": "Shalom", "payment:cards": "yes", "payment:cash": "yes", "website": "https://shalom.mk/"}}, {"type": "way", "id": 1115276768, "nodes": [10199996732, 10199996735, 10199996736, 10199996733, 10199996732], "tags": {"amenity": "restaurant", "building": "yes"}}, {"type": "way", "id": 1158955787, "nodes": [4422597873, 10777709564, 10777709565, 4422597876, 4422597873], "tags": {"amenity": "restaurant", "building": "yes", "toilets": "yes"}}, {"type": "way", "id": 1158955788, "nodes": [10777709566, 10777709567, 10777709568, 10777709561, 10777709566], "tags": {"amenity": "cafe", "building": "yes"}}, {"type": "way", "id": 1158955791, "nodes": [10777709574, 10777709575, 10777709576, 10777709582, 10777709577, 10777709574], "tags": {"amenity": "restaurant", "building": "yes", "name": "\u0412\u043e\u0434\u0435\u043d\u0438\u0446\u0430"}}, {"type": "way", "id": 1158959209, "nodes": [10777796932, 10777796933, 10777796934, 4422009904, 10777796932], "tags": {"amenity": "cafe", "building": "yes"}}, {"type": "way", "id": 1164554906, "nodes": [10830764435, 10830764444, 10830764436, 10830764437, 10830764438, 10830764435], "tags": {"amenity": "restaurant", "building": "yes"}}, {"type": "way", "id": 1164554907, "nodes": [10830764439, 10830764440, 10830764441, 10830764442, 10830764443, 10830764439], "tags": {"amenity": "restaurant", "building": "yes"}}, {"type": "way", "id": 1302850676, "nodes": [12066202333, 12066202334, 12066202335, 4423436049, 12066202333], "tags": {"amenity": "cafe", "building": "yes", "layer": "1"}}, {"type": "way", "id": 1305390325, "nodes": [12090279838, 12090279837, 12090279856, 12090279853, 10777709560, 10777709559, 12090279838], "tags": {"amenity": "restaurant", "building": "yes"}}, {"type": "way", "id": 1311441635, "nodes": [12139311650, 12139311651, 12139311652, 12139311653, 12139311650], "tags": {"amenity": "cafe", "building": "yes"}}]}