{"version": 0.6, "generator": "Overpass API 0.7.62.7 375dc00a", "osm3s": {"timestamp_osm_base": "2025-06-14T14:37:16Z", "copyright": "The data included in this document is from www.openstreetmap.org. The data is made available under ODbL."}, "elements": [{"type": "node", "id": 462175472, "lat": 42.889847, "lon": 22.0756731, "tags": {"amenity": "restaurant", "int_name": "San", "name": "\u0421\u0430\u043d", "name:sr": "\u0421\u0430\u043d", "name:sr-Latn": "San"}}, {"type": "node", "id": 1128589690, "lat": 43.0045688, "lon": 21.9323405, "tags": {"addr:street": "\u0421\u0432\u0435\u0442\u043e\u0437\u0430\u0440\u0430 \u041c\u0438\u043b\u0435\u0442\u0438\u045b\u0430", "air_conditioning": "yes", "amenity": "restaurant", "bar": "yes", "branch": "yes", "cuisine": "regional;leskovac;burger;leskovacka_muckalica;hamburger;salad;lunch;breakfast;dinner;food", "delivery": "yes", "internet_access": "wlan", "name": "Etno Brvnara Gro\u0161", "name:sr": "\u0415\u0442\u043d\u043e \u0411\u0440\u0432\u043d\u0430\u0440\u0430 \u0413\u0440\u043e\u0448", "name:sr-Latn": "Etno Brvnara Gro\u0161", "opening_hours": "Mo-Su 09:00-23:00", "outdoor_seating": "yes", "takeaway": "yes", "website": "https://www.restorangros.com", "website:menu": "https://www.restorangros.com/jelovnik/specijaliteti-sa-rostilja"}}, {"type": "node", "id": 1129584198, "lat": 42.9955062, "lon": 21.9458437, "tags": {"amenity": "restaurant", "int_name": "Park", "internet_access": "yes", "level": "1", "name": "\u041f\u0430\u0440\u043a", "name:sr": "\u041f\u0430\u0440\u043a", "name:sr-Latn": "Park", "smoking": "separated"}}, {"type": "node", "id": 1129584210, "lat": 42.9953677, "lon": 21.9457127, "tags": {"amenity": "cafe", "int_name": "Safari", "internet_access": "yes", "name": "\u0421\u0430\u0444\u0430\u0440\u0438", "name:sr": "\u0421\u0430\u0444\u0430\u0440\u0438", "name:sr-Latn": "Safari", "smoking": "separated"}}, {"type": "node", "id": 2918328883, "lat": 43.00466, "lon": 21.9321749}, {"type": "node", "id": 2918328884, "lat": 43.005101, "lon": 21.9319736}, {"type": "node", "id": 2918328885, "lat": 43.005212, "lon": 21.9324284}, {"type": "node", "id": 2918328886, "lat": 43.004771, "lon": 21.9326296}, {"type": "node", "id": 4262622556, "lat": 42.9937808, "lon": 21.9487218}, {"type": "node", "id": 4262622557, "lat": 42.9939562, "lon": 21.9487153}, {"type": "node", "id": 4262622558, "lat": 42.9939653, "lon": 21.9491777}, {"type": "node", "id": 4262622561, "lat": 42.993769, "lon": 21.9491849}, {"type": "node", "id": 4262622562, "lat": 42.9937605, "lon": 21.9487509}, {"type": "node", "id": 4262814275, "lat": 42.9953662, "lon": 21.9454821}, {"type": "node", "id": 4262814276, "lat": 42.9953662, "lon": 21.9455904}, {"type": "node", "id": 4262814277, "lat": 42.995393, "lon": 21.9455904}, {"type": "node", "id": 4262814278, "lat": 42.995393, "lon": 21.9456528}, {"type": "node", "id": 4262814279, "lat": 42.9954087, "lon": 21.9456528}, {"type": "node", "id": 4262814280, "lat": 42.9954087, "lon": 21.9456948}, {"type": "node", "id": 4262814281, "lat": 42.9954206, "lon": 21.9456948}, {"type": "node", "id": 4262814282, "lat": 42.9954206, "lon": 21.9457983}, {"type": "node", "id": 4262814283, "lat": 42.9954517, "lon": 21.9457983}, {"type": "node", "id": 4262814284, "lat": 42.9954517, "lon": 21.9458406}, {"type": "node", "id": 4262814285, "lat": 42.9957328, "lon": 21.9458407}, {"type": "node", "id": 4262814286, "lat": 42.9957329, "lon": 21.9454823}, {"type": "node", "id": 4262814287, "lat": 42.995823, "lon": 21.9454823}, {"type": "node", "id": 4262814288, "lat": 42.995823, "lon": 21.9458407}, {"type": "node", "id": 4403544431, "lat": 43.0967928, "lon": 21.7992979}, {"type": "node", "id": 4403544433, "lat": 43.0967239, "lon": 21.7993766}, {"type": "node", "id": 4403544435, "lat": 43.096649, "lon": 21.7992536}, {"type": "node", "id": 4403544436, "lat": 43.0967179, "lon": 21.7991749}, {"type": "node", "id": 4403550662, "lat": 43.0891595, "lon": 21.7812532}, {"type": "node", "id": 4403550676, "lat": 43.0892565, "lon": 21.7817094}, {"type": "node", "id": 4403550695, "lat": 43.0892808, "lon": 21.7812665}, {"type": "node", "id": 4403550700, "lat": 43.0890241, "lon": 21.7810591}, {"type": "node", "id": 4403550704, "lat": 43.0894132, "lon": 21.7810992}, {"type": "node", "id": 4403550708, "lat": 43.0894033, "lon": 21.7812791}, {"type": "node", "id": 4403550723, "lat": 43.0891352, "lon": 21.7816969}, {"type": "node", "id": 4403550736, "lat": 43.0890143, "lon": 21.7812382}, {"type": "node", "id": 4923055459, "lat": 42.8425114, "lon": 21.5853144, "tags": {"amenity": "cafe", "name": "San Luka"}}, {"type": "node", "id": 4923055478, "lat": 42.8428762, "lon": 21.5848517, "tags": {"amenity": "cafe", "int_name": "Lido", "name": "\u041b\u0438\u0434\u043e"}}, {"type": "node", "id": 4923055481, "lat": 42.8433875, "lon": 21.5851696, "tags": {"amenity": "cafe", "internet_access": "wlan", "name": "Tropicana", "outdoor_seating": "yes"}}, {"type": "node", "id": 5228659421, "lat": 42.9971925, "lon": 21.9441749, "tags": {"amenity": "cafe", "internet_access": "wlan"}}, {"type": "node", "id": 5880354614, "lat": 43.0758642, "lon": 21.6487658}, {"type": "node", "id": 5880354615, "lat": 43.0758985, "lon": 21.6488919}, {"type": "node", "id": 5880354616, "lat": 43.0757947, "lon": 21.6489348}, {"type": "node", "id": 5880354617, "lat": 43.0757594, "lon": 21.6488154}, {"type": "node", "id": 6383823128, "lat": 42.9903001, "lon": 21.9294034, "tags": {"amenity": "restaurant", "name": "Dale 11"}}, {"type": "node", "id": 7111901786, "lat": 42.9952705, "lon": 21.9480903, "tags": {"amenity": "cafe", "name:en": "San Marko"}}, {"type": "node", "id": 8165163193, "lat": 42.965281, "lon": 22.1276014}, {"type": "node", "id": 8165163194, "lat": 42.9652214, "lon": 22.1277514}, {"type": "node", "id": 8165167827, "lat": 42.9651144, "lon": 22.127672}, {"type": "node", "id": 8165167828, "lat": 42.965174, "lon": 22.1275221}, {"type": "node", "id": 8165399152, "lat": 42.9651837, "lon": 22.1296119}, {"type": "node", "id": 8165399153, "lat": 42.9650512, "lon": 22.1295984}, {"type": "node", "id": 8165399155, "lat": 42.9649678, "lon": 22.1296816}, {"type": "node", "id": 8165399156, "lat": 42.9649982, "lon": 22.1297567}, {"type": "node", "id": 8165399157, "lat": 42.9650885, "lon": 22.1296695}, {"type": "node", "id": 8165399158, "lat": 42.9650875, "lon": 22.1297258}, {"type": "node", "id": 8165399159, "lat": 42.9651818, "lon": 22.1297419}, {"type": "node", "id": 8165399164, "lat": 42.9650302, "lon": 22.1296194}, {"type": "node", "id": 8167694635, "lat": 42.9635779, "lon": 22.1258583, "tags": {"amenity": "restaurant", "name": "La Culture"}}, {"type": "node", "id": 8167801915, "lat": 42.9634963, "lon": 22.1261411, "tags": {"amenity": "cafe", "int_name": "poslasticara Kocic", "name": "\u043f\u043e\u0441\u043b\u0430\u0441\u0442\u0438\u0447\u0430\u0440\u0430 \u041a\u043e\u0446\u0438\u045b"}}, {"type": "node", "id": 8168558697, "lat": 42.9623415, "lon": 22.1328236}, {"type": "node", "id": 8168558698, "lat": 42.9622812, "lon": 22.1328646}, {"type": "node", "id": 8168558699, "lat": 42.9622736, "lon": 22.1328437}, {"type": "node", "id": 8168558700, "lat": 42.9621864, "lon": 22.1329029}, {"type": "node", "id": 8168558701, "lat": 42.9622489, "lon": 22.1330747}, {"type": "node", "id": 8168558702, "lat": 42.9623299, "lon": 22.1330196}, {"type": "node", "id": 8168558703, "lat": 42.9623127, "lon": 22.1329721}, {"type": "node", "id": 8168558704, "lat": 42.9623791, "lon": 22.1329269}, {"type": "node", "id": 8930509666, "lat": 42.989046, "lon": 21.9670015, "tags": {"amenity": "restaurant", "int_name": "Koliba", "name": "\u041a\u043e\u043b\u0438\u0431\u0430", "name:sr": "\u041a\u043e\u043b\u0438\u0431\u0430", "name:sr-Latn": "Koliba"}}, {"type": "node", "id": 9864033302, "lat": 42.9170972, "lon": 21.7363674}, {"type": "node", "id": 9864033303, "lat": 42.9171421, "lon": 21.7364682}, {"type": "node", "id": 9864033304, "lat": 42.9171284, "lon": 21.7365079}, {"type": "node", "id": 9864033305, "lat": 42.9170369, "lon": 21.7365838}, {"type": "node", "id": 9864033306, "lat": 42.9169984, "lon": 21.7364973}, {"type": "node", "id": 9864033307, "lat": 42.9170317, "lon": 21.7364697}, {"type": "node", "id": 9864033308, "lat": 42.9170161, "lon": 21.7364347}, {"type": "node", "id": 9864033322, "lat": 42.9182692, "lon": 21.7374603}, {"type": "node", "id": 9864033323, "lat": 42.9182079, "lon": 21.737592}, {"type": "node", "id": 9864033325, "lat": 42.9180951, "lon": 21.7374941}, {"type": "node", "id": 9864033326, "lat": 42.9181564, "lon": 21.7373624}, {"type": "node", "id": 9864033346, "lat": 42.9188066, "lon": 21.7377062}, {"type": "node", "id": 9864033347, "lat": 42.9187332, "lon": 21.7379182}, {"type": "node", "id": 9864033348, "lat": 42.9188004, "lon": 21.7379616}, {"type": "node", "id": 9864033349, "lat": 42.9187567, "lon": 21.7380876}, {"type": "node", "id": 9864033350, "lat": 42.918592, "lon": 21.7379812}, {"type": "node", "id": 9864033353, "lat": 42.9187091, "lon": 21.7376432}, {"type": "node", "id": 9864033358, "lat": 42.9183932, "lon": 21.7381202}, {"type": "node", "id": 9864033359, "lat": 42.9183486, "lon": 21.7380897}, {"type": "node", "id": 9864033360, "lat": 42.9183069, "lon": 21.7381924}, {"type": "node", "id": 9864033361, "lat": 42.9183523, "lon": 21.738229}, {"type": "node", "id": 9864033402, "lat": 42.9182993, "lon": 21.7358105}, {"type": "node", "id": 9864033403, "lat": 42.9181573, "lon": 21.7357195}, {"type": "node", "id": 9864033404, "lat": 42.9181283, "lon": 21.7358082}, {"type": "node", "id": 9864033405, "lat": 42.9182427, "lon": 21.7358749}, {"type": "node", "id": 9864033430, "lat": 42.9183378, "lon": 21.7380824}, {"type": "node", "id": 9864033431, "lat": 42.9182991, "lon": 21.7380529}, {"type": "node", "id": 9864033432, "lat": 42.918276, "lon": 21.7381169}, {"type": "node", "id": 9864033433, "lat": 42.918311, "lon": 21.7381525}, {"type": "node", "id": 9864033438, "lat": 42.917912, "lon": 21.7376828}, {"type": "node", "id": 9864033441, "lat": 42.9178919, "lon": 21.7377591}, {"type": "node", "id": 9864033443, "lat": 42.9179668, "lon": 21.7377358}, {"type": "node", "id": 9864033444, "lat": 42.9179357, "lon": 21.737803}, {"type": "node", "id": 9864033447, "lat": 42.9179154, "lon": 21.7377827}, {"type": "node", "id": 10029245797, "lat": 42.9969163, "lon": 21.9625862, "tags": {"amenity": "cafe", "name": "Viva cafe"}}, {"type": "node", "id": 10833443438, "lat": 42.8918748, "lon": 22.0717519}, {"type": "node", "id": 10833443439, "lat": 42.8919189, "lon": 22.0716664}, {"type": "node", "id": 10833443440, "lat": 42.8920043, "lon": 22.0717485}, {"type": "node", "id": 10833443441, "lat": 42.8919601, "lon": 22.071834}, {"type": "node", "id": 10833443460, "lat": 42.8920981, "lon": 22.0719482}, {"type": "node", "id": 10833443461, "lat": 42.8919962, "lon": 22.0718254}, {"type": "node", "id": 10833443462, "lat": 42.8920354, "lon": 22.0717649}, {"type": "node", "id": 10833443463, "lat": 42.8921373, "lon": 22.0718876}, {"type": "node", "id": 11159703243, "lat": 42.9948578, "lon": 21.943819, "tags": {"amenity": "restaurant", "name": "Bela laja"}}, {"type": "node", "id": 11563980950, "lat": 42.964983, "lon": 22.1297192, "tags": {"addr:housenumber": "16", "addr:street": "\u041d\u0435\u043c\u0430\u045a\u0438\u043d\u0430", "ref:RS:kucni_broj": "5915850"}}, {"type": "node", "id": 11563980969, "lat": 42.9651827, "lon": 22.1296769, "tags": {"addr:housenumber": "14v", "addr:street": "\u041d\u0435\u043c\u0430\u045a\u0438\u043d\u0430", "ref:RS:kucni_broj": "5916013"}}, {"type": "node", "id": 12438686517, "lat": 43.011331, "lon": 21.9272472, "tags": {"amenity": "restaurant", "name": "Zamak Jug Bogdan"}}, {"type": "node", "id": 12853898329, "lat": 43.002535, "lon": 21.9788389, "tags": {"amenity": "restaurant"}}, {"type": "node", "id": 12878708609, "lat": 42.9657751, "lon": 22.0888191, "tags": {"amenity": "cafe", "brand": "Fresh Corner", "brand:wikidata": "Q129256375", "cuisine": "coffee_shop", "name": "Fresh Corner", "takeaway": "yes"}}, {"type": "way", "id": 288274136, "nodes": [2918328883, 2918328884, 2918328885, 2918328886, 2918328883], "tags": {"addr:city": "Leskovac", "addr:postcode": "16000", "addr:street": "\u0421\u0432\u0435\u0442\u043e\u0437\u0430\u0440\u0430 \u041c\u0438\u043b\u0435\u0442\u0438\u045b\u0430", "amenity": "restaurant", "building": "yes", "cuisine": "regional;leskovac_cuisine;burger;salad;sopska_salata;muckalica", "diet:local": "yes", "diet:meat": "yes", "diet:non-vegetarian": "yes", "diet:vegetarian": "yes", "drink:alcohol": "yes", "drink:wine": "yes", "name": "Milisav Miodrag Radivojevic", "opening_hours": "Mo-Su 09:00-21:00"}}, {"type": "way", "id": 427015159, "nodes": [4262622556, 4262622557, 4262622558, 4262622561, 4262622562, 4262622556], "tags": {"addr:housenumber": "17", "addr:street": "\u041a\u043e\u0441\u0442\u0435 \u0421\u0442\u0430\u043c\u0435\u043d\u043a\u043e\u0432\u0438\u045b\u0430", "amenity": "cafe", "building": "commercial", "name": "Promenada Cafe & Restaurant", "ref:RS:kucni_broj": "6029933"}}, {"type": "way", "id": 427036128, "nodes": [4262814275, 4262814276, 4262814277, 4262814278, 4262814279, 4262814280, 4262814281, 4262814282, 4262814283, 4262814284, 4262814285, 4262814286, 4262814275], "tags": {"addr:housenumber": "42a", "addr:street": "\u0422\u0440\u0433 \u0440\u0435\u0432\u043e\u043b\u0443\u0446\u0438\u0458\u0435", "amenity": "cafe", "building": "yes", "int_name": "ABC", "name": "\u0410\u0411\u0426", "ref:RS:kucni_broj": "7333841"}}, {"type": "way", "id": 427036129, "nodes": [4262814286, 4262814287, 4262814288, 4262814285, 4262814286], "tags": {"addr:housenumber": "42", "addr:street": "\u0422\u0440\u0433 \u0440\u0435\u0432\u043e\u043b\u0443\u0446\u0438\u0458\u0435", "amenity": "cafe", "building": "yes", "name": "Garden Gastro Bar", "ref:RS:kucni_broj": "7332920"}}, {"type": "way", "id": 442684778, "nodes": [4403544436, 4403544435, 4403544433, 4403544431, 4403544436], "tags": {"addr:housenumber": "14", "addr:street": "\u0411\u043e\u0458\u0430\u043d\u0430 \u041f\u0430\u0432\u043b\u043e\u0432\u0438\u045b\u0430", "amenity": "cafe", "building": "commercial", "name": "Gazda Fic", "name:sr": "\u0413\u0430\u0437\u0434\u0430 \u0424\u0438\u0446", "name:sr-Latn": "Gazda Fic", "ref:RS:kucni_broj": "6066932"}}, {"type": "way", "id": 442685385, "nodes": [4403550662, 4403550723, 4403550676, 4403550695, 4403550708, 4403550704, 4403550700, 4403550736, 4403550662], "tags": {"addr:housenumber": "17", "addr:street": "\u041c\u0430\u0440\u0448\u0430\u043b\u0430 \u0422\u0438\u0442\u0430", "amenity": "restaurant", "building": "yes", "name": "Hotel \u201eBreza\u201d", "name:sr": "\u0425\u043e\u0442\u0435\u043b \u201e\u0411\u0440\u0435\u0437\u0430\u201d", "name:sr-Latn": "Hotel \u201eBreza\u201d", "ref:RS:kucni_broj": "6065379"}}, {"type": "way", "id": 622563236, "nodes": [5880354614, 5880354615, 5880354616, 5880354617, 5880354614], "tags": {"amenity": "restaurant", "building": "yes", "name": "Ha... Ha... Ajat"}}, {"type": "way", "id": 877578034, "nodes": [8165163194, 8165167827, 8165167828, 8165163193, 8165163194], "tags": {"addr:housenumber": "9", "addr:street": "\u0422\u0440\u0433 \u043e\u0441\u043b\u043e\u0431\u043e\u0452\u0435\u045a\u0430", "amenity": "restaurant", "building": "yes", "int_name": "Grom", "name": "\u0413\u0440\u043e\u043c", "ref:RS:kucni_broj": "5915429"}}, {"type": "way", "id": 877609089, "nodes": [8165399153, 8165399164, 8165399155, 11563980950, 8165399156, 8165399157, 8165399158, 8165399159, 11563980969, 8165399152, 8165399153], "tags": {"amenity": "restaurant", "building": "yes", "int_name": "Kafana Carsija", "name": "\u041a\u0430\u0444\u0430\u043d\u0430 \u0427\u0430\u0440\u0448\u0438\u0458\u0430"}}, {"type": "way", "id": 877968541, "nodes": [8168558697, 8168558698, 8168558699, 8168558700, 8168558701, 8168558702, 8168558703, 8168558704, 8168558697], "tags": {"addr:housenumber": "75", "addr:street": "\u040a\u0435\u0433\u043e\u0448\u0435\u0432\u0430", "amenity": "restaurant", "building": "yes", "name": "Vru\u0107 Vetar", "ref:RS:kucni_broj": "5914389"}}, {"type": "way", "id": 1075542930, "nodes": [9864033302, 9864033303, 9864033304, 9864033305, 9864033306, 9864033307, 9864033308, 9864033302], "tags": {"addr:housenumber": "95", "addr:street": "\u0426\u0430\u0440\u0430 \u0414\u0443\u0448\u0430\u043d\u0430", "amenity": "restaurant", "building": "yes", "name": "Kr\u010dma kod Marka", "ref:RS:kucni_broj": "5890391"}}, {"type": "way", "id": 1075542933, "nodes": [9864033322, 9864033323, 9864033325, 9864033326, 9864033322], "tags": {"addr:housenumber": "110", "addr:street": "\u0426\u0430\u0440\u0430 \u0414\u0443\u0448\u0430\u043d\u0430", "amenity": "cafe", "building": "yes", "name": "Caffe Tron", "ref:RS:kucni_broj": "5890230"}}, {"type": "way", "id": 1075542936, "nodes": [9864033346, 9864033347, 9864033348, 9864033349, 9864033350, 9864033353, 9864033346], "tags": {"addr:housenumber": "94a", "addr:street": "\u0426\u0430\u0440\u0430 \u0414\u0443\u0448\u0430\u043d\u0430", "amenity": "restaurant", "building": "yes", "name": "Justinijana-Cari\u010din Grad 016", "ref:RS:kucni_broj": "5891591"}}, {"type": "way", "id": 1075542938, "nodes": [9864033358, 9864033359, 9864033360, 9864033361, 9864033358], "tags": {"addr:housenumber": "59", "addr:street": "\u0426\u0430\u0440\u0430 \u0414\u0443\u0448\u0430\u043d\u0430", "amenity": "cafe", "building": "yes", "name": "FROG Caffe", "ref:RS:kucni_broj": "5890370"}}, {"type": "way", "id": 1075542942, "nodes": [9864033402, 9864033403, 9864033404, 9864033405, 9864033402], "tags": {"addr:housenumber": "7", "addr:street": "19. \u0430\u0432\u0433\u0443\u0441\u0442\u0430", "amenity": "restaurant", "building": "yes", "name": "Kafana Pirat", "ref:RS:kucni_broj": "5890941"}}, {"type": "way", "id": 1075542948, "nodes": [9864033430, 9864033431, 9864033432, 9864033433, 9864033430], "tags": {"addr:housenumber": "61", "addr:street": "\u0426\u0430\u0440\u0430 \u0414\u0443\u0448\u0430\u043d\u0430", "amenity": "cafe", "building": "yes", "ref:RS:kucni_broj": "5890372"}}, {"type": "way", "id": 1075542951, "nodes": [9864033438, 9864033443, 9864033444, 9864033447, 9864033441, 9864033438], "tags": {"addr:housenumber": "67", "addr:street": "\u0426\u0430\u0440\u0430 \u0414\u0443\u0448\u0430\u043d\u0430", "amenity": "cafe", "building": "apartments", "name": "Caffe Hogar", "ref:RS:kucni_broj": "5890376"}}, {"type": "way", "id": 1164801113, "nodes": [10833443438, 10833443439, 10833443440, 10833443441, 10833443438], "tags": {"amenity": "restaurant", "building": "yes"}}, {"type": "way", "id": 1164801118, "nodes": [10833443460, 10833443461, 10833443462, 10833443463, 10833443460], "tags": {"addr:housenumber": "3", "addr:street": "\u0420\u0430\u0434\u043d\u0438\u0447\u043a\u0430", "amenity": "cafe", "building": "yes", "ref:RS:kucni_broj": "6008582"}}]}