{"version": 0.6, "generator": "Overpass API 0.7.62.7 375dc00a", "osm3s": {"timestamp_osm_base": "2025-06-14T15:36:29Z", "copyright": "The data included in this document is from www.openstreetmap.org. The data is made available under ODbL."}, "elements": [{"type": "node", "id": 498844064, "lat": 21.5650345, "lon": 39.1427019, "tags": {"addr:city": "jeddah", "addr:street": "\u0634\u0627\u0631\u0639 \u0627\u0644\u0627\u0645\u064a\u0631 \u0633\u0644\u0637\u0627\u0646", "amenity": "cafe", "atm": "yes", "cuisine": "cafe;coffee_shop;sandwich;international", "internet_access": "yes", "internet_access:fee": "no", "name": "\u062c\u0631\u0627\u0628\u064a\u0631\u064a", "name:ar": "\u062c\u0631\u0627\u0628\u064a\u0631\u064a", "name:en": "Grabery", "operator": "Samba"}}, {"type": "node", "id": 567302684, "lat": 21.6096686, "lon": 39.1417844, "tags": {"addr:city": "\u062c\u062f\u0629", "amenity": "restaurant", "cuisine": "fish", "name": "\u062c\u062f\u0629 \u062c\u062f\u0629", "name:ar": "\u062c\u062f\u0629 \u062c\u062f\u0629", "name:de": "Dschidda Dschidda", "name:en": "Jidda Jidda", "name:es": "Yida Yida", "name:fr": "Djidda Djidda"}}, {"type": "node", "id": 571494413, "lat": 21.6097717, "lon": 39.141739, "tags": {"amenity": "restaurant", "cuisine": "thai", "jpoi_id": "100050", "name": "Thai Thai"}}, {"type": "node", "id": 673346129, "lat": 21.5881688, "lon": 39.1057078, "tags": {"amenity": "restaurant", "cuisine": "seafood", "jpoi_id": "100042", "name": "Al Wada'a"}}, {"type": "node", "id": 673346134, "lat": 21.708482, "lon": 39.1024248, "tags": {"amenity": "cafe", "name": "Mocaccino", "opening_hours": "24/7"}}, {"type": "node", "id": 673346135, "lat": 21.7077244, "lon": 39.1020064, "tags": {"amenity": "restaurant"}}, {"type": "node", "id": 673346137, "lat": 21.6252806, "lon": 39.104356, "tags": {"amenity": "cafe", "name": "The Sail"}}, {"type": "node", "id": 673346140, "lat": 21.5738971, "lon": 39.1105465, "tags": {"air_conditioning": "yes", "amenity": "cafe", "brand": "Starbucks", "brand:wikidata": "Q37158", "brand:wikipedia": "en:Starbucks", "cuisine": "coffee_shop", "internet_access": "wlan", "internet_access:fee": "no", "name": "Starbucks", "official_name": "Starbucks Coffee", "opening_hours": "Mo-Su 06:30-00:30", "outdoor_seating": "no", "payment:cash": "yes", "payment:debit_cards": "yes", "phone": "+966122617049", "takeaway": "yes", "website": "https://locations.starbucks.sa"}}, {"type": "node", "id": 673346146, "lat": 21.6151969, "lon": 39.108154, "tags": {"amenity": "cafe", "name": "Costa Cafe"}}, {"type": "node", "id": 673346147, "lat": 21.6150473, "lon": 39.108154, "tags": {"amenity": "cafe", "name": "Teayana"}}, {"type": "node", "id": 673346148, "lat": 21.6155959, "lon": 39.1080253, "tags": {"air_conditioning": "yes", "amenity": "cafe", "brand": "\u0633\u062a\u0627\u0631\u0628\u0643\u0633", "brand:ar": "\u0633\u062a\u0627\u0631\u0628\u0643\u0633", "brand:en": "Starbucks", "brand:wikidata": "Q37158", "brand:wikipedia": "en:Starbucks", "cuisine": "coffee_shop", "internet_access": "wlan", "internet_access:fee": "no", "name": "\u0633\u062a\u0627\u0631\u0628\u0643\u0633", "name:ar": "\u0633\u062a\u0627\u0631\u0628\u0643\u0633", "name:en": "Starbucks", "official_name": "\u0633\u062a\u0627\u0631\u0628\u0643\u0633 \u0643\u0627\u0641\u064a\u0629", "official_name:ar": "\u0633\u062a\u0627\u0631\u0628\u0643\u0633 \u0643\u0627\u0641\u064a\u0629", "official_name:en": "Starbucks Coffee", "opening_hours": "24/7", "outdoor_seating": "yes", "payment:cash": "yes", "payment:debit_cards": "yes", "phone": "+966122617062", "takeaway": "yes", "website": "https://locations.starbucks.sa"}}, {"type": "node", "id": 673346164, "lat": 21.5761479, "lon": 39.1471079, "tags": {"amenity": "restaurant", "name": "Saadiddin Restaurant"}}, {"type": "node", "id": 673354210, "lat": 21.5749298, "lon": 39.1273211, "tags": {"amenity": "restaurant", "name": "Steak House"}}, {"type": "node", "id": 673355920, "lat": 21.5764538, "lon": 39.1481322, "tags": {"amenity": "cafe", "name": "Motyara Cafe"}}, {"type": "node", "id": 673357491, "lat": 21.5870393, "lon": 39.157807, "tags": {"amenity": "restaurant", "name": "\u0627\u0644\u0637\u0627\u0632\u062c"}}, {"type": "node", "id": 673365603, "lat": 21.5588357, "lon": 39.1705046, "tags": {"amenity": "cafe", "name": "Sarawat International", "name:ar": "Sarawat International", "name:en": "Sarawat International"}}, {"type": "node", "id": 673371115, "lat": 21.5592205, "lon": 39.1148409, "tags": {"amenity": "restaurant", "name": "\u0627\u0644\u0628\u064a\u0643", "opening_hours": "Sa-Th 11:00-02:00, Fr 13:00-02:00"}}, {"type": "node", "id": 673371120, "lat": 21.5509627, "lon": 39.1555379, "tags": {"amenity": "restaurant", "name": "Al Tazaj"}}, {"type": "node", "id": 673371122, "lat": 21.551435, "lon": 39.1561995, "tags": {"amenity": "cafe"}}, {"type": "node", "id": 673372016, "lat": 21.5541958, "lon": 39.1694103, "tags": {"amenity": "restaurant", "name": "Steak House"}}, {"type": "node", "id": 1499855960, "lat": 21.6066144, "lon": 39.1412026, "tags": {"air_conditioning": "yes", "amenity": "cafe", "brand": "\u0633\u062a\u0627\u0631\u0628\u0643\u0633", "brand:ar": "\u0633\u062a\u0627\u0631\u0628\u0643\u0633", "brand:en": "Starbucks", "brand:wikidata": "Q37158", "brand:wikipedia": "en:Starbucks", "cuisine": "coffee_shop", "internet_access": "wlan", "jpoi_id": "100520", "name": "\u0633\u062a\u0627\u0631\u0628\u0643\u0633", "name:ar": "\u0633\u062a\u0627\u0631\u0628\u0643\u0633", "name:en": "Starbucks", "official_name": "\u0633\u062a\u0627\u0631\u0628\u0643\u0633 \u0643\u0627\u0641\u064a\u0629", "official_name:ar": "\u0633\u062a\u0627\u0631\u0628\u0643\u0633 \u0643\u0627\u0641\u064a\u0629", "official_name:en": "Starbucks Coffee", "opening_hours": "Mo-Su 06:30-00:30", "payment:cash": "yes", "payment:debit_cards": "yes", "phone": "+966126921935", "takeaway": "yes", "website": "https://locations.starbucks.sa/"}}, {"type": "node", "id": 1692600389, "lat": 21.6061849, "lon": 39.1216524, "tags": {"addr:street": "Hera'a Street", "amenity": "restaurant", "name:zh": "\u9644\u8fd1\u82b1\u5349\u5e02\u573a"}}, {"type": "node", "id": 1997420989, "lat": 21.6522453, "lon": 39.1260439, "tags": {"amenity": "cafe", "name": "alforn"}}, {"type": "node", "id": 1997420996, "lat": 21.6230147, "lon": 39.1367355, "tags": {"amenity": "restaurant", "cuisine": "american", "name": "uno"}}, {"type": "node", "id": 1997435658, "lat": 21.6291337, "lon": 39.1343239, "tags": {"amenity": "cafe", "name": "Krispy Kreme"}}, {"type": "node", "id": 1997440272, "lat": 21.6315972, "lon": 39.1333664, "tags": {"amenity": "restaurant", "cuisine": "american", "name": "friday's"}}, {"type": "node", "id": 1997459299, "lat": 21.6221672, "lon": 39.1370571, "tags": {"amenity": "cafe", "name": "black moon"}}, {"type": "node", "id": 1997459301, "lat": 21.6220674, "lon": 39.1371, "tags": {"amenity": "cafe", "name": "tech tech"}}, {"type": "node", "id": 2200265341, "lat": 21.5547309, "lon": 39.2041144, "tags": {"amenity": "restaurant", "cuisine": "asian", "name": "Zehra Resturant"}}, {"type": "node", "id": 2200265754, "lat": 21.5543367, "lon": 39.2044094, "tags": {"amenity": "restaurant", "cuisine": "asian", "name": "Mehran Resturant"}}, {"type": "node", "id": 2200272557, "lat": 21.5537231, "lon": 39.2060509, "tags": {"amenity": "restaurant"}}, {"type": "node", "id": 2809710770, "lat": 21.5643739, "lon": 39.1116299, "tags": {"amenity": "restaurant", "jpoi_id": "100038", "name": "Al Nakheel", "name:en": "The Palm Garden"}}, {"type": "node", "id": 2891519479, "lat": 21.5597534, "lon": 39.1351675, "tags": {"amenity": "cafe", "cuisine": "coffee_shop", "internet_access": "yes", "name": "Coffee Bean & Tea Leaf", "smoking": "outside"}}, {"type": "node", "id": 2891524768, "lat": 21.5594951, "lon": 39.1356622, "tags": {"air_conditioning": "yes", "amenity": "cafe", "brand": "\u0633\u062a\u0627\u0631\u0628\u0643\u0633", "brand:ar": "\u0633\u062a\u0627\u0631\u0628\u0643\u0633", "brand:en": "Starbucks", "brand:wikidata": "Q37158", "brand:wikipedia": "en:Starbucks", "cuisine": "coffee_shop", "internet_access": "wlan", "internet_access:fee": "no", "name": "\u0633\u062a\u0627\u0631\u0628\u0643\u0633", "name:ar": "\u0633\u062a\u0627\u0631\u0628\u0643\u0633", "name:en": "Starbucks", "official_name": "\u0633\u062a\u0627\u0631\u0628\u0643\u0633 \u0643\u0627\u0641\u064a\u0629", "official_name:ar": "\u0633\u062a\u0627\u0631\u0628\u0643\u0633 \u0643\u0627\u0641\u064a\u0629", "official_name:en": "Starbucks Coffee", "opening_hours": "Mo-Su 06:30-00:30", "outdoor_seating": "yes", "payment:cash": "yes", "payment:debit_cards": "yes", "phone": "+966122617058", "takeaway": "yes", "website": "https://locations.starbucks.sa"}}, {"type": "node", "id": 2891535178, "lat": 21.5598608, "lon": 39.1532133, "tags": {"amenity": "cafe", "cuisine": "coffee_shop", "name": "Coffee Bean & Tea Leaf"}}, {"type": "node", "id": 2891537855, "lat": 21.5752764, "lon": 39.1463388, "tags": {"amenity": "cafe", "cuisine": "coffee_shop", "name": "Starbucks"}}, {"type": "node", "id": 2891541461, "lat": 21.5586372, "lon": 39.1527769, "tags": {"amenity": "restaurant", "cuisine": "sushi", "name": "Sushi Yoshi"}}, {"type": "node", "id": 2891542214, "lat": 21.558619, "lon": 39.1534087, "tags": {"amenity": "restaurant", "cuisine": "pizza", "name": "Pizza Fusion"}}, {"type": "node", "id": 2891547366, "lat": 21.559675, "lon": 39.1350267, "tags": {"amenity": "restaurant", "cuisine": "burger", "name": "Joe's Burger"}}, {"type": "node", "id": 2891548482, "lat": 21.5597308, "lon": 39.134645, "tags": {"amenity": "restaurant", "cuisine": "chicken", "name": "Kudu"}}, {"type": "node", "id": 2891559133, "lat": 21.5482917, "lon": 39.1438206, "tags": {"amenity": "restaurant", "brand": "Outback Steakhouse", "brand:wikidata": "Q1064893", "cuisine": "american;steak", "name": "Outback Steakhouse"}}, {"type": "node", "id": 2891717594, "lat": 21.5588083, "lon": 39.1391859, "tags": {"amenity": "restaurant", "brand": "Subway", "brand:wikidata": "Q244457", "brand:wikipedia": "en:Subway (restaurant)", "cuisine": "sandwich", "name": "Subway", "takeaway": "yes"}}, {"type": "node", "id": 2891844804, "lat": 21.6131472, "lon": 39.1400257, "tags": {"amenity": "restaurant", "brand": "Applebee's", "brand:wikidata": "Q621532", "cuisine": "american", "name": "Applebee's"}}, {"type": "node", "id": 2891850697, "lat": 21.5593107, "lon": 39.1391259, "tags": {"amenity": "restaurant", "cuisine": "indian", "name": "Taj Mahal"}}, {"type": "node", "id": 2891857663, "lat": 21.5587905, "lon": 39.1397261, "tags": {"amenity": "restaurant", "cuisine": "chicken", "name": "Wing Zone"}}, {"type": "node", "id": 2891860821, "lat": 21.559253, "lon": 39.1411569, "tags": {"amenity": "restaurant", "cuisine": "italian", "name": "Panino's"}}, {"type": "node", "id": 2891886418, "lat": 21.6657796, "lon": 39.1098694, "tags": {"amenity": "restaurant", "cuisine": "american", "name": "Fuddrucker's"}}, {"type": "node", "id": 2891916639, "lat": 21.5591652, "lon": 39.143484, "tags": {"amenity": "restaurant", "cuisine": "kebab", "name": "Vitamin Lebanese Restaurant"}}, {"type": "node", "id": 2891917290, "lat": 21.5592908, "lon": 39.1533563, "tags": {"amenity": "cafe"}}, {"type": "node", "id": 3054018286, "lat": 21.559323, "lon": 39.1422321, "tags": {"amenity": "restaurant", "capacity": "50", "cuisine": "middle_eastern", "jpoi_id": "101121", "name": "Aseil"}}, {"type": "node", "id": 3054019918, "lat": 21.5535098, "lon": 39.1676897, "tags": {"amenity": "restaurant", "capacity": "50", "cuisine": "barbecue;steak_house", "jpoi_id": "100516", "name": "Texas Roadhouse", "name:en": "Texas Roadhouse"}}, {"type": "node", "id": 3065613326, "lat": 21.9399501, "lon": 38.9545438, "tags": {"amenity": "restaurant"}}, {"type": "node", "id": 3065619365, "lat": 21.9394226, "lon": 38.9546377, "tags": {"amenity": "restaurant", "name": "Durrah beach Resort Jeddah"}}, {"type": "node", "id": 3100051123, "lat": 21.6101409, "lon": 39.1390952, "tags": {"amenity": "cafe", "name": "Hera Internet Cafe"}}, {"type": "node", "id": 3124184790, "lat": 21.5923312, "lon": 39.156519, "tags": {"amenity": "restaurant", "cuisine": "arabic;shawarma", "name": "\u0645\u0637\u0627\u0639\u0645 \u0627\u0644\u0628\u0631\u062c \u0627\u0644\u0645\u0645\u064a\u0632\u0629", "opening_hours": "17:00-02:00", "smoking": "no"}}, {"type": "node", "id": 3253018329, "lat": 21.5731975, "lon": 39.1584622, "tags": {"amenity": "restaurant", "name": "\u0645\u0639\u0635\u0648\u0628 \u0627\u0644\u0642\u0627\u062f\u0631\u064a"}}, {"type": "node", "id": 3278289748, "lat": 21.580635, "lon": 39.1615015, "tags": {"amenity": "restaurant", "jpoi_id": "101560", "name": "Asia restaurant", "phone": "+966 12 6828525"}}, {"type": "node", "id": 3278327093, "lat": 21.573008, "lon": 39.1273857, "tags": {"amenity": "restaurant", "cuisine": "lebanese", "jpoi_id": "100507", "name": "Goodies"}}, {"type": "node", "id": 3301858005, "lat": 21.5536282, "lon": 39.1678144, "tags": {"amenity": "restaurant", "brand": "IHOP", "brand:wikidata": "Q1185675", "brand:wikipedia": "en:IHOP", "cuisine": "breakfast;pancake", "name": "IHOP", "name:en": "IHOP"}}, {"type": "node", "id": 3301858007, "lat": 21.5534746, "lon": 39.1675043, "tags": {"amenity": "restaurant", "cuisine": "chinese", "name": "P F Chang's China Bistro", "name:en": "P F Chang's China Bistro"}}, {"type": "node", "id": 3301858008, "lat": 21.5534117, "lon": 39.1673703, "tags": {"amenity": "restaurant", "brand": "PizzaExpress", "brand:wikidata": "Q662845", "brand:wikipedia": "en:PizzaExpress", "cuisine": "pizza", "name": "PizzaExpress", "name:en": "Pizza Express"}}, {"type": "node", "id": 3301858009, "lat": 21.5541625, "lon": 39.1692972, "tags": {"amenity": "restaurant", "cuisine": "burger", "name": "Shake Shack", "name:en": "Shake Shack"}}, {"type": "node", "id": 3301858010, "lat": 21.5533677, "lon": 39.1671595, "tags": {"amenity": "restaurant", "name": "The Cheesecake Factory", "name:en": "The Cheesecake Factory"}}, {"type": "node", "id": 3371302100, "lat": 21.5730416, "lon": 39.1276605, "tags": {"amenity": "restaurant", "cuisine": "italian", "name": "Olio"}}, {"type": "node", "id": 3470739293, "lat": 21.7700069, "lon": 39.133984, "tags": {"amenity": "restaurant", "capacity": "30", "cuisine": "sushi", "family_seating": "yes", "jpoi_id": "100515", "name": "Sushi Yoshi"}}, {"type": "node", "id": 3494301494, "lat": 21.5528024, "lon": 39.2088608, "tags": {"amenity": "restaurant", "cuisine": "indian", "name": "Chennai Darbar"}}, {"type": "node", "id": 3494301529, "lat": 21.5521146, "lon": 39.2029372, "tags": {"amenity": "restaurant", "cuisine": "indian", "name": "Bar.B.Q. Tonight", "phone": "+966126769885;+966126769886", "website": "https://www.facebook.com/BARBQTONIGHTJEDDAH"}}, {"type": "node", "id": 3494301530, "lat": 21.5547126, "lon": 39.2113942, "tags": {"amenity": "restaurant", "cuisine": "indian", "name": "Royal Plaza", "phone": "+966126709205"}}, {"type": "node", "id": 3632963864, "lat": 21.6092985, "lon": 39.1332713, "tags": {"amenity": "restaurant", "cuisine": "yemeni", "jpoi_id": "101119", "name": "Al Seddah"}}, {"type": "node", "id": 3632994896, "lat": 21.6270091, "lon": 39.1116324, "tags": {"amenity": "restaurant", "cuisine": "egyptian", "jpoi_id": "100019", "name": "Al Dawar"}}, {"type": "node", "id": 3632995629, "lat": 21.609459, "lon": 39.1304878, "tags": {"amenity": "restaurant", "jpoi_id": "100020", "name": "Al Fairwz"}}, {"type": "node", "id": 3632999699, "lat": 21.6467484, "lon": 39.1310317, "tags": {"amenity": "restaurant", "brand": "Applebee's", "brand:wikidata": "Q621532", "cuisine": "american", "jpoi_id": "100021", "name": "Applebee's"}}, {"type": "node", "id": 3633003769, "lat": 21.7179366, "lon": 39.1039789, "tags": {"amenity": "restaurant", "cuisine": "fish", "diet:fish": "yes", "jpoi_id": "100029", "name": "\u0645\u0637\u0639\u0645 \u0627\u0644\u0633\u0642\u0627\u0644\u0629", "opening_hours": "Mo-Su 12:00-01:00"}}, {"type": "node", "id": 3633006681, "lat": 21.5502141, "lon": 39.1629385, "tags": {"amenity": "restaurant", "cuisine": "lebanese", "jpoi_id": "100032", "name": "Goodies"}}, {"type": "node", "id": 3633007212, "lat": 21.5436698, "lon": 39.1728297, "tags": {"amenity": "restaurant", "jpoi_id": "100037", "name": "Mayrig"}}, {"type": "node", "id": 3633010228, "lat": 21.575162, "lon": 39.1272995, "tags": {"amenity": "restaurant", "cuisine": "italian", "jpoi_id": "100039", "name": "Piatto"}}, {"type": "node", "id": 3633011195, "lat": 21.5791856, "lon": 39.1992008, "tags": {"amenity": "restaurant", "cuisine": "yemeni", "jpoi_id": "100040", "name": "Sahareej Aden"}}, {"type": "node", "id": 3633012903, "lat": 21.5540517, "lon": 39.2102231, "tags": {"addr:street": "\u0627\u0644\u0645\u0624\u0644\u0641\u064a\u0646", "amenity": "restaurant", "cuisine": "indian", "jpoi_id": "100045", "name": "Shada", "name:en": "Shadab Hotel"}}, {"type": "node", "id": 3633017521, "lat": 21.5598064, "lon": 39.1530824, "tags": {"amenity": "restaurant", "cuisine": "barbecue", "jpoi_id": "100054", "name": "Butcher Shop & Grill"}}, {"type": "node", "id": 3727736430, "lat": 21.6094755, "lon": 39.1409966, "tags": {"amenity": "restaurant", "cuisine": "turki", "delivery": "yes", "name": "\u0645\u0637\u0639\u0645 \u062e\u064a\u0627\u0644", "name:ar": "\u0645\u0637\u0639\u0645 \u062e\u064a\u0627\u0644", "takeaway": "yes"}}, {"type": "node", "id": 3731700266, "lat": 21.6083745, "lon": 39.129062, "tags": {"amenity": "restaurant", "cuisine": "asian", "jpoi_id": "101511", "name": "Yummy yummy"}}, {"type": "node", "id": 3794547257, "lat": 21.615271, "lon": 39.108149, "tags": {"amenity": "restaurant", "cuisine": "sushi", "internet_access": "wlan", "name": "Sushi Yoshi", "outdoor_seating": "no", "smoking": "no"}}, {"type": "node", "id": 3924958885, "lat": 21.6278959, "lon": 39.1110271, "tags": {"amenity": "cafe", "brand": "Starbucks", "brand:wikidata": "Q37158", "brand:wikipedia": "en:Starbucks", "cuisine": "coffee_shop", "internet_access": "wlan", "internet_access:fee": "no", "name": "Starbucks", "official_name": "Starbucks Coffee", "opening_hours": "Mo-Su 08:00-23:30", "payment:cash": "yes", "payment:debit_cards": "yes", "phone": "+966122617019", "takeaway": "yes", "website": "https://locations.starbucks.sa"}}, {"type": "node", "id": 4069486099, "lat": 21.7056678, "lon": 39.1137953}, {"type": "node", "id": 4069486102, "lat": 21.7057093, "lon": 39.1143598}, {"type": "node", "id": 4069486103, "lat": 21.7055509, "lon": 39.1138683}, {"type": "node", "id": 4069486104, "lat": 21.7058532, "lon": 39.1142867}, {"type": "node", "id": 4108419123, "lat": 21.6161593, "lon": 39.1657315, "tags": {"amenity": "restaurant", "cuisine": "chicken", "name": "\u0627\u0644\u0628\u064a\u0643"}}, {"type": "node", "id": 4108718071, "lat": 21.5345716, "lon": 39.2084104}, {"type": "node", "id": 4108718072, "lat": 21.5345147, "lon": 39.2084228}, {"type": "node", "id": 4108718073, "lat": 21.5345178, "lon": 39.2084391}, {"type": "node", "id": 4108718074, "lat": 21.5344707, "lon": 39.2084494}, {"type": "node", "id": 4108718075, "lat": 21.5345242, "lon": 39.208733}, {"type": "node", "id": 4108718076, "lat": 21.5346148, "lon": 39.2087133}, {"type": "node", "id": 4108718077, "lat": 21.5345702, "lon": 39.2084768}, {"type": "node", "id": 4108718078, "lat": 21.5345836, "lon": 39.2084739}, {"type": "node", "id": 4110912155, "lat": 21.5770016, "lon": 39.1974476, "tags": {"amenity": "restaurant", "cuisine": "regional", "name": "Kudu"}}, {"type": "node", "id": 4110912161, "lat": 21.6211817, "lon": 39.1947914, "tags": {"amenity": "restaurant", "cuisine": "regional", "name": "Kudu"}}, {"type": "node", "id": 4110912163, "lat": 21.6664279, "lon": 39.1098748, "tags": {"amenity": "restaurant", "cuisine": "regional", "name": "Kudu"}}, {"type": "node", "id": 4110912164, "lat": 21.6134506, "lon": 39.1548744, "tags": {"amenity": "restaurant", "cuisine": "regional", "name": "Kudu"}}, {"type": "node", "id": 4110912165, "lat": 21.6085706, "lon": 39.1297135, "tags": {"amenity": "restaurant", "cuisine": "regional", "name": "Kudu"}}, {"type": "node", "id": 4110988879, "lat": 21.6274381, "lon": 39.112042, "tags": {"amenity": "restaurant", "cuisine": "regional", "name": "Kudu"}}, {"type": "node", "id": 4111112570, "lat": 21.5592551, "lon": 39.1155403, "tags": {"amenity": "restaurant", "cuisine": "regional", "name": "Kudu"}}, {"type": "node", "id": 4125345318, "lat": 21.5572497, "lon": 39.1705652, "tags": {"amenity": "restaurant", "name": "Felda D'Saji Malaysian Restaurant"}}, {"type": "node", "id": 4125359090, "lat": 21.5566055, "lon": 39.1691506, "tags": {"amenity": "restaurant", "cuisine": "chinese", "name": "Golden Palace Chinese Restaurant"}}, {"type": "node", "id": 4126970175, "lat": 21.5942609, "lon": 39.1876646}, {"type": "node", "id": 4126970176, "lat": 21.5941664, "lon": 39.1876951}, {"type": "node", "id": 4126970177, "lat": 21.5940889, "lon": 39.1874511}, {"type": "node", "id": 4126970178, "lat": 21.594191, "lon": 39.1874166}, {"type": "node", "id": 4126971390, "lat": 21.5749483, "lon": 39.2201203}, {"type": "node", "id": 4126971391, "lat": 21.5746694, "lon": 39.2201853}, {"type": "node", "id": 4126971392, "lat": 21.5749114, "lon": 39.2198712}, {"type": "node", "id": 4126971393, "lat": 21.5746184, "lon": 39.2199404}, {"type": "node", "id": 4127400719, "lat": 21.5941402, "lon": 39.1866541}, {"type": "node", "id": 4127400720, "lat": 21.5941975, "lon": 39.1868446}, {"type": "node", "id": 4127400721, "lat": 21.5939556, "lon": 39.1869411}, {"type": "node", "id": 4127400722, "lat": 21.5938908, "lon": 39.18674}, {"type": "node", "id": 4131242623, "lat": 21.5941818, "lon": 39.1870744}, {"type": "node", "id": 4131242624, "lat": 21.5940199, "lon": 39.1871283}, {"type": "node", "id": 4131242625, "lat": 21.5939913, "lon": 39.1870251}, {"type": "node", "id": 4131242626, "lat": 21.5941445, "lon": 39.1869681}, {"type": "node", "id": 4147600123, "lat": 21.6324774, "lon": 39.2088892, "tags": {"amenity": "restaurant", "name": "Shawermatac"}}, {"type": "node", "id": 4154004256, "lat": 21.6076558, "lon": 39.1396535, "tags": {"amenity": "restaurant", "cuisine": "chinese", "email": "tanglin@dragonmartksa.com", "name": "China Villa", "operator": "Chinese Competitive Spirit Co. Ltd.", "phone": "+966535593951;+966112419099;+966544719777"}}, {"type": "node", "id": 4202683194, "lat": 21.6184102, "lon": 39.1803313, "tags": {"amenity": "restaurant", "name": "\u0627\u0644\u0628\u064a\u0643"}}, {"type": "node", "id": 4235017789, "lat": 21.7087895, "lon": 39.1030025, "tags": {"addr:street": "\u0637\u0631\u064a\u0642 \u0627\u0644\u0643\u0648\u0631\u0646\u064a\u0634 \u0627\u0644\u0634\u0645\u0627\u0644\u064a", "amenity": "restaurant", "cuisine": "arab", "name": "Abu zaid"}}, {"type": "node", "id": 4237707089, "lat": 21.6860378, "lon": 39.1075178, "tags": {"addr:street": "\u0637\u0631\u064a\u0642 \u0627\u0644\u0643\u0648\u0631\u0646\u064a\u0634 \u0627\u0644\u0634\u0645\u0627\u0644\u064a", "amenity": "restaurant", "cuisine": "arab", "email": "muhammedriswan786@gmail.com", "name": "murjan 2", "opening_hours": "Mo-Su 10:30-01:00", "phone": "0567638474", "website": "www.facebook.com/deewanrestaurant"}}, {"type": "node", "id": 4253034389, "lat": 21.5519605, "lon": 39.2169445, "tags": {"amenity": "restaurant", "name": "Nasar frnd house aziziya"}}, {"type": "node", "id": 4267070989, "lat": 21.597917, "lon": 39.1393069, "tags": {"amenity": "restaurant", "name": "Palm Beach \u0634\u0627\u0637\u0626 \u0627\u0644\u0646\u062e\u064a\u0644"}}, {"type": "node", "id": 4275543590, "lat": 21.5849329, "lon": 39.1592057, "tags": {"amenity": "restaurant", "name": "\u0645\u0637\u0639\u0645 \u0647\u0627\u0634\u0645"}}, {"type": "node", "id": 4277679491, "lat": 21.5878549, "lon": 39.157575, "tags": {"addr:street": "\u0634\u0627\u0631\u0639 \u0639\u0628\u062f \u0627\u0644\u0631\u062d\u0645\u0646 \u0627\u0644\u0633\u062f\u064a\u0631\u064a", "amenity": "restaurant", "name": "\u0627\u0644\u0645\u0637\u0628\u062e \u0627\u0644\u0645\u062f\u064a\u0646\u064a"}}, {"type": "node", "id": 4286775797, "lat": 21.5576703, "lon": 39.1790448, "tags": {"amenity": "restaurant", "name": "Wazzan Restaurent"}}, {"type": "node", "id": 4286775894, "lat": 21.5647572, "lon": 39.1853884, "tags": {"amenity": "restaurant", "name": "Rahma Restaurent"}}, {"type": "node", "id": 4290720890, "lat": 21.5853311, "lon": 39.1536769, "tags": {"addr:street": "Hadiqat Rami", "amenity": "restaurant", "cuisine": "grill", "name": "\u0643\u0628\u0627\u0628 \u0627\u0644\u062d\u0631\u0628\u064a"}}, {"type": "node", "id": 4293912689, "lat": 21.5721081, "lon": 39.2006219, "tags": {"amenity": "restaurant", "name": "\u0645\u0637\u0639\u0645 \u0639\u0645\u0648 \u062d\u0645\u0632\u0629"}}, {"type": "node", "id": 4316345494, "lat": 21.5444805, "lon": 39.2064217, "tags": {"amenity": "restaurant", "name": "\u0645\u0637\u0639\u0645 \u0627\u0644\u0645\u062c\u062f - \u0639\u0627\u0626\u0644\u0627\u062a - \u0645\u0646\u062f\u064a ..."}}, {"type": "node", "id": 4316345495, "lat": 21.5506663, "lon": 39.2052012, "tags": {"amenity": "restaurant", "name": "\u0634\u0648\u0627\u064a\u0629 \u0627\u0644\u0628\u062e\u0627\u0631\u064a"}}, {"type": "node", "id": 4316412291, "lat": 21.6116077, "lon": 39.1983867, "tags": {"amenity": "restaurant", "name": "\u0645\u0627\u0643\u062f\u0648\u0646\u0627\u0644\u062f\u0632", "name:en": "McDonald's"}}, {"type": "node", "id": 4316413892, "lat": 21.5509074, "lon": 39.2051824, "tags": {"amenity": "restaurant", "name": "\u0645\u0637\u0639\u0645 \u062a\u0627\u062c \u0627\u0644\u0633\u0644\u0637\u0627\u0646\u064a"}}, {"type": "node", "id": 4316413894, "lat": 21.6002298, "lon": 39.1585137, "tags": {"amenity": "restaurant", "name": "\u0645\u0637\u0639\u0645 \u0645\u0646\u062a\u0648 \u0648\u0641\u0631\u0645\u0648\u0632\u0627 \u0639\u0627\u0628\u062f"}}, {"type": "node", "id": 4316435494, "lat": 21.6774846, "lon": 39.1252206, "tags": {"amenity": "restaurant", "name": "\u0627\u0644\u0628\u064a\u0643"}}, {"type": "node", "id": 4316435592, "lat": 21.5590897, "lon": 39.114117, "tags": {"amenity": "restaurant", "name": "\u0645\u0627\u0643\u062f\u0648\u0646\u0627\u0644\u062f\u0632", "name:en": "McDonald's"}}, {"type": "node", "id": 4316435692, "lat": 21.5833656, "lon": 39.2080474, "tags": {"amenity": "restaurant", "name": "\u0627\u0644\u0642\u0631\u0645\u0648\u0634\u064a"}}, {"type": "node", "id": 4316435697, "lat": 21.6284647, "lon": 39.1106178, "tags": {"amenity": "restaurant", "name": "\u0627\u0644\u0628\u064a\u0643"}}, {"type": "node", "id": 4316435700, "lat": 21.5449092, "lon": 39.2063753, "tags": {"amenity": "restaurant", "name": "\u0627\u0644\u0642\u0631\u0645\u0648\u0634\u064a"}}, {"type": "node", "id": 4316435701, "lat": 21.5511101, "lon": 39.2051203, "tags": {"amenity": "restaurant", "name": "\u0628\u064a\u062a\u0632\u0627 \u0647\u062a"}}, {"type": "node", "id": 4316440691, "lat": 21.6063664, "lon": 39.1225231, "tags": {"amenity": "restaurant", "name": "\u0645\u0627\u0643\u062f\u0648\u0646\u0627\u0644\u062f\u0632", "name:en": "McDonald's"}}, {"type": "node", "id": 4316440695, "lat": 21.5421464, "lon": 39.2069589, "tags": {"amenity": "restaurant", "name": "\u0643\u0646\u062a\u0627\u0643\u064a"}}, {"type": "node", "id": 4316440699, "lat": 21.551447, "lon": 39.2039747, "tags": {"amenity": "restaurant", "name": "\u0643\u0627\u0631\u0641\u0648\u0631"}}, {"type": "node", "id": 4316440890, "lat": 21.5533715, "lon": 39.1638664, "tags": {"amenity": "restaurant", "name": "\u0628\u064a\u0646\u0632\u0627 \u0647\u062a"}}, {"type": "node", "id": 4316784397, "lat": 21.6122971, "lon": 39.1465832, "tags": {"amenity": "restaurant", "name": "\u0645\u0637\u0639\u0645 \u0628\u062e\u0627\u0631\u064a"}}, {"type": "node", "id": 4329435489, "lat": 21.5729079, "lon": 39.1742339, "tags": {"addr:street": "\u0627\u0644\u0627\u0645\u0627\u0645 \u0639\u0628\u062f\u0627\u0644\u0639\u0632\u064a\u0632", "amenity": "restaurant", "cuisine": "barbecue", "name": "\u0627\u0644\u0645\u0644\u062d\u0645\u0629 \u0627\u0644\u0634\u0627\u0645\u064a\u0629"}}, {"type": "node", "id": 4332031513, "lat": 21.6210242, "lon": 39.191287, "tags": {"amenity": "restaurant", "name": "\u0643\u0646\u062a\u0627\u0643\u064a"}}, {"type": "node", "id": 4332369190, "lat": 21.6131515, "lon": 39.1531451, "tags": {"amenity": "restaurant", "name": "\u0643\u0646\u062a\u0627\u0643\u064a"}}, {"type": "node", "id": 4333634590, "lat": 21.5829755, "lon": 39.1306535, "tags": {"amenity": "restaurant", "name": "Papaya"}}, {"type": "node", "id": 4339607491, "lat": 21.5583135, "lon": 39.1463272, "tags": {"amenity": "restaurant", "name": "Soy Restaurant"}}, {"type": "node", "id": 4339614789, "lat": 21.5597247, "lon": 39.1400932, "tags": {"amenity": "restaurant", "name": "Oriental Garden Restaurant"}}, {"type": "node", "id": 4340845092, "lat": 21.551761, "lon": 39.143242, "tags": {"amenity": "restaurant", "name": "Glow"}}, {"type": "node", "id": 4340845290, "lat": 21.584323, "lon": 39.158748, "tags": {"amenity": "restaurant", "name": "Oriental Restaurant"}}, {"type": "node", "id": 4343200831, "lat": 21.5850074, "lon": 39.1586283, "tags": {"amenity": "restaurant", "name": "\u0645\u0646\u062a\u0648 \u0648\u0641\u0631\u0645\u0648\u0632\u0627 \u0639\u0627\u0628\u062f \u0627\u0644\u0635\u062d\u064a\u062d"}}, {"type": "node", "id": 4343833989, "lat": 21.5598767, "lon": 39.1367068, "tags": {"amenity": "restaurant", "cuisine": "chinese", "name": "Wajbah Restaurant"}}, {"type": "node", "id": 4368842189, "lat": 21.5590993, "lon": 39.1509592, "tags": {"amenity": "restaurant", "name:en": "The Vox"}}, {"type": "node", "id": 4374461300, "lat": 21.5726728, "lon": 39.1589806, "tags": {"amenity": "restaurant", "name": "\u0645\u0639\u0635\u0648\u0628 \u0627\u0644\u0642\u0627\u062f\u0631\u064a", "name:ar": "\u0645\u0639\u0635\u0648\u0628 \u0627\u0644\u0642\u0627\u062f\u0631\u064a"}}, {"type": "node", "id": 4377468591, "lat": 21.5367826, "lon": 39.1901384, "tags": {"amenity": "restaurant", "name:en": "Seasons Restaurant"}}, {"type": "node", "id": 4380975390, "lat": 21.5895741, "lon": 39.186564, "tags": {"amenity": "cafe", "name": "\u0634\u0628\u0627\u0628 \u0643\u0627\u0641\u064a\u0647"}}, {"type": "node", "id": 4382329897, "lat": 21.5542816, "lon": 39.2112306, "tags": {"addr:street": "\u0627\u0644\u0645\u0624\u0644\u0641\u064a\u0646", "amenity": "restaurant", "name:en": "Khana Khazana-Hyderabadi Hotel"}}, {"type": "node", "id": 4382374702, "lat": 21.5526866, "lon": 39.2143016, "tags": {"addr:street": "Arbaeen", "amenity": "cafe", "name:en": "Pizza Hut"}}, {"type": "node", "id": 4385729690, "lat": 21.5819627, "lon": 39.1879103, "tags": {"amenity": "restaurant", "name:en": "kasap"}}, {"type": "node", "id": 4389773790, "lat": 21.5752039, "lon": 39.1887746, "tags": {"amenity": "restaurant", "name:en": "La Paz Batchoy"}}, {"type": "node", "id": 4415177491, "lat": 21.5503815, "lon": 39.1635439, "tags": {"amenity": "restaurant", "name:en": "Fuddruckers"}}, {"type": "node", "id": 4417266145, "lat": 21.5345922, "lon": 39.2085903}, {"type": "node", "id": 4425455190, "lat": 21.5999339, "lon": 39.1918772, "tags": {"amenity": "cafe", "internet_access": "wlan", "name:en": "village cafee", "opening_hours": "24/7", "wheelchair": "yes"}}, {"type": "node", "id": 4451727889, "lat": 21.5851792, "lon": 39.1584534, "tags": {"addr:street": "\u0634\u0627\u0631\u0639 \u0639\u0628\u062f \u0627\u0644\u0631\u062d\u0645\u0646 \u0627\u0644\u0633\u062f\u064a\u0631\u064a", "amenity": "restaurant", "cuisine": "breakfast", "name": "\u0645\u0637\u0639\u0645 \u0628\u0627\u0646\u0639\u0645\u0629", "name:ar": "\u0645\u0637\u0639\u0645 \u0628\u0627\u0646\u0639\u0645\u0629", "name:en": "\u0639\u0631\u0628\u064a"}}, {"type": "node", "id": 4547764691, "lat": 21.5593282, "lon": 39.1160474, "tags": {"amenity": "restaurant", "name:en": "Persian Cuisine"}}, {"type": "node", "id": 4555402755, "lat": 21.5547775, "lon": 39.142988, "tags": {"addr:city": "Jeddah", "addr:postcode": "21421", "addr:street": "\u0634\u0627\u0631\u0639 \u0627\u0644\u0627\u0645\u064a\u0631 \u0633\u0644\u0637\u0627\u0646 Prince sultan st.", "amenity": "restaurant", "cuisine": "burger", "name": "Century Burger"}}, {"type": "node", "id": 4555402757, "lat": 21.555092, "lon": 39.1430375, "tags": {"addr:city": "Jeddah", "addr:postcode": "23431", "addr:street": "\u0634\u0627\u0631\u0639 \u0627\u0644\u0627\u0645\u064a\u0631 \u0633\u0644\u0637\u0627\u0646 Prince sultan st.", "amenity": "restaurant", "cuisine": "sushi", "name": "Chez Sushi"}}, {"type": "node", "id": 4555402758, "lat": 21.5553034, "lon": 39.1429763, "tags": {"addr:city": "Jeddah", "addr:postcode": "23431", "addr:street": "\u0634\u0627\u0631\u0639 \u0627\u0644\u0627\u0645\u064a\u0631 \u0633\u0644\u0637\u0627\u0646 Prince sultan st.", "amenity": "cafe", "cuisine": "pastry", "name": "\u0628\u0627\u0641\u0631\u0637", "name:ar": "\u0628\u0627\u0641\u0631\u0637", "name:en": "Bafarat Cafe"}}, {"type": "node", "id": 4555437704, "lat": 21.5513551, "lon": 39.1436403, "tags": {"addr:city": "Jeddah", "addr:postcode": "23431", "addr:street": "Al Rawdah", "amenity": "restaurant", "cuisine": "lebanese;mediterranean;middle_eastern", "name": "\u0634\u0628\u0627\u0628\u064a\u0643", "name:en": "Shababik Restaurant"}}, {"type": "node", "id": 4555437705, "lat": 21.5497956, "lon": 39.1429234, "tags": {"addr:city": "Jeddah", "addr:postcode": "23421", "addr:street": "Al Khalidiyah", "amenity": "cafe", "cuisine": "cafe", "name": "Deera Cafe"}}, {"type": "node", "id": 4585433610, "lat": 21.5669644, "lon": 39.1396584}, {"type": "node", "id": 4585433611, "lat": 21.5669635, "lon": 39.1397245}, {"type": "node", "id": 4585433612, "lat": 21.5669171, "lon": 39.1397245}, {"type": "node", "id": 4585433613, "lat": 21.5669152, "lon": 39.1397925}, {"type": "node", "id": 4585433614, "lat": 21.5668793, "lon": 39.1397885}, {"type": "node", "id": 4585433615, "lat": 21.5668831, "lon": 39.1396696}, {"type": "node", "id": 4585433616, "lat": 21.5669134, "lon": 39.1396655}, {"type": "node", "id": 4585433617, "lat": 21.5669134, "lon": 39.1396462}, {"type": "node", "id": 4585433618, "lat": 21.566937, "lon": 39.1396431}, {"type": "node", "id": 4585433619, "lat": 21.566936, "lon": 39.1396574}, {"type": "node", "id": 4592117991, "lat": 21.5581459, "lon": 39.2046035, "tags": {"amenity": "restaurant", "name": "\u0645\u0637\u0639\u0645 \u0631\u064a\u062f \u062a\u0634\u064a\u0644\u064a", "name:en": "Red Chillies Restaurant"}}, {"type": "node", "id": 4608515795, "lat": 21.7925537, "lon": 39.1314378, "tags": {"air_conditioning": "yes", "amenity": "cafe", "cuisine": "donut", "name": "Dunkin' Donuts", "name:ar": "Dunkin' Donuts", "opening_hours": "Mo-Su 06:30-24:00", "payment:cash": "yes", "payment:debit_cards": "yes", "website": "http://www.dunkindonuts.sa/"}}, {"type": "node", "id": 4625648612, "lat": 21.6166, "lon": 39.171877, "tags": {"amenity": "restaurant", "name": "\u0645\u0627\u0643\u062f\u0648\u0646\u0627\u0644\u062f\u0632", "name:ar": "\u0645\u0627\u0643\u062f\u0648\u0646\u0627\u0644\u062f\u0632", "name:en": "McDonald's"}}, {"type": "node", "id": 4625648613, "lat": 21.6589651, "lon": 39.1236416, "tags": {"amenity": "restaurant", "name": "\u0645\u0627\u0643\u062f\u0648\u0646\u0627\u0644\u062f\u0632", "name:en": "McDonald's"}}, {"type": "node", "id": 4625675401, "lat": 21.6274875, "lon": 39.110794, "tags": {"amenity": "restaurant", "name": "\u0645\u0627\u0644\u0643\u062f\u0648\u0646\u0627\u0644\u062f\u0632", "name:ar": "\u0645\u0627\u0644\u0643\u062f\u0648\u0646\u0627\u0644\u062f\u0632", "name:en": "McDonald's"}}, {"type": "node", "id": 4625691790, "lat": 21.6655764, "lon": 39.1089744, "tags": {"amenity": "restaurant", "name": "\u0645\u0627\u0643\u062f\u0648\u0646\u0627\u0644\u062f\u0632", "name:ar": "\u0645\u0627\u0643\u062f\u0648\u0646\u0627\u0644\u062f\u0632", "name:en": "McDonald's"}}, {"type": "node", "id": 4627614191, "lat": 21.571031, "lon": 39.1895649, "tags": {"amenity": "restaurant", "name": "\u0645\u0627\u0643\u062f\u0648\u0646\u0627\u0644\u062f\u0632", "name:ar": "\u0645\u0627\u0643\u062f\u0648\u0646\u0627\u0644\u062f\u0632", "name:en": "McDonald's"}}, {"type": "node", "id": 4627615490, "lat": 21.5884149, "lon": 39.1314171, "tags": {"amenity": "restaurant", "name": "\u0645\u0627\u0643\u062f\u0648\u0646\u0627\u0644\u062f\u0632", "name:en": "McDonald's"}}, {"type": "node", "id": 4627616391, "lat": 21.5484104, "lon": 39.1891156, "tags": {"amenity": "restaurant", "name": "\u0645\u0627\u0643\u062f\u0648\u0646\u0627\u0644\u062f\u0632", "name:ar": "\u0645\u0627\u0643\u062f\u0648\u0646\u0627\u0644\u062f\u0632", "name:en": "McDonald's"}}, {"type": "node", "id": 4627621289, "lat": 21.5763316, "lon": 39.1966895, "tags": {"amenity": "restaurant", "name": "\u0645\u0627\u0643\u062f\u0648\u0646\u0627\u0644\u062f\u0632", "name:ar": "\u0645\u0627\u0643\u062f\u0648\u0646\u0627\u0644\u062f\u0632", "name:en": "McDonald's"}}, {"type": "node", "id": 4633678493, "lat": 21.6973819, "lon": 39.117686, "tags": {"amenity": "restaurant", "name": "\u0645\u0627\u0643\u062f\u0648\u0646\u0627\u0644\u062f\u0632", "name:ar": "\u0645\u0627\u0643\u062f\u0648\u0646\u0627\u0644\u062f\u0632", "name:en": "McDonald's"}}, {"type": "node", "id": 4668056991, "lat": 21.5730233, "lon": 39.1589625, "tags": {"amenity": "restaurant", "name": "\u0645\u0637\u0639\u0645 \u0627\u0644\u062d\u062c\u0627\u0632", "name:ar": "\u0645\u0637\u0639\u0645 \u0627\u0644\u062d\u062c\u0627\u0632"}}, {"type": "node", "id": 4682943491, "lat": 21.5861988, "lon": 39.1585674, "tags": {"amenity": "restaurant", "name": "\u0645\u0637\u0627\u0639\u0645 \u0628\u0627\u0634\u0627 \u062a\u0631\u0643\u064a\u0629", "name:en": "Turkish Pa\u015fa Restaurant"}}, {"type": "node", "id": 4683465490, "lat": 21.6124111, "lon": 39.1493657, "tags": {"amenity": "restaurant", "name": "\u0645\u0634\u0648\u064a\u0627\u062a", "name:ar": "\u0645\u0634\u0648\u064a\u0627\u062a"}}, {"type": "node", "id": 4706284091, "lat": 21.5590338, "lon": 39.1533354, "tags": {"addr:housenumber": "3160", "addr:street": "Alrawda", "amenity": "restaurant", "cuisine": "korean", "internet_access": "wlan", "name:en": "Sura", "opening_hours": "Mo-Su 12:00-24:00", "phone": "+966920007212"}}, {"type": "node", "id": 4771525827, "lat": 21.6076887, "lon": 39.1400438, "tags": {"amenity": "restaurant", "name:zh": "\u4e2d\u56fd\u82d1"}}, {"type": "node", "id": 4771634623, "lat": 21.5574733, "lon": 39.1716582, "tags": {"amenity": "restaurant", "name": "Studio Masr", "name:ar": "Studio Masr"}}, {"type": "node", "id": 4792695922, "lat": 21.5585291, "lon": 39.1455178, "tags": {"amenity": "restaurant", "cuisine": "italian", "name:en": "Portofine"}}, {"type": "node", "id": 4813048924, "lat": 21.5843676, "lon": 39.160013, "tags": {"amenity": "restaurant", "name": "\u0645\u0637\u0627\u0639\u0645 \u0627\u0644\u0635\u064a\u0627\u062f\u064a\u0629", "name:ar": "\u0645\u0637\u0627\u0639\u0645 \u0627\u0644\u0635\u064a\u0627\u062f\u064a\u0629", "name:en": "sayadia restaurant"}}, {"type": "node", "id": 4813048925, "lat": 21.5850807, "lon": 39.1597016, "tags": {"amenity": "restaurant", "name": "\u0645\u0637\u0627\u0639\u0645 \u0627\u0644\u0628\u0627\u0647\u0631", "name:ar": "\u0645\u0637\u0627\u0639\u0645 \u0627\u0644\u0628\u0627\u0647\u0631", "name:en": "albaher restaurant"}}, {"type": "node", "id": 4813059422, "lat": 21.5845758, "lon": 39.159072, "tags": {"amenity": "cafe", "name": "\u0628\u064a\u062a \u0627\u0644\u062f\u0648\u0646\u0627\u062a", "name:ar": "\u0628\u064a\u062a \u0627\u0644\u062f\u0648\u0646\u0627\u062a", "name:en": "house of donuts"}}, {"type": "node", "id": 4872690722, "lat": 21.569243, "lon": 39.1876438, "tags": {"amenity": "restaurant", "name": "\u0643\u0628\u062f\u0629 \u0627\u0644\u0645\u0639\u0644\u0645\u064a"}}, {"type": "node", "id": 4878241522, "lat": 21.6118522, "lon": 39.1236758, "tags": {"addr:street": "\u0634\u0627\u0631\u0639 \u0627\u0644\u062a\u0623\u0645\u064a\u0646", "amenity": "restaurant", "cuisine": "arab", "name": "\u0645\u0637\u0628\u062e \u0648 \u0645\u0637\u0639\u0645 \u0647\u0645\u0627\u0645", "name:en": "restaurant and kitchen of hammam", "phone": "6940945"}}, {"type": "node", "id": 4908859119, "lat": 21.75833, "lon": 39.1483748}, {"type": "node", "id": 4908859120, "lat": 21.7582901, "lon": 39.1483694}, {"type": "node", "id": 4908859121, "lat": 21.7582752, "lon": 39.1483801}, {"type": "node", "id": 4908859122, "lat": 21.7582615, "lon": 39.1483922}, {"type": "node", "id": 4908859123, "lat": 21.7582241, "lon": 39.1490158}, {"type": "node", "id": 4908859124, "lat": 21.7582945, "lon": 39.1490222}, {"type": "node", "id": 4908859125, "lat": 21.7582918, "lon": 39.1490925}, {"type": "node", "id": 4908859126, "lat": 21.7582341, "lon": 39.1490909}, {"type": "node", "id": 4908859127, "lat": 21.7582408, "lon": 39.149016}, {"type": "node", "id": 4965768925, "lat": 21.6167042, "lon": 39.1693823, "tags": {"amenity": "restaurant", "name": "\u0645\u0637\u0627\u0639\u0645 \u0645\u0646\u062f\u064a \u0627\u0644\u0633\u062f\u0629", "name:en": "Soddah for Mandy"}}, {"type": "node", "id": 4999727092, "lat": 21.5615839, "lon": 39.1721486, "tags": {"addr:city": "Jeddah", "addr:street": "\u0637\u0631\u064a\u0642 \u0627\u0644\u0645\u062f\u064a\u0646\u0629 Al Madina road", "amenity": "restaurant", "cuisine": "lebanese", "name": "Shami", "outdoor_seating": "no", "smoking": "no"}}, {"type": "node", "id": 5031016424, "lat": 21.6218456, "lon": 39.1372846, "tags": {"amenity": "restaurant", "name": "\u062c\u0648\u0628\u064a \u0641\u0631\u0627\u064a\u0632", "name:ar": "\u062c\u0648\u0628\u064a \u0641\u0631\u0627\u064a\u0632", "name:en": "Joppie Fries"}}, {"type": "node", "id": 5113638121, "lat": 21.6714882, "lon": 39.1511971, "tags": {"amenity": "restaurant", "name:en": "Saudia Lounge Alfursan"}}, {"type": "node", "id": 5116889427, "lat": 21.6715825, "lon": 39.1499182, "tags": {"amenity": "cafe", "name:en": "Lounge Cafe"}}, {"type": "node", "id": 5224158821, "lat": 21.7082213, "lon": 39.1049698, "tags": {"amenity": "restaurant", "name": "\u062e\u0631\u0648\u0641 \u0627\u0644\u0634\u064a\u0641"}}, {"type": "node", "id": 5242566422, "lat": 21.5567547, "lon": 39.1719885, "tags": {"addr:street": "\u0634\u0627\u0631\u0639 \u0627\u0644\u062a\u062d\u0644\u064a\u0629", "amenity": "restaurant", "cuisine": "italian;italian_pizza", "internet_access": "wlan", "name": "\u062f\u0649 \u0631\u0648\u0645\u0627 \u0643\u0627\u0641\u064a\u0647", "name:en": "Di Roma cafee", "opening_hours": "24/7"}}, {"type": "node", "id": 5277850721, "lat": 21.5835875, "lon": 39.2079602, "tags": {"amenity": "restaurant", "name": "\u0628\u064a\u062a \u0627\u0644\u0645\u0643\u0631\u0648\u0646\u0629"}}, {"type": "node", "id": 5468607323, "lat": 21.5985513, "lon": 39.1237252, "tags": {"addr:street": "Al- Batarji St.", "amenity": "cafe", "internet_access": "wlan", "name:en": "SARA", "phone": "0126828299"}}, {"type": "node", "id": 5476714321, "lat": 21.7397765, "lon": 39.1924424, "tags": {"addr:street": "Al Masurah st. \u0634\u0627\u0631\u0639 \u0627\u0644\u0645\u0627\u0633\u0648\u0631\u0629", "amenity": "restaurant", "cuisine": "kebab;turkish;pancake;pizza", "internet_access": "wlan", "name": "\u0643\u0628\u0627\u0628\u060c \u0627\u0644\u062a\u0631\u0643\u064a\u0629\u060c \u0641\u0637\u064a\u0631\u0629\u060c \u0628\u064a\u062a\u0632\u0627", "opening_hours": "Mo-Su 13:00-02:00", "phone": "00966508829899"}}, {"type": "node", "id": 5476715222, "lat": 21.7396503, "lon": 39.1925038, "tags": {"addr:street": "Al Masurah st. \u0634\u0627\u0631\u0639 \u0627\u0644\u0645\u0627\u0633\u0648\u0631\u0629", "amenity": "restaurant", "cuisine": "turkish;pizza;kebab;arab", "internet_access": "wlan", "name": "\u0628\u064a\u062a\u0632\u0627 \u0627\u0633\u0637\u0646\u0628\u0648\u0644 \u0627\u0644\u062a\u0631\u0643\u064a\u0629", "name:ar": "\u0628\u064a\u062a\u0632\u0627 \u0627\u0633\u0637\u0646\u0628\u0648\u0644 \u0627\u0644\u062a\u0631\u0643\u064a\u0629", "name:en": "Istanbul turkish pizza & kebab", "name:tr": "istanbul turkish pizza&kebab", "opening_hours": "Mo-Su 13:00-02:00", "phone": "00966508829899"}}, {"type": "node", "id": 5567959296, "lat": 21.5482441, "lon": 39.1627111, "tags": {"amenity": "restaurant", "cuisine": "healthy", "name": "lions share"}}, {"type": "node", "id": 5596663031, "lat": 21.5739804, "lon": 39.1400654, "tags": {"addr:street": "\u0634\u0627\u0631\u0639 \u0635\u0627\u0631\u064a", "amenity": "restaurant", "name": "\u0634\u0631\u064a\u0645\u0628 \u0627\u0646\u062a\u0648\u0645\u064a", "name:en": "Shrimp anatomy"}}, {"type": "node", "id": 5657534421, "lat": 21.5772161, "lon": 39.1672662, "tags": {"addr:street": "Rayhanat al Jazirah", "amenity": "cafe", "internet_access": "wlan", "opening_hours": "Mo-Su 02:00-18:00"}}, {"type": "node", "id": 5659289031, "lat": 21.6270033, "lon": 39.1107051, "tags": {"amenity": "restaurant", "name": "Pasto Caldo"}}, {"type": "node", "id": 5885299033, "lat": 21.7104034, "lon": 39.0858491, "tags": {"addr:city": "Jeddah", "amenity": "restaurant", "capacity": "100", "cuisine": "burger;regional;pizza;italian;american;sandwich;coffee_shop;chicken;japanese;fish_and_chips;kebab;seafood;steak_house;sushi;barbecue", "delivery": "no", "name": "La Plage Resturant", "outdoor_seating": "yes", "smoking": "yes", "takeaway": "no"}}, {"type": "node", "id": 6036506586, "lat": 21.604617, "lon": 39.1164449, "tags": {"amenity": "cafe", "name:en": "Shisha Lounge"}}, {"type": "node", "id": 6103071385, "lat": 21.6094627, "lon": 39.1411715, "tags": {"amenity": "restaurant", "name": "\u062e\u064a\u0627\u0644"}}, {"type": "node", "id": 6133325823, "lat": 21.5595812, "lon": 39.1333432, "tags": {"addr:city": "jeddah", "addr:housenumber": "23433", "addr:postcode": "23433", "addr:street": "Alrawda", "amenity": "cafe", "cuisine": "coffee_shop;bar", "internet_access": "wlan", "internet_access:fee": "yes", "name": "cloud9coffee", "opening_hours": "Mo-Su 09:00-21:00", "outdoor_seating": "yes", "takeaway": "yes"}}, {"type": "node", "id": 6152595685, "lat": 21.6173355, "lon": 39.1486979, "tags": {"amenity": "restaurant", "name": "\u0645\u0637\u0639\u0645 \u0633\u064a\u0631\u064a\u0647"}}, {"type": "node", "id": 6255922517, "lat": 21.7630296, "lon": 39.1155722, "tags": {"addr:city": "\u062c\u062f\u0629", "addr:street": "\u0639\u0627\u0628\u0631 \u0627\u0644\u0642\u0627\u0631\u0627\u062a", "amenity": "restaurant", "name": "Aseer Time"}}, {"type": "node", "id": 6552390366, "lat": 21.7356151, "lon": 39.122745, "tags": {"addr:city": "jeddah", "addr:housenumber": "obhur al janoubiyah", "addr:postcode": "23732", "addr:street": "al corniche street", "amenity": "restaurant", "cuisine": "hotel;restaurants", "email": "info@r-omawi.com", "name": "Alriwaq Alomawi", "opening_hours": "24/7", "phone": "+966551009300"}}, {"type": "node", "id": 6587217921, "lat": 21.5983098, "lon": 39.1452738}, {"type": "node", "id": 6587217922, "lat": 21.5982907, "lon": 39.1452863}, {"type": "node", "id": 6587217923, "lat": 21.5982027, "lon": 39.1451749}, {"type": "node", "id": 6587217924, "lat": 21.598219, "lon": 39.145155}, {"type": "node", "id": 6587217925, "lat": 21.598269, "lon": 39.1452917}, {"type": "node", "id": 6587217926, "lat": 21.5982468, "lon": 39.1452898}, {"type": "node", "id": 6587217927, "lat": 21.5982262, "lon": 39.1452805}, {"type": "node", "id": 6587217928, "lat": 21.5982092, "lon": 39.1452649}, {"type": "node", "id": 6587217929, "lat": 21.5981976, "lon": 39.1452444}, {"type": "node", "id": 6587217930, "lat": 21.5981924, "lon": 39.145221}, {"type": "node", "id": 6587217931, "lat": 21.5981942, "lon": 39.1451971}, {"type": "node", "id": 6587217932, "lat": 21.5982406, "lon": 39.1451423}, {"type": "node", "id": 6587217933, "lat": 21.5982649, "lon": 39.1451381}, {"type": "node", "id": 6587217934, "lat": 21.5982891, "lon": 39.1451432}, {"type": "node", "id": 6587217935, "lat": 21.5983103, "lon": 39.1451567}, {"type": "node", "id": 6587217936, "lat": 21.5983259, "lon": 39.1451772}, {"type": "node", "id": 6587217937, "lat": 21.5983342, "lon": 39.1452021}, {"type": "node", "id": 6587217938, "lat": 21.5983341, "lon": 39.1452286}, {"type": "node", "id": 6587217939, "lat": 21.5983256, "lon": 39.1452535}, {"type": "node", "id": 6814372285, "lat": 21.6221587, "lon": 39.1378113, "tags": {"amenity": "restaurant", "name": "Vitamin Lebanese Fruits"}}, {"type": "node", "id": 6817638714, "lat": 21.5728987, "lon": 39.1435408, "tags": {"amenity": "restaurant", "name": "Five Guys"}}, {"type": "node", "id": 6839228485, "lat": 21.5588642, "lon": 39.139932, "tags": {"amenity": "restaurant", "name": "Sayadiyah"}}, {"type": "node", "id": 6845362785, "lat": 21.5772448, "lon": 39.1570649, "tags": {"amenity": "restaurant", "name": "Juice World"}}, {"type": "node", "id": 6864798685, "lat": 21.5847458, "lon": 39.1306018, "tags": {"amenity": "restaurant", "name": "Atayeb Goodtaste"}}, {"type": "node", "id": 6970405667, "lat": 21.5668635, "lon": 39.1254042, "tags": {"amenity": "cafe", "cuisine": "coffee;foods;desserts", "internet_access": "yes", "internet_access:fee": "no", "name": "Esquires Coffee", "outdoor_seating": "yes"}}, {"type": "node", "id": 7039368485, "lat": 21.6073233, "lon": 39.1246037, "tags": {"amenity": "restaurant", "name:en": "Abu zaid"}}, {"type": "node", "id": 7049842310, "lat": 21.5822879, "lon": 39.1543756, "tags": {"amenity": "cafe", "cuisine": "coffee_shop", "name": "\u0645\u062d\u0645\u0635\u0629 \u064a\u0648\u0644\u0648", "name:ar": "\u0645\u062d\u0645\u0635\u0629 \u064a\u0648\u0644\u0648", "name:en": "Yolo Coffee", "outdoor_seating": "yes"}}, {"type": "node", "id": 7279612385, "lat": 21.5838982, "lon": 39.1313905, "tags": {"amenity": "cafe", "name": "\u062f\u0627\u0631\u0629 \u0627\u0644\u0642\u0647\u0648\u0629", "name:en": "Toledo Cafe", "outdoor_seating": "no"}}, {"type": "node", "id": 7397357133, "lat": 21.6092168, "lon": 39.1345856, "tags": {"amenity": "cafe", "cuisine": "regional;coffee_shop;juice", "internet_access": "no", "name": "G Juice"}}, {"type": "node", "id": 7397357134, "lat": 21.6088851, "lon": 39.1331318, "tags": {"amenity": "restaurant", "cuisine": "regional", "name": "Mna7i"}}, {"type": "node", "id": 7764374116, "lat": 21.6711821, "lon": 39.1212874, "tags": {"amenity": "restaurant"}}, {"type": "node", "id": 7764374117, "lat": 21.6709458, "lon": 39.121282, "tags": {"amenity": "restaurant"}}, {"type": "node", "id": 7764374118, "lat": 21.6707799, "lon": 39.1213307, "tags": {"amenity": "restaurant"}}, {"type": "node", "id": 7894137785, "lat": 21.5988271, "lon": 39.1223587}, {"type": "node", "id": 7894137786, "lat": 21.5988271, "lon": 39.1222045}, {"type": "node", "id": 7894137787, "lat": 21.5989805, "lon": 39.1221991}, {"type": "node", "id": 7894137788, "lat": 21.5989805, "lon": 39.1223668}, {"type": "node", "id": 7904277712, "lat": 21.6523542, "lon": 39.1370932, "tags": {"amenity": "restaurant", "name": "bitaldabi"}}, {"type": "node", "id": 7939784172, "lat": 21.6189193, "lon": 39.1805483, "tags": {"amenity": "restaurant", "name": "\u0643\u0631\u0643 \u0648 \u0641\u0637\u064a\u0631\u0629 \u0632\u0645\u0627\u0646"}}, {"type": "node", "id": 8043892152, "lat": 21.6712351, "lon": 39.1211174}, {"type": "node", "id": 8043892153, "lat": 21.6712683, "lon": 39.1214338}, {"type": "node", "id": 8043892154, "lat": 21.6697506, "lon": 39.1216379}, {"type": "node", "id": 8043892155, "lat": 21.6696984, "lon": 39.1213368}, {"type": "node", "id": 8128323761, "lat": 21.6768697, "lon": 39.1206352}, {"type": "node", "id": 8128323762, "lat": 21.6768412, "lon": 39.120431}, {"type": "node", "id": 8128323763, "lat": 21.6763954, "lon": 39.1205025}, {"type": "node", "id": 8128323764, "lat": 21.6764334, "lon": 39.1207271}, {"type": "node", "id": 8149922157, "lat": 21.7539671, "lon": 39.1350869, "tags": {"addr:city": "Jeddah", "addr:postcode": "23734", "addr:street": "\u0637\u0631\u064a\u0642 \u0627\u0644\u0643\u0648\u0631\u0646\u064a\u0634 \u0627\u0644\u0634\u0645\u0627\u0644\u064a", "air_conditioning": "yes", "amenity": "cafe", "cuisine": "sandwich;coffee_shop;coffee;cafe;european;american;breakfast;lunch;international", "internet_access": "yes", "internet_access:fee": "no", "internet_access:ssid": "Subject_", "name": "subject_ coffee house", "opening_hours": "Mo-Sa 08:00-01:00", "outdoor_seating": "yes", "phone": "+966570002129", "website": "https://www.subject.house/"}}, {"type": "node", "id": 8261917077, "lat": 21.6103849, "lon": 39.125339, "tags": {"amenity": "cafe", "internet_access": "yes", "internet_access:fee": "no", "name": "marrsm", "outdoor_seating": "yes", "phone": "0565889887"}}, {"type": "node", "id": 8420408519, "lat": 21.6814477, "lon": 39.2138224, "tags": {"addr:street": "\u200e\u0627\u0644\u062d\u062f\u064a\u062b \u200e\u200fH5V2+68\u060c \u0627\u0644\u0633\u0644\u0627\u0645\u0629\u060c As-Samer 23437 \u200e\u200f\u202a054 440 0061\u202c\u200f \u200e\u200fhttps://maps.app.goo.gl/XixmxUKxhZZXnoXT6", "amenity": "restaurant", "cuisine": "arab", "name": "\u0645\u0637\u0639\u0645 \u0628\u064a\u062a \u0627\u0644\u0634\u0648\u0627\u0621 \u0644\u0644\u062e\u0631\u0648\u0641 \u0627\u0644\u0645\u0634\u0648\u064a", "name:ar": "\u0645\u0637\u0639\u0645 \u0628\u064a\u062a \u0627\u0644\u0634\u0648\u0627\u0621 \u0644\u0644\u062e\u0631\u0648\u0641 \u0627\u0644\u0645\u0634\u0648\u064a", "name:en": "\u0645\u0637\u0639\u0645 \u0628\u064a\u062a \u0627\u0644\u0634\u0648\u0627\u0621", "phone": "0566111209"}}, {"type": "node", "id": 8436030310, "lat": 21.6450142, "lon": 39.1032555, "tags": {"addr:city": "Jeddah", "addr:housenumber": "Beach Tower", "addr:postcode": "23613", "addr:street": "Corniche Road", "amenity": "cafe", "cuisine": "coffee;waffle", "internet_access": "yes", "name": "50degrees", "opening_hours": "24/7", "opening_hours:covid19": "restricted"}}, {"type": "node", "id": 8478473686, "lat": 21.6407135, "lon": 39.1328568, "tags": {"addr:city": "\u062c\u062f\u0629", "addr:postcode": "23621", "addr:street": "\u0635\u0641\u064a\u0629 \u0628\u0646\u062a \u0639\u0628\u062f \u0627\u0644\u0645\u0637\u0644\u0628", "amenity": "restaurant", "cuisine": "steak_house;burger", "diet:halal": "yes", "diet:meat": "yes", "name": "\u0644\u0648\u062f\u064a\u062f \u0631\u064a\u0633\u062a\u0648\u0628\u0627\u0631 | LOADED RESTOBAR", "opening_hours": "07:00-01:00", "phone": "+966545895555", "website": "https://loadedme.com/"}}, {"type": "node", "id": 8557858107, "lat": 21.5767122, "lon": 39.219597, "tags": {"amenity": "cafe"}}, {"type": "node", "id": 8557858108, "lat": 21.5856635, "lon": 39.2406687, "tags": {"addr:city": "jeddah", "addr:housenumber": "23464", "addr:postcode": "00966", "addr:street": "Abdullah bin Ataa", "amenity": "restaurant", "cuisine": "cake", "diet:halal": "yes", "name": "\u0644\u0642\u064a\u0645\u0627\u062a \u0627\u0644\u062e\u064a\u0627\u0644", "opening_hours": "Mo-Su 10:00-22:00", "phone": "+966555681956"}}, {"type": "node", "id": 8676342556, "lat": 21.568907, "lon": 39.165085, "tags": {"addr:city": "JEDDAH", "addr:housenumber": "8268", "addr:postcode": "4311", "addr:street": "Ash Shaikh Hamad Al Haqil", "air_conditioning": "yes", "amenity": "cafe", "contact:instagram": "https://www.instagram.com/liteanddelight_", "cuisine": "coffee_shop;ice_cream;juice;coffee", "delivery": "yes", "diet:lactose_free": "yes", "diet:vegan": "yes", "internet_access": "wlan", "internet_access:fee": "no", "name": "LITE AND DELIGHT", "opening_hours": "Mo-Su 07:00-00:00", "outdoor_seating": "yes", "payment:cash": "yes", "payment:debit_cards": "yes", "payment:mastercard": "yes", "payment:visa": "yes", "payment:visa_electron": "yes", "phone": "+966 550747072", "wheelchair": "yes"}}, {"type": "node", "id": 8791695779, "lat": 21.5940912, "lon": 39.1612913, "tags": {"amenity": "cafe", "cuisine": "coffee", "name": "Barnscoffee", "opening_hours": "24/7", "outdoor_seating": "no", "payment:cash": "yes"}}, {"type": "node", "id": 8791772915, "lat": 21.5976993, "lon": 39.1615948, "tags": {"air_conditioning": "yes", "amenity": "restaurant", "contact:facebook": "https://www.facebook.com/alromansiahksa/", "contact:instagram": "https://www.instagram.com/alromansiahksa/", "contact:twitter": "https://twitter.com/alromansiahksa", "contact:youtube": "https://www.youtube.com/user/alromansiah", "cuisine": "rice", "delivery": "yes", "name": "\u0645\u0637\u0639\u0645 \u0627\u0644\u0631\u0648\u0645\u0627\u0646\u0633\u064a\u0629", "opening_hours": "Sa-Th 10:30-00:30, Fr 12:15-01:00", "takeaway": "yes", "website": "https://alromansiah.com/"}}, {"type": "node", "id": 8791795030, "lat": 21.5838898, "lon": 39.1744077, "tags": {"amenity": "cafe", "cuisine": "coffee_shop", "name": "\u0627\u0644\u0645\u0630\u0627\u0642 \u0627\u0644\u0645\u063a\u063a\u0631\u0628\u064a", "payment:cash": "yes"}}, {"type": "node", "id": 8836029190, "lat": 21.5938738, "lon": 39.1660102, "tags": {"amenity": "cafe", "cuisine": "coffee;coffee_shop", "name": "blackdropcafe", "opening_hours": "Sa-Th 07:30-02:30, Fr 14:00-02:30", "outdoor_seating": "yes", "payment:cash": "yes"}}, {"type": "node", "id": 8863601516, "lat": 21.5935782, "lon": 39.1683551, "tags": {"amenity": "restaurant", "check_date:opening_hours": "2022-08-16", "name": "\u0641\u0644\u0627\u0641\u0644 \u0627\u0644\u0634\u0627\u0645", "opening_hours": "Mo-Su 06:00-00:15", "phone": "0122563285"}}, {"type": "node", "id": 8866741059, "lat": 21.5963354, "lon": 39.1674041, "tags": {"amenity": "restaurant", "name": "\u0645\u062a\u0639\u0629 \u0627\u0644\u0643\u0628\u062f\u0629", "opening_hours": "Mo-Su 05:00-09:00,16:00-23:00", "payment:cash": "yes", "payment:debit_cards": "yes", "phone": "+966531360625"}}, {"type": "node", "id": 8866801803, "lat": 21.5868927, "lon": 39.1637206, "tags": {"amenity": "cafe", "cuisine": "coffee_shop", "drive_through": "yes", "name": "\u0645\u0648\u0643\u0627\u062a\u0634\u064a\u0646\u0648", "name:en": "Mochachino", "opening_hours": "Mo-Su 06:30-00:30", "outdoor_seating": "no", "payment:cash": "yes", "payment:debit_cards": "yes", "phone": "+966126065885"}}, {"type": "node", "id": 8873102543, "lat": 21.5992755, "lon": 39.1663792, "tags": {"amenity": "restaurant", "name": "\u0641\u0648\u0644 \u0627\u0644\u0639\u0627\u0645 \u0628\u0631\u0643\u0627\u062a", "opening_hours": "Mo-Su 05:00-11:30,18:30-01:00"}}, {"type": "node", "id": 8888613480, "lat": 21.6177865, "lon": 39.1389621, "tags": {"air_conditioning": "yes", "amenity": "cafe", "brand": "Starbucks", "brand:wikidata": "Q37158", "brand:wikipedia": "en:Starbucks", "cuisine": "coffee_shop", "name": "Starbucks", "official_name": "Starbucks Coffee", "opening_hours": "Mo-Su 6:30 m - 12:30 am", "payment:cash": "yes", "payment:debit_cards": "yes", "phone": "+966122617406", "takeaway": "yes", "website": "https://locations.starbucks.sa"}}, {"type": "node", "id": 8888670683, "lat": 21.614964, "lon": 39.153345, "tags": {"air_conditioning": "yes", "amenity": "cafe", "internet_access": "wlan", "opening_hours": "Mo-Su 06:30-00:30", "outdoor_seating": "yes", "payment:cash": "yes", "payment:debit_cards": "yes", "phone": "+966122617072", "website": "https://locations.starbucks.sa"}}, {"type": "node", "id": 8888677352, "lat": 21.5760196, "lon": 39.1466013, "tags": {"air_conditioning": "yes", "amenity": "cafe", "brand": "Starbucks", "brand:wikidata": "Q37158", "brand:wikipedia": "en:Starbucks", "cuisine": "coffee_shop", "internet_access": "yes", "internet_access:fee": "no", "name": "Starbucks", "official_name": "Starbucks Coffee", "opening_hours": "Mo-Su 06:30-00:30", "outdoor_seating": "no", "payment:cash": "yes", "payment:debit_cards": "yes", "phone": "+966122617061", "takeaway": "yes", "website": "https://locations.starbucks.sa"}}, {"type": "node", "id": 8888722121, "lat": 21.5885885, "lon": 39.1315844, "tags": {"air_conditioning": "yes", "amenity": "cafe", "brand": "\u0633\u062a\u0627\u0631\u0628\u0643\u0633", "brand:ar": "\u0633\u062a\u0627\u0631\u0628\u0643\u0633", "brand:en": "Starbucks", "brand:wikidata": "Q37158", "brand:wikipedia": "en:Starbucks", "cuisine": "coffee_shop", "internet_access": "wlan", "internet_access:fee": "no", "name": "\u0633\u062a\u0627\u0631\u0628\u0643\u0633", "name:ar": "\u0633\u062a\u0627\u0631\u0628\u0643\u0633", "name:en": "Starbucks", "official_name": "\u0633\u062a\u0627\u0631\u0628\u0643\u0633 \u0643\u0627\u0641\u064a\u0629", "official_name:ar": "\u0633\u062a\u0627\u0631\u0628\u0643\u0633 \u0643\u0627\u0641\u064a\u0629", "official_name:en": "Starbucks Coffee", "opening_hours": "Mo-Su 06:30-00:30", "outdoor_seating": "yes", "payment:cash": "yes", "payment:debit_cards": "yes", "phone": "+966122617584", "takeaway": "yes", "website": "https://locations.starbucks.sa"}}, {"type": "node", "id": 8888723621, "lat": 21.6145073, "lon": 39.18834, "tags": {"air_conditioning": "yes", "amenity": "cafe", "brand": "Starbucks", "brand:wikidata": "Q37158", "brand:wikipedia": "en:Starbucks", "cuisine": "coffee_shop", "internet_access": "wlan", "internet_access:fee": "no", "name": "Starbucks", "official_name": "Starbucks Coffee", "opening_hours": "Mo-Su 06:030-00:30", "outdoor_seating": "no", "payment:cash": "yes", "payment:debit_cards": "yes", "phone": "+966115101443", "takeaway": "yes", "website": "https://locations.starbucks.sa"}}, {"type": "node", "id": 8890639535, "lat": 21.5606669, "lon": 39.1843762, "tags": {"air_conditioning": "yes", "amenity": "cafe", "brand": "\u0633\u062a\u0627\u0631\u0628\u0643\u0633", "brand:ar": "\u0633\u062a\u0627\u0631\u0628\u0643\u0633", "brand:en": "Starbucks", "brand:wikidata": "Q37158", "brand:wikipedia": "en:Starbucks", "cuisine": "coffee_shop", "internet_access": "wlan", "internet_access:fee": "no", "name": "\u0633\u062a\u0627\u0631\u0628\u0643\u0633", "name:ar": "\u0633\u062a\u0627\u0631\u0628\u0643\u0633", "name:en": "Starbucks", "official_name": "\u0633\u062a\u0627\u0631\u0628\u0643\u0633 \u0643\u0627\u0641\u064a\u0629", "official_name:ar": "\u0633\u062a\u0627\u0631\u0628\u0643\u0633 \u0643\u0627\u0641\u064a\u0629", "official_name:en": "Starbucks Coffee", "opening_hours": "Mo-Su 06:30-00:030", "payment:cash": "yes", "payment:debit_cards": "yes", "phone": "+966122617079", "takeaway": "yes", "website": "https://locations.starbucks.sa"}}, {"type": "node", "id": 8890649041, "lat": 21.5768392, "lon": 39.1091898, "tags": {"air_conditioning": "yes", "amenity": "cafe", "brand": "Starbucks", "brand:wikidata": "Q37158", "brand:wikipedia": "en:Starbucks", "cuisine": "coffee_shop", "internet_access": "wlan", "name": "Starbucks", "official_name": "Starbucks Coffee", "opening_hours": "Mo-Su 06:30-1:00", "outdoor_seating": "no", "payment:cash": "yes", "payment:debit_cards": "yes", "phone": "+966920002482", "takeaway": "yes", "website": "https://www.starbucksforyouthksa.com/"}}, {"type": "node", "id": 8890652357, "lat": 21.5389585, "lon": 39.1764712, "tags": {"air_conditioning": "yes", "amenity": "cafe", "brand": "\u0633\u062a\u0627\u0631\u0628\u0643\u0633", "brand:ar": "\u0633\u062a\u0627\u0631\u0628\u0643\u0633", "brand:en": "Starbucks", "brand:wikidata": "Q37158", "brand:wikipedia": "en:Starbucks", "cuisine": "coffee_shop", "internet_access": "wlan", "internet_access:fee": "no", "name": "\u0633\u062a\u0627\u0631\u0628\u0643\u0633", "name:ar": "\u0633\u062a\u0627\u0631\u0628\u0643\u0633", "name:en": "Starbucks", "official_name": "\u0633\u062a\u0627\u0631\u0628\u0643\u0633 \u0643\u0627\u0641\u064a\u0629", "official_name:ar": "\u0633\u062a\u0627\u0631\u0628\u0643\u0633 \u0643\u0627\u0641\u064a\u0629", "official_name:en": "Starbucks Coffee", "opening_hours": "Mo-Su 06:30-00:30", "outdoor_seating": "yes", "payment:cash": "yes", "payment:debit_cards": "yes", "phone": "+966122617628", "takeaway": "yes", "website": "https://locations.starbucks.sa"}}, {"type": "node", "id": 8890661328, "lat": 21.5679338, "lon": 39.1110967, "tags": {"amenity": "cafe", "brand": "Starbucks", "brand:wikidata": "Q37158", "brand:wikipedia": "en:Starbucks", "cuisine": "coffee_shop", "internet_access": "wlan", "name": "Starbucks", "official_name": "Starbucks Coffee", "opening_hours": "Mo-Fr 12:30-14:00", "phone": "+966920002482", "takeaway": "yes"}}, {"type": "node", "id": 8890662811, "lat": 21.5761505, "lon": 39.150948, "tags": {"air_conditioning": "yes", "amenity": "cafe", "brand": "Starbucks", "brand:wikidata": "Q37158", "brand:wikipedia": "en:Starbucks", "cuisine": "coffee_shop", "internet_access": "wlan", "internet_access:fee": "no", "name": "Starbucks", "official_name": "Starbucks Coffee", "opening_hours": "Mo-Su 06:30-00:30", "outdoor_seating": "no", "payment:cash": "yes", "payment:debit_cards": "yes", "phone": "+966122617063", "takeaway": "yes", "website": "https://locations.starbucks.sa"}}, {"type": "node", "id": 8890668947, "lat": 21.549799, "lon": 39.1474634, "tags": {"amenity": "cafe", "brand": "Starbucks", "brand:wikidata": "Q37158", "brand:wikipedia": "en:Starbucks", "cuisine": "coffee_shop", "internet_access": "wlan", "internet_access:fee": "no", "name": "Starbucks", "official_name": "Starbucks Coffee", "opening_hours": "Mo-Su 08:00-23:30", "payment:cash": "yes", "payment:debit_cards": "yes", "phone": "+966122634608", "takeaway": "yes", "website": "https://locations.starbucks.sa"}}, {"type": "node", "id": 8890671318, "lat": 21.5534876, "lon": 39.1676441, "tags": {"air_conditioning": "yes", "amenity": "cafe", "brand": "\u0633\u062a\u0627\u0631\u0628\u0643\u0633", "brand:ar": "\u0633\u062a\u0627\u0631\u0628\u0643\u0633", "brand:en": "Starbucks", "brand:wikidata": "Q37158", "brand:wikipedia": "en:Starbucks", "cuisine": "coffee_shop", "name": "\u0633\u062a\u0627\u0631\u0628\u0643\u0633", "name:ar": "\u0633\u062a\u0627\u0631\u0628\u0643\u0633", "name:en": "Starbucks", "official_name": "\u0633\u062a\u0627\u0631\u0628\u0643\u0633 \u0643\u0627\u0641\u064a\u0629", "official_name:ar": "\u0633\u062a\u0627\u0631\u0628\u0643\u0633 \u0643\u0627\u0641\u064a\u0629", "official_name:en": "Starbucks Coffee", "opening_hours": "Mo-Su 06:30-00:30", "payment:cash": "yes", "payment:debit_cards": "yes", "phone": "+966122617045", "takeaway": "yes", "website": "https://locations.starbucks.sa"}}, {"type": "node", "id": 8890698460, "lat": 21.5476969, "lon": 39.1894161, "tags": {"air_conditioning": "yes", "amenity": "cafe", "brand": "Starbucks", "brand:wikidata": "Q37158", "brand:wikipedia": "en:Starbucks", "cuisine": "coffee_shop", "drive_through": "yes", "internet_access": "yes", "internet_access:fee": "no", "name": "Starbucks", "official_name": "Starbucks Coffee", "opening_hours": "24/7", "payment:cash": "yes", "payment:debit_cards": "yes", "takeaway": "yes"}}, {"type": "node", "id": 8890703127, "lat": 21.5968346, "lon": 39.2494442, "tags": {"air_conditioning": "yes", "amenity": "cafe", "brand": "\u0633\u062a\u0627\u0631\u0628\u0643\u0633", "brand:ar": "\u0633\u062a\u0627\u0631\u0628\u0643\u0633", "brand:en": "Starbucks", "brand:wikidata": "Q37158", "brand:wikipedia": "ar:\u0633\u062a\u0627\u0631\u0628\u0643\u0633", "cuisine": "coffee_shop", "drive_through": "yes", "internet_access": "wlan", "internet_access:fee": "no", "name": "\u0633\u062a\u0627\u0631\u0628\u0643\u0633", "name:ar": "\u0633\u062a\u0627\u0631\u0628\u0643\u0633", "name:en": "Starbucks", "official_name": "\u0633\u062a\u0627\u0631\u0628\u0643\u0633 \u0643\u0627\u0641\u064a\u0629", "official_name:ar": "\u0633\u062a\u0627\u0631\u0628\u0643\u0633 \u0643\u0627\u0641\u064a\u0629", "official_name:en": "Starbucks Coffee", "opening_hours": "24/7", "outdoor_seating": "no", "payment:cash": "yes", "payment:debit_cards": "yes", "takeaway": "yes"}}, {"type": "node", "id": 8890806867, "lat": 21.61442, "lon": 39.21136, "tags": {"addr:city": "Jeddah", "addr:street": "\u0639\u0628\u062f\u0627\u0644\u0631\u062d\u0645\u0646 \u0627\u0644\u062e\u0632\u0627\u0639\u064a", "amenity": "cafe", "cuisine": "coffee_shop;dessert", "internet_access": "wlan", "internet_access:fee": "customers", "name": "\u0643\u0631\u064a\u0628 \u0648 \u0648\u0627\u0641\u0644", "name:ar": "\u0643\u0631\u064a\u0628 \u0648 \u0648\u0627\u0641\u0644", "name:en": "Crepe and Waffle", "opening_hours": "16:00 - 02:30", "outdoor_seating": "no"}}, {"type": "node", "id": 8890806868, "lat": 21.552687, "lon": 39.2470562, "tags": {"addr:city": "Jeddah", "addr:street": "\u0627\u0633\u0627\u0645\u0629 \u0628\u0646 \u0632\u064a\u062f \u0627\u0644\u0644\u064a\u062b\u064a", "amenity": "cafe", "cuisine": "coffee_shop;dessert", "internet_access": "wlan", "internet_access:fee": "customers", "name": "\u0643\u0631\u064a\u0628 \u0648 \u0648\u0627\u0641\u0644", "name:ar": "\u0643\u0631\u064a\u0628 \u0648 \u0648\u0627\u0641\u0644", "name:en": "Crepe and Waffle", "opening_hours": "16:00 - 02:30", "outdoor_seating": "no"}}, {"type": "node", "id": 8919609491, "lat": 21.6013229, "lon": 39.1712084, "tags": {"amenity": "cafe", "cuisine": "coffee_shop", "name": "\u0628\u0627\u0631\u0646\u0632", "name:en": "Barn's", "opening_hours": "24/7", "payment:cash": "yes", "payment:debit_cards": "yes", "phone": "+966920006843", "website": "https://barns.com.sa/"}}, {"type": "node", "id": 9006874837, "lat": 21.6025468, "lon": 39.1424512, "tags": {"addr:city": "jeddah", "addr:housenumber": "3026", "addr:postcode": "23525", "addr:street": "\u0634\u0627\u0631\u0639 \u0627\u0644\u0623\u0645\u064a\u0631 \u0633\u0644\u0637\u0627\u0646", "air_conditioning": "yes", "amenity": "cafe", "cuisine": "coffee_shop;roastery", "description": "hemi cafe & roastery", "email": "info@hemi.coffee", "internet_access": "wlan", "internet_access:fee": "no", "internet_access:ssid": "hemi", "name": "\u0645\u0642\u0647\u0649 \u0647\u064a\u0645\u064a", "name:ar": "\u0645\u0642\u0647\u0649 \u0647\u064a\u0645\u064a", "name:en": "Cafe Hemi", "opening_hours": "Sa-Mo 06:30-01:00; Fr 13:00-01:00", "phone": "+966541124962", "website": "https://hemi.coffee/"}}, {"type": "node", "id": 9006874842, "lat": 21.6026273, "lon": 39.1424524}, {"type": "node", "id": 9006874843, "lat": 21.6025409, "lon": 39.1421234}, {"type": "node", "id": 9006874844, "lat": 21.60223, "lon": 39.1422182}, {"type": "node", "id": 9006874845, "lat": 21.6023247, "lon": 39.1425687}, {"type": "node", "id": 9117734071, "lat": 21.6118136, "lon": 39.1181497, "tags": {"addr:city": "Jeddah", "addr:housenumber": "23514", "addr:postcode": "23514", "addr:street": "King Abdulaziz Street", "air_conditioning": "yes", "amenity": "cafe", "cuisine": "coffee_shop", "internet_access": "yes", "internet_access:fee": "no", "name": "50 Gram Cafe", "opening_hours": "sa-fr 08:00-02:00", "outdoor_seating": "yes", "phone": "+966569892042", "website": "https://instagram.com/fiftygramsa"}}, {"type": "node", "id": 9235321078, "lat": 21.5848315, "lon": 39.1434779, "tags": {"addr:city": "Jeddah", "addr:housenumber": "7402", "addr:postcode": "23425", "addr:street": "\u0634\u0627\u0631\u0639 \u0627\u0644\u0627\u0645\u064a\u0631 \u0633\u0644\u0637\u0627\u0646", "amenity": "restaurant", "cuisine": "international", "internet_access": "wlan", "internet_access:fee": "no", "name": "Gamu Garden Restaurant and Coffee", "opening_hours": "Sa-We 17:00-01:00; Th-Fr 17:00-02:00", "outdoor_seating": "yes", "phone": "+966504706590"}}, {"type": "node", "id": 9473450942, "lat": 21.5867638, "lon": 39.1575781, "tags": {"addr:city": "Jeddah", "addr:housenumber": "77", "addr:postcode": "7286", "addr:street": "Mawakib An Nasr", "amenity": "restaurant", "cuisine": "seafood;regional;italian", "diet:fish": "yes", "diet:halal": "yes", "name": "\u0639\u0645\u0648 \u0646\u0628\u064a\u0644 \u0644\u0644\u0645\u0623\u0643\u0648\u0644\u0627\u062a \u0627\u0644\u0628\u062d\u0631\u064a\u0629", "name:en": "Amo Nabil Restaurant For Seafood", "opening_hours": "24/7", "phone": "+9665330000985", "website": "Amonabil.Business.Site"}}, {"type": "node", "id": 9628700984, "lat": 21.6228676, "lon": 39.1081936, "tags": {"addr:city": "Jeddah", "addr:postcode": "23611", "addr:street": "Corniche Road", "amenity": "restaurant", "cuisine": "chinese", "name": "Shang Palace", "opening_hours": "Mo-Su 16:00-01:00", "phone": "+966 12 696 8888", "website": "https://www.shangpalaceksa.com/"}}, {"type": "node", "id": 9628805917, "lat": 21.6228643, "lon": 39.107728, "tags": {"addr:city": "Jeddah", "addr:postcode": "23611", "addr:street": "Corniche Road", "amenity": "cafe", "internet_access": "wlan", "name": "COPA", "opening_hours": "Daily 9:00 AM - 2:00 AM", "outdoor_seating": "no", "phone": "+966 12 696 8888", "website": "https://www.copajeddah.com/"}}, {"type": "node", "id": 9665437704, "lat": 21.699561, "lon": 39.1051823, "tags": {"amenity": "cafe", "name": "Malaga Specialty Coffee - \u0645\u0627\u0644\u0642\u0647 \u0642\u0647\u0648\u0629 \u0645\u062e\u062a\u0635\u0647"}}, {"type": "node", "id": 9665437713, "lat": 21.7000761, "lon": 39.1048036, "tags": {"amenity": "cafe", "name": "Neighborhood cafe"}}, {"type": "node", "id": 9665437716, "lat": 21.7014972, "lon": 39.1050424, "tags": {"amenity": "restaurant", "name": "Marmalade"}}, {"type": "node", "id": 9665441720, "lat": 21.7020283, "lon": 39.1053149, "tags": {"amenity": "cafe", "name": "Starbucks", "not:brand:wikidata": "Q37158"}}, {"type": "node", "id": 9739594047, "lat": 21.670976, "lon": 39.1708883, "tags": {"amenity": "restaurant", "name:en": "Alfursan Lounge"}}, {"type": "node", "id": 9739615214, "lat": 21.5486247, "lon": 39.1639388, "tags": {"addr:city": "\u062c\u062f\u0629", "addr:postcode": "23326", "addr:street": "\u0634\u0627\u0631\u0639 \u0627\u0644\u062a\u062d\u0644\u064a\u0629", "amenity": "cafe", "contact:instagram": "https://instagram.com/ma_cafeksa?igshid=7t1dsfh40ujc", "cuisine": "coffee_shop", "name": "\u0623\u064a \u0623\u0645 \u0643\u0648\u0641\u064a", "name:ar": "\u0623\u064a \u0623\u0645 \u0643\u0648\u0641\u064a", "name:en": "im coffee", "opening_hours": "Mo-We 06:20-02:00; Th 24/7; Fr 13:00-06:00; Sa-Su 06:00-02:00", "phone": "+966538883055", "website": "https://linktr.ee/macafe"}}, {"type": "node", "id": 9757907645, "lat": 21.6268475, "lon": 39.1353485, "tags": {"addr:city": "jeddah", "addr:housenumber": "7312", "addr:postcode": "23615", "addr:street": "\u0634\u0627\u0631\u0639 \u0627\u0644\u0627\u0645\u064a\u0631 \u0633\u0644\u0637\u0627\u0646", "amenity": "restaurant", "cuisine": "american;arabic;fast_food;beef;chicken", "delivery": "yes", "diet:halal": "yes", "diet:meat": "yes", "image": "https://drive.google.com/file/d/1p_J2491yigiyx6bdWe9fCp76g0adjiMv/view?usp=sharing", "name": "Habrat Restaurant", "opening_hours": "Sa-We 13:00-12:30; Th 13:00-01:30, Fr 15:00-01:30", "payment:cash": "yes", "payment:contactless": "yes", "payment:mada": "yes", "payment:mastercard": "yes", "payment:visa": "yes", "phone": "+966554554394", "source:image": "https://drive.google.com/file/d/1p_J2491yigiyx6bdWe9fCp76g0adjiMv/view?usp=sharing", "website": "https://www.instagram.com/habrat.sa"}}, {"type": "node", "id": 9893168726, "lat": 21.762442, "lon": 39.2002492, "tags": {"addr:city": "jeddah", "addr:housenumber": "4352", "addr:postcode": "23761", "addr:street": "Al Qasim Ibn Ummaiyah", "amenity": "cafe", "cuisine": "coffee_shop", "internet_access": "yes", "internet_access:fee": "no", "name": "cafeeiros", "opening_hours": "Mo-Su 08:00-1:00", "outdoor_seating": "no", "phone": "+966554702773", "website": "https://cafeeirosksa.com/"}}, {"type": "node", "id": 9943552989, "lat": 21.7139274, "lon": 39.0975146, "tags": {"amenity": "cafe", "cuisine": "coffee_shop", "drive_through": "yes", "name": "Barn's | \u0628\u0627\u0631\u0646\u0632", "opening_hours": "24/7", "outdoor_seating": "no", "payment:cash": "yes", "payment:cashless": "yes", "payment:mada": "yes", "phone": "920006843", "website": "https://barns.com.sa/ar"}}, {"type": "node", "id": 9949116822, "lat": 21.5591987, "lon": 39.1131844, "tags": {"addr:street": "\u0637\u0631\u064a\u0642 \u0627\u0644\u0643\u0648\u0631\u0646\u064a\u0634 \u0627\u0644\u0634\u0645\u0627\u0644\u064a", "amenity": "cafe", "brand": "\u062f\u0627\u0646\u0643\u0646", "brand:ar": "\u062f\u0627\u0646\u0643\u0646", "brand:en": "Dunkin'", "brand:wikidata": "Q847743", "cuisine": "donut;coffee_shop", "drive_through": "no", "name": "\u062f\u0627\u0646\u0643\u0646 \u062f\u0648\u0646\u062a\u0633", "name:ar": "\u062f\u0627\u0646\u0643\u0646 \u062f\u0648\u0646\u062a\u0633", "name:en": "Dunkin donuts", "opening_hours": "24/7", "outdoor_seating": "no", "payment:cash": "yes", "payment:mada": "yes", "phone": "800 128 8999", "takeaway": "yes", "website": "http://dunkindonuts.sa"}}, {"type": "node", "id": 9953414174, "lat": 21.5895349, "lon": 39.1696198, "tags": {"amenity": "cafe", "cuisine": "coffee_shop;dessert", "name": "004 cafe", "opening_hours": "Mo-Su 07:00-01:00", "outdoor_seating": "no", "payment:cash": "yes", "payment:mada": "yes"}}, {"type": "node", "id": 9967577597, "lat": 21.8919019, "lon": 39.2561986, "tags": {"amenity": "cafe", "cuisine": "coffee;sandwich;juice", "name": "\u0645\u0648\u0643\u0627\u062a\u0634\u064a\u0646\u0648", "name:en": "Mochachino-(KSA)", "opening_hours": "Su-Th 08:00-15:00", "outdoor_seating": "no"}}, {"type": "node", "id": 9967577598, "lat": 21.8922929, "lon": 39.2547532, "tags": {"air_conditioning": "no", "amenity": "cafe", "cuisine": "sandwich;juice;coffee", "internet_access": "no", "name": "Emmy's | \u0625\u064a\u0645\u064a\u0632", "opening_hours": "Su-Th 08:00-15:00", "outdoor_seating": "no", "website": "https://l.instagram.com/?u=http%3A%2F%2Femmysksa.com%2F&e=ATNjMP3V54mm9rhWS3Mz6yz_7iJ0XIuD4W8LBYS6L58zzyFlK6X-5jJ9-c-ylmUUTkIHrRoC2UnpmZDf&s=1"}}, {"type": "node", "id": 9980072251, "lat": 21.8214228, "lon": 39.1745074, "tags": {"amenity": "cafe", "cuisine": "cafe", "name": "\u0645\u0648\u0643\u0627\u062a\u0634\u064a\u0646\u0648", "outdoor_seating": "no", "payment:cash": "yes", "payment:mada": "yes"}}, {"type": "node", "id": 9980103102, "lat": 21.8211437, "lon": 39.1740805, "tags": {"amenity": "cafe", "cuisine": "cafe", "name": "\u0623\u063a\u0627\u062f\u064a\u0631 | AGADEER", "payment:cash": "yes", "payment:mada": "yes"}}, {"type": "node", "id": 10034399242, "lat": 21.7357506, "lon": 39.2135329, "tags": {"addr:city": "\u062c\u062f\u0629", "addr:postcode": "23743", "addr:street": "\u064a\u0627\u0633\u0631 \u0628\u0646 \u0639\u0627\u0645\u0631 \u0627\u0644\u0643\u0646\u0627\u0646\u064a", "amenity": "cafe", "cuisine": "\u0645\u0642\u0647\u0649_\u0644\u0634\u0631\u0628_\u0627\u0644\u0634\u0627\u0647\u064a_\u0648\u0627\u0644\u0642\u0647\u0648\u0629_\u0627\u0644\u0639\u0631\u0628\u064a\u0629", "name": "\u0634\u0627\u0647\u064a \u0627\u0644\u0634\u0647\u0631\u0627\u0646\u064a", "opening_hours": "-01:0016:00", "outdoor_seating": "yes", "phone": "0555768470"}}, {"type": "node", "id": 10041484899, "lat": 21.5877536, "lon": 39.1708152, "tags": {"amenity": "cafe", "cuisine": "cafe;coffee_shop", "name": "show cafe"}}, {"type": "node", "id": 10041501552, "lat": 21.8205477, "lon": 39.1710371, "tags": {"air_conditioning": "yes", "amenity": "cafe", "cuisine": "coffee_shop;coffee;cafe;dessert", "internet_access": "yes", "internet_access:fee": "customers", "name": "\u0628\u0627\u064a\u0648\u0646\u064a\u0631 \u0643\u0627\u0641\u064a\u0647", "opening_hours": "Mo-Su 09:00-00:00", "outdoor_seating": "yes", "payment:cash": "yes", "payment:mada": "yes"}}, {"type": "node", "id": 10041502849, "lat": 21.5973718, "lon": 39.1382507, "tags": {"amenity": "cafe", "cuisine": "cafe;coffee_shop;coffee;dessert", "email": "info@iawakecafe.com", "name": "Awake Cafe", "opening_hours": "Mo-Su 08:00-02:00", "payment:cash": "yes", "payment:mada": "yes", "phone": "0556601744"}}, {"type": "node", "id": 10097090369, "lat": 21.6230832, "lon": 39.1084814, "tags": {"addr:city": "Jeddah", "addr:postcode": "23611", "addr:street": "Corniche Road", "amenity": "restaurant", "cuisine": "international", "diet:meat": "yes", "diet:organic": "yes", "diet:vegetarian": "yes", "email": "info@kaiaksa.com", "name": "Kaia", "opening_hours": "Tu-Sa 18:00-02:00", "outdoor_seating": "yes", "payment:cash": "yes", "payment:credit_cards": "yes", "payment:debit_cards": "yes", "phone": "+966 12 696 8888", "reservation": "required", "website": "https://www.kaiajeddah.com/"}}, {"type": "node", "id": 10203703771, "lat": 21.6150204, "lon": 39.1790251}, {"type": "node", "id": 10203703772, "lat": 21.6151061, "lon": 39.1794545}, {"type": "node", "id": 10539248310, "lat": 21.5749196, "lon": 39.1773242, "tags": {"amenity": "restaurant", "cuisine": "filipino", "name:en": "Biskosto de Arabia"}}, {"type": "node", "id": 10578998062, "lat": 21.6230896, "lon": 39.108242, "tags": {"addr:city": "Jeddah", "addr:postcode": "23611", "addr:street": "Corniche Road", "amenity": "restaurant", "bar": "yes", "capacity": "213", "contact:instagram": "https://instagram.com/niyyali.jeddah", "cuisine": "lebanese", "diet:gluten_free": "yes", "diet:halal": "yes", "diet:vegan": "yes", "highchair": "yes", "internet_access": "wlan", "name": "Niyyali", "opening_hours": "Fr-Sa 13:00-01:00, Su-Th 16:00-01:00", "outdoor_seating": "yes", "payment:american_express": "yes", "payment:cash": "yes", "payment:debit_cards": "yes", "payment:mastercard": "yes", "payment:paypal": "yes", "payment:visa": "yes", "payment:visa_electron": "yes", "phone": "+966 12 696 8888", "reservation": "yes", "toilets": "yes", "website": "https://niyyali.com/", "wheelchair": "yes"}}, {"type": "node", "id": 10587986950, "lat": 21.6134675, "lon": 39.1562928, "tags": {"amenity": "cafe", "name": "\u0639\u0634\u0642 \u0644\u0627\u0648\u0646\u062c", "phone": "+966544131167"}}, {"type": "node", "id": 10596350818, "lat": 21.6230379, "lon": 39.108111, "tags": {"addr:city": "Jeddah", "addr:postcode": "23611", "addr:street": "Corniche Road", "amenity": "restaurant", "contact:instagram": "https://www.instagram.com/Thewaterfrontkitchen/", "cuisine": "international", "diet:vegan": "yes", "name": "The Waterfront Kitchen", "opening_hours": "Mo-Su 07:30-23:30", "outdoor_seating": "no", "phone": "+966 12 696 8888", "website": "https://www.thewaterfrontkitchen.com/"}}, {"type": "node", "id": 10606303414, "lat": 21.5357566, "lon": 39.1903594, "tags": {"amenity": "restaurant", "cuisine": "seafood", "name": "\u0645\u0637\u0627\u0639\u0645 \u062a\u0627\u062c \u0627\u0644\u0641\u062e\u0627\u0631", "name:en": "Taj Alfakhar Restaurant", "phone": "+96656662864", "twitter": "https://twitter.com/tajalfakhaar"}}, {"type": "node", "id": 10606303415, "lat": 21.5436672, "lon": 39.2056065, "tags": {"amenity": "restaurant", "cuisine": "cafe;tea", "email": "sugerlounge1@gmail.com", "name": "\u0633\u0643\u0631 \u0644\u0627\u0648\u0646\u062c", "name:en": "Sukar Lounge"}}, {"type": "node", "id": 10611554293, "lat": 21.5486681, "lon": 39.1640574, "tags": {"amenity": "cafe", "name": "\u0627\u0643\u064a\u0628\u0627 \u0643\u0627\u0641\u064a\u0647", "name:en": "Akiba Cafe", "phone": "+966551328269", "website": "https://www.akibastore.net/"}}, {"type": "node", "id": 10611584813, "lat": 21.5617194, "lon": 39.1605842, "tags": {"amenity": "restaurant", "cuisine": "lebanese;arab", "name": "\u0645\u0637\u0639\u0645 \u0643\u0627\u0631\u0645\u0627", "name:en": "Karma Restaurant", "phone": "+966549595444"}}, {"type": "node", "id": 10807921405, "lat": 21.5645331, "lon": 39.1119195, "tags": {"amenity": "restaurant", "name:en": "Al Nakheel Restaurant"}}, {"type": "node", "id": 10841205227, "lat": 21.5369344, "lon": 39.1930257, "tags": {"amenity": "cafe", "name": "\u0643\u0627\u0641\u064a\u0629 \u0645\u064a\u0631\u0627"}}, {"type": "node", "id": 10886888301, "lat": 21.5914258, "lon": 39.1427604, "tags": {"addr:city": "\u062c\u062f\u0629", "addr:postcode": "23425", "addr:street": "\u0627\u0631\u064a\u062f \u0628\u0646 \u0645\u062d\u0634\u064a", "amenity": "restaurant", "cuisine": "regional;sandwich", "diet:local": "yes", "name": "Takalil \u062a\u0643\u0627\u0644\u064a\u0644", "phone": "+966533647845"}}, {"type": "node", "id": 11005547759, "lat": 21.5598001, "lon": 39.1530121, "tags": {"amenity": "cafe", "name": "\u0631\u064a\u062f \u0645\u0642 \u0643\u0627\u0641\u064a\u0647", "name:ar": "\u0631\u064a\u062f \u0645\u0642 \u0643\u0627\u0641\u064a\u0647", "name:en": "Red Mug Caffe", "phone": "+966541994085", "website": "https://www.redmugcaffe.com/"}}, {"type": "node", "id": 11005547760, "lat": 21.5538143, "lon": 39.1431021, "tags": {"amenity": "restaurant", "email": "nawa.lounge1@gmail.com", "name": "Nawa Patio", "name:en": "Nawa Patio", "phone": "+966541414908", "twitter": "https://twitter.com/nawapatio"}}, {"type": "node", "id": 11005547761, "lat": 21.5537214, "lon": 39.143115, "tags": {"amenity": "cafe", "cuisine": "coffee_shop", "name": "\u0644\u0648\u0643\u064a\u0634\u0646 \u0643\u0627\u0641\u064a\u0647", "name:ar": "\u0644\u0648\u0643\u064a\u0634\u0646 \u0643\u0627\u0641\u064a\u0647", "name:en": "Location Coffee", "phone": "+966544589911"}}, {"type": "node", "id": 11005547765, "lat": 21.56663, "lon": 39.1442776}, {"type": "node", "id": 11005547766, "lat": 21.5665989, "lon": 39.1442769}, {"type": "node", "id": 11005547767, "lat": 21.5665982, "lon": 39.1443186}, {"type": "node", "id": 11005547768, "lat": 21.5666287, "lon": 39.1443194}, {"type": "node", "id": 11005547769, "lat": 21.5731606, "lon": 39.1557346, "tags": {"amenity": "restaurant", "diet:vegan": "yes", "instagram": "https://instagram.com/moonshell_sa/", "name": "Moon Shell", "name:en": "Moon Shell"}}, {"type": "node", "id": 11005547770, "lat": 21.5684785, "lon": 39.1651918, "tags": {"amenity": "cafe", "name": "LITE AND DELIGHT", "name:en": "LITE AND DELIGHT", "phone": "+966550747072"}}, {"type": "node", "id": 11005547783, "lat": 21.5677078, "lon": 39.1590276, "tags": {"amenity": "cafe", "cuisine": "coffee_shop", "instagram": "https://www.instagram.com/rilassato0/", "name": "\u0631\u064a\u0644\u0627\u0633\u0627\u062a\u0648 \u0642\u0647\u0648\u0629 \u0645\u062e\u062a\u0635\u0629", "name:ar": "\u0631\u064a\u0644\u0627\u0633\u0627\u062a\u0648 \u0642\u0647\u0648\u0629 \u0645\u062e\u062a\u0635\u0629", "opening_hours": "24/7"}}, {"type": "node", "id": 11005547784, "lat": 21.5896436, "lon": 39.2375819, "tags": {"amenity": "restaurant", "cuisine": "arab", "name": "\u0631\u0627\u0636\u064a \u0647\u0644\u0627\u0644", "name:ar": "\u0631\u0627\u0636\u064a \u0647\u0644\u0627\u0644", "name:en": "Rady Hilal", "phone": "+9660545636513"}}, {"type": "node", "id": 11005547788, "lat": 21.6155758, "lon": 39.1650789, "tags": {"amenity": "cafe", "email": "asphalt.coffee@gmail.com", "instagram": "https://www.instagram.com/asphalt.coffee/", "name": "\u0627\u0633\u0641\u0644\u062a \u0643\u0627\u0641\u064a\u0647", "name:ar": "\u0627\u0633\u0641\u0644\u062a \u0643\u0627\u0641\u064a\u0647", "name:en": "Asphalt Coffe", "phone": "+966501987769"}}, {"type": "node", "id": 11005547790, "lat": 21.5834768, "lon": 39.1441741, "tags": {"amenity": "restaurant", "cuisine": "french", "name": "La Grande Maison", "name:fr": "La Grande Maison", "phone": "+966553359777"}}, {"type": "node", "id": 11005547791, "lat": 21.5715332, "lon": 39.1426993, "tags": {"amenity": "cafe", "cuisine": "coffee_shop", "email": "hamzahcaffee@gmail.com", "name": "Hamzah Coffee", "name:en": "Hamzah Coffee", "phone": "+966508505026"}}, {"type": "node", "id": 11005547792, "lat": 21.6119603, "lon": 39.1181383, "tags": {"amenity": "restaurant", "cuisine": "japanese", "name": "Ukiyo By Zn", "name:en": "Ukiyo By Zn", "phone": "+966530066014", "website": "https://ukiyorestaurant.com/", "website:menu": "https://ukiyorestaurant.com/assets/pdf/ukiyo-menu.pdf"}}, {"type": "node", "id": 11005547793, "lat": 21.6157251, "lon": 39.1214076, "tags": {"amenity": "cafe", "cuisine": "coffee_shop", "name": "Elate Coffee"}}, {"type": "node", "id": 11005547800, "lat": 21.6094193, "lon": 39.12774, "tags": {"amenity": "cafe", "cuisine": "coffee_shop", "email": "crepeccinocafe@gmail.com", "instagram": "https://www.instagram.com/crepeccinocafe/", "name": "Crepeccino", "phone": "+966554230106"}}, {"type": "node", "id": 11005547801, "lat": 21.6071619, "lon": 39.1073494, "tags": {"amenity": "cafe", "cuisine": "coffee_shop", "instagram": "https://www.instagram.com/rilassato0/", "name": "Rilassato Specialty Coffee", "opening_hours": "24/7"}}, {"type": "node", "id": 11005547802, "lat": 21.61555, "lon": 39.108058, "tags": {"amenity": "cafe", "cuisine": "coffee_shop", "name": "\u0643\u0641\u064a \u0634\u0648\u0628 \u0644\u064a\u0627\u0644\u064a \u0627\u0644\u0623\u0635\u062f\u0642\u0627\u0621"}}, {"type": "node", "id": 11005590307, "lat": 21.6734025, "lon": 39.1209699, "tags": {"amenity": "restaurant", "name": "\u0644\u0627\u0648\u0646\u062c \u0627\u0644\u0641\u0631\u0627\u0634\u0627\u062a", "name:ar": "\u0644\u0627\u0648\u0646\u062c \u0627\u0644\u0641\u0631\u0627\u0634\u0627\u062a", "name:en": "Butterflies Lounge", "phone": "+966566684441", "website": "https://butterflies.yallaqrcodes.com/"}}, {"type": "node", "id": 11005590311, "lat": 21.594371, "lon": 39.1471232, "tags": {"amenity": "restaurant", "cuisine": "indian", "name": "\u0634\u064a\u0641\u0632 \u0628\u0631\u064a\u0627\u0646\u064a", "name:ar": "\u0634\u064a\u0641\u0632 \u0628\u0631\u064a\u0627\u0646\u064a", "name:en": "Chef's biryani", "phone": "+966126699669"}}, {"type": "node", "id": 11005590322, "lat": 21.5787024, "lon": 39.110417, "tags": {"amenity": "cafe", "cuisine": "coffee_shop", "email": "Info@ancestry.sa", "name": "\u0623\u0646\u0633\u064a\u0633\u062a\u0631\u064a", "name:ar": "\u0623\u0646\u0633\u064a\u0633\u062a\u0631\u064a", "name:en": "Ancestry Cafe & Roastery", "phone": "+966530132178", "twitter": "https://twitter.com/ancestrysa", "website": "https://ancestry.sa/"}}, {"type": "node", "id": 11005590323, "lat": 21.572896, "lon": 39.1172434, "tags": {"amenity": "cafe", "name": "\u0645\u062e\u062a\u0644\u0641 90 \u0643\u0627\u0641\u064a\u0629", "opening_hours": "24/7", "phone": "+966555382003"}}, {"type": "node", "id": 11005590325, "lat": 21.6257045, "lon": 39.107157, "tags": {"amenity": "cafe", "cuisine": "arab;coffee", "email": "info@teladcafe.com", "name": "\u062a\u0644\u0627\u062f \u0643\u0627\u0641\u064a\u0647", "name:ar": "\u062a\u0644\u0627\u062f \u0643\u0627\u0641\u064a\u0647", "name:en": "Telad Cafe", "phone": "+966593928078", "website": "https://www.teladcafe.com/"}}, {"type": "node", "id": 11005590328, "lat": 21.7677513, "lon": 39.1018495, "tags": {"amenity": "cafe", "cuisine": "coffee_shop", "name:en": "Universed", "phone": "+966547778045", "website": "https://universedcafe.com/"}}, {"type": "node", "id": 11048651959, "lat": 21.5726539, "lon": 39.1292852, "tags": {"addr:city": "Jeddah", "addr:housenumber": "6157", "addr:postcode": "23424", "addr:street": "Brand, Rd 6157, King Abdull Aziz", "amenity": "restaurant", "cuisine": "lebanese", "name": "Ziyada Toum", "opening_hours": "Mo-Su 17:00-02:00", "phone": "0126559155", "website": "https://www.instagram.com/ziyadatoum/"}}, {"type": "node", "id": 11084066844, "lat": 21.5894256, "lon": 39.1566432, "tags": {"addr:city": "jeddah", "addr:housenumber": "103", "addr:postcode": "23437", "addr:street": "shuja bin wahb", "amenity": "restaurant", "contact:mobile": "0552721682", "cuisine": "indian", "diet:non-vegetarian": "yes", "diet:vegetarian": "yes", "email": "sagaralsalama23@gmail.com", "name": "sagar indian restaurant", "opening_hours": "Mo-Su 11:00 - 2:00", "phone": "0570525974", "website": "www.sagarindianrestaurant.in"}}, {"type": "node", "id": 11135363906, "lat": 21.5928622, "lon": 39.1725842, "tags": {"amenity": "restaurant", "cuisine": "fish", "name": "\u0645\u0637\u0639\u0645 \u0639\u0645\u0648 \u0639\u0644\u064a \u0644\u0644\u0623\u0633\u0645\u0627\u0643 \u0627\u0644\u0637\u0627\u0632\u062c\u0629", "phone": "0533121901;0501045634;0578336269"}}, {"type": "node", "id": 11177403773, "lat": 21.5957656, "lon": 39.2355077, "tags": {"addr:city": "\u062c\u062f\u0629", "addr:housenumber": "\u0648\u0647\u064a\u0628 \u0628\u0646 \u0639\u0645\u064a\u0631", "addr:place": "\u0627\u0644\u0645\u0646\u0627\u0631", "addr:postcode": "23452", "air_conditioning": "yes", "amenity": "cafe", "contact:facebook": "https://www.instagram.com/cuprover/?hl=ar", "cuisine": "coffee_shop", "image": "https://www.google.com/maps/uv?pb=!1s0x15c3d1ce5bc317d5%3A0x6366a6c1cdc40e5d!5z2YPYqCDYsdmI2YHYsSDZhdit2YXYtdipINmIINmC2YfZiNipINmF2K7Yqti12Kk!15sCgIgAQ&imagekey=!1e10!2sAF1QipP8sAy74UYqycwk_02P_s6yNMbjqXS3L0xdd6_x", "internet_access": "yes", "internet_access:fee": "no", "name": "Cup Rover Speciality Coffee", "outdoor_seating": "yes", "payment:cards": "yes", "payment:cash": "yes", "payment:mastercard": "yes", "payment:visa": "yes", "phone": "0500112808", "website": "https://www.cuprover.com/", "website:menu": "https://www.google.com/maps/uv?pb=!1s0x15c3d1ce5bc317d5%3A0x6366a6c1cdc40e5d!5z2YPYqCDYsdmI2YHYsSDZhdit2YXYtdipINmIINmC2YfZiNipINmF2K7Yqti12Kk!15sCgIYIQ&imagekey=!1e10!2sAF1QipObTJiz81uarzrdFXh5SV_ySb8kgzRe_aj5nH3S"}}, {"type": "node", "id": 11191584737, "lat": 21.5977832, "lon": 39.1417841, "tags": {"amenity": "cafe", "drive_through": "only", "name": "Ucoffee", "outdoor_seating": "no"}}, {"type": "node", "id": 11191584738, "lat": 21.5816295, "lon": 39.1300256, "tags": {"amenity": "cafe", "name:en": "Costa coffie"}}, {"type": "node", "id": 11191584739, "lat": 21.5754063, "lon": 39.1427913, "tags": {"amenity": "restaurant", "cuisine": "arab", "name:en": "Abu Said"}}, {"type": "node", "id": 11191584742, "lat": 21.5766884, "lon": 39.1510243, "tags": {"amenity": "restaurant", "cuisine": "chicken"}}, {"type": "node", "id": 11191584746, "lat": 21.5998465, "lon": 39.166867, "tags": {"amenity": "restaurant", "cuisine": "arab", "name": "\u0643\u0627\u0646\u0648\u0646 \u0634\u0627\u0648\u0631\u0645\u0627"}}, {"type": "node", "id": 11191584837, "lat": 21.5983833, "lon": 39.125337, "tags": {"amenity": "cafe", "brand": "\u062a\u064a\u0645 \u0647\u0648\u0631\u062a\u0648\u0646\u0632", "brand:ar": "\u062a\u064a\u0645 \u0647\u0648\u0631\u062a\u0648\u0646\u0632", "brand:en": "Tim Hortons", "brand:wikidata": "Q175106", "cuisine": "coffee_shop", "name": "\u062a\u064a\u0645 \u0647\u0648\u0631\u062a\u0648\u0646\u0632", "name:ar": "\u062a\u064a\u0645 \u0647\u0648\u0631\u062a\u0648\u0646\u0632", "name:en": "Tim Hortons", "takeaway": "yes"}}, {"type": "node", "id": 11191584938, "lat": 21.5915635, "lon": 39.1309626, "tags": {"amenity": "cafe", "name:en": "Barn's"}}, {"type": "node", "id": 11191584944, "lat": 21.5689195, "lon": 39.1816619, "tags": {"amenity": "restaurant", "cuisine": "arab", "name": "\u0637\u0627\u0632\u062c"}}, {"type": "node", "id": 11195044161, "lat": 21.7443373, "lon": 39.1387598, "tags": {"addr:city": "jeddah", "addr:place": "\u0623\u0628\u062d\u0631 \u0627\u0644\u062c\u0646\u0648\u0628\u064a\u0629", "amenity": "cafe", "cuisine": "coffee_shop;roastery", "internet_access": "yes", "internet_access:fee": "no", "name": "Scarlet Cafe and roastery", "opening_hours": "24/7", "outdoor_seating": "yes", "phone": "0555873883"}}, {"type": "node", "id": 11205003501, "lat": 21.5511787, "lon": 39.2828929, "tags": {"addr:city": "\u062c\u062f\u0629", "addr:housenumber": "475", "addr:postcode": "11222", "addr:street": "\u0639\u0641\u0631\u0627\u0621 \u0646\u062c\u064a\u0644", "amenity": "cafe", "branch": "\u0631\u064a\u0643\u0633\u0627 \u0643\u0627\u0641\u064a\u0647", "cuisine": "coffee_shop;ice_cream;cake;pancake", "internet_access": "yes", "internet_access:fee": "no", "name": "\u0631\u064a\u0643\u0633\u0627 \u0643\u0627\u0641\u064a\u0647", "opening_hours": "24/7", "outdoor_seating": "yes", "phone": "0126556555", "website": "https://rexsacafe.com/"}}, {"type": "node", "id": 11207399111, "lat": 21.7569335, "lon": 39.2068434, "tags": {"addr:city": "\u062c\u062f\u0647", "addr:housenumber": "123", "addr:postcode": "11222", "addr:street": "\u0634\u0627\u0631\u0639 \u0639\u0627\u0645\u0631 \u0628\u0646 \u064a\u0627\u0633\u0631 \u0627\u0644\u0643\u0646\u0627\u0646\u064a \u0627\u0644\u0641\u0631\u0639\u064a", "amenity": "cafe", "cuisine": "coffee_shop;dessert;pancake", "internet_access": "no", "name": "\u0631\u064a\u0643\u0633\u0627 \u0643\u0627\u0641\u064a\u0647", "opening_hours": "24/7", "phone": "0126556555", "website": "https://rexsacafe.com/"}}, {"type": "node", "id": 11207399994, "lat": 21.7643328, "lon": 39.221915, "tags": {"addr:city": "\u062c\u062f\u0647", "addr:housenumber": "1233", "addr:postcode": "11222", "addr:street": "\u0634\u0627\u0631\u0639 \u0623\u0645 \u0627\u0644\u0645\u0624\u0645\u0646\u064a\u0646 \u0631\u064a\u062d\u0627\u0646\u0629 \u0628\u0646\u062a \u0632\u064a\u062f", "amenity": "cafe", "cuisine": "coffee_shop;dessert;pancake", "internet_access": "no", "name": "\u0631\u064a\u0643\u0633\u0627 \u0643\u0627\u0641\u064a\u0647", "opening_hours": "24/7", "phone": "0126556555", "website": "https://rexsacafe.com/"}}, {"type": "node", "id": 11274744769, "lat": 21.54765, "lon": 39.23498, "tags": {"addr:housenumber": "5421", "addr:postcode": "23343", "addr:street": "Al Hasan", "amenity": "cafe", "brand": "\u0647\u0627\u0641 \u0645\u0644\u064a\u0648\u0646", "brand:ar": "\u0647\u0627\u0641 \u0645\u0644\u064a\u0648\u0646", "brand:en": "Half Million", "brand:wikidata": "Q108537438", "cuisine": "coffee_shop", "name": "\u0647\u0627\u0641 \u0645\u0644\u064a\u0648\u0646", "name:ar": "\u0647\u0627\u0641 \u0645\u0644\u064a\u0648\u0646", "name:en": "Half Million", "takeaway": "yes", "website": "https://halfm.sa/"}}, {"type": "node", "id": 11355515771, "lat": 21.6578607, "lon": 39.1044618, "tags": {"amenity": "restaurant"}}, {"type": "node", "id": 11355515872, "lat": 21.5972404, "lon": 39.1224804, "tags": {"amenity": "cafe", "name:en": "Barn's"}}, {"type": "node", "id": 11355515970, "lat": 21.6022247, "lon": 39.107528, "tags": {"amenity": "cafe"}}, {"type": "node", "id": 11355516169, "lat": 21.7043681, "lon": 39.1043779, "tags": {"amenity": "restaurant", "cuisine": "arab", "name": "\u0633\u0644\u0637\u0627\u0646 \u0634\u0627\u0648\u0631\u0645\u0627"}}, {"type": "node", "id": 11361911970, "lat": 21.5800705, "lon": 39.1499835, "tags": {"amenity": "cafe", "name:en": "Barn's"}}, {"type": "node", "id": 11361911971, "lat": 21.5768501, "lon": 39.149662, "tags": {"amenity": "restaurant", "brand": "Pizza Hut", "brand:wikidata": "Q191615", "cuisine": "pizza", "name": "Pizza Hut", "name:en": "Pizza Hut"}}, {"type": "node", "id": 11366154964, "lat": 21.5952301, "lon": 39.1744799, "tags": {"amenity": "cafe"}}, {"type": "node", "id": 11371373675, "lat": 21.5790998, "lon": 39.1665037, "tags": {"amenity": "cafe", "brand": "\u0633\u062a\u0627\u0631\u0628\u0643\u0633", "brand:ar": "\u0633\u062a\u0627\u0631\u0628\u0643\u0633", "brand:en": "Starbucks", "brand:wikidata": "Q37158", "cuisine": "coffee_shop", "name": "\u0633\u062a\u0627\u0631\u0628\u0643\u0633", "name:ar": "\u0633\u062a\u0627\u0631\u0628\u0643\u0633", "name:en": "Starbucks", "official_name": "\u0633\u062a\u0627\u0631\u0628\u0643\u0633 \u0643\u0627\u0641\u064a\u0629", "official_name:ar": "\u0633\u062a\u0627\u0631\u0628\u0643\u0633 \u0643\u0627\u0641\u064a\u0629", "official_name:en": "Starbucks Coffee", "takeaway": "yes"}}, {"type": "node", "id": 11418018469, "lat": 21.5730764, "lon": 39.1435469, "tags": {"amenity": "restaurant", "cuisine": "japanese", "name": "\u0641\u0648\u062c\u064a", "name:en": "Fuji"}}, {"type": "node", "id": 11591349373, "lat": 21.6121645, "lon": 39.1184872, "tags": {"amenity": "restaurant", "name": "Millionaire"}}, {"type": "node", "id": 11601033571, "lat": 21.6244626, "lon": 39.1530151, "tags": {"amenity": "restaurant", "brand": "Chuck E. Cheese", "brand:wikidata": "Q2438391", "cuisine": "pizza", "leisure": "amusement_arcade", "name": "Chuck E. Cheese"}}, {"type": "node", "id": 11644791783, "lat": 21.5917093, "lon": 39.1376792, "tags": {"addr:housenumber": "3916", "addr:postcode": "23521", "amenity": "cafe", "drive_through": "only", "name": "\u0627\u0644\u0645\u0630\u0627\u0642 \u0627\u0644\u0645\u063a\u0631\u0628\u064a", "name:en": "Moroccan Taste", "outdoor_seating": "no", "website": "https://moroccantaste.sa"}}, {"type": "node", "id": 11663795669, "lat": 21.7679927, "lon": 39.1903491, "tags": {"addr:street": "\u0637\u0631\u064a\u0642 \u0627\u0644\u062d\u0631\u0645\u064a\u0646", "amenity": "restaurant", "cuisine": "arab", "name:en": "Al-Romansiah", "opening_hours": "Sa-We 10:30-00:30; Th 10:30-01:00; Fr 12:15-01:00"}}, {"type": "node", "id": 11698593924, "lat": 21.6023188, "lon": 39.1083762, "tags": {"addr:housenumber": "7403", "addr:postcode": "23511", "addr:street": "Corniche Road", "amenity": "cafe", "cuisine": "coffee_shop", "delivery": "yes", "name": "\u0631\u0648\u0646\u0647 \u0644\u0644\u0642\u0647\u0648\u0629 \u0627\u0644\u0645\u062e\u062a\u0635\u0629 | \u0627\u0644\u0634\u0627\u0637\u0626", "website": "https://www.rawnahstore.com"}}, {"type": "node", "id": 11698593931, "lat": 21.5382309, "lon": 39.164483, "tags": {"addr:postcode": "21412", "amenity": "cafe", "cuisine": "coffee_shop", "delivery": "yes", "name": "\u0631\u0648\u0646\u0647 \u0644\u0644\u0642\u0647\u0648\u0629 \u0627\u0644\u0645\u062e\u062a\u0635\u0629 | \u0627\u0644\u062d\u0645\u0631\u0627\u0621", "opening_hours": "24/7", "payment:apple_pay": "yes", "payment:cash": "yes", "payment:mastercard": "yes", "payment:mobile_phone": "yes", "payment:visa": "yes", "phone": "0534720755", "website": "https://www.rawnahstore.com"}}, {"type": "node", "id": 11711514796, "lat": 21.6520446, "lon": 39.1003966, "tags": {"amenity": "restaurant", "cuisine": "pizza", "name": "Emmy Squared Pizza"}}, {"type": "node", "id": 11711514797, "lat": 21.652994, "lon": 39.1005612, "tags": {"amenity": "restaurant", "name": "Karamna"}}, {"type": "node", "id": 11711514798, "lat": 21.6531959, "lon": 39.1005238, "tags": {"amenity": "restaurant", "name": "Mashi No Mashi"}}, {"type": "node", "id": 11711514799, "lat": 21.6534671, "lon": 39.1025296, "tags": {"amenity": "restaurant", "name": "Le Comptoir de Nicole"}}, {"type": "node", "id": 11711514800, "lat": 21.6533769, "lon": 39.1025319, "tags": {"amenity": "restaurant", "name": "Marina Petit Cafe"}}, {"type": "node", "id": 11711514840, "lat": 21.6516243, "lon": 39.1026142, "tags": {"amenity": "restaurant", "name": "Obo Beach House"}}, {"type": "node", "id": 11760822143, "lat": 21.7474546, "lon": 39.1478854, "tags": {"addr:street": "\u0637\u0631\u064a\u0642 \u0627\u0644\u0645\u062f\u064a\u0646\u0629", "amenity": "restaurant", "name": "\u0645\u0627\u0643\u062f\u0648\u0646\u0627\u0644\u062f\u0632"}}, {"type": "node", "id": 11769221853, "lat": 21.5967854, "lon": 39.1574669, "tags": {"amenity": "cafe", "cuisine": "coffee_shop"}}, {"type": "node", "id": 11808115071, "lat": 21.5938365, "lon": 39.1310084, "tags": {"amenity": "restaurant", "name:en": "Smple Brgr"}}, {"type": "node", "id": 11827314471, "lat": 21.5723976, "lon": 39.1433779, "tags": {"amenity": "cafe", "name:en": "Casper & Gambini\u2019s"}}, {"type": "node", "id": 11827750369, "lat": 21.5731776, "lon": 39.1435178, "tags": {"amenity": "cafe", "name:en": "Brew 92"}}, {"type": "node", "id": 11849986054, "lat": 21.5918202, "lon": 39.16888, "tags": {"amenity": "restaurant", "name": "\u0634\u0648\u0627\u064a\u0629 \u0627\u0644\u062d\u0631\u0627\u0632\u064a"}}, {"type": "node", "id": 11851460273, "lat": 21.595875, "lon": 39.1553271, "tags": {"amenity": "cafe"}}, {"type": "node", "id": 11893588220, "lat": 21.5809069, "lon": 39.1603235, "tags": {"amenity": "restaurant", "cuisine": "fish", "name": "\u0633\u0645\u0643\u0629 \u062d\u0631\u0629", "name:en": "Spicy Fish", "operator": "Spicy Fish"}}, {"type": "node", "id": 11893588221, "lat": 21.5810751, "lon": 39.1602975, "tags": {"amenity": "restaurant", "cuisine": "shawarma;syrian;grill", "name": "\u0627\u0644\u0628\u064a\u062a \u0627\u0644\u062d\u0644\u0628\u064a"}}, {"type": "node", "id": 11893588222, "lat": 21.5813302, "lon": 39.1601843, "tags": {"amenity": "restaurant", "name": "\u0645\u0637\u0628\u063a \u0627\u0644\u0636\u064a\u0627\u0641\u0629", "name:en": "Al-Diyafah Restaurant", "phone": "0126983340"}}, {"type": "node", "id": 11971980469, "lat": 21.5977979, "lon": 39.1410153, "tags": {"amenity": "cafe", "drive_through": "only", "name:en": "Castello Coffee", "outdoor_seating": "no"}}, {"type": "node", "id": 11971980872, "lat": 21.5927531, "lon": 39.1508732, "tags": {"amenity": "cafe"}}, {"type": "node", "id": 11986026069, "lat": 21.6171606, "lon": 39.1573658, "tags": {"amenity": "restaurant", "name": "\u0645\u0637\u0639\u0645 \u0627\u0633\u0644\u0627\u0645"}}, {"type": "node", "id": 11986026070, "lat": 21.6224834, "lon": 39.1640816, "tags": {"amenity": "cafe", "name:en": "Overdose"}}, {"type": "node", "id": 11986026071, "lat": 21.6104551, "lon": 39.1557883, "tags": {"amenity": "cafe", "brand": "\u062a\u064a\u0645 \u0647\u0648\u0631\u062a\u0648\u0646\u0632", "brand:ar": "\u062a\u064a\u0645 \u0647\u0648\u0631\u062a\u0648\u0646\u0632", "brand:en": "Tim Hortons", "brand:wikidata": "Q175106", "cuisine": "coffee_shop", "name": "\u062a\u064a\u0645 \u0647\u0648\u0631\u062a\u0648\u0646\u0632", "name:ar": "\u062a\u064a\u0645 \u0647\u0648\u0631\u062a\u0648\u0646\u0632", "name:en": "Tim Hortons", "takeaway": "yes"}}, {"type": "node", "id": 11986026073, "lat": 21.6147042, "lon": 39.1400857, "tags": {"amenity": "restaurant", "name": "\u0645\u0637\u0639\u0645 \u0634\u0648\u0627\u064a\u0629 \u0627\u0644\u062b\u0644\u0627\u062b\u064a\u0646"}}, {"type": "node", "id": 11986026077, "lat": 21.6589262, "lon": 39.1233929, "tags": {"amenity": "restaurant", "name:en": "Sign"}}, {"type": "node", "id": 11986026078, "lat": 21.6620684, "lon": 39.1227061, "tags": {"amenity": "restaurant", "name:en": "Classic Burger"}}, {"type": "node", "id": 11986026080, "lat": 21.5809214, "lon": 39.1639595, "tags": {"amenity": "restaurant", "name:en": "Hardee"}}, {"type": "node", "id": 11986026170, "lat": 21.5779314, "lon": 39.1437208, "tags": {"amenity": "cafe", "name": "Overdose"}}, {"type": "node", "id": 11986026269, "lat": 21.6141834, "lon": 39.157705, "tags": {"amenity": "restaurant", "cuisine": "arab", "name": "\u0645\u0637\u0639\u0645 \u0623\u0628\u0648 \u0628\u0647\u064a\u062c"}}, {"type": "node", "id": 11986026371, "lat": 21.5952534, "lon": 39.1504655, "tags": {"amenity": "restaurant", "cuisine": "arab", "name": "\u0634\u0627\u0648\u0631\u0645\u0627 \u0635\u062c"}}, {"type": "node", "id": 11986026372, "lat": 21.5806106, "lon": 39.1498235, "tags": {"amenity": "restaurant", "name": "Tim Hortons"}}, {"type": "node", "id": 11986026376, "lat": 21.6368161, "lon": 39.1322672, "tags": {"amenity": "restaurant", "name:en": "Operation: Falafel"}}, {"type": "node", "id": 11986026377, "lat": 21.6447463, "lon": 39.1289196, "tags": {"amenity": "restaurant", "name:en": "Kudu"}}, {"type": "node", "id": 11986026378, "lat": 21.6537224, "lon": 39.1253591, "tags": {"amenity": "restaurant", "cuisine": "burger", "name:en": "Sultan Delight Burger"}}, {"type": "node", "id": 11986026570, "lat": 21.5839064, "lon": 39.1440832, "tags": {"amenity": "restaurant", "cuisine": "fish_and_chips", "name:en": "Shrimp Nation"}}, {"type": "node", "id": 11986133919, "lat": 21.599042, "lon": 39.1446734, "tags": {"amenity": "restaurant", "cuisine": "burger", "name:en": "Sultan Delight Burger"}}, {"type": "node", "id": 11986714535, "lat": 21.5950777, "lon": 39.1497873, "tags": {"amenity": "restaurant", "cuisine": "seafood;shrimp", "name": "\u062c\u0645\u0628\u0631\u064a\u0627\u062a \u0627\u0644\u0642\u0645\u0631\u0627\u0621"}}, {"type": "node", "id": 11993705482, "lat": 21.5851714, "lon": 39.1588779, "tags": {"amenity": "restaurant", "cuisine": "burger;broast;shawarma", "name": "\u0628\u0627\u062c\u0632\u064a", "name:en": "Bugzy"}}, {"type": "node", "id": 11993705488, "lat": 21.5857016, "lon": 39.1587186, "tags": {"amenity": "restaurant", "cuisine": "shawarma", "name": "\u0645\u0637\u0639\u0645 \u0634\u0627\u0648\u0631\u0645\u0627 \u0632\u0627\u062f", "name:en": "Shawarma Zaad"}}, {"type": "node", "id": 11993705494, "lat": 21.5870127, "lon": 39.1583311, "tags": {"amenity": "restaurant", "cuisine": "chicken", "name": "\u0647\u0644\u064a\u0644"}}, {"type": "node", "id": 11993705509, "lat": 21.590838, "lon": 39.1570453, "tags": {"amenity": "restaurant", "cuisine": "pizza;macaroni", "name": "\u0628\u0634\u0627\u0645\u064a\u0644\u064a"}}, {"type": "node", "id": 11993705517, "lat": 21.5913291, "lon": 39.1568445, "tags": {"amenity": "restaurant", "cuisine": "pizza", "name": "\u0628\u064a\u062a\u0632\u0627 \u0633\u062a\u064a\u0634\u0646", "name:en": "Pizza Station"}}, {"type": "node", "id": 11993705520, "lat": 21.5914729, "lon": 39.1567927, "tags": {"amenity": "restaurant", "cuisine": "barbecue", "name": "\u0639\u0631\u0648\u0633 \u0625\u0633\u0643\u0646\u062f\u0631\u064a\u0629"}}, {"type": "node", "id": 11993705521, "lat": 21.5915077, "lon": 39.1567826, "tags": {"amenity": "restaurant", "name": "\u0631\u063a\u064a\u0641 \u0637\u0639\u0645\u064a\u0629"}}, {"type": "node", "id": 11993705522, "lat": 21.5915421, "lon": 39.1567689, "tags": {"amenity": "restaurant", "cuisine": "shawarma", "name": "\u0632\u0627\u062f \u0627\u0644\u0634\u0627\u0648\u0631\u0645\u0627 \u0639\u0644\u0649 \u0627\u0644\u0641\u062d\u0645"}}, {"type": "node", "id": 11993705538, "lat": 21.5929883, "lon": 39.1562796}, {"type": "node", "id": 11993705539, "lat": 21.5931742, "lon": 39.1562189}, {"type": "node", "id": 11993705540, "lat": 21.5932302, "lon": 39.1564174}, {"type": "node", "id": 11993705541, "lat": 21.5930442, "lon": 39.156478}, {"type": "node", "id": 11993705544, "lat": 21.5936382, "lon": 39.1560755, "tags": {"amenity": "restaurant", "cuisine": "arab", "name": "\u0641\u0648\u0644 \u0627\u0644\u0634\u0647\u0631\u064a"}}, {"type": "node", "id": 11993705546, "lat": 21.5938034, "lon": 39.1560377, "tags": {"amenity": "restaurant", "cuisine": "arab;regional", "name": "\u0645\u0633\u062a\u0631 \u0639\u0631\u064a\u0643\u0629"}}, {"type": "node", "id": 11993705548, "lat": 21.5939352, "lon": 39.1560019, "tags": {"amenity": "restaurant", "name": "\u0645\u0646\u0642\u0648\u0634\u0629 \u0647\u0627\u0648\u0633", "name:en": "Manqousheh House"}}, {"type": "node", "id": 11993705549, "lat": 21.5940133, "lon": 39.155974, "tags": {"amenity": "restaurant", "cuisine": "syrian", "name": "\u0645\u0637\u0639\u0645 \u0628\u0627\u0644\u0645\u0631\u062e \u0627\u0644\u0641\u0631\u064a\u062f"}}, {"type": "node", "id": 12050622471, "lat": 21.6042913, "lon": 39.1074579, "tags": {"amenity": "cafe", "name": "\u0643\u064a\u0645\u0633", "name:en": "Kims", "shop": "coffee"}}, {"type": "node", "id": 12050624572, "lat": 21.6153339, "lon": 39.1081087, "tags": {"amenity": "cafe", "brand": "\u062a\u064a\u0645 \u0647\u0648\u0631\u062a\u0648\u0646\u0632", "brand:ar": "\u062a\u064a\u0645 \u0647\u0648\u0631\u062a\u0648\u0646\u0632", "brand:en": "Tim Hortons", "brand:wikidata": "Q175106", "cuisine": "coffee_shop", "name": "\u062a\u064a\u0645 \u0647\u0648\u0631\u062a\u0648\u0646\u0632", "name:ar": "\u062a\u064a\u0645 \u0647\u0648\u0631\u062a\u0648\u0646\u0632", "name:en": "Tim Hortons", "takeaway": "yes"}}, {"type": "node", "id": 12050624669, "lat": 21.5732419, "lon": 39.1369587, "tags": {"amenity": "cafe", "brand": "\u062a\u064a\u0645 \u0647\u0648\u0631\u062a\u0648\u0646\u0632", "brand:ar": "\u062a\u064a\u0645 \u0647\u0648\u0631\u062a\u0648\u0646\u0632", "brand:en": "Tim Hortons", "brand:wikidata": "Q175106", "cuisine": "coffee_shop", "name": "\u062a\u064a\u0645 \u0647\u0648\u0631\u062a\u0648\u0646\u0632", "name:ar": "\u062a\u064a\u0645 \u0647\u0648\u0631\u062a\u0648\u0646\u0632", "name:en": "Tim Hortons", "takeaway": "yes"}}, {"type": "node", "id": 12060761484, "lat": 21.755875, "lon": 39.1973199, "tags": {"amenity": "cafe", "name": "\u0633\u062a\u0627\u0631 \u0628\u0643\u0633"}}, {"type": "node", "id": 12122149202, "lat": 21.5989399, "lon": 39.1636782, "tags": {"amenity": "restaurant", "name": "\u0627\u0644\u0637\u0627\u0632\u062c"}}, {"type": "node", "id": 12131985158, "lat": 21.575827, "lon": 39.2237854, "tags": {"addr:housenumber": "7507", "addr:street": "\u0627\u0644\u0634\u0627\u0643\u0631\u064a\u0646", "amenity": "restaurant", "description": "\u0645\u0637\u0639\u0645 \u0641\u0648\u0644 \u0627\u0644\u0639\u0645\u062f\u0629 \u064a\u0642\u062f\u0645 \u0623\u0634\u0647\u0649 \u0627\u0644\u0645\u0623\u0643\u0648\u0644\u0627\u062a \u0627\u0644\u0634\u0639\u0628\u064a\u0629 \u0641\u064a \u062e\u062f\u0645\u062a\u0643\u0645 \u0645\u0646\u0630 \u0662\u0660 \u062c\u062f\u0629 \u060c \u0648\u064a\u0648\u062c\u062f \u062e\u062f\u0645\u0629 \u062a\u0648\u0635\u064a\u0644 \u0627\u0644\u0637\u0639\u0627\u0645 \u0628\u0665 \u0631\u064a\u0627\u0644 \u0644\u062d\u064a \u0627\u0644\u0635\u0641\u0627\u0621 (( \u0627\u0644\u0637\u0644\u0628\u0627\u062a \u0623\u0643\u062b\u0631 \u0645\u0646 \u0663\u0665 \u0631\u064a\u0627\u0644 \u0628\u062f\u0648\u0646 \u0631\u0633\u0648\u0645 \u062a\u0648\u0635\u064a\u0644 )) \u0648\u0628\u0627\u0642\u064a \u0627\u0644\u0623\u062d\u064a\u0627\u0621 \u0639\u0646 \u0637\u0631\u064a\u0642 \u062a\u0637\u0628\u064a\u0642 \u0645\u0631\u0633\u0648\u0644", "name": "\u0628\u064a\u062a \u0627\u0644\u0645\u0639\u0635\u0648\u0628", "opening_hours": "Mo-Su 05:00-11:00, 19:30-00:00", "phone": "053 322 1435"}}, {"type": "node", "id": 12161792203, "lat": 21.5970255, "lon": 39.1426726, "tags": {"air_conditioning": "yes", "amenity": "cafe", "contact:instagram": "https://www.instagram.com/ammar_cafe", "cuisine": "dessert;tea;juice", "email": "info@ammar.cafe", "name": "\u0639\u0645\u0627\u0631", "name:en": "Ammar", "opening_hours": "24/7", "outdoor_seating": "no", "phone": "054 971 6089", "takeaway": "yes", "website": "https://ammar.cafe/", "website:menu": "https://ammar.cafe/our-menu.pdf"}}, {"type": "node", "id": 12161792302, "lat": 21.5750808, "lon": 39.1427883, "tags": {"amenity": "restaurant", "name:en": "Low Calories", "outdoor_seating": "no"}}, {"type": "node", "id": 12161792303, "lat": 21.5760017, "lon": 39.1485623, "tags": {"amenity": "restaurant", "name": "\u0643\u0641\u062a\u064a\u0631\u064a\u0627 \u0635\u0627\u0631\u064a", "outdoor_seating": "no"}}, {"type": "node", "id": 12161795101, "lat": 21.5991497, "lon": 39.1446547, "tags": {"amenity": "restaurant", "cuisine": "pizza", "name": "\u0645\u0627\u064a\u0633\u062a\u0631\u0648", "outdoor_seating": "no"}}, {"type": "node", "id": 12161795201, "lat": 21.5982477, "lon": 39.1405734, "tags": {"amenity": "restaurant", "name": "\u0645\u0637\u0639\u0645 \u0634\u0646\u0627\u0634\u064a\u0644", "outdoor_seating": "no"}}, {"type": "node", "id": 12175629601, "lat": 21.5978624, "lon": 39.1398157, "tags": {"amenity": "cafe", "drive_through": "only", "outdoor_seating": "no"}}, {"type": "node", "id": 12180769102, "lat": 21.5911219, "lon": 39.1674987, "tags": {"amenity": "restaurant", "name:en": "Blue Nile Restaurant", "outdoor_seating": "no"}}, {"type": "node", "id": 12180785303, "lat": 21.5845758, "lon": 39.1593968, "tags": {"amenity": "cafe", "name": "\u0642\u0644\u0639\u0629 \u0627\u0644\u0628\u0646", "name:en": "Castello Coffee", "outdoor_seating": "no"}}, {"type": "node", "id": 12180785501, "lat": 21.583811, "lon": 39.155399, "tags": {"amenity": "restaurant", "cuisine": "chicken;pizza", "name": "\u0628\u0631\u0648\u0633\u062a \u0644\u0630\u064a\u0630", "outdoor_seating": "no"}}, {"type": "node", "id": 12185386705, "lat": 21.5576933, "lon": 39.1853225, "tags": {"amenity": "restaurant", "name:en": "Sixty five degrees", "outdoor_seating": "yes"}}, {"type": "node", "id": 12185386711, "lat": 21.556267, "lon": 39.1849445, "tags": {"amenity": "cafe", "name": "Face \u00e0 Face"}}, {"type": "node", "id": 12185386714, "lat": 21.5564918, "lon": 39.1861128, "tags": {"amenity": "cafe", "brand": "\u062a\u064a\u0645 \u0647\u0648\u0631\u062a\u0648\u0646\u0632", "brand:ar": "\u062a\u064a\u0645 \u0647\u0648\u0631\u062a\u0648\u0646\u0632", "brand:en": "Tim Hortons", "brand:wikidata": "Q175106", "cuisine": "coffee_shop", "internet_access": "wlan", "name": "\u062a\u064a\u0645 \u0647\u0648\u0631\u062a\u0648\u0646\u0632", "name:ar": "\u062a\u064a\u0645 \u0647\u0648\u0631\u062a\u0648\u0646\u0632", "name:en": "Tim Hortons", "outdoor_seating": "no", "takeaway": "yes"}}, {"type": "node", "id": 12185386803, "lat": 21.5561588, "lon": 39.1854678, "tags": {"addr:postcode": "23334", "amenity": "restaurant", "contact:facebook": "https://www.facebook.com/crepeaffaire/", "contact:instagram": "https://www.instagram.com/crepeaffaire/", "contact:twitter": "https://twitter.com/Crepeaffaire", "delivery": "yes", "name": "Cr\u00eapeaffaire", "opening_hours": "Mo-Su 08:00-24:00", "outdoor_seating": "no", "website": "https://crepeaffaire.com/sa", "website:menu": "https://crepeaffaire.com/wp-content/uploads/2017/08/Crepeaffaire-menuSA.pdf?x22072"}}, {"type": "node", "id": 12185386805, "lat": 21.5560667, "lon": 39.1851824, "tags": {"amenity": "restaurant", "name": "La Stars", "outdoor_seating": "no"}}, {"type": "node", "id": 12185386812, "lat": 21.556537, "lon": 39.1775771, "tags": {"amenity": "restaurant", "name": "\u0645\u0637\u0639\u0645 \u0645\u0643\u0629", "outdoor_seating": "no"}}, {"type": "node", "id": 12185387101, "lat": 21.5579447, "lon": 39.1852631, "tags": {"amenity": "restaurant", "delivery": "yes", "email": "cr@khayalrest.com", "name": "\u0645\u0637\u0639\u0645 \u0627\u0644\u062e\u064a\u0627\u0644", "name:en": "Khayal", "outdoor_seating": "no", "phone": "920002223", "takeaway": "yes", "website": "https://www.khayalrest.com/", "website:menu": "https://www.khayalrest.com/menus"}}, {"type": "node", "id": 12185387102, "lat": 21.5578165, "lon": 39.1852924, "tags": {"amenity": "restaurant", "name": "\u0633\u0646\u062a\u0631\u064a \u0628\u0631\u062c\u0631", "name:en": "Century Burger", "outdoor_seating": "no"}}, {"type": "node", "id": 12185387103, "lat": 21.5567268, "lon": 39.1856095, "tags": {"amenity": "cafe", "brand": "Paul", "brand:wikidata": "Q3370417", "name": "Paul", "name:en": "Paul", "outdoor_seating": "no", "shop": "bakery", "website": "https://www.paularabia.com/english/ksa/menu/cakes-and-pastry"}}, {"type": "node", "id": 12185387203, "lat": 21.5563825, "lon": 39.1848366, "tags": {"amenity": "restaurant", "cuisine": "burger;pasta;pizza", "name": "C. House Milano"}}, {"type": "node", "id": 12185387206, "lat": 21.556626, "lon": 39.1780087, "tags": {"amenity": "restaurant", "cuisine": "chinese", "name": "\u0645\u0637\u0639\u0645 \u0642\u0635\u0631 \u0627\u0644\u0635\u064a\u0646", "outdoor_seating": "no"}}, {"type": "node", "id": 12185387301, "lat": 21.5574851, "lon": 39.1853756, "tags": {"amenity": "restaurant", "name": "\u0631\u064a\u0644\u064a\u0634", "name:en": "Relish", "outdoor_seating": "no", "website": "https://relish.com.sa/", "website:menu": "https://relish.com.sa/menu-tabs/"}}, {"type": "node", "id": 12185387305, "lat": 21.5559547, "lon": 39.1853985, "tags": {"amenity": "cafe", "name": "\u062e\u0637\u0648\u0629 \u0628 \u062e\u0637\u0648\u0629", "name:en": "Step by step", "outdoor_seating": "no"}}, {"type": "node", "id": 12185672459, "lat": 21.558178, "lon": 39.1852709}, {"type": "node", "id": 12185672460, "lat": 21.5583155, "lon": 39.185239}, {"type": "node", "id": 12185672461, "lat": 21.5582858, "lon": 39.1850854}, {"type": "node", "id": 12185672462, "lat": 21.5581463, "lon": 39.1851103}, {"type": "node", "id": 12188777006, "lat": 21.5909828, "lon": 39.1518432, "tags": {"amenity": "restaurant", "name": "\u0634\u0648\u0627\u064a\u0629 \u0627\u0644\u0628\u062e\u0627\u0631\u064a", "name:en": "Shawaya Al Buhkari", "outdoor_seating": "no"}}, {"type": "node", "id": 12188777101, "lat": 21.5905589, "lon": 39.1822619, "tags": {"amenity": "cafe", "name": "Yoyo", "outdoor_seating": "no"}}, {"type": "node", "id": 12188777104, "lat": 21.5901202, "lon": 39.1517386, "tags": {"amenity": "restaurant", "name": "\u0645\u0637\u0639\u0645 \u0627\u0644\u0643\u0631\u0645 \u0627\u0644\u0628\u062e\u0627\u0631\u064a", "outdoor_seating": "no"}}, {"type": "node", "id": 12188777202, "lat": 21.5786739, "lon": 39.1555023, "tags": {"amenity": "restaurant", "name": "\u0628\u064a\u062a\u0648\u062a\u064a", "name:en": "Baytoti", "outdoor_seating": "no"}}, {"type": "node", "id": 12188777204, "lat": 21.5827078, "lon": 39.1542025, "tags": {"amenity": "restaurant", "name": "\u0645\u0637\u0639\u0645 \u0648\u0645\u0637\u0628\u063a \u0641\u0631\u0646\u0627\u0633", "outdoor_seating": "no"}}, {"type": "node", "id": 12188777205, "lat": 21.5823422, "lon": 39.1542009, "tags": {"amenity": "restaurant", "cuisine": "indonesian", "name": "\u0634\u0627\u0631\u0639 \u0625\u0646\u062f\u0648\u0646\u064a\u0633\u064a\u0627", "name:en": "Indonesien Street", "outdoor_seating": "no"}}, {"type": "node", "id": 12188777206, "lat": 21.5827345, "lon": 39.1531571, "tags": {"amenity": "restaurant", "cuisine": "burger", "name": "\u0644\u0630\u064a\u0630 \u0628\u0631\u063a\u0631", "outdoor_seating": "no"}}, {"type": "node", "id": 12188777601, "lat": 21.591051, "lon": 39.1521755, "tags": {"amenity": "restaurant", "name": "\u0641\u0648\u0644 \u0648\u062a\u0645\u064a\u0633", "outdoor_seating": "no"}}, {"type": "node", "id": 12193031402, "lat": 21.585873, "lon": 39.1488639, "tags": {"amenity": "cafe", "name": "\u0643\u0627\u0631\u0645\u0627", "name:en": "Karma"}}, {"type": "node", "id": 12222910002, "lat": 21.5899019, "lon": 39.1476009, "tags": {"amenity": "restaurant", "cuisine": "arab;barbecue", "name": "\u0645\u0637\u0639\u0645 \u0632\u0645\u0631 \u0644\u0644\u0648\u0632"}}, {"type": "node", "id": 12222918402, "lat": 21.5886908, "lon": 39.1478885, "tags": {"amenity": "cafe", "name": "\u0645\u0627\u0633 \u0643\u0627\u0641\u064a", "name:en": "Mas Cafe"}}, {"type": "node", "id": 12222918601, "lat": 21.5885066, "lon": 39.1479277, "tags": {"amenity": "restaurant", "name": "\u0628\u0637\u0627\u0637\u0633  \u064a\u063a\u0645\u0634"}}, {"type": "node", "id": 12222918701, "lat": 21.5890915, "lon": 39.1478162, "tags": {"amenity": "cafe", "name": "Neighborhood Cafe"}}, {"type": "node", "id": 12242121401, "lat": 21.6371176, "lon": 39.148971, "tags": {"amenity": "cafe"}}, {"type": "node", "id": 12242157001, "lat": 21.6649381, "lon": 39.1224383, "tags": {"amenity": "cafe", "name": "\u0647\u0627\u064a\u062f \u0623\u0648\u062a", "name:en": "Hideout"}}, {"type": "node", "id": 12242157008, "lat": 21.5961222, "lon": 39.1218155, "tags": {"amenity": "cafe", "name": "Starbucks"}}, {"type": "node", "id": 12242157806, "lat": 21.6150767, "lon": 39.1071784, "tags": {"amenity": "cafe", "name": "\u062c\u0648\u0641\u0631\u064a\u0632", "name:en": "Jofrey's"}}, {"type": "node", "id": 12242157810, "lat": 21.5981026, "lon": 39.1352453, "tags": {"amenity": "restaurant", "name": "Kfc"}}, {"type": "node", "id": 12242157904, "lat": 21.6137023, "lon": 39.1072121, "tags": {"amenity": "restaurant", "name": "\u0643\u0648\u0631\u0646\u064a\u0634", "name:en": "Corniche"}}, {"type": "node", "id": 12264415804, "lat": 21.6094013, "lon": 39.1310894, "tags": {"amenity": "restaurant", "cuisine": "barbecue", "name": "\u0627\u0644\u062f\u0643\u0629"}}, {"type": "node", "id": 12264416201, "lat": 21.5966742, "lon": 39.1436491, "tags": {"amenity": "restaurant", "name": "Tofarea Restaurant", "opening_hours": "24/7", "payment:apple_pay": "yes", "payment:mada": "yes", "payment:visa": "yes", "phone": "966531379554", "website": "https://tofareya.sa/", "website:menu": "https://tofareya.sa/menu"}}, {"type": "node", "id": 12285857801, "lat": 21.5756022, "lon": 39.1273377, "tags": {"amenity": "restaurant", "name:en": "Shrimpplus"}}, {"type": "node", "id": 12285857902, "lat": 21.6060343, "lon": 39.1067035, "tags": {"amenity": "cafe", "name": "\u0627\u0644\u0645\u0630\u0627\u0642 \u0627\u0644\u0645\u063a\u0631\u0628\u064a"}}, {"type": "node", "id": 12292240302, "lat": 21.6334454, "lon": 39.156376, "tags": {"amenity": "cafe", "name": "\u0628\u0627\u0631\u0646\u0632", "name:en": "Barn's"}}, {"type": "node", "id": 12292241102, "lat": 21.6324028, "lon": 39.1552943, "tags": {"amenity": "restaurant", "cuisine": "mexican", "name": "\u062a\u0627\u0643\u0648 \u0647\u062a", "name:en": "Taco Hut", "website": "https://takohut.com", "website:menu": "https://takohut.com/en/menu"}}, {"type": "node", "id": 12456171374, "lat": 21.6154371, "lon": 39.1068448, "tags": {"amenity": "cafe", "name:en": "Overdose", "website": "https://overdosecoffee.co/"}}, {"type": "node", "id": 12456192091, "lat": 21.6510734, "lon": 39.0997996, "tags": {"amenity": "restaurant", "name": "La Mer Restaurant & Beach Club"}}, {"type": "node", "id": 12456216472, "lat": 21.6011961, "lon": 39.1071019, "tags": {"amenity": "cafe", "name": "Bon Cafe", "website": "https://bon.com.sa/"}}, {"type": "node", "id": 12516687001, "lat": 21.6335332, "lon": 39.1622072, "tags": {"amenity": "cafe", "name": "Coarse Grind"}}, {"type": "node", "id": 12588433068, "lat": 21.6063422, "lon": 39.1203924, "tags": {"amenity": "restaurant", "cuisine": "pizza;italian", "name": "Il Vero Alfredo Jeddah", "opening_hours": "Mo-Su 13:00-00:00", "phone": "+966545978768", "reservation": "recommended", "website": "https://ilveroalfredojeddah.com"}}, {"type": "node", "id": 12652110701, "lat": 21.5829332, "lon": 39.1592245, "tags": {"amenity": "restaurant", "cuisine": "pasta;pizza", "name": "\u0641\u0631\u0646\u0627\u0631", "name:en": "Fornar"}}, {"type": "node", "id": 12769099283, "lat": 21.615552, "lon": 39.1789026}, {"type": "node", "id": 12769099284, "lat": 21.6156376, "lon": 39.1793318}, {"type": "node", "id": 12769099285, "lat": 21.6150394, "lon": 39.1791205}, {"type": "node", "id": 12769099286, "lat": 21.6150823, "lon": 39.1793352}, {"type": "node", "id": 12769099287, "lat": 21.6152516, "lon": 39.1792876}, {"type": "node", "id": 12769099288, "lat": 21.6152772, "lon": 39.1792573}, {"type": "node", "id": 12769099289, "lat": 21.6152742, "lon": 39.1792264}, {"type": "node", "id": 12769099290, "lat": 21.6153083, "lon": 39.1792154}, {"type": "node", "id": 12769099291, "lat": 21.6153029, "lon": 39.1791672}, {"type": "node", "id": 12769099292, "lat": 21.6152232, "lon": 39.1790829}, {"type": "node", "id": 12771823935, "lat": 21.5932893, "lon": 39.1453493}, {"type": "node", "id": 12771823936, "lat": 21.5932628, "lon": 39.1452685}, {"type": "node", "id": 12771823937, "lat": 21.5931877, "lon": 39.1452907}, {"type": "node", "id": 12771823938, "lat": 21.5932112, "lon": 39.1453778}, {"type": "node", "id": 12798145601, "lat": 21.5830269, "lon": 39.1440081, "tags": {"addr:city": "Jeddah", "addr:housenumber": "Prince Sultan Rd, As Salamah, Jeddah 82721", "addr:postcode": "23425", "addr:street": "\u0637\u0631\u064a\u0642 \u0627\u0644\u0623\u0645\u064a\u0631 \u0633\u0644\u0637\u0627\u0646", "air_conditioning": "yes", "amenity": "restaurant", "cuisine": "shawarma;kebab;egyptian;juice", "delivery": "yes", "image": "https://maps.app.goo.gl/hS73Vv8YygkeJ5gb7", "mobile": "https://linktr.ee/tahina.sa", "name": "Tahina", "name:ar": "\u0637\u062d\u064a\u0646\u0629", "opening_hours": "Mo-Su 12:00-03:00", "payment:apple_pay": "yes", "payment:cards": "yes", "payment:cash": "yes", "phone": "+966509242268", "website": "https://linktr.ee/tahina.sa", "website:menu": "https://linktr.ee/tahina.sa"}}, {"type": "node", "id": 12798151205, "lat": 21.624094, "lon": 39.1959488, "tags": {"addr:city": "Jeddah", "addr:housenumber": "Prince Mutaib bin Abdulaziz Rd, Al Marwah, Jeddah 23541", "addr:postcode": "23541", "addr:street": "\u0637\u0631\u064a\u0642 \u0627\u0644\u0627\u0645\u064a\u0631 \u0645\u062a\u0639\u0628 \u0628\u0646 \u0639\u0628\u062f\u0627\u0644\u0639\u0632\u064a\u0632", "air_conditioning": "yes", "amenity": "restaurant", "cuisine": "shawarma;kebab;egyptian;juice", "delivery": "yes", "image": "https://maps.app.goo.gl/Yjhy7S4NSFUAmt2m9", "mobile": "+966509242268", "name": "Tahina", "opening_hours": "Mo-Su 12:00-04:00", "payment:apple_pay": "yes", "payment:cards": "yes", "payment:cash": "yes", "phone": "+966509242268", "takeaway": "yes", "website": "https://linktr.ee/tahina.sa", "website:menu": "https://linktr.ee/tahina.sa"}}, {"type": "node", "id": 12799847560, "lat": 21.6332779, "lon": 39.1552345, "tags": {"amenity": "cafe", "instagram": "https://www.instagram.com/urthcaffesaudi", "name": "Urth Caffe", "name:ar": "\u0625\u064a\u0631\u062b \u0643\u0627\u0641\u064a\u0647", "opening_hours": "Fr 13:00-01:00; Mo-Th,Sa-Su 08:00-01:00", "phone": "+966 9200 07498", "website": "https://www.urthcaffe.sa/welcome/index"}}, {"type": "node", "id": 12799847566, "lat": 21.6483406, "lon": 39.1121231, "tags": {"amenity": "cafe", "instagram": "https://www.instagram.com/urthcaffesaudi", "name": "Urth Caffe", "name:ar": "\u0625\u064a\u0631\u062b \u0643\u0627\u0641\u064a\u0647", "opening_hours": "Mo-Su 07:00-01:00", "phone": "+966 9200 07498", "website": "https://www.urthcaffe.sa/welcome/index"}}, {"type": "node", "id": 12799847568, "lat": 21.5668615, "lon": 39.1248304, "tags": {"amenity": "cafe", "instagram": "https://www.instagram.com/urthcaffesaudi", "name": "Urth Caffe", "name:ar": "\u0625\u064a\u0631\u062b \u0643\u0627\u0641\u064a\u0647", "opening_hours": "Mo-Su 07:00-01:00", "phone": "+966 9200 07498", "website": "https://www.urthcaffe.sa/welcome/index"}}, {"type": "node", "id": 12850281340, "lat": 21.5505271, "lon": 39.1530848, "tags": {"amenity": "restaurant", "cuisine": "japanese", "instagram": "https://www.instagram.com/myazusaudi", "name": "Myazu", "name:en": "Myazu", "opening_hours": "Mo-Su 13:00-01:00", "phone": "+966 9200 10434", "website": "https://myazu.com/"}}, {"type": "node", "id": 12850303889, "lat": 21.5508639, "lon": 39.1541335, "tags": {"amenity": "restaurant", "cuisine": "italian", "instagram": "https://www.instagram.com/cicchettisaudi", "name": "San Carlo Cicchetti", "opening_hours": "Mo-Su 13:00-01:00", "phone": "+966 9200 04060", "website": "https://www.sancarlocicchetti.sa"}}, {"type": "way", "id": 404674651, "nodes": [4069486102, 4069486103, 4069486099, 4069486104, 4069486102], "tags": {"amenity": "cafe", "building": "yes"}}, {"type": "way", "id": 408964949, "nodes": [4108718071, 4108718072, 4108718073, 4108718074, 4108718075, 4108718076, 4417266145, 4108718077, 4108718078, 4108718071], "tags": {"amenity": "restaurant", "building": "yes", "cuisine": "chicken", "name": "\u0627\u0644\u0628\u064a\u0643"}}, {"type": "way", "id": 410951329, "nodes": [4126970175, 4126970176, 4126970177, 4126970178, 4126970175], "tags": {"amenity": "restaurant", "building": "yes", "name": "65"}}, {"type": "way", "id": 410951449, "nodes": [4126971390, 4126971392, 4126971393, 4126971391, 4126971390], "tags": {"amenity": "restaurant", "building": "yes"}}, {"type": "way", "id": 410997825, "nodes": [4127400719, 4127400720, 4127400721, 4127400722, 4127400719], "tags": {"amenity": "restaurant", "building": "yes"}}, {"type": "way", "id": 411460089, "nodes": [4131242623, 4131242624, 4131242625, 4131242626, 4131242623], "tags": {"amenity": "restaurant", "building": "yes"}}, {"type": "way", "id": 463257333, "nodes": [4585433610, 4585433611, 4585433612, 4585433613, 4585433614, 4585433615, 4585433616, 4585433617, 4585433618, 4585433619, 4585433610], "tags": {"amenity": "cafe", "building": "yes"}}, {"type": "way", "id": 499634475, "nodes": [4908859119, 4908859120, 4908859121, 4908859122, 4908859123, 4908859127, 4908859126, 4908859125, 4908859124, 4908859119], "tags": {"amenity": "cafe", "building": "yes"}}, {"type": "way", "id": 701393427, "nodes": [6587217932, 6587217933, 6587217934, 6587217935, 6587217936, 6587217937, 6587217938, 6587217939, 6587217921, 6587217922, 6587217925, 6587217926, 6587217927, 6587217928, 6587217929, 6587217930, 6587217931, 6587217923, 6587217924, 6587217932], "tags": {"air_conditioning": "yes", "amenity": "cafe", "brand": "\u0633\u062a\u0627\u0631\u0628\u0643\u0633", "brand:ar": "\u0633\u062a\u0627\u0631\u0628\u0643\u0633", "brand:en": "Starbucks", "brand:wikidata": "Q37158", "brand:wikipedia": "en:Starbucks", "building": "yes", "cuisine": "coffee_shop", "internet_access": "yes", "internet_access:fee": "no", "name": "\u0633\u062a\u0627\u0631\u0628\u0643\u0633", "name:ar": "\u0633\u062a\u0627\u0631\u0628\u0643\u0633", "name:en": "Starbucks", "official_name": "\u0633\u062a\u0627\u0631\u0628\u0643\u0633 \u0643\u0627\u0641\u064a\u0629", "official_name:ar": "\u0633\u062a\u0627\u0631\u0628\u0643\u0633 \u0643\u0627\u0641\u064a\u0629", "official_name:en": "Starbucks Coffee", "opening_hours": "Mo-Sa 06:30-00:30", "outdoor_seating": "yes", "payment:cash": "yes", "payment:debit_cards": "yes", "phone": "+966122617060", "takeaway": "yes", "website": "https://locations.starbucks.sa"}}, {"type": "way", "id": 846134009, "nodes": [7894137785, 7894137786, 7894137787, 7894137788, 7894137785], "tags": {"addr:city": "Jeddah", "addr:street": "King Abdulaziz Street", "amenity": "cafe", "building": "yes", "cuisine": "Bakery;Specialty_Coffee;chocolate;Pastry;Chocolate", "layer": "-1", "name": "Bana Pate", "opening_hours": "08:00-00:00", "outdoor_seating": "yes"}}, {"type": "way", "id": 863493268, "nodes": [8043892152, 8043892153, 8043892154, 8043892155, 8043892152], "tags": {"amenity": "restaurant", "building": "yes"}}, {"type": "way", "id": 872868890, "nodes": [8128323761, 8128323762, 8128323763, 8128323764, 8128323761], "tags": {"amenity": "restaurant", "building": "yes"}}, {"type": "way", "id": 973124991, "nodes": [9006874842, 9006874843, 9006874844, 9006874845, 9006874842], "tags": {"addr:city": "\u062c\u062f\u0629", "addr:housenumber": "3026", "addr:postcode": "23525", "addr:street": "\u0634\u0627\u0631\u0639 \u0627\u0644\u0623\u0645\u064a\u0631 \u0633\u0644\u0637\u0627\u0646", "amenity": "cafe", "building": "yes", "landuse": "industrial", "name": "\u0645\u0642\u0647\u0649 \u0648\u0645\u062d\u0645\u0635\u0629 \u0647\u064a\u0645\u064a", "name:ar": "\u0645\u0642\u0647\u0649 \u0648\u0645\u062d\u0645\u0635\u0629 \u0647\u064a\u0645\u064a", "name:en": "Cafe and Roaster Hemi", "operator": "\u0647\u064a\u0645\u064a", "website": "https://hemi.coffee/"}}, {"type": "way", "id": 1115689502, "nodes": [10203703771, 12769099285, 12769099292, 12769099291, 12769099290, 12769099289, 12769099288, 12769099287, 12769099286, 10203703772, 12769099284, 12769099283, 10203703771], "tags": {"amenity": "restaurant", "building": "yes", "name": "\u0632\u0645\u0632\u0645 \u062a\u0648 \u0646\u0627\u064a\u062a"}}, {"type": "way", "id": 1184809464, "nodes": [11005547765, 11005547766, 11005547767, 11005547768, 11005547765], "tags": {"amenity": "cafe", "drive_through": "only", "name": "\u0622\u064a\u0633\u0628\u0631\u064a\u0633\u0648", "name:ar": "\u0622\u064a\u0633\u0628\u0631\u064a\u0633\u0648", "name:en": "icepresso", "phone": "+966556667350", "website": "https://linktr.ee/icepresso"}}, {"type": "way", "id": 1293852212, "nodes": [11993705538, 11993705539, 11993705540, 11993705541, 11993705538], "tags": {"amenity": "restaurant", "building": "yes", "contact:facebook": "https://www.facebook.com/baytoti/", "contact:instagram": "https://instagram.com/baytotiarabia", "cuisine": "chinese", "name": "\u0628\u064a\u062a\u0648\u062a\u064a", "name:en": "Baytoti", "website": "https://linktr.ee/baytoti", "website:menu": "https://ugc.production.linktr.ee/fc0fdbd8-6fd3-4cc0-bd16-f296ec4ed0f4_BAYTOTI-Digital-Menu-26-09-2023.pdf"}}, {"type": "way", "id": 1316609642, "nodes": [12185672459, 12185672460, 12185672461, 12185672462, 12185672459], "tags": {"amenity": "cafe", "brand": "\u0633\u062a\u0627\u0631\u0628\u0643\u0633", "brand:ar": "\u0633\u062a\u0627\u0631\u0628\u0643\u0633", "brand:en": "Starbucks", "brand:wikidata": "Q37158", "building": "yes", "cuisine": "coffee_shop", "name": "\u0633\u062a\u0627\u0631\u0628\u0643\u0633", "name:ar": "\u0633\u062a\u0627\u0631\u0628\u0643\u0633", "name:en": "Starbucks", "official_name": "\u0633\u062a\u0627\u0631\u0628\u0643\u0633 \u0643\u0627\u0641\u064a\u0629", "official_name:ar": "\u0633\u062a\u0627\u0631\u0628\u0643\u0633 \u0643\u0627\u0641\u064a\u0629", "official_name:en": "Starbucks Coffee", "outdoor_seating": "yes", "takeaway": "yes"}}, {"type": "way", "id": 1379276190, "nodes": [12771823935, 12771823936, 12771823937, 12771823938, 12771823935], "tags": {"amenity": "cafe", "brand": "\u0633\u062a\u0627\u0631\u0628\u0643\u0633", "brand:ar": "\u0633\u062a\u0627\u0631\u0628\u0643\u0633", "brand:en": "Starbucks", "brand:wikidata": "Q37158", "building": "yes", "cuisine": "coffee_shop", "name": "\u0633\u062a\u0627\u0631\u0628\u0643\u0633", "name:ar": "\u0633\u062a\u0627\u0631\u0628\u0643\u0633", "name:en": "Starbucks", "official_name": "\u0633\u062a\u0627\u0631\u0628\u0643\u0633 \u0643\u0627\u0641\u064a\u0629", "official_name:ar": "\u0633\u062a\u0627\u0631\u0628\u0643\u0633 \u0643\u0627\u0641\u064a\u0629", "official_name:en": "Starbucks Coffee", "takeaway": "yes"}}]}