{"version": 0.6, "generator": "Overpass API 0.7.62.7 375dc00a", "osm3s": {"timestamp_osm_base": "2025-06-14T14:56:39Z", "copyright": "The data included in this document is from www.openstreetmap.org. The data is made available under ODbL."}, "elements": [{"type": "node", "id": 420313025, "lat": 36.715113, "lon": 28.2369584, "tags": {"amenity": "restaurant", "mooring": "yes", "name": "Mehmet Place"}}, {"type": "node", "id": 793101233, "lat": 36.4444763, "lon": 28.2260919, "tags": {"amenity": "restaurant", "cuisine": "greek", "name": "Myrovolis"}}, {"type": "node", "id": 793101362, "lat": 36.4507135, "lon": 28.2186153, "tags": {"addr:housenumber": "71", "addr:postcode": "85100", "addr:street": "Griva", "amenity": "restaurant", "cuisine": "greek", "int_name": "Aspro Piato", "name": "\u0386\u03c3\u03c0\u03c1\u03bf \u03a0\u03b9\u03ac\u03c4\u03bf", "name:de": "Aspro Piato", "name:el": "\u0386\u03c3\u03c0\u03c1\u03bf \u03a0\u03b9\u03ac\u03c4\u03bf", "name:en": "White Plate", "name:no": "Den Hvite Tallerken", "website": "http://aspropiato.gr/", "wheelchair": "yes"}}, {"type": "node", "id": 797727545, "lat": 36.4504008, "lon": 28.2175968, "tags": {"addr:housenumber": "1", "addr:postcode": "85100", "addr:street": "\u0393\u03b5\u03c9\u03c1\u03b3\u03af\u03bf\u03c5 \u039b\u03ad\u03bf\u03bd\u03c4\u03bf\u03c2", "amenity": "restaurant", "cuisine": "greek", "name": "Tamam", "phone": "+30 2241 073522"}}, {"type": "node", "id": 870861329, "lat": 36.7147722, "lon": 28.17873, "tags": {"amenity": "restaurant", "name": "Necip Dayi'nin Yeri"}}, {"type": "node", "id": 871796482, "lat": 36.716629, "lon": 28.237052, "tags": {"amenity": "restaurant", "name": "Rafet Baba", "phone": "+902524857021"}}, {"type": "node", "id": 915458803, "lat": 36.4435565, "lon": 28.2258151, "tags": {"amenity": "restaurant", "cuisine": "regional", "internet_access": "wlan", "name": "Romeo", "outdoor_seating": "yes"}}, {"type": "node", "id": 915458806, "lat": 36.4439262, "lon": 28.2258161, "tags": {"amenity": "cafe", "name": "Karpathos"}}, {"type": "node", "id": 1299914654, "lat": 36.3457498, "lon": 28.2014382, "tags": {"amenity": "restaurant", "name": "Castellan"}}, {"type": "node", "id": 1370728213, "lat": 36.4432639, "lon": 28.2292675, "tags": {"addr:city": "Rhodes", "addr:country": "GR", "addr:housenumber": "33", "addr:street": "Aristotelous", "amenity": "restaurant", "cuisine": "greek", "name": "Alexis 4Seasons", "note:de": "Dachterasse mit Ausblick auf den Hafen und die Altstadt", "phone": "+302241070522", "website": "http://www.alexis4seasons.com"}}, {"type": "node", "id": 1374500797, "lat": 36.7159028, "lon": 28.2369316}, {"type": "node", "id": 1374500798, "lat": 36.7159073, "lon": 28.2366741}, {"type": "node", "id": 1374500812, "lat": 36.7160254, "lon": 28.236935}, {"type": "node", "id": 1374500818, "lat": 36.7160299, "lon": 28.2366775}, {"type": "node", "id": 1374500884, "lat": 36.7162996, "lon": 28.2368516}, {"type": "node", "id": 1374500885, "lat": 36.7163043, "lon": 28.2367669}, {"type": "node", "id": 1374500892, "lat": 36.716422, "lon": 28.2368623}, {"type": "node", "id": 1374500909, "lat": 36.7164363, "lon": 28.2368634}, {"type": "node", "id": 1374500911, "lat": 36.716441, "lon": 28.2367788}, {"type": "node", "id": 1375178962, "lat": 36.4489576, "lon": 28.2170224, "tags": {"amenity": "restaurant", "name": "Balmoral Castle"}}, {"type": "node", "id": 1375236924, "lat": 36.386669, "lon": 28.1370082, "tags": {"amenity": "restaurant", "name:en": "Skalakia"}}, {"type": "node", "id": 1375289385, "lat": 36.4496962, "lon": 28.2169445, "tags": {"amenity": "restaurant", "cuisine": "greek", "name": "Mike"}}, {"type": "node", "id": 1375289386, "lat": 36.4500966, "lon": 28.2173548, "tags": {"addr:housenumber": "49", "addr:street": "28th Oktovriou", "amenity": "restaurant", "cuisine": "greek", "email": "info@kiposrhodes.gr", "name": "Kipos", "phone": "+30 22410 70237", "website": "https://www.kiposrhodes.gr/"}}, {"type": "node", "id": 1384314565, "lat": 36.3636129, "lon": 28.2151506, "tags": {"amenity": "restaurant"}}, {"type": "node", "id": 1409578514, "lat": 36.4478889, "lon": 28.2255701, "tags": {"amenity": "restaurant"}}, {"type": "node", "id": 1417513341, "lat": 36.3364248, "lon": 28.1975162, "tags": {"amenity": "restaurant", "name": "Nectar"}}, {"type": "node", "id": 1421686955, "lat": 36.449825, "lon": 28.2244294, "tags": {"amenity": "cafe", "brand": "Starbucks", "brand:wikidata": "Q37158", "cuisine": "coffee_shop", "name": "Starbucks", "official_name": "Starbucks Coffee", "takeaway": "yes"}}, {"type": "node", "id": 1500004377, "lat": 36.4480736, "lon": 28.2253901, "tags": {"addr:city": "Rhodes", "addr:housenumber": "4-8", "addr:street": "Nea Agora", "amenity": "restaurant", "name": "Nireas", "phone": "0030 22410 27371"}}, {"type": "node", "id": 1690596700, "lat": 36.4531254, "lon": 28.2209972, "tags": {"addr:housenumber": "25", "addr:street": "G. Papanikolaou Str", "amenity": "restaurant", "check_date": "2024-09-16", "cuisine": "international", "name": "Red", "phone": "+302241030377", "website": "http://www.redrestaurant.gr/"}}, {"type": "node", "id": 1690596707, "lat": 36.452121, "lon": 28.220817, "tags": {"addr:city": "\u03a1\u03cc\u03b4\u03bf\u03c2", "addr:housenumber": "29", "addr:street": "\u0399. \u039a\u03b1\u03b6\u03bf\u03cd\u03bb\u03b7", "amenity": "restaurant", "capacity": "40", "check_date": "2025-05-13", "cuisine": "greek", "indoor_seating": "yes", "int_name": "Niohori", "internet_access": "wlan", "internet_access:fee": "customers", "name": "Niohori family restaurant", "outdoor_seating": "yes", "phone": "+302241035116", "smoking": "outside", "takeaway": "no", "wheelchair": "yes"}}, {"type": "node", "id": 1691634122, "lat": 36.4545711, "lon": 28.2223069, "tags": {"amenity": "cafe"}}, {"type": "node", "id": 1691733603, "lat": 36.4492674, "lon": 28.2242123}, {"type": "node", "id": 1691830606, "lat": 36.4518409, "lon": 28.2187515, "tags": {"amenity": "restaurant", "cuisine": "greek", "name": "Jason #1"}}, {"type": "node", "id": 1691832127, "lat": 36.4469667, "lon": 28.2197712, "tags": {"addr:housenumber": "16-18", "addr:postcode": "85100", "addr:street": "El. Venizelou", "amenity": "restaurant", "capacity": "50", "check_date": "2025-05-14", "cuisine": "international", "name": "Wonder", "name:el": "\u0398\u03b1\u03c5\u03bc\u03b1 \u0395\u03bd \u039a\u03b1\u03b9\u03c1\u03ce", "phone": "+302241 039805", "smoking": "outside", "website": "https://www.restaurantwonder.gr/"}}, {"type": "node", "id": 1692994792, "lat": 36.4266473, "lon": 28.2196062}, {"type": "node", "id": 1692994823, "lat": 36.4264538, "lon": 28.220073}, {"type": "node", "id": 1692994874, "lat": 36.4267515, "lon": 28.2199206}, {"type": "node", "id": 1692995300, "lat": 36.4263134, "lon": 28.2197771}, {"type": "node", "id": 1693049748, "lat": 36.4476566, "lon": 28.2258549, "tags": {"amenity": "cafe", "name:ru": "\u0420\u043e\u0437\u043e\u0432\u0430\u044f \u043f\u0430\u043d\u0442\u0435\u0440\u0430"}}, {"type": "node", "id": 1693049753, "lat": 36.4475789, "lon": 28.2259488, "tags": {"amenity": "restaurant", "name": "Astoria", "name:el": "Oute Lepi", "name:en": "Oute Lepi"}}, {"type": "node", "id": 1694282965, "lat": 36.4513379, "lon": 28.2199505, "tags": {"amenity": "restaurant", "cuisine": "greek", "name": "La Casa"}}, {"type": "node", "id": 1694283161, "lat": 36.4533558, "lon": 28.2214607, "tags": {"amenity": "restaurant", "cuisine": "greek", "name": "Louis"}}, {"type": "node", "id": 1694283335, "lat": 36.4529818, "lon": 28.2215508, "tags": {"addr:city": "\u03a1\u03cc\u03b4\u03bf\u03c2", "addr:housenumber": "21", "addr:postcode": "85100", "addr:street": "Papanikolaou", "amenity": "restaurant", "cuisine": "greek;international;steakhouse", "delivery": "no", "name": "Memphis BBQ", "phone": "+30 22410 36048", "smoking": "outside", "takeaway": "no"}}, {"type": "node", "id": 1694283635, "lat": 36.4491071, "lon": 28.2248942, "tags": {"amenity": "cafe", "int_name": "Aktaion", "name": "\u0391\u03ba\u03c4\u03b1\u03af\u03bf\u03bd", "old_name": "Circolo d\u2019Italia"}}, {"type": "node", "id": 1694331384, "lat": 36.4490278, "lon": 28.2194314}, {"type": "node", "id": 1694331746, "lat": 36.4502755, "lon": 28.219187}, {"type": "node", "id": 1694331934, "lat": 36.4489919, "lon": 28.2196012}, {"type": "node", "id": 1694331939, "lat": 36.4489351, "lon": 28.2195198}, {"type": "node", "id": 1694332690, "lat": 36.4490784, "lon": 28.2194931}, {"type": "node", "id": 1694332788, "lat": 36.4490715, "lon": 28.2196237}, {"type": "node", "id": 1694591581, "lat": 36.4439742, "lon": 28.2251584, "tags": {"amenity": "restaurant", "name": "Archodiko Dimitri"}}, {"type": "node", "id": 1694591920, "lat": 36.4424118, "lon": 28.229416, "tags": {"amenity": "restaurant", "check_date": "2023-05-19", "name": "Ippotikon", "outdoor_seating": "yes"}}, {"type": "node", "id": 1695217106, "lat": 36.3868198, "lon": 28.2439673, "tags": {"amenity": "cafe", "name": "Safari"}}, {"type": "node", "id": 1696025719, "lat": 36.4509838, "lon": 28.2186845}, {"type": "node", "id": 1696025757, "lat": 36.4509884, "lon": 28.2185186}, {"type": "node", "id": 1696028283, "lat": 36.4510941, "lon": 28.2186906}, {"type": "node", "id": 1696028285, "lat": 36.451112, "lon": 28.2186923}, {"type": "node", "id": 1696028307, "lat": 36.4510866, "lon": 28.21851}, {"type": "node", "id": 1696040961, "lat": 36.4285086, "lon": 28.1992385, "tags": {"amenity": "restaurant", "cuisine": "korean;sushi", "name": "Nami Sushi & Korean BBQ", "natural": "tree"}}, {"type": "node", "id": 1700674512, "lat": 36.4497074, "lon": 28.2218769, "tags": {"amenity": "restaurant", "description": "Pizzeria", "name": "Zio Peppe"}}, {"type": "node", "id": 1765397001, "lat": 36.4499408, "lon": 28.224473, "tags": {"amenity": "cafe", "cuisine": "coffee_shop", "internet_access": "wlan", "internet_access:fee": "no", "name": "People & People"}}, {"type": "node", "id": 1765404968, "lat": 36.4480182, "lon": 28.2216109, "tags": {"amenity": "restaurant", "cuisine": "greek", "int_name": "Lakani", "name": "\u039b\u03b1\u03ba\u03ac\u03bd\u03b7", "phone": "+302241027033", "website": "https://lakani.gr", "wheelchair": "no"}}, {"type": "node", "id": 1769550971, "lat": 36.4441052, "lon": 28.2254338, "tags": {"addr:housenumber": "124", "addr:street": "Socratous street", "amenity": "cafe", "check_date": "2024-09-16", "name": "Sokratous Garden Cafe"}}, {"type": "node", "id": 1769551028, "lat": 36.4439175, "lon": 28.2278048, "tags": {"addr:housenumber": "18", "addr:street": "Evdimou", "amenity": "restaurant", "name": "Tavern Sarris", "website": "http://www.sarristavern.com/en/"}}, {"type": "node", "id": 1769551030, "lat": 36.4440911, "lon": 28.2274753, "tags": {"amenity": "restaurant", "name": "Filippos", "wheelchair": "limited"}}, {"type": "node", "id": 1770373149, "lat": 36.4536369, "lon": 28.2230957, "tags": {"amenity": "restaurant"}}, {"type": "node", "id": 1775774833, "lat": 36.4194314, "lon": 28.1854799}, {"type": "node", "id": 1775774911, "lat": 36.4194238, "lon": 28.185257}, {"type": "node", "id": 1775774927, "lat": 36.4194135, "lon": 28.1852334}, {"type": "node", "id": 1775774951, "lat": 36.4195455, "lon": 28.1853558}, {"type": "node", "id": 1775774971, "lat": 36.419485, "lon": 28.1852161}, {"type": "node", "id": 1775775040, "lat": 36.4194828, "lon": 28.1853977}, {"type": "node", "id": 1775775184, "lat": 36.4193318, "lon": 28.1852881}, {"type": "node", "id": 1775775186, "lat": 36.4194988, "lon": 28.1854349}, {"type": "node", "id": 1775775206, "lat": 36.4193037, "lon": 28.1853603}, {"type": "node", "id": 1775775210, "lat": 36.4193497, "lon": 28.1853295}, {"type": "node", "id": 1775775450, "lat": 36.4194163, "lon": 28.1854451}, {"type": "node", "id": 1775775470, "lat": 36.4193575, "lon": 28.1854844}, {"type": "node", "id": 1803110227, "lat": 36.3477004, "lon": 28.2061266}, {"type": "node", "id": 1803110254, "lat": 36.3477574, "lon": 28.2059752}, {"type": "node", "id": 1803110305, "lat": 36.3475485, "lon": 28.2059973}, {"type": "node", "id": 1803110306, "lat": 36.3475928, "lon": 28.2058797}, {"type": "node", "id": 1803572469, "lat": 36.4223736, "lon": 28.1481593, "tags": {"amenity": "restaurant", "name": "Patty's Kitchen Bar", "source": "survey"}}, {"type": "node", "id": 1803572471, "lat": 36.4226528, "lon": 28.1503885, "tags": {"amenity": "restaurant", "name": "Sandy Beach Taverna Ammoydia", "source": "survey"}}, {"type": "node", "id": 1803572472, "lat": 36.4226126, "lon": 28.1516001, "tags": {"amenity": "restaurant", "name": "Semis Taverna", "source": "survey"}}, {"type": "node", "id": 1803572473, "lat": 36.4227595, "lon": 28.1508617, "tags": {"amenity": "restaurant", "name": "Stefanos Taverna", "source": "survey"}}, {"type": "node", "id": 1837473067, "lat": 36.4316968, "lon": 28.2342883}, {"type": "node", "id": 1837475180, "lat": 36.4317174, "lon": 28.233982}, {"type": "node", "id": 1837476222, "lat": 36.431594, "lon": 28.2341991}, {"type": "node", "id": 1837476286, "lat": 36.4317909, "lon": 28.2340159}, {"type": "node", "id": 1837476507, "lat": 36.4317969, "lon": 28.2341028}, {"type": "node", "id": 1843531273, "lat": 36.426363, "lon": 28.2201703}, {"type": "node", "id": 1843531287, "lat": 36.4264471, "lon": 28.2201785}, {"type": "node", "id": 1843531342, "lat": 36.426376, "lon": 28.2199662}, {"type": "node", "id": 1853151895, "lat": 36.2991229, "lon": 28.1753737}, {"type": "node", "id": 1853151907, "lat": 36.2992282, "lon": 28.1750917}, {"type": "node", "id": 1913998016, "lat": 36.4539729, "lon": 28.2201386, "tags": {"amenity": "restaurant", "check_date": "2024-09-18", "cuisine": "greek", "name": "Elia-Olive Restaurant", "website": "https://www.elia-olive.gr/"}}, {"type": "node", "id": 1913998017, "lat": 36.4506405, "lon": 28.2177922, "tags": {"addr:city": "Rhodes", "addr:housenumber": "4-6", "addr:postcode": "85100", "addr:street": "Georgiou Leontos", "amenity": "restaurant", "capacity": "20", "cuisine": "greek", "delivery": "no", "internet_access": "wlan", "name": "Kerasma", "outdoor_seating": "no", "phone": "+30 22413 02410", "smoking": "no", "takeaway": "no", "website": "https://www.kerasmarestaurant.com/"}}, {"type": "node", "id": 1913998033, "lat": 36.4313329, "lon": 28.2333151, "tags": {"amenity": "cafe"}}, {"type": "node", "id": 1914007529, "lat": 36.4204902, "lon": 28.1864022, "tags": {"addr:city": "Ixi\u00e1, Rhodes", "addr:street": "Ialyssos Avenue", "amenity": "restaurant", "description": "Certificaat van uitmuntendheid winnaar 2017 en 2018 serveert ontbijt, lunch, Brunch", "name": "Anna's Place, Ixi\u00e1, Rhodes", "outdoor_seating": "yes", "takeaway": "yes"}}, {"type": "node", "id": 1927816479, "lat": 36.4156359, "lon": 28.1359793, "tags": {"amenity": "cafe", "cuisine": "seafood", "name": "Aegean Fish"}}, {"type": "node", "id": 1953204352, "lat": 36.441312, "lon": 28.2245283, "tags": {"amenity": "cafe", "name": "Ancient Agora", "phone": "+30 22410 34747", "wheelchair": "no"}}, {"type": "node", "id": 2148704001, "lat": 36.4441696, "lon": 28.2234422, "tags": {"addr:housenumber": "28", "addr:street": "\u039f\u03c1\u03c6\u03ad\u03c9\u03c2", "amenity": "restaurant", "check_date": "2025-05-15", "cuisine": "greek", "diet:vegan": "yes", "diet:vegetarian": "yes", "internet_access": "wlan", "name": "Mama Sofia"}}, {"type": "node", "id": 2257906042, "lat": 36.2930803, "lon": 28.1627437, "tags": {"amenity": "cafe"}}, {"type": "node", "id": 2257917323, "lat": 36.2951643, "lon": 28.1622287, "tags": {"amenity": "restaurant", "name": "Neon Restaurant"}}, {"type": "node", "id": 2257942765, "lat": 36.2940761, "lon": 28.1628057, "tags": {"amenity": "cafe", "name": "Italiko Cafe"}}, {"type": "node", "id": 2298184136, "lat": 36.4220369, "lon": 28.1547501, "tags": {"amenity": "restaurant", "name": "Taverna Pezouli"}}, {"type": "node", "id": 2304615599, "lat": 36.421044, "lon": 28.1565501, "tags": {"amenity": "restaurant", "name": "Kawalieros"}}, {"type": "node", "id": 2308461347, "lat": 36.4230391, "lon": 28.1598654}, {"type": "node", "id": 2308461348, "lat": 36.4228077, "lon": 28.1597766}, {"type": "node", "id": 2308461349, "lat": 36.4227453, "lon": 28.1600754}, {"type": "node", "id": 2308461350, "lat": 36.4229336, "lon": 28.160136}, {"type": "node", "id": 2308461351, "lat": 36.4225167, "lon": 28.1590971}, {"type": "node", "id": 2308461352, "lat": 36.4224898, "lon": 28.1591583}, {"type": "node", "id": 2308461353, "lat": 36.4225234, "lon": 28.159214}, {"type": "node", "id": 2308461355, "lat": 36.4225487, "lon": 28.159304}, {"type": "node", "id": 2308461356, "lat": 36.4225727, "lon": 28.1591806}, {"type": "node", "id": 2348525128, "lat": 36.338751, "lon": 28.2009896}, {"type": "node", "id": 2348525140, "lat": 36.3387909, "lon": 28.2008999}, {"type": "node", "id": 2348525142, "lat": 36.3388238, "lon": 28.2011041}, {"type": "node", "id": 2348525143, "lat": 36.3386803, "lon": 28.2011234}, {"type": "node", "id": 2348525205, "lat": 36.3392769, "lon": 28.199662}, {"type": "node", "id": 2348525206, "lat": 36.3392972, "lon": 28.199267}, {"type": "node", "id": 2348525215, "lat": 36.3393474, "lon": 28.199271}, {"type": "node", "id": 2348525217, "lat": 36.3393492, "lon": 28.199237}, {"type": "node", "id": 2348525223, "lat": 36.33938, "lon": 28.1996702}, {"type": "node", "id": 2348525225, "lat": 36.3393862, "lon": 28.1992741}, {"type": "node", "id": 2348525231, "lat": 36.339388, "lon": 28.1992401}, {"type": "node", "id": 2348525233, "lat": 36.3393887, "lon": 28.1995006}, {"type": "node", "id": 2348525239, "lat": 36.3394171, "lon": 28.1995029}, {"type": "node", "id": 2348525245, "lat": 36.3394287, "lon": 28.1992775}, {"type": "node", "id": 2349734339, "lat": 36.3474003, "lon": 28.2057245}, {"type": "node", "id": 2349734345, "lat": 36.3474413, "lon": 28.2055822}, {"type": "node", "id": 2349734347, "lat": 36.3474751, "lon": 28.2057577}, {"type": "node", "id": 2349734360, "lat": 36.3475161, "lon": 28.2056153}, {"type": "node", "id": 2349734375, "lat": 36.3476603, "lon": 28.2061033}, {"type": "node", "id": 2349734379, "lat": 36.347673, "lon": 28.2060695}, {"type": "node", "id": 2349851569, "lat": 36.3202435, "lon": 28.2051778}, {"type": "node", "id": 2349851571, "lat": 36.3202974, "lon": 28.2052614}, {"type": "node", "id": 2349851573, "lat": 36.3203734, "lon": 28.2050488}, {"type": "node", "id": 2349851575, "lat": 36.3204273, "lon": 28.2051324}, {"type": "node", "id": 2349876209, "lat": 36.3213674, "lon": 28.2090549}, {"type": "node", "id": 2349876211, "lat": 36.3213685, "lon": 28.2089506}, {"type": "node", "id": 2349876217, "lat": 36.3214459, "lon": 28.2089518}, {"type": "node", "id": 2349876219, "lat": 36.3214462, "lon": 28.2089219}, {"type": "node", "id": 2349876221, "lat": 36.3214604, "lon": 28.2090563}, {"type": "node", "id": 2349876223, "lat": 36.3214607, "lon": 28.2090246}, {"type": "node", "id": 2349876225, "lat": 36.3215692, "lon": 28.2090263}, {"type": "node", "id": 2349876227, "lat": 36.3215703, "lon": 28.2089239}, {"type": "node", "id": 2363135575, "lat": 36.3388261, "lon": 28.2037926, "tags": {"amenity": "restaurant", "cuisine": "greek", "internet_access": "wlan", "name": "Lime", "name:en": "Lime"}}, {"type": "node", "id": 2363187325, "lat": 36.3370803, "lon": 28.2015181, "tags": {"amenity": "restaurant", "name": "Manolis", "name:ru": "\u041c\u0430\u043d\u043e\u043b\u0438\u0441"}}, {"type": "node", "id": 2363204394, "lat": 36.3399006, "lon": 28.1994801, "tags": {"amenity": "restaurant", "internet_access": "wlan", "internet_access:fee": "no", "name": "Desert Rose"}}, {"type": "node", "id": 2363242680, "lat": 36.3395521, "lon": 28.1994367, "tags": {"amenity": "restaurant", "name": "Periklis"}}, {"type": "node", "id": 2363243601, "lat": 36.339872, "lon": 28.1990588, "tags": {"amenity": "restaurant", "cuisine": "chinese;japanese;thai", "name": "The white orchid"}}, {"type": "node", "id": 2363260025, "lat": 36.3400083, "lon": 28.2002604, "tags": {"amenity": "restaurant", "name": "Acropoli"}}, {"type": "node", "id": 2364726494, "lat": 36.3391113, "lon": 28.2009816, "tags": {"amenity": "restaurant", "internet_access": "wlan", "internet_access:fee": "no", "name": "Greek Spirit", "phone": "+30 22410 85018"}}, {"type": "node", "id": 2365462485, "lat": 36.3390076, "lon": 28.2042861, "tags": {"amenity": "restaurant", "name": "Dimitra"}}, {"type": "node", "id": 2365517712, "lat": 36.3372803, "lon": 28.2053259, "tags": {"amenity": "cafe", "name": "Christos"}}, {"type": "node", "id": 2365575372, "lat": 36.3354727, "lon": 28.2072982, "tags": {"amenity": "cafe", "name": "Akti"}}, {"type": "node", "id": 2365587689, "lat": 36.3354581, "lon": 28.2075854, "tags": {"amenity": "restaurant", "name": "Marios"}}, {"type": "node", "id": 2365608480, "lat": 36.3346462, "lon": 28.2080004, "tags": {"amenity": "restaurant", "name": "Cavos"}}, {"type": "node", "id": 2365661938, "lat": 36.3396536, "lon": 28.2039426, "tags": {"amenity": "restaurant", "name": "TGI"}}, {"type": "node", "id": 2365704951, "lat": 36.3410083, "lon": 28.2035018, "tags": {"amenity": "cafe", "name": "Route 66"}}, {"type": "node", "id": 2365856387, "lat": 36.3412494, "lon": 28.2015941, "tags": {"amenity": "restaurant", "name": "To Doloma"}}, {"type": "node", "id": 2367704335, "lat": 36.3375604, "lon": 28.201291, "tags": {"amenity": "cafe"}}, {"type": "node", "id": 2367714689, "lat": 36.3361797, "lon": 28.2024763, "tags": {"amenity": "restaurant"}}, {"type": "node", "id": 2367717723, "lat": 36.3357342, "lon": 28.2022729, "tags": {"amenity": "cafe", "name": "Village"}}, {"type": "node", "id": 2368701371, "lat": 36.378429, "lon": 28.2387121, "tags": {"amenity": "cafe", "diet:vegan": "no", "diet:vegetarian": "yes", "name": "Piges Kallitheas", "toilets:wheelchair": "no", "wheelchair": "yes"}}, {"type": "node", "id": 2369013603, "lat": 36.3407344, "lon": 28.2002624, "tags": {"amenity": "restaurant", "name": "Opera"}}, {"type": "node", "id": 2369104384, "lat": 36.3403638, "lon": 28.2006384, "tags": {"amenity": "restaurant", "name": "Sepp"}}, {"type": "node", "id": 2371049237, "lat": 36.3409685, "lon": 28.2002324, "tags": {"amenity": "restaurant", "name": "Kostas"}}, {"type": "node", "id": 2376337519, "lat": 36.3398145, "lon": 28.2033097, "tags": {"amenity": "cafe", "name": "Mavia"}}, {"type": "node", "id": 2376354413, "lat": 36.3398805, "lon": 28.2006598, "tags": {"amenity": "restaurant", "name": "Roumeli \u21163"}}, {"type": "node", "id": 2376354650, "lat": 36.3401138, "lon": 28.2006598, "tags": {"amenity": "restaurant", "name": "Roumeli \u21162"}}, {"type": "node", "id": 2376355347, "lat": 36.3402104, "lon": 28.2006648, "tags": {"amenity": "restaurant", "name": "Roommeli"}}, {"type": "node", "id": 2378168627, "lat": 36.3382981, "lon": 28.1973281, "tags": {"amenity": "restaurant", "name": "Bridges"}}, {"type": "node", "id": 2378418489, "lat": 36.3364127, "lon": 28.1963992, "tags": {"amenity": "restaurant", "name": "Thomas"}}, {"type": "node", "id": 2380340898, "lat": 36.3380318, "lon": 28.2047053, "tags": {"amenity": "cafe", "name": "Golden Beach"}}, {"type": "node", "id": 2380340899, "lat": 36.3355511, "lon": 28.2068977, "tags": {"amenity": "restaurant", "name": "Maria"}}, {"type": "node", "id": 2380341114, "lat": 36.3382398, "lon": 28.2042185}, {"type": "node", "id": 2380341116, "lat": 36.3382446, "lon": 28.2045027}, {"type": "node", "id": 2380341117, "lat": 36.338269, "lon": 28.2038994}, {"type": "node", "id": 2380341121, "lat": 36.3383197, "lon": 28.2036304}, {"type": "node", "id": 2380341125, "lat": 36.338349, "lon": 28.2036401}, {"type": "node", "id": 2380341128, "lat": 36.3383929, "lon": 28.2037297}, {"type": "node", "id": 2380341130, "lat": 36.3384329, "lon": 28.2044991}, {"type": "node", "id": 2380341131, "lat": 36.338469, "lon": 28.2042737}, {"type": "node", "id": 2380341132, "lat": 36.3385491, "lon": 28.2038812}, {"type": "node", "id": 2380388390, "lat": 36.3384725, "lon": 28.2044061}, {"type": "node", "id": 2380388392, "lat": 36.3384813, "lon": 28.2042667}, {"type": "node", "id": 2380388394, "lat": 36.3385018, "lon": 28.204457}, {"type": "node", "id": 2380388395, "lat": 36.3385428, "lon": 28.2044945}, {"type": "node", "id": 2380388396, "lat": 36.3385662, "lon": 28.2039069}, {"type": "node", "id": 2380388397, "lat": 36.3386784, "lon": 28.2044945}, {"type": "node", "id": 2380388399, "lat": 36.3387243, "lon": 28.2044618}, {"type": "node", "id": 2380388401, "lat": 36.3387819, "lon": 28.2040475}, {"type": "node", "id": 2380445775, "lat": 36.3396846, "lon": 28.2037646, "tags": {"amenity": "cafe", "name": "Bella Grecia"}}, {"type": "node", "id": 2380487636, "lat": 36.3410497, "lon": 28.203286, "tags": {"amenity": "cafe", "cuisine": "ice_cream", "name": "Lick'it", "opening_hours": "12:00-23:00"}}, {"type": "node", "id": 2382638600, "lat": 36.3386733, "lon": 28.201035}, {"type": "node", "id": 2382638601, "lat": 36.3387083, "lon": 28.2009549}, {"type": "node", "id": 2382638603, "lat": 36.33875, "lon": 28.201214}, {"type": "node", "id": 2384403714, "lat": 36.3441952, "lon": 28.2001126, "tags": {"amenity": "restaurant", "name": "Bedrock"}}, {"type": "node", "id": 2384403723, "lat": 36.3396546, "lon": 28.2009023, "tags": {"amenity": "cafe", "cuisine": "ice_cream", "name": "Frozen Fru.Yo"}}, {"type": "node", "id": 2384403728, "lat": 36.3425859, "lon": 28.200052, "tags": {"amenity": "cafe", "cuisine": "chinese", "name": "Oriental Express", "opening_hours": "Mo-Su 00:00-06:00,19:00-24:00"}}, {"type": "node", "id": 2384403732, "lat": 36.3420011, "lon": 28.2004837, "tags": {"amenity": "restaurant", "name": "Stone Garden"}}, {"type": "node", "id": 2384404077, "lat": 36.3438154, "lon": 28.1999078, "tags": {"amenity": "restaurant", "name": "Paradosi"}}, {"type": "node", "id": 2384494964, "lat": 36.3345353, "lon": 28.1990225, "tags": {"amenity": "cafe", "name": "Kamina"}}, {"type": "node", "id": 2384494967, "lat": 36.3348905, "lon": 28.1984422, "tags": {"amenity": "restaurant", "name": "Saint Amon"}}, {"type": "node", "id": 2384744367, "lat": 36.3359833, "lon": 28.1981197, "tags": {"amenity": "cafe", "cuisine": "crepe", "name": "Verdi"}}, {"type": "node", "id": 2384744474, "lat": 36.3388883, "lon": 28.2009667}, {"type": "node", "id": 2385675532, "lat": 36.3453616, "lon": 28.2013976, "tags": {"amenity": "restaurant", "name": "Something Different", "opening_hours": "Mo-Su 09:00-00:00"}}, {"type": "node", "id": 2385865679, "lat": 36.3359404, "lon": 28.197032, "tags": {"amenity": "restaurant", "cuisine": "greek;fish", "name": "Peykaki", "outdoor_seating": "yes", "smoking": "outside", "wheelchair": "limited"}}, {"type": "node", "id": 2385865681, "lat": 36.3359621, "lon": 28.1973686, "tags": {"amenity": "cafe", "name": "Sarikas Bakery & Patisserie", "website": "https://sarikasbakery.gr/"}}, {"type": "node", "id": 2386904831, "lat": 36.3342304, "lon": 28.2042528, "tags": {"amenity": "restaurant", "name": "Charlies's X"}}, {"type": "node", "id": 2387962069, "lat": 36.3440231, "lon": 28.2004469, "tags": {"amenity": "cafe", "name": "Linguine"}}, {"type": "node", "id": 2387962071, "lat": 36.3457668, "lon": 28.2009192, "tags": {"amenity": "restaurant", "name": "Orion"}}, {"type": "node", "id": 2387962072, "lat": 36.3461567, "lon": 28.201157, "tags": {"amenity": "restaurant", "cuisine": "mexican", "name": "Panchos"}}, {"type": "node", "id": 2387962075, "lat": 36.3450747, "lon": 28.2004696, "tags": {"amenity": "cafe", "name": "Souvlike"}}, {"type": "node", "id": 2387962076, "lat": 36.3450182, "lon": 28.2004364, "tags": {"amenity": "cafe", "name": "Texas Style"}}, {"type": "node", "id": 2390044502, "lat": 36.3478092, "lon": 28.2042975, "tags": {"amenity": "restaurant", "internet_access": "wlan", "internet_access:fee": "no", "name": "Family"}}, {"type": "node", "id": 2390044506, "lat": 36.3478215, "lon": 28.204166, "tags": {"amenity": "cafe", "name": "Famous Star"}}, {"type": "node", "id": 2390044523, "lat": 36.3490973, "lon": 28.2035361, "tags": {"amenity": "restaurant", "name": "Zorba's"}}, {"type": "node", "id": 2390099585, "lat": 36.3472532, "lon": 28.2018978, "tags": {"amenity": "restaurant", "name": "Smokey Joe's"}}, {"type": "node", "id": 2401871080, "lat": 36.299204, "lon": 28.1754203}, {"type": "node", "id": 2401871083, "lat": 36.2993093, "lon": 28.1751384}, {"type": "node", "id": 2469099341, "lat": 36.4494937, "lon": 28.224225}, {"type": "node", "id": 2469099342, "lat": 36.4494379, "lon": 28.224346}, {"type": "node", "id": 2469099346, "lat": 36.4493172, "lon": 28.2240988}, {"type": "node", "id": 2469099348, "lat": 36.4493708, "lon": 28.2241392}, {"type": "node", "id": 2469099349, "lat": 36.4493914, "lon": 28.2240944}, {"type": "node", "id": 2469099351, "lat": 36.4494348, "lon": 28.2241253}, {"type": "node", "id": 2469099353, "lat": 36.4494147, "lon": 28.2241688}, {"type": "node", "id": 2469106659, "lat": 36.4494778, "lon": 28.2242594}, {"type": "node", "id": 2497663842, "lat": 36.4238053, "lon": 28.2297856}, {"type": "node", "id": 2497663843, "lat": 36.4238095, "lon": 28.2299436}, {"type": "node", "id": 2497663844, "lat": 36.4236576, "lon": 28.2299498}, {"type": "node", "id": 2497663845, "lat": 36.4236534, "lon": 28.2297918}, {"type": "node", "id": 2502191683, "lat": 36.3721023, "lon": 28.2320247}, {"type": "node", "id": 2502191684, "lat": 36.3721346, "lon": 28.232097}, {"type": "node", "id": 2502191685, "lat": 36.3721999, "lon": 28.2319574}, {"type": "node", "id": 2502191687, "lat": 36.3722322, "lon": 28.2320297}, {"type": "node", "id": 2505381827, "lat": 36.3973577, "lon": 28.2276471, "tags": {"amenity": "restaurant", "name": "\u039f\u03c5\u03b6\u03bf\u03ba\u03b1\u03bc\u03ce\u03bc\u03b1\u03c4\u03b1"}}, {"type": "node", "id": 2505381828, "lat": 36.3966537, "lon": 28.2282242, "tags": {"amenity": "cafe", "name": "Reni"}}, {"type": "node", "id": 2509550818, "lat": 36.4451805, "lon": 28.2232421, "tags": {"amenity": "cafe"}}, {"type": "node", "id": 2510349722, "lat": 36.44374, "lon": 28.2272208, "tags": {"amenity": "restaurant", "cuisine": "greek", "name": "Zaytouna", "wheelchair": "no"}}, {"type": "node", "id": 2510564238, "lat": 36.4437631, "lon": 28.2276938, "tags": {"amenity": "restaurant", "name": "\u0391\u03bb\u03ad\u03be\u03b7\u03c2", "name:el": "\u0391\u03bb\u03ad\u03be\u03b7\u03c2", "name:tr": "G\u00fczel mekan", "wheelchair": "yes"}}, {"type": "node", "id": 2510564240, "lat": 36.4434697, "lon": 28.228206, "tags": {"amenity": "restaurant", "cuisine": "pizza;greek", "internet_access": "wlan", "internet_access:fee": "no", "name": "Archipelagos"}}, {"type": "node", "id": 2510564243, "lat": 36.4437546, "lon": 28.2274434, "tags": {"amenity": "cafe", "brand": "Coffee Island", "brand:wikidata": "Q60867333", "cuisine": "coffee_shop", "name": "Coffee Island", "takeaway": "yes"}}, {"type": "node", "id": 2510564248, "lat": 36.4437037, "lon": 28.2280285, "tags": {"amenity": "cafe", "name": "In Cafe", "phone": "+30 22410 74295"}}, {"type": "node", "id": 2510564255, "lat": 36.4437563, "lon": 28.2281136, "tags": {"amenity": "cafe", "internet_access": "wlan", "internet_access:fee": "no", "name": "Nefeli", "wheelchair": "no"}}, {"type": "node", "id": 2510564257, "lat": 36.4434138, "lon": 28.2284092, "tags": {"amenity": "cafe", "name": "Panorama"}}, {"type": "node", "id": 2510564259, "lat": 36.4438238, "lon": 28.2283166, "tags": {"amenity": "restaurant", "internet_access": "wlan", "internet_access:fee": "no", "name": "Plaka", "wheelchair": "no"}}, {"type": "node", "id": 2510564260, "lat": 36.443745, "lon": 28.2284654, "tags": {"amenity": "restaurant", "internet_access": "wlan", "internet_access:fee": "no", "name": "Prince", "wheelchair": "no"}}, {"type": "node", "id": 2510564267, "lat": 36.4436441, "lon": 28.2272361, "tags": {"amenity": "cafe", "cuisine": "ice_cream", "name": "Yogurt berry"}}, {"type": "node", "id": 2510628583, "lat": 36.4432045, "lon": 28.2282688, "tags": {"amenity": "restaurant", "name": "Pythagoras", "wheelchair": "no"}}, {"type": "node", "id": 2510667099, "lat": 36.442907, "lon": 28.2276816, "tags": {"amenity": "restaurant", "cuisine": "greek;regional;seafood;mediterranean", "internet_access": "wlan", "internet_access:fee": "no", "name": "Taverna Ouzepi"}}, {"type": "node", "id": 2510862542, "lat": 36.4432807, "lon": 28.2265161, "tags": {"amenity": "restaurant", "cuisine": "greek", "name": "Dafni Taverna", "phone": "+30 694 968 3196"}}, {"type": "node", "id": 2510862562, "lat": 36.4432677, "lon": 28.2273472, "tags": {"amenity": "restaurant", "check_date": "2024-09-16", "cuisine": "greek", "name": "Yiannis"}}, {"type": "node", "id": 2517879528, "lat": 36.4524318, "lon": 28.2168779, "tags": {"addr:city": "Rhodes", "addr:housenumber": "42", "addr:postcode": "85100", "addr:street": "\u0391\u03ba\u03c4\u03ae \u039c\u03b9\u03b1\u03bf\u03cd\u03bb\u03b7", "amenity": "restaurant", "cuisine": "greek;scandinavian", "name": "SCANDIA", "phone": "+30 22410 37304"}}, {"type": "node", "id": 2523042573, "lat": 36.420747, "lon": 28.228852, "tags": {"addr:city": "\u03c1\u03bf\u03b4\u03bf\u03c2", "addr:housenumber": "2", "addr:postcode": "85100", "addr:street": "\u03b5\u03b2\u03b1\u03b3\u03bf\u03c1\u03b1", "amenity": "cafe", "internet_access": "yes", "name": "Anassa"}}, {"type": "node", "id": 2606089025, "lat": 36.4505623, "lon": 28.2175862, "tags": {"addr:housenumber": "5", "addr:postcode": "85100", "addr:street": "Georgiou Leontos", "amenity": "restaurant", "cuisine": "indian", "name": "Saffron", "phone": "+30 2241 020255", "website": "http://saffron-gr.com/", "wheelchair": "yes"}}, {"type": "node", "id": 2606089030, "lat": 36.4502342, "lon": 28.2195221, "tags": {"amenity": "restaurant", "check_date": "2025-05-13", "cuisine": "fish", "internet_access": "wlan", "name": "Belmo Palace", "outdoor_seating": "yes", "smoking": "outside"}}, {"type": "node", "id": 2607589054, "lat": 36.4442842, "lon": 28.226645, "tags": {"addr:housenumber": "18", "addr:postcode": "85100", "addr:street": "Agisandrou", "amenity": "restaurant", "check_date": "2025-05-12", "cuisine": "greek", "delivery": "no", "internet_access": "wlan", "name": "Island Lipsi", "outdoor_seating": "yes", "phone": "22410 33903", "smoking": "outside", "takeaway": "no", "website": "http://www.restaurantlipsi.com/", "wheelchair": "limited"}}, {"type": "node", "id": 2607589085, "lat": 36.4503815, "lon": 28.2217162, "tags": {"addr:city": "\u03a1\u03cc\u03b4\u03bf\u03c2", "addr:housenumber": "18", "addr:postcode": "85100", "addr:street": "\u0397\u03c1\u03ce\u03c9\u03bd \u03a0\u03bf\u03bb\u03c5\u03c4\u03b5\u03c7\u03bd\u03b5\u03af\u03bf\u03c5", "amenity": "restaurant", "cuisine": "regional", "name": "ERGON Rodos", "opening_hours": "mo-su 09:00-01:00", "phone": "+30 2241 034426", "website": "http://www.ergonproducts.gr/"}}, {"type": "node", "id": 2607589091, "lat": 36.4518003, "lon": 28.2216109, "tags": {"addr:city": "\u03a1\u03cc\u03b4\u03bf\u03c2", "addr:housenumber": "14", "addr:postcode": "85100", "addr:street": "\u0397\u03c1\u03ce\u03c9\u03bd \u03a0\u03bf\u03bb\u03c5\u03c4\u03b5\u03c7\u03bd\u03b5\u03af\u03bf\u03c5", "amenity": "restaurant", "cuisine": "greek", "email": "info@restaurantantique.com", "name": "Restaurant Antique", "phone": "22410 23 974", "website": "www.restaurantantique.com"}}, {"type": "node", "id": 2607589096, "lat": 36.450292, "lon": 28.2171086, "tags": {"addr:city": "Rodes", "addr:housenumber": "92", "addr:postcode": "85100", "addr:street": "28\u03b7\u03c2 \u039f\u03ba\u03c4\u03c9\u03b2\u03c1\u03af\u03bf\u03c5", "air_conditioning": "yes", "amenity": "restaurant", "cuisine": "regional;greek", "diet:gluten_free": "yes", "email": "mk9932@otenet.gr", "name": "Yamas", "phone": "+30 22410 26081", "website": "https://yamasrestaurant.gr/"}}, {"type": "node", "id": 2607589102, "lat": 36.4510639, "lon": 28.2215847, "tags": {"amenity": "restaurant", "check_date": "2024-09-17", "name": "Napoleon"}}, {"type": "node", "id": 2607589110, "lat": 36.4487483, "lon": 28.2152012, "tags": {"addr:housenumber": "14", "addr:postcode": "85100", "addr:street": "Apodimon Amerikis", "amenity": "restaurant", "cuisine": "italian", "name": "Capricci", "opening_hours": "18:30-23:30", "phone": "+302241033395", "website": "https://capricci.gr/"}}, {"type": "node", "id": 2607589144, "lat": 36.4342677, "lon": 28.2360925, "tags": {"addr:housenumber": "100", "addr:street": "Australias", "amenity": "restaurant", "cuisine": "greek", "name": "Mayor", "phone": "+(30)2241035145"}}, {"type": "node", "id": 2607606103, "lat": 36.4426044, "lon": 28.227736, "tags": {"amenity": "restaurant", "internet_access": "wlan", "internet_access:fee": "no", "name": "La Varka"}}, {"type": "node", "id": 2607606104, "lat": 36.4419503, "lon": 28.2282653, "tags": {"addr:housenumber": "62", "addr:street": "Pythagora", "amenity": "restaurant", "cuisine": "greek", "name": "Taverna Kostas"}}, {"type": "node", "id": 2607606106, "lat": 36.4426817, "lon": 28.22759, "tags": {"amenity": "restaurant", "internet_access": "wlan", "internet_access:fee": "no"}}, {"type": "node", "id": 2607636507, "lat": 36.4513597, "lon": 28.2183774, "tags": {"addr:city": "\u03a1\u03cc\u03b4\u03bf\u03c2", "addr:housenumber": "90", "addr:postcode": "85100", "addr:street": "\u0393\u03b5\u03c9\u03c1\u03b3\u03af\u03bf\u03c5 \u0393\u03c1\u03af\u03b2\u03b1", "amenity": "restaurant", "cuisine": "australian", "name": "Jack's", "phone": "+306945385915"}}, {"type": "node", "id": 2607658660, "lat": 36.4533022, "lon": 28.2212121, "tags": {"addr:housenumber": "10", "addr:postcode": "85100", "addr:street": "Georgiou Papanikolaou", "amenity": "restaurant", "cuisine": "greek", "name": "Zum Zum", "phone": "+302241031067"}}, {"type": "node", "id": 2607721842, "lat": 36.4528708, "lon": 28.221855, "tags": {"amenity": "restaurant"}}, {"type": "node", "id": 2607721870, "lat": 36.4539506, "lon": 28.2207143, "tags": {"amenity": "restaurant", "name": "STAY"}}, {"type": "node", "id": 2607731699, "lat": 36.4505431, "lon": 28.2184034, "tags": {"amenity": "restaurant", "cuisine": "italian"}}, {"type": "node", "id": 2613141529, "lat": 36.4440274, "lon": 28.2254328, "tags": {"amenity": "restaurant", "cuisine": "american", "name": "Rock n Roll Music Diner"}}, {"type": "node", "id": 2631007185, "lat": 36.4505749, "lon": 28.2227803, "tags": {"addr:housename": "Plaza Hotel", "addr:housenumber": "7", "addr:postcode": "85100", "addr:street": "Ierou Lochou", "amenity": "restaurant", "cuisine": "greek", "designation": "Lux", "name": "Plaza Restaurant", "source": "GNTO", "website": "https://www.rhodesplazahotel.com/"}}, {"type": "node", "id": 2760315241, "lat": 36.442219, "lon": 28.2257706, "tags": {"addr:city": "Rhodes", "addr:housenumber": "62", "addr:street": "\u0391\u03b3\u03af\u03bf\u03c5 \u03a6\u03b1\u03bd\u03bf\u03c5\u03c1\u03af\u03bf\u03c5", "amenity": "cafe", "cuisine": "ice_cream", "internet_access": "no", "name": "Porca vacca", "smoking": "outside", "wheelchair": "no"}}, {"type": "node", "id": 2760315242, "lat": 36.4419886, "lon": 28.2258994, "tags": {"amenity": "restaurant", "name": "Nisyros"}}, {"type": "node", "id": 2774534849, "lat": 36.441028, "lon": 28.217238, "tags": {"addr:city": "Rhodos", "addr:postcode": "85100", "addr:street": "\u0398\u03b5\u03bc\u03b9\u03c3\u03c4\u03bf\u03ba\u03bb\u03ae \u03a3\u03bf\u03c6\u03bf\u03cd\u03bb\u03b7", "amenity": "cafe", "check_date": "2023-05-12", "cuisine": "coffee_shop", "internet_access": "wlan", "name": "Swedco", "smoking": "outside", "wheelchair": "yes"}}, {"type": "node", "id": 2774534851, "lat": 36.4518628, "lon": 28.2169745, "tags": {"amenity": "cafe", "cuisine": "coffee_shop"}}, {"type": "node", "id": 2792415416, "lat": 36.3058507, "lon": 28.0939941, "tags": {"amenity": "restaurant", "cuisine": "greek;regional", "internet_access": "wlan", "name": "\u0391\u03c1\u03c4\u03ad\u03bc\u03b9\u03b4\u03b1", "name:de": "Artemida", "name:el": "\u0391\u03c1\u03c4\u03ad\u03bc\u03b9\u03b4\u03b1", "name:ru": "\u0410\u0440\u0442\u0435\u043c\u0438\u0434\u0430"}}, {"type": "node", "id": 2881635962, "lat": 36.4418491, "lon": 28.2319241}, {"type": "node", "id": 2881635963, "lat": 36.4418758, "lon": 28.2318722}, {"type": "node", "id": 2881635964, "lat": 36.4419296, "lon": 28.2319883}, {"type": "node", "id": 2881635965, "lat": 36.4419564, "lon": 28.2319364}, {"type": "node", "id": 2884794099, "lat": 36.447178, "lon": 28.2271652, "tags": {"amenity": "cafe", "name": "Yachting Club Cafe"}}, {"type": "node", "id": 2885067213, "lat": 36.4417852, "lon": 28.2276463}, {"type": "node", "id": 2885067232, "lat": 36.4417275, "lon": 28.2277956}, {"type": "node", "id": 2885067321, "lat": 36.4416714, "lon": 28.2276963}, {"type": "node", "id": 2885067359, "lat": 36.4417248, "lon": 28.2276973}, {"type": "node", "id": 2885067370, "lat": 36.4417275, "lon": 28.2276373}, {"type": "node", "id": 2885067383, "lat": 36.4417361, "lon": 28.2275703}, {"type": "node", "id": 2885067407, "lat": 36.4416735, "lon": 28.227632}, {"type": "node", "id": 2885067411, "lat": 36.4416865, "lon": 28.2275596}, {"type": "node", "id": 2885067442, "lat": 36.4417836, "lon": 28.2277983}, {"type": "node", "id": 2888578709, "lat": 36.4424286, "lon": 28.2278427}, {"type": "node", "id": 2888578921, "lat": 36.4423502, "lon": 28.2278372}, {"type": "node", "id": 2888578993, "lat": 36.4424363, "lon": 28.2276876}, {"type": "node", "id": 2888580115, "lat": 36.4423571, "lon": 28.2278377}, {"type": "node", "id": 2888580144, "lat": 36.4423554, "lon": 28.2276833}, {"type": "node", "id": 2888994144, "lat": 36.4425365, "lon": 28.2296632, "tags": {"amenity": "restaurant"}}, {"type": "node", "id": 2895069745, "lat": 36.4513124, "lon": 28.2205815, "tags": {"amenity": "restaurant", "cuisine": "pizza", "name": "Da Cesare"}}, {"type": "node", "id": 2895069748, "lat": 36.4521235, "lon": 28.2183009, "tags": {"amenity": "restaurant", "cuisine": "greek", "name": "Alexandra"}}, {"type": "node", "id": 2895073830, "lat": 36.4501893, "lon": 28.2212941, "tags": {"amenity": "restaurant", "cuisine": "international", "name": "\u03a0\u03c1\u03bf\u03b1\u03cd\u03bb\u03b9\u03bf", "name:el": "\u03a0\u03c1\u03bf\u03b1\u03cd\u03bb\u03b9\u03bf", "name:en": "Proavlio"}}, {"type": "node", "id": 2896901539, "lat": 36.4495093, "lon": 28.2229401, "tags": {"addr:housenumber": "46", "addr:street": "Amerikis", "amenity": "restaurant", "cuisine": "mediterranean", "name": "Bistrot 46"}}, {"type": "node", "id": 2896901639, "lat": 36.4488888, "lon": 28.2218563, "tags": {"amenity": "cafe", "cuisine": "coffee_shop", "name": "Grancaffe Rodos", "wheelchair": "yes"}}, {"type": "node", "id": 2896901645, "lat": 36.4477599, "lon": 28.2235466, "tags": {"amenity": "cafe", "cuisine": "crepe", "name": "Artisti Crepa", "wheelchair": "limited"}}, {"type": "node", "id": 2908564232, "lat": 36.4481416, "lon": 28.2235063, "tags": {"amenity": "restaurant"}}, {"type": "node", "id": 2909001321, "lat": 36.4536703, "lon": 28.2234775, "tags": {"amenity": "cafe"}}, {"type": "node", "id": 2919863991, "lat": 36.4499709, "lon": 28.222088, "tags": {"amenity": "cafe", "wheelchair": "no"}}, {"type": "node", "id": 2939274201, "lat": 36.4505092, "lon": 28.2195802, "tags": {"addr:city": "\u03a1\u03cc\u03b4\u03bf\u03c2", "addr:street": "\u038a\u03c9\u03bd\u03bf\u03c2 \u0394\u03c1\u03b1\u03b3\u03bf\u03cd\u03bc\u03b7", "amenity": "restaurant", "cuisine": "fish", "delivery": "no", "name": "Nikos", "outdoor_seating": "yes", "smoking": "outside", "takeaway": "no"}}, {"type": "node", "id": 2953697049, "lat": 36.4512578, "lon": 28.2212114, "tags": {"amenity": "restaurant"}}, {"type": "node", "id": 2953700383, "lat": 36.4503236, "lon": 28.2184325, "tags": {"amenity": "restaurant", "check_date": "2025-05-13", "diet:vegan": "yes", "diet:vegetarian": "yes", "internet_access": "wlan", "name": "Ouzo Alli Istoria"}}, {"type": "node", "id": 2963931286, "lat": 36.4421387, "lon": 28.2318928, "tags": {"amenity": "restaurant", "check_date": "2023-05-20", "name": "Laganis", "phone": "+30 2241 035571"}}, {"type": "node", "id": 2963932073, "lat": 36.4429412, "lon": 28.2293522, "tags": {"amenity": "restaurant", "name": "La Veranda", "opening_hours": "Mo-Su 10:00-00:00"}}, {"type": "node", "id": 2963953582, "lat": 36.4480694, "lon": 28.2208704, "tags": {"amenity": "cafe", "name": "Piatsa"}}, {"type": "node", "id": 2963969200, "lat": 36.4439743, "lon": 28.2236302, "tags": {"amenity": "restaurant", "check_date": "2025-05-12", "name": "Castello House"}}, {"type": "node", "id": 3071601101, "lat": 36.4519232, "lon": 28.2190962, "tags": {"amenity": "restaurant", "cuisine": "greek", "internet_access": "yes", "internet_access:fee": "no", "name": "New Village", "smoking": "yes"}}, {"type": "node", "id": 3071673593, "lat": 36.4431489, "lon": 28.2273224, "tags": {"amenity": "restaurant", "cuisine": "greek", "name": "Boukia Boukia", "wifi": "no"}}, {"type": "node", "id": 3141927678, "lat": 36.4422143, "lon": 28.2273411, "tags": {"amenity": "restaurant", "cuisine": "greek", "name": "Sea Star, Pizanias", "source": "bing,survey"}}, {"type": "node", "id": 3141944047, "lat": 36.4453412, "lon": 28.2272983, "tags": {"amenity": "restaurant", "cuisine": "international", "name": "Caf\u00e9 Auvergne", "source": "bing,survey", "wheelchair": "limited"}}, {"type": "node", "id": 3274383991, "lat": 36.4429869, "lon": 28.2247208, "tags": {"amenity": "restaurant"}}, {"type": "node", "id": 3274383992, "lat": 36.4430128, "lon": 28.2248013, "tags": {"amenity": "restaurant"}}, {"type": "node", "id": 3274383994, "lat": 36.4431034, "lon": 28.2252197, "tags": {"amenity": "restaurant"}}, {"type": "node", "id": 3285579247, "lat": 36.451733, "lon": 28.2189814, "tags": {"addr:housenumber": "63", "addr:street": "Nikiforou Mandilara", "amenity": "restaurant", "internet_access": "wlan", "internet_access:fee": "customers", "internet_access:ssid": "Le Bistro", "name": "Le Bistro", "opening_hours": "Mo-Su 12:00-02:00", "phone": "+306949080813"}}, {"type": "node", "id": 3285579248, "lat": 36.4517377, "lon": 28.219308, "tags": {"amenity": "restaurant", "cuisine": "regional", "name": "Artemis"}}, {"type": "node", "id": 3285729877, "lat": 36.4513037, "lon": 28.2206811, "tags": {"amenity": "restaurant", "name": "George & Maria Art of Falafel"}}, {"type": "node", "id": 3304049774, "lat": 36.4515004, "lon": 28.2194368, "tags": {"amenity": "restaurant"}}, {"type": "node", "id": 3304049782, "lat": 36.4517118, "lon": 28.2196862, "tags": {"amenity": "restaurant", "name": "Kringlan"}}, {"type": "node", "id": 3304049784, "lat": 36.4518909, "lon": 28.2199357, "tags": {"amenity": "cafe", "cuisine": "ice_cream", "name": "Francis & Co"}}, {"type": "node", "id": 3304049793, "lat": 36.4519362, "lon": 28.2185892, "tags": {"amenity": "restaurant", "cuisine": "pizza", "name": "Friends"}}, {"type": "node", "id": 3304049798, "lat": 36.4511392, "lon": 28.2178351, "tags": {"amenity": "restaurant", "cuisine": "italian", "name": "Ottimo pizza -pasta"}}, {"type": "node", "id": 3304049799, "lat": 36.4509415, "lon": 28.217793, "tags": {"amenity": "restaurant", "cuisine": "greek;pizza", "name": "Rodos Blue", "smoking": "outside"}}, {"type": "node", "id": 3304049800, "lat": 36.4509057, "lon": 28.2175968, "tags": {"amenity": "restaurant", "cuisine": "regional", "name": "Koozina"}}, {"type": "node", "id": 3304134281, "lat": 36.4518528, "lon": 28.2166752, "tags": {"amenity": "cafe"}}, {"type": "node", "id": 3304134282, "lat": 36.4516678, "lon": 28.216564, "tags": {"addr:street": "\u0391\u03ba\u03c4\u03ae \u039c\u03b9\u03b1\u03bf\u03cd\u03bb\u03b7", "amenity": "restaurant", "cuisine": "pizza;greek;seafood", "name": "Oceanfront", "opening_hours": "Mo-Su 10:00-23:00"}}, {"type": "node", "id": 3304146591, "lat": 36.4507858, "lon": 28.2177943, "tags": {"amenity": "restaurant", "check_date": "2024-09-17", "cuisine": "pizza", "name": "Thoma's"}}, {"type": "node", "id": 3304166835, "lat": 36.4509128, "lon": 28.2197913, "tags": {"amenity": "restaurant", "name": "Medusa"}}, {"type": "node", "id": 3304188406, "lat": 36.4511847, "lon": 28.2183267, "tags": {"addr:city": "\u03a1\u03cc\u03b4\u03bf\u03c2", "addr:postcode": "85100", "addr:street": "\u0393\u03b5\u03c9\u03c1\u03b3\u03af\u03bf\u03c5 \u0393\u03c1\u03af\u03b2\u03b1", "amenity": "restaurant", "cuisine": "pizza", "name": "Vesuvio"}}, {"type": "node", "id": 3305330443, "lat": 36.4540269, "lon": 28.2211063, "tags": {"addr:city": "Rhodos", "addr:postcode": "85100", "addr:street": "Kastelorizou", "amenity": "restaurant", "cuisine": "regional", "name": "Inteuropa"}}, {"type": "node", "id": 3305330445, "lat": 36.4540856, "lon": 28.220961, "tags": {"amenity": "restaurant", "cuisine": "pizza", "name": "Volcano pizzeria"}}, {"type": "node", "id": 3305330446, "lat": 36.4545769, "lon": 28.2214875, "tags": {"amenity": "cafe", "name": "Mike's"}}, {"type": "node", "id": 3305330447, "lat": 36.4545381, "lon": 28.2217316, "tags": {"amenity": "restaurant", "name": "Filippos"}}, {"type": "node", "id": 3305330449, "lat": 36.4539929, "lon": 28.2214743, "tags": {"amenity": "restaurant", "name": "Nisos"}}, {"type": "node", "id": 3305330459, "lat": 36.4496357, "lon": 28.2216971, "tags": {"amenity": "cafe", "name": "Trianon", "wheelchair": "no"}}, {"type": "node", "id": 3305331161, "lat": 36.4499341, "lon": 28.2230834, "tags": {"amenity": "restaurant", "name": "Blue Mirage", "wheelchair": "no"}}, {"type": "node", "id": 3305357177, "lat": 36.449038, "lon": 28.2211289, "tags": {"amenity": "restaurant", "name": "Goody's", "wheelchair": "yes"}}, {"type": "node", "id": 3305726141, "lat": 36.4374127, "lon": 28.2294885, "tags": {"amenity": "restaurant", "name": "Pane di Capo"}}, {"type": "node", "id": 3305726150, "lat": 36.4374921, "lon": 28.2273954, "tags": {"amenity": "cafe"}}, {"type": "node", "id": 3305726152, "lat": 36.437756, "lon": 28.2263127, "tags": {"amenity": "restaurant", "cuisine": "italian", "name": "Spaghetti House"}}, {"type": "node", "id": 3305873663, "lat": 36.4515623, "lon": 28.2187746, "tags": {"amenity": "restaurant", "cuisine": "pizza", "name": "Ancient flame"}}, {"type": "node", "id": 3305873664, "lat": 36.4516119, "lon": 28.2185305, "tags": {"amenity": "cafe"}}, {"type": "node", "id": 3305898480, "lat": 36.4528785, "lon": 28.2252195, "tags": {"amenity": "restaurant", "check_date": "2024-09-20", "name": "Meltemi"}}, {"type": "node", "id": 3305898481, "lat": 36.4529011, "lon": 28.2257841, "tags": {"amenity": "restaurant", "name": "NOR Beach House Project"}}, {"type": "node", "id": 3311554501, "lat": 36.4490719, "lon": 28.215456, "tags": {"amenity": "restaurant", "name": "MEZES RESTAURANT"}}, {"type": "node", "id": 3311591989, "lat": 36.4482115, "lon": 28.2212766, "tags": {"amenity": "restaurant", "cuisine": "greek", "name": "\u0391\u03c5\u03b3\u03bf\u03c5\u03c3\u03c4\u03af\u03bd\u03bf\u03c2 \u039c\u03b1\u03b3\u03b5\u03b9\u03c1\u03b5\u03af\u03bf", "name:el": "\u0391\u03c5\u03b3\u03bf\u03c5\u03c3\u03c4\u03af\u03bd\u03bf\u03c2 \u039c\u03b1\u03b3\u03b5\u03b9\u03c1\u03b5\u03af\u03bf", "name:en": "Avgoustinos Greek Cuisine", "wheelchair": "yes"}}, {"type": "node", "id": 3311638404, "lat": 36.4477688, "lon": 28.2257503, "tags": {"amenity": "restaurant"}}, {"type": "node", "id": 3311648843, "lat": 36.4468842, "lon": 28.2247955, "tags": {"amenity": "cafe"}}, {"type": "node", "id": 3311648850, "lat": 36.4469719, "lon": 28.2258618, "tags": {"amenity": "restaurant"}}, {"type": "node", "id": 3312060406, "lat": 36.4525072, "lon": 28.2230378, "tags": {"amenity": "restaurant", "cuisine": "burger;greek;pizza", "name": "The Star"}}, {"type": "node", "id": 3312060427, "lat": 36.4520678, "lon": 28.2230502, "tags": {"amenity": "restaurant", "name": "Constantin"}}, {"type": "node", "id": 3312060446, "lat": 36.4521044, "lon": 28.2235148, "tags": {"amenity": "cafe", "name": "Opera Grande"}}, {"type": "node", "id": 3312060449, "lat": 36.4521301, "lon": 28.2225788, "tags": {"amenity": "cafe", "name": "New Wave"}}, {"type": "node", "id": 3312060466, "lat": 36.451472, "lon": 28.2229408, "tags": {"amenity": "restaurant"}}, {"type": "node", "id": 3312060469, "lat": 36.4513583, "lon": 28.2225351, "tags": {"amenity": "cafe", "name": "Traffic bar", "name:ru": "\u0422\u0440\u0430\u0444\u0444\u0438\u043a \u0431\u0430\u0440"}}, {"type": "node", "id": 3345462398, "lat": 36.4510225, "lon": 28.2206317, "tags": {"addr:city": "Rhodes", "addr:housenumber": "24", "addr:postcode": "85100", "addr:street": "Amarantou", "amenity": "cafe", "cuisine": "regional", "name": "Lukumamma", "opening_hours": "mo-su 18:00-24:00", "smoking": "outside"}}, {"type": "node", "id": 3379770782, "lat": 36.4494698, "lon": 28.222706, "tags": {"amenity": "cafe", "name": "Sail-in Cafe"}}, {"type": "node", "id": 3379770790, "lat": 36.449381, "lon": 28.222676, "tags": {"amenity": "cafe", "name": "Lis \u043e\u0447\u043a\u0438", "shop": "yes"}}, {"type": "node", "id": 3379770997, "lat": 36.4498634, "lon": 28.2234062, "tags": {"amenity": "cafe", "name": "Eatery"}}, {"type": "node", "id": 3417401452, "lat": 36.4504441, "lon": 28.2161371, "tags": {"addr:city": "\u03a1\u03cc\u03b4\u03bf\u03c2", "addr:housenumber": "4-6", "addr:postcode": "85100", "addr:street": "\u0391\u03ba\u03c4\u03ae \u039c\u03b9\u03b1\u03bf\u03cd\u03bb\u03b7", "amenity": "restaurant", "cuisine": "greek", "name": "Dama Seaside", "phone": "+302241075967"}}, {"type": "node", "id": 3525822133, "lat": 36.4509062, "lon": 28.2206203, "tags": {"addr:city": "\u03a1\u03cc\u03b4\u03bf\u03c2", "addr:housenumber": "28", "addr:postcode": "85100", "addr:street": "Amarantou", "amenity": "restaurant", "cuisine": "greek", "name": "Skordakos", "smoking": "outside", "takeaway": "yes"}}, {"type": "node", "id": 3561017176, "lat": 36.4230028, "lon": 28.1600796}, {"type": "node", "id": 3561017177, "lat": 36.4230176, "lon": 28.1600839}, {"type": "node", "id": 3561017178, "lat": 36.4230017, "lon": 28.1601755}, {"type": "node", "id": 3561017179, "lat": 36.4229279, "lon": 28.1601586}, {"type": "node", "id": 3561017393, "lat": 36.422498, "lon": 28.1592866}, {"type": "node", "id": 3561590663, "lat": 36.4296531, "lon": 28.2114756, "tags": {"amenity": "cafe"}}, {"type": "node", "id": 3561590664, "lat": 36.4285089, "lon": 28.2101701, "tags": {"amenity": "restaurant"}}, {"type": "node", "id": 3561590673, "lat": 36.4329643, "lon": 28.2142496, "tags": {"amenity": "restaurant"}}, {"type": "node", "id": 3561592442, "lat": 36.4346364, "lon": 28.2193173, "tags": {"amenity": "cafe"}}, {"type": "node", "id": 3561592457, "lat": 36.4345011, "lon": 28.2196986, "tags": {"amenity": "cafe"}}, {"type": "node", "id": 3587687646, "lat": 36.4506556, "lon": 28.2199589, "tags": {"amenity": "restaurant"}}, {"type": "node", "id": 3587687651, "lat": 36.4511455, "lon": 28.2198038, "tags": {"amenity": "cafe"}}, {"type": "node", "id": 3592652489, "lat": 36.450906, "lon": 28.221935, "tags": {"amenity": "cafe"}}, {"type": "node", "id": 3592668496, "lat": 36.4485186, "lon": 28.2234464, "tags": {"amenity": "cafe", "name": "Tasty Corner", "wheelchair": "limited"}}, {"type": "node", "id": 3592668501, "lat": 36.4494821, "lon": 28.2243363, "tags": {"amenity": "cafe", "name": "Monks Cafe", "wheelchair": "no"}}, {"type": "node", "id": 3599568510, "lat": 36.4360849, "lon": 28.2174421, "tags": {"amenity": "cafe"}}, {"type": "node", "id": 3599568524, "lat": 36.4371387, "lon": 28.2173387, "tags": {"amenity": "restaurant"}}, {"type": "node", "id": 3599568560, "lat": 36.4396288, "lon": 28.2206052, "tags": {"amenity": "restaurant", "cuisine": "american", "name": "City Hall"}}, {"type": "node", "id": 3599568571, "lat": 36.4396255, "lon": 28.2208574, "tags": {"amenity": "cafe"}}, {"type": "node", "id": 3600191896, "lat": 36.4373607, "lon": 28.2173295, "tags": {"amenity": "restaurant"}}, {"type": "node", "id": 3600191927, "lat": 36.4376399, "lon": 28.2170808, "tags": {"amenity": "cafe"}}, {"type": "node", "id": 3600398229, "lat": 36.4358496, "lon": 28.2234866, "tags": {"amenity": "restaurant", "cuisine": "italian;pizza", "name": "Il Massimo", "takeaway": "yes"}}, {"type": "node", "id": 3600542414, "lat": 36.4364187, "lon": 28.2259398, "tags": {"amenity": "restaurant"}}, {"type": "node", "id": 3600774711, "lat": 36.4417326, "lon": 28.220036, "tags": {"amenity": "restaurant", "cuisine": "regional", "name": "Synandissi"}}, {"type": "node", "id": 3604924065, "lat": 36.4393654, "lon": 28.2359437, "tags": {"amenity": "cafe"}}, {"type": "node", "id": 3605155880, "lat": 36.4363873, "lon": 28.2375793, "tags": {"amenity": "restaurant", "name": "Skippers"}}, {"type": "node", "id": 3605155883, "lat": 36.4365321, "lon": 28.2376016, "tags": {"amenity": "restaurant", "name": "Viamare"}}, {"type": "node", "id": 3608888300, "lat": 36.4385613, "lon": 28.2269226, "tags": {"amenity": "cafe"}}, {"type": "node", "id": 3608888301, "lat": 36.4386005, "lon": 28.2264167, "tags": {"amenity": "cafe"}}, {"type": "node", "id": 3608888317, "lat": 36.4383445, "lon": 28.226119, "tags": {"amenity": "cafe"}}, {"type": "node", "id": 3608998982, "lat": 36.4374235, "lon": 28.2246443, "tags": {"amenity": "restaurant", "cuisine": "chinese", "name": "China Village"}}, {"type": "node", "id": 3609295536, "lat": 36.4321312, "lon": 28.2371249, "tags": {"amenity": "restaurant", "name": "\u03a0\u03b1\u03c1\u03b1\u03b3\u03ac\u03b4\u03b9"}}, {"type": "node", "id": 3609295537, "lat": 36.432392, "lon": 28.2369958, "tags": {"amenity": "restaurant", "name": "El Toro Steak House"}}, {"type": "node", "id": 3612849810, "lat": 36.4486642, "lon": 28.2213359, "tags": {"amenity": "cafe"}}, {"type": "node", "id": 3612849830, "lat": 36.4486972, "lon": 28.2223425, "tags": {"amenity": "cafe", "wheelchair": "yes"}}, {"type": "node", "id": 3687802225, "lat": 36.4510278, "lon": 28.2207169, "tags": {"amenity": "restaurant", "cuisine": "burger", "delivery": "no", "internet_access": "wlan", "name": "Boston Burger", "outdoor_seating": "yes", "smoking": "outside"}}, {"type": "node", "id": 3751938634, "lat": 36.3978519, "lon": 28.2277378, "tags": {"amenity": "restaurant", "cuisine": "greek", "name": "Medusa"}}, {"type": "node", "id": 3751987776, "lat": 36.3971067, "lon": 28.228589, "tags": {"amenity": "restaurant", "name": "Caldera", "shop": "variety_store"}}, {"type": "node", "id": 3751987793, "lat": 36.4029885, "lon": 28.2280736, "tags": {"amenity": "restaurant", "cuisine": "seafood", "name": "Kalami Beach", "outdoor_seating": "yes", "smoking": "yes"}}, {"type": "node", "id": 3752058751, "lat": 36.3269641, "lon": 28.2121846, "tags": {"amenity": "cafe", "internet_access": "yes", "internet_access:fee": "no", "name": "Astronomy Cafe", "outdoor_seating": "yes", "website": "https://www.facebook.com/Astronomy-Cafe-Rhodes-Island-152671458264150/?ref=bookmarks"}}, {"type": "node", "id": 3780945365, "lat": 36.4192253, "lon": 28.157494, "tags": {"addr:city": "\u0399\u03b1\u03bb\u03c5\u03c3\u03cc\u03c2", "addr:housenumber": "64", "addr:street": "\u0399\u03b5\u03c1\u03bf\u03cd \u039b\u03cc\u03c7\u03bf\u03c5", "amenity": "restaurant", "capacity": "50", "cuisine": "regional", "email": "laserra.rhodos@gmail.com", "name": "La Serra", "outdoor_seating": "terrace", "phone": "+302241090724", "smoking": "yes", "website": "http://www.laserrarhodes.com", "wheelchair": "yes"}}, {"type": "node", "id": 3784270567, "lat": 36.4217501, "lon": 28.155769, "tags": {"addr:city": "Ialysos, Rhodes", "addr:street": "Ferenikis str", "amenity": "restaurant", "capacity": "200", "cuisine": "regional", "email": "kostasvillagetaverna@gmail.com", "name": "Kostas Village Taverna1", "phone": "+302241096760", "website": "https://kostasvillagetaverna.com/", "wheelchair": "yes"}}, {"type": "node", "id": 3784511665, "lat": 36.4218744, "lon": 28.1556105, "tags": {"amenity": "restaurant"}}, {"type": "node", "id": 3784557431, "lat": 36.4196977, "lon": 28.1574965, "tags": {"addr:city": "\u0399\u03b1\u03bb\u03c5\u03c3\u03cc\u03c2", "addr:country": "GR", "addr:full": "Lerou Lohou & Farinikis", "addr:housenumber": "65a", "addr:postcode": "85101", "addr:street": "\u0399\u03b5\u03c1\u03bf\u03cd \u039b\u03cc\u03c7\u03bf\u03c5", "amenity": "restaurant", "capacity": "90", "cuisine": "burger", "delivery": "no", "email": "hariskand@hotmail.com", "name": "Blue Angel Coctail Cafe-Bar", "note": "Hier worden ook hollandse snacks geserveerd Best coctails in town!", "outdoor_seating": "yes", "phone": "+30241071512", "takeaway": "yes", "wheelchair": "yes"}}, {"type": "node", "id": 3784860820, "lat": 36.422801, "lon": 28.1531529, "tags": {"amenity": "restaurant", "cuisine": "greek", "name": "Dionysos A La Carte Restaurant"}}, {"type": "node", "id": 3784924573, "lat": 36.4228069, "lon": 28.1526881, "tags": {"amenity": "restaurant", "name": "Artemis Main Restaurant"}}, {"type": "node", "id": 3794304657, "lat": 36.422313, "lon": 28.1526049, "tags": {"amenity": "restaurant", "cuisine": "regional", "name": "Artemis Main Restaurant"}}, {"type": "node", "id": 3887895411, "lat": 36.2955237, "lon": 28.1725817}, {"type": "node", "id": 3887895412, "lat": 36.2954667, "lon": 28.1728152}, {"type": "node", "id": 3887895413, "lat": 36.2953269, "lon": 28.1727515}, {"type": "node", "id": 3887895414, "lat": 36.2954011, "lon": 28.1725286}, {"type": "node", "id": 3887898958, "lat": 36.2954014, "lon": 28.1727855, "tags": {"amenity": "restaurant", "cuisine": "greek", "name": "Old house", "phone": "+30 2241076699", "smoking": "outside", "website": "https://www.oldhouse.gr/", "wheelchair": "limited"}}, {"type": "node", "id": 3897040703, "lat": 36.4509988, "lon": 28.2163183, "tags": {"amenity": "cafe", "name": "Dali"}}, {"type": "node", "id": 3898325813, "lat": 36.4434364, "lon": 28.2271801, "tags": {"amenity": "restaurant", "cuisine": "italian", "name": "Il Forno"}}, {"type": "node", "id": 3899650796, "lat": 36.4481052, "lon": 28.2273731, "tags": {"amenity": "restaurant", "check_date": "2024-09-20", "name": "Kon-tiki", "website": "http://kontiki.itgo.com/"}}, {"type": "node", "id": 4012759466, "lat": 36.4235877, "lon": 28.1938155, "tags": {"amenity": "restaurant", "cuisine": "greek", "name": "elysee"}}, {"type": "node", "id": 4210846592, "lat": 36.416452, "lon": 28.1561975, "tags": {"amenity": "cafe", "name": "Kantis George Single Member", "name:it": "ex Cinema Bar Italia (italian period)"}}, {"type": "node", "id": 4227149794, "lat": 36.3158757, "lon": 28.0910603, "tags": {"amenity": "restaurant", "name": "Vorino"}}, {"type": "node", "id": 4228667004, "lat": 36.3523335, "lon": 28.2083122, "tags": {"amenity": "restaurant", "name": "Ilios"}}, {"type": "node", "id": 4237331696, "lat": 36.4478008, "lon": 28.2238247, "tags": {"amenity": "restaurant", "cuisine": "asian", "internet_access": "wlan", "name": "Tokyo Yaki", "wheelchair": "no"}}, {"type": "node", "id": 4278599006, "lat": 36.4409651, "lon": 28.2194534, "tags": {"amenity": "restaurant", "cuisine": "regional", "delivery": "yes", "takeaway": "yes"}}, {"type": "node", "id": 4280926090, "lat": 36.4438155, "lon": 28.2264372, "tags": {"amenity": "restaurant", "name": "\u041a\u0430\u043b\u044c\u044f\u043d", "wheelchair": "no"}}, {"type": "node", "id": 4317394715, "lat": 36.4217126, "lon": 28.1587054, "tags": {"amenity": "restaurant", "name": "Knights of Olde", "outdoor_seating": "garden"}}, {"type": "node", "id": 4343899090, "lat": 36.443779, "lon": 28.2267898, "tags": {"addr:housenumber": "58", "addr:postcode": "85100", "addr:street": "\u03a3\u03c9\u03ba\u03c1\u03ac\u03c4\u03bf\u03c5\u03c2", "amenity": "cafe", "cuisine": "ice_cream", "email": "gialloverde79@gmail.com", "name": "Best crepes", "name:en": "Giallo Verde", "phone": "2241036654", "wheelchair": "no"}}, {"type": "node", "id": 4360101589, "lat": 36.4167051, "lon": 28.1426892, "tags": {"amenity": "restaurant", "cuisine": "greek", "internet_access": "wlan", "name": "taverna Antonis", "name:el": "taverna Antonis", "name:en": "taverna Antonis", "name:ru": "\u0442\u0430\u0432\u0435\u0440\u043d\u0430 \u0410\u043d\u0442\u043e\u043d\u0438\u0441"}}, {"type": "node", "id": 4405772090, "lat": 36.3067644, "lon": 28.1781696, "tags": {"addr:city": "\u0391\u03c6\u03ac\u03bd\u03c4\u03bf\u03c5", "addr:postcode": "85105", "addr:street": "\u03a1\u03cc\u03b4\u03bf\u03c5 - \u039b\u03af\u03bd\u03b4\u03bf\u03c5", "amenity": "restaurant", "contact:email": "tavernamimakos@gmail.com", "contact:facebook": "https://www.facebook.com/TavernaMimakos/", "cuisine": "regional", "internet_access": "wlan", "name": "\u03a4\u03b1\u03b2\u03ad\u03c1\u03bd\u03b1\u03c2 \u039c\u03b9\u03bc\u03ac\u03ba\u03bf\u03c2", "name:el": "\u03a4\u03b1\u03b2\u03ad\u03c1\u03bd\u03b1\u03c2 \u039c\u03b9\u03bc\u03ac\u03ba\u03bf\u03c2", "name:en": "Taverna Mimakos", "phone": "+30 22410 51333"}}, {"type": "node", "id": 4412945690, "lat": 36.4279488, "lon": 28.198761, "tags": {"amenity": "restaurant", "name:en": "Olympias"}}, {"type": "node", "id": 4412945892, "lat": 36.4280683, "lon": 28.1988278, "tags": {"amenity": "cafe", "name:en": "da Gilberto", "opening_hours": "Tu-Su 19:00-00:00"}}, {"type": "node", "id": 4412946092, "lat": 36.4282517, "lon": 28.1990633, "tags": {"amenity": "restaurant", "cuisine": "indian", "internet_access": "wlan", "name:en": "Sartaj Indian Reastaurant"}}, {"type": "node", "id": 4413009890, "lat": 36.4279899, "lon": 28.1988187, "tags": {"addr:city": "ialysos", "addr:postcode": "85101", "addr:street": "\u03a1\u03cc\u03b4\u03bf\u03c2 - \u0399\u03b1\u03bb\u03c5\u03c3\u03cc\u03c2", "amenity": "cafe", "cuisine": "italian", "name": "Gelateria Lick'it", "name:en": "Gelateria Lick'it", "outdoor_seating": "yes", "phone": "2241033702", "website": "https://www.facebook.com/GelateriaLICK.iT/"}}, {"type": "node", "id": 4414976293, "lat": 36.7159589, "lon": 28.2368886, "tags": {"amenity": "restaurant", "internet_access": "wlan", "name": "Azmak", "name:tr": "Azmak", "opening_hours": "Mo-Su 10:00-00:00"}}, {"type": "node", "id": 4565146991, "lat": 36.3362355, "lon": 28.2023777, "tags": {"amenity": "restaurant", "cuisine": "greek", "internet_access": "wlan", "name:en": "Oinos", "phone": "+302241085345"}}, {"type": "node", "id": 4597649598, "lat": 36.4199108, "lon": 28.1577047, "tags": {"amenity": "cafe", "internet_access": "wlan", "name": "Platon Greek Taverna", "name:ru": "\u0422\u0430\u0432\u0435\u0440\u043d\u0430 \u041f\u043b\u0430\u0442\u043e\u043d", "outdoor_seating": "yes"}}, {"type": "node", "id": 4597666589, "lat": 36.4203828, "lon": 28.1568676, "tags": {"amenity": "cafe", "email": "Alkionisbar@gmail.com", "name": "Alkionis sport bar & grill", "name:ru": "\u0421\u043f\u043e\u0440\u0442 \u0431\u0430\u0440 Alkionis sport bar & grill", "phone": "2241092771", "website": "http://Poseidon.gr"}}, {"type": "node", "id": 4851992223, "lat": 36.4475922, "lon": 28.2242468, "tags": {"addr:housenumber": "23", "addr:postcode": "85100", "addr:street": "\u0394. \u0398\u03b5\u03bf\u03b4\u03c9\u03c1\u03ac\u03ba\u03b7", "amenity": "restaurant", "cuisine": "pizza;regional;international;greek", "diet:gluten_free": "yes", "diet:lactose_free": "yes", "diet:vegetarian": "yes", "internet_access": "wlan", "name": "\u039d\u03c4\u03b1\u03bc\u03c0\u03bf\u03c5\u03ac\u03b6", "name:el": "\u039d\u03c4\u03b1\u03bc\u03c0\u03bf\u03c5\u03ac\u03b6", "name:en": "D'Amboise", "phone": "+30 2241 0752 12"}}, {"type": "node", "id": 4866633021, "lat": 36.4392199, "lon": 28.2205815, "tags": {"addr:housenumber": "14/16", "addr:street": "\u0391\u03b3\u03af\u03b1\u03c2 \u039b\u03b1\u03cd\u03c1\u03b1\u03c2", "amenity": "restaurant", "check_date": "2024-10-09", "cuisine": "italian_pizza;pasta", "internet_access": "wlan", "name:en": "O Core e Mamma", "name:fr": "O Core e Mamma", "opening_hours": "Mo-Sa 18:30-24:00; Su off", "phone": "+30 2241 025730"}}, {"type": "node", "id": 4874537221, "lat": 36.4434448, "lon": 28.2280673, "tags": {"addr:street": "\u03a0\u03bb\u03b1\u03c4\u03b5\u03af\u03b1 \u0399\u03c0\u03c0\u03bf\u03ba\u03c1\u03ac\u03c4\u03bf\u03c5\u03c2", "amenity": "restaurant", "internet_access": "wlan", "name:en": "Palazzo", "phone": "+302241024988", "wheelchair": "no"}}, {"type": "node", "id": 4874615222, "lat": 36.4422802, "lon": 28.2274644, "tags": {"addr:housenumber": "22", "addr:postcode": "85100", "addr:street": "\u03a3\u03bf\u03c6\u03bf\u03ba\u03bb\u03ad\u03bf\u03c5\u03c2", "amenity": "restaurant", "cuisine": "fish;seafood;greek", "internet_access": "wlan", "name": "\u039d\u03b7\u03c1\u03b5\u03b1\u03c2 - \u03a0\u03b1\u03bb\u03b9\u03b1 \u03a0\u03bf\u03bb\u03b7", "name:el": "\u039d\u03b7\u03c1\u03b5\u03b1\u03c2 - \u03a0\u03b1\u03bb\u03b9\u03b1 \u03a0\u03bf\u03bb\u03b7", "name:en": "Nireas Old Town", "opening_hours": "Mo-Su 12:00-01:00", "operator": "Theodore Tsikkis", "phone": "+302241021703"}}, {"type": "node", "id": 4897320519, "lat": 36.4502801, "lon": 28.2190941}, {"type": "node", "id": 4897320520, "lat": 36.4503162, "lon": 28.2190957}, {"type": "node", "id": 4897324321, "lat": 36.4503109, "lon": 28.2191897}, {"type": "node", "id": 4898173821, "lat": 36.4477422, "lon": 28.2241993, "tags": {"amenity": "cafe", "cuisine": "coffee_shop", "email": "info@viamarecoffes.gr", "internet_access": "wlan", "opening_hours": "Mo-Su 08:00-02:00", "phone": "+302241023123", "website": "http://www.viamarecoffes.gr"}}, {"type": "node", "id": 4902699821, "lat": 36.4310167, "lon": 28.2328866, "tags": {"amenity": "cafe", "name": "\u039c\u0391\u0399\u039d\u03a4\u0391\u039d\u039f\u03a3 \u039a\u03a1\u0395\u039c\u039c\u03a5\u0394\u0399", "name:el": "\u039c\u0391\u0399\u039d\u03a4\u0391\u039d\u039f\u03a3 \u039a\u03a1\u0395\u039c\u039c\u03a5\u0394\u0399", "name:ru": "\u041f\u0435\u0442\u0440\u0443\u0448\u043a\u0430 \u0438 \u043b\u0443\u043a"}}, {"type": "node", "id": 4904553628, "lat": 36.4372491, "lon": 28.2190736, "tags": {"addr:housenumber": "155", "addr:postcode": "85100", "addr:street": "\u0391\u03b3\u03af\u03bf\u03c5 \u0399\u03c9\u03ac\u03bd\u03bd\u03bf\u03c5", "amenity": "restaurant", "contact:facebook": "https://www.facebook.com/marasiarestaurant", "contact:phone": "+30 2241030745", "cuisine": "greek;mediterranean", "diet:vegetarian": "yes", "name": "\u03a4\u03b1 \u039c\u03b1\u03c1\u03ac\u03c3\u03b9\u03b1"}}, {"type": "node", "id": 4935436177, "lat": 36.3895811, "lon": 28.2157419, "tags": {"amenity": "cafe", "name": "Dolce"}}, {"type": "node", "id": 4960386226, "lat": 36.3298342, "lon": 28.2111171, "tags": {"amenity": "restaurant", "name": "Diamantoula Beach Taverna"}}, {"type": "node", "id": 5025998622, "lat": 36.4425562, "lon": 28.2308189, "tags": {"amenity": "restaurant", "int_name": "Hatzikelis", "name": "\u03a7\u03b1\u03c4\u03b6\u03b7\u03ba\u03ad\u03bb\u03b7\u03c2", "outdoor_seating": "yes"}}, {"type": "node", "id": 5025998623, "lat": 36.4433655, "lon": 28.2250982, "tags": {"amenity": "restaurant", "name": "Ta Kioupia"}}, {"type": "node", "id": 5047799325, "lat": 36.4109262, "lon": 28.1207144, "tags": {"amenity": "restaurant", "internet_access": "wlan", "name:en": "Anthokipos (Grill House)", "name:ru": "Anthokipos \u0411\u0430\u0440\u0431\u0435\u043a\u044e"}}, {"type": "node", "id": 5061536121, "lat": 36.4432739, "lon": 28.2285257, "tags": {"amenity": "restaurant", "name:en": "Ntinos"}}, {"type": "node", "id": 5097857721, "lat": 36.451482, "lon": 28.2165179, "tags": {"amenity": "cafe", "internet_access": "wlan", "name": "Orexi", "name:el": "Orexi", "name:en": "Orexi", "name:ru": "\u041e\u0440\u0435\u043a\u0441\u0438"}}, {"type": "node", "id": 5121938125, "lat": 36.443784, "lon": 28.2258422, "tags": {"amenity": "restaurant", "name:en": "Stergio corner", "wheelchair": "no"}}, {"type": "node", "id": 5131109721, "lat": 36.4495301, "lon": 28.222941, "tags": {"amenity": "cafe", "brand": "Coffee Island", "brand:wikidata": "Q60867333", "cuisine": "coffee_shop", "internet_access": "wlan", "name": "Coffee Island", "name:en": "Coffee Island", "takeaway": "yes"}}, {"type": "node", "id": 5141110498, "lat": 36.4006463, "lon": 28.2299133, "tags": {"amenity": "restaurant", "cuisine": "italian", "name": "Makkaroni", "opening_hours": "Tu-Su 13:30-00:00", "phone": "+30 2241 063366"}}, {"type": "node", "id": 5141302221, "lat": 36.3753777, "lon": 28.235829, "tags": {"amenity": "restaurant", "name": "Oasis"}}, {"type": "node", "id": 5141550527, "lat": 36.4431946, "lon": 28.2272924, "tags": {"addr:housenumber": "26", "addr:street": "\u03a0\u03bb\u03ac\u03c4\u03c9\u03bd\u03bf\u03c2", "amenity": "restaurant", "diet:vegan": "yes", "internet_access": "wlan", "name:en": "To Marouli", "phone": "+30 2241 304394"}}, {"type": "node", "id": 5142904222, "lat": 36.4414465, "lon": 28.2260766, "tags": {"addr:city": "\u03a1\u03cc\u03b4\u03bf\u03c2", "addr:housenumber": "15", "addr:postcode": "851 00", "addr:street": "\u03a0\u03bb\u03b1\u03c4\u03b5\u03af\u03b1 \u0394\u03c9\u03c1\u03b9\u03ad\u03c9\u03c2", "amenity": "restaurant", "name": "Ta Mezeklikia", "opening_hours": "10:00-24:00"}}, {"type": "node", "id": 5154906022, "lat": 36.3088648, "lon": 28.1919366, "tags": {"amenity": "restaurant"}}, {"type": "node", "id": 5156847852, "lat": 36.4062556, "lon": 28.2279255, "tags": {"amenity": "restaurant", "cuisine": "barbecue", "internet_access": "wlan", "level": "0", "name": "Fino Restaurant & Grill", "outdoor_seating": "yes"}}, {"type": "node", "id": 5156847854, "lat": 36.4068622, "lon": 28.2275637, "tags": {"amenity": "cafe", "cuisine": "ice_cream", "level": "0", "name": "J.O.S", "outdoor_seating": "yes"}}, {"type": "node", "id": 5156847857, "lat": 36.4060386, "lon": 28.2286628, "tags": {"amenity": "restaurant", "cuisine": "burger;greek;italian;pizza", "delivery": "yes", "internet_access": "wlan", "level": "0", "name": "Costa's Kitchen", "opening_hours": "12:00-15:30,18:00-22:00", "outdoor_seating": "yes", "smoking": "no", "takeaway": "yes"}}, {"type": "node", "id": 5181666305, "lat": 36.2928526, "lon": 28.1629882, "tags": {"amenity": "restaurant", "cuisine": "regional;greek;seafood", "name": "Ozeri o Thioris"}}, {"type": "node", "id": 5181666307, "lat": 36.2941285, "lon": 28.1617367, "tags": {"amenity": "cafe", "name": "Gummersbach Traditional Kafeneio-Tsipouradiko"}}, {"type": "node", "id": 5200722932, "lat": 36.442778, "lon": 28.2256404, "tags": {"addr:city": "Rhodes", "addr:housenumber": "42", "addr:postcode": "85100", "addr:street": "\u0396\u03ae\u03bd\u03c9\u03bd\u03bf\u03c2", "amenity": "restaurant", "cuisine": "regional;greek;seafood", "name": "Marco Polo Manison", "outdoor_seating": "yes"}}, {"type": "node", "id": 5200791785, "lat": 36.4473278, "lon": 28.2255856, "tags": {"amenity": "cafe", "check_date": "2025-05-13", "name": "Traditional Cafe Symi - \u03a0\u03b1\u03c1\u03b1\u03b4\u03bf\u03c3\u03b9\u03b1\u03ba\u03cc \u039a\u03b1\u03c6\u03b5\u03bd\u03b5\u03af\u03bf \u03a3\u03cd\u03bc\u03b7"}}, {"type": "node", "id": 5214910584, "lat": 36.4110127, "lon": 28.1540694, "tags": {"amenity": "restaurant", "cuisine": "regional", "name": "Filerimous", "outdoor_seating": "yes"}}, {"type": "node", "id": 5216667223, "lat": 36.3362166, "lon": 28.1744783, "tags": {"amenity": "cafe"}}, {"type": "node", "id": 5600217721, "lat": 36.4477217, "lon": 28.2233813, "tags": {"addr:housenumber": "3", "addr:street": "\u039a\u03b1\u03c1\u03c0\u03ac\u03b8\u03bf\u03c5", "amenity": "restaurant", "cuisine": "burger;pizza;greek;chicken;breakfast", "diet:vegetarian": "yes", "email": "auboncaferhodes@yahoo.gr", "internet_access": "wlan", "name:en": "Au Bon Cafe & Au Bon Bistrot", "phone": "+30 2241 036075", "wheelchair": "limited"}}, {"type": "node", "id": 5613852723, "lat": 36.4423796, "lon": 28.2276156, "tags": {"addr:housenumber": "16", "addr:postcode": "851 00", "addr:street": "\u03a3\u03bf\u03c6\u03bf\u03ba\u03bb\u03ad\u03bf\u03c5\u03c2", "amenity": "restaurant", "email": "morfini0@gmail.com", "name": "Vasilis", "phone": "+30 22410 29968", "website": "www.restaurantvasilis.gr"}}, {"type": "node", "id": 5622198221, "lat": 36.4249854, "lon": 28.1951616, "tags": {"amenity": "cafe", "cuisine": "greek", "name": "Valentina's Place", "phone": "+30 694 894 7911"}}, {"type": "node", "id": 5624743409, "lat": 36.4431694, "lon": 28.2277875, "tags": {"amenity": "cafe", "name": "L'eternel"}}, {"type": "node", "id": 5658973124, "lat": 36.4284266, "lon": 28.1989549, "tags": {"addr:housenumber": "28", "addr:street": "Leof. Iraklidion", "amenity": "restaurant", "cuisine": "sandwich;grill;seafood;coffee_shop;beef_bowl;greek;pasta;pizza;fish_and_chips;barbecue", "email": "spilaio2016@gmail.com", "internet_access": "wlan", "name": "''The cave''", "opening_hours": "Mo-Su 08:00-04:00", "phone": "224 111 2475"}}, {"type": "node", "id": 5659423422, "lat": 36.4284318, "lon": 28.1989828, "tags": {"addr:housenumber": "28", "addr:street": "Leof Iraklidon", "amenity": "restaurant", "cuisine": "burger;grill;seafood;coffee_shop;pasta;greek;pizza;fish_and_chips;chicken;barbecue", "email": "spilaio2016@gmail.com", "internet_access": "wlan", "name": "''The cave''", "opening_hours": "Mo-Su 08:00-04:00", "phone": "224 111 2475"}}, {"type": "node", "id": 5676336026, "lat": 36.4512284, "lon": 28.2214441, "tags": {"amenity": "restaurant", "name": "Blue Coyote"}}, {"type": "node", "id": 5698275021, "lat": 36.3491184, "lon": 28.1960673, "tags": {"amenity": "restaurant", "cuisine": "greek;mediterranean", "name": "Mousikorama", "name:en": "Mousikorama", "opening_hours": "Mo-Su 19:00-23:30"}}, {"type": "node", "id": 5715819753, "lat": 36.3601249, "lon": 28.1167627}, {"type": "node", "id": 5715819754, "lat": 36.3601151, "lon": 28.1169076}, {"type": "node", "id": 5715819755, "lat": 36.3601688, "lon": 28.1169131}, {"type": "node", "id": 5715819756, "lat": 36.3601785, "lon": 28.1167683}, {"type": "node", "id": 5719443980, "lat": 36.3570717, "lon": 28.212189, "tags": {"addr:city": "\u03a6\u03b1\u03bb\u03b7\u03c1\u03ac\u03ba\u03b9", "addr:postcode": "85100", "addr:street": "\u039a\u03b1\u03bb\u03bb\u03b9\u03b8\u03ad\u03b1\u03c2", "amenity": "restaurant", "cuisine": "coffee_shop;regional;burger;sandwich;international", "name": "Ammades Seaside Restaurant & Bar", "opening_hours": "Mo-Su 10:00-20:00", "outdoor_seating": "yes"}}, {"type": "node", "id": 5771055955, "lat": 36.4324236, "lon": 28.2292878, "tags": {"amenity": "restaurant", "cuisine": "greek;italian_pizza;italian", "internet_access": "wlan", "name": "Pizzeria Gondola", "name:ru": "\u041f\u0438\u0446\u0446\u0435\u0440\u0438\u044f \u0413\u043e\u043d\u0434\u043e\u043b\u0430", "website": "https://www.gondola-pizza.gr/"}}, {"type": "node", "id": 5777673654, "lat": 36.4342719, "lon": 28.2360464, "tags": {"amenity": "restaurant", "cuisine": "greek;seafood;mediterranean;fish;fish_and_chips;grill;local", "internet_access": "wlan", "name": "Rodion Geneus", "name:en": "Rodion Geuseis", "opening_hours": "Mo-Su 19:00-00:00"}}, {"type": "node", "id": 5798926253, "lat": 36.4349873, "lon": 28.2332842, "tags": {"amenity": "restaurant", "cuisine": "greek", "internet_access": "wlan", "name:en": "Pantelis"}}, {"type": "node", "id": 5912321085, "lat": 36.4148082, "lon": 28.1575515, "tags": {"addr:street": "\u03a0\u03ac\u03c1\u03bf\u03b4\u03bf\u03c2 \u03a4\u03c1\u03b9\u03b1\u03bd\u03c4\u03ce\u03bd", "amenity": "restaurant", "name": "to posperi"}}, {"type": "node", "id": 5912343085, "lat": 36.4390544, "lon": 28.2337329, "tags": {"addr:city": "\u03a1\u03cc\u03b4\u03bf\u03c2", "addr:housenumber": "29", "addr:postcode": "85100", "addr:street": "\u039a\u03b1\u03bd\u03b1\u03b4\u03ac", "amenity": "restaurant", "cuisine": "greek", "diet:vegetarian": "yes", "indoor_seating": "yes", "int_name": "4 Rodies", "name": "4 \u03a1\u03bf\u03b4\u03b9\u03ad\u03c2", "outdoor_seating": "yes", "phone": "+30 22411 30214", "toilets": "yes"}}, {"type": "node", "id": 5918262786, "lat": 36.4436608, "lon": 28.2256127, "tags": {"addr:housenumber": "8", "addr:street": "menekleus", "amenity": "restaurant", "cuisine": "greek;fish;seafood;grill", "email": "melathron@fotisgroup.com", "name": "Petaladika", "opening_hours": "Mo-Su 11:30-00:00", "phone": "+302241027319"}}, {"type": "node", "id": 5926151158, "lat": 36.4190115, "lon": 28.1836892, "tags": {"addr:city": "Ixi\u00e1, \u03a1\u03cc\u03b4\u03bf\u03c2", "addr:postcode": "85101", "addr:street": "\u0397\u03c1\u03b1\u03ba\u03bb\u03b5\u03b9\u03b4\u03ce\u03bd", "amenity": "restaurant", "capacity": "100", "cuisine": "regional;greek;international", "email": "Coconut@caravelhotel.gr", "name": "Coconut", "opening_hours": "Mo-Su 11:00-23:00", "outdoor_seating": "no", "phone": "+30 2241090880", "takeaway": "no"}}, {"type": "node", "id": 5929576644, "lat": 36.418763, "lon": 28.182646}, {"type": "node", "id": 5929576645, "lat": 36.4187482, "lon": 28.1825493}, {"type": "node", "id": 5929579495, "lat": 36.4176794, "lon": 28.1762262}, {"type": "node", "id": 5929579496, "lat": 36.4177452, "lon": 28.1764689}, {"type": "node", "id": 5929579497, "lat": 36.4179791, "lon": 28.176371}, {"type": "node", "id": 5929579498, "lat": 36.4179133, "lon": 28.1761283}, {"type": "node", "id": 5931506185, "lat": 36.3359689, "lon": 28.1970033, "tags": {"amenity": "cafe", "cuisine": "greek", "name:en": "Taverna Brusko"}}, {"type": "node", "id": 6018824838, "lat": 36.3865302, "lon": 28.2416529, "tags": {"amenity": "restaurant", "name": "Restaurant Thalassa", "opening_hours": "Mo-Su 07:00-10:00, 18:30-21:30"}}, {"type": "node", "id": 6128562927, "lat": 36.4190514, "lon": 28.1576088}, {"type": "node", "id": 6128562928, "lat": 36.4190141, "lon": 28.157752}, {"type": "node", "id": 6128562930, "lat": 36.4188178, "lon": 28.1576729}, {"type": "node", "id": 6128562931, "lat": 36.4188552, "lon": 28.1575297}, {"type": "node", "id": 6128604425, "lat": 36.4138429, "lon": 28.1549446, "tags": {"addr:city": "ialissos", "addr:housenumber": "6", "addr:street": "\u0394\u03b7\u03bc\u03bf\u03ba\u03c1\u03b1\u03c4\u03af\u03b1\u03c2", "amenity": "restaurant", "cuisine": "regional", "name": "Taverna Oi 2 Filoi", "outdoor_seating": "yes", "payment:cash": "yes", "payment:credit_cards": "yes", "takeaway": "yes"}}, {"type": "node", "id": 6235647517, "lat": 36.4168414, "lon": 28.1565287, "tags": {"amenity": "restaurant", "cuisine": "pizza", "name:en": "Pizeria Aggelos"}}, {"type": "node", "id": 6260664086, "lat": 36.4438477, "lon": 28.2236789, "tags": {"amenity": "cafe", "check_date": "2025-05-14", "name": "Punto Point"}}, {"type": "node", "id": 6328741254, "lat": 36.4131241, "lon": 28.202863, "tags": {"amenity": "cafe"}}, {"type": "node", "id": 6381234544, "lat": 36.4325758, "lon": 28.2369375, "tags": {"amenity": "restaurant", "cuisine": "greek", "name": "\u0394\u0395\u0399\u039b\u0399\u039d\u0391", "opening_hours": "Mo-Su 13:00-00:00", "phone": "2241020038", "sport": "sailing"}}, {"type": "node", "id": 6436877785, "lat": 36.4332356, "lon": 28.2380437, "tags": {"amenity": "restaurant", "name": "NAVAL Cafe Bar Restaurant", "name:en": "NAVAL Cafe Bar Restaurant"}}, {"type": "node", "id": 6436939806, "lat": 36.3578018, "lon": 28.212022}, {"type": "node", "id": 6436939807, "lat": 36.3577599, "lon": 28.2121363}, {"type": "node", "id": 6436939808, "lat": 36.3577826, "lon": 28.2121492}, {"type": "node", "id": 6436939809, "lat": 36.3577355, "lon": 28.2122774}, {"type": "node", "id": 6436939810, "lat": 36.3576931, "lon": 28.2122534}, {"type": "node", "id": 6436939811, "lat": 36.3576708, "lon": 28.212314}, {"type": "node", "id": 6436939812, "lat": 36.3575307, "lon": 28.2122348}, {"type": "node", "id": 6436939813, "lat": 36.3576008, "lon": 28.2120435}, {"type": "node", "id": 6436939814, "lat": 36.3576314, "lon": 28.2120608}, {"type": "node", "id": 6436939815, "lat": 36.3576725, "lon": 28.2119488}, {"type": "node", "id": 6436939818, "lat": 36.3570978, "lon": 28.2120366}, {"type": "node", "id": 6436939819, "lat": 36.3570981, "lon": 28.2120213}, {"type": "node", "id": 6436939820, "lat": 36.3570936, "lon": 28.2120004}, {"type": "node", "id": 6436939821, "lat": 36.3570843, "lon": 28.2119839}, {"type": "node", "id": 6436939822, "lat": 36.3570174, "lon": 28.2120266}, {"type": "node", "id": 6436939823, "lat": 36.357021, "lon": 28.2120485}, {"type": "node", "id": 6436939824, "lat": 36.3569978, "lon": 28.212058}, {"type": "node", "id": 6436939825, "lat": 36.3569848, "lon": 28.2120788}, {"type": "node", "id": 6436939826, "lat": 36.357032, "lon": 28.2122229}, {"type": "node", "id": 6436939827, "lat": 36.3570537, "lon": 28.2122267}, {"type": "node", "id": 6436939828, "lat": 36.3570782, "lon": 28.212225}, {"type": "node", "id": 6436939829, "lat": 36.3571008, "lon": 28.2122132}, {"type": "node", "id": 6436939830, "lat": 36.3571782, "lon": 28.2120873}, {"type": "node", "id": 6436939831, "lat": 36.3571635, "lon": 28.2120798}, {"type": "node", "id": 6436939832, "lat": 36.3571477, "lon": 28.2120783}, {"type": "node", "id": 6436939833, "lat": 36.3571324, "lon": 28.2120831}, {"type": "node", "id": 6436939834, "lat": 36.3571206, "lon": 28.2121881}, {"type": "node", "id": 6436939835, "lat": 36.3571281, "lon": 28.2121952}, {"type": "node", "id": 6436939836, "lat": 36.3571443, "lon": 28.212202}, {"type": "node", "id": 6436939837, "lat": 36.3571614, "lon": 28.2122016}, {"type": "node", "id": 6436939838, "lat": 36.3571774, "lon": 28.2121941}, {"type": "node", "id": 6436939839, "lat": 36.3571905, "lon": 28.2121803}, {"type": "node", "id": 6436939840, "lat": 36.3571991, "lon": 28.2121619}, {"type": "node", "id": 6436939841, "lat": 36.3572021, "lon": 28.212141}, {"type": "node", "id": 6436939842, "lat": 36.3571993, "lon": 28.21212}, {"type": "node", "id": 6436939843, "lat": 36.357191, "lon": 28.2121014}, {"type": "node", "id": 6436939844, "lat": 36.3569769, "lon": 28.2121037}, {"type": "node", "id": 6436939845, "lat": 36.3569748, "lon": 28.212155}, {"type": "node", "id": 6436939846, "lat": 36.3569993, "lon": 28.2122024}, {"type": "node", "id": 6436939847, "lat": 36.3570144, "lon": 28.2122151}, {"type": "node", "id": 6436939848, "lat": 36.3571222, "lon": 28.2120895}, {"type": "node", "id": 6436939849, "lat": 36.3571177, "lon": 28.2120795}, {"type": "node", "id": 6436939850, "lat": 36.357099, "lon": 28.2120597}, {"type": "node", "id": 6436939851, "lat": 36.3570677, "lon": 28.2119745}, {"type": "node", "id": 6436939852, "lat": 36.3570452, "lon": 28.2119748}, {"type": "node", "id": 6436939853, "lat": 36.3570286, "lon": 28.2119874}, {"type": "node", "id": 6436939854, "lat": 36.3570195, "lon": 28.2120061}, {"type": "node", "id": 6436939855, "lat": 36.3569746, "lon": 28.2121312}, {"type": "node", "id": 6436939856, "lat": 36.3569828, "lon": 28.2121818}, {"type": "node", "id": 6436939857, "lat": 36.3570901, "lon": 28.2120561}, {"type": "node", "id": 6440257686, "lat": 36.4440357, "lon": 28.2275503, "tags": {"amenity": "restaurant", "name:en": "Golden olympiade"}}, {"type": "node", "id": 6440878658, "lat": 36.3588232, "lon": 28.21114, "tags": {"addr:city": "Kallithea", "addr:postcode": "85100", "addr:street": "Epsilon Shopping Center", "amenity": "cafe", "cuisine": "greek", "information": "good coffee & quality drinks", "name": "MODA CAFE"}}, {"type": "node", "id": 6440930585, "lat": 36.4422717, "lon": 28.2321609, "tags": {"amenity": "restaurant", "int_name": "at Thomas", "name": "at Thomas", "name:el": "\u03c3\u03c4\u03bf\u03c5 \u03b8\u03c9\u03bc\u03b1"}}, {"type": "node", "id": 6442299717, "lat": 36.4414479, "lon": 28.2258197, "tags": {"addr:city": "Rhodes", "addr:housenumber": "71", "addr:postcode": "85100", "addr:street": "St.  Phanouriou & Onrirou str.", "amenity": "restaurant", "name": "ANGELA CASTLE", "outdoor_seating": "yes", "wheelchair": "no"}}, {"type": "node", "id": 6548008786, "lat": 36.2928109, "lon": 28.1596286, "tags": {"amenity": "restaurant", "cuisine": "greek", "internet_access": "wlan", "name:de": "To Kanati"}}, {"type": "node", "id": 6565432988, "lat": 36.4162436, "lon": 28.135894, "tags": {"addr:street": "\u03a0\u03bf\u03c3\u03b5\u03b9\u03b4\u03ce\u03bd\u03bf\u03c2 3, Ialisos 851 01", "amenity": "restaurant", "cuisine": "greek", "internet_access": "wlan", "name": "\u0394\u03b5\u03bd\u03c4\u03c1\u03bf\u03bb\u03af\u03b2\u03b1\u03bd\u03bf", "name:el": "\u0394\u03b5\u03bd\u03c4\u03c1\u03bf\u03bb\u03af\u03b2\u03b1\u03bd\u03bf", "name:en": "Rosemary Restaurant", "phone": "690 870 6821"}}, {"type": "node", "id": 6566360572, "lat": 36.3964968, "lon": 28.2258562, "tags": {"amenity": "restaurant", "email": "antoniopizzapasta@gmail.com", "name": "Antonio", "opening_hours": "Mo-Su 13:00-01:00", "phone": "+302241062324", "website": "https://www.antoniopizzapasta.com/"}}, {"type": "node", "id": 6580002589, "lat": 36.338293, "lon": 28.2021507, "tags": {"addr:street": "86Q2+8V \u0424\u0430\u043b\u0438\u0440\u0430\u043a\u0438, \u041a\u0430\u043b\u0438\u0444\u0435\u044f, \u0413\u0440\u0435\u0446\u0438\u044f", "amenity": "restaurant", "cuisine": "greek;pizza;pasta;fish;fish_and_chips;international;coffee_shop", "internet_access": "wlan", "name": "\u039f Tsipouromezes to Kosta", "opening_hours": "Mo-Su 11:00-23:00", "phone": "+30 2241 084731", "website": "https://m.facebook.com/tsipouromezes.gr/"}}, {"type": "node", "id": 6618857986, "lat": 36.4488587, "lon": 28.2219697, "tags": {"amenity": "cafe", "name": "Gran Caf\u00e9", "wheelchair": "limited"}}, {"type": "node", "id": 6635438562, "lat": 36.2954526, "lon": 28.1622209, "tags": {"amenity": "restaurant"}}, {"type": "node", "id": 6665115130, "lat": 36.4212805, "lon": 28.1583083, "tags": {"amenity": "cafe", "cafe": "cafeteria", "cuisine": "cake", "name": "Cake Box", "outdoor_seating": "terrace", "phone": "+302241090504", "self_service": "yes", "takeaway": "yes"}}, {"type": "node", "id": 6665115133, "lat": 36.4201869, "lon": 28.1581764, "tags": {"amenity": "cafe", "cuisine": "italian", "name": "Bella Maria Pizzeria", "outdoor_seating": "yes", "takeaway": "yes"}}, {"type": "node", "id": 6665588703, "lat": 36.4185371, "lon": 28.1571958, "tags": {"amenity": "restaurant", "cuisine": "greek", "name": "Sirtaki taverna", "outdoor_seating": "yes"}}, {"type": "node", "id": 6665588704, "lat": 36.4183852, "lon": 28.1571427, "tags": {"amenity": "restaurant", "cuisine": "chinese", "name": "Golden Dragon", "outdoor_seating": "yes"}}, {"type": "node", "id": 6665588705, "lat": 36.4177811, "lon": 28.1568659, "tags": {"amenity": "cafe", "name": "Alea snack bar"}}, {"type": "node", "id": 6685154985, "lat": 36.4434329, "lon": 28.2242182, "tags": {"amenity": "restaurant", "check_date": "2025-05-15", "cuisine": "greek", "name": "Lindos Garden", "name:en": "Lindos Garden", "wheelchair": "limited"}}, {"type": "node", "id": 6685195585, "lat": 36.4436623, "lon": 28.2280218, "tags": {"amenity": "cafe", "name:en": "Davinci Artisan Gelato"}}, {"type": "node", "id": 6721331185, "lat": 36.3618337, "lon": 28.1187585, "tags": {"amenity": "restaurant"}}, {"type": "node", "id": 6726530988, "lat": 36.4501673, "lon": 28.2206109, "tags": {"addr:street": "28 OCTOBER STREET\n& AMARANTOU CORNER\nRhodes, Greece", "amenity": "cafe", "check_date": "2025-05-11", "name": "Ono Coffee & Bar", "opening_hours": "Mo-Sa 10:00-00:30", "phone": "+306955904194", "website": "onobar.eu"}}, {"type": "node", "id": 6787611086, "lat": 36.429532, "lon": 28.2310968, "tags": {"addr:street": "\u039a\u03bb\u03b1\u03c5\u03b4\u03af\u03bf\u03c5 \u03a0\u03ad\u03c0\u03c0\u03b5\u03c1", "amenity": "restaurant", "cuisine": "greek;seafood", "name": "Aegean Fish"}}, {"type": "node", "id": 6813565898, "lat": 36.3310827, "lon": 28.2074075, "tags": {"amenity": "restaurant", "name": "Terra", "outdoor_seating": "yes"}}, {"type": "node", "id": 6814409585, "lat": 36.4152933, "lon": 28.1326717, "tags": {"addr:city": "\u039a\u03c1\u03b5\u03bc\u03b1\u03c3\u03c4\u03ae", "addr:street": "\u0395\u03bb\u03b5\u03c5\u03b8\u03b5\u03c1\u03af\u03b1\u03c2", "amenity": "cafe", "name": "Cream Donuts", "name:en": "CREAM DONUTS", "name:ru": "\u043a\u0430\u0444\u0435"}}, {"type": "node", "id": 7377458885, "lat": 36.4136234, "lon": 28.1545991, "tags": {"amenity": "restaurant", "name:en": "Geitonia Mezedokafenes Restaurant"}}, {"type": "node", "id": 7799194585, "lat": 36.3273673, "lon": 28.1943649, "tags": {"amenity": "restaurant", "name:en": "Lelis Taverna"}}, {"type": "node", "id": 8016003186, "lat": 36.3354869, "lon": 28.2081985, "tags": {"amenity": "restaurant", "name": "Stama Restaurant"}}, {"type": "node", "id": 8016031644, "lat": 36.3448575, "lon": 28.2047847, "tags": {"amenity": "restaurant", "name": "St\u00e9fanos"}}, {"type": "node", "id": 8085770217, "lat": 36.4433688, "lon": 28.2251238, "tags": {"amenity": "restaurant", "cuisine": "greek;mediterranean", "name": "To Rodi"}}, {"type": "node", "id": 8411271417, "lat": 36.4344889, "lon": 28.2199143, "tags": {"addr:housenumber": "67", "addr:postcode": "85100", "addr:street": "\u0395\u03b8\u03bd\u03b9\u03ba\u03ae\u03c2 \u0391\u03bd\u03c4\u03af\u03c3\u03c4\u03b1\u03c3\u03b7\u03c2", "amenity": "cafe", "cuisine": "international", "internet_access": "wlan", "name:en": "Takis Taste", "opening_hours": "Mo-Sa 00:00-24:00", "phone": "2241070800"}}, {"type": "node", "id": 8538607094, "lat": 36.4250825, "lon": 28.2255569, "tags": {"amenity": "restaurant", "name": "\u0397 \u03a3\u03a5\u039d\u0391\u039d\u03a4\u0397\u03a3\u0397"}}, {"type": "node", "id": 8538844169, "lat": 36.4338051, "lon": 28.2234598, "tags": {"amenity": "restaurant", "cuisine": "pizza", "name": "\u039b\u03b5\u03b2\u03ad\u03bd\u03c4\u03b7\u03c2"}}, {"type": "node", "id": 8541094204, "lat": 36.4242554, "lon": 28.2117068, "tags": {"amenity": "restaurant", "name": "\u039c\u03cd\u03b8\u03bf\u03c2"}}, {"type": "node", "id": 8542160133, "lat": 36.3880289, "lon": 28.2010942}, {"type": "node", "id": 8542160134, "lat": 36.3880148, "lon": 28.2012265}, {"type": "node", "id": 8542160135, "lat": 36.3877958, "lon": 28.201204}, {"type": "node", "id": 8542160136, "lat": 36.3878219, "lon": 28.2010617}, {"type": "node", "id": 8542186988, "lat": 36.3835071, "lon": 28.2141548, "tags": {"amenity": "cafe", "name": "\u039f\u03bc\u03cc\u03bd\u03bf\u03b9\u03b1"}}, {"type": "node", "id": 8542190202, "lat": 36.3856446, "lon": 28.2131883, "tags": {"amenity": "restaurant", "name": "\u039a\u039f\u03a5\u03a4\u039f\u03a5\u039a\u0399 \u03a4\u0391 \u039c\u0391\u039d\u03a4\u0391\u039b\u0391"}}, {"type": "node", "id": 8542714425, "lat": 36.3933954, "lon": 28.2350436, "tags": {"amenity": "restaurant", "cuisine": "fish_and_chips;greek", "name": "\u03a4\u03b1 \u039a\u03b1\u03b2\u03bf\u03c5\u03c1\u03ac\u03ba\u03b9\u03b1 - \u03a4\u03c3\u03b1\u03bc\u03c0\u03af\u03ba\u03bf\u03c2", "name:el": "\u03a4\u03b1 \u039a\u03b1\u03b2\u03bf\u03c5\u03c1\u03ac\u03ba\u03b9\u03b1 - \u03a4\u03c3\u03b1\u03bc\u03c0\u03af\u03ba\u03bf\u03c2", "name:en": "Ta Kavourakia - Tsampikos"}}, {"type": "node", "id": 8551683628, "lat": 36.3899896, "lon": 28.2159495, "tags": {"addr:city": "\u039a\u03bf\u03c3\u03ba\u03b9\u03bd\u03bf\u03cd", "amenity": "cafe", "name": "La Creme"}}, {"type": "node", "id": 8551683633, "lat": 36.3870015, "lon": 28.2131028, "tags": {"amenity": "cafe", "name": "\u0391\u03bb\u03bc\u03c5\u03c1\u03cc \u0393\u03bb\u03c5\u03ba\u03cc -Cafe - Snak bar"}}, {"type": "node", "id": 8551683634, "lat": 36.3862292, "lon": 28.2120056}, {"type": "node", "id": 8551683635, "lat": 36.3861917, "lon": 28.2120284}, {"type": "node", "id": 8551683636, "lat": 36.3862004, "lon": 28.2121088}, {"type": "node", "id": 8551683637, "lat": 36.3862516, "lon": 28.2120889}, {"type": "node", "id": 8551687939, "lat": 36.3979762, "lon": 28.2270118, "tags": {"amenity": "cafe", "name": "Zoo Playground"}}, {"type": "node", "id": 8567874285, "lat": 36.3874931, "lon": 28.1358161}, {"type": "node", "id": 8567874286, "lat": 36.3874671, "lon": 28.1357691}, {"type": "node", "id": 8567874287, "lat": 36.3874884, "lon": 28.1357265}, {"type": "node", "id": 8567874288, "lat": 36.3874245, "lon": 28.1356427}, {"type": "node", "id": 8567874289, "lat": 36.3872164, "lon": 28.135869}, {"type": "node", "id": 8567874290, "lat": 36.3873039, "lon": 28.1359645}, {"type": "node", "id": 8567874291, "lat": 36.3874257, "lon": 28.1358205}, {"type": "node", "id": 8568668288, "lat": 36.4179139, "lon": 28.1353219, "tags": {"amenity": "restaurant", "name": "\u03a0\u03ae\u03b3\u03b1\u03c3\u03bf\u03c2 | \u0395\u03c3\u03c4\u03b9\u03b1\u03c4\u03cc\u03c1\u03b9\u03bf", "name:el": "\u03a0\u03ae\u03b3\u03b1\u03c3\u03bf\u03c2 | \u0395\u03c3\u03c4\u03b9\u03b1\u03c4\u03cc\u03c1\u03b9\u03bf", "name:en": "Pegasus Restaurant"}}, {"type": "node", "id": 8569591678, "lat": 36.3870515, "lon": 28.2119031, "tags": {"amenity": "restaurant", "name": "\u039f \u039a\u03a9\u03a4\u03a3\u0391\u039a\u0397\u03a3"}}, {"type": "node", "id": 8783650756, "lat": 36.3977071, "lon": 28.2273853, "tags": {"addr:city": "Reni Koskinou", "addr:postcode": "85100", "amenity": "cafe", "name": "Tsampis & family bakery cafe", "opening_hours": "Mo-Su 07:00-18:00", "outdoor_seating": "yes", "phone": "+302241065619", "website": "https://www.facebook.com/Tsampis-family-bakery-cafe-110044534487515"}}, {"type": "node", "id": 8795490820, "lat": 36.3521232, "lon": 28.2082274, "tags": {"addr:city": "\u03a6\u03b1\u03bb\u03b7\u03c1\u03ac\u03ba\u03b9", "addr:housenumber": "1", "addr:postcode": "85100", "addr:street": "Aischini", "amenity": "restaurant", "cuisine": "greek;pizza;coffee_shop;sandwich;chicken;seafood;burger", "name": "Kastri beach Taverna", "opening_hours": "Mo-Su 10:00-22:00", "phone": "2241 085381", "website": "https://www.facebook.com/kastritaverna"}}, {"type": "node", "id": 8807019640, "lat": 36.4126436, "lon": 28.1200449}, {"type": "node", "id": 8807019641, "lat": 36.4126548, "lon": 28.1202298}, {"type": "node", "id": 8807019642, "lat": 36.412524, "lon": 28.1202498}, {"type": "node", "id": 8807019643, "lat": 36.4125091, "lon": 28.1200511}, {"type": "node", "id": 8940690155, "lat": 36.3744782, "lon": 28.2329012, "tags": {"amenity": "restaurant", "name": "Taverna Tassos"}}, {"type": "node", "id": 8942041613, "lat": 36.4435961, "lon": 28.2260746, "tags": {"amenity": "restaurant", "name": "Zizi"}}, {"type": "node", "id": 8944855669, "lat": 36.2991907, "lon": 28.1752911, "tags": {"amenity": "restaurant", "name": "Taverna George"}}, {"type": "node", "id": 8951722901, "lat": 36.4167219, "lon": 28.1632814, "tags": {"amenity": "restaurant", "name": "Chronis"}}, {"type": "node", "id": 8963662450, "lat": 36.2995347, "lon": 28.1754361, "tags": {"amenity": "restaurant", "name": "George Taverna"}}, {"type": "node", "id": 8963666530, "lat": 36.2991777, "lon": 28.1753238, "tags": {"amenity": "restaurant", "name": "Argiro Taverna"}}, {"type": "node", "id": 9050100918, "lat": 36.7257833, "lon": 28.1297001, "tags": {"addr:street": "Turgutk\u00f6y K\u00f6y\u00fc 7. Sok No:158", "amenity": "restaurant", "name:en": "Delikyol Deniz Restaurant", "phone": "+90 532 286 45 39"}}, {"type": "node", "id": 9088972417, "lat": 36.4454062, "lon": 28.2275204, "tags": {"amenity": "restaurant", "email": "info@zebrano.gr", "name": "Zebrano Restaurant Bar", "phone": "+30 22410 77125", "website": "https://www.zebrano.gr"}}, {"type": "node", "id": 9123894427, "lat": 36.4335735, "lon": 28.2228643, "tags": {"amenity": "cafe", "brand": "Coffee Island", "brand:wikidata": "Q60867333", "cuisine": "coffee_shop", "name": "Coffee Island", "takeaway": "yes"}}, {"type": "node", "id": 9197437553, "lat": 36.4168042, "lon": 28.1545468}, {"type": "node", "id": 9197437554, "lat": 36.4168352, "lon": 28.1543632}, {"type": "node", "id": 9197437555, "lat": 36.4170524, "lon": 28.1544048}, {"type": "node", "id": 9197437556, "lat": 36.4170219, "lon": 28.1546004}, {"type": "node", "id": 9508333366, "lat": 36.4192125, "lon": 28.2016315, "tags": {"addr:city": "\u03a1\u03cc\u03b4\u03bf\u03c2", "addr:housenumber": "106", "addr:street": "\u0393\u03b9\u03ce\u03c1\u03b3\u03bf\u03c5 \u03a3\u03b5\u03c6\u03ad\u03c1\u03b7", "amenity": "cafe", "name": "Coffeebrands"}}, {"type": "node", "id": 9508333411, "lat": 36.4205912, "lon": 28.2033423, "tags": {"addr:city": "\u03a1\u03cc\u03b4\u03bf\u03c2", "addr:street": "\u0393\u03b9\u03ce\u03c1\u03b3\u03bf\u03c5 \u03a3\u03b5\u03c6\u03ad\u03c1\u03b7", "amenity": "cafe", "name": "Coffee berry \u03a1\u03bf\u03b4\u03bf\u03c2 \u039c\u03b7\u03b4\u03b5\u03b9\u03b1"}}, {"type": "node", "id": 9621583117, "lat": 36.4431364, "lon": 28.2282493, "tags": {"amenity": "restaurant", "diet:vegan": "yes", "name": "Paneri"}}, {"type": "node", "id": 9621593417, "lat": 36.4472233, "lon": 28.2241574, "tags": {"amenity": "restaurant", "check_date": "2025-05-12", "diet:vegan": "yes", "name": "Boston Burger Bar"}}, {"type": "node", "id": 9621597017, "lat": 36.4507759, "lon": 28.2176232, "tags": {"amenity": "restaurant", "diet:vegan": "yes", "name": "Taqueria Muchachos"}}, {"type": "node", "id": 9621599017, "lat": 36.450805, "lon": 28.2176445, "tags": {"amenity": "restaurant", "diet:vegan": "yes", "name": "Piatakia"}}, {"type": "node", "id": 9621603017, "lat": 36.450668, "lon": 28.2185949, "tags": {"amenity": "restaurant", "diet:vegan": "yes", "name": "Avocado"}}, {"type": "node", "id": 9621606417, "lat": 36.4482536, "lon": 28.2215991, "tags": {"addr:housenumber": "25", "addr:street": "\u03a3\u03bf\u03c6\u03bf\u03ba\u03bb\u03ae \u0392\u03b5\u03bd\u03b9\u03b6\u03ad\u03bb\u03bf\u03c5", "air_conditioning": "yes", "amenity": "restaurant", "cuisine": "greek", "diet:vegan": "yes", "email": "tismammisou@gmail.com", "indoor_seating": "yes", "internet_access": "wlan", "internet_access:fee": "customers", "name": "Tis Mammis Sou", "outdoor_seating": "yes", "phone": "+30 22410 70147", "toilets": "yes"}}, {"type": "node", "id": 9621616217, "lat": 36.4514187, "lon": 28.2226777, "tags": {"amenity": "restaurant", "diet:vegan": "yes", "name": "Oniro Art Meze"}}, {"type": "node", "id": 9657856788, "lat": 36.4484995, "lon": 28.2241488, "tags": {"amenity": "cafe", "name": "Piazza diRodi"}}, {"type": "node", "id": 9657856789, "lat": 36.4485667, "lon": 28.2244914, "tags": {"amenity": "cafe", "name": "Skoufos pastry & bakery"}}, {"type": "node", "id": 9657856790, "lat": 36.4496608, "lon": 28.2236084, "tags": {"amenity": "cafe", "name": "North Bakery"}}, {"type": "node", "id": 9657856793, "lat": 36.4418444, "lon": 28.2261476, "tags": {"amenity": "restaurant", "name": "Walk Inn"}}, {"type": "node", "id": 9693143017, "lat": 36.4435885, "lon": 28.2258387, "tags": {"amenity": "restaurant", "name": "Zizi", "name:en": "Taverna Zizi"}}, {"type": "node", "id": 9757152118, "lat": 36.4425155, "lon": 28.2297382, "tags": {"amenity": "cafe", "name:en": "Mama Chrisoula"}}, {"type": "node", "id": 9812002317, "lat": 36.4433892, "lon": 28.2284561, "tags": {"addr:housenumber": "9", "addr:street": "\u0394\u03b7\u03bc\u03bf\u03ba\u03c1\u03af\u03c4\u03bf\u03c5", "amenity": "restaurant", "name": "Il Giardino Modern Traditional Cuisine"}}, {"type": "node", "id": 9836543426, "lat": 36.3866407, "lon": 28.2127508, "tags": {"addr:city": "\u039a\u03bf\u03c3\u03ba\u03b9\u03bd\u03bf\u03cd", "amenity": "restaurant", "name": "Pilonas"}}, {"type": "node", "id": 9836543429, "lat": 36.3869087, "lon": 28.2124807, "tags": {"amenity": "cafe"}}, {"type": "node", "id": 9879054420, "lat": 36.4306688, "lon": 28.2219171, "tags": {"amenity": "restaurant", "name": "Sakellaris Souvlaki"}}, {"type": "node", "id": 9879373917, "lat": 36.4308089, "lon": 28.2168641, "tags": {"amenity": "restaurant", "name": "Agrin\u00f3"}}, {"type": "node", "id": 9879381617, "lat": 36.4368167, "lon": 28.2336002, "tags": {"amenity": "restaurant", "name": "Pitafan Yeeros Rhodes Town Delivery"}}, {"type": "node", "id": 9883802117, "lat": 36.4330812, "lon": 28.2349345, "tags": {"amenity": "restaurant", "name": "\u039a\u03bf\u03c1\u03af\u03bd\u03b8\u03b9\u03bf\u03c2"}}, {"type": "node", "id": 9883808817, "lat": 36.4264945, "lon": 28.2118286, "tags": {"amenity": "restaurant", "name": "novi"}}, {"type": "node", "id": 9883813217, "lat": 36.4267628, "lon": 28.2121387, "tags": {"amenity": "restaurant", "name": "\u039f\u03b9 \u03c3\u03c0\u03b9\u03c4\u03b9\u03ba\u03ad\u03c2 \u03b3\u03b5\u03cd\u03c3\u03b5\u03b9\u03c2 \u03c4\u03b7\u03c2 \u039c\u03b1\u03c1\u03af\u03b1\u03c2"}}, {"type": "node", "id": 9947815117, "lat": 36.3262165, "lon": 28.2022209, "tags": {"amenity": "cafe", "cuisine": "breakfast;cake;coffee_shop;ice_cream", "name": "Pavo", "name:ru": "\u041f\u0430\u0432\u043e"}}, {"type": "node", "id": 10000364488, "lat": 36.4180261, "lon": 28.1838758, "tags": {"amenity": "restaurant", "name": "Gourmet"}}, {"type": "node", "id": 10005604935, "lat": 36.4181365, "lon": 28.128925}, {"type": "node", "id": 10005604936, "lat": 36.4179787, "lon": 28.1289985}, {"type": "node", "id": 10005604937, "lat": 36.4180394, "lon": 28.1291999}, {"type": "node", "id": 10005604938, "lat": 36.4181385, "lon": 28.1291538}, {"type": "node", "id": 10005604939, "lat": 36.4181057, "lon": 28.1290449}, {"type": "node", "id": 10005604940, "lat": 36.4181644, "lon": 28.1290176}, {"type": "node", "id": 10009893804, "lat": 36.4110833, "lon": 28.1540346}, {"type": "node", "id": 10009893805, "lat": 36.4109811, "lon": 28.1540336}, {"type": "node", "id": 10009893806, "lat": 36.41098, "lon": 28.1541937}, {"type": "node", "id": 10009893807, "lat": 36.4110822, "lon": 28.1541947}, {"type": "node", "id": 10012611669, "lat": 36.4404084, "lon": 28.2285652}, {"type": "node", "id": 10012611670, "lat": 36.4403981, "lon": 28.228612}, {"type": "node", "id": 10012611671, "lat": 36.4403377, "lon": 28.2285915}, {"type": "node", "id": 10012611672, "lat": 36.440348, "lon": 28.2285447}, {"type": "node", "id": 10054385717, "lat": 36.4475085, "lon": 28.2243466, "tags": {"amenity": "restaurant", "check_date": "2025-05-12", "name": "\u03bc\u03c0\u03b1\u03c7\u03b1\u03c1", "name:el": "\u03bc\u03c0\u03b1\u03c7\u03b1\u03c1", "name:en": "Bahar Souvlakeri", "opening_hours": "We-Mo 12:00-00:00"}}, {"type": "node", "id": 10090064430, "lat": 36.4427194, "lon": 28.2283625, "tags": {"amenity": "cafe", "cuisine": "breakfast;coffee_shop", "name:en": "7 Grams"}}, {"type": "node", "id": 10090064431, "lat": 36.4377101, "lon": 28.2337064, "tags": {"amenity": "cafe", "name:en": "Finn Cafe"}}, {"type": "node", "id": 10090064433, "lat": 36.4436326, "lon": 28.2275681, "tags": {"amenity": "cafe", "name:en": "Chill Box"}}, {"type": "node", "id": 10090068422, "lat": 36.441761, "lon": 28.2274792, "tags": {"amenity": "restaurant", "cuisine": "greek", "name": "\u03a0\u03ac\u03bc\u03b5 \u0391\u03bd\u03c4\u03ac\u03bc\u03b1", "name:el": "\u03a0\u03ac\u03bc\u03b5 \u0391\u03bd\u03c4\u03ac\u03bc\u03b1", "name:en": "Pame Antama"}}, {"type": "node", "id": 10090069220, "lat": 36.4491196, "lon": 28.2242419, "tags": {"amenity": "cafe", "name:en": "Parak\u00e0n Culture of Coffee"}}, {"type": "node", "id": 10090069221, "lat": 36.4408681, "lon": 28.2297094, "tags": {"amenity": "restaurant", "cuisine": "breakfast;greek", "name:en": "Saint Michel Restaurant Bar", "opening_hours": "Mo-Su 08:00-11:00"}}, {"type": "node", "id": 10103395516, "lat": 36.3919176, "lon": 28.2391405}, {"type": "node", "id": 10103450817, "lat": 36.3918015, "lon": 28.2393332}, {"type": "node", "id": 10103450818, "lat": 36.3919127, "lon": 28.2394606}, {"type": "node", "id": 10103450819, "lat": 36.3919493, "lon": 28.2394409}, {"type": "node", "id": 10103450820, "lat": 36.3919859, "lon": 28.2393984}, {"type": "node", "id": 10103450821, "lat": 36.392014, "lon": 28.2393498}, {"type": "node", "id": 10103450822, "lat": 36.392025, "lon": 28.2393043}, {"type": "node", "id": 10103450823, "lat": 36.3920348, "lon": 28.2392618}, {"type": "node", "id": 10103450824, "lat": 36.3920397, "lon": 28.2392376}, {"type": "node", "id": 10103450825, "lat": 36.392025, "lon": 28.2391905}, {"type": "node", "id": 10103450826, "lat": 36.3919786, "lon": 28.239142}, {"type": "node", "id": 10103450827, "lat": 36.3919591, "lon": 28.2391769}, {"type": "node", "id": 10103450829, "lat": 36.3912655, "lon": 28.2389136, "tags": {"amenity": "restaurant", "name": "GAIA", "opening_hours": "Mo-Sa 06:30-10:00,12:30-14:30,18:30-21:30"}}, {"type": "node", "id": 10103450830, "lat": 36.3910115, "lon": 28.2390835, "tags": {"amenity": "restaurant", "name": "FOS", "opening_hours": "Mo-Sa 19:30-22:00"}}, {"type": "node", "id": 10675013419, "lat": 36.3142309, "lon": 28.0960535, "tags": {"amenity": "restaurant", "name": "\u03a0\u03af\u03bd\u03c9 \u039a\u03b1\u03b9 \u039c\u03b5\u03b8\u03ce"}}, {"type": "node", "id": 10675013420, "lat": 36.314269, "lon": 28.0954237, "tags": {"amenity": "restaurant", "int_name": "Greek Taverna in Psinthos Village", "name": "\u03a3\u03c4\u03bf\u03bb\u03af\u03b4\u03b9 \u03c4\u03b7\u03c2 \u03a8\u03af\u03bd\u03b8\u03bf\u03c5", "name:el": "\u03a3\u03c4\u03bf\u03bb\u03af\u03b4\u03b9 \u03c4\u03b7\u03c2 \u03a8\u03af\u03bd\u03b8\u03bf\u03c5"}}, {"type": "node", "id": 10675013421, "lat": 36.3140393, "lon": 28.0956276, "tags": {"amenity": "restaurant", "name": "\u03a4\u03b1\u03b2\u03ad\u03c1\u03bd\u03b1 \u03a0\u03bb\u03b1\u03c4\u03b9\u03ac"}}, {"type": "node", "id": 10696608540, "lat": 36.7159209, "lon": 28.1692909}, {"type": "node", "id": 10696608541, "lat": 36.7157898, "lon": 28.1692131}, {"type": "node", "id": 10696608542, "lat": 36.7157355, "lon": 28.1693557}, {"type": "node", "id": 10696608543, "lat": 36.7158666, "lon": 28.1694335}, {"type": "node", "id": 10697146132, "lat": 36.7121752, "lon": 28.1798453, "tags": {"amenity": "cafe"}}, {"type": "node", "id": 10697146134, "lat": 36.7123484, "lon": 28.1795312, "tags": {"amenity": "cafe"}}, {"type": "node", "id": 10697146136, "lat": 36.7145835, "lon": 28.1792107, "tags": {"amenity": "cafe"}}, {"type": "node", "id": 10697146137, "lat": 36.7148119, "lon": 28.1792496, "tags": {"amenity": "cafe"}}, {"type": "node", "id": 10697146138, "lat": 36.7148673, "lon": 28.1793983, "tags": {"amenity": "cafe"}}, {"type": "node", "id": 10749253881, "lat": 36.7307051, "lon": 28.1536477, "tags": {"amenity": "cafe"}}, {"type": "node", "id": 10774864956, "lat": 36.712225, "lon": 28.1794512, "tags": {"amenity": "cafe"}}, {"type": "node", "id": 10824253705, "lat": 36.4358499, "lon": 28.218959, "tags": {"addr:housenumber": "87", "addr:street": "\u03a0\u03b1\u03bd\u03b1\u03b3\u03b9\u03ce\u03c4\u03bf\u03c5 \u03a1\u03bf\u03b4\u03af\u03bf\u03c5", "amenity": "cafe", "cuisine": "greek", "name": "\u03a4\u03bf \u03bd\u03cc\u03c3\u03c4\u03b9\u03bc\u03bf", "name:el": "\u03a4\u03bf \u03bd\u03cc\u03c3\u03c4\u03b9\u03bc\u03bf", "name:en": "Nostimo", "phone": "2241033700"}}, {"type": "node", "id": 10875300524, "lat": 36.4492986, "lon": 28.217101, "tags": {"addr:city": "Rhodes", "addr:postcode": "851 31", "addr:street": "\u0395\u03c1\u03c5\u03b8\u03c1\u03bf\u03cd \u03a3\u03c4\u03b1\u03c5\u03c1\u03bf\u03cd", "amenity": "restaurant", "cuisine": "pizza;coffee_shop;regional;international", "internet_access": "wlan", "name": "THETIS bar", "phone": "+30 22410 27106", "website": "https://m.facebook.com/thetisbar"}}, {"type": "node", "id": 10875495028, "lat": 36.4500727, "lon": 28.2170451, "tags": {"addr:city": "Rodes", "addr:housenumber": "51-53", "addr:postcode": "851 31", "addr:street": "28\u03b7\u03c2 \u039f\u03ba\u03c4\u03c9\u03b2\u03c1\u03af\u03bf\u03c5", "amenity": "restaurant", "internet_access": "wlan", "internet_access:fee": "no", "name": "GG FIOGO Gastrobar", "phone": "+302241022460", "website": "https://m.facebook.com/profile.php?id=100090683196596"}}, {"type": "node", "id": 10875715061, "lat": 36.4491757, "lon": 28.2171543, "tags": {"amenity": "restaurant", "cuisine": "pizza", "name": "Arancino"}}, {"type": "node", "id": 10911481338, "lat": 36.4430248, "lon": 28.2293624, "tags": {"amenity": "restaurant", "name": "Pita Nikos", "outdoor_seating": "yes"}}, {"type": "node", "id": 10911481343, "lat": 36.4431515, "lon": 28.2286057, "tags": {"amenity": "restaurant", "name": "Mateo"}}, {"type": "node", "id": 10911481344, "lat": 36.4426878, "lon": 28.2293122, "tags": {"amenity": "restaurant", "name": "Topaz Garden", "outdoor_seating": "yes"}}, {"type": "node", "id": 10911481352, "lat": 36.4428637, "lon": 28.2293354, "tags": {"amenity": "restaurant", "name": "Eros", "outdoor_seating": "yes"}}, {"type": "node", "id": 10914334934, "lat": 36.4504356, "lon": 28.2197537, "tags": {"amenity": "cafe", "check_date": "2025-05-13", "indoor_seating": "yes", "name": "Terrace", "outdoor_seating": "yes", "phone": "+30 22410 75700", "toilets": "yes"}}, {"type": "node", "id": 11025585210, "lat": 36.4474123, "lon": 28.224409, "tags": {"addr:housenumber": "17", "addr:street": "\u039aosti Palama", "amenity": "restaurant", "description": "great meze and live music, authentic greek food, many locals", "name": "Avli", "phone": "+30 694 010 8112"}}, {"type": "node", "id": 11062428191, "lat": 36.4416692, "lon": 28.2260911, "tags": {"addr:city": "\u03a1\u03cc\u03b4\u03bf\u03c2", "addr:housenumber": "12", "addr:postcode": "851 00", "addr:street": "\u03a0\u03bb\u03b1\u03c4\u03b5\u03af\u03b1 \u0394\u03c9\u03c1\u03b9\u03ad\u03c9\u03c2", "amenity": "restaurant", "name": "Oasis", "opening_hours": "10:00-24:00"}}, {"type": "node", "id": 11108352205, "lat": 36.4420892, "lon": 28.2272275, "tags": {"amenity": "restaurant", "cuisine": "regional;tapas", "diet:vegetarian": "yes", "name:en": "Hamam caf\u00e9"}}, {"type": "node", "id": 11226440437, "lat": 36.4344099, "lon": 28.2362448, "tags": {"addr:housenumber": "100", "addr:street": "Afstralias", "amenity": "restaurant", "contact:facebook": "KerasmaRestaurant", "cuisine": "fine_dining;greek", "email": "kerasmarestaurant@gmail.com", "name:de": "Kerasma", "name:en": "Kerasma", "phone": "+30 694 266 2020"}}, {"type": "node", "id": 11230673669, "lat": 36.412542, "lon": 28.1231739, "tags": {"amenity": "cafe", "brand": "Coffee Island", "brand:wikidata": "Q60867333", "cuisine": "coffee_shop", "name": "Coffee Island", "takeaway": "yes"}}, {"type": "node", "id": 11257802384, "lat": 36.4406123, "lon": 28.2346767, "tags": {"addr:city": "\u03a1\u03cc\u03b4\u03bf\u03c2", "addr:housenumber": "12", "addr:postcode": "85100", "addr:street": "\u0391\u03c5\u03c3\u03c4\u03c1\u03b1\u03bb\u03af\u03b1\u03c2", "amenity": "restaurant", "bar": "yes", "cuisine": "cocina_mexicana", "name": "la terazza", "phone": "+302241033377"}}, {"type": "node", "id": 11257873782, "lat": 36.4406298, "lon": 28.2348167}, {"type": "node", "id": 11257873783, "lat": 36.4406154, "lon": 28.2349265}, {"type": "node", "id": 11257873784, "lat": 36.4404908, "lon": 28.2349325}, {"type": "node", "id": 11257873785, "lat": 36.4405088, "lon": 28.2347842}, {"type": "node", "id": 11257873786, "lat": 36.440602, "lon": 28.2348716, "tags": {"addr:city": "\u03a1\u03cc\u03b4\u03bf\u03c2", "addr:housenumber": "16", "addr:postcode": "85100", "addr:street": "\u0391\u03c5\u03c3\u03c4\u03c1\u03b1\u03bb\u03af\u03b1\u03c2", "amenity": "restaurant", "bar": "yes", "name": "Demenagas", "phone": "+302241030060"}}, {"type": "node", "id": 11459344753, "lat": 36.4501681, "lon": 28.2162531, "tags": {"addr:city": "Rhodes", "addr:housenumber": "1", "addr:postcode": "851 00", "addr:street": "Orfeos street", "amenity": "restaurant", "cuisine": "italian", "email": "info@traversorhodes.gr", "level": "0", "name": "Ristorante Traverso", "payment:app": "yes", "payment:cards": "yes", "payment:cash": "yes", "payment:coins": "yes", "payment:contactless": "yes", "payment:credit_cards": "yes", "payment:debit_cards": "yes", "phone": "+30 2241 075443", "reservation": "yes", "smoking": "outside", "website": "https://www.traversorhodes.gr/"}}, {"type": "node", "id": 11499706678, "lat": 36.3142854, "lon": 28.0960321}, {"type": "node", "id": 11499706679, "lat": 36.3142601, "lon": 28.0961387}, {"type": "node", "id": 11499706680, "lat": 36.3141856, "lon": 28.0960961}, {"type": "node", "id": 11499706681, "lat": 36.3141918, "lon": 28.0960254}, {"type": "node", "id": 11499706705, "lat": 36.3147097, "lon": 28.0954609}, {"type": "node", "id": 11499706706, "lat": 36.3146706, "lon": 28.0955345}, {"type": "node", "id": 11499706710, "lat": 36.3146045, "lon": 28.0953807}, {"type": "node", "id": 11499816812, "lat": 36.3124503, "lon": 28.097083}, {"type": "node", "id": 11499816813, "lat": 36.3123323, "lon": 28.0972412}, {"type": "node", "id": 11499816814, "lat": 36.3122749, "lon": 28.0971525}, {"type": "node", "id": 11499816815, "lat": 36.312393, "lon": 28.0970043}, {"type": "node", "id": 11499816828, "lat": 36.3123614, "lon": 28.0970439}, {"type": "node", "id": 11499816829, "lat": 36.3123106, "lon": 28.0971076}, {"type": "node", "id": 11499816864, "lat": 36.3149514, "lon": 28.0963368}, {"type": "node", "id": 11499816865, "lat": 36.3148758, "lon": 28.0963475}, {"type": "node", "id": 11499816866, "lat": 36.314933, "lon": 28.0964923}, {"type": "node", "id": 11499816867, "lat": 36.3149784, "lon": 28.0964843}, {"type": "node", "id": 11499863724, "lat": 36.3142245, "lon": 28.0961419}, {"type": "node", "id": 11499863725, "lat": 36.3144188, "lon": 28.0960221}, {"type": "node", "id": 11499863726, "lat": 36.3143777, "lon": 28.0961615}, {"type": "node", "id": 11499863727, "lat": 36.3143323, "lon": 28.0961481}, {"type": "node", "id": 11499863728, "lat": 36.3143193, "lon": 28.0961991}, {"type": "node", "id": 11499863729, "lat": 36.3142675, "lon": 28.0961723}, {"type": "node", "id": 11499863730, "lat": 36.3143064, "lon": 28.0960006}, {"type": "node", "id": 11499863734, "lat": 36.314579, "lon": 28.0954505}, {"type": "node", "id": 11592218051, "lat": 36.3511262, "lon": 28.2078536, "tags": {"amenity": "restaurant", "name": "Tulum Beach Bar"}}, {"type": "node", "id": 11748620695, "lat": 36.4352147, "lon": 28.2039334, "tags": {"addr:housenumber": "60", "addr:street": "Kritik Stra\u00dfe", "amenity": "restaurant", "description": "Coffee-Meze", "name": "ART&TASTE", "opening_hours": "Mo-Su 09:00-21:00", "phone": "+302241035539", "website": "mparianosp@hotmail.com"}}, {"type": "node", "id": 11933947077, "lat": 36.3687771, "lon": 28.2220806}, {"type": "node", "id": 11933947078, "lat": 36.368662, "lon": 28.2219293}, {"type": "node", "id": 11933947079, "lat": 36.3687332, "lon": 28.2218457}, {"type": "node", "id": 11933947080, "lat": 36.3688484, "lon": 28.2219971}, {"type": "node", "id": 11934666824, "lat": 36.3688132, "lon": 28.2220384}, {"type": "node", "id": 11934678337, "lat": 36.3687554, "lon": 28.2210204, "tags": {"amenity": "restaurant", "name": "Symposium"}}, {"type": "node", "id": 11954433369, "lat": 36.4368919, "lon": 28.221364, "tags": {"addr:housenumber": "29", "addr:street": "\u0391\u03b3\u03af\u03c9\u03bd \u0391\u03bd\u03b1\u03c1\u03b3\u03cd\u03c1\u03c9\u03bd", "amenity": "restaurant", "cuisine": "greek;seafood", "name": "To Steno", "phone": "+30 2241 035914"}}, {"type": "node", "id": 12047757763, "lat": 36.4186672, "lon": 28.1825685}, {"type": "node", "id": 12047757764, "lat": 36.4186587, "lon": 28.1825136}, {"type": "node", "id": 12047757765, "lat": 36.4188743, "lon": 28.1824625}, {"type": "node", "id": 12047757766, "lat": 36.4188976, "lon": 28.1826232}, {"type": "node", "id": 12047757767, "lat": 36.4187654, "lon": 28.1826594}, {"type": "node", "id": 12060790631, "lat": 36.4006717, "lon": 28.2295887, "tags": {"amenity": "restaurant", "name": "Kalamari"}}, {"type": "node", "id": 12119881301, "lat": 36.4430629, "lon": 28.2306781, "tags": {"amenity": "restaurant", "contact:instagram": "ilborgo_rhodes", "cuisine": "italian;italian_pizza;mediterranean;pasta", "internet_access": "wlan", "website:menu": "https://ilborgo.menu24.gr/index.php/en/il-burgo-menu"}}, {"type": "node", "id": 12123947800, "lat": 36.4539354, "lon": 28.2214425, "tags": {"amenity": "restaurant", "cuisine": "chinese;thai", "name": "My Thai"}}, {"type": "node", "id": 12124101800, "lat": 36.4486951, "lon": 28.2237726, "tags": {"amenity": "cafe", "brand": "Coffee Island", "brand:wikidata": "Q60867333", "cuisine": "coffee_shop", "name": "Coffee Island", "takeaway": "yes"}}, {"type": "node", "id": 12124103553, "lat": 36.4485863, "lon": 28.2236974, "tags": {"amenity": "cafe", "name": "Bubble Tea - Tea Shop"}}, {"type": "node", "id": 12124399215, "lat": 36.306, "lon": 28.0936179}, {"type": "node", "id": 12124399216, "lat": 36.3059893, "lon": 28.0941113}, {"type": "node", "id": 12124399217, "lat": 36.3057895, "lon": 28.0941045}, {"type": "node", "id": 12124399218, "lat": 36.3058003, "lon": 28.0936111}, {"type": "node", "id": 12142709290, "lat": 36.3864696, "lon": 28.1353517, "tags": {"addr:city": "\u03a0\u03b1\u03c3\u03c4\u03af\u03b4\u03b1", "addr:postcode": "85101", "amenity": "restaurant", "name": "Epavlis caf\u00e9", "phone": "+302241047228"}}, {"type": "node", "id": 12153270892, "lat": 36.4490791, "lon": 28.2162451, "tags": {"addr:housenumber": "8", "addr:street": "Anthoula Zervou", "amenity": "restaurant", "name": "Seva's Place", "opening_hours": "Mo, Tu, Th-Su 13:00-22:30", "phone": "+30 2241 028044"}}, {"type": "node", "id": 12155139711, "lat": 36.3038453, "lon": 28.1792369, "tags": {"amenity": "restaurant", "name": "Golfer Restaurant", "phone": "+302241051861"}}, {"type": "node", "id": 12518352902, "lat": 36.4330451, "lon": 28.2381218, "tags": {"amenity": "restaurant", "name": "PIER Food+Cafe"}}, {"type": "node", "id": 12518449729, "lat": 36.4322164, "lon": 28.2363195, "tags": {"amenity": "cafe", "internet_access": "wlan", "internet_access:fee": "customers", "name": "Bruno Cafe", "opening_hours": "Mo-Su 07:00-22:00", "outdoor_seating": "yes", "phone": "2241023464"}}, {"type": "node", "id": 12518473757, "lat": 36.4295494, "lon": 28.2334041, "tags": {"amenity": "restaurant", "cuisine": "seafood", "name": "\u03a8\u03b1\u03c1\u03bf\u03ba\u03cc\u03ba\u03ba\u03b1\u03bb\u03bf"}}, {"type": "node", "id": 12518473759, "lat": 36.4296337, "lon": 28.2337708, "tags": {"amenity": "restaurant", "cuisine": "italian", "name": "Felicia Ristorante"}}, {"type": "node", "id": 12518473760, "lat": 36.4296796, "lon": 28.2339633, "tags": {"amenity": "restaurant", "cuisine": "oriental", "name": "\u0391\u03bd\u03b1\u03c4\u03bf\u03bb\u03af\u03c4\u03b9\u03ba\u03b5\u03c2 \u039d\u03bf\u03c3\u03c4\u03b9\u03bc\u03b9\u03ad\u03c2"}}, {"type": "node", "id": 12518473761, "lat": 36.4297366, "lon": 28.2342113, "tags": {"amenity": "restaurant", "cuisine": "seafood", "name": "\u0391\u03c1\u03c7\u03bf\u03bd\u03c4\u03b1\u03c1\u03af\u03ba\u03b9"}}, {"type": "node", "id": 12518473762, "lat": 36.4300403, "lon": 28.2353652, "tags": {"amenity": "restaurant", "cuisine": "seafood", "name": "\u03a4\u03bf \u03a3\u03c4\u03ad\u03ba\u03b9 \u03c4\u03bf\u03c5 \u03a7\u03b5\u03b9\u03bb\u03ac"}}, {"type": "node", "id": 12543779437, "lat": 36.4525363, "lon": 28.2169248, "tags": {"amenity": "restaurant", "cuisine": "greek", "name": "\u039a\u03bf\u03c5\u03c4\u03bf\u03cd\u03ba\u03b9 42", "name:el": "\u039a\u03bf\u03c5\u03c4\u03bf\u03cd\u03ba\u03b9 42", "name:en": "Koutouki 42"}}, {"type": "node", "id": 12543779438, "lat": 36.4512736, "lon": 28.2164503, "tags": {"amenity": "restaurant", "cuisine": "greek", "name": "\u039a\u03bf\u03c5\u03bc\u03c0\u03b1\u03c1\u03ac\u03ba\u03b9", "name:el": "\u039a\u03bf\u03c5\u03bc\u03c0\u03b1\u03c1\u03ac\u03ba\u03b9", "name:en": "Koumparaki"}}, {"type": "node", "id": 12543779439, "lat": 36.4513765, "lon": 28.2164858, "tags": {"amenity": "cafe", "name": "Azzuro Cafe"}}, {"type": "node", "id": 12543833559, "lat": 36.4498127, "lon": 28.2163517, "tags": {"amenity": "cafe", "cuisine": "coffee_shop", "name": "Coffee To Go"}}, {"type": "node", "id": 12543833560, "lat": 36.4495128, "lon": 28.217196, "tags": {"amenity": "restaurant", "cuisine": "sushi", "name": "Homu Sushi Bar"}}, {"type": "node", "id": 12543833568, "lat": 36.447867, "lon": 28.2210861, "tags": {"amenity": "restaurant", "cuisine": "greek", "name": "\u0394\u03c1\u03bf\u03c3\u03bf\u03c5\u03bb\u03af\u03c4\u03b5\u03c2"}}, {"type": "node", "id": 12543833569, "lat": 36.4487995, "lon": 28.219732, "tags": {"amenity": "cafe", "cuisine": "dessert", "name": "\u039a\u03bf\u03c5\u03c1\u03b4\u03b9\u03c3\u03c4\u03cc \u03a0\u03bf\u03c1\u03c4\u03bf\u03ba\u03ac\u03bb\u03b9"}}, {"type": "node", "id": 12543833576, "lat": 36.4481043, "lon": 28.2207811, "tags": {"amenity": "restaurant", "cuisine": "italian", "name": "Pan & Vino"}}, {"type": "node", "id": 12543833579, "lat": 36.4478118, "lon": 28.2224864, "tags": {"amenity": "cafe", "name": "Cafe Central"}}, {"type": "node", "id": 12543833584, "lat": 36.4484773, "lon": 28.2225727, "tags": {"amenity": "restaurant", "cuisine": "bistro", "name": "\u039f \u03a3\u03c0\u03cc\u03c0\u03bf\u03c2"}}, {"type": "node", "id": 12543833585, "lat": 36.449025, "lon": 28.223745, "tags": {"amenity": "restaurant", "cuisine": "italian", "name": "EJ Italian Bistro"}}, {"type": "node", "id": 12553924345, "lat": 36.4184462, "lon": 28.1799168, "tags": {"amenity": "restaurant", "cuisine": "chinese;sushi", "name": "Golden Fish Sushi & Chinese Restaurant"}}, {"type": "node", "id": 12553924346, "lat": 36.4184182, "lon": 28.1797143, "tags": {"amenity": "restaurant", "cuisine": "greek", "name": "Sirtaki Taverna"}}, {"type": "node", "id": 12553999140, "lat": 36.4161253, "lon": 28.1575002, "tags": {"amenity": "restaurant", "cuisine": "burger", "name": "Food Place"}}, {"type": "node", "id": 12561396430, "lat": 36.4473639, "lon": 28.2241514, "tags": {"amenity": "restaurant", "cuisine": "asian", "name": "Golden Buddha"}}, {"type": "node", "id": 12561396433, "lat": 36.4474066, "lon": 28.2247159, "tags": {"amenity": "restaurant", "cuisine": "italian", "name": "Casa di Fausto"}}, {"type": "node", "id": 12561426301, "lat": 36.4475697, "lon": 28.2234081, "tags": {"amenity": "restaurant", "cuisine": "burger", "name": "Urban Burger Co."}}, {"type": "node", "id": 12561795496, "lat": 36.4434846, "lon": 28.2278607, "tags": {"amenity": "restaurant", "cuisine": "noodle", "name": "Jo Wok"}}, {"type": "node", "id": 12563174793, "lat": 36.4427194, "lon": 28.2277713, "tags": {"amenity": "cafe", "name": "\u03a1\u03b1\u03c7\u03ac\u03c4\u03b9"}}, {"type": "node", "id": 12709523353, "lat": 36.4196381, "lon": 28.1234124, "tags": {"addr:city": "\u039a\u03c1\u03b5\u03bc\u03b1\u03c3\u03c4\u03ae", "amenity": "restaurant", "name": "Kantina Alexandra"}}, {"type": "node", "id": 12709527307, "lat": 36.4148374, "lon": 28.1335903, "tags": {"addr:city": "\u039a\u03c1\u03b5\u03bc\u03b1\u03c3\u03c4\u03ae", "addr:street": "\u0395\u03bb\u03b5\u03c5\u03b8\u03b5\u03c1\u03af\u03b1\u03c2", "amenity": "restaurant", "cuisine": "asian", "name": "Canton Kremasti"}}, {"type": "node", "id": 12826333202, "lat": 36.4513255, "lon": 28.2180275, "tags": {"amenity": "restaurant", "name": "Country kitchen grill house"}}, {"type": "node", "id": 12831222112, "lat": 36.4447746, "lon": 28.2232962, "tags": {"addr:housenumber": "12", "addr:street": "\u039f\u03c1\u03c6\u03ad\u03c9\u03c2", "amenity": "restaurant", "check_date": "2025-05-16", "name": "Fainos"}}, {"type": "node", "id": 12831222113, "lat": 36.444546, "lon": 28.2233338, "tags": {"amenity": "restaurant", "check_date": "2025-05-12", "cuisine": "greek", "name": "Mama Mika"}}, {"type": "node", "id": 12831222116, "lat": 36.4438086, "lon": 28.2243052, "tags": {"amenity": "restaurant", "check_date": "2025-05-12", "name": "Sissitio"}}, {"type": "node", "id": 12834020945, "lat": 36.4513123, "lon": 28.2200734, "tags": {"amenity": "restaurant", "check_date": "2025-05-13", "cuisine": "greek", "name": "Koykos"}}, {"type": "node", "id": 12837627629, "lat": 36.4436036, "lon": 28.2243095, "tags": {"amenity": "restaurant", "check_date": "2025-05-14", "cuisine": "greek", "name": "Rustico"}}, {"type": "node", "id": 12840594876, "lat": 36.4436754, "lon": 28.2241666, "tags": {"amenity": "restaurant", "check_date": "2025-05-15", "name": "Castello House"}}, {"type": "node", "id": 12896916449, "lat": 36.3862628, "lon": 28.2450564, "tags": {"amenity": "restaurant", "name": "Athena"}}, {"type": "way", "id": 123180305, "nodes": [1374500818, 1374500812, 1374500797, 1374500798, 1374500818], "tags": {"amenity": "restaurant", "building": "yes"}}, {"type": "way", "id": 123180345, "nodes": [1374500911, 1374500909, 1374500892, 1374500884, 1374500885, 1374500911], "tags": {"amenity": "restaurant", "building": "yes", "name": "Deniz"}}, {"type": "way", "id": 157058777, "nodes": [1692994792, 1692994874, 1692994823, 1843531287, 1843531273, 1843531342, 1692995300, 1692994792], "tags": {"amenity": "restaurant", "building": "yes", "int_name": "Rodini Garden", "name": "\u039a\u03ad\u03bd\u03c4\u03c1\u03bf \u03a1\u03bf\u03b4\u03af\u03bd\u03b9"}}, {"type": "way", "id": 157214656, "nodes": [1694332788, 1694331934, 1694331939, 1694331384, 1694332690, 1694332788], "tags": {"addr:city": "Rhodes", "addr:housenumber": "54", "addr:postcode": "85100", "addr:street": "\u0391\u03bb\u03b5\u03be\u03ac\u03bd\u03b4\u03c1\u03bf\u03c5 \u0394\u03b9\u03ac\u03ba\u03bf\u03c5", "amenity": "cafe", "building": "yes", "building:levels": "4", "cuisine": "ice_cream", "internet_access": "wlan", "internet_access:fee": "no", "internet_access:ssid": "Gelateria Ice Art", "name": "Gelateria-Ice Art", "opening_hours": "Mo-Fr 10:00-01:00", "outdoor_seating": "yes", "phone": "+302241024225", "website": "https://www.iceart-gelateria.gr/"}}, {"type": "way", "id": 157379331, "nodes": [1696028283, 1696028285, 1696028307, 1696025757, 1696025719, 1696028283], "tags": {"addr:housenumber": "57", "addr:street": "\u0393\u03c1\u03af\u03b2\u03b1", "amenity": "restaurant", "building": "yes", "contact:facebook": "ovelix.dinas.kitchen", "name": "Ovelix", "opening_hours": "Tu-Su 13:00-17:00; Jan 21-25 off", "phone": "+302241074210"}}, {"type": "way", "id": 166093123, "nodes": [1775775186, 1775774833, 1775775450, 1775775470, 1775775206, 1775775210, 1775775184, 1775774927, 1775774911, 1775774971, 1775774951, 1775775040, 1775775186], "tags": {"amenity": "restaurant", "building": "yes", "name": "Da Romeo Pizzeria Restaurant"}}, {"type": "way", "id": 169143195, "nodes": [1803110305, 1803110306, 1803110254, 1803110227, 2349734375, 2349734379, 1803110305], "tags": {"amenity": "restaurant", "building": "yes", "building:levels": "1", "name": "Monaxia"}}, {"type": "way", "id": 172907849, "nodes": [1837476286, 1837476507, 1837473067, 1837476222, 1837475180, 1837476286], "tags": {"addr:city": "\u03a1\u03bf\u03b4\u03bf\u03c2", "addr:housenumber": "60", "addr:postcode": "85132", "addr:street": "\u03a7\u03b1\u03c1. \u039c\u03bf\u03cd\u03c3\u03ba\u03bf\u03c5", "amenity": "cafe", "building": "yes", "internet_access": "yes", "name": "Bowling Hall", "opening_hours": "10:00-24:00", "outdoor_seating": "yes"}}, {"type": "way", "id": 221864971, "nodes": [2308461347, 2308461348, 2308461349, 2308461350, 3561017179, 3561017178, 3561017177, 3561017176, 2308461347], "tags": {"amenity": "restaurant", "building": "yes", "name": "Varchos", "source": "Bing"}}, {"type": "way", "id": 221864977, "nodes": [2308461351, 2308461352, 2308461353, 3561017393, 2308461355, 2308461356, 2308461351], "tags": {"amenity": "restaurant", "building": "retail", "name": "La Bonita", "source": "Bing"}}, {"type": "way", "id": 226004229, "nodes": [2348525239, 2348525233, 2348525223, 2348525205, 2348525206, 2348525215, 2348525217, 2348525231, 2348525225, 2348525245, 2348525239], "tags": {"amenity": "restaurant", "building": "yes", "building:levels": "1", "cuisine": "chinese", "name": "Golden Wok"}}, {"type": "way", "id": 226118405, "nodes": [2349734347, 2349734339, 2349734345, 2349734360, 2349734347], "tags": {"amenity": "cafe", "building": "yes", "building:levels": "1", "name": "To Kyma"}}, {"type": "way", "id": 226131929, "nodes": [2349851575, 2349851571, 2349851569, 2349851573, 2349851575], "tags": {"amenity": "restaurant", "building": "yes", "name": "Taverna Ladiko"}}, {"type": "way", "id": 226134950, "nodes": [2349876225, 2349876223, 2349876221, 2349876209, 2349876211, 2349876217, 2349876219, 2349876227, 2349876225], "tags": {"addr:city": "Faliraki", "addr:postcode": "85100", "addr:street": "Anthony Quinn Bay, Ladiko", "amenity": "restaurant", "building": "yes", "cuisine": "burger;regional;coffee_shop;italian;sandwich;seafood;greek", "internet_access": "wlan", "internet_access:fee": "no", "name": "Kounna Beach & Resto Bar", "opening_hours": "Mo-Sa 08:00-20:00"}}, {"type": "way", "id": 229434905, "nodes": [2380341132, 2380341131, 2380341130, 2380341116, 2380341114, 2380341117, 2380341121, 2380341125, 2380341128, 2380341132], "tags": {"amenity": "restaurant", "name": "Cactus"}}, {"type": "way", "id": 229441175, "nodes": [2380388396, 2380388392, 2380388390, 2380388394, 2380388395, 2380388397, 2380388399, 2380388401, 2380388396], "tags": {"amenity": "restaurant", "cuisine": "greek", "email": "anastasios_galatas@yahoo.gr", "internet_access": "wlan", "internet_access:fee": "no", "name": "Faliriko", "phone": "+30 22410 85515"}}, {"type": "way", "id": 229938977, "nodes": [2348525142, 2384744474, 2348525140, 2348525128, 2382638601, 2382638600, 2348525143, 2382638603, 2348525142], "tags": {"amenity": "restaurant", "building": "yes", "building:levels": "2", "name": "Pomodoro", "opening_hours": "17:00-24:00"}}, {"type": "way", "id": 231860484, "nodes": [1853151895, 1853151907, 2401871083, 2401871080, 1853151895], "tags": {"amenity": "restaurant", "building": "yes", "building:levels": "1", "name": "George's"}}, {"type": "way", "id": 239100089, "nodes": [2469099341, 2469106659, 2469099342, 1691733603, 2469099346, 2469099348, 2469099349, 2469099351, 2469099353, 2469099341], "tags": {"addr:housenumber": "18", "addr:street": "\u0395\u03b8\u03bd\u03ac\u03c1\u03c7\u03bf\u03c5 \u039c\u03b1\u03ba\u03b1\u03c1\u03af\u03bf\u03c5", "amenity": "restaurant", "building": "yes", "int_name": "Hellenic Army Officers' Club", "name": "\u039b\u03ad\u03c3\u03c7\u03b7 \u0391\u03be\u03b9\u03c9\u03bc\u03b1\u03c4\u03b9\u03ba\u03ce\u03bd \u03a6\u03c1\u03bf\u03c5\u03c1\u03ac\u03c2 \u03a1\u03cc\u03b4\u03bf\u03c5", "name:el": "\u039b\u03ad\u03c3\u03c7\u03b7 \u0391\u03be\u03b9\u03c9\u03bc\u03b1\u03c4\u03b9\u03ba\u03ce\u03bd \u03a6\u03c1\u03bf\u03c5\u03c1\u03ac\u03c2 \u03a1\u03cc\u03b4\u03bf\u03c5", "name:en": "Hellenic Army Officers' Club"}}, {"type": "way", "id": 242255118, "nodes": [2497663842, 2497663843, 2497663844, 2497663845, 2497663842], "tags": {"amenity": "cafe", "building": "yes", "internet_access": "yes"}}, {"type": "way", "id": 242768196, "nodes": [2502191687, 2502191684, 2502191683, 2502191685, 2502191687], "tags": {"amenity": "restaurant", "building": "yes", "cuisine": "regional", "description": "Local Fish Tavern", "ele": "0", "name": "Taverna Nicolas"}}, {"type": "way", "id": 284415320, "nodes": [2881635965, 2881635964, 2881635962, 2881635963, 2881635965], "tags": {"amenity": "restaurant", "building": "yes", "name": "Nimmos", "phone": "0030-22410-76112"}}, {"type": "way", "id": 284802174, "nodes": [2885067213, 2885067442, 2885067232, 2885067359, 2885067321, 2885067407, 2885067411, 2885067383, 2885067370, 2885067213], "tags": {"amenity": "restaurant", "building": "yes", "name": "Ergon"}}, {"type": "way", "id": 285180876, "nodes": [2888578993, 2888578709, 2888580115, 2888578921, 2888580144, 2888578993], "tags": {"amenity": "restaurant", "building": "yes", "email": "romios.therestaurant@gmail.com", "name": "Romios", "outdoor_seating": "yes", "website": "http://www.romios-rhodes.gr"}}, {"type": "way", "id": 385443479, "nodes": [3887895411, 3887895412, 3887895413, 3887895414, 3887895411], "tags": {"amenity": "restaurant", "building": "yes", "cuisine": "greek", "name": "Old house", "smoking": "outside", "wheelchair": "limited"}}, {"type": "way", "id": 498278085, "nodes": [4897320519, 4897320520, 4897324321, 1694331746, 4897320519], "tags": {"addr:city": "\u03a1\u03cc\u03b4\u03bf\u03c2", "addr:housenumber": "50", "addr:street": "28\u03b7\u03c2 \u039f\u03ba\u03c4\u03c9\u03b2\u03c1\u03af\u03bf\u03c5", "amenity": "restaurant", "description": "Greek restaurant", "name": "Ouzokamomata", "phone": "+306939577776", "smoking": "separated"}}, {"type": "way", "id": 601369080, "nodes": [5715819756, 5715819755, 5715819754, 5715819753, 5715819756], "tags": {"amenity": "restaurant", "building": "yes", "name": "Taverna o Gianni's", "opening_hours": "13:00-24:00", "phone": "+30 2241 047165", "website": "https://www.facebook.com/TabernaOGiannis"}}, {"type": "way", "id": 628101923, "nodes": [5929579498, 5929579497, 5929579496, 5929579495, 5929579498], "tags": {"amenity": "restaurant", "building": "yes", "building:levels": "1", "cuisine": "italian", "delivery": "yes", "internet_access": "yes", "internet_access:fee": "no", "name": "Napoli", "takeaway": "yes", "wheelchair": "limited"}}, {"type": "way", "id": 653985624, "nodes": [6128562927, 6128562928, 6128562930, 6128562931, 6128562927], "tags": {"addr:city": "\u0399\u03b1\u03bb\u03c5\u03c3\u03cc\u03c2", "addr:housenumber": "22", "addr:postcode": "85101", "addr:street": "\u0399\u03b5\u03c1\u03bf\u03cd \u039b\u03cc\u03c7\u03bf\u03c5", "amenity": "restaurant", "building": "yes", "cuisine": "regional", "disused": "yes", "name": "Cactus", "outdoor_seating": "yes"}}, {"type": "way", "id": 686709747, "nodes": [6436939806, 6436939807, 6436939808, 6436939809, 6436939810, 6436939811, 6436939812, 6436939813, 6436939814, 6436939815, 6436939806], "tags": {"amenity": "restaurant", "building": "yes", "name": "Ammades Taverna"}}, {"type": "way", "id": 686709749, "nodes": [6436939834, 6436939835, 6436939836, 6436939837, 6436939838, 6436939839, 6436939840, 6436939841, 6436939842, 6436939843, 6436939830, 6436939831, 6436939832, 6436939833, 6436939848, 6436939849, 6436939850, 6436939857, 6436939818, 6436939819, 6436939820, 6436939821, 6436939851, 6436939852, 6436939853, 6436939854, 6436939822, 6436939823, 6436939824, 6436939825, 6436939844, 6436939855, 6436939845, 6436939856, 6436939846, 6436939847, 6436939826, 6436939827, 6436939828, 6436939829, 6436939834], "tags": {"construction": "yes", "name": "Ammades Seaside Restaurant & Bar", "note": "Under construction! Update when a more detailed structure is available."}}, {"type": "way", "id": 919871822, "nodes": [8542160133, 8542160134, 8542160135, 8542160136, 8542160133], "tags": {"amenity": "cafe", "building": "yes", "name": "Aggeli Park Cafe | Kinderland"}}, {"type": "way", "id": 921078453, "nodes": [8551683634, 8551683635, 8551683636, 8551683637, 8551683634], "tags": {"amenity": "restaurant", "building": "yes", "name": "Traditional Taverna \"Yanis"}}, {"type": "way", "id": 922963532, "nodes": [8567874285, 8567874286, 8567874287, 8567874288, 8567874289, 8567874290, 8567874291, 8567874285], "tags": {"amenity": "restaurant", "building": "yes", "name": "Nikola's House"}}, {"type": "way", "id": 951477938, "nodes": [8807019640, 8807019641, 8807019642, 8807019643, 8807019640], "tags": {"addr:city": "\u039a\u03c1\u03b5\u03bc\u03b1\u03c3\u03c4\u03ae", "addr:street": "\u03a0\u03b1\u03bd\u03b1\u03b3\u03b9\u03ac\u03c2 \u03a0\u03b5\u03c1\u03b9\u03b3\u03b9\u03b1\u03bb\u03bb\u03b5\u03bd\u03ae\u03c2", "amenity": "restaurant", "building:levels": "1", "cuisine": "pizza", "name": "Italos Restaurant"}}, {"type": "way", "id": 996059578, "nodes": [9197437553, 9197437554, 9197437555, 9197437556, 9197437553], "tags": {"addr:city": "ialyssos", "addr:housenumber": "178", "addr:postcode": "85101", "addr:street": "\u0397\u03c1\u03b1\u03ba\u03bb\u03b5\u03b9\u03b4\u03ce\u03bd", "amenity": "restaurant", "building": "yes", "cuisine": "pizza;italian;greek;regional", "name": "Pizza Salvatore Stathis Leventis", "opening_hours": "Mo-Sa 12:00-00:00", "phone": "+30 2241 091780"}}, {"type": "way", "id": 1092514887, "nodes": [10005604935, 10005604936, 10005604937, 10005604938, 10005604939, 10005604940, 10005604935], "tags": {"amenity": "restaurant", "building": "yes", "cuisine": "greek", "name": "Restaurant Bar Billys"}}, {"type": "way", "id": 1092976721, "nodes": [10009893804, 10009893805, 10009893806, 10009893807, 10009893804], "tags": {"amenity": "restaurant", "building": "yes", "name": "Filerimous"}}, {"type": "way", "id": 1093282630, "nodes": [10012611669, 10012611670, 10012611671, 10012611672, 10012611669], "tags": {"amenity": "restaurant", "building": "yes"}}, {"type": "way", "id": 1104107717, "nodes": [10103395516, 10103450817, 10103450818, 10103450819, 10103450820, 10103450821, 10103450822, 10103450823, 10103450824, 10103450825, 10103450826, 10103450827, 10103395516], "tags": {"amenity": "restaurant", "building": "yes", "name": "AURA", "opening_hours": "Mo-Sa 10:00-22:00"}}, {"type": "way", "id": 1149839286, "nodes": [10696608543, 10696608542, 10696608541, 10696608540, 10696608543], "tags": {"amenity": "cafe", "building": "yes"}}, {"type": "way", "id": 1215097310, "nodes": [11257873782, 11257873783, 11257873784, 11257873785, 11257873782], "tags": {"amenity": "restaurant", "building": "yes"}}, {"type": "way", "id": 1238014330, "nodes": [11499706678, 11499706679, 11499863724, 11499706680, 11499706681, 11499706678], "tags": {"amenity": "cafe", "building": "yes", "cuisine": "greek", "internet_access": "wlan", "internet_access:fee": "customers"}}, {"type": "way", "id": 1238014333, "nodes": [11499706706, 11499863734, 11499706710, 11499706705, 11499706706], "tags": {"amenity": "cafe", "building": "yes"}}, {"type": "way", "id": 1238025169, "nodes": [11499816812, 11499816813, 11499816814, 11499816829, 11499816828, 11499816815, 11499816812], "tags": {"amenity": "restaurant", "building": "yes"}}, {"type": "way", "id": 1238025179, "nodes": [11499816864, 11499816865, 11499816866, 11499816867, 11499816864], "tags": {"amenity": "cafe", "building": "yes"}}, {"type": "way", "id": 1238030317, "nodes": [11499863725, 11499863726, 11499863727, 11499863728, 11499863729, 11499863730, 11499863725], "tags": {"amenity": "restaurant", "building": "yes"}}, {"type": "way", "id": 1286688502, "nodes": [11933947080, 11933947079, 11933947078, 11933947077, 11934666824, 11933947080], "tags": {"amenity": "restaurant", "building": "hotel", "name": "Thalassa"}}, {"type": "way", "id": 1300730383, "nodes": [12047757763, 12047757764, 12047757765, 12047757766, 12047757767, 5929576644, 5929576645, 12047757763], "tags": {"amenity": "restaurant", "building": "yes", "building:levels": "1", "cuisine": "greek", "diet:mediterranean": "yes", "name": "Casual Restaurant"}}, {"type": "way", "id": 1309341309, "nodes": [12124399215, 12124399216, 12124399217, 12124399218, 12124399215], "tags": {"amenity": "restaurant", "building": "yes", "name": "\u0391\u03c1\u03c4\u03ad\u03bc\u03b9\u03b4\u03b1"}}, {"type": "relation", "id": 9527193, "members": [{"type": "way", "ref": 686709749, "role": "outer"}], "tags": {"amenity": "restaurant", "building": "yes", "information": "FIX AS SOON AS THE BUILDING SHOW UP", "name": "Ammades Seaside Restaurant & Bar", "type": "multipolygon"}}]}