{"version": 0.6, "generator": "Overpass API 0.7.62.7 375dc00a", "osm3s": {"timestamp_osm_base": "2025-06-14T13:26:15Z", "copyright": "The data included in this document is from www.openstreetmap.org. The data is made available under ODbL."}, "elements": [{"type": "node", "id": 558051342, "lat": 35.5273041, "lon": 11.0381655, "tags": {"amenity": "restaurant", "name": "Dar Shat", "name:fr": "Dar Shat"}}, {"type": "node", "id": 558051358, "lat": 35.5306997, "lon": 11.036767, "tags": {"amenity": "restaurant", "name": "Le P\u00eacheur", "name:fr": "Le P\u00eacheur"}}, {"type": "node", "id": 558059992, "lat": 35.5056967, "lon": 11.0642451, "tags": {"amenity": "restaurant", "name": "Neptune", "name:fr": "Neptune"}}, {"type": "node", "id": 558538405, "lat": 35.5052868, "lon": 11.0708601, "tags": {"addr:city": "\u0627\u0644\u0645\u0647\u062f\u064a\u0629", "addr:city:ar": "\u0627\u0644\u0645\u0647\u062f\u064a\u0629", "amenity": "cafe", "name": "\u0627\u0644\u0643\u0648\u0634\u0629", "name:ar": "\u0627\u0644\u0643\u0648\u0634\u0629", "name:fr": "Al Koucha"}}, {"type": "node", "id": 974800833, "lat": 35.2374804, "lon": 11.1165793, "tags": {"addr:city": "\u0627\u0644\u0634\u0627\u0628\u0629", "addr:postcode": "5170", "amenity": "cafe"}}, {"type": "node", "id": 974800985, "lat": 35.2375155, "lon": 11.1156351, "tags": {"addr:city": "\u0627\u0644\u0634\u0627\u0628\u0629", "addr:postcode": "5170", "amenity": "cafe"}}, {"type": "node", "id": 1056752623, "lat": 35.5042508, "lon": 11.074097, "tags": {"addr:city": "\u0627\u0644\u0645\u0647\u062f\u064a\u0629", "addr:city:ar": "\u0627\u0644\u0645\u0647\u062f\u064a\u0629", "amenity": "cafe", "name": "\u0633\u064a\u062f\u064a \u0633\u0627\u0644\u0645", "name:ar": "\u0633\u064a\u062f\u064a \u0633\u0627\u0644\u0645", "name:fr": "Caf\u00e9 Sidi Salem La Grotte", "phone": "+216 23583563"}}, {"type": "node", "id": 1059230206, "lat": 35.5049407, "lon": 11.0644035, "tags": {"addr:city": "\u0627\u0644\u0645\u0647\u062f\u064a\u0629", "addr:city:ar": "\u0627\u0644\u0645\u0647\u062f\u064a\u0629", "amenity": "cafe", "name": "\u0627\u0644\u0632\u0647\u0648\u0631", "name:ar": "\u0627\u0644\u0632\u0647\u0648\u0631", "name:en": "Al-Zouhour", "name:fr": "Al-Zouhour"}}, {"type": "node", "id": 2278857503, "lat": 35.2955651, "lon": 10.7077415, "tags": {"amenity": "restaurant", "cuisine": "regional", "name": "Les Emires Restaurant"}}, {"type": "node", "id": 2610190989, "lat": 35.2982055, "lon": 10.7052577, "tags": {"amenity": "cafe", "name": "Dar El Jem", "operator": "Soci\u00e9t\u00e9 d\u2019Animation Touristique et Culture Dar El Jem"}}, {"type": "node", "id": 2612606751, "lat": 35.5734357, "lon": 10.732313, "tags": {"amenity": "cafe", "name": "Caf\u00e9 El Baladia", "name:fr": "Caf\u00e9 El Baladia"}}, {"type": "node", "id": 3416128780, "lat": 35.5035656, "lon": 11.0686636, "tags": {"addr:city": "\u0627\u0644\u0645\u0647\u062f\u064a\u0629", "amenity": "restaurant", "cuisine": "fish", "name": "\u0645\u0637\u0639\u0645 \u0627\u0644\u0645\u0639\u0632", "name:ar": "\u0645\u0637\u0639\u0645 \u0627\u0644\u0645\u0639\u0632", "name:fr": "Restaurant El Moez"}}, {"type": "node", "id": 4106875090, "lat": 35.6274902, "lon": 10.9001461, "tags": {"amenity": "cafe", "cuisine": "coffee_shop;tea", "internet_access": "wlan", "name": "\u0646\u0627\u062f\u064a \u0627\u0644\u062a\u0639\u0627\u0631\u0641", "name:ar": "\u0646\u0627\u062f\u064a \u0627\u0644\u062a\u0639\u0627\u0631\u0641", "name:fr": "Nadi al Taarof", "opening_hours": "24/7"}}, {"type": "node", "id": 4353065837, "lat": 35.2382774, "lon": 11.1445202, "tags": {"amenity": "restaurant", "capacity": "50", "name": "\u0644\u0627\u0628\u0631\u0643", "name:ar": "\u0644\u0627\u0628\u0631\u0643", "name:fr": "La Barque", "smoking": "isolated", "takeaway": "yes"}}, {"type": "node", "id": 4816660723, "lat": 35.5022351, "lon": 11.0666766, "tags": {"addr:city": "\u0627\u0644\u0645\u0647\u062f\u064a\u0629", "addr:city:ar": "\u0627\u0644\u0645\u0647\u062f\u064a\u0629", "amenity": "restaurant", "name": "\u0627\u0644\u0644\u064a\u062f\u0648", "name:ar": "\u0627\u0644\u0644\u064a\u062f\u0648", "name:fr": "Le Lido"}}, {"type": "node", "id": 4816667979, "lat": 35.5044433, "lon": 11.071297, "tags": {"addr:city": "\u0627\u0644\u0645\u0647\u062f\u064a\u0629", "addr:city:ar": "\u0627\u0644\u0645\u0647\u062f\u064a\u0629", "amenity": "cafe", "name": "\u0645\u0642\u0647\u0649 \u0627\u0644\u0645\u062f\u064a\u0646\u0629", "name:ar": "\u0645\u0642\u0647\u0649 \u0627\u0644\u0645\u062f\u064a\u0646\u0629", "name:fr": "caf\u00e9 elmedina"}}, {"type": "node", "id": 4816677226, "lat": 35.5022834, "lon": 11.0668669, "tags": {"amenity": "restaurant", "name": "Le Quai"}}, {"type": "node", "id": 4839745124, "lat": 35.5182374, "lon": 11.0424551, "tags": {"amenity": "cafe", "name": "\u0645\u0642\u0647\u0649 \u0627\u0644\u062c\u0648\u0647\u0631\u0629", "name:ar": "\u0645\u0642\u0647\u0649 \u0627\u0644\u062c\u0648\u0647\u0631\u0629", "name:fr": "Caf\u00e9 Jawhara"}}, {"type": "node", "id": 5341560721, "lat": 35.5483905, "lon": 10.868474, "tags": {"addr:postcode": "5024", "addr:street": "\u0634\u0627\u0631\u0639 \u0627\u0644\u062d\u0628\u064a\u0628 \u0628\u0648\u0631\u0642\u064a\u0628\u0629", "addr:street:ar": "\u0634\u0627\u0631\u0639 \u0627\u0644\u062d\u0628\u064a\u0628 \u0628\u0648\u0631\u0642\u064a\u0628\u0629", "amenity": "cafe", "internet_access": "wlan", "name": "\u0645\u0642\u0647\u0649 \u0627\u0644\u0645\u062f\u064a\u0646\u0629", "name:ar": "\u0645\u0642\u0647\u0649 \u0627\u0644\u0645\u062f\u064a\u0646\u0629", "name:fr": "Caf\u00e9 El Madina", "opening_hours": "Mo-Su 05:00-08:00", "phone": "+216 73 400 143"}}, {"type": "node", "id": 5341560822, "lat": 35.5533568, "lon": 10.869764, "tags": {"addr:postcode": "5024", "addr:street": "\u0634\u0627\u0631\u0639 \u0627\u0644\u062d\u0628\u064a\u0628 \u0628\u0648\u0631\u0642\u064a\u0628\u0629", "addr:street:ar": "\u0634\u0627\u0631\u0639 \u0627\u0644\u062d\u0628\u064a\u0628 \u0628\u0648\u0631\u0642\u064a\u0628\u0629", "amenity": "cafe", "internet_access": "wlan", "name": "\u0645\u0642\u0647\u0649 \u062f\u064a\u0646\u0627\u0631", "name:ar": "\u0645\u0642\u0647\u0649 \u062f\u064a\u0646\u0627\u0631", "name:fr": "Caf\u00e9 Dinar"}}, {"type": "node", "id": 6013862332, "lat": 35.5044387, "lon": 11.0682815, "tags": {"amenity": "restaurant", "name": "Chez Na\u00efma", "name:fr": "Chez Na\u00efma"}}, {"type": "node", "id": 6013862333, "lat": 35.5032216, "lon": 11.0688991, "tags": {"addr:city": "\u0627\u0644\u0645\u0647\u062f\u064a\u0629", "addr:city:ar": "\u0627\u0644\u0645\u0647\u062f\u064a\u0629", "amenity": "cafe"}}, {"type": "node", "id": 6204569505, "lat": 35.6284409, "lon": 10.900298, "tags": {"amenity": "cafe", "name": "\u0645\u0642\u0647\u0649 \u0627\u0644\u062c\u0645\u0647\u0648\u0631\u064a\u0629", "name:ar": "\u0645\u0642\u0647\u0649 \u0627\u0644\u062c\u0645\u0647\u0648\u0631\u064a\u0629", "name:fr": "Caf\u00e9 de la R\u00e9publique"}}, {"type": "node", "id": 6204574854, "lat": 35.6281622, "lon": 10.8998761, "tags": {"amenity": "cafe", "name": "Caf\u00e9 5 septembre"}}, {"type": "node", "id": 6204581172, "lat": 35.6274271, "lon": 10.9001377, "tags": {"amenity": "cafe", "name": "Caf\u00e9 Lamine"}}, {"type": "node", "id": 6284535865, "lat": 35.4783795, "lon": 11.0530179, "tags": {"amenity": "restaurant", "name": "\u0627\u0644\u0645\u0637\u0639\u0645 \u0627\u0644\u062c\u0627\u0645\u0639\u064a \u0631\u062c\u064a\u0634", "name:ar": "\u0627\u0644\u0645\u0637\u0639\u0645 \u0627\u0644\u062c\u0627\u0645\u0639\u064a \u0631\u062c\u064a\u0634", "name:fr": "Restaurant Universitaire R\u00e9jiche"}}, {"type": "node", "id": 6379306567, "lat": 35.5054623, "lon": 11.0649076, "tags": {"amenity": "cafe", "name": "La Bella"}}, {"type": "node", "id": 6379307816, "lat": 35.4962071, "lon": 11.0611767, "tags": {"amenity": "cafe", "name": "New Moon"}}, {"type": "node", "id": 6379307817, "lat": 35.4976987, "lon": 11.0538493, "tags": {"amenity": "cafe", "name": "Caf\u00e9 L'\u00c9TOILE"}}, {"type": "node", "id": 6379307836, "lat": 35.5018941, "lon": 11.0658577, "tags": {"addr:city": "\u0627\u0644\u0645\u0647\u062f\u064a\u0629", "amenity": "cafe", "name": "\u0627\u0644\u0642\u062f\u0633", "name:ar": "\u0627\u0644\u0642\u062f\u0633", "name:fr": "El Qudes"}}, {"type": "node", "id": 6379307837, "lat": 35.5021478, "lon": 11.0663037, "tags": {"amenity": "cafe", "name": "PortSide"}}, {"type": "node", "id": 6379307838, "lat": 35.5026805, "lon": 11.067731, "tags": {"amenity": "cafe", "name": "La Marsana"}}, {"type": "node", "id": 6379307839, "lat": 35.5038901, "lon": 11.0708308, "tags": {"amenity": "restaurant", "name": "Caf\u00e9 Kiros Planet", "name:fr": "Caf\u00e9 Kiros Planet"}}, {"type": "node", "id": 6379307840, "lat": 35.5043885, "lon": 11.0723901, "tags": {"addr:city": "\u0627\u0644\u0645\u0647\u062f\u064a\u0629", "addr:city:ar": "\u0627\u0644\u0645\u0647\u062f\u064a\u0629", "amenity": "restaurant", "name": "\u0645\u0637\u0639\u0645 \u0628\u064a\u062a\u0632\u0627 \u0641\u064a\u063a\u0627\u0633", "name:ar": "\u0645\u0637\u0639\u0645 \u0628\u064a\u062a\u0632\u0627 \u0641\u064a\u063a\u0627\u0633", "name:en": "Pizzeria Vegas", "name:fr": "Pizzeria Vegas"}}, {"type": "node", "id": 6379307843, "lat": 35.5042249, "lon": 11.0730015, "tags": {"addr:city": "\u0627\u0644\u0645\u0647\u062f\u064a\u0629", "addr:city:ar": "\u0627\u0644\u0645\u0647\u062f\u064a\u0629", "amenity": "cafe", "name": "\u0645\u0642\u0647\u0649 \u0627\u0644\u0645\u0647\u062f\u064a", "name:ar": "\u0645\u0642\u0647\u0649 \u0627\u0644\u0645\u0647\u062f\u064a", "name:fr": "Caf\u00e9 El Mehdi"}}, {"type": "node", "id": 6379307844, "lat": 35.5044556, "lon": 11.0735163, "tags": {"addr:city": "\u0627\u0644\u0645\u0647\u062f\u064a\u0629", "addr:city:ar": "\u0627\u0644\u0645\u0647\u062f\u064a\u0629", "amenity": "restaurant", "name": "\u062f\u0627\u0631 \u0627\u0644\u0645\u0647\u062f\u064a", "name:ar": "\u062f\u0627\u0631 \u0627\u0644\u0645\u0647\u062f\u064a", "name:fr": "Caf\u00e9 Bar El Mehdi"}}, {"type": "node", "id": 6433933436, "lat": 35.5030544, "lon": 11.069397, "tags": {"addr:city": "\u0627\u0644\u0645\u0647\u062f\u064a\u0629", "addr:city:ar": "\u0627\u0644\u0645\u0647\u062f\u064a\u0629", "amenity": "restaurant", "name": "\u0645\u0637\u0639\u0645 \u0627\u0644\u0645\u062f\u064a\u0646\u0629", "name:ar": "\u0645\u0637\u0639\u0645 \u0627\u0644\u062f\u064a\u0646\u0629"}}, {"type": "node", "id": 6434026941, "lat": 35.5179006, "lon": 11.0424293, "tags": {"amenity": "cafe", "name": "\u0645\u0642\u0647\u0649 \u0628\u0627\u0631\u064a\u0633", "name:ar": "\u0645\u0642\u0647\u0649 \u0628\u0627\u0631\u064a\u0633", "name:fr": "Caf\u00e9 Paris"}}, {"type": "node", "id": 6537591255, "lat": 35.5049993, "lon": 11.066824, "tags": {"addr:city": "\u0627\u0644\u0645\u0647\u062f\u064a\u0629", "addr:city:ar": "\u0627\u0644\u0645\u0647\u062f\u064a\u0629", "amenity": "restaurant", "name": "\u0645\u0637\u0639\u0645 \u0628\u0631\u062c \u0627\u0644\u0631\u0623\u0633", "name:ar": "\u0645\u0637\u0639\u0645 \u0628\u0631\u062c \u0627\u0644\u0631\u0623\u0633", "name:fr": "Restaurant Borj Errass"}}, {"type": "node", "id": 6537591256, "lat": 35.5050623, "lon": 11.0665667, "tags": {"addr:city": "\u0627\u0644\u0645\u0647\u062f\u064a\u0629", "addr:city:ar": "\u0627\u0644\u0645\u0647\u062f\u064a\u0629", "amenity": "restaurant", "name": "\u0645\u0637\u0639\u0645 \u0639\u0631\u0648\u0633 \u0627\u0644\u0628\u062d\u0631", "name:ar": "\u0645\u0637\u0639\u0645 \u0639\u0631\u0648\u0633 \u0627\u0644\u0628\u062d\u0631", "name:fr": "Restaurant La Sir\u00e8ne"}}, {"type": "node", "id": 6537591257, "lat": 35.5034228, "lon": 11.0694747, "tags": {"amenity": "restaurant", "name": "\u0645\u0637\u0639\u0645 \u0639\u0646\u062f \u0639\u0644\u064a", "name:ar": "\u0645\u0637\u0639\u0645 \u0639\u0646\u062f \u0639\u0644\u064a", "name:fr": "Restaurant Chez Ali"}}, {"type": "node", "id": 6537591258, "lat": 35.5040128, "lon": 11.0711863, "tags": {"amenity": "restaurant", "name": "\u0645\u0637\u0639\u0645 \u062d\u0648\u0645\u0627\u0646\u064a", "name:ar": "\u0645\u0637\u0639\u0645 \u062d\u0648\u0645\u0627\u0646\u064a", "name:fr": "Restaurant Houmani"}}, {"type": "node", "id": 6537591259, "lat": 35.5032206, "lon": 11.0693973, "tags": {"addr:city": "\u0627\u0644\u0645\u0647\u062f\u064a\u0629", "addr:city:ar": "\u0627\u0644\u0645\u0647\u062f\u064a\u0629", "amenity": "cafe", "name": "\u0645\u0642\u0647\u0649 \u0627\u0644\u0645\u0647\u062f\u064a\u0629", "name:ar": "\u0645\u0642\u0647\u0649 \u0627\u0644\u0645\u0647\u062f\u064a\u0629", "name:fr": "Caf\u00e9 de Mahdia"}}, {"type": "node", "id": 6537591260, "lat": 35.5034207, "lon": 11.0693459, "tags": {"addr:city": "\u0627\u0644\u0645\u0647\u062f\u064a\u0629", "addr:city:ar": "\u0627\u0644\u0645\u0647\u062f\u064a\u0629", "amenity": "cafe", "name": "\u0645\u0642\u0647\u0649 \u062a\u0648\u0646\u0633", "name:ar": "\u0645\u0642\u0647\u0649 \u062a\u0648\u0646\u0633", "name:fr": "Caf\u00e9 de Tunis"}}, {"type": "node", "id": 6617761206, "lat": 35.2236257, "lon": 11.1107971, "tags": {"amenity": "cafe", "name": "\u0645\u0642\u0647\u0649 \u0627\u0644\u0646\u0633\u064a\u0645", "name:ar": "\u0645\u0642\u0647\u0649 \u0627\u0644\u0646\u0633\u064a\u0645", "name:fr": "Caf\u00e9 Ennasim"}}, {"type": "node", "id": 6643148263, "lat": 35.5444333, "lon": 11.0305762, "tags": {"amenity": "restaurant", "self_service": "yes"}}, {"type": "node", "id": 6649563008, "lat": 35.5442727, "lon": 11.0307332, "tags": {"amenity": "restaurant"}}, {"type": "node", "id": 6715448284, "lat": 35.5237682, "lon": 11.0379747, "tags": {"amenity": "cafe", "name": "Caf\u00e9 Oxyg\u00e8ne", "name:ar": "\u0642\u0627\u0639\u0629 \u0634\u0627\u064a \u0623\u0648\u0643\u0633\u064a\u062c\u064a\u0646", "name:fr": "Caf\u00e9 Oxyg\u00e8ne"}}, {"type": "node", "id": 7236953868, "lat": 35.5163274, "lon": 11.0445506, "tags": {"amenity": "cafe", "name": "The Famous"}}, {"type": "node", "id": 7236953870, "lat": 35.5194525, "lon": 11.0430486, "tags": {"amenity": "cafe", "name": "Dar El Masri"}}, {"type": "node", "id": 7236953871, "lat": 35.5217584, "lon": 11.041897, "tags": {"amenity": "cafe", "name": "Deer"}}, {"type": "node", "id": 7236953872, "lat": 35.5226262, "lon": 11.0413595, "tags": {"amenity": "cafe", "name": "Barberousse"}}, {"type": "node", "id": 7236953873, "lat": 35.523142, "lon": 11.0410155, "tags": {"amenity": "cafe", "name": "Flamengo Coffee", "name:fr": "Flamengo Coffee"}}, {"type": "node", "id": 7616916340, "lat": 35.5194165, "lon": 11.0359453, "tags": {"amenity": "cafe", "internet_access": "wlan", "internet_access:fee": "no", "name": "\u0645\u0642\u0647\u0649 \u0645\u0631\u0633\u064a\u0644\u064a\u0627", "name:ar": "\u0645\u0642\u0647\u0649 \u0645\u0631\u0633\u064a\u0644\u064a\u0627"}}, {"type": "node", "id": 7616916341, "lat": 35.5229186, "lon": 11.0319422, "tags": {"amenity": "cafe", "name": "\u0645\u0642\u0647\u0649 \u062d\u0630\u0627\u0645\u064a", "name:ar": "\u0645\u0642\u0647\u0649 \u062d\u0630\u0627\u0645\u064a"}}, {"type": "node", "id": 7616916343, "lat": 35.5211538, "lon": 11.029836, "tags": {"amenity": "restaurant", "name": "Restaurant universitaire"}}, {"type": "node", "id": 7796477691, "lat": 35.4010065, "lon": 11.044631, "tags": {"amenity": "cafe", "name": "Caf\u00e9 La Plage", "name:fr": "Caf\u00e9 La Plage"}}, {"type": "node", "id": 8205042840, "lat": 35.2184963, "lon": 10.7105536, "tags": {"amenity": "restaurant", "name": "Restaurant Ennasim"}}, {"type": "node", "id": 8205042841, "lat": 35.2189518, "lon": 10.7106264, "tags": {"amenity": "cafe", "name": "Caf\u00e9 Elhach", "name:fr": "Caf\u00e9 Elhach"}}, {"type": "node", "id": 8205042842, "lat": 35.2315802, "lon": 10.7097433, "tags": {"amenity": "restaurant", "name": "\u0645\u0637\u0639\u0645 \u0627\u0644\u0623\u0645\u0644", "name:ar": "\u0645\u0637\u0639\u0645 \u0627\u0644\u0623\u0645\u0644", "name:fr": "Restaurant L'Espoir"}}, {"type": "node", "id": 8205058756, "lat": 35.4053278, "lon": 10.6728683, "tags": {"amenity": "cafe"}}, {"type": "node", "id": 8205058757, "lat": 35.4062394, "lon": 10.67249, "tags": {"amenity": "cafe", "name": "Caf\u00e9 El Amel"}}, {"type": "node", "id": 8341779268, "lat": 35.4705707, "lon": 10.667877, "tags": {"addr:city": "kerker", "addr:postcode": "5112", "addr:street": "kerker mahata", "amenity": "cafe", "cuisine": "thai;italian;coffee_shop", "internet_access": "yes", "internet_access:fee": "no", "name": "Caf\u00e9 La Reine", "opening_hours": "24/7", "outdoor_seating": "yes", "phone": "+216 28 156 704", "website": "https://www.facebook.com/reinekerker"}}, {"type": "node", "id": 9014138817, "lat": 35.6315305, "lon": 10.8979177, "tags": {"addr:postcode": "5050", "addr:street": "\u0634\u0627\u0631\u0639 \u0627\u0644\u0634\u0647\u062f\u0627\u0621", "amenity": "cafe", "internet_access": "wlan", "name": "\u0646\u0645\u0628\u0631 \u0648\u0627\u0646", "name:en": "Number One", "opening_hours": "Mo-Su 08:00-19:00"}}, {"type": "node", "id": 9014209217, "lat": 35.6266294, "lon": 10.9003054, "tags": {"amenity": "cafe", "cuisine": "coffee_shop", "name": "Caf\u00e9 Bel Gacem"}}, {"type": "node", "id": 9833783199, "lat": 35.3015783, "lon": 11.0442986, "tags": {"amenity": "cafe", "name": "Caf\u00e9 Khmara"}}, {"type": "node", "id": 9968789517, "lat": 35.5403637, "lon": 11.0322418}, {"type": "node", "id": 9968789518, "lat": 35.5403498, "lon": 11.0322546}, {"type": "node", "id": 9968789519, "lat": 35.5403382, "lon": 11.0322461}, {"type": "node", "id": 9968789520, "lat": 35.5403103, "lon": 11.0322988}, {"type": "node", "id": 9968789521, "lat": 35.5402709, "lon": 11.0322931}, {"type": "node", "id": 9968789522, "lat": 35.5402477, "lon": 11.0323373}, {"type": "node", "id": 9968789523, "lat": 35.5402233, "lon": 11.0323259}, {"type": "node", "id": 9968789524, "lat": 35.5401955, "lon": 11.0323843}, {"type": "node", "id": 9968789525, "lat": 35.540214, "lon": 11.0324072}, {"type": "node", "id": 9968789526, "lat": 35.540192, "lon": 11.032457}, {"type": "node", "id": 9968789527, "lat": 35.5402082, "lon": 11.0324841}, {"type": "node", "id": 9968789528, "lat": 35.5402013, "lon": 11.0325055}, {"type": "node", "id": 9968789529, "lat": 35.5402164, "lon": 11.0325183}, {"type": "node", "id": 9968789530, "lat": 35.5402616, "lon": 11.0325469}, {"type": "node", "id": 9968789531, "lat": 35.5402187, "lon": 11.0326352}, {"type": "node", "id": 9968789532, "lat": 35.5402523, "lon": 11.032668}, {"type": "node", "id": 9968789533, "lat": 35.540221, "lon": 11.0327179}, {"type": "node", "id": 9968789534, "lat": 35.5403648, "lon": 11.0328248}, {"type": "node", "id": 9968789535, "lat": 35.5403834, "lon": 11.0327821}, {"type": "node", "id": 9968789536, "lat": 35.5404112, "lon": 11.0328049}, {"type": "node", "id": 9968789537, "lat": 35.5404994, "lon": 11.0326238}, {"type": "node", "id": 9968789538, "lat": 35.5404762, "lon": 11.0325454}, {"type": "node", "id": 9968789539, "lat": 35.540453, "lon": 11.0325426}, {"type": "node", "id": 9968789540, "lat": 35.5404565, "lon": 11.0325084}, {"type": "node", "id": 9968789541, "lat": 35.540482, "lon": 11.0325198}, {"type": "node", "id": 9968789542, "lat": 35.5404901, "lon": 11.032497}, {"type": "node", "id": 9968789543, "lat": 35.5404437, "lon": 11.0324542}, {"type": "node", "id": 9968789544, "lat": 35.5404333, "lon": 11.0324114}, {"type": "node", "id": 9968789545, "lat": 35.5404425, "lon": 11.0323772}, {"type": "node", "id": 9968789546, "lat": 35.5404251, "lon": 11.0323501}, {"type": "node", "id": 9968789547, "lat": 35.5404309, "lon": 11.0322945}, {"type": "node", "id": 9968789548, "lat": 35.5403275, "lon": 11.0326858, "tags": {"amenity": "restaurant"}}, {"type": "node", "id": 9968789549, "lat": 35.5403453, "lon": 11.0323572, "tags": {"amenity": "restaurant"}}, {"type": "node", "id": 10018736493, "lat": 35.2686139, "lon": 10.8133028, "tags": {"amenity": "cafe", "name": "Caf\u00e9 El Oued", "name:fr": "Caf\u00e9 El Oued"}}, {"type": "node", "id": 10021286057, "lat": 35.2997131, "lon": 10.7664701, "tags": {"amenity": "cafe", "name": "Caf\u00e9 Messadia", "name:fr": "Caf\u00e9 Messadia"}}, {"type": "node", "id": 11118979907, "lat": 35.5100882, "lon": 11.0539362, "tags": {"addr:street": "\u0634\u0627\u0631\u0639 14 \u062c\u0627\u0646\u0641\u064a 2011", "amenity": "restaurant", "contact:facebook": "https://facebook.com/people/DARNA-_-%D8%AF%D8%A7%D8%B1%D9%86%D8%A7/100063765783494", "cuisine": "arab;grill", "name": "\u062f\u0627\u0631\u0646\u0627", "name:en": "Darna", "phone": "+216 28 127 175"}}, {"type": "node", "id": 11121948305, "lat": 35.4687387, "lon": 11.0505667, "tags": {"amenity": "restaurant", "contact:facebook": "Pizza-Napoli-resto-caf%C3%A9-100063744482572", "cuisine": "pasta;pizza", "name:en": "Pizza Napoli", "phone": "+216 51 091 714"}}, {"type": "node", "id": 11125062505, "lat": 35.2956482, "lon": 10.7079202, "tags": {"amenity": "restaurant", "name:en": "Al Hana", "phone": "+216 96 576 417"}}, {"type": "node", "id": 11761017154, "lat": 35.2953049, "lon": 10.7076686, "tags": {"addr:street": "\u0634\u0627\u0631\u0639 \u0627\u0644\u062d\u0628\u064a\u0628 \u0628\u0648\u0631\u0642\u064a\u0628\u0629", "amenity": "cafe", "name": "Caf\u00e9 Bacchus"}}, {"type": "node", "id": 11761036639, "lat": 35.2945508, "lon": 10.7082035, "tags": {"addr:city": "El Jem", "addr:postcode": "5160", "addr:street": "Avenue Habib Bourguiba", "amenity": "restaurant", "cuisine": "pizza", "name": "El Capo Pizza", "opening_hours": "Mo-Su 16:00-24:00", "phone": "+216 98 210 762"}}, {"type": "node", "id": 11761038223, "lat": 35.2935906, "lon": 10.7090264, "tags": {"amenity": "cafe", "name": "Caf\u00e9 Youssef"}}, {"type": "node", "id": 11761116326, "lat": 35.2976772, "lon": 10.7058681, "tags": {"amenity": "cafe", "name": "Venus"}}, {"type": "node", "id": 11761128951, "lat": 35.2975988, "lon": 10.7059198, "tags": {"amenity": "cafe", "name": "Central"}}, {"type": "node", "id": 11761261099, "lat": 35.295587, "lon": 10.7068132, "tags": {"amenity": "cafe", "name": "Kacem"}}, {"type": "node", "id": 11761294940, "lat": 35.2977742, "lon": 10.7073863, "tags": {"amenity": "restaurant", "name": "Adel Hirara"}}, {"type": "node", "id": 11761340113, "lat": 35.2979205, "lon": 10.7074349, "tags": {"amenity": "restaurant", "name": "Elyess"}}, {"type": "node", "id": 11761362133, "lat": 35.2978291, "lon": 10.7078814, "tags": {"amenity": "cafe", "name": "Debbebi"}}, {"type": "node", "id": 11761365231, "lat": 35.29818, "lon": 10.7062374, "tags": {"amenity": "restaurant", "name": "La Symphonie"}}, {"type": "node", "id": 11761365769, "lat": 35.2979937, "lon": 10.70708, "tags": {"amenity": "restaurant", "name": "Le Bonheur 2"}}, {"type": "node", "id": 11761373232, "lat": 35.2982322, "lon": 10.7062527, "tags": {"amenity": "cafe", "name": "La Symphonie"}}, {"type": "node", "id": 11761373233, "lat": 35.2978346, "lon": 10.7068618, "tags": {"amenity": "restaurant", "name": "Roma"}}, {"type": "node", "id": 11761381707, "lat": 35.2964062, "lon": 10.7058595, "tags": {"amenity": "cafe", "name": "Jledou"}}, {"type": "node", "id": 11980237069, "lat": 35.5373182, "lon": 11.0333355, "tags": {"amenity": "restaurant", "name": "Snack bar"}}, {"type": "node", "id": 12064830449, "lat": 35.5025593, "lon": 11.0672009, "tags": {"amenity": "cafe", "name": "Le Corsaire"}}, {"type": "node", "id": 12064830450, "lat": 35.5026185, "lon": 11.0673834, "tags": {"amenity": "cafe"}}, {"type": "node", "id": 12158794638, "lat": 35.4991837, "lon": 11.0501075, "tags": {"amenity": "cafe", "name": "La Libert\u00e9"}}, {"type": "node", "id": 12165825846, "lat": 35.5069876, "lon": 11.0558214, "tags": {"amenity": "cafe"}}, {"type": "node", "id": 12165895739, "lat": 35.5077617, "lon": 11.0524369, "tags": {"amenity": "cafe", "indoor_seating": "yes", "outdoor_seating": "yes"}}, {"type": "node", "id": 12165895740, "lat": 35.5077085, "lon": 11.0525975, "tags": {"amenity": "cafe", "indoor_seating": "yes", "name": "Mashmoom cafe", "outdoor_seating": "yes"}}, {"type": "node", "id": 12169605866, "lat": 35.5101501, "lon": 11.0521266, "tags": {"amenity": "restaurant", "name": "Nino"}}, {"type": "node", "id": 12178484079, "lat": 35.5047837, "lon": 11.0717692, "tags": {"amenity": "cafe", "name": "Brothers Coffee"}}, {"type": "node", "id": 12186609562, "lat": 35.5043596, "lon": 11.0707265, "tags": {"amenity": "cafe", "name": "Caf\u00e9 Gamra"}}, {"type": "node", "id": 12188030679, "lat": 35.504981, "lon": 11.0522637, "tags": {"amenity": "cafe"}}, {"type": "node", "id": 12348771993, "lat": 35.5239577, "lon": 11.0357762, "tags": {"amenity": "restaurant", "name": "L'Origan"}}, {"type": "node", "id": 12348825198, "lat": 35.5133667, "lon": 11.048257, "tags": {"amenity": "cafe", "name": "El Asfoor"}}, {"type": "node", "id": 12348844306, "lat": 35.5265215, "lon": 11.0330383, "tags": {"amenity": "restaurant", "indoor_seating": "yes", "name": "The Roy's", "outdoor_seating": "yes"}}, {"type": "node", "id": 12382772258, "lat": 35.3523618, "lon": 10.7897373, "tags": {"amenity": "cafe", "name:fr": "Caf\u00e9 Station"}}, {"type": "node", "id": 12389156744, "lat": 35.3940482, "lon": 10.7793012}, {"type": "node", "id": 12389156749, "lat": 35.3939657, "lon": 10.7793671}, {"type": "node", "id": 12389156750, "lat": 35.3940001, "lon": 10.7794328}, {"type": "node", "id": 12389156751, "lat": 35.3940829, "lon": 10.7793675}, {"type": "way", "id": 1088020871, "nodes": [9968789517, 9968789518, 9968789519, 9968789520, 9968789521, 9968789522, 9968789523, 9968789524, 9968789525, 9968789526, 9968789527, 9968789528, 9968789529, 9968789530, 9968789531, 9968789532, 9968789533, 9968789534, 9968789535, 9968789536, 9968789537, 9968789538, 9968789539, 9968789540, 9968789541, 9968789542, 9968789543, 9968789544, 9968789545, 9968789546, 9968789547, 9968789517], "tags": {"amenity": "restaurant", "building": "yes"}}, {"type": "way", "id": 1339346589, "nodes": [12389156744, 12389156751, 12389156750, 12389156749, 12389156744], "tags": {"amenity": "restaurant", "building": "yes", "source": "Bing"}}]}