{"version": 0.6, "generator": "Overpass API 0.7.62.7 375dc00a", "osm3s": {"timestamp_osm_base": "2025-06-14T13:11:54Z", "copyright": "The data included in this document is from www.openstreetmap.org. The data is made available under ODbL."}, "elements": [{"type": "node", "id": 2171011692, "lat": 22.7886231, "lon": 5.5255254, "tags": {"addr:city": "\u062a\u0645\u0646\u0631\u0627\u0633\u062a", "addr:city:ar": "\u062a\u0645\u0646\u0631\u0627\u0633\u062a", "amenity": "cafe", "cuisine": "coffee_shop", "diet:halal": "yes", "language:ar": "main"}}, {"type": "node", "id": 2171015660, "lat": 22.7902355, "lon": 5.5220976, "tags": {"addr:city": "\u062a\u0645\u0646\u0631\u0627\u0633\u062a", "addr:city:ar": "\u062a\u0645\u0646\u0631\u0627\u0633\u062a", "amenity": "cafe", "cuisine": "coffee_shop", "diet:halal": "yes", "language:ar": "main"}}, {"type": "node", "id": 3022261324, "lat": 22.7874041, "lon": 5.5301764, "tags": {"addr:city": "\u062a\u0645\u0646\u0631\u0627\u0633\u062a", "addr:city:ar": "\u062a\u0645\u0646\u0631\u0627\u0633\u062a", "amenity": "restaurant", "diet:halal": "yes", "language:ar": "main", "name": "Resto", "name:fr": "Resto"}}, {"type": "node", "id": 3022432607, "lat": 22.7883917, "lon": 5.5353832, "tags": {"addr:city": "\u062a\u0645\u0646\u0631\u0627\u0633\u062a", "addr:city:ar": "\u062a\u0645\u0646\u0631\u0627\u0633\u062a", "amenity": "cafe", "diet:halal": "yes", "language:ar": "main"}}, {"type": "node", "id": 3023242036, "lat": 22.787087, "lon": 5.5311403, "tags": {"addr:city": "\u062a\u0645\u0646\u0631\u0627\u0633\u062a", "addr:city:ar": "\u062a\u0645\u0646\u0631\u0627\u0633\u062a", "amenity": "cafe", "diet:halal": "yes", "language:ar": "main"}}, {"type": "node", "id": 3024398434, "lat": 22.7875649, "lon": 5.5253694, "tags": {"addr:city": "\u062a\u0645\u0646\u0631\u0627\u0633\u062a", "addr:city:ar": "\u062a\u0645\u0646\u0631\u0627\u0633\u062a", "amenity": "cafe", "diet:halal": "yes", "language:ar": "main"}}, {"type": "node", "id": 3024398454, "lat": 22.7867399, "lon": 5.531441, "tags": {"addr:city": "\u062a\u0645\u0646\u0631\u0627\u0633\u062a", "addr:city:ar": "\u062a\u0645\u0646\u0631\u0627\u0633\u062a", "addr:place": "\u0642\u0635\u0631 \u0627\u0644\u0641\u0648\u063a\u0627\u0646\u064a", "addr:place:ar": "\u0642\u0635\u0631 \u0627\u0644\u0641\u0648\u063a\u0627\u0646\u064a", "addr:street": "\u0634\u0627\u0631\u0639 \u0645\u062d\u0645\u062f \u0628\u0648\u062e\u0636\u0631\u0629", "addr:street:ar": "\u0634\u0627\u0631\u0639 \u0645\u062d\u0645\u062f \u0628\u0648\u062e\u0636\u0631\u0629", "amenity": "cafe", "diet:halal": "yes", "language:ar": "main"}}, {"type": "node", "id": 3024738778, "lat": 22.7881421, "lon": 5.5248972, "tags": {"addr:city": "\u062a\u0645\u0646\u0631\u0627\u0633\u062a", "addr:city:ar": "\u062a\u0645\u0646\u0631\u0627\u0633\u062a", "amenity": "restaurant", "diet:halal": "yes", "language:ar": "main", "name": "Resto", "name:fr": "Resto"}}, {"type": "node", "id": 3024738784, "lat": 22.7866772, "lon": 5.5250927, "tags": {"addr:city": "\u062a\u0645\u0646\u0631\u0627\u0633\u062a", "addr:city:ar": "\u062a\u0645\u0646\u0631\u0627\u0633\u062a", "amenity": "restaurant", "diet:halal": "yes", "language:ar": "main", "name": "Resto", "name:fr": "Resto"}}, {"type": "node", "id": 3024738963, "lat": 22.7864365, "lon": 5.5377732, "tags": {"addr:city": "\u062a\u0645\u0646\u0631\u0627\u0633\u062a", "addr:city:ar": "\u062a\u0645\u0646\u0631\u0627\u0633\u062a", "amenity": "cafe", "diet:halal": "yes", "language:ar": "main"}}, {"type": "node", "id": 3109236478, "lat": 22.7884811, "lon": 5.5247897, "tags": {"addr:city": "\u062a\u0645\u0646\u0631\u0627\u0633\u062a", "addr:city:ar": "\u062a\u0645\u0646\u0631\u0627\u0633\u062a", "amenity": "restaurant", "diet:halal": "yes", "language:ar": "main", "name": "Resto", "name:fr": "Resto"}}, {"type": "node", "id": 3111330636, "lat": 22.7855919, "lon": 5.5379553, "tags": {"addr:city": "\u062a\u0645\u0646\u0631\u0627\u0633\u062a", "addr:city:ar": "\u062a\u0645\u0646\u0631\u0627\u0633\u062a", "amenity": "restaurant", "cuisine": "pizza", "diet:halal": "yes", "language:ar": "main", "name": "\u0628\u064a\u062a\u0632\u0627 \u0627\u0644\u0634\u0628\u0644\u064a", "name:ar": "\u0628\u064a\u062a\u0632\u0627 \u0627\u0644\u0634\u0628\u0644\u064a", "name:en": "Pizza Shabbli", "name:fr": "Chibli"}}, {"type": "node", "id": 3280937927, "lat": 22.7884209, "lon": 5.5245891, "tags": {"addr:city": "\u062a\u0645\u0646\u0631\u0627\u0633\u062a", "addr:city:ar": "\u062a\u0645\u0646\u0631\u0627\u0633\u062a", "addr:postcode": "11000", "amenity": "restaurant", "diet:halal": "yes", "name": "\u0645\u0637\u0639\u0645 \u0646\u064a\u0646\u0627", "name:ar": "\u0645\u0637\u0639\u0645 \u0646\u064a\u0646\u0627", "name:en": "Restaurant Nina", "name:fr": "Restaurant Nina"}}, {"type": "node", "id": 4404169791, "lat": 22.7862157, "lon": 5.5172816, "tags": {"addr:city": "\u062a\u0645\u0646\u0631\u0627\u0633\u062a", "addr:city:ar": "\u062a\u0645\u0646\u0631\u0627\u0633\u062a", "amenity": "cafe", "diet:halal": "yes", "language:ar": "main"}}, {"type": "node", "id": 5213709644, "lat": 22.7975432, "lon": 5.530444, "tags": {"addr:city": "Tamanrasset \u2d5c\u2d30\u2d4e\u2d3b\u2d4f\u2d54\u2d30\u2d59\u2d3b\u2d5c \u062a\u0645\u0646\u0631\u0627\u0633\u062a", "addr:city:ar": "\u062a\u0645\u0646\u0631\u0627\u0633\u062a", "addr:street": "\u0627\u0644\u062a\u062c\u0646\u0628 \u0627\u0644\u0634\u0645\u0627\u0644\u064a", "addr:street:ar": "\u0627\u0644\u062a\u062c\u0646\u0628 \u0627\u0644\u0634\u0645\u0627\u0644\u064a", "amenity": "restaurant", "language:ar": "main", "name": "Oum derman 2", "name:ar": "\u0623\u0645 \u062f\u0631\u0645\u0627\u0646 2", "name:etymology": "\u0623\u0645 \u062f\u0631\u0645\u0627\u0646", "name:etymology:wikidata": "Q180921", "name:etymology:wikipedia": "ar:\u0623\u0645 \u062f\u0631\u0645\u0627\u0646", "name:fr": "Oum derman 2"}}, {"type": "node", "id": 5213712336, "lat": 22.7978114, "lon": 5.5306018, "tags": {"addr:city": "\u062a\u0645\u0646\u0631\u0627\u0633\u062a", "addr:city:ar": "\u062a\u0645\u0646\u0631\u0627\u0633\u062a", "addr:street": "\u0627\u0644\u062a\u062c\u0646\u0628 \u0627\u0644\u0634\u0645\u0627\u0644\u064a", "addr:street:ar": "\u0627\u0644\u062a\u062c\u0646\u0628 \u0627\u0644\u0634\u0645\u0627\u0644\u064a", "amenity": "cafe", "diet:halal": "yes", "language:ar": "main"}}, {"type": "node", "id": 5398806222, "lat": 22.8489795, "lon": 5.3457087, "tags": {"addr:city": "\u0623\u0648\u062a\u0648\u0644", "amenity": "restaurant", "name": "\u0645\u0637\u0639\u0645 \u0623\u062d\u0645\u062f \u0623\u062a\u0648\u0644\u0627", "name:ar": "\u0645\u0637\u0639\u0645 \u0623\u062d\u0645\u062f \u0623\u062a\u0648\u0644\u0627", "name:fr": "Restaurant Ahmed Atoula"}}, {"type": "node", "id": 6627254386, "lat": 22.789461, "lon": 5.5248312, "tags": {"addr:city": "\u062a\u0645\u0646\u0631\u0627\u0633\u062a", "addr:city:ar": "\u062a\u0645\u0646\u0631\u0627\u0633\u062a", "addr:street": "\u0634\u0627\u0631\u0639 5 \u064a\u0648\u0644\u064a\u0648", "addr:street:ar": "\u0634\u0627\u0631\u0639 5 \u064a\u0648\u0644\u064a\u0648", "amenity": "cafe", "diet:halal": "yes", "language:ar": "main"}}, {"type": "node", "id": 7231610885, "lat": 22.7793587, "lon": 5.5202132, "tags": {"amenity": "cafe", "name": "tay", "name:en": "tzy"}}, {"type": "node", "id": 7941005131, "lat": 22.7924394, "lon": 5.5258477, "tags": {"addr:city": "\u062a\u0645\u0646\u0631\u0627\u0633\u062a", "addr:city:ar": "\u062a\u0645\u0646\u0631\u0627\u0633\u062a", "addr:place": "\u0633\u0631\u0633\u0648\u0641", "addr:place:ar": "\u0633\u0631\u0633\u0648\u0641", "addr:street": "\u0634\u0627\u0631\u0639 5 \u064a\u0648\u0644\u064a\u0648", "addr:street:ar": "\u0634\u0627\u0631\u0639 5 \u064a\u0648\u0644\u064a\u0648", "amenity": "cafe", "diet:halal": "yes", "language:ar": "main", "name": "\u0646\u0627\u062f\u064a \u0627\u0644\u0639\u0644\u0645", "name:ar": "\u0646\u0627\u062f\u064a \u0627\u0644\u0639\u0644\u0645", "name:fr": "Club de science"}}, {"type": "node", "id": 7941005135, "lat": 22.7937056, "lon": 5.5266432, "tags": {"addr:city": "\u062a\u0645\u0646\u0631\u0627\u0633\u062a", "addr:city:ar": "\u062a\u0645\u0646\u0631\u0627\u0633\u062a", "addr:place": "\u0633\u0631\u0633\u0648\u0641", "addr:place:ar": "\u0633\u0631\u0633\u0648\u0641", "addr:street": "\u0634\u0627\u0631\u0639 5 \u064a\u0648\u0644\u064a\u0648", "addr:street:ar": "\u0634\u0627\u0631\u0639 5 \u064a\u0648\u0644\u064a\u0648", "amenity": "restaurant", "cuisine": "pizza", "diet:halal": "yes", "language:ar": "main", "name": "\u0628\u064a\u062a\u0632\u0627", "name:ar": "\u0628\u064a\u062a\u0632\u0627", "name:fr": "Pizza", "opening_hours": "08:00-20:30"}}]}