{"version": 0.6, "generator": "Overpass API 0.7.62.7 375dc00a", "osm3s": {"timestamp_osm_base": "2025-06-14T13:26:15Z", "copyright": "The data included in this document is from www.openstreetmap.org. The data is made available under ODbL."}, "elements": [{"type": "node", "id": 567356051, "lat": 35.769262, "lon": 10.7636635, "tags": {"access": "private", "addr:city": "\u0627\u0644\u0645\u0646\u0633\u062a\u064a\u0631", "amenity": "restaurant", "name": "\u0645\u0637\u0639\u0645 \u0627\u0644\u062c\u062f\u0648\u0644 \u0627\u0644\u0641\u0646\u062f\u0642", "name:ar": "\u0645\u0637\u0639\u0645 \u0627\u0644\u062c\u062f\u0648\u0644 \u0627\u0644\u0641\u0646\u062f\u0642", "name:fr": "Restaurant Table d'H\u00f4tel", "operator": "\u0631\u0648\u0632\u0627 \u0628\u064a\u062a\u0634"}}, {"type": "node", "id": 705211788, "lat": 35.6700741, "lon": 10.9027707, "tags": {"amenity": "restaurant", "indoor_seating": "yes", "name": "Dar el-Hout", "outdoor_seating": "yes"}}, {"type": "node", "id": 705250496, "lat": 35.6698776, "lon": 10.8907892, "tags": {"air_conditioning": "no", "amenity": "cafe", "changing_table": "no", "food": "no", "indoor_seating": "yes", "name": "Caf\u00e9 de l'orient", "outdoor_seating": "yes", "smoking": "yes", "toilets": "yes", "toilets:wheelchair": "no", "wheelchair": "limited"}}, {"type": "node", "id": 708254631, "lat": 35.6580571, "lon": 10.8906816, "tags": {"amenity": "cafe", "indoor_seating": "yes", "name": "Caf\u00e9 l'Excellence", "outdoor_seating": "yes"}}, {"type": "node", "id": 722309541, "lat": 35.8428076, "lon": 10.6254104, "tags": {"amenity": "restaurant", "name": "The Saloon"}}, {"type": "node", "id": 1079725970, "lat": 35.6638343, "lon": 10.8908881, "tags": {"amenity": "cafe", "indoor_seating": "yes", "name": "Caf\u00e9 de Paris", "outdoor_seating": "yes"}}, {"type": "node", "id": 1112970546, "lat": 35.8281594, "lon": 10.6393468, "tags": {"addr:city": "\u0633\u0648\u0633\u0629", "addr:street": "\u0646\u0647\u062c \u0627\u0644\u0628\u062d\u0631", "amenity": "restaurant", "capacity": "30", "cuisine": "regional", "name": "\u062f\u0648 \u0628\u0648\u0628\u0644", "name:ar": "\u062f\u0648 \u0628\u0648\u0628\u0644", "name:fr": "Du Pueble", "smoking": "yes"}}, {"type": "node", "id": 1202486924, "lat": 35.8930291, "lon": 10.5981557, "tags": {"addr:city": "\u0627\u0644\u0642\u0646\u0637\u0627\u0648\u064a", "amenity": "restaurant", "cuisine": "european;tunisian", "email": "lemediterranee@topnet.tn", "name": "\u0627\u0644\u0645\u062a\u0648\u0633\u0637\u0649", "name:ar": "\u0627\u0644\u0645\u062a\u0648\u0633\u0637\u0649", "name:fr": "Le M\u00e9diterran\u00e9e", "opening_hours": "We-Mo 19:00-01:00", "phone": "+216 73 348 788", "website": "https://www.lemediterranee.com.tn/"}}, {"type": "node", "id": 1202487051, "lat": 35.8529059, "lon": 10.6165565, "tags": {"amenity": "restaurant"}}, {"type": "node", "id": 1202487378, "lat": 35.8879858, "lon": 10.592839, "tags": {"amenity": "cafe", "name": "\u0643\u0648\u0634\u0629 \u0633\u0648\u0633\u0629", "name:ar": "\u0643\u0648\u0634\u0629 \u0633\u0648\u0633\u0629", "name:fr": "Koucha Soussa"}}, {"type": "node", "id": 1202487558, "lat": 35.8529464, "lon": 10.616217, "tags": {"amenity": "cafe"}}, {"type": "node", "id": 1215645153, "lat": 35.845712, "lon": 10.6198939, "tags": {"amenity": "cafe", "name": "La Verenda", "opening_hours": "24/7"}}, {"type": "node", "id": 1216559396, "lat": 35.8496518, "lon": 10.617664}, {"type": "node", "id": 1216559416, "lat": 35.8493829, "lon": 10.6178426}, {"type": "node", "id": 1216559420, "lat": 35.849127, "lon": 10.6172657}, {"type": "node", "id": 1216559475, "lat": 35.8493974, "lon": 10.6170843}, {"type": "node", "id": 1228025043, "lat": 35.8487738, "lon": 10.617727, "tags": {"amenity": "restaurant", "cuisine": "pizza", "name": "Pizzeria"}}, {"type": "node", "id": 1228027982, "lat": 35.8478733, "lon": 10.6182342, "tags": {"amenity": "cafe", "name": "Mozart"}}, {"type": "node", "id": 1242526181, "lat": 35.8598329, "lon": 10.6132013}, {"type": "node", "id": 1242526182, "lat": 35.8602685, "lon": 10.6134426}, {"type": "node", "id": 1242526184, "lat": 35.8601089, "lon": 10.6139591}, {"type": "node", "id": 1242526185, "lat": 35.8600816, "lon": 10.6129491}, {"type": "node", "id": 1257301811, "lat": 35.8644139, "lon": 10.6077169}, {"type": "node", "id": 1257301813, "lat": 35.8646139, "lon": 10.6080301}, {"type": "node", "id": 1257301818, "lat": 35.8643385, "lon": 10.6082979}, {"type": "node", "id": 1257301822, "lat": 35.8641384, "lon": 10.6079846}, {"type": "node", "id": 1257301825, "lat": 35.8644119, "lon": 10.6082265}, {"type": "node", "id": 1273415691, "lat": 35.7274173, "lon": 10.7306099}, {"type": "node", "id": 1273415724, "lat": 35.7275527, "lon": 10.7305066}, {"type": "node", "id": 1273415740, "lat": 35.727485, "lon": 10.7307499}, {"type": "node", "id": 1273415746, "lat": 35.727623, "lon": 10.7306466}, {"type": "node", "id": 1281882919, "lat": 35.8292283, "lon": 10.6406656, "tags": {"addr:city": "\u0633\u0648\u0633\u0629", "amenity": "cafe", "cuisine": "regional", "name": "\u0645\u0642\u0647\u0649 \u0645\u0631\u0627\u0643\u0634", "name:ar": "\u0645\u0642\u0647\u0649 \u0645\u0631\u0627\u0643\u0634", "name:en": "Cafe Marrakesh", "name:es": "Caf\u00e9 Marrakesh", "name:fr": "Caf\u00e9 Marrakech"}}, {"type": "node", "id": 1284276958, "lat": 35.8537794, "lon": 10.6036899, "tags": {"amenity": "cafe"}}, {"type": "node", "id": 1298849501, "lat": 35.7554378, "lon": 10.7177459}, {"type": "node", "id": 1298849536, "lat": 35.755417, "lon": 10.7177638}, {"type": "node", "id": 1298849574, "lat": 35.7553484, "lon": 10.7176767}, {"type": "node", "id": 1298849617, "lat": 35.755481, "lon": 10.7176132}, {"type": "node", "id": 1298849625, "lat": 35.7554565, "lon": 10.7176844}, {"type": "node", "id": 1298849665, "lat": 35.7552922, "lon": 10.7177562}, {"type": "node", "id": 1298849768, "lat": 35.755338, "lon": 10.7177613}, {"type": "node", "id": 1298849796, "lat": 35.7546544, "lon": 10.7171726, "tags": {"amenity": "restaurant", "cuisine": "european;tunisian", "name": "\u0647\u062f\u0649", "name:ar": "\u0647\u062f\u0649", "name:fr": "Houda"}}, {"type": "node", "id": 1298849828, "lat": 35.7553234, "lon": 10.7177869}, {"type": "node", "id": 1298849851, "lat": 35.7554398, "lon": 10.7176486}, {"type": "node", "id": 1298849968, "lat": 35.7553941, "lon": 10.7177331}, {"type": "node", "id": 1298850033, "lat": 35.7553941, "lon": 10.7176793}, {"type": "node", "id": 1298850124, "lat": 35.7554315, "lon": 10.7177126}, {"type": "node", "id": 1298850159, "lat": 35.7552673, "lon": 10.7177408}, {"type": "node", "id": 1298850189, "lat": 35.755286, "lon": 10.7176716}, {"type": "node", "id": 1298850285, "lat": 35.7552943, "lon": 10.7177869}, {"type": "node", "id": 1298850372, "lat": 35.7553733, "lon": 10.7177562}, {"type": "node", "id": 1345218714, "lat": 35.850254, "lon": 10.6063804}, {"type": "node", "id": 1345218717, "lat": 35.8504863, "lon": 10.6061588}, {"type": "node", "id": 1345218720, "lat": 35.8506046, "lon": 10.6063474}, {"type": "node", "id": 1345218721, "lat": 35.8503723, "lon": 10.606569}, {"type": "node", "id": 1398495615, "lat": 35.7815131, "lon": 10.8140749}, {"type": "node", "id": 1398495616, "lat": 35.7815262, "lon": 10.8143792}, {"type": "node", "id": 1398495617, "lat": 35.7815563, "lon": 10.8141227}, {"type": "node", "id": 1398495619, "lat": 35.781565, "lon": 10.814326}, {"type": "node", "id": 1398495620, "lat": 35.7815813, "lon": 10.8141872}, {"type": "node", "id": 1398495621, "lat": 35.7815843, "lon": 10.8142586}, {"type": "node", "id": 1399576138, "lat": 35.7595254, "lon": 10.7284819}, {"type": "node", "id": 1399576150, "lat": 35.7595339, "lon": 10.7285422}, {"type": "node", "id": 1399576152, "lat": 35.7595439, "lon": 10.728718}, {"type": "node", "id": 1399576161, "lat": 35.7595535, "lon": 10.7284066}, {"type": "node", "id": 1399576174, "lat": 35.7595806, "lon": 10.7286344}, {"type": "node", "id": 1399576180, "lat": 35.7596264, "lon": 10.7287736}, {"type": "node", "id": 1399576187, "lat": 35.7596846, "lon": 10.7283025}, {"type": "node", "id": 1399576190, "lat": 35.7596987, "lon": 10.7288231}, {"type": "node", "id": 1399576193, "lat": 35.7597364, "lon": 10.7287387}, {"type": "node", "id": 1399576199, "lat": 35.7597645, "lon": 10.7282851}, {"type": "node", "id": 1399576230, "lat": 35.759861, "lon": 10.7286909}, {"type": "node", "id": 1399576266, "lat": 35.7598608, "lon": 10.7282906}, {"type": "node", "id": 1399576271, "lat": 35.7599362, "lon": 10.7286099}, {"type": "node", "id": 1399576272, "lat": 35.7599564, "lon": 10.728377}, {"type": "node", "id": 1399576273, "lat": 35.7599756, "lon": 10.7285383}, {"type": "node", "id": 1399576274, "lat": 35.7598043, "lon": 10.7287258}, {"type": "node", "id": 1416157620, "lat": 35.8402757, "lon": 10.5974865}, {"type": "node", "id": 1416157626, "lat": 35.8404083, "lon": 10.5970776}, {"type": "node", "id": 1416157627, "lat": 35.8404528, "lon": 10.5975739}, {"type": "node", "id": 1416157628, "lat": 35.8405854, "lon": 10.597165}, {"type": "node", "id": 1417419838, "lat": 35.7699469, "lon": 10.7636324}, {"type": "node", "id": 1417419839, "lat": 35.7700217, "lon": 10.7635776}, {"type": "node", "id": 1417419840, "lat": 35.7699483, "lon": 10.7634383}, {"type": "node", "id": 1419167134, "lat": 35.7698447, "lon": 10.763441}, {"type": "node", "id": 1419167149, "lat": 35.7699109, "lon": 10.763388}, {"type": "node", "id": 1419167156, "lat": 35.7699406, "lon": 10.7634445}, {"type": "node", "id": 1422303912, "lat": 35.7699851, "lon": 10.7636069, "tags": {"entrance": "yes"}}, {"type": "node", "id": 1422304009, "lat": 35.7699765, "lon": 10.7634918, "tags": {"entrance": "yes"}}, {"type": "node", "id": 1427304672, "lat": 35.7698715, "lon": 10.7634918}, {"type": "node", "id": 1427304718, "lat": 35.7698534, "lon": 10.7634575, "tags": {"access": "no", "entrance": "yes"}}, {"type": "node", "id": 1489834779, "lat": 35.8341407, "lon": 10.5928861}, {"type": "node", "id": 1489834781, "lat": 35.8342252, "lon": 10.5928433}, {"type": "node", "id": 1489834782, "lat": 35.834247, "lon": 10.5929745}, {"type": "node", "id": 1546336172, "lat": 35.8378701, "lon": 10.6235286}, {"type": "node", "id": 1546336175, "lat": 35.8380463, "lon": 10.6233425}, {"type": "node", "id": 1546336176, "lat": 35.8381276, "lon": 10.6238997}, {"type": "node", "id": 1546336178, "lat": 35.8383038, "lon": 10.6237136}, {"type": "node", "id": 1546336221, "lat": 35.8422784, "lon": 10.6262561}, {"type": "node", "id": 1546336223, "lat": 35.8424359, "lon": 10.626093}, {"type": "node", "id": 1546336225, "lat": 35.8424519, "lon": 10.6265109}, {"type": "node", "id": 1546336231, "lat": 35.8426093, "lon": 10.6263477}, {"type": "node", "id": 1547749732, "lat": 35.7423091, "lon": 10.5852905}, {"type": "node", "id": 1547749739, "lat": 35.7423239, "lon": 10.5852274}, {"type": "node", "id": 1547749751, "lat": 35.7424594, "lon": 10.5853439}, {"type": "node", "id": 1547749754, "lat": 35.7424742, "lon": 10.5852808}, {"type": "node", "id": 1547749834, "lat": 35.7440179, "lon": 10.5866203}, {"type": "node", "id": 1547749839, "lat": 35.7440815, "lon": 10.5867026}, {"type": "node", "id": 1547749840, "lat": 35.7441074, "lon": 10.5865146}, {"type": "node", "id": 1547749842, "lat": 35.7441434, "lon": 10.5866402}, {"type": "node", "id": 1547749844, "lat": 35.7441756, "lon": 10.5866022}, {"type": "node", "id": 1550457368, "lat": 35.6559466, "lon": 10.581755}, {"type": "node", "id": 1550457387, "lat": 35.6559996, "lon": 10.5819486}, {"type": "node", "id": 1550457402, "lat": 35.6562115, "lon": 10.5816692}, {"type": "node", "id": 1550457407, "lat": 35.6562586, "lon": 10.5818412}, {"type": "node", "id": 1558601434, "lat": 35.8846643, "lon": 10.5974429}, {"type": "node", "id": 1558601439, "lat": 35.8847327, "lon": 10.5976587}, {"type": "node", "id": 1558601442, "lat": 35.8848394, "lon": 10.5973627}, {"type": "node", "id": 1558601460, "lat": 35.8849078, "lon": 10.5975786}, {"type": "node", "id": 1558601480, "lat": 35.8850206, "lon": 10.5973892}, {"type": "node", "id": 1558601482, "lat": 35.8850584, "lon": 10.597506}, {"type": "node", "id": 1558601487, "lat": 35.8850926, "lon": 10.5973537}, {"type": "node", "id": 1558601491, "lat": 35.8851034, "lon": 10.5973872}, {"type": "node", "id": 1558601495, "lat": 35.8851304, "lon": 10.5974705}, {"type": "node", "id": 1576097884, "lat": 35.9144275, "lon": 10.5746617}, {"type": "node", "id": 1576097887, "lat": 35.9144431, "lon": 10.5746511}, {"type": "node", "id": 1576097890, "lat": 35.9145129, "lon": 10.5748807}, {"type": "node", "id": 1576097893, "lat": 35.9145396, "lon": 10.5748647}, {"type": "node", "id": 1600502570, "lat": 35.8814284, "lon": 10.5992309}, {"type": "node", "id": 1600502571, "lat": 35.8814771, "lon": 10.5996371}, {"type": "node", "id": 1600502572, "lat": 35.8815938, "lon": 10.5991771}, {"type": "node", "id": 1600502573, "lat": 35.881653, "lon": 10.5995963}, {"type": "node", "id": 1600502578, "lat": 35.8829378, "lon": 10.5980592}, {"type": "node", "id": 1600502580, "lat": 35.8831303, "lon": 10.5979661}, {"type": "node", "id": 1600502581, "lat": 35.8832215, "lon": 10.5981999}, {"type": "node", "id": 1600502582, "lat": 35.8832605, "lon": 10.5983806}, {"type": "node", "id": 1604065709, "lat": 35.7446925, "lon": 10.5867607}, {"type": "node", "id": 1604065711, "lat": 35.7448061, "lon": 10.5866025}, {"type": "node", "id": 1604065713, "lat": 35.7448376, "lon": 10.5869189}, {"type": "node", "id": 1604065717, "lat": 35.7449512, "lon": 10.5867607}, {"type": "node", "id": 1618238022, "lat": 35.8449024, "lon": 10.6043529, "tags": {"addr:city": "\u0633\u0648\u0633\u0629", "addr:city:ar": "\u0633\u0648\u0633\u0629", "addr:postcode": "4071", "addr:street": "Hassen Ben Said", "amenity": "cafe", "cuisine": "coffee_shop", "internet_access": "wlan", "name": "K-WEST"}}, {"type": "node", "id": 1740474407, "lat": 35.8006956, "lon": 10.595947, "tags": {"amenity": "cafe", "cuisine": "coffee_shop", "name": "Baghdad"}}, {"type": "node", "id": 1740485276, "lat": 35.8039521, "lon": 10.6016333, "tags": {"amenity": "cafe", "cuisine": "coffee_shop", "name": "Africana"}}, {"type": "node", "id": 1740485278, "lat": 35.8039325, "lon": 10.5973364, "tags": {"amenity": "cafe", "cuisine": "coffee_shop", "name": "Trabelsi"}}, {"type": "node", "id": 1740485279, "lat": 35.8029971, "lon": 10.6017084, "tags": {"amenity": "cafe", "cuisine": "coffee_shop", "name": "El Khima"}}, {"type": "node", "id": 1740485281, "lat": 35.8036758, "lon": 10.604522, "tags": {"amenity": "cafe", "cuisine": "coffee_shop", "name": "Petit Mousse"}}, {"type": "node", "id": 1740485283, "lat": 35.8041174, "lon": 10.6041653, "tags": {"amenity": "cafe", "cuisine": "coffee_shop", "name": "Jawhara"}}, {"type": "node", "id": 1740485284, "lat": 35.8030493, "lon": 10.6020785, "tags": {"amenity": "cafe", "cuisine": "coffee_shop", "name": "Mondial"}}, {"type": "node", "id": 1740485285, "lat": 35.8033343, "lon": 10.6027598, "tags": {"amenity": "cafe", "cuisine": "coffee_shop", "name": "Maracana"}}, {"type": "node", "id": 1942546762, "lat": 35.9056484, "lon": 10.5804356, "tags": {"amenity": "cafe"}}, {"type": "node", "id": 1942546864, "lat": 35.9047446, "lon": 10.5809559, "tags": {"amenity": "cafe"}}, {"type": "node", "id": 1962054789, "lat": 35.7596118, "lon": 10.7283403}, {"type": "node", "id": 1962054883, "lat": 35.7598296, "lon": 10.7282889}, {"type": "node", "id": 1962054914, "lat": 35.7599088, "lon": 10.728313}, {"type": "node", "id": 1962054947, "lat": 35.7599847, "lon": 10.7284454}, {"type": "node", "id": 1994426841, "lat": 35.8602604, "lon": 10.6138095}, {"type": "node", "id": 2094031314, "lat": 35.831129, "lon": 10.6341137, "tags": {"addr:city": "\u0633\u0648\u0633\u0629", "amenity": "cafe", "name": "Caf\u00e9 Trocad\u00e9ro", "name:es": "Caf\u00e9 Trocadero"}}, {"type": "node", "id": 2094033089, "lat": 35.8311508, "lon": 10.6329952, "tags": {"amenity": "cafe", "name": "\u0645\u0642\u0647\u0649 \u0627\u0644\u062c\u0645\u0647\u0648\u0631\u064a\u0629", "name:ar": "\u0645\u0642\u0647\u0649 \u0627\u0644\u062c\u0645\u0647\u0648\u0631\u064a\u0629", "name:fr": "Caf\u00e9 R\u00e9publique"}}, {"type": "node", "id": 2094034117, "lat": 35.8316901, "lon": 10.6343471, "tags": {"amenity": "cafe", "name": "Caf\u00e9 Aouf"}}, {"type": "node", "id": 2094062546, "lat": 35.8333976, "lon": 10.6347699, "tags": {"amenity": "cafe", "name": "Caf\u00e9 V\u00e9t\u00e9ran"}}, {"type": "node", "id": 2096251975, "lat": 35.7988255, "lon": 10.6193106, "tags": {"amenity": "restaurant", "name": "Restaurant Universitaire Zaouiet Sousse"}}, {"type": "node", "id": 2101938563, "lat": 35.8334733, "lon": 10.640382, "tags": {"amenity": "cafe"}}, {"type": "node", "id": 2101941561, "lat": 35.8371003, "lon": 10.6326036, "tags": {"amenity": "cafe"}}, {"type": "node", "id": 2101950533, "lat": 35.8237569, "lon": 10.6408755, "tags": {"amenity": "restaurant", "name": "Garbouj"}}, {"type": "node", "id": 2109021569, "lat": 35.8399357, "lon": 10.6267349, "tags": {"amenity": "restaurant", "name": "BYPASS"}}, {"type": "node", "id": 2109052374, "lat": 35.8987995, "lon": 10.5770873, "tags": {"amenity": "restaurant", "name": "H\u00e9ritage Jaidane"}}, {"type": "node", "id": 2124284080, "lat": 35.7551953, "lon": 10.5954979, "tags": {"amenity": "cafe", "name": "KOOL", "name:fr": "Caf\u00e9 Prestige"}}, {"type": "node", "id": 2124330259, "lat": 35.8321424, "lon": 10.6335799, "tags": {"amenity": "cafe"}}, {"type": "node", "id": 2125981855, "lat": 35.8270059, "lon": 10.6410955, "tags": {"amenity": "cafe", "name": "Caf\u00e9 Bellar"}}, {"type": "node", "id": 2125997012, "lat": 35.8304854, "lon": 10.6340466, "tags": {"amenity": "cafe", "cuisine": "regional", "name": "CAFE RAZGALLAH"}}, {"type": "node", "id": 2126001111, "lat": 35.8378646, "lon": 10.6327726, "tags": {"amenity": "restaurant", "name": "Restaurant Chinois"}}, {"type": "node", "id": 2126480619, "lat": 35.8323512, "lon": 10.6226848, "tags": {"amenity": "cafe"}}, {"type": "node", "id": 2132565439, "lat": 35.8319467, "lon": 10.6310908, "tags": {"amenity": "cafe"}}, {"type": "node", "id": 2140123154, "lat": 35.8134436, "lon": 10.6298813, "tags": {"amenity": "cafe"}}, {"type": "node", "id": 2140123453, "lat": 35.8149356, "lon": 10.6300449, "tags": {"amenity": "cafe"}}, {"type": "node", "id": 2140163563, "lat": 35.818768, "lon": 10.6323731, "tags": {"amenity": "cafe"}}, {"type": "node", "id": 2140167042, "lat": 35.8204622, "lon": 10.6334889, "tags": {"amenity": "cafe"}}, {"type": "node", "id": 2140169259, "lat": 35.8194422, "lon": 10.634712, "tags": {"amenity": "cafe"}}, {"type": "node", "id": 2148037415, "lat": 35.8341704, "lon": 10.5930253}, {"type": "node", "id": 2184304277, "lat": 35.8514627, "lon": 10.6154572}, {"type": "node", "id": 2184304284, "lat": 35.8515722, "lon": 10.6153621}, {"type": "node", "id": 2184304332, "lat": 35.8670259, "lon": 10.6060116}, {"type": "node", "id": 2184304336, "lat": 35.8670972, "lon": 10.6061167}, {"type": "node", "id": 2184304338, "lat": 35.8671336, "lon": 10.6059004}, {"type": "node", "id": 2184304340, "lat": 35.8672049, "lon": 10.6060055}, {"type": "node", "id": 2184304342, "lat": 35.8674889, "lon": 10.6055153}, {"type": "node", "id": 2184304351, "lat": 35.8675611, "lon": 10.6054521}, {"type": "node", "id": 2184304353, "lat": 35.867572, "lon": 10.60566}, {"type": "node", "id": 2184304355, "lat": 35.8676442, "lon": 10.6055968}, {"type": "node", "id": 2192806811, "lat": 35.8669085, "lon": 10.6054001, "tags": {"amenity": "nightclub", "name": "Bosphore"}}, {"type": "node", "id": 2192806812, "lat": 35.866021, "lon": 10.6063944, "tags": {"amenity": "nightclub", "name": "El Torito"}}, {"type": "node", "id": 2192806813, "lat": 35.8659826, "lon": 10.6063379}, {"type": "node", "id": 2192806814, "lat": 35.8660449, "lon": 10.6062736}, {"type": "node", "id": 2192806815, "lat": 35.8660832, "lon": 10.6063301}, {"type": "node", "id": 2192806819, "lat": 35.8668702, "lon": 10.6053436}, {"type": "node", "id": 2192806821, "lat": 35.8669324, "lon": 10.6052793}, {"type": "node", "id": 2192806822, "lat": 35.8669708, "lon": 10.6053359}, {"type": "node", "id": 2192806823, "lat": 35.8687535, "lon": 10.6042088}, {"type": "node", "id": 2192806824, "lat": 35.8688018, "lon": 10.6043022}, {"type": "node", "id": 2192806825, "lat": 35.8688526, "lon": 10.6041307}, {"type": "node", "id": 2192806826, "lat": 35.8689009, "lon": 10.6042241}, {"type": "node", "id": 2192806827, "lat": 35.8691773, "lon": 10.6029326}, {"type": "node", "id": 2192806828, "lat": 35.8692503, "lon": 10.6030737}, {"type": "node", "id": 2192806829, "lat": 35.8693212, "lon": 10.6028194}, {"type": "node", "id": 2192806830, "lat": 35.8693941, "lon": 10.6029604}, {"type": "node", "id": 2192806831, "lat": 35.8695491, "lon": 10.6027044}, {"type": "node", "id": 2192806832, "lat": 35.8696141, "lon": 10.6028301}, {"type": "node", "id": 2192806833, "lat": 35.869672, "lon": 10.6026076}, {"type": "node", "id": 2192806834, "lat": 35.869737, "lon": 10.6027332}, {"type": "node", "id": 2194856034, "lat": 35.8674117, "lon": 10.6053741}, {"type": "node", "id": 2194856036, "lat": 35.8674652, "lon": 10.6054672}, {"type": "node", "id": 2194856037, "lat": 35.8675006, "lon": 10.6052963}, {"type": "node", "id": 2194856038, "lat": 35.8675541, "lon": 10.6053894}, {"type": "node", "id": 2194864433, "lat": 35.8885824, "lon": 10.6000869, "tags": {"amenity": "cafe"}}, {"type": "node", "id": 2201476795, "lat": 35.7696395, "lon": 10.8420107}, {"type": "node", "id": 2201476796, "lat": 35.7692913, "lon": 10.8419011}, {"type": "node", "id": 2201476797, "lat": 35.7694352, "lon": 10.8417376}, {"type": "node", "id": 2201476798, "lat": 35.7694957, "lon": 10.8421741}, {"type": "node", "id": 2204756544, "lat": 35.7598784, "lon": 10.838691}, {"type": "node", "id": 2204756620, "lat": 35.7599805, "lon": 10.8385615}, {"type": "node", "id": 2204756627, "lat": 35.759957, "lon": 10.838785}, {"type": "node", "id": 2204756661, "lat": 35.7600102, "lon": 10.8385971}, {"type": "node", "id": 2204756739, "lat": 35.7600693, "lon": 10.838522}, {"type": "node", "id": 2204756788, "lat": 35.7601181, "lon": 10.8385804}, {"type": "node", "id": 2283512266, "lat": 35.8410408, "lon": 10.6280318}, {"type": "node", "id": 2283512267, "lat": 35.8410941, "lon": 10.6280974}, {"type": "node", "id": 2283512268, "lat": 35.8411414, "lon": 10.6279073}, {"type": "node", "id": 2283512269, "lat": 35.8411948, "lon": 10.627973}, {"type": "node", "id": 2306384961, "lat": 35.9302749, "lon": 10.5630193, "tags": {"addr:housename": "M'PARADISE", "amenity": "cafe", "name": "\u0645\u0642\u0647\u0649 \u0627\u0644\u062f\u0643\u0627\u0646\u0629", "name:ar": "\u0645\u0642\u0647\u0649 \u0627\u0644\u062f\u0643\u0627\u0646\u0629", "name:fr": "Caf\u00e9 Doukana"}}, {"type": "node", "id": 2306384962, "lat": 35.9291325, "lon": 10.5642357, "tags": {"amenity": "cafe", "name": "\u0645\u0642\u0647\u0649 \u062f\u0631\u064a\u0633", "name:ar": "\u0645\u0642\u0647\u0649 \u062f\u0631\u064a\u0633", "name:fr": "Caf\u00e9 Driss"}}, {"type": "node", "id": 2306567814, "lat": 35.7737787, "lon": 10.8187553, "tags": {"amenity": "cafe", "indoor_seating": "yes", "name": "Caf\u00e9 el Ksar", "outdoor_seating": "yes"}}, {"type": "node", "id": 2306656352, "lat": 35.7754758, "lon": 10.8151067, "tags": {"amenity": "cafe", "name": "\u0627\u0644\u0628\u0648\u0633\u0641\u0648\u0631", "name:ar": "\u0627\u0644\u0628\u0648\u0633\u0641\u0648\u0631", "name:fr": "Le Bosphore"}}, {"type": "node", "id": 2306828211, "lat": 35.7700373, "lon": 10.8384464, "tags": {"amenity": "cafe", "indoor_seating": "yes", "name": "Queen", "outdoor_seating": "yes"}}, {"type": "node", "id": 2306836071, "lat": 35.7705668, "lon": 10.8425293, "tags": {"amenity": "cafe", "internet_access": "wlan", "name": "El Grotte Del Corsario", "name:fr": "El Grotte Del Corsario"}}, {"type": "node", "id": 2306836077, "lat": 35.7678533, "lon": 10.8427334, "tags": {"amenity": "cafe", "name": "Goal Freedom"}}, {"type": "node", "id": 2306850509, "lat": 35.7660783, "lon": 10.8416475, "tags": {"amenity": "cafe", "name": "Surfin"}}, {"type": "node", "id": 2306850510, "lat": 35.7667126, "lon": 10.8415799, "tags": {"amenity": "cafe", "name": "Dream Caf\u00e9"}}, {"type": "node", "id": 2306850512, "lat": 35.7655831, "lon": 10.8417574, "tags": {"amenity": "cafe", "cuisine": "Caf\u00e9_Maure", "name": "\u0627\u0644\u062f\u0643\u0627\u0646\u0629", "name:ar": "\u0627\u0644\u062f\u0643\u0627\u0646\u0629", "name:fr": "Doukana - \u0627\u0644\u062f\u0643\u0627\u0646\u0629"}}, {"type": "node", "id": 2320216520, "lat": 35.7626281, "lon": 10.804267, "tags": {"air_conditioning": "yes", "amenity": "cafe", "changing_table": "no", "diet:halal": "only", "indoor_seating": "yes", "name": "Millenium", "outdoor_seating": "yes", "smoking": "separated", "toilets": "yes", "toilets:wheelchair": "no", "wheelchair": "limited"}}, {"type": "node", "id": 2320250009, "lat": 35.763858, "lon": 10.8074451, "tags": {"amenity": "cafe", "name": "Caf\u00e9 Panini"}}, {"type": "node", "id": 2320421927, "lat": 35.6726838, "lon": 10.8902704}, {"type": "node", "id": 2320421936, "lat": 35.672676, "lon": 10.8901196}, {"type": "node", "id": 2320421938, "lat": 35.6725865, "lon": 10.890061}, {"type": "node", "id": 2320421939, "lat": 35.6725327, "lon": 10.8901823}, {"type": "node", "id": 2320421940, "lat": 35.6725691, "lon": 10.8902121}, {"type": "node", "id": 2320421942, "lat": 35.6725486, "lon": 10.8902622}, {"type": "node", "id": 2320421943, "lat": 35.6726569, "lon": 10.8903352}, {"type": "node", "id": 2320442996, "lat": 35.659839, "lon": 10.8911351, "tags": {"amenity": "cafe", "indoor_seating": "yes", "name": "\u0645\u0642\u0647\u0649 \u0627\u0644\u0623\u0642\u0648\u0627\u0633", "name:ar": "\u0645\u0642\u0647\u0649 \u0627\u0644\u0623\u0642\u0648\u0627\u0633", "name:fr": "Caf\u00e9 les Arches", "outdoor_seating": "yes"}}, {"type": "node", "id": 2403411190, "lat": 35.8946069, "lon": 10.5987391}, {"type": "node", "id": 2403411192, "lat": 35.8946394, "lon": 10.5988253}, {"type": "node", "id": 2403411193, "lat": 35.8947055, "lon": 10.5986826}, {"type": "node", "id": 2403411194, "lat": 35.8947379, "lon": 10.5987689}, {"type": "node", "id": 2475485379, "lat": 35.7695124, "lon": 10.8420122, "tags": {"amenity": "restaurant", "internet_access": "wlan", "name": "Haroun", "name:ar": "\u0647\u0627\u0631\u0648\u0646", "name:fr": "Haroun"}}, {"type": "node", "id": 2505005690, "lat": 35.8307078, "lon": 10.6399708, "tags": {"addr:city": "\u0633\u0648\u0633\u0629", "amenity": "restaurant", "cuisine": "french;regional", "name": "\u0645\u0627\u0631\u0645\u064a\u062a", "name:ar": "\u0645\u0627\u0631\u0645\u064a\u062a", "name:en": "Marmite", "name:fr": "Marmite"}}, {"type": "node", "id": 2510597550, "lat": 35.8264027, "lon": 10.6392471, "tags": {"addr:city": "\u0633\u0648\u0633\u0629", "addr:housename": "15, Rue Othman Ossman", "addr:housenumber": "4000", "amenity": "restaurant", "cuisine": "tunisian", "name": "\u0643\u0633\u0643\u0633 \u0627\u0644\u0645\u062f\u064a\u0646\u0629", "name:ar": "\u0643\u0633\u0643\u0633 \u0627\u0644\u0645\u062f\u064a\u0646\u0629", "name:fr": "Couscousserie La Medina", "website": "www.hotel-medina.com"}}, {"type": "node", "id": 2545399724, "lat": 35.6708566, "lon": 10.9006926}, {"type": "node", "id": 2545399725, "lat": 35.6704365, "lon": 10.9012094}, {"type": "node", "id": 2545399726, "lat": 35.6703278, "lon": 10.9011864}, {"type": "node", "id": 2545399727, "lat": 35.6702824, "lon": 10.9012173}, {"type": "node", "id": 2545399728, "lat": 35.6702185, "lon": 10.901208}, {"type": "node", "id": 2545399729, "lat": 35.6702252, "lon": 10.9010633}, {"type": "node", "id": 2545399730, "lat": 35.6701999, "lon": 10.9009915}, {"type": "node", "id": 2545399731, "lat": 35.6702561, "lon": 10.900617}, {"type": "node", "id": 2545399732, "lat": 35.6703034, "lon": 10.9005781}, {"type": "node", "id": 2578077665, "lat": 35.781126, "lon": 10.8145496}, {"type": "node", "id": 2578077666, "lat": 35.7811347, "lon": 10.8146261}, {"type": "node", "id": 2578077668, "lat": 35.7811397, "lon": 10.8144761}, {"type": "node", "id": 2578077669, "lat": 35.781158, "lon": 10.8145513}, {"type": "node", "id": 2578077672, "lat": 35.7811649, "lon": 10.8146127}, {"type": "node", "id": 2578077674, "lat": 35.781169, "lon": 10.8144921}, {"type": "node", "id": 2578077675, "lat": 35.781177, "lon": 10.8144102}, {"type": "node", "id": 2578077676, "lat": 35.7811782, "lon": 10.8147134}, {"type": "node", "id": 2578077679, "lat": 35.7812002, "lon": 10.8144369}, {"type": "node", "id": 2578077680, "lat": 35.7812019, "lon": 10.8146869}, {"type": "node", "id": 2578077681, "lat": 35.7812304, "lon": 10.8143566}, {"type": "node", "id": 2578077682, "lat": 35.7812443, "lon": 10.8143926}, {"type": "node", "id": 2578077683, "lat": 35.781254, "lon": 10.8147838}, {"type": "node", "id": 2578077685, "lat": 35.7812729, "lon": 10.8147529}, {"type": "node", "id": 2578077686, "lat": 35.7812939, "lon": 10.8142559}, {"type": "node", "id": 2578077687, "lat": 35.7812966, "lon": 10.8141802}, {"type": "node", "id": 2578077688, "lat": 35.7813012, "lon": 10.8143383}, {"type": "node", "id": 2578077690, "lat": 35.7813038, "lon": 10.8143772}, {"type": "node", "id": 2578077692, "lat": 35.7813197, "lon": 10.8142573}, {"type": "node", "id": 2578077693, "lat": 35.7813262, "lon": 10.8141818}, {"type": "node", "id": 2578077694, "lat": 35.7813334, "lon": 10.814157}, {"type": "node", "id": 2578077696, "lat": 35.7813404, "lon": 10.8143213}, {"type": "node", "id": 2578077697, "lat": 35.7813483, "lon": 10.8143737}, {"type": "node", "id": 2578077698, "lat": 35.7813583, "lon": 10.8143412}, {"type": "node", "id": 2578077699, "lat": 35.7813647, "lon": 10.814114}, {"type": "node", "id": 2578077702, "lat": 35.781402, "lon": 10.8143745}, {"type": "node", "id": 2578077703, "lat": 35.781407, "lon": 10.8140891}, {"type": "node", "id": 2578077705, "lat": 35.7814354, "lon": 10.8140525}, {"type": "node", "id": 2578077706, "lat": 35.7814367, "lon": 10.8140872}, {"type": "node", "id": 2578077707, "lat": 35.7814378, "lon": 10.8140243}, {"type": "node", "id": 2578077708, "lat": 35.781443, "lon": 10.8143776}, {"type": "node", "id": 2578077709, "lat": 35.7814431, "lon": 10.814412}, {"type": "node", "id": 2578077710, "lat": 35.781454, "lon": 10.814009}, {"type": "node", "id": 2578077711, "lat": 35.7814602, "lon": 10.8144286}, {"type": "node", "id": 2578077712, "lat": 35.7814726, "lon": 10.8140106}, {"type": "node", "id": 2578077713, "lat": 35.7814731, "lon": 10.8140574}, {"type": "node", "id": 2578077714, "lat": 35.7814776, "lon": 10.8140351}, {"type": "node", "id": 2578077715, "lat": 35.7814838, "lon": 10.8144393}, {"type": "node", "id": 2578077717, "lat": 35.7815049, "lon": 10.8144301}, {"type": "node", "id": 2578077718, "lat": 35.7815148, "lon": 10.8143859}, {"type": "node", "id": 2578077720, "lat": 35.7815173, "lon": 10.8144087}, {"type": "node", "id": 2587005418, "lat": 35.774825, "lon": 10.8318894, "tags": {"addr:city": "\u0627\u0644\u0645\u0646\u0633\u062a\u064a\u0631", "addr:city:ar": "\u0627\u0644\u0645\u0646\u0633\u062a\u064a\u0631", "addr:postcode": "5000", "amenity": "cafe"}}, {"type": "node", "id": 2587084677, "lat": 35.7728405, "lon": 10.8307253, "tags": {"addr:city": "\u0627\u0644\u0645\u0646\u0633\u062a\u064a\u0631", "addr:city:ar": "\u0627\u0644\u0645\u0646\u0633\u062a\u064a\u0631", "addr:postcode": "5000", "amenity": "cafe", "internet_access": "no", "name": "\u0645\u0642\u0647\u0649 \u0627\u0644\u0628\u0627\u0628", "name:ar": "\u0645\u0642\u0647\u0649 \u0627\u0644\u0628\u0627\u0628", "name:fr": "Caf\u00e9 Al Bab"}}, {"type": "node", "id": 2587087643, "lat": 35.7766591, "lon": 10.8154726, "tags": {"addr:city": "\u0627\u0644\u0645\u0646\u0633\u062a\u064a\u0631", "addr:city:ar": "\u0627\u0644\u0645\u0646\u0633\u062a\u064a\u0631", "addr:postcode": "5000", "amenity": "restaurant", "cuisine": "pizza_italiana", "name": "Pizzeria Da Piero"}}, {"type": "node", "id": 2587204394, "lat": 35.7803755, "lon": 10.8161747, "tags": {"amenity": "cafe", "internet_access": "yes", "name": "Caf\u00e9 Costa"}}, {"type": "node", "id": 2587402990, "lat": 35.6561171, "lon": 10.5816842}, {"type": "node", "id": 2587402993, "lat": 35.656123, "lon": 10.5817059}, {"type": "node", "id": 2587787101, "lat": 35.8501214, "lon": 10.6138478, "tags": {"addr:city": "\u0633\u0648\u0633\u0629", "addr:city:ar": "\u0633\u0648\u0633\u0629", "addr:street": "Avenue des Palmiers", "amenity": "restaurant", "building": "yes", "name": "Mare-mar Ouahchi"}}, {"type": "node", "id": 2593035179, "lat": 35.7748512, "lon": 10.8319853, "tags": {"addr:city": "\u0627\u0644\u0645\u0646\u0633\u062a\u064a\u0631", "addr:city:ar": "\u0627\u0644\u0645\u0646\u0633\u062a\u064a\u0631", "addr:postcode": "5000", "amenity": "cafe", "name": "Caf\u00e9 Sidi Dhouib", "opening_hours": "Mo"}}, {"type": "node", "id": 2593044112, "lat": 35.7738459, "lon": 10.8307718, "tags": {"addr:city": "\u0627\u0644\u0645\u0646\u0633\u062a\u064a\u0631", "addr:city:ar": "\u0627\u0644\u0645\u0646\u0633\u062a\u064a\u0631", "addr:postcode": "5000", "amenity": "cafe", "name": "Caf\u00e9 Bir Andalous", "name:fr": "Caf\u00e9 Bir Andalous"}}, {"type": "node", "id": 2616352120, "lat": 35.7627599, "lon": 10.8044738, "tags": {"air_conditioning": "yes", "amenity": "cafe", "changing_table": "no", "diet:halal": "only", "indoor_seating": "yes", "name": "cafe del castello", "outdoor_seating": "yes", "smoking": "separated", "toilets": "yes", "toilets:wheelchair": "no", "wheelchair": "limited"}}, {"type": "node", "id": 2632219116, "lat": 35.8476338, "lon": 10.6099355}, {"type": "node", "id": 2632219117, "lat": 35.8474528, "lon": 10.6101138}, {"type": "node", "id": 2632219118, "lat": 35.847529, "lon": 10.6102137}, {"type": "node", "id": 2632219119, "lat": 35.8476974, "lon": 10.6100707}, {"type": "node", "id": 2632219120, "lat": 35.848077, "lon": 10.6101632}, {"type": "node", "id": 2632219121, "lat": 35.8481294, "lon": 10.6102552}, {"type": "node", "id": 2632219122, "lat": 35.8482383, "lon": 10.6101459}, {"type": "node", "id": 2632219123, "lat": 35.8481723, "lon": 10.6100574}, {"type": "node", "id": 2634150074, "lat": 35.8690178, "lon": 10.6088109, "tags": {"amenity": "cafe", "name": "The House"}}, {"type": "node", "id": 2638860727, "lat": 35.8550565, "lon": 10.6022468, "tags": {"amenity": "cafe", "name": "El Padrino"}}, {"type": "node", "id": 2638860737, "lat": 35.8559717, "lon": 10.6014852, "tags": {"amenity": "cafe", "name": "Caf\u00e9 El Ferdaws"}}, {"type": "node", "id": 2638873560, "lat": 35.8350767, "lon": 10.5941502, "tags": {"addr:city": "Sousse", "addr:street": "Boulevard du Leader Yasser Arafat", "alt_name": "Plantet Food Sahloul", "amenity": "restaurant", "name": "Planet Food", "phone": "+216 73 822 064"}}, {"type": "node", "id": 2638873561, "lat": 35.8351499, "lon": 10.5949586, "tags": {"addr:street": "\u0634\u0627\u0631\u0639 \u0627\u0644\u0632\u0639\u064a\u0645 \u064a\u0627\u0633\u0631 \u0639\u0631\u0641\u0627\u062a", "amenity": "cafe", "name": "Caf\u00e9 Lumi\u00e8re", "phone": "+216 21 430 877"}}, {"type": "node", "id": 2638873604, "lat": 35.8467236, "lon": 10.6171272, "tags": {"amenity": "cafe", "name": "Saint tropez"}}, {"type": "node", "id": 2639118088, "lat": 35.8482887, "lon": 10.6100811}, {"type": "node", "id": 2639118089, "lat": 35.8482289, "lon": 10.6099939}, {"type": "node", "id": 2639118111, "lat": 35.8488828, "lon": 10.6113417}, {"type": "node", "id": 2639118112, "lat": 35.8488114, "lon": 10.611408}, {"type": "node", "id": 2639118113, "lat": 35.8488832, "lon": 10.6115257}, {"type": "node", "id": 2639118114, "lat": 35.8489546, "lon": 10.6114595}, {"type": "node", "id": 2639118115, "lat": 35.8481833, "lon": 10.6104261}, {"type": "node", "id": 2639118116, "lat": 35.8482254, "lon": 10.6103898}, {"type": "node", "id": 2639118117, "lat": 35.8482944, "lon": 10.6105115}, {"type": "node", "id": 2639118118, "lat": 35.8482523, "lon": 10.6105478}, {"type": "node", "id": 2639118119, "lat": 35.8515353, "lon": 10.615307}, {"type": "node", "id": 2639118120, "lat": 35.8514275, "lon": 10.6154013}, {"type": "node", "id": 2640061577, "lat": 35.8415914, "lon": 10.6009168}, {"type": "node", "id": 2640061579, "lat": 35.8414976, "lon": 10.6011145}, {"type": "node", "id": 2640061580, "lat": 35.841664, "lon": 10.6012024}, {"type": "node", "id": 2640061581, "lat": 35.8416921, "lon": 10.6011956}, {"type": "node", "id": 2640061582, "lat": 35.8417147, "lon": 10.6011779}, {"type": "node", "id": 2640061583, "lat": 35.8417749, "lon": 10.6010343}, {"type": "node", "id": 2640061584, "lat": 35.8421146, "lon": 10.6015954}, {"type": "node", "id": 2640061585, "lat": 35.8423219, "lon": 10.6017845}, {"type": "node", "id": 2640061586, "lat": 35.8424511, "lon": 10.6015732}, {"type": "node", "id": 2640061587, "lat": 35.8422288, "lon": 10.6013693}, {"type": "node", "id": 2880087961, "lat": 35.838232, "lon": 10.6237935, "tags": {"amenity": "cafe", "name": "Caf2\u00e9 Tulipe"}}, {"type": "node", "id": 2880166033, "lat": 35.8325874, "lon": 10.6213615, "tags": {"amenity": "cafe"}}, {"type": "node", "id": 2880179911, "lat": 35.8345749, "lon": 10.6278793, "tags": {"amenity": "cafe", "name": "Caf\u00e9 5\u00e8me Avenue"}}, {"type": "node", "id": 2880210296, "lat": 35.8250892, "lon": 10.6428272, "tags": {"amenity": "cafe", "name": "Caf\u00e9 du club nautique"}}, {"type": "node", "id": 2880239301, "lat": 35.8216095, "lon": 10.6406681, "tags": {"amenity": "cafe"}}, {"type": "node", "id": 2934040227, "lat": 35.7770549, "lon": 10.8155093, "tags": {"addr:city": "\u0627\u0644\u0645\u0646\u0633\u062a\u064a\u0631", "addr:city:ar": "\u0627\u0644\u0645\u0646\u0633\u062a\u064a\u0631", "addr:postcode": "5000", "amenity": "cafe", "name": "\u0645\u0642\u0647\u0649 \u0628\u0627\u0628\u0627 \u0639\u0644\u064a", "name:ar": "\u0645\u0642\u0647\u0649 \u0628\u0627\u0628\u0627 \u0639\u0644\u064a", "name:fr": "Baba Ali Caffe", "smoking": "yes"}}, {"type": "node", "id": 2934106800, "lat": 35.7760952, "lon": 10.8153483, "tags": {"air_conditioning": "yes", "amenity": "cafe", "changing_table": "no", "diet:halal": "only", "indoor_seating": "yes", "name": "\u0645\u0642\u0647\u0649 \u0627\u0644\u0633\u0648\u0627\u0646\u064a", "name:ar": "\u0645\u0642\u0647\u0649 \u0627\u0644\u0633\u0648\u0627\u0646\u064a", "name:fr": "Swani Cafe", "outdoor_seating": "yes", "smoking": "yes", "toilets": "yes", "toilets:wheelchair": "no", "wheelchair": "limited"}}, {"type": "node", "id": 2934113747, "lat": 35.7767655, "lon": 10.8158418, "tags": {"amenity": "cafe", "name": "\u0645\u0642\u0647\u0649 \u0627\u0644\u0623\u0646\u0627\u0642\u0629", "name:ar": "\u0645\u0642\u0647\u0649 \u0627\u0644\u0623\u0646\u0627\u0642\u0629", "name:fr": "L'El\u00e9gance Cafe"}}, {"type": "node", "id": 2934116767, "lat": 35.7761055, "lon": 10.81585, "tags": {"amenity": "cafe", "name": "\u0627\u0644\u0645\u0650\u0633\u0652\u0643", "name:ar": "\u0627\u0644\u0645\u0650\u0633\u0652\u0643", "name:fr": "Elmisk"}}, {"type": "node", "id": 2934121092, "lat": 35.7761012, "lon": 10.8164723, "tags": {"amenity": "cafe", "name": "Cleopatra"}}, {"type": "node", "id": 2934121093, "lat": 35.7756746, "lon": 10.8152546, "tags": {"amenity": "restaurant", "cuisine": "regional", "name": "Le S\u00e9same", "smoking": "separated"}}, {"type": "node", "id": 2934269874, "lat": 35.7788902, "lon": 10.8160254, "tags": {"amenity": "cafe", "name": "Moon Cafe"}}, {"type": "node", "id": 2935087807, "lat": 35.7737537, "lon": 10.8146349, "tags": {"addr:city": "\u0627\u0644\u0645\u0646\u0633\u062a\u064a\u0631", "addr:postcode": "5000", "amenity": "cafe", "name": "\u0625\u0646 \u0643\u0627\u0641\u064a", "name:ar": "\u0625\u0646 \u0643\u0627\u0641\u064a", "name:en": "In Cafe", "name:fr": "In Caf\u00e9"}}, {"type": "node", "id": 2935087808, "lat": 35.7752901, "lon": 10.8154234, "tags": {"amenity": "cafe", "name": "\u0627\u0644\u0631\u064a\u062d\u0627\u0646\u0629", "name:ar": "\u0627\u0644\u0631\u064a\u062d\u0627\u0646\u0629", "name:fr": "Rayhana"}}, {"type": "node", "id": 2935096419, "lat": 35.7761083, "lon": 10.8154395, "tags": {"addr:city": "\u0627\u0644\u0645\u0646\u0633\u062a\u064a\u0631", "addr:city:ar": "\u0627\u0644\u0645\u0646\u0633\u062a\u064a\u0631", "addr:postcode": "5000", "air_conditioning": "yes", "amenity": "restaurant", "changing_table": "no", "cuisine": "burger", "diet:halal": "only", "indoor_seating": "yes", "name": "\u0639\u0646\u062f \u0634\u0646\u0627\u0646", "name:ar": "\u0639\u0646\u062f \u0634\u0646\u0627\u0646", "name:fr": "Chez Chenane", "outdoor_seating": "no", "smoking": "no", "toilets": "yes", "toilets:wheelchair": "no", "wheelchair": "limited"}}, {"type": "node", "id": 2935096507, "lat": 35.775956, "lon": 10.8152571, "tags": {"addr:city": "\u0627\u0644\u0645\u0646\u0633\u062a\u064a\u0631", "addr:city:ar": "\u0627\u0644\u0645\u0646\u0633\u062a\u064a\u0631", "addr:postcode": "5000", "amenity": "cafe", "cuisine": "pizza", "name": "Luna"}}, {"type": "node", "id": 2935195000, "lat": 35.7743718, "lon": 10.8318788, "tags": {"amenity": "cafe", "name": "Star"}}, {"type": "node", "id": 2935196284, "lat": 35.7743195, "lon": 10.8319485, "tags": {"amenity": "restaurant", "name": "Elhambra"}}, {"type": "node", "id": 2935203300, "lat": 35.7701586, "lon": 10.8387613, "tags": {"amenity": "cafe", "indoor_seating": "yes", "name": "Springfield", "outdoor_seating": "yes"}}, {"type": "node", "id": 2935281703, "lat": 35.7705569, "lon": 10.8383429, "tags": {"amenity": "cafe", "name": "\u0633\u064a\u062f\u064a \u0645\u0646\u0635\u0648\u0631", "name:ar": "\u0633\u064a\u062f\u064a \u0645\u0646\u0635\u0648\u0631", "name:fr": "Sidi Mansour"}}, {"type": "node", "id": 2935723193, "lat": 35.7708594, "lon": 10.8395633, "tags": {"addr:city": "\u0627\u0644\u0645\u0646\u0633\u062a\u064a\u0631", "addr:city:ar": "\u0627\u0644\u0645\u0646\u0633\u062a\u064a\u0631", "addr:postcode": "5000", "amenity": "cafe", "name": "Sirene"}}, {"type": "node", "id": 2935723906, "lat": 35.7736145, "lon": 10.8335471, "tags": {"addr:city": "\u0627\u0644\u0645\u0646\u0633\u062a\u064a\u0631", "addr:city:ar": "\u0627\u0644\u0645\u0646\u0633\u062a\u064a\u0631", "addr:postcode": "5000", "amenity": "cafe", "name": "\u0639\u0628\u0627\u0633", "name:ar": "\u0639\u0628\u0627\u0633", "name:fr": "Abbas"}}, {"type": "node", "id": 2935727576, "lat": 35.7724219, "lon": 10.8359155, "tags": {"addr:city": "\u0627\u0644\u0645\u0646\u0633\u062a\u064a\u0631", "addr:city:ar": "\u0627\u0644\u0645\u0646\u0633\u062a\u064a\u0631", "addr:postcode": "5000", "amenity": "cafe", "name": "Golden Square"}}, {"type": "node", "id": 2935728301, "lat": 35.7739126, "lon": 10.8334318, "tags": {"addr:city": "\u0627\u0644\u0645\u0646\u0633\u062a\u064a\u0631", "addr:city:ar": "\u0627\u0644\u0645\u0646\u0633\u062a\u064a\u0631", "addr:postcode": "5000", "amenity": "cafe", "name": "\u0627\u0644\u0623\u0646\u062f\u0644\u0633", "name:ar": "\u0627\u0644\u0623\u0646\u062f\u0644\u0633", "name:fr": "Andalus"}}, {"type": "node", "id": 2935731145, "lat": 35.7736406, "lon": 10.8340701, "tags": {"amenity": "cafe", "name": "Baladia"}}, {"type": "node", "id": 2935736336, "lat": 35.7706657, "lon": 10.8393782, "tags": {"addr:city": "\u0627\u0644\u0645\u0646\u0633\u062a\u064a\u0631", "addr:postcode": "5000", "amenity": "cafe", "name": "\u0623\u0643\u0627\u062f\u064a\u0631", "name:ar": "\u0623\u0643\u0627\u062f\u064a\u0631", "name:en": "Agadir"}}, {"type": "node", "id": 2940072472, "lat": 35.7802645, "lon": 10.8286574, "tags": {"amenity": "cafe", "name": "Morjana"}}, {"type": "node", "id": 2981213468, "lat": 35.7738859, "lon": 10.8303377, "tags": {"amenity": "restaurant", "name": "Restaurant Echraka"}}, {"type": "node", "id": 2981217772, "lat": 35.7737734, "lon": 10.8300118, "tags": {"amenity": "restaurant", "name": "Restaurant Arabella"}}, {"type": "node", "id": 3014557028, "lat": 35.7514076, "lon": 10.7121287}, {"type": "node", "id": 3014557029, "lat": 35.7515124, "lon": 10.7122459}, {"type": "node", "id": 3014557030, "lat": 35.7515712, "lon": 10.7121343}, {"type": "node", "id": 3014557031, "lat": 35.751463, "lon": 10.7120384}, {"type": "node", "id": 3077362628, "lat": 35.6720727, "lon": 10.8898136, "tags": {"amenity": "cafe", "indoor_seating": "yes", "internet_access": "wlan", "name": "Caf\u00e9 La Roza", "outdoor_seating": "yes"}}, {"type": "node", "id": 3077391725, "lat": 35.6680647, "lon": 10.8915429, "tags": {"amenity": "cafe", "indoor_seating": "yes", "name": "Caf\u00e9 El Kattous", "outdoor_seating": "yes"}}, {"type": "node", "id": 3077490520, "lat": 35.6672619, "lon": 10.8927933, "tags": {"amenity": "cafe", "indoor_seating": "yes", "name": "Caf\u00e9 Hammadi", "outdoor_seating": "yes"}}, {"type": "node", "id": 3085493282, "lat": 35.6578718, "lon": 10.8906709, "tags": {"amenity": "cafe", "indoor_seating": "yes", "name": "Caf\u00e9 Holliwood", "outdoor_seating": "yes"}}, {"type": "node", "id": 3085493283, "lat": 35.6579176, "lon": 10.8910786, "tags": {"amenity": "cafe", "name": "Caf\u00e9 Kuriat"}}, {"type": "node", "id": 3085493284, "lat": 35.6581987, "lon": 10.890703, "tags": {"amenity": "cafe", "indoor_seating": "yes", "name": "Mio Mondo", "outdoor_seating": "yes"}}, {"type": "node", "id": 3085499673, "lat": 35.6723219, "lon": 10.8896304, "tags": {"amenity": "cafe", "internet_access": "wlan", "name": "Caf\u00e9 Hrouz", "outdoor_seating": "yes"}}, {"type": "node", "id": 3128059061, "lat": 35.8872726, "lon": 10.5968448, "tags": {"amenity": "restaurant", "name": "Romeo et Julia"}}, {"type": "node", "id": 3128059062, "lat": 35.885598, "lon": 10.5972283}, {"type": "node", "id": 3128059063, "lat": 35.885617, "lon": 10.5972929}, {"type": "node", "id": 3128059064, "lat": 35.8856321, "lon": 10.597213}, {"type": "node", "id": 3128059065, "lat": 35.8856511, "lon": 10.5972777}, {"type": "node", "id": 3153266457, "lat": 35.8373254, "lon": 10.6326982, "tags": {"amenity": "cafe"}}, {"type": "node", "id": 3153421542, "lat": 35.8902202, "lon": 10.5708969, "tags": {"amenity": "cafe", "cuisine": "coffee_shop", "internet_access": "no", "name": "Essokri", "smoking": "yes"}}, {"type": "node", "id": 3250589593, "lat": 35.8432108, "lon": 10.6208659, "tags": {"addr:city": "Sousse", "addr:street": "Avenue Taha Houssein", "alt_name": "Mado Caf\u00e9", "amenity": "cafe", "internet_access": "yes", "name": "Mado", "phone": "+216 29 027 027", "smoking": "yes"}}, {"type": "node", "id": 3261184919, "lat": 35.8684876, "lon": 10.6100079, "tags": {"amenity": "restaurant", "cocktails": "yes", "name": "Le QG", "opening_hours": "12:00-24:00"}}, {"type": "node", "id": 3268621925, "lat": 35.8451057, "lon": 10.6248595, "tags": {"amenity": "restaurant", "cuisine": "italian", "name": "Chez Pierro"}}, {"type": "node", "id": 3268621926, "lat": 35.8438618, "lon": 10.6243373, "tags": {"amenity": "restaurant", "cuisine": "regional;french", "name": "Hacienda", "operator": "Hacienda", "phone": "+216 58 404 050;+216 58 404 060", "website": "https://www.facebook.com/pages/Hacienda/1447466675532880"}}, {"type": "node", "id": 3268621929, "lat": 35.8426461, "lon": 10.6269751, "tags": {"amenity": "restaurant", "cuisine": "japanese", "name": "Sendai"}}, {"type": "node", "id": 3268621930, "lat": 35.8450535, "lon": 10.6247736, "tags": {"amenity": "restaurant", "cuisine": "japanese;sushi", "email": "info@tao-sushibar.com", "name": "Tao Sushi bar", "opening_hours": "Tu-Su 12:00-15:00,18:00-23:00", "operator": "Sushi Bar", "phone": "+216 58 401 401", "website": "http://www.tao-sushibar.com/"}}, {"type": "node", "id": 3268621931, "lat": 35.8426998, "lon": 10.6269068, "tags": {"amenity": "restaurant", "cuisine": "japanese;tepanyaki", "name": "Tepan Yaki"}}, {"type": "node", "id": 3268621933, "lat": 35.8446384, "lon": 10.6242147, "tags": {"amenity": "restaurant", "cuisine": "regional;french", "name": "Vintage"}}, {"type": "node", "id": 3268965068, "lat": 35.8542894, "lon": 10.6160618, "tags": {"amenity": "restaurant", "cuisine": "regional;french", "name": "Venus"}}, {"type": "node", "id": 3268972561, "lat": 35.8443891, "lon": 10.6217555, "tags": {"amenity": "cafe", "name": "Cioconat lounge"}}, {"type": "node", "id": 3268972562, "lat": 35.8449166, "lon": 10.6210638, "tags": {"amenity": "restaurant", "cuisine": "regional;french", "name": "Le Guepard"}}, {"type": "node", "id": 3491376623, "lat": 35.7554988, "lon": 10.7176519}, {"type": "node", "id": 3532714292, "lat": 35.8739958, "lon": 10.6019529, "tags": {"amenity": "cafe", "cuisine": "international", "name": "JAZZ Caf\u00e9"}}, {"type": "node", "id": 3559963079, "lat": 35.6759162, "lon": 10.8358545, "tags": {"addr:city": "\u0628\u0646\u0627\u0646", "amenity": "cafe", "indoor_seating": "yes", "name": "\u0642\u0647\u0648\u0629 \u0627\u0644\u062d\u0637\u0627\u0628", "name:ar": "\u0642\u0647\u0648\u0629 \u0627\u0644\u062d\u0637\u0627\u0628", "name:fr": "Caf\u00e9 Al Hattab", "outdoor_seating": "yes"}}, {"type": "node", "id": 3559965501, "lat": 35.6736422, "lon": 10.8429415, "tags": {"amenity": "cafe", "name": "\u0642\u0647\u0648\u0629 \u0627\u0644\u0631\u0627\u064a\u0633", "name:ar": "\u0642\u0647\u0648\u0629 \u0627\u0644\u0631\u0627\u064a\u0633", "name:fr": "Caf\u00e9 El Raies"}}, {"type": "node", "id": 3559978093, "lat": 35.6768526, "lon": 10.8362229, "tags": {"addr:city": "\u0628\u0646\u0627\u0646", "amenity": "cafe", "indoor_seating": "yes", "name": "\u0642\u0647\u0648\u0629 \u0627\u0644\u062d\u0632\u0648\u0631\u064a", "name:ar": "\u0642\u0647\u0648\u0629 \u0627\u0644\u062d\u0632\u0648\u0631\u064a", "name:fr": "Caf\u00e9 Al Hizouri", "outdoor_seating": "yes"}}, {"type": "node", "id": 3715370469, "lat": 35.6437764, "lon": 10.8911762, "tags": {"amenity": "cafe", "name": "Caf\u00e9 Ezzarka"}}, {"type": "node", "id": 3715392030, "lat": 35.653178, "lon": 10.88124, "tags": {"addr:city": "\u0642\u0635\u0631 \u0647\u0644\u0627\u0644", "addr:city:ar": "\u0642\u0635\u0631 \u0647\u0644\u0627\u0644", "amenity": "cafe", "internet_access": "no", "name": "\u0645\u0642\u0647\u0649 \u0627\u0644\u0646\u062e\u064a\u0644", "name:ar": "\u0645\u0642\u0647\u0649 \u0627\u0644\u0646\u062e\u064a\u0644", "name:fr": "Caf\u00e9 Ennakhil"}}, {"type": "node", "id": 3750690658, "lat": 35.8380047, "lon": 10.5955256, "tags": {"amenity": "restaurant", "name": "Restaurant Chawarma Yasmine El Chem"}}, {"type": "node", "id": 3754135254, "lat": 35.6468864, "lon": 10.8854173, "tags": {"amenity": "cafe", "name": "Caf\u00e9 Orange"}}, {"type": "node", "id": 3914449405, "lat": 35.842843, "lon": 10.6025868, "tags": {"amenity": "restaurant", "cuisine": "italian", "name": "\u0643\u0644\u0648\u062f\u064a\u0648", "name:ar": "\u0643\u0644\u0648\u062f\u064a\u0648", "name:en": "Claudio", "name:fr": "Claudio"}}, {"type": "node", "id": 3915998119, "lat": 35.8427406, "lon": 10.624814, "tags": {"addr:city": "\u0633\u0648\u0633\u0629", "addr:city:ar": "\u0633\u0648\u0633\u0629", "addr:housenumber": "95", "addr:postcode": "4001", "amenity": "restaurant", "cuisine": "international", "name": "\u0641\u0627\u0631\u0645\u0631\u0633", "name:ar": "\u0641\u0627\u0631\u0645\u0631\u0633", "name:en": "Farmers Steakhouse", "name:fr": "Farmer's Steakhouse", "opening_hours": "11:30-24:00", "phone": "+216 73 201 788", "smoking": "yes", "website": "http://www.farmers-steakhouse.com"}}, {"type": "node", "id": 4040221602, "lat": 35.8242716, "lon": 10.6377706, "tags": {"addr:city": "\u0633\u0648\u0633\u0629", "addr:housenumber": "13", "addr:street": "\u0646\u0647\u062c \u0627\u0644\u0633\u0641\u0631\u0629", "amenity": "cafe", "cuisine": "coffee_shop", "name": "\u062a\u064a\u0632\u064a\u0631\u064a 13", "name:ar": "\u062a\u064a\u0632\u064a\u0631\u064a 13", "name:fr": "Tiziri 13", "opening_hours": "09:00-21:00", "phone": "+216 23 767 686", "smoking": "yes", "website": "https://www.facebook.com/Tiziri13"}}, {"type": "node", "id": 4109006589, "lat": 35.7901227, "lon": 10.6198287, "tags": {"amenity": "cafe", "cuisine": "coffee_shop;tea", "internet_access": "wlan", "name": "La R\u00e9publique", "opening_hours": "Mo-Su 06:00-00:00"}}, {"type": "node", "id": 4109006789, "lat": 35.7883063, "lon": 10.6278553, "tags": {"amenity": "cafe", "cuisine": "coffee_shop;tea", "internet_access": "wlan", "name": "Caf\u00e9 du Peuple", "opening_hours": "Mo-Su 06:00-00:00"}}, {"type": "node", "id": 4109006790, "lat": 35.7939144, "lon": 10.6212134, "tags": {"amenity": "cafe", "cuisine": "coffee_shop;tea", "internet_access": "wlan", "name": "Caf\u00e9 Salem", "opening_hours": "Mo-Su 06:00-00:00"}}, {"type": "node", "id": 4109006989, "lat": 35.7848952, "lon": 10.6269894, "tags": {"amenity": "cafe", "cuisine": "coffee_shop;tea", "internet_access": "wlan", "name": "Il Kawkeb", "opening_hours": "Mo-Su 06:00-00:00"}}, {"type": "node", "id": 4109621390, "lat": 35.7863446, "lon": 10.6274173, "tags": {"amenity": "cafe", "cuisine": "coffee_shop;tea", "internet_access": "wlan"}}, {"type": "node", "id": 4110504389, "lat": 35.7879533, "lon": 10.61916, "tags": {"amenity": "cafe", "cuisine": "coffee_shop;tea", "internet_access": "wlan", "name": "Caf\u00e9 Hraiech", "opening_hours": "Mo-Su 06:00-00:00"}}, {"type": "node", "id": 4187330496, "lat": 35.8516476, "lon": 10.6069545, "tags": {"addr:street": "Avenue Hedi Karneoui", "amenity": "cafe", "cuisine": "sandwich;breakfast;ice_cream;crepe;tea;cake;coffee_shop;pizza", "internet_access": "wlan", "name": "L'instant caf\u00e9"}}, {"type": "node", "id": 4187343193, "lat": 35.7785602, "lon": 10.7831887, "tags": {"addr:street": "Route de la Falaise", "amenity": "cafe", "cuisine": "pizza;savory_pancakes;crepe;tea;cake;coffee_shop", "internet_access": "wlan", "name": "ci gusta", "opening_hours": "Mo-Su 09:00-22:00"}}, {"type": "node", "id": 4291075011, "lat": 35.8525963, "lon": 10.6085864, "tags": {"amenity": "restaurant", "description": "Restaurant Indien et plats mexicains", "internet_access": "wlan", "name": "Restaurant Bombay"}}, {"type": "node", "id": 4305918412, "lat": 35.6707687, "lon": 10.901284}, {"type": "node", "id": 4305924107, "lat": 35.6708204, "lon": 10.9023161}, {"type": "node", "id": 4305924108, "lat": 35.6708473, "lon": 10.9019916}, {"type": "node", "id": 4305924109, "lat": 35.6702597, "lon": 10.9019603}, {"type": "node", "id": 4305924110, "lat": 35.6703044, "lon": 10.9023387}, {"type": "node", "id": 4309598990, "lat": 35.8524672, "lon": 10.6128288, "tags": {"amenity": "cafe", "internet_access": "wlan", "name": "BurgersCops"}}, {"type": "node", "id": 4309631790, "lat": 35.8533979, "lon": 10.6123215, "tags": {"amenity": "restaurant", "name": "BurgersCops", "phone": "+216 55 035 010"}}, {"type": "node", "id": 4309632289, "lat": 35.8543106, "lon": 10.6113605, "tags": {"amenity": "restaurant", "internet_access": "wlan", "name": "Pizza Hot Sousse", "opening_hours": "Mo-Su 11:00-23:30", "phone": "+216 55 198 585"}}, {"type": "node", "id": 4311274890, "lat": 35.8523306, "lon": 10.6131134, "tags": {"amenity": "cafe", "internet_access": "wlan", "name": "Road 66", "opening_hours": "Mo-Su 08:00-23:30", "phone": "+216 26 283 638"}}, {"type": "node", "id": 4315704189, "lat": 35.8277558, "lon": 10.6404805, "tags": {"addr:city": "\u0633\u0648\u0633\u0629", "amenity": "cafe", "internet_access": "wlan", "name": "\u0628\u0627\u0628 \u0627\u0644\u0645\u062f\u064a\u0646\u0629", "name:ar": "\u0628\u0627\u0628 \u0627\u0644\u0645\u062f\u064a\u0646\u0629", "name:en": "Bab el Medina", "name:fr": "Bab Al Medina"}}, {"type": "node", "id": 4325893289, "lat": 35.8038322, "lon": 10.6127205, "tags": {"amenity": "cafe", "internet_access": "wlan", "name": "Cafe Amen"}}, {"type": "node", "id": 4333567090, "lat": 35.8308292, "lon": 10.6278304, "tags": {"amenity": "cafe", "name": "after eight"}}, {"type": "node", "id": 4335151992, "lat": 35.8302325, "lon": 10.6292163, "tags": {"amenity": "cafe", "name": "NEW MONTANA"}}, {"type": "node", "id": 4336713251, "lat": 35.7703118, "lon": 10.6254874, "tags": {"addr:city": "Ksiba", "amenity": "cafe", "name": "Caf\u00e9 El Abed", "smoking": "yes"}}, {"type": "node", "id": 4348349590, "lat": 35.8172671, "lon": 10.6399131, "tags": {"amenity": "cafe", "name": "oldest coffee in Sousse, Tunisia"}}, {"type": "node", "id": 4356206871, "lat": 35.8594555, "lon": 10.6036638, "tags": {"amenity": "cafe", "cuisine": "breakfast;coffee_shop;crepe;french;local;pizza;tea", "internet_access": "wlan", "name": "The Diesel"}}, {"type": "node", "id": 4356222746, "lat": 35.851426, "lon": 10.606468, "tags": {"amenity": "cafe", "internet_access": "wlan", "name": "La Boh\u00e8me"}}, {"type": "node", "id": 4371299810, "lat": 35.7781757, "lon": 10.7920309, "tags": {"air_conditioning": "no", "amenity": "cafe", "changing_table": "no", "diet:halal": "only", "indoor_seating": "yes", "name": "Wassila caf\u00e9", "outdoor_seating": "yes", "smoking": "separated", "toilets": "yes", "toilets:wheelchair": "no", "wheelchair": "limited"}}, {"type": "node", "id": 4413352590, "lat": 35.8383424, "lon": 10.5939469, "tags": {"amenity": "restaurant", "name": "Il forno"}}, {"type": "node", "id": 4416156576, "lat": 35.9087665, "lon": 10.5792077, "tags": {"amenity": "cafe", "name": "Salon de The'"}}, {"type": "node", "id": 4465022893, "lat": 35.837395, "lon": 10.6249079, "tags": {"amenity": "restaurant"}}, {"type": "node", "id": 4480828390, "lat": 35.8315142, "lon": 10.6385769, "tags": {"addr:city": "\u0633\u0648\u0633\u0629", "addr:housenumber": "52 878 878", "addr:postcode": "4000", "addr:street": "\u0646\u0647\u062c \u0627\u0644\u0645\u0646\u0633\u062a\u064a\u0631", "amenity": "cafe", "cuisine": "breakfast;burger;chicken;coffee_shop;deli;ice_cream", "email": "maisondesarts.sousse@gmail.com", "internet_access": "wlan", "name": "\u0628\u064a\u062a \u0627\u0644\u0641\u0646\u0648\u0646 \u0633\u0648\u0633\u0629", "name:ar": "\u0628\u064a\u062a \u0627\u0644\u0641\u0646\u0648\u0646 \u0633\u0648\u0633\u0629", "name:en": "Arts House Sousse", "name:fr": "Maison des arts Sousse", "opening_hours": "Mo-Su 08:00-20:00"}}, {"type": "node", "id": 4514947295, "lat": 35.8295971, "lon": 10.6432154, "tags": {"addr:city": "Sousse", "addr:postcode": "4000", "addr:street": "Rue Avicenne ", "amenity": "cafe", "name": "Gm beb bhar", "name:fr": "Caf\u00e9 saphir", "opening_hours": "Mo-Su 06:00-06:00"}}, {"type": "node", "id": 4521013093, "lat": 35.772428, "lon": 10.8377565, "tags": {"amenity": "restaurant", "name": "Factory Resto Lounge"}}, {"type": "node", "id": 4545408790, "lat": 35.8449107, "lon": 10.620535, "tags": {"amenity": "cafe", "name": "MADO"}}, {"type": "node", "id": 4548768690, "lat": 35.8126564, "lon": 10.642329, "tags": {"amenity": "cafe", "name": "Caf\u00e9 swiss"}}, {"type": "node", "id": 4549564389, "lat": 35.7726077, "lon": 10.8373038, "tags": {"amenity": "cafe", "name": "Viking"}}, {"type": "node", "id": 4576713590, "lat": 35.8113619, "lon": 10.6438959, "tags": {"amenity": "cafe", "name:fr": "Terrasse caf\u00e9"}}, {"type": "node", "id": 4601492495, "lat": 35.8470653, "lon": 10.6190586, "tags": {"amenity": "cafe", "name": "Twinscaf\u00e9"}}, {"type": "node", "id": 4621453991, "lat": 35.8528733, "lon": 10.60673, "tags": {"amenity": "restaurant"}}, {"type": "node", "id": 4621460990, "lat": 35.851619, "lon": 10.6073492, "tags": {"addr:street": "Avenue Hedi Karneoui", "amenity": "cafe", "internet_access": "wlan", "name:en": "Jars & Co", "name:fr": "Jars & Co"}}, {"type": "node", "id": 4637352505, "lat": 35.8327975, "lon": 10.6354225, "tags": {"addr:city": "\u0633\u0648\u0633\u0629", "addr:city:ar": "\u0633\u0648\u0633\u0629", "addr:postcode": "4000", "addr:street": "Victor Hugo", "amenity": "cafe", "name": "Caf\u00e9 Victor Hugo", "name:ar": "", "name:fr": "Caf\u00e9 Victor Hugo", "opening_hours": "Mo-Su 07:00-20:00"}}, {"type": "node", "id": 4683245819, "lat": 35.6433026, "lon": 10.8901371, "tags": {"amenity": "cafe"}}, {"type": "node", "id": 4706841289, "lat": 35.7715244, "lon": 10.7945664, "tags": {"addr:street": "habtet el 3ech", "amenity": "cafe", "name": "cafe 55", "name:fr": "Cafe 51"}}, {"type": "node", "id": 4713566618, "lat": 35.8609258, "lon": 10.5952399, "tags": {"amenity": "cafe", "name": "\u0645\u0642\u0647\u0649 \u0625\u0641\u0631\u064a\u0642\u064a\u0627", "name:ar": "\u0645\u0642\u0647\u0649 \u0625\u0641\u0631\u064a\u0642\u064a\u0627", "name:en": "Cafe Africa", "name:fr": "Cafe Africa"}}, {"type": "node", "id": 4714489592, "lat": 35.8532255, "lon": 10.6098407, "tags": {"amenity": "restaurant", "name:fr": "Venti"}}, {"type": "node", "id": 4809077323, "lat": 35.9266694, "lon": 10.5684812, "tags": {"amenity": "restaurant", "name:en": "Laoniu's Home Restaurant"}}, {"type": "node", "id": 4867990636, "lat": 35.7546577, "lon": 10.7167406}, {"type": "node", "id": 4867990637, "lat": 35.7546974, "lon": 10.7167098}, {"type": "node", "id": 4867990638, "lat": 35.7547353, "lon": 10.7167838}, {"type": "node", "id": 4867990639, "lat": 35.7546961, "lon": 10.7168127}, {"type": "node", "id": 4867990672, "lat": 35.7536781, "lon": 10.7152891}, {"type": "node", "id": 4867990673, "lat": 35.7536327, "lon": 10.7152189}, {"type": "node", "id": 4867990674, "lat": 35.7536661, "lon": 10.715189}, {"type": "node", "id": 4867990675, "lat": 35.7537115, "lon": 10.715254}, {"type": "node", "id": 4867995448, "lat": 35.7566191, "lon": 10.7135275}, {"type": "node", "id": 4867995449, "lat": 35.756475, "lon": 10.7137143}, {"type": "node", "id": 4867995450, "lat": 35.7566446, "lon": 10.7138812}, {"type": "node", "id": 4867995451, "lat": 35.7567072, "lon": 10.7136851}, {"type": "node", "id": 4867995452, "lat": 35.7567034, "lon": 10.7136267}, {"type": "node", "id": 4867995453, "lat": 35.7566911, "lon": 10.713594}, {"type": "node", "id": 4923948621, "lat": 35.8950202, "lon": 10.5972589, "tags": {"amenity": "cafe"}}, {"type": "node", "id": 4939604822, "lat": 35.8382352, "lon": 10.6070754, "tags": {"amenity": "cafe", "name:fr": "Matignon"}}, {"type": "node", "id": 5039919822, "lat": 35.7417744, "lon": 10.5849841, "tags": {"amenity": "cafe", "name": "Cafe clasico"}}, {"type": "node", "id": 5059035422, "lat": 35.8429156, "lon": 10.5977661, "tags": {"amenity": "restaurant", "name": "\u062d\u0648\u0627\u062a", "name:ar": "\u062d\u0648\u0627\u062a"}}, {"type": "node", "id": 5095404522, "lat": 35.844463, "lon": 10.6202435, "tags": {"amenity": "cafe", "name:en": "Shadok's tasty pizza"}}, {"type": "node", "id": 5095438421, "lat": 35.8419034, "lon": 10.6231341, "tags": {"addr:city": "\u0633\u0648\u0633\u0629", "addr:city:ar": "\u0633\u0648\u0633\u0629", "addr:housenumber": "40", "addr:postcode": "4000", "addr:street": "Rue abdelhamid el kadhi", "amenity": "restaurant", "cuisine": "pizza;burger;sandwich;chicken", "delivery": "yes", "drive_through": "yes", "name": "La Boule d'or", "name:en": "La Boule D'or", "name:fr": "La Boule d'or", "operator": "Nassim chaouache", "outdoor_seating": "yes", "smoking": "isolated"}}, {"type": "node", "id": 5100914264, "lat": 35.764795, "lon": 10.8024987, "tags": {"amenity": "cafe", "indoor_seating": "yes", "name": "Caf\u00e9 El Majless", "outdoor_seating": "yes"}}, {"type": "node", "id": 5125531611, "lat": 35.8537502, "lon": 10.5885632, "tags": {"amenity": "cafe", "name": "Caf\u00e9 Journal"}}, {"type": "node", "id": 5133031476, "lat": 35.7659279, "lon": 10.8109705, "tags": {"air_conditioning": "yes", "amenity": "restaurant", "diet:halal": "only", "indoor_seating": "yes", "name": "La R\u00e9serve", "outdoor_seating": "yes", "smoking": "outside", "wheelchair": "yes"}}, {"type": "node", "id": 5139726479, "lat": 35.8064879, "lon": 10.6057709, "tags": {"amenity": "cafe", "name": "Caf\u00e9 Essalem"}}, {"type": "node", "id": 5139726601, "lat": 35.8029777, "lon": 10.6136886, "tags": {"amenity": "cafe", "name": "Caf\u00e9 Le Forum"}}, {"type": "node", "id": 5139726979, "lat": 35.8247856, "lon": 10.6371704, "tags": {"addr:city": "\u0633\u0648\u0633\u0629", "amenity": "cafe", "cuisine": "african;arab;coffee_shop;crepe;kebab", "name": "\u0645\u0642\u0647\u0649 \u0627\u0644\u0642\u0635\u0628\u0629", "name:ar": "\u0645\u0642\u0647\u0649 \u0627\u0644\u0642\u0635\u0628\u0629", "name:en": "Cafe el Qasba", "name:fr": "Caf\u00e9 Kasbah"}}, {"type": "node", "id": 5141831036, "lat": 35.906784, "lon": 10.5806048, "tags": {"amenity": "cafe", "name:en": "Hard Rock cafe", "name:fr": "Hard Rock Cafe", "name:ru": "Hard Rock \u043a\u0430\u0444\u0435"}}, {"type": "node", "id": 5166022826, "lat": 35.9070068, "lon": 10.5810047, "tags": {"amenity": "cafe", "internet_access": "wlan", "name:en": "Hard rock cafe", "name:fr": "Hard Rock Cafe"}}, {"type": "node", "id": 5208020106, "lat": 35.7647911, "lon": 10.8024987, "tags": {"amenity": "cafe", "indoor_seating": "yes", "name": "Caf\u00e9 El Majless", "outdoor_seating": "yes"}}, {"type": "node", "id": 5225048497, "lat": 35.7295348, "lon": 10.5714536}, {"type": "node", "id": 5225048498, "lat": 35.7296459, "lon": 10.5715823}, {"type": "node", "id": 5225048499, "lat": 35.7295544, "lon": 10.5717003}, {"type": "node", "id": 5225048500, "lat": 35.7294608, "lon": 10.5715743}, {"type": "node", "id": 5226286297, "lat": 35.7350642, "lon": 10.5817379}, {"type": "node", "id": 5226286298, "lat": 35.7349741, "lon": 10.5817422}, {"type": "node", "id": 5226286299, "lat": 35.7349796, "lon": 10.5818917}, {"type": "node", "id": 5226286300, "lat": 35.7350733, "lon": 10.5818849}, {"type": "node", "id": 5252087024, "lat": 35.7662921, "lon": 10.8021834}, {"type": "node", "id": 5252087025, "lat": 35.7661898, "lon": 10.8022477}, {"type": "node", "id": 5252087026, "lat": 35.7661811, "lon": 10.8022196}, {"type": "node", "id": 5252087027, "lat": 35.7660722, "lon": 10.8022732}, {"type": "node", "id": 5252087028, "lat": 35.7660385, "lon": 10.8023121}, {"type": "node", "id": 5252087029, "lat": 35.7660342, "lon": 10.8022987}, {"type": "node", "id": 5252087030, "lat": 35.7659743, "lon": 10.8023376}, {"type": "node", "id": 5252087031, "lat": 35.7660146, "lon": 10.8024301}, {"type": "node", "id": 5252087032, "lat": 35.7659112, "lon": 10.8024918}, {"type": "node", "id": 5252087033, "lat": 35.7660037, "lon": 10.8027064}, {"type": "node", "id": 5252087034, "lat": 35.7659819, "lon": 10.8027252}, {"type": "node", "id": 5252087035, "lat": 35.765995, "lon": 10.8027627}, {"type": "node", "id": 5252087036, "lat": 35.7660298, "lon": 10.802748}, {"type": "node", "id": 5252087037, "lat": 35.7660472, "lon": 10.8027962}, {"type": "node", "id": 5252087038, "lat": 35.7661212, "lon": 10.802756}, {"type": "node", "id": 5252087039, "lat": 35.7661049, "lon": 10.8027238}, {"type": "node", "id": 5252087040, "lat": 35.7661821, "lon": 10.8026729}, {"type": "node", "id": 5252087041, "lat": 35.7662115, "lon": 10.8027399}, {"type": "node", "id": 5252087042, "lat": 35.7661375, "lon": 10.8027909}, {"type": "node", "id": 5252087043, "lat": 35.7663552, "lon": 10.8023255}, {"type": "node", "id": 5252087044, "lat": 35.7660686, "lon": 10.8028533}, {"type": "node", "id": 5252087045, "lat": 35.7660803, "lon": 10.8028842}, {"type": "node", "id": 5252087046, "lat": 35.7660601, "lon": 10.8028983}, {"type": "node", "id": 5252087047, "lat": 35.7660697, "lon": 10.8029264}, {"type": "node", "id": 5252087048, "lat": 35.7660891, "lon": 10.8029211}, {"type": "node", "id": 5252087049, "lat": 35.7661144, "lon": 10.8029671}, {"type": "node", "id": 5252087050, "lat": 35.7661452, "lon": 10.8029545}, {"type": "node", "id": 5252087051, "lat": 35.7662083, "lon": 10.8030913}, {"type": "node", "id": 5252087052, "lat": 35.7663725, "lon": 10.8029813}, {"type": "node", "id": 5252087053, "lat": 35.7663222, "lon": 10.8028554}, {"type": "node", "id": 5252087054, "lat": 35.7663754, "lon": 10.8028054}, {"type": "node", "id": 5252087055, "lat": 35.7664091, "lon": 10.8028512}, {"type": "node", "id": 5252087056, "lat": 35.7664821, "lon": 10.8027995}, {"type": "node", "id": 5252087057, "lat": 35.7665118, "lon": 10.8028508}, {"type": "node", "id": 5252087058, "lat": 35.7666836, "lon": 10.8026895}, {"type": "node", "id": 5252087059, "lat": 35.7665779, "lon": 10.8024029}, {"type": "node", "id": 5252087060, "lat": 35.766416, "lon": 10.8025116}, {"type": "node", "id": 5252087061, "lat": 35.7663922, "lon": 10.8024387}, {"type": "node", "id": 5252087062, "lat": 35.7664781, "lon": 10.8023741}, {"type": "node", "id": 5252087063, "lat": 35.766446, "lon": 10.8022961}, {"type": "node", "id": 5300078922, "lat": 35.6415147, "lon": 10.9656077, "tags": {"addr:city": "\u0637\u0628\u0644\u0628\u0629", "addr:postcode": "5080", "addr:street": "\u0634\u0627\u0631\u0639 23 \u062c\u0627\u0646\u0641\u064a 1952", "amenity": "cafe", "internet_access": "yes", "internet_access:fee": "no", "name": "\u0645\u0642\u0647\u0649 \u0642\u0631\u0637\u0627\u062c", "name:ar": "\u0645\u0642\u0647\u0649 \u0642\u0631\u0637\u0627\u062c", "opening_hours": "24/7", "outdoor_seating": "yes", "smoking": "dedicated"}}, {"type": "node", "id": 5300078924, "lat": 35.6417793, "lon": 10.9654467, "tags": {"addr:city": "\u0637\u0628\u0644\u0628\u0629", "addr:postcode": "5080", "addr:street": "\u0634\u0627\u0631\u0639 23 \u062c\u0627\u0646\u0641\u064a 1952", "amenity": "cafe", "internet_access": "yes", "internet_access:fee": "no", "name": "\u0645\u0642\u0647\u0649 \u0646\u0648\u064a\u0631\u0629", "name:ar": "\u0645\u0642\u0647\u0649 \u0646\u0648\u064a\u0631\u0629", "opening_hours": "24/7", "outdoor_seating": "yes", "smoking": "yes"}}, {"type": "node", "id": 5300078926, "lat": 35.6430905, "lon": 10.9666764, "tags": {"addr:city": "\u0637\u0628\u0644\u0628\u0629", "addr:postcode": "5080", "addr:street": "\u0634\u0627\u0631\u0639 \u0625\u0628\u0646 \u062e\u0644\u062f\u0648\u0646", "amenity": "cafe", "internet_access": "yes", "internet_access:fee": "no", "name": "\u0645\u0642\u0647\u0649 \u0628\u0644\u0627\u0644", "name:ar": "\u0645\u0642\u0647\u0649 \u0628\u0644\u0627\u0644", "opening_hours": "Mo-Su 09:00-21:00", "outdoor_seating": "yes", "smoking": "yes"}}, {"type": "node", "id": 5300078928, "lat": 35.6428608, "lon": 10.9672354, "tags": {"addr:city": "\u0637\u0628\u0644\u0628\u0629", "addr:postcode": "5080", "addr:street": "\u0634\u0627\u0631\u0639 \u0627\u0644\u0646\u0635\u0631", "amenity": "cafe", "internet_access": "yes", "internet_access:fee": "no", "name": "\u0645\u0642\u0647\u0649 \u0644\u0637\u0641\u064a '' \u0627\u0644\u062c\u062f\u0645 ''", "name:ar": "\u0645\u0642\u0647\u0649 \u0644\u0637\u0641\u064a '' \u0627\u0644\u062c\u062f\u0645 ''", "opening_hours": "Mo-Su 09:00-21:00", "outdoor_seating": "yes", "smoking": "yes"}}, {"type": "node", "id": 5300078932, "lat": 35.6465524, "lon": 10.9653882, "tags": {"addr:city": "Teboulba", "addr:postcode": "5080", "addr:street": "\u0634\u0627\u0631\u0639 \u0625\u0628\u0646 \u062e\u0644\u062f\u0648\u0646", "amenity": "cafe", "internet_access:fee": "no", "name": "\u0645\u0642\u0647\u0649 \u0628\u0646 \u0631\u064a\u0627\u0646\u0629", "name:fr": "Cafe Ben Rayana", "opening_hours": "Mo-Su 10:00-22:00", "smoking": "yes"}}, {"type": "node", "id": 5300682128, "lat": 35.7512446, "lon": 10.7113736, "tags": {"addr:city": "Sahline", "addr:postcode": "5012", "amenity": "cafe", "internet_access:fee": "no", "name": "\u0645\u0642\u0647\u0649 \u0627\u0644\u0646\u0633\u064a\u0645", "name:ar": "\u0645\u0642\u0647\u0649 \u0627\u0644\u0646\u0633\u064a\u0645", "opening_hours": "Mo-Su 10:00-22:00", "outdoor_seating": "yes", "smoking": "dedicated"}}, {"type": "node", "id": 5300682139, "lat": 35.7457863, "lon": 10.7043318, "tags": {"addr:city": "\u0633\u064a\u062f\u064a \u0639\u0627\u0645\u0631", "addr:postcode": "5061", "amenity": "cafe", "internet_access": "yes", "internet_access:fee": "no", "name": "\u0645\u0642\u0647\u0649 \u0627\u0644\u0641\u0648\u0646\u062a\u0627\u0646", "name:fr": "Caf\u00e9 La Fontaine", "opening_hours": "24/7", "smoking": "dedicated"}}, {"type": "node", "id": 5318316017, "lat": 35.7745444, "lon": 10.8294589, "tags": {"amenity": "restaurant", "name": "El Koojina"}}, {"type": "node", "id": 5319539721, "lat": 35.9070502, "lon": 10.5813573, "tags": {"amenity": "cafe", "name:en": "Hardrock cafe", "name:fr": "Hard Rock Cafe"}}, {"type": "node", "id": 5412646622, "lat": 35.755007, "lon": 10.7073526, "tags": {"amenity": "cafe", "internet_access": "wlan", "name": "Caf\u00e9 Tunis", "name:fr": "Caf\u00e9 Tunis"}}, {"type": "node", "id": 5427550722, "lat": 35.8379438, "lon": 10.5962757, "tags": {"amenity": "restaurant", "name:fr": "Chaneb Sandwich"}}, {"type": "node", "id": 5469246922, "lat": 35.8880902, "lon": 10.5924519, "tags": {"amenity": "cafe", "name": "Le Palais"}}, {"type": "node", "id": 5469246923, "lat": 35.7008268, "lon": 10.5887002, "tags": {"addr:city": "Beni Khaltoum", "amenity": "cafe", "name": "\u0645\u0642\u0647\u0649 \u0623\u0644\u0641 \u0644\u064a\u0644\u0629 \u0648 \u0644\u064a\u0644\u0629", "name:ar": "\u0645\u0642\u0647\u0649 \u0623\u0644\u0641 \u0644\u064a\u0644\u0629 \u0648 \u0644\u064a\u0644\u0629", "name:fr": "Caf\u00e9 Alf Lila Wa Lila"}}, {"type": "node", "id": 5478116422, "lat": 35.8121448, "lon": 10.6367974, "tags": {"amenity": "cafe", "name": "Caf\u00e9 Farah"}}, {"type": "node", "id": 5478126021, "lat": 35.8110468, "lon": 10.6375232, "tags": {"amenity": "cafe", "name": "Cafe Monta", "name:fr": "Cafe MOnta"}}, {"type": "node", "id": 5614578934, "lat": 35.8900757, "lon": 10.6000525, "tags": {"amenity": "restaurant", "cuisine": "regional"}}, {"type": "node", "id": 5614578935, "lat": 35.8946551, "lon": 10.598761, "tags": {"amenity": "restaurant"}}, {"type": "node", "id": 5614578936, "lat": 35.9028301, "lon": 10.5902678, "tags": {"amenity": "restaurant"}}, {"type": "node", "id": 5614578937, "lat": 35.9026943, "lon": 10.5902275, "tags": {"amenity": "restaurant"}}, {"type": "node", "id": 5614578976, "lat": 35.9073403, "lon": 10.5857134, "tags": {"amenity": "restaurant", "name": "Coconut"}}, {"type": "node", "id": 5615340124, "lat": 35.8558549, "lon": 10.6071952, "tags": {"amenity": "cafe", "cuisine": "international", "name": "Caf\u00e9 Journal"}}, {"type": "node", "id": 5709787521, "lat": 35.884037, "lon": 10.5984568, "tags": {"amenity": "cafe", "name": "\u0627\u0631\u0628\u0643\u0633 \u0633\u0648\u0633\u0629", "name:ar": "\u0627\u0631\u0628\u0643\u0633 \u0633\u0648\u0633\u0629", "name:en": "arapeks", "name:fr": "Arapeks"}}, {"type": "node", "id": 5724124576, "lat": 35.8681733, "lon": 10.6041625, "tags": {"addr:city": "Hammam-Sousse", "addr:postcode": "4011", "addr:street": "2011 \u0634\u0627\u0631\u0639 14 \u062c\u0627\u0646\u0641\u064a", "addr:street:ar": "\u0634\u0627\u0631\u0639 14 \u062c\u0627\u0646\u0641\u064a 2011", "addr:street:fr": "Avenue du 14 Janvier 2011", "amenity": "cafe", "cuisine": "coffee_shop;sandwich;international", "internet_access": "yes", "internet_access:fee": "yes", "internet_access:ssid": "Colombus caf\u00e9 Sousse", "name": "colombus caf\u00e9", "opening_hours": "24/7", "outdoor_seating": "yes", "smoking": "isolated"}}, {"type": "node", "id": 5751321138, "lat": 35.8429317, "lon": 10.6178994}, {"type": "node", "id": 5751321139, "lat": 35.8428877, "lon": 10.617953}, {"type": "node", "id": 5751321140, "lat": 35.8428117, "lon": 10.617858}, {"type": "node", "id": 5751321141, "lat": 35.8428556, "lon": 10.6178044}, {"type": "node", "id": 5758576699, "lat": 35.6507911, "lon": 10.8898197, "tags": {"amenity": "cafe", "name": "Caf\u00e9 Bennissimo"}}, {"type": "node", "id": 5764620134, "lat": 35.9155673, "lon": 10.5740943, "tags": {"amenity": "cafe", "name": "Bacha Cafe"}}, {"type": "node", "id": 5773764066, "lat": 35.7550335, "lon": 10.7190128, "tags": {"amenity": "restaurant", "name": "Houda-\u0645\u0637\u0639\u0645 \u0627\u0644\u0647\u062f\u0649", "survey:date": "2022-05-20", "wheelchair": "yes"}}, {"type": "node", "id": 5775300933, "lat": 35.76553, "lon": 10.7512375, "tags": {"addr:city": "\u0627\u0644\u0645\u0646\u0633\u062a\u064a\u0631", "amenity": "restaurant", "name": "\u062d\u0627\u0646\u0629 \u0627\u0644\u0634\u0627\u0637\u0626 \u0627\u0644\u0623\u0632\u0631\u0642", "name:ar": "\u062d\u0627\u0646\u0629 \u0627\u0644\u0634\u0627\u0637\u0626 \u0627\u0644\u0623\u0632\u0631\u0642", "name:fr": "Bar Plage Bleu"}}, {"type": "node", "id": 5795994067, "lat": 35.7647083, "lon": 10.7509855}, {"type": "node", "id": 5795994068, "lat": 35.7647511, "lon": 10.7510391}, {"type": "node", "id": 5795994069, "lat": 35.764624, "lon": 10.7511935}, {"type": "node", "id": 5795994070, "lat": 35.7645908, "lon": 10.751152}, {"type": "node", "id": 5795994071, "lat": 35.7645546, "lon": 10.751196}, {"type": "node", "id": 5795994072, "lat": 35.7645177, "lon": 10.7511498}, {"type": "node", "id": 5795994073, "lat": 35.764681, "lon": 10.7509514}, {"type": "node", "id": 5813600185, "lat": 35.6378342, "lon": 10.9619968}, {"type": "node", "id": 5813600186, "lat": 35.637831, "lon": 10.9619404}, {"type": "node", "id": 5813600187, "lat": 35.6377317, "lon": 10.9618627}, {"type": "node", "id": 5813600188, "lat": 35.6376909, "lon": 10.9618995}, {"type": "node", "id": 5813600189, "lat": 35.6375426, "lon": 10.9621738}, {"type": "node", "id": 5813600192, "lat": 35.6375922, "lon": 10.9622341}, {"type": "node", "id": 5813600194, "lat": 35.6377601, "lon": 10.9620745}, {"type": "node", "id": 5852586985, "lat": 35.6972599, "lon": 10.5943577, "tags": {"amenity": "cafe", "cuisine": "tea;coffee_shop", "internet_access": "wlan", "name": "UZINA", "name:en": "UZINA CAF\u00c9 SHOP", "name:fr": "UZINA CAFE SHOP", "opening_hours": "24/7"}}, {"type": "node", "id": 5872332307, "lat": 35.676849, "lon": 10.8832851, "tags": {"amenity": "cafe", "name": "Caf\u00e9 la Sir\u00e8ne"}}, {"type": "node", "id": 5915951209, "lat": 35.7728171, "lon": 10.8158163, "tags": {"amenity": "restaurant", "cuisine": "sandwich;kebab;local", "name": "Mister Food - Bech Bech"}}, {"type": "node", "id": 5967447972, "lat": 35.6408029, "lon": 10.9666041}, {"type": "node", "id": 5967447973, "lat": 35.6407059, "lon": 10.9667506}, {"type": "node", "id": 5967447974, "lat": 35.6406367, "lon": 10.9666812}, {"type": "node", "id": 5967447975, "lat": 35.6407337, "lon": 10.9665346}, {"type": "node", "id": 6013911158, "lat": 35.8945306, "lon": 10.5986658, "tags": {"amenity": "cafe"}}, {"type": "node", "id": 6013911159, "lat": 35.8934017, "lon": 10.5995886, "tags": {"amenity": "cafe"}}, {"type": "node", "id": 6013911160, "lat": 35.8941781, "lon": 10.5993749, "tags": {"amenity": "cafe"}}, {"type": "node", "id": 6121870986, "lat": 35.8515481, "lon": 10.5978877, "tags": {"addr:postcode": "73363535", "amenity": "cafe", "internet_access": "wlan"}}, {"type": "node", "id": 6172100285, "lat": 35.8546408, "lon": 10.6111312, "tags": {"amenity": "cafe", "internet_access": "wlan", "name:en": "Sam\u2019s", "name:fr": "Sam\u2019s"}}, {"type": "node", "id": 6173558086, "lat": 35.8362465, "lon": 10.6032872, "tags": {"amenity": "cafe", "internet_access": "wlan", "name:en": "Monteplaisir"}}, {"type": "node", "id": 6184408794, "lat": 35.8303668, "lon": 10.6361606, "tags": {"addr:city": "\u0633\u0648\u0633\u0629", "amenity": "cafe", "internet_access": "wlan", "name": "\u0645\u0642\u0647\u0649 \u0627\u0644\u0628\u0646\u062f\u0642\u064a\u0629", "name:ar": "\u0645\u0642\u0647\u0649 \u0627\u0644\u0628\u0646\u062f\u0642\u064a\u0629", "name:es": "Caf\u00e9 Venecia", "name:fr": "Caf\u00e9 de Venise"}}, {"type": "node", "id": 6214158798, "lat": 35.6488702, "lon": 10.8841409, "tags": {"amenity": "cafe", "name": "caf\u00e9 Gara"}}, {"type": "node", "id": 6258966185, "lat": 35.857899, "lon": 10.6088138, "tags": {"addr:postcode": "4051", "addr:street": "Rue Mouna", "amenity": "cafe", "cuisine": "cake;deli;coffee_shop", "email": "planetechocolat.sousse@gmail.com", "internet_access": "wlan", "name": "Plan\u00e8te Chocolat", "opening_hours": "Mo-Su 09:00-19:00", "phone": "+216 53 068 063"}}, {"type": "node", "id": 6271964685, "lat": 35.834996, "lon": 10.5843781, "tags": {"addr:housenumber": "72813088", "addr:street": "caf\u00e9 cit\u00e9 Elmanezh 2", "amenity": "cafe"}}, {"type": "node", "id": 6284472330, "lat": 35.8013221, "lon": 10.613335, "tags": {"amenity": "restaurant", "name": "Restaurant universitaire ISET"}}, {"type": "node", "id": 6359816189, "lat": 35.8408399, "lon": 10.5987215, "tags": {"amenity": "cafe", "name:fr": "Tartella"}}, {"type": "node", "id": 6359816487, "lat": 35.8055941, "lon": 10.6059257, "tags": {"addr:housenumber": "22", "addr:postcode": "4023", "addr:street": "abdelaziz rejiba", "amenity": "cafe", "internet_access": "wlan", "name": "\u0645\u0642\u0647\u0649 \u0627\u0644\u0646\u062c\u0645", "name:ar": "\u0645\u0642\u0647\u0649 \u0627\u0644\u0646\u062c\u0645", "name:fr": "Caf\u00e9 l'etoile"}}, {"type": "node", "id": 6359816489, "lat": 35.8364117, "lon": 10.5959867, "tags": {"addr:city": "Sahloul", "addr:postcode": "4054", "addr:street": "Boulevard du leader Yasser Arafat", "amenity": "restaurant", "cuisine": "seafood;pizza;regional;burger;chicken;steak_house;italian", "internet_access": "yes", "internet_access:fee": "no", "name": "Bistro73", "name:fr": "Bistrot 73", "opening_hours": "Mo-Su 07:00-23:00", "outdoor_seating": "yes", "phone": "+21650406487"}}, {"type": "node", "id": 6364726388, "lat": 35.8250683, "lon": 10.6413266, "tags": {"amenity": "cafe", "name": "Caf\u00e9 du centre"}}, {"type": "node", "id": 6364726411, "lat": 35.8288871, "lon": 10.6420259, "tags": {"amenity": "restaurant", "name": "Le poisson d'or"}}, {"type": "node", "id": 6402360895, "lat": 35.8345189, "lon": 10.5906397, "tags": {"addr:city": "\u0633\u0648\u0633\u0629", "addr:city:ar": "\u0633\u0648\u0633\u0629", "addr:housenumber": "129", "addr:postcode": "4054", "addr:street": "Avenue Sleim Ammar", "amenity": "cafe", "cuisine": "regional;coffee_shop;pizza", "name": "Pause Gourmande", "opening_hours": "Mo-Su 08:00-00:00", "outdoor_seating": "yes", "phone": "+216 56 055 454", "takeaway": "yes"}}, {"type": "node", "id": 6419406143, "lat": 35.7802611, "lon": 10.8171382, "tags": {"amenity": "cafe", "name": "La Falaise"}}, {"type": "node", "id": 6476405585, "lat": 35.8062274, "lon": 10.605255, "tags": {"addr:postcode": "4023", "addr:street": "Abdelaziz rejiba", "amenity": "cafe", "name": "\u0645\u0642\u0647\u0649 \u062a\u0648\u062a\u0648", "name:ar": "\u0645\u0642\u0647\u0649 \u062a\u0648\u062a\u0648", "name:fr": "Caf\u00e9 Toutou"}}, {"type": "node", "id": 6476405586, "lat": 35.8074604, "lon": 10.6070698, "tags": {"amenity": "cafe", "name": "Caf\u00e9 Du Coin"}}, {"type": "node", "id": 6476405985, "lat": 35.8084069, "lon": 10.6087118, "tags": {"amenity": "cafe", "name": "\u0645\u0642\u0647\u0649 \u0627\u0644\u064a\u0627\u0633\u0645\u064a\u0646", "name:ar": "\u0645\u0642\u0647\u0649 \u0627\u0644\u064a\u0627\u0633\u0645\u064a\u0646", "name:fr": "Caf\u00e9 yasmine"}}, {"type": "node", "id": 6476405986, "lat": 35.8054492, "lon": 10.6060499, "tags": {"amenity": "cafe", "name": "\u0645\u0642\u0647\u0649 \u0627\u0644\u0646\u062c\u0645", "name:ar": "\u0645\u0642\u0647\u0649 \u0627\u0644\u0646\u062c\u0645", "name:fr": "Caf\u00e9 l'etoile"}}, {"type": "node", "id": 6595450385, "lat": 35.8402552, "lon": 10.6272604, "tags": {"amenity": "restaurant", "name": "Restaurant Le Mosaique"}}, {"type": "node", "id": 6595456685, "lat": 35.8420237, "lon": 10.6273129, "tags": {"amenity": "restaurant", "name": "Restaurant Mosaique"}}, {"type": "node", "id": 6616448885, "lat": 35.824054, "lon": 10.6398272, "tags": {"amenity": "cafe", "internet_access": "wlan", "name:en": "El Lamma"}}, {"type": "node", "id": 6699076354, "lat": 35.6398788, "lon": 10.9629029, "tags": {"amenity": "cafe", "name": "\u0645\u0642\u0647\u0649 \u0627\u0644\u0633\u0648\u0642", "name:ar": "\u0645\u0642\u0647\u0649 \u0627\u0644\u0633\u0648\u0642"}}, {"type": "node", "id": 6835563586, "lat": 35.831682, "lon": 10.6402907, "tags": {"amenity": "restaurant", "name:en": "Le Palais Cafe & Resto"}}, {"type": "node", "id": 6838696285, "lat": 35.8288163, "lon": 10.6412152, "tags": {"addr:city": "\u0633\u0648\u0633\u0629", "addr:city:ar": "\u0633\u0648\u0633\u0629", "addr:postcode": "4000", "addr:street": "\u0633\u0627\u062d\u0629 \u0641\u0631\u062d\u0627\u062a \u062d\u0634\u0627\u062f", "addr:street:ar": "\u0633\u0627\u062d\u0629 \u0641\u0631\u062d\u0627\u062a \u062d\u0634\u0627\u062f", "amenity": "restaurant", "language:ar": "main", "name": "\u0645\u0637\u0639\u0645 \u0627\u0644\u0633\u0639\u0627\u062f\u0629", "name:ar": "\u0645\u0637\u0639\u0645 \u0627\u0644\u0633\u0639\u0627\u062f\u0629", "name:en": "Restaurant Le Bonheur", "name:fr": "Restaurant Le Bonheur", "opening_hours": "24/7"}}, {"type": "node", "id": 6859950185, "lat": 35.7810706, "lon": 10.8328255, "tags": {"amenity": "restaurant", "name": "L'ostania restaurant"}}, {"type": "node", "id": 7033014585, "lat": 35.7778209, "lon": 10.7939835, "tags": {"addr:postcode": "5060", "addr:street": "H\u00e9di Kfacha", "amenity": "cafe", "cuisine": "coffee_shop;barbecue;arab;seafood;italian_pizza", "email": "caferestopalma@gmail.com", "internet_access": "wlan", "name": "Caf\u00e9 Resto Palma", "opening_hours": "24/7", "phone": "+216 73 900 343"}}, {"type": "node", "id": 7116566885, "lat": 35.8242497, "lon": 10.6382429, "tags": {"amenity": "restaurant", "cuisine": "chicken;fish;local", "name": "El sofra"}}, {"type": "node", "id": 7120125385, "lat": 35.8309316, "lon": 10.6399283, "tags": {"amenity": "restaurant", "name:en": "La Caleche", "name:fr": "La Caleche"}}, {"type": "node", "id": 7252194122, "lat": 35.8347734, "lon": 10.6328421, "tags": {"addr:city": "\u0633\u0648\u0633\u0629", "addr:city:ar": "\u0633\u0648\u0633\u0629", "addr:street": "Rue Mongi Bali", "amenity": "cafe", "cuisine": "coffee_shop", "name": "Caf\u00e9 le president"}}, {"type": "node", "id": 7800229285, "lat": 35.8317851, "lon": 10.6294453, "tags": {"amenity": "cafe", "name:en": "Cafe baghdad"}}, {"type": "node", "id": 7823186748, "lat": 35.6978944, "lon": 10.7830953, "tags": {"amenity": "cafe", "name": "\u0645\u0642\u0647\u0649 \u0627\u0644\u0641\u0648\u0632", "name:ar": "\u0645\u0642\u0647\u0649 \u0627\u0644\u0641\u0648\u0632", "name:fr": "Caf\u00e9 El Fawz"}}, {"type": "node", "id": 7829655673, "lat": 35.7145088, "lon": 10.8186005, "tags": {"amenity": "cafe", "indoor_seating": "yes", "name": "Caf\u00e9 Bananas", "outdoor_seating": "yes"}}, {"type": "node", "id": 7829655675, "lat": 35.7147469, "lon": 10.8184312, "tags": {"amenity": "cafe", "indoor_seating": "yes", "name": "Caf\u00e9 Essalem", "outdoor_seating": "yes"}}, {"type": "node", "id": 8483092471, "lat": 35.77132, "lon": 10.6267561}, {"type": "node", "id": 8483092472, "lat": 35.7712841, "lon": 10.6266448}, {"type": "node", "id": 8483092473, "lat": 35.771196, "lon": 10.6267146}, {"type": "node", "id": 8483092474, "lat": 35.7712123, "lon": 10.6267722}, {"type": "node", "id": 8483092475, "lat": 35.7712624, "lon": 10.6267696}, {"type": "node", "id": 8567084519, "lat": 35.7705471, "lon": 10.7920362, "tags": {"amenity": "cafe", "name": "Just Coffee", "outdoor_seating": "yes", "smoking": "yes"}}, {"type": "node", "id": 8993601084, "lat": 35.778929, "lon": 10.8326248, "tags": {"amenity": "restaurant", "name": "Le Chandelier"}}, {"type": "node", "id": 9006906806, "lat": 35.6261893, "lon": 10.7604571, "tags": {"amenity": "cafe", "name": "\u0645\u0642\u0647\u0649 \u0627\u0644\u0639\u0647\u062f \u0627\u0644\u062c\u062f\u064a\u062f", "name:ar": "\u0645\u0642\u0647\u0649 \u0627\u0644\u0639\u0647\u062f \u0627\u0644\u062c\u062f\u064a\u062f"}}, {"type": "node", "id": 9006957168, "lat": 35.6255959, "lon": 10.7609565, "tags": {"amenity": "cafe", "name": "Cafe Riyadh", "name:ar": "\u0645\u0642\u0647\u0649 \u0627\u0644\u0631\u064a\u0627\u0636", "name:fr": "Cafe Riyadh", "opening_hours": "PH,Mo-Su 06:00-23:00"}}, {"type": "node", "id": 9006971350, "lat": 35.6257002, "lon": 10.7610927, "tags": {"amenity": "cafe", "name": "\u0645\u0642\u0647\u0649 \u0627\u0644\u0634\u0627\u0645", "name:ar": "\u0645\u0642\u0647\u0649 \u0627\u0644\u0634\u0627\u0645", "opening_hours": "PH,Mo-Su 04:00-23:00"}}, {"type": "node", "id": 9014138917, "lat": 35.6326362, "lon": 10.8977085, "tags": {"addr:postcode": "5050", "addr:street": "\u0634\u0627\u0631\u0639 \u0627\u0644\u0634\u0647\u062f\u0627\u0621", "amenity": "cafe", "cuisine": "coffee_shop", "internet_access": "wlan", "name": "\u0645\u0642\u0647\u0649 \u0627\u0644\u0646\u062e\u064a\u0644 (\u0628\u0627\u0644\u0623\u0632\u0631\u0642)", "name:fr": "Caf\u00e9 les palmiers"}}, {"type": "node", "id": 9014139217, "lat": 35.6328282, "lon": 10.8975945, "tags": {"addr:street": "\u0634\u0627\u0631\u0639 \u0627\u0644\u0634\u0647\u062f\u0627\u0621", "amenity": "cafe", "cuisine": "coffee_shop", "internet_access": "wlan", "name": "\u0627\u0644\u0623\u0643\u0648\u0627\u0631\u064a\u0648\u0645", "name:fr": "L'aquarium"}}, {"type": "node", "id": 9014142419, "lat": 35.6341085, "lon": 10.8982794, "tags": {"addr:street": "\u0634\u0627\u0631\u0639 \u0627\u0644\u062d\u0628\u064a\u0628 \u0628\u0648\u0631\u0642\u064a\u0628\u0629", "amenity": "cafe", "cuisine": "coffee_shop", "name": "\u0645\u0642\u0647\u0649 \u0627\u0644\u0633\u0644\u0627\u0645", "name:fr": "Caf\u00e9 essalam"}}, {"type": "node", "id": 9014142717, "lat": 35.6383646, "lon": 10.8955564, "tags": {"addr:street": "\u0634\u0627\u0631\u0639 \u0627\u0644\u062d\u0628\u064a\u0628 \u0628\u0648\u0631\u0642\u064a\u0628\u0629", "amenity": "cafe", "cuisine": "coffee_shop", "name": "\u0645\u0642\u0647\u0649 \u0627\u0644\u0645\u0639\u0627\u0632\u064a\u0645", "name:fr": "Caf\u00e9 el maazim"}}, {"type": "node", "id": 9055834048, "lat": 35.641056, "lon": 10.9666686, "tags": {"amenity": "cafe"}}, {"type": "node", "id": 9060849226, "lat": 35.7937393, "lon": 10.661872, "tags": {"amenity": "cafe"}}, {"type": "node", "id": 9297834163, "lat": 35.6910337, "lon": 10.8452346, "tags": {"amenity": "cafe", "name": "Cafe au port"}}, {"type": "node", "id": 9667163255, "lat": 35.7548447, "lon": 10.8288527, "tags": {"amenity": "cafe", "cuisine": "coffee_shop", "name": "La"}}, {"type": "node", "id": 9749157370, "lat": 35.7777741, "lon": 10.7978046}, {"type": "node", "id": 9749157371, "lat": 35.777772, "lon": 10.7978555}, {"type": "node", "id": 9749157372, "lat": 35.7776603, "lon": 10.7979002}, {"type": "node", "id": 9749157373, "lat": 35.7776393, "lon": 10.797829}, {"type": "node", "id": 9749157374, "lat": 35.7776496, "lon": 10.7978214}, {"type": "node", "id": 9749157375, "lat": 35.7776385, "lon": 10.7977899}, {"type": "node", "id": 9749157376, "lat": 35.7777312, "lon": 10.7977457}, {"type": "node", "id": 9749185278, "lat": 35.7702857, "lon": 10.8190399}, {"type": "node", "id": 9749185279, "lat": 35.7702486, "lon": 10.8190848}, {"type": "node", "id": 9749185280, "lat": 35.7701467, "lon": 10.818969}, {"type": "node", "id": 9749185281, "lat": 35.7702081, "lon": 10.8189111}, {"type": "node", "id": 9749185282, "lat": 35.7702459, "lon": 10.818969}, {"type": "node", "id": 9749185283, "lat": 35.7702316, "lon": 10.8189851}, {"type": "node", "id": 9749185284, "lat": 35.770248, "lon": 10.8190053}, {"type": "node", "id": 9749185285, "lat": 35.7702646, "lon": 10.8189885}, {"type": "node", "id": 9749185286, "lat": 35.7702773, "lon": 10.8190019}, {"type": "node", "id": 9749185287, "lat": 35.7702655, "lon": 10.8190172}, {"type": "node", "id": 9749233624, "lat": 35.8444192, "lon": 10.622026}, {"type": "node", "id": 9749233625, "lat": 35.8443895, "lon": 10.6220403}, {"type": "node", "id": 9749233626, "lat": 35.8443986, "lon": 10.6220667}, {"type": "node", "id": 9749233627, "lat": 35.8444653, "lon": 10.6220301}, {"type": "node", "id": 9749233628, "lat": 35.8444224, "lon": 10.6220459, "tags": {"amenity": "restaurant", "cuisine": "ice_cream", "name": "Parad'Ice"}}, {"type": "node", "id": 9749267348, "lat": 35.8475346, "lon": 10.6185512, "tags": {"amenity": "restaurant", "cuisine": "burger", "diet:halal": "yes", "name": "KFC Sousse Vicomte", "website": "https://kfc.com.tn/"}}, {"type": "node", "id": 9754859417, "lat": 35.8127525, "lon": 10.605972, "tags": {"amenity": "restaurant", "cuisine": "turkish", "name": "\u0645\u0634\u0627\u0648\u064a \u0627\u0644\u063a\u0632\u0627\u0644\u064a", "survey:date": "2022-05-19"}}, {"type": "node", "id": 9756127419, "lat": 35.7540876, "lon": 10.7221503, "tags": {"amenity": "cafe", "cuisine": "coffee_shop", "internet_access": "wlan", "internet_access:fee": "no", "name": "Caf\u00e9 La Rosa-\u0645\u0642\u0647\u0649 \u0644\u0627\u0631\u0648\u0632\u0627", "outdoor_seating": "yes", "survey:date": "2022-05-20"}}, {"type": "node", "id": 9756138917, "lat": 35.754449, "lon": 10.7211385, "tags": {"amenity": "cafe", "internet_access": "wlan", "internet_access:fee": "no", "name": "Havana Caf\u00e9 - \u0645\u0642\u0647\u0649 \u0647\u0627\u0641\u0627\u0646\u0627", "outdoor_seating": "yes", "survey:date": "2022-05-20", "wheelchair": "yes"}}, {"type": "node", "id": 9774387593, "lat": 35.8140167, "lon": 10.6233646, "tags": {"addr:city": "sousse", "addr:postcode": "4002", "addr:street": "\u0646\u0647\u062c \u0639\u0628\u062f \u0627\u0644\u062d\u0645\u064a\u062f \u0627\u0644\u0633\u0642\u0627", "amenity": "restaurant", "cuisine": "pizza;sandwich;chicken;regional;kebab", "diet:mediterranean": "yes", "internet_access": "yes", "name": "WONDERFOOD", "opening_hours": "Mo-Su 10:00-22:00", "outdoor_seating": "yes", "phone": "+216 99 728 592", "takeaway": "yes", "website": "https://wonderfood.tn/"}}, {"type": "node", "id": 9791149556, "lat": 35.7651495, "lon": 10.8253843, "tags": {"amenity": "restaurant", "cuisine": "arab;kebab;lebanese;pizza;chicken", "indoor_seating": "yes", "name": "MFC FOOD", "outdoor_seating": "yes", "smoking": "outside", "takeaway": "yes", "toilets:access": "permissive"}}, {"type": "node", "id": 9791149558, "lat": 35.771549, "lon": 10.8242863, "tags": {"air_conditioning": "yes", "amenity": "cafe", "internet_access": "wlan", "internet_access:fee": "no", "level": "0;1", "name": "L'\u00e9poque", "operator": "Adel", "outdoor_seating": "no", "payment:cash": "yes", "smoking": "yes", "takeaway": "yes", "toilets": "yes", "toilets:access": "permissive", "toilets:wheelchair": "yes", "wheelchair": "yes"}}, {"type": "node", "id": 10007051428, "lat": 35.6717014, "lon": 10.8676963, "tags": {"amenity": "cafe", "indoor_seating": "yes", "name": "Caf\u00e9 Le Mondial", "outdoor_seating": "yes"}}, {"type": "node", "id": 10103686817, "lat": 35.8289377, "lon": 10.6409959, "tags": {"amenity": "restaurant", "name": "AL Malouf"}}, {"type": "node", "id": 10106850667, "lat": 35.7290253, "lon": 10.5789619, "tags": {"amenity": "cafe"}}, {"type": "node", "id": 10106850676, "lat": 35.7304335, "lon": 10.5777805, "tags": {"amenity": "cafe"}}, {"type": "node", "id": 10106850678, "lat": 35.7321038, "lon": 10.5746436, "tags": {"amenity": "restaurant"}}, {"type": "node", "id": 10291765111, "lat": 35.8303585, "lon": 10.6430576, "tags": {"amenity": "cafe", "name:en": "Caf\u00e9", "name:fr": "Caf\u00e9"}}, {"type": "node", "id": 10596797809, "lat": 35.79172, "lon": 10.6279732, "tags": {"amenity": "cafe", "name": "Cafe Mosa\u00efque", "opening_hours": "Mo-Su 05:00-21:00"}}, {"type": "node", "id": 10597099306, "lat": 35.7940149, "lon": 10.6251694, "tags": {"amenity": "cafe", "name": "Cafe zaouiet Sousse"}}, {"type": "node", "id": 10944160942, "lat": 35.7680984, "lon": 10.8406646, "tags": {"amenity": "cafe", "name": "Caf\u00e9 El Bahri"}}, {"type": "node", "id": 11061376702, "lat": 35.6870244, "lon": 10.8422049, "tags": {"addr:city": "Ksibet El Mediouni", "addr:postcode": "5031", "addr:street": "Rue Habib Bourguiba", "amenity": "cafe", "name": "Caf\u00e9 Ennassim", "outdoor_seating": "yes"}}, {"type": "node", "id": 11061380043, "lat": 35.6861783, "lon": 10.8434943, "tags": {"amenity": "restaurant", "cuisine": "tunisie", "name": "Hattoum"}}, {"type": "node", "id": 11061397341, "lat": 35.6862099, "lon": 10.842425, "tags": {"addr:city": "Ksibet El Mediouni", "addr:postcode": "5031", "addr:street": "avenue Habib Bourguiba", "amenity": "cafe", "name": "Les sportifs", "outdoor_seating": "yes"}}, {"type": "node", "id": 11061449365, "lat": 35.6819362, "lon": 10.8411148, "tags": {"amenity": "cafe", "cuisine": "coffee_shop"}}, {"type": "node", "id": 11061452951, "lat": 35.6857095, "lon": 10.8440086, "tags": {"addr:city": "Ksibet El Mediouni", "addr:postcode": "5031", "addr:street": "Rue Mohammed Ateb", "amenity": "cafe", "name": "Caf\u00e9 Diwan"}}, {"type": "node", "id": 11061455480, "lat": 35.6872584, "lon": 10.8424021, "tags": {"amenity": "cafe", "name": "Caf\u00e9 Rounda"}}, {"type": "node", "id": 11061460998, "lat": 35.6870381, "lon": 10.8427703, "tags": {"addr:city": "Ksibet El Mediouni", "addr:postcode": "5031", "addr:street": "abd hkim abd jawed", "amenity": "restaurant", "cuisine": "pizza;sandwich", "name": "Baba Jouja"}}, {"type": "node", "id": 11061461002, "lat": 35.6864128, "lon": 10.843342, "tags": {"addr:city": "Ksibet El Mediouni", "addr:postcode": "5031", "addr:street": "abd hkim abd jawed", "amenity": "cafe", "cuisine": "coffee_shop", "name": "Caf\u00e9 Moncef"}}, {"type": "node", "id": 11061477021, "lat": 35.6886741, "lon": 10.841484, "tags": {"amenity": "cafe", "name": "Caf\u00e9 Saad"}}, {"type": "node", "id": 11061479111, "lat": 35.6861412, "lon": 10.8443856, "tags": {"addr:city": "Ksibet El Mediouni", "addr:postcode": "5031", "addr:street": "Rue Mohammed Ateb", "amenity": "cafe", "name": "Caf\u00e9 The Wolf"}}, {"type": "node", "id": 11061483109, "lat": 35.6863697, "lon": 10.8438329, "tags": {"addr:city": "Ksibet El Mediouni", "addr:postcode": "5031", "addr:street": "abd hkim abd jawed", "amenity": "cafe", "name": "Caf\u00e9 Khal"}}, {"type": "node", "id": 11088897700, "lat": 35.7681074, "lon": 10.8300589, "tags": {"amenity": "restaurant", "cuisine": "pizza;fast_food;burger;international", "name": "Guilty", "phone": "+216 54 911 244"}}, {"type": "node", "id": 11091448145, "lat": 35.6707025, "lon": 10.9017833}, {"type": "node", "id": 11091448146, "lat": 35.6702272, "lon": 10.90164}, {"type": "node", "id": 11091448147, "lat": 35.6704624, "lon": 10.9017352}, {"type": "node", "id": 11091448148, "lat": 35.6705285, "lon": 10.9012358}, {"type": "node", "id": 11116291453, "lat": 35.6718794, "lon": 10.8907714}, {"type": "node", "id": 11116291458, "lat": 35.6719061, "lon": 10.890613}, {"type": "node", "id": 11116291460, "lat": 35.6718226, "lon": 10.8907567}, {"type": "node", "id": 11116560730, "lat": 35.6740082, "lon": 10.8911955}, {"type": "node", "id": 11116560731, "lat": 35.6740623, "lon": 10.8912793}, {"type": "node", "id": 11116560732, "lat": 35.6742241, "lon": 10.8912413}, {"type": "node", "id": 11116560733, "lat": 35.6741117, "lon": 10.8910786}, {"type": "node", "id": 11116625106, "lat": 35.7198298, "lon": 10.5735599, "tags": {"amenity": "cafe", "name": "Caf\u00e9 Bouneb"}}, {"type": "node", "id": 11146071193, "lat": 35.6703949, "lon": 10.9012006}, {"type": "node", "id": 11146071194, "lat": 35.6703948, "lon": 10.9011411}, {"type": "node", "id": 11146071195, "lat": 35.6704698, "lon": 10.9011548}, {"type": "node", "id": 11146071196, "lat": 35.6705111, "lon": 10.9008618}, {"type": "node", "id": 11146071197, "lat": 35.6703729, "lon": 10.9008367}, {"type": "node", "id": 11146071198, "lat": 35.6703461, "lon": 10.9007979}, {"type": "node", "id": 11146071199, "lat": 35.6703502, "lon": 10.900758}, {"type": "node", "id": 11146071200, "lat": 35.6702903, "lon": 10.900748}, {"type": "node", "id": 11146071201, "lat": 35.6702883, "lon": 10.9007842}, {"type": "node", "id": 11146071202, "lat": 35.6702497, "lon": 10.9008125}, {"type": "node", "id": 11146071203, "lat": 35.6702278, "lon": 10.9008064}, {"type": "node", "id": 11146071204, "lat": 35.6702158, "lon": 10.9008791}, {"type": "node", "id": 11146192305, "lat": 35.6702417, "lon": 10.900884}, {"type": "node", "id": 11146192306, "lat": 35.6702691, "lon": 10.9009439}, {"type": "node", "id": 11146192307, "lat": 35.670264, "lon": 10.9009901}, {"type": "node", "id": 11146192308, "lat": 35.6702315, "lon": 10.9009914}, {"type": "node", "id": 11146192309, "lat": 35.6702822, "lon": 10.9010662}, {"type": "node", "id": 11146192310, "lat": 35.6702755, "lon": 10.901178}, {"type": "node", "id": 11146192312, "lat": 35.6708183, "lon": 10.9009766}, {"type": "node", "id": 11146192313, "lat": 35.6706339, "lon": 10.9006455}, {"type": "node", "id": 11146192314, "lat": 35.6702212, "lon": 10.9008489, "tags": {"entrance": "main"}}, {"type": "node", "id": 11146192315, "lat": 35.6702126, "lon": 10.9010274, "tags": {"entrance": "main"}}, {"type": "node", "id": 11146192316, "lat": 35.6704444, "lon": 10.9008489}, {"type": "node", "id": 11146192317, "lat": 35.6704743, "lon": 10.9006146}, {"type": "node", "id": 11146285427, "lat": 35.670504, "lon": 10.9009174}, {"type": "node", "id": 11146285428, "lat": 35.6704693, "lon": 10.9016828}, {"type": "node", "id": 11146285429, "lat": 35.6703876, "lon": 10.9012875}, {"type": "node", "id": 11146285430, "lat": 35.67034, "lon": 10.9012863}, {"type": "node", "id": 11146285431, "lat": 35.670342, "lon": 10.9013262}, {"type": "node", "id": 11146285432, "lat": 35.6703258, "lon": 10.9013274}, {"type": "node", "id": 11146285433, "lat": 35.6703248, "lon": 10.9013674}, {"type": "node", "id": 11146285434, "lat": 35.6703005, "lon": 10.9014073}, {"type": "node", "id": 11146285435, "lat": 35.6702761, "lon": 10.9014285}, {"type": "node", "id": 11146285436, "lat": 35.6702498, "lon": 10.9014023}, {"type": "node", "id": 11146285437, "lat": 35.6702386, "lon": 10.9013699}, {"type": "node", "id": 11146285438, "lat": 35.6702447, "lon": 10.90131}, {"type": "node", "id": 11146285439, "lat": 35.6702177, "lon": 10.9013076}, {"type": "node", "id": 11146285442, "lat": 35.6704156, "lon": 10.9016721}, {"type": "node", "id": 11146285443, "lat": 35.6704672, "lon": 10.9016989, "tags": {"entrance": "main"}}, {"type": "node", "id": 11146285444, "lat": 35.6702182, "lon": 10.9013226, "tags": {"entrance": "main"}}, {"type": "node", "id": 11146285445, "lat": 35.6703528, "lon": 10.9016614, "tags": {"entrance": "secondary"}}, {"type": "node", "id": 11146285451, "lat": 35.670366, "lon": 10.9016637}, {"type": "node", "id": 11146285452, "lat": 35.6703336, "lon": 10.9016582}, {"type": "node", "id": 11146285459, "lat": 35.6702219, "lon": 10.901456}, {"type": "node", "id": 11146285460, "lat": 35.6702242, "lon": 10.9015373}, {"type": "node", "id": 11146285465, "lat": 35.6703082, "lon": 10.9016538}, {"type": "node", "id": 11146310925, "lat": 35.670418, "lon": 10.9020372}, {"type": "node", "id": 11146310926, "lat": 35.6704328, "lon": 10.9021843}, {"type": "node", "id": 11146310927, "lat": 35.6703209, "lon": 10.9022014}, {"type": "node", "id": 11146310928, "lat": 35.6703063, "lon": 10.9020563}, {"type": "node", "id": 11146310929, "lat": 35.670375, "lon": 10.9020438}, {"type": "node", "id": 11146310930, "lat": 35.6703692, "lon": 10.9019858}, {"type": "node", "id": 11146310931, "lat": 35.6702777, "lon": 10.9019998}, {"type": "node", "id": 11146310932, "lat": 35.6702837, "lon": 10.9020597}, {"type": "node", "id": 11146310933, "lat": 35.6706765, "lon": 10.9019813}, {"type": "node", "id": 11146310935, "lat": 35.6708358, "lon": 10.9021301}, {"type": "node", "id": 11146310936, "lat": 35.6702879, "lon": 10.9022114}, {"type": "node", "id": 11146310937, "lat": 35.670411, "lon": 10.9019654}, {"type": "node", "id": 11146310938, "lat": 35.670279, "lon": 10.9021292, "tags": {"entrance": "main"}}, {"type": "node", "id": 11146335241, "lat": 35.6706613, "lon": 10.9019804}, {"type": "node", "id": 11146335244, "lat": 35.6707629, "lon": 10.9023186}, {"type": "node", "id": 11150593689, "lat": 35.6727094, "lon": 10.8901414}, {"type": "node", "id": 11150593690, "lat": 35.6727288, "lon": 10.8901848}, {"type": "node", "id": 11150593691, "lat": 35.672724, "lon": 10.8902276}, {"type": "node", "id": 11150593692, "lat": 35.6726964, "lon": 10.8902614}, {"type": "node", "id": 11150593695, "lat": 35.6718498, "lon": 10.8905982}, {"type": "node", "id": 11251424042, "lat": 35.7619069, "lon": 10.8314432}, {"type": "node", "id": 11251424043, "lat": 35.7619188, "lon": 10.8314693}, {"type": "node", "id": 11251424044, "lat": 35.761923, "lon": 10.8314988}, {"type": "node", "id": 11251424045, "lat": 35.7619188, "lon": 10.8315283}, {"type": "node", "id": 11251424046, "lat": 35.7619068, "lon": 10.8315544}, {"type": "node", "id": 11251424047, "lat": 35.7618884, "lon": 10.8315739}, {"type": "node", "id": 11251424048, "lat": 35.7617991, "lon": 10.8315575}, {"type": "node", "id": 11251424049, "lat": 35.7617868, "lon": 10.8315342}, {"type": "node", "id": 11251424050, "lat": 35.7617811, "lon": 10.8315072}, {"type": "node", "id": 11251424051, "lat": 35.7617825, "lon": 10.8314795}, {"type": "node", "id": 11251424052, "lat": 35.7617909, "lon": 10.8314536}, {"type": "node", "id": 11251424053, "lat": 35.7618055, "lon": 10.8314323}, {"type": "node", "id": 11251424054, "lat": 35.7618657, "lon": 10.8315847}, {"type": "node", "id": 11251424055, "lat": 35.7618414, "lon": 10.8315854}, {"type": "node", "id": 11251424056, "lat": 35.7618183, "lon": 10.831576}, {"type": "node", "id": 11251424057, "lat": 35.7618247, "lon": 10.8314177}, {"type": "node", "id": 11251424058, "lat": 35.7618467, "lon": 10.8314113}, {"type": "node", "id": 11251424059, "lat": 35.7618692, "lon": 10.8314137}, {"type": "node", "id": 11251424060, "lat": 35.76189, "lon": 10.8314247}, {"type": "node", "id": 11257480982, "lat": 35.7652983, "lon": 10.8106793, "tags": {"air_conditioning": "yes", "amenity": "restaurant", "diet:halal": "only", "indoor_seating": "yes", "name": "\u0648\u0644\u062f \u0627\u0644\u062d\u0637\u0627\u0628", "outdoor_seating": "yes", "smoking": "no", "wheelchair": "no"}}, {"type": "node", "id": 11388194869, "lat": 35.8338001, "lon": 10.5889837, "tags": {"amenity": "restaurant", "name": "\u0645\u0634\u0627\u0648\u064a \u0627\u0644\u062d\u0637\u0627\u0628"}}, {"type": "node", "id": 11388194871, "lat": 35.8338321, "lon": 10.5889622, "tags": {"amenity": "restaurant", "name": "\u0645\u0634\u0627\u0648\u064a \u0627\u0644\u062d\u0637\u0627\u0628"}}, {"type": "node", "id": 11627648269, "lat": 35.8281422, "lon": 10.6394403, "tags": {"amenity": "restaurant", "name:en": "Restaurant du Peuple"}}, {"type": "node", "id": 11627651170, "lat": 35.8531805, "lon": 10.6124644, "tags": {"addr:street": "\u0634\u0627\u0631\u0639 \u0627\u0644\u0628\u0631\u062a\u0642\u0627\u0644", "amenity": "restaurant", "name": "Eddar Darek", "name:en": "Eddar Darek"}}, {"type": "node", "id": 11627654169, "lat": 35.840003, "lon": 10.6269761, "tags": {"amenity": "cafe", "name:en": "The FIRST caf\u00e9 & Resto"}}, {"type": "node", "id": 11627657569, "lat": 35.8376695, "lon": 10.6336317, "tags": {"amenity": "restaurant", "name:en": "Planet Food"}}, {"type": "node", "id": 11627659069, "lat": 35.8264681, "lon": 10.641408, "tags": {"amenity": "restaurant", "name:en": "Restaurant Lido"}}, {"type": "node", "id": 11850486799, "lat": 35.7654779, "lon": 10.8287862, "tags": {"amenity": "cafe", "name": "Tarantino"}}, {"type": "node", "id": 11898470169, "lat": 35.8705458, "lon": 10.6076829, "tags": {"amenity": "restaurant", "name": "Capoul Beach", "name:ar": "Capoul Beach"}}, {"type": "node", "id": 12232853414, "lat": 35.8235084, "lon": 10.6297549}, {"type": "node", "id": 12232853415, "lat": 35.8234845, "lon": 10.6298356}, {"type": "node", "id": 12232853416, "lat": 35.823454, "lon": 10.6298177}, {"type": "node", "id": 12232853417, "lat": 35.8234415, "lon": 10.6298615}, {"type": "node", "id": 12232853418, "lat": 35.8234625, "lon": 10.6298738}, {"type": "node", "id": 12232853419, "lat": 35.823449, "lon": 10.6299139}, {"type": "node", "id": 12232853420, "lat": 35.8236219, "lon": 10.6299212}, {"type": "node", "id": 12232853421, "lat": 35.8236279, "lon": 10.629896}, {"type": "node", "id": 12339704001, "lat": 35.8251599, "lon": 10.6350506, "tags": {"amenity": "restaurant", "name": "Restaurant Caf\u00e9 Seles"}}, {"type": "node", "id": 12419962903, "lat": 35.827318, "lon": 10.6379882, "tags": {"amenity": "restaurant"}}, {"type": "node", "id": 12464846616, "lat": 35.8682079, "lon": 10.6067256, "tags": {"amenity": "cafe", "cuisine": "pizza;crepe", "name": "Chabine Elkoum"}}, {"type": "node", "id": 12518264980, "lat": 35.8251521, "lon": 10.6424243, "tags": {"amenity": "restaurant", "description": "restaurant poisson ,poulpe etc", "name": "Chez bibichou"}}, {"type": "node", "id": 12598950401, "lat": 35.8394337, "lon": 10.6309496, "tags": {"addr:postcode": "4000", "addr:street": "\u0634\u0627\u0631\u0639 \u0627\u0644\u0637\u064a\u0628 \u0627\u0644\u0645\u0647\u064a\u0631\u064a", "amenity": "restaurant", "cuisine": "french", "name": "L'escargot", "phone": "216 73 224 779", "website": "https://www.restolescargot.com/", "website:menu": "http://www.restolescargot.com/menu-1"}}, {"type": "node", "id": 12657413701, "lat": 35.8412104, "lon": 10.58928, "tags": {"amenity": "restaurant", "name": "corn dog"}}, {"type": "node", "id": 12812642445, "lat": 35.8801399, "lon": 10.5673112, "tags": {"addr:city": "Akouda", "addr:postcode": "4022", "addr:street": "Rue 2 Mars", "amenity": "cafe", "cuisine": "coffee_shop", "name": "Time Caf\u00e9", "outdoor_seating": "yes"}}, {"type": "way", "id": 105646537, "nodes": [1216559475, 1216559396, 1216559416, 1216559420, 1216559475], "tags": {"addr:city": "Sousse", "addr:street": "Boulevard du 14 Janvier 2011", "alt_name": "Caf\u00e9 Garanemsa", "amenity": "cafe", "name": "Garanemsa", "phone": "+216 29 507 564"}}, {"type": "way", "id": 108265686, "nodes": [1242526185, 1242526182, 1994426841, 1242526184, 1242526181, 1242526185], "tags": {"amenity": "cafe", "name": "Ela Center"}}, {"type": "way", "id": 109937584, "nodes": [1257301811, 1257301813, 1257301825, 1257301818, 1257301822, 1257301811], "tags": {"amenity": "cafe", "building": "yes", "name": "L'Emauraude Bleu"}}, {"type": "way", "id": 111852151, "nodes": [1273415746, 1273415724, 1273415691, 1273415740, 1273415746], "tags": {"amenity": "restaurant", "building": "yes", "name": "Grill"}}, {"type": "way", "id": 114727678, "nodes": [1298849851, 1298849625, 1298850124, 1298849501, 1298849536, 1298849968, 1298850372, 1298849768, 1298849828, 1298850285, 1298849665, 1298850159, 1298850189, 1298849574, 1298850033, 1298849851], "tags": {"amenity": "cafe", "building": "yes", "name": "\u0641\u0644\u0627\u0645\u064a\u0646\u063a\u0648", "name:ar": "\u0641\u0644\u0627\u0645\u064a\u0646\u063a\u0648", "name:en": "Flamingo"}}, {"type": "way", "id": 119835827, "nodes": [1345218717, 1345218720, 1345218721, 1345218714, 1345218717], "tags": {"amenity": "cafe", "building": "yes", "name": "Victoria", "opening_hours": "PH,Mo-Su 08:00-24:00"}}, {"type": "way", "id": 126062456, "nodes": [2578077702, 2578077697, 2578077690, 2578077682, 2578077679, 2578077674, 2578077669, 2578077672, 2578077680, 2578077685, 2578077683, 2578077676, 2578077666, 2578077665, 2578077668, 2578077675, 2578077681, 2578077688, 2578077698, 2578077696, 2578077692, 2578077686, 2578077687, 2578077693, 2578077694, 2578077699, 2578077703, 2578077706, 2578077705, 2578077707, 2578077710, 2578077712, 2578077714, 2578077713, 1398495615, 1398495617, 1398495620, 1398495621, 1398495619, 1398495616, 2578077718, 2578077720, 2578077717, 2578077715, 2578077711, 2578077709, 2578077708, 2578077702], "tags": {"amenity": "restaurant", "building": "yes", "name": "La Tour de la Falaise"}}, {"type": "way", "id": 126194366, "nodes": [1399576266, 1962054914, 1399576272, 1962054947, 1399576273, 1399576271, 1399576230, 1399576274, 1399576193, 1399576190, 1399576180, 1399576152, 1399576174, 1399576150, 1399576138, 1399576161, 1962054789, 1399576187, 1399576199, 1962054883, 1399576266], "tags": {"amenity": "restaurant", "building": "yes", "cuisine": "mexican", "name": "\u0627\u0644\u0645\u0643\u0633\u064a\u0643\u064a", "name:ar": "\u0627\u0644\u0645\u0643\u0633\u064a\u0643\u064a", "name:en": "Mexican"}}, {"type": "way", "id": 128081185, "nodes": [1416157628, 1416157627, 1416157620, 1416157626, 1416157628], "tags": {"amenity": "cafe", "building": "yes", "name": "Yachting", "name:en": "Reds"}}, {"type": "way", "id": 128216830, "nodes": [1417419838, 1422303912, 1417419839, 1422304009, 1417419840, 1419167156, 1419167149, 1419167134, 1427304718, 1427304672, 1417419838], "tags": {"access": "private", "addr:city": "\u0627\u0644\u0645\u0646\u0633\u062a\u064a\u0631", "amenity": "restaurant", "building": "yes", "name": "\u0645\u0637\u0639\u0645 \u0627\u0644\u0634\u0627\u0637\u0626", "name:ar": "\u0645\u0637\u0639\u0645 \u0627\u0644\u0634\u0627\u0637\u0626", "name:en": "Beach Restaurant", "operator": "\u0631\u0648\u0632\u0627 \u0628\u064a\u062a\u0634", "source": "estimation"}}, {"type": "way", "id": 135690583, "nodes": [1489834782, 2148037415, 1489834779, 1489834781, 1489834782], "tags": {"addr:city": "Sousse", "addr:street": "Boulevard du Leader Yasser Arafat", "alt_name": "Toscana Caf\u00e9", "amenity": "cafe", "building": "yes", "name": "Toscana", "phone": "+216 98 563 435"}}, {"type": "way", "id": 141257765, "nodes": [1546336178, 1546336176, 1546336172, 1546336175, 1546336178], "tags": {"amenity": "restaurant", "building": "yes", "cuisine": "italian;pizza", "name": "Les trois Coupoles"}}, {"type": "way", "id": 141257783, "nodes": [1546336231, 1546336225, 1546336221, 1546336223, 1546336231], "tags": {"amenity": "restaurant", "building": "yes", "cuisine": "italian", "name": "Unastoria"}}, {"type": "way", "id": 141402150, "nodes": [1547749754, 1547749751, 1547749732, 1547749739, 1547749754], "tags": {"amenity": "cafe", "building": "yes", "name": "Ezitouna"}}, {"type": "way", "id": 141402159, "nodes": [1547749840, 1547749844, 1547749842, 1547749839, 1547749834, 1547749840], "tags": {"amenity": "cafe", "building": "yes", "name": "L'Elite", "opening_hours": "Mo-Su,PH 05:00-01:00"}}, {"type": "way", "id": 141644071, "nodes": [1550457407, 1550457387, 1550457368, 2587402990, 2587402993, 1550457402, 1550457407], "tags": {"amenity": "restaurant", "building": "yes", "name": "Mansour"}}, {"type": "way", "id": 142419815, "nodes": [1558601442, 1558601460, 1558601439, 1558601434, 1558601442], "tags": {"amenity": "cafe", "building": "yes", "internet_access": "yes", "name": "Fashion Cafe", "name:fr": "Fashion Cafe"}}, {"type": "way", "id": 142419817, "nodes": [1558601487, 1558601491, 1558601495, 1558601482, 1558601480, 1558601487], "tags": {"amenity": "restaurant", "building": "yes", "name": "Vincenzo", "name:fr": "Vincenzo"}}, {"type": "way", "id": 144024272, "nodes": [1576097887, 1576097893, 1576097890, 1576097884, 1576097887], "tags": {"amenity": "cafe", "building": "yes"}}, {"type": "way", "id": 146815689, "nodes": [1600502582, 1600502581, 1600502580, 1600502578, 1600502582], "tags": {"amenity": "cafe", "building": "yes", "name": "Abou El Ezz"}}, {"type": "way", "id": 146815690, "nodes": [1600502572, 1600502573, 1600502571, 1600502570, 1600502572], "tags": {"amenity": "cafe", "building": "yes", "name": "High Square"}}, {"type": "way", "id": 147192849, "nodes": [1604065709, 1604065711, 1604065717, 1604065713, 1604065709], "tags": {"amenity": "cafe", "building": "yes"}}, {"type": "way", "id": 208113562, "nodes": [2184304338, 2184304340, 2184304336, 2184304332, 2184304338], "tags": {"amenity": "restaurant", "building": "yes", "cuisine": "italian;pizza", "name": "Beckers Pizza", "smoking": "yes"}}, {"type": "way", "id": 208113565, "nodes": [2184304351, 2184304355, 2184304353, 2184304342, 2184304351], "tags": {"amenity": "restaurant", "building": "yes", "name": "Malaga"}}, {"type": "way", "id": 209043587, "nodes": [2192806821, 2192806822, 2192806811, 2192806819, 2192806821], "tags": {"amenity": "restaurant", "building": "yes", "cuisine": "regional;french", "name": "Bosphore", "operator": "Bosphore"}}, {"type": "way", "id": 209043589, "nodes": [2192806825, 2192806826, 2192806824, 2192806823, 2192806825], "tags": {"amenity": "cafe", "building": "yes", "name": "La Fiesta"}}, {"type": "way", "id": 209043590, "nodes": [2192806814, 2192806815, 2192806812, 2192806813, 2192806814], "tags": {"amenity": "restaurant", "building": "yes", "cuisine": "regional;french", "name": "El Torito", "operator": "El Torito"}}, {"type": "way", "id": 209043591, "nodes": [2192806833, 2192806834, 2192806832, 2192806831, 2192806833], "tags": {"amenity": "cafe", "building": "yes", "name": "Belvedere"}}, {"type": "way", "id": 209043592, "nodes": [2192806829, 2192806830, 2192806828, 2192806827, 2192806829], "tags": {"amenity": "cafe", "building": "yes", "name": "Primavera"}}, {"type": "way", "id": 209262457, "nodes": [2194856037, 2194856038, 2194856036, 2194856034, 2194856037], "tags": {"amenity": "cafe", "building": "yes", "name": "Le Prince", "operator": "Le Prince"}}, {"type": "way", "id": 209995815, "nodes": [2201476798, 2201476796, 2201476797, 2201476795, 2201476798], "tags": {"amenity": "cafe", "building": "yes", "internet_access": "yes", "name": "Haroun"}}, {"type": "way", "id": 210400381, "nodes": [2204756544, 2204756627, 2204756788, 2204756739, 2204756661, 2204756620, 2204756544], "tags": {"amenity": "restaurant", "building": "yes", "name": "Restaurant Le Pirate"}}, {"type": "way", "id": 219153418, "nodes": [2283512269, 2283512267, 2283512266, 2283512268, 2283512269], "tags": {"amenity": "restaurant", "building": "yes", "cuisine": "french", "name": "Le Regal"}}, {"type": "way", "id": 223106265, "nodes": [2320421936, 2320421938, 2320421939, 2320421940, 2320421942, 2320421943, 2320421927, 11150593692, 11150593691, 11150593690, 11150593689, 2320421936], "tags": {"air_conditioning": "no", "amenity": "cafe", "building": "yes", "changing_table": "no", "food": "no", "indoor_seating": "yes", "name": "\u0645\u0642\u0647\u0649 \u0627\u0644\u0627\u062a\u062d\u0627\u062f \u0627\u0644\u0631\u064a\u0627\u0636\u064a \u0628\u0635\u064a\u0627\u062f\u0629", "name:ar": "\u0645\u0642\u0647\u0649 \u0627\u0644\u0627\u062a\u062d\u0627\u062f \u0627\u0644\u0631\u064a\u0627\u0636\u064a \u0628\u0635\u064a\u0627\u062f\u0629", "name:fr": "Caf\u00e9 de l'Union Sportive de Sayada", "outdoor_seating": "yes", "smoking": "yes", "toilets": "yes", "toilets:wheelchair": "no", "wheelchair": "limited"}}, {"type": "way", "id": 232001337, "nodes": [2403411193, 2403411194, 2403411192, 2403411190, 2403411193], "tags": {"amenity": "restaurant", "building": "yes", "cuisine": "regional;french", "name": "La Daurade", "opening_hours": "Tu-Su 20:00-0:00"}}, {"type": "way", "id": 247665579, "nodes": [2545399724, 11146192312, 4305918412, 11091448148, 2545399725, 11146071193, 2545399726, 2545399727, 2545399728, 2545399729, 11146192315, 2545399730, 11146071204, 11146192314, 11146071203, 2545399731, 2545399732, 11146192317, 11146192313, 2545399724], "tags": {"air_conditioning": "no", "amenity": "cafe", "barrier": "fence", "changing_table": "no", "diet:halal": "only", "fence_type": "wire", "indoor_seating": "yes", "name": "Royal Bayech", "nohousenumber": "yes", "outdoor_seating": "yes", "smoking": "separated", "toilets": "yes", "toilets:wheelchair": "no", "wheelchair": "limited"}}, {"type": "way", "id": 257749273, "nodes": [2632219116, 2632219117, 2632219118, 2632219119, 2632219116], "tags": {"amenity": "cafe", "building": "yes", "name": "Caf\u00e9 Rezgui"}}, {"type": "way", "id": 257749274, "nodes": [2632219120, 2632219121, 2632219122, 2632219123, 2632219120], "tags": {"amenity": "cafe", "building": "yes", "name": "Caf\u00e9 Chelli"}}, {"type": "way", "id": 258578656, "nodes": [2632219123, 2632219122, 2639118088, 2639118089, 2632219123], "tags": {"amenity": "cafe", "building": "yes", "name": "Caf\u00e9 Majestic"}}, {"type": "way", "id": 258578665, "nodes": [2639118111, 2639118112, 2639118113, 2639118114, 2639118111], "tags": {"amenity": "cafe", "building": "yes", "name": "Caf\u00e9 ennakhil"}}, {"type": "way", "id": 258578666, "nodes": [2639118115, 2639118116, 2639118117, 2639118118, 2639118115], "tags": {"amenity": "cafe", "area": "yes", "building": "yes", "name": "Point Chaud"}}, {"type": "way", "id": 258578667, "nodes": [2184304284, 2639118119, 2639118120, 2184304277, 2184304284], "tags": {"amenity": "cafe", "building": "yes", "name": "Caf\u00e9 Brodway"}}, {"type": "way", "id": 258679425, "nodes": [2640061577, 2640061579, 2640061580, 2640061581, 2640061582, 2640061583, 2640061577], "tags": {"addr:street": "Avenue Khalifa El Karoui", "amenity": "cafe", "building": "yes", "name": "Jet Set", "phone": "+21652260434"}}, {"type": "way", "id": 258679426, "nodes": [2640061584, 2640061585, 2640061586, 2640061587, 2640061584], "tags": {"amenity": "cafe", "building": "yes", "name": "Central Perk"}}, {"type": "way", "id": 297568268, "nodes": [3014557028, 3014557029, 3014557030, 3014557031, 3014557028], "tags": {"addr:city": "Sahline", "addr:postcode": "5012", "amenity": "restaurant", "building": "yes", "cuisine": "sandwich;pizza", "name": "\u0628\u062f\u064a\u0631\u0629 \u0642\u0648\u062f", "name:fr": "Bdira-food"}}, {"type": "way", "id": 307608958, "nodes": [3128059065, 3128059063, 3128059062, 3128059064, 3128059065], "tags": {"amenity": "cafe", "building": "yes"}}, {"type": "way", "id": 342109133, "nodes": [1298849625, 3491376623, 1298849617, 1298849851, 1298849625], "tags": {"amenity": "restaurant", "building": "yes", "name": "Restaurant Flamant Rose"}}, {"type": "way", "id": 431389734, "nodes": [4305924107, 11146310935, 4305924108, 11146310933, 11146335241, 11146310937, 4305924109, 11146310938, 11146310936, 4305924110, 11146335244, 4305924107], "tags": {"air_conditioning": "no", "amenity": "cafe", "barrier": "fence", "changing_table": "no", "diet:halal": "only", "fence_type": "wire", "indoor_seating": "yes", "internet_access": "wlan", "name": "Fleur de Th\u00e9", "nohousenumber": "yes", "outdoor_seating": "yes", "roof:levels": "0", "smoking": "separated", "toilets": "yes", "toilets:wheelchair": "no", "wheelchair": "limited"}}, {"type": "way", "id": 495016620, "nodes": [4867990636, 4867990637, 4867990638, 4867990639, 4867990636], "tags": {"amenity": "restaurant", "building": "yes", "cuisine": "regional"}}, {"type": "way", "id": 495016714, "nodes": [4867990672, 4867990673, 4867990674, 4867990675, 4867990672], "tags": {"amenity": "restaurant", "building": "yes", "cuisine": "pizza;burger;kebab;fast_food", "name": "Tacos fastfood"}}, {"type": "way", "id": 495017303, "nodes": [4867995448, 4867995449, 4867995450, 4867995451, 4867995452, 4867995453, 4867995448], "tags": {"amenity": "cafe", "building": "yes", "name": "\u0645\u0642\u0647\u0649 \u0627\u0644\u0634\u0627\u0637\u0626", "name:ar": "\u0645\u0642\u0647\u0649 \u0627\u0644\u0634\u0627\u0637\u0626", "name:fr": "Cafe shat'a"}}, {"type": "way", "id": 540037201, "nodes": [5225048497, 5225048498, 5225048499, 5225048500, 5225048497], "tags": {"amenity": "cafe", "building": "yes"}}, {"type": "way", "id": 540171777, "nodes": [5226286297, 5226286298, 5226286299, 5226286300, 5226286297], "tags": {"amenity": "cafe", "building": "yes", "name": "El Malouf", "opening_hours": "Mo-Su,PH 05:00-02:00+", "wheelchair": "limited"}}, {"type": "way", "id": 543298920, "nodes": [5252087024, 5252087025, 5252087026, 5252087027, 5252087028, 5252087029, 5252087030, 5252087031, 5252087032, 5252087033, 5252087034, 5252087035, 5252087036, 5252087037, 5252087038, 5252087039, 5252087040, 5252087041, 5252087042, 5252087044, 5252087045, 5252087046, 5252087047, 5252087048, 5252087049, 5252087050, 5252087051, 5252087052, 5252087053, 5252087054, 5252087055, 5252087056, 5252087057, 5252087058, 5252087059, 5252087060, 5252087061, 5252087062, 5252087063, 5252087043, 5252087024], "tags": {"addr:city": "\u0627\u0644\u0645\u0646\u0633\u062a\u064a\u0631", "addr:city:ar": "\u0627\u0644\u0645\u0646\u0633\u062a\u064a\u0631", "addr:postcode": "5000", "amenity": "restaurant", "building": "yes", "name": "Restaurante Universit\u00e1rio", "name:ar": "\u0627\u0644\u0645\u0637\u0639\u0645 \u0627\u0644\u062c\u0627\u0645\u0639\u064a \u0633\u0642\u0627\u0646\u0635 \u0627\u0644\u0645\u0646\u0633\u062a\u064a\u0631", "name:fr": "Restaurant Universitaire Skanes Monastir"}}, {"type": "way", "id": 606669666, "nodes": [5751321138, 5751321139, 5751321140, 5751321141, 5751321138], "tags": {"amenity": "restaurant", "building": "yes", "name": "Malibu"}}, {"type": "way", "id": 612284249, "nodes": [5795994073, 5795994072, 5795994071, 5795994070, 5795994069, 5795994068, 5795994067, 5795994073], "tags": {"addr:city": "\u0627\u0644\u0645\u0646\u0633\u062a\u064a\u0631", "amenity": "restaurant", "building": "commercial"}}, {"type": "way", "id": 614604820, "nodes": [5813600185, 5813600186, 5813600187, 5813600188, 5813600189, 5813600192, 5813600194, 5813600185], "tags": {"addr:city": "\u0637\u0628\u0644\u0628\u0629", "addr:postcode": "5080", "amenity": "cafe", "building": "yes", "cuisine": "burger", "internet_access": "yes", "internet_access:fee": "no", "name": "\u0645\u0642\u0647\u0649 \u0645\u062d\u0637\u0629 \u0627\u0644\u0642\u0637\u0627\u0631", "name:ar": "\u0645\u0642\u0647\u0649 \u0645\u062d\u0637\u0629 \u0627\u0644\u0642\u0637\u0627\u0631", "outdoor_seating": "yes", "smoking": "dedicated"}}, {"type": "way", "id": 631972003, "nodes": [5967447972, 5967447973, 5967447974, 5967447975, 5967447972], "tags": {"amenity": "cafe", "building": "yes"}}, {"type": "way", "id": 913207502, "nodes": [8483092471, 8483092472, 8483092473, 8483092474, 8483092475, 8483092471], "tags": {"amenity": "cafe", "building": "yes", "name": "cafe chaouch"}}, {"type": "way", "id": 1061087839, "nodes": [9749157370, 9749157371, 9749157372, 9749157373, 9749157374, 9749157375, 9749157376, 9749157370], "tags": {"addr:street": "QQHX+34F\u060c Route de la Falaise\u060c hedi nouira", "amenity": "restaurant", "building": "yes", "name": "Patisserie Amanda", "opening_hours": "Mo-Su 06:30-19:30", "phone": "+216 50 096 607"}}, {"type": "way", "id": 1061089437, "nodes": [9749185278, 9749185279, 9749185280, 9749185281, 9749185282, 9749185283, 9749185284, 9749185285, 9749185286, 9749185287, 9749185278], "tags": {"amenity": "restaurant", "building": "yes", "cuisine": "kebab", "phone": "+216 53 014 000"}}, {"type": "way", "id": 1061090551, "nodes": [9749233624, 9749233625, 9749233626, 9749233627, 9749233624], "tags": {"amenity": "restaurant", "building": "commercial", "cuisine": "ice_cream", "name": "Parad'Ice"}}, {"type": "way", "id": 1194992753, "nodes": [4305918412, 11091448145, 11091448147, 11146285443, 11146285428, 11146285442, 11146285451, 11146285445, 11146285452, 11146285465, 11091448146, 11146285460, 11146285459, 11146285444, 11146285439, 2545399728, 2545399727, 2545399726, 11146071193, 2545399725, 11091448148, 4305918412], "tags": {"air_conditioning": "no", "amenity": "cafe", "barrier": "fence", "changing_table": "no", "fence_type": "wire", "food": "no", "indoor_seating": "yes", "name": "El Flouka", "outdoor_seating": "yes", "smoking": "separated", "toilets": "yes", "toilets:wheelchair": "no", "wheelchair": "limited"}}, {"type": "way", "id": 1198271285, "nodes": [11116291458, 11150593695, 11116291460, 11116291453, 11116291458], "tags": {"air_conditioning": "no", "amenity": "cafe", "building": "yes", "food": "no", "indoor_seating": "yes", "name": "Caf\u00e9 du Kiosque", "outdoor_seating": "yes", "smoking": "yes", "wheelchair": "no"}}, {"type": "way", "id": 1198316805, "nodes": [11116560730, 11116560731, 11116560732, 11116560733, 11116560730], "tags": {"air_conditioning": "no", "amenity": "cafe", "building": "yes", "changing_table": "no", "food": "no", "indoor_seating": "yes", "name": "Caf\u00e9 du Port", "outdoor_seating": "yes", "smoking": "yes", "toilets": "yes", "toilets:wheelchair": "no", "wheelchair": "limited"}}, {"type": "way", "id": 1202303343, "nodes": [11146071193, 11146071194, 11146071195, 11146285427, 11146071196, 11146192316, 11146071197, 11146071198, 11146071199, 11146071200, 11146071201, 11146071202, 11146071203, 11146192314, 11146071204, 11146192305, 11146192306, 11146192307, 11146192308, 2545399729, 11146192309, 11146192310, 2545399726, 11146071193], "tags": {"air_conditioning": "no", "amenity": "cafe", "building": "yes", "changing_table": "no", "diet:halal": "only", "indoor_seating": "yes", "name": "Royal Bayech", "outdoor_seating": "yes", "smoking": "separated", "toilets": "yes", "toilets:wheelchair": "no", "wheelchair": "limited"}}, {"type": "way", "id": 1202313732, "nodes": [11146071193, 11146285429, 11146285430, 11146285431, 11146285432, 11146285433, 11146285434, 11146285435, 11146285436, 11146285437, 11146285438, 11146285439, 2545399728, 2545399727, 2545399726, 11146071193], "tags": {"air_conditioning": "no", "amenity": "cafe", "building": "yes", "changing_table": "no", "diet:halal": "only", "indoor_seating": "yes", "name": "El Flouka", "outdoor_seating": "yes", "smoking": "outside", "toilets": "yes", "toilets:wheelchair": "no", "wheelchair": "limited"}}, {"type": "way", "id": 1202316270, "nodes": [11146310925, 11146310926, 11146310927, 11146310928, 11146310932, 11146310931, 11146310930, 11146310929, 11146310925], "tags": {"air_conditioning": "no", "amenity": "cafe", "building": "yes", "changing_table": "no", "diet:halal": "only", "indoor_seating": "yes", "name": "Fleur de Th\u00e9", "outdoor_seating": "yes", "smoking": "outside", "toilets": "yes", "toilets:wheelchair": "no", "wheelchair": "limited"}}, {"type": "way", "id": 1214374369, "nodes": [11251424057, 11251424058, 11251424059, 11251424060, 11251424042, 11251424043, 11251424044, 11251424045, 11251424046, 11251424047, 11251424054, 11251424055, 11251424056, 11251424048, 11251424049, 11251424050, 11251424051, 11251424052, 11251424053, 11251424057], "tags": {"amenity": "cafe", "building": "yes", "name": "Caf\u00e9 de l'environnement"}}, {"type": "way", "id": 1321941159, "nodes": [12232853414, 12232853415, 12232853416, 12232853417, 12232853418, 12232853419, 12232853420, 12232853421, 12232853414], "tags": {"amenity": "cafe", "building": "yes", "name": "Caf\u00e9 le Pyramides"}}]}