{"version": 0.6, "generator": "Overpass API 0.7.62.7 375dc00a", "osm3s": {"timestamp_osm_base": "2025-06-14T15:11:57Z", "copyright": "The data included in this document is from www.openstreetmap.org. The data is made available under ODbL."}, "elements": [{"type": "node", "id": 3100602923, "lat": 2.9749553, "lon": 30.9186318}, {"type": "node", "id": 3100602924, "lat": 2.974964, "lon": 30.9186623}, {"type": "node", "id": 3100602925, "lat": 2.9747898, "lon": 30.9187216}, {"type": "node", "id": 3100602926, "lat": 2.9747783, "lon": 30.9186933}, {"type": "node", "id": 3100602927, "lat": 2.974962, "lon": 30.918694}, {"type": "node", "id": 3100602928, "lat": 2.9749497, "lon": 30.9187232}, {"type": "node", "id": 3100603529, "lat": 2.9749284, "lon": 30.9187467}, {"type": "node", "id": 3100603530, "lat": 2.9749006, "lon": 30.9187618}, {"type": "node", "id": 3100603531, "lat": 2.9748693, "lon": 30.9187668}, {"type": "node", "id": 3100603532, "lat": 2.9748381, "lon": 30.9187611}, {"type": "node", "id": 3100603533, "lat": 2.9748106, "lon": 30.9187455}, {"type": "node", "id": 3100603534, "lat": 2.9747764, "lon": 30.9186629}, {"type": "node", "id": 3100603535, "lat": 2.9747844, "lon": 30.9186334}, {"type": "node", "id": 3100603536, "lat": 2.9748013, "lon": 30.9186081}, {"type": "node", "id": 3100603537, "lat": 2.9748253, "lon": 30.9185894}, {"type": "node", "id": 3100603538, "lat": 2.9748541, "lon": 30.9185794}, {"type": "node", "id": 3100603539, "lat": 2.9748846, "lon": 30.9185791}, {"type": "node", "id": 3100603540, "lat": 2.9749135, "lon": 30.9185885}, {"type": "node", "id": 3100603541, "lat": 2.974938, "lon": 30.9186068}, {"type": "node", "id": 3493041062, "lat": 3.0147408, "lon": 30.9178896, "tags": {"amenity": "restaurant", "name": "West Nile Golf Club", "phone": "+256 772 874384"}}, {"type": "node", "id": 3535755470, "lat": 3.0130614, "lon": 30.9138407, "tags": {"amenity": "cafe", "cuisine": "pizza;burger", "internet_access": "wlan", "name": "Cafe Cosmo"}}, {"type": "node", "id": 3588164465, "lat": 3.0181729, "lon": 30.9132041}, {"type": "node", "id": 3588164470, "lat": 3.01827, "lon": 30.9128556}, {"type": "node", "id": 3588164471, "lat": 3.0183949, "lon": 30.9130805}, {"type": "node", "id": 3991128446, "lat": 3.0270569, "lon": 30.9071749, "tags": {"amenity": "restaurant", "name": "Kamure Park"}}, {"type": "node", "id": 4185234783, "lat": 3.0159419, "lon": 30.9205575}, {"type": "node", "id": 4185255696, "lat": 3.0164535, "lon": 30.9205079}, {"type": "node", "id": 4437314192, "lat": 3.018048, "lon": 30.9129792, "tags": {"natural": "tree"}}, {"type": "node", "id": 5317939620, "lat": 3.0188022, "lon": 31.0348968, "tags": {"addr:county": "Ayivu", "addr:district": "Arua", "addr:parish": "Yabiavoko", "addr:subcounty": "Oluko", "addr:village": "Okalia", "amenity": "restaurant", "name": "Hotel", "opening_hours": "Mo-Su 09:00-17:00", "start_date": "2009-10-01"}}, {"type": "node", "id": 5318263317, "lat": 3.1136833, "lon": 30.8624933, "tags": {"addr:county": "Ayivu", "addr:district": "Arua", "addr:parish": "Bura", "addr:subcounty": "Aroi", "addr:village": "Piago Omia", "amenity": "restaurant", "name": "Peter Shop", "opening_hours": "Mo-Su 09:00-17:00", "start_date": "2012-07-01"}}, {"type": "node", "id": 5318263828, "lat": 3.087025, "lon": 30.8308383, "tags": {"addr:county": "Ayivu", "addr:district": "Arua", "addr:parish": "Mbaraka", "addr:subcounty": "Ayivuni", "addr:village": "Kulua", "amenity": "restaurant", "name": "Michael Shop", "opening_hours": "Mo-Su 09:00-17:00", "start_date": "2006-06-01"}}, {"type": "node", "id": 5318263868, "lat": 3.0798167, "lon": 30.85615, "tags": {"addr:county": "Ayivu", "addr:district": "Arua", "addr:parish": "Olevu", "addr:subcounty": "Ayivuni", "addr:village": "Nubbi", "amenity": "restaurant", "name": "Edroni Pork Joint", "opening_hours": "Mo-Su 09:00-17:00", "start_date": "2013-07-01"}}, {"type": "node", "id": 5318263877, "lat": 3.0159141, "lon": 30.9808208, "tags": {"addr:county": "Ayivu", "addr:district": "Arua", "addr:parish": "Turu", "addr:subcounty": "Oluko", "addr:village": "Agavu", "amenity": "restaurant", "name": "Corner Hotel", "opening_hours": "Mo-Su 09:00-17:00", "start_date": "2017-07-01"}}, {"type": "node", "id": 5344284623, "lat": 3.0234139, "lon": 30.911554, "tags": {"addr:street": "Market Street", "amenity": "restaurant", "name": "Restaurant", "opening_hours": "Mo-Su 09:00-18:00"}}, {"type": "node", "id": 5344284624, "lat": 3.0247374, "lon": 30.9087013, "tags": {"addr:street": "Adumi Road", "amenity": "restaurant", "name": "Foodz Inn", "opening_hours": "Mo-Su 08:00-23:00"}}, {"type": "node", "id": 5344290121, "lat": 3.0236242, "lon": 30.912916, "tags": {"addr:street": "Hospital Road", "amenity": "restaurant", "name": "Bagdad Restaurant", "opening_hours": "Mo-Su 08:00-22:00"}}, {"type": "node", "id": 5344290122, "lat": 3.0227214, "lon": 30.9110173, "tags": {"addr:street": "Market Street", "amenity": "restaurant", "name": "Arua food center", "opening_hours": "Mo-Su 09:00-18:00"}}, {"type": "node", "id": 5349267821, "lat": 2.7080233, "lon": 31.0882667, "tags": {"addr:county": "Madi Okollo", "addr:district": "Arua", "addr:parish": "Ajibu", "addr:subcounty": "Okollo", "addr:village": "Ombache", "amenity": "restaurant", "name": "Afandaju", "start_date": "2016-12-01"}}, {"type": "node", "id": 5349267827, "lat": 2.7191133, "lon": 31.0759283, "tags": {"addr:county": "Madi Okollo", "addr:district": "Arua", "addr:parish": "Ajibu", "addr:subcounty": "Okollo", "addr:village": "Zabu", "amenity": "restaurant", "name": "Aguzo's Enterprise", "opening_hours": "Mo-Su 09:00-17:00", "start_date": "2011-05-01"}}, {"type": "node", "id": 5350681443, "lat": 2.77586, "lon": 31.0357583, "tags": {"addr:county": "Madi Okollo", "addr:district": "Arua", "addr:parish": "Laura", "addr:subcounty": "Uleppi", "addr:village": "Ulepi Trading Center", "amenity": "restaurant", "name": "Asianzu Hotel", "start_date": "2017-05-01"}}, {"type": "node", "id": 5351850725, "lat": 2.8741525, "lon": 30.9827555, "tags": {"addr:street": "Arua - Pakwach Road", "amenity": "restaurant", "name": "Restaurant", "opening_hours": "Mo-Su 09:00-20:00"}}, {"type": "node", "id": 5351850726, "lat": 3.0135453, "lon": 30.9103488, "tags": {"addr:street": "Ediofe Road", "amenity": "restaurant", "name": "Peace Talk", "opening_hours": "Mo-Su 09:00-23:00"}}, {"type": "node", "id": 5409827655, "lat": 3.110495, "lon": 30.89646, "tags": {"addr:county": "Ayivu", "addr:district": "Arua", "addr:parish": "Aliba", "addr:subcounty": "Aroi", "addr:village": "Bali", "amenity": "restaurant", "name": "Orobia", "opening_hours": "Mo-Su 09:00-17:00", "start_date": "2007-09-01"}}, {"type": "node", "id": 5409827657, "lat": 3.1117317, "lon": 30.896855, "tags": {"addr:county": "Ayivu", "addr:district": "Arua", "addr:parish": "Aliba", "addr:subcounty": "Aroi", "addr:village": "Bali", "amenity": "restaurant", "name": "Jerusalem", "opening_hours": "Mo-Su 09:00-17:00", "start_date": "2012-08-01"}}, {"type": "node", "id": 5409827659, "lat": 3.117275, "lon": 30.8681067, "tags": {"addr:county": "Ayivu", "addr:district": "Arua", "addr:parish": "Micu", "addr:subcounty": "Aroi", "addr:village": "Mudru", "amenity": "restaurant", "opening_hours": "Mo-Su 09:00-17:00", "start_date": "2006-07-01"}}, {"type": "node", "id": 8453954432, "lat": 3.0658702, "lon": 30.9384704, "tags": {"addr:street": "Rhino Camp Road", "amenity": "restaurant", "name": "Satellite View Restaurant"}}, {"type": "node", "id": 8651147317, "lat": 3.02387, "lon": 30.9092529, "tags": {"amenity": "restaurant", "name": "Happy Times"}}, {"type": "node", "id": 8676222417, "lat": 3.0210389, "lon": 30.9101753, "tags": {"amenity": "restaurant", "name": "Happy Times"}}, {"type": "node", "id": 8776445606, "lat": 3.0162773, "lon": 30.9198937, "tags": {"access": "private", "barrier": "gate", "entrance": "main"}}, {"type": "node", "id": 8776445609, "lat": 3.0157591, "lon": 30.9205511}, {"type": "node", "id": 8776445610, "lat": 3.0157296, "lon": 30.9198377}, {"type": "node", "id": 8776445611, "lat": 3.0162519, "lon": 30.9198055}, {"type": "node", "id": 9282680159, "lat": 2.9990702, "lon": 30.9268683}, {"type": "node", "id": 9282680160, "lat": 2.9990528, "lon": 30.926863}, {"type": "node", "id": 9282680161, "lat": 2.9990461, "lon": 30.926871}, {"type": "node", "id": 9282680162, "lat": 2.9990386, "lon": 30.9268485}, {"type": "node", "id": 9282680163, "lat": 2.9990233, "lon": 30.9268536}, {"type": "node", "id": 9282680164, "lat": 2.9989835, "lon": 30.9268511}, {"type": "node", "id": 9282680165, "lat": 2.9989819, "lon": 30.9268773}, {"type": "node", "id": 9282680166, "lat": 2.9990121, "lon": 30.9268792}, {"type": "node", "id": 9282680167, "lat": 2.9990113, "lon": 30.9268938}, {"type": "node", "id": 9282680168, "lat": 2.9989952, "lon": 30.9269032}, {"type": "node", "id": 9282680169, "lat": 2.9990246, "lon": 30.926922}, {"type": "node", "id": 9282680170, "lat": 2.999009, "lon": 30.9269254}, {"type": "node", "id": 9282680171, "lat": 2.9990153, "lon": 30.9269542}, {"type": "node", "id": 9282680172, "lat": 2.999022, "lon": 30.9269636}, {"type": "node", "id": 9282680173, "lat": 2.9990246, "lon": 30.9269877}, {"type": "node", "id": 9282680174, "lat": 2.9990447, "lon": 30.9269917}, {"type": "node", "id": 9282680175, "lat": 2.9990254, "lon": 30.9270119}, {"type": "node", "id": 9282680176, "lat": 2.9990394, "lon": 30.9270252}, {"type": "node", "id": 9282680177, "lat": 2.999045, "lon": 30.9270565}, {"type": "node", "id": 9282680178, "lat": 2.9990598, "lon": 30.9270538}, {"type": "node", "id": 9282680179, "lat": 2.9990562, "lon": 30.9270337}, {"type": "node", "id": 9282680180, "lat": 2.999134, "lon": 30.9270195}, {"type": "node", "id": 9282680181, "lat": 2.9991176, "lon": 30.9269289}, {"type": "node", "id": 9282680182, "lat": 2.9990746, "lon": 30.9269367}, {"type": "node", "id": 9282680183, "lat": 2.9990702, "lon": 30.9269126}, {"type": "node", "id": 9282680184, "lat": 2.9990729, "lon": 30.9268965}, {"type": "node", "id": 9558731017, "lat": 3.0239503, "lon": 30.9086166, "tags": {"addr:street": "Adumi Road", "amenity": "restaurant", "name": "Zahra Hotel"}}, {"type": "node", "id": 9558731117, "lat": 3.0216165, "lon": 30.9125054, "tags": {"addr:street": "Hospital Road", "amenity": "restaurant", "name": "Baghdad", "name:en": "Bagdad"}}, {"type": "way", "id": 305433913, "nodes": [3100603534, 3100603535, 3100603536, 3100603537, 3100603538, 3100603539, 3100603540, 3100603541, 3100602923, 3100602924, 3100602927, 3100602928, 3100603529, 3100603530, 3100603531, 3100603532, 3100603533, 3100602925, 3100602926, 3100603534], "tags": {"amenity": "restaurant", "building": "yes", "cuisine": "international,_buger,_indian,_african,_pizza", "website": "http://www.whitecastlehotel.com/"}}, {"type": "way", "id": 353033820, "nodes": [3588164470, 4437314192, 3588164465, 3588164471, 3588164470], "tags": {"amenity": "restaurant", "internet_access": "no", "internet_access:fee": "no", "name": "Cafeteria", "opening_hours": "24/7", "operator": "Ugandan", "smoking": "no", "stars": "4", "wheelchair": "yes"}}, {"type": "way", "id": 948141053, "nodes": [8776445611, 8776445610, 8776445609, 4185234783, 4185255696, 8776445606, 8776445611], "tags": {"addr:city": "Arua", "addr:country": "UG", "addr:housenumber": "51", "addr:street": "Weatherhead Lane", "amenity": "restaurant", "email": "YevrahGuestAndRestaurant@yahoo.com", "name": "Yevrah Guesthouse & Restaurant", "phone": "+256 0787 973141", "tourism": "hotel"}}, {"type": "way", "id": 1006108252, "nodes": [9282680159, 9282680160, 9282680161, 9282680162, 9282680163, 9282680164, 9282680165, 9282680166, 9282680167, 9282680168, 9282680169, 9282680170, 9282680171, 9282680172, 9282680173, 9282680174, 9282680175, 9282680176, 9282680177, 9282680178, 9282680179, 9282680180, 9282680181, 9282680182, 9282680183, 9282680184, 9282680159], "tags": {"amenity": "restaurant", "building": "yes", "name": "small's restuarant", "opening_hours": "Mo-Fr 08:00-16:00"}}]}