{"version": 0.6, "generator": "Overpass API 0.7.62.7 375dc00a", "osm3s": {"timestamp_osm_base": "2025-06-14T15:39:30Z", "copyright": "The data included in this document is from www.openstreetmap.org. The data is made available under ODbL."}, "elements": [{"type": "node", "id": 4342054691, "lat": 11.1281025, "lon": 39.6340462, "tags": {"amenity": "restaurant", "cuisine": "ethiopian", "name": "Tossa Restaurant"}}, {"type": "node", "id": 5141544621, "lat": 11.1324835, "lon": 39.6329692, "tags": {"amenity": "restaurant", "name": "\u120d\u12f0\u1273 \u1241\u122d\u1325 \u1264\u1275", "name:en": "Ledeta Kurt Bet"}}, {"type": "node", "id": 5141544721, "lat": 11.1326947, "lon": 39.6329191, "tags": {"amenity": "restaurant", "name": "\u12ac\u122d \u12ed\u1201\u1295 \u1241\u122d\u1325 \u1264\u1275", "name:en": "Ker Yehun Kurt Bet"}}, {"type": "node", "id": 5144460622, "lat": 11.1249625, "lon": 39.6337903, "tags": {"amenity": "restaurant", "name": "\u1353\u122b\u12f2\u12de \u12ab\u134c\u1293 \u122c\u1235\u1276\u122b\u1295\u1275", "name:en": "Paradiso Cafe & Restaurant"}}, {"type": "node", "id": 5217416623, "lat": 11.1233341, "lon": 39.6336406, "tags": {"amenity": "restaurant", "name": "\u1270\u1235\u134b \u1263\u122d & \u122c\u1235\u1276\u122b\u1295\u1275", "name:en": "Tesfa Bar & Restaurant"}}, {"type": "node", "id": 5994425985, "lat": 11.1191095, "lon": 39.6337588, "tags": {"amenity": "restaurant", "name:en": "local restaurant (yetson veg)"}}, {"type": "node", "id": 6121809685, "lat": 11.13135, "lon": 39.6326662, "tags": {"amenity": "cafe", "email": "abdulhafizhassen12@gmail.com", "name": "\u1210\u1260\u123b \u1261\u1293", "name:en": "Habesha  Coffee", "opening_hours": "Mo-Su 00:00-14:00", "operator": "Abdulhafiz Hassen", "phone": "0914 60 5260"}}, {"type": "node", "id": 6122835607, "lat": 11.1315147, "lon": 39.6333834, "tags": {"amenity": "cafe", "name": "\u120b\u126d\u120a \u12ab\u134c \u12a5\u1293 \u134b\u1235\u1275 \u134b\u12f5", "name:en": "Lovely Cafe and Fast Food", "opening_hours": "Mo-Su 09:00-18:00", "operator": "Mr Mohammed  Seid", "phone": "+251914710566"}}, {"type": "node", "id": 6135513385, "lat": 11.1312712, "lon": 39.6326768, "tags": {"addr:street": "Melaku Desalegn", "amenity": "cafe", "email": "abdulhafizhassen12@gmail.com", "name": "\u1200\u1260\u123b \u1261\u1293", "name:en": "Habesha Coffee", "opening_hours": "24/7", "operator": "abdulhafiz Hassen", "phone": "+251914605260"}}, {"type": "node", "id": 6939489486, "lat": 10.9835446, "lon": 39.2711891, "tags": {"amenity": "restaurant", "cuisine": "ethiopian", "name": "\u134b\u1245\u1228 \u1230\u120b\u121d \u12e8\u12ad\u122d\u1235\u1272\u12eb\u1295 \u121d\u130d\u1265 \u1264\u1275", "name:en": "Fiqr Selam Christian Restaurant"}}, {"type": "node", "id": 6939489585, "lat": 11.1181773, "lon": 39.6336868, "tags": {"amenity": "cafe", "name:en": "Fruit Juice Cafe"}}, {"type": "node", "id": 6939489586, "lat": 11.1233729, "lon": 39.6339679, "tags": {"amenity": "restaurant", "name": "Wow Restaurant"}}, {"type": "node", "id": 6944737585, "lat": 11.1276499, "lon": 39.6344988, "tags": {"amenity": "cafe", "name:en": "Venus Cafe and Restaurant"}}, {"type": "node", "id": 6944737586, "lat": 11.1212532, "lon": 39.6338102, "tags": {"addr:housenumber": "2nd Floor", "amenity": "cafe", "cuisine": "ethiopian", "name:en": "Haven Cafe"}}, {"type": "node", "id": 6952119571, "lat": 11.1376172, "lon": 39.6323985, "tags": {"amenity": "cafe", "name:en": "Semien Cafe"}}, {"type": "node", "id": 6952250485, "lat": 11.1240201, "lon": 39.634453, "tags": {"amenity": "restaurant", "name:en": "Burnni Pizzeria"}}, {"type": "node", "id": 10151254617, "lat": 11.1215577, "lon": 39.634213, "tags": {"amenity": "cafe", "name": "\u1209\u1264 \u12e8\u1300\u1260\u1293 \u1261\u1293"}}]}