{"version": 0.6, "generator": "Overpass API 0.7.62.7 375dc00a", "osm3s": {"timestamp_osm_base": "2025-06-14T14:51:30Z", "copyright": "The data included in this document is from www.openstreetmap.org. The data is made available under ODbL."}, "elements": [{"type": "node", "id": 512024697, "lat": 40.7076295, "lon": 26.7834964, "tags": {"amenity": "restaurant", "cuisine": "other", "name": "Koruda\u011f Dinlenme Tesisleri Orman \u0130\u00e7i"}}, {"type": "node", "id": 2407800125, "lat": 40.7848813, "lon": 27.3678972, "tags": {"addr:city": "U\u00e7makdere", "addr:district": "\u015eark\u00f6y", "addr:neighbourhood": "U\u00e7makdere Mahallesi", "amenity": "restaurant"}}, {"type": "node", "id": 2407802516, "lat": 40.7838537, "lon": 27.3667814, "tags": {"addr:city": "U\u00e7makdere", "addr:district": "\u015eark\u00f6y", "addr:neighbourhood": "U\u00e7makdere Mahallesi", "amenity": "restaurant"}}, {"type": "node", "id": 2842825431, "lat": 40.6152072, "lon": 27.1110529}, {"type": "node", "id": 2842825432, "lat": 40.615127, "lon": 27.1110481}, {"type": "node", "id": 2842825433, "lat": 40.6151124, "lon": 27.1112017}, {"type": "node", "id": 2842825434, "lat": 40.6151962, "lon": 27.1112113}, {"type": "node", "id": 2843703043, "lat": 40.6097182, "lon": 27.11227}, {"type": "node", "id": 2843703044, "lat": 40.6095206, "lon": 27.1123228}, {"type": "node", "id": 2843703045, "lat": 40.6095237, "lon": 27.1124163}, {"type": "node", "id": 2843703046, "lat": 40.6097367, "lon": 27.1123797}, {"type": "node", "id": 2843703047, "lat": 40.6094682, "lon": 27.1124936}, {"type": "node", "id": 2843703048, "lat": 40.6093077, "lon": 27.1125383}, {"type": "node", "id": 2843703049, "lat": 40.6092799, "lon": 27.112335}, {"type": "node", "id": 2843703050, "lat": 40.6094373, "lon": 27.1122984}, {"type": "node", "id": 2843712268, "lat": 40.6091287, "lon": 27.1123553}, {"type": "node", "id": 2843712269, "lat": 40.6091534, "lon": 27.112583}, {"type": "node", "id": 2844237905, "lat": 40.6107991, "lon": 27.11313}, {"type": "node", "id": 2844237906, "lat": 40.6106757, "lon": 27.1131569}, {"type": "node", "id": 2844237907, "lat": 40.6106886, "lon": 27.11326}, {"type": "node", "id": 2844237908, "lat": 40.610812, "lon": 27.1132332}, {"type": "node", "id": 2844265385, "lat": 40.6112949, "lon": 27.1196041, "tags": {"addr:city": "\u015eark\u00f6y", "addr:district": "\u015eark\u00f6y", "addr:housenumber": "57", "addr:neighbourhood": "Cumhuriyet Mahallesi", "addr:postcode": "59800", "addr:street": "Sar\u0131capa\u015fa Caddesi", "amenity": "cafe", "name": "Moda Cafe", "outdoor_seating": "yes"}}, {"type": "node", "id": 2844265386, "lat": 40.6112594, "lon": 27.1191651, "tags": {"addr:city": "\u015eark\u00f6y", "addr:district": "\u015eark\u00f6y", "amenity": "cafe", "name": "Eltis Cafe", "outdoor_seating": "yes"}}, {"type": "node", "id": 5506909329, "lat": 40.4172669, "lon": 27.0650835, "tags": {"amenity": "restaurant", "name": "Yakamoz"}}, {"type": "node", "id": 5876258292, "lat": 40.7892307, "lon": 27.3696203, "tags": {"amenity": "cafe", "name": "Manzara Marmara", "name:en": "Teahouse with View"}}, {"type": "node", "id": 7149348563, "lat": 40.6136915, "lon": 27.1356426}, {"type": "node", "id": 7149348564, "lat": 40.6137037, "lon": 27.135703}, {"type": "node", "id": 7149348565, "lat": 40.6137363, "lon": 27.1356936}, {"type": "node", "id": 7149348566, "lat": 40.6138076, "lon": 27.1360007}, {"type": "node", "id": 7149348567, "lat": 40.6136803, "lon": 27.1360664}, {"type": "node", "id": 7149348568, "lat": 40.6135867, "lon": 27.1356869}, {"type": "node", "id": 7149348569, "lat": 40.6148701, "lon": 27.1416912}, {"type": "node", "id": 7149348570, "lat": 40.6148388, "lon": 27.1415553}, {"type": "node", "id": 7149348572, "lat": 40.6147708, "lon": 27.1415825}, {"type": "node", "id": 7149348574, "lat": 40.6148022, "lon": 27.1417184}, {"type": "node", "id": 7149348575, "lat": 40.6148563, "lon": 27.1416311}, {"type": "node", "id": 7777774819, "lat": 40.6282274, "lon": 27.1138519, "tags": {"alt_name": "Saray Bay\u0131r\u0131 Tesisleri", "amenity": "restaurant", "cuisine": "turkish", "name": "Terrace Cafe & Restaruant"}}, {"type": "node", "id": 7813977837, "lat": 40.6105835, "lon": 27.1165808, "tags": {"amenity": "cafe", "name": "Port Cafe & Bistro"}}, {"type": "node", "id": 7813977838, "lat": 40.6104834, "lon": 27.1163078, "tags": {"amenity": "cafe", "name": "Co\u015fkun Garden"}}, {"type": "node", "id": 8525889328, "lat": 40.6084241, "lon": 26.8791632, "tags": {"amenity": "restaurant", "cuisine": "fish;tea;turkish", "internet_access": "wlan", "name": "Bayraktar Restaurant"}}, {"type": "node", "id": 8525944384, "lat": 40.6075357, "lon": 26.8781538, "tags": {"amenity": "restaurant", "cuisine": "turkish;fish_and_chips", "name": "G\u00f6zde Bal\u0131k Restaurant"}}, {"type": "node", "id": 8525944403, "lat": 40.5993514, "lon": 26.8837628, "tags": {"amenity": "restaurant", "cuisine": "turkish", "name": "Saros Tepe Park Restoran"}}, {"type": "node", "id": 9014099726, "lat": 40.6120069, "lon": 27.1206621, "tags": {"addr:city": "\u015eark\u00f6y", "addr:district": "\u015eark\u00f6y", "addr:housenumber": "50/A", "addr:neighbourhood": "Cumhuriyet", "addr:postcode": "59800", "addr:street": "Sar\u0131capa\u015fa Caddesi", "amenity": "cafe", "name": "Real Cafe"}}, {"type": "node", "id": 9014099764, "lat": 40.6106872, "lon": 27.1121048, "tags": {"amenity": "restaurant", "cuisine": "turkish", "name": "Me\u015fhur \u015eark\u00f6y Pilavc\u0131s\u0131"}}, {"type": "node", "id": 9014099771, "lat": 40.6118926, "lon": 27.1127189, "tags": {"amenity": "cafe", "name": "Murat K\u0131raathanesi"}}, {"type": "node", "id": 9014099776, "lat": 40.6109514, "lon": 27.1130832, "tags": {"amenity": "restaurant", "cuisine": "turkish;meat", "name": "Yakamoz K\u00f6fte Salonu"}}, {"type": "node", "id": 9281776372, "lat": 40.6083129, "lon": 27.099953}, {"type": "node", "id": 9281776373, "lat": 40.6085516, "lon": 27.0999463}, {"type": "node", "id": 9281776374, "lat": 40.6085478, "lon": 27.0997083}, {"type": "node", "id": 9281776375, "lat": 40.6083091, "lon": 27.099715}, {"type": "node", "id": 9295367307, "lat": 40.6154534, "lon": 27.1388767, "tags": {"addr:city": "\u015eark\u00f6y", "addr:district": "\u015eark\u00f6y", "amenity": "cafe", "cuisine": "burger", "name": "Hanzade Kafe", "outdoor_seating": "yes"}}, {"type": "node", "id": 11181924019, "lat": 40.6017256, "lon": 26.9041838, "tags": {"addr:city": "\u00c7anakkale", "addr:district": "Gelibolu", "addr:housenumber": "2/A", "addr:neighbourhood": "Kavakk\u00f6y", "addr:postcode": "17340", "addr:street": "Malkara - \u00c7anakkale Otoyolu", "amenity": "cafe", "branch": "Kavakk\u00f6y \u0130stanbul Y\u00f6n\u00fc", "brand": "Starbucks", "brand:wikidata": "Q37158", "cuisine": "coffee_shop", "name": "Starbucks", "official_name": "Starbucks Coffee", "opening_hours": "07:45-22:00", "operator": "Starbucks", "takeaway": "yes"}}, {"type": "node", "id": 11815470618, "lat": 40.6103642, "lon": 27.0955774}, {"type": "node", "id": 11815470619, "lat": 40.6097605, "lon": 27.0956391}, {"type": "node", "id": 11815470620, "lat": 40.6099366, "lon": 27.096311}, {"type": "node", "id": 11815470621, "lat": 40.6104925, "lon": 27.0961581}, {"type": "node", "id": 12030217125, "lat": 40.7964591, "lon": 27.3656051, "tags": {"addr:city": "U\u00e7makdere", "addr:district": "\u015eark\u00f6y", "addr:neighbourhood": "U\u00e7makdere Mahallesi", "amenity": "restaurant", "name": "G\u00fclbah\u00e7e U\u00e7makdere K\u00f6y Kahvalt\u0131s\u0131 & Restoran"}}, {"type": "node", "id": 12030217126, "lat": 40.7968856, "lon": 27.3653837, "tags": {"addr:city": "U\u00e7makdere", "addr:district": "\u015eark\u00f6y", "addr:neighbourhood": "U\u00e7makdere Mahallesi", "amenity": "restaurant", "name": "Karde\u015fler G\u00f6zleme"}}, {"type": "node", "id": 12030217127, "lat": 40.797409, "lon": 27.3652246, "tags": {"addr:city": "U\u00e7makdere", "addr:district": "\u015eark\u00f6y", "addr:neighbourhood": "U\u00e7makdere Mahallesi", "amenity": "restaurant", "name": "U\u00e7makdere \u015eirin G\u00f6zleme"}}, {"type": "node", "id": 12030217128, "lat": 40.7975832, "lon": 27.3654405, "tags": {"addr:city": "U\u00e7makdere", "addr:district": "\u015eark\u00f6y", "addr:neighbourhood": "U\u00e7makdere Mahallesi", "amenity": "restaurant", "name": "Lezzet Bah\u00e7esi Kahvalt\u0131 & G\u00f6zleme"}}, {"type": "node", "id": 12030217129, "lat": 40.7979181, "lon": 27.3654653, "tags": {"addr:city": "U\u00e7makdere", "addr:district": "\u015eark\u00f6y", "addr:neighbourhood": "U\u00e7makdere Mahallesi", "amenity": "restaurant", "name": "Do\u011fa'da Bi Mola"}}, {"type": "node", "id": 12030217130, "lat": 40.7980654, "lon": 27.3655927, "tags": {"addr:city": "U\u00e7makdere", "addr:district": "\u015eark\u00f6y", "addr:neighbourhood": "U\u00e7makdere Mahallesi", "amenity": "restaurant", "name": "Mini Bah\u00e7e"}}, {"type": "node", "id": 12115389165, "lat": 40.6086404, "lon": 27.1033704, "tags": {"amenity": "cafe", "name": "Moonlight Beach"}}, {"type": "node", "id": 12115407567, "lat": 40.6116713, "lon": 27.1237825, "tags": {"amenity": "cafe", "name": "Nazife Beach"}}, {"type": "node", "id": 12366190591, "lat": 40.6078834, "lon": 27.0970599}, {"type": "node", "id": 12366190592, "lat": 40.607768, "lon": 27.0970814}, {"type": "node", "id": 12366190593, "lat": 40.6077891, "lon": 27.0972782}, {"type": "node", "id": 12366190594, "lat": 40.6079045, "lon": 27.0972567}, {"type": "node", "id": 12556470861, "lat": 40.603654, "lon": 26.9034112, "tags": {"addr:city": "\u00c7anakkale", "addr:district": "Gelibolu", "addr:housenumber": "4/A", "addr:neighbourhood": "Kavakk\u00f6y", "addr:postcode": "17340", "addr:street": "Malkara - \u00c7anakkale Otoyolu", "amenity": "cafe", "branch": "Kavakk\u00f6y \u00c7anakkale Y\u00f6n\u00fc", "brand": "Starbucks", "brand:wikidata": "Q37158", "cuisine": "coffee_shop", "name": "Starbucks", "official_name": "Starbucks Coffee", "opening_hours": "07:45-22:00", "takeaway": "yes"}}, {"type": "way", "id": 280114877, "nodes": [2842825431, 2842825432, 2842825433, 2842825434, 2842825431], "tags": {"amenity": "restaurant", "building": "yes"}}, {"type": "way", "id": 280218880, "nodes": [2843703043, 2843703044, 2843703045, 2843703046, 2843703043], "tags": {"amenity": "cafe", "building": "yes", "cuisine": "regional", "name": "Liman K\u0131raathanesi"}}, {"type": "way", "id": 280218881, "nodes": [2843703047, 2843703048, 2843703049, 2843703050, 2843703047], "tags": {"amenity": "restaurant", "building": "no", "name": "Bal\u0131k D\u00fcnyas\u0131"}}, {"type": "way", "id": 280219569, "nodes": [2843703049, 2843712268, 2843712269, 2843703048, 2843703049], "tags": {"amenity": "restaurant", "building": "no", "name": "Bal\u0131kname"}}, {"type": "way", "id": 280281976, "nodes": [2844237905, 2844237906, 2844237907, 2844237908, 2844237905], "tags": {"amenity": "cafe", "area": "yes", "building": "yes", "name": "Eni\u015ftenin Yeri"}}, {"type": "way", "id": 765472155, "nodes": [7149348563, 7149348564, 7149348565, 7149348566, 7149348567, 7149348568, 7149348563], "tags": {"amenity": "cafe", "building": "yes", "internet_access": "wlan", "internet_access:fee": "no", "name": "SSK1 Sahil Sitesi Gazino", "outdoor_seating": "yes"}}, {"type": "way", "id": 765472156, "nodes": [7149348569, 7149348575, 7149348570, 7149348572, 7149348574, 7149348569], "tags": {"amenity": "cafe", "building": "yes", "name": "SSK2 Sahil Sitesi Gazino", "outdoor_seating": "yes"}}, {"type": "way", "id": 1005999805, "nodes": [9281776372, 9281776373, 9281776374, 9281776375, 9281776372], "tags": {"amenity": "restaurant", "building": "yes", "cuisine": "turkish", "name": "\u015eark\u00f6y Belediyesi Sosyal Tesisleri"}}, {"type": "way", "id": 1272406129, "nodes": [11815470618, 11815470619, 11815470620, 11815470621, 11815470618], "tags": {"addr:city": "Tekirda\u011f", "addr:district": "\u015eark\u00f6y", "addr:housenumber": "34", "addr:neighbourhood": "\u0130stiklal", "addr:postcode": "59800", "addr:street": "Gelibolu Caddesi", "amenity": "cafe", "name": "Garden Cafe", "opening_hours": "09:00-00:00", "outdoor_seating": "yes", "phone": "+90 532 345 5858"}}, {"type": "way", "id": 1336972397, "nodes": [12366190591, 12366190592, 12366190593, 12366190594, 12366190591], "tags": {"amenity": "cafe", "building": "yes", "name": "De\u011firmen Kafe"}}]}