{"version": 0.6, "generator": "Overpass API 0.7.62.7 375dc00a", "osm3s": {"timestamp_osm_base": "2025-06-14T14:49:31Z", "copyright": "The data included in this document is from www.openstreetmap.org. The data is made available under ODbL."}, "elements": [{"type": "node", "id": 3606650633, "lat": 41.9170162, "lon": 25.8848952}, {"type": "node", "id": 3606650634, "lat": 41.9170191, "lon": 25.8851855}, {"type": "node", "id": 3606650635, "lat": 41.9172732, "lon": 25.8848906}, {"type": "node", "id": 3606650636, "lat": 41.9172761, "lon": 25.8851809}, {"type": "node", "id": 4055505836, "lat": 41.9262144, "lon": 25.9023437, "tags": {"amenity": "restaurant", "name": "\u0423\u0439\u043a\u0430\u0442\u0430 (Uykata)"}}, {"type": "node", "id": 4424904190, "lat": 41.9314945, "lon": 25.9038339, "tags": {"amenity": "restaurant", "name": "Chicken Shak", "name:bg": "Chicken Shak"}}, {"type": "node", "id": 5303140480, "lat": 42.1391017, "lon": 25.8676288, "tags": {"amenity": "cafe"}}, {"type": "node", "id": 5303140498, "lat": 42.138867, "lon": 25.8695734, "tags": {"amenity": "restaurant", "name": "Izibor", "tourism": "hotel"}}, {"type": "node", "id": 5303140499, "lat": 42.1391932, "lon": 25.8703002, "tags": {"amenity": "cafe", "name": "\u0415\u043c\u043e\u043d\u0430"}}, {"type": "node", "id": 8383238176, "lat": 41.8719296, "lon": 26.0804289}, {"type": "node", "id": 8383238177, "lat": 41.8716206, "lon": 26.0808226}, {"type": "node", "id": 8383250490, "lat": 41.8472869, "lon": 26.085748, "tags": {"amenity": "cafe"}}, {"type": "node", "id": 8700183100, "lat": 41.9313568, "lon": 25.9033269, "tags": {"amenity": "restaurant"}}, {"type": "node", "id": 9223443048, "lat": 41.9170593, "lon": 25.8847861}, {"type": "node", "id": 9223443049, "lat": 41.9170054, "lon": 25.8849795}, {"type": "node", "id": 9223443050, "lat": 41.9168838, "lon": 25.8849847}, {"type": "node", "id": 9223443051, "lat": 41.9168684, "lon": 25.8849562}, {"type": "node", "id": 9223443052, "lat": 41.9169075, "lon": 25.8848683}, {"type": "node", "id": 9223443053, "lat": 41.9167749, "lon": 25.8847616}, {"type": "node", "id": 9223443054, "lat": 41.9167969, "lon": 25.8847123}, {"type": "node", "id": 9223443055, "lat": 41.9168336, "lon": 25.8846864}, {"type": "node", "id": 9223443056, "lat": 41.9168606, "lon": 25.8846838}, {"type": "node", "id": 9223443057, "lat": 41.9169649, "lon": 25.8847798}, {"type": "node", "id": 9223443058, "lat": 41.91699, "lon": 25.8847512}, {"type": "node", "id": 9569089461, "lat": 41.8715701, "lon": 26.0807531}, {"type": "node", "id": 9569089462, "lat": 41.871698, "lon": 26.0804915}, {"type": "node", "id": 9569089463, "lat": 41.8718677, "lon": 26.080336}, {"type": "node", "id": 9952140189, "lat": 42.0313573, "lon": 25.8347319, "tags": {"amenity": "cafe"}}, {"type": "node", "id": 10029592474, "lat": 41.9318815, "lon": 25.9062178}, {"type": "node", "id": 10029592475, "lat": 41.9317849, "lon": 25.9063803}, {"type": "node", "id": 10029592476, "lat": 41.9316514, "lon": 25.9062368}, {"type": "node", "id": 10029592477, "lat": 41.931748, "lon": 25.9060744}, {"type": "node", "id": 10029592478, "lat": 41.931972, "lon": 25.9063212}, {"type": "node", "id": 10029592479, "lat": 41.9319362, "lon": 25.9064746}, {"type": "node", "id": 10029592480, "lat": 41.9318697, "lon": 25.9064105}, {"type": "node", "id": 10029592481, "lat": 41.9318527, "lon": 25.9064357}, {"type": "node", "id": 10029592482, "lat": 41.9317956, "lon": 25.9063623}, {"type": "node", "id": 10682700983, "lat": 41.8431837, "lon": 26.0812101, "tags": {"amenity": "cafe", "cuisine": "coffee_shop", "name": "21 Grams"}}, {"type": "node", "id": 10683135220, "lat": 41.8456089, "lon": 26.0863165, "tags": {"amenity": "restaurant", "name:bg": "\u0427\u0438\u0444\u043b\u0438\u043a\u044a"}}, {"type": "node", "id": 10683135230, "lat": 41.8446845, "lon": 26.0825017, "tags": {"amenity": "restaurant", "name:bg": "\u0420\u0435\u0441\u0442\u043e\u0440\u0430\u043d\u0442 \u0424\u0430\u043d\u0442\u0430\u0437\u0438\u044f"}}, {"type": "node", "id": 10683348943, "lat": 41.8441589, "lon": 26.0818324}, {"type": "node", "id": 10683348946, "lat": 41.8443439, "lon": 26.0821011}, {"type": "node", "id": 10683348947, "lat": 41.8445538, "lon": 26.0818405}, {"type": "node", "id": 10683348948, "lat": 41.8443688, "lon": 26.0815719}, {"type": "node", "id": 10683407023, "lat": 41.8343653, "lon": 26.0940117, "tags": {"amenity": "restaurant", "name": "Borovete", "name:bg": "\u0411\u043e\u0440\u043e\u0432\u0435\u0442\u0435"}}, {"type": "node", "id": 11073882106, "lat": 41.8454346, "lon": 26.0866797, "tags": {"amenity": "restaurant", "name": "Devon"}}, {"type": "way", "id": 355035514, "nodes": [3606650635, 3606650633, 3606650634, 3606650636, 3606650635], "tags": {"amenity": "restaurant", "cuisine": "regional", "name": "\u041f\u0440\u0438\u043a\u0430\u0437\u043a\u0438\u0442\u0435"}}, {"type": "way", "id": 902583095, "nodes": [8383238177, 9569089461, 9569089462, 9569089463, 8383238176, 8383238177], "tags": {"amenity": "restaurant", "building": "yes"}}, {"type": "way", "id": 999028071, "nodes": [9223443048, 9223443049, 9223443050, 9223443051, 9223443052, 9223443053, 9223443054, 9223443055, 9223443056, 9223443057, 9223443058, 9223443048], "tags": {"amenity": "restaurant", "building": "yes", "name": "Prikazkite"}}, {"type": "way", "id": 1095160464, "nodes": [10029592474, 10029592482, 10029592475, 10029592476, 10029592477, 10029592474], "tags": {"amenity": "restaurant", "building": "yes"}}, {"type": "way", "id": 1095160465, "nodes": [10029592474, 10029592478, 10029592479, 10029592480, 10029592481, 10029592482, 10029592474], "tags": {"amenity": "restaurant", "building": "yes"}}, {"type": "way", "id": 1148229761, "nodes": [10683348943, 10683348946, 10683348947, 10683348948, 10683348943], "tags": {"amenity": "restaurant", "building": "yes", "name:bg": "\u0420\u0435\u0441\u0442\u043e\u0440\u0430\u043d\u0442 \u041c\u0430\u0440\u0438\u0446\u0430"}}]}