{"version": 0.6, "generator": "Overpass API 0.7.62.7 375dc00a", "osm3s": {"timestamp_osm_base": "2025-06-14T14:51:30Z", "copyright": "The data included in this document is from www.openstreetmap.org. The data is made available under ODbL."}, "elements": [{"type": "node", "id": 2839255901, "lat": 39.5831352, "lon": 26.9245821}, {"type": "node", "id": 2839255903, "lat": 39.5834426, "lon": 26.9240037}, {"type": "node", "id": 2839255904, "lat": 39.5829809, "lon": 26.924444}, {"type": "node", "id": 2839255905, "lat": 39.5832883, "lon": 26.9238656}, {"type": "node", "id": 3655931640, "lat": 39.5663221, "lon": 26.753977, "tags": {"addr:postcode": "38000", "addr:street": "bal\u0131kesir alt\u0131noluk \u015fahin deresi", "amenity": "cafe", "cuisine": "tea;coffee_shop;pancake", "internet_access": "wlan", "name": "Cadde Altinoluk", "name:tr": "Hasanali \u00c7ay Bah\u00e7esi", "website": "http://www.caddepasta.com.tr/"}}, {"type": "node", "id": 4359970215, "lat": 39.6005086, "lon": 26.8634677, "tags": {"amenity": "restaurant", "name": "Sakl\u0131bah\u00e7e", "phone": "+902663873212"}}, {"type": "node", "id": 5038701023, "lat": 39.575283, "lon": 26.8079753, "tags": {"addr:street": "Gurlek Mevki", "amenity": "restaurant", "cuisine": "turkish;barbecue;coffee_shop;breakfast;regional;fish_and_chips", "email": "murataskinguner@gmail.com", "internet_access": "wlan", "name": "Bah\u00e7e Kahvalt\u0131 Konaklama", "name:en": "Garden Breakfast Hotel", "operator": "Murat Taskinguner", "phone": "05448706869", "website": "http://www.altinolukbahce.com"}}, {"type": "node", "id": 5083116783, "lat": 39.5439795, "lon": 26.9475272}, {"type": "node", "id": 5083116784, "lat": 39.543772, "lon": 26.9473191}, {"type": "node", "id": 5083116785, "lat": 39.5437252, "lon": 26.9473121}, {"type": "node", "id": 5083116786, "lat": 39.5436553, "lon": 26.9474297}, {"type": "node", "id": 5083116787, "lat": 39.5438247, "lon": 26.9475991}, {"type": "node", "id": 5083116788, "lat": 39.5438071, "lon": 26.9476286}, {"type": "node", "id": 5083116789, "lat": 39.5438365, "lon": 26.947658}, {"type": "node", "id": 5083116790, "lat": 39.5438418, "lon": 26.9476491}, {"type": "node", "id": 5083116791, "lat": 39.5438689, "lon": 26.9476762}, {"type": "node", "id": 5083116792, "lat": 39.5438827, "lon": 26.9476529}, {"type": "node", "id": 5083116793, "lat": 39.5438964, "lon": 26.9476667}, {"type": "node", "id": 5083116823, "lat": 39.5071907, "lon": 26.9348166}, {"type": "node", "id": 5083116824, "lat": 39.5071992, "lon": 26.9347804}, {"type": "node", "id": 5083116825, "lat": 39.5071305, "lon": 26.9347532}, {"type": "node", "id": 5083116826, "lat": 39.507122, "lon": 26.9347893}, {"type": "node", "id": 5184239281, "lat": 39.5072452, "lon": 26.9673826, "tags": {"amenity": "restaurant", "cuisine": "kahvalt\u0131", "name": "Pizza Laz"}}, {"type": "node", "id": 5221300366, "lat": 39.5038047, "lon": 26.9812992, "tags": {"amenity": "restaurant", "name": "Hadigari Restaurant"}}, {"type": "node", "id": 5221300367, "lat": 39.5018773, "lon": 26.9773721, "tags": {"addr:street": "H\u00fcrriyet Caddesi", "amenity": "restaurant", "name": "Burhaniye Sofras\u0131", "opening_hours": "Mo-Sa 08:00-23:30", "outdoor_seating": "yes", "phone": "+90 266 412 68 67"}}, {"type": "node", "id": 5251605148, "lat": 39.5314906, "lon": 26.94178}, {"type": "node", "id": 5257079060, "lat": 39.5314984, "lon": 26.941769}, {"type": "node", "id": 5257079061, "lat": 39.5315462, "lon": 26.9417797}, {"type": "node", "id": 5257079062, "lat": 39.5315736, "lon": 26.9417701}, {"type": "node", "id": 5257079063, "lat": 39.5315893, "lon": 26.9418178}, {"type": "node", "id": 5257079064, "lat": 39.5315591, "lon": 26.9418468}, {"type": "node", "id": 5257079065, "lat": 39.5315458, "lon": 26.9418564}, {"type": "node", "id": 5257079066, "lat": 39.5315462, "lon": 26.9418783}, {"type": "node", "id": 5257079067, "lat": 39.5315168, "lon": 26.9418768}, {"type": "node", "id": 5257079068, "lat": 39.5314921, "lon": 26.941859}, {"type": "node", "id": 5257079069, "lat": 39.5314856, "lon": 26.9418478}, {"type": "node", "id": 5541804423, "lat": 39.6844755, "lon": 27.144041, "tags": {"amenity": "restaurant", "cuisine": "breakfast;turkish", "name": "G\u00fcls\u00fcm Anan\u0131n Yeri", "outdoor_seating": "yes", "phone": "+90 541 304 98 01"}}, {"type": "node", "id": 5593785524, "lat": 39.5005105, "lon": 26.9340586, "tags": {"amenity": "restaurant", "cuisine": "kebab;turkish", "name": "100. Y\u0131l Pide Kebap Salonu"}}, {"type": "node", "id": 5594905063, "lat": 39.8130881, "lon": 27.2142172}, {"type": "node", "id": 5594905064, "lat": 39.8131013, "lon": 27.2143039}, {"type": "node", "id": 5594905065, "lat": 39.8130499, "lon": 27.2143171}, {"type": "node", "id": 5594905066, "lat": 39.8130368, "lon": 27.2142305}, {"type": "node", "id": 5883854857, "lat": 39.5483943, "lon": 27.0117425, "tags": {"amenity": "cafe"}}, {"type": "node", "id": 5942014132, "lat": 39.538829, "lon": 26.9494344}, {"type": "node", "id": 5942014133, "lat": 39.5387477, "lon": 26.9493698}, {"type": "node", "id": 5942014134, "lat": 39.5387109, "lon": 26.9493786}, {"type": "node", "id": 5942014135, "lat": 39.5386904, "lon": 26.9494193}, {"type": "node", "id": 5942014136, "lat": 39.5386884, "lon": 26.9494831}, {"type": "node", "id": 5942014137, "lat": 39.5387738, "lon": 26.949551}, {"type": "node", "id": 6014584585, "lat": 39.5392998, "lon": 27.0126478, "tags": {"addr:city": "Bal\u0131kesir", "addr:district": "Burhaniye", "addr:neighbourhood": "K\u0131z\u0131kl\u0131 Mahallesi", "addr:postcode": "10700", "addr:street": "B\u00fcy\u00fck Kara A\u011fa\u00e7 Sokak", "amenity": "restaurant", "email": "mail@korfezucakrestaurant.com", "name": "Edremit-Burhaniye Airbus U\u00e7ak Restaurant", "name:en": "Airplain restaurant", "name:ru": "\u0420\u0435\u0441\u0442\u043e\u0440\u0430\u043d \u0438\u0437 \u0441\u0430\u043c\u043e\u043b\u0435\u0442\u0430", "opening_hours": "Mo-Sa 08:00-22:00", "outdoor_seating": "yes", "phone": "+90 266 412 82 25", "website": "http://www.korfezucakrestaurant.com/"}}, {"type": "node", "id": 6183905094, "lat": 39.5028949, "lon": 26.9809043, "tags": {"amenity": "restaurant", "name": "Sini 2 Restaurant"}}, {"type": "node", "id": 6183926368, "lat": 39.501449, "lon": 26.9799124, "tags": {"amenity": "cafe", "name": "Kafe Balkon"}}, {"type": "node", "id": 6397773435, "lat": 39.5726103, "lon": 26.9475407}, {"type": "node", "id": 6397773436, "lat": 39.5725707, "lon": 26.9475926}, {"type": "node", "id": 6397773437, "lat": 39.5727153, "lon": 26.9477781}, {"type": "node", "id": 6397773438, "lat": 39.5727549, "lon": 26.9477262}, {"type": "node", "id": 6410815635, "lat": 39.5763469, "lon": 26.9431151}, {"type": "node", "id": 6410815636, "lat": 39.576057, "lon": 26.9437718}, {"type": "node", "id": 6410815637, "lat": 39.5763003, "lon": 26.9438286}, {"type": "node", "id": 6410815638, "lat": 39.5764768, "lon": 26.943816}, {"type": "node", "id": 6410815639, "lat": 39.5766322, "lon": 26.9438078}, {"type": "node", "id": 6410815640, "lat": 39.5766352, "lon": 26.9432066}, {"type": "node", "id": 6411967286, "lat": 39.5097506, "lon": 26.9704972, "tags": {"amenity": "cafe", "name": "Burhaniye Karadenizliler Derne\u011fi Kafesi"}}, {"type": "node", "id": 6413281689, "lat": 39.5763494, "lon": 26.9347392, "tags": {"amenity": "cafe", "name": "Deniz Kafe"}}, {"type": "node", "id": 6413376895, "lat": 39.5824822, "lon": 26.9254828, "tags": {"amenity": "cafe", "brand": "Mado", "brand:wikidata": "Q17116336", "brand:wikipedia": "en:Mado (food company)", "cuisine": "coffee_shop", "name": "Mado", "takeaway": "yes"}}, {"type": "node", "id": 6413602139, "lat": 39.5910652, "lon": 26.9280712, "tags": {"amenity": "cafe", "brand": "Starbucks", "brand:wikidata": "Q37158", "brand:wikipedia": "en:Starbucks", "cuisine": "coffee_shop", "name": "Starbucks", "official_name": "Starbucks Coffee", "takeaway": "yes"}}, {"type": "node", "id": 6435542103, "lat": 39.5724017, "lon": 26.9418368, "tags": {"amenity": "cafe", "name": "Antik Cafe"}}, {"type": "node", "id": 6435565622, "lat": 39.5825731, "lon": 26.9252218, "tags": {"amenity": "cafe", "name": "Kordon Cafe"}}, {"type": "node", "id": 6435565623, "lat": 39.5828644, "lon": 26.9247492, "tags": {"amenity": "cafe", "name": "Duru Kordon Cafe", "outdoor_seating": "yes"}}, {"type": "node", "id": 6688015177, "lat": 39.5979022, "lon": 26.9829642, "tags": {"amenity": "cafe", "internet_access": "yes", "name": "Alsancak Unlu Mam\u00fclleri", "outdoor_seating": "yes"}}, {"type": "node", "id": 6688015179, "lat": 39.5978889, "lon": 26.9814557}, {"type": "node", "id": 6688015180, "lat": 39.5979155, "lon": 26.9816508}, {"type": "node", "id": 6688015181, "lat": 39.5977816, "lon": 26.9816874}, {"type": "node", "id": 6688015182, "lat": 39.597766, "lon": 26.9816772}, {"type": "node", "id": 6688015183, "lat": 39.5977385, "lon": 26.9814943}, {"type": "node", "id": 6694976277, "lat": 39.5766327, "lon": 26.9434377}, {"type": "node", "id": 6749583521, "lat": 39.5978065, "lon": 26.9813709, "tags": {"amenity": "cafe", "brand": "Starbucks", "brand:wikidata": "Q37158", "brand:wikipedia": "en:Starbucks", "cuisine": "coffee_shop", "name": "Starbucks", "official_name": "Starbucks Coffee", "takeaway": "yes"}}, {"type": "node", "id": 6755493676, "lat": 39.5929752, "lon": 27.0128276, "tags": {"addr:city": "Bal\u0131kesir", "addr:district": "Edremit", "addr:housenumber": "6", "addr:neighbourhood": "Hamidiye Mahallesi", "addr:street": "Yeni Gara\u00e7 Caddesi", "air_conditioning": "yes", "amenity": "restaurant", "cuisine": "dessert;baklava;k\u00fcnefe", "name": "Bal Badem", "opening_hours": "24/7", "phone": "+90 266 373 33 99"}}, {"type": "node", "id": 6881453438, "lat": 39.5028155, "lon": 26.9785532, "tags": {"amenity": "cafe", "name": "Piraye Kitap Cafe"}}, {"type": "node", "id": 6885309951, "lat": 39.5016948, "lon": 26.9493191, "tags": {"amenity": "cafe", "name": "Bubyo Kantin"}}, {"type": "node", "id": 6885309958, "lat": 39.5010727, "lon": 26.9518051, "tags": {"amenity": "cafe", "name": "Vega Cafe Restoran"}}, {"type": "node", "id": 6938691285, "lat": 39.5480616, "lon": 27.0112069, "tags": {"amenity": "cafe", "name": "Ege Fly Cafe", "name:en": "Aegean Fly Cafe"}}, {"type": "node", "id": 7107840385, "lat": 39.5757358, "lon": 27.0402016, "tags": {"amenity": "restaurant", "brand": "K\u00f6fteci Yusuf", "brand:wikidata": "Q126125081", "cuisine": "turkish", "name": "K\u00f6fteci Yusuf"}}, {"type": "node", "id": 7111708290, "lat": 39.5926401, "lon": 27.0134335, "tags": {"addr:city": "Bal\u0131kesir", "addr:district": "Edremit", "addr:neighbourhood": "Hamidiye Mahallesi", "addr:postcode": "10300", "addr:street": "\u0130zmir \u00c7anakkale Yolu", "amenity": "restaurant", "cuisine": "b\u00f6rek;su_b\u00f6re\u011fi", "name": "B\u00fclent B\u00f6rek"}}, {"type": "node", "id": 7119005328, "lat": 39.5925165, "lon": 27.020174, "tags": {"amenity": "restaurant", "name": "\u00d6m\u00fcr Lokantas\u0131"}}, {"type": "node", "id": 7138530453, "lat": 39.5888868, "lon": 27.0167593, "tags": {"amenity": "cafe", "name": "Osmanl\u0131 Kahvecizade Edremit"}}, {"type": "node", "id": 7138533091, "lat": 39.5840144, "lon": 27.0309716, "tags": {"amenity": "cafe", "name": "Fann Cafe"}}, {"type": "node", "id": 7138533123, "lat": 39.5867388, "lon": 27.0260011, "tags": {"amenity": "cafe", "name": "Hayal Kafe"}}, {"type": "node", "id": 8084067273, "lat": 39.5976012, "lon": 26.9815986, "tags": {"amenity": "restaurant", "name": "Tavada Tavuk"}}, {"type": "node", "id": 8084109543, "lat": 39.5966177, "lon": 26.9829416, "tags": {"amenity": "cafe", "name": "T\u00fcz\u00fcn Park"}}, {"type": "node", "id": 8770936061, "lat": 39.576745, "lon": 26.7147422}, {"type": "node", "id": 8770936062, "lat": 39.5768169, "lon": 26.7149568}, {"type": "node", "id": 8770936063, "lat": 39.576873, "lon": 26.7149252}, {"type": "node", "id": 8770936064, "lat": 39.5768012, "lon": 26.7147106}, {"type": "node", "id": 8832289273, "lat": 39.576838, "lon": 26.7148205}, {"type": "node", "id": 8857558921, "lat": 39.5921719, "lon": 26.8658692, "tags": {"amenity": "restaurant", "name": "Kale Kafe & Restaurant", "phone": "+905437185253"}}, {"type": "node", "id": 8857558922, "lat": 39.5916965, "lon": 26.8657619, "tags": {"amenity": "restaurant", "name": "Seyri G\u00fcm\u00fc\u015f Han"}}, {"type": "node", "id": 8984501900, "lat": 39.6011706, "lon": 26.8634015, "tags": {"amenity": "restaurant", "name": "\u015earlak Restaurant & Kafe", "phone": "+902663873800"}}, {"type": "node", "id": 9020766970, "lat": 39.594865, "lon": 26.8381619, "tags": {"amenity": "restaurant", "name": "Alibaba Restoran", "phone": "+902663881668", "website": "https://alibabarestoran.eatbu.com/"}}, {"type": "node", "id": 9020766986, "lat": 39.5925233, "lon": 26.8059821, "tags": {"amenity": "restaurant", "name": "Manzara Restaurant"}}, {"type": "node", "id": 9020766987, "lat": 39.5919363, "lon": 26.8060103, "tags": {"amenity": "restaurant", "name": "Dedep\u0131nar\u0131 Restaurant", "phone": "+902663785050"}}, {"type": "node", "id": 9020766992, "lat": 39.5947596, "lon": 26.8058226, "tags": {"addr:country": "TR", "addr:district": "Edremit", "addr:housenumber": "62", "addr:postcode": "10872", "addr:province": "Bal\u0131kesir", "addr:subdistrict": "Avc\u0131lar", "addr:suburb": "K\u0131z\u0131l\u00e7ukur", "amenity": "restaurant", "mobile": "+905306876671", "name": "Teras62", "opening_hours": "09:00-23:00"}}, {"type": "node", "id": 9021533411, "lat": 39.6170458, "lon": 26.9243728, "tags": {"amenity": "restaurant", "mobile": "+905352755002", "name": "Aycan Restaurant Piknik Alan\u0131", "phone": "+902663814144"}}, {"type": "node", "id": 9021551420, "lat": 39.6173268, "lon": 26.9243011, "tags": {"amenity": "restaurant", "mobile": "+905326639595", "name": "As Restaurant Et Bal\u0131k Meze", "phone": "+902663844040", "website": "www.asrestaurant.com.tr"}}, {"type": "node", "id": 9021551421, "lat": 39.6172617, "lon": 26.923483, "tags": {"amenity": "restaurant", "name": "\u00c7a\u011flayan Restaurant Aile Piknik Yeri"}}, {"type": "node", "id": 9021551422, "lat": 39.6173041, "lon": 26.9236493, "tags": {"amenity": "restaurant", "mobile": "+905355048401", "name": "Dostlar Restaurant K\u0131z\u0131lke\u00e7ili \u0130bo", "operator": "K\u0131z\u0131lke\u00e7ili \u0130bo"}}, {"type": "node", "id": 9021551425, "lat": 39.6158469, "lon": 26.9213969, "tags": {"amenity": "restaurant", "mobile": "+905464652585", "name": "Nostalji Kokore\u00e7 Gafurun Yeri"}}, {"type": "node", "id": 9021551447, "lat": 39.6167731, "lon": 26.9220775, "tags": {"amenity": "cafe", "name": "Naciye Sanat Evi Gurme ve Cafe"}}, {"type": "node", "id": 9021551475, "lat": 39.610038, "lon": 26.9245961, "tags": {"amenity": "restaurant", "mobile": "+905412458380", "name": "Keyf-\u0130da Kahvalt\u0131 Bungalow", "tourism": "hotel"}}, {"type": "node", "id": 9021551547, "lat": 39.6179208, "lon": 26.9237613, "tags": {"amenity": "restaurant", "name": "Kanyon Park", "phone": "+902663842288"}}, {"type": "node", "id": 9021551573, "lat": 39.6186884, "lon": 26.9236828, "tags": {"amenity": "restaurant", "mobile": "+905544899999", "name": "Bah\u00e7emis Mangal"}}, {"type": "node", "id": 9021551578, "lat": 39.6182752, "lon": 26.9231316, "tags": {"amenity": "restaurant", "cuisine": "fish", "name": "Huzur Alabal\u0131k Restaurant"}}, {"type": "node", "id": 9244988289, "lat": 39.5018337, "lon": 26.979398, "tags": {"amenity": "cafe", "cuisine": "coffee_shop", "name": "Kahve Diyar\u0131 Burhaniye"}}, {"type": "node", "id": 9244988293, "lat": 39.5031204, "lon": 26.9799195, "tags": {"amenity": "restaurant", "cuisine": "soup;kebab;turkish;1", "name": "By Do\u011fan"}}, {"type": "node", "id": 9282102305, "lat": 39.5956256, "lon": 26.8884212, "tags": {"amenity": "restaurant", "name": "Kuzeyegeli K\u0131rbah\u00e7esi"}}, {"type": "node", "id": 10241356189, "lat": 39.5620153, "lon": 26.7078683, "tags": {"amenity": "restaurant", "name": "Elit Beach Restaurant"}}, {"type": "node", "id": 10578367006, "lat": 39.5558032, "lon": 27.1130779, "tags": {"amenity": "restaurant", "name": "Nermin Han\u0131m Zeytinli\u011fi"}}, {"type": "node", "id": 10598383634, "lat": 39.5980385, "lon": 26.9835777, "tags": {"amenity": "cafe", "brand": "Kahve D\u00fcnyas\u0131", "brand:wikidata": "Q28008050", "cuisine": "coffee_shop", "name": "Kahve D\u00fcnyas\u0131", "takeaway": "yes"}}, {"type": "node", "id": 10598383681, "lat": 39.5968005, "lon": 26.9869537, "tags": {"amenity": "cafe", "name": "Cennet Aile \u00c7ay Bah\u00e7esi"}}, {"type": "node", "id": 11217615537, "lat": 39.8131286, "lon": 27.2139014, "tags": {"amenity": "restaurant", "name": "Dombili K\u00f6fte"}}, {"type": "node", "id": 11217615538, "lat": 39.8120133, "lon": 27.2137721, "tags": {"amenity": "restaurant", "name": "\u00c7orbac\u0131"}}, {"type": "node", "id": 11217615548, "lat": 39.8123282, "lon": 27.2126714, "tags": {"amenity": "cafe", "name": "Ali \u015een'in Kahvesi"}}, {"type": "node", "id": 11217615550, "lat": 39.8119811, "lon": 27.212796, "tags": {"amenity": "cafe", "name": "K\u00f6y Kahvesi"}}, {"type": "node", "id": 12036258709, "lat": 39.5502268, "lon": 27.0885079, "tags": {"amenity": "restaurant", "cuisine": "turkish", "name": "Bah\u00e7e Kebap", "opening_hours": "Mo-Su 09:00-22:00"}}, {"type": "node", "id": 12056418069, "lat": 39.5983698, "lon": 27.0077446, "tags": {"amenity": "restaurant", "cuisine": "turkish", "delivery": "yes", "mobile": "+90 535 842 4458", "name": "Konya Sofras\u0131", "phone": "+90 266 373 5286"}}, {"type": "node", "id": 12093898710, "lat": 39.5661134, "lon": 26.7483132, "tags": {"amenity": "cafe", "name": "WaKum cafe"}}, {"type": "node", "id": 12320237259, "lat": 39.5538589, "lon": 27.0925122}, {"type": "node", "id": 12320237260, "lat": 39.5536567, "lon": 27.0925304}, {"type": "node", "id": 12320237261, "lat": 39.5536728, "lon": 27.0928325}, {"type": "node", "id": 12320237262, "lat": 39.5538751, "lon": 27.0928143}, {"type": "node", "id": 12438341970, "lat": 39.5032465, "lon": 26.9817083, "tags": {"addr:city": "Burhaniye", "addr:district": "Burhaniye", "addr:housenumber": "2", "addr:neighbourhood": "Kocacami Mahallesi", "addr:street": "Atat\u00fcrk Caddesi", "amenity": "restaurant", "cuisine": "fish", "diet:fish": "yes", "name": "Bal\u0131k\u00e7\u0131 Ahmet", "phone": "+90266 412 55 50", "website": "https://www.instagram.com/balikciahmetburhaniye/"}}, {"type": "node", "id": 12458431861, "lat": 39.5004428, "lon": 26.9781615, "tags": {"addr:city": "Bal\u0131kesir", "addr:district": "Burhaniye", "addr:housenumber": "10", "addr:postcode": "10700", "addr:street": "Ali \u00c7etinkaya Caddesi", "amenity": "restaurant", "cuisine": "fish;sandwich;breakfast", "name": "Defnem Cafe Restaurant", "phone": "+90 266 412 77 70", "website": "https://www.instagram.com/defnemcaferestaurant/"}}, {"type": "node", "id": 12462595494, "lat": 39.5762136, "lon": 26.9434171}, {"type": "node", "id": 12686862336, "lat": 39.505875, "lon": 26.9705153, "tags": {"addr:city": "Bal\u0131kesir", "addr:district": "Burhaniye", "addr:housenumber": "222/3A", "addr:neighbourhood": "Bah\u00e7elievler Mahallesi", "addr:postcode": "10700", "addr:street": "Ali Kemal Deveciler Bulvar\u0131", "amenity": "restaurant", "cuisine": "turkish", "delivery": "yes", "diet:vegetarian": "yes", "name": "Pidemm", "official_name": "HD Holding", "opening_hours": "Mo-Su 11:00-21:30", "outdoor_seating": "yes", "phone": "+90 266 422 39 90", "website": "https://www.pidem.com.tr/"}}, {"type": "way", "id": 279723752, "nodes": [2839255905, 2839255903, 2839255901, 2839255904, 2839255905], "tags": {"amenity": "cafe", "building": "yes", "building:levels": "1", "name": "Y\u00f6rsan"}}, {"type": "way", "id": 521724894, "nodes": [5083116783, 5083116784, 5083116785, 5083116786, 5083116787, 5083116788, 5083116789, 5083116790, 5083116791, 5083116792, 5083116793, 5083116783], "tags": {"addr:neighbourhood": "Bah\u00e7elievler Mahallesi", "amenity": "cafe", "building": "yes", "cuisine": "tea", "name": "Orjan Yeni 414 Aile \u00c7ay Bah\u00e7esi"}}, {"type": "way", "id": 521724901, "nodes": [5083116823, 5083116824, 5083116825, 5083116826, 5083116823], "tags": {"amenity": "cafe", "building": "yes", "name": "Ayaz Beach"}}, {"type": "way", "id": 543824099, "nodes": [5251605148, 5257079060, 5257079061, 5257079062, 5257079063, 5257079064, 5257079065, 5257079066, 5257079067, 5257079068, 5257079069, 5251605148], "tags": {"amenity": "cafe", "building": "yes"}}, {"type": "way", "id": 585479801, "nodes": [5594905063, 5594905064, 5594905065, 5594905066, 5594905063], "tags": {"amenity": "restaurant", "building": "yes", "name": "Agonya Sofras\u0131"}}, {"type": "way", "id": 629381735, "nodes": [5942014132, 5942014133, 5942014134, 5942014135, 5942014136, 5942014137, 5942014132], "tags": {"addr:city": "Bal\u0131kesir", "addr:district": "Burhaniye", "addr:neighbourhood": "Bah\u00e7elievler Mahallesi", "amenity": "cafe", "building": "yes", "name": "K\u0131r Kahvesi"}}, {"type": "way", "id": 683044252, "nodes": [6397773435, 6397773436, 6397773437, 6397773438, 6397773435], "tags": {"amenity": "cafe", "building": "yes"}}, {"type": "way", "id": 684294551, "nodes": [6410815635, 12462595494, 6410815636, 6410815637, 6410815638, 6410815639, 6694976277, 6410815640, 6410815635], "tags": {"amenity": "cafe", "building": "yes", "name": "Ege Cafe"}}, {"type": "way", "id": 711333429, "nodes": [6688015179, 6688015180, 6688015181, 6688015182, 6688015183, 6688015179], "tags": {"amenity": "restaurant", "building": "yes", "name": "BayD\u00f6ner", "opening_hours": "Mo-Su 10:00-22:00"}}, {"type": "way", "id": 947574199, "nodes": [8770936064, 8832289273, 8770936063, 8770936062, 8770936061, 8770936064], "tags": {"addr:city": "Bal\u0131kesir", "addr:district": "Edremit", "addr:housenumber": "51", "addr:neighbourhood": "Alt\u0131noluk Mah", "addr:postcode": "10390", "addr:street": "Duyuran K\u00f6y\u00fc Yolu", "amenity": "restaurant", "building": "yes", "cuisine": "turkish;steak_house;fish;salad", "name": "Alt\u0131noluk Do\u011fa Restaurant", "phone": "+902663962204", "website": "https://www.altinolukdogarestaurant.com"}}, {"type": "way", "id": 1331565938, "nodes": [12320237259, 12320237260, 12320237261, 12320237262, 12320237259], "tags": {"amenity": "cafe", "building": "yes", "name": "On On Kafe Havran"}}]}