{"version": 0.6, "generator": "Overpass API 0.7.62.7 375dc00a", "osm3s": {"timestamp_osm_base": "2025-06-14T14:47:30Z", "copyright": "The data included in this document is from www.openstreetmap.org. The data is made available under ODbL."}, "elements": [{"type": "node", "id": 1429313862, "lat": 36.4365939, "lon": 25.3462787, "tags": {"amenity": "restaurant", "name": "Panorama"}}, {"type": "node", "id": 2243811027, "lat": 36.7098205, "lon": 25.294518, "tags": {"amenity": "restaurant", "cuisine": "seafood", "name": "Drakos Fish Taverna"}}, {"type": "node", "id": 2245738941, "lat": 36.7479301, "lon": 25.2925961}, {"type": "node", "id": 2245738945, "lat": 36.7479944, "lon": 25.2925011}, {"type": "node", "id": 2245738949, "lat": 36.7480454, "lon": 25.2927176}, {"type": "node", "id": 2245738956, "lat": 36.7481097, "lon": 25.2926226}, {"type": "node", "id": 2245739201, "lat": 36.7526104, "lon": 25.322351}, {"type": "node", "id": 2245739202, "lat": 36.7526427, "lon": 25.3224444}, {"type": "node", "id": 2245739204, "lat": 36.7526666, "lon": 25.3224425}, {"type": "node", "id": 2245739207, "lat": 36.7527026, "lon": 25.3225425}, {"type": "node", "id": 2245739209, "lat": 36.752709, "lon": 25.3222995}, {"type": "node", "id": 2245739210, "lat": 36.752721, "lon": 25.3223327}, {"type": "node", "id": 2245739211, "lat": 36.7527483, "lon": 25.3224287}, {"type": "node", "id": 2245739214, "lat": 36.7527676, "lon": 25.3223083}, {"type": "node", "id": 2245739215, "lat": 36.7527734, "lon": 25.3225018}, {"type": "node", "id": 2245739222, "lat": 36.7527961, "lon": 25.3224004}, {"type": "node", "id": 2471371133, "lat": 36.7156884, "lon": 25.2919773, "tags": {"amenity": "restaurant", "cuisine": "greek", "name": "Elpis Taverna", "wheelchair": "no"}}, {"type": "node", "id": 3027141686, "lat": 36.723318, "lon": 25.2728274, "tags": {"amenity": "restaurant", "name": "Vemezxo"}}, {"type": "node", "id": 3027141687, "lat": 36.7251424, "lon": 25.274004, "tags": {"amenity": "restaurant", "name": "Tropicana Cafe"}}, {"type": "node", "id": 3027141689, "lat": 36.7234361, "lon": 25.2728834, "tags": {"amenity": "restaurant", "name": "La Randa"}}, {"type": "node", "id": 3027141692, "lat": 36.723303, "lon": 25.2734458, "tags": {"addr:city": "Limani Iou", "addr:country": "GR", "addr:place": "Limani", "amenity": "restaurant", "contact:facebook": "Akrogiali_ios", "contact:instagram": "Akrogiali_ios", "contact:twitter": "Akrogialiios22", "cuisine": "fish;greek", "email": "akrogialiios22@gmail.com", "internet_access": "wlan", "name": "Akrogiali", "outdoor_seating": "yes", "phone": "+30 22860 91096", "seamark:small_craft_facility:category": "restaurant", "seamark:type": "small_craft_facility", "wheelchair": "yes"}}, {"type": "node", "id": 3027141697, "lat": 36.7261287, "lon": 25.2730072, "tags": {"amenity": "restaurant", "name": "Yialo Beach Bar"}}, {"type": "node", "id": 3029648656, "lat": 36.7247656, "lon": 25.2779475, "tags": {"amenity": "restaurant", "name": "Grandma's"}}, {"type": "node", "id": 3029648696, "lat": 36.7234505, "lon": 25.2838479, "tags": {"amenity": "restaurant", "name": "\u039f\u03b9 \u039c\u03cd\u03bb\u03bf\u03b9", "name:el": "\u039f\u03b9 \u039c\u03cd\u03bb\u03bf\u03b9", "name:en": "The Mills"}}, {"type": "node", "id": 3029648710, "lat": 36.7225347, "lon": 25.2820137, "tags": {"amenity": "restaurant", "name": "Ciao Bella"}}, {"type": "node", "id": 3050256130, "lat": 36.6283679, "lon": 24.9189841, "tags": {"amenity": "restaurant", "cuisine": "regional", "name": "\u03a3\u03c0\u03b9\u03c4\u03b9\u03ba\u03cc", "name:el": "\u03a3\u03c0\u03b9\u03c4\u03b9\u03ba\u03cc", "name:en": "Spitiko"}}, {"type": "node", "id": 3064985869, "lat": 36.7222038, "lon": 25.2816606, "tags": {"amenity": "restaurant", "name": "Lotus"}}, {"type": "node", "id": 3064985870, "lat": 36.72212, "lon": 25.2817049, "tags": {"amenity": "restaurant", "name": "Chilli Pepper"}}, {"type": "node", "id": 3064985875, "lat": 36.7218415, "lon": 25.2806643, "tags": {"amenity": "restaurant", "name": "La Buca"}}, {"type": "node", "id": 3064985876, "lat": 36.7226985, "lon": 25.2798195, "tags": {"amenity": "restaurant", "name": "Escape"}}, {"type": "node", "id": 3064994973, "lat": 36.7230731, "lon": 25.2742487, "tags": {"amenity": "restaurant", "name": "\u03a1\u03af\u03b3\u03b1\u03bd\u03b9 Meat Bar", "name:el": "\u03a1\u03af\u03b3\u03b1\u03bd\u03b9 Meat Bar", "name:en": "Rigani Meat Bar"}}, {"type": "node", "id": 3064994977, "lat": 36.7219634, "lon": 25.2738309, "tags": {"amenity": "restaurant", "name": "Enigma"}}, {"type": "node", "id": 3064994979, "lat": 36.7156409, "lon": 25.2930858, "tags": {"amenity": "restaurant", "name": "Salt"}}, {"type": "node", "id": 3069386286, "lat": 36.7239651, "lon": 25.2731181, "tags": {"amenity": "restaurant", "cuisine": "greek", "name": "Aphroditi", "phone": "+30 22860 91160"}}, {"type": "node", "id": 3086330032, "lat": 36.6278327, "lon": 24.9193074, "tags": {"amenity": "cafe", "name": "\u03a5\u03b4\u03c1\u03bf\u03c7\u03cc\u03bf\u03c2", "name:el": "\u03a5\u03b4\u03c1\u03bf\u03c7\u03cc\u03bf\u03c2"}}, {"type": "node", "id": 3087754357, "lat": 36.7251598, "lon": 25.2572821, "tags": {"amenity": "restaurant", "cuisine": "seafood", "name": "Koubara Seafood Restaurant", "opening_hours": "Mo-Su 10:00-00:00", "source": "bing"}}, {"type": "node", "id": 3089884523, "lat": 36.7228539, "lon": 25.2810954, "tags": {"amenity": "cafe", "name": "\u0397 \u039d\u03b9\u03cc\u03c2"}}, {"type": "node", "id": 3424027153, "lat": 36.6057335, "lon": 24.9518959}, {"type": "node", "id": 3424027154, "lat": 36.6056493, "lon": 24.9519343}, {"type": "node", "id": 3424027155, "lat": 36.6056557, "lon": 24.9519562}, {"type": "node", "id": 3424027156, "lat": 36.6056184, "lon": 24.9519732}, {"type": "node", "id": 3424027157, "lat": 36.6056265, "lon": 24.9520005}, {"type": "node", "id": 3424027160, "lat": 36.6056779, "lon": 24.9521088}, {"type": "node", "id": 3424027161, "lat": 36.6056672, "lon": 24.9520723}, {"type": "node", "id": 3424027162, "lat": 36.6057713, "lon": 24.9520249}, {"type": "node", "id": 3759762057, "lat": 36.6481233, "lon": 24.8685178, "tags": {"addr:city": "\u0386\u03bd\u03c9 \u039c\u03b5\u03c1\u03b9\u03ac", "addr:country": "GR", "addr:postcode": "84011", "amenity": "restaurant", "contact:phone": "+30 2286 041208", "cuisine": "greek", "name": "\u0397 \u03a3\u03c5\u03bd\u03ac\u03bd\u03c4\u03b7\u03c3\u03b7", "name:el": "\u0397 \u03a3\u03c5\u03bd\u03ac\u03bd\u03c4\u03b7\u03c3\u03b7", "name:en": "Sinadisi"}}, {"type": "node", "id": 3760338879, "lat": 36.628431, "lon": 24.9198273, "tags": {"amenity": "restaurant", "cuisine": "regional", "name": "\u0386\u03c1\u03b1\u03be\u03b5", "name:el": "\u0386\u03c1\u03b1\u03be\u03b5", "name:en": "Araxe"}}, {"type": "node", "id": 3760338882, "lat": 36.6280398, "lon": 24.9199606, "tags": {"amenity": "restaurant", "cuisine": "regional"}}, {"type": "node", "id": 3760338883, "lat": 36.6280729, "lon": 24.9190451, "tags": {"amenity": "restaurant", "cuisine": "regional"}}, {"type": "node", "id": 3760338887, "lat": 36.62821, "lon": 24.9190346, "tags": {"amenity": "cafe", "name": "\u039c\u03b9\u03ba\u03c1\u03cc", "name:el": "\u039c\u03b9\u03ba\u03c1\u03cc"}}, {"type": "node", "id": 3760338888, "lat": 36.6286085, "lon": 24.9206321, "tags": {"amenity": "restaurant", "cuisine": "regional", "name": "\u03a0\u03bf\u03cd\u03bd\u03c4\u03b1", "name:el": "\u03a0\u03bf\u03cd\u03bd\u03c4\u03b1"}}, {"type": "node", "id": 3761736937, "lat": 36.6056346, "lon": 24.9519658, "tags": {"entrance": "yes"}}, {"type": "node", "id": 3761736940, "lat": 36.6056605, "lon": 24.9521167}, {"type": "node", "id": 3761736943, "lat": 36.6056986, "lon": 24.952058, "tags": {"entrance": "yes"}}, {"type": "node", "id": 4217222844, "lat": 36.4341886, "lon": 25.3448486}, {"type": "node", "id": 4217222845, "lat": 36.4341898, "lon": 25.3447478}, {"type": "node", "id": 4217222847, "lat": 36.434218, "lon": 25.3448559}, {"type": "node", "id": 4217222848, "lat": 36.4342227, "lon": 25.3446813}, {"type": "node", "id": 4217222849, "lat": 36.4342274, "lon": 25.3448041}, {"type": "node", "id": 4217222850, "lat": 36.4342586, "lon": 25.3447515}, {"type": "node", "id": 4217222851, "lat": 36.4342603, "lon": 25.3448099}, {"type": "node", "id": 4217222852, "lat": 36.4342685, "lon": 25.3447135}, {"type": "node", "id": 4217222853, "lat": 36.4342703, "lon": 25.3447529}, {"type": "node", "id": 4875617357, "lat": 36.6308521, "lon": 24.8854868, "tags": {"amenity": "restaurant", "name": "Papalagi"}}, {"type": "node", "id": 4875731903, "lat": 36.6157317, "lon": 24.9484633, "tags": {"amenity": "restaurant", "name": "\u0391\u03ba\u03c1\u03bf\u03b3\u03b9\u03ac\u03bb\u03b9"}}, {"type": "node", "id": 4875820606, "lat": 36.6458642, "lon": 24.8778604, "tags": {"amenity": "restaurant", "name": "Flora & Mimis"}}, {"type": "node", "id": 4875820693, "lat": 36.6450882, "lon": 24.8791281, "tags": {"amenity": "restaurant", "name": "Windmills"}}, {"type": "node", "id": 4944161396, "lat": 36.6756321, "lon": 25.1432284, "tags": {"amenity": "restaurant", "name": "Meltemi", "name:el": "\u039c\u03b5\u03bb\u03c4\u03ad\u03bc\u03b9"}}, {"type": "node", "id": 4944471427, "lat": 36.6935346, "lon": 25.1655848}, {"type": "node", "id": 4944471428, "lat": 36.6936056, "lon": 25.1657001}, {"type": "node", "id": 4944471429, "lat": 36.6935733, "lon": 25.1657403}, {"type": "node", "id": 4944471430, "lat": 36.6935507, "lon": 25.1657175}, {"type": "node", "id": 4944471431, "lat": 36.6934883, "lon": 25.165794}, {"type": "node", "id": 4944471432, "lat": 36.6934541, "lon": 25.1657294}, {"type": "node", "id": 4944471433, "lat": 36.6934894, "lon": 25.1656894}, {"type": "node", "id": 4944471434, "lat": 36.6934647, "lon": 25.1656505}, {"type": "node", "id": 4987586322, "lat": 36.6479586, "lon": 24.8651316, "tags": {"amenity": "restaurant", "cuisine": "greek", "name": "To Iliovas\u00edlema", "name:el": "To Iliovas\u00edlema", "name:en": "The Sunset", "name:fr": "Le coucher de soleil"}}, {"type": "node", "id": 5001724477, "lat": 36.7531376, "lon": 25.3247378, "tags": {"amenity": "cafe", "name": "Oasis Ios"}}, {"type": "node", "id": 5773631953, "lat": 36.6962303, "lon": 25.11957, "tags": {"amenity": "restaurant", "name": "\u039a\u03bb\u03b7\u03bc\u03b1\u03c4\u03b1\u03c1\u03b9\u03ac", "name:el": "\u039a\u03bb\u03b7\u03bc\u03b1\u03c4\u03b1\u03c1\u03b9\u03ac", "name:en": "Klimataria"}}, {"type": "node", "id": 5773748853, "lat": 36.6961894, "lon": 25.1196146, "tags": {"amenity": "restaurant", "name": "\u03a4\u03bf \u03c3\u03c4\u03ad\u03ba\u03b9 \u03c4\u03bf\u03c5 \u0393\u03b1\u03c1\u03bc\u03c0\u03ae", "name:el": "\u03a4\u03bf \u03c3\u03c4\u03ad\u03ba\u03b9 \u03c4\u03bf\u03c5 \u0393\u03b1\u03c1\u03bc\u03c0\u03ae", "name:en": "To steki tou Garbi"}}, {"type": "node", "id": 5777312853, "lat": 36.696155, "lon": 25.1197471, "tags": {"amenity": "cafe", "internet_access": "wlan", "name": "\u0391\u03bd\u03ad\u03bc\u03b5\u03bb\u03bf", "name:el": "\u0391\u03bd\u03ad\u03bc\u03b5\u03bb\u03bf", "name:en": "Anemelo", "outdoor_seating": "yes", "phone": "2286051216"}}, {"type": "node", "id": 5803352370, "lat": 36.6757819, "lon": 25.1430652, "tags": {"amenity": "cafe", "name": "Marconi", "outdoor_seating": "yes"}}, {"type": "node", "id": 5864592885, "lat": 36.7243533, "lon": 25.2769052, "tags": {"amenity": "restaurant", "name:en": "The Pit Shop"}}, {"type": "node", "id": 5996356640, "lat": 36.696578, "lon": 25.1199756, "tags": {"amenity": "cafe", "name": "Kastro", "name:el": "\u039a\u03ac\u03c3\u03c4\u03c1\u03bf", "outdoor_seating": "yes"}}, {"type": "node", "id": 6508028506, "lat": 36.7219495, "lon": 25.2732017}, {"type": "node", "id": 6508028507, "lat": 36.7220434, "lon": 25.2731579}, {"type": "node", "id": 6508028508, "lat": 36.7220867, "lon": 25.2733022}, {"type": "node", "id": 6508028509, "lat": 36.7219928, "lon": 25.2733461}, {"type": "node", "id": 6515941285, "lat": 36.6280792, "lon": 24.919304, "tags": {"amenity": "restaurant", "name": "Chic", "name:el": "Chic Taverne"}}, {"type": "node", "id": 6596104485, "lat": 36.7249796, "lon": 25.2600675, "tags": {"amenity": "restaurant", "name": "Polydoros"}}, {"type": "node", "id": 6610837328, "lat": 36.7229904, "lon": 25.2831777, "tags": {"amenity": "restaurant", "name": "Sainis Taverna"}}, {"type": "node", "id": 6624475156, "lat": 36.7149185, "lon": 25.2909618}, {"type": "node", "id": 6624475157, "lat": 36.7148582, "lon": 25.291022}, {"type": "node", "id": 6624475158, "lat": 36.7148966, "lon": 25.2910817}, {"type": "node", "id": 6624475159, "lat": 36.7148717, "lon": 25.2911066}, {"type": "node", "id": 6624475160, "lat": 36.7149117, "lon": 25.291169}, {"type": "node", "id": 6624475161, "lat": 36.7149747, "lon": 25.2911061}, {"type": "node", "id": 6624475162, "lat": 36.7149398, "lon": 25.2910517}, {"type": "node", "id": 6624475163, "lat": 36.714962, "lon": 25.2910296}, {"type": "node", "id": 6776941590, "lat": 36.7355828, "lon": 25.3624317}, {"type": "node", "id": 6776941925, "lat": 36.7355472, "lon": 25.362456}, {"type": "node", "id": 6776941926, "lat": 36.7355749, "lon": 25.3625191}, {"type": "node", "id": 6776941927, "lat": 36.7355856, "lon": 25.3625119}, {"type": "node", "id": 6776941928, "lat": 36.7356561, "lon": 25.3626727}, {"type": "node", "id": 6776941929, "lat": 36.7357239, "lon": 25.3626264}, {"type": "node", "id": 6776941930, "lat": 36.7356422, "lon": 25.36244}, {"type": "node", "id": 6776941931, "lat": 36.7356148, "lon": 25.3624587}, {"type": "node", "id": 6776941932, "lat": 36.7355983, "lon": 25.3624211}, {"type": "node", "id": 6821211486, "lat": 36.6278939, "lon": 24.9192418, "tags": {"addr:city": "\u03a7\u03ce\u03c1\u03b1", "addr:postcode": "84011", "amenity": "restaurant", "cuisine": "greek", "int_name": "To Asygkrito", "name": "\u03a4\u03bf \u0391\u03c3\u03cd\u03b3\u03ba\u03c1\u03b9\u03c4\u03bf", "phone": "+30 2286041266"}}, {"type": "node", "id": 6821220436, "lat": 36.6307483, "lon": 24.8847961, "tags": {"amenity": "restaurant", "contact:facebook": "https://www.facebook.com/AgiosNikolaos.Taverna.Folegandros", "name": "Agios Nikolaos Taverna Folegandros", "outdoor_seating": "yes", "phone": "+30 694 340 2618"}}, {"type": "node", "id": 6821244050, "lat": 36.6267075, "lon": 24.9181372, "tags": {"addr:city": "\u03a7\u03ce\u03c1\u03b1", "amenity": "restaurant", "int_name": "Iviskos", "name": "\u0399\u03b2\u03af\u03c3\u03ba\u03bf\u03c2"}}, {"type": "node", "id": 6827373214, "lat": 36.6283232, "lon": 24.9197707, "tags": {"addr:city": "\u03a7\u03ce\u03c1\u03b1", "addr:postcode": "84011", "addr:street": "\u03a0\u03bb\u03b1\u03c4\u03b5\u03b9\u03b1 \u039a\u03bf\u03bd\u03c4\u03b1\u03c1\u03b9\u03bd\u03b7", "amenity": "restaurant", "int_name": "Ta Kouroupia", "name": "\u03a4\u03b1 \u039a\u03bf\u03c5\u03c1\u03bf\u03c5\u03c0\u03b9\u03b1"}}, {"type": "node", "id": 7804893085, "lat": 36.7228197, "lon": 25.2811591, "tags": {"amenity": "restaurant", "name": "Pithari"}}, {"type": "node", "id": 7877284001, "lat": 36.7157054, "lon": 25.292309, "tags": {"amenity": "restaurant", "cuisine": "greek;burger;brunch;sandwich", "name": "Cantina del Mar", "outdoor_seating": "yes"}}, {"type": "node", "id": 7877285251, "lat": 36.7149466, "lon": 25.2945469, "tags": {"amenity": "restaurant", "cuisine": "italian", "name": "Karma", "outdoor_seating": "yes"}}, {"type": "node", "id": 7877296963, "lat": 36.712544, "lon": 25.2961381, "tags": {"amenity": "restaurant", "cuisine": "greek", "indoor_seating": "no", "name": "Almyra", "outdoor_seating": "yes"}}, {"type": "node", "id": 7877299961, "lat": 36.715735, "lon": 25.2925203, "tags": {"amenity": "restaurant", "cuisine": "greek;cocktails", "description": "Menu said to be developped with a Michelin awarded chef", "facebook": "NostosSummerIos", "instagram": "@nostos_ios", "name": "Nostos Summer", "outdoor_seating": "yes", "phone": "+30 22860 91338", "wheelchair": "no"}}, {"type": "node", "id": 7877304182, "lat": 36.7156541, "lon": 25.2916506, "tags": {"amenity": "restaurant", "name": "Tomatini", "operator": "Ios Palace", "outdoor_seating": "yes"}}, {"type": "node", "id": 7961953585, "lat": 36.6284655, "lon": 24.9199599, "tags": {"amenity": "restaurant", "cuisine": "breakfast", "name:en": "Paragas", "website": "https://parasagas.gr/"}}, {"type": "node", "id": 8812405617, "lat": 36.6279521, "lon": 24.9195486, "tags": {"amenity": "restaurant", "name": "\u03c4\u03bf \u03c3\u03b9\u03ba"}}, {"type": "node", "id": 8814394917, "lat": 36.6313141, "lon": 24.8929454, "tags": {"amenity": "restaurant", "name:en": "Pasithea"}}, {"type": "node", "id": 8892255883, "lat": 36.643634, "lon": 24.8818073, "tags": {"amenity": "restaurant", "name": "\u039c\u03b1\u03c1\u03b1\u03b3\u03ba\u03bf\u03cd\u03b4\u03b9\u03ba\u03bf"}}, {"type": "node", "id": 9709509317, "lat": 36.7230679, "lon": 25.2818631, "tags": {"amenity": "restaurant", "cuisine": "greek;international", "name": "Lord Byron"}}, {"type": "node", "id": 10053676218, "lat": 36.6436023, "lon": 24.8818986, "tags": {"amenity": "restaurant"}}, {"type": "node", "id": 10090064423, "lat": 36.6280421, "lon": 24.9190044, "tags": {"amenity": "restaurant", "cuisine": "greek;seafood", "name:en": "Barbounaki"}}, {"type": "node", "id": 10090068118, "lat": 36.6266631, "lon": 24.9184738, "tags": {"amenity": "restaurant", "name:en": "Blue Cuisine"}}, {"type": "node", "id": 10090068119, "lat": 36.615834, "lon": 24.9492559, "tags": {"amenity": "cafe", "cuisine": "breakfast;coffee_shop;greek;seafood", "internet_access": "wlan", "name:en": "Dal Capo"}}, {"type": "node", "id": 10090068318, "lat": 36.6279062, "lon": 24.9197026, "tags": {"amenity": "restaurant", "cuisine": "greek", "internet_access": "wlan", "name:en": "Kritikos (The Cretan) Grill House"}}, {"type": "node", "id": 10090068319, "lat": 36.6284396, "lon": 24.920243, "tags": {"amenity": "cafe", "cuisine": "coffee_shop", "name": "\u039a\u03ac\u03c3\u03c4\u03c1\u03bf", "name:el": "\u039a\u03ac\u03c3\u03c4\u03c1\u03bf", "name:en": "Castro Cafe"}}, {"type": "node", "id": 10090068320, "lat": 36.6317404, "lon": 24.8942284, "tags": {"amenity": "cafe", "name:en": "Perigiali Cafe"}}, {"type": "node", "id": 10090068518, "lat": 36.6267176, "lon": 24.9201534, "tags": {"amenity": "restaurant", "cuisine": "greek;seafood", "name:en": "Zefiros Restaurant"}}, {"type": "node", "id": 10090068618, "lat": 36.628834, "lon": 24.9207866, "tags": {"amenity": "cafe", "cuisine": "breakfast;greek", "name": "\u0386\u03c1\u03c4\u03b5\u03bc\u03b9\u03c2", "name:el": "\u0386\u03c1\u03c4\u03b5\u03bc\u03b9\u03c2", "name:en": "Artemis"}}, {"type": "node", "id": 10090068619, "lat": 36.6156636, "lon": 24.9493216, "tags": {"amenity": "restaurant", "cuisine": "greek", "name:en": "Meltemi Restaurant Grill"}}, {"type": "node", "id": 10090069217, "lat": 36.6283774, "lon": 24.9201351, "tags": {"amenity": "cafe", "cuisine": "breakfast;greek", "name:en": "Nicolas' Place"}}, {"type": "node", "id": 10090069317, "lat": 36.6318608, "lon": 24.8943563, "tags": {"amenity": "cafe", "name:en": "Amoudaki Cafe"}}, {"type": "node", "id": 10091888020, "lat": 36.6284839, "lon": 24.9204079, "tags": {"amenity": "cafe", "name:en": "Prickly Pear"}}, {"type": "node", "id": 10120739117, "lat": 36.6313999, "lon": 24.8934852, "tags": {"amenity": "restaurant", "name": "Psaromiligkas", "name:fr": "O Psaromiligkas"}}, {"type": "node", "id": 11104420436, "lat": 36.7256897, "lon": 25.2736076, "tags": {"amenity": "restaurant", "cuisine": "greek", "name": "Coral Kitchen And Bar"}}, {"type": "node", "id": 11105650087, "lat": 36.7227877, "lon": 25.281818, "tags": {"air_conditioning": "no", "amenity": "restaurant", "cuisine": "italian", "delivery": "no", "email": "info@agosto.gr", "microbrewery": "no", "name": "Agosto", "outdoor_seating": "yes", "reservation": "yes", "website": "https://www.agosto.gr", "wheelchair": "no"}}, {"type": "node", "id": 11108205296, "lat": 36.7228434, "lon": 25.2785239, "tags": {"amenity": "restaurant", "name": "Garden Of Ios"}}, {"type": "node", "id": 11111381590, "lat": 36.7251601, "lon": 25.2571561}, {"type": "node", "id": 11111381591, "lat": 36.7252919, "lon": 25.2574815}, {"type": "node", "id": 11111381592, "lat": 36.7263215, "lon": 25.2566796}, {"type": "node", "id": 11111381593, "lat": 36.7259951, "lon": 25.2568483}, {"type": "node", "id": 11111381594, "lat": 36.7258399, "lon": 25.2565932}, {"type": "node", "id": 11111381595, "lat": 36.7262893, "lon": 25.256843}, {"type": "node", "id": 11111381596, "lat": 36.7250915, "lon": 25.2574037}, {"type": "node", "id": 11111381597, "lat": 36.7262405, "lon": 25.2568044}, {"type": "node", "id": 11111381598, "lat": 36.7260489, "lon": 25.256431}, {"type": "node", "id": 11111381599, "lat": 36.7262111, "lon": 25.2570312}, {"type": "node", "id": 11111381600, "lat": 36.7260107, "lon": 25.2562998}, {"type": "node", "id": 11111381601, "lat": 36.725881, "lon": 25.256637}, {"type": "node", "id": 11111381602, "lat": 36.7260338, "lon": 25.2567874}, {"type": "node", "id": 11111381603, "lat": 36.725364, "lon": 25.2572332}, {"type": "node", "id": 11112423779, "lat": 36.7234006, "lon": 25.2733366, "tags": {"amenity": "restaurant", "cuisine": "thai", "name": "Thai Me Up"}}, {"type": "node", "id": 11262980456, "lat": 36.6273055, "lon": 24.9188762, "tags": {"amenity": "restaurant", "name": "Eva's garden"}}, {"type": "node", "id": 11973573369, "lat": 36.7235885, "lon": 25.2828708, "tags": {"amenity": "restaurant", "cuisine": "greek", "name:en": "The Nest"}}, {"type": "node", "id": 12095139401, "lat": 36.6156957, "lon": 24.9484777, "tags": {"amenity": "restaurant", "name": "Syrma"}}, {"type": "node", "id": 12174476424, "lat": 36.6961952, "lon": 25.11979, "tags": {"amenity": "restaurant", "name": "Soulatso", "name:el": "\u03a3\u03bf\u03c5\u03bb\u03ac\u03c4\u03c3\u03bf"}}, {"type": "node", "id": 12174476425, "lat": 36.6953421, "lon": 25.1197817, "tags": {"amenity": "restaurant", "name": "\u039a\u03ac\u03c0\u03b1\u03c1\u03b7", "name:el": "\u039a\u03ac\u03c0\u03b1\u03c1\u03b7", "name:en": "Kapari"}}, {"type": "node", "id": 12174476426, "lat": 36.695886, "lon": 25.1195058, "tags": {"amenity": "cafe", "internet_access": "wlan", "name": "\u03a0\u03bb\u03b1\u03c4\u03b5\u03af\u03b1", "name:el": "\u03a0\u03bb\u03b1\u03c4\u03b5\u03af\u03b1", "name:en": "Plateia", "outdoor_seating": "yes"}}, {"type": "way", "id": 215156063, "nodes": [2245739209, 2245739210, 2245739214, 2245739222, 2245739211, 2245739215, 2245739207, 2245739204, 2245739202, 2245739201, 2245739209], "tags": {"amenity": "restaurant", "building": "yes", "cuisine": "greek", "name": "\u039a\u03bf\u03cd\u03ba\u03bf\u03c2"}}, {"type": "way", "id": 215156102, "nodes": [2245738945, 2245738956, 2245738949, 2245738941, 2245738945], "tags": {"addr:postcode": "84001", "amenity": "restaurant", "building": "yes", "capacity": "60", "cuisine": "greek", "delivery": "no", "name": "Vilaeti", "name:el": "\u0392\u03b9\u03bb\u03b1\u03ad\u03c4\u03b9", "name:en": "Vilaeti", "opening_hours": "14:00 - 00:00", "smoking": "outside", "takeaway": "no"}}, {"type": "way", "id": 335286499, "nodes": [3761736940, 3424027160, 3424027161, 3761736943, 3424027162, 3424027153, 3424027154, 3424027155, 3761736937, 3424027156, 3424027157, 3761736940], "tags": {"amenity": "restaurant", "building": "yes"}}, {"type": "way", "id": 421999261, "nodes": [4217222848, 4217222852, 4217222850, 4217222853, 4217222851, 4217222849, 4217222847, 4217222844, 4217222845, 4217222848], "tags": {"amenity": "restaurant", "building": "yes", "cuisine": "greek", "name": "\u0392\u03b5 \u039a\u03b1\u03bb\u03bf\u03c2", "outdoor_seating": "yes", "takeaway": "yes", "wheelchair": "no"}}, {"type": "way", "id": 504273351, "nodes": [4944471427, 4944471428, 4944471429, 4944471430, 4944471431, 4944471432, 4944471433, 4944471434, 4944471427], "tags": {"amenity": "restaurant", "building": "yes", "cuisine": "greek;seafood", "name": "\u0391\u03bb\u03bc\u03cd\u03c1\u03b1", "name:el": "\u0391\u03bb\u03bc\u03cd\u03c1\u03b1", "name:en": "Almira"}}, {"type": "way", "id": 693195899, "nodes": [6508028507, 6508028508, 6508028509, 6508028506, 6508028507], "tags": {"amenity": "restaurant", "building": "yes", "cuisine": "greek", "email": "alexandraios@gmail.com", "name": "The Octopus Tree", "outdoor_seating": "yes", "phone": "+30 6974 659838 Alex"}}, {"type": "way", "id": 705220577, "nodes": [6624475163, 6624475162, 6624475161, 6624475160, 6624475159, 6624475158, 6624475157, 6624475156, 6624475163], "tags": {"amenity": "restaurant", "building": "yes", "name": "Harmony"}}, {"type": "way", "id": 722480816, "nodes": [6776941932, 6776941931, 6776941930, 6776941929, 6776941928, 6776941927, 6776941926, 6776941925, 6776941590, 6776941932], "tags": {"amenity": "restaurant", "building": "yes", "name": "\u0391\u03bb\u03c9\u03bd\u03af\u03c3\u03c4\u03c1\u03b1"}}, {"type": "way", "id": 1197614534, "nodes": [11111381600, 11111381598, 11111381592, 11111381597, 11111381595, 11111381599, 11111381593, 11111381602, 11111381601, 11111381594, 11111381600], "tags": {"amenity": "restaurant", "building": "yes", "name": "EREGO Beach Club & Restaurant"}}, {"type": "way", "id": 1197614535, "nodes": [11111381590, 11111381603, 11111381591, 11111381596, 11111381590], "tags": {"amenity": "restaurant", "building": "yes"}}]}