{"version": 0.6, "generator": "Overpass API 0.7.62.7 375dc00a", "osm3s": {"timestamp_osm_base": "2025-06-14T15:14:02Z", "copyright": "The data included in this document is from www.openstreetmap.org. The data is made available under ODbL."}, "elements": [{"type": "node", "id": 1807828396, "lat": 40.9294544, "lon": 35.6469249, "tags": {"amenity": "cafe", "source": "bing"}}, {"type": "node", "id": 3058087797, "lat": 40.6521015, "lon": 35.8334438, "tags": {"amenity": "restaurant", "name": "\u00c7\u0131t\u0131r"}}, {"type": "node", "id": 5063372721, "lat": 40.8208401, "lon": 35.657361, "tags": {"addr:housenumber": "12", "addr:postcode": "05500", "addr:street": "Atat\u00fcrk Bulvar\u0131", "amenity": "restaurant", "cuisine": "cake;bagel;breakfast;coffee_shop;tea", "name": "Tutku Pastanesi"}}, {"type": "node", "id": 5278023790, "lat": 40.8139412, "lon": 35.6603553, "tags": {"amenity": "cafe", "name": "Bir Eyl\u00fcl Kafe"}}, {"type": "node", "id": 5325872820, "lat": 40.8260223, "lon": 35.639549, "tags": {"amenity": "cafe", "name": "Magosa Park B\u00fcfe"}}, {"type": "node", "id": 5356947723, "lat": 40.8399884, "lon": 35.6318231, "tags": {"amenity": "restaurant", "name": "Ak\u00e7aabat K\u00f6fte"}}, {"type": "node", "id": 5873481585, "lat": 40.6712833, "lon": 35.8324376, "tags": {"amenity": "restaurant", "name:en": "good"}}, {"type": "node", "id": 6373588285, "lat": 40.8283481, "lon": 35.6616617, "tags": {"amenity": "restaurant", "name": "Ye\u015fil Elma D\u00fc\u011f\u00fcn Salonu"}}, {"type": "node", "id": 6571258316, "lat": 40.8324728, "lon": 35.6614769, "tags": {"amenity": "restaurant", "name": "Royal D\u00fc\u011f\u00fcn Salonu"}}, {"type": "node", "id": 9026119318, "lat": 40.6576844, "lon": 35.8272553, "tags": {"amenity": "cafe", "name": "Kale Park\u0131n", "phone": "03582127373"}}, {"type": "node", "id": 9862517327, "lat": 40.6521386, "lon": 35.8301371, "tags": {"addr:housenumber": "3", "addr:street": "Hatuniye Mahallesi Hazeranlar Sokak", "amenity": "restaurant", "name": "Amayseia Mutfa\u011fi", "opening_hours": "Mo-Su 07:00-23:00", "phone": "+903582182223"}}, {"type": "node", "id": 10092212854, "lat": 40.6656263, "lon": 35.831043, "tags": {"amenity": "cafe", "name": "K\u00f6fteci \u00c7avu\u015f"}}, {"type": "node", "id": 10092337962, "lat": 40.653642, "lon": 35.810721, "tags": {"amenity": "restaurant", "name": "Stad Balik\u00e7ilik"}}, {"type": "node", "id": 10092386231, "lat": 40.651146, "lon": 35.8066163, "tags": {"amenity": "restaurant", "name": "Midyeci Hakan"}}, {"type": "node", "id": 10092386233, "lat": 40.6514222, "lon": 35.8062764, "tags": {"amenity": "cafe"}}, {"type": "node", "id": 10098056178, "lat": 40.9416331, "lon": 35.6585368, "tags": {"addr:city": "Samsun", "addr:district": "Havza", "addr:housenumber": "209B", "addr:neighbourhood": "G\u00f6\u00e7menler Mahallesi", "addr:street": "Ankara Asfalt\u0131 Soka\u011f\u0131", "amenity": "restaurant", "branch": "Samsun Havza", "brand": "K\u00f6fteci Yusuf", "brand:wikidata": "Q126125081", "cuisine": "turkish", "name": "K\u00f6fteci Yusuf", "opening_hours": "Mo-Su 07:00-00:00"}}, {"type": "node", "id": 10098496880, "lat": 40.8457817, "lon": 35.6300488, "tags": {"amenity": "cafe", "name": "Gaziantep Sofras\u0131"}}, {"type": "node", "id": 10098496941, "lat": 40.8393322, "lon": 35.6349232, "tags": {"amenity": "restaurant", "name": "\u00c7orbac\u0131m"}}, {"type": "node", "id": 10100954401, "lat": 40.6556857, "lon": 35.7946183, "tags": {"amenity": "cafe", "name": "Amasya \u015feyhcui"}}, {"type": "node", "id": 10100961323, "lat": 40.6452614, "lon": 35.8110346, "tags": {"amenity": "cafe", "name": "B\u00c7 D\u00fc\u011f\u00fcn Salonu"}}, {"type": "node", "id": 10100961329, "lat": 40.6487369, "lon": 35.8084774, "tags": {"amenity": "cafe", "name": "G\u00fczide Pide Salonu"}}, {"type": "node", "id": 10102255593, "lat": 40.6683274, "lon": 35.845981, "tags": {"amenity": "restaurant", "name": "Elit Otelhan"}}, {"type": "node", "id": 10102255651, "lat": 40.6676948, "lon": 35.8435872, "tags": {"amenity": "cafe", "name": "Sar\u0131 K\u00f6\u015fk"}}, {"type": "node", "id": 10102255657, "lat": 40.6665097, "lon": 35.8429526, "tags": {"amenity": "restaurant", "name": "Botanikpark"}}, {"type": "node", "id": 10102255665, "lat": 40.6670868, "lon": 35.848887, "tags": {"amenity": "cafe", "name": "1 inci et d\u00f6ner"}}, {"type": "node", "id": 10102255730, "lat": 40.6616866, "lon": 35.8414764, "tags": {"amenity": "cafe", "name": "Komagene"}}, {"type": "node", "id": 10102255731, "lat": 40.6615602, "lon": 35.8388417, "tags": {"amenity": "cafe", "name": "Seval Aile \u00c7ay Bah\u00e7esi"}}, {"type": "node", "id": 10102255763, "lat": 40.6554804, "lon": 35.8354658, "tags": {"amenity": "cafe"}}, {"type": "node", "id": 10102255767, "lat": 40.6548631, "lon": 35.8358864, "tags": {"amenity": "cafe", "cuisine": "regional"}}, {"type": "node", "id": 10102255833, "lat": 40.652525, "lon": 35.8310396, "tags": {"amenity": "cafe", "name": "Muhabbet Meyhanesi"}}, {"type": "node", "id": 10102334516, "lat": 40.6125747, "lon": 35.8126164, "tags": {"amenity": "restaurant", "name": "Ko\u00e7ak Ekmek"}}, {"type": "node", "id": 10102334558, "lat": 40.618857, "lon": 35.8104438, "tags": {"amenity": "restaurant", "name": "\u00c7a\u011flayan Park Restaurant Mesire"}}, {"type": "node", "id": 10102334628, "lat": 40.6082539, "lon": 35.8117584, "tags": {"amenity": "cafe", "check_date": "2023-06-15", "name": "Ye\u015filev", "opening_hours": "Mo-Fr 06:00-19:00"}}, {"type": "node", "id": 10102335202, "lat": 40.5595613, "lon": 35.799387, "tags": {"amenity": "cafe"}}, {"type": "node", "id": 10106403987, "lat": 40.8243707, "lon": 35.6366573, "tags": {"amenity": "cafe", "name": "Terminal Ocakba\u015f\u0131 Lokantas\u0131"}}, {"type": "node", "id": 10106404000, "lat": 40.8058201, "lon": 35.6596059, "tags": {"amenity": "cafe", "name": "Ko\u00e7 Aspava"}}, {"type": "node", "id": 10114109874, "lat": 40.9117576, "lon": 35.8950727, "tags": {"amenity": "restaurant", "name": "Pa\u015fa Restaurant &Pide"}}, {"type": "node", "id": 10538805609, "lat": 40.6507143, "lon": 35.821234, "tags": {"amenity": "restaurant", "name": "Amasya Park AVM"}}, {"type": "node", "id": 11046267220, "lat": 40.6472448, "lon": 35.8205411, "tags": {"amenity": "restaurant", "name": "Pera Cafe Bistro"}}, {"type": "node", "id": 12471281398, "lat": 40.650715, "lon": 35.8188824}, {"type": "node", "id": 12471281399, "lat": 40.6507432, "lon": 35.8192212}, {"type": "node", "id": 12471281400, "lat": 40.6506189, "lon": 35.8192392}, {"type": "node", "id": 12471305801, "lat": 40.6505907, "lon": 35.8189004}, {"type": "node", "id": 12538800478, "lat": 40.6510603, "lon": 35.8294776, "tags": {"addr:city": "Amasya", "addr:district": "Merkez", "addr:housenumber": "41", "addr:neighbourhood": "Y\u00fczevler", "addr:street": "Ziya Pa\u015fa Bulvar\u0131", "amenity": "cafe", "name": "No 41 Cafe"}}, {"type": "node", "id": 12538800479, "lat": 40.6511198, "lon": 35.8298117, "tags": {"amenity": "restaurant", "cuisine": "turkish"}}, {"type": "node", "id": 12538800480, "lat": 40.6511563, "lon": 35.8299399, "tags": {"amenity": "cafe", "name": "Teras Cafe"}}, {"type": "node", "id": 12544285014, "lat": 40.6540979, "lon": 35.8361578}, {"type": "node", "id": 12544285015, "lat": 40.6541145, "lon": 35.836089}, {"type": "node", "id": 12544285016, "lat": 40.6539578, "lon": 35.8360237}, {"type": "node", "id": 12544285017, "lat": 40.6539413, "lon": 35.8360924}, {"type": "node", "id": 12544285018, "lat": 40.6540484, "lon": 35.8360615, "tags": {"addr:city": "Amasya", "addr:district": "Merkez", "addr:housenumber": "4A", "addr:neighbourhood": "Pirin\u00e7\u00e7i", "addr:postcode": "05200", "addr:street": "Habibi Sokak"}}, {"type": "node", "id": 12544285020, "lat": 40.6542714, "lon": 35.8349198}, {"type": "node", "id": 12544285021, "lat": 40.6541507, "lon": 35.8348867}, {"type": "node", "id": 12544285022, "lat": 40.6541391, "lon": 35.8349541}, {"type": "node", "id": 12544285023, "lat": 40.6542627, "lon": 35.8349847}, {"type": "node", "id": 12569273914, "lat": 40.6572226, "lon": 35.8363345}, {"type": "node", "id": 12569273915, "lat": 40.6572547, "lon": 35.8362592}, {"type": "node", "id": 12569273916, "lat": 40.6571322, "lon": 35.8361683}, {"type": "node", "id": 12569273917, "lat": 40.6571001, "lon": 35.8362436}, {"type": "node", "id": 12569273937, "lat": 40.6571951, "lon": 35.836215, "tags": {"addr:city": "Amasya", "addr:district": "Merkez", "addr:housenumber": "68", "addr:neighbourhood": "Beyaz\u0131tpa\u015fa", "addr:postcode": "05200", "addr:street": "Mehmet Pa\u015fa Caddesi"}}, {"type": "node", "id": 12846973797, "lat": 40.6636162, "lon": 35.8524818, "tags": {"addr:city": "Amasya", "addr:district": "Merkez", "addr:housenumber": "39/A", "addr:neighbourhood": "Kirazl\u0131dere", "addr:postcode": "05100", "addr:street": "Misket Sokak", "amenity": "cafe", "name": "Esentepe \u00c7aml\u0131k Cafe"}}, {"type": "way", "id": 1348249146, "nodes": [12471281398, 12471281399, 12471281400, 12471305801, 12471281398], "tags": {"addr:city": "Amasya", "addr:district": "Merkez", "addr:housenumber": "19A", "addr:neighbourhood": "Hac\u0131 \u0130lyas", "addr:street": "H\u00fcseyin Nihal Ats\u0131z Caddesi", "amenity": "restaurant", "building": "yes", "building:levels": "2", "name": "Tabure"}}, {"type": "way", "id": 1355434340, "nodes": [12544285014, 12544285015, 12544285018, 12544285016, 12544285017, 12544285014], "tags": {"amenity": "cafe", "building": "yes", "building:levels": "1", "name": "Kitap Kafe"}}, {"type": "way", "id": 1355434341, "nodes": [12544285020, 12544285021, 12544285022, 12544285023, 12544285020], "tags": {"amenity": "cafe", "building": "yes", "name": "\u0130skele Kafe"}}, {"type": "way", "id": 1358183596, "nodes": [12569273914, 12569273915, 12569273937, 12569273916, 12569273917, 12569273914], "tags": {"addr:city": "Amasya", "addr:district": "Merkez", "addr:housenumber": "68", "addr:neighbourhood": "Beyaz\u0131tpa\u015fa", "addr:postcode": "05200", "addr:street": "Mehmet Pa\u015fa Caddesi", "amenity": "cafe", "building": "yes", "building:levels": "1", "name": "Konak Kafe Restaurant"}}]}