{"version": 0.6, "generator": "Overpass API 0.7.62.7 375dc00a", "osm3s": {"timestamp_osm_base": "2025-06-14T19:20:32Z", "copyright": "The data included in this document is from www.openstreetmap.org. The data is made available under ODbL."}, "elements": [{"type": "node", "id": 660100527, "lat": 41.4046882, "lon": 2.1967694, "tags": {"amenity": "cafe", "cuisine": "spanish", "name": "Rambla Poblenou", "shop": "optician"}}, {"type": "node", "id": 660100529, "lat": 41.404858, "lon": 2.1941868, "tags": {"amenity": "cafe", "indoor_seating": "yes", "name": "El Fornet", "outdoor_seating": "yes", "website": "https://elfornet.com/es/"}}, {"type": "node", "id": 660771772, "lat": 41.4035018, "lon": 2.1977649, "tags": {"addr:housenumber": "117", "addr:postcode": "08018", "addr:street": "Rambla del Poblenou", "amenity": "fast_food", "cuisine": "chicken", "name": "Apluma", "website": "https://www.apluma.com/"}}, {"type": "node", "id": 660778771, "lat": 41.4029, "lon": 2.1986522, "tags": {"addr:housenumber": "105", "addr:street": "Rambla del Poblenou", "amenity": "restaurant", "cuisine": "spanish", "indoor_seating": "yes", "name": "braseria xorus", "outdoor_seating": "yes"}}, {"type": "node", "id": 660784487, "lat": 41.4027269, "lon": 2.1989008, "tags": {"amenity": "restaurant", "check_date": "2023-12-25", "name": "La broqueta"}}, {"type": "node", "id": 830462039, "lat": 41.4043015, "lon": 2.1949428, "tags": {"amenity": "cafe", "name": "Bar Restaurant Angela", "outdoor_seating": "yes", "smoking": "outside"}}, {"type": "node", "id": 1356119783, "lat": 41.3994633, "lon": 2.2069665}, {"type": "node", "id": 2065469521, "lat": 41.4035591, "lon": 2.2028602, "tags": {"amenity": "cafe", "name": "El Forn del Metro"}}, {"type": "node", "id": 2075453725, "lat": 41.4012569, "lon": 2.1966826, "tags": {"addr:housenumber": "92", "addr:street": "Carrer Roc Boronat", "amenity": "restaurant", "cuisine": "spanish", "name": "La Mossegada del Poblenou", "smoking": "outside", "toilets:wheelchair": "no", "wheelchair": "limited"}}, {"type": "node", "id": 2085656651, "lat": 41.4027075, "lon": 2.1977649, "tags": {"addr:city": "Barcelona", "addr:housenumber": "178", "addr:postcode": "08005", "addr:street": "Carrer de Pere IV", "amenity": "restaurant", "cuisine": "japanese", "name": "Arce", "phone": "+34 93 309 86 75"}}, {"type": "node", "id": 2187257123, "lat": 41.4047259, "lon": 2.1943414, "tags": {"amenity": "bar", "name": "24 mm"}}, {"type": "node", "id": 2192226738, "lat": 41.403492, "lon": 2.1960854, "tags": {"amenity": "restaurant", "cuisine": "pizza", "name": "Portobello"}}, {"type": "node", "id": 2193095318, "lat": 41.4043344, "lon": 2.1967134, "tags": {"amenity": "restaurant", "name": "Can Pizza", "name:ca": "Can Pizza"}}, {"type": "node", "id": 2193095338, "lat": 41.40326, "lon": 2.1985353, "tags": {"addr:housenumber": "118", "addr:street": "Rambla de Poblenou", "amenity": "bar", "name": "Beercelona bar"}}, {"type": "node", "id": 2193095377, "lat": 41.4049762, "lon": 2.1976093, "tags": {"amenity": "cafe", "cuisine": "coffee_shop", "name": "Sant Mart\u00ed", "name:ca": "Sant Mart\u00ed"}}, {"type": "node", "id": 2193095391, "lat": 41.4036263, "lon": 2.1981913, "tags": {"amenity": "restaurant", "cuisine": "sandwich", "name": "Espress a T\u00e9"}}, {"type": "node", "id": 2193095414, "lat": 41.402733, "lon": 2.1969736, "tags": {"addr:city": "Barcelona", "addr:street": "Carrer de la Llacuna", "amenity": "restaurant", "cuisine": "spanish", "name": "Braseria Julian"}}, {"type": "node", "id": 2193095435, "lat": 41.4026626, "lon": 2.1971936, "tags": {"addr:city": "Barcelona", "amenity": "restaurant", "check_date": "2025-02-24", "cuisine": "spanish", "name": "Llacuna", "name:ca": "Llacuna"}}, {"type": "node", "id": 2193095440, "lat": 41.4027631, "lon": 2.1988499, "tags": {"addr:housenumber": "103", "addr:street": "Ramble de Poblenou", "amenity": "restaurant"}}, {"type": "node", "id": 2193389549, "lat": 41.4021933, "lon": 2.1993724, "tags": {"amenity": "restaurant", "name": "L'altre Romero"}}, {"type": "node", "id": 2193391405, "lat": 41.4045879, "lon": 2.1958203, "tags": {"amenity": "restaurant", "cuisine": "sushi", "name": "3E sushi"}}, {"type": "node", "id": 2193415475, "lat": 41.4034953, "lon": 2.1962008, "tags": {"amenity": "restaurant", "cuisine": "spanish", "name": "L'Enxaneta"}}, {"type": "node", "id": 2197824500, "lat": 41.4016702, "lon": 2.2016399, "tags": {"amenity": "restaurant", "indoor_seating": "yes", "name": "Tierra del fuego", "outdoor_seating": "no"}}, {"type": "node", "id": 2268659507, "lat": 41.3926063, "lon": 2.2037697, "tags": {"addr:city": "Barcelona", "addr:postcode": "08005", "amenity": "fast_food", "brand": "McDonald's", "brand:wikidata": "Q38076", "brand:wikipedia": "es:McDonald's", "cuisine": "burger", "diet:gluten_free": "yes", "name": "McDonald's", "name:ca": "McDonald's", "takeaway": "yes"}}, {"type": "node", "id": 2268684579, "lat": 41.3923752, "lon": 2.2046628}, {"type": "node", "id": 2268684582, "lat": 41.392393, "lon": 2.204605}, {"type": "node", "id": 2268684586, "lat": 41.3924002, "lon": 2.2046112}, {"type": "node", "id": 2268684590, "lat": 41.3924441, "lon": 2.2045173}, {"type": "node", "id": 2268684600, "lat": 41.3925583, "lon": 2.2048205}, {"type": "node", "id": 2268684609, "lat": 41.3925806, "lon": 2.2047744}, {"type": "node", "id": 2268684613, "lat": 41.3926088, "lon": 2.2047987}, {"type": "node", "id": 2268684653, "lat": 41.3944695, "lon": 2.2061941}, {"type": "node", "id": 2268684659, "lat": 41.394543, "lon": 2.2060818}, {"type": "node", "id": 2268684662, "lat": 41.3945995, "lon": 2.2063455}, {"type": "node", "id": 2268684664, "lat": 41.3946121, "lon": 2.2063263}, {"type": "node", "id": 2268684665, "lat": 41.3946469, "lon": 2.2063667}, {"type": "node", "id": 2268684668, "lat": 41.3946593, "lon": 2.2063478}, {"type": "node", "id": 2268684670, "lat": 41.3946839, "lon": 2.2063765}, {"type": "node", "id": 2400689820, "lat": 41.4006365, "lon": 2.1961225, "tags": {"addr:city": "Barcelona", "addr:housenumber": "132", "addr:postcode": "08005", "addr:street": "Carrer de Pere IV", "amenity": "restaurant", "name": "El Pati", "smoking": "outside"}}, {"type": "node", "id": 2703829256, "lat": 41.4007421, "lon": 2.1991334, "tags": {"addr:city": "Barcelona", "addr:housenumber": "155", "addr:postcode": "08005", "addr:street": "Carrer de Pujades", "amenity": "cafe", "cuisine": "regional", "name": "Bon Gust", "toilets:wheelchair": "no", "wheelchair": "yes"}}, {"type": "node", "id": 2891634433, "lat": 41.4032135, "lon": 2.2024332, "tags": {"addr:city": "Barcelona", "addr:housenumber": "207", "addr:postcode": "08005", "addr:street": "Carrer de Pujades", "amenity": "restaurant", "cuisine": "indian", "name": "Nice Spice", "phone": "+34 933 08 95 48", "smoking": "outside", "website": "http://www.restaurantenicespice.com"}}, {"type": "node", "id": 2915567416, "lat": 41.4032756, "lon": 2.2025154, "tags": {"addr:city": "Barcelona", "addr:housenumber": "209", "addr:postcode": "08005", "addr:street": "Carrer de Pujades", "amenity": "restaurant", "cuisine": "italian", "name": "Marea", "name:ca": "Marea"}}, {"type": "node", "id": 2918936192, "lat": 41.4035872, "lon": 2.2033968, "tags": {"amenity": "bar", "name": "Bar Restaurant Vendrell"}}, {"type": "node", "id": 2919000428, "lat": 41.4037406, "lon": 2.2032408, "tags": {"addr:housenumber": "221, 223", "addr:postcode": "08005", "addr:street": "Carrer de Pujades", "amenity": "cafe", "name": "Bar Tr\u00e9bol", "name:ca": "Bar Tr\u00e9bol"}}, {"type": "node", "id": 2919000429, "lat": 41.4037907, "lon": 2.2033082, "tags": {"addr:housenumber": "221, 223", "addr:postcode": "08005", "addr:street": "Carrer de Pujades", "amenity": "restaurant", "cuisine": "barbecue", "delivery": "yes", "name": "Menjarb\u00e9", "name:ca": "Menjab\u00e9", "takeaway": "only"}}, {"type": "node", "id": 2919002462, "lat": 41.4038148, "lon": 2.2033407, "tags": {"addr:housenumber": "225", "addr:postcode": "08005", "addr:street": "Carrer de Pujades", "amenity": "restaurant", "name": "FOODIES", "name:ca": "Nou Xupito"}}, {"type": "node", "id": 2921806501, "lat": 41.4011887, "lon": 2.1998376, "tags": {"addr:city": "Barcelona", "addr:housenumber": "161", "addr:street": "Carrer de Pujades", "amenity": "restaurant", "name": "Spoon factory"}}, {"type": "node", "id": 2966340931, "lat": 41.4022886, "lon": 2.1998883, "tags": {"addr:housenumber": "100", "addr:street": "Rambla del Poblenou", "amenity": "bar", "indoor_seating": "yes", "name": "El Capritx", "outdoor_seating": "yes"}}, {"type": "node", "id": 2975013896, "lat": 41.4008443, "lon": 2.2013842, "tags": {"amenity": "cafe", "name": "la buena vida"}}, {"type": "node", "id": 2975024874, "lat": 41.3992962, "lon": 2.2037652, "tags": {"amenity": "bar"}}, {"type": "node", "id": 3023964339, "lat": 41.4007199, "lon": 2.1997229, "tags": {"addr:city": "Barcelona", "addr:housenumber": "168", "addr:postcode": "08005", "addr:street": "Carrer de Pujades", "amenity": "fast_food", "branch": "Poblenou", "contact:phone": "+34933285188", "cuisine": "burger", "name": "Timesburg", "smoking": "outside", "website": "https://www.timesburg.com/"}}, {"type": "node", "id": 3048076438, "lat": 41.4004427, "lon": 2.2022947, "tags": {"addr:city": "Barcelona", "addr:housenumber": "58", "addr:postcode": "08005", "addr:street": "Rambla del Poblenou", "amenity": "bar", "check_date": "2024-05-09", "contact:facebook": "https://m.facebook.com/el58poblenou", "cuisine": "tapas", "name": "le cinquante huit", "name:ca": "El 58", "smoking": "no"}}, {"type": "node", "id": 3048076940, "lat": 41.4009194, "lon": 2.2037905, "tags": {"addr:city": "Barcelona", "addr:housenumber": "99", "addr:street": "Carrer de Mari\u00e0 Aguil\u00f3", "amenity": "bar", "name": "Ideal", "smoking": "no", "toilets:wheelchair": "no", "wheelchair": "limited"}}, {"type": "node", "id": 3048077142, "lat": 41.3997067, "lon": 2.2032276, "tags": {"addr:city": "Barcelona", "addr:housenumber": "42", "addr:street": "Rambla del Poblenou", "air_conditioning": "yes", "amenity": "restaurant", "contact:instagram": "restaurantalianca", "indoor_seating": "yes", "internet_access": "wlan", "name": "L'Alian\u00e7a del Poblenou", "name:ca": "L'Alian\u00e7a del Poblenou", "opening_hours": "PH,Mo-Su 08:00-24:00", "outdoor_seating": "yes", "smoking": "outside", "wikidata": "Q8195560", "wikimedia_commons": "Category:Casino l'Alian\u00e7a del Poblenou", "wikipedia": "ca:Alian\u00e7a del Poblenou"}}, {"type": "node", "id": 3048078145, "lat": 41.3998443, "lon": 2.2054629, "tags": {"amenity": "bar", "check_date": "2023-05-06", "name": "La pubilla del Taulat"}}, {"type": "node", "id": 3048079634, "lat": 41.4024271, "lon": 2.199798, "tags": {"amenity": "restaurant", "check_date": "2023-12-25", "name": "Recasens", "smoking": "no"}}, {"type": "node", "id": 3058138017, "lat": 41.3979154, "lon": 2.2006807, "tags": {"addr:city": "Barcelona", "addr:housenumber": "180", "addr:postcode": "08005", "addr:street": "Carrer de Ram\u00f3n Turr\u00f3", "amenity": "restaurant", "cuisine": "burger", "name": "Hoppinness", "wheelchair": "limited"}}, {"type": "node", "id": 3058169648, "lat": 41.3973403, "lon": 2.1997469, "tags": {"amenity": "restaurant", "name": "Ivan"}}, {"type": "node", "id": 3058169649, "lat": 41.397535, "lon": 2.199655, "tags": {"amenity": "cafe", "name": "Granja", "name:ca": "Granja"}}, {"type": "node", "id": 3170567825, "lat": 41.3975779, "lon": 2.2023219, "tags": {"addr:city": "Barcelona", "addr:housenumber": "192", "addr:postcode": "08005", "addr:street": "Carrer del Doctor Trueta", "amenity": "cafe", "name": "Barcelona Culture World", "phone": "+34 647 756 384", "website": "http://bcw.es/"}}, {"type": "node", "id": 3350102469, "lat": 41.392498, "lon": 2.2046843, "tags": {"addr:housenumber": "40", "addr:street": "Passeig Mar\u00edtim del Bogatell", "amenity": "restaurant", "cuisine": "seafood", "name": "L'Escamarla", "operator": "Grupo Happy", "phone": "+34 932 211 366", "website": "https://happy.es/"}}, {"type": "node", "id": 3608776243, "lat": 41.4065498, "lon": 2.2032262, "tags": {"amenity": "bar", "name": "Jaume's"}}, {"type": "node", "id": 3880778777, "lat": 41.4006708, "lon": 2.2062985, "tags": {"addr:housenumber": "11", "addr:street": "Carrer de Bilbao", "amenity": "restaurant", "cuisine": "pizza", "designation": "Local de comida argentina. (Empanadas y pizza)", "name": "Mondo Argento", "name:ca": "F&F Fast food", "name:en": "F&F Fast food", "name:es": "F&F Fast food"}}, {"type": "node", "id": 3938788744, "lat": 41.3959987, "lon": 2.1990598, "tags": {"addr:city": "Barcelona", "addr:housenumber": "36", "addr:postcode": "08005", "addr:street": "Carrer de Badajoz", "amenity": "restaurant", "check_date": "2025-01-31", "name": "Bodega Marieta", "name:ca": "Can Bigotis"}}, {"type": "node", "id": 3940580367, "lat": 41.3953485, "lon": 2.1994374, "tags": {"addr:city": "Barcelona", "addr:housenumber": "23", "addr:postcode": "08005", "addr:street": "Carrer de Badajoz", "amenity": "restaurant", "name": "Bar Restaurant SAVIGOVI"}}, {"type": "node", "id": 3940588323, "lat": 41.3974371, "lon": 2.1990673, "tags": {"addr:city": "Barcelona", "addr:housenumber": "33", "addr:postcode": "08005", "addr:street": "Carrer Ciutat de Granada", "amenity": "restaurant", "name": "Rac\u00f3 de la Vila", "name:ca": "Rac\u00f3 de la Vila"}}, {"type": "node", "id": 3948138345, "lat": 41.3948938, "lon": 2.2009561, "tags": {"addr:city": "Barcelona", "addr:postcode": "08005", "amenity": "restaurant", "name": "La Bona Cuina"}}, {"type": "node", "id": 3954272082, "lat": 41.3948671, "lon": 2.2005669, "tags": {"addr:city": "Barcelona", "addr:postcode": "08005", "addr:street": "Carrer de Badajoz", "amenity": "fast_food", "name": "Frankfurt Tito Paco"}}, {"type": "node", "id": 3955968257, "lat": 41.3986109, "lon": 2.1978895, "tags": {"addr:city": "Barcelona", "addr:housenumber": "54", "addr:postcode": "08005", "addr:street": "Carrer Ciutat de Granada", "amenity": "restaurant", "cuisine": "sandwich", "indoor_seating": "yes", "name": "El rac\u00f3 de les Gl\u00f2ries", "opening_hours": "Mo-Fr 06:30-23:00; Sa, Su 08:00-23:00", "outdoor_seating": "yes"}}, {"type": "node", "id": 3957491156, "lat": 41.3955044, "lon": 2.1997211, "tags": {"addr:city": "Barcelona", "addr:housenumber": "28", "addr:postcode": "08005", "addr:street": "Carrer de Badajoz", "amenity": "restaurant", "name": "Restaurante Los Mart\u00ednez"}}, {"type": "node", "id": 3959362811, "lat": 41.3947968, "lon": 2.2007641, "tags": {"addr:city": "Barcelona", "addr:postcode": "08005", "amenity": "restaurant", "name": "El Santet"}}, {"type": "node", "id": 3962556129, "lat": 41.3995952, "lon": 2.2029522, "tags": {"addr:city": "Barcelona", "addr:postcode": "08005", "addr:street": "Rambla del Poblenou", "amenity": "fast_food", "check_date": "2023-12-25", "cuisine": "burger", "name": "El Pibe"}}, {"type": "node", "id": 4042474702, "lat": 41.4034227, "lon": 2.19997, "tags": {"amenity": "restaurant", "name": "El Timbal", "wheelchair": "no"}}, {"type": "node", "id": 4060217594, "lat": 41.3993348, "lon": 2.1997769, "tags": {"addr:city": "Barcelona", "addr:housenumber": "147", "addr:postcode": "08005", "addr:street": "Carrer de Llull", "amenity": "restaurant", "cuisine": "mexican", "email": "info@mattandmarshall.es", "indoor_seating": "yes", "name": "Matt & Marshall", "outdoor_seating": "no", "phone": "9311817800", "website": "https://www.mattandmarshall.es/"}}, {"type": "node", "id": 4140597630, "lat": 41.3952691, "lon": 2.2042033}, {"type": "node", "id": 4140597631, "lat": 41.3952908, "lon": 2.2042255}, {"type": "node", "id": 4140597632, "lat": 41.3952837, "lon": 2.2042378}, {"type": "node", "id": 4140597633, "lat": 41.3953463, "lon": 2.2043017}, {"type": "node", "id": 4140597634, "lat": 41.3953693, "lon": 2.2042616}, {"type": "node", "id": 4254743609, "lat": 41.4013499, "lon": 2.2010764, "tags": {"addr:housenumber": "78", "addr:postcode": "08005", "addr:street": "Rambla del Poblenou", "amenity": "restaurant", "cuisine": "regional", "name": "Caliu del Poblenou", "name:ca": "Caliu del Poblenou"}}, {"type": "node", "id": 4374244822, "lat": 41.3935502, "lon": 2.205339, "tags": {"addr:housenumber": "62", "addr:postcode": "08005", "addr:street": "Avinguda del Litoral", "amenity": "restaurant", "cuisine": "mediterranean", "name": "Escrib\u00e0", "name:en": "Xiringuito Escriba", "opening_hours": "Mo-Su 12:00-00:00", "phone": "+34 932 210 729", "website": "https://www.xiringuitoescriba.com/"}}, {"type": "node", "id": 4510066192, "lat": 41.4071483, "lon": 2.2032044, "tags": {"addr:housenumber": "109", "addr:postcode": "08005", "addr:street": "Avinguda Diagonal", "amenity": "restaurant", "cuisine": "spanish;argentinian;grill", "name": "Can Oliva", "name:ca": "Can Oliva", "name:en": "Can Oliva", "name:es": "Can Oliva", "phone": "+34 932 66 08 95"}}, {"type": "node", "id": 4518693470, "lat": 41.4023648, "lon": 2.2013577, "tags": {"addr:housenumber": "187", "addr:street": "Pujades", "amenity": "restaurant", "name": "Minyam"}}, {"type": "node", "id": 4533888598, "lat": 41.4017771, "lon": 2.2059149, "tags": {"amenity": "restaurant", "name": "Piazza grande"}}, {"type": "node", "id": 4533901401, "lat": 41.4017834, "lon": 2.2059153, "tags": {"addr:housenumber": "10", "addr:street": "Pla\u00e7a de Julio Gonz\u00e1lez", "amenity": "restaurant", "description": "Italian Restaurant", "name": "Restaurant Piazza Grande"}}, {"type": "node", "id": 4552992689, "lat": 41.400387, "lon": 2.2023554, "tags": {"addr:housenumber": "56", "addr:postcode": "08005", "addr:street": "Rambla del Poblenou", "amenity": "restaurant", "contact:facebook": "https://facebook.com/pages/Colom%20Restaurant/2026230204369890", "cuisine": "spanish", "name": "Colom", "name:ca": "Colom", "name:en": "Colom", "name:es": "Colom", "opening_hours": "Mo-Su 12:00-00:00"}}, {"type": "node", "id": 4553695195, "lat": 41.4023142, "lon": 2.2014938, "tags": {"addr:housenumber": "187", "addr:street": "Carrer de Pujades", "amenity": "restaurant", "name": "Minyam", "name:es": "Minyam"}}, {"type": "node", "id": 4689020592, "lat": 41.4022025, "lon": 2.2016256, "tags": {"addr:city": "Barcelona", "addr:housenumber": "196", "addr:postcode": "08005", "addr:street": "Carrer de Pujades", "amenity": "bar", "contact:facebook": "https://m.facebook.com/BaliusBar/", "cuisine": "tapas", "description": "Cocktail bar", "name": "Balius", "name:es": "Balius", "phone": "+34 933 15 86 50"}}, {"type": "node", "id": 4718616090, "lat": 41.3992398, "lon": 2.2018462, "tags": {"amenity": "restaurant", "cuisine": "pasta;pizza", "name": "Iaia Cristina", "name:ca": "Iaia Cristina"}}, {"type": "node", "id": 4745966852, "lat": 41.3926541, "lon": 2.2047102}, {"type": "node", "id": 4745966861, "lat": 41.3947372, "lon": 2.2062983}, {"type": "node", "id": 4787974651, "lat": 41.4045885, "lon": 2.1993428, "tags": {"amenity": "bar", "name": "El Menjador de la Beckett"}}, {"type": "node", "id": 4965677492, "lat": 41.4032881, "lon": 2.2001895, "tags": {"amenity": "bar", "name": "La tasqueta de Can Felipa", "wheelchair": "yes"}}, {"type": "node", "id": 4967425632, "lat": 41.4025441, "lon": 2.2045819, "tags": {"addr:city": "Barcelona", "addr:housenumber": "230-234", "addr:postcode": "08005", "addr:street": "Carrer de Llull", "amenity": "restaurant", "cuisine": "international", "name": "Pronto"}}, {"type": "node", "id": 5010794821, "lat": 41.3979072, "lon": 2.1955319, "tags": {"addr:housenumber": "95", "addr:street": "Carrer de Pujades", "amenity": "cafe", "indoor_seating": "yes", "name": "N\u00f8mad Roaster's Home", "name:en": "N\u00f8mad Roaster's Home", "opening_hours": "Mo-Fr 09:00-17:00", "outdoor_seating": "no"}}, {"type": "node", "id": 5028979721, "lat": 41.3987513, "lon": 2.1950702, "tags": {"addr:housenumber": "95", "addr:street": "Carrer de Badajoz", "alt_name": "Joliu Studio", "amenity": "cafe", "contact:facebook": "https://www.facebook.com/espaijoliu/", "diet:gluten_free": "yes", "diet:vegan": "yes", "diet:vegetarian": "yes", "name": "Espai Joliu", "name:ca": "Espai Joliu", "opening_hours": "Mo-Fr 09:00-19:00; Sa 10:00-15:00", "website": "https://espaijoliu.tumblr.com/"}}, {"type": "node", "id": 5085584670, "lat": 41.3947338, "lon": 2.2034357, "tags": {"amenity": "bar"}}, {"type": "node", "id": 5103623221, "lat": 41.4058102, "lon": 2.197889, "tags": {"addr:housenumber": "145", "addr:street": "Avinguda Diagonal", "amenity": "restaurant", "cuisine": "chinese", "name": "Chang Feng", "name:es": "Chang Feng", "opening_hours": "Mo-Su 12:00-16:00, 20:00-00:00", "phone": "+34 932664857"}}, {"type": "node", "id": 5204752426, "lat": 41.3991494, "lon": 2.2051653, "tags": {"addr:city": "Barcelona", "addr:housenumber": "95", "addr:postcode": "08005", "addr:street": "Carrer del Taulat", "amenity": "restaurant", "diet:vegetarian": "yes", "name": "Aguaribay", "opening_hours": "Mo-Fr, Su 13:00-16:00; Th 20:30-23:00; Fr, Sa 20:00-23:30; Sa 13:00-16:30", "phone": "+34933003790", "website": "https://www.aguaribay-bcn.com/"}}, {"type": "node", "id": 5210862783, "lat": 41.3981929, "lon": 2.204828, "tags": {"addr:city": "Barcelona", "addr:country": "ES", "addr:postcode": "08005", "addr:street": "Rambla del Poblenou", "amenity": "fast_food", "branch": "Poblenou", "check_date": "2023-12-25", "contact:website": "https://dionisosrestaurants.com/", "cuisine": "greek", "drive_through": "no", "name": "Dionisos", "takeaway": "yes"}}, {"type": "node", "id": 5210881005, "lat": 41.4009899, "lon": 2.2047175, "tags": {"addr:city": "Barcelona", "addr:housenumber": "24", "addr:postcode": "08005", "addr:street": "Pla\u00e7a de la Uni\u00f3", "amenity": "bar", "cuisine": "spanish", "name": "Bitacora", "phone": "+34 932 778 712"}}, {"type": "node", "id": 5244811325, "lat": 41.3995737, "lon": 2.2056746, "tags": {"amenity": "restaurant", "name": "La llum del poble nou"}}, {"type": "node", "id": 5509139427, "lat": 41.4014133, "lon": 2.2052029, "tags": {"addr:city": "Barcelona", "addr:housenumber": "31", "addr:postcode": "08005", "addr:street": "Carrer de Bilbao", "amenity": "fast_food", "cuisine": "burger;regional;italian", "indoor_seating": "yes", "name": "SOCO Poblenou", "outdoor_seating": "yes"}}, {"type": "node", "id": 5509139428, "lat": 41.4013829, "lon": 2.2068942, "tags": {"addr:city": "Barcelona", "addr:housenumber": "3", "addr:postcode": "08005", "addr:street": "Pla\u00e7a de Julio Gonz\u00e1lez", "amenity": "restaurant", "cuisine": "regional", "name": "La Carmanyola", "outdoor_seating": "yes"}}, {"type": "node", "id": 5509171593, "lat": 41.4002367, "lon": 2.2031905, "tags": {"addr:city": "Barcelona", "addr:housenumber": "5", "addr:postcode": "08005", "addr:street": "Carrer del Joncar", "amenity": "restaurant", "cuisine": "regional;mediterranean", "name": "CALAMARGA"}}, {"type": "node", "id": 5617465886, "lat": 41.3967536, "lon": 2.1962847, "tags": {"amenity": "restaurant", "indoor_seating": "yes", "name": "Amateur", "name:ca": "Amateur", "name:es": "Amateur", "opening_hours": "Tu-Th 18:00-01:00, Fr,Sa 18:00-02:00", "outdoor_seating": "yes"}}, {"type": "node", "id": 5696409381, "lat": 41.4020828, "lon": 2.200141, "tags": {"addr:city": "Barcelona", "addr:housenumber": "92", "addr:postcode": "08005", "addr:street": "Rambla del Poblenou", "amenity": "restaurant", "cuisine": "lebanese", "name": "L'AUT\u00c8NTIC Restaurant Liban\u00e8s", "opening_hours": "Mo-Su 12:00-01:00", "outdoor_seating": "yes", "phone": "+34 934 08 86 74", "takeaway": "yes", "website": "https://lautentic-restaurant-libanes.business.site/"}}, {"type": "node", "id": 6110888414, "lat": 41.3995169, "lon": 2.2068911, "tags": {"addr:housenumber": "1", "addr:postcode": "08005", "addr:street": "Pla\u00e7a de Prim", "entrance": "yes"}}, {"type": "node", "id": 6110888415, "lat": 41.399619, "lon": 2.2069559}, {"type": "node", "id": 6110888417, "lat": 41.3996015, "lon": 2.2069348}, {"type": "node", "id": 6110888418, "lat": 41.3995788, "lon": 2.207013}, {"type": "node", "id": 6110888419, "lat": 41.3996205, "lon": 2.206908}, {"type": "node", "id": 6110888421, "lat": 41.3995429, "lon": 2.2070187}, {"type": "node", "id": 6110888423, "lat": 41.3995599, "lon": 2.2070398}, {"type": "node", "id": 6110888424, "lat": 41.3997031, "lon": 2.2069618}, {"type": "node", "id": 6110888425, "lat": 41.3995763, "lon": 2.2068076}, {"type": "node", "id": 6110888427, "lat": 41.3995625, "lon": 2.2069923}, {"type": "node", "id": 6110888428, "lat": 41.3995906, "lon": 2.2071221}, {"type": "node", "id": 6110888429, "lat": 41.3996377, "lon": 2.2069292}, {"type": "node", "id": 6111551186, "lat": 41.4020955, "lon": 2.1973671, "tags": {"addr:housenumber": "164", "addr:postcode": "08005", "addr:street": "Carrer de Pere IV", "amenity": "cafe", "entrance": "yes", "internet_access": "wlan", "name": "Little Fern"}}, {"type": "node", "id": 6164182991, "lat": 41.4050315, "lon": 2.1963811, "tags": {"addr:city": "Barcelona", "addr:country": "ES", "addr:housenumber": "142", "addr:postcode": "08018", "addr:street": "Rambla del Poblenou", "amenity": "restaurant", "contact:phone": "+34 931925976", "cuisine": "mediterranean", "name": "La Ya Ya del Poblenou", "opening_hours": "Mo-Su 07:00-00:00"}}, {"type": "node", "id": 6164234383, "lat": 41.4018825, "lon": 2.2003717, "tags": {"addr:city": "Barcelona", "addr:country": "ES", "addr:housenumber": "88", "addr:postcode": "08005", "addr:street": "Rambla del Poblenou", "amenity": "restaurant", "check_date": "2023-12-25", "contact:facebook": "https://www.facebook.com/pg/Isami-1581280252085171/", "contact:phone": "+34 993099482", "cuisine": "japanese", "delivery": "yes", "name": "Isami", "opening_hours": "Tu-Su 12:30-16:00, 20:00-00:00", "takeaway": "yes"}}, {"type": "node", "id": 6164234384, "lat": 41.398306, "lon": 2.2050982, "tags": {"addr:city": "Barcelona", "addr:country": "ES", "addr:housenumber": "16", "addr:postcode": "08005", "addr:street": "Rambla del Poblenou", "amenity": "fast_food", "contact:website": "http://www.zozanrestaurantgourmetbarcelona.com/", "cuisine": "middle_eastern;turkish", "delivery": "yes", "drive_through": "no", "name": "Zozan", "opening_hours": "Mo-Su 19:00-23:30"}}, {"type": "node", "id": 6164235940, "lat": 41.401992, "lon": 2.1998344, "tags": {"addr:city": "Barcelona", "addr:housenumber": "85", "addr:postcode": "08005", "addr:street": "Rambla del Poblenou", "addr:unit": "9", "amenity": "restaurant", "contact:phone": "+34 934869348", "cuisine": "middle_eastern;lebanese;mediterranean", "name": "Sundown", "opening_hours": "Mo-Th 09:00-23:30; Fr-Sa 09:00-01:30; Su 09:00-23:00", "outdoor_seating": "yes"}}, {"type": "node", "id": 6164236104, "lat": 41.4047343, "lon": 2.1968042, "tags": {"addr:city": "Barcelona", "addr:country": "ES", "addr:housenumber": "134", "addr:postcode": "08018", "addr:street": "Rambla del Poblenou", "amenity": "restaurant", "contact:facebook": "https://es-es.facebook.com/barpaloverde", "contact:phone": "+34 936398409", "cuisine": "spanish;mediterranean", "name": "Palo Verde", "outdoor_seating": "yes"}}, {"type": "node", "id": 6503344192, "lat": 41.403636, "lon": 2.1986181, "tags": {"addr:housenumber": "208", "addr:postcode": "08005", "addr:street": "Carrer de Pere IV", "amenity": "restaurant", "cuisine": "italian_pizza", "name": "Roma Bella", "opening_hours": "Mo-Su 13:00-23:00", "phone": "+34 938 287 895"}}, {"type": "node", "id": 6532139285, "lat": 41.4021274, "lon": 2.2053325, "tags": {"addr:street": "Carrer de Bilbao", "amenity": "restaurant", "name": "Bilbao"}}, {"type": "node", "id": 6532206186, "lat": 41.4026728, "lon": 2.2041328, "tags": {"amenity": "restaurant", "name": "Bilbao34"}}, {"type": "node", "id": 6532206187, "lat": 41.4032734, "lon": 2.2032208, "tags": {"addr:street": "Carrer de Bilbao", "amenity": "restaurant", "cuisine": "sushi", "indoor_seating": "yes", "name": "Y\u00fc Sushi", "outdoor_seating": "yes"}}, {"type": "node", "id": 6532207787, "lat": 41.4036679, "lon": 2.2021718, "tags": {"addr:street": "Carrer de Bilbao", "amenity": "bar", "check_date": "2023-04-01", "name": "Can Culleres"}}, {"type": "node", "id": 6532214485, "lat": 41.4024969, "lon": 2.2047196, "tags": {"addr:street": "Carrer de Bilbao", "amenity": "restaurant", "name": "Sanaa"}}, {"type": "node", "id": 6532214486, "lat": 41.4041071, "lon": 2.2020953, "tags": {"amenity": "restaurant", "name": "Panepizza"}}, {"type": "node", "id": 6532214487, "lat": 41.4039113, "lon": 2.201701, "tags": {"amenity": "bar", "name": "Susurro"}}, {"type": "node", "id": 6532297485, "lat": 41.4053616, "lon": 2.2003294, "tags": {"addr:housenumber": "98", "addr:street": "Carrer de Bilbao", "amenity": "cafe", "name": "Caffeine"}}, {"type": "node", "id": 6532297486, "lat": 41.4047113, "lon": 2.201252, "tags": {"addr:street": "Carrer de Bilbao", "amenity": "fast_food", "name": "Tuapetito"}}, {"type": "node", "id": 6532297585, "lat": 41.4051228, "lon": 2.2006251, "tags": {"addr:street": "Carrer de Bilbao", "amenity": "bar", "name": "Molika"}}, {"type": "node", "id": 6532311386, "lat": 41.4002571, "lon": 2.2068078, "tags": {"addr:street": "Carrer de la Jonquera", "amenity": "restaurant", "name": "Bel\u00e9n"}}, {"type": "node", "id": 6532311387, "lat": 41.4007139, "lon": 2.2061869, "tags": {"addr:street": "Carrer de Bilbao", "amenity": "restaurant", "cuisine": "mexican", "name": "Tequila"}}, {"type": "node", "id": 6532311389, "lat": 41.400914, "lon": 2.2058924, "tags": {"addr:street": "Carrer de Bilbao", "amenity": "bar", "name": "Cal Cisteller", "name:ca": "Cal Cisteller"}}, {"type": "node", "id": 6532330793, "lat": 41.4016359, "lon": 2.2048002, "tags": {"amenity": "restaurant", "indoor_seating": "yes", "name": "La Xemeneia", "outdoor_seating": "no"}}, {"type": "node", "id": 6532331287, "lat": 41.4008137, "lon": 2.2047522, "tags": {"addr:housenumber": "25", "addr:street": "Carrer Castanys", "amenity": "restaurant", "name": "Cal Tony"}}, {"type": "node", "id": 6532335586, "lat": 41.402179, "lon": 2.2039432, "tags": {"addr:street": "Carrer de Llull", "amenity": "fast_food", "name": "Hamburgueser\u00eda Jou's"}}, {"type": "node", "id": 6532342085, "lat": 41.4022005, "lon": 2.204014, "tags": {"amenity": "fast_food", "name": "Ali Baba d\u00f6ner Kebab"}}, {"type": "node", "id": 6533458685, "lat": 41.4045048, "lon": 2.2010302, "tags": {"addr:street": "Carrer de Bilbao", "amenity": "bar", "name": "Curro"}}, {"type": "node", "id": 6535101685, "lat": 41.4000317, "lon": 2.1956346, "tags": {"amenity": "bar", "name": "Catalunya", "name:ca": "Catalunya"}}, {"type": "node", "id": 6535101686, "lat": 41.3992845, "lon": 2.1970974, "tags": {"amenity": "restaurant", "name": "Llacuna", "name:ca": "Llacuna"}}, {"type": "node", "id": 6535101785, "lat": 41.4048149, "lon": 2.1995456, "tags": {"addr:street": "Carrer de Pere IV", "amenity": "cafe", "name": "Monsieur Bosc"}}, {"type": "node", "id": 6744703790, "lat": 41.4030337, "lon": 2.2073849, "tags": {"amenity": "restaurant", "cuisine": "spanish", "name": "Andalucia"}}, {"type": "node", "id": 6821384885, "lat": 41.3983358, "lon": 2.2045648, "tags": {"addr:city": "Barcelona", "addr:housenumber": "11", "addr:postcode": "08005", "addr:street": "Rambla del Poblenou", "amenity": "restaurant", "changing_table": "yes", "check_date": "2024-02-18", "cocktails": "yes", "contact:email": "hola@blubar.es", "contact:instagram": "https://www.instagram.com/blubarpoblenou", "cuisine": "italian;tapas;pizza", "diet:vegan": "only", "level": "0", "name": "Blu Bar", "name:en": "Blu Bar", "opening_hours": "Su-Th 12:00-00:00; Fr-Sa 12:00-02:00", "outdoor_seating": "yes", "phone": "+34 932 21 09 71", "smoking": "outside", "source": "survey", "toilets": "yes", "toilets:access": "customers", "toilets:wheelchair": "yes", "website": "https://blubar.es/"}}, {"type": "node", "id": 6936466985, "lat": 41.4020809, "lon": 2.2010252, "tags": {"amenity": "bar", "name:en": "Madame George"}}, {"type": "node", "id": 7102242810, "lat": 41.4020593, "lon": 2.2020302, "tags": {"addr:city": "Barcelona", "addr:housenumber": "59", "addr:postcode": "08005", "addr:street": "Carrer de Mari\u00e0 Aguil\u00f3", "amenity": "restaurant", "name": "La picanteria de l'Escrib\u00e0", "phone": "+34 934 614 315", "toilets:wheelchair": "no", "website": "https://restaurantsescriba.com/lapicanteriaescriba/", "wheelchair": "yes"}}, {"type": "node", "id": 7556637988, "lat": 41.4041586, "lon": 2.1968775, "tags": {"amenity": "bar", "name": "Doncurado"}}, {"type": "node", "id": 7556637989, "lat": 41.4038732, "lon": 2.1971787, "tags": {"amenity": "bar", "name": "SiamoQu\u00e1"}}, {"type": "node", "id": 7556638088, "lat": 41.4026167, "lon": 2.1989022, "tags": {"amenity": "restaurant", "name": "Giuletta"}}, {"type": "node", "id": 7556638089, "lat": 41.402507, "lon": 2.1991803, "tags": {"amenity": "restaurant", "indoor_seating": "yes", "name": "Alta Galicia", "outdoor_seating": "yes"}}, {"type": "node", "id": 7556742392, "lat": 41.40441, "lon": 2.1947619, "tags": {"addr:city": "Barcelona", "addr:housenumber": "128", "addr:postcode": "08018", "addr:street": "Carrer de la Llacuna", "amenity": "cafe", "bar": "yes", "name": "Malhumor", "opening_hours": "Su 10:00-17:00; We 10:00-18:00; Th-Sa 10:00-21:30", "outdoor_seating": "yes", "phone": "+34 959 02 81 66", "website": "https://linktr.ee/malhumorbarcelona"}}, {"type": "node", "id": 7556742593, "lat": 41.4009756, "lon": 2.2000272, "tags": {"amenity": "bar", "indoor_seating": "yes", "name": "Menjador del Centre", "name:ca": "Menjador del Centre", "outdoor_seating": "yes"}}, {"type": "node", "id": 7556742595, "lat": 41.4008481, "lon": 2.1998121, "tags": {"amenity": "restaurant", "name": "La Taqueria"}}, {"type": "node", "id": 7556742598, "lat": 41.4033088, "lon": 2.1964188, "tags": {"amenity": "restaurant", "delivery": "only", "name": "Xoubas"}}, {"type": "node", "id": 7556742600, "lat": 41.4039082, "lon": 2.1954534, "tags": {"addr:housenumber": "118", "addr:street": "Carrer de la Llacuna", "amenity": "bar", "name": "Honest poke", "opening_hours": "Mo-Su 10:30-23:00"}}, {"type": "node", "id": 7556742601, "lat": 41.4046908, "lon": 2.194394, "tags": {"amenity": "bar", "name": "El Petit Daniel"}}, {"type": "node", "id": 7557017826, "lat": 41.4036975, "lon": 2.1975404, "tags": {"amenity": "restaurant", "cuisine": "asian", "name": "Bamb\u00fa Sushi & Caf\u00e9 Bar"}}, {"type": "node", "id": 7557038714, "lat": 41.4037917, "lon": 2.1974117, "tags": {"alt_name": "Empanadas Argentinas Malv\u00f3n", "amenity": "fast_food", "brand": "Malv\u00f3n", "brand:wikidata": "Q109877196", "cuisine": "empanada", "email": "poblenou@malvon.es", "name": "Malv\u00f3n", "opening_hours": "Mo-Su 11:00-23:00", "phone": "+34 936 25 96 85", "takeaway": "yes", "website": "https://www.malvon.es"}}, {"type": "node", "id": 7563864197, "lat": 41.4037568, "lon": 2.1986742, "tags": {"amenity": "bar", "name": "la Tanda"}}, {"type": "node", "id": 7563925131, "lat": 41.4019268, "lon": 2.2003212, "tags": {"amenity": "restaurant", "name": "Cantoni del Poble9"}}, {"type": "node", "id": 7563959547, "lat": 41.4012919, "lon": 2.2011431, "tags": {"amenity": "restaurant", "brand": "100 Montaditos", "brand:wikidata": "Q8355805", "cuisine": "sandwich", "name": "100 Montaditos"}}, {"type": "node", "id": 7563960699, "lat": 41.4013257, "lon": 2.2011044, "tags": {"amenity": "restaurant", "name": "La Bienal"}}, {"type": "node", "id": 7563962192, "lat": 41.4014488, "lon": 2.2009478, "tags": {"amenity": "bar", "indoor_seating": "yes", "name": "Passeig9", "outdoor_seating": "yes"}}, {"type": "node", "id": 7563964446, "lat": 41.4012613, "lon": 2.2011848, "tags": {"amenity": "restaurant", "name": "Monopol", "website": "https://www.monopol.cat", "wikimedia_commons": "File:Bar Monopol, Rambla del Poblenou (Barcelona) October 2023.JPG"}}, {"type": "node", "id": 7615982501, "lat": 41.4003896, "lon": 2.1978586, "tags": {"amenity": "bar", "name": "La Tavernicola"}}, {"type": "node", "id": 8019133785, "lat": 41.395285, "lon": 2.2041755}, {"type": "node", "id": 8034967286, "lat": 41.3959993, "lon": 2.1997847, "tags": {"amenity": "cafe", "name": "Puro Cafe"}}, {"type": "node", "id": 8034999885, "lat": 41.3970406, "lon": 2.1999855, "tags": {"amenity": "cafe", "check_date": "2025-01-27", "check_date:opening_hours": "2025-01-27", "name": "Bricks", "opening_hours": "Mo-Fr 08:00-15:00; Sa 09:00-14:00", "payment:cash": "yes", "payment:credit_cards": "yes", "payment:debit_cards": "yes"}}, {"type": "node", "id": 8034999886, "lat": 41.3980284, "lon": 2.1986941, "tags": {"amenity": "cafe", "branch": "Dorada", "brand": "Costa", "brand:wikidata": "Q608845", "cuisine": "sandwich", "indoor_seating": "yes", "name": "Costa Dorada", "outdoor_seating": "yes", "takeaway": "yes"}}, {"type": "node", "id": 8046554489, "lat": 41.4001224, "lon": 2.2000188, "tags": {"amenity": "restaurant", "indoor_seating": "yes", "name": "Sport", "outdoor_seating": "yes"}}, {"type": "node", "id": 8046559285, "lat": 41.4023415, "lon": 2.1975419, "tags": {"amenity": "bar", "name": "Little Fern", "opening_hours": "Mo-Su 09:00-16:00"}}, {"type": "node", "id": 8046575685, "lat": 41.4026759, "lon": 2.1977843, "tags": {"amenity": "restaurant", "name": "Norman's"}}, {"type": "node", "id": 8049731594, "lat": 41.4013788, "lon": 2.203079, "tags": {"amenity": "fast_food", "indoor_seating": "no", "name": "La Bodega", "name:ca": "La Bodega", "outdoor_seating": "no", "takeaway": "only"}}, {"type": "node", "id": 8049731595, "lat": 41.4018684, "lon": 2.2023424, "tags": {"amenity": "bar", "indoor_seating": "yes", "name": "Echegaray", "outdoor_seating": "no"}}, {"type": "node", "id": 8049731597, "lat": 41.4025485, "lon": 2.2010666, "tags": {"amenity": "bar", "name": "Nina"}}, {"type": "node", "id": 8049731601, "lat": 41.4032433, "lon": 2.2000071, "tags": {"amenity": "restaurant", "name": "Puerto Escondido"}}, {"type": "node", "id": 8049731686, "lat": 41.4003162, "lon": 2.205687, "tags": {"addr:city": "Barcelona", "addr:housenumber": "2", "addr:postcode": "08005", "addr:street": "Carrer Castanys", "amenity": "restaurant", "email": "poblenou@restaurantemesdevi.es", "name": "M\u00e9s de vi", "name:ca": "M\u00e9s de vi", "opening_hours": "Tu-Fr 13:00-16:00, 19:30-23:00; Sa 19:30-23:00", "phone": "+34 722366222", "website": "https://restaurantemesdevi.es/"}}, {"type": "node", "id": 8049731690, "lat": 41.4008761, "lon": 2.2038406, "tags": {"amenity": "fast_food", "cuisine": "kebab", "name": "Amigo D\u00f6ner Kebab"}}, {"type": "node", "id": 8049731790, "lat": 41.4002469, "lon": 2.204811, "tags": {"amenity": "fast_food", "name": "Cocino"}}, {"type": "node", "id": 8049732285, "lat": 41.4005075, "lon": 2.2044279, "tags": {"amenity": "fast_food", "name": "La caseta azul"}}, {"type": "node", "id": 8049732291, "lat": 41.4019311, "lon": 2.20227, "tags": {"amenity": "restaurant", "indoor_seating": "yes", "name": "Nabibi", "outdoor_seating": "no"}}, {"type": "node", "id": 8049732292, "lat": 41.4029636, "lon": 2.2006718, "tags": {"addr:city": "Barcelona", "addr:housenumber": "31", "addr:postcode": "08005", "addr:street": "Carrer de Mari\u00e0 Aguil\u00f3", "amenity": "restaurant", "cuisine": "mexican", "email": "contacto@doroteo.eu", "name": "Doroteo", "outdoor_seating": "yes", "phone": "+34 930 382 229", "website": "https://doroteo.eu/"}}, {"type": "node", "id": 8049732298, "lat": 41.4043747, "lon": 2.1983111, "tags": {"amenity": "cafe", "name": "L'Artesana", "name:ca": "L'Artesana"}}, {"type": "node", "id": 8061857487, "lat": 41.406702, "lon": 2.2015437, "tags": {"addr:postcode": "08005", "amenity": "bar", "name": "Sports bar", "name:es": "Sports Bar Italian Food", "phone": "936 39 90 70"}}, {"type": "node", "id": 8062015185, "lat": 41.4072976, "lon": 2.2039768, "tags": {"amenity": "cafe", "name": "Tapea & BB"}}, {"type": "node", "id": 8062015287, "lat": 41.4058034, "lon": 2.2058974, "tags": {"amenity": "cafe", "name": "Fresh roasted coffee"}}, {"type": "node", "id": 8062015385, "lat": 41.4064274, "lon": 2.2051676, "tags": {"amenity": "cafe", "name": "El Rebost de l'Esther"}}, {"type": "node", "id": 8062015587, "lat": 41.4043876, "lon": 2.2040295, "tags": {"amenity": "fast_food", "name": "Xurreria Poblenou", "name:ca": "Xurreria Poblenou"}}, {"type": "node", "id": 8062016085, "lat": 41.4052434, "lon": 2.2050772, "tags": {"amenity": "cafe", "name": "Grana y oro"}}, {"type": "node", "id": 8062016195, "lat": 41.4021002, "lon": 2.2014634, "tags": {"amenity": "cafe", "name": "artemisia"}}, {"type": "node", "id": 8062017288, "lat": 41.4046113, "lon": 2.2043509, "tags": {"amenity": "cafe", "name": "La taverna 249"}}, {"type": "node", "id": 8064866887, "lat": 41.3956408, "lon": 2.1975165, "tags": {"amenity": "restaurant", "name": "Carme", "name:ca": "Carme"}}, {"type": "node", "id": 8064871086, "lat": 41.3956935, "lon": 2.1975182, "tags": {"amenity": "cafe"}}, {"type": "node", "id": 8064873885, "lat": 41.3954631, "lon": 2.1981354, "tags": {"amenity": "cafe", "name": "Skye cofee"}}, {"type": "node", "id": 8077063518, "lat": 41.398827, "lon": 2.2050637, "tags": {"amenity": "cafe", "check_date": "2025-06", "indoor_seating": "yes", "name": "T44"}}, {"type": "node", "id": 8077063717, "lat": 41.3992453, "lon": 2.2053597, "tags": {"amenity": "bar", "name": "La Pausa"}}, {"type": "node", "id": 8077127617, "lat": 41.3996528, "lon": 2.2051891, "tags": {"amenity": "restaurant", "name": "Apri Bocca"}}, {"type": "node", "id": 8077127920, "lat": 41.4007782, "lon": 2.2038067, "tags": {"amenity": "fast_food", "cuisine": "pizza", "indoor_seating": "yes", "name": "La Escuineta", "opening_hours": "Tu-Su 12:00-23:00", "outdoor_seating": "no"}}, {"type": "node", "id": 8077128019, "lat": 41.4005272, "lon": 2.2035587, "tags": {"amenity": "restaurant", "name": "Belleville"}}, {"type": "node", "id": 8077128419, "lat": 41.4012598, "lon": 2.2031023, "tags": {"amenity": "restaurant", "name": "La Fusta"}}, {"type": "node", "id": 8077128420, "lat": 41.4013922, "lon": 2.2028846, "tags": {"amenity": "restaurant", "indoor_seating": "yes", "name": "T\u00edo Bigotes", "outdoor_seating": "no"}}, {"type": "node", "id": 8308353217, "lat": 41.3962639, "lon": 2.1987094, "tags": {"addr:housenumber": "44", "addr:street": "Carrer de Badajoz", "amenity": "restaurant", "name": "Antonio's"}}, {"type": "node", "id": 8433008019, "lat": 41.4005516, "lon": 2.20242, "tags": {"amenity": "restaurant", "cuisine": "tapas", "name": "El 58"}}, {"type": "node", "id": 8760560770, "lat": 41.3994943, "lon": 2.2003731, "tags": {"amenity": "cafe", "indoor_seating": "yes", "name": "That's l-fe", "outdoor_seating": "yes"}}, {"type": "node", "id": 8760560772, "lat": 41.3988649, "lon": 2.2008097, "tags": {"amenity": "cafe"}}, {"type": "node", "id": 8839246117, "lat": 41.4038382, "lon": 2.2041602, "tags": {"addr:housenumber": "77", "addr:street": "Carrer Lope de Vega", "amenity": "restaurant", "internet_access": "wlan", "name": "Alan Tapa's Bar"}}, {"type": "node", "id": 8846098926, "lat": 41.4004191, "lon": 2.2058638, "tags": {"addr:city": "Barcelona", "addr:housenumber": "21", "addr:postcode": "08005", "addr:street": "Carrer de l'Amistat", "air_conditioning": "yes", "amenity": "cafe", "brand": "Zero Barcelona", "internet_access": "wlan", "name": "Zero Barcelona Cafe", "opening_hours": "Mo-Su 08:00-22:00", "outdoor_seating": "no", "website": "https://zerohostels.com"}}, {"type": "node", "id": 9007983085, "lat": 41.3994523, "lon": 2.204418, "tags": {"addr:housenumber": "225", "addr:street": "Carrer del Doctor Trueta", "amenity": "restaurant", "name": "El 9 Porr\u00f3"}}, {"type": "node", "id": 9376642417, "lat": 41.3988768, "lon": 2.1953173, "tags": {"addr:housenumber": "92", "addr:postcode": "08005", "addr:street": "Carrer de Badajoz", "amenity": "bar", "contact:facebook": "ravenpoblenou", "name": "Raven Poblenou", "opening_hours": "Fr-Sa 23:00-03:30"}}, {"type": "node", "id": 9377066517, "lat": 41.3983197, "lon": 2.1942274, "tags": {"addr:housenumber": "100", "addr:postcode": "08006", "addr:street": "Carrer de Pere IV", "amenity": "restaurant", "name": "El rey del kebab", "opening_hours": "Mo-Fr 11:30-23:00; Sa-Su 14:00-23:00"}}, {"type": "node", "id": 9476185118, "lat": 41.3988285, "lon": 2.2008609, "tags": {"amenity": "cafe", "name": "La Marmiteria"}}, {"type": "node", "id": 9810799117, "lat": 41.3995409, "lon": 2.2000183, "tags": {"addr:housenumber": "155", "addr:street": "Carrer de Llull", "amenity": "restaurant", "cuisine": "japanese", "indoor_seating": "yes", "name": "Kibuka", "opening_hours": "Mo-Su 13:00-23:30", "outdoor_seating": "no"}}, {"type": "node", "id": 9810799317, "lat": 41.400448, "lon": 2.2012449, "tags": {"addr:housenumber": "169", "addr:street": "Carrer de Llull", "amenity": "restaurant", "email": "infofabrikbcn@gmail.com", "indoor_seating": "yes", "name": "Fabrik", "outdoor_seating": "yes", "phone": "+34 931179888"}}, {"type": "node", "id": 10006930217, "lat": 41.4038392, "lon": 2.2019381, "tags": {"amenity": "cafe", "name:en": "El bombin"}}, {"type": "node", "id": 10171561935, "lat": 41.3996344, "lon": 2.2057603, "tags": {"amenity": "cafe", "check_date": "2025-06", "cuisine": "australian", "indoor_seating": "yes", "name": "Federal", "outdoor_seating": "yes", "outdoor_seating:comfort": "cushion_chair"}}, {"type": "node", "id": 10171563836, "lat": 41.4007266, "lon": 2.2037657, "tags": {"amenity": "restaurant", "indoor_seating": "yes", "name": "Desoriente", "opening_hours": "Mo-Su 13:00-24:00", "outdoor_seating": "yes"}}, {"type": "node", "id": 10171587656, "lat": 41.4028075, "lon": 2.2019603, "tags": {"amenity": "restaurant", "name": "Frankfurt Rita", "name:ca": "Frankfurt Rita"}}, {"type": "node", "id": 10171648194, "lat": 41.4032365, "lon": 2.202467, "tags": {"amenity": "restaurant", "name": "Local 92"}}, {"type": "node", "id": 10171648195, "lat": 41.4031758, "lon": 2.2023883, "tags": {"amenity": "bar", "name": "El Trapeilla"}}, {"type": "node", "id": 10574539341, "lat": 41.3976809, "lon": 2.2032493, "tags": {"addr:housenumber": "1", "addr:postcode": "08005", "addr:street": "Carrer de la Llacuna", "amenity": "restaurant", "cuisine": "italian_pizza;pizza", "name": "Madre Lievito", "opening_hours": "Mo-Th 20:00-23:30; Fr-Sa 13:00-16:30, 20:00-00:00; Su 13:00-16:30, 19:30-23:30"}}, {"type": "node", "id": 10857587405, "lat": 41.398387, "lon": 2.1984891, "tags": {"amenity": "restaurant", "indoor_seating": "yes", "name": "Can Dend\u00ea", "outdoor_seating": "yes"}}, {"type": "node", "id": 10870492724, "lat": 41.400205, "lon": 2.1963267, "tags": {"addr:city": "Barcelona", "addr:housenumber": "173", "addr:postcode": "08005", "addr:street": "Carrer de Pallars", "amenity": "restaurant", "diet:gluten_free": "yes", "diet:vegan": "yes", "email": "info@elquinto.cat", "name": "El Quinto", "opening_hours": "Mo-Fr 09:00-16:00; PH off", "phone": "+34 931 14 37 90", "website": "https://www.elquinto.cat/"}}, {"type": "node", "id": 11162841771, "lat": 41.3958243, "lon": 2.1994522, "tags": {"addr:housenumber": "141", "addr:street": "Carrer de Badajoz", "amenity": "restaurant", "diet:vegetarian": "no", "indoor_seating": "yes", "name": "Rumba", "opening_hours": "Mo-Fr 10:00-22:00; Sa, Su 12:00-23:00", "outdoor_seating": "yes", "wheelchair": "limited"}}, {"type": "node", "id": 11235316956, "lat": 41.4016391, "lon": 2.1969559, "tags": {"addr:housenumber": "156", "addr:street": "Carrer de Pere IV", "amenity": "restaurant", "contact:instagram": "https://www.instagram.com/norubar", "description": "Japon\u00e9s", "name": "NoruBar", "opening_hours": "Tu-Fr 10:00-15:30, 20:30-22:30; Mo 10:00-15:30"}}, {"type": "node", "id": 11236462036, "lat": 41.3992322, "lon": 2.2045093, "tags": {"addr:housenumber": "232", "addr:postcode": "08005", "addr:street": "Carrer del Doctor Trueta", "amenity": "cafe", "name": "Syra Coffee", "opening_hours": "Mo-Fr 08:00-20:00; Sa-Su 08:00-20:00", "operator": "Syra", "shop": "coffee", "website": "https://syra.coffee/"}}, {"type": "node", "id": 11292783409, "lat": 41.4016838, "lon": 2.2040134, "tags": {"amenity": "cafe"}}, {"type": "node", "id": 11423312470, "lat": 41.3996264, "lon": 2.2000182, "tags": {"addr:street": "Carrer de Llull", "amenity": "restaurant", "cuisine": "japanese", "indoor_seating": "yes", "name": "Kibuka Llull", "outdoor_seating": "no"}}, {"type": "node", "id": 11638200769, "lat": 41.4041993, "lon": 2.1968759, "tags": {"amenity": "restaurant", "cuisine": "spanish", "name": "4 Latas"}}, {"type": "node", "id": 11638956969, "lat": 41.3983471, "lon": 2.205045, "tags": {"addr:housenumber": "16", "addr:postcode": "08005", "addr:street": "Rambla del Poblenou", "amenity": "restaurant", "email": "hola@vrutal.es", "name": "Vrutal", "phone": "+34934914806"}}, {"type": "node", "id": 11726909576, "lat": 41.4015934, "lon": 2.2027546, "tags": {"amenity": "cafe", "cuisine": "coffee_shop", "indoor_seating": "yes", "name": "Sensorial", "outdoor_seating": "yes"}}, {"type": "node", "id": 11876562571, "lat": 41.402837, "lon": 2.1987346, "tags": {"amenity": "restaurant", "name": "Shifu ramen"}}, {"type": "node", "id": 11876562770, "lat": 41.4027056, "lon": 2.1989127, "tags": {"amenity": "restaurant", "name": "Burritos"}}, {"type": "node", "id": 11876564670, "lat": 41.4026622, "lon": 2.1989728, "tags": {"amenity": "restaurant", "name": "L'Aut\u00e8ntic"}}, {"type": "node", "id": 11876564773, "lat": 41.4010191, "lon": 2.2011408, "tags": {"amenity": "restaurant", "name": "Ramen House"}}, {"type": "node", "id": 11876564873, "lat": 41.4003542, "lon": 2.2020073, "tags": {"amenity": "restaurant", "name": "3 Sabores"}}, {"type": "node", "id": 11876564970, "lat": 41.4029436, "lon": 2.1986041, "tags": {"amenity": "cafe", "name": "Theminers"}}, {"type": "node", "id": 11876564974, "lat": 41.4009349, "lon": 2.2012472, "tags": {"amenity": "fast_food", "name": "K love empanada"}}, {"type": "node", "id": 11876565071, "lat": 41.4026841, "lon": 2.1989399, "tags": {"amenity": "restaurant", "name": "Chivuo's"}}, {"type": "node", "id": 11876569069, "lat": 41.4000408, "lon": 2.2024253, "tags": {"addr:housenumber": "47", "addr:street": "Rambla del Poblenou", "amenity": "fast_food", "check_date": "2025-03-01", "name": "Fast Bites", "opening_hours": "Mo-Su,PH 12:00-23:00", "outdoor_seating": "no", "payment:cash": "yes", "payment:credit_cards": "yes", "payment:debit_cards": "yes", "takeaway": "yes", "wheelchair": "yes"}}, {"type": "node", "id": 11876569169, "lat": 41.4000011, "lon": 2.2024618, "tags": {"addr:housenumber": "45", "addr:street": "Rambla del Poblenou", "amenity": "restaurant", "check_date": "2025-03-01", "name": "La Roda", "outdoor_seating": "yes"}}, {"type": "node", "id": 11901439033, "lat": 41.4033538, "lon": 2.1964054, "tags": {"amenity": "restaurant", "name": "Bar Restuarant 104"}}, {"type": "node", "id": 11901439036, "lat": 41.4036634, "lon": 2.1967951, "tags": {"amenity": "restaurant", "cuisine": "japanese", "name": "Ryu Ramen"}}, {"type": "node", "id": 11933786910, "lat": 41.403946, "lon": 2.1984873, "tags": {"addr:housenumber": "185", "addr:postcode": "08018", "addr:street": "Carrer de Pere IV", "amenity": "restaurant", "check_date": "2024-05-25", "cuisine": "spanish", "diet:vegetarian": "yes", "name": "Kalamata", "payment:cash": "yes", "payment:mastercard": "yes", "payment:visa": "yes", "payment:visa_debit": "yes", "toilets": "yes"}}, {"type": "node", "id": 12081650369, "lat": 41.4039488, "lon": 2.1954032, "tags": {"amenity": "restaurant", "cuisine": "breakfast", "diet:vegan": "yes", "name": "Morgentau."}}, {"type": "node", "id": 12090218723, "lat": 41.4020152, "lon": 2.2009443, "tags": {"addr:city": "Barcelona", "addr:housenumber": "177", "addr:postcode": "08005", "addr:street": "Carrer de Pujades", "air_conditioning": "yes", "amenity": "bar", "brewery": "yes", "description": "Botanicus is an evolutionary cocktail bar born with the ambition of combining the world of botany with that of fermented products.", "email": "botanicusbarcelona@gmail.com", "image": "https://assets.zyrosite.com/m2WlapXP9Bh4zlZ9/logo-botanist-2023-mjEQqqpy4nCg6DLO.svg", "internet_access": "wlan", "name": "Botanicus Cocktail Bar", "opening_hours": "Mo-Su 18:00-03:00", "outdoor_seating": "yes", "payment:cards": "yes", "payment:cash": "yes", "website": "https://www.botanicusbcn.com/", "wheelchair": "yes"}}, {"type": "node", "id": 12131123403, "lat": 41.3983531, "lon": 2.1955936, "tags": {"addr:housenumber": "83", "addr:postcode": "08005", "addr:street": "Carrer de Badajoz", "amenity": "restaurant", "cuisine": "mediterranean", "level": "0", "name": "Market Cuina Fresca", "name:ca": "Market Cuina Fresca", "name:en": "Market Cuina Fresca", "name:es": "Market Cuina Fresca", "name:ro": "Market Cuina Fresca", "opening_hours": "Mo-Fr 08:00-17:00", "phone": "+34 934854563"}}, {"type": "node", "id": 12299516076, "lat": 41.399162, "lon": 2.1953158, "tags": {"addr:housenumber": "154", "addr:street": "Carrer de Pallars", "amenity": "fast_food", "name": "Enlagloria", "opening_hours": "Mo-Su 11:00-16:00"}}, {"type": "node", "id": 12307187738, "lat": 41.4039668, "lon": 2.196784, "tags": {"addr:city": "Barcelona", "addr:housenumber": "175", "addr:street": "Carrer de Sancho de \u00c1vila", "amenity": "restaurant", "cuisine": "italian", "diet:vegetarian": "yes", "name": "26KG", "opening_hours": "Mo-Su 13:00-23:00", "website": "https://26kg.es"}}, {"type": "node", "id": 12345963672, "lat": 41.3970496, "lon": 2.2018013, "tags": {"amenity": "restaurant", "check_date": "2024-11-16", "name": "Terra Mar"}}, {"type": "node", "id": 12504629226, "lat": 41.4016351, "lon": 2.2062989, "tags": {"addr:city": "Barcelona", "addr:housenumber": "7", "addr:postcode": "08005", "addr:street": "Pla\u00e7a de Julio Gonz\u00e1lez", "amenity": "restaurant", "name": "Cavina", "opening_hours": "Tu-fr 17:00-23:30; Sa 13:00-16:30; Sa 19:30-23:30", "website": "https://cavina.es"}}, {"type": "node", "id": 12546429118, "lat": 41.3957733, "lon": 2.1989731, "tags": {"amenity": "restaurant", "check_date": "2025-01-31", "name": "Miny"}}, {"type": "node", "id": 12628316609, "lat": 41.3987683, "lon": 2.2044872, "tags": {"addr:housenumber": "22", "addr:street": "Rambla del Poblenou", "amenity": "cafe", "name": "Rep\u00fablic Caf\u00e8"}}, {"type": "node", "id": 12660053963, "lat": 41.3954015, "lon": 2.207881}, {"type": "node", "id": 12660053964, "lat": 41.3954396, "lon": 2.2079286}, {"type": "node", "id": 12660053965, "lat": 41.3954643, "lon": 2.2078935}, {"type": "node", "id": 12660053966, "lat": 41.3954262, "lon": 2.2078459}, {"type": "node", "id": 12660080653, "lat": 41.3943057, "lon": 2.2064851}, {"type": "node", "id": 12660080654, "lat": 41.3943626, "lon": 2.2065405}, {"type": "node", "id": 12660080655, "lat": 41.3943862, "lon": 2.2064974}, {"type": "node", "id": 12660080656, "lat": 41.3943293, "lon": 2.2064421}, {"type": "node", "id": 12660108712, "lat": 41.3932933, "lon": 2.2056479}, {"type": "node", "id": 12660108713, "lat": 41.393355, "lon": 2.2056843}, {"type": "node", "id": 12660108714, "lat": 41.3933698, "lon": 2.2056398}, {"type": "node", "id": 12660108715, "lat": 41.393308, "lon": 2.2056033}, {"type": "node", "id": 12691417681, "lat": 41.4043004, "lon": 2.1981787, "tags": {"addr:city": "Barcelona", "addr:housenumber": "148", "addr:postcode": "08018", "addr:street": "Carrer de Sant Joan de Malta", "amenity": "cafe", "cuisine": "coffee_shop;breakfast;brunch", "name": "Osom Nou", "website": "https://somososom.com/"}}, {"type": "node", "id": 12837309875, "lat": 41.4004874, "lon": 2.1993727, "tags": {"amenity": "cafe", "name": "Labath"}}, {"type": "node", "id": 12878647527, "lat": 41.3990651, "lon": 2.1974872, "tags": {"air_conditioning": "yes", "amenity": "cafe", "check_date": "2025-06", "indoor_seating": "yes", "name": "Mono Cafe", "outdoor_seating": "no"}}, {"type": "way", "id": 217583609, "nodes": [4745966852, 2268684613, 2268684609, 2268684600, 2268684579, 2268684586, 2268684582, 2268684590, 4745966852], "tags": {"amenity": "restaurant", "building": "yes", "name": "L'Escamarl\u00e0"}}, {"type": "way", "id": 217583616, "nodes": [4745966861, 2268684670, 2268684668, 2268684665, 2268684664, 2268684662, 2268684653, 2268684659, 4745966861], "tags": {"amenity": "restaurant", "building": "yes", "contact:city": "Barcelona", "contact:housenumber": "186", "contact:postcode": "08005", "contact:street": "Carrer de Ramon Turr\u00f3", "cuisine": "seafood", "name": "Can Fisher", "operator": "Releni 2017, S.L.", "outdoor_seating": "yes"}}, {"type": "way", "id": 412702054, "nodes": [8019133785, 4140597630, 4140597631, 4140597632, 4140597633, 4140597634, 8019133785], "tags": {"amenity": "cafe", "building": "yes", "contact:instagram": "camping_bcn", "name": "Camping", "opening_hours": "Sa-Su 11:00-19:00"}}, {"type": "way", "id": 651707812, "nodes": [1356119783, 6110888414, 6110888425, 6110888424, 6110888428, 1356119783]}, {"type": "way", "id": 651707814, "nodes": [6110888415, 6110888429, 6110888419, 6110888417, 6110888415]}, {"type": "way", "id": 651707815, "nodes": [6110888421, 6110888423, 6110888418, 6110888427, 6110888421]}, {"type": "way", "id": 1367091257, "nodes": [12660108715, 12660108714, 12660108713, 12660108712, 12660108715], "tags": {"amenity": "cafe", "building": "yes", "name": "Bo Kaap", "wheelchair": "yes"}}, {"type": "way", "id": 1367091871, "nodes": [12660080656, 12660080655, 12660080654, 12660080653, 12660080656], "tags": {"amenity": "cafe", "name": "Vai Moana", "wheelchair": "yes"}}, {"type": "way", "id": 1367092595, "nodes": [12660053966, 12660053965, 12660053964, 12660053963, 12660053966], "tags": {"amenity": "cafe", "name": "Barcelona beach. El Chiringuito"}}, {"type": "relation", "id": 9070255, "members": [{"type": "way", "ref": 651707812, "role": "outer"}, {"type": "way", "ref": 651707814, "role": "inner"}, {"type": "way", "ref": 651707815, "role": "inner"}], "tags": {"amenity": "restaurant", "building": "yes", "building:levels": "2", "email": "contacte@elspescadors.com", "name": "Els pescadors", "name:ca": "Els pescadors", "phone": "+34 93 225 20 18", "type": "multipolygon", "website": "http://www.elspescadors.com"}}]}