{"version": 0.6, "generator": "Overpass API 0.7.62.7 375dc00a", "osm3s": {"timestamp_osm_base": "2025-06-14T14:47:30Z", "copyright": "The data included in this document is from www.openstreetmap.org. The data is made available under ODbL."}, "elements": [{"type": "node", "id": 292955524, "lat": 35.3426829, "lon": 25.1368968}, {"type": "node", "id": 292955526, "lat": 35.3429802, "lon": 25.1372934}, {"type": "node", "id": 292955527, "lat": 35.343076, "lon": 25.1371855}, {"type": "node", "id": 292955528, "lat": 35.3427788, "lon": 25.1367888}, {"type": "node", "id": 408996389, "lat": 35.3008702, "lon": 25.1600588, "tags": {"amenity": "restaurant", "cuisine": "greek", "name": "Pasiphae"}}, {"type": "node", "id": 408996391, "lat": 35.2980779, "lon": 25.1608467, "tags": {"amenity": "restaurant", "cuisine": "greek"}}, {"type": "node", "id": 442073234, "lat": 35.4072662, "lon": 25.0185304, "tags": {"amenity": "restaurant", "name": "Almyra", "survey:date": "2023-08-03"}}, {"type": "node", "id": 654056983, "lat": 35.3081347, "lon": 25.0811866, "tags": {"amenity": "restaurant", "name": "\u039b\u03ad\u03c3\u03c7\u03b7 \u03a0\u03b1\u03bd\u03b5\u03c0\u03b9\u03c3\u03c4\u03b7\u03bc\u03af\u03bf\u03c5 \u039a\u03c1\u03ae\u03c4\u03b7\u03c2", "operator": "\u0393\u03b5\u03c5\u03c3\u03ae\u03bd\u03bf\u03c5\u03c2"}}, {"type": "node", "id": 664153283, "lat": 35.3319158, "lon": 25.207231}, {"type": "node", "id": 669418180, "lat": 35.3361121, "lon": 25.1313278, "tags": {"amenity": "restaurant", "int_name": "Kagiampis", "name": "\u039a\u03b1\u03b3\u03b9\u03b1\u03bc\u03c0\u03ae\u03c2"}}, {"type": "node", "id": 738433944, "lat": 35.335809, "lon": 25.0695607, "tags": {"amenity": "restaurant", "name": "Uncle George"}}, {"type": "node", "id": 790077050, "lat": 35.2343075, "lon": 25.0293752, "tags": {"amenity": "cafe", "name": "Frankfurt Main", "wheelchair": "limited"}}, {"type": "node", "id": 800387243, "lat": 35.3358625, "lon": 25.1379749}, {"type": "node", "id": 800387249, "lat": 35.335877, "lon": 25.137952}, {"type": "node", "id": 800387295, "lat": 35.3358451, "lon": 25.1379215}, {"type": "node", "id": 800387330, "lat": 35.3358306, "lon": 25.1379443}, {"type": "node", "id": 1057068138, "lat": 35.3398183, "lon": 25.1354265, "tags": {"addr:housenumber": "13", "addr:street": "\u039c\u03b5\u03c1\u03b1\u03bc\u03b2\u03ad\u03bb\u03bf\u03c5", "amenity": "restaurant", "cuisine": "regional;mediterranean", "internet_access": "wlan", "internet_access:fee": "no", "name": "\u039d\u03cc\u03c4\u03b9\u03bf \u03a3\u03ad\u03bb\u03b1\u03c2", "name:de": "Notio Selas", "name:el": "\u039d\u03cc\u03c4\u03b9\u03bf \u03a3\u03ad\u03bb\u03b1\u03c2", "opening_hours": "Mo-Su 10:00-03:00", "phone": "+30 2810240027", "smoking": "no", "smoking:outside": "yes", "toilets:wheelchair": "no", "wheelchair": "limited"}}, {"type": "node", "id": 1191022854, "lat": 35.1347725, "lon": 24.9100859, "tags": {"amenity": "restaurant", "name": "Idi", "tourism": "hotel"}}, {"type": "node", "id": 1327303411, "lat": 35.1304169, "lon": 24.9048395, "tags": {"addr:city": "Zaros", "addr:country": "GR", "addr:postcode": "70002", "amenity": "restaurant", "email": "info@vegerazaros.gr", "name": "Vegera", "name:en": "Vegera", "phone": "+30 28940 31730", "website": "https://www.vegerazaros.gr/"}}, {"type": "node", "id": 1433419271, "lat": 35.4144791, "lon": 24.784008, "tags": {"amenity": "restaurant", "internet_access": "wlan", "internet_access:fee": "no", "name": "Panorama"}}, {"type": "node", "id": 1433419280, "lat": 35.4106927, "lon": 24.7823093, "tags": {"amenity": "restaurant", "cuisine": "greek", "name": "Porto Paradiso"}}, {"type": "node", "id": 1455980444, "lat": 35.3355741, "lon": 25.0683537, "tags": {"amenity": "restaurant", "name": "Petoussis"}}, {"type": "node", "id": 1585920747, "lat": 35.4147297, "lon": 24.7828109, "tags": {"amenity": "restaurant", "cuisine": "greek", "name": "Nest", "name:el": "\u03a6\u03c9\u03bb\u03b9\u03ac", "name:en": "Nest", "name:ru": "\u041d\u0435\u0441\u0442"}}, {"type": "node", "id": 1585922690, "lat": 35.4114703, "lon": 24.7829318, "tags": {"amenity": "restaurant", "cuisine": "greek", "internet_access": "wlan", "name": "Psaropoula"}}, {"type": "node", "id": 1793688434, "lat": 35.2987607, "lon": 25.160684, "tags": {"amenity": "restaurant", "name": "Rousakis"}}, {"type": "node", "id": 1873311699, "lat": 35.3424941, "lon": 25.138897, "tags": {"addr:city": "\u0397\u03c1\u03ac\u03ba\u03bb\u03b5\u03b9\u03bf", "addr:postcode": "71202", "amenity": "restaurant", "cuisine": "seafood;mediterranean;greek", "name": "\u0395\u03c1\u03b1\u03c3\u03b9\u03c4\u03ad\u03c7\u03bd\u03b5\u03c2 \u03a8\u03b1\u03c1\u03ac\u03b4\u03b5\u03c2", "outdoor_seating": "yes", "toilets:wheelchair": "no", "wheelchair": "limited"}}, {"type": "node", "id": 1879737350, "lat": 35.2520748, "lon": 24.9900816, "tags": {"amenity": "restaurant", "name": "Taverna Christina"}}, {"type": "node", "id": 1979734992, "lat": 35.1359598, "lon": 24.9658941, "tags": {"amenity": "restaurant"}}, {"type": "node", "id": 2218475477, "lat": 35.3410315, "lon": 25.1275864}, {"type": "node", "id": 2218475479, "lat": 35.3409399, "lon": 25.1276879}, {"type": "node", "id": 2218475481, "lat": 35.3410261, "lon": 25.1277364}, {"type": "node", "id": 2218475482, "lat": 35.3409692, "lon": 25.1279372}, {"type": "node", "id": 2218475487, "lat": 35.3410388, "lon": 25.1278629}, {"type": "node", "id": 2245394426, "lat": 35.3351993, "lon": 25.1335772, "tags": {"amenity": "cafe", "name": "\u03a4\u03bf \u039a\u03bf\u03c5\u03ba\u03bf\u03cd\u03c4\u03c3\u03b9", "wheelchair": "limited"}}, {"type": "node", "id": 2282122267, "lat": 35.4015981, "lon": 24.7879337, "tags": {"amenity": "restaurant"}}, {"type": "node", "id": 2302708868, "lat": 35.3351868, "lon": 25.0684238, "tags": {"amenity": "restaurant", "name": "Roxani"}}, {"type": "node", "id": 2308056278, "lat": 35.306741, "lon": 25.0822772, "tags": {"amenity": "cafe", "operator": "\u0393\u03b5\u03c5\u03c3\u03ae\u03bd\u03bf\u03c5\u03c2 \u0395.\u03a0.\u0395.", "smoking": "no", "wheelchair": "yes"}}, {"type": "node", "id": 2308056279, "lat": 35.3087827, "lon": 25.0829952, "tags": {"amenity": "cafe", "cuisine": "regional", "internet_access": "wlan", "name": "\u0393\u03b5\u03c5\u03c3\u03ae\u03bd\u03bf\u03c5\u03c2", "opening_hours": "Mo-Fr 08:00-20:00", "operator": "\u0393\u03b5\u03c5\u03c3\u03ae\u03bd\u03bf\u03c5\u03c2", "smoking": "no", "wheelchair": "yes"}}, {"type": "node", "id": 2325325270, "lat": 35.3392229, "lon": 25.1319383, "tags": {"amenity": "restaurant", "cuisine": "greek", "name": "\u03a0\u03b1\u03c1\u03b1\u03b4\u03bf\u03c3\u03b9\u03b1\u03ba\u03cc", "name:el": "\u03a0\u03b1\u03c1\u03b1\u03b4\u03bf\u03c3\u03b9\u03b1\u03ba\u03cc", "name:pl": "Paradosiako", "wheelchair": "no"}}, {"type": "node", "id": 2325438960, "lat": 35.3405747, "lon": 25.1198135, "tags": {"amenity": "restaurant", "name": "Yasouvlaki"}}, {"type": "node", "id": 2334317717, "lat": 35.3078645, "lon": 25.1506625, "tags": {"amenity": "cafe"}}, {"type": "node", "id": 2334317744, "lat": 35.3013608, "lon": 25.148938, "tags": {"amenity": "cafe"}}, {"type": "node", "id": 2373084057, "lat": 35.3312904, "lon": 25.1298895, "tags": {"amenity": "cafe", "name": "\u0395\u03c5\u03ba\u03ac\u03bb\u03c5\u03c0\u03c4\u03bf\u03c2", "wheelchair": "yes"}}, {"type": "node", "id": 2389290146, "lat": 35.4102774, "lon": 24.7825678, "tags": {"amenity": "restaurant", "name": "Mambo"}}, {"type": "node", "id": 2391637768, "lat": 35.2341412, "lon": 25.1587877, "tags": {"amenity": "restaurant", "cuisine": "regional", "name": "Bakaliko", "opening_hours": "Mo-Su 10:00-21:00", "shop": "deli", "website": "https://www.bakalikocrete.com/"}}, {"type": "node", "id": 2416362710, "lat": 35.2476754, "lon": 25.0276674, "tags": {"amenity": "cafe"}}, {"type": "node", "id": 2459857893, "lat": 35.3996355, "lon": 25.0258233, "tags": {"amenity": "restaurant", "indoor_seating": "yes", "name": "\u03a4\u03b1\u03b2\u03ad\u03c1\u03bd\u03b1 \u0391\u03bd\u03b1\u03c4\u03bf\u03bb\u03ae", "name:el": "\u03a4\u03b1\u03b2\u03ad\u03c1\u03bd\u03b1 \u0391\u03bd\u03b1\u03c4\u03bf\u03bb\u03ae", "name:en": "Taverna Anatoli", "outdoor_seating": "yes"}}, {"type": "node", "id": 2459857894, "lat": 35.3985794, "lon": 25.028774, "tags": {"amenity": "restaurant", "cuisine": "greek", "name": "\u03a4\u03b1\u03b2\u03ad\u03c1\u03bd\u03b1 \u039b\u03c5\u03b3\u03b1\u03c1\u03b9\u03ac", "name:de": "Taverna Lygaria", "name:el": "\u03a4\u03b1\u03b2\u03ad\u03c1\u03bd\u03b1 \u039b\u03c5\u03b3\u03b1\u03c1\u03b9\u03ac", "name:en": "Taverna Lygaria"}}, {"type": "node", "id": 2459857895, "lat": 35.398585, "lon": 25.0276708, "tags": {"amenity": "restaurant", "name": "Taverna Sirocco", "name:de": "Taverna Sirocco"}}, {"type": "node", "id": 2459857915, "lat": 35.3948562, "lon": 25.0345094}, {"type": "node", "id": 2459857919, "lat": 35.3948706, "lon": 25.034561}, {"type": "node", "id": 2459857923, "lat": 35.3948977, "lon": 25.0344784}, {"type": "node", "id": 2459857925, "lat": 35.3949253, "lon": 25.0345337}, {"type": "node", "id": 2459857926, "lat": 35.3949301, "lon": 25.0344674}, {"type": "node", "id": 2459857931, "lat": 35.3949638, "lon": 25.0344652}, {"type": "node", "id": 2459857932, "lat": 35.3949638, "lon": 25.0345308}, {"type": "node", "id": 2459857933, "lat": 35.3949944, "lon": 25.0345396}, {"type": "node", "id": 2459857935, "lat": 35.3950053, "lon": 25.0344733}, {"type": "node", "id": 2459857936, "lat": 35.3950215, "lon": 25.0345713}, {"type": "node", "id": 2459857938, "lat": 35.3950383, "lon": 25.0344969}, {"type": "node", "id": 2459857939, "lat": 35.3950395, "lon": 25.0346082}, {"type": "node", "id": 2459857940, "lat": 35.3950461, "lon": 25.0346414}, {"type": "node", "id": 2459857941, "lat": 35.3950636, "lon": 25.0345374}, {"type": "node", "id": 2459857942, "lat": 35.3950774, "lon": 25.034578}, {"type": "node", "id": 2459857943, "lat": 35.3950816, "lon": 25.034603}, {"type": "node", "id": 2459857944, "lat": 35.3950858, "lon": 25.0346399}, {"type": "node", "id": 2459857970, "lat": 35.398619, "lon": 25.0271495, "tags": {"amenity": "cafe"}}, {"type": "node", "id": 2476292933, "lat": 35.4101293, "lon": 24.770371}, {"type": "node", "id": 2476292936, "lat": 35.410166, "lon": 24.7702098}, {"type": "node", "id": 2476292937, "lat": 35.4102822, "lon": 24.7705367}, {"type": "node", "id": 2476292940, "lat": 35.4103428, "lon": 24.7702704}, {"type": "node", "id": 2481477021, "lat": 35.3111042, "lon": 24.8450836, "tags": {"amenity": "restaurant"}}, {"type": "node", "id": 2481485472, "lat": 35.3389671, "lon": 25.0637967, "tags": {"amenity": "restaurant"}}, {"type": "node", "id": 2488236529, "lat": 35.3407368, "lon": 25.1329215, "tags": {"amenity": "cafe", "name": "Avant Garde"}}, {"type": "node", "id": 2488236534, "lat": 35.3401232, "lon": 25.1312875, "tags": {"amenity": "cafe", "name": "\u039f\u03c5\u03c4\u03bf\u03c0\u03af\u03b1", "wheelchair": "limited"}}, {"type": "node", "id": 2488236549, "lat": 35.3400564, "lon": 25.1313966, "tags": {"amenity": "cafe", "name": "\u0395\u03c0\u03af \u03a7\u03ac\u03bd\u03b4\u03b1\u03ba\u03bf\u03c2", "wheelchair": "limited"}}, {"type": "node", "id": 2522457901, "lat": 35.3387673, "lon": 25.140259, "tags": {"amenity": "restaurant", "cuisine": "asian", "name": "Wasabi multi asian"}}, {"type": "node", "id": 2526590799, "lat": 35.1921175, "lon": 25.0782995}, {"type": "node", "id": 2616396338, "lat": 35.3157676, "lon": 25.035554, "tags": {"amenity": "restaurant"}}, {"type": "node", "id": 2749917348, "lat": 35.3417997, "lon": 25.1340955, "tags": {"addr:city": "\u0397\u03c1\u03ac\u03ba\u03bb\u03b5\u03b9\u03bf", "addr:housenumber": "17", "addr:street": "\u039b\u03bf\u03c7. \u0399. \u039c\u03b1\u03c1\u03b9\u03bd\u03ad\u03bb\u03b7", "amenity": "restaurant", "cuisine": "regional", "name": "\u039f\u03c5\u03b6\u03b5\u03c1\u03af \u03c4\u03bf\u03c5 \u03a4\u03b5\u03c1\u03b6\u03ac\u03ba\u03b7", "website": "http://terzakhs.gr/", "wheelchair": "limited"}}, {"type": "node", "id": 2751863566, "lat": 35.3422338, "lon": 25.1337257, "tags": {"amenity": "restaurant", "cuisine": "regional", "name": "\u039b\u03b1\u03ba\u03bf\u03cd\u03b2\u03b1"}}, {"type": "node", "id": 2751874528, "lat": 35.3415331, "lon": 25.135824, "tags": {"addr:city": "\u0397\u03c1\u03ac\u03ba\u03bb\u03b5\u03b9\u03bf", "addr:housenumber": "9", "addr:postcode": "71202", "addr:street": "\u0395\u03c0\u03b9\u03bc\u03b5\u03bd\u03af\u03b4\u03bf\u03c5", "amenity": "restaurant", "cuisine": "greek", "name": "Veneto", "phone": "+302810223686", "wheelchair": "no"}}, {"type": "node", "id": 2751882341, "lat": 35.3413977, "lon": 25.1364794, "tags": {"addr:city": "\u0397\u03c1\u03ac\u03ba\u03bb\u03b5\u03b9\u03bf", "addr:housenumber": "6", "addr:postcode": "71201", "addr:street": "\u0391\u03c1\u03b9\u03ac\u03b4\u03bd\u03b7\u03c2", "amenity": "restaurant", "cuisine": "regional", "name": "\u03a0\u03bb\u03ac\u03bd\u03b7", "opening_hours": "Mo-Su,PH 19:30-24:00", "phone": "+(30)2810240117", "website": "https://www.tripadvisor.com.gr/Restaurant_Review-g189417-d5982408-Reviews-Plani-Heraklion_Crete.html"}}, {"type": "node", "id": 2865409942, "lat": 35.3355209, "lon": 25.1309111, "tags": {"addr:city": "\u0397\u03c1\u03ac\u03ba\u03bb\u03b5\u03b9\u03bf", "addr:housenumber": "35", "addr:street": "\u0392\u03b9\u03ba\u03ad\u03bb\u03b1", "amenity": "cafe", "name": "\u03a4\u03bf \u0393\u03c1\u03b1\u03bd\u03ac\u03b6\u03b9", "website": "http://swmateiotogranazi.blogspot.gr/"}}, {"type": "node", "id": 2943423624, "lat": 35.2984707, "lon": 24.8392462}, {"type": "node", "id": 2943426933, "lat": 35.2985254, "lon": 24.8394586}, {"type": "node", "id": 2943426940, "lat": 35.2984139, "lon": 24.8393945}, {"type": "node", "id": 2943426948, "lat": 35.2985822, "lon": 24.8393103}, {"type": "node", "id": 2956018774, "lat": 35.4161198, "lon": 25.0184809}, {"type": "node", "id": 2956018778, "lat": 35.4161745, "lon": 25.0185966}, {"type": "node", "id": 2956018781, "lat": 35.4162199, "lon": 25.0184181}, {"type": "node", "id": 2956018788, "lat": 35.4162862, "lon": 25.0185681}, {"type": "node", "id": 2956896349, "lat": 35.4152133, "lon": 25.0188422}, {"type": "node", "id": 2956896352, "lat": 35.415229, "lon": 25.0190858}, {"type": "node", "id": 2956896359, "lat": 35.4152549, "lon": 25.0191229}, {"type": "node", "id": 2956896360, "lat": 35.4153097, "lon": 25.0189673}, {"type": "node", "id": 2956896363, "lat": 35.4153414, "lon": 25.0190133}, {"type": "node", "id": 2960171391, "lat": 35.3426532, "lon": 25.1343446, "tags": {"amenity": "restaurant", "check_date": "2024-11-15", "email": "info@ligokrasiligothalassa.gr", "int_name": "Ligo krasi, Ligo thalassa", "internet_access": "wlan", "internet_access:fee": "yes", "name": "\u039b\u03af\u03b3\u03bf \u03ba\u03c1\u03b1\u03c3\u03af, \u039b\u03af\u03b3\u03bf \u0398\u03ac\u03bb\u03b1\u03c3\u03c3\u03b1", "opening_hours": "Mo-Su 09:00-01:00", "outdoor_seating": "yes", "phone": "+30 2810 300 501", "smoking": "separated", "toilets:wheelchair": "no", "website": "https://www.ligokrasiligothalassa.gr/", "wheelchair": "limited"}}, {"type": "node", "id": 2997998433, "lat": 35.3401838, "lon": 25.1337018, "tags": {"amenity": "restaurant", "name": "Central Park", "opening_hours": "24/7", "phone": "+30 2810 34650", "toilets:wheelchair": "no", "website": "https://www.central-park.gr/", "wheelchair": "limited"}}, {"type": "node", "id": 3004149118, "lat": 35.339449, "lon": 25.125025, "tags": {"amenity": "cafe", "name": "Cafe Neo", "note": "Cafe Neo is the oldest cafe that the immigrants from Asia Minor used meet and make music. Recently it is local inhabitant cafe where you can meet the neighborhood old people."}}, {"type": "node", "id": 3073347533, "lat": 35.3357832, "lon": 25.0703393, "tags": {"addr:city": "Ammoudara", "addr:housenumber": "118", "addr:postcode": "71414", "addr:street": "\u0391\u03bd\u03b4\u03c1\u03ad\u03b1 \u03a0\u03b1\u03c0\u03b1\u03bd\u03b4\u03c1\u03ad\u03bf\u03c5", "amenity": "restaurant", "atm": "no", "cuisine": "regional;greek", "description": "This is 1 of only 2 authentic \"kafeneios\" left in Ammoudara. Sit down there and enjoy a relaxed afternoon with some \"mez\u00e8des\" and a glass of chilled white country wine.", "drive_through": "no", "internet_access": "no", "name": "\u039c\u03b5\u03b6\u03b5\u03b4\u03bf\u03c0\u03c9\u03bb\u03b5\u03af\u03bf \u039b\u03ac\u03b6\u03b1\u03c1\u03bf\u03c2", "name:el": "\u039c\u03b5\u03b6\u03b5\u03b4\u03bf\u03c0\u03c9\u03bb\u03b5\u03af\u03bf \u039b\u03ac\u03b6\u03b1\u03c1\u03bf\u03c2", "name:en": "Lazaros", "outdoor_seating": "yes", "phone": "+30 281 082 4830", "source": "I live there"}}, {"type": "node", "id": 3082520668, "lat": 35.3422104, "lon": 25.1302239}, {"type": "node", "id": 3082520669, "lat": 35.34225, "lon": 25.130445}, {"type": "node", "id": 3082520670, "lat": 35.3423949, "lon": 25.130173}, {"type": "node", "id": 3082520674, "lat": 35.3424348, "lon": 25.1303953}, {"type": "node", "id": 3095309649, "lat": 35.4172864, "lon": 25.0185729, "tags": {"amenity": "restaurant", "cuisine": "japanese", "name": "Umi", "name:en": "Yasmin Chinese Restaurant", "name:ru": "\u041a\u0438\u0442\u0430\u0439\u0441\u043a\u0438\u0439 \u0440\u0435\u0441\u0442\u043e\u0440\u0430\u043d \u042f\u0441\u043c\u0438\u043d"}}, {"type": "node", "id": 3112767070, "lat": 35.2027234, "lon": 24.9916467, "tags": {"amenity": "restaurant", "cuisine": "greek", "name": "Earino"}}, {"type": "node", "id": 3120451966, "lat": 35.4168414, "lon": 24.7845991, "tags": {"addr:city": "Bali", "addr:street": "\u039a\u03b1\u03c1\u03b1\u03b2\u03bf\u03c3\u03c4\u03b1\u03c3\u03b9", "amenity": "restaurant", "cuisine": "greek", "name": "Taverna Karavostasi", "outdoor_seating": "yes", "phone": "+30 2834 094267"}}, {"type": "node", "id": 3442552860, "lat": 35.335334, "lon": 25.1578306, "tags": {"amenity": "cafe", "name": "cofferight"}}, {"type": "node", "id": 3442555794, "lat": 35.3407776, "lon": 25.1577931, "tags": {"amenity": "restaurant"}}, {"type": "node", "id": 3458004310, "lat": 35.4049363, "lon": 25.0184919, "tags": {"amenity": "restaurant", "name": "Bravo"}}, {"type": "node", "id": 3458016628, "lat": 35.4063985, "lon": 25.0125181, "tags": {"amenity": "cafe", "name": "Sebastian Cafe"}}, {"type": "node", "id": 3523581996, "lat": 35.4156195, "lon": 24.784028, "tags": {"amenity": "restaurant", "name": "Sault ke Pepper"}}, {"type": "node", "id": 3523603459, "lat": 35.4135571, "lon": 24.7828971, "tags": {"amenity": "restaurant", "name": "Mythos"}}, {"type": "node", "id": 3561532863, "lat": 35.1406096, "lon": 24.9102406}, {"type": "node", "id": 3561532864, "lat": 35.1405838, "lon": 24.9103315}, {"type": "node", "id": 3561532865, "lat": 35.1404512, "lon": 24.9102841}, {"type": "node", "id": 3572485050, "lat": 35.3323443, "lon": 25.1029506}, {"type": "node", "id": 3572485057, "lat": 35.3323908, "lon": 25.1027448}, {"type": "node", "id": 3572485066, "lat": 35.3324611, "lon": 25.1029902}, {"type": "node", "id": 3572485068, "lat": 35.3324767, "lon": 25.102921}, {"type": "node", "id": 3572485071, "lat": 35.3324957, "lon": 25.1028642}, {"type": "node", "id": 3572485072, "lat": 35.3325014, "lon": 25.1029294}, {"type": "node", "id": 3572485073, "lat": 35.3325133, "lon": 25.1027864}, {"type": "node", "id": 3572485074, "lat": 35.3325147, "lon": 25.1028707}, {"type": "node", "id": 3579872200, "lat": 35.3409771, "lon": 25.1275871}, {"type": "node", "id": 3579872201, "lat": 35.3409761, "lon": 25.127679}, {"type": "node", "id": 3593337836, "lat": 35.3354175, "lon": 25.0898994, "tags": {"amenity": "restaurant", "cuisine": "greek", "name": "Mitato"}}, {"type": "node", "id": 3599512637, "lat": 35.3357047, "lon": 25.0798876, "tags": {"amenity": "cafe", "name": "Autostop"}}, {"type": "node", "id": 3599512638, "lat": 35.3358594, "lon": 25.0709226, "tags": {"amenity": "cafe", "name": "Street"}}, {"type": "node", "id": 3611958762, "lat": 35.339628, "lon": 25.133286, "tags": {"amenity": "cafe", "name:en": "Granary"}}, {"type": "node", "id": 3612306388, "lat": 35.3382323, "lon": 25.1297617, "tags": {"amenity": "cafe", "brand": "Coffee Island", "brand:wikidata": "Q60867333", "brand:wikipedia": "en:Coffee Island", "cuisine": "coffee_shop", "name": "Coffee Island", "opening_hours": "Mo-Sa 06:00-22:00", "takeaway": "yes", "wheelchair": "limited"}}, {"type": "node", "id": 3612931440, "lat": 35.339761, "lon": 25.1329962, "tags": {"addr:city": "Heraklion", "addr:housenumber": "32 - 34", "addr:street": "Minotaurou", "amenity": "cafe", "name": "news cafe", "wheelchair": "yes", "wheelchair:description": "Das \"news cafe\" hat seitlich einen Eingang mit einer Rampe und ein Behindertengerechtes WC das sogar mittels Aufkleber an den Eing\u00e4ngen zum Cafe gekenzeichnet ist..."}}, {"type": "node", "id": 3612931441, "lat": 35.3394805, "lon": 25.1337193, "tags": {"addr:city": "\u0397\u03c1\u03ac\u03ba\u03bb\u03b5\u03b9\u03bf", "addr:postcode": "71202", "addr:street": "\u03a0\u03bb\u03b1\u03c4\u03b5\u03af\u03b1 \u039a\u03b1\u03bb\u03bb\u03b5\u03c1\u03b3\u03ce\u03bd", "amenity": "cafe", "name": "Largo Caf\u00e9"}}, {"type": "node", "id": 3612931442, "lat": 35.3394385, "lon": 25.1334725, "tags": {"addr:city": "\u0397\u03c1\u03ac\u03ba\u03bb\u03b5\u03b9\u03bf", "addr:postcode": "71202", "addr:street": "\u03a0\u03bb\u03b1\u03c4\u03b5\u03af\u03b1 \u039a\u03b1\u03bb\u03bb\u03b5\u03c1\u03b3\u03ce\u03bd", "amenity": "restaurant", "name": "Gordian Knot"}}, {"type": "node", "id": 3612931443, "lat": 35.3407503, "lon": 25.134601, "tags": {"addr:city": "\u0397\u03c1\u03ac\u03ba\u03bb\u03b5\u03b9\u03bf", "addr:postcode": "71202", "addr:street": "\u039a\u03bf\u03c1\u03c9\u03bd\u03b1\u03af\u03bf\u03c5", "amenity": "restaurant", "int_name": "Anchorage", "name": "Anchorage", "name:el": "Anchorage", "toilets:wheelchair": "no", "wheelchair": "limited"}}, {"type": "node", "id": 3612931446, "lat": 35.3393272, "lon": 25.1329295, "tags": {"addr:city": "\u0397\u03c1\u03ac\u03ba\u03bb\u03b5\u03b9\u03bf", "addr:housenumber": "15", "addr:postcode": "71202", "addr:street": "\u03a0\u03bb\u03b1\u03c4\u03b5\u03af\u03b1 \u0395\u03bb\u03b5\u03c5\u03b8\u03b5\u03c1\u03af\u03bf\u03c5 \u0392\u03b5\u03bd\u03b9\u03b6\u03ad\u03bb\u03bf\u03c5", "amenity": "cafe", "contact:facebook": "https://www.facebook.com/Kosmich-Bubble-Tea-Coffee-649869551762474/", "cuisine": "bubble_tea", "indoor_seating": "no", "name": "Kosmich", "outdoor_seating": "yes"}}, {"type": "node", "id": 3613007732, "lat": 35.3335708, "lon": 25.1356846, "tags": {"amenity": "restaurant", "cuisine": "crepe;burger;sandwich", "name": "Metro", "opening_hours": "Mo-Su 12:00-05:00", "wheelchair": "limited"}}, {"type": "node", "id": 3613007733, "lat": 35.3333668, "lon": 25.1354497, "tags": {"amenity": "restaurant", "cuisine": "gyros", "wheelchair": "no"}}, {"type": "node", "id": 3617501652, "lat": 35.3388581, "lon": 25.1327606, "tags": {"addr:housenumber": "15-17", "addr:street": "\u038a\u03b4\u03b7\u03c2", "amenity": "cafe", "branch": "\u039c\u03b9\u03ba\u03c1\u03bf\u03b3\u03b5\u03cd\u03bc\u03b1\u03c4\u03b1", "brand": "\u0393\u03c1\u03b7\u03b3\u03cc\u03c1\u03b7\u03c2", "brand:el": "\u0393\u03c1\u03b7\u03b3\u03cc\u03c1\u03b7\u03c2", "brand:en": "Gregorys", "brand:wikidata": "Q62273834", "cuisine": "sandwich", "fixme": "\u03b4\u03b5\u03bd \u03b2\u03c1\u03af\u03c3\u03ba\u03b5\u03c4\u03b1\u03b9 \u03c3\u03c4\u03b7 \u03c3\u03b5\u03bb\u03af\u03b4\u03b1 \u03c4\u03bf\u03c5\u03c2, \u03bc\u03ae\u03c0\u03c9\u03c2 \u03ad\u03c7\u03b5\u03b9 \u03ba\u03bb\u03b5\u03af\u03c3\u03b5\u03b9;", "name": "\u0393\u03c1\u03b7\u03b3\u03cc\u03c1\u03b7\u03c2", "name:el": "\u0393\u03c1\u03b7\u03b3\u03cc\u03c1\u03b7\u03c2", "name:en": "Gregorys", "takeaway": "yes", "website": "https://www.gregorys.gr/", "wheelchair": "no"}}, {"type": "node", "id": 3617501665, "lat": 35.3390763, "lon": 25.1354835, "tags": {"amenity": "restaurant", "cuisine": "greek", "name": "\u039f\u03bd\u03c4\u03ac\u03c2", "toilets:wheelchair": "no", "wheelchair": "limited"}}, {"type": "node", "id": 3617815580, "lat": 35.4006692, "lon": 24.9551583}, {"type": "node", "id": 3617815584, "lat": 35.4006908, "lon": 24.9552803}, {"type": "node", "id": 3617815587, "lat": 35.4007278, "lon": 24.9551426}, {"type": "node", "id": 3617815589, "lat": 35.4007494, "lon": 24.9552646}, {"type": "node", "id": 3619569900, "lat": 35.3429733, "lon": 25.1332344, "tags": {"amenity": "restaurant", "cuisine": "greek", "internet_access": "wlan", "internet_access:fee": "yes", "microbrewery": "no", "name": "Gorgones kai Magkes", "outdoor_seating": "yes", "phone": "+302810341864", "smoking": "yes", "takeaway": "yes", "wheelchair": "limited"}}, {"type": "node", "id": 3620807257, "lat": 35.4172752, "lon": 24.7848319}, {"type": "node", "id": 3620807259, "lat": 35.4172358, "lon": 24.784795}, {"type": "node", "id": 3620807260, "lat": 35.4171981, "lon": 24.784728}, {"type": "node", "id": 3620807261, "lat": 35.417085, "lon": 24.7847974}, {"type": "node", "id": 3620807262, "lat": 35.4171221, "lon": 24.7848939}, {"type": "node", "id": 3620807263, "lat": 35.4171822, "lon": 24.784957}, {"type": "node", "id": 3627400021, "lat": 35.3358021, "lon": 25.1238135, "tags": {"addr:housenumber": "7", "addr:street": "\u0398\u03b5\u03c1\u03af\u03c3\u03c3\u03bf\u03c5", "amenity": "restaurant", "cuisine": "gyros", "level": "0", "name": "\u03a0\u0395\u03a4\u03a1\u039f\u03a5\u039b\u0399\u039f\u03a3"}}, {"type": "node", "id": 3677142674, "lat": 35.3393541, "lon": 25.1338661, "tags": {"addr:city": "\u0397\u03c1\u03ac\u03ba\u03bb\u03b5\u03b9\u03bf", "addr:street": "\u039f\u03b4\u03cc\u03c2 \u0391\u03bd\u03b4\u03c1\u03cc\u03b3\u03b5\u03c9", "amenity": "cafe", "internet_access": "yes"}}, {"type": "node", "id": 3683410518, "lat": 35.3351043, "lon": 25.1571791}, {"type": "node", "id": 3683410522, "lat": 35.3351667, "lon": 25.1571724}, {"type": "node", "id": 3688231720, "lat": 35.3280874, "lon": 25.1430151, "tags": {"amenity": "cafe", "name": "Caf\u00e9 de May"}}, {"type": "node", "id": 3713231149, "lat": 35.3430275, "lon": 25.1570823, "tags": {"addr:city": "\u039d\u03ad\u03b1 \u0391\u03bb\u03b9\u03ba\u03b1\u03c1\u03bd\u03b1\u03c3\u03c3\u03cc\u03c2", "addr:housenumber": "63", "addr:postcode": "71601", "addr:street": "\u039b\u03b5\u03c9\u03c6\u03cc\u03c1\u03bf\u03c2 \u0397\u03c1\u03bf\u03b4\u03cc\u03c4\u03bf\u03c5", "amenity": "restaurant", "capacity": "100", "cuisine": "fish", "name": "\u0393\u03b9\u03bf\u03c5\u03c3\u03bf\u03c5\u03c1\u03bf", "opening_hours": "12:00 - 24:30", "phone": "+30 2810223000", "smoking": "outside", "website": "https://www.e-table.gr/restaurant/gioysoyro-to", "wheelchair": "yes"}}, {"type": "node", "id": 3718345505, "lat": 35.4151096, "lon": 25.0189132}, {"type": "node", "id": 3741483454, "lat": 35.2909077, "lon": 24.8846888, "tags": {"amenity": "restaurant", "name": "Aetos"}}, {"type": "node", "id": 3741483456, "lat": 35.1743005, "lon": 25.2107158, "tags": {"amenity": "restaurant", "name": "Alagni"}}, {"type": "node", "id": 3741483458, "lat": 35.2340607, "lon": 25.1585754, "tags": {"amenity": "restaurant", "int_name": "Spitiko", "name": "\u03c3\u03c0\u03b9\u03c4\u03b9\u03c5\u03cc"}}, {"type": "node", "id": 3741483464, "lat": 35.3417347, "lon": 25.1366522, "tags": {"amenity": "restaurant", "name": "Herbs\u00b4Garden", "wheelchair": "yes"}}, {"type": "node", "id": 3741483465, "lat": 35.3379385, "lon": 25.133253, "tags": {"amenity": "restaurant", "name": "I Agora 1866", "wheelchair": "yes"}}, {"type": "node", "id": 3741483466, "lat": 35.3427989, "lon": 25.1337614, "tags": {"amenity": "restaurant", "name": "Ippokampos", "wheelchair": "limited"}}, {"type": "node", "id": 3741483477, "lat": 35.3404461, "lon": 25.1325207, "tags": {"addr:country": "GR", "addr:housenumber": "2", "addr:street": "\u039c\u03b9\u03bd\u03ce\u03c4\u03b1\u03c5\u03c1\u03bf\u03c5", "amenity": "restaurant", "cuisine": "greek", "level": "0", "name": "\u03a3\u03b9\u03b3\u03ac \u03a3\u03b9\u03b3\u03ac", "operator": "\u039a\u03c9\u03bd\u03c3\u03c4\u03b1\u03bd\u03c4\u03af\u03bd\u03bf\u03c2 \u03a4\u03b1\u03bd\u03c4\u03ae\u03c2", "outdoor_seating": "yes", "phone": "+30 281 028 3794"}}, {"type": "node", "id": 3741483481, "lat": 35.3670028, "lon": 25.0202587, "tags": {"amenity": "restaurant", "name": "Taverna Kegos"}}, {"type": "node", "id": 3741483484, "lat": 35.1298471, "lon": 24.9044581, "tags": {"amenity": "restaurant", "name": "Taverna Vivi in Zaros"}}, {"type": "node", "id": 3741483487, "lat": 35.1404771, "lon": 24.9101931}, {"type": "node", "id": 3750398026, "lat": 35.3429914, "lon": 25.1335853, "tags": {"addr:city": "\u0397\u03c1\u03ac\u03ba\u03bb\u03b5\u03b9\u03bf", "addr:housenumber": "5a", "addr:street": "\u03a3\u03bf\u03c6\u03bf\u03ba\u03bb\u03ae \u0392\u03b5\u03bd\u03b9\u03b6\u03ad\u03bb\u03bf\u03c5", "amenity": "restaurant", "contact:facebook": "kastellaheraklion", "cuisine": "greek", "int_name": "Kastella", "name": "\u039a\u03b1\u03c3\u03c4\u03b5\u03bb\u03bb\u03b1", "wheelchair": "limited"}}, {"type": "node", "id": 3750401172, "lat": 35.340165, "lon": 25.1324977, "tags": {"addr:city": "\u0397\u03c1\u03ac\u03ba\u03bb\u03b5\u03b9\u03bf", "addr:housenumber": "6-8", "addr:postcode": "71202", "addr:street": "\u039a\u03b1\u03c0\u03b5\u03c4\u03ac\u03bd \u03a7\u03b1\u03c1\u03b1\u03bb\u03ac\u03bc\u03c0\u03b7", "amenity": "restaurant", "cuisine": "regional", "int_name": "Peskesi", "name": "\u03a0\u03b5\u03c3\u03ba\u03ad\u03c3\u03b9", "opening_hours": "Mo-Su 13:00-02:00", "website": "https://peskesicrete.gr/", "wheelchair": "limited", "zero_waste": "only"}}, {"type": "node", "id": 3750404725, "lat": 35.3386665, "lon": 25.1356315, "tags": {"amenity": "cafe", "name": "La Brasserie", "website": "https://www.tripadvisor.com/Restaurant_Review-g189417-d4464033-Reviews-La_Brasserie-Heraklion_Crete.html", "wheelchair": "yes"}}, {"type": "node", "id": 3757765700, "lat": 35.3405213, "lon": 25.1335936, "tags": {"amenity": "restaurant", "cuisine": "mexican", "diet:gluten_free": "yes", "name": "Amalia's Kitchen"}}, {"type": "node", "id": 3763479096, "lat": 35.2342314, "lon": 25.1592049, "tags": {"amenity": "cafe", "name:de": "Ploumi", "name:en": "Ploumi", "shop": "clothes"}}, {"type": "node", "id": 3763484789, "lat": 35.2334647, "lon": 25.158624, "tags": {"amenity": "cafe", "name": "White Rabbit"}}, {"type": "node", "id": 3763484790, "lat": 35.2334015, "lon": 25.1588416, "tags": {"amenity": "cafe", "int_name": "Diachroniko", "name": "\u0394\u03b9\u03b1\u03c7\u03c1\u03bf\u03bd\u03b9\u03ba\u03cc", "name:el": "\u0394\u03b9\u03b1\u03c7\u03c1\u03bf\u03bd\u03b9\u03ba\u03cc"}}, {"type": "node", "id": 3763484791, "lat": 35.2335408, "lon": 25.1585894, "tags": {"amenity": "cafe", "name": "Cafe Senso"}}, {"type": "node", "id": 3763486746, "lat": 35.2332312, "lon": 25.1587253, "tags": {"amenity": "cafe", "name": "Factory"}}, {"type": "node", "id": 3763486747, "lat": 35.233268, "lon": 25.1584385, "tags": {"amenity": "restaurant", "cuisine": "regional", "int_name": "Kritamon", "name": "\u039a\u03c1\u03b9\u03c4\u03b1\u03bc\u03bf\u03bd", "outdoor_seating": "yes", "website": "https://www.kritamon.gr/"}}, {"type": "node", "id": 3763547779, "lat": 35.2341845, "lon": 25.1588737, "tags": {"amenity": "restaurant", "name": "Lykastos"}}, {"type": "node", "id": 3763547780, "lat": 35.2339829, "lon": 25.159056, "tags": {"amenity": "restaurant", "int_name": "Nikolis", "name": "\u039d\u03b9\u03ba\u03bf\u03bb\u03ae\u03c2"}}, {"type": "node", "id": 3763552681, "lat": 35.2339063, "lon": 25.1590155, "tags": {"amenity": "cafe", "name": "\u039f \u0391\u03a0\u039f\u03a3\u03a4\u039f\u039b\u0397\u03a3"}}, {"type": "node", "id": 3764170102, "lat": 35.2336803, "lon": 25.1588794, "tags": {"amenity": "restaurant", "cuisine": "pizza", "name": "deliziosa"}}, {"type": "node", "id": 3764228014, "lat": 35.2342533, "lon": 25.1590674, "tags": {"amenity": "cafe", "name": "\u03a0\u03bb\u03b1\u03c4\u03b5\u03b9\u03b1"}}, {"type": "node", "id": 3767443855, "lat": 35.2244256, "lon": 25.1756301, "tags": {"amenity": "cafe", "name": "\u0395\u03c4\u03c1\u03b1\u03bd\u03b1\u03c4\u03c3\u03b1\u03c1\u03bf\u03c2"}}, {"type": "node", "id": 3821171506, "lat": 35.2374022, "lon": 25.1593764, "tags": {"amenity": "restaurant", "cuisine": "greek", "name": "\u0397 \u0391\u039c\u03a0\u0395\u039b\u039f\u03a3"}}, {"type": "node", "id": 3822241677, "lat": 35.2344523, "lon": 25.1592622, "tags": {"amenity": "cafe", "name": "\u039a\u03bd\u03c9\u03c3\u03c3\u03cc\u03c2"}}, {"type": "node", "id": 3822242161, "lat": 35.2343429, "lon": 25.1596133, "tags": {"amenity": "cafe", "name": "\u0391\u03b3\u03bf\u03c1\u03b1"}}, {"type": "node", "id": 3822276221, "lat": 35.2356683, "lon": 25.1590661, "tags": {"amenity": "cafe"}}, {"type": "node", "id": 3822947957, "lat": 35.4018781, "lon": 24.9554061, "tags": {"amenity": "restaurant", "check_date": "2023-10-11", "cuisine": "greek", "int_name": "Orange", "name": "\u038c\u03c1\u03b1\u03bd\u03c4\u03b6"}}, {"type": "node", "id": 3822947958, "lat": 35.4019328, "lon": 24.9556208, "tags": {"amenity": "restaurant", "check_date": "2023-10-11", "cuisine": "greek", "int_name": "Plaitis", "name": "\u03a0\u03bb\u03b1\u0390\u03c4\u03b7\u03c2"}}, {"type": "node", "id": 3822948392, "lat": 35.4020509, "lon": 24.9559426, "tags": {"amenity": "restaurant", "cuisine": "greek", "int_name": "Faros", "name": "\u03a6\u03ac\u03c1\u03bf\u03c2"}}, {"type": "node", "id": 3822954280, "lat": 35.4023986, "lon": 24.9567126, "tags": {"amenity": "restaurant", "cuisine": "greek", "int_name": "Dolphin", "name": "\u039d\u03c4\u03cc\u03bb\u03c6\u03b9\u03bd"}}, {"type": "node", "id": 3926250760, "lat": 35.3252759, "lon": 25.1390124, "tags": {"addr:city": "\u0397\u03c1\u03ac\u03ba\u03bb\u03b5\u03b9\u03bf", "addr:street": "\u039b\u03b5\u03c9\u03c6\u03cc\u03c1\u03bf\u03c2 \u0391\u03bb\u03ad\u03be\u03b1\u03bd\u03b4\u03c1\u03bf \u03a0\u03b1\u03c0\u03b1\u03bd\u03b1\u03c3\u03c4\u03b1\u03c3\u03af\u03bf\u03c5", "amenity": "restaurant", "cuisine": "pizza", "name": "Champion", "wheelchair": "no"}}, {"type": "node", "id": 4031734516, "lat": 35.3416667, "lon": 25.1310471, "tags": {"addr:city": "\u0397\u03c1\u03ac\u03ba\u03bb\u03b5\u03b9\u03bf", "addr:housenumber": "8", "addr:postcode": "71202", "addr:street": "Lisimachou Kalokerinou", "amenity": "restaurant", "cuisine": "regional", "name": "I Avli tou Defkaliona", "phone": "+30 281 024 4215", "takeaway": "no", "wheelchair": "limited"}}, {"type": "node", "id": 4194666097, "lat": 35.3418305, "lon": 25.1313795, "tags": {"amenity": "restaurant", "wheelchair": "limited"}}, {"type": "node", "id": 4194667710, "lat": 35.3417295, "lon": 25.1313983, "tags": {"addr:city": "\u0397\u03c1\u03ac\u03ba\u03bb\u03b5\u03b9\u03bf", "addr:housenumber": "10", "addr:postcode": "71202", "addr:street": "\u039b\u03c5\u03c3\u03b9\u03bc\u03ac\u03c7\u03bf\u03c5 \u039a\u03b1\u03bb\u03bf\u03ba\u03b1\u03b9\u03c1\u03b9\u03bd\u03bf\u03cd", "amenity": "restaurant", "name": "Arismari & Varsamo", "wheelchair": "limited"}}, {"type": "node", "id": 4194667711, "lat": 35.3415738, "lon": 25.1313476, "tags": {"amenity": "restaurant", "wheelchair": "limited"}}, {"type": "node", "id": 4197063890, "lat": 35.330817, "lon": 25.2077021}, {"type": "node", "id": 4197124809, "lat": 35.3288184, "lon": 25.2042032, "tags": {"amenity": "restaurant"}}, {"type": "node", "id": 4197713510, "lat": 35.3307905, "lon": 25.2075498}, {"type": "node", "id": 4197713516, "lat": 35.3308412, "lon": 25.2075366}, {"type": "node", "id": 4197713522, "lat": 35.3308677, "lon": 25.2076889}, {"type": "node", "id": 4197713523, "lat": 35.3308229, "lon": 25.2075413}, {"type": "node", "id": 4197714187, "lat": 35.3319433, "lon": 25.2074006}, {"type": "node", "id": 4197715189, "lat": 35.331822, "lon": 25.20743}, {"type": "node", "id": 4197715190, "lat": 35.3317902, "lon": 25.207263}, {"type": "node", "id": 4224200992, "lat": 35.3364846, "lon": 25.1440601, "tags": {"addr:housenumber": "58", "addr:postcode": "71307", "addr:street": "\u0396\u03c9\u03bf\u03b4\u03cc\u03c7\u03bf\u03c5 \u03a0\u03b7\u03b3\u03ae\u03c2", "amenity": "restaurant", "cuisine": "greek;grill;local", "name": "\u039f \u03a0\u03af\u03c0\u03b7\u03c2", "phone": "+302810225825"}}, {"type": "node", "id": 4234085588, "lat": 35.3151958, "lon": 25.1481004, "tags": {"addr:city": "\u0397\u03a1\u0391\u039a\u039b\u0395\u0399\u039f", "addr:street": "\u03a7\u03b1\u03c4\u03b6\u03ac\u03ba\u03b7 \u0395\u03c5.", "amenity": "cafe", "cuisine": "sandwich", "internet_access": "wlan", "name": "Corretto", "name:el": "\u039a\u03bf\u03c1\u03ad\u03c4\u03bf"}}, {"type": "node", "id": 4255980690, "lat": 35.3393619, "lon": 25.1328448, "tags": {"addr:city": "\u0397\u03c1\u03ac\u03ba\u03bb\u03b5\u03b9\u03bf", "addr:housenumber": "15", "addr:postcode": "71202", "addr:street": "\u03a0\u03bb\u03b1\u03c4\u03b5\u03af\u03b1 \u0395\u03bb\u03b5\u03c5\u03b8\u03b5\u03c1\u03af\u03bf\u03c5 \u0392\u03b5\u03bd\u03b9\u03b6\u03ad\u03bb\u03bf\u03c5", "amenity": "cafe", "email": "enetico@hotmail.gr", "indoor_seating": "yes", "internet_access": "wlan", "name": "Enetiko", "outdoor_seating": "yes", "phone": "+30 2810221281", "wheelchair": "no"}}, {"type": "node", "id": 4256131389, "lat": 35.3391717, "lon": 25.1342324, "tags": {"amenity": "cafe", "brand": "Starbucks", "brand:wikidata": "Q37158", "brand:wikipedia": "en:Starbucks", "cuisine": "coffee_shop", "indoor_seating": "yes", "name": "Starbucks", "official_name": "Starbucks Coffee", "opening_hours": "Mo-Fr 09:00-22:00, Sa 08:30-22:30, Su 23:00-21:00", "outdoor_seating": "yes", "takeaway": "yes", "wheelchair": "no"}}, {"type": "node", "id": 4271615790, "lat": 35.3357619, "lon": 25.0750458, "tags": {"addr:housenumber": "201", "addr:postcode": "71414", "addr:street": "\u0391\u03bd\u03b4\u03c1\u03ad\u03b1 \u03a0\u03b1\u03c0\u03b1\u03bd\u03b4\u03c1\u03ad\u03bf\u03c5", "amenity": "cafe", "cuisine": "burger;sandwich;ice_cream;crepe;cake;coffee_shop;pasta;greek;donut;pizza;diner;chicken;italian_pizza;hot_dog;tea;local;fine_dining", "email": "fotibout@gmail.com", "internet_access": "wlan", "name": "Reef sound cafe - cocktail bar", "phone": "00302811117281"}}, {"type": "node", "id": 4283640192, "lat": 35.4062004, "lon": 24.8479329, "tags": {"amenity": "restaurant", "cuisine": "greek", "name": "Taverna"}}, {"type": "node", "id": 4285933690, "lat": 35.4053822, "lon": 25.0182328, "tags": {"amenity": "restaurant", "name": "Zorbas "}}, {"type": "node", "id": 4285933989, "lat": 35.4044482, "lon": 25.0188235, "tags": {"amenity": "restaurant", "cuisine": "greek;regional", "name": "Edem", "phone": "+30 2810811247", "website": "https://www.taverna-edem.gr/"}}, {"type": "node", "id": 4285933990, "lat": 35.4052109, "lon": 25.0183262, "tags": {"amenity": "restaurant", "name": "El Greco"}}, {"type": "node", "id": 4294811499, "lat": 35.3375174, "lon": 25.1631547, "tags": {"addr:housenumber": "98", "addr:street": "\u0399\u03ba\u03ac\u03c1\u03bf\u03c5", "amenity": "cafe", "building": "yes", "name": "The IIO Caf\u00e9", "wheelchair": "limited"}}, {"type": "node", "id": 4294836995, "lat": 35.3373141, "lon": 25.1645986, "tags": {"amenity": "cafe", "name": "\u039a\u039f\u039c\u0392\u039f\u03a3 120"}}, {"type": "node", "id": 4294837396, "lat": 35.3378957, "lon": 25.1615547, "tags": {"amenity": "restaurant", "name": "\u039f\u03b9 \u03c4\u03c1\u03b5\u03b9\u03c2 \u039c\u03bf\u03c5\u03c1\u03b9\u03ad\u03c2"}}, {"type": "node", "id": 4294838091, "lat": 35.3363502, "lon": 25.1594419, "tags": {"amenity": "cafe", "name": "\u039f \u03a0\u03b5\u03c4\u03c1\u03bf\u03c2"}}, {"type": "node", "id": 4303213989, "lat": 35.3388288, "lon": 25.1354831, "tags": {"addr:street": "\u039a\u03bf\u03c1\u03b1\u03ae", "amenity": "restaurant", "cuisine": "local;mediterranean;greek", "internet_access": "wlan", "name": "\u0391\u03bd\u03c4\u03af\u03c0\u03bf\u03b4\u03b1\u03c2", "name:el": "\u0391\u03bd\u03c4\u03af\u03c0\u03bf\u03b4\u03b1\u03c2", "name:en": "Adipodas", "opening_hours": "Mo-Su 12:00-01:00", "wheelchair": "yes"}}, {"type": "node", "id": 4305067964, "lat": 35.3390074, "lon": 25.1330127, "tags": {"addr:city": "\u0397\u03c1\u03ac\u03ba\u03bb\u03b5\u03b9\u03bf", "addr:postcode": "71202", "addr:street": "\u03a0\u03bb\u03b1\u03c4\u03b5\u03af\u03b1 \u0395\u03bb\u03b5\u03c5\u03b8\u03b5\u03c1\u03af\u03bf\u03c5 \u0392\u03b5\u03bd\u03b9\u03b6\u03ad\u03bb\u03bf\u03c5", "amenity": "cafe", "check_date": "2024-12-21", "cuisine": "local", "internet_access": "wlan", "name": "\u039a\u03b9\u03c1\u03ba\u03cc\u03c1", "outdoor_seating": "yes", "wheelchair": "yes"}}, {"type": "node", "id": 4305982162, "lat": 35.3307488, "lon": 25.2527831, "tags": {"amenity": "restaurant", "check_date": "2023-10-03", "name": "Arkadi"}}, {"type": "node", "id": 4330501597, "lat": 35.3298217, "lon": 25.2601485, "tags": {"addr:street": "\u0397\u03c1\u03ac\u03ba\u03bb\u03b5\u03b9\u03bf - \u0386\u03b3\u03b9\u03bf\u03c2 \u039d\u03b9\u03ba\u03cc\u03bb\u03b1\u03bf\u03c2", "amenity": "cafe", "cuisine": "cake;ice_cream", "name": "Spyridon", "opening_hours": "Mo-Su 07:30-23:00", "phone": "21810763105"}}, {"type": "node", "id": 4348536361, "lat": 35.3331259, "lon": 25.1357142}, {"type": "node", "id": 4348536362, "lat": 35.3330765, "lon": 25.1355979}, {"type": "node", "id": 4348536363, "lat": 35.3329998, "lon": 25.135647}, {"type": "node", "id": 4348536364, "lat": 35.3330493, "lon": 25.1357632}, {"type": "node", "id": 4363729944, "lat": 35.3408872, "lon": 25.1191631, "tags": {"amenity": "cafe", "name": "\u0391\u03ba\u03c1\u03c9\u03c4\u03ae\u03c1\u03b9 Envy", "name:el": "\u0391\u03ba\u03c1\u03c9\u03c4\u03ae\u03c1\u03b9 Envy", "name:en": "Envy"}}, {"type": "node", "id": 4363729956, "lat": 35.3373232, "lon": 25.1338359, "tags": {"amenity": "restaurant", "name": "Kanatelias", "wheelchair": "limited"}}, {"type": "node", "id": 4363730100, "lat": 35.3424295, "lon": 25.1346338, "tags": {"addr:city": "\u0397\u03c1\u03ac\u03ba\u03bb\u03b5\u03b9\u03bf", "addr:housenumber": "3", "addr:postcode": "71202", "addr:street": "25\u03b7\u03c2 \u0391\u03c5\u03b3\u03bf\u03cd\u03c3\u03c4\u03bf\u03c5", "amenity": "restaurant", "int_name": "Ta Psaria", "name": "\u03a4\u03b1 \u03c8\u03ac\u03c1\u03b9\u03b1", "outdoor_seating": "yes", "toilets:wheelchair": "no", "wheelchair": "yes"}}, {"type": "node", "id": 4366272401, "lat": 35.3325967, "lon": 25.1212397, "tags": {"amenity": "restaurant", "cuisine": "greek", "name": "\u0391\u03bd\u03c4\u03ce\u03bd\u03b7\u03c2", "phone": "2810254779;2810310395", "wheelchair": "limited"}}, {"type": "node", "id": 4387028690, "lat": 35.3415892, "lon": 25.1342672, "tags": {"addr:city": "\u0397\u03c1\u03ac\u03ba\u03bb\u03b5\u03b9\u03bf", "addr:housenumber": "42", "addr:postcode": "71202", "addr:street": "25\u03b7\u03c2 \u0391\u03c5\u03b3\u03bf\u03cd\u03c3\u03c4\u03bf\u03c5", "amenity": "cafe", "brand": "Starbucks", "brand:wikidata": "Q37158", "brand:wikipedia": "en:Starbucks", "check_date": "2024-11-15", "cuisine": "coffee_shop", "internet_access": "wlan", "name": "Starbucks", "official_name": "Starbucks Coffee", "outdoor_seating": "yes", "takeaway": "yes", "toilets:wheelchair": "no", "website": "https://www.starbucks.com/store-locator/store/3228/heraklion-25th-august-42-25th-august-street-heraklion-m-gr", "wheelchair": "limited"}}, {"type": "node", "id": 4393033894, "lat": 35.3371406, "lon": 25.1317399, "tags": {"addr:housenumber": "11", "addr:postcode": "71201", "addr:street": "\u0391\u03bc\u03bd\u03b9\u03c3\u03bf\u03cd", "amenity": "cafe", "cuisine": "mediterranean", "email": "rinokerws@gmail.com", "internet_access": "wlan", "name": "\u03ba\u03b1\u03c6\u03ad \u03c1\u03b9\u03bd\u03cc\u03ba\u03b5\u03c1\u03bf\u03c2", "name:el": "\u03ba\u03b1\u03c6\u03ad \u03c1\u03b9\u03bd\u03cc\u03ba\u03b5\u03c1\u03c9\u03c2", "name:en": "cafe rinokeros", "opening_hours": "Mo-Sa", "phone": "00302811118293", "website": "http://www.rinokeros.gr"}}, {"type": "node", "id": 4396178389, "lat": 35.3368014, "lon": 25.1340226, "tags": {"amenity": "cafe", "name": "Bake & Brew 32", "name:el": "Bake & Brew 32"}}, {"type": "node", "id": 4416215068, "lat": 35.3409363, "lon": 25.1300402, "tags": {"amenity": "restaurant", "name": "New China", "wheelchair": "no"}}, {"type": "node", "id": 4416223725, "lat": 35.3424292, "lon": 25.1330296, "tags": {"amenity": "cafe", "name": "Coffee Spot", "wheelchair": "no"}}, {"type": "node", "id": 4416223832, "lat": 35.34164, "lon": 25.1304479, "tags": {"amenity": "cafe", "brand": "4all", "brand:website": "https://4allstores.gr/", "brand:wikidata": "Q130279387", "cuisine": "coffee_shop", "level": "0", "name": "4all", "name:el": "4all", "name:en": "4all", "payment:cash": "yes", "payment:contactless": "yes", "payment:credit_cards": "yes", "payment:debit_cards": "yes", "shop": "convenience", "wheelchair": "limited"}}, {"type": "node", "id": 4428872505, "lat": 35.3223968, "lon": 25.1497967, "tags": {"amenity": "cafe", "name": "\u0398\u03ad\u03bb\u03c9 \u03ba\u03b1\u03c6\u03ad"}}, {"type": "node", "id": 4446736948, "lat": 35.1560694, "lon": 25.039323, "tags": {"addr:city": "\u0386\u03b3\u03b9\u03bf\u03c2 \u0398\u03c9\u03bc\u03ac\u03c2", "amenity": "restaurant", "cuisine": "regional", "name": "\u0391\u03b3\u03c1\u03bf\u03b9\u03ba\u03af\u03b5\u03c2"}}, {"type": "node", "id": 4456192693, "lat": 35.2981064, "lon": 25.1614339, "tags": {"air_conditioning": "no", "amenity": "restaurant", "check_date:opening_hours": "2023-06-01", "cuisine": "greek", "diet:vegan": "yes", "diet:vegetarian": "yes", "indoor_seating": "yes", "level": "0", "name": "The Little Garden", "opening_hours:signed": "no", "outdoor_seating": "yes", "payment:credit_cards": "yes", "payment:debit_cards": "yes", "wheelchair": "limited"}}, {"type": "node", "id": 4458771689, "lat": 35.3387577, "lon": 25.1364847, "tags": {"amenity": "cafe", "cuisine": "ice_cream;pancake;coffee_shop;crepe", "diet:gluten_free": "yes", "diet:vegan": "yes", "internet_access": "wlan", "name": "Hari's Creperie", "opening_hours": "Mo-Sa 06:00-01:00; Su 12:00-01:00", "phone": "+302810331313", "website": "https://hariscreperie.com/", "wheelchair": "yes"}}, {"type": "node", "id": 4460170594, "lat": 35.2989084, "lon": 25.1606288, "tags": {"amenity": "restaurant", "name": "\u039c\u03b9\u03bd\u03ce\u03c4\u03b1\u03c5\u03c1\u03bf\u03c2", "name:el": "\u039c\u03b9\u03bd\u03ce\u03c4\u03b1\u03c5\u03c1\u03bf\u03c2", "name:en": "Minotavros"}}, {"type": "node", "id": 4473542492, "lat": 35.3312092, "lon": 25.1445285, "tags": {"addr:city": "Heraklion", "addr:housenumber": "60", "addr:postcode": "71307", "addr:street": "\u039c\u03c0\u03b1\u03bd\u03c4\u03bf\u03c5\u03b2\u03ac", "amenity": "cafe", "int_name": "Platakis", "name": "\u03a0\u03bb\u03b1\u03c4\u03ac\u03ba\u03b7\u03c2 \u039c\u03b9\u03c7\u03ac\u03bb\u03b7\u03c2", "name:el": "\u03a0\u03bb\u03b1\u03c4\u03ac\u03ba\u03b7\u03c2 \u039c\u03b9\u03c7\u03ac\u03bb\u03b7\u03c2", "name:en": "Platakis", "opening_hours": "Mo-Su 06:00-23:00", "phone": "+30 2810243788", "shop": "pastry", "website": "https://platakis.com/"}}, {"type": "node", "id": 4575852295, "lat": 35.3399526, "lon": 25.1337667, "tags": {"addr:housenumber": "13", "addr:street": "\u0391\u03c1\u03ba\u03bf\u03bb\u03ad\u03c9\u03bd", "amenity": "cafe", "internet_access": "wlan", "name": "Swing Thing"}}, {"type": "node", "id": 4592700589, "lat": 35.3380615, "lon": 25.1294919, "tags": {"addr:housenumber": "2", "addr:postcode": "71201", "addr:street": "\u0391\u03b3\u03af\u03bf\u03c5 \u039c\u03b7\u03bd\u03ac", "amenity": "cafe", "cuisine": "greek;coffee_shop;mediterranean", "email": "mavroskatis@gmail.com", "internet_access": "wlan", "name": "\u039c\u03b1\u03cd\u03c1\u03bf\u03c2 \u039a\u03ac\u03c4\u03b7\u03c2", "name:el": "\u039c\u03b1\u03cd\u03c1\u03bf\u03c2 \u039a\u03ac\u03c4\u03b7\u03c2", "name:en": "mavros katis", "opening_hours": "Mo-Sa 09:00-03:00", "phone": "2810288114", "wheelchair": "yes"}}, {"type": "node", "id": 4750814928, "lat": 35.1960957, "lon": 25.0036048, "tags": {"amenity": "restaurant", "name:en": "Liapaki"}}, {"type": "node", "id": 4750844822, "lat": 35.2030252, "lon": 24.9989968, "tags": {"amenity": "restaurant", "name:en": "La Strada"}}, {"type": "node", "id": 4750844829, "lat": 35.1959811, "lon": 25.0350782, "tags": {"amenity": "restaurant"}}, {"type": "node", "id": 4750844830, "lat": 35.1958018, "lon": 25.0350135, "tags": {"amenity": "restaurant"}}, {"type": "node", "id": 4750844836, "lat": 35.3392182, "lon": 25.160364, "tags": {"amenity": "cafe", "name:en": "Pier Caf\u00e9"}}, {"type": "node", "id": 4750844839, "lat": 35.3399994, "lon": 25.1600764, "tags": {"amenity": "restaurant", "cuisine": "greek", "name": "\u039a\u03c1\u03b1\u03c3\u03ac\u03c2", "name:el": "\u039a\u03c1\u03b1\u03c3\u03ac\u03c2", "name:en": "Krasas"}}, {"type": "node", "id": 4750845621, "lat": 35.2029118, "lon": 24.9984973, "tags": {"amenity": "cafe"}}, {"type": "node", "id": 4750845721, "lat": 35.1963189, "lon": 25.0351772, "tags": {"amenity": "restaurant"}}, {"type": "node", "id": 4750904214, "lat": 35.3287074, "lon": 25.1376651, "tags": {"addr:city": "\u0397\u03c1\u03ac\u03ba\u03bb\u03b5\u03b9\u03bf", "addr:street": "\u0394\u03b7\u03bc\u03bf\u03ba\u03c1\u03b1\u03c4\u03af\u03b1\u03c2", "amenity": "cafe", "brand": "Mikel", "brand:wikidata": "Q16952021", "brand:wikipedia": "el:Mikel", "cuisine": "coffee_shop", "name": "Mikel", "takeaway": "yes", "wheelchair": "yes"}}, {"type": "node", "id": 4751684022, "lat": 35.3277145, "lon": 25.1996809, "tags": {"amenity": "restaurant"}}, {"type": "node", "id": 4751693621, "lat": 35.3277241, "lon": 25.1977889, "tags": {"amenity": "restaurant", "wheelchair": "yes"}}, {"type": "node", "id": 4783843213, "lat": 35.401714, "lon": 24.7865614, "tags": {"amenity": "cafe"}}, {"type": "node", "id": 4784945566, "lat": 35.4101867, "lon": 24.770504}, {"type": "node", "id": 4784945567, "lat": 35.4102106, "lon": 24.7703989}, {"type": "node", "id": 4784979085, "lat": 35.406156, "lon": 24.7870702}, {"type": "node", "id": 4784979086, "lat": 35.4058784, "lon": 24.7868006}, {"type": "node", "id": 4784979087, "lat": 35.405773, "lon": 24.7869768}, {"type": "node", "id": 4784979088, "lat": 35.4060209, "lon": 24.7872058}, {"type": "node", "id": 4787222264, "lat": 35.4112653, "lon": 24.7812208, "tags": {"amenity": "cafe", "name": "Bali"}}, {"type": "node", "id": 4787244089, "lat": 35.4113686, "lon": 24.7823527}, {"type": "node", "id": 4787244090, "lat": 35.4113113, "lon": 24.7825646}, {"type": "node", "id": 4787244091, "lat": 35.4112479, "lon": 24.7826014}, {"type": "node", "id": 4787244092, "lat": 35.4112211, "lon": 24.7824425}, {"type": "node", "id": 4804350928, "lat": 35.4152794, "lon": 24.7850082, "tags": {"amenity": "cafe", "internet_access": "wlan", "internet_access:fee": "no", "name": "Sea View"}}, {"type": "node", "id": 4812032142, "lat": 35.4026371, "lon": 24.7486519, "tags": {"amenity": "restaurant", "cuisine": "greek", "name": "Maria"}}, {"type": "node", "id": 4814323581, "lat": 35.4090803, "lon": 24.8728475}, {"type": "node", "id": 4814323582, "lat": 35.4090727, "lon": 24.8726383}, {"type": "node", "id": 4814323583, "lat": 35.4089131, "lon": 24.8726832}, {"type": "node", "id": 4814323584, "lat": 35.4089536, "lon": 24.8728683}, {"type": "node", "id": 4846560492, "lat": 35.4073577, "lon": 24.7845876, "tags": {"amenity": "restaurant", "cuisine": "greek", "name": "Nostos", "outdoor_seating": "yes"}}, {"type": "node", "id": 4847445150, "lat": 35.4071107, "lon": 24.7850979, "tags": {"amenity": "cafe", "name": "Mousses"}}, {"type": "node", "id": 4847967891, "lat": 35.4112047, "lon": 24.7823399}, {"type": "node", "id": 4847967892, "lat": 35.4112801, "lon": 24.7823285}, {"type": "node", "id": 4847968061, "lat": 35.4077294, "lon": 24.7840036, "tags": {"alcohol": "yes", "amenity": "restaurant", "name": "Talea"}}, {"type": "node", "id": 4847968094, "lat": 35.4069024, "lon": 24.7845032}, {"type": "node", "id": 4847968095, "lat": 35.4073522, "lon": 24.784721}, {"type": "node", "id": 4847968096, "lat": 35.4072315, "lon": 24.7849826}, {"type": "node", "id": 4847968097, "lat": 35.4067527, "lon": 24.7846875}, {"type": "node", "id": 4847968103, "lat": 35.4059356, "lon": 24.7842349}, {"type": "node", "id": 4847968104, "lat": 35.4059892, "lon": 24.78407}, {"type": "node", "id": 4847968105, "lat": 35.4061422, "lon": 24.7841585}, {"type": "node", "id": 4847968106, "lat": 35.4061799, "lon": 24.7841135}, {"type": "node", "id": 4847968107, "lat": 35.4060463, "lon": 24.7843053}, {"type": "node", "id": 4847968108, "lat": 35.4062562, "lon": 24.7845004}, {"type": "node", "id": 4847968109, "lat": 35.4063778, "lon": 24.7846651}, {"type": "node", "id": 4847968110, "lat": 35.4065762, "lon": 24.7846285}, {"type": "node", "id": 4848050726, "lat": 35.4139224, "lon": 24.7827356, "tags": {"amenity": "cafe"}}, {"type": "node", "id": 4849807693, "lat": 35.4062884, "lon": 24.7841627}, {"type": "node", "id": 4849807694, "lat": 35.4063775, "lon": 24.7842769}, {"type": "node", "id": 4849807695, "lat": 35.4063405, "lon": 24.7843204}, {"type": "node", "id": 4849807696, "lat": 35.4062514, "lon": 24.7842062}, {"type": "node", "id": 4849809070, "lat": 35.4066991, "lon": 24.7863391}, {"type": "node", "id": 4849809071, "lat": 35.4063611, "lon": 24.7861621}, {"type": "node", "id": 4849809072, "lat": 35.4064324, "lon": 24.7860055}, {"type": "node", "id": 4849809073, "lat": 35.4067423, "lon": 24.7861741}, {"type": "node", "id": 4849809078, "lat": 35.4066066, "lon": 24.7857673}, {"type": "node", "id": 4849809112, "lat": 35.4069107, "lon": 24.7854741, "tags": {"amenity": "restaurant", "name": "Niriides"}}, {"type": "node", "id": 4849809113, "lat": 35.406809, "lon": 24.785576}, {"type": "node", "id": 4849809114, "lat": 35.4068183, "lon": 24.7855532}, {"type": "node", "id": 4849809115, "lat": 35.4066111, "lon": 24.7854211}, {"type": "node", "id": 4849809116, "lat": 35.4066117, "lon": 24.7853943}, {"type": "node", "id": 4849809117, "lat": 35.4069292, "lon": 24.7856491}, {"type": "node", "id": 4849809118, "lat": 35.4068249, "lon": 24.7858825}, {"type": "node", "id": 4849809119, "lat": 35.4064395, "lon": 24.7856645}, {"type": "node", "id": 4849809120, "lat": 35.4065417, "lon": 24.7853487}, {"type": "node", "id": 4860744260, "lat": 35.414376, "lon": 24.7830621, "tags": {"amenity": "cafe", "name": "Posto"}}, {"type": "node", "id": 4860744277, "lat": 35.4141755, "lon": 24.7830494, "tags": {"amenity": "restaurant", "cuisine": "greek", "email": "info@acrogialiaparthotel.com", "internet_access": "wlan", "name": "Akrogiali", "payment:cash": "yes", "payment:credit_cards": "yes", "payment:debit_cards": "yes", "phone": "+302834094206", "website": "http://www.acrogialibali.gr"}}, {"type": "node", "id": 4860744278, "lat": 35.4144772, "lon": 24.7831412, "tags": {"amenity": "cafe", "name": "Star", "outdoor_seating": "yes"}}, {"type": "node", "id": 4862201764, "lat": 35.4145558, "lon": 24.7833612, "tags": {"amenity": "cafe", "name": "Bonsai"}}, {"type": "node", "id": 4862201778, "lat": 35.4151898, "lon": 24.782936, "tags": {"amenity": "cafe", "internet_access": "wlan", "internet_access:fee": "no", "name": "Bali Net"}}, {"type": "node", "id": 4864041943, "lat": 35.3986378, "lon": 24.782985, "tags": {"amenity": "restaurant", "delivery": "yes", "name": "O Katis"}}, {"type": "node", "id": 4874628071, "lat": 35.3307946, "lon": 25.1384569, "tags": {"addr:city": "Iraklio", "addr:housenumber": "73", "addr:postcode": "71306", "addr:street": "\u0394\u03b7\u03bc\u03bf\u03ba\u03c1\u03b1\u03c4\u03af\u03b1\u03c2", "amenity": "cafe", "cuisine": "pizza;coffee_shop", "name": "Silfio Cafe Pizza", "wheelchair": "limited"}}, {"type": "node", "id": 4881505921, "lat": 35.416341, "lon": 25.0185337, "tags": {"amenity": "restaurant", "cuisine": "seafood;greek;local", "internet_access": "wlan", "name:en": "Family Tavern Vasilis", "name:ru": "\u0422\u0430\u0432\u0435\u0440\u043d\u0430 \u0441\u0435\u043c\u044c\u0438 \u0412\u0430\u0441\u0438\u043b\u0438\u0441"}}, {"type": "node", "id": 4881510022, "lat": 35.4163134, "lon": 25.018544, "tags": {"amenity": "cafe", "cuisine": "seafood;greek;local", "internet_access": "wlan", "name:en": "Tavern Vasilis"}}, {"type": "node", "id": 4883884923, "lat": 35.285443, "lon": 24.891897, "tags": {"amenity": "restaurant", "cuisine": "greek", "name": "\u03a4\u03b1\u03b2\u03ad\u03c1\u03bd\u03b1 \u0391\u03bc\u03ac\u03bb\u03b8\u03b5\u03b9\u03b1", "source": "Bing Sat, GPS"}}, {"type": "node", "id": 4899296383, "lat": 35.217018, "lon": 25.1932778}, {"type": "node", "id": 4899296384, "lat": 35.2169488, "lon": 25.1934016}, {"type": "node", "id": 4899296385, "lat": 35.216873, "lon": 25.1933316}, {"type": "node", "id": 4899296386, "lat": 35.2169515, "lon": 25.1932029}, {"type": "node", "id": 4899359248, "lat": 35.1925197, "lon": 25.1797594, "tags": {"addr:city": "\u03a7\u03bf\u03c5\u03b4\u03ad\u03c4\u03c3\u03b9", "amenity": "restaurant", "cuisine": "regional;greek;traditional;mediterranean", "name": "Taverna Roussos", "outdoor_seating": "yes", "phone": "+30 2810 742 189"}}, {"type": "node", "id": 4902163139, "lat": 35.3190239, "lon": 25.1032593}, {"type": "node", "id": 4902163140, "lat": 35.319021, "lon": 25.102975}, {"type": "node", "id": 4902163141, "lat": 35.3188164, "lon": 25.1029782}, {"type": "node", "id": 4902163142, "lat": 35.3188193, "lon": 25.1032625}, {"type": "node", "id": 4902163143, "lat": 35.3189432, "lon": 25.1031344, "tags": {"amenity": "cafe"}}, {"type": "node", "id": 4902163144, "lat": 35.3176222, "lon": 25.1019492, "tags": {"amenity": "cafe"}}, {"type": "node", "id": 4902163145, "lat": 35.3129978, "lon": 25.1025033, "tags": {"amenity": "cafe"}}, {"type": "node", "id": 4902163172, "lat": 35.3165928, "lon": 25.1056774, "tags": {"amenity": "cafe"}}, {"type": "node", "id": 4933013823, "lat": 35.3383514, "lon": 25.1356608, "tags": {"amenity": "restaurant", "name": "Minos", "wheelchair": "no"}}, {"type": "node", "id": 4949389024, "lat": 35.3360291, "lon": 25.0768101, "tags": {"amenity": "restaurant", "name:en": "Certan house"}}, {"type": "node", "id": 4984596925, "lat": 35.3426982, "lon": 25.1571973, "tags": {"amenity": "restaurant", "name": "7 \u0398\u03ac\u03bb\u03b1\u03c3\u03c3\u03b5\u03c2", "name:el": "7 \u0398\u03ac\u03bb\u03b1\u03c3\u03c3\u03b5\u03c2", "name:en": "7 Salasses", "name:ru": "7 \u0421\u0430\u043b\u0430\u0441\u0441\u0435\u0441"}}, {"type": "node", "id": 4988773723, "lat": 35.3330472, "lon": 25.1387464, "tags": {"addr:city": "\u0397\u03c1\u03ac\u03ba\u03bb\u03b5\u03b9\u03bf", "addr:housenumber": "55", "addr:postcode": "71306", "addr:street": "\u0394\u03b7\u03bc\u03bf\u03ba\u03c1\u03b1\u03c4\u03af\u03b1\u03c2", "amenity": "cafe", "breakfast": "yes", "cuisine": "dessert", "drink:beer": "served", "drink:coffee": "served", "drink:wine": "served", "ice_cream": "yes", "internet_access": "wlan", "internet_access:fee": "no", "internet_access:ssid": "SPELLS", "name": "Spells", "opening_hours": "Mo-Su 10:00-24:00", "outdoor_seating": "yes", "website": "http://spells.gr", "wheelchair": "no"}}, {"type": "node", "id": 5009261879, "lat": 35.305108, "lon": 24.9283081, "tags": {"amenity": "cafe", "name": "Cafe"}}, {"type": "node", "id": 5032278921, "lat": 35.3399001, "lon": 25.1343568, "tags": {"addr:city": "\u0397\u03c1\u03ac\u03ba\u03bb\u03b5\u03b9\u03bf", "addr:housenumber": "3", "addr:postcode": "71202", "addr:street": "\u0391\u03b3\u03af\u03bf\u03c5 \u03a4\u03af\u03c4\u03bf\u03c5", "amenity": "cafe", "diet:vegetarian": "yes", "name": "\u039f \u0393\u03ad\u03c1\u03bf \u03a0\u03bb\u03ac\u03c4\u03b1\u03bd\u03bf\u03c2", "outdoor_seating": "yes", "toilets:wheelchair": "no", "wheelchair": "yes"}}, {"type": "node", "id": 5037589763, "lat": 35.3384494, "lon": 25.0680339}, {"type": "node", "id": 5037589764, "lat": 35.3384126, "lon": 25.0683127}, {"type": "node", "id": 5061912029, "lat": 35.3354742, "lon": 25.0835438, "tags": {"addr:housenumber": "23", "addr:postcode": "71414", "addr:street": "\u0391\u03bd\u03b4\u03c1\u03ad\u03b1 \u03a0\u03b1\u03c0\u03b1\u03bd\u03b4\u03c1\u03ad\u03bf\u03c5", "amenity": "restaurant", "internet_access": "wlan", "name:de": "KIVOTAS Caf\u00e9 Taverna Restaurant"}}, {"type": "node", "id": 5084654242, "lat": 35.3356773, "lon": 25.0780616, "tags": {"amenity": "cafe", "name": "Kalimera"}}, {"type": "node", "id": 5085834421, "lat": 35.3819368, "lon": 24.9582401, "tags": {"amenity": "restaurant", "internet_access": "wlan", "name": "\u03a4\u03b1\u03b2\u03b5\u03c1\u03bd\u03b1 \u0393\u03b9\u03b1\u03c7\u03b4\u03b5\u03bc\u03b9", "name:el": "Tabepna \u0413iasemi", "name:en": "Taverna Giasemi", "name:ru": "\u0422\u0430\u0432\u0435\u0440\u043d\u0430 \u0413\u0438\u0430\u0441\u0435\u043c\u0438"}}, {"type": "node", "id": 5105100118, "lat": 35.334949, "lon": 25.2766937, "tags": {"addr:city": "Gournes", "addr:postcode": "715 00", "amenity": "restaurant", "cuisine": "regional", "name": "Taverna Paradise", "opening_hours": "Mo-Su 12:00-00:00", "outdoor_seating": "yes", "phone": "+30 281 076 1483"}}, {"type": "node", "id": 5115580826, "lat": 35.3324662, "lon": 25.2820621, "tags": {"amenity": "restaurant", "cuisine": "chicken;cake;coffee_shop;greek;seafood;ice_cream", "name": "Aquarium"}}, {"type": "node", "id": 5117862228, "lat": 35.3327582, "lon": 25.2699189, "tags": {"amenity": "cafe", "cuisine": "cake;grill;friture;greek;pasta;coffee_shop;chicken;seafood;mediterranean;pizza;heuriger;local;ice_cream", "internet_access": "wlan", "name": "Avra"}}, {"type": "node", "id": 5117862229, "lat": 35.3344077, "lon": 25.2751764, "tags": {"amenity": "cafe", "cuisine": "grill;greek;seafood", "name": "Tavern Liogerma"}}, {"type": "node", "id": 5117928536, "lat": 35.3349342, "lon": 25.2767309, "tags": {"amenity": "cafe", "cuisine": "greek;seafood;mediterranean;local", "name": "Taverna Paradise"}}, {"type": "node", "id": 5117961622, "lat": 35.3332726, "lon": 25.2723943, "tags": {"amenity": "cafe", "name": "Pepper"}}, {"type": "node", "id": 5126743528, "lat": 35.3326869, "lon": 25.2697616, "tags": {"amenity": "cafe", "cuisine": "hotdog;burger;sandwich;coffee_shop;grill", "name": "Minas"}}, {"type": "node", "id": 5139933083, "lat": 35.2885574, "lon": 24.8811646, "tags": {"amenity": "restaurant", "source": "Bing Sat, GPS"}}, {"type": "node", "id": 5143015376, "lat": 35.3431443, "lon": 24.8710138, "tags": {"addr:city": "Drosia", "addr:postcode": "740 54", "amenity": "restaurant", "cuisine": "greek", "name": "Taverna Flouris", "phone": "+30 2834 071202"}}, {"type": "node", "id": 5145835321, "lat": 35.4148643, "lon": 25.0190114, "tags": {"amenity": "restaurant", "name:en": "Peninsula Taverna by the Pool"}}, {"type": "node", "id": 5161486021, "lat": 35.3391597, "lon": 25.1531229, "tags": {"amenity": "cafe", "name": "neon", "wheelchair": "limited"}}, {"type": "node", "id": 5173304421, "lat": 35.3296963, "lon": 25.263485, "tags": {"amenity": "restaurant", "cuisine": "italian_pizza;pizza", "opening_hours": "24/7"}}, {"type": "node", "id": 5178680221, "lat": 35.3310955, "lon": 25.2505757, "tags": {"addr:street": "\u0397\u03c1\u03ac\u03ba\u03bb\u03b5\u03b9\u03bf - \u0386\u03b3\u03b9\u03bf\u03c2 \u039d\u03b9\u03ba\u03cc\u03bb\u03b1\u03bf\u03c2", "amenity": "restaurant", "check_date": "2023-10-02", "cuisine": "chinese;sushi", "indoor_seating": "yes", "name": "PanAsia", "name:en": "PanSushi", "name:pl": "PanSushi", "outdoor_seating": "no", "phone": "2810761526"}}, {"type": "node", "id": 5180326422, "lat": 35.336788, "lon": 25.1324388, "tags": {"addr:city": "Heraklion", "addr:postcode": "71201", "addr:street": "\u0398\u03b7\u03c3\u03ad\u03c9\u03c2", "addr:unit": "3", "amenity": "cafe", "cuisine": "regional;greek;coffee_shop", "email": "kafeneio@pukuvu.gr", "internet_access": "wlan", "internet_access:fee": "no", "internet_access:ssid": "pukuvu", "name": "Pukuvu", "opening_hours": "Tu-Sa 10:00-01:00", "outdoor_seating": "yes", "payment:cards": "yes", "payment:cash": "yes", "payment:credit_cards": "yes", "payment:debit_cards": "yes", "payment:\u03ba\u03bf\u03c5\u03ba\u03af": "yes", "phone": "+30 2815201965", "smoking": "yes", "wheelchair": "no"}}, {"type": "node", "id": 5180563621, "lat": 35.1317419, "lon": 24.9048241, "tags": {"addr:street": "\u0396\u03b1\u03c1\u03cc\u03c2 - \u039b\u03bf\u03c7\u03c1\u03b9\u03ac", "amenity": "cafe", "cuisine": "pizza", "name": "\u039c\u03ac\u03c1\u03ba\u03bf\u03c2"}}, {"type": "node", "id": 5196071225, "lat": 35.3352553, "lon": 25.1317021, "tags": {"amenity": "cafe"}}, {"type": "node", "id": 5196389523, "lat": 35.3384591, "lon": 25.1365096, "tags": {"amenity": "cafe", "wheelchair": "no"}}, {"type": "node", "id": 5196389527, "lat": 35.3401395, "lon": 25.1339204, "tags": {"addr:housenumber": "82", "addr:postcode": "71202", "addr:street": "25\u03b7\u03c2 \u0391\u03c5\u03b3\u03bf\u03cd\u03c3\u03c4\u03bf\u03c5", "amenity": "restaurant", "name": "D\u00f4mes", "outdoor_seating": "yes", "survey:date": "2023-09-01", "wheelchair": "no"}}, {"type": "node", "id": 5196389529, "lat": 35.3399909, "lon": 25.1340714, "tags": {"addr:city": "\u0397\u03c1\u03ac\u03ba\u03bb\u03b5\u03b9\u03bf", "addr:housenumber": "43", "addr:postcode": "71202", "addr:street": "25\u03b7\u03c2 \u0391\u03c5\u03b3\u03bf\u03cd\u03c3\u03c4\u03bf\u03c5", "alt_name": "Vaflaki", "amenity": "cafe", "check_date": "2024-11-15", "name": "Donuts & Coffee", "outdoor_seating": "yes", "toilets:wheelchair": "no", "wheelchair": "limited"}}, {"type": "node", "id": 5215244639, "lat": 35.3327878, "lon": 25.2700058, "tags": {"amenity": "cafe", "name": "Ambrosia Taverna"}}, {"type": "node", "id": 5239255111, "lat": 35.342729, "lon": 25.1342232, "tags": {"amenity": "restaurant", "cuisine": "fish;greek", "name": "\u039f\u03c5\u03b6\u03b5\u03c1\u03af", "toilets:wheelchair": "no", "wheelchair": "limited"}}, {"type": "node", "id": 5251704945, "lat": 35.3389562, "lon": 25.1330846, "tags": {"addr:city": "\u0397\u03c1\u03ac\u03ba\u03bb\u03b5\u03b9\u03bf", "addr:postcode": "71202", "addr:street": "\u03a0\u03bb\u03b1\u03c4\u03b5\u03af\u03b1 \u0395\u03bb\u03b5\u03c5\u03b8\u03b5\u03c1\u03af\u03bf\u03c5 \u0392\u03b5\u03bd\u03b9\u03b6\u03ad\u03bb\u03bf\u03c5", "amenity": "cafe", "check_date": "2024-11-15", "level": "0", "name": "\u03a6\u03c5\u03bb\u03bb\u03bf\u03c3\u03bf\u03c6\u03af\u03b5\u03c2", "name:el": "\u03a6\u03c5\u03bb\u03bb\u03bf\u03c3\u03bf\u03c6\u03af\u03b5\u03c2", "name:en": "Phyllo Sophies", "outdoor_seating": "yes", "wheelchair": "yes"}}, {"type": "node", "id": 5304417977, "lat": 35.3406142, "lon": 25.1200666, "tags": {"amenity": "cafe", "name": "\u03a3\u0399\u0395\u039b Cafe"}}, {"type": "node", "id": 5304417978, "lat": 35.3405396, "lon": 25.1196609, "tags": {"amenity": "cafe", "brand": "Starbucks", "brand:wikidata": "Q37158", "brand:wikipedia": "en:Starbucks", "cuisine": "coffee_shop", "name": "Starbucks", "official_name": "Starbucks Coffee", "takeaway": "yes"}}, {"type": "node", "id": 5304417980, "lat": 35.3405135, "lon": 25.1195428, "tags": {"amenity": "cafe", "name": "Flocafe"}}, {"type": "node", "id": 5304417981, "lat": 35.3404515, "lon": 25.1192516, "tags": {"amenity": "restaurant", "name": "Goody's"}}, {"type": "node", "id": 5304417982, "lat": 35.3404928, "lon": 25.1194415, "tags": {"amenity": "restaurant", "cuisine": "italian", "level": "1", "name": "Pastarella"}}, {"type": "node", "id": 5304417983, "lat": 35.3404774, "lon": 25.1193688, "tags": {"amenity": "restaurant", "name": "Yankee's"}}, {"type": "node", "id": 5304421470, "lat": 35.3402891, "lon": 25.1192942, "tags": {"amenity": "cafe", "name": "Sports Cafe"}}, {"type": "node", "id": 5304448490, "lat": 35.3386546, "lon": 25.1365107, "tags": {"amenity": "cafe", "name": "\u03a4\u03b1\u03c1\u03ac\u03c4\u03c3\u03b1", "wheelchair": "no"}}, {"type": "node", "id": 5323736664, "lat": 35.340382, "lon": 25.134514, "tags": {"addr:city": "\u0397\u03c1\u03ac\u03ba\u03bb\u03b5\u03b9\u03bf", "addr:housenumber": "1", "addr:postcode": "71202", "addr:street": "\u0391\u03b3\u03af\u03bf\u03c5 \u03a4\u03af\u03c4\u03bf\u03c5", "amenity": "restaurant", "name": "\u03a0\u03b1\u03b3\u03bf\u03c0\u03bf\u03b9\u03b5\u03af\u03bf\u03bd", "name:el": "\u03a0\u03b1\u03b3\u03bf\u03c0\u03bf\u03b9\u03b5\u03af\u03bf\u03bd", "name:en": "Pagopoieion", "toilets:wheelchair": "no", "wheelchair": "limited"}}, {"type": "node", "id": 5479637224, "lat": 35.3226275, "lon": 25.1502411, "tags": {"amenity": "cafe", "name": "\u039a\u03b1\u03c6\u03b5\u03c0\u03bf\u03b9\u03b5\u03af\u03bf"}}, {"type": "node", "id": 5590601521, "lat": 35.408949, "lon": 25.0155673, "tags": {"amenity": "cafe", "name": "4 gusto"}}, {"type": "node", "id": 5590615421, "lat": 35.4088728, "lon": 25.0156919, "tags": {"amenity": "restaurant", "name": "Gyros Souvlaki"}}, {"type": "node", "id": 5612045921, "lat": 35.288689, "lon": 24.8812858, "tags": {"amenity": "cafe", "name:en": "Taverna Mihalos"}}, {"type": "node", "id": 5624470822, "lat": 35.3410925, "lon": 25.1328878, "tags": {"amenity": "restaurant", "name": "\u03a4\u03cc \u03a7\u03b1\u03b3\u03b9\u03ac\u03c4\u03b9", "name:el": "\u03a4\u03cc \u03a7\u03b1\u03b3\u03b9\u03ac\u03c4\u03b9", "name:en": "Chagiati", "phone": "+302811103378", "wheelchair": "limited"}}, {"type": "node", "id": 5630012322, "lat": 35.3396332, "lon": 25.1334425, "tags": {"addr:city": "\u0397\u03c1\u03ac\u03ba\u03bb\u03b5\u03b9\u03bf", "addr:postcode": "71202", "addr:street": "\u03a0\u03bb\u03b1\u03c4\u03b5\u03af\u03b1 \u039a\u03b1\u03bb\u03bb\u03b5\u03c1\u03b3\u03ce\u03bd", "alt_name": "Olive Trees", "amenity": "restaurant", "cuisine": "greek;italian", "diet:vegetarian": "yes", "name": "Corner", "survey:date": "2023-07-23"}}, {"type": "node", "id": 5630046421, "lat": 35.3375422, "lon": 25.1357742, "tags": {"amenity": "cafe", "name": "ML Espresso Bar", "name:fr": "ML Expresso bar", "opening_hours": "Mo-Su 07:00-23:00", "toilets:wheelchair": "no", "website": "https://www.mlespresso.gr/", "wheelchair": "yes"}}, {"type": "node", "id": 5645243472, "lat": 35.3302167, "lon": 25.2558182, "tags": {"amenity": "restaurant", "name": "Paparazzi"}}, {"type": "node", "id": 5661659649, "lat": 35.3401707, "lon": 25.1321162, "tags": {"amenity": "restaurant", "cuisine": "regional;greek", "name": "\u03a0\u03ac\u03bb\u03b1\u03b9 \u03a0\u03bf\u03c4\u03ad"}}, {"type": "node", "id": 5673351921, "lat": 35.3429969, "lon": 25.1336945, "tags": {"amenity": "restaurant", "name": "IPPOKAMPOS", "wheelchair": "limited"}}, {"type": "node", "id": 5711950321, "lat": 35.2411878, "lon": 25.2363571, "tags": {"amenity": "cafe", "name:en": "Cafe", "name:ru": "\u041a\u0430\u0444\u0435"}}, {"type": "node", "id": 5722492298, "lat": 35.3381973, "lon": 25.0682814}, {"type": "node", "id": 5722492299, "lat": 35.3382788, "lon": 25.0682933}, {"type": "node", "id": 5722492304, "lat": 35.338218, "lon": 25.0679929}, {"type": "node", "id": 5722492308, "lat": 35.3381667, "lon": 25.068277}, {"type": "node", "id": 5722492309, "lat": 35.3379519, "lon": 25.0682475}, {"type": "node", "id": 5722492310, "lat": 35.3379823, "lon": 25.0679601}, {"type": "node", "id": 5724343213, "lat": 35.3352693, "lon": 25.0951161, "tags": {"amenity": "cafe"}}, {"type": "node", "id": 5763790470, "lat": 35.4002167, "lon": 25.0359541}, {"type": "node", "id": 5763790471, "lat": 35.4003069, "lon": 25.0364427}, {"type": "node", "id": 5763790472, "lat": 35.400368, "lon": 25.0364199}, {"type": "node", "id": 5763790473, "lat": 35.4004158, "lon": 25.0363857}, {"type": "node", "id": 5763790474, "lat": 35.4004662, "lon": 25.0363319}, {"type": "node", "id": 5763790475, "lat": 35.4004888, "lon": 25.0362749}, {"type": "node", "id": 5763790476, "lat": 35.4004967, "lon": 25.0362196}, {"type": "node", "id": 5763790477, "lat": 35.4004954, "lon": 25.0361365}, {"type": "node", "id": 5763790478, "lat": 35.4004782, "lon": 25.0360828}, {"type": "node", "id": 5763790479, "lat": 35.400445, "lon": 25.036029}, {"type": "node", "id": 5763790480, "lat": 35.4004078, "lon": 25.0359916}, {"type": "node", "id": 5763790481, "lat": 35.400368, "lon": 25.0359672}, {"type": "node", "id": 5763790482, "lat": 35.4003229, "lon": 25.0359525}, {"type": "node", "id": 5763790483, "lat": 35.4002804, "lon": 25.0359476}, {"type": "node", "id": 5763790484, "lat": 35.4002432, "lon": 25.0359493}, {"type": "node", "id": 5789653053, "lat": 35.3345425, "lon": 25.1051042, "tags": {"amenity": "cafe", "name": "Seven", "name:el": "Seven Sports Club", "name:en": "Seven Sports Club"}}, {"type": "node", "id": 5795530875, "lat": 35.339715, "lon": 25.1328342, "tags": {"addr:housenumber": "2", "addr:street": "\u039a\u03b1\u03bd\u03c4\u03b1\u03bd\u03bf\u03bb\u03ad\u03c9\u03bd", "amenity": "restaurant", "cuisine": "italian", "name": "Via Pastarella"}}, {"type": "node", "id": 5810341754, "lat": 35.4086602, "lon": 25.0166444, "tags": {"amenity": "restaurant", "name": "\u039f \u039d\u03af\u03ba\u03bf\u03bb\u03b1\u03c2", "name:el": "\u039f \u039d\u03af\u03ba\u03bf\u03bb\u03b1\u03c2", "name:en": "O\u2019Nikolas", "name:ru": "\u041d\u0438\u043a\u043e\u043b\u0430\u0441", "survey:date": "2023-08-03"}}, {"type": "node", "id": 5812200355, "lat": 35.4089244, "lon": 25.0175065, "tags": {"amenity": "cafe", "name:en": "Nefeli", "name:ru": "\u043a\u043e\u0444\u0435\u0439\u043d\u044f Nefeli"}}, {"type": "node", "id": 5813951453, "lat": 35.3357174, "lon": 25.0778594, "tags": {"amenity": "restaurant", "name": "\u039c\u03bf\u03cd\u03c3\u03b5\u03c2", "name:el": "\u039c\u03bf\u03cd\u03c3\u03b5\u03c2", "name:en": "Moysses"}}, {"type": "node", "id": 5818548653, "lat": 35.3429848, "lon": 25.1334487, "tags": {"addr:housenumber": "5", "addr:street": "\u03a3\u03bf\u03c6\u03bf\u03ba\u03bb\u03ae \u0392\u03b5\u03bd\u03b9\u03b6\u03ad\u03bb\u03bf\u03c5", "amenity": "restaurant", "cuisine": "greek;seafood", "name": "Paralia", "opening_hours": "Mo-Su 12:00-00:00", "wheelchair": "limited"}}, {"type": "node", "id": 5821293553, "lat": 35.4137392, "lon": 25.0175375, "tags": {"amenity": "restaurant", "cuisine": "regional", "name": "Yamas", "outdoor_seating": "yes"}}, {"type": "node", "id": 5852078985, "lat": 35.3367436, "lon": 25.0878335, "tags": {"addr:housenumber": "19", "addr:postcode": "71414", "addr:street": "\u0392\u03b1\u03b3\u03af\u03b1\u03c2", "amenity": "cafe", "cuisine": "greek", "name:en": "Aris Katerina", "opening_hours": "Mo-Su 10:00-23:00", "phone": "+30 698 983 1755", "website": "https://aris-katerina-taverna.business.site"}}, {"type": "node", "id": 5860783201, "lat": 35.3394936, "lon": 25.132787, "tags": {"addr:city": "\u0397\u03c1\u03ac\u03ba\u03bb\u03b5\u03b9\u03bf", "addr:housenumber": "17", "addr:postcode": "71202", "addr:street": "\u039a\u03b1\u03bd\u03c4\u03b1\u03bd\u03bf\u03bb\u03ad\u03c9\u03bd", "amenity": "cafe", "indoor_seating": "yes", "name": "\u03a3\u03b1\u03bc\u03b1\u03c1\u03b9\u03ac \u039d\u03c4\u03b5\u03bb\u03b9\u03c4\u03c3\u03b9\u03cc\u03b6\u03bf", "name:el": "\u03a3\u03b1\u03bc\u03b1\u03c1\u03b9\u03ac \u039d\u03c4\u03b5\u03bb\u03b9\u03c4\u03c3\u03b9\u03cc\u03b6\u03bf", "name:en": "Samaria Delizioso", "opening_hours": "Mo-Su 07:00-00:45", "outdoor_seating": "yes", "smoking": "outside", "wheelchair": "limited"}}, {"type": "node", "id": 5860802286, "lat": 35.3407411, "lon": 25.1344796, "tags": {"addr:city": "\u0397\u03c1\u03ac\u03ba\u03bb\u03b5\u03b9\u03bf", "addr:housenumber": "21", "addr:postcode": "71202", "addr:street": "\u039a\u03bf\u03c1\u03c9\u03bd\u03b1\u03af\u03bf\u03c5", "amenity": "restaurant", "cuisine": "local", "name": "Cooking with love", "toilets:wheelchair": "no", "wheelchair": "limited"}}, {"type": "node", "id": 5863231785, "lat": 35.307854, "lon": 25.1511035, "tags": {"amenity": "cafe", "name": "Tamper", "wheelchair": "limited"}}, {"type": "node", "id": 5863235592, "lat": 35.3208084, "lon": 25.1431088, "tags": {"amenity": "cafe", "name": "Coffee Berry", "wheelchair": "limited"}}, {"type": "node", "id": 5863235593, "lat": 35.3222083, "lon": 25.1426458, "tags": {"amenity": "restaurant", "name": "Red Corner", "wheelchair": "no"}}, {"type": "node", "id": 5863235599, "lat": 35.3313597, "lon": 25.1380583, "tags": {"amenity": "restaurant", "name": "Koto Neon", "toilets:wheelchair": "no", "wheelchair": "yes"}}, {"type": "node", "id": 5863235600, "lat": 35.3331689, "lon": 25.1387655, "tags": {"amenity": "restaurant", "name": "\u039a\u03c5\u03c1\u03b9\u03ac\u03ba\u03bf\u03c2", "name:el": "\u039a\u03c5\u03c1\u03b9\u03ac\u03ba\u03bf\u03c2", "name:en": "Kiriakos Restaurant"}}, {"type": "node", "id": 5863236188, "lat": 35.3293316, "lon": 25.1378031, "tags": {"amenity": "cafe", "wheelchair": "limited"}}, {"type": "node", "id": 5873218501, "lat": 35.3390485, "lon": 25.1329577, "tags": {"addr:city": "\u0397\u03c1\u03ac\u03ba\u03bb\u03b5\u03b9\u03bf", "addr:postcode": "71202", "addr:street": "\u03a0\u03bb\u03b1\u03c4\u03b5\u03af\u03b1 \u0395\u03bb\u03b5\u03c5\u03b8\u03b5\u03c1\u03af\u03bf\u03c5 \u0392\u03b5\u03bd\u03b9\u03b6\u03ad\u03bb\u03bf\u03c5", "amenity": "restaurant", "contact:facebook": "https://www.facebook.com/veranda.all.day.cafe.restaurant", "level": "1", "name": "\u0392\u03b5\u03c1\u03ac\u03bd\u03c4\u03b1", "name:el": "\u0392\u03b5\u03c1\u03ac\u03bd\u03c4\u03b1", "name:en": "Veranda", "outdoor_seating": "yes"}}, {"type": "node", "id": 5873218578, "lat": 35.3392849, "lon": 25.1330741, "tags": {"addr:city": "\u0397\u03c1\u03ac\u03ba\u03bb\u03b5\u03b9\u03bf", "addr:housenumber": "12", "addr:postcode": "71202", "addr:street": "\u03a0\u03bb\u03b1\u03c4\u03b5\u03af\u03b1 \u0395\u03bb\u03b5\u03c5\u03b8\u03b5\u03c1\u03af\u03bf\u03c5 \u0392\u03b5\u03bd\u03b9\u03b6\u03ad\u03bb\u03bf\u03c5", "amenity": "restaurant", "cuisine": "greek;italian", "diet:vegetarian": "yes", "internet_access": "wlan", "internet_access:fee": "no", "name": "Baltas", "wheelchair": "limited"}}, {"type": "node", "id": 5875369560, "lat": 35.3393833, "lon": 25.1334603, "tags": {"addr:city": "\u0397\u03c1\u03ac\u03ba\u03bb\u03b5\u03b9\u03bf", "addr:postcode": "71202", "addr:street": "\u03a0\u03bb\u03b1\u03c4\u03b5\u03af\u03b1 \u039a\u03b1\u03bb\u03bb\u03b5\u03c1\u03b3\u03ce\u03bd", "amenity": "cafe", "name": "Square 18"}}, {"type": "node", "id": 5875369729, "lat": 35.3397004, "lon": 25.1345256, "tags": {"addr:city": "\u0397\u03c1\u03ac\u03ba\u03bb\u03b5\u03b9\u03bf", "addr:postcode": "71202", "addr:street": "\u0391\u03b3\u03af\u03bf\u03c5 \u03a4\u03af\u03c4\u03bf\u03c5", "amenity": "cafe", "name": "Caffe Gioia", "outdoor_seating": "yes", "wheelchair": "no"}}, {"type": "node", "id": 5882908885, "lat": 35.341798, "lon": 25.1325747, "tags": {"amenity": "restaurant", "name": "Nett & Gut!!"}}, {"type": "node", "id": 5885662115, "lat": 35.4045978, "lon": 25.0187357, "tags": {"amenity": "restaurant", "name": "Mouragio"}}, {"type": "node", "id": 5888785882, "lat": 35.4047981, "lon": 25.0185664, "tags": {"amenity": "restaurant", "description": "Greek Taverna", "name": "Acropolis"}}, {"type": "node", "id": 5891687768, "lat": 35.405684, "lon": 25.0181063, "tags": {"amenity": "restaurant", "name": "Socrates"}}, {"type": "node", "id": 5902316611, "lat": 35.4058411, "lon": 25.0181105, "tags": {"amenity": "restaurant", "cuisine": "greek", "name": "Symposium", "survey:date": "2023-08-03"}}, {"type": "node", "id": 5909994968, "lat": 35.3424806, "lon": 25.1346443, "tags": {"addr:city": "\u0397\u03c1\u03ac\u03ba\u03bb\u03b5\u03b9\u03bf", "addr:housenumber": "1", "addr:postcode": "71202", "addr:street": "25\u03b7\u03c2 \u0391\u03c5\u03b3\u03bf\u03cd\u03c3\u03c4\u03bf\u03c5", "amenity": "cafe", "name": "Natur elia", "outdoor_seating": "yes", "toilets:wheelchair": "no", "wheelchair": "yes"}}, {"type": "node", "id": 5909994969, "lat": 35.3423811, "lon": 25.1346219, "tags": {"addr:city": "\u0397\u03c1\u03ac\u03ba\u03bb\u03b5\u03b9\u03bf", "addr:postcode": "71202", "addr:street": "25\u03b7\u03c2 \u0391\u03c5\u03b3\u03bf\u03cd\u03c3\u03c4\u03bf\u03c5", "amenity": "restaurant", "internet_access": "wlan", "name": "\u03a4\u03c1\u03ac\u03c4\u03b1", "outdoor_seating": "yes", "toilets:wheelchair": "no", "wheelchair": "yes"}}, {"type": "node", "id": 5912275085, "lat": 35.3323714, "lon": 25.133697, "tags": {"addr:housenumber": "5", "amenity": "restaurant", "name": "erganos", "wheelchair": "no"}}, {"type": "node", "id": 5916381695, "lat": 35.3317424, "lon": 25.2005233, "tags": {"amenity": "cafe"}}, {"type": "node", "id": 5923911087, "lat": 35.3421446, "lon": 25.1342392, "tags": {"addr:housenumber": "13", "addr:street": "\u0399\u03c9\u03b1\u03bd\u03bd\u03bf\u03c5 \u039c\u03b1\u03c1\u03b9\u03bd\u03b5\u03bb\u03b7", "amenity": "restaurant", "cuisine": "greek", "name:en": "Ladokolla", "outdoor_seating": "yes", "wheelchair": "limited"}}, {"type": "node", "id": 5923927086, "lat": 35.3391776, "lon": 25.1351747, "tags": {"addr:housenumber": "13", "addr:street": "\u039c\u03b9\u03bb\u03ac\u03c4\u03bf\u03c5", "amenity": "restaurant", "cuisine": "greek", "name": "Koukouvagia", "opening_hours": "Mo-Su 12:00-00:00", "toilets:wheelchair": "no", "wheelchair": "limited"}}, {"type": "node", "id": 5928302187, "lat": 35.3307212, "lon": 25.1336425, "tags": {"addr:housenumber": "25", "addr:postcode": "71305", "addr:street": "\u0391\u03bd\u03b4\u03c1\u03ad\u03b1 \u03a0\u03b1\u03c0\u03b1\u03bd\u03b4\u03c1\u03ad\u03bf\u03c5", "amenity": "cafe", "name:en": "Hacienda"}}, {"type": "node", "id": 5938906287, "lat": 35.3427794, "lon": 25.133025, "tags": {"amenity": "restaurant", "name:en": "MURMURA", "wheelchair": "no"}}, {"type": "node", "id": 5958555985, "lat": 35.3352273, "lon": 25.1298161, "tags": {"addr:housenumber": "71", "addr:postcode": "71201", "addr:street": "\u039c\u03bf\u03bd\u03ae\u03c2 \u039a\u03b1\u03c1\u03b4\u03b9\u03c9\u03c4\u03af\u03c3\u03c3\u03b7\u03c2", "amenity": "restaurant", "cuisine": "greek", "name": "\u0392\u03bf\u03c5\u03c1\u03b2\u03bf\u03c5\u03bb\u03ac\u03b4\u03b9\u03ba\u03bf", "wheelchair": "limited"}}, {"type": "node", "id": 5979701885, "lat": 35.3403959, "lon": 25.1360728, "tags": {"amenity": "restaurant", "cuisine": "greek", "name": "\u0395\u03c6\u03c4\u03ac \u039c\u03c0\u03b1\u03bb\u03c4\u03ac\u03b4\u03b5\u03c2"}}, {"type": "node", "id": 5980768794, "lat": 35.1943519, "lon": 24.9992435, "tags": {"amenity": "cafe"}}, {"type": "node", "id": 5981237588, "lat": 35.336785, "lon": 25.1334588, "tags": {"amenity": "cafe", "name": "\u0394\u03b1\u03bd\u03b4\u03b1\u03bb\u03b7", "wheelchair": "no"}}, {"type": "node", "id": 6005673729, "lat": 35.3394607, "lon": 25.1352139, "tags": {"addr:housenumber": "7", "addr:street": "Andreou Kritis", "amenity": "cafe", "name": "Think Tank", "phone": "+30-2811112954", "toilets:wheelchair": "no", "wheelchair": "limited"}}, {"type": "node", "id": 6017941704, "lat": 35.342344, "lon": 25.1344119, "tags": {"addr:city": "\u0397\u03c1\u03ac\u03ba\u03bb\u03b5\u03b9\u03bf", "addr:housenumber": "12-14", "addr:postcode": "71202", "addr:street": "25\u03b7\u03c2 \u0391\u03c5\u03b3\u03bf\u03cd\u03c3\u03c4\u03bf\u03c5", "amenity": "restaurant", "name": "Fish Tavern", "outdoor_seating": "yes"}}, {"type": "node", "id": 6252331628, "lat": 35.1920972, "lon": 25.0784288}, {"type": "node", "id": 6252331629, "lat": 35.1919733, "lon": 25.078397}, {"type": "node", "id": 6252331630, "lat": 35.1919849, "lon": 25.0782975}, {"type": "node", "id": 6252429024, "lat": 35.1321516, "lon": 24.9494161}, {"type": "node", "id": 6252429025, "lat": 35.132179, "lon": 24.9495395}, {"type": "node", "id": 6252429026, "lat": 35.1321431, "lon": 24.9495626}, {"type": "node", "id": 6252429027, "lat": 35.1321149, "lon": 24.9494297}, {"type": "node", "id": 6252443335, "lat": 35.1316597, "lon": 24.9247554}, {"type": "node", "id": 6252443336, "lat": 35.1316513, "lon": 24.9248465}, {"type": "node", "id": 6252443337, "lat": 35.1315979, "lon": 24.9249463}, {"type": "node", "id": 6252443338, "lat": 35.1315079, "lon": 24.9249514}, {"type": "node", "id": 6252443339, "lat": 35.1315149, "lon": 24.9248947}, {"type": "node", "id": 6252443340, "lat": 35.1314952, "lon": 24.924893}, {"type": "node", "id": 6252443341, "lat": 35.1315036, "lon": 24.9248225}, {"type": "node", "id": 6252443342, "lat": 35.1315261, "lon": 24.9248207}, {"type": "node", "id": 6252443343, "lat": 35.1315346, "lon": 24.9247588}, {"type": "node", "id": 6314752386, "lat": 35.2909805, "lon": 24.8817967, "tags": {"amenity": "cafe", "name": "\u03a4\u03c1\u03ac\u03c0\u03b5\u03b6\u03b1", "name:el": "\u03a4\u03c1\u03ac\u03c0\u03b5\u03b6\u03b1", "name:en": "Trapeza"}}, {"type": "node", "id": 6337355185, "lat": 35.3313908, "lon": 25.2503994, "tags": {"addr:street": "Vathianos Kampos", "amenity": "cafe", "check_date": "2023-10-02", "indoor_seating": "yes", "name": "Taverna Tzo", "name:el": "Taverna Tzovath", "opening_hours": "Mo-Su 09:00-01:00", "outdoor_seating": "yes"}}, {"type": "node", "id": 6404661642, "lat": 35.3302039, "lon": 25.2562558, "tags": {"amenity": "cafe", "name": "de l'art Shisha Cafe"}}, {"type": "node", "id": 6423511903, "lat": 35.2587658, "lon": 25.2374347, "tags": {"amenity": "cafe"}}, {"type": "node", "id": 6506031785, "lat": 35.3385303, "lon": 25.1316728, "tags": {"addr:city": "Heraklion", "addr:housenumber": "2", "addr:postcode": "712 02", "addr:street": "\u0396\u03b1\u03bc\u03c0\u03b5\u03bb\u03af\u03bf\u03c5", "amenity": "restaurant", "cuisine": "barbecue", "internet_access": "wlan", "name:en": "Meze meze", "phone": "+302810301018", "website": "https://www.mezemeze.gr/"}}, {"type": "node", "id": 6507013786, "lat": 35.3397692, "lon": 25.1352254, "tags": {"addr:city": "\u0397\u03c1\u03ac\u03ba\u03bb\u03b5\u03b9\u03bf", "addr:housenumber": "9", "addr:street": "\u039c\u03b5\u03c1\u03b1\u03bc\u03b2\u03ad\u03bb\u03bf\u03c5", "amenity": "restaurant", "cuisine": "mediterranean", "diet:vegan": "yes", "name": "\u03a4\u03bf \u03a1\u03bf\u03b2\u03cd\u03b8\u03b9", "opening_hours": "Mo 10:00-21:00; Tu-Su 10:00-23:45; Dec 24, Dec 31 10:00-17:00; Jan 01-02, Aug 15-16, Nov 17, Dec 25-26 OFF", "organic": "only", "outdoor_seating": "yes", "phone": "+302814004423", "self_service": "yes", "takeaway": "yes", "website": "https://apokinou.gr/rovythi/", "wheelchair": "yes"}}, {"type": "node", "id": 6545277676, "lat": 35.3363874, "lon": 25.1316941, "tags": {"amenity": "cafe", "name": "Diem", "wheelchair": "no"}}, {"type": "node", "id": 6616236987, "lat": 35.3370292, "lon": 25.1607861, "tags": {"amenity": "restaurant", "name": "Giann\u0113\u0113s"}}, {"type": "node", "id": 6635129985, "lat": 35.3368837, "lon": 25.1334431, "tags": {"addr:housenumber": "61", "addr:postcode": "712 01", "addr:street": "1866", "amenity": "cafe", "name:en": "coffee roasters koudouma", "shop": "gift", "wheelchair": "limited"}}, {"type": "node", "id": 6653250796, "lat": 35.3370943, "lon": 25.1312472, "tags": {"addr:housenumber": "20", "addr:postcode": "712 01", "addr:street": "\u039a\u03b1\u03c4\u03b5\u03c7\u03ac\u03ba\u03b7", "amenity": "cafe", "cuisine": "coffee_shop", "name": "Black Drop", "outdoor_seating": "yes", "takeaway": "yes", "toilets:access": "customers", "toilets:wheelchair": "no", "wheelchair": "limited"}}, {"type": "node", "id": 6655726288, "lat": 35.3389229, "lon": 25.1329926, "tags": {"amenity": "restaurant", "cuisine": "greek", "name:en": "Veranda"}}, {"type": "node", "id": 6666745185, "lat": 35.3423614, "lon": 25.1346136, "tags": {"amenity": "restaurant", "name:en": "Tpata", "toilets:wheelchair": "no", "wheelchair": "yes"}}, {"type": "node", "id": 6684197900, "lat": 35.3357776, "lon": 25.0757982, "tags": {"amenity": "restaurant", "cuisine": "pizza;coffee_shop", "name:en": "Pergola"}}, {"type": "node", "id": 6684197902, "lat": 35.3357885, "lon": 25.0763224, "tags": {"amenity": "cafe", "cuisine": "crepe", "name:en": "Ploumis"}}, {"type": "node", "id": 6684253657, "lat": 35.3358466, "lon": 25.0768975, "tags": {"amenity": "cafe", "name": "Grand Cafe"}}, {"type": "node", "id": 6724324696, "lat": 35.3398424, "lon": 25.1335616, "tags": {"amenity": "restaurant", "name": "Central", "toilets:wheelchair": "no", "wheelchair": "limited"}}, {"type": "node", "id": 6761451086, "lat": 35.3358324, "lon": 25.0766744, "tags": {"amenity": "restaurant", "cuisine": "greek;mediterranean", "internet_access": "wlan", "name": "Creta", "opening_hours": "Mo-Su 09:00-01:00"}}, {"type": "node", "id": 6812344237, "lat": 35.2911453, "lon": 24.8838459, "tags": {"amenity": "cafe"}}, {"type": "node", "id": 6812344238, "lat": 35.2911337, "lon": 24.8839717, "tags": {"amenity": "cafe"}}, {"type": "node", "id": 6812344239, "lat": 35.291217, "lon": 24.8838957, "tags": {"amenity": "cafe"}}, {"type": "node", "id": 6831803091, "lat": 35.3351115, "lon": 25.1572803}, {"type": "node", "id": 6831803092, "lat": 35.335174, "lon": 25.1572736}, {"type": "node", "id": 6857701754, "lat": 35.4050796, "lon": 25.0184091, "tags": {"amenity": "restaurant", "cuisine": "greek;regional;international", "diet:gluten_free": "yes", "diet:meat": "yes", "diet:vegan": "yes", "diet:vegetarian": "yes", "internet_access": "no", "name": "The Home", "outdoor_seating": "no", "phone": "+30 698 383 0727"}}, {"type": "node", "id": 6857722218, "lat": 35.4081664, "lon": 25.0190118, "tags": {"amenity": "restaurant", "name": "Seasalt & Rosemary restaurant bar"}}, {"type": "node", "id": 6863146084, "lat": 35.4049964, "lon": 25.0184617, "tags": {"amenity": "restaurant", "cuisine": "greek", "name": "Mythos", "phone": "+30 28108 12002"}}, {"type": "node", "id": 6872646849, "lat": 35.4063691, "lon": 25.0180694, "tags": {"amenity": "restaurant", "name": "Piatsa", "survey:date": "2023-08-03"}}, {"type": "node", "id": 6883364178, "lat": 35.3352997, "lon": 25.1393257, "tags": {"amenity": "restaurant", "name": "\u039a\u03b1\u03c0\u03b7\u03bb\u03b5\u03b9\u03cc"}}, {"type": "node", "id": 6883382356, "lat": 35.3343321, "lon": 25.1399624, "tags": {"amenity": "restaurant", "name": "Chopsticks - Tastes of Asia"}}, {"type": "node", "id": 6883418851, "lat": 35.3369386, "lon": 25.1329353, "tags": {"amenity": "restaurant", "name": "\u0391\u03b8\u03ac\u03bb\u03b7", "wheelchair": "limited"}}, {"type": "node", "id": 6918959053, "lat": 35.3393586, "lon": 25.134547, "tags": {"amenity": "restaurant", "name": "Gastst\u00e4tte", "toilets:wheelchair": "no", "wheelchair": "limited"}}, {"type": "node", "id": 6924511613, "lat": 35.2815728, "lon": 25.1846375, "tags": {"addr:housenumber": "1", "addr:street": "Ifigeneias", "amenity": "restaurant", "name": "Elia + diosmos - olivemint", "opening_hours": "Tu-Su 12:30-23:00; Mo 12:30-19:00", "phone": "+30 2810 731283", "website": "https://www.olivemint.gr"}}, {"type": "node", "id": 6935398948, "lat": 35.3390151, "lon": 25.063954}, {"type": "node", "id": 6935398949, "lat": 35.3389372, "lon": 25.0639283}, {"type": "node", "id": 6935398950, "lat": 35.338909, "lon": 25.0641458}, {"type": "node", "id": 6935398951, "lat": 35.3389782, "lon": 25.0641564}, {"type": "node", "id": 6952658765, "lat": 35.338874, "lon": 25.1558387, "tags": {"amenity": "restaurant", "name": "Hacienda", "wheelchair": "no"}}, {"type": "node", "id": 6952659347, "lat": 35.3386273, "lon": 25.1591642, "tags": {"amenity": "restaurant", "name": "\u039d\u03b1\u03c5\u03c4\u03af\u03bb\u03bf\u03c2", "wheelchair": "limited"}}, {"type": "node", "id": 6952660874, "lat": 35.3387126, "lon": 25.1584078, "tags": {"amenity": "restaurant", "cuisine": "greek", "name": "\u039f \u039a\u0391\u0392\u039f\u03a5\u03a1\u0391\u03a3"}}, {"type": "node", "id": 6959931278, "lat": 35.1527543, "lon": 24.822269, "tags": {"amenity": "restaurant", "name": "Zaharias Saridakis"}}, {"type": "node", "id": 6959990909, "lat": 35.1508619, "lon": 24.8317621, "tags": {"amenity": "restaurant", "name": "\u03a4\u03b1\u03b2\u03ad\u03c1\u03bd\u03b1 \u03a0\u03b1\u03c1\u03ac\u03b4\u03bf\u03c3\u03b7"}}, {"type": "node", "id": 6971009285, "lat": 35.3374985, "lon": 25.0803172, "tags": {"amenity": "restaurant", "cuisine": "regional", "survey:date": "2019-11-13", "wheelchair": "no"}}, {"type": "node", "id": 6989728353, "lat": 35.3275251, "lon": 25.1341505, "tags": {"amenity": "cafe", "wheelchair": "no"}}, {"type": "node", "id": 7005851729, "lat": 35.2350487, "lon": 25.20939, "tags": {"amenity": "cafe"}}, {"type": "node", "id": 7135955111, "lat": 35.338677, "lon": 25.1407706, "tags": {"amenity": "restaurant", "cuisine": "greek", "name": "\u03a3\u03c0\u03b9\u03c4\u03b9\u03ba\u03cc", "wheelchair": "yes"}}, {"type": "node", "id": 7151285742, "lat": 35.3316091, "lon": 25.2633144, "tags": {"amenity": "restaurant"}}, {"type": "node", "id": 7151509208, "lat": 35.3390337, "lon": 25.1413566, "tags": {"amenity": "restaurant"}}, {"type": "node", "id": 7151509209, "lat": 35.3389808, "lon": 25.1411557, "tags": {"amenity": "cafe"}}, {"type": "node", "id": 7198406285, "lat": 35.3368132, "lon": 25.1330095, "tags": {"amenity": "restaurant", "cuisine": "mediterranean;greek", "name": "\u0392\u03c1\u03b1\u03bd\u03ac\u03c2", "name:el": "\u0392\u03c1\u03b1\u03bd\u03ac\u03c2", "name:ru": "bpanas", "wheelchair": "limited"}}, {"type": "node", "id": 7266307453, "lat": 35.3349567, "lon": 25.1300889, "tags": {"amenity": "restaurant", "name": "\u039b\u03ac\u03ba\u03ba\u03bf\u03c2", "name:el": "\u039b\u03ac\u03ba\u03ba\u03bf\u03c2", "name:en": "Lakkos", "wheelchair": "yes"}}, {"type": "node", "id": 7457276739, "lat": 35.3380641, "lon": 25.0679715}, {"type": "node", "id": 7473008684, "lat": 35.3420113, "lon": 25.1313054, "tags": {"amenity": "cafe", "name": "\u039f \u03a0\u03cc\u03bd\u03c4\u03b9\u03bf\u03c2"}}, {"type": "node", "id": 7563983264, "lat": 35.2720876, "lon": 25.1388601, "tags": {"amenity": "cafe", "name": "Pokos Coffee", "wheelchair": "no"}}, {"type": "node", "id": 7711399510, "lat": 35.4063884, "lon": 24.7860853}, {"type": "node", "id": 7711399521, "lat": 35.4063841, "lon": 24.7843724}, {"type": "node", "id": 7711399522, "lat": 35.4063442, "lon": 24.7846359}, {"type": "node", "id": 7824999037, "lat": 35.2486216, "lon": 25.0258308, "tags": {"amenity": "restaurant", "cuisine": "regional", "name": "\u03a3\u03c4\u03b7\u03bd \u03a0\u03bb\u03b1\u03c4\u03b5\u03af\u03b1"}}, {"type": "node", "id": 7824999038, "lat": 35.2487616, "lon": 25.0263308, "tags": {"amenity": "cafe", "name": "\u03a4\u03bf \u0391\u03c1\u03ba\u03ac\u03b4\u03b9"}}, {"type": "node", "id": 7834953468, "lat": 35.336567, "lon": 25.1337393, "tags": {"amenity": "cafe", "name": "1866"}}, {"type": "node", "id": 8072384376, "lat": 35.3352005, "lon": 25.1572133, "tags": {"amenity": "restaurant", "cuisine": "burger;pizza", "name": "CasaStreat"}}, {"type": "node", "id": 8342035805, "lat": 35.2960945, "lon": 24.9289126, "tags": {"addr:city": "Ghonis", "amenity": "restaurant", "cuisine": "regional", "name": "Sklavokampos"}}, {"type": "node", "id": 8362497689, "lat": 35.2383244, "lon": 25.2094386, "tags": {"amenity": "cafe", "name": "\u039a\u03b1\u03bc\u03c0\u03b1\u03ad\u03c4\u03b9", "name:el": "\u039a\u03b1\u03bc\u03c0\u03b1\u03ad\u03c4\u03b9", "name:en": "Kampa\u00e9ti"}}, {"type": "node", "id": 9017471617, "lat": 35.3396957, "lon": 25.1350523, "tags": {"amenity": "restaurant", "cuisine": "international", "diet:vegan": "yes", "diet:vegetarian": "yes", "name": "Umami", "organic": "yes", "outdoor_seating": "yes", "takeaway": "yes"}}, {"type": "node", "id": 9017480617, "lat": 35.3403303, "lon": 25.1351624, "tags": {"amenity": "restaurant", "cuisine": "international", "diet:vegetarian": "yes", "internet_access": "wlan", "name": "Macoo Eatery", "toilets:wheelchair": "yes", "wheelchair": "yes"}}, {"type": "node", "id": 9019171823, "lat": 35.3398153, "lon": 25.1360033, "tags": {"addr:city": "\u0397\u03c1\u03ac\u03ba\u03bb\u03b5\u03b9\u03bf", "addr:postcode": "71202", "addr:street": "\u039c\u03b5\u03c1\u03b1\u03bc\u03b2\u03ad\u03bb\u03bf\u03c5", "amenity": "cafe", "facebook": "https://www.facebook.com/626alldayloungeandcitygarden/?ref=page_internal", "name": "626", "outdoor_seating": "yes", "phone": "2810334962", "website": "https://www.626allday.gr"}}, {"type": "node", "id": 9070528552, "lat": 35.3988265, "lon": 25.02657, "tags": {"amenity": "cafe"}}, {"type": "node", "id": 9107427309, "lat": 35.4033253, "lon": 24.7824447, "tags": {"amenity": "restaurant", "name": "Bali Mare Restaurant", "opening_hours": "Mo-Su 09:00-21:00"}}, {"type": "node", "id": 9133215704, "lat": 35.3384896, "lon": 25.128559, "tags": {"addr:city": "\u0397\u03c1\u03ac\u03ba\u03bb\u03b5\u03b9\u03bf", "addr:housenumber": "8", "addr:street": "\u039c\u03b1\u03c3\u03c4\u03c1\u03b1\u03c7\u03ac", "amenity": "cafe", "name": "\u039f \u03a7\u03bf\u03c7\u03bb\u03b9\u03cc\u03c2", "opening_hours": "Mo,We 09:00-16:00; Tu,Th,Fr 09:00-21:00; Sa 10:00-15:00", "phone": "+302811750202", "website": "https://hohlios.gr/"}}, {"type": "node", "id": 9174696017, "lat": 35.3327783, "lon": 25.1361623, "tags": {"addr:housenumber": "17", "addr:postcode": "71306", "addr:street": "Chrisostomou", "amenity": "restaurant", "cuisine": "greek;local", "name": "Merastri", "opening_hours": "Mo-Su 18:00-23:45", "phone": "+30 697 271 4373"}}, {"type": "node", "id": 9180790991, "lat": 35.404539, "lon": 25.0187887, "tags": {"amenity": "restaurant", "cuisine": "greek;regional", "name": "Cochili Taverna", "phone": "+30 2815200718"}}, {"type": "node", "id": 9224869022, "lat": 35.3365944, "lon": 25.123514, "tags": {"amenity": "cafe", "cuisine": "ice_cream,cake", "name": "La Piazza Cafe", "outdoor_seating": "yes", "smoking": "no", "toilets": "yes", "toilets:wheelchair": "no", "wheelchair": "no"}}, {"type": "node", "id": 9610510117, "lat": 35.3401098, "lon": 25.1352969, "tags": {"amenity": "restaurant", "diet:vegan": "yes", "name": "Macoo Eatery"}}, {"type": "node", "id": 9610677717, "lat": 35.3392569, "lon": 25.1345158, "tags": {"amenity": "restaurant", "diet:vegan": "yes", "name": "The Home"}}, {"type": "node", "id": 9610686817, "lat": 35.339969, "lon": 25.1320592, "tags": {"addr:city": "\u0397\u03c1\u03ac\u03ba\u03bb\u03b5\u03b9\u03bf", "addr:housenumber": "22", "addr:street": "\u039a\u03c5\u03b4\u03c9\u03bd\u03af\u03b1\u03c2", "amenity": "restaurant", "cuisine": "greek;pie;peinirli", "facebook": "https://facebook.com/kosmiri/", "int_name": "kosmiri", "name": "\u039a\u03bf\u03c3\u03bc\u03b9\u03c1\u03af", "phone": "+302810334219"}}, {"type": "node", "id": 9668165228, "lat": 35.3345587, "lon": 25.1342936, "tags": {"addr:city": "\u0397\u03c1\u03ac\u03ba\u03bb\u03b5\u03b9\u03bf", "addr:housenumber": "10", "addr:postcode": "71201", "addr:street": "\u03a0\u03bb\u03b1\u03c3\u03c4\u03ae\u03c1\u03b1 \u039d\u03b9\u03ba.", "amenity": "cafe", "contact:facebook": "https://www.facebook.com/Smart-Coffee-154573088734491", "contact:phone": "+30 2810 224783", "cuisine": "bistro", "name": "Smart Coffee"}}, {"type": "node", "id": 9683230712, "lat": 35.1815276, "lon": 25.2469173, "tags": {"amenity": "restaurant", "contact:website": "https://tomourelotouladomenou.business.site/", "name": "\u03a4\u03bf \u039c\u03bf\u03c5\u03c1\u03b5\u03bb\u03bf \u03c4\u03bf\u03c5 \u039b\u03b1\u03b4\u03c9\u03bc\u03b5\u03bd\u03bf\u03c5", "name:el": "\u03a4\u03bf \u039c\u03bf\u03c5\u03c1\u03b5\u03bb\u03bf \u03c4\u03bf\u03c5 \u039b\u03b1\u03b4\u03c9\u03bc\u03b5\u03bd\u03bf\u03c5", "name:en": "To mourelo tou Ladomenou", "opening_hours": "Th 17:00-23:00;Fr 16:00-23:00;Sa 12:00-23:00;Su,PH 11:00-22:00"}}, {"type": "node", "id": 9738625217, "lat": 35.2819924, "lon": 25.1848164, "tags": {"amenity": "restaurant", "name": "kritiki gi"}}, {"type": "node", "id": 9738628617, "lat": 35.3413384, "lon": 25.1300959, "tags": {"amenity": "restaurant", "name": "Parasties", "name:en": "Parasties"}}, {"type": "node", "id": 9761733138, "lat": 35.400432, "lon": 25.0256086, "tags": {"amenity": "cafe", "name": "Liber"}}, {"type": "node", "id": 9828049417, "lat": 35.3401523, "lon": 25.1322048, "tags": {"addr:housenumber": "20", "addr:postcode": "71202", "addr:street": "\u039a\u03c5\u03b4\u03c9\u03bd\u03af\u03b1\u03c2", "amenity": "restaurant", "name": "Petousis", "phone": "+302810280380"}}, {"type": "node", "id": 9846044989, "lat": 35.2162928, "lon": 25.050478, "tags": {"amenity": "cafe", "name": "Tzoros"}}, {"type": "node", "id": 9932428408, "lat": 35.3430985, "lon": 25.1377634, "tags": {"amenity": "restaurant", "name": "Hbapdia"}}, {"type": "node", "id": 9937320319, "lat": 35.3358234, "lon": 25.0768531, "tags": {"amenity": "restaurant", "name:en": "Kritiko Spiti"}}, {"type": "node", "id": 9961031570, "lat": 35.3364626, "lon": 25.1326268, "tags": {"amenity": "cafe", "cuisine": "coffee_shop", "outdoor_seating": "yes", "wheelchair": "limited"}}, {"type": "node", "id": 9963400056, "lat": 35.338512, "lon": 25.1314511, "tags": {"amenity": "restaurant", "check_date:opening_hours": "2025-04-28", "name": "\u039a\u03b1\u03b3\u03b9\u03b1bee", "opening_hours:signed": "no", "outdoor_seating": "yes", "wheelchair": "limited"}}, {"type": "node", "id": 9963400057, "lat": 35.3369417, "lon": 25.1312268, "tags": {"amenity": "cafe", "cuisine": "coffee_shop", "name": "Giko", "outdoor_seating": "yes", "shop": "bakery", "wheelchair": "limited"}}, {"type": "node", "id": 9963400058, "lat": 35.3369259, "lon": 25.1309262, "tags": {"amenity": "cafe", "cuisine": "coffee_shop", "name": "Kai Fei"}}, {"type": "node", "id": 9963400059, "lat": 35.3385208, "lon": 25.1315642, "tags": {"amenity": "restaurant", "check_date:opening_hours": "2025-04-28", "name": "Firi Firi", "opening_hours:signed": "no", "outdoor_seating": "yes"}}, {"type": "node", "id": 9977902518, "lat": 35.3313463, "lon": 25.2506212, "tags": {"amenity": "restaurant", "check_date": "2023-10-02", "indoor_seating": "yes", "name": "To Kyma", "outdoor_seating": "yes"}}, {"type": "node", "id": 9986825849, "lat": 35.3382633, "lon": 25.1320024, "tags": {"amenity": "restaurant", "cuisine": "greek", "name": "Koto", "outdoor_seating": "yes", "toilets": "yes", "toilets:access": "customers", "wheelchair": "limited"}}, {"type": "node", "id": 10004298794, "lat": 35.3374389, "lon": 25.1224665, "tags": {"addr:housenumber": "17", "addr:street": "\u039c\u03ac\u03c7\u03b7\u03c2 \u039a\u03c1\u03ae\u03c4\u03b7\u03c2", "amenity": "cafe", "name": "ann - taste of art", "outdoor_seating": "yes"}}, {"type": "node", "id": 10004329844, "lat": 35.3376331, "lon": 25.1215007, "tags": {"addr:street": "\u039c\u03ac\u03c7\u03b7\u03c2 \u039a\u03c1\u03ae\u03c4\u03b7\u03c2", "amenity": "cafe", "name": "CHOCO coffee"}}, {"type": "node", "id": 10008654319, "lat": 35.3372784, "lon": 25.0882087, "tags": {"amenity": "restaurant", "name": "Blanco", "website": "https://m.facebook.com/BlancoBeachside/"}}, {"type": "node", "id": 10090064436, "lat": 35.3391156, "lon": 25.1306673, "tags": {"amenity": "cafe", "name": "Veneziano Cafe"}}, {"type": "node", "id": 10090068424, "lat": 35.3912527, "lon": 24.890227, "tags": {"amenity": "restaurant", "cuisine": "greek", "name:en": "Taverna Sisaion"}}, {"type": "node", "id": 10090068425, "lat": 35.3393559, "lon": 25.1332903, "tags": {"amenity": "cafe", "cuisine": "breakfast;coffee_shop;crepe;ice_cream;pancake;savory_pancakes", "name:en": "Yummy at George's"}}, {"type": "node", "id": 10090069222, "lat": 35.3383713, "lon": 25.1319618, "tags": {"amenity": "restaurant", "name": "Bar Paki"}}, {"type": "node", "id": 10159770185, "lat": 35.3393926, "lon": 25.1324735, "tags": {"addr:housenumber": "1", "addr:street": "\u03a7\u03ac\u03bd\u03b4\u03b1\u03ba\u03bf\u03c2", "amenity": "cafe", "indoor_seating": "no", "name": "\u03a7\u03ac\u03bd\u03b4\u03b1\u03ba\u03bf\u03c2 1", "outdoor_seating": "yes"}}, {"type": "node", "id": 10204429306, "lat": 35.1481864, "lon": 25.2682452}, {"type": "node", "id": 10204429307, "lat": 35.1479342, "lon": 25.2681935}, {"type": "node", "id": 10204429308, "lat": 35.1479151, "lon": 25.2683329}, {"type": "node", "id": 10204429309, "lat": 35.1481673, "lon": 25.2683846}, {"type": "node", "id": 10220396688, "lat": 35.1500486, "lon": 25.260101}, {"type": "node", "id": 10220396689, "lat": 35.1499958, "lon": 25.2602936}, {"type": "node", "id": 10220396690, "lat": 35.1498635, "lon": 25.2602393}, {"type": "node", "id": 10220396691, "lat": 35.1499163, "lon": 25.2600467}, {"type": "node", "id": 10220432612, "lat": 35.1430619, "lon": 25.2645691}, {"type": "node", "id": 10220432613, "lat": 35.1430661, "lon": 25.2646769}, {"type": "node", "id": 10220432614, "lat": 35.1429582, "lon": 25.2646832}, {"type": "node", "id": 10220432615, "lat": 35.142954, "lon": 25.2645753}, {"type": "node", "id": 10220432616, "lat": 35.1431396, "lon": 25.2645255}, {"type": "node", "id": 10220469417, "lat": 35.1431396, "lon": 25.2646711}, {"type": "node", "id": 10220469418, "lat": 35.1430649, "lon": 25.2645298}, {"type": "node", "id": 10220469419, "lat": 35.1431992, "lon": 25.2645241}, {"type": "node", "id": 10220469420, "lat": 35.1432027, "lon": 25.2646697}, {"type": "node", "id": 10220469421, "lat": 35.1430813, "lon": 25.2648652, "tags": {"amenity": "restaurant", "name": "\u03a4\u03a3\u0391\u039a \u039c\u03a0\u0391\u039c"}}, {"type": "node", "id": 10221110756, "lat": 35.1475333, "lon": 25.2651013}, {"type": "node", "id": 10221110757, "lat": 35.1475276, "lon": 25.2652264}, {"type": "node", "id": 10221110758, "lat": 35.1474494, "lon": 25.2652263}, {"type": "node", "id": 10221110759, "lat": 35.1474697, "lon": 25.2651011}, {"type": "node", "id": 10221182839, "lat": 35.1428532, "lon": 25.2648809, "tags": {"amenity": "restaurant", "name": "\u039c\u03b5\u03b6\u03b5\u03b4\u03bf\u03c0\u03c9\u03bb\u03b5\u1fd6\u03bf\u03bd \u03a0\u0391\u03a1\u039a\u039f"}}, {"type": "node", "id": 10594379890, "lat": 35.3397771, "lon": 25.0587449, "tags": {"amenity": "restaurant", "diet:gluten_free": "yes", "diet:vegan": "yes", "diet:vegetarian": "yes", "fixme": "approximate location", "name": "Aphrodite", "opening_hours": "06:30-10:30; 12:30-14:30; 18:30-21:30", "source": "https://apollonia.gr/restaurants/"}}, {"type": "node", "id": 10894533334, "lat": 35.3442518, "lon": 24.7835106, "tags": {"amenity": "restaurant", "cuisine": "greek", "indoor_seating": "yes", "name": "\u0397 \u03a4\u03b1\u03b2\u03ad\u03c1\u03bd\u03b1 \u03a4\u03bf\u03c5 \u039c\u03b7\u03bd\u03ac", "name:el": "\u0397 \u03a4\u03b1\u03b2\u03ad\u03c1\u03bd\u03b1 \u03a4\u03bf\u03c5 \u039c\u03b7\u03bd\u03ac", "name:en": "Mina\u2019s Taverna", "outdoor_seating": "yes", "phone": "+30 28340 41457", "toilets": "yes"}}, {"type": "node", "id": 10895936794, "lat": 35.2984268, "lon": 24.8393608}, {"type": "node", "id": 10904524346, "lat": 35.2984672, "lon": 24.8392552}, {"type": "node", "id": 10926961036, "lat": 35.3318153, "lon": 25.1260865, "tags": {"addr:housenumber": "25", "amenity": "restaurant", "name": "\u039c\u0395\u0396\u0395\u0394\u039f\u039d\u03a9\u039b\u0395\u0399\u039f \u0394\u0391\u03a3\u039a\u0391\u039b\u0391\u039a\u0397\u03a3"}}, {"type": "node", "id": 11002845764, "lat": 35.3389888, "lon": 25.1359047, "tags": {"addr:housenumber": "22", "addr:street": "Milatou", "amenity": "restaurant", "name": "Fast Vegan Food", "opening_hours": "Mo-Sa 12:30-22:00; Su 14:00-22:00", "website": "https://fastveganfood.gr/"}}, {"type": "node", "id": 11019725661, "lat": 35.3378808, "lon": 25.1278314, "tags": {"addr:housenumber": "1-7", "addr:street": "\u039b\u03b1\u03c3\u03b8\u03ad\u03bd\u03bf\u03c5\u03c2", "amenity": "restaurant", "name": "\u039a\u03b1\u03c6\u03b5\u03bd\u03b5\u03af\u03bf \u03bf \u03a6\u03bf\u03cd\u03c3\u03ba\u03b1\u03c2"}}, {"type": "node", "id": 11062470505, "lat": 35.3429569, "lon": 25.1329632, "tags": {"amenity": "restaurant", "name:en": "Archipelagos"}}, {"type": "node", "id": 11064825720, "lat": 35.3408975, "lon": 25.132872, "tags": {"amenity": "restaurant", "cuisine": "pizza", "name": "Il Pazzo", "survey:date": "2023-07-24"}}, {"type": "node", "id": 11065530305, "lat": 35.3352973, "lon": 25.0851003, "tags": {"amenity": "restaurant", "name": "Thigaterra"}}, {"type": "node", "id": 11068915247, "lat": 35.3390538, "lon": 25.0636939}, {"type": "node", "id": 11068915248, "lat": 35.3389854, "lon": 25.0636826}, {"type": "node", "id": 11068915250, "lat": 35.3390776, "lon": 25.0634775}, {"type": "node", "id": 11068915251, "lat": 35.3390091, "lon": 25.0634662}, {"type": "node", "id": 11073503468, "lat": 35.3357388, "lon": 25.1349423, "tags": {"amenity": "restaurant", "name": "\u03a4\u03bf \u03bc\u03b1\u03b7\u03b5\u03b9\u03c1\u03bf\u03bd \u03c4\u03b7\u03c2 \u0395\u03bb\u03c0\u03b9\u03b4\u03bf\u03c2"}}, {"type": "node", "id": 11080825956, "lat": 35.3834695, "lon": 24.9178317, "tags": {"amenity": "cafe", "name": "Smile streat cafe"}}, {"type": "node", "id": 11085980505, "lat": 35.4071503, "lon": 25.0180638, "tags": {"amenity": "cafe", "name:en": "Ostrako"}}, {"type": "node", "id": 11086492705, "lat": 35.4070552, "lon": 25.0184131, "tags": {"amenity": "restaurant", "name": "Cafe del Mar"}}, {"type": "node", "id": 11086519405, "lat": 35.4065707, "lon": 25.0181584, "tags": {"amenity": "restaurant", "name": "Le Gourmet", "survey:date": "2023-08-03"}}, {"type": "node", "id": 11086519605, "lat": 35.4064842, "lon": 25.0181208, "tags": {"amenity": "restaurant", "name": "Alati", "survey:date": "2023-08-03"}}, {"type": "node", "id": 11086519608, "lat": 35.4062971, "lon": 25.0177486, "tags": {"amenity": "cafe", "name": "Sea & Sun"}}, {"type": "node", "id": 11089354405, "lat": 35.4083811, "lon": 25.0160928, "tags": {"amenity": "restaurant", "name": "Mezedofolia", "survey:date": "2023-08-04"}}, {"type": "node", "id": 11091608805, "lat": 35.3391501, "lon": 25.1557558, "tags": {"amenity": "cafe", "name": "Kostis Espresso"}}, {"type": "node", "id": 11091609805, "lat": 35.3385663, "lon": 25.1593674, "tags": {"amenity": "cafe", "name": "President"}}, {"type": "node", "id": 11109082105, "lat": 35.3492038, "lon": 25.0329283, "tags": {"addr:postcode": "71500", "addr:street": "\u0393\u03ac\u03b6\u03b9 - \u03a1\u03bf\u03b4\u03b9\u03ac", "amenity": "restaurant", "name": "\u0391\u03c1\u03c7\u03bf\u03bd\u03c4\u03b9\u03ba\u03cc \u03c4\u03b7\u03c2 \u03a1\u03bf\u03b4\u03b9\u03ac\u03c2", "name:el": "\u0391\u03c1\u03c7\u03bf\u03bd\u03c4\u03b9\u03ba\u03cc \u03c4\u03b7\u03c2 \u03a1\u03bf\u03b4\u03b9\u03ac\u03c2", "name:en": "Archontiko tis Rodias"}}, {"type": "node", "id": 11113766405, "lat": 35.3453374, "lon": 24.9741596, "tags": {"addr:postcode": "71500", "addr:street": "Palea EO Rethymnou-Irakliou", "amenity": "restaurant", "cuisine": "greek", "name": "\u03a0\u03bb\u03b1\u03b3\u03b9\u03ac", "name:el": "\u03a0\u03bb\u03b1\u03b3\u03b9\u03ac - \u03a6\u03ac\u03bd\u03b7\u03c2 \u039a\u03bf\u03ba\u03ba\u03b9\u03bd\u03ac\u03ba\u03b7\u03c2", "name:en": "Plagia - Fanis Kokkinakis", "operator": "Fanis Kokkinakis", "phone": "+30 281 052 1131"}}, {"type": "node", "id": 11114179306, "lat": 35.3504336, "lon": 25.0429554, "tags": {"amenity": "restaurant", "name": "\u03a4\u03b1\u03b2\u03ad\u03c1\u03bd\u03b1 \u03a1\u03b5\u03c1\u03ac\u03ba\u03b7\u03c2", "name:el": "\u03a4\u03b1\u03b2\u03ad\u03c1\u03bd\u03b1 \u03a1\u03b5\u03c1\u03ac\u03ba\u03b7\u03c2", "name:en": "Taverna Rerakis"}}, {"type": "node", "id": 11158036340, "lat": 35.3377031, "lon": 25.0742072, "tags": {"addr:city": "\u0391\u03bc\u03bc\u03bf\u03c5\u03b4\u03ac\u03c1\u03b1", "addr:housenumber": "9", "addr:postcode": "71414", "addr:street": "\u039d\u03c4\u03b9\u03b1\u03c2", "amenity": "restaurant", "name": "Kooba Seaside Experience"}}, {"type": "node", "id": 11161620305, "lat": 35.3403679, "lon": 25.1325399, "tags": {"amenity": "restaurant", "name": "Peskesi"}}, {"type": "node", "id": 11162425311, "lat": 35.3393149, "lon": 25.1460264, "tags": {"amenity": "restaurant", "survey:date": "2023-09-01"}}, {"type": "node", "id": 11162474905, "lat": 35.3390615, "lon": 25.1345058, "tags": {"amenity": "cafe", "name": "My baccara", "survey:date": "2023-09-02"}}, {"type": "node", "id": 11162475006, "lat": 35.3389088, "lon": 25.1350004, "tags": {"amenity": "restaurant", "cuisine": "sushi", "name": "Nori", "survey:date": "2023-09-02"}}, {"type": "node", "id": 11218293542, "lat": 35.2808394, "lon": 24.8914495}, {"type": "node", "id": 11218293543, "lat": 35.280684, "lon": 24.8914106}, {"type": "node", "id": 11218293544, "lat": 35.2806949, "lon": 24.8913154}, {"type": "node", "id": 11218293545, "lat": 35.2807661, "lon": 24.8913261}, {"type": "node", "id": 11218293546, "lat": 35.2807704, "lon": 24.8912564}, {"type": "node", "id": 11218293547, "lat": 35.2808317, "lon": 24.8912604}, {"type": "node", "id": 11233214943, "lat": 35.3379644, "lon": 25.1304692, "tags": {"amenity": "restaurant", "check_date:opening_hours": "2025-04-28", "diet:vegetarian": "yes", "indoor_seating": "yes", "name": "Hacienda", "opening_hours:signed": "no", "outdoor_seating": "yes"}}, {"type": "node", "id": 11240845810, "lat": 35.3368236, "lon": 25.1349882, "tags": {"addr:street": "\u03a3\u03bc\u03cd\u03c1\u03bd\u03b7\u03c2", "amenity": "restaurant", "cuisine": "regional", "name": "I Avli", "name:el": "\u0397 \u0391\u03c5\u03bb\u03b7"}}, {"type": "node", "id": 11246218312, "lat": 35.3115016, "lon": 25.2504731, "tags": {"amenity": "cafe"}}, {"type": "node", "id": 11250861337, "lat": 35.1297279, "lon": 24.9044856, "tags": {"amenity": "cafe", "name": "KA\u03a6\u0395\u039d\u0395\u0399\u039f", "name:el": "KA\u03a6\u0395\u039d\u0395\u0399\u039f", "name:en": "Traditional Cafe"}}, {"type": "node", "id": 11250868538, "lat": 35.1302608, "lon": 24.9047137, "tags": {"amenity": "cafe", "name:en": "Zarous"}}, {"type": "node", "id": 11250872837, "lat": 35.1308459, "lon": 24.9049502, "tags": {"amenity": "restaurant", "name:en": "Taverna Oasi"}}, {"type": "node", "id": 11284394869, "lat": 35.1898934, "lon": 25.1710828, "tags": {"amenity": "cafe"}}, {"type": "node", "id": 11333105185, "lat": 35.3320527, "lon": 25.209242}, {"type": "node", "id": 11333105186, "lat": 35.3321881, "lon": 25.2092385}, {"type": "node", "id": 11333105187, "lat": 35.3320541, "lon": 25.2090023}, {"type": "node", "id": 11333105188, "lat": 35.3321895, "lon": 25.2089955}, {"type": "node", "id": 11909660469, "lat": 35.3393281, "lon": 25.1345741, "tags": {"amenity": "restaurant", "name": "\u039a\u0391\u03a6\u0395\u039d\u0395\u0399\u039f \u039f \u03a4\u0395\u039c\u03a0\u0395\u039b\u0397\u03a3", "name:el": "\u039a\u0391\u03a6\u0395\u039d\u0395\u0399\u039f \u039f \u03a4\u0395\u039c\u03a0\u0395\u039b\u0397\u03a3", "name:en": "Kafeneio O Tempelis"}}, {"type": "node", "id": 11909844069, "lat": 35.3380015, "lon": 25.1336018, "tags": {"amenity": "restaurant", "name": "\u039f \u0393\u0399\u0391\u039a\u039f\u03a5\u039c\u0397\u03a3"}}, {"type": "node", "id": 11919501451, "lat": 35.3387108, "lon": 25.1450703, "tags": {"addr:housenumber": "64", "addr:street": "Leof. Ikarou", "amenity": "cafe", "contact:facebook": "https://www.facebook.com/steam.heraklion/", "name": "Steam"}}, {"type": "node", "id": 12108655757, "lat": 35.4031931, "lon": 24.9580861, "tags": {"amenity": "restaurant", "cuisine": "greek", "name": "Opou Vastaxi"}}, {"type": "node", "id": 12153488801, "lat": 35.3393264, "lon": 25.1333557, "tags": {"amenity": "cafe", "name": "the edition"}}, {"type": "node", "id": 12155038735, "lat": 35.3407528, "lon": 25.1298346, "tags": {"amenity": "restaurant", "name": "\u03a4\u03c1\u03af\u03b1\u03b9\u03bd\u03b1", "name:el": "\u03a4\u03c1\u03af\u03b1\u03b9\u03bd\u03b1", "name:en": "Triaina", "opening_hours": "Mo off; Tu-Su 13:00-01:00", "phone": "+302810341883"}}, {"type": "node", "id": 12165422529, "lat": 35.3418002, "lon": 25.1387553}, {"type": "node", "id": 12165422530, "lat": 35.3419036, "lon": 25.138796}, {"type": "node", "id": 12165422531, "lat": 35.3418685, "lon": 25.1389299}, {"type": "node", "id": 12165422532, "lat": 35.3417652, "lon": 25.1388893}, {"type": "node", "id": 12229530501, "lat": 35.3384187, "lon": 25.1311031, "tags": {"addr:housenumber": "5", "addr:postcode": "712 01", "addr:street": "\u0391\u03b3\u03af\u03c9\u03bd \u0394\u03ad\u03ba\u03b1", "amenity": "restaurant", "cuisine": "greek", "name:en": "Apiri", "phone": "+30 281 0342228"}}, {"type": "node", "id": 12237742901, "lat": 35.342806, "lon": 25.1342076, "tags": {"amenity": "restaurant", "cuisine": "fish;greek;seafood", "name": "A Little Wine A Little Sea"}}, {"type": "node", "id": 12253298001, "lat": 35.308564, "lon": 25.0463712, "tags": {"amenity": "restaurant", "cuisine": "greek", "int_name": "I Mourni\u00e1", "internet_access": "wlan", "name": "\u1f29 \u039c\u03bf\u03c5\u03c1\u03bd\u03b9\u03ac", "opening_hours": "Mo-Su 19:00-00:00", "phone": "+302810372094"}}, {"type": "node", "id": 12307009501, "lat": 35.3321826, "lon": 25.2107446, "tags": {"addr:postcode": "71500", "addr:street": "\u039a\u03b1\u03c3\u03c4\u03ad\u03bb\u03bb\u03b9 - \u039a\u03b1\u03c1\u03c4\u03b5\u03c1\u03cc\u03c2", "amenity": "restaurant", "cuisine": "greek", "name": "Parasyris"}}, {"type": "node", "id": 12319122373, "lat": 35.3394192, "lon": 25.1369186, "tags": {"amenity": "cafe", "outdoor_seating": "yes"}}, {"type": "node", "id": 12343236796, "lat": 35.3373561, "lon": 25.1326654, "tags": {"amenity": "cafe", "name": "\u03a0\u03b1\u03c0\u03bf\u03c5\u03c4\u03c3\u03c9\u03bc\u03ad\u03bd\u03bf\u03c2 \u039d\u03c4\u03ac\u03ba\u03bf\u03c2"}}, {"type": "node", "id": 12343684065, "lat": 35.193469, "lon": 24.8043563, "tags": {"amenity": "cafe", "name": "Cafe & Tavern Psiloritis Tischia"}}, {"type": "node", "id": 12344263901, "lat": 35.3364807, "lon": 25.0881346, "tags": {"amenity": "cafe", "name": "Dorian Coffee"}}, {"type": "node", "id": 12356581541, "lat": 35.3422274, "lon": 25.1300005}, {"type": "node", "id": 12356581542, "lat": 35.3422362, "lon": 25.1300494}, {"type": "node", "id": 12356581543, "lat": 35.342173, "lon": 25.1300152}, {"type": "node", "id": 12356581544, "lat": 35.3422896, "lon": 25.130035}, {"type": "node", "id": 12356581545, "lat": 35.3422979, "lon": 25.1300815}, {"type": "node", "id": 12356581546, "lat": 35.342333, "lon": 25.1300721}, {"type": "node", "id": 12356581547, "lat": 35.342353, "lon": 25.1301843}, {"type": "node", "id": 12364730901, "lat": 35.3378878, "lon": 25.1312328, "tags": {"amenity": "cafe", "name": "Frankly", "website": "https://franklymydear.gr/"}}, {"type": "node", "id": 12408171558, "lat": 35.3250993, "lon": 25.1204579, "tags": {"amenity": "cafe"}}, {"type": "node", "id": 12438469777, "lat": 35.3398608, "lon": 25.1317161, "tags": {"amenity": "cafe", "check_date": "2024-12-21", "name": "Tiny Rebels"}}, {"type": "node", "id": 12461674929, "lat": 35.3235401, "lon": 25.1162293, "tags": {"amenity": "cafe"}}, {"type": "node", "id": 12489337775, "lat": 35.3238815, "lon": 25.1164748, "tags": {"amenity": "cafe"}}, {"type": "node", "id": 12551579796, "lat": 35.1324729, "lon": 24.9500304, "tags": {"addr:city": "\u0393\u03ad\u03c1\u03b3\u03b5\u03c1\u03b7", "addr:postcode": "70003", "amenity": "cafe", "name": "Podilato Cafe", "phone": "+306972500751"}}, {"type": "node", "id": 12707980609, "lat": 35.4173123, "lon": 25.0189245, "tags": {"amenity": "restaurant", "name": "Main Restaurant"}}, {"type": "node", "id": 12709435476, "lat": 35.418088, "lon": 25.0192666, "tags": {"amenity": "restaurant", "name": "Minoan Cretan Tavern"}}, {"type": "node", "id": 12750370571, "lat": 35.3398486, "lon": 25.1320345, "tags": {"amenity": "restaurant", "name": "Lola"}}, {"type": "node", "id": 12789572160, "lat": 35.3030881, "lon": 25.2315528, "tags": {"addr:city": "\u0395\u03bb\u03b1\u03af\u03b1", "addr:postcode": "70008", "amenity": "restaurant", "cuisine": "greek", "name": "\u03a4\u039f \u039c\u0391\u0393\u0391\u0396\u0391\u039a\u0399 \u03c0\u03bf\u03c5 \u03bb\u03ad\u03b3\u03b1\u03bc\u03b5...", "name:en": "THE MAGAZAKI we were talking about...", "phone": "+30 2810 781506"}}, {"type": "node", "id": 12789572161, "lat": 35.2696907, "lon": 25.2410631, "tags": {"addr:city": "\u03a3\u03c4\u03b1\u03bc\u03bd\u03bf\u03af", "addr:postcode": "70008", "amenity": "restaurant", "cuisine": "greek", "name": "\u03a0\u03b1\u03c1\u03b1\u03b4\u03bf\u03c3\u03b9\u03b1\u03ba\u03ae \u03a4\u03b1\u03b2\u03ad\u03c1\u03bd\u03b1 \u039a\u03bf\u03c3\u03bc\u03ac\u03c2", "name:en": "Kosmas Traditional Taverna", "opening_hours": "Tu-Su 13:00-22:00", "outdoor_seating": "yes", "phone": "+30 2810 771525", "smoking": "outside"}}, {"type": "node", "id": 12912206379, "lat": 35.3391421, "lon": 25.1557936, "tags": {"addr:city": "Nea Alikarnassos", "addr:housenumber": "23", "addr:postcode": "71306", "addr:street": "\u0399\u03ba\u03ac\u03c1\u03bf\u03c5", "air_conditioning": "yes", "amenity": "restaurant", "cuisine": "pizza;greek", "diet:healthy": "yes", "image": "https://www.ntonalnt.gr/img/ntonalntlogo.jpg", "name": "Donald Restaurant", "opening_hours": "Mo-Su 10:00-22:00", "phone": "+30 2810 241508", "website": "https://www.ntonalnt.gr/"}}, {"type": "way", "id": 26711526, "nodes": [292955524, 292955526, 292955527, 292955528, 292955524], "tags": {"amenity": "cafe", "building": "yes", "cuisine": "coffee_shop;ice_cream", "name": "Marina Cafe", "outdoor_seating": "yes", "smoking": "outside", "wheelchair": "limited"}}, {"type": "way", "id": 65639541, "nodes": [800387243, 800387330, 800387295, 800387249, 800387243], "tags": {"amenity": "cafe", "building": "yes", "cuisine": "sandwich", "name": "parko to mapkomae", "smoking": "outside", "wheelchair": "yes"}}, {"type": "way", "id": 211917530, "nodes": [2218475477, 2218475481, 2218475487, 2218475482, 2218475479, 3579872201, 3579872200, 2218475477], "tags": {"addr:city": "\u0397\u03c1\u03ac\u03ba\u03bb\u03b5\u03b9\u03bf", "addr:street": "\u03a3\u03ba\u03bf\u03c1\u03b4\u03cd\u03bb\u03c9\u03bd", "amenity": "cafe", "building": "yes", "internet_access": "yes", "name": "Net C@f\u00e9", "wheelchair": "yes"}}, {"type": "way", "id": 238128709, "nodes": [2459857940, 2459857944, 2459857943, 2459857942, 2459857941, 2459857938, 2459857935, 2459857931, 2459857926, 2459857923, 2459857915, 2459857919, 2459857925, 2459857932, 2459857933, 2459857936, 2459857939, 2459857940], "tags": {"amenity": "restaurant", "building": "yes", "name": "Bar.B.Q."}}, {"type": "way", "id": 239844604, "nodes": [2476292936, 2476292940, 2476292937, 4784945566, 4784945567, 2476292933, 2476292936], "tags": {"amenity": "restaurant", "building": "retail", "cuisine": "greek", "ele": "133.27", "name": "\u03a4\u0391\u0392\u0395\u03a1\u039d\u0391 \u03a3\u03a5\u039d\u039f\u039b\u0391\u039a\u0397\u03a3"}}, {"type": "way", "id": 290826250, "nodes": [2943426948, 2943426933, 2943426940, 10895936794, 10904524346, 2943423624, 2943426948], "tags": {"amenity": "restaurant", "building": "yes", "indoor_seating": "yes", "internet_access": "wlan", "internet_access:fee": "no", "outdoor_seating": "yes"}}, {"type": "way", "id": 292086405, "nodes": [2956018781, 2956018788, 2956018778, 2956018774, 2956018781], "tags": {"amenity": "cafe", "building": "yes", "cuisine": "greek;local", "internet_access": "wlan", "name:en": "SeaView tavern"}}, {"type": "way", "id": 303809257, "nodes": [3082520668, 3082520669, 3082520674, 3082520670, 12356581547, 12356581546, 12356581545, 12356581544, 12356581542, 12356581541, 12356581543, 3082520668], "tags": {"addr:street": "\u03a3\u03bf\u03c6\u03bf\u03ba\u03bb\u03ae \u0392\u03b5\u03bd\u03b9\u03b6\u03ad\u03bb\u03bf\u03c5", "amenity": "restaurant", "name": "Mare", "opening_hours": "Mo-Su 08:00-00:30", "phone": "+30-2810-241946", "website": "https://mareriviera.gr/", "wheelchair": "yes"}}, {"type": "way", "id": 350401044, "nodes": [3741483487, 3561532863, 3561532864, 3561532865, 3741483487], "tags": {"amenity": "restaurant", "building": "yes"}}, {"type": "way", "id": 351464950, "nodes": [3572485073, 3572485057, 3572485050, 3572485066, 3572485068, 3572485072, 3572485074, 3572485071, 3572485073], "tags": {"amenity": "restaurant", "building": "yes", "name": "Kasaoulio", "name:el": "\u039a\u03b1\u03b6\u03b1\u03bf\u03cd\u03bb\u03b9\u03bf", "source": "Bing", "wheelchair": "yes"}}, {"type": "way", "id": 356324343, "nodes": [3617815587, 3617815589, 3617815584, 3617815580, 3617815587], "tags": {"amenity": "restaurant", "building": "yes", "internet_access": "no", "name": "Taverna Katrin", "outdoor_seating": "yes", "wheelchair": "yes"}}, {"type": "way", "id": 356667225, "nodes": [3620807257, 3620807259, 3620807260, 3620807261, 3620807262, 3620807263, 3620807257], "tags": {"amenity": "restaurant", "cuisine": "greek", "name": "Ligo Vouno Ligo Thalassa"}}, {"type": "way", "id": 364294961, "nodes": [3683410522, 6831803092, 6831803091, 3683410518, 3683410522], "tags": {"amenity": "cafe", "building": "yes", "internet_access": "yes", "internet_access:fee": "no", "outdoor_seating": "yes"}}, {"type": "way", "id": 367968557, "nodes": [2956896349, 2956896360, 2956896363, 2956896359, 2956896352, 3718345505, 2956896349], "tags": {"amenity": "restaurant", "building": "yes", "cuisine": "greek", "name": "Peninsula Open Restaurant"}}, {"type": "way", "id": 419770671, "nodes": [4197063890, 4197713522, 4197713516, 4197713523, 4197713510, 4197063890], "tags": {"amenity": "restaurant", "building": "yes", "name": "Anemos"}}, {"type": "way", "id": 419770973, "nodes": [664153283, 4197715190, 4197715189, 4197714187, 664153283], "tags": {"amenity": "restaurant", "cuisine": "cretan,_Fish", "name": "Parasiris, News Cafe", "opening_hours": "12:00-24:00", "phone": "+30 2810 380151"}}, {"type": "way", "id": 437023664, "nodes": [4348536361, 4348536362, 4348536363, 4348536364, 4348536361], "tags": {"addr:city": "\u0397\u03c1\u03ac\u03ba\u03bb\u03b5\u03b9\u03bf", "addr:housenumber": "8", "addr:postcode": "71500", "addr:street": "\u03a3\u03bc\u03cd\u03c1\u03bd\u03b7\u03c2 \u03a7\u03c1\u03c5\u03c3\u03bf\u03c3\u03c4\u03cc\u03bc\u03bf\u03c5", "amenity": "restaurant", "building": "yes", "capacity": "100", "cuisine": "regional", "delivery": "no", "name": "\u039a\u03ae\u03c0\u03bf\u03c2 \u03c4\u03c9\u03bd \u0393\u03b5\u03cd\u03c3\u03b5\u03c9\u03bd", "name:el": "\u039a\u03ae\u03c0\u03bf\u03c2 \u03c4\u03c9\u03bd \u0393\u03b5\u03cd\u03c3\u03b5\u03c9\u03bd", "phone": "+30 2810 300358", "takeaway": "no", "wheelchair": "no"}}, {"type": "way", "id": 485725425, "nodes": [4784979088, 4784979087, 4784979086, 4784979085, 4784979088], "tags": {"amenity": "restaurant", "contact:facebook": "https://www.facebook.com/Taverna-Livadi-272228313119610/", "name": "Livadi", "phone": "+30-690-861-5968"}}, {"type": "way", "id": 489162078, "nodes": [4814323584, 4814323583, 4814323582, 4814323581, 4814323584], "tags": {"amenity": "restaurant", "building": "yes", "cuisine": "traditional;mediterranean", "name": "\u0391\u03bb\u03c5\u03ba\u03ae"}}, {"type": "way", "id": 492824902, "nodes": [4787244092, 4787244091, 4787244090, 4787244089, 4847967892, 4847967891, 4787244092], "tags": {"amenity": "restaurant", "building": "yes", "cuisine": "greek", "internet_access": "wlan", "name": "Galini"}}, {"type": "way", "id": 492824915, "nodes": [4847968097, 4847968096, 4847968095, 4847968094, 4847968097], "tags": {"amenity": "cafe", "name": "Del Mare"}}, {"type": "way", "id": 492824917, "nodes": [4847968110, 4847968109, 7711399522, 4847968108, 4847968107, 4847968103, 4847968104, 4847968105, 4847968106, 4849807696, 4849807693, 4849807694, 4849807695, 7711399521, 4847968110], "tags": {"amenity": "restaurant", "internet_access": "wlan", "internet_access:fee": "no", "name": "Gorgona", "payment:cash": "yes", "payment:credit_cards": "yes", "payment:debit_cards": "yes", "phone": "+30-28340-94216"}}, {"type": "way", "id": 493037134, "nodes": [4849809073, 4849809072, 7711399510, 4849809071, 4849809070, 4849809073], "tags": {"amenity": "restaurant", "name": "Petrino"}}, {"type": "way", "id": 493037147, "nodes": [4849809117, 4849809113, 4849809114, 4849809115, 4849809116, 4849809120, 4849809119, 4849809078, 4849809118, 4849809117], "tags": {"amenity": "restaurant", "name": "Golden Sun"}}, {"type": "way", "id": 498534721, "nodes": [4899296383, 4899296384, 4899296385, 4899296386, 4899296383], "tags": {"addr:city": "\u03a0\u03b5\u03b6\u03ac", "addr:postcode": "70100", "amenity": "restaurant", "building": "yes", "cuisine": "greek;regional;mediterranean", "diet:vegetarian": "yes", "name": "Taverna Onisimos", "phone": "+30 281 074 1754", "website": "http://www.tavernaonisimos.gr"}}, {"type": "way", "id": 498872709, "nodes": [4902163139, 4902163140, 4902163141, 4902163142, 4902163139], "tags": {"amenity": "restaurant", "building": "yes", "delivery": "no", "name": "\u039b\u03ad\u03c3\u03c7\u03b7 \u0395\u039b.\u039c\u0395.\u03a0\u0391.", "outdoor_seating": "no", "smoking": "no", "takeaway": "yes"}}, {"type": "way", "id": 515942123, "nodes": [5722492310, 7457276739, 5722492304, 5037589763, 5037589764, 5722492299, 5722492298, 5722492308, 5722492309, 5722492310], "tags": {"barrier": "fence", "fence_type": "glass"}}, {"type": "way", "id": 608357971, "nodes": [5763790470, 5763790471, 5763790472, 5763790473, 5763790474, 5763790475, 5763790476, 5763790477, 5763790478, 5763790479, 5763790480, 5763790481, 5763790482, 5763790483, 5763790484, 5763790470], "tags": {"amenity": "restaurant", "building": "yes", "building:levels": "2"}}, {"type": "way", "id": 667746683, "nodes": [2526590799, 6252331628, 6252331629, 6252331630, 2526590799], "tags": {"addr:city": "\u039a\u03c5\u03c0\u03b1\u03c1\u03af\u03c3\u03c3\u03b9", "amenity": "restaurant", "building": "retail", "cuisine": "greek", "name": "\u03a4\u03b1\u03b2\u03b5\u03c1\u03bd\u03b1 \u03c4\u03bf\u03c5 \u0393\u03b9\u03ac\u03bd\u03bd\u03b7", "name:el": "\u03a4\u03b1\u03b2\u03b5\u03c1\u03bd\u03b1 \u03c4\u03bf\u03c5 \u0393\u03b9\u03ac\u03bd\u03bd\u03b7", "name:en": "Yiannis Taverna", "opening_hours": "Oct-May, closed in Summer", "phone": "2810 871451"}}, {"type": "way", "id": 667756287, "nodes": [6252429024, 6252429025, 6252429026, 6252429027, 6252429024], "tags": {"addr:city": "\u0393\u03ad\u03c1\u03b3\u03b5\u03c1\u03b7", "amenity": "restaurant", "building": "retail", "cuisine": "greek", "name": "\u03a3\u03c4\u03ad\u03ba\u03b9 \u03c4\u03bf\u03c5 \u039a\u03bf\u03c5\u03c1\u03bf\u03cd\u03c0\u03b7", "phone": "0030 28940 41306"}}, {"type": "way", "id": 667757590, "nodes": [6252443335, 6252443336, 6252443337, 6252443338, 6252443339, 6252443340, 6252443341, 6252443342, 6252443343, 6252443335], "tags": {"addr:city": "\u039d\u1f7b\u03b2\u03c1\u03b9\u03c4\u03bf\u03c2", "amenity": "restaurant", "building": "retail", "cuisine": "greek", "description": "very special restaurant, usually a dinner takes 3-5 hours with lots of small seasonal dishes, no order, you eat what the cook is creating for your group - reservation by phone a few days in advance absolutely necessary!", "name": "\u039a\u03b1\u03c6\u03ad\u03bd\u03b5\u03c2", "opening_hours": "on request", "phone": "0030 28940 31296"}}, {"type": "way", "id": 740773215, "nodes": [6935398948, 6935398949, 6935398950, 6935398951, 6935398948], "tags": {"addr:city": "ammoudara", "addr:housenumber": "2", "addr:postcode": "71414", "addr:street": "\u0391\u03c1\u03c4\u03ad\u03bc\u03b9\u03b4\u03bf\u03c2", "amenity": "restaurant", "building": "terrace", "cuisine": "regional;seafood;greek", "email": "apterabeach@gmail.com", "name": "Aptera beach restaurant", "opening_hours": "24/7", "phone": "00306937195193"}}, {"type": "way", "id": 1115766947, "nodes": [10204429306, 10204429307, 10204429308, 10204429309, 10204429306], "tags": {"addr:city": "\u0391\u03c1\u03ba\u03b1\u03bb\u03bf\u03c7\u03ce\u03c1\u03b9", "addr:housenumber": "53", "addr:postcode": "703 00", "addr:street": "\u0395\u03b8. \u0391\u03bd\u03c4\u03b9\u03c3\u03c4\u03ac\u03c3\u03b5\u03c9\u03c2", "amenity": "restaurant", "building": "yes", "cuisine": "pizza", "name": "Del Mondo"}}, {"type": "way", "id": 1117471486, "nodes": [10220396688, 10220396689, 10220396690, 10220396691, 10220396688], "tags": {"amenity": "restaurant", "building": "yes", "name": "Lithos - Cafe Club Pizza"}}, {"type": "way", "id": 1117479129, "nodes": [10220432612, 10220432613, 10220432614, 10220432615, 10220432612], "tags": {"addr:housenumber": "32B", "addr:street": "\u039a\u03bf\u03bb\u03bf\u03ba\u03bf\u03c4\u03c1\u03ce\u03bd\u03b7", "amenity": "restaurant", "building": "yes", "name": "\u0391\u03a1\u039a\u039f\u039b\u0395\u03a9\u039d \u0393\u0395\u038e\u03a3\u0395\u0399\u03a3"}}, {"type": "way", "id": 1117479130, "nodes": [10220432616, 10220469417, 10220432613, 10220432612, 10220469418, 10220432616], "tags": {"amenity": "restaurant", "building": "yes", "name": "\u03a8\u03b7\u03c3\u03c4\u03b1\u03c1\u03b9\u03ac"}}, {"type": "way", "id": 1117479131, "nodes": [10220469417, 10220432616, 10220469419, 10220469420, 10220469417], "tags": {"amenity": "cafe", "building": "yes", "name": "\u1f08\u03c0\u03c1\u03cc\u03bf\u03c0\u03c4\u03bf"}}, {"type": "way", "id": 1117557430, "nodes": [10221110756, 10221110757, 10221110758, 10221110759, 10221110756], "tags": {"amenity": "cafe", "building": "yes", "name": "\u039a\u03bb\u03b1\u03c3\u03c3\u03b9\u03ba\u03cc\u03bd", "name:el": "\u039a\u03bb\u03b1\u03c3\u03c3\u03b9\u03ba\u03cc\u03bd", "name:en": "Classico"}}, {"type": "way", "id": 1192368883, "nodes": [11068915251, 11068915250, 11068915247, 11068915248, 11068915251], "tags": {"amenity": "restaurant", "bar": "yes", "brewery": "yes", "building": "yes", "capacity": "100", "internet_access": "yes", "internet_access:fee": "no", "name": "Coral", "outdoor_seating": "yes", "payment:cards": "yes", "payment:cash": "yes", "smoking": "outside", "toilets": "yes"}}, {"type": "way", "id": 1210805241, "nodes": [11218293547, 11218293546, 11218293545, 11218293544, 11218293543, 11218293542, 11218293547], "tags": {"amenity": "restaurant", "building": "yes", "name": "Delina resort hotel"}}, {"type": "way", "id": 1222005005, "nodes": [11333105185, 11333105187, 11333105188, 11333105186, 11333105185], "tags": {"amenity": "restaurant", "building": "yes", "cuisine": "regional", "name": "Blue on the Beach"}}, {"type": "way", "id": 1314359638, "nodes": [12165422529, 12165422530, 12165422531, 12165422532, 12165422529], "tags": {"amenity": "restaurant", "building": "yes", "name": "\u0391\u03c5\u03bb\u03ae \u039c\u03c0\u03b1\u03c1 - \u03b5\u03c3\u03c4\u03b9\u03b1\u03c4\u03cc\u03c1\u03b9\u03bf", "name:el": "\u0391\u03c5\u03bb\u03ae \u039c\u03c0\u03b1\u03c1 - \u03b5\u03c3\u03c4\u03b9\u03b1\u03c4\u03cc\u03c1\u03b9\u03bf", "name:en": "Avli Project Heraklion", "opening_hours": "Mo-Su 09:00-00:04", "phone": "+302810240946"}}, {"type": "relation", "id": 7476262, "members": [{"type": "way", "ref": 515942123, "role": "outer"}], "tags": {"amenity": "restaurant", "name": "Heaven", "outdoor_seating": "yes", "type": "multipolygon"}}]}