{"version": 0.6, "generator": "Overpass API 0.7.62.7 375dc00a", "osm3s": {"timestamp_osm_base": "2025-06-14T14:33:06Z", "copyright": "The data included in this document is from www.openstreetmap.org. The data is made available under ODbL."}, "elements": [{"type": "node", "id": 502604347, "lat": 42.4257617, "lon": 19.8699451, "tags": {"amenity": "restaurant", "cuisine": "barbecue;regional", "name": "Fusha e Gjes\u00eb", "outdoor_seating": "yes", "payment:coins": "yes", "payment:credit_cards": "no", "payment:cryptocurrencies": "no", "payment:debit_cards": "no", "payment:electronic_purses": "no", "payment:notes": "yes", "smoking": "outside", "source_ref:url": "https://www.flickr.com/photos/134902422@N04/map?&fLat=41.9559&fLon=19.4337&zl=11&order_by=recent", "takeaway": "yes", "wheelchair": "limited"}}, {"type": "node", "id": 597370054, "lat": 42.6583381, "lon": 20.2893942, "tags": {"amenity": "cafe", "name": "Radiocafe"}}, {"type": "node", "id": 597370058, "lat": 42.6589094, "lon": 20.2810001, "tags": {"amenity": "restaurant", "name": "Restaurant Benedik"}}, {"type": "node", "id": 597370069, "lat": 42.6603345, "lon": 20.2908769, "tags": {"amenity": "restaurant", "name": "Hooters"}}, {"type": "node", "id": 597370071, "lat": 42.6609743, "lon": 20.2897277, "tags": {"amenity": "restaurant", "name": "Restaurant Incanto"}}, {"type": "node", "id": 597370073, "lat": 42.6612264, "lon": 20.2878103, "tags": {"addr:city": "Pej\u00eb", "addr:housenumber": "53", "addr:postcode": "30000", "addr:street": "Enver Hadri", "amenity": "restaurant", "capacity": "400", "cuisine": "regional;pizza", "name": "Art Design", "opening_hours": "08:00-24:00", "phone": "+38344222254", "smoking": "outside"}}, {"type": "node", "id": 597370075, "lat": 42.6610818, "lon": 20.2884286, "tags": {"addr:city": "Pej\u00eb", "addr:housenumber": "51", "addr:postcode": "30000", "addr:street": "Enver Hadri", "amenity": "restaurant", "cuisine": "regional;pizza;pasta", "name": "California", "opening_hours": "09:00-23:00", "phone": "+38344348467", "smoking": "outside"}}, {"type": "node", "id": 597370083, "lat": 42.6618935, "lon": 20.2963324, "tags": {"addr:city": "Pej\u00eb", "addr:postcode": "30000", "addr:street": "Mbret\u00ebresha Teut\u00eb", "amenity": "restaurant", "cuisine": "regional", "name": "Semitronix", "phone": "+38345307493", "smoking": "outside"}}, {"type": "node", "id": 597370086, "lat": 42.6532497, "lon": 20.3102025, "tags": {"addr:city": "Peje", "addr:postcode": "30000", "addr:street": "Fusha e Pejes", "amenity": "restaurant", "cuisine": "regional", "name": "Restaurant Univers", "opening_hours": "07:00-24:00", "phone": "+38344614404", "smoking": "outside"}}, {"type": "node", "id": 597370087, "lat": 42.6594661, "lon": 20.3045894, "tags": {"addr:street": "Rruga e Vilsonit", "amenity": "restaurant", "name": "Hotel Dona", "name:en": "Hotel Mergimi", "name:sq": "Hotel M\u00ebrgimi", "name:sr": "Hotel Mergimi", "opening_hours": "24/7", "tourism": "hotel"}}, {"type": "node", "id": 597370089, "lat": 42.6988652, "lon": 20.3225058, "tags": {"addr:city": "Peje", "addr:postcode": "30000", "addr:street": "Rruga e Rozhajes", "amenity": "restaurant", "comment": "it is still there (October 2013)!", "name": "Motel Antika", "note": "Motel Antika has a restaurant closed to the building where guests can eat with low prizes. Motel and restaurant Antika has a mini zoo in the backyard which can be visited anytime while restaurant is open. They serve traditional food, pan food.", "operator": "PR Solutions", "phone": "+38344784786", "smoking": "outside", "tourism": "motel"}}, {"type": "node", "id": 597370091, "lat": 42.6984485, "lon": 20.3230455, "tags": {"amenity": "restaurant", "name": "Potguri", "tourism": "motel"}}, {"type": "node", "id": 597370107, "lat": 42.7366454, "lon": 20.3118957, "tags": {"addr:city": "Radac, Peje", "addr:postcode": "30090", "addr:street": "Radac", "amenity": "restaurant", "capacity": "250", "cuisine": "fish", "fixme": "move to correct location", "name": "Restaurant Vala e Drinit", "note": "Vala e Drinit is located near the source of White Drin, which provides fresh and delicious food and drink. You can enjoy there a friendly atmosphere and have in front an amazing view.", "opening_hours": "08:00 - 24:00", "phone": "+38344221210", "smoking": "outside", "wheelchair": "yes"}}, {"type": "node", "id": 672176688, "lat": 42.7406264, "lon": 19.7826872, "tags": {"amenity": "restaurant", "cuisine": "regional", "name": "Restoran Most Bandovi\u0107a"}}, {"type": "node", "id": 936412094, "lat": 42.5228369, "lon": 19.7869759, "tags": {"amenity": "restaurant", "name": "Eko-Katun Grbaje", "phone": "+382 69 044 572;+382 68 044 572;+382 51 256 514;+382 51 256 493", "tourism": "chalet"}}, {"type": "node", "id": 1344618319, "lat": 42.6550013, "lon": 20.2929712, "tags": {"amenity": "cafe"}}, {"type": "node", "id": 1577512630, "lat": 42.4759104, "lon": 20.277325, "tags": {"amenity": "restaurant", "designation": "Toni Restaurant", "name": "Toni-M", "source": "Restaurant"}}, {"type": "node", "id": 1624706598, "lat": 42.5962835, "lon": 19.9467671, "tags": {"amenity": "cafe", "name": "Gradska Kafana", "name:sr": "\u0413\u0440\u0430\u0434\u0441\u043a\u0430 \u043a\u0430\u0444\u0430\u043d\u0430"}}, {"type": "node", "id": 1624722121, "lat": 42.5975984, "lon": 19.9412171, "tags": {"addr:city": "Plav", "addr:housenumber": "62", "addr:postcode": "84325", "addr:street": "\u010car\u0161ijska", "amenity": "cafe", "internet_access": "wlan", "name": "Cafe Urban"}}, {"type": "node", "id": 1624722140, "lat": 42.5967495, "lon": 19.9447241, "tags": {"amenity": "cafe"}}, {"type": "node", "id": 1624722143, "lat": 42.5964612, "lon": 19.9459473, "tags": {"amenity": "cafe", "name": "Caffe AS"}}, {"type": "node", "id": 1624723980, "lat": 42.5986785, "lon": 19.9383745, "tags": {"amenity": "cafe", "name": "Salerno Caffe"}}, {"type": "node", "id": 1624723986, "lat": 42.5984989, "lon": 19.938707, "tags": {"amenity": "cafe", "name": "Medena"}}, {"type": "node", "id": 1625445838, "lat": 42.5985443, "lon": 19.9181557, "tags": {"amenity": "restaurant", "name": "Aqua", "tourism": "motel"}}, {"type": "node", "id": 1632037490, "lat": 42.5988594, "lon": 19.9395765, "tags": {"amenity": "restaurant"}}, {"type": "node", "id": 1636701161, "lat": 42.5968862, "lon": 19.9469096, "tags": {"amenity": "cafe"}}, {"type": "node", "id": 1636701271, "lat": 42.5972258, "lon": 19.9473603, "tags": {"amenity": "cafe"}}, {"type": "node", "id": 1636701340, "lat": 42.5975812, "lon": 19.9473817, "tags": {"amenity": "cafe"}}, {"type": "node", "id": 1636701438, "lat": 42.5968091, "lon": 19.9474784, "tags": {"amenity": "cafe"}}, {"type": "node", "id": 1706518781, "lat": 42.6599682, "lon": 20.2926652, "tags": {"amenity": "restaurant", "name": "Prizren", "outdoor_seating": "yes"}}, {"type": "node", "id": 2242800860, "lat": 42.6823305, "lon": 20.0843738}, {"type": "node", "id": 2242800861, "lat": 42.6823635, "lon": 20.0846974}, {"type": "node", "id": 2242800864, "lat": 42.6825441, "lon": 20.0843199}, {"type": "node", "id": 2242800865, "lat": 42.6825816, "lon": 20.0846495}, {"type": "node", "id": 2360741300, "lat": 42.550478, "lon": 19.8252604, "tags": {"addr:postcode": "84325", "addr:street": "Alipa\u0161ina", "amenity": "restaurant", "cuisine": "regional", "email": "krojet@hotmail.de", "name": "Krojet", "name:en": "Restaurant Krojet", "opening_hours": "Mo-Su 11:00-23:00", "phone": "+382 69 467 656", "toilets:wheelchair": "yes", "website": "https://m.facebook.com/Krojet/", "wheelchair": "limited", "wikimedia_commons": "File:Krojet.jpg"}}, {"type": "node", "id": 2377332669, "lat": 42.410281, "lon": 19.8227811, "tags": {"amenity": "cafe", "delivery": "no", "description": "Serves soft drinks, coffee. Decent toilet available. (July 2023)", "ele": "1450", "internet_access": "no", "internet_access:fee": "no", "name": "Simoni Kafe", "name:en": "Simoni cafe", "name:sq": "Simoni Kafe", "outdoor_seating": "yes", "payment:coins": "yes", "payment:credit_cards": "no", "payment:cryptocurrencies": "no", "payment:debit_cards": "no", "payment:electronic_purses": "no", "payment:notes": "yes", "smoking": "no", "takeaway": "yes", "wheelchair": "no"}}, {"type": "node", "id": 2490541113, "lat": 42.3556441, "lon": 19.773506}, {"type": "node", "id": 2490541114, "lat": 42.3556572, "lon": 19.7736732}, {"type": "node", "id": 2490541119, "lat": 42.355704, "lon": 19.7734974}, {"type": "node", "id": 2490541121, "lat": 42.3557171, "lon": 19.7736646}, {"type": "node", "id": 2490541906, "lat": 42.3860485, "lon": 19.7818835}, {"type": "node", "id": 2490541908, "lat": 42.3860486, "lon": 19.781679}, {"type": "node", "id": 2490541922, "lat": 42.386204, "lon": 19.7818234}, {"type": "node", "id": 2490541924, "lat": 42.3862041, "lon": 19.7817563}, {"type": "node", "id": 2490542623, "lat": 42.3958373, "lon": 19.7741063}, {"type": "node", "id": 2490542629, "lat": 42.3958933, "lon": 19.7740085}, {"type": "node", "id": 2490542633, "lat": 42.3959988, "lon": 19.7736585}, {"type": "node", "id": 2490542634, "lat": 42.395907, "lon": 19.7741794}, {"type": "node", "id": 2490542638, "lat": 42.395963, "lon": 19.7740816}, {"type": "node", "id": 2490542639, "lat": 42.3960788, "lon": 19.7735429}, {"type": "node", "id": 2490542640, "lat": 42.3960611, "lon": 19.7737375}, {"type": "node", "id": 2490542645, "lat": 42.3961411, "lon": 19.7736219}, {"type": "node", "id": 2490543569, "lat": 42.4057564, "lon": 19.7636447}, {"type": "node", "id": 2490543571, "lat": 42.4058042, "lon": 19.7637425}, {"type": "node", "id": 2490543572, "lat": 42.4058118, "lon": 19.763595}, {"type": "node", "id": 2490543574, "lat": 42.4058596, "lon": 19.7636928}, {"type": "node", "id": 2490543598, "lat": 42.4098581, "lon": 19.7654219}, {"type": "node", "id": 2490543600, "lat": 42.4099255, "lon": 19.7653742}, {"type": "node", "id": 2490543601, "lat": 42.4098007, "lon": 19.7652731}, {"type": "node", "id": 2490543602, "lat": 42.4098681, "lon": 19.7652254}, {"type": "node", "id": 2493867277, "lat": 42.737396, "lon": 20.3134141}, {"type": "node", "id": 2493867278, "lat": 42.7374184, "lon": 20.3131332}, {"type": "node", "id": 2493867279, "lat": 42.7375801, "lon": 20.3129647}, {"type": "node", "id": 2493867283, "lat": 42.7376938, "lon": 20.313595}, {"type": "node", "id": 2493867288, "lat": 42.7378331, "lon": 20.3133334}, {"type": "node", "id": 2493867289, "lat": 42.7378467, "lon": 20.3136135}, {"type": "node", "id": 2493867293, "lat": 42.7379292, "lon": 20.3133383}, {"type": "node", "id": 2493867294, "lat": 42.7379315, "lon": 20.3134794}, {"type": "node", "id": 2494110871, "lat": 42.4765624, "lon": 20.2773758, "tags": {"amenity": "restaurant", "cuisine": "turkish", "name": "Gjelltore Qebaptore"}}, {"type": "node", "id": 2494110960, "lat": 42.3573126, "lon": 20.0740154, "tags": {"amenity": "restaurant"}}, {"type": "node", "id": 2494110974, "lat": 42.3577201, "lon": 20.0736049, "tags": {"amenity": "restaurant", "name": "Restaurant Caka"}}, {"type": "node", "id": 2494111720, "lat": 42.403642, "lon": 20.2855003, "tags": {"addr:housenumber": "12", "addr:street": "Adriatik Alpe", "amenity": "restaurant", "check_date": "2023-06-04", "cuisine": "regional", "internet_access": "wlan", "internet_access:fee": "no", "name": "Restaurant Tropoja"}}, {"type": "node", "id": 2494111757, "lat": 42.4061553, "lon": 20.2855178, "tags": {"amenity": "cafe"}}, {"type": "node", "id": 2494112090, "lat": 42.4763995, "lon": 20.304198, "tags": {"amenity": "restaurant", "internet_access": "wlan", "name": "Oda e Junikut", "outdoor_seating": "yes"}}, {"type": "node", "id": 2789403417, "lat": 42.6589695, "lon": 20.2890254}, {"type": "node", "id": 2836070575, "lat": 42.660946, "lon": 20.285422, "tags": {"addr:city": "Pej\u00eb", "addr:housenumber": "51", "addr:postcode": "30000", "addr:street": "Xhevat Begolli", "amenity": "restaurant", "capacity": "60", "cuisine": "international;fish;regional;pizza", "name": "Kulla e Zenel Beut", "opening_hours": "08:00-24:00", "outdoor_seating": "yes", "phone": "+38349400046", "smoking": "outside", "wheelchair": "no"}}, {"type": "node", "id": 2836073163, "lat": 42.6606074, "lon": 20.2889537, "tags": {"addr:city": "Pej\u00eb", "addr:postcode": "30000", "addr:street": "Isa Demaj", "amenity": "restaurant", "cuisine": "regional;pizza", "internet_access": "wlan", "name": "Prima Pizza", "name:en": "Prima Pizza", "name:sq": "Prima Pizza", "opening_hours": "Mo-Sa 08:00-00:00", "opening_hours:covid19": "Mo-Sa 09:00-22:00", "operator": "Llesh Kolgjeraj", "phone": "+38349812801 +38344650948", "smoking": "outside", "website": "https://facebook.com/primapizza1"}}, {"type": "node", "id": 2859632482, "lat": 42.5637063, "lon": 19.8334329, "tags": {"amenity": "cafe", "name": "Colosseum"}}, {"type": "node", "id": 2859632483, "lat": 42.5639865, "lon": 19.8335991, "tags": {"amenity": "cafe", "name:en": "Pub Rabaton"}}, {"type": "node", "id": 2859632484, "lat": 42.5640767, "lon": 19.8339078, "tags": {"amenity": "cafe", "check_date": "2024-04-21"}}, {"type": "node", "id": 2859632488, "lat": 42.5634079, "lon": 19.8323064, "tags": {"amenity": "restaurant", "cuisine": "pizza", "name": "Picerija", "name:en": "Pizzeria Portabella", "phone": "+382 69 945 705"}}, {"type": "node", "id": 2859632489, "lat": 42.5638217, "lon": 19.8326901, "tags": {"amenity": "restaurant", "cuisine": "pizza", "name": "Picerija"}}, {"type": "node", "id": 2861319325, "lat": 42.5689123, "lon": 19.834692, "tags": {"addr:city": "Gusinje", "addr:housenumber": "12", "addr:postcode": "84326", "addr:street": "Gusinjska", "amenity": "restaurant", "cuisine": "italian", "internet_access": "wlan", "name": "Napolis", "name:en": "Pizzeria Napolis", "name:sr": "\u041d\u0430\u043f\u043e\u043b\u0438\u0441", "phone": "++382 69 896 317", "toilets:wheelchair": "no", "wheelchair": "no"}}, {"type": "node", "id": 3080221918, "lat": 42.5431516, "lon": 20.2896732, "tags": {"addr:city": "Decan", "addr:postcode": "30000", "addr:street": "Luan Haradinaj", "amenity": "restaurant", "cuisine": "regional", "name": "Restaurant Iliria", "opening_hours": "07:00-22:00", "phone": "+38344133616", "smoking": "outside"}}, {"type": "node", "id": 3080245902, "lat": 42.6608101, "lon": 20.2903534, "tags": {"addr:city": "Pej\u00eb", "addr:postcode": "30000", "addr:street": "Ana Lin", "amenity": "restaurant", "cuisine": "regional", "name": "Koha 3", "opening_hours": "08:00-24:00", "phone": "+38345744474"}}, {"type": "node", "id": 3080251065, "lat": 42.6610346, "lon": 20.2894256, "tags": {"addr:city": "Pej\u00eb", "addr:postcode": "30000", "addr:street": "Enver Hadri", "amenity": "cafe", "cuisine": "regional;burger", "internet_access": "yes", "name": "Time Caffe", "opening_hours": "07:00-24:00", "phone": "+38345744474", "smoking": "outside"}}, {"type": "node", "id": 3080303486, "lat": 42.6533688, "lon": 20.2887258, "tags": {"addr:city": "Pej\u00eb", "addr:postcode": "30000", "addr:street": "Fehmi Agani", "amenity": "restaurant", "contact:phone": "+38345807200", "cuisine": "seafood;regional;italian;pizza;pasta", "name": "Camp Karagaq", "opening_hours": "07:00-24:00", "operator": "PR Solutions", "smoking": "outside"}}, {"type": "node", "id": 3092487851, "lat": 42.6319059, "lon": 20.3028731, "tags": {"addr:city": "Peje", "addr:postcode": "30000", "addr:street": "Magjistralja Peje - Decan", "amenity": "restaurant", "capacity": "163", "cuisine": "regional,_pasta,_pizza", "name": "Restaurant Liridoni", "opening_hours": "07:30-23:00", "smoking": "outside"}}, {"type": "node", "id": 3092487987, "lat": 42.6218649, "lon": 20.3049738, "tags": {"addr:city": "Peje", "addr:postcode": "30000", "addr:street": "Magjistralja Peje - Decan", "amenity": "restaurant", "capacity": "200", "cuisine": "regional,_salads,_meat", "name": "Dushkaja", "opening_hours": "08:00-22:00", "phone": "+38344137977", "smoking": "outside"}}, {"type": "node", "id": 3092497696, "lat": 42.6255674, "lon": 20.3049889, "tags": {"addr:city": "Peje", "addr:postcode": "30000", "addr:street": "Magjistralja Peje - Decan", "amenity": "restaurant", "capacity": "400", "cuisine": "regional,_meat", "name": "Dushkaja 1984", "opening_hours": "08:00-22:00", "phone": "+38344137977", "smoking": "outside"}}, {"type": "node", "id": 3121867544, "lat": 42.7375731, "lon": 20.3103166, "tags": {"addr:city": "Radac, Peje", "addr:postcode": "30090", "amenity": "restaurant", "capacity": "600", "contact:phone": "+38344219402", "cuisine": "trout_fish;seafood", "name": "Restaurant Uj\u00ebvara e Drinit", "note": "Restaurant Ujvara e Drinit is located in a beautiful and enormous area. If you sit outside you can see the source of the White Drin, which is an amazing view of waterfall. There you can taste delicious trout fish and stay comfortable.", "opening_hours": "09:00-23:00", "smoking": "outside"}}, {"type": "node", "id": 3121875561, "lat": 42.7493389, "lon": 20.3063528, "tags": {"addr:city": "Radac, Peje", "addr:postcode": "30090", "addr:street": "Radavc", "amenity": "restaurant", "cuisine": "regional", "name": "Restaurant Te Kulla", "opening_hours": "08:00-23:00", "smoking": "outside"}}, {"type": "node", "id": 3121901269, "lat": 42.6606274, "lon": 20.276375, "tags": {"addr:city": "Pej\u00eb", "addr:postcode": "30000", "addr:street": "Lek\u00eb Dukagjini", "amenity": "restaurant", "capacity": "1200", "cuisine": "regional,_pizza,_fish,_meat_dishes", "name": "Restaurant Koha e Re", "note": "Koha e Re has a lovely environment which offers halls for wedding ceremony, conference rooms. They have a diverse cuisine, delicious dishes with very economic prices.", "opening_hours": "07:00-24:00", "phone": "+38344505145", "smoking": "outside"}}, {"type": "node", "id": 3122029789, "lat": 42.6538288, "lon": 20.2929019, "tags": {"addr:city": "Peje", "addr:postcode": "30000", "addr:street": "UCK", "amenity": "restaurant", "cuisine": "regional;pizza", "name": "Restaurant California 2", "opening_hours": "09:00-20:00", "phone": "+38344348467", "smoking": "outside"}}, {"type": "node", "id": 3122035875, "lat": 42.6543417, "lon": 20.2930467, "tags": {"addr:city": "Peje", "addr:postcode": "30000", "addr:street": "TMK", "amenity": "restaurant", "cuisine": "burger;pizza", "name": "Restaurant Dardani", "opening_hours": "08:00-22:00", "phone": "+38344142639", "smoking": "outside"}}, {"type": "node", "id": 3122072863, "lat": 42.7403253, "lon": 20.3167612, "tags": {"addr:city": "Radac, Peje", "addr:postcode": "30090", "addr:street": "Radac", "amenity": "restaurant", "capacity": "120", "cuisine": "regional,", "name": "Restaurant Te Arra", "opening_hours": "08:00-24:00", "phone": "+38344206813", "smoking": "outside"}}, {"type": "node", "id": 3127473527, "lat": 42.5475652, "lon": 20.2902756, "tags": {"addr:city": "Decan, Peje", "addr:postcode": "30000", "addr:street": "Luan Haradinaj", "amenity": "restaurant", "capacity": "450", "cuisine": "regional", "name": "Restaurant Iliria", "note": "Restaurant Iliria is such a delectable place to spend some time. You can taste great food and enjoy your time near the city of Decan. There you can arrange a party or a ceremony, because it has a large space and lovely d\u00e9cor to make your day more special.", "opening_hours": "07:00-22:00", "phone": "+38344133616", "smoking": "outside"}}, {"type": "node", "id": 3147113427, "lat": 42.6936449, "lon": 20.1666713, "tags": {"addr:city": "Peje", "addr:postcode": "30000", "addr:street": "Shtupeq i Madh", "amenity": "restaurant", "capacity": "150", "cuisine": "regional,_lamb", "name": "Bjeshka", "opening_hours": "08:00-24:00", "phone": "+383 49 532 032", "smoking": "outside"}}, {"type": "node", "id": 3147246181, "lat": 42.6784401, "lon": 20.3195861, "tags": {"addr:city": "Pej\u00eb", "addr:postcode": "30000", "addr:street": "Rruga e Rozhajes", "amenity": "restaurant", "cuisine": "regional;pizza;pasta", "name": "Maestro's", "opening_hours": "07:00-23:00", "phone": "+383 45 768 768", "smoking": "outside"}}, {"type": "node", "id": 3180453421, "lat": 42.4753088, "lon": 20.3060549, "tags": {"addr:city": "Junik", "amenity": "restaurant", "capacity": "400", "name": "Restaurant \"te Toni\" Junik"}}, {"type": "node", "id": 3180455560, "lat": 42.4718472, "lon": 20.3115925, "tags": {"addr:city": "Junik", "amenity": "restaurant", "capacity": "300", "cuisine": "pizza", "name": "Motel Restaurant \"Te toni"}}, {"type": "node", "id": 3180465473, "lat": 42.4733949, "lon": 20.2736312, "tags": {"addr:city": "Junik, Peje", "addr:postcode": "30000", "addr:street": "Junik", "amenity": "restaurant", "cuisine": "pizza,burger,_regional", "name": "Restaurant Moronica", "note": "This restaurant is located 662 meters above sea level. Its open and spacious premises create a beautiful atmosphere. Surrounded by nature is set on top of a mountain from where you can see the city of Peja.", "opening_hours": "08:00-23:00", "phone": "+383 44 329 555", "smoking": "outside"}}, {"type": "node", "id": 3180946467, "lat": 42.6987663, "lon": 20.1503778, "tags": {"addr:city": "Peje", "addr:postcode": "30000", "addr:street": "Maja e Zeze", "amenity": "restaurant", "cuisine": "regional;pizza", "name": "Konaku", "note": "Restaurant Konaku it is a place where visitors and locals go to get massive portions of good, home-cooked traditional food.", "opening_hours": "08:00-23:00", "smoking": "outside"}}, {"type": "node", "id": 3208503644, "lat": 42.4759516, "lon": 20.2783677, "tags": {"air_conditioning": "yes", "amenity": "cafe", "bar": "yes", "internet_access": "yes", "internet_access:fee": "no", "name": "Bar Friends", "opening_hours": "Mo-Su 06:00-22:00", "outdoor_seating": "yes", "phone": "+38344150578"}}, {"type": "node", "id": 3213263979, "lat": 42.47523, "lon": 20.2767215, "tags": {"amenity": "cafe"}}, {"type": "node", "id": 3213328583, "lat": 42.4760198, "lon": 20.2777699, "tags": {"amenity": "cafe"}}, {"type": "node", "id": 3214389137, "lat": 42.4727708, "lon": 20.3101801, "tags": {"amenity": "restaurant", "name": "Motel Restaurant 'Neuchatel"}}, {"type": "node", "id": 3418396196, "lat": 42.7373987, "lon": 20.3136836}, {"type": "node", "id": 3418396197, "lat": 42.7376883, "lon": 20.313693}, {"type": "node", "id": 3705054704, "lat": 42.4537959, "lon": 19.8738518, "tags": {"amenity": "cafe", "name": "Tahir's Cafe"}}, {"type": "node", "id": 3745098046, "lat": 42.7327635, "lon": 19.7931096}, {"type": "node", "id": 3745098055, "lat": 42.732811, "lon": 19.7932728}, {"type": "node", "id": 3745098057, "lat": 42.7328379, "lon": 19.7930718}, {"type": "node", "id": 3745098067, "lat": 42.7328876, "lon": 19.793236}, {"type": "node", "id": 3745098090, "lat": 42.7329945, "lon": 19.7929649}, {"type": "node", "id": 3745098101, "lat": 42.7330499, "lon": 19.7930559}, {"type": "node", "id": 3745098118, "lat": 42.7330547, "lon": 19.7929002}, {"type": "node", "id": 3745098129, "lat": 42.7331107, "lon": 19.7929912}, {"type": "node", "id": 3745098224, "lat": 42.7336954, "lon": 19.7912342}, {"type": "node", "id": 3745098230, "lat": 42.7337432, "lon": 19.7911179}, {"type": "node", "id": 3745098241, "lat": 42.7338153, "lon": 19.7913285}, {"type": "node", "id": 3745098249, "lat": 42.7338656, "lon": 19.7912112}, {"type": "node", "id": 3761379536, "lat": 42.7758007, "lon": 19.7466439, "tags": {"amenity": "restaurant", "name": "Restoran \u010cardak"}}, {"type": "node", "id": 3767800087, "lat": 42.6617772, "lon": 19.8856745, "tags": {"amenity": "cafe"}}, {"type": "node", "id": 3842626633, "lat": 42.6588616, "lon": 20.2895198}, {"type": "node", "id": 3842626634, "lat": 42.6589733, "lon": 20.2895182}, {"type": "node", "id": 3849911926, "lat": 42.7399392, "lon": 19.7796523, "tags": {"amenity": "cafe"}}, {"type": "node", "id": 3964521223, "lat": 42.5840119, "lon": 19.7253124}, {"type": "node", "id": 3964521224, "lat": 42.5840655, "lon": 19.725392}, {"type": "node", "id": 3964521225, "lat": 42.5840414, "lon": 19.7254229}, {"type": "node", "id": 3964521226, "lat": 42.5839885, "lon": 19.7253421}, {"type": "node", "id": 4092151184, "lat": 42.7763729, "lon": 19.8253711, "tags": {"amenity": "cafe", "name:sr": "Cafe Trep\u010da"}}, {"type": "node", "id": 4215670012, "lat": 42.6943484, "lon": 20.0856005}, {"type": "node", "id": 4215670013, "lat": 42.6943487, "lon": 20.0857851}, {"type": "node", "id": 4215670014, "lat": 42.6944579, "lon": 20.0856001}, {"type": "node", "id": 4215670015, "lat": 42.6944583, "lon": 20.0857848}, {"type": "node", "id": 4222271096, "lat": 42.407766, "lon": 20.2323553, "tags": {"amenity": "restaurant", "cuisine": "burger", "name": "Lendrit Morina Hotel"}}, {"type": "node", "id": 4222271102, "lat": 42.4078367, "lon": 20.2321854}, {"type": "node", "id": 4222271103, "lat": 42.4076948, "lon": 20.2322506}, {"type": "node", "id": 4222271104, "lat": 42.407707, "lon": 20.2325622}, {"type": "node", "id": 4222271105, "lat": 42.4078511, "lon": 20.2325518}, {"type": "node", "id": 4302234632, "lat": 42.6530982, "lon": 20.2747833}, {"type": "node", "id": 4302234633, "lat": 42.6529327, "lon": 20.2747141}, {"type": "node", "id": 4302234634, "lat": 42.6529027, "lon": 20.2748467}, {"type": "node", "id": 4302234635, "lat": 42.6529722, "lon": 20.2748758}, {"type": "node", "id": 4302234636, "lat": 42.6529763, "lon": 20.2750865}, {"type": "node", "id": 4302234637, "lat": 42.6530816, "lon": 20.2750785}, {"type": "node", "id": 4313181486, "lat": 42.7327456, "lon": 19.7526069, "tags": {"amenity": "restaurant", "contact:instagram": "https://www.instagram.com/dubirog_perovic/", "cuisine": "regional", "email": "dubirogp@gmail.com", "name": "Dubirog Perovi\u0107a", "name:sr": "\u0414\u0443\u0431\u0438\u0440\u043e\u0433 \u041f\u0435\u0440\u043e\u0432\u0438\u045b\u0430", "name:sr-Latn": "Dubirog Perovi\u0107a", "opening_hours": "Mo-Su 10:00-22:00, Oct-Apr off", "phone": "+382 69 256467"}}, {"type": "node", "id": 4323409293, "lat": 42.3544651, "lon": 20.0790679, "tags": {"amenity": "restaurant", "name": "Boshnjaku"}}, {"type": "node", "id": 4332572755, "lat": 42.4073446, "lon": 19.8004625, "tags": {"addr:country": "AL", "amenity": "cafe", "delivery": "no", "description": "Serves soft drinks, beer, food. Decent toilets. (survey July 2023)", "information": "yes", "internet_access": "no", "internet_access:fee": "no", "name": "Bar Kafe - Zef Rrgalla", "operator": "Zef Rrgalla", "outdoor_seating": "yes", "payment:coins": "yes", "payment:credit_cards": "no", "payment:cryptocurrencies": "no", "payment:debit_cards": "no", "payment:electronic_purses": "no", "payment:notes": "yes", "smoking": "outside", "source": "bing;mapbox-satellite;survey;gps;knowledge;local-info", "source_ref:url": "https://www.flickr.com/photos/openstreetmap-albania", "takeaway": "yes", "toilets": "yes", "wheelchair": "no"}}, {"type": "node", "id": 4335054991, "lat": 42.3645877, "lon": 19.7460227, "tags": {"addr:city": "Theth", "addr:country": "AL", "addr:postcode": "4009", "amenity": "restaurant", "cuisine": "regional", "delivery": "no", "email": "kosurijona@yahoo.com", "internet_access": "no", "internet_access:fee": "no", "name": "Restorant - \"Blue Eye\"", "operator": "Ndok Kosuri", "outdoor_seating": "yes", "parking": "yes", "payment:coins": "yes", "payment:credit_cards": "no", "payment:cryptocurrencies": "no", "payment:debit_cards": "no", "payment:electronic_purses": "no", "payment:notes": "yes", "phone": "+355682919392", "reservation": "recommended", "smoking": "outside", "source": "bing;mapbox-satellite;survey;gps;knowledge;local-info", "source_ref:url": "https://www.flickr.com/photos/openstreetmap-albania", "takeaway": "yes", "wheelchair": "no"}}, {"type": "node", "id": 4402733690, "lat": 42.4528057, "lon": 19.8947414, "tags": {"amenity": "restaurant", "name": "camping restaurant"}}, {"type": "node", "id": 4414460892, "lat": 42.5458657, "lon": 20.290108, "tags": {"addr:city": "Decan", "addr:postcode": "51000", "addr:street": "Luan Haradinaj", "amenity": "restaurant", "name": "Restaurant Ilirida", "opening_hours": "07:00-22:00", "phone": "+383 44 131 143"}}, {"type": "node", "id": 4424707190, "lat": 42.5978729, "lon": 19.9404553, "tags": {"addr:postcode": "84325", "addr:street": "Racina", "amenity": "restaurant", "cuisine": "sandwich;pasta;italian_pizza;pizza", "email": "caffetimm@gmail.com", "internet_access": "wlan", "name": "TIMM", "name:en": "Caffe \"TIMM\"", "opening_hours": "Mo-Su 07:00-00:00", "phone": "068747707"}}, {"type": "node", "id": 4687105262, "lat": 42.6527074, "lon": 20.3004278, "tags": {"amenity": "cafe", "name": "MOB IN SHPK"}}, {"type": "node", "id": 4687105265, "lat": 42.6517185, "lon": 20.2957554, "tags": {"amenity": "restaurant", "cuisine": "bakery;cake", "name": "Vanila"}}, {"type": "node", "id": 4687105269, "lat": 42.657914, "lon": 20.288241, "tags": {"name": "Zyra e Veteran\u00ebve t\u00eb Ushtris\u00eb \u00c7lirimtare t\u00eb Kosov\u00ebs", "office": "yes"}}, {"type": "node", "id": 4687105271, "lat": 42.6576015, "lon": 20.2873032, "tags": {"amenity": "restaurant", "name": "Sofra", "opening_hours": "Mo-Su 08:00-23:00", "outdoor_seating": "yes"}}, {"type": "node", "id": 4692150175, "lat": 42.6596231, "lon": 20.2923613, "tags": {"amenity": "cafe", "name": "Prince Coffee House"}}, {"type": "node", "id": 4692150180, "lat": 42.6599722, "lon": 20.2895739, "tags": {"amenity": "cafe", "name": "Prince Coffee House"}}, {"type": "node", "id": 4692150181, "lat": 42.6601018, "lon": 20.2890112, "tags": {"amenity": "restaurant", "name": "Budrio lounge"}}, {"type": "node", "id": 4708489432, "lat": 42.5388173, "lon": 20.289143, "tags": {"addr:city": "De\u00e7an", "addr:postcode": "51000", "addr:street": "D\u00ebshmor\u00ebt e Kombit", "amenity": "cafe", "name": "N shpi", "outdoor_seating": "yes", "phone": "+383 49 425 349"}}, {"type": "node", "id": 4708489435, "lat": 42.532673, "lon": 20.2949348, "tags": {"addr:city": "Decan", "addr:postcode": "51000", "addr:street": "D\u00ebshmor\u00ebt e Kombit", "amenity": "cafe", "name": "Cafe Drini", "phone": "+383 45 478 481"}}, {"type": "node", "id": 4708489439, "lat": 42.5416393, "lon": 20.2893491, "tags": {"amenity": "restaurant", "name": "Pizzeria Aurora"}}, {"type": "node", "id": 4713855492, "lat": 42.5777318, "lon": 20.2865633, "tags": {"amenity": "restaurant", "name": "Restaurant Pisha Strellc", "name:sq": "Restaurant Pisha Strellc"}}, {"type": "node", "id": 4769471826, "lat": 42.5345254, "lon": 20.2927145, "tags": {"addr:postcode": "51000", "addr:street": "D\u00ebshmor\u00ebt e Kombit", "amenity": "restaurant", "name": "Banana Split - De\u00e7an", "name:sq": "Banana Split - De\u00e7an"}}, {"type": "node", "id": 4790432618, "lat": 42.6896707, "lon": 20.173945, "tags": {"amenity": "restaurant", "name": "Restaurant HANI"}}, {"type": "node", "id": 4790442598, "lat": 42.6958373, "lon": 20.1601933, "tags": {"amenity": "restaurant", "name": "Gryka", "phone": "+383 44 732 771"}}, {"type": "node", "id": 4790442599, "lat": 42.6953142, "lon": 20.1584964, "tags": {"amenity": "restaurant", "name": "Restaurant Rugova Camp"}}, {"type": "node", "id": 4803644360, "lat": 42.6589706, "lon": 20.2891683}, {"type": "node", "id": 4803644361, "lat": 42.6588181, "lon": 20.2890276}, {"type": "node", "id": 4803644362, "lat": 42.6588219, "lon": 20.2895204}, {"type": "node", "id": 4888467121, "lat": 42.4008509, "lon": 19.7647019, "tags": {"addr:city": "Theth", "amenity": "restaurant", "beds": "23", "delivery": "no", "diet:vegetarian": "yes", "internet_access": "wlan", "internet_access:fee": "no", "name": "Thethi Paradise", "name:nl": "Thethi's Paradise", "operator": "Ndrek Logu", "outdoor_seating": "yes", "payment:cash": "yes", "payment:credit_cards": "no", "payment:cryptocurrencies": "no", "payment:debit_cards": "no", "payment:electronic_purses": "no", "phone": "+355684861598;+306985026714", "smoking": "outside", "takeaway": "yes", "tourism": "guest_house", "website": "https://www.thethiparadise.com/", "wheelchair": "no"}}, {"type": "node", "id": 4900462122, "lat": 42.3553357, "lon": 19.7662882, "tags": {"addr:country": "AL", "amenity": "cafe", "contact:phone": "0688394134", "delivery": "no", "information": "yes", "internet_access": "no", "internet_access:fee": "no", "name": "Bar Restorant Lulash Zelna", "outdoor_seating": "yes", "payment:coins": "yes", "payment:credit_cards": "no", "payment:cryptocurrencies": "no", "payment:debit_cards": "no", "payment:electronic_purses": "no", "payment:notes": "yes", "smoking": "outside", "source": "bing;mapbox-satellite;survey;gps;knowledge;local-info", "source_ref:url": "https://www.flickr.com/photos/openstreetmap-albania", "takeaway": "yes", "toilets": "yes", "wheelchair": "no"}}, {"type": "node", "id": 4913608621, "lat": 42.5397701, "lon": 20.2886407, "tags": {"amenity": "cafe", "internet_access": "wlan", "name": "N'Viva Coffee House", "name:sq": "N'Viva Coffee House"}}, {"type": "node", "id": 4936935925, "lat": 42.6702859, "lon": 20.2782545, "tags": {"addr:city": "Pej\u00eb", "addr:postcode": "30000", "addr:street": "12 Qershor 1999", "amenity": "restaurant", "name": "Restaurant ERA", "name:sq": "Restaurant ERA", "phone": "+38349755645"}}, {"type": "node", "id": 4950822851, "lat": 42.4100683, "lon": 19.8343374, "tags": {"addr:street": "Route \"Valbone - Theth\"", "amenity": "cafe", "name": "Caf\u00e9 Emanueli"}}, {"type": "node", "id": 4951681425, "lat": 42.6812099, "lon": 20.3194198, "tags": {"addr:street": "Selman Lajqi", "amenity": "restaurant", "cuisine": "italian;cake;local", "internet_access": "wlan", "name": "NeDex", "opening_hours": "Mo-Su 07:00-23:00", "phone": "+383 4 988 8002"}}, {"type": "node", "id": 4955742121, "lat": 42.6498621, "lon": 20.292869, "tags": {"amenity": "restaurant", "cuisine": "italian;cake;local", "internet_access": "wlan", "name": "Borea Lounge Restaurant", "name:en": "Borea Lounge Restaurant", "name:sq": "Borea Lounge Restaurant", "name:sr": "Borea Lounge Restaurant", "opening_hours": "Mo-Su 07:00-23:00"}}, {"type": "node", "id": 4960587148, "lat": 42.5509256, "lon": 20.2519065, "tags": {"amenity": "restaurant", "name": "Natyra"}}, {"type": "node", "id": 4960587156, "lat": 42.5501441, "lon": 20.2554202, "tags": {"amenity": "restaurant", "cuisine": "pizza", "internet_access": "wlan", "name": "Gryka e De\u00e7anit"}}, {"type": "node", "id": 4970987621, "lat": 42.5405089, "lon": 20.2884714, "tags": {"amenity": "cafe", "name": "Kafe Loni - GJ", "name:sq": "Kafe Loni - GJ"}}, {"type": "node", "id": 4998617352, "lat": 42.5377549, "lon": 20.2603646}, {"type": "node", "id": 4998617353, "lat": 42.537664, "lon": 20.2604316}, {"type": "node", "id": 4998617354, "lat": 42.5375652, "lon": 20.2604075}, {"type": "node", "id": 4998617355, "lat": 42.5375474, "lon": 20.2603002}, {"type": "node", "id": 4998617356, "lat": 42.5376739, "lon": 20.260217}, {"type": "node", "id": 4998617357, "lat": 42.5377707, "lon": 20.2603002}, {"type": "node", "id": 5001392600, "lat": 42.3950597, "lon": 19.7758546, "tags": {"addr:country": "AL", "amenity": "cafe", "delivery": "no", "internet_access": "no", "internet_access:fee": "no", "name": "'Gurra Family' Guesthouse", "operator": "Nikolin Gurra", "outdoor_seating": "yes", "payment:coins": "yes", "payment:credit_cards": "no", "payment:cryptocurrencies": "no", "payment:debit_cards": "no", "payment:electronic_purses": "no", "payment:notes": "yes", "smoking": "outside", "source": "bing;mapbox-satellite;survey;gps;knowledge;local-info", "source_ref:url": "https://www.flickr.com/photos/openstreetmap-albania", "takeaway": "yes", "toilets": "yes", "wheelchair": "no"}}, {"type": "node", "id": 5008932604, "lat": 42.3946297, "lon": 19.7765104}, {"type": "node", "id": 5008932605, "lat": 42.3942108, "lon": 19.7768672}, {"type": "node", "id": 5008932606, "lat": 42.3939988, "lon": 19.7764286}, {"type": "node", "id": 5008932607, "lat": 42.3944653, "lon": 19.7761135}, {"type": "node", "id": 5008933999, "lat": 42.3856558, "lon": 19.7822852}, {"type": "node", "id": 5008934000, "lat": 42.3856825, "lon": 19.7823965}, {"type": "node", "id": 5008934001, "lat": 42.3857281, "lon": 19.7823765}, {"type": "node", "id": 5008934002, "lat": 42.3857013, "lon": 19.7822652}, {"type": "node", "id": 5022528649, "lat": 42.386107, "lon": 19.7818836}, {"type": "node", "id": 5022528650, "lat": 42.3860961, "lon": 19.7816791}, {"type": "node", "id": 5022528651, "lat": 42.3860961, "lon": 19.7817562}, {"type": "node", "id": 5022528652, "lat": 42.386107, "lon": 19.7818233}, {"type": "node", "id": 5032924624, "lat": 42.6500726, "lon": 20.3242579, "tags": {"addr:street": "D\u00ebshmor\u00ebt e Kombit", "amenity": "restaurant", "internet_access": "wlan", "name": "Grand Antika", "name:sq": "Grand Antika"}}, {"type": "node", "id": 5041771723, "lat": 42.4115233, "lon": 19.839511, "tags": {"amenity": "cafe", "name": "Cafe and Bar", "name:en": "Cafe and Bar"}}, {"type": "node", "id": 5085739821, "lat": 42.6498498, "lon": 20.3240468, "tags": {"addr:housenumber": "1", "addr:postcode": "30000", "addr:street": "D\u00ebshmor\u00ebt e Kombit", "amenity": "restaurant", "cuisine": "balkan;regional;italian_pizza;fish", "internet_access": "wlan", "name": "Grand Antika", "name:en": "Grande Antika", "name:sq": "Grand Antika", "opening_hours": "Mo-Su 08:00-22:00", "operator": "Leotrim Januzi", "phone": "+38349515285"}}, {"type": "node", "id": 5175222621, "lat": 42.5974623, "lon": 19.9405275, "tags": {"amenity": "restaurant", "name": "Swiss Doner"}}, {"type": "node", "id": 5251932231, "lat": 42.7377108, "lon": 19.7859276, "tags": {"amenity": "cafe"}}, {"type": "node", "id": 5251954806, "lat": 42.7302933, "lon": 19.792657, "tags": {"amenity": "cafe"}}, {"type": "node", "id": 5251955649, "lat": 42.7329097, "lon": 19.7934321, "tags": {"amenity": "cafe"}}, {"type": "node", "id": 5251973827, "lat": 42.7328277, "lon": 19.7931679, "tags": {"amenity": "cafe", "name": "San"}}, {"type": "node", "id": 5252066514, "lat": 42.7398948, "lon": 19.7792182, "tags": {"amenity": "cafe"}}, {"type": "node", "id": 5252069798, "lat": 42.733851, "lon": 19.7927041, "tags": {"amenity": "restaurant"}}, {"type": "node", "id": 5331391023, "lat": 42.6601806, "lon": 20.2862594, "tags": {"addr:street": "Xhevat Begolli", "amenity": "cafe", "name": "Legends", "opening_hours": "07:00-24:00", "outdoor_seating": "yes"}}, {"type": "node", "id": 5359656086, "lat": 42.4277011, "lon": 20.247591, "tags": {"amenity": "restaurant", "check_date": "2024-07-04", "contact:phone": "+383 44 150 536; +383 44 627 659", "cuisine": "regional", "internet_access": "wlan", "name": "Kroni Potok", "outdoor_seating": "yes", "payment:cash": "yes"}}, {"type": "node", "id": 5464723335, "lat": 42.5441186, "lon": 20.2904177, "tags": {"addr:housenumber": "1", "addr:postcode": "51000", "addr:street": "Luan Haradinaj", "amenity": "restaurant", "cuisine": "italian", "internet_access": "wlan", "name": "SH.P.K JETA 2000", "opening_hours": "Mo-Su 06:00-20:00", "operator": "Edmond Shala", "phone": "+38349412938"}}, {"type": "node", "id": 5581838722, "lat": 42.3565147, "lon": 20.0723024, "tags": {"amenity": "cafe", "internet_access": "wlan", "name": "Dardania"}}, {"type": "node", "id": 5585903021, "lat": 42.6627033, "lon": 20.303448, "tags": {"addr:housenumber": "90", "addr:postcode": "30000", "addr:street": "Papa Klimenti XI", "amenity": "restaurant", "name": "Oma' Cake", "opening_hours": "Mo-Sa 07:00-22:00", "phone": "+38344818887"}}, {"type": "node", "id": 5596073921, "lat": 42.6595264, "lon": 20.2859356, "tags": {"addr:postcode": "30000", "addr:street": "William Wolker", "amenity": "cafe", "name": "Dio Bar"}}, {"type": "node", "id": 5649286021, "lat": 42.5230828, "lon": 19.8421642, "tags": {"addr:housenumber": "12", "addr:street": "Vusanje - Ropojanska dolina / BT GU03", "amenity": "restaurant", "cuisine": "grill;ice_cream;international;coffee_shop;chicken;breakfast", "diet:vegetarian": "yes", "email": "kelmendkeli69@gmail.com", "internet_access": "wlan", "name:en": "Restoran Grlja", "opening_hours": "Mo-Su 09:00-21:00", "operator": "Hotel rooms", "outdoor_seating": "yes", "phone": "+3 826 923 9593"}}, {"type": "node", "id": 5661587236, "lat": 42.6599122, "lon": 20.2888999, "tags": {"amenity": "cafe", "cuisine": "ice_cream", "internet_access": "wlan", "name": "Doncafe House", "outdoor_seating": "yes"}}, {"type": "node", "id": 5696850321, "lat": 42.660092, "lon": 20.2883115, "tags": {"amenity": "cafe", "name": "Prince Coffee House", "opening_hours": "Mo-Su 07:00-23:00", "outdoor_seating": "yes"}}, {"type": "node", "id": 5714552221, "lat": 42.4006334, "lon": 20.1671819, "tags": {"amenity": "cafe", "name": "Caffe Inesi"}}, {"type": "node", "id": 5734859262, "lat": 42.5044475, "lon": 19.9674126, "tags": {"amenity": "cafe", "cuisine": "turkish_coffee", "delivery": "no", "internet_access": "no", "internet_access:fee": "no", "name": "Kafe", "outdoor_seating": "yes", "smoking": "yes", "takeaway": "no", "wheelchair": "no"}}, {"type": "node", "id": 5735865268, "lat": 42.5268513, "lon": 20.0236854, "tags": {"amenity": "cafe", "delivery": "no", "internet_access": "no", "internet_access:fee": "no", "outdoor_seating": "yes", "smoking": "yes", "takeaway": "no", "wheelchair": "no"}}, {"type": "node", "id": 5736389847, "lat": 42.4399172, "lon": 20.1489996, "tags": {"amenity": "cafe", "delivery": "no", "internet_access": "no", "internet_access:fee": "no", "name": "Kafe", "opening_hours": "24/7", "outdoor_seating": "yes", "smoking": "yes", "takeaway": "yes", "wheelchair": "no"}}, {"type": "node", "id": 5736390983, "lat": 42.5091487, "lon": 20.1392412, "tags": {"amenity": "cafe", "delivery": "no", "internet_access": "no", "internet_access:fee": "no", "name": "Kafe", "opening_hours": "24/7", "outdoor_seating": "yes", "smoking": "yes", "takeaway": "yes", "wheelchair": "no"}}, {"type": "node", "id": 5736390985, "lat": 42.4777179, "lon": 20.1506362, "tags": {"amenity": "cafe", "delivery": "no", "internet_access": "no", "internet_access:fee": "no", "name": "Kafe", "opening_hours": "24/7", "outdoor_seating": "yes", "smoking": "yes", "takeaway": "yes", "wheelchair": "no"}}, {"type": "node", "id": 5778759206, "lat": 42.4578669, "lon": 19.936983, "tags": {"access": "customers", "barrier": "gate"}}, {"type": "node", "id": 5778759207, "lat": 42.457281, "lon": 19.9384204}, {"type": "node", "id": 5778759208, "lat": 42.457334, "lon": 19.9382791}, {"type": "node", "id": 5778759209, "lat": 42.4573862, "lon": 19.938115}, {"type": "node", "id": 5778759210, "lat": 42.4575426, "lon": 19.9376883}, {"type": "node", "id": 5778759211, "lat": 42.4576749, "lon": 19.9373223}, {"type": "node", "id": 5778759212, "lat": 42.4577484, "lon": 19.9371822}, {"type": "node", "id": 5778759213, "lat": 42.4578481, "lon": 19.9370105}, {"type": "node", "id": 5778759214, "lat": 42.4578835, "lon": 19.9369588}, {"type": "node", "id": 5778759215, "lat": 42.4579645, "lon": 19.9368313}, {"type": "node", "id": 5778759216, "lat": 42.457917, "lon": 19.9367783}, {"type": "node", "id": 5778759217, "lat": 42.4578518, "lon": 19.9368818}, {"type": "node", "id": 5778759218, "lat": 42.457782, "lon": 19.9368225}, {"type": "node", "id": 5778759219, "lat": 42.457659, "lon": 19.9369209}, {"type": "node", "id": 5778759220, "lat": 42.4572223, "lon": 19.9374195}, {"type": "node", "id": 5778759221, "lat": 42.4572083, "lon": 19.9374397}, {"type": "node", "id": 5778759222, "lat": 42.4571953, "lon": 19.9374599}, {"type": "node", "id": 5778759223, "lat": 42.4571869, "lon": 19.9374851}, {"type": "node", "id": 5778759224, "lat": 42.4571832, "lon": 19.9375116}, {"type": "node", "id": 5778759225, "lat": 42.4571794, "lon": 19.9375381}, {"type": "node", "id": 5778759226, "lat": 42.4571739, "lon": 19.9375634}, {"type": "node", "id": 5778759227, "lat": 42.4571655, "lon": 19.9375874}, {"type": "node", "id": 5778759228, "lat": 42.4571599, "lon": 19.9376139}, {"type": "node", "id": 5778759229, "lat": 42.4571562, "lon": 19.9376416}, {"type": "node", "id": 5778759230, "lat": 42.4571478, "lon": 19.9376656}, {"type": "node", "id": 5778759231, "lat": 42.4571366, "lon": 19.9376871}, {"type": "node", "id": 5778759232, "lat": 42.4571264, "lon": 19.9377085}, {"type": "node", "id": 5778759233, "lat": 42.4571124, "lon": 19.9377679}, {"type": "node", "id": 5778759234, "lat": 42.457104, "lon": 19.9377906}, {"type": "node", "id": 5778759235, "lat": 42.4570966, "lon": 19.9378146}, {"type": "node", "id": 5778759236, "lat": 42.4570928, "lon": 19.9378411}, {"type": "node", "id": 5778759237, "lat": 42.4570928, "lon": 19.9378676}, {"type": "node", "id": 5778759238, "lat": 42.4570928, "lon": 19.9378953}, {"type": "node", "id": 5778759239, "lat": 42.4570956, "lon": 19.9379219}, {"type": "node", "id": 5778759240, "lat": 42.4570975, "lon": 19.9379471}, {"type": "node", "id": 5778759241, "lat": 42.4570984, "lon": 19.9379723}, {"type": "node", "id": 5778759242, "lat": 42.4570975, "lon": 19.9380001}, {"type": "node", "id": 5778759243, "lat": 42.4570928, "lon": 19.9380254}, {"type": "node", "id": 5778759244, "lat": 42.4570882, "lon": 19.9380531}, {"type": "node", "id": 5778759245, "lat": 42.4570854, "lon": 19.9380796}, {"type": "node", "id": 5778759246, "lat": 42.4570835, "lon": 19.9381061}, {"type": "node", "id": 5778759247, "lat": 42.4570789, "lon": 19.9381314}, {"type": "node", "id": 5778759248, "lat": 42.4570696, "lon": 19.9381541}, {"type": "node", "id": 5778759249, "lat": 42.4570603, "lon": 19.9381768}, {"type": "node", "id": 5778759250, "lat": 42.45705, "lon": 19.9382008}, {"type": "node", "id": 5778759251, "lat": 42.4570444, "lon": 19.9382273}, {"type": "node", "id": 5778759252, "lat": 42.4570435, "lon": 19.9382526}, {"type": "node", "id": 5778759253, "lat": 42.4570398, "lon": 19.9382803}, {"type": "node", "id": 5778759254, "lat": 42.457037, "lon": 19.9383056}, {"type": "node", "id": 5778759255, "lat": 42.4570323, "lon": 19.9383472}, {"type": "node", "id": 5778759256, "lat": 42.4570249, "lon": 19.9383737}, {"type": "node", "id": 5778759257, "lat": 42.4570137, "lon": 19.9383977}, {"type": "node", "id": 5778759258, "lat": 42.4570034, "lon": 19.9384204}, {"type": "node", "id": 5778759259, "lat": 42.4569923, "lon": 19.9384457}, {"type": "node", "id": 5778759260, "lat": 42.4569811, "lon": 19.9384671}, {"type": "node", "id": 5778759261, "lat": 42.4569699, "lon": 19.9384886}, {"type": "node", "id": 5778759262, "lat": 42.4569615, "lon": 19.9385126}, {"type": "node", "id": 5778759263, "lat": 42.456955, "lon": 19.9385391}, {"type": "node", "id": 5778759264, "lat": 42.4569485, "lon": 19.9385656}, {"type": "node", "id": 5778759265, "lat": 42.4569457, "lon": 19.9385921}, {"type": "node", "id": 5778759266, "lat": 42.4570947, "lon": 19.9387259}, {"type": "node", "id": 5778759267, "lat": 42.4572791, "lon": 19.9384608}, {"type": "node", "id": 5807893053, "lat": 42.6591152, "lon": 20.2854271, "tags": {"addr:postcode": "30000", "addr:street": "Lek\u00eb Dukagjini", "amenity": "restaurant", "contact:facebook": "https://www.facebook.com/kingsjazzfood", "contact:phone": "+383 44 646 975", "cuisine": "pasta;pizza;coffee_shop;mediterranean", "diet:vegetarian": "yes", "internet_access": "wlan", "name": "King\u2018s", "opening_hours": "Mo-Su 07:00-24:00", "outdoor_seating": "yes"}}, {"type": "node", "id": 5884005260, "lat": 42.5633298, "lon": 19.8320997, "tags": {"amenity": "cafe"}}, {"type": "node", "id": 5890644585, "lat": 42.597082, "lon": 19.9415164, "tags": {"amenity": "restaurant", "name:en": "Park Caffe"}}, {"type": "node", "id": 5901674785, "lat": 42.6602833, "lon": 20.2853237, "tags": {"amenity": "restaurant", "name": "Sweet Bean"}}, {"type": "node", "id": 5901674885, "lat": 42.6592661, "lon": 20.2864605, "tags": {"amenity": "restaurant", "name": "Aroma"}}, {"type": "node", "id": 5905815486, "lat": 42.6626563, "lon": 20.2975282, "tags": {"amenity": "cafe", "name": "SWISS Cafeteria"}}, {"type": "node", "id": 5906067585, "lat": 42.6645893, "lon": 20.3015419, "tags": {"amenity": "cafe", "name": "Zekaj"}}, {"type": "node", "id": 5915398509, "lat": 42.5998237, "lon": 19.936995}, {"type": "node", "id": 5915398510, "lat": 42.59968, "lon": 19.9369242}, {"type": "node", "id": 5915398511, "lat": 42.5996495, "lon": 19.9370383}, {"type": "node", "id": 5915398512, "lat": 42.5997933, "lon": 19.937109}, {"type": "node", "id": 5915398513, "lat": 42.6053948, "lon": 19.9318835}, {"type": "node", "id": 5915398514, "lat": 42.6051804, "lon": 19.9319782}, {"type": "node", "id": 5915398515, "lat": 42.6052443, "lon": 19.9322453}, {"type": "node", "id": 5915398516, "lat": 42.6054588, "lon": 19.9321505}, {"type": "node", "id": 5915398517, "lat": 42.6055508, "lon": 19.930536, "tags": {"amenity": "restaurant", "coffee": "yes", "cuisine": "regional", "toilets": "yes", "toilets:paper_supplied": "no"}}, {"type": "node", "id": 5920272485, "lat": 42.7353031, "lon": 20.3132298, "tags": {"addr:postcode": "30000", "addr:street": "R-106", "amenity": "restaurant", "cuisine": "seafood;pizza;steak_house;tapas;pasta;fish;fish_and_chips;breakfast;coffee_shop;local;ice_cream;grill", "internet_access": "wlan", "name": "AN\u00cbS DRINIT", "opening_hours": "Mo-Su 09:00-00:00", "phone": "+38344219402"}}, {"type": "node", "id": 5929889102, "lat": 42.6589839, "lon": 20.2875262}, {"type": "node", "id": 5929889103, "lat": 42.6589385, "lon": 20.2875249}, {"type": "node", "id": 5929889104, "lat": 42.6588488, "lon": 20.2875303}, {"type": "node", "id": 5929889105, "lat": 42.6588359, "lon": 20.2874082}, {"type": "node", "id": 5929889108, "lat": 42.658977, "lon": 20.2873854}, {"type": "node", "id": 5929889109, "lat": 42.6588734, "lon": 20.2873908}, {"type": "node", "id": 6123279475, "lat": 42.658574, "lon": 20.280547}, {"type": "node", "id": 6123279476, "lat": 42.6585148, "lon": 20.2805106}, {"type": "node", "id": 6123279477, "lat": 42.658475, "lon": 20.2806306}, {"type": "node", "id": 6123279478, "lat": 42.6585263, "lon": 20.2806905}, {"type": "node", "id": 6123462918, "lat": 42.6579092, "lon": 20.2884894}, {"type": "node", "id": 6123462919, "lat": 42.658094, "lon": 20.2884736}, {"type": "node", "id": 6297841185, "lat": 42.6574398, "lon": 20.2875225, "tags": {"addr:postcode": "30000", "amenity": "restaurant", "cuisine": "regional;pasta;balkan;burger", "name": "Retro Lounge&Bar", "opening_hours": "Mo-Su 07:00-23:00", "outdoor_seating": "yes"}}, {"type": "node", "id": 6381686169, "lat": 42.5535536, "lon": 20.289837, "tags": {"addr:city": "de", "addr:postcode": "51000", "addr:street": "Agim Kukleci", "amenity": "restaurant", "cuisine": "regional", "name": "Tropikana", "opening_hours": "Mo-Su 08:00-22:00", "outdoor_seating": "no"}}, {"type": "node", "id": 6399381090, "lat": 42.5275442, "lon": 20.2988997, "tags": {"addr:housenumber": "73", "addr:postcode": "51000", "addr:street": "R-107", "amenity": "restaurant", "cuisine": "balkan;burger;coffee_shop;diner;fish;fish_and_chips;grill;italian_pizza;local;pasta;pizza;regional;sandwich;seafood;steak_house;breakfast;international;italian;kebab;tea", "email": "erdogan.dautaj@hotmail.com", "internet_access": "wlan", "name": "Grand Jerina", "opening_hours": "24/7", "phone": "+38349766831"}}, {"type": "node", "id": 6411451486, "lat": 42.4103625, "lon": 19.8391259, "tags": {"addr:street": "Route \"Valbone - Theth\"", "amenity": "cafe", "name": "Caf\u00e9 Ujvara", "name:en": "Coffee, tea and food"}}, {"type": "node", "id": 6412541084, "lat": 42.4455077, "lon": 19.8864855, "tags": {"amenity": "restaurant", "cuisine": "regional", "name": "Natyra", "website": "https://www.facebook.com/pages/Bar-Restorant-Hotel-Natyra/276059692495724?sk=info"}}, {"type": "node", "id": 6419578551, "lat": 42.3719692, "lon": 20.1196422, "tags": {"amenity": "cafe"}}, {"type": "node", "id": 6447607613, "lat": 42.6726364, "lon": 20.0055349, "tags": {"amenity": "restaurant"}}, {"type": "node", "id": 6487897886, "lat": 42.5649082, "lon": 19.8332723, "tags": {"addr:housenumber": "2", "addr:street": "\u010car\u0161ijska", "amenity": "restaurant", "cuisine": "regional", "name": "Kula Nekovi\u0107a"}}, {"type": "node", "id": 6505853285, "lat": 42.4998961, "lon": 20.2393976, "tags": {"amenity": "restaurant", "name": "Trofta e Junikut", "phone": "+38349699333"}}, {"type": "node", "id": 6602278386, "lat": 42.6609205, "lon": 20.2713141, "tags": {"addr:city": "Peja", "addr:street": "Lek\u00eb Dukagjini", "amenity": "restaurant", "cuisine": "regional;pizza", "name": "Blini", "outdoor_seating": "yes"}}, {"type": "node", "id": 6652179886, "lat": 42.6605281, "lon": 20.2874205, "tags": {"amenity": "restaurant", "name": "Shala 1-2"}}, {"type": "node", "id": 6654739706, "lat": 42.5964346, "lon": 19.9472938, "tags": {"amenity": "cafe"}}, {"type": "node", "id": 6721252985, "lat": 42.4271953, "lon": 20.2477809, "tags": {"amenity": "restaurant", "internet_access": "wlan", "name": "Restaurant Potoku", "opening_hours": "Mo-Su 08:00-23:00", "phone": "0038344758950"}}, {"type": "node", "id": 6770500083, "lat": 42.5880722, "lon": 19.9290501, "tags": {"amenity": "restaurant", "internet_access": "wlan", "name": "Komnenovo etno selo", "outdoor_seating": "yes"}}, {"type": "node", "id": 6779479465, "lat": 42.5966206, "lon": 19.9473068, "tags": {"amenity": "cafe", "name": "Caffe ambiente"}}, {"type": "node", "id": 6779485168, "lat": 42.4021179, "lon": 19.7703944, "tags": {"amenity": "cafe", "name": "Caf\u00e9"}}, {"type": "node", "id": 6779485169, "lat": 42.4755697, "lon": 19.8834263, "tags": {"amenity": "cafe", "description": "Little hut with basic shelter and soft drinks (last checked July 2023)", "name": "Caf\u00e9 - occasionaly open"}}, {"type": "node", "id": 6779521526, "lat": 42.4518351, "lon": 19.8902575, "tags": {"amenity": "restaurant", "name": "Bar & Restaurant Valbona"}}, {"type": "node", "id": 6791106820, "lat": 42.6940613, "lon": 20.0767054, "tags": {"amenity": "restaurant", "name": "Shpella"}}, {"type": "node", "id": 6791136129, "lat": 42.7147541, "lon": 20.1525886, "tags": {"amenity": "restaurant", "name": "Restaurant Villa me qira"}}, {"type": "node", "id": 6796985485, "lat": 42.6574513, "lon": 20.2925076, "tags": {"amenity": "cafe"}}, {"type": "node", "id": 7209009085, "lat": 42.665919, "lon": 20.3008551, "tags": {"addr:housenumber": "213", "addr:postcode": "30000", "addr:street": "Adem Jashari", "amenity": "restaurant", "cuisine": "pizza", "internet_access": "wlan", "name": "Fisi", "outdoor_seating": "yes"}}, {"type": "node", "id": 7473528881, "lat": 42.6526282, "lon": 20.2989988}, {"type": "node", "id": 7473528882, "lat": 42.652473, "lon": 20.2990024}, {"type": "node", "id": 7473528883, "lat": 42.6524168, "lon": 20.2992863}, {"type": "node", "id": 7473528884, "lat": 42.6526202, "lon": 20.2993263}, {"type": "node", "id": 7473566485, "lat": 42.6526697, "lon": 20.2990898}, {"type": "node", "id": 7642460222, "lat": 42.3968626, "lon": 19.7728898}, {"type": "node", "id": 7642460223, "lat": 42.3968185, "lon": 19.7725101}, {"type": "node", "id": 7642460224, "lat": 42.3965872, "lon": 19.7730021}, {"type": "node", "id": 7642460225, "lat": 42.396792, "lon": 19.773129}, {"type": "node", "id": 7642460235, "lat": 42.3855318, "lon": 19.7819481}, {"type": "node", "id": 7642460236, "lat": 42.3855278, "lon": 19.7820929}, {"type": "node", "id": 7642460237, "lat": 42.3855656, "lon": 19.7820948}, {"type": "node", "id": 7642460238, "lat": 42.3855696, "lon": 19.78195}, {"type": "node", "id": 7741297990, "lat": 42.5008702, "lon": 19.9126313, "tags": {"amenity": "cafe"}}, {"type": "node", "id": 7761345285, "lat": 42.3810667, "lon": 19.7876446, "tags": {"amenity": "cafe", "name": "Kunora e Grunasit"}}, {"type": "node", "id": 7794763885, "lat": 42.5964631, "lon": 19.9471468, "tags": {"amenity": "restaurant", "cuisine": "pizza", "name:en": "Adagio Pizza and Sandwiches", "phone": "069526800"}}, {"type": "node", "id": 7862055939, "lat": 42.5401445, "lon": 20.2871298, "tags": {"addr:city": "De\u00e7an", "addr:postcode": "51000", "addr:street": "Salih \u00c7eku", "amenity": "restaurant", "cuisine": "pizza;burger;albanian;kebab;steak_house;chicken", "internet_access": "wlan", "name": "Medjana", "opening_hours": "Mo-Su 06:30-23:00", "outdoor_seating": "yes", "phone": "+383 44 962 843", "website": "http://restaurantmedjana.com"}}, {"type": "node", "id": 7869849650, "lat": 42.5554011, "lon": 20.2894236, "tags": {"addr:city": "De\u00e7an", "addr:postcode": "51000", "addr:street": "Misin Balaj", "amenity": "restaurant", "name": "Restaurant Te Blini"}}, {"type": "node", "id": 8232635577, "lat": 42.6601089, "lon": 20.2863424, "tags": {"amenity": "cafe", "internet_access": "wlan", "name": "The Pub", "outdoor_seating": "yes"}}, {"type": "node", "id": 8294788171, "lat": 42.5271581, "lon": 19.8477808}, {"type": "node", "id": 8294788172, "lat": 42.5271117, "lon": 19.8477049}, {"type": "node", "id": 8294788173, "lat": 42.5271949, "lon": 19.8476111}, {"type": "node", "id": 8294788174, "lat": 42.5272414, "lon": 19.8476871}, {"type": "node", "id": 8772698255, "lat": 42.6580988, "lon": 20.2882601}, {"type": "node", "id": 8772698256, "lat": 42.6576901, "lon": 20.2882952}, {"type": "node", "id": 8772698257, "lat": 42.6576941, "lon": 20.2884734}, {"type": "node", "id": 8772698258, "lat": 42.6577643, "lon": 20.2882074}, {"type": "node", "id": 9008557116, "lat": 42.6602231, "lon": 20.2882773, "tags": {"amenity": "cafe", "name": "Green Lounge", "outdoor_seating": "yes"}}, {"type": "node", "id": 9008563817, "lat": 42.6598887, "lon": 20.288259, "tags": {"amenity": "cafe", "name": "Dolcetto", "outdoor_seating": "yes"}}, {"type": "node", "id": 9008574320, "lat": 42.6579851, "lon": 20.2884731}, {"type": "node", "id": 9009830978, "lat": 42.6690372, "lon": 20.3061512, "tags": {"amenity": "cafe", "internet_access": "wlan", "name": "Bimmi", "outdoor_seating": "yes"}}, {"type": "node", "id": 9009830983, "lat": 42.6801824, "lon": 20.3148548, "tags": {"amenity": "restaurant", "name": "Jusaj Glob"}}, {"type": "node", "id": 9009992642, "lat": 42.659247, "lon": 20.2937848, "tags": {"amenity": "cafe", "name": "Labirint", "outdoor_seating": "yes"}}, {"type": "node", "id": 9009992648, "lat": 42.6661034, "lon": 20.3017661, "tags": {"amenity": "cafe", "name": "Te Kana", "outdoor_seating": "yes"}}, {"type": "node", "id": 9009992663, "lat": 42.6649949, "lon": 20.299865, "tags": {"amenity": "cafe", "name": "Urban", "outdoor_seating": "yes"}}, {"type": "node", "id": 9010137486, "lat": 42.6984607, "lon": 20.3229824, "tags": {"amenity": "restaurant", "name": "Potguri"}}, {"type": "node", "id": 9010137487, "lat": 42.6993448, "lon": 20.322462, "tags": {"amenity": "cafe"}}, {"type": "node", "id": 9011052140, "lat": 42.6591246, "lon": 20.2852775, "tags": {"amenity": "cafe", "name": "Bridge Caffe", "outdoor_seating": "yes"}}, {"type": "node", "id": 9011052141, "lat": 42.6605201, "lon": 20.2857137, "tags": {"amenity": "cafe", "name": "Pascucci", "outdoor_seating": "yes"}}, {"type": "node", "id": 9011052155, "lat": 42.6597106, "lon": 20.2841057, "tags": {"amenity": "restaurant", "cuisine": "italian", "name": "Dream", "outdoor_seating": "yes"}}, {"type": "node", "id": 9011052156, "lat": 42.6580263, "lon": 20.2867692, "tags": {"amenity": "cafe", "internet_access": "wlan", "name": "Teslim", "outdoor_seating": "yes"}}, {"type": "node", "id": 9011052177, "lat": 42.6613465, "lon": 20.2841926, "tags": {"amenity": "restaurant", "cuisine": "pizza", "name": "Zhuri", "outdoor_seating": "yes"}}, {"type": "node", "id": 9011052195, "lat": 42.6601504, "lon": 20.2838875, "tags": {"amenity": "restaurant", "cuisine": "balkan", "name": "Grill House Family Gega", "name:en": "Grll house family Gega", "outdoor_seating": "yes"}}, {"type": "node", "id": 9017873386, "lat": 42.6591806, "lon": 20.2915271, "tags": {"amenity": "cafe", "outdoor_seating": "yes"}}, {"type": "node", "id": 9017876733, "lat": 42.661318, "lon": 20.2932367, "tags": {"amenity": "restaurant", "internet_access": "wlan", "name": "Family Restaurant", "phone": "+38348881991"}}, {"type": "node", "id": 9017876735, "lat": 42.6602077, "lon": 20.2941298, "tags": {"amenity": "cafe", "name": "Art", "outdoor_seating": "yes"}}, {"type": "node", "id": 9024661711, "lat": 42.6621506, "lon": 20.2356711, "tags": {"amenity": "restaurant", "name": "Te Meti"}}, {"type": "node", "id": 9024714164, "lat": 42.6611244, "lon": 20.271663, "tags": {"addr:city": "Peja", "addr:street": "N\u00ebn\u00eb Tereza", "amenity": "restaurant", "name": "Druri", "outdoor_seating": "yes"}}, {"type": "node", "id": 9031321889, "lat": 42.5401215, "lon": 20.2870632, "tags": {"amenity": "cafe", "internet_access": "wlan", "name": "Ernisi", "outdoor_seating": "yes"}}, {"type": "node", "id": 9031511023, "lat": 42.5883946, "lon": 20.1767725, "tags": {"amenity": "restaurant", "cuisine": "pizza;balkan", "name": "P\u00ebrroi Shqiptar", "outdoor_seating": "yes"}}, {"type": "node", "id": 9031511063, "lat": 42.5727231, "lon": 20.2031359, "tags": {"amenity": "restaurant", "name": "Kalaja e De\u00e7anit", "outdoor_seating": "yes"}}, {"type": "node", "id": 9032171302, "lat": 42.5402084, "lon": 20.2872889, "tags": {"amenity": "restaurant", "name": "Dushkaja-T", "outdoor_seating": "yes"}}, {"type": "node", "id": 9034394064, "lat": 42.3598304, "lon": 20.0742797, "tags": {"amenity": "cafe", "internet_access": "wlan", "name": "Jehoni", "outdoor_seating": "yes"}}, {"type": "node", "id": 9034394069, "lat": 42.3597293, "lon": 20.073434, "tags": {"amenity": "cafe"}}, {"type": "node", "id": 9034394075, "lat": 42.3571673, "lon": 20.0735561, "tags": {"amenity": "cafe", "name": "Ku\u00e7ana", "outdoor_seating": "yes"}}, {"type": "node", "id": 9035570383, "lat": 42.3574443, "lon": 20.0747508, "tags": {"amenity": "cafe", "name": "Eposi", "outdoor_seating": "yes"}}, {"type": "node", "id": 9035639419, "lat": 42.4013366, "lon": 20.2003249, "tags": {"amenity": "restaurant", "internet_access": "wlan", "name": "Grand Klaus"}}, {"type": "node", "id": 9036716724, "lat": 42.3829904, "lon": 20.1348809, "tags": {"amenity": "restaurant", "name": "Freskia", "outdoor_seating": "yes"}}, {"type": "node", "id": 9036716732, "lat": 42.5438649, "lon": 20.2911417, "tags": {"amenity": "cafe", "outdoor_seating": "yes"}}, {"type": "node", "id": 9066893694, "lat": 42.4041729, "lon": 20.2545106, "tags": {"addr:floor": "G", "amenity": "restaurant", "check_date": "2024-05-26", "contact:phone": "+383 43 991 484", "cuisine": "pizza;regional", "internet_access": "wlan", "internet_access:fee": "customers", "level": "0", "name": "Restaurant Villa Italia", "opening_hours": "10:00-23:00", "outdoor_seating": "yes"}}, {"type": "node", "id": 9073356058, "lat": 42.3635556, "lon": 19.7505396, "tags": {"amenity": "cafe"}}, {"type": "node", "id": 9078485017, "lat": 42.4204395, "lon": 19.8720392, "tags": {"amenity": "restaurant", "name": "Bujtina", "name:sq": "Bujtina restaurant", "phone": "0685527858"}}, {"type": "node", "id": 9091313123, "lat": 42.6622037, "lon": 20.2960072, "tags": {"amenity": "cafe", "name": "Shadermani"}}, {"type": "node", "id": 9091313419, "lat": 42.5061695, "lon": 20.3115285, "tags": {"amenity": "restaurant", "name": "Kurora"}}, {"type": "node", "id": 9091313422, "lat": 42.6635916, "lon": 20.2979052, "tags": {"amenity": "restaurant", "name:en": "Buquku Grill house"}}, {"type": "node", "id": 9091313431, "lat": 42.6606425, "lon": 20.2739967, "tags": {"amenity": "restaurant", "name": "Quebaptore"}}, {"type": "node", "id": 9091313717, "lat": 42.6641969, "lon": 20.2997655, "tags": {"amenity": "cafe", "name:en": "Sahara"}}, {"type": "node", "id": 9094342627, "lat": 42.6609865, "lon": 20.2966383, "tags": {"amenity": "cafe", "name:en": "Home coffee"}}, {"type": "node", "id": 9094342724, "lat": 42.6603895, "lon": 20.2952573, "tags": {"amenity": "cafe", "name": "Lein"}}, {"type": "node", "id": 9098651520, "lat": 42.6618238, "lon": 20.2955609, "tags": {"addr:city": "Pej\u00eb", "addr:housenumber": "129", "addr:postcode": "30000", "addr:street": "Mbret\u00ebresha Teut\u00eb", "air_conditioning": "yes", "amenity": "restaurant", "bar": "yes", "cuisine": "pizza;burger;coffee_shop;sandwich;cake;dessert;ice_cream;juice;regional", "description": "REKORD is placed on entry of \"Qarshia e Gjat\u00eb\", a frequented area and touristic zone, the oldest part of city. In our restaurant and pizzeria, are served fresh and very delicious food, from pizza, chicken salads, chicken filet, sandwich, burger, burek,.", "diet:halal": "yes", "diet:vegetarian": "yes", "internet_access": "yes", "name": "REKORD", "opening_hours": "Mo-Su 07:00-23:00", "operator": "https://www.facebook.com/ONPOINT2142", "outdoor_seating": "yes", "phone": "+383 45 295 926", "reservation": "yes", "takeaway": "yes"}}, {"type": "node", "id": 9098651718, "lat": 42.6128929, "lon": 20.3021777, "tags": {"amenity": "restaurant", "name": "Alaska"}}, {"type": "node", "id": 9117475350, "lat": 42.3588456, "lon": 20.073088, "tags": {"amenity": "restaurant", "cuisine": "pizza"}}, {"type": "node", "id": 9163063073, "lat": 42.394111, "lon": 19.7766608, "tags": {"barrier": "kissing_gate", "bicycle": "yes", "foot": "yes", "horse": "no", "motor_vehicle": "no"}}, {"type": "node", "id": 9375571613, "lat": 42.7405188, "lon": 20.0535642, "tags": {"amenity": "cafe", "name": "O'Deer Caffe Bar"}}, {"type": "node", "id": 9832314228, "lat": 42.4579649, "lon": 20.2433042, "tags": {"addr:housenumber": "384", "addr:street": "Beteja e Koshar\u00ebs", "amenity": "restaurant"}}, {"type": "node", "id": 9895082880, "lat": 42.5797555, "lon": 20.2011505, "tags": {"amenity": "restaurant", "name": "Belle Resort"}}, {"type": "node", "id": 9917376225, "lat": 42.5689028, "lon": 19.8345933}, {"type": "node", "id": 9917376226, "lat": 42.5689926, "lon": 19.8346462}, {"type": "node", "id": 9917376227, "lat": 42.5689305, "lon": 19.8348566}, {"type": "node", "id": 9917376228, "lat": 42.5688369, "lon": 19.8348007}, {"type": "node", "id": 9938614358, "lat": 42.3969184, "lon": 19.7726272}, {"type": "node", "id": 9938614361, "lat": 42.3969614, "lon": 19.7725816}, {"type": "node", "id": 9938614362, "lat": 42.3969945, "lon": 19.772639}, {"type": "node", "id": 9938614363, "lat": 42.3969515, "lon": 19.7726845}, {"type": "node", "id": 9938614389, "lat": 42.4021359, "lon": 19.7703323}, {"type": "node", "id": 9938614390, "lat": 42.4020878, "lon": 19.7703501}, {"type": "node", "id": 9938614391, "lat": 42.4021108, "lon": 19.7704637}, {"type": "node", "id": 9938614392, "lat": 42.4021588, "lon": 19.7704459}, {"type": "node", "id": 9961809949, "lat": 42.3849069, "lon": 19.7831128, "tags": {"amenity": "restaurant", "name": "Bar restorant Preka"}}, {"type": "node", "id": 9986478940, "lat": 42.6021346, "lon": 19.9867602, "tags": {"amenity": "restaurant", "cuisine": "regional", "name": "Katun Kamp Gradine"}}, {"type": "node", "id": 9989286378, "lat": 42.3969572, "lon": 19.7727205}, {"type": "node", "id": 9989286379, "lat": 42.3966843, "lon": 19.7727647}, {"type": "node", "id": 9990615469, "lat": 42.4077687, "lon": 20.2321903}, {"type": "node", "id": 9990615470, "lat": 42.4077709, "lon": 20.2322451}, {"type": "node", "id": 9999332685, "lat": 42.4008483, "lon": 20.1930696, "tags": {"amenity": "cafe", "name": "\u00c7elaku"}}, {"type": "node", "id": 10048148396, "lat": 42.3551039, "lon": 19.7662617}, {"type": "node", "id": 10048148397, "lat": 42.3550381, "lon": 19.7663021}, {"type": "node", "id": 10048148398, "lat": 42.3550237, "lon": 19.7662591}, {"type": "node", "id": 10048148399, "lat": 42.3550895, "lon": 19.7662186}, {"type": "node", "id": 10201933351, "lat": 42.6606261, "lon": 20.2543812}, {"type": "node", "id": 10201933352, "lat": 42.660585, "lon": 20.254427}, {"type": "node", "id": 10201933353, "lat": 42.6606349, "lon": 20.2545099}, {"type": "node", "id": 10201933354, "lat": 42.660676, "lon": 20.2544641}, {"type": "node", "id": 10231503363, "lat": 42.3548375, "lon": 19.7663449, "tags": {"addr:country": "AL", "amenity": "cafe", "delivery": "no", "name": "Bar Restorant Samueli", "outdoor_seating": "yes", "takeaway": "yes", "toilets": "yes", "wheelchair": "no"}}, {"type": "node", "id": 10876061305, "lat": 42.3896614, "lon": 20.1036909, "tags": {"amenity": "restaurant", "cuisine": "regional"}}, {"type": "node", "id": 10917490268, "lat": 42.7316986, "lon": 20.0954916, "tags": {"addr:city": "Kosutan", "addr:postcode": "30000", "addr:street": "Gjek Stanishta", "air_conditioning": "yes", "amenity": "restaurant", "check_date": "2023-05-22", "cuisine": "local;traditional;steak_house;pizza;coffee_shop", "diet:halal": "yes", "diet:meat": "yes", "diet:vegetarian": "yes", "internet_access": "yes", "internet_access:fee": "no", "name": "Eagle Ranch", "opening_hours": "Mo-Su 08:00-23:00", "outdoor_seating": "yes", "payment:cash": "yes", "phone": "+383 49 400 604", "takeaway": "yes", "toilets": "yes", "website": "https://www.facebook.com/eagleranchkoshutanrugove"}}, {"type": "node", "id": 10961795205, "lat": 42.6626156, "lon": 20.3032786, "tags": {"addr:postcode": "30000", "addr:street": "Papa Klimenti XI", "amenity": "restaurant", "internet_access": "wlan", "name:fr": "Restaurant Toni", "phone": "+383 49 666 740"}}, {"type": "node", "id": 10989129305, "lat": 42.4158611, "lon": 19.7572107, "tags": {"addr:postcode": "4001", "addr:street": "Rruga Okol", "amenity": "cafe", "cuisine": "balkan;cake;coffee_shop;local;tea;regional;pasta", "diet:vegetarian": "yes", "internet_access": "wlan", "name": "Okoli Bar Caf\u00e9 & Snacks", "name:en": "Okoli Bar Caf\u00e9 & Snacks", "opening_hours": "Su,Tu-Sa,Mo 06:00-23:00", "outdoor_seating": "yes", "parking": "yes", "phone": "+355684059290", "smoking": "outside", "wheelchair": "limited"}}, {"type": "node", "id": 11003232590, "lat": 42.4458018, "lon": 19.886103}, {"type": "node", "id": 11003232591, "lat": 42.4458137, "lon": 19.8860545}, {"type": "node", "id": 11003232592, "lat": 42.4457767, "lon": 19.8860378}, {"type": "node", "id": 11003232593, "lat": 42.4457996, "lon": 19.8859449}, {"type": "node", "id": 11003232594, "lat": 42.4457142, "lon": 19.8859064}, {"type": "node", "id": 11003232595, "lat": 42.4456795, "lon": 19.8860477}, {"type": "node", "id": 11005932716, "lat": 42.3578298, "lon": 20.0735823, "tags": {"amenity": "cafe", "check_date": "2023-06-25", "name": "Cafe Ori", "wheelchair": "yes"}}, {"type": "node", "id": 11006025277, "lat": 42.3860203, "lon": 19.7820358, "tags": {"amenity": "restaurant", "indoor_seating": "yes", "internet_access": "yes", "internet_access:fee": "no", "name": "Shpella Garden", "outdoor_seating": "yes"}}, {"type": "node", "id": 11018292106, "lat": 42.4354623, "lon": 19.9833865, "tags": {"addr:street": "Rruga Azem Hajdari", "amenity": "restaurant", "cuisine": "balkan;fish;grill;local;pizza;regional", "name": "Dragobia", "opening_hours": "Mo-Su 07:00-23:00", "phone": "068 373 6672", "website": "https://maps.app.goo.gl/EeS7qRv8toNsB1gPA"}}, {"type": "node", "id": 11125505331, "lat": 42.5982222, "lon": 19.9398576, "tags": {"amenity": "restaurant", "name": "Racina Restoran"}}, {"type": "node", "id": 11146801805, "lat": 42.6001521, "lon": 19.9371856, "tags": {"amenity": "restaurant", "name:en": "Restoran/Motel \"Djerdan\"", "name:ru": "\u0420\u0435\u0441\u0442\u043e\u0440\u0430\u043d"}}, {"type": "node", "id": 11174312537, "lat": 42.6601431, "lon": 20.2840884, "tags": {"addr:street": "Elena Gjika", "amenity": "cafe", "cuisine": "coffee_shop", "internet_access": "wlan", "name": "Zade Lounge Bar", "opening_hours": "Su-Sa 07:00-00:00", "phone": "045 630 630", "website": "http://zadeloungebar.com"}}, {"type": "node", "id": 11174902710, "lat": 42.4102678, "lon": 19.822773, "tags": {"amenity": "cafe"}}, {"type": "node", "id": 11174942944, "lat": 42.5994271, "lon": 19.9374639, "tags": {"amenity": "cafe", "name": "Misk"}}, {"type": "node", "id": 11183227865, "lat": 42.4524506, "lon": 19.8925283, "tags": {"amenity": "restaurant", "cuisine": "albanian;regional", "level": "0", "name": "Tradita"}}, {"type": "node", "id": 11186055537, "lat": 42.4523149, "lon": 19.890534, "tags": {"amenity": "cafe", "name": "Centre Park Valbona"}}, {"type": "node", "id": 11186311606, "lat": 42.4531204, "lon": 19.8934328, "tags": {"amenity": "restaurant", "cuisine": "italian;albania;regional", "level": "0", "name": "Breezy", "outdoor_seating": "yes"}}, {"type": "node", "id": 11188703437, "lat": 42.4455517, "lon": 19.8855774, "tags": {"amenity": "cafe"}}, {"type": "node", "id": 11190653861, "lat": 42.3843789, "lon": 19.7843061, "tags": {"amenity": "cafe"}}, {"type": "node", "id": 11192941502, "lat": 42.385511, "lon": 19.7826038, "tags": {"amenity": "cafe", "name": "Familjare", "outdoor_seating": "yes"}}, {"type": "node", "id": 11300452389, "lat": 42.4116514, "lon": 19.8381723, "tags": {"amenity": "cafe", "name": "Kafe Lindi"}}, {"type": "node", "id": 11332910343, "lat": 42.4079635, "lon": 20.0279099, "tags": {"amenity": "cafe"}}, {"type": "node", "id": 11332962761, "lat": 42.4101281, "lon": 19.8374087, "tags": {"addr:street": "Route \"Valbone - Theth\"", "amenity": "cafe", "name": "Leka"}}, {"type": "node", "id": 11332994169, "lat": 42.4101756, "lon": 19.8396912, "tags": {"amenity": "cafe"}}, {"type": "node", "id": 11364409637, "lat": 42.6589133, "lon": 20.287459, "tags": {"addr:city": "Pej\u00eb", "addr:postcode": "30000", "addr:street": "Mbret\u00ebresha Teut\u00eb", "amenity": "restaurant", "cuisine": "pizza;burger;italian;sandwich", "name": "coki`s", "phone": "+38349463003"}}, {"type": "node", "id": 11451656671, "lat": 42.581178, "lon": 20.2342131, "tags": {"addr:city": "Maja Strellcit", "addr:postcode": "51000", "addr:street": "Sadri Xhem\u00eb Hajrizaj", "amenity": "restaurant", "cuisine": "regional;pizza;steak_house;international;salad", "name": "Restaurant Maja e Strellcit", "opening_hours": "Mo-Su 08:00-22:00", "phone": "+38349914100"}}, {"type": "node", "id": 11508586236, "lat": 42.6838559, "lon": 20.3221617, "tags": {"amenity": "restaurant", "name": "AROSA PALACE"}}, {"type": "node", "id": 11508586237, "lat": 42.6831231, "lon": 20.3204884, "tags": {"amenity": "cafe", "name": "Hazall Coffee House"}}, {"type": "node", "id": 11508615452, "lat": 42.6818838, "lon": 20.3181013, "tags": {"amenity": "cafe", "name": "Cafe Bar N\u2019rreth"}}, {"type": "node", "id": 11508654679, "lat": 42.6810959, "lon": 20.3156433, "tags": {"amenity": "restaurant", "name": "Restaurant Camaj"}}, {"type": "node", "id": 11518722079, "lat": 42.6744704, "lon": 20.3114081, "tags": {"amenity": "cafe", "name": "Caffee Hugo"}}, {"type": "node", "id": 11704530369, "lat": 42.6616254, "lon": 20.292364, "tags": {"amenity": "restaurant", "name:de": "GARD\u00c9 Restaurant"}}, {"type": "node", "id": 11805129413, "lat": 42.4016484, "lon": 19.7834522, "tags": {"amenity": "cafe", "description": "Cold Softdrinks, Coffee, Raki", "name": "Bar Kafe"}}, {"type": "node", "id": 11862374969, "lat": 42.4754433, "lon": 20.2681018, "tags": {"amenity": "restaurant", "cuisine": "balkan;barbecue;italian_pizza", "internet_access": "wlan", "name": "Moronica"}}, {"type": "node", "id": 11896582969, "lat": 42.6614151, "lon": 20.2826367, "tags": {"amenity": "restaurant", "cuisine": "pizza", "name": "Carthago", "name:en": "Carthago Restaurant&Pizzeria"}}, {"type": "node", "id": 11896583069, "lat": 42.6610769, "lon": 20.2820312, "tags": {"amenity": "cafe", "name": "Sahat Kulla"}}, {"type": "node", "id": 11919857669, "lat": 42.4316101, "lon": 20.2447093, "tags": {"amenity": "restaurant", "name": "Restaurant Fetahaj  potok"}}, {"type": "node", "id": 11919857670, "lat": 42.4316779, "lon": 20.2448175, "tags": {"amenity": "restaurant", "name": "Fetahaj     potok"}}, {"type": "node", "id": 11982896269, "lat": 42.6601286, "lon": 20.2861818, "tags": {"addr:postcode": "30000", "addr:street": "Xhevat Begolli", "amenity": "restaurant", "cuisine": "burger;sandwich", "internet_access": "wlan", "name": "Daja Burger", "opening_hours": "Su 09:00-20:00", "phone": "+38349573030"}}, {"type": "node", "id": 12043353788, "lat": 42.6595196, "lon": 20.2857347, "tags": {"addr:city": "Peja", "amenity": "restaurant", "cuisine": "pizza", "name": "Cono"}}, {"type": "node", "id": 12155132750, "lat": 42.4046441, "lon": 19.7623964, "tags": {"amenity": "restaurant", "cuisine": "regional", "opening_hours": "Mo-Su 19:00-21:00"}}, {"type": "node", "id": 12155132751, "lat": 42.4046013, "lon": 19.7624555}, {"type": "node", "id": 12155132752, "lat": 42.4046764, "lon": 19.7624674}, {"type": "node", "id": 12155132753, "lat": 42.4046974, "lon": 19.7623337}, {"type": "node", "id": 12155132754, "lat": 42.4046196, "lon": 19.7623159}, {"type": "node", "id": 12207026201, "lat": 42.3995877, "lon": 19.7707024, "tags": {"amenity": "restaurant", "name": "Autentheth"}}, {"type": "node", "id": 12250464783, "lat": 42.5581229, "lon": 20.1067869, "tags": {"amenity": "restaurant", "contact:facebook": "http://www.facebook.com/gacaferiguesthouse", "email": "albanikgacaferi2@gmail.com", "name": "Gacaferi Guest House", "phone": "+38344513815"}}, {"type": "node", "id": 12281478201, "lat": 42.6609917, "lon": 20.2524946, "tags": {"amenity": "restaurant", "name": "Te Sharra"}}, {"type": "node", "id": 12739156379, "lat": 42.661895, "lon": 20.2891348, "tags": {"amenity": "cafe"}}, {"type": "node", "id": 12914101560, "lat": 42.356845, "lon": 20.0737157, "tags": {"addr:floor": "G", "amenity": "cafe", "check_date": "2025-06-14", "internet_access": "wlan", "internet_access:fee": "customers", "level": "0", "name": "Valbona", "outdoor_seating": "yes", "payment:cash": "yes", "source": "local knowledge", "wheelchair": "limited"}}, {"type": "node", "id": 12914916162, "lat": 42.4033713, "lon": 20.166545, "tags": {"air_conditioning": "no", "amenity": "cafe", "check_date": "2025-06-14", "outdoor_seating": "yes", "payment:cash": "yes", "source": "local knowledge", "toilets": "yes"}}, {"type": "way", "id": 214806486, "nodes": [2242800864, 2242800865, 2242800861, 2242800860, 2242800864], "tags": {"addr:city": "Peje", "addr:postcode": "30000", "addr:street": "Kuqishte", "amenity": "restaurant", "building": "yes", "cuisine": "regional", "name": "Te Liqeni", "opening_hours": "24/7", "phone": "+383 44 135 667, +383 49 135 667, +383 44 348 901", "smoking": "outside", "tourism": "hotel"}}, {"type": "way", "id": 241407365, "nodes": [2490543601, 2490543602, 2490543600, 2490543598, 2490543601], "tags": {"addr:city": "Theth", "addr:country": "AL", "addr:postcode": "4009", "addr:street": "Rruga Nikgjonaj", "amenity": "restaurant", "building": "yes", "cuisine": "regional", "email": "vladimir-ndoja@hotmail.com", "hiking": "yes", "information": "yes", "internet_access": "wlan", "internet_access:fee": "no", "name": "Bar Restaurant Kamping \"Bujtina Zemra e Tradit\u00ebs\"", "opening_hours": "May-Nov", "operator": "Ded Kola", "outdoor_seating": "yes", "parking": "yes", "payment:coins": "yes", "payment:credit_cards": "no", "payment:cryptocurrencies": "no", "payment:debit_cards": "no", "payment:electronic_purses": "no", "payment:notes": "yes", "phone": "+355682445182", "reservation": "recommended", "shower": "yes", "smoking": "outside", "source": "bing;mapbox-satellite;survey;gps;knowledge;local-info", "source_ref:url": "https://www.flickr.com/photos/openstreetmap-albania", "takeaway": "yes", "toilets": "yes", "tourism": "guest_house", "wheelchair": "limited"}}, {"type": "way", "id": 241407381, "nodes": [2490541922, 2490541924, 5022528651, 5022528650, 2490541908, 2490541906, 5022528649, 5022528652, 2490541922], "tags": {"addr:city": "Theth", "addr:country": "AL", "addr:housenumber": "53", "addr:postcode": "4009", "addr:street": "Rruga Fush\u00eb", "amenity": "restaurant", "beds": "36", "building": "yes", "building:levels": "2", "cuisine": "barbecue;regional", "ele": "720", "email": "shpellafamily@gmail.com", "hiking": "yes", "information": "yes", "name": "Bujtina & Restaurant \"Gjon Shpella\"", "name:sq": "Guesthouse Shpella - Bujtina & Restaurant \"Gjon Shpella\"", "opening_hours": "Apr-Nov", "operator": "Gjon Shpella", "outdoor_seating": "yes", "parking": "yes", "payment:coins": "yes", "payment:credit_cards": "no", "payment:cryptocurrencies": "no", "payment:debit_cards": "no", "payment:electronic_purses": "no", "payment:notes": "yes", "phone": "+355693774851", "reservation": "recommended", "rooms": "13", "shower": "yes", "smoking": "outside", "source": "bing;mapbox-satellite;survey;gps;knowledge;local-info", "source_ref:url": "https://www.flickr.com/photos/openstreetmap-albania", "takeaway": "yes", "toilets": "yes", "tourism": "guest_house", "wheelchair": "limited"}}, {"type": "way", "id": 241407417, "nodes": [2490542634, 2490542638, 2490542629, 2490542623, 2490542634], "tags": {"addr:city": "Theth", "addr:country": "AL", "addr:postcode": "4009", "addr:street": "Rruga Fush\u00eb", "amenity": "restaurant", "beds": "12", "building": "yes", "building:levels": "2", "cuisine": "regional", "delivery": "no", "description": "Restaurant only for the guests!", "diet:vegan": "no", "diet:vegetarian": "yes", "ele": "720", "email": "gurraqendertheth@yahoo.com", "information": "yes", "internet_access": "wlan", "internet_access:fee": "no", "name": "Bujtine - Restaurant \"Gurra\"", "opening_hours": "May-Nov", "operator": "Blerim Gurra", "outdoor_seating": "yes", "parking": "yes", "payment:coins": "yes", "payment:credit_cards": "no", "payment:cryptocurrencies": "no", "payment:debit_cards": "no", "payment:electronic_purses": "no", "payment:notes": "yes", "phone": "+355672931302", "reservation": "recommended", "roof:shape": "gabled", "rooms": "3", "shower": "yes", "smoking": "outside", "source": "bing;mapbox-satellite;survey;gps;knowledge;local-info", "source_ref:url": "https://www.flickr.com/photos/openstreetmap-albania", "takeaway": "yes", "tourism": "guest_house", "wheelchair": "limited"}}, {"type": "way", "id": 241407452, "nodes": [2490543572, 2490543574, 2490543571, 2490543569, 2490543572], "tags": {"addr:city": "Theth", "addr:country": "AL", "addr:postcode": "4009", "addr:street": "Rruga Nikgjonaj", "amenity": "cafe", "building": "yes", "delivery": "no", "hiking": "yes", "information": "yes", "internet_access": "no", "internet_access:fee": "no", "name": "Malesorja", "opening_hours": "May-Nov", "operator": "Gjergj Gjoni", "outdoor_seating": "yes", "parking": "yes", "payment:coins": "yes", "payment:credit_cards": "no", "payment:cryptocurrencies": "no", "payment:debit_cards": "no", "payment:electronic_purses": "no", "payment:notes": "yes", "phone": "+355683815853", "smoking": "outside", "source": "bing;mapbox-satellite;survey;gps;knowledge;local-info", "source_ref:url": "https://www.flickr.com/photos/openstreetmap-albania", "takeaway": "yes", "toilets": "yes", "wheelchair": "no"}}, {"type": "way", "id": 241407454, "nodes": [2490542645, 2490542639, 2490542633, 2490542640, 2490542645], "tags": {"addr:city": "Theth", "addr:country": "AL", "addr:postcode": "4009", "amenity": "restaurant", "building": "yes", "hiking": "yes", "information": "yes", "name:signed": "no", "opening_hours": "May-Nov", "outdoor_seating": "yes", "parking": "yes", "payment:coins": "yes", "payment:credit_cards": "no", "payment:cryptocurrencies": "no", "payment:debit_cards": "no", "payment:electronic_purses": "no", "payment:notes": "yes", "reservation": "recommended", "shower": "yes", "smoking": "outside", "source": "bing;mapbox-satellite;survey;gps;knowledge;local-info", "source_ref:url": "https://www.flickr.com/photos/openstreetmap-albania", "takeaway": "yes", "toilets": "yes", "wheelchair": "limited"}}, {"type": "way", "id": 241407459, "nodes": [2490541119, 2490541113, 2490541114, 2490541121, 2490541119], "tags": {"addr:city": "Theth", "addr:country": "AL", "addr:housenumber": "14", "addr:postcode": "4009", "addr:street": "Rruga Nderlyse", "amenity": "restaurant", "beds": "36", "building": "yes", "cuisine": "barbecue;regional", "ele": "450", "email": "prekbjeshka@yahoo.com", "hiking": "yes", "information": "yes", "name": "Bujtina & Restaurant \"Prek Bjeshka\"", "operator": "Prek Bjeshka", "outdoor_seating": "yes", "parking": "yes", "payment:coins": "yes", "payment:credit_cards": "no", "payment:cryptocurrencies": "no", "payment:debit_cards": "no", "payment:electronic_purses": "no", "payment:notes": "yes", "phone": "+355685690845", "reservation": "recommended", "rooms": "10", "shower": "yes", "smoking": "outside", "source": "bing;mapbox-satellite;survey;gps;knowledge;local-info", "source_ref:url": "https://www.flickr.com/photos/openstreetmap-albania", "takeaway": "yes", "toilets": "yes", "tourism": "alpine_hut", "wheelchair": "limited"}}, {"type": "way", "id": 241796987, "nodes": [2493867279, 2493867278, 2493867277, 3418396196, 3418396197, 2493867283, 2493867289, 2493867294, 2493867293, 2493867288, 2493867279], "tags": {"amenity": "restaurant", "building": "yes", "cuisine": "fish_and_chips", "internet_access": "wlan", "name": "Restaurant Trofta e Drinit"}}, {"type": "way", "id": 370825125, "nodes": [3745098224, 3745098230, 3745098249, 3745098241, 3745098224], "tags": {"addr:city": "Andrijevica", "addr:postcode": "84320", "addr:street": "Branka Deleti\u0107a bb", "amenity": "cafe", "building": "yes", "name": "Caffe bar IN"}}, {"type": "way", "id": 370825166, "nodes": [3745098046, 3745098057, 3745098067, 3745098055, 3745098046], "tags": {"addr:city": "Andrijevica", "addr:postcode": "84320", "addr:street": "Branka Deletica bb", "amenity": "cafe", "building": "yes", "name": "Caffe bar \"San\""}}, {"type": "way", "id": 370825188, "nodes": [3745098090, 3745098118, 3745098129, 3745098101, 3745098090], "tags": {"addr:city": "Andrijevica", "addr:postcode": "84320", "addr:street": "Branka Deletica bb", "amenity": "cafe", "building": "yes", "name": "Cafffe bar El Dorado"}}, {"type": "way", "id": 393238145, "nodes": [3964521223, 3964521224, 3964521225, 3964521226, 3964521223], "tags": {"addr:city": "Vermosh", "amenity": "cafe", "building": "yes", "internet_access": "wlan", "name": "Cafe Hotel Natyra"}}, {"type": "way", "id": 421832284, "nodes": [4215670012, 4215670013, 4215670015, 4215670014, 4215670012], "tags": {"addr:city": "Peje", "addr:postcode": "30000", "addr:street": "Boge", "amenity": "restaurant", "capacity": "80", "cuisine": "regional,_flija", "name": "Bregu", "opening_hours": "08:00-23:00", "phone": "+38344 327 226", "smoking": "outside"}}, {"type": "way", "id": 422475349, "nodes": [4222271102, 9990615469, 9990615470, 4222271103, 4222271104, 4222271105, 4222271102], "tags": {"amenity": "restaurant", "building": "yes"}}, {"type": "way", "id": 430970606, "nodes": [4302234632, 4302234633, 4302234634, 4302234635, 4302234636, 4302234637, 4302234632], "tags": {"addr:city": "Pej\u00eb", "addr:postcode": "30000", "addr:street": "Luigj Gurakuqi", "amenity": "restaurant", "building": "yes", "name": "Shtepia Alpike Ranch"}}, {"type": "way", "id": 487985704, "nodes": [4803644360, 2789403417, 4803644361, 4803644362, 3842626633, 3842626634, 4803644360], "tags": {"amenity": "restaurant", "building": "yes", "name": "Dukagjini"}}, {"type": "way", "id": 510869560, "nodes": [4998617352, 4998617353, 4998617354, 4998617355, 4998617356, 4998617357, 4998617352], "tags": {"addr:city": "Hulaj", "addr:postcode": "51000", "addr:street": "Bjeshk\u00ebt e De\u00e7anit", "air_conditioning": "yes", "amenity": "restaurant", "bar": "yes", "building": "yes", "cuisine": "pizza;local;steak_house;seafood", "diet:halal": "yes", "diet:vegetarian": "yes", "internet_access": "yes", "internet_access:fee": "no", "name": "Restaurant ERMALI", "opening_hours": "Mo-Su 08:00-23:00", "outdoor_seating": "yes", "payment:cash": "yes", "phone": "+383 48 125 154", "wheelchair": "yes"}}, {"type": "way", "id": 512229750, "nodes": [5008932607, 5008932606, 9163063073, 5008932605, 5008932604, 5008932607], "tags": {"addr:city": "Theth", "addr:country": "AL", "addr:postcode": "4009", "amenity": "restaurant", "barrier": "fence", "check_date": "2024-06-18", "cuisine": "barbecue;regional", "fence_type": "wire", "information": "yes", "name": "Restorant \"Zorgji\"", "opening_hours": "May-Nov", "operator": "Lin Zorgji", "outdoor_seating": "yes", "parking": "yes", "payment:coins": "yes", "payment:credit_cards": "no", "payment:cryptocurrencies": "no", "payment:debit_cards": "no", "payment:electronic_purses": "no", "payment:notes": "yes", "phone": "+355 68 231 9610", "reservation": "recommended", "smoking": "outside", "source": "bing;mapbox-satellite;survey;gps;knowledge;local-info", "source_ref:url": "https://www.flickr.com/photos/openstreetmap-albania", "takeaway": "yes", "tents": "yes", "tourism": "guest_house", "wheelchair": "limited"}}, {"type": "way", "id": 512229834, "nodes": [5008934002, 5008934001, 5008934000, 5008933999, 5008934002], "tags": {"amenity": "cafe", "building": "yes", "delivery": "no", "internet_access": "wlan", "internet_access:fee": "no", "name": "Bar Kafe", "smoking": "outside", "takeaway": "yes", "wheelchair": "no"}}, {"type": "way", "id": 610150774, "nodes": [5778759267, 5778759266, 5778759265, 5778759264, 5778759263, 5778759262, 5778759261, 5778759260, 5778759259, 5778759258, 5778759257, 5778759256, 5778759255, 5778759254, 5778759253, 5778759252, 5778759251, 5778759250, 5778759249, 5778759248, 5778759247, 5778759246, 5778759245, 5778759244, 5778759243, 5778759242, 5778759241, 5778759240, 5778759239, 5778759238, 5778759237, 5778759236, 5778759235, 5778759234, 5778759233, 5778759232, 5778759231, 5778759230, 5778759229, 5778759228, 5778759227, 5778759226, 5778759225, 5778759224, 5778759223, 5778759222, 5778759221, 5778759220, 5778759219, 5778759218, 5778759217, 5778759216, 5778759215, 5778759214, 5778759206, 5778759213, 5778759212, 5778759211, 5778759210, 5778759209, 5778759208, 5778759207, 5778759267], "tags": {"amenity": "restaurant", "cuisine": "regional", "delivery": "no", "internet_access": "wlan", "internet_access:fee": "no", "name": "Relax", "outdoor_seating": "yes", "smoking": "outside", "takeaway": "no", "tourism": "hotel", "wheelchair": "no"}}, {"type": "way", "id": 626583367, "nodes": [5915398509, 5915398510, 5915398511, 5915398512, 5915398509], "tags": {"amenity": "restaurant", "building": "yes"}}, {"type": "way", "id": 626583369, "nodes": [5915398513, 5915398514, 5915398515, 5915398516, 5915398513], "tags": {"addr:postcode": "84325", "addr:street": "Zioci", "amenity": "restaurant", "building": "yes", "cuisine": "international", "internet_access": "wlan", "name": "Abas", "name:en": "Hotel & Restaurant Abas", "opening_hours": "Mo-Su 07:00-23:00", "phone": "+382 69 611 503", "website": "http://www.restaurant-abas.me"}}, {"type": "way", "id": 628126901, "nodes": [5929889108, 5929889109, 5929889105, 5929889104, 5929889103, 5929889102, 5929889108], "tags": {"addr:city": "Pej\u00eb", "addr:postcode": "30000", "addr:street": "Mbret\u00ebresha Teut\u00eb", "amenity": "restaurant", "building": "yes", "cuisine": "pizza;burger;sandwich", "name": "coki`s", "opening_hours": "Mo-Sa 08:00-24:00", "phone": "+38349522500", "source": "Bing"}}, {"type": "way", "id": 653361895, "nodes": [6123279478, 6123279477, 6123279476, 6123279475, 6123279478], "tags": {"amenity": "restaurant", "building": "yes", "name": "Panama"}}, {"type": "way", "id": 653381112, "nodes": [6123462919, 9008574320, 6123462918, 8772698257, 8772698256, 8772698258, 4687105269, 8772698255, 6123462919], "tags": {"addr:city": "Peje", "addr:postcode": "30000", "addr:street": "Hasan Prishtina", "amenity": "restaurant", "email": "incognito.terazza@gmail.com", "name": "Incognito", "opening_hours": "Mo-Su 07:00-23:00", "outdoor_seating": "yes", "phone": "+38349979897"}}, {"type": "way", "id": 799107160, "nodes": [7473528881, 7473528882, 7473528883, 7473528884, 7473566485, 7473528881], "tags": {"addr:city": "Pej\u00eb", "addr:postcode": "30000", "addr:street": "Beteja e Koshar\u00ebs", "amenity": "restaurant", "building": "yes", "cuisine": "pizza", "name": "Pizza Ahmeti"}}, {"type": "way", "id": 818316263, "nodes": [7642460225, 7642460224, 9989286379, 7642460223, 9989286378, 7642460222, 7642460225], "tags": {"amenity": "restaurant", "bar": "yes", "indoor_seating": "yes", "internet_access": "wlan", "internet_access:fee": "no", "name": "Restaurant Jezerca", "outdoor_seating": "yes", "wheelchair": "yes"}}, {"type": "way", "id": 818316267, "nodes": [7642460238, 7642460237, 7642460236, 7642460235, 7642460238], "tags": {"amenity": "cafe", "building": "yes", "delivery": "no", "internet_access": "no", "name": "Bar Kafe", "outdoor_seating": "yes", "smoking": "yes", "takeaway": "no", "wheelchair": "no"}}, {"type": "way", "id": 892455521, "nodes": [8294788174, 8294788171, 8294788172, 8294788173, 8294788174], "tags": {"amenity": "restaurant", "building": "yes", "name": "Vendlindja e Mamit", "note": "Vendlindja e Mamit", "source": "bing"}}, {"type": "way", "id": 1082122820, "nodes": [9917376225, 9917376226, 9917376227, 9917376228, 9917376225], "tags": {"amenity": "restaurant", "building": "yes", "name": "Napolis"}}, {"type": "way", "id": 1084564428, "nodes": [9938614361, 9938614362, 9938614363, 9938614358, 9938614361], "tags": {"amenity": "restaurant", "building": "yes", "cuisine": "pizza", "indoor_seating": "yes", "name": "Pizza", "outdoor_seating": "yes", "payment:cash": "yes", "payment:credit_cards": "yes", "payment:debit_cards": "yes"}}, {"type": "way", "id": 1084564433, "nodes": [9938614389, 9938614390, 9938614391, 9938614392, 9938614389], "tags": {"amenity": "cafe", "building": "yes"}}, {"type": "way", "id": 1097376197, "nodes": [10048148399, 10048148398, 10048148397, 10048148396, 10048148399], "tags": {"amenity": "cafe", "building": "yes", "name": "Samueli", "outdoor_seating": "yes"}}, {"type": "way", "id": 1115503197, "nodes": [10201933351, 10201933352, 10201933353, 10201933354, 10201933351], "tags": {"amenity": "cafe", "building": "yes"}}, {"type": "way", "id": 1184655001, "nodes": [11003232590, 11003232591, 11003232592, 11003232593, 11003232594, 11003232595, 11003232590], "tags": {"addr:city": "Valbone", "addr:street": "Rruga Azem Hajdari", "amenity": "restaurant", "building": "yes", "cuisine": "regional", "name": "Bujtina Izet Selimaj", "note": "Not yet visible in images"}}, {"type": "way", "id": 1313202943, "nodes": [12155132751, 12155132752, 12155132753, 12155132754, 12155132751], "tags": {"amenity": "restaurant", "building": "yes", "cuisine": "regional", "opening_hours": "Mo-Su 19:00 - 21:00"}}]}