{"version": 0.6, "generator": "Overpass API 0.7.62.7 375dc00a", "osm3s": {"timestamp_osm_base": "2025-06-14T14:43:30Z", "copyright": "The data included in this document is from www.openstreetmap.org. The data is made available under ODbL."}, "elements": [{"type": "node", "id": 901120397, "lat": 39.1721399, "lon": 23.3424235, "tags": {"amenity": "cafe", "internet_access": "wlan", "name": "Cafe avra ", "website": "https://www.studiosavra.com/"}}, {"type": "node", "id": 901120401, "lat": 39.1723493, "lon": 23.3425282, "tags": {"amenity": "restaurant", "name:de": "Stamoulis Restaurant", "name:en": "Stamoulis Restaurant"}}, {"type": "node", "id": 1784500424, "lat": 39.1473737, "lon": 23.464181}, {"type": "node", "id": 1854602147, "lat": 38.7639984, "lon": 23.3178408}, {"type": "node", "id": 1854602148, "lat": 38.7640021, "lon": 23.3183107}, {"type": "node", "id": 1854602154, "lat": 38.7640652, "lon": 23.3168762}, {"type": "node", "id": 1854602156, "lat": 38.7641381, "lon": 23.3186998}, {"type": "node", "id": 1860918421, "lat": 38.7640041, "lon": 23.3170658}, {"type": "node", "id": 1860918449, "lat": 38.7640629, "lon": 23.3185457}, {"type": "node", "id": 1860918451, "lat": 38.7640622, "lon": 23.3186992}, {"type": "node", "id": 2409176427, "lat": 38.9845563, "lon": 23.3703366, "tags": {"amenity": "restaurant", "bar": "no", "brewery": "yes", "check_date": "2023-07-22", "cuisine": "regional", "delivery": "no", "diet:meat": "yes", "highchair": "no", "internet_access": "wlan", "internet_access:fee": "customers", "microbrewery": "no", "name": "\u03a4\u03b1\u03b2\u03ad\u03c1\u03bd\u03b1- \u03a8\u03b7\u03c3\u03c4\u03b1\u03c1\u03b9\u03ac \u039f \u03a4\u03ac\u03c3\u03bf\u03c2", "outdoor_seating": "yes", "payment:cash": "yes", "payment:credit_cards": "yes", "payment:mastercard": "yes", "payment:visa": "yes", "reservation": "yes", "smoking": "separated", "source": "local knowledge", "takeaway": "yes", "toilets": "yes", "toilets:wheelchair": "limited", "wheelchair": "yes"}}, {"type": "node", "id": 2409801657, "lat": 38.982785, "lon": 23.3706973, "tags": {"air_conditioning": "no", "amenity": "cafe", "bar": "yes", "check_date": "2023-07-22", "cuisine": "coffee_shop;sandwich;salad", "delivery": "no", "drive_through": "no", "highchair": "yes", "internet_access": "wlan", "internet_access:fee": "customers", "name": "bo4", "outdoor_seating": "yes", "payment:cash": "yes", "payment:credit_cards": "yes", "payment:mastercard": "yes", "payment:visa": "yes", "phone": "+302226043151", "smoking": "separated", "source": "local knowledge", "source:amenity": "survey", "takeaway": "yes", "toilets": "yes", "website": "https://www.served.gr/stores/bo4/"}}, {"type": "node", "id": 2412167594, "lat": 38.8731127, "lon": 23.2937311, "tags": {"amenity": "cafe"}}, {"type": "node", "id": 2412167595, "lat": 38.8731127, "lon": 23.2937729, "tags": {"amenity": "restaurant", "cuisine": "greek"}}, {"type": "node", "id": 2417968669, "lat": 38.9647404, "lon": 23.3809505, "tags": {"amenity": "cafe", "name": "\u0386\u03b3\u03ba\u03c5\u03c1\u03b1"}}, {"type": "node", "id": 2417968672, "lat": 38.9697355, "lon": 23.3766925, "tags": {"amenity": "restaurant", "cuisine": "greek", "name": "\u039f \u0397\u03bb\u03af\u03b1\u03c2"}}, {"type": "node", "id": 2417968673, "lat": 38.9690965, "lon": 23.3771334, "tags": {"amenity": "restaurant", "cuisine": "greek", "name": "\u03a6\u03c1\u03ad\u03c3\u03ba\u03bf \u03a8\u03ac\u03c1\u03b9"}}, {"type": "node", "id": 2420899787, "lat": 38.9847056, "lon": 23.3704042, "tags": {"amenity": "restaurant", "bar": "no", "brewery": "yes", "check_date": "2023-07-22", "cuisine": "pizza", "delivery": "no", "highchair": "no", "microbrewery": "no", "name": "\u0399\u03c0\u03c0\u03cc\u03ba\u03b1\u03bc\u03c0\u03bf\u03c2", "outdoor_seating": "yes", "payment:cash": "yes", "payment:credit_cards": "yes", "payment:mastercard": "yes", "payment:visa": "yes", "smoking": "separated", "source": "local knowledge", "takeaway": "yes"}}, {"type": "node", "id": 2420899788, "lat": 38.9825878, "lon": 23.3706694, "tags": {"addr:city": "\u03a8\u03b1\u03c1\u03bf\u03c0\u03bf\u03cd\u03bb\u03b9", "addr:postcode": "34200", "amenity": "restaurant", "mobile": "+306970523806", "name": "\u03a8\u03b7\u03c3\u03c4\u03b1\u03c1\u03b9\u03ac \"\u03bf \u0393\u03b9\u03cc\u03bc\u03c0\u03bf\u03c2\""}}, {"type": "node", "id": 2420899790, "lat": 38.9832446, "lon": 23.3705606, "tags": {"addr:city": "\u03a8\u03b1\u03c1\u03bf\u03c0\u03bf\u03cd\u03bb\u03b9", "addr:postcode": "34200", "amenity": "restaurant", "cuisine": "greek;fish;seafood", "mobile": "+306973281029", "name": "\u039f \u03c8\u03b1\u03c1\u03ac\u03c2"}}, {"type": "node", "id": 2420899791, "lat": 38.9833645, "lon": 23.3705271, "tags": {"addr:city": "\u03a8\u03b1\u03c1\u03bf\u03c0\u03bf\u03cd\u03bb\u03b9", "addr:postcode": "34200", "amenity": "restaurant", "cuisine": "greek", "name": "\u03a4\u03b1\u03b2\u03ad\u03c1\u03bd\u03b1 \u03a4\u03bf \u039c\u03b1\u03c1\u03b9\u03b3\u03bf\u03c5\u03bb\u03b9"}}, {"type": "node", "id": 2420899792, "lat": 38.9835878, "lon": 23.3704335, "tags": {"air_conditioning": "no", "amenity": "restaurant", "bar": "no", "brewery": "no", "check_date": "2023-07-22", "cuisine": "greek;fish;seafood", "delivery": "no", "highchair": "no", "microbrewery": "no", "name": "\u039f \u0398\u03b1\u03bb\u03b1\u03c3\u03c3\u03b9\u03bd\u03cc\u03c2", "outdoor_seating": "yes", "payment:cash": "yes", "payment:credit_cards": "yes", "payment:mastercard": "yes", "payment:visa": "yes", "smoking": "separated", "source": "local knowledge", "toilets": "yes"}}, {"type": "node", "id": 2420899793, "lat": 38.9836395, "lon": 23.3704264, "tags": {"air_conditioning": "no", "amenity": "cafe", "bar": "yes", "check_date": "2023-07-22", "delivery": "no", "name": "\u0391\u03b9\u03b3\u03b1\u03af\u03b1\u03c2", "outdoor_seating": "yes", "payment:cash": "yes", "payment:credit_cards": "yes", "payment:mastercard": "yes", "payment:visa": "yes", "phone": "6974522300", "smoking": "separated", "source": "local knowledge", "takeaway": "yes", "toilets": "yes"}}, {"type": "node", "id": 2420899796, "lat": 38.9837658, "lon": 23.3704057, "tags": {"amenity": "restaurant", "cuisine": "pizza", "name": "Giovanni's Pizza", "phone": "2226043591"}}, {"type": "node", "id": 2925746519, "lat": 39.0832379, "lon": 23.7114526, "tags": {"amenity": "restaurant", "cuisine": "greek", "name": "\u03a8\u03b1\u03c1\u03bf\u03c4\u03b1\u03b2\u03ad\u03c1\u03bd\u03b1 \u039f \u03a0\u03b1\u03cd\u03bb\u03bf\u03c2"}}, {"type": "node", "id": 2925748475, "lat": 39.0836622, "lon": 23.7115665, "tags": {"amenity": "restaurant", "cuisine": "greek", "name": "\u039f\u03c5\u03b6\u03b5\u03c1\u03af-\u03a8\u03b1\u03c1\u03bf\u03c4\u03b1\u03b2\u03ad\u03c1\u03bd\u03b1 Agnontas"}}, {"type": "node", "id": 2985739573, "lat": 39.1480917, "lon": 23.4423327}, {"type": "node", "id": 2985739574, "lat": 39.1481593, "lon": 23.4422456}, {"type": "node", "id": 2985739575, "lat": 39.1481956, "lon": 23.4424666}, {"type": "node", "id": 2985739576, "lat": 39.1482631, "lon": 23.4423796}, {"type": "node", "id": 2986800829, "lat": 39.1673824, "lon": 23.4029531}, {"type": "node", "id": 2986800830, "lat": 39.1673941, "lon": 23.4028387}, {"type": "node", "id": 2986800832, "lat": 39.1673117, "lon": 23.4029411}, {"type": "node", "id": 2986805833, "lat": 39.1683548, "lon": 23.4988148}, {"type": "node", "id": 2986805834, "lat": 39.1684067, "lon": 23.4990626}, {"type": "node", "id": 2986805835, "lat": 39.1685054, "lon": 23.4991162}, {"type": "node", "id": 2986805836, "lat": 39.1685313, "lon": 23.4990559}, {"type": "node", "id": 2987708011, "lat": 39.1685546, "lon": 23.4990945, "tags": {"amenity": "restaurant", "name": "Milos"}}, {"type": "node", "id": 2987734651, "lat": 39.1517029, "lon": 23.4551678, "tags": {"amenity": "restaurant", "name": "olive land restaurant"}}, {"type": "node", "id": 2989547274, "lat": 39.1531277, "lon": 23.4577526}, {"type": "node", "id": 2989547275, "lat": 39.1532048, "lon": 23.4576697}, {"type": "node", "id": 2989547276, "lat": 39.1532677, "lon": 23.4579693}, {"type": "node", "id": 2989547277, "lat": 39.1533449, "lon": 23.4578864}, {"type": "node", "id": 2989906252, "lat": 39.1366759, "lon": 23.4601737, "tags": {"amenity": "restaurant", "internet_access": "wlan", "internet_access:fee": "no", "name": "Taverna Kanapitsa", "phone": "24270-23508"}}, {"type": "node", "id": 2989906295, "lat": 39.1415185, "lon": 23.4262423}, {"type": "node", "id": 2989906296, "lat": 39.1415568, "lon": 23.4260816}, {"type": "node", "id": 2989906299, "lat": 39.1417323, "lon": 23.4263759}, {"type": "node", "id": 2989906306, "lat": 39.1417994, "lon": 23.4260947}, {"type": "node", "id": 2989909242, "lat": 39.1432447, "lon": 23.4231727}, {"type": "node", "id": 2989909244, "lat": 39.143341, "lon": 23.4233187}, {"type": "node", "id": 2989909245, "lat": 39.143403, "lon": 23.4229991}, {"type": "node", "id": 2989909246, "lat": 39.1434993, "lon": 23.4231452}, {"type": "node", "id": 2989909323, "lat": 39.1723476, "lon": 23.4229546}, {"type": "node", "id": 2989909324, "lat": 39.1723476, "lon": 23.4230796}, {"type": "node", "id": 2989909327, "lat": 39.1724861, "lon": 23.4232686}, {"type": "node", "id": 2989909328, "lat": 39.1725021, "lon": 23.4230796}, {"type": "node", "id": 2989909329, "lat": 39.1725126, "lon": 23.4229546}, {"type": "node", "id": 2989909330, "lat": 39.1725126, "lon": 23.4229558}, {"type": "node", "id": 2989909331, "lat": 39.1726674, "lon": 23.4232942}, {"type": "node", "id": 2989909332, "lat": 39.172694, "lon": 23.4229814}, {"type": "node", "id": 3014615979, "lat": 39.1126727, "lon": 23.6625453}, {"type": "node", "id": 3014615980, "lat": 39.1125447, "lon": 23.6624781}, {"type": "node", "id": 3014615981, "lat": 39.1124947, "lon": 23.6626365}, {"type": "node", "id": 3014615982, "lat": 39.1126226, "lon": 23.6627036}, {"type": "node", "id": 3018955936, "lat": 39.164605, "lon": 23.4917367, "tags": {"addr:city": "\u03a3\u03ba\u03b9\u03ac\u03b8\u03bf\u03c2", "amenity": "restaurant", "capacity": "150", "cuisine": "greek", "name": "\u039c\u03bf\u03c5\u03c1\u03ac\u03b3\u03b9\u03bf"}}, {"type": "node", "id": 3039362151, "lat": 39.1525016, "lon": 23.4060677, "tags": {"amenity": "restaurant", "name": "Big Bad Wolf"}}, {"type": "node", "id": 3062813547, "lat": 39.0865232, "lon": 23.7468843, "tags": {"amenity": "restaurant", "capacity": "50", "cuisine": "regional", "smoking": "yes"}}, {"type": "node", "id": 3062813548, "lat": 39.091848, "lon": 23.7411253, "tags": {"amenity": "restaurant", "cuisine": "regional", "name": "\u03a4\u03ad\u03c1\u03c8\u03b9\u03c2", "smoking": "yes"}}, {"type": "node", "id": 3074781796, "lat": 39.1455602, "lon": 23.4387049}, {"type": "node", "id": 3077891219, "lat": 39.1458094, "lon": 23.4385339}, {"type": "node", "id": 3077891220, "lat": 39.1457065, "lon": 23.4384396}, {"type": "node", "id": 3077891226, "lat": 39.1456631, "lon": 23.4387993}, {"type": "node", "id": 3077897342, "lat": 39.1446871, "lon": 23.4376618}, {"type": "node", "id": 3077897343, "lat": 39.1448032, "lon": 23.4375848}, {"type": "node", "id": 3077897344, "lat": 39.1447527, "lon": 23.437458}, {"type": "node", "id": 3077897345, "lat": 39.1446365, "lon": 23.437535}, {"type": "node", "id": 3647142321, "lat": 39.1608734, "lon": 23.4911761, "tags": {"amenity": "restaurant", "internet_access": "wlan", "name:en": "Bourtzi", "opening_hours": "Mo-Su 08:00-23:00", "phone": "+30 2427 023900"}}, {"type": "node", "id": 3647142323, "lat": 39.1655267, "lon": 23.49103, "tags": {"amenity": "restaurant", "name": "Windmill"}}, {"type": "node", "id": 3720113830, "lat": 38.7673768, "lon": 23.476343, "tags": {"amenity": "restaurant", "name": "\u0391\u03bb\u03b5\u03be\u03af\u03bf\u03c5", "name:el": "\u0391\u03bb\u03b5\u03be\u03af\u03bf\u03c5"}}, {"type": "node", "id": 3778245594, "lat": 39.1531075, "lon": 23.4036143, "tags": {"amenity": "restaurant", "cuisine": "greek", "name": "Captain Michalis"}}, {"type": "node", "id": 3778245595, "lat": 39.1535748, "lon": 23.4022888, "tags": {"amenity": "restaurant", "cuisine": "greek", "internet_access": "wlan", "name": "Under the Pine tree"}}, {"type": "node", "id": 3778245596, "lat": 39.1497537, "lon": 23.3964658, "tags": {"amenity": "restaurant", "cuisine": "greek", "name": "George's Restaurant"}}, {"type": "node", "id": 3833855940, "lat": 38.7346633, "lon": 23.4925956, "tags": {"amenity": "cafe", "name": "\u039f \u039a\u03b1\u03bd\u03c4\u03b7\u03bb\u03b1\u03c2", "outdoor_seating": "yes"}}, {"type": "node", "id": 4021803541, "lat": 39.149016, "lon": 23.4023868, "tags": {"amenity": "restaurant", "cuisine": "italian", "name": "Barracuda", "smoking": "yes"}}, {"type": "node", "id": 4204988991, "lat": 39.1422959, "lon": 23.4457905, "tags": {"amenity": "restaurant", "cuisine": "greek", "name": "Infinity Blue (\u03b8\u03b1\u03bb\u03b1\u03c3\u03c3\u03b9\u03bd\u03ac)", "website": "http://www.infinityblue.gr"}}, {"type": "node", "id": 4293407935, "lat": 38.8775156, "lon": 23.4368906}, {"type": "node", "id": 4293407936, "lat": 38.8775334, "lon": 23.4371011}, {"type": "node", "id": 4293407937, "lat": 38.8774394, "lon": 23.4371092}, {"type": "node", "id": 4293407938, "lat": 38.8774227, "lon": 23.4368933}, {"type": "node", "id": 4293407939, "lat": 38.8776106, "lon": 23.4367538}, {"type": "node", "id": 4293407940, "lat": 38.8776346, "lon": 23.4370877}, {"type": "node", "id": 4293407941, "lat": 38.8775459, "lon": 23.4370998}, {"type": "node", "id": 4293407942, "lat": 38.8775166, "lon": 23.4367591}, {"type": "node", "id": 4293407943, "lat": 38.8777223, "lon": 23.436849}, {"type": "node", "id": 4293407944, "lat": 38.8777411, "lon": 23.4370756}, {"type": "node", "id": 4293407945, "lat": 38.8776565, "lon": 23.437085}, {"type": "node", "id": 4293407946, "lat": 38.8776398, "lon": 23.4368544}, {"type": "node", "id": 4293407947, "lat": 38.8775824, "lon": 23.4376}, {"type": "node", "id": 4293407948, "lat": 38.8776012, "lon": 23.4377891}, {"type": "node", "id": 4293407949, "lat": 38.8774853, "lon": 23.4378106}, {"type": "node", "id": 4293407950, "lat": 38.8774707, "lon": 23.4376174}, {"type": "node", "id": 4293407952, "lat": 38.8777516, "lon": 23.4377609}, {"type": "node", "id": 4293407953, "lat": 38.8776033, "lon": 23.4376577}, {"type": "node", "id": 4293407954, "lat": 38.8776179, "lon": 23.4377865}, {"type": "node", "id": 4293407956, "lat": 38.8775426, "lon": 23.4376062}, {"type": "node", "id": 4293407958, "lat": 38.8776674, "lon": 23.4376453}, {"type": "node", "id": 4296194540, "lat": 38.8777408, "lon": 23.437636}, {"type": "node", "id": 4307465243, "lat": 39.1223189, "lon": 23.7282813, "tags": {"amenity": "cafe", "name": "\u0395\u03bd \u03a0\u03bb\u03c9"}}, {"type": "node", "id": 4316023172, "lat": 39.0893115, "lon": 23.6992932, "tags": {"amenity": "restaurant", "name": "Limnonari"}}, {"type": "node", "id": 4316025785, "lat": 39.0898699, "lon": 23.6976447, "tags": {"amenity": "restaurant", "name": "Apanemo"}}, {"type": "node", "id": 4316029255, "lat": 39.1360074, "lon": 23.645434, "tags": {"amenity": "cafe", "name": "Madalaki"}}, {"type": "node", "id": 4318728390, "lat": 39.1240468, "lon": 23.7296168, "tags": {"amenity": "restaurant", "name": "\u03a4\u03b1 \u03ba\u03cd\u03bc\u03b1\u03c4\u03b1", "phone": "+302424022381"}}, {"type": "node", "id": 4318730046, "lat": 39.1093078, "lon": 23.6641425, "tags": {"amenity": "restaurant", "name": "Blo"}}, {"type": "node", "id": 4318733978, "lat": 39.162891, "lon": 23.4908852, "tags": {"amenity": "cafe", "name": "7sins", "phone": "+302427024530"}}, {"type": "node", "id": 4326572094, "lat": 39.1638433, "lon": 23.3337984, "tags": {"amenity": "restaurant", "cuisine": "greek", "name": "MeNaGia"}}, {"type": "node", "id": 4387700191, "lat": 39.1627208, "lon": 23.4907648, "tags": {"amenity": "cafe", "name:en": "Golden Cafe"}}, {"type": "node", "id": 4387700890, "lat": 39.1426944, "lon": 23.4242132, "tags": {"amenity": "restaurant", "name:en": "Victoria"}}, {"type": "node", "id": 4388604592, "lat": 39.1650339, "lon": 23.4866904, "tags": {"amenity": "restaurant", "name:en": "Aspro Lithos"}}, {"type": "node", "id": 4389112489, "lat": 39.1650114, "lon": 23.486664, "tags": {"amenity": "restaurant", "name:en": "Aspro Lithos"}}, {"type": "node", "id": 4408043606, "lat": 39.1409192, "lon": 23.4177663}, {"type": "node", "id": 4408043607, "lat": 39.1409423, "lon": 23.417867}, {"type": "node", "id": 4408043608, "lat": 39.1408785, "lon": 23.4178915}, {"type": "node", "id": 4408043609, "lat": 39.1408554, "lon": 23.4177908}, {"type": "node", "id": 4408062453, "lat": 39.1422084, "lon": 23.4264975}, {"type": "node", "id": 4408062454, "lat": 39.142303, "lon": 23.4267252}, {"type": "node", "id": 4408062455, "lat": 39.1421755, "lon": 23.4268131}, {"type": "node", "id": 4408062456, "lat": 39.142081, "lon": 23.4265854}, {"type": "node", "id": 4408066587, "lat": 39.1415818, "lon": 23.4262674}, {"type": "node", "id": 4408066588, "lat": 39.1415712, "lon": 23.426312}, {"type": "node", "id": 4408066789, "lat": 39.1416014, "lon": 23.4260993}, {"type": "node", "id": 4408066790, "lat": 39.1416195, "lon": 23.4260233}, {"type": "node", "id": 4408066791, "lat": 39.1417239, "lon": 23.4260647}, {"type": "node", "id": 4408066792, "lat": 39.1417609, "lon": 23.4262561}, {"type": "node", "id": 4408067386, "lat": 39.141967, "lon": 23.4268582}, {"type": "node", "id": 4408067387, "lat": 39.1420939, "lon": 23.4269395}, {"type": "node", "id": 4408067388, "lat": 39.1420244, "lon": 23.42712}, {"type": "node", "id": 4408067489, "lat": 39.1418974, "lon": 23.4270387}, {"type": "node", "id": 4562344384, "lat": 38.7642209, "lon": 23.317923}, {"type": "node", "id": 4562344385, "lat": 38.7642267, "lon": 23.318065}, {"type": "node", "id": 4562344386, "lat": 38.7641243, "lon": 23.3180718}, {"type": "node", "id": 4562344387, "lat": 38.7641993, "lon": 23.3179245}, {"type": "node", "id": 4562344388, "lat": 38.7641185, "lon": 23.3179299}, {"type": "node", "id": 4562344753, "lat": 38.7640551, "lon": 23.3182444}, {"type": "node", "id": 4562344754, "lat": 38.764168, "lon": 23.3184376}, {"type": "node", "id": 4562344755, "lat": 38.7641775, "lon": 23.3184872}, {"type": "node", "id": 4562344756, "lat": 38.7641733, "lon": 23.3191282}, {"type": "node", "id": 4562344757, "lat": 38.7641369, "lon": 23.3191322}, {"type": "node", "id": 4562344758, "lat": 38.7640473, "lon": 23.3178403}, {"type": "node", "id": 4562344759, "lat": 38.7641116, "lon": 23.3168939}, {"type": "node", "id": 4562344760, "lat": 38.7640426, "lon": 23.3170844}, {"type": "node", "id": 4562344761, "lat": 38.7640529, "lon": 23.3166611}, {"type": "node", "id": 4562344762, "lat": 38.7640907, "lon": 23.3166606}, {"type": "node", "id": 4590039485, "lat": 38.807101, "lon": 23.4514093}, {"type": "node", "id": 4590039486, "lat": 38.8070959, "lon": 23.4513748}, {"type": "node", "id": 4590039487, "lat": 38.8071861, "lon": 23.4513525}, {"type": "node", "id": 4590039488, "lat": 38.807193, "lon": 23.4513986}, {"type": "node", "id": 4590039489, "lat": 38.807227, "lon": 23.4513902}, {"type": "node", "id": 4590039490, "lat": 38.8072545, "lon": 23.4515745}, {"type": "node", "id": 4590039491, "lat": 38.8071039, "lon": 23.4516115}, {"type": "node", "id": 4590039492, "lat": 38.8070747, "lon": 23.4514157}, {"type": "node", "id": 4805993521, "lat": 38.8690944, "lon": 23.4402381, "tags": {"addr:postcode": "14010", "addr:street": "\u0391\u03b9\u03b3\u03b1\u03af\u03bf\u03c5", "amenity": "restaurant", "cuisine": "sausage;chicken;steak_house;burger;friture;greek;breakfast;seafood;kebab;local;pasta;coffee_shop", "internet_access": "wlan", "name": "\u039c\u03bf\u03c5\u03c1\u03ac\u03b3\u03b9\u03bf", "name:el": "\u039c\u03bf\u03c5\u03c1\u03ac\u03b3\u03b9\u03bf", "name:en": "Mouragio", "opening_hours": "Mo-Su 08:00-23:59", "operator": "\u039a\u03c5\u03c1\u03af\u03c4\u03c3\u03b7 \u039c\u03b1\u03c1\u03af\u03b1", "phone": "2227097004"}}, {"type": "node", "id": 4805993523, "lat": 38.8749426, "lon": 23.4377718, "tags": {"addr:postcode": "34010", "addr:street": "\u0391\u03b9\u03b3\u03b1\u03af\u03bf\u03c5", "amenity": "cafe", "cuisine": "tapas;sandwich;donut;hot_dog;tea;coffee_shop;ice_cream;crepe", "name": "Summer club \u03a3\u03b5\u03af\u03c1\u03b9\u03bf\u03c2", "name:el": "Summer club \u03a3\u03b5\u03af\u03c1\u03b9\u03bf\u03c2", "name:en": "Seirios Summer club", "phone": "6972325425"}}, {"type": "node", "id": 4897629504, "lat": 38.7763778, "lon": 23.4717869, "tags": {"amenity": "restaurant", "name": "\u0395\u03b4\u03ad\u03bc", "name:el": "\u0395\u03b4\u03ad\u03bc"}}, {"type": "node", "id": 4903678025, "lat": 38.7735594, "lon": 23.2847503, "tags": {"amenity": "restaurant", "cuisine": "regional", "name": "Bella Vista"}}, {"type": "node", "id": 4909975521, "lat": 39.1206892, "lon": 23.72912, "tags": {"amenity": "restaurant", "cuisine": "greek", "email": "mavelsk@otenet.gr", "operator": "Thanasis Gripiotis", "phone": "+306947402221"}}, {"type": "node", "id": 4922005494, "lat": 39.1377506, "lon": 23.2645583, "tags": {"addr:city": "\u039c\u03b9\u03ba\u03c1\u03cc", "amenity": "restaurant", "name": "\u03a7\u03c1\u03c5\u03c3\u03ae \u0391\u03ba\u03c4\u03ae"}}, {"type": "node", "id": 4922005751, "lat": 39.1370552, "lon": 23.2634522, "tags": {"amenity": "restaurant"}}, {"type": "node", "id": 4922010302, "lat": 39.1410464, "lon": 23.272761, "tags": {"addr:city": "\u03a0\u03bb\u03b1\u03c4\u03b1\u03bd\u03b9\u03ac\u03c2", "amenity": "restaurant", "name": "Drosero Akrogiali"}}, {"type": "node", "id": 4922011680, "lat": 39.1405262, "lon": 23.2748648, "tags": {"addr:city": "\u03a0\u03bb\u03b1\u03c4\u03b1\u03bd\u03b9\u03ac\u03c2", "amenity": "restaurant", "name": "\u03a4\u03c1\u03ac\u03c4\u03b1 \u03bf \u039b\u03b1\u03c1\u03b9\u03c3\u03b1\u03af\u03bf\u03c2"}}, {"type": "node", "id": 4922012530, "lat": 39.1403499, "lon": 23.2752639, "tags": {"amenity": "restaurant", "name": "\u03a3\u03c4\u03ad\u03ba\u03b9"}}, {"type": "node", "id": 4922016121, "lat": 39.1462577, "lon": 23.2907015, "tags": {"amenity": "restaurant", "name": "\u03a4\u03b1\u03b2\u03ad\u03c1\u03bd\u03b1 \u0395\u03bb\u03ad\u03bd\u03b7"}}, {"type": "node", "id": 4955534447, "lat": 39.1628051, "lon": 23.4882864, "tags": {"amenity": "restaurant", "name": "Taverna Folia", "name:el": "Taverna Folia"}}, {"type": "node", "id": 4959382421, "lat": 39.1680603, "lon": 23.497835, "tags": {"amenity": "restaurant", "internet_access": "wlan", "name": "Bakaliko", "name:el": "Bakaliko"}}, {"type": "node", "id": 4959911050, "lat": 39.1637018, "lon": 23.4875019, "tags": {"amenity": "restaurant", "name": "Ergon"}}, {"type": "node", "id": 4961246121, "lat": 39.1416565, "lon": 23.4457863, "tags": {"amenity": "restaurant", "name": "Kolios Seafood", "name:en": "Kolios sea food", "website": "www.kolios-seafood.com"}}, {"type": "node", "id": 4963693521, "lat": 39.1236244, "lon": 23.7289517, "tags": {"amenity": "restaurant", "name": "Molos", "name:el": "Molos"}}, {"type": "node", "id": 4986921337, "lat": 39.1456172, "lon": 23.4388772, "tags": {"addr:postcode": "37002", "addr:street": "Platanias", "amenity": "restaurant", "cuisine": "greek", "internet_access": "wlan", "name": "Avli", "name:ru": "\u0410\u0432\u043b\u0438", "phone": "+30 2427 049608"}}, {"type": "node", "id": 5044791148, "lat": 39.1410048, "lon": 23.2732327, "tags": {"amenity": "cafe", "name": "Aramis"}}, {"type": "node", "id": 5044796591, "lat": 39.1403188, "lon": 23.2750164, "tags": {"amenity": "restaurant", "name": "\u03a4\u03bf \u03a0\u03c5\u03c1\u03bf\u03c6\u03ac\u03bd\u03b9"}}, {"type": "node", "id": 5044801439, "lat": 39.1402721, "lon": 23.275457, "tags": {"amenity": "restaurant", "name": "\u03a1\u03b5\u03bc\u03ad\u03c4\u03b6\u03bf"}}, {"type": "node", "id": 5044802744, "lat": 39.14022, "lon": 23.2755101, "tags": {"amenity": "cafe", "name": "\u0386\u03b3\u03ba\u03c5\u03c1\u03b1"}}, {"type": "node", "id": 5055328621, "lat": 39.1242839, "lon": 23.7299028, "tags": {"addr:postcode": "370 03", "addr:street": "\u03a0\u03b1\u03c1\u03b1\u03bb\u03af\u03b1 \u03a3\u03ba\u03bf\u03c0\u03ad\u03bb\u03bf\u03c5, \u039c\u03b1\u03c1\u03af\u03bd\u03b1 \u03a3\u03ba\u03bf\u03c0\u03b5\u03bb\u03bf\u03c5", "amenity": "cafe", "internet_access": "wlan", "name:en": "Blue sea - cafe bar and Internet", "opening_hours": "Mo-Su 06:00-14:00", "phone": "+2424024625", "website": "https://www.skopelos-hotels.gr"}}, {"type": "node", "id": 5069224823, "lat": 39.1233421, "lon": 23.7283137, "tags": {"amenity": "cafe", "name:en": "Vrahos"}}, {"type": "node", "id": 5069274423, "lat": 39.1233055, "lon": 23.7263536, "tags": {"amenity": "restaurant", "name:en": "Anna's"}}, {"type": "node", "id": 5069274424, "lat": 39.122056, "lon": 23.7275415, "tags": {"amenity": "restaurant", "name": "\u0393\u03bf\u03c1\u03b3\u03cc\u03bd\u03b5\u03c2", "name:el": "\u0393\u03bf\u03c1\u03b3\u03cc\u03bd\u03b5\u03c2", "name:en": "Gorgones"}}, {"type": "node", "id": 5104000109, "lat": 39.1247741, "lon": 23.7285356, "tags": {"amenity": "cafe", "name": "\u03b8\u03ac\u03bb\u03b1\u03c3\u03c3\u03b1", "name:el": "\u03b8\u03ac\u03bb\u03b1\u03c3\u03c3\u03b1", "name:en": "Thalassa", "outdoor_seating": "yes", "smoking": "yes"}}, {"type": "node", "id": 5136177988, "lat": 39.1261624, "lon": 23.495384}, {"type": "node", "id": 5136177989, "lat": 39.1260055, "lon": 23.495411}, {"type": "node", "id": 5136177990, "lat": 39.1260126, "lon": 23.4955012}, {"type": "node", "id": 5136177991, "lat": 39.1261706, "lon": 23.4954757}, {"type": "node", "id": 5141485523, "lat": 38.8124234, "lon": 23.3684344, "tags": {"amenity": "restaurant", "cuisine": "\u03c8\u03b7\u03c3\u03c4\u03b1\u03c1\u03b9\u03ac", "name": "\u0393\u03b9\u03b1\u03bd\u03bd\u03b9\u03cc\u03c2"}}, {"type": "node", "id": 5145698722, "lat": 38.7642651, "lon": 23.3182738, "tags": {"addr:street": "\u03a0\u03bf\u03c3\u03b5\u03b9\u03b4\u03ce\u03bd\u03bf\u03c2", "amenity": "cafe", "cuisine": "sandwich;crepe;cake;coffee_shop", "name": "\u0393\u03b9\u03ac\u03bd\u03bd\u03b1\u03c1\u03bf\u03c2", "name:el": "\u0393\u03b9\u03ac\u03bd\u03bd\u03b1\u03c1\u03bf\u03c2", "name:en": "Cafe \"Giannaros\"", "opening_hours": "Mo-Su 08:00-00:00", "operator": "\u0393\u0399\u0391\u039d\u039d\u0391\u03a1\u039f\u03a3"}}, {"type": "node", "id": 5148056826, "lat": 38.7642213, "lon": 23.3169974, "tags": {"addr:street": "\u03a0\u03bf\u03c3\u03b5\u03b9\u03b4\u03ce\u03bd\u03bf\u03c2", "amenity": "cafe", "cuisine": "coffee_shop", "name": "\u03a1\u03b5\u03bc\u03ad\u03c4\u03b6\u03bf", "name:el": "\u03a1\u03b5\u03bc\u03ad\u03c4\u03b6\u03bf", "name:en": "Remetzo Coffee", "opening_hours": "Mo-Su 07:00-00:00"}}, {"type": "node", "id": 5148077424, "lat": 38.7642194, "lon": 23.3168986, "tags": {"addr:street": "\u03a0\u03bf\u03c3\u03b5\u03b9\u03b4\u03ce\u03bd\u03bf\u03c2", "amenity": "cafe", "cuisine": "cake;coffee_shop", "opening_hours": "Mo-Su 07:00-01:00"}}, {"type": "node", "id": 5152263526, "lat": 38.8094491, "lon": 23.5164953, "tags": {"addr:street": "\u03a0\u03b1\u03c1\u03b1\u03bb\u03af\u03b1 \u039c\u03b1\u03bd\u03c4\u03bf\u03c5\u03b4\u03b9", "amenity": "cafe", "cuisine": "cake;coffee_shop", "opening_hours": "Mo-Su 09:00-23:00"}}, {"type": "node", "id": 5152313336, "lat": 38.7337439, "lon": 23.4905934, "tags": {"amenity": "cafe", "cuisine": "pizza;crepe;cake;coffee_shop", "internet_access": "wlan", "name": "\u0388\u03bd\u03c4\u03b5\u03c7\u03bd\u03bf", "name:el": "\u0388\u03bd\u03c4\u03b5\u03c7\u03bd\u03bf", "name:en": "Entexno", "opening_hours": "Mo-Su 08:00-00:00", "outdoor_seating": "yes"}}, {"type": "node", "id": 5498980254, "lat": 38.7636287, "lon": 23.3217613, "tags": {"amenity": "cafe", "name": "\u039c\u03b5\u03bb\u03af\u03c4\u03b7"}}, {"type": "node", "id": 5498987596, "lat": 38.7639735, "lon": 23.3211856, "tags": {"amenity": "cafe", "name": "\u0393\u03c1\u03af\u03c3\u03c0\u03bf\u03c2"}}, {"type": "node", "id": 5499007978, "lat": 38.7641983, "lon": 23.3200378, "tags": {"amenity": "cafe", "name": "Del Cano"}}, {"type": "node", "id": 5499007981, "lat": 38.7642423, "lon": 23.3196676, "tags": {"amenity": "cafe", "name": "Special"}}, {"type": "node", "id": 5499043102, "lat": 38.764294, "lon": 23.3188021, "tags": {"amenity": "restaurant", "int_name": "To Pikantiko", "name": "\u03a4\u03bf \u03a0\u03b9\u03ba\u03ac\u03bd\u03c4\u03b9\u03ba\u03bf", "name:el": "\u03a4\u03bf \u03a0\u03b9\u03ba\u03ac\u03bd\u03c4\u03b9\u03ba\u03bf"}}, {"type": "node", "id": 5499043103, "lat": 38.764294, "lon": 23.3185598, "tags": {"amenity": "restaurant", "name": "\u0391\u03cd\u03c1\u03b1"}}, {"type": "node", "id": 5499060555, "lat": 38.7709472, "lon": 23.2988886, "tags": {"amenity": "restaurant", "name": "\u039a\u03bf\u03c7\u03cd\u03bb\u03b9"}}, {"type": "node", "id": 5621493932, "lat": 39.1773743, "lon": 23.2464616, "tags": {"amenity": "cafe", "name": "\u039a\u03b1\u03c6\u03b5\u03bd\u03b5\u03af\u03bf \u03a6\u03bf\u03c1\u03bb\u03af\u03b4\u03b1"}}, {"type": "node", "id": 5623136973, "lat": 39.1776147, "lon": 23.2466096, "tags": {"amenity": "restaurant", "name": "\u0391\u03a6\u03a1\u039f\u0394\u0399\u03a4\u0397"}}, {"type": "node", "id": 5623136974, "lat": 39.1773761, "lon": 23.2462123, "tags": {"amenity": "restaurant"}}, {"type": "node", "id": 5623136975, "lat": 39.1774839, "lon": 23.2461329, "tags": {"amenity": "restaurant"}}, {"type": "node", "id": 5623136976, "lat": 39.1775762, "lon": 23.2460892, "tags": {"amenity": "restaurant"}}, {"type": "node", "id": 5762145454, "lat": 39.1186739, "lon": 23.733864, "tags": {"amenity": "restaurant", "name": "skopelos", "name:de": "Skopelos"}}, {"type": "node", "id": 5833829516, "lat": 39.1199622, "lon": 23.7244257, "tags": {"amenity": "restaurant", "cuisine": "greek", "int_name": "Taverna Peparithos", "name": "\u03a4\u03b1\u03b2\u03ad\u03c1\u03bd\u03b1 \u03c8\u03b7\u03c3\u03c4\u03b1\u03c1\u03b9\u03ac \u03a0\u03b5\u03c0\u03ac\u03c1\u03b7\u03b8\u03bf\u03c2", "outdoor_seating": "yes"}}, {"type": "node", "id": 5882469818, "lat": 39.0143284, "lon": 23.3398668}, {"type": "node", "id": 5882469819, "lat": 39.0144476, "lon": 23.3398965}, {"type": "node", "id": 5882469820, "lat": 39.0144631, "lon": 23.3398008}, {"type": "node", "id": 5882469821, "lat": 39.0143422, "lon": 23.3397717}, {"type": "node", "id": 5885209786, "lat": 38.9374016, "lon": 23.4279871, "tags": {"amenity": "restaurant"}}, {"type": "node", "id": 5929322109, "lat": 38.733059, "lon": 23.4891297, "tags": {"amenity": "cafe", "cuisine": "coffee_shop", "name": "Prokopi Cafe", "outdoor_seating": "yes"}}, {"type": "node", "id": 5929324687, "lat": 38.7330839, "lon": 23.4901038, "tags": {"amenity": "restaurant", "cuisine": "kebab", "name": "\u03a0\u03b1\u03c1\u03b1\u03b4\u03bf\u03c3\u03b9\u03b1\u03ba\u03cc", "phone": "+30 222704"}}, {"type": "node", "id": 5929333044, "lat": 38.8017873, "lon": 23.3407189, "tags": {"amenity": "restaurant", "name": "\u03a0\u03b1\u03c1\u03ac\u03b4\u03b5\u03b9\u03c3\u03bf\u03c2"}}, {"type": "node", "id": 6193264804, "lat": 39.1727481, "lon": 23.3428465, "tags": {"amenity": "restaurant"}}, {"type": "node", "id": 6206573196, "lat": 39.167323, "lon": 23.4028267}, {"type": "node", "id": 6206573197, "lat": 39.167321, "lon": 23.4028469}, {"type": "node", "id": 6206573204, "lat": 39.1673155, "lon": 23.4029037}, {"type": "node", "id": 6206573213, "lat": 39.1758244, "lon": 23.4330386}, {"type": "node", "id": 6206573214, "lat": 39.1757529, "lon": 23.4330068}, {"type": "node", "id": 6206573215, "lat": 39.1757654, "lon": 23.4329603}, {"type": "node", "id": 6206573216, "lat": 39.1758369, "lon": 23.4329921}, {"type": "node", "id": 6594610486, "lat": 39.163948, "lon": 23.4883099, "tags": {"amenity": "cafe", "name": "Melina's"}}, {"type": "node", "id": 6605236266, "lat": 39.1674506, "lon": 23.6135598, "tags": {"amenity": "restaurant", "name": "Aramis Taverna"}}, {"type": "node", "id": 6614568685, "lat": 39.1225894, "lon": 23.7282332, "tags": {"addr:city": "\u03a3\u03ba\u03cc\u03c0\u03b5\u03bb\u03bf\u03c2", "addr:postcode": "370 03", "amenity": "restaurant", "cuisine": "greek;burger;regional", "name": "Grilled Meat - \u03a3\u03c4\u03bf \u03a8\u03b7\u03c4\u03bf"}}, {"type": "node", "id": 6679458307, "lat": 39.1635949, "lon": 23.4879878, "tags": {"amenity": "restaurant", "cuisine": "pizza", "name": "La Nonna"}}, {"type": "node", "id": 6679458313, "lat": 39.1633066, "lon": 23.4888189, "tags": {"amenity": "restaurant", "name": "Dinos"}}, {"type": "node", "id": 6679458324, "lat": 39.1535947, "lon": 23.4026986, "tags": {"amenity": "restaurant", "name": "Agistera"}}, {"type": "node", "id": 6787642985, "lat": 39.1635286, "lon": 23.4833937, "tags": {"amenity": "restaurant", "cuisine": "greek", "name": "Little Balcony"}}, {"type": "node", "id": 6833056803, "lat": 38.8419808, "lon": 23.4635864, "tags": {"amenity": "restaurant"}}, {"type": "node", "id": 7672816180, "lat": 38.7555362, "lon": 23.5816068, "tags": {"amenity": "cafe", "name": "\u039a\u03b1\u03c6\u03b5\u03bd\u03b5\u03af\u03bf\u03bd \u039f \u0395\u03c1\u03bc\u03ae\u03c2", "outdoor_seating": "yes"}}, {"type": "node", "id": 7672908353, "lat": 38.7551806, "lon": 23.5819581, "tags": {"amenity": "cafe", "name": "\u03a4\u03bf \u03a0\u03ae\u03bb\u03b9", "outdoor_seating": "yes"}}, {"type": "node", "id": 7672908354, "lat": 38.7552099, "lon": 23.5818454, "tags": {"amenity": "cafe", "cuisine": "bistro", "outdoor_seating": "sidewalk"}}, {"type": "node", "id": 7672908356, "lat": 38.7553135, "lon": 23.5822893, "tags": {"amenity": "restaurant", "cuisine": "greek", "outdoor_seating": "sidewalk"}}, {"type": "node", "id": 7672967487, "lat": 38.755782, "lon": 23.5792731, "tags": {"amenity": "restaurant", "cuisine": "seafood;regional", "name": "\u0395\u03c5\u03b8\u03c5\u03bc\u03af\u03b1"}}, {"type": "node", "id": 7704883451, "lat": 39.1645575, "lon": 23.48881}, {"type": "node", "id": 7704883452, "lat": 39.1644672, "lon": 23.4888246}, {"type": "node", "id": 7704883453, "lat": 39.1644367, "lon": 23.4885096}, {"type": "node", "id": 7704883454, "lat": 39.164527, "lon": 23.488495}, {"type": "node", "id": 7856719394, "lat": 39.0117626, "lon": 23.2270726, "tags": {"amenity": "restaurant", "cuisine": "burger;greek;steak_house", "name": "\"\u0391\u03bd\u03ad\u03c3\u03c4\u03b7\u03c2\" (\u0396\u03bf\u03c5\u03bd\u03ac\u03c1\u03b1\u03c2)"}}, {"type": "node", "id": 7880374385, "lat": 38.762787, "lon": 23.3233823, "tags": {"amenity": "cafe"}}, {"type": "node", "id": 8401828429, "lat": 39.0165136, "lon": 23.2194988, "tags": {"amenity": "restaurant", "cuisine": "friture;greek;seafood", "name": "\"\u039f \u039c\u03c0\u03b1\u03bb\u03b1\u03bf\u03cd\u03c1\u03b1\u03c2\""}}, {"type": "node", "id": 8777159817, "lat": 39.1668554, "lon": 23.4873132, "tags": {"amenity": "restaurant", "cuisine": "greek", "name": "Taverna", "name:en": "Taverna Koutsiavakis Ioannis"}}, {"type": "node", "id": 8778231205, "lat": 38.8217203, "lon": 23.3891777}, {"type": "node", "id": 8778231206, "lat": 38.8217841, "lon": 23.3893508}, {"type": "node", "id": 8778231207, "lat": 38.821744, "lon": 23.3893751}, {"type": "node", "id": 8778231208, "lat": 38.8217571, "lon": 23.3894108}, {"type": "node", "id": 8778231209, "lat": 38.8217276, "lon": 23.3894287}, {"type": "node", "id": 8778231210, "lat": 38.8217163, "lon": 23.3893983}, {"type": "node", "id": 8778231211, "lat": 38.821679, "lon": 23.3894209}, {"type": "node", "id": 8778231212, "lat": 38.8216133, "lon": 23.3892427}, {"type": "node", "id": 8820774107, "lat": 38.8765993, "lon": 23.4349638}, {"type": "node", "id": 8820774108, "lat": 38.8766081, "lon": 23.4351124}, {"type": "node", "id": 8820774109, "lat": 38.8764624, "lon": 23.4351279}, {"type": "node", "id": 8820774110, "lat": 38.8764529, "lon": 23.4349768}, {"type": "node", "id": 8850538810, "lat": 38.8605699, "lon": 23.3970862}, {"type": "node", "id": 8850538811, "lat": 38.8606458, "lon": 23.3972404}, {"type": "node", "id": 8850538812, "lat": 38.8605842, "lon": 23.3972905}, {"type": "node", "id": 8850538813, "lat": 38.8605083, "lon": 23.3971362}, {"type": "node", "id": 8871395348, "lat": 38.8781093, "lon": 23.4363463}, {"type": "node", "id": 8871395349, "lat": 38.8781172, "lon": 23.4364784}, {"type": "node", "id": 8871395350, "lat": 38.8780018, "lon": 23.4364898}, {"type": "node", "id": 8871395351, "lat": 38.8779939, "lon": 23.4363577}, {"type": "node", "id": 8893269917, "lat": 39.1642254, "lon": 23.4883695, "tags": {"amenity": "restaurant", "name": "Marmita"}}, {"type": "node", "id": 8900387777, "lat": 38.802978, "lon": 23.4705746, "tags": {"amenity": "cafe", "name": "Box 51", "outdoor_seating": "yes"}}, {"type": "node", "id": 8906737316, "lat": 39.1678809, "lon": 23.420688}, {"type": "node", "id": 8906748017, "lat": 39.1677567, "lon": 23.4206259}, {"type": "node", "id": 8906748018, "lat": 39.1677135, "lon": 23.4207693}, {"type": "node", "id": 8906748019, "lat": 39.1678377, "lon": 23.4208315}, {"type": "node", "id": 9027127839, "lat": 39.1392063, "lon": 23.6471819, "tags": {"amenity": "restaurant", "cuisine": "greek", "name": "Plateia"}}, {"type": "node", "id": 9027164717, "lat": 39.1397409, "lon": 23.6425608, "tags": {"amenity": "restaurant", "cuisine": "greek", "name": "\u039c\u03b1\u03bd\u03ce\u03bb\u03b7\u03c2", "name:el": "\u039c\u03b1\u03bd\u03ce\u03bb\u03b7\u03c2", "name:en": "Malinos"}}, {"type": "node", "id": 9027164719, "lat": 39.1396792, "lon": 23.6427178, "tags": {"amenity": "restaurant", "cuisine": "greek;seafood", "name": "\u0392\u03b1\u03b3\u03b3\u03ad\u03bb\u03b7\u03c2"}}, {"type": "node", "id": 9029427211, "lat": 39.1384959, "lon": 23.6488272, "tags": {"amenity": "restaurant", "cuisine": "greek;barbecue", "name": "Nikos"}}, {"type": "node", "id": 9029428805, "lat": 39.1361574, "lon": 23.6471889, "tags": {"amenity": "restaurant", "name": "\u03a7\u03cc\u03b2\u03bf\u03bb\u03bf - \u03a4\u03b1 \u03c0\u03ad\u03bd\u03c4\u03b5 \u03c0\u03bb\u03b1\u03c4\u03ac\u03bd\u03b9\u03b1"}}, {"type": "node", "id": 9032904053, "lat": 39.1391309, "lon": 23.6438413, "tags": {"amenity": "restaurant", "cuisine": "seafood;greek", "diet:fish": "yes", "name": "\u039f \u03a4\u03ac\u03c3\u03bf\u03c2"}}, {"type": "node", "id": 9032904054, "lat": 39.1391288, "lon": 23.6440089, "tags": {"amenity": "cafe", "name": "AQUA MARINE"}}, {"type": "node", "id": 9032904057, "lat": 39.139133, "lon": 23.644198, "tags": {"amenity": "restaurant", "cuisine": "pizza;seafood;greek", "name": "Oasis", "website": "https://oasisrestaurant.gr/"}}, {"type": "node", "id": 9049195249, "lat": 38.8355216, "lon": 23.3882934, "tags": {"amenity": "restaurant"}}, {"type": "node", "id": 9049229863, "lat": 38.8019327, "lon": 23.2330554, "tags": {"amenity": "restaurant", "name": "Pine and Dine"}}, {"type": "node", "id": 9084601417, "lat": 39.1632662, "lon": 23.4880794, "tags": {"amenity": "restaurant", "cuisine": "greek", "internet_access": "wlan", "name:fr": "Paraxenos", "phone": "+30 2427 024342", "website": "https://paraxenosskiathos.gr/"}}, {"type": "node", "id": 9092380417, "lat": 39.1623447, "lon": 23.4879369, "tags": {"addr:street": "Grigoriou E' Street", "amenity": "restaurant", "cuisine": "greek", "internet_access": "wlan", "name": "1901", "phone": "+302427021717"}}, {"type": "node", "id": 9278053417, "lat": 38.8115407, "lon": 23.2285228, "tags": {"amenity": "cafe", "name:en": "Piatsa Caf\u00e9"}}, {"type": "node", "id": 9557163736, "lat": 38.7641017, "lon": 23.3186995}, {"type": "node", "id": 9685382034, "lat": 38.812329, "lon": 23.3685315, "tags": {"amenity": "restaurant", "cuisine": "pizza;regional;burger;sandwich;coffee_shop;\u03b3\u03cd\u03c1\u03bf\u03c2;\u03c3\u03bf\u03c5\u03b2\u03bb\u03ac\u03ba\u03b9;\u03c8\u03b7\u03c3\u03c4\u03b1\u03c1\u03b9\u03ac", "name": "\u038c\u03b8\u03c9\u03bd\u03b1\u03c2 grill", "phone": "2227092184"}}, {"type": "node", "id": 9777365017, "lat": 39.1645396, "lon": 23.4883634, "tags": {"amenity": "restaurant", "name": "Marmita"}}, {"type": "node", "id": 9780841317, "lat": 38.73455, "lon": 23.4927798, "tags": {"addr:street": "\u03a7\u03b1\u03bb\u03ba\u03af\u03b4\u03b1\u03c2 - \u039b\u03bf\u03c5\u03c4\u03c1\u03ce\u03bd \u0391\u03b9\u03b4\u03b7\u03c8\u03bf\u03cd", "amenity": "restaurant", "internet_access": "wlan", "name": "\u039f \u038a\u03ba\u03b1\u03c1\u03bf\u03c2"}}, {"type": "node", "id": 9780841418, "lat": 38.7336719, "lon": 23.4913842, "tags": {"amenity": "cafe", "cuisine": "cake;coffee_shop", "internet_access": "wlan", "name": "Escape Cafe", "opening_hours": "Mo-Su 09:00-23:00", "outdoor_seating": "yes", "phone": "+30 2227 041111"}}, {"type": "node", "id": 9805663307, "lat": 39.147661, "lon": 23.463764}, {"type": "node", "id": 9805663308, "lat": 39.1478132, "lon": 23.463958}, {"type": "node", "id": 9805663309, "lat": 39.1475191, "lon": 23.4643609}, {"type": "node", "id": 9891466231, "lat": 39.1623675, "lon": 23.4890432}, {"type": "node", "id": 9891466238, "lat": 39.1622538, "lon": 23.4889679}, {"type": "node", "id": 9891466240, "lat": 39.1622846, "lon": 23.4890808}, {"type": "node", "id": 9891466241, "lat": 39.1623366, "lon": 23.4889303}, {"type": "node", "id": 9891484674, "lat": 39.1637204, "lon": 23.4896064}, {"type": "node", "id": 9891484675, "lat": 39.1636711, "lon": 23.4895316}, {"type": "node", "id": 9891484677, "lat": 39.1635866, "lon": 23.4897152}, {"type": "node", "id": 9891484679, "lat": 39.1635528, "lon": 23.4896485}, {"type": "node", "id": 9921954072, "lat": 39.168489, "lon": 23.4989963}, {"type": "node", "id": 9989096378, "lat": 39.1625751, "lon": 23.4790677, "tags": {"amenity": "restaurant", "name": "Thessaloniki"}}, {"type": "node", "id": 9994246595, "lat": 38.8097583, "lon": 23.2276658, "tags": {"amenity": "restaurant", "name": "Senioros", "phone": "+302227071044"}}, {"type": "node", "id": 9994298401, "lat": 38.8087634, "lon": 23.2280208, "tags": {"amenity": "restaurant", "cuisine": "pizza", "name": "\u038c\u03b1\u03c3\u03b9\u03c2"}}, {"type": "node", "id": 9994319740, "lat": 38.7651018, "lon": 23.5956857, "tags": {"amenity": "cafe", "name": "Blue Caffe", "outdoor_seating": "yes"}}, {"type": "node", "id": 10005653313, "lat": 38.8116776, "lon": 23.2266081, "tags": {"amenity": "restaurant", "name": "\u039b\u03af\u03c4\u03c3\u03b1"}}, {"type": "node", "id": 10010610774, "lat": 38.8082977, "lon": 23.2279696, "tags": {"amenity": "cafe", "name": "Aladin"}}, {"type": "node", "id": 10010635297, "lat": 38.8096149, "lon": 23.2302046, "tags": {"amenity": "cafe", "name": "\u039c\u03b1\u03bd\u03c4\u03ac\u03c4\u03bf"}}, {"type": "node", "id": 10013695681, "lat": 38.8119896, "lon": 23.2280295, "tags": {"amenity": "restaurant", "name": "\u039f \u039b\u03ac\u03bc\u03c0\u03c1\u03bf\u03c2"}}, {"type": "node", "id": 10013695682, "lat": 38.8077004, "lon": 23.2280596, "tags": {"amenity": "restaurant", "name": "Anemoia", "website:menu": "https://mangataseaside.gr/wp-content/uploads/2023/07/Anemoia-Seaside-cafe-restaurant-Menu-2023.pdf"}}, {"type": "node", "id": 10300523104, "lat": 39.1406383, "lon": 23.4196158, "tags": {"amenity": "restaurant", "name": "\u03a4\u03b1\u03b2\u03ad\u03c1\u03bd\u03b1 \u03c4\u03c1\u03bf\u03cd\u03bb\u03bf\u03c2", "name:el": "\u03a4\u03b1\u03b2\u03ad\u03c1\u03bd\u03b1 \u03c4\u03c1\u03bf\u03cd\u03bb\u03bf\u03c2", "name:en": "Troulos Taverna", "phone": "+306976184526", "website": "https://www.troulos.gr/en/"}}, {"type": "node", "id": 10300526117, "lat": 39.1299336, "lon": 23.4556295, "tags": {"amenity": "cafe", "name": "Diamanti Beach tavern"}}, {"type": "node", "id": 10536550549, "lat": 38.8260936, "lon": 23.2801944, "tags": {"amenity": "restaurant"}}, {"type": "node", "id": 10873336105, "lat": 38.7336955, "lon": 23.4921726, "tags": {"amenity": "restaurant", "cuisine": "barbecue;regional", "name": "\u03a4\u03b1 \u03a0\u03bb\u03b1\u03c4\u03b1\u03bd\u03b1\u03ba\u03b9\u03b1", "outdoor_seating": "yes"}}, {"type": "node", "id": 10960203667, "lat": 39.1474438, "lon": 23.4642672}, {"type": "node", "id": 10960203671, "lat": 39.1476206, "lon": 23.4642223}, {"type": "node", "id": 11043400945, "lat": 39.0861167, "lon": 23.7475583, "tags": {"amenity": "restaurant", "contact:phone": "+30 697 833 4099", "name": "Stafilos Restaurant", "website": "https://stafilos-restaurant.business.site/"}}, {"type": "node", "id": 11053458005, "lat": 39.1638996, "lon": 23.4830174, "tags": {"amenity": "restaurant", "name:en": "Alexandros"}}, {"type": "node", "id": 11063400698, "lat": 38.9838774, "lon": 23.3705083, "tags": {"addr:city": "\u03a8\u03b1\u03c1\u03bf\u03c0\u03bf\u03cd\u03bb\u03b9", "addr:postcode": "34200", "amenity": "restaurant", "cuisine": "fish;seafood", "mobile": "+306942485824", "name": "\u03a4\u03b1 \u039b\u03b5\u03c5\u03ba\u03bf\u03bd\u03ae\u03c3\u03b9\u03b1"}}, {"type": "node", "id": 11063400699, "lat": 38.98394, "lon": 23.3704962, "tags": {"amenity": "restaurant", "cuisine": "seafood;fish", "name": "\u039f \u03a7\u03ac\u03c1\u03b7\u03c2", "phone": "+3022260431041"}}, {"type": "node", "id": 11063400700, "lat": 38.9841328, "lon": 23.3704916, "tags": {"addr:city": "\u03a8\u03b1\u03c1\u03bf\u03c0\u03bf\u03cd\u03bb\u03b9", "addr:postcode": "34200", "amenity": "restaurant", "cuisine": "fish", "name": "\u03a4\u03bf \u03bb\u03b9\u03bc\u03ac\u03bd\u03b9", "phone": "+302226043278"}}, {"type": "node", "id": 11063400701, "lat": 38.9841908, "lon": 23.3704916, "tags": {"addr:city": "\u03a8\u03b1\u03c1\u03bf\u03c0\u03bf\u03cd\u03bb\u03b9", "addr:postcode": "34200", "amenity": "restaurant", "cuisine": "fish;seafood", "name": "\u0393\u03b9\u03ce\u03c1\u03b3\u03bf\u03c2 \u03ba\u03b1\u03b9 \u039c\u03b1\u03c4\u03bf\u03cd\u03bb\u03b1 \u03a4\u03bf \u03a8\u03b1\u03c1\u03bf\u03c0\u03bf\u03cd\u03bb\u03b9"}}, {"type": "node", "id": 11064553305, "lat": 39.1627489, "lon": 23.4902901, "tags": {"amenity": "cafe", "name:en": "Mamma Mia bakery"}}, {"type": "node", "id": 11066509282, "lat": 39.1361956, "lon": 23.6464117}, {"type": "node", "id": 11066509283, "lat": 39.1360043, "lon": 23.6464663}, {"type": "node", "id": 11066509284, "lat": 39.1359416, "lon": 23.6460296}, {"type": "node", "id": 11066509285, "lat": 39.1361282, "lon": 23.6459892}, {"type": "node", "id": 11252325133, "lat": 38.7337226, "lon": 23.4901575, "tags": {"amenity": "cafe", "cuisine": "ice_cream", "name": "\u03a7\u03c1\u03c5\u03c3\u03b1\u03c5\u03b3\u03ae", "outdoor_seating": "yes"}}, {"type": "node", "id": 11252325134, "lat": 38.7332976, "lon": 23.4915783, "tags": {"amenity": "restaurant", "name": "\u03a4\u03b6\u03af\u03bd\u03b7\u03c2", "outdoor_seating": "yes"}}, {"type": "node", "id": 11252325135, "lat": 38.7330395, "lon": 23.4909802, "tags": {"amenity": "restaurant", "cuisine": "greek", "name": "\u039c\u03bf\u03c5\u03c1\u03b9\u03ad\u03c2"}}, {"type": "node", "id": 11374633475, "lat": 39.1088466, "lon": 23.7328222, "tags": {"amenity": "restaurant", "name:en": "Rosemary"}}, {"type": "node", "id": 11374634169, "lat": 39.0828532, "lon": 23.7114569, "tags": {"amenity": "restaurant", "cuisine": "fish;greek", "name": "\u039a\u03bf\u03c1\u03b1\u03bb\u03af", "name:el": "\u039a\u03bf\u03c1\u03b1\u03bb\u03af", "name:en": "Korali", "website": "https://skopelos.com/fr/listings/skopelos-korali-fish-tavern-restaurant/"}}, {"type": "node", "id": 11492526569, "lat": 38.9316065, "lon": 23.3626727, "tags": {"amenity": "restaurant", "cuisine": "barbecue;greek", "name": "\u0397 \u03a3\u03c4\u03bf\u03ac", "name:el": "\u0397 \u03a3\u03c4\u03bf\u03ac", "name:en": "Stoa"}}, {"type": "node", "id": 11920107637, "lat": 39.1621858, "lon": 23.4899333, "tags": {"amenity": "restaurant", "city": "Skiathos", "name": "Turquoise", "phone": "+302427024243"}}, {"type": "node", "id": 11975912409, "lat": 39.1192768, "lon": 23.7308928, "tags": {"addr:city": "Skopelos", "addr:postcode": "37003", "amenity": "restaurant", "name": "Apolafsi", "phone": "+306984449885"}}, {"type": "node", "id": 12050557852, "lat": 39.1634826, "lon": 23.4878722, "tags": {"amenity": "cafe", "check_date": "2024-07-13", "name": "Foodie Caf\u00e9", "opening_hours": "07:00-23:00", "payment:cash": "yes", "payment:credit_cards": "yes", "payment:debit_cards": "yes", "website": "https://foodiecafe.gr/", "wheelchair": "limited"}}, {"type": "node", "id": 12073935208, "lat": 39.1110081, "lon": 23.6641673, "tags": {"amenity": "restaurant", "cuisine": "greek", "name": "To Delfini"}}, {"type": "node", "id": 12097563694, "lat": 39.1666477, "lon": 23.6156424, "tags": {"amenity": "restaurant", "name": "Petrino"}}, {"type": "node", "id": 12202401997, "lat": 39.1205623, "lon": 23.7289833, "tags": {"amenity": "restaurant", "cuisine": "gyros", "name": "Magali"}}, {"type": "node", "id": 12205403348, "lat": 39.1188098, "lon": 23.7323875, "tags": {"amenity": "restaurant", "name": "Stou Dimitraki"}}, {"type": "node", "id": 12849231931, "lat": 38.7345327, "lon": 23.4930324, "tags": {"amenity": "cafe", "bar": "no", "internet_access": "wlan", "name": "Thomas Cafe", "outdoor_seating": "yes"}}, {"type": "node", "id": 12850406048, "lat": 38.798595, "lon": 23.4792792, "tags": {"amenity": "cafe", "outdoor_seating": "yes"}}, {"type": "node", "id": 12850406059, "lat": 38.7984885, "lon": 23.478974, "tags": {"amenity": "cafe", "outdoor_seating": "yes"}}, {"type": "node", "id": 12850406064, "lat": 38.7988143, "lon": 23.4789024, "tags": {"amenity": "cafe", "outdoor_seating": "yes"}}, {"type": "node", "id": 12850406069, "lat": 38.7987015, "lon": 23.4781958, "tags": {"amenity": "cafe", "outdoor_seating": "yes"}}, {"type": "node", "id": 12850573903, "lat": 38.7944698, "lon": 23.4746959, "tags": {"amenity": "cafe", "name": "Road Runner Cafe", "outdoor_seating": "yes"}}, {"type": "node", "id": 12851279002, "lat": 38.8776466, "lon": 23.4361816, "tags": {"amenity": "restaurant", "cuisine": "kebab", "internet_access": "wlan", "name": "\u03a0\u03b1\u03c1\u03b1\u03b4\u03b5\u03af\u03c3\u03bf\u03c2", "outdoor_seating": "yes", "phone": "+30 2227 097109"}}, {"type": "node", "id": 12851536055, "lat": 38.875437, "lon": 23.4375257, "tags": {"amenity": "restaurant", "name": "\u039c\u03b1\u03ca\u03c3\u03c4\u03c1\u03b1\u03bb\u03b9", "outdoor_seating": "yes"}}, {"type": "node", "id": 12894319892, "lat": 39.1631044, "lon": 23.4901951, "tags": {"amenity": "cafe", "check_date": "2025-06-07", "cuisine": "coffee_shop", "level": "0", "name": "Cafe nostalgic", "opening_hours": "07:00-24:00", "outdoor_seating": "yes", "payment:cash": "yes", "payment:credit_cards": "yes", "payment:debit_cards": "yes", "wheelchair": "limited"}}, {"type": "way", "id": 294930592, "nodes": [2985739576, 2985739575, 2985739573, 2985739574, 2985739576], "tags": {"amenity": "restaurant", "building": "yes", "cuisine": "greek", "name": "Calma Skiathos"}}, {"type": "way", "id": 295022266, "nodes": [2986805836, 9921954072, 2986805833, 2986805834, 2986805835, 2986805836], "tags": {"amenity": "restaurant", "cuisine": "greek", "name": "Milos"}}, {"type": "way", "id": 295022271, "nodes": [6206573196, 6206573197, 6206573204, 2986800832, 2986800829, 2986800830, 6206573196], "tags": {"amenity": "restaurant", "building": "yes", "cuisine": "greek"}}, {"type": "way", "id": 295249655, "nodes": [2989547277, 2989547276, 2989547274, 2989547275, 2989547277], "tags": {"amenity": "restaurant", "building": "yes", "cuisine": "greek", "name": "Olive's Land"}}, {"type": "way", "id": 295286717, "nodes": [2989906306, 4408066792, 2989906299, 4408066588, 4408066587, 2989906295, 2989906296, 4408066789, 4408066790, 4408066791, 2989906306], "tags": {"amenity": "restaurant", "building": "yes", "name": "Salt N Pepper"}}, {"type": "way", "id": 295286719, "nodes": [2989909246, 2989909244, 2989909242, 2989909245, 2989909246], "tags": {"amenity": "restaurant", "building": "yes", "cuisine": "greek", "name": "Green Meadow", "takeaway": "no"}}, {"type": "way", "id": 295286726, "nodes": [2989909330, 2989909332, 2989909331, 2989909327, 2989909328, 2989909324, 2989909323, 2989909329, 2989909330], "tags": {"amenity": "restaurant", "building": "retail", "building:levels": "1", "cuisine": "greek", "roof:levels": "0"}}, {"type": "way", "id": 297572914, "nodes": [3014615979, 3014615980, 3014615981, 3014615982, 3014615979], "tags": {"amenity": "restaurant", "building": "yes", "cuisine": "seafood;greek", "name": "Linarakia"}}, {"type": "way", "id": 303430395, "nodes": [3077891219, 3077891220, 3074781796, 3077891226, 3077891219], "tags": {"amenity": "cafe", "building": "yes", "cuisine": "regional", "internet_access": "wlan", "name": "Maistrali"}}, {"type": "way", "id": 303430399, "nodes": [3077897342, 3077897343, 3077897344, 3077897345, 3077897342], "tags": {"amenity": "cafe", "building": "yes", "cuisine": "pizza", "internet_access": "yes"}}, {"type": "way", "id": 430077289, "nodes": [4293407935, 4293407936, 4293407937, 4293407938, 4293407935], "tags": {"amenity": "cafe", "building": "yes", "internet_access": "wlan", "name": "\u03a1\u03b5\u03bc\u03ad\u03c4\u03b6\u03bf", "name:el": "\u03a1\u03b5\u03bc\u03ad\u03c4\u03b6\u03bf", "name:en": "Remetzo"}}, {"type": "way", "id": 430077290, "nodes": [4293407939, 4293407940, 4293407941, 4293407942, 4293407939], "tags": {"amenity": "restaurant", "building": "yes", "cuisine": "greek", "name": "\u03a0\u03b5\u03c1\u03af \u039f\u03c1\u03ad\u03be\u03b5\u03c9\u03c2", "name:el": "\u03a0\u03b5\u03c1\u03af \u039f\u03c1\u03ad\u03be\u03b5\u03c9\u03c2", "name:en": "Peri Orexeos"}}, {"type": "way", "id": 430077291, "nodes": [4293407943, 4293407944, 4293407945, 4293407946, 4293407943], "tags": {"amenity": "restaurant", "building": "yes", "cuisine": "seafood", "name": "\u0391\u03bb\u03ac\u03b2\u03b1\u03c3\u03c4\u03c1\u03bf", "name:el": "\u0391\u03bb\u03ac\u03b2\u03b1\u03c3\u03c4\u03c1\u03bf", "name:en": "Alavastro"}}, {"type": "way", "id": 430077292, "nodes": [4293407947, 4293407948, 4293407949, 4293407950, 4293407956, 4293407947], "tags": {"amenity": "cafe", "leisure": "beach_resort"}}, {"type": "way", "id": 430077293, "nodes": [4293407952, 4296194540, 4293407958, 4293407953, 4293407954, 4293407952], "tags": {"amenity": "cafe", "leisure": "beach_resort"}}, {"type": "way", "id": 443180302, "nodes": [4408043606, 4408043607, 4408043608, 4408043609, 4408043606], "tags": {"amenity": "cafe", "building": "yes", "cuisine": "regional", "internet_access": "wlan"}}, {"type": "way", "id": 443182188, "nodes": [4408062453, 4408062454, 4408062455, 4408062456, 4408062453], "tags": {"amenity": "restaurant", "building": "yes", "cuisine": "greek", "name": "Captain Niko's"}}, {"type": "way", "id": 443182689, "nodes": [4408067386, 4408067387, 4408067388, 4408067489, 4408067386], "tags": {"amenity": "restaurant", "building": "yes", "cuisine": "greek", "name": "Zorba's"}}, {"type": "way", "id": 460608137, "nodes": [4562344388, 4562344386, 4562344385, 4562344384, 4562344387, 4562344388], "tags": {"addr:street": "\u03a0\u03bf\u03c3\u03b5\u03b9\u03b4\u03ce\u03bd\u03bf\u03c2", "amenity": "cafe", "building": "residential", "cuisine": "cake;ice_cream;coffee_shop", "name": "\u039d\u0395\u039f\u039d", "name:el": "\u039d\u0395\u039f\u039d", "name:en": "NEON", "opening_hours": "Mo-Su 07:00-00:00", "operator": "\u03a4\u03c3\u03b1\u03bc\u03c0\u03ac\u03bd\u03b7\u03c2"}}, {"type": "way", "id": 460608238, "nodes": [4562344758, 1854602147, 1854602148, 1860918449, 1860918451, 9557163736, 1854602156, 4562344757, 4562344756, 4562344755, 4562344754, 4562344753, 4562344758], "tags": {"amenity": "restaurant", "cuisine": "greek", "outdoor_seating": "yes"}}, {"type": "way", "id": 460608241, "nodes": [4562344762, 4562344761, 1854602154, 1860918421, 4562344760, 4562344759, 4562344762], "tags": {"amenity": "restaurant", "cuisine": "greek", "outdoor_seating": "yes"}}, {"type": "way", "id": 463772481, "nodes": [4590039492, 4590039491, 4590039490, 4590039489, 4590039488, 4590039487, 4590039486, 4590039485, 4590039492], "tags": {"amenity": "restaurant", "building": "yes", "cuisine": "regional", "name": "\u0397 \u0393\u03b5\u03c6\u03c5\u03c1\u03b1 \u039c\u03bf\u03c3\u03c7\u03bf\u03c5 \u0391\u03bd\u03c4\u03c9\u03bd\u03b7\u03c2", "outdoor_seating": "yes"}}, {"type": "way", "id": 528548305, "nodes": [5136177988, 5136177989, 5136177990, 5136177991, 5136177988], "tags": {"amenity": "cafe", "building": "hut"}}, {"type": "way", "id": 622833481, "nodes": [5882469821, 5882469820, 5882469819, 5882469818, 5882469821], "tags": {"amenity": "restaurant", "building": "yes", "cuisine": "fish", "internet_access": "wlan", "internet_access:fee": "no", "name": "\u039c\u03c0\u03b1\u03c1\u03bc\u03c0\u03b1 \u03a3\u03c4\u03ac\u03b8\u03b7\u03c2", "opening_hours": "Mo-Su 00:00-01:00,09:00-24:00", "outdoor_seating": "yes", "phone": "+306974459874", "smoking": "outside"}}, {"type": "way", "id": 663018360, "nodes": [6206573213, 6206573214, 6206573215, 6206573216, 6206573213], "tags": {"amenity": "restaurant", "building": "yes"}}, {"type": "way", "id": 825160574, "nodes": [7704883451, 7704883452, 7704883453, 7704883454, 7704883451], "tags": {"addr:city": "\u03a3\u03ba\u03b9\u03ac\u03b8\u03bf\u03c2", "addr:street": "Miouli Street", "addr:unit": "next to Marmita", "amenity": "restaurant", "building": "commercial", "cuisine": "regional;greek", "description": "Modern Greek restaurant with labeled vegan and vegetarian dishes including salads, raw zucchini, santorini fava and butter beans with fresh herbs. Serves meat, vegan options available. Outdoor seating \u00b7 Reservations required \u00b7 Accepts credit cards", "diet:vegan": "yes", "diet:vegetarian": "yes", "email": "artesanalskiathos@gmail.com", "name": "Artesanal", "opening_hours": "Mo-Su 18:30-24:00", "outdoor_seating": "yes", "phone": "+302427022270", "reservation": "recommended", "website": "https://www.artesanal-skiathos.com/"}}, {"type": "way", "id": 948341966, "nodes": [8778231205, 8778231206, 8778231207, 8778231208, 8778231209, 8778231210, 8778231211, 8778231212, 8778231205], "tags": {"amenity": "cafe", "building": "yes", "name": "\u0395\u03c3\u03c4\u03af\u03b1"}}, {"type": "way", "id": 952986967, "nodes": [8820774107, 8820774108, 8820774109, 8820774110, 8820774107], "tags": {"amenity": "restaurant", "building": "yes", "cuisine": "greek", "name": "\u0397 \u0393\u03bf\u03c1\u03b3\u03cc\u03bd\u03b1"}}, {"type": "way", "id": 956316173, "nodes": [8850538810, 8850538811, 8850538812, 8850538813, 8850538810], "tags": {"addr:city": "\u0391\u03b3\u03af\u03b1 \u0386\u03bd\u03bd\u03b1", "addr:postcode": "34010", "amenity": "cafe", "building": "yes", "name": "\u039a\u03b1\u03c6\u03b5\u03bd\u03b5\u03af\u03bf \u03c4\u03bf 50"}}, {"type": "way", "id": 958777139, "nodes": [8871395348, 8871395349, 8871395350, 8871395351, 8871395348], "tags": {"amenity": "restaurant", "building": "yes", "cuisine": "regional;seafood", "name": "\u03a1\u03b1\u03ba\u03ac\u03b4\u03b9\u03ba\u03bf", "outdoor_seating": "yes", "phone": "+30 2227 097000"}}, {"type": "way", "id": 962858490, "nodes": [8906737316, 8906748017, 8906748018, 8906748019, 8906737316], "tags": {"amenity": "restaurant", "building": "yes"}}, {"type": "way", "id": 1068126091, "nodes": [9805663307, 9805663308, 10960203671, 9805663309, 10960203667, 1784500424, 9805663307], "tags": {"addr:city": "Skiathos", "addr:postcode": "37002", "addr:street": "\u039a\u03bf\u03c5\u03ba\u03bf\u03c5\u03bd\u03b1\u03c1\u03b9\u03ad\u03c2 - \u03a3\u03ba\u03b9\u03ac\u03b8\u03bf\u03c2", "amenity": "restaurant", "bar": "yes", "brand": "Octopus Beach Skiathos", "cuisine": "regional", "diet:healthy": "yes", "diet:local": "yes", "email": "info@octopusbeach.net", "name": "Octopus Beach Bar & Restaurant", "opening_hours": "Mo-Su 10:00-02:00", "outdoor_seating": "yes", "payment:american_express": "yes", "payment:cash": "yes", "payment:coins": "yes", "payment:contactless": "yes", "payment:credit_cards": "yes", "payment:cryptocurrencies": "yes", "payment:debit_cards": "yes", "payment:diners_club": "yes", "payment:discover_card": "yes", "payment:google_pay": "yes", "payment:mastercard": "yes", "payment:visa": "yes", "phone": "+306950096726", "reservation": "yes", "website": "https://octopusbeach.net"}}, {"type": "way", "id": 1079016677, "nodes": [9891466238, 9891466241, 9891466231, 9891466240, 9891466238], "tags": {"amenity": "cafe", "cuisine": "coffee_shop", "internet_access": "wlan", "internet_access:fee": "no", "level": "0", "name": "Jasmine", "outdoor_seating": "yes", "wheelchair": "limited"}}, {"type": "way", "id": 1079018125, "nodes": [9891484677, 9891484674, 9891484675, 9891484679, 9891484677], "tags": {"amenity": "restaurant", "name": "Dionyssos"}}, {"type": "way", "id": 1192024952, "nodes": [11066509282, 11066509283, 11066509284, 11066509285, 11066509282], "tags": {"amenity": "restaurant", "building": "yes", "cuisine": "greek;seafood", "name": "\u039a\u03b1\u03c0\u03b5\u03c4\u03ac\u03bd \u03a3\u03c0\u03cd\u03c1\u03bf\u03c2", "name:el": "\u039a\u03b1\u03c0\u03b5\u03c4\u03ac\u03bd \u03a3\u03c0\u03cd\u03c1\u03bf\u03c2", "name:en": "Captain Spyros"}}]}