{"version": 0.6, "generator": "Overpass API 0.7.62.7 375dc00a", "osm3s": {"timestamp_osm_base": "2025-06-14T13:25:11Z", "copyright": "The data included in this document is from www.openstreetmap.org. The data is made available under ODbL."}, "elements": [{"type": "node", "id": 259446928, "lat": 40.8814924, "lon": 9.635459, "tags": {"amenity": "cafe"}}, {"type": "node", "id": 259447571, "lat": 40.880832, "lon": 9.6316516, "tags": {"amenity": "cafe", "created_by": "Potlatch 0.8b"}}, {"type": "node", "id": 260030236, "lat": 40.8409286, "lon": 9.6539075, "tags": {"amenity": "cafe", "created_by": "Potlatch 0.8b"}}, {"type": "node", "id": 260636368, "lat": 40.8752895, "lon": 9.6289932, "tags": {"amenity": "cafe", "created_by": "Potlatch 0.8b", "name": "Bar Centrale"}}, {"type": "node", "id": 260689800, "lat": 40.8408903, "lon": 9.7155449, "tags": {"amenity": "cafe", "created_by": "Potlatch 0.8b"}}, {"type": "node", "id": 260698686, "lat": 40.8146715, "lon": 9.6865256, "tags": {"amenity": "cafe", "created_by": "Potlatch 0.8b"}}, {"type": "node", "id": 290372242, "lat": 40.5345385, "lon": 9.817332}, {"type": "node", "id": 308376847, "lat": 40.6900444, "lon": 9.7220343, "tags": {"amenity": "restaurant", "name": "La Volpe"}}, {"type": "node", "id": 538524115, "lat": 40.7023807, "lon": 9.7092936, "tags": {"amenity": "cafe", "name": "Lamiko"}}, {"type": "node", "id": 624263306, "lat": 40.8169705, "lon": 9.465836, "tags": {"amenity": "restaurant"}}, {"type": "node", "id": 624263313, "lat": 40.8214689, "lon": 9.4644111, "tags": {"addr:city": "Berchiddeddu", "addr:housenumber": "14", "addr:postcode": "07026", "addr:street": "Via Arno", "amenity": "restaurant", "cuisine": "italian", "name": "Ristorante titpico sardo"}}, {"type": "node", "id": 778189249, "lat": 40.6877028, "lon": 9.7251192, "tags": {"amenity": "restaurant", "cuisine": "pizza", "name": "Rist. Pizz. dei Mori"}}, {"type": "node", "id": 790041148, "lat": 40.5821467, "lon": 9.7742251, "tags": {"amenity": "cafe"}}, {"type": "node", "id": 1187085518, "lat": 40.7037874, "lon": 9.7177299}, {"type": "node", "id": 1187085519, "lat": 40.7038905, "lon": 9.7179736}, {"type": "node", "id": 1187085578, "lat": 40.7036272, "lon": 9.7178479}, {"type": "node", "id": 1187085621, "lat": 40.7037304, "lon": 9.7180915}, {"type": "node", "id": 1458998063, "lat": 40.8122101, "lon": 9.5853891, "tags": {"addr:street": "Localit\u00e0 Caldosa", "amenity": "restaurant", "cuisine": "regional", "name": "Agritourismo Caldosa", "opening_hours": "\"Vorbestellung\"", "operator": "Fam. Bua"}}, {"type": "node", "id": 1459894779, "lat": 40.8009741, "lon": 9.5875892, "tags": {"amenity": "restaurant", "contact:website": "https://www.angelagoeser.de", "cuisine": "regional", "name": "Agritourismo L`Agliuledda", "toilets:wheelchair": "yes", "tourism": "apartment", "wheelchair": "yes"}}, {"type": "node", "id": 1574806987, "lat": 40.6212496, "lon": 9.743506, "tags": {"amenity": "cafe", "name": "Su Nuraghe"}}, {"type": "node", "id": 1574806989, "lat": 40.6213392, "lon": 9.7434201, "tags": {"amenity": "restaurant", "name": "Su Nuraghe"}}, {"type": "node", "id": 1574827515, "lat": 40.6148109, "lon": 9.751929, "tags": {"amenity": "restaurant", "internet_access": "wlan", "name": "Ristorante Bar La Nuova Torre", "name:de": "Ristorante Bar La Nuova Torre", "name:it": "Ristorante Bar La Nuova Torre", "website": "https://lanuovatorre.wixsite.com/ristorante"}}, {"type": "node", "id": 1574827531, "lat": 40.6190611, "lon": 9.74737, "tags": {"amenity": "cafe"}}, {"type": "node", "id": 1574853395, "lat": 40.6194215, "lon": 9.7335029, "tags": {"amenity": "restaurant", "cuisine": "regional", "name": "Ristorante hotel Corallo"}}, {"type": "node", "id": 1574863286, "lat": 40.6200568, "lon": 9.7442688, "tags": {"addr:postcode": "08020", "amenity": "cafe", "cuisine": "ice_cream", "name": "Bar Gelateria La Fragola"}}, {"type": "node", "id": 1574967095, "lat": 40.6081207, "lon": 9.7490372, "tags": {"amenity": "cafe", "name": "Oceania", "wheelchair": "yes"}}, {"type": "node", "id": 1575038933, "lat": 40.6326994, "lon": 9.7147062, "tags": {"amenity": "cafe", "name": "Bar Tabacchi"}}, {"type": "node", "id": 1588626246, "lat": 40.576274, "lon": 9.6934605, "tags": {"addr:city": "Siniscola", "addr:country": "IT", "addr:housenumber": "4", "addr:postcode": "08029", "addr:street": "Via Antonio Gramsci", "amenity": "cafe", "name": "Bar Cagliari", "operator": "Tatiana Bellu"}}, {"type": "node", "id": 1589502155, "lat": 40.7018784, "lon": 9.6976447, "tags": {"amenity": "cafe"}}, {"type": "node", "id": 1589505485, "lat": 40.7050308, "lon": 9.7032573, "tags": {"amenity": "restaurant", "cuisine": "pizza", "name": "Pizzeria La Margherita 2", "toilets:wheelchair": "no", "wheelchair": "limited"}}, {"type": "node", "id": 1589508419, "lat": 40.7086209, "lon": 9.7000051, "tags": {"amenity": "cafe", "name": "Mary Caf\u00e9"}}, {"type": "node", "id": 1589586862, "lat": 40.8733994, "lon": 9.631083, "tags": {"addr:city": "Porto San Paolo", "addr:postcode": "07020", "amenity": "restaurant", "name": "La Conchiglia"}}, {"type": "node", "id": 1609789959, "lat": 40.5812047, "lon": 9.7777612, "tags": {"addr:city": "Siniscola", "addr:housenumber": "15", "addr:postcode": "08029", "addr:street": "Via Giovanni Caboto", "amenity": "restaurant", "capacity": "50", "cuisine": "regional", "email": "giovannicadoni@gmail.com", "name": "Trattoria Mamma Mia", "opening_hours": "Mo-Su 10:30-15:00,17:00-00:00", "phone": "+39 0784 819134", "website": "http://www.trattoriamammamia.com/"}}, {"type": "node", "id": 1609792234, "lat": 40.6081737, "lon": 9.7489082, "tags": {"addr:city": "La Caletta", "addr:housenumber": "10", "addr:postcode": "08029", "addr:street": "Via Livorno", "amenity": "restaurant", "cuisine": "pizza", "diet:vegan": "no", "diet:vegetarian": "yes", "name": "Da Bastiano Pizza", "opening_hours": "Mo-Su 18:30-23:00", "phone": "+390784810476", "website": "https://pizzeriadabastiano.wixsite.com/dabastiano", "wheelchair": "limited"}}, {"type": "node", "id": 1609792829, "lat": 40.6090641, "lon": 9.7511308, "tags": {"addr:city": "La Caletta", "addr:housenumber": "13", "addr:postcode": "08029", "addr:street": "Via Nazario Sauro", "amenity": "restaurant", "cuisine": "seafood", "email": "info@meloniefresu.com", "name": "Meloni & Fresu", "opening_hours": "Mo-Su 12:00-15:00, 19:00-23:00", "phone": "+393494996188", "website": "https://www.meloniefresu.com/", "wheelchair": "yes"}}, {"type": "node", "id": 1611179871, "lat": 40.576799, "lon": 9.6937708, "tags": {"amenity": "cafe", "name": "Bar Fronteddu"}}, {"type": "node", "id": 1611197318, "lat": 40.5725608, "lon": 9.6894609, "tags": {"amenity": "cafe", "name": "Barcollo"}}, {"type": "node", "id": 1612494977, "lat": 40.5746758, "lon": 9.6926777, "tags": {"amenity": "cafe", "name": "Bar Pallino"}}, {"type": "node", "id": 1613783312, "lat": 40.7403713, "lon": 9.7082231, "tags": {"amenity": "restaurant", "name": "La Rosa dei Venti"}}, {"type": "node", "id": 1613783320, "lat": 40.7401985, "lon": 9.7079253, "tags": {"amenity": "cafe", "name": "Il Gabbiano"}}, {"type": "node", "id": 1666962563, "lat": 40.5346641, "lon": 9.817594}, {"type": "node", "id": 1666962787, "lat": 40.5347189, "lon": 9.8174557}, {"type": "node", "id": 1666962913, "lat": 40.5344837, "lon": 9.8174703}, {"type": "node", "id": 1671399957, "lat": 40.5777554, "lon": 9.6993763, "tags": {"addr:housenumber": "20", "addr:street": "Via Silvio Pellico", "amenity": "cafe", "name": "Bar delle poste"}}, {"type": "node", "id": 1685277198, "lat": 40.5837757, "lon": 9.7583869, "tags": {"addr:city": "Siniscola", "addr:housenumber": "3", "addr:postcode": "08029", "addr:street": "SP3", "amenity": "restaurant", "cuisine": "pizza", "email": "karamare2020@gmail.com", "name": "Karamare", "payment:cash": "yes", "payment:credit_cards": "yes", "phone": "+390784819103"}}, {"type": "node", "id": 1723242880, "lat": 40.7056022, "lon": 9.7008486, "tags": {"amenity": "restaurant", "cuisine": "italian", "name": "Trattoria Su Gustu"}}, {"type": "node", "id": 1723242881, "lat": 40.7027982, "lon": 9.6888457, "tags": {"addr:city": "Luttuni", "addr:postcode": "08020", "addr:street": "Via Roma", "amenity": "restaurant", "contact:facebook": "https://it-it.facebook.com/Agriturismo-Sorres-2075771856033629/", "cuisine": "regional", "name": "Agriturismo Sorres", "phone": "+393495673926"}}, {"type": "node", "id": 1723282922, "lat": 40.7101241, "lon": 9.697107, "tags": {"amenity": "restaurant", "cuisine": "italian", "name": "Trattoria La Bruschetta"}}, {"type": "node", "id": 1723301000, "lat": 40.7047503, "lon": 9.7103678, "tags": {"amenity": "restaurant", "cuisine": "italian", "name": "Ristorante Il Terramare"}}, {"type": "node", "id": 1723321571, "lat": 40.7306356, "lon": 9.6999474, "tags": {"amenity": "restaurant", "cuisine": "italian", "name": "Il Bacio"}}, {"type": "node", "id": 1723321574, "lat": 40.7438508, "lon": 9.7018392, "tags": {"amenity": "restaurant", "cuisine": "italian"}}, {"type": "node", "id": 1723321585, "lat": 40.7368407, "lon": 9.7110464, "tags": {"amenity": "restaurant", "cuisine": "italian", "name": "Il Lido"}}, {"type": "node", "id": 1723321593, "lat": 40.7286681, "lon": 9.6979492, "tags": {"amenity": "restaurant", "cuisine": "italian", "name": "La Maggiorana"}}, {"type": "node", "id": 1723336936, "lat": 40.700106, "lon": 9.7213407, "tags": {"amenity": "restaurant", "cuisine": "italian", "name": "Sa Capannizza"}}, {"type": "node", "id": 1723336943, "lat": 40.6794183, "lon": 9.6794552, "tags": {"amenity": "restaurant", "contact:facebook": "https://www.facebook.com/Agriturismo-Muru-Idda-78278954631/", "contact:phone": "338 52 57 502", "cuisine": "regional", "name": "Agriturismo Muru Idda"}}, {"type": "node", "id": 1723336953, "lat": 40.6919024, "lon": 9.7092386, "tags": {"amenity": "restaurant", "cuisine": "italian", "name": "La Perla"}}, {"type": "node", "id": 1723352490, "lat": 40.7031005, "lon": 9.7081778, "tags": {"amenity": "restaurant", "name": "Il Giardinetto"}}, {"type": "node", "id": 1723352495, "lat": 40.7035465, "lon": 9.7067307, "tags": {"amenity": "cafe", "name": "S'Incontru"}}, {"type": "node", "id": 1723352497, "lat": 40.7037316, "lon": 9.7060414, "tags": {"amenity": "cafe", "name": "Road House", "toilets:wheelchair": "no", "wheelchair": "limited", "wheelchair:description": "Dauert lange!"}}, {"type": "node", "id": 1723370193, "lat": 40.7080809, "lon": 9.7000951, "tags": {"amenity": "cafe"}}, {"type": "node", "id": 1723370209, "lat": 40.7065214, "lon": 9.7017205, "tags": {"amenity": "cafe", "wheelchair": "limited"}}, {"type": "node", "id": 1723370210, "lat": 40.7068283, "lon": 9.7012376, "tags": {"amenity": "cafe"}}, {"type": "node", "id": 1723370218, "lat": 40.7055494, "lon": 9.7031231, "tags": {"amenity": "restaurant", "cuisine": "italian", "name": "Il Portico", "wheelchair": "limited"}}, {"type": "node", "id": 1723370222, "lat": 40.7062529, "lon": 9.7022836, "tags": {"amenity": "restaurant"}}, {"type": "node", "id": 1723370225, "lat": 40.7062834, "lon": 9.701884, "tags": {"amenity": "cafe", "name": "Bar Sport"}}, {"type": "node", "id": 1723386450, "lat": 40.7092763, "lon": 9.698963, "tags": {"addr:city": "Budoni", "addr:postcode": "08020", "addr:street": "Via Nazionale", "amenity": "restaurant", "cuisine": "italian", "name": "Isola dei Nuraghi", "opening_hours": "Mo-Su 09:00-23:30", "phone": "+39 0784 844008"}}, {"type": "node", "id": 1723386457, "lat": 40.7096951, "lon": 9.699022, "tags": {"amenity": "cafe", "name": "Antica Caffetteria"}}, {"type": "node", "id": 1723386460, "lat": 40.7094288, "lon": 9.698845, "tags": {"amenity": "cafe", "name": "Central Bar"}}, {"type": "node", "id": 1723404766, "lat": 40.7073081, "lon": 9.7013287, "tags": {"amenity": "cafe", "name": "Zeus Caf\u00e8"}}, {"type": "node", "id": 1723406664, "lat": 40.718711, "lon": 9.6831634, "tags": {"addr:city": "Budoni", "addr:housenumber": "1", "addr:postcode": "08020", "addr:street": "Via San Teodoro", "amenity": "restaurant", "cuisine": "pizza;sardinian", "name": "Ristorante-Pizzeria SYMPOSIUM", "opening_hours": "Mo-Su 00:00-01:00,12:00-15:30,19:00-00:00", "phone": "+39 0784 844436", "website": "https://www.ristorantesymposiumbudoni.it/"}}, {"type": "node", "id": 1723429196, "lat": 40.7056698, "lon": 9.7029182, "tags": {"amenity": "cafe"}}, {"type": "node", "id": 1725737308, "lat": 40.7101263, "lon": 9.6970348, "tags": {"amenity": "cafe"}}, {"type": "node", "id": 1725764381, "lat": 40.7161014, "lon": 9.7000763, "tags": {"amenity": "restaurant"}}, {"type": "node", "id": 1735308425, "lat": 40.4699318, "lon": 9.485614, "tags": {"amenity": "cafe"}}, {"type": "node", "id": 1735308426, "lat": 40.4701646, "lon": 9.4858331, "tags": {"amenity": "cafe"}}, {"type": "node", "id": 1735308427, "lat": 40.4702794, "lon": 9.4842894, "tags": {"amenity": "cafe"}}, {"type": "node", "id": 1798414744, "lat": 40.5814988, "lon": 9.77542, "tags": {"addr:city": "Siniscola", "addr:housenumber": "14", "addr:postcode": "08029", "addr:street": "Via del Vecchio Porto", "amenity": "restaurant", "name": "La spiaggia delle barche", "opening_hours": "Mo-Su 12:30-15:00,18:30-23:00"}}, {"type": "node", "id": 1865202006, "lat": 40.6326655, "lon": 9.715181, "tags": {"amenity": "cafe", "cuisine": "breakfast;burger;coffee_shop;sandwich"}}, {"type": "node", "id": 1865202008, "lat": 40.6296164, "lon": 9.7148045, "tags": {"amenity": "cafe", "name": "Bar Millennium"}}, {"type": "node", "id": 1865774424, "lat": 40.6083522, "lon": 9.74876, "tags": {"addr:city": "La Caletta", "addr:housenumber": "16", "addr:postcode": "08029", "addr:street": "Via Livorno", "amenity": "cafe", "name": "Nordovest 30", "outdoor_seating": "yes"}}, {"type": "node", "id": 1908141045, "lat": 40.6327081, "lon": 9.7145789, "tags": {"amenity": "cafe", "name": "Zanzibar Caff\u00e8"}}, {"type": "node", "id": 1919732770, "lat": 40.6238366, "lon": 9.6967153}, {"type": "node", "id": 1919732771, "lat": 40.6238501, "lon": 9.6969348}, {"type": "node", "id": 1919732772, "lat": 40.6238564, "lon": 9.6966248}, {"type": "node", "id": 1919732773, "lat": 40.6238767, "lon": 9.696987}, {"type": "node", "id": 1919732774, "lat": 40.6238887, "lon": 9.6967428}, {"type": "node", "id": 1919732775, "lat": 40.6238887, "lon": 9.6967764}, {"type": "node", "id": 1919732776, "lat": 40.6239064, "lon": 9.6968511}, {"type": "node", "id": 1919732777, "lat": 40.6239256, "lon": 9.6966557}, {"type": "node", "id": 1919732778, "lat": 40.6239293, "lon": 9.6967915}, {"type": "node", "id": 1919732779, "lat": 40.6239532, "lon": 9.6965555}, {"type": "node", "id": 1919732780, "lat": 40.6239709, "lon": 9.6969431}, {"type": "node", "id": 1919732781, "lat": 40.6239808, "lon": 9.6964794}, {"type": "node", "id": 1919732782, "lat": 40.6239902, "lon": 9.6965884}, {"type": "node", "id": 1919732783, "lat": 40.6239933, "lon": 9.696572}, {"type": "node", "id": 1919732784, "lat": 40.6239975, "lon": 9.6965473}, {"type": "node", "id": 1919732785, "lat": 40.6240053, "lon": 9.6965356}, {"type": "node", "id": 1919732786, "lat": 40.6240157, "lon": 9.6968827}, {"type": "node", "id": 1919732787, "lat": 40.6240324, "lon": 9.696432}, {"type": "node", "id": 1919732788, "lat": 40.6240469, "lon": 9.6965919}, {"type": "node", "id": 1919732789, "lat": 40.6240553, "lon": 9.696622}, {"type": "node", "id": 1919732791, "lat": 40.624061, "lon": 9.6965912}, {"type": "node", "id": 1919732792, "lat": 40.6240667, "lon": 9.6964711}, {"type": "node", "id": 1919732793, "lat": 40.6240777, "lon": 9.6966282}, {"type": "node", "id": 1919732794, "lat": 40.6240787, "lon": 9.6967606}, {"type": "node", "id": 1919732795, "lat": 40.6240797, "lon": 9.6965891}, {"type": "node", "id": 1919732796, "lat": 40.6240907, "lon": 9.6967448}, {"type": "node", "id": 1919732797, "lat": 40.6240964, "lon": 9.6968738}, {"type": "node", "id": 1919732798, "lat": 40.6241006, "lon": 9.6965891}, {"type": "node", "id": 1919732799, "lat": 40.6241141, "lon": 9.6968175}, {"type": "node", "id": 1919732800, "lat": 40.6241261, "lon": 9.6967421}, {"type": "node", "id": 1919732801, "lat": 40.6241282, "lon": 9.6966275}, {"type": "node", "id": 1919732802, "lat": 40.62415, "lon": 9.6967222}, {"type": "node", "id": 1921612037, "lat": 40.6303754, "lon": 9.7155383, "tags": {"addr:housenumber": "2", "addr:postcode": "08020", "addr:street": "Via Antonio Gramsci", "amenity": "cafe", "cuisine": "breakfast;coffee_shop;ice_cream", "name": "Blu Day"}}, {"type": "node", "id": 1921668994, "lat": 40.6400246, "lon": 9.7281608, "tags": {"amenity": "restaurant", "cuisine": "regional", "name": "Agriturismo Sa Turre", "phone": "+39 347 4605075"}}, {"type": "node", "id": 1924837868, "lat": 40.6337483, "lon": 9.71951, "tags": {"amenity": "restaurant", "cuisine": "regional", "name": "Carpe Diem", "phone": "+39 0784 854127"}}, {"type": "node", "id": 1941361327, "lat": 40.6292956, "lon": 9.7397799, "tags": {"amenity": "restaurant", "cuisine": "regional", "name": "Sa Tir\u00eca", "phone": "+39 0784 854154"}}, {"type": "node", "id": 2193193491, "lat": 40.5701235, "lon": 9.6989404, "tags": {"addr:street": "Via Giotto", "amenity": "cafe", "name": "Cocktail Caf\u00e8"}}, {"type": "node", "id": 2320503097, "lat": 40.607468, "lon": 9.7479502, "tags": {"addr:city": "La Caletta", "addr:housenumber": "90", "addr:postcode": "08029", "addr:street": "Via Nazario Sauro", "amenity": "restaurant", "cuisine": "pizza;italian", "facebook": "https://m.facebook.com/lacaletta90/?locale2=it_IT", "name": "L'Ostrica", "phone": "+390784810286", "wheelchair": "yes"}}, {"type": "node", "id": 2430956882, "lat": 40.8217568, "lon": 9.6766443}, {"type": "node", "id": 2430956886, "lat": 40.8216888, "lon": 9.6765497}, {"type": "node", "id": 2430956888, "lat": 40.8217602, "lon": 9.6765527}, {"type": "node", "id": 2430956890, "lat": 40.8216865, "lon": 9.676638}, {"type": "node", "id": 2432634115, "lat": 40.7708089, "lon": 9.6714079, "tags": {"alt_name": "Malu", "amenity": "cafe", "cuisine": "sandwich", "name": "Mal\u00f9"}}, {"type": "node", "id": 2432634117, "lat": 40.7706421, "lon": 9.6721825, "tags": {"amenity": "restaurant", "cuisine": "pizza", "name": "Da Nardino", "opening_hours": "Mo-Su 12:30-15:00,19:00-24:00", "payment:cash": "yes", "payment:mastercard": "yes", "payment:visa": "yes", "website": "https://www.nardino.com/"}}, {"type": "node", "id": 2432634121, "lat": 40.7706589, "lon": 9.671413, "tags": {"amenity": "restaurant", "cuisine": "pizza", "name": "Da Fabio"}}, {"type": "node", "id": 2432634123, "lat": 40.7709378, "lon": 9.6714395, "tags": {"amenity": "cafe", "name": "Alto Gusto"}}, {"type": "node", "id": 2437079923, "lat": 40.7073195, "lon": 9.7151595}, {"type": "node", "id": 2437079932, "lat": 40.7071541, "lon": 9.7150617}, {"type": "node", "id": 2437079933, "lat": 40.7060001, "lon": 9.716365}, {"type": "node", "id": 2437079935, "lat": 40.7059738, "lon": 9.7162817}, {"type": "node", "id": 2437079936, "lat": 40.7073546, "lon": 9.7151449}, {"type": "node", "id": 2437079950, "lat": 40.7073259, "lon": 9.7151866}, {"type": "node", "id": 2437079952, "lat": 40.7058642, "lon": 9.7164393}, {"type": "node", "id": 2437079967, "lat": 40.7073184, "lon": 9.7149934}, {"type": "node", "id": 2437079970, "lat": 40.7071968, "lon": 9.7152403}, {"type": "node", "id": 2437079974, "lat": 40.7058391, "lon": 9.7163537}, {"type": "node", "id": 2438057520, "lat": 40.7711916, "lon": 9.6715203}, {"type": "node", "id": 2438057522, "lat": 40.7712291, "lon": 9.6713124}, {"type": "node", "id": 2438057526, "lat": 40.7710387, "lon": 9.6714723}, {"type": "node", "id": 2438057534, "lat": 40.7710763, "lon": 9.6712644}, {"type": "node", "id": 2441779201, "lat": 40.8219918, "lon": 9.6765109, "tags": {"amenity": "restaurant"}}, {"type": "node", "id": 2442367178, "lat": 40.8217597, "lon": 9.6765666}, {"type": "node", "id": 2485700133, "lat": 40.8410885, "lon": 9.6534191, "tags": {"addr:city": "San Teodoro", "addr:country": "IT", "addr:place": "Monte Petrosu", "amenity": "restaurant", "cuisine": "pizza", "name": "L'Ea Cana", "phone": "+39 0784835269"}}, {"type": "node", "id": 2485700134, "lat": 40.8410196, "lon": 9.6535488, "tags": {"amenity": "cafe", "name": "Filigheddu Tomaso", "phone": "+39 0784 835089"}}, {"type": "node", "id": 2485700135, "lat": 40.8411275, "lon": 9.6541812, "tags": {"amenity": "restaurant", "cuisine": "italian", "name": "La Rosticerria"}}, {"type": "node", "id": 2544163331, "lat": 40.4857955, "lon": 9.4419934, "tags": {"amenity": "cafe", "name": "Bar Antonella"}}, {"type": "node", "id": 2544215195, "lat": 40.4846021, "lon": 9.4409165, "tags": {"amenity": "cafe", "name": "Bar Edicola Sanguinetti"}}, {"type": "node", "id": 2546834750, "lat": 40.5361171, "lon": 9.6500587}, {"type": "node", "id": 2546834756, "lat": 40.5361895, "lon": 9.6499868}, {"type": "node", "id": 2546834760, "lat": 40.5362219, "lon": 9.6502414}, {"type": "node", "id": 2546834763, "lat": 40.5362943, "lon": 9.6501694}, {"type": "node", "id": 2759882688, "lat": 40.6098703, "lon": 9.751463, "tags": {"amenity": "cafe", "name": "Bar Del Porto", "wheelchair": "limited"}}, {"type": "node", "id": 2811910057, "lat": 40.4881247, "lon": 9.6643523}, {"type": "node", "id": 2811910058, "lat": 40.4881482, "lon": 9.6641814}, {"type": "node", "id": 2811910059, "lat": 40.4882112, "lon": 9.6641983}, {"type": "node", "id": 2811910060, "lat": 40.4882204, "lon": 9.6641571}, {"type": "node", "id": 2811910061, "lat": 40.4882739, "lon": 9.6642535}, {"type": "node", "id": 2811910062, "lat": 40.4882879, "lon": 9.6641754}, {"type": "node", "id": 2811910063, "lat": 40.4883811, "lon": 9.6644168}, {"type": "node", "id": 2811910064, "lat": 40.4883999, "lon": 9.6642857}, {"type": "node", "id": 2812334901, "lat": 40.8449985, "lon": 9.6476449}, {"type": "node", "id": 2812334923, "lat": 40.8450771, "lon": 9.6477604}, {"type": "node", "id": 2812334931, "lat": 40.8451233, "lon": 9.6474974}, {"type": "node", "id": 2812334944, "lat": 40.8452028, "lon": 9.6476118}, {"type": "node", "id": 2812336846, "lat": 40.8554794, "lon": 9.6575199}, {"type": "node", "id": 2812336851, "lat": 40.8555024, "lon": 9.6576246}, {"type": "node", "id": 2812336854, "lat": 40.8555603, "lon": 9.6575058}, {"type": "node", "id": 2812336856, "lat": 40.8555786, "lon": 9.6575985}, {"type": "node", "id": 2812337565, "lat": 40.8597507, "lon": 9.6528942}, {"type": "node", "id": 2812337570, "lat": 40.8597807, "lon": 9.6529589}, {"type": "node", "id": 2812337589, "lat": 40.8599108, "lon": 9.6527649}, {"type": "node", "id": 2812337594, "lat": 40.859941, "lon": 9.6528296}, {"type": "node", "id": 2812337666, "lat": 40.8605188, "lon": 9.65212}, {"type": "node", "id": 2812337670, "lat": 40.8605587, "lon": 9.6522754}, {"type": "node", "id": 2812337673, "lat": 40.8605868, "lon": 9.6521028}, {"type": "node", "id": 2812337678, "lat": 40.8606223, "lon": 9.6522343}, {"type": "node", "id": 2812342728, "lat": 40.8797733, "lon": 9.6359481}, {"type": "node", "id": 2812342732, "lat": 40.8797959, "lon": 9.6360092}, {"type": "node", "id": 2812342734, "lat": 40.8798181, "lon": 9.6358905}, {"type": "node", "id": 2812342739, "lat": 40.8798705, "lon": 9.6358488}, {"type": "node", "id": 2812342744, "lat": 40.8799294, "lon": 9.6359552}, {"type": "node", "id": 2818276613, "lat": 40.8077742, "lon": 9.4556609}, {"type": "node", "id": 2818276615, "lat": 40.8078057, "lon": 9.4556279}, {"type": "node", "id": 2818276616, "lat": 40.8078081, "lon": 9.4558116}, {"type": "node", "id": 2818276617, "lat": 40.8078106, "lon": 9.4556444}, {"type": "node", "id": 2818276620, "lat": 40.807845, "lon": 9.455612}, {"type": "node", "id": 2818276622, "lat": 40.8078656, "lon": 9.4556922}, {"type": "node", "id": 2818276625, "lat": 40.8078822, "lon": 9.4557755}, {"type": "node", "id": 2818276627, "lat": 40.8079403, "lon": 9.4557362}, {"type": "node", "id": 2818276628, "lat": 40.8079475, "lon": 9.4556529}, {"type": "node", "id": 2818276629, "lat": 40.8079478, "lon": 9.4560311}, {"type": "node", "id": 2818276631, "lat": 40.8079648, "lon": 9.4557228}, {"type": "node", "id": 2818276632, "lat": 40.8079668, "lon": 9.4558174}, {"type": "node", "id": 2818276637, "lat": 40.8080315, "lon": 9.4557287}, {"type": "node", "id": 2818276639, "lat": 40.8080443, "lon": 9.4557786}, {"type": "node", "id": 2818276641, "lat": 40.8080708, "lon": 9.4557147}, {"type": "node", "id": 2818276642, "lat": 40.8080731, "lon": 9.4558587}, {"type": "node", "id": 2818276646, "lat": 40.8080989, "lon": 9.4559615}, {"type": "node", "id": 2818276647, "lat": 40.8081034, "lon": 9.4558468}, {"type": "node", "id": 2818286325, "lat": 40.8799742, "lon": 9.6016044}, {"type": "node", "id": 2818286327, "lat": 40.8799747, "lon": 9.6016421}, {"type": "node", "id": 2818286331, "lat": 40.8799827, "lon": 9.6016046}, {"type": "node", "id": 2818286333, "lat": 40.8799854, "lon": 9.6014936}, {"type": "node", "id": 2818286335, "lat": 40.879988, "lon": 9.6016627}, {"type": "node", "id": 2818286340, "lat": 40.8799965, "lon": 9.6014839}, {"type": "node", "id": 2818286342, "lat": 40.88, "lon": 9.6016397}, {"type": "node", "id": 2818286350, "lat": 40.8800149, "lon": 9.601487}, {"type": "node", "id": 2818286354, "lat": 40.8800256, "lon": 9.6014958}, {"type": "node", "id": 2818286362, "lat": 40.8800347, "lon": 9.6016645}, {"type": "node", "id": 2818286365, "lat": 40.8800368, "lon": 9.6014964}, {"type": "node", "id": 2818286368, "lat": 40.8800348, "lon": 9.601776}, {"type": "node", "id": 2818286371, "lat": 40.8800468, "lon": 9.6014853}, {"type": "node", "id": 2818286378, "lat": 40.8800557, "lon": 9.6017897}, {"type": "node", "id": 2818286385, "lat": 40.8800673, "lon": 9.60149}, {"type": "node", "id": 2818286386, "lat": 40.8800677, "lon": 9.601606}, {"type": "node", "id": 2818286387, "lat": 40.8800683, "lon": 9.6015854}, {"type": "node", "id": 2818286388, "lat": 40.8800685, "lon": 9.6016302}, {"type": "node", "id": 2818286389, "lat": 40.8800694, "lon": 9.6016081}, {"type": "node", "id": 2818286393, "lat": 40.8800767, "lon": 9.6015848}, {"type": "node", "id": 2818286395, "lat": 40.8800828, "lon": 9.6017815}, {"type": "node", "id": 2818286397, "lat": 40.8800866, "lon": 9.601506}, {"type": "node", "id": 2818286400, "lat": 40.8800924, "lon": 9.6015632}, {"type": "node", "id": 2818286402, "lat": 40.880096, "lon": 9.6015311}, {"type": "node", "id": 2818286404, "lat": 40.8801108, "lon": 9.6016802}, {"type": "node", "id": 2818286405, "lat": 40.8801127, "lon": 9.6017377}, {"type": "node", "id": 2835773961, "lat": 40.7711945, "lon": 9.55588}, {"type": "node", "id": 2835773962, "lat": 40.7713099, "lon": 9.555582}, {"type": "node", "id": 2835773968, "lat": 40.7712624, "lon": 9.5559281}, {"type": "node", "id": 2835773970, "lat": 40.7713782, "lon": 9.5556289}, {"type": "node", "id": 2835902052, "lat": 40.7591623, "lon": 9.680937}, {"type": "node", "id": 2835902054, "lat": 40.7591889, "lon": 9.6807524}, {"type": "node", "id": 2835902067, "lat": 40.7592271, "lon": 9.6809738}, {"type": "node", "id": 2835902069, "lat": 40.7592299, "lon": 9.680959}, {"type": "node", "id": 2835902074, "lat": 40.7592758, "lon": 9.680919}, {"type": "node", "id": 2835902077, "lat": 40.7592797, "lon": 9.6808863}, {"type": "node", "id": 2835902078, "lat": 40.7592854, "lon": 9.6809883}, {"type": "node", "id": 2835902080, "lat": 40.7592948, "lon": 9.6809228}, {"type": "node", "id": 2835902082, "lat": 40.7593093, "lon": 9.6807702}, {"type": "node", "id": 2835902086, "lat": 40.7593261, "lon": 9.6807375}, {"type": "node", "id": 2835902090, "lat": 40.7593382, "lon": 9.6807421}, {"type": "node", "id": 2835902093, "lat": 40.7593562, "lon": 9.6808984}, {"type": "node", "id": 2835902095, "lat": 40.7593868, "lon": 9.6806261}, {"type": "node", "id": 2835902099, "lat": 40.7594159, "lon": 9.6807662}, {"type": "node", "id": 2835902210, "lat": 40.7594429, "lon": 9.6807831}, {"type": "node", "id": 2835902226, "lat": 40.7594805, "lon": 9.6806967}, {"type": "node", "id": 2835914933, "lat": 40.7699207, "lon": 9.6824547}, {"type": "node", "id": 2835914975, "lat": 40.769959, "lon": 9.6824717}, {"type": "node", "id": 2835915115, "lat": 40.7699882, "lon": 9.6824474}, {"type": "node", "id": 2835915183, "lat": 40.7700303, "lon": 9.6824568}, {"type": "node", "id": 2835923834, "lat": 40.7723784, "lon": 9.6658479}, {"type": "node", "id": 2835923842, "lat": 40.7723821, "lon": 9.665933}, {"type": "node", "id": 2835924204, "lat": 40.7724144, "lon": 9.6657517}, {"type": "node", "id": 2835924209, "lat": 40.7724185, "lon": 9.6658449}, {"type": "node", "id": 2835924512, "lat": 40.7724833, "lon": 9.6658675}, {"type": "node", "id": 2835924516, "lat": 40.7724858, "lon": 9.6659251}, {"type": "node", "id": 2835924524, "lat": 40.7725647, "lon": 9.6657403}, {"type": "node", "id": 2835924534, "lat": 40.77257, "lon": 9.6658609}, {"type": "node", "id": 2836066945, "lat": 40.6533768, "lon": 9.3063018}, {"type": "node", "id": 2836066960, "lat": 40.6534256, "lon": 9.3063385}, {"type": "node", "id": 2836066967, "lat": 40.6534924, "lon": 9.3063016}, {"type": "node", "id": 2836066980, "lat": 40.6534923, "lon": 9.3066345}, {"type": "node", "id": 2836066983, "lat": 40.6535082, "lon": 9.3063541}, {"type": "node", "id": 2836067000, "lat": 40.6535892, "lon": 9.3065874}, {"type": "node", "id": 2842717337, "lat": 40.6875469, "lon": 9.7278031}, {"type": "node", "id": 2842717338, "lat": 40.6875496, "lon": 9.727715}, {"type": "node", "id": 2842717360, "lat": 40.6875857, "lon": 9.7277175}, {"type": "node", "id": 2842717366, "lat": 40.6875982, "lon": 9.7278021}, {"type": "node", "id": 2842717379, "lat": 40.6876114, "lon": 9.727854}, {"type": "node", "id": 2842717392, "lat": 40.687624, "lon": 9.7278076}, {"type": "node", "id": 2842717416, "lat": 40.687652, "lon": 9.727745}, {"type": "node", "id": 2842717423, "lat": 40.6876653, "lon": 9.7278791}, {"type": "node", "id": 2842717430, "lat": 40.6876698, "lon": 9.7278194}, {"type": "node", "id": 2842717444, "lat": 40.6876802, "lon": 9.7278242}, {"type": "node", "id": 2842717448, "lat": 40.6876845, "lon": 9.7277656}, {"type": "node", "id": 2842741048, "lat": 40.6920879, "lon": 9.7382635}, {"type": "node", "id": 2842741049, "lat": 40.6920885, "lon": 9.7383319}, {"type": "node", "id": 2842741067, "lat": 40.6921127, "lon": 9.7382908}, {"type": "node", "id": 2842741088, "lat": 40.6921319, "lon": 9.7384696}, {"type": "node", "id": 2842741099, "lat": 40.6921434, "lon": 9.7382388}, {"type": "node", "id": 2842741479, "lat": 40.6918342, "lon": 9.7384552}, {"type": "node", "id": 2842742306, "lat": 40.6919764, "lon": 9.7382203}, {"type": "node", "id": 2842742317, "lat": 40.6919327, "lon": 9.7382912}, {"type": "node", "id": 2842742330, "lat": 40.6919521, "lon": 9.7385741}, {"type": "node", "id": 2842742804, "lat": 40.6920185, "lon": 9.738107}, {"type": "node", "id": 2842742810, "lat": 40.6920253, "lon": 9.7386451}, {"type": "node", "id": 2842742847, "lat": 40.6920553, "lon": 9.738388}, {"type": "node", "id": 2842742855, "lat": 40.6920619, "lon": 9.7383037}, {"type": "node", "id": 2842752624, "lat": 40.6974426, "lon": 9.7251044}, {"type": "node", "id": 2842752627, "lat": 40.6974491, "lon": 9.7252196}, {"type": "node", "id": 2842752630, "lat": 40.6974537, "lon": 9.7252974}, {"type": "node", "id": 2842752633, "lat": 40.6974598, "lon": 9.7252158}, {"type": "node", "id": 2842752637, "lat": 40.6974642, "lon": 9.7252937}, {"type": "node", "id": 2842752638, "lat": 40.6974661, "lon": 9.7253581}, {"type": "node", "id": 2842752653, "lat": 40.6974987, "lon": 9.7250924}, {"type": "node", "id": 2842752658, "lat": 40.6975041, "lon": 9.7253448}, {"type": "node", "id": 2842752662, "lat": 40.6975101, "lon": 9.7252003}, {"type": "node", "id": 2842752663, "lat": 40.6975104, "lon": 9.725376}, {"type": "node", "id": 2842752667, "lat": 40.697517, "lon": 9.7252386}, {"type": "node", "id": 2842752669, "lat": 40.6975202, "lon": 9.7251967}, {"type": "node", "id": 2842752680, "lat": 40.6975413, "lon": 9.7252701}, {"type": "node", "id": 2842752684, "lat": 40.6975593, "lon": 9.7253588}, {"type": "node", "id": 2842769899, "lat": 40.703483, "lon": 9.6516153}, {"type": "node", "id": 2842770209, "lat": 40.7035029, "lon": 9.6515267}, {"type": "node", "id": 2842770256, "lat": 40.7035649, "lon": 9.6517146}, {"type": "node", "id": 2842770268, "lat": 40.7036092, "lon": 9.6515804}, {"type": "node", "id": 2842781864, "lat": 40.7072313, "lon": 9.7152259}, {"type": "node", "id": 2854324014, "lat": 40.5759756, "lon": 9.7462329}, {"type": "node", "id": 2854324018, "lat": 40.5759572, "lon": 9.7461285}, {"type": "node", "id": 2854324096, "lat": 40.5760944, "lon": 9.7460774}, {"type": "node", "id": 2854324098, "lat": 40.5761172, "lon": 9.7461804}, {"type": "node", "id": 2854327370, "lat": 40.5915869, "lon": 9.6910566}, {"type": "node", "id": 2854327373, "lat": 40.5915494, "lon": 9.6907373}, {"type": "node", "id": 2854327378, "lat": 40.5916093, "lon": 9.6910492}, {"type": "node", "id": 2854327380, "lat": 40.5916078, "lon": 9.691165}, {"type": "node", "id": 2854327398, "lat": 40.5916408, "lon": 9.6907068}, {"type": "node", "id": 2854328092, "lat": 40.5868168, "lon": 9.7102522}, {"type": "node", "id": 2854328104, "lat": 40.586935, "lon": 9.7100861}, {"type": "node", "id": 2854328107, "lat": 40.5869329, "lon": 9.7103953}, {"type": "node", "id": 2854328121, "lat": 40.587051, "lon": 9.7102292}, {"type": "node", "id": 2854329003, "lat": 40.5917216, "lon": 9.6911271}, {"type": "node", "id": 2854331138, "lat": 40.6058589, "lon": 9.749652}, {"type": "node", "id": 2854331143, "lat": 40.6058668, "lon": 9.7494458}, {"type": "node", "id": 2854331178, "lat": 40.6060093, "lon": 9.749662}, {"type": "node", "id": 2854331183, "lat": 40.6060173, "lon": 9.7494559}, {"type": "node", "id": 2915882889, "lat": 40.5871479, "lon": 9.6232641, "tags": {"amenity": "restaurant", "check_date": "2024-06-11", "name": "Hotel Sant Anna"}}, {"type": "node", "id": 3285711650, "lat": 40.8471946, "lon": 9.6480024, "tags": {"amenity": "cafe", "name": "Elio's Bar"}}, {"type": "node", "id": 3285715273, "lat": 40.8475723, "lon": 9.6477803, "tags": {"amenity": "restaurant", "cuisine": "italian;pizza", "name": "Pizzeria La Tombola"}}, {"type": "node", "id": 3607288926, "lat": 40.7801968, "lon": 9.6709716, "tags": {"amenity": "restaurant", "cuisine": "italian", "name": "La Taverna degli Artisti", "phone": "+39 078 486 60 60", "website": "https://www.ristorantelatavenadegliartisti.it/"}}, {"type": "node", "id": 3671353815, "lat": 40.872585, "lon": 9.6310656, "tags": {"amenity": "restaurant", "cuisine": "italian", "name": "Il Veliero"}}, {"type": "node", "id": 3939397451, "lat": 40.636684, "lon": 9.7254167, "tags": {"amenity": "cafe"}}, {"type": "node", "id": 4170454570, "lat": 40.4757739, "lon": 9.3825236}, {"type": "node", "id": 4170454577, "lat": 40.4758046, "lon": 9.3824673}, {"type": "node", "id": 4170454590, "lat": 40.4758484, "lon": 9.3824767}, {"type": "node", "id": 4170454591, "lat": 40.4758494, "lon": 9.3825451}, {"type": "node", "id": 4198977689, "lat": 40.8606712, "lon": 9.6523086, "tags": {"amenity": "cafe", "contact:website": "https://ristoranteportotaverna.it/", "name": "Grill-Bar"}}, {"type": "node", "id": 4209791192, "lat": 40.7702331, "lon": 9.6705477, "tags": {"addr:housenumber": "5", "addr:street": "Via degli Asfodeli", "amenity": "restaurant", "name": "Il Re Borbone"}}, {"type": "node", "id": 4222362403, "lat": 40.6313991, "lon": 9.6937655}, {"type": "node", "id": 4222362412, "lat": 40.6313779, "lon": 9.6939167}, {"type": "node", "id": 4222362417, "lat": 40.6312586, "lon": 9.6941452}, {"type": "node", "id": 4222362425, "lat": 40.631382, "lon": 9.6941413}, {"type": "node", "id": 4222362427, "lat": 40.6314019, "lon": 9.6939159}, {"type": "node", "id": 4222362428, "lat": 40.6313033, "lon": 9.6937686}, {"type": "node", "id": 4222362430, "lat": 40.6313069, "lon": 9.6939636}, {"type": "node", "id": 4222435189, "lat": 40.6312553, "lon": 9.6939653}, {"type": "node", "id": 4330615996, "lat": 40.7095949, "lon": 9.6986321, "tags": {"addr:city": "Budoni", "addr:housenumber": "118", "addr:postcode": "08020", "addr:street": "Via Nazionale", "amenity": "restaurant", "cuisine": "regional", "name": "Ristorantino Lu Stazzu Di Matta Elisa", "phone": "+39 0784 844448"}}, {"type": "node", "id": 4332531982, "lat": 40.5816233, "lon": 9.7786591, "tags": {"addr:city": "Siniscola", "addr:housenumber": "1", "addr:postcode": "08029", "addr:street": "Piazza della Chiesa", "amenity": "cafe", "facebook": "https://www.facebook.com/BarLaTorreSantaLucia", "name": "Bar La Torre", "opening_hours": "Mo-Su 00:00-06:00,07:00-00:00", "phone": "+39 349 395 0732"}}, {"type": "node", "id": 4332531983, "lat": 40.5815445, "lon": 9.7768139, "tags": {"addr:city": "Siniscola", "addr:postcode": "08029", "addr:street": "Via Lungomare", "amenity": "restaurant", "cuisine": "regional", "email": "locandadelpescatore@gmail.com", "name": "La Locanda Del Pescatore", "opening_hours": "Jun-Sep 11:30-15:30,18:30-23:30; Mar-May Fr-Su 11:30-15:30,18:30-23:30; Oct Fr-Su 11:30-15:30,18:30-23:30", "phone": "+39 331 7577666", "website": "http://www.lalocandadelpescatore.com"}}, {"type": "node", "id": 4388019290, "lat": 40.595515, "lon": 9.7541768, "tags": {"amenity": "restaurant", "cuisine": "italian_pizza", "internet_access": "wlan", "name": "Graniro Beach Club", "name:de": "Graniro Beach Club", "name:it": "Graniro Beach Club", "opening_hours": "Mo-Su 10:00-21:00"}}, {"type": "node", "id": 4404096824, "lat": 40.7698914, "lon": 9.6691147, "tags": {"amenity": "restaurant", "name": "Lo Sfizio", "opening_hours": "Mo-Su 09:30-23:00", "payment:cash": "yes", "payment:mastercard": "yes", "payment:visa": "yes"}}, {"type": "node", "id": 4404848581, "lat": 40.8795278, "lon": 9.6358263, "tags": {"amenity": "cafe"}}, {"type": "node", "id": 4405048284, "lat": 40.7743973, "lon": 9.6703736, "tags": {"amenity": "restaurant"}}, {"type": "node", "id": 4407624695, "lat": 40.6097875, "lon": 9.7472115, "tags": {"addr:city": "La Caletta", "addr:housenumber": "67", "addr:postcode": "08029", "addr:street": "Via Livorno", "amenity": "restaurant", "cuisine": "italian;regional", "name": "Locanda Fuffuraju"}}, {"type": "node", "id": 4410446490, "lat": 40.8377913, "lon": 9.6879445, "tags": {"amenity": "cafe"}}, {"type": "node", "id": 4415387812, "lat": 40.7720958, "lon": 9.6708476, "tags": {"amenity": "cafe", "name": "Bar The Garden", "outdoor_seating": "yes"}}, {"type": "node", "id": 4424871121, "lat": 40.8383111, "lon": 9.5543173, "tags": {"addr:street": "Strada Statale 131 Diramazione Centrale Nuorese", "amenity": "cafe"}}, {"type": "node", "id": 4446736791, "lat": 40.766964, "lon": 9.555231, "tags": {"addr:postcode": "07020", "addr:street": "SP 110 Str. San Teodoro", "amenity": "restaurant", "cuisine": "italian", "name": "Turismo Rurale Casa Roberta", "phone": "+393336419469", "website": "https://www.facebook.com/turismoruralecasaroberta"}}, {"type": "node", "id": 4449671889, "lat": 40.8455623, "lon": 9.6570904, "tags": {"addr:postcode": "08020", "addr:street": "Lu Nibbareddu", "amenity": "restaurant", "cuisine": "italian;italian_pizza", "email": "info@bbqristorante.com", "internet_access": "wlan", "name": "BBQ - Barbeque Ristorante", "name:it": "BBQ", "opening_hours": "Mo-Su 08:00-10:00,18:00-23:00", "phone": "+39 0784 835210", "website": "https://www.bbqristorante.com/", "wheelchair": "limited"}}, {"type": "node", "id": 4449689189, "lat": 40.8402769, "lon": 9.6550047, "tags": {"addr:housenumber": "15", "addr:postcode": "08020", "addr:street": "Via Nazionale", "amenity": "restaurant", "cuisine": "italian;italian_pizza", "email": "info@ristoranteleacana.com", "name": "L'Ea Cana", "name:it": "L'Ea Cana", "opening_hours": "Mo-Su 12:00-14:30, 19:00-23:00", "phone": "+39 784 835269", "website": "https://www.leacana.com/"}}, {"type": "node", "id": 4506822379, "lat": 40.6360982, "lon": 9.7224177, "tags": {"addr:city": "Posada", "addr:housenumber": "71", "addr:postcode": "08020", "addr:street": "Via Nazionale", "amenity": "cafe", "name": "Bar Belvedere", "source": "Regione Autonoma della Sardegna"}}, {"type": "node", "id": 4520724511, "lat": 40.4794804, "lon": 9.8099943, "tags": {"amenity": "cafe"}}, {"type": "node", "id": 4550507266, "lat": 40.541734, "lon": 9.6022938, "tags": {"amenity": "restaurant", "contact:website": "https://www.facebook.com/Montalbo-Escursioni-Locanda-Ammentos-268308323229454/", "cuisine": "italian;sardinian", "name": "Locanda Ammentos"}}, {"type": "node", "id": 4987794923, "lat": 40.8413992, "lon": 9.696697, "tags": {"addr:city": "San Teodoro", "addr:country": "IT", "addr:place": "Coda Cavallo", "addr:postcode": "08020", "amenity": "cafe", "name": "Il portico", "operator": "Gavino Pirino", "outdoor_seating": "yes", "smoking": "outside"}}, {"type": "node", "id": 4994800922, "lat": 40.8365472, "lon": 9.6988177, "tags": {"amenity": "cafe"}}, {"type": "node", "id": 5212514855, "lat": 40.6367844, "lon": 9.7255759, "tags": {"amenity": "restaurant", "cuisine": "italian", "name": "da Marco e Caterina", "outdoor_seating": "yes", "rooms": "3", "tourism": "guest_house", "website": "http://www.marcoecaterina.it"}}, {"type": "node", "id": 5222367628, "lat": 40.6513387, "lon": 9.3293345, "tags": {"amenity": "restaurant", "capacity": "200", "contact:email": "ristorantesanlorenzo@tiscali.it", "contact:phone": "+39 079 723 250", "contact:website": "http://web.tiscali.it/ristorantesanlorenzo/", "cuisine": "regional;pizza", "delivery": "yes", "name": "San Lorenzo Ristorante-Pizzeria", "outdoor_seating": "no", "smoking": "no", "takeaway": "yes"}}, {"type": "node", "id": 5222410479, "lat": 40.6493061, "lon": 9.3266399, "tags": {"addr:city": "Al\u00e0 dei Sardi", "addr:housenumber": "25", "addr:postcode": "07020", "addr:street": "Via Roma", "amenity": "restaurant", "capacity": "100", "cuisine": "pizza;regional", "delivery": "yes", "name": "Pizzeria da Simone", "outdoor_seating": "no", "phone": "+39 079723373", "smoking": "no", "takeaway": "yes"}}, {"type": "node", "id": 5228552773, "lat": 40.4541541, "lon": 9.3674541, "tags": {"amenity": "restaurant", "contact:facebook": "https://www.facebook.com/Agriturismo-Dogolai-247122052290913/", "contact:phone": "+39 320 833 6118", "cuisine": "regional;sardinian", "name": "Agriturismo Dogolai"}}, {"type": "node", "id": 5230894216, "lat": 40.4689678, "lon": 9.4907552, "tags": {"amenity": "restaurant", "contact:email": "m.pietro@micso.net", "contact:phone": "+39 0784 416 635;+39 347 827 0737", "contact:website": "http://web.tiscali.it/agriturismomontalbo/", "name": "Agriturismo Montalbo"}}, {"type": "node", "id": 5234635697, "lat": 40.5097931, "lon": 9.5513718, "tags": {"amenity": "restaurant", "contact:facebook": "https://www.facebook.com/agriturismo.jannaeruche", "contact:phone": "+39 0784 416 819", "cuisine": "regional;sardinian", "name": "Agriturismo Janna 'e Ruche"}}, {"type": "node", "id": 5314869631, "lat": 40.5799481, "lon": 9.4198993, "tags": {"amenity": "restaurant", "contact:email": "ertila96@gmail.com", "contact:fax": "+39 0784 414 558", "contact:phone": "+39 0784 414558", "contact:website": "http://www.agriturismoertila.it/", "cuisine": "regional;sardinian;italian", "name": "Agriturismo Ertila"}}, {"type": "node", "id": 5316196204, "lat": 40.5173767, "lon": 9.5627095, "tags": {"amenity": "restaurant", "contact:phone": "+39 0784 416 683;+39 328 159 3383", "cuisine": "sardinian;italian", "name": "Azienda agrituristica Untana 'e Deus"}}, {"type": "node", "id": 5363495121, "lat": 40.7706672, "lon": 9.6697618, "tags": {"amenity": "restaurant", "name": "Vineria Lu Brutoni"}}, {"type": "node", "id": 5371275922, "lat": 40.8059781, "lon": 9.3247291, "tags": {"amenity": "restaurant", "cuisine": "pizza", "name": "Il Pizzicotto"}}, {"type": "node", "id": 5436772808, "lat": 40.6145755, "lon": 9.2735821, "tags": {"amenity": "restaurant", "cuisine": "regional"}}, {"type": "node", "id": 5624699068, "lat": 40.705388, "lon": 9.4748095, "tags": {"amenity": "restaurant", "cuisine": "sardinian"}}, {"type": "node", "id": 5627069974, "lat": 40.6911706, "lon": 9.5184141, "tags": {"amenity": "restaurant", "contact:email": "agriturismocorda@gmail.com", "contact:facebook": "https://www.facebook.com/AgriturismoCordaPadru/", "contact:phone": "+39 0789 49125", "contact:website": "http://www.agriturismotoninocorda.it", "cuisine": "sardinian", "name": "Agriturismo Corda", "ref:vatin": "IT02204720904"}}, {"type": "node", "id": 5630683762, "lat": 40.657936, "lon": 9.7044294, "tags": {"amenity": "restaurant", "contact:email": "info@agriturismo-irghitula.com", "contact:facebook": "https://www.facebook.com/AgriturismoIrghitula/", "contact:phone": "+393280351425", "contact:website": "http://www.agriturismo-irghitula.com", "cuisine": "sardinian", "name": "Agriturismo Irghitula"}}, {"type": "node", "id": 5733811804, "lat": 40.7095596, "lon": 9.6982697, "tags": {"addr:city": "Budoni", "addr:postcode": "08020", "addr:street": "Piazza Italia", "amenity": "restaurant", "capacity": "20", "cuisine": "regional;italian", "name": "Panelentu - Take away & Street food of Sardinia", "outdoor_seating": "yes", "takeaway": "yes"}}, {"type": "node", "id": 5752134861, "lat": 40.4951076, "lon": 9.7952318, "tags": {"addr:city": "Siniscola", "addr:postcode": "08029", "addr:street": "Localit\u00e0 Berchida", "amenity": "restaurant", "cuisine": "regional;italian", "email": "sumeriacru@gmail.com", "name": "Agriturismo Su Meriacru", "opening_hours": "Mo-Su 12:30-14:30, 19:30-21:00", "phone": "+390784814014", "website": "https://www.agriturismosumeriacru.com/"}}, {"type": "node", "id": 5847088291, "lat": 40.7069453, "lon": 9.7032386, "tags": {"addr:city": "Budoni", "addr:postcode": "08020", "addr:street": "Via Emilio Lussu", "amenity": "restaurant", "cuisine": "pizza", "name": "D'Asporto"}}, {"type": "node", "id": 5847088294, "lat": 40.7096167, "lon": 9.6980134, "tags": {"addr:city": "Budoni", "addr:postcode": "08020", "addr:street": "Piazza Italia", "amenity": "restaurant", "cuisine": "italian", "name": "Medeus", "source": "survey"}}, {"type": "node", "id": 5849628831, "lat": 40.7035193, "lon": 9.6516328}, {"type": "node", "id": 5849628832, "lat": 40.703507, "lon": 9.6516791}, {"type": "node", "id": 5854660311, "lat": 40.7097642, "lon": 9.6978252, "tags": {"addr:city": "Budoni", "addr:postcode": "08020", "addr:street": "Piazza Italia", "amenity": "cafe", "internet_access": "yes", "name": "smart"}}, {"type": "node", "id": 5870766485, "lat": 40.8761784, "lon": 9.6313233, "tags": {"amenity": "restaurant", "name": "Ristorante La Ca Del Borgo"}}, {"type": "node", "id": 5903246785, "lat": 40.7813039, "lon": 9.6682838, "tags": {"amenity": "restaurant", "name": "L'Olive"}}, {"type": "node", "id": 5903246885, "lat": 40.774493, "lon": 9.6666107, "tags": {"amenity": "restaurant", "name": "La Chinto"}}, {"type": "node", "id": 5903246985, "lat": 40.773467, "lon": 9.6662015, "tags": {"amenity": "restaurant", "name": "La Taverna di Dante"}}, {"type": "node", "id": 5903274685, "lat": 40.7858682, "lon": 9.6571077, "tags": {"amenity": "restaurant", "name": "Pitzeria", "name:it": "Pitzeria Helios hotel"}}, {"type": "node", "id": 5949101301, "lat": 40.8586367, "lon": 9.6450482, "tags": {"amenity": "restaurant"}}, {"type": "node", "id": 6009607908, "lat": 40.7669033, "lon": 9.6501388, "tags": {"amenity": "restaurant", "capacity": "100", "name": "La Runcina", "outdoor_seating": "yes", "takeaway": "no"}}, {"type": "node", "id": 6450167685, "lat": 40.7694863, "lon": 9.6689357, "tags": {"amenity": "restaurant", "name": "Da Silvio"}}, {"type": "node", "id": 6543494614, "lat": 40.7716407, "lon": 9.67021, "tags": {"amenity": "cafe", "name": "Florian caf\u00e9"}}, {"type": "node", "id": 6563473884, "lat": 40.6687792, "lon": 9.7479726, "tags": {"addr:housenumber": "3", "addr:street": "Strada 1 Matta 'e Peru", "amenity": "restaurant", "description": "Pizzeria & Ristorante", "name": "Residence La Pineta", "opening_hours": "12:00-14:15, 19:00-22:00", "phone": "(0039) 0784 837177", "website": "www.residencelapineta.it"}}, {"type": "node", "id": 6813545485, "lat": 40.6074162, "lon": 9.7488278, "tags": {"amenity": "restaurant", "name": "Maxim", "wheelchair": "no"}}, {"type": "node", "id": 6937122473, "lat": 40.5396011, "lon": 9.8019799, "tags": {"amenity": "cafe"}}, {"type": "node", "id": 7661614491, "lat": 40.6021738, "lon": 9.7507413}, {"type": "node", "id": 7661614492, "lat": 40.602082, "lon": 9.750818}, {"type": "node", "id": 7661614493, "lat": 40.6021408, "lon": 9.7510908}, {"type": "node", "id": 7661614494, "lat": 40.602241, "lon": 9.7510534}, {"type": "node", "id": 7663970600, "lat": 40.5479626, "lon": 9.7853699, "tags": {"amenity": "restaurant", "cuisine": "italian", "description": "Ristorante pizzeria", "name": "Comino Rosso", "opening_hours": "Mo-Su 12:30-14:30, 19:30-22:30", "wheelchair": "yes"}}, {"type": "node", "id": 7674175538, "lat": 40.6072768, "lon": 9.7479971, "tags": {"addr:housenumber": "93", "addr:street": "Via Nazario Sauro", "amenity": "restaurant", "name": "La burghereja", "opening_hours": "Mo-Su 12:00-15:00, 19:00-23:30", "phone": "+390784810429", "website": "https://la-burghereja.business.site/", "wheelchair": "yes"}}, {"type": "node", "id": 7674345259, "lat": 40.6080082, "lon": 9.7487516, "tags": {"addr:housenumber": "1", "addr:street": "Via Livorno", "amenity": "restaurant", "diet:vegetarian": "no", "name": "Il capriccio", "opening_hours": "Mo-Su 11:00-15:00, 18:30-00:00", "wheelchair": "limited"}}, {"type": "node", "id": 7700346453, "lat": 40.6094887, "lon": 9.7474992, "tags": {"addr:city": "La Caletta", "addr:housenumber": "59", "addr:postcode": "08029", "addr:street": "Via Livorno", "amenity": "restaurant", "email": "info@pizzerialarosadeiventi.com", "name": "La rosa dei venti", "phone": "+393480926740", "website": "http://www.pizzerialarosadeiventi.com/"}}, {"type": "node", "id": 7702414257, "lat": 40.5812802, "lon": 9.7776441, "tags": {"addr:city": "Santa Lucia", "addr:housenumber": "6", "addr:postcode": "08029", "addr:street": "Via Amerigo Vespucci", "amenity": "restaurant", "cuisine": "italian", "diet:meat": "yes", "diet:pescetarian": "yes", "name": "Sa Corte", "payment:cash": "yes", "payment:credit_cards": "yes", "phone": "+393409191924"}}, {"type": "node", "id": 7705240138, "lat": 40.6375451, "lon": 9.7244604, "tags": {"amenity": "restaurant", "name": "L'antico terrazzo"}}, {"type": "node", "id": 7705550270, "lat": 40.6082561, "lon": 9.7498074, "tags": {"addr:housenumber": "51", "addr:street": "Via Nazario Sauro", "amenity": "restaurant", "name": "Ballakan\u00f3", "opening_hours": "Mo-Su 10:30-01:00", "phone": "+393791446080"}}, {"type": "node", "id": 7731203313, "lat": 40.6057897, "lon": 9.7452524, "tags": {"addr:street": "Via Nazario Sauro", "amenity": "restaurant", "name": "Pizzeria mare e monti"}}, {"type": "node", "id": 7890439168, "lat": 40.7270453, "lon": 9.7077727, "tags": {"amenity": "restaurant"}}, {"type": "node", "id": 8162536556, "lat": 40.8151466, "lon": 9.3370637, "tags": {"addr:city": "Monti", "addr:postcode": "07020", "addr:street": "Localit\u00e0 Conca Sa Raighina", "amenity": "restaurant", "name": "Agriturismo il Vermentino", "phone": "335472221", "website": "http://www.agriturismoilvermentino.com"}}, {"type": "node", "id": 8162539165, "lat": 40.8270004, "lon": 9.3395448, "tags": {"addr:city": "Monti", "addr:postcode": "07020", "addr:street": "Localit\u00e0 Cuguttu", "amenity": "restaurant", "name": "Agriturismo Sa Pinnetta", "phone": "338 3152584", "website": "https://www.agriturismoolbia.it"}}, {"type": "node", "id": 8506245632, "lat": 40.7231032, "lon": 9.7067004, "tags": {"amenity": "restaurant", "name": "Ristorante"}}, {"type": "node", "id": 8763745740, "lat": 40.6058659, "lon": 9.74947}, {"type": "node", "id": 8763815081, "lat": 40.6021393, "lon": 9.7507543}, {"type": "node", "id": 8763815082, "lat": 40.6021477, "lon": 9.7507935}, {"type": "node", "id": 8763815083, "lat": 40.602181, "lon": 9.7507744}, {"type": "node", "id": 8763815086, "lat": 40.6022035, "lon": 9.7508793}, {"type": "node", "id": 8763815088, "lat": 40.6022195, "lon": 9.7509534}, {"type": "node", "id": 8868410199, "lat": 40.6061654, "lon": 9.7455234, "tags": {"addr:housenumber": "118", "addr:street": "Via Nazario Sauro", "amenity": "restaurant", "instagram": "https://www.instagram.com/fratellicongiugrill/", "name": "Fratelli Congiu", "opening_hours": "Mo-We, Su 07:00-21:00; Th-Sa 07:00-23:00", "phone": "+393407155042"}}, {"type": "node", "id": 8874438276, "lat": 40.5744051, "lon": 9.694543, "tags": {"addr:housenumber": "85", "addr:street": "Via Roma", "amenity": "cafe", "name": "Bar centrale"}}, {"type": "node", "id": 8874454721, "lat": 40.5733057, "lon": 9.6979682, "tags": {"amenity": "cafe", "name": "Bar quattro mori"}}, {"type": "node", "id": 8888711879, "lat": 40.6085818, "lon": 9.7499803, "tags": {"addr:street": "Via Nazario Sauro", "amenity": "cafe", "name": "Alkimia bistrot"}}, {"type": "node", "id": 8888719401, "lat": 40.6084797, "lon": 9.7501163, "tags": {"addr:city": "La Caletta", "addr:housenumber": "39", "addr:postcode": "08029", "addr:street": "Via Nazario Sauro", "amenity": "restaurant", "cuisine": "pizza", "name": "Mistral Caffeteria Bar Pizzeria"}}, {"type": "node", "id": 8890799178, "lat": 40.5815246, "lon": 9.7781771, "tags": {"addr:housenumber": "10", "addr:street": "Piazza della Torre", "amenity": "restaurant", "facebook": "https://m.facebook.com/PoseidonCaffe/?locale2=it_IT", "name": "Poseidon caff\u00e8", "opening_hours": "Mo-Su 08:00-00:45", "phone": "+393286759080"}}, {"type": "node", "id": 9324991225, "lat": 40.87554, "lon": 9.628796, "tags": {"amenity": "restaurant", "cuisine": "pizza;italian", "name": "Mal\u00f9"}}, {"type": "node", "id": 9799052006, "lat": 40.7396536, "lon": 9.7085781, "tags": {"amenity": "restaurant", "cuisine": "italian", "name": "5SENSI", "phone": "+39 334 155 8182", "website": "https://m.facebook.com/pages/5SENSI-Grillery-FoodBeverage/506690216128336"}}, {"type": "node", "id": 9835385553, "lat": 40.7842436, "lon": 9.5644646, "tags": {"amenity": "restaurant", "cuisine": "regional", "name": "Agriturismo l'Olivastro"}}, {"type": "node", "id": 9936100217, "lat": 40.8515155, "lon": 9.6478898, "tags": {"addr:postcode": "07020", "addr:street": "Lori Porto san Paolo", "amenity": "restaurant", "name": "Agriturismo La Taerra"}}, {"type": "node", "id": 9998166037, "lat": 40.5816592, "lon": 9.7788168, "tags": {"amenity": "restaurant", "name": "Zia Luchia"}}, {"type": "node", "id": 10049583552, "lat": 40.7810072, "lon": 9.6722735, "tags": {"amenity": "restaurant", "name": "La Taverna degli Artisti"}}, {"type": "node", "id": 10061740970, "lat": 40.6919612, "lon": 9.738203}, {"type": "node", "id": 10146689508, "lat": 40.5686893, "lon": 9.6845146, "tags": {"addr:city": "Siniscola", "addr:housenumber": "109", "addr:postcode": "08029", "addr:street": "Via Isalle", "amenity": "restaurant", "name": "La Colonna"}}, {"type": "node", "id": 10285721423, "lat": 40.6494378, "lon": 9.3299625, "tags": {"amenity": "restaurant", "cuisine": "pizza;regional", "name": "Civico 21"}}, {"type": "node", "id": 10370276485, "lat": 40.6295618, "lon": 9.6791183, "tags": {"amenity": "restaurant", "cuisine": "pizza", "name": "Zorro Mega Pizza Service"}}, {"type": "node", "id": 10805399641, "lat": 40.84105, "lon": 9.6540426, "tags": {"amenity": "restaurant", "cuisine": "italian", "name": "Vizi e Sfizi"}}, {"type": "node", "id": 10915625189, "lat": 40.7699055, "lon": 9.6824573}, {"type": "node", "id": 10915625190, "lat": 40.7699235, "lon": 9.6826026}, {"type": "node", "id": 10915625191, "lat": 40.7700476, "lon": 9.682557}, {"type": "node", "id": 11065605944, "lat": 40.8774433, "lon": 9.6173544, "tags": {"amenity": "restaurant", "cuisine": "pizza", "name": "Il Far\u00e8"}}, {"type": "node", "id": 11172634372, "lat": 40.8753255, "lon": 9.629822, "tags": {"amenity": "restaurant", "cuisine": "pizza", "name": "Pizzeria Da Enrico"}}, {"type": "node", "id": 11203083335, "lat": 40.6074745, "lon": 9.7483854, "tags": {"amenity": "restaurant", "name": "Sa tappa bistrot"}}, {"type": "node", "id": 11233807137, "lat": 40.8411438, "lon": 9.6538718, "tags": {"addr:street": "Via di Li Graniti", "amenity": "cafe", "cuisine": "ice_cream", "name": "BM&V Gelateria Artiganale"}}, {"type": "node", "id": 11407209110, "lat": 40.651403, "lon": 9.3292636}, {"type": "node", "id": 11407209111, "lat": 40.6513457, "lon": 9.3292405}, {"type": "node", "id": 11407209112, "lat": 40.6512978, "lon": 9.3293814}, {"type": "node", "id": 11407209113, "lat": 40.6513556, "lon": 9.3294107}, {"type": "node", "id": 11407431484, "lat": 40.6496895, "lon": 9.3300503}, {"type": "node", "id": 11407431486, "lat": 40.6495775, "lon": 9.3302629}, {"type": "node", "id": 11407431487, "lat": 40.6494676, "lon": 9.3298686}, {"type": "node", "id": 11407431488, "lat": 40.6494208, "lon": 9.3299651}, {"type": "node", "id": 11407431489, "lat": 40.6495063, "lon": 9.3300322}, {"type": "node", "id": 11407431490, "lat": 40.6494717, "lon": 9.3301073}, {"type": "node", "id": 11407431491, "lat": 40.649431, "lon": 9.3301744}, {"type": "node", "id": 11407431492, "lat": 40.6495287, "lon": 9.3302468}, {"type": "node", "id": 11407431537, "lat": 40.6506292, "lon": 9.3288607}, {"type": "node", "id": 11407431538, "lat": 40.6505861, "lon": 9.3288933}, {"type": "node", "id": 11407431539, "lat": 40.6505591, "lon": 9.3288353}, {"type": "node", "id": 11407431540, "lat": 40.6506023, "lon": 9.3288018}, {"type": "node", "id": 11407537389, "lat": 40.6493144, "lon": 9.3267316}, {"type": "node", "id": 11407537390, "lat": 40.649416, "lon": 9.3265961}, {"type": "node", "id": 11407537391, "lat": 40.6493424, "lon": 9.3265052}, {"type": "node", "id": 11407537392, "lat": 40.6492524, "lon": 9.3266438}, {"type": "node", "id": 11407756087, "lat": 40.6534025, "lon": 9.306283}, {"type": "node", "id": 11882104269, "lat": 40.6345072, "lon": 9.7199673, "tags": {"addr:housenumber": "119", "addr:postcode": "08020", "addr:street": "Via Nazionale", "amenity": "restaurant", "cuisine": "italian;italian_pizza", "name": "Eteria food and drink", "opening_hours": "Mo-Fr 17:00-00:00; Sa-Su 11:00-15:00, 17:00-00:00"}}, {"type": "node", "id": 12048030257, "lat": 40.8763882, "lon": 9.6299915, "tags": {"amenity": "cafe", "name": "Portici Caff\u00e8"}}, {"type": "node", "id": 12048030258, "lat": 40.8765735, "lon": 9.6302012, "tags": {"amenity": "restaurant", "cuisine": "seafood", "name": "Domus de Mare"}}, {"type": "node", "id": 12051496502, "lat": 40.7672943, "lon": 9.6689911, "tags": {"addr:housenumber": "34", "addr:street": "Via degli Asfodeli", "amenity": "restaurant", "name": "Il Salsero"}}, {"type": "node", "id": 12061825476, "lat": 40.7715327, "lon": 9.6728697, "tags": {"amenity": "restaurant", "cuisine": "regional", "name": "Il Mangiatutto"}}, {"type": "node", "id": 12066674346, "lat": 40.8741879, "lon": 9.6269079, "tags": {"amenity": "restaurant", "cuisine": "pizza", "name": "Jolly Roger"}}, {"type": "node", "id": 12281513756, "lat": 40.6375664, "lon": 9.7264875, "tags": {"amenity": "restaurant", "contact:facebook": "https://www.facebook.com/p/Coghe-D-100057654810826", "contact:phone": "+39 320 040 3410", "name": "Coghe D", "outdoor_seating": "yes"}}, {"type": "node", "id": 12616088001, "lat": 40.7075283, "lon": 9.7010464, "tags": {"amenity": "cafe", "name": "Old Caff\u00e8"}}, {"type": "node", "id": 12734097392, "lat": 40.7708266, "lon": 9.6710619, "tags": {"amenity": "restaurant", "cuisine": "italian;regional;fish;seafood;pizza", "name": "Ristorante da Fabio", "opening_hours": "Mo-Su 12:30-14:30, Mo-Su 18:30-23:30", "phone": "+390784865587", "website": "https://instagram.com/ristorantedafabio"}}, {"type": "node", "id": 12817845939, "lat": 40.631781, "lon": 9.7213075, "tags": {"amenity": "restaurant", "name": "Pizzeria Sa Braja", "opening_hours": "We-Mo 18:00-23:30, Su 12:00-14:30"}}, {"type": "node", "id": 12817854570, "lat": 40.6319733, "lon": 9.7217139, "tags": {"amenity": "restaurant", "name": "Pizzeria Sa Braja", "opening_hours": "Mo,We-Fr 18:00-23:30; Tu off; Sa 12:00-14:30"}}, {"type": "node", "id": 12914215228, "lat": 40.5735104, "lon": 9.6940479, "tags": {"amenity": "cafe"}}, {"type": "way", "id": 102784801, "nodes": [1187085518, 1187085519, 1187085621, 1187085578, 1187085518], "tags": {"amenity": "restaurant", "building": "yes", "cuisine": "regional", "description:en": "Former restaurant \"Lu Nibaru\". Burnt down c. 2011.", "name": "Lu NIbaro", "smoking": "outside"}}, {"type": "way", "id": 154101977, "nodes": [1666962787, 1666962563, 1666962913, 290372242, 1666962787], "tags": {"addr:housenumber": "15", "addr:street": "Via del Faro", "amenity": "restaurant", "building": "yes", "cuisine": "italian", "email": "info@il-moletto.it", "name": "Il Moletto", "name:it": "Il Moletto", "opening_hours": "Mo-Su 09:00-00:00", "phone": "+393287774311", "website": "http://il-moletto.it/"}}, {"type": "way", "id": 181561571, "nodes": [1919732787, 1919732792, 1919732798, 1919732795, 1919732793, 1919732801, 1919732802, 1919732800, 1919732796, 1919732794, 1919732799, 1919732797, 1919732786, 1919732780, 1919732773, 1919732771, 1919732776, 1919732778, 1919732775, 1919732774, 1919732770, 1919732772, 1919732777, 1919732779, 1919732783, 1919732782, 1919732789, 1919732791, 1919732788, 1919732784, 1919732785, 1919732781, 1919732787], "tags": {"amenity": "restaurant", "building": "yes", "contact:email": "info@agriturismosuvrau.com", "contact:facebook": "https://it-it.facebook.com/Su-Vrau-101711843243777/", "contact:phone": "+39 0784 82 90 10;+39 348 33 33 549", "contact:twitter": "https://twitter.com/FarmhouseSuVrau", "contact:website": "http://www.agriturismosuvrau.com", "name": "Agriturismo Su Vrau"}}, {"type": "way", "id": 234984449, "nodes": [2430956888, 2430956886, 2430956890, 2430956882, 2442367178, 2430956888], "tags": {"amenity": "restaurant", "building": "roof"}}, {"type": "way", "id": 235634650, "nodes": [2437079932, 2437079970, 2842781864, 2437079950, 2437079923, 2437079936, 2437079967, 2437079932], "tags": {"amenity": "restaurant", "cuisine": "italian", "name": "Stella Marina"}}, {"type": "way", "id": 235634651, "nodes": [2437079935, 2437079974, 2437079952, 2437079933, 2437079935], "tags": {"amenity": "restaurant", "cuisine": "italian", "name": "La Tavernetta"}}, {"type": "way", "id": 235748344, "nodes": [2438057522, 2438057534, 2438057526, 2438057520, 2438057522], "tags": {"amenity": "restaurant", "building": "yes", "cuisine": "pizza"}}, {"type": "way", "id": 247824738, "nodes": [2546834750, 2546834756, 2546834763, 2546834760, 2546834750], "tags": {"amenity": "cafe", "building": "yes"}}, {"type": "way", "id": 276592556, "nodes": [2811910063, 2811910057, 2811910058, 2811910059, 2811910060, 2811910062, 2811910061, 2811910064, 2811910063], "tags": {"amenity": "restaurant", "building": "yes", "contact:phone": "+39 349 934 66720", "cuisine": "italian", "name": "Ristoro Norghio"}}, {"type": "way", "id": 276644933, "nodes": [2812337670, 2812337666, 2812337673, 2812337678, 2812337670], "tags": {"amenity": "cafe", "building": "yes", "name": "Cafeteria"}}, {"type": "way", "id": 276645259, "nodes": [2812336846, 2812336854, 2812336856, 2812336851, 2812336846], "tags": {"amenity": "restaurant", "building": "yes", "cuisine": "regional", "name": "La Tavernetta Restaurant"}}, {"type": "way", "id": 276645400, "nodes": [2812337570, 2812337565, 2812337589, 2812337594, 2812337570], "tags": {"amenity": "cafe", "building": "yes", "name": "Cafeteria"}}, {"type": "way", "id": 276646062, "nodes": [2812334923, 2812334901, 2812334931, 2812334944, 2812334923], "tags": {"amenity": "restaurant", "building": "yes", "cuisine": "italian", "name": "La Veranda"}}, {"type": "way", "id": 276647052, "nodes": [2812342732, 2812342728, 2812342734, 2812342739, 2812342744, 2812342732], "tags": {"amenity": "restaurant", "building": "yes", "name": "Il Portolano"}}, {"type": "way", "id": 277320389, "nodes": [2818276647, 2818276642, 2818276646, 2818276629, 2818276625, 2818276616, 2818276613, 2818276617, 2818276615, 2818276620, 2818276622, 2818276628, 2818276631, 2818276627, 2818276632, 2818276639, 2818276637, 2818276641, 2818276647], "tags": {"amenity": "restaurant", "building": "yes", "cuisine": "regional", "name": "Sa Crescia Ezza", "operator": "Tipica sarda"}}, {"type": "way", "id": 277321304, "nodes": [2818286395, 2818286378, 2818286368, 2818286362, 2818286335, 2818286342, 2818286327, 2818286325, 2818286331, 2818286333, 2818286340, 2818286350, 2818286354, 2818286365, 2818286371, 2818286385, 2818286397, 2818286402, 2818286400, 2818286393, 2818286387, 2818286386, 2818286389, 2818286388, 2818286404, 2818286405, 2818286395], "tags": {"amenity": "restaurant", "building": "yes", "cuisine": "pizza", "name": "Tucano"}}, {"type": "way", "id": 279365533, "nodes": [2835773968, 2835773961, 2835773962, 2835773970, 2835773968], "tags": {"addr:city": "Padru (SS)", "addr:postcode": "07020", "amenity": "restaurant", "building": "yes", "email": "info@agriturismocasteddu.com", "mobile": "+393387445549", "name": "Agriturismo Casteddu", "phone": "+393346441822", "website": "https://agriturismocasteddu.com/"}}, {"type": "way", "id": 279388114, "nodes": [2835902077, 2835902074, 2835902080, 2835902078, 2835902067, 2835902069, 2835902052, 2835902054, 2835902082, 2835902086, 2835902090, 2835902095, 2835902226, 2835902210, 2835902099, 2835902093, 2835902077], "tags": {"amenity": "restaurant", "building": "yes", "cuisine": "italian;fish;pizza", "diet:vegetarian": "no", "name": "Miriacheddu", "opening_hours": "Mo-Su 12:00-15:00,19:30-23:45", "outdoor_seating": "yes", "website": "https://www.ristorantemiriacheddu.it/", "wheelchair": "limited"}}, {"type": "way", "id": 279391295, "nodes": [2835924534, 2835924512, 2835924516, 2835923842, 2835923834, 2835924209, 2835924204, 2835924524, 2835924534], "tags": {"addr:city": "San Teodoro", "addr:housenumber": "53", "addr:postcode": "08020", "addr:street": "Via Sardegna", "amenity": "restaurant", "building": "yes", "cuisine": "pizza;italian", "name": "Giropizza"}}, {"type": "way", "id": 279399073, "nodes": [2836066945, 11407756087, 2836066960, 2836066967, 2836066983, 2836067000, 2836066980, 2836066945], "tags": {"amenity": "restaurant", "building": "yes"}}, {"type": "way", "id": 280116550, "nodes": [2842717448, 2842717430, 2842717444, 2842717423, 2842717379, 2842717392, 2842717366, 2842717337, 2842717338, 2842717360, 2842717416, 2842717448], "tags": {"amenity": "restaurant", "building": "yes", "cuisine": "pizza", "name": "Pizzeria da Paola"}}, {"type": "way", "id": 280117671, "nodes": [2842752663, 2842752658, 2842752638, 2842752630, 2842752637, 2842752627, 2842752633, 2842752624, 2842752653, 2842752669, 2842752662, 2842752667, 2842752680, 2842752684, 2842752663], "tags": {"amenity": "restaurant", "building": "yes", "cuisine": "italian;regional", "name": "Shardana", "opening_hours": "Mo-Fr 11:00-15:00; Sa,Su 11:00-15:00,18:00-21:00", "website": "http://www.ristoranteshardana.it/"}}, {"type": "way", "id": 280118984, "nodes": [2842742330, 2842741479, 2842742317, 2842742306, 10061740970, 2842742804, 2842741099, 2842741067, 2842741048, 2842742855, 2842741049, 2842742847, 2842741088, 2842742810, 2842742330], "tags": {"amenity": "restaurant", "building": "yes", "name": "Restaurant"}}, {"type": "way", "id": 280120202, "nodes": [2842770256, 5849628832, 5849628831, 2842769899, 2842770209, 2842770268, 2842770256], "tags": {"amenity": "restaurant", "building": "yes", "name": "Agriturismo La Mindaredda"}}, {"type": "way", "id": 281474404, "nodes": [2854324098, 2854324014, 2854324018, 2854324096, 2854324098], "tags": {"addr:city": "Siniscola", "addr:housenumber": "1", "addr:place": "Localit\u00e0 Ofricatu", "addr:postcode": "08029", "amenity": "restaurant", "building": "yes", "building:levels": "2", "name": "Azienda Agrituristica Punta Lizzu", "phone": "+39 339 1077654", "website": "https://www.puntalizzu.com/"}}, {"type": "way", "id": 281475037, "nodes": [2854328107, 2854328092, 2854328104, 2854328121, 2854328107], "tags": {"amenity": "restaurant", "building": "yes", "cuisine": "regional", "name": "Il Laghetto", "outdoor_seating": "yes", "phone": "+39 0784 874116", "takeaway": "yes"}}, {"type": "way", "id": 281475245, "nodes": [8763745740, 2854331143, 2854331183, 2854331178]}, {"type": "way", "id": 281476479, "nodes": [2854327380, 2854327370, 2854327378, 2854327373, 2854327398, 2854329003, 2854327380], "tags": {"alt_name": "Agriturismo Sa Tanca 'e Bore", "amenity": "restaurant", "building": "yes", "contact:email": "info@satancaebore.it", "contact:facebook": "https://www.facebook.com/satancaebore/", "contact:phone": "+39 329 6282 578;+39 338 7574 456;+39 329 0677 997", "contact:website": "http://www.satancaebore.it", "cuisine": "regional", "name": "Sa Tanca 'E Bore Agrotousismo"}}, {"type": "way", "id": 416229032, "nodes": [4170454577, 4170454590, 4170454591, 4170454570, 4170454577], "tags": {"amenity": "restaurant", "building": "commercial", "contact:facebook": "https://www.facebook.com/pizzeriasucantaru/", "contact:phone": "+39 0784 414 328", "cuisine": "pizza", "name": "Pizzeria Su Cantaru", "opening_hours": "Mo-Sa 10:30-14:30,19:30-23:00; Su 11:15-14:30,19:00-23:00;PH off", "restaurant:type:it": "pizzeria"}}, {"type": "way", "id": 422485294, "nodes": [4222362412, 4222362425, 4222362417, 4222435189, 4222362430, 4222362428, 4222362403, 4222362427, 4222362412], "tags": {"addr:city": "Torp\u00e8", "addr:housenumber": "24", "addr:postcode": "08020", "amenity": "restaurant", "building": "yes", "cuisine": "pizza", "name": "Bar Pizzeria Arghentu de Mare"}}, {"type": "way", "id": 820507260, "nodes": [8763815082, 7661614492, 7661614493, 7661614494, 8763815088]}, {"type": "way", "id": 946740538, "nodes": [2854331178, 2854331138]}, {"type": "way", "id": 946740539, "nodes": [2854331138, 8763745740]}, {"type": "way", "id": 946748479, "nodes": [8763815083, 7661614491, 8763815081, 8763815082]}, {"type": "way", "id": 946748480, "nodes": [8763815086, 8763815083]}, {"type": "way", "id": 946748481, "nodes": [8763815088, 8763815086]}, {"type": "way", "id": 1174713407, "nodes": [2835914933, 10915625189, 10915625190, 10915625191, 2835915183, 2835915115, 2835914975, 2835914933], "tags": {"addr:city": "Santu Diad\u00f2ru/San Teodoro", "addr:street": "Via Cala D'Ambra", "amenity": "cafe", "building": "commercial", "name": "Bistrot Hotel L'Esagono", "outdoor_seating": "yes"}}, {"type": "way", "id": 1230075147, "nodes": [11407209110, 11407209111, 11407209112, 11407209113, 11407209110], "tags": {"amenity": "restaurant", "building": "yes", "name": "Ristorante Pizzeria San Lorenzo"}}, {"type": "way", "id": 1230095799, "nodes": [11407431486, 11407431484, 11407431487, 11407431488, 11407431489, 11407431490, 11407431491, 11407431492, 11407431486], "tags": {"amenity": "restaurant", "building": "yes", "name": "Civico 21"}}, {"type": "way", "id": 1230095808, "nodes": [11407431537, 11407431538, 11407431539, 11407431540, 11407431537], "tags": {"amenity": "restaurant", "building": "yes", "cuisine": "pizza", "name": "Nieddu"}}, {"type": "way", "id": 1230106327, "nodes": [11407537389, 11407537390, 11407537391, 11407537392, 11407537389], "tags": {"amenity": "restaurant", "building": "yes", "cuisine": "pizza", "name": "Pizzeria da Simone"}}, {"type": "relation", "id": 12752705, "members": [{"type": "way", "ref": 281475245, "role": "outer"}, {"type": "way", "ref": 946740538, "role": "outer"}, {"type": "way", "ref": 946740539, "role": "outer"}], "tags": {"addr:housenumber": "21", "addr:street": "Via Palermo", "amenity": "restaurant", "building": "yes", "cuisine": "seafood;italian;regional", "internet_access": "no", "name": "Colorado Grill", "outdoor_seating": "yes", "phone": "+39 0784 810861", "type": "multipolygon"}}, {"type": "relation", "id": 12752811, "members": [{"type": "way", "ref": 820507260, "role": "outer"}, {"type": "way", "ref": 946748481, "role": "outer"}, {"type": "way", "ref": 946748480, "role": "outer"}, {"type": "way", "ref": 946748479, "role": "outer"}], "tags": {"addr:city": "La Caletta", "addr:postcode": "08029", "addr:street": "Strada La Caletta", "amenity": "restaurant", "building": "yes", "cuisine": "italian;fish", "diet:vegan": "no", "diet:vegetarian": "yes", "email": "info@elbarriodelmar.com", "name": "El Barrio del Mar", "opening_hours": "Mo-Su 08:30-23:00", "payment:cash": "yes", "payment:credit_cards": "yes", "phone": "+393288381803", "type": "multipolygon", "website": "https://www.elbarriodelmar.com/", "wheelchair": "yes"}}]}