{"version": 0.6, "generator": "Overpass API 0.7.62.7 375dc00a", "osm3s": {"timestamp_osm_base": "2025-06-14T15:36:29Z", "copyright": "The data included in this document is from www.openstreetmap.org. The data is made available under ODbL."}, "elements": [{"type": "node", "id": 480162593, "lat": 22.3114184, "lon": 39.1011166, "tags": {"addr:city": "Thuwal", "addr:postcode": "23955-6900", "addr:street": "Discovery Square", "address": "Discovery Square", "amenity": "restaurant", "capacity": "20", "cuisine": "indian", "delivery": "yes", "diet:halal": "yes", "name": "Tawabil", "opening_hours": "11:30-22:00", "phone": "+96612802 4031", "smoking": "no", "takeaway": "yes", "website": "https://www.tawabil-sa.com"}}, {"type": "node", "id": 480162594, "lat": 22.3111443, "lon": 39.1013392, "tags": {"addr:city": "Thuwal", "addr:postcode": "23955-6900", "addr:street": "Discovery Square", "address": "Discovery Square", "amenity": "restaurant", "brand:wikipedia": "en:Quiznos", "cuisine": "chinese", "delivery": "yes", "diet:halal": "yes", "drive_through": "no", "name": "Great Wall Bistro", "opening_hours": "Mo-Sa 11:30-14:30; Mo-Sa 17:00-22:00", "phone": "+966128085408", "smoking": "no", "website": "https://hungrycampus.com/showmenu.php?id=24"}}, {"type": "node", "id": 480162596, "lat": 22.3087977, "lon": 39.1039237, "tags": {"addr:city": "Thuwal", "address": "Campus Commons", "amenity": "restaurant", "diet:halal": "yes", "name": "Campus Diner"}}, {"type": "node", "id": 506179690, "lat": 22.3112895, "lon": 39.1019708, "tags": {"addr:city": "Thuwal", "addr:postcode": "23955-6900", "addr:street": "Discovery Square", "address": "Discovery Square", "amenity": "restaurant", "cuisine": "regional;middle_eastern", "delivery": "yes", "diet:halal": "yes", "drive_through": "no", "internet_access": "wlan", "name": "Cuisine Halwani", "opening_hours": "Mo-Su 11:00-22:00", "phone": "+966128024036", "website": "https://hungrycampus.com/showmenu.php?id=23", "wlan:eduroam": "yes"}}, {"type": "node", "id": 510013066, "lat": 22.3072035, "lon": 39.1056561, "tags": {"address": "Main Campus Spine, Building 2", "amenity": "cafe", "cuisine": "american", "name": "House of Donuts"}}, {"type": "node", "id": 512004373, "lat": 22.3100805, "lon": 39.1047889, "tags": {"address": "Atrium, Level 2, Admin Building", "amenity": "cafe", "name": "The Coffee Bean & Tea Leaf", "url": "http://coffeebean.com/"}}, {"type": "node", "id": 538152672, "lat": 22.3113609, "lon": 39.1018834, "tags": {"addr:city": "Thuwal", "addr:postcode": "23955-6900", "addr:street": "Discovery Square", "address": "Discoery Square", "amenity": "cafe", "brand": "The Coffee Bean & Tea Leaf", "brand:wikidata": "Q1141384", "cuisine": "coffee_shop", "internet_access": "wlan", "name": "The Coffee Bean & Tea Leaf", "opening_hours": "Mo-Su 08:00-22:00", "phone": "+966128024065", "takeaway": "yes", "url": "http://coffeebean.com/", "wlan:eduroam": "yes"}}, {"type": "node", "id": 563240783, "lat": 22.290258, "lon": 39.1161829, "tags": {"addr:city": "Thuwal", "amenity": "restaurant", "cuisine": "seafood", "diet:halal": "yes", "family_seating": "yes", "jpoi_id": "100509", "name": "Al Sayed Fish", "thuwalguide_id": "0013"}}, {"type": "node", "id": 633286374, "lat": 22.3075972, "lon": 39.1054009, "tags": {"address": "Main Campus Spine, Building 2", "amenity": "cafe", "internet_access": "wlan", "name": "The Sandwich Gallery", "opening_hours": "Sa-Th 08:00-17:00"}}, {"type": "node", "id": 797787714, "lat": 22.2915304, "lon": 39.1179409, "tags": {"addr:city": "Thuwal", "amenity": "restaurant", "cuisine": "pakistani", "diet:halal": "yes", "family_seating": "yes", "jpoi_id": "100510", "name": "Al Hamad Restaurant", "takeaway": "yes", "thuwalguide_id": "0001"}}, {"type": "node", "id": 800000736, "lat": 22.3063347, "lon": 39.1205937}, {"type": "node", "id": 800000778, "lat": 22.3068576, "lon": 39.1207162}, {"type": "node", "id": 800000813, "lat": 22.3066284, "lon": 39.1206297}, {"type": "node", "id": 800000858, "lat": 22.3069468, "lon": 39.1204396}, {"type": "node", "id": 800000914, "lat": 22.3069261, "lon": 39.120504}, {"type": "node", "id": 800000956, "lat": 22.306742, "lon": 39.1202757}, {"type": "node", "id": 800000993, "lat": 22.3068798, "lon": 39.1206473}, {"type": "node", "id": 800001094, "lat": 22.3070262, "lon": 39.1205411}, {"type": "node", "id": 800001123, "lat": 22.3064696, "lon": 39.1201735}, {"type": "node", "id": 800001147, "lat": 22.3066072, "lon": 39.1206959}, {"type": "node", "id": 800001241, "lat": 22.3067172, "lon": 39.120353}, {"type": "node", "id": 800001284, "lat": 22.3069806, "lon": 39.1206847}, {"type": "node", "id": 801885642, "lat": 22.3107886, "lon": 39.1025522, "tags": {"amenity": "cafe", "name": "Coffee Republic"}}, {"type": "node", "id": 1258480112, "lat": 22.3150104, "lon": 39.0990157, "tags": {"addr:city": "Thuwal", "amenity": "restaurant", "diet:halal": "yes", "internet_access": "wlan", "name": "Harbour Sports Center Restaurant", "opening_hours": "8:30-22:00"}}, {"type": "node", "id": 1347651729, "lat": 22.3097375, "lon": 39.1003982, "tags": {"amenity": "cafe", "cuisine": "Pastry", "name": "Saadeddin", "phone": "+966128024085"}}, {"type": "node", "id": 1400865980, "lat": 22.3052886, "lon": 39.0977722, "tags": {"addr:city": "Thuwal", "address": "Al-Marsa Yacht Club", "amenity": "restaurant", "diet:halal": "yes", "internet_access": "wlan", "name": "Al-Marsa Restaurant"}}, {"type": "node", "id": 1400866081, "lat": 22.3242106, "lon": 39.1169075, "tags": {"addr:city": "Thuwal", "address": "Safaa Golf Club", "amenity": "restaurant", "diet:halal": "yes", "internet_access": "wlan", "name": "10th Hole Restaurant", "opening_hours": "Mo-Sa 10:00-22:00"}}, {"type": "node", "id": 1426941267, "lat": 22.2776972, "lon": 39.0897006, "tags": {"addr:city": "Thuwal", "amenity": "restaurant", "cuisine": "seafood", "diet:halal": "yes", "name": "Al Sayed Fish"}}, {"type": "node", "id": 1949187268, "lat": 22.3082139, "lon": 39.104958, "tags": {"amenity": "cafe", "cuisine": "coffee_shop", "internet_access": "wlan", "name": "Joffrey's Coffee & Tea Company", "opening_hours": "08:00-17:00; Fr off; Sa 10:00-16:00", "phone": "+966128024069", "wlan:eduroam": "yes"}}, {"type": "node", "id": 2831897844, "lat": 22.3094077, "lon": 39.099649, "tags": {"addr:city": "Thuwal", "addr:postcode": "23955-6900", "addr:street": "Harbor Walk", "amenity": "restaurant", "cuisine": "barbecue", "diet:halal": "yes", "name": "Smoked Ash", "opening_hours": "Mo-Sa 12:00-15:00; Mo-Sa 17:00-22:00", "phone": "+966128024091;+966552369369", "website": "https://communitylife.kaust.edu.sa/docs/default-source/services-docs/menus/smoked-ash-menu.pdff"}}, {"type": "node", "id": 2831897845, "lat": 22.3165637, "lon": 39.0913449, "tags": {"addr:city": "Thuwal", "amenity": "restaurant", "diet:halal": "yes", "name": "Pure", "opening_hours": "17:00-23:00", "phone": "+966128086617;+966501334283"}}, {"type": "node", "id": 3077730178, "lat": 22.4016845, "lon": 39.0811656, "tags": {"amenity": "restaurant", "brand": "\u0628\u064a\u062a\u0632\u0627 \u0647\u062a", "brand:ar": "\u0628\u064a\u062a\u0632\u0627 \u0647\u062a", "brand:wikidata": "Q191615", "brand:wikipedia": "ar:\u0628\u064a\u062a\u0632\u0627 \u0647\u062a", "capacity": "50", "cuisine": "pizza", "jpoi_id": "100511", "name": "\u0628\u064a\u062a\u0632\u0627 \u0647\u062a", "name:ar": "\u0628\u064a\u062a\u0632\u0627 \u0647\u062a", "name:en": "Pizza Hut"}}, {"type": "node", "id": 3077730183, "lat": 22.4049119, "lon": 39.0764137, "tags": {"amenity": "restaurant", "capacity": "100", "cuisine": "mediterranean", "jpoi_id": "100034", "name": "Lina's Paris"}}, {"type": "node", "id": 3077730184, "lat": 22.4052195, "lon": 39.076425, "tags": {"amenity": "restaurant", "capacity": "100", "cuisine": "lebanese", "jpoi_id": "100023", "name": "Bhar"}}, {"type": "node", "id": 3147144613, "lat": 22.2881897, "lon": 39.1155065}, {"type": "node", "id": 3147144614, "lat": 22.2881987, "lon": 39.1159983}, {"type": "node", "id": 3147144952, "lat": 22.2885839, "lon": 39.115498}, {"type": "node", "id": 3147144956, "lat": 22.2885929, "lon": 39.1159899}, {"type": "node", "id": 3169992802, "lat": 22.326207, "lon": 39.1050581, "tags": {"addr:city": "Thuwal", "amenity": "restaurant", "diet:halal": "yes", "internet_access": "no", "name": "Racquet club", "opening_hours": "10:00-22:00; Mo Closed", "operator": "Tamimi", "smoking": "no"}}, {"type": "node", "id": 3265463646, "lat": 22.4074672, "lon": 39.0846154, "tags": {"amenity": "restaurant", "cuisine": "steak_house"}}, {"type": "node", "id": 3392161588, "lat": 22.3093949, "lon": 39.0997579, "tags": {"addr:city": "Thuwal", "addr:housenumber": "H-4310C", "addr:postcode": "23955-6900", "addr:street": "Harbor Walk", "amenity": "restaurant", "cuisine": "italian", "diet:halal": "yes", "name": "Verra Pizza", "opening_hours": "Mo-Su 11:00-21:00", "operator": "italian", "phone": "+966128024010", "website": "https://hungrycampus.com/showmenu.php?id=20"}}, {"type": "node", "id": 3428765880, "lat": 22.2878225, "lon": 39.1157211}, {"type": "node", "id": 3428765881, "lat": 22.2878333, "lon": 39.1152016}, {"type": "node", "id": 3428765883, "lat": 22.2880081, "lon": 39.1157343}, {"type": "node", "id": 3428765884, "lat": 22.2880206, "lon": 39.1152113}, {"type": "node", "id": 3429767242, "lat": 22.2905086, "lon": 39.1157091}, {"type": "node", "id": 3429767244, "lat": 22.2905616, "lon": 39.1156144}, {"type": "node", "id": 3429767246, "lat": 22.2907396, "lon": 39.11586}, {"type": "node", "id": 3429767247, "lat": 22.2907925, "lon": 39.1157653}, {"type": "node", "id": 3430566519, "lat": 22.2845003, "lon": 39.1115571, "tags": {"addr:city": "Thuwal", "amenity": "restaurant", "cuisine": "turkish", "diet:halal": "yes", "family_seating": "no", "name": "Istanbul Restaurant", "name:en": "Istanbul Restaurant", "phone": "+966509510050", "thuwalguide_id": "0004"}}, {"type": "node", "id": 3430569537, "lat": 22.2911453, "lon": 39.1160029, "tags": {"amenity": "cafe", "family_seating": "no", "jpoi_id": "100512", "name": "\u0639\u0635\u064a\u0631\u0627\u062a \u0627\u0644\u0642\u0631\u064a\u0627\u062a \u0627\u0644\u0630\u0627\u062a\u064a\u0629", "name:ar": "\u0639\u0635\u064a\u0631\u0627\u062a \u0627\u0644\u0642\u0631\u064a\u0627\u062a \u0627\u0644\u0630\u0627\u062a\u064a\u0629", "name:en": "Aseerat Alqurayyat Althateyyeh", "thuwalguide_id": "0006"}}, {"type": "node", "id": 3431860131, "lat": 22.282106, "lon": 39.1107612, "tags": {"addr:city": "Thuwal", "amenity": "restaurant", "cuisine": "turkish", "diet:halal": "yes", "family_seating": "no", "name": "Istanbul Restanurant", "phone": "+955509510050", "thuwalguide_id": "0005"}}, {"type": "node", "id": 3431860495, "lat": 22.289851, "lon": 39.1147131, "tags": {"addr:city": "Thuwal", "amenity": "restaurant", "capacity": "5", "cuisine": "bizarre", "diet:halal": "yes", "family_seating": "no", "name": "Al Maalam", "phone": "+966553349932", "takeaway": "yes", "thuwalguide_id": "0025"}}, {"type": "node", "id": 3443077366, "lat": 22.2871962, "lon": 39.1135739, "tags": {"addr:city": "Thuwal", "amenity": "restaurant", "cuisine": "chicken", "diet:halal": "yes", "family_seating": "no", "jpoi_id": "100026", "thuwalguide_id": "0009"}}, {"type": "node", "id": 3445170768, "lat": 22.2867812, "lon": 39.1133755, "tags": {"addr:city": "Thuwal", "amenity": "restaurant", "cuisine": "pakistani", "diet:halal": "yes", "family_seating": "no", "name": "\u0641\u0648\u0644 \u0648\u0645\u0637\u0628\u0642 \u0627\u0644\u0645\u0639\u0644\u0645", "name:ar": "\u0641\u0648\u0644 \u0648\u0645\u0637\u0628\u0642 \u0627\u0644\u0645\u0639\u0644\u0645", "thuwalguide_id": "0011"}}, {"type": "node", "id": 3445170769, "lat": 22.2867156, "lon": 39.1133447, "tags": {"addr:city": "Thuwal", "amenity": "restaurant", "cuisine": "seafood", "delivery": "yes", "diet:halal": "yes", "family_seating": "no", "name": "Al Siyad", "name:en": "Al Siyad", "phone": "+966509347202", "thuwalguide_id": "0010"}}, {"type": "node", "id": 3475499284, "lat": 22.2862392, "lon": 39.1121389, "tags": {"addr:city": "Thuwal", "amenity": "restaurant", "capacity": "20", "cuisine": "pakistani;bangladeshi", "diet:halal": "yes", "family_seating": "no", "name": "\u0645\u0637\u0639\u0645 \u0645\u0631\u062d\u0628\u0627", "takeaway": "yes", "thuwalguide_id": "0020"}}, {"type": "node", "id": 3479706077, "lat": 22.28356, "lon": 39.1146694, "tags": {"addr:city": "Thuwal", "addr:street": "Main street", "amenity": "restaurant", "capacity": "50", "cuisine": "seafood", "diet:halal": "yes", "family_seating": "no", "name": "Fish", "name:en": "Fish", "phone": "+966563277721", "takeaway": "yes", "thuwalguide_id": "0017"}}, {"type": "node", "id": 3515010107, "lat": 22.2873586, "lon": 39.1131708, "tags": {"addr:city": "Thuwal", "amenity": "restaurant", "cuisine": "chicken", "diet:halal": "yes", "name": "\u0645\u0637\u0639\u0645 \u0634\u0648\u0627\u064a\u0629 \u0627\u0644\u0633\u0641\u064a\u0631", "name:en": "Mat3am Shawayat AlSafier", "thuwalguide_id": "0019"}}, {"type": "node", "id": 3725025444, "lat": 22.285261, "lon": 39.1150402, "tags": {"addr:city": "Thuwal", "amenity": "restaurant", "capacity": "50", "cuisine": "seafood", "diet:halal": "yes", "family_seating": "no", "takeaway": "yes", "thuwalguide_id": "0022", "wheelchair": "no"}}, {"type": "node", "id": 3767741720, "lat": 22.2872881, "lon": 39.1131277, "tags": {"addr:city": "Thuwal", "amenity": "restaurant", "capacity": "16", "delivery": "no", "diet:halal": "yes", "takeaway": "yes", "thuwalguide_id": "0027"}}, {"type": "node", "id": 4002868189, "lat": 22.285964, "lon": 39.112017, "tags": {"addr:city": "Thuwal", "amenity": "restaurant", "cuisine": "indian", "diet:halal": "yes", "internet_access": "no", "name": "Marhaba Restaurant", "source": "Survey", "takeaway": "yes", "thuwalguide_id": "0032"}}, {"type": "node", "id": 4006115302, "lat": 22.2895723, "lon": 39.1145603, "tags": {"addr:city": "Thuwal", "amenity": "restaurant", "capacity": "30", "cuisine": "regional", "diet:halal": "yes", "family_seating": "no", "smoking": "no", "takeaway": "yes", "thuwalguide_id": "0034"}}, {"type": "node", "id": 4237028743, "lat": 22.2828045, "lon": 39.1109344}, {"type": "node", "id": 4237028744, "lat": 22.2828031, "lon": 39.1109683}, {"type": "node", "id": 4237028745, "lat": 22.2827563, "lon": 39.1109659}, {"type": "node", "id": 4237028746, "lat": 22.2827577, "lon": 39.1109321}, {"type": "node", "id": 4319508818, "lat": 22.264207, "lon": 39.1114061, "tags": {"addr:city": "Thuwal", "amenity": "restaurant", "cuisine": "indian", "diet:halal": "yes", "email": "info@spicycuisines-sa.com", "family_seating": "no", "name": "Spicy Cuisines", "phone": "+966580368302;+966591931649", "takeaway": "yes", "thuwalguide_id": "0036", "website": "http://www.spicycuisines-sa.com/"}}, {"type": "node", "id": 4417211056, "lat": 22.3167503, "lon": 39.0917602, "tags": {"amenity": "cafe", "internet_access": "wlan", "name": "IRC Deli", "opening_hours": "09:00-21:00"}}, {"type": "node", "id": 4713830093, "lat": 22.2791267, "lon": 39.1109055, "tags": {"amenity": "restaurant"}}, {"type": "node", "id": 4713839591, "lat": 22.2792377, "lon": 39.1109248, "tags": {"amenity": "restaurant"}}, {"type": "node", "id": 4715467490, "lat": 22.2792829, "lon": 39.110975, "tags": {"amenity": "restaurant", "cuisine": "arab", "name": "urd express"}}, {"type": "node", "id": 4715567991, "lat": 22.2791601, "lon": 39.1109605, "tags": {"amenity": "restaurant", "cuisine": "chicken"}}, {"type": "node", "id": 5696127122, "lat": 22.4074483, "lon": 39.0844733, "tags": {"amenity": "restaurant", "name": "MODO"}}, {"type": "node", "id": 5697051068, "lat": 22.4031741, "lon": 39.0784134, "tags": {"amenity": "cafe", "name": "Starcucks"}}, {"type": "node", "id": 5697051534, "lat": 22.4068124, "lon": 39.0763942, "tags": {"amenity": "restaurant", "name": "MODO"}}, {"type": "node", "id": 5835566997, "lat": 21.9704892, "lon": 39.3625139}, {"type": "node", "id": 5835566998, "lat": 21.9705054, "lon": 39.3626388}, {"type": "node", "id": 5835566999, "lat": 21.9702087, "lon": 39.3627038}, {"type": "node", "id": 5835567000, "lat": 21.9701879, "lon": 39.3625789}, {"type": "way", "id": 65588311, "nodes": [800001094, 800001284, 800000993, 800000778, 800000813, 800001147, 800000736, 800001123, 800000956, 800001241, 800000858, 800000914, 800001094], "tags": {"addr:city": "Thuwal", "amenity": "restaurant", "building": "yes", "diet:halal": "yes", "name": "Central Diner"}}, {"type": "way", "id": 309384978, "nodes": [3147144952, 3147144613, 3147144614, 3147144956, 3147144952], "tags": {"addr:city": "Thuwal", "amenity": "restaurant", "building": "yes", "capacity": "200", "cuisine": "seafood", "diet:halal": "yes", "family_seating": "yes", "takeaway": "yes", "thuwalguide_id": "0038", "wheelchair": "no"}}, {"type": "way", "id": 335766248, "nodes": [3428765883, 3428765880, 3428765881, 3428765884, 3428765883], "tags": {"addr:city": "Thuwal", "amenity": "restaurant", "building": "yes", "capacity": "50", "cuisine": "seafood", "diet:halal": "yes", "family_seating": "no", "takeaway": "yes", "thuwalguide_id": "0023", "wheelchair": "no"}}, {"type": "way", "id": 335861923, "nodes": [3429767247, 3429767246, 3429767242, 3429767244, 3429767247], "tags": {"addr:city": "Thuwal", "alt_name": "Al Sayed BBQ", "amenity": "restaurant", "building": "yes", "cuisine": "barbecue", "diet:halal": "yes", "takeaway": "yes", "thuwalguide_id": "0035"}}, {"type": "way", "id": 424244254, "nodes": [4237028743, 4237028744, 4237028745, 4237028746, 4237028743], "tags": {"amenity": "cafe", "building": "yes", "internet_access": "no", "name": "Juan Cafe", "takeaway": "only", "thuwalguide_id": "0037"}}, {"type": "way", "id": 617308289, "nodes": [5835566997, 5835566998, 5835566999, 5835567000, 5835566997], "tags": {"amenity": "restaurant", "building": "yes", "name": "\u0645\u0637\u0639\u0645 \u0627\u0644\u0631\u0648\u0627\u0628\u064a"}}]}