{"version": 0.6, "generator": "Overpass API 0.7.62.7 375dc00a", "osm3s": {"timestamp_osm_base": "2025-06-14T13:26:15Z", "copyright": "The data included in this document is from www.openstreetmap.org. The data is made available under ODbL."}, "elements": [{"type": "node", "id": 1128652364, "lat": 36.8275776, "lon": 10.5694215}, {"type": "node", "id": 1128652979, "lat": 36.827826, "lon": 10.569407}, {"type": "node", "id": 1128653403, "lat": 36.8277923, "lon": 10.569504}, {"type": "node", "id": 1128661696, "lat": 36.8276164, "lon": 10.5693294}, {"type": "node", "id": 1128664589, "lat": 36.8278065, "lon": 10.5694603}, {"type": "node", "id": 1128666962, "lat": 36.8277199, "lon": 10.5693585}, {"type": "node", "id": 1128667616, "lat": 36.8276733, "lon": 10.5694409}, {"type": "node", "id": 1128668218, "lat": 36.8274316, "lon": 10.5691684, "tags": {"amenity": "restaurant", "name": "El Ferdaous"}}, {"type": "node", "id": 1128669708, "lat": 36.8276602, "lon": 10.5694708}, {"type": "node", "id": 1128671951, "lat": 36.8276707, "lon": 10.5693601}, {"type": "node", "id": 1349026207, "lat": 36.5976943, "lon": 10.4990583, "tags": {"amenity": "cafe", "cuisine": "coffee_shop", "name": "Caf\u00e9 Maaouia"}}, {"type": "node", "id": 1374299628, "lat": 36.9360792, "lon": 10.869395, "tags": {"addr:city": "\u0632\u0627\u0648\u064a\u0629 \u0627\u0644\u0645\u0642\u0627\u064a\u0632", "amenity": "cafe"}}, {"type": "node", "id": 1878591442, "lat": 36.8139275, "lon": 10.5659499}, {"type": "node", "id": 1878591443, "lat": 36.8139454, "lon": 10.5659259}, {"type": "node", "id": 1878591444, "lat": 36.8140255, "lon": 10.5660145}, {"type": "node", "id": 1878591445, "lat": 36.8141273, "lon": 10.5660713}, {"type": "node", "id": 1878591446, "lat": 36.8143178, "lon": 10.5662064}, {"type": "node", "id": 1878591451, "lat": 36.8144151, "lon": 10.5665447}, {"type": "node", "id": 1878591452, "lat": 36.8144748, "lon": 10.5664787}, {"type": "node", "id": 2188485399, "lat": 36.5388225, "lon": 10.8481987, "tags": {"amenity": "cafe", "name": "Caf\u00e9 de Tazarka"}}, {"type": "node", "id": 2254835436, "lat": 36.5604953, "lon": 10.858904, "tags": {"amenity": "restaurant", "cuisine": "regional", "name": "Mandisa"}}, {"type": "node", "id": 2254835533, "lat": 36.5621435, "lon": 10.8536163, "tags": {"amenity": "restaurant", "cuisine": "italian;regional", "name": "Pizza Jade"}}, {"type": "node", "id": 2406749137, "lat": 36.8273602, "lon": 10.6124028, "tags": {"amenity": "cafe", "name": "Kaouthar"}}, {"type": "node", "id": 3752485417, "lat": 36.6938695, "lon": 10.4872605, "tags": {"addr:city": "\u0633\u0644\u064a\u0645\u0627\u0646", "amenity": "restaurant", "name": "\u0645\u0637\u0639\u0645 \u0642\u0631\u0648\u064a - \u0648\u062c\u0628\u0627\u062a \u0633\u0631\u064a\u0639\u0629", "name:ar": "\u0645\u0637\u0639\u0645 \u0642\u0631\u0648\u064a - \u0648\u062c\u0628\u0627\u062a \u0633\u0631\u064a\u0639\u0629", "name:en": "Restaurant Karoui - Fast Food", "name:fr": "Restaurant Karoui - Fast Food"}}, {"type": "node", "id": 3752485815, "lat": 36.6942739, "lon": 10.4870427, "tags": {"addr:city": "\u0633\u0644\u064a\u0645\u0627\u0646", "amenity": "restaurant", "name": "\u0627\u0644\u0644\u0624\u0644\u0624\u0629", "name:ar": "\u0627\u0644\u0644\u0624\u0644\u0624\u0629", "name:fr": "La Perle"}}, {"type": "node", "id": 3752487890, "lat": 36.6909197, "lon": 10.4890106, "tags": {"amenity": "cafe", "name": "Caf\u00e9 ceinture"}}, {"type": "node", "id": 3765561537, "lat": 36.6931412, "lon": 10.489449, "tags": {"amenity": "cafe", "name": "Caf\u00e9 Ayed - \u0645\u0642\u0647\u0649 \u0639\u064a\u0627\u062f"}}, {"type": "node", "id": 3765572114, "lat": 36.6930833, "lon": 10.4923813, "tags": {"addr:city": "\u0633\u0644\u064a\u0645\u0627\u0646", "amenity": "cafe", "name": "\u0645\u0642\u0647\u0649", "name:ar": "\u0645\u0642\u0647\u0649"}}, {"type": "node", "id": 3777866069, "lat": 36.6988083, "lon": 10.49356}, {"type": "node", "id": 3777866070, "lat": 36.6986958, "lon": 10.4934259}, {"type": "node", "id": 3777866071, "lat": 36.698703, "lon": 10.4933734}, {"type": "node", "id": 3777866072, "lat": 36.6988587, "lon": 10.493393}, {"type": "node", "id": 3798175345, "lat": 36.6958281, "lon": 10.4714017, "tags": {"amenity": "restaurant", "name": "Ezarda"}}, {"type": "node", "id": 3890830002, "lat": 36.5631843, "lon": 10.8524051, "tags": {"addr:city": "Korba", "addr:postcode": "8070", "addr:street": "Avenue habib bourguiba", "amenity": "restaurant", "capacity": "60", "cuisine": "international", "name": "Restaurant Belhorizon", "opening_hours": "12:00", "phone": "+216 72 388 562", "smoking": "isolated", "takeaway": "yes", "website": "http://www.restaurant-belhorizon.com"}}, {"type": "node", "id": 5061947204, "lat": 36.5618458, "lon": 10.8537886, "tags": {"amenity": "cafe", "cuisine": "coffee_shop", "name": "Caf\u00e9 Ambra-\u0645\u0642\u0647\u0649 \u0627\u0644\u0639\u0646\u0628\u0631\u0629"}}, {"type": "node", "id": 5308443457, "lat": 36.5417554, "lon": 10.8444835}, {"type": "node", "id": 5308443490, "lat": 36.5416842, "lon": 10.844411}, {"type": "node", "id": 5308443491, "lat": 36.5416261, "lon": 10.8445022}, {"type": "node", "id": 5308445751, "lat": 36.5416476, "lon": 10.8442447}, {"type": "node", "id": 5308445760, "lat": 36.541708, "lon": 10.8442289}, {"type": "node", "id": 5308445805, "lat": 36.5418933, "lon": 10.8442555}, {"type": "node", "id": 5308445939, "lat": 36.5415291, "lon": 10.8444271}, {"type": "node", "id": 6034968300, "lat": 36.7251387, "lon": 10.4538667}, {"type": "node", "id": 6034968301, "lat": 36.7251262, "lon": 10.4539376}, {"type": "node", "id": 6034968302, "lat": 36.7251756, "lon": 10.4539766}, {"type": "node", "id": 6034968303, "lat": 36.7252063, "lon": 10.4539603}, {"type": "node", "id": 6034968304, "lat": 36.7251887, "lon": 10.4539277}, {"type": "node", "id": 6034968305, "lat": 36.7252069, "lon": 10.4539043}, {"type": "node", "id": 6034968306, "lat": 36.7251768, "lon": 10.4538752}, {"type": "node", "id": 6034968307, "lat": 36.725143, "lon": 10.4539508}, {"type": "node", "id": 6034968322, "lat": 36.7251686, "lon": 10.453971}, {"type": "node", "id": 6291662827, "lat": 36.8163103, "lon": 10.5675099, "tags": {"amenity": "cafe", "name": "Caf\u00e9 Ain Sebbia"}}, {"type": "node", "id": 6291662854, "lat": 36.8165836, "lon": 10.5693139, "tags": {"amenity": "cafe", "name": "Caf\u00e9 Andalouz"}}, {"type": "node", "id": 6318392124, "lat": 36.5754026, "lon": 10.8593514, "tags": {"amenity": "cafe", "name": "Caf\u00e9 Carthage"}}, {"type": "node", "id": 6318392161, "lat": 36.5769858, "lon": 10.8601661, "tags": {"amenity": "cafe", "name": "\u0645\u0642\u0647\u0649 \u0648 \u0645\u0637\u0639\u0645 \u0627\u0644\u0639\u0627\u0626\u0644\u064a", "name:ar": "\u0645\u0642\u0647\u0649 \u0648 \u0645\u0637\u0639\u0645 \u0627\u0644\u0639\u0627\u0626\u0644\u064a"}}, {"type": "node", "id": 6318392167, "lat": 36.5773985, "lon": 10.8604076, "tags": {"amenity": "cafe", "name": "\u0645\u0642\u0647\u0649 \u0645\u0648\u0632\u0627\u064a\u064a\u0643", "name:ar": "\u0645\u0642\u0647\u0649 \u0645\u0648\u0632\u0627\u064a\u064a\u0643"}}, {"type": "node", "id": 6318392169, "lat": 36.574266, "lon": 10.8604782, "tags": {"amenity": "cafe", "name": "Caf\u00e9 Miami"}}, {"type": "node", "id": 6318392486, "lat": 36.5726684, "lon": 10.857496, "tags": {"amenity": "cafe", "name": "El Ons"}}, {"type": "node", "id": 6318392487, "lat": 36.5730994, "lon": 10.8570616, "tags": {"amenity": "cafe", "name": "Caf\u00e9 Arabesque"}}, {"type": "node", "id": 6318392488, "lat": 36.5731295, "lon": 10.8567945, "tags": {"amenity": "restaurant", "name": "Restaurant Galbi"}}, {"type": "node", "id": 6318392489, "lat": 36.5729691, "lon": 10.8556462, "tags": {"amenity": "cafe", "name": "Cafe Mirage"}}, {"type": "node", "id": 6318392490, "lat": 36.5715297, "lon": 10.8580726, "tags": {"amenity": "restaurant", "name": "Restaurant Picasso"}}, {"type": "node", "id": 6318392491, "lat": 36.5702446, "lon": 10.8568619, "tags": {"amenity": "cafe", "name": "Caf\u00e9 IN"}}, {"type": "node", "id": 6318392495, "lat": 36.5548216, "lon": 10.8498619, "tags": {"amenity": "restaurant", "name": "Parc Le Petit Paradis"}}, {"type": "node", "id": 6318392508, "lat": 36.5720657, "lon": 10.8657958, "tags": {"amenity": "cafe", "name": "Luna Casa"}}, {"type": "node", "id": 6318392509, "lat": 36.5724051, "lon": 10.8669531, "tags": {"amenity": "restaurant", "name": "Restaurant Sidi Maaouia"}}, {"type": "node", "id": 6318392510, "lat": 36.5745749, "lon": 10.867897, "tags": {"amenity": "restaurant", "name": "La Marine"}}, {"type": "node", "id": 6318392511, "lat": 36.5748119, "lon": 10.8673997, "tags": {"amenity": "restaurant", "name": "Le Chef"}}, {"type": "node", "id": 6318392512, "lat": 36.5755823, "lon": 10.864728, "tags": {"amenity": "restaurant", "name": "La Grillade"}}, {"type": "node", "id": 6318392514, "lat": 36.5759056, "lon": 10.8640234, "tags": {"amenity": "restaurant", "name": "Bella Vista"}}, {"type": "node", "id": 6318392515, "lat": 36.5772028, "lon": 10.8632607, "tags": {"amenity": "cafe", "name": "Caf\u00e9 Batoir"}}, {"type": "node", "id": 6318392516, "lat": 36.5788596, "lon": 10.8641528, "tags": {"amenity": "cafe", "name": "Caf\u00e9 Chichkhan"}}, {"type": "node", "id": 6318392517, "lat": 36.5795798, "lon": 10.8629679, "tags": {"amenity": "cafe", "name": "Caf\u00e9 du Stade"}}, {"type": "node", "id": 6337932851, "lat": 36.5399865, "lon": 10.5462723, "tags": {"amenity": "cafe", "name": "Caf\u00e9 Chichrane"}}, {"type": "node", "id": 6337932852, "lat": 36.5385676, "lon": 10.5472539, "tags": {"amenity": "cafe", "name": "Caf\u00e9 Sport"}}, {"type": "node", "id": 6337932861, "lat": 36.5313975, "lon": 10.552131, "tags": {"amenity": "cafe", "name": "Cafe Yassmen"}}, {"type": "node", "id": 6337932990, "lat": 36.5150545, "lon": 10.5602282, "tags": {"amenity": "restaurant", "name": "Le Ch\u00e2teau"}}, {"type": "node", "id": 6345018742, "lat": 36.5665928, "lon": 10.5241255}, {"type": "node", "id": 6345018743, "lat": 36.566122, "lon": 10.5245576}, {"type": "node", "id": 6345018744, "lat": 36.5665, "lon": 10.5252508}, {"type": "node", "id": 6345018745, "lat": 36.5667131, "lon": 10.525024}, {"type": "node", "id": 6345018746, "lat": 36.5667749, "lon": 10.5251524}, {"type": "node", "id": 6345018747, "lat": 36.5669811, "lon": 10.5249598}, {"type": "node", "id": 6349731961, "lat": 36.5990051, "lon": 10.499973, "tags": {"amenity": "restaurant", "name": "Restaurant Fourguita"}}, {"type": "node", "id": 6349731963, "lat": 36.5982744, "lon": 10.4983437, "tags": {"amenity": "cafe", "name": "Cafe L'accacia"}}, {"type": "node", "id": 6349731964, "lat": 36.5962494, "lon": 10.5002207, "tags": {"amenity": "cafe", "name": "Caf\u00e9 Terrasse Grombalia"}}, {"type": "node", "id": 6349731969, "lat": 36.5952181, "lon": 10.500911, "tags": {"amenity": "cafe", "name": "Caf\u00e9 Beaux-arts"}}, {"type": "node", "id": 6349731970, "lat": 36.5945765, "lon": 10.5014348, "tags": {"amenity": "cafe", "name": "Caf\u00e9 Bilel"}}, {"type": "node", "id": 6349731985, "lat": 36.5972866, "lon": 10.5073071, "tags": {"amenity": "cafe", "name": "Caf\u00e9 Mellasine"}}, {"type": "node", "id": 6349732020, "lat": 36.5913546, "lon": 10.5042478, "tags": {"amenity": "cafe", "name": "Caf\u00e9 Rdv"}}, {"type": "node", "id": 6349732021, "lat": 36.5919103, "lon": 10.5031205, "tags": {"amenity": "cafe", "name": "Caf\u00e9 Pr\u00e9stige"}}, {"type": "node", "id": 6349732023, "lat": 36.5904083, "lon": 10.5042211, "tags": {"amenity": "cafe", "name": "Jet Set"}}, {"type": "node", "id": 6349732030, "lat": 36.5882026, "lon": 10.5060608, "tags": {"amenity": "cafe", "name": "Caf\u00e9 Riadh"}}, {"type": "node", "id": 6349732035, "lat": 36.5862808, "lon": 10.5066686, "tags": {"amenity": "restaurant", "name": "L'Excellence"}}, {"type": "node", "id": 6349732036, "lat": 36.5855721, "lon": 10.5076615, "tags": {"amenity": "cafe", "name": "Caf\u00e9 Maazim"}}, {"type": "node", "id": 6349732041, "lat": 36.5957695, "lon": 10.500557, "tags": {"amenity": "restaurant", "name": "La Libert\u00e9"}}, {"type": "node", "id": 6349732046, "lat": 36.5958057, "lon": 10.4953899, "tags": {"amenity": "cafe", "name": "Caf\u00e9 Savana"}}, {"type": "node", "id": 6349732063, "lat": 36.5997218, "lon": 10.4999077, "tags": {"amenity": "cafe", "name": "Caf\u00e9 Bela\u00efd"}}, {"type": "node", "id": 6349732064, "lat": 36.6006309, "lon": 10.5007434, "tags": {"amenity": "cafe", "name": "Caf\u00e9 Ben Slimane"}}, {"type": "node", "id": 6349732076, "lat": 36.6041176, "lon": 10.4951193, "tags": {"amenity": "cafe", "name": "Caf\u00e9 Sidi Bousaid"}}, {"type": "node", "id": 6349732081, "lat": 36.6144252, "lon": 10.4901454, "tags": {"amenity": "restaurant", "name": "Le Marin"}}, {"type": "node", "id": 6349732082, "lat": 36.5759517, "lon": 10.5145825, "tags": {"amenity": "cafe", "name": "Caf\u00e9 Ghaoui"}}, {"type": "node", "id": 6349732083, "lat": 36.5737783, "lon": 10.5166974, "tags": {"amenity": "cafe", "name": "Caf\u00e9 Sbouri"}}, {"type": "node", "id": 6352556455, "lat": 36.6488829, "lon": 10.5913303, "tags": {"amenity": "restaurant", "name": "In Time"}}, {"type": "node", "id": 6352557828, "lat": 36.6486868, "lon": 10.5893942, "tags": {"amenity": "restaurant", "name": "Restaurant Imed"}}, {"type": "node", "id": 6352557859, "lat": 36.6484993, "lon": 10.5908572, "tags": {"amenity": "cafe", "name": "Coffee Khamis Tajouris"}}, {"type": "node", "id": 6352557860, "lat": 36.6500291, "lon": 10.5916854, "tags": {"amenity": "cafe", "name": "Caf\u00e9 Boujbel Beni Khalled"}}, {"type": "node", "id": 6353072047, "lat": 36.6806245, "lon": 10.5848913, "tags": {"amenity": "restaurant", "name": "MAHAAZIME PLUS"}}, {"type": "node", "id": 6354539923, "lat": 36.7078435, "lon": 10.5025246}, {"type": "node", "id": 6354539924, "lat": 36.7084384, "lon": 10.5036502}, {"type": "node", "id": 6354539925, "lat": 36.7077866, "lon": 10.5042544}, {"type": "node", "id": 6354539926, "lat": 36.70716, "lon": 10.5029142}, {"type": "node", "id": 6365123112, "lat": 36.669014, "lon": 10.4461347, "tags": {"amenity": "cafe", "name": "\u0645\u0642\u0647\u0649 \u0633\u0651\u0644\u0627\u0645 \u0641\u0646\u062f\u0642 \u0627\u0644\u062c\u062f\u064a\u062f", "name:ar": "\u0645\u0642\u0647\u0649 \u0633\u0651\u0644\u0627\u0645 \u0641\u0646\u062f\u0642 \u0627\u0644\u062c\u062f\u064a\u062f"}}, {"type": "node", "id": 7061109604, "lat": 36.6969173, "lon": 10.4912606, "tags": {"amenity": "restaurant", "name": "Restaurant El Hadded"}}, {"type": "node", "id": 7062677730, "lat": 36.6929977, "lon": 10.4906288, "tags": {"amenity": "cafe", "name": "Caf\u00e9 Labben - \u0645\u0642\u0647\u0649 \u0627\u0644\u0644\u0628\u0627\u0646"}}, {"type": "node", "id": 7536654837, "lat": 36.7004249, "lon": 10.4385403, "tags": {"addr:city": "Soliman Erriadh", "addr:postcode": "8020", "amenity": "cafe", "internet_access": "yes", "internet_access:ssid": "Rzouga", "name": "Caf\u00e9 Oueslati", "opening_hours": "Mo-Su 10:00-22:00"}}, {"type": "node", "id": 8416337217, "lat": 36.6938501, "lon": 10.4955938, "tags": {"amenity": "restaurant", "name": "Resto Bella Italia"}}, {"type": "node", "id": 9513097702, "lat": 36.6257615, "lon": 10.6942144, "tags": {"amenity": "restaurant", "name": "Restaurant Aymen Mhamdi", "name:fr": "Restaurant Aymen Mhamdi"}}, {"type": "node", "id": 9513097703, "lat": 36.6481731, "lon": 10.5906678, "tags": {"amenity": "restaurant", "name": "Pizzeria"}}, {"type": "node", "id": 9513100369, "lat": 36.6520463, "lon": 10.5874471, "tags": {"amenity": "restaurant", "name": "TC Batrou", "name:fr": "TC Batrou"}}, {"type": "node", "id": 9513100370, "lat": 36.6699776, "lon": 10.5850864, "tags": {"amenity": "restaurant", "name": "Pizza Napoli", "name:fr": "Pizza Napoli"}}, {"type": "node", "id": 9513106277, "lat": 36.6503554, "lon": 10.5912461, "tags": {"amenity": "restaurant", "name": "Restaurant"}}, {"type": "node", "id": 9513106278, "lat": 36.6504372, "lon": 10.5914201, "tags": {"amenity": "restaurant", "name": "Pizz\u00e9ria Mehdi", "name:fr": "Pizz\u00e9ria Mehdi"}}, {"type": "node", "id": 9513119081, "lat": 36.6486551, "lon": 10.5898356, "tags": {"amenity": "restaurant", "name": "Restaurant Zaamni", "name:fr": "Restaurant Zaamni"}}, {"type": "node", "id": 9513129826, "lat": 36.6510464, "lon": 10.5911351, "tags": {"amenity": "restaurant", "name": "Restaurant de Station", "name:fr": "Restaurant de Station"}}, {"type": "node", "id": 9513129827, "lat": 36.6507221, "lon": 10.5883342, "tags": {"amenity": "restaurant", "name": "Restaurant Chenaoui", "name:fr": "Restaurant Chenaoui"}}, {"type": "node", "id": 9822106062, "lat": 36.8142665, "lon": 10.5662054}, {"type": "node", "id": 12888549110, "lat": 36.6988492, "lon": 10.4935055}, {"type": "node", "id": 12888549111, "lat": 36.698839, "lon": 10.4934791}, {"type": "way", "id": 97468388, "nodes": [1128664589, 1128652979, 1128666962, 1128671951, 1128661696, 1128652364, 1128669708, 1128667616, 1128653403, 1128664589], "tags": {"amenity": "cafe", "building": "yes", "name": "Beignets Ain El Atrous"}}, {"type": "way", "id": 177401234, "nodes": [1878591442, 1878591451, 1878591452, 1878591446, 9822106062, 1878591445, 1878591444, 1878591443, 1878591442], "tags": {"amenity": "restaurant", "building": "yes"}}, {"type": "way", "id": 374399244, "nodes": [3777866069, 3777866070, 3777866071, 3777866072, 12888549111, 12888549110, 3777866069], "tags": {"addr:city": "\u0633\u0644\u064a\u0645\u0627\u0646", "amenity": "cafe", "building": "yes", "name": "\u0645\u0642\u0647\u0649", "name:ar": "\u0645\u0642\u0647\u0649", "name:fr": "Caf\u00e9"}}, {"type": "way", "id": 549558849, "nodes": [5308445805, 5308443457, 5308443490, 5308443491, 5308445939, 5308445751, 5308445760, 5308445805], "tags": {"amenity": "restaurant", "building": "yes", "name": "La Mama"}}, {"type": "way", "id": 640634209, "nodes": [6034968300, 6034968301, 6034968307, 6034968322, 6034968302, 6034968303, 6034968304, 6034968305, 6034968306, 6034968300], "tags": {"amenity": "cafe", "building": "yes"}}, {"type": "way", "id": 677649403, "nodes": [6345018742, 6345018743, 6345018744, 6345018745, 6345018746, 6345018747, 6345018742], "tags": {"amenity": "restaurant", "name": "Dar Ranim"}}, {"type": "way", "id": 678653587, "nodes": [6354539923, 6354539924, 6354539925, 6354539926, 6354539923], "tags": {"amenity": "cafe", "name": "Jenene Loisirs"}}]}