{"version": 0.6, "generator": "Overpass API 0.7.62.7 375dc00a", "osm3s": {"timestamp_osm_base": "2025-06-14T13:24:02Z", "copyright": "The data included in this document is from www.openstreetmap.org. The data is made available under ODbL."}, "elements": [{"type": "node", "id": 2146533736, "lat": 36.423179, "lon": 9.2201714, "tags": {"addr:city": "\u062f\u0642\u0629", "amenity": "cafe", "name": "\u0645\u0642\u0647\u0649", "name:ar": "\u0645\u0642\u0647\u0649"}}, {"type": "node", "id": 3868084534, "lat": 36.730775, "lon": 9.2003495}, {"type": "node", "id": 3868084535, "lat": 36.7300002, "lon": 9.2006577}, {"type": "node", "id": 3868084536, "lat": 36.7302472, "lon": 9.2015217}, {"type": "node", "id": 3868084537, "lat": 36.7309771, "lon": 9.2012601}, {"type": "node", "id": 3868109097, "lat": 36.728411, "lon": 9.2019821, "tags": {"amenity": "restaurant"}}, {"type": "node", "id": 3868109098, "lat": 36.7283928, "lon": 9.2019915, "tags": {"amenity": "cafe"}}, {"type": "node", "id": 3868109099, "lat": 36.7283734, "lon": 9.2012472}, {"type": "node", "id": 3868109100, "lat": 36.7282057, "lon": 9.2012995}, {"type": "node", "id": 3868109101, "lat": 36.7282466, "lon": 9.2014645}, {"type": "node", "id": 3868109102, "lat": 36.72841, "lon": 9.2014162}, {"type": "node", "id": 3868109103, "lat": 36.7283229, "lon": 9.2013491, "tags": {"amenity": "cafe", "name": "Moulin", "name:fr": "Moulin"}}, {"type": "node", "id": 3871616269, "lat": 36.7275272, "lon": 9.1963116}, {"type": "node", "id": 3871616270, "lat": 36.7275681, "lon": 9.1964497}, {"type": "node", "id": 3871616271, "lat": 36.72761, "lon": 9.1965704}, {"type": "node", "id": 3871616272, "lat": 36.7272219, "lon": 9.1965436}, {"type": "node", "id": 3871616273, "lat": 36.7270994, "lon": 9.1962486}, {"type": "node", "id": 3871616274, "lat": 36.7273133, "lon": 9.1961976}, {"type": "node", "id": 3871616275, "lat": 36.7273262, "lon": 9.1963625}, {"type": "node", "id": 3871616276, "lat": 36.727381, "lon": 9.1964216}, {"type": "node", "id": 4212014092, "lat": 36.7310095, "lon": 9.2053453, "tags": {"amenity": "cafe", "name": "Jasmin"}}, {"type": "node", "id": 6127806086, "lat": 36.4192394, "lon": 9.2164266, "tags": {"addr:city": "\u062f\u0642\u0629", "amenity": "restaurant", "name": "\u062f\u0627\u0631 \u0627\u0644\u062c\u062f\u0648\u062f", "name:ar": "\u062f\u0627\u0631 \u0627\u0644\u062c\u062f\u0648\u062f", "name:de": "Dar al-Dschud\u016bd", "name:en": "Dar al-Jud\u016bd", "name:fr": "Dar Jdoud"}}, {"type": "node", "id": 8493907457, "lat": 36.7228817, "lon": 9.1862246, "tags": {"amenity": "cafe", "name": "Caf\u00e9 Municipal", "name:fr": "Caf\u00e9 Municipal"}}, {"type": "node", "id": 8875469717, "lat": 36.4493578, "lon": 9.2537119, "tags": {"amenity": "cafe", "name": "\u064a\u0627\u0633\u0645\u064a\u0646 \u062c\u0646\u0627\u062a", "name:en": "Espace jasmain jenat", "name:fr": "Espace jasmain jenat"}}, {"type": "node", "id": 11990500472, "lat": 36.7427834, "lon": 9.1827633, "tags": {"amenity": "cafe", "name": "Caf\u00e9 beja jadida"}}, {"type": "node", "id": 11991938969, "lat": 36.723379, "lon": 9.2041161, "tags": {"amenity": "restaurant", "name:fr": "restaurant prestige"}}, {"type": "node", "id": 12676871440, "lat": 36.6107241, "lon": 8.9687348, "tags": {"amenity": "cafe", "name": "Caf\u00e9 L'Eglise Arfaoui"}}, {"type": "way", "id": 383524762, "nodes": [3868084534, 3868084535, 3868084536, 3868084537, 3868084534], "tags": {"addr:city": "B\u00e9ja", "amenity": "restaurant", "building": "yes", "name": "Restaurant de l'Institut", "name:fr": "Restaurant de l'Institut"}}, {"type": "way", "id": 383526602, "nodes": [3868109099, 3868109100, 3868109101, 3868109102, 3868109099], "tags": {"amenity": "restaurant", "building": "yes", "name": "moulin"}}, {"type": "way", "id": 383852287, "nodes": [3871616269, 3871616270, 3871616271, 3871616272, 3871616273, 3871616274, 3871616275, 3871616276, 3871616269], "tags": {"amenity": "cafe", "brand": "\u0627\u0644\u0628\u0646\u0643 \u0627\u0644\u0648\u0637\u0646\u064a \u0627\u0644\u0641\u0644\u0627\u062d\u064a", "brand:ar": "\u0627\u0644\u0628\u0646\u0643 \u0627\u0644\u0648\u0637\u0646\u064a \u0627\u0644\u0641\u0644\u0627\u062d\u064a", "brand:en": "BNA", "brand:wikidata": "Q2883413", "brand:wikipedia": "ar:\u0627\u0644\u0628\u0646\u0643 \u0627\u0644\u0648\u0637\u0646\u064a \u0627\u0644\u0641\u0644\u0627\u062d\u064a", "brand:wikipedia:ar": "\u0627\u0644\u0628\u0646\u0643 \u0627\u0644\u0648\u0637\u0646\u064a \u0627\u0644\u0641\u0644\u0627\u062d\u064a", "building": "yes", "name": "\u0627\u0644\u0628\u0646\u0643 \u0627\u0644\u0648\u0637\u0646\u064a \u0627\u0644\u0641\u0644\u0627\u062d\u064a", "name:ar": "\u0627\u0644\u0628\u0646\u0643 \u0627\u0644\u0648\u0637\u0646\u064a \u0627\u0644\u0641\u0644\u0627\u062d\u064a", "name:en": "BNA", "operator": "\u0627\u0644\u0628\u0646\u0643 \u0627\u0644\u0648\u0637\u0646\u064a \u0627\u0644\u0641\u0644\u0627\u062d\u064a", "operator:ar": "\u0627\u0644\u0628\u0646\u0643 \u0627\u0644\u0648\u0637\u0646\u064a \u0627\u0644\u0641\u0644\u0627\u062d\u064a", "operator:wikidata": "Q2883413", "operator:wikipedia": "ar:\u0627\u0644\u0628\u0646\u0643 \u0627\u0644\u0648\u0637\u0646\u064a \u0627\u0644\u0641\u0644\u0627\u062d\u064a", "operator:wikipedia:ar": "\u0627\u0644\u0628\u0646\u0643 \u0627\u0644\u0648\u0637\u0646\u064a \u0627\u0644\u0641\u0644\u0627\u062d\u064a"}}]}