{"version": 0.6, "generator": "Overpass API 0.7.62.7 375dc00a", "osm3s": {"timestamp_osm_base": "2025-06-14T14:50:30Z", "copyright": "The data included in this document is from www.openstreetmap.org. The data is made available under ODbL."}, "elements": [{"type": "node", "id": 1331315582, "lat": 38.4146256, "lon": 26.1351229, "tags": {"amenity": "restaurant", "cuisine": "regional", "internet_access": "wlan", "name": "\u039c\u03bf\u03c5\u03c1\u03b9\u03b1", "name:el": "\u039c\u03bf\u03c5\u03c1\u03b9\u03b1"}}, {"type": "node", "id": 1331315677, "lat": 38.4634683, "lon": 26.1353029, "tags": {"amenity": "restaurant", "cuisine": "regional"}}, {"type": "node", "id": 1335061002, "lat": 38.3007626, "lon": 26.1430284, "tags": {"amenity": "restaurant", "cuisine": "regional", "name": "Ankyra"}}, {"type": "node", "id": 1338824652, "lat": 38.3136551, "lon": 26.1336446, "tags": {"amenity": "restaurant", "cuisine": "regional"}}, {"type": "node", "id": 1420093530, "lat": 38.3138042, "lon": 26.3467874, "tags": {"amenity": "restaurant", "name": "Cardak"}}, {"type": "node", "id": 1423144894, "lat": 38.3233741, "lon": 26.3387843, "tags": {"amenity": "restaurant", "name": "Sweet Park"}}, {"type": "node", "id": 1424193820, "lat": 38.3166283, "lon": 26.3488516, "tags": {"amenity": "restaurant", "name": "Grill"}}, {"type": "node", "id": 1800195567, "lat": 38.2533459, "lon": 26.3837729, "tags": {"amenity": "restaurant"}}, {"type": "node", "id": 1800195569, "lat": 38.2542938, "lon": 26.3829001, "tags": {"amenity": "restaurant"}}, {"type": "node", "id": 2923616824, "lat": 38.3250472, "lon": 26.1333905}, {"type": "node", "id": 2923616825, "lat": 38.3250203, "lon": 26.1335106}, {"type": "node", "id": 2923616841, "lat": 38.3251473, "lon": 26.1335569}, {"type": "node", "id": 2923616845, "lat": 38.3251742, "lon": 26.1334368}, {"type": "node", "id": 3112764713, "lat": 38.3693398, "lon": 26.1380345, "tags": {"addr:postcode": "82131", "amenity": "cafe", "check_date": "2022-08-22", "cuisine": "greek", "internet_access": "wlan", "internet_access:fee": "customers", "internet_access:ssid": "AellaWifi Out", "name": "\u03b1\u03ad\u03bb\u03bb\u03b1", "name:el": "\u0386\u03b5\u03bb\u03bb\u03b1", "name:en": "Aella", "outdoor_seating": "yes", "payment:mastercard": "yes", "payment:visa": "yes", "website": "https://www.aella.gr/"}}, {"type": "node", "id": 3112764724, "lat": 38.3687594, "lon": 26.1381581, "tags": {"amenity": "cafe", "name": "caprice"}}, {"type": "node", "id": 3112764726, "lat": 38.3678509, "lon": 26.1384263, "tags": {"amenity": "cafe", "name": "Marine"}}, {"type": "node", "id": 3112767040, "lat": 38.3690349, "lon": 26.1381069, "tags": {"amenity": "cafe", "name": "\u039a\u03a1\u039f\u039d\u039f\u03a3"}}, {"type": "node", "id": 3112767042, "lat": 38.3679942, "lon": 26.1383788, "tags": {"amenity": "cafe"}}, {"type": "node", "id": 3112767044, "lat": 38.3683829, "lon": 26.1382708, "tags": {"amenity": "cafe", "name": "\u039a\u03b5\u03bd\u03c4\u03c1\u03b9\u03ba\u03bf"}}, {"type": "node", "id": 3112767047, "lat": 38.3665513, "lon": 26.1413899, "tags": {"amenity": "restaurant", "name": "La Bussola", "wheelchair": "limited"}}, {"type": "node", "id": 3112767059, "lat": 38.3685952, "lon": 26.1382064, "tags": {"amenity": "cafe", "name": "LOFT"}}, {"type": "node", "id": 3112907105, "lat": 38.3673759, "lon": 26.1388819, "tags": {"amenity": "restaurant", "name": "\u0392\u03cc\u03c3\u03c0\u03bf\u03c1\u03bf\u03c2"}}, {"type": "node", "id": 3112907107, "lat": 38.3674598, "lon": 26.1386137, "tags": {"amenity": "restaurant", "name": "\u0395\u03bb\u03bb\u03b7\u03bd\u03b9\u03ba\u03ae \u039a\u03bf\u03c5\u03b6\u03af\u03bd\u03b1"}}, {"type": "node", "id": 3112907113, "lat": 38.3674095, "lon": 26.1387478, "tags": {"amenity": "cafe", "name": "PlanB"}}, {"type": "node", "id": 3129245398, "lat": 38.2003922, "lon": 26.0223244, "tags": {"amenity": "restaurant"}}, {"type": "node", "id": 3129270734, "lat": 38.3250787, "lon": 26.1334639, "tags": {"amenity": "restaurant", "name": "\u039c\u0391\u0392\u03a1\u039f\u039a\u039f\u0394\u03a1\u039f\u03a4\u0399\u039a\u039f", "name:de": "Mavrokordatiko", "name:el": "\u039c\u0391\u0392\u03a1\u039f\u039a\u039f\u0394\u03a1\u039f\u03a4\u0399\u039a\u039f"}}, {"type": "node", "id": 3164347503, "lat": 38.2489031, "lon": 26.3803621, "tags": {"addr:city": "Ala\u00e7at\u0131", "addr:postcode": "35937", "amenity": "restaurant", "name": "Ali Baba", "phone": "+90 232 7169898"}}, {"type": "node", "id": 3406817818, "lat": 38.3538545, "lon": 26.1280881, "tags": {"amenity": "restaurant", "name": "\u03a4\u03b1\u03b2\u03ad\u03c1\u03bd\u03b1.\u03a4\u03bf\u03c5.\u0393\u03b9\u03ce\u03c1\u03b3\u03bf\u03c5", "name:de": "Tav\u00e9rna.Tou.Gi\u00f3rgou", "name:el": "\u03a4\u03b1\u03b2\u03ad\u03c1\u03bd\u03b1.\u03a4\u03bf\u03c5.\u0393\u03b9\u03ce\u03c1\u03b3\u03bf\u03c5"}}, {"type": "node", "id": 3409717780, "lat": 38.3720757, "lon": 26.1371099, "tags": {"amenity": "cafe", "check_date": "2025-06-14", "check_date:smoking": "2025-06-14", "internet_access": "wlan", "internet_access:fee": "customers", "name": "\u039c\u03b1\u03bd\u03af\u03ba\u03b1", "smoking": "outside"}}, {"type": "node", "id": 3409718895, "lat": 38.3713884, "lon": 26.1372303, "tags": {"amenity": "cafe", "check_date": "2025-06-14", "check_date:smoking": "2025-06-14", "name": "\u0391\u03af\u03b8\u03bf\u03c5\u03c3\u03b1.\u0395\u03c0\u03b9\u03b2\u03b1\u03c4\u03ce\u03bd", "smoking": "outside"}}, {"type": "node", "id": 3409719803, "lat": 38.3707373, "lon": 26.1375635, "tags": {"amenity": "cafe"}}, {"type": "node", "id": 3676100315, "lat": 38.2931339, "lon": 26.46258, "tags": {"amenity": "restaurant", "name": "Babam\u0131n \u00c7iftli\u011fi"}}, {"type": "node", "id": 4030357346, "lat": 38.421725, "lon": 26.1343742}, {"type": "node", "id": 4030357347, "lat": 38.4216488, "lon": 26.1342982}, {"type": "node", "id": 4030357348, "lat": 38.421522, "lon": 26.1345056}, {"type": "node", "id": 4030357349, "lat": 38.4215983, "lon": 26.1345816}, {"type": "node", "id": 4131222597, "lat": 38.32264, "lon": 26.3032057, "tags": {"amenity": "restaurant", "name": "tokmak hasan", "name:en": "Tokmak Hasan", "name:tr": "Tokmak Hasan"}}, {"type": "node", "id": 4159192291, "lat": 38.3059565, "lon": 26.3660758, "tags": {"addr:street": "5156 Sok.", "amenity": "restaurant", "cuisine": "turkish", "name": "Dost Pide", "phone": "+902327230501"}}, {"type": "node", "id": 4173213965, "lat": 38.3146523, "lon": 26.1227511}, {"type": "node", "id": 4173213966, "lat": 38.3145316, "lon": 26.1226739}, {"type": "node", "id": 4173213967, "lat": 38.3144628, "lon": 26.1228486}, {"type": "node", "id": 4173213968, "lat": 38.3145835, "lon": 26.1229258}, {"type": "node", "id": 4202710989, "lat": 38.2965217, "lon": 26.2807642, "tags": {"amenity": "restaurant", "cuisine": "fish;breakfast;turkish", "name": "Ada bal\u0131k", "phone": "+902327221575"}}, {"type": "node", "id": 4292864002, "lat": 38.3667307, "lon": 26.1420795, "tags": {"amenity": "cafe", "name": "Chateau Cafe", "smoking": "outside"}}, {"type": "node", "id": 4296950589, "lat": 38.4281576, "lon": 26.583957, "tags": {"amenity": "restaurant", "name": "Garip'in Yeri"}}, {"type": "node", "id": 4307105390, "lat": 38.3673156, "lon": 26.1391733, "tags": {"amenity": "cafe", "name": "Axvn yemek", "name:el": "\u0391\u03c7\u03bd\u03b7 & \u039a\u03b1\u03bd\u03b5\u03bb\u03b1"}}, {"type": "node", "id": 4307121491, "lat": 38.3208971, "lon": 26.1537549, "tags": {"amenity": "cafe"}}, {"type": "node", "id": 4334132215, "lat": 38.3252186, "lon": 26.3034543, "tags": {"addr:street": "3047 Sok.", "amenity": "restaurant", "cuisine": "fish", "name": "Horasan Bal\u0131k\u00e7\u0131s\u0131"}}, {"type": "node", "id": 4379464494, "lat": 38.2815727, "lon": 26.3726454, "tags": {"addr:housenumber": "30", "addr:street": "2001. Sokak", "amenity": "cafe", "internet_access": "wlan", "name:en": "Take Five"}}, {"type": "node", "id": 4380484193, "lat": 38.2832198, "lon": 26.3743023, "tags": {"addr:housenumber": "25", "addr:street": "1005 Sok.", "amenity": "restaurant", "cuisine": "turkish;french;coffee_shop", "internet_access": "wlan", "name": "Trakt\u00f6r", "name:tr": "Trakt\u00f6r"}}, {"type": "node", "id": 4401387591, "lat": 38.3254534, "lon": 26.3020716, "tags": {"amenity": "restaurant", "check_date": "2023-11-07", "name": "Kumrucu Eren", "name:en": "Kumrucu Eren", "name:tr": "Kumrucu Eren"}}, {"type": "node", "id": 4403134289, "lat": 38.5138248, "lon": 26.219096, "tags": {"amenity": "cafe", "internet_access": "wlan", "name": "\u03a0\u03b1\u03bb\u03b9\u03cc \u03a4\u03b5\u03bb\u03c9\u03bd\u03b5\u03af\u03bf", "name:el": "\u03a0\u03b1\u03bb\u03b9\u03cc \u03a4\u03b5\u03bb\u03c9\u03bd\u03b5\u03af\u03bf"}}, {"type": "node", "id": 4405629992, "lat": 38.4233961, "lon": 26.1315612, "tags": {"addr:postcode": "82131", "amenity": "cafe", "name": "\u039a\u03b1\u03c6\u03b5\u03ba\u03bf\u03cd\u03c4\u03b9", "name:el": "\u039a\u03b1\u03c6\u03b5\u03ba\u03bf\u03cd\u03c4\u03b9"}}, {"type": "node", "id": 4409444972, "lat": 38.3732538, "lon": 26.1366154, "tags": {"addr:city": "\u03a7\u03af\u03bf\u03c2", "addr:housenumber": "20", "addr:postcode": "82100", "addr:street": "\u0391\u03b3.\u0393\u03b5\u03c9\u03c1\u03b3\u03af\u03bf\u03c5.\u03a6\u03c1\u03bf\u03c5\u03c1\u03af\u03bf\u03c5", "amenity": "restaurant", "check_date": "2024-05-05", "name": "\u0392\u03c1\u03b1\u03b4\u03cd\u03c0\u03bf\u03c5\u03c2"}}, {"type": "node", "id": 4409608762, "lat": 38.3722828, "lon": 26.136189, "tags": {"addr:housenumber": "13", "addr:street": "\u03a7\u03af\u03c9\u03bd \u0395\u03b8\u03bd\u03bf\u03bc\u03b1\u03c1\u03c4\u03cd\u03c1\u03c9\u03bd", "amenity": "cafe", "check_date": "2024-05-05", "name": "Kafenes Frourio", "name:el": "\u039a\u03b1\u03c6\u03b5\u03bd\u03ad\u03c2 \u03a6\u03c1\u03bf\u03cd\u03c1\u03b9\u03bf"}}, {"type": "node", "id": 4409623518, "lat": 38.3724568, "lon": 26.1363619, "tags": {"addr:city": "\u03a7\u03af\u03bf\u03c2", "addr:postcode": "82100", "addr:street": "Platia Frouriou", "amenity": "restaurant", "check_date": "2024-05-05", "cuisine": "greek", "name": "\u0386\u03c0\u03b5\u03b9\u03c1\u03bf\u03bd", "name:el": "\u0391\u03c0\u03b5\u03b9\u03c1\u03bf\u03bd", "opening_hours": "Fr-We 13:00-23:00", "outdoor_seating": "yes", "phone": "+30 22710 29123"}}, {"type": "node", "id": 4409623519, "lat": 38.3723269, "lon": 26.1364086, "tags": {"amenity": "cafe", "name": "Porta Maggiore"}}, {"type": "node", "id": 4424256092, "lat": 38.322046, "lon": 26.401176, "tags": {"addr:city": "\u015eifne Mahallesi, \u00c7esme", "amenity": "cafe", "name": "Karaf\u0131r\u0131n \u015eifne", "toilets:wheelchair": "no", "wheelchair": "limited"}}, {"type": "node", "id": 4497203190, "lat": 38.4093005, "lon": 26.1343269, "tags": {"amenity": "restaurant", "brand": "PizzaExpress", "brand:wikidata": "Q662845", "cuisine": "pizza", "name": "PizzaExpress", "name:en": "Pizza express", "phone": "+302271094321"}}, {"type": "node", "id": 4497209989, "lat": 38.3995022, "lon": 26.1360095, "tags": {"amenity": "cafe", "name": "\u0396\u03b5\u03c6\u03c5\u03c1\u03bf\u03c2", "name:el": "\u0396\u03b5\u03c6\u03c5\u03c1\u03bf\u03c2", "name:en": "Zefyros"}}, {"type": "node", "id": 4499066195, "lat": 38.3696997, "lon": 26.1379408, "tags": {"amenity": "cafe", "internet_access": "wlan", "name": "Sueno"}}, {"type": "node", "id": 4499080990, "lat": 38.3697916, "lon": 26.1379188, "tags": {"addr:housenumber": "44", "addr:postcode": "82132", "addr:street": "\u0391\u03b9\u03b3\u03b1\u03af\u03bf\u03c5", "amenity": "cafe", "cuisine": "greek;italian_pizza;american", "email": "pr@44barcoffeeshop.com", "internet_access": "wlan", "name": "44 Bar \u2022 Coffee Shop", "opening_hours": "24/7", "phone": "+302271028211", "website": "http://www.facebook.com/44bar.coffeeshop/"}}, {"type": "node", "id": 4500379291, "lat": 38.3669801, "lon": 26.1400019, "tags": {"amenity": "cafe", "name": "\u03a3\u03c0\u03b9\u03c4\u03b9", "name:el": "\u03a3\u03c0\u03b9\u03c4\u03b9", "name:en": "Spiti"}}, {"type": "node", "id": 4500379494, "lat": 38.3665856, "lon": 26.1410445, "tags": {"amenity": "cafe", "name:en": "Escobar"}}, {"type": "node", "id": 4500438090, "lat": 38.3670218, "lon": 26.1397804, "tags": {"amenity": "cafe", "name": "\u039c\u03b5\u03c4\u03c1\u03bf\u03c0\u03bf\u03bb\u03b9\u03c2", "name:el": "\u039c\u03b5\u03c4\u03c1\u03bf\u03c0\u03bf\u03bb\u03b9\u03c2", "name:en": "Metropolis"}}, {"type": "node", "id": 4505172798, "lat": 38.3691641, "lon": 26.135406, "tags": {"amenity": "cafe", "check_date": "2025-06-14", "check_date:smoking": "2025-06-14", "name": "Grinders", "smoking": "outside"}}, {"type": "node", "id": 4512059392, "lat": 38.4186359, "lon": 26.1339781, "tags": {"addr:city": "\u0392\u03c1\u03bf\u03bd\u03c4\u03ac\u03b4\u03bf\u03c2", "addr:housenumber": "63", "addr:postcode": "82200", "addr:street": "\u039a\u03c9\u03c3\u03c4\u03ae \u039b\u03c9", "amenity": "cafe", "cuisine": "coffee_shop;ice_cream", "internet_access": "wlan", "name": "Freddo Caldo", "outdoor_seating": "yes", "phone": "+302271095684", "website": "http://freddocaldo-vrod.com"}}, {"type": "node", "id": 4529154798, "lat": 38.365284, "lon": 26.1426641, "tags": {"amenity": "cafe", "name": "Bella", "name:en": "Bella Vista"}}, {"type": "node", "id": 4940622623, "lat": 38.3561365, "lon": 26.3134509, "tags": {"amenity": "cafe", "internet_access": "wlan", "name:en": "Vriend & Dikkie Cafe"}}, {"type": "node", "id": 4963777027, "lat": 38.3270894, "lon": 26.2998709, "tags": {"amenity": "restaurant", "cuisine": "fish;regional;seafood;breakfast", "name:en": "Rihtim Restaurant"}}, {"type": "node", "id": 4996910721, "lat": 38.2605263, "lon": 26.3786456, "tags": {"amenity": "restaurant", "name": "ZIPKIN ALA\u00c7ATI", "name:tr": "ZIPKIN ALA\u00c7ATI"}}, {"type": "node", "id": 5000456833, "lat": 38.2847944, "lon": 26.3738392, "tags": {"amenity": "restaurant", "name": "leblebi meyhane", "name:tr": "leblebi meyhane"}}, {"type": "node", "id": 5078727622, "lat": 38.3387959, "lon": 26.1431006, "tags": {"amenity": "restaurant", "name": "\u0395\u03c3\u03c4\u03b9\u03b1\u03c4\u03cc\u03c1\u03b9\u03bf \u0398\u03b5\u03bf\u03b4\u03bf\u03c3\u03af\u03bf\u03c5", "name:el": "\u0395\u03c3\u03c4\u03b9\u03b1\u03c4\u03cc\u03c1\u03b9\u03bf \u0398\u03b5\u03bf\u03b4\u03bf\u03c3\u03af\u03bf\u03c5"}}, {"type": "node", "id": 5120310141, "lat": 38.5638926, "lon": 26.0794273, "tags": {"amenity": "cafe", "name": "Yoso Beach"}}, {"type": "node", "id": 5344546770, "lat": 38.3609723, "lon": 26.1434173, "tags": {"amenity": "restaurant", "cuisine": "pizza", "name": "Steki"}}, {"type": "node", "id": 5344560637, "lat": 38.3462646, "lon": 26.0795747, "tags": {"amenity": "cafe", "name": "\u039f \u03a0\u03bf\u03c4\u03b1\u03bc\u03cc\u03c2"}}, {"type": "node", "id": 5436780222, "lat": 38.2841803, "lon": 26.3762736, "tags": {"amenity": "restaurant", "name": "Kapha"}}, {"type": "node", "id": 5713891523, "lat": 38.5428543, "lon": 26.1067741, "tags": {"amenity": "restaurant", "name:de": "Pizza"}}, {"type": "node", "id": 5773695254, "lat": 38.4787702, "lon": 26.125581, "tags": {"amenity": "restaurant", "cuisine": "greek", "internet_access": "wlan", "name:en": "Passas", "name:tr": "Pa\u015fa"}}, {"type": "node", "id": 5883124785, "lat": 38.3712822, "lon": 26.1413988, "tags": {"amenity": "cafe", "name": "\u039c\u03c0\u03bf\u03cd\u03c1\u03c4\u03b6\u03b9", "name:el": "\u039c\u03c0\u03bf\u03cd\u03c1\u03c4\u03b6\u03b9", "name:en": "Bourtzi"}}, {"type": "node", "id": 5927678385, "lat": 38.2833632, "lon": 26.3745798, "tags": {"amenity": "restaurant", "name": "Asma Yapragi"}}, {"type": "node", "id": 5927680090, "lat": 38.2848616, "lon": 26.3751475, "tags": {"amenity": "restaurant", "name": "K\u00f6se Kahve"}}, {"type": "node", "id": 5927680886, "lat": 38.2849457, "lon": 26.3765071, "tags": {"amenity": "restaurant", "name": "Agrilia"}}, {"type": "node", "id": 5927696485, "lat": 38.2790165, "lon": 26.374011, "tags": {"amenity": "restaurant", "name": "Enginarre"}}, {"type": "node", "id": 5927759595, "lat": 38.2831222, "lon": 26.371344, "tags": {"amenity": "restaurant", "name": "Kabak \u00c7i\u00e7egi"}}, {"type": "node", "id": 6330825141, "lat": 38.3258476, "lon": 26.3067538, "tags": {"amenity": "restaurant", "name": "Kumrucu \u00c7\u0131nar"}}, {"type": "node", "id": 6504069685, "lat": 38.5145005, "lon": 26.2191213, "tags": {"amenity": "restaurant"}}, {"type": "node", "id": 6504333185, "lat": 38.5162583, "lon": 26.2218846, "tags": {"amenity": "restaurant"}}, {"type": "node", "id": 6504335485, "lat": 38.5147789, "lon": 26.2141181, "tags": {"amenity": "restaurant"}}, {"type": "node", "id": 6621234687, "lat": 38.3527207, "lon": 26.4557374, "tags": {"amenity": "restaurant", "name": "Twins Bal\u0131kevi", "name:en": "Twins Fish Rest"}}, {"type": "node", "id": 6623044711, "lat": 38.321269, "lon": 26.1521643, "tags": {"amenity": "restaurant", "cuisine": "greek", "internet_access": "wlan", "name": "Pinaleon", "smoking": "outside"}}, {"type": "node", "id": 6634735285, "lat": 38.3683998, "lon": 26.1349489, "tags": {"addr:housenumber": "2", "addr:postcode": "82100", "addr:street": "\u0394\u03af\u03c9\u03bd\u03bf\u03c2", "amenity": "cafe", "internet_access": "wlan", "name": "hut DIY caf\u00e9", "opening_hours": "Mo-Fr 08:00-22:00; Sa 08:00-20:00", "outdoor_seating": "yes", "phone": "2271301404", "smoking": "outside", "website": "https://facebook.com/hutdiycafe"}}, {"type": "node", "id": 6644102779, "lat": 38.3237365, "lon": 26.5801168, "tags": {"amenity": "cafe", "name": "Bahar\u0131n Yeri Kahvehane"}}, {"type": "node", "id": 6711171886, "lat": 38.2833505, "lon": 26.3758414, "tags": {"amenity": "cafe", "name:en": "Tuck Coffee"}}, {"type": "node", "id": 6711171888, "lat": 38.2849883, "lon": 26.3771776, "tags": {"amenity": "cafe", "name:en": "Waffle\u2019c\u0131 Ak\u0131n"}}, {"type": "node", "id": 6715754985, "lat": 38.3435081, "lon": 26.4434535, "tags": {"amenity": "cafe", "name": "Pankek Kahvalt\u0131m Mant\u0131"}}, {"type": "node", "id": 6715754986, "lat": 38.3434698, "lon": 26.4434076, "tags": {"amenity": "restaurant", "name": "Patamaki Restaurant"}}, {"type": "node", "id": 6723787285, "lat": 38.3243227, "lon": 26.3067866, "tags": {"addr:street": "2032 (Uzun) Sok.", "amenity": "cafe", "name": "S\u0131d\u0131ka Coffee Shop"}}, {"type": "node", "id": 7060276194, "lat": 38.2953048, "lon": 26.3793596}, {"type": "node", "id": 7060276195, "lat": 38.2949176, "lon": 26.3795137}, {"type": "node", "id": 7060276196, "lat": 38.2949647, "lon": 26.3797056}, {"type": "node", "id": 7060276197, "lat": 38.2953518, "lon": 26.3795514}, {"type": "node", "id": 7060276202, "lat": 38.2961514, "lon": 26.3806432}, {"type": "node", "id": 7060276203, "lat": 38.296135, "lon": 26.3806231}, {"type": "node", "id": 7060276204, "lat": 38.2960304, "lon": 26.3806833}, {"type": "node", "id": 7060276205, "lat": 38.2960311, "lon": 26.3807111}, {"type": "node", "id": 7060276206, "lat": 38.2960388, "lon": 26.3807371}, {"type": "node", "id": 7060276207, "lat": 38.2961143, "lon": 26.3806112}, {"type": "node", "id": 7060276208, "lat": 38.2960916, "lon": 26.3806087}, {"type": "node", "id": 7060276209, "lat": 38.2960695, "lon": 26.380616}, {"type": "node", "id": 7060276210, "lat": 38.2960506, "lon": 26.3806322}, {"type": "node", "id": 7060276211, "lat": 38.2960371, "lon": 26.3806555}, {"type": "node", "id": 7060276212, "lat": 38.2960527, "lon": 26.3807587}, {"type": "node", "id": 7060276213, "lat": 38.2960712, "lon": 26.3807734}, {"type": "node", "id": 7060276214, "lat": 38.2960924, "lon": 26.3807799}, {"type": "node", "id": 7060276215, "lat": 38.2961142, "lon": 26.3807774}, {"type": "node", "id": 7060276216, "lat": 38.2961341, "lon": 26.3807661}, {"type": "node", "id": 7060276217, "lat": 38.2961502, "lon": 26.3807473}, {"type": "node", "id": 7060276218, "lat": 38.2961608, "lon": 26.3807229}, {"type": "node", "id": 7060276219, "lat": 38.2961646, "lon": 26.3806955}, {"type": "node", "id": 7060276220, "lat": 38.2961614, "lon": 26.380668}, {"type": "node", "id": 7208743057, "lat": 38.2807499, "lon": 26.3743672}, {"type": "node", "id": 7208743058, "lat": 38.2807001, "lon": 26.374279}, {"type": "node", "id": 7208743059, "lat": 38.2806317, "lon": 26.3743417}, {"type": "node", "id": 7208743060, "lat": 38.2806815, "lon": 26.3744299}, {"type": "node", "id": 7215552580, "lat": 38.2807295, "lon": 26.3743311}, {"type": "node", "id": 7864826190, "lat": 38.4278274, "lon": 26.5839224, "tags": {"amenity": "restaurant", "name": "Nazilli pide"}}, {"type": "node", "id": 7875271971, "lat": 38.2015415, "lon": 26.0434405, "tags": {"addr:street": "Komi", "amenity": "cafe", "check_date": "2024-09-08", "cuisine": "coffee_shop;burger;greek;juice;salad;pancake;breakfast;local", "description": "Cafe", "internet_access": "wlan", "internet_access:fee": "no", "name": "Minima cafe", "opening_hours": "Jun 15-Sep 15 10:30-22:00", "outdoor_seating": "yes", "payment:cash": "yes", "payment:credit_cards": "yes", "payment:debit_cards": "yes", "wheelchair": "yes"}}, {"type": "node", "id": 8042862209, "lat": 38.4292871, "lon": 26.5849742, "tags": {"addr:city": "\u0130zmir", "addr:district": "Urla", "addr:housenumber": "174", "addr:neighbourhood": "Bal\u0131kl\u0131ova mahallesi", "addr:street": "Bal\u0131kova Caddesi", "amenity": "restaurant", "check_date": "2023-02-25", "cuisine": "fish", "name": "Partal Karde\u015fler Bal\u0131k Restorant", "outdoor_seating": "yes", "phone": "+90 232 775 50 75"}}, {"type": "node", "id": 8572253022, "lat": 38.2835993, "lon": 26.3761335, "tags": {"amenity": "restaurant", "name": "Limon K\u00f6yi\u00e7i"}}, {"type": "node", "id": 8572285617, "lat": 38.2866285, "lon": 26.3796624, "tags": {"amenity": "restaurant", "name": "Papazz"}}, {"type": "node", "id": 8572351018, "lat": 38.2847239, "lon": 26.3784025, "tags": {"amenity": "restaurant", "name": "Fava"}}, {"type": "node", "id": 8573496620, "lat": 38.2305211, "lon": 26.3674484, "tags": {"amenity": "restaurant", "name": "Rakish"}}, {"type": "node", "id": 8587237517, "lat": 38.2833662, "lon": 26.3759607, "tags": {"amenity": "restaurant", "name": "INNOcent"}}, {"type": "node", "id": 8588175117, "lat": 38.3390277, "lon": 26.3117516, "tags": {"amenity": "cafe", "name": "Sole&male"}}, {"type": "node", "id": 8594750118, "lat": 38.2327478, "lon": 26.3657518, "tags": {"amenity": "restaurant", "name": "Esnaf"}}, {"type": "node", "id": 8710797681, "lat": 38.2848531, "lon": 26.3758132, "tags": {"addr:city": "\u0130zmir", "addr:district": "\u00c7e\u015fme", "addr:housenumber": "2 /B", "addr:neighbourhood": "Hac\u0131memi\u015f Mahallesi", "addr:postcode": "35930", "addr:street": "Cumhuriyet Caddesi", "amenity": "cafe", "name": "Ala\u00e7at\u0131 Bubble Waffle k\u0131zarm\u0131\u015f Dondurma", "opening_hours": "Mo-Su 12:00-23:00", "outdoor_seating": "yes", "phone": "+905346153035"}}, {"type": "node", "id": 8831334274, "lat": 38.3277477, "lon": 26.2976876, "tags": {"addr:city": "\u0130zmir", "addr:district": "\u00c7e\u015fme", "addr:housenumber": "16", "addr:neighbourhood": "16 Eyl\u00fcl Mahallesi", "addr:postcode": "35930", "addr:street": "3264. Sokak", "amenity": "restaurant", "name": "Casa de Costa \u00c7e\u015fme"}}, {"type": "node", "id": 8988644017, "lat": 38.2586595, "lon": 26.3934261, "tags": {"amenity": "restaurant", "name": "Cabbar point", "name:tr": "Cabbar Port"}}, {"type": "node", "id": 8998593717, "lat": 38.3082965, "lon": 26.3608112, "tags": {"amenity": "cafe", "name": "Veli Usta"}}, {"type": "node", "id": 9677882517, "lat": 38.2848509, "lon": 26.3756519, "tags": {"amenity": "restaurant", "name:en": "Bodrum Manti & Cafe"}}, {"type": "node", "id": 9677882617, "lat": 38.2847548, "lon": 26.3750818, "tags": {"amenity": "cafe", "name": "K\u00f6\u015fe Kahve"}}, {"type": "node", "id": 9863946497, "lat": 38.3823731, "lon": 26.4775234, "tags": {"amenity": "restaurant", "name": "Herakles"}}, {"type": "node", "id": 9863961015, "lat": 38.3820927, "lon": 26.4776815, "tags": {"amenity": "cafe", "name": "G\u00fczel cafe"}}, {"type": "node", "id": 9863994865, "lat": 38.3836877, "lon": 26.4789311, "tags": {"amenity": "restaurant"}}, {"type": "node", "id": 9864010762, "lat": 38.3828482, "lon": 26.4769595, "tags": {"amenity": "restaurant", "name": "\u00d6zlem"}}, {"type": "node", "id": 9864010764, "lat": 38.3829284, "lon": 26.4763802, "tags": {"amenity": "cafe", "indoor_seating": "yes", "name": "Limonlu bah\u00e7em caf\u00e9", "outdoor_seating": "yes"}}, {"type": "node", "id": 9864011892, "lat": 38.3848159, "lon": 26.4750237, "tags": {"amenity": "restaurant", "name": "Ali'nin Yeri Restaurant"}}, {"type": "node", "id": 9975491621, "lat": 38.3703735, "lon": 26.1376638, "tags": {"amenity": "restaurant", "check_date": "2025-06-14", "check_date:smoking": "2025-06-14", "cuisine": "greek", "internet_access": "wlan", "internet_access:fee": "customers", "name": "\u0397 \u0393\u03c9\u03bd\u03b9\u03ac \u03bf\u03c5\u03be\u03b5\u03c1\u03af", "opening_hours": "We-Mo 12:00-23:00", "payment:mastercard": "yes", "payment:visa": "yes", "phone": "+30 2271 043111", "smoking": "outside", "toilets": "yes"}}, {"type": "node", "id": 9976799775, "lat": 38.2860797, "lon": 26.1208098, "tags": {"amenity": "restaurant", "check_date": "2022-08-25", "internet_access": "wlan", "internet_access:fee": "customers", "name": "Blue Note", "payment:mastercard": "yes", "payment:visa": "yes", "wheelchair": "limited"}}, {"type": "node", "id": 9983656718, "lat": 38.2735698, "lon": 26.3700528, "tags": {"addr:housenumber": "7", "addr:postcode": "35930", "addr:street": "Ala\u00e7at\u0131, 18026 Sokak", "amenity": "restaurant", "cuisine": "mediterranean", "name:en": "SMAK", "phone": "+900532 341 85 25", "website": "https://smakalacati.com"}}, {"type": "node", "id": 10110098518, "lat": 38.3198597, "lon": 26.3023278, "tags": {"amenity": "cafe", "internet_access": "wlan", "name:en": "Starbucks"}}, {"type": "node", "id": 10301163514, "lat": 38.2510098, "lon": 26.3843348, "tags": {"amenity": "cafe", "cuisine": "pizza;regional;coffee_shop;sandwich;italian;burger;international;turkish", "name": "TAOS Beach"}}, {"type": "node", "id": 10544382495, "lat": 38.3465556, "lon": 26.1428252, "tags": {"addr:city": "\u03a7\u03af\u03bf\u03c2", "addr:housenumber": "96", "addr:postcode": "82100", "addr:street": "\u0395\u03bd\u03ce\u03c3\u03b5\u03c9\u03c2", "amenity": "cafe", "name": "MyCafe", "phone": "+302271043521", "website": "https://mycafechios.gr"}}, {"type": "node", "id": 10552744178, "lat": 38.3700597, "lon": 26.1352743, "tags": {"addr:housenumber": "7", "addr:street": "\u0391\u03b3\u03b5\u03bb\u03ac\u03c3\u03c4\u03bf\u03c5", "amenity": "restaurant", "contact:facebook": "topatriko16", "name": "\u03a4\u03bf \u03a0\u03b1\u03c4\u03c1\u03b9\u03ba\u03cc", "opening_hours": "12:00-17:00; easter -59 days, Jul 22-24, Sep 12-21, Dec 25-Jan 02 off", "phone": "+302271400455", "smoking": "outside"}}, {"type": "node", "id": 10571502059, "lat": 38.3644455, "lon": 26.1325333}, {"type": "node", "id": 10571502060, "lat": 38.3644363, "lon": 26.13265}, {"type": "node", "id": 10571502061, "lat": 38.3643401, "lon": 26.1326065}, {"type": "node", "id": 10571502062, "lat": 38.36437, "lon": 26.1324992}, {"type": "node", "id": 10588594525, "lat": 38.5476161, "lon": 26.5527718, "tags": {"amenity": "cafe", "cuisine": "turkish;coffee_shop", "name": "Mavi Boncuk K\u00f6y Kahvesi"}}, {"type": "node", "id": 10604294005, "lat": 38.3705617, "lon": 26.1359092, "tags": {"amenity": "restaurant", "name:en": "Vounaki"}}, {"type": "node", "id": 10692953184, "lat": 38.3832073, "lon": 26.4766316, "tags": {"amenity": "cafe", "check_date": "2023-02-25", "name": "Reis Cafe"}}, {"type": "node", "id": 10745039015, "lat": 38.3221942, "lon": 26.3026003, "tags": {"addr:city": "\u0130zmir", "addr:district": "\u00c7e\u015fme", "addr:housenumber": "1", "addr:neighbourhood": "Musalla Mahallesi", "addr:postcode": "35930", "addr:street": "1016. Sokak", "amenity": "cafe", "name": "\u00d6zS\u00fct"}}, {"type": "node", "id": 10745041073, "lat": 38.3224766, "lon": 26.3023411, "tags": {"addr:city": "\u0130zmir", "addr:district": "\u00c7e\u015fme", "addr:neighbourhood": "Musalla Mahallesi", "addr:postcode": "35930", "addr:street": "1016. Sokak", "amenity": "restaurant", "name": "K\u00f6fteci Ramiz"}}, {"type": "node", "id": 10957976730, "lat": 38.3180294, "lon": 26.1522618, "tags": {"amenity": "cafe", "check_date": "2023-06-05", "name": "\u0391\u03b5\u03c1\u03b9\u03ba\u03cc", "name:el": "\u0391\u03b5\u03c1\u03b9\u03ba\u03cc", "wheelchair": "no"}}, {"type": "node", "id": 10988908220, "lat": 38.3213639, "lon": 26.3036362, "tags": {"addr:city": "\u0130zmir", "addr:district": "\u00c7e\u015fme", "addr:housenumber": "9/A", "addr:neighbourhood": "Musalla Mahallesi", "addr:postcode": "35930", "addr:street": "1016. Sokak", "amenity": "cafe", "cuisine": "coffee_shop", "internet_access": "yes", "internet_access:fee": "no", "name": "Buckin Coffee \u00c7e\u015fme Marina", "outdoor_seating": "yes", "payment:american_express": "yes", "payment:cash": "yes", "payment:credit_cards": "yes", "payment:maestro": "yes", "payment:visa": "yes", "website": "https://buckin.com.tr/"}}, {"type": "node", "id": 11096557624, "lat": 38.3061614, "lon": 26.3636418, "tags": {"amenity": "cafe"}}, {"type": "node", "id": 11099264954, "lat": 38.2943723, "lon": 26.2791114, "tags": {"addr:city": "Izmir", "addr:district": "\u00c7e\u015fme", "addr:housenumber": "33", "addr:neighbourhood": "\u00c7iftlikk\u00f6y", "addr:postcode": "35930", "addr:street": "18. Sokak", "amenity": "restaurant", "cuisine": "seafood", "currency:XBT": "yes", "diet:fish": "yes", "diet:local": "yes", "diet:pescetarian": "yes", "diet:seafood": "yes", "name": "Langusta Restaurant", "opening_hours": "Mo-Su 11:00-24:00", "payment:lightning": "yes", "payment:onchain": "yes", "phone": "+90 232 722 1008", "survey:date": "2023-08-08"}}, {"type": "node", "id": 11101919617, "lat": 38.3230671, "lon": 26.1245943, "tags": {"amenity": "cafe", "check_date": "2023-08-09", "name": "Perivoli", "toilets": "yes"}}, {"type": "node", "id": 11105653764, "lat": 38.3680555, "lon": 26.1352031, "tags": {"amenity": "cafe", "check_date": "2025-06-14", "check_date:smoking": "2025-06-14", "name": "\u03a0\u03b1\u03bd\u03af\u03bd\u03bf", "smoking": "outside"}}, {"type": "node", "id": 11129173047, "lat": 38.2521311, "lon": 26.0318941, "tags": {"amenity": "cafe"}}, {"type": "node", "id": 11129206639, "lat": 38.2514974, "lon": 26.0302302, "tags": {"amenity": "restaurant"}}, {"type": "node", "id": 11129243981, "lat": 38.2524561, "lon": 26.0315306, "tags": {"amenity": "restaurant", "name": "1440"}}, {"type": "node", "id": 11129253756, "lat": 38.2520785, "lon": 26.0305732, "tags": {"amenity": "cafe"}}, {"type": "node", "id": 11129259489, "lat": 38.2520263, "lon": 26.0318433, "tags": {"amenity": "restaurant"}}, {"type": "node", "id": 11131424790, "lat": 38.2852351, "lon": 26.3756165, "tags": {"amenity": "restaurant", "breakfast": "yes", "diet:vegan": "yes", "diet:vegetarian": "yes", "dinner": "yes", "lunch": "yes", "name": "Salkim s\u00f6g\u00fct"}}, {"type": "node", "id": 11133950050, "lat": 38.478107, "lon": 26.1238485, "tags": {"amenity": "restaurant", "name": "\u039f \u03a0\u03b1\u03c3\u03c3\u03b1\u03c3"}}, {"type": "node", "id": 11134167100, "lat": 38.5277218, "lon": 26.0931718, "tags": {"amenity": "cafe", "name": "\u03a6\u03b5\u03c1\u03b1\u03b3\u03b9\u03b4\u03b5\u03c3"}}, {"type": "node", "id": 11134171802, "lat": 38.5275866, "lon": 26.0930378, "tags": {"amenity": "restaurant", "name": "\u039c\u03c0\u03b5\u03ba\u03c1\u03b7\u03c3"}}, {"type": "node", "id": 11143038745, "lat": 38.3328458, "lon": 26.3868006, "tags": {"amenity": "cafe", "bar": "yes", "check_date": "2023-08-25", "cuisine": "coffee_shop;international", "highchair": "yes", "internet_access": "yes", "name": "Coze Beach & Seafood", "name:tr": "Coze", "outdoor_seating": "yes", "payment:mastercard": "yes", "payment:visa": "yes", "reservation": "yes"}}, {"type": "node", "id": 11161444705, "lat": 38.3250559, "lon": 26.3042718, "tags": {"amenity": "restaurant", "cuisine": "local;turkish", "diet:vegetarian": "yes", "internet_access": "wlan", "name": "Fatih pide"}}, {"type": "node", "id": 11162523605, "lat": 38.2009715, "lon": 26.0412105, "tags": {"amenity": "restaurant", "name": "\u03a0\u03c5\u03be\u03ac\u03c1\u03b9", "name:el": "\u03a0\u03c5\u03be\u03ac\u03c1\u03b9", "name:en": "Pyxari", "phone": "2271 070087"}}, {"type": "node", "id": 11236619137, "lat": 38.28092, "lon": 26.3728402, "tags": {"amenity": "restaurant", "name": "Roka Bah\u00e7e"}}, {"type": "node", "id": 11269136170, "lat": 38.3075624, "lon": 26.361766, "tags": {"alt_name": "BHU", "amenity": "cafe", "cuisine": "dessert", "name": "Bolulu Hastan Usta", "opening_hours": "Mo-Su 11:30-24:00"}}, {"type": "node", "id": 11269232073, "lat": 38.3071272, "lon": 26.3628128, "tags": {"amenity": "restaurant", "name": "Magosa"}}, {"type": "node", "id": 11269521163, "lat": 38.3232224, "lon": 26.3022458, "tags": {"amenity": "cafe", "name": "Teras Kafe", "outdoor_seating": "only", "self_service": "yes"}}, {"type": "node", "id": 11336151769, "lat": 38.3231969, "lon": 26.3085886, "tags": {"amenity": "cafe", "contact:instagram": "seteykahvev", "cuisine": "breakfast", "name": "SEHER TEYZE'NIN G\u00d6ZLEME VE KAHVALTI BAH\u00c7ESI", "name:de": "Tante Sehers Pfannkuchen und Fr\u00fchst\u00fccksgarten", "name:en": "Aunt Seher's Pancake and Breakfast Garden", "phone": "05386817552;05386887423"}}, {"type": "node", "id": 11545580569, "lat": 38.3717902, "lon": 26.1372508, "tags": {"amenity": "cafe", "name:en": "Viento"}}, {"type": "node", "id": 11630107569, "lat": 38.3446912, "lon": 26.3040842, "tags": {"amenity": "cafe", "name": "\u041f\u043b\u043e\u0449\u0430\u0434\u044c"}}, {"type": "node", "id": 11666684750, "lat": 38.2705544, "lon": 26.314749}, {"type": "node", "id": 11666684751, "lat": 38.270563, "lon": 26.3148439}, {"type": "node", "id": 11666684752, "lat": 38.2704803, "lon": 26.3148621}, {"type": "node", "id": 11666684753, "lat": 38.2704712, "lon": 26.314765}, {"type": "node", "id": 11807072372, "lat": 38.3699018, "lon": 26.1340223, "tags": {"addr:city": "\u03a7\u03af\u03bf\u03c2", "addr:housenumber": "7", "addr:postcode": "82100", "addr:street": "\u0391\u03b3\u03af\u03c9\u03bd \u0391\u03bd\u03b1\u03c1\u03b3\u03cd\u03c1\u03c9\u03bd", "amenity": "restaurant", "cuisine": "greek", "mobile": "+30 694 2425459", "name": "\u03a4\u03bf \u039a\u03b5\u03c7\u03c1\u03b9\u03bc\u03c0\u03ac\u03c1\u03b9", "name:en": "To Kechrimbari", "opening_hours": "Mo-Sa 12:30-17:00,20:30-23:59"}}, {"type": "node", "id": 11807151569, "lat": 38.371051, "lon": 26.1374741, "tags": {"amenity": "restaurant", "name:en": "Teopisti souvlaki"}}, {"type": "node", "id": 11807191969, "lat": 38.3669463, "lon": 26.1400098, "tags": {"amenity": "restaurant", "name:en": "Boukia Souvlaki"}}, {"type": "node", "id": 11880774742, "lat": 38.3695142, "lon": 26.1355834, "tags": {"amenity": "cafe", "check_date": "2024-05-05", "name:el": "\u03a1\u03bf\u03b4\u03b9", "outdoor_seating": "yes", "wheelchair": "yes"}}, {"type": "node", "id": 11883274971, "lat": 38.3118984, "lon": 26.1182146, "tags": {"amenity": "cafe", "check_date": "2024-05-05", "name:el": "\u03a4\u03bf \u03a7\u03b1\u03c1\u03bc\u03ac\u03bd\u03b9"}}, {"type": "node", "id": 12030574828, "lat": 38.3284028, "lon": 26.3221491, "tags": {"addr:city": "\u0130zmir", "addr:district": "\u00c7e\u015fme", "addr:housenumber": "5", "addr:neighbourhood": "Boyal\u0131k Mah. 3198 1. Sokak No:5 D:2,", "addr:postcode": "35930", "addr:street": "3198/1. Sokak", "amenity": "restaurant", "contact:facebook": "https://www.facebook.com/muranoskitchencesme/", "cuisine": "italian", "name": "Murano's Kitchen \u00c7e\u015fme", "outdoor_seating": "yes", "phone": "+90 533 360 02 91", "website": "https://muranoskitchen.com.tr/cesme-anasayfa/"}}, {"type": "node", "id": 12050942578, "lat": 38.3695773, "lon": 26.1361036, "tags": {"amenity": "cafe", "check_date": "2024-07-13", "name": "The Grind", "outdoor_seating": "no"}}, {"type": "node", "id": 12050942582, "lat": 38.369707, "lon": 26.1363859, "tags": {"addr:city": "\u03a7\u03af\u03bf\u03c2", "addr:housenumber": "21", "addr:postcode": "82100", "addr:street": "\u0394\u03b7\u03bc\u03bf\u03b3\u03b5\u03c1\u03bf\u03bd\u03c4\u03af\u03b1\u03c2", "amenity": "restaurant", "check_date": "2024-07-13", "cuisine": "greek;tapas", "internet_access": "wlan", "internet_access:fee": "customers", "name": "\u039a\u03b1\u03c6\u03b1\u03bb\u03c4\u03af", "name:el": "\u039a\u03b1\u03c6\u03b1\u03bb\u03c4\u03af", "opening_hours": "Mo-Sa 08:00-02:00", "payment:cash": "yes", "payment:credit_cards": "yes", "payment:debit_cards": "yes", "phone": "+30 22710 82750", "wheelchair": "yes"}}, {"type": "node", "id": 12176037302, "lat": 38.2006533, "lon": 26.0407636, "tags": {"amenity": "cafe", "cuisine": "greek", "internet_access": "wlan", "name": "\u03a0\u03b1\u03bd\u03b4\u03b1\u03b9\u03c3\u03af\u03b1", "opening_hours": "Mo-Su 10:00-23:00", "outdoor_seating": "yes"}}, {"type": "node", "id": 12176037401, "lat": 38.2073453, "lon": 26.0713444, "tags": {"amenity": "restaurant", "cuisine": "greek", "name": "\u0391\u03c0\u03b5\u03c1\u03b1\u03bd\u03c4\u03bf \u03b3\u03b1\u03bb\u03b1\u03b6\u03b9\u03bf", "opening_hours": "Mo-Su 13:00-23:00", "outdoor_seating": "yes", "self_service": "no"}}, {"type": "node", "id": 12190280901, "lat": 38.3214328, "lon": 26.0565431, "tags": {"amenity": "restaurant", "cuisine": "greek", "name": "\u03a0\u03bb\u03b1\u03c4\u03b5\u03b9\u03b1 \u039c\u03c0\u03bf\u03c5"}}, {"type": "node", "id": 12198775732, "lat": 38.3123038, "lon": 26.3451551, "tags": {"addr:city": "\u0130zmir", "addr:district": "\u00c7e\u015fme", "addr:housenumber": "40", "addr:neighbourhood": "\u0130smet \u0130n\u00f6n\u00fc Mahallesi", "addr:postcode": "35930", "addr:street": "3435. Sokak", "amenity": "cafe", "cuisine": "coffee", "currency:XBT": "yes", "internet_access": "wlan", "internet_access:fee": "customers", "name": "CAFFE VAGON", "opening_hours": "Mo-Su 09:00-02:00", "outdoor_seating": "yes", "payment:lightning": "yes", "payment:onchain": "yes", "phone": "+905512364947"}}, {"type": "node", "id": 12813650501, "lat": 38.3276672, "lon": 26.2976895, "tags": {"amenity": "restaurant", "name": "Cozy Gusto Food and Drink"}}, {"type": "node", "id": 12862840127, "lat": 38.3706236, "lon": 26.1376039, "tags": {"addr:city": "\u03a7\u03af\u03bf\u03c2", "addr:housenumber": "26", "addr:postcode": "82100", "addr:street": "\u0391\u03b9\u03b3\u03b1\u03af\u03bf\u03c5", "amenity": "restaurant", "cuisine": "greek", "name": "\u03a1\u03bf\u03cd\u03c3\u03c3\u03b9\u03ba\u03bf", "opening_hours": "Tu-Su 13:30-23:00", "phone": "+30 22710 33352"}}, {"type": "node", "id": 12862869456, "lat": 38.3689052, "lon": 26.1355966, "tags": {"addr:city": "\u03a7\u03af\u03bf\u03c2", "addr:housenumber": "27 \u0393", "addr:postcode": "82100", "addr:street": "\u0391\u03c0\u03bb\u03c9\u03c4\u03b1\u03c1\u03b9\u03ac\u03c2", "amenity": "restaurant", "cuisine": "greek", "email": "kountouroudi@gmail.com", "name": "\u03a4\u03bf \u039a\u03bf\u03c5\u03bd\u03c4\u03bf\u03c5\u03c1\u03bf\u03cd\u03b4\u03b9", "opening_hours": "Tu,Th,Fr 19:00-02:00; We,Sa,Su 13:00-02:00", "outdoor_seating": "yes", "phone": "+30 22710 81817", "smoking": "outside"}}, {"type": "node", "id": 12889186101, "lat": 38.2864123, "lon": 26.3751042, "tags": {"amenity": "restaurant", "cuisine": "kebab;local;turkish", "name:en": "M\u00fcdavim"}}, {"type": "node", "id": 12890262001, "lat": 38.2854713, "lon": 26.3780255, "tags": {"amenity": "cafe", "cuisine": "coffee_shop", "name": "Esma Cafe & Craft", "name:en": "Esma Cafe & Craft", "opening_hours": "Mo-Su 10:00-00:00"}}, {"type": "node", "id": 12890364801, "lat": 38.2835304, "lon": 26.3759394, "tags": {"amenity": "cafe", "cuisine": "sandwich", "name": "The Coffee Factory", "name:en": "The Coffee Factory"}}, {"type": "node", "id": 12890365601, "lat": 38.2835741, "lon": 26.3758055, "tags": {"amenity": "cafe", "name:en": "Pause"}}, {"type": "node", "id": 12892589801, "lat": 38.282431, "lon": 26.3761907, "tags": {"amenity": "restaurant", "cuisine": "pasta", "name:en": "Paste Bella"}}, {"type": "node", "id": 12895082801, "lat": 38.2868614, "lon": 26.3754875, "tags": {"amenity": "restaurant", "cuisine": "burger;pasta", "name": "1973 Eskiden Burger & Sandvi\u00e7 Ala\u00e7at\u0131", "name:en": "1973 Eskiden Burger & Sandvi\u00e7 Ala\u00e7at\u0131"}}, {"type": "node", "id": 12895094701, "lat": 38.2868414, "lon": 26.3754357, "tags": {"amenity": "restaurant", "cuisine": "local;turkish", "name:en": "Arif'in Yeri"}}, {"type": "node", "id": 12907564265, "lat": 38.3706939, "lon": 26.1365313, "tags": {"addr:housenumber": "10", "addr:street": "\u03a6\u03b9\u03c3\u03c4\u03ad\u03bb \u039d\u03c4\u03b5 \u039a\u03bf\u03c5\u03bb\u03ac\u03bd\u03c2", "amenity": "cafe", "internet_access": "wlan", "name": "Retro - \u03a0\u03b1\u03c1\u03b1\u03b4\u03bf\u03c3\u03b9\u03b1\u03ba\u03cc \u03ba\u03b1\u03c6\u03b5\u03bd\u03b5\u03af\u03bf", "smoking": "outside"}}, {"type": "node", "id": 12913113464, "lat": 38.320072, "lon": 26.15313, "tags": {"amenity": "restaurant", "cuisine": "pizza", "name": "Gusto di Mare", "opening_hours": "Mo-Su 09:00-23:59", "oven": "wood", "phone": "+30 22710 31581"}}, {"type": "node", "id": 12913117076, "lat": 38.3201423, "lon": 26.1531454, "tags": {"amenity": "cafe", "name": "Vanilla"}}, {"type": "node", "id": 12913137911, "lat": 38.3193427, "lon": 26.1528688, "tags": {"amenity": "restaurant", "name": "Panselinos"}}, {"type": "node", "id": 12913138560, "lat": 38.3211479, "lon": 26.1535668, "tags": {"amenity": "restaurant", "name": "Karatzas"}}, {"type": "node", "id": 12913167268, "lat": 38.3689305, "lon": 26.1333326, "tags": {"amenity": "cafe", "name": "Centro Cafe", "smoking": "outside"}}, {"type": "node", "id": 12913202986, "lat": 38.3704899, "lon": 26.1364775, "tags": {"amenity": "cafe", "name": "\u039c\u03b1\u03bd\u03ac\u03c1\u03b1\u03c2", "smoking": "outside"}}, {"type": "node", "id": 12913209574, "lat": 38.370545, "lon": 26.1359352, "tags": {"amenity": "cafe", "name": "Il Toto", "smoking": "outside"}}, {"type": "node", "id": 12913214725, "lat": 38.3695968, "lon": 26.1363812, "tags": {"amenity": "cafe", "internet_access": "wlan", "name": "\u039a\u03b1\u03bd\u03ad\u03bb\u03bb\u03bf\u03c2"}}, {"type": "node", "id": 12913973029, "lat": 38.3671416, "lon": 26.1376742, "tags": {"amenity": "cafe", "name": "Panther's"}}, {"type": "node", "id": 12913990230, "lat": 38.3675376, "lon": 26.1349412, "tags": {"addr:housenumber": "5", "addr:street": "\u03a3\u03c4\u03b5\u03c6\u03ac\u03bd\u03bf\u03c5 \u03a4\u03c3\u03bf\u03c5\u03c1\u03ae", "amenity": "restaurant", "name": "Mamalicious"}}, {"type": "node", "id": 12914007235, "lat": 38.3696754, "lon": 26.1351592, "tags": {"amenity": "cafe", "name": "\u039a\u03bf\u03c5\u03c1\u03b5\u03af\u03bf", "smoking": "outside"}}, {"type": "node", "id": 12914019093, "lat": 38.3696215, "lon": 26.135099, "tags": {"amenity": "cafe", "name": "\u0391\u03c5\u03b3\u03bf\u03c5\u03c3\u03c4\u03ac\u03ba\u03b7\u03c2", "smoking": "outside"}}, {"type": "way", "id": 288806904, "nodes": [2923616845, 2923616841, 2923616825, 2923616824, 2923616845], "tags": {"addr:housenumber": "14", "addr:street": "\u039c\u03b7\u03c4\u03b1\u03c1\u03ac\u03ba\u03b7.\u0399\u03c9\u03b1\u03bd", "amenity": "restaurant", "building": "yes", "name": "Mavrokordatiko", "name:de": "Mavrokordatiko"}}, {"type": "way", "id": 400488070, "nodes": [4030357346, 4030357347, 4030357348, 4030357349, 4030357346], "tags": {"amenity": "restaurant", "building": "yes"}}, {"type": "way", "id": 416571634, "nodes": [4173213965, 4173213966, 4173213967, 4173213968, 4173213965], "tags": {"amenity": "restaurant", "building": "yes"}}, {"type": "way", "id": 755929079, "nodes": [7060276194, 7060276195, 7060276196, 7060276197, 7060276194], "tags": {"amenity": "restaurant", "building": "yes"}}, {"type": "way", "id": 755929081, "nodes": [7060276212, 7060276213, 7060276214, 7060276215, 7060276216, 7060276217, 7060276218, 7060276219, 7060276220, 7060276202, 7060276203, 7060276207, 7060276208, 7060276209, 7060276210, 7060276211, 7060276204, 7060276205, 7060276206, 7060276212], "tags": {"amenity": "restaurant", "building": "yes"}}, {"type": "way", "id": 772182920, "nodes": [7208743057, 7215552580, 7208743058, 7208743059, 7208743060, 7208743057], "tags": {"addr:city": "Ala\u00e7at\u0131,\u00c7e\u015fme", "addr:housenumber": "49/B", "addr:postcode": "35930", "addr:street": "2012. Sokak", "amenity": "cafe", "building": "yes", "cuisine": "coffee_shop;cake", "name": "Cafe De Sky"}}, {"type": "way", "id": 1133918165, "nodes": [10571502059, 10571502060, 10571502061, 10571502062, 10571502059], "tags": {"addr:housenumber": "3", "addr:street": "\u039a\u03bf\u03bd\u03b4\u03cd\u03bb\u03b7", "amenity": "restaurant", "building": "yes", "name": "\u03a7\u03cc\u03c4\u03b6\u03b1\u03c2", "phone": "+302271042787", "start_date": "1882"}}, {"type": "way", "id": 1255028160, "nodes": [11666684750, 11666684751, 11666684752, 11666684753, 11666684750], "tags": {"addr:city": "\u0130zmir", "addr:district": "\u00c7e\u015fme", "addr:neighbourhood": "Musalla", "amenity": "cafe", "building": "wine_press_house", "cuisine": "\u015fatap_tad\u0131m", "name": "BURADAN \u015eARAPCILIK GES3"}}]}