{"version": 0.6, "generator": "Overpass API 0.7.62.7 375dc00a", "osm3s": {"timestamp_osm_base": "2025-06-14T13:12:52Z", "copyright": "The data included in this document is from www.openstreetmap.org. The data is made available under ODbL."}, "elements": [{"type": "node", "id": 1817567609, "lat": 36.1470625, "lon": 3.689314, "tags": {"addr:country": "DZ", "amenity": "cafe", "internet_access": "no", "name": "Caf\u00e9 Aichoune", "name:ar": "\u0645\u0642\u0647\u0649 \u0639\u064a\u0634\u0648\u0646"}}, {"type": "node", "id": 1817567610, "lat": 36.1483413, "lon": 3.6894658, "tags": {"addr:country": "DZ", "amenity": "cafe", "name": "Caf\u00e9 Allane"}}, {"type": "node", "id": 1817567611, "lat": 36.1504588, "lon": 3.6892065, "tags": {"addr:city": "\u0633\u0648\u0631 \u0627\u0644\u063a\u0632\u0644\u0627\u0646", "addr:city:ar": "\u0633\u0648\u0631 \u0627\u0644\u063a\u0632\u0644\u0627\u0646", "amenity": "restaurant", "name": "\u0645\u0637\u0639\u0645 \u062d\u0645\u0631\u064a", "name:ar": "\u0645\u0637\u0639\u0645 \u062d\u0645\u0631\u064a", "name:fr": "Restaurant Hamri"}}, {"type": "node", "id": 1822840487, "lat": 36.1505588, "lon": 3.6891371, "tags": {"addr:city": "\u0633\u0648\u0631 \u0627\u0644\u063a\u0632\u0644\u0627\u0646", "addr:city:ar": "\u0633\u0648\u0631 \u0627\u0644\u063a\u0632\u0644\u0627\u0646", "amenity": "cafe", "name": "\u0645\u0642\u0647\u0649 \u062d\u0645\u0631\u064a", "name:ar": "\u0645\u0642\u0647\u0649 \u062d\u0645\u0631\u064a", "name:fr": "Caf\u00e9t\u00e9ria hamri", "opening_hours": "05:00 -19:00"}}, {"type": "node", "id": 1824406498, "lat": 36.1795365, "lon": 3.7453396, "tags": {"addr:country": "DZ", "amenity": "restaurant", "name": "kadou"}}, {"type": "node", "id": 1824406552, "lat": 36.1794994, "lon": 3.7452141, "tags": {"addr:country": "DZ", "amenity": "cafe", "name": "kadou", "wifi": "no"}}, {"type": "node", "id": 3244441575, "lat": 36.2930919, "lon": 3.6724891}, {"type": "node", "id": 3244441576, "lat": 36.2930369, "lon": 3.6724432}, {"type": "node", "id": 3244441577, "lat": 36.2929225, "lon": 3.672654}, {"type": "node", "id": 3244441578, "lat": 36.2929775, "lon": 3.6726999}, {"type": "node", "id": 3244458105, "lat": 36.2933418, "lon": 3.6723985, "tags": {"addr:country": "DZ", "amenity": "cafe", "name": "Caf\u00e9 Elamourri", "name:ar": "\u0645\u0642\u0647\u064a \u0627\u0644\u0639\u0645\u0648\u0631\u064a"}}, {"type": "node", "id": 3244459640, "lat": 36.2928874, "lon": 3.6723282, "tags": {"addr:country": "DZ", "amenity": "cafe", "name": "Caf\u00e9 Meziane", "name:ar": "\u0642\u0647\u0648\u0629 \u0642\u0627\u0631\u0629 \u0645\u0632\u064a\u0627\u0646"}}, {"type": "node", "id": 3383565046, "lat": 36.2929906, "lon": 3.6693582, "tags": {"addr:country": "DZ", "amenity": "cafe", "name": "\u0645\u0642\u0647\u0649 \u0627\u0644\u0631\u0645\u064a\u062f\u064a", "name:ar": "\u0645\u0642\u0647\u0649 \u0627\u0644\u0631\u0645\u064a\u062f\u064a", "name:fr": "Caf\u00e9"}}, {"type": "node", "id": 3548344424, "lat": 36.1520559, "lon": 3.7070736, "tags": {"addr:country": "DZ", "amenity": "restaurant", "capacity": "50", "delivery": "no", "name": "Resto", "name:fr": "Resto", "takeaway": "yes"}}, {"type": "node", "id": 3548344459, "lat": 36.1521587, "lon": 3.7070594, "tags": {"addr:country": "DZ", "amenity": "cafe"}}, {"type": "node", "id": 3548345597, "lat": 36.1562072, "lon": 3.7077145}, {"type": "node", "id": 3581505793, "lat": 36.1468149, "lon": 3.6943235}, {"type": "node", "id": 3582908195, "lat": 36.1388814, "lon": 3.6909919, "tags": {"addr:country": "DZ", "amenity": "cafe", "name": "Caf\u00e9 Goustou", "name:ar": "\u0642\u0647\u0648\u0629 \u0627\u0644\u0642\u0633\u0637\u0648", "name:fr": "Caf\u00e9 Goustou"}}, {"type": "node", "id": 3588422797, "lat": 36.1320796, "lon": 3.6998803, "tags": {"addr:city": "Sour El Ghozlane", "addr:country": "DZ", "amenity": "restaurant", "name": "Resto", "name:fr": "Resto"}}, {"type": "node", "id": 3620364172, "lat": 36.1471561, "lon": 3.6904809, "tags": {"addr:city": "Sour El Ghozlane", "addr:country": "DZ", "amenity": "restaurant", "capacity": "20", "cuisine": "pizza", "name": "Pizzeria la croix"}}, {"type": "node", "id": 3743650831, "lat": 36.5533872, "lon": 3.5918494, "tags": {"addr:country": "DZ", "amenity": "restaurant", "name": "restaurant familial"}}, {"type": "node", "id": 3836550726, "lat": 36.5358351, "lon": 3.8300563}, {"type": "node", "id": 3836550727, "lat": 36.5357598, "lon": 3.8301721}, {"type": "node", "id": 3836550728, "lat": 36.535969, "lon": 3.8302849}, {"type": "node", "id": 3836550730, "lat": 36.535882, "lon": 3.828539}, {"type": "node", "id": 3861541228, "lat": 36.2354897, "lon": 3.6471579, "tags": {"addr:country": "DZ", "amenity": "cafe", "name": "\u0645\u0642\u0647\u0649 \u0627\u0644\u062d\u0627\u062c \u0633\u0627\u0639\u062f", "name:ar": "\u0645\u0642\u0647\u0649 \u0627\u0644\u062d\u0627\u062c \u0633\u0627\u0639\u062f", "name:fr": "Caf\u00e9 Hadj Saad"}}, {"type": "node", "id": 3861541232, "lat": 36.2347889, "lon": 3.6489295, "tags": {"addr:country": "DZ", "amenity": "cafe", "name": "\u0645\u0642\u0647\u0649 \u062c\u062f\u064a\u0627\u062a", "name:ar": "\u0645\u0642\u0647\u0649 \u062c\u062f\u064a\u0627\u062a", "name:fr": "Caf\u00e9 Djediat"}}, {"type": "node", "id": 3861541233, "lat": 36.2346777, "lon": 3.6490844, "tags": {"addr:country": "DZ", "addr:housenumber": "14", "amenity": "cafe", "name": "\u0645\u0642\u0647\u0649 \u062c\u062f\u064a", "name:ar": "\u0645\u0642\u0647\u0649 \u062c\u062f\u064a", "name:fr": "Caf\u00e9 Djedi"}}, {"type": "node", "id": 3861541234, "lat": 36.2345627, "lon": 3.6493084, "tags": {"addr:country": "DZ", "amenity": "cafe", "name": "\u0645\u0642\u0647\u0649 \u0628\u063a\u062f\u0627\u0644\u064a", "name:ar": "\u0645\u0642\u0647\u0649 \u0628\u063a\u062f\u0627\u0644\u064a", "name:fr": "Caf\u00e9 Baghdali"}}, {"type": "node", "id": 3861541235, "lat": 36.2345155, "lon": 3.649407, "tags": {"addr:country": "DZ", "amenity": "restaurant", "name": "Resto", "name:fr": "Resto"}}, {"type": "node", "id": 3861541242, "lat": 36.23636, "lon": 3.6472616, "tags": {"addr:country": "DZ", "amenity": "cafe", "name": "\u0645\u0642\u0647\u0649 \u0627\u0644\u0634\u0627\u0628 \u0627\u0644\u0631\u064a\u0627\u0636\u064a", "name:ar": "\u0645\u0642\u0647\u0649 \u0627\u0644\u0634\u0627\u0628 \u0627\u0644\u0631\u064a\u0627\u0636\u064a", "name:fr": "Caf\u00e9 des jeunes sportifs"}}, {"type": "node", "id": 3953323959, "lat": 36.5533853, "lon": 3.5917063, "tags": {"addr:country": "DZ", "amenity": "cafe"}}, {"type": "node", "id": 4177135689, "lat": 36.381178, "lon": 3.8859972, "tags": {"addr:country": "DZ", "amenity": "restaurant", "name": "Resto", "name:fr": "Resto"}}, {"type": "node", "id": 4181431901, "lat": 36.381061, "lon": 3.8865193, "tags": {"addr:country": "DZ", "amenity": "cafe"}}, {"type": "node", "id": 4181474798, "lat": 36.3810474, "lon": 3.8865603, "tags": {"addr:country": "DZ", "amenity": "restaurant", "name": "Resto", "name:fr": "Resto"}}, {"type": "node", "id": 4181512390, "lat": 36.3813801, "lon": 3.8853328, "tags": {"addr:country": "DZ", "amenity": "cafe"}}, {"type": "node", "id": 4211432428, "lat": 36.4784012, "lon": 3.8217468, "tags": {"addr:country": "DZ", "amenity": "restaurant", "name": "Resto", "name:fr": "Resto"}}, {"type": "node", "id": 4226654390, "lat": 36.4760675, "lon": 3.8255445, "tags": {"addr:country": "DZ", "amenity": "restaurant", "name": "Resto", "name:fr": "Resto"}}, {"type": "node", "id": 4522119291, "lat": 36.5365884, "lon": 3.6791959, "tags": {"addr:country": "DZ", "amenity": "cafe", "name": "\u0642\u0647\u0648\u0629 \u0639\u0644\u0627\u0644", "name:ar": "\u0642\u0647\u0648\u0629 \u0639\u0644\u0627\u0644", "name:fr": "Caf\u00e9 Allal"}}, {"type": "node", "id": 4580649489, "lat": 36.2953113, "lon": 3.6761602, "tags": {"addr:country": "DZ", "amenity": "cafe", "name": "\u0645\u0642\u0647\u0649 \u0645\u0628\u0631\u0648\u0643", "name:ar": "\u0645\u0642\u0647\u0649 \u0645\u0628\u0631\u0648\u0643", "name:en": "Caf\u00e9 Mabrouk", "name:fr": "Caf\u00e9 Mabrouk"}}, {"type": "node", "id": 4598720491, "lat": 36.145657, "lon": 3.695306}, {"type": "node", "id": 4716998197, "lat": 36.3749795, "lon": 3.8912519, "tags": {"addr:country": "DZ", "amenity": "cafe"}}, {"type": "node", "id": 4749425099, "lat": 36.1541572, "lon": 3.7071651, "tags": {"addr:country": "DZ", "amenity": "restaurant", "name": "Resto", "name:fr": "Resto"}}, {"type": "node", "id": 4749425101, "lat": 36.154246, "lon": 3.7071583, "tags": {"addr:country": "DZ", "amenity": "cafe"}}, {"type": "node", "id": 4830229604, "lat": 36.1521842, "lon": 3.7069135}, {"type": "node", "id": 4830229605, "lat": 36.152188, "lon": 3.7070911}, {"type": "node", "id": 4830229606, "lat": 36.1520272, "lon": 3.7070911}, {"type": "node", "id": 4830229607, "lat": 36.1520213, "lon": 3.7069207}, {"type": "node", "id": 4938148215, "lat": 36.3527404, "lon": 3.5326412}, {"type": "node", "id": 5262493529, "lat": 36.3784699, "lon": 3.8874656, "tags": {"addr:country": "DZ", "amenity": "restaurant", "name:en": "Eleven", "name:fr": "Eleven"}}, {"type": "node", "id": 5313933072, "lat": 36.3728517, "lon": 3.8891717}, {"type": "node", "id": 5313933073, "lat": 36.3728575, "lon": 3.889229}, {"type": "node", "id": 5313933074, "lat": 36.3728417, "lon": 3.8892675}, {"type": "node", "id": 5313933075, "lat": 36.3728172, "lon": 3.8892714}, {"type": "node", "id": 5313933076, "lat": 36.3728076, "lon": 3.8891786}, {"type": "node", "id": 5316750077, "lat": 36.3758922, "lon": 3.900683}, {"type": "node", "id": 5316750078, "lat": 36.3759103, "lon": 3.900824}, {"type": "node", "id": 5319790497, "lat": 36.3777496, "lon": 3.8993295}, {"type": "node", "id": 5319790499, "lat": 36.3777371, "lon": 3.8992727}, {"type": "node", "id": 5319790500, "lat": 36.3777218, "lon": 3.899242}, {"type": "node", "id": 5319790501, "lat": 36.3776989, "lon": 3.8992198}, {"type": "node", "id": 5319790502, "lat": 36.3776721, "lon": 3.8992104}, {"type": "node", "id": 5319790505, "lat": 36.3776408, "lon": 3.8993665}, {"type": "node", "id": 5319790506, "lat": 36.377611, "lon": 3.8992312}, {"type": "node", "id": 5323923869, "lat": 36.3759478, "lon": 3.900672}, {"type": "node", "id": 5323923870, "lat": 36.3759659, "lon": 3.900813}, {"type": "node", "id": 5329652336, "lat": 36.3728632, "lon": 3.8893132}, {"type": "node", "id": 5329652337, "lat": 36.3728687, "lon": 3.8893656}, {"type": "node", "id": 5329652338, "lat": 36.3728268, "lon": 3.8893723}, {"type": "node", "id": 5329652339, "lat": 36.3728238, "lon": 3.889344}, {"type": "node", "id": 5329652340, "lat": 36.3728357, "lon": 3.8893176}, {"type": "node", "id": 5329652346, "lat": 36.3728591, "lon": 3.889907}, {"type": "node", "id": 5329652347, "lat": 36.3728627, "lon": 3.8899618}, {"type": "node", "id": 5329652348, "lat": 36.3728379, "lon": 3.8899643}, {"type": "node", "id": 5329652349, "lat": 36.3728275, "lon": 3.8899821}, {"type": "node", "id": 5329652350, "lat": 36.3728044, "lon": 3.8899612}, {"type": "node", "id": 5329652351, "lat": 36.3728013, "lon": 3.8899129}, {"type": "node", "id": 5329652352, "lat": 36.3729053, "lon": 3.8902386}, {"type": "node", "id": 5329652353, "lat": 36.3729093, "lon": 3.8902922}, {"type": "node", "id": 5329652354, "lat": 36.3728494, "lon": 3.8902992}, {"type": "node", "id": 5329652355, "lat": 36.372846, "lon": 3.8902532}, {"type": "node", "id": 5329652356, "lat": 36.3728613, "lon": 3.8902271}, {"type": "node", "id": 5329652357, "lat": 36.3728776, "lon": 3.8902418}, {"type": "node", "id": 5370983143, "lat": 36.377273, "lon": 3.8992975}, {"type": "node", "id": 5370983144, "lat": 36.3772978, "lon": 3.8994412}, {"type": "node", "id": 5370983145, "lat": 36.3773869, "lon": 3.8994174}, {"type": "node", "id": 5370983146, "lat": 36.3774056, "lon": 3.8993703}, {"type": "node", "id": 5370983148, "lat": 36.3773913, "lon": 3.8992875}, {"type": "node", "id": 5370983149, "lat": 36.3773787, "lon": 3.8992652}, {"type": "node", "id": 5370983151, "lat": 36.3772958, "lon": 3.8992524}, {"type": "node", "id": 5370983152, "lat": 36.377319, "lon": 3.8992462}, {"type": "node", "id": 5370983153, "lat": 36.3773402, "lon": 3.8992408}, {"type": "node", "id": 5370983154, "lat": 36.3773611, "lon": 3.8992491}, {"type": "node", "id": 5387300841, "lat": 36.3708257, "lon": 3.8791005}, {"type": "node", "id": 5387300842, "lat": 36.3708533, "lon": 3.8791007}, {"type": "node", "id": 5387300843, "lat": 36.3708535, "lon": 3.8790626}, {"type": "node", "id": 5387300844, "lat": 36.3709115, "lon": 3.8790631}, {"type": "node", "id": 5387300845, "lat": 36.3709344, "lon": 3.8790814}, {"type": "node", "id": 5387300846, "lat": 36.3709524, "lon": 3.8791078}, {"type": "node", "id": 5387300847, "lat": 36.370959, "lon": 3.8791342}, {"type": "node", "id": 5387300848, "lat": 36.3709588, "lon": 3.8791818}, {"type": "node", "id": 5387300849, "lat": 36.3709714, "lon": 3.8791819}, {"type": "node", "id": 5387300850, "lat": 36.3709712, "lon": 3.879235}, {"type": "node", "id": 5387300851, "lat": 36.3709511, "lon": 3.8792349}, {"type": "node", "id": 5387300852, "lat": 36.370951, "lon": 3.8792675}, {"type": "node", "id": 5387300853, "lat": 36.3708249, "lon": 3.8792665}, {"type": "node", "id": 5392584022, "lat": 36.1431267, "lon": 3.6962211, "tags": {"addr:country": "DZ", "amenity": "cafe", "name:fr": "Tay bel kawkaw"}}, {"type": "node", "id": 5392584224, "lat": 36.1431029, "lon": 3.6951115}, {"type": "node", "id": 5449168371, "lat": 36.2815097, "lon": 3.667738, "tags": {"addr:country": "DZ", "amenity": "cafe", "name": "Cef\u00e9", "operator": "priv\u00e9e"}}, {"type": "node", "id": 5449168373, "lat": 36.2813098, "lon": 3.6672583, "tags": {"addr:country": "DZ", "amenity": "restaurant", "name": "Resto", "name:fr": "Resto", "operator": "priv\u00e9e", "takeaway": "yes"}}, {"type": "node", "id": 5449185280, "lat": 36.3403048, "lon": 3.8164643, "tags": {"addr:country": "DZ", "amenity": "cafe", "name": "Cef\u00e9", "operator": "Priv\u00e9e"}}, {"type": "node", "id": 5568929935, "lat": 36.3773022, "lon": 3.8992897}, {"type": "node", "id": 5568929936, "lat": 36.3773799, "lon": 3.8993771}, {"type": "node", "id": 5643652034, "lat": 36.3749601, "lon": 3.8931104, "tags": {"addr:city": "Bouira", "addr:country": "DZ", "addr:postcode": "10000", "addr:street": "Rue Mahdid Bachir", "amenity": "cafe", "internet_access": "no", "outdoor_seating": "no"}}, {"type": "node", "id": 5714721733, "lat": 36.3759023, "lon": 3.900681}, {"type": "node", "id": 6249911515, "lat": 36.2357969, "lon": 3.6449717, "tags": {"amenity": "cafe", "name": "\u0645\u0642\u0647\u0649 \u0627\u0644\u0639\u064a\u062f\u0644\u064a", "name:ar": "\u0645\u0642\u0647\u0649 \u0627\u0644\u0639\u064a\u062f\u0644\u064a", "name:fr": "Caf\u00e9 Aidli"}}, {"type": "node", "id": 6249932434, "lat": 36.2356986, "lon": 3.6462825, "tags": {"amenity": "cafe", "name": "\u0645\u0642\u0647\u0649 \u0639\u064a\u0634\u0648\u0646", "name:ar": "\u0645\u0642\u0647\u0649 \u0639\u064a\u0634\u0648\u0646", "name:fr": "Caf\u00e9 Aichoun"}}, {"type": "node", "id": 6249937725, "lat": 36.2345529, "lon": 3.6488485, "tags": {"amenity": "restaurant", "name": "\u0639\u064a\u0634\u0648\u0646", "name:ar": "\u0639\u064a\u0634\u0648\u0646", "name:fr": "Aichoun"}}, {"type": "node", "id": 6249939056, "lat": 36.234403, "lon": 3.6486907, "tags": {"addr:housenumber": "21", "amenity": "cafe", "name": "\u0645\u0642\u0647\u0649 \u0627\u0644\u0639\u064a\u062f\u0644\u064a", "name:ar": "\u0645\u0642\u0647\u0649 \u0627\u0644\u0639\u064a\u062f\u0644\u064a", "name:fr": "Caf\u00e9 Aidli"}}, {"type": "node", "id": 6713485185, "lat": 36.1524299, "lon": 3.7071424, "tags": {"amenity": "restaurant", "name": "Mataam el ihssan"}}, {"type": "node", "id": 7174150151, "lat": 36.1316711, "lon": 3.6898586, "tags": {"amenity": "cafe", "brand": "Costa", "brand:fr": "Costa", "brand:wikidata": "Q608845", "cuisine": "coffee_shop", "name": "Costa", "name:fr": "Costa", "takeaway": "yes"}}, {"type": "node", "id": 7638165700, "lat": 36.2926666, "lon": 3.6732573, "tags": {"amenity": "restaurant", "name": "\u0627\u0644\u062c\u064a\u0631\u0627", "name:ar": "\u0645\u0637\u0639\u0645 \u0627\u0644\u0646\u062e\u0644\u0629", "name:fr": "Le restaurant Palm"}}, {"type": "node", "id": 7638176187, "lat": 36.2925332, "lon": 3.6730853, "tags": {"amenity": "restaurant", "name": "\u0644\u06a8\u0644\u0627\u0633\u064a", "name:ar": "\u0644\u06a8\u0644\u0627\u0633\u064a", "name:fr": "Restaurant Glacier"}}, {"type": "node", "id": 7941019970, "lat": 36.5086233, "lon": 3.4613535, "tags": {"amenity": "cafe", "name": "\u0632\u0628\u0648\u062c \u0627\u0644\u062d\u0648\u0634", "name:ar": "\u0632\u0628\u0648\u062c \u0627\u0644\u062d\u0648\u0634", "name:fr": "Zeboudj Haouch"}}, {"type": "node", "id": 7941024041, "lat": 36.5100634, "lon": 3.462818, "tags": {"amenity": "cafe", "name": "\u0627\u0644\u0639\u0632\u064a\u0628", "name:ar": "\u0627\u0644\u0639\u0632\u064a\u0628", "name:fr": "Laazib"}}, {"type": "node", "id": 7941025108, "lat": 36.5095935, "lon": 3.464261, "tags": {"amenity": "cafe", "name": "\u0627\u0644\u0642\u0631\u0645\u0648\u062f\u0629", "name:ar": "\u0627\u0644\u0642\u0631\u0645\u0648\u062f\u0629", "name:fr": "Kermouda"}}, {"type": "node", "id": 7941039596, "lat": 36.5096409, "lon": 3.4627911, "tags": {"amenity": "cafe", "name": "\u0627\u0644\u0632\u064a\u0637\u0648\u0637\u0629", "name:ar": "\u0627\u0644\u0632\u064a\u0637\u0648\u0637\u0629", "name:fr": "Zitouta"}}, {"type": "node", "id": 7941943497, "lat": 36.4846756, "lon": 3.4521329, "tags": {"amenity": "cafe", "name": "TIFI-RACE COFFEE SHOP"}}, {"type": "node", "id": 8040226333, "lat": 36.5413199, "lon": 3.6663618, "tags": {"amenity": "cafe"}}, {"type": "node", "id": 8048363151, "lat": 36.542926, "lon": 3.6663943, "tags": {"amenity": "cafe", "name": "caffe"}}, {"type": "node", "id": 9426584672, "lat": 36.5360683, "lon": 3.6810336, "tags": {"addr:city": "Kadiria", "amenity": "cafe", "name": "CAFFEE ZIDANE"}}, {"type": "node", "id": 9432950565, "lat": 36.5347618, "lon": 3.6823088, "tags": {"amenity": "cafe", "name": "caffe"}}, {"type": "node", "id": 11022311834, "lat": 36.5358286, "lon": 3.8283654}, {"type": "node", "id": 11022312803, "lat": 36.5359559, "lon": 3.8286267}, {"type": "node", "id": 11022313430, "lat": 36.5358472, "lon": 3.8283726}, {"type": "node", "id": 11022314522, "lat": 36.5358685, "lon": 3.8285928}, {"type": "node", "id": 11022316746, "lat": 36.5360242, "lon": 3.8283545}, {"type": "node", "id": 11022317196, "lat": 36.5357936, "lon": 3.8285047}, {"type": "node", "id": 11022317241, "lat": 36.5358671, "lon": 3.8282935}, {"type": "node", "id": 11046279360, "lat": 36.3527179, "lon": 3.5328777}, {"type": "node", "id": 11046302482, "lat": 36.3528496, "lon": 3.5333039}, {"type": "node", "id": 11046302537, "lat": 36.3527264, "lon": 3.5324542}, {"type": "node", "id": 11046302567, "lat": 36.352788, "lon": 3.5328796}, {"type": "node", "id": 11046302833, "lat": 36.3526317, "lon": 3.5328029}, {"type": "node", "id": 11046302838, "lat": 36.3525907, "lon": 3.5328018}, {"type": "node", "id": 11046302983, "lat": 36.3528271, "lon": 3.5325014}, {"type": "node", "id": 11046303126, "lat": 36.3526311, "lon": 3.5325937}, {"type": "node", "id": 11046303318, "lat": 36.3525944, "lon": 3.5325927}, {"type": "node", "id": 11046303440, "lat": 36.3527166, "lon": 3.5329501}, {"type": "node", "id": 11046303557, "lat": 36.3528638, "lon": 3.5325024}, {"type": "node", "id": 11046303559, "lat": 36.3527423, "lon": 3.5325324}, {"type": "node", "id": 11046303691, "lat": 36.3527805, "lon": 3.5333021}, {"type": "node", "id": 11046303694, "lat": 36.3526291, "lon": 3.5329477}, {"type": "node", "id": 11046303745, "lat": 36.352725, "lon": 3.5325319}, {"type": "node", "id": 11046303877, "lat": 36.3526336, "lon": 3.5324516}, {"type": "node", "id": 11046303926, "lat": 36.3528246, "lon": 3.5326434}, {"type": "node", "id": 11059208088, "lat": 36.156103, "lon": 3.7077676}, {"type": "node", "id": 11059245586, "lat": 36.1562089, "lon": 3.7077617}, {"type": "node", "id": 11059246016, "lat": 36.1561013, "lon": 3.7077204}, {"type": "node", "id": 11059246685, "lat": 36.1458128, "lon": 3.6953927}, {"type": "node", "id": 11059246896, "lat": 36.1457796, "lon": 3.6954842}, {"type": "node", "id": 11059248512, "lat": 36.1432457, "lon": 3.6950129}, {"type": "node", "id": 11059249539, "lat": 36.1432448, "lon": 3.6951134}, {"type": "node", "id": 11059249583, "lat": 36.1456238, "lon": 3.6953975}, {"type": "node", "id": 11059250037, "lat": 36.1468174, "lon": 3.6944378}, {"type": "node", "id": 11059250269, "lat": 36.1468585, "lon": 3.6944364}, {"type": "node", "id": 11059250743, "lat": 36.1431037, "lon": 3.695011}, {"type": "node", "id": 11059251089, "lat": 36.146856, "lon": 3.6943222}, {"type": "way", "id": 318069703, "nodes": [3244441577, 3244441578, 3244441575, 3244441576, 3244441577], "tags": {"amenity": "cafe", "building": "yes", "building:levels": "2", "name": "Caf\u00e9 Matari", "name:ar": "\u0642\u0647\u0648\u0629 \u0645\u0637\u0627\u0631\u064a"}}, {"type": "way", "id": 380314288, "nodes": [3836550726, 3836550727, 3836550728, 3836550726], "tags": {"amenity": "cafe", "building": "yes"}}, {"type": "way", "id": 490840579, "nodes": [4830229604, 4830229605, 4830229606, 4830229607, 4830229604], "tags": {"amenity": "cafe", "building": "yes"}}, {"type": "way", "id": 550160979, "nodes": [5313933072, 5313933073, 5313933074, 5313933075, 5313933076, 5313933072], "tags": {"amenity": "restaurant", "building": "yes", "building:levels": "1", "delivery": "no", "name": "Restauration rapide", "operator": "priv\u00e9", "outdoor_seating": "yes", "takeaway": "yes", "wheelchair": "yes"}}, {"type": "way", "id": 550465625, "nodes": [5323923869, 5714721733, 5316750077, 5316750078, 5323923870, 5323923869], "tags": {"addr:city": "Bouira", "addr:postcode": "10000", "amenity": "cafe", "building": "yes", "building:levels": "1", "name": "caf\u00e9 de l'eglise"}}, {"type": "way", "id": 550809087, "nodes": [5319790497, 5319790499, 5319790500, 5319790501, 5319790502, 5319790506, 5319790505, 5319790497], "tags": {"amenity": "cafe", "building": "yes", "building:levels": "1.3", "name": "Cafeteria Fast Food"}}, {"type": "way", "id": 551943817, "nodes": [5329652336, 5329652337, 5329652338, 5329652339, 5329652340, 5329652336], "tags": {"amenity": "restaurant", "building": "yes", "building:levels": "1", "delivery": "no", "name": "Restauration rapide", "outdoor_seating": "yes", "takeaway": "yes", "wheelchair": "yes"}}, {"type": "way", "id": 551943819, "nodes": [5329652346, 5329652347, 5329652348, 5329652349, 5329652350, 5329652351, 5329652346], "tags": {"amenity": "restaurant", "building": "yes", "building:levels": "1", "delivery": "no", "name": "rotissoire poulet", "outdoor_seating": "yes", "takeaway": "yes", "wheelchair": "yes"}}, {"type": "way", "id": 551943820, "nodes": [5329652352, 5329652353, 5329652354, 5329652355, 5329652356, 5329652357, 5329652352], "tags": {"amenity": "restaurant", "building": "yes", "building:levels": "1", "delivery": "no", "name": "rotissoire poulet", "outdoor_seating": "yes", "takeaway": "yes", "wheelchair": "yes"}}, {"type": "way", "id": 556830843, "nodes": [5370983143, 5370983144, 5370983145, 5568929936, 5370983146, 5370983148, 5370983149, 5370983154, 5370983153, 5370983152, 5370983151, 5568929935, 5370983143], "tags": {"amenity": "restaurant", "building": "yes", "building:levels": "1.5", "name": "Restaurant club ait menguellet", "operator": "priv\u00e9e", "outdoor_seating": "yes", "takeaway": "yes"}}, {"type": "way", "id": 558576344, "nodes": [5387300841, 5387300842, 5387300843, 5387300844, 5387300845, 5387300846, 5387300847, 5387300848, 5387300849, 5387300850, 5387300851, 5387300852, 5387300853, 5387300841], "tags": {"addr:city": "\u0627\u0644\u0628\u0648\u064a\u0631\u0629", "addr:city:ar": "\u0627\u0644\u0628\u0648\u064a\u0631\u0629", "amenity": "cafe", "building": "yes", "building:levels": "1.5", "cuisine": "coffee_shop;ice_cream", "language:ar": "yes", "operator:type": "private"}}, {"type": "way", "id": 1186793339, "nodes": [11022317241, 11022313430, 11022311834, 11022317196, 3836550730, 11022314522, 11022312803, 11022316746, 11022317241], "tags": {"addr:country": "DZ", "amenity": "cafe", "building": "yes", "source": "FB: Algerie Mapper Team"}}, {"type": "way", "id": 1189619884, "nodes": [11046302567, 11046303691, 11046302482, 11046303557, 11046302983, 11046303926, 4938148215, 11046303559, 11046303745, 11046302537, 11046303877, 11046303126, 11046303318, 11046302838, 11046302833, 11046303694, 11046303440, 11046279360, 11046302567], "tags": {"addr:country": "DZ", "amenity": "restaurant", "building": "yes", "name": "Cantine Scolaire", "name:ar": "\u0645\u0637\u0639\u0645 \u0645\u062f\u0631\u0633\u064a", "name:ber": "Tneccit n u\u0263erbaz", "name:en": "school canteen", "name:fr": "Cantine scolaire", "source": "FB: Algerie Mapper Team"}}, {"type": "way", "id": 1191202237, "nodes": [3548345597, 11059246016, 11059208088, 11059245586, 3548345597], "tags": {"addr:country": "DZ", "amenity": "restaurant", "building": "yes", "capacity": "50", "name": "Caf\u00e9 Restaurant El Rayane", "name:fr": "Caf\u00e9 Restaurant El Rayane", "source": "FB: Algerie Mapper Team"}}, {"type": "way", "id": 1191203257, "nodes": [11059246896, 11059246685, 4598720491, 11059249583, 11059246896], "tags": {"addr:country": "DZ", "amenity": "restaurant", "building": "yes", "name": "La mamamia pizzeria", "name:en": "La mamamia pizzeria", "opening_hours": "Sa-Th 11:00-19:00", "source": "FB: Algerie Mapper Team"}}, {"type": "way", "id": 1191203390, "nodes": [3581505793, 11059250037, 11059250269, 11059251089, 3581505793], "tags": {"addr:country": "DZ", "amenity": "cafe", "building": "yes", "name": "Caf\u00e9 Belraache", "name:ar": "\u0645\u0642\u0647\u0649 \u0628\u0627\u0644\u0631\u0639\u0627\u0634", "name:fr": "Caf\u00e9 Belraache", "source": "FB: Algerie Mapper Team"}}, {"type": "way", "id": 1191203521, "nodes": [11059249539, 11059248512, 11059250743, 5392584224, 11059249539], "tags": {"addr:country": "DZ", "amenity": "cafe", "building": "yes", "name": "Caf\u00e9 Le Braiji", "name:fr": "Caf\u00e9 Le Braiji", "source": "FB: Algerie Mapper Team"}}]}