{"version": 0.6, "generator": "Overpass API 0.7.62.7 375dc00a", "osm3s": {"timestamp_osm_base": "2025-06-14T14:00:42Z", "copyright": "The data included in this document is from www.openstreetmap.org. The data is made available under ODbL."}, "elements": [{"type": "node", "id": 2426998209, "lat": 42.7395461, "lon": 17.620903, "tags": {"addr:street": "Zaglavac", "amenity": "cafe", "name": "Stiga", "phone": "12478944351"}}, {"type": "node", "id": 4308089729, "lat": 42.7372436, "lon": 17.5998463, "tags": {"amenity": "cafe"}}, {"type": "node", "id": 4308089730, "lat": 42.7373332, "lon": 17.6001004, "tags": {"amenity": "cafe"}}, {"type": "node", "id": 4318453224, "lat": 42.7274031, "lon": 17.8598381, "tags": {"addr:city": "\u0160ipanska Luka", "addr:postcode": "20223", "amenity": "restaurant", "name": "Konoba Kod Marka", "phone": "+385 20 758 007"}}, {"type": "node", "id": 4318594291, "lat": 42.7309451, "lon": 17.6508168, "tags": {"addr:street": "Prozurska Luka 20224 Maranovici", "amenity": "restaurant", "name": "Marko & Marianka Belin"}}, {"type": "node", "id": 4334024273, "lat": 42.7350363, "lon": 17.5524568, "tags": {"amenity": "restaurant", "name": "Konoba Triton"}}, {"type": "node", "id": 4335493984, "lat": 42.7350397, "lon": 17.5520919, "tags": {"amenity": "cafe", "name": "Komarac"}}, {"type": "node", "id": 4373581574, "lat": 42.7281515, "lon": 17.8632908, "tags": {"addr:city": "\u0160ipanska Luka", "addr:postcode": "20223", "amenity": "cafe", "description": "Wi-Fi password : 12345678", "internet_access:password": "12345678", "name": "Caf\u00e9 No Name"}}, {"type": "node", "id": 4448818604, "lat": 42.7284804, "lon": 17.8624857, "tags": {"amenity": "restaurant", "name": "Pizza Konoba Lukrecija"}}, {"type": "node", "id": 4448818607, "lat": 42.7279868, "lon": 17.8633735, "tags": {"addr:city": "\u0160ipanska Luka", "addr:housenumber": "96", "addr:postcode": "20223", "addr:street": "\u0160ipanska Luka", "amenity": "restaurant", "name": "Konoba Tauris", "phone": "+385 98 619 013", "website": "https://konoba-tauris.business.site/"}}, {"type": "node", "id": 5083240725, "lat": 42.7271415, "lon": 17.6714391, "tags": {"addr:city": "Maranovi\u010di", "addr:country": "HR", "addr:postcode": "20224", "amenity": "restaurant", "name": "Konoba Maran", "phone": "+385 20 746 186", "website": "http://www.okuklje-maran.com"}}, {"type": "node", "id": 5859475253, "lat": 42.7004258, "lon": 17.7403362, "tags": {"amenity": "restaurant"}}, {"type": "node", "id": 5859475254, "lat": 42.7009482, "lon": 17.7376929, "tags": {"amenity": "restaurant", "cuisine": "fish;meat", "diet:fish": "yes", "diet:meat": "yes", "name": "Agroturizam Franka"}}, {"type": "node", "id": 7872234878, "lat": 42.727529, "lon": 17.6699833, "tags": {"addr:housenumber": "16", "addr:street": "Okulkje", "amenity": "restaurant", "name": "Konoba Baro", "opening_hours": "Mo-Su 08:00-23:00"}}, {"type": "node", "id": 8518131367, "lat": 42.7272263, "lon": 17.862381, "tags": {"addr:city": "\u0160ipanska Luka", "addr:housenumber": "160", "addr:postcode": "20223", "addr:street": "\u0160ipanska Luka", "amenity": "restaurant", "name": "Restaurant Verbena", "phone": "+385 20 361 700", "website": "https://www.hotel-sipan.com/"}}, {"type": "node", "id": 8518131368, "lat": 42.7276404, "lon": 17.8627173, "tags": {"addr:city": "\u0160ipanska Luka", "addr:postcode": "20223", "amenity": "restaurant", "name": "Konoba Kavana Dubravka", "opening_hours": "Mo-Su 08:30-12:30,15:00-23:00", "phone": "+385 91 275 8007"}}, {"type": "node", "id": 8518131378, "lat": 42.7289457, "lon": 17.8618352, "tags": {"addr:city": "\u0160ipanska Luka", "addr:postcode": "20223", "amenity": "restaurant", "name": "Konoba U Balda", "phone": "+385 98 942 6427"}}, {"type": "node", "id": 8518131405, "lat": 42.7290004, "lon": 17.8532341}, {"type": "node", "id": 8518131406, "lat": 42.7289958, "lon": 17.8532894}, {"type": "node", "id": 8518131407, "lat": 42.7289644, "lon": 17.8532846}, {"type": "node", "id": 8518131408, "lat": 42.728969, "lon": 17.8532293}, {"type": "node", "id": 8544364073, "lat": 42.7289843, "lon": 17.8532473, "tags": {"addr:city": "\u0160ipanska Luka", "addr:housenumber": "bb", "addr:postcode": "20223", "addr:street": "Uvala Prije\u017eba", "amenity": "cafe", "name": "Prije\u017eba Beach Bar", "phone": "+385 99 672 5100"}}, {"type": "node", "id": 9396980123, "lat": 42.7285591, "lon": 17.6703375, "tags": {"amenity": "restaurant", "name": "Porto della vita", "opening_hours": "Mo-Su 12:00-15:00, 17:00-00:00"}}, {"type": "way", "id": 917102635, "nodes": [8518131405, 8518131406, 8518131407, 8518131408, 8518131405], "tags": {"addr:city": "\u0160ipanska Luka", "addr:postcode": "20223", "amenity": "cafe", "building": "yes", "name": "Prije\u017eba Beach Bar", "phone": "+385 99 672 5100"}}]}