{"version": 0.6, "generator": "Overpass API 0.7.62.7 375dc00a", "osm3s": {"timestamp_osm_base": "2025-06-14T13:51:30Z", "copyright": "The data included in this document is from www.openstreetmap.org. The data is made available under ODbL."}, "elements": [{"type": "node", "id": 302383561, "lat": 41.2873961, "lon": 13.2440855, "tags": {"amenity": "cafe", "name": "WP2", "note": "05 Oct 2008 11:15:15"}}, {"type": "node", "id": 307830996, "lat": 41.276522, "lon": 13.101793, "tags": {"amenity": "cafe", "created_by": "GPSBabel-1.3.5"}}, {"type": "node", "id": 307836192, "lat": 41.267218, "lon": 13.1400235, "tags": {"amenity": "cafe"}}, {"type": "node", "id": 317980235, "lat": 41.3098148, "lon": 13.09764, "tags": {"amenity": "cafe", "name": "La Nespola"}}, {"type": "node", "id": 512083341, "lat": 41.4664192, "lon": 12.7463175, "tags": {"amenity": "cafe"}}, {"type": "node", "id": 512083342, "lat": 41.4663022, "lon": 12.7462872, "tags": {"amenity": "restaurant", "name": "Le Grugnole", "phone": "+39 06 985 8218", "website": "clublegrugnole.it"}}, {"type": "node", "id": 566158220, "lat": 41.5100658, "lon": 13.1136092, "tags": {"amenity": "restaurant", "name": "Il Seminario"}}, {"type": "node", "id": 601470904, "lat": 41.5291163, "lon": 12.9450786, "tags": {"amenity": "cafe", "name": "Bar Righetti"}}, {"type": "node", "id": 601470905, "lat": 41.5295757, "lon": 12.9447878, "tags": {"amenity": "restaurant", "name": "Giorgio & Silvia", "source": "knowledge"}}, {"type": "node", "id": 601470906, "lat": 41.5321869, "lon": 12.9443899, "tags": {"amenity": "cafe", "name": "Bar RuGi", "source": "knowledge"}}, {"type": "node", "id": 601470907, "lat": 41.5318946, "lon": 12.9438428, "tags": {"amenity": "cafe", "name": "Bar Pompili", "source": "knowledge"}}, {"type": "node", "id": 601470908, "lat": 41.5320677, "lon": 12.9441488, "tags": {"amenity": "cafe", "name": "L'Oasi del Caff\u00e8", "source": "knowledge"}}, {"type": "node", "id": 601470909, "lat": 41.5316674, "lon": 12.9447334, "tags": {"amenity": "cafe", "name": "Bar Prometeo", "source": "knowledge"}}, {"type": "node", "id": 601470910, "lat": 41.5313054, "lon": 12.9459315, "tags": {"amenity": "restaurant", "cuisine": "pizza", "name": "Zodiaco", "source": "knowledge"}}, {"type": "node", "id": 601470911, "lat": 41.5314903, "lon": 12.947862, "tags": {"amenity": "cafe", "name": "Bar Ma.Mi.", "source": "knowledge"}}, {"type": "node", "id": 601470912, "lat": 41.5310465, "lon": 12.9495702, "tags": {"amenity": "cafe", "name": "Caff\u00e8 Marchetti", "source": "knowledge"}}, {"type": "node", "id": 601470913, "lat": 41.5381009, "lon": 12.9461486, "tags": {"amenity": "cafe", "name": "Bar De Nicola", "outdoor_seating": "no", "source": "knowledge"}}, {"type": "node", "id": 601471911, "lat": 41.5279104, "lon": 12.9446719, "tags": {"amenity": "cafe", "name": "Bar Luna", "source": "knowledge"}}, {"type": "node", "id": 602492240, "lat": 41.5256163, "lon": 13.1560372, "tags": {"addr:housenumber": "16", "addr:street": "Via Antonio Traglia", "amenity": "cafe", "name": "L'Angolo del Caff\u00e8"}}, {"type": "node", "id": 602492241, "lat": 41.5249748, "lon": 13.1564388, "tags": {"addr:housenumber": "1", "addr:street": "Via Pio Nardacci", "amenity": "restaurant", "cuisine": "pizza", "internet_access": "no", "name": "L'Antico Granaio", "smoking": "no"}}, {"type": "node", "id": 602492243, "lat": 41.5254789, "lon": 13.1565681, "tags": {"addr:street": "Piazza Guglielmo Marconi", "amenity": "cafe", "name": "La Piazzetta"}}, {"type": "node", "id": 603473048, "lat": 41.524728, "lon": 13.1556666, "tags": {"addr:housenumber": "7", "addr:street": "Via Borgo Madonna", "amenity": "restaurant", "name": "Antica Villa"}}, {"type": "node", "id": 613573889, "lat": 41.5244389, "lon": 13.159215}, {"type": "node", "id": 615221641, "lat": 41.5132027, "lon": 13.1321724, "tags": {"amenity": "restaurant", "cuisine": "regional", "name": "Titta", "source": "knowledge"}}, {"type": "node", "id": 675743370, "lat": 41.3577251, "lon": 13.2400593, "tags": {"amenity": "restaurant", "name": "Trattoria pizzeria Cipolla"}}, {"type": "node", "id": 692180417, "lat": 41.5271479, "lon": 13.1660939, "tags": {"amenity": "restaurant", "name": "Il Querceto"}}, {"type": "node", "id": 701436577, "lat": 41.5575069, "lon": 12.9798502, "tags": {"amenity": "restaurant", "cuisine": "regional", "name": "La Valle dell'Usignolo"}}, {"type": "node", "id": 743383306, "lat": 41.5108291, "lon": 13.1273508, "tags": {"amenity": "restaurant", "name": "Il Tempio"}}, {"type": "node", "id": 763334394, "lat": 41.5194663, "lon": 13.1299419}, {"type": "node", "id": 766019462, "lat": 41.4761855, "lon": 13.1097047, "tags": {"amenity": "cafe", "name": "Bar della Fortuna"}}, {"type": "node", "id": 766019463, "lat": 41.4752442, "lon": 13.1085273, "tags": {"amenity": "cafe", "name": "Bar Panici", "tobacco": "yes", "tobacco:authorization": "31"}}, {"type": "node", "id": 768212962, "lat": 41.5153279, "lon": 13.0948571, "tags": {"amenity": "cafe", "name": "Bar Baldino"}}, {"type": "node", "id": 776168072, "lat": 41.2727203, "lon": 13.160336, "tags": {"amenity": "cafe"}}, {"type": "node", "id": 781130843, "lat": 41.4968827, "lon": 13.0422646, "tags": {"amenity": "cafe", "name": "Bar Royal Due"}}, {"type": "node", "id": 781130849, "lat": 41.4955135, "lon": 13.0390205, "tags": {"amenity": "cafe", "name": "Stazione", "tobacco": "yes"}}, {"type": "node", "id": 805956457, "lat": 41.4696923, "lon": 12.8994611, "tags": {"addr:city": "Latina", "addr:housenumber": "10", "addr:postcode": "04100", "addr:province": "LT", "addr:street": "Piazzale Gorizia", "alcohol:sales": "yes", "amenity": "restaurant", "contact:facebook": "https://www.facebook.com/people/Ristorante-Cinese-La-Grande-Muraglia-Latina/100063818328948/", "contact:tripadvisor": "https://www.tripadvisor.it/Restaurant_Review-g194787-d5523360-Reviews-La_grande_muraglia_cinese-Latina_Province_of_Latina_Lazio.html", "cuisine": "chinese", "delivery": "yes", "delivery:partner": "Just Eat", "diet:vegan": "yes", "highchair": "yes", "name": "La Grande Muraglia", "payment:american_express": "yes", "payment:bancomat": "yes", "payment:coins": "yes", "payment:contactless": "yes", "payment:credit_cards": "payment:union_pay", "payment:debit_cards": "yes", "payment:jcb": "yes", "payment:maestro": "yes", "payment:mastercard": "yes", "payment:nfc": "yes", "payment:visa": "yes", "phone": "+39 0773 480889", "reservation": "yes", "stars": "4", "takeaway": "yes", "toilets": "yes", "toilets:wheelchair": "yes", "website:menu": "https://www.justeat.it/restaurants-ristorante-cinese-la-grande-muraglia-latina/menu"}}, {"type": "node", "id": 833675180, "lat": 41.4380337, "lon": 13.07011, "tags": {"amenity": "restaurant", "name": "Da Marino"}}, {"type": "node", "id": 852695512, "lat": 41.5422519, "lon": 12.9828405, "tags": {"addr:city": "Sermoneta", "addr:country": "IT", "addr:housenumber": "34", "addr:postcode": "04013", "addr:street": "Via Romana Vecchia", "amenity": "restaurant", "email": "info@ristorantelasorgente.com", "mobile": "+39 335 5772317", "name": "La Sorgente", "ref:vatin": "IT02788610596", "website": "http://www.ristorantelasorgente.com/"}}, {"type": "node", "id": 852695515, "lat": 41.5182982, "lon": 12.9921094, "tags": {"amenity": "restaurant", "name": "La Catena"}}, {"type": "node", "id": 853812420, "lat": 41.5157626, "lon": 13.0973913, "tags": {"amenity": "cafe", "name": "da Gianni"}}, {"type": "node", "id": 869549684, "lat": 41.4634416, "lon": 13.0988874, "tags": {"amenity": "restaurant", "name": "Angeluccio"}}, {"type": "node", "id": 874381301, "lat": 41.5064621, "lon": 13.0688534, "tags": {"amenity": "cafe", "name": "Bar Incontro"}}, {"type": "node", "id": 874412933, "lat": 41.5311376, "lon": 12.9512431, "tags": {"amenity": "restaurant", "cuisine": "pizza", "name": "La Smorfia"}}, {"type": "node", "id": 901102679, "lat": 41.5306879, "lon": 12.9448519, "tags": {"amenity": "cafe", "name": "Caf\u00e8 del Sol"}}, {"type": "node", "id": 901102813, "lat": 41.5294223, "lon": 12.9437586, "tags": {"amenity": "restaurant", "name": "La Locanda degli Elfi"}}, {"type": "node", "id": 911999385, "lat": 41.5561332, "lon": 12.6925748, "tags": {"amenity": "restaurant", "cuisine": "pizza", "name": "Tuca Tuca"}}, {"type": "node", "id": 914690120, "lat": 41.5178795, "lon": 13.1307258, "tags": {"amenity": "cafe", "authorization": "3", "name": "Il Capanno", "tobacco": "yes"}}, {"type": "node", "id": 918344438, "lat": 41.4265804, "lon": 12.8845891}, {"type": "node", "id": 918344445, "lat": 41.4265979, "lon": 12.8848504}, {"type": "node", "id": 918344447, "lat": 41.4266489, "lon": 12.8847505}, {"type": "node", "id": 918344448, "lat": 41.4268209, "lon": 12.8844079}, {"type": "node", "id": 918344452, "lat": 41.4266643, "lon": 12.8847645}, {"type": "node", "id": 918344454, "lat": 41.4263738, "lon": 12.8849937}, {"type": "node", "id": 918344470, "lat": 41.4264695, "lon": 12.8850805}, {"type": "node", "id": 918344476, "lat": 41.426542, "lon": 12.8849386}, {"type": "node", "id": 918344477, "lat": 41.4267006, "lon": 12.8846935}, {"type": "node", "id": 918344493, "lat": 41.4265676, "lon": 12.8849619}, {"type": "node", "id": 918344496, "lat": 41.4267342, "lon": 12.884724}, {"type": "node", "id": 918344503, "lat": 41.4266421, "lon": 12.884448}, {"type": "node", "id": 918344505, "lat": 41.4268229, "lon": 12.8845503}, {"type": "node", "id": 918344520, "lat": 41.4265974, "lon": 12.8844074}, {"type": "node", "id": 918344523, "lat": 41.4267719, "lon": 12.8845039}, {"type": "node", "id": 918344525, "lat": 41.4267127, "lon": 12.8843097}, {"type": "node", "id": 918344527, "lat": 41.4265286, "lon": 12.8845421}, {"type": "node", "id": 918344529, "lat": 41.4266161, "lon": 12.8848669}, {"type": "node", "id": 937201751, "lat": 41.246944, "lon": 13.037424}, {"type": "node", "id": 945623225, "lat": 41.5324785, "lon": 12.9461207, "tags": {"amenity": "cafe", "name": "Dolci Italia"}}, {"type": "node", "id": 946592037, "lat": 41.4161878, "lon": 12.8223501, "tags": {"amenity": "restaurant", "cuisine": "barbecue", "microbrewery": "yes", "name": "Il Maresciallo", "opening_hours": "Apr-Sep off"}}, {"type": "node", "id": 948321611, "lat": 41.5197792, "lon": 13.1301447}, {"type": "node", "id": 948321619, "lat": 41.5195996, "lon": 13.1302311}, {"type": "node", "id": 948321624, "lat": 41.5196832, "lon": 13.1300806}, {"type": "node", "id": 948321631, "lat": 41.5197076, "lon": 13.1302675}, {"type": "node", "id": 948321637, "lat": 41.5196821, "lon": 13.1298681}, {"type": "node", "id": 948321647, "lat": 41.5195812, "lon": 13.1298863}, {"type": "node", "id": 948321660, "lat": 41.5198214, "lon": 13.1303004}, {"type": "node", "id": 948321667, "lat": 41.519551, "lon": 13.1302546}, {"type": "node", "id": 948321671, "lat": 41.5197097, "lon": 13.1301783}, {"type": "node", "id": 948321679, "lat": 41.5196208, "lon": 13.1303095}, {"type": "node", "id": 948321685, "lat": 41.5197332, "lon": 13.1300565}, {"type": "node", "id": 948321689, "lat": 41.5197287, "lon": 13.1303453}, {"type": "node", "id": 948321693, "lat": 41.5195885, "lon": 13.1299133}, {"type": "node", "id": 948871408, "lat": 41.467889, "lon": 12.904965, "tags": {"addr:city": "Latina", "addr:housenumber": "15", "addr:postcode": "04100", "addr:street": "Via Giosu\u00e8 Carducci", "air_conditioning": "yes", "amenity": "restaurant", "bar": "yes", "brewery": "yes", "check_date": "2023-04-13", "contact:facebook": "https://www.facebook.com/lapucceria", "contact:tripadvisor": "https://www.tripadvisor.it/Restaurant_Review-g194787-d3545135-Reviews-Pucceria_Pontina-Latina_Province_of_Latina_Lazio.html", "cuisine": "regional;italian;local;pasta", "description": "Ristorante che serve prevalentemente le Puccie, un particolare tipo di panino tipico della pianura pontina", "email": "puccerialatina@gmail.com", "internet_access": "wlan", "name": "La Pucceria", "opening_hours": "Mo 17:30-24:00; Tu 11:00-15:00; We-Su 11:00-15:00,17:30-24:00", "outdoor_seating": "yes", "payment:american_express": "yes", "payment:cash": "yes", "payment:coins": "yes", "payment:credit_cards": "yes", "payment:maestro": "yes", "payment:mastercard": "yes", "payment:nfc": "yes", "payment:visa": "yes", "phone": "+39 0773 661669", "reservation": "yes", "smoking": "no", "stars": "4", "takeaway": "yes", "wheelchair": "yes"}}, {"type": "node", "id": 957368163, "lat": 41.4731307, "lon": 12.9081052, "tags": {"amenity": "cafe", "name": "Bar Pontesilli"}}, {"type": "node", "id": 957475775, "lat": 41.524409, "lon": 13.159333}, {"type": "node", "id": 957475789, "lat": 41.524234, "lon": 13.1591221}, {"type": "node", "id": 957475946, "lat": 41.524204, "lon": 13.1592401}, {"type": "node", "id": 966708103, "lat": 41.5581836, "lon": 12.7274598, "tags": {"amenity": "restaurant", "name": "Sorgente di Carano"}}, {"type": "node", "id": 998843078, "lat": 41.4926877, "lon": 13.2006389, "tags": {"amenity": "restaurant", "name": "Paolina"}}, {"type": "node", "id": 998848520, "lat": 41.4627807, "lon": 12.904768, "tags": {"amenity": "cafe", "name": "Friuli", "wheelchair": "yes"}}, {"type": "node", "id": 1008855271, "lat": 41.500134, "lon": 13.0946189, "tags": {"amenity": "restaurant", "name": "Santuccio"}}, {"type": "node", "id": 1008855320, "lat": 41.4998045, "lon": 13.0949353, "tags": {"amenity": "restaurant", "cuisine": "pizza", "name": "La Livella"}}, {"type": "node", "id": 1042406409, "lat": 41.6064513, "lon": 13.0847129, "tags": {"amenity": "restaurant", "cuisine": "regional", "name": "La Reggia dei Volsci"}}, {"type": "node", "id": 1050348690, "lat": 41.3780119, "lon": 13.0297518, "tags": {"amenity": "restaurant", "name": "Excalibur"}}, {"type": "node", "id": 1165953519, "lat": 41.5290645, "lon": 12.9484881, "tags": {"amenity": "cafe", "name": "Gran Caff\u00e8 Gioia"}}, {"type": "node", "id": 1199140700, "lat": 41.4911558, "lon": 13.0392989}, {"type": "node", "id": 1199140718, "lat": 41.4908775, "lon": 13.0389161}, {"type": "node", "id": 1199140720, "lat": 41.4908179, "lon": 13.0390811}, {"type": "node", "id": 1199140734, "lat": 41.4926027, "lon": 13.0400642, "tags": {"amenity": "restaurant", "cuisine": "pizza", "name": "Tripudio"}}, {"type": "node", "id": 1199140759, "lat": 41.4912155, "lon": 13.0391339}, {"type": "node", "id": 1222334257, "lat": 41.4561995, "lon": 12.9303748, "tags": {"amenity": "restaurant", "name": "Il Bocciodromo"}}, {"type": "node", "id": 1272840069, "lat": 41.4516025, "lon": 12.8745757}, {"type": "node", "id": 1272840317, "lat": 41.4517024, "lon": 12.8744329}, {"type": "node", "id": 1272840414, "lat": 41.4516927, "lon": 12.874688}, {"type": "node", "id": 1272840647, "lat": 41.4517926, "lon": 12.8745452}, {"type": "node", "id": 1274046843, "lat": 41.4610274, "lon": 12.9071726, "tags": {"amenity": "cafe", "name": "Smal Bar"}}, {"type": "node", "id": 1274046904, "lat": 41.4621892, "lon": 12.9085814, "tags": {"amenity": "cafe", "name": "Caffetteria Eramo", "phone": "+39 0773 691328"}}, {"type": "node", "id": 1276475526, "lat": 41.4590762, "lon": 12.900815, "tags": {"amenity": "restaurant", "name": "Il Comandante"}}, {"type": "node", "id": 1277699797, "lat": 41.4073054, "lon": 12.9171972, "tags": {"amenity": "restaurant", "cuisine": "pizza", "name": "Pizzeria Fogliano"}}, {"type": "node", "id": 1315985457, "lat": 41.5850312, "lon": 12.970866, "tags": {"amenity": "restaurant", "cuisine": "italian", "name": "\"La Piccola Fontana\""}}, {"type": "node", "id": 1338465330, "lat": 41.5058089, "lon": 13.0645369, "tags": {"amenity": "cafe", "name": "Dama Caf\u00e8", "opening_hours": "PH,Mo-Su 06:00-13:00,15:00-19:00"}}, {"type": "node", "id": 1338471975, "lat": 41.5057019, "lon": 13.0625237, "tags": {"amenity": "restaurant", "cuisine": "pizza", "opening_hours": "Mo-Su; We off"}}, {"type": "node", "id": 1368351270, "lat": 41.5075353, "lon": 13.0682802, "tags": {"amenity": "restaurant", "cuisine": "regional", "name": "da Vittorio"}}, {"type": "node", "id": 1388480852, "lat": 41.5733689, "lon": 13.1956688, "tags": {"amenity": "restaurant", "cuisine": "regional", "name": "La Sorgente", "phone": "+39 0773 951378", "ref:vatin": "IT01268050596", "website": "http://www.ristorantelasorgentelt.com"}}, {"type": "node", "id": 1389814154, "lat": 41.6010263, "lon": 13.0861688, "tags": {"addr:city": "Carpineto Romano", "addr:country": "IT", "addr:housenumber": "26", "addr:postcode": "00032", "addr:street": "Via Rerum Novarum", "amenity": "restaurant", "contact:facebook": "https://www.facebook.com/ilfaggioristorantecarpinetoromano/", "contact:instagram": "https://www.instagram.com/il_faggio_ristorante_carpineto", "cuisine": "pizza;regional", "email": "ristoranteilfaggio@yahoo.it", "mobile": "+39 347 0375477", "name": "Il Faggio", "phone": "+39 06 9717060"}}, {"type": "node", "id": 1389814187, "lat": 41.60292, "lon": 13.0939673, "tags": {"amenity": "restaurant", "name": "La rupe dei 7 venti da Feoli"}}, {"type": "node", "id": 1407644866, "lat": 41.5417969, "lon": 13.1747645, "tags": {"amenity": "restaurant", "cuisine": "pizza", "name": "Seventy Club"}}, {"type": "node", "id": 1416929568, "lat": 41.576674, "lon": 13.1995777, "tags": {"amenity": "restaurant", "cuisine": "regional", "internet_access": "no", "name": "Il Rifugio del Falco"}}, {"type": "node", "id": 1426544434, "lat": 41.4925884, "lon": 13.0676201, "tags": {"amenity": "restaurant", "cuisine": "pizza", "name": "Battocchio", "opening_hours": "Mo-Su; We off"}}, {"type": "node", "id": 1451245592, "lat": 41.5263247, "lon": 12.9518081, "tags": {"addr:housenumber": "64", "addr:street": "Via delle Camelie", "amenity": "cafe", "name": "L'Aroma del Caff\u00e8"}}, {"type": "node", "id": 1452958408, "lat": 41.4047883, "lon": 13.0451785, "tags": {"addr:street": "VIa Leonardo da Vinci", "amenity": "restaurant", "name": "Nan\u00e8"}}, {"type": "node", "id": 1454659505, "lat": 41.4848135, "lon": 13.1306195}, {"type": "node", "id": 1456267059, "lat": 41.5853784, "lon": 12.9713772, "tags": {"addr:city": "Norma", "addr:housenumber": "3", "addr:postcode": "04010", "addr:street": "Piazza Roma", "amenity": "cafe", "name": "Bar Caracas", "outdoor_seating": "yes"}}, {"type": "node", "id": 1456295099, "lat": 41.5848176, "lon": 12.9715651, "tags": {"addr:housenumber": "10", "addr:postcode": "04010", "addr:street": "Via del Corso", "amenity": "restaurant", "cuisine": "regional;italian", "diet:vegetarian": "yes", "name": "Trattoria \"Antichi Sapori\"", "opening_hours": "Tu-Su 12:00-16:30, 19:00-23:00; Mo 19:00-23:00", "outdoor_seating": "yes", "phone": "+39 339 824 2842", "toilets:wheelchair": "no", "website": "https://website-7465974647897607985228-restaurant.business.site/"}}, {"type": "node", "id": 1456296103, "lat": 41.5852987, "lon": 12.9724253, "tags": {"amenity": "restaurant", "cuisine": "pizza", "name": "Pizzeria \"Da Valerio\""}}, {"type": "node", "id": 1456309667, "lat": 41.5884984, "lon": 12.9692356, "tags": {"amenity": "restaurant", "cuisine": "italian", "name": "Ristorante Pizzeria 2001"}}, {"type": "node", "id": 1468318021, "lat": 41.5056673, "lon": 13.0690528, "tags": {"amenity": "cafe"}}, {"type": "node", "id": 1472536503, "lat": 41.5504513, "lon": 12.9657283}, {"type": "node", "id": 1472536504, "lat": 41.5505555, "lon": 12.9658045}, {"type": "node", "id": 1472536505, "lat": 41.5506023, "lon": 12.9653594}, {"type": "node", "id": 1472536506, "lat": 41.5507065, "lon": 12.9654356}, {"type": "node", "id": 1476404481, "lat": 41.4955642, "lon": 13.0412202, "tags": {"amenity": "cafe", "ref:tobacco": "25", "tobacco": "yes"}}, {"type": "node", "id": 1476404485, "lat": 41.4959438, "lon": 13.0398104, "tags": {"amenity": "cafe", "name": "Cosentini"}}, {"type": "node", "id": 1476404487, "lat": 41.4959882, "lon": 13.041269, "tags": {"amenity": "cafe"}}, {"type": "node", "id": 1482720996, "lat": 41.5467445, "lon": 12.9785821}, {"type": "node", "id": 1482720998, "lat": 41.5468829, "lon": 12.9783934}, {"type": "node", "id": 1482720999, "lat": 41.546894, "lon": 12.9787781}, {"type": "node", "id": 1482721003, "lat": 41.5470325, "lon": 12.9785894}, {"type": "node", "id": 1485192363, "lat": 41.5503797, "lon": 13.0428996}, {"type": "node", "id": 1485192364, "lat": 41.5503875, "lon": 13.0427541}, {"type": "node", "id": 1485192367, "lat": 41.5504964, "lon": 13.0429108}, {"type": "node", "id": 1485192368, "lat": 41.5505042, "lon": 13.0427652}, {"type": "node", "id": 1485192375, "lat": 41.5508651, "lon": 13.037097}, {"type": "node", "id": 1485192376, "lat": 41.5509092, "lon": 13.0372877}, {"type": "node", "id": 1485192383, "lat": 41.551086, "lon": 13.0370058}, {"type": "node", "id": 1485192384, "lat": 41.5511301, "lon": 13.0371965}, {"type": "node", "id": 1485192457, "lat": 41.5545521, "lon": 13.0344814}, {"type": "node", "id": 1485192461, "lat": 41.5546144, "lon": 13.0346581}, {"type": "node", "id": 1485192465, "lat": 41.5546597, "lon": 13.0344138}, {"type": "node", "id": 1485192472, "lat": 41.5547219, "lon": 13.0345905}, {"type": "node", "id": 1486414346, "lat": 41.5531943, "lon": 13.0316546}, {"type": "node", "id": 1486414347, "lat": 41.5532406, "lon": 13.0317262}, {"type": "node", "id": 1486414353, "lat": 41.5533458, "lon": 13.0314797}, {"type": "node", "id": 1486414355, "lat": 41.5533921, "lon": 13.0315514}, {"type": "node", "id": 1497228753, "lat": 41.4951767, "lon": 13.0684875}, {"type": "node", "id": 1497228755, "lat": 41.4952034, "lon": 13.0682417}, {"type": "node", "id": 1497228757, "lat": 41.4953028, "lon": 13.0685118}, {"type": "node", "id": 1497228760, "lat": 41.4953294, "lon": 13.068266}, {"type": "node", "id": 1510384880, "lat": 41.4856954, "lon": 12.8913736}, {"type": "node", "id": 1510384885, "lat": 41.4856954, "lon": 12.8915151}, {"type": "node", "id": 1510384939, "lat": 41.4859255, "lon": 12.8913736}, {"type": "node", "id": 1510384943, "lat": 41.4859255, "lon": 12.8915151}, {"type": "node", "id": 1529542842, "lat": 41.4846476, "lon": 13.1308298}, {"type": "node", "id": 1529542846, "lat": 41.4847003, "lon": 13.1305774}, {"type": "node", "id": 1529542878, "lat": 41.4847811, "lon": 13.1307748}, {"type": "node", "id": 1529542881, "lat": 41.4847899, "lon": 13.1308827}, {"type": "node", "id": 1529542886, "lat": 41.4848101, "lon": 13.1307856}, {"type": "node", "id": 1538084150, "lat": 41.5037838, "lon": 13.2276265, "tags": {"amenity": "cafe", "name": "Bar del Cacciatore"}}, {"type": "node", "id": 1550226594, "lat": 41.2867541, "lon": 13.2400202, "tags": {"addr:housenumber": "37", "amenity": "restaurant", "cuisine": "pizza", "name": "Il Girasole", "phone": "+39 328 3216732"}}, {"type": "node", "id": 1573138622, "lat": 41.5637854, "lon": 12.6441989, "tags": {"amenity": "restaurant", "cuisine": "regional", "name": "Torre Cristina"}}, {"type": "node", "id": 1573792259, "lat": 41.5506441, "lon": 13.0312922, "tags": {"amenity": "cafe", "name": "Caff\u00e8 Fiorentini", "outdoor_seating": "yes"}}, {"type": "node", "id": 1573792277, "lat": 41.550569, "lon": 13.0312288, "tags": {"amenity": "cafe"}}, {"type": "node", "id": 1574092119, "lat": 41.291636, "lon": 13.2485294, "tags": {"addr:housenumber": "18", "addr:street": "Piazza Municipio", "amenity": "cafe", "name": "Caff\u00e8 del Duomo", "operator": "Ingrid Germani", "phone": "+39 773 709528", "ref:vatin": "IT01822970594", "restaurant:type:it": "gelateria;sala da th\u00e8", "shop": "ice_cream", "start_date": "1793", "website": "http://www.caffedelduomo.it"}}, {"type": "node", "id": 1574092160, "lat": 41.2915161, "lon": 13.2490918, "tags": {"addr:housenumber": "12", "addr:postcode": "04019", "addr:street": "Piazza Municipio", "amenity": "cafe", "name": "Bar Grande", "operator": "G. Venerelli", "ref:vatin": "IT02217200597"}}, {"type": "node", "id": 1575159348, "lat": 41.291187, "lon": 13.2496871, "tags": {"addr:city": "Terracina", "addr:housenumber": "17", "addr:postcode": "04019", "addr:street": "Via Salita Annunziata", "amenity": "cafe", "name": "Ready Steady Go!", "operator": "Alberto Marsella", "ref:vatin": "IT02593410596"}}, {"type": "node", "id": 1575159374, "lat": 41.2845374, "lon": 13.2474459, "tags": {"addr:city": "Terracina", "addr:country": "IT", "addr:postcode": "04019", "addr:street": "Piazzale Aldo Moro", "amenity": "restaurant", "contact:facebook": "https://www.facebook.com/CentroItticoCooperativaDeiPescatoriDiTerracina", "cuisine": "italian", "email": "info@centroitticoterracina.it", "name": "Centro Ittico dei Pescatori", "operator": "Lido Pesca S.r.L.", "phone": "+39 0773 723043", "website": "http://www.centroitticoterracina.it/"}}, {"type": "node", "id": 1575159384, "lat": 41.2882868, "lon": 13.2534868, "tags": {"addr:city": "Terracina", "addr:housenumber": "3;5", "addr:postcode": "04019", "addr:street": "Piazza Garibaldi", "amenity": "cafe", "name": "Artis Caf\u00e8", "operator": "Geppy di Natale Maria Immacolata", "phone": "+39 0773 704083", "ref:vatin": "IT02288240597"}}, {"type": "node", "id": 1575159408, "lat": 41.2855149, "lon": 13.2480586, "tags": {"addr:city": "Terracina", "addr:housenumber": "59", "addr:postcode": "04019", "addr:street": "Viale della Vittoria", "amenity": "cafe", "name": "Caffetteria Bar Quadrifoglio", "operator": "Boa Sorte Srl.", "phone": "+39 348 9860001", "ref:vatin": "IT02632450595", "restaurant:type:it": "caffetteria;bar;gelateria"}}, {"type": "node", "id": 1575159418, "lat": 41.291108, "lon": 13.2518161, "tags": {"amenity": "restaurant"}}, {"type": "node", "id": 1736987736, "lat": 41.5489934, "lon": 12.9859311, "tags": {"amenity": "cafe"}}, {"type": "node", "id": 1736987737, "lat": 41.5490637, "lon": 12.9857756, "tags": {"amenity": "cafe"}}, {"type": "node", "id": 1736987751, "lat": 41.5487952, "lon": 12.9857764, "tags": {"amenity": "restaurant", "name": "Trattoria Da Marcello", "phone": "+39 0773 318719"}}, {"type": "node", "id": 1736987758, "lat": 41.5490404, "lon": 12.9855063, "tags": {"amenity": "cafe"}}, {"type": "node", "id": 1736993317, "lat": 41.5496501, "lon": 12.9843212, "tags": {"amenity": "restaurant", "name": "Ristorante al Castello"}}, {"type": "node", "id": 1794669270, "lat": 41.4141708, "lon": 13.0435915, "tags": {"addr:city": "Pontinia", "addr:housenumber": "7", "addr:postcode": "04014", "addr:street": "Via Migliara 47 1/2", "amenity": "restaurant", "contact:facebook": "ceraunavolta.pontinia", "contact:whatsapp": "+39 338 649 9913", "name": "Niko's - C'era una volta", "phone": "+39 077 386 6740", "reservation": "yes"}}, {"type": "node", "id": 1862991723, "lat": 41.2881556, "lon": 13.2495588, "tags": {"amenity": "cafe", "name": "Victoria Bar"}}, {"type": "node", "id": 1868619447, "lat": 41.2973552, "lon": 13.0459747, "tags": {"amenity": "cafe", "name": "Il Parco"}}, {"type": "node", "id": 1882759492, "lat": 41.3009381, "lon": 13.0250004, "tags": {"amenity": "restaurant", "cuisine": "pizza", "name": "da Armando"}}, {"type": "node", "id": 1882876999, "lat": 41.3094492, "lon": 13.019224, "tags": {"amenity": "restaurant"}}, {"type": "node", "id": 1904524586, "lat": 41.3894435, "lon": 12.9529819}, {"type": "node", "id": 1904524588, "lat": 41.3895572, "lon": 12.9528005}, {"type": "node", "id": 1904524608, "lat": 41.3895476, "lon": 12.9530978}, {"type": "node", "id": 1904524609, "lat": 41.3896921, "lon": 12.9529507}, {"type": "node", "id": 1915489660, "lat": 41.5258011, "lon": 12.9505422, "tags": {"addr:housenumber": "2", "addr:street": "Via delle Camelie", "amenity": "cafe", "name": "Caffetteria Peruzzo"}}, {"type": "node", "id": 1918558221, "lat": 41.4311008, "lon": 13.2059849}, {"type": "node", "id": 1918558225, "lat": 41.4313567, "lon": 13.2069593}, {"type": "node", "id": 1918558231, "lat": 41.4315118, "lon": 13.206859}, {"type": "node", "id": 1918558236, "lat": 41.4309012, "lon": 13.2060586}, {"type": "node", "id": 1918558239, "lat": 41.4317732, "lon": 13.2066899}, {"type": "node", "id": 1918558242, "lat": 41.43203, "lon": 13.2063487}, {"type": "node", "id": 1918558243, "lat": 41.43203, "lon": 13.2065238}, {"type": "node", "id": 1919587218, "lat": 41.4307198, "lon": 13.2053273}, {"type": "node", "id": 1919587740, "lat": 41.4315233, "lon": 13.2049444}, {"type": "node", "id": 1920273702, "lat": 41.3337076, "lon": 13.1927309}, {"type": "node", "id": 1920273704, "lat": 41.3337303, "lon": 13.1928679}, {"type": "node", "id": 1920273707, "lat": 41.3337875, "lon": 13.1927073}, {"type": "node", "id": 1920273708, "lat": 41.3338103, "lon": 13.1928444}, {"type": "node", "id": 1935883838, "lat": 41.5401293, "lon": 12.9567466, "tags": {"amenity": "cafe", "name": "Bar Pontenuovo", "tobacco": "yes"}}, {"type": "node", "id": 1935898506, "lat": 41.5403747, "lon": 12.9761017, "tags": {"amenity": "restaurant", "cuisine": "regional", "name": "Monticchio da Carlo"}}, {"type": "node", "id": 1937114868, "lat": 41.4256885, "lon": 13.1838646, "tags": {"amenity": "restaurant"}}, {"type": "node", "id": 1942402852, "lat": 41.2922518, "lon": 13.2483154, "tags": {"addr:housenumber": "99", "addr:postcode": "04019", "addr:street": "Corso Anita Garibaldi", "amenity": "restaurant", "cuisine": "italian", "internet_access": "wlan", "name": "Green", "website": "http://www.greenterracina.it/"}}, {"type": "node", "id": 1957230141, "lat": 41.3925045, "lon": 13.0934534}, {"type": "node", "id": 1957230142, "lat": 41.3925448, "lon": 13.0935091}, {"type": "node", "id": 1957230144, "lat": 41.392641, "lon": 13.0932782}, {"type": "node", "id": 1957230145, "lat": 41.3926813, "lon": 13.093334}, {"type": "node", "id": 1957233804, "lat": 41.4465541, "lon": 13.0240476, "tags": {"amenity": "cafe", "name": "Bar Appia Antica"}}, {"type": "node", "id": 1957247053, "lat": 41.48143, "lon": 12.979444}, {"type": "node", "id": 1957247059, "lat": 41.4815012, "lon": 12.9795445}, {"type": "node", "id": 1957247065, "lat": 41.4816175, "lon": 12.9792071}, {"type": "node", "id": 1957247066, "lat": 41.4816887, "lon": 12.9793075}, {"type": "node", "id": 2058409565, "lat": 41.2847821, "lon": 13.2341608}, {"type": "node", "id": 2058409566, "lat": 41.2847844, "lon": 13.2338432}, {"type": "node", "id": 2058409567, "lat": 41.284973, "lon": 13.2341561}, {"type": "node", "id": 2058409568, "lat": 41.2849765, "lon": 13.2340508}, {"type": "node", "id": 2058409569, "lat": 41.2850813, "lon": 13.2338246}, {"type": "node", "id": 2058409570, "lat": 41.2850871, "lon": 13.2339563}, {"type": "node", "id": 2058409571, "lat": 41.2851441, "lon": 13.2339563}, {"type": "node", "id": 2058409572, "lat": 41.2851453, "lon": 13.2340771}, {"type": "node", "id": 2058426343, "lat": 41.2847826, "lon": 13.2340847, "tags": {"addr:housenumber": "116", "entrance": "yes"}}, {"type": "node", "id": 2058495519, "lat": 41.2868063, "lon": 13.2378762, "tags": {"amenity": "cafe", "name": "Bar Sailor", "phone": "+39 0773 727100"}}, {"type": "node", "id": 2088744788, "lat": 41.522913, "lon": 13.1819017, "tags": {"amenity": "cafe", "name": "Bar Centrale"}}, {"type": "node", "id": 2088842107, "lat": 41.5233034, "lon": 13.181437, "tags": {"addr:housenumber": "11", "amenity": "restaurant", "cuisine": "pizza", "name": "L'artigiano", "phone": "+39 0773 951727"}}, {"type": "node", "id": 2088860773, "lat": 41.523037, "lon": 13.1813632, "tags": {"amenity": "cafe", "name": "Caff\u00e8 della Plaza"}}, {"type": "node", "id": 2165037379, "lat": 41.4660734, "lon": 12.899851, "tags": {"amenity": "restaurant", "cuisine": "indian", "name": "Jaipur 2", "smoking": "no"}}, {"type": "node", "id": 2178701897, "lat": 41.3133962, "lon": 13.2358287}, {"type": "node", "id": 2178701902, "lat": 41.313575, "lon": 13.2360582}, {"type": "node", "id": 2178701907, "lat": 41.3136664, "lon": 13.2352864}, {"type": "node", "id": 2178701909, "lat": 41.3138662, "lon": 13.2354446}, {"type": "node", "id": 2228522148, "lat": 41.494218, "lon": 12.6685032, "tags": {"addr:housename": "Alex Bar", "addr:housenumber": "20", "addr:postcode": "00048", "addr:street": "Via Cadolino", "amenity": "cafe", "name": "Alex Bar"}}, {"type": "node", "id": 2228526393, "lat": 41.4797755, "lon": 12.6690181, "tags": {"addr:housenumber": "7", "addr:postcode": "00048", "addr:street": "Piazzale Kennedy", "amenity": "cafe", "name": "Bar Snack"}}, {"type": "node", "id": 2242681427, "lat": 41.4385, "lon": 13.1951713, "tags": {"amenity": "restaurant", "name": "Il Forno del Procoio", "phone": "+39 349 8047398"}}, {"type": "node", "id": 2242709509, "lat": 41.4378864, "lon": 13.1956889, "tags": {"amenity": "cafe", "name": "Il Caff\u00e8 dei Guitti", "phone": "+39 0773 939483", "ref:vatin": "IT01632890594"}}, {"type": "node", "id": 2278863161, "lat": 41.265063, "lon": 13.1364197, "tags": {"amenity": "cafe"}}, {"type": "node", "id": 2296193068, "lat": 41.4587589, "lon": 12.9922487}, {"type": "node", "id": 2296193080, "lat": 41.4588143, "lon": 12.9921789}, {"type": "node", "id": 2296193088, "lat": 41.4588901, "lon": 12.9924338}, {"type": "node", "id": 2296193094, "lat": 41.4589455, "lon": 12.992364}, {"type": "node", "id": 2299016100, "lat": 41.2925896, "lon": 13.2338381}, {"type": "node", "id": 2299016101, "lat": 41.2927067, "lon": 13.2346929}, {"type": "node", "id": 2299016106, "lat": 41.2931316, "lon": 13.2338193}, {"type": "node", "id": 2299016108, "lat": 41.2932318, "lon": 13.2345501}, {"type": "node", "id": 2299480593, "lat": 41.2912436, "lon": 13.2430357, "tags": {"amenity": "cafe", "name": "FabRita Caff\u00e8", "outdoor_seating": "yes"}}, {"type": "node", "id": 2306204787, "lat": 41.5877786, "lon": 12.9208891, "tags": {"addr:housenumber": "62", "amenity": "cafe", "name": "Bar della Fortuna", "shop": "tobacco"}}, {"type": "node", "id": 2309688714, "lat": 41.3246382, "lon": 13.1457312, "tags": {"amenity": "cafe", "craft": "confectionery", "name": "Dolce Mania"}}, {"type": "node", "id": 2312665350, "lat": 41.425504, "lon": 12.9549626}, {"type": "node", "id": 2312665351, "lat": 41.4255667, "lon": 12.9548632}, {"type": "node", "id": 2312665352, "lat": 41.4256873, "lon": 12.955168}, {"type": "node", "id": 2312665354, "lat": 41.4257499, "lon": 12.9550686}, {"type": "node", "id": 2312707587, "lat": 41.2876032, "lon": 13.1068433}, {"type": "node", "id": 2312707588, "lat": 41.2879233, "lon": 13.1061469}, {"type": "node", "id": 2312707589, "lat": 41.2883994, "lon": 13.1056362}, {"type": "node", "id": 2312707590, "lat": 41.2887338, "lon": 13.1074113}, {"type": "node", "id": 2312707591, "lat": 41.2887769, "lon": 13.1073649}, {"type": "node", "id": 2312707592, "lat": 41.2888323, "lon": 13.1053686}, {"type": "node", "id": 2312707593, "lat": 41.2888816, "lon": 13.1054696}, {"type": "node", "id": 2312747598, "lat": 41.2917963, "lon": 13.2457146}, {"type": "node", "id": 2312747599, "lat": 41.2918275, "lon": 13.2456041}, {"type": "node", "id": 2312747602, "lat": 41.2918356, "lon": 13.24561}, {"type": "node", "id": 2312747603, "lat": 41.2918449, "lon": 13.2457512}, {"type": "node", "id": 2312747604, "lat": 41.2918605, "lon": 13.2455204}, {"type": "node", "id": 2312747605, "lat": 41.2918659, "lon": 13.245693}, {"type": "node", "id": 2312747607, "lat": 41.2918756, "lon": 13.2455303}, {"type": "node", "id": 2312747609, "lat": 41.2918935, "lon": 13.2457124}, {"type": "node", "id": 2312747610, "lat": 41.291913, "lon": 13.2454302}, {"type": "node", "id": 2312747612, "lat": 41.2919194, "lon": 13.2454258}, {"type": "node", "id": 2312747613, "lat": 41.2919234, "lon": 13.2456068}, {"type": "node", "id": 2312747614, "lat": 41.2919331, "lon": 13.2456138}, {"type": "node", "id": 2312747615, "lat": 41.2919744, "lon": 13.2454673}, {"type": "node", "id": 2337091734, "lat": 41.4409165, "lon": 12.9100719}, {"type": "node", "id": 2337091735, "lat": 41.4410742, "lon": 12.9101567}, {"type": "node", "id": 2337091758, "lat": 41.440987, "lon": 12.9104452}, {"type": "node", "id": 2337091767, "lat": 41.4408293, "lon": 12.9103604}, {"type": "node", "id": 2386307381, "lat": 41.2856683, "lon": 13.1929113}, {"type": "node", "id": 2386307382, "lat": 41.2856978, "lon": 13.1929857}, {"type": "node", "id": 2386307384, "lat": 41.2857544, "lon": 13.1928852}, {"type": "node", "id": 2386307385, "lat": 41.2857545, "lon": 13.1928763}, {"type": "node", "id": 2386307386, "lat": 41.2857668, "lon": 13.1929431}, {"type": "node", "id": 2386307387, "lat": 41.2857709, "lon": 13.1929606}, {"type": "node", "id": 2386307388, "lat": 41.2858062, "lon": 13.1928644}, {"type": "node", "id": 2386307389, "lat": 41.2858193, "lon": 13.1929278}, {"type": "node", "id": 2428844326, "lat": 41.391, "lon": 12.9999194, "tags": {"amenity": "cafe", "name": "L'angolo divino"}}, {"type": "node", "id": 2428844494, "lat": 41.390562, "lon": 12.9994715, "tags": {"amenity": "restaurant", "cuisine": "pizza", "name": "l'Oasi"}}, {"type": "node", "id": 2428845536, "lat": 41.3927, "lon": 13.0016584, "tags": {"amenity": "cafe", "name": "Sennen"}}, {"type": "node", "id": 2465376739, "lat": 41.4395759, "lon": 12.908868}, {"type": "node", "id": 2465376742, "lat": 41.4394129, "lon": 12.9090829}, {"type": "node", "id": 2465376800, "lat": 41.4396028, "lon": 12.909025}, {"type": "node", "id": 2465376802, "lat": 41.439386, "lon": 12.908926}, {"type": "node", "id": 2467661872, "lat": 41.2657425, "lon": 13.0956234, "tags": {"addr:housenumber": "80", "addr:street": "monte circeo", "amenity": "restaurant", "name": "Podere Bedin", "website": "https://poderebedin.it/"}}, {"type": "node", "id": 2469946560, "lat": 41.4298854, "lon": 12.8212441}, {"type": "node", "id": 2469946585, "lat": 41.4298417, "lon": 12.821337}, {"type": "node", "id": 2469958857, "lat": 41.4297719, "lon": 12.8214017}, {"type": "node", "id": 2469958895, "lat": 41.4297538, "lon": 12.8213749}, {"type": "node", "id": 2469958913, "lat": 41.4297559, "lon": 12.8213427}, {"type": "node", "id": 2469958923, "lat": 41.4298242, "lon": 12.8211979}, {"type": "node", "id": 2469958929, "lat": 41.4298001, "lon": 12.8214232}, {"type": "node", "id": 2470012068, "lat": 41.4286482, "lon": 12.8219606}, {"type": "node", "id": 2470012074, "lat": 41.4287799, "lon": 12.8220731}, {"type": "node", "id": 2470012077, "lat": 41.4288819, "lon": 12.8218608}, {"type": "node", "id": 2470012080, "lat": 41.4287502, "lon": 12.8217483}, {"type": "node", "id": 2470020227, "lat": 41.4286555, "lon": 12.8252485}, {"type": "node", "id": 2470020251, "lat": 41.4287057, "lon": 12.8251425}, {"type": "node", "id": 2470020266, "lat": 41.4283911, "lon": 12.8250257}, {"type": "node", "id": 2470020278, "lat": 41.4284413, "lon": 12.8249198}, {"type": "node", "id": 2472099910, "lat": 41.4850259, "lon": 12.7885624}, {"type": "node", "id": 2472099916, "lat": 41.484834, "lon": 12.7885561}, {"type": "node", "id": 2472099921, "lat": 41.4850191, "lon": 12.7889347}, {"type": "node", "id": 2472099923, "lat": 41.4848272, "lon": 12.7889284}, {"type": "node", "id": 2476358081, "lat": 41.5045238, "lon": 13.0473318}, {"type": "node", "id": 2476358086, "lat": 41.5045423, "lon": 13.0474671}, {"type": "node", "id": 2476358089, "lat": 41.5045519, "lon": 13.0475373}, {"type": "node", "id": 2476358092, "lat": 41.5047753, "lon": 13.0474978}, {"type": "node", "id": 2476358095, "lat": 41.504839, "lon": 13.0462667}, {"type": "node", "id": 2476358101, "lat": 41.5050255, "lon": 13.0463297}, {"type": "node", "id": 2476358105, "lat": 41.5050965, "lon": 13.0475156}, {"type": "node", "id": 2476358108, "lat": 41.5053525, "lon": 13.0468259}, {"type": "node", "id": 2476358111, "lat": 41.5053658, "lon": 13.0473219}, {"type": "node", "id": 2476358114, "lat": 41.5053895, "lon": 13.0464525}, {"type": "node", "id": 2476358117, "lat": 41.5053969, "lon": 13.0474543}, {"type": "node", "id": 2476369900, "lat": 41.5083761, "lon": 13.0539297, "tags": {"amenity": "cafe", "name": "Bar l'Aurora"}}, {"type": "node", "id": 2476369901, "lat": 41.5053834, "lon": 13.0473971, "tags": {"addr:housenumber": "61"}}, {"type": "node", "id": 2482243128, "lat": 41.4757125, "lon": 12.8798774}, {"type": "node", "id": 2482243129, "lat": 41.4758767, "lon": 12.8794221}, {"type": "node", "id": 2482243130, "lat": 41.4758054, "lon": 12.879937}, {"type": "node", "id": 2482243131, "lat": 41.4759692, "lon": 12.8794818}, {"type": "node", "id": 2484774009, "lat": 41.5133753, "lon": 12.8545685}, {"type": "node", "id": 2484774031, "lat": 41.5132982, "lon": 12.8545883}, {"type": "node", "id": 2484774046, "lat": 41.5132619, "lon": 12.8543359}, {"type": "node", "id": 2484774051, "lat": 41.513339, "lon": 12.8543161}, {"type": "node", "id": 2489413234, "lat": 41.5095398, "lon": 12.8560946}, {"type": "node", "id": 2489413271, "lat": 41.5095164, "lon": 12.8561872}, {"type": "node", "id": 2489413316, "lat": 41.5096322, "lon": 12.8562251}, {"type": "node", "id": 2489413320, "lat": 41.5096084, "lon": 12.8560744}, {"type": "node", "id": 2489413335, "lat": 41.5095534, "lon": 12.8561763}, {"type": "node", "id": 2489413351, "lat": 41.509528, "lon": 12.8562573}, {"type": "node", "id": 2490954706, "lat": 41.5353056, "lon": 12.8918445}, {"type": "node", "id": 2490954711, "lat": 41.5352336, "lon": 12.8917465}, {"type": "node", "id": 2490954715, "lat": 41.5350648, "lon": 12.8919679}, {"type": "node", "id": 2490954720, "lat": 41.5353663, "lon": 12.8922597}, {"type": "node", "id": 2490954722, "lat": 41.5352462, "lon": 12.8919223}, {"type": "node", "id": 2490954729, "lat": 41.5352678, "lon": 12.8922442}, {"type": "node", "id": 2490954733, "lat": 41.5354314, "lon": 12.8921743}, {"type": "node", "id": 2490954770, "lat": 41.5353121, "lon": 12.892186}, {"type": "node", "id": 2499414617, "lat": 41.5061552, "lon": 12.8939022}, {"type": "node", "id": 2499414622, "lat": 41.5061034, "lon": 12.8940283}, {"type": "node", "id": 2499414633, "lat": 41.5059665, "lon": 12.8935566}, {"type": "node", "id": 2499414636, "lat": 41.5060404, "lon": 12.8936108}, {"type": "node", "id": 2499414645, "lat": 41.5060221, "lon": 12.8936555}, {"type": "node", "id": 2499414658, "lat": 41.5059271, "lon": 12.8938736}, {"type": "node", "id": 2499414660, "lat": 41.5059772, "lon": 12.8939358}, {"type": "node", "id": 2499414665, "lat": 41.5060187, "lon": 12.8938348}, {"type": "node", "id": 2499414668, "lat": 41.5058573, "lon": 12.8938225}, {"type": "node", "id": 2499414678, "lat": 41.5060522, "lon": 12.8938267}, {"type": "node", "id": 2499414702, "lat": 41.5060993, "lon": 12.8937121}, {"type": "node", "id": 2499414715, "lat": 41.5059606, "lon": 12.8937922}, {"type": "node", "id": 2501493016, "lat": 41.5044541, "lon": 12.8926063}, {"type": "node", "id": 2501493049, "lat": 41.5043695, "lon": 12.892727}, {"type": "node", "id": 2501493066, "lat": 41.5043309, "lon": 12.8926787}, {"type": "node", "id": 2501493099, "lat": 41.5044155, "lon": 12.892558}, {"type": "node", "id": 2512592046, "lat": 41.4627185, "lon": 12.6585728, "tags": {"amenity": "cafe"}}, {"type": "node", "id": 2512592063, "lat": 41.4714857, "lon": 12.6483175, "tags": {"amenity": "cafe", "name": "Incontro"}}, {"type": "node", "id": 2519622823, "lat": 41.4536199, "lon": 12.9354129}, {"type": "node", "id": 2519622824, "lat": 41.4539066, "lon": 12.9346924}, {"type": "node", "id": 2519622829, "lat": 41.4541775, "lon": 12.9358163}, {"type": "node", "id": 2519622834, "lat": 41.454384, "lon": 12.9352771, "tags": {"barrier": "gate"}}, {"type": "node", "id": 2519622836, "lat": 41.4544558, "lon": 12.9350898}, {"type": "node", "id": 2523224330, "lat": 41.4811866, "lon": 12.8683785}, {"type": "node", "id": 2523224356, "lat": 41.4812424, "lon": 12.8682346}, {"type": "node", "id": 2523224365, "lat": 41.481272, "lon": 12.8682806}, {"type": "node", "id": 2523227337, "lat": 41.4812818, "lon": 12.8681895}, {"type": "node", "id": 2523227399, "lat": 41.4810043, "lon": 12.8680951}, {"type": "node", "id": 2523227462, "lat": 41.4811542, "lon": 12.868106}, {"type": "node", "id": 2523227464, "lat": 41.4810865, "lon": 12.8680008}, {"type": "node", "id": 2523227470, "lat": 41.4811967, "lon": 12.8680573}, {"type": "node", "id": 2523231658, "lat": 41.4791887, "lon": 12.8699179}, {"type": "node", "id": 2523231659, "lat": 41.4793706, "lon": 12.86973}, {"type": "node", "id": 2523231671, "lat": 41.4792128, "lon": 12.8696181}, {"type": "node", "id": 2523231672, "lat": 41.4791704, "lon": 12.8699639}, {"type": "node", "id": 2523231694, "lat": 41.4794239, "lon": 12.8700846}, {"type": "node", "id": 2523231696, "lat": 41.4793469, "lon": 12.8697895}, {"type": "node", "id": 2523231725, "lat": 41.4794986, "lon": 12.869897}, {"type": "node", "id": 2523231731, "lat": 41.4790961, "lon": 12.8699113}, {"type": "node", "id": 2525350047, "lat": 41.4541815, "lon": 12.9109914}, {"type": "node", "id": 2525350048, "lat": 41.4542715, "lon": 12.9108447}, {"type": "node", "id": 2525350049, "lat": 41.4543824, "lon": 12.9109657}, {"type": "node", "id": 2525350050, "lat": 41.4542924, "lon": 12.9111124}, {"type": "node", "id": 2533439745, "lat": 41.4507637, "lon": 12.8049753, "tags": {"addr:city": "Latina", "addr:housenumber": "55", "addr:postcode": "04100", "addr:street": "Strada Macchia Grande", "amenity": "restaurant", "cuisine": "italian", "name": "Buongusto", "phone": "+39 0773 644066"}}, {"type": "node", "id": 2552654051, "lat": 41.467493, "lon": 12.9109927, "tags": {"amenity": "cafe", "name": "Bar Magnanini"}}, {"type": "node", "id": 2577326108, "lat": 41.3697546, "lon": 13.1235002, "tags": {"addr:housenumber": "2"}}, {"type": "node", "id": 2577326112, "lat": 41.3690032, "lon": 13.1236347}, {"type": "node", "id": 2577326115, "lat": 41.3690429, "lon": 13.1243591}, {"type": "node", "id": 2577326117, "lat": 41.3691222, "lon": 13.1240868}, {"type": "node", "id": 2577326121, "lat": 41.3691778, "lon": 13.1241714}, {"type": "node", "id": 2577326124, "lat": 41.3692036, "lon": 13.1239572}, {"type": "node", "id": 2577326125, "lat": 41.3692135, "lon": 13.1246024}, {"type": "node", "id": 2577326130, "lat": 41.3694179, "lon": 13.1231244}, {"type": "node", "id": 2577326134, "lat": 41.3694992, "lon": 13.1232355}, {"type": "node", "id": 2577326138, "lat": 41.3695406, "lon": 13.1231821}, {"type": "node", "id": 2577326140, "lat": 41.3695583, "lon": 13.1241402}, {"type": "node", "id": 2577326146, "lat": 41.3698881, "lon": 13.1236981}, {"type": "node", "id": 2577373358, "lat": 41.379342, "lon": 12.9636827}, {"type": "node", "id": 2577373360, "lat": 41.3793946, "lon": 12.9637595}, {"type": "node", "id": 2577373362, "lat": 41.3794422, "lon": 12.9635608}, {"type": "node", "id": 2577373365, "lat": 41.3794947, "lon": 12.9636375}, {"type": "node", "id": 2606106924, "lat": 41.4581433, "lon": 12.8628389}, {"type": "node", "id": 2606106930, "lat": 41.4581634, "lon": 12.8630266}, {"type": "node", "id": 2606106933, "lat": 41.4582036, "lon": 12.8629247}, {"type": "node", "id": 2606106934, "lat": 41.4580629, "lon": 12.8628764}, {"type": "node", "id": 2606106936, "lat": 41.458079, "lon": 12.8630105}, {"type": "node", "id": 2618739805, "lat": 41.445304, "lon": 12.7534934}, {"type": "node", "id": 2618739807, "lat": 41.4450245, "lon": 12.7534076}, {"type": "node", "id": 2618739815, "lat": 41.4452155, "lon": 12.7535658}, {"type": "node", "id": 2618739818, "lat": 41.4451572, "lon": 12.7532306}, {"type": "node", "id": 2618739823, "lat": 41.4452484, "lon": 12.7538514}, {"type": "node", "id": 2618739859, "lat": 41.4452336, "lon": 12.7533218}, {"type": "node", "id": 2618739868, "lat": 41.4453181, "lon": 12.7537885}, {"type": "node", "id": 2621441832, "lat": 41.4605059, "lon": 12.9065332, "tags": {"amenity": "cafe", "name": "Bar Brio", "phone": "+39 0773 479756", "ref:vatin": "IT01735960591"}}, {"type": "node", "id": 2621442037, "lat": 41.4613141, "lon": 12.9113008, "tags": {"amenity": "cafe", "cuisine": "coffee_shop", "name": "BluBlu Bar di Pacella Luciano", "opening_hours": "Mo-Fr 05:45-18:00 Sa 05:45-13:00", "outdoor_seating": "yes", "phone": "0773472678"}}, {"type": "node", "id": 2621527783, "lat": 41.4589813, "lon": 12.9064945, "tags": {"amenity": "cafe", "name": "Coco Bar", "not:brand:wikidata": "Q65084369"}}, {"type": "node", "id": 2621581489, "lat": 41.4592419, "lon": 12.903174, "tags": {"amenity": "cafe", "name": "Il Baretto"}}, {"type": "node", "id": 2622538209, "lat": 41.3853638, "lon": 13.1024131, "tags": {"amenity": "cafe"}}, {"type": "node", "id": 2637669117, "lat": 41.4649837, "lon": 12.8883478, "tags": {"amenity": "restaurant", "cuisine": "pizza;bar;tavola_calda", "name": "Non Solo Caff\u00e8", "phone": "+39 3429441435", "website": "http://nonsolocaffe.wix.com/nonsolocaffe"}}, {"type": "node", "id": 2719188219, "lat": 41.3857477, "lon": 13.1019434, "tags": {"amenity": "cafe", "email": "ricky7_@hotmail.it", "name": "Snack Bar Antica Posta", "ref:vatin": "IT02109350591"}}, {"type": "node", "id": 2719516065, "lat": 41.3189627, "lon": 13.2264475}, {"type": "node", "id": 2719516066, "lat": 41.3189804, "lon": 13.2262613}, {"type": "node", "id": 2719516067, "lat": 41.3189832, "lon": 13.2264463}, {"type": "node", "id": 2719516069, "lat": 41.3191272, "lon": 13.2254831}, {"type": "node", "id": 2719516070, "lat": 41.3191707, "lon": 13.226435}, {"type": "node", "id": 2719516071, "lat": 41.3194847, "lon": 13.2255736}, {"type": "node", "id": 2719516072, "lat": 41.3197442, "lon": 13.2257238}, {"type": "node", "id": 2719516073, "lat": 41.3197755, "lon": 13.2261436}, {"type": "node", "id": 2769744678, "lat": 41.4597914, "lon": 12.9226596, "tags": {"amenity": "cafe", "name": "Caff\u00e8 Piccarello"}}, {"type": "node", "id": 2817965093, "lat": 41.4574948, "lon": 12.8889792, "tags": {"amenity": "cafe", "name": "Le Caf\u00e8 2000"}}, {"type": "node", "id": 2904696401, "lat": 41.5222743, "lon": 13.1811991, "tags": {"addr:housenumber": "28a", "addr:street": "Via Circonvallazione", "amenity": "cafe", "name": "Da nonna Orgilla"}}, {"type": "node", "id": 2911708215, "lat": 41.2807457, "lon": 13.1899546, "tags": {"addr:city": "Terracina", "addr:postcode": "04019", "amenity": "restaurant", "name": "Piazzetta Felice"}}, {"type": "node", "id": 2937387714, "lat": 41.451037, "lon": 12.9446259, "tags": {"amenity": "restaurant", "name": "Ristorante Sale & Pepe"}}, {"type": "node", "id": 2992248766, "lat": 41.4648436, "lon": 12.8859436, "tags": {"addr:city": "Latina", "addr:housenumber": "19", "addr:postcode": "04100", "addr:street": "Via Bruxelles", "amenity": "cafe", "name": "Bar Colosseo"}}, {"type": "node", "id": 3035848424, "lat": 41.2882461, "lon": 13.2553187, "tags": {"amenity": "restaurant", "cuisine": "pizza", "name": "Ciro", "oven": "wood_fired"}}, {"type": "node", "id": 3080197805, "lat": 41.2845812, "lon": 13.2235134, "tags": {"addr:city": "Terracina", "amenity": "cafe", "internet_access": "wlan", "name": "La Conchiglia", "smoking": "outside"}}, {"type": "node", "id": 3080200950, "lat": 41.2845995, "lon": 13.2252564, "tags": {"addr:city": "Terracina", "amenity": "restaurant", "cuisine": "pizza", "internet_access": "wlan", "name": "Bahia", "smoking": "outside"}}, {"type": "node", "id": 3080219524, "lat": 41.2846879, "lon": 13.218953, "tags": {"addr:city": "Terracina", "addr:housenumber": "226", "addr:postcode": "04019", "addr:street": "Viale Circe", "amenity": "cafe", "cuisine": "ice_cream", "internet_access": "wlan", "name": "Bar Gelateria Malu", "phone": "+39 0773 763414", "smoking": "outside"}}, {"type": "node", "id": 3111002556, "lat": 41.2851998, "lon": 13.2328779}, {"type": "node", "id": 3111002557, "lat": 41.2851859, "lon": 13.2330597}, {"type": "node", "id": 3111002558, "lat": 41.2848595, "lon": 13.2330659}, {"type": "node", "id": 3111002559, "lat": 41.2848641, "lon": 13.2328687}, {"type": "node", "id": 3219890866, "lat": 41.2888125, "lon": 13.2524903, "tags": {"amenity": "cafe", "name": "Caff\u00e8 Centrale", "start_date": "1898"}}, {"type": "node", "id": 3448454925, "lat": 41.4702339, "lon": 12.873291}, {"type": "node", "id": 3448454926, "lat": 41.4703734, "lon": 12.8732885}, {"type": "node", "id": 3448454927, "lat": 41.4700057, "lon": 12.8732837}, {"type": "node", "id": 3448454928, "lat": 41.4701698, "lon": 12.8731505}, {"type": "node", "id": 3448454930, "lat": 41.4703366, "lon": 12.8732076}, {"type": "node", "id": 3448454931, "lat": 41.4700441, "lon": 12.8733679}, {"type": "node", "id": 3448454933, "lat": 41.469948, "lon": 12.8734458}, {"type": "node", "id": 3448454934, "lat": 41.4700106, "lon": 12.8735831}, {"type": "node", "id": 3650477770, "lat": 41.4692998, "lon": 12.6835257, "tags": {"amenity": "restaurant"}}, {"type": "node", "id": 3892090223, "lat": 41.4718913, "lon": 12.8878328}, {"type": "node", "id": 3892090226, "lat": 41.4719385, "lon": 12.8877265}, {"type": "node", "id": 3899966628, "lat": 41.4733966, "lon": 12.8885088, "tags": {"addr:city": "Latina", "addr:housenumber": "12/14", "addr:postcode": "04100", "addr:street": "Via Saturnino Piattella", "amenity": "cafe", "bar": "yes", "brewery": "yes", "check_date": "2022-12-14", "contact:facebook": "https://www.facebook.com/100063765424396", "cuisine": "coffee_shop;pastry;ciambelle;cornetti;snacks;wine;beer;cocktail", "email": "antonellob50@gmail.com", "name": "Bar Tony", "opening_hours": "Mo-Su 05:45-20:45", "outdoor_seating": "yes", "payment:mastercard": "yes", "payment:visa": "yes", "phone": "+39 0773 175 2616; +39 0773 696990", "reservation": "yes", "wheelchair": "yes"}}, {"type": "node", "id": 3907267784, "lat": 41.4620923, "lon": 12.8985781, "tags": {"addr:city": "Latina", "addr:housenumber": "82", "addr:postcode": "04100", "addr:street": "Via Aspromonte", "air_conditioning": "yes", "amenity": "restaurant", "bar": "yes", "brewery": "yes", "check_date": "2022-12-16", "contact:facebook": "https://www.facebook.com/CittadellaFeniceLatina", "contact:instagram": "https://www.instagram.com/cittadellafenice", "contact:phone": "+39 0773 486158", "contact:tripadvisor": "https://www.tripadvisor.com/Restaurant_Review-g194787-d6211237-Reviews-Citta_Della_Fenice-Latina_Province_of_Latina_Lazio.html", "contact:whatsapp": "+39 328 155 6963", "cuisine": "chinese;japanese", "delivery": "yes", "delivery:partner": "glovo", "dog": "no", "name": "Citt\u00e0 della Fenice", "note": "marted\u00ec chiuso a pranzo", "opening_hours": "11:30-15:00,18:00-23:30", "outdoor_seating": "yes", "payment:american_express": "yes", "payment:bancomat": "yes", "payment:cash": "yes", "payment:coins": "yes", "payment:contactless": "yes", "payment:credit_cards": "yes", "payment:debit_cards": "yes", "payment:maestro": "yes", "payment:mastercard": "yes", "payment:nfc": "yes", "payment:v_pay": "yes", "payment:visa": "yes", "payment:visa_electron": "yes", "reservation": "yes", "smoking": "no", "source": "survey", "stars": "4", "takeaway": "yes", "toilets:wheelchair": "yes", "wheelchair": "yes"}}, {"type": "node", "id": 3941583201, "lat": 41.5339259, "lon": 12.9487987, "tags": {"addr:city": "Latina Scalo", "addr:housenumber": "1", "addr:postcode": "04100", "addr:street": "Via dell'Olmo", "amenity": "cafe", "cuisine": "italian", "name": "Bar Ristorante Pizzeria Sisters", "outdoor_seating": "yes", "toilets": "yes", "wheelchair": "yes"}}, {"type": "node", "id": 4251166389, "lat": 41.5834594, "lon": 12.6628144, "tags": {"addr:city": "Aprilia", "addr:postcode": "04011", "addr:street": "Via Marsica", "amenity": "cafe", "name": "Bar Valerio"}}, {"type": "node", "id": 4253098852, "lat": 41.4137619, "lon": 12.9127803, "tags": {"addr:housenumber": "53", "addr:postcode": "04100", "addr:street": "Strada Isonzo", "amenity": "restaurant", "internet_access": "wlan", "name": "Azienda Agricola Ganci", "opening_hours": "Mo-Su 09:30-13:00, 16:30-19:30"}}, {"type": "node", "id": 4253413924, "lat": 41.4682739, "lon": 12.8980486, "tags": {"addr:housenumber": "10", "addr:postcode": "04100", "addr:street": "Via Curtatone", "amenity": "restaurant", "cuisine": "pizza;fish_and_chips;italian_pizza;friture", "name": "Lo Zodiaco"}}, {"type": "node", "id": 4324758292, "lat": 41.2867687, "lon": 13.2550756, "tags": {"addr:housenumber": "9", "addr:street": "Via del Quartiere", "amenity": "restaurant", "cuisine": "italian", "name": "Hostaria Del Vicoletto", "website": "http://www.hostariadelvicoletto.it"}}, {"type": "node", "id": 4333646707, "lat": 41.2892293, "lon": 13.2513132, "tags": {"addr:housenumber": "72", "addr:postcode": "04019", "addr:street": "Via Roma", "amenity": "cafe", "cuisine": "ice_cream", "name": "Bar Roma", "operator": "Pasquale A. Prisco", "phone": "+39 0773 700143", "ref:vatin": "IT01026000594"}}, {"type": "node", "id": 4338230565, "lat": 41.2875921, "lon": 13.2491198, "tags": {"addr:housenumber": "74", "amenity": "restaurant", "cuisine": "pizza", "name": "La Focaccia", "phone": "+39 0773 723249", "website": "https://www.ristorantelafocaccia.com/"}}, {"type": "node", "id": 4338230566, "lat": 41.2928165, "lon": 13.248117, "tags": {"amenity": "restaurant", "name": "Muracce", "phone": "+39 0773 705153;+39 320 2587197", "website": "http://hosterialemuraccia.weebly.com"}}, {"type": "node", "id": 4348323785, "lat": 41.2319355, "lon": 13.0893809, "tags": {"addr:city": "San Felice Circeo", "addr:postcode": "04017", "addr:street": "Piazzale San Francesco d'Assisi", "amenity": "cafe", "name": "La Terrazza", "operator": "Francesca Cosimo", "ref:vatin": "IT02795000591"}}, {"type": "node", "id": 4348326262, "lat": 41.2928451, "lon": 13.2470836, "tags": {"addr:city": "Terracina", "addr:housenumber": "50", "addr:street": "Corso Anita Garibaldi", "amenity": "restaurant", "name": "Ai Tritoni", "phone": "+39 0773 702613", "website": "http://www.aitritoni.com"}}, {"type": "node", "id": 4348362493, "lat": 41.283865, "lon": 13.2494227, "tags": {"amenity": "restaurant", "cuisine": "fish", "name": "Il Gusto del Mare", "restaurant:type:it": "grill;ristorante;drink"}}, {"type": "node", "id": 4609716406, "lat": 41.4520032, "lon": 12.9068374, "tags": {"amenity": "cafe", "name": "Bar AS"}}, {"type": "node", "id": 4685458065, "lat": 41.4775734, "lon": 12.8603204}, {"type": "node", "id": 4685458067, "lat": 41.4778388, "lon": 12.8600391}, {"type": "node", "id": 4685458069, "lat": 41.4779591, "lon": 12.860259}, {"type": "node", "id": 4685458070, "lat": 41.4772781, "lon": 12.8600257}, {"type": "node", "id": 4685458071, "lat": 41.4774288, "lon": 12.8600096}, {"type": "node", "id": 4685458072, "lat": 41.4779318, "lon": 12.8602367}, {"type": "node", "id": 4685458074, "lat": 41.4778789, "lon": 12.860189}, {"type": "node", "id": 4685458076, "lat": 41.4778969, "lon": 12.8601568}, {"type": "node", "id": 4685458078, "lat": 41.4778147, "lon": 12.8600954}, {"type": "node", "id": 4685458080, "lat": 41.4778347, "lon": 12.8604977}, {"type": "node", "id": 4685458082, "lat": 41.4774007, "lon": 12.8600686}, {"type": "node", "id": 4685458084, "lat": 41.4773685, "lon": 12.8600873}, {"type": "node", "id": 4685458086, "lat": 41.4773303, "lon": 12.8599986}, {"type": "node", "id": 4685458087, "lat": 41.4777101, "lon": 12.8599396}, {"type": "node", "id": 4685458088, "lat": 41.4773384, "lon": 12.8601678}, {"type": "node", "id": 4685458589, "lat": 41.477674, "lon": 12.8600015}, {"type": "node", "id": 4685458591, "lat": 41.4774472, "lon": 12.859823}, {"type": "node", "id": 4685458592, "lat": 41.4775674, "lon": 12.8598323}, {"type": "node", "id": 4685458595, "lat": 41.477692, "lon": 12.8600576}, {"type": "node", "id": 4685458596, "lat": 41.47767, "lon": 12.8603556}, {"type": "node", "id": 4685458597, "lat": 41.4775594, "lon": 12.8599103}, {"type": "node", "id": 4685458598, "lat": 41.4773745, "lon": 12.860138}, {"type": "node", "id": 4685458599, "lat": 41.4776563, "lon": 12.8603867}, {"type": "node", "id": 4705223250, "lat": 41.4718665, "lon": 12.8876709}, {"type": "node", "id": 4705223251, "lat": 41.4718205, "lon": 12.8877768}, {"type": "node", "id": 4728028534, "lat": 41.4661423, "lon": 12.9072927, "tags": {"addr:city": "Latina", "addr:housenumber": "19", "addr:postcode": "04100", "addr:street": "Piazza della Libert\u00e0", "amenity": "restaurant", "cuisine": "regional", "name": "Ristorante Impero"}}, {"type": "node", "id": 4741278532, "lat": 41.4170726, "lon": 12.8374156}, {"type": "node", "id": 4741278533, "lat": 41.4170032, "lon": 12.8373189}, {"type": "node", "id": 4741278537, "lat": 41.4169947, "lon": 12.8374014}, {"type": "node", "id": 4741278549, "lat": 41.4170811, "lon": 12.8373331}, {"type": "node", "id": 4807585508, "lat": 41.4551342, "lon": 12.8523425}, {"type": "node", "id": 4807585509, "lat": 41.4552315, "lon": 12.8524376}, {"type": "node", "id": 4807585510, "lat": 41.4552326, "lon": 12.8521573}, {"type": "node", "id": 4807585511, "lat": 41.4553345, "lon": 12.852243}, {"type": "node", "id": 4918982191, "lat": 41.2515027, "lon": 13.0369914}, {"type": "node", "id": 4934373716, "lat": 41.3525688, "lon": 13.1577808}, {"type": "node", "id": 4934373717, "lat": 41.352674, "lon": 13.1577351}, {"type": "node", "id": 4934373718, "lat": 41.3526648, "lon": 13.1576972}, {"type": "node", "id": 4934373719, "lat": 41.3527961, "lon": 13.1576401}, {"type": "node", "id": 4934373720, "lat": 41.3528491, "lon": 13.1578569}, {"type": "node", "id": 4934373821, "lat": 41.3527759, "lon": 13.1578886}, {"type": "node", "id": 4934373822, "lat": 41.3528038, "lon": 13.1580026}, {"type": "node", "id": 4934373823, "lat": 41.3526691, "lon": 13.1580611}, {"type": "node", "id": 4934373824, "lat": 41.3526192, "lon": 13.1578572}, {"type": "node", "id": 4934373825, "lat": 41.3525905, "lon": 13.1578697}, {"type": "node", "id": 4934373831, "lat": 41.3375585, "lon": 13.1750326}, {"type": "node", "id": 4934373832, "lat": 41.3375381, "lon": 13.174813}, {"type": "node", "id": 4934373833, "lat": 41.3372149, "lon": 13.1748714}, {"type": "node", "id": 4934373834, "lat": 41.3372419, "lon": 13.1750883}, {"type": "node", "id": 4934373835, "lat": 41.3553176, "lon": 13.1722728}, {"type": "node", "id": 4934373836, "lat": 41.3552957, "lon": 13.1721242}, {"type": "node", "id": 4934373837, "lat": 41.3549915, "lon": 13.172232}, {"type": "node", "id": 4934373838, "lat": 41.3550112, "lon": 13.1723661}, {"type": "node", "id": 4954842348, "lat": 41.4662236, "lon": 12.9077295}, {"type": "node", "id": 4954842350, "lat": 41.466392, "lon": 12.9075231}, {"type": "node", "id": 4954842355, "lat": 41.4662854, "lon": 12.9077759}, {"type": "node", "id": 4954842357, "lat": 41.4663302, "lon": 12.9074767}, {"type": "node", "id": 4958419524, "lat": 41.5917425, "lon": 12.6449334, "tags": {"addr:city": "Aprilia", "addr:housenumber": "112", "addr:postcode": "04011", "addr:street": "Via Giacomo Matteotti", "amenity": "cafe", "name": "Dolce Notte Caf\u00e8", "name:it": "Dolce Notte Caf\u00e8"}}, {"type": "node", "id": 4999330631, "lat": 41.4564777, "lon": 12.8947902, "tags": {"amenity": "cafe", "name": "Bar Residence"}}, {"type": "node", "id": 5012156887, "lat": 41.5108714, "lon": 12.9163324, "tags": {"amenity": "cafe", "name": "Bar Lisa"}}, {"type": "node", "id": 5043752625, "lat": 41.3014596, "lon": 13.0247903, "tags": {"amenity": "restaurant", "name": "Il Dollaro", "name:it": "Il Dollaro"}}, {"type": "node", "id": 5053383421, "lat": 41.2846448, "lon": 13.2323723, "tags": {"addr:postcode": "04019", "addr:street": "Viale Circe", "amenity": "restaurant", "cuisine": "italian_pizza;italian", "name": "Clipper", "phone": "+39 0773 763719", "website": "https://m.facebook.com/pages/Lido-Clipper-Terracina/152599218144693"}}, {"type": "node", "id": 5057989221, "lat": 41.2862332, "lon": 13.2352019, "tags": {"addr:postcode": "04019", "addr:street": "Viale Europa", "amenity": "cafe", "name": "Dolce Notte Caf\u00e8", "name:it": "Dolce Notte Caf\u00e8", "opening_hours": "Mo-Su 20:00-02:00"}}, {"type": "node", "id": 5058366421, "lat": 41.2885773, "lon": 13.239924, "tags": {"addr:housenumber": "92", "addr:street": "Via Benito di Florio", "amenity": "restaurant", "name": "Rocco e Rollo", "name:it": "Rocco e Rollo", "opening_hours": "Mo-Su 17:00-01:00"}}, {"type": "node", "id": 5058366422, "lat": 41.2883268, "lon": 13.2405622, "tags": {"addr:street": "Via Sicilia", "amenity": "cafe", "name": "Meeting Point Bar", "name:it": "Meeting Point Bar"}}, {"type": "node", "id": 5059086722, "lat": 41.283471, "lon": 13.2532918, "tags": {"addr:street": "Via del Molo", "amenity": "restaurant", "cuisine": "italian;coffee_shop", "name": "La Scogliera"}}, {"type": "node", "id": 5060032721, "lat": 41.2856769, "lon": 13.2530761, "tags": {"addr:housenumber": "32", "addr:street": "Via Cristoforo Colombo", "amenity": "restaurant", "brand": "Cooperativa La Sirena", "cuisine": "seafood", "name": "Il mare in tavola", "name:it": "Il mare in tavola", "operator": "Il Mare in Tavola Srls unipersonale", "ref:vatin": "IT02855300592"}}, {"type": "node", "id": 5063747070, "lat": 41.5176852, "lon": 12.7854893, "tags": {"amenity": "cafe", "name": "Bar Baccini"}}, {"type": "node", "id": 5064141922, "lat": 41.5104821, "lon": 12.7756604, "tags": {"amenity": "cafe", "name": "Bar Tabacchi"}}, {"type": "node", "id": 5066578304, "lat": 41.4572209, "lon": 12.6638338, "tags": {"addr:housenumber": "8", "addr:street": "Viale Giacomo Matteotti", "amenity": "restaurant", "name": "in Mezzo Al Mare", "opening_hours": "Mo-Su 12:00-15:00, 19:30-22:30", "phone": "+39 06 980 6838", "website": "inmezzoalmareristorante.it"}}, {"type": "node", "id": 5079396752, "lat": 41.2840942, "lon": 13.2524367, "tags": {"addr:city": "Terracina", "addr:postcode": "04019", "addr:street": "Via Cristoforo Colombo", "amenity": "cafe", "name": "Bar La Pineta", "nohousenumber": "yes", "operator": "Paola Di Fiore", "outdoor_seating": "yes", "phone": "+39 0773 726734", "ref:vatin": "IT02122030592", "sells:ice_cream": "yes"}}, {"type": "node", "id": 5105065721, "lat": 41.2923609, "lon": 13.2479736, "tags": {"addr:housenumber": "89", "addr:street": "Corso Anita Garibaldi", "amenity": "restaurant", "cuisine": "italian", "name": "Santi Quattro", "start_date": "2024"}}, {"type": "node", "id": 5128093024, "lat": 41.4676635, "lon": 12.9060347}, {"type": "node", "id": 5128093025, "lat": 41.4676195, "lon": 12.9060429}, {"type": "node", "id": 5128093026, "lat": 41.4676702, "lon": 12.9061099}, {"type": "node", "id": 5128093028, "lat": 41.4676261, "lon": 12.9061176}, {"type": "node", "id": 5147651170, "lat": 41.4450222, "lon": 12.8869563, "tags": {"amenity": "cafe", "name": "Blue Angels Lounge Bar"}}, {"type": "node", "id": 5147651198, "lat": 41.4451327, "lon": 12.8870367, "tags": {"amenity": "restaurant", "name": "Pizzeria Braceria By Night da Elena"}}, {"type": "node", "id": 5149809802, "lat": 41.4437327, "lon": 12.8865117}, {"type": "node", "id": 5149809803, "lat": 41.4436992, "lon": 12.8866053}, {"type": "node", "id": 5149809804, "lat": 41.4437129, "lon": 12.8866981}, {"type": "node", "id": 5149809805, "lat": 41.4437374, "lon": 12.8866297}, {"type": "node", "id": 5149809806, "lat": 41.4436254, "lon": 12.8866424}, {"type": "node", "id": 5149809807, "lat": 41.4435731, "lon": 12.8864802}, {"type": "node", "id": 5149809808, "lat": 41.4435245, "lon": 12.8866162}, {"type": "node", "id": 5149809809, "lat": 41.4436181, "lon": 12.8865088}, {"type": "node", "id": 5149809811, "lat": 41.4436143, "lon": 12.8866734}, {"type": "node", "id": 5149809812, "lat": 41.4436386, "lon": 12.8864517}, {"type": "node", "id": 5158380998, "lat": 41.4507995, "lon": 12.7986591, "tags": {"addr:city": "Latina", "addr:housenumber": "512", "addr:postcode": "04100", "addr:street": "Strada del Passo", "amenity": "restaurant", "capacity": "150", "cuisine": "pizza;regional;cinghiale", "delivery": "no", "name": "Agriturismo \"Il Sole\"", "opening_hours": "Sa,Su 19:00-23:30", "outdoor_seating": "yes", "smoking": "outside", "takeaway": "yes", "website": "https://www.agriturismoilsole.it/"}}, {"type": "node", "id": 5183409951, "lat": 41.4693613, "lon": 12.8954826, "tags": {"amenity": "cafe"}}, {"type": "node", "id": 5184006587, "lat": 41.4636495, "lon": 12.9122456, "tags": {"amenity": "cafe", "name": "Bar Farina"}}, {"type": "node", "id": 5218273851, "lat": 41.4678946, "lon": 12.9007342}, {"type": "node", "id": 5218273852, "lat": 41.4678527, "lon": 12.9008388}, {"type": "node", "id": 5218273853, "lat": 41.4676459, "lon": 12.9005827}, {"type": "node", "id": 5218273855, "lat": 41.4677146, "lon": 12.9007503}, {"type": "node", "id": 5218273861, "lat": 41.4676892, "lon": 12.9008193}, {"type": "node", "id": 5218273867, "lat": 41.4675878, "lon": 12.9007528}, {"type": "node", "id": 5250201389, "lat": 41.3842953, "lon": 12.9158207}, {"type": "node", "id": 5250201390, "lat": 41.3845731, "lon": 12.9157992}, {"type": "node", "id": 5250201397, "lat": 41.3844448, "lon": 12.9160541}, {"type": "node", "id": 5250201399, "lat": 41.3842959, "lon": 12.9159387}, {"type": "node", "id": 5250201404, "lat": 41.3843879, "lon": 12.915649}, {"type": "node", "id": 5302200301, "lat": 41.4518954, "lon": 12.8721851, "tags": {"amenity": "cafe", "name": "Orchidea Snack Bar"}}, {"type": "node", "id": 5302207654, "lat": 41.4518371, "lon": 12.8727376, "tags": {"amenity": "cafe", "name": "Caff\u00e8 Centrale"}}, {"type": "node", "id": 5302208856, "lat": 41.4516702, "lon": 12.8728233, "tags": {"amenity": "restaurant", "cuisine": "pizza", "name": "\u00c8 qui la pizza"}}, {"type": "node", "id": 5302213359, "lat": 41.4517948, "lon": 12.8721206, "tags": {"amenity": "restaurant", "cuisine": "pizza", "name": "Pizzeria By Night Elena"}}, {"type": "node", "id": 5305310641, "lat": 41.4944996, "lon": 13.0692566, "tags": {"amenity": "cafe"}}, {"type": "node", "id": 5311979924, "lat": 41.584913, "lon": 12.9717072, "tags": {"addr:postcode": "04010", "addr:street": "Via del Corso", "amenity": "restaurant", "cuisine": "italian_pizza;chicken;hotdog;italian;sandwich;sausage;coffee_shop;barbecue;pizza;burger;steak_house;pasta;fish;breakfast", "internet_access": "wlan", "name": "Tomatto"}}, {"type": "node", "id": 5349132866, "lat": 41.2833583, "lon": 13.1866317, "tags": {"addr:city": "Terracina", "addr:postcode": "04019", "addr:street": "Strada Provinciale Badino Vecchio", "amenity": "restaurant", "contact:phone": "+39 349 399 6022", "name": "Le due sorelle"}}, {"type": "node", "id": 5714214867, "lat": 41.4739394, "lon": 13.1811175, "tags": {"addr:housenumber": "88", "addr:street": "Via consolare", "amenity": "restaurant", "name": "La prosciutteria"}}, {"type": "node", "id": 5770550809, "lat": 41.2845739, "lon": 13.2469707, "tags": {"addr:city": "Terracina", "addr:housenumber": "20", "addr:postcode": "04019", "addr:street": "Piazzale Lido", "amenity": "cafe", "name": "Bar Milano", "opening_hours": "Mo-Su 07:30-02:00"}}, {"type": "node", "id": 5770640603, "lat": 41.2844388, "lon": 13.2466957, "tags": {"addr:city": "Terracina", "addr:housenumber": "32", "addr:postcode": "04019", "addr:street": "Viale Circe", "amenity": "restaurant", "cuisine": "american", "name": "The Porter", "opening_hours": "Tu-Su 18:00-02:30", "outdoor_seating": "yes", "phone": "+39 0773 284448"}}, {"type": "node", "id": 5807735551, "lat": 41.4369091, "lon": 12.9212545, "tags": {"amenity": "cafe", "cuisine": "regional", "name": "0773 Caff\u00e8 e Cucina", "shop": "tobacco"}}, {"type": "node", "id": 5810814255, "lat": 41.2871872, "lon": 13.2282738, "tags": {"addr:housenumber": "240", "addr:street": "Via delle Arene", "amenity": "restaurant", "cuisine": "pizza", "internet_access": "wlan", "name": "Ristorante La Perla", "operator": "La Tartana Srl.", "oven": "wood_fired", "phone": "+39 0773 730691", "ref:vatin": "IT02420730596", "restaurant:type:it": "ristorante;pizzeria"}}, {"type": "node", "id": 5821233585, "lat": 41.4568578, "lon": 12.6617348, "tags": {"amenity": "restaurant", "cuisine": "brazilian", "name": "Tikotiko Ristorante Brasiliano", "opening_hours": "Mo-Th 19:00-00:00; Fr-Su 13:00-15:00, 19:00-00:00", "phone": "+39 333 486 0914"}}, {"type": "node", "id": 5821233587, "lat": 41.4567362, "lon": 12.661794, "tags": {"amenity": "restaurant", "cuisine": "fish", "name": "A Tutto Pesce", "opening_hours": "Mo-Su 12:00-16:00, 19:30-23:30", "phone": "+39 06 988 0856", "website": "https://www.atuttopesce.it/"}}, {"type": "node", "id": 5821233588, "lat": 41.4565994, "lon": 12.6617821, "tags": {"amenity": "cafe", "name": "L'oasi del freddo", "opening_hours": "Mo-Su 08:00-23:00", "phone": "+39 06 988 0656"}}, {"type": "node", "id": 5821233589, "lat": 41.4567249, "lon": 12.6622259, "tags": {"amenity": "restaurant", "cuisine": "piadina", "name": "Piadineria Romagnola", "opening_hours": "Oct-Apr: Mo-Su 12:00-15:30,18:30-23:30; May-Sep: Mo-Su 12:00-15:30,18:30-00:30"}}, {"type": "node", "id": 5826487612, "lat": 41.457572, "lon": 12.6606467, "tags": {"addr:housenumber": "2", "addr:street": "Piazza Cesare Battisti", "amenity": "cafe", "name": "Caff\u00e8 Benito", "opening_hours": "Mo-Su 06:00-23:00", "phone": "+39 06 980 4770"}}, {"type": "node", "id": 5826487613, "lat": 41.4574996, "lon": 12.6606037, "tags": {"addr:housenumber": "1", "addr:street": "Piazza Cesare Battisti", "amenity": "restaurant", "name": "Ristorante Il Veliero", "opening_hours": "Mo-Su 13:00-16:00, 19:00-00:00", "phone": "+39 06 988 0354"}}, {"type": "node", "id": 5826487614, "lat": 41.4574393, "lon": 12.6605072, "tags": {"amenity": "restaurant", "name": "My Caf\u00e8"}}, {"type": "node", "id": 5826487615, "lat": 41.4573891, "lon": 12.6603436, "tags": {"addr:housenumber": "27", "addr:street": "Viale Giacomo Matteotti", "amenity": "restaurant", "name": "Ristorante Cacciatori", "opening_hours": "Mo-Tu 12:00-16:00, 19:00-00:00; Th-Su 12:00-16:00, 19:00-00:00", "phone": "+39 06 988 0330", "website": "ristorantecacciatori.com"}}, {"type": "node", "id": 5826487868, "lat": 41.4571793, "lon": 12.6604779}, {"type": "node", "id": 5826487869, "lat": 41.4571855, "lon": 12.6604872}, {"type": "node", "id": 5826487870, "lat": 41.4571413, "lon": 12.6605395}, {"type": "node", "id": 5826487871, "lat": 41.4571346, "lon": 12.660529}, {"type": "node", "id": 5826487872, "lat": 41.4571892, "lon": 12.6604986}, {"type": "node", "id": 5826487873, "lat": 41.4571901, "lon": 12.6605111}, {"type": "node", "id": 5826487874, "lat": 41.4571881, "lon": 12.6605232}, {"type": "node", "id": 5826487875, "lat": 41.4571834, "lon": 12.660534}, {"type": "node", "id": 5826487876, "lat": 41.4571764, "lon": 12.6605423}, {"type": "node", "id": 5826487877, "lat": 41.4571678, "lon": 12.6605473}, {"type": "node", "id": 5826487878, "lat": 41.4571585, "lon": 12.6605485}, {"type": "node", "id": 5826487879, "lat": 41.4571494, "lon": 12.6605458}, {"type": "node", "id": 5826487880, "lat": 41.4571309, "lon": 12.660516}, {"type": "node", "id": 5826487881, "lat": 41.4571308, "lon": 12.6605022}, {"type": "node", "id": 5826487882, "lat": 41.4571343, "lon": 12.6604891}, {"type": "node", "id": 5826487883, "lat": 41.4571408, "lon": 12.6604784}, {"type": "node", "id": 5826487884, "lat": 41.4571498, "lon": 12.6604714}, {"type": "node", "id": 5826487885, "lat": 41.45716, "lon": 12.6604688}, {"type": "node", "id": 5826487886, "lat": 41.4571702, "lon": 12.6604711}, {"type": "node", "id": 5826487889, "lat": 41.4570875, "lon": 12.6595966, "tags": {"addr:housenumber": "2", "addr:street": "Viale Giacomo Matteotti", "amenity": "cafe", "name": "Chiosco Bar Positano", "opening_hours": "Tu-Su 07:00-21:00", "phone": "+39 327 340 3920"}}, {"type": "node", "id": 5826487891, "lat": 41.4570409, "lon": 12.6592101, "tags": {"addr:housenumber": "23/24", "addr:street": "Piazza Giuseppe Mazzini", "amenity": "cafe", "name": "Caff\u00e8 Volpi"}}, {"type": "node", "id": 5826487927, "lat": 41.4574916, "lon": 12.6594571, "tags": {"amenity": "cafe", "name": "Bar Family"}}, {"type": "node", "id": 5826487945, "lat": 41.4580967, "lon": 12.65961, "tags": {"addr:housenumber": "31", "addr:street": "Via Santa Maria", "amenity": "restaurant", "cuisine": "fish", "name": "Trattoria Da Francesco e Teresa", "opening_hours": "Mo-Su 12:00-00:00", "phone": "+39 328 537 2129"}}, {"type": "node", "id": 5829703543, "lat": 41.5766247, "lon": 12.7255636}, {"type": "node", "id": 5829703545, "lat": 41.5766773, "lon": 12.7258719}, {"type": "node", "id": 5829703546, "lat": 41.5767652, "lon": 12.7257587}, {"type": "node", "id": 5829703547, "lat": 41.5765367, "lon": 12.7256769}, {"type": "node", "id": 5829715238, "lat": 41.5772131, "lon": 12.7249912}, {"type": "node", "id": 5829715239, "lat": 41.5771372, "lon": 12.7250861}, {"type": "node", "id": 5829715240, "lat": 41.5774891, "lon": 12.7253858}, {"type": "node", "id": 5829715241, "lat": 41.5774132, "lon": 12.7254806}, {"type": "node", "id": 5831838004, "lat": 41.4565517, "lon": 12.6595691, "tags": {"addr:housenumber": "17", "addr:street": "Piazza Marcantonio Colonna", "amenity": "restaurant", "cuisine": "italian_pizza", "name": "Pizzeria La Marciaronda", "opening_hours": "Mo-Fr 17:00-22:00; Sa-Su 10:00-22:00", "phone": "+39 339 847 1454"}}, {"type": "node", "id": 5831838010, "lat": 41.4568109, "lon": 12.6596895, "tags": {"addr:housenumber": "13", "addr:street": "Piazza Marcantonio Colonna", "amenity": "restaurant", "name": "Al Centro", "phone": "+39 06 988 0946", "website": "catering.nettuno.rm.it"}}, {"type": "node", "id": 5831838013, "lat": 41.4568524, "lon": 12.6593746, "tags": {"amenity": "restaurant", "name": "Romolo Al Borgo", "phone": "+39 06 980 5037"}}, {"type": "node", "id": 5978651106, "lat": 41.4658347, "lon": 12.6491175}, {"type": "node", "id": 5978651109, "lat": 41.4658179, "lon": 12.6489863}, {"type": "node", "id": 5978651110, "lat": 41.4657717, "lon": 12.6489969}, {"type": "node", "id": 5978651111, "lat": 41.4657885, "lon": 12.6491281}, {"type": "node", "id": 6060354507, "lat": 41.4601952, "lon": 12.8987705, "tags": {"addr:city": "Latina", "addr:housenumber": "34", "addr:postcode": "04100", "addr:street": "Via Quarto", "air_conditioning": "yes", "amenity": "restaurant", "cuisine": "pizza;italian;cafe/diner;snackbar;brunch", "description": "Da Kosky's puoi trovare l'atmosfera di un ristorante, il calore di un cocktail bar, l'ambiente di un salotto di casa, gli amici di sempre. Puoi venire a bere, a mangiare, a prendere un caff\u00e8 o semplicemente a fare un giro. Qualsiasi sia il tuo budget...", "email": "info@koskys.it", "indoor_seating": "yes", "level": "0", "name": "KOSKY'S", "opening_hours": "Mo-Su 07:00-02:00", "outdoor_seating": "yes", "payment:cash": "yes", "payment:mastercard": "yes", "payment:visa": "yes", "phone": "+39 328 939 5738", "smoking": "no", "start_date": "2018-03-04", "takeaway": "yes", "website": "https://www.koskys.it/", "wheelchair": "yes"}}, {"type": "node", "id": 6100657189, "lat": 41.2883329, "lon": 13.2490263, "tags": {"amenity": "restaurant", "name": "Pizzaria Punto Giallo"}}, {"type": "node", "id": 6189661201, "lat": 41.2874969, "lon": 13.2522006, "tags": {"addr:city": "Terracina", "addr:housenumber": "30", "addr:postcode": "04019", "addr:street": "Lungolinea Pio VI", "amenity": "cafe", "cuisine": "pizza", "fixme": "check name", "name": "La Fiora", "operator": "Ginesio D\u2019Amico", "ref:vatin": "IT02985390596"}}, {"type": "node", "id": 6189664367, "lat": 41.2880768, "lon": 13.2548681, "tags": {"addr:city": "Terracina", "addr:housenumber": "148", "addr:postcode": "04019", "addr:street": "Via Roma", "amenity": "cafe", "name": "Bar Ferrari", "operator": "Bar Ferrari S.a.S. di L. Ferrari & C.", "phone": "+39 0773 701424", "ref:vatin": "IT02306120599"}}, {"type": "node", "id": 6326721113, "lat": 41.4577658, "lon": 12.6591559, "tags": {"addr:housenumber": "2", "addr:street": "Piazza dei Volsci", "amenity": "restaurant", "name": "L'Uvarara"}}, {"type": "node", "id": 6390325690, "lat": 41.5830685, "lon": 12.9523071, "tags": {"amenity": "cafe", "internet_access": "no", "name": "Bar Punto Ristoro", "outdoor_seating": "yes", "website": "https://prodottipontini.it"}}, {"type": "node", "id": 6566766814, "lat": 41.5809859, "lon": 12.6483032}, {"type": "node", "id": 6566766815, "lat": 41.5811656, "lon": 12.6481091}, {"type": "node", "id": 6566766816, "lat": 41.5813224, "lon": 12.6483894}, {"type": "node", "id": 6566766817, "lat": 41.58135, "lon": 12.6483648}, {"type": "node", "id": 6566766818, "lat": 41.5814606, "lon": 12.6485466}, {"type": "node", "id": 6566766819, "lat": 41.581509, "lon": 12.648599}, {"type": "node", "id": 6566766820, "lat": 41.5813039, "lon": 12.64883}, {"type": "node", "id": 6566766821, "lat": 41.5811587, "lon": 12.6485743}, {"type": "node", "id": 6566766822, "lat": 41.581191, "lon": 12.6485404}, {"type": "node", "id": 6566766823, "lat": 41.5811265, "lon": 12.6484326}, {"type": "node", "id": 6566766824, "lat": 41.5810827, "lon": 12.6484757}, {"type": "node", "id": 6566766887, "lat": 41.5813301, "lon": 12.6486343, "tags": {"addr:city": "Aprilia", "addr:housenumber": "km 46,500", "addr:postcode": "04011", "addr:street": "Via Pontina", "amenity": "restaurant", "name": "Il Focarile", "phone": "+39 06 928 0392"}}, {"type": "node", "id": 6566766888, "lat": 41.5817657, "lon": 12.6499486, "tags": {"addr:city": "Aprilia", "addr:housenumber": "km 45", "addr:postcode": "04011", "addr:street": "Via Pontina", "amenity": "restaurant", "branch": "Aprilia Pontina", "brand": "Old Wild West", "brand:wikidata": "Q25402475", "cuisine": "american", "microbrewery": "yes", "name": "Old Wild West", "phone": "+39 06 920 0462"}}, {"type": "node", "id": 6567868267, "lat": 41.5833543, "lon": 12.661875}, {"type": "node", "id": 6567868268, "lat": 41.5831899, "lon": 12.6617005}, {"type": "node", "id": 6567868270, "lat": 41.5829671, "lon": 12.6619504}, {"type": "node", "id": 6567868275, "lat": 41.5831636, "lon": 12.6617019}, {"type": "node", "id": 6567868276, "lat": 41.5830046, "lon": 12.6619681}, {"type": "node", "id": 6567868277, "lat": 41.5827968, "lon": 12.6617486}, {"type": "node", "id": 6567868278, "lat": 41.5829592, "lon": 12.6614754}, {"type": "node", "id": 6567868279, "lat": 41.5833169, "lon": 12.661938}, {"type": "node", "id": 6567868280, "lat": 41.5831847, "lon": 12.6621605}, {"type": "node", "id": 6567868284, "lat": 41.5831515, "lon": 12.6622165}, {"type": "node", "id": 6567868285, "lat": 41.5830588, "lon": 12.6623726}, {"type": "node", "id": 6567868289, "lat": 41.5828488, "lon": 12.6621497}, {"type": "node", "id": 6567868427, "lat": 41.5830127, "lon": 12.6619988}, {"type": "node", "id": 6732738436, "lat": 41.2936647, "lon": 13.2409323, "tags": {"amenity": "cafe", "name": "Bar Olmata New"}}, {"type": "node", "id": 6771489831, "lat": 41.4288397, "lon": 12.9461775}, {"type": "node", "id": 6771489833, "lat": 41.4285152, "lon": 12.9459118}, {"type": "node", "id": 6771489834, "lat": 41.4285356, "lon": 12.9460927}, {"type": "node", "id": 6771489835, "lat": 41.4287593, "lon": 12.9460191}, {"type": "node", "id": 6771489836, "lat": 41.4285816, "lon": 12.9460425}, {"type": "node", "id": 6771489839, "lat": 41.4287121, "lon": 12.9462927}, {"type": "node", "id": 6771489840, "lat": 41.4286682, "lon": 12.9459643}, {"type": "node", "id": 6771489841, "lat": 41.4285592, "lon": 12.9463817}, {"type": "node", "id": 6771489843, "lat": 41.4284662, "lon": 12.945956}, {"type": "node", "id": 6771489844, "lat": 41.428695, "lon": 12.9462591}, {"type": "node", "id": 6771489845, "lat": 41.4287159, "lon": 12.9460583}, {"type": "node", "id": 6771489847, "lat": 41.4284512, "lon": 12.946169}, {"type": "node", "id": 6785854347, "lat": 41.5137684, "lon": 13.1063567, "tags": {"addr:city": "Sezze", "addr:housenumber": "3", "addr:postcode": "04018", "addr:street": "Via Foresta I\u00b0 Tratto", "amenity": "restaurant", "cuisine": "pizza;regional;italian", "name": "La Vecchia Osteria", "opening_hours": "Tu-Sa 20:00-24:00, Su 12:00-22:00", "phone": "+39 366 311 9622"}}, {"type": "node", "id": 6832920781, "lat": 41.4575898, "lon": 12.9154511}, {"type": "node", "id": 6832933189, "lat": 41.4576681, "lon": 12.9153121}, {"type": "node", "id": 6832933190, "lat": 41.4574823, "lon": 12.9155335}, {"type": "node", "id": 6832933194, "lat": 41.4575433, "lon": 12.9151869}, {"type": "node", "id": 6832933197, "lat": 41.4574926, "lon": 12.9152768}, {"type": "node", "id": 6832933198, "lat": 41.457545, "lon": 12.9153294}, {"type": "node", "id": 6832933199, "lat": 41.4575508, "lon": 12.9154119}, {"type": "node", "id": 6832933209, "lat": 41.4574489, "lon": 12.9155}, {"type": "node", "id": 7027501348, "lat": 41.4321021, "lon": 13.1993303}, {"type": "node", "id": 7027501349, "lat": 41.4317849, "lon": 13.1992908}, {"type": "node", "id": 7027501350, "lat": 41.4318275, "lon": 13.1990344}, {"type": "node", "id": 7027501351, "lat": 41.4321459, "lon": 13.1991074}, {"type": "node", "id": 7075256543, "lat": 41.4158315, "lon": 12.8506562}, {"type": "node", "id": 7075256544, "lat": 41.4157519, "lon": 12.8510412}, {"type": "node", "id": 7075256545, "lat": 41.4155999, "lon": 12.8509853}, {"type": "node", "id": 7075256546, "lat": 41.4156795, "lon": 12.8506003}, {"type": "node", "id": 7075256714, "lat": 41.4143104, "lon": 12.8495512}, {"type": "node", "id": 7075256715, "lat": 41.4142616, "lon": 12.849765}, {"type": "node", "id": 7075256716, "lat": 41.414203, "lon": 12.8497412}, {"type": "node", "id": 7075256717, "lat": 41.4141951, "lon": 12.8497761}, {"type": "node", "id": 7075256718, "lat": 41.4141185, "lon": 12.8497451}, {"type": "node", "id": 7075256719, "lat": 41.4141752, "lon": 12.8494964}, {"type": "node", "id": 7362503349, "lat": 41.4126082, "lon": 13.0414352, "tags": {"addr:city": "Pontinia", "addr:housenumber": "1", "addr:postcode": "04014", "addr:street": "Via Trieste", "amenity": "restaurant", "cuisine": "pizza", "name": "La Capricciosa", "phone": "+393272632409"}}, {"type": "node", "id": 7606060072, "lat": 41.2469947, "lon": 13.03767}, {"type": "node", "id": 7606060073, "lat": 41.2469259, "lon": 13.0376951}, {"type": "node", "id": 7606060074, "lat": 41.2468907, "lon": 13.0375245}, {"type": "node", "id": 7606060075, "lat": 41.2468472, "lon": 13.0375403}, {"type": "node", "id": 7606060076, "lat": 41.2468317, "lon": 13.037465}, {"type": "node", "id": 7606094470, "lat": 41.2322839, "lon": 13.0903015, "tags": {"amenity": "restaurant", "name": "Tiki Bar"}}, {"type": "node", "id": 7606094471, "lat": 41.2334769, "lon": 13.0889772, "tags": {"amenity": "restaurant", "name": "Il Grottino"}}, {"type": "node", "id": 7625996840, "lat": 41.5807317, "lon": 12.833974}, {"type": "node", "id": 7625996841, "lat": 41.5807838, "lon": 12.8341229}, {"type": "node", "id": 7625996842, "lat": 41.5806423, "lon": 12.8342113}, {"type": "node", "id": 7625996843, "lat": 41.5805903, "lon": 12.8340625}, {"type": "node", "id": 7797095101, "lat": 41.2837331, "lon": 13.2500427, "tags": {"amenity": "restaurant", "name": "Alberto a Mare"}}, {"type": "node", "id": 7797477546, "lat": 41.2863591, "lon": 13.2536312, "tags": {"amenity": "restaurant"}}, {"type": "node", "id": 7817760088, "lat": 41.5496751, "lon": 12.9845574, "tags": {"amenity": "restaurant", "cuisine": "regional", "name": "Ristorante Ghost"}}, {"type": "node", "id": 7823308887, "lat": 41.2838317, "lon": 13.250004, "tags": {"amenity": "cafe", "name": "Alberto a Mare", "operator": "Fratelli Perroni A. & G. & Molinaro C. SNC", "ref:vatin": "IT01215470590"}}, {"type": "node", "id": 7824431608, "lat": 41.5490526, "lon": 12.9853982, "tags": {"addr:city": "Sermoneta", "addr:housenumber": "1", "addr:postcode": "04013", "addr:street": "Piazza del Comune", "amenity": "cafe", "name": "Cafe\u2019 de\u2019 Mercanti", "operator": "Fabrizio Sibilia", "phone": "+39 339 2911483", "ref:vatin": "IT03006890598"}}, {"type": "node", "id": 7826742473, "lat": 41.2889872, "lon": 13.2519251, "tags": {"amenity": "cafe", "ref:tobacco": "14", "shop": "tobacco"}}, {"type": "node", "id": 7834721752, "lat": 41.5704222, "lon": 12.8370228}, {"type": "node", "id": 7838170193, "lat": 41.59225, "lon": 12.8275207, "tags": {"addr:city": "Cisterna di Latina", "addr:housenumber": "138", "addr:postcode": "04012", "addr:street": "Corso della Repubblica", "amenity": "restaurant", "cuisine": "pizza", "name": "Vita Mia"}}, {"type": "node", "id": 7886272803, "lat": 41.5919221, "lon": 12.8299954, "tags": {"amenity": "cafe", "name": "Caetani...caff\u00e8 e cucina"}}, {"type": "node", "id": 7886272804, "lat": 41.5906778, "lon": 12.8287155, "tags": {"amenity": "cafe"}}, {"type": "node", "id": 7888178867, "lat": 41.5872786, "lon": 12.8274673, "tags": {"amenity": "cafe"}}, {"type": "node", "id": 7888178875, "lat": 41.5866008, "lon": 12.8277586, "tags": {"amenity": "cafe"}}, {"type": "node", "id": 7888178876, "lat": 41.577721, "lon": 12.8385558, "tags": {"amenity": "cafe", "name": "Oasi degli Aranci"}}, {"type": "node", "id": 7888178880, "lat": 41.5875693, "lon": 12.8275736, "tags": {"air_conditioning": "yes", "amenity": "restaurant", "bar": "no", "cuisine": "italian", "delivery": "no", "diet:gluten_free": "no", "diet:halal": "no", "diet:vegan": "no", "diet:vegetarian": "yes", "internet_access": "no", "level": "0", "name": "Il Gabbiano Jonathan", "outdoor_seating": "no", "reservation": "yes", "smoking": "no", "stars": "2", "takeaway": "yes"}}, {"type": "node", "id": 7890374265, "lat": 41.603059, "lon": 12.8313867, "tags": {"amenity": "restaurant", "cuisine": "pizza", "name": "Boccaccio"}}, {"type": "node", "id": 7895373119, "lat": 41.4005766, "lon": 13.2035203}, {"type": "node", "id": 7895373120, "lat": 41.4004521, "lon": 13.2036234}, {"type": "node", "id": 7895373121, "lat": 41.400294, "lon": 13.2033319}, {"type": "node", "id": 7895373122, "lat": 41.4004084, "lon": 13.2032333}, {"type": "node", "id": 7898969583, "lat": 41.3936786, "lon": 13.1971492}, {"type": "node", "id": 7898969584, "lat": 41.393532, "lon": 13.197071}, {"type": "node", "id": 7899006822, "lat": 41.4319656, "lon": 13.199349}, {"type": "node", "id": 7899006823, "lat": 41.4319787, "lon": 13.1992793}, {"type": "node", "id": 7899020385, "lat": 41.3935755, "lon": 13.1966483}, {"type": "node", "id": 7899020386, "lat": 41.3937735, "lon": 13.196754}, {"type": "node", "id": 7983153466, "lat": 41.4296564, "lon": 13.1781605}, {"type": "node", "id": 7983153467, "lat": 41.4295633, "lon": 13.178145}, {"type": "node", "id": 7983153468, "lat": 41.4296459, "lon": 13.1772588}, {"type": "node", "id": 7983153469, "lat": 41.429739, "lon": 13.1772742}, {"type": "node", "id": 7983153479, "lat": 41.4330573, "lon": 13.1894988}, {"type": "node", "id": 7983153480, "lat": 41.432952, "lon": 13.1894211}, {"type": "node", "id": 7983153481, "lat": 41.4328847, "lon": 13.1895975}, {"type": "node", "id": 7983153482, "lat": 41.4327973, "lon": 13.1895347}, {"type": "node", "id": 7983153483, "lat": 41.4329789, "lon": 13.1891222}, {"type": "node", "id": 7983153484, "lat": 41.4331604, "lon": 13.1892507}, {"type": "node", "id": 8281773967, "lat": 41.285883, "lon": 13.2490839, "tags": {"amenity": "restaurant", "name": "Brian the king"}}, {"type": "node", "id": 8281773968, "lat": 41.4164793, "lon": 12.8367469}, {"type": "node", "id": 8281773969, "lat": 41.4163223, "lon": 12.8367023}, {"type": "node", "id": 8281773970, "lat": 41.4163548, "lon": 12.8364982}, {"type": "node", "id": 8281773971, "lat": 41.4165863, "lon": 12.8365639}, {"type": "node", "id": 8734468976, "lat": 41.5112298, "lon": 12.7418885}, {"type": "node", "id": 8734468977, "lat": 41.5111033, "lon": 12.741986}, {"type": "node", "id": 8734468978, "lat": 41.5110077, "lon": 12.7417647}, {"type": "node", "id": 8734468979, "lat": 41.5111342, "lon": 12.7416672}, {"type": "node", "id": 8747381989, "lat": 41.4678273, "lon": 12.6512218, "tags": {"addr:city": "Nettuno", "addr:housenumber": "180", "addr:postcode": "00048", "addr:street": "Via San Giacomo", "amenity": "cafe", "name": "Celani dal 1960"}}, {"type": "node", "id": 8775627998, "lat": 41.5704498, "lon": 12.8371826}, {"type": "node", "id": 8775627999, "lat": 41.5704672, "lon": 12.8371772}, {"type": "node", "id": 8775628000, "lat": 41.5704977, "lon": 12.8373537}, {"type": "node", "id": 8775628001, "lat": 41.5704404, "lon": 12.8373714}, {"type": "node", "id": 8775628002, "lat": 41.5704557, "lon": 12.8374598}, {"type": "node", "id": 8775628003, "lat": 41.5703365, "lon": 12.8374966}, {"type": "node", "id": 8775628004, "lat": 41.5703037, "lon": 12.8373069}, {"type": "node", "id": 8775628005, "lat": 41.5703289, "lon": 12.8372991}, {"type": "node", "id": 8775628006, "lat": 41.5702883, "lon": 12.8370642}, {"type": "node", "id": 9070840171, "lat": 41.3075658, "lon": 13.003566}, {"type": "node", "id": 9071310834, "lat": 41.330403, "lon": 12.9861281, "tags": {"amenity": "cafe", "name": "Snoopy", "outdoor_seating": "yes", "takeaway": "only", "toilets": "yes"}}, {"type": "node", "id": 9071310841, "lat": 41.3338225, "lon": 12.9828466, "tags": {"amenity": "restaurant", "name": "Mauro", "phone": "+39 329 4213603"}}, {"type": "node", "id": 9079425195, "lat": 41.46597, "lon": 12.9036319, "tags": {"amenity": "cafe", "name": "Caff\u00e9 White!"}}, {"type": "node", "id": 9180347540, "lat": 41.4165621, "lon": 12.8367152}, {"type": "node", "id": 9180347541, "lat": 41.4164878, "lon": 12.8366941}, {"type": "node", "id": 9187829566, "lat": 41.4186447, "lon": 13.0354529}, {"type": "node", "id": 9187829567, "lat": 41.4184207, "lon": 13.0356769}, {"type": "node", "id": 9187829568, "lat": 41.4183115, "lon": 13.0354827}, {"type": "node", "id": 9187829569, "lat": 41.4183268, "lon": 13.0354673}, {"type": "node", "id": 9187829570, "lat": 41.4182545, "lon": 13.0353389}, {"type": "node", "id": 9187829571, "lat": 41.4183344, "lon": 13.0352633}, {"type": "node", "id": 9187829572, "lat": 41.4184109, "lon": 13.0354032}, {"type": "node", "id": 9187829573, "lat": 41.4185108, "lon": 13.0353059}, {"type": "node", "id": 9187829574, "lat": 41.4184343, "lon": 13.0351661}, {"type": "node", "id": 9187829575, "lat": 41.4184672, "lon": 13.0351372}, {"type": "node", "id": 9212352434, "lat": 41.4757222, "lon": 12.8798512}, {"type": "node", "id": 9341169915, "lat": 41.4692686, "lon": 12.8916564}, {"type": "node", "id": 9341169916, "lat": 41.4694158, "lon": 12.8917516}, {"type": "node", "id": 9341228317, "lat": 41.469375, "lon": 12.8918642}, {"type": "node", "id": 9341228318, "lat": 41.4692277, "lon": 12.8917691}, {"type": "node", "id": 9373529277, "lat": 41.4596328, "lon": 12.9215518}, {"type": "node", "id": 9373529278, "lat": 41.4596138, "lon": 12.9216029}, {"type": "node", "id": 9373529279, "lat": 41.4597571, "lon": 12.9216979}, {"type": "node", "id": 9373529280, "lat": 41.4596922, "lon": 12.9218722}, {"type": "node", "id": 9373529281, "lat": 41.4595084, "lon": 12.9217504}, {"type": "node", "id": 9373529282, "lat": 41.4595923, "lon": 12.921525}, {"type": "node", "id": 9423179110, "lat": 41.5250466, "lon": 13.1556371, "tags": {"amenity": "cafe"}}, {"type": "node", "id": 9500907554, "lat": 41.4732812, "lon": 12.9190165, "tags": {"amenity": "cafe", "name": "Bar Tabacchi Sicuranza"}}, {"type": "node", "id": 9502765414, "lat": 41.5921162, "lon": 12.8301808, "tags": {"addr:city": "Cisterna di Latina", "addr:housenumber": "8", "addr:postcode": "04012", "addr:street": "Via delle Scuderie", "amenity": "restaurant", "name": "Fraschetta di Mario"}}, {"type": "node", "id": 9502765415, "lat": 41.593523, "lon": 12.8285478, "tags": {"addr:city": "Cisterna di Latina", "addr:housenumber": "1", "addr:postcode": "04012", "addr:street": "Via Salvatore Quasimodo", "amenity": "restaurant", "cuisine": "pizza", "name": "Piennolo Rosso"}}, {"type": "node", "id": 9534752152, "lat": 41.284671, "lon": 13.2292146}, {"type": "node", "id": 9534752153, "lat": 41.2846446, "lon": 13.2291819}, {"type": "node", "id": 9534752154, "lat": 41.2845692, "lon": 13.2292064}, {"type": "node", "id": 9534752155, "lat": 41.2845683, "lon": 13.2293022}, {"type": "node", "id": 9534752156, "lat": 41.2846429, "lon": 13.2293314}, {"type": "node", "id": 9534752157, "lat": 41.2846705, "lon": 13.2292987}, {"type": "node", "id": 9587603524, "lat": 41.2846805, "lon": 13.2311821}, {"type": "node", "id": 9587603525, "lat": 41.2846275, "lon": 13.231147}, {"type": "node", "id": 9587603526, "lat": 41.2845907, "lon": 13.2311914}, {"type": "node", "id": 9587603527, "lat": 41.2845907, "lon": 13.2312638}, {"type": "node", "id": 9587603528, "lat": 41.2846363, "lon": 13.2313012}, {"type": "node", "id": 9587603529, "lat": 41.2846801, "lon": 13.2312661}, {"type": "node", "id": 9737854234, "lat": 41.4154209, "lon": 12.8118921}, {"type": "node", "id": 9737854235, "lat": 41.4154509, "lon": 12.8119753}, {"type": "node", "id": 9737854236, "lat": 41.4152996, "lon": 12.8120726}, {"type": "node", "id": 9737854237, "lat": 41.4152696, "lon": 12.8119895}, {"type": "node", "id": 9751952846, "lat": 41.4155092, "lon": 12.8183333}, {"type": "node", "id": 9751952847, "lat": 41.4155324, "lon": 12.8185285}, {"type": "node", "id": 9751952848, "lat": 41.4153515, "lon": 12.8185669}, {"type": "node", "id": 9751952849, "lat": 41.4153331, "lon": 12.8184126}, {"type": "node", "id": 9751952850, "lat": 41.4154152, "lon": 12.8183952}, {"type": "node", "id": 9751952851, "lat": 41.4154104, "lon": 12.8183543}, {"type": "node", "id": 9751952918, "lat": 41.4165879, "lon": 12.8220662}, {"type": "node", "id": 9751952919, "lat": 41.4166209, "lon": 12.8221707}, {"type": "node", "id": 9751952920, "lat": 41.4165387, "lon": 12.8222168}, {"type": "node", "id": 9751952921, "lat": 41.4165074, "lon": 12.8221175}, {"type": "node", "id": 9751952922, "lat": 41.4165254, "lon": 12.8221074}, {"type": "node", "id": 9751952923, "lat": 41.4165178, "lon": 12.8220835}, {"type": "node", "id": 9751952924, "lat": 41.4165439, "lon": 12.8220688}, {"type": "node", "id": 9751952925, "lat": 41.4165498, "lon": 12.8220875}, {"type": "node", "id": 9751952946, "lat": 41.4160217, "lon": 12.8224003, "tags": {"amenity": "cafe", "name": "Caff\u00e8 '01"}}, {"type": "node", "id": 9751952947, "lat": 41.4160039, "lon": 12.8226001, "tags": {"amenity": "restaurant", "cuisine": "pizza", "name": "Pizzeria Rosticceria L'Aragosta"}}, {"type": "node", "id": 9754681038, "lat": 41.4167013, "lon": 12.8209604, "tags": {"amenity": "cafe", "name": "Bar Gelateria Il Faro"}}, {"type": "node", "id": 9754681039, "lat": 41.4167413, "lon": 12.8210711, "tags": {"amenity": "restaurant", "cuisine": "italian;seafood", "name": "Spaghetteria Friggitoria Vittorio & Maria"}}, {"type": "node", "id": 9763950905, "lat": 41.4163062, "lon": 12.8286248, "tags": {"amenity": "restaurant", "cuisine": "seafood", "name": "Ristorante La Marina... di Latina"}}, {"type": "node", "id": 9767275632, "lat": 41.4162637, "lon": 12.8335257, "tags": {"amenity": "cafe", "name": "Bar Caffetteria Rossi"}}, {"type": "node", "id": 9769858197, "lat": 41.4160584, "lon": 12.835339, "tags": {"amenity": "cafe", "name": "Le Bistrot"}}, {"type": "node", "id": 9769858198, "lat": 41.4160519, "lon": 12.8354526, "tags": {"amenity": "restaurant", "cuisine": "pizza", "name": "Kreo"}}, {"type": "node", "id": 9772828914, "lat": 41.415773, "lon": 12.8379107}, {"type": "node", "id": 9772828915, "lat": 41.4158925, "lon": 12.8379414}, {"type": "node", "id": 9772828916, "lat": 41.4158873, "lon": 12.8379778}, {"type": "node", "id": 9772828917, "lat": 41.4158741, "lon": 12.8379744}, {"type": "node", "id": 9772828918, "lat": 41.4158697, "lon": 12.8380048}, {"type": "node", "id": 9772828919, "lat": 41.4159366, "lon": 12.838022}, {"type": "node", "id": 9772828920, "lat": 41.4159323, "lon": 12.8380516}, {"type": "node", "id": 9772828921, "lat": 41.415759, "lon": 12.838007}, {"type": "node", "id": 9772866702, "lat": 41.415624, "lon": 12.8387824, "tags": {"amenity": "restaurant", "name": "Made in Italo - Il Velletrano"}}, {"type": "node", "id": 9778895931, "lat": 41.4151728, "lon": 12.8417829, "tags": {"amenity": "restaurant", "cuisine": "pizza", "name": "Basta Poco"}}, {"type": "node", "id": 9785654865, "lat": 41.4144064, "lon": 12.8469999, "tags": {"amenity": "restaurant", "cuisine": "seafood", "name": "Calamare"}}, {"type": "node", "id": 9785704375, "lat": 41.4137851, "lon": 12.8485366, "tags": {"amenity": "restaurant", "cuisine": "pizza", "name": "Pizzeria Rosticceria Ciao '90"}}, {"type": "node", "id": 9828589760, "lat": 41.4145078, "lon": 12.8454175, "tags": {"amenity": "restaurant", "name": "Osteria Rag\u00f9"}}, {"type": "node", "id": 9830500589, "lat": 41.4134427, "lon": 12.8508077}, {"type": "node", "id": 9830500596, "lat": 41.4134494, "lon": 12.8507811}, {"type": "node", "id": 9830500597, "lat": 41.4133592, "lon": 12.8507402}, {"type": "node", "id": 9830500598, "lat": 41.4133476, "lon": 12.8507859}, {"type": "node", "id": 9830500599, "lat": 41.4133361, "lon": 12.8507807}, {"type": "node", "id": 9830500600, "lat": 41.4133186, "lon": 12.8508492}, {"type": "node", "id": 9830500601, "lat": 41.4132471, "lon": 12.8508168}, {"type": "node", "id": 9830500602, "lat": 41.4132349, "lon": 12.8508646}, {"type": "node", "id": 9830500603, "lat": 41.4131854, "lon": 12.8508422}, {"type": "node", "id": 9830500604, "lat": 41.4131693, "lon": 12.8509053}, {"type": "node", "id": 9830500605, "lat": 41.4133979, "lon": 12.851009}, {"type": "node", "id": 9830500606, "lat": 41.4133662, "lon": 12.8511335}, {"type": "node", "id": 9830500607, "lat": 41.4134442, "lon": 12.8511689}, {"type": "node", "id": 9830500608, "lat": 41.4134602, "lon": 12.8511063}, {"type": "node", "id": 9830500609, "lat": 41.4134494, "lon": 12.8511014}, {"type": "node", "id": 9830500610, "lat": 41.4134698, "lon": 12.8510212}, {"type": "node", "id": 9830500611, "lat": 41.4134537, "lon": 12.8510139}, {"type": "node", "id": 9830500612, "lat": 41.4134997, "lon": 12.8508336}, {"type": "node", "id": 9830541937, "lat": 41.4130837, "lon": 12.8513086, "tags": {"amenity": "cafe", "name": "Caffetteria Azzurra"}}, {"type": "node", "id": 9830541960, "lat": 41.4126808, "lon": 12.8516954}, {"type": "node", "id": 9830541961, "lat": 41.4127549, "lon": 12.8517301}, {"type": "node", "id": 9830541962, "lat": 41.4126987, "lon": 12.8519433}, {"type": "node", "id": 9830541963, "lat": 41.4126247, "lon": 12.8519086}, {"type": "node", "id": 9830541975, "lat": 41.412858, "lon": 12.8521191, "tags": {"amenity": "restaurant", "name": "Il Tarantino"}}, {"type": "node", "id": 9830586036, "lat": 41.4130025, "lon": 12.8532813, "tags": {"amenity": "cafe", "name": "Bar Tirreno"}}, {"type": "node", "id": 9830586057, "lat": 41.4125802, "lon": 12.8533643}, {"type": "node", "id": 9830586059, "lat": 41.41255, "lon": 12.8534668}, {"type": "node", "id": 9830586060, "lat": 41.4125821, "lon": 12.8534836}, {"type": "node", "id": 9830586061, "lat": 41.4125587, "lon": 12.8535631}, {"type": "node", "id": 9830586062, "lat": 41.4124542, "lon": 12.8535085}, {"type": "node", "id": 9830586063, "lat": 41.4125078, "lon": 12.8533265}, {"type": "node", "id": 9830586099, "lat": 41.4123018, "lon": 12.8540279, "tags": {"amenity": "restaurant", "name": "Il Golfo in Padella"}}, {"type": "node", "id": 9830590118, "lat": 41.4122758, "lon": 12.8541401, "tags": {"amenity": "restaurant", "name": "Punto Loran"}}, {"type": "node", "id": 9830590158, "lat": 41.4120486, "lon": 12.8550206, "tags": {"amenity": "cafe", "name": "La Perla"}}, {"type": "node", "id": 9830590199, "lat": 41.411938, "lon": 12.8552188, "tags": {"amenity": "cafe", "name": "Target"}}, {"type": "node", "id": 9830590201, "lat": 41.4121552, "lon": 12.8552614}, {"type": "node", "id": 9830590202, "lat": 41.4121954, "lon": 12.8552851}, {"type": "node", "id": 9830590203, "lat": 41.4121988, "lon": 12.8552751}, {"type": "node", "id": 9830590204, "lat": 41.4123676, "lon": 12.855375}, {"type": "node", "id": 9830590205, "lat": 41.4123457, "lon": 12.8554408}, {"type": "node", "id": 9830590206, "lat": 41.41232, "lon": 12.8554256}, {"type": "node", "id": 9830590207, "lat": 41.412304, "lon": 12.8554738}, {"type": "node", "id": 9830590208, "lat": 41.4121207, "lon": 12.8553653}, {"type": "node", "id": 9830590209, "lat": 41.4124092, "lon": 12.8556557}, {"type": "node", "id": 9830590210, "lat": 41.4124487, "lon": 12.8556756}, {"type": "node", "id": 9830590211, "lat": 41.4124101, "lon": 12.8558123}, {"type": "node", "id": 9830590212, "lat": 41.412455, "lon": 12.8558349}, {"type": "node", "id": 9830590213, "lat": 41.412438, "lon": 12.8558949}, {"type": "node", "id": 9830590214, "lat": 41.4124065, "lon": 12.8558791}, {"type": "node", "id": 9830590215, "lat": 41.4123938, "lon": 12.8559242}, {"type": "node", "id": 9830590216, "lat": 41.4123606, "lon": 12.8559075}, {"type": "node", "id": 9830590217, "lat": 41.4123521, "lon": 12.8559376}, {"type": "node", "id": 9830590218, "lat": 41.4123323, "lon": 12.8559277}, {"type": "node", "id": 9833610450, "lat": 41.4118036, "lon": 12.8557789, "tags": {"amenity": "cafe", "name": "Big Toast"}}, {"type": "node", "id": 9833610599, "lat": 41.4111773, "lon": 12.85793, "tags": {"amenity": "restaurant", "name": "Mergellina"}}, {"type": "node", "id": 9833636159, "lat": 41.4106584, "lon": 12.8597524}, {"type": "node", "id": 9833636160, "lat": 41.4108728, "lon": 12.8598757}, {"type": "node", "id": 9833636161, "lat": 41.4108613, "lon": 12.8599112}, {"type": "node", "id": 9833636162, "lat": 41.4108743, "lon": 12.8599187}, {"type": "node", "id": 9833636163, "lat": 41.4108447, "lon": 12.8600102}, {"type": "node", "id": 9833636164, "lat": 41.4108365, "lon": 12.8600056}, {"type": "node", "id": 9833636165, "lat": 41.4108155, "lon": 12.8600706}, {"type": "node", "id": 9833636166, "lat": 41.4107648, "lon": 12.8600414}, {"type": "node", "id": 9833636167, "lat": 41.4107444, "lon": 12.8601042}, {"type": "node", "id": 9833636168, "lat": 41.4107557, "lon": 12.8601107}, {"type": "node", "id": 9833636169, "lat": 41.4107346, "lon": 12.8601761}, {"type": "node", "id": 9833636170, "lat": 41.4106771, "lon": 12.860143}, {"type": "node", "id": 9833636171, "lat": 41.4106727, "lon": 12.8601568}, {"type": "node", "id": 9833636172, "lat": 41.4106133, "lon": 12.8601227}, {"type": "node", "id": 9833636173, "lat": 41.4106541, "lon": 12.8599966}, {"type": "node", "id": 9833636174, "lat": 41.4105911, "lon": 12.8599604}, {"type": "node", "id": 9836554271, "lat": 41.4066111, "lon": 12.8701392, "tags": {"amenity": "restaurant", "cuisine": "seafood", "name": "Ristorante L'Amo", "opening_hours": "Mo,We-Sa 12:45-14:45,19:45-22:30; Su 12:45-14:45; PH closed; Tu closed"}}, {"type": "node", "id": 9836554276, "lat": 41.4064766, "lon": 12.870235, "tags": {"amenity": "restaurant", "cuisine": "seafood", "name": "Ristorante La Vela"}}, {"type": "node", "id": 9836554278, "lat": 41.4065152, "lon": 12.8709912}, {"type": "node", "id": 9836554279, "lat": 41.4066124, "lon": 12.871046}, {"type": "node", "id": 9836554280, "lat": 41.4066017, "lon": 12.8710798}, {"type": "node", "id": 9836554281, "lat": 41.4066797, "lon": 12.8711237}, {"type": "node", "id": 9836554282, "lat": 41.4066586, "lon": 12.8711904}, {"type": "node", "id": 9836554283, "lat": 41.406644, "lon": 12.8711822}, {"type": "node", "id": 9836554284, "lat": 41.4066181, "lon": 12.8712639}, {"type": "node", "id": 9836554285, "lat": 41.4064411, "lon": 12.8711848}, {"type": "node", "id": 9836578644, "lat": 41.4089294, "lon": 12.8643369, "tags": {"amenity": "restaurant", "cuisine": "seafood", "name": "Blue Marlin"}}, {"type": "node", "id": 9853733259, "lat": 41.3916676, "lon": 12.9469648}, {"type": "node", "id": 9853733260, "lat": 41.3917105, "lon": 12.9470043}, {"type": "node", "id": 9853733261, "lat": 41.3916633, "lon": 12.9470953}, {"type": "node", "id": 9853733262, "lat": 41.3916515, "lon": 12.9470844}, {"type": "node", "id": 9853733263, "lat": 41.3916255, "lon": 12.9471345}, {"type": "node", "id": 9853733264, "lat": 41.3915944, "lon": 12.9471058}, {"type": "node", "id": 9853733279, "lat": 41.3919786, "lon": 12.9452532}, {"type": "node", "id": 9853733280, "lat": 41.3920647, "lon": 12.9453343}, {"type": "node", "id": 9853733281, "lat": 41.3920548, "lon": 12.9453529}, {"type": "node", "id": 9853733282, "lat": 41.3921124, "lon": 12.9454072}, {"type": "node", "id": 9853733283, "lat": 41.3920895, "lon": 12.9454504}, {"type": "node", "id": 9853733284, "lat": 41.3921507, "lon": 12.9455082}, {"type": "node", "id": 9853733285, "lat": 41.3920872, "lon": 12.9456277}, {"type": "node", "id": 9853733286, "lat": 41.3920404, "lon": 12.9455836}, {"type": "node", "id": 9853733287, "lat": 41.392052, "lon": 12.9455619}, {"type": "node", "id": 9853733288, "lat": 41.3919752, "lon": 12.9454894}, {"type": "node", "id": 9853733289, "lat": 41.3919911, "lon": 12.9454594}, {"type": "node", "id": 9853733290, "lat": 41.3918559, "lon": 12.9453319}, {"type": "node", "id": 9853733291, "lat": 41.3918875, "lon": 12.9452723}, {"type": "node", "id": 9853733292, "lat": 41.3919415, "lon": 12.9453232}, {"type": "node", "id": 9853750217, "lat": 41.3924131, "lon": 12.9447953}, {"type": "node", "id": 9853750218, "lat": 41.3925084, "lon": 12.9448814}, {"type": "node", "id": 9853750223, "lat": 41.3924737, "lon": 12.9449495}, {"type": "node", "id": 9853750224, "lat": 41.3923785, "lon": 12.9448634}, {"type": "node", "id": 9858450242, "lat": 41.3895463, "lon": 12.9509237, "tags": {"amenity": "cafe", "name": "Le Delizie di Luca"}}, {"type": "node", "id": 9863811088, "lat": 41.3896266, "lon": 12.9529717}, {"type": "node", "id": 9863811089, "lat": 41.3896574, "lon": 12.953006}, {"type": "node", "id": 9863878762, "lat": 41.3912756, "lon": 12.9486396, "tags": {"amenity": "restaurant", "name": "Trattoria Taverna Contini"}}, {"type": "node", "id": 9863878785, "lat": 41.3914315, "lon": 12.948123, "tags": {"amenity": "cafe", "name": "Bar Bravi"}}, {"type": "node", "id": 9863878790, "lat": 41.3920985, "lon": 12.9467176, "tags": {"amenity": "restaurant", "cuisine": "pizza", "name": "Pizzeria Rosella"}}, {"type": "node", "id": 9863878817, "lat": 41.4730302, "lon": 12.907951, "tags": {"addr:housenumber": "8", "addr:postcode": "04100", "addr:street": "Via Ezio", "amenity": "restaurant", "contact:facebook": "profile.php", "contact:instagram": "extasyuniverse", "cuisine": "breakfast;bubble_tea;burger;coffee_shop;fine_dining;fish_and_chips", "email": "info@extasyuniverse.com", "internet_access": "wlan", "microbrewery": "yes", "name": "Extacy", "name:en": "Extasy - Cocktails & Restaurant", "name:it": "Extasy - Cocktails & Restaurant", "opening_hours": "Su 07:00-12:00, 18:00-00:00; Tu-Sa 07:30-15:00, 18:00-00:00", "outdoor_seating": "yes", "phone": "+39 0773 172 0747", "reservation": "yes", "takeaway": "yes", "website": "https://www.extasyuniversepark.com/"}}, {"type": "node", "id": 9865981660, "lat": 41.4389091, "lon": 12.8847025}, {"type": "node", "id": 9865981661, "lat": 41.439032, "lon": 12.8848055}, {"type": "node", "id": 9865981662, "lat": 41.438902, "lon": 12.8850813}, {"type": "node", "id": 9865981663, "lat": 41.4387791, "lon": 12.8849783}, {"type": "node", "id": 9899400236, "lat": 41.4535194, "lon": 12.8929682, "tags": {"addr:housenumber": "85", "addr:postcode": "04100", "addr:street": "Via del Lido", "amenity": "cafe", "name": "Centoundici", "opening_hours": "Tu-Su 07:00-22:00", "phone": "+390773358771"}}, {"type": "node", "id": 9899400462, "lat": 41.4539201, "lon": 12.8883167, "tags": {"amenity": "restaurant", "cuisine": "pizza", "name": "Planet Pizza"}}, {"type": "node", "id": 9906273438, "lat": 41.2935925, "lon": 13.246259, "tags": {"addr:housenumber": "34", "addr:street": "Via Villafranca", "amenity": "restaurant", "name": "La Taverna di Ciacco", "phone": "+390773429785", "website": "https://m.facebook.com/latavernadiciacco/"}}, {"type": "node", "id": 9947439617, "lat": 41.2324748, "lon": 13.0883737, "tags": {"amenity": "cafe", "name": "Greygoose"}}, {"type": "node", "id": 9947517817, "lat": 41.2330754, "lon": 13.0888695, "tags": {"amenity": "restaurant"}}, {"type": "node", "id": 9947565825, "lat": 41.2836373, "lon": 13.0203836, "tags": {"amenity": "cafe", "name": "I gemelli"}}, {"type": "node", "id": 9947829919, "lat": 41.3053708, "lon": 13.0051589, "tags": {"amenity": "restaurant"}}, {"type": "node", "id": 9947833517, "lat": 41.3042721, "lon": 13.0063286, "tags": {"amenity": "restaurant", "cuisine": "italian;italian_pizza;pizza"}}, {"type": "node", "id": 9947841617, "lat": 41.3053341, "lon": 13.0051948, "tags": {"amenity": "cafe", "name": "Piazzetta Angelina"}}, {"type": "node", "id": 9949531017, "lat": 41.3055365, "lon": 13.0050711, "tags": {"amenity": "restaurant", "cuisine": "italian", "name": "La Giunca"}}, {"type": "node", "id": 9974921134, "lat": 41.2856398, "lon": 13.237108, "tags": {"addr:housenumber": "10", "addr:postcode": "04019", "addr:street": "Via Basilicata", "amenity": "restaurant", "cuisine": "italian;pasta;seafood", "name": "Quelli della pasta (Pastificio & Cucina)", "opening_hours": "Tu-Fr 18:00-24:00,\nTu-Fr 09:00-16:00,\nSu 09:00-17:00", "phone": "3404078806"}}, {"type": "node", "id": 9994558305, "lat": 41.5789544, "lon": 12.6537219, "tags": {"addr:city": "Aprilia", "addr:housenumber": "KM 46.600", "addr:postcode": "04011", "addr:street": "Via Pontina", "addr:unit": "SNC", "amenity": "restaurant", "cuisine": "ristorazione_aziendale;catering", "email": "info@ristotime.it", "name": "A.L.G. Ristorazione S.r.l. - Ristorazione Collettiva", "website": "https://ristotime.it"}}, {"type": "node", "id": 10033441399, "lat": 41.4573073, "lon": 12.6630695, "tags": {"amenity": "cafe"}}, {"type": "node", "id": 10048199148, "lat": 41.4732899, "lon": 12.9070695, "tags": {"addr:city": "Latina", "addr:housenumber": "11", "addr:postcode": "04100", "addr:province": "LT", "addr:street": "Via Milazzo", "amenity": "restaurant", "check_date": "2023-04-12", "contact:facebook": "ilpresidenteviamilazzo", "contact:instagram": "@ilpresidente_viamilazzo", "contact:phone": "+39 0773 149 6818", "cuisine": "pizza", "delivery": "https://glovoapp.com/it/it/latina/il-presidente-pizzeria-qlt/", "level": "0", "name": "Il Presidente Pizzeria", "opening_hours": "Tu-Su 18:00-24:00", "outdoor_seating": "yes", "payment:mastercard": "yes", "payment:visa": "yes", "reservation": "yes", "self_service": "yes", "stars": "4", "takeaway": "yes", "toilets": "yes", "toilets:access": "yes", "toilets:wheelchair": "designated", "website": "https://il-presidente-pizzeria.business.site/", "wheelchair": "yes"}}, {"type": "node", "id": 10067495128, "lat": 41.3187876, "lon": 13.1885467}, {"type": "node", "id": 10067495131, "lat": 41.3188393, "lon": 13.1883858}, {"type": "node", "id": 10067495132, "lat": 41.3186758, "lon": 13.1886909}, {"type": "node", "id": 10067495133, "lat": 41.3187471, "lon": 13.1883901}, {"type": "node", "id": 10067495134, "lat": 41.318771, "lon": 13.1884228}, {"type": "node", "id": 10067495135, "lat": 41.3188741, "lon": 13.1885006}, {"type": "node", "id": 10067495137, "lat": 41.3185988, "lon": 13.1885811}, {"type": "node", "id": 10119168452, "lat": 41.471082, "lon": 12.9023975, "tags": {"addr:city": "Latina", "addr:housenumber": "72/78", "addr:postcode": "04100", "addr:street": "Viale Diciotto Dicembre", "air_conditioning": "yes", "amenity": "restaurant", "bar": "yes", "contact:instagram": "https://www.instagram.com/fuku_sushi_/", "cuisine": "chinese;japanese", "description": "Ristorante di cucina giapponese e cinese all you can eat", "email": "ristorantefuku@gmail.com", "facebook": "https://www.facebook.com/fukusushilatina/", "highchair": "no", "internet_access": "yes", "internet_access:fee": "no", "internet_access:ssid": "FUKU-MENU", "name": "Fuku Sushi", "opening_hours": "11:00-15:00,18:00-23:00", "outdoor_seating": "yes", "payment:bancomat": "yes", "payment:cash": "yes", "payment:jcb": "yes", "payment:maestro": "yes", "payment:mastercard": "yes", "payment:unionpay": "yes", "payment:v_pay": "yes", "payment:visa": "yes", "payment:visa_electron": "yes", "phone": "+39 0773 638621", "phone:mobile": "+39 327 923 8382", "ref:vatin": "IT02049360593", "reservation": "yes", "stars": "4", "takeaway": "yes", "toilets": "yes", "toilets:wheelchair": "yes", "website": "https://www.fukusushi.it/", "wheelchair": "yes"}}, {"type": "node", "id": 10119225165, "lat": 41.4709719, "lon": 12.9029316, "tags": {"addr:city": "Latina", "addr:housenumber": "54", "addr:postcode": "04100", "addr:street": "Corso Della Repubblica", "air_conditioning": "yes", "amenity": "cafe", "check_date": "2022-10-28", "contact:instagram": "https://www.instagram.com/boom_latina168/", "cuisine": "bubble_tea", "delivery": "yes", "facebook": "https://www.facebook.com/people/Boom-Bubble-Tea-Latina/100082907813941/", "image": "https://i.ibb.co/S6c7zzr/IMG-20221028-212344-2.jpg", "internet_access:fee": "no", "internet_access:ssid": "TP-Link_E906", "name": "Boom Bubble Tea", "opening_hours": "Mo-Th 10:00-20:00; Fr 16:00-23:00; Sa 16:00-24:00; Su off", "payment:cash": "yes", "payment:credit_cards": "yes", "phone": "+39 347 003 9281", "takeaway": "yes", "wheelchair": "yes"}}, {"type": "node", "id": 10130899315, "lat": 41.5028439, "lon": 12.6785482, "tags": {"amenity": "restaurant", "name": "Trattoria La Campana", "phone": "+39069858295", "website": "https://www.facebook.com/trattorialacampana"}}, {"type": "node", "id": 10133890497, "lat": 41.4734375, "lon": 12.9076441, "tags": {"addr:city": "Latina", "addr:housenumber": "155", "addr:postcode": "04100", "addr:province": "Latina (LT)", "addr:street": "Corso Giacomo Matteotti", "amenity": "restaurant", "contact:instagram": "https://www.instagram.com/Osteria.dali/", "cuisine": "italian;roman;pasta;coffee;wine;beer", "delivery": "yes", "description": "Ristorante di pietanze tipiche romane, tra cui la carbonara, la gricia, il fegato ecc.", "email": "info@osteriadali.it", "facebook": "https://www.facebook.com/OsteriaDaliLatina", "highchair": "yes", "level": "0", "microbrewery": "yes", "name": "Osteria Dal\u00ec", "opening_hours": "Mo,We-Su 12:30-15:00,19:00-23:00; Tu off", "outdoor_seating": "no", "payment:debit_cards": "yes", "payment:nfc": "yes", "phone": "+39 0773 439496", "reservation": "yes", "stars": "4", "takeaway": "yes", "toilets": "yes", "toilets:access": "customers", "toilets:wheelchair": "yes", "wheelchair": "yes"}}, {"type": "node", "id": 10135996564, "lat": 41.4718023, "lon": 12.9030118, "tags": {"addr:city": "Latina", "addr:housenumber": "41", "addr:postcode": "04100", "addr:province": "LT", "addr:street": "Via Giuliano Carturan", "air_conditioning": "yes", "amenity": "restaurant", "changing_table": "yes", "changing_table:count": "1", "changing_table:location": "wheelchair_toilet", "check_date": "2022-10-28", "contact:instagram": "https://instagram.com/ristoranteciro_latina", "cuisine": "italian;pizza;pasta;fish", "delivery": "yes", "email": "ristorantecirolatina@libero.it", "facebook": "https://www.facebook.com/ristorantecirolatina", "highchair": "no", "internet_access": "wlan", "internet_access:fee": "no", "internet_access:ssid": "Clienti-Ciro", "level": "0", "microbrewery": "yes", "name": "Ristorante Pizzeria Ci.Ro.", "opening_hours": "Tu-Su 12:30-15:00,19:30-23:00; Mo off", "outdoor_seating": "yes", "payment:bancomat": "yes", "payment:cash": "yes", "payment:contactless": "yes", "payment:credit_cards": "yes", "phone": "+39 0773 695664", "reservation": "yes", "smoking": "no", "stars": "4.1", "takeaway": "yes", "toilets": "yes", "toilets:access": "customers", "toilets:wheelchair": "yes", "wheelchair": "yes"}}, {"type": "node", "id": 10141412683, "lat": 41.4703016, "lon": 12.9001523, "tags": {"addr:city": "Latina", "addr:housenumber": "24", "addr:postcode": "04100", "addr:street": "Viale Diciotto Dicembre", "alcohol:sales": "yes", "amenity": "restaurant", "contact:facebook": "https://www.facebook.com/Chio-Chio-pizzeria-cucina-tipica-104962388031877/", "cuisine": "pizza", "delivery": "yes", "informal": "yes", "name": "Pizzeria Chio' Chio'", "opening_hours": "Tu-Su 12:00-15:30, 18:00-23:00; Mo off", "outdoor_seating": "yes", "payment:american_express": "yes", "payment:bancomat": "yes", "payment:coins": "yes", "payment:contactless": "yes", "payment:jcb": "yes", "payment:mastercard": "yes", "payment:notes": "yes", "payment:visa": "yes", "phone": "+39 0773 176 0324", "reservation": "yes", "smoking": "no", "stars": "4.6", "takeaway": "yes", "website:menu": "https://www.gustone.it/menu/chio-chio/?rid=74"}}, {"type": "node", "id": 10150980987, "lat": 41.2846474, "lon": 13.2471222, "tags": {"addr:city": "Terracina", "addr:housenumber": "164", "addr:postcode": "04019", "addr:street": "Viale della Vittoria", "amenity": "restaurant", "cuisine": "pizza", "name": "L'universit\u00e0", "phone": "+39 0773 720169"}}, {"type": "node", "id": 10150981000, "lat": 41.2855648, "lon": 13.2480889, "tags": {"addr:city": "Terracina", "addr:housenumber": "55", "addr:postcode": "04019", "addr:street": "Viale della Vittoria", "amenity": "restaurant", "cuisine": "fish", "name": "Lupo di mare", "phone": "+39 345 5987331"}}, {"type": "node", "id": 10173068264, "lat": 41.4660715, "lon": 12.8910393, "tags": {"amenity": "cafe", "name": "Caff\u00e8 Dolce", "phone": "+39 0773 481790"}}, {"type": "node", "id": 10259425457, "lat": 41.4580333, "lon": 12.8890069, "tags": {"addr:city": "Latina", "addr:housenumber": "156/206", "addr:postcode": "04100", "addr:street": "Viale Pier Luigi Nervi", "amenity": "restaurant", "brewery": "yes", "check_date": "2022-12-13", "contact:facebook": "https://www.facebook.com/latinaginzaristorante", "cuisine": "chinese;japanese", "delivery": "yes", "name": "Ginza", "opening_hours": "12:00-23:00", "payment:cash": "yes", "payment:credit_cards": "yes", "payment:debit_cards": "yes", "payment:maestro": "yes", "payment:mastercard": "yes", "payment:nfc": "yes", "payment:v_pay": "yes", "payment:visa": "yes", "payment:visa_electron": "yes", "phone": "+39 0773 283369", "stars": "4", "takeaway": "yes", "toilets": "yes", "toilets:wheelchair": "yes", "website": "https://ginza-ristorante-giapponese-latina.business.site/", "wheelchair": "yes"}}, {"type": "node", "id": 10263139591, "lat": 41.4679226, "lon": 12.8977325, "tags": {"addr:city": "Latina", "addr:housenumber": "12", "addr:postcode": "04100", "addr:province": "LT", "addr:street": "Via Pastrengo", "amenity": "restaurant", "brewery": "yes", "check_date": "2022-12-14", "contact:facebook": "https://www.facebook.com/osteriadagiorgione", "contact:instagram": "https://www.instagram.com/osteriadagiorgione", "cuisine": "regional;italian;pasta;barbecue;local", "email": "osteriadagiorgione@libero.it", "name": "Osteria da Giorgione", "opening_hours": "Mo-Sa 12:00-15:00,19:00-23:00; Su off", "outdoor_seating": "yes", "payment:cash": "yes", "payment:coins": "yes", "payment:credit_cards": "yes", "phone": "+39 333 355 1636", "takeaway": "yes", "website": "https://www.osteriadagiorgione.it/", "wheelchair": "yes"}}, {"type": "node", "id": 10269163462, "lat": 41.4693592, "lon": 12.9015559, "tags": {"addr:city": "Latina", "addr:housenumber": "5", "addr:postcode": "04100", "addr:street": "Largo Anna ed Angelo Celli", "air_conditioning": "yes", "amenity": "cafe", "bar": "yes", "check_date": "2022-12-17", "cuisine": "coffee_shop", "dog": "no", "name": "L'Angolo del Caff\u00e8", "note": "il numero di telefono non l'ho trovato", "payment:cash": "yes", "payment:coins": "yes", "payment:credit_cards": "yes", "smoking": "no", "wheelchair": "yes"}}, {"type": "node", "id": 10537375945, "lat": 41.4315147, "lon": 13.2060417, "tags": {"amenity": "restaurant", "cuisine": "italian", "name": "Villa Marcus"}}, {"type": "node", "id": 10676403156, "lat": 41.463199, "lon": 12.906947, "tags": {"amenity": "cafe", "fixme": "location", "name": "San Felipe"}}, {"type": "node", "id": 10678170841, "lat": 41.46302, "lon": 12.906978, "tags": {"amenity": "restaurant", "cuisine": "pizza", "name": "Gi\u00e0 Sai", "phone": "+39 0773 474258", "ref:vatin": "IT02177820590", "website": "http://www.pizzeriagiasai.it", "wheelchair": "yes"}}, {"type": "node", "id": 10747501771, "lat": 41.2513644, "lon": 13.0370373}, {"type": "node", "id": 10747501772, "lat": 41.251382, "lon": 13.0371314}, {"type": "node", "id": 10747501773, "lat": 41.2515203, "lon": 13.0370855}, {"type": "node", "id": 10763843200, "lat": 41.2568002, "lon": 13.0632659}, {"type": "node", "id": 10797058392, "lat": 41.4658271, "lon": 12.9139225, "tags": {"addr:city": "Latina", "addr:housenumber": "5/9", "addr:postcode": "04100", "addr:province": "LT", "addr:street": "Via Emilio Papiniano", "amenity": "restaurant", "cuisine": "pizza", "email": "granesio23@gmail.com", "microbrewery": "yes", "name": "Granesio", "opening_hours": "Mo-Su 19:00-23:00", "outdoor_seating": "no", "phone": "+39 0773 284240", "reservation": "recommended", "television": "yes", "toilets": "yes", "toilets:access": "customers", "website": "https://pacopi-pizzeria.business.site", "website:menu": "https://www.leggimenu.it/menu/pacopi", "wheelchair": "limited"}}, {"type": "node", "id": 10809190521, "lat": 41.4658384, "lon": 12.8872069, "tags": {"addr:city": "Latina", "addr:housenumber": "39", "addr:postcode": "04100", "addr:street": "Via Londra", "air_conditioning": "yes", "amenity": "restaurant", "bar": "yes", "brewery": "yes", "check_date": "2023-04-13", "contact:facebook": "https://www.facebook.com/alprimopiano12", "contact:tripadvisor": "https://www.tripadvisor.it/Restaurant_Review-g194787-d3397070-Reviews-Al_Primo_Piano-Latina_Province_of_Latina_Lazio.html", "cuisine": "pizza;pasta;italian", "delivery": "yes", "internet_access": "wlan", "internet_access:fee": "no", "internet_access:ssid": "Ospiti-al primo piano", "level": "1", "microbrewery": "yes", "name": "Al Primo Piano", "opening_hours": "Mo,We-Su 19:30-24:00; Tu off", "outdoor_seating": "no", "payment:american_express": "yes", "payment:cash": "yes", "payment:coins": "yes", "payment:credit_cards": "yes", "payment:maestro": "yes", "payment:mastercard": "yes", "payment:nfc": "yes", "payment:visa": "yes", "phone": "+39 0773 605254", "reservation": "yes", "smoking": "outside", "stars": "3.5", "takeaway": "yes", "wheelchair": "yes"}}, {"type": "node", "id": 10837423057, "lat": 41.5487713, "lon": 12.9842823, "tags": {"amenity": "restaurant", "name": "Il Mulino"}}, {"type": "node", "id": 10861627355, "lat": 41.4551702, "lon": 12.8523861}, {"type": "node", "id": 10861627356, "lat": 41.4551747, "lon": 12.8523766}, {"type": "node", "id": 10861627357, "lat": 41.4551895, "lon": 12.8522254}, {"type": "node", "id": 10861627358, "lat": 41.4551973, "lon": 12.852232}, {"type": "node", "id": 10861627359, "lat": 41.4552945, "lon": 12.8523278}, {"type": "node", "id": 10861627360, "lat": 41.4552865, "lon": 12.8523212}, {"type": "node", "id": 10875076649, "lat": 41.5499822, "lon": 13.0402079}, {"type": "node", "id": 10875076650, "lat": 41.5498345, "lon": 13.0402361}, {"type": "node", "id": 10875076651, "lat": 41.5498488, "lon": 13.0403701}, {"type": "node", "id": 10875076652, "lat": 41.5498864, "lon": 13.040363}, {"type": "node", "id": 10875076653, "lat": 41.5498916, "lon": 13.0404115}, {"type": "node", "id": 10875076654, "lat": 41.5498737, "lon": 13.0404149}, {"type": "node", "id": 10875076655, "lat": 41.5498796, "lon": 13.0404709}, {"type": "node", "id": 10875076656, "lat": 41.5499024, "lon": 13.0404666}, {"type": "node", "id": 10875076657, "lat": 41.5499119, "lon": 13.0405555}, {"type": "node", "id": 10875076658, "lat": 41.5499633, "lon": 13.0405457}, {"type": "node", "id": 10875076659, "lat": 41.5499551, "lon": 13.0404688}, {"type": "node", "id": 10875076660, "lat": 41.5500156, "lon": 13.0404573}, {"type": "node", "id": 10875076661, "lat": 41.5500049, "lon": 13.0403566}, {"type": "node", "id": 10875076662, "lat": 41.5499714, "lon": 13.040363}, {"type": "node", "id": 10875076663, "lat": 41.5499594, "lon": 13.0402498}, {"type": "node", "id": 10875076664, "lat": 41.5499861, "lon": 13.0402448}, {"type": "node", "id": 10913825851, "lat": 41.5080154, "lon": 12.9443506, "tags": {"amenity": "cafe", "name": "Bar Remo"}}, {"type": "node", "id": 10929094185, "lat": 41.54066, "lon": 12.9493649, "tags": {"amenity": "restaurant", "cuisine": "pizza"}}, {"type": "node", "id": 10951464514, "lat": 41.4710829, "lon": 12.9026986, "tags": {"addr:city": "Latina", "addr:housenumber": "92", "addr:postcode": "04100", "addr:street": "Viale XVIII Dicembre", "amenity": "restaurant", "cuisine": "sushi", "mobile": "+39 370 1468187", "name": "YOU Sushi", "opening_hours": "Mo-Su 12:15-15:00,19:15-23:00", "phone": "+39 773 1497024"}}, {"type": "node", "id": 10976428788, "lat": 41.5015504, "lon": 12.9739685}, {"type": "node", "id": 10976428789, "lat": 41.5015453, "lon": 12.9740858}, {"type": "node", "id": 10976428790, "lat": 41.501374, "lon": 12.9740725}, {"type": "node", "id": 10976428791, "lat": 41.5013791, "lon": 12.9739553}, {"type": "node", "id": 10979321642, "lat": 41.4458741, "lon": 12.8799579, "tags": {"addr:housenumber": "5", "addr:street": "Largo Marcantonio Cesti", "air_conditioning": "yes", "amenity": "restaurant", "brewery": "yes", "check_date": "2023-06-15", "contact:facebook": "zodiacopizzaaltaglio", "contact:instagram": "zodiacopizzaaltaglio", "contact:tripadvisor": "https://tripadvisor.com/Restaurant_Review-g194787-d4340164-Reviews-Zodiaco_Pizza_al_Taglio-Latina_Province_of_Latina_Lazio.html", "cuisine": "pizza", "delivery": "yes", "email": "staff@zodiacopizzaaltaglio.it", "internet_access": "wlan", "internet_access:fee": "no", "level": "0", "name": "Zodiaco Pizza al taglio", "opening_hours": "18:00-22:30", "outdoor_seating": "no", "payment:american_express": "yes", "payment:bancomat": "yes", "payment:cash": "yes", "payment:coins": "yes", "payment:credit_cards": "yes", "payment:jcb": "yes", "payment:maestro": "yes", "payment:mastercard": "yes", "payment:nfc": "yes", "payment:v_pay": "yes", "payment:visa": "yes", "payment:visa_electron": "yes", "phone": "+39 0773 368404", "ref:vatin": "IT03008510590", "reservation": "yes", "smoking": "no", "stars": "4", "takeaway": "yes", "toilets": "no", "toilets:wheelchair": "no", "wheelchair": "yes"}}, {"type": "node", "id": 11002305506, "lat": 41.4557835, "lon": 12.9057305, "tags": {"addr:city": "Latina", "addr:housenumber": "90", "addr:postcode": "04100", "addr:street": "Via Isonzo", "amenity": "restaurant", "changing_table": "no", "cuisine": "indian", "delivery": "yes", "description": "Ristorante indiano di cucina tipica del Punjab", "diet:vegetarian": "yes", "email": "info@divicocktailbar.com", "highchair": "no", "level": "0", "microbrewery": "yes", "name": "Royal Panjab", "note": "il tag diet: vegetarian l'ho messo perch\u00e9 offre anche piatti vegetariani, non perch\u00e9 la cucina intera \u00e8 vegetariana", "opening_hours": "Tu-Su 12:00-15:00,19:00-23:00; Mo off", "outdoor_seating": "yes", "phone": "+39 327 059 0022", "reservation": "yes", "smoking": "no", "stars": "4", "takeaway": "yes", "toilets": "yes", "toilets:access": "customers", "toilets:wheelchair": "yes", "website": "https://www.royalpanjab.com", "wheelchair": "yes"}}, {"type": "node", "id": 11016537933, "lat": 41.4618439, "lon": 12.9109751, "tags": {"addr:city": "Latina", "addr:housenumber": "15", "addr:postcode": "04100", "addr:province": "LT", "addr:street": "Viale Michelangelo Buonarroti", "amenity": "restaurant", "contact:facebook": "https://www.facebook.com/MalatiPerLaPizza", "cuisine": "pizza", "delivery": "yes", "delivery:partner": "Just Eat;Deliveroo;Uber Eats", "description": "Pizza romana alla pala", "name": "Malati Per la Pizza", "opening_hours": "Mo off; Tu-Th 18:00-22:40; Fr-Su 18:00-23:00; PH off", "phone": "+39 388 945 1275", "stars": "4", "takeaway": "yes"}}, {"type": "node", "id": 11027795032, "lat": 41.4587079, "lon": 12.9050229, "tags": {"addr:city": "Latina", "addr:housenumber": "36", "addr:postcode": "04100", "addr:province": "LT", "addr:street": "Via Isonzo", "amenity": "restaurant", "changing_table": "yes", "changing_table:fee": "no", "contact:tripadvisor": "https://www.tripadvisor.it/Restaurant_Review-g194787-d4469391-Reviews-Ristorante_cinese_RUYI-Latina_Province_of_Latina_Lazio.html", "cuisine": "chinese;japanese;sushi", "delivery": "yes", "delivery:partner": "Glovo", "delivery:website": "https://www.ruyilatina.com/ordina-online", "facebook": "https://www.facebook.com/profile.php?id=100063552431845", "internet_access": "no", "name": "Ruyi", "opening_hours": "Mo-Su 11:00-15:00,18:00-23:00; PH closed", "outdoor_seating": "yes", "phone": "+39 0773 665878", "phone:delivery": "+39 328 656 0715", "phone:mobile": "+39 327 927 3119", "reservation": "yes", "smoking": "no", "stars": "5", "takeaway": "yes", "toilets": "yes", "toilets:access": "customers", "toilets:wheelchair": "designated", "website": "https://www.ruyilatina.com", "website:menu": "https://www.ruyilatina.com/menu", "wheelchair": "yes"}}, {"type": "node", "id": 11028353162, "lat": 41.4536262, "lon": 12.8721263, "tags": {"addr:postcode": "04100", "addr:street": "Piazzale Antonio Salieri", "amenity": "restaurant", "contact:facebook": "Pizzeria-da-Carmine-Il-Saltimbocca-100057039536444", "cuisine": "pizza", "name": "Il Saltimbocca - da Carmine", "opening_hours": "Tu-Su 17:00-22:00; Mo off", "phone": "+390773603299"}}, {"type": "node", "id": 11034148052, "lat": 41.471074, "lon": 12.8875088, "tags": {"amenity": "cafe", "name": "Bar Maril\u00f9"}}, {"type": "node", "id": 11041854853, "lat": 41.5396664, "lon": 12.953166, "tags": {"amenity": "cafe", "name": "Pausa Caff\u00e8"}}, {"type": "node", "id": 11051511740, "lat": 41.4660313, "lon": 12.9055301, "tags": {"addr:city": "Latina", "addr:housenumber": "49", "addr:postcode": "04100", "addr:province": "LT", "addr:street": "Piazza della Libert\u00e0", "amenity": "cafe", "cuisine": "coffee_shop;pastry;sandwich", "delivery": "yes", "dog": "yes", "drink:beer": "yes", "drink:cocktail": "yes", "drink:wine": "yes", "name": "Jolly Bar", "opening_hours": "Mo-Th 06:15-24:00; Fr 06:15-01:00; Sa 06:15-02:00; Su 06:45-24:00", "payment:credit_cards": "yes", "payment:debit_cards": "yes", "payment:nfc": "yes", "phone": "+39 0773 690905", "takeaway": "yes", "toilets": "yes", "wheelchair": "yes"}}, {"type": "node", "id": 11053718618, "lat": 41.4639657, "lon": 12.8875097, "tags": {"addr:city": "Latina", "addr:housenumber": "67", "addr:postcode": "04100", "addr:province": "LT", "addr:street": "Viale Le Corbusier", "amenity": "restaurant", "contact:facebook": "http://www.facebook.com/McGiggi", "cuisine": "pizza", "delivery": "yes", "drink:beer": "yes", "email": "speratiristorazione@gmail.com", "name": "McGiggi", "opening_hours": "Mo-Su 17:00-22:00", "outdoor_seating": "yes", "payment:credit_cards": "yes", "phone": "+39 0773 604546", "ref:vatin": "IT03181690599", "reservation": "yes", "stars": "3", "takeaway": "yes", "toilets": "no", "wheelchair": "yes"}}, {"type": "node", "id": 11069689730, "lat": 41.4698942, "lon": 12.9043304, "tags": {"addr:city": "Latina", "addr:housenumber": "21", "addr:postcode": "04100", "addr:province": "LT", "addr:street": "Via Neghelli", "amenity": "restaurant", "cuisine": "regional;burger;pasta", "delivery": "yes", "drink:beer": "yes", "drink:cocktail": "yes", "drink:wine": "yes", "email": "info@monsteria.it", "internet_access": "yes", "name": "Monsteria", "opening_hours": "Mo-Su 18:00-02:45; PH off", "outdoor_seating": "yes", "payment:credit_cards": "yes", "payment:debit_cards": "yes", "phone": "+39 0012 345 6789", "reservation": "yes", "stars": "4.2", "takeaway": "yes", "toilets": "yes", "toilets:access": "customers", "toilets:wheelchair": "yes", "website": "https://monsteria.it/", "wheelchair": "yes"}}, {"type": "node", "id": 11090965793, "lat": 41.4458197, "lon": 12.8789615, "tags": {"amenity": "cafe", "name": "Caffe Nascosa"}}, {"type": "node", "id": 11098847819, "lat": 41.4539424, "lon": 12.8714279, "tags": {"addr:street": "Largo Jacopo Peri", "amenity": "cafe", "internet_access": "no", "name": "Caff\u00e8 Paganini", "opening_hours": "We-Mo 05:00-20:30", "outdoor_seating": "yes", "phone": "+390773625302"}}, {"type": "node", "id": 11098944950, "lat": 41.4568437, "lon": 12.6677131}, {"type": "node", "id": 11098944951, "lat": 41.4568292, "lon": 12.6677924}, {"type": "node", "id": 11098944952, "lat": 41.4568437, "lon": 12.6677964}, {"type": "node", "id": 11098944953, "lat": 41.4568581, "lon": 12.6677873}, {"type": "node", "id": 11098944954, "lat": 41.456868, "lon": 12.667769}, {"type": "node", "id": 11098944955, "lat": 41.4568711, "lon": 12.6677497}, {"type": "node", "id": 11098944956, "lat": 41.4568635, "lon": 12.6677243}, {"type": "node", "id": 11098944957, "lat": 41.4568543, "lon": 12.6677161}, {"type": "node", "id": 11135529964, "lat": 41.4671951, "lon": 12.905171, "tags": {"amenity": "restaurant", "cuisine": "pizza"}}, {"type": "node", "id": 11139241826, "lat": 41.4712739, "lon": 12.901923, "tags": {"amenity": "cafe", "name": "Olim Palus", "opening_hours": "Mo-Sa 07:30-20:00", "phone": "+39 351 8772390"}}, {"type": "node", "id": 11139241827, "lat": 41.4716055, "lon": 12.9018667, "tags": {"addr:city": "Latina", "addr:housenumber": "32", "addr:postcode": "04100", "addr:street": "Via Carlo Armellini", "amenity": "restaurant", "name": "Cantone 7", "opening_hours": "Tu-Sa 18:30-01:00", "phone": "+39 328 1461337", "website": "https://www.cantone7.com/"}}, {"type": "node", "id": 11139241828, "lat": 41.4712237, "lon": 12.9015931, "tags": {"addr:city": "Latina", "addr:postcode": "04100", "addr:street": "Via Carlo Armellini", "amenity": "cafe", "contact:facebook": "https://www.facebook.com/grancaffearmellini", "name": "Gran Caff\u00e8 Armellini", "opening_hours": "Mo-Fr 05:00-19:00; Sa 05:00-13:00", "phone": "+39 0773 488769"}}, {"type": "node", "id": 11139241829, "lat": 41.4724376, "lon": 12.9028966, "tags": {"addr:city": "Latina", "addr:housenumber": "23", "addr:postcode": "04100", "addr:street": "Via Giuliano Carturan", "amenity": "cafe", "name": "Bar D'Ursi", "opening_hours": "Mo-We 06:00-20:00; Th-Sa 06:00-22:30; Su 06:00-22:30", "phone": "+39 0773 489521"}}, {"type": "node", "id": 11139241832, "lat": 41.4729018, "lon": 12.9028162, "tags": {"addr:city": "Latina", "addr:housenumber": "5", "addr:postcode": "04100", "addr:street": "Piazzale Giuliano Carturan", "amenity": "restaurant", "cuisine": "pizza;regional", "name": "Hosteria Pizzeria La Bonifica", "opening_hours": "Mo 12:00-14:30; Tu-Sa 12:00-14:30,20:00-23:00; Su 20:00-23:00", "phone": "+39 392 1998670"}}, {"type": "node", "id": 11139241834, "lat": 41.4703449, "lon": 12.9030268, "tags": {"addr:city": "Latina", "addr:housenumber": "90", "addr:postcode": "04100", "addr:street": "Corso della Repubblica", "amenity": "restaurant", "contact:facebook": "https://www.facebook.com/PepeNeroLatina/", "name": "Pepe Nero Latina", "opening_hours": "Tu-Sa 19:00-23:00; Su 12:00-14:30", "phone": "+39 0773 1494191"}}, {"type": "node", "id": 11139241835, "lat": 41.4705938, "lon": 12.9029696, "tags": {"addr:city": "Latina", "addr:housenumber": "82", "addr:postcode": "04100", "addr:street": "Corso della Repubblica", "amenity": "cafe", "name": "La Lucciola al centro", "opening_hours": "Mo-Fr 12:00-02:00; Sa 10:00-02:00; Su 17:00-02:00", "phone": "+39 347 9900952", "reservation": "recommended", "website": "https://www.lalucciolalatina.it/", "website:menu": "https://www.lalucciolalatina.it/il-nostro-menu/"}}, {"type": "node", "id": 11139241836, "lat": 41.4691609, "lon": 12.9040505, "tags": {"addr:city": "Latina", "addr:housenumber": "35", "addr:postcode": "04100", "addr:street": "Via Cesare Battisti", "amenity": "restaurant", "cuisine": "pizza", "name": "Hot Ice Pizza&Grill", "opening_hours": "Mo-Sa 10:00-02:00; Su 17:00-02:00", "phone": "+39 0773 488997", "website": "https://www.hoticepizzaegrill.com/", "website:menu": "https://www.hoticepizzaegrill.com/wp-content/uploads/2019/10/Hot-Ice-Men%C3%B9.pdf"}}, {"type": "node", "id": 11139241837, "lat": 41.4694714, "lon": 12.9041033, "tags": {"amenity": "restaurant", "name": "Forma Bistrot Latina"}}, {"type": "node", "id": 11139241843, "lat": 41.4698971, "lon": 12.9044673, "tags": {"amenity": "restaurant", "name": "Bivio"}}, {"type": "node", "id": 11139241844, "lat": 41.4699897, "lon": 12.9044902, "tags": {"amenity": "restaurant", "name": "Bancoventisei"}}, {"type": "node", "id": 11139241847, "lat": 41.4701836, "lon": 12.9046116, "tags": {"amenity": "restaurant", "name": "Good - Food&Drinks"}}, {"type": "node", "id": 11139241848, "lat": 41.4693771, "lon": 12.9044765, "tags": {"amenity": "restaurant", "name": "Pomodoro & Basilico di Donna Patrizia"}}, {"type": "node", "id": 11139241849, "lat": 41.4693256, "lon": 12.9046093, "tags": {"amenity": "restaurant", "cuisine": "pizza", "name": "Punto Pizza Contemporanea"}}, {"type": "node", "id": 11139241851, "lat": 41.4696769, "lon": 12.9041933, "tags": {"amenity": "restaurant", "name": "Drinkete&Sdranghete"}}, {"type": "node", "id": 11139241859, "lat": 41.471331, "lon": 12.9049686, "tags": {"amenity": "restaurant", "name": "Trattoria Sandalari"}}, {"type": "node", "id": 11148140168, "lat": 41.5466845, "lon": 13.0416724, "tags": {"amenity": "restaurant", "cuisine": "regional;italian", "name": "da Teresa"}}, {"type": "node", "id": 11158356731, "lat": 41.2884449, "lon": 13.2292416, "tags": {"addr:city": "Terracina", "addr:postcode": "04019", "amenity": "cafe", "name": "Sdribo"}}, {"type": "node", "id": 11178398779, "lat": 41.459755, "lon": 12.8887449, "tags": {"addr:city": "Latina", "addr:housenumber": "106", "addr:postcode": "04100", "addr:street": "Viale Pier Luigi Nervi", "amenity": "cafe", "name": "Caff\u00e8 Le Torri"}}, {"type": "node", "id": 11209972437, "lat": 41.2426044, "lon": 13.0948353, "tags": {"addr:street": "Viale Tommaso Tittoni", "amenity": "restaurant", "name": "Osteria dei cocci di mare"}}, {"type": "node", "id": 11235916798, "lat": 41.297432, "lon": 13.2421412, "tags": {"amenity": "cafe", "name": "Bar Dopolavoro ferroviario"}}, {"type": "node", "id": 11273587530, "lat": 41.2953802, "lon": 13.033311, "tags": {"addr:city": "Sabaudia", "addr:housenumber": "1f", "addr:street": "Via Duca del Mare", "amenity": "restaurant", "cuisine": "pizza", "name": "Pizza Italia"}}, {"type": "node", "id": 11330686311, "lat": 41.5502796, "lon": 13.0312572, "tags": {"amenity": "restaurant", "cuisine": "italian", "name": "Il torrione"}}, {"type": "node", "id": 11384009983, "lat": 41.4559294, "lon": 12.9100733, "tags": {"amenity": "cafe", "name": "Bar Mir\u00f2"}}, {"type": "node", "id": 11423762586, "lat": 41.4104119, "lon": 12.9784899}, {"type": "node", "id": 11423762587, "lat": 41.4101849, "lon": 12.9788456}, {"type": "node", "id": 11423762588, "lat": 41.4100814, "lon": 12.9787252}, {"type": "node", "id": 11423762589, "lat": 41.4103163, "lon": 12.9783766}, {"type": "node", "id": 11447096602, "lat": 41.4715524, "lon": 12.8922893, "tags": {"addr:city": "Latina", "addr:housenumber": "16/18", "addr:postcode": "04100", "addr:province": "LT", "addr:street": "Via Carlo Romagnoli", "amenity": "restaurant", "cuisine": "pizza", "name": "Pizzeria Da Claudia", "outdoor_seating": "yes", "phone": "+39 0773 662021", "takeaway": "yes"}}, {"type": "node", "id": 11483183198, "lat": 41.4755191, "lon": 12.9128048, "tags": {"amenity": "cafe", "name": "Bar Pasquale"}}, {"type": "node", "id": 11540334405, "lat": 41.3075948, "lon": 13.0036429}, {"type": "node", "id": 11540334406, "lat": 41.3075207, "lon": 13.0036924}, {"type": "node", "id": 11540334407, "lat": 41.3074917, "lon": 13.0036155}, {"type": "node", "id": 11554471905, "lat": 41.2698633, "lon": 13.1442922}, {"type": "node", "id": 11554471906, "lat": 41.269791, "lon": 13.1443573}, {"type": "node", "id": 11554471907, "lat": 41.2698086, "lon": 13.1443919}, {"type": "node", "id": 11554471908, "lat": 41.2697511, "lon": 13.1444437}, {"type": "node", "id": 11554471909, "lat": 41.2698662, "lon": 13.14467}, {"type": "node", "id": 11554471910, "lat": 41.2697872, "lon": 13.1447411}, {"type": "node", "id": 11554471911, "lat": 41.269765, "lon": 13.1446975}, {"type": "node", "id": 11554471912, "lat": 41.2697269, "lon": 13.1447318}, {"type": "node", "id": 11554471913, "lat": 41.2695661, "lon": 13.1444155}, {"type": "node", "id": 11554471914, "lat": 41.2697404, "lon": 13.1442586}, {"type": "node", "id": 11554471915, "lat": 41.2697246, "lon": 13.1442276}, {"type": "node", "id": 11566834045, "lat": 41.2568141, "lon": 13.0633837}, {"type": "node", "id": 11566834046, "lat": 41.25662, "lon": 13.0634239}, {"type": "node", "id": 11566834047, "lat": 41.2566062, "lon": 13.0633062}, {"type": "node", "id": 11583017716, "lat": 41.5831856, "lon": 12.9727237, "tags": {"amenity": "restaurant", "name": "Locanda \"Da Valentino\""}}, {"type": "node", "id": 11583017721, "lat": 41.5840422, "lon": 12.972248, "tags": {"amenity": "cafe", "name": "Caff\u00e8 del Corso"}}, {"type": "node", "id": 11661419996, "lat": 41.4666583, "lon": 12.9039608, "tags": {"amenity": "cafe", "brand": "Caff\u00e8 Pascucci", "brand:wikidata": "Q5017191", "cuisine": "coffee_shop", "name": "Caff\u00e8 Pascucci", "takeaway": "yes"}}, {"type": "node", "id": 11661420007, "lat": 41.4664656, "lon": 12.9050696, "tags": {"amenity": "cafe", "name": "Caff\u00e8 degli Artisti"}}, {"type": "node", "id": 11661537892, "lat": 41.4658685, "lon": 12.9032162, "tags": {"amenity": "cafe", "name": "Bar Turirizzo"}}, {"type": "node", "id": 11661537921, "lat": 41.4669754, "lon": 12.9026854, "tags": {"amenity": "cafe", "name": "NAD Caff\u00e8 & Bistrot Latina"}}, {"type": "node", "id": 11751022019, "lat": 41.2886027, "lon": 13.2498845, "tags": {"addr:city": "Terracina", "addr:housenumber": "12", "addr:postcode": "04019", "addr:street": "Viale della Vittoria", "amenity": "cafe", "name": "Somma", "official_name": "Caff\u00e8 Somma", "outdoor_seating": "yes", "ref:vatin": "IT03194400598", "shop": "pastry"}}, {"type": "node", "id": 11756707878, "lat": 41.5500926, "lon": 13.0335335, "tags": {"addr:housenumber": "15", "amenity": "cafe", "cuisine": "ice_cream", "name": "Gelateria Belvedere", "ref:vatin": "IT03220860591"}}, {"type": "node", "id": 11757844226, "lat": 41.5848782, "lon": 12.9715113, "tags": {"addr:city": "Norma", "addr:postcode": "04010", "addr:street": "Via del Corso", "amenity": "cafe", "name": "Bar Gelateria 2000 da Carlo e Paola", "outdoor_seating": "yes"}}, {"type": "node", "id": 11775291285, "lat": 41.4588508, "lon": 12.666845, "tags": {"amenity": "cafe", "indoor_seating": "yes", "name": "Ignazio", "outdoor_seating": "yes"}}, {"type": "node", "id": 11775303526, "lat": 41.4587391, "lon": 12.6573235, "tags": {"amenity": "restaurant"}}, {"type": "node", "id": 11854008113, "lat": 41.4587242, "lon": 12.6621591, "tags": {"addr:city": "Nettuno", "addr:postcode": "00048", "amenity": "cafe", "name": "Colombo"}}, {"type": "node", "id": 11854008128, "lat": 41.4590512, "lon": 12.6646477}, {"type": "node", "id": 11854008129, "lat": 41.4590686, "lon": 12.6647569}, {"type": "node", "id": 11854008130, "lat": 41.4590027, "lon": 12.6647806}, {"type": "node", "id": 11854008131, "lat": 41.4590024, "lon": 12.6646502}, {"type": "node", "id": 11927978120, "lat": 41.4658953, "lon": 12.9051439, "tags": {"addr:city": "Latina", "addr:housenumber": "38", "addr:postcode": "04100", "addr:street": "Via Eugenio di Savoia", "amenity": "restaurant", "cuisine": "italian", "delivery": "yes", "name": "Pasta la Forza", "opening_hours": "Mo-Su 12:00-15:00 19:00-22:00", "ref:vatin": "02856080599", "takeaway": "yes", "website": "https://pastalaforza.it/", "website:menu": "https://pastalaforza.it/wp-content/uploads/2024/02/PastaLaForza_menu_02-24.pdf"}}, {"type": "node", "id": 12033611040, "lat": 41.2697972, "lon": 13.1441623}, {"type": "node", "id": 12055524206, "lat": 41.4685758, "lon": 12.9151795, "tags": {"amenity": "restaurant", "cuisine": "pizza", "name": "Testa o Croce"}}, {"type": "node", "id": 12093733764, "lat": 41.3937527, "lon": 13.1968234}, {"type": "node", "id": 12093733765, "lat": 41.3937731, "lon": 13.1968343}, {"type": "node", "id": 12093733766, "lat": 41.3935568, "lon": 13.1969883}, {"type": "node", "id": 12093733767, "lat": 41.3935279, "lon": 13.1969729}, {"type": "node", "id": 12093733768, "lat": 41.3935538, "lon": 13.1968865}, {"type": "node", "id": 12093733769, "lat": 41.3935108, "lon": 13.1968636}, {"type": "node", "id": 12093736839, "lat": 41.3884128, "lon": 13.1970299, "tags": {"amenity": "restaurant", "name": "Il Sogno", "takeaway": "yes"}}, {"type": "node", "id": 12128524274, "lat": 41.4714936, "lon": 13.178558, "tags": {"addr:city": "Priverno", "addr:housenumber": "101", "addr:postcode": "04015", "addr:street": "Via Giacomo Matteotti", "air_conditioning": "no", "amenity": "restaurant", "bar": "no", "brewery": "various", "check_date": "2024-08-22", "contact:facebook": "https://www.facebook.com/pizzeriadellapasseggiata/", "contact:instagram": "https://www.instagram.com/pizzeria_dellapasseggiata", "contact:tripadvisor": "https://www.tripadvisor.it/Restaurant_Review-g1803778-d8326164-Reviews-Pizzeria_Della_Passeggiata-Priverno_Province_of_Latina_Lazio.html", "cuisine": "pizza", "internet_access": "no", "name": "Pizzeria della passeggiata", "opening_hours": "Mo,Th-Su 16:00-24:00; Tu off; We 08:00-13:00,16:00-24:00", "outdoor_seating": "yes", "payment:cash": "yes", "payment:coins": "yes", "payment:credit_cards": "yes", "payment:debit_cards": "yes", "phone": "+39 0773 902865", "reservation": "yes", "takeaway": "yes", "toilets": "yes", "toilets:wheelchair": "yes", "wheelchair": "limited"}}, {"type": "node", "id": 12131334705, "lat": 41.4101198, "lon": 13.0373674, "tags": {"amenity": "restaurant", "cuisine": "pizza;italian", "name": "Ristorante Pizzeria Braceria Da Marcello"}}, {"type": "node", "id": 12146891662, "lat": 41.4690823, "lon": 12.9157041, "tags": {"amenity": "cafe"}}, {"type": "node", "id": 12155861193, "lat": 41.3021299, "lon": 13.0270183, "tags": {"addr:city": "Sabaudia", "addr:housenumber": "19-21-23", "addr:postcode": "04016", "addr:street": "Piazza Guglielmo Oberdan", "amenity": "restaurant", "cuisine": "regional", "name": "Sorsi e morsi"}}, {"type": "node", "id": 12155861198, "lat": 41.3165786, "lon": 13.0360162, "tags": {"amenity": "restaurant", "name": "Buccia", "website": "https://bucciatrattoria.superbexperience.com/"}}, {"type": "node", "id": 12155939575, "lat": 41.3066508, "lon": 13.0117944, "tags": {"addr:city": "Sabaudia", "addr:housenumber": "30-42", "addr:postcode": "04016", "addr:street": "Via Caterattino", "amenity": "restaurant", "name": "Risto-Bar Caterattino 34"}}, {"type": "node", "id": 12158074658, "lat": 41.4579757, "lon": 12.6587322, "tags": {"amenity": "restaurant", "name": "da Teresa Ristopescheria"}}, {"type": "node", "id": 12158131753, "lat": 41.457982, "lon": 12.658842, "tags": {"amenity": "cafe", "name": "Amaro"}}, {"type": "node", "id": 12158273978, "lat": 41.4568959, "lon": 12.6584598, "tags": {"amenity": "restaurant", "name": "Taverna Nettuno"}}, {"type": "node", "id": 12162395375, "lat": 41.4566839, "lon": 12.6616271, "tags": {"amenity": "restaurant", "check_date:opening_hours": "2024-09-07", "cuisine": "pizza", "name:signed": "no", "opening_hours:signed": "no"}}, {"type": "node", "id": 12162447895, "lat": 41.4567537, "lon": 12.6622044, "tags": {"amenity": "cafe", "name": "Soft Gelateria Bar"}}, {"type": "node", "id": 12305508513, "lat": 41.5072155, "lon": 12.9457462, "tags": {"amenity": "cafe", "outdoor_seating": "yes", "wheelchair": "yes"}}, {"type": "node", "id": 12442117940, "lat": 41.2491621, "lon": 13.0928396, "tags": {"amenity": "cafe", "name": "Caff\u00e8 85"}}, {"type": "node", "id": 12444696386, "lat": 41.4319173, "lon": 13.1993334}, {"type": "node", "id": 12585016709, "lat": 41.458513, "lon": 12.8889723, "tags": {"addr:city": "Latina", "addr:housenumber": "144", "addr:postcode": "04100", "addr:street": "Viale Pier Luigi Nervi", "amenity": "cafe", "name": "Bar", "outdoor_seating": "yes"}}, {"type": "node", "id": 12585016711, "lat": 41.4662111, "lon": 12.8932227, "tags": {"addr:city": "Latina", "addr:housenumber": "24", "addr:postcode": "04100", "addr:street": "Via Ufente", "amenity": "cafe", "name": "Caff\u00e8 la Torre"}}, {"type": "node", "id": 12588198027, "lat": 41.5504223, "lon": 13.0428491, "tags": {"addr:city": "Bassiano", "addr:postcode": "04010", "addr:street": "Via delle Cornette", "amenity": "restaurant", "cuisine": "pizza; mediterranean", "name": "Baita Gabi", "phone": "+39 320 217 1258"}}, {"type": "node", "id": 12593197511, "lat": 41.4635796, "lon": 12.904206, "tags": {"addr:city": "Latina", "addr:housenumber": "234", "addr:postcode": "04100", "addr:street": "Corso Della Repubblica", "amenity": "cafe", "name": "Gr8"}}, {"type": "node", "id": 12713896206, "lat": 41.4670893, "lon": 12.8952696, "tags": {"amenity": "cafe", "name": "Bar Massimo"}}, {"type": "node", "id": 12782201989, "lat": 41.3155447, "lon": 13.0004612, "tags": {"amenity": "restaurant", "cuisine": "italian;pizza", "name": "Pizzaria formo a legna"}}, {"type": "node", "id": 12846571289, "lat": 41.545687, "lon": 12.9811744, "tags": {"addr:city": "Sermoneta", "addr:country": "IT", "addr:housenumber": "13", "addr:postcode": "04013", "addr:street": "Via Romana Vecchia", "amenity": "restaurant", "contact:facebook": "https://www.facebook.com/RistoranteAllanticaPosta", "contact:instagram": "https://www.instagram.com/anticaposta2014", "cuisine": "italian", "mobile": "+39 348 2653542", "name": "All'antica posta"}}, {"type": "node", "id": 12858708739, "lat": 41.2931446, "lon": 13.2467353, "tags": {"amenity": "restaurant", "cuisine": "seafood", "name": "Cappero Matto", "outdoor_seating": "yes"}}, {"type": "node", "id": 12858977209, "lat": 41.2923833, "lon": 13.2476909, "tags": {"amenity": "restaurant", "name": "Indigo ciccia e cantina"}}, {"type": "way", "id": 78180966, "nodes": [918344525, 918344503, 918344520, 918344527, 918344438, 918344454, 918344470, 918344476, 918344493, 918344529, 918344445, 918344447, 918344452, 918344477, 918344496, 918344505, 918344523, 918344448, 918344525], "tags": {"amenity": "restaurant", "building": "yes", "cuisine": "regional", "name": "Prato di Coppola"}}, {"type": "way", "id": 81380370, "nodes": [763334394, 948321667, 948321619, 948321679, 948321631, 948321689, 948321660, 948321611, 948321671, 948321624, 948321685, 948321637, 948321693, 948321647, 763334394], "tags": {"amenity": "restaurant", "building": "yes", "cuisine": "regional", "name": "Arcobaleno"}}, {"type": "way", "id": 82237263, "nodes": [613573889, 957475775, 957475946, 957475789, 613573889], "tags": {"amenity": "restaurant", "building": "yes", "cuisine": "pizza", "name": "L'Archetto"}}, {"type": "way", "id": 103882569, "nodes": [1199140718, 1199140720, 1199140700, 1199140759, 1199140718], "tags": {"amenity": "restaurant", "building": "yes", "name": "Parco Vesuvio"}}, {"type": "way", "id": 111787662, "nodes": [1272840317, 1272840069, 1272840414, 1272840647, 1272840317], "tags": {"amenity": "cafe", "building": "shelter", "name": "Oasi Verde Bar"}}, {"type": "way", "id": 133794374, "nodes": [1472536506, 1472536504, 1472536503, 1472536505, 1472536506], "tags": {"amenity": "restaurant", "building": "yes", "cuisine": "regional", "name": "Il Laghetto"}}, {"type": "way", "id": 134949922, "nodes": [1482721003, 1482720999, 1482720996, 1482720998, 1482721003], "tags": {"amenity": "restaurant", "building": "yes", "building:levels": "1", "contact:facebook": "https://www.facebook.com/profile.php?id=100057604622583", "contact:instagram": "https://www.instagram.com/ristorantelataparita", "cuisine": "regional", "mobile": "+39 334 8216745", "name": "La taparita"}}, {"type": "way", "id": 135222542, "nodes": [1485192461, 1485192457, 1485192465, 1485192472, 1485192461], "tags": {"amenity": "restaurant", "building": "yes", "name": "Il Castagno"}}, {"type": "way", "id": 135222547, "nodes": [1485192367, 1485192363, 1485192364, 1485192368, 1485192367], "tags": {"addr:city": "Bassiano", "addr:postcode": "04010", "addr:street": "Via delle Cornette", "amenity": "restaurant", "building": "yes", "cuisine": "pizza; mediterranean", "name": "Baita Gabi", "phone": "+39 320 217 1258"}}, {"type": "way", "id": 135222595, "nodes": [1485192383, 1485192384, 1485192376, 1485192375, 1485192383], "tags": {"amenity": "restaurant", "building": "yes", "name": "La Quercia"}}, {"type": "way", "id": 135338881, "nodes": [1486414353, 1486414355, 1486414347, 1486414346, 1486414353], "tags": {"amenity": "restaurant", "building": "yes", "name": "La curva"}}, {"type": "way", "id": 136493746, "nodes": [1497228757, 1497228753, 1497228755, 1497228760, 1497228757], "tags": {"amenity": "restaurant", "building": "yes", "name": "Il Leone d'Oro", "opening_hours": "Mo-Su; Tu off"}}, {"type": "way", "id": 137728957, "nodes": [1510384885, 1510384880, 1510384939, 1510384943, 1510384885], "tags": {"amenity": "cafe", "building": "yes"}}, {"type": "way", "id": 139531973, "nodes": [1529542846, 1529542842, 1529542881, 1529542886, 1529542878, 1454659505, 1529542846], "tags": {"amenity": "restaurant", "building": "yes", "cuisine": "regional", "name": "Regina Camilla"}}, {"type": "way", "id": 180014881, "nodes": [1904524609, 9863811089, 9863811088, 1904524608, 1904524586, 1904524588, 1904524609], "tags": {"amenity": "restaurant", "building": "yes", "name": "Ristorante La Tettoia", "ref:vatin": "IT00983230590", "website": "http://www.ristorantelatettoia.eu"}}, {"type": "way", "id": 181425460, "nodes": [1918558243, 1918558239, 1918558231, 1918558225, 1918558221, 1918558236, 1919587218, 1919587740, 1918558242, 1918558243], "tags": {"amenity": "restaurant", "building": "yes", "layer": "-1"}}, {"type": "way", "id": 181616097, "nodes": [1920273707, 1920273708, 1920273704, 1920273702, 1920273707], "tags": {"amenity": "cafe", "building": "yes"}}, {"type": "way", "id": 185150034, "nodes": [1957230145, 1957230142, 1957230141, 1957230144, 1957230145], "tags": {"amenity": "cafe", "building": "commercial"}}, {"type": "way", "id": 185155350, "nodes": [1957247066, 1957247059, 1957247053, 1957247065, 1957247066], "tags": {"amenity": "cafe", "building": "commercial"}}, {"type": "way", "id": 195395369, "nodes": [2058409566, 2058426343, 2058409565, 2058409567, 2058409568, 2058409572, 2058409571, 2058409570, 2058409569, 2058409566], "tags": {"addr:city": "Terracina", "addr:housenumber": "116", "addr:postcode": "04019", "addr:street": "Viale Circe", "amenity": "restaurant", "building": "yes", "contact:facebook": "Centosedici", "contact:instagram": "https://instagram.com/explore/locations/3153447/centosedici-ristorante-pizzeria-hotel", "cuisine": "italian;pizza;seafood", "name": "Centosedici", "phone": "+39 0773 764110", "ref:vatin": "IT02205740596", "tourism": "hotel", "website": "https://www.centosedici.it"}}, {"type": "way", "id": 207617378, "nodes": [2178701907, 2178701909, 2178701902, 2178701897, 2178701907], "tags": {"amenity": "restaurant", "cuisine": "pizza", "name": "Pizzeria la Valle"}}, {"type": "way", "id": 220505627, "nodes": [2296193094, 2296193088, 2296193068, 2296193080, 2296193094], "tags": {"addr:street": "Strada Regionale dei Monti Lepini", "amenity": "cafe", "building": "yes"}}, {"type": "way", "id": 220814260, "nodes": [2299016101, 2299016108, 2299016106, 2299016100, 2299016101], "tags": {"amenity": "cafe", "barrier": "fence", "craft": "confectionery", "name": "Punto Dolce", "phone": "+39 0773 765222", "ref:vatin": "IT01747750592"}}, {"type": "way", "id": 222283462, "nodes": [2312665352, 2312665350, 2312665351, 2312665354, 2312665352], "tags": {"amenity": "cafe", "building": "commercial", "name": "RistoCaf\u00e8"}}, {"type": "way", "id": 222286732, "nodes": [2312707587, 2312707590, 2312707591, 2312707593, 2312707592, 2312707589, 2312707588, 2312707587], "tags": {"amenity": "restaurant", "name": "Corona", "phone": "+39 0773 755223", "ref:vatin": "IT02050920590", "tourism": "hotel", "website": "http://www.albergoristorantecorona.it"}}, {"type": "way", "id": 222293234, "nodes": [2312747604, 2312747599, 2312747602, 2312747598, 2312747603, 2312747605, 2312747609, 2312747614, 2312747613, 2312747615, 2312747612, 2312747610, 2312747607, 2312747604], "tags": {"amenity": "cafe", "building": "yes"}}, {"type": "way", "id": 224860061, "nodes": [2337091735, 2337091758, 2337091767, 2337091734, 2337091735], "tags": {"amenity": "restaurant", "building": "yes", "name": "E20"}}, {"type": "way", "id": 230100595, "nodes": [2386307387, 2386307382, 2386307381, 2386307385, 2386307384, 2386307388, 2386307389, 2386307386, 2386307387], "tags": {"amenity": "cafe", "building": "commercial"}}, {"type": "way", "id": 238738812, "nodes": [2465376739, 2465376800, 2465376742, 2465376802, 2465376739], "tags": {"amenity": "cafe", "building": "yes", "internet_access": "yes", "name": "Bar Tabacchi P3", "shop": "tobacco", "smoking": "outside"}}, {"type": "way", "id": 239183986, "nodes": [2469946560, 2469958923, 2469958913, 2469958895, 2469958857, 2469958929, 2469946585, 2469946560], "tags": {"amenity": "cafe", "building": "yes", "name": "Caff\u00e8 del Centro"}}, {"type": "way", "id": 239189549, "nodes": [2470012080, 2470012077, 2470012074, 2470012068, 2470012080], "tags": {"amenity": "restaurant", "building": "yes", "name": "Grifone"}}, {"type": "way", "id": 239190414, "nodes": [2470020251, 2470020227, 2470020266, 2470020278, 2470020251], "tags": {"amenity": "restaurant", "building": "yes"}}, {"type": "way", "id": 239432837, "nodes": [2472099916, 2472099910, 2472099921, 2472099923, 2472099916], "tags": {"amenity": "restaurant", "building": "yes", "name": "Villa Patrizia"}}, {"type": "way", "id": 239852124, "nodes": [2476358114, 2476358101, 2476358095, 2476358081, 2476358086, 2476358089, 2476358092, 2476358105, 2476358117, 2476369901, 2476358111, 2476358108, 2476358114], "tags": {"amenity": "restaurant", "cuisine": "pizza", "name": "Il Faraone", "note": "check if all of this should be tagged for the restaurant", "phone": "+39 0773 88280", "ref:vatin": "IT01096070592", "website": "http://www.ristorantefaraone.it"}}, {"type": "way", "id": 240494916, "nodes": [2482243129, 2482243131, 2482243130, 2482243128, 9212352434, 2482243129], "tags": {"amenity": "restaurant", "building": "yes", "cuisine": "pizza", "name": "Il Distretto"}}, {"type": "way", "id": 240774916, "nodes": [2484774009, 2484774031, 2484774046, 2484774051, 2484774009], "tags": {"amenity": "cafe", "building": "yes"}}, {"type": "way", "id": 241250230, "nodes": [2489413320, 2489413316, 2489413351, 2489413271, 2489413335, 2489413234, 2489413320], "tags": {"amenity": "cafe", "building": "yes"}}, {"type": "way", "id": 241468728, "nodes": [2490954711, 2490954706, 2490954722, 2490954733, 2490954720, 2490954770, 2490954729, 2490954715, 2490954711], "tags": {"amenity": "restaurant", "building": "yes", "name": "Il Ritrovo"}}, {"type": "way", "id": 242480663, "nodes": [2499414636, 2499414645, 2499414702, 2499414678, 2499414617, 2499414622, 2499414660, 2499414665, 2499414715, 2499414658, 2499414668, 2499414633, 2499414636], "tags": {"addr:city": "Latina", "addr:postcode": "04100", "addr:street": "Strada della Chiesuola", "amenity": "restaurant", "building": "yes", "contact:facebook": "https://www.facebook.com/risto.fogolar/", "cuisine": "regional", "name": "Al Fogolar", "opening_hours": "Mo-Sa 12:00-15:00, 19:30-23:30; Tu off", "phone": "+39 0773 691698"}}, {"type": "way", "id": 242693095, "nodes": [2501493099, 2501493016, 2501493049, 2501493066, 2501493099], "tags": {"amenity": "cafe", "building": "yes", "name": "Bar Tabacchi"}}, {"type": "way", "id": 244668588, "nodes": [2519622836, 2519622824, 2519622823, 2519622829, 2519622834, 2519622836], "tags": {"amenity": "restaurant", "barrier": "fence", "contact:facebook": "https://www.facebook.com/pages/Ristorante-Cookit/186508991387675", "contact:phone": "+39 0773 268733", "cuisine": "pizza", "name": "Cook.it"}}, {"type": "way", "id": 245068851, "nodes": [2523227337, 2523227470, 2523227462, 2523227464, 2523227399, 2523224330, 2523224365, 2523224356, 2523227337], "tags": {"amenity": "restaurant", "building": "yes", "name": "Il Tempio del Gusto"}}, {"type": "way", "id": 245069184, "nodes": [2523231671, 2523231659, 2523231696, 2523231725, 2523231694, 2523231658, 2523231672, 2523231731, 2523231671], "tags": {"amenity": "restaurant", "brand": "Old Wild West", "brand:wikidata": "Q25402475", "brand:wikipedia": "it:Old Wild West", "building": "retail", "cuisine": "american", "name": "Old Wild West"}}, {"type": "way", "id": 245316333, "nodes": [2525350048, 2525350049, 2525350050, 2525350047, 2525350048], "tags": {"addr:housenumber": "25", "addr:street": "Via Sezze", "amenity": "cafe", "bar": "yes", "building": "yes", "check_date": "2022-12-15", "contact:facebook": "https://www.facebook.com/evergreenristoparco", "cuisine": "coffee_shop;pasta;pizza;burger", "email": "evergreenristoparco@gmail.com", "name": "Ever Green", "outdoor_seating": "yes", "takeaway": "yes", "wheelchair": "yes"}}, {"type": "way", "id": 251522473, "nodes": [2577326138, 2577326108, 2577326146, 2577326140, 2577326125, 2577326115, 2577326121, 2577326117, 2577326124, 2577326112, 2577326130, 2577326134, 2577326138], "tags": {"amenity": "restaurant", "name": "Ristorante Sciampagna", "phone": "+39 0773 850145;+39 320 9315758"}}, {"type": "way", "id": 251528340, "nodes": [2577373365, 2577373360, 2577373358, 2577373362, 2577373365], "tags": {"amenity": "cafe", "building": "yes"}}, {"type": "way", "id": 254813384, "nodes": [2606106924, 2606106933, 2606106930, 2606106936, 2606106934, 2606106924], "tags": {"amenity": "cafe", "building": "yes", "name": "Bar Peppino"}}, {"type": "way", "id": 256188773, "nodes": [2618739818, 2618739859, 2618739805, 2618739815, 2618739868, 2618739823, 2618739807, 2618739818], "tags": {"amenity": "restaurant", "building": "yes", "name": "Torre Astura"}}, {"type": "way", "id": 266390563, "nodes": [2719516065, 2719516067, 2719516070, 2719516073, 2719516072, 2719516071, 2719516069, 2719516066, 2719516065], "tags": {"amenity": "restaurant", "cuisine": "pizza", "phone": "+39 0773 703001", "ref:vatin": "IT01399650595", "tourism": "guest_house", "website": "http://www.beb-ceraunavolta.com"}}, {"type": "way", "id": 306248826, "nodes": [3111002556, 3111002557, 3111002558, 3111002559, 3111002556], "tags": {"addr:city": "Terracina", "addr:street": "Viale Circe", "amenity": "restaurant", "building": "yes", "cuisine": "italian", "name": "Le Onde", "smoking": "outside"}}, {"type": "way", "id": 337788736, "nodes": [3448454928, 3448454925, 3448454930, 3448454926, 3448454934, 3448454933, 3448454931, 3448454927, 3448454928], "tags": {"amenity": "restaurant", "building": "yes", "name": "Villa Zani"}}, {"type": "way", "id": 474635392, "nodes": [4685458589, 4685458087, 4685458067, 4685458078, 4685458076, 4685458074, 4685458072, 4685458069, 4685458080, 4685458596, 4685458599, 4685458065, 4685458595, 4685458589], "tags": {"amenity": "restaurant", "building": "yes", "name": "Ristorante La Prateria"}}, {"type": "way", "id": 474635394, "nodes": [4685458592, 4685458597, 4685458589, 4685458595, 4685458065, 4685458598, 4685458088, 4685458070, 4685458086, 4685458084, 4685458082, 4685458071, 4685458591, 4685458592], "tags": {"amenity": "restaurant", "building": "yes", "name": "Ristorante Pizzeria La Cascina"}}, {"type": "way", "id": 477124533, "nodes": [3892090226, 4705223250, 4705223251, 3892090223, 3892090226], "tags": {"amenity": "restaurant", "building": "yes", "cuisine": "pizza", "name": "Ricomincio da Tre"}}, {"type": "way", "id": 481190214, "nodes": [4741278533, 4741278549, 4741278532, 4741278537, 4741278533], "tags": {"amenity": "cafe", "building": "yes"}}, {"type": "way", "id": 488462752, "nodes": [4807585510, 4807585511, 10861627359, 10861627360, 4807585509, 10861627355, 10861627356, 4807585508, 10861627357, 10861627358, 4807585510], "tags": {"amenity": "restaurant", "building": "yes", "name": "Romeo's Village"}}, {"type": "way", "id": 503094354, "nodes": [4934373716, 4934373717, 4934373718, 4934373719, 4934373720, 4934373821, 4934373822, 4934373823, 4934373824, 4934373825, 4934373716], "tags": {"amenity": "restaurant", "building": "yes", "name": "Il Casale Del Generale"}}, {"type": "way", "id": 503094356, "nodes": [4934373831, 4934373832, 4934373833, 4934373834, 4934373831], "tags": {"amenity": "restaurant", "building": "yes", "cuisine": "pizza", "name": "Ristorante Pizzeria Nardoni", "restaurant:type:it": "ristorante;pizzeria"}}, {"type": "way", "id": 503094357, "nodes": [4934373835, 4934373836, 4934373837, 4934373838, 4934373835], "tags": {"amenity": "restaurant", "building": "yes", "name": "Agriturismo Morgante"}}, {"type": "way", "id": 505587711, "nodes": [4954842357, 4954842350, 4954842355, 4954842348, 4954842357], "tags": {"amenity": "restaurant", "building": "yes", "name": "Al Parco"}}, {"type": "way", "id": 527494390, "nodes": [5128093024, 5128093026, 5128093028, 5128093025, 5128093024], "tags": {"amenity": "cafe", "building": "yes", "check_date": "2023-04-10", "image": "https://i.ibb.co/SPvz49W/IMG-20230410-205228.jpg", "level": "1", "name": "Caff\u00e8llatte"}}, {"type": "way", "id": 530312199, "nodes": [5149809812, 5149809802, 5149809803, 5149809805, 5149809804, 5149809806, 5149809811, 5149809808, 5149809807, 5149809809, 5149809812], "tags": {"amenity": "cafe", "building": "yes", "name": "Bar Ennio"}}, {"type": "way", "id": 539252554, "nodes": [5218273861, 5218273855, 5218273852]}, {"type": "way", "id": 539252558, "nodes": [5218273867, 5218273861]}, {"type": "way", "id": 539253330, "nodes": [5218273851, 5218273853, 5218273867]}, {"type": "way", "id": 539253331, "nodes": [5218273852, 5218273851]}, {"type": "way", "id": 543078926, "nodes": [5250201404, 5250201390, 5250201397, 5250201399, 5250201389, 5250201404], "tags": {"amenity": "restaurant", "building": "yes", "name": "Albatros"}}, {"type": "way", "id": 616236250, "nodes": [5826487880, 5826487881, 5826487882, 5826487883, 5826487884, 5826487885, 5826487886, 5826487868, 5826487869, 5826487872, 5826487873, 5826487874, 5826487875, 5826487876, 5826487877, 5826487878, 5826487879, 5826487870, 5826487871, 5826487880], "tags": {"amenity": "cafe", "building": "yes", "name": "Caff\u00e8 del Pescatore"}}, {"type": "way", "id": 616640468, "nodes": [5829703543, 5829703546, 5829703545, 5829703547, 5829703543], "tags": {"amenity": "restaurant", "building": "yes", "name": "Bar Trattoria Carano Garibaldi"}}, {"type": "way", "id": 616641804, "nodes": [5829715238, 5829715240, 5829715241, 5829715239, 5829715238], "tags": {"amenity": "restaurant", "building": "yes", "name": "A Casa di Peppe"}}, {"type": "way", "id": 633347254, "nodes": [5978651109, 5978651106, 5978651111, 5978651110, 5978651109], "tags": {"amenity": "cafe", "building": "yes", "name": "Bar La Tartaruga", "outdoor_seating": "yes"}}, {"type": "way", "id": 699301198, "nodes": [6566766814, 6566766815, 6566766816, 6566766817, 6566766818, 6566766819, 6566766820, 6566766821, 6566766822, 6566766823, 6566766824, 6566766814], "tags": {"amenity": "restaurant", "building": "yes", "name": "Il Focarile"}}, {"type": "way", "id": 699418265, "nodes": [6567868267, 6567868268, 6567868427, 6567868270, 6567868289, 6567868285, 6567868284, 6567868280, 6567868279, 6567868267], "tags": {"addr:city": "Aprilia", "addr:housenumber": "30", "addr:postcode": "04011", "addr:street": "Via Arturo Toscanini", "amenity": "restaurant", "cuisine": "italian", "name": "Ristorante Il Gallo D'Oro", "phone": "+39 06 928 2564"}}, {"type": "way", "id": 699418267, "nodes": [6567868275, 6567868276, 6567868277, 6567868278, 6567868275], "tags": {"amenity": "restaurant"}}, {"type": "way", "id": 721862210, "nodes": [6771489833, 6771489836, 6771489840, 6771489845, 6771489835, 6771489831, 6771489839, 6771489844, 6771489841, 6771489847, 6771489834, 6771489843, 6771489833], "tags": {"addr:city": "Latina", "addr:housenumber": "316", "addr:postcode": "04100", "addr:street": "Strada della Segheria", "amenity": "restaurant", "building": "yes", "name": "Dar Bottarolo", "phone": "+39 0773 1437995"}}, {"type": "way", "id": 729348094, "nodes": [6832933194, 6832933189, 6832920781, 6832933199, 6832933190, 6832933209, 6832933198, 6832933197, 6832933194], "tags": {"amenity": "cafe", "building": "yes", "name": "Bar del Mercato"}}, {"type": "way", "id": 751753342, "nodes": [7027501351, 7027501350, 7027501349, 12444696386, 7899006822, 7899006823, 7027501348, 7027501351], "tags": {"amenity": "restaurant", "building": "commercial", "cuisine": "italian", "name": "Il Carrubo"}}, {"type": "way", "id": 757637465, "nodes": [7075256543, 7075256544, 7075256545, 7075256546, 7075256543], "tags": {"amenity": "restaurant", "building": "yes", "name": "La Lanterna"}}, {"type": "way", "id": 757637501, "nodes": [7075256714, 7075256715, 7075256716, 7075256717, 7075256718, 7075256719, 7075256714], "tags": {"amenity": "restaurant", "building": "yes", "name": "La Playa"}}, {"type": "way", "id": 814249553, "nodes": [937201751, 7606060072, 7606060073, 7606060074, 7606060075, 7606060076, 937201751], "tags": {"addr:city": "Sabaudia", "addr:postcode": "04016", "addr:street": "Strada Torre Paola", "amenity": "restaurant", "building": "yes", "contact:phone": "+39 0773 596641", "cuisine": "regional", "name": "L'Approdo di Augusto"}}, {"type": "way", "id": 816514409, "nodes": [7625996840, 7625996841, 7625996842, 7625996843, 7625996840], "tags": {"amenity": "restaurant", "building": "yes", "cuisine": "pizza", "name": "La Mastra"}}, {"type": "way", "id": 846257983, "nodes": [7895373122, 7895373121, 7895373120, 7895373119, 7895373122], "tags": {"amenity": "restaurant", "cuisine": "italian", "name": "La locanda degli amici"}}, {"type": "way", "id": 846593948, "nodes": [7899020386, 7899020385, 12093733769, 12093733768, 12093733767, 12093733766, 7898969584, 7898969583, 12093733765, 12093733764, 7899020386], "tags": {"amenity": "restaurant", "building": "yes", "name": "Gran Caff\u00e8 L'Ulivo"}}, {"type": "way", "id": 856161086, "nodes": [7983153469, 7983153468, 7983153467, 7983153466, 7983153469], "tags": {"amenity": "restaurant", "building": "farmhouse", "name": "Agriturismo Aumenta \"Il lago delle ninfee\"", "takeaway": "no"}}, {"type": "way", "id": 856161088, "nodes": [7983153484, 7983153483, 7983153482, 7983153481, 7983153480, 7983153479, 7983153484], "tags": {"amenity": "restaurant", "name": "Il Giardino", "reservation": "recommended", "takeaway": "yes"}}, {"type": "way", "id": 891057836, "nodes": [8281773971, 8281773970, 8281773969, 8281773968, 9180347541, 9180347540, 8281773971], "tags": {"amenity": "restaurant", "building": "yes", "name": "Capitan Vasco"}}, {"type": "way", "id": 943322835, "nodes": [8734468976, 8734468977, 8734468978, 8734468979, 8734468976], "tags": {"addr:city": "Latina", "addr:housenumber": "1227", "addr:postcode": "04100", "addr:street": "Strada Nettunese", "amenity": "restaurant", "building": "yes", "cuisine": "italian", "name": "Satricvm", "phone": "+393491923153", "website": "https://blog.maxcotilli.com/"}}, {"type": "way", "id": 948057112, "nodes": [7834721752, 8775627998, 8775627999, 8775628000, 8775628001, 8775628002, 8775628003, 8775628004, 8775628005, 8775628006, 7834721752], "tags": {"amenity": "restaurant", "building": "yes", "name": "Il Cavour"}}, {"type": "way", "id": 994964841, "nodes": [9187829566, 9187829567, 9187829568, 9187829569, 9187829570, 9187829571, 9187829572, 9187829573, 9187829574, 9187829575, 9187829566], "tags": {"amenity": "restaurant", "building": "yes", "name": "042_U341_007a"}}, {"type": "way", "id": 994964842, "nodes": [9187829573, 9187829572, 9187829571, 9187829574, 9187829573], "tags": {"amenity": "restaurant", "building": "resta", "name": "041_U341_007_IL Topazio"}}, {"type": "way", "id": 1012520849, "nodes": [9341169915, 9341169916, 9341228317, 9341228318, 9341169915], "tags": {"amenity": "cafe", "building": "yes", "name": "Oasi Caf\u00e8"}}, {"type": "way", "id": 1016240304, "nodes": [9373529277, 9373529278, 9373529279, 9373529280, 9373529281, 9373529282, 9373529277], "tags": {"amenity": "restaurant", "building": "yes", "cuisine": "pizza", "name": "Basta Poco"}}, {"type": "way", "id": 1035100330, "nodes": [9534752152, 9534752153, 9534752154, 9534752155, 9534752156, 9534752157, 9534752152], "tags": {"amenity": "restaurant", "building": "yes", "name": "Ulisse"}}, {"type": "way", "id": 1041408580, "nodes": [9587603524, 9587603525, 9587603526, 9587603527, 9587603528, 9587603529, 9587603524], "tags": {"amenity": "restaurant", "building": "yes", "name": "La lanterna"}}, {"type": "way", "id": 1059890439, "nodes": [9737854234, 9737854235, 9737854236, 9737854237, 9737854234], "tags": {"amenity": "cafe", "building": "retail", "name": "Bar La Torre"}}, {"type": "way", "id": 1061414144, "nodes": [9751952846, 9751952847, 9751952848, 9751952849, 9751952850, 9751952851, 9751952846], "tags": {"amenity": "restaurant", "building": "yes", "cuisine": "seafood", "name": "Pietro il Pescatore"}}, {"type": "way", "id": 1061414157, "nodes": [9751952918, 9751952919, 9751952920, 9751952921, 9751952922, 9751952923, 9751952924, 9751952925, 9751952918], "tags": {"amenity": "cafe", "building": "yes", "name": "Bar Smile - Podere 953"}}, {"type": "way", "id": 1064045256, "nodes": [9772828914, 9772828915, 9772828916, 9772828917, 9772828918, 9772828919, 9772828920, 9772828921, 9772828914], "tags": {"amenity": "restaurant", "building": "yes", "name": "Spaghetteria Friggitoria L'Approdo"}}, {"type": "way", "id": 1071209800, "nodes": [9830500596, 9830500597, 9830500598, 9830500599, 9830500600, 9830500601, 9830500602, 9830500603, 9830500604, 9830500605, 9830500606, 9830500607, 9830500608, 9830500609, 9830500610, 9830500611, 9830500612, 9830500589, 9830500596], "tags": {"amenity": "restaurant", "building": "yes", "name": "La Lucciola"}}, {"type": "way", "id": 1071209827, "nodes": [9830541960, 9830541961, 9830541962, 9830541963, 9830541960], "tags": {"amenity": "restaurant", "building": "yes", "cuisine": "seafood;pizza", "name": "Marechiaro"}}, {"type": "way", "id": 1071216191, "nodes": [9830586057, 9830586059, 9830586060, 9830586061, 9830586062, 9830586063, 9830586057], "tags": {"amenity": "restaurant", "building": "yes", "name": "Luna Saclaja"}}, {"type": "way", "id": 1071216211, "nodes": [9830590201, 9830590202, 9830590203, 9830590204, 9830590205, 9830590206, 9830590207, 9830590208, 9830590201], "tags": {"amenity": "restaurant", "building": "yes", "cuisine": "seafood;pizza", "name": "Love Story"}}, {"type": "way", "id": 1071216212, "nodes": [9830590209, 9830590210, 9830590211, 9830590212, 9830590213, 9830590214, 9830590215, 9830590216, 9830590217, 9830590218, 9830590209], "tags": {"amenity": "restaurant", "building": "yes", "name": "Big Apple"}}, {"type": "way", "id": 1071633068, "nodes": [9833636159, 9833636160, 9833636161, 9833636162, 9833636163, 9833636164, 9833636165, 9833636166, 9833636167, 9833636168, 9833636169, 9833636170, 9833636171, 9833636172, 9833636173, 9833636174, 9833636159], "tags": {"amenity": "restaurant", "building": "yes", "cuisine": "seafood", "name": "Osteria Alta Marea"}}, {"type": "way", "id": 1072020299, "nodes": [9836554278, 9836554279, 9836554280, 9836554281, 9836554282, 9836554283, 9836554284, 9836554285, 9836554278], "tags": {"amenity": "restaurant", "building": "yes", "name": "Ristorante BBeQ"}}, {"type": "way", "id": 1074269018, "nodes": [9853750218, 9853750223, 9853750224, 9853750217, 9853750218], "tags": {"amenity": "restaurant", "building": "yes", "name": "Il Muretto"}}, {"type": "way", "id": 1074271732, "nodes": [9853733259, 9853733260, 9853733261, 9853733262, 9853733263, 9853733264, 9853733259], "tags": {"amenity": "cafe", "building": "yes", "name": "Bar Rica"}}, {"type": "way", "id": 1074271735, "nodes": [9853733279, 9853733280, 9853733281, 9853733282, 9853733283, 9853733284, 9853733285, 9853733286, 9853733287, 9853733288, 9853733289, 9853733290, 9853733291, 9853733292, 9853733279], "tags": {"amenity": "restaurant", "building": "yes", "name": "Ristorante Il Funghetto"}}, {"type": "way", "id": 1075775967, "nodes": [9865981660, 9865981661, 9865981662, 9865981663, 9865981660], "tags": {"amenity": "restaurant", "building": "yes", "name": "Futura", "opening_hours": "Tu-Sa 19:00-24:00; Su 12:00-15:00,19:30-24:00; PH,Mo off", "phone": "+393388306843", "website": "http://www.facebook.com/renato2765/"}}, {"type": "way", "id": 1099725345, "nodes": [10067495137, 10067495132, 10067495128, 10067495135, 10067495131, 10067495134, 10067495133, 10067495137], "tags": {"amenity": "cafe", "building": "yes", "name": "Falesia", "phone": "+39 331 330 7163"}}, {"type": "way", "id": 1155679701, "nodes": [4918982191, 10747501771, 10747501772, 10747501773, 4918982191], "tags": {"alt_name": "Da Luciano e Gilberto", "amenity": "restaurant", "name": "Chiosco Torre Paola"}}, {"type": "way", "id": 1169533813, "nodes": [10875076649, 10875076650, 10875076651, 10875076652, 10875076653, 10875076654, 10875076655, 10875076656, 10875076657, 10875076658, 10875076659, 10875076660, 10875076661, 10875076662, 10875076663, 10875076664, 10875076649], "tags": {"amenity": "restaurant", "building": "yes", "name": "Semprevida"}}, {"type": "way", "id": 1181975997, "nodes": [10976428788, 10976428789, 10976428790, 10976428791, 10976428788], "tags": {"amenity": "restaurant", "building": "yes", "cuisine": "italian"}}, {"type": "way", "id": 1196006890, "nodes": [11098944950, 11098944951, 11098944952, 11098944953, 11098944954, 11098944955, 11098944956, 11098944957, 11098944950], "tags": {"amenity": "cafe", "building": "yes"}}, {"type": "way", "id": 1231776747, "nodes": [11423762586, 11423762587, 11423762588, 11423762589, 11423762586], "tags": {"amenity": "restaurant", "building": "yes"}}, {"type": "way", "id": 1241974516, "nodes": [9070840171, 11540334405, 11540334406, 11540334407, 9070840171], "tags": {"amenity": "cafe", "building": "yes", "name": "Elisym"}}, {"type": "way", "id": 1243242516, "nodes": [12033611040, 11554471905, 11554471906, 11554471907, 11554471908, 11554471909, 11554471910, 11554471911, 11554471912, 11554471913, 11554471914, 11554471915, 12033611040], "tags": {"addr:city": "Terracina", "addr:postcode": "04019", "addr:street": "Via San Felice Circeo", "air_conditioning": "yes", "amenity": "cafe", "building": "yes", "name": "Bar Ezio Fashion Caf\u00e8", "smoking": "outside", "wheelchair": "yes"}}, {"type": "way", "id": 1244285494, "nodes": [10763843200, 11566834045, 11566834046, 11566834047, 10763843200], "tags": {"addr:city": "Sabaudia", "addr:postcode": "04016", "addr:street": "Via Bagnara Fonte di Lucullo", "amenity": "restaurant", "building": "yes", "contact:facebook": "https://www.facebook.com/lucullorestaurant/", "cuisine": "italian;steak_house", "mobile": "+39 328 3666798", "name": "Lucullo"}}, {"type": "way", "id": 1276743347, "nodes": [11854008128, 11854008129, 11854008130, 11854008131, 11854008128], "tags": {"amenity": "cafe", "building": "yes", "building:levels": "1", "name": "Camerlingo 2003"}}, {"type": "relation", "id": 7719006, "members": [{"type": "way", "ref": 539253331, "role": "outer"}, {"type": "way", "ref": 539253330, "role": "outer"}, {"type": "way", "ref": 539252554, "role": "outer"}, {"type": "way", "ref": 539252558, "role": "outer"}], "tags": {"amenity": "restaurant", "building": "yes", "name": "Ristorante Pizzeria L'Arco", "type": "multipolygon"}}]}