{"version": 0.6, "generator": "Overpass API 0.7.62.7 375dc00a", "osm3s": {"timestamp_osm_base": "2025-06-14T13:22:01Z", "copyright": "The data included in this document is from www.openstreetmap.org. The data is made available under ODbL."}, "elements": [{"type": "node", "id": 3823308357, "lat": 34.3820921, "lon": 8.1525011, "tags": {"amenity": "cafe", "name": "Buvette Naceur Adhim"}}, {"type": "node", "id": 4795037488, "lat": 34.3824778, "lon": 8.1527635, "tags": {"addr:city": "Redeyef", "addr:postcode": "2120", "addr:street": "\u0646\u0647\u062c \u0627\u0644\u062d\u0628\u064a\u0628 \u062b\u0627\u0645\u0631", "addr:street:ar": "\u0646\u0647\u062c \u0627\u0644\u062d\u0628\u064a\u0628 \u062b\u0627\u0645\u0631", "addr:street:fr": "Rue Habib Thameur", "amenity": "cafe", "cuisine": "cafetaria", "internet_access": "yes", "internet_access:fee": "no", "internet_access:ssid": "Topnet", "name": "Caf\u00e9 Paris", "opening_hours": "06:00-00:00", "outdoor_seating": "yes", "smoking": "yes"}}, {"type": "node", "id": 4914881821, "lat": 34.3121544, "lon": 8.4196217, "tags": {"amenity": "restaurant"}}, {"type": "node", "id": 5808795015, "lat": 34.3841159, "lon": 8.1535866, "tags": {"amenity": "cafe", "name": "\u0645\u0642\u0647\u0649 \u0627\u0644\u0645\u0631\u0627\u0632\u0642\u0629", "name:ar": "\u0645\u0642\u0647\u0649 \u0627\u0644\u0645\u0631\u0627\u0632\u0642\u0629", "name:fr": "caf\u00e9 al mrazgua"}}, {"type": "node", "id": 5808969516, "lat": 34.3784173, "lon": 8.1473031, "tags": {"amenity": "cafe"}}, {"type": "node", "id": 5808969653, "lat": 34.381211, "lon": 8.1507135, "tags": {"amenity": "cafe"}}, {"type": "node", "id": 5809015473, "lat": 34.3850355, "lon": 8.1539255, "tags": {"amenity": "cafe"}}, {"type": "node", "id": 6376856774, "lat": 34.3132294, "lon": 8.4229584, "tags": {"amenity": "cafe", "name": "Cafe Elmajless"}}, {"type": "node", "id": 6376856775, "lat": 34.3133117, "lon": 8.4211912, "tags": {"amenity": "cafe", "name": "Cafe Zehour"}}, {"type": "node", "id": 6376856777, "lat": 34.3139547, "lon": 8.4169008, "tags": {"amenity": "cafe", "name": "Cafe Elaf3a"}}, {"type": "node", "id": 6376856778, "lat": 34.3147679, "lon": 8.4163119, "tags": {"amenity": "cafe", "name": "Cafe Ben Ammi"}}, {"type": "node", "id": 6376856779, "lat": 34.31355, "lon": 8.4188923, "tags": {"amenity": "cafe", "name": "Caf\u00e9 Sahli"}}, {"type": "node", "id": 6376856780, "lat": 34.3125511, "lon": 8.418618, "tags": {"amenity": "cafe", "name": "Caf\u00e9 Petit Paris"}}, {"type": "node", "id": 6376856781, "lat": 34.3133829, "lon": 8.4199757, "tags": {"amenity": "cafe", "name": "\u0645\u0642\u0647\u0649 \u0627\u0644\u0633\u0627\u062d\u0644\u064a", "name:ar": "\u0645\u0642\u0647\u0649 \u0627\u0644\u0633\u0627\u062d\u0644\u064a"}}, {"type": "node", "id": 6376856782, "lat": 34.3143248, "lon": 8.413836, "tags": {"amenity": "cafe", "name": "Camping Selja"}}, {"type": "node", "id": 6376856783, "lat": 34.3145763, "lon": 8.4117222, "tags": {"amenity": "cafe", "name": "Cafe Chebi"}}, {"type": "node", "id": 6376856784, "lat": 34.3140696, "lon": 8.4114218, "tags": {"amenity": "cafe", "name": "\u0645\u0642\u0647\u0649 \u0627\u0644\u0634\u0627\u0628\u064a", "name:ar": "\u0645\u0642\u0647\u0649 \u0627\u0644\u0634\u0627\u0628\u064a"}}, {"type": "node", "id": 6376856986, "lat": 34.3146252, "lon": 8.4106856, "tags": {"amenity": "cafe", "name": "\u0645\u0642\u0647\u0649 \u0639\u0631\u0648\u0645", "name:ar": "\u0645\u0642\u0647\u0649 \u0639\u0631\u0648\u0645"}}, {"type": "node", "id": 6376857007, "lat": 34.3153852, "lon": 8.4046588, "tags": {"amenity": "restaurant", "name": "Restaurant Banane"}}, {"type": "node", "id": 6376857009, "lat": 34.3156306, "lon": 8.4029725, "tags": {"amenity": "restaurant", "name": "Bella Vitaa"}}, {"type": "node", "id": 6376857022, "lat": 34.315924, "lon": 8.3984274, "tags": {"amenity": "cafe", "name": "Caf\u00e9 Andalous"}}, {"type": "node", "id": 6376857034, "lat": 34.3143047, "lon": 8.3906985, "tags": {"addr:city": "\u0627\u0644\u0645\u062a\u0644\u0648\u064a", "amenity": "cafe", "name": "\u0645\u0642\u0647\u0649 \u0627\u0644\u0642\u062f\u0633", "name:ar": "\u0645\u0642\u0647\u0649 \u0627\u0644\u0642\u062f\u0633", "name:fr": "Caf\u00e9 Al-Qods"}}, {"type": "node", "id": 6376857039, "lat": 34.3090612, "lon": 8.4248605, "tags": {"amenity": "restaurant", "name": "Restaurant du Jardin", "name:ar": "\u0645\u0646\u062a\u0632\u0647 \u0627\u0644\u062d\u062f\u064a\u0642\u0629"}}]}