{"version": 0.6, "generator": "Overpass API 0.7.62.7 375dc00a", "osm3s": {"timestamp_osm_base": "2025-06-14T13:23:06Z", "copyright": "The data included in this document is from www.openstreetmap.org. The data is made available under ODbL."}, "elements": [{"type": "node", "id": 11256924737, "lat": 2.9204611, "lon": 11.1518428, "tags": {"amenity": "restaurant", "name": "That Eru Place"}}, {"type": "node", "id": 11465276934, "lat": 2.9143324, "lon": 11.1662192, "tags": {"amenity": "restaurant", "bar": "yes", "check_date": "2023-12-29", "name": "Le Grill", "note": "OSM ENSTP"}}, {"type": "node", "id": 11465304500, "lat": 2.9135629, "lon": 11.1676398, "tags": {"amenity": "restaurant", "bar": "yes", "check_date": "2023-12-29", "name": "O Saveurs Oubli\u00e9s", "note": "OSM ENSTP"}}, {"type": "node", "id": 11465306870, "lat": 2.9132208, "lon": 11.1682885, "tags": {"amenity": "restaurant", "bar": "yes", "check_date": "2023-12-29", "name": "PMR", "note": "OSM ENSTP", "outdoor_seating": "yes"}}, {"type": "node", "id": 11465536156, "lat": 2.914554, "lon": 11.1668079, "tags": {"amenity": "restaurant", "check_date": "2023-12-29", "name": "Destiny\u2019s Store", "note": "OSM ENSTP"}}, {"type": "node", "id": 11465628085, "lat": 2.9215013, "lon": 11.1699331, "tags": {"amenity": "restaurant", "bar": "yes", "check_date": "2023-12-29", "name": "Le Pr Pharaon", "note": "OSM ENSTP", "phone": "+237 6 55 74 07 54", "toilets": "yes"}}, {"type": "node", "id": 11468765489, "lat": 2.9121889, "lon": 11.1495621}, {"type": "node", "id": 11469184794, "lat": 2.9301534, "lon": 11.1515163, "tags": {"amenity": "restaurant", "check_date": "2023-12-30", "name": "Pain Seinn", "note": "OSM ENSTP", "source": "survey"}}, {"type": "node", "id": 11469886931, "lat": 2.9252149, "lon": 11.1615195, "tags": {"amenity": "restaurant", "bar": "yes", "check_date": "2023-12-30", "delivery": "yes", "name": "La Belle Histoire", "note": "OSM ENSTP", "opening_hours": "Mo-Fr 09:00-23:00", "phone": "+237 6 52 13 96 88", "reservation": "yes", "source": "survey", "toilets": "yes"}}, {"type": "node", "id": 11469936925, "lat": 2.9222462, "lon": 11.1589066, "tags": {"amenity": "restaurant", "check_date": "2023-12-30", "name": "Restaurant Au Village Chez Georges", "opening_hours": "Mo-Fr 10:00-21:00", "phone": "+237 6 99 72 19 22"}}, {"type": "node", "id": 11472590133, "lat": 2.9206821, "lon": 11.156447, "tags": {"amenity": "restaurant", "bar": "yes", "check_date": "2023-12-31", "name": "Rive Gauche", "note": "OSM ENSTP", "outdoor_seating": "yes", "phone": "+237 2 22 28 47 37", "toilets:wheelchair": "yes"}}, {"type": "node", "id": 11472974238, "lat": 2.9140466, "lon": 11.1446991, "tags": {"amenity": "restaurant", "name": "ELLE & LUI", "phone": "699538734", "survey:date": "2023-12-31", "wheelchair": "yes"}}, {"type": "node", "id": 11968419518, "lat": 2.9122439, "lon": 11.149565}, {"type": "node", "id": 11968419654, "lat": 2.912177, "lon": 11.149589}, {"type": "node", "id": 11968419720, "lat": 2.9122359, "lon": 11.1495829}, {"type": "node", "id": 11968420548, "lat": 2.9123536, "lon": 11.1495531}, {"type": "node", "id": 11968420633, "lat": 2.9121031, "lon": 11.1495562}, {"type": "node", "id": 11968420762, "lat": 2.9123312, "lon": 11.1496038}, {"type": "node", "id": 11968421194, "lat": 2.9121454, "lon": 11.1494607}, {"type": "way", "id": 1290845824, "nodes": [11968419720, 11968419518, 11968420762, 11968420548, 11968421194, 11968420633, 11968419654, 11468765489, 11968419720], "tags": {"addr:city": "Ebolowa", "amenity": "restaurant", "building": "yes", "name": "La Sagacit\u00e9", "source": "microsoft/BuildingFootprints"}}]}