{"version": 0.6, "generator": "Overpass API 0.7.62.7 375dc00a", "osm3s": {"timestamp_osm_base": "2025-06-14T13:53:29Z", "copyright": "The data included in this document is from www.openstreetmap.org. The data is made available under ODbL."}, "elements": [{"type": "node", "id": 252516197, "lat": 41.7592149, "lon": 13.908717, "tags": {"amenity": "cafe", "name": "La Camosciara"}}, {"type": "node", "id": 290750443, "lat": 42.0113518, "lon": 14.0458791, "tags": {"addr:street": "Piazza Germano Del Mastro", "amenity": "restaurant", "name": "Locanda Camilla", "tourism": "hotel"}}, {"type": "node", "id": 290750445, "lat": 42.0107331, "lon": 14.0459303, "tags": {"amenity": "restaurant", "name": "Fiorildo"}}, {"type": "node", "id": 304887439, "lat": 42.0111983, "lon": 14.0446378, "tags": {"addr:housenumber": "78", "addr:street": "Piazza Alessandro Duval", "alt_name": "Bar Centrale di Paolo Ettore", "amenity": "cafe", "name": "Bar Centrale"}}, {"type": "node", "id": 304887963, "lat": 42.0112259, "lon": 14.043836, "tags": {"addr:city": "Campo di Giove", "addr:housenumber": "11", "addr:postcode": "67030", "addr:street": "Viale Sulmona", "amenity": "restaurant", "name": "La Baita"}}, {"type": "node", "id": 304889096, "lat": 41.9187242, "lon": 14.1051882, "tags": {"amenity": "cafe", "name": "Bar Stazione"}}, {"type": "node", "id": 307815140, "lat": 42.0112319, "lon": 14.043919, "tags": {"addr:city": "Campo di Giove", "addr:housenumber": "12", "addr:postcode": "67030", "addr:street": "Viale Sulmona", "amenity": "cafe", "name": "Babilonia"}}, {"type": "node", "id": 323179330, "lat": 42.010838, "lon": 14.0360411, "tags": {"amenity": "cafe", "name": "Il Caminetto"}}, {"type": "node", "id": 476141978, "lat": 41.738732, "lon": 13.8111117, "tags": {"amenity": "restaurant", "name": "Ristorante Duca d'Aosta"}}, {"type": "node", "id": 476141982, "lat": 41.7517307, "lon": 13.8156834, "tags": {"amenity": "restaurant", "name": "Ristorante Forca d'Acero", "phone": "+39 347 9152444", "website": "http://www.ristoroforcadacero.it"}}, {"type": "node", "id": 522051723, "lat": 41.7751942, "lon": 13.8297088, "tags": {"amenity": "restaurant", "name": "La Madonnina"}}, {"type": "node", "id": 522069741, "lat": 41.8088192, "lon": 13.7891076, "tags": {"amenity": "cafe", "name": "Bar Jurico", "operator": "Sergio Del Principe", "outdoor_seating": "yes"}}, {"type": "node", "id": 661098429, "lat": 42.0104505, "lon": 14.0442317, "tags": {"amenity": "cafe", "name": "Gnaff Bar"}}, {"type": "node", "id": 699802588, "lat": 42.0022047, "lon": 14.0581235, "tags": {"amenity": "cafe", "name": "L'asinello di Giove", "outdoor_seating": "yes"}}, {"type": "node", "id": 765747525, "lat": 42.0484599, "lon": 13.9239958, "tags": {"amenity": "cafe", "name": "Gran Caff\u00e9", "wheelchair": "yes"}}, {"type": "node", "id": 859912128, "lat": 41.8632297, "lon": 14.3340259}, {"type": "node", "id": 859912129, "lat": 41.8628994, "lon": 14.3338331}, {"type": "node", "id": 859912133, "lat": 41.8627947, "lon": 14.3341566}, {"type": "node", "id": 859912147, "lat": 41.863125, "lon": 14.3343494}, {"type": "node", "id": 859915563, "lat": 41.8640022, "lon": 14.3321598}, {"type": "node", "id": 859915569, "lat": 41.8640492, "lon": 14.3317278}, {"type": "node", "id": 859915576, "lat": 41.863908, "lon": 14.3321414}, {"type": "node", "id": 859915581, "lat": 41.863955, "lon": 14.3317093}, {"type": "node", "id": 859919834, "lat": 41.8668262, "lon": 14.3553422}, {"type": "node", "id": 859919836, "lat": 41.8665912, "lon": 14.3552116}, {"type": "node", "id": 859919839, "lat": 41.8668912, "lon": 14.3551312}, {"type": "node", "id": 859919844, "lat": 41.8666562, "lon": 14.3550006}, {"type": "node", "id": 1108836036, "lat": 42.0724651, "lon": 14.0298367}, {"type": "node", "id": 1108836039, "lat": 42.0726253, "lon": 14.0300772}, {"type": "node", "id": 1108836045, "lat": 42.0725519, "lon": 14.0297489}, {"type": "node", "id": 1108836047, "lat": 42.0724952, "lon": 14.0297862}, {"type": "node", "id": 1108836050, "lat": 42.0725637, "lon": 14.0300884}, {"type": "node", "id": 1108836052, "lat": 42.0726529, "lon": 14.0297781}, {"type": "node", "id": 1108836059, "lat": 42.0726945, "lon": 14.0297021}, {"type": "node", "id": 1108836062, "lat": 42.0726081, "lon": 14.0297502}, {"type": "node", "id": 1108836067, "lat": 42.0725167, "lon": 14.0300684}, {"type": "node", "id": 1108836080, "lat": 42.0727393, "lon": 14.0297546}, {"type": "node", "id": 1108836090, "lat": 42.0724674, "lon": 14.0300037}, {"type": "node", "id": 1108836093, "lat": 42.0727036, "lon": 14.0299477}, {"type": "node", "id": 1108836095, "lat": 42.0727734, "lon": 14.0298509}, {"type": "node", "id": 1108836100, "lat": 42.0724502, "lon": 14.0299189}, {"type": "node", "id": 1108836102, "lat": 42.0726801, "lon": 14.0300207}, {"type": "node", "id": 1108836104, "lat": 42.0727839, "lon": 14.029955}, {"type": "node", "id": 1241307296, "lat": 42.057953, "lon": 13.8345652, "tags": {"amenity": "cafe", "name": "La Piazzetta"}}, {"type": "node", "id": 1241308320, "lat": 42.057989, "lon": 13.8347833, "tags": {"amenity": "cafe"}}, {"type": "node", "id": 1358893663, "lat": 42.0478451, "lon": 13.9239226, "tags": {"amenity": "cafe", "int_name": "Bono vino&caff\u00e8", "wheelchair": "yes"}}, {"type": "node", "id": 1391316825, "lat": 41.7302122, "lon": 14.2687524, "tags": {"amenity": "restaurant", "cuisine": "regional", "name": "La Grande Quercia"}}, {"type": "node", "id": 1391411376, "lat": 41.767496, "lon": 13.9513261, "tags": {"amenity": "cafe", "name": "Oasi del Lago", "opening_hours": "Mo-Su 08:00-23:00", "phone": "+39 329 886 8909"}}, {"type": "node", "id": 1391411396, "lat": 41.7799883, "lon": 13.9064543, "tags": {"amenity": "cafe"}}, {"type": "node", "id": 1412117593, "lat": 41.8372453, "lon": 13.9295315}, {"type": "node", "id": 1412117595, "lat": 41.8373087, "lon": 13.9296039}, {"type": "node", "id": 1412117596, "lat": 41.8373175, "lon": 13.9296908}, {"type": "node", "id": 1412117597, "lat": 41.8373857, "lon": 13.929504}, {"type": "node", "id": 1412117598, "lat": 41.8373908, "lon": 13.9295971}, {"type": "node", "id": 1412117599, "lat": 41.8378746, "lon": 13.9293681}, {"type": "node", "id": 1412117600, "lat": 41.8379093, "lon": 13.929552}, {"type": "node", "id": 1553126482, "lat": 42.0640901, "lon": 13.8489705}, {"type": "node", "id": 1553126501, "lat": 42.0641269, "lon": 13.84904}, {"type": "node", "id": 1553126514, "lat": 42.0641394, "lon": 13.8490278}, {"type": "node", "id": 1553126521, "lat": 42.0641539, "lon": 13.8490135}, {"type": "node", "id": 1553126539, "lat": 42.0641908, "lon": 13.8490764}, {"type": "node", "id": 1553126542, "lat": 42.0641957, "lon": 13.8488646}, {"type": "node", "id": 1553126593, "lat": 42.0642719, "lon": 13.8489904}, {"type": "node", "id": 1553128822, "lat": 42.0663928, "lon": 13.8445065}, {"type": "node", "id": 1553128837, "lat": 42.0664194, "lon": 13.8445355}, {"type": "node", "id": 1553128862, "lat": 42.0664924, "lon": 13.8446145}, {"type": "node", "id": 1553128879, "lat": 42.0665547, "lon": 13.8442323}, {"type": "node", "id": 1553128883, "lat": 42.0665788, "lon": 13.8442581}, {"type": "node", "id": 1553128906, "lat": 42.0666548, "lon": 13.8443396}, {"type": "node", "id": 1591936798, "lat": 42.0721428, "lon": 13.8575569}, {"type": "node", "id": 1591936856, "lat": 42.0721843, "lon": 13.8575185}, {"type": "node", "id": 1591936952, "lat": 42.0722576, "lon": 13.8574507}, {"type": "node", "id": 1591936999, "lat": 42.0722748, "lon": 13.8580013}, {"type": "node", "id": 1591937094, "lat": 42.0723138, "lon": 13.8581013}, {"type": "node", "id": 1591937181, "lat": 42.0723624, "lon": 13.8573537}, {"type": "node", "id": 1591937240, "lat": 42.0724011, "lon": 13.858315}, {"type": "node", "id": 1591937352, "lat": 42.0724362, "lon": 13.8573574}, {"type": "node", "id": 1591937395, "lat": 42.0724633, "lon": 13.8573588}, {"type": "node", "id": 1591937595, "lat": 42.0725746, "lon": 13.8580313}, {"type": "node", "id": 1591937597, "lat": 42.0725756, "lon": 13.8574229}, {"type": "node", "id": 1591937916, "lat": 42.0727355, "lon": 13.8576717}, {"type": "node", "id": 1591937929, "lat": 42.0727412, "lon": 13.8577589}, {"type": "node", "id": 1604313270, "lat": 42.0959185, "lon": 13.8719618, "tags": {"addr:city": "Pratola Peligna", "addr:housenumber": "71", "addr:postcode": "67035", "addr:street": "Via Circonvallazione Occidentale", "entrance": "main"}}, {"type": "node", "id": 1604314051, "lat": 42.0958322, "lon": 13.8720651}, {"type": "node", "id": 1604314085, "lat": 42.0958874, "lon": 13.8719402}, {"type": "node", "id": 1604314098, "lat": 42.0959108, "lon": 13.8721238}, {"type": "node", "id": 1604314132, "lat": 42.0959678, "lon": 13.8719959}, {"type": "node", "id": 1749047063, "lat": 42.0351183, "lon": 13.9714003, "tags": {"amenity": "restaurant", "cuisine": "regional", "name": "Posta Pacentrana", "wheelchair": "yes"}}, {"type": "node", "id": 1829825661, "lat": 41.776158, "lon": 13.9385504, "tags": {"addr:city": "Villetta Barrea", "addr:postcode": "67030", "amenity": "cafe", "indoor_seating": "yes", "name": "Bar Tabacchi", "outdoor_seating": "yes", "smoking": "outside"}}, {"type": "node", "id": 1835275671, "lat": 41.9163028, "lon": 14.322497}, {"type": "node", "id": 1835275677, "lat": 41.916375, "lon": 14.322559}, {"type": "node", "id": 1835275678, "lat": 41.9163946, "lon": 14.3223043}, {"type": "node", "id": 1835275685, "lat": 41.9164667, "lon": 14.3223663}, {"type": "node", "id": 1837581731, "lat": 41.7737797, "lon": 13.9455003, "tags": {"addr:city": "Villetta Barrea", "addr:housenumber": "80", "addr:postcode": "67030", "addr:street": "Via Roma", "amenity": "cafe", "name": "Bar Ristoro Cantaplura", "phone": "+39 389 185 9683"}}, {"type": "node", "id": 1930744074, "lat": 41.9189337, "lon": 14.1052544, "tags": {"amenity": "restaurant", "cuisine": "italian"}}, {"type": "node", "id": 2008893789, "lat": 42.1275706, "lon": 14.025503, "tags": {"addr:city": "Sant'Eufemia a Maiella", "addr:housenumber": "5", "addr:postcode": "65020", "addr:street": "Strada Statale 487 di Caramanico Terme", "amenity": "restaurant", "cuisine": "regional;pizza;meat", "facebook": "https://www.facebook.com/LAstoria-232001103626792", "name": "Ristorante L'Astoria", "opening_hours": "Mo-Fr 09:00-16:00,19:00-24:00; Sa 09:00-23:00; Su 09:00-24:00", "phone": "+39 085 920219"}}, {"type": "node", "id": 2425685006, "lat": 41.7138923, "lon": 14.295577, "tags": {"amenity": "restaurant", "cuisine": "italian;pizza", "name": "Al Borgo"}}, {"type": "node", "id": 2425685008, "lat": 41.7134808, "lon": 14.2965907, "tags": {"amenity": "restaurant", "cuisine": "italian", "name": "Il Vecchio Mulino"}}, {"type": "node", "id": 2613682516, "lat": 41.7136528, "lon": 14.2963004, "tags": {"amenity": "restaurant", "cuisine": "regional", "name": "Osterija dei Tratturi"}}, {"type": "node", "id": 2782968243, "lat": 42.0883597, "lon": 14.2024, "tags": {"addr:housenumber": "96e", "addr:street": "Via Nazionale", "amenity": "restaurant", "name": "Badia 832", "opening_hours": "open; We off"}}, {"type": "node", "id": 2783041634, "lat": 42.0898852, "lon": 14.2071305, "tags": {"addr:city": "Fara San Martino", "addr:postcode": "66015", "addr:street": "Via Nazionale", "amenity": "restaurant", "cuisine": "pizza;regional", "name": "La Villetta", "opening_hours": "Mo-Su 11:00-22:30"}}, {"type": "node", "id": 2793755509, "lat": 41.7123706, "lon": 14.2504562}, {"type": "node", "id": 2793755511, "lat": 41.7123727, "lon": 14.2505809}, {"type": "node", "id": 2793755514, "lat": 41.7124492, "lon": 14.2504566}, {"type": "node", "id": 2793755515, "lat": 41.7124513, "lon": 14.2505814}, {"type": "node", "id": 2891640104, "lat": 41.8481776, "lon": 14.3385282, "tags": {"amenity": "restaurant", "email": "info@agriturismoguadocannavina.net", "internet_access": "yes", "name": "Azienda Agrituristica Guado Cannavina", "phone": "+39 0865 949135", "tourism": "guest_house", "website": "www.agriturismoguadocannavina.net"}}, {"type": "node", "id": 2891640106, "lat": 41.8329096, "lon": 14.2632602, "tags": {"amenity": "restaurant", "name": "L'Elfo", "opening_hours": "Tu-Su", "phone": "+39 0865 949131", "website": "http://www.ristorantelelfo.it"}}, {"type": "node", "id": 2891642973, "lat": 41.8392232, "lon": 14.2703999}, {"type": "node", "id": 2891642978, "lat": 41.8392884, "lon": 14.2706474}, {"type": "node", "id": 2891642986, "lat": 41.8394054, "lon": 14.2703149}, {"type": "node", "id": 2891642988, "lat": 41.8394701, "lon": 14.2705649}, {"type": "node", "id": 2908646721, "lat": 41.8114515, "lon": 14.3706924}, {"type": "node", "id": 2908646722, "lat": 41.8112578, "lon": 14.3707704}, {"type": "node", "id": 2908646723, "lat": 41.8112951, "lon": 14.3709373}, {"type": "node", "id": 2908646724, "lat": 41.8114888, "lon": 14.3708593}, {"type": "node", "id": 2924117649, "lat": 41.9497107, "lon": 14.0277472}, {"type": "node", "id": 2924117660, "lat": 41.9497029, "lon": 14.0276199}, {"type": "node", "id": 2924117681, "lat": 41.9495661, "lon": 14.0277634}, {"type": "node", "id": 2924117685, "lat": 41.9495582, "lon": 14.0276361}, {"type": "node", "id": 2929647486, "lat": 41.8390664, "lon": 14.374407}, {"type": "node", "id": 2929647487, "lat": 41.8388729, "lon": 14.3744854}, {"type": "node", "id": 2929647488, "lat": 41.8389464, "lon": 14.3748125}, {"type": "node", "id": 2929647489, "lat": 41.83914, "lon": 14.3747341}, {"type": "node", "id": 2956879696, "lat": 41.8897217, "lon": 14.0654613, "tags": {"addr:housenumber": "34", "addr:postcode": "67033", "addr:street": "Strada Vulpes", "amenity": "restaurant", "name": "Ristorante da Paolino", "opening_hours": "We-Su 13:00-15:00, 20:00-00:00", "phone": "+39 0864 640080", "website": "https://www.ristorantedapaolino.com/"}}, {"type": "node", "id": 2956880271, "lat": 41.8889569, "lon": 14.0655444, "tags": {"addr:city": "Pescocostanzo", "addr:street": "Via Ottavio Collecchi", "amenity": "restaurant", "cuisine": "italian", "name": "Ristorante La Terrazza"}}, {"type": "node", "id": 2956884732, "lat": 41.8887513, "lon": 14.0653915, "tags": {"addr:city": "Pescocostanzo", "addr:postcode": "67033", "addr:street": "Via Ottavio Collecchi", "amenity": "restaurant", "cuisine": "italian", "name": "Ristorante Il Setaccio"}}, {"type": "node", "id": 2990507087, "lat": 41.8565101, "lon": 14.3573276}, {"type": "node", "id": 2990507088, "lat": 41.8564911, "lon": 14.3574235}, {"type": "node", "id": 2990507089, "lat": 41.8563795, "lon": 14.3573836}, {"type": "node", "id": 2990507090, "lat": 41.8563985, "lon": 14.3572877}, {"type": "node", "id": 3012438517, "lat": 42.00286, "lon": 14.0846258}, {"type": "node", "id": 3012438518, "lat": 42.0028934, "lon": 14.0844331}, {"type": "node", "id": 3012438519, "lat": 42.0029587, "lon": 14.0846539}, {"type": "node", "id": 3012438520, "lat": 42.0029879, "lon": 14.0844649}, {"type": "node", "id": 3105598027, "lat": 41.8310548, "lon": 14.0464014}, {"type": "node", "id": 3105598028, "lat": 41.8309723, "lon": 14.0464763}, {"type": "node", "id": 3105600229, "lat": 41.8310257, "lon": 14.046587}, {"type": "node", "id": 3105600230, "lat": 41.8311033, "lon": 14.0465023}, {"type": "node", "id": 3114859233, "lat": 41.8555224, "lon": 14.0695067}, {"type": "node", "id": 3114859234, "lat": 41.8554449, "lon": 14.0696809}, {"type": "node", "id": 3114859235, "lat": 41.8554848, "lon": 14.069713}, {"type": "node", "id": 3114859236, "lat": 41.8552805, "lon": 14.0701721}, {"type": "node", "id": 3114859237, "lat": 41.855065, "lon": 14.0699992}, {"type": "node", "id": 3114859238, "lat": 41.8553468, "lon": 14.0693658}, {"type": "node", "id": 3126871552, "lat": 41.869051, "lon": 14.0618893}, {"type": "node", "id": 3126871553, "lat": 41.8690544, "lon": 14.0617728}, {"type": "node", "id": 3126871554, "lat": 41.8689122, "lon": 14.0617654}, {"type": "node", "id": 3126871555, "lat": 41.8689088, "lon": 14.0618841}, {"type": "node", "id": 3603697741, "lat": 41.7786768, "lon": 13.8633931, "tags": {"amenity": "restaurant"}}, {"type": "node", "id": 3635268016, "lat": 41.8088133, "lon": 13.7907783, "tags": {"amenity": "restaurant", "cuisine": "pizza", "name": "Pizzeria Saltarelli", "outdoor_seating": "yes", "takeaway": "yes", "wheelchair": "limited"}}, {"type": "node", "id": 3636819754, "lat": 41.8364766, "lon": 13.9305966, "tags": {"amenity": "cafe"}}, {"type": "node", "id": 3636819756, "lat": 41.8371492, "lon": 13.9295527}, {"type": "node", "id": 3636819757, "lat": 41.8371695, "lon": 13.9297191}, {"type": "node", "id": 3636819759, "lat": 41.8372457, "lon": 13.9295091}, {"type": "node", "id": 3636819760, "lat": 41.8377669, "lon": 13.9293775}, {"type": "node", "id": 3636819761, "lat": 41.8378325, "lon": 13.9296265}, {"type": "node", "id": 3636819762, "lat": 41.8378673, "lon": 13.929339}, {"type": "node", "id": 3636819763, "lat": 41.8379196, "lon": 13.9295935}, {"type": "node", "id": 3697077461, "lat": 41.7760448, "lon": 13.9323382, "tags": {"addr:city": "Villetta Barrea", "addr:housenumber": "127", "addr:postcode": "67030", "addr:street": "Via Benedetto Virgilio", "amenity": "cafe", "name": "Bar Girolamo"}}, {"type": "node", "id": 3697077466, "lat": 41.7762764, "lon": 13.9313253, "tags": {"addr:city": "Villetta Barrea", "addr:housenumber": "161", "addr:postcode": "67030", "addr:street": "Via Benedetto Virgilio", "amenity": "restaurant", "name": "Trattoria del Pescatore", "phone": "+39 0864 89152"}}, {"type": "node", "id": 3697078284, "lat": 41.7760551, "lon": 13.9322923}, {"type": "node", "id": 3697078285, "lat": 41.776071, "lon": 13.93219}, {"type": "node", "id": 3697078288, "lat": 41.7761677, "lon": 13.9323239}, {"type": "node", "id": 3697078291, "lat": 41.7761836, "lon": 13.9322216}, {"type": "node", "id": 3697103442, "lat": 41.7757032, "lon": 13.9352666, "tags": {"addr:city": "Villetta Barrea", "addr:postcode": "67030", "addr:street": "Via Benedetto Virgilio", "amenity": "cafe", "name": "Caff\u00e8 del Corso"}}, {"type": "node", "id": 3697103443, "lat": 41.7757183, "lon": 13.9353256, "tags": {"addr:city": "Villetta Barrea", "addr:housenumber": "50", "addr:postcode": "67030", "addr:street": "Via Benedetto Virgilio", "amenity": "restaurant", "cuisine": "pizza", "name": "Pizzeria Il Giardino Sul Sangro", "phone": "+39 0864 89133"}}, {"type": "node", "id": 3697174550, "lat": 41.7662444, "lon": 13.9434404}, {"type": "node", "id": 3697174554, "lat": 41.7663191, "lon": 13.9431959}, {"type": "node", "id": 3697174557, "lat": 41.7663627, "lon": 13.9430364}, {"type": "node", "id": 3697174559, "lat": 41.7663826, "lon": 13.9429823}, {"type": "node", "id": 3697174563, "lat": 41.7664503, "lon": 13.9430245}, {"type": "node", "id": 3697174565, "lat": 41.7664755, "lon": 13.9431028}, {"type": "node", "id": 3697174568, "lat": 41.7665276, "lon": 13.9427929}, {"type": "node", "id": 3697174569, "lat": 41.7665777, "lon": 13.9428187}, {"type": "node", "id": 3697235692, "lat": 41.7654546, "lon": 13.942003, "tags": {"addr:housenumber": "4", "addr:postcode": "67030", "addr:street": "Via Nazionale", "amenity": "restaurant", "email": "info@labetullaonline.com", "name": "La Betulla", "phone": "+39 335 805 3489", "website": "https://www.labetullaonline.com/"}}, {"type": "node", "id": 3731822345, "lat": 41.7088117, "lon": 13.8127833, "tags": {"amenity": "cafe"}}, {"type": "node", "id": 3731822348, "lat": 41.7088495, "lon": 13.8124461, "tags": {"amenity": "cafe"}}, {"type": "node", "id": 3731822353, "lat": 41.708886, "lon": 13.8127327, "tags": {"amenity": "cafe"}}, {"type": "node", "id": 3808725419, "lat": 41.7566385, "lon": 14.3136795}, {"type": "node", "id": 3808725422, "lat": 41.7566604, "lon": 14.3137531}, {"type": "node", "id": 3808725425, "lat": 41.7566915, "lon": 14.3138045}, {"type": "node", "id": 3808725429, "lat": 41.7567244, "lon": 14.3138535}, {"type": "node", "id": 3808725434, "lat": 41.7567463, "lon": 14.3134124}, {"type": "node", "id": 3808725437, "lat": 41.7567701, "lon": 14.3138609}, {"type": "node", "id": 3808725438, "lat": 41.7567774, "lon": 14.3134381}, {"type": "node", "id": 3808725442, "lat": 41.7568446, "lon": 14.3132232}, {"type": "node", "id": 3808725444, "lat": 41.7568588, "lon": 14.3131712}, {"type": "node", "id": 3808725445, "lat": 41.756864, "lon": 14.3133584}, {"type": "node", "id": 3808725446, "lat": 41.7568756, "lon": 14.3132804}, {"type": "node", "id": 3808725447, "lat": 41.7568811, "lon": 14.3131789}, {"type": "node", "id": 3808725448, "lat": 41.7568902, "lon": 14.3131348}, {"type": "node", "id": 3808725452, "lat": 41.7569323, "lon": 14.3129051}, {"type": "node", "id": 3808725453, "lat": 41.756941, "lon": 14.3137947}, {"type": "node", "id": 3808725455, "lat": 41.7569515, "lon": 14.3129443}, {"type": "node", "id": 3808725456, "lat": 41.756952, "lon": 14.3138143}, {"type": "node", "id": 3808725457, "lat": 41.7569525, "lon": 14.3128598}, {"type": "node", "id": 3808725458, "lat": 41.7569579, "lon": 14.3128818}, {"type": "node", "id": 3808725463, "lat": 41.7569753, "lon": 14.312921}, {"type": "node", "id": 3808725464, "lat": 41.7569762, "lon": 14.3130117}, {"type": "node", "id": 3808725466, "lat": 41.7569944, "lon": 14.3130539}, {"type": "node", "id": 3808725468, "lat": 41.7570046, "lon": 14.3129823}, {"type": "node", "id": 3808725475, "lat": 41.7570384, "lon": 14.3127875}, {"type": "node", "id": 3808725476, "lat": 41.757042, "lon": 14.312763}, {"type": "node", "id": 3808725478, "lat": 41.7570425, "lon": 14.313769}, {"type": "node", "id": 3808725480, "lat": 41.7570512, "lon": 14.3127544}, {"type": "node", "id": 3808725485, "lat": 41.7570658, "lon": 14.3127434}, {"type": "node", "id": 3808725492, "lat": 41.7570786, "lon": 14.3127372}, {"type": "node", "id": 3808725501, "lat": 41.7570969, "lon": 14.3127446}, {"type": "node", "id": 3808725507, "lat": 41.7571133, "lon": 14.3127581}, {"type": "node", "id": 3808725508, "lat": 41.7571174, "lon": 14.3135294}, {"type": "node", "id": 3808725510, "lat": 41.7571243, "lon": 14.3127801}, {"type": "node", "id": 3808725511, "lat": 41.7571243, "lon": 14.3128046}, {"type": "node", "id": 3808725514, "lat": 41.757143, "lon": 14.3135901}, {"type": "node", "id": 3808725520, "lat": 41.7571782, "lon": 14.3129185}, {"type": "node", "id": 3808725526, "lat": 41.7572034, "lon": 14.3135656}, {"type": "node", "id": 3808725531, "lat": 41.7572308, "lon": 14.3136881}, {"type": "node", "id": 3808725532, "lat": 41.7572384, "lon": 14.312864}, {"type": "node", "id": 3808725534, "lat": 41.7572619, "lon": 14.3137959}, {"type": "node", "id": 3808725536, "lat": 41.757282, "lon": 14.3128402}, {"type": "node", "id": 3808725538, "lat": 41.7572966, "lon": 14.3138204}, {"type": "node", "id": 3808725540, "lat": 41.757312, "lon": 14.3138599}, {"type": "node", "id": 3808725541, "lat": 41.757313, "lon": 14.3137616}, {"type": "node", "id": 3808725543, "lat": 41.7573411, "lon": 14.3137634}, {"type": "node", "id": 3808725557, "lat": 41.7574231, "lon": 14.3132465}, {"type": "node", "id": 3808725559, "lat": 41.7574455, "lon": 14.3132069}, {"type": "node", "id": 4360335056, "lat": 41.7785821, "lon": 13.8299994, "tags": {"addr:city": "Opi", "addr:housenumber": "40", "addr:postcode": "67030", "addr:street": "Via Salita la Croce", "amenity": "restaurant", "name": "La Pieja", "phone": "+39 0863 910772"}}, {"type": "node", "id": 4376141478, "lat": 41.7630811, "lon": 13.984858}, {"type": "node", "id": 4376141479, "lat": 41.7632418, "lon": 13.9849492}, {"type": "node", "id": 4376141480, "lat": 41.7631692, "lon": 13.9851604}, {"type": "node", "id": 4376141481, "lat": 41.7630124, "lon": 13.9850692}, {"type": "node", "id": 4384495063, "lat": 41.9224668, "lon": 13.8573254}, {"type": "node", "id": 4384495064, "lat": 41.9224967, "lon": 13.857202}, {"type": "node", "id": 4384495067, "lat": 41.9225226, "lon": 13.8573499}, {"type": "node", "id": 4384495071, "lat": 41.9225525, "lon": 13.8572265}, {"type": "node", "id": 4425522430, "lat": 41.9943999, "lon": 13.8033974, "tags": {"amenity": "cafe"}}, {"type": "node", "id": 4445285028, "lat": 41.8781691, "lon": 14.2943391, "tags": {"amenity": "cafe", "internet_access": "no", "name": "Roxy Bar"}}, {"type": "node", "id": 4450443539, "lat": 41.8661018, "lon": 14.2970492}, {"type": "node", "id": 4450443540, "lat": 41.8660609, "lon": 14.2971883}, {"type": "node", "id": 4450443541, "lat": 41.865885, "lon": 14.2970913}, {"type": "node", "id": 4450443542, "lat": 41.8659284, "lon": 14.2969522}, {"type": "node", "id": 4546636825, "lat": 41.9026802, "lon": 13.8797299, "tags": {"addr:city": "Scanno", "addr:postcode": "67038", "addr:street": "Via Napoli", "amenity": "cafe", "name": "Bar Abruzzi"}}, {"type": "node", "id": 4668318291, "lat": 41.9753906, "lon": 14.1832785}, {"type": "node", "id": 4668318292, "lat": 41.9754698, "lon": 14.1834705}, {"type": "node", "id": 4668318293, "lat": 41.9753781, "lon": 14.1836132}, {"type": "node", "id": 4668318294, "lat": 41.9752621, "lon": 14.1834784}, {"type": "node", "id": 4736142715, "lat": 42.0483507, "lon": 14.0495785}, {"type": "node", "id": 4736142716, "lat": 42.0483482, "lon": 14.0497464}, {"type": "node", "id": 4736142717, "lat": 42.0481625, "lon": 14.0497797}, {"type": "node", "id": 4736142718, "lat": 42.0482156, "lon": 14.0495747}, {"type": "node", "id": 4798776325, "lat": 42.0037114, "lon": 13.898965, "tags": {"amenity": "restaurant", "name": "La Trota - Ristorante Pizzeria", "name:it": "La Trota - Ristorante Pizzeria"}}, {"type": "node", "id": 4813694265, "lat": 41.918021, "lon": 13.872802}, {"type": "node", "id": 4813694266, "lat": 41.9180606, "lon": 13.8726942}, {"type": "node", "id": 4813694267, "lat": 41.9178947, "lon": 13.8725841}, {"type": "node", "id": 4813694268, "lat": 41.9178551, "lon": 13.8726919}, {"type": "node", "id": 4813702370, "lat": 41.941889, "lon": 13.8270007}, {"type": "node", "id": 4813702371, "lat": 41.9419404, "lon": 13.8269745}, {"type": "node", "id": 4813702372, "lat": 41.9419793, "lon": 13.8271126}, {"type": "node", "id": 4813702373, "lat": 41.941928, "lon": 13.8271388}, {"type": "node", "id": 4813714092, "lat": 41.9171481, "lon": 13.8695772}, {"type": "node", "id": 4813714093, "lat": 41.9173329, "lon": 13.8695662}, {"type": "node", "id": 4813714094, "lat": 41.9173368, "lon": 13.8696842}, {"type": "node", "id": 4813714095, "lat": 41.917152, "lon": 13.8696952}, {"type": "node", "id": 4828664295, "lat": 41.8542088, "lon": 14.0007976}, {"type": "node", "id": 4828664296, "lat": 41.8539649, "lon": 14.0006811}, {"type": "node", "id": 4828664297, "lat": 41.8538781, "lon": 14.0009868}, {"type": "node", "id": 4828664298, "lat": 41.8541383, "lon": 14.0011251}, {"type": "node", "id": 5038222296, "lat": 42.0814243, "lon": 13.7700448, "tags": {"amenity": "restaurant", "cuisine": "pizza", "name": "Il Grirasole"}}, {"type": "node", "id": 5044211023, "lat": 42.0497776, "lon": 13.9232852, "tags": {"amenity": "cafe", "name": "Caff\u00e8 Ovidio", "name:it": "Caff\u00e8 Ovidio"}}, {"type": "node", "id": 5067594721, "lat": 41.7637423, "lon": 13.9462991, "tags": {"addr:city": "Civitella Alfedena", "addr:country": "IT", "addr:housenumber": "1", "addr:postcode": "67030", "addr:street": "Via Colle Pizzuto", "amenity": "restaurant", "cuisine": "italian", "name": "Ristorante al Luparo"}}, {"type": "node", "id": 5346825310, "lat": 41.8691524, "lon": 14.0654799, "tags": {"addr:city": "Rivisondoli", "addr:postcode": "67036", "amenity": "restaurant", "contact:facebook": "https://www.facebook.com/Ristorante-Da-Giocondo-504288722951391", "cuisine": "regional;pasta;meat;local", "name": "Ristorante da Giocondo", "opening_hours": "Mo,We-Su 12:45-14:45,19:45-21:45", "phone": "+39 0864 69123", "website": "http://www.ristorantedagiocondo.it/"}}, {"type": "node", "id": 5346920159, "lat": 41.8470903, "lon": 14.117943}, {"type": "node", "id": 5346920160, "lat": 41.8470028, "lon": 14.1180114}, {"type": "node", "id": 5346920161, "lat": 41.8469143, "lon": 14.1178074}, {"type": "node", "id": 5346920162, "lat": 41.8470017, "lon": 14.117739}, {"type": "node", "id": 5415265918, "lat": 41.7847978, "lon": 14.1075528, "tags": {"addr:city": "Castel di Sangro", "addr:postcode": "67031", "addr:street": "Corso Umberto I", "amenity": "restaurant", "capacity": "45", "cuisine": "regional;italian", "mobile": "+39 328 4997007", "name": "Il cortile", "opening_hours": "Mo-Su 10:00-22:00", "outdoor_seating": "yes", "smoking": "isolated"}}, {"type": "node", "id": 5496065756, "lat": 41.8245987, "lon": 14.0298709, "tags": {"addr:city": "Roccaraso", "addr:housenumber": "46/48", "addr:postcode": "67037", "addr:street": "Via Aremogna", "amenity": "restaurant", "name": "Il Boschetto", "operator": "Neve & Sole S.r.l.", "phone": "+39 0864 62199", "ref:vatin": "IT01466900667"}}, {"type": "node", "id": 5507499402, "lat": 41.8248045, "lon": 14.0279639, "tags": {"addr:city": "Roccaraso", "addr:place": "Aremogna", "addr:postcode": "67037", "amenity": "restaurant", "name": "Bar Telecabina", "operator": "Pratello Ski S.r.l.", "phone": "+39 0864 63539", "ref:vatin": "IT13019531006"}}, {"type": "node", "id": 5507499406, "lat": 42.0488404, "lon": 13.924112, "tags": {"addr:city": "Sulmona", "addr:postcode": "67039", "addr:street": "Piazza XX settembre", "amenity": "restaurant", "check_date": "2025-06-01", "cuisine": "regional", "diet:vegetarian": "yes", "email": "info@locandalquadrivio.it", "entrance": "yes", "name": "Locanda Medioevale", "opening_hours": "Tu off", "operator": "Carfagnini Franco", "outdoor_seating": "yes", "phone": "+39 0864 55533", "phone:mobile": "+39 333 3340650", "ref:vatin": "IT01846290664", "reservation": "yes", "toilets": "yes"}}, {"type": "node", "id": 5507499407, "lat": 42.0472172, "lon": 13.9259112, "tags": {"amenity": "cafe", "name": "Bar Medioevale"}}, {"type": "node", "id": 5507499409, "lat": 42.051415, "lon": 13.9230077, "tags": {"addr:city": "Sulmona", "addr:housenumber": "159", "addr:postcode": "67039", "addr:street": "Via Circonvallazione Orientale", "amenity": "cafe", "entrance": "yes", "name": "Pasticceria Caff\u00e8 del Duomo", "phone": "+39 0864 958408", "ref:vatin": "IT02036350680", "shop": "pastry"}}, {"type": "node", "id": 5633147757, "lat": 42.0902112, "lon": 14.2060848, "tags": {"addr:street": "Via Torretta", "amenity": "cafe", "description": "Cafeteria, Yoghurt", "name": "Hansel and Gretel", "opening_hours": "Tu-Su 07:00-23:00", "phone": "+39 39333185852"}}, {"type": "node", "id": 5643857531, "lat": 42.0905442, "lon": 14.2065712, "tags": {"amenity": "cafe", "name": "Official 5 Caffe"}}, {"type": "node", "id": 5764635250, "lat": 42.0328791, "lon": 13.7743468, "tags": {"amenity": "cafe"}}, {"type": "node", "id": 5841615345, "lat": 41.8534664, "lon": 14.2801194}, {"type": "node", "id": 5841615346, "lat": 41.8533752, "lon": 14.2800903}, {"type": "node", "id": 5841615347, "lat": 41.8533558, "lon": 14.2801776}, {"type": "node", "id": 5841615348, "lat": 41.853447, "lon": 14.2802143}, {"type": "node", "id": 5876910070, "lat": 42.0466797, "lon": 13.9250362, "tags": {"addr:city": "Sulmona", "addr:housenumber": "22", "addr:postcode": "67039", "addr:street": "Piazza Plebiscito", "amenity": "restaurant", "cuisine": "italian", "name": "Buonvento", "outdoor_seating": "yes", "phone": "+39 0864 950010", "takeaway": "no"}}, {"type": "node", "id": 5935579837, "lat": 42.0969096, "lon": 14.2501933}, {"type": "node", "id": 5935579838, "lat": 42.0971776, "lon": 14.2501663}, {"type": "node", "id": 5935579839, "lat": 42.097192, "lon": 14.2503626}, {"type": "node", "id": 5935579840, "lat": 42.0970986, "lon": 14.2503731}, {"type": "node", "id": 5935579841, "lat": 42.0971075, "lon": 14.2505304}, {"type": "node", "id": 5935579842, "lat": 42.0969797, "lon": 14.2505424}, {"type": "node", "id": 5935579843, "lat": 42.0969719, "lon": 14.2503986}, {"type": "node", "id": 5935579844, "lat": 42.0969585, "lon": 14.2504001}, {"type": "node", "id": 5935579845, "lat": 42.0969474, "lon": 14.2502997}, {"type": "node", "id": 5935579846, "lat": 42.0969152, "lon": 14.2503042}, {"type": "node", "id": 6241579985, "lat": 42.1176831, "lon": 14.2215561}, {"type": "node", "id": 6241579986, "lat": 42.1176662, "lon": 14.2217837}, {"type": "node", "id": 6241579987, "lat": 42.1175058, "lon": 14.2217951}, {"type": "node", "id": 6241579988, "lat": 42.1174917, "lon": 14.2216699}, {"type": "node", "id": 6241579989, "lat": 42.1175733, "lon": 14.2216585}, {"type": "node", "id": 6241579990, "lat": 42.1175818, "lon": 14.2215296}, {"type": "node", "id": 6241580000, "lat": 42.1176748, "lon": 14.221668}, {"type": "node", "id": 6334122585, "lat": 42.0499144, "lon": 13.9912146, "tags": {"amenity": "cafe", "name": "Caffe De Martinis"}}, {"type": "node", "id": 6365410713, "lat": 41.9453058, "lon": 14.2401046}, {"type": "node", "id": 6365410714, "lat": 41.9451721, "lon": 14.2401019}, {"type": "node", "id": 6365410715, "lat": 41.9451681, "lon": 14.2403406}, {"type": "node", "id": 6365410716, "lat": 41.9453058, "lon": 14.2403352}, {"type": "node", "id": 6366285932, "lat": 41.89955, "lon": 14.2585192}, {"type": "node", "id": 6366285933, "lat": 41.8993829, "lon": 14.2586038}, {"type": "node", "id": 6366285934, "lat": 41.8994464, "lon": 14.2588301}, {"type": "node", "id": 6366285935, "lat": 41.8996134, "lon": 14.2587455}, {"type": "node", "id": 6366285936, "lat": 41.899868, "lon": 14.2586089}, {"type": "node", "id": 6366285937, "lat": 41.8997203, "lon": 14.2586009}, {"type": "node", "id": 6366285938, "lat": 41.8997163, "lon": 14.258802}, {"type": "node", "id": 6366285939, "lat": 41.899868, "lon": 14.2588047}, {"type": "node", "id": 6433837824, "lat": 41.9663458, "lon": 14.335792}, {"type": "node", "id": 6433837825, "lat": 41.9662333, "lon": 14.3357616}, {"type": "node", "id": 6433837826, "lat": 41.9662188, "lon": 14.3358585}, {"type": "node", "id": 6433837827, "lat": 41.9662471, "lon": 14.3358661}, {"type": "node", "id": 6433837828, "lat": 41.9662284, "lon": 14.3359913}, {"type": "node", "id": 6433837829, "lat": 41.9663126, "lon": 14.336014}, {"type": "node", "id": 6485840985, "lat": 41.9045034, "lon": 13.8801829, "tags": {"addr:city": "Scanno", "addr:housenumber": "45", "addr:postcode": "67038", "addr:street": "Via dei Pescatori", "amenity": "restaurant", "check_date": "2023-07-24", "contact:phone": "+39 0864 747476", "name": "Lo sgabello", "opening_hours": "Mo-Su 12:00-15:00", "operator": "Colaneri Rossella", "website": "http://www.losgabelloscanno.it"}}, {"type": "node", "id": 6488430085, "lat": 42.0621634, "lon": 14.3085928}, {"type": "node", "id": 6488430086, "lat": 42.0620711, "lon": 14.3085567}, {"type": "node", "id": 6488430087, "lat": 42.0620092, "lon": 14.3088438}, {"type": "node", "id": 6488430088, "lat": 42.0621015, "lon": 14.3088799}, {"type": "node", "id": 6488430090, "lat": 42.1032066, "lon": 14.3291819}, {"type": "node", "id": 6488430091, "lat": 42.103164, "lon": 14.3291531}, {"type": "node", "id": 6488430092, "lat": 42.1031332, "lon": 14.3292233}, {"type": "node", "id": 6488430093, "lat": 42.1031805, "lon": 14.3292616}, {"type": "node", "id": 6615195126, "lat": 42.0462467, "lon": 13.9232538, "tags": {"addr:city": "Sulmona", "addr:housenumber": "60", "addr:postcode": "67039", "addr:street": "Via Manlio D'Eramo", "amenity": "restaurant", "cuisine": "regional;italian;mediterranean;soups", "name": "Ristorante Hostaria Dell'Arco", "phone": "+39 0864 210553", "wheelchair": "limited"}}, {"type": "node", "id": 6665258473, "lat": 42.1040454, "lon": 13.8053436, "tags": {"amenity": "restaurant", "cuisine": "pizza", "name": "Lo Chalet", "phone": "+39 0864 726554"}}, {"type": "node", "id": 6702975523, "lat": 41.8995803, "lon": 13.8768894}, {"type": "node", "id": 6702975524, "lat": 41.8995373, "lon": 13.8770447}, {"type": "node", "id": 6702975525, "lat": 41.8993181, "lon": 13.8769344}, {"type": "node", "id": 6702975526, "lat": 41.8993559, "lon": 13.8767833}, {"type": "node", "id": 6702975730, "lat": 41.9026661, "lon": 13.8795258, "tags": {"addr:city": "Scanno", "addr:postcode": "67038", "addr:street": "Via Don Bosco", "amenity": "restaurant", "name": "Antica Dimora Fuori le Mura", "phone": "+39 388 4211315"}}, {"type": "node", "id": 6702975731, "lat": 41.9028168, "lon": 13.8802232, "tags": {"addr:city": "Scanno", "addr:housenumber": "2", "addr:postcode": "67038", "addr:street": "Via Roma", "amenity": "restaurant", "name": "Antica Trattoria", "phone": "+39 0864 773326"}}, {"type": "node", "id": 6702975732, "lat": 41.9028009, "lon": 13.8802889, "tags": {"addr:city": "Scanno", "addr:housenumber": "4", "addr:postcode": "67038", "addr:street": "Via Roma", "amenity": "restaurant", "cuisine": "pizza", "name": "Il Mastro", "phone": "+39 0864 760114", "takeaway": "only"}}, {"type": "node", "id": 6710526985, "lat": 41.9038199, "lon": 13.8818937, "tags": {"addr:city": "Scanno", "addr:housenumber": "8", "addr:postcode": "67038", "addr:street": "Via Silla", "amenity": "restaurant", "name": "Ristorante Gli Archetti"}}, {"type": "node", "id": 6719538777, "lat": 41.9036876, "lon": 13.8821512, "tags": {"addr:city": "Scanno", "addr:housenumber": "10", "addr:postcode": "67038", "addr:street": "Strada Silla", "amenity": "cafe", "contact:phone": "+39 0864 747793", "name": "La Strada", "note": "Anche ricevitoria (receiving house)", "operator": "Antonio Consalvo", "shop": "kiosk;tobacco"}}, {"type": "node", "id": 6723792269, "lat": 41.8726084, "lon": 14.0672612, "tags": {"amenity": "cafe", "name": "Bar Boschetto"}}, {"type": "node", "id": 6723795990, "lat": 41.8704785, "lon": 14.0662864, "tags": {"amenity": "cafe", "name": "Gran Caff\u00e8 del Museo"}}, {"type": "node", "id": 6731994385, "lat": 41.8901215, "lon": 14.0645097, "tags": {"amenity": "restaurant", "cuisine": "regional;local;italian", "internet_access": "wlan", "name": "Il gallo di pietra", "phone": "+390864642040", "website": "http://www.ilgallodipietra.it"}}, {"type": "node", "id": 6753215286, "lat": 42.1226719, "lon": 14.0240013, "tags": {"addr:city": "Sant'Efuemia a Maiella", "addr:postcode": "65020", "amenity": "cafe", "contact:mobile": "+39 347 616 1991", "name": "Bar Boschetto", "opening_hours": "Mo-Su 09:00-19:00"}}, {"type": "node", "id": 6802942851, "lat": 41.7782448, "lon": 13.8563695, "tags": {"amenity": "restaurant"}}, {"type": "node", "id": 7040786885, "lat": 41.9182447, "lon": 14.3063744, "tags": {"addr:postcode": "66040", "amenity": "restaurant", "cuisine": "italian", "name": "Lo Shangri-La da Vincenzina", "opening_hours": "Tu-Su 10:00-22:00"}}, {"type": "node", "id": 7158879467, "lat": 42.0398215, "lon": 13.9304133, "tags": {"addr:city": "Sulmona", "addr:postcode": "67039", "addr:street": "Viale Giuseppe Mazzini", "amenity": "cafe", "name": "Gold Snackbar"}}, {"type": "node", "id": 7160460468, "lat": 41.777842, "lon": 14.1125012, "tags": {"addr:city": "Castel di Sangro", "addr:housenumber": "62", "addr:postcode": "67031", "addr:street": "Via della Stazione", "amenity": "restaurant", "cuisine": "regional", "name": "Sabatino Ristorante", "name:en": "Sabatino Restaurant", "opening_hours": "Tu-Su 10:30-14:30, 17:30-21:30", "phone": "+390864843301", "website": "https://www.facebook.com/Trattoriadasabatino-534433079975307/?rf=193905310639328"}}, {"type": "node", "id": 7576167430, "lat": 42.092101, "lon": 13.8735336}, {"type": "node", "id": 7576167431, "lat": 42.0923488, "lon": 13.8735747}, {"type": "node", "id": 7576167432, "lat": 42.0923069, "lon": 13.8737024}, {"type": "node", "id": 7576167433, "lat": 42.0923457, "lon": 13.8737317}, {"type": "node", "id": 7576167434, "lat": 42.0923379, "lon": 13.8737715}, {"type": "node", "id": 7576167435, "lat": 42.0924109, "lon": 13.8738321}, {"type": "node", "id": 7576167436, "lat": 42.0923721, "lon": 13.8739346}, {"type": "node", "id": 7576167437, "lat": 42.0920416, "lon": 13.8737384}, {"type": "node", "id": 7581149240, "lat": 42.0922827, "lon": 13.8735349}, {"type": "node", "id": 7581149241, "lat": 42.0922608, "lon": 13.8736073}, {"type": "node", "id": 7581149242, "lat": 42.0922171, "lon": 13.8736354}, {"type": "node", "id": 7581149243, "lat": 42.0922056, "lon": 13.873671}, {"type": "node", "id": 7581149244, "lat": 42.0921767, "lon": 13.8736527}, {"type": "node", "id": 7581149245, "lat": 42.0921966, "lon": 13.8735901}, {"type": "node", "id": 7581149247, "lat": 42.0922165, "lon": 13.8734935}, {"type": "node", "id": 7581149248, "lat": 42.0922066, "lon": 13.8735234}, {"type": "node", "id": 7581149249, "lat": 42.0922741, "lon": 13.8735686}, {"type": "node", "id": 7632358577, "lat": 41.848753, "lon": 14.0794809, "tags": {"addr:city": "Roccaraso", "addr:housenumber": "58", "addr:postcode": "67037", "addr:street": "Viale Roma", "amenity": "cafe", "email": "info@bargelo.it", "name": "Bar Gelo", "opening_hours": "Mo-Su 07:00-24:00", "phone": "+39 0864 619038", "website": "https://www.bargelo.it/"}}, {"type": "node", "id": 7710689869, "lat": 42.0479659, "lon": 13.9250412, "tags": {"addr:city": "Sulmona", "addr:housenumber": "175;177", "addr:postcode": "67039", "addr:street": "Corso Ovidio", "amenity": "restaurant", "bar": "yes", "check_date": "2025-06-01", "cuisine": "regional", "level": "0", "name": "JAMM' mo", "operator": "Feluis S.R. L.", "outdoor_seating": "yes", "reservation": "accepted"}}, {"type": "node", "id": 7737920445, "lat": 41.7517937, "lon": 13.8155642, "tags": {"amenity": "restaurant", "name": "La Tana Del Lupo"}}, {"type": "node", "id": 7740069385, "lat": 42.1027893, "lon": 14.0148691, "tags": {"amenity": "restaurant", "cuisine": "italian", "name": "Roccacamaca"}}, {"type": "node", "id": 7741768186, "lat": 42.0511044, "lon": 13.9932468, "tags": {"addr:city": "Pacentro", "addr:postcode": "67030", "addr:street": "Piazza del Popolo", "amenity": "restaurant", "cuisine": "pizza", "name": "La Fonte"}}, {"type": "node", "id": 7741768187, "lat": 42.0500928, "lon": 13.9912635, "tags": {"addr:city": "Pacentro", "addr:housenumber": "146", "addr:postcode": "67030", "addr:street": "Via Santa Maria Maggiore", "amenity": "restaurant", "cuisine": "local;pizza;italian;pasta;dessert", "name": "Ristorante Pizzeria Majella", "opening_hours": "Tu-Su 11:30-15:00, 19:00-23:00", "phone": "+39 0864 773391"}}, {"type": "node", "id": 7745482085, "lat": 42.0502401, "lon": 13.9910369, "tags": {"addr:city": "Pacentro", "addr:postcode": "67030", "addr:street": "Piazza Umberto I", "alt_name": "Taverna dei Caldora", "amenity": "restaurant", "contact:facebook": "TavernadeliCaldora", "name": "Taverna de li Caldora", "opening_hours": "We-Mo 13:00-14:30, 19:00-23:30", "phone": "+39 0864 41139", "wheelchair": "limited"}}, {"type": "node", "id": 7814435720, "lat": 41.9336068, "lon": 13.838558, "tags": {"addr:city": "Villalago", "addr:housenumber": "35", "addr:postcode": "67030", "addr:street": "Via Don Giovanni Bosco", "amenity": "restaurant", "cuisine": "italian;pizza", "name": "Da Michele", "phone": "+39 0864 740400"}}, {"type": "node", "id": 7814435744, "lat": 41.9348676, "lon": 13.8382594, "tags": {"addr:city": "Villalago", "addr:housenumber": "12", "addr:postcode": "67030", "addr:street": "Via Roma", "amenity": "cafe", "name": "La Piazzetta"}}, {"type": "node", "id": 7814435757, "lat": 41.9351018, "lon": 13.8379174, "tags": {"addr:city": "Villalago", "addr:postcode": "67030", "addr:street": "Piazza Celestino Lupi", "amenity": "restaurant", "cuisine": "italian;pizza;regional", "name": "La fontanella", "phone": "+39 0864 578374"}}, {"type": "node", "id": 7820764926, "lat": 41.9693261, "lon": 14.3620245, "tags": {"addr:city": "Villa Santa Maria", "addr:postcode": "66047", "addr:street": "Fonte del Fico", "amenity": "restaurant", "contact:facebook": "https://m.facebook.com/ristoranterebus/?tsid=0.4687946614048919&source=result", "cuisine": "italian;pizza", "name": "Rebus", "opening_hours": "Tu-Su 12:00-05:00", "phone": "+39 347 946 8077"}}, {"type": "node", "id": 7838054256, "lat": 41.7467771, "lon": 14.0383574, "tags": {"addr:housenumber": "3", "addr:street": "Rione Torre", "amenity": "restaurant", "bar": "no", "brewery": "yes", "check_date": "2025-05-27", "contact:facebook": "lafocescontrone", "contact:phone": "+39 0864 577987", "cuisine": "regional", "diet:vegetarian": "yes", "name": "Ristoro La Foce", "outdoor_seating": "yes", "payment:cash": "yes", "payment:mastercard": "yes", "payment:visa": "yes", "reservation": "yes", "toilets": "yes"}}, {"type": "node", "id": 7992700400, "lat": 42.0486071, "lon": 13.9270471, "tags": {"addr:housenumber": "13", "addr:street": "Via Leopoldo Dorrucci", "amenity": "restaurant", "brewery": "yes", "check_date": "2025-06-02", "cuisine": "regional", "diet:vegetarian": "yes", "name": "Verde Majella", "operator": "Biondi Ezio", "outdoor_seating": "no", "payment:cash": "yes", "payment:mastercard": "yes", "payment:visa": "yes", "ref:vatin": "IT02197370667", "start_date": "2025-05"}}, {"type": "node", "id": 8241088590, "lat": 41.9304476, "lon": 13.8693945, "tags": {"addr:city": "Frattura", "addr:postcode": "67038", "amenity": "restaurant", "contact:mobile": "+39 340 052 4911", "name": "Trattoria La Ciminiera"}}, {"type": "node", "id": 8498271531, "lat": 42.0383643, "lon": 13.9316}, {"type": "node", "id": 8498271532, "lat": 42.0382832, "lon": 13.9316477}, {"type": "node", "id": 8498271533, "lat": 42.038285, "lon": 13.9316747}, {"type": "node", "id": 8498271534, "lat": 42.0382339, "lon": 13.9317096}, {"type": "node", "id": 8498271535, "lat": 42.0381965, "lon": 13.9316422}, {"type": "node", "id": 8498271536, "lat": 42.0382074, "lon": 13.9316353}, {"type": "node", "id": 8498271537, "lat": 42.0381952, "lon": 13.9316}, {"type": "node", "id": 8498271538, "lat": 42.0383296, "lon": 13.9315156}, {"type": "node", "id": 8498271539, "lat": 42.0379458, "lon": 13.931088, "tags": {"amenity": "cafe"}}, {"type": "node", "id": 8498271549, "lat": 42.0426405, "lon": 13.929512, "tags": {"amenity": "cafe", "name": "Il Macinino"}}, {"type": "node", "id": 8498292969, "lat": 42.0568426, "lon": 13.9234556, "tags": {"amenity": "cafe", "name": "Bar La Mela"}}, {"type": "node", "id": 8498292970, "lat": 42.0566553, "lon": 13.9238649, "tags": {"amenity": "cafe", "name": "Marvin Cafe"}}, {"type": "node", "id": 8498292977, "lat": 42.0522974, "lon": 13.9295074, "tags": {"amenity": "cafe"}}, {"type": "node", "id": 8498292989, "lat": 42.0482886, "lon": 13.9254357, "tags": {"amenity": "restaurant", "name": "Osteria del Tempo Perso"}}, {"type": "node", "id": 8498292990, "lat": 42.047, "lon": 13.9239617, "tags": {"amenity": "restaurant", "name": "Il Vecchio Muro"}}, {"type": "node", "id": 8498293002, "lat": 42.0461902, "lon": 13.9251648, "tags": {"amenity": "restaurant", "check_date": "2025-06-03", "name": "Locanda di Gino"}}, {"type": "node", "id": 8579437506, "lat": 41.6928048, "lon": 14.1392351}, {"type": "node", "id": 8579437512, "lat": 41.6928429, "lon": 14.1391396}, {"type": "node", "id": 8579437513, "lat": 41.6927246, "lon": 14.1394358}, {"type": "node", "id": 8579437514, "lat": 41.6928479, "lon": 14.1395241}, {"type": "node", "id": 8579437515, "lat": 41.6929662, "lon": 14.1392279}, {"type": "node", "id": 8612411570, "lat": 41.7171046, "lon": 14.3135842}, {"type": "node", "id": 8612411571, "lat": 41.7170395, "lon": 14.313799}, {"type": "node", "id": 8612411572, "lat": 41.7171454, "lon": 14.3138566}, {"type": "node", "id": 8612411573, "lat": 41.7172105, "lon": 14.3136418}, {"type": "node", "id": 8738759317, "lat": 41.9340093, "lon": 13.9775657, "tags": {"addr:city": "Rocca Pia", "addr:housenumber": "9", "addr:postcode": "67030", "addr:street": "Via Roma", "amenity": "restaurant", "contact:facebook": "vecchioristoro", "cuisine": "local", "name": "Trattoria Il Vecchio Ristoro", "opening_hours": "Th-Tu 12:30-14:45, 19:30-21:45", "phone": "+39 0864 48481", "website": "http://www.ilvecchioristoro.it/"}}, {"type": "node", "id": 9015119817, "lat": 41.9932011, "lon": 13.8001075, "tags": {"amenity": "restaurant", "name": "Le gole"}}, {"type": "node", "id": 9213294017, "lat": 41.8439698, "lon": 14.1065717, "tags": {"addr:postcode": "67037", "addr:street": "Via Pietransieri", "alt_name": "Azienda Agricola Il Castellaccio", "amenity": "restaurant", "name": "Agriturismo Il Castellaccio", "phone": "+39 0864 62389"}}, {"type": "node", "id": 9343021913, "lat": 42.032799, "lon": 13.8635968, "tags": {"amenity": "restaurant", "name": "TreArchi", "name:it": "TreArchi"}}, {"type": "node", "id": 9401345483, "lat": 41.9124983, "lon": 14.3667856}, {"type": "node", "id": 9401345484, "lat": 41.9125281, "lon": 14.3667337}, {"type": "node", "id": 9401345485, "lat": 41.9124684, "lon": 14.366752}, {"type": "node", "id": 9401345486, "lat": 41.9124996, "lon": 14.3667017}, {"type": "node", "id": 9401345487, "lat": 41.9125906, "lon": 14.3668147}, {"type": "node", "id": 9401345488, "lat": 41.9125429, "lon": 14.3668988}, {"type": "node", "id": 9401345489, "lat": 41.9125675, "lon": 14.3669264}, {"type": "node", "id": 9401345490, "lat": 41.9126179, "lon": 14.3668453}, {"type": "node", "id": 9401345491, "lat": 41.912455, "lon": 14.3668551}, {"type": "node", "id": 9401345492, "lat": 41.9125228, "lon": 14.3669312}, {"type": "node", "id": 9401345493, "lat": 41.9126107, "lon": 14.3667823}, {"type": "node", "id": 9401345494, "lat": 41.9125443, "lon": 14.3667078}, {"type": "node", "id": 9862243075, "lat": 41.8093149, "lon": 13.7911809, "tags": {"amenity": "restaurant", "name": "Il picchio"}}, {"type": "node", "id": 9867629405, "lat": 41.7614525, "lon": 13.9877825}, {"type": "node", "id": 9867629406, "lat": 41.7614428, "lon": 13.9878852}, {"type": "node", "id": 9867629407, "lat": 41.7613412, "lon": 13.9878681}, {"type": "node", "id": 9867629408, "lat": 41.7613509, "lon": 13.9877654}, {"type": "node", "id": 9868154956, "lat": 41.9030228, "lon": 13.8807102, "tags": {"amenity": "restaurant", "contact:phone": "+39 0864 747390", "cuisine": "italian", "name": "Ristorante Alla Fonte"}}, {"type": "node", "id": 9868159917, "lat": 41.9028733, "lon": 13.8795502, "tags": {"amenity": "cafe", "name": "Caf\u00e9 Centrale"}}, {"type": "node", "id": 9869547239, "lat": 41.7565832, "lon": 13.9773293}, {"type": "node", "id": 9869547240, "lat": 41.7565191, "lon": 13.9773488}, {"type": "node", "id": 9869547241, "lat": 41.7565421, "lon": 13.9774846}, {"type": "node", "id": 9869547242, "lat": 41.7566062, "lon": 13.9774651}, {"type": "node", "id": 9957029718, "lat": 41.7556824, "lon": 13.9928515, "tags": {"amenity": "cafe", "name": "Gelateria"}}, {"type": "node", "id": 9968522504, "lat": 41.6783145, "lon": 13.815655}, {"type": "node", "id": 9968522512, "lat": 41.6784267, "lon": 13.8157167}, {"type": "node", "id": 9968522513, "lat": 41.6784547, "lon": 13.8157677}, {"type": "node", "id": 9968522514, "lat": 41.6784868, "lon": 13.8157435}, {"type": "node", "id": 9968522515, "lat": 41.6785549, "lon": 13.8158696}, {"type": "node", "id": 9968522516, "lat": 41.678605, "lon": 13.8158267}, {"type": "node", "id": 9968538317, "lat": 41.6785549, "lon": 13.8157221}, {"type": "node", "id": 9968538318, "lat": 41.6785749, "lon": 13.8156953}, {"type": "node", "id": 9968538319, "lat": 41.6785589, "lon": 13.8156577}, {"type": "node", "id": 9968538320, "lat": 41.6785669, "lon": 13.8154431}, {"type": "node", "id": 9968538321, "lat": 41.6784948, "lon": 13.8155102}, {"type": "node", "id": 9968538322, "lat": 41.6784948, "lon": 13.8155558}, {"type": "node", "id": 9968538323, "lat": 41.6784247, "lon": 13.8155612}, {"type": "node", "id": 9968538324, "lat": 41.6783846, "lon": 13.8155021}, {"type": "node", "id": 9968538325, "lat": 41.6783325, "lon": 13.8154941}, {"type": "node", "id": 9968538333, "lat": 41.678471, "lon": 13.8157554}, {"type": "node", "id": 9983753232, "lat": 42.0622053, "lon": 14.305377, "tags": {"addr:housenumber": "10", "addr:street": "Via Codacchie", "amenity": "restaurant", "name": "La Locanda del Corvo"}}, {"type": "node", "id": 10127687778, "lat": 41.9753133, "lon": 14.1835378}, {"type": "node", "id": 10127688121, "lat": 41.9754448, "lon": 14.1834415}, {"type": "node", "id": 10127688122, "lat": 41.9754816, "lon": 14.1833843}, {"type": "node", "id": 10142497780, "lat": 41.7753614, "lon": 13.8304032, "tags": {"amenity": "restaurant", "bar": "yes", "cuisine": "italian", "name": "La Vecchia Locanda"}}, {"type": "node", "id": 10310706602, "lat": 41.7124551, "lon": 14.1400542, "tags": {"amenity": "restaurant", "name": "Black River"}}, {"type": "node", "id": 10310727813, "lat": 41.7129962, "lon": 14.1397712, "tags": {"amenity": "cafe", "name": "Bar Rio"}}, {"type": "node", "id": 11034225176, "lat": 42.009345, "lon": 13.9051462}, {"type": "node", "id": 11034225177, "lat": 42.009344, "lon": 13.9051972}, {"type": "node", "id": 11034225178, "lat": 42.0093629, "lon": 13.9051978}, {"type": "node", "id": 11034225179, "lat": 42.0093639, "lon": 13.9051469}, {"type": "node", "id": 11093016906, "lat": 41.9852977, "lon": 14.1380656, "tags": {"amenity": "restaurant", "name": "Ristorante Bar La Majella"}}, {"type": "node", "id": 11093824043, "lat": 41.9800591, "lon": 14.1286233, "tags": {"amenity": "restaurant", "cuisine": "italian", "level": "0", "name": "Casa Dell'Orso", "toilets": "yes", "wheelchair": "yes"}}, {"type": "node", "id": 11112211784, "lat": 41.8377837, "lon": 14.0661757}, {"type": "node", "id": 11112211785, "lat": 41.8378885, "lon": 14.0662775}, {"type": "node", "id": 11112211786, "lat": 41.8377984, "lon": 14.0664446}, {"type": "node", "id": 11112211787, "lat": 41.8376936, "lon": 14.0663427}, {"type": "node", "id": 11112211795, "lat": 41.8463622, "lon": 14.0801063, "tags": {"addr:city": "Roccaraso", "addr:postcode": "67037", "addr:street": "Via Guglielmo Marconi", "amenity": "restaurant", "name": "Ristorante Chichibio"}}, {"type": "node", "id": 11112211804, "lat": 41.8475445, "lon": 14.0793858, "tags": {"addr:city": "Roccaraso", "addr:postcode": "67037", "addr:street": "Viale Roma", "amenity": "restaurant", "name": "Ristorante Il Girarosto"}}, {"type": "node", "id": 11112211817, "lat": 41.8482632, "lon": 14.0798375, "tags": {"addr:city": "Roccaraso", "addr:postcode": "67037", "addr:street": "Viale Roma", "amenity": "restaurant", "name": "Tiffany\u2019s Roccaraso"}}, {"type": "node", "id": 11152663883, "lat": 41.8059591, "lon": 14.3658678, "tags": {"addr:city": "Agnone", "addr:housenumber": "7", "addr:postcode": "86081", "addr:street": "Piazza Plebiscito", "amenity": "cafe", "contact:facebook": "https://www.facebook.com/184801425059960", "name": "Nuovo Caff\u00e8 Letterario", "phone": "+39 0865 79203", "website": "https://disv.it/letterario"}}, {"type": "node", "id": 11178825321, "lat": 41.7894779, "lon": 14.1829231, "tags": {"addr:city": "San Pietro Avellana", "addr:housenumber": "62", "addr:postcode": "86088", "addr:street": "Via San Rocco", "amenity": "cafe", "contact:facebook": "https://www.facebook.com/107613584341091", "name": "La Bottega degli Angeli Golosi", "pastry": "yes", "phone": "+39 366 5209930", "website": "https://www.labottegadegliangeligolosi.it/"}}, {"type": "node", "id": 11178840459, "lat": 41.8339625, "lon": 14.2641963, "tags": {"addr:city": "Capracotta", "addr:housenumber": "4", "addr:postcode": "86082", "addr:street": "Piazza Stanislao Falconi", "amenity": "cafe", "contact:facebook": "https://www.facebook.com/520762824650732", "name": "Bar Di Rienzo", "phone": "+39 338 4862648", "website": "https://www.capracotta.com/"}}, {"type": "node", "id": 11189282175, "lat": 41.7091154, "lon": 13.8133711, "tags": {"addr:city": "San Donato Val di Comino", "addr:housenumber": "28", "addr:postcode": "03046", "addr:street": "via belfiore", "amenity": "restaurant", "check_date": "2024-11-13", "cuisine": "regional;italian", "currency:XBT": "yes", "name": "Enoteca 3/4", "payment:lightning": "yes", "payment:lightning_contactless": "no", "payment:onchain": "yes", "phone": "+39 34 8073 3580"}}, {"type": "node", "id": 11190544668, "lat": 41.8831968, "lon": 14.2560111, "tags": {"addr:city": "Sant'Angelo del Pesco", "addr:housenumber": "3", "addr:postcode": "86080", "addr:street": "Piazza dei Caduti", "amenity": "cafe", "contact:facebook": "https://www.facebook.com/206115406418501", "name": "Caf\u00e9 i 4 mori", "phone": "+393895761013"}}, {"type": "node", "id": 11267861593, "lat": 42.0528268, "lon": 13.9240712, "tags": {"amenity": "cafe", "outdoor_seating": "yes"}}, {"type": "node", "id": 11279052236, "lat": 41.7849, "lon": 14.1082895, "tags": {"amenity": "cafe", "name": "Cantina Harlem"}}, {"type": "node", "id": 11279052238, "lat": 41.7849349, "lon": 14.1083585, "tags": {"addr:city": "Castel di Sangro", "addr:housenumber": "3", "addr:postcode": "67031", "addr:street": "Piazza Plebiscito", "amenity": "restaurant", "name": "Shiro Sushi Garage", "website": "https://www.sushigarage.it/"}}, {"type": "node", "id": 11516089240, "lat": 42.0490459, "lon": 13.9217173, "tags": {"addr:city": "Sulmona", "addr:housenumber": "51", "addr:postcode": "67039", "addr:street": "Via Ercole Ciofano", "air_conditioning": "yes", "amenity": "restaurant", "cuisine": "italian", "diet:gluten_free": "yes", "diet:lactose_free": "yes", "diet:meat": "yes", "diet:vegan": "yes", "diet:vegetarian": "yes", "internet_access": "yes", "mobile": "+39 375 733 2791", "name": "La Corte Del Bonton", "toilets": "yes", "wheelchair": "yes"}}, {"type": "node", "id": 11557878329, "lat": 42.0507042, "lon": 13.992388, "tags": {"addr:city": "Pacentro", "addr:postcode": "67030", "addr:street": "Via Santa Maria Maggiore", "amenity": "restaurant", "cuisine": "italian;regional;pasta", "diet:mediterranean": "yes", "name": "L'Antica Locanda"}}, {"type": "node", "id": 11618572169, "lat": 41.7808635, "lon": 14.1105218, "tags": {"amenity": "restaurant", "name": "La Rimessa", "phone": "0864841093"}}, {"type": "node", "id": 11818107435, "lat": 41.7199746, "lon": 14.3159462, "tags": {"addr:city": "Carovilli", "addr:postcode": "86083", "addr:street": "Coll\u00b4Arso", "amenity": "restaurant", "cuisine": "regional;italian", "email": "bistrot@altaviahorses.com", "internet_access": "wlan", "name": "Bistrot Altavia", "sport": "pferde", "website": "https://altaviahorses.com/"}}, {"type": "node", "id": 12016620451, "lat": 41.8092557, "lon": 13.7906105, "tags": {"amenity": "cafe", "name": "Bar dell'Orso Pasticceria"}}, {"type": "node", "id": 12070267573, "lat": 41.8377074, "lon": 14.0663171}, {"type": "node", "id": 12070267576, "lat": 41.83776, "lon": 14.0662196}, {"type": "node", "id": 12073496603, "lat": 41.7674773, "lon": 13.9513853, "tags": {"amenity": "restaurant"}}, {"type": "node", "id": 12078107189, "lat": 41.8483185, "lon": 14.0854034, "tags": {"amenity": "restaurant", "name": "Le Ortensie"}}, {"type": "node", "id": 12086596379, "lat": 41.9496318, "lon": 14.027756}, {"type": "node", "id": 12086638600, "lat": 41.9495615, "lon": 14.0276891}, {"type": "node", "id": 12093418974, "lat": 41.8762768, "lon": 13.8895619, "tags": {"amenity": "restaurant", "cuisine": "italian;abruzzese;local", "name": "Il Ranch", "phone": "+39 368 331 2385"}}, {"type": "node", "id": 12100404963, "lat": 42.0482152, "lon": 14.0496043}, {"type": "node", "id": 12100404964, "lat": 42.0481652, "lon": 14.0496029}, {"type": "node", "id": 12100404965, "lat": 42.0482957, "lon": 14.0497833}, {"type": "node", "id": 12100404966, "lat": 42.0482963, "lon": 14.049745}, {"type": "node", "id": 12137130984, "lat": 41.9574291, "lon": 14.3519095, "tags": {"amenity": "cafe"}}, {"type": "node", "id": 12141958012, "lat": 41.8098079, "lon": 13.790947, "tags": {"addr:city": "Pescasseroli", "addr:postcode": "67032", "amenity": "restaurant", "contact:phone": "+39 0863 911039", "description": "Ristorante e Pizzeria. Anche Senza Glutine", "name": "La Tana Del Lupo"}}, {"type": "node", "id": 12154129422, "lat": 42.0519533, "lon": 13.9271117, "tags": {"amenity": "cafe", "name": "Caffettiera Schiazza"}}, {"type": "node", "id": 12205119191, "lat": 41.8103331, "lon": 13.7903826, "tags": {"addr:city": "Pescasseroli", "addr:housenumber": "15", "addr:postcode": "67032", "addr:street": "Via Taverna Vecchia", "amenity": "restaurant", "cuisine": "italian", "delivery": "no", "mobile": "+39 347 115 5393", "name": "La Vittorcorte Bistrot", "payment:cash": "yes", "payment:credit_cards": "yes", "payment:debit_cards": "yes", "takeaway": "yes", "toilets": "yes", "toilets:wheelchair": "yes"}}, {"type": "node", "id": 12247715849, "lat": 41.7653289, "lon": 13.9398957, "tags": {"addr:housenumber": "26", "addr:street": "Via Nazionale", "amenity": "restaurant", "name": "Taverna tre monti", "phone": "+39 328 5541794"}}, {"type": "node", "id": 12297168643, "lat": 42.1241135, "lon": 14.2803416, "tags": {"addr:city": "Casoli", "addr:street": "Contrada Piano Aventino", "amenity": "restaurant", "contact:phone": "+39 0872 981387", "cuisine": "arrosticini;burger;italian;porchetta;regional;roast", "name": "Bar Lupennese", "outdoor_seating": "yes", "toilets": "yes"}}, {"type": "node", "id": 12302819710, "lat": 41.7664143, "lon": 13.9432019}, {"type": "node", "id": 12302819712, "lat": 41.7664799, "lon": 13.943253}, {"type": "node", "id": 12302819714, "lat": 41.7663458, "lon": 13.9435325}, {"type": "node", "id": 12302819716, "lat": 41.7665574, "lon": 13.9429227}, {"type": "node", "id": 12302819717, "lat": 41.7664824, "lon": 13.9430877}, {"type": "node", "id": 12302819718, "lat": 41.7664931, "lon": 13.9430972}, {"type": "node", "id": 12321458788, "lat": 42.0031672, "lon": 14.0127316, "tags": {"amenity": "restaurant", "cuisine": "italian;italian_pizza", "name": "Ara Del Colle", "phone:mobile": "+39 347 0967396", "tourism": "hotel"}}, {"type": "node", "id": 12323726777, "lat": 42.0033107, "lon": 14.0119865, "tags": {"amenity": "cafe", "name": "K2"}}, {"type": "node", "id": 12323726778, "lat": 42.0031225, "lon": 14.0121413, "tags": {"amenity": "restaurant", "name": "Locanda Cansanese", "opening_hours": "Mo-Sa 11:30-15:00,17:30-00:00; We off; Su 11:30-15:00,17:30-24:00"}}, {"type": "node", "id": 12325381452, "lat": 42.0027259, "lon": 14.0133209, "tags": {"amenity": "cafe", "name": "Pancafe"}}, {"type": "node", "id": 12343261277, "lat": 41.7588969, "lon": 13.9903982, "tags": {"addr:housenumber": "6", "addr:street": "Via Leonardo Di Loreto", "amenity": "restaurant", "mobile": "+39 320 411 8930", "name": "Per I Vicoli", "opening_hours": "Mo-Su 12:30-15:00,19:00-22:00"}}, {"type": "node", "id": 12373963306, "lat": 42.1238112, "lon": 14.024902, "tags": {"addr:city": "Sant'Eufemia a Maiella", "addr:housenumber": "187", "addr:postcode": "65020", "addr:street": "Via Roma", "alt_name": "Trattoria Majella", "amenity": "restaurant", "cuisine": "regional;local", "mobile": "+39 333 933 0896", "name": "Trattoria Maiella", "opening_hours": "Mo-Su 13:00-16:00", "website:menu": "https://www.leggimenu.it/menu/trattoriamaiella"}}, {"type": "node", "id": 12409843512, "lat": 41.730293, "lon": 14.268778}, {"type": "node", "id": 12409843513, "lat": 41.7302173, "lon": 14.2686997}, {"type": "node", "id": 12409843514, "lat": 41.7301532, "lon": 14.2688109}, {"type": "node", "id": 12409843515, "lat": 41.730229, "lon": 14.2688892}, {"type": "node", "id": 12409843610, "lat": 41.726032, "lon": 14.2767269}, {"type": "node", "id": 12409843611, "lat": 41.7261608, "lon": 14.276912}, {"type": "node", "id": 12409843612, "lat": 41.726092, "lon": 14.276998}, {"type": "node", "id": 12409843613, "lat": 41.7260829, "lon": 14.2769849}, {"type": "node", "id": 12409843614, "lat": 41.7260562, "lon": 14.2770183}, {"type": "node", "id": 12409843615, "lat": 41.7259365, "lon": 14.2768463}, {"type": "node", "id": 12475068193, "lat": 41.7801322, "lon": 14.0946666, "tags": {"amenity": "restaurant", "name": "Ristorante Reale", "wikidata": "Q84176931"}}, {"type": "node", "id": 12475085828, "lat": 41.7578797, "lon": 14.0935633, "tags": {"amenity": "restaurant", "name": "ALT Stazione del Gusto"}}, {"type": "node", "id": 12655722983, "lat": 41.9388573, "lon": 14.3224346, "tags": {"amenity": "cafe", "name": "Bar Sfarfallo", "outdoor_seating": "yes"}}, {"type": "node", "id": 12699396359, "lat": 41.9171516, "lon": 13.8696832}, {"type": "node", "id": 12699396362, "lat": 41.9171487, "lon": 13.8695962}, {"type": "node", "id": 12715758985, "lat": 41.9045327, "lon": 13.8812609, "tags": {"amenity": "cafe", "name": "Orso Brillo", "outdoor_seating": "yes"}}, {"type": "node", "id": 12809048937, "lat": 41.9942633, "lon": 13.8034186, "tags": {"addr:city": "Anversa degli Abruzzi", "addr:housenumber": "30", "addr:postcode": "67030", "addr:street": "Via Santa Maria delle Fornaci", "amenity": "restaurant", "cuisine": "regional;burger;sandwich", "name": "Bottega Belprato", "phone": "+393395811343"}}, {"type": "node", "id": 12862891212, "lat": 42.061102, "lon": 13.9073711, "tags": {"amenity": "cafe", "check_date": "2025-05-25", "payment:cash": "yes", "payment:mastercard": "yes", "payment:visa": "yes"}}, {"type": "node", "id": 12864376774, "lat": 41.7467578, "lon": 14.0392107, "tags": {"amenity": "cafe", "name": "Il grottino", "outdoor_seating": "yes"}}, {"type": "node", "id": 12879227995, "lat": 42.0501699, "lon": 13.9220537, "tags": {"amenity": "restaurant", "check_date": "2025-06-01", "cuisine": "regional", "name": "La cantina di Biffi", "outdoor_seating": "yes"}}, {"type": "node", "id": 12879334141, "lat": 42.0505836, "lon": 13.923696, "tags": {"amenity": "restaurant", "check_date": "2025-06-01", "contact:website": "https://www.ristoranteclemente.it", "cuisine": "regional", "name": "Ristorante Clemente"}}, {"type": "node", "id": 12882215510, "lat": 42.0481028, "lon": 13.9270752, "tags": {"amenity": "restaurant", "check_date": "2025-06-02"}}, {"type": "way", "id": 72405741, "nodes": [859912129, 859912128, 859912147, 859912133, 859912129], "tags": {"addr:city": "Pescopennataro", "addr:housenumber": "2", "addr:street": "Via Rio Verde", "amenity": "restaurant", "building": "yes", "cuisine": "italian", "name": "Le Panche"}}, {"type": "way", "id": 72406390, "nodes": [859915569, 859915563, 859915576, 859915581, 859915569], "tags": {"amenity": "restaurant", "building": "yes"}}, {"type": "way", "id": 72407554, "nodes": [859919844, 859919839, 859919834, 859919836, 859919844], "tags": {"addr:city": "Rosello", "addr:place": "Fonte Ginepri", "amenity": "restaurant", "building": "yes", "cuisine": "italian", "name": "Lo Scamorzaro", "website": "https://www.loscamorzaro.com/ristorante"}}, {"type": "way", "id": 95627780, "nodes": [1108836095, 1108836104, 1108836093, 1108836102, 1108836039, 1108836050, 1108836067, 1108836090, 1108836100, 1108836036, 1108836047, 1108836045, 1108836062, 1108836052, 1108836059, 1108836080]}, {"type": "way", "id": 127628420, "nodes": [1412117597, 3636819759, 1412117593, 3636819756, 3636819757, 1412117596, 1412117595, 1412117598, 1412117597], "tags": {"amenity": "restaurant", "building": "yes", "name": "Ristorante Rifugio lo Scoiattolo", "phone": "+39 0864 747730;+39 0864 578333;+39 333 3134586", "website": "http://www.passogodi.altervista.org"}}, {"type": "way", "id": 141899224, "nodes": [1553128862, 1553128906]}, {"type": "way", "id": 141899418, "nodes": [1553128883, 1553128879]}, {"type": "way", "id": 141899426, "nodes": [1553126482, 1553126542]}, {"type": "way", "id": 141899445, "nodes": [1553128879, 1553128822]}, {"type": "way", "id": 141899592, "nodes": [1553128906, 1553128883]}, {"type": "way", "id": 141899621, "nodes": [1553128837, 1553128862]}, {"type": "way", "id": 141899682, "nodes": [1553128822, 1553128837]}, {"type": "way", "id": 141900128, "nodes": [1553126542, 1553126593, 1553126539, 1553126521, 1553126514, 1553126501, 1553126482]}, {"type": "way", "id": 145867310, "nodes": [1591936999, 1591937094]}, {"type": "way", "id": 145867489, "nodes": [1591937240, 1591937094], "tags": {"barrier": "hedge"}}, {"type": "way", "id": 145867507, "nodes": [1591937240, 1591937595]}, {"type": "way", "id": 145867756, "nodes": [1591936856, 1591936798]}, {"type": "way", "id": 145867783, "nodes": [1591936999, 1591936798], "tags": {"barrier": "hedge"}}, {"type": "way", "id": 145868226, "nodes": [1591936952, 1591936856]}, {"type": "way", "id": 145868841, "nodes": [1591937352, 1591937181, 1591936952]}, {"type": "way", "id": 145870304, "nodes": [1591937595, 1591937929, 1591937916, 1591937597, 1591937395, 1591937352]}, {"type": "way", "id": 147219786, "nodes": [1604314132, 1604314098, 1604314051, 1604314085, 1604313270, 1604314132], "tags": {"amenity": "restaurant", "building": "yes", "name": "Moretto"}}, {"type": "way", "id": 172642331, "nodes": [1835275678, 1835275671, 1835275677, 1835275685, 1835275678], "tags": {"amenity": "cafe", "building": "yes"}}, {"type": "way", "id": 274692085, "nodes": [2793755514, 2793755515, 2793755511, 2793755509, 2793755514], "tags": {"amenity": "restaurant", "building": "yes", "cuisine": "italian", "name": "Il Tratturo", "phone": "+39 0865 837151", "tourism": "guest_house"}}, {"type": "way", "id": 285490850, "nodes": [2891642986, 2891642988, 2891642978, 2891642973, 2891642986], "tags": {"amenity": "restaurant", "building": "yes", "name": "La Pineta - da Tony", "phone": "+39 0865 949312"}}, {"type": "way", "id": 287228197, "nodes": [2908646721, 2908646722, 2908646723, 2908646724, 2908646721], "tags": {"amenity": "restaurant", "building": "yes"}}, {"type": "way", "id": 288861674, "nodes": [2924117660, 2924117685, 12086638600, 2924117681, 12086596379, 2924117649, 2924117660], "tags": {"amenity": "restaurant", "building": "yes", "name": "Il Faggeto", "outdoor_seating": "yes"}}, {"type": "way", "id": 289417748, "nodes": [2929647486, 2929647487, 2929647488, 2929647489, 2929647486], "tags": {"amenity": "restaurant", "building": "yes", "name": "Il Giardino Dei Ciliegi"}}, {"type": "way", "id": 295338603, "nodes": [2990507087, 2990507088, 2990507089, 2990507090, 2990507087], "tags": {"amenity": "cafe", "building": "yes", "name": "Rifugio Guado Liscia", "tourism": "wilderness_hut"}}, {"type": "way", "id": 297369170, "nodes": [3012438520, 3012438518, 3012438517, 3012438519, 3012438520], "tags": {"amenity": "restaurant", "building": "yes"}}, {"type": "way", "id": 305869957, "nodes": [3105598027, 3105598028, 3105600229, 3105600230, 3105598027], "tags": {"amenity": "restaurant", "building": "yes"}}, {"type": "way", "id": 306541580, "nodes": [3114859233, 3114859234, 3114859235, 3114859236, 3114859237, 3114859238, 3114859233], "tags": {"amenity": "restaurant", "building": "yes", "name": "Hotel Holidays"}}, {"type": "way", "id": 307506599, "nodes": [3126871552, 3126871553, 3126871554, 3126871555, 3126871552], "tags": {"amenity": "restaurant", "building": "yes", "capacity": "50", "name": "La Portella"}}, {"type": "way", "id": 358844280, "nodes": [1412117599, 3636819762, 3636819760, 3636819761, 3636819763, 1412117600, 1412117599], "tags": {"amenity": "restaurant"}}, {"type": "way", "id": 365707473, "nodes": [3697078291, 3697078288, 3697078284, 3697078285, 3697078291], "tags": {"amenity": "restaurant", "building": "yes", "name": "Il Ghiro", "phone": "+39 086 489493;+39 348 0823350", "tourism": "guest_house", "website": "http://www.bedbreakfastilghiro-pizzeriadamauro.com"}}, {"type": "way", "id": 365716087, "nodes": [3697174565, 12302819717, 12302819718, 12302819716, 3697174569, 3697174568, 3697174563, 3697174559, 3697174557, 3697174554, 3697174550, 12302819714, 12302819712, 12302819710, 3697174565], "tags": {"amenity": "restaurant", "contact:facebook": "https://www.facebook.com/pages/IL-GUADO-DELLA-VALLE/77410858105", "name": "Il Guado della Valle", "phone": "+39 0864 890171", "tourism": "guest_house", "website": "http://www.ilguadodellavalle.it"}}, {"type": "way", "id": 377498248, "nodes": [3808725543, 3808725540, 3808725538, 3808725534, 3808725478, 3808725456, 3808725453, 3808725437, 3808725429, 3808725425, 3808725422, 3808725419, 3808725434, 3808725438, 3808725445, 3808725446, 3808725442, 3808725444, 3808725447, 3808725448, 3808725466, 3808725464, 3808725468, 3808725463, 3808725455, 3808725452, 3808725458, 3808725457, 3808725475, 3808725476, 3808725480, 3808725485, 3808725492, 3808725501, 3808725507, 3808725510, 3808725511, 3808725520, 3808725532, 3808725536, 3808725559, 3808725557, 3808725508, 3808725514, 3808725526, 3808725531, 3808725541, 3808725543], "tags": {"addr:city": "Vastogirardi", "amenity": "restaurant", "email": "staffoli@staffoli.it", "name": "Staffoli Horses", "phone": "+39 0865 77177", "tourism": "guest_house", "website": "https://www.staffoli.it/"}}, {"type": "way", "id": 439935363, "nodes": [4376141478, 4376141479, 4376141480, 4376141481, 4376141478], "tags": {"amenity": "restaurant", "building": "yes", "name": "Trattoria Taverna Del Lago"}}, {"type": "way", "id": 440670005, "nodes": [4384495071, 4384495067, 4384495063, 4384495064, 4384495071], "tags": {"amenity": "cafe", "building": "yes"}}, {"type": "way", "id": 447984468, "nodes": [4450443539, 4450443540, 4450443541, 4450443542, 4450443539], "tags": {"amenity": "restaurant", "building": "yes", "cuisine": "regional", "name": "Abete Bianco"}}, {"type": "way", "id": 472630376, "nodes": [4668318294, 4668318291, 10127688122, 10127688121, 4668318292, 4668318293, 10127687778, 4668318294], "tags": {"amenity": "restaurant", "building": "yes", "name": "Rifugio Fonte della Noce"}}, {"type": "way", "id": 480640406, "nodes": [4736142718, 4736142715, 4736142716, 12100404966, 12100404965, 4736142717, 12100404964, 12100404963, 4736142718], "tags": {"addr:postcode": "67030", "amenity": "restaurant", "building": "yes", "contact:facebook": "fonteromana", "contact:mobile": "+39 339 423 6464", "cuisine": "regional", "name": "Ristorante Fonte Romana", "opening_hours": "Sa 10:00-20:30; Su 10:00-18:30", "roof:colour": "gray", "roof:orientation": "along", "roof:shape": "gabled"}}, {"type": "way", "id": 489092510, "nodes": [4813702370, 4813702371, 4813702372, 4813702373, 4813702370], "tags": {"amenity": "cafe", "building": "yes"}}, {"type": "way", "id": 489092992, "nodes": [4813694265, 4813694266, 4813694267, 4813694268, 4813694265], "tags": {"addr:city": "Scanno", "addr:postcode": "67038", "amenity": "restaurant", "building": "commercial", "name": "Chalet del Lago"}}, {"type": "way", "id": 489094113, "nodes": [4813714092, 4813714093, 4813714094, 4813714095, 12699396359, 12699396362, 4813714092], "tags": {"amenity": "restaurant", "building": "retail", "check_date": "2023-07-24", "contact:phone": "+39 0864 747296", "name": "Trattoria Bar Sul Lago", "roof:material": "roof_tiles", "roof:orientation": "across", "roof:shape": "gabled"}}, {"type": "way", "id": 490682700, "nodes": [4828664295, 4828664296, 4828664297, 4828664298, 4828664295], "tags": {"amenity": "restaurant", "building": "yes", "name": "Rifugio \"Il Prato\""}}, {"type": "way", "id": 554000489, "nodes": [5346920162, 5346920161, 5346920160, 5346920159, 5346920162], "tags": {"amenity": "restaurant", "cuisine": "italian", "name": "La Trapolla Ristorante"}}, {"type": "way", "id": 617998386, "nodes": [5841615345, 5841615346, 5841615347, 5841615348, 5841615345], "tags": {"amenity": "cafe", "building": "yes", "name": "Baita"}}, {"type": "way", "id": 628673940, "nodes": [5935579837, 5935579838, 5935579839, 5935579840, 5935579841, 5935579842, 5935579843, 5935579844, 5935579845, 5935579846, 5935579837], "tags": {"addr:city": "Casoli", "addr:housenumber": "4", "addr:postcode": "66043", "addr:street": "Contrada Torretta", "amenity": "restaurant", "building": "yes", "cuisine": "regional;italian;steak_house", "name": "La Taverna sul lago", "opening_hours": "Mo-Su 12:00-14:45,20:00-22:30; We off"}}, {"type": "way", "id": 666638331, "nodes": [6241579985, 6241580000, 6241579986, 6241579987, 6241579988, 6241579989, 6241579990, 6241579985], "tags": {"addr:city": "Palombaro", "addr:housenumber": "13", "addr:postcode": "66010", "addr:street": "Via Pagani", "amenity": "restaurant", "building": "yes", "cuisine": "italian", "name": "Trattoria dal Pagano", "outdoor_seating": "yes", "website": "https://trattoriadalpagano.it/"}}, {"type": "way", "id": 679832900, "nodes": [6365410713, 6365410714, 6365410715, 6365410716, 6365410713], "tags": {"addr:city": "Pizzoferrato", "addr:street": "Contrada Casale Fortunati", "amenity": "restaurant", "building": "yes", "cuisine": "italian;italian_pizza;regional", "name": "La Fontanella", "website": "https://ristorante-pizzeria-la-fontanella.business.site/"}}, {"type": "way", "id": 679922242, "nodes": [6366285932, 6366285933, 6366285934, 6366285935, 6366285932]}, {"type": "way", "id": 679922243, "nodes": [6366285936, 6366285937, 6366285938, 6366285939, 6366285936]}, {"type": "way", "id": 686413561, "nodes": [6433837824, 6433837825, 6433837826, 6433837827, 6433837828, 6433837829, 6433837824], "tags": {"addr:city": "Montelapiano", "amenity": "restaurant", "building": "yes", "cuisine": "italian;regional", "name": "Il Borgo Nero", "website": "http://www.ilborgonero.it/"}}, {"type": "way", "id": 691463476, "nodes": [6488430085, 6488430086, 6488430087, 6488430088, 6488430085], "tags": {"addr:city": "Roccascalegna", "amenity": "restaurant", "building": "yes", "cuisine": "italian;regional", "name": "Civico 20", "outdoor_seating": "yes", "website": "http://www.civico20roccascalegna.it/"}}, {"type": "way", "id": 691463480, "nodes": [6488430090, 6488430091, 6488430092, 6488430093, 6488430090], "tags": {"addr:city": "Altino", "amenity": "restaurant", "building": "yes", "cuisine": "italian;regional;wine", "name": "RibAltino"}}, {"type": "way", "id": 713024495, "nodes": [6702975523, 6702975524, 6702975525, 6702975526, 6702975523], "tags": {"amenity": "restaurant", "cuisine": "italian;pizza;abruzzese", "internet_access": "wlan", "internet_access:fee": "no", "name": "La Baita", "opening_hours": "Mo-Su 12:30-15:30,19:30-00:00", "outdoor_seating": "yes", "phone": "+39 0864 747826", "takeaway": "yes", "toilets:access": "customers"}}, {"type": "way", "id": 810332160, "nodes": [7576167430, 7581149245, 7581149244, 7581149243, 7581149242, 7581149241, 7581149249, 7581149248, 7581149247, 7581149240, 7576167431, 7576167432, 7576167433, 7576167434, 7576167435, 7576167436, 7576167437, 7576167430], "tags": {"addr:city": "Pratola Peligna", "addr:postcode": "67035", "addr:street": "Via delle Alpi", "amenity": "restaurant", "building": "yes", "cuisine": "regional;italian;pizza", "name": "Il Carro", "phone": "+39 0864 273132", "wheelchair": "yes"}}, {"type": "way", "id": 914854227, "nodes": [8498271531, 8498271532, 8498271533, 8498271534, 8498271535, 8498271536, 8498271537, 8498271538, 8498271531], "tags": {"amenity": "cafe", "building": "yes"}}, {"type": "way", "id": 924413696, "nodes": [8579437515, 8579437514, 8579437513, 8579437506, 8579437512, 8579437515], "tags": {"amenity": "restaurant", "building": "yes", "mobile": "+39 338 5805197", "name": "Il Poggio"}}, {"type": "way", "id": 928491071, "nodes": [8612411573, 8612411572, 8612411571, 8612411570, 8612411573], "tags": {"amenity": "restaurant", "mobile": "+39 338 3008318", "name": "I Quattro Archi"}}, {"type": "way", "id": 1019299420, "nodes": [9401345494, 9401345493, 9401345487, 9401345490, 9401345489, 9401345488, 9401345492, 9401345491, 9401345483, 9401345485, 9401345486, 9401345484, 9401345494], "tags": {"amenity": "restaurant", "building": "yes", "cuisine": "italian", "name": "Il Mulino Di Roio Del 1400"}}, {"type": "way", "id": 1075988903, "nodes": [9867629405, 9867629406, 9867629407, 9867629408, 9867629405], "tags": {"amenity": "cafe", "building": "yes"}}, {"type": "way", "id": 1076246610, "nodes": [9869547239, 9869547240, 9869547241, 9869547242, 9869547239], "tags": {"amenity": "cafe", "building": "yes"}}, {"type": "way", "id": 1087993257, "nodes": [9968522504, 9968522512, 9968522513, 9968538333, 9968522514, 9968522515, 9968522516, 9968538317, 9968538318, 9968538319, 9968538320, 9968538321, 9968538322, 9968538323, 9968538324, 9968538325, 9968522504], "tags": {"amenity": "restaurant", "building": "yes", "name": "Braceria Mamma Giovanna"}}, {"type": "way", "id": 1094610630, "nodes": [1108836080, 1108836095]}, {"type": "way", "id": 1188277054, "nodes": [11034225179, 11034225178, 11034225177, 11034225176, 11034225179], "tags": {"amenity": "restaurant", "building": "yes", "cuisine": "italian", "name": "Bosco Plaja"}}, {"type": "way", "id": 1197721773, "nodes": [11112211784, 11112211785, 11112211786, 11112211787, 12070267573, 12070267576, 11112211784], "tags": {"amenity": "restaurant", "building": "yes", "name": "Ristorante Rifugio Campetto degli Alpini", "roof:shape": "skillion_windmill"}}, {"type": "way", "id": 1341582757, "nodes": [12409843512, 12409843513, 12409843514, 12409843515, 12409843512], "tags": {"amenity": "restaurant", "building": "yes", "name": "La Grande Quercia"}}, {"type": "way", "id": 1341582772, "nodes": [12409843610, 12409843611, 12409843612, 12409843613, 12409843614, 12409843615, 12409843610], "tags": {"amenity": "restaurant", "building": "yes", "name": "La Bacca Rara"}}, {"type": "relation", "id": 1921466, "members": [{"type": "way", "ref": 141899445, "role": "outer"}, {"type": "way", "ref": 141899682, "role": "outer"}, {"type": "way", "ref": 141899621, "role": "outer"}, {"type": "way", "ref": 141899224, "role": "outer"}, {"type": "way", "ref": 141899592, "role": "outer"}, {"type": "way", "ref": 141899418, "role": "outer"}], "tags": {"amenity": "restaurant", "building": "yes", "cuisine": "regional", "name": "L'800", "type": "multipolygon"}}, {"type": "relation", "id": 1921468, "members": [{"type": "way", "ref": 141899426, "role": "outer"}, {"type": "way", "ref": 141900128, "role": "outer"}], "tags": {"amenity": "restaurant", "building": "yes", "cuisine": "regional", "name": "Villa Letizia", "type": "multipolygon"}}, {"type": "relation", "id": 1970934, "members": [{"type": "way", "ref": 145867489, "role": "outer"}, {"type": "way", "ref": 145867310, "role": "outer"}, {"type": "way", "ref": 145867783, "role": "outer"}, {"type": "way", "ref": 145867756, "role": "outer"}, {"type": "way", "ref": 145868226, "role": "outer"}, {"type": "way", "ref": 145868841, "role": "outer"}, {"type": "way", "ref": 145870304, "role": "outer"}, {"type": "way", "ref": 145867507, "role": "outer"}], "tags": {"amenity": "restaurant", "cuisine": "pizza", "name": "Nando", "type": "multipolygon"}}, {"type": "relation", "id": 9438635, "members": [{"type": "way", "ref": 679922242, "role": "outer"}, {"type": "way", "ref": 679922243, "role": "outer"}], "tags": {"addr:city": "Pizzoferrato", "addr:street": "Contrada Casale Pollice", "amenity": "restaurant", "building": "yes", "cuisine": "italian;regional", "name": "Il Casale", "outdoor_seating": "yes", "phone": "+390872 946242", "type": "multipolygon"}}, {"type": "relation", "id": 14581556, "members": [{"type": "way", "ref": 95627780, "role": "outer"}, {"type": "way", "ref": 1094610630, "role": "outer"}], "tags": {"amenity": "restaurant", "building": "hotel", "building:levels": "3", "closed": "yes", "name": "Celidonio", "operational_status": "closed", "roof:levels": "1", "tourism": "hotel", "type": "multipolygon", "wikidata": "Q128912289"}}]}