{"version": 0.6, "generator": "Overpass API 0.7.62.7 375dc00a", "osm3s": {"timestamp_osm_base": "2025-06-14T13:56:34Z", "copyright": "The data included in this document is from www.openstreetmap.org. The data is made available under ODbL."}, "elements": [{"type": "node", "id": 906717034, "lat": 38.0870053, "lon": 15.6787754, "tags": {"amenity": "cafe", "internet_access": "no", "internet_access:fee": "no", "name": "Bar San Nicola", "opening_hours": "Tu-Su 08:00-15:00;Sa 08:00-12:00", "smoking": "no", "wheelchair": "no"}}, {"type": "node", "id": 906951620, "lat": 38.0836022, "lon": 15.6807172, "tags": {"amenity": "cafe", "internet_access": "no", "internet_access:fee": "no", "name": "Il bergamotto", "opening_hours": "Mo-Su 08:30-20:00; Fr off", "smoking": "no", "wheelchair": "no"}}, {"type": "node", "id": 906951626, "lat": 38.08342, "lon": 15.6809136, "tags": {"amenity": "restaurant", "cuisine": "pizza", "internet_access": "no", "internet_access:fee": "no", "microbrewery": "no", "name": "Windy Hill", "opening_hours": "Mo-Su 18:00-24:00; Fr off", "smoking": "no", "wheelchair": "no"}}, {"type": "node", "id": 907084691, "lat": 38.0879638, "lon": 15.6790228, "tags": {"amenity": "restaurant", "cuisine": "italian", "internet_access": "no", "name": "La Giara", "smoking": "no", "wheelchair": "no"}}, {"type": "node", "id": 1251434308, "lat": 38.0880906, "lon": 15.6687104}, {"type": "node", "id": 1251434312, "lat": 38.0879747, "lon": 15.6687851}, {"type": "node", "id": 1251434313, "lat": 38.0882964, "lon": 15.6685776}, {"type": "node", "id": 1251434315, "lat": 38.0878966, "lon": 15.66885}, {"type": "node", "id": 1251434321, "lat": 38.088061, "lon": 15.6687962}, {"type": "node", "id": 1251434323, "lat": 38.0883175, "lon": 15.6686313}, {"type": "node", "id": 1251434325, "lat": 38.0879386, "lon": 15.6688042}, {"type": "node", "id": 1251434330, "lat": 38.0881729, "lon": 15.6685294}, {"type": "node", "id": 1251434331, "lat": 38.0879176, "lon": 15.6690217}, {"type": "node", "id": 1251434334, "lat": 38.0882595, "lon": 15.6685414}, {"type": "node", "id": 1251434336, "lat": 38.0879747, "lon": 15.669098}, {"type": "node", "id": 1251434338, "lat": 38.0878876, "lon": 15.6689416}, {"type": "node", "id": 1251434340, "lat": 38.088098, "lon": 15.6686165}, {"type": "node", "id": 1251434342, "lat": 38.0879506, "lon": 15.6690484}, {"type": "node", "id": 1251434346, "lat": 38.0880631, "lon": 15.6687265}, {"type": "node", "id": 1251434348, "lat": 38.0881317, "lon": 15.6685508}, {"type": "node", "id": 1400066965, "lat": 37.9234121, "lon": 15.3478307, "tags": {"addr:housenumber": "270", "addr:street": "Via Consolare Valeria", "amenity": "cafe"}}, {"type": "node", "id": 1400883488, "lat": 37.9214298, "lon": 15.3468113, "tags": {"addr:housenumber": "33", "addr:street": "Via Nino Fleres", "amenity": "cafe", "name": "Bar Kursaal"}}, {"type": "node", "id": 1612021797, "lat": 38.1153891, "lon": 15.6703323, "tags": {"addr:housename": "Bar - Tabacchi Marra Angelo", "addr:postcode": "89124", "addr:street": "Via Eremo al Santuario 75/A", "amenity": "cafe", "name": "Bar - Tabacchi Marra Angelo", "phone": "+39 0965 892139", "website": "www.angelomarra.com", "wifi": "no"}}, {"type": "node", "id": 1661279407, "lat": 38.1426246, "lon": 15.5175759, "tags": {"amenity": "cafe", "name": "Autogrill", "website": "https://www.autogrill.it"}}, {"type": "node", "id": 1722572254, "lat": 38.1173054, "lon": 15.6501532, "tags": {"amenity": "cafe", "name": "Gran Caff\u00e9"}}, {"type": "node", "id": 1751537901, "lat": 38.1437976, "lon": 15.5175606, "tags": {"amenity": "cafe", "name": "Time Cafe"}}, {"type": "node", "id": 1973425426, "lat": 38.1258507, "lon": 15.6562605, "tags": {"amenity": "cafe", "name": "Fratelli Gallo"}}, {"type": "node", "id": 2045221276, "lat": 38.1157222, "lon": 15.6492991, "tags": {"amenity": "restaurant", "name": "La luna ribelle"}}, {"type": "node", "id": 2324011817, "lat": 38.0465959, "lon": 15.4401571, "tags": {"addr:housenumber": "9", "addr:postcode": "98025", "addr:street": "Piazza Badia", "amenity": "restaurant", "cuisine": "italian", "name": "Antica Badia"}}, {"type": "node", "id": 2351103948, "lat": 37.9533565, "lon": 15.6833471}, {"type": "node", "id": 2368177858, "lat": 37.9379655, "lon": 15.3563563, "tags": {"amenity": "cafe", "operator": "Autogrill"}}, {"type": "node", "id": 2383057358, "lat": 38.1208541, "lon": 15.648997, "tags": {"amenity": "cafe"}}, {"type": "node", "id": 2416217727, "lat": 38.1131279, "lon": 15.6523271, "tags": {"amenity": "restaurant", "cuisine": "pizza", "name": "Pizzeria Ciroma", "toilets:wheelchair": "no", "wheelchair": "no", "wifi": "no"}}, {"type": "node", "id": 2421223083, "lat": 38.123855, "lon": 15.7364741, "tags": {"amenity": "cafe"}}, {"type": "node", "id": 2422250257, "lat": 38.1810615, "lon": 15.8457661, "tags": {"amenity": "cafe"}}, {"type": "node", "id": 2423487907, "lat": 38.110524, "lon": 15.6455459, "tags": {"addr:city": "Reggio di Calabria", "addr:housenumber": "3", "addr:postcode": "89125", "addr:street": "Via Zecca", "amenity": "restaurant", "cuisine": "pizza", "name": "Pizzeria Fratelli La Bufala", "phone": "+39 0965 894116", "website": "https://www.fratellilabufala.com"}}, {"type": "node", "id": 2423488093, "lat": 38.1098337, "lon": 15.6449443, "tags": {"amenity": "restaurant", "name": "Pizzeria Spaccanapoli"}}, {"type": "node", "id": 2426625203, "lat": 38.1671183, "lon": 15.8360781, "tags": {"amenity": "cafe", "name": "Bar Hotel Centrale"}}, {"type": "node", "id": 2426625204, "lat": 38.1664699, "lon": 15.8351405, "tags": {"amenity": "restaurant", "name": "Cai"}}, {"type": "node", "id": 2426643089, "lat": 38.1671811, "lon": 15.8360149, "tags": {"amenity": "restaurant", "name": "Ristorante Hotel Centrale"}}, {"type": "node", "id": 2427028471, "lat": 38.0614292, "lon": 15.6523855, "tags": {"amenity": "restaurant", "name": "Pizzeria Settimo Cielo"}}, {"type": "node", "id": 2558224009, "lat": 38.1763354, "lon": 15.5471518, "tags": {"addr:housenumber": "340", "addr:postcode": "98124", "addr:street": "Viale San Martino", "amenity": "restaurant", "cuisine": "pizza", "name": "Pizzeria Rosticceria Spadino"}}, {"type": "node", "id": 2714528805, "lat": 38.0257836, "lon": 15.8244281, "tags": {"addr:city": "Bagaladi", "addr:postcode": "89060", "addr:street": "Via torrente Zervo - Contrada Pambola", "addr:unit": "RC", "amenity": "restaurant", "cuisine": "regional", "description": "Presso il frantoio Jacopino, oggi Museo dell'olio, \u00e8 funzionante un punto ristoro dove \u00e8 possibile degustare i prodotti tipici ed enogastronomici dell\u2019Aspromonte.", "name": "Porta del Parco di Bagaladi- Ristorante", "phone": "+39 0965 724806"}}, {"type": "node", "id": 2720699022, "lat": 38.1590293, "lon": 15.379315, "tags": {"amenity": "restaurant", "cuisine": "italian;pizza", "name": "Fort Apache"}}, {"type": "node", "id": 2806844184, "lat": 38.1587629, "lon": 15.3515782, "tags": {"amenity": "cafe", "name": "Bar Sport"}}, {"type": "node", "id": 2806844185, "lat": 38.1585128, "lon": 15.3514376, "tags": {"amenity": "cafe", "name": "Bar le Donne"}}, {"type": "node", "id": 2879829453, "lat": 38.1078125, "lon": 15.6393182, "tags": {"amenity": "restaurant", "cuisine": "italian", "name": "Al Tempietto da Ficara"}}, {"type": "node", "id": 2879829454, "lat": 38.1109441, "lon": 15.6442549, "tags": {"amenity": "restaurant", "cuisine": "italian", "name": "Pepy's Beach Pizzeria", "toilets:wheelchair": "yes", "wheelchair": "yes"}}, {"type": "node", "id": 2879837707, "lat": 38.1048061, "lon": 15.6389358, "tags": {"amenity": "cafe"}}, {"type": "node", "id": 2879837875, "lat": 38.1035518, "lon": 15.6403551, "tags": {"addr:city": "Reggio di Calabria", "addr:country": "IT", "addr:housenumber": "7", "addr:postcode": "89127", "addr:street": "Via Fratelli Cairoli", "amenity": "restaurant", "cuisine": "regional", "email": "danielegaronfalo@live.it", "name": "Trattoria del Pesce Fresco", "phone": "+39 0965 890 420", "smoking": "no", "website": "https://www.trattoriadelpescefresco.com/"}}, {"type": "node", "id": 2949632917, "lat": 37.9191391, "lon": 15.7741824, "tags": {"amenity": "restaurant", "cuisine": "pizza", "name": "Angelo Biondo"}}, {"type": "node", "id": 2949780282, "lat": 37.9173291, "lon": 15.7629421, "tags": {"amenity": "restaurant", "cuisine": "pizza", "name": "Pizzeria Enjoy Steakhouse"}}, {"type": "node", "id": 2955139939, "lat": 38.1127329, "lon": 15.6600919, "tags": {"amenity": "cafe"}}, {"type": "node", "id": 2960465991, "lat": 38.1166148, "lon": 15.6492283, "tags": {"amenity": "restaurant", "name": "L'Ancora"}}, {"type": "node", "id": 2963294989, "lat": 37.918063, "lon": 15.7737114, "tags": {"amenity": "cafe", "name": "Bar Pasticceria Gran Caff\u00e8"}}, {"type": "node", "id": 2964232601, "lat": 38.119539, "lon": 15.6581654, "tags": {"amenity": "cafe", "name": "Bar Pasticceria Ficara"}}, {"type": "node", "id": 3067355247, "lat": 37.9609932, "lon": 15.3826995, "tags": {"amenity": "restaurant", "name": "Il Moro"}}, {"type": "node", "id": 3067355306, "lat": 37.9612906, "lon": 15.3820323, "tags": {"amenity": "cafe", "name": "Black & White"}}, {"type": "node", "id": 3199766027, "lat": 38.1477543, "lon": 15.3000114, "tags": {"amenity": "restaurant", "cuisine": "italian;pizza", "name": "La Pergola", "opening_hours": "Tu-Su 10:30-24:00", "phone": "+39 090 935266"}}, {"type": "node", "id": 3307195883, "lat": 38.1562766, "lon": 15.380137, "tags": {"addr:city": "Monforte San Giorgio", "addr:housename": "La Tana Trattoria", "addr:housenumber": "69", "addr:postcode": "98041", "addr:street": "Via Vittorio Emanuele III", "amenity": "restaurant", "name": "La Tana", "website": "www.la-tana.it"}}, {"type": "node", "id": 3372143162, "lat": 37.9230529, "lon": 15.3485989}, {"type": "node", "id": 3372143163, "lat": 37.9230844, "lon": 15.34862}, {"type": "node", "id": 3372143164, "lat": 37.9230845, "lon": 15.3486632}, {"type": "node", "id": 3372143165, "lat": 37.9230549, "lon": 15.3486835}, {"type": "node", "id": 3372143166, "lat": 37.9230253, "lon": 15.3486681}, {"type": "node", "id": 3372143167, "lat": 37.9230228, "lon": 15.3486196}, {"type": "node", "id": 3454798681, "lat": 37.9139083, "lon": 15.3369969, "tags": {"amenity": "restaurant", "name": "Il Padrino"}}, {"type": "node", "id": 3454802504, "lat": 37.9151, "lon": 15.335025, "tags": {"amenity": "restaurant", "name": "Ristorante Pizzeria Abbazia"}}, {"type": "node", "id": 3611131438, "lat": 37.9212355, "lon": 15.7960164}, {"type": "node", "id": 3611131439, "lat": 37.921208, "lon": 15.7956328}, {"type": "node", "id": 3611131440, "lat": 37.9223992, "lon": 15.7955524}, {"type": "node", "id": 3611131441, "lat": 37.9217517, "lon": 15.7958099}, {"type": "node", "id": 3611131442, "lat": 37.9216333, "lon": 15.7958501}, {"type": "node", "id": 3611131443, "lat": 37.9222278, "lon": 15.794788}, {"type": "node", "id": 3611131444, "lat": 37.921117, "lon": 15.7954075}, {"type": "node", "id": 3611131445, "lat": 37.9210408, "lon": 15.7952627}, {"type": "node", "id": 3611131446, "lat": 37.9213667, "lon": 15.7950428}, {"type": "node", "id": 3611131447, "lat": 37.9212494, "lon": 15.7951793}, {"type": "node", "id": 3611131461, "lat": 37.922293, "lon": 15.7955946}, {"type": "node", "id": 3611131462, "lat": 37.922162, "lon": 15.7956467}, {"type": "node", "id": 3672561053, "lat": 38.1568255, "lon": 15.8330031}, {"type": "node", "id": 3672561054, "lat": 38.1568382, "lon": 15.8328661}, {"type": "node", "id": 3672561055, "lat": 38.1569884, "lon": 15.8330217}, {"type": "node", "id": 3672561056, "lat": 38.157003, "lon": 15.8329008}, {"type": "node", "id": 4069013933, "lat": 38.1031567, "lon": 15.6416459, "tags": {"addr:city": "Reggio di Calabria", "addr:country": "IT", "addr:housenumber": "22", "addr:postcode": "89127", "addr:street": "Via Span\u00f2 Bolani", "amenity": "cafe", "name": "Sarne", "shop": "pastry", "website": "https://www.pasticceriasarne.com/", "wheelchair": "no"}}, {"type": "node", "id": 4069013934, "lat": 38.1131809, "lon": 15.6513739, "tags": {"addr:city": "Reggio di Calabria", "addr:country": "IT", "addr:housenumber": "12", "addr:postcode": "89127", "addr:street": "Via del Torrione", "amenity": "cafe", "name": "Sarne", "shop": "pastry", "toilets:wheelchair": "no", "website": "https://www.pasticceriasarne.com/", "wheelchair": "no"}}, {"type": "node", "id": 4078330704, "lat": 37.9142421, "lon": 15.335388}, {"type": "node", "id": 4078330705, "lat": 37.9142677, "lon": 15.3355835}, {"type": "node", "id": 4078330708, "lat": 37.9141905, "lon": 15.3355708}, {"type": "node", "id": 4078330709, "lat": 37.9142005, "lon": 15.3353877}, {"type": "node", "id": 4078340812, "lat": 37.9142051, "lon": 15.3351809}, {"type": "node", "id": 4078340813, "lat": 37.9142009, "lon": 15.335363}, {"type": "node", "id": 4078340815, "lat": 37.9142438, "lon": 15.3353622}, {"type": "node", "id": 4078427038, "lat": 37.9143514, "lon": 15.3350591, "tags": {"amenity": "restaurant", "name": "Pizzeria Carullo"}}, {"type": "node", "id": 4108448791, "lat": 38.1511304, "lon": 15.5293638, "tags": {"addr:city": "Messina", "amenity": "restaurant", "cuisine": "chinese;japanese", "name": "Happy Sushi Wok", "phone": "+39 090 635359", "website": "http://www.happysushiwok.it"}}, {"type": "node", "id": 4115258155, "lat": 37.9025634, "lon": 15.3315449}, {"type": "node", "id": 4115258156, "lat": 37.9024789, "lon": 15.3317257}, {"type": "node", "id": 4115258157, "lat": 37.9022365, "lon": 15.3315438}, {"type": "node", "id": 4115258158, "lat": 37.902321, "lon": 15.331363}, {"type": "node", "id": 4353749089, "lat": 38.0043234, "lon": 15.4217532, "tags": {"amenity": "restaurant", "name": "Il Magazzino"}}, {"type": "node", "id": 4355766095, "lat": 38.1045104, "lon": 15.6398699, "tags": {"addr:city": "Reggio di Calabria", "addr:country": "IT", "addr:housenumber": "10", "addr:postcode": "89127", "addr:street": "Via Fra Gesualdo Melacrino", "amenity": "restaurant", "cuisine": "sandwich;italian;pizza;chicken;italian_pizza;mediterranean", "email": "carmen.alampi@alice.it", "name": "Pizzeria La Capricciosa", "phone": "+39 327 4968940", "website": "https://m.facebook.com/La-Capricciosa-818343404954733/info?tab=overview#_=_"}}, {"type": "node", "id": 4412877184, "lat": 38.0882331, "lon": 15.6685267}, {"type": "node", "id": 4412877328, "lat": 38.0883249, "lon": 15.6688968}, {"type": "node", "id": 4432881881, "lat": 38.0238196, "lon": 15.6483441, "tags": {"addr:city": "Reggio di Calabria", "addr:housenumber": "59", "addr:postcode": "89134", "addr:street": "Via Longitudinale", "amenity": "restaurant", "cuisine": "italian_pizza", "name": "Ombelico Del Mondo", "toilets:wheelchair": "no", "wheelchair": "no"}}, {"type": "node", "id": 4432881883, "lat": 38.0238281, "lon": 15.648869, "tags": {"addr:city": "Reggio di Calabria", "addr:housenumber": "363", "addr:postcode": "89134", "addr:street": "Via Nazionale Pellaro", "amenity": "restaurant", "cuisine": "italian_pizza", "name": "Krasty Rosticceria Pizzeria", "opening_hours": "Mo-Su 19:00-01:00", "toilets:wheelchair": "no", "wheelchair": "no"}}, {"type": "node", "id": 4432881886, "lat": 38.0244387, "lon": 15.6495222, "tags": {"addr:city": "Reggio di Calabria", "addr:housenumber": "33", "addr:postcode": "89134", "addr:street": "Via Longitudinale", "amenity": "restaurant", "cuisine": "italian_pizza", "name": "The London Tavern", "toilets:wheelchair": "no", "wheelchair": "no"}}, {"type": "node", "id": 4432881888, "lat": 38.0245338, "lon": 15.6505637, "tags": {"amenity": "restaurant", "cuisine": "burger", "name": "Bad Bull", "toilets:wheelchair": "no", "wheelchair": "no"}}, {"type": "node", "id": 4432882096, "lat": 38.0262423, "lon": 15.6523481, "tags": {"addr:city": "Reggio di Calabria", "addr:housenumber": "11", "addr:postcode": "89134", "addr:street": "Via Industriale", "amenity": "restaurant", "cuisine": "italian", "name": "BellaItalia", "opening_hours": "Mo-Su 17:30-00:00", "toilets:wheelchair": "no", "wheelchair": "no"}}, {"type": "node", "id": 4437994177, "lat": 38.0149148, "lon": 15.6473264, "tags": {"amenity": "restaurant", "cuisine": "italian_pizza", "name": "I Cavalieri di San Giorgio"}}, {"type": "node", "id": 4438149593, "lat": 38.0693509, "lon": 15.4871866, "tags": {"amenity": "cafe", "name": "De Luca"}}, {"type": "node", "id": 4628299189, "lat": 37.9268176, "lon": 15.3512063, "tags": {"addr:housenumber": "89", "addr:street": "Via Consolare Valeria", "amenity": "cafe", "name": "Eros Bar", "source": "Numeri_Civici_CTN2000 83085_Sant_Alessio_Siculo"}}, {"type": "node", "id": 4628299190, "lat": 37.926671, "lon": 15.3508317, "tags": {"addr:housenumber": "86", "addr:street": "Via Consolare Valeria", "amenity": "restaurant", "name": "Pizzeria El Rodeo", "source": "Numeri_Civici_CTN2000 83085_Sant_Alessio_Siculo"}}, {"type": "node", "id": 4701617442, "lat": 37.9526108, "lon": 15.3742079, "tags": {"addr:city": "Santa Teresa di Riva", "addr:housenumber": "464", "addr:postcode": "98028", "addr:street": "Via Regina Margherita", "amenity": "cafe", "name": "7000 Caff\u00e8"}}, {"type": "node", "id": 4702124149, "lat": 37.9198874, "lon": 15.3458704, "tags": {"addr:housenumber": "3", "addr:street": "Via Professore Eugenio Stagnitta", "amenity": "restaurant", "name": "Ristorante Accabbanna"}}, {"type": "node", "id": 4705464731, "lat": 38.0209411, "lon": 15.6432199, "tags": {"addr:city": "Reggio di Calabria", "addr:housenumber": "409", "addr:postcode": "89134", "addr:street": "Via Nazionale Occhio di Pellaro", "amenity": "restaurant", "cuisine": "pizza", "delivery": "yes", "name": "Villa Lelmar by Metropolitan", "outdoor_seating": "yes"}}, {"type": "node", "id": 4708955587, "lat": 37.9612906, "lon": 15.3818336, "tags": {"amenity": "cafe", "name": "L'orizzonte"}}, {"type": "node", "id": 4728885455, "lat": 37.998886, "lon": 15.4175695, "tags": {"amenity": "cafe"}}, {"type": "node", "id": 5048586852, "lat": 37.9453879, "lon": 15.3678884, "tags": {"amenity": "cafe"}}, {"type": "node", "id": 5120082841, "lat": 37.9239415, "lon": 15.348528, "tags": {"amenity": "restaurant", "name": "Fata morgana bar pizzeria bistrot"}}, {"type": "node", "id": 5120083868, "lat": 37.9271265, "lon": 15.3513602, "tags": {"addr:housenumber": "56", "addr:street": "Via Consolare Valeria", "amenity": "cafe", "name": "Bar Guglielmo", "source": "Numeri_Civici_CTN2000 83085_Sant_Alessio_Siculo"}}, {"type": "node", "id": 5120084382, "lat": 37.9283324, "lon": 15.352322, "tags": {"addr:housenumber": "18", "addr:street": "Via Consolare Valeria", "amenity": "restaurant", "name": "Pizzeria Trocadero", "source": "Numeri_Civici_CTN2000 83085_Sant_Alessio_Siculo"}}, {"type": "node", "id": 5120084398, "lat": 37.9288688, "lon": 15.3528036, "tags": {"addr:housenumber": "4", "addr:street": "Via Consolare Valeria", "amenity": "cafe", "name": "Gelateria Bar Heaven", "source": "Numeri_Civici_CTN2000 83085_Sant_Alessio_Siculo"}}, {"type": "node", "id": 5208218217, "lat": 38.1630858, "lon": 15.5381461, "tags": {"amenity": "cafe", "name": "Policlinic Bar"}}, {"type": "node", "id": 5209662883, "lat": 38.1658192, "lon": 15.5420896, "tags": {"amenity": "cafe", "name": "Eni cafe & shop"}}, {"type": "node", "id": 5209662884, "lat": 38.164304, "lon": 15.5383292, "tags": {"amenity": "cafe", "name": "Ice Bar"}}, {"type": "node", "id": 5209662885, "lat": 38.1646171, "lon": 15.5384566, "tags": {"amenity": "cafe", "name": "Poli Bar", "phone": "+39 090 2926304"}}, {"type": "node", "id": 5209662890, "lat": 38.1658034, "lon": 15.5393699, "tags": {"amenity": "cafe", "name": "Bar Stadio"}}, {"type": "node", "id": 5209662903, "lat": 38.1682505, "lon": 15.5410344, "tags": {"amenity": "cafe", "name": "Petrella"}}, {"type": "node", "id": 5209662904, "lat": 38.1682986, "lon": 15.5410719, "tags": {"amenity": "cafe", "name": "D'Arrigo"}}, {"type": "node", "id": 5245848222, "lat": 38.1646769, "lon": 15.5370816, "tags": {"amenity": "cafe", "name": "Ippocrate Caff\u00e8", "phone": "+39 090 2939619", "wheelchair": "yes"}}, {"type": "node", "id": 5335418206, "lat": 38.0246465, "lon": 15.65047, "tags": {"addr:city": "Reggio di Calabria", "addr:housenumber": "102e", "addr:postcode": "89134", "addr:street": "Via Nazionale Pellaro", "amenity": "restaurant", "cuisine": "burger", "name": "Mata Hambre"}}, {"type": "node", "id": 5401601774, "lat": 37.9132061, "lon": 15.3355323, "tags": {"amenity": "restaurant", "name": "Kem\u00ec"}}, {"type": "node", "id": 5401601775, "lat": 37.913738, "lon": 15.3361925, "tags": {"amenity": "restaurant", "name": "'O Dammuseddu"}}, {"type": "node", "id": 5405331258, "lat": 38.0104218, "lon": 15.4210576, "tags": {"amenity": "restaurant", "name": "Villa Orchidea"}}, {"type": "node", "id": 5405331524, "lat": 38.0191012, "lon": 15.4248468, "tags": {"amenity": "restaurant", "name": "Al Chiaro di Luna"}}, {"type": "node", "id": 5467199025, "lat": 38.0100468, "lon": 15.3075642, "tags": {"amenity": "restaurant", "name": "La Trattoria del Cacciatore"}}, {"type": "node", "id": 5467205321, "lat": 38.0041346, "lon": 15.3176419, "tags": {"amenity": "restaurant", "name": "Pentoladoro"}}, {"type": "node", "id": 5472508822, "lat": 37.9316459, "lon": 15.3520503, "tags": {"amenity": "restaurant", "name": "Parco Ducale"}}, {"type": "node", "id": 5475546622, "lat": 37.9387302, "lon": 15.3611564, "tags": {"amenity": "cafe"}}, {"type": "node", "id": 5475584922, "lat": 37.9392303, "lon": 15.3615451, "tags": {"amenity": "cafe", "name": "Caf\u00e8 Sicilia"}}, {"type": "node", "id": 5477274422, "lat": 37.9395053, "lon": 15.3618114, "tags": {"amenity": "cafe", "name": "Bar Colorado"}}, {"type": "node", "id": 5477274522, "lat": 37.940154, "lon": 15.3623973, "tags": {"amenity": "cafe"}}, {"type": "node", "id": 5482109422, "lat": 37.9451854, "lon": 15.3675214, "tags": {"amenity": "cafe", "name": "Bar Fiorino"}}, {"type": "node", "id": 5672263460, "lat": 38.1569988, "lon": 15.8329361}, {"type": "node", "id": 5672263461, "lat": 38.1571139, "lon": 15.8329527}, {"type": "node", "id": 5672263462, "lat": 38.1571011, "lon": 15.8330952}, {"type": "node", "id": 5672263463, "lat": 38.156956, "lon": 15.8330765}, {"type": "node", "id": 5672263464, "lat": 38.1569618, "lon": 15.8330186}, {"type": "node", "id": 5699922689, "lat": 38.1814674, "lon": 15.6605222, "tags": {"amenity": "restaurant", "name": "L'atTrattoria"}}, {"type": "node", "id": 5747058549, "lat": 38.1612417, "lon": 15.5373517, "tags": {"amenity": "restaurant", "contact:phone": "+39 090 2320316", "cuisine": "pizza", "level": "0", "name": "Sale & Pepe", "opening_hours": "Mo-Sa 11:00-15:00,19:00-23:30; Su 19:00-23:30; PH closed", "outdoor_seating": "yes", "takeaway": "yes", "wheelchair": "limited"}}, {"type": "node", "id": 6325660230, "lat": 38.0482217, "lon": 15.6607225, "tags": {"amenity": "restaurant", "name": "Villa Blanche Ricevimenti"}}, {"type": "node", "id": 6381399992, "lat": 38.1093316, "lon": 15.6467974, "tags": {"amenity": "restaurant", "cuisine": "sushi", "name": "Sushi"}}, {"type": "node", "id": 6381399993, "lat": 38.110475, "lon": 15.6458896, "tags": {"amenity": "restaurant", "cuisine": "sushi", "name": "Shangai Wok"}}, {"type": "node", "id": 6381399996, "lat": 38.1136766, "lon": 15.6497999, "tags": {"amenity": "restaurant", "cuisine": "pizza", "name": "Pizza Roma"}}, {"type": "node", "id": 7526342087, "lat": 38.0114561, "lon": 15.6357829, "tags": {"addr:housenumber": "8", "addr:postcode": "89134", "addr:street": "Via Bosco Diramazione al mare", "amenity": "restaurant", "cuisine": "deli;diner;fish;friture;hot_dog;ice_cream;italian", "email": "sciaobeach@gmail.com", "name": "Ritrovo Sciao Beach", "name:en": "Sciao's Beach", "operator": "Gatto Maria Rita", "phone": "+39 338 812 6567", "website": "https://www.sciaobeach.it/"}}, {"type": "node", "id": 7932307685, "lat": 38.1034238, "lon": 15.6422954, "tags": {"addr:housenumber": "26", "addr:street": "Via Girolamo Arcovito", "amenity": "restaurant", "cuisine": "italian", "name": "La Cantina del Macellaio", "phone": "+39 0965 23932", "website": "http://www.lacantinadelmacellaio.com"}}, {"type": "node", "id": 8047654809, "lat": 37.9897237, "lon": 15.4084256, "tags": {"addr:city": "Nizza di Sicilia", "addr:postcode": "98026", "amenity": "restaurant", "cuisine": "pizza;italian", "name": "Casa Pinta"}}, {"type": "node", "id": 8345438668, "lat": 37.9554691, "lon": 15.3397246, "tags": {"amenity": "cafe", "name": "Bar La Piazzetta"}}, {"type": "node", "id": 8345438670, "lat": 37.9560181, "lon": 15.3407265, "tags": {"amenity": "restaurant", "name": "Osteria del Borgo"}}, {"type": "node", "id": 8345438697, "lat": 37.9561508, "lon": 15.3396927, "tags": {"amenity": "restaurant", "name": "Ristorante Bar la Pineta"}}, {"type": "node", "id": 8709457321, "lat": 37.953242, "lon": 15.6834959}, {"type": "node", "id": 8709457322, "lat": 37.9529192, "lon": 15.6832533}, {"type": "node", "id": 8709457323, "lat": 37.9529917, "lon": 15.683159}, {"type": "node", "id": 8709457324, "lat": 37.95296, "lon": 15.6831198}, {"type": "node", "id": 8709457325, "lat": 37.9530355, "lon": 15.6829496}, {"type": "node", "id": 8905103161, "lat": 38.1670991, "lon": 15.4160615, "tags": {"amenity": "restaurant", "name": "U Catoju"}}, {"type": "node", "id": 9161970635, "lat": 38.0977967, "lon": 15.6401701, "tags": {"addr:housenumber": "101", "addr:street": "Viale Calabria", "amenity": "cafe", "changing_table": "no", "cuisine": "ice_cream", "name": "Ro Ma", "opening_hours": "Mo-Sa 05:00-21:00; Su 06:00-21:00", "outdoor_seating": "yes", "phone": "+39 0965 1650817", "takeaway": "yes", "wheelchair": "limited"}}, {"type": "node", "id": 9198330716, "lat": 37.9557582, "lon": 15.3396437, "tags": {"addr:city": "Savoca", "addr:housenumber": "7", "addr:postcode": "98038", "addr:street": "Piazza Fossia", "amenity": "cafe", "email": "info@barvitelli.it", "name": "Bar Vitelli", "opening_hours": "Mo-Su 09:00-20:00", "phone": "+39 334 9227227", "website": "https://barvitelli.it"}}, {"type": "node", "id": 9704706397, "lat": 38.109344, "lon": 15.6440329, "tags": {"amenity": "restaurant", "name": "Zanzitalia"}}, {"type": "node", "id": 9733791417, "lat": 38.1136917, "lon": 15.6511857, "tags": {"addr:housenumber": "23", "addr:street": "Via Demetrio Tripepi", "amenity": "restaurant", "name": "Don Pa Food"}}, {"type": "node", "id": 9774285217, "lat": 38.1140726, "lon": 15.6510435, "tags": {"amenity": "cafe", "name": "Dolci Capricci"}}, {"type": "node", "id": 9774785517, "lat": 38.1085577, "lon": 15.6401778, "tags": {"amenity": "restaurant", "name": "Royal Reef"}}, {"type": "node", "id": 9775312017, "lat": 38.1068852, "lon": 15.6401849, "tags": {"amenity": "restaurant", "name": "La Cantina della Suocera"}}, {"type": "node", "id": 9775953318, "lat": 38.1137824, "lon": 15.6499519, "tags": {"amenity": "restaurant", "name": "Aqua"}}, {"type": "node", "id": 9796608551, "lat": 37.9596322, "lon": 15.6739842}, {"type": "node", "id": 9796608552, "lat": 37.9595717, "lon": 15.6740475}, {"type": "node", "id": 9796608553, "lat": 37.9595631, "lon": 15.6741169}, {"type": "node", "id": 9796608554, "lat": 37.9596014, "lon": 15.6741911}, {"type": "node", "id": 9796608555, "lat": 37.9596744, "lon": 15.6741218}, {"type": "node", "id": 9796608556, "lat": 37.9596437, "lon": 15.6740658}, {"type": "node", "id": 9796608557, "lat": 37.9596657, "lon": 15.6740402}, {"type": "node", "id": 9796608749, "lat": 37.9605725, "lon": 15.672816}, {"type": "node", "id": 9796608750, "lat": 37.960597, "lon": 15.6728664}, {"type": "node", "id": 9796608751, "lat": 37.9604776, "lon": 15.672976}, {"type": "node", "id": 9796608752, "lat": 37.9604856, "lon": 15.6728916}, {"type": "node", "id": 9826279206, "lat": 38.1094035, "lon": 15.6460974, "tags": {"amenity": "restaurant", "name": "Palazzo Correale", "website": "https://20203.octotable.com/index.html"}}, {"type": "node", "id": 9926932831, "lat": 37.9419404, "lon": 15.7135329, "tags": {"amenity": "cafe"}}, {"type": "node", "id": 9926932832, "lat": 37.9410791, "lon": 15.7141474, "tags": {"amenity": "cafe"}}, {"type": "node", "id": 10103700758, "lat": 38.1535515, "lon": 15.3831517, "tags": {"amenity": "restaurant", "name": "Fr\u00e0 Michele"}}, {"type": "node", "id": 10116874944, "lat": 37.9530156, "lon": 15.6833726}, {"type": "node", "id": 10116874945, "lat": 37.9530774, "lon": 15.6832922}, {"type": "node", "id": 10154111464, "lat": 38.0245422, "lon": 15.6502349, "tags": {"amenity": "restaurant", "contact:facebook": "https://m.facebook.com/berillobistrotpellaro/", "contact:tripadvisor": "https://www.tripadvisor.it/Restaurant_Review-g8423156-d23446094-Reviews-Ristorante_Berillo_Bistrot-Pellaro_Reggio_Calabria_Province_of_Reggio_Calabria_.html", "email": "berillo.bistrot@gmail.com", "name": "Berillo", "phone": "+39 0965 885763"}}, {"type": "node", "id": 10208045334, "lat": 38.1564203, "lon": 15.3833131, "tags": {"addr:housenumber": "6", "addr:street": "piazza IV Novembre", "amenity": "cafe", "name": "Cannistr\u00e0", "phone": "0909931031"}}, {"type": "node", "id": 10540066021, "lat": 37.9645754, "lon": 15.6702494, "tags": {"addr:postcode": "89062", "addr:street": "Lungomare Cicerone", "amenity": "restaurant", "cuisine": "pizza;ice_cream", "name": "Capriccio", "phone": "+39 0965 713551"}}, {"type": "node", "id": 10899966471, "lat": 38.0987087, "lon": 15.6367536, "tags": {"addr:city": "Reggio di Calabria", "addr:housenumber": "18", "addr:postcode": "89129", "addr:street": "Via Nicola Furnari", "air_conditioning": "yes", "amenity": "restaurant", "contact:facebook": "CibusMinniti", "cuisine": "italian", "delivery": "yes", "name": "Cibus Minniti", "opening_hours": "Mo-Sa 11:00-15:00", "payment:apple_pay": "yes", "payment:cards": "yes", "payment:cash": "yes", "payment:coins": "yes", "payment:credit_cards": "yes", "payment:debit_cards": "yes", "payment:google_pay": "yes", "payment:mastercard": "yes", "payment:prepaid_ticket": "yes", "payment:visa": "yes", "payment:visa_debit": "yes", "phone": "+39 0965 625949", "ref:vatin": "01167120805", "takeaway": "yes", "toilets": "yes", "website": "https://cibusminniti.it", "website:menu": "https://cibusminniti.it/menu-di-oggi.asp"}}, {"type": "node", "id": 11063311318, "lat": 38.1205998, "lon": 15.5071798}, {"type": "node", "id": 11063311319, "lat": 38.1205828, "lon": 15.5069836}, {"type": "node", "id": 11063311320, "lat": 38.1205192, "lon": 15.5069925}, {"type": "node", "id": 11063311321, "lat": 38.1205361, "lon": 15.5071887}, {"type": "node", "id": 11148635205, "lat": 38.1110944, "lon": 15.6475215, "tags": {"addr:housenumber": "203, 205, 207", "addr:street": "Corso Giuseppe Garibaldi", "amenity": "cafe", "name": "Cordon Bleu"}}, {"type": "node", "id": 11175430862, "lat": 38.162789, "lon": 15.6476716, "tags": {"amenity": "restaurant", "cuisine": "pizza", "diet:vegetarian": "yes", "name": "la favorita"}}, {"type": "node", "id": 11181845206, "lat": 38.1631693, "lon": 15.6470945, "tags": {"amenity": "restaurant", "cuisine": "pizza", "diet:pescetarian": "yes", "diet:vegetarian": "yes", "name": "il Gabbiano", "website": "https://bookizon.it/dl/ilgabbiano"}}, {"type": "node", "id": 11215843781, "lat": 38.1105385, "lon": 15.6458007, "tags": {"addr:city": "Reggio di Calabria", "addr:housenumber": "2", "addr:postcode": "89125", "addr:street": "Via Giulia", "amenity": "restaurant", "cuisine": "italian", "name": "Drogheria Culinaria", "phone": "+39 0965 627177", "website": "https://www.drogheriaculinaria.it"}}, {"type": "node", "id": 11215853308, "lat": 38.110615, "lon": 15.6459398, "tags": {"addr:city": "Reggio di Calabria", "addr:housenumber": "21", "addr:postcode": "89125", "addr:street": "Via Zaleuco", "amenity": "restaurant", "name": "Zio Fedele Bistrot", "phone": "+39 339 314 9207", "website": "https://www.facebook.com/ziofedele.rc"}}, {"type": "node", "id": 11435600611, "lat": 38.1366149, "lon": 15.5221667, "tags": {"amenity": "cafe", "name": "Easy Caf\u00e8"}}, {"type": "node", "id": 11465518182, "lat": 38.0843647, "lon": 15.6424647, "tags": {"amenity": "restaurant", "cuisine": "sushi", "indoor_seating": "yes", "name": "Sushi Wang", "phone": "+39 3938281474"}}, {"type": "node", "id": 11518529282, "lat": 37.9141911, "lon": 15.3355696}, {"type": "node", "id": 11518529585, "lat": 37.9142265, "lon": 15.3352359}, {"type": "node", "id": 11518529999, "lat": 37.9142195, "lon": 15.3351774}, {"type": "node", "id": 11573648232, "lat": 38.0568584, "lon": 15.4745918, "tags": {"amenity": "restaurant", "name": "Parco del Tortuga"}}, {"type": "node", "id": 11761755325, "lat": 37.9580667, "lon": 15.3227822, "tags": {"amenity": "cafe", "name": "Bar Da Peppe"}}, {"type": "node", "id": 11761830000, "lat": 37.9587012, "lon": 15.323666, "tags": {"amenity": "restaurant", "name": "Sikania"}}, {"type": "node", "id": 11763927157, "lat": 37.9477286, "lon": 15.3110009, "tags": {"amenity": "restaurant", "name": "Rusti e Mancia"}}, {"type": "node", "id": 11840670536, "lat": 37.9441637, "lon": 15.3674464, "tags": {"amenity": "restaurant", "name": "Ristorante Le due torri"}}, {"type": "node", "id": 11841468082, "lat": 37.9346049, "lon": 15.3570246, "tags": {"amenity": "cafe", "name": "Costa Caf\u00e8"}}, {"type": "node", "id": 11862663310, "lat": 37.9585137, "lon": 15.3788004, "tags": {"amenity": "cafe", "name": "Malarazza"}}, {"type": "node", "id": 11865630010, "lat": 37.9815755, "lon": 15.4011999, "tags": {"addr:city": "Roccalumera", "amenity": "restaurant", "cuisine": "pizza", "name": "Il Ponte"}}, {"type": "node", "id": 11866144911, "lat": 37.9815079, "lon": 15.4015627, "tags": {"addr:city": "Roccalumera", "addr:street": "Lungomare Cristoforo Colombo", "amenity": "restaurant", "cuisine": "pizza", "name": "Ristorante Etoile"}}, {"type": "node", "id": 11874646407, "lat": 37.9940812, "lon": 15.4150461, "tags": {"amenity": "restaurant", "name": "Ristorante San Ferdinando"}}, {"type": "node", "id": 11875914798, "lat": 37.9919716, "lon": 15.4129872, "tags": {"amenity": "cafe", "name": "L'altro Caff\u00e8"}}, {"type": "node", "id": 11876011525, "lat": 37.9912841, "lon": 15.412256, "tags": {"addr:city": "Nizza di Sicilia", "addr:postcode": "98062", "addr:street": "Lungomare Unit\u00e0 dell'Italia", "amenity": "restaurant", "cuisine": "pizza", "name": "Le Due Palme", "note": "Attivit\u00e0 chiusa"}}, {"type": "node", "id": 11881147807, "lat": 37.9211423, "lon": 15.3446623, "tags": {"amenity": "restaurant", "name": "Ristorante O' Geusu"}}, {"type": "node", "id": 11886697515, "lat": 38.0089136, "lon": 15.4291901, "tags": {"amenity": "restaurant", "name": "Baja Imperiale"}}, {"type": "node", "id": 11889310179, "lat": 38.0001427, "lon": 15.4201544, "tags": {"amenity": "cafe", "name": "Bar Caprice"}}, {"type": "node", "id": 11889812247, "lat": 38.0047037, "lon": 15.4235018, "tags": {"amenity": "restaurant", "name": "Ristorante Piccadilly"}}, {"type": "node", "id": 12106563680, "lat": 37.9374289, "lon": 15.3610016, "tags": {"addr:housenumber": "55a", "addr:street": "Via Lungomare", "amenity": "restaurant", "description": "Arancini e focacce", "name": "Number One", "opening_hours": "Mo-Th, Su 11:00-15:00, 17:30-22:00; Fr 11:00-15:00", "phone": "+390942757428"}}, {"type": "node", "id": 12221809501, "lat": 37.9580727, "lon": 15.6753545, "tags": {"amenity": "restaurant"}}, {"type": "node", "id": 12222008701, "lat": 38.0965559, "lon": 15.6432674, "tags": {"amenity": "cafe", "name": "La Dolce Sosta"}}, {"type": "node", "id": 12270579712, "lat": 37.9393429, "lon": 15.3624943, "tags": {"addr:city": "Santa Teresa di Riva", "addr:housenumber": "95", "addr:postcode": "98028", "addr:street": "Lungomare Giovanni Falcone", "air_conditioning": "yes", "amenity": "restaurant", "bar": "yes", "check_date": "2024-10-05", "contact:facebook": "trattoriapizzeriariviera", "contact:foursquare": "5ab51a72d3cce81a82c22ba7", "contact:instagram": "riviera_ristorante_pizzeria", "contact:phone": "+39 0424 500473", "contact:tripadvisor": "3859668", "contact:website": "https://www.ristorantepizzeriariviera.it", "cuisine": "pizza", "highchair": "yes", "level": "0", "name": "Riviera", "official_name": "Bar Pizzeria Riviera", "operator": "Miuccio Antonino", "outdoor_seating": "yes", "ref:vatin": "IT01316180833", "reservation": "yes", "smoking": "outside", "takeaway": "yes", "toilets": "yes", "wheelchair": "limited"}}, {"type": "node", "id": 12650646202, "lat": 38.1193638, "lon": 15.5138498, "tags": {"amenity": "restaurant", "name": "Torn' a Surriento"}}, {"type": "node", "id": 12650692601, "lat": 38.1057083, "lon": 15.5073649, "tags": {"amenity": "restaurant", "name": "Pomodoro & Basilico Pizzeria"}}, {"type": "way", "id": 109274760, "nodes": [1251434323, 1251434313, 1251434334, 4412877184, 1251434330, 1251434348, 1251434340, 1251434308, 1251434346, 1251434321, 1251434312, 1251434325, 1251434315, 1251434338, 1251434331, 1251434342, 1251434336, 4412877328, 1251434323], "tags": {"amenity": "restaurant", "cuisine": "italian", "name": "Royal Garden", "stars": "5"}}, {"type": "way", "id": 330259395, "nodes": [3372143162, 3372143163, 3372143164, 3372143165, 3372143166, 3372143167, 3372143162], "tags": {"amenity": "cafe", "building": "yes", "check_date:opening_hours": "2023-12-20", "indoor_seating": "no", "name": "La perla nera", "opening_hours:signed": "no", "outdoor_seating": "yes", "wheelchair": "yes"}}, {"type": "way", "id": 355519812, "nodes": [3611131438, 3611131439, 3611131444, 3611131445, 3611131447, 3611131446, 3611131443, 3611131440, 3611131461, 3611131462, 3611131441, 3611131442, 3611131438], "tags": {"amenity": "restaurant", "cuisine": "italian", "name": "Villa Bakhita"}}, {"type": "way", "id": 363045564, "nodes": [3672561056, 5672263460, 3672561055, 5672263464, 3672561053, 3672561054, 3672561056], "tags": {"amenity": "cafe", "cuisine": "regional", "name": "Chiosco Tre Aie", "outdoor_seating": "yes"}}, {"type": "way", "id": 405674199, "nodes": [4078330704, 4078330705, 11518529282, 4078330708, 4078330709, 4078330704], "tags": {"amenity": "restaurant", "building": "yes", "name": "Ristorante Osteria Agostiniana"}}, {"type": "way", "id": 405675210, "nodes": [4078340812, 11518529999, 11518529585, 4078340815, 4078340813, 4078340812], "tags": {"amenity": "restaurant", "building": "yes"}}, {"type": "way", "id": 409630032, "nodes": [4115258155, 4115258156, 4115258157, 4115258158, 4115258155], "tags": {"amenity": "restaurant", "building": "yes", "name": "Lido Sun Kisses"}}, {"type": "way", "id": 595029165, "nodes": [5672263460, 5672263461, 5672263462, 5672263463, 5672263464, 3672561055, 5672263460], "tags": {"amenity": "cafe", "building": "yes", "cuisine": "regional", "name": "Chiosco Tre Aie", "outdoor_seating": "yes"}}, {"type": "way", "id": 940401974, "nodes": [2351103948, 8709457321, 10116874945, 10116874944, 8709457322, 8709457323, 8709457324, 8709457325, 2351103948], "tags": {"amenity": "restaurant", "building": "yes", "name": "Albergo - Ristorante Paradiso"}}, {"type": "way", "id": 1066908894, "nodes": [9796608551, 9796608552, 9796608553, 9796608554, 9796608555, 9796608556, 9796608557, 9796608551], "tags": {"addr:city": "Motta San Giovanni", "addr:housenumber": "132", "addr:postcode": "89062", "addr:street": "Lungomare Cicerone", "amenity": "restaurant", "building": "yes", "cuisine": "italian", "opening_hours": "Mo-Su 17:00-01:00", "phone": "+39 0965 712752", "website": "https://www.altamareapizzeria.it/"}}, {"type": "way", "id": 1066908944, "nodes": [9796608749, 9796608750, 9796608751, 9796608752, 9796608749], "tags": {"addr:city": "Motta San Giovanni", "addr:housenumber": "122", "addr:postcode": "89062", "addr:street": "Lungomare Cicerone", "amenity": "restaurant", "building": "yes", "cuisine": "sandwich", "name": "Eolo"}}, {"type": "way", "id": 1191598999, "nodes": [11063311318, 11063311319, 11063311320, 11063311321, 11063311318], "tags": {"addr:city": "Mili San Marco", "addr:postcode": "98132", "addr:street": "via rota", "amenity": "restaurant", "building": "yes", "cuisine": "focacceria", "name": "Bistrot La Ruota 100% Minutoli", "phone": "0906018450", "website": "http://www.laruotamessina.it/"}}]}