{"version": 0.6, "generator": "Overpass API 0.7.62.7 375dc00a", "osm3s": {"timestamp_osm_base": "2025-06-14T13:57:32Z", "copyright": "The data included in this document is from www.openstreetmap.org. The data is made available under ODbL."}, "elements": [{"type": "node", "id": 426173953, "lat": 40.0159689, "lon": 16.1176445, "tags": {"amenity": "restaurant", "ele": "910.0"}}, {"type": "node", "id": 426199512, "lat": 40.0191784, "lon": 16.1369288, "tags": {"amenity": "restaurant", "ele": "919.0", "name": "Pizzeria"}}, {"type": "node", "id": 1394072566, "lat": 39.9866615, "lon": 15.7315113, "tags": {"amenity": "restaurant", "name": "Il Piccolo Ranch"}}, {"type": "node", "id": 1759808440, "lat": 40.3836476, "lon": 16.0415021, "tags": {"amenity": "restaurant", "email": "sandro.scavullo@email.it", "mobile": "+39 3463045025", "name": "Albergo Ristorante Priore", "phone": "+39 0971963032", "tourism": "hotel", "website": "http://www.albergoristorantepriore.it/"}}, {"type": "node", "id": 2244840239, "lat": 40.4454362, "lon": 16.137606, "tags": {"amenity": "restaurant"}}, {"type": "node", "id": 2245014333, "lat": 39.992509, "lon": 15.7235579, "tags": {"amenity": "restaurant", "cuisine": "regional", "name": "Don Pasquale"}}, {"type": "node", "id": 2245014336, "lat": 39.9926001, "lon": 15.7233023, "tags": {"amenity": "restaurant", "cuisine": "pizza;regional;italian", "name": "La torre"}}, {"type": "node", "id": 2517392944, "lat": 40.0512054, "lon": 15.8387022, "tags": {"addr:city": "Lauria", "addr:country": "IT", "addr:housenumber": "46", "addr:postcode": "85044", "addr:street": "Largo Plebiscito", "amenity": "cafe", "name": "bgud", "opening_hours": "Mo-Fr 07:30-15:00,17:30-23:30; Sa-Su 08:00-13:00,17:30-24:00"}}, {"type": "node", "id": 2678802073, "lat": 40.0918093, "lon": 15.8076034, "tags": {"amenity": "restaurant", "cuisine": "italian", "name": "Ristorante sul Lago Da Mim\u00ec", "website": "http://www.montesirino.com"}}, {"type": "node", "id": 2678811363, "lat": 40.0916413, "lon": 15.8102955, "tags": {"amenity": "restaurant", "name": "Marie"}}, {"type": "node", "id": 2702830778, "lat": 40.0923637, "lon": 15.8104241, "tags": {"addr:city": "Nemoli", "addr:housenumber": "18", "addr:postcode": "85040", "addr:street": "Contrada Lago Sirino", "amenity": "restaurant", "name": "Sirtaki"}}, {"type": "node", "id": 2719435867, "lat": 40.2887231, "lon": 16.1383153, "tags": {"addr:city": "Gallicchio", "addr:housenumber": "41", "addr:street": "Via Papa Giovanni XXIII", "amenity": "cafe", "name": "Bar da Mim\u00ec", "operator": "Robilotta Mim\u00ec Pasqualino"}}, {"type": "node", "id": 2719502391, "lat": 40.301184, "lon": 16.1381221, "tags": {"amenity": "cafe"}}, {"type": "node", "id": 2719502392, "lat": 40.2886842, "lon": 16.1383625, "tags": {"amenity": "restaurant", "cuisine": "pizza"}}, {"type": "node", "id": 2800777945, "lat": 40.0518707, "lon": 15.8438449, "tags": {"addr:city": "Lauria", "addr:housenumber": "150", "addr:street": "Via Rocco Scotellaro", "amenity": "restaurant", "cuisine": "regional;pizza", "name": "Panaino"}}, {"type": "node", "id": 2807567970, "lat": 40.1452027, "lon": 15.8489483}, {"type": "node", "id": 2807567971, "lat": 40.1453199, "lon": 15.8491962}, {"type": "node", "id": 2807567972, "lat": 40.145038, "lon": 15.8490505}, {"type": "node", "id": 2807567973, "lat": 40.1451754, "lon": 15.8493411}, {"type": "node", "id": 2807567974, "lat": 40.1452746, "lon": 15.8492608}, {"type": "node", "id": 2967747560, "lat": 40.0554255, "lon": 16.1282017, "tags": {"amenity": "restaurant", "name": "La Taverna del Brigante"}}, {"type": "node", "id": 2995667354, "lat": 40.2764723, "lon": 15.7035562, "tags": {"amenity": "restaurant", "cuisine": "regional;italian", "name": "La Roccia", "smoking": "no", "website": "http://www.trattorialaroccia.it/"}}, {"type": "node", "id": 3094246102, "lat": 40.2804301, "lon": 15.90619, "tags": {"amenity": "restaurant", "name": "Agriturismo Parco Verde", "tourism": "guest_house"}}, {"type": "node", "id": 3112533984, "lat": 40.2168656, "lon": 15.8846132, "tags": {"amenity": "restaurant", "name": "Vecchio Ponte"}}, {"type": "node", "id": 3641159236, "lat": 39.9878083, "lon": 15.7231387, "tags": {"amenity": "cafe"}}, {"type": "node", "id": 3698714401, "lat": 40.2935899, "lon": 16.1361405, "tags": {"amenity": "cafe"}}, {"type": "node", "id": 3705466002, "lat": 40.2843553, "lon": 15.9610673, "tags": {"addr:city": "Montemurro", "amenity": "restaurant", "cuisine": "italian", "name": "La Romantica", "operator": "Promo System s.a.s."}}, {"type": "node", "id": 4339551289, "lat": 40.2883478, "lon": 15.9553853, "tags": {"amenity": "restaurant", "name": "Masseria Crisci"}}, {"type": "node", "id": 4708156782, "lat": 40.4244273, "lon": 15.7334298, "tags": {"addr:city": "Marsico Nuovo", "addr:street": "Viale Regina Margherita", "amenity": "cafe", "name": "I Dolci Incontri", "phone:mobile": "+39 389 5336606", "restaurant:type:it": "bar;caffetteria;rosticceria"}}, {"type": "node", "id": 4973992321, "lat": 40.0781068, "lon": 15.756481, "tags": {"addr:street": "Piazza Umberto I", "amenity": "restaurant", "name": "Trattoria Del Pellegrino"}}, {"type": "node", "id": 5290629636, "lat": 40.0876302, "lon": 16.0112409, "tags": {"addr:city": "Latronico", "addr:housenumber": "6", "addr:postcode": "85043", "addr:street": "Via Lacava Pietro", "amenity": "restaurant", "cuisine": "italian;lucana", "diet:mediterranean": "yes", "name": "Taverna Nonna Vera"}}, {"type": "node", "id": 5846914313, "lat": 40.2675539, "lon": 16.1609612, "tags": {"amenity": "cafe"}}, {"type": "node", "id": 5931162704, "lat": 40.2590795, "lon": 16.0905987, "tags": {"addr:city": "Potenza", "addr:country": "IT", "addr:housenumber": "Km 64,900", "addr:place": "Armento", "addr:postcode": "85010", "addr:street": "S.S 598 Val D\u2019Agri", "amenity": "restaurant", "cuisine": "italian", "email": "info@agriturismodaziaelena.it", "internet_access": "yes", "internet_access:fee": "no", "name": "Agriturismo Zia Elena", "opening_hours": "Sa-Th 13:00-15:30,20:00-23:30", "outdoor_seating": "yes", "phone": "+390971751381", "tourism": "guest_house", "website": "http://www.agriturismoziaelena.it/", "wheelchair": "yes"}}, {"type": "node", "id": 6761546353, "lat": 40.014847, "lon": 15.9849144, "tags": {"amenity": "restaurant", "name": "Bar Ristorante Pizzeria Chalet Bosco Difesa"}}, {"type": "node", "id": 7185176412, "lat": 40.2612569, "lon": 16.0808458, "tags": {"amenity": "restaurant"}}, {"type": "node", "id": 7316230068, "lat": 40.0852592, "lon": 16.2078733}, {"type": "node", "id": 7316230069, "lat": 40.0852631, "lon": 16.2080645}, {"type": "node", "id": 7316230070, "lat": 40.0853851, "lon": 16.2078689}, {"type": "node", "id": 7316230071, "lat": 40.0853881, "lon": 16.2080141}, {"type": "node", "id": 7316230073, "lat": 40.0853628, "lon": 16.208061}, {"type": "node", "id": 7316230074, "lat": 40.0853618, "lon": 16.208015}, {"type": "node", "id": 7316230740, "lat": 40.0736576, "lon": 16.1993159}, {"type": "node", "id": 7316233342, "lat": 40.0736415, "lon": 16.1991785}, {"type": "node", "id": 7316233343, "lat": 40.0737432, "lon": 16.1991582}, {"type": "node", "id": 7316233347, "lat": 40.0737593, "lon": 16.1992956}, {"type": "node", "id": 7316237027, "lat": 40.0800775, "lon": 16.2009445}, {"type": "node", "id": 7316237028, "lat": 40.0800725, "lon": 16.2009839}, {"type": "node", "id": 7316237029, "lat": 40.0801002, "lon": 16.2009846}, {"type": "node", "id": 7316237030, "lat": 40.0800995, "lon": 16.2009407}, {"type": "node", "id": 7316237031, "lat": 40.0800427, "lon": 16.20103}, {"type": "node", "id": 7316237032, "lat": 40.0800427, "lon": 16.2011508}, {"type": "node", "id": 7316237033, "lat": 40.0800536, "lon": 16.2009864}, {"type": "node", "id": 7316237034, "lat": 40.0800553, "lon": 16.201032}, {"type": "node", "id": 7316237035, "lat": 40.0800832, "lon": 16.2012872}, {"type": "node", "id": 7316237036, "lat": 40.08014, "lon": 16.2012855}, {"type": "node", "id": 7316237037, "lat": 40.0800507, "lon": 16.2013027}, {"type": "node", "id": 7316237038, "lat": 40.0800839, "lon": 16.201303}, {"type": "node", "id": 7316237039, "lat": 40.0801492, "lon": 16.2011426}, {"type": "node", "id": 7316237040, "lat": 40.0801349, "lon": 16.2011432}, {"type": "node", "id": 7316237041, "lat": 40.0801356, "lon": 16.2011847}, {"type": "node", "id": 7316237042, "lat": 40.080151, "lon": 16.2011815}, {"type": "node", "id": 7316237045, "lat": 40.0801347, "lon": 16.2009871}, {"type": "node", "id": 7319972413, "lat": 40.0809515, "lon": 16.2041994, "tags": {"addr:city": "Francavilla in Sinni", "addr:housenumber": "113", "addr:street": "Via Roma", "amenity": "cafe", "delivery": "no", "internet_access": "no", "name": "Zamp Caff\u00e8", "opening_hours": "sunrise-sunset", "smoking": "no", "takeaway": "yes", "wheelchair": "yes"}}, {"type": "node", "id": 7599016379, "lat": 40.1556692, "lon": 15.7408963, "tags": {"amenity": "restaurant", "name": "Ai carconi", "website": "http://www.agriturismoaicarconi.it"}}, {"type": "node", "id": 7599087787, "lat": 40.0791715, "lon": 15.9083589, "tags": {"amenity": "restaurant", "name": "Bar Europa", "website": "https://www.facebook.com/Bar-Europa-228391897352301/"}}, {"type": "node", "id": 7702409351, "lat": 40.0257372, "lon": 15.775318, "tags": {"amenity": "restaurant", "cuisine": "pizza;regional", "name": "Lanterna Verde"}}, {"type": "node", "id": 7713938177, "lat": 40.063903, "lon": 16.1509591, "tags": {"addr:city": "Chiaromonte", "addr:postcode": "85032", "addr:street": "Localit\u00e0 Scala Magnano", "air_conditioning": "yes", "amenity": "restaurant", "bar": "yes", "brewery": "yes", "contact:facebook": "https://www.facebook.com/laselvaresortristorante/", "cuisine": "pizza;regional;italian;chicken;ice_cream", "email": "laselvaresortristorante@gmail.com", "internet_access": "wlan", "internet_access:fee": "no", "name": "La Selva", "opening_hours": "Mo-Sa 11:00-24:00, Su 12:00-24:00", "phone": "+39 0973 577 367;+39 334 168 5368", "reservation": "yes", "takeaway": "yes", "website": "https://laselvaresortvillage.it/"}}, {"type": "node", "id": 7740972257, "lat": 40.0817685, "lon": 16.2032459, "tags": {"addr:city": "Francavilla in Sinni", "addr:housenumber": "20", "addr:postcode": "85034", "addr:street": "Piazza Mainieri", "amenity": "restaurant", "brewery": "yes", "cuisine": "pizza", "name": "Pizzeria Dal Frate", "outdoor_seating": "yes", "takeaway": "yes"}}, {"type": "node", "id": 7751952584, "lat": 40.2671973, "lon": 16.1615384, "tags": {"addr:city": "Missanello", "addr:street": "SS 598 Val D'Agri km 71", "amenity": "restaurant", "name": "Villa Argenzio", "opening_hours": "We-Mo", "operator": "Cataldi Silvio", "phone": "0039 0971 955263"}}, {"type": "node", "id": 8065185900, "lat": 40.2476563, "lon": 15.8885286, "tags": {"addr:street": "Strada Provinciale 7 Agri-Sinni", "amenity": "restaurant", "cuisine": "pizza;regional;italian", "name": "Narciso"}}, {"type": "node", "id": 8149625119, "lat": 40.1451398, "lon": 15.8489681}, {"type": "node", "id": 8149625120, "lat": 40.1451504, "lon": 15.8489906}, {"type": "node", "id": 8149625121, "lat": 40.145265, "lon": 15.8492406}, {"type": "node", "id": 8312019022, "lat": 40.239976, "lon": 15.869464, "tags": {"addr:city": "Moliterno", "addr:housenumber": "2", "addr:postcode": "85047", "addr:province": "Provincia di Potenza", "addr:street": "Vico I Roma", "amenity": "restaurant", "contact:email": "info@gliospitiarcimboldi.it", "contact:facebook": "https://www.facebook.com/ARCIMBOLDI-RISTO-PUB-288595414505196/", "contact:phone": "+39 0975 422591", "name": "Arcimboldi sas"}}, {"type": "node", "id": 8503741443, "lat": 40.0332292, "lon": 15.8048741, "tags": {"amenity": "restaurant", "name": "Valle del Noce"}}, {"type": "node", "id": 8643615876, "lat": 40.0036299, "lon": 15.7678654}, {"type": "node", "id": 8643615877, "lat": 40.003496, "lon": 15.7679407}, {"type": "node", "id": 8643615878, "lat": 40.0035577, "lon": 15.7681586}, {"type": "node", "id": 8643615879, "lat": 40.0036956, "lon": 15.7681065}, {"type": "node", "id": 8857049950, "lat": 40.4250176, "lon": 15.7335105, "tags": {"amenity": "restaurant", "cuisine": "pizza"}}, {"type": "node", "id": 8945288572, "lat": 40.0743104, "lon": 15.9191492, "tags": {"addr:city": "Lauria", "addr:housenumber": "223", "addr:postcode": "85044", "addr:street": "Contrada Piano Cataldo", "amenity": "restaurant", "cuisine": "regional;pizza;italian", "email": "info@over-dream.com", "name": "Over Dream", "phone": "+39 0973 827 451", "website": "http://www.over-dream.com/"}}, {"type": "node", "id": 8945288573, "lat": 40.0403184, "lon": 15.8356225, "tags": {"amenity": "restaurant", "name": "Pizza SI"}}, {"type": "node", "id": 9010073299, "lat": 40.0467032, "lon": 16.2114845, "tags": {"amenity": "restaurant", "description": "agriturismo", "name": "La fontana del tasso"}}, {"type": "node", "id": 9012077518, "lat": 40.0393114, "lon": 16.2779313, "tags": {"amenity": "restaurant", "description": "agriturismo, campeggio", "name": "Piano Martorino"}}, {"type": "node", "id": 9021152266, "lat": 40.0200784, "lon": 16.2561623, "tags": {"amenity": "restaurant", "description": "Agriturismo", "name": "Conserva Pollino"}}, {"type": "node", "id": 9048794851, "lat": 40.0752053, "lon": 16.2096267, "tags": {"amenity": "restaurant", "name": "Ristorante San Nicola"}}, {"type": "node", "id": 9262805214, "lat": 40.2570111, "lon": 16.2525143, "tags": {"amenity": "restaurant", "name": "Villa Orsoleo"}}, {"type": "node", "id": 9304326561, "lat": 40.4020286, "lon": 16.2323675, "tags": {"addr:city": "Stigliano", "addr:housenumber": "65", "addr:postcode": "75018", "addr:street": "Via Principe di Napoli", "amenity": "restaurant", "cuisine": "italian", "name": "Hotel Ristorante Mariano", "phone": "+39 0835 561196", "website": "https://www.hotelristorantemariano.it/"}}, {"type": "node", "id": 9415678496, "lat": 40.383871, "lon": 16.0424365, "tags": {"amenity": "cafe"}}, {"type": "node", "id": 9560611752, "lat": 40.3405389, "lon": 15.8991319, "tags": {"amenity": "cafe"}}, {"type": "node", "id": 9566008328, "lat": 40.3492454, "lon": 15.9018863}, {"type": "node", "id": 9566008329, "lat": 40.3491104, "lon": 15.902113}, {"type": "node", "id": 9566008330, "lat": 40.3492271, "lon": 15.9022325}, {"type": "node", "id": 9566008331, "lat": 40.349362, "lon": 15.9020059}, {"type": "node", "id": 9848266337, "lat": 40.1249451, "lon": 15.7648846, "tags": {"amenity": "cafe", "name": "Bar Gelateria Aquarulo"}}, {"type": "node", "id": 9848266345, "lat": 40.1235853, "lon": 15.7647344, "tags": {"amenity": "cafe"}}, {"type": "node", "id": 9848266347, "lat": 40.1237945, "lon": 15.7634068, "tags": {"amenity": "restaurant", "name": "La Stradella"}}, {"type": "node", "id": 9898087170, "lat": 40.0200545, "lon": 15.8863592}, {"type": "node", "id": 9898087171, "lat": 40.0198419, "lon": 15.8866301}, {"type": "node", "id": 9898087172, "lat": 40.0197467, "lon": 15.8865027}, {"type": "node", "id": 9898087173, "lat": 40.0199593, "lon": 15.8862318}, {"type": "node", "id": 9920717061, "lat": 40.1610584, "lon": 15.996306, "tags": {"amenity": "restaurant", "contact:phone": "+39 0973 832046", "cuisine": "pizza", "name": "Da Federico"}}, {"type": "node", "id": 9960011520, "lat": 40.0491981, "lon": 15.8429772, "tags": {"amenity": "cafe"}}, {"type": "node", "id": 9960190962, "lat": 40.0117434, "lon": 15.9146699}, {"type": "node", "id": 9960190963, "lat": 40.0116253, "lon": 15.9146632}, {"type": "node", "id": 9960190964, "lat": 40.0116171, "lon": 15.9148751}, {"type": "node", "id": 9960190965, "lat": 40.0118698, "lon": 15.9148966}, {"type": "node", "id": 9960190966, "lat": 40.0118831, "lon": 15.9147638}, {"type": "node", "id": 9960190967, "lat": 40.0119098, "lon": 15.9147088}, {"type": "node", "id": 9960190968, "lat": 40.0119078, "lon": 15.9146686}, {"type": "node", "id": 9960190969, "lat": 40.011878, "lon": 15.9146123}, {"type": "node", "id": 9960190970, "lat": 40.0117537, "lon": 15.9145881}, {"type": "node", "id": 9975654453, "lat": 40.1243481, "lon": 15.7636485}, {"type": "node", "id": 9975654454, "lat": 40.1241738, "lon": 15.7637504}, {"type": "node", "id": 9975654455, "lat": 40.1241278, "lon": 15.763616}, {"type": "node", "id": 9975654456, "lat": 40.1243021, "lon": 15.763514}, {"type": "node", "id": 10012073108, "lat": 40.2413773, "lon": 15.8687258, "tags": {"amenity": "cafe"}}, {"type": "node", "id": 10016867090, "lat": 40.2686653, "lon": 15.9646435, "tags": {"amenity": "restaurant"}}, {"type": "node", "id": 10366311213, "lat": 40.2401272, "lon": 16.0535918, "tags": {"amenity": "cafe"}}, {"type": "node", "id": 10366311214, "lat": 40.2403466, "lon": 16.0538309, "tags": {"amenity": "cafe"}}, {"type": "node", "id": 10594371735, "lat": 40.0056503, "lon": 15.9101255}, {"type": "node", "id": 10594371736, "lat": 40.0058742, "lon": 15.9098036}, {"type": "node", "id": 10594371737, "lat": 40.005988, "lon": 15.9099385}, {"type": "node", "id": 10594371738, "lat": 40.005764, "lon": 15.9102604}, {"type": "node", "id": 10594371743, "lat": 40.0074222, "lon": 15.9100818}, {"type": "node", "id": 10594371744, "lat": 40.0072044, "lon": 15.910409}, {"type": "node", "id": 10594371745, "lat": 40.0073193, "lon": 15.9105393}, {"type": "node", "id": 10594371746, "lat": 40.0075371, "lon": 15.9102121}, {"type": "node", "id": 10689906953, "lat": 40.313532, "lon": 16.2303311, "tags": {"amenity": "cafe", "name": "Bar Capriccio"}}, {"type": "node", "id": 10689906954, "lat": 40.3142699, "lon": 16.2306841, "tags": {"addr:city": "Aliano", "addr:housenumber": "4", "addr:postcode": "75010", "addr:street": "Via Martiri D'Ungheria", "amenity": "restaurant", "delivery": "no", "mobile": "+39 329 877 3403", "name": "La Locanda con gli Occhi"}}, {"type": "node", "id": 10726807505, "lat": 40.089351, "lon": 15.7774836, "tags": {"addr:housenumber": "22", "addr:postcode": "85040", "addr:street": "Contrada Vignale PZ", "amenity": "restaurant", "cuisine": "italian;italian_pizza", "internet_access": "wlan", "name": "Ristorante pizzeria Nocera", "name:en": "Restaurant pizzeria Nocera", "name:es": "Restaurante pizzeria Nocera", "opening_hours": "Su,Fr-Sa 19:00-00:00", "phone": "+39097346148"}}, {"type": "node", "id": 10815825636, "lat": 40.0724334, "lon": 15.8555379, "tags": {"amenity": "restaurant", "name": "Bar Ristorante Da Giovanni"}}, {"type": "node", "id": 10816369063, "lat": 40.2057427, "lon": 15.8765662}, {"type": "node", "id": 10816369064, "lat": 40.2057965, "lon": 15.8768719}, {"type": "node", "id": 10816369065, "lat": 40.2058877, "lon": 15.8768444}, {"type": "node", "id": 10816369066, "lat": 40.2058339, "lon": 15.8765387}, {"type": "node", "id": 10901221212, "lat": 40.0351217, "lon": 15.782089, "tags": {"addr:city": "Trecchina", "addr:postcode": "85049", "addr:street": "85049 Maurino PZ, Italia", "air_conditioning": "yes", "amenity": "restaurant", "bar": "no", "cuisine": "italian", "name": "Agriturismo L\u2019Aia dei Cappellani", "phone": "0973 826937 / 339 890 0793 / 333 993 5992", "website": "https://laiadeicappellani.com"}}, {"type": "node", "id": 10901466666, "lat": 40.0260773, "lon": 15.7763203, "tags": {"addr:city": "Trecchina", "addr:housenumber": "17", "addr:postcode": "85049", "addr:street": "Via Michele Marotta", "air_conditioning": "yes", "amenity": "restaurant", "bar": "yes", "cuisine": "italian", "name": "A\u2019Vendura", "phone": "+39 0973033903", "website": "https://www.facebook.com/people/A-Vendura/100037978853712/?ref=page_internal&path=%2FA-Vendura-112414000559851%2F"}}, {"type": "node", "id": 10901466667, "lat": 40.0268006, "lon": 15.7751843, "tags": {"addr:city": "Trecchina", "addr:housenumber": "38", "addr:postcode": "85049", "addr:street": "Via Palazzo", "amenity": "restaurant", "cuisine": "italian", "name": "Bulle"}}, {"type": "node", "id": 10944261596, "lat": 40.1500437, "lon": 16.2827529, "tags": {"amenity": "restaurant", "name": "Ristorante pizzeria La lanterna"}}, {"type": "node", "id": 11018116703, "lat": 39.99271, "lon": 15.7219023, "tags": {"amenity": "cafe"}}, {"type": "node", "id": 11018120316, "lat": 39.9928378, "lon": 15.7220259, "tags": {"amenity": "cafe", "check_date": "2024-10-14", "name": "Avigliano"}}, {"type": "node", "id": 11229904554, "lat": 40.0865021, "lon": 16.0123484, "tags": {"addr:city": "Latronico", "addr:housenumber": "39a", "addr:postcode": "85043", "addr:street": "Via Pietro Lacava", "amenity": "restaurant", "name": "Fryllos - Rosticceria artigianale"}}, {"type": "node", "id": 11387541795, "lat": 40.0537961, "lon": 15.8378401, "tags": {"addr:city": "Lauria", "addr:country": "IT", "addr:housenumber": "22", "addr:postcode": "85044", "addr:street": "Via Venticinque Aprile", "amenity": "restaurant", "name": "Taverna del Buongustaio"}}, {"type": "node", "id": 11545827661, "lat": 39.9953928, "lon": 15.7224284, "tags": {"amenity": "cafe"}}, {"type": "node", "id": 12005785777, "lat": 40.4471233, "lon": 16.1510074, "tags": {"amenity": "restaurant", "name": "I piaceri dell'arrosto"}}, {"type": "node", "id": 12047986718, "lat": 40.0058665, "lon": 15.9101131}, {"type": "node", "id": 12047986804, "lat": 40.0058104, "lon": 15.9101937}, {"type": "node", "id": 12066271469, "lat": 40.0446634, "lon": 16.1891153, "tags": {"addr:housenumber": "59", "addr:postcode": "85030", "addr:street": "Localit\u00e0 Villaneto", "amenity": "restaurant", "cuisine": "buschenschank;italian;local;mediterranean;regional", "name": "il piccolo mulino", "phone": "+393393152410"}}, {"type": "node", "id": 12138487922, "lat": 39.9951054, "lon": 15.7252161, "tags": {"amenity": "restaurant", "name": "La Bella Lucania"}}, {"type": "node", "id": 12138487923, "lat": 39.9928142, "lon": 15.7223676, "tags": {"amenity": "restaurant", "name": "La Taverna di Zu Cicco"}}, {"type": "node", "id": 12878638610, "lat": 40.1244672, "lon": 15.7654238, "tags": {"addr:city": "Lagonegro", "addr:housenumber": "20", "addr:postcode": "85042", "addr:street": "Viale Roma", "amenity": "restaurant", "cuisine": "pizza", "name": "Mal\u00fa Pizzeria"}}, {"type": "node", "id": 12879342501, "lat": 40.3100304, "lon": 16.2324933, "tags": {"addr:housenumber": "9", "addr:street": "Via Cisterna", "amenity": "restaurant", "cuisine": "pizza", "name": "La Perla dei Calanchi", "opening_hours": "Fr-Su 12:00-15:30,19:00-01:00; Mo,We,Th 19:00-01:00", "phone": "+393420904489", "wheelchair": "yes"}}, {"type": "node", "id": 12880775602, "lat": 40.2094119, "lon": 16.2049215, "tags": {"addr:housenumber": "54/a", "addr:street": "Strada Provinciale 7 Agri-Sinni", "amenity": "cafe", "name": "Caffetteria pasticceria gelateria S. Antonio", "opening_hours": "Mo-Su 09:00-13:00, 14:30-00:00"}}, {"type": "way", "id": 276139501, "nodes": [2807567970, 2807567971, 8149625121, 2807567974, 2807567973, 2807567972, 8149625119, 8149625120, 2807567970], "tags": {"amenity": "restaurant", "name": "Rifugio Conserva"}}, {"type": "way", "id": 783379529, "nodes": [7316230071, 7316230074, 7316230073, 7316230069, 7316230068, 7316230070, 7316230071], "tags": {"amenity": "cafe", "building": "residential", "cuisine": "ice_cream", "name": "Bar Stadio", "opening_hours": "Mo-Su 09:00-21:00", "smoking": "no", "takeaway": "yes", "wheelchair": "yes"}}, {"type": "way", "id": 783379628, "nodes": [7316233347, 7316230740, 7316233342, 7316233343, 7316233347], "tags": {"amenity": "cafe", "building": "residential", "name": "Bar / Tabaccheria", "opening_hours": "Mo-Sa 08:00-18:00", "smoking": "separated", "wheelchair": "yes"}}, {"type": "way", "id": 783380559, "nodes": [7316237045, 7316237040, 7316237039, 7316237042, 7316237041, 7316237036, 7316237035, 7316237038, 7316237037, 7316237032, 7316237031, 7316237034, 7316237033, 7316237028, 7316237027, 7316237030, 7316237029, 7316237045], "tags": {"addr:housenumber": "46", "addr:postcode": "85034", "addr:street": "Via Alcide De' Gasperi", "amenity": "restaurant", "building": "yes", "cuisine": "regional;pizza;italian", "name": "Albergo Ristorante Mango", "tourism": "hotel"}}, {"type": "way", "id": 932430021, "nodes": [8643615876, 8643615877, 8643615878, 8643615879, 8643615876], "tags": {"amenity": "restaurant", "building": "yes"}}, {"type": "way", "id": 1038751265, "nodes": [9566008331, 9566008330, 9566008329, 9566008328, 9566008331], "tags": {"amenity": "restaurant", "building": "yes", "cuisine": "pizza", "name": "Pantagruel"}}, {"type": "way", "id": 1079837705, "nodes": [9898087173, 9898087170, 9898087171, 9898087172, 9898087173], "tags": {"amenity": "cafe", "building": "yes"}}, {"type": "way", "id": 1087060380, "nodes": [9960190970, 9960190969, 9960190968, 9960190967, 9960190966, 9960190965, 9960190964, 9960190963, 9960190962, 9960190970], "tags": {"amenity": "restaurant", "building": "yes", "cuisine": "regional", "name": "Ristorante Cazzanedda"}}, {"type": "way", "id": 1088909244, "nodes": [9975654456, 9975654453, 9975654454, 9975654455, 9975654456], "tags": {"amenity": "restaurant", "building": "yes", "cuisine": "pizza", "name": "La Gioconda"}}, {"type": "way", "id": 1136483962, "nodes": [10594371738, 10594371735, 10594371736, 10594371737, 12047986718, 12047986804, 10594371738], "tags": {"addr:city": "Lauria", "addr:housenumber": "km 151+100", "addr:postcode": "85044", "addr:street": "Autostrada A2 del Mediterraneo", "amenity": "restaurant", "building": "yes", "name": "Sarni"}}, {"type": "way", "id": 1136483964, "nodes": [10594371746, 10594371745, 10594371744, 10594371743, 10594371746], "tags": {"addr:city": "Lauria", "addr:housenumber": "km 151+100", "addr:postcode": "85044", "addr:street": "Autostrada A2 del Mediterraneo", "amenity": "restaurant", "building": "yes", "name": "Sarni"}}, {"type": "way", "id": 1163035181, "nodes": [10816369066, 10816369065, 10816369064, 10816369063, 10816369066], "tags": {"addr:street": "Contrada Piano di Maglie", "amenity": "restaurant", "description": "Agriturismo", "name": "Vecchia Fattoria", "phone": "+39 0975 67327", "tourism": "guest_house", "website": "https://www.agriturismovecchiafattoriabasilicata.it/"}}]}