{"version": 0.6, "generator": "Overpass API 0.7.62.7 375dc00a", "osm3s": {"timestamp_osm_base": "2025-06-14T13:25:11Z", "copyright": "The data included in this document is from www.openstreetmap.org. The data is made available under ODbL."}, "elements": [{"type": "node", "id": 86091243, "lat": 41.192744, "lon": 9.3663779}, {"type": "node", "id": 259421888, "lat": 40.9239143, "lon": 9.5217111, "tags": {"amenity": "cafe", "created_by": "Potlatch 0.8b", "name": "Ponte", "opening_hours": "Mo-Su 05:30-22:00", "wheelchair": "yes"}}, {"type": "node", "id": 259431345, "lat": 40.9955433, "lon": 9.6241929, "tags": {"amenity": "cafe", "created_by": "Potlatch 0.8b"}}, {"type": "node", "id": 259439979, "lat": 40.9037148, "lon": 9.5166006, "tags": {"amenity": "cafe", "check_date": "2025-05-06", "check_date:diet:vegetarian": "2025-05-06", "check_date:smoking": "2025-05-06", "diet:vegetarian": "yes", "indoor_seating": "yes", "name": "Kara Kiosk", "outdoor_seating": "yes", "smoking": "no"}}, {"type": "node", "id": 259501817, "lat": 40.8866017, "lon": 9.4929851, "tags": {"amenity": "cafe", "created_by": "Potlatch 0.8b"}}, {"type": "node", "id": 259868300, "lat": 41.0280373, "lon": 9.5468692, "tags": {"amenity": "cafe", "name": "Harmont & Blaine Caf\u00e8"}}, {"type": "node", "id": 260433636, "lat": 40.9310816, "lon": 9.5010572, "tags": {"amenity": "cafe"}}, {"type": "node", "id": 454190398, "lat": 41.1162849, "lon": 9.3779492, "tags": {"amenity": "restaurant", "cuisine": "regional", "name": "Lu Branu", "phone": "+39 333 1816877"}}, {"type": "node", "id": 454486802, "lat": 40.9219768, "lon": 9.4999816, "tags": {"amenity": "restaurant", "cuisine": "pizza;regional", "name": "Bar Pizzeria Gattopardo", "wheelchair": "yes"}}, {"type": "node", "id": 454492631, "lat": 40.9242981, "lon": 9.5014074, "tags": {"amenity": "restaurant", "cuisine": "pizza", "indoor_seating": "yes", "name": "Ristorante Pizzeria Troncadero", "outdoor_seating": "yes"}}, {"type": "node", "id": 454495795, "lat": 40.9300217, "lon": 9.4969158, "tags": {"amenity": "restaurant", "cuisine": "regional", "name": "Ristorante Barbagia"}}, {"type": "node", "id": 454496464, "lat": 40.9314724, "lon": 9.4988894, "tags": {"amenity": "restaurant", "cuisine": "pizza", "name": "Pizzeria Il Cavallino Rosso"}}, {"type": "node", "id": 494240467, "lat": 41.0951472, "lon": 9.5288442, "tags": {"amenity": "restaurant", "cuisine": "italian", "name": "Belvedere"}}, {"type": "node", "id": 494248371, "lat": 41.0709456, "lon": 9.4595278, "tags": {"amenity": "restaurant", "cuisine": "italian", "name": "La Ruota", "note": "pizzeria"}}, {"type": "node", "id": 525793231, "lat": 41.1833258, "lon": 9.3233666, "tags": {"amenity": "restaurant", "cuisine": "italian", "name": "Maestrale"}}, {"type": "node", "id": 525793242, "lat": 41.1810804, "lon": 9.3363583, "tags": {"amenity": "restaurant", "cuisine": "italian;pizza", "name": "Non solo Pizza"}}, {"type": "node", "id": 528133612, "lat": 41.1705468, "lon": 9.3493719, "tags": {"amenity": "restaurant", "cuisine": "italian", "name": "Vecchia Gallura"}}, {"type": "node", "id": 528133897, "lat": 41.170577, "lon": 9.3237468, "tags": {"amenity": "restaurant", "cuisine": "italian", "name": "Capannaccia"}}, {"type": "node", "id": 528134821, "lat": 41.1711898, "lon": 9.3422843, "tags": {"amenity": "restaurant", "name": "Palau"}}, {"type": "node", "id": 534745854, "lat": 41.1774966, "lon": 9.3838334, "tags": {"amenity": "restaurant"}}, {"type": "node", "id": 905349632, "lat": 41.1711229, "lon": 9.416363, "tags": {"amenity": "cafe", "name": "Orso Yogi Caf\u00e9"}}, {"type": "node", "id": 953859298, "lat": 41.1321286, "lon": 9.4432113, "tags": {"amenity": "restaurant", "cuisine": "italian", "name": "Peccatum"}}, {"type": "node", "id": 957030749, "lat": 41.0685756, "lon": 9.4194541, "tags": {"addr:city": "Arzachena", "addr:country": "IT", "addr:housenumber": "Km 339+355", "addr:place": "Moro", "addr:postcode": "07021", "addr:street": "Strada Statale 125 Orientale Sarda", "amenity": "restaurant", "cuisine": "regional", "name": "Il Vecchio Mulino", "opening_hours": "Mo-Su 00:00-03:00,12:00-15:00,19:00-24:00"}}, {"type": "node", "id": 957030789, "lat": 41.1098135, "lon": 9.4406891, "tags": {"amenity": "restaurant", "name": "Ristorante del Porto", "seamark:small_craft_facility:category": "restaurant", "seamark:type": "small_craft_facility", "tourism": "hotel"}}, {"type": "node", "id": 957056379, "lat": 41.1224435, "lon": 9.4406449, "tags": {"amenity": "restaurant", "name": "La Vecchia Lampara", "website": "https://www.lavecchialampara.com/"}}, {"type": "node", "id": 1189469435, "lat": 41.2393711, "lon": 9.1904284, "tags": {"amenity": "restaurant", "name": "Azzurra"}}, {"type": "node", "id": 1189619246, "lat": 41.242349, "lon": 9.1901508, "tags": {"addr:housenumber": "7", "addr:postcode": "07028", "addr:street": "Via Italia", "amenity": "restaurant", "cuisine": "italian;italian_pizza;pizza", "name": "Il Girasole", "phone": "+39 0789 754597", "website": "https://m.facebook.com/pages/Ristorante-Pizzeria-Il-Girasole-Da-Peppe/142036619217106"}}, {"type": "node", "id": 1189619250, "lat": 41.2425468, "lon": 9.1906078, "tags": {"amenity": "cafe", "name": "Gelateria"}}, {"type": "node", "id": 1192815637, "lat": 41.2375114, "lon": 9.1938341, "tags": {"amenity": "cafe", "name": "I piccoli mostri", "seamark:small_craft_facility:category": "restaurant", "seamark:type": "small_craft_facility"}}, {"type": "node", "id": 1481228456, "lat": 41.1078069, "lon": 9.2611056, "tags": {"amenity": "cafe", "cuisine": "italian", "name": "Antico Cafe 1921"}}, {"type": "node", "id": 1501964904, "lat": 40.9235862, "lon": 9.4954894, "tags": {"amenity": "cafe", "name": "Bar della Caccia", "source": "survey", "survey:date": "2011-10"}}, {"type": "node", "id": 1573722524, "lat": 40.9238411, "lon": 9.5006204, "tags": {"amenity": "cafe", "indoor_seating": "yes", "name": "Caf\u00e9 Mary", "outdoor_seating": "yes"}}, {"type": "node", "id": 1574255101, "lat": 41.0977797, "lon": 9.5259833, "tags": {"amenity": "cafe", "name": "La Tazza d'oro"}}, {"type": "node", "id": 1576753806, "lat": 41.0487089, "lon": 9.2076588, "tags": {"amenity": "cafe", "name": "illy"}}, {"type": "node", "id": 1577953734, "lat": 40.9912447, "lon": 9.3017077, "tags": {"amenity": "cafe", "name": "Bar Le Vele"}}, {"type": "node", "id": 1578180768, "lat": 41.0820361, "lon": 9.3851781, "tags": {"amenity": "cafe", "name": "Bar del Ponte"}}, {"type": "node", "id": 1578259565, "lat": 41.1029035, "lon": 9.4384065, "tags": {"amenity": "cafe", "name": "Caff\u00e9 del Sole", "seamark:small_craft_facility:category": "restaurant", "seamark:type": "small_craft_facility"}}, {"type": "node", "id": 1579361517, "lat": 41.2154583, "lon": 9.4633484, "tags": {"amenity": "cafe", "name": "Il Pino"}}, {"type": "node", "id": 1579634361, "lat": 41.1806889, "lon": 9.3831825, "tags": {"addr:city": "Palau", "addr:country": "IT", "addr:housenumber": "1", "addr:postcode": "07020", "addr:street": "Piazza Due Palme", "amenity": "cafe", "name": "Moon Light Caff\u00e9", "operator": "F. E. Pi\u00fa Marazzi"}}, {"type": "node", "id": 1579719999, "lat": 41.1812622, "lon": 9.3857574, "tags": {"amenity": "cafe", "name": "illy"}}, {"type": "node", "id": 1580678618, "lat": 41.2302501, "lon": 9.2167568, "tags": {"amenity": "restaurant", "name": "La Piana"}}, {"type": "node", "id": 1580741751, "lat": 41.2420961, "lon": 9.190034, "tags": {"addr:city": "Santa Teresa Gallura", "addr:country": "IT", "addr:housenumber": "1", "addr:postcode": "07028", "addr:street": "Piazza Vittorio Emanuele", "amenity": "cafe", "name": "Central Bar 80", "operator": "Anselmo Soro"}}, {"type": "node", "id": 1589699303, "lat": 40.9236952, "lon": 9.4963074, "tags": {"amenity": "cafe", "name": "Adela Caf\u00e8"}}, {"type": "node", "id": 1589707719, "lat": 40.9192526, "lon": 9.4967794, "tags": {"amenity": "cafe", "name": "Stalingrado Caf\u00e9"}}, {"type": "node", "id": 1695812654, "lat": 41.2336068, "lon": 9.1913815, "tags": {"amenity": "restaurant", "cuisine": "regional", "name": "Bakkus - L'Assassino dal 1972", "seamark:small_craft_facility:category": "restaurant", "seamark:type": "small_craft_facility"}}, {"type": "node", "id": 1695812657, "lat": 41.2398348, "lon": 9.1873476, "tags": {"amenity": "restaurant", "name": "Da Thomas", "seamark:small_craft_facility:category": "restaurant", "seamark:type": "small_craft_facility"}}, {"type": "node", "id": 1695812659, "lat": 41.2419768, "lon": 9.1876118, "tags": {"amenity": "restaurant", "name": "Due Palme"}}, {"type": "node", "id": 1695812661, "lat": 41.2419324, "lon": 9.1872184, "tags": {"amenity": "restaurant", "name": "La Griglia"}}, {"type": "node", "id": 1695819893, "lat": 41.2483562, "lon": 9.2335413, "tags": {"amenity": "restaurant", "cuisine": "italian", "name": "La Terrazza"}}, {"type": "node", "id": 1701582112, "lat": 40.927985, "lon": 9.481047, "tags": {"amenity": "cafe", "name": "Cafe Barcellona"}}, {"type": "node", "id": 1770837118, "lat": 41.0885607, "lon": 9.5465047, "tags": {"addr:city": "Porto Cervo, Arzachena", "addr:postcode": "07021", "addr:street": "Localit\u00e0 Cala di Volpe", "amenity": "restaurant", "capacity": "120", "cuisine": "italian;pizza;regional;sandwich;burger;chicken;ice_cream;international;steak_house;breakfast", "name": "Bar Baretto", "opening_hours": "Mo-Su 06:00-02:00", "outdoor_seating": "yes", "payment:coins": "yes", "payment:credit_cards": "yes", "payment:mastercard": "yes", "phone": "0789 96115", "smoking": "outside", "takeaway": "yes"}}, {"type": "node", "id": 1777472709, "lat": 41.1079243, "lon": 9.5330525, "tags": {"amenity": "restaurant", "cuisine": "italian", "name": "Ristorante Dante"}}, {"type": "node", "id": 1777474688, "lat": 41.063612, "lon": 9.4516695, "tags": {"addr:city": "Arzachena", "addr:postcode": "07021", "amenity": "restaurant", "cuisine": "italian", "name": "Lu Stazzu", "website": "http://www.lustazzu.com/"}}, {"type": "node", "id": 1777476229, "lat": 41.0469167, "lon": 9.4672368, "tags": {"addr:city": "San Pantaleo", "addr:housenumber": "3", "addr:street": "Piazza Vittorio Emanuele", "amenity": "cafe", "check_date": "2024-06-20", "name": "Cafe Nina", "opening_hours": "We-Mo,PH 07:30-01:00", "phone": "+39 338 3687288"}}, {"type": "node", "id": 1777476231, "lat": 41.0464579, "lon": 9.4678853, "tags": {"addr:city": "San Pantaleo", "addr:housenumber": "74", "addr:postcode": "07026", "addr:street": "Via Zara", "amenity": "restaurant", "cuisine": "italian;pizza", "name": "Pizzeria Ichnos"}}, {"type": "node", "id": 1777477636, "lat": 41.1353822, "lon": 9.5168977, "tags": {"amenity": "cafe", "name": "Lu Pasticciu"}}, {"type": "node", "id": 1797445349, "lat": 41.1924955, "lon": 9.366369}, {"type": "node", "id": 1797445354, "lat": 41.1930461, "lon": 9.3660478}, {"type": "node", "id": 1870268909, "lat": 40.9238758, "lon": 9.4860035, "tags": {"amenity": "restaurant", "cuisine": "pizza", "name": "Pizzeria Kentimetro"}}, {"type": "node", "id": 1885852276, "lat": 40.9815068, "lon": 9.4967316, "tags": {"amenity": "restaurant", "cuisine": "argentinian", "name": "Planer", "website": "http://www.planerclub.com/"}}, {"type": "node", "id": 1927382431, "lat": 40.9932209, "lon": 9.4545858, "tags": {"addr:housename": "Agriturismo Agrisole", "addr:housenumber": "7", "addr:postcode": "07026", "addr:street": "Via Sole Ruju", "amenity": "restaurant", "cuisine": "regional", "name": "Agriturismo Agrisole", "website": "https://www.agriturismo-agrisole.com/"}}, {"type": "node", "id": 1964898438, "lat": 40.8941271, "lon": 9.6835466}, {"type": "node", "id": 1964898442, "lat": 40.8941366, "lon": 9.6833317}, {"type": "node", "id": 1964898452, "lat": 40.8941549, "lon": 9.6831598}, {"type": "node", "id": 1964898467, "lat": 40.8942258, "lon": 9.6833483}, {"type": "node", "id": 1964898500, "lat": 40.8942441, "lon": 9.6831764}, {"type": "node", "id": 2100236623, "lat": 41.0020597, "lon": 9.570909, "tags": {"amenity": "restaurant", "cuisine": "pizza", "name": "Il Segreto"}}, {"type": "node", "id": 2100440121, "lat": 41.0103188, "lon": 9.5859838}, {"type": "node", "id": 2100440125, "lat": 41.0103306, "lon": 9.5860704}, {"type": "node", "id": 2100440129, "lat": 41.0104136, "lon": 9.5859612}, {"type": "node", "id": 2100440131, "lat": 41.0104254, "lon": 9.5860477}, {"type": "node", "id": 2103896767, "lat": 41.1178035, "lon": 9.4623756}, {"type": "node", "id": 2311017873, "lat": 41.2413818, "lon": 9.1886126, "tags": {"amenity": "restaurant", "name": "Ristorante Pape Satan"}}, {"type": "node", "id": 2311017876, "lat": 41.2410571, "lon": 9.1887253, "tags": {"amenity": "restaurant", "brewery": "yes", "check_date": "2024-09-05", "cuisine": "pizza", "name": "Pizzeria La Lucciola", "outdoor_seating": "yes", "payment:cash": "yes", "payment:credit_cards": "yes", "takeaway": "yes", "toilets:wheelchair": "no"}}, {"type": "node", "id": 2372216588, "lat": 41.1326557, "lon": 9.5356778, "tags": {"amenity": "cafe", "indoor_seating": "yes", "name": "Gelateria Artigiana", "outdoor_seating": "yes"}}, {"type": "node", "id": 2372238201, "lat": 41.0030193, "lon": 9.6176596}, {"type": "node", "id": 2372238203, "lat": 41.0030275, "lon": 9.6177005}, {"type": "node", "id": 2372238205, "lat": 41.0030522, "lon": 9.6177005}, {"type": "node", "id": 2372238208, "lat": 41.0030687, "lon": 9.6177224}, {"type": "node", "id": 2372238210, "lat": 41.0030543, "lon": 9.6177715}, {"type": "node", "id": 2372238212, "lat": 41.0030502, "lon": 9.6178205}, {"type": "node", "id": 2372238214, "lat": 41.0030234, "lon": 9.6178315}, {"type": "node", "id": 2372238216, "lat": 41.0030111, "lon": 9.6177987}, {"type": "node", "id": 2372238221, "lat": 41.0029843, "lon": 9.6177824}, {"type": "node", "id": 2372238224, "lat": 41.0029514, "lon": 9.6177933}, {"type": "node", "id": 2372238226, "lat": 41.0029411, "lon": 9.6177524}, {"type": "node", "id": 2372238228, "lat": 41.0029473, "lon": 9.617646}, {"type": "node", "id": 2435294255, "lat": 41.132784, "lon": 9.5355244, "tags": {"addr:street": "Piazetta", "amenity": "cafe", "name": "Caffe Sole"}}, {"type": "node", "id": 2450388068, "lat": 40.9229063, "lon": 9.5031805, "tags": {"air_conditioning": "yes", "amenity": "restaurant", "cuisine": "italian", "diet:vegan": "yes", "diet:vegetarian": "yes", "indoor_seating": "yes", "name": "Piperita Patty", "opening_hours": "Mo-Sa 18:00-00:00", "outdoor_seating": "yes", "toilets": "yes"}}, {"type": "node", "id": 2450388069, "lat": 40.9231251, "lon": 9.5022042, "tags": {"amenity": "restaurant"}}, {"type": "node", "id": 2453834581, "lat": 40.9542019, "lon": 9.5778313}, {"type": "node", "id": 2453834582, "lat": 40.9541778, "lon": 9.5777999}, {"type": "node", "id": 2453834583, "lat": 40.9541672, "lon": 9.5778142}, {"type": "node", "id": 2453834584, "lat": 40.9540816, "lon": 9.5777025}, {"type": "node", "id": 2453834585, "lat": 40.9541585, "lon": 9.5775993}, {"type": "node", "id": 2453834586, "lat": 40.9542681, "lon": 9.5777424}, {"type": "node", "id": 2475273666, "lat": 40.9978772, "lon": 9.6233508, "tags": {"amenity": "cafe", "name": "la yogurteria", "opening_hours": "Mo-Su 15:00-23:00"}}, {"type": "node", "id": 2476888446, "lat": 41.0011724, "lon": 9.6221781, "tags": {"addr:housenumber": "101", "addr:street": "Via Libert\u00e0", "amenity": "restaurant", "check_date": "2024-09-23", "name": "Chiaro di Luna", "website": "https://ristorantechiarodiluna.it"}}, {"type": "node", "id": 2478098596, "lat": 40.9830245, "lon": 9.5748425, "tags": {"amenity": "restaurant", "name": "Ristorante Sottomonte", "toilets:wheelchair": "yes", "website": "https://www.ristorantesottomonte.it/", "wheelchair": "yes"}}, {"type": "node", "id": 2480075784, "lat": 40.9996582, "lon": 9.6230149, "tags": {"amenity": "cafe", "name": "Cafe' del Sol"}}, {"type": "node", "id": 2483305184, "lat": 40.921709, "lon": 9.502822, "tags": {"amenity": "cafe", "name": "Demos's Cafe"}}, {"type": "node", "id": 2483320651, "lat": 40.935812, "lon": 9.498498, "tags": {"addr:city": "Olbia", "addr:housenumber": "128", "addr:street": "Viale Aldo Moro", "amenity": "cafe", "name": "Jazz ArtCaf\u00e9", "outdoor_seating": "yes"}}, {"type": "node", "id": 2486854044, "lat": 41.2121626, "lon": 9.4056918, "tags": {"addr:housenumber": "2", "addr:street": "Via G. Amendola", "amenity": "restaurant", "cuisine": "italian;pizza", "name": "Roby's Pizzeria"}}, {"type": "node", "id": 2486975911, "lat": 41.2126997, "lon": 9.4051725, "tags": {"addr:housenumber": "18", "addr:street": "Via 20 Settembre", "amenity": "cafe", "internet_access": "wlan", "name": "La Bomboniera", "outdoor_seating": "yes"}}, {"type": "node", "id": 2487589503, "lat": 41.2130093, "lon": 9.4040012, "tags": {"addr:postcode": "07024", "addr:street": "Via G. Oberdan", "amenity": "cafe", "contact:facebook": "ivitellonilamaddalena", "cuisine": "breakfast;burger;buschenschank;diner", "email": "ivitellonilamaddalena@gmail.com", "internet_access": "wlan", "name": "I Vitelloni", "opening_hours": "Mo-Su 05:30-02:00", "website": "https://www.ivitellonilamaddalena.com"}}, {"type": "node", "id": 2487593835, "lat": 41.213569, "lon": 9.403181, "tags": {"amenity": "restaurant", "cuisine": "italian;pizza", "name": "Trattoria Pizzeria . I Curciareddhi"}}, {"type": "node", "id": 2487624761, "lat": 41.2127778, "lon": 9.4028381, "tags": {"amenity": "restaurant", "cuisine": "italian;pizza", "name": "Pizzeria Ristorante Perla Blu", "outdoor_seating": "yes"}}, {"type": "node", "id": 2492783910, "lat": 41.0352653, "lon": 9.5218072, "tags": {"amenity": "restaurant", "cuisine": "mediterranean", "internet_access": "wlan", "name": "Aquamarina Ristorante", "opening_hours": "Mo-Su 12:00-15:00,19:00-23:00", "outdoor_seating": "yes", "seamark:small_craft_facility:category": "restaurant", "seamark:type": "small_craft_facility", "smoking": "outside", "takeaway": "yes", "wheelchair": "yes"}}, {"type": "node", "id": 2492812430, "lat": 41.0354059, "lon": 9.5218808, "tags": {"amenity": "restaurant", "cuisine": "mediterranean", "internet_access": "wlan", "name": "Matt's caf\u00e9. pizza in musica", "opening_hours": "Mo-Su 12:00-15:00,19:00-01:00", "outdoor_seating": "yes", "seamark:small_craft_facility:category": "restaurant", "seamark:type": "small_craft_facility", "smoking": "outside", "takeaway": "yes"}}, {"type": "node", "id": 2492862602, "lat": 41.034825, "lon": 9.51927, "tags": {"amenity": "restaurant", "cuisine": "italian", "name": "Ristorante Su Cubone", "outdoor_seating": "yes", "seamark:small_craft_facility:category": "restaurant", "seamark:type": "small_craft_facility", "smoking": "outside"}}, {"type": "node", "id": 2493592677, "lat": 40.936332, "lon": 9.498057, "tags": {"addr:city": "Olbia", "addr:housenumber": "173", "addr:street": "Viale Aldo Moro", "amenity": "restaurant", "level": "-1", "name": "Bartolo Ristorante"}}, {"type": "node", "id": 2493647152, "lat": 41.134952, "lon": 9.537435, "tags": {"amenity": "cafe", "name": "Dolci Delizie", "outdoor_seating": "yes", "toilets:wheelchair": "yes", "wheelchair": "yes"}}, {"type": "node", "id": 2493652972, "lat": 41.134521, "lon": 9.537337, "tags": {"amenity": "restaurant", "name": "Caf\u00e9 Du Port", "seamark:small_craft_facility:category": "restaurant", "seamark:type": "small_craft_facility"}}, {"type": "node", "id": 2493951480, "lat": 40.929613, "lon": 9.500482, "tags": {"amenity": "restaurant", "cuisine": "italian;pizza", "name": "Pizzeria Vesuvio", "outdoor_seating": "yes"}}, {"type": "node", "id": 2697995682, "lat": 40.922337, "lon": 9.498651, "tags": {"amenity": "restaurant", "name": "Bidibo"}}, {"type": "node", "id": 2739057008, "lat": 40.9756969, "lon": 9.577834, "tags": {"amenity": "restaurant"}}, {"type": "node", "id": 2739057020, "lat": 40.9759885, "lon": 9.5817286, "tags": {"amenity": "restaurant"}}, {"type": "node", "id": 2783839476, "lat": 41.1101765, "lon": 9.440396, "tags": {"amenity": "restaurant", "cuisine": "italian", "name": "La Randada Frofo", "phone": "+39 789892036", "seamark:small_craft_facility:category": "restaurant", "seamark:type": "small_craft_facility"}}, {"type": "node", "id": 2783853135, "lat": 41.0740817, "lon": 9.4101499}, {"type": "node", "id": 2783853179, "lat": 41.0741404, "lon": 9.4100933}, {"type": "node", "id": 2783853222, "lat": 41.0741819, "lon": 9.410331}, {"type": "node", "id": 2783853240, "lat": 41.0741952, "lon": 9.4101923}, {"type": "node", "id": 2783853267, "lat": 41.0742181, "lon": 9.4101701}, {"type": "node", "id": 2783853271, "lat": 41.0742225, "lon": 9.4102241}, {"type": "node", "id": 2783853295, "lat": 41.074239, "lon": 9.4102083}, {"type": "node", "id": 2783853312, "lat": 41.0742468, "lon": 9.4102681}, {"type": "node", "id": 2783981963, "lat": 41.1301045, "lon": 9.4371917}, {"type": "node", "id": 2783981969, "lat": 41.1301098, "lon": 9.4372407}, {"type": "node", "id": 2783981998, "lat": 41.1301333, "lon": 9.4371502}, {"type": "node", "id": 2783982007, "lat": 41.1301371, "lon": 9.4371856}, {"type": "node", "id": 2783982016, "lat": 41.1301427, "lon": 9.4372345}, {"type": "node", "id": 2783982025, "lat": 41.1301479, "lon": 9.4372828}, {"type": "node", "id": 2783982085, "lat": 41.130223, "lon": 9.4371333}, {"type": "node", "id": 2783982098, "lat": 41.1302373, "lon": 9.437266}, {"type": "node", "id": 2783986319, "lat": 41.1330437, "lon": 9.5370791}, {"type": "node", "id": 2783986331, "lat": 41.1330519, "lon": 9.5369547}, {"type": "node", "id": 2783986349, "lat": 41.1330638, "lon": 9.5370352}, {"type": "node", "id": 2783986395, "lat": 41.1331029, "lon": 9.5369402}, {"type": "node", "id": 2783986405, "lat": 41.1331138, "lon": 9.5369769}, {"type": "node", "id": 2783986410, "lat": 41.1331164, "lon": 9.5371344}, {"type": "node", "id": 2783986411, "lat": 41.1331168, "lon": 9.5369461}, {"type": "node", "id": 2783986477, "lat": 41.1331684, "lon": 9.5371543}, {"type": "node", "id": 2783986487, "lat": 41.1331785, "lon": 9.5368966}, {"type": "node", "id": 2783986489, "lat": 41.1331808, "lon": 9.5369155}, {"type": "node", "id": 2783986498, "lat": 41.1331867, "lon": 9.5369433}, {"type": "node", "id": 2783986507, "lat": 41.1331955, "lon": 9.5368858}, {"type": "node", "id": 2783986533, "lat": 41.133212, "lon": 9.5368544}, {"type": "node", "id": 2783986544, "lat": 41.1332218, "lon": 9.5371517}, {"type": "node", "id": 2783986577, "lat": 41.1332395, "lon": 9.536927}, {"type": "node", "id": 2783986595, "lat": 41.1332422, "lon": 9.5371012}, {"type": "node", "id": 2783986611, "lat": 41.1332509, "lon": 9.5370064}, {"type": "node", "id": 2783986636, "lat": 41.1332588, "lon": 9.5369519}, {"type": "node", "id": 2783986638, "lat": 41.1332599, "lon": 9.5370241}, {"type": "node", "id": 2783992842, "lat": 41.1372061, "lon": 9.4783578}, {"type": "node", "id": 2783992843, "lat": 41.137207, "lon": 9.4784004}, {"type": "node", "id": 2783992853, "lat": 41.1372197, "lon": 9.4783338}, {"type": "node", "id": 2783992867, "lat": 41.1372267, "lon": 9.4784332}, {"type": "node", "id": 2783992878, "lat": 41.1372344, "lon": 9.4783344}, {"type": "node", "id": 2783992880, "lat": 41.137236, "lon": 9.4782712}, {"type": "node", "id": 2783992909, "lat": 41.1372645, "lon": 9.4784538}, {"type": "node", "id": 2783993016, "lat": 41.1373017, "lon": 9.4784537}, {"type": "node", "id": 2783993024, "lat": 41.1373022, "lon": 9.4783313}, {"type": "node", "id": 2783993027, "lat": 41.1373037, "lon": 9.4782741}, {"type": "node", "id": 2783993094, "lat": 41.1373258, "lon": 9.4783323}, {"type": "node", "id": 2783993106, "lat": 41.137327, "lon": 9.4784413}, {"type": "node", "id": 2783993154, "lat": 41.137341, "lon": 9.4784103}, {"type": "node", "id": 2783993165, "lat": 41.1373428, "lon": 9.4783675}, {"type": "node", "id": 2784005777, "lat": 41.1409337, "lon": 9.4744478}, {"type": "node", "id": 2784005906, "lat": 41.1410353, "lon": 9.4746733}, {"type": "node", "id": 2795359129, "lat": 40.9989172, "lon": 9.6037381, "tags": {"amenity": "restaurant", "cuisine": "italian", "name": "Ristorante Pizzeria Da Andrea"}}, {"type": "node", "id": 2818292815, "lat": 40.8885992, "lon": 9.589415}, {"type": "node", "id": 2818292823, "lat": 40.8886939, "lon": 9.5892725}, {"type": "node", "id": 2818292824, "lat": 40.8887048, "lon": 9.589285}, {"type": "node", "id": 2818292826, "lat": 40.8887136, "lon": 9.589541}, {"type": "node", "id": 2818292838, "lat": 40.8887769, "lon": 9.5891774}, {"type": "node", "id": 2818292844, "lat": 40.8888025, "lon": 9.5894065}, {"type": "node", "id": 2818292846, "lat": 40.8888107, "lon": 9.5894157}, {"type": "node", "id": 2818292856, "lat": 40.8888498, "lon": 9.5893447}, {"type": "node", "id": 2818292858, "lat": 40.8888543, "lon": 9.5892702}, {"type": "node", "id": 2818292863, "lat": 40.8888815, "lon": 9.5892671}, {"type": "node", "id": 2818292864, "lat": 40.8888857, "lon": 9.5893423}, {"type": "node", "id": 2818396340, "lat": 40.9230348, "lon": 9.4938815}, {"type": "node", "id": 2818396515, "lat": 40.9230533, "lon": 9.4940049}, {"type": "node", "id": 2818396773, "lat": 40.9231294, "lon": 9.4938567}, {"type": "node", "id": 2818396791, "lat": 40.9231356, "lon": 9.4939509}, {"type": "node", "id": 2818396804, "lat": 40.9231403, "lon": 9.4939821}, {"type": "node", "id": 2818396816, "lat": 40.9231433, "lon": 9.4939489}, {"type": "node", "id": 2822374603, "lat": 41.217264, "lon": 9.4276653}, {"type": "node", "id": 2822374889, "lat": 41.2173601, "lon": 9.4276619}, {"type": "node", "id": 2822374890, "lat": 41.2173584, "lon": 9.4275803}, {"type": "node", "id": 2822398226, "lat": 41.2935505, "lon": 9.3644845}, {"type": "node", "id": 2822398227, "lat": 41.2935512, "lon": 9.3645896}, {"type": "node", "id": 2822398232, "lat": 41.2936316, "lon": 9.3644801}, {"type": "node", "id": 2822398233, "lat": 41.2936339, "lon": 9.3645281}, {"type": "node", "id": 2822398241, "lat": 41.2937416, "lon": 9.3646091}, {"type": "node", "id": 2822398242, "lat": 41.2937502, "lon": 9.3645345}, {"type": "node", "id": 2839866164, "lat": 41.2391005, "lon": 9.1942755, "tags": {"amenity": "cafe"}}, {"type": "node", "id": 2839870410, "lat": 41.2445068, "lon": 9.1886651, "tags": {"amenity": "restaurant", "name": "Tropican"}}, {"type": "node", "id": 2839871511, "lat": 41.2443806, "lon": 9.1898227, "tags": {"amenity": "cafe", "name": "Bar rena Bianca"}}, {"type": "node", "id": 2839906446, "lat": 41.241823, "lon": 9.1894833, "tags": {"amenity": "cafe", "name": "Bar Sport"}}, {"type": "node", "id": 2843166234, "lat": 41.163735, "lon": 9.3407443}, {"type": "node", "id": 2843166247, "lat": 41.163758, "lon": 9.3409623}, {"type": "node", "id": 2843166268, "lat": 41.163794, "lon": 9.3407335}, {"type": "node", "id": 2843166274, "lat": 41.1638002, "lon": 9.3407923}, {"type": "node", "id": 2843166278, "lat": 41.1638045, "lon": 9.3408928}, {"type": "node", "id": 2843166282, "lat": 41.1638107, "lon": 9.3409525}, {"type": "node", "id": 2843166286, "lat": 41.1638189, "lon": 9.3407888}, {"type": "node", "id": 2843166298, "lat": 41.1638295, "lon": 9.3408883}, {"type": "node", "id": 2843167689, "lat": 41.1658205, "lon": 9.3700316}, {"type": "node", "id": 2843167694, "lat": 41.1658276, "lon": 9.3699301}, {"type": "node", "id": 2843167702, "lat": 41.1658413, "lon": 9.3698881}, {"type": "node", "id": 2843167715, "lat": 41.165849, "lon": 9.3697784}, {"type": "node", "id": 2843167719, "lat": 41.1658696, "lon": 9.3699352}, {"type": "node", "id": 2843167721, "lat": 41.1658726, "lon": 9.3698919}, {"type": "node", "id": 2843167730, "lat": 41.1659016, "lon": 9.370106}, {"type": "node", "id": 2843167731, "lat": 41.1658945, "lon": 9.3698266}, {"type": "node", "id": 2843167732, "lat": 41.1659061, "lon": 9.3700421}, {"type": "node", "id": 2843167734, "lat": 41.1658974, "lon": 9.3697844}, {"type": "node", "id": 2843167744, "lat": 41.1659208, "lon": 9.3699772}, {"type": "node", "id": 2843167748, "lat": 41.1659259, "lon": 9.3699032}, {"type": "node", "id": 2843167775, "lat": 41.1659617, "lon": 9.3700371}, {"type": "node", "id": 2843167777, "lat": 41.1659655, "lon": 9.3699827}, {"type": "node", "id": 2843167790, "lat": 41.1659964, "lon": 9.3700413}, {"type": "node", "id": 2843167797, "lat": 41.1660009, "lon": 9.3699766}, {"type": "node", "id": 2843167847, "lat": 41.1660753, "lon": 9.3699446}, {"type": "node", "id": 2843167850, "lat": 41.1660843, "lon": 9.3701285}, {"type": "node", "id": 2843167852, "lat": 41.1660769, "lon": 9.3699218}, {"type": "node", "id": 2843167859, "lat": 41.1660941, "lon": 9.3699881}, {"type": "node", "id": 2843167863, "lat": 41.1661014, "lon": 9.3699479}, {"type": "node", "id": 2843167873, "lat": 41.1661081, "lon": 9.3698531}, {"type": "node", "id": 2868266519, "lat": 41.237228, "lon": 9.1598952, "tags": {"amenity": "cafe", "name": "Bar Yoghi e Bubu"}}, {"type": "node", "id": 2868267433, "lat": 41.2360233, "lon": 9.1599732, "tags": {"amenity": "cafe", "name": "Bar Rena di Ponente"}}, {"type": "node", "id": 2871493154, "lat": 41.2414541, "lon": 9.1879724, "tags": {"amenity": "restaurant", "name": "La Barbagia"}}, {"type": "node", "id": 2871521612, "lat": 41.2388315, "lon": 9.188119}, {"type": "node", "id": 2871521644, "lat": 41.2389035, "lon": 9.188291}, {"type": "node", "id": 2871521660, "lat": 41.2389247, "lon": 9.1881424}, {"type": "node", "id": 2871523268, "lat": 41.2388103, "lon": 9.1882675}, {"type": "node", "id": 2874801373, "lat": 40.9922336, "lon": 9.3018852}, {"type": "node", "id": 2874801387, "lat": 40.9922561, "lon": 9.3018215}, {"type": "node", "id": 2874801791, "lat": 40.9929621, "lon": 9.3432892}, {"type": "node", "id": 2874801808, "lat": 40.9930359, "lon": 9.3434792}, {"type": "node", "id": 2874801821, "lat": 40.9930432, "lon": 9.3432339}, {"type": "node", "id": 2874801845, "lat": 40.993117, "lon": 9.343424}, {"type": "node", "id": 2932571578, "lat": 41.1943778, "lon": 9.2677815, "tags": {"amenity": "restaurant", "name": "Trattoria al Peschereccio"}}, {"type": "node", "id": 3099581143, "lat": 41.1637873, "lon": 9.1836743}, {"type": "node", "id": 3099581176, "lat": 41.1638387, "lon": 9.1835269}, {"type": "node", "id": 3099581192, "lat": 41.1638673, "lon": 9.1835449}, {"type": "node", "id": 3099581219, "lat": 41.1639137, "lon": 9.1837405}, {"type": "node", "id": 3099581227, "lat": 41.1639309, "lon": 9.1833616}, {"type": "node", "id": 3099581248, "lat": 41.1639562, "lon": 9.183607}, {"type": "node", "id": 3099581286, "lat": 41.164009, "lon": 9.1835493}, {"type": "node", "id": 3099581288, "lat": 41.1640119, "lon": 9.1836351}, {"type": "node", "id": 3099581310, "lat": 41.1640391, "lon": 9.1835674}, {"type": "node", "id": 3099581319, "lat": 41.1640514, "lon": 9.1834278}, {"type": "node", "id": 3102533042, "lat": 41.2592153, "lon": 9.4308045, "tags": {"amenity": "restaurant"}}, {"type": "node", "id": 3374737693, "lat": 40.9230014, "lon": 9.4995844, "tags": {"amenity": "restaurant", "name": "Officina del Gusto"}}, {"type": "node", "id": 3395701414, "lat": 41.2403365, "lon": 9.188204, "tags": {"amenity": "restaurant", "cuisine": "pizza", "name": "Pizzeria Balajana", "seamark:small_craft_facility:category": "restaurant", "seamark:type": "small_craft_facility"}}, {"type": "node", "id": 3437283008, "lat": 40.9092498, "lon": 9.5233731, "tags": {"amenity": "restaurant", "brand": "Old Wild West", "brand:wikidata": "Q25402475", "cuisine": "american", "name": "Old Wild West"}}, {"type": "node", "id": 3440523150, "lat": 41.166225, "lon": 9.1773048, "tags": {"amenity": "cafe", "internet_access": "wlan", "name": "Senna Rena Majore"}}, {"type": "node", "id": 3512654348, "lat": 41.04608, "lon": 9.467926, "tags": {"addr:city": "San Pantaleo", "addr:housenumber": "59", "addr:postcode": "07026", "addr:street": "Via Zara", "amenity": "cafe", "name": "Zara Cafe'"}}, {"type": "node", "id": 3512654351, "lat": 40.9239034, "lon": 9.499386, "tags": {"amenity": "cafe", "name": "Erboristeria", "survey:date": "2019-04-13"}}, {"type": "node", "id": 3512654352, "lat": 40.9237867, "lon": 9.502958, "tags": {"amenity": "restaurant", "name": "Il Panzerotto"}}, {"type": "node", "id": 3606927622, "lat": 40.9232998, "lon": 9.5000139, "tags": {"addr:city": "Olbia", "addr:housenumber": "2", "addr:street": "Via Regina Elena", "amenity": "cafe", "indoor_seating": "yes", "name": "Caf\u00e8 Matteotti", "opening_hours": "06:30-01:00", "outdoor_seating": "yes", "phone": "+39 0789 23063"}}, {"type": "node", "id": 3671381121, "lat": 40.9257236, "lon": 9.4973084, "tags": {"amenity": "cafe", "name": "Latte & Miele"}}, {"type": "node", "id": 3721833434, "lat": 41.1934442, "lon": 9.3642501, "tags": {"amenity": "cafe", "check_date": "2024-06-21", "name": "Il Gatto Volpa"}}, {"type": "node", "id": 3727517952, "lat": 41.1793467, "lon": 9.3773048, "tags": {"amenity": "restaurant", "name": "Sa Pinta"}}, {"type": "node", "id": 3737952183, "lat": 41.1670396, "lon": 9.3513782, "tags": {"amenity": "restaurant", "cuisine": "regional", "name": "Lu Stradazzu"}}, {"type": "node", "id": 3737977662, "lat": 41.1796755, "lon": 9.3828929, "tags": {"amenity": "cafe", "check_date": "2024-06-19", "name": "Il Grillo"}}, {"type": "node", "id": 3737977663, "lat": 41.1783158, "lon": 9.3835541, "tags": {"amenity": "restaurant", "cuisine": "italian", "name": "Trattoria Pata&Vino"}}, {"type": "node", "id": 3737977664, "lat": 41.1793818, "lon": 9.3829372, "tags": {"amenity": "cafe", "check_date": "2024-06-19", "name": "Vino&Blanco"}}, {"type": "node", "id": 3737977665, "lat": 41.1790265, "lon": 9.3830498, "tags": {"amenity": "restaurant", "check_date": "2024-06-19", "cuisine": "italian", "name": "Re Ferdinando"}}, {"type": "node", "id": 3739584258, "lat": 41.1774769, "lon": 9.38192, "tags": {"amenity": "restaurant", "cuisine": "italian", "name": "da Caltinu"}}, {"type": "node", "id": 3852868372, "lat": 41.1935442, "lon": 9.3188423}, {"type": "node", "id": 3852868373, "lat": 41.1935538, "lon": 9.3189341}, {"type": "node", "id": 3852868374, "lat": 41.1934694, "lon": 9.3189697}, {"type": "node", "id": 3852868375, "lat": 41.1934541, "lon": 9.3188704}, {"type": "node", "id": 3852868376, "lat": 41.1933735, "lon": 9.3189137}, {"type": "node", "id": 3852868377, "lat": 41.1933831, "lon": 9.3189876}, {"type": "node", "id": 3852868378, "lat": 41.1933275, "lon": 9.3190029}, {"type": "node", "id": 3852868379, "lat": 41.1933122, "lon": 9.3189315}, {"type": "node", "id": 3884093230, "lat": 40.9970587, "lon": 9.6228145}, {"type": "node", "id": 3884093231, "lat": 40.9970646, "lon": 9.6227559}, {"type": "node", "id": 3884093236, "lat": 40.9970832, "lon": 9.6228809}, {"type": "node", "id": 3884093237, "lat": 40.997082, "lon": 9.6227978}, {"type": "node", "id": 3884093239, "lat": 40.9971035, "lon": 9.6227337}, {"type": "node", "id": 3884093240, "lat": 40.9970995, "lon": 9.622885}, {"type": "node", "id": 3884093244, "lat": 40.9971552, "lon": 9.6227564}, {"type": "node", "id": 3884093248, "lat": 40.9971751, "lon": 9.6228177}, {"type": "node", "id": 3888957387, "lat": 40.9971677, "lon": 9.6228394}, {"type": "node", "id": 4168800089, "lat": 40.9305045, "lon": 9.4916962, "tags": {"addr:street": "Via Mariano Forteleoni", "amenity": "restaurant", "cuisine": "pizza", "name": "Pizzeria Il Vesuvio"}}, {"type": "node", "id": 4176876051, "lat": 40.992314, "lon": 9.3019347}, {"type": "node", "id": 4176876052, "lat": 40.9923373, "lon": 9.3018716}, {"type": "node", "id": 4201858312, "lat": 41.1920733, "lon": 9.2703544, "tags": {"addr:housenumber": "88", "addr:street": "Viale Aldo Moro", "amenity": "restaurant", "cuisine": "italian_pizza;italian", "email": "argio96@gmail.com", "name": "Il Corallo da Arduino", "opening_hours": "Mo-Su 12:00-23:00", "phone": "+39 0789 749002", "website": "https://m.facebook.com/ilcorallo/"}}, {"type": "node", "id": 4203456289, "lat": 41.0458492, "lon": 9.2091215, "tags": {"addr:street": "Cristoforo Colombo", "amenity": "restaurant", "name": "Ristorante Da Tommy"}}, {"type": "node", "id": 4211442689, "lat": 40.9232886, "lon": 9.4994212, "tags": {"addr:housenumber": "6", "addr:street": "Via Alfonso Lamarmora", "amenity": "restaurant", "cuisine": "fish", "name": "Trattoria Il Gambero", "phone": "+39 0789 23874", "website": "www.trattoriailgambero.it"}}, {"type": "node", "id": 4221699106, "lat": 41.2173564, "lon": 9.4274999}, {"type": "node", "id": 4221699108, "lat": 41.2172223, "lon": 9.4276672}, {"type": "node", "id": 4221699109, "lat": 41.2172181, "lon": 9.4275062}, {"type": "node", "id": 4225524810, "lat": 40.990468, "lon": 9.3032093, "tags": {"addr:city": "Sant'Antoni di Gaddura/Sant'Antonio di Gallura", "addr:city:it": "Sant'Antonio di Gallura", "addr:housenumber": "12", "addr:postcode": "07030", "addr:street": "Via Brunelleschi", "amenity": "restaurant", "name": "Da Agnese", "phone": "+39 079 669185"}}, {"type": "node", "id": 4260233952, "lat": 41.1399823, "lon": 9.4785616, "tags": {"amenity": "restaurant", "name": "Barracuda"}}, {"type": "node", "id": 4260581902, "lat": 41.1176826, "lon": 9.4622269}, {"type": "node", "id": 4260581904, "lat": 41.1176904, "lon": 9.4623432}, {"type": "node", "id": 4260581908, "lat": 41.1177527, "lon": 9.4623358}, {"type": "node", "id": 4260581909, "lat": 41.1177558, "lon": 9.4623813}, {"type": "node", "id": 4260581911, "lat": 41.1178184, "lon": 9.4623738}, {"type": "node", "id": 4260581912, "lat": 41.1178267, "lon": 9.462497}, {"type": "node", "id": 4260581914, "lat": 41.1178601, "lon": 9.4622058}, {"type": "node", "id": 4260581915, "lat": 41.1178793, "lon": 9.4624907}, {"type": "node", "id": 4261531093, "lat": 41.2115907, "lon": 9.3846159, "tags": {"amenity": "restaurant", "cuisine": "italian_pizza", "internet_access": "wlan", "name": "Zi anto", "opening_hours": "Mo; We-Su"}}, {"type": "node", "id": 4261555696, "lat": 41.2162242, "lon": 9.3847721, "tags": {"amenity": "restaurant", "cuisine": "seafood;italian_pizza;mediterranean", "name": "Nido d' aquila"}}, {"type": "node", "id": 4263466595, "lat": 40.9430218, "lon": 9.4981365, "tags": {"addr:housenumber": "351", "addr:street": "Viale Aldo Moro", "amenity": "restaurant", "cuisine": "fish;grill;seafood;mediterranean;local;pasta;italian;fine_dining", "name": "Il mattacchione"}}, {"type": "node", "id": 4263514494, "lat": 40.9345568, "lon": 9.4988522, "tags": {"amenity": "cafe", "cuisine": "sandwich;cake;coffee_shop", "name": "Tempi Moderni"}}, {"type": "node", "id": 4264887193, "lat": 41.2146005, "lon": 9.4082616, "tags": {"amenity": "restaurant", "cuisine": "fish;regional;grill;seafood;local;pasta;noodles;italian;fine_dining", "name": "Ristorante La Terrazza"}}, {"type": "node", "id": 4268198741, "lat": 40.9239238, "lon": 9.5033669, "tags": {"addr:city": "Olbia", "addr:housenumber": "1", "addr:postcode": "07026", "addr:street": "Via delle Terme", "amenity": "restaurant", "name": "Antica trattoria", "name:it": "Antica trattoria", "phone": "+39 0789 24053", "source": "Regione Autonoma della Sardegna (www.sardegnageoportale.it)"}}, {"type": "node", "id": 4268200285, "lat": 40.9368266, "lon": 9.4987566, "tags": {"addr:city": "Olbia", "addr:housenumber": "12", "addr:postcode": "07026", "addr:street": "Via Emilio De Fabris", "amenity": "restaurant", "name": "Antico Borgo", "name:it": "Antico Borgo", "phone": "078957012", "source": "Regione Autonoma della Sardegna (www.sardegnageoportale.it)"}}, {"type": "node", "id": 4268233113, "lat": 40.9359801, "lon": 9.4984815, "tags": {"addr:city": "Olbia", "addr:housenumber": "134", "addr:postcode": "07026", "addr:street": "Viale Aldo Moro", "amenity": "cafe", "name": "Caff\u00e9llatte", "source": "Regione Autonoma della Sardegna (www.sardegnageoportale.it)"}}, {"type": "node", "id": 4268282715, "lat": 40.9307468, "lon": 9.5003329, "tags": {"addr:city": "Olbia", "addr:housenumber": "41", "addr:postcode": "07026", "addr:street": "Viale Aldo Moro", "amenity": "restaurant", "cuisine": "pizza", "name": "La Risacca", "source": "Regione Autonoma della Sardegna (www.sardegnageoportale.it)"}}, {"type": "node", "id": 4268445652, "lat": 40.9326693, "lon": 9.4993608, "tags": {"addr:city": "Olbia", "addr:housenumber": "54", "addr:postcode": "07026", "addr:street": "Viale Aldo Moro", "amenity": "restaurant", "cuisine": "burger", "email": "info@welldoneburger.com", "name": "Well Done Burger", "opening_hours": "12:00-16:00,19:00-00:00", "phone": "078957674", "source": "Regione Autonoma della Sardegna (www.sardegnageoportale.it)", "website": "http://welldoneburger.com/olbia/"}}, {"type": "node", "id": 4268452221, "lat": 40.9223966, "lon": 9.4994736, "tags": {"addr:city": "Olbia", "addr:housenumber": "6", "addr:postcode": "07026", "addr:street": "Via Paolo Dettori", "amenity": "restaurant", "name": "Black White Hamburgeria Steak House", "source": "Regione Autonoma della Sardegna (www.sardegnageoportale.it)"}}, {"type": "node", "id": 4307693918, "lat": 41.2399292, "lon": 9.1881578, "tags": {"amenity": "cafe", "name": "Bar La Piazetta"}}, {"type": "node", "id": 4335598889, "lat": 41.240803, "lon": 9.156111, "tags": {"amenity": "restaurant", "cuisine": "italian;italian_pizza;pizza;ice_cream;meat", "diet:vegetarian": "yes", "indoor_seating": "yes", "name": "Da Patrizia Gastronomia - Snack Bar", "outdoor_seating": "terrace", "wheelchair": "limited"}}, {"type": "node", "id": 4352786570, "lat": 41.241183, "lon": 9.1562575, "tags": {"amenity": "restaurant", "cuisine": "regional", "name": "Le Bocche di Bonifacio"}}, {"type": "node", "id": 4352790237, "lat": 41.239412, "lon": 9.1577094, "tags": {"amenity": "cafe", "name": "Tampanama", "shop": "convenience"}}, {"type": "node", "id": 4353548951, "lat": 40.9226886, "lon": 9.4878797, "tags": {"addr:city": "Olbia", "addr:housenumber": "6", "addr:street": "Via Cimabue", "amenity": "restaurant", "cuisine": "pizza", "name": "Pizzeria La Ruota", "takeaway": "yes"}}, {"type": "node", "id": 4380311669, "lat": 41.2146763, "lon": 9.408832, "tags": {"amenity": "cafe", "name": "Bar Milano"}}, {"type": "node", "id": 4380311670, "lat": 41.2143609, "lon": 9.4083417, "tags": {"amenity": "cafe", "name": "Charlie Bar"}}, {"type": "node", "id": 4380345058, "lat": 41.2141058, "lon": 9.4081693, "tags": {"amenity": "restaurant", "name": "Ristorante Il Brigantino"}}, {"type": "node", "id": 4380355293, "lat": 41.2128397, "lon": 9.4073715, "tags": {"amenity": "cafe", "indoor_seating": "yes", "name": "Bar Fabbris", "outdoor_seating": "yes"}}, {"type": "node", "id": 4380355294, "lat": 41.2135469, "lon": 9.4077155, "tags": {"amenity": "cafe", "indoor_seating": "yes", "name": "Bar Nelson", "outdoor_seating": "yes"}}, {"type": "node", "id": 4380355295, "lat": 41.2133234, "lon": 9.4074633, "tags": {"amenity": "cafe", "name": "Caff\u00e8 del Porto"}}, {"type": "node", "id": 4380355296, "lat": 41.2131848, "lon": 9.4073943, "tags": {"amenity": "cafe", "check_date": "2024-10-14", "name": "Cristal Bar"}}, {"type": "node", "id": 4380355298, "lat": 41.2134738, "lon": 9.4076102, "tags": {"amenity": "restaurant", "indoor_seating": "yes", "name": "Ristorante Bassa Marina", "outdoor_seating": "yes"}}, {"type": "node", "id": 4380355299, "lat": 41.2138637, "lon": 9.408032, "tags": {"amenity": "restaurant", "name": "Ristorante l'Aragosta"}}, {"type": "node", "id": 4380355300, "lat": 41.2131142, "lon": 9.4073769, "tags": {"amenity": "restaurant", "indoor_seating": "yes", "name": "Ristorante l'Avventura", "outdoor_seating": "yes"}}, {"type": "node", "id": 4380482254, "lat": 41.2130563, "lon": 9.4061896, "tags": {"amenity": "cafe", "name": "Bar Fiume"}}, {"type": "node", "id": 4380482255, "lat": 41.212872, "lon": 9.4060488, "tags": {"amenity": "cafe", "name": "Bar Madrau"}}, {"type": "node", "id": 4380487853, "lat": 41.2126735, "lon": 9.4047176, "tags": {"amenity": "cafe", "name": "Caf\u00e8 Noir"}}, {"type": "node", "id": 4380493598, "lat": 41.2126949, "lon": 9.4060991, "tags": {"amenity": "restaurant", "name": "Ristorante Magreta"}}, {"type": "node", "id": 4380560585, "lat": 41.2124725, "lon": 9.4056246, "tags": {"amenity": "restaurant", "name": "Ristorante La Grotta"}}, {"type": "node", "id": 4381867389, "lat": 41.2148971, "lon": 9.4088931, "tags": {"addr:housenumber": "9", "addr:street": "Via Dandolo", "amenity": "restaurant", "cuisine": "pizza", "name": "La Marachella"}}, {"type": "node", "id": 4381915390, "lat": 40.9150993, "lon": 9.5242829, "tags": {"amenity": "cafe", "name:en": "Yatching Bar", "seamark:small_craft_facility:category": "public_inn", "seamark:type": "small_craft_facility"}}, {"type": "node", "id": 4396129091, "lat": 41.1079782, "lon": 9.4406046, "tags": {"amenity": "restaurant", "check_date:opening_hours": "2022-09-23", "name": "Entro Fuori Bordo", "name:it": "Entro Fuori Bordo", "opening_hours:signed": "no", "seamark:small_craft_facility:category": "restaurant", "seamark:type": "small_craft_facility"}}, {"type": "node", "id": 4396541799, "lat": 41.1321516, "lon": 9.5346717, "tags": {"amenity": "restaurant", "name": "Renato Pedrinelli", "name:it": "Renato Pedrinelli", "seamark:small_craft_facility:category": "restaurant", "seamark:type": "small_craft_facility"}}, {"type": "node", "id": 4397054971, "lat": 41.2128359, "lon": 9.4068328, "tags": {"amenity": "restaurant", "name": "Sergent Pepper"}}, {"type": "node", "id": 4398964195, "lat": 41.2154936, "lon": 9.4114033, "tags": {"amenity": "cafe", "name": "900 Bistrot"}}, {"type": "node", "id": 4417187473, "lat": 41.2141689, "lon": 9.407989, "tags": {"amenity": "restaurant", "name": "Ristorante Il Garden"}}, {"type": "node", "id": 4417209986, "lat": 41.2135899, "lon": 9.4075347, "tags": {"amenity": "cafe", "name": "Giorgi Bar"}}, {"type": "node", "id": 4417210514, "lat": 41.1403758, "lon": 9.4754153, "tags": {"amenity": "restaurant"}}, {"type": "node", "id": 4417210594, "lat": 41.1397531, "lon": 9.4788363, "tags": {"amenity": "cafe"}}, {"type": "node", "id": 4417210595, "lat": 41.1399913, "lon": 9.4780689, "tags": {"amenity": "restaurant"}}, {"type": "node", "id": 4418054346, "lat": 41.2421991, "lon": 9.1900716, "tags": {"amenity": "cafe", "name": "Il Baretto", "payment:cash": "yes", "payment:mastercard": "yes", "payment:visa": "yes", "website": "https://www.ilbarettosantateresa.com/"}}, {"type": "node", "id": 4418055067, "lat": 41.2422232, "lon": 9.1899761, "tags": {"amenity": "cafe", "name": "Hazzaro cafe"}}, {"type": "node", "id": 4420671095, "lat": 41.0824063, "lon": 9.3835844, "tags": {"addr:housenumber": "212", "addr:postcode": "07021", "addr:street": "Viale Costa Smeralda", "amenity": "restaurant", "cuisine": "regional;local", "name": "Jamel", "name:it": "Jamel"}}, {"type": "node", "id": 4431470389, "lat": 41.1661141, "lon": 9.1778832, "tags": {"amenity": "restaurant", "cuisine": "italian_pizza", "name": "Ristorante S'Historia"}}, {"type": "node", "id": 4442088389, "lat": 40.9903349, "lon": 9.3018584, "tags": {"addr:housenumber": "22", "addr:postcode": "07030", "addr:street": "Via Calangianus", "amenity": "restaurant", "cuisine": "italian", "internet_access": "wlan", "name": "La Pitraia", "name:de": "La Pitraia", "name:en": "La Pitraia", "name:it": "La Pitraia", "phone": "+39 347 2793765", "website": "http://angeloearcangela.com"}}, {"type": "node", "id": 4443750350, "lat": 41.2162297, "lon": 9.4129432, "tags": {"amenity": "restaurant", "cuisine": "pizza", "name": "Pizzeria Vera Napoli"}}, {"type": "node", "id": 4453645491, "lat": 40.9247794, "lon": 9.5028715, "tags": {"addr:housenumber": "10", "addr:postcode": "07026", "addr:street": "Via delle Terme", "amenity": "restaurant", "cuisine": "italian", "internet_access": "wlan", "name": "L' Essenza Bistrot", "opening_hours": "Mo-Su 18:00-01:00", "website": "https://www.thefork.it/ristorante/l-essenza-bistrot"}}, {"type": "node", "id": 4475929124, "lat": 41.0751471, "lon": 9.4688484, "tags": {"addr:city": "Arzachena", "addr:postcode": "07021", "addr:street": "Strada Provinciale 59", "amenity": "restaurant", "name": "Vecchia Costa"}}, {"type": "node", "id": 4483256441, "lat": 41.1925974, "lon": 9.3656967}, {"type": "node", "id": 4483256442, "lat": 41.1928774, "lon": 9.3655356}, {"type": "node", "id": 4483256443, "lat": 41.1929694, "lon": 9.3658411}, {"type": "node", "id": 4483256444, "lat": 41.193007, "lon": 9.3658411}, {"type": "node", "id": 4483256445, "lat": 41.1930404, "lon": 9.3658688}, {"type": "node", "id": 4483256446, "lat": 41.1930886, "lon": 9.3659099}, {"type": "node", "id": 4483256447, "lat": 41.1924804, "lon": 9.3661854}, {"type": "node", "id": 4483256448, "lat": 41.19261, "lon": 9.3661521}, {"type": "node", "id": 4483256449, "lat": 41.1927144, "lon": 9.3661187}, {"type": "node", "id": 4483256450, "lat": 41.1926476, "lon": 9.365891}, {"type": "node", "id": 4485653271, "lat": 41.0795898, "lon": 9.388222, "tags": {"addr:city": "Arzachena", "addr:housenumber": "1", "addr:postcode": "07021", "addr:street": "Piazza Risorgimento", "amenity": "cafe", "name": "Bar Alyson", "operator": "Clara Casano"}}, {"type": "node", "id": 4485653272, "lat": 41.0797407, "lon": 9.3878848, "tags": {"addr:city": "Arzachena", "addr:housenumber": "5", "addr:postcode": "07021", "addr:street": "Piazza Risorgimento", "amenity": "cafe", "name": "Bar Risorgimento"}}, {"type": "node", "id": 4485653273, "lat": 41.0821494, "lon": 9.384914, "tags": {"addr:city": "Arzachena", "addr:housenumber": "181", "addr:postcode": "07021", "addr:street": "Viale Costa Smeralda", "amenity": "restaurant", "name": "Del Viale"}}, {"type": "node", "id": 4485653275, "lat": 41.0772677, "lon": 9.3887353, "tags": {"addr:city": "Arzachena", "addr:housenumber": "25", "addr:postcode": "07021", "addr:street": "Via Paolo Dettori", "amenity": "cafe", "name": "Le Caf\u00e8 Prestige"}}, {"type": "node", "id": 4485653276, "lat": 41.0770875, "lon": 9.3909173, "tags": {"addr:city": "Arzachena", "addr:housenumber": "22", "addr:postcode": "07021", "addr:street": "Via Raffaello Sanzio", "amenity": "cafe", "name": "Louis Cafe"}}, {"type": "node", "id": 4485658848, "lat": 41.0799063, "lon": 9.3884212, "tags": {"addr:city": "Arzachena", "addr:housenumber": "16", "addr:postcode": "07021", "addr:street": "Piazza Risorgimento", "amenity": "cafe", "indoor_seating": "yes", "name": "Bar Garbo", "outdoor_seating": "yes"}}, {"type": "node", "id": 4485680386, "lat": 41.0796422, "lon": 9.3879793, "tags": {"addr:city": "Arzachena", "addr:housenumber": "4", "addr:postcode": "07021", "addr:street": "Piazza Risorgimento", "amenity": "restaurant", "name": "La Jaddina", "name:en": "La Jaddina", "name:it": "La Jaddina", "opening_hours": "Mo-Su 10:30-00:00", "website": "http://lajaddina.it"}}, {"type": "node", "id": 4485803312, "lat": 41.1345599, "lon": 9.5380766, "tags": {"addr:city": "Porto Cervo", "addr:housenumber": "1", "addr:postcode": "07021", "addr:street": "Via Porto Vecchio", "amenity": "cafe", "name": "pasqualina", "name:it": "pasqualina"}}, {"type": "node", "id": 4485807521, "lat": 41.1327278, "lon": 9.5308846, "tags": {"addr:city": "Porto Cervo", "addr:housenumber": "42", "addr:postcode": "07021", "addr:street": "Via Sa Conca", "amenity": "restaurant", "name": "Il Petronilla"}}, {"type": "node", "id": 4511617259, "lat": 41.2418461, "lon": 9.1905142, "tags": {"addr:city": "Santa Teresa di Gallura", "addr:housenumber": "2", "addr:postcode": "07028", "addr:street": "Via Regina Margherita", "amenity": "cafe", "name": "Caff\u00e8 Conti", "source": "Regione Autonoma della Sardegna"}}, {"type": "node", "id": 4520785490, "lat": 40.9201908, "lon": 9.499482, "tags": {"amenity": "cafe"}}, {"type": "node", "id": 4522850548, "lat": 41.0042375, "lon": 9.6196801, "tags": {"addr:city": "Golfo Aranci", "addr:housenumber": "132", "addr:postcode": "07020", "addr:street": "Via Libert\u00e0", "amenity": "restaurant", "check_date": "2024-09-23", "cuisine": "pizza", "name": "Le Pecora Viziosa", "payment:cash": "yes", "payment:credit_cards": "yes", "payment:debit_cards": "yes", "phone": "+39 338 3691743", "source": "Regione Autonoma della Sardegna"}}, {"type": "node", "id": 4552407769, "lat": 40.9081966, "lon": 9.571259}, {"type": "node", "id": 4552407770, "lat": 40.9082291, "lon": 9.5713545}, {"type": "node", "id": 4552407771, "lat": 40.9081571, "lon": 9.5713974}, {"type": "node", "id": 4552407772, "lat": 40.9081384, "lon": 9.5713423}, {"type": "node", "id": 4552407773, "lat": 40.9081773, "lon": 9.5713191}, {"type": "node", "id": 4552407774, "lat": 40.9081635, "lon": 9.5712787}, {"type": "node", "id": 4556584745, "lat": 41.0655113, "lon": 9.4319708, "tags": {"addr:city": "Arzachena", "addr:housenumber": "Km 0+500", "addr:postcode": "07021", "addr:street": "Strada Provinciale 59", "amenity": "restaurant", "cuisine": "italian;pizza", "name": "Picuccia"}}, {"type": "node", "id": 4557194144, "lat": 41.1140139, "lon": 9.4561724, "tags": {"amenity": "cafe", "cuisine": "italian", "name": "LA CALETTA", "outdoor_seating": "yes"}}, {"type": "node", "id": 4564719792, "lat": 41.181199, "lon": 9.3855958, "tags": {"amenity": "cafe", "name": "Palau"}}, {"type": "node", "id": 4564719818, "lat": 41.1804053, "lon": 9.3819914, "tags": {"amenity": "cafe"}}, {"type": "node", "id": 4564719819, "lat": 41.1803493, "lon": 9.3823179, "tags": {"amenity": "cafe", "name": "Pausa caff\u00e8", "name:it": "Pausa caff\u00e8"}}, {"type": "node", "id": 4565061236, "lat": 41.1948313, "lon": 9.3448783, "tags": {"amenity": "cafe", "name": "Sunrise"}}, {"type": "node", "id": 4597016964, "lat": 41.0827864, "lon": 9.456593, "tags": {"addr:city": "Arzachena", "addr:postcode": "07021", "amenity": "restaurant", "cuisine": "italian", "name": "L'Oasi", "outdoor_seating": "terrace", "phone": "+39 0789 98808", "takeaway": "yes"}}, {"type": "node", "id": 4680655390, "lat": 40.8864126, "lon": 9.59259, "tags": {"addr:postcode": "07026", "addr:street": "Strada Statale Orientale Sarda N. 125", "amenity": "restaurant", "name": "Sa Caminera", "name:it": "Sa Caminera", "opening_hours": "Mo-Su 11:30-15:00, 18:30-23:00", "website": "https://www.pescatoemangiatolbia.it/"}}, {"type": "node", "id": 4799887160, "lat": 40.9977767, "lon": 9.6034979, "tags": {"amenity": "restaurant", "cuisine": "mediterranean", "name": "L'Approdo"}}, {"type": "node", "id": 4802434341, "lat": 41.0042616, "lon": 9.6183153, "tags": {"amenity": "restaurant", "cuisine": "italian", "name": "La Veccia Marina"}}, {"type": "node", "id": 4862204421, "lat": 41.0736107, "lon": 9.3965215, "tags": {"addr:postcode": "07021", "addr:street": "Viale Costa Smeralda", "amenity": "restaurant", "name": "MaMa Trattoria", "name:en": "MaMa Trattoria", "name:it": "MaMa Trattoria", "opening_hours": "Mo-Sa 06:30-00:00"}}, {"type": "node", "id": 4927359016, "lat": 40.9532311, "lon": 9.4983452, "tags": {"addr:city": "Olbia", "addr:postcode": "07026", "addr:street": "Via Algeri", "amenity": "restaurant", "cuisine": "italian;pizza", "name": "Pizzeria Funchal"}}, {"type": "node", "id": 4966846422, "lat": 41.1813279, "lon": 9.3773242, "tags": {"amenity": "restaurant", "cuisine": "italian_pizza;seafood;mediterranean", "name": "Casa Tua"}}, {"type": "node", "id": 4994832522, "lat": 40.9242788, "lon": 9.4992192, "tags": {"addr:city": "Olbia", "addr:country": "IT", "addr:housenumber": "4", "addr:postcode": "07026", "addr:street": "Via Giacomo Pala", "amenity": "restaurant", "cuisine": "regional", "name": "Dolceacqua", "operator": "Paolina Sini", "phone": "+39 0789 1969084", "website": "https://www.ristorantedolceacqua.com/"}}, {"type": "node", "id": 4994832523, "lat": 40.9236149, "lon": 9.5045657, "tags": {"addr:city": "Olbia", "addr:country": "IT", "addr:housenumber": "18", "addr:postcode": "07026", "addr:street": "Corso Umberto I", "amenity": "restaurant", "cuisine": "regional", "indoor_seating": "yes", "name": "Molobrin", "operator": "Mbo srl", "outdoor_seating": "yes", "phone": "+39 0789 206061"}}, {"type": "node", "id": 4995758621, "lat": 40.9241138, "lon": 9.5012503, "tags": {"addr:city": "Olbia", "addr:country": "IT", "addr:housenumber": "12", "addr:postcode": "07026", "addr:street": "Via Ermogene Tigellio", "amenity": "restaurant", "cuisine": "regional", "name": "Antica Licanzias Bistro", "operator": "Paolina Pirari", "phone": "+39 0789 27110"}}, {"type": "node", "id": 5001683121, "lat": 40.947072, "lon": 9.4973191, "tags": {"amenity": "restaurant"}}, {"type": "node", "id": 5001683122, "lat": 40.9473691, "lon": 9.4975956, "tags": {"amenity": "cafe"}}, {"type": "node", "id": 5002140336, "lat": 40.9385643, "lon": 9.3098677, "tags": {"amenity": "restaurant", "name": "Agriturismo Vaccosu", "name:it": "Vaccosu"}}, {"type": "node", "id": 5002141322, "lat": 40.9367345, "lon": 9.3558824, "tags": {"amenity": "restaurant", "name": "Li Sciappeddi"}}, {"type": "node", "id": 5018290864, "lat": 40.9236156, "lon": 9.5005459, "tags": {"addr:city": "Olbia", "addr:country": "IT", "addr:housenumber": "18", "addr:postcode": "07026", "addr:street": "Piazza Regina Margherita", "amenity": "cafe", "cuisine": "ice_cream", "name": "L'arte nel gelato", "operator": "Ianne srl", "takeaway": "yes"}}, {"type": "node", "id": 5020015074, "lat": 40.9026746, "lon": 9.5147315, "tags": {"amenity": "cafe", "check_date": "2017-08-07", "level": "0", "name": "Grain & Grapes", "wheelchair": "yes"}}, {"type": "node", "id": 5075561851, "lat": 41.1433901, "lon": 9.4772327}, {"type": "node", "id": 5075561852, "lat": 41.1433177, "lon": 9.4772807}, {"type": "node", "id": 5075561853, "lat": 41.1433071, "lon": 9.4772526}, {"type": "node", "id": 5075561854, "lat": 41.1432771, "lon": 9.4772724}, {"type": "node", "id": 5075561855, "lat": 41.143263, "lon": 9.4772348}, {"type": "node", "id": 5075561856, "lat": 41.1433654, "lon": 9.4771669}, {"type": "node", "id": 5075561858, "lat": 41.1410648, "lon": 9.4746629}, {"type": "node", "id": 5075561859, "lat": 41.1410912, "lon": 9.4747049}, {"type": "node", "id": 5075561860, "lat": 41.1412766, "lon": 9.4747762}, {"type": "node", "id": 5075561864, "lat": 41.1410346, "lon": 9.4743918}, {"type": "node", "id": 5135147526, "lat": 40.9438765, "lon": 9.5691031, "tags": {"amenity": "restaurant", "name": "La Squala"}}, {"type": "node", "id": 5137326822, "lat": 41.0281664, "lon": 9.5464252, "tags": {"amenity": "restaurant", "name": "Bar Gelateria Del Molo"}}, {"type": "node", "id": 5210323822, "lat": 41.1108028, "lon": 9.4411461, "tags": {"amenity": "restaurant", "cuisine": "italian;pizza", "name": "Ristorante Linus"}}, {"type": "node", "id": 5271975927, "lat": 41.1808578, "lon": 9.3841906, "tags": {"amenity": "restaurant", "name": "Robertino"}}, {"type": "node", "id": 5314214763, "lat": 41.0130632, "lon": 9.5039723, "tags": {"addr:city": "Cugnana", "addr:housenumber": "2", "addr:postcode": "07026", "addr:street": "Via del timone", "amenity": "restaurant", "name": "IL Timone"}}, {"type": "node", "id": 5479625845, "lat": 41.132779, "lon": 9.5379031, "tags": {"amenity": "restaurant", "cuisine": "sushi", "name": "xyou"}}, {"type": "node", "id": 5481256207, "lat": 41.1325461, "lon": 9.5299788, "tags": {"amenity": "restaurant", "cuisine": "pizza", "name": "Lucina"}}, {"type": "node", "id": 5501921196, "lat": 40.9201191, "lon": 9.4970249, "tags": {"addr:housenumber": "50", "addr:street": "Via Goffredo Mameli", "amenity": "restaurant", "cuisine": "pizza", "name": "Pizzeria Da Dino", "website": "https://pizzeriadadinolbia.it/"}}, {"type": "node", "id": 5501922230, "lat": 40.9366185, "lon": 9.4979293, "tags": {"amenity": "restaurant", "cuisine": "sushi", "name": "Yoku Sushi Fusion"}}, {"type": "node", "id": 5503068182, "lat": 41.1322247, "lon": 9.5333624, "tags": {"amenity": "restaurant", "cuisine": "pizza", "name": "Il Peperone"}}, {"type": "node", "id": 5555834964, "lat": 41.1314821, "lon": 9.5345023, "tags": {"amenity": "cafe", "name": "Prince caf\u00e9"}}, {"type": "node", "id": 5726529421, "lat": 41.00402, "lon": 9.6184587, "tags": {"addr:housenumber": "6b", "addr:postcode": "07020", "addr:street": "Via Armando Diaz", "amenity": "restaurant", "cuisine": "pizza", "name": "Ristorante-Pizzeria Giampippo"}}, {"type": "node", "id": 5726529423, "lat": 41.0027585, "lon": 9.6188405, "tags": {"amenity": "restaurant", "name": "La Spigola"}}, {"type": "node", "id": 5751721711, "lat": 40.9194815, "lon": 9.4971745, "tags": {"addr:city": "Olbia", "addr:housenumber": "5b", "addr:postcode": "07026", "addr:street": "Via Roma", "amenity": "restaurant", "cuisine": "pizza", "delivery": "yes", "name": "Pizzeria 4 Mori", "outdoor_seating": "yes", "phone": "+39 328 237 6196", "takeaway": "yes"}}, {"type": "node", "id": 5810810457, "lat": 40.9500956, "lon": 9.4959937, "tags": {"amenity": "restaurant", "name": "terra Sarda"}}, {"type": "node", "id": 5862961094, "lat": 40.9198233, "lon": 9.4590353}, {"type": "node", "id": 5862961095, "lat": 40.9196433, "lon": 9.4591608}, {"type": "node", "id": 5862961098, "lat": 40.9196584, "lon": 9.459007}, {"type": "node", "id": 5903610899, "lat": 41.1859684, "lon": 9.3801304, "tags": {"amenity": "restaurant", "name": "Restaurante La Gritta"}}, {"type": "node", "id": 5929120492, "lat": 41.0021794, "lon": 9.5616674, "tags": {"amenity": "restaurant", "name": "Marana"}}, {"type": "node", "id": 5929120528, "lat": 41.0010145, "lon": 9.5593567, "tags": {"amenity": "restaurant", "cuisine": "pizza"}}, {"type": "node", "id": 5929120529, "lat": 41.0016076, "lon": 9.5591998, "tags": {"amenity": "restaurant", "name": "Il nodo"}}, {"type": "node", "id": 5929120531, "lat": 41.0013363, "lon": 9.5602184, "tags": {"amenity": "cafe", "name": "Caffe del porto"}}, {"type": "node", "id": 5951973888, "lat": 40.9027916, "lon": 9.5154052, "tags": {"amenity": "restaurant", "name": "Kara Food"}}, {"type": "node", "id": 5971266185, "lat": 41.1358026, "lon": 9.5184439, "tags": {"amenity": "restaurant", "name": "Spinnaker"}}, {"type": "node", "id": 5976428685, "lat": 41.2352983, "lon": 9.189946, "tags": {"addr:housenumber": "6", "addr:street": "Via Sandro Pertini", "amenity": "restaurant", "cuisine": "italian_pizza;fish;local", "email": "lamparasantateresa@gmail.com", "name": "La Lampara", "phone": "+390789741093"}}, {"type": "node", "id": 5986449785, "lat": 40.9229241, "lon": 9.499366, "tags": {"amenity": "cafe", "name": "Vitis Wine Bar"}}, {"type": "node", "id": 6089763617, "lat": 40.9199742, "lon": 9.4994617, "tags": {"addr:housenumber": "76", "addr:street": "Via Regina Elena", "amenity": "cafe", "name": "My Bar"}}, {"type": "node", "id": 6089763622, "lat": 40.920463, "lon": 9.4995047, "tags": {"addr:housenumber": "62a", "addr:street": "Via Regina Elena", "amenity": "restaurant", "cuisine": "pizza", "name": "Trattoria Pizzeria Terra Nostra"}}, {"type": "node", "id": 6089763623, "lat": 40.922921, "lon": 9.4993673, "tags": {"addr:housenumber": "10a", "addr:street": "Via Acquedotto", "amenity": "restaurant", "name": "Vitis wine bar"}}, {"type": "node", "id": 6089764915, "lat": 40.9200894, "lon": 9.4994525, "tags": {"amenity": "cafe", "name": "Caf\u00e9 della piazza"}}, {"type": "node", "id": 6089766496, "lat": 41.1785552, "lon": 9.3820485, "tags": {"addr:housenumber": "20", "addr:street": "Via Capo d'Orso", "amenity": "restaurant", "name": "Frizzante"}}, {"type": "node", "id": 6242835205, "lat": 41.2463374, "lon": 9.2331272, "tags": {"amenity": "restaurant"}}, {"type": "node", "id": 6443432379, "lat": 41.0038524, "lon": 9.5704168, "tags": {"amenity": "restaurant", "cuisine": "italian", "name": "Marineledda", "outdoor_seating": "yes"}}, {"type": "node", "id": 6511844389, "lat": 41.2392799, "lon": 9.1870795, "tags": {"amenity": "cafe", "name": "Caffe Italiano & Winebar"}}, {"type": "node", "id": 6681798385, "lat": 41.0760315, "lon": 9.392776, "tags": {"addr:housenumber": "51", "addr:street": "Viale Costa Smeralda", "amenity": "restaurant", "cuisine": "italian;italian_pizza", "name": "la terrazza"}}, {"type": "node", "id": 6800399200, "lat": 41.0707221, "lon": 9.5282104}, {"type": "node", "id": 6800399222, "lat": 41.0708342, "lon": 9.5282726}, {"type": "node", "id": 6800399223, "lat": 41.0707175, "lon": 9.5282469}, {"type": "node", "id": 6800399224, "lat": 41.0707236, "lon": 9.5281983}, {"type": "node", "id": 6800399225, "lat": 41.0706865, "lon": 9.5281901}, {"type": "node", "id": 6800399226, "lat": 41.0706951, "lon": 9.5281209}, {"type": "node", "id": 6800399227, "lat": 41.070849, "lon": 9.5281548}, {"type": "node", "id": 6800399228, "lat": 41.0711874, "lon": 9.5281733}, {"type": "node", "id": 6800399229, "lat": 41.0712205, "lon": 9.528183}, {"type": "node", "id": 6800399230, "lat": 41.071233, "lon": 9.5281085}, {"type": "node", "id": 6800399231, "lat": 41.071404, "lon": 9.5281592}, {"type": "node", "id": 6800399232, "lat": 41.0713779, "lon": 9.5283141}, {"type": "node", "id": 6800399233, "lat": 41.0711739, "lon": 9.5282536}, {"type": "node", "id": 6834409484, "lat": 40.9971757, "lon": 9.623608, "tags": {"addr:street": "Via dei Caduti", "amenity": "restaurant", "cuisine": "italian;seafood;fish;barbecue;coffee_shop;local;mediterranean;noodles;pasta;regional", "name": "Ristorante Manzoni", "phone": "078946859"}}, {"type": "node", "id": 6835812186, "lat": 40.9237457, "lon": 9.5018955, "tags": {"addr:housenumber": "81", "addr:street": "Corso Umberto I", "amenity": "cafe", "indoor_seating": "yes", "name": "Gap Gelato", "outdoor_seating": "yes"}}, {"type": "node", "id": 6837353347, "lat": 41.065116, "lon": 9.3302141}, {"type": "node", "id": 6837353348, "lat": 41.0651236, "lon": 9.3302956}, {"type": "node", "id": 6837353349, "lat": 41.0650124, "lon": 9.3303138}, {"type": "node", "id": 6837353350, "lat": 41.0650048, "lon": 9.3302323}, {"type": "node", "id": 6893883441, "lat": 41.2134426, "lon": 9.4036508, "tags": {"amenity": "restaurant", "name": "Gatronomia Tarantella", "takeaway": "yes"}}, {"type": "node", "id": 6994594256, "lat": 40.908449, "lon": 9.5158476}, {"type": "node", "id": 6994594261, "lat": 40.908536, "lon": 9.5158561}, {"type": "node", "id": 6994594262, "lat": 40.9084195, "lon": 9.5161827}, {"type": "node", "id": 6994594264, "lat": 40.9085806, "lon": 9.5163385}, {"type": "node", "id": 6994594267, "lat": 40.9086209, "lon": 9.5158662}, {"type": "node", "id": 7141862754, "lat": 41.0538699, "lon": 9.1951007, "tags": {"amenity": "cafe", "name": "Bar Ricciu"}}, {"type": "node", "id": 7695177505, "lat": 41.169208, "lon": 9.4213373, "tags": {"addr:city": "Lu Palau/Palau", "addr:postcode": "07020", "addr:street": "Localit\u00e0 Capo D'Orso", "amenity": "restaurant", "cuisine": "regional;seafood", "name": "Ristorante Il Paguro", "opening_hours": "Mo-Su 09:00-21:00", "phone": "+39 0789 702036", "website": "https://www.marinadicalacapra.com/"}}, {"type": "node", "id": 7929055182, "lat": 40.8897106, "lon": 9.5905339, "tags": {"addr:street": "Viale Porto Istana", "amenity": "restaurant", "name": "Est Istana", "opening_hours": "Mo-Su 17:30-23:00", "phone": "+39 335 842 1979"}}, {"type": "node", "id": 7935704810, "lat": 41.0791984, "lon": 9.3173012, "tags": {"amenity": "restaurant", "name": "Tenuta Pilastru", "phone": "+39 0789 82936", "website": "https://www.tenutapilastru.it/"}}, {"type": "node", "id": 7989119485, "lat": 41.2162761, "lon": 9.4131033, "tags": {"addr:housenumber": "1", "addr:postcode": "07024", "addr:street": "Via Quarto", "amenity": "restaurant", "name": "U Campu Du Pastori Osteria"}}, {"type": "node", "id": 8007587386, "lat": 41.2123404, "lon": 9.4052579, "tags": {"amenity": "restaurant", "name": "Pizzeria Re Ferdinando"}}, {"type": "node", "id": 8267425517, "lat": 41.1365978, "lon": 9.5160364, "tags": {"amenity": "restaurant", "name": "La Briciola"}}, {"type": "node", "id": 8267425617, "lat": 41.1344023, "lon": 9.5177067, "tags": {"amenity": "restaurant", "name": "Retro Risto cafe"}}, {"type": "node", "id": 8267425718, "lat": 41.1353849, "lon": 9.5163083, "tags": {"amenity": "restaurant", "name": "L'Alternativa by Orsetto"}}, {"type": "node", "id": 8268068017, "lat": 41.1385148, "lon": 9.5152367, "tags": {"amenity": "restaurant", "name": "Pacifico Rosemary"}}, {"type": "node", "id": 8857608417, "lat": 41.2138954, "lon": 9.4075879, "tags": {"amenity": "restaurant", "cuisine": "regional", "delivery": "no", "name": "Trattoria dal Genovese", "opening_hours": "Mo-Sa 18:30-23:30; Su off", "outdoor_seating": "yes"}}, {"type": "node", "id": 8895861802, "lat": 40.8942262, "lon": 9.6835707}, {"type": "node", "id": 8895861803, "lat": 40.8941807, "lon": 9.6835596}, {"type": "node", "id": 8895861804, "lat": 40.8940983, "lon": 9.6837429}, {"type": "node", "id": 8895861805, "lat": 40.8943563, "lon": 9.6838008}, {"type": "node", "id": 8895861806, "lat": 40.8943785, "lon": 9.6836718}, {"type": "node", "id": 8895861807, "lat": 40.894314, "lon": 9.6836434}, {"type": "node", "id": 8900338551, "lat": 41.0060035, "lon": 9.5354033, "tags": {"addr:city": "Porto Rotondo", "addr:housenumber": "36", "addr:postcode": "07026", "addr:street": "Via Monte Ladu", "amenity": "restaurant", "cuisine": "italian;Sardinian;local;fine_dining", "name": "Pasig\u00e0 Restaurant", "opening_hours": "Mo-Su 07:30 - 23:00", "phone": "+39 340 801 5835", "website": "https://www.pasigarestaurant.com/"}}, {"type": "node", "id": 8928391417, "lat": 40.9254641, "lon": 9.5062711, "tags": {"amenity": "cafe", "name": "Terranoa"}}, {"type": "node", "id": 9082685917, "lat": 40.9085547, "lon": 9.4976248, "tags": {"addr:housenumber": "138", "addr:street": "Via Imperia", "amenity": "cafe", "name": "Caf\u00e8 Blue Moon Pasticceria"}}, {"type": "node", "id": 9082685918, "lat": 40.9088066, "lon": 9.496883, "tags": {"addr:housenumber": "39", "addr:street": "Via Vicenza", "amenity": "restaurant", "name": "El Mata Hambrito"}}, {"type": "node", "id": 9082686017, "lat": 40.9088502, "lon": 9.4973793, "tags": {"amenity": "cafe", "name": "Bar Mokador"}}, {"type": "node", "id": 9082686018, "lat": 40.9160182, "lon": 9.4982327, "tags": {"addr:housenumber": "83", "addr:street": "Via Roma", "amenity": "restaurant", "name": "Il Nuraghe"}}, {"type": "node", "id": 9082686019, "lat": 40.910678, "lon": 9.4974035, "tags": {"addr:housenumber": "67", "addr:street": "Via Imperia", "amenity": "restaurant", "name": "Pizza Service"}}, {"type": "node", "id": 9082686117, "lat": 40.9087584, "lon": 9.4965154, "tags": {"addr:housenumber": "53", "addr:street": "Via Vicenza", "amenity": "cafe", "name": "Piccolo Bar"}}, {"type": "node", "id": 9082686118, "lat": 40.9096436, "lon": 9.4993151, "tags": {"addr:housenumber": "26", "addr:street": "Via Ancona", "amenity": "restaurant", "name": "Pizza & Sfizi"}}, {"type": "node", "id": 9082686417, "lat": 40.9092523, "lon": 9.4984085, "tags": {"addr:housenumber": "34", "addr:street": "Via Vicenza", "amenity": "restaurant", "name": "R\u00e9 Pizza"}}, {"type": "node", "id": 9082686517, "lat": 40.9109453, "lon": 9.4977388, "tags": {"addr:housenumber": "33", "addr:street": "Via Monferrato", "amenity": "restaurant", "name": "Pizzeria Ping Pong Olbia"}}, {"type": "node", "id": 9160178692, "lat": 41.20089, "lon": 9.4574549}, {"type": "node", "id": 9160178693, "lat": 41.2008869, "lon": 9.457482}, {"type": "node", "id": 9160178694, "lat": 41.2008226, "lon": 9.4574689}, {"type": "node", "id": 9160178695, "lat": 41.2008056, "lon": 9.4576151}, {"type": "node", "id": 9160178696, "lat": 41.2009008, "lon": 9.4576346}, {"type": "node", "id": 9160178697, "lat": 41.2009209, "lon": 9.4574613}, {"type": "node", "id": 9432017264, "lat": 41.1412687, "lon": 9.4746001}, {"type": "node", "id": 9432017267, "lat": 41.1411325, "lon": 9.474567}, {"type": "node", "id": 9718577465, "lat": 40.9238174, "lon": 9.5038922, "tags": {"addr:housenumber": "10", "addr:street": "Vicolo Carlo Putzu", "amenity": "restaurant", "cuisine": "italian", "email": "ilveliero40@hotmail.it", "name": "Ristorante Pizzeria Il Veliero", "phone": "+39 0789 25836"}}, {"type": "node", "id": 9990889221, "lat": 40.9198083, "lon": 9.4591891}, {"type": "node", "id": 10020087815, "lat": 41.0037297, "lon": 9.6191327}, {"type": "node", "id": 10020087816, "lat": 41.0037311, "lon": 9.619101}, {"type": "node", "id": 10020088917, "lat": 41.0037498, "lon": 9.6190781}, {"type": "node", "id": 10020088918, "lat": 41.0037771, "lon": 9.6190788}, {"type": "node", "id": 10020088919, "lat": 41.0037905, "lon": 9.6190997}, {"type": "node", "id": 10020088920, "lat": 41.0037924, "lon": 9.619146}, {"type": "node", "id": 10020088921, "lat": 41.0037737, "lon": 9.6191619}, {"type": "node", "id": 10020088922, "lat": 41.0037426, "lon": 9.6191593}, {"type": "node", "id": 10053606225, "lat": 41.1800748, "lon": 9.3822549, "tags": {"amenity": "restaurant", "check_date": "2022-09-26", "cuisine": "italian", "name": "Bitto"}}, {"type": "node", "id": 10075939448, "lat": 40.9235902, "lon": 9.5028411, "tags": {"amenity": "cafe", "name": "Mengo's"}}, {"type": "node", "id": 10108025546, "lat": 41.0556421, "lon": 9.4350082, "tags": {"addr:city": "Arzachena", "addr:housenumber": "Km 337", "addr:postcode": "07021", "addr:street": "Strada Statale 125 Orientale Sarda", "amenity": "restaurant", "name": "Shergan"}}, {"type": "node", "id": 10139526756, "lat": 40.9138495, "lon": 9.4751081, "tags": {"addr:city": "Olbia", "addr:housenumber": "17", "addr:postcode": "07026", "addr:street": "Via dello Zaffiro", "amenity": "restaurant", "cuisine": "regional;italian", "name": "La sartoria del gusto"}}, {"type": "node", "id": 10162574518, "lat": 40.920927, "lon": 9.5015808, "tags": {"addr:street": "Via Genova", "amenity": "restaurant", "name": "La cafeter\u00eda de la nona"}}, {"type": "node", "id": 10540274969, "lat": 41.1804577, "lon": 9.3832603, "tags": {"amenity": "restaurant", "cuisine": "regional;tapas", "name": "Chimbe 5", "outdoor_seating": "yes"}}, {"type": "node", "id": 10699077602, "lat": 40.9358836, "lon": 9.4985101, "tags": {"amenity": "cafe", "name": "Senso unico"}}, {"type": "node", "id": 10699583173, "lat": 41.0347859, "lon": 9.5225025, "tags": {"amenity": "restaurant", "name": "Cafe del porto"}}, {"type": "node", "id": 10899142935, "lat": 41.1378968, "lon": 9.5243883, "tags": {"amenity": "restaurant", "cuisine": "pizza", "email": "ristorantehivaoa@gmail.com", "name": "Hivaoa Ristorante Pizzeria", "phone": "+39 078991451", "website": "https://www.ristorantehivaoa.com/"}}, {"type": "node", "id": 10964285502, "lat": 40.9930637, "lon": 9.3432867, "tags": {"entrance": "service"}}, {"type": "node", "id": 10964285503, "lat": 40.9929828, "lon": 9.3433426, "tags": {"entrance": "main"}}, {"type": "node", "id": 11052182682, "lat": 41.2145881, "lon": 9.4085614, "tags": {"amenity": "cafe", "name": "Caff\u00e8 Plaza"}}, {"type": "node", "id": 11052182692, "lat": 41.2128084, "lon": 9.4057381, "tags": {"amenity": "restaurant", "name": "Pork Doc.tor"}}, {"type": "node", "id": 11056390134, "lat": 41.2126734, "lon": 9.4047755, "tags": {"amenity": "cafe", "name": "Gi\u00f2 & Gi\u00f2"}}, {"type": "node", "id": 11056390135, "lat": 41.2145678, "lon": 9.4085028, "tags": {"amenity": "restaurant", "name": "Anima Lunga"}}, {"type": "node", "id": 11056390137, "lat": 41.2142765, "lon": 9.4083072, "tags": {"amenity": "restaurant", "cuisine": "pizza", "name": "Pizza in Piazza"}}, {"type": "node", "id": 11077390178, "lat": 40.9484114, "lon": 9.5023286, "tags": {"air_conditioning": "yes", "amenity": "restaurant", "cuisine": "japanese;sushi", "diet:vegetarian": "yes", "name": "Sushi Line", "opening_hours": "Tu-Su 12:00-15:00,19:30-23:00", "outdoor_seating": "no", "phone": "0789 1980958", "website": "https://sushiline.it/olbia/"}}, {"type": "node", "id": 11144345818, "lat": 40.9246211, "lon": 9.4969491, "tags": {"addr:city": "Olbia", "addr:housenumber": "89", "addr:postcode": "07026", "addr:street": "Via Gabriele D'Annunzio", "amenity": "restaurant", "check_date": "2024-09-15", "cuisine": "regional;italian", "diet:gluten_free": "yes", "diet:vegan": "yes", "diet:vegetarian": "yes", "internet_access": "wlan", "name": "Be free", "opening_hours": "Mo-Su 08:00-23:00", "phone": "+39 331 455 3988", "wheelchair": "limited"}}, {"type": "node", "id": 11198062037, "lat": 40.9198022, "lon": 9.4991007, "tags": {"amenity": "restaurant", "name": "Ristorante In Acqua"}}, {"type": "node", "id": 11198064837, "lat": 40.9236845, "lon": 9.5012857, "tags": {"addr:housenumber": "13", "addr:postcode": "07026", "addr:street": "Via Olbia", "amenity": "restaurant", "cuisine": "italian", "name": "Ristorante La Lanterna Olbia Italy"}}, {"type": "node", "id": 11199629037, "lat": 40.9238319, "lon": 9.498336, "tags": {"amenity": "restaurant", "indoor_seating": "yes", "name": "Pizzeria El Corso", "name:it": "Pizzeria Del Corso", "outdoor_seating": "yes"}}, {"type": "node", "id": 11229902975, "lat": 41.2433934, "lon": 9.1907949, "tags": {"amenity": "restaurant", "name": "Il Grottino"}}, {"type": "node", "id": 11229911685, "lat": 41.2401321, "lon": 9.1910033, "tags": {"amenity": "restaurant", "name": "Ristorante Marinaro", "phone": "+3480851902"}}, {"type": "node", "id": 11235709437, "lat": 41.076896, "lon": 9.3918257, "tags": {"amenity": "cafe", "cuisine": "ice_cream", "name": "C\u2019era una Volta - Gelateria Tradizionale Artigianale", "name:en": "C\u2019era una Volta - Gelateria Tradizionale", "opening_hours": "Mo-Su 10:30-21:00", "phone": "00393668712287"}}, {"type": "node", "id": 11236565337, "lat": 40.9457505, "lon": 9.5673165, "tags": {"amenity": "restaurant", "cuisine": "italian_pizza", "name": "Costa Sarda"}}, {"type": "node", "id": 11241871914, "lat": 40.9106941, "lon": 9.5120608, "tags": {"addr:city": "Olbia", "addr:housenumber": "21", "addr:postcode": "07026", "addr:street": "Via Mestre", "amenity": "restaurant", "cuisine": "pizza", "name": "Pizzeria Focacceria il Delfino"}}, {"type": "node", "id": 11279876369, "lat": 41.2429499, "lon": 9.1916698, "tags": {"addr:postcode": "07028", "amenity": "restaurant", "name": "Spano's Pizza & Bistrot", "website:menu": "https://me-qr.com/mobile/pdf/14919312"}}, {"type": "node", "id": 11290427363, "lat": 40.9239083, "lon": 9.499521, "tags": {"amenity": "cafe", "name": "Caff\u00e8 del Corso"}}, {"type": "node", "id": 11892166569, "lat": 41.080366, "lon": 9.387892, "tags": {"addr:housenumber": "3", "addr:postcode": "07021", "addr:street": "Via Torino", "amenity": "restaurant", "cuisine": "italian_pizza", "name": "Bru&Gio Pizza Express", "opening_hours": "Tu-Su 18:30-22:30"}}, {"type": "node", "id": 11935178077, "lat": 41.224661, "lon": 9.4270062, "tags": {"amenity": "restaurant", "cuisine": "fish;italian_pizza;local", "internet_access": "wlan", "name": "Stazzo Il Rifugio dei Peccatori"}}, {"type": "node", "id": 11935181269, "lat": 41.212435, "lon": 9.4061841, "tags": {"amenity": "restaurant", "cuisine": "fish", "name": "PufferFish"}}, {"type": "node", "id": 11983689869, "lat": 40.9224447, "lon": 9.4994348, "tags": {"amenity": "restaurant", "name": "Rosanita"}}, {"type": "node", "id": 12026749660, "lat": 41.0267718, "lon": 9.5471227, "tags": {"amenity": "restaurant", "cuisine": "italian", "name": "Smeralda"}}, {"type": "node", "id": 12026757078, "lat": 41.1144625, "lon": 9.540014}, {"type": "node", "id": 12026757079, "lat": 41.1143628, "lon": 9.5399837}, {"type": "node", "id": 12026757080, "lat": 41.1143516, "lon": 9.5400484}, {"type": "node", "id": 12026757081, "lat": 41.1144513, "lon": 9.5400788}, {"type": "node", "id": 12158304493, "lat": 41.2397753, "lon": 9.1852819, "tags": {"amenity": "restaurant", "check_date": "2024-09-05", "cuisine": "pizza", "name": "Pizzeria Balajana", "outdoor_seating": "yes"}}, {"type": "node", "id": 12165042886, "lat": 40.8904338, "lon": 9.5859782, "tags": {"amenity": "restaurant", "name": "Caffetteria della Nonna", "opening_hours": "Mo-Su 06:30-23:00", "phone": "+39078936087", "website": "https://www.sapedra.it/"}}, {"type": "node", "id": 12174325836, "lat": 41.0963207, "lon": 9.4357639, "tags": {"amenity": "restaurant", "cuisine": "italian;pizza"}}, {"type": "node", "id": 12174335962, "lat": 41.1867441, "lon": 9.3770928, "tags": {"amenity": "restaurant"}}, {"type": "node", "id": 12174340555, "lat": 41.1608485, "lon": 9.403215, "tags": {"amenity": "restaurant"}}, {"type": "node", "id": 12174340556, "lat": 41.1611002, "lon": 9.4029547, "tags": {"amenity": "cafe"}}, {"type": "node", "id": 12174392701, "lat": 41.1801818, "lon": 9.3942946, "tags": {"amenity": "restaurant"}}, {"type": "node", "id": 12174409857, "lat": 41.1959456, "lon": 9.3191904, "tags": {"amenity": "restaurant", "name": "Isola dei gabbiano"}}, {"type": "node", "id": 12174409860, "lat": 41.1979377, "lon": 9.3200933, "tags": {"amenity": "restaurant"}}, {"type": "node", "id": 12177239062, "lat": 40.923337, "lon": 9.5004657, "tags": {"addr:housenumber": "2", "addr:street": "Via Giuseppe Garibaldi", "amenity": "cafe", "check_date": "2024-09-14", "contact:facebook": "https://www.facebook.com/mintjulepolbia/", "name": "Mint julep", "opening_hours": "Mo off; Tu-Su 17:00-02:00", "outdoor_seating": "yes", "phone": "+39 347 273 9022", "website": "https://www.mintjulep.it/"}}, {"type": "node", "id": 12177867178, "lat": 40.9315882, "lon": 9.4994498, "tags": {"addr:housenumber": "57", "addr:street": "Viale Aldo Moro", "amenity": "restaurant", "check_date": "2024-09-15", "contact:whatsapp": "+393347921689", "description": "hawaiian food", "name": "Hilo by Yum\u00e8", "opening_hours": "12:05-15:00,18:15-22:20", "payment:cash": "yes", "payment:visa": "yes", "payment:visa_contactless": "yes", "phone": "+39 388 988 8059", "website": "https://www.hilostreetfood.com/", "wheelchair": "limited"}}, {"type": "node", "id": 12177880066, "lat": 40.9224893, "lon": 9.4987984, "tags": {"addr:housenumber": "38a", "addr:street": "Via Acquedotto", "amenity": "restaurant", "check_date": "2024-09-15", "cuisine": "pizza", "name": "Italy Pizza", "outdoor_seating": "yes", "toilets": "yes"}}, {"type": "node", "id": 12177958798, "lat": 40.9235594, "lon": 9.5025488, "tags": {"addr:housenumber": "45", "addr:street": "Via Olbia", "amenity": "restaurant", "check_date": "2024-09-15", "contact:facebook": "https://www.facebook.com/100071499916457/", "contact:whatsapp": "+3454646665", "cuisine": "italian", "name": "Ristorante Vecchio Borgo", "outdoor_seating": "yes"}}, {"type": "node", "id": 12177958799, "lat": 40.9234829, "lon": 9.5024778, "tags": {"addr:housenumber": "42", "addr:street": "Via Olbia", "alt_name": "Disigios", "amenity": "cafe", "check_date": "2024-09-15", "name": "Diciosas", "opening_hours": "09:00-22:45", "outdoor_seating": "yes", "website:menu": "https://aperolspritz.mycontactlessmenu.mycia.it/r/q/jxLdFe1T4/menu"}}, {"type": "node", "id": 12178151250, "lat": 40.9232649, "lon": 9.5003379, "tags": {"addr:housenumber": "3", "addr:street": "Via Camillo Benso di Cavour", "amenity": "restaurant", "check_date": "2024-09-15", "name": "La tasca", "outdoor_seating": "yes"}}, {"type": "node", "id": 12178350342, "lat": 40.9024381, "lon": 9.5158621, "tags": {"amenity": "restaurant", "check_date": "2024-09-15", "cuisine": "fish", "level": "1", "name": "Fish & Wine", "wheelchair": "yes"}}, {"type": "node", "id": 12181716441, "lat": 40.9221603, "lon": 9.4870556, "tags": {"amenity": "cafe", "name": "La Dolce Vita"}}, {"type": "node", "id": 12187740164, "lat": 41.1810766, "lon": 9.3823102, "tags": {"addr:city": "Palau", "addr:housenumber": "4", "addr:postcode": "07020", "addr:street": "Vicolo la Maddalena", "amenity": "restaurant", "cuisine": "pizza", "name": "Hostaria CuPPulata", "phone": "+390789709338", "website": "http://www.cuppulata.it/"}}, {"type": "node", "id": 12197163401, "lat": 41.2423879, "lon": 9.1889739, "tags": {"amenity": "restaurant"}}, {"type": "node", "id": 12197424458, "lat": 41.0281147, "lon": 9.5473042, "tags": {"addr:housenumber": "3", "addr:street": "Piazza della Darsena", "amenity": "restaurant", "name": "Mam\u00e9r Porto Rotondo", "phone": "+39 338 207 2260"}}, {"type": "node", "id": 12197487838, "lat": 41.0007988, "lon": 9.6219456, "tags": {"amenity": "restaurant", "cuisine": "seafood", "name": "Lupo di mare"}}, {"type": "node", "id": 12197502966, "lat": 41.026716, "lon": 9.5441939, "tags": {"addr:housenumber": "13 - 15", "addr:street": "Piazzetta I Ginepri", "amenity": "restaurant", "name": "Bambusa Porto Rotondo", "website": "https://www.bambusaportorotondo.com/"}}, {"type": "node", "id": 12197553901, "lat": 41.2430388, "lon": 9.1917912, "tags": {"amenity": "restaurant"}}, {"type": "node", "id": 12202761601, "lat": 41.2393101, "lon": 9.1577916, "tags": {"amenity": "restaurant", "name": "Levante Beach Bat"}}, {"type": "node", "id": 12213956925, "lat": 41.1094874, "lon": 9.4402934, "tags": {"amenity": "restaurant", "indoor_seating": "yes", "name": "RistoPok Lu Cannisgioni", "outdoor_seating": "yes"}}, {"type": "node", "id": 12248866711, "lat": 40.9233405, "lon": 9.5032998, "tags": {"amenity": "restaurant", "cuisine": "italian", "name": "Pepe Bianco"}}, {"type": "node", "id": 12348915359, "lat": 40.9084743, "lon": 9.5163254}, {"type": "node", "id": 12348915360, "lat": 40.90848, "lon": 9.5161961}, {"type": "node", "id": 12620251501, "lat": 41.0466446, "lon": 9.467814, "tags": {"amenity": "cafe"}}, {"type": "node", "id": 12692730681, "lat": 40.9314393, "lon": 9.4517374, "tags": {"amenity": "restaurant", "cuisine": "regional", "name": "Agriturismo Li Ciavani"}}, {"type": "node", "id": 12811519277, "lat": 41.031321, "lon": 9.5549461, "tags": {"amenity": "restaurant", "name": "Tartarughino", "opening_hours": "Mo-Su 07:00-04:00"}}, {"type": "node", "id": 12824169221, "lat": 41.0348272, "lon": 9.5224058, "tags": {"amenity": "restaurant", "name": "La Dolce Vita", "opening_hours": "Mo-Su 07:00-01:00"}}, {"type": "node", "id": 12829782101, "lat": 41.1885482, "lon": 9.1813593, "tags": {"addr:street": "Strada Provinciale 90 Castelsardo - Santa Teresa di Gallura", "amenity": "restaurant", "name": "Locanda dei Mori", "website": "http://locandadeimori.com"}}, {"type": "node", "id": 12831271503, "lat": 41.1361727, "lon": 9.5226294, "tags": {"amenity": "cafe", "name": "Buffala Shop", "opening_hours": "Mo-Su 08:00-21:30"}}, {"type": "node", "id": 12831275995, "lat": 41.1312265, "lon": 9.5368676, "tags": {"amenity": "restaurant", "name": "Il Pommodoro"}}, {"type": "node", "id": 12833289001, "lat": 41.2411839, "lon": 9.1902157, "tags": {"addr:housenumber": "19", "addr:street": "Via Carlo Alberto", "amenity": "restaurant", "name": "Da Mastro", "website": "https://damastroristowine.com/"}}, {"type": "node", "id": 12836832263, "lat": 41.1803391, "lon": 9.3845537, "tags": {"amenity": "restaurant", "cuisine": "pizza", "name": "Pizza del Mar"}}, {"type": "node", "id": 12843618514, "lat": 41.0348175, "lon": 9.5222993, "tags": {"amenity": "restaurant", "cuisine": "pizza", "name": "La Dolce Vita", "opening_hours": "Mo-Su 07:00-01:00"}}, {"type": "way", "id": 185803134, "nodes": [1964898500, 1964898467, 1964898442, 1964898452, 1964898500], "tags": {"amenity": "restaurant", "building": "yes", "name": "La Corona (by Ollastu)"}}, {"type": "way", "id": 200056151, "nodes": [2100440129, 2100440131, 2100440125, 2100440121, 2100440129], "tags": {"amenity": "restaurant", "building": "house", "name": "Cala Sabina", "toilets:wheelchair": "yes", "wheelchair": "limited"}}, {"type": "way", "id": 228552758, "nodes": [2372238201, 2372238203, 2372238205, 2372238208, 2372238210, 2372238212, 2372238214, 2372238216, 2372238221, 2372238224, 2372238226, 2372238228, 2372238201], "tags": {"amenity": "restaurant", "building": "yes", "name": "Ristorante Scorfano Allegro", "website": "http://www.ristorantegolfoaranci.net"}}, {"type": "way", "id": 237490964, "nodes": [2453834586, 2453834581, 2453834582, 2453834583, 2453834584, 2453834585, 2453834586], "tags": {"amenity": "restaurant", "building": "yes", "name": "Barbados"}}, {"type": "way", "id": 273557609, "nodes": [2783982016, 2783981969, 2783981963, 2783982007, 2783981998, 2783982085, 2783982098, 2783982025, 2783982016], "tags": {"amenity": "restaurant", "building": "yes", "cuisine": "italian", "name": "Mosquito"}}, {"type": "way", "id": 273557613, "nodes": [2783986638, 2783986595, 2783986544, 2783986477, 2783986410, 2783986319, 2783986349, 2783986331, 2783986395, 2783986405, 2783986411, 2783986498, 2783986489, 2783986487, 2783986507, 2783986533, 2783986577, 2783986636, 2783986611, 2783986638], "tags": {"amenity": "restaurant", "building": "yes", "cuisine": "italian", "name": "Ristorante Il Pescatore", "opening_hours": "20:00 - 23:00", "phone": "+39 0789 931 624", "website": "https://www.ilpescatorerestaurant.com/"}}, {"type": "way", "id": 273559704, "nodes": [2783993106, 2783993016, 2783992909, 2783992867, 2783992843, 2783992842, 2783992853, 2783992878, 2783992880, 2783993027, 2783993024, 2783993094, 2783993165, 2783993154, 2783993106], "tags": {"amenity": "restaurant", "building": "yes", "cuisine": "pizza", "name": "Il Guscio", "phone": "+39 0789 99325", "website": "https://ristoranteilguscio.it/"}}, {"type": "way", "id": 273563690, "nodes": [2784005906, 2784005777, 5075561864, 9432017267, 9432017264, 5075561860, 5075561859, 5075561858, 2784005906], "tags": {"amenity": "restaurant", "building": "yes", "name": "Grand Hotel Smeraldo Beach", "wheelchair": "no"}}, {"type": "way", "id": 273567371, "nodes": [2783853312, 2783853222, 2783853135, 2783853179, 2783853240, 2783853267, 2783853295, 2783853271, 2783853312], "tags": {"amenity": "restaurant", "building": "yes", "cuisine": "pizza"}}, {"type": "way", "id": 277317961, "nodes": [2818292815, 2818292823, 2818292824, 2818292838, 2818292858, 2818292863, 2818292864, 2818292856, 2818292846, 2818292844, 2818292826, 2818292815], "tags": {"amenity": "restaurant", "building": "yes", "name": "Ristorante Murta Maria"}}, {"type": "way", "id": 277333136, "nodes": [2818396816, 2818396791, 2818396804, 2818396515, 2818396340, 2818396773, 2818396816], "tags": {"addr:housenumber": "7", "addr:street": "Via Vittorio Veneto", "amenity": "restaurant", "building": "yes", "cuisine": "japanese", "email": "yumeolbia@gmail.com", "name": "Yum\u00e8", "phone": "+39 0789 22912", "website": "http://www.yumesushiolbia.it/"}}, {"type": "way", "id": 277779758, "nodes": [2822398227, 2822398226, 2822398232, 2822398233, 2822398242, 2822398241, 2822398227], "tags": {"amenity": "restaurant", "building": "yes", "name": "La Casitta"}}, {"type": "way", "id": 280163151, "nodes": [2843167863, 2843167847, 2843167852, 2843167748, 2843167744, 2843167777, 2843167775, 2843167790, 2843167797, 2843167859, 2843167850, 2843167730, 2843167732, 2843167689, 2843167694, 2843167719, 2843167721, 2843167702, 2843167715, 2843167734, 2843167731, 2843167873, 2843167863], "tags": {"addr:city": "Palau", "addr:housenumber": "Km 353+900", "addr:postcode": "07020", "addr:street": "Strada Statale 125 Orientale Sarda", "amenity": "restaurant", "building": "yes", "cuisine": "italian;pizza", "name": "CuCumiao"}}, {"type": "way", "id": 280164914, "nodes": [2843166298, 2843166278, 2843166282, 2843166247, 2843166234, 2843166268, 2843166274, 2843166286, 2843166298], "tags": {"addr:city": "Palau SS, Italien", "addr:housenumber": "4", "addr:postcode": "07020", "addr:street": "Via San Giorgio", "amenity": "restaurant", "building": "yes", "name": "La Gatta Sul Tetto, B&B", "phone": "+393391020868", "website": "https://www.bblagattasultetto.it/"}}, {"type": "way", "id": 283265807, "nodes": [2871521644, 2871523268, 2871521612, 2871521660, 2871521644], "tags": {"amenity": "cafe", "building": "yes", "name": "Il Galeone Caffetteria"}}, {"type": "way", "id": 283641944, "nodes": [2874801791, 2874801821, 10964285502, 2874801845, 2874801808, 10964285503, 2874801791], "tags": {"amenity": "restaurant", "building": "yes", "name": "Agriturismo La Kustera", "phone": "+39 339 579 2103", "website": "https://www.agriturismolakustera.com/"}}, {"type": "way", "id": 305344440, "nodes": [3099581319, 3099581286, 3099581310, 3099581288, 3099581248, 3099581219, 3099581143, 3099581176, 3099581192, 3099581227, 3099581319], "tags": {"amenity": "restaurant", "building": "yes", "cuisine": "pizza"}}, {"type": "way", "id": 382085651, "nodes": [3852868372, 3852868373, 3852868374, 3852868375, 3852868372], "tags": {"amenity": "cafe", "building": "yes"}}, {"type": "way", "id": 382086542, "nodes": [3852868376, 3852868377, 3852868378, 3852868379, 3852868376], "tags": {"amenity": "cafe", "building": "yes"}}, {"type": "way", "id": 385054030, "nodes": [3884093244, 3884093248, 3888957387, 3884093240, 3884093236, 3884093230, 3884093237, 3884093231, 3884093239, 3884093244], "tags": {"amenity": "restaurant", "building": "commercial", "name": "Gente di Mare", "opening_hours": "Mo-Su 12:30-15:00,18:30-22:30"}}, {"type": "way", "id": 417059988, "nodes": [4176876052, 4176876051, 2874801373, 2874801387, 4176876052], "tags": {"amenity": "cafe", "building": "yes", "name": "Caffe della piazza", "source": "survey"}}, {"type": "way", "id": 422429991, "nodes": [4221699108, 2822374603, 2822374889, 2822374890, 4221699106, 4221699109, 4221699108], "tags": {"addr:city": "La Maddalena", "addr:postcode": "07024", "addr:street": "Loc. Cala Camiciotto", "amenity": "restaurant", "building": "yes", "cuisine": "italian", "name": "Ristorante La Baracca", "phone": "+39 335 389879", "smoking": "separated", "website": "http://facebook.com/trattoriabar.labacarra", "wheelchair": "yes"}}, {"type": "way", "id": 426792720, "nodes": [4260581914, 4260581915, 4260581912, 4260581911, 2103896767, 4260581909, 4260581908, 4260581904, 4260581902, 4260581914], "tags": {"amenity": "restaurant", "name": "Rocca Beach Restaurant"}}, {"type": "way", "id": 451492342, "nodes": [4483256441, 4483256442, 4483256443, 4483256444, 4483256445, 4483256446, 1797445354, 86091243, 1797445349, 4483256447, 4483256448, 4483256449, 4483256450, 4483256441], "tags": {"amenity": "restaurant", "building": "yes", "name": "La Perla Blu"}}, {"type": "way", "id": 459381157, "nodes": [4552407769, 4552407770, 4552407771, 4552407772, 4552407773, 4552407774, 4552407769], "tags": {"amenity": "cafe", "building": "yes", "name": "Art Beach Surf Bar"}}, {"type": "way", "id": 520821429, "nodes": [5075561851, 5075561852, 5075561853, 5075561854, 5075561855, 5075561856, 5075561851], "tags": {"amenity": "restaurant", "building": "yes"}}, {"type": "way", "id": 620562172, "nodes": [5862961094, 9990889221, 5862961095, 5862961098, 5862961094], "tags": {"amenity": "cafe", "building": "yes"}}, {"type": "way", "id": 725185847, "nodes": [6800399227, 6800399226, 6800399225, 6800399224, 6800399200, 6800399223, 6800399222, 6800399227], "tags": {"amenity": "restaurant", "building": "yes", "name": "White Beach Club", "source:geometry": "Bing Aerial Imagery"}}, {"type": "way", "id": 725185848, "nodes": [6800399233, 6800399232, 6800399231, 6800399230, 6800399229, 6800399228, 6800399233], "tags": {"amenity": "cafe", "building": "yes", "name": "Long Beach Caf\u00e8", "source:geometry": "Bing Aerial Imagery"}}, {"type": "way", "id": 729892712, "nodes": [6837353347, 6837353348, 6837353349, 6837353350, 6837353347], "tags": {"amenity": "restaurant", "building": "yes", "name": "Turismo rurale Li Muri"}}, {"type": "way", "id": 747520120, "nodes": [6994594267, 6994594261, 6994594256, 6994594262, 12348915360, 12348915359, 6994594264, 6994594267], "tags": {"amenity": "restaurant", "brand": "Doppio Malto", "brand:wikidata": "Q125285187", "building": "yes", "cuisine": "burger;italian;steak_house", "name": "Doppio Malto"}}, {"type": "way", "id": 961702692, "nodes": [8895861802, 8895861803, 1964898438, 8895861804, 8895861805, 8895861806, 8895861807, 8895861802], "tags": {"amenity": "restaurant", "building": "yes", "name": "Ristorante da Tonino"}}, {"type": "way", "id": 991429119, "nodes": [9160178697, 9160178696, 9160178695, 9160178694, 9160178693, 9160178692, 9160178697], "tags": {"amenity": "cafe", "check_date": "2024-06-22", "name": "Caff\u00e8 del Borgo", "outdoor_seating": "yes"}}, {"type": "way", "id": 1094045829, "nodes": [10020087815, 10020087816, 10020088917, 10020088918, 10020088919, 10020088920, 10020088921, 10020088922, 10020087815], "tags": {"amenity": "restaurant", "building": "yes"}}, {"type": "way", "id": 1298191996, "nodes": [12026757078, 12026757079, 12026757080, 12026757081, 12026757078], "tags": {"amenity": "cafe", "building": "yes"}}]}