{"version": 0.6, "generator": "Overpass API 0.7.62.7 375dc00a", "osm3s": {"timestamp_osm_base": "2025-06-14T15:20:06Z", "copyright": "The data included in this document is from www.openstreetmap.org. The data is made available under ODbL."}, "elements": [{"type": "node", "id": 2402891508, "lat": 40.9765428, "lon": 37.9643291, "tags": {"amenity": "cafe", "cuisine": "turkish", "name": "Sa\u011fra Cafe"}}, {"type": "node", "id": 2413014598, "lat": 40.9142213, "lon": 38.3758144, "tags": {"amenity": "cafe"}}, {"type": "node", "id": 2413014601, "lat": 40.9143753, "lon": 38.3759163, "tags": {"amenity": "restaurant"}}, {"type": "node", "id": 2919176479, "lat": 40.9189098, "lon": 38.3866907, "tags": {"amenity": "cafe", "name": "Hayaz Cafe"}}, {"type": "node", "id": 2919189215, "lat": 40.9224252, "lon": 38.3905424, "tags": {"amenity": "restaurant"}}, {"type": "node", "id": 2919233776, "lat": 40.9201471, "lon": 38.3862938, "tags": {"amenity": "restaurant", "name": "Park Veranda"}}, {"type": "node", "id": 3653982405, "lat": 40.9150752, "lon": 38.3230422, "tags": {"amenity": "restaurant", "name": "Merkezi Yemekhane"}}, {"type": "node", "id": 3750812745, "lat": 40.9172752, "lon": 38.3842566, "tags": {"amenity": "restaurant", "name": "Deniz Lokantasi", "note": "since 1953"}}, {"type": "node", "id": 3750813792, "lat": 40.9171593, "lon": 38.3865286, "tags": {"amenity": "cafe", "name": "Orta Kahve"}}, {"type": "node", "id": 3753094005, "lat": 40.9125997, "lon": 38.3730869, "tags": {"amenity": "restaurant", "name": "Sirena"}}, {"type": "node", "id": 4164474099, "lat": 40.9349941, "lon": 38.3042611, "tags": {"addr:street": "Ordu-Giresun yolu", "amenity": "cafe", "cuisine": "ice_cream;steak_house;pancake;burger;coffee_shop;breakfast;friture;pasta;cake;sandwich;bagel;hot_dog;sausage;chicken;turkish", "internet_access": "wlan", "name": "Metro Dinlenme Tesisi Kebir", "opening_hours": "24/7"}}, {"type": "node", "id": 4226479791, "lat": 40.7862221, "lon": 38.4074183, "tags": {"amenity": "restaurant", "name": "K\u00f6kev"}}, {"type": "node", "id": 4613842396, "lat": 40.9151313, "lon": 38.3384437, "tags": {"amenity": "cafe", "cuisine": "seafood", "name": "CANCAN M\u0130DYE"}}, {"type": "node", "id": 5188732121, "lat": 40.9044339, "lon": 38.3853427, "tags": {"amenity": "cafe", "name": "hasantepesi"}}, {"type": "node", "id": 5353842522, "lat": 40.9374341, "lon": 38.2233122, "tags": {"amenity": "restaurant", "cuisine": "turkish", "name": "lahmacum pide"}}, {"type": "node", "id": 6535456985, "lat": 40.9384895, "lon": 38.232444, "tags": {"addr:street": "Terazi Sokak", "amenity": "cafe", "name": "Romiko"}}, {"type": "node", "id": 6564779286, "lat": 40.7829973, "lon": 38.3134178, "tags": {"amenity": "restaurant", "name": "Da\u011f Evi"}}, {"type": "node", "id": 6716178883, "lat": 40.8982096, "lon": 38.408977, "tags": {"amenity": "cafe", "name": "Orta Kahve"}}, {"type": "node", "id": 7185063745, "lat": 40.9672448, "lon": 38.052451, "tags": {"amenity": "cafe"}}, {"type": "node", "id": 8491360593, "lat": 40.9736608, "lon": 37.9706528}, {"type": "node", "id": 8491360594, "lat": 40.9738478, "lon": 37.9706482}, {"type": "node", "id": 8491360595, "lat": 40.9738492, "lon": 37.9707461}, {"type": "node", "id": 8491360596, "lat": 40.9736622, "lon": 37.9707508}, {"type": "node", "id": 8491360597, "lat": 40.9741535, "lon": 37.9701659}, {"type": "node", "id": 8491360598, "lat": 40.9742167, "lon": 37.9701667}, {"type": "node", "id": 8491360599, "lat": 40.9742167, "lon": 37.9702047}, {"type": "node", "id": 8491360600, "lat": 40.9742535, "lon": 37.9702078}, {"type": "node", "id": 8491360601, "lat": 40.974265, "lon": 37.9702854}, {"type": "node", "id": 8491360602, "lat": 40.9742627, "lon": 37.9704073}, {"type": "node", "id": 8491360603, "lat": 40.9742426, "lon": 37.9705017}, {"type": "node", "id": 8491360604, "lat": 40.9741966, "lon": 37.9705024}, {"type": "node", "id": 8491360605, "lat": 40.9741955, "lon": 37.970558}, {"type": "node", "id": 8491360606, "lat": 40.9741512, "lon": 37.9705572}, {"type": "node", "id": 9981890817, "lat": 40.9180269, "lon": 38.3857858, "tags": {"amenity": "restaurant", "name": "Serender"}}, {"type": "node", "id": 10057163702, "lat": 40.913202, "lon": 38.345951, "tags": {"amenity": "restaurant", "name": "Giresun polisevi sosyal tesisleri"}}, {"type": "node", "id": 10057163741, "lat": 40.9141436, "lon": 38.3454264, "tags": {"amenity": "restaurant", "name": "Panorama Kahve"}}, {"type": "node", "id": 10057163749, "lat": 40.9158696, "lon": 38.3353595, "tags": {"amenity": "cafe", "name": "Filika F\u0131nd\u0131k Evi"}}, {"type": "node", "id": 10057163820, "lat": 40.9246032, "lon": 38.3163063, "tags": {"amenity": "restaurant", "name": "\u0130kram Pide"}}, {"type": "node", "id": 10057163833, "lat": 40.9252905, "lon": 38.3140731, "tags": {"amenity": "restaurant", "name": "Osmano\u011flu Menemen Restoran"}}, {"type": "node", "id": 10057163899, "lat": 40.9333727, "lon": 38.3058003, "tags": {"amenity": "cafe", "name": "Fat B\u00fcfe"}}, {"type": "node", "id": 10273103545, "lat": 40.9803036, "lon": 37.959742, "tags": {"addr:city": "Ordu", "amenity": "cafe", "name": "Black Sea Cafe"}}, {"type": "node", "id": 12014794354, "lat": 40.9071988, "lon": 38.3685349, "tags": {"amenity": "cafe", "name": "STARBUCKS"}}, {"type": "node", "id": 12291528357, "lat": 40.9195001, "lon": 37.9612745}, {"type": "node", "id": 12291528358, "lat": 40.919536, "lon": 37.9613093}, {"type": "node", "id": 12291528359, "lat": 40.9194677, "lon": 37.9614524}, {"type": "node", "id": 12291632462, "lat": 40.9402345, "lon": 37.9383629, "tags": {"amenity": "restaurant", "cuisine": "turkish", "name": "Fadik Anan\u0131n Yeri"}}, {"type": "node", "id": 12293583295, "lat": 40.9194292, "lon": 37.9614184}, {"type": "node", "id": 12293638204, "lat": 40.9194778, "lon": 37.9613785, "tags": {"addr:neighbourhood": "Topluca", "addr:street": "Sar\u0131ahmet Sokak", "amenity": "cafe", "internet_access": "no", "name": "Sar\u0131ahmet K\u0131raathanesi", "outdoor_seating": "no"}}, {"type": "node", "id": 12438543026, "lat": 40.7274187, "lon": 37.9284301}, {"type": "node", "id": 12438543027, "lat": 40.7274199, "lon": 37.9285911}, {"type": "node", "id": 12438543028, "lat": 40.7273053, "lon": 37.9285992}, {"type": "node", "id": 12438543029, "lat": 40.7273041, "lon": 37.9284382}, {"type": "node", "id": 12438543030, "lat": 40.7273583, "lon": 37.9285114, "tags": {"addr:city": "Ordu", "addr:district": "Kabad\u00fcz", "addr:street": "Eminem P\u0131nar\u0131 Mesire Yeri Sokak", "amenity": "restaurant", "cuisine": "turkish", "name": "G\u0131li G\u0131li Restoran"}}, {"type": "way", "id": 914126146, "nodes": [8491360593, 8491360594, 8491360595, 8491360596, 8491360593], "tags": {"amenity": "cafe", "building": "yes"}}, {"type": "way", "id": 914126147, "nodes": [8491360597, 8491360598, 8491360599, 8491360600, 8491360601, 8491360602, 8491360603, 8491360604, 8491360605, 8491360606, 8491360597], "tags": {"amenity": "cafe", "building": "yes", "name": "Ordu \u00dcniversitesi Merkezi Kantin"}}, {"type": "way", "id": 1328770482, "nodes": [12291528357, 12291528358, 12291528359, 12293583295, 12291528357], "tags": {"addr:neighbourhood": "Topluca", "addr:street": "Sar\u0131ahmet Sokak", "amenity": "cafe", "building": "yes", "internet_access": "no", "name": "Sar\u0131hamet K\u0131raathanesi", "outdoor_seating": "no"}}, {"type": "way", "id": 1344527852, "nodes": [12438543026, 12438543027, 12438543028, 12438543029, 12438543026], "tags": {"amenity": "restaurant", "building": "yes", "cuisine": "turkish"}}]}