{"version": 0.6, "generator": "Overpass API 0.7.62.7 375dc00a", "osm3s": {"timestamp_osm_base": "2025-06-14T14:36:09Z", "copyright": "The data included in this document is from www.openstreetmap.org. The data is made available under ODbL."}, "elements": [{"type": "node", "id": 293656609, "lat": 41.8543315, "lon": 20.9812467}, {"type": "node", "id": 293656610, "lat": 41.8556026, "lon": 20.9816112}, {"type": "node", "id": 293656611, "lat": 41.856792, "lon": 20.9819916}, {"type": "node", "id": 293656612, "lat": 41.8572919, "lon": 20.9821299}, {"type": "node", "id": 414619170, "lat": 41.5065603, "lon": 21.2151321, "tags": {"amenity": "restaurant", "cuisine": "chicken;diner;regional;pancake;sausage;coffee_shop;ice_cream;balkan;mediterranean;burger;fish;breakfast;grill", "internet_access": "wlan", "name": "Cardak", "opening_hours": "Mo-Su 08:00-02:00", "phone": "+38978420959"}}, {"type": "node", "id": 414619172, "lat": 41.5075223, "lon": 21.2177087, "tags": {"amenity": "restaurant", "name": "Lisec"}}, {"type": "node", "id": 414619173, "lat": 41.5069813, "lon": 21.2168806, "tags": {"amenity": "cafe", "name": "First"}}, {"type": "node", "id": 414619174, "lat": 41.5067247, "lon": 21.2163903, "tags": {"amenity": "cafe", "name": "\u041a\u0430\u0444\u0435 \u0411\u0430\u0440 \u0428", "name:en": "Cafe Bar \u0160"}}, {"type": "node", "id": 414620827, "lat": 41.5133537, "lon": 21.2165604, "tags": {"amenity": "cafe", "name": "Kardinal"}}, {"type": "node", "id": 419115353, "lat": 41.541066, "lon": 21.2442677, "tags": {"amenity": "restaurant", "cuisine": "fish", "email": "pesnamotel@yahoo.com", "int_name": "Pe\u0161na", "name": "\u041f\u0435\u0448\u043d\u0430", "name:en": "Peshna", "phone:1": "+389 75 44 64 10", "phone:2": "+389 76 432 432", "website": "www.pesnamotel.com.mk"}}, {"type": "node", "id": 1506640739, "lat": 41.591053, "lon": 21.4700306, "tags": {"amenity": "restaurant", "int_name": "Dzidan Most", "name": "\u0405\u0438\u0434\u0430\u043d \u041c\u043e\u0441\u0442", "name:en": "Dzidan Most"}}, {"type": "node", "id": 1704390070, "lat": 41.5108813, "lon": 20.9568436, "tags": {"amenity": "cafe", "name": "Republika"}}, {"type": "node", "id": 1704390079, "lat": 41.5129174, "lon": 20.9637041, "tags": {"amenity": "cafe"}}, {"type": "node", "id": 1704390097, "lat": 41.5098564, "lon": 20.9578247, "tags": {"amenity": "restaurant"}}, {"type": "node", "id": 1704390100, "lat": 41.5114391, "lon": 20.9588224, "tags": {"amenity": "cafe"}}, {"type": "node", "id": 1969643792, "lat": 41.6150472, "lon": 21.2205193, "tags": {"amenity": "restaurant", "cuisine": "fish", "int_name": "Izvor", "name": "\u0418\u0437\u0432\u043e\u0440", "name:en": "Izvor", "name:mk": "\u0418\u0437\u0432\u043e\u0440", "phone": "+389 45 275 200;+389 78 281 261;+388 70 950 009"}}, {"type": "node", "id": 2044394077, "lat": 41.8540226, "lon": 20.9810763}, {"type": "node", "id": 2044394501, "lat": 41.8541709, "lon": 20.9811291}, {"type": "node", "id": 2372341455, "lat": 41.5048339, "lon": 20.9557177}, {"type": "node", "id": 2372341456, "lat": 41.5048342, "lon": 20.9557966}, {"type": "node", "id": 2372341458, "lat": 41.5048706, "lon": 20.9555358}, {"type": "node", "id": 2372341459, "lat": 41.5048714, "lon": 20.9557174}, {"type": "node", "id": 2372341460, "lat": 41.5048914, "lon": 20.9557502}, {"type": "node", "id": 2372341461, "lat": 41.5048916, "lon": 20.9557961}, {"type": "node", "id": 2372341462, "lat": 41.5049947, "lon": 20.9555349}, {"type": "node", "id": 2372341463, "lat": 41.5049956, "lon": 20.9557494}, {"type": "node", "id": 2387561655, "lat": 41.5115542, "lon": 20.9508952, "tags": {"amenity": "restaurant", "cuisine": "regional", "name": "Atva"}}, {"type": "node", "id": 2387562256, "lat": 41.5058726, "lon": 20.9543387}, {"type": "node", "id": 2387562259, "lat": 41.5058845, "lon": 20.9542152}, {"type": "node", "id": 2387562280, "lat": 41.5059811, "lon": 20.9543572}, {"type": "node", "id": 2387562286, "lat": 41.505993, "lon": 20.9542338}, {"type": "node", "id": 2387562736, "lat": 41.5167836, "lon": 20.9516383}, {"type": "node", "id": 2387562738, "lat": 41.5168756, "lon": 20.9518913}, {"type": "node", "id": 2387562740, "lat": 41.5169357, "lon": 20.9514683}, {"type": "node", "id": 2387562741, "lat": 41.5169567, "lon": 20.951526}, {"type": "node", "id": 2387562742, "lat": 41.5170627, "lon": 20.9517699}, {"type": "node", "id": 2387562743, "lat": 41.5170836, "lon": 20.9518273}, {"type": "node", "id": 2387562744, "lat": 41.5171223, "lon": 20.9513472}, {"type": "node", "id": 2387562745, "lat": 41.5171395, "lon": 20.9513944}, {"type": "node", "id": 2387562746, "lat": 41.5172297, "lon": 20.9516511}, {"type": "node", "id": 2387562747, "lat": 41.5172537, "lon": 20.951717}, {"type": "node", "id": 2387562748, "lat": 41.5173052, "lon": 20.9512869}, {"type": "node", "id": 2387562749, "lat": 41.5173979, "lon": 20.9515419}, {"type": "node", "id": 3098482741, "lat": 41.5092313, "lon": 20.9586946, "tags": {"addr:housenumber": "16", "addr:street": "\u0420\u0443\u0434\u043d\u0438\u0447\u043a\u0430", "amenity": "cafe", "name": "Cross Roads"}}, {"type": "node", "id": 3822688281, "lat": 41.5068787, "lon": 21.2166228, "tags": {"amenity": "restaurant", "name": "\u041a\u0430\u0458 \u0427\u043e\u043c\u0435", "name:en": "Kaj Chome"}}, {"type": "node", "id": 3822729871, "lat": 41.5100518, "lon": 21.2196741, "tags": {"amenity": "cafe"}}, {"type": "node", "id": 3832555934, "lat": 41.545315, "lon": 21.2494143, "tags": {"amenity": "restaurant", "name": "\u041c\u0435\u0430\u043d\u0430 \u0414\u0435\u0434\u043e \u0418\u043b\u0438\u0458\u0430", "name:en": "Dedo Ilija"}}, {"type": "node", "id": 4190335990, "lat": 41.8453568, "lon": 20.9734955, "tags": {"amenity": "restaurant", "name": "Restaurant Oaza"}}, {"type": "node", "id": 4450584489, "lat": 41.8333963, "lon": 20.9685294, "tags": {"amenity": "cafe", "name": "\u0410\u043b\u0444\u0430"}}, {"type": "node", "id": 5005626154, "lat": 41.6513976, "lon": 21.4526464}, {"type": "node", "id": 5005626155, "lat": 41.6514277, "lon": 21.4525471}, {"type": "node", "id": 5005626161, "lat": 41.6517161, "lon": 21.4528192}, {"type": "node", "id": 5005626162, "lat": 41.6517462, "lon": 21.45272}, {"type": "node", "id": 5790395954, "lat": 41.5129092, "lon": 20.9632819, "tags": {"amenity": "cafe", "name": "Kvadrat", "name:en": "Kvadrar"}}, {"type": "node", "id": 5798868260, "lat": 41.7916113, "lon": 21.4234973, "tags": {"amenity": "restaurant", "name": "\u041f\u043b\u0430\u043d\u0438\u043d\u0430\u0440\u0441\u043a\u0438 \u0434\u043e\u043c \u041a\u0430\u0440\u0430\u045f\u0438\u0446\u0430"}}, {"type": "node", "id": 5849887489, "lat": 41.6798669, "lon": 21.25468, "tags": {"amenity": "restaurant", "name:en": "Beliza"}}, {"type": "node", "id": 5887799285, "lat": 41.5129834, "lon": 20.9600276, "tags": {"amenity": "cafe", "name": "Romanse", "name:mk": "Romansa"}}, {"type": "node", "id": 6148371886, "lat": 41.8366298, "lon": 20.9723139, "tags": {"amenity": "cafe", "internet_access": "wlan"}}, {"type": "node", "id": 6708162193, "lat": 41.8562461, "lon": 20.9818437}, {"type": "node", "id": 7714773224, "lat": 41.5079104, "lon": 20.9544522, "tags": {"amenity": "cafe", "name": "Cafe City"}}, {"type": "node", "id": 7714773225, "lat": 41.5120237, "lon": 20.9633009, "tags": {"amenity": "restaurant", "name": "Pizzeria Yahoo"}}, {"type": "node", "id": 7714773228, "lat": 41.5106546, "lon": 20.9586947, "tags": {"amenity": "restaurant", "name": "Iceberg"}}, {"type": "node", "id": 7714773229, "lat": 41.5093546, "lon": 20.959545, "tags": {"amenity": "cafe", "name": "Harely Bar"}}, {"type": "node", "id": 7714773230, "lat": 41.5095992, "lon": 20.96099, "tags": {"amenity": "cafe", "name": "Coffee & Snack Bar Checkin"}}, {"type": "node", "id": 7888434356, "lat": 41.812831, "lon": 21.3140054, "tags": {"addr:city": "Skopje", "addr:postcode": "1000", "addr:street": "Patishka Reka", "amenity": "restaurant", "cuisine": "pizza;burger;steak_house;donut", "diet:chicken": "yes", "diet:fish": "yes", "diet:halal": "yes", "diet:local": "yes", "diet:meat": "yes", "name": "Restaurant & Villa Reka", "opening_hours": "Mo-Su 08:00-22:00", "phone": "+38975455171"}}, {"type": "node", "id": 9103921296, "lat": 41.5254317, "lon": 21.415743}, {"type": "node", "id": 9103921297, "lat": 41.5253371, "lon": 21.415765}, {"type": "node", "id": 9103921298, "lat": 41.5253574, "lon": 21.4159205}, {"type": "node", "id": 9103921299, "lat": 41.525452, "lon": 21.4158985}, {"type": "node", "id": 9929491273, "lat": 41.875371, "lon": 20.9299937}, {"type": "node", "id": 9929491274, "lat": 41.8752745, "lon": 20.9299742}, {"type": "node", "id": 9929491275, "lat": 41.8752658, "lon": 20.9300495}, {"type": "node", "id": 9929491276, "lat": 41.8751689, "lon": 20.9300222}, {"type": "node", "id": 9929491277, "lat": 41.8751127, "lon": 20.9305167}, {"type": "node", "id": 9929491278, "lat": 41.8753055, "lon": 20.9305598}, {"type": "node", "id": 9929491279, "lat": 41.8753536, "lon": 20.9301516}, {"type": "node", "id": 9929491280, "lat": 41.8754213, "lon": 20.9292191}, {"type": "node", "id": 9929491281, "lat": 41.8754866, "lon": 20.9286368}, {"type": "node", "id": 9929491282, "lat": 41.8752584, "lon": 20.9285798}, {"type": "node", "id": 9929491283, "lat": 41.8751827, "lon": 20.929156}, {"type": "node", "id": 9929491284, "lat": 41.8753382, "lon": 20.9291964}, {"type": "node", "id": 9929491285, "lat": 41.8752342, "lon": 20.9287634}, {"type": "node", "id": 9929491286, "lat": 41.875035, "lon": 20.9287032}, {"type": "node", "id": 9929491287, "lat": 41.8749291, "lon": 20.9294234}, {"type": "node", "id": 9929491288, "lat": 41.8750909, "lon": 20.9294462}, {"type": "node", "id": 9929491289, "lat": 41.8751249, "lon": 20.9291458}, {"type": "node", "id": 10583703157, "lat": 41.6806477, "lon": 21.2545147, "tags": {"amenity": "restaurant", "int_name": "Restoran Belica", "source": "Bing"}}, {"type": "node", "id": 10736029322, "lat": 41.51176, "lon": 20.9640573, "tags": {"amenity": "restaurant", "name": "Piceria Lindi", "phone": "+389 45 216 000"}}, {"type": "node", "id": 10834525096, "lat": 41.5075467, "lon": 20.9522148, "tags": {"addr:city": "\u041a\u0438\u0447\u0435\u0432\u043e", "addr:postcode": "6250", "addr:street": "\u0418\u043b\u0438\u043d\u0434\u0435\u043d", "amenity": "restaurant", "cuisine": "pizza;burger;regional;coffee_shop;dessert;chocolate;salad;steak_house", "name": "Barcardi", "name:mk": "\u0411\u0430\u043a\u0430\u0440\u0434\u0438"}}, {"type": "node", "id": 10856625683, "lat": 41.5254439, "lon": 21.4158171}, {"type": "node", "id": 10951241536, "lat": 41.8892971, "lon": 21.2273388, "tags": {"addr:city": "\u0421\u0432\u0435\u0442\u0430 \u041f\u0435\u0442\u043a\u0430", "addr:housenumber": "100", "addr:postcode": "1000", "addr:street": "1", "air_conditioning": "yes", "amenity": "restaurant", "delivery": "no", "image": "https://encrypted-tbn0.gstatic.com/images?q=tbn:ANd9GcQvlcznZ4gOv8YyuqK505Wyzrj5M0LK7k-TJVFGJ_sDl5UsYxk6Ym7NyKLFiTWJ_ba5N8Y&usqp=CAU", "name": "Aurora Kozjak", "name:mk": "\u0410\u0443\u0440\u043e\u0440\u0430 \u041a\u043e\u0437\u0458\u0430\u043a", "opening_hours": "Mo-Su 11:00-19:00; Tu closed", "outdoor_seating": "yes", "payment:cash": "yes", "payment:credit_cards": "yes", "phone": "+38978369975", "toilets": "yes"}}, {"type": "node", "id": 10951438675, "lat": 41.8447869, "lon": 21.1047042, "tags": {"amenity": "cafe", "cuisine": "coffee_shop;tea", "name": "Guri.i.Kuq 1990", "opening_hours": "Mo-Sa 08:00-00:00", "phone": "+38970773675"}}, {"type": "node", "id": 10951466151, "lat": 41.8831867, "lon": 21.1275339, "tags": {"addr:city": "\u0421\u0435\u0434\u043b\u0430\u0440\u0435\u0432\u043e", "addr:housenumber": "101", "addr:postcode": "1000", "addr:street": "Sallarev", "amenity": "cafe", "cuisine": "coffee_shop;tea", "name": "Te Elmoo", "opening_hours": "24/7", "outdoor_seating": "yes", "phone": "+38971548228"}}, {"type": "node", "id": 10951511115, "lat": 41.8454595, "lon": 21.1080105, "tags": {"amenity": "cafe", "cuisine": "coffee_shop;tea", "name": "Euro Korab", "opening_hours": "Mo-Su 09:00-00:00", "outdoor_seating": "yes"}}, {"type": "node", "id": 10951513878, "lat": 41.8846485, "lon": 21.1249946, "tags": {"addr:city": "Sedlarevo", "addr:postcode": "1000", "amenity": "cafe", "cuisine": "coffee_shop", "name": "V.I.P Caffe SEMO", "outdoor_seating": "yes", "phone": "+38971230282"}}, {"type": "node", "id": 11112647111, "lat": 41.46784, "lon": 21.1225555, "tags": {"amenity": "cafe", "name": "Pod Chuka"}}, {"type": "node", "id": 11169756570, "lat": 41.587817, "lon": 21.0311745, "tags": {"amenity": "cafe", "name": "Rinia"}}, {"type": "node", "id": 11173775491, "lat": 41.4764566, "lon": 20.9854284, "tags": {"amenity": "restaurant", "name": "Swiss Ranch"}}, {"type": "node", "id": 11174391645, "lat": 41.6564972, "lon": 21.0225553, "tags": {"amenity": "restaurant", "cuisine": "regional", "name": "Driloni", "phone": "0038970556498", "website": "https://www.facebook.com/watch/?v=2344545275666048"}}, {"type": "node", "id": 11975912538, "lat": 41.4967773, "lon": 20.9476843, "tags": {"addr:city": "Ki\u010devo", "addr:housenumber": "1", "addr:postcode": "6250", "addr:street": "ul. Ivan Trpeski br.", "amenity": "restaurant", "facebook": "https://www.facebook.com/restorandvor2023?mibextid=LQQJ4d", "name": "\u0420\u0435\u0441\u0442\u043e\u0440\u0430\u043d \u0414\u0412\u041e\u0420", "name:en": "Restoran Dvor", "opening_hours": "Mo-Th 08:00-24:00; Fr-Sa 08:00-01:00; Su 12:00-24:00", "phone": "+38971362090"}}, {"type": "node", "id": 12236244315, "lat": 41.4863173, "lon": 21.3218534}, {"type": "node", "id": 12236244316, "lat": 41.4864968, "lon": 21.3215551}, {"type": "node", "id": 12236244317, "lat": 41.48662, "lon": 21.3216893}, {"type": "node", "id": 12236244318, "lat": 41.4864633, "lon": 21.3219441}, {"type": "node", "id": 12236244319, "lat": 41.4864773, "lon": 21.322207}, {"type": "node", "id": 12236244320, "lat": 41.4861016, "lon": 21.3222418}, {"type": "node", "id": 12236244321, "lat": 41.4860976, "lon": 21.3219119}, {"type": "node", "id": 12236244322, "lat": 41.4862664, "lon": 21.3218958}, {"type": "node", "id": 12286426071, "lat": 41.8573976, "lon": 20.9819693}, {"type": "node", "id": 12286426072, "lat": 41.8574824, "lon": 20.9813107}, {"type": "node", "id": 12286426075, "lat": 41.8557927, "lon": 20.9806846}, {"type": "node", "id": 12286426076, "lat": 41.8556232, "lon": 20.9808188}, {"type": "node", "id": 12286426105, "lat": 41.8576429, "lon": 20.9801643}, {"type": "node", "id": 12286426106, "lat": 41.8575581, "lon": 20.9813189}, {"type": "node", "id": 12286426107, "lat": 41.8539694, "lon": 20.9810716}, {"type": "node", "id": 12286426108, "lat": 41.853994, "lon": 20.9806033}, {"type": "node", "id": 12286426109, "lat": 41.8540455, "lon": 20.9806074}, {"type": "node", "id": 12286426110, "lat": 41.8540486, "lon": 20.9807538}, {"type": "node", "id": 12286426111, "lat": 41.854094, "lon": 20.9808513}, {"type": "node", "id": 12286426112, "lat": 41.8542454, "lon": 20.980957}, {"type": "node", "id": 12286426113, "lat": 41.8544331, "lon": 20.9810587}, {"type": "node", "id": 12286426114, "lat": 41.8552961, "lon": 20.9811074}, {"type": "node", "id": 12286426115, "lat": 41.8557837, "lon": 20.9802944}, {"type": "node", "id": 12286426116, "lat": 41.8558654, "lon": 20.9801561}, {"type": "node", "id": 12286426117, "lat": 41.8560441, "lon": 20.9799244}, {"type": "node", "id": 12286426118, "lat": 41.8562681, "lon": 20.9797333}, {"type": "node", "id": 12286426119, "lat": 41.8566557, "lon": 20.9795057}, {"type": "node", "id": 12286426120, "lat": 41.8568495, "lon": 20.9795016}, {"type": "node", "id": 12286426121, "lat": 41.8568526, "lon": 20.9800382}, {"type": "node", "id": 12286426122, "lat": 41.8575096, "lon": 20.9799488}, {"type": "node", "id": 12286426123, "lat": 41.8575157, "lon": 20.9801683}, {"type": "node", "id": 12289853535, "lat": 41.8900216, "lon": 20.9721571}, {"type": "node", "id": 12289853536, "lat": 41.8899768, "lon": 20.9719801}, {"type": "node", "id": 12289853537, "lat": 41.8898319, "lon": 20.9719129}, {"type": "node", "id": 12289853538, "lat": 41.8897055, "lon": 20.9719695}, {"type": "node", "id": 12289853539, "lat": 41.8896554, "lon": 20.9721358}, {"type": "node", "id": 12289853540, "lat": 41.8896976, "lon": 20.9723199}, {"type": "node", "id": 12289853541, "lat": 41.8898346, "lon": 20.9723942}, {"type": "node", "id": 12289853542, "lat": 41.889853, "lon": 20.9724827}, {"type": "node", "id": 12289853543, "lat": 41.8899821, "lon": 20.972426}, {"type": "node", "id": 12289853544, "lat": 41.8899716, "lon": 20.9723553}, {"type": "node", "id": 12289853545, "lat": 41.8900559, "lon": 20.9724225}, {"type": "node", "id": 12289853546, "lat": 41.8901112, "lon": 20.9722597}, {"type": "node", "id": 12289853547, "lat": 41.8900084, "lon": 20.9722066}, {"type": "node", "id": 12289853556, "lat": 41.8896694, "lon": 20.9721968}, {"type": "node", "id": 12798605351, "lat": 41.5124445, "lon": 21.2164217, "tags": {"amenity": "restaurant", "cuisine": "pizza", "name": "Klas"}}, {"type": "node", "id": 12828884517, "lat": 41.6575379, "lon": 21.0243596, "tags": {"amenity": "restaurant", "name": "Lisi", "phone": "0038975462013", "website": "https://www.facebook.com/LisiQafe/"}}, {"type": "node", "id": 12830150517, "lat": 41.5126587, "lon": 20.9617877}, {"type": "node", "id": 12830150518, "lat": 41.512659, "lon": 20.9619116}, {"type": "node", "id": 12830150519, "lat": 41.5125093, "lon": 20.9619122}, {"type": "node", "id": 12830150520, "lat": 41.512509, "lon": 20.9617883}, {"type": "way", "id": 228568803, "nodes": [2372341462, 2372341458, 2372341459, 2372341455, 2372341456, 2372341461, 2372341460, 2372341463, 2372341462], "tags": {"amenity": "restaurant", "building": "yes", "cuisine": "regional", "name": "Luna", "smoking": "yes"}}, {"type": "way", "id": 230233483, "nodes": [2387562748, 2387562749, 2387562746, 2387562747, 2387562743, 2387562742, 2387562738, 2387562736, 2387562741, 2387562740, 2387562744, 2387562745, 2387562748], "tags": {"amenity": "restaurant", "building": "commercial", "cuisine": "regional", "name": "Milenium"}}, {"type": "way", "id": 230233698, "nodes": [2387562286, 2387562280, 2387562256, 2387562259, 2387562286], "tags": {"amenity": "restaurant", "building": "yes", "name": "Restoran Kaj Mojso", "name:mk": "\u0420\u0435\u0441\u0442\u043e\u0440\u0430\u043d \u041a\u0430\u0458 \u041c\u043e\u0458\u0441\u043e"}}, {"type": "way", "id": 511807290, "nodes": [5005626162, 5005626161, 5005626154, 5005626155, 5005626162], "tags": {"amenity": "restaurant", "building": "yes", "cuisine": "seafood", "name": "Ribnik"}}, {"type": "way", "id": 984717434, "nodes": [9103921296, 9103921297, 9103921298, 9103921299, 10856625683, 9103921296], "tags": {"amenity": "cafe", "building": "yes", "name": "Caffe Bushi"}}, {"type": "way", "id": 1083507071, "nodes": [9929491273, 9929491274, 9929491275, 9929491276, 9929491277, 9929491278, 9929491279, 9929491273], "tags": {"amenity": "restaurant", "building": "yes", "name": "Bellavista 1&2"}}, {"type": "way", "id": 1083507072, "nodes": [9929491280, 9929491281, 9929491282, 9929491285, 9929491283, 9929491284, 9929491280], "tags": {"amenity": "restaurant", "building": "yes", "name": "Bellavista 3"}}, {"type": "way", "id": 1083507073, "nodes": [9929491285, 9929491286, 9929491287, 9929491288, 9929491289, 9929491283, 9929491285], "tags": {"amenity": "restaurant", "building": "yes", "name": "Bellavista 4"}}, {"type": "way", "id": 1322349753, "nodes": [12236244316, 12236244317, 12236244318, 12236244319, 12236244320, 12236244321, 12236244322, 12236244315, 12236244316], "tags": {"amenity": "restaurant", "building": "yes", "name": "\u041f\u0440\u0438\u043d\u0446", "name:en": "Princ", "name:mk": "\u041f\u0440\u0438\u043d\u0446"}}, {"type": "way", "id": 1327984165, "nodes": [12286426105, 12286426106, 12286426072, 12286426071, 293656612, 293656611, 6708162193, 293656610, 293656609, 2044394501, 2044394077, 12286426107, 12286426108, 12286426109, 12286426110, 12286426111, 12286426112, 12286426113, 12286426114, 12286426076, 12286426075, 12286426115, 12286426116, 12286426117, 12286426118, 12286426119, 12286426120, 12286426121, 12286426122, 12286426123, 12286426105], "tags": {"amenity": "restaurant", "contact:instagram": "fish_house_delfin", "cuisine": "macedonian;fish_and_chips;fish", "mobile": "+38975432435", "name": "\u0414\u0435\u043b\u0444\u0438\u043d", "name:en": "Fish House Delfin", "name:mk": "\u0414\u0435\u043b\u0444\u0438\u043d", "name:sq": "Fish House Delfin", "website": "http://fishhousedelfin.mk/"}}, {"type": "way", "id": 1328348769, "nodes": [12289853535, 12289853536, 12289853537, 12289853538, 12289853539, 12289853556, 12289853540, 12289853541, 12289853542, 12289853543, 12289853544, 12289853545, 12289853546, 12289853547, 12289853535], "tags": {"amenity": "restaurant", "building": "yes", "mobile": "+38978333320", "name": "\u041e\u043a\u0442\u0430\u0433\u043e\u043d \u041f\u0440\u0435\u043c\u0438\u0443\u043c \u041f\u0430\u043b\u0430\u0441", "name:en": "Oktagon Premium Palace", "name:mk": "\u041e\u043a\u0442\u0430\u0433\u043e\u043d \u041f\u0440\u0435\u043c\u0438\u0443\u043c \u041f\u0430\u043b\u0430\u0441", "name:sq": "Oktagon Premium Palace"}}, {"type": "way", "id": 1385763600, "nodes": [12830150517, 12830150518, 12830150519, 12830150520, 12830150517], "tags": {"amenity": "restaurant", "building": "yes", "name": "Avenue"}}]}