{"version": 0.6, "generator": "Overpass API 0.7.62.7 375dc00a", "osm3s": {"timestamp_osm_base": "2025-06-14T13:19:00Z", "copyright": "The data included in this document is from www.openstreetmap.org. The data is made available under ODbL."}, "elements": [{"type": "node", "id": 2520820910, "lat": 33.3594668, "lon": 6.8575853, "tags": {"addr:city": "\u0627\u0644\u0648\u0627\u062f\u064a", "addr:country": "DZ", "amenity": "cafe", "name": "\u0645\u0642\u0647\u0649 400 \u0645\u0633\u0643\u0646", "name:ar": "\u0645\u0642\u0647\u0649 400 \u0645\u0633\u0643\u0646", "name:fr": "Caf\u00e9 400 logt"}}, {"type": "node", "id": 2520820911, "lat": 33.3595531, "lon": 6.8572366, "tags": {"addr:city": "\u0627\u0644\u0648\u0627\u062f\u064a", "amenity": "cafe"}}, {"type": "node", "id": 2520820912, "lat": 33.3586995, "lon": 6.8563877, "tags": {"addr:city": "\u0627\u0644\u0648\u0627\u062f\u064a", "amenity": "cafe"}}, {"type": "node", "id": 4260981490, "lat": 33.3973335, "lon": 6.8309032, "tags": {"addr:country": "DZ", "amenity": "cafe", "name": "caf\u00e9 el ahbab"}}, {"type": "node", "id": 4580455389, "lat": 33.3575752, "lon": 6.8460369, "tags": {"addr:country": "DZ", "addr:street": "\u00c9vitement d'El Oued", "amenity": "cafe", "internet_access": "wlan", "name": "\u0645\u0642\u0647\u0649 \u0627\u0644\u0634\u064a\u0628\u0627\u0646\u064a", "name:ar": "\u0645\u0642\u0647\u0649 \u0627\u0644\u0634\u064a\u0628\u0627\u0646\u064a", "name:en": "caf\u00e9 CHIBANI", "name:fr": "caf\u00e9 CHIBANI", "opening_hours": "24/7"}}, {"type": "node", "id": 4607672545, "lat": 33.3812487, "lon": 6.8448691, "tags": {"addr:country": "DZ", "amenity": "cafe", "name": "\u0645\u0642\u0647\u0649 \u0627\u0644\u0642\u0648\u0633\u0637\u0648", "name:ar": "\u0645\u0642\u0647\u0649 \u0627\u0644\u0642\u0648\u0633\u0637\u0648", "name:fr": "Caf\u00e9 el Gosto"}}, {"type": "node", "id": 4607700334, "lat": 33.3810356, "lon": 6.8444023}, {"type": "node", "id": 4607700335, "lat": 33.3807534, "lon": 6.8445712}, {"type": "node", "id": 4607700336, "lat": 33.3808251, "lon": 6.8447456}, {"type": "node", "id": 4607700337, "lat": 33.3810894, "lon": 6.8445847}, {"type": "node", "id": 4793402521, "lat": 33.389616, "lon": 6.870805, "tags": {"addr:city": "\u0627\u0644\u0648\u0627\u062f\u064a", "addr:city:ar": "\u0627\u0644\u0648\u0627\u062f\u064a", "addr:place": "\u062d\u064a \u0627\u0644\u0634\u0637", "addr:place:ar": "\u062d\u064a \u0627\u0644\u0634\u0637", "addr:postcode": "39000", "amenity": "cafe", "name": "\u0642\u0647\u0648\u0629 \u0645\u0627\u0633\u064a", "name:ar": "\u0642\u0647\u0648\u0629 \u0645\u0627\u0633\u064a", "name:en": "Massi cafe", "name:fr": "Caf\u00e9t\u00e9ria massi"}}, {"type": "node", "id": 4881269321, "lat": 33.3603616, "lon": 6.859128, "tags": {"addr:city": "\u0627\u0644\u0648\u0627\u062f\u064a", "amenity": "cafe", "name": "\u0645\u0642\u0647\u0649 \u0627\u0644\u0642\u0631\u0636 \u0627\u0644\u0634\u0639\u0628\u064a", "name:ar": "\u0645\u0642\u0647\u0649 \u0627\u0644\u0642\u0631\u0636 \u0627\u0644\u0634\u0639\u0628\u064a", "name:fr": "Caf\u00e9 CPA"}}, {"type": "node", "id": 5040354021, "lat": 33.3634322, "lon": 6.8459207, "tags": {"addr:country": "DZ", "amenity": "cafe", "name": "\u0645\u0642\u0647\u0649 \u0627\u0644\u0646\u0648\u0631", "name:ar": "\u0645\u0642\u0647\u0649 \u0627\u0644\u0646\u0648\u0631", "name:en": "Ennour Cafe", "name:fr": "Caff\u00e9t\u00e9ria Ennour"}}, {"type": "node", "id": 5040366526, "lat": 33.3606831, "lon": 6.857583, "tags": {"addr:country": "DZ", "amenity": "cafe", "name": "\u0645\u0642\u0647\u0649 \u0627\u0644\u0628\u0646\u0643 \u0627\u0644\u062e\u0627\u0631\u062c\u064a", "name:ar": "\u0645\u0642\u0647\u0649 \u0627\u0644\u0628\u0646\u0643 \u0627\u0644\u062e\u0627\u0631\u062c\u064a", "name:fr": "Caf\u00e9 BEA"}}, {"type": "node", "id": 6090428085, "lat": 33.3627852, "lon": 6.8645169, "tags": {"addr:city": "\u0627\u0644\u0648\u0627\u062f\u064a", "addr:city:ar": "\u0627\u0644\u0648\u0627\u062f\u064a", "addr:description": "\u0639\u0645\u0631 \u062c\u064a\u0644\u0627\u0644\u064a", "addr:postcode": "39000", "amenity": "cafe", "cuisine": "tea;coffee_shop", "name": "\u0645\u0642\u0647\u0649 \u0632\u0642\u0627\u0642 \u0627\u0644\u0628\u064a\u0631\u0648", "name:ar": "\u0645\u0642\u0647\u0649 \u0632\u0642\u0627\u0642 \u0627\u0644\u0628\u064a\u0631\u0648", "name:en": "Zgag El bureau", "name:fr": "Zgag El bureau", "opening_hours": "Mo-Su 07:00-13:00, 16:00-18:00", "phone": "0775223326"}}, {"type": "node", "id": 6300352949, "lat": 33.3683121, "lon": 6.8514528, "tags": {"addr:city": "\u0627\u0644\u0648\u0627\u062f\u064a", "amenity": "restaurant", "cuisine": "chicken", "name": "\u0645\u0637\u0639\u0645 \u0627\u0644\u0633\u0644\u0627\u0645", "name:ar": "\u0645\u0637\u0639\u0645 \u0627\u0644\u0633\u0644\u0627\u0645", "name:fr": "Restaurant Essalam"}}, {"type": "node", "id": 6618901085, "lat": 33.2824721, "lon": 6.9073931, "tags": {"addr:city": "\u0627\u0644\u0631\u0628\u0627\u062d ROBBAH", "addr:country": "DZ", "addr:state": "EL OUED", "agglom\u00e9ration": "\u0627\u0644\u0640\u0631\u0628\u0640\u0640\u0640\u0640\u0640\u0640\u0627\u062d", "amenity": "cafe", "name": "\u0645\u0642\u0647\u0649 \u062d\u064a \u0627\u0644\u0623\u0645\u064a\u0631 \u0628\u0627\u0627\u0631\u0628\u0627\u062d", "name:ar": "\u0645\u0642\u0647\u0649 \u062d\u064a \u0627\u0644\u0623\u0645\u064a\u0631 \u0628\u0627\u0644\u0631\u0628\u0627\u062d", "name:en": "Cafe El Amir - Robbah -", "name:fr": "Caf\u00e9 \u00c9mir"}}, {"type": "node", "id": 8406193549, "lat": 33.3410391, "lon": 6.8662275, "tags": {"addr:city": "El Oued", "addr:postcode": "39000", "amenity": "cafe", "name": "\u0645\u0642\u0647\u0649 \u0627\u0644\u0633\u0644\u0627\u0645"}}, {"type": "node", "id": 8424554282, "lat": 33.3333712, "lon": 6.8636634, "tags": {"amenity": "restaurant"}}, {"type": "node", "id": 8424605565, "lat": 33.3342558, "lon": 6.8622905, "tags": {"amenity": "cafe"}}, {"type": "way", "id": 465861853, "nodes": [4607700334, 4607700335, 4607700336, 4607700337, 4607700334], "tags": {"amenity": "cafe", "building": "yes", "name": "\u0645\u0642\u0647\u0649 \u0627\u0644\u0648\u0626\u0627\u0645", "name:ar": "\u0645\u0642\u0647\u0649 \u0627\u0644\u0648\u0626\u0627\u0645", "name:fr": "Caf\u00e9 de la Concorde"}}]}