{"version": 0.6, "generator": "Overpass API 0.7.62.7 375dc00a", "osm3s": {"timestamp_osm_base": "2025-06-14T13:56:34Z", "copyright": "The data included in this document is from www.openstreetmap.org. The data is made available under ODbL."}, "elements": [{"type": "node", "id": 353084533, "lat": 41.8583813, "lon": 15.2929158, "tags": {"amenity": "restaurant", "cuisine": "regional", "name": "Piano delle Vigne"}}, {"type": "node", "id": 687277500, "lat": 42.0053784, "lon": 14.9966504, "tags": {"addr:city": "Termoli", "addr:housenumber": "10", "addr:postcode": "86039", "addr:street": "Vico Duomo VI", "amenity": "restaurant", "check_date": "2023-06-20", "cuisine": "regional;steak_house", "name": "Borgomastro"}}, {"type": "node", "id": 687319755, "lat": 42.0035882, "lon": 14.9963207, "tags": {"addr:city": "Termoli", "addr:housenumber": "13", "addr:postcode": "86039", "addr:street": "Via Roma", "amenity": "restaurant", "name": "da Nicolino"}}, {"type": "node", "id": 687322602, "lat": 42.0042886, "lon": 14.9973091, "tags": {"addr:city": "Termoli", "addr:housenumber": "30", "addr:postcode": "86039", "addr:street": "Via Duomo", "amenity": "restaurant", "cuisine": "seafood", "diet:non-vegetarian": "yes", "email": "ristorantefedericoII@hotmail.it", "mobile": "+39 3931495740", "name": "Federico II", "phone": "+39087585414", "ref:vatin": "IT01651970707", "website": "https://ristorantefedericoii.it/"}}, {"type": "node", "id": 779030617, "lat": 42.0023193, "lon": 14.9873544, "tags": {"amenity": "cafe"}}, {"type": "node", "id": 1151773414, "lat": 41.9865659, "lon": 15.0033115, "tags": {"addr:city": "Termoli", "addr:country": "IT", "addr:housenumber": "87", "addr:street": "Via Corsica", "amenity": "cafe", "name": "Esperanto Kafejo", "name:eo": "Esperanto Kafejo", "name:etymology:wikidata": "Q143", "ref:vatin": "IT01520990704"}}, {"type": "node", "id": 1151890592, "lat": 42.0009901, "lon": 14.9964918, "tags": {"amenity": "cafe", "name": "Bar Tre Stelle"}}, {"type": "node", "id": 1151890614, "lat": 42.0026819, "lon": 14.9961924, "tags": {"addr:city": "Termoli", "addr:housenumber": "48/50", "addr:postcode": "86039", "addr:street": "Via fratelli Ruffini", "amenity": "restaurant", "cuisine": "pizza;seafood", "diet:meat": "yes", "diet:seafood": "yes", "diet:vegetarian": "yes", "name": "Ristorante La Sacrestia", "ref:vatin": "IT00846520708"}}, {"type": "node", "id": 1151890738, "lat": 42.0023971, "lon": 14.9963797, "tags": {"addr:city": "Termoli", "addr:postcode": "86039", "addr:street": "Via fratelli Ruffini", "amenity": "restaurant", "name": "Marechiaro"}}, {"type": "node", "id": 1154172739, "lat": 41.9773454, "lon": 15.0009032, "tags": {"amenity": "cafe"}}, {"type": "node", "id": 1154186482, "lat": 41.9876298, "lon": 15.0006804}, {"type": "node", "id": 1154186503, "lat": 41.9878328, "lon": 15.0006475}, {"type": "node", "id": 1154186510, "lat": 41.9878614, "lon": 15.000967}, {"type": "node", "id": 1154186516, "lat": 41.9876584, "lon": 15.0009999}, {"type": "node", "id": 1154195377, "lat": 41.9982768, "lon": 14.9942607, "tags": {"addr:city": "Termoli", "addr:housenumber": "2", "addr:postcode": "86039", "addr:street": "Via Abruzzi", "amenity": "cafe", "name": "Caf\u00e8 de Paris"}}, {"type": "node", "id": 1154210889, "lat": 42.0045154, "lon": 14.9973413, "tags": {"addr:city": "Termoli", "addr:housenumber": "40", "addr:postcode": "86039", "addr:street": "Via Duomo", "amenity": "restaurant", "name": "Generale Custer"}}, {"type": "node", "id": 1154210890, "lat": 42.0045521, "lon": 14.9965624, "tags": {"addr:city": "Termoli", "addr:housenumber": "3", "addr:postcode": "86039", "addr:street": "Via Federico II di Svevia", "amenity": "restaurant", "check_date": "2023-06-20", "cuisine": "seafood;regional", "name": "Osteria Dentro le Mura", "outdoor_seating": "yes", "reservation": "yes", "smoking": "outside", "toilets": "yes"}}, {"type": "node", "id": 1157256426, "lat": 41.9989383, "lon": 14.9953297, "tags": {"amenity": "cafe"}}, {"type": "node", "id": 1157276947, "lat": 42.0010563, "lon": 14.9932621, "tags": {"amenity": "cafe", "check_date": "2023-07-30", "name": "Bar Centrale", "outdoor_seating": "no", "smoking": "outside"}}, {"type": "node", "id": 1157302003, "lat": 42.0015705, "lon": 14.9930494, "tags": {"amenity": "cafe", "name": "Bar della Posta"}}, {"type": "node", "id": 1157322778, "lat": 41.9973033, "lon": 14.9910842, "tags": {"amenity": "cafe", "name": "GiB\u00e9"}}, {"type": "node", "id": 1157322787, "lat": 41.9975129, "lon": 14.991056, "tags": {"amenity": "cafe", "name": "Kiss Bar"}}, {"type": "node", "id": 1163080894, "lat": 41.9984418, "lon": 14.9918156, "tags": {"amenity": "cafe"}}, {"type": "node", "id": 1240704060, "lat": 42.0034784, "lon": 14.9969405, "tags": {"addr:city": "Termoli", "addr:housenumber": "16", "addr:postcode": "86039", "addr:street": "Corso Fratelli Brigida", "amenity": "restaurant", "cuisine": "italian", "email": "info@alpescatore.org", "name": "Al Pescatore", "phone": "+39 875 706 692", "website": "https://www.alpescatore.org/"}}, {"type": "node", "id": 1240704079, "lat": 42.0035181, "lon": 14.9967195, "tags": {"addr:city": "Termoli", "addr:housenumber": "3", "addr:postcode": "86039", "addr:street": "Corso Fratelli Brigida", "amenity": "restaurant", "check_date": "2022-07-07", "cuisine": "italian", "name": "Sol e Mar"}}, {"type": "node", "id": 1241693859, "lat": 41.8564841, "lon": 15.3063628, "tags": {"amenity": "restaurant", "name": "Agriturismo Villa Michelangelo"}}, {"type": "node", "id": 1242247154, "lat": 41.9080092, "lon": 15.3378497, "tags": {"amenity": "restaurant"}}, {"type": "node", "id": 1242247156, "lat": 41.9135503, "lon": 15.3273139, "tags": {"amenity": "cafe"}}, {"type": "node", "id": 1242247182, "lat": 41.9162408, "lon": 15.3293846, "tags": {"amenity": "restaurant", "name": "Lido Sirena"}}, {"type": "node", "id": 1242247221, "lat": 41.9156181, "lon": 15.3281186, "tags": {"amenity": "restaurant", "name": "I due Galli"}}, {"type": "node", "id": 1242247257, "lat": 41.9095023, "lon": 15.3378926, "tags": {"amenity": "restaurant", "name": "La Rosa dei Venti"}}, {"type": "node", "id": 1242247259, "lat": 41.9121132, "lon": 15.3339444, "tags": {"amenity": "cafe"}}, {"type": "node", "id": 1242271186, "lat": 41.9119295, "lon": 15.3357146, "tags": {"amenity": "restaurant", "name": "Acapulco Due"}}, {"type": "node", "id": 1242819389, "lat": 41.9132432, "lon": 15.3340719, "tags": {"amenity": "restaurant"}}, {"type": "node", "id": 1242819429, "lat": 41.9136424, "lon": 15.3319584, "tags": {"amenity": "restaurant"}}, {"type": "node", "id": 1336511790, "lat": 42.0073955, "lon": 14.9731076}, {"type": "node", "id": 1336511794, "lat": 42.0072629, "lon": 14.9732838}, {"type": "node", "id": 1336511799, "lat": 42.0073742, "lon": 14.9732727}, {"type": "node", "id": 1336511811, "lat": 42.0072462, "lon": 14.973076}, {"type": "node", "id": 1336513039, "lat": 42.0065955, "lon": 14.9778005}, {"type": "node", "id": 1336513046, "lat": 42.0067149, "lon": 14.978133}, {"type": "node", "id": 1336513048, "lat": 42.0065718, "lon": 14.9780939}, {"type": "node", "id": 1336513051, "lat": 42.0067583, "lon": 14.9778451}, {"type": "node", "id": 1336534494, "lat": 42.0032587, "lon": 14.9978566, "tags": {"addr:city": "Termoli", "addr:housenumber": "16", "addr:postcode": "86039", "addr:street": "Via Carlo del Croix", "amenity": "restaurant", "cuisine": "italian", "name": "Recchi Fish"}}, {"type": "node", "id": 1336549530, "lat": 42.0031914, "lon": 14.9960406, "tags": {"addr:city": "Termoli", "addr:housenumber": "8", "addr:postcode": "86039", "addr:street": "Via Guglielmo Oberdan", "amenity": "restaurant", "check_date": "2022-07-08", "cuisine": "italian;regional;seafood", "name": "Z' Bass"}}, {"type": "node", "id": 1359903795, "lat": 41.9985105, "lon": 14.9784153, "tags": {"amenity": "restaurant", "branch": "RioVivo Est", "brand": "Autogrill", "brand:wikidata": "Q786790", "cuisine": "italian;regional", "name": "Autogrill"}}, {"type": "node", "id": 1446338436, "lat": 42.1142222, "lon": 15.4869052}, {"type": "node", "id": 1446338462, "lat": 42.1199011, "lon": 15.49581}, {"type": "node", "id": 1446338487, "lat": 42.1201514, "lon": 15.4957246}, {"type": "node", "id": 1446338775, "lat": 42.1199734, "lon": 15.4967204}, {"type": "node", "id": 1446338800, "lat": 42.1200261, "lon": 15.4956859}, {"type": "node", "id": 1446338900, "lat": 42.1151485, "lon": 15.4901799}, {"type": "node", "id": 1446338918, "lat": 42.1143605, "lon": 15.4870718}, {"type": "node", "id": 1446338955, "lat": 42.119897, "lon": 15.4958904}, {"type": "node", "id": 1446338957, "lat": 42.1197806, "lon": 15.4958875}, {"type": "node", "id": 1446338999, "lat": 42.114868, "lon": 15.4899919}, {"type": "node", "id": 1446339051, "lat": 42.1200819, "lon": 15.496744}, {"type": "node", "id": 1446339093, "lat": 42.1197964, "lon": 15.4959281}, {"type": "node", "id": 1446339095, "lat": 42.1197334, "lon": 15.4956704}, {"type": "node", "id": 1446339136, "lat": 42.1141529, "lon": 15.4870097}, {"type": "node", "id": 1446339146, "lat": 42.115202, "lon": 15.4900668}, {"type": "node", "id": 1446339211, "lat": 42.1200075, "lon": 15.4964363}, {"type": "node", "id": 1446339282, "lat": 42.1200636, "lon": 15.4954654}, {"type": "node", "id": 1446339396, "lat": 42.1201749, "lon": 15.4955868}, {"type": "node", "id": 1446339632, "lat": 42.1198583, "lon": 15.4959779}, {"type": "node", "id": 1446340038, "lat": 42.1198351, "lon": 15.4958406}, {"type": "node", "id": 1446340182, "lat": 42.1149394, "lon": 15.4898411}, {"type": "node", "id": 1446340254, "lat": 42.1142912, "lon": 15.4871763}, {"type": "node", "id": 1474058898, "lat": 41.8579815, "lon": 15.356836, "tags": {"amenity": "restaurant", "cuisine": "italian", "name": "La Conchiglia", "phone": "+39 0882 991282"}}, {"type": "node", "id": 1478901340, "lat": 41.8590004, "lon": 15.3568792, "tags": {"amenity": "restaurant", "cuisine": "italian", "name": "La Bisboccia", "phone": "+39 099 2991826"}}, {"type": "node", "id": 1478901341, "lat": 41.8621396, "lon": 15.3543365, "tags": {"amenity": "restaurant", "cuisine": "italian", "name": "La corte del Re", "phone": "+39 0882 991001"}}, {"type": "node", "id": 1478901342, "lat": 41.8665009, "lon": 15.3511542, "tags": {"amenity": "restaurant", "cuisine": "pizza", "name": "La cruna del Lago", "phone": "+39 339 6101531"}}, {"type": "node", "id": 1478901344, "lat": 41.8651602, "lon": 15.3544292, "tags": {"amenity": "restaurant", "cuisine": "italian", "name": "Le Antiche Sere", "phone": "+39 0882 991942", "website": "https://www.leantichesere.it/"}}, {"type": "node", "id": 1523530549, "lat": 41.9920222, "lon": 14.9769142, "tags": {"amenity": "cafe", "name": "Bar Tressette"}}, {"type": "node", "id": 1528584204, "lat": 42.0085595, "lon": 14.9624609}, {"type": "node", "id": 1528584217, "lat": 42.0085875, "lon": 14.9622282}, {"type": "node", "id": 1528584222, "lat": 42.0086481, "lon": 14.9624803}, {"type": "node", "id": 1528584223, "lat": 42.0086761, "lon": 14.9622475}, {"type": "node", "id": 1528620692, "lat": 42.0076891, "lon": 14.9702238}, {"type": "node", "id": 1528620693, "lat": 42.0077252, "lon": 14.9699563}, {"type": "node", "id": 1528620695, "lat": 42.0077652, "lon": 14.9702424}, {"type": "node", "id": 1528620696, "lat": 42.0077894, "lon": 14.9688543}, {"type": "node", "id": 1528620697, "lat": 42.0077966, "lon": 14.9699737}, {"type": "node", "id": 1528620698, "lat": 42.0078083, "lon": 14.9701224}, {"type": "node", "id": 1528620699, "lat": 42.0078418, "lon": 14.9684946}, {"type": "node", "id": 1528620701, "lat": 42.0079166, "lon": 14.9688224}, {"type": "node", "id": 1528620703, "lat": 42.0079638, "lon": 14.9684991}, {"type": "node", "id": 1925855101, "lat": 42.0049874, "lon": 15.0021785}, {"type": "node", "id": 1925855102, "lat": 42.0049945, "lon": 15.0022917}, {"type": "node", "id": 1925855103, "lat": 42.0049937, "lon": 15.0022408}, {"type": "node", "id": 1925855104, "lat": 42.0050097, "lon": 15.0022278}, {"type": "node", "id": 1925855107, "lat": 42.0050107, "lon": 15.0022785}, {"type": "node", "id": 1925855110, "lat": 42.0050541, "lon": 15.002124}, {"type": "node", "id": 1925855111, "lat": 42.0050525, "lon": 15.0024205}, {"type": "node", "id": 1925855113, "lat": 42.0050905, "lon": 15.0020944}, {"type": "node", "id": 1925855117, "lat": 42.0051641, "lon": 15.0022576}, {"type": "node", "id": 1925855118, "lat": 42.0051819, "lon": 15.0022431}, {"type": "node", "id": 1925855120, "lat": 42.0052055, "lon": 15.0022955}, {"type": "node", "id": 1939318224, "lat": 41.9540359, "lon": 15.027593}, {"type": "node", "id": 1939318226, "lat": 41.9540601, "lon": 15.0274577}, {"type": "node", "id": 1939318232, "lat": 41.9541466, "lon": 15.027629}, {"type": "node", "id": 1939318234, "lat": 41.9541709, "lon": 15.0274937}, {"type": "node", "id": 1939343875, "lat": 41.9521506, "lon": 15.0360558}, {"type": "node", "id": 1939343878, "lat": 41.9522077, "lon": 15.0361339}, {"type": "node", "id": 1939343880, "lat": 41.9522411, "lon": 15.035936}, {"type": "node", "id": 1939343882, "lat": 41.9522982, "lon": 15.0360141}, {"type": "node", "id": 2139919543, "lat": 41.9755525, "lon": 15.0102149, "tags": {"amenity": "cafe", "name": "Bar Esso"}}, {"type": "node", "id": 2149323062, "lat": 41.9208927, "lon": 15.1569941}, {"type": "node", "id": 2149323065, "lat": 41.9209293, "lon": 15.1568267}, {"type": "node", "id": 2149323066, "lat": 41.9209662, "lon": 15.1570231}, {"type": "node", "id": 2149323067, "lat": 41.9210027, "lon": 15.1568556}, {"type": "node", "id": 2152902942, "lat": 41.9725267, "lon": 14.9939311}, {"type": "node", "id": 2152902946, "lat": 41.9725711, "lon": 14.9938238}, {"type": "node", "id": 2152902950, "lat": 41.9726162, "lon": 14.9939982}, {"type": "node", "id": 2152902953, "lat": 41.9726607, "lon": 14.9938908}, {"type": "node", "id": 2189712090, "lat": 41.9413704, "lon": 14.9987681, "tags": {"addr:city": "Termoli", "addr:country": "IT", "addr:street": "Via Enrico Mattei", "amenity": "restaurant", "name": "Will. Matt.", "operator": "Guarino, Roberta", "phone": "+39 0875 752333", "ref:vatin": "IT01600270704"}}, {"type": "node", "id": 2219377943, "lat": 41.9995458, "lon": 14.9909623, "tags": {"addr:street": "Via Molise", "amenity": "cafe", "name": "Bar Tiffany"}}, {"type": "node", "id": 2228299200, "lat": 41.9986919, "lon": 14.9913487, "tags": {"addr:city": "Termoli", "addr:housenumber": "43", "addr:street": "Via Martiri della Resistenza", "amenity": "cafe", "name": "Le Gemelle", "operator": "Iuliani G. & A & C", "ref:vatin": "IT01498880705"}}, {"type": "node", "id": 2483295485, "lat": 42.1201041, "lon": 15.4965584}, {"type": "node", "id": 2483295486, "lat": 42.1200754, "lon": 15.4965521}, {"type": "node", "id": 2870534546, "lat": 42.1149492, "lon": 15.4900617}, {"type": "node", "id": 2870534548, "lat": 42.1149671, "lon": 15.4900239}, {"type": "node", "id": 2870534572, "lat": 42.1196744, "lon": 15.4957991}, {"type": "node", "id": 2870534573, "lat": 42.1196941, "lon": 15.4957561}, {"type": "node", "id": 2870534574, "lat": 42.1197208, "lon": 15.4958377}, {"type": "node", "id": 2870534575, "lat": 42.1198214, "lon": 15.4957984}, {"type": "node", "id": 2870534578, "lat": 42.119883, "lon": 15.4958497}, {"type": "node", "id": 2870534593, "lat": 42.1201564, "lon": 15.4955811}, {"type": "node", "id": 2870534594, "lat": 42.1201705, "lon": 15.4954985}, {"type": "node", "id": 2992256705, "lat": 42.1206428, "lon": 15.5045436, "tags": {"amenity": "restaurant", "cuisine": "regional", "name": "Il Torrione", "note": "Open year round.", "phone": "+39 333 684 4870"}}, {"type": "node", "id": 2995495888, "lat": 42.1194335, "lon": 15.5027166, "tags": {"amenity": "cafe", "check_date": "2023-06-19", "cuisine": "regional", "name": "Bar del Marinaio", "outdoor_seating": "yes"}}, {"type": "node", "id": 2995502260, "lat": 42.1203993, "lon": 15.5035692, "tags": {"addr:door": "1", "addr:housenumber": "1", "addr:street": "Via Diomede", "air_conditioning": "yes", "amenity": "cafe", "bar": "yes", "brand": "Pera", "capacity": "40", "check_date": "2023-06-19", "cuisine": "regional", "delivery": "no", "drive_through": "no", "highchair": "no", "internet_access": "no", "level": "0", "name": "Bar Nazionale", "opening_hours": "07:00-14:00,15:00-22:00", "outdoor_seating": "yes", "payment:cash": "yes", "payment:coins": "yes", "payment:credit_cards": "yes", "payment:mastercard": "yes", "payment:visa": "yes", "reservation": "no", "smoking": "outside", "source": "survey", "start_date": "1880-01-01", "takeaway": "no", "toilets": "yes", "toilets:wheelchair": "no", "wheelchair": "limited"}}, {"type": "node", "id": 2995523345, "lat": 42.1199238, "lon": 15.5021209, "tags": {"amenity": "restaurant", "check_date": "2023-06-19", "cuisine": "italian", "name": "L'Architiello", "operator": "Carolina"}}, {"type": "node", "id": 2995544026, "lat": 42.11989, "lon": 15.5019653, "tags": {"amenity": "cafe", "check_date": "2023-07-29", "name": "La conchiglia"}}, {"type": "node", "id": 2995715769, "lat": 42.1201946, "lon": 15.5026549, "tags": {"amenity": "cafe", "check_date": "2023-06-19", "name": "La Rosa dei Venti"}}, {"type": "node", "id": 3382999393, "lat": 42.0057371, "lon": 14.9751386, "tags": {"amenity": "restaurant", "name": "Poggio Costantino"}}, {"type": "node", "id": 3672931634, "lat": 42.0046558, "lon": 14.9974739, "tags": {"addr:city": "Termoli", "addr:housenumber": "43", "addr:postcode": "86039", "addr:street": "Via Duomo", "amenity": "restaurant", "cuisine": "pizza;italian", "name": "Pizzeria Sognadoro"}}, {"type": "node", "id": 3672942754, "lat": 42.0040115, "lon": 14.9977927}, {"type": "node", "id": 3672942755, "lat": 42.0040405, "lon": 14.9977364}, {"type": "node", "id": 3672942756, "lat": 42.0041049, "lon": 14.9978799}, {"type": "node", "id": 3672942757, "lat": 42.0041339, "lon": 14.9978235}, {"type": "node", "id": 3889586776, "lat": 41.9899496, "lon": 14.9937516}, {"type": "node", "id": 3889586777, "lat": 41.9900375, "lon": 14.9940431}, {"type": "node", "id": 3889586778, "lat": 41.9900771, "lon": 14.9936821}, {"type": "node", "id": 3889586779, "lat": 41.9901649, "lon": 14.9939736}, {"type": "node", "id": 3889591423, "lat": 41.9886038, "lon": 14.994056}, {"type": "node", "id": 3889591427, "lat": 41.9886548, "lon": 14.9938862}, {"type": "node", "id": 3889591435, "lat": 41.9887727, "lon": 14.9941478}, {"type": "node", "id": 3889591441, "lat": 41.9888237, "lon": 14.9939781}, {"type": "node", "id": 4056817260, "lat": 41.9164093, "lon": 15.327593}, {"type": "node", "id": 4056817278, "lat": 41.9164937, "lon": 15.3276367}, {"type": "node", "id": 4056817279, "lat": 41.9164948, "lon": 15.3272598}, {"type": "node", "id": 4056817288, "lat": 41.9165793, "lon": 15.3273}, {"type": "node", "id": 4072509308, "lat": 41.9160138, "lon": 15.3344388}, {"type": "node", "id": 4072509311, "lat": 41.9160155, "lon": 15.3346032}, {"type": "node", "id": 4072509312, "lat": 41.9160159, "lon": 15.3346386}, {"type": "node", "id": 4072509924, "lat": 41.9160947, "lon": 15.3346372}, {"type": "node", "id": 4072509925, "lat": 41.9160951, "lon": 15.3346758}, {"type": "node", "id": 4072509983, "lat": 41.9161454, "lon": 15.3346748}, {"type": "node", "id": 4072509984, "lat": 41.9161457, "lon": 15.3347007}, {"type": "node", "id": 4072510213, "lat": 41.9161737, "lon": 15.3344358}, {"type": "node", "id": 4072510214, "lat": 41.9161739, "lon": 15.3344526}, {"type": "node", "id": 4072510248, "lat": 41.9162175, "lon": 15.3344518}, {"type": "node", "id": 4072510251, "lat": 41.9162201, "lon": 15.3346993}, {"type": "node", "id": 4072566897, "lat": 41.8248605, "lon": 15.370902}, {"type": "node", "id": 4072566898, "lat": 41.8248628, "lon": 15.3708228}, {"type": "node", "id": 4072566910, "lat": 41.8248776, "lon": 15.3707619}, {"type": "node", "id": 4072566915, "lat": 41.8248803, "lon": 15.3708305}, {"type": "node", "id": 4072566962, "lat": 41.8249179, "lon": 15.3707808}, {"type": "node", "id": 4072566973, "lat": 41.8249267, "lon": 15.3707911}, {"type": "node", "id": 4072566975, "lat": 41.8249274, "lon": 15.3708364}, {"type": "node", "id": 4072566980, "lat": 41.8249321, "lon": 15.3708037}, {"type": "node", "id": 4072566985, "lat": 41.8249323, "lon": 15.3708177}, {"type": "node", "id": 4072567039, "lat": 41.8249901, "lon": 15.3709655}, {"type": "node", "id": 4072567043, "lat": 41.8249939, "lon": 15.3708683}, {"type": "node", "id": 4072567049, "lat": 41.8250028, "lon": 15.3708763}, {"type": "node", "id": 4072567060, "lat": 41.8250081, "lon": 15.3708866}, {"type": "node", "id": 4072567061, "lat": 41.8250085, "lon": 15.3709111}, {"type": "node", "id": 4072567062, "lat": 41.82501, "lon": 15.3708971}, {"type": "node", "id": 4249202352, "lat": 41.9939867, "lon": 14.997754, "tags": {"amenity": "restaurant", "name": "La voce del mare"}}, {"type": "node", "id": 4345534577, "lat": 42.119997, "lon": 15.4962575, "tags": {"amenity": "restaurant", "check_date": "2022-07-10", "cuisine": "pizza", "level": "0", "name": "La Livornese"}}, {"type": "node", "id": 4346015181, "lat": 41.8060982, "lon": 15.1588457, "tags": {"addr:housenumber": "52", "addr:street": "Corso Giuseppe Garibaldi", "amenity": "cafe", "name": "Bar Rouge"}}, {"type": "node", "id": 4346015393, "lat": 41.8060132, "lon": 15.1588242, "tags": {"amenity": "restaurant", "name": "Il rifugio dei sapori"}}, {"type": "node", "id": 4346015394, "lat": 41.8047076, "lon": 15.1599441, "tags": {"amenity": "restaurant", "cuisine": "fish", "name": "La Dolce Vita"}}, {"type": "node", "id": 4346015395, "lat": 41.8045537, "lon": 15.1595793, "tags": {"amenity": "restaurant", "cuisine": "pizza", "name": "La Stalla", "operator": "Raffaele La Torre", "outdoor_seating": "yes", "phone": "+39 345 1524632"}}, {"type": "node", "id": 4346015401, "lat": 41.8073972, "lon": 15.1597905, "tags": {"amenity": "restaurant", "name": "Ristorante Il Borgo"}}, {"type": "node", "id": 4351206255, "lat": 42.0025052, "lon": 14.9962212, "tags": {"amenity": "cafe", "name": "Bellini"}}, {"type": "node", "id": 4351206257, "lat": 42.002584, "lon": 14.9959785, "tags": {"addr:city": "Termoli", "addr:housenumber": "3", "addr:postcode": "86039", "addr:street": "Via Frentana", "amenity": "restaurant", "cuisine": "italian", "name": "Il Mosto Selvatico", "operator": "Mike Troiano", "ref:vatin": "IT01649530704"}}, {"type": "node", "id": 4351371897, "lat": 41.9232031, "lon": 15.1582226, "tags": {"amenity": "restaurant", "cuisine": "fish", "name": "Lido delle Sirene - Da Enzo", "operator": "De Santis sas", "phone": "+39 0882 689022", "ref:vatin": "IT03758070712"}}, {"type": "node", "id": 4360237792, "lat": 41.7961685, "lon": 15.431899, "tags": {"addr:postcode": "71011", "addr:street": "Contrada dell'Incoronata", "amenity": "restaurant", "cuisine": "regional;grill;seafood;mediterranean;friture;local;fine_dining;italian;italian_pizza", "name": "Tenuta Grotta degli Ulivi"}}, {"type": "node", "id": 5073280936, "lat": 41.9646918, "lon": 15.0502447}, {"type": "node", "id": 5073280937, "lat": 41.9645163, "lon": 15.0504512}, {"type": "node", "id": 5073280938, "lat": 41.9644253, "lon": 15.0503112}, {"type": "node", "id": 5073280939, "lat": 41.9646008, "lon": 15.0501047}, {"type": "node", "id": 5073291627, "lat": 41.9630996, "lon": 15.0521265}, {"type": "node", "id": 5073291628, "lat": 41.9629162, "lon": 15.0523143}, {"type": "node", "id": 5073291629, "lat": 41.9628387, "lon": 15.0521774}, {"type": "node", "id": 5073291630, "lat": 41.9630222, "lon": 15.0519896}, {"type": "node", "id": 5351039560, "lat": 41.8940019, "lon": 15.34551, "tags": {"amenity": "restaurant", "cuisine": "fish", "name": "In Laguna"}}, {"type": "node", "id": 5401170911, "lat": 41.9605344, "lon": 15.0524522}, {"type": "node", "id": 5401170912, "lat": 41.960805, "lon": 15.0530885}, {"type": "node", "id": 5401170913, "lat": 41.9606327, "lon": 15.0532531}, {"type": "node", "id": 5401170914, "lat": 41.9605072, "lon": 15.0530295}, {"type": "node", "id": 5401170915, "lat": 41.9603803, "lon": 15.0530641}, {"type": "node", "id": 5401170916, "lat": 41.9602729, "lon": 15.0528201}, {"type": "node", "id": 5401170917, "lat": 41.9603395, "lon": 15.0525843}, {"type": "node", "id": 5410345887, "lat": 41.9611917, "lon": 15.0554112}, {"type": "node", "id": 5410345888, "lat": 41.9612281, "lon": 15.0554853}, {"type": "node", "id": 5410345889, "lat": 41.9611852, "lon": 15.0555349}, {"type": "node", "id": 5410345890, "lat": 41.9613069, "lon": 15.0557535}, {"type": "node", "id": 5410345891, "lat": 41.9616001, "lon": 15.0554505}, {"type": "node", "id": 5410345892, "lat": 41.9616041, "lon": 15.0554223}, {"type": "node", "id": 5410345893, "lat": 41.9615742, "lon": 15.055366}, {"type": "node", "id": 5410345894, "lat": 41.9616041, "lon": 15.0552962}, {"type": "node", "id": 5410345895, "lat": 41.9616011, "lon": 15.055256}, {"type": "node", "id": 5410345896, "lat": 41.9615841, "lon": 15.0552211}, {"type": "node", "id": 5410345897, "lat": 41.9615712, "lon": 15.0552091}, {"type": "node", "id": 5410345898, "lat": 41.961638, "lon": 15.0551326}, {"type": "node", "id": 5410345899, "lat": 41.9615751, "lon": 15.0550361}, {"type": "node", "id": 5410345900, "lat": 41.961496, "lon": 15.0551146}, {"type": "node", "id": 5410345901, "lat": 41.9614742, "lon": 15.0550629}, {"type": "node", "id": 5410345902, "lat": 41.9614036, "lon": 15.0551755}, {"type": "node", "id": 5410345935, "lat": 41.9630168, "lon": 15.0519951}, {"type": "node", "id": 5511670158, "lat": 42.1205294, "lon": 15.4966416}, {"type": "node", "id": 5511670159, "lat": 42.120577, "lon": 15.4967041}, {"type": "node", "id": 5511670160, "lat": 42.1206047, "lon": 15.4966615}, {"type": "node", "id": 5511670161, "lat": 42.1205558, "lon": 15.4966037}, {"type": "node", "id": 5511670162, "lat": 42.1205428, "lon": 15.4966241}, {"type": "node", "id": 5613638117, "lat": 42.1143201, "lon": 15.4871327}, {"type": "node", "id": 5613638348, "lat": 42.1200872, "lon": 15.4964537}, {"type": "node", "id": 6172426312, "lat": 42.0005302, "lon": 14.9950154, "tags": {"addr:city": "Termoli", "addr:housenumber": "59", "addr:postcode": "86039", "addr:street": "Corso Umberto I", "air_conditioning": "yes", "amenity": "restaurant", "check_date": "2023-06-20", "cuisine": "regional;italian", "name": "da Antonio", "outdoor_seating": "yes", "reservation": "yes", "smoking": "outside", "source": "survey", "toilets": "yes", "wheelchair": "no"}}, {"type": "node", "id": 6172428869, "lat": 42.0007508, "lon": 14.9939491, "tags": {"addr:city": "Termoli", "addr:housenumber": "14", "addr:postcode": "86039", "addr:street": "Corso Umberto I", "amenity": "restaurant", "name": "La Perla Nera"}}, {"type": "node", "id": 6172433350, "lat": 42.0055463, "lon": 14.997376, "tags": {"addr:city": "Termoli", "addr:housenumber": "24", "addr:postcode": "86039", "addr:street": "Via Giudicato Vecchio", "amenity": "restaurant", "check_date": "2022-07-08", "cuisine": "regional;fish", "email": "info@svevia.it", "level": "0", "name": "Svevia", "opening_hours": "Tu-Su 12:30-14:30,20:00-22:30", "phone": "+39 0875 055 0284", "reservation": "yes", "website": "https://www.svevia.it/", "wheelchair": "limited"}}, {"type": "node", "id": 6172437109, "lat": 42.0049619, "lon": 14.9977455, "tags": {"addr:city": "Termoli", "addr:postcode": "86039", "addr:street": "Piazza Duomo", "amenity": "restaurant", "cuisine": "pizza", "name": "Diez"}}, {"type": "node", "id": 6172438007, "lat": 42.0048035, "lon": 14.9967767, "tags": {"addr:city": "Termoli", "addr:housenumber": "21", "addr:postcode": "86039", "addr:street": "Via Federico II di Svevia", "amenity": "restaurant", "check_date": "2023-06-20", "cuisine": "seafood", "name": "Eattico pesce di strada", "outdoor_seating": "yes", "reservation": "yes", "smoking": "outside", "source": "survey", "toilets": "yes"}}, {"type": "node", "id": 6172440384, "lat": 42.0040818, "lon": 14.9958102, "tags": {"addr:city": "Termoli", "addr:postcode": "86039", "addr:street": "Largo Pi\u00e8 di Castello", "amenity": "restaurant", "check_date": "2023-06-20", "cuisine": "seafood;regional", "name": "Oyster Fish"}}, {"type": "node", "id": 6172440385, "lat": 42.0040519, "lon": 14.9959382, "tags": {"addr:city": "Termoli", "addr:housenumber": "7", "addr:postcode": "86039", "addr:street": "Largo Pi\u00e8 di Castello", "amenity": "restaurant", "check_date": "2023-06-20", "cuisine": "pizza;italian", "name": "Spirito Divino", "outdoor_seating": "yes", "payment:mastercard": "yes", "payment:visa": "yes", "reservation": "yes"}}, {"type": "node", "id": 6172442725, "lat": 42.0036243, "lon": 14.9966412, "tags": {"addr:city": "Termoli", "addr:housenumber": "25/27", "addr:postcode": "86039", "addr:street": "Via Roma", "amenity": "restaurant", "cuisine": "regional;italian;fish;pizza", "diet:seafood": "yes", "diet:vegetarian": "yes", "name": "Il Grottino", "ref:vatin": "IT01880450703"}}, {"type": "node", "id": 6172442726, "lat": 42.0033206, "lon": 14.9960336, "tags": {"addr:city": "Termoli", "addr:housenumber": "14", "addr:postcode": "86039", "addr:street": "Via Guglielmo Oberdan", "amenity": "restaurant", "name": "Trattoria Nonna Maria"}}, {"type": "node", "id": 6172452727, "lat": 42.0023059, "lon": 14.9975048, "tags": {"addr:city": "Termoli", "addr:housenumber": "34", "addr:postcode": "86039", "addr:street": "Corso Vittorio Emanuele III", "amenity": "restaurant", "name": "Da Adele"}}, {"type": "node", "id": 6172456359, "lat": 42.0020338, "lon": 14.995963, "tags": {"addr:city": "Termoli", "addr:door": "2", "addr:housenumber": "10", "addr:postcode": "86039", "addr:street": "Via Borgo", "air_conditioning": "yes", "amenity": "restaurant", "bar": "no", "brewery": "no", "capacity": "30", "check_date": "2024-09-28", "cuisine": "regional;seafood", "delivery": "no", "diet:fish": "yes", "email": "ristoranteilborgo@gmail.com", "internet_access": "wlan", "internet_access:fee": "customers", "level": "0", "microbrewery": "no", "mobile": "+393470098843", "name": "Il Borgo", "opening_hours": "Tu-Sa 13:00-14:30,20:00-22:00", "operator": "Pino", "outdoor_seating": "yes", "payment:cash": "yes", "payment:credit_cards": "yes", "payment:debit_cards": "yes", "payment:mastercard": "yes", "payment:visa": "yes", "phone": "+39 0875 707347", "ref:vatin": "IT01604040707", "reservation": "recommended", "smoking": "outside", "source": "survey", "takeaway": "no", "toilets": "yes", "toilets:wheelchair": "no", "wheelchair": "limited"}}, {"type": "node", "id": 6172459123, "lat": 42.0026619, "lon": 14.9947957, "tags": {"addr:city": "Termoli", "addr:housenumber": "20", "addr:postcode": "86039", "addr:street": "Via Sannitica", "amenity": "restaurant", "name": "Don Giovanni"}}, {"type": "node", "id": 6172459124, "lat": 42.0023494, "lon": 14.9946932, "tags": {"addr:city": "Termoli", "addr:housenumber": "32", "addr:postcode": "86039", "addr:street": "Via Adriatica", "amenity": "restaurant", "name": "Trattoria L'Opera"}}, {"type": "node", "id": 6172463997, "lat": 42.0020292, "lon": 14.9926807, "tags": {"addr:city": "Termoli", "addr:housenumber": "12", "addr:postcode": "86039", "addr:street": "Via XXIV Maggio", "amenity": "restaurant", "name": "Il Binario dei Sapori"}}, {"type": "node", "id": 6172464359, "lat": 42.0023416, "lon": 14.9949672, "tags": {"addr:city": "Termoli", "addr:housenumber": "14", "addr:postcode": "86039", "addr:street": "Via Adriatica", "amenity": "restaurant", "name": "Al Solito Posto"}}, {"type": "node", "id": 6172464360, "lat": 42.002351, "lon": 14.9948187, "tags": {"addr:city": "Termoli", "addr:housenumber": "24", "addr:postcode": "86039", "addr:street": "Via Adriatica", "amenity": "restaurant", "name": "Miseria e Nobilt\u00e0"}}, {"type": "node", "id": 6172471023, "lat": 41.999192, "lon": 14.9884821, "tags": {"amenity": "cafe"}}, {"type": "node", "id": 6172475993, "lat": 42.0020665, "lon": 14.9919506, "tags": {"addr:city": "Termoli", "addr:housenumber": "27", "addr:postcode": "86039", "addr:street": "Via Duca degli Abruzzi", "amenity": "restaurant", "cuisine": "pizza", "name": "Amadeus"}}, {"type": "node", "id": 6172478384, "lat": 42.0021831, "lon": 14.9952915, "tags": {"addr:city": "Termoli", "addr:housenumber": "5", "addr:postcode": "86039", "addr:street": "Via D'Ovidio", "amenity": "restaurant", "name": "Symposium"}}, {"type": "node", "id": 6172485382, "lat": 41.9973512, "lon": 14.9936911, "tags": {"addr:city": "Termoli", "addr:housenumber": "6", "addr:postcode": "86039", "addr:street": "Via Sardegna", "amenity": "restaurant", "name": "L'antica Pignata"}}, {"type": "node", "id": 6172487317, "lat": 41.9972424, "lon": 14.9946639, "tags": {"addr:city": "Termoli", "addr:housenumber": "18", "addr:postcode": "86039", "addr:street": "Via Corsica", "amenity": "cafe", "name": "Adriatica"}}, {"type": "node", "id": 6172487914, "lat": 42.0000921, "lon": 14.9898565, "tags": {"addr:city": "Termoli", "addr:housenumber": "21", "addr:postcode": "86039", "addr:street": "Via Gennaro Perrotta", "amenity": "restaurant", "cuisine": "mexican", "name": "El Mexicano"}}, {"type": "node", "id": 6172494037, "lat": 42.00211, "lon": 14.9886683, "tags": {"addr:city": "Termoli", "addr:housenumber": "8", "addr:postcode": "86039", "addr:street": "Via Germania", "amenity": "restaurant", "name": "Il Rosso e il Nero"}}, {"type": "node", "id": 6177993250, "lat": 41.9974911, "lon": 14.9837665}, {"type": "node", "id": 6177993251, "lat": 41.9974613, "lon": 14.9838002}, {"type": "node", "id": 6177993252, "lat": 41.9974435, "lon": 14.9837719}, {"type": "node", "id": 6177993253, "lat": 41.9974733, "lon": 14.9837382}, {"type": "node", "id": 7872206685, "lat": 42.0011545, "lon": 14.9923393, "tags": {"amenity": "cafe", "check_date": "2023-06-20", "name": "Il Binario del Caff\u00e8", "operator": "Universal Caff\u00e8", "outdoor_seating": "no", "shop": "tobacco", "smoking": "no"}}, {"type": "node", "id": 8000567024, "lat": 42.0026311, "lon": 14.9968657, "tags": {"amenity": "restaurant", "name": "Endryu"}}, {"type": "node", "id": 8261651617, "lat": 41.9381836, "lon": 15.07707, "tags": {"amenity": "restaurant", "name": "I Sapori del Mare"}}, {"type": "node", "id": 9718588517, "lat": 41.9914901, "lon": 14.9734113, "tags": {"amenity": "restaurant", "fixme": "position", "name": "Dal Moro"}}, {"type": "node", "id": 9720365559, "lat": 42.0036058, "lon": 14.9970225, "tags": {"amenity": "restaurant", "name": "Toni"}}, {"type": "node", "id": 9721882954, "lat": 41.9980448, "lon": 14.9856107, "tags": {"amenity": "restaurant", "level": "0"}}, {"type": "node", "id": 9872324312, "lat": 42.0032572, "lon": 14.9954111, "tags": {"amenity": "restaurant", "check_date": "2022-07-07", "cuisine": "turkish"}}, {"type": "node", "id": 9874296605, "lat": 42.0029125, "lon": 14.9963995, "tags": {"addr:city": "Termoli", "addr:housenumber": "47", "addr:postcode": "86039", "addr:street": "Via fratelli Ruffini", "amenity": "restaurant", "check_date": "2022-07-08", "cuisine": "regional;italian;fish", "diet:vegetarian": "yes", "internet_access": "wlan", "internet_access:fee": "customers", "level": "0", "name": "Mari e Monti", "payment:cash": "yes", "payment:mastercard": "yes", "payment:visa": "yes", "phone": "+39 0875 706311", "ref:vatin": "IT01781340706"}}, {"type": "node", "id": 9874374494, "lat": 42.0029125, "lon": 14.9963995, "tags": {"amenity": "restaurant", "check_date": "2022-07-08", "cuisine": "regional;italian;fish", "diet:vegetarian": "yes", "internet_access": "wlan", "internet_access:fee": "customers", "level": "0", "name": "Mari e Monti", "outdoor_seating": "yes", "payment:mastercard": "yes", "payment:visa": "yes"}}, {"type": "node", "id": 9874984070, "lat": 42.0041432, "lon": 14.9905809, "tags": {"amenity": "restaurant", "check_date": "2022-07-08", "cuisine": "italian;regional", "highchair": "yes", "level": "0", "name": "Luna Restaurant", "outdoor_seating": "yes"}}, {"type": "node", "id": 9878450747, "lat": 42.0053903, "lon": 15.0028582, "tags": {"amenity": "cafe", "check_date": "2022-07-10", "level": "0", "name": "Fachiro Caff\u00e8"}}, {"type": "node", "id": 9878469701, "lat": 42.0055248, "lon": 15.0031549, "tags": {"amenity": "restaurant", "check_date": "2022-07-10", "name": "Il Porto", "wheelchair": "no"}}, {"type": "node", "id": 9878492523, "lat": 42.0056228, "lon": 15.0033504, "tags": {"amenity": "restaurant", "check_date": "2022-07-10", "name": "O.P. San Basso"}}, {"type": "node", "id": 9879173812, "lat": 42.1203323, "lon": 15.495319, "tags": {"amenity": "restaurant", "check_date": "2022-07-10", "level": "0", "name": "Rossana", "wheelchair": "yes"}}, {"type": "node", "id": 9881210057, "lat": 42.115254, "lon": 15.4930803}, {"type": "node", "id": 9881210058, "lat": 42.1152421, "lon": 15.4930556}, {"type": "node", "id": 9881210059, "lat": 42.1152692, "lon": 15.4930317}, {"type": "node", "id": 9881210060, "lat": 42.1152812, "lon": 15.4930565}, {"type": "node", "id": 9889710666, "lat": 42.008738, "lon": 14.9596534, "tags": {"amenity": "restaurant", "check_date": "2022-05-28", "cuisine": "italian;seafood", "internet_access": "wlan", "internet_access:fee": "customers", "name": "Torre Saracena", "opening_hours": "Tu-Sa 12:30-14:30,19:30-22:00; Su 12:30-14:30", "payment:mastercard": "yes", "payment:visa": "yes", "phone": "+39 0875 702160", "website": "https://www.torresinarca.it/"}}, {"type": "node", "id": 9897447521, "lat": 42.1206317, "lon": 15.4954604, "tags": {"addr:city": "Isole Tremiti", "addr:housenumber": "4A", "addr:postcode": "71040", "addr:street": "Via Federico II", "amenity": "cafe", "name": "La capannina"}}, {"type": "node", "id": 10019967507, "lat": 41.8654541, "lon": 15.3499912, "tags": {"addr:street": "Via Banchina Vollaro", "amenity": "restaurant", "cuisine": "fish", "name": "Lake caf\u00e8", "operator": "GMP Srls", "outdoor_seating": "yes", "ref:vatin": "IT04384090710", "takeaway": "yes"}}, {"type": "node", "id": 10019993592, "lat": 41.8231675, "lon": 15.3662816, "tags": {"addr:housenumber": "14", "addr:street": "Via Chiaramonte", "amenity": "cafe", "cuisine": "ice_cream", "name": "Caff\u00e8 Roma", "operator": "Nargiso Nicola", "outdoor_seating": "yes", "phone": "+39 0882 707291", "ref:vatin": "IT02072800713", "takeaway": "yes"}}, {"type": "node", "id": 10093389280, "lat": 42.0032269, "lon": 14.9962924, "tags": {"addr:city": "Termoli", "addr:housenumber": "70-74", "addr:postcode": "86039", "addr:street": "Via Ruffini", "amenity": "restaurant", "cuisine": "pizza", "name": "La Vecchia Napoli", "phone": "+39 0875 832 94", "ref:vatin": "IT01798850705"}}, {"type": "node", "id": 10098469643, "lat": 42.002661, "lon": 14.9968651, "tags": {"addr:city": "Termoli", "addr:housenumber": "48", "addr:postcode": "86039", "addr:street": "Corso Fratelli Brigida", "amenity": "cafe", "cuisine": "coffee_shop", "name": "About Coffee", "ref:vatin": "IT01831660707"}}, {"type": "node", "id": 10100748563, "lat": 42.0029187, "lon": 14.9955798, "tags": {"addr:city": "Termoli", "addr:housenumber": "27", "addr:postcode": "86039", "addr:street": "Corso Nazionale", "amenity": "cafe", "cuisine": "coffee;pastry", "name": "Twin Coffee", "ref:vatin": "03872540715"}}, {"type": "node", "id": 10211883764, "lat": 42.0033592, "lon": 14.9956372, "tags": {"amenity": "restaurant", "name": "Marea"}}, {"type": "node", "id": 10272969149, "lat": 41.997337, "lon": 14.9935325, "tags": {"amenity": "cafe", "name": "Ritz Caf\u00e8"}}, {"type": "node", "id": 10287183512, "lat": 41.9957845, "lon": 14.988845, "tags": {"amenity": "cafe"}}, {"type": "node", "id": 10287189926, "lat": 42.0006674, "lon": 14.9878881, "tags": {"amenity": "cafe"}}, {"type": "node", "id": 10287219113, "lat": 42.0011197, "lon": 14.9832125, "tags": {"addr:housenumber": "27", "addr:postcode": "86039", "addr:street": "Via Cortile", "amenity": "restaurant", "cuisine": "pizza", "name": "Pizza Fantasy", "phone": "+393389125507"}}, {"type": "node", "id": 10315707264, "lat": 41.9151741, "lon": 15.008941, "tags": {"amenity": "cafe", "name": "Bar Centrale"}}, {"type": "node", "id": 10642691510, "lat": 42.0041904, "lon": 14.9945278, "tags": {"addr:housenumber": "51", "addr:street": "Lungomare Cristoforo Colombo", "amenity": "restaurant", "cuisine": "fish", "name": "Salsedine", "website": "https://salsedine-cucina-di-mare.business.site/"}}, {"type": "node", "id": 10648894917, "lat": 42.0062493, "lon": 14.9812497}, {"type": "node", "id": 10648894919, "lat": 42.006215, "lon": 14.980964}, {"type": "node", "id": 10648894924, "lat": 42.0061898, "lon": 14.9812361}, {"type": "node", "id": 10648894925, "lat": 42.0061983, "lon": 14.9811684}, {"type": "node", "id": 10648894926, "lat": 42.0061894, "lon": 14.9811663}, {"type": "node", "id": 10648894927, "lat": 42.0062834, "lon": 14.9809797}, {"type": "node", "id": 10648894991, "lat": 42.0065901, "lon": 14.9779727}, {"type": "node", "id": 10648894992, "lat": 42.0065742, "lon": 14.9779684}, {"type": "node", "id": 10665791253, "lat": 42.0073633, "lon": 14.9732702}, {"type": "node", "id": 10665791254, "lat": 42.0073518, "lon": 14.973363}, {"type": "node", "id": 10665791255, "lat": 42.007256, "lon": 14.9733417}, {"type": "node", "id": 10665791256, "lat": 42.0072214, "lon": 14.9732745}, {"type": "node", "id": 10763981532, "lat": 42.0062073, "lon": 14.9792418}, {"type": "node", "id": 10763981533, "lat": 42.0061809, "lon": 14.9793891}, {"type": "node", "id": 10763981534, "lat": 42.0061076, "lon": 14.9793769}, {"type": "node", "id": 10763981535, "lat": 42.0061461, "lon": 14.9792113}, {"type": "node", "id": 10966668601, "lat": 41.788492, "lon": 15.4417583, "tags": {"addr:city": "Apricena", "addr:housenumber": "95", "addr:postcode": "71011", "addr:street": "Via Luigi Galasso", "amenity": "cafe", "cuisine": "pastry;ice_cream;coffee_shop", "internet_access": "wlan", "internet_access:fee": "customers", "name": "L'Arte di Luciano", "opening_hours": "Tu-Su 07:30-22:30", "outdoor_seating": "yes", "phone": "+39 0882 642589", "website": "https://www.lartediluciano.it/"}}, {"type": "node", "id": 10983966748, "lat": 42.115516, "lon": 15.4906838, "tags": {"amenity": "restaurant", "check_date": "2023-06-18", "name": "Panorama"}}, {"type": "node", "id": 10984551124, "lat": 42.1147322, "lon": 15.4902649, "tags": {"amenity": "restaurant", "check_date": "2023-06-18", "name": "Luna Matana"}}, {"type": "node", "id": 10984855569, "lat": 42.1128264, "lon": 15.4890937, "tags": {"amenity": "restaurant", "check_date": "2023-06-18", "name": "La Nassa"}}, {"type": "node", "id": 10984855570, "lat": 42.1130331, "lon": 15.4891673, "tags": {"amenity": "restaurant", "check_date": "2023-06-18", "name": "Insalatissime"}}, {"type": "node", "id": 10984855572, "lat": 42.1136043, "lon": 15.4896941, "tags": {"amenity": "restaurant", "check_date": "2023-06-18", "name": "Da Pio"}}, {"type": "node", "id": 10984855579, "lat": 42.1147229, "lon": 15.490905, "tags": {"amenity": "restaurant", "check_date": "2023-06-19", "level": "0", "name": "Da Arturo Santoro", "outdoor_seating": "yes", "source": "survey"}}, {"type": "node", "id": 10984855583, "lat": 42.1148964, "lon": 15.4911779, "tags": {"amenity": "restaurant", "check_date": "2023-06-18", "name": "Belvedere"}}, {"type": "node", "id": 10989168312, "lat": 42.1210335, "lon": 15.5038697, "tags": {"amenity": "restaurant", "check_date": "2023-06-19", "name": "Enrichetta"}}, {"type": "node", "id": 10989508144, "lat": 42.1145219, "lon": 15.4897653, "tags": {"amenity": "restaurant", "check_date": "2023-06-19", "name": "Peccato di Gola"}}, {"type": "node", "id": 10990164047, "lat": 42.1129626, "lon": 15.4887558, "tags": {"amenity": "restaurant", "check_date": "2023-06-19", "name": "L'altro Faro"}}, {"type": "node", "id": 10990255864, "lat": 42.112992, "lon": 15.488649, "tags": {"amenity": "restaurant", "check_date": "2023-06-19", "name": "Capa Tosta"}}, {"type": "node", "id": 10992486691, "lat": 42.002245, "lon": 14.9959446, "tags": {"amenity": "restaurant", "check_date": "2023-06-20", "cuisine": "pizza", "name": "I Due Archi"}}, {"type": "node", "id": 10992693055, "lat": 42.0022936, "lon": 14.9962806, "tags": {"amenity": "restaurant", "check_date": "2023-06-20", "cuisine": "italian", "name": "Osteria Vittoria"}}, {"type": "node", "id": 10992693058, "lat": 42.0029203, "lon": 14.9962563, "tags": {"amenity": "restaurant", "check_date": "2023-06-20", "name": "O' Cuopp"}}, {"type": "node", "id": 10992801069, "lat": 42.0033852, "lon": 14.9958617, "tags": {"amenity": "restaurant", "check_date": "2023-06-20", "name": "Nonna Maria"}}, {"type": "node", "id": 10994178001, "lat": 42.0001785, "lon": 14.9908602, "tags": {"amenity": "cafe", "check_date": "2023-06-21", "name": "Caf\u00e9 All Bets"}}, {"type": "node", "id": 10994225892, "lat": 42.000606, "lon": 14.9935257, "tags": {"amenity": "restaurant", "check_date": "2023-06-21", "cuisine": "pizza", "delivery": "yes", "name": "Ti prendo a pizze", "outdoor_seating": "no"}}, {"type": "node", "id": 10994225893, "lat": 42.0005525, "lon": 14.9945859, "tags": {"amenity": "restaurant", "check_date": "2023-06-21", "name": "La Trattoria", "operator": "Monika"}}, {"type": "node", "id": 10994243397, "lat": 42.0031685, "lon": 14.9969128, "tags": {"addr:housenumber": "28", "addr:postcode": "86038", "addr:street": "Corso Fratelli Brigida", "amenity": "restaurant", "check_date": "2023-06-21", "cuisine": "regional;seafood", "name": "Bellevue", "opening_hours": "Mo-Su 12:30-15:00, 19:00-23:00", "phone": "3382829136"}}, {"type": "node", "id": 10994243399, "lat": 42.0025078, "lon": 14.9968665, "tags": {"amenity": "restaurant", "check_date": "2023-06-21", "cuisine": "stea;steak_house"}}, {"type": "node", "id": 10994243404, "lat": 42.0013126, "lon": 14.9965378, "tags": {"amenity": "cafe", "check_date": "2023-06-21", "name": "Dream"}}, {"type": "node", "id": 11086753571, "lat": 42.0072594, "lon": 14.9730788}, {"type": "node", "id": 11086776449, "lat": 42.0078039, "lon": 14.9688581}, {"type": "node", "id": 11086776450, "lat": 42.0078131, "lon": 14.968795}, {"type": "node", "id": 11086776451, "lat": 42.0078927, "lon": 14.968508}, {"type": "node", "id": 11086776452, "lat": 42.0078966, "lon": 14.9684813}, {"type": "node", "id": 11201599993, "lat": 41.9553275, "lon": 15.0489386, "tags": {"addr:city": "Campomarino", "addr:housenumber": "34", "addr:postcode": "86042", "addr:street": "Via Don Luigi Sturzo", "amenity": "cafe", "contact:facebook": "https://www.facebook.com/350902611627068", "name": "Bar Colorado", "outdoor_seating": "yes", "phone": "+39 0875 539134"}}, {"type": "node", "id": 11201658209, "lat": 41.9585529, "lon": 15.0502077, "tags": {"addr:city": "Campomarino", "addr:housenumber": "138", "addr:postcode": "86042", "addr:street": "Via Alcide De Gasperi", "amenity": "cafe", "contact:facebook": "https://www.facebook.com/117451479666618", "name": "Piccolo Bar", "outdoor_seating": "yes"}}, {"type": "node", "id": 11201665856, "lat": 41.9580839, "lon": 15.052034, "tags": {"addr:city": "Campomarino", "addr:housenumber": "24", "addr:postcode": "81025", "addr:street": "Viale fratelli Kennedy", "amenity": "cafe", "contact:facebook": "https://www.facebook.com/278590405986605", "name": "Paradise Cafe Campomarino", "outdoor_seating": "yes"}}, {"type": "node", "id": 11201665862, "lat": 41.958442, "lon": 15.0521117, "tags": {"addr:city": "Campomarino", "addr:housenumber": "23", "addr:postcode": "81025", "addr:street": "Viale fratelli Kennedy", "amenity": "restaurant", "cuisine": "pizza", "name": "Pizzeria Ritrovo", "outdoor_seating": "yes"}}, {"type": "node", "id": 11202552976, "lat": 42.0048787, "lon": 14.9898415, "tags": {"addr:city": "Termoli", "addr:housenumber": "59", "addr:postcode": "86039", "addr:street": "Lungomare Cristoforo Colombo", "amenity": "restaurant", "name": "Lido La Lampara", "phone": "+39 0875704564"}}, {"type": "node", "id": 11214923486, "lat": 41.9975394, "lon": 14.9871339, "tags": {"addr:city": "Termoli", "addr:housenumber": "48", "addr:postcode": "86039", "addr:street": "Via Madonna delle Grazie", "amenity": "restaurant", "cuisine": "pizza", "name": "Pizzeria Basilico", "opening_hours": "We off", "phone": "+393396514595"}}, {"type": "node", "id": 11270694943, "lat": 41.8585979, "lon": 15.2917663, "tags": {"amenity": "restaurant", "name": "Ristorante Pizzeria Piano delle Vigne"}}, {"type": "node", "id": 11363885049, "lat": 41.958274, "lon": 15.0385538, "tags": {"amenity": "restaurant"}}, {"type": "node", "id": 11363915630, "lat": 41.9349471, "lon": 15.0923924}, {"type": "node", "id": 11363915631, "lat": 41.934829, "lon": 15.0923478}, {"type": "node", "id": 11363915632, "lat": 41.9348445, "lon": 15.0922736}, {"type": "node", "id": 11363915633, "lat": 41.9348191, "lon": 15.092041}, {"type": "node", "id": 11363915634, "lat": 41.934776, "lon": 15.0922477}, {"type": "node", "id": 11363915635, "lat": 41.934975, "lon": 15.092259}, {"type": "node", "id": 11363915636, "lat": 41.9349993, "lon": 15.092109}, {"type": "node", "id": 11363915637, "lat": 41.9349685, "lon": 15.0922565}, {"type": "node", "id": 11364737990, "lat": 41.9372592, "lon": 15.0848757, "tags": {"amenity": "cafe", "name": "Ewacaf\u00e8"}}, {"type": "node", "id": 11506211731, "lat": 41.9977248, "lon": 14.9911998, "tags": {"addr:street": "Via Alcide De Gasperi", "amenity": "cafe", "name": "Art Caf\u00e9", "opening_hours": "Mo-Sa 06:00-19:00"}}, {"type": "node", "id": 11513552876, "lat": 41.9976135, "lon": 14.9914838, "tags": {"amenity": "restaurant", "cuisine": "pizza", "name": "Pizzeria Piccoli Desideri", "opening_hours": "Mo,We-Su 17:30-23:00; PH open", "smoking": "outside", "takeaway": "yes"}}, {"type": "node", "id": 11640620626, "lat": 41.9985171, "lon": 14.9916044, "tags": {"amenity": "restaurant", "cuisine": "japanese", "name": "Haru Sushi"}}, {"type": "node", "id": 12105884725, "lat": 42.0005705, "lon": 14.9885971, "tags": {"amenity": "cafe"}}, {"type": "node", "id": 12132444675, "lat": 41.9995644, "lon": 14.9955665, "tags": {"amenity": "restaurant", "name": "Reborn"}}, {"type": "node", "id": 12265997923, "lat": 41.994511, "lon": 14.9988378, "tags": {"addr:city": "Termoli", "addr:housenumber": "110", "addr:postcode": "86039", "addr:street": "via di Rio Vivo", "amenity": "cafe", "cuisine": "dessert;ice_cream;bagel", "hookah": "yes", "name": "Obl\u00f2 Caff\u00e8 Hookah Lounge", "opening_hours": "Mo-Su 05:30-01:00", "outdoor_seating": "yes", "payment:cash": "yes", "payment:contactless": "yes", "payment:credit_cards": "yes", "payment:electronic_purses": "yes", "payment:notes": "yes", "payment:onchain": "yes", "payment:paypal": "yes", "phone": "+39 377 350 3219", "sciscia": "yes", "smoking": "isolated", "tobacco": "yes", "toilets": "yes", "toilets:wheelchair": "yes", "website": "https://www.oblocaffe.it/", "wheelchair": "yes"}}, {"type": "node", "id": 12466807701, "lat": 41.9988277, "lon": 14.9904797, "tags": {"amenity": "cafe"}}, {"type": "node", "id": 12895240188, "lat": 41.8161922, "lon": 15.0124843}, {"type": "node", "id": 12895240189, "lat": 41.8160614, "lon": 15.0125277}, {"type": "node", "id": 12895240190, "lat": 41.8161074, "lon": 15.0127932}, {"type": "node", "id": 12895240191, "lat": 41.8162493, "lon": 15.0127369}, {"type": "node", "id": 12895240192, "lat": 41.8162153, "lon": 15.0125867}, {"type": "way", "id": 99836792, "nodes": [1154186503, 1154186510, 1154186516, 1154186482, 1154186503], "tags": {"amenity": "restaurant", "building": "yes", "cuisine": "italian", "name": "Rosso Peperoncino"}}, {"type": "way", "id": 118900647, "nodes": [1336511790, 1336511799, 10665791253, 10665791254, 10665791255, 1336511794, 10665791256, 1336511811, 11086753571, 1336511790], "tags": {"amenity": "restaurant", "building": "retail", "building:levels": "2", "name": "Lido Alcione Fish Restaurant", "roof:shape": "flat"}}, {"type": "way", "id": 118900663, "nodes": [1336513039, 1336513051, 1336513046, 1336513048, 10648894991, 10648894992, 1336513039], "tags": {"amenity": "restaurant", "building": "yes", "building:levels": "1", "roof:shape": "flat"}}, {"type": "way", "id": 118900703, "nodes": [10648894919, 10648894927, 10648894917, 10648894924, 10648894925, 10648894926, 10648894919], "tags": {"amenity": "restaurant", "building": "yes", "building:levels": "1", "cuisine": "fish;pizza;italian"}}, {"type": "way", "id": 131417241, "nodes": [1446339146, 1446338900, 2870534548, 2870534546, 1446338999, 1446340182, 1446339146], "tags": {"amenity": "restaurant", "building": "yes", "check_date": "2023-06-19", "cuisine": "italian", "name": "Pizzeria Braceria \"La Fenice\"", "payment:mastercard": "yes", "payment:visa": "yes", "wheelchair": "yes"}}, {"type": "way", "id": 131417256, "nodes": [1446339095, 1446338462, 2870534578, 2870534575, 1446338957, 2870534574, 2870534572, 2870534573, 1446339095], "tags": {"amenity": "restaurant", "building": "yes", "check_date": "2023-06-19", "cuisine": "regional;italian", "name": "Bel Mare"}}, {"type": "way", "id": 131417324, "nodes": [1446339211, 5613638348, 2483295486, 2483295485, 1446339051, 1446338775, 1446339211], "tags": {"amenity": "restaurant", "building": "yes", "check_date": "2022-07-10", "name": "Ristorante Il Pirata"}}, {"type": "way", "id": 131417328, "nodes": [1446339282, 2870534594, 2870534593, 1446339396, 1446338487, 1446338800, 1446339282], "tags": {"amenity": "restaurant", "building": "yes", "name": "Ristorante Il Gambero"}}, {"type": "way", "id": 131417367, "nodes": [1446338436, 1446338918, 5613638117, 1446340254, 1446339136, 1446338436], "tags": {"addr:housenumber": "snc", "addr:postcode": "71040", "addr:street": "Via Beato Giovanni da Foligno", "air_conditioning": "no", "amenity": "restaurant", "bar": "yes", "brewery": "yes", "building": "yes", "capacity": "150", "check_date": "2023-06-19", "cuisine": "pizza", "internet_access": "wlan", "internet_access:fee": "customers", "internet_access:ssid": "Afurmicula", "level": "0", "name": "A' Furmicula", "operator": "Il Greco S.r.l.", "outdoor_seating": "yes", "payment:mastercard": "yes", "payment:visa": "yes", "phone": "+39 0882 463312", "ref:vatin": "01884580703", "reservation": "yes", "smoking": "outside", "source": "survey", "takeaway": "yes", "toilets": "yes", "wheelchair": "yes"}}, {"type": "way", "id": 131417373, "nodes": [1446339093, 1446340038, 1446338955, 1446339632, 1446339093], "tags": {"amenity": "cafe", "building": "yes", "check_date": "2022-07-10"}}, {"type": "way", "id": 139426838, "nodes": [1528584217, 1528584223, 1528584222, 1528584204, 1528584217], "tags": {"amenity": "restaurant", "building": "retail", "building:levels": "1"}}, {"type": "way", "id": 139431072, "nodes": [1528620693, 1528620697, 1528620698, 1528620695, 1528620692, 1528620693], "tags": {"amenity": "restaurant", "building": "retail", "building:levels": "1"}}, {"type": "way", "id": 139431075, "nodes": [1528620699, 11086776451, 11086776452, 1528620703, 1528620701, 11086776450, 11086776449, 1528620696, 1528620699], "tags": {"amenity": "restaurant", "building": "yes"}}, {"type": "way", "id": 182248603, "nodes": [1925855113, 1925855117, 1925855118, 1925855120, 1925855111, 1925855102, 1925855107, 1925855103, 1925855104, 1925855101, 1925855110, 1925855113], "tags": {"amenity": "cafe", "building": "yes", "building:levels": "1", "check_date": "2022-07-10", "name": "Caff\u00e8 del Porto", "outdoor_seating": "yes", "payment:mastercard": "yes", "payment:visa": "yes", "wheelchair": "limited"}}, {"type": "way", "id": 183534283, "nodes": [1939318226, 1939318234, 1939318232, 1939318224, 1939318226], "tags": {"amenity": "cafe", "building": "yes"}}, {"type": "way", "id": 183535657, "nodes": [1939343880, 1939343882, 1939343878, 1939343875, 1939343880], "tags": {"amenity": "cafe", "building": "yes"}}, {"type": "way", "id": 204955042, "nodes": [2149323067, 2149323065, 2149323062, 2149323066, 2149323067], "tags": {"amenity": "cafe", "building": "yes", "indoor_seating": "yes", "name": "Eni caf\u00e8 & shop", "operator": "Ga.Si. snc", "outdoor_seating": "yes", "phone": "+39 0882 689212", "ref:vatin": "IT03854300716", "wheelchair": "yes"}}, {"type": "way", "id": 205313371, "nodes": [2152902946, 2152902953, 2152902950, 2152902942, 2152902946], "tags": {"amenity": "cafe", "building": "yes"}}, {"type": "way", "id": 363087926, "nodes": [3672942754, 3672942755, 3672942757, 3672942756, 3672942754], "tags": {"addr:city": "Termoli", "addr:postcode": "86039", "addr:street": "Via del Porto", "amenity": "restaurant", "building": "yes", "name": "Taverna del Porto"}}, {"type": "way", "id": 385621431, "nodes": [3889586779, 3889586777, 3889586776, 3889586778, 3889586779], "tags": {"amenity": "restaurant", "building": "yes", "cuisine": "italian", "name": "La Quercia"}}, {"type": "way", "id": 385622064, "nodes": [3889591441, 3889591435, 3889591423, 3889591427, 3889591441], "tags": {"amenity": "restaurant", "building": "yes", "name": "La Gioconda"}}, {"type": "way", "id": 403322784, "nodes": [4056817288, 4056817278, 4056817260, 4056817279, 4056817288], "tags": {"amenity": "restaurant", "building": "yes", "layer": "1", "name": "Lido Albatros"}}, {"type": "way", "id": 405019681, "nodes": [4072509308, 4072510213, 4072510214, 4072510248, 4072510251, 4072509984, 4072509983, 4072509925, 4072509924, 4072509312, 4072509311, 4072509308], "tags": {"amenity": "restaurant", "building": "yes", "name": "Lido Ponente", "operator": "Baia Ponente Srl", "outdoor_seating": "yes", "phone": "+39 379 1349995", "ref:vatin": "IT03611790712"}}, {"type": "way", "id": 405029306, "nodes": [4072567039, 4072566897, 4072566915, 4072566898, 4072566910, 4072566962, 4072566973, 4072566980, 4072566985, 4072566975, 4072567043, 4072567049, 4072567060, 4072567062, 4072567061, 4072567039], "tags": {"amenity": "cafe", "building": "yes", "name": "Bar Tabaccheria", "operator": "Maximus Company Sas", "outdoor_seating": "yes", "shop": "tobacco", "takeaway": "yes"}}, {"type": "way", "id": 520526813, "nodes": [5073280939, 5073280936, 5073280937, 5073280938, 5073280939], "tags": {"amenity": "restaurant", "building": "yes", "name": "Lido Rosa dei Venti di Moscatiello Fabio"}}, {"type": "way", "id": 520528580, "nodes": [5073291630, 5073291627, 5073291628, 5073291629, 5410345935, 5073291630], "tags": {"amenity": "restaurant", "building": "yes", "name": "Lido Oasi Beach"}}, {"type": "way", "id": 560074318, "nodes": [5401170911, 5401170912, 5401170913, 5401170914, 5401170915, 5401170916, 5401170917, 5401170911], "tags": {"amenity": "restaurant", "building": "yes", "name": "Dancing Garden"}}, {"type": "way", "id": 561057683, "nodes": [5410345887, 5410345888, 5410345889, 5410345890, 5410345891, 5410345892, 5410345893, 5410345894, 5410345895, 5410345896, 5410345897, 5410345898, 5410345899, 5410345900, 5410345901, 5410345902, 5410345887], "tags": {"amenity": "restaurant", "building": "yes", "name": "Conchiglia Azzurra"}}, {"type": "way", "id": 574102261, "nodes": [5511670158, 5511670159, 5511670160, 5511670161, 5511670162, 5511670158], "tags": {"amenity": "cafe", "building": "yes", "check_date": "2023-06-20", "cuisine": "sandwich;ice_cream", "internet_access": "wlan", "internet_access:fee": "customers", "name": "Fatte cchi\u00f9 a' ll\u00e0", "outdoor_seating": "yes", "payment:mastercard": "yes", "payment:visa": "yes", "wheelchair": "yes"}}, {"type": "way", "id": 659857733, "nodes": [6177993250, 6177993251, 6177993252, 6177993253, 6177993250], "tags": {"amenity": "cafe", "building": "yes"}}, {"type": "way", "id": 1077714743, "nodes": [9881210060, 9881210059, 9881210058, 9881210057, 9881210060], "tags": {"amenity": "cafe", "building": "yes"}}, {"type": "way", "id": 1157454137, "nodes": [10763981532, 10763981533, 10763981534, 10763981535, 10763981532], "tags": {"addr:street": "Lungomare Cristoforo Colombo", "amenity": "cafe", "building": "yes", "name": "Megusta"}}, {"type": "way", "id": 1225404750, "nodes": [11363915636, 11363915633, 11363915634, 11363915632, 11363915631, 11363915630, 11363915635, 11363915637, 11363915636], "tags": {"amenity": "restaurant", "building": "yes", "indoor_seating": "yes", "name": "Le Fatine", "outdoor_seating": "yes", "wheelchair": "yes"}}, {"type": "way", "id": 1393071169, "nodes": [12895240192, 12895240191, 12895240190, 12895240189, 12895240188, 12895240192], "tags": {"amenity": "cafe", "name": "Gheddafy Caf\u00e8", "opening_hours": "6:00-2:00", "wheelchair": "yes"}}]}